{"type":"FeatureCollection","features":[{"type": "Feature", "id": "l6lZZUn2-AfgBb5T1qlbWVD9IX8=", "properties": {"ref": "anaheim-la-palma-ave", "@spider": "farmerboys", "amenity": "fast_food", "cuisine": "burger", "takeaway": "yes", "addr:street_address": "4150 E. La Palma Ave.", "addr:city": "Anaheim", "addr:state": "CA", "addr:postcode": "92807", "addr:country": "US", "name": "Anaheim - E. La Palma Ave.", "phone": "(714) 993-0990", "website": "https://www.farmerboys.com/locations/location-detail.php?loc=anaheim-la-palma-ave", "opening_hours": "Mo-Fr 05:00-22:00; Sa-Su 06:00-22:00", "brand": "Farmer Boys", "brand:wikidata": "Q5435711", "nsi_id": "farmerboys-4d2ff4"}, "geometry": {"type": "Point", "coordinates": [-117.826254, 33.858956]}},
{"type": "Feature", "id": "MXmRq7-veqHm0pm7lNcXFb4xspU=", "properties": {"ref": "anaheim-lincoln-ave", "@spider": "farmerboys", "amenity": "fast_food", "cuisine": "burger", "takeaway": "yes", "addr:street_address": "2800 W. Lincoln Ave.", "addr:city": "Anaheim", "addr:state": "CA", "addr:postcode": "92801", "addr:country": "US", "name": "Anaheim - W. Lincoln Ave.", "phone": "(714) 826-6350", "website": "https://www.farmerboys.com/locations/location-detail.php?loc=anaheim-lincoln-ave", "image": "https://www.farmerboys.com/images/locations/store-anaheim-lincoln.jpg", "brand": "Farmer Boys", "brand:wikidata": "Q5435711", "nsi_id": "farmerboys-4d2ff4"}, "geometry": {"type": "Point", "coordinates": [-117.985042, 33.831759]}},
{"type": "Feature", "id": "NBeDhFg-06kudcBew4GMLRARE_s=", "properties": {"ref": "bakersfield-california-ave", "@spider": "farmerboys", "amenity": "fast_food", "cuisine": "burger", "takeaway": "yes", "addr:street_address": "5544 California Ave.", "addr:city": "Bakersfield", "addr:state": "CA", "addr:postcode": "93309", "addr:country": "US", "name": "Bakersfield - California Ave.", "phone": "(661) 322-3600", "website": "https://www.farmerboys.com/locations/location-detail.php?loc=bakersfield-california-ave", "opening_hours": "Mo-Th 07:00-20:00; Fr-Sa 07:00-21:00; Su 07:00-20:00", "image": "https://www.farmerboys.com/images/locations/store-bakersfield-california-ave.jpg", "brand": "Farmer Boys", "brand:wikidata": "Q5435711", "nsi_id": "farmerboys-4d2ff4"}},
{"type": "Feature", "id": "op8SDFqIJFAT-A8Y9TKc7jkEVAs=", "properties": {"ref": "bakersfield-gosford-rd", "@spider": "farmerboys", "amenity": "fast_food", "cuisine": "burger", "takeaway": "yes", "addr:street_address": "4920 Gosford Rd.", "addr:city": "Bakersfield", "addr:state": "CA", "addr:postcode": "93313", "addr:country": "US", "name": "Bakersfield - Gosford Rd. ", "phone": "(661) 871-5700", "website": "https://www.farmerboys.com/locations/location-detail.php?loc=bakersfield-gosford-rd", "opening_hours": "Mo-Th 07:00-20:00; Fr-Sa 07:00-21:00; Su 07:00-20:00", "image": "https://www.farmerboys.com/images/locations/store-bakersfield-gosford-ave.jpg", "brand": "Farmer Boys", "brand:wikidata": "Q5435711", "nsi_id": "farmerboys-4d2ff4"}, "geometry": {"type": "Point", "coordinates": [-119.091735, 35.309937]}},
{"type": "Feature", "id": "84N5rcz6WQwTFcW_Q8KreYMR_Sk=", "properties": {"ref": "bakersfield-haley-st", "@spider": "farmerboys", "amenity": "fast_food", "cuisine": "burger", "takeaway": "yes", "addr:street_address": "2617 Haley St.", "addr:city": "Bakersfield", "addr:state": "CA", "addr:postcode": "93305", "addr:country": "US", "name": "Bakersfield - Haley St.", "phone": "(661) 654-8300", "website": "https://www.farmerboys.com/locations/location-detail.php?loc=bakersfield-haley-st", "opening_hours": "Mo-Su 07:00-15:00", "brand": "Farmer Boys", "brand:wikidata": "Q5435711", "nsi_id": "farmerboys-4d2ff4"}, "geometry": {"type": "Point", "coordinates": [-118.975959, 35.396605]}},
{"type": "Feature", "id": "8UiK4I64urhrJQSZF3xz5ySVQxE=", "properties": {"ref": "baldwin-park-merced-ave", "@spider": "farmerboys", "amenity": "fast_food", "cuisine": "burger", "takeaway": "yes", "addr:street_address": "14430 Merced Ave.", "addr:city": "Baldwin Park", "addr:state": "CA", "addr:postcode": "91706", "addr:country": "US", "name": "Baldwin Park - Merced Ave.", "phone": "(626) 856-1000", "website": "https://www.farmerboys.com/locations/location-detail.php?loc=baldwin-park-merced-ave", "image": "https://www.farmerboys.com/images/locations/store-baldwin-park-merced.jpg", "brand": "Farmer Boys", "brand:wikidata": "Q5435711", "nsi_id": "farmerboys-4d2ff4"}, "geometry": {"type": "Point", "coordinates": [-117.962104, 34.072683]}},
{"type": "Feature", "id": "JBXNafOxNrkP615zMzgBWMSxWsA=", "properties": {"ref": "beaumont-2nd-street-marketplace", "@spider": "farmerboys", "amenity": "fast_food", "cuisine": "burger", "takeaway": "yes", "addr:street_address": "1538 2nd St. Marketplace", "addr:city": "Beaumont", "addr:state": "CA", "addr:postcode": "92223", "addr:country": "US", "name": "Beaumont - 2nd St. Marketplace", "phone": "(951) 845-4414", "website": "https://www.farmerboys.com/locations/location-detail.php?loc=beaumont-2nd-street-marketplace", "opening_hours": "Mo-Sa 06:00-21:00; Su 07:00-21:00", "image": "https://www.farmerboys.com/images/locations/store-beaumont-2nd-marketplace.jpg", "brand": "Farmer Boys", "brand:wikidata": "Q5435711", "nsi_id": "farmerboys-4d2ff4"}, "geometry": {"type": "Point", "coordinates": [-116.956538, 33.923217]}},
{"type": "Feature", "id": "Ucq0OkK9h3xcmGxDsOuSN0W7AaU=", "properties": {"ref": "bloomington-south-riverside-ave", "@spider": "farmerboys", "amenity": "fast_food", "cuisine": "burger", "takeaway": "yes", "addr:street_address": "3356 S. Riverside Ave.", "addr:city": "Bloomington", "addr:state": "CA", "addr:postcode": "92316", "addr:country": "US", "name": "Bloomington - S. Riverside Ave.", "phone": "(951) 248-1244", "website": "https://www.farmerboys.com/locations/location-detail.php?loc=bloomington-south-riverside-ave", "opening_hours": "Mo-Sa 06:00-22:00; Su 07:00-22:00", "image": "https://www.farmerboys.com/images/locations/store-bloomington-riverside-ave.jpg", "brand": "Farmer Boys", "brand:wikidata": "Q5435711", "nsi_id": "farmerboys-4d2ff4"}, "geometry": {"type": "Point", "coordinates": [-117.367757, 34.03887]}},
{"type": "Feature", "id": "IgzQqkNxeVTc_zDP5bB4c8uPrA8=", "properties": {"ref": "bloomington-valley-blvd", "@spider": "farmerboys", "amenity": "fast_food", "cuisine": "burger", "takeaway": "yes", "addr:street_address": "18694 Valley Blvd.", "addr:city": "Bloomington", "addr:state": "CA", "addr:postcode": "92316", "addr:country": "US", "name": "Bloomington - Valley Blvd.", "phone": "(909) 873-5800", "website": "https://www.farmerboys.com/locations/location-detail.php?loc=bloomington-valley-blvd", "opening_hours": "Mo-Sa 06:00-22:00; Su 07:00-22:00", "image": "https://www.farmerboys.com/images/locations/store-bloomington-valley.jpg", "brand": "Farmer Boys", "brand:wikidata": "Q5435711", "nsi_id": "farmerboys-4d2ff4"}, "geometry": {"type": "Point", "coordinates": [-117.396634, 34.070685]}},
{"type": "Feature", "id": "bQFPJxWsLBkfKF40hot1fASpjJI=", "properties": {"ref": "brea-lambert-rd", "@spider": "farmerboys", "amenity": "fast_food", "cuisine": "burger", "takeaway": "yes", "addr:street_address": "500 W. Lambert Rd.", "addr:city": "Brea", "addr:state": "CA", "addr:postcode": "92821", "addr:country": "US", "name": "Brea - W. Lambert Rd.", "phone": "(714) 990-2424", "website": "https://www.farmerboys.com/locations/location-detail.php?loc=brea-lambert-rd", "opening_hours": "Mo-Th 06:00-21:00; Fr-Sa 06:00-22:00; Su 07:00-21:00", "image": "https://www.farmerboys.com/images/locations/store-brea-lambert.jpg", "brand": "Farmer Boys", "brand:wikidata": "Q5435711", "nsi_id": "farmerboys-4d2ff4"}, "geometry": {"type": "Point", "coordinates": [-117.902041, 33.924327]}},
{"type": "Feature", "id": "J7yC9PwRgpiQDiCTJVqKlpdTyXc=", "properties": {"ref": "buena-park-lincoln-ave", "@spider": "farmerboys", "amenity": "fast_food", "cuisine": "burger", "takeaway": "yes", "addr:street_address": "6001 Lincoln Ave.", "addr:city": "Buena Park", "addr:state": "CA", "addr:postcode": "90620", "addr:country": "US", "name": "Buena Park - Lincoln Ave.", "phone": "(714) 826-2280", "website": "https://www.farmerboys.com/locations/location-detail.php?loc=buena-park-lincoln-ave", "opening_hours": "Mo-Th 06:00-22:00; Fr-Sa 06:00-23:00; Su 07:00-22:00", "image": "https://www.farmerboys.com/images/locations/store-buena-park-lincoln.jpg", "brand": "Farmer Boys", "brand:wikidata": "Q5435711", "nsi_id": "farmerboys-4d2ff4"}, "geometry": {"type": "Point", "coordinates": [-118.027883, 33.832193]}},
{"type": "Feature", "id": "AjbSnWRF8JIYESrz0pH-mnUbBLw=", "properties": {"ref": "ceres-mitchell-rd", "@spider": "farmerboys", "amenity": "fast_food", "cuisine": "burger", "takeaway": "yes", "addr:street_address": "3908 Mitchell Rd.", "addr:city": "Ceres", "addr:state": "CA", "addr:postcode": "95307", "addr:country": "US", "name": "Ceres - Mitchell Rd. ", "phone": " (209) 531-2410", "website": "https://www.farmerboys.com/locations/location-detail.php?loc=ceres-mitchell-rd", "opening_hours": "Mo-Th 06:00-22:00; Fr-Sa 06:00-23:00; Su 07:00-22:00", "image": "https://www.farmerboys.com/images/locations/store-ceres-mitchell-rd.jpg", "brand": "Farmer Boys", "brand:wikidata": "Q5435711", "nsi_id": "farmerboys-4d2ff4"}, "geometry": {"type": "Point", "coordinates": [-120.93818, 37.581093]}},
{"type": "Feature", "id": "_3FXLnFgUMZHbu1iB-27HnuR0GE=", "properties": {"ref": "chatsworth-nordoff-st", "@spider": "farmerboys", "amenity": "fast_food", "cuisine": "burger", "takeaway": "yes", "addr:street_address": "20810 W. Nordhoff St.", "addr:city": "Chatsworth", "addr:state": "CA", "addr:postcode": "91311", "addr:country": "US", "name": "Chatsworth - W. Nordhoff St.", "phone": "(818) 993-1072", "website": "https://www.farmerboys.com/locations/location-detail.php?loc=chatsworth-nordoff-st", "brand": "Farmer Boys", "brand:wikidata": "Q5435711", "nsi_id": "farmerboys-4d2ff4"}, "geometry": {"type": "Point", "coordinates": [-118.586599, 34.235453]}},
{"type": "Feature", "id": "EsgnFJf38gaBaXya_hrWqO_5v04=", "properties": {"ref": "chino-central-ave", "@spider": "farmerboys", "amenity": "fast_food", "cuisine": "burger", "takeaway": "yes", "addr:street_address": "13675 Central Ave.", "addr:city": "Chino", "addr:state": "CA", "addr:postcode": "91710", "addr:country": "US", "name": "Chino - Central Ave.", "phone": "(909) 548-4400", "website": "https://www.farmerboys.com/locations/location-detail.php?loc=chino-central-ave", "opening_hours": "Mo-Sa 06:00-21:00; Su 07:00-21:00", "brand": "Farmer Boys", "brand:wikidata": "Q5435711", "nsi_id": "farmerboys-4d2ff4"}, "geometry": {"type": "Point", "coordinates": [-117.688691, 34.005481]}},
{"type": "Feature", "id": "TFRlIexM95hE9FokzJOSZ4m0YTg=", "properties": {"ref": "chino-kimbal-ave", "@spider": "farmerboys", "amenity": "fast_food", "cuisine": "burger", "takeaway": "yes", "addr:street_address": "7031 Kimball Ave. ", "addr:city": "Chino", "addr:state": "CA", "addr:postcode": "91708", "addr:country": "US", "name": "Chino - Kimball Ave.", "phone": "(909) 248 - 4934", "website": "https://www.farmerboys.com/locations/location-detail.php?loc=chino-kimbal-ave", "brand": "Farmer Boys", "brand:wikidata": "Q5435711", "nsi_id": "farmerboys-4d2ff4"}},
{"type": "Feature", "id": "gISZtMICMXqnn_JNKmsuhWtLSY0=", "properties": {"ref": "clovis-herndon-ave", "@spider": "farmerboys", "amenity": "fast_food", "cuisine": "burger", "takeaway": "yes", "addr:street_address": "745 Herndon Ave.", "addr:city": "Clovis", "addr:state": "CA", "addr:postcode": "93612", "addr:country": "US", "name": "Clovis - W. Herndon Ave.", "phone": "(559) 299-0049", "website": "https://www.farmerboys.com/locations/location-detail.php?loc=clovis-herndon-ave", "opening_hours": "Mo-Th 06:00-22:00; Fr-Sa 06:00-23:00; Su 06:00-22:00", "image": "https://www.farmerboys.com/images/locations/store-clovis-w-herndon-ave.jpg", "brand": "Farmer Boys", "brand:wikidata": "Q5435711", "nsi_id": "farmerboys-4d2ff4"}, "geometry": {"type": "Point", "coordinates": [-119.726832, 36.838096]}},
{"type": "Feature", "id": "PUe2Hcqn-dRtIoNEtP4V2-g9Vj4=", "properties": {"ref": "commerce-telegraph-rd", "@spider": "farmerboys", "amenity": "fast_food", "cuisine": "burger", "takeaway": "yes", "addr:street_address": "6315 Telegraph Rd.", "addr:city": "Commerce ", "addr:state": "CA", "addr:postcode": "90040", "addr:country": "US", "name": "Commerce - Telegraph Rd.", "phone": "(323) 727-5000", "website": "https://www.farmerboys.com/locations/location-detail.php?loc=commerce-telegraph-rd", "opening_hours": "Mo-Su 05:00-23:30", "brand": "Farmer Boys", "brand:wikidata": "Q5435711", "nsi_id": "farmerboys-4d2ff4"}, "geometry": {"type": "Point", "coordinates": [-118.143198, 33.9949]}},
{"type": "Feature", "id": "4XCDot3785v0mlfMSqno1JqTpe4=", "properties": {"ref": "corona-6th-st", "@spider": "farmerboys", "amenity": "fast_food", "cuisine": "burger", "takeaway": "yes", "addr:street_address": "1625 E. 6th St.", "addr:city": "Corona", "addr:state": "CA", "addr:postcode": "92879", "addr:country": "US", "name": "Corona - E. 6th St.", "phone": "(951) 737-3411", "website": "https://www.farmerboys.com/locations/location-detail.php?loc=corona-6th-st", "opening_hours": "Mo-Su 07:30-19:00", "brand": "Farmer Boys", "brand:wikidata": "Q5435711", "nsi_id": "farmerboys-4d2ff4"}, "geometry": {"type": "Point", "coordinates": [-117.531553, 33.874052]}},
{"type": "Feature", "id": "sVHGbiw7QBPkjjhKv-MQGWtN3xU=", "properties": {"ref": "corona-lincoln-ave", "@spider": "farmerboys", "amenity": "fast_food", "cuisine": "burger", "takeaway": "yes", "addr:street_address": "263 N. Lincoln Ave.", "addr:city": "Corona", "addr:state": "CA", "addr:postcode": "92882", "addr:country": "US", "name": "Corona - N. Lincoln Ave.", "phone": "(951) 520-0077", "website": "https://www.farmerboys.com/locations/location-detail.php?loc=corona-lincoln-ave", "opening_hours": "Mo-Fr 06:00-21:00; Sa 07:00-21:00; Su 08:00-20:00", "image": "https://www.farmerboys.com/images/locations/store-corona-lincoln-ave.jpg", "brand": "Farmer Boys", "brand:wikidata": "Q5435711", "nsi_id": "farmerboys-4d2ff4"}, "geometry": {"type": "Point", "coordinates": [-117.581365, 33.886788]}},
{"type": "Feature", "id": "80i98n3dGGxBhYqT63f6iXTKDjE=", "properties": {"ref": "covina-grand-ave", "@spider": "farmerboys", "amenity": "fast_food", "cuisine": "burger", "takeaway": "yes", "addr:street_address": "701 N. Grand Ave.", "addr:city": "Covina", "addr:state": "CA", "addr:postcode": "91724", "addr:country": "US", "name": "Covina - N. Grand Ave.", "phone": "(626) 858-5255", "website": "https://www.farmerboys.com/locations/location-detail.php?loc=covina-grand-ave", "opening_hours": "Mo-Th 07:00-20:30; Fr-Sa 07:00-21:00; Su 07:00-20:30", "image": "https://www.farmerboys.com/images/locations/store-covina-grand.jpg", "brand": "Farmer Boys", "brand:wikidata": "Q5435711", "nsi_id": "farmerboys-4d2ff4"}, "geometry": {"type": "Point", "coordinates": [-117.872907, 34.092786]}},
{"type": "Feature", "id": "bCVuVwMKxSZI9GE_-x6j6WyxggU=", "properties": {"ref": "eastvale-limonite-ave", "@spider": "farmerboys", "amenity": "fast_food", "cuisine": "burger", "takeaway": "yes", "addr:street_address": "12545 Limonite Ave...", "addr:city": "Eastvale", "addr:state": "CA", "addr:postcode": "91752", "addr:country": "US", "name": "Eastvale - Limonite Ave.", "phone": "(951) 685-9200", "website": "https://www.farmerboys.com/locations/location-detail.php?loc=eastvale-limonite-ave", "opening_hours": "Mo-Su 05:00-01:00", "image": "https://www.farmerboys.com/images/locations/store-eastvale-limonite-ave.jpg", "brand": "Farmer Boys", "brand:wikidata": "Q5435711", "nsi_id": "farmerboys-4d2ff4"}, "geometry": {"type": "Point", "coordinates": [-117.55604, 33.975511]}},
{"type": "Feature", "id": "O05GbIokhWJiCRHU0cT4Ug6_WZ0=", "properties": {"ref": "el-centro-cruickshank-dr", "@spider": "farmerboys", "amenity": "fast_food", "cuisine": "burger", "takeaway": "yes", "addr:street_address": "1532 Cruickshank Dr.", "addr:city": "El Centro", "addr:state": "CA", "addr:postcode": "92243", "addr:country": "US", "name": "El Centro - Cruickshank Dr.", "phone": "(760) 336-0227", "website": "https://www.farmerboys.com/locations/location-detail.php?loc=el-centro-cruickshank-dr", "opening_hours": "Mo-Sa 06:00-22:00; Su 07:00-22:00", "image": "https://www.farmerboys.com/images/locations/store-el-centro-cruickshank.jpg", "brand": "Farmer Boys", "brand:wikidata": "Q5435711", "nsi_id": "farmerboys-4d2ff4"}, "geometry": {"type": "Point", "coordinates": [-115.57125, 32.814957]}},
{"type": "Feature", "id": "4Qsm9XHen1ziH4fff8g_Uah28RU=", "properties": {"ref": "el-segundo-el-segundo-blvd", "@spider": "farmerboys", "amenity": "fast_food", "cuisine": "burger", "takeaway": "yes", "addr:street_address": "2161 E. El Segundo Blvd.", "addr:city": "El Segundo", "addr:state": "CA", "addr:postcode": "90245", "addr:country": "US", "name": "El Segundo - E. El Segundo Blvd.", "phone": "(310) 648-7850", "website": "https://www.farmerboys.com/locations/location-detail.php?loc=el-segundo-el-segundo-blvd", "opening_hours": "Mo-Fr 05:00-21:00; Sa-Su 06:00-21:00", "image": "https://www.farmerboys.com/images/locations/store-el-segundo.jpg", "brand": "Farmer Boys", "brand:wikidata": "Q5435711", "nsi_id": "farmerboys-4d2ff4"}, "geometry": {"type": "Point", "coordinates": [-118.387794, 33.916614]}},
{"type": "Feature", "id": "fbUbaawv6yKgh9SPtgQbDE0lI9A=", "properties": {"ref": "escondido-valley-pkwy", "@spider": "farmerboys", "amenity": "fast_food", "cuisine": "burger", "takeaway": "yes", "addr:street_address": "1333 E. Valley Pkwy.", "addr:city": "Escondido", "addr:state": "CA", "addr:postcode": "92027", "addr:country": "US", "name": "Escondido - E. Valley Pkwy.", "phone": "(760) 739-0700", "website": "https://www.farmerboys.com/locations/location-detail.php?loc=escondido-valley-pkwy", "opening_hours": "Mo-Sa 06:00-00:00; Su 07:00-00:00", "image": "https://www.farmerboys.com/images/locations/store-escondido-valley-pkwy.jpg", "brand": "Farmer Boys", "brand:wikidata": "Q5435711", "nsi_id": "farmerboys-4d2ff4"}, "geometry": {"type": "Point", "coordinates": [-117.063608, 33.131652]}},
{"type": "Feature", "id": "CBDhEYvg-5h3hFzVkhXy6zIt210=", "properties": {"ref": "escondido-mission-ave", "@spider": "farmerboys", "amenity": "fast_food", "cuisine": "burger", "takeaway": "yes", "addr:street_address": "925 W. Mission Ave.", "addr:city": "Escondido", "addr:state": "CA", "addr:postcode": "92025", "addr:country": "US", "name": "Escondido - W. Mission Ave.", "phone": "(760) 738-6188", "website": "https://www.farmerboys.com/locations/location-detail.php?loc=escondido-mission-ave", "opening_hours": "Mo-Fr 05:30-22:00; Sa 06:00-22:00; Su 07:00-22:00", "image": "https://www.farmerboys.com/images/locations/store-escondido-mission-ave.jpg", "brand": "Farmer Boys", "brand:wikidata": "Q5435711", "nsi_id": "farmerboys-4d2ff4"}, "geometry": {"type": "Point", "coordinates": [-117.097808, 33.126196]}},
{"type": "Feature", "id": "p7WMKWW5uWNORL2xmICUMYQrj-E=", "properties": {"ref": "fontana-foothill-blvd", "@spider": "farmerboys", "amenity": "fast_food", "cuisine": "burger", "takeaway": "yes", "addr:street_address": "14505 E. Foothill Blvd.", "addr:city": "Fontana", "addr:state": "CA", "addr:postcode": "92335", "addr:country": "US", "name": "Fontana - E. Foothill Blvd.", "phone": "(909) 429-3200", "website": "https://www.farmerboys.com/locations/location-detail.php?loc=fontana-foothill-blvd", "opening_hours": "Mo-Su 07:00-22:00", "brand": "Farmer Boys", "brand:wikidata": "Q5435711", "nsi_id": "farmerboys-4d2ff4"}, "geometry": {"type": "Point", "coordinates": [-117.487504, 34.106134]}},
{"type": "Feature", "id": "HCM-aEPGOKJEJrZcPA1N-ckc2DI=", "properties": {"ref": "fontana-sierra-lakes-pkwy", "@spider": "farmerboys", "amenity": "fast_food", "cuisine": "burger", "takeaway": "yes", "addr:street_address": "16015 Sierra Lakes Pkwy.", "addr:city": "Fontana", "addr:state": "CA", "addr:postcode": "92336", "addr:country": "US", "name": "Fontana - Sierra Lakes Pkwy.", "phone": "(909) 854-8233", "website": "https://www.farmerboys.com/locations/location-detail.php?loc=fontana-sierra-lakes-pkwy", "opening_hours": "Mo-Th 06:00-22:00; Fr-Sa 06:00-23:00; Su 07:00-22:00", "image": "https://www.farmerboys.com/images/locations/store-fontana-sierra-lakes.jpg", "brand": "Farmer Boys", "brand:wikidata": "Q5435711", "nsi_id": "farmerboys-4d2ff4"}, "geometry": {"type": "Point", "coordinates": [-117.45532, 34.138698]}},
{"type": "Feature", "id": "MQmMMYoEkLGkNo6D3dmdZvLtGNs=", "properties": {"ref": "fontana-slover-ave", "@spider": "farmerboys", "amenity": "fast_food", "cuisine": "burger", "takeaway": "yes", "addr:street_address": "14522 Slover Ave.", "addr:city": "Fontana", "addr:state": "CA", "addr:postcode": "92337", "addr:country": "US", "name": "Fontana - Slover Ave.", "phone": "(909) 822-2300", "website": "https://www.farmerboys.com/locations/location-detail.php?loc=fontana-slover-ave", "opening_hours": "Mo-Sa 06:00-22:00; Su 07:00-21:00", "image": "https://www.farmerboys.com/images/locations/store-fullerton-harbor.jpg", "brand": "Farmer Boys", "brand:wikidata": "Q5435711", "nsi_id": "farmerboys-4d2ff4"}, "geometry": {"type": "Point", "coordinates": [-117.488265, 34.063288]}},
{"type": "Feature", "id": "XaD3LeO5b3MdmIpRv2rljjabj40=", "properties": {"ref": "fullerton-harbor-blvd", "@spider": "farmerboys", "amenity": "fast_food", "cuisine": "burger", "takeaway": "yes", "addr:street_address": "1446 N. Harbor Blvd.", "addr:city": "Fullerton", "addr:state": "CA", "addr:postcode": "92835", "addr:country": "US", "name": "Fullerton - N. Harbor Blvd.", "phone": "(714) 578-5000", "website": "https://www.farmerboys.com/locations/location-detail.php?loc=fullerton-harbor-blvd", "opening_hours": "Mo-Su 06:00-21:00", "image": "https://www.farmerboys.com/images/locations/store-fullerton-harbor.jpg", "brand": "Farmer Boys", "brand:wikidata": "Q5435711", "nsi_id": "farmerboys-4d2ff4"}, "geometry": {"type": "Point", "coordinates": [-117.925683, 33.88505]}},
{"type": "Feature", "id": "2OjOaFJZSlDe8vFkrnRyo_uiozQ=", "properties": {"ref": "fullerton-s-placentia-ave", "@spider": "farmerboys", "amenity": "fast_food", "cuisine": "burger", "takeaway": "yes", "addr:street_address": "663 S. Placentia Ave.", "addr:city": "Fullerton", "addr:state": "CA", "addr:postcode": "92829", "addr:country": "US", "name": "Fullerton - S. Placentia Ave.", "phone": "(657) 217-2973", "website": "https://www.farmerboys.com/locations/location-detail.php?loc=fullerton-s-placentia-ave", "opening_hours": "Mo-Th 06:00-22:00; Fr-Sa 06:00-23:00; Su 06:00-22:00", "image": "https://www.farmerboys.com/images/locations/store-fullerton-s-placentia.jpg", "brand": "Farmer Boys", "brand:wikidata": "Q5435711", "nsi_id": "farmerboys-4d2ff4"}}]}