{"type":"FeatureCollection","features":[{"type": "Feature", "id": "hhp7AtSzQNkgI6T3PJI3jTvj2Bc=", "properties": {"ref": "5695", "@spider": "farmhouse_inns", "amenity": "restaurant", "cuisine": "british", "addr:full": "1A International Drive, Dyce Drive, Dyce, Aberdeen, AB21 0BH", "addr:postcode": "AB21 0BH", "addr:country": "GB", "name": "Dyce Farm", "phone": "01224 968605", "website": "https://www.farmhouseinns.co.uk/pubs/aberdeenshire/dyce-farm/", "contact:email": "5695@greeneking.co.uk", "opening_hours": "Mo-Th 08:00-22:00; Fr-Sa 08:00-23:00; Su 08:00-22:00", "image": "https://www.farmhouseinns.co.uk/q/i/5695/", "brand": "Farmhouse Inns", "brand:wikidata": "Q105504972", "nsi_id": "farmhouseinns-9b5453"}, "geometry": {"type": "Point", "coordinates": [-2.202971, 57.195414]}},
{"type": "Feature", "id": "3bPggjCdzzbpAlRn1EI1vB0g1ww=", "properties": {"ref": "5185", "@spider": "farmhouse_inns", "amenity": "restaurant", "cuisine": "british", "addr:full": "Bullrush Grove, Balby, Doncaster, DN4 8SJ", "addr:postcode": "DN4 8SJ", "addr:country": "GB", "name": "Woodfield Farm", "phone": "01302 311 164", "website": "https://www.farmhouseinns.co.uk/pubs/south-yorkshire/woodfield-farm/", "contact:email": "5185@greeneking.co.uk", "opening_hours": "Mo-Th 08:00-22:00; Fr-Sa 08:00-23:00; Su 08:00-22:00", "image": "https://www.farmhouseinns.co.uk/q/i/5185/", "brand": "Farmhouse Inns", "brand:wikidata": "Q105504972", "nsi_id": "farmhouseinns-9b5453"}, "geometry": {"type": "Point", "coordinates": [-1.120785, 53.498406]}},
{"type": "Feature", "id": "WA8Pt7MYDrOtehKRCEDnaWiOGpQ=", "properties": {"ref": "5187", "@spider": "farmhouse_inns", "amenity": "restaurant", "cuisine": "british", "addr:full": "Nobel Way, Dinnington, Sheffield, S25 3QB", "addr:postcode": "S25 3QB", "addr:country": "GB", "name": "Monk's Bridge Farm", "phone": "01909 566 225", "website": "https://www.farmhouseinns.co.uk/pubs/south-yorkshire/monks-bridge-farm/", "contact:email": "5187@greeneking.co.uk", "opening_hours": "Mo-Th 08:00-22:00; Fr-Sa 08:00-24:00; Su 08:00-22:00", "image": "https://www.farmhouseinns.co.uk/q/i/5187/", "brand": "Farmhouse Inns", "brand:wikidata": "Q105504972", "nsi_id": "farmhouseinns-9b5453"}, "geometry": {"type": "Point", "coordinates": [-1.225084, 53.374444]}},
{"type": "Feature", "id": "ItbgEPlT9ih2I6BeAklIN5VmmUo=", "properties": {"ref": "5183", "@spider": "farmhouse_inns", "amenity": "restaurant", "cuisine": "british", "addr:full": "Nether Lane, Ecclesfield, Sheffield, S35 9ZX", "addr:postcode": "S35 9ZX", "addr:country": "GB", "name": "Meadow Farm", "phone": "0114 240 1155", "website": "https://www.farmhouseinns.co.uk/pubs/south-yorkshire/meadow-farm/", "contact:email": "5183@greeneking.co.uk", "opening_hours": "Mo-Su 09:00-22:00", "image": "https://www.farmhouseinns.co.uk/q/i/5183/", "brand": "Farmhouse Inns", "brand:wikidata": "Q105504972", "nsi_id": "farmhouseinns-9b5453"}, "geometry": {"type": "Point", "coordinates": [-1.461882, 53.449043]}},
{"type": "Feature", "id": "TbY0n8uEa0ZjEJVAMRJTA8vKD_A=", "properties": {"ref": "5197", "@spider": "farmhouse_inns", "amenity": "restaurant", "cuisine": "british", "addr:full": "Old Colliery Way, Beighton Link Business Park, Beighton, Sheffield, S20 1DJ", "addr:postcode": "S20 1DJ", "addr:country": "GB", "name": "Elmwood Farm", "phone": "0114 2878098", "website": "https://www.farmhouseinns.co.uk/pubs/south-yorkshire/elmwood-farm/", "contact:email": "5197@greeneking.co.uk", "opening_hours": "Mo-Th 08:00-22:00; Fr-Sa 08:00-23:00; Su 08:00-22:00", "image": "https://www.farmhouseinns.co.uk/q/i/5197/", "brand": "Farmhouse Inns", "brand:wikidata": "Q105504972", "nsi_id": "farmhouseinns-9b5453"}, "geometry": {"type": "Point", "coordinates": [-1.330254, 53.354773]}},
{"type": "Feature", "id": "2M6aXbeHEnimsiO3pnrDU2mh2Lg=", "properties": {"ref": "5698", "@spider": "farmhouse_inns", "amenity": "restaurant", "cuisine": "british", "addr:full": "Unit 8, Kestrel Way, Birdwell, Barnsley, S70 5SZ", "addr:postcode": "S70 5SZ", "addr:country": "GB", "name": "Dearne Valley Farm", "phone": "01226 698572", "website": "https://www.farmhouseinns.co.uk/pubs/south-yorkshire/dearne-valley-farm/", "contact:email": "5698@greeneking.co.uk", "opening_hours": "Mo-Su 08:00-22:00", "image": "https://www.farmhouseinns.co.uk/q/i/5698/", "brand": "Farmhouse Inns", "brand:wikidata": "Q105504972", "nsi_id": "farmhouseinns-9b5453"}, "geometry": {"type": "Point", "coordinates": [-1.472456, 53.503346]}},
{"type": "Feature", "id": "H5otkQF_89hQ-pCnq6bG8--YnZg=", "properties": {"ref": "5205", "@spider": "farmhouse_inns", "amenity": "restaurant", "cuisine": "british", "addr:full": "Ferry Road, Grangetown, Cardiff, CF11 0JR", "addr:postcode": "CF11 0JR", "addr:country": "GB", "name": "Cedar Tree Farm", "phone": "0292 0341823", "website": "https://www.farmhouseinns.co.uk/pubs/south-glamorgan/cedar-tree-farm/", "contact:email": "5205@greeneking.co.uk", "opening_hours": "Mo-Th 08:00-22:00; Fr-Sa 08:00-23:00; Su 08:00-22:00", "image": "https://www.farmhouseinns.co.uk/q/i/5205/", "brand": "Farmhouse Inns", "brand:wikidata": "Q105504972", "nsi_id": "farmhouseinns-9b5453"}, "geometry": {"type": "Point", "coordinates": [-3.186737, 51.457938]}},
{"type": "Feature", "id": "MdsR5-yhGmhNFRtdKuCCxOcFcYs=", "properties": {"ref": "1841", "@spider": "farmhouse_inns", "amenity": "restaurant", "cuisine": "british", "addr:full": "Plot 3, Broxden Business Park, Tweed Place, Perth, PH1 1TJ", "addr:postcode": "PH1 1TJ", "addr:country": "GB", "name": "Broxden Farm", "phone": "01738 230246", "website": "https://www.farmhouseinns.co.uk/pubs/perth-and-kinross/broxden-farm/", "contact:email": "1841@greeneking.co.uk", "opening_hours": "Mo-Th 08:00-22:00; Fr-Sa 08:00-23:00; Su 08:00-22:00", "image": "https://www.farmhouseinns.co.uk/q/i/1841/", "brand": "Farmhouse Inns", "brand:wikidata": "Q105504972", "nsi_id": "farmhouseinns-9b5453"}, "geometry": {"type": "Point", "coordinates": [-3.486655, 56.389463]}},
{"type": "Feature", "id": "_t7YjCHvaUnDrF4a28ZK3BfJgto=", "properties": {"ref": "5206", "@spider": "farmhouse_inns", "amenity": "restaurant", "cuisine": "british", "addr:full": "1 Hillhead Drive, Linwood, Paisley, PA3 3FE", "addr:postcode": "PA3 3FE", "addr:country": "GB", "name": "Linwood", "phone": "0141 8401476", "website": "https://www.farmhouseinns.co.uk/pubs/renfrewshire/linwood/", "contact:email": "5206@greeneking.co.uk", "opening_hours": "Mo-Su 08:00-22:00", "image": "https://www.farmhouseinns.co.uk/q/i/5206/", "brand": "Farmhouse Inns", "brand:wikidata": "Q105504972", "nsi_id": "farmhouseinns-9b5453"}, "geometry": {"type": "Point", "coordinates": [-4.47337, 55.84272]}},
{"type": "Feature", "id": "KFrdBWWMqMT4bI0LLPj5KAm7m3o=", "properties": {"ref": "5189", "@spider": "farmhouse_inns", "amenity": "restaurant", "cuisine": "british", "addr:full": "Tottle Road, Nottingham, NG2 1RT", "addr:postcode": "NG2 1RT", "addr:country": "GB", "name": "Riverside Farm", "phone": "0115 985 1000", "website": "https://www.farmhouseinns.co.uk/pubs/nottinghamshire/riverside-farm/", "contact:email": "5189@greeneking.co.uk", "opening_hours": "Mo-Th 08:00-22:00; Fr-Sa 08:00-23:00; Su 08:00-22:00", "image": "https://www.farmhouseinns.co.uk/q/i/5189/", "brand": "Farmhouse Inns", "brand:wikidata": "Q105504972", "nsi_id": "farmhouseinns-9b5453"}, "geometry": {"type": "Point", "coordinates": [-1.162031, 52.934378]}},
{"type": "Feature", "id": "gbm3I6NCIyvL6cevnAXCajaWg8U=", "properties": {"ref": "4744", "@spider": "farmhouse_inns", "amenity": "restaurant", "cuisine": "british", "addr:full": "Kings Mill Road East, Sutton-in-Ashfield, NG17 4JP", "addr:postcode": "NG17 4JP", "addr:country": "GB", "name": "Kings Mill Farm", "phone": "01623 553312", "website": "https://www.farmhouseinns.co.uk/pubs/nottinghamshire/kings-mill-farm/", "contact:email": "4744@greeneking.co.uk", "opening_hours": "Mo-Th 08:00-22:00; Fr-Sa 08:00-23:00; Su 08:00-22:00", "image": "https://www.farmhouseinns.co.uk/q/i/4744/", "brand": "Farmhouse Inns", "brand:wikidata": "Q105504972", "nsi_id": "farmhouseinns-9b5453"}, "geometry": {"type": "Point", "coordinates": [-1.234597, 53.131341]}},
{"type": "Feature", "id": "tYivZWwjomNEYak4vAkQIJt9L0M=", "properties": {"ref": "5790", "@spider": "farmhouse_inns", "amenity": "restaurant", "cuisine": "british", "addr:full": "2 Lawrence Drive, Nottingham, NG8 6PZ", "addr:postcode": "NG8 6PZ", "addr:country": "GB", "name": "Holly Tree Farm", "phone": "0115 684 9316", "website": "https://www.farmhouseinns.co.uk/pubs/nottinghamshire/holly-tree-farm/", "contact:email": "5790@greeneking.co.uk", "opening_hours": "Mo-Th 08:00-22:00; Fr-Sa 08:00-23:00; Su 08:00-22:00", "image": "https://www.farmhouseinns.co.uk/q/i/5790/", "brand": "Farmhouse Inns", "brand:wikidata": "Q105504972", "nsi_id": "farmhouseinns-9b5453"}, "geometry": {"type": "Point", "coordinates": [-1.23778, 52.979857]}},
{"type": "Feature", "id": "jS9EfI0pj849D4IPGcMTqDfHEb4=", "properties": {"ref": "5193", "@spider": "farmhouse_inns", "amenity": "restaurant", "cuisine": "british", "addr:full": "Willow Court, Northumberland Business Park, Cramlington, NE23 7GA", "addr:postcode": "NE23 7GA", "addr:country": "GB", "name": "Willow Farm", "phone": "0191 250 3608", "website": "https://www.farmhouseinns.co.uk/pubs/northumberland/willow-farm/", "contact:email": "5193@greeneking.co.uk", "opening_hours": "Mo-Th 08:00-22:00; Fr-Sa 08:00-23:00; Su 08:00-22:00", "image": "https://www.farmhouseinns.co.uk/q/i/5193/", "brand": "Farmhouse Inns", "brand:wikidata": "Q105504972", "nsi_id": "farmhouseinns-9b5453"}, "geometry": {"type": "Point", "coordinates": [-1.589417, 55.065919]}},
{"type": "Feature", "id": "Kf6I0JtNd6bBNx5DWunssZg0DCI=", "properties": {"ref": "5214", "@spider": "farmhouse_inns", "amenity": "restaurant", "cuisine": "british", "addr:full": "1 Telstar Way, Duston, Northampton, NN5 6GT", "addr:postcode": "NN5 6GT", "addr:country": "GB", "name": "Poppy Field Farm", "phone": "01604 587050", "website": "https://www.farmhouseinns.co.uk/pubs/northamptonshire/poppy-field-farm/", "contact:email": "5214@greeneking.co.uk", "opening_hours": "Mo-Th 08:00-22:00; Fr-Sa 08:00-23:00; Su 08:00-22:00", "image": "https://www.farmhouseinns.co.uk/q/i/5214/", "brand": "Farmhouse Inns", "brand:wikidata": "Q105504972", "nsi_id": "farmhouseinns-9b5453"}, "geometry": {"type": "Point", "coordinates": [-0.936813, 52.243622]}},
{"type": "Feature", "id": "t6g-vq0YqYmmcS2E1Fmh7RBpn9A=", "properties": {"ref": "5198", "@spider": "farmhouse_inns", "amenity": "restaurant", "cuisine": "british", "addr:full": "Monks Cross Drive, Huntington, York, YO32 9GZ", "addr:postcode": "YO32 9GZ", "addr:country": "GB", "name": "Pear Tree Farm", "phone": "01904 620 124", "website": "https://www.farmhouseinns.co.uk/pubs/north-yorkshire/pear-tree-farm/", "contact:email": "5198@greeneking.co.uk", "opening_hours": "Mo-Th 08:00-22:00; Fr-Sa 08:00-23:00; Su 08:00-22:00", "image": "https://www.farmhouseinns.co.uk/q/i/5198/", "brand": "Farmhouse Inns", "brand:wikidata": "Q105504972", "nsi_id": "farmhouseinns-9b5453"}, "geometry": {"type": "Point", "coordinates": [-1.047686, 53.989538]}},
{"type": "Feature", "id": "WKEKOU-kUVAl01extIox1I-Ax_Q=", "properties": {"ref": "5668", "@spider": "farmhouse_inns", "amenity": "restaurant", "cuisine": "british", "addr:full": "Village Way, Grimsby, DN37 9UA", "addr:postcode": "DN37 9UA", "addr:country": "GB", "name": "Beechwood Farm", "phone": "01472 356136", "website": "https://www.farmhouseinns.co.uk/pubs/north-east-lincolnshire/beechwood-farm/", "contact:email": "admin@beechwoodfarmpub.co.uk", "opening_hours": "Mo-Th 08:00-22:00; Fr-Sa 08:00-23:00; Su 08:00-22:00", "image": "https://www.farmhouseinns.co.uk/q/i/5668/", "brand": "Farmhouse Inns", "brand:wikidata": "Q105504972", "nsi_id": "farmhouseinns-9b5453"}, "geometry": {"type": "Point", "coordinates": [-0.137654, 53.585241]}},
{"type": "Feature", "id": "Z5RieeMNtaZp7LA3KrBmguRq8mw=", "properties": {"ref": "5208", "@spider": "farmhouse_inns", "amenity": "restaurant", "cuisine": "british", "addr:full": "Cribbs Causeway, Catbrain Lane, Bristol, BS10 7TQ", "addr:postcode": "BS10 7TQ", "addr:country": "GB", "name": "Redwood Farm", "phone": "0117 959 4722", "website": "https://www.farmhouseinns.co.uk/pubs/south-gloucestershire/redwood-farm/", "contact:email": "redwoodfarm@greeneking.co.uk", "opening_hours": "Mo-Th 08:00-22:00; Fr-Sa 08:00-23:00; Su 08:00-22:00", "image": "https://www.farmhouseinns.co.uk/q/i/5208/", "brand": "Farmhouse Inns", "brand:wikidata": "Q105504972", "nsi_id": "farmhouseinns-9b5453"}, "geometry": {"type": "Point", "coordinates": [-2.615495, 51.523944]}},
{"type": "Feature", "id": "957yduvO_w34U7JGbyxkcZQ2E1s=", "properties": {"ref": "5799", "@spider": "farmhouse_inns", "amenity": "restaurant", "cuisine": "british", "addr:full": "Silverwoods Way, Kidderminster, DY11 7DT", "addr:postcode": "DY11 7DT", "addr:country": "GB", "name": "Larch Wood Farm", "phone": "01562 549069", "website": "https://www.farmhouseinns.co.uk/pubs/worcestershire/larch-wood-farm/", "contact:email": "5799@greeneking.co.uk", "opening_hours": "Mo-Th 08:00-22:00; Fr-Sa 08:00-23:00; Su 08:00-22:00", "image": "https://www.farmhouseinns.co.uk/q/i/5799/", "brand": "Farmhouse Inns", "brand:wikidata": "Q105504972", "nsi_id": "farmhouseinns-9b5453"}, "geometry": {"type": "Point", "coordinates": [-2.258683, 52.370178]}},
{"type": "Feature", "id": "yncEQD5_pCPJPwqnILI7Uso7_80=", "properties": {"ref": "5789", "@spider": "farmhouse_inns", "amenity": "restaurant", "cuisine": "british", "addr:full": "Unit 18, Hornhill Road, Worcester, WR4 0SX", "addr:postcode": "WR4 0SX", "addr:country": "GB", "name": "Bluebell Farm", "phone": "01905 947129", "website": "https://www.farmhouseinns.co.uk/pubs/worcestershire/bluebell-farm/", "contact:email": "5789@greeneking.co.uk", "opening_hours": "Mo-Th 08:00-22:00; Fr-Sa 08:00-23:00; Su 08:00-22:00", "image": "https://www.farmhouseinns.co.uk/q/i/5789/", "brand": "Farmhouse Inns", "brand:wikidata": "Q105504972", "nsi_id": "farmhouseinns-9b5453"}, "geometry": {"type": "Point", "coordinates": [-2.173689, 52.186659]}},
{"type": "Feature", "id": "NmonEEQe5yNL2KC5I_RAye1QN28=", "properties": {"ref": "5212", "@spider": "farmhouse_inns", "amenity": "restaurant", "cuisine": "british", "addr:full": "V Park, Gateway North, Latham Road, Swindon, SN25 4DL", "addr:postcode": "SN25 4DL", "addr:country": "GB", "name": "Robins Farm", "phone": "01793 726424", "website": "https://www.farmhouseinns.co.uk/pubs/wiltshire/robins-farm/", "contact:email": "5212@greeneking.co.uk", "opening_hours": "Mo-Th 09:00-22:00; Fr-Sa 09:00-23:00; Su 09:00-22:00", "image": "https://www.farmhouseinns.co.uk/q/i/5212/", "brand": "Farmhouse Inns", "brand:wikidata": "Q105504972", "nsi_id": "farmhouseinns-9b5453"}, "geometry": {"type": "Point", "coordinates": [-1.784759, 51.605499]}},
{"type": "Feature", "id": "Ma6WsOr1MjzaiJdFOA7QkiuwHfg=", "properties": {"ref": "5199", "@spider": "farmhouse_inns", "amenity": "restaurant", "cuisine": "british", "addr:full": "Mothers Way, Silkwood Park, Ossett, Wakefield, WF5 9TR", "addr:postcode": "WF5 9TR", "addr:country": "GB", "name": "Silkwood Farm", "phone": "01924 283517", "website": "https://www.farmhouseinns.co.uk/pubs/west-yorkshire/silkwood-farm/", "contact:email": "5199@greeneking.co.uk", "opening_hours": "Mo-Th 09:00-22:00; Fr-Sa 09:00-23:00; Su 09:00-22:00", "image": "https://www.farmhouseinns.co.uk/q/i/5199/", "brand": "Farmhouse Inns", "brand:wikidata": "Q105504972", "nsi_id": "farmhouseinns-9b5453"}, "geometry": {"type": "Point", "coordinates": [-1.548539, 53.684364]}},
{"type": "Feature", "id": "oLVnSh5hvhyp6AbLp9QKOoh1-zc=", "properties": {"ref": "5217", "@spider": "farmhouse_inns", "amenity": "restaurant", "cuisine": "british", "addr:full": "2 Heathfield Lane, Birkenshaw, Bradford, BD11 2DP", "addr:postcode": "BD11 2DP", "addr:country": "GB", "name": "Heathfield Farm", "phone": "01274 449974", "website": "https://www.farmhouseinns.co.uk/pubs/west-yorkshire/heathfield-farm/", "contact:email": "5217@greeneking.co.uk", "opening_hours": "Mo-Fr 09:00-22:00; Sa 09:00-23:00; Su 09:00-22:00", "image": "https://www.farmhouseinns.co.uk/q/i/5217/", "brand": "Farmhouse Inns", "brand:wikidata": "Q105504972", "nsi_id": "farmhouseinns-9b5453"}, "geometry": {"type": "Point", "coordinates": [-1.69772, 53.744519]}},
{"type": "Feature", "id": "_VSjrxW6kfaUhgboDk5PkFJk0sE=", "properties": {"ref": "5673", "@spider": "farmhouse_inns", "amenity": "restaurant", "cuisine": "british", "addr:full": "Warren House Lane, Yeadon, Leeds, LS19 7FT", "addr:postcode": "LS19 7FT", "addr:country": "GB", "name": "Hawthorne Farm", "phone": "01132 506837", "website": "https://www.farmhouseinns.co.uk/pubs/west-yorkshire/hawthorne-farm/", "contact:email": "5673@greeneking.co.uk", "opening_hours": "Mo-Su 09:00-22:00", "image": "https://www.farmhouseinns.co.uk/q/i/5673/", "brand": "Farmhouse Inns", "brand:wikidata": "Q105504972", "nsi_id": "farmhouseinns-9b5453"}, "geometry": {"type": "Point", "coordinates": [-1.665093, 53.873352]}},
{"type": "Feature", "id": "oIk5NLpH-REiqXevefyFtMZ1tr4=", "properties": {"ref": "5192", "@spider": "farmhouse_inns", "amenity": "restaurant", "cuisine": "british", "addr:full": "Colorado Way, Glasshoughton, Castleford, WF10 4TS", "addr:postcode": "WF10 4TS", "addr:country": "GB", "name": "Birchwood Farm", "phone": "01977 604 849", "website": "https://www.farmhouseinns.co.uk/pubs/west-yorkshire/birchwood-farm/", "contact:email": "5192@greeneking.co.uk", "opening_hours": "Mo-Su 09:00-22:00", "image": "https://www.farmhouseinns.co.uk/q/i/5192/", "brand": "Farmhouse Inns", "brand:wikidata": "Q105504972", "nsi_id": "farmhouseinns-9b5453"}, "geometry": {"type": "Point", "coordinates": [-1.348923, 53.71489]}},
{"type": "Feature", "id": "m3OghYko8r8Oo9rx6NtXxUxAO7o=", "properties": {"ref": "6315", "@spider": "farmhouse_inns", "amenity": "restaurant", "cuisine": "british", "addr:full": "Chester Road, Castle Vale, Birmingham, B35 7AF", "addr:postcode": "B35 7AF", "addr:country": "GB", "name": "Manor Farm", "phone": "01217 472908", "website": "https://www.farmhouseinns.co.uk/pubs/west-midlands/manor-farm/", "contact:email": "6315@greeneking.co.uk", "opening_hours": "Mo-Th 09:00-22:00; Fr-Sa 09:00-23:00; Su 09:00-22:00", "image": "https://www.farmhouseinns.co.uk/q/i/6315/", "brand": "Farmhouse Inns", "brand:wikidata": "Q105504972", "nsi_id": "farmhouseinns-9b5453"}, "geometry": {"type": "Point", "coordinates": [-1.798235, 52.510357]}},
{"type": "Feature", "id": "p0fPQcSDeDy6cIA_YwglDcpi5Kw=", "properties": {"ref": "5674", "@spider": "farmhouse_inns", "amenity": "restaurant", "cuisine": "british", "addr:full": "6 Cranbrook Way, Shirley, Solihull, B90 4GT", "addr:postcode": "B90 4GT", "addr:country": "GB", "name": "Hillfield Farm", "phone": "0121 733 8810", "website": "https://www.farmhouseinns.co.uk/pubs/west-midlands/hillfield-farm/", "contact:email": "5674@greeneking.co.uk", "opening_hours": "Mo-Su 11:00-21:00", "image": "https://www.farmhouseinns.co.uk/q/i/5674/", "brand": "Farmhouse Inns", "brand:wikidata": "Q105504972", "nsi_id": "farmhouseinns-9b5453"}, "geometry": {"type": "Point", "coordinates": [-1.802181, 52.392492]}},
{"type": "Feature", "id": "k0uPMf3p7rG5ns96cjKUJXOr2Nw=", "properties": {"ref": "6384", "@spider": "farmhouse_inns", "amenity": "restaurant", "cuisine": "british", "addr:full": "Joseph Street, Oldbury, Warley, B69 2AQ", "addr:postcode": "B69 2AQ", "addr:country": "GB", "name": "Half Penny Farm", "phone": "01215 449621", "website": "https://www.farmhouseinns.co.uk/pubs/west-midlands/half-penny-farm/", "contact:email": "6384@greeneking.co.uk", "opening_hours": "Mo-Th 08:00-22:00; Fr-Sa 08:00-23:00; Su 08:00-22:00", "image": "https://www.farmhouseinns.co.uk/q/i/6384/", "brand": "Farmhouse Inns", "brand:wikidata": "Q105504972", "nsi_id": "farmhouseinns-9b5453"}, "geometry": {"type": "Point", "coordinates": [-2.022952, 52.495465]}},
{"type": "Feature", "id": "xjKLKK7scMT29A-CSzl53LCxlhQ=", "properties": {"ref": "6371", "@spider": "farmhouse_inns", "amenity": "restaurant", "cuisine": "british", "addr:full": "Cannock Road, Wednesfield, Wolverhampton, WV10 8QD", "addr:postcode": "WV10 8QD", "addr:country": "GB", "name": "Berry Brook Farm", "phone": "01902 866006", "website": "https://www.farmhouseinns.co.uk/pubs/west-midlands/berry-brook-farm/", "contact:email": "6371@greeneking.co.uk", "opening_hours": "Mo-Th 08:00-22:00; Fr-Sa 08:00-23:00; Su 08:00-22:00", "image": "https://www.farmhouseinns.co.uk/q/i/6371/", "brand": "Farmhouse Inns", "brand:wikidata": "Q105504972", "nsi_id": "farmhouseinns-9b5453"}, "geometry": {"type": "Point", "coordinates": [-2.095553, 52.616727]}},
{"type": "Feature", "id": "jjQawOw_Bg76lof4BYpBMPtlzUs=", "properties": {"ref": "6283", "@spider": "farmhouse_inns", "amenity": "restaurant", "cuisine": "british", "addr:full": "St Davids Way, Nuneaton, CV10 7SD", "addr:postcode": "CV10 7SD", "addr:country": "GB", "name": "Middlemarch Farm", "phone": "02476 345640", "website": "https://www.farmhouseinns.co.uk/pubs/warwickshire/middlemarch-farm/", "contact:email": "6283@greeneking.co.uk", "opening_hours": "Mo-Th 08:00-22:00; Fr-Sa 08:00-23:00; Su 08:00-22:00", "image": "https://www.farmhouseinns.co.uk/q/i/6283/", "brand": "Farmhouse Inns", "brand:wikidata": "Q105504972", "nsi_id": "farmhouseinns-9b5453"}, "geometry": {"type": "Point", "coordinates": [-1.475228, 52.497598]}},
{"type": "Feature", "id": "55NREoP1QEGoIBSXZa6waCOlC5M=", "properties": {"ref": "5213", "@spider": "farmhouse_inns", "amenity": "restaurant", "cuisine": "british", "addr:full": "3 Turbine Way, Sunderland, SR5 3NZ", "addr:postcode": "SR5 3NZ", "addr:country": "GB", "name": "Wearside Farm", "phone": "0191 417 1471", "website": "https://www.farmhouseinns.co.uk/pubs/tyne-and-wear/wearside-farm/", "contact:email": "5213@greeneking.co.uk", "opening_hours": "Mo-Th 08:00-22:00; Fr-Sa 08:00-23:00; Su 08:00-22:00", "image": "https://www.farmhouseinns.co.uk/q/i/5213/", "brand": "Farmhouse Inns", "brand:wikidata": "Q105504972", "nsi_id": "farmhouseinns-9b5453"}, "geometry": {"type": "Point", "coordinates": [-1.485135, 54.918128]}},
{"type": "Feature", "id": "SbycY9kssZBfwyVFqxLSWRwKWrg=", "properties": {"ref": "6738", "@spider": "farmhouse_inns", "amenity": "restaurant", "cuisine": "british", "addr:full": "Callerton Lane End, Woolsington, Newcastle-Upon-Tyne, NE13 8DF", "addr:postcode": "NE13 8DF", "addr:country": "GB", "name": "Wheatsheaf Farm", "phone": "01912 869254", "website": "https://www.farmhouseinns.co.uk/pubs/tyne-and-wear/wheatsheaf-farm/", "contact:email": "6738@greeneking.co.uk", "opening_hours": "Mo-Th 07:00-22:00; Fr-Sa 07:00-23:00; Su 07:00-22:00", "image": "https://www.farmhouseinns.co.uk/q/i/6738/", "brand": "Farmhouse Inns", "brand:wikidata": "Q105504972", "nsi_id": "farmhouseinns-9b5453"}, "geometry": {"type": "Point", "coordinates": [-1.70228, 55.028891]}},
{"type": "Feature", "id": "3JLUiUJzQx4MguIANi10W6t4wE8=", "properties": {"ref": "5201", "@spider": "farmhouse_inns", "amenity": "restaurant", "cuisine": "british", "addr:full": "First Avenue, Team Valley Trading Estate, Gateshead, NE11 0NU", "addr:postcode": "NE11 0NU", "addr:country": "GB", "name": "Valley Farm", "phone": "0191 487 4614", "website": "https://www.farmhouseinns.co.uk/pubs/tyne-and-wear/valley-farm/", "contact:email": "5201@greeneking.co.uk", "opening_hours": "Mo-Th 08:00-22:00; Fr-Sa 08:00-23:00; Su 08:00-22:00", "image": "https://www.farmhouseinns.co.uk/q/i/5201/", "brand": "Farmhouse Inns", "brand:wikidata": "Q105504972", "nsi_id": "farmhouseinns-9b5453"}, "geometry": {"type": "Point", "coordinates": [-1.620961, 54.942334]}},
{"type": "Feature", "id": "5AxZwgkjo9wTvCXk9hNTrD364lQ=", "properties": {"ref": "5196", "@spider": "farmhouse_inns", "amenity": "restaurant", "cuisine": "british", "addr:full": "1 Camberwell Way, Doxford Intl Business Park, Sunderland, SR3 3XN", "addr:postcode": "SR3 3XN", "addr:country": "GB", "name": "Oak Tree Farm", "phone": "0191 528 7682", "website": "https://www.farmhouseinns.co.uk/pubs/tyne-and-wear/oak-tree-farm/", "contact:email": "5196@greeneking.co.uk", "opening_hours": "Mo-Th 08:00-22:00; Fr-Sa 08:00-23:00; Su 08:00-22:00", "image": "https://www.farmhouseinns.co.uk/q/i/5196/", "brand": "Farmhouse Inns", "brand:wikidata": "Q105504972", "nsi_id": "farmhouseinns-9b5453"}, "geometry": {"type": "Point", "coordinates": [-1.431505, 54.866724]}},
{"type": "Feature", "id": "_7Xg1GqIxRrHo7i7kFiqi7MnJk0=", "properties": {"ref": "5795", "@spider": "farmhouse_inns", "amenity": "restaurant", "cuisine": "british", "addr:full": "3 Donald Mackintosh Way, Pinewood, Ipswich, IP8 3LQ", "addr:postcode": "IP8 3LQ", "addr:country": "GB", "name": "Chestnut Tree Farm", "phone": "01473 921 020", "website": "https://www.farmhouseinns.co.uk/pubs/suffolk/chestnut-tree-farm/", "contact:email": "5795@greeneking.co.uk", "opening_hours": "Mo-Th 08:00-22:00; Fr-Sa 08:00-23:00; Su 08:00-22:00", "image": "https://www.farmhouseinns.co.uk/q/i/5795/", "brand": "Farmhouse Inns", "brand:wikidata": "Q105504972", "nsi_id": "farmhouseinns-9b5453"}, "geometry": {"type": "Point", "coordinates": [1.10315, 52.042948]}},
{"type": "Feature", "id": "NnT0dWRQDExU1a6JZqG0md3DEn0=", "properties": {"ref": "5203", "@spider": "farmhouse_inns", "amenity": "restaurant", "cuisine": "british", "addr:full": "Perry Avenue,, Teeside Industrial Estate, Thornaby, TS17 9LN", "addr:postcode": "TS17 9LN", "addr:country": "GB", "name": "Anson Farm", "phone": "01642 765250", "website": "https://www.farmhouseinns.co.uk/pubs/stockton-on-tees/anson-farm/", "contact:email": "5203@greeneking.co.uk", "opening_hours": "Mo-Th 08:00-22:00; Fr-Sa 08:00-23:00; Su 08:00-22:00", "image": "https://www.farmhouseinns.co.uk/q/i/5203/", "brand": "Farmhouse Inns", "brand:wikidata": "Q105504972", "nsi_id": "farmhouseinns-9b5453"}, "geometry": {"type": "Point", "coordinates": [-1.290525, 54.527772]}},
{"type": "Feature", "id": "nlAG2GYpElSbDFhnj-TZcjoaP54=", "properties": {"ref": "5696", "@spider": "farmhouse_inns", "amenity": "restaurant", "cuisine": "british", "addr:full": "Shelton Boulevard, Etruria Valley, Stoke-on-Trent, ST1 5GP", "addr:postcode": "ST1 5GP", "addr:country": "GB", "name": "Brindley Farm", "phone": "01782 273361", "website": "https://www.farmhouseinns.co.uk/pubs/staffordshire/brindley-farm/", "contact:email": "5696@greeneking.co.uk", "opening_hours": "Mo-Th 08:00-22:00; Fr-Sa 08:00-23:00; Su 08:00-22:00", "image": "https://www.farmhouseinns.co.uk/q/i/5696/", "brand": "Farmhouse Inns", "brand:wikidata": "Q105504972", "nsi_id": "farmhouseinns-9b5453"}, "geometry": {"type": "Point", "coordinates": [-2.202514, 53.026208]}},
{"type": "Feature", "id": "0615BvFdC6y-HxUEHzc_mWExnKU=", "properties": {"ref": "5697", "@spider": "farmhouse_inns", "amenity": "restaurant", "cuisine": "british", "addr:full": "South Gyle Broadway, Edinburgh, EH12 9JZ", "addr:postcode": "EH12 9JZ", "addr:country": "GB", "name": "Westgate Farm", "phone": "0131 202 1821", "website": "https://www.farmhouseinns.co.uk/pubs/midlothian/westgate-farm/", "contact:email": "5697@greeneking.co.uk", "opening_hours": "Mo-Th 08:00-22:00; Fr-Sa 08:00-23:00; Su 08:00-22:00", "image": "https://www.farmhouseinns.co.uk/q/i/5697/", "brand": "Farmhouse Inns", "brand:wikidata": "Q105504972", "nsi_id": "farmhouseinns-9b5453"}, "geometry": {"type": "Point", "coordinates": [-3.302903, 55.933639]}},
{"type": "Feature", "id": "9tBbpOvilpwj9iV2kpNJ_NZcXVs=", "properties": {"ref": "5669", "@spider": "farmhouse_inns", "amenity": "restaurant", "cuisine": "british", "addr:full": "9 Gilmerton Road, Lasswade, EH18 1BD", "addr:postcode": "EH18 1BD", "addr:country": "GB", "name": "Elginhaugh Farm", "phone": "0131 6602480", "website": "https://www.farmhouseinns.co.uk/pubs/midlothian/elginhaugh-farm/", "contact:email": "5669@greeneking.co.uk", "opening_hours": "Mo-Th 09:00-22:00; Fr 09:00-23:00; Sa 08:00-23:00; Su 08:00-22:00", "image": "https://www.farmhouseinns.co.uk/q/i/5669/", "brand": "Farmhouse Inns", "brand:wikidata": "Q105504972", "nsi_id": "farmhouseinns-9b5453"}, "geometry": {"type": "Point", "coordinates": [-3.099667, 55.895411]}},
{"type": "Feature", "id": "kE8zfGUFzLe7zzOCXI7g8Rkx7No=", "properties": {"ref": "5186", "@spider": "farmhouse_inns", "amenity": "restaurant", "cuisine": "british", "addr:full": "2 Galway Crescent, Piele Road, Haydock, St Helens, WA11 0GR", "addr:postcode": "WA11 0GR", "addr:country": "GB", "name": "Lymewood Farm", "phone": "01942 723 494", "website": "https://www.farmhouseinns.co.uk/pubs/merseyside/lymewood-farm/", "contact:email": "5186@greeneking.co.uk", "opening_hours": "Mo-Th 09:00-22:00; Fr-Sa 09:00-23:00; Su 09:00-22:00", "image": "https://www.farmhouseinns.co.uk/q/i/5186/", "brand": "Farmhouse Inns", "brand:wikidata": "Q105504972", "nsi_id": "farmhouseinns-9b5453"}, "geometry": {"type": "Point", "coordinates": [-2.66492, 53.471559]}},
{"type": "Feature", "id": "Q2BDYw3ezoleuiH8s1osmoELFnQ=", "properties": {"ref": "6275", "@spider": "farmhouse_inns", "amenity": "restaurant", "cuisine": "british", "addr:full": "Springwood Avenue, Liverpool, L25 7UN", "addr:postcode": "L25 7UN", "addr:country": "GB", "name": "Allerton Hall Farm", "phone": "01514 942664", "website": "https://www.farmhouseinns.co.uk/pubs/merseyside/allerton-hall-farm/", "contact:email": "6275@greeneking.co.uk", "opening_hours": "Mo-Th 09:00-22:00; Fr-Sa 09:00-23:00; Su 09:00-22:00", "image": "https://www.farmhouseinns.co.uk/q/i/6275/", "brand": "Farmhouse Inns", "brand:wikidata": "Q105504972", "nsi_id": "farmhouseinns-9b5453"}, "geometry": {"type": "Point", "coordinates": [-2.879301, 53.363465]}},
{"type": "Feature", "id": "G57y85cLyZyX1tBLA0r17ip5JaU=", "properties": {"ref": "6395", "@spider": "farmhouse_inns", "amenity": "restaurant", "cuisine": "british", "addr:full": "Whisby Road, Lincoln, LN6 3QZ", "addr:postcode": "LN6 3QZ", "addr:country": "GB", "name": "Windmill Farm", "phone": "01522 686878", "website": "https://www.farmhouseinns.co.uk/pubs/lincolnshire/windmill-farm/", "contact:email": "6395@greeneking.co.uk", "opening_hours": "Mo-Th 07:00-22:00; Fr-Sa 07:00-23:00; Su 07:00-22:00", "image": "https://www.farmhouseinns.co.uk/q/i/6395/", "brand": "Farmhouse Inns", "brand:wikidata": "Q105504972", "nsi_id": "farmhouseinns-9b5453"}, "geometry": {"type": "Point", "coordinates": [-0.617697, 53.200822]}},
{"type": "Feature", "id": "JxGMYSIoIdmn3J0PATbm0OPy0KQ=", "properties": {"ref": "5667", "@spider": "farmhouse_inns", "amenity": "restaurant", "cuisine": "british", "addr:full": "8 Barton Close, Grove Park, Enderby, Leicester, LE19 1SJ", "addr:postcode": "LE19 1SJ", "addr:country": "GB", "name": "Grove Farm", "phone": "01162 890227", "website": "https://www.farmhouseinns.co.uk/pubs/leicestershire/grove-farm/", "contact:email": "admin@grovefarmpub.co.uk", "opening_hours": "Mo-Th 08:00-22:00; Fr-Sa 08:00-23:00; Su 08:00-22:00", "image": "https://www.farmhouseinns.co.uk/q/i/5667/", "brand": "Farmhouse Inns", "brand:wikidata": "Q105504972", "nsi_id": "farmhouseinns-9b5453"}, "geometry": {"type": "Point", "coordinates": [-1.189623, 52.596394]}},
{"type": "Feature", "id": "0uyBgrMXFzQLQb1Iof0geJnxJ80=", "properties": {"ref": "6338", "@spider": "farmhouse_inns", "amenity": "restaurant", "cuisine": "british", "addr:full": "Glebe Way, Syston, Leicester, LE7 1BA", "addr:postcode": "LE7 1BA", "addr:country": "GB", "name": "Hobby Horse Farm", "phone": "01162 606788", "website": "https://www.farmhouseinns.co.uk/pubs/leicestershire/hobby-horse-farm/", "contact:email": "6338@greeneking.co.uk", "opening_hours": "Mo-Th 08:00-22:00; Fr-Sa 08:00-23:00; Su 08:00-22:00", "image": "https://www.farmhouseinns.co.uk/q/i/6338/", "brand": "Farmhouse Inns", "brand:wikidata": "Q105504972", "nsi_id": "farmhouseinns-9b5453"}, "geometry": {"type": "Point", "coordinates": [-1.094712, 52.69876]}},
{"type": "Feature", "id": "BkptoZVDlZ-7Psmu_ucP0ySxXWk=", "properties": {"ref": "6329", "@spider": "farmhouse_inns", "amenity": "restaurant", "cuisine": "british", "addr:full": "Leicester Road, Glenfield, Leicester, LE3 8HB", "addr:postcode": "LE3 8HB", "addr:country": "GB", "name": "Gynsills Farm", "phone": "01162 313693", "website": "https://www.farmhouseinns.co.uk/pubs/leicestershire/gynsills-farm/", "contact:email": "6329@greeneking.co.uk", "opening_hours": "Mo-Th 07:00-22:00; Fr-Sa 07:00-23:00; Su 07:00-22:00", "image": "https://www.farmhouseinns.co.uk/q/i/6329/", "brand": "Farmhouse Inns", "brand:wikidata": "Q105504972", "nsi_id": "farmhouseinns-9b5453"}, "geometry": {"type": "Point", "coordinates": [-1.192118, 52.657215]}},
{"type": "Feature", "id": "sG1KyNj8P3pZUREshC2L6S5flV4=", "properties": {"ref": "5190", "@spider": "farmhouse_inns", "amenity": "restaurant", "cuisine": "british", "addr:full": "Liverpool Road, Burnley, BB12 6HH", "addr:postcode": "BB12 6HH", "addr:country": "GB", "name": "Sycamore Farm", "phone": "01282 427 101", "website": "https://www.farmhouseinns.co.uk/pubs/lancashire/sycamore-farm/", "contact:email": "5190@greeneking.co.uk", "opening_hours": "Mo-Th 08:00-22:00; Fr-Sa 08:00-23:00; Su 08:00-22:00", "image": "https://www.farmhouseinns.co.uk/q/i/5190/", "brand": "Farmhouse Inns", "brand:wikidata": "Q105504972", "nsi_id": "farmhouseinns-9b5453"}, "geometry": {"type": "Point", "coordinates": [-2.28594, 53.789961]}},
{"type": "Feature", "id": "4veOqzhlYgOn2_1hdkG3xWrSPTU=", "properties": {"ref": "6385", "@spider": "farmhouse_inns", "amenity": "restaurant", "cuisine": "british", "addr:full": "Hallam Way, Blackpool, FY4 5NZ", "addr:postcode": "FY4 5NZ", "addr:country": "GB", "name": "Plum Tree Farm", "phone": "01253 798477", "website": "https://www.farmhouseinns.co.uk/pubs/lancashire/plum-tree-farm/", "contact:email": "6385@greeneking.co.uk", "opening_hours": "Mo-Th 07:00-22:00; Fr-Sa 07:00-23:00; Su 07:00-22:00", "image": "https://www.farmhouseinns.co.uk/q/i/6385/", "brand": "Farmhouse Inns", "brand:wikidata": "Q105504972", "nsi_id": "farmhouseinns-9b5453"}, "geometry": {"type": "Point", "coordinates": [-2.984381, 53.789374]}},
{"type": "Feature", "id": "xYMRcOYhc1Upu70ww7zf990roe4=", "properties": {"ref": "5791", "@spider": "farmhouse_inns", "amenity": "restaurant", "cuisine": "british", "addr:full": "Unit A1, Cutacre Way, Bolton, BL5 1FN", "addr:postcode": "BL5 1FN", "addr:country": "GB", "name": "Pine Tree Farm", "phone": "01204 589140", "website": "https://www.farmhouseinns.co.uk/pubs/lancashire/pine-tree-farm/", "contact:email": "5791@greeneking.co.uk", "opening_hours": "Mo-Su 08:00-22:00", "image": "https://www.farmhouseinns.co.uk/q/i/5791/", "brand": "Farmhouse Inns", "brand:wikidata": "Q105504972", "nsi_id": "farmhouseinns-9b5453"}, "geometry": {"type": "Point", "coordinates": [-2.453057, 53.543364]}},
{"type": "Feature", "id": "XaKaBtfB_hMC0aE86tAJc2VV1f8=", "properties": {"ref": "5691", "@spider": "farmhouse_inns", "amenity": "restaurant", "cuisine": "british", "addr:full": "Stadium Way, Eccles, Manchester, M30 7EY", "addr:postcode": "M30 7EY", "addr:country": "GB", "name": "Barley Farm", "phone": "0161 7076807", "website": "https://www.farmhouseinns.co.uk/pubs/lancashire/barley-farm/", "contact:email": "5691@greeneking.co.uk", "opening_hours": "Mo-Th 08:00-22:00; Fr-Sa 08:00-23:00; Su 08:00-22:00", "image": "https://www.farmhouseinns.co.uk/q/i/5691/", "brand": "Farmhouse Inns", "brand:wikidata": "Q105504972", "nsi_id": "farmhouseinns-9b5453"}, "geometry": {"type": "Point", "coordinates": [-2.379995, 53.471308]}},
{"type": "Feature", "id": "liHcIXQQJI9gafy3DYLZW5H4Xu8=", "properties": {"ref": "5670", "@spider": "farmhouse_inns", "amenity": "restaurant", "cuisine": "british", "addr:full": "Pamir Drive, Ashton-Under-Lyne, OL7 0LY", "addr:postcode": "OL7 0LY", "addr:country": "GB", "name": "Ash Tree Farm", "phone": "0161 3438175", "website": "https://www.farmhouseinns.co.uk/pubs/lancashire/ash-tree-farm/", "contact:email": "5670@greeneking.co.uk", "opening_hours": "Mo-Th 09:00-22:00; Fr-Sa 09:00-23:00; Su 09:00-22:00", "image": "https://www.farmhouseinns.co.uk/q/i/5670/", "brand": "Farmhouse Inns", "brand:wikidata": "Q105504972", "nsi_id": "farmhouseinns-9b5453"}, "geometry": {"type": "Point", "coordinates": [-2.112453, 53.486763]}},
{"type": "Feature", "id": "vKEV1LoA1brHKj8Z2O19AyXdZR4=", "properties": {"ref": "5215", "@spider": "farmhouse_inns", "amenity": "restaurant", "cuisine": "british", "addr:full": "Nova Business Park, 2 Robroyston Gate, Glasgow, G33 1AP", "addr:postcode": "G33 1AP", "addr:country": "GB", "name": "Wallace Well Farm", "phone": "0141 558 9127", "website": "https://www.farmhouseinns.co.uk/pubs/lanarkshire/wallace-well-farm/", "contact:email": "5215@greeneking.co.uk", "opening_hours": "Mo-Th 08:00-22:00; Fr-Sa 08:00-23:00; Su 08:00-22:00", "image": "https://www.farmhouseinns.co.uk/q/i/5215/", "brand": "Farmhouse Inns", "brand:wikidata": "Q105504972", "nsi_id": "farmhouseinns-9b5453"}, "geometry": {"type": "Point", "coordinates": [-4.165258, 55.883515]}},
{"type": "Feature", "id": "EWGKWAxAyyu8V0lJSp7OFgDUd58=", "properties": {"ref": "5671", "@spider": "farmhouse_inns", "amenity": "restaurant", "cuisine": "british", "addr:full": "East Avenue, Blantyre, Glasgow, G72 0JB", "addr:postcode": "G72 0JB", "addr:country": "GB", "name": "Red Burn Farm", "phone": "01698 822712", "website": "https://www.farmhouseinns.co.uk/pubs/lanarkshire/red-burn-farm/", "contact:email": "5671@greeneking.co.uk", "opening_hours": "Mo-Th 08:00-22:00; Fr-Sa 08:00-23:00; Su 08:00-22:00", "image": "https://www.farmhouseinns.co.uk/q/i/5671/", "brand": "Farmhouse Inns", "brand:wikidata": "Q105504972", "nsi_id": "farmhouseinns-9b5453"}, "geometry": {"type": "Point", "coordinates": [-4.093191, 55.779735]}},
{"type": "Feature", "id": "R5OY33bOleatFjGf9YqJuXEnMRo=", "properties": {"ref": "5692", "@spider": "farmhouse_inns", "amenity": "restaurant", "cuisine": "british", "addr:full": "Adanac Drive, Nursling, Southampton, SO16 0AU", "addr:postcode": "SO16 0AU", "addr:country": "GB", "name": "Walnut Tree Farm", "phone": "02380 741767", "website": "https://www.farmhouseinns.co.uk/pubs/hampshire/walnut-tree-farm/", "contact:email": "5692@greeneking.co.uk", "opening_hours": "Mo-Th 08:00-22:00; Fr-Sa 08:00-23:00; Su 08:00-22:00", "image": "https://www.farmhouseinns.co.uk/q/i/5692/", "brand": "Farmhouse Inns", "brand:wikidata": "Q105504972", "nsi_id": "farmhouseinns-9b5453"}, "geometry": {"type": "Point", "coordinates": [-1.468722, 50.935805]}},
{"type": "Feature", "id": "KbXcc5CKRbyAs9cemTf4nFiNqXU=", "properties": {"ref": "5207", "@spider": "farmhouse_inns", "amenity": "restaurant", "cuisine": "british", "addr:full": "2A Langstone Road, Havant, PO9 1SA", "addr:postcode": "PO9 1SA", "addr:country": "GB", "name": "Langbrook Farm", "phone": "02392 480204", "website": "https://www.farmhouseinns.co.uk/pubs/hampshire/langbrook-farm/", "contact:email": "5207@greeneking.co.uk", "opening_hours": "Mo-Th 08:00-22:00; Fr-Sa 08:00-23:00; Su 08:00-22:00", "image": "https://www.farmhouseinns.co.uk/q/i/5207/", "brand": "Farmhouse Inns", "brand:wikidata": "Q105504972", "nsi_id": "farmhouseinns-9b5453"}, "geometry": {"type": "Point", "coordinates": [-0.989785, 50.847599]}},
{"type": "Feature", "id": "hUKFACZ6FuZfWuiD4kY3EpTAL5M=", "properties": {"ref": "5184", "@spider": "farmhouse_inns", "amenity": "restaurant", "cuisine": "british", "addr:full": "Waterfold Park, Bury, BL9 7BR", "addr:postcode": "BL9 7BR", "addr:country": "GB", "name": "Waterfold Farm", "phone": "0161 764 8911", "website": "https://www.farmhouseinns.co.uk/pubs/greater-manchester/waterfold-farm/", "contact:email": "5184@greeneking.co.uk", "opening_hours": "Mo-Th 08:00-22:00; Fr-Sa 08:00-23:00; Su 08:00-22:00", "image": "https://www.farmhouseinns.co.uk/q/i/5184/", "brand": "Farmhouse Inns", "brand:wikidata": "Q105504972", "nsi_id": "farmhouseinns-9b5453"}, "geometry": {"type": "Point", "coordinates": [-2.275664, 53.589837]}},
{"type": "Feature", "id": "Z2L5PmNjnJORH_KJLmhrc-I-WCk=", "properties": {"ref": "5797", "@spider": "farmhouse_inns", "amenity": "restaurant", "cuisine": "british", "addr:full": "Queen Pit Road, Wigan, WN3 6QJ", "addr:postcode": "WN3 6QJ", "addr:country": "GB", "name": "Primrose Farm", "phone": "01942 914919", "website": "https://www.farmhouseinns.co.uk/pubs/greater-manchester/primrose-farm/", "contact:email": "5797@greeneking.co.uk", "opening_hours": "Mo-Th 09:00-22:00; Fr-Sa 09:00-23:00; Su 09:00-22:00", "image": "https://www.farmhouseinns.co.uk/q/i/5797/", "brand": "Farmhouse Inns", "brand:wikidata": "Q105504972", "nsi_id": "farmhouseinns-9b5453"}, "geometry": {"type": "Point", "coordinates": [-2.66245, 53.528931]}},
{"type": "Feature", "id": "Oaf1r8Wsc80fAkkFkEq8mYBQgNQ=", "properties": {"ref": "5794", "@spider": "farmhouse_inns", "amenity": "restaurant", "cuisine": "british", "addr:full": "6 Mercury Way,, Urmston, Manchester, M41 7PA", "addr:postcode": "M41 7PA", "addr:country": "GB", "name": "Coppice Wood Farm", "phone": "0161 537 8850", "website": "https://www.farmhouseinns.co.uk/pubs/greater-manchester/coppice-wood-farm/", "contact:email": "5794@greeneking.co.uk", "opening_hours": "Mo-Th 08:00-22:00; Fr-Sa 08:00-23:00; Su 08:00-22:00", "image": "https://www.farmhouseinns.co.uk/q/i/5794/", "brand": "Farmhouse Inns", "brand:wikidata": "Q105504972", "nsi_id": "farmhouseinns-9b5453"}, "geometry": {"type": "Point", "coordinates": [-2.3371, 53.463708]}},
{"type": "Feature", "id": "1U-4jmkKbnoGmHf8CiR2JdEisfw=", "properties": {"ref": "5204", "@spider": "farmhouse_inns", "amenity": "restaurant", "cuisine": "british", "addr:full": "Sinderland Road, Altrincham, WA14 5JQ", "addr:postcode": "WA14 5JQ", "addr:country": "GB", "name": "Bramley Farm", "phone": "0161 509 9857", "website": "https://www.farmhouseinns.co.uk/pubs/greater-manchester/bramley-farm/", "contact:email": "5204@greeneking.co.uk", "opening_hours": "Mo-Su 08:00-21:00", "image": "https://www.farmhouseinns.co.uk/q/i/5204/", "brand": "Farmhouse Inns", "brand:wikidata": "Q105504972", "nsi_id": "farmhouseinns-9b5453"}, "geometry": {"type": "Point", "coordinates": [-2.362702, 53.405232]}},
{"type": "Feature", "id": "qtr0mhTBLnWJ1GOCE8ac6IYZsHk=", "properties": {"ref": "5194", "@spider": "farmhouse_inns", "amenity": "restaurant", "cuisine": "british", "addr:full": "Astley Park Way, Off Chaddock Lane, Worsley, Manchester, M28 1FJ", "addr:postcode": "M28 1FJ", "addr:country": "GB", "name": "Applewood Farm", "phone": "0161 703 3611", "website": "https://www.farmhouseinns.co.uk/pubs/greater-manchester/applewood-farm/", "contact:email": "5194@greeneking.co.uk", "opening_hours": "Mo-Th 08:00-22:00; Fr-Sa 08:00-23:00; Su 08:00-22:00", "image": "https://www.farmhouseinns.co.uk/q/i/5194/", "brand": "Farmhouse Inns", "brand:wikidata": "Q105504972", "nsi_id": "farmhouseinns-9b5453"}, "geometry": {"type": "Point", "coordinates": [-2.440403, 53.505055]}},
{"type": "Feature", "id": "Z6QgeuDeI4x8MnQ62qz9Y3nAVP4=", "properties": {"ref": "1854", "@spider": "farmhouse_inns", "amenity": "restaurant", "cuisine": "british", "addr:full": "Kingsway Business Park, Quedgeley, Gloucester, GL2 2FY", "addr:postcode": "GL2 2FY", "addr:country": "GB", "name": "Rose Tree Farm", "phone": "01452 689032", "website": "https://www.farmhouseinns.co.uk/pubs/gloucestershire/rose-tree-farm/", "contact:email": "1854@greeneking.co.uk", "opening_hours": "Mo-Th 08:00-22:00; Fr-Sa 08:00-23:00; Su 08:00-22:00", "image": "https://www.farmhouseinns.co.uk/q/i/1854/", "brand": "Farmhouse Inns", "brand:wikidata": "Q105504972", "nsi_id": "farmhouseinns-9b5453"}, "geometry": {"type": "Point", "coordinates": [-2.26758, 51.81879]}},
{"type": "Feature", "id": "W-o8MyUEd8iAtWXcnjL_aSxa6oA=", "properties": {"ref": "5694", "@spider": "farmhouse_inns", "amenity": "restaurant", "cuisine": "british", "addr:full": "Boothferry Road, Hessle, HU13 0JL", "addr:postcode": "HU13 0JL", "addr:country": "GB", "name": "Wingfield Farm", "phone": "01482 421092", "website": "https://www.farmhouseinns.co.uk/pubs/east-riding-yorkshire/wingfield-farm/", "contact:email": "5694@greeneking.co.uk", "opening_hours": "Mo-Su 09:00-22:00", "image": "https://www.farmhouseinns.co.uk/q/i/5694/", "brand": "Farmhouse Inns", "brand:wikidata": "Q105504972", "nsi_id": "farmhouseinns-9b5453"}, "geometry": {"type": "Point", "coordinates": [-0.457389, 53.725877]}},
{"type": "Feature", "id": "g3M2K6zgUp57HyJ9YTxwMOObHLc=", "properties": {"ref": "5191", "@spider": "farmhouse_inns", "amenity": "restaurant", "cuisine": "british", "addr:full": "Etwall Road, Willington, Derby, DE65 6DX", "addr:postcode": "DE65 6DX", "addr:country": "GB", "name": "Cherry Tree Farm", "phone": "01283 701 785", "website": "https://www.farmhouseinns.co.uk/pubs/derbyshire/cherry-tree-farm/", "contact:email": "5191@greeneking.co.uk", "opening_hours": "Mo-Su 12:00-22:00", "image": "https://www.farmhouseinns.co.uk/q/i/5191/", "brand": "Farmhouse Inns", "brand:wikidata": "Q105504972", "nsi_id": "farmhouseinns-9b5453"}, "geometry": {"type": "Point", "coordinates": [-1.565269, 52.864329]}},
{"type": "Feature", "id": "L3MMcFNtO6TN8ZleD3JRVbJFLuc=", "properties": {"ref": "6599", "@spider": "farmhouse_inns", "amenity": "restaurant", "cuisine": "british", "addr:full": "Weston Road, Crewe, CW1 6NE", "addr:postcode": "CW1 6NE", "addr:country": "GB", "name": "Rookery Wood Farm", "phone": "01270 255384", "website": "https://www.farmhouseinns.co.uk/pubs/cheshire/rookery-wood-farm/", "contact:email": "6599@greeneking.co.uk", "opening_hours": "Mo-Th 08:00-22:00; Fr-Sa 08:00-23:00; Su 08:00-22:00", "image": "https://www.farmhouseinns.co.uk/q/i/6599/", "brand": "Farmhouse Inns", "brand:wikidata": "Q105504972", "nsi_id": "farmhouseinns-9b5453"}, "geometry": {"type": "Point", "coordinates": [-2.414044, 53.080463]}},
{"type": "Feature", "id": "ydI0tt_e-eJJPFevAExbxR3vdGo=", "properties": {"ref": "6356", "@spider": "farmhouse_inns", "amenity": "restaurant", "cuisine": "british", "addr:full": "Manchester Road, Woolston, Warrington, WA3 6DR", "addr:postcode": "WA3 6DR", "addr:country": "GB", "name": "Juniper Farm", "phone": "01925 812923", "website": "https://www.farmhouseinns.co.uk/pubs/cheshire/juniper-farm/", "contact:email": "6356@greeneking.co.uk", "opening_hours": "Mo-Th 09:00-22:00; Fr-Sa 09:00-23:00; Su 09:00-22:00", "image": "https://www.farmhouseinns.co.uk/q/i/6356/", "brand": "Farmhouse Inns", "brand:wikidata": "Q105504972", "nsi_id": "farmhouseinns-9b5453"}, "geometry": {"type": "Point", "coordinates": [-2.508698, 53.399389]}},
{"type": "Feature", "id": "GBl77ltNXLQ12IEGWccqYlfysUE=", "properties": {"ref": "5793", "@spider": "farmhouse_inns", "amenity": "restaurant", "cuisine": "british", "addr:full": "Rossmore Road East, Ellesmere Port, CH65 3BR", "addr:postcode": "CH65 3BR", "addr:country": "GB", "name": "Green Oak Farm", "phone": "0151 317 8870", "website": "https://www.farmhouseinns.co.uk/pubs/cheshire/green-oak-farm/", "contact:email": "5793@greeneking.co.uk", "opening_hours": "Mo-Th 09:00-22:00; Fr-Sa 09:00-23:00; Su 09:00-22:00", "image": "https://www.farmhouseinns.co.uk/q/i/5793/", "brand": "Farmhouse Inns", "brand:wikidata": "Q105504972", "nsi_id": "farmhouseinns-9b5453"}, "geometry": {"type": "Point", "coordinates": [-2.90575, 53.29007]}},
{"type": "Feature", "id": "lGYw9jjhiyvw2GWFWf9hHbaQc4I=", "properties": {"ref": "5188", "@spider": "farmhouse_inns", "amenity": "restaurant", "cuisine": "british", "addr:full": "Evenwood Close, Runcorn, WA7 1LZ", "addr:postcode": "WA7 1LZ", "addr:country": "GB", "name": "Evenwood Farm", "phone": "01928 571 328", "website": "https://www.farmhouseinns.co.uk/pubs/cheshire/evenwood-farm/", "contact:email": "5188@greeneking.co.uk", "opening_hours": "Mo-Th 09:00-22:00; Fr-Sa 09:00-23:00; Su 09:00-22:00", "image": "https://www.farmhouseinns.co.uk/q/i/5188/", "brand": "Farmhouse Inns", "brand:wikidata": "Q105504972", "nsi_id": "farmhouseinns-9b5453"}, "geometry": {"type": "Point", "coordinates": [-2.658659, 53.349219]}},
{"type": "Feature", "id": "Wmo-H-nnRW49DG_CxtCvi8ZkRyM=", "properties": {"ref": "5200", "@spider": "farmhouse_inns", "amenity": "restaurant", "cuisine": "british", "addr:full": "Chapelford Village Centre, Santa Rosa Blvd, Great Sankey, Warrington, WA5 3AG", "addr:postcode": "WA5 3AG", "addr:country": "GB", "name": "Chapelford Farm", "phone": "01925 717732", "website": "https://www.farmhouseinns.co.uk/pubs/cheshire/chapelford-farm/", "contact:email": "5200@greeneking.co.uk", "opening_hours": "Mo-Th 08:00-23:00; Fr-Sa 08:00-24:00; Su 08:00-23:00", "image": "https://www.farmhouseinns.co.uk/q/i/5200/", "brand": "Farmhouse Inns", "brand:wikidata": "Q105504972", "nsi_id": "farmhouseinns-9b5453"}, "geometry": {"type": "Point", "coordinates": [-2.639345, 53.397715]}},
{"type": "Feature", "id": "uHGpi4VeHuRO2dZo9uqUX_uUH2o=", "properties": {"ref": "5788", "@spider": "farmhouse_inns", "amenity": "restaurant", "cuisine": "british", "addr:full": "2 Kempley Close, Hampton Centre, Peterborough, PE7 8QH", "addr:postcode": "PE7 8QH", "addr:country": "GB", "name": "Mulberry Tree Farm", "phone": "01733 304130", "website": "https://www.farmhouseinns.co.uk/pubs/cambridgeshire/mulberry-tree-farm/", "contact:email": "5788@greeneking.co.uk", "opening_hours": "Mo-Th 08:00-22:00; Fr-Sa 08:00-23:00; Su 08:00-22:00", "image": "https://www.farmhouseinns.co.uk/q/i/5788/", "brand": "Farmhouse Inns", "brand:wikidata": "Q105504972", "nsi_id": "farmhouseinns-9b5453"}, "geometry": {"type": "Point", "coordinates": [-0.258064, 52.537327]}},
{"type": "Feature", "id": "HwHVEhfyMv_xWssSBxEnHSN58zo=", "properties": {"ref": "5690", "@spider": "farmhouse_inns", "amenity": "restaurant", "cuisine": "british", "addr:full": "Fletcher Road, Kempston, Bedford, MK42 7FY", "addr:postcode": "MK42 7FY", "addr:country": "GB", "name": "Maypole Farm", "phone": "01234 857218", "website": "https://www.farmhouseinns.co.uk/pubs/bedfordshire/maypole-farm/", "contact:email": "5690@greeneking.co.uk", "opening_hours": "Mo-Th 08:00-22:00; Fr-Sa 08:00-23:00; Su 08:00-22:00", "image": "https://www.farmhouseinns.co.uk/q/i/5690/", "brand": "Farmhouse Inns", "brand:wikidata": "Q105504972", "nsi_id": "farmhouseinns-9b5453"}, "geometry": {"type": "Point", "coordinates": [-0.50799, 52.105077]}},
{"type": "Feature", "id": "wkeW08R0ZWuEaYZZzylc6erLF_E=", "properties": {"ref": "5209", "@spider": "farmhouse_inns", "amenity": "restaurant", "cuisine": "british", "addr:full": "Vantage Office Park, Old Gloucester Road, Hambrook, Bristol, BS16 1GW", "addr:postcode": "BS16 1GW", "addr:country": "GB", "name": "Winter Stream Farm", "phone": "01454 250296", "website": "https://www.farmhouseinns.co.uk/pubs/avon/winter-stream-farm/", "contact:email": "5209@greeneking.co.uk", "opening_hours": "Mo-Su 12:00-22:00", "image": "https://www.farmhouseinns.co.uk/q/i/5209/", "brand": "Farmhouse Inns", "brand:wikidata": "Q105504972", "nsi_id": "farmhouseinns-9b5453"}, "geometry": {"type": "Point", "coordinates": [-2.526523, 51.478462]}},
{"type": "Feature", "id": "PXZVn2Rw9lwmAVBMWOSrPOdmOWw=", "properties": {"ref": "1771", "@spider": "farmhouse_inns", "amenity": "restaurant", "cuisine": "british", "addr:full": "50-52  Kings Cross Road, Dundee, DD2 3UQ", "addr:postcode": "DD2 3UQ", "addr:country": "GB", "name": "Kingsway Farm", "phone": "01382 823900", "website": "https://www.farmhouseinns.co.uk/pubs/angus/kingsway-farm/", "contact:email": "kingswayfarm@greeneking.co.uk", "opening_hours": "Mo-Th 08:00-22:00; Fr-Sa 08:00-23:00; Su 08:00-22:00", "image": "https://www.farmhouseinns.co.uk/q/i/1771/", "brand": "Farmhouse Inns", "brand:wikidata": "Q105504972", "nsi_id": "farmhouseinns-9b5453"}, "geometry": {"type": "Point", "coordinates": [-3.000533, 56.477528]}}]}