{"type":"FeatureCollection","features":[{"type": "Feature", "id": "RitdUHi7BEibiLVnXj7tbfG88Rc=", "properties": {"ref": "tel:518-843-2180", "@spider": "fastrac", "addr:full": "138 Market St.", "addr:city": "Amsterdam", "addr:state": "NY", "addr:postcode": "12010", "name": "Amsterdam Fastrac", "phone": "518-843-2180", "opening_hours": "5AM \u2013 MIDNIGHT", "brand": "Fastrac Cafe"}, "geometry": {"type": "Point", "coordinates": [-74.18818950000002, 42.9437052]}},
{"type": "Feature", "id": "dUeRA_UfsroB9FDL5d85LpZQmQk=", "properties": {"ref": "tel:(315) 252-8203", "@spider": "fastrac", "addr:full": "148 Grant Avenue", "addr:city": "Auburn", "addr:state": "NY", "addr:postcode": "13021", "name": "Auburn Fastrac", "phone": "(315) 252-8203", "opening_hours": "6AM \u2013 10PM", "brand": "Fastrac Cafe"}, "geometry": {"type": "Point", "coordinates": [-76.551601, 42.943611]}},
{"type": "Feature", "id": "a90VwR4rgrEPNJmh_oRMyoz_eiU=", "properties": {"ref": "tel:716-836-1543", "@spider": "fastrac", "addr:full": "2751 Bailey Ave.", "addr:city": "Buffalo", "addr:state": "NY", "addr:postcode": "14215", "name": "Bailey Ave Fastrac", "phone": "716-836-1543", "opening_hours": "Open 24 Hours", "brand": "Fastrac Cafe"}, "geometry": {"type": "Point", "coordinates": [-78.81314299999997, 42.92946600000001]}},
{"type": "Feature", "id": "zwk5-hqScwJgr-XLQDdlssQ1-jY=", "properties": {"ref": "tel:(315) 635-7010", "@spider": "fastrac", "addr:full": "2232 Downer Street", "addr:city": "Baldwinsville", "addr:state": "NY", "addr:postcode": "13027", "name": "Baldwinsville Fastrac", "phone": "(315) 635-7010", "opening_hours": "6AM \u2013 10PM", "brand": "Fastrac Cafe"}, "geometry": {"type": "Point", "coordinates": [-76.352629, 43.15165]}},
{"type": "Feature", "id": "DMI_NUn8NTaPOs7_gxsyUBQiOak=", "properties": {"ref": "tel:315-336-4014", "@spider": "fastrac", "addr:full": "1614 Black River Blvd. Near Rose Lane", "addr:city": "Rome", "addr:state": "NY", "addr:postcode": "13440", "name": "Black River Fastrac", "phone": "315-336-4014", "opening_hours": "Open 24 Hours", "brand": "Fastrac Cafe"}, "geometry": {"type": "Point", "coordinates": [-75.43897419999996, 43.22839219999999]}},
{"type": "Feature", "id": "qkojRht-eBvPRIrqBy2stO0erQ4=", "properties": {"ref": "tel:315-245-0539", "@spider": "fastrac", "addr:full": "24 Main St.", "addr:city": "Camden", "addr:state": "NY", "addr:postcode": "13316", "name": "Camden Fastrac", "phone": "315-245-0539", "opening_hours": "5AM \u2013 MIDNIGHT", "brand": "Fastrac Cafe"}, "geometry": {"type": "Point", "coordinates": [-75.74836199999999, 43.333353]}},
{"type": "Feature", "id": "E0--8FQr-M2VMiut9JGlxVUMgrg=", "properties": {"ref": "tel:680-204-2484", "@spider": "fastrac", "addr:full": "507 Hinsdale Rd.", "addr:city": "Camillus", "addr:state": "NY", "addr:postcode": "13031", "name": "Camillus Fastrac", "phone": "680-204-2484", "opening_hours": "5AM \u2013 10PM", "brand": "Fastrac Cafe"}, "geometry": {"type": "Point", "coordinates": [-76.26619310000001, 43.0531364]}},
{"type": "Feature", "id": "EHED8_IsGsLh5Jdy0PcbXdPKk-Q=", "properties": {"ref": "tel:(315) 697-5415", "@spider": "fastrac", "addr:full": "3388 Seneca Turnpike", "addr:city": "Canastota", "addr:state": "NY", "addr:postcode": "13032", "name": "Canastota Fastrac", "phone": "(315) 697-5415", "opening_hours": "Open 24 Hours", "brand": "Fastrac Cafe"}, "geometry": {"type": "Point", "coordinates": [-75.754458, 43.06911]}},
{"type": "Feature", "id": "9p-_lMqTpLi9_rpJh746YRtcKEA=", "properties": {"ref": "tel:315-668-2704", "@spider": "fastrac", "addr:full": "3007 East Ave.", "addr:city": "Central Square", "addr:state": "NY", "addr:postcode": "13036", "name": "Central Square Fastrac", "phone": "315-668-2704", "opening_hours": "5AM-10PM", "brand": "Fastrac Cafe"}, "geometry": {"type": "Point", "coordinates": [-76.12803969999999, 43.2862842]}},
{"type": "Feature", "id": "cwvX5MbEnk6ATivVv2J-DxNad1E=", "properties": {"ref": "tel:315-699-4507", "@spider": "fastrac", "addr:full": "5858 Route 31", "addr:city": "Cicero", "addr:state": "NY", "addr:postcode": "13039", "name": "Cicero Fastrac", "phone": "315-699-4507", "opening_hours": "6AM \u2013 10PM", "brand": "Fastrac Cafe"}, "geometry": {"type": "Point", "coordinates": [-76.11466459999997, 43.1752417]}},
{"type": "Feature", "id": "YyJnUMXeeeHx54cj2TOohedeXzA=", "properties": {"ref": "tel:315-622-3058", "@spider": "fastrac", "addr:full": "8467 Oswego Rd.", "addr:city": "Clay", "addr:state": "NY", "addr:postcode": "13027", "name": "Clay Fastrac", "phone": "315-622-3058", "opening_hours": "5AM \u2013 11PM", "brand": "Fastrac Cafe"}, "geometry": {"type": "Point", "coordinates": [-76.26216160000001, 43.1803143]}},
{"type": "Feature", "id": "HJ4p19O-1Vq-spaiE6P9hYVMu1Y=", "properties": {"ref": "tel:315-923-9811", "@spider": "fastrac", "addr:full": "1 North Park St.", "addr:city": "Clyde", "addr:state": "NY", "addr:postcode": "14433", "name": "Clyde Fastrac", "phone": "315-923-9811", "opening_hours": "6AM \u2013 10PM", "brand": "Fastrac Cafe"}, "geometry": {"type": "Point", "coordinates": [-76.8695851, 43.0845183]}},
{"type": "Feature", "id": "oPJDwM2UcxtmFPYeSXXmLil0eeY=", "properties": {"ref": "tel:315-689-3510", "@spider": "fastrac", "addr:full": "110-112 W. Main Street", "addr:city": "Elbridge", "addr:state": "NY", "addr:postcode": "13060", "name": "Elbridge Fastrac", "phone": "315-689-3510", "opening_hours": "6AM \u2013 10PM", "brand": "Fastrac Cafe"}, "geometry": {"type": "Point", "coordinates": [-76.449315, 43.0346595]}},
{"type": "Feature", "id": "7lVqj7xgukipPtMtJEi8DHnZDWg=", "properties": {"ref": "tel:607.732.1930", "@spider": "fastrac", "addr:full": "2204 College Ave.", "addr:city": "Elmira Heights", "addr:state": "NY", "addr:postcode": "14903", "name": "Elmira Heights Fastrac", "phone": "607.732.1930", "opening_hours": "5AM \u2013 10PM", "brand": "Fastrac Cafe"}, "geometry": {"type": "Point", "coordinates": [-76.8272299, 42.1315363]}},
{"type": "Feature", "id": "Pw9qGE3tQYRavYUfMr7OChwBDQg=", "properties": {"ref": "tel:(315) 334-6969", "@spider": "fastrac", "addr:full": "1336 Erie Blvd. West", "addr:city": "Rome", "addr:state": "NY", "addr:postcode": "13440", "name": "Erie Blvd West Fastrac", "phone": "(315) 334-6969", "opening_hours": "6AM \u2013 10PM", "brand": "Fastrac Cafe"}, "geometry": {"type": "Point", "coordinates": [-75.493033, 43.229699]}},
{"type": "Feature", "id": "rSutziE3NjI5ZUaMp67IXJGJLxA=", "properties": {"ref": "tel:315-336-8027", "@spider": "fastrac", "addr:full": "600 W. Erie Blvd.", "addr:city": "Rome", "addr:state": "NY", "addr:postcode": "13440", "name": "Erie Blvd. Fastrac", "phone": "315-336-8027", "opening_hours": "6AM \u2013 11PM", "brand": "Fastrac Cafe"}, "geometry": {"type": "Point", "coordinates": [-75.4729317, 43.2151805]}},
{"type": "Feature", "id": "4iDy0eXnlhid7DszJYBGNg9nI_o=", "properties": {"ref": "tel:(315) 337-0397", "@spider": "fastrac", "addr:full": "400 North James Street", "addr:city": "Rome", "addr:state": "NY", "addr:postcode": "13440", "name": "Ft. Stanwix Fastrac", "phone": "(315) 337-0397", "opening_hours": "Open 6AM-10PM", "brand": "Fastrac Cafe"}, "geometry": {"type": "Point", "coordinates": [-75.454223, 43.214452]}},
{"type": "Feature", "id": "R-gJf7naN6ylW3zWEwrLUnk_UuQ=", "properties": {"ref": "tel:315-598-8648", "@spider": "fastrac", "addr:full": "S. Second & E. Broadway", "addr:city": "Fulton", "addr:state": "NY", "addr:postcode": "13069", "name": "Fulton Fastrac", "phone": "315-598-8648", "opening_hours": "Open 24 Hours", "brand": "Fastrac Cafe"}, "geometry": {"type": "Point", "coordinates": [-76.41234829999996, 43.3183675]}},
{"type": "Feature", "id": "BAqegCCNvQ7hO-SgGjtP7i_GL6U=", "properties": {"ref": "tel:315-789-5098", "@spider": "fastrac", "addr:full": "371 Hamilton St.", "addr:city": "Geneva", "addr:state": "NY", "addr:postcode": "14456", "name": "Geneva Fastrac", "phone": "315-789-5098", "opening_hours": "5AM \u2013 10PM", "brand": "Fastrac Cafe"}, "geometry": {"type": "Point", "coordinates": [-76.99768089999998, 42.8577967]}},
{"type": "Feature", "id": "-1MRp_wtaaUzG6-xQ7RVguEmVDI=", "properties": {"ref": "tel:585-334-7100", "@spider": "fastrac", "addr:full": "4200 West Henrietta Road", "addr:city": "Henrietta", "addr:state": "NY", "addr:postcode": "14623", "name": "Henrietta Fastrac", "phone": "585-334-7100", "opening_hours": "6AM \u2013 10PM", "brand": "Fastrac Cafe"}, "geometry": {"type": "Point", "coordinates": [-77.64599299999998, 43.068364]}},
{"type": "Feature", "id": "_LCYumQoyLh1kVifylZ7PP8NKfY=", "properties": {"ref": "tel:315-866-6585", "@spider": "fastrac", "addr:full": "201 W. State St", "addr:city": "Herkimer", "addr:state": "NY", "addr:postcode": "13350", "name": "Herkimer Fastrac", "phone": "315-866-6585", "opening_hours": "5AM \u2013 11PM", "brand": "Fastrac Cafe"}, "geometry": {"type": "Point", "coordinates": [-74.98626079999997, 43.0251606]}},
{"type": "Feature", "id": "noWPVu35-m2r9OjAj5ayjjr217k=", "properties": {"ref": "tel:315-724-1268", "@spider": "fastrac", "addr:full": "1301 Herkimer Rd.", "addr:city": "Utica", "addr:state": "NY", "addr:postcode": "13502", "name": "Herkimer Rd. Fastrac", "phone": "315-724-1268", "opening_hours": "5AM \u2013 11PM", "brand": "Fastrac Cafe"}, "geometry": {"type": "Point", "coordinates": [-75.1803127, 43.11026529999999]}},
{"type": "Feature", "id": "t3GytDpTddN5RF-1WEcCyHy1tdI=", "properties": {"ref": "tel:(585) 321-0197", "@spider": "fastrac", "addr:full": "1820 Hylan Drive", "addr:city": "Rochester", "addr:state": "NY", "addr:postcode": "14623", "name": "Hylan Drive Fastrac", "phone": "(585) 321-0197", "opening_hours": "5AM \u2013 10PM", "brand": "Fastrac Cafe"}, "geometry": {"type": "Point", "coordinates": [-77.6269727, 43.074911]}},
{"type": "Feature", "id": "QBX2-RZ2o_oNkAud4skz80kW5WQ=", "properties": {"ref": "tel:315-894-8686", "@spider": "fastrac", "addr:full": "114 Central Ave", "addr:city": "Ilion", "addr:state": "NY", "addr:postcode": "13357", "name": "Ilion Fastrac", "phone": "315-894-8686", "opening_hours": "5AM \u2013 MIDNIGHT", "brand": "Fastrac Cafe"}, "geometry": {"type": "Point", "coordinates": [-75.032893, 43.0184666]}},
{"type": "Feature", "id": "c0wPyzVAHFIfMqSnTK7AjZ3i4k8=", "properties": {"ref": "tel:607-272-6222", "@spider": "fastrac", "addr:full": "214 N. Meadow St.", "addr:city": "Ithaca", "addr:state": "NY", "addr:postcode": "14850", "name": "Ithaca Fastrac", "phone": "607-272-6222", "opening_hours": "6AM \u2013 10PM", "brand": "Fastrac Cafe"}, "geometry": {"type": "Point", "coordinates": [-76.50873100000001, 42.440766]}},
{"type": "Feature", "id": "t3CGwd3K2Y9Y6cZM35ULEBVOAok=", "properties": {"ref": "tel:585-272-7535", "@spider": "fastrac", "addr:full": "291 Jefferson Road", "addr:city": "Rochester", "addr:state": "NY", "addr:postcode": "14623", "name": "Jefferson Rd Fastrac", "phone": "585-272-7535", "opening_hours": "6AM \u2013 10PM", "brand": "Fastrac Cafe"}, "geometry": {"type": "Point", "coordinates": [-77.65311700000001, 43.092211]}},
{"type": "Feature", "id": "Zmuk86w9b4UFQscOWrSomhO0HuY=", "properties": {"ref": "tel:", "@spider": "fastrac", "addr:full": "2526 US 11", "addr:city": "Lafayette", "addr:state": "NY", "addr:postcode": "13084", "name": "Lafayette Fastrac", "opening_hours": "5AM \u2013 10PM", "brand": "Fastrac Cafe"}, "geometry": {"type": "Point", "coordinates": [-76.10519, 42.89406]}},
{"type": "Feature", "id": "vrNisWH9OuagVMiZ1nwC5v1IZBg=", "properties": {"ref": "tel:315-457-0199", "@spider": "fastrac", "addr:full": "7189 Oswego Rd.", "addr:city": "Liverpool", "addr:state": "NY", "addr:postcode": "13090", "name": "Liverpool Fastrac", "phone": "315-457-0199", "opening_hours": "4AM \u2013 10PM", "brand": "Fastrac Cafe"}, "geometry": {"type": "Point", "coordinates": [-76.21553690000002, 43.11877250000001]}},
{"type": "Feature", "id": "3bmSnWZnUD4JfkzsNUGxSsm8AUs=", "properties": {"ref": "tel:315-376-7230", "@spider": "fastrac", "addr:full": "5610 Shady Ave.", "addr:city": "Lowville", "addr:state": "NY", "addr:postcode": "13367", "name": "Lowville Fastrac", "phone": "315-376-7230", "opening_hours": "6AM \u2013 10PM", "brand": "Fastrac Cafe"}, "geometry": {"type": "Point", "coordinates": [-75.48082640000001, 43.7882212]}},
{"type": "Feature", "id": "v4I-GHq39PxdP1jfXTEqAc1lX8o=", "properties": {"ref": "tel:585-546-3411", "@spider": "fastrac", "addr:full": "672 East Main Street", "addr:city": "Rochester", "addr:state": "NY", "addr:postcode": "14605", "name": "Main St Fastrac", "phone": "585-546-3411", "opening_hours": "Open 24 Hours", "brand": "Fastrac Cafe"}, "geometry": {"type": "Point", "coordinates": [-77.5947079, 43.16016399999999]}},
{"type": "Feature", "id": "_PrYLFjqqtT5O72OxuH4muxh7es=", "properties": {"ref": "tel:315-736-4512", "@spider": "fastrac", "addr:full": "Route 49 & River Rd.", "addr:city": "Marcy", "addr:state": "NY", "addr:postcode": "13403", "name": "Marcy Fastrac", "phone": "315-736-4512", "opening_hours": "5AM \u2013 MIDNIGHT", "brand": "Fastrac Cafe"}, "geometry": {"type": "Point", "coordinates": [-75.24312950000001, 43.1260153]}},
{"type": "Feature", "id": "kZdifo6j_WvUWFZRV0Zzn1ABYHs=", "properties": {"ref": "tel:315-963-3048", "@spider": "fastrac", "addr:full": "3364 Main St.", "addr:city": "Mexico", "addr:state": "NY", "addr:postcode": "13114", "name": "Mexico Fastrac", "phone": "315-963-3048", "opening_hours": "6AM \u2013 10PM", "brand": "Fastrac Cafe"}, "geometry": {"type": "Point", "coordinates": [-76.23765960000003, 43.4603939]}},
{"type": "Feature", "id": "GgOk-vDHp6I49lOjibynQW3etE8=", "properties": {"ref": "tel:(315) 866-1354", "@spider": "fastrac", "addr:full": "1 Main Street", "addr:city": "Mohawk", "addr:state": "NY", "addr:postcode": "13407", "name": "Mohawk Fastrac", "phone": "(315) 866-1354", "opening_hours": "5AM \u2013 11PM", "brand": "Fastrac Cafe"}, "geometry": {"type": "Point", "coordinates": [-75.004755, 43.011278]}},
{"type": "Feature", "id": "YH7ITeV_u9-zJvj72aoAGYJPqYM=", "properties": {"ref": "tel:315-733-6817", "@spider": "fastrac", "addr:full": "384 N. Genesee St.", "addr:city": "Utica", "addr:state": "NY", "addr:postcode": "13503", "name": "North Utica Fastrac", "phone": "315-733-6817", "opening_hours": "5AM \u2013 MIDNIGHT", "brand": "Fastrac Cafe"}, "geometry": {"type": "Point", "coordinates": [-75.2105846, 43.1159835]}},
{"type": "Feature", "id": "kRhLCDfwSWKthmOFjSVZqXJ1X8I=", "properties": {"ref": "tel:315-369-3020", "@spider": "fastrac", "addr:full": "Route 28 & Middle Branch Rd", "addr:city": "Old Forge", "addr:state": "NY", "addr:postcode": "13420", "name": "Old Forge Fastrac", "phone": "315-369-3020", "opening_hours": "6AM \u2013 10PM", "brand": "Fastrac Cafe"}, "geometry": {"type": "Point", "coordinates": [-74.9832768, 43.7042156]}},
{"type": "Feature", "id": "91Ti4kyBq9kdNjzWK8euX3J7ed4=", "properties": {"ref": "tel:315-524-3333", "@spider": "fastrac", "addr:full": "1933 Route 104", "addr:city": "Ontario", "addr:state": "NY", "addr:postcode": "14519", "name": "Ontario Fastrac", "phone": "315-524-3333", "opening_hours": "6AM \u2013 10PM", "brand": "Fastrac Cafe"}, "geometry": {"type": "Point", "coordinates": [-77.28774599999997, 43.2279375]}},
{"type": "Feature", "id": "JNjMZL5-LHyZ3Ubn9t245XGk_3Y=", "properties": {"ref": "tel:315-266-0215", "@spider": "fastrac", "addr:full": "1400-1410 Oriskany St. West", "addr:city": "Utica", "addr:state": "NY", "addr:postcode": "13502", "name": "Oriskany Blvd Fastrac", "phone": "315-266-0215", "opening_hours": "5AM \u2013 11PM", "brand": "Fastrac Cafe"}, "geometry": {"type": "Point", "coordinates": [-75.251361, 43.110266]}},
{"type": "Feature", "id": "ss4KUnHs9xA2erg1NiLspLA-cTY=", "properties": {"ref": "tel:315-342-2627", "@spider": "fastrac", "addr:full": "214 West Bridge St.", "addr:city": "Oswego", "addr:state": "NY", "addr:postcode": "13126", "name": "Oswego Fastrac", "phone": "315-342-2627", "opening_hours": "6AM \u2013 10PM", "brand": "Fastrac Cafe"}, "geometry": {"type": "Point", "coordinates": [-76.5265023, 43.4535791]}},
{"type": "Feature", "id": "IVDBiSDi88CJHJ92WQAbd_2ZypA=", "properties": {"ref": "tel:607-869-5037", "@spider": "fastrac", "addr:full": "2200 - 2210 Route 96", "addr:city": "Ovid", "addr:state": "NY", "addr:postcode": "14521", "name": "Ovid Fastrac", "phone": "607-869-5037", "opening_hours": "5AM \u2013 MIDNIGHT", "brand": "Fastrac Cafe"}, "geometry": {"type": "Point", "coordinates": [-76.8195627, 42.68080670000001]}},
{"type": "Feature", "id": "xX2P7kbgGbTq8MN0GxNJmyoJ1wc=", "properties": {"ref": "tel:315-798-8668", "@spider": "fastrac", "addr:full": "1668 Oneida Street", "addr:city": "Utica", "addr:state": "NY", "addr:postcode": "13501", "name": "Parkway Fastrac", "phone": "315-798-8668", "opening_hours": "6AM \u2013 11PM", "brand": "Fastrac Cafe"}, "geometry": {"type": "Point", "coordinates": [-75.2526076, 43.087171]}},
{"type": "Feature", "id": "o11Or_PWOSeg6MJfSVuVUs2OHtg=", "properties": {"ref": "tel:585-218-2010", "@spider": "fastrac", "addr:full": "2500 Brown Croft Blvd.", "addr:city": "Penfield", "addr:state": "NY", "addr:postcode": "14526", "name": "Penfield Fastrac", "phone": "585-218-2010", "opening_hours": "6AM \u2013 10PM", "brand": "Fastrac Cafe"}, "geometry": {"type": "Point", "coordinates": [-77.505086, 43.154074]}},
{"type": "Feature", "id": "lVsvw06BD_bk8Rd-1_SKJ5pvPCA=", "properties": {"ref": "tel:315-695-2525", "@spider": "fastrac", "addr:full": "343 State Route 264", "addr:city": "Phoenix", "addr:state": "NY", "addr:postcode": "13135", "name": "Phoenix Fastrac", "phone": "315-695-2525", "opening_hours": "6AM \u2013 10PM", "brand": "Fastrac Cafe"}, "geometry": {"type": "Point", "coordinates": [-76.28351599999996, 43.3425527]}},
{"type": "Feature", "id": "XW7AA7acyFKatc5DvT_8m7RUswk=", "properties": {"ref": "tel:607-648-8663", "@spider": "fastrac", "addr:full": "17 Canal St.", "addr:city": "Port Crane", "addr:state": "NY", "addr:postcode": "13833", "name": "Port Crane Fastrac", "phone": "607-648-8663", "opening_hours": "5AM \u2013 10PM", "brand": "Fastrac Cafe"}, "geometry": {"type": "Point", "coordinates": [-75.83481710000001, 42.1647658]}},
{"type": "Feature", "id": "RopcZIFRc8rQhVSc6JhizDQ9J7g=", "properties": {"ref": "tel:(315) 298-3500", "@spider": "fastrac", "addr:full": "3821 Rome Rd / NY Rt 13", "addr:city": "Pulaski", "addr:state": "NY", "addr:postcode": "13142", "name": "Pulaski Fastrac", "phone": "(315) 298-3500", "opening_hours": "6AM \u2013 10PM", "brand": "Fastrac Cafe"}, "geometry": {"type": "Point", "coordinates": [-76.11867, 43.55761]}},
{"type": "Feature", "id": "O7FctjyzjQ6HBSkVxg66oYZGUXY=", "properties": {"ref": "tel:(518) 793 2647", "@spider": "fastrac", "addr:full": "208 Corinth Road", "addr:city": "Queensbury", "addr:state": "NY", "addr:postcode": "12804", "name": "Queensbury", "phone": "(518) 793 2647", "opening_hours": "6AM \u2013 10PM", "brand": "Fastrac Cafe"}, "geometry": {"type": "Point", "coordinates": [-73.681281, 43.297911]}},
{"type": "Feature", "id": "x7G8-R9_ftb6nFgX1is1_MBTD50=", "properties": {"ref": "tel:(585) 254-8913", "@spider": "fastrac", "addr:full": "375 West Ridge Road", "addr:city": "Rochester", "addr:state": "NY", "addr:postcode": "14615", "name": "Ridge Road Fastrac", "phone": "(585) 254-8913", "opening_hours": "^AM \u2013 10PM", "brand": "Fastrac Cafe"}, "geometry": {"type": "Point", "coordinates": [-77.63738, 43.199223]}},
{"type": "Feature", "id": "VPAS8vkMmTqgBY7Y-5EWSz9WQdw=", "properties": {"ref": "tel:607-962-2949", "@spider": "fastrac", "addr:full": "361 W. Pulteney", "addr:city": "Corning", "addr:state": "NY", "addr:postcode": "14830", "name": "Riverside Fastrac", "phone": "607-962-2949", "opening_hours": "5AM \u2013 10PM", "brand": "Fastrac Cafe"}, "geometry": {"type": "Point", "coordinates": [-77.07720599999999, 42.153757]}},
{"type": "Feature", "id": "bLGqnupJVXVRtJhY06_xpPplkIg=", "properties": {"ref": "tel:(585) 235-7076", "@spider": "fastrac", "addr:full": "1064 Scottsville Rd", "addr:city": "Rochester", "addr:state": "NY", "addr:postcode": "14624", "name": "Scottsville Road Fastrac", "phone": "(585) 235-7076", "opening_hours": "6AM \u2013 10PM", "brand": "Fastrac Cafe"}, "geometry": {"type": "Point", "coordinates": [-77.6495343, 43.1210267]}},
{"type": "Feature", "id": "107Z_Lj_Q1Cn7k9mE1rolb1SojY=", "properties": {"ref": "tel:315-474-2631", "@spider": "fastrac", "addr:full": "800 Erie Blvd. West", "addr:city": "Syracuse", "addr:state": "NY", "addr:postcode": "13204", "name": "Syracuse Fastrac", "phone": "315-474-2631", "opening_hours": "6AM \u2013 10PM", "brand": "Fastrac Cafe"}, "geometry": {"type": "Point", "coordinates": [-76.171449, 43.0484213]}},
{"type": "Feature", "id": "lB0o7rtq8dnVLVkovnJHLI_46iw=", "properties": {"ref": "tel:315-624-0480", "@spider": "fastrac", "addr:full": "1800 Genesee St.", "addr:city": "Utica", "addr:state": "NY", "addr:postcode": "13502", "name": "Uptown Fastrac", "phone": "315-624-0480", "opening_hours": "5AM \u2013 11PM", "brand": "Fastrac Cafe"}, "geometry": {"type": "Point", "coordinates": [-75.25864130000002, 43.0879436]}},
{"type": "Feature", "id": "NyvktOaSp8-JTfQ30Oitrk5LwDs=", "properties": {"ref": "tel:518-883-5601", "@spider": "fastrac", "addr:full": "3707 Route 30", "addr:city": "Amsterdam", "addr:state": "NY", "addr:postcode": "12010", "name": "Vails Mills Fastrac", "phone": "518-883-5601", "opening_hours": "5AM \u2013 MIDNIGHT", "brand": "Fastrac Cafe"}, "geometry": {"type": "Point", "coordinates": [-74.21452499999998, 43.0449399]}},
{"type": "Feature", "id": "RJAkixD9LuWhIu2y5MU-3JGTPRI=", "properties": {"ref": "tel:315-782-0406", "@spider": "fastrac", "addr:full": "1709 State St.", "addr:city": "Watertown", "addr:state": "NY", "addr:postcode": "13601", "name": "Watertown Fastrac", "phone": "315-782-0406", "opening_hours": "Open 24 Hours", "brand": "Fastrac Cafe"}, "geometry": {"type": "Point", "coordinates": [-75.88092999999998, 43.96765]}},
{"type": "Feature", "id": "G5avc6mj5dfmXZ6qq_zIsago1Ew=", "properties": {"ref": "tel:(315) 786-1063", "@spider": "fastrac", "addr:full": "20852 State Route 3", "addr:city": "Watertown", "addr:state": "NY", "addr:postcode": "13601", "name": "Watertown West Fastrac", "phone": "(315) 786-1063", "opening_hours": "6AM \u2013 11PM", "brand": "Fastrac Cafe"}, "geometry": {"type": "Point", "coordinates": [-75.956523, 43.974689]}},
{"type": "Feature", "id": "qdMI22ZhWAlPye7bznrV2WDF0fU=", "properties": {"ref": "tel:315-834-6884", "@spider": "fastrac", "addr:full": "9027 N. Seneca St.", "addr:city": "Weedsport", "addr:state": "NY", "addr:postcode": "13166", "name": "Weedsport Fastrac", "phone": "315-834-6884", "opening_hours": "5AM \u2013 10PM", "brand": "Fastrac Cafe"}, "geometry": {"type": "Point", "coordinates": [-76.5590479, 43.0544563]}},
{"type": "Feature", "id": "fRES0bP9QRl5eR0EW8C2iLpO6RY=", "properties": {"ref": "tel:315-594-8675", "@spider": "fastrac", "addr:full": "5666 Whiskey Hill Rd.", "addr:city": "Wolcott", "addr:state": "NY", "addr:postcode": "14590", "name": "Wolcott Fastrac", "phone": "315-594-8675", "opening_hours": "5AM \u2013 10PM", "brand": "Fastrac Cafe"}, "geometry": {"type": "Point", "coordinates": [-76.81258400000002, 43.208201]}}]}