{"type":"FeatureCollection","features":[{"type": "Feature", "id": "Tdq42W8vHEWCbW7yPfJVRArfhp0=", "properties": {"ref": "https://us.fatface.com/store/ct%20-%20mystic/5014", "@spider": "fatface", "addr:street_address": ["8-10 West Main Street", "Units 6&7"], "addr:city": "Mystic", "addr:state": "Connecticut", "addr:postcode": "CT 06355", "addr:country": "US", "name": "CT - Mystic", "phone": "860-245-5495", "website": "https://us.fatface.com/store/ct%20-%20mystic/5014", "image": "https://media.fatface.com/i/Fat_Face/5014_Store?$store-details-lge$&w=700&h=450&fmt.options=interlaced&?fmt=auto", "brand": "FATFACE", "brand:wikidata": "Q5437186"}, "geometry": {"type": "Point", "coordinates": [-71.97201, 41.35436]}},
{"type": "Feature", "id": "sqjtErFc-zkjCufVdZ4yFk4-d9Y=", "properties": {"ref": "https://us.fatface.com/store/von%20maur%20partner%20-%20il%20glenview/81116", "@spider": "fatface", "addr:street_address": ["1960 Tower Drive", "The Glen Town Center"], "addr:city": "Glenview", "addr:state": "IL", "addr:postcode": "60026", "addr:country": "US", "name": "Von Maur Partner - IL Glenview", "phone": "null", "website": "https://us.fatface.com/store/von%20maur%20partner%20-%20il%20glenview/81116", "image": "https://media.fatface.com/i/Fat_Face/81116_Store?$store-details-lge$&w=700&h=450&fmt.options=interlaced&?fmt=auto", "brand": "FATFACE", "brand:wikidata": "Q5437186"}, "geometry": {"type": "Point", "coordinates": [-87.825199, 42.090179]}},
{"type": "Feature", "id": "9GJzeGbpsOqYtvpzqYk-BkCvCMQ=", "properties": {"ref": "https://us.fatface.com/store/von%20maur%20partner%20-%20il%20forsyth/81115", "@spider": "fatface", "addr:street_address": ["1350 Hickory Point Mall", "Hickory Point Mall"], "addr:city": "Forsyth", "addr:state": "IL", "addr:postcode": "62535", "addr:country": "US", "name": "Von Maur Partner - IL Forsyth", "phone": "null", "website": "https://us.fatface.com/store/von%20maur%20partner%20-%20il%20forsyth/81115", "image": "https://media.fatface.com/i/Fat_Face/81115_Store?$store-details-lge$&w=700&h=450&fmt.options=interlaced&?fmt=auto", "brand": "FATFACE", "brand:wikidata": "Q5437186"}, "geometry": {"type": "Point", "coordinates": [-88.957538, 39.917667]}},
{"type": "Feature", "id": "_Nsx3h6zmt7fcCROrpY1wU7PuAg=", "properties": {"ref": "https://us.fatface.com/store/von%20maur%20partner%20-%20ia%20west%20des%20moines/81130", "@spider": "fatface", "addr:street_address": ["1551 Valley West Drive", "Valley West Mall"], "addr:city": "West Des Moines", "addr:state": "IA", "addr:postcode": "50266", "addr:country": "US", "name": "Von Maur Partner - IA West Des Moines", "phone": "null", "website": "https://us.fatface.com/store/von%20maur%20partner%20-%20ia%20west%20des%20moines/81130", "image": "https://media.fatface.com/i/Fat_Face/81130_Store?$store-details-lge$&w=700&h=450&fmt.options=interlaced&?fmt=auto", "brand": "FATFACE", "brand:wikidata": "Q5437186"}, "geometry": {"type": "Point", "coordinates": [-93.750546, 41.597603]}},
{"type": "Feature", "id": "1NHaWLtuKIDB2slYD1KgIk7sDw0=", "properties": {"ref": "https://us.fatface.com/store/von%20maur%20partner%20-%20ia%20davenport/81129", "@spider": "fatface", "addr:street_address": ["320 West Kimberly Road", "NorthPark Mall"], "addr:city": "Davenport", "addr:state": "IA", "addr:postcode": "52806", "addr:country": "US", "name": "Von Maur Partner - IA Davenport", "phone": "null", "website": "https://us.fatface.com/store/von%20maur%20partner%20-%20ia%20davenport/81129", "image": "https://media.fatface.com/i/Fat_Face/81129_Store?$store-details-lge$&w=700&h=450&fmt.options=interlaced&?fmt=auto", "brand": "FATFACE", "brand:wikidata": "Q5437186"}, "geometry": {"type": "Point", "coordinates": [-90.575338, 41.560817]}},
{"type": "Feature", "id": "MSHmdeWXN-vEdN48cO4y_kFNHVM=", "properties": {"ref": "https://us.fatface.com/store/von%20maur%20partner%20-%20ia%20coralville/81128", "@spider": "fatface", "addr:street_address": ["115 Iowa River Landing Place", "Iowa River Landing"], "addr:city": "Coralville", "addr:state": "IA", "addr:postcode": "52241", "name": "Von Maur Partner - IA Coralville", "phone": "null", "website": "https://us.fatface.com/store/von%20maur%20partner%20-%20ia%20coralville/81128", "image": "https://media.fatface.com/i/Fat_Face/81128_Store?$store-details-lge$&w=700&h=450&fmt.options=interlaced&?fmt=auto", "brand": "FATFACE", "brand:wikidata": "Q5437186"}, "geometry": {"type": "Point", "coordinates": [-91.562067, 41.683537]}},
{"type": "Feature", "id": "Vpf-4hRiBl5vYgahNbviWiGqCeQ=", "properties": {"ref": "https://us.fatface.com/store/von%20maur%20partner%20-%20ia%20cedar%20rapids/81127", "@spider": "fatface", "addr:street_address": ["4444 1st Avenue NE", "Lindale Mall"], "addr:city": "Cedar Rapids", "addr:state": "IA", "addr:postcode": "52402", "addr:country": "US", "name": "Von Maur Partner - IA Cedar Rapids", "phone": "null", "website": "https://us.fatface.com/store/von%20maur%20partner%20-%20ia%20cedar%20rapids/81127", "image": "https://media.fatface.com/i/Fat_Face/81127_Store?$store-details-lge$&w=700&h=450&fmt.options=interlaced&?fmt=auto", "brand": "FATFACE", "brand:wikidata": "Q5437186"}, "geometry": {"type": "Point", "coordinates": [-91.626359, 42.025039]}},
{"type": "Feature", "id": "kJt_72odfaBT6ljCgvVuta5l0q8=", "properties": {"ref": "https://us.fatface.com/store/von%20maur%20partner%20-%20ia%20cedar%20falls/81126", "@spider": "fatface", "addr:street_address": ["6301 University Avenue", "College Square Mall"], "addr:city": "Cedar Falls", "addr:state": "IA", "addr:postcode": "50613", "addr:country": "US", "name": "Von Maur Partner - IA Cedar Falls", "phone": "null", "website": "https://us.fatface.com/store/von%20maur%20partner%20-%20ia%20cedar%20falls/81126", "image": "https://media.fatface.com/i/Fat_Face/81126_Store?$store-details-lge$&w=700&h=450&fmt.options=interlaced&?fmt=auto", "brand": "FATFACE", "brand:wikidata": "Q5437186"}, "geometry": {"type": "Point", "coordinates": [-92.434831, 42.511293]}},
{"type": "Feature", "id": "MDwHaHezFHBEZIKAhSb61I3vDEw=", "properties": {"ref": "https://us.fatface.com/store/von%20maur%20partner%20-%20ga%20buford/81114", "@spider": "fatface", "addr:street_address": ["3333 Buford Drive", "Mall of Georgia"], "addr:city": "Buford", "addr:state": "GA", "addr:postcode": "30519", "addr:country": "US", "name": "Von Maur Partner - GA Buford", "phone": "null", "website": "https://us.fatface.com/store/von%20maur%20partner%20-%20ga%20buford/81114", "image": "https://media.fatface.com/i/Fat_Face/81114_Store?$store-details-lge$&w=700&h=450&fmt.options=interlaced&?fmt=auto", "brand": "FATFACE", "brand:wikidata": "Q5437186"}, "geometry": {"type": "Point", "coordinates": [-83.982979, 34.063814]}},
{"type": "Feature", "id": "YVxFDEpJH6LaPUs7UXZ7uGWrTWY=", "properties": {"ref": "https://us.fatface.com/store/von%20maur%20partner%20-%20ga%20atlanta/81113", "@spider": "fatface", "addr:street_address": ["4400 Ashford-Dunwoody Road", "Perimeter Mall"], "addr:city": "Atlanta", "addr:state": "GA", "addr:postcode": "30346", "addr:country": "US", "name": "Von Maur Partner - GA Atlanta", "phone": "null", "website": "https://us.fatface.com/store/von%20maur%20partner%20-%20ga%20atlanta/81113", "image": "https://media.fatface.com/i/Fat_Face/81113_Store?$store-details-lge$&w=700&h=450&fmt.options=interlaced&?fmt=auto", "brand": "FATFACE", "brand:wikidata": "Q5437186"}, "geometry": {"type": "Point", "coordinates": [-84.339544, 33.923682]}},
{"type": "Feature", "id": "UnwWaCsxQG_XEVuvfIWcuIAotKM=", "properties": {"ref": "https://us.fatface.com/store/von%20maur%20partner%20-%20ga%20alpharetta/81112", "@spider": "fatface", "addr:street_address": ["4000 North Point Circle", "North Point Mall"], "addr:city": "Alpharetta", "addr:state": "GA", "addr:postcode": "30022", "addr:country": "US", "name": "Von Maur Partner - GA Alpharetta", "phone": "null", "website": "https://us.fatface.com/store/von%20maur%20partner%20-%20ga%20alpharetta/81112", "image": "https://media.fatface.com/i/Fat_Face/81112_Store?$store-details-lge$&w=700&h=450&fmt.options=interlaced&?fmt=auto", "brand": "FATFACE", "brand:wikidata": "Q5437186"}, "geometry": {"type": "Point", "coordinates": [-84.296431, 34.046954]}},
{"type": "Feature", "id": "DoF57d8wHFFq02WQus5lVbJrcAE=", "properties": {"ref": "https://us.fatface.com/store/von%20maur%20partner%20-%20al%20hoover/81111", "@spider": "fatface", "addr:street_address": "2400 Riverchase Galleria", "addr:city": "Hoover", "addr:state": "AL", "addr:postcode": "35244", "addr:country": "US", "name": "Von Maur Partner - AL Hoover", "phone": "null", "website": "https://us.fatface.com/store/von%20maur%20partner%20-%20al%20hoover/81111", "image": "https://media.fatface.com/i/Fat_Face/81111_Store?$store-details-lge$&w=700&h=450&fmt.options=interlaced&?fmt=auto", "brand": "FATFACE", "brand:wikidata": "Q5437186"}, "geometry": {"type": "Point", "coordinates": [-86.81002, 33.378976]}},
{"type": "Feature", "id": "mdxsBJ-sQOT-QYgcK9lnymqC0n8=", "properties": {"ref": "https://us.fatface.com/store/vt%20-%20burlington/5010", "@spider": "fatface", "addr:street_address": "106 Church Street", "addr:city": "Burlington", "addr:state": "VT", "addr:postcode": "05401", "addr:country": "US", "name": "VT - Burlington", "phone": "(802) 497-0204", "website": "https://us.fatface.com/store/vt%20-%20burlington/5010", "image": "https://media.fatface.com/i/Fat_Face/5010_Store?$store-details-lge$&w=700&h=450&fmt.options=interlaced&?fmt=auto", "brand": "FATFACE", "brand:wikidata": "Q5437186"}, "geometry": {"type": "Point", "coordinates": [-73.212461, 44.477528]}},
{"type": "Feature", "id": "2K8ratiErN3MzPJtqrZzBlWpk8c=", "properties": {"ref": "https://us.fatface.com/store/va%20-%20williamsburg/5031", "@spider": "fatface", "addr:street_address": "440 W Duke of Gloucester St", "addr:city": "Williamsburg", "addr:state": "VA", "addr:postcode": "VA 23185", "name": "VA - Williamsburg", "phone": "(+1) 757-808-5773", "website": "https://us.fatface.com/store/va%20-%20williamsburg/5031", "image": "https://media.fatface.com/i/Fat_Face/5031_Store?$store-details-lge$&w=700&h=450&fmt.options=interlaced&?fmt=auto", "brand": "FATFACE", "brand:wikidata": "Q5437186"}, "geometry": {"type": "Point", "coordinates": [-76.70723, 37.27062]}},
{"type": "Feature", "id": "f3LT3dvcjCywd7vFideSgCxceEE=", "properties": {"ref": "https://us.fatface.com/store/va%20-%20alexandria/5026", "@spider": "fatface", "addr:street_address": "128 Kings Street", "addr:city": "Alexandria", "addr:state": "Virginia", "addr:postcode": "VA 22314", "addr:country": "US", "name": "VA - Alexandria", "phone": "(571)319-0784", "website": "https://us.fatface.com/store/va%20-%20alexandria/5026", "image": "https://media.fatface.com/i/Fat_Face/5026_Store?$store-details-lge$&w=700&h=450&fmt.options=interlaced&?fmt=auto", "brand": "FATFACE", "brand:wikidata": "Q5437186"}, "geometry": {"type": "Point", "coordinates": [-77.041253, 38.804364]}},
{"type": "Feature", "id": "VlXjK6TqAKNaUsrsiYPeD8CH-Dk=", "properties": {"ref": "https://us.fatface.com/store/ri%20-%20providence/5022", "@spider": "fatface", "addr:street_address": "195 Wayland Avenue", "addr:city": "Providence", "addr:state": "Rhode Island", "addr:postcode": "RI 02906", "addr:country": "US", "name": "RI - Providence", "phone": "401.282.6887", "website": "https://us.fatface.com/store/ri%20-%20providence/5022", "image": "https://media.fatface.com/i/Fat_Face/5022_Store?$store-details-lge$&w=700&h=450&fmt.options=interlaced&?fmt=auto", "brand": "FATFACE", "brand:wikidata": "Q5437186"}, "geometry": {"type": "Point", "coordinates": [-71.3879, 41.82939]}},
{"type": "Feature", "id": "u_09_br15MoUobJRxZZRO_HU9iU=", "properties": {"ref": "https://us.fatface.com/store/von%20maur%20partner%20-%20wi%20brookfield/81145", "@spider": "fatface", "addr:street_address": ["20111 Lord St", "The Corners of Brookfield"], "addr:city": "Brookfield", "addr:state": "WI", "addr:postcode": "53045", "addr:country": "US", "name": "Von Maur Partner - WI Brookfield", "phone": "null", "website": "https://us.fatface.com/store/von%20maur%20partner%20-%20wi%20brookfield/81145", "image": "https://media.fatface.com/i/Fat_Face/81145_Store?$store-details-lge$&w=700&h=450&fmt.options=interlaced&?fmt=auto", "brand": "FATFACE", "brand:wikidata": "Q5437186"}, "geometry": {"type": "Point", "coordinates": [-88.163035, 43.035548]}},
{"type": "Feature", "id": "VfqWZFVd4FEHThK-eQt-gjaeIgo=", "properties": {"ref": "https://us.fatface.com/store/von%20maur%20partner%20-%20ok%20oklahoma%20city/81144", "@spider": "fatface", "addr:street_address": ["2501 W Memorial Rd", "Quail Springs Mall"], "addr:city": "Oklahoma City", "addr:state": "OK", "addr:postcode": "73134", "addr:country": "US", "name": "Von Maur Partner - OK Oklahoma City", "phone": "null", "website": "https://us.fatface.com/store/von%20maur%20partner%20-%20ok%20oklahoma%20city/81144", "image": "https://media.fatface.com/i/Fat_Face/81144_Store?$store-details-lge$&w=700&h=450&fmt.options=interlaced&?fmt=auto", "brand": "FATFACE", "brand:wikidata": "Q5437186"}, "geometry": {"type": "Point", "coordinates": [-97.556103, 35.612412]}},
{"type": "Feature", "id": "bUJ6XfzMwshk2hbRfR8ukcQP7w4=", "properties": {"ref": "https://us.fatface.com/store/von%20maur%20partner%20-%20oh%20columbus/81143", "@spider": "fatface", "addr:street_address": ["1530 Polaris Parkway", "Polaris Fashion Place"], "addr:city": "Columbus", "addr:state": "OH", "addr:postcode": "43240", "addr:country": "US", "name": "Von Maur Partner - OH Columbus", "phone": "null", "website": "https://us.fatface.com/store/von%20maur%20partner%20-%20oh%20columbus/81143", "image": "https://media.fatface.com/i/Fat_Face/81143_Store?$store-details-lge$&w=700&h=450&fmt.options=interlaced&?fmt=auto", "brand": "FATFACE", "brand:wikidata": "Q5437186"}, "geometry": {"type": "Point", "coordinates": [-82.981374, 40.145003]}},
{"type": "Feature", "id": "x5QZfPHd5rm-sXYccYQay_qpeeU=", "properties": {"ref": "https://us.fatface.com/store/von%20maur%20partner%20-%20oh%20beavercreek/81142", "@spider": "fatface", "addr:street_address": ["100 Magnolia Lane", "The Greene Town Center"], "addr:city": "Beavercreek", "addr:state": "OH", "addr:postcode": "45440", "addr:country": "US", "name": "Von Maur Partner - OH Beavercreek", "phone": "null", "website": "https://us.fatface.com/store/von%20maur%20partner%20-%20oh%20beavercreek/81142", "image": "https://media.fatface.com/i/Fat_Face/81142_Store?$store-details-lge$&w=700&h=450&fmt.options=interlaced&?fmt=auto", "brand": "FATFACE", "brand:wikidata": "Q5437186"}, "geometry": {"type": "Point", "coordinates": [-84.102289, 39.695922]}},
{"type": "Feature", "id": "pUoEZtSfbaRiksbs-SSJXpGqlDo=", "properties": {"ref": "https://us.fatface.com/store/von%20maur%20partner%20-%20ny%20victor/81141", "@spider": "fatface", "addr:street_address": ["300 Eastview Mall", "Eastview Mall"], "addr:city": "Victor", "addr:state": "NY", "addr:postcode": "14564", "addr:country": "US", "name": "Von Maur Partner - NY Victor", "phone": "null", "website": "https://us.fatface.com/store/von%20maur%20partner%20-%20ny%20victor/81141", "image": "https://media.fatface.com/i/Fat_Face/81141_Store?$store-details-lge$&w=700&h=450&fmt.options=interlaced&?fmt=auto", "brand": "FATFACE", "brand:wikidata": "Q5437186"}, "geometry": {"type": "Point", "coordinates": [-77.441264, 43.029584]}},
{"type": "Feature", "id": "arSXyyIHtT4cfzZIXN1Z-LARL-Q=", "properties": {"ref": "https://us.fatface.com/store/von%20maur%20partner%20-%20ne%20omaha/81140", "@spider": "fatface", "addr:street_address": ["10010 California Street", "Westroads Mall"], "addr:city": "Omaha", "addr:state": "NE", "addr:postcode": "68114", "addr:country": "US", "name": "Von Maur Partner - NE Omaha", "phone": "null", "website": "https://us.fatface.com/store/von%20maur%20partner%20-%20ne%20omaha/81140", "image": "https://media.fatface.com/i/Fat_Face/81140_Store?$store-details-lge$&w=700&h=450&fmt.options=interlaced&?fmt=auto", "brand": "FATFACE", "brand:wikidata": "Q5437186"}, "geometry": {"type": "Point", "coordinates": [-96.067363, 41.26535]}},
{"type": "Feature", "id": "IKIMoL98SccIZq8yRtakBIJXZBk=", "properties": {"ref": "https://us.fatface.com/store/von%20maur%20partner%20-%20ne%20lincoln/81139", "@spider": "fatface", "addr:street_address": ["2900 Pine Lake Road", "SouthPointe Pavilions"], "addr:city": "Lincoln", "addr:state": "NE", "addr:postcode": "68516", "addr:country": "US", "name": "Von Maur Partner - NE Lincoln", "phone": "null", "website": "https://us.fatface.com/store/von%20maur%20partner%20-%20ne%20lincoln/81139", "image": "https://media.fatface.com/i/Fat_Face/81139_Store?$store-details-lge$&w=700&h=450&fmt.options=interlaced&?fmt=auto", "brand": "FATFACE", "brand:wikidata": "Q5437186"}, "geometry": {"type": "Point", "coordinates": [-96.678768, 40.741549]}},
{"type": "Feature", "id": "qeRNwQh-0xu5pIKiY32vwg4XM5U=", "properties": {"ref": "https://us.fatface.com/store/von%20maur%20partner%20-%20mo%20lake%20st.%20louis/81138", "@spider": "fatface", "addr:street_address": ["2 Fountain Grass Drive", "The Meadows"], "addr:city": "Lake St. Louis", "addr:state": "MO", "addr:postcode": "63367", "addr:country": "US", "name": "Von Maur Partner - MO Lake St. Louis", "phone": "null", "website": "https://us.fatface.com/store/von%20maur%20partner%20-%20mo%20lake%20st.%20louis/81138", "image": "https://media.fatface.com/i/Fat_Face/81138_Store?$store-details-lge$&w=700&h=450&fmt.options=interlaced&?fmt=auto", "brand": "FATFACE", "brand:wikidata": "Q5437186"}, "geometry": {"type": "Point", "coordinates": [-90.78833, 38.780859]}},
{"type": "Feature", "id": "yEUIfVdOLyggjzTRqmo3_xjIVxs=", "properties": {"ref": "https://us.fatface.com/store/von%20maur%20partner%20-%20mn%20roseville/81137", "@spider": "fatface", "addr:street_address": ["1650 County Road B2 West", "Rosedale Center"], "addr:city": "Roseville", "addr:state": "MN", "addr:postcode": "55113", "addr:country": "US", "name": "Von Maur Partner - MN Roseville", "phone": "null", "website": "https://us.fatface.com/store/von%20maur%20partner%20-%20mn%20roseville/81137", "image": "https://media.fatface.com/i/Fat_Face/81137_Store?$store-details-lge$&w=700&h=450&fmt.options=interlaced&?fmt=auto", "brand": "FATFACE", "brand:wikidata": "Q5437186"}, "geometry": {"type": "Point", "coordinates": [-93.171151, 45.01352]}},
{"type": "Feature", "id": "aer2R9o2pMOkr-s0UIEwizPI1W8=", "properties": {"ref": "https://us.fatface.com/store/von%20maur%20partner%20-%20mn%20eden%20prairie/81135", "@spider": "fatface", "addr:street_address": ["400 Prairie Center Drive", "Eden Prairie Center"], "addr:city": "Eden Prairie", "addr:state": "MN", "addr:postcode": "55344", "addr:country": "US", "name": "Von Maur Partner - MN Eden Prairie", "phone": "null", "website": "https://us.fatface.com/store/von%20maur%20partner%20-%20mn%20eden%20prairie/81135", "image": "https://media.fatface.com/i/Fat_Face/81135_Store?$store-details-lge$&w=700&h=450&fmt.options=interlaced&?fmt=auto", "brand": "FATFACE", "brand:wikidata": "Q5437186"}, "geometry": {"type": "Point", "coordinates": [-93.426383, 44.854041]}},
{"type": "Feature", "id": "YdqKa8GOwFRi6ftHfYO_GBLuWBI=", "properties": {"ref": "https://us.fatface.com/store/von%20maur%20partner%20-%20mi%20livonia/81136", "@spider": "fatface", "addr:street_address": ["37500 6 Mile Road", "Laurel Park Place"], "addr:city": "Livonia", "addr:state": "MI", "addr:postcode": "48152", "addr:country": "US", "name": "Von Maur Partner - MI Livonia", "phone": "null", "website": "https://us.fatface.com/store/von%20maur%20partner%20-%20mi%20livonia/81136", "image": "https://media.fatface.com/i/Fat_Face/81136_Store?$store-details-lge$&w=700&h=450&fmt.options=interlaced&?fmt=auto", "brand": "FATFACE", "brand:wikidata": "Q5437186"}, "geometry": {"type": "Point", "coordinates": [-83.416114, 42.412327]}},
{"type": "Feature", "id": "LRlrDRTQyB_n_NzDzKtiUlPQak0=", "properties": {"ref": "https://us.fatface.com/store/von%20maur%20partner%20-%20mi%20ann%20arbor/81134", "@spider": "fatface", "addr:street_address": ["300 Briarwood Circle", "Briarwood Mall"], "addr:city": "Ann Arbor", "addr:state": "MI", "addr:postcode": "48108", "addr:country": "US", "name": "Von Maur Partner - MI Ann Arbor", "phone": "null", "website": "https://us.fatface.com/store/von%20maur%20partner%20-%20mi%20ann%20arbor/81134", "image": "https://media.fatface.com/i/Fat_Face/81134_Store?$store-details-lge$&w=700&h=450&fmt.options=interlaced&?fmt=auto", "brand": "FATFACE", "brand:wikidata": "Q5437186"}, "geometry": {"type": "Point", "coordinates": [-83.747406, 42.238737]}},
{"type": "Feature", "id": "WijRl6xkvCLh_DeQJTKvqW5FKWs=", "properties": {"ref": "https://us.fatface.com/store/von%20maur%20partner%20-%20ky%20louisville/81133", "@spider": "fatface", "addr:street_address": ["7900 Shelbyville Road", "Oxmoor Center"], "addr:city": "Louisville", "addr:state": "KY", "addr:postcode": "40222", "addr:country": "US", "name": "Von Maur Partner - KY Louisville", "phone": "null", "website": "https://us.fatface.com/store/von%20maur%20partner%20-%20ky%20louisville/81133", "image": "https://media.fatface.com/i/Fat_Face/81133_Store?$store-details-lge$&w=700&h=450&fmt.options=interlaced&?fmt=auto", "brand": "FATFACE", "brand:wikidata": "Q5437186"}, "geometry": {"type": "Point", "coordinates": [-85.609916, 38.248516]}},
{"type": "Feature", "id": "sux1vbvF6we6jAK0SOWGanpQsUw=", "properties": {"ref": "https://us.fatface.com/store/von%20maur%20partner%20-%20ks%20wichita/81132", "@spider": "fatface", "addr:street_address": ["7700 East Kellogg Drive", "Towne East Square"], "addr:city": "Wichita", "addr:state": "KS", "addr:postcode": "67207", "addr:country": "US", "name": "Von Maur Partner - KS Wichita", "phone": "null", "website": "https://us.fatface.com/store/von%20maur%20partner%20-%20ks%20wichita/81132", "image": "https://media.fatface.com/i/Fat_Face/81132_Store?$store-details-lge$&w=700&h=450&fmt.options=interlaced&?fmt=auto", "brand": "FATFACE", "brand:wikidata": "Q5437186"}, "geometry": {"type": "Point", "coordinates": [-97.247226, 37.68155]}},
{"type": "Feature", "id": "NE4JTe-lNgkI_YxCZXvqi8RkILg=", "properties": {"ref": "https://us.fatface.com/store/von%20maur%20partner%20-%20ks%20overland%20park/81131", "@spider": "fatface", "addr:street_address": ["6701 West 135th Street", "Corbin Park"], "addr:city": "Overland Park", "addr:state": "KS", "addr:postcode": "66223", "addr:country": "US", "name": "Von Maur Partner - KS Overland Park", "phone": "null", "website": "https://us.fatface.com/store/von%20maur%20partner%20-%20ks%20overland%20park/81131", "image": "https://media.fatface.com/i/Fat_Face/81131_Store?$store-details-lge$&w=700&h=450&fmt.options=interlaced&?fmt=auto", "brand": "FATFACE", "brand:wikidata": "Q5437186"}, "geometry": {"type": "Point", "coordinates": [-94.663276, 38.88226]}},
{"type": "Feature", "id": "9K8jxIbrEOMtA_-EDFt3AKc_ZIk=", "properties": {"ref": "https://us.fatface.com/store/von%20maur%20partner%20-%20in%20indianapolis/81125", "@spider": "fatface", "addr:street_address": ["6020 East 82nd Street", "Castleton Square Mall"], "addr:city": "Indianapolis", "addr:state": "IN", "addr:postcode": "46250", "name": "Von Maur Partner - IN Indianapolis", "phone": "null", "website": "https://us.fatface.com/store/von%20maur%20partner%20-%20in%20indianapolis/81125", "image": "https://media.fatface.com/i/Fat_Face/81125_Store?$store-details-lge$&w=700&h=450&fmt.options=interlaced&?fmt=auto", "brand": "FATFACE", "brand:wikidata": "Q5437186"}, "geometry": {"type": "Point", "coordinates": [-86.063206, 39.908057]}},
{"type": "Feature", "id": "Y5uZ4W5oizTy3kyxPZx0lIGH28E=", "properties": {"ref": "https://us.fatface.com/store/von%20maur%20partner%20-%20in%20greenwood/81124", "@spider": "fatface", "addr:street_address": ["1251 US Highway 31 North", "Greenwood Park Mall"], "addr:city": "Greenwood", "addr:state": "IN", "addr:postcode": "46142", "addr:country": "US", "name": "Von Maur Partner - IN Greenwood", "phone": "null", "website": "https://us.fatface.com/store/von%20maur%20partner%20-%20in%20greenwood/81124", "image": "https://media.fatface.com/i/Fat_Face/81124_Store?$store-details-lge$&w=700&h=450&fmt.options=interlaced&?fmt=auto", "brand": "FATFACE", "brand:wikidata": "Q5437186"}, "geometry": {"type": "Point", "coordinates": [-86.121868, 39.633518]}},
{"type": "Feature", "id": "KbpfoKLEmy3O-vI_Pfyn0GthDcc=", "properties": {"ref": "https://us.fatface.com/store/von%20maur%20partner%20-%20in%20fort%20wayne/81123", "@spider": "fatface", "addr:street_address": ["4202 West Jefferson Blvd", "Jefferson Pointe"], "addr:city": "Fort Wayne", "addr:state": "IN", "addr:postcode": "46804", "addr:country": "US", "name": "Von Maur Partner - IN Fort Wayne", "phone": "null", "website": "https://us.fatface.com/store/von%20maur%20partner%20-%20in%20fort%20wayne/81123", "image": "https://media.fatface.com/i/Fat_Face/81123_Store?$store-details-lge$&w=700&h=450&fmt.options=interlaced&?fmt=auto", "brand": "FATFACE", "brand:wikidata": "Q5437186"}, "geometry": {"type": "Point", "coordinates": [-85.19492, 41.071351]}},
{"type": "Feature", "id": "oG6y8qgL3iDjvU9UZE3fYt4bPnA=", "properties": {"ref": "https://us.fatface.com/store/von%20maur%20partner%20-%20il%20st.%20charles/81122", "@spider": "fatface", "addr:street_address": ["3810 East Main Street", "Charlestowne Mall"], "addr:city": "St. Charles", "addr:state": "IL", "addr:postcode": "60174", "addr:country": "US", "name": "Von Maur Partner - IL St. Charles", "phone": "null", "website": "https://us.fatface.com/store/von%20maur%20partner%20-%20il%20st.%20charles/81122", "image": "https://media.fatface.com/i/Fat_Face/81122_Store?$store-details-lge$&w=700&h=450&fmt.options=interlaced&?fmt=auto", "brand": "FATFACE", "brand:wikidata": "Q5437186"}, "geometry": {"type": "Point", "coordinates": [-88.268654, 41.922657]}},
{"type": "Feature", "id": "YFRHR6pCMGIWjOX4DFwPDMxMOuM=", "properties": {"ref": "https://us.fatface.com/store/von%20maur%20partner%20-%20il%20normal/81119", "@spider": "fatface", "addr:street_address": ["301 Veterans Parkway", "The Shoppes at College Hills"], "addr:city": "Normal", "addr:state": "IL", "addr:postcode": "61761", "addr:country": "US", "name": "Von Maur Partner - IL Normal", "phone": "null", "website": "https://us.fatface.com/store/von%20maur%20partner%20-%20il%20normal/81119", "image": "https://media.fatface.com/i/Fat_Face/81119_Store?$store-details-lge$&w=700&h=450&fmt.options=interlaced&?fmt=auto", "brand": "FATFACE", "brand:wikidata": "Q5437186"}, "geometry": {"type": "Point", "coordinates": [-88.955707, 40.507846]}},
{"type": "Feature", "id": "RsrpAdfDkQArfG96R6QOpNrPilw=", "properties": {"ref": "https://us.fatface.com/store/von%20maur%20partner%20-%20il%20moline/81118", "@spider": "fatface", "addr:street_address": ["4500 16th Street", "SouthPark Mall"], "addr:city": "Moline", "addr:state": "IL", "addr:postcode": "61265", "addr:country": "US", "name": "Von Maur Partner - IL Moline", "phone": "null", "website": "https://us.fatface.com/store/von%20maur%20partner%20-%20il%20moline/81118", "image": "https://media.fatface.com/i/Fat_Face/81118_Store?$store-details-lge$&w=700&h=450&fmt.options=interlaced&?fmt=auto", "brand": "FATFACE", "brand:wikidata": "Q5437186"}, "geometry": {"type": "Point", "coordinates": [-90.504802, 41.46715]}},
{"type": "Feature", "id": "enMOK3mc5w8wc9pVLnX8mawqzeA=", "properties": {"ref": "https://us.fatface.com/store/von%20maur%20partner%20-%20il%20lombard/81117", "@spider": "fatface", "addr:street_address": ["145 Yorktown Shopping Center", "Yorktown Center"], "addr:city": "Lombard", "addr:state": "IL", "addr:postcode": "60148", "addr:country": "US", "name": "Von Maur Partner - IL Lombard", "phone": "null", "website": "https://us.fatface.com/store/von%20maur%20partner%20-%20il%20lombard/81117", "image": "https://media.fatface.com/i/Fat_Face/81117_Store?$store-details-lge$&w=700&h=450&fmt.options=interlaced&?fmt=auto", "brand": "FATFACE", "brand:wikidata": "Q5437186"}, "geometry": {"type": "Point", "coordinates": [-88.006005, 41.83888]}},
{"type": "Feature", "id": "HqG_hmCdY8C7XjV9QxcREaWWu5g=", "properties": {"ref": "https://us.fatface.com/store/ri%20-%20newport/5003", "@spider": "fatface", "addr:street_address": "172 Thames Street", "addr:city": "Newport", "addr:state": "RI", "addr:postcode": "02840", "addr:country": "US", "name": "RI - Newport", "phone": "(401) 619-0844", "website": "https://us.fatface.com/store/ri%20-%20newport/5003", "image": "https://media.fatface.com/i/Fat_Face/5003_Store?$store-details-lge$&w=700&h=450&fmt.options=interlaced&?fmt=auto", "brand": "FATFACE", "brand:wikidata": "Q5437186"}, "geometry": {"type": "Point", "coordinates": [-71.315091, 41.488701]}},
{"type": "Feature", "id": "s2nW1G6Ab9ykvEXwhvrxkKdibKc=", "properties": {"ref": "https://us.fatface.com/store/ri%20-%20cranston%20garden%20city/5005", "@spider": "fatface", "addr:street_address": "51 Hillside Road", "addr:city": "Cranston", "addr:state": "RI", "addr:postcode": "02920", "addr:country": "US", "name": "RI - Cranston Garden City", "phone": "(401) 432-6755", "website": "https://us.fatface.com/store/ri%20-%20cranston%20garden%20city/5005", "image": "https://media.fatface.com/i/Fat_Face/5005_Store?$store-details-lge$&w=700&h=450&fmt.options=interlaced&?fmt=auto", "brand": "FATFACE", "brand:wikidata": "Q5437186"}, "geometry": {"type": "Point", "coordinates": [-71.458627, 41.763285]}},
{"type": "Feature", "id": "OBT6WJE9ui020hIoEKK4s1FIDwo=", "properties": {"ref": "https://us.fatface.com/store/ny%20-%20greenport/5019", "@spider": "fatface", "addr:street_address": "136 Main Street", "addr:city": "Greenport", "addr:state": "New York", "addr:postcode": "NY 11944", "addr:country": "US", "name": "NY - Greenport", "phone": "(631)477-6089", "website": "https://us.fatface.com/store/ny%20-%20greenport/5019", "image": "https://media.fatface.com/i/Fat_Face/5019_Store?$store-details-lge$&w=700&h=450&fmt.options=interlaced&?fmt=auto", "brand": "FATFACE", "brand:wikidata": "Q5437186"}, "geometry": {"type": "Point", "coordinates": [-72.35877, 41.10224]}},
{"type": "Feature", "id": "CSGjxRgdHkdf71Fo9ze_Nicpw2Q=", "properties": {"ref": "https://us.fatface.com/store/nh%20-%20portsmouth/5012", "@spider": "fatface", "addr:street_address": "62 Congress Street", "addr:city": "Portsmouth", "addr:state": "NH", "addr:postcode": "03801", "addr:country": "US", "name": "NH - Portsmouth", "phone": "(603) 373-0980", "website": "https://us.fatface.com/store/nh%20-%20portsmouth/5012", "image": "https://media.fatface.com/i/Fat_Face/5012_Store?$store-details-lge$&w=700&h=450&fmt.options=interlaced&?fmt=auto", "brand": "FATFACE", "brand:wikidata": "Q5437186"}, "geometry": {"type": "Point", "coordinates": [-70.759015, 43.076326]}},
{"type": "Feature", "id": "Av7eroOorw5q-ldRcVqCJpxZzpE=", "properties": {"ref": "https://us.fatface.com/store/nh%20-%20merrimack/5033", "@spider": "fatface", "addr:street_address": "80 Premium Outlets Boulevard Unit 725", "addr:city": "Merrimack", "addr:state": "New Hampshire", "addr:postcode": "03054", "addr:country": "US", "name": "NH - Merrimack", "phone": "603 377 7394", "website": "https://us.fatface.com/store/nh%20-%20merrimack/5033", "image": "https://media.fatface.com/i/Fat_Face/5033_Store?$store-details-lge$&w=700&h=450&fmt.options=interlaced&?fmt=auto", "brand": "FATFACE", "brand:wikidata": "Q5437186"}, "geometry": {"type": "Point", "coordinates": [-71.49945, 42.82649]}},
{"type": "Feature", "id": "8oxsSzp3jCtD2E5tqU4sdUEMYkM=", "properties": {"ref": "https://us.fatface.com/store/nh%20-%20hanover/5027", "@spider": "fatface", "addr:street_address": "23 South Main Street", "addr:city": "Hanover", "addr:state": "New Hampshire", "addr:postcode": "NH 03755", "addr:country": "US", "name": "NH - Hanover", "phone": "(603)277-2184", "website": "https://us.fatface.com/store/nh%20-%20hanover/5027", "image": "https://media.fatface.com/i/Fat_Face/5027_Store?$store-details-lge$&w=700&h=450&fmt.options=interlaced&?fmt=auto", "brand": "FATFACE", "brand:wikidata": "Q5437186"}, "geometry": {"type": "Point", "coordinates": [-72.289626, 43.702016]}},
{"type": "Feature", "id": "BCiCtj81mXTDccq1Ju3DfXvm3is=", "properties": {"ref": "https://us.fatface.com/store/me%20-%20portland/5001", "@spider": "fatface", "addr:street_address": "34 Exchange Street", "addr:city": "Portland", "addr:state": "ME", "addr:postcode": "04101", "addr:country": "US", "name": "ME - Portland", "phone": "(207) 747-4611", "website": "https://us.fatface.com/store/me%20-%20portland/5001", "image": "https://media.fatface.com/i/Fat_Face/5001_Store?$store-details-lge$&w=700&h=450&fmt.options=interlaced&?fmt=auto", "brand": "FATFACE", "brand:wikidata": "Q5437186"}, "geometry": {"type": "Point", "coordinates": [-70.254, 43.656987]}},
{"type": "Feature", "id": "PKFVQGdE2S2J72p3xCmGPHhzG6s=", "properties": {"ref": "https://us.fatface.com/store/me%20-%20kennebunkport/5030", "@spider": "fatface", "addr:street_address": ["Kennebunkport", "16 Dock Square"], "addr:city": "ME", "addr:postcode": "04046", "name": "ME - Kennebunkport", "phone": "1.207.204.2023", "website": "https://us.fatface.com/store/me%20-%20kennebunkport/5030", "image": "https://media.fatface.com/i/Fat_Face/5030_Store?$store-details-lge$&w=700&h=450&fmt.options=interlaced&?fmt=auto", "brand": "FATFACE", "brand:wikidata": "Q5437186"}, "geometry": {"type": "Point", "coordinates": [-70.47728, 43.36153]}},
{"type": "Feature", "id": "I_p4M0tfhqhUc1OSL3vfbkyvFuU=", "properties": {"ref": "https://us.fatface.com/store/me%20-%20camden/5016", "@spider": "fatface", "addr:street_address": "10 Bay View Street", "addr:city": "Camden", "addr:state": "Maine", "addr:postcode": "04843", "addr:country": "US", "name": "ME - Camden", "phone": "207-230-8593", "website": "https://us.fatface.com/store/me%20-%20camden/5016", "image": "https://media.fatface.com/i/Fat_Face/5016_Store?$store-details-lge$&w=700&h=450&fmt.options=interlaced&?fmt=auto", "brand": "FATFACE", "brand:wikidata": "Q5437186"}, "geometry": {"type": "Point", "coordinates": [-69.064148, 44.209423]}},
{"type": "Feature", "id": "QuiicyiiOLCBe7CtoDAGQO17Dts=", "properties": {"ref": "https://us.fatface.com/store/md%20-%20annapolis/5028", "@spider": "fatface", "addr:street_address": "161 Main Street", "addr:city": "Annapolis", "addr:state": "Maryland", "addr:postcode": "MD 21401", "addr:country": "US", "name": "MD - Annapolis", "phone": "(443)949-0497", "website": "https://us.fatface.com/store/md%20-%20annapolis/5028", "image": "https://media.fatface.com/i/Fat_Face/5028_Store?$store-details-lge$&w=700&h=450&fmt.options=interlaced&?fmt=auto", "brand": "FATFACE", "brand:wikidata": "Q5437186"}, "geometry": {"type": "Point", "coordinates": [-76.489851, 38.977696]}},
{"type": "Feature", "id": "1K0hBYrBVvkCpy1MJWWWEWkq1Og=", "properties": {"ref": "https://us.fatface.com/store/ma%20-%20wrentham/5032", "@spider": "fatface", "addr:street_address": "1 Premium Outlets Boulevard Unit 192", "addr:city": "Wrentham", "addr:state": "Massachusetts", "addr:postcode": "02092", "addr:country": "US", "name": "MA - Wrentham", "phone": "774 847 5667", "website": "https://us.fatface.com/store/ma%20-%20wrentham/5032", "image": "https://media.fatface.com/i/Fat_Face/5032_Store?$store-details-lge$&w=700&h=450&fmt.options=interlaced&?fmt=auto", "brand": "FATFACE", "brand:wikidata": "Q5437186"}, "geometry": {"type": "Point", "coordinates": [-71.35217, 42.03861]}},
{"type": "Feature", "id": "i-mvql3s7ALvxJuOcukkgvySGc8=", "properties": {"ref": "https://us.fatface.com/store/ma%20-%20plymouth/5029", "@spider": "fatface", "addr:street_address": ["150 Water Street", "Unit 102a"], "addr:city": "Plymouth", "addr:state": "MA", "addr:postcode": "02360", "name": "MA - Plymouth", "phone": "(508) 927-4975", "website": "https://us.fatface.com/store/ma%20-%20plymouth/5029", "image": "https://media.fatface.com/i/Fat_Face/5029_Store?$store-details-lge$&w=700&h=450&fmt.options=interlaced&?fmt=auto", "brand": "FATFACE", "brand:wikidata": "Q5437186"}, "geometry": {"type": "Point", "coordinates": [-77.78107, 40.9133]}},
{"type": "Feature", "id": "FhjRNY_y7wMwbrjXkMaNrvsz8XM=", "properties": {"ref": "https://us.fatface.com/store/ma%20-%20newburyport/5006", "@spider": "fatface", "addr:street_address": "8/10 State Street", "addr:city": "Newburyport", "addr:state": "MA", "addr:postcode": "01950", "addr:country": "US", "name": "MA - Newburyport", "phone": "(978) 572-1469", "website": "https://us.fatface.com/store/ma%20-%20newburyport/5006", "image": "https://media.fatface.com/i/Fat_Face/5006_Store?$store-details-lge$&w=700&h=450&fmt.options=interlaced&?fmt=auto", "brand": "FATFACE", "brand:wikidata": "Q5437186"}, "geometry": {"type": "Point", "coordinates": [-70.869877, 42.810882]}},
{"type": "Feature", "id": "Hko4cKlzzdINAjlQeV718fGH8zs=", "properties": {"ref": "https://us.fatface.com/store/ma%20-%20marblehead/5023", "@spider": "fatface", "addr:street_address": ["Marblehead", "92 Washington Street"], "addr:city": "MA", "addr:postcode": "01945", "addr:country": "US", "name": "MA - Marblehead", "phone": "(781)-476-2410", "website": "https://us.fatface.com/store/ma%20-%20marblehead/5023", "image": "https://media.fatface.com/i/Fat_Face/5023_Store?$store-details-lge$&w=700&h=450&fmt.options=interlaced&?fmt=auto", "brand": "FATFACE", "brand:wikidata": "Q5437186"}, "geometry": {"type": "Point", "coordinates": [-70.84937, 42.50518]}},
{"type": "Feature", "id": "XOsCAvLwX-ddFq3qH5y_Ue48ww8=", "properties": {"ref": "https://us.fatface.com/store/ma%20-%20falmouth/5017", "@spider": "fatface", "addr:street_address": "245 Main Street", "addr:city": "Falmouth", "addr:state": "MA", "addr:postcode": "02540", "addr:country": "US", "name": "MA - Falmouth", "phone": "508-388-7288", "website": "https://us.fatface.com/store/ma%20-%20falmouth/5017", "image": "https://media.fatface.com/i/Fat_Face/5017_Store?$store-details-lge$&w=700&h=450&fmt.options=interlaced&?fmt=auto", "brand": "FATFACE", "brand:wikidata": "Q5437186"}, "geometry": {"type": "Point", "coordinates": [-70.61541, 41.552258]}},
{"type": "Feature", "id": "OPjdXRruYtjmS5DrjbJ8TlrR5fg=", "properties": {"ref": "https://us.fatface.com/store/ma%20-%20edgartown/5009", "@spider": "fatface", "addr:street_address": "9 Winter Street", "addr:city": "Edgartown", "addr:state": "MA", "addr:postcode": "02539", "addr:country": "US", "name": "MA - Edgartown", "phone": "(508) 939-4337", "website": "https://us.fatface.com/store/ma%20-%20edgartown/5009", "image": "https://media.fatface.com/i/Fat_Face/5009_Store?$store-details-lge$&w=700&h=450&fmt.options=interlaced&?fmt=auto", "brand": "FATFACE", "brand:wikidata": "Q5437186"}, "geometry": {"type": "Point", "coordinates": [-70.512195, 41.390054]}},
{"type": "Feature", "id": "trm6eaRDYRYarQy4WNGiY4BlLRs=", "properties": {"ref": "https://us.fatface.com/store/ma%20-%20concord/5021", "@spider": "fatface", "addr:street_address": ["Concord", "4 Walden Street"], "addr:city": "MA", "addr:postcode": "01742", "addr:country": "US", "name": "MA - Concord", "phone": "978-341-8073", "website": "https://us.fatface.com/store/ma%20-%20concord/5021", "image": "https://media.fatface.com/i/Fat_Face/5021_Store?$store-details-lge$&w=700&h=450&fmt.options=interlaced&?fmt=auto", "brand": "FATFACE", "brand:wikidata": "Q5437186"}, "geometry": {"type": "Point", "coordinates": [-71.35022, 42.459778]}},
{"type": "Feature", "id": "mlSO8eMFEP_BUW9852pWDZgI7y8=", "properties": {"ref": "https://us.fatface.com/store/ma%20-%20chatham/5004", "@spider": "fatface", "addr:street_address": "470 Main Street", "addr:city": "Chatham", "addr:state": "MA", "addr:postcode": "02633", "addr:country": "US", "name": "MA - Chatham", "phone": "(508) 348-1870", "website": "https://us.fatface.com/store/ma%20-%20chatham/5004", "image": "https://media.fatface.com/i/Fat_Face/5004_Store?$store-details-lge$&w=700&h=450&fmt.options=interlaced&?fmt=auto", "brand": "FATFACE", "brand:wikidata": "Q5437186"}, "geometry": {"type": "Point", "coordinates": [-69.956345, 41.679681]}},
{"type": "Feature", "id": "_gcnEgZjmc6onrE6C3Cz3r_bTTc=", "properties": {"ref": "https://us.fatface.com/store/ct%20-%20new%20haven/5011", "@spider": "fatface", "addr:street_address": "37 Broadway", "addr:city": "New Haven", "addr:state": "CT", "addr:postcode": "06511", "addr:country": "US", "name": "CT - New Haven", "phone": "(203) 553-3141", "website": "https://us.fatface.com/store/ct%20-%20new%20haven/5011", "image": "https://media.fatface.com/i/Fat_Face/5011_Store?$store-details-lge$&w=700&h=450&fmt.options=interlaced&?fmt=auto", "brand": "FATFACE", "brand:wikidata": "Q5437186"}, "geometry": {"type": "Point", "coordinates": [-72.930584, 41.311376]}}]}