{"type":"FeatureCollection","features":[{"type": "Feature", "id": "aufX17H1xtqsTcKDMAQ_Ti_ebo4=", "properties": {"ref": "/ohio/whitehall/whitehall-office/51-s-hamilton-road/", "@spider": "fcbanking", "addr:street_address": "51 S. Hamilton Road", "addr:city": "Whitehall", "addr:state": "OH", "addr:postcode": "43213", "name": "First Commonwealth Bank - Whitehall Office", "phone": "1-614-239-4600", "website": "https://www.fcbanking.com/branch-locations/ohio/whitehall/whitehall-office/51-s-hamilton-road/", "opening_hours": "Mo-Fr 09:00-17:00; Sa 09:00-12:00", "image": "https://www.fcbanking.com/media/1062/logo.png", "brand": "First Commonwealth Bank", "brand:wikidata": "Q5452773"}, "geometry": {"type": "Point", "coordinates": [-82.8769347, 39.9746569]}},
{"type": "Feature", "id": "_jEqTiXI8fkm2sMHAyzgEkWop5U=", "properties": {"ref": "/pennsylvania/south-williamsport/south-williamsport-office/251-south-market-street/", "@spider": "fcbanking", "addr:street_address": "251 South Market Street", "addr:city": "South Williamsport", "addr:state": "PA", "addr:postcode": "17702", "name": "First Commonwealth Bank - South Williamsport Office", "phone": "1-570-244-4037", "website": "https://www.fcbanking.com/branch-locations/pennsylvania/south-williamsport/south-williamsport-office/251-south-market-street/", "opening_hours": "Mo-Fr 09:00-17:00; Sa 09:00-12:00", "image": "https://www.fcbanking.com/media/1062/logo.png", "brand": "First Commonwealth Bank", "brand:wikidata": "Q5452773"}, "geometry": {"type": "Point", "coordinates": [-76.9968569, 41.2338274]}},
{"type": "Feature", "id": "JKl74gA9SMMULv5W08pbgjmejOA=", "properties": {"ref": "/pennsylvania/renovo/renovo-office/364-erie-avenue/", "@spider": "fcbanking", "addr:street_address": "364 Erie Avenue", "addr:city": "Renovo", "addr:state": "PA", "addr:postcode": "17764", "name": "First Commonwealth Bank - Renovo Office", "phone": "1-570-531-8214", "website": "https://www.fcbanking.com/branch-locations/pennsylvania/renovo/renovo-office/364-erie-avenue/", "opening_hours": "Mo-Fr 09:00-17:00", "image": "https://www.fcbanking.com/media/1062/logo.png", "brand": "First Commonwealth Bank", "brand:wikidata": "Q5452773"}, "geometry": {"type": "Point", "coordinates": [-77.7585767, 41.326654]}},
{"type": "Feature", "id": "xX2SeAIcWMo4H8iY1I4bZTLKzBM=", "properties": {"ref": "/pennsylvania/state-college/north-atherton-office/1535-north-atherton-st/", "@spider": "fcbanking", "addr:street_address": "1535 North Atherton St.", "addr:city": "State College", "addr:state": "PA", "addr:postcode": "16803", "name": "First Commonwealth Bank - North Atherton Office", "phone": "1-814-954-6314", "website": "https://www.fcbanking.com/branch-locations/pennsylvania/state-college/north-atherton-office/1535-north-atherton-st/", "opening_hours": "Mo-Fr 09:00-17:00; Sa 09:00-12:00", "image": "https://www.fcbanking.com/media/1062/logo.png", "brand": "First Commonwealth Bank", "brand:wikidata": "Q5452773"}, "geometry": {"type": "Point", "coordinates": [-77.8903624, 40.8072881]}},
{"type": "Feature", "id": "xg_r_q8F-2IKybMUzrERExGd9Tk=", "properties": {"ref": "/pennsylvania/muncy/muncy-office/20-south-main-street/", "@spider": "fcbanking", "addr:street_address": "20 South Main Street", "addr:city": "Muncy", "addr:state": "PA", "addr:postcode": "17756", "name": "First Commonwealth Bank - Muncy Office", "phone": "1-570-308-3610", "website": "https://www.fcbanking.com/branch-locations/pennsylvania/muncy/muncy-office/20-south-main-street/", "opening_hours": "Mo-Fr 09:00-17:00", "image": "https://www.fcbanking.com/media/1062/logo.png", "brand": "First Commonwealth Bank", "brand:wikidata": "Q5452773"}, "geometry": {"type": "Point", "coordinates": [-76.7886993, 41.2049806]}},
{"type": "Feature", "id": "pfGaxQW8Lxryzcbczew5o4hVarc=", "properties": {"ref": "/pennsylvania/montoursville/montoursville-office/355-broad-street/", "@spider": "fcbanking", "addr:street_address": "355 Broad Street", "addr:city": "Montoursville", "addr:state": "PA", "addr:postcode": "17754", "name": "First Commonwealth Bank - Montoursville Office", "phone": "1-570-244-4017", "website": "https://www.fcbanking.com/branch-locations/pennsylvania/montoursville/montoursville-office/355-broad-street/", "opening_hours": "Mo-Fr 09:00-17:00; Sa 09:00-12:00", "image": "https://www.fcbanking.com/media/1062/logo.png", "brand": "First Commonwealth Bank", "brand:wikidata": "Q5452773"}, "geometry": {"type": "Point", "coordinates": [-76.9279173, 41.2497512]}},
{"type": "Feature", "id": "YgjlpzJCYwiwwoyTk0ZzRcl7Kwc=", "properties": {"ref": "/pennsylvania/milton/milton-office/537-mahoning-street/", "@spider": "fcbanking", "addr:street_address": "537 Mahoning Street", "addr:city": "Milton", "addr:state": "PA", "addr:postcode": "17847", "name": "First Commonwealth Bank - Milton Office", "phone": "1-570-742-3405", "website": "https://www.fcbanking.com/branch-locations/pennsylvania/milton/milton-office/537-mahoning-street/", "opening_hours": "Mo-Fr 09:00-17:00", "image": "https://www.fcbanking.com/media/1062/logo.png", "brand": "First Commonwealth Bank", "brand:wikidata": "Q5452773"}, "geometry": {"type": "Point", "coordinates": [-76.8471771, 41.0122959]}},
{"type": "Feature", "id": "l8jE7LKWOXIJEPEKkwV4Ngkd8-Q=", "properties": {"ref": "/pennsylvania/williamsport/loyalsock-office/301-shiffler-avenue/", "@spider": "fcbanking", "addr:street_address": "301 Shiffler Avenue", "addr:city": "Williamsport", "addr:state": "PA", "addr:postcode": "17701", "name": "First Commonwealth Bank - Loyalsock Office", "phone": "1-272-202-6600", "website": "https://www.fcbanking.com/branch-locations/pennsylvania/williamsport/loyalsock-office/301-shiffler-avenue/", "opening_hours": "Mo-Fr 09:00-17:00", "image": "https://www.fcbanking.com/media/1062/logo.png", "brand": "First Commonwealth Bank", "brand:wikidata": "Q5452773"}, "geometry": {"type": "Point", "coordinates": [-76.9782256, 41.2508451]}},
{"type": "Feature", "id": "UQEeuKsd00_FfrZHeIf_OQOheAQ=", "properties": {"ref": "/pennsylvania/lock-haven-/lock-haven-office/448-bellefonte-avenue/", "@spider": "fcbanking", "addr:street_address": "448 Bellefonte Avenue", "addr:city": "Lock Haven", "addr:state": "PA", "addr:postcode": "17745", "name": "First Commonwealth Bank - Lock Haven Office", "phone": "1-570-263-4323", "website": "https://www.fcbanking.com/branch-locations/pennsylvania/lock-haven-/lock-haven-office/448-bellefonte-avenue/", "opening_hours": "Mo-Fr 09:00-17:00; Sa 09:00-12:00", "image": "https://www.fcbanking.com/media/1062/logo.png", "brand": "First Commonwealth Bank", "brand:wikidata": "Q5452773"}, "geometry": {"type": "Point", "coordinates": [-77.456355, 41.1341372]}},
{"type": "Feature", "id": "3hMke38jBarqwEiw3dBvyg_ooJc=", "properties": {"ref": "/pennsylvania/lewisburg/lewisburg-weis-office/7125-west-branch-highway/", "@spider": "fcbanking", "addr:street_address": "7125 West Branch Highway", "addr:city": "Lewisburg", "addr:state": "PA", "addr:postcode": "17837", "name": "First Commonwealth Bank - Lewisburg Weis Office", "phone": "1-570-524-5651", "website": "https://www.fcbanking.com/branch-locations/pennsylvania/lewisburg/lewisburg-weis-office/7125-west-branch-highway/", "opening_hours": "Mo-Fr 09:00-17:00; Sa 09:00-12:00", "image": "https://www.fcbanking.com/media/1062/logo.png", "brand": "First Commonwealth Bank", "brand:wikidata": "Q5452773"}, "geometry": {"type": "Point", "coordinates": [-76.89034, 40.9772251]}},
{"type": "Feature", "id": "rv0ZQzFrTDWfa0zvKQOQxQrJMDY=", "properties": {"ref": "/pennsylvania/jersey-shore/jersey-shore-office/222-allegheny-street/", "@spider": "fcbanking", "addr:street_address": "222 Allegheny Street", "addr:city": "Jersey Shore", "addr:state": "PA", "addr:postcode": "17740", "name": "First Commonwealth Bank - Jersey Shore Office", "phone": "1-570-865-3192", "website": "https://www.fcbanking.com/branch-locations/pennsylvania/jersey-shore/jersey-shore-office/222-allegheny-street/", "opening_hours": "Mo-Fr 09:00-17:00; Sa 09:00-12:00", "image": "https://www.fcbanking.com/media/1062/logo.png", "brand": "First Commonwealth Bank", "brand:wikidata": "Q5452773"}, "geometry": {"type": "Point", "coordinates": [-77.2566683, 41.2029134]}},
{"type": "Feature", "id": "K_USxygC5WKlikidK-P63fiVUjU=", "properties": {"ref": "/pennsylvania/danville/danville-office/315-mill-street-/", "@spider": "fcbanking", "addr:street_address": "315 Mill Street", "addr:city": "Danville", "addr:state": "PA", "addr:postcode": "17821", "name": "First Commonwealth Bank - Danville Office", "phone": "1-570-849-3061", "website": "https://www.fcbanking.com/branch-locations/pennsylvania/danville/danville-office/315-mill-street-/", "opening_hours": "Mo-Fr 09:00-17:00; Sa 09:00-12:00", "image": "https://www.fcbanking.com/media/1062/logo.png", "brand": "First Commonwealth Bank", "brand:wikidata": "Q5452773"}, "geometry": {"type": "Point", "coordinates": [-76.6194471, 40.9605798]}},
{"type": "Feature", "id": "zY2qjvof1OuK7S02uQ4OEX8oU-s=", "properties": {"ref": "/pennsylvania/beech-creek/beech-creek-office/250-main-street/", "@spider": "fcbanking", "addr:street_address": "250 Main Street", "addr:city": "Beech Creek", "addr:state": "PA", "addr:postcode": "16822", "name": "First Commonwealth Bank - Beech Creek Office", "phone": "1-570-962-0030", "website": "https://www.fcbanking.com/branch-locations/pennsylvania/beech-creek/beech-creek-office/250-main-street/", "opening_hours": "Mo-Fr 09:00-17:00", "image": "https://www.fcbanking.com/media/1062/logo.png", "brand": "First Commonwealth Bank", "brand:wikidata": "Q5452773"}, "geometry": {"type": "Point", "coordinates": [-77.5847719, 41.074909]}},
{"type": "Feature", "id": "xXMAepCEODyasjL_sxpg8Ze9JTE=", "properties": {"ref": "/ohio/cincinnati/downtown-cincinnati-office/25-garfield-pl/", "@spider": "fcbanking", "addr:street_address": "25 Garfield Pl", "addr:city": "Cincinnati", "addr:state": "OH", "addr:postcode": "45202", "name": "First Commonwealth Bank - Downtown Cincinnati Office", "phone": "1-513-878-8099", "website": "https://www.fcbanking.com/branch-locations/ohio/cincinnati/downtown-cincinnati-office/25-garfield-pl/", "opening_hours": "Mo-Fr 09:00-17:00", "image": "https://www.fcbanking.com/media/1062/logo.png", "brand": "First Commonwealth Bank", "brand:wikidata": "Q5452773"}, "geometry": {"type": "Point", "coordinates": [-84.51434, 39.10413]}},
{"type": "Feature", "id": "L4_66RBZ2FzJGktzTifQq7H85Vg=", "properties": {"ref": "/ohio/milford/milford-office/954-state-route-28/", "@spider": "fcbanking", "addr:street_address": "954 State Route 28", "addr:city": "Milford", "addr:state": "OH", "addr:postcode": "45150", "name": "First Commonwealth Bank - Milford Office", "phone": "1-(513) 239-1631", "website": "https://www.fcbanking.com/branch-locations/ohio/milford/milford-office/954-state-route-28/", "opening_hours": "Mo-Fr 09:00-17:00", "image": "https://www.fcbanking.com/media/1062/logo.png", "brand": "First Commonwealth Bank", "brand:wikidata": "Q5452773"}, "geometry": {"type": "Point", "coordinates": [-84.25022, 39.1923]}},
{"type": "Feature", "id": "3UnyBP1ETOIikLqaZpuS7KhEmbo=", "properties": {"ref": "/ohio/cincinnati/hyde-park-office/3521-erie-ave/", "@spider": "fcbanking", "addr:street_address": "3521 Erie Ave", "addr:city": "Cincinnati", "addr:state": "OH", "addr:postcode": "45208", "name": "First Commonwealth Bank - Hyde Park Office", "phone": "1-(513) 322-0782", "website": "https://www.fcbanking.com/branch-locations/ohio/cincinnati/hyde-park-office/3521-erie-ave/", "opening_hours": "Mo-Fr 09:00-17:00", "image": "https://www.fcbanking.com/media/1062/logo.png", "brand": "First Commonwealth Bank", "brand:wikidata": "Q5452773"}, "geometry": {"type": "Point", "coordinates": [-84.41833, 39.14087]}},
{"type": "Feature", "id": "x5KbKUXebdFpb8LjDJnOqGXgcYo=", "properties": {"ref": "/pennsylvania/white-oak/white-oak-office/1527-lincoln-way/", "@spider": "fcbanking", "addr:street_address": "1527 Lincoln Way", "addr:city": "White Oak", "addr:state": "PA", "addr:postcode": "15131", "name": "First Commonwealth Bank - White Oak Office", "phone": "1-412-672-2112", "website": "https://www.fcbanking.com/branch-locations/pennsylvania/white-oak/white-oak-office/1527-lincoln-way/", "opening_hours": "Mo-Fr 09:00-17:00", "image": "https://www.fcbanking.com/media/1062/logo.png", "brand": "First Commonwealth Bank", "brand:wikidata": "Q5452773"}, "geometry": {"type": "Point", "coordinates": [-79.81828, 40.34907]}},
{"type": "Feature", "id": "8vF1Wa1Qg47oy-WxaSEfyHY4wd4=", "properties": {"ref": "/pennsylvania/wexford/mccandless-office/11-pine-creek-rd/", "@spider": "fcbanking", "addr:street_address": "11 Pine Creek Rd", "addr:city": "Wexford", "addr:state": "PA", "addr:postcode": "15090", "name": "First Commonwealth Bank - McCandless Office", "phone": "1-412-358-3530", "website": "https://www.fcbanking.com/branch-locations/pennsylvania/wexford/mccandless-office/11-pine-creek-rd/", "opening_hours": "Mo-Fr 09:00-17:00", "image": "https://www.fcbanking.com/media/1062/logo.png", "brand": "First Commonwealth Bank", "brand:wikidata": "Q5452773"}, "geometry": {"type": "Point", "coordinates": [-80.03719, 40.58691]}},
{"type": "Feature", "id": "48X_BYzKh9h6qJ5U7QRLoYS2WuM=", "properties": {"ref": "/pennsylvania/wexford/wexford-office/12449-perry-highway/", "@spider": "fcbanking", "addr:street_address": "12449 Perry Highway", "addr:city": "Wexford", "addr:state": "PA", "addr:postcode": "15090", "name": "First Commonwealth Bank - Wexford Office", "phone": "1-724-933-4500", "website": "https://www.fcbanking.com/branch-locations/pennsylvania/wexford/wexford-office/12449-perry-highway/", "opening_hours": "Mo-Fr 09:00-17:00; Sa 09:00-12:00", "image": "https://www.fcbanking.com/media/1062/logo.png", "brand": "First Commonwealth Bank", "brand:wikidata": "Q5452773"}, "geometry": {"type": "Point", "coordinates": [-80.06261, 40.63538]}},
{"type": "Feature", "id": "kKryRPokXuA0V9WAiOXogoKu2Uk=", "properties": {"ref": "/pennsylvania/west-mifflin/west-mifflin-office/6015-mountain-view-dr/", "@spider": "fcbanking", "addr:street_address": "6015 Mountain View Dr", "addr:city": "West Mifflin", "addr:state": "PA", "addr:postcode": "15122", "name": "First Commonwealth Bank - West Mifflin Office", "phone": "1-412-881-2900", "website": "https://www.fcbanking.com/branch-locations/pennsylvania/west-mifflin/west-mifflin-office/6015-mountain-view-dr/", "opening_hours": "Mo-Fr 09:00-17:00; Sa 09:00-12:00", "image": "https://www.fcbanking.com/media/1062/logo.png", "brand": "First Commonwealth Bank", "brand:wikidata": "Q5452773"}, "geometry": {"type": "Point", "coordinates": [-79.94071, 40.34422]}},
{"type": "Feature", "id": "w0CtgGMX45XKAvdQKn8RvKAKKvw=", "properties": {"ref": "/pennsylvania/vandergrift/vandergrift-office/601-hancock-ave/", "@spider": "fcbanking", "addr:street_address": "601 Hancock Ave", "addr:city": "Vandergrift", "addr:state": "PA", "addr:postcode": "15690", "name": "First Commonwealth Bank - Vandergrift Office", "phone": "1-724-567-6778", "website": "https://www.fcbanking.com/branch-locations/pennsylvania/vandergrift/vandergrift-office/601-hancock-ave/", "opening_hours": "Mo-Fr 09:00-17:00; Sa 09:00-12:00", "image": "https://www.fcbanking.com/media/1062/logo.png", "brand": "First Commonwealth Bank", "brand:wikidata": "Q5452773"}, "geometry": {"type": "Point", "coordinates": [-79.56882, 40.59665]}},
{"type": "Feature", "id": "rZKeoaj0nEpxerSg7ohR0WNZr-0=", "properties": {"ref": "/pennsylvania/tarentum/pittsburgh-mills-office/2000-pittsburgh-mills-blvd/", "@spider": "fcbanking", "addr:street_address": "2000 Pittsburgh Mills Blvd", "addr:city": "Tarentum", "addr:state": "PA", "addr:postcode": "15084", "name": "First Commonwealth Bank - Pittsburgh Mills Office", "phone": "1-724-226-4353", "website": "https://www.fcbanking.com/branch-locations/pennsylvania/tarentum/pittsburgh-mills-office/2000-pittsburgh-mills-blvd/", "opening_hours": "Mo-Fr 09:00-17:00; Sa 09:00-12:00", "image": "https://www.fcbanking.com/media/1062/logo.png", "brand": "First Commonwealth Bank", "brand:wikidata": "Q5452773"}, "geometry": {"type": "Point", "coordinates": [-79.80076, 40.57096]}},
{"type": "Feature", "id": "tA8GhnLg1fQdqBzA9JJh718Heq0=", "properties": {"ref": "/pennsylvania/st-marys/st-marys-office/108-e-mill-st/", "@spider": "fcbanking", "addr:street_address": "108 E Mill St", "addr:city": "St. Marys", "addr:state": "PA", "addr:postcode": "15857", "name": "First Commonwealth Bank - St. Marys Office", "phone": "1-814-781-1550", "website": "https://www.fcbanking.com/branch-locations/pennsylvania/st-marys/st-marys-office/108-e-mill-st/", "opening_hours": "Mo-Fr 09:00-17:00; Sa 09:00-12:00", "image": "https://www.fcbanking.com/media/1062/logo.png", "brand": "First Commonwealth Bank", "brand:wikidata": "Q5452773"}, "geometry": {"type": "Point", "coordinates": [-78.56091, 41.42633]}},
{"type": "Feature", "id": "NsZ6MujWONDH2mIh2GpU63ULtJc=", "properties": {"ref": "/pennsylvania/somerset/somerset-office/2040-n-center-ave/", "@spider": "fcbanking", "addr:street_address": "2040 N Center Ave", "addr:city": "Somerset", "addr:state": "PA", "addr:postcode": "15501", "name": "First Commonwealth Bank - Somerset Office", "phone": "1-814-443-3644", "website": "https://www.fcbanking.com/branch-locations/pennsylvania/somerset/somerset-office/2040-n-center-ave/", "opening_hours": "Mo-Fr 09:00-17:00; Sa 09:00-12:00", "image": "https://www.fcbanking.com/media/1062/logo.png", "brand": "First Commonwealth Bank", "brand:wikidata": "Q5452773"}, "geometry": {"type": "Point", "coordinates": [-79.07478, 40.05206]}},
{"type": "Feature", "id": "UosqCYEjpfAlfF0jQd3Oic2AgHU=", "properties": {"ref": "/pennsylvania/saxonburg/saxonburg-office/125-w-main-st/", "@spider": "fcbanking", "addr:street_address": "125 W Main St", "addr:city": "Saxonburg", "addr:state": "PA", "addr:postcode": "16056", "name": "First Commonwealth Bank - Saxonburg Office", "phone": "1-724-934-4570", "website": "https://www.fcbanking.com/branch-locations/pennsylvania/saxonburg/saxonburg-office/125-w-main-st/", "opening_hours": "Mo-Fr 09:00-17:00; Sa 09:00-12:00", "image": "https://www.fcbanking.com/media/1062/logo.png", "brand": "First Commonwealth Bank", "brand:wikidata": "Q5452773"}, "geometry": {"type": "Point", "coordinates": [-79.81055, 40.75047]}},
{"type": "Feature", "id": "WshXmBOQOg4eR0L-2bj0JVE_0d4=", "properties": {"ref": "/pennsylvania/russellton/deer-lakes-office/744-little-deer-creek-valley-rd/", "@spider": "fcbanking", "addr:street_address": "744 Little Deer Creek Valley Rd", "addr:city": "Russellton", "addr:state": "PA", "addr:postcode": "15076", "name": "First Commonwealth Bank - Deer Lakes Office", "phone": "1-724-934-4565", "website": "https://www.fcbanking.com/branch-locations/pennsylvania/russellton/deer-lakes-office/744-little-deer-creek-valley-rd/", "opening_hours": "Mo-Fr 09:00-17:00", "image": "https://www.fcbanking.com/media/1062/logo.png", "brand": "First Commonwealth Bank", "brand:wikidata": "Q5452773"}, "geometry": {"type": "Point", "coordinates": [-79.83346, 40.61711]}},
{"type": "Feature", "id": "tJbdfMVxwulcUFNh89PlrXGPukg=", "properties": {"ref": "/pennsylvania/punxsutawney/punxy-plaza-office/573-w-mahoning-st/", "@spider": "fcbanking", "addr:street_address": "573 W Mahoning St", "addr:city": "Punxsutawney", "addr:state": "PA", "addr:postcode": "15767", "name": "First Commonwealth Bank - Punxy Plaza Office", "phone": "1-814-938-6034", "website": "https://www.fcbanking.com/branch-locations/pennsylvania/punxsutawney/punxy-plaza-office/573-w-mahoning-st/", "opening_hours": "Mo-Fr 09:00-17:00; Sa 09:00-12:00", "image": "https://www.fcbanking.com/media/1062/logo.png", "brand": "First Commonwealth Bank", "brand:wikidata": "Q5452773"}, "geometry": {"type": "Point", "coordinates": [-78.97997, 40.94243]}},
{"type": "Feature", "id": "y0XS-qF2VDNs29fTGq7uOR-CwAM=", "properties": {"ref": "/pennsylvania/pittsburgh/shaler-office/900-saxonburg-blvd/", "@spider": "fcbanking", "addr:street_address": "900 Saxonburg Blvd", "addr:city": "Pittsburgh", "addr:state": "PA", "addr:postcode": "15223", "name": "First Commonwealth Bank - Shaler Office", "phone": "1-412-487-4200", "website": "https://www.fcbanking.com/branch-locations/pennsylvania/pittsburgh/shaler-office/900-saxonburg-blvd/", "opening_hours": "Mo-Fr 09:00-17:00; Sa 09:00-12:00", "image": "https://www.fcbanking.com/media/1062/logo.png", "brand": "First Commonwealth Bank", "brand:wikidata": "Q5452773"}, "geometry": {"type": "Point", "coordinates": [-79.94735, 40.51161]}},
{"type": "Feature", "id": "BDBE4YHiNT9dazuICs4zI_5RgOI=", "properties": {"ref": "/pennsylvania/pittsburgh/castle-shannon-office/301-mt-lebanon-blvd/", "@spider": "fcbanking", "addr:street_address": "301 Mt Lebanon Blvd", "addr:city": "Pittsburgh", "addr:state": "PA", "addr:postcode": "15234", "name": "First Commonwealth Bank - Castle Shannon Office", "phone": "1-412-341-5266", "website": "https://www.fcbanking.com/branch-locations/pennsylvania/pittsburgh/castle-shannon-office/301-mt-lebanon-blvd/", "opening_hours": "Mo-Fr 09:00-17:00; Sa 09:00-12:00", "image": "https://www.fcbanking.com/media/1062/logo.png", "brand": "First Commonwealth Bank", "brand:wikidata": "Q5452773"}, "geometry": {"type": "Point", "coordinates": [-80.0368, 40.36866]}},
{"type": "Feature", "id": "g3ccfS3H_vfGgbAZ5L5pqQSftqg=", "properties": {"ref": "/pennsylvania/pittsburgh/forest-hills-office/2210-ardmore-blvd/", "@spider": "fcbanking", "addr:street_address": "2210 Ardmore Blvd", "addr:city": "Pittsburgh", "addr:state": "PA", "addr:postcode": "15221", "name": "First Commonwealth Bank - Forest Hills Office", "phone": "1-412-747-8109", "website": "https://www.fcbanking.com/branch-locations/pennsylvania/pittsburgh/forest-hills-office/2210-ardmore-blvd/", "opening_hours": "Mo-Fr 09:00-17:00; Sa 09:00-12:00", "image": "https://www.fcbanking.com/media/1062/logo.png", "brand": "First Commonwealth Bank", "brand:wikidata": "Q5452773"}, "geometry": {"type": "Point", "coordinates": [-79.84895, 40.41777]}},
{"type": "Feature", "id": "5ihLLeuJ54n5jD-xjt9wEkwmzZI=", "properties": {"ref": "/pennsylvania/pittsburgh/bloomfield-office/4900-liberty-ave/", "@spider": "fcbanking", "addr:street_address": "4900 Liberty Ave", "addr:city": "Pittsburgh", "addr:state": "PA", "addr:postcode": "15224", "name": "First Commonwealth Bank - Bloomfield Office", "phone": "1-412-690-2358", "website": "https://www.fcbanking.com/branch-locations/pennsylvania/pittsburgh/bloomfield-office/4900-liberty-ave/", "opening_hours": "Mo-Fr 09:00-17:00; Sa 09:00-12:00", "image": "https://www.fcbanking.com/media/1062/logo.png", "brand": "First Commonwealth Bank", "brand:wikidata": "Q5452773"}, "geometry": {"type": "Point", "coordinates": [-79.94593, 40.46]}},
{"type": "Feature", "id": "m8pRShvIaPva7nxIowBkEUyn2sc=", "properties": {"ref": "/pennsylvania/pittsburgh/caste-village-office/5301-grove-rd-ste-520/", "@spider": "fcbanking", "addr:street_address": "5301 Grove Rd Ste 520", "addr:city": "Pittsburgh", "addr:state": "PA", "addr:postcode": "15236", "name": "First Commonwealth Bank - Caste Village Office", "phone": "1-412-884-1301", "website": "https://www.fcbanking.com/branch-locations/pennsylvania/pittsburgh/caste-village-office/5301-grove-rd-ste-520/", "opening_hours": "Mo-Fr 09:00-17:00; Sa 09:00-12:00", "image": "https://www.fcbanking.com/media/1062/logo.png", "brand": "First Commonwealth Bank", "brand:wikidata": "Q5452773"}, "geometry": {"type": "Point", "coordinates": [-80.00062, 40.35756]}},
{"type": "Feature", "id": "0XqxJ4MP9J8vpfW8ihrgeeWfAZ8=", "properties": {"ref": "/pennsylvania/pittsburgh/regent-square-office/1105-s-braddock-ave/", "@spider": "fcbanking", "addr:street_address": "1105 S Braddock Ave", "addr:city": "Pittsburgh", "addr:state": "PA", "addr:postcode": "15218", "name": "First Commonwealth Bank - Regent Square Office", "phone": "1-412-881-3383", "website": "https://www.fcbanking.com/branch-locations/pennsylvania/pittsburgh/regent-square-office/1105-s-braddock-ave/", "opening_hours": "Mo-Fr 09:00-17:00", "image": "https://www.fcbanking.com/media/1062/logo.png", "brand": "First Commonwealth Bank", "brand:wikidata": "Q5452773"}, "geometry": {"type": "Point", "coordinates": [-79.89406, 40.43282]}},
{"type": "Feature", "id": "qZt9LgPf22zU1i8p0Fh66gD9_JY=", "properties": {"ref": "/pennsylvania/pittsburgh/harmar-office/55-alpha-dr-w/", "@spider": "fcbanking", "addr:street_address": "55 Alpha Dr W", "addr:city": "Pittsburgh", "addr:state": "PA", "addr:postcode": "15238", "name": "First Commonwealth Bank - Harmar Office", "phone": "1-724-226-4300", "website": "https://www.fcbanking.com/branch-locations/pennsylvania/pittsburgh/harmar-office/55-alpha-dr-w/", "opening_hours": "Mo-Fr 09:00-17:00", "image": "https://www.fcbanking.com/media/1062/logo.png", "brand": "First Commonwealth Bank", "brand:wikidata": "Q5452773"}, "geometry": {"type": "Point", "coordinates": [-79.83071, 40.53944]}},
{"type": "Feature", "id": "pnynW1bxNVMYNkSzh_csWnNtqS0=", "properties": {"ref": "/pennsylvania/pittsburgh/grant-street-office/501-grant-st/", "@spider": "fcbanking", "addr:street_address": "501 Grant St", "addr:city": "Pittsburgh", "addr:state": "PA", "addr:postcode": "15219", "name": "First Commonwealth Bank - Grant Street Office", "phone": "1-412-690-3901", "website": "https://www.fcbanking.com/branch-locations/pennsylvania/pittsburgh/grant-street-office/501-grant-st/", "opening_hours": "Mo-Fr 09:00-17:00", "image": "https://www.fcbanking.com/media/1062/logo.png", "brand": "First Commonwealth Bank", "brand:wikidata": "Q5452773"}, "geometry": {"type": "Point", "coordinates": [-79.99703, 40.43993]}},
{"type": "Feature", "id": "f_Uopu1MwPgH2sA-wDdHh6HYXAk=", "properties": {"ref": "/pennsylvania/pittsburgh/robinson-township-office/198-park-manor-dr/", "@spider": "fcbanking", "addr:street_address": "198 Park Manor Dr", "addr:city": "Pittsburgh", "addr:state": "PA", "addr:postcode": "15205", "name": "First Commonwealth Bank - Robinson Township Office", "phone": "1-412-747-8100", "website": "https://www.fcbanking.com/branch-locations/pennsylvania/pittsburgh/robinson-township-office/198-park-manor-dr/", "opening_hours": "Mo-Fr 09:00-17:00; Sa 09:00-12:00", "image": "https://www.fcbanking.com/media/1062/logo.png", "brand": "First Commonwealth Bank", "brand:wikidata": "Q5452773"}, "geometry": {"type": "Point", "coordinates": [-80.16312, 40.45053]}},
{"type": "Feature", "id": "vRb2zrqgjdCOhwtnOo_Y_ExwQ6I=", "properties": {"ref": "/pennsylvania/pittsburgh/green-tree-office/339-mansfield-ave/", "@spider": "fcbanking", "addr:street_address": "339 Mansfield Ave", "addr:city": "Pittsburgh", "addr:state": "PA", "addr:postcode": "15220", "name": "First Commonwealth Bank - Green Tree Office", "phone": "1-412-571-1622", "website": "https://www.fcbanking.com/branch-locations/pennsylvania/pittsburgh/green-tree-office/339-mansfield-ave/", "opening_hours": "Mo-Fr 09:00-17:00", "image": "https://www.fcbanking.com/media/1062/logo.png", "brand": "First Commonwealth Bank", "brand:wikidata": "Q5452773"}, "geometry": {"type": "Point", "coordinates": [-80.05068, 40.42112]}},
{"type": "Feature", "id": "7mwM_t6XqnkJJ5rP7mZ9dI3mpBg=", "properties": {"ref": "/pennsylvania/patton/patton-office/436-magee-ave/", "@spider": "fcbanking", "addr:street_address": "436 Magee Ave", "addr:city": "Patton", "addr:state": "PA", "addr:postcode": "16668", "name": "First Commonwealth Bank - Patton Office", "phone": "1-814-948-0879", "website": "https://www.fcbanking.com/branch-locations/pennsylvania/patton/patton-office/436-magee-ave/", "opening_hours": "Mo-Fr 09:00-17:00", "image": "https://www.fcbanking.com/media/1062/logo.png", "brand": "First Commonwealth Bank", "brand:wikidata": "Q5452773"}, "geometry": {"type": "Point", "coordinates": [-78.64857, 40.63393]}},
{"type": "Feature", "id": "S3pJGBrFOgaHQsj3XXTjU6aUaRc=", "properties": {"ref": "/pennsylvania/osterburg/osterburg-office/8470-william-penn-rd/", "@spider": "fcbanking", "addr:street_address": "8470 William Penn Rd", "addr:city": "Osterburg", "addr:state": "PA", "addr:postcode": "16667", "name": "First Commonwealth Bank - Osterburg Office", "phone": "1-814-624-2012", "website": "https://www.fcbanking.com/branch-locations/pennsylvania/osterburg/osterburg-office/8470-william-penn-rd/", "opening_hours": "Mo-Fr 09:00-17:00; Sa 09:00-12:00", "image": "https://www.fcbanking.com/media/1062/logo.png", "brand": "First Commonwealth Bank", "brand:wikidata": "Q5452773"}, "geometry": {"type": "Point", "coordinates": [-78.517, 40.17267]}},
{"type": "Feature", "id": "Pr8Qgkm-FsJ9eXqV-L_Xvy4GUfY=", "properties": {"ref": "/pennsylvania/oakdale/imperial-office/550-market-place-dr/", "@spider": "fcbanking", "addr:street_address": "550 Market Place Dr", "addr:city": "Oakdale", "addr:state": "PA", "addr:postcode": "15071", "name": "First Commonwealth Bank - Imperial Office", "phone": "1-724-926-1316", "website": "https://www.fcbanking.com/branch-locations/pennsylvania/oakdale/imperial-office/550-market-place-dr/", "opening_hours": "Mo-Fr 09:00-17:00; Sa 09:00-12:00", "image": "https://www.fcbanking.com/media/1062/logo.png", "brand": "First Commonwealth Bank", "brand:wikidata": "Q5452773"}, "geometry": {"type": "Point", "coordinates": [-80.23992, 40.44045]}},
{"type": "Feature", "id": "0CwROHq3B3QIHJGgfvD94YNtmr4=", "properties": {"ref": "/pennsylvania/northern-cambria/northern-cambria-office/920-philadelphia-ave/", "@spider": "fcbanking", "addr:street_address": "920 Philadelphia Ave", "addr:city": "Northern Cambria", "addr:state": "PA", "addr:postcode": "15714", "name": "First Commonwealth Bank - Northern Cambria Office", "phone": "1-814-948-5000", "website": "https://www.fcbanking.com/branch-locations/pennsylvania/northern-cambria/northern-cambria-office/920-philadelphia-ave/", "opening_hours": "Mo-Fr 09:00-17:00; Sa 09:00-12:00", "image": "https://www.fcbanking.com/media/1062/logo.png", "brand": "First Commonwealth Bank", "brand:wikidata": "Q5452773"}, "geometry": {"type": "Point", "coordinates": [-78.77885, 40.66173]}},
{"type": "Feature", "id": "5FCt2In278lvnCXwDfOgRxlRRN8=", "properties": {"ref": "/pennsylvania/new-castle/downtown-new-castle-office/27-e-washington-st/", "@spider": "fcbanking", "addr:street_address": "27 E Washington St", "addr:city": "New Castle", "addr:state": "PA", "addr:postcode": "16101", "name": "First Commonwealth Bank - Downtown New Castle Office", "phone": "1-724-658-3501", "website": "https://www.fcbanking.com/branch-locations/pennsylvania/new-castle/downtown-new-castle-office/27-e-washington-st/", "opening_hours": "Mo-Fr 09:00-17:00", "image": "https://www.fcbanking.com/media/1062/logo.png", "brand": "First Commonwealth Bank", "brand:wikidata": "Q5452773"}, "geometry": {"type": "Point", "coordinates": [-80.34633, 40.99999]}},
{"type": "Feature", "id": "rIhfXsrNXC8YiSL-G5yB52nUlOc=", "properties": {"ref": "/pennsylvania/new-castle/union-square-office/2547-w-state-st/", "@spider": "fcbanking", "addr:street_address": "2547 W State St", "addr:city": "New Castle", "addr:state": "PA", "addr:postcode": "16101", "name": "First Commonwealth Bank - Union Square Office", "phone": "1-724-658-1545", "website": "https://www.fcbanking.com/branch-locations/pennsylvania/new-castle/union-square-office/2547-w-state-st/", "opening_hours": "Mo-Fr 09:00-17:00; Sa 09:00-12:00", "image": "https://www.fcbanking.com/media/1062/logo.png", "brand": "First Commonwealth Bank", "brand:wikidata": "Q5452773"}, "geometry": {"type": "Point", "coordinates": [-80.39491, 41.01236]}},
{"type": "Feature", "id": "LzIcJjAL1EVVrIpOOxEpNTZzl5k=", "properties": {"ref": "/pennsylvania/new-castle/neshannock-office/3430-wilmington-rd/", "@spider": "fcbanking", "addr:street_address": "3430 Wilmington Rd", "addr:city": "New Castle", "addr:state": "PA", "addr:postcode": "16105", "name": "First Commonwealth Bank - Neshannock Office", "phone": "1-724-654-8366", "website": "https://www.fcbanking.com/branch-locations/pennsylvania/new-castle/neshannock-office/3430-wilmington-rd/", "opening_hours": "Mo-Fr 09:00-17:00", "image": "https://www.fcbanking.com/media/1062/logo.png", "brand": "First Commonwealth Bank", "brand:wikidata": "Q5452773"}, "geometry": {"type": "Point", "coordinates": [-80.3594, 41.06262]}},
{"type": "Feature", "id": "yEsfiu2AwDXXni9KZXouRb_2Utg=", "properties": {"ref": "/pennsylvania/new-alexandria/new-alexandria-office/8291-state-route-22/", "@spider": "fcbanking", "addr:street_address": "8291 State Route 22", "addr:city": "New Alexandria", "addr:state": "PA", "addr:postcode": "15670", "name": "First Commonwealth Bank - New Alexandria Office", "phone": "1-724-668-2226", "website": "https://www.fcbanking.com/branch-locations/pennsylvania/new-alexandria/new-alexandria-office/8291-state-route-22/", "opening_hours": "Mo-Fr 09:00-17:00; Sa 09:00-12:00", "image": "https://www.fcbanking.com/media/1062/logo.png", "brand": "First Commonwealth Bank", "brand:wikidata": "Q5452773"}, "geometry": {"type": "Point", "coordinates": [-79.42236, 40.39834]}},
{"type": "Feature", "id": "zEPf_aXK7sXR1OShMXPZiV9gEhY=", "properties": {"ref": "/pennsylvania/natrona-heights/natrona-heights-office/4021-freeport-road/", "@spider": "fcbanking", "addr:street_address": "4021 Freeport Road", "addr:city": "Natrona Heights", "addr:state": "PA", "addr:postcode": "15065", "name": "First Commonwealth Bank - Natrona Heights Office", "phone": "1-724-224-2600", "website": "https://www.fcbanking.com/branch-locations/pennsylvania/natrona-heights/natrona-heights-office/4021-freeport-road/", "opening_hours": "Mo-Fr 09:00-17:00; Sa 09:00-12:00", "image": "https://www.fcbanking.com/media/1062/logo.png", "brand": "First Commonwealth Bank", "brand:wikidata": "Q5452773"}, "geometry": {"type": "Point", "coordinates": [-79.7115184, 40.6474863]}},
{"type": "Feature", "id": "v_lzC6LeK9sPtsySXZ1yJEsxmIM=", "properties": {"ref": "/pennsylvania/murrysville/murrysville-office/3880-old-william-penn-hwy/", "@spider": "fcbanking", "addr:street_address": "3880 Old William Penn Hwy", "addr:city": "Murrysville", "addr:state": "PA", "addr:postcode": "15668", "name": "First Commonwealth Bank - Murrysville Office", "phone": "1-724-327-5400", "website": "https://www.fcbanking.com/branch-locations/pennsylvania/murrysville/murrysville-office/3880-old-william-penn-hwy/", "opening_hours": "Mo-Fr 09:00-17:00; Sa 09:00-12:00", "image": "https://www.fcbanking.com/media/1062/logo.png", "brand": "First Commonwealth Bank", "brand:wikidata": "Q5452773"}, "geometry": {"type": "Point", "coordinates": [-79.69871, 40.42855]}},
{"type": "Feature", "id": "ZKRAIzA28m1bY95lqofh4_N9Pas=", "properties": {"ref": "/pennsylvania/munhall/munhall-office/4600-main-st/", "@spider": "fcbanking", "addr:street_address": "4600 Main St", "addr:city": "Munhall", "addr:state": "PA", "addr:postcode": "15120", "name": "First Commonwealth Bank - Munhall Office", "phone": "1-412-881-3309", "website": "https://www.fcbanking.com/branch-locations/pennsylvania/munhall/munhall-office/4600-main-st/", "opening_hours": "Mo-Fr 09:00-17:00; Sa 09:00-12:00", "image": "https://www.fcbanking.com/media/1062/logo.png", "brand": "First Commonwealth Bank", "brand:wikidata": "Q5452773"}, "geometry": {"type": "Point", "coordinates": [-79.90813, 40.37842]}},
{"type": "Feature", "id": "gcZcMBKw0A11bNR5ExGLL-edkGY=", "properties": {"ref": "/pennsylvania/monaca/monaca-office/80-wagner-rd/", "@spider": "fcbanking", "addr:street_address": "80 Wagner Rd", "addr:city": "Monaca", "addr:state": "PA", "addr:postcode": "15061", "name": "First Commonwealth Bank - Monaca Office", "phone": "1-724-774-4220", "website": "https://www.fcbanking.com/branch-locations/pennsylvania/monaca/monaca-office/80-wagner-rd/", "opening_hours": "Mo-Fr 09:00-17:00", "image": "https://www.fcbanking.com/media/1062/logo.png", "brand": "First Commonwealth Bank", "brand:wikidata": "Q5452773"}, "geometry": {"type": "Point", "coordinates": [-80.302, 40.68198]}},
{"type": "Feature", "id": "lzJD_Eq_zrzsLVxgiJksewogVn0=", "properties": {"ref": "/pennsylvania/mcmurray/peters-township-office/4198-washington-rd/", "@spider": "fcbanking", "addr:street_address": "4198 Washington Rd", "addr:city": "McMurray", "addr:state": "PA", "addr:postcode": "15317", "name": "First Commonwealth Bank - Peters Township Office", "phone": "1-724-223-6480", "website": "https://www.fcbanking.com/branch-locations/pennsylvania/mcmurray/peters-township-office/4198-washington-rd/", "opening_hours": "Mo-Fr 09:00-17:00; Sa 09:00-12:00", "image": "https://www.fcbanking.com/media/1062/logo.png", "brand": "First Commonwealth Bank", "brand:wikidata": "Q5452773"}, "geometry": {"type": "Point", "coordinates": [-80.13374, 40.26274]}},
{"type": "Feature", "id": "MijHsFmzRDfeN0DZ1EHRy3_qAiE=", "properties": {"ref": "/pennsylvania/mcdonald/mcdonald-office/311-west-barr-st/", "@spider": "fcbanking", "addr:street_address": "311 West Barr St", "addr:city": "McDonald", "addr:state": "PA", "addr:postcode": "15057", "name": "First Commonwealth Bank - McDonald Office", "phone": "1-724-926-1325", "website": "https://www.fcbanking.com/branch-locations/pennsylvania/mcdonald/mcdonald-office/311-west-barr-st/", "opening_hours": "Mo-Fr 09:00-17:00", "image": "https://www.fcbanking.com/media/1062/logo.png", "brand": "First Commonwealth Bank", "brand:wikidata": "Q5452773"}, "geometry": {"type": "Point", "coordinates": [-80.23678, 40.36718]}},
{"type": "Feature", "id": "QwqllQOonXHiB-hQsgh36vxMA8Y=", "properties": {"ref": "/pennsylvania/mars/adams-township-office/6999-crider-rd/", "@spider": "fcbanking", "addr:street_address": "6999 Crider Rd", "addr:city": "Mars", "addr:state": "PA", "addr:postcode": "16046", "name": "First Commonwealth Bank - Adams Township Office", "phone": "1-724-742-3860", "website": "https://www.fcbanking.com/branch-locations/pennsylvania/mars/adams-township-office/6999-crider-rd/", "opening_hours": "Mo-Fr 09:00-17:00", "image": "https://www.fcbanking.com/media/1062/logo.png", "brand": "First Commonwealth Bank", "brand:wikidata": "Q5452773"}, "geometry": {"type": "Point", "coordinates": [-80.04053, 40.69671]}},
{"type": "Feature", "id": "ANrzrIK4D-G649tN7a2bcBU1H8s=", "properties": {"ref": "/pennsylvania/ligonier/ligonier-valley-office/1506-route-30/", "@spider": "fcbanking", "addr:street_address": "1506 Route 30", "addr:city": "Ligonier", "addr:state": "PA", "addr:postcode": "15658", "name": "First Commonwealth Bank - Ligonier Valley Office", "phone": "1-724-238-5636", "website": "https://www.fcbanking.com/branch-locations/pennsylvania/ligonier/ligonier-valley-office/1506-route-30/", "opening_hours": "Mo-Fr 09:00-17:00", "image": "https://www.fcbanking.com/media/1062/logo.png", "brand": "First Commonwealth Bank", "brand:wikidata": "Q5452773"}, "geometry": {"type": "Point", "coordinates": [-79.20887, 40.2175]}},
{"type": "Feature", "id": "sml0KYmEjCOfDp37uDKefGJpGx4=", "properties": {"ref": "/pennsylvania/leechburg/allegheny-township-office/1147-s-leechburg-hill-rd/", "@spider": "fcbanking", "addr:street_address": "1147 S Leechburg Hill Rd", "addr:city": "Leechburg", "addr:state": "PA", "addr:postcode": "15656", "name": "First Commonwealth Bank - Allegheny Township Office", "phone": "1-724-842-0951", "website": "https://www.fcbanking.com/branch-locations/pennsylvania/leechburg/allegheny-township-office/1147-s-leechburg-hill-rd/", "opening_hours": "Mo-Fr 09:00-17:00; Sa 09:00-12:00", "image": "https://www.fcbanking.com/media/1062/logo.png", "brand": "First Commonwealth Bank", "brand:wikidata": "Q5452773"}, "geometry": {"type": "Point", "coordinates": [-79.62617, 40.61607]}},
{"type": "Feature", "id": "vTQRqkeV19UI6krZdWYP-gnKbQE=", "properties": {"ref": "/pennsylvania/latrobe/latrobe-office/2501-sharkys-dr/", "@spider": "fcbanking", "addr:street_address": "2501 Sharkys Dr", "addr:city": "Latrobe", "addr:state": "PA", "addr:postcode": "15650", "name": "First Commonwealth Bank - Latrobe Office", "phone": "1-724-238-6130", "website": "https://www.fcbanking.com/branch-locations/pennsylvania/latrobe/latrobe-office/2501-sharkys-dr/", "opening_hours": "Mo-Fr 09:00-17:00; Sa 09:00-12:00", "image": "https://www.fcbanking.com/media/1062/logo.png", "brand": "First Commonwealth Bank", "brand:wikidata": "Q5452773"}, "geometry": {"type": "Point", "coordinates": [-79.38752, 40.28581]}},
{"type": "Feature", "id": "seYIf8CkQdbcGgbem3k3eIhHC_k=", "properties": {"ref": "/pennsylvania/kersey/kersey-office/367-main-st/", "@spider": "fcbanking", "addr:street_address": "367 Main St", "addr:city": "Kersey", "addr:state": "PA", "addr:postcode": "15846", "name": "First Commonwealth Bank - Kersey Office", "phone": "1-814-885-8041", "website": "https://www.fcbanking.com/branch-locations/pennsylvania/kersey/kersey-office/367-main-st/", "opening_hours": "Mo-Fr 09:00-17:00", "image": "https://www.fcbanking.com/media/1062/logo.png", "brand": "First Commonwealth Bank", "brand:wikidata": "Q5452773"}, "geometry": {"type": "Point", "coordinates": [-78.60938, 41.36164]}},
{"type": "Feature", "id": "A0CDh_dwxpPB-2W3mCAEn9TPq5w=", "properties": {"ref": "/pennsylvania/johnstown/westmont-office/1541-menoher-blvd/", "@spider": "fcbanking", "addr:street_address": "1541 Menoher Blvd", "addr:city": "Johnstown", "addr:state": "PA", "addr:postcode": "15905", "name": "First Commonwealth Bank - Westmont Office", "phone": "1-814-262-2192", "website": "https://www.fcbanking.com/branch-locations/pennsylvania/johnstown/westmont-office/1541-menoher-blvd/", "opening_hours": "Mo-Fr 09:00-17:00; Sa 09:00-12:00", "image": "https://www.fcbanking.com/media/1062/logo.png", "brand": "First Commonwealth Bank", "brand:wikidata": "Q5452773"}, "geometry": {"type": "Point", "coordinates": [-78.95282, 40.31566]}},
{"type": "Feature", "id": "wl2kVlEeIGwli1Qwh3w9EgTMf8Q=", "properties": {"ref": "/pennsylvania/johnstown/university-office/3112-elton-rd/", "@spider": "fcbanking", "addr:street_address": "3112 Elton Rd", "addr:city": "Johnstown", "addr:state": "PA", "addr:postcode": "15904", "name": "First Commonwealth Bank - University Office", "phone": "1-814-266-8608", "website": "https://www.fcbanking.com/branch-locations/pennsylvania/johnstown/university-office/3112-elton-rd/", "opening_hours": "Mo-Fr 09:00-17:00", "image": "https://www.fcbanking.com/media/1062/logo.png", "brand": "First Commonwealth Bank", "brand:wikidata": "Q5452773"}, "geometry": {"type": "Point", "coordinates": [-78.84737, 40.27966]}},
{"type": "Feature", "id": "pFC0mni69vyJiirZKbIcnv4-l0Q=", "properties": {"ref": "/pennsylvania/johnstown/richland-office/1001-scalp-ave/", "@spider": "fcbanking", "addr:street_address": "1001 Scalp Ave", "addr:city": "Johnstown", "addr:state": "PA", "addr:postcode": "15904", "name": "First Commonwealth Bank - Richland Office", "phone": "1-814-266-5826", "website": "https://www.fcbanking.com/branch-locations/pennsylvania/johnstown/richland-office/1001-scalp-ave/", "opening_hours": "Mo-Fr 09:00-17:00; Sa 09:00-12:00", "image": "https://www.fcbanking.com/media/1062/logo.png", "brand": "First Commonwealth Bank", "brand:wikidata": "Q5452773"}, "geometry": {"type": "Point", "coordinates": [-78.86449, 40.28427]}},
{"type": "Feature", "id": "9rPpdcIooIpjRv2TZviFwZh6Cv0=", "properties": {"ref": "/pennsylvania/johnstown/eighth-ward-office/1047-franklin-st/", "@spider": "fcbanking", "addr:street_address": "1047 Franklin St", "addr:city": "Johnstown", "addr:state": "PA", "addr:postcode": "15905", "name": "First Commonwealth Bank - Eighth Ward Office", "phone": "1-814-533-6800", "website": "https://www.fcbanking.com/branch-locations/pennsylvania/johnstown/eighth-ward-office/1047-franklin-st/", "opening_hours": "Mo-Fr 09:00-17:00", "image": "https://www.fcbanking.com/media/1062/logo.png", "brand": "First Commonwealth Bank", "brand:wikidata": "Q5452773"}, "geometry": {"type": "Point", "coordinates": [-78.91676, 40.30935]}},
{"type": "Feature", "id": "2KK4Ur6BMTBJWK4a8Hq3wYNjWcY=", "properties": {"ref": "/pennsylvania/jennerstown/jennerstown-office/1626-pitt-st/", "@spider": "fcbanking", "addr:street_address": "1626 Pitt St", "addr:city": "Jennerstown", "addr:state": "PA", "addr:postcode": "15547", "name": "First Commonwealth Bank - Jennerstown Office", "phone": "1-814-629-6611", "website": "https://www.fcbanking.com/branch-locations/pennsylvania/jennerstown/jennerstown-office/1626-pitt-st/", "opening_hours": "Mo-Fr 09:00-17:00", "image": "https://www.fcbanking.com/media/1062/logo.png", "brand": "First Commonwealth Bank", "brand:wikidata": "Q5452773"}, "geometry": {"type": "Point", "coordinates": [-79.06617, 40.1599]}},
{"type": "Feature", "id": "IdN3IUarKUUQuWloCDG9YgelH_A=", "properties": {"ref": "/pennsylvania/indiana/southtowne-office/3100-oakland-ave,-unit-27/", "@spider": "fcbanking", "addr:street_address": "3100 Oakland Ave, Unit 27", "addr:city": "Indiana", "addr:state": "PA", "addr:postcode": "15701", "name": "First Commonwealth Bank - Southtowne Office", "phone": "1-724-463-8004", "website": "https://www.fcbanking.com/branch-locations/pennsylvania/indiana/southtowne-office/3100-oakland-ave,-unit-27/", "opening_hours": "Mo-Fr 09:00-17:00; Sa 09:00-12:00", "image": "https://www.fcbanking.com/media/1062/logo.png", "brand": "First Commonwealth Bank", "brand:wikidata": "Q5452773"}, "geometry": {"type": "Point", "coordinates": [-79.19309, 40.60154]}},
{"type": "Feature", "id": "pxZ1Ruv3-3ZY6b6loh2OmlBmV-A=", "properties": {"ref": "/pennsylvania/indiana/downtown-indiana-office/600-philadelphia-st/", "@spider": "fcbanking", "addr:street_address": "600 Philadelphia St", "addr:city": "Indiana", "addr:state": "PA", "addr:postcode": "15701", "name": "First Commonwealth Bank - Downtown Indiana Office", "phone": "1-724-463-8555", "website": "https://www.fcbanking.com/branch-locations/pennsylvania/indiana/downtown-indiana-office/600-philadelphia-st/", "opening_hours": "Mo-Fr 09:00-17:00", "image": "https://www.fcbanking.com/media/1062/logo.png", "brand": "First Commonwealth Bank", "brand:wikidata": "Q5452773"}, "geometry": {"type": "Point", "coordinates": [-79.15108, 40.6227]}},
{"type": "Feature", "id": "hOcYaQkXZbLveED6smAYfBAJRLg=", "properties": {"ref": "/pennsylvania/indiana/regency-mall-office/1540-oakland-ave,-unit-4/", "@spider": "fcbanking", "addr:street_address": "1540 Oakland Ave, Unit 4", "addr:city": "Indiana", "addr:state": "PA", "addr:postcode": "15701", "name": "First Commonwealth Bank - Regency Mall Office", "phone": "1-724-465-2693", "website": "https://www.fcbanking.com/branch-locations/pennsylvania/indiana/regency-mall-office/1540-oakland-ave,-unit-4/", "opening_hours": "Mo-Fr 09:00-17:00", "image": "https://www.fcbanking.com/media/1062/logo.png", "brand": "First Commonwealth Bank", "brand:wikidata": "Q5452773"}, "geometry": {"type": "Point", "coordinates": [-79.17141, 40.61539]}},
{"type": "Feature", "id": "H-36WivIhOhdeTH405g1XbXuKpA=", "properties": {"ref": "/pennsylvania/indiana/west-end-drive-up-office/1164-philadelphia-st/", "@spider": "fcbanking", "addr:street_address": "1164 Philadelphia St", "addr:city": "Indiana", "addr:state": "PA", "addr:postcode": "15701", "name": "First Commonwealth Bank - West End Drive-Up Office", "phone": "1-724-463-5655", "website": "https://www.fcbanking.com/branch-locations/pennsylvania/indiana/west-end-drive-up-office/1164-philadelphia-st/", "opening_hours": "Mo-Fr 09:00-17:00; Sa 09:00-12:00", "image": "https://www.fcbanking.com/media/1062/logo.png", "brand": "First Commonwealth Bank", "brand:wikidata": "Q5452773"}, "geometry": {"type": "Point", "coordinates": [-79.16255, 40.623]}},
{"type": "Feature", "id": "fIl1Iv6SNxfYEjefCoi0_QILfFA=", "properties": {"ref": "/pennsylvania/hunker/new-stanton-office/803-s-center-ave/", "@spider": "fcbanking", "addr:street_address": "803 S Center Ave", "addr:city": "Hunker", "addr:state": "PA", "addr:postcode": "15639", "name": "First Commonwealth Bank - New Stanton Office", "phone": "1-724-925-7255", "website": "https://www.fcbanking.com/branch-locations/pennsylvania/hunker/new-stanton-office/803-s-center-ave/", "opening_hours": "Mo-Fr 09:00-17:00; Sa 09:00-12:00", "image": "https://www.fcbanking.com/media/1062/logo.png", "brand": "First Commonwealth Bank", "brand:wikidata": "Q5452773"}, "geometry": {"type": "Point", "coordinates": [-79.6028, 40.20147]}},
{"type": "Feature", "id": "V8diHGMxcgc1M7HWmqPvJZsfv6I=", "properties": {"ref": "/pennsylvania/houtzdale/houtzdale-office/709-hannah-st/", "@spider": "fcbanking", "addr:street_address": "709 Hannah St", "addr:city": "Houtzdale", "addr:state": "PA", "addr:postcode": "16651", "name": "First Commonwealth Bank - Houtzdale Office", "phone": "1-814-762-8981", "website": "https://www.fcbanking.com/branch-locations/pennsylvania/houtzdale/houtzdale-office/709-hannah-st/", "opening_hours": "Mo-Fr 09:00-17:00; Sa 09:00-12:00", "image": "https://www.fcbanking.com/media/1062/logo.png", "brand": "First Commonwealth Bank", "brand:wikidata": "Q5452773"}, "geometry": {"type": "Point", "coordinates": [-78.35152, 40.82511]}},
{"type": "Feature", "id": "71VghGGZJFEqpVZyTSvjqXjhhzw=", "properties": {"ref": "/pennsylvania/homestead/waterfront-office/500-e-waterfront-dr/", "@spider": "fcbanking", "addr:street_address": "500 E Waterfront Dr", "addr:city": "Homestead", "addr:state": "PA", "addr:postcode": "15120", "name": "First Commonwealth Bank - Waterfront Office", "phone": "1-412-886-2501", "website": "https://www.fcbanking.com/branch-locations/pennsylvania/homestead/waterfront-office/500-e-waterfront-dr/", "opening_hours": "Mo-Fr 09:00-17:00; Sa 09:00-12:00", "image": "https://www.fcbanking.com/media/1062/logo.png", "brand": "First Commonwealth Bank", "brand:wikidata": "Q5452773"}, "geometry": {"type": "Point", "coordinates": [-79.90712, 40.41289]}},
{"type": "Feature", "id": "9RoVvKrJh0sHXygyUxSCSrkK5Rc=", "properties": {"ref": "/pennsylvania/homer-city/homer-city-office/2254-route-119-hwy-s/", "@spider": "fcbanking", "addr:street_address": "2254 Route 119 Hwy S", "addr:city": "Homer City", "addr:state": "PA", "addr:postcode": "15748", "name": "First Commonwealth Bank - Homer City Office", "phone": "1-724-459-4682", "website": "https://www.fcbanking.com/branch-locations/pennsylvania/homer-city/homer-city-office/2254-route-119-hwy-s/", "opening_hours": "Mo-Fr 09:00-17:00; Sa 09:00-12:00", "image": "https://www.fcbanking.com/media/1062/logo.png", "brand": "First Commonwealth Bank", "brand:wikidata": "Q5452773"}, "geometry": {"type": "Point", "coordinates": [-79.1656, 40.55807]}},
{"type": "Feature", "id": "oZR5cXheAggjHeDt93-A9i6NPrw=", "properties": {"ref": "/pennsylvania/hollidaysburg/meadows-office/1913-n-juniata-st/", "@spider": "fcbanking", "addr:street_address": "1913 N Juniata St", "addr:city": "Hollidaysburg", "addr:state": "PA", "addr:postcode": "16648", "name": "First Commonwealth Bank - Meadows Office", "phone": "1-814-696-1421", "website": "https://www.fcbanking.com/branch-locations/pennsylvania/hollidaysburg/meadows-office/1913-n-juniata-st/", "opening_hours": "Mo-Fr 09:00-17:00; Sa 09:00-12:00", "image": "https://www.fcbanking.com/media/1062/logo.png", "brand": "First Commonwealth Bank", "brand:wikidata": "Q5452773"}, "geometry": {"type": "Point", "coordinates": [-78.41183, 40.43682]}},
{"type": "Feature", "id": "uJGhNIvod4JV45CVR4wkiY0OOr0=", "properties": {"ref": "/pennsylvania/greensburg/downtown-greensburg-office/111-s-main-st/", "@spider": "fcbanking", "addr:street_address": "111 S Main St", "addr:city": "Greensburg", "addr:state": "PA", "addr:postcode": "15601", "name": "First Commonwealth Bank - Downtown Greensburg Office", "phone": "1-724-834-2310", "website": "https://www.fcbanking.com/branch-locations/pennsylvania/greensburg/downtown-greensburg-office/111-s-main-st/", "opening_hours": "Mo-Fr 09:00-17:00", "image": "https://www.fcbanking.com/media/1062/logo.png", "brand": "First Commonwealth Bank", "brand:wikidata": "Q5452773"}, "geometry": {"type": "Point", "coordinates": [-79.54388, 40.30222]}},
{"type": "Feature", "id": "xFMuXdnDvEfXFq7YggcXyEov81c=", "properties": {"ref": "/pennsylvania/greensburg/east-hills-office/750-e-pittsburgh-st/", "@spider": "fcbanking", "addr:street_address": "750 E Pittsburgh St", "addr:city": "Greensburg", "addr:state": "PA", "addr:postcode": "15601", "name": "First Commonwealth Bank - East Hills Office", "phone": "1-724-837-6400", "website": "https://www.fcbanking.com/branch-locations/pennsylvania/greensburg/east-hills-office/750-e-pittsburgh-st/", "opening_hours": "Mo-Fr 09:00-17:00; Sa 09:00-12:00", "image": "https://www.fcbanking.com/media/1062/logo.png", "brand": "First Commonwealth Bank", "brand:wikidata": "Q5452773"}, "geometry": {"type": "Point", "coordinates": [-79.52491, 40.30214]}},
{"type": "Feature", "id": "Fjekg3tm2qe6eywYUCJ8NyxqQ5Q=", "properties": {"ref": "/pennsylvania/greensburg/greengate-office/4000-hempfield-plaza-blvd-ste-901/", "@spider": "fcbanking", "addr:street_address": "4000 Hempfield Plaza Blvd Ste 901", "addr:city": "Greensburg", "addr:state": "PA", "addr:postcode": "15601", "name": "First Commonwealth Bank - Greengate Office", "phone": "1-724-836-6610", "website": "https://www.fcbanking.com/branch-locations/pennsylvania/greensburg/greengate-office/4000-hempfield-plaza-blvd-ste-901/", "opening_hours": "Mo-Fr 09:00-17:00; Sa 09:00-12:00", "image": "https://www.fcbanking.com/media/1062/logo.png", "brand": "First Commonwealth Bank", "brand:wikidata": "Q5452773"}, "geometry": {"type": "Point", "coordinates": [-79.58312, 40.30982]}},
{"type": "Feature", "id": "MKmlxoNMWJ24bKpgMbZX48aa2bY=", "properties": {"ref": "/pennsylvania/greensburg/mt-view-office/110-village-dr/", "@spider": "fcbanking", "addr:street_address": "110 Village Dr", "addr:city": "Greensburg", "addr:state": "PA", "addr:postcode": "15601", "name": "First Commonwealth Bank - Mt. View Office", "phone": "1-724-830-6213", "website": "https://www.fcbanking.com/branch-locations/pennsylvania/greensburg/mt-view-office/110-village-dr/", "opening_hours": "Mo-Fr 09:00-17:00", "image": "https://www.fcbanking.com/media/1062/logo.png", "brand": "First Commonwealth Bank", "brand:wikidata": "Q5452773"}, "geometry": {"type": "Point", "coordinates": [-79.46401, 40.29079]}},
{"type": "Feature", "id": "Chg0wt-iv7Pdpw0IFJU20eg96vU=", "properties": {"ref": "/pennsylvania/gibsonia/gibsonia-office/5167-william-flynn-hwy/", "@spider": "fcbanking", "addr:street_address": "5167 William Flynn Hwy", "addr:city": "Gibsonia", "addr:state": "PA", "addr:postcode": "15044", "name": "First Commonwealth Bank - Gibsonia Office", "phone": "1-724-934-4451", "website": "https://www.fcbanking.com/branch-locations/pennsylvania/gibsonia/gibsonia-office/5167-william-flynn-hwy/", "opening_hours": "Mo-Fr 09:00-17:00; Sa 09:00-12:00", "image": "https://www.fcbanking.com/media/1062/logo.png", "brand": "First Commonwealth Bank", "brand:wikidata": "Q5452773"}, "geometry": {"type": "Point", "coordinates": [-79.94765, 40.61319]}},
{"type": "Feature", "id": "2_HMvSj9zz2u0hjFxfx4JWJ23j8=", "properties": {"ref": "/pennsylvania/elizabeth/elizabeth-office/548-rock-run-rd/", "@spider": "fcbanking", "addr:street_address": "548 Rock Run Rd", "addr:city": "Elizabeth", "addr:state": "PA", "addr:postcode": "15037", "name": "First Commonwealth Bank - Elizabeth Office", "phone": "1-412-673-7081", "website": "https://www.fcbanking.com/branch-locations/pennsylvania/elizabeth/elizabeth-office/548-rock-run-rd/", "opening_hours": "Mo-Fr 09:00-17:00; Sa 09:00-12:00", "image": "https://www.fcbanking.com/media/1062/logo.png", "brand": "First Commonwealth Bank", "brand:wikidata": "Q5452773"}, "geometry": {"type": "Point", "coordinates": [-79.82251, 40.2722]}},
{"type": "Feature", "id": "qTuPa3e9OgS9qAaO3W82bTZu21k=", "properties": {"ref": "/pennsylvania/ebensburg/ebensburg-office/708-w-high-st/", "@spider": "fcbanking", "addr:street_address": "708 W High St", "addr:city": "Ebensburg", "addr:state": "PA", "addr:postcode": "15931", "name": "First Commonwealth Bank - Ebensburg Office", "phone": "1-814-472-4680", "website": "https://www.fcbanking.com/branch-locations/pennsylvania/ebensburg/ebensburg-office/708-w-high-st/", "opening_hours": "Mo-Fr 09:00-17:00; Sa 09:00-12:00", "image": "https://www.fcbanking.com/media/1062/logo.png", "brand": "First Commonwealth Bank", "brand:wikidata": "Q5452773"}, "geometry": {"type": "Point", "coordinates": [-78.71848, 40.48509]}},
{"type": "Feature", "id": "eFOnrtQejgaIcwouFpAJkFRYYMs=", "properties": {"ref": "/pennsylvania/duncansville/duncansville-office/1525-third-ave/", "@spider": "fcbanking", "addr:street_address": "1525 Third Ave", "addr:city": "Duncansville", "addr:state": "PA", "addr:postcode": "16635", "name": "First Commonwealth Bank - Duncansville Office", "phone": "1-814-695-4444", "website": "https://www.fcbanking.com/branch-locations/pennsylvania/duncansville/duncansville-office/1525-third-ave/", "opening_hours": "Mo-Fr 09:00-17:00", "image": "https://www.fcbanking.com/media/1062/logo.png", "brand": "First Commonwealth Bank", "brand:wikidata": "Q5452773"}, "geometry": {"type": "Point", "coordinates": [-78.43809, 40.42209]}},
{"type": "Feature", "id": "vLQRZfQT4UbVEKZtTvrknvl1b6E=", "properties": {"ref": "/pennsylvania/dubois/dubois-mall-office/5355-shaffer-rd/", "@spider": "fcbanking", "addr:street_address": "5355 Shaffer Rd", "addr:city": "Dubois", "addr:state": "PA", "addr:postcode": "15801", "name": "First Commonwealth Bank - DuBois Mall Office", "phone": "1-814-371-5002", "website": "https://www.fcbanking.com/branch-locations/pennsylvania/dubois/dubois-mall-office/5355-shaffer-rd/", "opening_hours": "Mo-Fr 09:00-17:00; Sa 09:00-12:00", "image": "https://www.fcbanking.com/media/1062/logo.png", "brand": "First Commonwealth Bank", "brand:wikidata": "Q5452773"}, "geometry": {"type": "Point", "coordinates": [-78.73152, 41.11704]}},
{"type": "Feature", "id": "UyVvOD7Xh-AYTR-Us55cGCbQKsg=", "properties": {"ref": "/pennsylvania/dubois/north-main-street-office/5-n-main-st/", "@spider": "fcbanking", "addr:street_address": "5 N Main St", "addr:city": "DuBois", "addr:state": "PA", "addr:postcode": "15801", "name": "First Commonwealth Bank - North Main Street Office", "phone": "1-814-371-4448", "website": "https://www.fcbanking.com/branch-locations/pennsylvania/dubois/north-main-street-office/5-n-main-st/", "opening_hours": "Mo-Fr 09:00-17:00; Sa 09:00-12:00", "image": "https://www.fcbanking.com/media/1062/logo.png", "brand": "First Commonwealth Bank", "brand:wikidata": "Q5452773"}, "geometry": {"type": "Point", "coordinates": [-78.76731, 41.12182]}},
{"type": "Feature", "id": "0UZ295SQ2vFVyhrpS5t111OsnEU=", "properties": {"ref": "/pennsylvania/derry/derry-office/200-s-chestnut-st/", "@spider": "fcbanking", "addr:street_address": "200 S Chestnut St", "addr:city": "Derry", "addr:state": "PA", "addr:postcode": "15627", "name": "First Commonwealth Bank - Derry Office", "phone": "1-724-459-4697", "website": "https://www.fcbanking.com/branch-locations/pennsylvania/derry/derry-office/200-s-chestnut-st/", "opening_hours": "Mo-Fr 09:00-17:00", "image": "https://www.fcbanking.com/media/1062/logo.png", "brand": "First Commonwealth Bank", "brand:wikidata": "Q5452773"}, "geometry": {"type": "Point", "coordinates": [-79.29945, 40.33282]}},
{"type": "Feature", "id": "N0ERSuzXS_fJpapVDHt-5qz01Ac=", "properties": {"ref": "/pennsylvania/delmont/delmont-office/38-greensburg-st/", "@spider": "fcbanking", "addr:street_address": "38 Greensburg St", "addr:city": "Delmont", "addr:state": "PA", "addr:postcode": "15626", "name": "First Commonwealth Bank - Delmont Office", "phone": "1-724-468-4101", "website": "https://www.fcbanking.com/branch-locations/pennsylvania/delmont/delmont-office/38-greensburg-st/", "opening_hours": "Mo-Fr 09:00-17:00; Sa 09:00-12:00", "image": "https://www.fcbanking.com/media/1062/logo.png", "brand": "First Commonwealth Bank", "brand:wikidata": "Q5452773"}, "geometry": {"type": "Point", "coordinates": [-79.57079, 40.41285]}},
{"type": "Feature", "id": "eB1UalhtyC6kZB5cIYjCg_tScPM=", "properties": {"ref": "/pennsylvania/delmont/salem-22-office/6514-route-22/", "@spider": "fcbanking", "addr:street_address": "6514 Route 22", "addr:city": "Delmont", "addr:state": "PA", "addr:postcode": "15626", "name": "First Commonwealth Bank - Salem 22 Office", "phone": "1-724-468-3022", "website": "https://www.fcbanking.com/branch-locations/pennsylvania/delmont/salem-22-office/6514-route-22/", "opening_hours": "Mo-Fr 09:00-17:00", "image": "https://www.fcbanking.com/media/1062/logo.png", "brand": "First Commonwealth Bank", "brand:wikidata": "Q5452773"}, "geometry": {"type": "Point", "coordinates": [-79.58588, 40.4008]}},
{"type": "Feature", "id": "RbWe93u7Gq1sUnHKSk8rfxk6UQk=", "properties": {"ref": "/pennsylvania/cranberry-township/cranberry-freedom-square-office/1189-freedom-rd/", "@spider": "fcbanking", "addr:street_address": "1189 Freedom Rd", "addr:city": "Cranberry Township", "addr:state": "PA", "addr:postcode": "16066", "name": "First Commonwealth Bank - Cranberry-Freedom Square Office", "phone": "1-724-778-3960", "website": "https://www.fcbanking.com/branch-locations/pennsylvania/cranberry-township/cranberry-freedom-square-office/1189-freedom-rd/", "opening_hours": "Mo-Fr 09:00-17:00", "image": "https://www.fcbanking.com/media/1062/logo.png", "brand": "First Commonwealth Bank", "brand:wikidata": "Q5452773"}, "geometry": {"type": "Point", "coordinates": [-80.12278, 40.68225]}},
{"type": "Feature", "id": "udCyE-rDIwZttI8-6CgtGj47gEs=", "properties": {"ref": "/pennsylvania/clearfield/clearfield-office/14303-clearfield-shawville-hwy/", "@spider": "fcbanking", "addr:street_address": "14303 Clearfield Shawville Hwy", "addr:city": "Clearfield", "addr:state": "PA", "addr:postcode": "16830", "name": "First Commonwealth Bank - Clearfield Office", "phone": "1-814-765-2666", "website": "https://www.fcbanking.com/branch-locations/pennsylvania/clearfield/clearfield-office/14303-clearfield-shawville-hwy/", "opening_hours": "Mo-Fr 09:00-17:00; Sa 09:00-12:00", "image": "https://www.fcbanking.com/media/1062/logo.png", "brand": "First Commonwealth Bank", "brand:wikidata": "Q5452773"}, "geometry": {"type": "Point", "coordinates": [-78.40273, 41.03447]}},
{"type": "Feature", "id": "L80y-F7WQdUuaLdNCaOaPv3O0aY=", "properties": {"ref": "/pennsylvania/claysburg/claysburg-office/311-ski-gap-rd/", "@spider": "fcbanking", "addr:street_address": "311 Ski Gap Rd", "addr:city": "Claysburg", "addr:state": "PA", "addr:postcode": "16625", "name": "First Commonwealth Bank - Claysburg Office", "phone": "1-814-239-2115", "website": "https://www.fcbanking.com/branch-locations/pennsylvania/claysburg/claysburg-office/311-ski-gap-rd/", "opening_hours": "Mo-Fr 09:00-17:00", "image": "https://www.fcbanking.com/media/1062/logo.png", "brand": "First Commonwealth Bank", "brand:wikidata": "Q5452773"}, "geometry": {"type": "Point", "coordinates": [-78.45517, 40.29185]}},
{"type": "Feature", "id": "6g8bDQsWNHvgZtpT74J2_vHsD6E=", "properties": {"ref": "/pennsylvania/butler/butler-crossing-office/520-butler-crossing/", "@spider": "fcbanking", "addr:street_address": "520 Butler Crossing", "addr:city": "Butler", "addr:state": "PA", "addr:postcode": "16001", "name": "First Commonwealth Bank - Butler Crossing Office", "phone": "1-724-284-3470", "website": "https://www.fcbanking.com/branch-locations/pennsylvania/butler/butler-crossing-office/520-butler-crossing/", "opening_hours": "Mo-Fr 09:00-17:00; Sa 09:00-12:00", "image": "https://www.fcbanking.com/media/1062/logo.png", "brand": "First Commonwealth Bank", "brand:wikidata": "Q5452773"}, "geometry": {"type": "Point", "coordinates": [-79.94727, 40.87706]}},
{"type": "Feature", "id": "Fyv-aGgli-mAWgvRPKO_IgH_IeY=", "properties": {"ref": "/pennsylvania/butler/butler-office/100-n-main-st/", "@spider": "fcbanking", "addr:street_address": "100 N Main St", "addr:city": "Butler", "addr:state": "PA", "addr:postcode": "16001", "name": "First Commonwealth Bank - Butler Office", "phone": "1-724-287-1704", "website": "https://www.fcbanking.com/branch-locations/pennsylvania/butler/butler-office/100-n-main-st/", "opening_hours": "Mo-Fr 09:00-17:00", "image": "https://www.fcbanking.com/media/1062/logo.png", "brand": "First Commonwealth Bank", "brand:wikidata": "Q5452773"}, "geometry": {"type": "Point", "coordinates": [-79.89532, 40.86105]}},
{"type": "Feature", "id": "esUGJ1A77mRPSePhhe6Cv_bUxfA=", "properties": {"ref": "/pennsylvania/brookville/brookville-office/223-main-st/", "@spider": "fcbanking", "addr:street_address": "223 Main St", "addr:city": "Brookville", "addr:state": "PA", "addr:postcode": "15825", "name": "First Commonwealth Bank - Brookville Office", "phone": "1-814-849-5361", "website": "https://www.fcbanking.com/branch-locations/pennsylvania/brookville/brookville-office/223-main-st/", "opening_hours": "Mo-Fr 09:00-17:00; Sa 09:00-12:00", "image": "https://www.fcbanking.com/media/1062/logo.png", "brand": "First Commonwealth Bank", "brand:wikidata": "Q5452773"}, "geometry": {"type": "Point", "coordinates": [-79.09165, 41.15698]}},
{"type": "Feature", "id": "EDiRj5r3Jed6QKXYn7c2Oe5GmnE=", "properties": {"ref": "/pennsylvania/brockway/brockway-office/1201-main-st/", "@spider": "fcbanking", "addr:street_address": "1201 Main St", "addr:city": "Brockway", "addr:state": "PA", "addr:postcode": "15824", "name": "First Commonwealth Bank - Brockway Office", "phone": "1-814-268-3735", "website": "https://www.fcbanking.com/branch-locations/pennsylvania/brockway/brockway-office/1201-main-st/", "opening_hours": "Mo-Fr 09:00-17:00; Sa 09:00-12:00", "image": "https://www.fcbanking.com/media/1062/logo.png", "brand": "First Commonwealth Bank", "brand:wikidata": "Q5452773"}, "geometry": {"type": "Point", "coordinates": [-78.789, 41.24755]}},
{"type": "Feature", "id": "udmREKUoeJnHUqgvgABAm69gVSU=", "properties": {"ref": "/pennsylvania/bridgeville/bridgeville-office/428-station-st/", "@spider": "fcbanking", "addr:street_address": "428 Station St", "addr:city": "Bridgeville", "addr:state": "PA", "addr:postcode": "15017", "name": "First Commonwealth Bank - Bridgeville Office", "phone": "1-724-926-1305", "website": "https://www.fcbanking.com/branch-locations/pennsylvania/bridgeville/bridgeville-office/428-station-st/", "opening_hours": "Mo-Fr 09:00-17:00; Sa 09:00-12:00", "image": "https://www.fcbanking.com/media/1062/logo.png", "brand": "First Commonwealth Bank", "brand:wikidata": "Q5452773"}, "geometry": {"type": "Point", "coordinates": [-80.11142, 40.35815]}},
{"type": "Feature", "id": "WHvVzu2v3XbOhfApEit1pazm9qE=", "properties": {"ref": "/pennsylvania/blairsville/blairsville-office/53-e-market-st/", "@spider": "fcbanking", "addr:street_address": "53 E Market St", "addr:city": "Blairsville", "addr:state": "PA", "addr:postcode": "15717", "name": "First Commonwealth Bank - Blairsville Office", "phone": "1-724-459-6780", "website": "https://www.fcbanking.com/branch-locations/pennsylvania/blairsville/blairsville-office/53-e-market-st/", "opening_hours": "Mo-Fr 09:00-17:00; Sa 09:00-12:00", "image": "https://www.fcbanking.com/media/1062/logo.png", "brand": "First Commonwealth Bank", "brand:wikidata": "Q5452773"}, "geometry": {"type": "Point", "coordinates": [-79.26331, 40.43089]}},
{"type": "Feature", "id": "npK2XTqw9xb4b7eCKbqrrvaIeAY=", "properties": {"ref": "/pennsylvania/bedford/bedford-office/9503-lincoln-hwy/", "@spider": "fcbanking", "addr:street_address": "9503 Lincoln Hwy", "addr:city": "Bedford", "addr:state": "PA", "addr:postcode": "15522", "name": "First Commonwealth Bank - Bedford Office", "phone": "1-814-623-2003", "website": "https://www.fcbanking.com/branch-locations/pennsylvania/bedford/bedford-office/9503-lincoln-hwy/", "opening_hours": "Mo-Fr 09:00-17:00; Sa 09:00-12:00", "image": "https://www.fcbanking.com/media/1062/logo.png", "brand": "First Commonwealth Bank", "brand:wikidata": "Q5452773"}, "geometry": {"type": "Point", "coordinates": [-78.46476, 40.01827]}},
{"type": "Feature", "id": "RGzLOivDNzVCnpl9uFyELU7dXfs=", "properties": {"ref": "/pennsylvania/altoona/pleasant-valley-office/2009-pleasant-valley-blvd/", "@spider": "fcbanking", "addr:street_address": "2009 Pleasant Valley Blvd", "addr:city": "Altoona", "addr:state": "PA", "addr:postcode": "16602", "name": "First Commonwealth Bank - Pleasant Valley Office", "phone": "1-814-943-8780", "website": "https://www.fcbanking.com/branch-locations/pennsylvania/altoona/pleasant-valley-office/2009-pleasant-valley-blvd/", "opening_hours": "Mo-Fr 09:00-17:00; Sa 09:00-12:00", "image": "https://www.fcbanking.com/media/1062/logo.png", "brand": "First Commonwealth Bank", "brand:wikidata": "Q5452773"}, "geometry": {"type": "Point", "coordinates": [-78.39284, 40.49838]}},
{"type": "Feature", "id": "LTGMZb9x0-CI7C5g6NdSdCZ_7g4=", "properties": {"ref": "/pennsylvania/altoona/bellwood-office/2984-e-pleasant-valley-blvd/", "@spider": "fcbanking", "addr:street_address": "2984 E Pleasant Valley Blvd", "addr:city": "Altoona", "addr:state": "PA", "addr:postcode": "16601", "name": "First Commonwealth Bank - Bellwood Office", "phone": "1-814-947-4907", "website": "https://www.fcbanking.com/branch-locations/pennsylvania/altoona/bellwood-office/2984-e-pleasant-valley-blvd/", "opening_hours": "Mo-Fr 09:00-17:00; Sa 09:00-12:00", "image": "https://www.fcbanking.com/media/1062/logo.png", "brand": "First Commonwealth Bank", "brand:wikidata": "Q5452773"}, "geometry": {"type": "Point", "coordinates": [-78.32439, 40.58867]}},
{"type": "Feature", "id": "D8HMW_AbEyPurTGEjBppr_XbRWs=", "properties": {"ref": "/pennsylvania/allison-park/allison-park-office/2724-harts-run-rd/", "@spider": "fcbanking", "addr:street_address": "2724 Harts Run Rd", "addr:city": "Allison Park", "addr:state": "PA", "addr:postcode": "15101", "name": "First Commonwealth Bank - Allison Park Office", "phone": "1-412-492-2920", "website": "https://www.fcbanking.com/branch-locations/pennsylvania/allison-park/allison-park-office/2724-harts-run-rd/", "opening_hours": "Mo-Fr 09:00-17:00", "image": "https://www.fcbanking.com/media/1062/logo.png", "brand": "First Commonwealth Bank", "brand:wikidata": "Q5452773"}, "geometry": {"type": "Point", "coordinates": [-79.95311, 40.56947]}},
{"type": "Feature", "id": "bCtDr3wzmkhsz-3wGGv71qWBhMY=", "properties": {"ref": "/ohio/westerville/highland-lakes-office/6156-highland-lakes-ave/", "@spider": "fcbanking", "addr:street_address": "6156 Highland Lakes Ave", "addr:city": "Westerville", "addr:state": "OH", "addr:postcode": "43082", "name": "First Commonwealth Bank - Highland Lakes Office", "phone": "1-740-548-3180", "website": "https://www.fcbanking.com/branch-locations/ohio/westerville/highland-lakes-office/6156-highland-lakes-ave/", "opening_hours": "Mo-Fr 09:00-17:00", "image": "https://www.fcbanking.com/media/1062/logo.png", "brand": "First Commonwealth Bank", "brand:wikidata": "Q5452773"}, "geometry": {"type": "Point", "coordinates": [-82.91991, 40.15739]}},
{"type": "Feature", "id": "FYdFrf2wyuUdX--HhwYR6FxteEU=", "properties": {"ref": "/ohio/sunbury/sunbury-office/75-s-miller-dr/", "@spider": "fcbanking", "addr:street_address": "75 S Miller Dr", "addr:city": "Sunbury", "addr:state": "OH", "addr:postcode": "43074", "name": "First Commonwealth Bank - Sunbury Office", "phone": "1-740-548-3360", "website": "https://www.fcbanking.com/branch-locations/ohio/sunbury/sunbury-office/75-s-miller-dr/", "opening_hours": "Mo-Fr 09:00-17:00; Sa 09:00-12:00", "image": "https://www.fcbanking.com/media/1062/logo.png", "brand": "First Commonwealth Bank", "brand:wikidata": "Q5452773"}, "geometry": {"type": "Point", "coordinates": [-82.86942, 40.24738]}},
{"type": "Feature", "id": "tttsgg2QqmlM3edfT0jfWMtFMdg=", "properties": {"ref": "/ohio/powell/sawmill-parkway-south-office/10149-brewster-ln/", "@spider": "fcbanking", "addr:street_address": "10149 Brewster Ln", "addr:city": "Powell", "addr:state": "OH", "addr:postcode": "43065", "name": "First Commonwealth Bank - Sawmill Parkway South Office", "phone": "1-740-548-3160", "website": "https://www.fcbanking.com/branch-locations/ohio/powell/sawmill-parkway-south-office/10149-brewster-ln/", "opening_hours": "Mo-Fr 09:00-17:00; Sa 09:00-12:00", "image": "https://www.fcbanking.com/media/1062/logo.png", "brand": "First Commonwealth Bank", "brand:wikidata": "Q5452773"}, "geometry": {"type": "Point", "coordinates": [-83.09322, 40.15173]}},
{"type": "Feature", "id": "Nj4r2fPIGXaYNmpczqZzM8DfDvk=", "properties": {"ref": "/ohio/canton/oakwood-square-office/6252-middlebranch-ave-ne/", "@spider": "fcbanking", "addr:street_address": "6252 Middlebranch Ave NE", "addr:city": "Canton", "addr:state": "OH", "addr:postcode": "44721", "name": "First Commonwealth Bank - Oakwood Square Office", "phone": "1-330-313-8930", "website": "https://www.fcbanking.com/branch-locations/ohio/canton/oakwood-square-office/6252-middlebranch-ave-ne/", "opening_hours": "Mo-Fr 09:00-17:00", "image": "https://www.fcbanking.com/media/1062/logo.png", "brand": "First Commonwealth Bank", "brand:wikidata": "Q5452773"}, "geometry": {"type": "Point", "coordinates": [-81.33413, 40.87151]}},
{"type": "Feature", "id": "2Ge3QhYqz3i-fg0JyVoWuDKJEEs=", "properties": {"ref": "/ohio/massillon/perry-west-office/2704-lincoln-way-e/", "@spider": "fcbanking", "addr:street_address": "2704 Lincoln Way E", "addr:city": "Massillon", "addr:state": "OH", "addr:postcode": "44646", "name": "First Commonwealth Bank - Perry West Office", "phone": "1-330-481-2160", "website": "https://www.fcbanking.com/branch-locations/ohio/massillon/perry-west-office/2704-lincoln-way-e/", "opening_hours": "Mo-Fr 09:00-17:00", "image": "https://www.fcbanking.com/media/1062/logo.png", "brand": "First Commonwealth Bank", "brand:wikidata": "Q5452773"}, "geometry": {"type": "Point", "coordinates": [-81.48415, 40.79745]}},
{"type": "Feature", "id": "WYuC8vuYtfvmIz8XGM8Fl6_jyVg=", "properties": {"ref": "/ohio/massillon/foxboro-office/5594-wales-ave-nw/", "@spider": "fcbanking", "addr:street_address": "5594 Wales Ave NW", "addr:city": "Massillon", "addr:state": "OH", "addr:postcode": "44646", "name": "First Commonwealth Bank - Foxboro Office", "phone": "1-330-481-2141", "website": "https://www.fcbanking.com/branch-locations/ohio/massillon/foxboro-office/5594-wales-ave-nw/", "opening_hours": "Mo-Fr 09:00-17:00; Sa 09:00-12:00", "image": "https://www.fcbanking.com/media/1062/logo.png", "brand": "First Commonwealth Bank", "brand:wikidata": "Q5452773"}, "geometry": {"type": "Point", "coordinates": [-81.48457, 40.86298]}},
{"type": "Feature", "id": "5HobuOC3hWrnQz79z0lIZZuwTpw=", "properties": {"ref": "/ohio/massillon/massillon-office/140-lincoln-way-w/", "@spider": "fcbanking", "addr:street_address": "140 Lincoln Way W", "addr:city": "Massillon", "addr:state": "OH", "addr:postcode": "44647", "name": "First Commonwealth Bank - Massillon Office", "phone": "1-330-481-2350", "website": "https://www.fcbanking.com/branch-locations/ohio/massillon/massillon-office/140-lincoln-way-w/", "opening_hours": "Mo-Fr 09:00-17:00; Sa 09:00-12:00", "image": "https://www.fcbanking.com/media/1062/logo.png", "brand": "First Commonwealth Bank", "brand:wikidata": "Q5452773"}, "geometry": {"type": "Point", "coordinates": [-81.52403, 40.79622]}},
{"type": "Feature", "id": "p0qwc2tTOGMiDQftu5o-D_wmI7g=", "properties": {"ref": "/ohio/louisville/louisville-office/308-e-gorgas-st/", "@spider": "fcbanking", "addr:street_address": "308 E Gorgas St", "addr:city": "Louisville", "addr:state": "OH", "addr:postcode": "44641", "name": "First Commonwealth Bank - Louisville Office", "phone": "1-330-693-5350", "website": "https://www.fcbanking.com/branch-locations/ohio/louisville/louisville-office/308-e-gorgas-st/", "opening_hours": "Mo-Fr 09:00-17:00; Sa 09:00-12:00", "image": "https://www.fcbanking.com/media/1062/logo.png", "brand": "First Commonwealth Bank", "brand:wikidata": "Q5452773"}, "geometry": {"type": "Point", "coordinates": [-81.25771, 40.83607]}},
{"type": "Feature", "id": "l8aTR59vod2w0su154XZmP1IMLk=", "properties": {"ref": "/ohio/lewis-center/olentangy-crossings-office/81-gallopers-rdg-e/", "@spider": "fcbanking", "addr:street_address": "81 Gallopers Rdg E", "addr:city": "Lewis Center", "addr:state": "OH", "addr:postcode": "43035", "name": "First Commonwealth Bank - Olentangy Crossings Office", "phone": "1-740-548-3230", "website": "https://www.fcbanking.com/branch-locations/ohio/lewis-center/olentangy-crossings-office/81-gallopers-rdg-e/", "opening_hours": "Mo-Fr 09:00-17:00; Sa 09:00-12:00", "image": "https://www.fcbanking.com/media/1062/logo.png", "brand": "First Commonwealth Bank", "brand:wikidata": "Q5452773"}, "geometry": {"type": "Point", "coordinates": [-83.02895, 40.2034]}},
{"type": "Feature", "id": "oOq-_Cjm35Q4CV3Ap61Y2UtyvM8=", "properties": {"ref": "/ohio/delaware/west-central-office/980a-w-central-ave/", "@spider": "fcbanking", "addr:street_address": "980A W Central Ave", "addr:city": "Delaware", "addr:state": "OH", "addr:postcode": "43015", "name": "First Commonwealth Bank - West Central Office", "phone": "1-740-548-3400", "website": "https://www.fcbanking.com/branch-locations/ohio/delaware/west-central-office/980a-w-central-ave/", "opening_hours": "Mo-Fr 09:00-17:00; Sa 09:00-12:00", "image": "https://www.fcbanking.com/media/1062/logo.png", "brand": "First Commonwealth Bank", "brand:wikidata": "Q5452773"}, "geometry": {"type": "Point", "coordinates": [-83.095924, 40.3075455]}},
{"type": "Feature", "id": "DHQhK9IWtRcgmxDIwXn05IDfwB0=", "properties": {"ref": "/ohio/delaware/delaware-center-office/199-s-sandusky-st/", "@spider": "fcbanking", "addr:street_address": "199 S Sandusky St", "addr:city": "Delaware", "addr:state": "OH", "addr:postcode": "43015", "name": "First Commonwealth Bank - Delaware Center Office", "phone": "1-740-548-3440", "website": "https://www.fcbanking.com/branch-locations/ohio/delaware/delaware-center-office/199-s-sandusky-st/", "opening_hours": "Mo-Fr 09:00-17:00; Sa 09:00-12:00", "image": "https://www.fcbanking.com/media/1062/logo.png", "brand": "First Commonwealth Bank", "brand:wikidata": "Q5452773"}, "geometry": {"type": "Point", "coordinates": [-83.06795, 40.29221]}},
{"type": "Feature", "id": "sl7YGvgMJmQpVUR8uqS11-72PFo=", "properties": {"ref": "/ohio/delaware/downtown-delaware-office/41-n-sandusky-st/", "@spider": "fcbanking", "addr:street_address": "41 N Sandusky St", "addr:city": "Delaware", "addr:state": "OH", "addr:postcode": "43015", "name": "First Commonwealth Bank - Downtown Delaware Office", "phone": "1-740-548-3300", "website": "https://www.fcbanking.com/branch-locations/ohio/delaware/downtown-delaware-office/41-n-sandusky-st/", "opening_hours": "Mo-Fr 09:00-17:00", "image": "https://www.fcbanking.com/media/1062/logo.png", "brand": "First Commonwealth Bank", "brand:wikidata": "Q5452773"}, "geometry": {"type": "Point", "coordinates": [-83.06792, 40.30005]}},
{"type": "Feature", "id": "VxgfOZ-Sa3uTG8ZORJHj28Na-N0=", "properties": {"ref": "/ohio/columbus/short-north-office/647-n-high-st/", "@spider": "fcbanking", "addr:street_address": "647 N High St", "addr:city": "Columbus", "addr:state": "OH", "addr:postcode": "43215", "name": "First Commonwealth Bank - Short North Office", "phone": "1-614-241-5600", "website": "https://www.fcbanking.com/branch-locations/ohio/columbus/short-north-office/647-n-high-st/", "opening_hours": "Mo-Fr 09:00-17:00", "image": "https://www.fcbanking.com/media/1062/logo.png", "brand": "First Commonwealth Bank", "brand:wikidata": "Q5452773"}, "geometry": {"type": "Point", "coordinates": [-83.00372, 39.97569]}},
{"type": "Feature", "id": "YJ_4x8Ln1rTY2tpqZ_xU2Sjuzfw=", "properties": {"ref": "/ohio/powell/sawmill-parkway-north-office/7319-sawmill-pkwy/", "@spider": "fcbanking", "addr:street_address": "7319 Sawmill Pkwy", "addr:city": "Powell", "addr:state": "OH", "addr:postcode": "43065", "name": "First Commonwealth Bank - Sawmill Parkway North Office", "phone": "1-740-548-3280", "website": "https://www.fcbanking.com/branch-locations/ohio/powell/sawmill-parkway-north-office/7319-sawmill-pkwy/", "opening_hours": "Mo-Fr 09:00-17:00", "image": "https://www.fcbanking.com/media/1062/logo.png", "brand": "First Commonwealth Bank", "brand:wikidata": "Q5452773"}, "geometry": {"type": "Point", "coordinates": [-83.09555, 40.19633]}},
{"type": "Feature", "id": "yLbJqFRBJpnPV7q6b17Q1M1N23w=", "properties": {"ref": "/ohio/canton/belden-village-office/4555-belden-village-st-nw/", "@spider": "fcbanking", "addr:street_address": "4555 Belden Village St NW", "addr:city": "Canton", "addr:state": "OH", "addr:postcode": "44718", "name": "First Commonwealth Bank - Belden Village Office", "phone": "1-330-280-5490", "website": "https://www.fcbanking.com/branch-locations/ohio/canton/belden-village-office/4555-belden-village-st-nw/", "opening_hours": "Mo-Fr 09:00-17:00; Sa 09:00-12:00", "image": "https://www.fcbanking.com/media/1062/logo.png", "brand": "First Commonwealth Bank", "brand:wikidata": "Q5452773"}, "geometry": {"type": "Point", "coordinates": [-81.43324, 40.85684]}},
{"type": "Feature", "id": "pM4ySSAn8pZiJcK9r7BEDT92xkU=", "properties": {"ref": "/ohio/canton/north-plaza-office/1110-30th-st-nw/", "@spider": "fcbanking", "addr:street_address": "1110 30th St NW", "addr:city": "Canton", "addr:state": "OH", "addr:postcode": "44709", "name": "First Commonwealth Bank - North Plaza Office", "phone": "1-330-265-2520", "website": "https://www.fcbanking.com/branch-locations/ohio/canton/north-plaza-office/1110-30th-st-nw/", "opening_hours": "Mo-Fr 09:00-17:00; Sa 09:00-12:00", "image": "https://www.fcbanking.com/media/1062/logo.png", "brand": "First Commonwealth Bank", "brand:wikidata": "Q5452773"}, "geometry": {"type": "Point", "coordinates": [-81.38322, 40.83094]}},
{"type": "Feature", "id": "yomKuABfdGJbvhzJvKOEgrEgEOk=", "properties": {"ref": "/ohio/canton/hillsdale-office/2917-whipple-ave-nw/", "@spider": "fcbanking", "addr:street_address": "2917 Whipple Ave NW", "addr:city": "Canton", "addr:state": "OH", "addr:postcode": "44708", "name": "First Commonwealth Bank - Hillsdale Office", "phone": "1-330-313-8950", "website": "https://www.fcbanking.com/branch-locations/ohio/canton/hillsdale-office/2917-whipple-ave-nw/", "opening_hours": "Mo-Fr 09:00-17:00", "image": "https://www.fcbanking.com/media/1062/logo.png", "brand": "First Commonwealth Bank", "brand:wikidata": "Q5452773"}, "geometry": {"type": "Point", "coordinates": [-81.42487, 40.83124]}},
{"type": "Feature", "id": "-A68DQtZYcR8obhkSKQ0iFCwM80=", "properties": {"ref": "/ohio/canal-fulton/locust-street-office/2150-locust-st-s/", "@spider": "fcbanking", "addr:street_address": "2150 Locust St S", "addr:city": "Canal Fulton", "addr:state": "OH", "addr:postcode": "44614", "name": "First Commonwealth Bank - Locust Street Office", "phone": "1-234-931-3130", "website": "https://www.fcbanking.com/branch-locations/ohio/canal-fulton/locust-street-office/2150-locust-st-s/", "opening_hours": "Mo-Fr 09:00-17:00; Sa 09:00-12:00", "image": "https://www.fcbanking.com/media/1062/logo.png", "brand": "First Commonwealth Bank", "brand:wikidata": "Q5452773"}, "geometry": {"type": "Point", "coordinates": [-81.57328, 40.88279]}},
{"type": "Feature", "id": "FlyZ2iYPfmlFrBJhxMHbE8T_7d4=", "properties": {"ref": "/ohio/ashtabula/park-avenue-office/4200-park-ave/", "@spider": "fcbanking", "addr:street_address": "4200 Park Ave", "addr:city": "Ashtabula", "addr:state": "OH", "addr:postcode": "44004", "name": "First Commonwealth Bank - Park Avenue Office", "phone": "1-440-624-3105", "website": "https://www.fcbanking.com/branch-locations/ohio/ashtabula/park-avenue-office/4200-park-ave/", "opening_hours": "Mo-Fr 09:00-17:00; Sa 09:00-12:00", "image": "https://www.fcbanking.com/media/1062/logo.png", "brand": "First Commonwealth Bank", "brand:wikidata": "Q5452773"}, "geometry": {"type": "Point", "coordinates": [-80.78204, 41.86912]}},
{"type": "Feature", "id": "shmW8XIIYPUIDyu-HozpFW3HB4w=", "properties": {"ref": "/ohio/cincinnati/norwood-office/4730-montgomery-rd-/", "@spider": "fcbanking", "addr:street_address": "4730 Montgomery Rd", "addr:city": "Cincinnati", "addr:state": "OH", "addr:postcode": "45212", "name": "First Commonwealth Bank - Norwood Office", "phone": "1-(513) 830-7990", "website": "https://www.fcbanking.com/branch-locations/ohio/cincinnati/norwood-office/4730-montgomery-rd-/", "opening_hours": "Mo-Fr 09:00-17:00; Sa 09:00-12:00", "image": "https://www.fcbanking.com/media/1062/logo.png", "brand": "First Commonwealth Bank", "brand:wikidata": "Q5452773"}, "geometry": {"type": "Point", "coordinates": [-84.45482, 39.16266]}},
{"type": "Feature", "id": "3B5farsbUolFZWMHHqwg9YetpiA=", "properties": {"ref": "/ohio/cincinnati/woodlawn-office/9960-springfield-pike/", "@spider": "fcbanking", "addr:street_address": "9960 Springfield Pike", "addr:city": "Cincinnati", "addr:state": "OH", "addr:postcode": "45215", "name": "First Commonwealth Bank - Woodlawn Office", "phone": "1-(513) 830-7980", "website": "https://www.fcbanking.com/branch-locations/ohio/cincinnati/woodlawn-office/9960-springfield-pike/", "opening_hours": "Mo-Fr 09:00-17:00", "image": "https://www.fcbanking.com/media/1062/logo.png", "brand": "First Commonwealth Bank", "brand:wikidata": "Q5452773"}, "geometry": {"type": "Point", "coordinates": [-84.47046, 39.24657]}},
{"type": "Feature", "id": "e1r-XaPCNmi4CdCd4gZ_LvxVYtg=", "properties": {"ref": "/pennsylvania/youngwood/youngwood-office/5-s-4th-st/", "@spider": "fcbanking", "addr:street_address": "5 S 4th St", "addr:city": "Youngwood", "addr:state": "PA", "addr:postcode": "15697", "name": "First Commonwealth Bank - Youngwood Office", "phone": "1-724-925-7217", "website": "https://www.fcbanking.com/branch-locations/pennsylvania/youngwood/youngwood-office/5-s-4th-st/", "opening_hours": "Mo-Fr 09:00-17:00", "image": "https://www.fcbanking.com/media/1062/logo.png", "brand": "First Commonwealth Bank", "brand:wikidata": "Q5452773"}, "geometry": {"type": "Point", "coordinates": [-79.57887, 40.24006]}},
{"type": "Feature", "id": "sdUmi9N-bz6k2EKRP-u26Cxfob8=", "properties": {"ref": "/pennsylvania/windber/windber-office/1400-graham-ave/", "@spider": "fcbanking", "addr:street_address": "1400 Graham Ave", "addr:city": "Windber", "addr:state": "PA", "addr:postcode": "15963", "name": "First Commonwealth Bank - Windber Office", "phone": "1-814-262-1045", "website": "https://www.fcbanking.com/branch-locations/pennsylvania/windber/windber-office/1400-graham-ave/", "opening_hours": "Mo-Fr 09:00-17:00; Sa 09:00-12:00", "image": "https://www.fcbanking.com/media/1062/logo.png", "brand": "First Commonwealth Bank", "brand:wikidata": "Q5452773"}, "geometry": {"type": "Point", "coordinates": [-78.83167, 40.23561]}}]}