{"type":"FeatureCollection","features":[{"type": "Feature", "id": "cxsSP62woqOOa4TEfMJjr-Xnh5g=", "properties": {"ref": "mauston_2735", "@spider": "festival_foods", "addr:street_address": "750 North Union Street", "addr:city": "Mauston", "addr:state": "WI", "addr:postcode": "53948", "addr:country": "US", "name": "Mauston", "phone": "Guest Services: 608-847-4331<br>\nClick N Go: 608-350-9030", "website": "https://www.festfoods.com/stores/mauston", "brand": "festival_foods", "brand:wikidata": "Q5445707"}, "geometry": {"type": "Point", "coordinates": [-90.070294, 43.806407]}},
{"type": "Feature", "id": "0kV9KmC7FMt0DSMe9IxEP_9hNgw=", "properties": {"ref": "wausau_2692_festival", "@spider": "festival_foods", "addr:street_address": "110 South 17th Avenue", "addr:city": "Wausau", "addr:state": "WI", "addr:postcode": "54401", "addr:country": "US", "name": "Wausau", "phone": "Guest Services: 715-849-8744<br>\nClick N Go: 715-899-0835", "website": "https://www.festfoods.com/stores/wausau", "brand": "festival_foods", "brand:wikidata": "Q5445707"}, "geometry": {"type": "Point", "coordinates": [-89.6557919, 44.963369]}},
{"type": "Feature", "id": "3Q37enyLNQN3rwbXlR_12_7j6Fo=", "properties": {"ref": "festival_foods_2728_2728", "@spider": "festival_foods", "addr:street_address": "25300 75th Street", "addr:city": "Paddock Lake", "addr:state": "WI", "addr:postcode": "53168", "addr:country": "US", "name": "Lakeside Foods presented by Festival Foods", "phone": "262-843-4204", "website": "https://www.festfoods.com/stores/lakeside-foods", "brand": "festival_foods", "brand:wikidata": "Q5445707"}, "geometry": {"type": "Point", "coordinates": [-88.1141788, 42.5694625]}},
{"type": "Feature", "id": "ZNFCQKCW4n-JX0XSvXTt5uy4Mrs=", "properties": {"ref": "eau_claire_clairemont_ave_2733", "@spider": "festival_foods", "addr:street_address": "2615 North Clairemont", "addr:city": "Eau Claire", "addr:state": "WI", "addr:postcode": "54701", "addr:country": "US", "name": "Eau Claire - Clairemont Ave.", "phone": "Guest Services: 715-895-7600<br>\nClick N Go: 715-491-2850", "website": "https://www.festfoods.com/stores/eau-claire-clairemont", "brand": "festival_foods", "brand:wikidata": "Q5445707"}, "geometry": {"type": "Point", "coordinates": [-91.541834, 44.826623]}},
{"type": "Feature", "id": "_R-sg4QbKVq78z517qgRDrBwjew=", "properties": {"ref": "eau_claire_birch_st_2736", "@spider": "festival_foods", "addr:street_address": "2717 Birch Street", "addr:city": "Eau Claire", "addr:state": "WI", "addr:postcode": "54703", "addr:country": "US", "name": "Eau Claire - Birch St.", "phone": "Guest Services: 715-895-7800<br>\nClick N Go: 715-495-0250", "website": "https://www.festfoods.com/stores/eau-claire-birch", "brand": "festival_foods", "brand:wikidata": "Q5445707"}, "geometry": {"type": "Point", "coordinates": [-91.471417, 44.820193]}},
{"type": "Feature", "id": "ZWbjSVc5qkpAlax5VyaJN_M8eko=", "properties": {"ref": "de_pere_2721", "@spider": "festival_foods", "addr:street_address": "1001 Main Avenue", "addr:city": "De Pere", "addr:state": "WI", "addr:postcode": "54115", "addr:country": "US", "name": "De Pere", "phone": "Guest Services: 920-336-6520<br>\nClick N Go: 920-403-0184", "website": "https://www.festfoods.com/stores/de-pere", "brand": "festival_foods", "brand:wikidata": "Q5445707"}, "geometry": {"type": "Point", "coordinates": [-88.087241, 44.450046]}},
{"type": "Feature", "id": "YebZC6_Eq7TaroyMJbCv-jexKFM=", "properties": {"ref": "appleton_northland_2732", "@spider": "festival_foods", "addr:street_address": "1200 W. Northland Avenue", "addr:city": "Appleton", "addr:state": "WI", "addr:postcode": "54914", "addr:country": "US", "name": "Appleton - Northland", "phone": "Guest Services: 920-968-2212<br>\nClick N Go: 920-462-8168", "website": "https://www.festfoods.com/stores/appleton-northland", "brand": "festival_foods", "brand:wikidata": "Q5445707"}, "geometry": {"type": "Point", "coordinates": [-88.423635, 44.288866]}},
{"type": "Feature", "id": "_L7tJ1t24q-AYjVgCsyueWXqmRI=", "properties": {"ref": "appleton_darboy_2716", "@spider": "festival_foods", "addr:street_address": "W3195 Van Roy Road", "addr:city": "Appleton", "addr:state": "WI", "addr:postcode": "54915", "addr:country": "US", "name": "Appleton - Darboy", "phone": "Guest Services: 920-968-2200<br>\nClick N Go: 920-372-2320", "website": "https://www.festfoods.com/stores/appleton-darboy", "brand": "festival_foods", "brand:wikidata": "Q5445707"}, "geometry": {"type": "Point", "coordinates": [-88.350543, 44.255826]}},
{"type": "Feature", "id": "MT1y_EeXCyHdG7WLxJMyI1bDOqA=", "properties": {"ref": "baraboo_2730", "@spider": "festival_foods", "addr:street_address": "615 Linn Street", "addr:city": "Baraboo", "addr:state": "WI", "addr:postcode": "53913", "addr:country": "US", "name": "Baraboo", "phone": "Guest Services: 608-356-6671<br>\nClick N Go: 608-477-8149", "website": "https://www.festfoods.com/stores/baraboo", "brand": "festival_foods", "brand:wikidata": "Q5445707"}, "geometry": {"type": "Point", "coordinates": [-89.770825, 43.473439]}},
{"type": "Feature", "id": "FUtVG0vSehv7eHtOkJL4RDaaE2M=", "properties": {"ref": "new_london_2695_festival", "@spider": "festival_foods", "addr:street_address": "308 North Shawano Street", "addr:city": "New London", "addr:state": "WI", "addr:postcode": "54961", "addr:country": "US", "name": "New London", "phone": "920-982-9869", "website": "https://www.festfoods.com/stores/new-london", "brand": "festival_foods", "brand:wikidata": "Q5445707"}, "geometry": {"type": "Point", "coordinates": [-88.7447591, 44.3946408]}},
{"type": "Feature", "id": "Q3giIRzJxN_A-2BZ4muQ66ihwQ0=", "properties": {"ref": "west_allis_2697_festival", "@spider": "festival_foods", "addr:street_address": "11111 West Greenfield Avenue", "addr:city": "West Allis", "addr:state": "WI", "addr:postcode": "53214", "addr:country": "US", "name": "West Allis", "phone": "Guest Services: 414-316-9019<br>\nClick N Go: 414-755-9450", "website": "https://www.festfoods.com/stores/west-allis", "brand": "festival_foods", "brand:wikidata": "Q5445707"}, "geometry": {"type": "Point", "coordinates": [-88.0512846, 43.015404]}},
{"type": "Feature", "id": "JkC99prs1RZSMy2SYpPtcAKG3k0=", "properties": {"ref": "verona_2737", "@spider": "festival_foods", "addr:street_address": "660 Hometown Circle", "addr:city": "Verona", "addr:state": "WI", "addr:postcode": "53593", "addr:country": "US", "name": "Verona", "phone": "Guest Services: 608-497-0263<br>\nClick N Go: 608-590-7643", "website": "https://www.festfoods.com/stores/verona", "brand": "festival_foods", "brand:wikidata": "Q5445707"}, "geometry": {"type": "Point", "coordinates": [-89.5195792, 42.9955342]}},
{"type": "Feature", "id": "RuCPXNe9niQ-iNHrjMCA64miHTY=", "properties": {"ref": "suamico_2726", "@spider": "festival_foods", "addr:street_address": "2348 Lineville Road", "addr:city": "Green Bay", "addr:state": "WI", "addr:postcode": "54313", "addr:country": "US", "name": "Suamico", "phone": "Guest Services: 920-965-0042<br>\nClick N Go: 920-415-4446", "website": "https://www.festfoods.com/stores/suamico", "brand": "festival_foods", "brand:wikidata": "Q5445707"}, "geometry": {"type": "Point", "coordinates": [-88.074793, 44.592237]}},
{"type": "Feature", "id": "iuln1oIM5Ac5E0c9lS0Ow_AiWtc=", "properties": {"ref": "stevens_point_2693_festival", "@spider": "festival_foods", "addr:street_address": "1600 Academy Avenue", "addr:city": "Stevens Point", "addr:state": "WI", "addr:postcode": "54481", "addr:country": "US", "name": "Stevens Point", "phone": "Guest Services: 715-341-0200<br>\nClick N Go: 715-899-0838", "website": "https://www.festfoods.com/stores/stevens-point", "brand": "festival_foods", "brand:wikidata": "Q5445707"}, "geometry": {"type": "Point", "coordinates": [-89.5766378, 44.5356711]}},
{"type": "Feature", "id": "-VEmTHUnwT6ZH-y90ED-5rlkDmM=", "properties": {"ref": "somers_2711", "@spider": "festival_foods", "addr:street_address": "6000 31st Street", "addr:city": "Kenosha", "addr:state": "WI", "addr:postcode": "53144", "addr:country": "US", "name": "Somers", "phone": "Guest Services: 262-764-3584<br>\nClick N Go: 262-308-2104", "website": "https://www.festfoods.com/stores/somers", "brand": "festival_foods", "brand:wikidata": "Q5445707"}, "geometry": {"type": "Point", "coordinates": [-87.878319, 42.6105]}},
{"type": "Feature", "id": "L3fqfWRv8yGPB6nQY951gZ-_A0U=", "properties": {"ref": "sheboygan_2704", "@spider": "festival_foods", "addr:street_address": "595 S. Taylor Drive", "addr:city": "Sheboygan", "addr:state": "WI", "addr:postcode": "53081", "addr:country": "US", "name": "Sheboygan", "phone": "Guest Services: 920-694-6260<br>\nClick N Go: 920-395-8179", "website": "https://www.festfoods.com/stores/sheboygan", "brand": "festival_foods", "brand:wikidata": "Q5445707"}, "geometry": {"type": "Point", "coordinates": [-87.7457, 43.750715]}},
{"type": "Feature", "id": "4ej57bDQd1aMOXK2s1xvl-foRPs=", "properties": {"ref": "portage_2731", "@spider": "festival_foods", "addr:street_address": "2915 New Pinery Road", "addr:city": "Portage", "addr:state": "WI", "addr:postcode": "53901", "addr:country": "US", "name": "Portage", "phone": "Guest Services: 608-742-2481<br>\nClick N Go: 608-404-0061", "website": "https://www.festfoods.com/stores/portage", "brand": "festival_foods", "brand:wikidata": "Q5445707"}, "geometry": {"type": "Point", "coordinates": [-89.467029, 43.568829]}},
{"type": "Feature", "id": "gHOUZa5ntDESsEHdJpFdzYuTUpM=", "properties": {"ref": "oshkosh_2708", "@spider": "festival_foods", "addr:street_address": "2415 Westowne Avenue", "addr:city": "Oshkosh", "addr:state": "WI", "addr:postcode": "54904", "addr:country": "US", "name": "Oshkosh", "phone": "Guest Services: 920-966-3378 <br> \nClick N Go: 920-462-3893", "website": "https://www.festfoods.com/stores/oshkosh", "brand": "festival_foods", "brand:wikidata": "Q5445707"}, "geometry": {"type": "Point", "coordinates": [-88.591819, 44.027694]}},
{"type": "Feature", "id": "0TT0xQnt_6LcJYsz7OY8928t1Zg=", "properties": {"ref": "onalaska_2719", "@spider": "festival_foods", "addr:street_address": "1260 Crossing Meadows Drive", "addr:city": "Onalaska", "addr:state": "WI", "addr:postcode": "54650", "addr:country": "US", "name": "Onalaska", "phone": "Guest Services: 608-781-2272<br>\nClick N Go: 608-860-8731", "website": "https://www.festfoods.com/stores/onalaska", "brand": "festival_foods", "brand:wikidata": "Q5445707"}, "geometry": {"type": "Point", "coordinates": [-91.21281, 43.868644]}},
{"type": "Feature", "id": "nkRILhWbxB40mxruqIYdmMg5i_Q=", "properties": {"ref": "neenah_2707", "@spider": "festival_foods", "addr:street_address": "647 S. Green Bay Road", "addr:city": "Neenah", "addr:state": "WI", "addr:postcode": "54956", "addr:country": "US", "name": "Neenah", "phone": "Guest Services: 920-967-3300<br>\nClick N Go: 920-462-8076", "website": "https://www.festfoods.com/stores/neenah", "brand": "festival_foods", "brand:wikidata": "Q5445707"}, "geometry": {"type": "Point", "coordinates": [-88.487314, 44.179091]}},
{"type": "Feature", "id": "VxWFKSLmMCfFNejwRHyFIAtFBpM=", "properties": {"ref": "mount_pleasant_2710", "@spider": "festival_foods", "addr:street_address": "5740 Washington Avenue", "addr:city": "Mt. Pleasant", "addr:state": "WI", "addr:postcode": "53406", "addr:country": "US", "name": "Mount Pleasant", "phone": "Guest Services: 262-764-3582<br>\nClick N Go: 262-202-4034", "website": "https://www.festfoods.com/stores/mount-pleasant", "brand": "festival_foods", "brand:wikidata": "Q5445707"}, "geometry": {"type": "Point", "coordinates": [-87.849718, 42.721311]}},
{"type": "Feature", "id": "NsDia4SbMgCyyzARDza2tdBIMOM=", "properties": {"ref": "menasha_2725", "@spider": "festival_foods", "addr:street_address": "1355 Oneida Street", "addr:city": "Menasha", "addr:state": "WI", "addr:postcode": "54952", "addr:country": "US", "name": "Menasha", "phone": "Guest Services: 920-968-9690<br>\nClick N Go: 920-249-6110", "website": "https://www.festfoods.com/stores/menasha", "brand": "festival_foods", "brand:wikidata": "Q5445707"}, "geometry": {"type": "Point", "coordinates": [-88.404032, 44.229587]}},
{"type": "Feature", "id": "4NiVh8JU2-LQu_hesp3pMkar7MM=", "properties": {"ref": "marshfield_2714", "@spider": "festival_foods", "addr:street_address": "1613 North Central Avenue", "addr:city": "Marshfield", "addr:state": "WI", "addr:postcode": "54449", "addr:country": "US", "name": "Marshfield", "phone": "Guest Services: 715-384-8866<br>\nClick N Go: 715-256-7139", "website": "https://www.festfoods.com/stores/marshfield", "brand": "festival_foods", "brand:wikidata": "Q5445707"}, "geometry": {"type": "Point", "coordinates": [-90.16129, 44.68101]}},
{"type": "Feature", "id": "Z0iS-QPcx4JzcbyM-T7sDLjZ3j4=", "properties": {"ref": "manitowoc_2702", "@spider": "festival_foods", "addr:street_address": "2151 South 42nd Street", "addr:city": "Manitowoc", "addr:state": "WI", "addr:postcode": "54220", "addr:country": "US", "name": "Manitowoc", "phone": "Guest Services: 920-645-6880<br>\nClick N Go: 920-372-2663", "website": "https://www.festfoods.com/stores/manitowoc", "brand": "festival_foods", "brand:wikidata": "Q5445707"}, "geometry": {"type": "Point", "coordinates": [-87.69843, 44.072595]}},
{"type": "Feature", "id": "1sYfqIkNG-Xcdk9ogMwYkRoi4l4=", "properties": {"ref": "la_crosse_village_2720", "@spider": "festival_foods", "addr:street_address": "2500 State Road", "addr:city": "La Crosse", "addr:state": "WI", "addr:postcode": "54601", "addr:country": "US", "name": "La Crosse - Village", "phone": "Guest Services: 608-788-8777<br>\nClick N Go: 608-860-8732", "website": "https://www.festfoods.com/stores/village", "brand": "festival_foods", "brand:wikidata": "Q5445707"}, "geometry": {"type": "Point", "coordinates": [-91.217664, 43.794949]}},
{"type": "Feature", "id": "OKZ06ca_IRhdZ8ty7NBXY_TTFWY=", "properties": {"ref": "la_crosse_copeland_ave_2715", "@spider": "festival_foods", "addr:street_address": "30 Copeland Avenue", "addr:city": "La Crosse", "addr:state": "WI", "addr:postcode": "54603", "addr:country": "US", "name": "La Crosse - Copeland Ave", "phone": "Guest Services: 608-785-1000<br>\nClick N Go: 608-461-5259", "website": "https://www.festfoods.com/stores/copeland", "brand": "festival_foods", "brand:wikidata": "Q5445707"}, "geometry": {"type": "Point", "coordinates": [-91.248614, 43.822151]}},
{"type": "Feature", "id": "IphUlEsPezzz5JbfufOXB63R1v4=", "properties": {"ref": "kenosha_2705", "@spider": "festival_foods", "addr:street_address": "3207 80th St", "addr:city": "Kenosha", "addr:state": "WI", "addr:postcode": "53142", "addr:country": "US", "name": "Kenosha", "phone": "Guest Services: 262-694-7200<br>\nClick N Go: 262-351-7479", "website": "https://www.festfoods.com/stores/kenosha", "brand": "festival_foods", "brand:wikidata": "Q5445707"}, "geometry": {"type": "Point", "coordinates": [-87.849728, 42.557063]}},
{"type": "Feature", "id": "JDw_l6CzVCK_4VLDVe1SbhXHNB8=", "properties": {"ref": "janesville_2723", "@spider": "festival_foods", "addr:street_address": "2233 Humes Road", "addr:city": "Janesville", "addr:state": "WI", "addr:postcode": "53545", "addr:country": "US", "name": "Janesville", "phone": "Guest Services: 608-563-5841<br>\nClick N Go: 608-208-8163", "website": "https://www.festfoods.com/stores/janesville", "brand": "festival_foods", "brand:wikidata": "Q5445707"}, "geometry": {"type": "Point", "coordinates": [-88.994219, 42.721417]}},
{"type": "Feature", "id": "YYiXR6fTaj9W-qTUsvVCwQ7X1HY=", "properties": {"ref": "holmen_2769", "@spider": "festival_foods", "addr:street_address": "123 Hale Drive", "addr:city": "Holmen", "addr:state": "WI", "addr:postcode": "54636", "addr:country": "US", "name": "Holmen", "phone": "Guest Services: 608-526-3339<br>\nClick N Go: 608-865-1238", "website": "https://www.festfoods.com/stores/holmen", "brand": "festival_foods", "brand:wikidata": "Q5445707"}, "geometry": {"type": "Point", "coordinates": [-91.257045, 43.952233]}},
{"type": "Feature", "id": "6hSFDfs3MF21H8Ndd3cEJnna0Bg=", "properties": {"ref": "6305", "@spider": "festival_foods", "addr:street_address": "1275 Bell Avenue", "addr:city": "Hartford", "addr:state": "WI", "addr:postcode": "53027", "addr:country": "US", "name": "Hartford", "phone": "Guest Services: 262-457-2772\nClick N Go: 262-328-7084", "website": "https://www.festfoods.com/stores/hartford", "brand": "festival_foods", "brand:wikidata": "Q5445707"}, "geometry": {"type": "Point", "coordinates": [-88.3585656, 43.3154671]}},
{"type": "Feature", "id": "HwkzuE6DzsSi2nrnTB2ojb52jdg=", "properties": {"ref": "greenfields_2698_festival", "@spider": "festival_foods", "addr:street_address": "4777 South 27th Street", "addr:city": "Greenfield", "addr:state": "WI", "addr:postcode": "53221", "addr:country": "US", "name": "Greenfield", "phone": "Guest Services: (414) 252-0086<br>\nClick N Go: 414-755-9330", "website": "https://www.festfoods.com/stores/greenfield", "brand": "festival_foods", "brand:wikidata": "Q5445707"}, "geometry": {"type": "Point", "coordinates": [-87.9497238, 42.9571708]}},
{"type": "Feature", "id": "DGfsH1KI76417E5gJwEhnLm7Jsw=", "properties": {"ref": "hales_corners_2738", "@spider": "festival_foods", "addr:street_address": "5600 South 108th Street", "addr:city": "Hales Corners", "addr:state": "WI", "addr:postcode": "53130", "addr:country": "US", "name": "Hales Corners", "phone": "Guest Services: 414-367-3052<br>\nClick N Go: 414-335-3142", "website": "https://www.festfoods.com/stores/hales-corners", "brand": "festival_foods", "brand:wikidata": "Q5445707"}, "geometry": {"type": "Point", "coordinates": [-88.046394, 42.9424155]}},
{"type": "Feature", "id": "vDkpbvyhokxehEXQSnhEVN_T-bY=", "properties": {"ref": "green_bay_west_2740", "@spider": "festival_foods", "addr:street_address": "2250 West Mason Street", "addr:city": "Green Bay", "addr:state": "WI", "addr:postcode": "54303", "addr:country": "US", "name": "Green Bay - West", "phone": "Guest Services: 920-496-2966<br>\nClick N Go: 920-221-1330", "website": "https://www.festfoods.com/stores/green-bay-west", "brand": "festival_foods", "brand:wikidata": "Q5445707"}, "geometry": {"type": "Point", "coordinates": [-88.086507, 44.525387]}},
{"type": "Feature", "id": "ccqmLWR2ZyUKC1dSEuDh-ziuvIg=", "properties": {"ref": "green_bay_university_ave_2768", "@spider": "festival_foods", "addr:street_address": "2430 University Avenue", "addr:city": "Green Bay", "addr:state": "WI", "addr:postcode": "54302", "addr:country": "US", "name": "Green Bay - North", "phone": "Guest Services: 920-465-3707<br>\nClick N Go: 920-415-2484", "website": "https://www.festfoods.com/stores/green-bay-north", "brand": "festival_foods", "brand:wikidata": "Q5445707"}, "geometry": {"type": "Point", "coordinates": [-87.961229, 44.513212]}},
{"type": "Feature", "id": "eJU6dFYBvSpA9gby5W3ocnS6-hA=", "properties": {"ref": "green_bay_east_2766", "@spider": "festival_foods", "addr:street_address": "2534 Steffens Court", "addr:city": "Green Bay", "addr:state": "WI", "addr:postcode": "54311", "addr:country": "US", "name": "Green Bay - East", "phone": "Guest Services: 920-465-3800<br>\nClick N Go: 920-238-6632", "website": "https://www.festfoods.com/stores/green-bay-east", "brand": "festival_foods", "brand:wikidata": "Q5445707"}, "geometry": {"type": "Point", "coordinates": [-87.957216, 44.46757]}},
{"type": "Feature", "id": "5zzBnT7knj9JSZb4uBF79SLom4E=", "properties": {"ref": "fort_atkinson_2709", "@spider": "festival_foods", "addr:street_address": "328 Washington St", "addr:city": "Fort Atkinson", "addr:state": "WI", "addr:postcode": "53538", "addr:country": "US", "name": "Fort Atkinson", "phone": "Guest Services: 920-563-3531<br>\nClick N Go: 920-691-6339", "website": "https://www.festfoods.com/stores/ft-atkinson", "brand": "festival_foods", "brand:wikidata": "Q5445707"}, "geometry": {"type": "Point", "coordinates": [-88.83864, 42.930929]}},
{"type": "Feature", "id": "5ux-JVf2ygQHM7-J_XTjm1jleuc=", "properties": {"ref": "fond_du_lac_2717", "@spider": "festival_foods", "addr:street_address": "1125 East Johnson Street", "addr:city": "Fond du Lac", "addr:state": "WI", "addr:postcode": "54935", "addr:country": "US", "name": "Fond du Lac", "phone": "Guest Services: 920-273-0490<br>\nClick N Go: 920-372-2804", "website": "https://www.festfoods.com/stores/fond-du-lac", "brand": "festival_foods", "brand:wikidata": "Q5445707"}, "geometry": {"type": "Point", "coordinates": [-88.403905, 43.785096]}},
{"type": "Feature", "id": "yE6cKATA4an967LvihR22KIT-H0=", "properties": {"ref": "weston_2691_festival", "@spider": "festival_foods", "addr:street_address": "6205 Bus. Hwy 51", "addr:city": "Weston", "addr:state": "WI", "addr:postcode": "54476", "addr:country": "US", "name": "Express Market by Festival Foods in Weston", "phone": "715-359-0451", "website": "https://www.festfoods.com/stores/express-market-by-festival-foods-in-weston", "brand": "festival_foods", "brand:wikidata": "Q5445707"}, "geometry": {"type": "Point", "coordinates": [-89.60762, 44.90109]}},
{"type": "Feature", "id": "y50cS5GwjvyZhCLojl44zy99bXA=", "properties": {"ref": "eau_claire_mall_dr_2722", "@spider": "festival_foods", "addr:street_address": "3007 Mall Drive", "addr:city": "Eau Claire", "addr:state": "WI", "addr:postcode": "54701", "addr:country": "US", "name": "Eau Claire - Mall Dr.", "phone": "Guest Services: 715-838-1000<br>\nClick N Go: 715-225-5032", "website": "https://www.festfoods.com/stores/eau-claire-mall", "brand": "festival_foods", "brand:wikidata": "Q5445707"}, "geometry": {"type": "Point", "coordinates": [-91.460316, 44.788156]}},
{"type": "Feature", "id": "q9DFijA_YudtIMvuh14uwtQ5Ikw=", "properties": {"ref": "madison_2713", "@spider": "festival_foods", "addr:street_address": "810 East Washington Avenue", "addr:city": "Madison", "addr:state": "WI", "addr:postcode": "53703", "addr:country": "US", "name": "Madison", "phone": "Guest Services: 608-709-1976<br>\nClick N Go: 608-304-6352", "website": "https://www.festfoods.com/stores/madison", "brand": "festival_foods", "brand:wikidata": "Q5445707"}, "geometry": {"type": "Point", "coordinates": [-89.374305, 43.081754]}}]}