{"type":"FeatureCollection","features":[{"type": "Feature", "id": "yizLIan6fUtazfMRR0CH7EfQIqo=", "properties": {"ref": "2813", "@spider": "foodlion", "shop": "supermarket", "addr:full": "1101 E. 1st St.", "addr:city": "Vidalia", "addr:state": "GA", "addr:postcode": "30474", "addr:country": "US", "name": "Food Lion Grocery Store of Vidalia", "phone": "912-537-1131", "website": "https://www.foodlion.com/content/food-lion/stores/ga/vidalia/2813/", "opening_hours": "07:00-22:00", "brand": "Food Lion", "brand:wikidata": "Q1435950", "nsi_id": "foodlion-7818a5"}, "geometry": {"type": "Point", "coordinates": [-82.40096282958984, 32.21128463745117]}},
{"type": "Feature", "id": "tF1Y4VziS-T62tqQM69WxpR6NUY=", "properties": {"ref": "2831", "@spider": "foodlion", "shop": "supermarket", "addr:full": "42 Surrey Plz", "addr:city": "Hawkinsville", "addr:state": "GA", "addr:postcode": "31036", "addr:country": "US", "name": "Food Lion Grocery Store of Hawkinsville", "phone": "478-783-3250", "website": "https://www.foodlion.com/content/food-lion/stores/ga/hawkinsville/2831/", "opening_hours": "07:00-22:00", "brand": "Food Lion", "brand:wikidata": "Q1435950", "nsi_id": "foodlion-7818a5"}, "geometry": {"type": "Point", "coordinates": [-83.47923278808594, 32.28962707519531]}},
{"type": "Feature", "id": "9oN0arOubLxHW4zN2pF-y2NGa4M=", "properties": {"ref": "2812", "@spider": "foodlion", "shop": "supermarket", "addr:full": "246 S. Main St.", "addr:city": "Reidsville", "addr:state": "GA", "addr:postcode": "30453", "addr:country": "US", "name": "Food Lion Grocery Store of Reidsville", "phone": "912-557-6170", "website": "https://www.foodlion.com/content/food-lion/stores/ga/reidsville/2812/", "opening_hours": "07:00-22:00", "brand": "Food Lion", "brand:wikidata": "Q1435950", "nsi_id": "foodlion-7818a5"}, "geometry": {"type": "Point", "coordinates": [-82.11042785644531, 32.07835006713867]}},
{"type": "Feature", "id": "y7q6GGjOloOT5_C4Y4j-ISAs8mU=", "properties": {"ref": "2609", "@spider": "foodlion", "shop": "supermarket", "addr:full": "5204 Hwy. 321", "addr:city": "Gaston", "addr:state": "SC", "addr:postcode": "29053", "addr:country": "US", "name": "Food Lion Grocery Store of Gaston", "phone": "803-739-8734", "website": "https://www.foodlion.com/content/food-lion/stores/sc/gaston/2609/", "opening_hours": "06:00-23:00", "brand": "Food Lion", "brand:wikidata": "Q1435950", "nsi_id": "foodlion-7818a5"}, "geometry": {"type": "Point", "coordinates": [-81.09290313720703, 33.836700439453125]}},
{"type": "Feature", "id": "mbQVZyKAbDcaF-7qwZCLlL3pA2Y=", "properties": {"ref": "2120", "@spider": "foodlion", "shop": "supermarket", "addr:full": "675 Main St.", "addr:city": "South Congaree", "addr:state": "SC", "addr:postcode": "29170", "addr:country": "US", "name": "Food Lion Grocery Store of South Congaree", "phone": "803-755-7211", "website": "https://www.foodlion.com/content/food-lion/stores/sc/south_congaree/2120/", "opening_hours": "07:00-23:00", "brand": "Food Lion", "brand:wikidata": "Q1435950", "nsi_id": "foodlion-7818a5"}, "geometry": {"type": "Point", "coordinates": [-81.13179779052734, 33.91490173339844]}},
{"type": "Feature", "id": "gWDN3os3CQeJnechtGIJsK4G-_I=", "properties": {"ref": "1562", "@spider": "foodlion", "shop": "supermarket", "addr:full": "1856 S Lake Drive, Suite G", "addr:city": "Lexington", "addr:state": "SC", "addr:postcode": "29073", "addr:country": "US", "name": "Food Lion Grocery Store of Lexington", "phone": "803-951-2707", "website": "https://www.foodlion.com/content/food-lion/stores/sc/lexington/1562/", "opening_hours": "07:00-23:00", "brand": "Food Lion", "brand:wikidata": "Q1435950", "nsi_id": "foodlion-7818a5"}, "geometry": {"type": "Point", "coordinates": [-81.22509765625, 33.909000396728516]}},
{"type": "Feature", "id": "RyumOaKGtwbQ3eLlpRlZtEePR7Y=", "properties": {"ref": "1474", "@spider": "foodlion", "shop": "supermarket", "addr:full": "8741 Piney Orchard Pkwy", "addr:city": "Odenton", "addr:state": "MD", "addr:postcode": "21113", "addr:country": "US", "name": "Food Lion Grocery Store of Odenton", "phone": "410-695-0852", "website": "https://www.foodlion.com/content/food-lion/stores/md/odenton/1474/", "opening_hours": "07:00-23:00", "brand": "Food Lion", "brand:wikidata": "Q1435950", "nsi_id": "foodlion-7818a5"}, "geometry": {"type": "Point", "coordinates": [-76.71980285644531, 39.06549835205078]}},
{"type": "Feature", "id": "5SAC4abMYzKh3mOzin2m5HcqLL8=", "properties": {"ref": "1668", "@spider": "foodlion", "shop": "supermarket", "addr:full": "350 Mountain Road", "addr:city": "Pasadena", "addr:state": "MD", "addr:postcode": "21122", "addr:country": "US", "name": "Food Lion Grocery Store of Pasadena", "phone": "410-255-4626", "website": "https://www.foodlion.com/content/food-lion/stores/md/pasadena/1668/", "opening_hours": "07:00-23:00", "brand": "Food Lion", "brand:wikidata": "Q1435950", "nsi_id": "foodlion-7818a5"}, "geometry": {"type": "Point", "coordinates": [-76.55719757080078, 39.13159942626953]}},
{"type": "Feature", "id": "JimAR-kuASX51Hu_kI3uRj5idSY=", "properties": {"ref": "2517", "@spider": "foodlion", "shop": "supermarket", "addr:full": "2655 Annapolis Road", "addr:city": "Hanover", "addr:state": "MD", "addr:postcode": "21076", "addr:country": "US", "name": "Food Lion Grocery Store of Hanover", "phone": "410-519-8740", "website": "https://www.foodlion.com/content/food-lion/stores/md/hanover/2517/", "opening_hours": "07:00-23:00", "brand": "Food Lion", "brand:wikidata": "Q1435950", "nsi_id": "foodlion-7818a5"}, "geometry": {"type": "Point", "coordinates": [-76.7417984008789, 39.13059997558594]}},
{"type": "Feature", "id": "Spv_2hRH7OTthNwgR83eBoOZsqU=", "properties": {"ref": "1543", "@spider": "foodlion", "shop": "supermarket", "addr:full": "121 Crain Hwy N", "addr:city": "Glen Burnie", "addr:state": "MD", "addr:postcode": "21061", "addr:country": "US", "name": "Food Lion Grocery Store of Glen Burnie", "phone": "410-863-4957", "website": "https://www.foodlion.com/content/food-lion/stores/md/glen_burnie/1543/", "opening_hours": "07:00-23:00", "brand": "Food Lion", "brand:wikidata": "Q1435950", "nsi_id": "foodlion-7818a5"}, "geometry": {"type": "Point", "coordinates": [-76.62339782714844, 39.16510009765625]}},
{"type": "Feature", "id": "GHczM2XpLNIXAPeAHRnpM6q6t3g=", "properties": {"ref": "2566", "@spider": "foodlion", "shop": "supermarket", "addr:full": "12675 Laurel Bowie Rd", "addr:city": "Laurel", "addr:state": "MD", "addr:postcode": "20708", "addr:country": "US", "name": "Food Lion Grocery Store of Laurel", "phone": "240-456-0574", "website": "https://www.foodlion.com/content/food-lion/stores/md/laurel/2566/", "opening_hours": "07:00-23:00", "brand": "Food Lion", "brand:wikidata": "Q1435950", "nsi_id": "foodlion-7818a5"}, "geometry": {"type": "Point", "coordinates": [-76.83679962158203, 39.06520080566406]}},
{"type": "Feature", "id": "wIyxAW0F126gV4O6LFWTgozJXJY=", "properties": {"ref": "2559", "@spider": "foodlion", "shop": "supermarket", "addr:full": "7069 Baltimore Annapolis Blvd", "addr:city": "Glen Burnie", "addr:state": "MD", "addr:postcode": "21061", "addr:country": "US", "name": "Food Lion Grocery Store of Glen Burnie", "phone": "410-684-2068", "website": "https://www.foodlion.com/content/food-lion/stores/md/glen_burnie/2559/", "opening_hours": "06:00-23:00", "brand": "Food Lion", "brand:wikidata": "Q1435950", "nsi_id": "foodlion-7818a5"}, "geometry": {"type": "Point", "coordinates": [-76.63999938964844, 39.19969940185547]}},
{"type": "Feature", "id": "nlL4nwJfoZDkGOopsm3xYbjjBWI=", "properties": {"ref": "1662", "@spider": "foodlion", "shop": "supermarket", "addr:full": "410 Sandy Spring Rd", "addr:city": "Laurel", "addr:state": "MD", "addr:postcode": "20707", "addr:country": "US", "name": "Food Lion Grocery Store of Laurel", "phone": "301-362-9581", "website": "https://www.foodlion.com/content/food-lion/stores/md/laurel/1662/", "opening_hours": "07:00-22:00", "brand": "Food Lion", "brand:wikidata": "Q1435950", "nsi_id": "foodlion-7818a5"}, "geometry": {"type": "Point", "coordinates": [-76.8635025024414, 39.105899810791016]}},
{"type": "Feature", "id": "UQQJTqcEXN_P_hSBZ8-m-EiL-h8=", "properties": {"ref": "2501", "@spider": "foodlion", "shop": "supermarket", "addr:full": "8300 Ice Crystal Dr", "addr:city": "Scaggsville", "addr:state": "MD", "addr:postcode": "20723", "addr:country": "US", "name": "Food Lion Grocery Store of Scaggsville", "phone": "301-362-1375", "website": "https://www.foodlion.com/content/food-lion/stores/md/scaggsville/2501/", "opening_hours": "07:00-23:00", "brand": "Food Lion", "brand:wikidata": "Q1435950", "nsi_id": "foodlion-7818a5"}, "geometry": {"type": "Point", "coordinates": [-76.89969635009766, 39.1442985534668]}},
{"type": "Feature", "id": "PlnGsvFcNbdNNNMwCpanWZwW-NE=", "properties": {"ref": "2560", "@spider": "foodlion", "shop": "supermarket", "addr:full": "7514 North Point Road", "addr:city": "Edgemere", "addr:state": "MD", "addr:postcode": "21219", "addr:country": "US", "name": "Food Lion Grocery Store of Edgemere", "phone": "410-477-4784", "website": "https://www.foodlion.com/content/food-lion/stores/md/edgemere/2560/", "opening_hours": "07:00-23:00", "brand": "Food Lion", "brand:wikidata": "Q1435950", "nsi_id": "foodlion-7818a5"}, "geometry": {"type": "Point", "coordinates": [-76.44110107421875, 39.23640060424805]}},
{"type": "Feature", "id": "5Yy9UgZLKL8XbGB6-Ch77ikawzw=", "properties": {"ref": "1313", "@spider": "foodlion", "shop": "supermarket", "addr:full": "300 Thompson Creek Mall D", "addr:city": "Stevensville", "addr:state": "MD", "addr:postcode": "21666", "addr:country": "US", "name": "Food Lion Grocery Store of Stevensville", "phone": "410-643-9687", "website": "https://www.foodlion.com/content/food-lion/stores/md/stevensville/1313/", "opening_hours": "07:00-23:00", "brand": "Food Lion", "brand:wikidata": "Q1435950", "nsi_id": "foodlion-7818a5"}, "geometry": {"type": "Point", "coordinates": [-76.31449890136719, 38.97589874267578]}},
{"type": "Feature", "id": "ZhAT4YAiE8Zz0mVT-n018hQW1Ok=", "properties": {"ref": "1653", "@spider": "foodlion", "shop": "supermarket", "addr:full": "1565 Hyde Park Rd", "addr:city": "Essex", "addr:state": "MD", "addr:postcode": "21221", "addr:country": "US", "name": "Food Lion Grocery Store of Essex", "phone": "410-918-0171", "website": "https://www.foodlion.com/content/food-lion/stores/md/essex/1653/", "opening_hours": "07:00-23:00", "brand": "Food Lion", "brand:wikidata": "Q1435950", "nsi_id": "foodlion-7818a5"}, "geometry": {"type": "Point", "coordinates": [-76.43720245361328, 39.29890060424805]}},
{"type": "Feature", "id": "kP0U1NHj0m0ketq_E6OfD5C4Gv4=", "properties": {"ref": "1414", "@spider": "foodlion", "shop": "supermarket", "addr:full": "9500 SE Crain Hwy", "addr:city": "Upper Marlboro", "addr:state": "MD", "addr:postcode": "20772", "addr:country": "US", "name": "Food Lion Grocery Store of Upper Marlboro", "phone": "301-599-6022", "website": "https://www.foodlion.com/content/food-lion/stores/md/upper_marlboro/1414/", "opening_hours": "07:00-22:00", "brand": "Food Lion", "brand:wikidata": "Q1435950", "nsi_id": "foodlion-7818a5"}, "geometry": {"type": "Point", "coordinates": [-76.80709838867188, 38.7598991394043]}},
{"type": "Feature", "id": "ctn15ofJZprYPUkbppA-G8easvE=", "properties": {"ref": "1405", "@spider": "foodlion", "shop": "supermarket", "addr:full": "1413 Fuselage Ave", "addr:city": "Middle River", "addr:state": "MD", "addr:postcode": "21220", "addr:country": "US", "name": "Food Lion Grocery Store of Middle River", "phone": "410-391-9316", "website": "https://www.foodlion.com/content/food-lion/stores/md/middle_river/1405/", "opening_hours": "07:00-23:00", "brand": "Food Lion", "brand:wikidata": "Q1435950", "nsi_id": "foodlion-7818a5"}, "geometry": {"type": "Point", "coordinates": [-76.44550323486328, 39.33250045776367]}},
{"type": "Feature", "id": "lKRVDTszKPlHBG9kcOMJiJ8qcFo=", "properties": {"ref": "1412", "@spider": "foodlion", "shop": "supermarket", "addr:full": "8508 Liberty Road", "addr:city": "Randallstown", "addr:state": "MD", "addr:postcode": "21133", "addr:country": "US", "name": "Food Lion Grocery Store of Randallstown", "phone": "410-521-7049", "website": "https://www.foodlion.com/content/food-lion/stores/md/randallstown/1412/", "opening_hours": "07:00-23:00", "brand": "Food Lion", "brand:wikidata": "Q1435950", "nsi_id": "foodlion-7818a5"}, "geometry": {"type": "Point", "coordinates": [-76.77490234375, 39.360801696777344]}},
{"type": "Feature", "id": "OZZ7f93JZ_5SqRKzhOAnSbDHb5Q=", "properties": {"ref": "1413", "@spider": "foodlion", "shop": "supermarket", "addr:full": "8635 Walther Blvd", "addr:city": "Perry Hall", "addr:state": "MD", "addr:postcode": "21236", "addr:country": "US", "name": "Food Lion Grocery Store of Perry Hall", "phone": "410-663-3207", "website": "https://www.foodlion.com/content/food-lion/stores/md/perry_hall/1413/", "opening_hours": "07:00-23:00", "brand": "Food Lion", "brand:wikidata": "Q1435950", "nsi_id": "foodlion-7818a5"}, "geometry": {"type": "Point", "coordinates": [-76.50769805908203, 39.38859939575195]}},
{"type": "Feature", "id": "u5SvXn9f1KZ4wah5LyF7EC0uD-I=", "properties": {"ref": "1661", "@spider": "foodlion", "shop": "supermarket", "addr:full": "845 Rockville Pike", "addr:city": "Rockville", "addr:state": "MD", "addr:postcode": "20852", "addr:country": "US", "name": "Food Lion Grocery Store of Rockville", "phone": "301-251-0184", "website": "https://www.foodlion.com/content/food-lion/stores/md/rockville/1661/", "opening_hours": "06:00-23:00", "brand": "Food Lion", "brand:wikidata": "Q1435950", "nsi_id": "foodlion-7818a5"}, "geometry": {"type": "Point", "coordinates": [-77.13770294189453, 39.07419967651367]}},
{"type": "Feature", "id": "13znsdPUX8QxZXuFNA6Jurkr1dM=", "properties": {"ref": "1664", "@spider": "foodlion", "shop": "supermarket", "addr:full": "122 Cranbrook Rd", "addr:city": "Cockeysville", "addr:state": "MD", "addr:postcode": "21030", "addr:country": "US", "name": "Food Lion Grocery Store of Cockeysville", "phone": "410-666-9035", "website": "https://www.foodlion.com/content/food-lion/stores/md/cockeysville/1664/", "opening_hours": "07:00-23:00", "brand": "Food Lion", "brand:wikidata": "Q1435950", "nsi_id": "foodlion-7818a5"}, "geometry": {"type": "Point", "coordinates": [-76.6344985961914, 39.46549987792969]}},
{"type": "Feature", "id": "BGFEGlly_T_anfvXsBoqOBuTGBE=", "properties": {"ref": "2522", "@spider": "foodlion", "shop": "supermarket", "addr:full": "2466 Centreville Rd", "addr:city": "Centreville", "addr:state": "MD", "addr:postcode": "21617", "addr:country": "US", "name": "Food Lion Grocery Store of Centreville", "phone": "410-758-1860", "website": "https://www.foodlion.com/content/food-lion/stores/md/centreville/2522/", "opening_hours": "07:00-23:00", "brand": "Food Lion", "brand:wikidata": "Q1435950", "nsi_id": "foodlion-7818a5"}, "geometry": {"type": "Point", "coordinates": [-76.07479858398438, 39.03110122680664]}},
{"type": "Feature", "id": "lz-ptUhj3k6MxjxROtRyaoKyf70=", "properties": {"ref": "2611", "@spider": "foodlion", "shop": "supermarket", "addr:full": "705 Lisbon Center Drive", "addr:city": "Woodbine", "addr:state": "MD", "addr:postcode": "21797", "addr:country": "US", "name": "Food Lion Grocery Store of Woodbine", "phone": "410-489-6255", "website": "https://www.foodlion.com/content/food-lion/stores/md/woodbine/2611/", "opening_hours": "07:00-23:00", "brand": "Food Lion", "brand:wikidata": "Q1435950", "nsi_id": "foodlion-7818a5"}, "geometry": {"type": "Point", "coordinates": [-77.06690216064453, 39.35049819946289]}},
{"type": "Feature", "id": "uP7RUSpUY4e_IrO_je_ljRBwp9w=", "properties": {"ref": "1547", "@spider": "foodlion", "shop": "supermarket", "addr:full": "2250 Hanson Rd", "addr:city": "Edgewood", "addr:state": "MD", "addr:postcode": "21040", "addr:country": "US", "name": "Food Lion Grocery Store of Edgewood", "phone": "410-671-6500", "website": "https://www.foodlion.com/content/food-lion/stores/md/edgewood/1547/", "opening_hours": "07:00-23:00", "brand": "Food Lion", "brand:wikidata": "Q1435950", "nsi_id": "foodlion-7818a5"}, "geometry": {"type": "Point", "coordinates": [-76.29810333251953, 39.42829895019531]}},
{"type": "Feature", "id": "WXSjBpihHZrhm3EN5-FnUTgCXUo=", "properties": {"ref": "1184", "@spider": "foodlion", "shop": "supermarket", "addr:full": "3200 Old Washington Road", "addr:city": "Waldorf", "addr:state": "MD", "addr:postcode": "20602", "addr:country": "US", "name": "Food Lion Grocery Store of Waldorf", "phone": "301-932-9500", "website": "https://www.foodlion.com/content/food-lion/stores/md/waldorf/1184/", "opening_hours": "07:00-23:00", "brand": "Food Lion", "brand:wikidata": "Q1435950", "nsi_id": "foodlion-7818a5"}, "geometry": {"type": "Point", "coordinates": [-76.90869903564453, 38.623199462890625]}},
{"type": "Feature", "id": "wG-ICy51P1ClSql-bAxeL5Ffvls=", "properties": {"ref": "2547", "@spider": "foodlion", "shop": "supermarket", "addr:full": "191 St. Patrick's Drive", "addr:city": "Waldorf", "addr:state": "MD", "addr:postcode": "20603", "addr:country": "US", "name": "Food Lion Grocery Store of Waldorf", "phone": "301-374-6527", "website": "https://www.foodlion.com/content/food-lion/stores/md/waldorf/2547/", "opening_hours": "07:00-23:00", "brand": "Food Lion", "brand:wikidata": "Q1435950", "nsi_id": "foodlion-7818a5"}, "geometry": {"type": "Point", "coordinates": [-76.935302734375, 38.619998931884766]}},
{"type": "Feature", "id": "Wv5ShsgyY7ZG5K6SrYwLBnpNFn4=", "properties": {"ref": "2193", "@spider": "foodlion", "shop": "supermarket", "addr:full": "3000 Gamber Road", "addr:city": "Finksburg", "addr:state": "MD", "addr:postcode": "21048", "addr:country": "US", "name": "Food Lion Grocery Store of Finksburg", "phone": "410-861-8422", "website": "https://www.foodlion.com/content/food-lion/stores/md/finksburg/2193/", "opening_hours": "07:00-23:00", "brand": "Food Lion", "brand:wikidata": "Q1435950", "nsi_id": "foodlion-7818a5"}, "geometry": {"type": "Point", "coordinates": [-76.8938980102539, 39.49369812011719]}},
{"type": "Feature", "id": "D1EpoQa_k1BXhh3wJXdRiL2iMrs=", "properties": {"ref": "1465", "@spider": "foodlion", "shop": "supermarket", "addr:full": "1312 S. Main St  Suite 4", "addr:city": "Mount Airy", "addr:state": "MD", "addr:postcode": "21771", "addr:country": "US", "name": "Food Lion Grocery Store of Mount Airy", "phone": "301-829-5966", "website": "https://www.foodlion.com/content/food-lion/stores/md/mount_airy/1465/", "opening_hours": "07:00-23:00", "brand": "Food Lion", "brand:wikidata": "Q1435950", "nsi_id": "foodlion-7818a5"}, "geometry": {"type": "Point", "coordinates": [-77.16699981689453, 39.366798400878906]}},
{"type": "Feature", "id": "xsBFfCRl8fVhiFqKNJAHJm36zJQ=", "properties": {"ref": "1316", "@spider": "foodlion", "shop": "supermarket", "addr:full": "2960 Marshall Hall Rd", "addr:city": "Bryans Road", "addr:state": "MD", "addr:postcode": "20616", "addr:country": "US", "name": "Food Lion Grocery Store of Bryans Road", "phone": "301-375-7802", "website": "https://www.foodlion.com/content/food-lion/stores/md/bryans_road/1316/", "opening_hours": "07:00-23:00", "brand": "Food Lion", "brand:wikidata": "Q1435950", "nsi_id": "foodlion-7818a5"}, "geometry": {"type": "Point", "coordinates": [-77.07150268554688, 38.63019943237305]}},
{"type": "Feature", "id": "wNOMHYyENO0AfkmxWJABdP9KYU8=", "properties": {"ref": "1319", "@spider": "foodlion", "shop": "supermarket", "addr:full": "30290 Mt. Wolf Rd.", "addr:city": "Charlotte Hall", "addr:state": "MD", "addr:postcode": "20622-3177", "addr:country": "US", "name": "Food Lion Grocery Store of Charlotte Hall", "phone": "301-884-6100", "website": "https://www.foodlion.com/content/food-lion/stores/md/charlotte_hall/1319/", "opening_hours": "06:00-12:00", "brand": "Food Lion", "brand:wikidata": "Q1435950", "nsi_id": "foodlion-7818a5"}, "geometry": {"type": "Point", "coordinates": [-76.77200317382812, 38.500099182128906]}},
{"type": "Feature", "id": "2HVbjxjGEgaqYOQwIj-PH_Fj950=", "properties": {"ref": "1337", "@spider": "foodlion", "shop": "supermarket", "addr:full": "20789 Great Falls Plaza", "addr:city": "Sterling", "addr:state": "VA", "addr:postcode": "20165", "addr:country": "US", "name": "Food Lion Grocery Store of Sterling", "phone": "703-421-8198", "website": "https://www.foodlion.com/content/food-lion/stores/va/sterling/1337/", "opening_hours": "07:00-23:00", "brand": "Food Lion", "brand:wikidata": "Q1435950", "nsi_id": "foodlion-7818a5"}, "geometry": {"type": "Point", "coordinates": [-77.35800170898438, 39.04010009765625]}},
{"type": "Feature", "id": "aT6xoI5vCGA4pBhrLZJ_rnu5P3w=", "properties": {"ref": "943", "@spider": "foodlion", "shop": "supermarket", "addr:full": "7760 Gunston Plaza Drive", "addr:city": "Lorton", "addr:state": "VA", "addr:postcode": "22079", "addr:country": "US", "name": "Food Lion Grocery Store of Lorton", "phone": "703-550-9166", "website": "https://www.foodlion.com/content/food-lion/stores/va/lorton/943/", "opening_hours": "Su 07:00-22:00; Mo-Sa 07:00-23:00", "brand": "Food Lion", "brand:wikidata": "Q1435950", "nsi_id": "foodlion-7818a5"}, "geometry": {"type": "Point", "coordinates": [-77.20880126953125, 38.70429992675781]}},
{"type": "Feature", "id": "GX3jovcGSZx-pooL3rr3y-SZcxg=", "properties": {"ref": "1238", "@spider": "foodlion", "shop": "supermarket", "addr:full": "11800 Old National Pike", "addr:city": "New Market", "addr:state": "MD", "addr:postcode": "21774", "addr:country": "US", "name": "Food Lion Grocery Store of New Market", "phone": "301-865-6950", "website": "https://www.foodlion.com/content/food-lion/stores/md/new_market/1238/", "opening_hours": "07:00-23:00", "brand": "Food Lion", "brand:wikidata": "Q1435950", "nsi_id": "foodlion-7818a5"}, "geometry": {"type": "Point", "coordinates": [-77.25469970703125, 39.38359832763672]}},
{"type": "Feature", "id": "YLTQXauH1_hwj6vmOzdNsQCgzCw=", "properties": {"ref": "1423", "@spider": "foodlion", "shop": "supermarket", "addr:full": "2458 Churchville Rd", "addr:city": "Bel Air", "addr:state": "MD", "addr:postcode": "21015", "addr:country": "US", "name": "Food Lion Grocery Store of Bel Air", "phone": "410-399-4186", "website": "https://www.foodlion.com/content/food-lion/stores/md/bel_air/1423/", "opening_hours": "07:00-22:00", "brand": "Food Lion", "brand:wikidata": "Q1435950", "nsi_id": "foodlion-7818a5"}, "geometry": {"type": "Point", "coordinates": [-76.27310180664062, 39.556400299072266]}},
{"type": "Feature", "id": "zXyS5yDthARkJ2J82edLx-8VSsc=", "properties": {"ref": "1161", "@spider": "foodlion", "shop": "supermarket", "addr:full": "46081 Briarcroft Plaza", "addr:city": "Sterling", "addr:state": "VA", "addr:postcode": "20164", "addr:country": "US", "name": "Food Lion Grocery Store of Sterling", "phone": "703-430-5408", "website": "https://www.foodlion.com/content/food-lion/stores/va/sterling/1161/", "opening_hours": "07:00-23:00", "brand": "Food Lion", "brand:wikidata": "Q1435950", "nsi_id": "foodlion-7818a5"}, "geometry": {"type": "Point", "coordinates": [-77.40609741210938, 38.99620056152344]}},
{"type": "Feature", "id": "JGcMrlQyWvjFZZ1EBJ-xOSZ-RF8=", "properties": {"ref": "2587", "@spider": "foodlion", "shop": "supermarket", "addr:full": "140 Englar Rd. Suite 28", "addr:city": "Westminster", "addr:state": "MD", "addr:postcode": "21157", "addr:country": "US", "name": "Food Lion Grocery Store of Westminster", "phone": "410-386-0322", "website": "https://www.foodlion.com/content/food-lion/stores/md/westminster/2587/", "opening_hours": "07:00-23:00", "brand": "Food Lion", "brand:wikidata": "Q1435950", "nsi_id": "foodlion-7818a5"}, "geometry": {"type": "Point", "coordinates": [-76.99009704589844, 39.58190155029297]}},
{"type": "Feature", "id": "6fu-P-aVThIWqM6rbx_JSl2GMag=", "properties": {"ref": "1261", "@spider": "foodlion", "shop": "supermarket", "addr:full": "13414 Richmond Highway", "addr:city": "Woodbridge", "addr:state": "VA", "addr:postcode": "22192", "addr:country": "US", "name": "Food Lion Grocery Store of Woodbridge", "phone": "703-492-0244", "website": "https://www.foodlion.com/content/food-lion/stores/va/woodbridge/1261/", "opening_hours": "07:00-23:00", "brand": "Food Lion", "brand:wikidata": "Q1435950", "nsi_id": "foodlion-7818a5"}, "geometry": {"type": "Point", "coordinates": [-77.24949645996094, 38.66189956665039]}},
{"type": "Feature", "id": "61nvdI32dd-a8R2MarwRsf3mtQk=", "properties": {"ref": "1322", "@spider": "foodlion", "shop": "supermarket", "addr:full": "3059 Centerville Rd", "addr:city": "Herndon", "addr:state": "VA", "addr:postcode": "20171", "addr:country": "US", "name": "Food Lion Grocery Store of Herndon", "phone": "703-904-0420", "website": "https://www.foodlion.com/content/food-lion/stores/va/herndon/1322/", "opening_hours": "07:00-23:00", "brand": "Food Lion", "brand:wikidata": "Q1435950", "nsi_id": "foodlion-7818a5"}, "geometry": {"type": "Point", "coordinates": [-77.41510009765625, 38.92150115966797]}},
{"type": "Feature", "id": "gIyJoSiQIKEJ0FcQ4blLM2bPtRs=", "properties": {"ref": "1226", "@spider": "foodlion", "shop": "supermarket", "addr:full": "14641 Richmond Hwy", "addr:city": "Woodbridge", "addr:state": "VA", "addr:postcode": "22191", "addr:country": "US", "name": "Food Lion Grocery Store of Woodbridge", "phone": "703-490-6486", "website": "https://www.foodlion.com/content/food-lion/stores/va/woodbridge/1226/", "opening_hours": "07:00-23:00", "brand": "Food Lion", "brand:wikidata": "Q1435950", "nsi_id": "foodlion-7818a5"}, "geometry": {"type": "Point", "coordinates": [-77.26007843017578, 38.64976501464844]}},
{"type": "Feature", "id": "nqBCIsU_PtcMSAdDFbOI849aLoE=", "properties": {"ref": "2518", "@spider": "foodlion", "shop": "supermarket", "addr:full": "12420 Dillingham Square", "addr:city": "Lake Ridge", "addr:state": "VA", "addr:postcode": "22192", "addr:country": "US", "name": "Food Lion Grocery Store of Lake Ridge", "phone": "703-580-8180", "website": "https://www.foodlion.com/content/food-lion/stores/va/lake_ridge/2518/", "opening_hours": "07:00-23:00", "brand": "Food Lion", "brand:wikidata": "Q1435950", "nsi_id": "foodlion-7818a5"}, "geometry": {"type": "Point", "coordinates": [-77.31829833984375, 38.68450164794922]}},
{"type": "Feature", "id": "KvjGkRRta-oAOIlbQrRb_mEDMzc=", "properties": {"ref": "2117", "@spider": "foodlion", "shop": "supermarket", "addr:full": "31810 River Rd.", "addr:city": "Millington", "addr:state": "MD", "addr:postcode": "21651", "addr:country": "US", "name": "Food Lion Grocery Store of Millington", "phone": "410-928-5402", "website": "https://www.foodlion.com/content/food-lion/stores/md/millington/2117/", "opening_hours": "07:00-23:00", "brand": "Food Lion", "brand:wikidata": "Q1435950", "nsi_id": "foodlion-7818a5"}, "geometry": {"type": "Point", "coordinates": [-75.86109924316406, 39.26470184326172]}},
{"type": "Feature", "id": "nh62lqgqW83XVj-KKVUDl9Cgxtg=", "properties": {"ref": "698", "@spider": "foodlion", "shop": "supermarket", "addr:full": "840 5th Street", "addr:city": "Denton", "addr:state": "MD", "addr:postcode": "21629", "addr:country": "US", "name": "Food Lion Grocery Store of Denton", "phone": "410-479-5350", "website": "https://www.foodlion.com/content/food-lion/stores/md/denton/698/", "opening_hours": "07:00-23:00", "brand": "Food Lion", "brand:wikidata": "Q1435950", "nsi_id": "foodlion-7818a5"}, "geometry": {"type": "Point", "coordinates": [-75.82730102539062, 38.87229919433594]}},
{"type": "Feature", "id": "kFOGV77ejrbSB0Q11I5-DpZsrzM=", "properties": {"ref": "1158", "@spider": "foodlion", "shop": "supermarket", "addr:full": "6 Washington Street", "addr:city": "Cambridge", "addr:state": "MD", "addr:postcode": "21613", "addr:country": "US", "name": "Food Lion Grocery Store of Cambridge", "phone": "410-228-8328", "website": "https://www.foodlion.com/content/food-lion/stores/md/cambridge/1158/", "opening_hours": "07:00-23:00", "brand": "Food Lion", "brand:wikidata": "Q1435950", "nsi_id": "foodlion-7818a5"}, "geometry": {"type": "Point", "coordinates": [-76.06379699707031, 38.55860137939453]}},
{"type": "Feature", "id": "xggLy0pFaZlBuIdFxz16OlvGfRA=", "properties": {"ref": "2630", "@spider": "foodlion", "shop": "supermarket", "addr:full": "5301 Pulaski Hwy.", "addr:city": "Perryville", "addr:state": "MD", "addr:postcode": "21903", "addr:country": "US", "name": "Food Lion Grocery Store of Perryville", "phone": "410-642-3453", "website": "https://www.foodlion.com/content/food-lion/stores/md/perryville/2630/", "opening_hours": "07:00-23:00", "brand": "Food Lion", "brand:wikidata": "Q1435950", "nsi_id": "foodlion-7818a5"}, "geometry": {"type": "Point", "coordinates": [-76.06549835205078, 39.572601318359375]}},
{"type": "Feature", "id": "IaOZs0v76Qn56v0p9fwdCU6xHeE=", "properties": {"ref": "1442", "@spider": "foodlion", "shop": "supermarket", "addr:full": "6920 Crestwood Blvd", "addr:city": "Frederick", "addr:state": "MD", "addr:postcode": "21703", "addr:country": "US", "name": "Food Lion Grocery Store of Frederick", "phone": "301-846-4704", "website": "https://www.foodlion.com/content/food-lion/stores/md/frederick/1442/", "opening_hours": "07:00-23:00", "brand": "Food Lion", "brand:wikidata": "Q1435950", "nsi_id": "foodlion-7818a5"}, "geometry": {"type": "Point", "coordinates": [-77.42350006103516, 39.39189910888672]}},
{"type": "Feature", "id": "EWXg4phTBmPcklpZL58RVKzGrQE=", "properties": {"ref": "1471", "@spider": "foodlion", "shop": "supermarket", "addr:full": "17120 Jefferson Davis Hwy", "addr:city": "Dumfries", "addr:state": "VA", "addr:postcode": "22026-2128", "addr:country": "US", "name": "Food Lion Grocery Store of Dumfries", "phone": "703-441-0677", "website": "https://www.foodlion.com/content/food-lion/stores/va/dumfries/1471/", "opening_hours": "07:00-23:00", "brand": "Food Lion", "brand:wikidata": "Q1435950", "nsi_id": "foodlion-7818a5"}, "geometry": {"type": "Point", "coordinates": [-77.31300354003906, 38.57979965209961]}},
{"type": "Feature", "id": "wN0ANjp1OWDZgHUD49NzEg5hrf0=", "properties": {"ref": "1383", "@spider": "foodlion", "shop": "supermarket", "addr:full": "9121 Centerville Rd.", "addr:city": "Manassas", "addr:state": "VA", "addr:postcode": "20110", "addr:country": "US", "name": "Food Lion Grocery Store of Manassas", "phone": "703-361-6271", "website": "https://www.foodlion.com/content/food-lion/stores/va/manassas/1383/", "opening_hours": "Su 07:00-22:00; Mo-Sa 07:00-23:00", "brand": "Food Lion", "brand:wikidata": "Q1435950", "nsi_id": "foodlion-7818a5"}, "geometry": {"type": "Point", "coordinates": [-77.46430206298828, 38.755699157714844]}},
{"type": "Feature", "id": "24M0LpX6fof1y3C3ATDaLyZAFKk=", "properties": {"ref": "1572", "@spider": "foodlion", "shop": "supermarket", "addr:full": "5592 Staples Mill Plaza", "addr:city": "Woodbridge", "addr:state": "VA", "addr:postcode": "22193", "addr:country": "US", "name": "Food Lion Grocery Store of Woodbridge", "phone": "703-878-4564", "website": "https://www.foodlion.com/content/food-lion/stores/va/woodbridge/1572/", "opening_hours": "07:00-23:00", "brand": "Food Lion", "brand:wikidata": "Q1435950", "nsi_id": "foodlion-7818a5"}, "geometry": {"type": "Point", "coordinates": [-77.37349700927734, 38.632999420166016]}},
{"type": "Feature", "id": "EQFl0iYn36LYv8YYRoM6k2Xv4Gc=", "properties": {"ref": "1249", "@spider": "foodlion", "shop": "supermarket", "addr:full": "5227 Waterway Drive", "addr:city": "Dumfries", "addr:state": "VA", "addr:postcode": "22026", "addr:country": "US", "name": "Food Lion Grocery Store of Dumfries", "phone": "703-897-9220", "website": "https://www.foodlion.com/content/food-lion/stores/va/dumfries/1249/", "opening_hours": "07:00-23:00", "brand": "Food Lion", "brand:wikidata": "Q1435950", "nsi_id": "foodlion-7818a5"}, "geometry": {"type": "Point", "coordinates": [-77.35900115966797, 38.60860061645508]}},
{"type": "Feature", "id": "XLgdugFL-zMEt_jBuC39gq25hKY=", "properties": {"ref": "2597", "@spider": "foodlion", "shop": "supermarket", "addr:full": "6306 Hoadly Rd.", "addr:city": "Manassas", "addr:state": "VA", "addr:postcode": "20112", "addr:country": "US", "name": "Food Lion Grocery Store of Manassas", "phone": "703-580-5254", "website": "https://www.foodlion.com/content/food-lion/stores/va/manassas/2597/", "opening_hours": "07:00-23:00", "brand": "Food Lion", "brand:wikidata": "Q1435950", "nsi_id": "foodlion-7818a5"}, "geometry": {"type": "Point", "coordinates": [-77.42037963867188, 38.66212463378906]}},
{"type": "Feature", "id": "dJLkPm4mNytaxV9RpdwiqlZyEaE=", "properties": {"ref": "1185", "@spider": "foodlion", "shop": "supermarket", "addr:full": "720 S. King Street", "addr:city": "Leesburg", "addr:state": "VA", "addr:postcode": "20175", "addr:country": "US", "name": "Food Lion Grocery Store of Leesburg", "phone": "703-779-0240", "website": "https://www.foodlion.com/content/food-lion/stores/va/leesburg/1185/", "opening_hours": "07:00-23:00", "brand": "Food Lion", "brand:wikidata": "Q1435950", "nsi_id": "foodlion-7818a5"}, "geometry": {"type": "Point", "coordinates": [-77.5687026977539, 39.104801177978516]}},
{"type": "Feature", "id": "KnaFdhCuwa7_K-rjBTJ2941WPog=", "properties": {"ref": "950", "@spider": "foodlion", "shop": "supermarket", "addr:full": "511 East Baltimore St", "addr:city": "Taneytown", "addr:state": "MD", "addr:postcode": "21787", "addr:country": "US", "name": "Food Lion Grocery Store of Taneytown", "phone": "410-756-1443", "website": "https://www.foodlion.com/content/food-lion/stores/md/taneytown/950/", "opening_hours": "07:00-23:00", "brand": "Food Lion", "brand:wikidata": "Q1435950", "nsi_id": "foodlion-7818a5"}, "geometry": {"type": "Point", "coordinates": [-77.15799713134766, 39.65129852294922]}},
{"type": "Feature", "id": "PWG8z6-2kbdGBpJylkTLEangtpI=", "properties": {"ref": "1162", "@spider": "foodlion", "shop": "supermarket", "addr:full": "2060 Yellow Springs Rd.", "addr:city": "Frederick", "addr:state": "MD", "addr:postcode": "21702", "addr:country": "US", "name": "Food Lion Grocery Store of Frederick", "phone": "301-846-4623", "website": "https://www.foodlion.com/content/food-lion/stores/md/frederick/1162/", "opening_hours": "07:00-23:00", "brand": "Food Lion", "brand:wikidata": "Q1435950", "nsi_id": "foodlion-7818a5"}, "geometry": {"type": "Point", "coordinates": [-77.43769836425781, 39.44150161743164]}},
{"type": "Feature", "id": "6j5BY_8_5prZ3wF3qONk2JyYgno=", "properties": {"ref": "1208", "@spider": "foodlion", "shop": "supermarket", "addr:full": "13490 Dumfries Road", "addr:city": "Manassas", "addr:state": "VA", "addr:postcode": "20112", "addr:country": "US", "name": "Food Lion Grocery Store of Manassas", "phone": "703-791-5360", "website": "https://www.foodlion.com/content/food-lion/stores/va/manassas/1208/", "opening_hours": "07:00-23:00", "brand": "Food Lion", "brand:wikidata": "Q1435950", "nsi_id": "foodlion-7818a5"}, "geometry": {"type": "Point", "coordinates": [-77.44139862060547, 38.6598014831543]}},
{"type": "Feature", "id": "DqClpiDlsozTtrr8So56HdrGbX4=", "properties": {"ref": "656", "@spider": "foodlion", "shop": "supermarket", "addr:full": "40955 Merchant Lane", "addr:city": "Leonardtown", "addr:state": "MD", "addr:postcode": "20650", "addr:country": "US", "name": "Food Lion Grocery Store of Leonardtown", "phone": "301-475-9104", "website": "https://www.foodlion.com/content/food-lion/stores/md/leonardtown/656/", "opening_hours": "07:00-23:00", "brand": "Food Lion", "brand:wikidata": "Q1435950", "nsi_id": "foodlion-7818a5"}, "geometry": {"type": "Point", "coordinates": [-76.66100311279297, 38.3047981262207]}},
{"type": "Feature", "id": "U90nrl1EVkKgNkYgllFLFqf4ixg=", "properties": {"ref": "1297", "@spider": "foodlion", "shop": "supermarket", "addr:full": "3344 Hayman Dr.", "addr:city": "Federalsburg", "addr:state": "MD", "addr:postcode": "21632", "addr:country": "US", "name": "Food Lion Grocery Store of Federalsburg", "phone": "410-754-5898", "website": "https://www.foodlion.com/content/food-lion/stores/md/federalsburg/1297/", "opening_hours": "07:00-23:00", "brand": "Food Lion", "brand:wikidata": "Q1435950", "nsi_id": "foodlion-7818a5"}, "geometry": {"type": "Point", "coordinates": [-75.78800201416016, 38.69860076904297]}},
{"type": "Feature", "id": "rh_tFinKEt3u3No47XbRkgjGMrk=", "properties": {"ref": "1363", "@spider": "foodlion", "shop": "supermarket", "addr:full": "2500 West Pulasky Hwy", "addr:city": "North East", "addr:state": "MD", "addr:postcode": "21901", "addr:country": "US", "name": "Food Lion Grocery Store of North East", "phone": "410-287-5177", "website": "https://www.foodlion.com/content/food-lion/stores/md/north_east/1363/", "opening_hours": "07:00-23:00", "brand": "Food Lion", "brand:wikidata": "Q1435950", "nsi_id": "foodlion-7818a5"}, "geometry": {"type": "Point", "coordinates": [-75.94989776611328, 39.60599899291992]}},
{"type": "Feature", "id": "FFzc2YHn5riECnzOUZ5uz2MosZg=", "properties": {"ref": "403", "@spider": "foodlion", "shop": "supermarket", "addr:full": "15429 Dahlgren Rd", "addr:city": "King George", "addr:state": "VA", "addr:postcode": "22485", "addr:country": "US", "name": "Food Lion Grocery Store of King George", "phone": "540-663-2959", "website": "https://www.foodlion.com/content/food-lion/stores/va/king_george/403/", "opening_hours": "07:00-23:00", "brand": "Food Lion", "brand:wikidata": "Q1435950", "nsi_id": "foodlion-7818a5"}, "geometry": {"type": "Point", "coordinates": [-77.0718002319336, 38.339698791503906]}},
{"type": "Feature", "id": "VwZfr_vSRIav-J-FCp4wGWnRywE=", "properties": {"ref": "2683", "@spider": "foodlion", "shop": "supermarket", "addr:full": "3744 Centennial Road", "addr:city": "Hanover", "addr:state": "PA", "addr:postcode": "17331", "addr:country": "US", "name": "Food Lion Grocery Store of Hanover", "phone": "717-646-0109", "website": "https://www.foodlion.com/content/food-lion/stores/pa/hanover/2683/", "opening_hours": "07:00-23:00", "brand": "Food Lion", "brand:wikidata": "Q1435950", "nsi_id": "foodlion-7818a5"}, "geometry": {"type": "Point", "coordinates": [-77.03150177001953, 39.80059814453125]}},
{"type": "Feature", "id": "iRPeiPza1jhI_yHmeAFIfPaf-vE=", "properties": {"ref": "1369", "@spider": "foodlion", "shop": "supermarket", "addr:full": "501 W. Main St.", "addr:city": "Middletown", "addr:state": "DE", "addr:postcode": "19709", "addr:country": "US", "name": "Food Lion Grocery Store of Middletown", "phone": "302-376-0690", "website": "https://www.foodlion.com/content/food-lion/stores/de/middletown/1369/", "opening_hours": "07:00-23:00", "brand": "Food Lion", "brand:wikidata": "Q1435950", "nsi_id": "foodlion-7818a5"}, "geometry": {"type": "Point", "coordinates": [-75.72370147705078, 39.45159912109375]}},
{"type": "Feature", "id": "c-TnTFiZkM6S2aD3vgGBzOiYGvA=", "properties": {"ref": "1216", "@spider": "foodlion", "shop": "supermarket", "addr:full": "231 Tippin Dr", "addr:city": "Thurmont", "addr:state": "MD", "addr:postcode": "21788", "addr:country": "US", "name": "Food Lion Grocery Store of Thurmont", "phone": "301-271-9949", "website": "https://www.foodlion.com/content/food-lion/stores/md/thurmont/1216/", "opening_hours": "07:00-23:00", "brand": "Food Lion", "brand:wikidata": "Q1435950", "nsi_id": "foodlion-7818a5"}, "geometry": {"type": "Point", "coordinates": [-77.42040252685547, 39.616600036621094]}},
{"type": "Feature", "id": "hBaDsBIX1lgSz4p9g9GVEuCMaFM=", "properties": {"ref": "964", "@spider": "foodlion", "shop": "supermarket", "addr:full": "600 McKinney Blvd.", "addr:city": "Colonial Beach", "addr:state": "VA", "addr:postcode": "22443", "addr:country": "US", "name": "Food Lion Grocery Store of Colonial Beach", "phone": "804-224-2064", "website": "https://www.foodlion.com/content/food-lion/stores/va/colonial_beach/964/", "opening_hours": "07:00-23:00", "brand": "Food Lion", "brand:wikidata": "Q1435950", "nsi_id": "foodlion-7818a5"}, "geometry": {"type": "Point", "coordinates": [-76.97740173339844, 38.25389862060547]}},
{"type": "Feature", "id": "4RZHLth_h223_Jrf_hZ003HQtzY=", "properties": {"ref": "1528", "@spider": "foodlion", "shop": "supermarket", "addr:full": "2004 Midway Drive", "addr:city": "Harrington", "addr:state": "DE", "addr:postcode": "19952", "addr:country": "US", "name": "Food Lion Grocery Store of Harrington", "phone": "302-398-7884", "website": "https://www.foodlion.com/content/food-lion/stores/de/harrington/1528/", "opening_hours": "07:00-23:00", "brand": "Food Lion", "brand:wikidata": "Q1435950", "nsi_id": "foodlion-7818a5"}, "geometry": {"type": "Point", "coordinates": [-75.56500244140625, 38.925899505615234]}},
{"type": "Feature", "id": "xhfL7A51_EtyBF0rwZOS6q3iVTE=", "properties": {"ref": "1426", "@spider": "foodlion", "shop": "supermarket", "addr:full": "215 Stadium St", "addr:city": "Smyrna", "addr:state": "DE", "addr:postcode": "19977", "addr:country": "US", "name": "Food Lion Grocery Store of Smyrna", "phone": "302-659-5593", "website": "https://www.foodlion.com/content/food-lion/stores/de/smyrna/1426/", "opening_hours": "07:00-23:00", "brand": "Food Lion", "brand:wikidata": "Q1435950", "nsi_id": "foodlion-7818a5"}, "geometry": {"type": "Point", "coordinates": [-75.59110260009766, 39.28030014038086]}},
{"type": "Feature", "id": "nfuKVSvPYGIEt6RNdMwfhl2YkQU=", "properties": {"ref": "1558", "@spider": "foodlion", "shop": "supermarket", "addr:full": "1001 East Pulaski Hwy", "addr:city": "Elkton", "addr:state": "MD", "addr:postcode": "21921", "addr:country": "US", "name": "Food Lion Grocery Store of Elkton", "phone": "410-620-3664", "website": "https://www.foodlion.com/content/food-lion/stores/md/elkton/1558/", "opening_hours": "07:00-23:00", "brand": "Food Lion", "brand:wikidata": "Q1435950", "nsi_id": "foodlion-7818a5"}, "geometry": {"type": "Point", "coordinates": [-75.79820251464844, 39.60369873046875]}},
{"type": "Feature", "id": "zfWUbLaEi8F7YS-XUxbZz6BxieA=", "properties": {"ref": "1385", "@spider": "foodlion", "shop": "supermarket", "addr:full": "1030 Forest Ave Suite 106", "addr:city": "Dover", "addr:state": "DE", "addr:postcode": "19904", "addr:country": "US", "name": "Food Lion Grocery Store of Dover", "phone": "302-674-2921", "website": "https://www.foodlion.com/content/food-lion/stores/de/dover/1385/", "opening_hours": "07:00-23:00", "brand": "Food Lion", "brand:wikidata": "Q1435950", "nsi_id": "foodlion-7818a5"}, "geometry": {"type": "Point", "coordinates": [-75.54419708251953, 39.156700134277344]}},
{"type": "Feature", "id": "LmB09MjdYdiDaHck39FXcGo8ej0=", "properties": {"ref": "2521", "@spider": "foodlion", "shop": "supermarket", "addr:full": "9537 Bridgeville Center", "addr:city": "Bridgeville", "addr:state": "DE", "addr:postcode": "19933", "addr:country": "US", "name": "Food Lion Grocery Store of Bridgeville", "phone": "302-337-9239", "website": "https://www.foodlion.com/content/food-lion/stores/de/bridgeville/2521/", "opening_hours": "07:00-23:00", "brand": "Food Lion", "brand:wikidata": "Q1435950", "nsi_id": "foodlion-7818a5"}, "geometry": {"type": "Point", "coordinates": [-75.58529663085938, 38.719200134277344]}},
{"type": "Feature", "id": "iPcn-kXKhAHX5MwtD4XtOjcLg4k=", "properties": {"ref": "1582", "@spider": "foodlion", "shop": "supermarket", "addr:full": "8149 Kings Hwy", "addr:city": "King George", "addr:state": "VA", "addr:postcode": "22485", "addr:country": "US", "name": "Food Lion Grocery Store of King George", "phone": "540-775-4894", "website": "https://www.foodlion.com/content/food-lion/stores/va/king_george/1582/", "opening_hours": "07:00-23:00", "brand": "Food Lion", "brand:wikidata": "Q1435950", "nsi_id": "foodlion-7818a5"}, "geometry": {"type": "Point", "coordinates": [-77.2061996459961, 38.2776985168457]}},
{"type": "Feature", "id": "TF4xl_yuxcVNK3kVqUtXA1l739A=", "properties": {"ref": "1419", "@spider": "foodlion", "shop": "supermarket", "addr:full": "250 Gateway South Blvd", "addr:city": "Dover", "addr:state": "DE", "addr:postcode": "19901", "addr:country": "US", "name": "Food Lion Grocery Store of Dover", "phone": "302-698-1445", "website": "https://www.foodlion.com/content/food-lion/stores/de/dover/1419/", "opening_hours": "07:00-23:00", "brand": "Food Lion", "brand:wikidata": "Q1435950", "nsi_id": "foodlion-7818a5"}, "geometry": {"type": "Point", "coordinates": [-75.497802734375, 39.12419891357422]}},
{"type": "Feature", "id": "OekOMxt4adPS9igzoQNc4AQ2vbQ=", "properties": {"ref": "2224", "@spider": "foodlion", "shop": "supermarket", "addr:full": "22954 Sussex Hwy", "addr:city": "Seaford", "addr:state": "DE", "addr:postcode": "19973", "addr:country": "US", "name": "Food Lion Grocery Store of Seaford", "phone": "302-629-6714", "website": "https://www.foodlion.com/content/food-lion/stores/de/seaford/2224/", "opening_hours": "07:00-23:00", "brand": "Food Lion", "brand:wikidata": "Q1435950", "nsi_id": "foodlion-7818a5"}, "geometry": {"type": "Point", "coordinates": [-75.59639739990234, 38.659400939941406]}},
{"type": "Feature", "id": "x7BfdKvuPoZwsKiODQB96CqRG-k=", "properties": {"ref": "2185", "@spider": "foodlion", "shop": "supermarket", "addr:full": "907 South Chapel Street", "addr:city": "Newark", "addr:state": "DE", "addr:postcode": "19713", "addr:country": "US", "name": "Food Lion Grocery Store of Newark", "phone": "302-368-5342", "website": "https://www.foodlion.com/content/food-lion/stores/de/newark/2185/", "opening_hours": "07:00-23:00", "brand": "Food Lion", "brand:wikidata": "Q1435950", "nsi_id": "foodlion-7818a5"}, "geometry": {"type": "Point", "coordinates": [-75.73680114746094, 39.660099029541016]}},
{"type": "Feature", "id": "2EPCynv7gnVoI1KG2SI1fA7pPrQ=", "properties": {"ref": "2160", "@spider": "foodlion", "shop": "supermarket", "addr:full": "1607 Pulaski Hwy", "addr:city": "Bear", "addr:state": "DE", "addr:postcode": "19701", "addr:country": "US", "name": "Food Lion Grocery Store of Bear", "phone": "302-836-6071", "website": "https://www.foodlion.com/content/food-lion/stores/de/bear/2160/", "opening_hours": "07:00-23:00", "brand": "Food Lion", "brand:wikidata": "Q1435950", "nsi_id": "foodlion-7818a5"}, "geometry": {"type": "Point", "coordinates": [-75.69200134277344, 39.620601654052734]}},
{"type": "Feature", "id": "vgUv2XUvyJN9KcDzqiz_1HQOxuk=", "properties": {"ref": "2230", "@spider": "foodlion", "shop": "supermarket", "addr:full": "401 New London Road", "addr:city": "Newark", "addr:state": "DE", "addr:postcode": "19711-7009", "addr:country": "US", "name": "Food Lion Grocery Store of Newark", "phone": "302-266-8220", "website": "https://www.foodlion.com/content/food-lion/stores/de/newark/2230/", "opening_hours": "07:00-23:00", "brand": "Food Lion", "brand:wikidata": "Q1435950", "nsi_id": "foodlion-7818a5"}, "geometry": {"type": "Point", "coordinates": [-75.74347686767578, 39.68463134765625]}},
{"type": "Feature", "id": "9TEL1hdZra5hzXAt7QE87Y7TIXI=", "properties": {"ref": "1294", "@spider": "foodlion", "shop": "supermarket", "addr:full": "951 North Dupont Blvd", "addr:city": "Milford", "addr:state": "DE", "addr:postcode": "19963", "addr:country": "US", "name": "Food Lion Grocery Store of Milford", "phone": "302-424-0462", "website": "https://www.foodlion.com/content/food-lion/stores/de/milford/1294/", "opening_hours": "07:00-23:00", "brand": "Food Lion", "brand:wikidata": "Q1435950", "nsi_id": "foodlion-7818a5"}, "geometry": {"type": "Point", "coordinates": [-75.43250274658203, 38.93190002441406]}},
{"type": "Feature", "id": "Qtoe9BcTDUXThzKAw6b-pPJJNKY=", "properties": {"ref": "663", "@spider": "foodlion", "shop": "supermarket", "addr:full": "96 Somerset Boulevard", "addr:city": "Charles Town", "addr:state": "WV", "addr:postcode": "25414", "addr:country": "US", "name": "Food Lion Grocery Store of Charles Town", "phone": "304-725-6411", "website": "https://www.foodlion.com/content/food-lion/stores/wv/charles_town/663/", "opening_hours": "07:00-23:00", "brand": "Food Lion", "brand:wikidata": "Q1435950", "nsi_id": "foodlion-7818a5"}, "geometry": {"type": "Point", "coordinates": [-77.82890319824219, 39.29650115966797]}},
{"type": "Feature", "id": "RQ0fpw02Tp0n6I9hb72SyotAqQM=", "properties": {"ref": "1588", "@spider": "foodlion", "shop": "supermarket", "addr:full": "4195 Winchester Rd", "addr:city": "Marshall", "addr:state": "VA", "addr:postcode": "20115", "addr:country": "US", "name": "Food Lion Grocery Store of Marshall", "phone": "540-364-3439", "website": "https://www.foodlion.com/content/food-lion/stores/va/marshall/1588/", "opening_hours": "07:00-23:00", "brand": "Food Lion", "brand:wikidata": "Q1435950", "nsi_id": "foodlion-7818a5"}, "geometry": {"type": "Point", "coordinates": [-77.8478012084961, 38.863800048828125]}},
{"type": "Feature", "id": "1ur4UkyVYZaWiTK1fNxrhKaMb8c=", "properties": {"ref": "1458", "@spider": "foodlion", "shop": "supermarket", "addr:full": "30214 Sussex Hwy Unit 5", "addr:city": "Laurel", "addr:state": "DE", "addr:postcode": "19956", "addr:country": "US", "name": "Food Lion Grocery Store of Laurel", "phone": "302-875-7630", "website": "https://www.foodlion.com/content/food-lion/stores/de/laurel/1458/", "opening_hours": "07:00-23:00", "brand": "Food Lion", "brand:wikidata": "Q1435950", "nsi_id": "foodlion-7818a5"}, "geometry": {"type": "Point", "coordinates": [-75.56620025634766, 38.573299407958984]}},
{"type": "Feature", "id": "qg5jK0riQS88xFb_dT7Q7ONgZW4=", "properties": {"ref": "2544", "@spider": "foodlion", "shop": "supermarket", "addr:full": "18044 Kings Hwy", "addr:city": "Montross", "addr:state": "VA", "addr:postcode": "22520", "addr:country": "US", "name": "Food Lion Grocery Store of Montross", "phone": "804-493-7367", "website": "https://www.foodlion.com/content/food-lion/stores/va/montross/2544/", "opening_hours": "07:00-23:00", "brand": "Food Lion", "brand:wikidata": "Q1435950", "nsi_id": "foodlion-7818a5"}, "geometry": {"type": "Point", "coordinates": [-76.7925033569336, 38.08530044555664]}},
{"type": "Feature", "id": "AyxOsB4Di1SLd-roKuX-Q5CPrHk=", "properties": {"ref": "378", "@spider": "foodlion", "shop": "supermarket", "addr:full": "613 Frost Ave.", "addr:city": "Warrenton", "addr:state": "VA", "addr:postcode": "20186", "addr:country": "US", "name": "Food Lion Grocery Store of Warrenton", "phone": "540-349-8222", "website": "https://www.foodlion.com/content/food-lion/stores/va/warrenton/378/", "opening_hours": "07:00-23:00", "brand": "Food Lion", "brand:wikidata": "Q1435950", "nsi_id": "foodlion-7818a5"}, "geometry": {"type": "Point", "coordinates": [-77.81320190429688, 38.717498779296875]}},
{"type": "Feature", "id": "BVY79lX2P9R5eLPDBW8iPN9smVE=", "properties": {"ref": "2153", "@spider": "foodlion", "shop": "supermarket", "addr:full": "1200 Beaver Brook Place", "addr:city": "New Castle", "addr:state": "DE", "addr:postcode": "19720", "addr:country": "US", "name": "Food Lion Grocery Store of New Castle", "phone": "302-325-9158", "website": "https://www.foodlion.com/content/food-lion/stores/de/new_castle/2153/", "opening_hours": "07:00-23:00", "brand": "Food Lion", "brand:wikidata": "Q1435950", "nsi_id": "foodlion-7818a5"}, "geometry": {"type": "Point", "coordinates": [-75.6240005493164, 39.6411018371582]}},
{"type": "Feature", "id": "qsQkq6ZrT2cj0qCMjgvyJWxFboo=", "properties": {"ref": "738", "@spider": "foodlion", "shop": "supermarket", "addr:full": "6358 Village Center Drive", "addr:city": "Bealeton", "addr:state": "VA", "addr:postcode": "22712", "addr:country": "US", "name": "Food Lion Grocery Store of Bealeton", "phone": "540-439-1373", "website": "https://www.foodlion.com/content/food-lion/stores/va/bealeton/738/", "opening_hours": "07:00-23:00", "brand": "Food Lion", "brand:wikidata": "Q1435950", "nsi_id": "foodlion-7818a5"}, "geometry": {"type": "Point", "coordinates": [-77.76529693603516, 38.58190155029297]}},
{"type": "Feature", "id": "KfogS88qaF8-6rvXgkXrjl1dEGs=", "properties": {"ref": "871", "@spider": "foodlion", "shop": "supermarket", "addr:full": "85 Maddex Square Drive", "addr:city": "Shepherdstown", "addr:state": "WV", "addr:postcode": "25443", "addr:country": "US", "name": "Food Lion Grocery Store of Shepherdstown", "phone": "304-876-0601", "website": "https://www.foodlion.com/content/food-lion/stores/wv/shepherdstown/871/", "opening_hours": "07:00-23:00", "brand": "Food Lion", "brand:wikidata": "Q1435950", "nsi_id": "foodlion-7818a5"}, "geometry": {"type": "Point", "coordinates": [-77.82099914550781, 39.435699462890625]}},
{"type": "Feature", "id": "28AE1CFxde6TzKpU8jHcJHBiQHA=", "properties": {"ref": "879", "@spider": "foodlion", "shop": "supermarket", "addr:full": "38650 Sussex Hwy Unit 1", "addr:city": "Delmar", "addr:state": "DE", "addr:postcode": "19940", "addr:country": "US", "name": "Food Lion Grocery Store of Delmar", "phone": "302-846-2701", "website": "https://www.foodlion.com/content/food-lion/stores/de/delmar/879/", "opening_hours": "07:00-23:00", "brand": "Food Lion", "brand:wikidata": "Q1435950", "nsi_id": "foodlion-7818a5"}, "geometry": {"type": "Point", "coordinates": [-75.55940246582031, 38.45819854736328]}},
{"type": "Feature", "id": "et-Z1uP19-keDGjCV9YtU5J2OKc=", "properties": {"ref": "1211", "@spider": "foodlion", "shop": "supermarket", "addr:full": "1216 Nanticoke Rd.", "addr:city": "Salisbury", "addr:state": "MD", "addr:postcode": "21801", "addr:country": "US", "name": "Food Lion Grocery Store of Salisbury", "phone": "410-742-9225", "website": "https://www.foodlion.com/content/food-lion/stores/md/salisbury/1211/", "opening_hours": "07:00-23:00", "brand": "Food Lion", "brand:wikidata": "Q1435950", "nsi_id": "foodlion-7818a5"}, "geometry": {"type": "Point", "coordinates": [-75.62190246582031, 38.36750030517578]}},
{"type": "Feature", "id": "xXO5jR9IYaKMmdqE9FFoQM7oabU=", "properties": {"ref": "2561", "@spider": "foodlion", "shop": "supermarket", "addr:full": "110 Broadkill Road", "addr:city": "Milton", "addr:state": "DE", "addr:postcode": "19968", "addr:country": "US", "name": "Food Lion Grocery Store of Milton", "phone": "302-684-5880", "website": "https://www.foodlion.com/content/food-lion/stores/de/milton/2561/", "opening_hours": "07:00-23:00", "brand": "Food Lion", "brand:wikidata": "Q1435950", "nsi_id": "foodlion-7818a5"}, "geometry": {"type": "Point", "coordinates": [-75.3147964477539, 38.789798736572266]}},
{"type": "Feature", "id": "UyOhrQzhjx8SgwOQQGZD1MMOaag=", "properties": {"ref": "1560", "@spider": "foodlion", "shop": "supermarket", "addr:full": "206 N. Fruitland Blvd", "addr:city": "Fruitland", "addr:state": "MD", "addr:postcode": "21826", "addr:country": "US", "name": "Food Lion Grocery Store of Fruitland", "phone": "410-341-4125", "website": "https://www.foodlion.com/content/food-lion/stores/md/fruitland/1560/", "opening_hours": "07:00-23:00", "brand": "Food Lion", "brand:wikidata": "Q1435950", "nsi_id": "foodlion-7818a5"}, "geometry": {"type": "Point", "coordinates": [-75.6178970336914, 38.326900482177734]}},
{"type": "Feature", "id": "kyNsvwjp5qu0f7JLxi_o-wgAWG4=", "properties": {"ref": "800", "@spider": "foodlion", "shop": "supermarket", "addr:full": "817 Snow Hill Road Unit 1", "addr:city": "Salisbury", "addr:state": "MD", "addr:postcode": "21804", "addr:country": "US", "name": "Food Lion Grocery Store of Salisbury", "phone": "410-742-8833", "website": "https://www.foodlion.com/content/food-lion/stores/md/salisbury/800/", "opening_hours": "07:00-23:00", "brand": "Food Lion", "brand:wikidata": "Q1435950", "nsi_id": "foodlion-7818a5"}, "geometry": {"type": "Point", "coordinates": [-75.5824966430664, 38.35110092163086]}},
{"type": "Feature", "id": "Mo19GxJ04PHzzcKwlLsN3Rp0m8w=", "properties": {"ref": "1268", "@spider": "foodlion", "shop": "supermarket", "addr:full": "232 Tilghman Rd", "addr:city": "Salisbury", "addr:state": "MD", "addr:postcode": "21804", "addr:country": "US", "name": "Food Lion Grocery Store of Salisbury", "phone": "410-742-8155", "website": "https://www.foodlion.com/content/food-lion/stores/md/salisbury/1268/", "opening_hours": "06:00-23:00", "brand": "Food Lion", "brand:wikidata": "Q1435950", "nsi_id": "foodlion-7818a5"}, "geometry": {"type": "Point", "coordinates": [-75.63430786132812, 38.30173873901367]}},
{"type": "Feature", "id": "PYCsPDQr3PqfItltu9D1tf7sn_M=", "properties": {"ref": "1196", "@spider": "foodlion", "shop": "supermarket", "addr:full": "4665 Richmond Road", "addr:city": "Warsaw", "addr:state": "VA", "addr:postcode": "22572", "addr:country": "US", "name": "Food Lion Grocery Store of Warsaw", "phone": "804-333-6368", "website": "https://www.foodlion.com/content/food-lion/stores/va/warsaw/1196/", "opening_hours": "07:00-22:00", "brand": "Food Lion", "brand:wikidata": "Q1435950", "nsi_id": "foodlion-7818a5"}, "geometry": {"type": "Point", "coordinates": [-76.7771987915039, 37.96329879760742]}},
{"type": "Feature", "id": "yRTvEypIjJJkvp0JT-GJw3O2gqI=", "properties": {"ref": "2194", "@spider": "foodlion", "shop": "supermarket", "addr:full": "78 Worchester Dr", "addr:city": "Falling Waters", "addr:state": "WV", "addr:postcode": "25419", "addr:country": "US", "name": "Food Lion Grocery Store of Falling Waters", "phone": "304-271-8800", "website": "https://www.foodlion.com/content/food-lion/stores/wv/falling_waters/2194/", "opening_hours": "07:00-23:00", "brand": "Food Lion", "brand:wikidata": "Q1435950", "nsi_id": "foodlion-7818a5"}, "geometry": {"type": "Point", "coordinates": [-77.8759994506836, 39.57709884643555]}},
{"type": "Feature", "id": "VCnvTCbCi1eI7oXOxhv6wjqYMMo=", "properties": {"ref": "1153", "@spider": "foodlion", "shop": "supermarket", "addr:full": "12158 Brittingham Lane", "addr:city": "Princess Anne", "addr:state": "MD", "addr:postcode": "21853", "addr:country": "US", "name": "Food Lion Grocery Store of Princess Anne", "phone": "410-651-1508", "website": "https://www.foodlion.com/content/food-lion/stores/md/princess_anne/1153/", "opening_hours": "07:00-23:00", "brand": "Food Lion", "brand:wikidata": "Q1435950", "nsi_id": "foodlion-7818a5"}, "geometry": {"type": "Point", "coordinates": [-75.70069885253906, 38.215999603271484]}},
{"type": "Feature", "id": "1Lm-Vg3Zesy5Loo09L8r8UufDKc=", "properties": {"ref": "973", "@spider": "foodlion", "shop": "supermarket", "addr:full": "36127 Goodwin Dr.", "addr:city": "Locust Grove", "addr:state": "VA", "addr:postcode": "22508", "addr:country": "US", "name": "Food Lion Grocery Store of Locust Grove", "phone": "540-972-7100", "website": "https://www.foodlion.com/content/food-lion/stores/va/locust_grove/973/", "opening_hours": "07:00-23:00", "brand": "Food Lion", "brand:wikidata": "Q1435950", "nsi_id": "foodlion-7818a5"}, "geometry": {"type": "Point", "coordinates": [-77.74659729003906, 38.3489990234375]}},
{"type": "Feature", "id": "hVKiUEM7FBKwSKU7qhsYIybb3e4=", "properties": {"ref": "2182", "@spider": "foodlion", "shop": "supermarket", "addr:full": "4401 Governor Printz Blvd", "addr:city": "Wilmington", "addr:state": "DE", "addr:postcode": "19802", "addr:country": "US", "name": "Food Lion Grocery Store of Wilmington", "phone": "302-762-2567", "website": "https://www.foodlion.com/content/food-lion/stores/de/wilmington/2182/", "opening_hours": "07:00-23:00", "brand": "Food Lion", "brand:wikidata": "Q1435950", "nsi_id": "foodlion-7818a5"}, "geometry": {"type": "Point", "coordinates": [-75.51029968261719, 39.753501892089844]}},
{"type": "Feature", "id": "jd0C_w25XtfsTn0DK3cawI6a7UY=", "properties": {"ref": "1167", "@spider": "foodlion", "shop": "supermarket", "addr:full": "4803 Gerrardstown Rd", "addr:city": "Inwood", "addr:state": "WV", "addr:postcode": "25428", "addr:country": "US", "name": "Food Lion Grocery Store of Inwood", "phone": "304-229-0464", "website": "https://www.foodlion.com/content/food-lion/stores/wv/inwood/1167/", "opening_hours": "07:00-23:00", "brand": "Food Lion", "brand:wikidata": "Q1435950", "nsi_id": "foodlion-7818a5"}, "geometry": {"type": "Point", "coordinates": [-78.043701171875, 39.36330032348633]}},
{"type": "Feature", "id": "OD22eKQDjYcDf9xbv8ZujTRBt5c=", "properties": {"ref": "1148", "@spider": "foodlion", "shop": "supermarket", "addr:full": "7424 Northumberland Hwy", "addr:city": "Heathsville", "addr:state": "VA", "addr:postcode": "22473", "addr:country": "US", "name": "Food Lion Grocery Store of Heathsville", "phone": "804-580-7326", "website": "https://www.foodlion.com/content/food-lion/stores/va/heathsville/1148/", "opening_hours": "07:00-22:00", "brand": "Food Lion", "brand:wikidata": "Q1435950", "nsi_id": "foodlion-7818a5"}, "geometry": {"type": "Point", "coordinates": [-76.4646987915039, 37.91490173339844]}},
{"type": "Feature", "id": "U_gOtl_A66oPz8_0k_gQZZTs3pY=", "properties": {"ref": "1424", "@spider": "foodlion", "shop": "supermarket", "addr:full": "6324 Patriot Hwy.", "addr:city": "Spotsylvania", "addr:state": "VA", "addr:postcode": "22551", "addr:country": "US", "name": "Food Lion Grocery Store of Spotsylvania", "phone": "540-582-7445", "website": "https://www.foodlion.com/content/food-lion/stores/va/spotsylvania/1424/", "opening_hours": "06:00-23:00", "brand": "Food Lion", "brand:wikidata": "Q1435950", "nsi_id": "foodlion-7818a5"}, "geometry": {"type": "Point", "coordinates": [-77.52339935302734, 38.13209915161133]}},
{"type": "Feature", "id": "HNV8Tf0z2ZFFBNJ1UJ8L20YGQxI=", "properties": {"ref": "1087", "@spider": "foodlion", "shop": "supermarket", "addr:full": "15432 Rogers Clark Blvd", "addr:city": "Bowling Green", "addr:state": "VA", "addr:postcode": "22427", "addr:country": "US", "name": "Food Lion Grocery Store of Bowling Green", "phone": "804-633-5543", "website": "https://www.foodlion.com/content/food-lion/stores/va/bowling_green/1087/", "opening_hours": "07:00-22:00", "brand": "Food Lion", "brand:wikidata": "Q1435950", "nsi_id": "foodlion-7818a5"}, "geometry": {"type": "Point", "coordinates": [-77.35859680175781, 38.04759979248047]}},
{"type": "Feature", "id": "69Ynkt2O0VuRramQbeYKn8ZJifQ=", "properties": {"ref": "875", "@spider": "foodlion", "shop": "supermarket", "addr:full": "28544 Dupont Blvd. Unit 8", "addr:city": "Millsboro", "addr:state": "DE", "addr:postcode": "19966", "addr:country": "US", "name": "Food Lion Grocery Store of Millsboro", "phone": "302-934-8880", "website": "https://www.foodlion.com/content/food-lion/stores/de/millsboro/875/", "opening_hours": "07:00-23:00", "brand": "Food Lion", "brand:wikidata": "Q1435950", "nsi_id": "foodlion-7818a5"}, "geometry": {"type": "Point", "coordinates": [-75.29329681396484, 38.581600189208984]}},
{"type": "Feature", "id": "3qTkTEitIm3Xj8dIrgQAcL0XaeM=", "properties": {"ref": "453", "@spider": "foodlion", "shop": "supermarket", "addr:full": "1856 Tappahannock Blvd", "addr:city": "Tappahannock", "addr:state": "VA", "addr:postcode": "22560", "addr:country": "US", "name": "Food Lion Grocery Store of Tappahannock", "phone": "804-443-5518", "website": "https://www.foodlion.com/content/food-lion/stores/va/tappahannock/453/", "opening_hours": "07:00-22:00", "brand": "Food Lion", "brand:wikidata": "Q1435950", "nsi_id": "foodlion-7818a5"}, "geometry": {"type": "Point", "coordinates": [-76.8666000366211, 37.901798248291016]}},
{"type": "Feature", "id": "kIrSjl77dEZ1He9Ux6R1fLIIpyE=", "properties": {"ref": "2164", "@spider": "foodlion", "shop": "supermarket", "addr:full": "3609 Philadelphia Pike", "addr:city": "Claymont", "addr:state": "DE", "addr:postcode": "19703", "addr:country": "US", "name": "Food Lion Grocery Store of Claymont", "phone": "302-798-3079", "website": "https://www.foodlion.com/content/food-lion/stores/de/claymont/2164/", "opening_hours": "07:00-23:00", "brand": "Food Lion", "brand:wikidata": "Q1435950", "nsi_id": "foodlion-7818a5"}, "geometry": {"type": "Point", "coordinates": [-75.45600128173828, 39.80440139770508]}},
{"type": "Feature", "id": "hsT0Go_ohCyfBBdms4dr65VeF6s=", "properties": {"ref": "2688", "@spider": "foodlion", "shop": "supermarket", "addr:full": "1 Jacksonville Road", "addr:city": "Crisfield", "addr:state": "MD", "addr:postcode": "21817", "addr:country": "US", "name": "Food Lion Grocery Store of Crisfield", "phone": "410-968-1321", "website": "https://www.foodlion.com/content/food-lion/stores/md/crisfield/2688/", "opening_hours": "07:00-23:00", "brand": "Food Lion", "brand:wikidata": "Q1435950", "nsi_id": "foodlion-7818a5"}, "geometry": {"type": "Point", "coordinates": [-75.84429931640625, 37.99190139770508]}},
{"type": "Feature", "id": "zM0PewCv7hAF4WmsxvWCxaizfZc=", "properties": {"ref": "2525", "@spider": "foodlion", "shop": "supermarket", "addr:full": "17501 Jefferson Davis Hwy", "addr:city": "Ruther Glen", "addr:state": "VA", "addr:postcode": "22546", "addr:country": "US", "name": "Food Lion Grocery Store of Ruther Glen", "phone": "804-448-1448", "website": "https://www.foodlion.com/content/food-lion/stores/va/ruther_glen/2525/", "opening_hours": "07:00-23:00", "brand": "Food Lion", "brand:wikidata": "Q1435950", "nsi_id": "foodlion-7818a5"}, "geometry": {"type": "Point", "coordinates": [-77.51419830322266, 38.01890182495117]}},
{"type": "Feature", "id": "BczrKp-CfDOkhbl0IRgcF1mzD6Y=", "properties": {"ref": "1206", "@spider": "foodlion", "shop": "supermarket", "addr:full": "32 N Dupont Hwy", "addr:city": "Selbyville", "addr:state": "DE", "addr:postcode": "19975", "addr:country": "US", "name": "Food Lion Grocery Store of Selbyville", "phone": "302-436-9557", "website": "https://www.foodlion.com/content/food-lion/stores/de/selbyville/1206/", "opening_hours": "07:00-23:00", "brand": "Food Lion", "brand:wikidata": "Q1435950", "nsi_id": "foodlion-7818a5"}, "geometry": {"type": "Point", "coordinates": [-75.23210144042969, 38.458900451660156]}},
{"type": "Feature", "id": "R4wD9gj41dlJcEZCD0azOnQ63VA=", "properties": {"ref": "2180", "@spider": "foodlion", "shop": "supermarket", "addr:full": "431 Loudon Rd.", "addr:city": "Mercersburg", "addr:state": "PA", "addr:postcode": "17236", "addr:country": "US", "name": "Food Lion Grocery Store of Mercersburg", "phone": "717-328-2312", "website": "https://www.foodlion.com/content/food-lion/stores/pa/mercersburg/2180/", "opening_hours": "07:00-23:00", "brand": "Food Lion", "brand:wikidata": "Q1435950", "nsi_id": "foodlion-7818a5"}, "geometry": {"type": "Point", "coordinates": [-77.90019989013672, 39.84130096435547]}},
{"type": "Feature", "id": "BrcpAs3B47_Gl3fGjjtiaVRcQN4=", "properties": {"ref": "886", "@spider": "foodlion", "shop": "supermarket", "addr:full": "219 Colloredo Blvd.", "addr:city": "Shelbyville", "addr:state": "TN", "addr:postcode": "37160", "addr:country": "US", "name": "Food Lion Grocery Store of Shelbyville", "phone": "931-685-4052", "website": "https://www.foodlion.com/content/food-lion/stores/tn/shelbyville/886/", "opening_hours": "07:00-22:00", "brand": "Food Lion", "brand:wikidata": "Q1435950", "nsi_id": "foodlion-7818a5"}, "geometry": {"type": "Point", "coordinates": [-86.46800231933594, 35.493099212646484]}},
{"type": "Feature", "id": "0XBiWSgHOeBWVTa--xfuG0T-xIw=", "properties": {"ref": "1067", "@spider": "foodlion", "shop": "supermarket", "addr:full": "411 W. Lincoln Street", "addr:city": "Tullahoma", "addr:state": "TN", "addr:postcode": "37388", "addr:country": "US", "name": "Food Lion Grocery Store of Tullahoma", "phone": "931-455-9145", "website": "https://www.foodlion.com/content/food-lion/stores/tn/tullahoma/1067/", "opening_hours": "06:00-23:00", "brand": "Food Lion", "brand:wikidata": "Q1435950", "nsi_id": "foodlion-7818a5"}, "geometry": {"type": "Point", "coordinates": [-86.21489715576172, 35.357601165771484]}},
{"type": "Feature", "id": "ZOagVNdwQsoC2HW7X1P3UkdllO8=", "properties": {"ref": "1354", "@spider": "foodlion", "shop": "supermarket", "addr:full": "5341 Main Street", "addr:city": "Spring Hill", "addr:state": "TN", "addr:postcode": "37174", "addr:country": "US", "name": "Food Lion Grocery Store of Spring Hill", "phone": "931-486-0806", "website": "https://www.foodlion.com/content/food-lion/stores/tn/spring_hill/1354/", "opening_hours": "07:00-22:00", "brand": "Food Lion", "brand:wikidata": "Q1435950", "nsi_id": "foodlion-7818a5"}, "geometry": {"type": "Point", "coordinates": [-86.94029998779297, 35.74480056762695]}},
{"type": "Feature", "id": "o7FKRq-PJv2kavSPl0Aq_7PGPXQ=", "properties": {"ref": "722", "@spider": "foodlion", "shop": "supermarket", "addr:full": "944 Hillsboro Blvd.", "addr:city": "Manchester", "addr:state": "TN", "addr:postcode": "37355", "addr:country": "US", "name": "Food Lion Grocery Store of Manchester", "phone": "931-728-0995", "website": "https://www.foodlion.com/content/food-lion/stores/tn/manchester/722/", "opening_hours": "06:30-23:00", "brand": "Food Lion", "brand:wikidata": "Q1435950", "nsi_id": "foodlion-7818a5"}, "geometry": {"type": "Point", "coordinates": [-86.07959747314453, 35.47330093383789]}},
{"type": "Feature", "id": "EmdIPaKx6Foyu_WeT2x613Wp0bU=", "properties": {"ref": "801", "@spider": "foodlion", "shop": "supermarket", "addr:full": "5021 Trotwood Ave, Ste 7", "addr:city": "Columbia", "addr:state": "TN", "addr:postcode": "38401-5806", "addr:country": "US", "name": "Food Lion Grocery Store of Columbia", "phone": "931-380-9183", "website": "https://www.foodlion.com/content/food-lion/stores/tn/columbia/801/", "opening_hours": "07:00-23:00", "brand": "Food Lion", "brand:wikidata": "Q1435950", "nsi_id": "foodlion-7818a5"}, "geometry": {"type": "Point", "coordinates": [-87.09770202636719, 35.58829879760742]}},
{"type": "Feature", "id": "_XYhXAIhzm-WrnAF5r8W-zbMUag=", "properties": {"ref": "1581", "@spider": "foodlion", "shop": "supermarket", "addr:full": "11459 Old Nashville Hwy", "addr:city": "Smyrna", "addr:state": "TN", "addr:postcode": "37167", "addr:country": "US", "name": "Food Lion Grocery Store of Smyrna", "phone": "615-220-0872", "website": "https://www.foodlion.com/content/food-lion/stores/tn/smyrna/1581/", "opening_hours": "06:00-23:00", "brand": "Food Lion", "brand:wikidata": "Q1435950", "nsi_id": "foodlion-7818a5"}, "geometry": {"type": "Point", "coordinates": [-86.51940155029297, 35.957000732421875]}},
{"type": "Feature", "id": "fZRrOCpLAbFL9tYyDWD7YjrHN94=", "properties": {"ref": "861", "@spider": "foodlion", "shop": "supermarket", "addr:full": "936 Richards Road", "addr:city": "Antioch", "addr:state": "TN", "addr:postcode": "37013", "addr:country": "US", "name": "Food Lion Grocery Store of Antioch", "phone": "615-333-5993", "website": "https://www.foodlion.com/content/food-lion/stores/tn/antioch/861/", "opening_hours": "07:00-22:00", "brand": "Food Lion", "brand:wikidata": "Q1435950", "nsi_id": "foodlion-7818a5"}, "geometry": {"type": "Point", "coordinates": [-86.68150329589844, 36.068199157714844]}},
{"type": "Feature", "id": "JYJSBfw0afxQ7gbhsjhcHinVg8g=", "properties": {"ref": "1617", "@spider": "foodlion", "shop": "supermarket", "addr:full": "3636 Bell Rd", "addr:city": "Nashville", "addr:state": "TN", "addr:postcode": "37214", "addr:country": "US", "name": "Food Lion Grocery Store of Nashville", "phone": "615-871-0280", "website": "https://www.foodlion.com/content/food-lion/stores/tn/nashville/1617/", "opening_hours": "06:30-23:00", "brand": "Food Lion", "brand:wikidata": "Q1435950", "nsi_id": "foodlion-7818a5"}, "geometry": {"type": "Point", "coordinates": [-86.62689971923828, 36.150699615478516]}},
{"type": "Feature", "id": "GQuwKcNoMBul3AG8yQojit30sPc=", "properties": {"ref": "1339", "@spider": "foodlion", "shop": "supermarket", "addr:full": "719 South Congress Blvd.", "addr:city": "Smithville", "addr:state": "TN", "addr:postcode": "37166", "addr:country": "US", "name": "Food Lion Grocery Store of Smithville", "phone": "615-597-1311", "website": "https://www.foodlion.com/content/food-lion/stores/tn/smithville/1339/", "opening_hours": "07:00-22:00", "brand": "Food Lion", "brand:wikidata": "Q1435950", "nsi_id": "foodlion-7818a5"}, "geometry": {"type": "Point", "coordinates": [-85.8136978149414, 35.952999114990234]}},
{"type": "Feature", "id": "6_QKrmDbLUCMBeNrV_TsUC66aVc=", "properties": {"ref": "693", "@spider": "foodlion", "shop": "supermarket", "addr:full": "314 Frey Street", "addr:city": "Ashland City", "addr:state": "TN", "addr:postcode": "37015", "addr:country": "US", "name": "Food Lion Grocery Store of Ashland City", "phone": "615-792-6493", "website": "https://www.foodlion.com/content/food-lion/stores/tn/ashland_city/693/", "opening_hours": "07:00-23:00", "brand": "Food Lion", "brand:wikidata": "Q1435950", "nsi_id": "foodlion-7818a5"}, "geometry": {"type": "Point", "coordinates": [-87.04820251464844, 36.29600143432617]}},
{"type": "Feature", "id": "-CiTKqvxWSYSqKx1uqVdD7FIpoU=", "properties": {"ref": "725", "@spider": "foodlion", "shop": "supermarket", "addr:full": "471 East Main St.", "addr:city": "Gallatin", "addr:state": "TN", "addr:postcode": "37066", "addr:country": "US", "name": "Food Lion Grocery Store of Gallatin", "phone": "615-452-8593", "website": "https://www.foodlion.com/content/food-lion/stores/tn/gallatin/725/", "brand": "Food Lion", "brand:wikidata": "Q1435950", "nsi_id": "foodlion-7818a5"}, "geometry": {"type": "Point", "coordinates": [-86.43620300292969, 36.39030075073242]}},
{"type": "Feature", "id": "eyPDdbzh1BSJwgddoS8fKiQwR4M=", "properties": {"ref": "1418", "@spider": "foodlion", "shop": "supermarket", "addr:full": "304 S. Broadway St.", "addr:city": "Portland", "addr:state": "TN", "addr:postcode": "37148", "addr:country": "US", "name": "Food Lion Grocery Store of Portland", "phone": "615-325-0665", "website": "https://www.foodlion.com/content/food-lion/stores/tn/portland/1418/", "brand": "Food Lion", "brand:wikidata": "Q1435950", "nsi_id": "foodlion-7818a5"}, "geometry": {"type": "Point", "coordinates": [-86.51409912109375, 36.5786018371582]}},
{"type": "Feature", "id": "ZaIIAHU6AJyCfiJCDGsj4VKMbXQ=", "properties": {"ref": "2149", "@spider": "foodlion", "shop": "supermarket", "addr:full": "377 W. Jackson St.", "addr:city": "Cookeville", "addr:state": "TN", "addr:postcode": "38501", "addr:country": "US", "name": "Food Lion Grocery Store of Cookeville", "phone": "931-528-8934", "website": "https://www.foodlion.com/content/food-lion/stores/tn/cookeville/2149/", "opening_hours": "07:00-23:00", "brand": "Food Lion", "brand:wikidata": "Q1435950", "nsi_id": "foodlion-7818a5"}, "geometry": {"type": "Point", "coordinates": [-85.5155029296875, 36.156700134277344]}},
{"type": "Feature", "id": "ZLy3cIsuQTEwNJRdOyUXthLNA0c=", "properties": {"ref": "995", "@spider": "foodlion", "shop": "supermarket", "addr:full": "1245 E. Spring St..", "addr:city": "Cookeville", "addr:state": "TN", "addr:postcode": "38501", "addr:country": "US", "name": "Food Lion Grocery Store of Cookeville", "phone": "931-528-3277", "website": "https://www.foodlion.com/content/food-lion/stores/tn/cookeville/995/", "opening_hours": "07:00-22:00", "brand": "Food Lion", "brand:wikidata": "Q1435950", "nsi_id": "foodlion-7818a5"}, "geometry": {"type": "Point", "coordinates": [-85.47859954833984, 36.1531982421875]}},
{"type": "Feature", "id": "TKJ8NmE4enc8RRhYzE9WN_80jxs=", "properties": {"ref": "874", "@spider": "foodlion", "shop": "supermarket", "addr:full": "2304 Madison Street", "addr:city": "Clarksville", "addr:state": "TN", "addr:postcode": "37041", "addr:country": "US", "name": "Food Lion Grocery Store of Clarksville", "phone": "931-553-4177", "website": "https://www.foodlion.com/content/food-lion/stores/tn/clarksville/874/", "opening_hours": "Su 08:00-23:00; Mo-Sa 07:00-23:00", "brand": "Food Lion", "brand:wikidata": "Q1435950", "nsi_id": "foodlion-7818a5"}, "geometry": {"type": "Point", "coordinates": [-87.2708969116211, 36.50699996948242]}},
{"type": "Feature", "id": "TiH8ht_FvWrgQAysOkETG7uY090=", "properties": {"ref": "1473", "@spider": "foodlion", "shop": "supermarket", "addr:full": "1764 Hwy 48", "addr:city": "Clarksville", "addr:state": "TN", "addr:postcode": "37040", "addr:country": "US", "name": "Food Lion Grocery Store of Clarksville", "phone": "931-920-5953", "website": "https://www.foodlion.com/content/food-lion/stores/tn/clarksville/1473/", "opening_hours": "07:00-23:00", "brand": "Food Lion", "brand:wikidata": "Q1435950", "nsi_id": "foodlion-7818a5"}, "geometry": {"type": "Point", "coordinates": [-87.37699890136719, 36.47819900512695]}},
{"type": "Feature", "id": "smYHjGo6NvxbmK3xW9uajsPn4Js=", "properties": {"ref": "634", "@spider": "foodlion", "shop": "supermarket", "addr:full": "4340 Ringgold Road", "addr:city": "East Ridge", "addr:state": "TN", "addr:postcode": "37412", "addr:country": "US", "name": "Food Lion Grocery Store of East Ridge", "phone": "423-629-0556", "website": "https://www.foodlion.com/content/food-lion/stores/tn/east_ridge/634/", "opening_hours": "06:30-12:00", "brand": "Food Lion", "brand:wikidata": "Q1435950", "nsi_id": "foodlion-7818a5"}, "geometry": {"type": "Point", "coordinates": [-85.23760223388672, 34.994598388671875]}},
{"type": "Feature", "id": "0b9vrpueIctF0m5StejV-fZ-ZEQ=", "properties": {"ref": "1563", "@spider": "foodlion", "shop": "supermarket", "addr:full": "13311 N Hwy 27 Suite 6", "addr:city": "Chickamauga", "addr:state": "GA", "addr:postcode": "30707", "addr:country": "US", "name": "Food Lion Grocery Store of Chickamauga", "phone": "706-375-7124", "website": "https://www.foodlion.com/content/food-lion/stores/ga/chickamauga/1563/", "opening_hours": "07:00-23:00", "brand": "Food Lion", "brand:wikidata": "Q1435950", "nsi_id": "foodlion-7818a5"}, "geometry": {"type": "Point", "coordinates": [-85.26959991455078, 34.888999938964844]}},
{"type": "Feature", "id": "VTZ_bSuOb9xry0hu3Eslxfrztgc=", "properties": {"ref": "1233", "@spider": "foodlion", "shop": "supermarket", "addr:full": "1224 Gallatin Road", "addr:city": "Scottsville", "addr:state": "KY", "addr:postcode": "42164", "addr:country": "US", "name": "Food Lion Grocery Store of Scottsville", "phone": "270-237-9127", "website": "https://www.foodlion.com/content/food-lion/stores/ky/scottsville/1233/", "opening_hours": "07:00-23:00", "brand": "Food Lion", "brand:wikidata": "Q1435950", "nsi_id": "foodlion-7818a5"}, "geometry": {"type": "Point", "coordinates": [-86.20610046386719, 36.74250030517578]}},
{"type": "Feature", "id": "u65jHI81fRgQ7QYSRNZbmhwedUM=", "properties": {"ref": "2543", "@spider": "foodlion", "shop": "supermarket", "addr:full": "95 Poplar Springs Road", "addr:city": "Ringgold", "addr:state": "GA", "addr:postcode": "30736", "addr:country": "US", "name": "Food Lion Grocery Store of Ringgold", "phone": "706-935-5833", "website": "https://www.foodlion.com/content/food-lion/stores/ga/ringgold/2543/", "opening_hours": "07:00-23:00", "brand": "Food Lion", "brand:wikidata": "Q1435950", "nsi_id": "foodlion-7818a5"}, "geometry": {"type": "Point", "coordinates": [-85.1321029663086, 34.90520095825195]}},
{"type": "Feature", "id": "U0fCCbR_X3CD1DzDJ_YQKZHP6mQ=", "properties": {"ref": "1381", "@spider": "foodlion", "shop": "supermarket", "addr:full": "400 Market Sq Plaza", "addr:city": "Livingston", "addr:state": "TN", "addr:postcode": "38570", "addr:country": "US", "name": "Food Lion Grocery Store of Livingston", "phone": "931-823-8990", "website": "https://www.foodlion.com/content/food-lion/stores/tn/livingston/1381/", "opening_hours": "07:00-23:00", "brand": "Food Lion", "brand:wikidata": "Q1435950", "nsi_id": "foodlion-7818a5"}, "geometry": {"type": "Point", "coordinates": [-85.32150268554688, 36.39670181274414]}},
{"type": "Feature", "id": "6SCsfcBwaIhDGhN2nkZJVabDT8Q=", "properties": {"ref": "941", "@spider": "foodlion", "shop": "supermarket", "addr:full": "125 Stuart Road", "addr:city": "Cleveland", "addr:state": "TN", "addr:postcode": "37312", "addr:country": "US", "name": "Food Lion Grocery Store of Cleveland", "phone": "423-476-2941", "website": "https://www.foodlion.com/content/food-lion/stores/tn/cleveland/941/", "opening_hours": "07:00-23:00", "brand": "Food Lion", "brand:wikidata": "Q1435950", "nsi_id": "foodlion-7818a5"}, "geometry": {"type": "Point", "coordinates": [-84.84369659423828, 35.200801849365234]}},
{"type": "Feature", "id": "sRJQxyhLQZutWwBXdeuAGt7RzLY=", "properties": {"ref": "1695", "@spider": "foodlion", "shop": "supermarket", "addr:full": "2709 Chattanooga Rd", "addr:city": "Rocky Face", "addr:state": "GA", "addr:postcode": "30740", "addr:country": "US", "name": "Food Lion Grocery Store of Rocky Face", "phone": "706-259-8500", "website": "https://www.foodlion.com/content/food-lion/stores/ga/rocky_face/1695/", "opening_hours": "07:00-23:00", "brand": "Food Lion", "brand:wikidata": "Q1435950", "nsi_id": "foodlion-7818a5"}, "geometry": {"type": "Point", "coordinates": [-85.03130340576172, 34.80609893798828]}},
{"type": "Feature", "id": "wsd9VtPIOuF-I_HbZthCoS6jh4o=", "properties": {"ref": "1603", "@spider": "foodlion", "shop": "supermarket", "addr:full": "3925 Cleveland Rd", "addr:city": "Dalton", "addr:state": "GA", "addr:postcode": "30721", "addr:country": "US", "name": "Food Lion Grocery Store of Dalton", "phone": "706-694-2470", "website": "https://www.foodlion.com/content/food-lion/stores/ga/dalton/1603/", "opening_hours": "06:00-23:00", "brand": "Food Lion", "brand:wikidata": "Q1435950", "nsi_id": "foodlion-7818a5"}, "geometry": {"type": "Point", "coordinates": [-84.9478988647461, 34.89659881591797]}},
{"type": "Feature", "id": "TKBBNSIcy0XtzTXRH1fmjdyY9Js=", "properties": {"ref": "1571", "@spider": "foodlion", "shop": "supermarket", "addr:full": "4305 Canton Pike", "addr:city": "Hopkinsville", "addr:state": "KY", "addr:postcode": "42240", "addr:country": "US", "name": "Food Lion Grocery Store of Hopkinsville", "phone": "270-889-5364", "website": "https://www.foodlion.com/content/food-lion/stores/ky/hopkinsville/1571/", "opening_hours": "07:00-23:00", "brand": "Food Lion", "brand:wikidata": "Q1435950", "nsi_id": "foodlion-7818a5"}, "geometry": {"type": "Point", "coordinates": [-87.53890228271484, 36.860599517822266]}},
{"type": "Feature", "id": "Rz6EgsLUbGEnB3a3EJNLaXgxRsI=", "properties": {"ref": "492", "@spider": "foodlion", "shop": "supermarket", "addr:full": "214 S L Rogers Wells Blvd", "addr:city": "Glasgow", "addr:state": "KY", "addr:postcode": "42141-1129", "addr:country": "US", "name": "Food Lion Grocery Store of Glasgow", "phone": "270-651-1718", "website": "https://www.foodlion.com/content/food-lion/stores/ky/glasgow/492/", "opening_hours": "07:00-23:00", "brand": "Food Lion", "brand:wikidata": "Q1435950", "nsi_id": "foodlion-7818a5"}, "geometry": {"type": "Point", "coordinates": [-85.931396484375, 36.998199462890625]}},
{"type": "Feature", "id": "LB1m5XcsnK1VT7BgAORPuiRtEik=", "properties": {"ref": "1288", "@spider": "foodlion", "shop": "supermarket", "addr:full": "3365 Martha Berry Hwy NW", "addr:city": "Rome", "addr:state": "GA", "addr:postcode": "30165", "addr:country": "US", "name": "Food Lion Grocery Store of Rome", "phone": "706-232-8553", "website": "https://www.foodlion.com/content/food-lion/stores/ga/rome/1288/", "opening_hours": "07:00-23:00", "brand": "Food Lion", "brand:wikidata": "Q1435950", "nsi_id": "foodlion-7818a5"}, "geometry": {"type": "Point", "coordinates": [-85.17369842529297, 34.318599700927734]}},
{"type": "Feature", "id": "F4EDBPGZzPj6i6wkYcI1SaM9AfE=", "properties": {"ref": "2615", "@spider": "foodlion", "shop": "supermarket", "addr:full": "1512 Red Bud Rd.", "addr:city": "Calhoun", "addr:state": "GA", "addr:postcode": "30701", "addr:country": "US", "name": "Food Lion Grocery Store of Calhoun", "phone": "706-625-3906", "website": "https://www.foodlion.com/content/food-lion/stores/ga/calhoun/2615/", "opening_hours": "07:00-23:00", "brand": "Food Lion", "brand:wikidata": "Q1435950", "nsi_id": "foodlion-7818a5"}, "geometry": {"type": "Point", "coordinates": [-84.91539764404297, 34.51259994506836]}},
{"type": "Feature", "id": "ea5Mjkh8AOH2oQ8PAjaXG-7ybSg=", "properties": {"ref": "1696", "@spider": "foodlion", "shop": "supermarket", "addr:full": "7409 Adairsville Hwy", "addr:city": "Adairsville", "addr:state": "GA", "addr:postcode": "30103", "addr:country": "US", "name": "Food Lion Grocery Store of Adairsville", "phone": "770-877-9301", "website": "https://www.foodlion.com/content/food-lion/stores/ga/adairsville/1696/", "opening_hours": "07:00-23:00", "brand": "Food Lion", "brand:wikidata": "Q1435950", "nsi_id": "foodlion-7818a5"}, "geometry": {"type": "Point", "coordinates": [-84.93150329589844, 34.378299713134766]}},
{"type": "Feature", "id": "j_2QivUe4YknYMsbR_gyqH8dpio=", "properties": {"ref": "2128", "@spider": "foodlion", "shop": "supermarket", "addr:full": "101 Cheeyo Way", "addr:city": "Loudon", "addr:state": "TN", "addr:postcode": "37774", "addr:country": "US", "name": "Food Lion Grocery Store of Loudon", "phone": "865-408-1703", "website": "https://www.foodlion.com/content/food-lion/stores/tn/loudon/2128/", "opening_hours": "07:00-22:00", "brand": "Food Lion", "brand:wikidata": "Q1435950", "nsi_id": "foodlion-7818a5"}, "geometry": {"type": "Point", "coordinates": [-84.2886962890625, 35.66239929199219]}},
{"type": "Feature", "id": "lpl3PtB5ZSuPXl-HdI043gGJKxs=", "properties": {"ref": "907", "@spider": "foodlion", "shop": "supermarket", "addr:full": "130 Fowler St.", "addr:city": "Ellijay", "addr:state": "GA", "addr:postcode": "30540", "addr:country": "US", "name": "Food Lion Grocery Store of Ellijay", "phone": "706-276-6300", "website": "https://www.foodlion.com/content/food-lion/stores/ga/ellijay/907/", "opening_hours": "07:00-23:00", "brand": "Food Lion", "brand:wikidata": "Q1435950", "nsi_id": "foodlion-7818a5"}, "geometry": {"type": "Point", "coordinates": [-84.47630310058594, 34.68439865112305]}},
{"type": "Feature", "id": "WBlhVK6TXlw4ttvDLnN71qmf470=", "properties": {"ref": "1437", "@spider": "foodlion", "shop": "supermarket", "addr:full": "4295 Old Hwy 76", "addr:city": "Blue Ridge", "addr:state": "GA", "addr:postcode": "30513", "addr:country": "US", "name": "Food Lion Grocery Store of Blue Ridge", "phone": "706-258-2223", "website": "https://www.foodlion.com/content/food-lion/stores/ga/blue_ridge/1437/", "opening_hours": "07:00-23:00", "brand": "Food Lion", "brand:wikidata": "Q1435950", "nsi_id": "foodlion-7818a5"}, "geometry": {"type": "Point", "coordinates": [-84.30840301513672, 34.87350082397461]}},
{"type": "Feature", "id": "YJu2hD0Kxi4ZKxgaLW8V6KUkbok=", "properties": {"ref": "1362", "@spider": "foodlion", "shop": "supermarket", "addr:full": "1707 E. Lamar Alexander Pkwy", "addr:city": "Maryville", "addr:state": "TN", "addr:postcode": "37804", "addr:country": "US", "name": "Food Lion Grocery Store of Maryville", "phone": "865-977-1733", "website": "https://www.foodlion.com/content/food-lion/stores/tn/maryville/1362/", "opening_hours": "07:00-23:00", "brand": "Food Lion", "brand:wikidata": "Q1435950", "nsi_id": "foodlion-7818a5"}, "geometry": {"type": "Point", "coordinates": [-83.9480972290039, 35.75630187988281]}},
{"type": "Feature", "id": "ccVCiXQFWwqVFIRoOBR8vjf6v-o=", "properties": {"ref": "1467", "@spider": "foodlion", "shop": "supermarket", "addr:full": "2917 Old Knoxville Hwy", "addr:city": "Maryville", "addr:state": "TN", "addr:postcode": "37804", "addr:country": "US", "name": "Food Lion Grocery Store of Maryville", "phone": "865-982-3773", "website": "https://www.foodlion.com/content/food-lion/stores/tn/maryville/1467/", "opening_hours": "Su 08:00-23:00; Mo-Sa 07:00-23:00", "brand": "Food Lion", "brand:wikidata": "Q1435950", "nsi_id": "foodlion-7818a5"}, "geometry": {"type": "Point", "coordinates": [-83.94450378417969, 35.80149841308594]}},
{"type": "Feature", "id": "04Z5v73fGdZBVubPfra3vAR-kH0=", "properties": {"ref": "1055", "@spider": "foodlion", "shop": "supermarket", "addr:full": "1707 East Central Ave", "addr:city": "La Follette", "addr:state": "TN", "addr:postcode": "37766", "addr:country": "US", "name": "Food Lion Grocery Store of La Follette", "phone": "423-562-3405", "website": "https://www.foodlion.com/content/food-lion/stores/tn/la_follette/1055/", "opening_hours": "07:00-23:00", "brand": "Food Lion", "brand:wikidata": "Q1435950", "nsi_id": "foodlion-7818a5"}, "geometry": {"type": "Point", "coordinates": [-84.09459686279297, 36.393798828125]}},
{"type": "Feature", "id": "m7Ic5iSo9iGA_s2_baVrSqBtJi8=", "properties": {"ref": "2132", "@spider": "foodlion", "shop": "supermarket", "addr:full": "59 Main St. Suite 100", "addr:city": "Dawsonville", "addr:state": "GA", "addr:postcode": "30534", "addr:country": "US", "name": "Food Lion Grocery Store of Dawsonville", "phone": "706-344-3979", "website": "https://www.foodlion.com/content/food-lion/stores/ga/dawsonville/2132/", "opening_hours": "07:00-23:00", "brand": "Food Lion", "brand:wikidata": "Q1435950", "nsi_id": "foodlion-7818a5"}, "geometry": {"type": "Point", "coordinates": [-84.11190032958984, 34.417598724365234]}},
{"type": "Feature", "id": "hDCrn5tGncmQk_xCIfDeilDwUoA=", "properties": {"ref": "1587", "@spider": "foodlion", "shop": "supermarket", "addr:full": "16 Cherokee Crossing Rd Ste 1", "addr:city": "Whittier", "addr:state": "NC", "addr:postcode": "28789", "addr:country": "US", "name": "Food Lion Grocery Store of Whittier", "phone": "828-497-4743", "website": "https://www.foodlion.com/content/food-lion/stores/nc/whittier/1587/", "opening_hours": "07:00-23:00", "brand": "Food Lion", "brand:wikidata": "Q1435950", "nsi_id": "foodlion-7818a5"}, "geometry": {"type": "Point", "coordinates": [-83.314697265625, 35.46310043334961]}},
{"type": "Feature", "id": "383h1zjfegOms78o47sulkD_EeI=", "properties": {"ref": "1175", "@spider": "foodlion", "shop": "supermarket", "addr:full": "73 Asheville Road", "addr:city": "Sylva", "addr:state": "NC", "addr:postcode": "28779", "addr:country": "US", "name": "Food Lion Grocery Store of Sylva", "phone": "828-586-8221", "website": "https://www.foodlion.com/content/food-lion/stores/nc/sylva/1175/", "opening_hours": "07:00-23:00", "brand": "Food Lion", "brand:wikidata": "Q1435950", "nsi_id": "foodlion-7818a5"}, "geometry": {"type": "Point", "coordinates": [-83.20439910888672, 35.38240051269531]}},
{"type": "Feature", "id": "Y7ocRBpnOXV95jkj9SclBZ-C6o0=", "properties": {"ref": "957", "@spider": "foodlion", "shop": "supermarket", "addr:full": "179 Paragon Pkwy", "addr:city": "Clyde", "addr:state": "NC", "addr:postcode": "28721", "addr:country": "US", "name": "Food Lion Grocery Store of Clyde", "phone": "828-456-4661", "website": "https://www.foodlion.com/content/food-lion/stores/nc/clyde/957/", "opening_hours": "07:00-23:00", "brand": "Food Lion", "brand:wikidata": "Q1435950", "nsi_id": "foodlion-7818a5"}, "geometry": {"type": "Point", "coordinates": [-82.95449829101562, 35.527000427246094]}},
{"type": "Feature", "id": "hFIN-vewRKxhTAUgV7_QDxr4gJc=", "properties": {"ref": "1170", "@spider": "foodlion", "shop": "supermarket", "addr:full": "1 New Clyde Hwy", "addr:city": "Canton", "addr:state": "NC", "addr:postcode": "28716", "addr:country": "US", "name": "Food Lion Grocery Store of Canton", "phone": "828-648-1550", "website": "https://www.foodlion.com/content/food-lion/stores/nc/canton/1170/", "opening_hours": "07:00-23:00", "brand": "Food Lion", "brand:wikidata": "Q1435950", "nsi_id": "foodlion-7818a5"}, "geometry": {"type": "Point", "coordinates": [-82.85040283203125, 35.53120040893555]}},
{"type": "Feature", "id": "bE0JpmSuEHLh5x_xnrgjBQHtsc4=", "properties": {"ref": "2855", "@spider": "foodlion", "shop": "supermarket", "addr:full": "191 Bilo Plz.", "addr:city": "Seneca", "addr:state": "SC", "addr:postcode": "29678", "addr:country": "US", "name": "Food Lion Grocery Store of Seneca", "phone": "864-888-1635", "website": "https://www.foodlion.com/content/food-lion/stores/sc/seneca/2855/", "opening_hours": "07:00-23:00", "brand": "Food Lion", "brand:wikidata": "Q1435950", "nsi_id": "foodlion-7818a5"}, "geometry": {"type": "Point", "coordinates": [-82.98365020751953, 34.690467834472656]}},
{"type": "Feature", "id": "CYdaRzQgmr-JZ3BTzA6mHH76D94=", "properties": {"ref": "2841", "@spider": "foodlion", "shop": "supermarket", "addr:full": "1041 Franklin Springs St.", "addr:city": "Royston", "addr:state": "GA", "addr:postcode": "30662", "addr:country": "US", "name": "Food Lion Grocery Store of Royston", "phone": "706-245-6345", "website": "https://www.foodlion.com/content/food-lion/stores/ga/royston/2841/", "opening_hours": "07:00-23:00", "brand": "Food Lion", "brand:wikidata": "Q1435950", "nsi_id": "foodlion-7818a5"}, "geometry": {"type": "Point", "coordinates": [-83.12809753417969, 34.283512115478516]}},
{"type": "Feature", "id": "XUryDc4bJF3Ux3xHIjNmeSQps2s=", "properties": {"ref": "2209", "@spider": "foodlion", "shop": "supermarket", "addr:full": "1085-D Old Clemson Hwy", "addr:city": "Seneca", "addr:state": "SC", "addr:postcode": "29672", "addr:country": "US", "name": "Food Lion Grocery Store of Seneca", "phone": "864-654-1741", "website": "https://www.foodlion.com/content/food-lion/stores/sc/seneca/2209/", "opening_hours": "07:00-23:00", "brand": "Food Lion", "brand:wikidata": "Q1435950", "nsi_id": "foodlion-7818a5"}, "geometry": {"type": "Point", "coordinates": [-82.8772964477539, 34.69670104980469]}},
{"type": "Feature", "id": "hb-J4EeM3Tukp1W8VWvctlPunCQ=", "properties": {"ref": "2588", "@spider": "foodlion", "shop": "supermarket", "addr:full": "100 College Station Dr", "addr:city": "Brevard", "addr:state": "NC", "addr:postcode": "28712", "addr:country": "US", "name": "Food Lion Grocery Store of Brevard", "phone": "828-884-4532", "website": "https://www.foodlion.com/content/food-lion/stores/nc/brevard/2588/", "opening_hours": "07:00-23:00", "brand": "Food Lion", "brand:wikidata": "Q1435950", "nsi_id": "foodlion-7818a5"}, "geometry": {"type": "Point", "coordinates": [-82.73190307617188, 35.239200592041016]}},
{"type": "Feature", "id": "SJjyQsy9RjvGT_bpkK8Arqoa9i4=", "properties": {"ref": "412", "@spider": "foodlion", "shop": "supermarket", "addr:full": "35 Westridge Market Pl", "addr:city": "Candler", "addr:state": "NC", "addr:postcode": "28715-9174", "addr:country": "US", "name": "Food Lion Grocery Store of Candler", "phone": "828-667-8785", "website": "https://www.foodlion.com/content/food-lion/stores/nc/candler/412/", "opening_hours": "07:00-23:00", "brand": "Food Lion", "brand:wikidata": "Q1435950", "nsi_id": "foodlion-7818a5"}, "geometry": {"type": "Point", "coordinates": [-82.65699768066406, 35.54779815673828]}},
{"type": "Feature", "id": "4XWfafhaQtcJWldjOc9A8NP9rcw=", "properties": {"ref": "2861", "@spider": "foodlion", "shop": "supermarket", "addr:full": "7709 Highway 76", "addr:city": "Pendleton", "addr:state": "SC", "addr:postcode": "29670", "addr:country": "US", "name": "Food Lion Grocery Store of Pendleton", "phone": "864-646-7754", "website": "https://www.foodlion.com/content/food-lion/stores/sc/pendleton/2861/", "opening_hours": "07:00-23:00", "brand": "Food Lion", "brand:wikidata": "Q1435950", "nsi_id": "foodlion-7818a5"}, "geometry": {"type": "Point", "coordinates": [-82.78623962402344, 34.634456634521484]}},
{"type": "Feature", "id": "kLpaou5MHIgpdKZU6yUwh4p9GLw=", "properties": {"ref": "2869", "@spider": "foodlion", "shop": "supermarket", "addr:full": "4405 SC Hwy 24", "addr:city": "Anderson", "addr:state": "SC", "addr:postcode": "29626", "addr:country": "US", "name": "Food Lion Grocery Store of Anderson", "phone": "864-226-7776", "website": "https://www.foodlion.com/content/food-lion/stores/sc/anderson/2869/", "opening_hours": "07:00-23:00", "brand": "Food Lion", "brand:wikidata": "Q1435950", "nsi_id": "foodlion-7818a5"}, "geometry": {"type": "Point", "coordinates": [-82.76219940185547, 34.51070022583008]}},
{"type": "Feature", "id": "j3OBUtTdFHtuk3pocNAGvcbzDHQ=", "properties": {"ref": "1497", "@spider": "foodlion", "shop": "supermarket", "addr:full": "701 Hwy 11 West", "addr:city": "Church Hill", "addr:state": "TN", "addr:postcode": "37642", "addr:country": "US", "name": "Food Lion Grocery Store of Church Hill", "phone": "423-357-3323", "website": "https://www.foodlion.com/content/food-lion/stores/tn/church_hill/1497/", "opening_hours": "07:00-23:00", "brand": "Food Lion", "brand:wikidata": "Q1435950", "nsi_id": "foodlion-7818a5"}, "geometry": {"type": "Point", "coordinates": [-82.71179962158203, 36.518798828125]}},
{"type": "Feature", "id": "ApN9PHuOg0uiM2iaScoG-4HKIFY=", "properties": {"ref": "2208", "@spider": "foodlion", "shop": "supermarket", "addr:full": "3750 Hwy 81 North", "addr:city": "Anderson", "addr:state": "SC", "addr:postcode": "29621", "addr:country": "US", "name": "Food Lion Grocery Store of Anderson", "phone": "864-224-4036", "website": "https://www.foodlion.com/content/food-lion/stores/sc/anderson/2208/", "opening_hours": "07:00-23:00", "brand": "Food Lion", "brand:wikidata": "Q1435950", "nsi_id": "foodlion-7818a5"}, "geometry": {"type": "Point", "coordinates": [-82.61470031738281, 34.59809875488281]}},
{"type": "Feature", "id": "C8L-DEZ5WiSFPWr4VMDV3Bf5C9g=", "properties": {"ref": "2828", "@spider": "foodlion", "shop": "supermarket", "addr:full": "2901 S. Main St.", "addr:city": "Anderson", "addr:state": "SC", "addr:postcode": "29624", "addr:country": "US", "name": "Food Lion Grocery Store of Anderson", "phone": "864-296-6536", "website": "https://www.foodlion.com/content/food-lion/stores/sc/anderson/2828/", "opening_hours": "07:00-23:00", "brand": "Food Lion", "brand:wikidata": "Q1435950", "nsi_id": "foodlion-7818a5"}, "geometry": {"type": "Point", "coordinates": [-82.6503677368164, 34.473167419433594]}},
{"type": "Feature", "id": "Pb2ydSZ-Xk6325LQs3zS6gtO-vY=", "properties": {"ref": "1056", "@spider": "foodlion", "shop": "supermarket", "addr:full": "1350 Charlotte Hwy", "addr:city": "Fairview", "addr:state": "NC", "addr:postcode": "28730", "addr:country": "US", "name": "Food Lion Grocery Store of Fairview", "phone": "828-628-2283", "website": "https://www.foodlion.com/content/food-lion/stores/nc/fairview/1056/", "opening_hours": "07:00-23:00", "brand": "Food Lion", "brand:wikidata": "Q1435950", "nsi_id": "foodlion-7818a5"}, "geometry": {"type": "Point", "coordinates": [-82.41120147705078, 35.52510070800781]}},
{"type": "Feature", "id": "FTv17wmgDf0_JjZxfr0APITX9Ok=", "properties": {"ref": "2853", "@spider": "foodlion", "shop": "supermarket", "addr:full": "15 Farrs Bridge Rd.", "addr:city": "Greenville", "addr:state": "SC", "addr:postcode": "29617", "addr:country": "US", "name": "Food Lion Grocery Store of Greenville", "phone": "864-246-1528", "website": "https://www.foodlion.com/content/food-lion/stores/sc/greenville/2853/", "opening_hours": "07:00-23:00", "brand": "Food Lion", "brand:wikidata": "Q1435950", "nsi_id": "foodlion-7818a5"}, "geometry": {"type": "Point", "coordinates": [-82.45661926269531, 34.88222885131836]}},
{"type": "Feature", "id": "CGH6kO4-4eBx2GP8v5VfsbTTNu4=", "properties": {"ref": "308", "@spider": "foodlion", "shop": "supermarket", "addr:full": "241 Gateway Plaza Ste 104", "addr:city": "Gate City", "addr:state": "VA", "addr:postcode": "24251", "addr:country": "US", "name": "Food Lion Grocery Store of Gate City", "phone": "276-386-6650", "website": "https://www.foodlion.com/content/food-lion/stores/va/gate_city/308/", "opening_hours": "07:00-23:00", "brand": "Food Lion", "brand:wikidata": "Q1435950", "nsi_id": "foodlion-7818a5"}, "geometry": {"type": "Point", "coordinates": [-82.56790161132812, 36.636600494384766]}},
{"type": "Feature", "id": "1HCjAtBrjOewmuf1XVP6lndfHYg=", "properties": {"ref": "2868", "@spider": "foodlion", "shop": "supermarket", "addr:full": "148 Walnut Ln.", "addr:city": "Travelers Rest", "addr:state": "SC", "addr:postcode": "29690", "addr:country": "US", "name": "Food Lion Grocery Store of Travelers Rest", "phone": "864-834-0575", "website": "https://www.foodlion.com/content/food-lion/stores/sc/travelers_rest/2868/", "opening_hours": "07:00-23:00", "brand": "Food Lion", "brand:wikidata": "Q1435950", "nsi_id": "foodlion-7818a5"}, "geometry": {"type": "Point", "coordinates": [-82.42680358886719, 34.9732666015625]}},
{"type": "Feature", "id": "BsLNuy9DopgNk15VSsT9M2NQr08=", "properties": {"ref": "323", "@spider": "foodlion", "shop": "supermarket", "addr:full": "915 N. Main Street", "addr:city": "Erwin", "addr:state": "TN", "addr:postcode": "37650", "addr:country": "US", "name": "Food Lion Grocery Store of Erwin", "phone": "423-743-7118", "website": "https://www.foodlion.com/content/food-lion/stores/tn/erwin/323/", "opening_hours": "07:00-23:00", "brand": "Food Lion", "brand:wikidata": "Q1435950", "nsi_id": "foodlion-7818a5"}, "geometry": {"type": "Point", "coordinates": [-82.40809631347656, 36.154701232910156]}},
{"type": "Feature", "id": "g-g700fHZSq5Xp5wT8lkLrpY-vo=", "properties": {"ref": "2842", "@spider": "foodlion", "shop": "supermarket", "addr:full": "6 K Mart Plz", "addr:city": "Greenville", "addr:state": "SC", "addr:postcode": "29605", "addr:country": "US", "name": "Food Lion Grocery Store of Greenville", "phone": "864-370-2710", "website": "https://www.foodlion.com/content/food-lion/stores/sc/greenville/2842/", "opening_hours": "07:00-23:00", "brand": "Food Lion", "brand:wikidata": "Q1435950", "nsi_id": "foodlion-7818a5"}, "geometry": {"type": "Point", "coordinates": [-82.42009735107422, 34.819091796875]}},
{"type": "Feature", "id": "TGkR9efsIOukdFmpRRyNMabj9EU=", "properties": {"ref": "2816", "@spider": "foodlion", "shop": "supermarket", "addr:full": "330 Lebby St.", "addr:city": "Pelzer", "addr:state": "SC", "addr:postcode": "29669", "addr:country": "US", "name": "Food Lion Grocery Store of Pelzer", "phone": "864-947-9214", "website": "https://www.foodlion.com/content/food-lion/stores/sc/pelzer/2816/", "opening_hours": "07:00-23:00", "brand": "Food Lion", "brand:wikidata": "Q1435950", "nsi_id": "foodlion-7818a5"}, "geometry": {"type": "Point", "coordinates": [-82.46410369873047, 34.644412994384766]}},
{"type": "Feature", "id": "JWyitRuJMusNy0-AFxHyobD_hCg=", "properties": {"ref": "218", "@spider": "foodlion", "shop": "supermarket", "addr:full": "3120 Bristol Highway", "addr:city": "Johnson City", "addr:state": "TN", "addr:postcode": "37601", "addr:country": "US", "name": "Food Lion Grocery Store of Johnson City", "phone": "423-282-1110", "website": "https://www.foodlion.com/content/food-lion/stores/tn/johnson_city/218/", "opening_hours": "07:00-23:00", "brand": "Food Lion", "brand:wikidata": "Q1435950", "nsi_id": "foodlion-7818a5"}, "geometry": {"type": "Point", "coordinates": [-82.38169860839844, 36.36259841918945]}},
{"type": "Feature", "id": "viC7avAKzV0EIOEqxfpNuNSz7lY=", "properties": {"ref": "2644", "@spider": "foodlion", "shop": "supermarket", "addr:full": "8024 Augusta Rd.", "addr:city": "Piedmont", "addr:state": "SC", "addr:postcode": "29673", "addr:country": "US", "name": "Food Lion Grocery Store of Piedmont", "phone": "864-277-0538", "website": "https://www.foodlion.com/content/food-lion/stores/sc/piedmont/2644/", "opening_hours": "07:00-23:00", "brand": "Food Lion", "brand:wikidata": "Q1435950", "nsi_id": "foodlion-7818a5"}, "geometry": {"type": "Point", "coordinates": [-82.39900207519531, 34.695701599121094]}},
{"type": "Feature", "id": "s7Lxeljhfk_-7hAn46tUAgtPaRo=", "properties": {"ref": "2829", "@spider": "foodlion", "shop": "supermarket", "addr:full": "101 Verdae Blvd., Ste. 1200", "addr:city": "Greenville", "addr:state": "SC", "addr:postcode": "29607", "addr:country": "US", "name": "Food Lion Grocery Store of Greenville", "phone": "864-627-4490", "website": "https://www.foodlion.com/content/food-lion/stores/sc/greenville/2829/", "opening_hours": "07:00-23:00", "brand": "Food Lion", "brand:wikidata": "Q1435950", "nsi_id": "foodlion-7818a5"}, "geometry": {"type": "Point", "coordinates": [-82.33995056152344, 34.8206672668457]}},
{"type": "Feature", "id": "6QLx9wRY89t90MgByTSN9IB3x8Q=", "properties": {"ref": "2854", "@spider": "foodlion", "shop": "supermarket", "addr:full": "2460 Hudson Rd.", "addr:city": "Greer", "addr:state": "SC", "addr:postcode": "29650", "addr:country": "US", "name": "Food Lion Grocery Store of Greer", "phone": "864-268-9811", "website": "https://www.foodlion.com/content/food-lion/stores/sc/greer/2854/", "opening_hours": "07:00-23:00", "brand": "Food Lion", "brand:wikidata": "Q1435950", "nsi_id": "foodlion-7818a5"}, "geometry": {"type": "Point", "coordinates": [-82.2895736694336, 34.895267486572266]}},
{"type": "Feature", "id": "V7Iqw6L-hmPyqB5AJBWJt9xHjqk=", "properties": {"ref": "1", "@spider": "foodlion", "shop": "supermarket", "addr:full": "123 Mahaley Ave", "addr:city": "Salisbury", "addr:state": "NC", "addr:postcode": "28144", "addr:country": "US", "name": "Food Lion Grocery Store of Salisbury", "phone": "704-639-9240", "website": "https://www.foodlion.com/content/food-lion/stores/nc/salisbury/1/", "opening_hours": "07:00-23:00", "brand": "Food Lion", "brand:wikidata": "Q1435950", "nsi_id": "foodlion-7818a5"}, "geometry": {"type": "Point", "coordinates": [-80.48090362548828, 35.68439865112305]}},
{"type": "Feature", "id": "XQa1wEvXLkhB1c9hdBNSeak6UCY=", "properties": {"ref": "10", "@spider": "foodlion", "shop": "supermarket", "addr:full": "525 Jake Alexander Blvd W", "addr:city": "Salisbury", "addr:state": "NC", "addr:postcode": "28147", "addr:country": "US", "name": "Food Lion Grocery Store of Salisbury", "phone": "704-636-7615", "website": "https://www.foodlion.com/content/food-lion/stores/nc/salisbury/10/", "opening_hours": "06:00-23:00", "brand": "Food Lion", "brand:wikidata": "Q1435950", "nsi_id": "foodlion-7818a5"}, "geometry": {"type": "Point", "coordinates": [-80.50052642822266, 35.66041946411133]}},
{"type": "Feature", "id": "UvcsqwPwpQvBYw_EBydjDkwo0CE=", "properties": {"ref": "435", "@spider": "foodlion", "shop": "supermarket", "addr:full": "2104 Statesville Blvd", "addr:city": "Salisbury", "addr:state": "NC", "addr:postcode": "28147", "addr:country": "US", "name": "Food Lion Grocery Store of Salisbury", "phone": "704-637-8948", "website": "https://www.foodlion.com/content/food-lion/stores/nc/salisbury/435/", "opening_hours": "07:00-23:00", "brand": "Food Lion", "brand:wikidata": "Q1435950", "nsi_id": "foodlion-7818a5"}, "geometry": {"type": "Point", "coordinates": [-80.51654052734375, 35.6948127746582]}},
{"type": "Feature", "id": "-He92VdXeLuwLpEAOBBqLUy7b24=", "properties": {"ref": "1417", "@spider": "foodlion", "shop": "supermarket", "addr:full": "251 Faith Rd", "addr:city": "Salisbury", "addr:state": "NC", "addr:postcode": "28146", "addr:country": "US", "name": "Food Lion Grocery Store of Salisbury", "phone": "704-637-3409", "website": "https://www.foodlion.com/content/food-lion/stores/nc/salisbury/1417/", "opening_hours": "07:00-23:00", "brand": "Food Lion", "brand:wikidata": "Q1435950", "nsi_id": "foodlion-7818a5"}, "geometry": {"type": "Point", "coordinates": [-80.4613037109375, 35.652400970458984]}},
{"type": "Feature", "id": "u0PuzMejxi9yI2YiBVMD9cOT35g=", "properties": {"ref": "547", "@spider": "foodlion", "shop": "supermarket", "addr:full": "313 Salisbury Ave", "addr:city": "Spencer", "addr:state": "NC", "addr:postcode": "28159-251", "addr:country": "US", "name": "Food Lion Grocery Store of Spencer", "phone": "704-633-6724", "website": "https://www.foodlion.com/content/food-lion/stores/nc/spencer/547/", "opening_hours": "07:00-22:00", "brand": "Food Lion", "brand:wikidata": "Q1435950", "nsi_id": "foodlion-7818a5"}, "geometry": {"type": "Point", "coordinates": [-80.42549896240234, 35.69169998168945]}},
{"type": "Feature", "id": "7x1qi6idiND2pZFKGZZVxvB1AbY=", "properties": {"ref": "381", "@spider": "foodlion", "shop": "supermarket", "addr:full": "968 Main St. Hwy 52", "addr:city": "Rockwell", "addr:state": "NC", "addr:postcode": "28138", "addr:country": "US", "name": "Food Lion Grocery Store of Rockwell", "phone": "704-279-5537", "website": "https://www.foodlion.com/content/food-lion/stores/nc/rockwell/381/", "opening_hours": "07:00-23:00", "brand": "Food Lion", "brand:wikidata": "Q1435950", "nsi_id": "foodlion-7818a5"}, "geometry": {"type": "Point", "coordinates": [-80.41439819335938, 35.56079864501953]}},
{"type": "Feature", "id": "Lsg_sPocKHAqZ8zWiqeumGe4wHs=", "properties": {"ref": "2126", "@spider": "foodlion", "shop": "supermarket", "addr:full": "4705 Hwy 150 S", "addr:city": "Lexington", "addr:state": "NC", "addr:postcode": "27295", "addr:country": "US", "name": "Food Lion Grocery Store of Lexington", "phone": "336-853-5192", "website": "https://www.foodlion.com/content/food-lion/stores/nc/lexington/2126/", "opening_hours": "07:00-23:00", "brand": "Food Lion", "brand:wikidata": "Q1435950", "nsi_id": "foodlion-7818a5"}, "geometry": {"type": "Point", "coordinates": [-80.37750244140625, 35.80440139770508]}},
{"type": "Feature", "id": "QNKdv3rGVE_zH4wKeTwRkoTJVQk=", "properties": {"ref": "2650", "@spider": "foodlion", "shop": "supermarket", "addr:full": "1460 S Main St", "addr:city": "China Grove", "addr:state": "NC", "addr:postcode": "28023", "addr:country": "US", "name": "Food Lion Grocery Store of China Grove", "phone": "704-857-5027", "website": "https://www.foodlion.com/content/food-lion/stores/nc/china_grove/2650/", "opening_hours": "07:00-23:00", "brand": "Food Lion", "brand:wikidata": "Q1435950", "nsi_id": "foodlion-7818a5"}, "geometry": {"type": "Point", "coordinates": [-80.595703125, 35.55860137939453]}}]}