{"type":"FeatureCollection","features":[{"type": "Feature", "id": "k5vtmZpN1cL5rE2z4Znp2Ao7jc8=", "properties": {"ref": "0630", "@spider": "forever21_ca", "shop": "clothes", "addr:street_address": "25 Peel Centre Drive ", "addr:city": "Brampton", "addr:state": "ON", "addr:postcode": "L6T 3R5", "addr:country": "CA", "name": "BRAMALEA CITY CENTRE", "opening_hours": "Mo-Sa 10:00-20:00; Su 11:00-19:00", "brand": "Forever 21", "brand:wikidata": "Q1060537", "nsi_id": "forever21-3937bd"}, "geometry": {"type": "Point", "coordinates": [-79.7225, 43.7155]}},
{"type": "Feature", "id": "1dnz6UIaPz8yX-0VhXBDWBzdXEk=", "properties": {"ref": "0529", "@spider": "forever21_ca", "shop": "clothes", "addr:street_address": "1 Kingsway Garden Mall", "addr:city": "Edmonton", "addr:state": "AB", "addr:postcode": "T5G 3A6", "addr:country": "CA", "name": "KINGSWAY MALL", "opening_hours": "Mo-Fr 10:00-20:00; Sa 10:00-19:00; Su 11:00-16:00", "brand": "Forever 21", "brand:wikidata": "Q1060537", "nsi_id": "forever21-3937bd"}, "geometry": {"type": "Point", "coordinates": [-113.505, 53.5622]}},
{"type": "Feature", "id": "sPW2xTpvCtfiSXP0dcW74stPt0c=", "properties": {"ref": "0780", "@spider": "forever21_ca", "shop": "clothes", "addr:street_address": "2700 Laurier Blvd.", "addr:city": "Quebec City", "addr:state": "QC", "addr:postcode": "G1V 2L8", "addr:country": "CA", "name": "PLACE LAURIER", "opening_hours": "Mo-We 10:00-18:00; Th-Fr 10:00-21:00; Sa 09:00-17:00; Su 10:00-17:00", "brand": "Forever 21", "brand:wikidata": "Q1060537", "nsi_id": "forever21-3937bd"}, "geometry": {"type": "Point", "coordinates": [-71.2849, 46.7707]}},
{"type": "Feature", "id": "WI_UySdRLGbirc4xDKJ-mZl69fk=", "properties": {"ref": "0725", "@spider": "forever21_ca", "shop": "clothes", "addr:street_address": "10355 152nd Street", "addr:city": "Surrey", "addr:state": "BC", "addr:postcode": "V3R 7B9", "addr:country": "CA", "name": "GUILDFORD TOWN CENTRE", "opening_hours": "Mo-Th 10:00-19:00; Fr-Sa 10:00-21:00; Su 11:00-19:00", "brand": "Forever 21", "brand:wikidata": "Q1060537", "nsi_id": "forever21-3937bd"}, "geometry": {"type": "Point", "coordinates": [-122.804, 49.192]}},
{"type": "Feature", "id": "EG3xW14djm0PE6uWUlQIXPhtGXs=", "properties": {"ref": "0921", "@spider": "forever21_ca", "shop": "clothes", "addr:street_address": "4700 Kingsway", "addr:city": "Burnaby", "addr:state": "BC", "addr:postcode": "V5H 4N2", "addr:country": "CA", "name": "METROPOLIS AT METROTOWN", "opening_hours": "Mo-Sa 10:00-21:00; Su 11:00-19:00", "brand": "Forever 21", "brand:wikidata": "Q1060537", "nsi_id": "forever21-3937bd"}, "geometry": {"type": "Point", "coordinates": [-122.999, 49.2271]}},
{"type": "Feature", "id": "_0ihxsE8XDBWnIHUMIYnr8ou9OU=", "properties": {"ref": "0527", "@spider": "forever21_ca", "shop": "clothes", "addr:street_address": "3100 Howard Avenue", "addr:city": "Windsor", "addr:state": "ON", "addr:postcode": "N8X 3Y8", "addr:country": "CA", "name": "DEVONSHIRE MALL", "opening_hours": "Mo-Fr 10:00-20:00; Sa 10:00-18:00; Su 11:00-17:00", "brand": "Forever 21", "brand:wikidata": "Q1060537", "nsi_id": "forever21-3937bd"}, "geometry": {"type": "Point", "coordinates": [-83.0037, 42.2757]}},
{"type": "Feature", "id": "RMhFTMdatqYtWPR5m2f_wCiQFsA=", "properties": {"ref": "0772", "@spider": "forever21_ca", "shop": "clothes", "addr:street_address": "419 King Street West", "addr:city": "Oshawa", "addr:state": "ON", "addr:postcode": "L1J 2K5", "addr:country": "CA", "name": "OSHAWA CENTRE", "opening_hours": "Mo-Sa 10:00-20:00; Su 11:00-18:00", "brand": "Forever 21", "brand:wikidata": "Q1060537", "nsi_id": "forever21-3937bd"}, "geometry": {"type": "Point", "coordinates": [-78.881, 43.892]}},
{"type": "Feature", "id": "vR10r0YwEfWS1rmxJQiYNaI7nPc=", "properties": {"ref": "0755", "@spider": "forever21_ca", "shop": "clothes", "addr:street_address": "355 Hespeler Road", "addr:city": "Cambridge", "addr:state": "ON", "addr:postcode": "N1R 6B3", "addr:country": "CA", "name": "CAMBRIDGE CENTRE", "opening_hours": "Mo-Fr 10:00-19:00; Sa 10:00-18:00; Su 11:00-17:00", "brand": "Forever 21", "brand:wikidata": "Q1060537", "nsi_id": "forever21-3937bd"}, "geometry": {"type": "Point", "coordinates": [-80.3203, 43.3926]}},
{"type": "Feature", "id": "ltuPfcGt55AUowA4p-MklCsFSf4=", "properties": {"ref": "0743", "@spider": "forever21_ca", "shop": "clothes", "addr:street_address": "1 Promenade Circle", "addr:city": "Thornhill", "addr:state": "ON", "addr:postcode": "L4J 4P8", "addr:country": "CA", "name": "PROMENADE MALL", "opening_hours": "Mo-Fr 10:00-20:00; Sa 10:00-18:00; Su 11:00-18:00", "brand": "Forever 21", "brand:wikidata": "Q1060537", "nsi_id": "forever21-3937bd"}, "geometry": {"type": "Point", "coordinates": [-79.4525, 43.8065]}},
{"type": "Feature", "id": "huoY8adOQSlgF_1CebfV6cjqxMc=", "properties": {"ref": "0909", "@spider": "forever21_ca", "shop": "clothes", "addr:street_address": "6060 Minoru Boulevard", "addr:city": "Richmond", "addr:state": "BC", "addr:postcode": "V6Y 1Y2", "addr:country": "CA", "name": "CF RICHMOND CENTRE - HUDSON'S BAY", "opening_hours": "Mo-Sa 10:00-20:00; Su 11:00-18:00", "brand": "Forever 21", "brand:wikidata": "Q1060537", "nsi_id": "forever21-3937bd"}, "geometry": {"type": "Point", "coordinates": [-123.138, 49.1655]}},
{"type": "Feature", "id": "98UKTAeANQvWkGPE-BkunLJfkYE=", "properties": {"ref": "0907", "@spider": "forever21_ca", "shop": "clothes", "addr:street_address": "674 Granville St.", "addr:city": "Vancouver", "addr:state": "BC", "addr:postcode": "V6C 1Z6", "addr:country": "CA", "name": "PACIFIC MALL - HUDSON'S BAY", "opening_hours": "Mo-We 11:00-19:00; Th-Sa 11:00-20:00; Su 11:00-19:00", "brand": "Forever 21", "brand:wikidata": "Q1060537", "nsi_id": "forever21-3937bd"}, "geometry": {"type": "Point", "coordinates": [-123.117, 49.2824]}},
{"type": "Feature", "id": "ObmysOMGv6Q_W5RLjQ5o15Z1X68=", "properties": {"ref": "0922", "@spider": "forever21_ca", "shop": "clothes", "addr:street_address": "7865 Boulevard Des Galeries D'Anjou", "addr:city": "Montreal", "addr:state": "QC", "addr:postcode": "H1M 1W6", "addr:country": "CA", "name": "GALERIES D'ANJOU - HUDSON'S BAY", "opening_hours": "Mo-We 11:00-19:00; Th-Sa 11:00-21:00; Su 11:00-18:00", "brand": "Forever 21", "brand:wikidata": "Q1060537", "nsi_id": "forever21-3937bd"}, "geometry": {"type": "Point", "coordinates": [-73.5674, 45.5987]}},
{"type": "Feature", "id": "HqtO9jCDnPOYnINQZ3FSguZB9ew=", "properties": {"ref": "0918", "@spider": "forever21_ca", "shop": "clothes", "addr:street_address": "176 Yonge St.", "addr:city": "Toronto", "addr:state": "ON", "addr:postcode": "M5C 2L7", "addr:country": "CA", "name": "QUEEN ST / YONGE ST - HUDSON'S BAY", "opening_hours": "Mo-Sa 10:00-21:00; Su 11:00-18:00", "brand": "Forever 21", "brand:wikidata": "Q1060537", "nsi_id": "forever21-3937bd"}, "geometry": {"type": "Point", "coordinates": [-79.3802, 43.6518]}},
{"type": "Feature", "id": "TOMBlyImlj_HHgrI3que17t5lhk=", "properties": {"ref": "0934", "@spider": "forever21_ca", "shop": "clothes", "addr:street_address": "73 Rideau St.", "addr:city": "Ottawa", "addr:state": "ON", "addr:postcode": "K1N 5W8", "addr:country": "CA", "name": "RIDEAU CENTRE - HUDSON'S BAY", "opening_hours": "Mo-Sa 10:00-20:00; Su 11:00-18:00", "brand": "Forever 21", "brand:wikidata": "Q1060537", "nsi_id": "forever21-3937bd"}, "geometry": {"type": "Point", "coordinates": [-75.6927, 45.4262]}},
{"type": "Feature", "id": "ApgYewv8SxaDYyOUrL_lF_yzv7M=", "properties": {"ref": "0914", "@spider": "forever21_ca", "shop": "clothes", "addr:street_address": "585 Saint-Catherine St. West", "addr:city": "QC", "addr:state": "QC", "addr:postcode": "QC", "addr:country": "CA", "name": "MONTREAL DOWNTOWN - HUDSON'S BAY", "opening_hours": "Mo-Fr 11:00-19:00; Sa-Su 11:00-18:00", "brand": "Forever 21", "brand:wikidata": "Q1060537", "nsi_id": "forever21-3937bd"}, "geometry": {"type": "Point", "coordinates": [-73.5693, 45.5041]}},
{"type": "Feature", "id": "GukIUfdiTHXtq1SE-Lj8KV9LKH8=", "properties": {"ref": "0928", "@spider": "forever21_ca", "shop": "clothes", "addr:street_address": "100 Anderson Road SE", "addr:city": "Calgary", "addr:state": "AB", "addr:postcode": "T2J 3V1", "addr:country": "CA", "name": "SOUTHCENTRE MALL - HUDSON'S BAY", "opening_hours": "Mo-Sa 10:00-20:00; Su 11:00-18:00", "brand": "Forever 21", "brand:wikidata": "Q1060537", "nsi_id": "forever21-3937bd"}, "geometry": {"type": "Point", "coordinates": [-114.066, 50.9526]}},
{"type": "Feature", "id": "HhCbo4ZqjOTlqM24LDcsVQst6qQ=", "properties": {"ref": "0955", "@spider": "forever21_ca", "shop": "clothes", "addr:street_address": "2525 36 ST NE ", "addr:city": "Calgary", "addr:state": "AB", "addr:postcode": "T1Y 5S4", "addr:country": "CA", "name": "SUNRIDGE MALL - HUDSON'S BAY", "opening_hours": "Mo-Th 10:00-20:00; Fr 11:00-17:00; Sa 10:00-20:00; Su 11:00-17:00", "brand": "Forever 21", "brand:wikidata": "Q1060537", "nsi_id": "forever21-3937bd"}, "geometry": {"type": "Point", "coordinates": [-113.986, 51.0739]}},
{"type": "Feature", "id": "GSADUIxSOZNU1ujVDiB6ISVkQoo=", "properties": {"ref": "0760", "@spider": "forever21_ca", "shop": "clothes", "addr:street_address": "8882-170th Street", "addr:city": "Edmonton", "addr:state": "AB", "addr:postcode": "T5T 4M", "addr:country": "CA", "name": "WEST EDMONTON MALL", "opening_hours": "Mo-Sa 10:00-21:00; Su 11:00-18:00", "brand": "Forever 21", "brand:wikidata": "Q1060537", "nsi_id": "forever21-3937bd"}, "geometry": {"type": "Point", "coordinates": [-113.622, 53.5223]}},
{"type": "Feature", "id": "gv7_xveR9Dkz-9B2StHVTYclBVE=", "properties": {"ref": "0901", "@spider": "forever21_ca", "shop": "clothes", "addr:street_address": "84 Lynden Road", "addr:city": "Brantford", "addr:state": "ON", "addr:postcode": "N3R 6B8", "addr:country": "CA", "name": "LYNDEN PARK MALL", "opening_hours": "Mo-Fr 10:00-21:00; Sa 09:30-18:00; Su 12:00-17:00", "brand": "Forever 21", "brand:wikidata": "Q1060537", "nsi_id": "forever21-3937bd"}, "geometry": {"type": "Point", "coordinates": [-80.2403, 43.1713]}},
{"type": "Feature", "id": "PkYu_s0vPtvl07Ssj37Y6CM4nG4=", "properties": {"ref": "0528", "@spider": "forever21_ca", "shop": "clothes", "addr:street_address": "1485 Portage Avenue #66Q", "addr:city": "Winnipeg", "addr:state": "MB", "addr:postcode": "R3G 0W4", "addr:country": "CA", "name": "POLO PARK SC", "opening_hours": "Mo-Fr 10:00-21:00; Sa 10:00-17:00; Su 11:00-18:00", "brand": "Forever 21", "brand:wikidata": "Q1060537", "nsi_id": "forever21-3937bd"}, "geometry": {"type": "Point", "coordinates": [-97.1971, 49.8816]}},
{"type": "Feature", "id": "0SxekD_55Y3rJX75zdZlvYrqPs4=", "properties": {"ref": "0795", "@spider": "forever21_ca", "shop": "clothes", "addr:street_address": "261055 Cross Iron Blvd.", "addr:city": "ROCKYVIEW", "addr:state": "AB", "addr:postcode": "T4A 0G3", "addr:country": "CA", "name": "CROSS IRON MILLS", "opening_hours": "Mo-We 10:00-20:00; Th-Sa 10:00-21:00; Su 11:00-18:00", "brand": "Forever 21", "brand:wikidata": "Q1060537", "nsi_id": "forever21-3937bd"}, "geometry": {"type": "Point", "coordinates": [-113.993, 51.2032]}}]}