{"type":"FeatureCollection","features":[{"type": "Feature", "id": "K3af85UTX-7gQd9yQ3mpHtfw6Lc=", "properties": {"ref": "https://www.foxspizza.com/store/pennsylvania/punxsutawney-pa/", "@spider": "foxspizza", "addr:full": "207 Hampton Avenue, Punxsutawney, PA 15767", "name": "Punxsutawney, PA - Fox's Pizza", "phone": "814-618-5653", "website": "https://www.foxspizza.com/store/pennsylvania/punxsutawney-pa/", "opening_hours": "Sun:  11:00 AM to 8:00 PM; Mon: Closed; Tue:  10:30 AM to 8:00 PM; Wed: 10:30 AM to 8:00 PM; Thu: 10:30 AM to 8:00 PM; Fri:  10:30 AM to 9:00 PM; Sat: 10:30 AM to 9:00 PM", "brand": "Fox's Pizza Den", "brand:wikidata": "Q5476498"}, "geometry": {"type": "Point", "coordinates": [-78.9675301, 40.9457353]}},
{"type": "Feature", "id": "6I2VJOslA5b_p8VktFcefisRd_g=", "properties": {"ref": "https://www.foxspizza.com/store/pennsylvania/pitcairn-pa/", "@spider": "foxspizza", "addr:full": "710 Broadway Boulevard, Pitcairn, PA 15140", "name": "Pitcairn, PA - Fox's Pizza", "phone": "412-372-6996", "website": "https://www.foxspizza.com/store/pennsylvania/pitcairn-pa/", "opening_hours": "Sun: 11:00 AM to 11:00 PM; Mon: 11:00 AM to 11:00 PM; Tue:  11:00 AM to 11:00 PM; Wed: 11:00 AM to 11:00 PM; Thu: 11:00 AM to 11:00 PM; Fri:  11:00 AM to 11:00 PM; Sat: 11:00 AM to 11:00 PM", "brand": "Fox's Pizza Den", "brand:wikidata": "Q5476498"}, "geometry": {"type": "Point", "coordinates": [-79.7748672, 40.4023324]}},
{"type": "Feature", "id": "Bv8V0aUqLc6o_0J1EO8oup0LeL4=", "properties": {"ref": "https://www.foxspizza.com/store/pennsylvania/perryopolis-pa/", "@spider": "foxspizza", "addr:full": "3357 Pittsburgh Road, Perryopolis, PA 15473", "name": "Perryopolis, PA - Fox's Pizza", "phone": "724-736-8300", "website": "https://www.foxspizza.com/store/pennsylvania/perryopolis-pa/", "opening_hours": "Sun: 12:00 PM to 10:00 PM; Mon: 11:00 AM to 10:00 PM; Tue:  11:00 AM to 10:00 PM; Wed: 11:00 AM to 10:00 PM; Thu: 11:00 AM to 10:00 PM; Fri:   11:00 AM to 11:00 PM; Sat:  11:00 AM to 11:00 PM", "brand": "Fox's Pizza Den", "brand:wikidata": "Q5476498"}, "geometry": {"type": "Point", "coordinates": [-79.7603561, 40.0813261]}},
{"type": "Feature", "id": "3SOxHObsENjYL_AkgFSYWbVICLs=", "properties": {"ref": "https://www.foxspizza.com/store/pennsylvania/new-bethlehem-pa/", "@spider": "foxspizza", "addr:full": "300 Broad Street, New Bethlehem, PA 16242", "name": "New Bethlehem, PA - Fox's Pizza", "phone": "814-457-5176", "website": "https://www.foxspizza.com/store/pennsylvania/new-bethlehem-pa/", "opening_hours": "Sun:   12:00 PM to 9:00 PM; Mon: 10:30 AM to 9:00 PM; Tue: 10:30 AM to 9:00 PM; Wed: 10:30 AM to 9:00 PM; Thu: 10:30 AM to 9:00 PM; Fri:  10:30 AM to 10:00 PM; Sat: 10:30 AM to 10:00 PM", "brand": "Fox's Pizza Den", "brand:wikidata": "Q5476498"}, "geometry": {"type": "Point", "coordinates": [-79.3330572, 41.0013433]}},
{"type": "Feature", "id": "OnfRDeRsXxBP3Xtayi8O-ci8I3w=", "properties": {"ref": "https://www.foxspizza.com/store/pennsylvania/new-alexandria-pa/", "@spider": "foxspizza", "addr:full": "101 West Main Street, New Alexandria, PA 15670", "name": "New Alexandria, PA - Fox's Pizza", "phone": "724-668-5241", "website": "https://www.foxspizza.com/store/pennsylvania/new-alexandria-pa/", "opening_hours": "Sun:  12:00 PM to 9:00 PM; Mon: 11:00 AM to 9:00 PM; Tue: 11:00 AM to 9:00 PM; Wed: 11:00 AM to 9:00 PM; Thu: 11:00 AM to 9:00 PM; Fri:  11:00 AM to 10:00 PM; Sat:  11:00 AM to 10:00 PM", "brand": "Fox's Pizza Den", "brand:wikidata": "Q5476498"}, "geometry": {"type": "Point", "coordinates": [-79.4212595, 40.3973383]}},
{"type": "Feature", "id": "gkZf4C9ozVJjuhJLj6mqRGypUhE=", "properties": {"ref": "https://www.foxspizza.com/store/pennsylvania/mercer-pa/", "@spider": "foxspizza", "addr:full": "539 Greenville Road, Mercer, PA 16137", "name": "Mercer, PA - Fox's Pizza", "phone": "724-662-4414", "website": "https://www.foxspizza.com/store/pennsylvania/mercer-pa/", "opening_hours": "Sun: 11:00 AM to 9:00 PM; Mon:  11:00 AM to 9:00 PM; Tue:  11:00 AM to 9:00 PM; Wed: 11:00 AM to 9:00 PM; Thu: 11:00 AM to 9:00 PM; Fri:  11:00 AM to 10:00 PM; Sat:  11:00 AM to 10:00 PM", "brand": "Fox's Pizza Den", "brand:wikidata": "Q5476498"}, "geometry": {"type": "Point", "coordinates": [-80.2424525, 41.2347165]}},
{"type": "Feature", "id": "cAgoWyYnft20SazZwRWNdTgK3CE=", "properties": {"ref": "https://www.foxspizza.com/store/pennsylvania/kittanning-pa/", "@spider": "foxspizza", "addr:full": "136 South Grant Avenue, Kittanning, PA 16201", "name": "Kittanning, PA - Fox's Pizza", "phone": "724-543-3697", "website": "https://www.foxspizza.com/store/pennsylvania/kittanning-pa/", "opening_hours": "Sun:   12:00 PM to 10:00 PM; Mon:  10:30 AM to 10:00 PM; Tue:  10:30 AM to 10:00 PM; Wed: 10:30 AM to 10:00 PM; Thu:  10:30 AM to 10:00 PM; Fri:  10:30 AM to 11:00 PM; Sat:10:30 AM to 11:00 PM", "brand": "Fox's Pizza Den", "brand:wikidata": "Q5476498"}, "geometry": {"type": "Point", "coordinates": [-79.5156848, 40.8138966]}},
{"type": "Feature", "id": "G9gmFCBHtbcNm_sYU0rvKsFi2Ag=", "properties": {"ref": "https://www.foxspizza.com/store/pennsylvania/eldred-pa/", "@spider": "foxspizza", "addr:full": "187 Main Street, Eldred, PA 16731", "name": "Eldred, PA - Fox's Pizza", "phone": "814-225-0028", "website": "https://www.foxspizza.com/store/pennsylvania/eldred-pa/", "opening_hours": "Sun:   11:00 AM to 10:00 PM; Mon:   11:00 AM to 10:00 PM; Tue:  11:00 AM to 10:00 PM; Wed:   11:00 AM to 10:00 PM; Thu:   11:00 AM to 10:00 PM; Fri:  11:00 AM to 10:00 PM; Sat: 11:00 AM to 10:00 PM", "brand": "Fox's Pizza Den", "brand:wikidata": "Q5476498"}, "geometry": {"type": "Point", "coordinates": [-78.385978, 41.9577182]}},
{"type": "Feature", "id": "ggStO_uirGwlLmOtMwcjvmbzVoI=", "properties": {"ref": "https://www.foxspizza.com/store/pennsylvania/ebensburg-pa/", "@spider": "foxspizza", "addr:full": "1104 West High Street, Ebensburg, PA 15931", "name": "Ebensburg, PA - Fox's Pizza", "phone": "814-419-8299", "website": "https://www.foxspizza.com/store/pennsylvania/ebensburg-pa/", "opening_hours": "Sun:  11:00 AM to 10:00 PM; Mon:  10:30 AM to 10:00 PM; Tue:  10:30 AM to 10:00 PM; Wed:  10:30 AM to 10:00 PM; Thu:  10:30 AM to 10:00 PM; Fri:  : 10:30 AM to 11:00 PM; Sat: : 10:30 AM to 11:00 PM", "brand": "Fox's Pizza Den", "brand:wikidata": "Q5476498"}, "geometry": {"type": "Point", "coordinates": [-78.7365945, 40.4801311]}},
{"type": "Feature", "id": "K_T7SDaObrzauUYzuIidyFKyDL0=", "properties": {"ref": "https://www.foxspizza.com/store/pennsylvania/cresson-pa/", "@spider": "foxspizza", "addr:full": "1000 2nd Street, Cresson, PA 16630", "name": "Cresson, PA - Fox's Pizza", "phone": "814-886-2000", "website": "https://www.foxspizza.com/store/pennsylvania/cresson-pa/", "opening_hours": "Sun:  11:00 AM to 11:00 PM; Mon: 11:00 AM to 11:00 PM; Tue: 11:00 AM to 11:00 PM; Wed:11:00 AM to 11:00 PM; Thu: 11:00 AM to 11:00 PM; Fri:  11:00 AM to 11:00 PM; Sat: 11:00 AM to 11:00 PM", "brand": "Fox's Pizza Den", "brand:wikidata": "Q5476498"}, "geometry": {"type": "Point", "coordinates": [-78.5914783, 40.4607196]}},
{"type": "Feature", "id": "U4IB1Q1UMKY4LnYv7BNpgfJO1Uk=", "properties": {"ref": "https://www.foxspizza.com/store/pennsylvania/clearfield-pa/", "@spider": "foxspizza", "addr:full": "1121 Bigler Avenue, Clearfield, PA 16830", "name": "Clearfield, PA - Fox's Pizza", "phone": "814-765-6455", "website": "https://www.foxspizza.com/store/pennsylvania/clearfield-pa/", "opening_hours": "Sun: 4:00 PM to 10:00 PM; Mon: 11:00 AM to 10:00 PM; Tue: 11:00 AM to 10:00 PM; Wed: 11:00 AM to 10:00 PM; Thu: 11:00 AM to 10:00 PM; Fri:  11:00 AM to 10:00 PM; Sat:  11:00 AM to 10:00 PM", "brand": "Fox's Pizza Den", "brand:wikidata": "Q5476498"}, "geometry": {"type": "Point", "coordinates": [-78.4229, 41.0267035]}},
{"type": "Feature", "id": "59IQWRz9gXIggr2MVPwo1mjgtw4=", "properties": {"ref": "https://www.foxspizza.com/store/pennsylvania/carmichaels-pa/", "@spider": "foxspizza", "addr:full": "100 South Market Street, Carmichaels, PA 15320", "name": "Carmichaels, PA - Fox's Pizza", "phone": "724-966-2908", "website": "https://www.foxspizza.com/store/pennsylvania/carmichaels-pa/", "opening_hours": "Sun: 12:00 PM to 10:00 PM; Mon: 11:00 AM to 10:00 PM; Tue: 11:00 AM to 10:00 PM; Wed: 11:00 AM to 10:00 PM; Thu: 11:00 AM to 10:00 PM; Fri: 11:00 AM to 11:00 PM; Sat: 11:00 AM to 11:00 PM", "brand": "Fox's Pizza Den", "brand:wikidata": "Q5476498"}, "geometry": {"type": "Point", "coordinates": [-79.9747624, 39.8969387]}},
{"type": "Feature", "id": "1mFoV-mUz1WZXYTrRYXeBf0w6xU=", "properties": {"ref": "https://www.foxspizza.com/store/pennsylvania/blairsville-pa/", "@spider": "foxspizza", "addr:full": "164 East Market Street, Blairsville, PA 15717", "name": "Blairsville, PA - Fox's Pizza", "phone": "724-459-5250", "website": "https://www.foxspizza.com/store/pennsylvania/blairsville-pa/", "opening_hours": "Sun:  12:00 PM to 9:00 PM; Mon:  11:00 AM to 9:00 PM; Tue:  11:00 AM to 9:00 PM; Wed: 11:00 AM to 9:00 PM; Thu:  11:00 AM to 9:00 PM; Fri:  11:00 AM to 10:00 PM; Sat:  11:00 AM to 10:00 PM", "brand": "Fox's Pizza Den", "brand:wikidata": "Q5476498"}, "geometry": {"type": "Point", "coordinates": [-79.2615669, 40.4307944]}},
{"type": "Feature", "id": "akbr6IUZM7AQDUm5jDAGo4ORbfA=", "properties": {"ref": "https://www.foxspizza.com/store/pennsylvania/bedford-pa/", "@spider": "foxspizza", "addr:full": "9503 Lincoln Highway, Bedford, PA 15522", "name": "Bedford, PA - Fox's Pizza", "phone": "814-310-2422", "website": "https://www.foxspizza.com/store/pennsylvania/bedford-pa/", "opening_hours": "Sun: 12:00 PM to 8:00 PM; Mon: 11:00 AM to 9:00 PM; Tue:  11:00 AM to 9:00 PM; Wed: 11:00 AM to 9:00 PM; Thu:  11:00 AM to 9:00 PM; Fri: 11:00 AM to 10:00 PM; Sat: 11:00 AM to 10:00 PM", "brand": "Fox's Pizza Den", "brand:wikidata": "Q5476498"}, "geometry": {"type": "Point", "coordinates": [-78.4654704, 40.0183218]}},
{"type": "Feature", "id": "RJRzqR9ATCH9hkWzMwwbw5UXH0k=", "properties": {"ref": "https://www.foxspizza.com/store/pennsylvania/ambridge-pa/", "@spider": "foxspizza", "addr:full": "1204 Merchant Street, Ambridge, PA 15003", "name": "Ambridge, PA - Fox's Pizza", "phone": "724-266-3630", "website": "https://www.foxspizza.com/store/pennsylvania/ambridge-pa/", "opening_hours": "Sun: Closed; Mon: 11:00 AM to 10:00 PM; Tue: 11:00 AM to 10:00 PM; Wed: 11:00 AM to 10:00 PM; Thu: 11:00 AM to 10:00 PM; Fri:   11:00 AM to 10:00 PM; Sat:  11:00 AM to 10:00 PM", "brand": "Fox's Pizza Den", "brand:wikidata": "Q5476498"}, "geometry": {"type": "Point", "coordinates": [-80.2302906, 40.5948509]}},
{"type": "Feature", "id": "7bCvJfxGME--uwCXZdPNl1WaW28=", "properties": {"ref": "https://www.foxspizza.com/store/ohio/tuppers-plains-oh/", "@spider": "foxspizza", "addr:full": "42303 Ohio 7, Coolville, OH 45723", "name": "Tuppers Plains, OH - Fox's Pizza", "phone": "740-667-3697", "website": "https://www.foxspizza.com/store/ohio/tuppers-plains-oh/", "opening_hours": "Sun: 11:00 AM to 9:30 PM; Mon: 10:00 AM to 9:30 PM; Tue: 10:00 AM to 9:30 PM; Wed: 10:00 AM to 9:30 PM; Thu: 10:00 AM to 9:30 PM; Fri: 10:00 AM to 10:00 PM; Sat: 10:00 AM to 10:00 PM", "brand": "Fox's Pizza Den", "brand:wikidata": "Q5476498"}, "geometry": {"type": "Point", "coordinates": [-81.8455253, 39.1737311]}},
{"type": "Feature", "id": "uChohGNujt8tmYl2L63aMgLaWbQ=", "properties": {"ref": "https://www.foxspizza.com/store/pennsylvania/bradford-pa/", "@spider": "foxspizza", "addr:full": "444 East Main Street, Bradford, PA 16701", "name": "Bradford, PA - Fox's Pizza", "phone": "814-368-8555", "website": "https://www.foxspizza.com/store/pennsylvania/bradford-pa/", "opening_hours": "Sun:  10:00 AM to 10:00 PM; Mon:  10:00 AM to 10:00 PM; Tue:  10:00 AM to 10:00 PM; Wed: 10:00 AM to 10:00 PM; Thu:  10:00 AM to 10:00 PM; Fri:  10:00 AM to 10:00 PM; Sat:  10:00 AM to 10:00 PM", "brand": "Fox's Pizza Den", "brand:wikidata": "Q5476498"}, "geometry": {"type": "Point", "coordinates": [-78.6255327, 41.9644634]}},
{"type": "Feature", "id": "_8ZBRPvlMXljGiwYL0zXl3RIQjs=", "properties": {"ref": "https://www.foxspizza.com/store/tennessee/nashville-tn/", "@spider": "foxspizza", "addr:full": "2828 Elm Hill Pike, Nashville, TN 37214", "name": "Nashville, TN - Fox's Pizza", "phone": "615-231-0080", "website": "https://www.foxspizza.com/store/tennessee/nashville-tn/", "opening_hours": "Sun: 12:00 PM to 10:00 PM; Mon: 10:00 AM to 10:00 PM; Tue: 10:00 AM to 10:00 PM; Wed: 10:00 AM to 10:00 PM; Thu: 10:00 AM to 10:00 PM; Fri: 10:00 AM to 11:00 PM; Sat: 11:00 AM to 11:00 PM", "brand": "Fox's Pizza Den", "brand:wikidata": "Q5476498"}, "geometry": {"type": "Point", "coordinates": [-86.6640204, 36.1487109]}},
{"type": "Feature", "id": "eT-BmmwT4MeJf6eMb4RXv4r4lKE=", "properties": {"ref": "https://www.foxspizza.com/store/pennsylvania/millvale-pa/", "@spider": "foxspizza", "addr:full": "401 Grant Avenue, Pittsburgh, PA 15209", "name": "Millvale, PA - Fox's Pizza", "phone": "412-772-1757", "website": "https://www.foxspizza.com/store/pennsylvania/millvale-pa/", "opening_hours": "Monday:  4:00 pm to 8:00 pm (PICK-UP ONLY); Tuesday: 11:00 am to 9:00 pm; Wednesday: 11:00 am to 9:00 pm; Thursday: 11:00 am to 9:00 pm; Friday: 11:00 am to 9:00 pm; Saturday: 11:00 am to 9:00 pm; Sunday: 11:00 am to 9:00 pm", "brand": "Fox's Pizza Den", "brand:wikidata": "Q5476498"}, "geometry": {"type": "Point", "coordinates": [-79.9732368, 40.4797882]}},
{"type": "Feature", "id": "WmSV6OFB0xWCssvKPUbcmxjGnPg=", "properties": {"ref": "https://www.foxspizza.com/store/louisiana/leesville-la/", "@spider": "foxspizza", "addr:full": "99 East Union, Leesville, LA 71446", "name": "Leesville, LA - Fox's Pizza", "phone": "337-392-4949", "website": "https://www.foxspizza.com/store/louisiana/leesville-la/", "opening_hours": "Sun:   Closed; Mon:  11:00 AM to 7:45 PM; Tue: 11:00 AM to 7:45 PM; Wed:  11:00 AM to 7:45 PM; Thu:  11:00 AM to 7:45 PM; Fri: 11:00 AM to 7:45 PM; Sat: 11:00 AM to 7:45 PM", "brand": "Fox's Pizza Den", "brand:wikidata": "Q5476498"}, "geometry": {"type": "Point", "coordinates": [-93.2638629, 31.1468031]}},
{"type": "Feature", "id": "EM_TFtt2nqnqHw2JJIWLNmAZTEk=", "properties": {"ref": "https://www.foxspizza.com/store/pennsylvania/mt-pleasant-pa/", "@spider": "foxspizza", "addr:full": "509 Main Street, Mount Pleasant, PA 15666", "name": "Mt. Pleasant, PA - Fox's Pizza", "phone": "724-547-2220", "website": "https://www.foxspizza.com/store/pennsylvania/mt-pleasant-pa/", "opening_hours": "Monday: CLOSED; Tuesday: 11:00 AM to 8:00 PM; Wednesday: 11:00 AM to 8:00 PM; Thursday: 11:00 AM to 8:00 PM; Friday: 11:00 AM to 9:00 PM; Saturday: 11:00 AM to 9:00 PM; Sunday: 12:00 PM to 8:00 PM", "brand": "Fox's Pizza Den", "brand:wikidata": "Q5476498"}, "geometry": {"type": "Point", "coordinates": [-79.5365028, 40.1223786]}},
{"type": "Feature", "id": "SCQfGTE7BlVMIPHZuEv1JFdz1LA=", "properties": {"ref": "https://www.foxspizza.com/store/pennsylvania/ellwood-city-pa/", "@spider": "foxspizza", "addr:full": "1669 Pennsylvania 65, Ellwood City, PA 16117", "name": "Ellwood City, PA - Fox's Pizza", "phone": "724-201-0900", "website": "https://www.foxspizza.com/store/pennsylvania/ellwood-city-pa/", "opening_hours": "Sun: 11:00 AM to 8:00 PM; Mon: 10:30 to 8:00 PM; Tue: 10:30 to 8:00 PM; Wed: 10:30 to 8:00 PM; Thu: 10:30 to 8:00 PM; Fri: 10:30 to 9:00 PM; Sat: 10:30 to 9:00 PM", "brand": "Fox's Pizza Den", "brand:wikidata": "Q5476498"}, "geometry": {"type": "Point", "coordinates": [-80.276322, 40.8426444]}},
{"type": "Feature", "id": "fsJ9UngRu31Kz05to2IkTk5tyOQ=", "properties": {"ref": "https://www.foxspizza.com/store/pennsylvania/zelienople-pa/", "@spider": "foxspizza", "addr:full": "502 East Grandview Avenue, Zelienople, PA 16063", "name": "Zelienople, PA - Fox's Pizza", "phone": "724-473-4399", "website": "https://www.foxspizza.com/store/pennsylvania/zelienople-pa/", "opening_hours": "Sun: 11:00 AM to 8:00 PM; Mon: 10:30 AM to 8:00 PM; Tue: 10:30 AM to 8:00 PM; Wed: 10:30 AM to 8:00 PM; Thu: 10:30 AM to 8:00 PM; Fri:  10:30 AM to 9:00 PM; Sat: 10:30 AM to 9:00 PM", "brand": "Fox's Pizza Den", "brand:wikidata": "Q5476498"}, "geometry": {"type": "Point", "coordinates": [-80.1286248, 40.7987811]}},
{"type": "Feature", "id": "sFxDly0gR6VEsTFRwhtOTt_g4Ro=", "properties": {"ref": "https://www.foxspizza.com/store/pennsylvania/burgettstown-pa/", "@spider": "foxspizza", "addr:full": "1574 Smith Township State Road, Burgettstown, PA 15021", "name": "Burgettstown, PA - Fox's Pizza", "phone": "724-701-6430", "website": "https://www.foxspizza.com/store/pennsylvania/burgettstown-pa/", "opening_hours": "Sun: 11:00 AM to 9:00 PM; Mon:10:30 AM to 9:00 PM; Tue: 10:30 AM to 9:00 PM; Wed: 10:30 AM to 9:00 PM; Thu: 10:30 AM to 9:00 PM; Fri: 10:30 AM to 10:00 PM; Sat: 10:30 AM to 10:00 PM", "brand": "Fox's Pizza Den", "brand:wikidata": "Q5476498"}, "geometry": {"type": "Point", "coordinates": [-80.3816317, 40.3392086]}},
{"type": "Feature", "id": "tToekOmjKp3t1Ra60Dmn0oAYmJI=", "properties": {"ref": "https://www.foxspizza.com/store/ohio/baltic-oh/", "@spider": "foxspizza", "addr:full": "121 East Main Street, Baltic, OH 43804", "name": "Baltic, OH - Fox's Pizza", "phone": "330-897-5004", "website": "https://www.foxspizza.com/store/ohio/baltic-oh/", "opening_hours": "Sunday: CLOSED; Monday: CLOSED; Tuesday: 4:00 PM to 9:00 PM; Wednesday: 4:00 PM to 9:00 PM; Thursday: 4:00 PM to 9:00 PM; Friday: 11:00 AM to 9:00 PM; Saturday: 11:00 AM to 9:00 PM", "brand": "Fox's Pizza Den", "brand:wikidata": "Q5476498"}, "geometry": {"type": "Point", "coordinates": [-81.7029816, 40.4399929]}},
{"type": "Feature", "id": "L0TIXh6SdCPKNSX0ujNb03_dk3M=", "properties": {"ref": "https://www.foxspizza.com/store/wisconsin/wrightstown-wi/", "@spider": "foxspizza", "addr:full": "119 High Street, Wrightstown, WI 54180", "name": "Wrightstown, WI - Fox's Pizza", "phone": "920-532-0866", "website": "https://www.foxspizza.com/store/wisconsin/wrightstown-wi/", "opening_hours": "Sun: 11:00 AM to 8:00 PM; Mon: Closed; Tue:  11:00 AM to 8:00 PM; Wed: 11:00 AM to 8:00 PM; Thu: 11:00 AM to 8:00 PM; Fri:  11:00 AM to 9:00 PM; Sat: 11:00 AM to 9:00 PM", "brand": "Fox's Pizza Den", "brand:wikidata": "Q5476498"}, "geometry": {"type": "Point", "coordinates": [-88.163222, 44.325963]}},
{"type": "Feature", "id": "VoNKIu-KALBtTBeHjJ4nipVuwoI=", "properties": {"ref": "https://www.foxspizza.com/store/pennsylvania/richland-twp-pa/", "@spider": "foxspizza", "addr:full": "1425 Scalp Avenue, Johnstown, PA 15904", "name": "Richland Twp., PA - Fox's Pizza", "phone": "814-262-9300", "website": "https://www.foxspizza.com/store/pennsylvania/richland-twp-pa/", "opening_hours": "Sun: 11:00 AM to 10:00 PM; Mon: 11:00 AM to 10:00 PM; Tue: 11:00 AM to 10:00 PM; Wed: 11:00 AM to 10:00 PM; Thu: 11:00 AM to 10:00 PM; Fri: 11:00 AM to 11:00 PM; Sat: 11:00 AM to 11:00 PM", "brand": "Fox's Pizza Den", "brand:wikidata": "Q5476498"}, "geometry": {"type": "Point", "coordinates": [-78.8564892, 40.2723128]}},
{"type": "Feature", "id": "wh0C1MbAOuuK8IUdogjXgE_n_hU=", "properties": {"ref": "https://www.foxspizza.com/store/ohio/millersburg-oh/", "@spider": "foxspizza", "addr:full": "42 North Grant Street, Millersburg, OH 44654", "name": "Millersburg, OH - Fox's Pizza", "phone": "330-674-1369", "website": "https://www.foxspizza.com/store/ohio/millersburg-oh/", "opening_hours": "Sun: 4:00 PM to 9:00 PM; Mon: Closed; Tue: 4:00 PM to 9:00 PM; Wed: 4:00 PM to 9:00 PM; Thu: 4:00 PM to 9:00 PM; Fri: 4:00 PM to 10:00 PM; Sat: 4:00 PM to 10:00 PM", "brand": "Fox's Pizza Den", "brand:wikidata": "Q5476498"}, "geometry": {"type": "Point", "coordinates": [-81.9210408, 40.5548403]}},
{"type": "Feature", "id": "MgnI3yELflnBN86B1h0u2lwmyrc=", "properties": {"ref": "https://www.foxspizza.com/store/ohio/englewood-oh/", "@spider": "foxspizza", "addr:full": "606 Taywood Road, Englewood, OH 45322", "name": "Englewood, OH - Fox's Pizza", "phone": "937-540-9613", "website": "https://www.foxspizza.com/store/ohio/englewood-oh/", "opening_hours": "Sun: 1:00 PM to 9:00 PM; Mon:  11:00 AM to 9:00 PM; Tues: 11:00 AM to 9:00 PM; Wed:   11:00 AM to 9:00 PM; Thurs:  11:00 AM to 9:00 PM; Fri:   11:00 AM to 10:00 PM; Sat:  11:00 AM to 10:00 PM", "brand": "Fox's Pizza Den", "brand:wikidata": "Q5476498"}, "geometry": {"type": "Point", "coordinates": [-84.2899371, 39.8658128]}},
{"type": "Feature", "id": "VRTz7hgI6UWGVGNSZ3_6HERVQ1M=", "properties": {"ref": "https://www.foxspizza.com/store/delaware/selbyville-de/", "@spider": "foxspizza", "addr:full": "31225 Americana Parkway, Selbyville, DE 19975", "name": "Selbyville, DE - Fox's Pizza", "phone": "302-436-3697", "website": "https://www.foxspizza.com/store/delaware/selbyville-de/", "opening_hours": "Sun:  11:00 AM to 1:00 AM; Mon:  11:00 AM to 1:00 AM; Tue:   11:00 AM to 1:00 AM; Wed:  11:00 AM to 1:00 AM; Thu:  11:00 AM to 1:00 AM; Fri:   11:00 AM to 1:00 AM; Sat:  11:00 AM to 1:00 AM", "brand": "Fox's Pizza Den", "brand:wikidata": "Q5476498"}, "geometry": {"type": "Point", "coordinates": [-75.1138075, 38.4695371]}},
{"type": "Feature", "id": "ttZxd3cSDXIDHxLnqsuVQ7DNSnE=", "properties": {"ref": "https://www.foxspizza.com/store/georgia/savannah-ga/", "@spider": "foxspizza", "addr:full": "485 Jimmy Deloach Parkway, Savannah, GA 31407", "name": "Savannah, GA - Fox's Pizza", "website": "https://www.foxspizza.com/store/georgia/savannah-ga/", "opening_hours": "Monday: 11:00 AM to 9:00 PM; Tuesday: 11:00 AM to 9:00 PM; Wednesday: 11:00 AM to 9:00 PM; Thursday: 11:00 AM to 9:00 PM; Friday: 11:00 AM to 9:00 PM; Saturday: 11:00 AM to 9:00 PM; Sunday: 12:00 PM to 9:00 PM", "brand": "Fox's Pizza Den", "brand:wikidata": "Q5476498"}, "geometry": {"type": "Point", "coordinates": [-81.2314674, 32.1635656]}},
{"type": "Feature", "id": "ZzjuD_g5Sb7PCHLP5wJ35vJpxEg=", "properties": {"ref": "https://www.foxspizza.com/store/tennessee/hendersonville-tn/", "@spider": "foxspizza", "addr:full": "235 East Main Street, Hendersonville, TN 37075", "name": "Hendersonville, TN - Fox's Pizza", "phone": "615-822-3697", "website": "https://www.foxspizza.com/store/tennessee/hendersonville-tn/", "opening_hours": "Sun: 10:00 AM to 11:00 PM; Mon: 10:00 AM to 11:00 PM; Tue: 10:00 AM to 11:00 PM; Wed: 10:00 AM to 11:00 PM; Thu: 10:00 AM to 11:00 PM; Fri: 10:00 AM to 12:00 AM; Sat: 10:00 AM to 12:00 AM", "brand": "Fox's Pizza Den", "brand:wikidata": "Q5476498"}, "geometry": {"type": "Point", "coordinates": [-86.6011219, 36.3075859]}},
{"type": "Feature", "id": "zG62nKrJpDak86cua8pMnkfDewo=", "properties": {"ref": "https://www.foxspizza.com/store/west-virginia/cheat-lake-wv/", "@spider": "foxspizza", "addr:full": "200 Fort Pierpont Drive, Morgantown, WV 26508", "name": "Cheat Lake, WV - Fox's Pizza", "phone": "304-777-2173", "website": "https://www.foxspizza.com/store/west-virginia/cheat-lake-wv/", "opening_hours": "Sun: 11:00 AM to 9:00 PM; Mon: 11:00 AM to 9:00 PM; Tue: 11:00 AM to 9:00 PM; Wed: 11:00 AM to 9:00 PM; Thu: 11:00 AM to 9:00 PM; Fri: 11:00 AM to 10:00 PM; Sat: 11:00 AM to 10:00 PM", "brand": "Fox's Pizza Den", "brand:wikidata": "Q5476498"}, "geometry": {"type": "Point", "coordinates": [-79.89115, 39.6534449]}},
{"type": "Feature", "id": "jXSvLNBoFt-5wtYSASUieideTCQ=", "properties": {"ref": "https://www.foxspizza.com/store/pennsylvania/brookville-pa/", "@spider": "foxspizza", "addr:full": "275 Main Street, Brookville, PA 15825", "name": "Brookville, PA - Fox's Pizza", "phone": "814-849-7777", "website": "https://www.foxspizza.com/store/pennsylvania/brookville-pa/", "opening_hours": "Sun: 10:30 AM to 10:00 PM; Mon: 10:30 AM to 10:00 PM; Tue: 10:30 AM to 10:00 PM; Wed: 10:30 AM to 10:00 PM; Thu: 10:30 AM to 10:00 PM; Fri: 10:30 AM to 10:00 PM; Sat: 10:30 AM to 10:00 PM", "brand": "Fox's Pizza Den", "brand:wikidata": "Q5476498"}, "geometry": {"type": "Point", "coordinates": [-79.0814082, 41.1603427]}},
{"type": "Feature", "id": "km3ps36WL7ERKRIg-qEuRaE0VXg=", "properties": {"ref": "https://www.foxspizza.com/store/pennsylvania/dubois-pa/", "@spider": "foxspizza", "addr:full": "1 East Dubois Avenue, DuBois, PA 15801", "name": "DuBois, PA - Fox's Pizza", "phone": "814-371-0444", "website": "https://www.foxspizza.com/store/pennsylvania/dubois-pa/", "opening_hours": "Sun:  10:30 AM to 10:00 PM; Mon:  10:30 AM to 10:00 PM; Tue:  10:30 AM to 10:00 PM; Wed:  10:30 AM to 10:00 PM; Thu:  10:30 AM to 10:00 PM; Fri:  : 10:30 AM to 11:00 PM; Sat: : 10:30 AM to 11:00 PM", "brand": "Fox's Pizza Den", "brand:wikidata": "Q5476498"}, "geometry": {"type": "Point", "coordinates": [-78.7574062, 41.1283594]}},
{"type": "Feature", "id": "gPm0JBCIOSE4E3sq21jlAaqu2YQ=", "properties": {"ref": "https://www.foxspizza.com/store/pennsylvania/monongahela-pa/", "@spider": "foxspizza", "addr:full": "1235 West Main Street, Monongahela, PA 15063", "name": "Monongahela, PA - Fox's Pizza", "phone": "724-310-2080", "website": "https://www.foxspizza.com/store/pennsylvania/monongahela-pa/", "opening_hours": "Monday: 11:00 AM to 9:00 PM; Tuesday: CLOSED; Wednesday: 11:00 AM to 9:00 PM; Thursday: 11:00 AM to 9:00 PM; Friday: 11:00 AM to 9:00 PM; Saturday: 11:00 AM to 9:00 PM; Sunday: 11:00 AM to 9:00 PM", "brand": "Fox's Pizza Den", "brand:wikidata": "Q5476498"}, "geometry": {"type": "Point", "coordinates": [-79.9382481, 40.2067852]}},
{"type": "Feature", "id": "-1FSttb8ZhjoOU4S0X8pAXEsCNQ=", "properties": {"ref": "https://www.foxspizza.com/store/southcarolina/socastee-surfside-beach-sc/", "@spider": "foxspizza", "addr:full": "4620 Dick Pond Road, Myrtle Beach, SC 29588", "name": "Socastee, SC - Fox's Pizza", "phone": "843-831-0800", "website": "https://www.foxspizza.com/store/southcarolina/socastee-surfside-beach-sc/", "opening_hours": "Sun: 4:00 PM to 9:00 PM; Mon: 11:00 AM to 9:00 PM; Tue: 11:00 AM to 9:00 PM; Wed: 11:00 AM to 9:00 PM; Thu: 11:00 AM to 9:00 PM; Fri: 11:00 AM to 11:00 PM; Sat: 11:00 AM to 11:00 PM", "brand": "Fox's Pizza Den", "brand:wikidata": "Q5476498"}, "geometry": {"type": "Point", "coordinates": [-78.9974396, 33.6705162]}},
{"type": "Feature", "id": "l9uB1fvD_mg9NRr-Us8rfVRv6Ww=", "properties": {"ref": "https://www.foxspizza.com/store/pennsylvania/uniontown-pa/", "@spider": "foxspizza", "addr:full": "26 East Fayette Street, Uniontown, PA 15401", "name": "Uniontown, PA - Fox's Pizza", "phone": "724-437-6500", "website": "https://www.foxspizza.com/store/pennsylvania/uniontown-pa/", "opening_hours": "Sun: 12:00 PM to 9:00 PM; Mon: 11:00 AM to 10:00 PM; Tue: 11:00 AM to 10:00 PM; Wed: 11:00 AM to 10:00 PM; Thu: 11:00 AM to 10:00 PM; Fri: 11:00 AM to 10:00 PM; Sat: 11:00 AM to 10:00 PM", "brand": "Fox's Pizza Den", "brand:wikidata": "Q5476498"}, "geometry": {"type": "Point", "coordinates": [-79.7250455, 39.8978176]}},
{"type": "Feature", "id": "XMicNbH_4glw2sm5SZM-BmO39FU=", "properties": {"ref": "https://www.foxspizza.com/store/pennsylvania/center-township-pa/", "@spider": "foxspizza", "addr:full": "3589 Brodhead Road, Monaca, PA 15061", "name": "Center Township, PA - Fox's Pizza", "phone": "724-371-0030", "website": "https://www.foxspizza.com/store/pennsylvania/center-township-pa/", "opening_hours": "Sun: 12:00 PM to 8:00 PM; Mon: 4:00 PM to 8:00 PM; Tue: 4:00 PM to 8:00 PM; Wed: 4:00 PM to 8:00 PM; Thu: 11:00 AM to 8:00 PM; Fri:  11:00 AM to 9:00 PM; Sat:  11:00 AM to 9:00 PM", "brand": "Fox's Pizza Den", "brand:wikidata": "Q5476498"}, "geometry": {"type": "Point", "coordinates": [-80.3168489, 40.6589848]}},
{"type": "Feature", "id": "UNUJqmlOPzZk5SkhIeO9fpNvojE=", "properties": {"ref": "https://www.foxspizza.com/store/pennsylvania/roaring-spring-pa/", "@spider": "foxspizza", "addr:full": "908 Walnut Street, Roaring Spring, PA 16673", "name": "Roaring Spring, PA - Fox's Pizza", "phone": "814-793-3366", "website": "https://www.foxspizza.com/store/pennsylvania/roaring-spring-pa/", "opening_hours": "Sunday: 12:00 PM to 7:00 PM; Monday:  11:00 AM to 8:00 PM; Tuesday:  11:00 AM to 8:00 PM; Wednesday:  CLOSED; Thursday:  11:00 AM to 8:00 PM; Friday:  11:00 AM to 10:00 PM; Saturday:  11:00 AM to 10:00 PM", "brand": "Fox's Pizza Den", "brand:wikidata": "Q5476498"}, "geometry": {"type": "Point", "coordinates": [-78.3909468, 40.3336208]}},
{"type": "Feature", "id": "HjmOZsU4_xyzDYpEEQe7oMvXKUk=", "properties": {"ref": "https://www.foxspizza.com/store/west-virginia/kingwood-wv/", "@spider": "foxspizza", "addr:full": "400 East Main Street, Kingwood, WV 26537", "name": "Kingwood, WV - Fox's Pizza", "phone": "304-329-0987", "website": "https://www.foxspizza.com/store/west-virginia/kingwood-wv/", "opening_hours": "Sun:  12:00 PM to 9:00 PM; Mon:  11:00 AM to 9:00 PM; Tue:   11:00 AM to 9:00 PM; Wed:  11:00 AM to 9:00 PM; Thu:  11:00 AM to 10:00 PM; Fri:  11:00 AM to 10:00 PM; Sat:  11:00 AM to 10:00 PM", "brand": "Fox's Pizza Den", "brand:wikidata": "Q5476498"}, "geometry": {"type": "Point", "coordinates": [-79.6743732, 39.4696763]}},
{"type": "Feature", "id": "e3YZlw1yYPW2L5rRzG26GEgl5GA=", "properties": {"ref": "https://www.foxspizza.com/store/north_carolina/eastover-nc-2/", "@spider": "foxspizza", "addr:full": "3931 Dunn Road, Eastover, NC 28312", "name": "Eastover, NC - Fox's Pizza", "phone": "910-323-3697", "website": "https://www.foxspizza.com/store/north_carolina/eastover-nc-2/", "opening_hours": "Sun: 11:00 AM to 7:00 PM; Mon: 11:00 AM to 9:00 PM; Tue: 11:00 AM to 9:00 PM; Wed: 11:00 AM to 9:00 PM; Thu: 11:00 AM to 9:00 PM; Fri: 11:00 AM to 10:00 PM; Sat: 11:00 AM to 10:00 PM", "brand": "Fox's Pizza Den", "brand:wikidata": "Q5476498"}, "geometry": {"type": "Point", "coordinates": [-78.7817834, 35.1000279]}},
{"type": "Feature", "id": "0IgqC80JYD6tmAk1YK6ItgrOQts=", "properties": {"ref": "https://www.foxspizza.com/store/pennsylvania/hastings-pa/", "@spider": "foxspizza", "addr:full": "297 Beaver Street, Hastings, PA 16646", "name": "Hastings, PA - Fox's Pizza", "phone": "814-247-5173", "website": "https://www.foxspizza.com/store/pennsylvania/hastings-pa/", "opening_hours": "Sunday: 10:30 am to 9:00 pm; Monday: 10:30 am to 9:00 pm; Tuesday: 10:30 am to 9:00 pm; Wednesday: 10:30 am to 9:00 pm; Thursday: 10:30 am to 9:00 pm; Friday: 10:30 am to 10:00 pm; Saturday: 10:30 am to 10:00 pm", "brand": "Fox's Pizza Den", "brand:wikidata": "Q5476498"}, "geometry": {"type": "Point", "coordinates": [-78.7124785, 40.664823]}},
{"type": "Feature", "id": "-z-cwaSk-La7pmj8erNF445-3kM=", "properties": {"ref": "https://www.foxspizza.com/store/indiana/anson-zionsville-in/", "@spider": "foxspizza", "addr:full": "6565 Whitestown Parkway, Zionsville, IN 46077", "name": "Anson-Zionsville, IN - Fox's Pizza", "phone": "317-769-2336", "website": "https://www.foxspizza.com/store/indiana/anson-zionsville-in/", "opening_hours": "Sun: 4:30 to 9:00 PM; Mon:  4:30 to 9:00 PM; Tue: 11:00 AM to 9:00 PM; Wed: 11:00 AM to 9:00 PM; Thu: 11:00 AM to 9:00 PM; Fri: 10:30 AM to 10:00 PM; Sat: 11:00 AM to 10:00 PM", "brand": "Fox's Pizza Den", "brand:wikidata": "Q5476498"}, "geometry": {"type": "Point", "coordinates": [-86.3442098, 39.9474529]}},
{"type": "Feature", "id": "poUBwRD02TxidGvH2kEEwRjRUbE=", "properties": {"ref": "https://www.foxspizza.com/store/pennsylvania/turtle-creek-pa/", "@spider": "foxspizza", "addr:full": "104 Church Street, Turtle Creek, PA 15145", "name": "Turtle Creek, PA - Fox's Pizza", "phone": "412-823-9960", "website": "https://www.foxspizza.com/store/pennsylvania/turtle-creek-pa/", "opening_hours": "Sun: 12:00 PM to 8:00 PM; Mon: 10:30 AM to 9:00 PM; Tue: 10:30 AM to 9:00 PM; Wed: 10:30 AM to 9:00 PM; Thu: 10:30 AM to 9:00 PM; Fri: 10:30 AM to 10:00 PM; Sat: 10:30 AM to 10:00 PM", "brand": "Fox's Pizza Den", "brand:wikidata": "Q5476498"}, "geometry": {"type": "Point", "coordinates": [-79.8261177, 40.4052608]}},
{"type": "Feature", "id": "oQcl9xqwM1hWNAYra8hyCPvbZ40=", "properties": {"ref": "https://www.foxspizza.com/store/maryland/oakland-md/", "@spider": "foxspizza", "addr:full": "259 North 3rd Street, Oakland, MD 21550", "name": "Oakland, MD - Fox's Pizza", "phone": "301-334-3212", "website": "https://www.foxspizza.com/store/maryland/oakland-md/", "opening_hours": "Sun: Closed; Mon:  11:00 AM to 9:00 PM; Tue: 11:00 AM to 9:00 PM; Wed: 11:00 AM to 9:00 PM; Thu:11:00 AM to 9:00 PM; Fri: 11:00 AM to 10:00 PM; Sat:  11:00 AM to 10:00 PM", "brand": "Fox's Pizza Den", "brand:wikidata": "Q5476498"}, "geometry": {"type": "Point", "coordinates": [-79.4029079, 39.4145865]}},
{"type": "Feature", "id": "q74TPsWddb-AeZ1GHV2xzGJ4OVs=", "properties": {"ref": "https://www.foxspizza.com/store/pennsylvania/belle-vernon-pa/", "@spider": "foxspizza", "addr:full": "819 Broad Avenue, Belle Vernon, PA 15012", "name": "Belle Vernon, PA - Fox's Pizza", "phone": "724-929-4121", "website": "https://www.foxspizza.com/store/pennsylvania/belle-vernon-pa/", "opening_hours": "Sun:  3:00 PM to 9:00 PM; Mon: 3:00 PM to 9:00 PM; Tue:  CLOSED; Wed: 3:00 PM to 9:00 PM; Thu:  3:00 PM to 9:00 PM; Fri:  3:00 PM to 10:00 PM; Sat:  3:00 PM to 10:00 PM", "brand": "Fox's Pizza Den", "brand:wikidata": "Q5476498"}, "geometry": {"type": "Point", "coordinates": [-79.85993, 40.132312]}},
{"type": "Feature", "id": "f0jbtTtr56TO_MdeJKG1rzIAiAI=", "properties": {"ref": "https://www.foxspizza.com/store/maryland/berlin-md/", "@spider": "foxspizza", "addr:full": "11328 Samuel Bowen Boulevard, Berlin, MD 21811", "name": "Berlin, MD - Fox's Pizza", "phone": "410-600-1020", "website": "https://www.foxspizza.com/store/maryland/berlin-md/", "opening_hours": "Sun: 11:00 AM to 12:00 AM; Mon: 11:00 AM to 12:00 AM; Tue: 11:00 AM to 12:00 AM; Wed:11:00 AM to 12:00 AM; Thu:11:00 AM to 12:00 AM; Fri:11:00 AM to 2:00 AM; Sat: 11:00 AM to 2:00 AM", "brand": "Fox's Pizza Den", "brand:wikidata": "Q5476498"}, "geometry": {"type": "Point", "coordinates": [-75.1663033, 38.3437094]}},
{"type": "Feature", "id": "7pceya7ASej8zcZ3JQhN-KCEd_U=", "properties": {"ref": "https://www.foxspizza.com/store/indiana/plainfield-in/", "@spider": "foxspizza", "addr:full": "1070 West Main Street, Plainfield, IN 46168", "name": "Plainfield, IN - Fox's Pizza", "phone": "317-268-8558", "website": "https://www.foxspizza.com/store/indiana/plainfield-in/", "opening_hours": "Sun: 11:30 AM to 9:00 PM; Mon:  11:00 AM to 9:00 PM; Tue:  11:00 AM to 9:00 PM; Wed:  11:00 AM to 9:00 PM; Thu:  11:00 AM to 9:00 PM; Fri:  11:00 AM to 10:00 PM; Sat:  11:00 AM to 10:00 PM", "brand": "Fox's Pizza Den", "brand:wikidata": "Q5476498"}, "geometry": {"type": "Point", "coordinates": [-86.4177026, 39.6983379]}},
{"type": "Feature", "id": "SSSGdFXi4L568t8Py6CNSl8ONWY=", "properties": {"ref": "https://www.foxspizza.com/store/tennessee/kingsport-tn/", "@spider": "foxspizza", "addr:full": "1233 North Eastman Road, Kingsport, TN 37664", "name": "Kingsport, TN - Fox's Pizza", "phone": "423-230-0070", "website": "https://www.foxspizza.com/store/tennessee/kingsport-tn/", "opening_hours": "Sun: 10:00 AM to 10:00 PM; Mon: 10:00 AM to 10:00 PM; Tue: 10:00 AM to 10:00 PM; Wed: 10:00 AM to 10:00 PM; Thu: 10:00 AM to 10:00 PM; Fri: 10:00 AM to 11:00 PM; Sat: 10:00 AM to 11:00 PM", "brand": "Fox's Pizza Den", "brand:wikidata": "Q5476498"}, "geometry": {"type": "Point", "coordinates": [-82.5274709, 36.5310512]}},
{"type": "Feature", "id": "71U0KpFJITzDL94JP9WNhUIl8m4=", "properties": {"ref": "https://www.foxspizza.com/store/pennsylvania/butler-pa/", "@spider": "foxspizza", "addr:full": "505 Hansen Avenue, Butler, PA 16001", "name": "Butler, PA - Fox's Pizza", "phone": "724-841-0369", "website": "https://www.foxspizza.com/store/pennsylvania/butler-pa/", "opening_hours": "Sun: 12:00 PM to 9:00 PM; Mon: CLOSED; Tue: 11:00 AM to 9:00 PM; Wed: 11:00 AM to 9:00 PM; Thu: 11:00 AM to 9:00 PM; Fri: 11:00 AM to 10:00 PM; Sat: 11:00 AM to 10:00 PM", "brand": "Fox's Pizza Den", "brand:wikidata": "Q5476498"}, "geometry": {"type": "Point", "coordinates": [-79.911034, 40.8571207]}},
{"type": "Feature", "id": "-5BMD84dzxORnB5IPgMjiUNiud8=", "properties": {"ref": "https://www.foxspizza.com/store/pennsylvania/connellsville-pa/", "@spider": "foxspizza", "addr:full": "455 Pennsylvania 201, Connellsville, PA 15425", "name": "Connellsville, PA - Fox's Pizza", "phone": "724-620-2803", "website": "https://www.foxspizza.com/store/pennsylvania/connellsville-pa/", "opening_hours": "Mon: 3:00 PM to 10:00 PM; Tues: 3:00 PM to 10:00 PM; Wed: 11:00 AM to 10:00 PM; Thurs: 11:00 AM to 10:00 PM; Fri: 11:00 AM to 11:00 PM; Sat: 11:00 AM to 11:00 PM; Sun: 12:00 PM to 9:00 PM", "brand": "Fox's Pizza Den", "brand:wikidata": "Q5476498"}, "geometry": {"type": "Point", "coordinates": [-79.6349668, 40.0259155]}},
{"type": "Feature", "id": "FeHHAxVuW12_D8j1Dbw0faxMLOg=", "properties": {"ref": "https://www.foxspizza.com/store/west-virginia/buckhannon-wv/", "@spider": "foxspizza", "addr:full": "415 East 3rd Street, Weston, WV 26452", "name": "Weston, WV - Fox's Pizza", "phone": "304-269-3697", "website": "https://www.foxspizza.com/store/west-virginia/buckhannon-wv/", "opening_hours": "Sun: Closed; Mon: 11:00 AM to 8:00 PM; Tue: 11:00 AM to 8:00 PM; Wed: 11:00 AM to 8:00 PM; Thu: 11:00 AM to 8:00 PM; Fri: 11:00 AM to 9:00 PM; Sat: 11:00 AM to 9:00 PM", "brand": "Fox's Pizza Den", "brand:wikidata": "Q5476498"}, "geometry": {"type": "Point", "coordinates": [-80.4600515, 39.0374003]}},
{"type": "Feature", "id": "P3nrA8j5sUjQBpPaw5odIgBXhp4=", "properties": {"ref": "https://www.foxspizza.com/store/pennsylvania/clarion-pa/", "@spider": "foxspizza", "addr:full": "511 Main Street, Clarion, PA 16214", "name": "Clarion, PA - Fox's Pizza", "phone": "814-226-7777", "website": "https://www.foxspizza.com/store/pennsylvania/clarion-pa/", "opening_hours": "Sun: 12:00 PM to 9:00 PM; Mon: 3:00 PM to 9:00 PM; Tue: 3:00 PM to 9:00 PM; Wed: 11:00 AM to 9:00 PM; Thu: 11:00 AM to 9:00 PM; Fri:  11:00 AM to 9:00 PM; Sat:  11:00 AM to 9:00 PM", "brand": "Fox's Pizza Den", "brand:wikidata": "Q5476498"}, "geometry": {"type": "Point", "coordinates": [-79.3850887, 41.21465]}},
{"type": "Feature", "id": "ew8F9PRP4VIakjO-MpSMHYhXtKE=", "properties": {"ref": "https://www.foxspizza.com/store/pennsylvania/donegal-pa/", "@spider": "foxspizza", "addr:full": "3846 Pennsylvania 31, Donegal, PA 15628", "name": "Donegal, PA - Fox's Pizza", "phone": "724-593-3697", "website": "https://www.foxspizza.com/store/pennsylvania/donegal-pa/", "opening_hours": "Sun: 12:00 PM to 9:00 PM; Mon: 3:00 PM to 9:00 PM; Tue: 3:00 PM to 9:00 PM; Wed: 3:00 PM to 9:00 PM; Thu: 3:00 PM to 9:00 PM; Fri: 12:00 PM to 10:00 PM; Sat: 12:00 PM to 10:00 PM", "brand": "Fox's Pizza Den", "brand:wikidata": "Q5476498"}, "geometry": {"type": "Point", "coordinates": [-79.359316, 40.0979187]}},
{"type": "Feature", "id": "yc-PggqP28mSqyWICZlWrMZBwK4=", "properties": {"ref": "https://www.foxspizza.com/store/west-virginia/fairmont-wv/", "@spider": "foxspizza", "addr:full": "94 Fairmont Avenue, Fairmont, WV 26554", "name": "Fairmont, WV - Fox's Pizza", "phone": "304-367-0000", "website": "https://www.foxspizza.com/store/west-virginia/fairmont-wv/", "opening_hours": "Sun:  11:00 AM to 9:00 PM; Mon: 11:00 AM to 9:00 PM; Tue: 11:00 AM to 9:00 PM; Wed: 11:00 AM to 9:00 PM; Thu: 11:00 AM to 9:00 PM; Fri:  11:00 AM to 9:00 PM; Sat:  11:00 AM to 9:00 PM", "brand": "Fox's Pizza Den", "brand:wikidata": "Q5476498"}, "geometry": {"type": "Point", "coordinates": [-80.1459287, 39.4826989]}},
{"type": "Feature", "id": "dg4s8v0tqMWAYYtx21K9hLbsO6w=", "properties": {"ref": "https://www.foxspizza.com/store/west-virginia/moorefield-wv/", "@spider": "foxspizza", "addr:full": "120 South Main Street, Moorefield, WV 26836", "name": "Moorefield, WV - Fox's Pizza", "phone": "304-538-2424", "website": "https://www.foxspizza.com/store/west-virginia/moorefield-wv/", "opening_hours": "Sun: 11:00 AM to 9:00 PM; Mon:  9:00 AM to 9:30 PM; Tue:   9:00 AM to 9:30 PM; Wed: 9:00 AM to 9:30 PM; Thu:  9:00 AM to 9:30 PM; Fri:   9:00 AM to 10:30 PM; Sat: 10:00 AM to 10:30 PM", "brand": "Fox's Pizza Den", "brand:wikidata": "Q5476498"}, "geometry": {"type": "Point", "coordinates": [-78.9698977, 39.0614436]}},
{"type": "Feature", "id": "QysMIbP5hZvWzloQ7szIONKg8QU=", "properties": {"ref": "https://www.foxspizza.com/store/west-virginia/romney-wv/", "@spider": "foxspizza", "addr:full": "472 North High Street, Romney, WV 26757", "name": "Romney, WV - Fox's Pizza", "phone": "304-822-3831", "website": "https://www.foxspizza.com/store/west-virginia/romney-wv/", "opening_hours": "Sun:  11:00 AM to 9:30 PM; Mon: 11:00 AM to 9:30 PM; Tue:  11:00 AM to 9:30 PM; Wed: 11:00 AM to 9:30 PM; Thu: 11:00 AM to 9:30 PM; Fri: 11:00 AM to 10:30 PM; Sat: 11:00 AM to 10:30 PM", "brand": "Fox's Pizza Den", "brand:wikidata": "Q5476498"}, "geometry": {"type": "Point", "coordinates": [-78.754019, 39.3470781]}},
{"type": "Feature", "id": "g6XjzazmflE3kWCxFqA1Uo4tc_k=", "properties": {"ref": "https://www.foxspizza.com/store/pennsylvania/russellton-pa/", "@spider": "foxspizza", "addr:full": "908 Little Deer Creek Valley Road, Russellton, PA 15076", "name": "Russellton, PA - Fox's Pizza", "phone": "724-265-3697", "website": "https://www.foxspizza.com/store/pennsylvania/russellton-pa/", "opening_hours": "Sun:  11:00 AM to 9:00 PM; Mon: 10:00 AM to 9:00 PM; Tue: 10:00 AM to 9:00 PM; Wed: 10:00 AM to 9:00 PM; Thu: 10:00 AM to 9:00 PM; Fri:  10:00 AM to 10:00 PM; Sat: 10:00 AM to 10:00 PM", "brand": "Fox's Pizza Den", "brand:wikidata": "Q5476498"}, "geometry": {"type": "Point", "coordinates": [-79.8331458, 40.6082302]}},
{"type": "Feature", "id": "NNPHcO-DrlV7WwiD6I1XxtTk6yw=", "properties": {"ref": "https://www.foxspizza.com/store/west-virginia/huntington-wv/", "@spider": "foxspizza", "addr:full": "1523 Madison Avenue, Huntington, WV 25704", "name": "Huntington, WV - Fox's Pizza", "phone": "681-888-5907", "website": "https://www.foxspizza.com/store/west-virginia/huntington-wv/", "opening_hours": "Sunday: 10:30 am to 9:00 pm; Monday: 10:30 am to 9:00 pm; Tuedsay: 10:30 am to 9:00 pm; Wednesday: 10:30 am to 9:00 pm; Thursday: 10:30 am to 9:00 pm; Friday: 10:30 am to 10:00 pm; Saturday: 10:30 am to 10:00 pm", "brand": "Fox's Pizza Den", "brand:wikidata": "Q5476498"}, "geometry": {"type": "Point", "coordinates": [-82.4809234, 38.4084507]}},
{"type": "Feature", "id": "TvOYgxD_Qd0QivtoPqrZzq8Hv2A=", "properties": {"ref": "https://www.foxspizza.com/store/pennsylvania/greensburg-pa/", "@spider": "foxspizza", "addr:full": "641 East Pittsburgh Street, Greensburg, PA 15601", "name": "Greensburg, PA - Fox's Pizza", "phone": "724-219-3503", "website": "https://www.foxspizza.com/store/pennsylvania/greensburg-pa/", "opening_hours": "Sun:  11:00 AM to 10:00 PM; Mon:  10:30 AM to 10:00 PM; Tue:   10:30 AM to 10:00 PM; Wed: 10:30 AM to 10:00 PM; Thu:  10:30 AM to 10:00 PM; Fri:  10:30 AM to 11:00 PM; Sat: 10:30 AM to 11:00 PM", "brand": "Fox's Pizza Den", "brand:wikidata": "Q5476498"}, "geometry": {"type": "Point", "coordinates": [-79.5301831, 40.3030975]}},
{"type": "Feature", "id": "1oBS5Kl5KZmL83REpF2uOIapMdQ=", "properties": {"ref": "https://www.foxspizza.com/store/louisiana/olla-la/", "@spider": "foxspizza", "addr:full": "4513 Main Street, Olla, LA 71465", "name": "Olla, LA - Fox's Pizza", "phone": "318-495-3315", "website": "https://www.foxspizza.com/store/louisiana/olla-la/", "opening_hours": "Sunday: 11:00 am to 9:00 pm; Monday: 11:00 am to 9:00 pm; Tuesday: 11:00 am to 9:00 pm; Wednesday: 11:00 am to 9:00 pm; Thursday: 11:00 am to 9:00 pm; Friday: 11:00 am to 9:00 pm; Saturday: 11:00 am to 9:00 pm", "brand": "Fox's Pizza Den", "brand:wikidata": "Q5476498"}, "geometry": {"type": "Point", "coordinates": [-92.2388949, 31.8919385]}},
{"type": "Feature", "id": "A8tB9L7cSkyPgDADFnGp-Iq1CUo=", "properties": {"ref": "https://www.foxspizza.com/store/alabama/trussville-al/", "@spider": "foxspizza", "addr:full": "199 Beechnut Street, Trussville, AL 35173", "name": "Trussville, AL - Fox's Pizza", "phone": "205-655-2851", "website": "https://www.foxspizza.com/store/alabama/trussville-al/", "opening_hours": "Sun: CLOSED; Mon: 10:30 AM to 9:00 PM; Tue:  10:30 AM to 9:00 PM; Wed: 10:30 AM to 9:00 PM; Thu: 10:30 AM to 9:00 PM; Fri:  10:30 AM to 10:00 PM; Sat: 10:30 AM to 10:00 PM", "brand": "Fox's Pizza Den", "brand:wikidata": "Q5476498"}, "geometry": {"type": "Point", "coordinates": [-86.6065741, 33.6155643]}},
{"type": "Feature", "id": "IkbhabfusTOOzC0bVLC6FtW1aSU=", "properties": {"ref": "https://www.foxspizza.com/store/pennsylvania/moon-township-pa/", "@spider": "foxspizza", "addr:full": "998 Brodhead Road, Moon, PA 15108", "name": "Moon Township, PA - Fox's Pizza", "phone": "724-457-3697", "website": "https://www.foxspizza.com/store/pennsylvania/moon-township-pa/", "opening_hours": "Sun: 11:30 AM to 9:00 PM; Mon:  11:00 AM to 9:00 PM; Tue:   11:00 AM to 9:00 PM; Wed:   11:00 AM to 9:00 PM; Thu:   11:00 AM to 9:00 PM; Fri:  11:00 AM to 10:00 PM; Sat:   11:00 AM to 10:00 PM", "brand": "Fox's Pizza Den", "brand:wikidata": "Q5476498"}, "geometry": {"type": "Point", "coordinates": [-80.2238916, 40.5242154]}},
{"type": "Feature", "id": "fXQepmgrIXLOyvd4EjpRascLN3g=", "properties": {"ref": "https://www.foxspizza.com/store/alabama/argo-al/", "@spider": "foxspizza", "addr:full": "750 U.S. 11, Trussville, AL 35173", "name": "Argo, AL - Fox's Pizza", "phone": "205-467-3444", "website": "https://www.foxspizza.com/store/alabama/argo-al/", "opening_hours": "Sun: CLOSED; Mon: 10:30 AM to 9:00 PM; Tue:  10:30 AM to 9:00 PM; Wed: 10:30 AM to 9:00 PM; Thu: 10:30 AM to 9:00 PM; Fri:  10:30 AM to 10:00 PM; Sat: 10:30 AM to 10:00 PM", "brand": "Fox's Pizza Den", "brand:wikidata": "Q5476498"}, "geometry": {"type": "Point", "coordinates": [-86.5196678, 33.7023626]}},
{"type": "Feature", "id": "0CQPM4P-gj_EOz3nTHfZg1yBtiU=", "properties": {"ref": "https://www.foxspizza.com/store/pennsylvania/davidsville-pa/", "@spider": "foxspizza", "addr:full": "205 South Main Street, Davidsville, PA 15928", "name": "Davidsville, PA - Fox's Pizza", "phone": "814-479-4411", "website": "https://www.foxspizza.com/store/pennsylvania/davidsville-pa/", "opening_hours": "Sun: 12:00 PM to 9:00 PM; Mon: 11:00 AM to 9:00 PM; Tue: 11:00 AM to 9:00 PM; Wed: 11:00 AM to 9:00 PM; Thu: 11:00 AM to 9:00 PM; Fri:  11:00 AM to 10:00 PM; Sat: 11:00 AM to 10:00 PM", "brand": "Fox's Pizza Den", "brand:wikidata": "Q5476498"}, "geometry": {"type": "Point", "coordinates": [-78.9347752, 40.2285015]}},
{"type": "Feature", "id": "hezbDn0hyQoI7RtXXKxjh6fxBik=", "properties": {"ref": "https://www.foxspizza.com/store/georgia/pine-mountain-ga/", "@spider": "foxspizza", "addr:full": "115 State Street, Pine Mountain, GA 31822", "name": "Pine Mountain, GA - Fox's Pizza", "phone": "706-663-2002", "website": "https://www.foxspizza.com/store/georgia/pine-mountain-ga/", "opening_hours": "Sun:  11:00 AM to 9:00 PM; Mon:  11:00 AM to 9:00 PM; Tue:  11:00 AM to 9:00 PM; Wed:  11:00 AM to 9:00 PM; Thu:  11:00 AM to 9:00 PM; Fri: 11:00 AM to 10:00 PM; Sat: 11:00 AM to 10:00 PM", "brand": "Fox's Pizza Den", "brand:wikidata": "Q5476498"}, "geometry": {"type": "Point", "coordinates": [-84.8529795, 32.8611192]}},
{"type": "Feature", "id": "AZ_R0MABmQ2kM4UgCAkYx0ipPJU=", "properties": {"ref": "https://www.foxspizza.com/store/southcarolina/murrells-inlet-sc/", "@spider": "foxspizza", "addr:full": "4326 US Highway 17 Bypass, Murrells Inlet, SC 29576, USA, SC 29576", "name": "Murrells Inlet, SC - Fox's Pizza", "phone": "843-357-3697", "website": "https://www.foxspizza.com/store/southcarolina/murrells-inlet-sc/", "opening_hours": "Sun: 4:00 PM to 9:00 PM; Mon: 11:00 AM to 10:00 PM; Tue: 11:00 AM to 10:00 PM; Wed: 11:00 AM to 10:00 PM; Thu: 11:00 AM to 10:00 PM; Fri: 11:00 AM to 10:00 PM; Sat: 11:00 AM to 10:00 PM", "brand": "Fox's Pizza Den", "brand:wikidata": "Q5476498"}, "geometry": {"type": "Point", "coordinates": [-79.044554, 33.5562819]}},
{"type": "Feature", "id": "FyRKqyZr4ih6LQcZ_VNmF7q7v6M=", "properties": {"ref": "https://www.foxspizza.com/store/mississippi/petal-ms/", "@spider": "foxspizza", "addr:full": "100 Eastbrook Drive, Petal, MS 39465", "name": "Petal, MS - Fox's Pizza", "phone": "601-301-9369", "website": "https://www.foxspizza.com/store/mississippi/petal-ms/", "opening_hours": "Sun: CLOSED; Mon: 11:00 AM to 8:00 PM; Tue: 11:00 AM to 8:00 PM; Wed: 11:00 AM to 8:00 PM; Thu: 11:00 AM to 8:00 PM; Fri: 11:00 AM to 9:00 PM; Sat: 11:00 AM to 9:00 PM", "brand": "Fox's Pizza Den", "brand:wikidata": "Q5476498"}, "geometry": {"type": "Point", "coordinates": [-89.230725, 31.3511963]}},
{"type": "Feature", "id": "_7bBWoKezdolwCid8p4DCla41HE=", "properties": {"ref": "https://www.foxspizza.com/store/pennsylvania/franklin-pa/", "@spider": "foxspizza", "addr:full": "1233 Liberty Street, Franklin, PA 16323", "name": "Franklin, PA - Fox's Pizza", "phone": "814-432-2625", "website": "https://www.foxspizza.com/store/pennsylvania/franklin-pa/", "opening_hours": "Sun: 12:00 PM to 8:00 PM; Mon:  11:00 AM to 8:00 PM; Tue:   11:00 AM to 8:00 PM; Wed:  11:00 AM to 8:00 PM; Thu:  11:00 AM to 8:00 PM; Fri: 11:00 AM to 9:00 PM; Sat: 12:00 PM to 8:00 PM", "brand": "Fox's Pizza Den", "brand:wikidata": "Q5476498"}, "geometry": {"type": "Point", "coordinates": [-79.829551, 41.3973579]}},
{"type": "Feature", "id": "I2AgCXkvZtuqWoXixPIhxUMFdLM=", "properties": {"ref": "https://www.foxspizza.com/store/pennsylvania/seneca-pa/", "@spider": "foxspizza", "addr:full": "3346 Pennsylvania 257, Seneca, PA 16346", "name": "Seneca, PA - Fox's Pizza", "phone": "814-677-1233", "website": "https://www.foxspizza.com/store/pennsylvania/seneca-pa/", "opening_hours": "Sun: 12:00 PM to 8:00 PM; Mon: 11:00 AM to 8:00 PM; Tue: 11:00 AM to 8:00 PM; Wed: 11:00 AM to 8:00 PM; Thu: 11:00 AM to 8:00 PM; Fri: 11:00 AM to 9:00 PM; Sat: 12:00 PM to 9:00 PM", "brand": "Fox's Pizza Den", "brand:wikidata": "Q5476498"}, "geometry": {"type": "Point", "coordinates": [-79.70208, 41.3836198]}},
{"type": "Feature", "id": "6R2rdZ8GrPTMaqC9lEyiKCJttgQ=", "properties": {"ref": "https://www.foxspizza.com/store/ohio/rutland-oh/", "@spider": "foxspizza", "addr:full": "15 Main Street, Rutland, OH 45775", "name": "Rutland, OH - Fox's Pizza", "phone": "740-742-7405", "website": "https://www.foxspizza.com/store/ohio/rutland-oh/", "opening_hours": "Sun:  11:00 AM to 9:00 PM; Mon: 11:00 AM to 9:00 PM; Tue: 11:00 AM to 9:00 PM; Wed: 11:00 AM to 9:00 PM; Thu: 11:00 AM to 9:00 PM; Fri: 11:00 AM to 10:00 PM; Sat: 11:00 AM to 10:00 PM", "brand": "Fox's Pizza Den", "brand:wikidata": "Q5476498"}, "geometry": {"type": "Point", "coordinates": [-82.1308654, 39.0456589]}},
{"type": "Feature", "id": "15hIj0X6Xjtsf4PngOzsH-y9Ig0=", "properties": {"ref": "https://www.foxspizza.com/store/pennsylvania/plum-boro-pa/", "@spider": "foxspizza", "addr:full": "2374 Golden Mile Highway, Plum, PA 15239", "name": "Plum Boro, PA - Fox's Pizza", "phone": "724-327-3697", "website": "https://www.foxspizza.com/store/pennsylvania/plum-boro-pa/", "opening_hours": "Sun:  11:30 AM to 9:00 PM; Mon: 10:30 AM to 9:00 PM; Tue:  10:30 AM to 9:00 PM; Wed: 10:30 AM to 9:00 PM; Thu: 10:30 AM to 9:00 PM; Fri:  10:30 AM to 10:00 PM; Sat: 10:30 AM to 10:00 PM", "brand": "Fox's Pizza Den", "brand:wikidata": "Q5476498"}, "geometry": {"type": "Point", "coordinates": [-79.7046414, 40.4627817]}},
{"type": "Feature", "id": "i3MZPoXjjIoqGQAz3pORwACJMMc=", "properties": {"ref": "https://www.foxspizza.com/store/pennsylvania/chicora-pa/", "@spider": "foxspizza", "addr:full": "125 North Main Street, Chicora, PA 16025", "name": "Chicora, PA - Fox's Pizza", "phone": "724-607-1117", "website": "https://www.foxspizza.com/store/pennsylvania/chicora-pa/", "opening_hours": "Sun: 12:00 PM to 8:00 PM; Mon: 11:00 AM to 8:00 PM; Tue: 11:00 AM to 8:00 PM; Wed: 11:00 AM to 8:00 PM; Thu: 11:00 AM to 8:00 PM; Fri:   11:00 AM to 9:00 PM; Sat:  11:00 AM to 9:00 PM", "brand": "Fox's Pizza Den", "brand:wikidata": "Q5476498"}, "geometry": {"type": "Point", "coordinates": [-79.7422993, 40.9490065]}},
{"type": "Feature", "id": "cfMG6WslVl6ZDd7qR_vFZf1ykw8=", "properties": {"ref": "https://www.foxspizza.com/store/mississippi/columbia-ms/", "@spider": "foxspizza", "addr:full": "418 Sumrall Road, Columbia, MS 39429", "name": "Columbia, MS - Fox's Pizza", "phone": "601-444-0001", "website": "https://www.foxspizza.com/store/mississippi/columbia-ms/", "opening_hours": "Sun: 11:00 AM to 9:00 PM; Mon:  11:00 AM to 9:00 PM; Tue:  11:00 AM to 9:00 PM; Wed: 11:00 AM to 9:00 PM; Thu: 11:00 AM to 9:00 PM; Fri: 11:00 AM to 9:00 PM; Sat: 11:00 AM to 9:00 PM", "brand": "Fox's Pizza Den", "brand:wikidata": "Q5476498"}, "geometry": {"type": "Point", "coordinates": [-89.8124865, 31.2458232]}},
{"type": "Feature", "id": "xd8p2w5oZJlksvb39r4OEfusrSc=", "properties": {"ref": "https://www.foxspizza.com/store/pennsylvania/murrysville-pa/", "@spider": "foxspizza", "addr:full": "4810 Old William Penn Highway, Murrysville, PA 15632", "name": "Murrysville, PA - Fox's Pizza", "phone": "724-519-9686", "website": "https://www.foxspizza.com/store/pennsylvania/murrysville-pa/", "opening_hours": "Sun: 11:00 AM to 8:00 PM; Mon: 11:00 AM to 8:00 PM; Tue:  11:00 AM to 8:00 PM; Wed: 11:00 AM to 8:00 PM; Thu: 11:00 AM to 8:00 PM; Fri:  11:00 AM to 9:00 PM; Sat:  11:00 PM to 9:00 PM", "brand": "Fox's Pizza Den", "brand:wikidata": "Q5476498"}, "geometry": {"type": "Point", "coordinates": [-79.6619714, 40.4246407]}},
{"type": "Feature", "id": "vJtUS6MPYiWSuQ8Vu2t-WHjM5i8=", "properties": {"ref": "https://www.foxspizza.com/store/pennsylvania/latrobe-pa/", "@spider": "foxspizza", "addr:full": "606 Cedar Street, Latrobe, PA 15650", "name": "Latrobe, PA - Fox's Pizza", "phone": "724-539-7558", "website": "https://www.foxspizza.com/store/pennsylvania/latrobe-pa/", "opening_hours": "Sun:  11:00 AM to 10:00 PM; Mon:  10:30 AM to 10:00 PM; Tue:  10:30 AM to 10:00 PM; Wed: 10:30 AM to 10:00 PM; Thu:  10:30 AM to 10:00 PM; Fri: 10:30 AM to 12:00 AM; Sat: 10:30 AM to 12:00 AM", "brand": "Fox's Pizza Den", "brand:wikidata": "Q5476498"}, "geometry": {"type": "Point", "coordinates": [-79.3735043, 40.3091879]}},
{"type": "Feature", "id": "ZXBMdlTSNfaSLKSxsdIg982pT1Y=", "properties": {"ref": "https://www.foxspizza.com/store/tennessee/johnson-city-tn/", "@spider": "foxspizza", "addr:full": "104 University Parkway, Johnson City, TN 37604", "name": "Johnson City, TN - Fox's Pizza", "phone": "423-926-0065", "website": "https://www.foxspizza.com/store/tennessee/johnson-city-tn/", "opening_hours": "Sun: 10:00 AM to 10:00 PM; Mon: 10:00 AM to 10:00 PM; Tue: 10:00 AM to 10:00 PM; Wed: 10:00 AM to 10:00 PM; Thu: 10:00 AM to 10:00 PM; Fri: 10:00 AM to 11:00 PM; Sat: 10:00 AM to 11:00 PM", "brand": "Fox's Pizza Den", "brand:wikidata": "Q5476498"}, "geometry": {"type": "Point", "coordinates": [-82.3432817, 36.3073037]}},
{"type": "Feature", "id": "JBKEyKwXGqOqc5WSpemHGRnnOr4=", "properties": {"ref": "https://www.foxspizza.com/store/pennsylvania/elizabeth-township-pa/", "@spider": "foxspizza", "addr:full": "200 Swiss Way, Elizabeth, PA 15037", "name": "Elizabeth Township, PA - Fox's Pizza", "phone": "412-751-0551", "website": "https://www.foxspizza.com/store/pennsylvania/elizabeth-township-pa/", "opening_hours": "Sun: 12:00 PM to 9:00 PM; Mon: 11:00 AM to 9:30 PM; Tue:  11:00 AM to 9:30 PM; Wed: 11:00 AM to 9:30 PM; Thu:  11:00 AM to 9:30 PM; Fri: 11:00 AM to 11:00 PM; Sat: 11:00 AM to 11:00 PM", "brand": "Fox's Pizza Den", "brand:wikidata": "Q5476498"}, "geometry": {"type": "Point", "coordinates": [-79.8349969, 40.2809567]}},
{"type": "Feature", "id": "CtA7UYR9ySfwN9U-oDi5QXQ-tbw=", "properties": {"ref": "https://www.foxspizza.com/store/pennsylvania/grove-city-pa/", "@spider": "foxspizza", "addr:full": "120 North Broad Street, Grove City, PA 16127", "name": "Grove City, PA - Fox's Pizza", "phone": "724-264-4995 ", "website": "https://www.foxspizza.com/store/pennsylvania/grove-city-pa/", "opening_hours": "Sun:  11:00 AM to 9:00 PM; Mon:  CLOSED; Tue:   CLOSED; Wed: 11:00 AM to 9:00 PM; Thu:  11:00 AM to 9:00 PM; Fri:  11:00 AM to 9:00 PM; Sat: 11:00 AM to 9:00 PM", "brand": "Fox's Pizza Den", "brand:wikidata": "Q5476498"}, "geometry": {"type": "Point", "coordinates": [-80.0853352, 41.1619161]}},
{"type": "Feature", "id": "KWjDTjieUy-bxV5_qtEuM_g341U=", "properties": {"ref": "https://www.foxspizza.com/store/pennsylvania/clymer-pa/", "@spider": "foxspizza", "addr:full": "530 Franklin Street, Clymer, PA 15728", "name": "Clymer, PA - Fox's Pizza", "phone": "724-905-8044", "website": "https://www.foxspizza.com/store/pennsylvania/clymer-pa/", "opening_hours": "Sun: 12:00 PM to 9:00 PM; Mon: 11:00 AM to 9:00 PM; Tue: 11:00 AM to 9:00 PM; Wed: 11:00 AM to 9:00 PM; Thur: 11:00 AM to 9:00 PM; Fri: 11:00 AM to 10:00 PM; Sat: 11:00 AM to 10:00 PM", "brand": "Fox's Pizza Den", "brand:wikidata": "Q5476498"}, "geometry": {"type": "Point", "coordinates": [-79.0112407, 40.6690303]}},
{"type": "Feature", "id": "9x4Lr1Ium7g930K7ryxJ6z9FJGg=", "properties": {"ref": "https://www.foxspizza.com/store/louisiana/rayville-la/", "@spider": "foxspizza", "addr:full": "119 Maxwell Street, Rayville, LA 71269", "name": "Rayville, LA - Fox's Pizza", "phone": "318-728-3130", "website": "https://www.foxspizza.com/store/louisiana/rayville-la/", "opening_hours": "Sun: Closed; Mon: 10:30 AM to 8:00 PM; Tue: 10:30 AM to 8:00 PM; Wed: 10:30 AM to 8:00 PM; Thu:  10:30 AM to 8:00 PM; Fri: 10:30 AM to 8:00 PM; Sat: 10:30 AM to 8:00 PM", "brand": "Fox's Pizza Den", "brand:wikidata": "Q5476498"}, "geometry": {"type": "Point", "coordinates": [-91.7577798, 32.4591673]}},
{"type": "Feature", "id": "7RnLry3ghx0n-qIiU6Wqe-e-vPU=", "properties": {"ref": "https://www.foxspizza.com/store/ohio/columbiana-oh/", "@spider": "foxspizza", "addr:full": "144 North Main Street, Columbiana, OH 44408", "name": "Columbiana, OH - Fox's Pizza", "phone": "330-892-5176", "website": "https://www.foxspizza.com/store/ohio/columbiana-oh/", "opening_hours": "Monday: 11:00 AM to 9:00 PM; Tuesday: 11:00 AM to 9:00 PM; Wednesday: 11:00 AM to 9:00 PM; Thursday: 11:00 AM to 9:00 PM; Friday: 11:00 AM to 9:00 PM; Saturday: 11:00 AM to 9:00 PM; Sunday: CLOSED", "brand": "Fox's Pizza Den", "brand:wikidata": "Q5476498"}, "geometry": {"type": "Point", "coordinates": [-80.6930678, 40.8911806]}},
{"type": "Feature", "id": "hgLQCsN4--TFttRaFqA4uWw5yR0=", "properties": {"ref": "https://www.foxspizza.com/store/pennsylvania/slippery-rock-pa/", "@spider": "foxspizza", "addr:full": "662 Centreville Pike, Slippery Rock, PA 16057", "name": "Slippery Rock, PA - Fox's Pizza", "phone": "724-794-3266", "website": "https://www.foxspizza.com/store/pennsylvania/slippery-rock-pa/", "opening_hours": "Sun: 11:00 AM to 10:00 PM; Mon: 11:00 AM to 10:00 PM; Tue: 11:00 AM to 10:00 PM; Wed: 11:00 AM to 10:00 PM; Thu:  11:00 AM to 10:00 PM; Fri: 11:00 AM to 11:00 PM; Sat: 11:00 AM to 11:00 PM", "brand": "Fox's Pizza Den", "brand:wikidata": "Q5476498"}, "geometry": {"type": "Point", "coordinates": [-80.0449567, 41.0502594]}},
{"type": "Feature", "id": "bEKnZXCWgSZ_VgRtlg0G-9sQE5g=", "properties": {"ref": "https://www.foxspizza.com/store/west-virginia/fort-ashby-wv/", "@spider": "foxspizza", "addr:full": "10107 Frankfort Highway, Fort Ashby, WV 26719", "name": "Fort Ashby, WV - Fox's Pizza", "phone": "304-298-4848", "website": "https://www.foxspizza.com/store/west-virginia/fort-ashby-wv/", "opening_hours": "Sun:  11:00 AM to 9:00 PM; Mon: 11:00 AM to 9:00 PM; Tue: 11:00 AM to 9:00 PM; Wed: 11:00 AM to 9:00 PM; Thu: 11:00 AM to 9:00 PM; Fri:  11:00 AM to 10:00 PM; Sat:  11:00 AM to 10:00 PM", "brand": "Fox's Pizza Den", "brand:wikidata": "Q5476498"}, "geometry": {"type": "Point", "coordinates": [-78.7699068, 39.5047772]}},
{"type": "Feature", "id": "eaThOJrOBRexi-pYqojb-3jTxVo=", "properties": {"ref": "https://www.foxspizza.com/store/pennsylvania/homer-city-pa/", "@spider": "foxspizza", "addr:full": "41 South Main Street, Homer City, PA 15748", "name": "Homer City, PA - Fox's Pizza", "phone": "724-915-8648", "website": "https://www.foxspizza.com/store/pennsylvania/homer-city-pa/", "opening_hours": "Sun: 12:00 PM to 9:00 PM; Mon: 11:00 AM to 9:00 PM; Tue: 11:00 AM to 9:00 PM; Wed: 11:00 AM to 9:00 PM; Thu: 11:00 AM to 9:00 PM; Fri:  11:00 AM to 10:00 PM; Sat: 11:00 AM to 10:00 PM", "brand": "Fox's Pizza Den", "brand:wikidata": "Q5476498"}, "geometry": {"type": "Point", "coordinates": [-79.1609256, 40.5412193]}},
{"type": "Feature", "id": "oOA2RZNQmNrSna73BgclvgXexgw=", "properties": {"ref": "https://www.foxspizza.com/store/pennsylvania/dover-pa/", "@spider": "foxspizza", "addr:full": "2150 Palomino Road, Dover, PA 17315", "name": "Dover, PA - Fox's Pizza", "phone": "717-308-1515", "website": "https://www.foxspizza.com/store/pennsylvania/dover-pa/", "opening_hours": "Sun: 11:00 AM to 8:00 PM; Mon: 11:00 AM to 8:00 PM; Tue: 11:00 AM to 8:00 PM; Wed:  11:00 AM to 8:00 PM; Thu: 11:00 AM to 8:00 PM; Fri:  : 11:00 AM to 9:00 PM; Sat: : 11:00 AM to 9:00 PM", "brand": "Fox's Pizza Den", "brand:wikidata": "Q5476498"}, "geometry": {"type": "Point", "coordinates": [-76.839572, 39.9944814]}},
{"type": "Feature", "id": "MQLPY9GUrhYej7UwEMfdXaonFlA=", "properties": {"ref": "https://www.foxspizza.com/store/pennsylvania/kennett-square-pa/", "@spider": "foxspizza", "addr:full": "345 Scarlet Road, Kennett Square, PA 19348", "name": "Kennett Square, PA - Fox's Pizza", "phone": "610-444-6060", "website": "https://www.foxspizza.com/store/pennsylvania/kennett-square-pa/", "opening_hours": "Sun: 11:00 AM to 8:00 PM; Mon: 11:00 AM to 8:00 PM; Tue:  11:00 AM to 8:00 PM; Wed:  11:00 AM to 8:00 PM; Thu:  11:00 AM to 8:00 PM; Fri:  11:00 AM to 9:00 PM; Sat: 11:00 AM to 9:00 PM", "brand": "Fox's Pizza Den", "brand:wikidata": "Q5476498"}, "geometry": {"type": "Point", "coordinates": [-75.7280249, 39.841193]}},
{"type": "Feature", "id": "fHnE-dQtRMU6pSzvXBtWSUb4dfo=", "properties": {"ref": "https://www.foxspizza.com/store/west-virginia/keyser-wv/", "@spider": "foxspizza", "addr:full": "567 South Mineral Street, Keyser, WV 26726", "name": "Keyser, WV - Fox's Pizza", "phone": "304-788-1149", "website": "https://www.foxspizza.com/store/west-virginia/keyser-wv/", "opening_hours": "Sun:  12:00 PM to 9:00 PM; Mon: 11:00 AM to 9:00 PM; Tue:  11:00 AM to 9:00 PM; Wed: 11:00 AM to 9:00 PM; Thu:  11:00 AM to 9:00 PM; Fri:   11:00 AM to 10:00 PM; Sat:  11:00AM to 10:00 PM", "brand": "Fox's Pizza Den", "brand:wikidata": "Q5476498"}, "geometry": {"type": "Point", "coordinates": [-78.986066, 39.4320678]}},
{"type": "Feature", "id": "C-Hov8DG8klhP7mAcvAnjZVp1Ww=", "properties": {"ref": "https://www.foxspizza.com/store/pennsylvania/knox-pa/", "@spider": "foxspizza", "addr:full": "526 Main Street, Knox, PA 16232", "name": "Knox, PA - Fox's Pizza", "phone": "814-992-2238", "website": "https://www.foxspizza.com/store/pennsylvania/knox-pa/", "brand": "Fox's Pizza Den", "brand:wikidata": "Q5476498"}, "geometry": {"type": "Point", "coordinates": [-79.5369412, 41.2355872]}},
{"type": "Feature", "id": "0TRcieIEZfaayH9H0gpC8JgYBJo=", "properties": {"ref": "https://www.foxspizza.com/store/pennsylvania/rimersburg-pa/", "@spider": "foxspizza", "addr:full": "555 Main Street, Rimersburg, PA 16248", "name": "Rimersburg, PA - Fox's Pizza", "phone": "814-473-3399", "website": "https://www.foxspizza.com/store/pennsylvania/rimersburg-pa/", "opening_hours": "Sun: 3:00 PM to 10:00 PM; Mon:  Closed; Tue:  3:00 PM to 10:00 PM; Wed: 3:00 PM to 10:00 PM; Thu: 3:00 PM to 10:00 PM; Fri:  3:00 PM to 10:00 PM; Sat:  3:00 PM to 10:00 PM", "brand": "Fox's Pizza Den", "brand:wikidata": "Q5476498"}, "geometry": {"type": "Point", "coordinates": [-79.5029673, 41.0418691]}},
{"type": "Feature", "id": "Kf6xiO8lwYcKEJmsN2yA0nWpcG0=", "properties": {"ref": "https://www.foxspizza.com/store/pennsylvania/parkhill-pa/", "@spider": "foxspizza", "addr:full": "224 Parkhill Drive, Parkhill, PA 15945", "name": "Parkhill, PA - Fox's Pizza", "phone": "814-535-2456", "website": "https://www.foxspizza.com/store/pennsylvania/parkhill-pa/", "opening_hours": "Sun: 12:00 PM to 9:00 PM; Mon: 11:00 AM to 9:00 PM; Tue:  11:00 AM to 9:00 PM; Wed: 11:00 AM to 9:00 PM; Thu: 11:00 AM to 9:00 PM; Fri:  11:00 AM to 10:00 PM; Sat: 11:00 AM to 10:00 PM", "brand": "Fox's Pizza Den", "brand:wikidata": "Q5476498"}, "geometry": {"type": "Point", "coordinates": [-78.8708632, 40.3601052]}},
{"type": "Feature", "id": "9DMI-ZZXsPXwf39BckZ_180aZkY=", "properties": {"ref": "https://www.foxspizza.com/store/pennsylvania/berlin-pa/", "@spider": "foxspizza", "addr:full": "310 Main Street, Berlin, PA 15530", "name": "Berlin, PA - Fox's Pizza", "phone": "814-267-2275", "website": "https://www.foxspizza.com/store/pennsylvania/berlin-pa/", "opening_hours": "Monday: 3:00 PM to 9:00 PM; Tuesday: 3:00 PM to 9:00 PM; Wednesday: 3:00 PM to 9:00 PM; Thursday: 3:00 PM to 9:00 PM; Friday: 11:00 AM to 10:00 PM; Saturday: 11:00 AM to 10:00 PM; Sunday: 11:00 AM to 9:00 PM", "brand": "Fox's Pizza Den", "brand:wikidata": "Q5476498"}, "geometry": {"type": "Point", "coordinates": [-78.9603938, 39.9209636]}},
{"type": "Feature", "id": "AHHkmylSDGaiIMx_Svp4SEaEIAA=", "properties": {"ref": "https://www.foxspizza.com/store/ohio/west-milton-oh/", "@spider": "foxspizza", "addr:full": "19 North Miami Street, West Milton, OH 45383", "name": "West Milton, OH - Fox's Pizza", "phone": "937-698-6000", "website": "https://www.foxspizza.com/store/ohio/west-milton-oh/", "opening_hours": "Sun: 3:00 PM to 9:00 PM; Mon: 3:00 PM to 10:00 PM; Tue: 3:00 PM to 10:00 PM; Wed: 3:00 PM to 10:00 PM; Thu: 3:00 PM to 10:00 PM; Fri: 11:00 AM to 11:00 PM; Sat: 11:00 AM to 11:00 PM", "brand": "Fox's Pizza Den", "brand:wikidata": "Q5476498"}, "geometry": {"type": "Point", "coordinates": [-84.3280859, 39.9628151]}},
{"type": "Feature", "id": "Dk3E0tCtYLzpwHNYb36Ltdzxhb8=", "properties": {"ref": "https://www.foxspizza.com/store/pennsylvania/shelocta-pa/", "@spider": "foxspizza", "addr:full": "10858 U.S. 422, Shelocta, PA 15774", "name": "Shelocta, PA - Fox's Pizza", "phone": "724-354-3698", "website": "https://www.foxspizza.com/store/pennsylvania/shelocta-pa/", "opening_hours": "Sun: 12:00 PM to 8:00 PM; Mon: 11:00 AM to 8:00 PM; Tue: 11:00 AM to 8:00 PM; Wed: 11:00 AM to 8:00 PM; Thu:  11:00 AM to 8:00 PM; Fri: 11:00 AM to 9:00 PM; Sat: 11:00 AM to 9:00 PM", "brand": "Fox's Pizza Den", "brand:wikidata": "Q5476498"}, "geometry": {"type": "Point", "coordinates": [-79.3218441, 40.672745]}},
{"type": "Feature", "id": "HpSpF-mvXkYNQOazwd-SrpbaicI=", "properties": {"ref": "https://www.foxspizza.com/store/pennsylvania/smithfield-pa/", "@spider": "foxspizza", "addr:full": "100 Main Street, Smithfield, PA 15478", "name": "Smithfield, PA - Fox's Pizza", "phone": "724-569-1650", "website": "https://www.foxspizza.com/store/pennsylvania/smithfield-pa/", "opening_hours": "Sun:  12:00 PM to 9:00 PM; Mon: 11:00 AM to 9:00 PM; Tue: 11:00 AM to 9:00 PM; Wed: 11:00 AM to 9:00 PM; Thu: 11:00 AM to 9:00 PM; Fri: 11:00 AM to 10:00 PM; Sat: 11:00 AM to 10:00 PM", "brand": "Fox's Pizza Den", "brand:wikidata": "Q5476498"}, "geometry": {"type": "Point", "coordinates": [-79.8108991, 39.8016418]}},
{"type": "Feature", "id": "-9oV7nVxKcuxinFbDpMqDevqeFA=", "properties": {"ref": "https://www.foxspizza.com/store/pennsylvania/delmont-pa/", "@spider": "foxspizza", "addr:full": "76 Greensburg Street, Delmont, PA 15626", "name": "Delmont, PA - Fox's Pizza", "phone": "724-468-3300", "website": "https://www.foxspizza.com/store/pennsylvania/delmont-pa/", "opening_hours": "Sun: 11:00 AM to 9:00 PM; Mon: 10:45 AM to 9:00 PM; Tue: 10:45 AM to 9:00 PM; Wed: 10:45 AM to 9:00 PM; Thu: 10:45 AM to 9:00 PM; Fri:  : 11:00 AM to 10:00 PM; Sat: : 11:00 AM to 10:00 PM", "brand": "Fox's Pizza Den", "brand:wikidata": "Q5476498"}, "geometry": {"type": "Point", "coordinates": [-79.5722484, 40.4107224]}},
{"type": "Feature", "id": "CzWTYRcAkPObCmjCdcYjRAnbzjs=", "properties": {"ref": "https://www.foxspizza.com/store/delaware/millville-de/", "@spider": "foxspizza", "addr:full": "200 Atlantic Avenue, Millville, DE 19967", "name": "Millville, DE - Fox's Pizza", "phone": "302-539-6900", "website": "https://www.foxspizza.com/store/delaware/millville-de/", "opening_hours": "Sun: 11:00 AM to 11:00 PM; Mon: 11:00 AM to 11:00 PM; Tue:  11:00 AM to 11:00 PM; Wed: 11:00 AM to 11:00 PM; Thu: 11:00 AM to 11:00 PM; Fri:  11:00 AM to 11:00 PM; Sat: 11:00 AM to 11:00 PM", "brand": "Fox's Pizza Den", "brand:wikidata": "Q5476498"}, "geometry": {"type": "Point", "coordinates": [-75.1082438, 38.5466376]}},
{"type": "Feature", "id": "I2fBTEpJXpSD8CVa0JSNd-li7GY=", "properties": {"ref": "https://www.foxspizza.com/store/pennsylvania/vandergrift-pa/", "@spider": "foxspizza", "addr:full": "182 Lincoln Street, Vandergrift, PA 15690", "name": "Vandergrift, PA - Fox's Pizza", "phone": "724-568-3003", "website": "https://www.foxspizza.com/store/pennsylvania/vandergrift-pa/", "opening_hours": "Sun: 11:00 AM to 9:00 PM; Mon: 11:00 AM to 9:00 PM; Tue: 11:00 AM to 9:00 PM; Wed: 11:00 AM to 9:00 PM; Thu: 11:00 AM to 10:00 PM; Fri: 11:00 AM to 11:00 PM; Sat: 11:00 AM to 10:00 PM", "brand": "Fox's Pizza Den", "brand:wikidata": "Q5476498"}, "geometry": {"type": "Point", "coordinates": [-79.5668338, 40.6034073]}},
{"type": "Feature", "id": "stxSzddQKWL6a7f0qwdC5dx1HZc=", "properties": {"ref": "https://www.foxspizza.com/store/louisiana/delhi-la/", "@spider": "foxspizza", "addr:full": "620 West 1st Street, Delhi, LA 71232", "name": "Delhi, LA - Fox's Pizza", "phone": "318-878-8888", "website": "https://www.foxspizza.com/store/louisiana/delhi-la/", "opening_hours": "Sun: Closed; Mon:  11:00 AM to 9:00 PM; Tue:  11:00 AM to 9:00 PM; Wed:  11:00 AM to 9:00 PM; Thu:  11:00 AM to 9:00 PM; Fri:  11:00 AM to 9:00 PM; Sat:   11:00 AM to 9:00 PM", "brand": "Fox's Pizza Den", "brand:wikidata": "Q5476498"}, "geometry": {"type": "Point", "coordinates": [-91.4974965, 32.4575486]}},
{"type": "Feature", "id": "0wn9OSi9MrjvlVDTOHWEExOeecg=", "properties": {"ref": "https://www.foxspizza.com/store/pennsylvania/mckees-rocks-pa/", "@spider": "foxspizza", "addr:full": "659 Woodward Avenue, McKees Rocks, PA 15136", "name": "McKees Rocks, PA - Fox's Pizza", "phone": "412-331-3131", "website": "https://www.foxspizza.com/store/pennsylvania/mckees-rocks-pa/", "opening_hours": "Sun: 11:00 AM to 10:00 PM; Mon:   10:00 AM to 10:00 PM; Tue:    10:00 AM to 10:00 PM; Wed:   10:00 AM to 10:00 PM; Thu:   10:00 AM to 10:00 PM; Fri: 10:00 AM to 11:00 PM; Sat: 10:00 AM to 10:00 PM", "brand": "Fox's Pizza Den", "brand:wikidata": "Q5476498"}, "geometry": {"type": "Point", "coordinates": [-80.0727108, 40.4727166]}},
{"type": "Feature", "id": "v84zNyVFB1RTbYS7nuD4TzMRSqg=", "properties": {"ref": "https://www.foxspizza.com/store/georgia/bogart-ga/", "@spider": "foxspizza", "addr:full": "2971 Monroe Highway, Watkinsville, GA 30677", "name": "Bogart, GA - Fox's Pizza", "phone": "678-661-0220", "website": "https://www.foxspizza.com/store/georgia/bogart-ga/", "opening_hours": "Sun: 11:00 AM to 8:30 PM; Mon: 11:00 AM to 8:30 PM; Tue: 11:00 AM to 8:30 PM; Wed: 11:00 AM to 8:30 PM; Thu:  11:00 AM to 8:30 PM; Fri: 11:00 AM to 10:00 PM; Sat: 11:00 AM to 8:30 PM", "brand": "Fox's Pizza Den", "brand:wikidata": "Q5476498"}, "geometry": {"type": "Point", "coordinates": [-83.5308939, 33.9179001]}},
{"type": "Feature", "id": "qEJgCSPiLbfdHDvsAEXqMlZv0Ug=", "properties": {"ref": "https://www.foxspizza.com/store/minnesota/madelia-mn/", "@spider": "foxspizza", "addr:full": "21 Center Avenue North, Madelia, MN 56062", "name": "Madelia, MN - Fox's Pizza", "phone": "507-642-3690", "website": "https://www.foxspizza.com/store/minnesota/madelia-mn/", "opening_hours": "Sun: 11:00 AM to 8:00 PM; Mon: Closed; Tue: 4:00pm to 8:00 PM; Wed: 4:00pm to 8:00 PM; Thu: 4:00pm to 8:00 PM; Fri: 11:00 AM to 9:00 PM; Sat: 11:00 AM to 9:00 PM", "brand": "Fox's Pizza Den", "brand:wikidata": "Q5476498"}, "geometry": {"type": "Point", "coordinates": [-94.4171048, 44.0515707]}},
{"type": "Feature", "id": "n8KekV5ZXOMZGobozYRNUWYmh3g=", "properties": {"ref": "https://www.foxspizza.com/store/indiana/lafayette-in/", "@spider": "foxspizza", "addr:full": "4921 Indiana 26, Lafayette, IN 47905", "name": "Lafayette, IN - Fox's Pizza", "phone": "765- 838-0564", "website": "https://www.foxspizza.com/store/indiana/lafayette-in/", "opening_hours": "Sun: 12:00 PM to 8:00 PM; Mon: 10:30 AM to 9:00 PM; Tue: 10:30 AM to 9:00 PM; Wed: 10:30 AM to 9:00 PM; Thu: 10:30 AM to 9:00 PM; Fri: 10:30 AM to 10:00 PM; Sat: 10:30 AM to 10:00 PM", "brand": "Fox's Pizza Den", "brand:wikidata": "Q5476498"}, "geometry": {"type": "Point", "coordinates": [-86.8112463, 40.4169151]}},
{"type": "Feature", "id": "Aqp3SxPsPA_BXONVS0kbm1kz8gM=", "properties": {"ref": "https://www.foxspizza.com/store/pennsylvania/imperial-pa/", "@spider": "foxspizza", "addr:full": "120 West Allegheny Road, Imperial, PA 15126", "name": "Imperial, PA - Fox's Pizza", "phone": "724-695-2211", "website": "https://www.foxspizza.com/store/pennsylvania/imperial-pa/", "opening_hours": "Sun:  12:00 PM to 8:00 PM; Mon:  11:00 AM to 9:00 PM; Tue:  11:00 AM to 9:00 PM; Wed:   11:00 AM to 9:00 PM; Thu:  11:00 AM to 9:00 PM; Fri:   11:00 AM to 9:00 PM; Sat: 11:00 AM to 9:00 PM", "brand": "Fox's Pizza Den", "brand:wikidata": "Q5476498"}, "geometry": {"type": "Point", "coordinates": [-80.2376642, 40.4428812]}},
{"type": "Feature", "id": "pXNZNnXhhuUl_xG4SQ1Fn99soJY=", "properties": {"ref": "https://www.foxspizza.com/store/west-virginia/berkeley-springs-wv/", "@spider": "foxspizza", "addr:full": "1644 Valley Road, Berkeley Springs, WV 25411", "name": "Berkeley Springs, WV - Fox's Pizza", "phone": "(304) 258-8000 ", "website": "https://www.foxspizza.com/store/west-virginia/berkeley-springs-wv/", "opening_hours": "Sun: 12:00 PM to 9:00 PM; Mon: 11:00 AM to 9:00 PM; Tue: 11:00 AM to 9:00 PM; Wed: 11:00 AM to 9:00 PM; Thu: 11:00 AM to 9:00 PM; Fri: 11:00 AM to 10:00 PM; Sat: 11:00 AM to 10:00 PM", "brand": "Fox's Pizza Den", "brand:wikidata": "Q5476498"}, "geometry": {"type": "Point", "coordinates": [-78.2385469, 39.6049979]}},
{"type": "Feature", "id": "RjS_FoCADHsGzRQOAbNBMlZAP5k=", "properties": {"ref": "https://www.foxspizza.com/store/southcarolina/greer-sc/", "@spider": "foxspizza", "addr:full": "421 The Parkway, Greer, SC 29650", "name": "Greer, SC - Fox's Pizza", "phone": "864-801-9060", "website": "https://www.foxspizza.com/store/southcarolina/greer-sc/", "opening_hours": "Sun:  1:00 PM to 9:00 PM; Mon: 11:00 AM to 10:00 PM; Tue: 11:00 AM to 10:00 PM; Wed: 11:00 AM to 10:00 PM; Thu: 11:00 AM to 10:00 PM; Fri: 11:00 AM to 10:30 PM; Sat: 11:00 AM to 10:30 PM", "brand": "Fox's Pizza Den", "brand:wikidata": "Q5476498"}, "geometry": {"type": "Point", "coordinates": [-82.2563076, 34.8719848]}},
{"type": "Feature", "id": "-TsP46G5IUz0R7Kx0rsabMkZO2A=", "properties": {"ref": "https://www.foxspizza.com/store/louisiana/winnsboro-la/", "@spider": "foxspizza", "addr:full": "6361 Louisiana 4, Winnsboro, LA 71295", "name": "Winnsboro, LA - Fox's Pizza", "phone": "318-435-2277", "website": "https://www.foxspizza.com/store/louisiana/winnsboro-la/", "opening_hours": "Sun: Closed; Mon: 11:00 AM to 9:00 PM; Tue: 11:00 AM to 9:00 PM; Wed: 11:00 AM to 9:00 PM; Thu: 11:00 AM to 9:00 PM; Fri:   11:00 AM to 9:00 PM; Sat: 11:00 AM to 9:00 PM", "brand": "Fox's Pizza Den", "brand:wikidata": "Q5476498"}, "geometry": {"type": "Point", "coordinates": [-91.7055292, 32.1639627]}},
{"type": "Feature", "id": "K43kme34-CrwEkgSGGuICQTdo_M=", "properties": {"ref": "https://www.foxspizza.com/store/pennsylvania/brownsville-pa/", "@spider": "foxspizza", "addr:full": "418 Market Street, Brownsville, PA 15417", "name": "Brownsville, PA - Fox's Pizza", "phone": "724-364-7024", "website": "https://www.foxspizza.com/store/pennsylvania/brownsville-pa/", "opening_hours": "Sun: 12:00 PM to 10:00 PM; Mon: 11:00 AM to 10:00 PM; Tue: 11:00 AM to 10:00 PM; Wed: 11:00 AM to 10:00 PM; Thu: 11:00 AM to 10:00 PM; Fri: 11:00 AM to 11:00 PM; Sat: 11:00 AM to 11:00 PM", "brand": "Fox's Pizza Den", "brand:wikidata": "Q5476498"}, "geometry": {"type": "Point", "coordinates": [-79.8803894, 40.0216491]}},
{"type": "Feature", "id": "QsftmUmetDErOVPdNoLkzjOwT8E=", "properties": {"ref": "https://www.foxspizza.com/store/mississippi/ellisville-ms/", "@spider": "foxspizza", "addr:full": "5795 Old Highway 11, Purvis, MS 39475", "name": "Purvis, MS - Fox's Pizza", "phone": "769-456-7360", "website": "https://www.foxspizza.com/store/mississippi/ellisville-ms/", "opening_hours": "Sun: 11:00 AM to 9:00 PM; Mon:  11:00 AM to 9:00 PM; Tue:  11:00 AM to 9:00 PM; Wed: 11:00 AM to 9:00 PM; Thu: 11:00 AM to 9:00 PM; Fri: 11:00 AM to 9:00 PM; Sat: 11:00 AM to 9:00 PM", "brand": "Fox's Pizza Den", "brand:wikidata": "Q5476498"}, "geometry": {"type": "Point", "coordinates": [-89.4156181, 31.2823642]}},
{"type": "Feature", "id": "_2YjJ_JFgxOCdlsGSmX72hnyoNI=", "properties": {"ref": "https://www.foxspizza.com/store/pennsylvania/ridgway-pa/", "@spider": "foxspizza", "addr:full": "144 North Broad Street, Ridgway, PA 15853", "name": "Ridgway, PA - Fox's Pizza", "phone": "814-776-2189", "website": "https://www.foxspizza.com/store/pennsylvania/ridgway-pa/", "opening_hours": "Sun: 12:00 PM to 8:00 PM; Mon: 10:30 AM to 8:00 PM; Tue: 10:30 AM to 8:00 PM; Wed: 10:30 AM to 8:00 PM; Thu: 10:30 AM to 8:00 PM; Fri:  10:30 AM to 9:00 PM; Sat:  10:30 AM to 9:00 PM", "brand": "Fox's Pizza Den", "brand:wikidata": "Q5476498"}, "geometry": {"type": "Point", "coordinates": [-78.7308179, 41.4246353]}},
{"type": "Feature", "id": "WTDwvbHeQHHzaK6tvD0WGyuAPIg=", "properties": {"ref": "https://www.foxspizza.com/store/pennsylvania/whitehall-pa/", "@spider": "foxspizza", "addr:full": "1500 Radford Road, Pittsburgh, PA 15227", "name": "Whitehall, PA - Fox's Pizza", "phone": "412-881-6450", "website": "https://www.foxspizza.com/store/pennsylvania/whitehall-pa/", "opening_hours": "Sun: 12:00 PM to 9:00 PM; Mon: 11:00 AM to 9:00 PM; Tue: 11:00 AM to 9:00 PM; Wed: 11:00 AM to 9:00 PM; Thu: 11:00 AM to 9:00 PM; Fri:  11:00 AM to 10:00 PM; Sat:  11:00 AM to 10:00 PM", "brand": "Fox's Pizza Den", "brand:wikidata": "Q5476498"}, "geometry": {"type": "Point", "coordinates": [-79.9671586, 40.3642315]}},
{"type": "Feature", "id": "GpBbZ5xZ43_8fCkqhi6AsqfzSOk=", "properties": {"ref": "https://www.foxspizza.com/store/pennsylvania/tarentum-pa/", "@spider": "foxspizza", "addr:full": "407 East 6th Avenue, Tarentum, PA 15084", "name": "Tarentum, PA - Fox's Pizza", "phone": "724-224-6923", "website": "https://www.foxspizza.com/store/pennsylvania/tarentum-pa/", "opening_hours": "Sun: 12:00 PM to 10:00 PM; Mon: 11:00 AM to 10:00 PM; Tue: 11:00 AM to 10:00 PM; Wed: 11:00 AM to 10:00 PM; Thu: 11:00 AM to 10:00 PM; Fri: 11:00 AM to 11:00 PM; Sat: 11:00 AM to 11:00 PM", "brand": "Fox's Pizza Den", "brand:wikidata": "Q5476498"}, "geometry": {"type": "Point", "coordinates": [-79.7520522, 40.6032882]}},
{"type": "Feature", "id": "hNCYF59DpBW3hOHUlfddEue2lAE=", "properties": {"ref": "https://www.foxspizza.com/store/pennsylvania/lower-burrell-pa/", "@spider": "foxspizza", "addr:full": "2807 Leechburg Road, Lower Burrell, PA 15068", "name": "Lower Burrell, PA - Fox's Pizza", "phone": "724-334-3697", "website": "https://www.foxspizza.com/store/pennsylvania/lower-burrell-pa/", "opening_hours": "Sun: 12:00 PM to 9:00 PM; Mon: 11:00 AM to 9:00 PM; Tue:  11:00 AM to 9:00 PM; Wed: 11:00 AM to 9:00 PM; Thu:  11:00 AM to 9:00 PM; Fri:  11:00 AM to 10:00 PM; Sat: 11:00 AM to 10:00 PM", "brand": "Fox's Pizza Den", "brand:wikidata": "Q5476498"}, "geometry": {"type": "Point", "coordinates": [-79.730304, 40.5920086]}},
{"type": "Feature", "id": "KH7W_DBm_R2ezeVlkxqKug2D0RU=", "properties": {"ref": "https://www.foxspizza.com/store/pennsylvania/sarver-pa/", "@spider": "foxspizza", "addr:full": "616 South Pike Road, Sarver, PA 16055", "name": "Sarver, PA - Fox's Pizza", "phone": "724-295-3222", "website": "https://www.foxspizza.com/store/pennsylvania/sarver-pa/", "opening_hours": "Sun: 12:00 PM to 9:00 PM; Mon: 11:00 AM to 9:00 PM; Tue: 11:00 AM to 9:00 PM; Wed: 11:00 AM to 9:00 PM; Thu: 11:00 AM to 10:00 PM; Fri: 11:00 AM to 10:00 PM; Sat: 11:00 AM to 9:00 PM", "brand": "Fox's Pizza Den", "brand:wikidata": "Q5476498"}, "geometry": {"type": "Point", "coordinates": [-79.7223285, 40.7022047]}},
{"type": "Feature", "id": "U_4oEn_aJ0okvbINq95m5kHsCZQ=", "properties": {"ref": "https://www.foxspizza.com/store/pennsylvania/bentleyville-pa/", "@spider": "foxspizza", "addr:full": "421 Main Street, Bentleyville, PA 15314", "name": "Bentleyville, PA - Fox's Pizza", "phone": "(724) 239-4466", "website": "https://www.foxspizza.com/store/pennsylvania/bentleyville-pa/", "opening_hours": "Sun:   12:00 PM to 10:00 PM; Mon: 3:00 PM to 10:00 PM; Tue:  3:00 PM to 10:00 PM; Wed: 3:00 PM to 10:00 PM; Thu:  3:00 PM to 10:00 PM; Fri: 11:00 AM to 11:00 PM; Sat:11:00 AM to 11:00 PM", "brand": "Fox's Pizza Den", "brand:wikidata": "Q5476498"}, "geometry": {"type": "Point", "coordinates": [-80.0088558, 40.1161135]}},
{"type": "Feature", "id": "GvDs59OHz5nAuEHpjE-hGV1wLWs=", "properties": {"ref": "https://www.foxspizza.com/store/pennsylvania/ligonier-pa/", "@spider": "foxspizza", "addr:full": "122 North Market Street, Ligonier, PA 15658", "name": "Ligonier, PA - Fox's Pizza", "phone": "724-238-3733", "website": "https://www.foxspizza.com/store/pennsylvania/ligonier-pa/", "opening_hours": "Sun: 12:00 AM to 8:00 PM; Mon: 11:00 AM to 8:00 PM; Tue: 11:00 AM to 9:00 PM; Wed: 11:00 AM to 9:00 PM; Thu: 11:00 AM to 9:00 PM; Fri: 11:00 AM to 9:00 PM; Sat: 11:00 AM to 9:00 PM", "brand": "Fox's Pizza Den", "brand:wikidata": "Q5476498"}, "geometry": {"type": "Point", "coordinates": [-79.2367887, 40.2437143]}},
{"type": "Feature", "id": "4L2ZUl-lgZ6EA8u8ZnduAc65AZU=", "properties": {"ref": "https://www.foxspizza.com/store/pennsylvania/coudersport-pa/", "@spider": "foxspizza", "addr:full": "231 U.S. 6, Coudersport, PA 16915", "name": "Coudersport, PA - Fox's Pizza", "phone": "814-274-8160", "website": "https://www.foxspizza.com/store/pennsylvania/coudersport-pa/", "opening_hours": "Sun:  12:00 PM to 8:00 PM; Mon: 11:00 AM to 8:00 PM; Tue: 11:00 AM to 8:00 PM; Wed: 11:00 AM to 8:00 PM; Thu: 11:00 AM to 8:00 PM; Fri:  11:00 AM to 9:00 PM; Sat:  11:00 AM to 9:00 PM", "brand": "Fox's Pizza Den", "brand:wikidata": "Q5476498"}, "geometry": {"type": "Point", "coordinates": [-78.030486, 41.766524]}},
{"type": "Feature", "id": "apr4WjEQIBLD1DkuwN86eOSmtiE=", "properties": {"ref": "https://www.foxspizza.com/store/pennsylvania/shinglehouse-pa/", "@spider": "foxspizza", "addr:full": "126 Academy Street, Shinglehouse, PA 16748", "name": "Shinglehouse, PA - Fox's Pizza", "phone": "814-697-5200", "website": "https://www.foxspizza.com/store/pennsylvania/shinglehouse-pa/", "opening_hours": "Sun: 12:00 PM to 8:00 PM; Mon: 4:00 PM to 8:00 PM; Tue: 11:00 AM to 8:00 PM; Wed: 11:00 AM to 8:00 PM; Thu:  11:00 AM to 8:00 PM; Fri: 11:00 AM to 9:00 PM; Sat: 11:00 AM to 9:00 PM", "brand": "Fox's Pizza Den", "brand:wikidata": "Q5476498"}, "geometry": {"type": "Point", "coordinates": [-78.1909756, 41.9639522]}},
{"type": "Feature", "id": "wggLFhyTa6HrYb0ZMMbVeDQ5M20=", "properties": {"ref": "https://www.foxspizza.com/store/ohio/pomeroy-oh/", "@spider": "foxspizza", "addr:full": "500 East Main Street, Pomeroy, OH 45769", "name": "Pomeroy, OH - Fox's Pizza", "phone": "740-992-9040", "website": "https://www.foxspizza.com/store/ohio/pomeroy-oh/", "opening_hours": "Sun: 11:00 AM to 9:00 PM; Mon: 10:00 AM to 9:00 PM; Tue: 10:00 AM to 9:00 PM; Wed: 10:00 AM to 9:00 PM; Thu: 10:00 AM to 9:00 PM; Fri: 10:00 AM to 9:30 PM; Sat: 10:00 AM to 9:30 PM", "brand": "Fox's Pizza Den", "brand:wikidata": "Q5476498"}, "geometry": {"type": "Point", "coordinates": [-82.0241528, 39.0301105]}},
{"type": "Feature", "id": "Lwfc372GRdQLXjlCPJh1R6VU-X4=", "properties": {"ref": "https://www.foxspizza.com/store/louisiana/tallulah-la/", "@spider": "foxspizza", "addr:full": "11 Crothers Drive, Richmond, LA 71282", "name": "Tallulah, LA - Fox's Pizza", "phone": "318-574-6393", "website": "https://www.foxspizza.com/store/louisiana/tallulah-la/", "opening_hours": "Sun: Closed; Mon: 11:00 AM to 8:00 PM; Tue:  11:00 AM to 8:00 PM; Wed:  11:00 AM to 8:00 PM; Thu:  1:00 AM to 8:00 PM; Fri:  11:00 AM to 8:00 PM; Sat:  2:00 PM to 8:00 PM", "brand": "Fox's Pizza Den", "brand:wikidata": "Q5476498"}, "geometry": {"type": "Point", "coordinates": [-91.1828283, 32.3936607]}},
{"type": "Feature", "id": "b07P3Mky5vgFu7IXFsYucu5SAq8=", "properties": {"ref": "https://www.foxspizza.com/store/mississippi/vicksburg-ms/", "@spider": "foxspizza", "addr:full": "102 Holt Collier Dr, Vicksburg, MS 39183", "name": "Vicksburg, MS - Fox's Pizza", "phone": "601-636-9999", "website": "https://www.foxspizza.com/store/mississippi/vicksburg-ms/", "opening_hours": "Sun: 4:00 PM to 9:00 PM; Mon: 11:00 AM to 9:00 PM; Tue: 11:00 AM to 9:00 PM; Wed: 11:00 AM to 9:00 PM; Thu: 11:00 AM to 9:00 PM; Fri: 11:00 AM to 9:00 PM; Sat: 11:00 AM to 9:00 PM", "brand": "Fox's Pizza Den", "brand:wikidata": "Q5476498"}, "geometry": {"type": "Point", "coordinates": [-90.830403, 32.360955]}},
{"type": "Feature", "id": "LdC2zP-tNb9EHZxeRKRub4WaEsc=", "properties": {"ref": "https://www.foxspizza.com/store/arkansas/lake-village-ar/", "@spider": "foxspizza", "addr:full": "1927 Hwy 65 & 82 South Lake Village, Arkansas, AR 71653", "name": "Lake Village, AR - Fox's Pizza", "phone": "870-265-3691", "website": "https://www.foxspizza.com/store/arkansas/lake-village-ar/", "opening_hours": "Sun:  11:00 AM to 9:00 PM; Mon: Closed; Tue:  11:00 AM to 9:00 PM; Wed: 11:00 AM to 9:00 PM; Thu: 11:00 AM to 9:00 PM; Fri:  11:00 AM to 9:00 PM; Sat: 11:00 AM to 9:00 PM", "brand": "Fox's Pizza Den", "brand:wikidata": "Q5476498"}, "geometry": {"type": "Point", "coordinates": [-91.2917746, 33.3127737]}},
{"type": "Feature", "id": "imqKhqROSA6mSXZuPtyUsAX_P7A=", "properties": {"ref": "https://www.foxspizza.com/store/pennsylvania/seward-pa/", "@spider": "foxspizza", "addr:full": "6858 Pennsylvania 711, Seward, PA 15954", "name": "Seward, PA - Fox's Pizza", "phone": "814-446-8342", "website": "https://www.foxspizza.com/store/pennsylvania/seward-pa/", "opening_hours": "Sun: 12:00 PM to 8:00 PM; Mon: 11:00 AM to 8:00 PM; Tue: 11:00 AM to 8:00 PM; Wed: 11:00 AM to 8:00 PM; Thu: 11:00 AM to 8:00 PM; Fri: 11:00 AM to 8:00 PM; Sat: 11:00 AM to 8:00 PM", "brand": "Fox's Pizza Den", "brand:wikidata": "Q5476498"}, "geometry": {"type": "Point", "coordinates": [-79.0215958, 40.4054559]}},
{"type": "Feature", "id": "CtqYHe8gcMAExQU-ns55obXiCao=", "properties": {"ref": "https://www.foxspizza.com/store/mississippi/tupelo-ms/", "@spider": "foxspizza", "addr:full": "1685 Coley Road, Tupelo, MS 38801", "name": "Tupelo, MS - Fox's Pizza", "phone": "662-891-3697", "website": "https://www.foxspizza.com/store/mississippi/tupelo-ms/", "opening_hours": "Sun: 11:00 AM to 8:00 PM; Mon: 11:00 AM to 9:00 PM; Tue: 11:00 AM to 9:00 PM; Wed: 11:00 AM to 9:00 PM; Thu: 11:00 AM to 9:00 PM; Fri: 11:00 AM to 9:00 PM; Sat: 11:00 AM to 9:00 PM", "brand": "Fox's Pizza Den", "brand:wikidata": "Q5476498"}, "geometry": {"type": "Point", "coordinates": [-88.7736834, 34.2813688]}},
{"type": "Feature", "id": "vnCe8d4EEIKzl5OqbCXx1xVDbDE=", "properties": {"ref": "https://www.foxspizza.com/store/mississippi/sumrall-ms/", "@spider": "foxspizza", "addr:full": "1039 Mississippi 42, Sumrall, MS 39482", "name": "Sumrall, MS - Fox's Pizza", "phone": "601-758-0003", "website": "https://www.foxspizza.com/store/mississippi/sumrall-ms/", "opening_hours": "Sun: Closed; Mon: 11:00 AM to 9:00 PM; Tue: 11:00 AM to 9:00 PM; Wed: 11:00 AM to 9:00 PM; Thu: 11:00 AM to 9:00 PM; Fri: 11:00 AM to 9:00 PM; Sat: 11:00 AM to 9:00 PM", "brand": "Fox's Pizza Den", "brand:wikidata": "Q5476498"}, "geometry": {"type": "Point", "coordinates": [-89.5546537, 31.4132743]}},
{"type": "Feature", "id": "6SGOiW4WSBMcFTLmjowu69vmyBw=", "properties": {"ref": "https://www.foxspizza.com/store/mississippi/hattiesburg-ms/", "@spider": "foxspizza", "addr:full": "5266 Old Highway 11, Hattiesburg, MS 39402", "name": "Hattiesburg, MS - Fox's Pizza", "phone": "601-264-3690", "website": "https://www.foxspizza.com/store/mississippi/hattiesburg-ms/", "opening_hours": "Sun: 11:00 AM to 9:00 PM; Mon:  11:00 AM to 9:00 PM; Tue:  11:00 AM to 9:00 PM; Wed: 11:00 AM to 9:00 PM; Thu: 11:00 AM to 9:00 PM; Fri: 11:00 AM to 9:00 PM; Sat: 11:00 AM to 9:00 PM", "brand": "Fox's Pizza Den", "brand:wikidata": "Q5476498"}, "geometry": {"type": "Point", "coordinates": [-89.4090329, 31.3118821]}},
{"type": "Feature", "id": "eUvcQiaxKAtJlHuIxJ044e7JBts=", "properties": {"ref": "https://www.foxspizza.com/store/mississippi/oxford-ms/", "@spider": "foxspizza", "addr:full": "900 Sisk Avenue, Oxford, MS 38655", "name": "Oxford, MS - Fox's Pizza", "phone": "662-638-8333", "website": "https://www.foxspizza.com/store/mississippi/oxford-ms/", "opening_hours": "Mon: 11:00 AM to 8:00 PM; Tues: 11:00 AM to 8:00 PM; Wed: 11:00 AM to 8:00 PM; Thur: 11:00 AM to 8:00 PM; Fri: 11:00 AM to 8:00 PM; Sat: 11:00 AM to 8:00 PM; Sun: 11:00 AM to 8:00 PM", "brand": "Fox's Pizza Den", "brand:wikidata": "Q5476498"}, "geometry": {"type": "Point", "coordinates": [-89.4923203, 34.3732304]}},
{"type": "Feature", "id": "7NSJ6hlD1gjwyHCV30yC1ZcetpU=", "properties": {"ref": "https://www.foxspizza.com/store/pennsylvania/sidman-pa/", "@spider": "foxspizza", "addr:full": "140 Farm Mart Road, Sidman, PA 15955", "name": "Sidman, PA - Fox's Pizza", "phone": "814-487-7600", "website": "https://www.foxspizza.com/store/pennsylvania/sidman-pa/", "opening_hours": "Sun: 4:00 PM to 10:00 PM; Mon: 11:00 AM to 10:00 PM; Tue: 11:00 AM to 10:00 PM; Wed:  11:00 AM to 10:00 PM; Thu:  11:00 AM to 10:00 PM; Fri: 11:00 AM to 11:00 PM; Sat: 11:00 AM to 11:00 PM", "brand": "Fox's Pizza Den", "brand:wikidata": "Q5476498"}, "geometry": {"type": "Point", "coordinates": [-78.7449006, 40.3140798]}},
{"type": "Feature", "id": "OIUL2UszOfNoUvjgginQxFPFPK0=", "properties": {"ref": "https://www.foxspizza.com/store/west-virginia/star-city-wv/", "@spider": "foxspizza", "addr:full": "3109 University Avenue, Morgantown, WV 26505", "name": "Star City, WV - Fox's Pizza", "phone": "304-598-3697", "website": "https://www.foxspizza.com/store/west-virginia/star-city-wv/", "opening_hours": "Sun:  11:00 AM to 9:00 PM; Mon: 11:00 AM to 9:00 PM; Tue:  11:00 AM to 9:00 PM; Wed: 11:00 AM to 9:00 PM; Thu:  11:00 AM to 9:00 PM; Fri: 11:00 AM to 9:00 PM; Sat: 11:00 AM to 9:00 PM", "brand": "Fox's Pizza Den", "brand:wikidata": "Q5476498"}, "geometry": {"type": "Point", "coordinates": [-79.970458, 39.6538971]}},
{"type": "Feature", "id": "I5-titv7swnkpHByrWrP_altwPE=", "properties": {"ref": "https://www.foxspizza.com/store/southcarolina/greenville-sc/", "@spider": "foxspizza", "addr:full": "6055 White Horse Road, Greenville, SC 29611", "name": "Greenville, SC - Fox's Pizza", "phone": "864-295-0262", "website": "https://www.foxspizza.com/store/southcarolina/greenville-sc/", "opening_hours": "Sun: 12:30 PM to 8:30 PM; Mon: 11:30 AM to 8:30 PM; Tue: 12:00 PM to 8:30 PM; Wed: 11:30 AM to 8:30 PM; Thu: 12:00 PM to 8:30 PM; Fri: 11:30 AM to 9:30 PM; Sat: 11:30 AM to 9:30 PM", "brand": "Fox's Pizza Den", "brand:wikidata": "Q5476498"}, "geometry": {"type": "Point", "coordinates": [-82.4502682, 34.8505076]}},
{"type": "Feature", "id": "AFItwMEYGEJrB51iSKeYthdhn5w=", "properties": {"ref": "https://www.foxspizza.com/store/west-virginia/philippi-wv/", "@spider": "foxspizza", "addr:full": "466 South Main Street, Philippi, WV 26416", "name": "Philippi, WV - Fox's Pizza", "phone": "304-457-5000", "website": "https://www.foxspizza.com/store/west-virginia/philippi-wv/", "opening_hours": "Sun: 12:00 PM to 9:00 PM; Mon: 11:00 AM to 9:00 PM; Tue:  11:00 AM to 9:00 PM; Wed: 11:00 AM to 9:00 PM; Thu: 11:00 AM to 9:00 PM; Fri: 11:00 AM to 10:00 PM; Sat: 11:00 AM to 10:00 PM", "brand": "Fox's Pizza Den", "brand:wikidata": "Q5476498"}, "geometry": {"type": "Point", "coordinates": [-80.0353067, 39.1461999]}},
{"type": "Feature", "id": "RgCLmc1p1u3lwFI8bOWg28iKa60=", "properties": {"ref": "https://www.foxspizza.com/store/west-virginia/elkins-wv/", "@spider": "foxspizza", "addr:full": "731 Beverly Pike, Elkins, WV 26241", "name": "Elkins, WV - Fox's Pizza", "phone": "681-298-5026", "website": "https://www.foxspizza.com/store/west-virginia/elkins-wv/", "opening_hours": "Sun: 1:00 AM to 8:00 PM; Mon: 11:00 AM to 9:00 PM; Tue: 11:00 AM to 9:00 PM; Wed: 11:00 AM to 9:00 PM; Thu: 11:00 AM to 9:00 PM; Fri: 11:00 AM to 10:00 PM; Sat: 11:00 AM to 10:00 PM", "brand": "Fox's Pizza Den", "brand:wikidata": "Q5476498"}, "geometry": {"type": "Point", "coordinates": [-79.8431545, 38.8907798]}},
{"type": "Feature", "id": "LRaUXSfUvigpeICPFpumgiNrsQE=", "properties": {"ref": "https://www.foxspizza.com/store/pennsylvania/tylersburg-pa/", "@spider": "foxspizza", "addr:full": "8216 State Route 36, PA 16233", "name": "Tylersburg, PA - Fox's Pizza", "phone": "814-744-3697", "website": "https://www.foxspizza.com/store/pennsylvania/tylersburg-pa/", "opening_hours": "Sun: 11:00 AM to 9:00 PM; Mon: 4:00 PM to 9:00 PM; Tue: 4:00 PM to 9:00 PM; Wed: 4:00 PM to 9:00 PM; Thu: 11:00 AM to 9:00 PM; Fri: 11:00 AM to 9:00 PM; Sat: 11:00 AM to 9:00 PM", "brand": "Fox's Pizza Den", "brand:wikidata": "Q5476498"}, "geometry": {"type": "Point", "coordinates": [-79.3212868, 41.3856372]}},
{"type": "Feature", "id": "cWzSKPrfTkDWg9QyYnhh9nKVBcE=", "properties": {"ref": "https://www.foxspizza.com/store/pennsylvania/scottdale-pa/", "@spider": "foxspizza", "addr:full": "145 Pittsburgh Street, Scottdale, PA 15683", "name": "Scottdale, PA - Fox's Pizza", "phone": "724-887-3929", "website": "https://www.foxspizza.com/store/pennsylvania/scottdale-pa/", "opening_hours": "Sun: 3:00 PM to 10:00 PM; Mon: 3:00 PM to 10:00 PM; Tue: 3:00 PM to 10:00 PM; Wed: 11:00 AM to 10:00 PM; Thu: 11:00 AM to 10:00 PM; Fri: 11:00 AM to 10:00 PM; Sat: 12:00 PM to 11:00 PM", "brand": "Fox's Pizza Den", "brand:wikidata": "Q5476498"}, "geometry": {"type": "Point", "coordinates": [-79.5881154, 40.1009076]}},
{"type": "Feature", "id": "biSp24xZ6h_WlaNyPk9-EG706Rk=", "properties": {"ref": "https://www.foxspizza.com/store/pennsylvania/freedom-pa/", "@spider": "foxspizza", "addr:full": "799 3rd Avenue, Freedom, PA 15042", "name": "Freedom, PA - Fox's Pizza", "phone": "724-709-7545", "website": "https://www.foxspizza.com/store/pennsylvania/freedom-pa/", "opening_hours": "Sun:  12:00 PM to 9:00 PM; Mon:  11:00 AM to 9:00 PM; Tue:   11:00 AM to 9:00 PM; Wed:  11:00 AM to 9:00 PM; Thu:  11:00 AM to 9:00 PM; Fri: 11:00 AM to 10:00 PM; Sat: 11:00 AM to 10:00 PM", "brand": "Fox's Pizza Den", "brand:wikidata": "Q5476498"}, "geometry": {"type": "Point", "coordinates": [-80.2543189, 40.6856019]}},
{"type": "Feature", "id": "2pspSRSL_1gjXF98j2dlDiw4-Ro=", "properties": {"ref": "https://www.foxspizza.com/store/pennsylvania/penn-hills-pa/", "@spider": "foxspizza", "addr:full": "12240 Frankstown Road, Penn Hills, PA 15235", "name": "Penn Hills, PA - Fox's Pizza", "phone": "412-795-2300", "website": "https://www.foxspizza.com/store/pennsylvania/penn-hills-pa/", "opening_hours": "Sun: 12:00 PM to 9:00 PM; Mon: 10:30 AM to 9:00 PM; Tue:  10:30 AM to 9:00 PM; Wed: 10:30 AM to 9:00 PM; Thu: 10:30 AM to 9:00 PM; Fri:  10:30 AM to 10:00 PM; Sat: 10:30 AM to 10:00 PM", "brand": "Fox's Pizza Den", "brand:wikidata": "Q5476498"}, "geometry": {"type": "Point", "coordinates": [-79.8190593, 40.4721602]}},
{"type": "Feature", "id": "id2GtJclB-DjGNDuoEg4kvf9Npw=", "properties": {"ref": "https://www.foxspizza.com/store/pennsylvania/new-kensington-pa/", "@spider": "foxspizza", "addr:full": "716 5th Avenue, New Kensington, PA 15068", "name": "New Kensington, PA - Fox's Pizza", "phone": "724-339-3933", "website": "https://www.foxspizza.com/store/pennsylvania/new-kensington-pa/", "opening_hours": "Sun: 11:00 AM to 10:00 PM; Mon: 11:00 AM to 10:00 PM; Tue:  11:00 AM to 10:00 PM; Wed: 11:00 AM to 10:00 PM; Thu: 11:00 AM to 10:00 PM; Fri:   11:00 AM to 11:00 PM; Sat:  11:00 AM to 11:00 PM", "brand": "Fox's Pizza Den", "brand:wikidata": "Q5476498"}, "geometry": {"type": "Point", "coordinates": [-79.7643945, 40.5630939]}},
{"type": "Feature", "id": "qUWtLz3A0IfJqrOCzpsQRATmnR0=", "properties": {"ref": "https://www.foxspizza.com/store/pennsylvania/brookline-pa/", "@spider": "foxspizza", "addr:full": "902 Brookline Boulevard, Pittsburgh, PA 15226", "name": "Brookline, PA - Fox's Pizza", "phone": "412-892-9130", "website": "https://www.foxspizza.com/store/pennsylvania/brookline-pa/", "opening_hours": "Sun: 11:00 AM to 9:00 PM; Mon:  10:00 AM to 10:00 PM; Tue:  10:00 AM to 10:00 PM; Wed: 10:00 AM to 10:00 PM; Thu:  10:00 AM to 10:00 PM; Fri:  10:00 AM to 10:00 PM; Sat:  10:00 AM to 10:00 PM", "brand": "Fox's Pizza Den", "brand:wikidata": "Q5476498"}, "geometry": {"type": "Point", "coordinates": [-80.0191919, 40.3927862]}},
{"type": "Feature", "id": "8BzQMp7GBV2EQqMHs4Cj9H67r60=", "properties": {"ref": "https://www.foxspizza.com/store/pennsylvania/boswell-pa/", "@spider": "foxspizza", "addr:full": "1002 Atkinson Way, Boswell, PA 15531", "name": "Boswell, PA - Fox's Pizza", "phone": "814-703-8310", "website": "https://www.foxspizza.com/store/pennsylvania/boswell-pa/", "opening_hours": "Sun: 11:00 AM to 9:00 PM; Mon: 11:00 AM to 9:00 PM; Tue: 11:00 AM to 9:00 PM; Wed: 11:00 AM to 9:00 PM; Thu: 11:00 AM to 9:00 PM; Fri: 11:00 AM to 10:00 PM; Sat: 11:00 AM to 10:00 PM", "brand": "Fox's Pizza Den", "brand:wikidata": "Q5476498"}, "geometry": {"type": "Point", "coordinates": [-79.0341794, 40.1607188]}},
{"type": "Feature", "id": "Pjq1yPKaKq90NltUDpJdXZkIfxc=", "properties": {"ref": "https://www.foxspizza.com/store/pennsylvania/mifflintown-pa/", "@spider": "foxspizza", "addr:full": "1803 Butcher Shop Road, Mifflintown, PA 17059", "name": "Mifflintown, PA - Fox's Pizza", "phone": "\u00a0717-436-8248", "website": "https://www.foxspizza.com/store/pennsylvania/mifflintown-pa/", "opening_hours": "Sun: 4:00 PM to 9:00 PM; Mon: 11:00 AM to 9:00 PM; Tue: 11:00 AM to 9:00 PM; Wed:  11:00 AM to 9:00 PM; Thu:  11:00 AM to 9:00 PM; Fri:  11:00 AM to 10:00 PM; Sat: 11:00 AM to 10:00 PM", "brand": "Fox's Pizza Den", "brand:wikidata": "Q5476498"}, "geometry": {"type": "Point", "coordinates": [-77.3704176, 40.5857952]}},
{"type": "Feature", "id": "OQXxeyMR-ryW5ixkA7c5OJgNaRg=", "properties": {"ref": "https://www.foxspizza.com/store/pennsylvania/meyersdale-pa/", "@spider": "foxspizza", "addr:full": "322 Main Street, Meyersdale, PA 15552", "name": "Meyersdale, PA - Fox's Pizza", "phone": "814-634-7189", "website": "https://www.foxspizza.com/store/pennsylvania/meyersdale-pa/", "opening_hours": "Sun: 11:00 AM to 9:00 PM; Mon:  11:00 AM to 9:00 PM; Tue:  11:00 AM to 9:00 PM; Wed: 11:00 AM to 9:00 PM; Thu: 11:00 AM to 9:00 PM; Fri:  11:00 AM to 10:00 PM; Sat:  11:00 AM to 10:00 PM", "brand": "Fox's Pizza Den", "brand:wikidata": "Q5476498"}, "geometry": {"type": "Point", "coordinates": [-79.0248409, 39.8149249]}},
{"type": "Feature", "id": "bxBFA0f9E7OfdqMEg5HCyw3XLew=", "properties": {"ref": "https://www.foxspizza.com/store/arkansas/bono-ar/", "@spider": "foxspizza", "addr:full": "10040 US Highway 63, Bono, AR 72416", "name": "Bono, AR - Fox's Pizza", "phone": "870-268-9797", "website": "https://www.foxspizza.com/store/arkansas/bono-ar/", "opening_hours": "Sun: Closed; Mon: 10:30 AM to 9:00 PM; Tue:  10:30 AM to 9:00 PM; Wed: 10:30 AM to 9:00 PM; Thu: 10:30 AM to 9:00 PM; Fri:  10:30 AM to 11:00 PM; Sat: 10:30 AM to 11:00 PM", "brand": "Fox's Pizza Den", "brand:wikidata": "Q5476498"}, "geometry": {"type": "Point", "coordinates": [-90.7950025, 35.8950083]}},
{"type": "Feature", "id": "8xkA9ndLmRvdQ7su-CxjlqCZya4=", "properties": {"ref": "https://www.foxspizza.com/store/pennsylvania/mt-washington-pa/", "@spider": "foxspizza", "addr:full": "6 Bailey Avenue, Pittsburgh, PA 15211", "name": "Mt. Washington, PA - Fox's Pizza", "phone": "412-381-9300", "website": "https://www.foxspizza.com/store/pennsylvania/mt-washington-pa/", "opening_hours": "Sun: 11:00 AM to 11:00 PM; Mon: 11:00 AM to 11:00 PM; Tue:  11:00 AM to 11:00 PM; Wed: 11:00 AM to 11:00 PM; Thu: 11:00 AM to 11:00 PM; Fri:  11:00 AM to 12:00 AM; Sat:  11:00 AM to 12:00 AM", "brand": "Fox's Pizza Den", "brand:wikidata": "Q5476498"}, "geometry": {"type": "Point", "coordinates": [-80.0053019, 40.4268672]}},
{"type": "Feature", "id": "j2OVyFgZb2kgCsLOoXeNNd51RXk=", "properties": {"ref": "https://www.foxspizza.com/store/pennsylvania/hopewell-pa/", "@spider": "foxspizza", "addr:full": "2296 Brodhead Road, Aliquippa, PA 15001", "name": "Hopewell, PA - Fox's Pizza", "phone": "724-203-4762", "website": "https://www.foxspizza.com/store/pennsylvania/hopewell-pa/", "opening_hours": "Sun:  11:00 AM to 10:00 PM; Mon:   10:30 AM to 10:00 PM; Tue:  10:30 AM to 10:00 PM; Wed:  10:30 AM to 10:00 PM; Thu:  10:30 AM to 10:00 PM; Fri:  10:30 AM to 11:00 PM; Sat: 10:30 AM to 11:00 PM", "brand": "Fox's Pizza Den", "brand:wikidata": "Q5476498"}, "geometry": {"type": "Point", "coordinates": [-80.2591043, 40.5865966]}},
{"type": "Feature", "id": "Hq5BomTnnavLjvtGI6TJmUdLnS0=", "properties": {"ref": "https://www.foxspizza.com/store/west-virginia/weirton-wv/", "@spider": "foxspizza", "addr:full": "117 Three Springs Drive, Weirton, WV 26062", "name": "Weirton, WV - Fox's Pizza", "phone": "304-723-3697", "website": "https://www.foxspizza.com/store/west-virginia/weirton-wv/", "opening_hours": "Sun: 12:00 PM to 8:00 PM; Mon: Closed; Tue:  10:30 AM to 9:00 PM; Wed: 10:30 AM to 9:00 PM; Thu:  10:30 AM to 9:00 PM; Fri:  10:30 AM to 10:00 PM; Sat: 10:30 AM to 10:00 PM", "brand": "Fox's Pizza Den", "brand:wikidata": "Q5476498"}, "geometry": {"type": "Point", "coordinates": [-80.5484459, 40.4043508]}},
{"type": "Feature", "id": "zH1y9L5SAZ0-3m9jabzmHpK4Cu0=", "properties": {"ref": "https://www.foxspizza.com/store/pennsylvania/harrison-city-pa/", "@spider": "foxspizza", "addr:full": "3356 Route 130, Harrison City, PA 15636", "name": "Harrison City, PA - Fox's Pizza", "phone": "724-392-4907", "website": "https://www.foxspizza.com/store/pennsylvania/harrison-city-pa/", "opening_hours": "Sun:  12:00 PM to 8:00 PM; Mon:  11:00 AM to 9:00 PM; Tue:   11:00 AM to 9:00 PM; Wed: 11:00 AM to 9:00 PM; Thu:  11:00 AM to 9:00 PM; Fri:  11:00 AM to 10:00 PM; Sat: 12:00 PM to 10:00 PM", "brand": "Fox's Pizza Den", "brand:wikidata": "Q5476498"}, "geometry": {"type": "Point", "coordinates": [-79.6264934, 40.3633969]}},
{"type": "Feature", "id": "Oe4ZCfFCjF75vujL5w1IU41WEPM=", "properties": {"ref": "https://www.foxspizza.com/store/pennsylvania/oakmont-pa/", "@spider": "foxspizza", "addr:full": "314 Allegheny River Boulevard, Oakmont, PA 15139", "name": "Oakmont, PA - Fox's Pizza", "phone": "412-794-8317", "website": "https://www.foxspizza.com/store/pennsylvania/oakmont-pa/", "opening_hours": "Sun: 11:00 AM to 10:00 PM; Mon: 10:30 AM to 10:00 PM; Tue:  10:30 AM to 10:00 PM; Wed: 10:30 AM to 10:00 PM; Thu: 10:30 AM to 10:00 PM; Fri:  10:30 AM to 11:00 PM; Sat: 10:30 AM to 11:00 PM", "brand": "Fox's Pizza Den", "brand:wikidata": "Q5476498"}, "geometry": {"type": "Point", "coordinates": [-79.8428651, 40.5157702]}},
{"type": "Feature", "id": "by2brpdQb1m6V5Rs7MA4jJrB2jA=", "properties": {"ref": "https://www.foxspizza.com/store/pennsylvania/monroeville-pa/", "@spider": "foxspizza", "addr:full": "4400 Old William Penn Highway, Monroeville, PA 15146", "name": "Monroeville, PA - Fox's Pizza", "phone": "412-666-0400", "website": "https://www.foxspizza.com/store/pennsylvania/monroeville-pa/", "opening_hours": "Sun: 11:30 AM to 10:00 PM; Mon:  11:00 AM to 10:00 PM; Tue:  11:00 AM to 10:00 PM; Wed:   11:00 AM to 10:00 PM; Thu:  11:00 AM to 10:00 PM; Fri:  11:00 AM to 11:00 PM; Sat:  11:00 AM to 11:00 PM", "brand": "Fox's Pizza Den", "brand:wikidata": "Q5476498"}, "geometry": {"type": "Point", "coordinates": [-79.7648453, 40.4452406]}},
{"type": "Feature", "id": "65G3D0fq1oHB3FyKXyoN0mNkQYI=", "properties": {"ref": "https://www.foxspizza.com/store/pennsylvania/leechburg-pa/", "@spider": "foxspizza", "addr:full": "214 Market Street, Leechburg, PA 15656", "name": "Leechburg, PA - Fox's Pizza", "phone": "724-845-5581", "website": "https://www.foxspizza.com/store/pennsylvania/leechburg-pa/", "opening_hours": "Sun: 11:00 AM to 9:00 PM; Mon:  11:00 AM to 9:00 PM; Tue:  11:00 AM to 9:00 PM; Wed: 11:00 AM to 9:00 PM; Thu:  11:00 AM to 9:00 PM; Fri:  11:00 AM to 10:00 PM; Sat: 11:00 AM to 10:00 PM", "brand": "Fox's Pizza Den", "brand:wikidata": "Q5476498"}, "geometry": {"type": "Point", "coordinates": [-79.605069, 40.6262766]}},
{"type": "Feature", "id": "ylQ1yVUaE1TrPkJZrOEzhyJJ9b8=", "properties": {"ref": "https://www.foxspizza.com/store/pennsylvania/chalkhill-pa/", "@spider": "foxspizza", "addr:full": "2944 National Pike, Chalkhill, PA 15421", "name": "Chalkhill, PA - Fox's Pizza", "phone": "724-437-4992", "website": "https://www.foxspizza.com/store/pennsylvania/chalkhill-pa/", "opening_hours": "Sun: 11:00 AM to 7:00 PM; Mon: 11:00 AM to 7:00 PM; Tue: 11:00 AM to 7:00 PM; Wed: 11:00 AM to 7:00 PM; Thu: 11:00 AM to 7:00 PM; Fri:  11:00 AM to 8:00 PM; Sat:  11:00 AM to 8:00 PM", "brand": "Fox's Pizza Den", "brand:wikidata": "Q5476498"}, "geometry": {"type": "Point", "coordinates": [-79.6193937, 39.8441277]}},
{"type": "Feature", "id": "eoW12vnisaT0Q2Vz3yM2Iu4pZF8=", "properties": {"ref": "https://www.foxspizza.com/store/virginia/berryville-va/", "@spider": "foxspizza", "addr:full": "616 East Main Street, Berryville, VA 22611", "name": "Berryville, VA - Fox's Pizza", "phone": "540-955-3697", "website": "https://www.foxspizza.com/store/virginia/berryville-va/", "opening_hours": "Sun: 11:00 AM to 10:00 PM; Mon: 11:00 AM to 10:00 PM; Tue:  11:00 AM to 10:00 PM; Wed: 11:00 AM to 10:00 PM; Thu: 11:00 AM to 10:00 PM; Fri:  11:00 AM to 11:00 PM; Sat:  11:00 AM to 11:00 PM", "brand": "Fox's Pizza Den", "brand:wikidata": "Q5476498"}, "geometry": {"type": "Point", "coordinates": [-77.9709874, 39.1473311]}},
{"type": "Feature", "id": "Zd9ci9ilxFIC6I1dRqHxGTbJGvY=", "properties": {"ref": "https://www.foxspizza.com/store/pennsylvania/midland-pa/", "@spider": "foxspizza", "addr:full": "538 Midland Avenue, Midland, PA 15059", "name": "Midland, PA - Fox's Pizza", "phone": "724-660-4450", "website": "https://www.foxspizza.com/store/pennsylvania/midland-pa/", "opening_hours": "Sun: 11:00 AM to 9:00 PM; Mon: 10:30 AM to 9:00 PM; Tue: 10:30 AM to 9:00 PM; Wed: 10:30 AM to 9:00 PM; Thu: 10:30 AM to 9:00 PM; Fri: 10:30 AM to 11:00 PM; Sat: 10:30 AM to 11:00 PM", "brand": "Fox's Pizza Den", "brand:wikidata": "Q5476498"}, "geometry": {"type": "Point", "coordinates": [-80.4559216, 40.6388887]}},
{"type": "Feature", "id": "WixHr5D775baa2o_7mlZz_4h9Eg=", "properties": {"ref": "https://www.foxspizza.com/store/pennsylvania/beaver-pa/", "@spider": "foxspizza", "addr:full": "464 3rd Street, Beaver, PA 15009", "name": "Beaver, PA - Fox's Pizza", "phone": "724-888-2535", "website": "https://www.foxspizza.com/store/pennsylvania/beaver-pa/", "opening_hours": "Sun: 11:00 AM to 9:00 PM; Mon: 10:30 AM to 9:00 PM; Tue:  10:30 AM to 9:00 PM; Wed: 10:30 AM to 9:00 PM; Thu:  10:30 AM to 9:00 PM; Fri:  10:30 AM to 10:00 PM; Sat: 10:30 AM to 10:00 PM", "brand": "Fox's Pizza Den", "brand:wikidata": "Q5476498"}, "geometry": {"type": "Point", "coordinates": [-80.3028897, 40.6963123]}},
{"type": "Feature", "id": "g-7Ot2OasQlt7Dfy0VYapAdGrzY=", "properties": {"ref": "https://www.foxspizza.com/store/pennsylvania/hunker-pa/", "@spider": "foxspizza", "addr:full": "1669 New Stanton Ruffsdale Road, Hunker, PA 15639", "name": "Hunker, PA - Fox's Pizza", "phone": "724-755-0777", "website": "https://www.foxspizza.com/store/pennsylvania/hunker-pa/", "opening_hours": "Sun: 12:00 PM to 8:00 PM; Mon:  11:00 AM to 9:00 PM; Tue:  11:00 AM to 9:00 PM; Wed:  11:00 AM to 9:00 PM; Thu: 11:00 AM to 9:00 PM; Fri:  11:00 AM to 10:00 PM; Sat: 11:00 AM to 10:00 PM", "brand": "Fox's Pizza Den", "brand:wikidata": "Q5476498"}, "geometry": {"type": "Point", "coordinates": [-79.6199213, 40.2081609]}},
{"type": "Feature", "id": "BXxjtkQeqUz6YuT1gIvxJ6S-OqE=", "properties": {"ref": "https://www.foxspizza.com/store/pennsylvania/port-allegany-pa/", "@spider": "foxspizza", "addr:full": "52 North Main Street, Port Allegany, PA 16743", "name": "Port Allegany, PA - Fox's Pizza", "phone": "814-642-2623", "website": "https://www.foxspizza.com/store/pennsylvania/port-allegany-pa/", "opening_hours": "Sun:  10:00 AM to 9:00 PM; Mon: 10:00 AM to 9:00 PM; Tue:  10:00 AM to 9:00 PM; Wed: 10:00 AM to 9:00 PM; Thu: 10:00 AM to 10:00 PM; Fri:  10:00 AM to 10:00 PM; Sat: 10:00 AM to 10:00 PM", "brand": "Fox's Pizza Den", "brand:wikidata": "Q5476498"}, "geometry": {"type": "Point", "coordinates": [-78.280916, 41.8122045]}},
{"type": "Feature", "id": "hyQ00hxk8oKE7zsIuA21hip3G1s=", "properties": {"ref": "https://www.foxspizza.com/store/pennsylvania/wilmore-pa/", "@spider": "foxspizza", "addr:full": "2608 Portage Street, Wilmore, PA 15962", "name": "Wilmore, PA - Fox's Pizza", "phone": "814-495-3030", "website": "https://www.foxspizza.com/store/pennsylvania/wilmore-pa/", "opening_hours": "Sun: 1:00 PM to 9:00 PM; Mon: 11:00 AM to 9:00 PM; Tue: 11:00 AM to 9:00 PM; Wed: 11:00 AM to 9:00 PM; Thu: 11:00 AM to 9:00 PM; Fri:  11:00 AM to 10:00 PM; Sat:  11:00 AM to 10:00 PM", "brand": "Fox's Pizza Den", "brand:wikidata": "Q5476498"}, "geometry": {"type": "Point", "coordinates": [-78.7136744, 40.3908342]}},
{"type": "Feature", "id": "3EDSnpx8PJXXSrHAsZ8NzM9F068=", "properties": {"ref": "https://www.foxspizza.com/store/pennsylvania/emporium-pa/", "@spider": "foxspizza", "addr:full": "41 East 4th Street, Emporium, PA 15834", "name": "Emporium, PA - Fox's Pizza", "phone": "814-486-3637", "website": "https://www.foxspizza.com/store/pennsylvania/emporium-pa/", "opening_hours": "Sun: 11:00 AM to 9:00 PM; Mon: 11:00 AM to 10:00 PM; Tue:  11:00 AM to 10:00 PM; Wed: 11:00 AM to 10:00 PM; Thu: 11:00 AM to 10:00 PM; Fri: 11:00 AM to 11:00 PM; Sat:  11:00 AM to 11:00 PM", "brand": "Fox's Pizza Den", "brand:wikidata": "Q5476498"}, "geometry": {"type": "Point", "coordinates": [-78.2360275, 41.5115188]}},
{"type": "Feature", "id": "ogLSuc3ehRRwIs1bw4rk0xtU64E=", "properties": {"ref": "https://www.foxspizza.com/store/new-york/campbell-ny/", "@spider": "foxspizza", "addr:full": "8824 New York 415, Campbell, NY 14821", "name": "Campbell, NY - Fox's Pizza", "phone": "607-527-3697", "website": "https://www.foxspizza.com/store/new-york/campbell-ny/", "opening_hours": "Sun: 11:00 AM to 9:00 PM; Mon: 11:00 AM to 9:00 PM; Tue: 11:00 AM to 9:00 PM; Wed: 11:00 AM to 9:00 PM; Thu: 11:00 AM to 9:00 PM; Fri: 11:00 AM to 9:00 PM; Sat: 11:00 AM to 9:00 PM", "brand": "Fox's Pizza Den", "brand:wikidata": "Q5476498"}, "geometry": {"type": "Point", "coordinates": [-77.1766912, 42.227416]}},
{"type": "Feature", "id": "upDdRzTH8yfTPP-YsOKwMDOFDhE=", "properties": {"ref": "https://www.foxspizza.com/store/pennsylvania/indiana-pa/", "@spider": "foxspizza", "addr:full": "580 Philadelphia Street, Indiana, PA 15701", "name": "Indiana, PA - Fox's Pizza", "phone": "724-463-8500", "website": "https://www.foxspizza.com/store/pennsylvania/indiana-pa/", "opening_hours": "Sun:  10:30 AM to 10:00 PM; Mon: 10:00 AM to 10:00 PM; Tue: 10:00 AM to 10:00 PM; Wed:  10:00 AM to 10:00 PM; Thu: 10:00 AM to 10:00 PM; Fri:   10:00 AM to 11:00 PM; Sat:   10:00 AM to 11:00 PM", "brand": "Fox's Pizza Den", "brand:wikidata": "Q5476498"}, "geometry": {"type": "Point", "coordinates": [-79.150576, 40.6226807]}},
{"type": "Feature", "id": "bQNIV0el8Ftc1poVJP-6JeS-Z6s=", "properties": {"ref": "https://www.foxspizza.com/store/pennsylvania/smethport-pa/", "@spider": "foxspizza", "addr:full": "133 West Main Street, Smethport, PA 16749", "name": "Smethport, PA - Fox's Pizza", "phone": "814-887-4188", "website": "https://www.foxspizza.com/store/pennsylvania/smethport-pa/", "opening_hours": "Sun: 11:00 AM to 9:00 PM; Mon: 11:00 AM to 9:00 PM; Tue: 11:00 AM to 9:00 PM; Wed: 11:00 AM to 9:00 PM; Thu: 11:00 AM to 9:00 PM; Fri: 11:00 AM to 10:00 PM; Sat: 11:00 AM to 10:00 PM", "brand": "Fox's Pizza Den", "brand:wikidata": "Q5476498"}, "geometry": {"type": "Point", "coordinates": [-78.4429004, 41.8094167]}},
{"type": "Feature", "id": "T1lYUNQT6Zq9wKf20UeJjNrYKy4=", "properties": {"ref": "https://www.foxspizza.com/store/pennsylvania/rural-valley-pa/", "@spider": "foxspizza", "addr:full": "119 White Oak Road, Rural Valley, PA 16249", "name": "Rural Valley, PA - Fox's Pizza", "phone": "724-783-2369", "website": "https://www.foxspizza.com/store/pennsylvania/rural-valley-pa/", "opening_hours": "Sun: 11:00 AM to 9:00 PM; Mon: 11:00 AM to 9:00 PM; Tue:  11:00 AM to 9:00 PM; Wed: 11:00 AM to 9:00 PM; Thu: 11:00 AM to 9:00 PM; Fri:  11:00 AM to 10:00 PM; Sat: 11:00 AM to 10:00 PM", "brand": "Fox's Pizza Den", "brand:wikidata": "Q5476498"}, "geometry": {"type": "Point", "coordinates": [-79.2925469, 40.7951262]}},
{"type": "Feature", "id": "hGTYIiTd2eyiuv4Up-klm1CDjA8=", "properties": {"ref": "https://www.foxspizza.com/store/mississippi/clinton-ms/", "@spider": "foxspizza", "addr:full": "713 Clinton Parkway, Clinton, MS 39056", "name": "Clinton, MS - Fox's Pizza", "phone": "601-708-4135", "website": "https://www.foxspizza.com/store/mississippi/clinton-ms/", "opening_hours": "Sun: 11:00 AM to 9:00 PM; Mon:  11:00 AM to 9:00 PM; Tue:  11:00 AM to 9:00 PM; Wed: 11:00 AM to 9:00 PM; Thu: 11:00 AM to 9:00 PM; Fri: 11:00 AM to 9:00 PM; Sat: 11:00 AM to 9:00 PM", "brand": "Fox's Pizza Den", "brand:wikidata": "Q5476498"}, "geometry": {"type": "Point", "coordinates": [-90.3249726, 32.3472889]}},
{"type": "Feature", "id": "UZCG3GouN1RNAGRaSdys3BRVRsg=", "properties": {"ref": "https://www.foxspizza.com/store/pennsylvania/jeannette-pa/", "@spider": "foxspizza", "addr:full": " U.S. 30, Jeannette, PA 15644", "name": "Jeannette, PA - Fox's Pizza", "phone": "724-522-5822", "website": "https://www.foxspizza.com/store/pennsylvania/jeannette-pa/", "opening_hours": "Sun:  11:00 AM to 10:00 PM; Mon: 11:00 AM to 10:00 PM; Tue: 11:00 AM to 10:00 PM; Wed:  11:00 AM to 10:00 PM; Thu: 11:00 AM to 10:00 PM; Fri:   11:00 AM to 11:00 PM; Sat:   11:00 AM to 11:00 PM", "brand": "Fox's Pizza Den", "brand:wikidata": "Q5476498"}, "geometry": {"type": "Point", "coordinates": [-79.6208451, 40.3108777]}},
{"type": "Feature", "id": "p-BY1M019Z2ev8pwYG1rYmb3c5k=", "properties": {"ref": "https://www.foxspizza.com/store/pennsylvania/apollo-pa/", "@spider": "foxspizza", "addr:full": "125 North Plz, Apollo, PA 15613", "name": "Apollo, PA - Fox's Pizza", "phone": "724-478-3603", "website": "https://www.foxspizza.com/store/pennsylvania/apollo-pa/", "opening_hours": "Sun: 12:00 PM to 8:00 PM; Mon: 11:00 AM to 10:00 PM; Tue: 11:00 AM to 10:00 PM; Wed:11:00 AM to 10:00 PM; Thu: 11:00 AM to 10:00 PM; Fri:  11:00 AM to 11:00 PM; Sat: 11:00 AM to 11:00 PM", "brand": "Fox's Pizza Den", "brand:wikidata": "Q5476498"}, "geometry": {"type": "Point", "coordinates": [-79.5665559, 40.582278]}},
{"type": "Feature", "id": "cRTQ5crHmMTONQ_Kg2pDvMJ0kI0=", "properties": {"ref": "https://www.foxspizza.com/store/louisiana/west-monroe-la/", "@spider": "foxspizza", "addr:full": "1250 Louisiana 15, West Monroe, LA 71291", "name": "West Monroe, LA - Fox's Pizza", "phone": "318-654-4752", "website": "https://www.foxspizza.com/store/louisiana/west-monroe-la/", "opening_hours": "Sun: 11:00 AM to 9:00 PM; Mon: 11:00 AM to 9:00 PM; Tue:  11:00 AM to 9:00 PM; Wed: 11:00 AM to 9:00 PM; Thu:  11:00 AM to 9:00 PM; Fri:  11:00 AM to 10:00 PM; Sat: 11:00 AM to 10:00 PM", "brand": "Fox's Pizza Den", "brand:wikidata": "Q5476498"}, "geometry": {"type": "Point", "coordinates": [-92.2480014, 32.5466518]}},
{"type": "Feature", "id": "0-dVhE2wjt-nwGSVFPQUqtVrpVU=", "properties": {"ref": "https://www.foxspizza.com/store/ohio/east-liverpool-oh/", "@spider": "foxspizza", "addr:full": "501 Market Street, East Liverpool, OH 43920", "name": "East Liverpool, OH - Fox's Pizza", "phone": "330-932-1122", "website": "https://www.foxspizza.com/store/ohio/east-liverpool-oh/", "opening_hours": "Sun: 10:30 AM to 9:00 PM; Mon: 10:30 AM to 9:00 PM; Tue: 10:30 AM to 9:00 PM; Wed: 10:30 AM to 9:00 PM; Thu: 10:30 AM to 9:00 PM; Fri: 10:30 AM to 11:00 PM; Sat: 10:30 AM to 11:00 PM", "brand": "Fox's Pizza Den", "brand:wikidata": "Q5476498"}, "geometry": {"type": "Point", "coordinates": [-80.5799096, 40.6194872]}},
{"type": "Feature", "id": "GObULcePjSzdA4OLPYAtjYN3WjA=", "properties": {"ref": "https://www.foxspizza.com/store/pennsylvania/greenville-pa/", "@spider": "foxspizza", "addr:full": "187 Main Street, Greenville, PA 16125", "name": "Greenville, PA - Fox's Pizza", "phone": "724-588-2222", "website": "https://www.foxspizza.com/store/pennsylvania/greenville-pa/", "opening_hours": "Sun: 11:00 AM to 10:00 PM; Mon: 11:00 AM to 10:00 PM; Tue: 11:00 AM to 10:00 PM; Wed: 11:00 AM to 10:00 PM; Thu: 11:00 AM to 10:00 PM; Fri: 11:00 AM to 12:00 AM; Sat: 11:00 AM to 12:00 AM", "brand": "Fox's Pizza Den", "brand:wikidata": "Q5476498"}, "geometry": {"type": "Point", "coordinates": [-80.3887638, 41.4048968]}},
{"type": "Feature", "id": "6haGVi24RdbHddAFL0PIHlO9IeQ=", "properties": {"ref": "https://www.foxspizza.com/store/west-virginia/petersburg-wv/", "@spider": "foxspizza", "addr:full": "426 Keyser Avenue, Petersburg, WV 26847", "name": "Petersburg, WV - Fox's Pizza", "phone": "304-257-4342", "website": "https://www.foxspizza.com/store/west-virginia/petersburg-wv/", "opening_hours": "Sun: 11:00 AM to 11:00 PM; Mon: 11:00 AM to 11:00 PM; Tue:  11:00 AM to 11:00 PM; Wed: 11:00 AM to 11:00 PM; Thu: 11:00 AM to 11:00 PM; Fri: 11:00 AM to 11:00 PM; Sat: 11:00 AM to 11:00 PM", "brand": "Fox's Pizza Den", "brand:wikidata": "Q5476498"}, "geometry": {"type": "Point", "coordinates": [-79.1287445, 39.0010019]}},
{"type": "Feature", "id": "_pdfy_DA-jiKapeodEnKU43nRLw=", "properties": {"ref": "https://www.foxspizza.com/store/virginia/strasburg-va/", "@spider": "foxspizza", "addr:full": "289 North Massanutten Street, Strasburg, VA 22657", "name": "Strasburg, VA - Fox's Pizza", "phone": "540-465-3332", "website": "https://www.foxspizza.com/store/virginia/strasburg-va/", "opening_hours": "Sun: 12:00 PM to 10:00 PM; Mon: 11:00 AM to 10:00 PM; Tue: 11:00 AM to 10:00 PM; Wed: 11:00 AM to 10:00 PM; Thu: 11:00 AM to 10:00 PM; Fri:   11:00 AM to 11:00 PM; Sat:  11:00 AM to 11:00 PM", "brand": "Fox's Pizza Den", "brand:wikidata": "Q5476498"}, "geometry": {"type": "Point", "coordinates": [-78.3582001, 38.9906403]}},
{"type": "Feature", "id": "G_89SSYOxH3qzgd_1rnnOaZgng4=", "properties": {"ref": "https://www.foxspizza.com/store/virginia/front-royal-va/", "@spider": "foxspizza", "addr:full": "239 South Street, Front Royal, VA 22630", "name": "Front Royal, VA - Fox's Pizza", "phone": "540-635-2800", "website": "https://www.foxspizza.com/store/virginia/front-royal-va/", "opening_hours": "Sun:  10:00 AM to 11:00 PM; Mon: 10:00 AM to 11:00 PM; Tue:   10:00 AM to 11:00 PM; Wed:  10:00 AM to 11:00 PM; Thu:  10:00 AM to 11:00 PM; Fri:   10:00 AM to 12:00 AM; Sat:   10:00 AM to 12:00 AM", "brand": "Fox's Pizza Den", "brand:wikidata": "Q5476498"}, "geometry": {"type": "Point", "coordinates": [-78.1905081, 38.9112189]}},
{"type": "Feature", "id": "FI95S-3jtNCYjyCmgtBpeuq1MMM=", "properties": {"ref": "https://www.foxspizza.com/store/west-virginia/brandywine-wv/", "@spider": "foxspizza", "addr:full": "11600 Blue Gray Trail, Brandywine, WV 26802", "name": "Brandywine, WV - Fox's Pizza", "phone": "304-249-5136", "website": "https://www.foxspizza.com/store/west-virginia/brandywine-wv/", "opening_hours": "Sun: 11:00 PM to 9:00 PM; Mon: 11:00 AM to 9:00 PM; Tue: 11:00 AM to 9:00 PM; Wed: 11:00 AM to 9:00 PM; Thu: 11:00 AM to 9:00 PM; Fri: 11:00 AM to 10:00 PM; Sat: 11:00 AM to 10:00 PM", "brand": "Fox's Pizza Den", "brand:wikidata": "Q5476498"}, "geometry": {"type": "Point", "coordinates": [-79.244057, 38.6263022]}},
{"type": "Feature", "id": "QjWF58vG24MjOOy0uduV_u2qyJ4=", "properties": {"ref": "https://www.foxspizza.com/store/utah/logan-ut/", "@spider": "foxspizza", "addr:full": "339 Main Street, Logan, UT 84321", "name": "Logan, UT - Fox's Pizza", "phone": "435-792-3697", "website": "https://www.foxspizza.com/store/utah/logan-ut/", "opening_hours": "Sun: Closed; Mon: 10:30 AM to 10:00 PM; Tue: 10:30 AM to 10:00 PM; Wed: 10:30 AM to 10:00 PM; Thu: 10:30 AM to 10:00 PM; Fri: 10:30 AM to 11:00 PM; Sat: 10:30 AM to 11:00 PM", "brand": "Fox's Pizza Den", "brand:wikidata": "Q5476498"}, "geometry": {"type": "Point", "coordinates": [-111.83553, 41.738025]}},
{"type": "Feature", "id": "t8crESnYR_FgFiDrAiiEkwvD-fk=", "properties": {"ref": "https://www.foxspizza.com/store/texas/elkhart-tx/", "@spider": "foxspizza", "addr:full": "307 U.S. 287, Elkhart, TX 75839", "name": "Elkhart, TX - Fox's Pizza", "phone": "903-764-0300", "website": "https://www.foxspizza.com/store/texas/elkhart-tx/", "opening_hours": "Sun: 11:00 AM to 11:00 PM; Mon: 11:00 AM to 11:00 PM; Tue: 11:00 AM to 11:00 PM; Wed: 11:00 AM to 11:00 PM; Thu: 11:00 AM to 11:00 PM; Fri: 11:00 AM to 11:00 PM; Sat: 11:00 AM to 11:00 PM", "brand": "Fox's Pizza Den", "brand:wikidata": "Q5476498"}, "geometry": {"type": "Point", "coordinates": [-95.5719529, 31.6260219]}},
{"type": "Feature", "id": "0JiQqaOw_gTi_M6KOI00KVuEm8g=", "properties": {"ref": "https://www.foxspizza.com/store/pennsylvania/west-newton-pa/", "@spider": "foxspizza", "addr:full": "106 Collinsburg Road, West Newton, PA 15089", "name": "West Newton, PA - Fox's Pizza", "phone": "724-872-4442", "website": "https://www.foxspizza.com/store/pennsylvania/west-newton-pa/", "opening_hours": "Sun: 12:00 PM to 10:00 PM; Mon: 11:00 AM to 10:00 PM; Tue: 11:00 AM to 10:00 PM; Wed: 11:00 AM to 10:00 PM; Thu: 11:00 AM to 10:00 PM; Fri:  11:00 AM to 11:00 PM; Sat:  11:00 AM to 11:00 PM", "brand": "Fox's Pizza Den", "brand:wikidata": "Q5476498"}, "geometry": {"type": "Point", "coordinates": [-79.7694479, 40.2117998]}},
{"type": "Feature", "id": "Ix5orWtOVkRD-5MK-TUmdvBx-6w=", "properties": {"ref": "https://www.foxspizza.com/store/pennsylvania/wellsboro-pa/", "@spider": "foxspizza", "addr:full": "7 Charleston Street, Wellsboro, PA 16901", "name": "Wellsboro, PA - Fox's Pizza", "phone": "570-948-9180", "website": "https://www.foxspizza.com/store/pennsylvania/wellsboro-pa/", "opening_hours": "Sun: 10:30 AM to 9:00 PM; Mon: 10:30 AM to 9:00 PM; Tue: 10:30 AM to 9:00 PM; Wed: 10:30 AM to 9:00 PM; Thu: 10:30 AM to 9:00 PM; Fri: 10:30 AM to 10:00 PM; Sat: 10:30 AM to 10:00 PM", "brand": "Fox's Pizza Den", "brand:wikidata": "Q5476498"}, "geometry": {"type": "Point", "coordinates": [-77.2973723, 41.7511451]}},
{"type": "Feature", "id": "D3_Fh75cPL16WsPCDtWGfZr1-2A=", "properties": {"ref": "https://www.foxspizza.com/store/pennsylvania/titusville-pa/", "@spider": "foxspizza", "addr:full": "425 East Central Avenue, Titusville, PA 16354", "name": "Titusville, PA - Fox's Pizza", "phone": "814-827-0369", "website": "https://www.foxspizza.com/store/pennsylvania/titusville-pa/", "opening_hours": "Sun: Closed; Mon: 10:30 AM to 9:00 PM; Tue: 10:30 AM to 9:00 PM; Wed: 10:30 AM to 9:00 PM; Thu: 10:30 AM to 9:00 PM; Fri: 10:30 AM to 9:00 PM; Sat: 10:30 AM to 9:00 PM", "brand": "Fox's Pizza Den", "brand:wikidata": "Q5476498"}, "geometry": {"type": "Point", "coordinates": [-79.6657789, 41.6274156]}},
{"type": "Feature", "id": "rfmlKsTjIu0JVQnhhok6FQppqgA=", "properties": {"ref": "https://www.foxspizza.com/store/pennsylvania/sykesville-pa/", "@spider": "foxspizza", "addr:full": "206 East Main Street, Sykesville, PA 15865", "name": "Sykesville, PA - Fox's Pizza", "phone": "\u00a0814-894-7777", "website": "https://www.foxspizza.com/store/pennsylvania/sykesville-pa/", "opening_hours": "Sun: 3:00 PM to 9:00 PM; Mon: 11:00 AM to 9:00 PM; Tue: 11:00 AM to 9:00 PM; Wed: 11:00 AM to 10:00 PM; Thu: 11:00 AM to 10:00 PM; Fri: 11:00 AM to 10:00 PM; Sat: 11:00 AM to 10:00 PM", "brand": "Fox's Pizza Den", "brand:wikidata": "Q5476498"}, "geometry": {"type": "Point", "coordinates": [-78.8185096, 41.0520953]}},
{"type": "Feature", "id": "jdL5O9i-JiWvW68ifmaGJp1bRu4=", "properties": {"ref": "https://www.foxspizza.com/store/pennsylvania/stockdale-pa/", "@spider": "foxspizza", "addr:full": "400 Locust Street, Stockdale, PA 15483", "name": "Stockdale, PA - Fox's Pizza", "phone": "724-938-3772", "website": "https://www.foxspizza.com/store/pennsylvania/stockdale-pa/", "opening_hours": "Sun: 2:00 PM to 9:00 PM; Mon:  3:00 PM to 10:00 PM; Tue:  3:00 PM to 10:00 PM; Wed:  3:00 PM to 10:00 PM; Thu:  3:00 PM to 10:00 PM; Fri: 3:00 PM to 11:00 PM; Sat: 3:00 PM to 10:00 PM", "brand": "Fox's Pizza Den", "brand:wikidata": "Q5476498"}, "geometry": {"type": "Point", "coordinates": [-79.8468317, 40.0823788]}},
{"type": "Feature", "id": "OQWPrkkoctZEnXQ-fPmPzmS970s=", "properties": {"ref": "https://www.foxspizza.com/store/pennsylvania/st-marys-pa/", "@spider": "foxspizza", "addr:full": "237 Market Street, Saint Marys, PA 15857", "name": "St. Marys, PA - Fox's Pizza", "phone": "814-781-1555", "website": "https://www.foxspizza.com/store/pennsylvania/st-marys-pa/", "opening_hours": "Sun: 11:00 AM to 8:45 PM; Mon: 10:30 AM to 9:45 PM; Tue: 10:30 AM to 9:45 PM; Wed: 10:30 AM to 9:45 PM; Thu: 10:30 AM to 9:45 PM; Fri: 10:30 AM to 9:45 PM; Sat: 10:30 AM to 9:45 PM", "brand": "Fox's Pizza Den", "brand:wikidata": "Q5476498"}, "geometry": {"type": "Point", "coordinates": [-78.5601185, 41.4269088]}},
{"type": "Feature", "id": "xgdQQ8yMR64liqwT1yvNdotwu0Q=", "properties": {"ref": "https://www.foxspizza.com/store/pennsylvania/spring-church-pa/", "@spider": "foxspizza", "addr:full": "3529 Pennsylvania 156, Spring Church, PA 15686", "name": "Spring Church, PA - Fox's Pizza", "phone": "724-596-4452", "website": "https://www.foxspizza.com/store/pennsylvania/spring-church-pa/", "opening_hours": "Sun: 11:00 AM to 9:00 PM; Mon: 11:00 AM to 9:00 PM; Tue: 11:00 AM to 9:00 PM; Wed: 11:00 AM to 9:00 PM; Thu: 11:00 AM to 9:00 PM; Fri: 11:00 AM to 10:00 PM; Sat: 11:00 AM to 10:00 PM", "brand": "Fox's Pizza Den", "brand:wikidata": "Q5476498"}, "geometry": {"type": "Point", "coordinates": [-79.442453, 40.607206]}},
{"type": "Feature", "id": "CnDK-CYQ9z4UOYXJDEj9EFoNhQ4=", "properties": {"ref": "https://www.foxspizza.com/store/pennsylvania/saltsburg-pa/", "@spider": "foxspizza", "addr:full": "616 Salt Street, Saltsburg, PA 15681", "name": "Saltsburg, PA - Fox's Pizza", "phone": "724-639-0388", "website": "https://www.foxspizza.com/store/pennsylvania/saltsburg-pa/", "opening_hours": "Sun: 12:00 PM to 10:00 PM; Mon: 10:30 AM to 10:00 PM; Tue: 10:30 AM to 10:00 PM; Wed: 10:30 AM to 10:00 PM; Thu: 10:30 AM to 10:00 PM; Fri: 10:30 AM to 11:00 PM; Sat:10:30 AM to 11:00 PM", "brand": "Fox's Pizza Den", "brand:wikidata": "Q5476498"}, "geometry": {"type": "Point", "coordinates": [-79.4504914, 40.4847727]}},
{"type": "Feature", "id": "Fk9QYztzOC_FChMNDJt3LHMLlV4=", "properties": {"ref": "https://www.foxspizza.com/store/pennsylvania/rostraver-pa/", "@spider": "foxspizza", "addr:full": "430 Willowbrook Plaza, Belle Vernon, PA 15012", "name": "Rostraver, PA - Fox's Pizza", "phone": "724-379-5001", "website": "https://www.foxspizza.com/store/pennsylvania/rostraver-pa/", "opening_hours": "Sun: 12:00 PM to 10:00 PM; Mon: 11:00 AM to 10:00 PM; Tue:  11:00 AM to 10:00 PM; Wed: 11:00 AM to 10:00 PM; Thu: 11:00 AM to 10:00 PM; Fri:   11:00 AM to 11:00 PM; Sat: 11:00 AM to 11:00 PM", "brand": "Fox's Pizza Den", "brand:wikidata": "Q5476498"}, "geometry": {"type": "Point", "coordinates": [-79.8092901, 40.1852668]}},
{"type": "Feature", "id": "qukkhDOGx3oTAmIX6Bg_6tai-oc=", "properties": {"ref": "https://www.foxspizza.com/store/pennsylvania/reynoldsville-pa/", "@spider": "foxspizza", "addr:full": "1 Broadway Street, Reynoldsville, PA 15851", "name": "Reynoldsville, PA - Fox's Pizza", "phone": "814-612-2720", "website": "https://www.foxspizza.com/store/pennsylvania/reynoldsville-pa/", "opening_hours": "Sun:  10:30 AM to 9:00 PM; Mon: 10:30 AM to 9:00 PM; Tue:  10:30 AM to 9:00 PM; Wed: 10:30 AM to 9:00 PM; Thu: 10:30 AM to 9:00 PM; Fri:   10:30 AM to 10:00 PM; Sat:  10:30 AM to 10:00 PM", "brand": "Fox's Pizza Den", "brand:wikidata": "Q5476498"}, "geometry": {"type": "Point", "coordinates": [-78.8938972, 41.1005595]}},
{"type": "Feature", "id": "8AnYQ5Qvkmv-wmvJe1Q0V1Nm5fA=", "properties": {"ref": "https://www.foxspizza.com/store/ohio/rittman-oh/", "@spider": "foxspizza", "addr:full": "18 North Main Street, Rittman, OH 44270", "name": "Rittman, OH - Fox's Pizza", "phone": "330-925-3000", "website": "https://www.foxspizza.com/store/ohio/rittman-oh/", "opening_hours": "Sun:  12:00 PM to 9:00 PM; Mon: 11:00 AM to 10:00 PM; Tue: 11:00 AM to 10:00 PM; Wed: 11:00 AM to 10:00 PM; Thu: 11:00 AM to 10:00 PM; Fri: 11:00 AM to 11:00 PM; Sat: 11:00 AM to 11:00 PM", "brand": "Fox's Pizza Den", "brand:wikidata": "Q5476498"}, "geometry": {"type": "Point", "coordinates": [-81.7811289, 40.9733286]}},
{"type": "Feature", "id": "XGotfYQzyws7XKcGZ9JyNEBljAM=", "properties": {"ref": "https://www.foxspizza.com/store/new-york/cuba-ny/", "@spider": "foxspizza", "addr:full": "6 Center Street, Cuba, NY 14727", "name": "Cuba, NY - Fox's Pizza", "phone": "585-968-4000", "website": "https://www.foxspizza.com/store/new-york/cuba-ny/", "opening_hours": "Sun: 1:00 AM to 7:00 PM; Mon: 11:00 AM to 8:00 PM; Tue: 11:00 AM to 8:00 PM; Wed: 11:00 AM to 9:00 PM; Thu: 11:00 AM to 9:00 PM; Fri: 11:00 AM to 10:00 PM; Sat: 11:00 AM to 10:00 PM", "brand": "Fox's Pizza Den", "brand:wikidata": "Q5476498"}, "geometry": {"type": "Point", "coordinates": [-78.2792701, 42.2222504]}},
{"type": "Feature", "id": "to9BCGrVwPlLAw3XXlPLPiJZy_M=", "properties": {"ref": "https://www.foxspizza.com/store/ohio/marietta-oh/", "@spider": "foxspizza", "addr:full": "2889 Ohio 821, Marietta, OH 45750", "name": "Marietta, OH - Fox's Pizza", "phone": "740-373-3697", "website": "https://www.foxspizza.com/store/ohio/marietta-oh/", "opening_hours": "Sun: 11:00 AM to 9:00 PM; Mon: 10:30 AM to 9:00 PM; Tue: 10:30 AM to 9:00 PM; Wed: 10:30 AM to 10:00 PM; Thu: 10:30 AM to 10:00 PM; Fri: 10:30 AM to 10:00 PM; Sat: 10:30 AM to 10:00 PM", "brand": "Fox's Pizza Den", "brand:wikidata": "Q5476498"}, "geometry": {"type": "Point", "coordinates": [-81.4435421, 39.4822945]}},
{"type": "Feature", "id": "nm7OMPRsGk0aa7ivI8UoGkZ944A=", "properties": {"ref": "https://www.foxspizza.com/store/ohio/lisbon-oh/", "@spider": "foxspizza", "addr:full": "7 South Park Avenue, Lisbon, OH 44432", "name": "Lisbon, OH - Fox's Pizza", "phone": "330-424-3820", "website": "https://www.foxspizza.com/store/ohio/lisbon-oh/", "opening_hours": "Sun: Closed; Mon: 11:00 AM to 9:00 PM; Tue: 11:00 AM to 9:00 PM; Wed: 11:00 AM to 9:00 PM; Thu: 11:00 AM to 9:00 PM; Fri: 11:00 AM to 9:00 PM; Sat: 11:00 AM to 9:00 PM", "brand": "Fox's Pizza Den", "brand:wikidata": "Q5476498"}, "geometry": {"type": "Point", "coordinates": [-80.7674716, 40.7716619]}},
{"type": "Feature", "id": "X2Tx34-WsWn86tjcJEk6eieMYIU=", "properties": {"ref": "https://www.foxspizza.com/store/north_carolina/waxhaw-nc/", "@spider": "foxspizza", "addr:full": "407 East South Main Street, Waxhaw, NC 28173", "name": "Waxhaw, NC - Fox's Pizza", "phone": "704-843-1439", "website": "https://www.foxspizza.com/store/north_carolina/waxhaw-nc/", "opening_hours": "Sun: 12:00 PM to 9:00 PM; Mon: Closed; Tue: 4:00 PM to 9:00 PM; Wed: 4:00 PM to 9:00 PM; Thu: 4:00 PM to 9:00 PM; Fri: 4:00 PM to 9:00 PM; Sat: 11:00 AM to 9:00 PM", "brand": "Fox's Pizza Den", "brand:wikidata": "Q5476498"}, "geometry": {"type": "Point", "coordinates": [-80.7403882, 34.9242833]}},
{"type": "Feature", "id": "vigr4ia8RGsWyPLkURYvfrVpfCU=", "properties": {"ref": "https://www.foxspizza.com/store/mississippi/mccomb-ms/", "@spider": "foxspizza", "addr:full": "1458 Delaware Avenue, McComb, MS 39648", "name": "McComb, MS - Fox's Pizza", "phone": "601-684-0600", "website": "https://www.foxspizza.com/store/mississippi/mccomb-ms/", "opening_hours": "Sun: 11:00 AM to 9:00 PM; Mon: 11:00 AM to 9:00 PM; Tue: 11:00 AM to 9:00 PM; Wed: 11:00 AM to 9:00 PM; Thu: 11:00 AM to 9:00 PM; Fri: 11:00 AM to 9:00 PM; Sat: 11:00 AM to 9:00 PM", "brand": "Fox's Pizza Den", "brand:wikidata": "Q5476498"}, "geometry": {"type": "Point", "coordinates": [-90.4717255, 31.248452]}},
{"type": "Feature", "id": "iJ1LvJmVYCz3TvtXYLW7_5f0deE=", "properties": {"ref": "https://www.foxspizza.com/store/mississippi/brookhaven-ms/", "@spider": "foxspizza", "addr:full": "106 West Monticello Street, Brookhaven, MS 39601", "name": "Brookhaven, MS - Fox's Pizza", "phone": "601-833-5996", "website": "https://www.foxspizza.com/store/mississippi/brookhaven-ms/", "opening_hours": "Sun:11:00 AM to 9:00 PM; Mon: 11:00 AM to 9:00 PM; Tue: 11:00 AM to 9:00 PM; Wed: 11:00 AM to 9:00 PM; Thu: 11:00 AM to 9:00 PM; Fri: 11:00 AM to 9:00 PM; Sat: 11:00 AM to 9:00 PM", "brand": "Fox's Pizza Den", "brand:wikidata": "Q5476498"}, "geometry": {"type": "Point", "coordinates": [-90.4432723, 31.5799821]}},
{"type": "Feature", "id": "IngT6YOKhyvgH-krDBJwM1bACDg=", "properties": {"ref": "https://www.foxspizza.com/store/michigan/battle-creek-mi/", "@spider": "foxspizza", "addr:full": "12898 Beadle Lake Road, Battle Creek, MI 49014", "name": "Battle Creek, MI - Fox's Pizza", "phone": "269-979-9869", "website": "https://www.foxspizza.com/store/michigan/battle-creek-mi/", "opening_hours": "Sun: 11:00 AM to 9:00 PM; Mon:11:00 AM to 9:00 PM; Tue:11:00 AM to 9:00 PM; Wed:11:00 AM to 9:00 PM; Thu:11:00 AM to 9:00 PM; Fri: 11:00 AM to 10:00 PM; Sat: 11:00 AM to 10:00 PM", "brand": "Fox's Pizza Den", "brand:wikidata": "Q5476498"}, "geometry": {"type": "Point", "coordinates": [-85.1487061, 42.2594646]}},
{"type": "Feature", "id": "A_zeCAHDVrC8G5T_j3dFClfSFR4=", "properties": {"ref": "https://www.foxspizza.com/store/maryland/westernport-md/", "@spider": "foxspizza", "addr:full": "52 Main Street, Westernport, MD 21562", "name": "Westernport, MD - Fox's Pizza", "phone": "301-359-3029", "website": "https://www.foxspizza.com/store/maryland/westernport-md/", "opening_hours": "Sun: 11:00 AM to 9:00 PM; Mon:11:00 AM to 9:00 PM; Tue:11:00 AM to 9:00 PM; Wed:11:00 AM to 9:00 PM; Thu:11:00 AM to 9:00 PM; Fri: 11:00 AM to 10:00 PM; Sat: 11:00 AM to 10:00 PM", "brand": "Fox's Pizza Den", "brand:wikidata": "Q5476498"}, "geometry": {"type": "Point", "coordinates": [-79.0448063, 39.4849888]}},
{"type": "Feature", "id": "KEk360GuS29Nf1-LUAm5hG_rZzM=", "properties": {"ref": "https://www.foxspizza.com/store/maryland/bel-air-md/", "@spider": "foxspizza", "addr:full": "15808 McMullen Highway Southwest, Cumberland, MD 21502", "name": "Bel Air, MD - Fox's Pizza", "phone": "240-362-7101", "website": "https://www.foxspizza.com/store/maryland/bel-air-md/", "opening_hours": "Sun: 10:00 AM to 9:00 PM; Mon:  10:00 AM to 9:00 PM; Tue:  10:00 AM to 9:00 PM; Wed:  10:00 AM to 9:00 PM; Thu:  10:00 AM to 9:00 PM; Fri:   10:00 AM to 9:00 PM; Sat:  10:00 AM to 9:00 PM", "brand": "Fox's Pizza Den", "brand:wikidata": "Q5476498"}, "geometry": {"type": "Point", "coordinates": [-78.8470676, 39.5784837]}},
{"type": "Feature", "id": "4uTl8sRq8GDPK4S9F2bq056P_gU=", "properties": {"ref": "https://www.foxspizza.com/store/georgia/st-simons-island-ga/", "@spider": "foxspizza", "addr:full": "240 Retreat Village, St. Simons, GA 31522", "name": "St. Simons Island, GA - Fox's Pizza", "phone": "912-634-9806", "website": "https://www.foxspizza.com/store/georgia/st-simons-island-ga/", "opening_hours": "Sun: 11:00 AM to 11:00 PM; Mon:  11:00 AM to 11:00 PM; Tue: 11:00 AM to 11:00 PM; Wed: 11:00 AM to 11:00 PM; Thu:  11:00 AM to 11:00 PM; Fri: 11:00 AM to 11:00 PM; Sat: 11:00 AM to 11:00 PM", "brand": "Fox's Pizza Den", "brand:wikidata": "Q5476498"}, "geometry": {"type": "Point", "coordinates": [-81.3912222, 31.1592718]}},
{"type": "Feature", "id": "jAtHjy7NF3yBYNi3yRlyUSw7Bkc=", "properties": {"ref": "https://www.foxspizza.com/store/georgia/brunswick-ga/", "@spider": "foxspizza", "addr:full": "1429 Newcastle Street, Brunswick, GA 31520", "name": "Brunswick, GA - Fox's Pizza", "phone": "912-265-4490", "website": "https://www.foxspizza.com/store/georgia/brunswick-ga/", "opening_hours": "Sun: 11:30 AM to 3:30 PM; Mon: 11:00 AM to 9:00 PM; Tue: 11:00 AM to 9:00 PM; Wed: 11:00 AM to 9:00 PM; Thu:  11:00 AM to 9:00 PM; Fri: 11:00 AM to 10:00 PM; Sat: 11:00 AM to 9:00 PM", "brand": "Fox's Pizza Den", "brand:wikidata": "Q5476498"}, "geometry": {"type": "Point", "coordinates": [-81.4954503, 31.1488529]}},
{"type": "Feature", "id": "F5EFZsfOK0w9TVJG-pQvoFkBIeo=", "properties": {"ref": "https://www.foxspizza.com/store/arkansas/bay-ar/", "@spider": "foxspizza", "addr:full": "207 North Bay Drive, Bay, AR 72411", "name": "Bay, AR - Fox's Pizza", "phone": "870-770-1996", "website": "https://www.foxspizza.com/store/arkansas/bay-ar/", "opening_hours": "Sun: 10:30 AM to 9:30 PM; Mon: 10:30 AM to 11:00 PM; Tue:  10:30 AM to 11:00 PM; Wed: 10:30 AM to 11:00 PM; Thu: 10:30 AM to 11:00 PM; Fri:  10:30 AM to 12:00 AM; Sat: 10:30 AM to 12:00 AM", "brand": "Fox's Pizza Den", "brand:wikidata": "Q5476498"}, "geometry": {"type": "Point", "coordinates": [-90.5672126, 35.7424067]}},
{"type": "Feature", "id": "nT20EQCdZwk2KRi4UB33rhq4thk=", "properties": {"ref": "https://www.foxspizza.com/store/alabama/prattville-al/", "@spider": "foxspizza", "addr:full": "166 West Main Street, Prattville, AL 36067", "name": "Prattville, AL - Fox's Pizza", "phone": "334-491-3690", "website": "https://www.foxspizza.com/store/alabama/prattville-al/", "opening_hours": "Sun: 11:00 AM to 9:00 PM; Mon: 11:00 AM to 9:00 PM; Tue:  11:00 AM to 9:00 PM; Wed: 11:00 AM to 9:00 PM; Thu: 11:00 AM to 9:00 PM; Fri: 11:00 AM to 9:00 PM; Sat: 11:00 AM to 9:00 PM", "brand": "Fox's Pizza Den", "brand:wikidata": "Q5476498"}, "geometry": {"type": "Point", "coordinates": [-86.4750492, 32.4601321]}}]}