{"type":"FeatureCollection","features":[{"type": "Feature", "id": "q5_417XvLnYRX4cTKMXkN83b1uY=", "properties": {"ref": "50759", "@spider": "freebirds", "amenity": "fast_food", "cuisine": "mexican", "takeaway": "yes", "addr:street_address": "5519 N W Loop 1604, Ste. 109", "addr:city": "San Antonio", "addr:state": "TX", "addr:postcode": "78253", "addr:country": "US", "name": "Alamo Ranch (AR)", "phone": "(210) 684-1300", "brand": "Freebirds World Burrito", "brand:wikidata": "Q5500367", "nsi_id": "freebirds-4d2ff4"}, "geometry": {"type": "Point", "coordinates": [-98.7085068, 29.4913467]}},
{"type": "Feature", "id": "6_JUYYy9G6jHHvWfHcjTolQSMZM=", "properties": {"ref": "50760", "@spider": "freebirds", "amenity": "fast_food", "cuisine": "mexican", "takeaway": "yes", "addr:street_address": "9501 Sage Meadow Trail", "addr:city": "Fort Worth", "addr:state": "TX", "addr:postcode": "76177", "addr:country": "US", "name": "Alliance Town Center (AT)", "phone": "(817) 750-1331", "brand": "Freebirds World Burrito", "brand:wikidata": "Q5500367", "nsi_id": "freebirds-4d2ff4"}, "geometry": {"type": "Point", "coordinates": [-97.3159853, 32.9108146]}},
{"type": "Feature", "id": "fe3OBBGXIaZjVbL89LM2WJemHzk=", "properties": {"ref": "50761", "@spider": "freebirds", "amenity": "fast_food", "cuisine": "mexican", "takeaway": "yes", "addr:street_address": "4000 Arlington Highlands Blvd, Ste. 121", "addr:city": "Arlington", "addr:state": "TX", "addr:postcode": "76018", "addr:country": "US", "name": "Arlington Highlands (AH)", "phone": "(817) 468-5300", "brand": "Freebirds World Burrito", "brand:wikidata": "Q5500367", "nsi_id": "freebirds-4d2ff4"}, "geometry": {"type": "Point", "coordinates": [-97.109798, 32.679932]}},
{"type": "Feature", "id": "GK0n6fMbKXAzb8Jfm3DWwzvGaHg=", "properties": {"ref": "50762", "@spider": "freebirds", "amenity": "fast_food", "cuisine": "mexican", "takeaway": "yes", "addr:street_address": "11101 Burnet Rd, Ste. B130", "addr:city": "Austin", "addr:state": "TX", "addr:postcode": "78758", "addr:country": "US", "name": "Austin Commons (AC)", "phone": "(512) 836-9700", "brand": "Freebirds World Burrito", "brand:wikidata": "Q5500367", "nsi_id": "freebirds-4d2ff4"}, "geometry": {"type": "Point", "coordinates": [-97.7195659, 30.3962221]}},
{"type": "Feature", "id": "6t8jEmfK5AK9QmdsjHm8MXdQdoY=", "properties": {"ref": "50765", "@spider": "freebirds", "amenity": "fast_food", "cuisine": "mexican", "takeaway": "yes", "addr:street_address": "5000 Belt Line Rd., Ste. 350", "addr:city": "Dallas", "addr:state": "TX", "addr:postcode": "75254", "addr:country": "US", "name": "Belt Line (BL)", "phone": "(972) 788-1828", "brand": "Freebirds World Burrito", "brand:wikidata": "Q5500367", "nsi_id": "freebirds-4d2ff4"}, "geometry": {"type": "Point", "coordinates": [-96.8247123, 32.9535132]}},
{"type": "Feature", "id": "dPwP2HBNm4SMvOP8IO0Bdhpgzjw=", "properties": {"ref": "50766", "@spider": "freebirds", "amenity": "fast_food", "cuisine": "mexican", "takeaway": "yes", "addr:street_address": "4032 South Lamar Blvd, Ste. 100", "addr:city": "Austin", "addr:state": "TX", "addr:postcode": "78704", "addr:country": "US", "name": "Brodie Oaks (BO)", "phone": "(512) 326-4100", "brand": "Freebirds World Burrito", "brand:wikidata": "Q5500367", "nsi_id": "freebirds-4d2ff4"}, "geometry": {"type": "Point", "coordinates": [-97.7938246, 30.2366393]}},
{"type": "Feature", "id": "Lpq_PUf_XU-l2wmhVnuUHTrSYsA=", "properties": {"ref": "50767", "@spider": "freebirds", "amenity": "fast_food", "cuisine": "mexican", "takeaway": "yes", "addr:street_address": "9774 Katy Fwy, Ste. 700", "addr:city": "Houston", "addr:state": "TX", "addr:postcode": "77055", "addr:country": "US", "name": "Bunker Hill (BH)", "phone": "(832) 358-0300", "brand": "Freebirds World Burrito", "brand:wikidata": "Q5500367", "nsi_id": "freebirds-4d2ff4"}, "geometry": {"type": "Point", "coordinates": [-95.5367321, 29.7863171]}},
{"type": "Feature", "id": "Xl6eYWg1NXFaK-UpJakTK6rc5T0=", "properties": {"ref": "50768", "@spider": "freebirds", "amenity": "fast_food", "cuisine": "mexican", "takeaway": "yes", "addr:street_address": "238 West Campbell Road", "addr:city": "Richardson", "addr:state": "TX", "addr:postcode": "75080", "addr:country": "US", "name": "Canyon Creek (CC)", "phone": "(972) 907-9999", "brand": "Freebirds World Burrito", "brand:wikidata": "Q5500367", "nsi_id": "freebirds-4d2ff4"}, "geometry": {"type": "Point", "coordinates": [-96.7213452, 32.9763072]}},
{"type": "Feature", "id": "XU1q5e1fekkIV7DHCqCFByWfzRI=", "properties": {"ref": "50769", "@spider": "freebirds", "amenity": "fast_food", "cuisine": "mexican", "takeaway": "yes", "addr:street_address": "6225 N. Josey Lane, #124", "addr:city": "Lewisville", "addr:state": "TX", "addr:postcode": "75056", "addr:country": "US", "name": "Castle Hills - Josey Lane", "phone": "(214) 469-1449", "brand": "Freebirds World Burrito", "brand:wikidata": "Q5500367", "nsi_id": "freebirds-4d2ff4"}, "geometry": {"type": "Point", "coordinates": [-96.8876515, 33.0625229]}},
{"type": "Feature", "id": "SPSArd3YHCDLCsh9npecNGG3n54=", "properties": {"ref": "50770", "@spider": "freebirds", "amenity": "fast_food", "cuisine": "mexican", "takeaway": "yes", "addr:street_address": "5001 183A Toll Road", "addr:city": "Cedar Park", "addr:state": "TX", "addr:postcode": "78613", "addr:country": "US", "name": "Cedar Park", "phone": "(512) 572-0870", "brand": "Freebirds World Burrito", "brand:wikidata": "Q5500367", "nsi_id": "freebirds-4d2ff4"}, "geometry": {"type": "Point", "coordinates": [-97.8184866, 30.5336984]}},
{"type": "Feature", "id": "ChGK8fbhgqmLqwFmBgZ-zeq-5D0=", "properties": {"ref": "50772", "@spider": "freebirds", "amenity": "fast_food", "cuisine": "mexican", "takeaway": "yes", "addr:street_address": "11224 Huebner Rd., Ste. 101", "addr:city": "San Antonio", "addr:state": "TX", "addr:postcode": "78230", "addr:country": "US", "name": "City View (CV)", "phone": "(210) 877-9606", "brand": "Freebirds World Burrito", "brand:wikidata": "Q5500367", "nsi_id": "freebirds-4d2ff4"}, "geometry": {"type": "Point", "coordinates": [-98.5765014, 29.5464721]}},
{"type": "Feature", "id": "F66cmlzTtnbGF-BpH1MnA6nSyxI=", "properties": {"ref": "50773", "@spider": "freebirds", "amenity": "fast_food", "cuisine": "mexican", "takeaway": "yes", "addr:street_address": "528 West Bay Area Blvd, Ste. 100", "addr:city": "Webster", "addr:state": "TX", "addr:postcode": "77598", "addr:country": "US", "name": "Clearlake (CL)", "phone": "(281) 557-2300", "brand": "Freebirds World Burrito", "brand:wikidata": "Q5500367", "nsi_id": "freebirds-4d2ff4"}, "geometry": {"type": "Point", "coordinates": [-95.1349612, 29.5450623]}},
{"type": "Feature", "id": "0OLgCk0_lIh9mrsuCvI8BIrht8E=", "properties": {"ref": "50775", "@spider": "freebirds", "amenity": "fast_food", "cuisine": "mexican", "takeaway": "yes", "addr:street_address": "8300 North FM 620, Bldg. D, Ste. 100", "addr:city": "Austin", "addr:state": "TX", "addr:postcode": "78726", "addr:country": "US", "name": "Concordia (733)", "phone": "(512) 996-9734", "brand": "Freebirds World Burrito", "brand:wikidata": "Q5500367", "nsi_id": "freebirds-4d2ff4"}, "geometry": {"type": "Point", "coordinates": [-97.845662, 30.422335]}},
{"type": "Feature", "id": "PJRK1HOzwAwDXsZSd6FllXiRAE0=", "properties": {"ref": "50776", "@spider": "freebirds", "amenity": "fast_food", "cuisine": "mexican", "takeaway": "yes", "addr:street_address": "1188 W Dallas St, Ste. A", "addr:city": "Conroe", "addr:state": "TX", "addr:postcode": "77301", "addr:country": "US", "name": "Conroe (700)", "phone": "(936) 756-1830", "brand": "Freebirds World Burrito", "brand:wikidata": "Q5500367", "nsi_id": "freebirds-4d2ff4"}, "geometry": {"type": "Point", "coordinates": [-95.4693439, 30.3158622]}},
{"type": "Feature", "id": "EfSJ7L7OkrXouzrSma--a4F0ykA=", "properties": {"ref": "50777", "@spider": "freebirds", "amenity": "fast_food", "cuisine": "mexican", "takeaway": "yes", "addr:street_address": "6940 FM 1960 West, Ste. A", "addr:city": "Houston", "addr:state": "TX", "addr:postcode": "77069", "addr:country": "US", "name": "Cutten Road (CR)", "phone": "(281) 444-3336", "brand": "Freebirds World Burrito", "brand:wikidata": "Q5500367", "nsi_id": "freebirds-4d2ff4"}, "geometry": {"type": "Point", "coordinates": [-95.5321219, 29.9693263]}},
{"type": "Feature", "id": "2GQhgH9j6sW5a0Mt3ET5SoE-7Mg=", "properties": {"ref": "182847", "@spider": "freebirds", "amenity": "fast_food", "cuisine": "mexican", "takeaway": "yes", "addr:street_address": "12680 US 290, Suite 230", "addr:city": "Austin", "addr:state": "TX", "addr:postcode": "78737", "addr:country": "US", "name": "Dripping Springs", "phone": "(737) 215-8365", "brand": "Freebirds World Burrito", "brand:wikidata": "Q5500367", "nsi_id": "freebirds-4d2ff4"}, "geometry": {"type": "Point", "coordinates": [-97.981638, 30.2052329]}},
{"type": "Feature", "id": "dyvQrFJk4LXFt4-J1Y9zTLpAPCM=", "properties": {"ref": "50781", "@spider": "freebirds", "amenity": "fast_food", "cuisine": "mexican", "takeaway": "yes", "addr:street_address": "5718 Fairmont Parkway", "addr:city": "Pasadena", "addr:state": "TX", "addr:postcode": "77505", "addr:country": "US", "name": "Fairway Plaza (FP)", "phone": "(281) 991-1977", "brand": "Freebirds World Burrito", "brand:wikidata": "Q5500367", "nsi_id": "freebirds-4d2ff4"}, "geometry": {"type": "Point", "coordinates": [-95.1538975, 29.6485247]}},
{"type": "Feature", "id": "2ipXOlcKX60s1Be5b5Dqr8hupqA=", "properties": {"ref": "50782", "@spider": "freebirds", "amenity": "fast_food", "cuisine": "mexican", "takeaway": "yes", "addr:street_address": "15285 Southwest Freeway", "addr:city": "Sugar Land", "addr:state": "TX", "addr:postcode": "77478", "addr:country": "US", "name": "First Colony (FC)", "phone": "(281) 565-8740", "brand": "Freebirds World Burrito", "brand:wikidata": "Q5500367", "nsi_id": "freebirds-4d2ff4"}, "geometry": {"type": "Point", "coordinates": [-95.6132276, 29.6053904]}},
{"type": "Feature", "id": "2XKky7tAsuTW7JxcppbUhh7TH7U=", "properties": {"ref": "50783", "@spider": "freebirds", "amenity": "fast_food", "cuisine": "mexican", "takeaway": "yes", "addr:street_address": "5170 Main Street, Ste. 900", "addr:city": "Frisco", "addr:state": "TX", "addr:postcode": "75034", "addr:country": "US", "name": "Frisco (732)", "phone": "(214) 872-1007", "brand": "Freebirds World Burrito", "brand:wikidata": "Q5500367", "nsi_id": "freebirds-4d2ff4"}, "geometry": {"type": "Point", "coordinates": [-96.8418419, 33.1533695]}},
{"type": "Feature", "id": "IaDgflXGBOr7ANgkfo3bhRLCrfY=", "properties": {"ref": "50784", "@spider": "freebirds", "amenity": "fast_food", "cuisine": "mexican", "takeaway": "yes", "addr:street_address": "700 Earl Rudder Fwy", "addr:city": "College Station", "addr:state": "TX", "addr:postcode": "77840", "addr:country": "US", "name": "Gateway (GW)", "phone": "(979) 260-9086", "brand": "Freebirds World Burrito", "brand:wikidata": "Q5500367", "nsi_id": "freebirds-4d2ff4"}, "geometry": {"type": "Point", "coordinates": [-96.3126596, 30.6406269]}},
{"type": "Feature", "id": "gjvPg-BWi74rglqHijcHtguuo9U=", "properties": {"ref": "50786", "@spider": "freebirds", "amenity": "fast_food", "cuisine": "mexican", "takeaway": "yes", "addr:street_address": "1501 William D Tate Avenue", "addr:city": "Grapevine", "addr:state": "TX", "addr:postcode": "76051", "addr:country": "US", "name": "Grapevine (GV)", "phone": "(817) 488-7100", "brand": "Freebirds World Burrito", "brand:wikidata": "Q5500367", "nsi_id": "freebirds-4d2ff4"}, "geometry": {"type": "Point", "coordinates": [-97.0892829, 32.9234024]}},
{"type": "Feature", "id": "3_K5vkeLUNYjnHNLS88c19CLPl4=", "properties": {"ref": "50788", "@spider": "freebirds", "amenity": "fast_food", "cuisine": "mexican", "takeaway": "yes", "addr:street_address": "1000 E 41st St, Ste. 260", "addr:city": "Austin", "addr:state": "TX", "addr:postcode": "78751", "addr:country": "US", "name": "Hancock Center (HC)", "phone": "(512) 451-5514", "brand": "Freebirds World Burrito", "brand:wikidata": "Q5500367", "nsi_id": "freebirds-4d2ff4"}, "geometry": {"type": "Point", "coordinates": [-97.7213348, 30.2995746]}},
{"type": "Feature", "id": "BFrIOoR3FUqOvZao_aTIKitKhV8=", "properties": {"ref": "50789", "@spider": "freebirds", "amenity": "fast_food", "cuisine": "mexican", "takeaway": "yes", "addr:street_address": "8240 Preston Rd, Ste. 115", "addr:city": "Plano", "addr:state": "TX", "addr:postcode": "75024", "addr:country": "US", "name": "Headquarters Village (HV)", "phone": "(214) 705-6808", "brand": "Freebirds World Burrito", "brand:wikidata": "Q5500367", "nsi_id": "freebirds-4d2ff4"}, "geometry": {"type": "Point", "coordinates": [-96.8047695, 33.0904799]}},
{"type": "Feature", "id": "ISN2j4L1SEIaWfIwI2iukQ1IWMc=", "properties": {"ref": "50790", "@spider": "freebirds", "amenity": "fast_food", "cuisine": "mexican", "takeaway": "yes", "addr:street_address": "2511 Trimmier Rd, Ste. 130", "addr:city": "Killeen", "addr:state": "TX", "addr:postcode": "76542", "addr:country": "US", "name": "HEB Plus Center (KI)", "phone": "(254) 833-8383", "brand": "Freebirds World Burrito", "brand:wikidata": "Q5500367", "nsi_id": "freebirds-4d2ff4"}, "geometry": {"type": "Point", "coordinates": [-97.7350288, 31.0909757]}},
{"type": "Feature", "id": "SVH6G9Jwg6uQo3bjX67aHa29xaA=", "properties": {"ref": "50792", "@spider": "freebirds", "amenity": "fast_food", "cuisine": "mexican", "takeaway": "yes", "addr:street_address": "9490 FM 1960 Bypass Rd W, Ste. 100", "addr:city": "Humble", "addr:state": "TX", "addr:postcode": "77338", "addr:country": "US", "name": "Humble (703)", "phone": "(281) 446-0279", "brand": "Freebirds World Burrito", "brand:wikidata": "Q5500367", "nsi_id": "freebirds-4d2ff4"}, "geometry": {"type": "Point", "coordinates": [-95.2815312, 30.0042845]}},
{"type": "Feature", "id": "apl0bO-q2-4hqKmHu8RluerayZY=", "properties": {"ref": "188638", "@spider": "freebirds", "amenity": "fast_food", "cuisine": "mexican", "takeaway": "yes", "addr:street_address": "9910 Gaston Rd., Suite 100", "addr:city": "Katy", "addr:state": "TX", "addr:postcode": "77494", "addr:country": "US", "name": "Katy Stableside", "phone": "(346) 646-3102", "brand": "Freebirds World Burrito", "brand:wikidata": "Q5500367", "nsi_id": "freebirds-4d2ff4"}, "geometry": {"type": "Point", "coordinates": [-95.8128827, 29.73636]}},
{"type": "Feature", "id": "xJrbgiYyvHkDZAVnmkEbXpeIzYE=", "properties": {"ref": "181414", "@spider": "freebirds", "amenity": "fast_food", "cuisine": "mexican", "takeaway": "yes", "addr:street_address": "3112 W Lake Houston Pkwy", "addr:city": "Kingwood", "addr:state": "TX", "addr:postcode": "77345", "addr:country": "US", "name": "Kingwood Main Street", "phone": "(281) 721-0143", "brand": "Freebirds World Burrito", "brand:wikidata": "Q5500367", "nsi_id": "freebirds-4d2ff4"}, "geometry": {"type": "Point", "coordinates": [-95.1848811, 30.0529806]}},
{"type": "Feature", "id": "dvxL0XgHU78GtTEDZ0DHSJs7mx4=", "properties": {"ref": "50793", "@spider": "freebirds", "amenity": "fast_food", "cuisine": "mexican", "takeaway": "yes", "addr:street_address": "1615 W FM 646, Ste. A", "addr:city": "League City", "addr:state": "TX", "addr:postcode": "77573", "addr:country": "US", "name": "League City (LC)", "phone": "(281) 534-9291", "brand": "Freebirds World Burrito", "brand:wikidata": "Q5500367", "nsi_id": "freebirds-4d2ff4"}, "geometry": {"type": "Point", "coordinates": [-95.0861835, 29.4697178]}},
{"type": "Feature", "id": "OY_r4breSF3CQF0c4mXpaCsOhmI=", "properties": {"ref": "50794", "@spider": "freebirds", "amenity": "fast_food", "cuisine": "mexican", "takeaway": "yes", "addr:street_address": "565 E Highway 3040", "addr:city": "Lewisville", "addr:state": "TX", "addr:postcode": "75067", "addr:country": "US", "name": "Lewisville - Vista Ridge (708)", "phone": "(972) 315-2452", "brand": "Freebirds World Burrito", "brand:wikidata": "Q5500367", "nsi_id": "freebirds-4d2ff4"}, "geometry": {"type": "Point", "coordinates": [-96.9941903, 33.0463292]}},
{"type": "Feature", "id": "ivEO8iGta1Cm7FStJPVS_6lLN40=", "properties": {"ref": "50795", "@spider": "freebirds", "amenity": "fast_food", "cuisine": "mexican", "takeaway": "yes", "addr:street_address": "7601 N MacArthur Blvd., Ste. 110", "addr:city": "Irving", "addr:state": "TX", "addr:postcode": "75063", "addr:country": "US", "name": "MacArthur Park (MA)", "phone": "(972) 869-3500", "brand": "Freebirds World Burrito", "brand:wikidata": "Q5500367", "nsi_id": "freebirds-4d2ff4"}, "geometry": {"type": "Point", "coordinates": [-96.9594781, 32.9095825]}},
{"type": "Feature", "id": "UDoPbmWN8TqC7gqQ1uJ3DtWewCw=", "properties": {"ref": "50796", "@spider": "freebirds", "amenity": "fast_food", "cuisine": "mexican", "takeaway": "yes", "addr:street_address": "14975 IH 35 North, Ste. 101", "addr:city": "Selma", "addr:state": "TX", "addr:postcode": "78154", "addr:country": "US", "name": "Market at Forum (MF)", "phone": "(210) 590-6800", "brand": "Freebirds World Burrito", "brand:wikidata": "Q5500367", "nsi_id": "freebirds-4d2ff4"}, "geometry": {"type": "Point", "coordinates": [-98.3276236, 29.5738753]}},
{"type": "Feature", "id": "A--N-KIvn54UVJZS7ossHO-2cyA=", "properties": {"ref": "50797", "@spider": "freebirds", "amenity": "fast_food", "cuisine": "mexican", "takeaway": "yes", "addr:street_address": "308 S. Mason Rd.", "addr:city": "Katy", "addr:state": "TX", "addr:postcode": "77450", "addr:country": "US", "name": "Mason Village (MV)", "phone": "(281) 574-3704", "brand": "Freebirds World Burrito", "brand:wikidata": "Q5500367", "nsi_id": "freebirds-4d2ff4"}, "geometry": {"type": "Point", "coordinates": [-95.7521195, 29.7823942]}},
{"type": "Feature", "id": "AyLmSvtk3UT2JeXlUSkOKVvrwxQ=", "properties": {"ref": "50800", "@spider": "freebirds", "amenity": "fast_food", "cuisine": "mexican", "takeaway": "yes", "addr:street_address": "5425 South Padre Island Dr., Ste. 139", "addr:city": "Corpus Christi", "addr:state": "TX", "addr:postcode": "78411", "addr:country": "US", "name": "Moore Plaza Corpus (MP)", "phone": "(361) 906-0970", "brand": "Freebirds World Burrito", "brand:wikidata": "Q5500367", "nsi_id": "freebirds-4d2ff4"}, "geometry": {"type": "Point", "coordinates": [-97.3723157, 27.7079878]}},
{"type": "Feature", "id": "BpcQUoIIfqbsx_nPtP2qPmqVdho=", "properties": {"ref": "50803", "@spider": "freebirds", "amenity": "fast_food", "cuisine": "mexican", "takeaway": "yes", "addr:street_address": "244 FM306 #128", "addr:city": "New Braunfels", "addr:state": "TX", "addr:postcode": "78130", "addr:country": "US", "name": "New Braunfels", "phone": "(830) 214-2563", "brand": "Freebirds World Burrito", "brand:wikidata": "Q5500367", "nsi_id": "freebirds-4d2ff4"}, "geometry": {"type": "Point", "coordinates": [-98.0798333, 29.7320763]}},
{"type": "Feature", "id": "yZ9Z7z0k2C3jPBA7JRTUPy8RE3o=", "properties": {"ref": "50804", "@spider": "freebirds", "amenity": "fast_food", "cuisine": "mexican", "takeaway": "yes", "addr:street_address": "319 University Drive", "addr:city": "College Station", "addr:state": "TX", "addr:postcode": "77840", "addr:country": "US", "name": "Northgate - A&M Campus (NG)", "phone": "(979) 846-9298", "brand": "Freebirds World Burrito", "brand:wikidata": "Q5500367", "nsi_id": "freebirds-4d2ff4"}, "geometry": {"type": "Point", "coordinates": [-96.3461432, 30.618143]}},
{"type": "Feature", "id": "R2rd1nenryucWHaBNG7f0C-VNLw=", "properties": {"ref": "50805", "@spider": "freebirds", "amenity": "fast_food", "cuisine": "mexican", "takeaway": "yes", "addr:street_address": "5500 Greenville Ave., Ste. 209", "addr:city": "Dallas", "addr:state": "TX", "addr:postcode": "75206", "addr:country": "US", "name": "Old Town (OT)", "phone": "(214) 265-9992", "brand": "Freebirds World Burrito", "brand:wikidata": "Q5500367", "nsi_id": "freebirds-4d2ff4"}, "geometry": {"type": "Point", "coordinates": [-96.769165, 32.852267]}},
{"type": "Feature", "id": "Wunua-IYZURGlUkPQHFhW9WDFfo=", "properties": {"ref": "50806", "@spider": "freebirds", "amenity": "fast_food", "cuisine": "mexican", "takeaway": "yes", "addr:street_address": "11302 Broadway, Ste. 110", "addr:city": "Pearland", "addr:state": "TX", "addr:postcode": "77584", "addr:country": "US", "name": "Pearland Town Center (PL)", "phone": "(281) 741-3337", "brand": "Freebirds World Burrito", "brand:wikidata": "Q5500367", "nsi_id": "freebirds-4d2ff4"}, "geometry": {"type": "Point", "coordinates": [-95.3946914, 29.5550542]}},
{"type": "Feature", "id": "clu7zNplnVHz0bvHOorSufV1xLM=", "properties": {"ref": "50807", "@spider": "freebirds", "amenity": "fast_food", "cuisine": "mexican", "takeaway": "yes", "addr:street_address": "1301 W Pipeline Rd", "addr:city": "Hurst", "addr:state": "TX", "addr:postcode": "76053", "addr:country": "US", "name": "Pipeline Village (PV)", "phone": "(817) 282-8100", "brand": "Freebirds World Burrito", "brand:wikidata": "Q5500367", "nsi_id": "freebirds-4d2ff4"}, "geometry": {"type": "Point", "coordinates": [-97.1994438, 32.8233102]}},
{"type": "Feature", "id": "OsRNg2k5RSec57zFy0afpM04-1Q=", "properties": {"ref": "50808", "@spider": "freebirds", "amenity": "fast_food", "cuisine": "mexican", "takeaway": "yes", "addr:street_address": "125 NW Loop 410, Ste. 440", "addr:city": "San Antonio", "addr:state": "TX", "addr:postcode": "78216", "addr:country": "US", "name": "Plaza del Norte (PN)", "phone": "(210) 525-9990", "brand": "Freebirds World Burrito", "brand:wikidata": "Q5500367", "nsi_id": "freebirds-4d2ff4"}, "geometry": {"type": "Point", "coordinates": [-98.495429, 29.521401]}},
{"type": "Feature", "id": "oP3M51QXFZkcTiFaLPivqQFXZHY=", "properties": {"ref": "50810", "@spider": "freebirds", "amenity": "fast_food", "cuisine": "mexican", "takeaway": "yes", "addr:street_address": "2700 West University, Ste. 1090", "addr:city": "Denton", "addr:state": "TX", "addr:postcode": "76201", "addr:country": "US", "name": "Rayzor Ranch (RA)", "phone": "(940) 565-5400", "brand": "Freebirds World Burrito", "brand:wikidata": "Q5500367", "nsi_id": "freebirds-4d2ff4"}, "geometry": {"type": "Point", "coordinates": [-97.1668415, 33.230472]}},
{"type": "Feature", "id": "3D14i0LlNe9LKj50I_TGuBKtBoA=", "properties": {"ref": "50811", "@spider": "freebirds", "amenity": "fast_food", "cuisine": "mexican", "takeaway": "yes", "addr:street_address": "4965 Overton Ridge Blvd, Ste. 300", "addr:city": "Fort Worth", "addr:state": "TX", "addr:postcode": "76132", "addr:country": "US", "name": "Ridge Rock (RR)", "phone": "(817) 294-7241", "brand": "Freebirds World Burrito", "brand:wikidata": "Q5500367", "nsi_id": "freebirds-4d2ff4"}, "geometry": {"type": "Point", "coordinates": [-97.4028506, 32.6760809]}},
{"type": "Feature", "id": "8hygztqCaHiLn7IyTqKfIQQa-tA=", "properties": {"ref": "50812", "@spider": "freebirds", "amenity": "fast_food", "cuisine": "mexican", "takeaway": "yes", "addr:street_address": "3525 D Longmire Dr, Ste. D", "addr:city": "College Station", "addr:state": "TX", "addr:postcode": "77845", "addr:country": "US", "name": "Rock Prairie (RP)", "phone": "(979) 485-8829", "brand": "Freebirds World Burrito", "brand:wikidata": "Q5500367", "nsi_id": "freebirds-4d2ff4"}, "geometry": {"type": "Point", "coordinates": [-96.2849849, 30.5817291]}},
{"type": "Feature", "id": "Eb4z4Z-pHxfSub357Baq8FNR1bU=", "properties": {"ref": "50813", "@spider": "freebirds", "amenity": "fast_food", "cuisine": "mexican", "takeaway": "yes", "addr:street_address": "1067 E IH 30, Ste. 101", "addr:city": "Rockwall", "addr:state": "TX", "addr:postcode": "75087", "addr:country": "US", "name": "Rockwall Plaza (RW)", "phone": "(214) 771-4448", "brand": "Freebirds World Burrito", "brand:wikidata": "Q5500367", "nsi_id": "freebirds-4d2ff4"}, "geometry": {"type": "Point", "coordinates": [-96.4513631, 32.9062792]}},
{"type": "Feature", "id": "5AE0q06SLsG4fOOi8h1t1jUJ1Jg=", "properties": {"ref": "180406", "@spider": "freebirds", "amenity": "fast_food", "cuisine": "mexican", "takeaway": "yes", "addr:street_address": " 2000 Ross Ave, Unit 190", "addr:city": "Dallas", "addr:state": "TX", "addr:postcode": "75201", "addr:country": "US", "name": "Ross Ave", "phone": "(214) 271-9387", "brand": "Freebirds World Burrito", "brand:wikidata": "Q5500367", "nsi_id": "freebirds-4d2ff4"}, "geometry": {"type": "Point", "coordinates": [-96.7989283, 32.7870256]}},
{"type": "Feature", "id": "p5VlUucSthL60LPhQWAIBw-B0VQ=", "properties": {"ref": "50814", "@spider": "freebirds", "amenity": "fast_food", "cuisine": "mexican", "takeaway": "yes", "addr:street_address": "200 University Blvd, Ste 200", "addr:city": "Round Rock", "addr:state": "TX", "addr:postcode": "78665", "addr:country": "US", "name": "Round Rock (RR)", "phone": "(512) 904-0070", "brand": "Freebirds World Burrito", "brand:wikidata": "Q5500367", "nsi_id": "freebirds-4d2ff4"}, "geometry": {"type": "Point", "coordinates": [-97.6905106, 30.5601789]}},
{"type": "Feature", "id": "kaK_EQ4nRA6wUXH8WVeAxBSYN0o=", "properties": {"ref": "50815", "@spider": "freebirds", "amenity": "fast_food", "cuisine": "mexican", "takeaway": "yes", "addr:street_address": "909 State Highway 80, Ste. C", "addr:city": "San Marcos", "addr:state": "TX", "addr:postcode": "78666", "addr:country": "US", "name": "San Marcos (SM)", "phone": "(512) 392-2072", "brand": "Freebirds World Burrito", "brand:wikidata": "Q5500367", "nsi_id": "freebirds-4d2ff4"}, "geometry": {"type": "Point", "coordinates": [-97.9200494, 29.8826101]}},
{"type": "Feature", "id": "4EvL_ByMbuHyNiCpdvobrGQcg_o=", "properties": {"ref": "50816", "@spider": "freebirds", "amenity": "fast_food", "cuisine": "mexican", "takeaway": "yes", "addr:street_address": "1923 Taylor Street, Ste. F", "addr:city": "Houston", "addr:state": "TX", "addr:postcode": "77007", "addr:country": "US", "name": "Sawyer Heights (SH)", "phone": "(713) 862-0080", "brand": "Freebirds World Burrito", "brand:wikidata": "Q5500367", "nsi_id": "freebirds-4d2ff4"}, "geometry": {"type": "Point", "coordinates": [-95.3826369, 29.7757689]}},
{"type": "Feature", "id": "x6RgcdzVgcQODfKXdignrwfoOLg=", "properties": {"ref": "50818", "@spider": "freebirds", "amenity": "fast_food", "cuisine": "mexican", "takeaway": "yes", "addr:street_address": "3745 Greenbriar Street", "addr:city": "Houston", "addr:state": "TX", "addr:postcode": "77098", "addr:country": "US", "name": "Shepherd Plaza (SP)", "phone": "(713) 524-0621", "brand": "Freebirds World Burrito", "brand:wikidata": "Q5500367", "nsi_id": "freebirds-4d2ff4"}, "geometry": {"type": "Point", "coordinates": [-95.4125649, 29.7327799]}},
{"type": "Feature", "id": "CkOYv1uq-NBXrkdHEk-k_pz8OA8=", "properties": {"ref": "50821", "@spider": "freebirds", "amenity": "fast_food", "cuisine": "mexican", "takeaway": "yes", "addr:street_address": "515 South Congress, Ste. 101", "addr:city": "Austin", "addr:state": "TX", "addr:postcode": "78704", "addr:country": "US", "name": "South Congress (SC)", "phone": "(512) 462-3512", "brand": "Freebirds World Burrito", "brand:wikidata": "Q5500367", "nsi_id": "freebirds-4d2ff4"}, "geometry": {"type": "Point", "coordinates": [-97.7469354, 30.2559773]}},
{"type": "Feature", "id": "NHUvA0lJX-p7jdRpc-FpXvUXNe4=", "properties": {"ref": "50822", "@spider": "freebirds", "amenity": "fast_food", "cuisine": "mexican", "takeaway": "yes", "addr:street_address": "22560 Hwy 249, Ste. 400", "addr:city": "Houston", "addr:state": "TX", "addr:postcode": "77070", "addr:country": "US", "name": "Spring Cypress (705)", "phone": "(281) 251-0725", "brand": "Freebirds World Burrito", "brand:wikidata": "Q5500367", "nsi_id": "freebirds-4d2ff4"}, "geometry": {"type": "Point", "coordinates": [-95.5891556, 30.0124936]}},
{"type": "Feature", "id": "MoomGY4TuzlZ2-3ALRxDAUmzysA=", "properties": {"ref": "176279", "@spider": "freebirds", "amenity": "fast_food", "cuisine": "mexican", "takeaway": "yes", "addr:street_address": "2825 Riley Fuzzel Road", "addr:city": "Spring", "addr:state": "TX", "addr:postcode": "77386", "addr:country": "US", "name": "Spring Rayford", "phone": "(281) 205-0131", "brand": "Freebirds World Burrito", "brand:wikidata": "Q5500367", "nsi_id": "freebirds-4d2ff4"}, "geometry": {"type": "Point", "coordinates": [-95.38735, 30.1122872]}},
{"type": "Feature", "id": "XPiD1q-d1Q6CaOQuIHYX3wCvaWc=", "properties": {"ref": "50823", "@spider": "freebirds", "amenity": "fast_food", "cuisine": "mexican", "takeaway": "yes", "addr:street_address": "20811 N Highway 281, Ste. 402", "addr:city": "San Antonio", "addr:state": "TX", "addr:postcode": "78258", "addr:country": "US", "name": "Stone Ridge Market (SR)", "phone": "(210) 495-0101", "brand": "Freebirds World Burrito", "brand:wikidata": "Q5500367", "nsi_id": "freebirds-4d2ff4"}, "geometry": {"type": "Point", "coordinates": [-98.4567866, 29.6361764]}},
{"type": "Feature", "id": "2hE6wOZZEVKgN2AIFgvOpLQxJPI=", "properties": {"ref": "50824", "@spider": "freebirds", "amenity": "fast_food", "cuisine": "mexican", "takeaway": "yes", "addr:street_address": "1100 Center Ridge Dr, Blgd 3, Ste. 380", "addr:city": "Austin", "addr:state": "TX", "addr:postcode": "78753", "addr:country": "US", "name": "Tech Ridge (TR)", "phone": "(512) 251-9701", "brand": "Freebirds World Burrito", "brand:wikidata": "Q5500367", "nsi_id": "freebirds-4d2ff4"}, "geometry": {"type": "Point", "coordinates": [-97.67164, 30.4184421]}},
{"type": "Feature", "id": "rC3Sbxr1fO9lUSDg6NR-52prITk=", "properties": {"ref": "50826", "@spider": "freebirds", "amenity": "fast_food", "cuisine": "mexican", "takeaway": "yes", "addr:street_address": "2320 S. 31st street Ste 100", "addr:city": "Temple", "addr:state": "TX", "addr:postcode": "76504", "addr:country": "US", "name": "Temple", "phone": "(254) 773-8374", "brand": "Freebirds World Burrito", "brand:wikidata": "Q5500367", "nsi_id": "freebirds-4d2ff4"}, "geometry": {"type": "Point", "coordinates": [-97.3669357, 31.077713]}},
{"type": "Feature", "id": "dVxKUCBCgdaS61HKIHE0_HTeupo=", "properties": {"ref": "50827", "@spider": "freebirds", "amenity": "fast_food", "cuisine": "mexican", "takeaway": "yes", "addr:street_address": "2050 Texas Ave South, Ste. C", "addr:city": "College Station", "addr:state": "TX", "addr:postcode": "77840", "addr:country": "US", "name": "Texas Avenue (TA)", "phone": "(979) 695-0151", "brand": "Freebirds World Burrito", "brand:wikidata": "Q5500367", "nsi_id": "freebirds-4d2ff4"}, "geometry": {"type": "Point", "coordinates": [-96.3160547, 30.6110211]}},
{"type": "Feature", "id": "oKz5NcavCl6Oea52EwbVAPiU49c=", "properties": {"ref": "50828", "@spider": "freebirds", "amenity": "fast_food", "cuisine": "mexican", "takeaway": "yes", "addr:street_address": "1640 Lake Woodlands Dr Ste. F", "addr:city": "The Woodlands", "addr:state": "TX", "addr:postcode": "77380", "addr:country": "US", "name": "The Woodlands (WL)", "phone": "(281) 419-8011", "brand": "Freebirds World Burrito", "brand:wikidata": "Q5500367", "nsi_id": "freebirds-4d2ff4"}, "geometry": {"type": "Point", "coordinates": [-95.4595567, 30.1673936]}},
{"type": "Feature", "id": "jFcH2_ACvn3hVh6OwOCH2dy_VtY=", "properties": {"ref": "50831", "@spider": "freebirds", "amenity": "fast_food", "cuisine": "mexican", "takeaway": "yes", "addr:street_address": "5105 S. Broadway", "addr:city": "Tyler", "addr:state": "TX", "addr:postcode": "75703", "addr:country": "US", "name": "Tyler", "phone": "(903) 939-0996", "brand": "Freebirds World Burrito", "brand:wikidata": "Q5500367", "nsi_id": "freebirds-4d2ff4"}, "geometry": {"type": "Point", "coordinates": [-95.3027769, 32.2930369]}},
{"type": "Feature", "id": "leJDdWaiD_W6XEQg5vndRVdjpys=", "properties": {"ref": "50833", "@spider": "freebirds", "amenity": "fast_food", "cuisine": "mexican", "takeaway": "yes", "addr:street_address": "190 E Stacy Rd., Ste. 1400", "addr:city": "Allen", "addr:state": "TX", "addr:postcode": "75002", "addr:country": "US", "name": "Villages at Allen (VA)", "phone": "(972) 678-4040", "brand": "Freebirds World Burrito", "brand:wikidata": "Q5500367", "nsi_id": "freebirds-4d2ff4"}, "geometry": {"type": "Point", "coordinates": [-96.6592219, 33.1266803]}},
{"type": "Feature", "id": "ztzeOgxpu-zsarehqvHadvKFjUI=", "properties": {"ref": "50834", "@spider": "freebirds", "amenity": "fast_food", "cuisine": "mexican", "takeaway": "yes", "addr:street_address": "120 N New Road", "addr:city": "Waco", "addr:state": "TX", "addr:postcode": "76710", "addr:country": "US", "name": "Waco (707)", "phone": "(254) 741-0060", "brand": "Freebirds World Burrito", "brand:wikidata": "Q5500367", "nsi_id": "freebirds-4d2ff4"}, "geometry": {"type": "Point", "coordinates": [-97.1710501, 31.5242891]}},
{"type": "Feature", "id": "6eeC_jvMgQBL2RK5ewn6UcuslQg=", "properties": {"ref": "50836", "@spider": "freebirds", "amenity": "fast_food", "cuisine": "mexican", "takeaway": "yes", "addr:street_address": "8603 State Hwy 151, Ste. 213", "addr:city": "San Antonio", "addr:state": "TX", "addr:postcode": "78245", "addr:country": "US", "name": "Westpoint SC (WP)", "phone": "(210) 267-1062", "brand": "Freebirds World Burrito", "brand:wikidata": "Q5500367", "nsi_id": "freebirds-4d2ff4"}, "geometry": {"type": "Point", "coordinates": [-98.656446, 29.438926]}}]}