{"type":"FeatureCollection","features":[{"type": "Feature", "id": "0v5AoG0AKTaHuFtVdd-OBYAjNxk=", "properties": {"ref": "7376", "@spider": "freseniuskidneycare", "addr:full": "4643 Waimea Canyon Rd", "addr:city": "Waimea", "addr:state": "Hawaii", "addr:postcode": "96796", "name": "Liberty Dialysis West Kauai", "phone": "1-800-881-5101", "website": "https://www.freseniuskidneycare.com/dialysis-centers/hawaii/7376", "opening_hours": "Mo 05:00-22:00; Tu 05:00-17:00; We 05:00-22:00; Th 05:00-17:00; Fr-Sa 05:00-22:00", "brand": "Fresenius Kidney Care", "brand:wikidata": "Q650259"}, "geometry": {"type": "Point", "coordinates": [-159.67115462682, 21.9612499182342]}},
{"type": "Feature", "id": "rLrYZn0aInqSX_XmGwIvxPVBA1E=", "properties": {"ref": "6094", "@spider": "freseniuskidneycare", "addr:full": "289 N Fireweed St", "addr:city": "Soldotna", "addr:state": "Alaska", "addr:postcode": "99669", "name": "Fresenius Kidney Care Kenai Alaska", "phone": "1-800-881-5101", "website": "https://www.freseniuskidneycare.com/dialysis-centers/alaska/6094", "opening_hours": "Mo 05:30-18:00; We 05:30-18:00; Fr 05:30-18:00", "brand": "Fresenius Kidney Care", "brand:wikidata": "Q650259"}, "geometry": {"type": "Point", "coordinates": [-151.08079976703, 60.4943458142346]}},
{"type": "Feature", "id": "A8bK5OsjqHCWsXOv278MP__3C78=", "properties": {"ref": "7381", "@spider": "freseniuskidneycare", "addr:full": "3625 Harding Ave", "addr:city": "Honolulu", "addr:state": "Hawaii", "addr:postcode": "96816", "name": "Liberty Dialysis Kaimuki", "phone": "1-800-881-5101", "website": "https://www.freseniuskidneycare.com/dialysis-centers/hawaii/7381", "opening_hours": "Mo-Sa 05:00-21:00", "brand": "Fresenius Kidney Care", "brand:wikidata": "Q650259"}, "geometry": {"type": "Point", "coordinates": [-157.799150794744, 21.2803358252569]}},
{"type": "Feature", "id": "C2Xrni4k4D5aCyFny0-gAhgO3VI=", "properties": {"ref": "7386", "@spider": "freseniuskidneycare", "addr:full": "3224 Elua St", "addr:city": "Lihue", "addr:state": "Hawaii", "addr:postcode": "96766", "name": "Liberty Dialysis Kauai", "phone": "1-800-881-5101", "website": "https://www.freseniuskidneycare.com/dialysis-centers/hawaii/7386", "opening_hours": "Mo-Sa 05:00-22:00", "brand": "Fresenius Kidney Care", "brand:wikidata": "Q650259"}, "geometry": {"type": "Point", "coordinates": [-159.365566037723, 21.9803356557395]}},
{"type": "Feature", "id": "JoR4vwdT-9GmN-AjBxVOJaJ5Wvw=", "properties": {"ref": "7378", "@spider": "freseniuskidneycare", "addr:full": "78-6831 Alii Dr", "addr:city": "Kailua Kona", "addr:state": "Hawaii", "addr:postcode": "96740", "name": "Liberty Dialysis Kona Keauhou", "phone": "1-800-881-5101", "website": "https://www.freseniuskidneycare.com/dialysis-centers/hawaii/7378", "opening_hours": "Mo-Sa 05:00-22:00", "brand": "Fresenius Kidney Care", "brand:wikidata": "Q650259"}, "geometry": {"type": "Point", "coordinates": [-155.96205764747, 19.5709364962306]}},
{"type": "Feature", "id": "27iXwjsyqZIVqU9VNcPr3Sn-s84=", "properties": {"ref": "9048", "@spider": "freseniuskidneycare", "addr:full": "1863 Airport Way", "addr:city": "Fairbanks", "addr:state": "Alaska", "addr:postcode": "99701", "name": "Fresenius Kidney Care Fairbanks", "phone": "1-800-881-5101", "website": "https://www.freseniuskidneycare.com/dialysis-centers/alaska/9048", "opening_hours": "Mo 06:00-21:00; Tu 00:00-12:00; We 06:00-21:00; Th 00:00-12:00; Fr 06:00-21:00; Sa 00:00-12:00", "brand": "Fresenius Kidney Care", "brand:wikidata": "Q650259"}, "geometry": {"type": "Point", "coordinates": [-147.756512686683, 64.8358167526583]}},
{"type": "Feature", "id": "nx2DaUblPNK5YSShaK3GOITTFic=", "properties": {"ref": "4610", "@spider": "freseniuskidneycare", "addr:full": "3787 E Meridian Loop", "addr:city": "Wasilla", "addr:state": "Alaska", "addr:postcode": "99654", "name": "Fresenius Kidney Care Wasilla Mat-Su", "phone": "1-800-881-5101", "website": "https://www.freseniuskidneycare.com/dialysis-centers/alaska/4610", "opening_hours": "Mo 06:00-19:00; We 06:00-19:00; Fr 06:00-19:00", "brand": "Fresenius Kidney Care", "brand:wikidata": "Q650259"}, "geometry": {"type": "Point", "coordinates": [-149.355655789441, 61.5888599967683]}},
{"type": "Feature", "id": "n5weV4mr5uvesxVE3k5DjaQWz5s=", "properties": {"ref": "6116", "@spider": "freseniuskidneycare", "addr:full": "9085 Blackberry St", "addr:city": "Anchorage", "addr:state": "Alaska", "addr:postcode": "99502", "name": "Fresenius Kidney Care Cook Inlet Ak", "phone": "1-800-881-5101", "website": "https://www.freseniuskidneycare.com/dialysis-centers/alaska/6116", "opening_hours": "Mo 05:30-17:30; We 05:30-17:30; Fr 05:30-17:30", "brand": "Fresenius Kidney Care", "brand:wikidata": "Q650259"}, "geometry": {"type": "Point", "coordinates": [-149.943742990527, 61.1383758930924]}},
{"type": "Feature", "id": "abFiSRj5IMO5DpTkCjWerq0i08w=", "properties": {"ref": "7383", "@spider": "freseniuskidneycare", "addr:full": "1384 Kinoole St", "addr:city": "Hilo", "addr:state": "Hawaii", "addr:postcode": "96720", "name": "Liberty Dialysis Hilo", "phone": "1-800-881-5101", "website": "https://www.freseniuskidneycare.com/dialysis-centers/hawaii/7383", "opening_hours": "Mo 06:00-23:00; Tu 06:00-20:00; We 06:00-23:00; Th 06:00-20:00; Fr 06:00-24:00; Sa 06:00-20:00", "brand": "Fresenius Kidney Care", "brand:wikidata": "Q650259"}, "geometry": {"type": "Point", "coordinates": [-155.07674485445, 19.7053494682195]}},
{"type": "Feature", "id": "_5WqwV5tZ_QSMbZYyv8734TqiH0=", "properties": {"ref": "7377", "@spider": "freseniuskidneycare", "addr:full": "67-1123 Mamalahoa Hwy", "addr:city": "Kamuela", "addr:state": "Hawaii", "addr:postcode": "96743", "name": "Liberty Dialysis North Hawaii", "phone": "1-800-881-5101", "website": "https://www.freseniuskidneycare.com/dialysis-centers/hawaii/7377", "opening_hours": "Mo 05:00-19:00; Tu 05:00-16:00; We 05:00-19:00; Th 05:00-16:00; Fr 05:00-19:00; Sa 05:00-16:00", "brand": "Fresenius Kidney Care", "brand:wikidata": "Q650259"}, "geometry": {"type": "Point", "coordinates": [-155.664474981848, 20.022200792756]}},
{"type": "Feature", "id": "b7uarRIahDzaAE4uUATlAuQdJ14=", "properties": {"ref": "8423", "@spider": "freseniuskidneycare", "addr:full": "3787 E Meridian Loop", "addr:city": "Wasilla", "addr:state": "Alaska", "addr:postcode": "99654", "name": "Fresenius Kidney Care Wasilla Home", "phone": "1-800-881-5101", "website": "https://www.freseniuskidneycare.com/dialysis-centers/alaska/8423", "opening_hours": "Mo 05:00-21:00; We 05:00-21:00; Fr 05:00-21:00", "brand": "Fresenius Kidney Care", "brand:wikidata": "Q650259"}, "geometry": {"type": "Point", "coordinates": [-149.355654716492, 61.5888512761753]}},
{"type": "Feature", "id": "my75iWFZa0zEBu-kjs6SVo-8DfQ=", "properties": {"ref": "100973", "@spider": "freseniuskidneycare", "addr:full": "2735 E Tudor Rd", "addr:city": "Anchorage", "addr:state": "Alaska", "addr:postcode": "99507", "name": "Fresenius Kidney Care Tudor Road Home Therapies", "phone": "1-800-881-5101", "website": "https://www.freseniuskidneycare.com/dialysis-centers/alaska/100973", "opening_hours": "Mo-Sa 05:00-18:00", "brand": "Fresenius Kidney Care", "brand:wikidata": "Q650259"}, "geometry": {"type": "Point", "coordinates": [-149.82950429813, 61.1814603242443]}},
{"type": "Feature", "id": "wH74bKFK0z2Clknq9I6j3PxsG_Q=", "properties": {"ref": "3340", "@spider": "freseniuskidneycare", "addr:full": "9109 Mendenhall Mall Rd", "addr:city": "Juneau", "addr:state": "Alaska", "addr:postcode": "99801", "name": "Reifenstein Dialysis Center", "phone": "1-800-881-5101", "website": "https://www.freseniuskidneycare.com/dialysis-centers/alaska/3340", "opening_hours": "Mo-Sa 07:00-17:00", "brand": "Fresenius Kidney Care", "brand:wikidata": "Q650259"}, "geometry": {"type": "Point", "coordinates": [-134.592301975954, 58.371304992106]}},
{"type": "Feature", "id": "M038Xew0U6jqpSR9EOEz1O1fBd8=", "properties": {"ref": "4692", "@spider": "freseniuskidneycare", "addr:full": "515 N Thornton St", "addr:city": "Aberdeen", "addr:state": "Washington", "addr:postcode": "98520", "name": "Fresenius Kidney Care Gray&#39;s Harbor", "phone": "1-800-881-5101", "website": "https://www.freseniuskidneycare.com/dialysis-centers/washington/4692", "opening_hours": "Mo 05:00-22:30; Tu 05:00-20:30; We 05:00-22:30; Th 05:00-20:30; Fr 05:00-22:30; Sa 05:00-20:30", "brand": "Fresenius Kidney Care", "brand:wikidata": "Q650259"}, "geometry": {"type": "Point", "coordinates": [-123.834390132628, 46.9757281935068]}},
{"type": "Feature", "id": "4YGV2qkgPmSZKDXnYtJoEOwZjvE=", "properties": {"ref": "2103", "@spider": "freseniuskidneycare", "addr:full": "1971 Thompson Rd", "addr:city": "Coos Bay", "addr:state": "Oregon", "addr:postcode": "97420", "name": "Fresenius Kidney Care Coos Bay", "phone": "1-800-881-5101", "website": "https://www.freseniuskidneycare.com/dialysis-centers/oregon/2103", "opening_hours": "Mo-Sa 06:00-18:00", "brand": "Fresenius Kidney Care", "brand:wikidata": "Q650259"}, "geometry": {"type": "Point", "coordinates": [-124.235737323761, 43.3851756639954]}},
{"type": "Feature", "id": "73g2teR_BdU6T5n0UktaQ7Ari0Y=", "properties": {"ref": "3041", "@spider": "freseniuskidneycare", "addr:full": "1550 Heartwood Dr", "addr:city": "Mckinleyville", "addr:state": "California", "addr:postcode": "95519", "name": "Fresenius Kidney Care McKinleyville", "phone": "1-800-881-5101", "website": "https://www.freseniuskidneycare.com/dialysis-centers/california/3041", "opening_hours": "Mo-Sa 06:00-18:00", "brand": "Fresenius Kidney Care", "brand:wikidata": "Q650259"}, "geometry": {"type": "Point", "coordinates": [-124.10281509161, 40.9392618943282]}},
{"type": "Feature", "id": "2ml6kCmbmH9Mq_XA6wNTlluFbRU=", "properties": {"ref": "4687", "@spider": "freseniuskidneycare", "addr:full": "9105 NE Highway 99", "addr:city": "Vancouver", "addr:state": "Washington", "addr:postcode": "98665", "name": "Fresenius Kidney Care Salmon Creek", "phone": "1-800-881-5101", "website": "https://www.freseniuskidneycare.com/dialysis-centers/washington/4687", "opening_hours": "Mo-Sa 05:00-23:00", "brand": "Fresenius Kidney Care", "brand:wikidata": "Q650259"}, "geometry": {"type": "Point", "coordinates": [-122.658204566705, 45.6884782015666]}},
{"type": "Feature", "id": "YR5dkyZE1UIZQyyC_JV-IakudMY=", "properties": {"ref": "7105", "@spider": "freseniuskidneycare", "addr:full": "1738 Ocean Ave", "addr:city": "San Francisco", "addr:state": "California", "addr:postcode": "94112", "name": "Fresenius Kidney Care Ocean Ave. San Francisco", "phone": "1-800-881-5101", "website": "https://www.freseniuskidneycare.com/dialysis-centers/california/7105", "opening_hours": "Mo-Sa 05:00-22:30", "brand": "Fresenius Kidney Care", "brand:wikidata": "Q650259"}, "geometry": {"type": "Point", "coordinates": [-122.460503876209, 37.7249721079903]}},
{"type": "Feature", "id": "kqT-lGmZC3EYMNyFi4FEfb4RYS4=", "properties": {"ref": "8365", "@spider": "freseniuskidneycare", "addr:full": "2820 Kingwood St", "addr:city": "Florence", "addr:state": "Oregon", "addr:postcode": "97439", "name": "Fresenius Kidney Care Florence, Oregon", "phone": "1-800-881-5101", "website": "https://www.freseniuskidneycare.com/dialysis-centers/oregon/8365", "opening_hours": "Mo 06:00-17:00; We 06:00-17:00; Fr 06:00-17:00", "brand": "Fresenius Kidney Care", "brand:wikidata": "Q650259"}, "geometry": {"type": "Point", "coordinates": [-124.109543731486, 43.9911927039304]}},
{"type": "Feature", "id": "CN4316xbpWuXvd78kXny1n9stYc=", "properties": {"ref": "100916", "@spider": "freseniuskidneycare", "addr:full": "208 Hospital Pkwy", "addr:city": "Mount Vernon", "addr:state": "Washington", "addr:postcode": "98273", "name": "Fresenius Kidney Care Skagit Valley", "phone": "1-800-881-5101", "website": "https://www.freseniuskidneycare.com/dialysis-centers/washington/100916", "opening_hours": "Mo-Sa 05:00-18:00", "brand": "Fresenius Kidney Care", "brand:wikidata": "Q650259"}, "geometry": {"type": "Point", "coordinates": [-122.323321144511, 48.4198387888734]}},
{"type": "Feature", "id": "KxRajE3TpkMvFNrltb83W42LvLA=", "properties": {"ref": "100435", "@spider": "freseniuskidneycare", "addr:full": "19663 State Route 410 E", "addr:city": "Bonney Lake", "addr:state": "Washington", "addr:postcode": "98391", "name": "Fresenius Kidney Care Bonne Lake", "phone": "1-800-881-5101", "website": "https://www.freseniuskidneycare.com/dialysis-centers/washington/100435", "opening_hours": "Mo-Sa 05:00-18:00", "brand": "Fresenius Kidney Care", "brand:wikidata": "Q650259"}, "geometry": {"type": "Point", "coordinates": [-122.167971793496, 47.1685892669156]}},
{"type": "Feature", "id": "mY01riRlhW6z5BLfZq5rfsJ1xkM=", "properties": {"ref": "1172", "@spider": "freseniuskidneycare", "addr:full": "14651 S Bascom Ave", "addr:city": "Los Gatos", "addr:state": "California", "addr:postcode": "95032", "name": "Fresenius Kidney Care Los Gatos", "phone": "1-800-881-5101", "website": "https://www.freseniuskidneycare.com/dialysis-centers/california/1172", "opening_hours": "Mo 04:00-22:00; Tu 05:00-17:00; We 04:00-22:00; Th 05:00-17:00; Fr 04:00-22:00; Sa 05:00-15:00", "brand": "Fresenius Kidney Care", "brand:wikidata": "Q650259"}, "geometry": {"type": "Point", "coordinates": [-121.950948978083, 37.2558017302863]}},
{"type": "Feature", "id": "3LYykr8FksMasiRhOPw0GX__IYQ=", "properties": {"ref": "2102", "@spider": "freseniuskidneycare", "addr:full": "1239 NE Medical Center Dr", "addr:city": "Bend", "addr:state": "Oregon", "addr:postcode": "97701", "name": "Fresenius Kidney Care Qci Bend", "phone": "1-800-881-5101", "website": "https://www.freseniuskidneycare.com/dialysis-centers/oregon/2102", "opening_hours": "Mo 05:00-22:00; Tu 06:00-18:00; We 05:00-22:00; Th 06:00-18:00; Fr 05:00-22:00; Sa 06:00-18:00", "brand": "Fresenius Kidney Care", "brand:wikidata": "Q650259"}, "geometry": {"type": "Point", "coordinates": [-121.264903843403, 44.0627289913825]}},
{"type": "Feature", "id": "aI-I7EYxbR6hRJJhrDDgTTcFJkU=", "properties": {"ref": "7102", "@spider": "freseniuskidneycare", "addr:full": "3011 Ceres Ave", "addr:city": "Chico", "addr:state": "California", "addr:postcode": "95973", "name": "Fresenius Kidney Care Ceres Ave. Chico", "phone": "1-800-881-5101", "website": "https://www.freseniuskidneycare.com/dialysis-centers/california/7102", "opening_hours": "Mo-Sa 04:45-20:00", "brand": "Fresenius Kidney Care", "brand:wikidata": "Q650259"}, "geometry": {"type": "Point", "coordinates": [-121.83882817626, 39.7760702497482]}},
{"type": "Feature", "id": "QVDcFDjgFNIvtx1DQWtXC34DAns=", "properties": {"ref": "4683", "@spider": "freseniuskidneycare", "addr:full": "632 Marine Dr", "addr:city": "Astoria", "addr:state": "Oregon", "addr:postcode": "97103", "name": "Fresenius Kidney Care Astoria", "phone": "1-800-881-5101", "website": "https://www.freseniuskidneycare.com/dialysis-centers/oregon/4683", "opening_hours": "Mo 05:00-17:00; Tu 05:30-17:00; We 05:00-17:00; Th 05:30-17:00; Fr 05:00-17:00; Sa 05:30-17:00; Su 05:00-17:00", "brand": "Fresenius Kidney Care", "brand:wikidata": "Q650259"}, "geometry": {"type": "Point", "coordinates": [-123.836013538581, 46.1906904163986]}},
{"type": "Feature", "id": "iEKg6ZoFaBh1TY7_kKA38q9IjZ8=", "properties": {"ref": "101106", "@spider": "freseniuskidneycare", "addr:full": "790 E Manning Ave", "addr:city": "Reedley", "addr:state": "California", "addr:postcode": "93654", "name": "Fresenius Kidney Care Reedley Home", "phone": "1-800-881-5101", "website": "https://www.freseniuskidneycare.com/dialysis-centers/california/101106", "brand": "Fresenius Kidney Care", "brand:wikidata": "Q650259"}, "geometry": {"type": "Point", "coordinates": [-119.456269941105, 36.6044468066233]}},
{"type": "Feature", "id": "AkW3xzd-H7-fE_tudSXRWgMgpeI=", "properties": {"ref": "1282", "@spider": "freseniuskidneycare", "addr:full": "222 Pesetas Ln", "addr:city": "Santa Barbara", "addr:state": "California", "addr:postcode": "93110", "name": "Fresenius Kidney Care Santa Barbara", "phone": "1-800-881-5101", "website": "https://www.freseniuskidneycare.com/dialysis-centers/california/1282", "opening_hours": "Mo 05:00-19:00; Tu 05:00-17:00; We 05:00-19:00; Th 05:00-17:00; Fr 05:00-19:00; Sa 05:00-17:00", "brand": "Fresenius Kidney Care", "brand:wikidata": "Q650259"}, "geometry": {"type": "Point", "coordinates": [-119.758022725582, 34.4435501948934]}},
{"type": "Feature", "id": "nmO3_TnThZoVym2V9V1WdvXrS-I=", "properties": {"ref": "4682", "@spider": "freseniuskidneycare", "addr:full": "10601 S Walton Rd", "addr:city": "La Grande", "addr:state": "Oregon", "addr:postcode": "97850", "name": "Fresenius Kidney Care Eastern Oregon", "phone": "1-800-881-5101", "website": "https://www.freseniuskidneycare.com/dialysis-centers/oregon/4682", "opening_hours": "Mo 06:00-17:00; Tu 07:00-13:00; We 06:00-17:00; Th 07:00-13:00; Fr 06:00-17:00; Sa 07:00-13:00", "brand": "Fresenius Kidney Care", "brand:wikidata": "Q650259"}, "geometry": {"type": "Point", "coordinates": [-118.056299064057, 45.3358277686452]}},
{"type": "Feature", "id": "KDywub7_J7S70_g3mH3wR6EiOOY=", "properties": {"ref": "1678", "@spider": "freseniuskidneycare", "addr:full": "1020 2nd St", "addr:city": "Santa Rosa", "addr:state": "California", "addr:postcode": "95404", "name": "Fresenius Kidney Care Santa Rosa", "phone": "1-800-881-5101", "website": "https://www.freseniuskidneycare.com/dialysis-centers/california/1678", "opening_hours": "Mo-Sa 05:00-19:00", "brand": "Fresenius Kidney Care", "brand:wikidata": "Q650259"}, "geometry": {"type": "Point", "coordinates": [-122.705295413798, 38.4422440163251]}},
{"type": "Feature", "id": "rMx90O4jb4z0yn1fPNqHiY2vyLo=", "properties": {"ref": "1149", "@spider": "freseniuskidneycare", "addr:full": "39505 Paseo Padre Pkwy", "addr:city": "Fremont", "addr:state": "California", "addr:postcode": "94538", "name": "Fresenius Kidney Care Fremont", "phone": "1-800-881-5101", "website": "https://www.freseniuskidneycare.com/dialysis-centers/california/1149", "opening_hours": "Mo 05:00-18:30; Tu 05:00-18:00; We 05:00-18:30; Th 05:00-18:00; Fr 05:00-18:30; Sa 05:00-18:00", "brand": "Fresenius Kidney Care", "brand:wikidata": "Q650259"}, "geometry": {"type": "Point", "coordinates": [-121.974712908268, 37.54980448867]}},
{"type": "Feature", "id": "xljnR1iMxJLD-iKLwagOdI0sex4=", "properties": {"ref": "2279", "@spider": "freseniuskidneycare", "addr:full": "2679 Saviers Rd", "addr:city": "Oxnard", "addr:state": "California", "addr:postcode": "93033", "name": "Fresenius Kidney Care Channel Islands / South Oxnard", "phone": "1-800-881-5101", "website": "https://www.freseniuskidneycare.com/dialysis-centers/california/2279", "opening_hours": "Mo-Sa 04:45-22:15", "brand": "Fresenius Kidney Care", "brand:wikidata": "Q650259"}, "geometry": {"type": "Point", "coordinates": [-119.179935120246, 34.1755653135982]}},
{"type": "Feature", "id": "Jiagt70WY1pB3UgBEODNS08rqg8=", "properties": {"ref": "4693", "@spider": "freseniuskidneycare", "addr:full": "800 Jasmine St", "addr:city": "Omak", "addr:state": "Washington", "addr:postcode": "98841", "name": "Fresenius Kidney Care Omak", "phone": "1-800-881-5101", "website": "https://www.freseniuskidneycare.com/dialysis-centers/washington/4693", "opening_hours": "Mo 06:00-17:00; Tu 06:00-16:00; We 06:00-17:00; Th 06:00-16:00; Fr 06:00-17:00; Sa 06:00-16:00", "brand": "Fresenius Kidney Care", "brand:wikidata": "Q650259"}, "geometry": {"type": "Point", "coordinates": [-119.545740149952, 48.3970132045905]}},
{"type": "Feature", "id": "6bZAL7gefsVv0_wWseybYMQPw6c=", "properties": {"ref": "4690", "@spider": "freseniuskidneycare", "addr:full": "847a E Broadway Ave", "addr:city": "Moses Lake", "addr:state": "Washington", "addr:postcode": "98837", "name": "Fresenius Kidney Care Moses Lake", "phone": "1-800-881-5101", "website": "https://www.freseniuskidneycare.com/dialysis-centers/washington/4690", "opening_hours": "Mo-Sa 05:00-22:00", "brand": "Fresenius Kidney Care", "brand:wikidata": "Q650259"}, "geometry": {"type": "Point", "coordinates": [-119.262071991579, 47.1117944033356]}},
{"type": "Feature", "id": "Xj5LEA0IS5rkUWQ7O-Zqlh_vgx4=", "properties": {"ref": "7426", "@spider": "freseniuskidneycare", "addr:full": "280 W Georgia Ave", "addr:city": "Nampa", "addr:state": "Idaho", "addr:postcode": "83686", "name": "Fresenius Kidney Care Nampa", "phone": "1-800-881-5101", "website": "https://www.freseniuskidneycare.com/dialysis-centers/idaho/7426", "opening_hours": "Mo 05:30-17:00; Tu 05:30-16:30; We 05:30-17:00; Th 05:30-16:30; Fr 05:30-17:00; Sa 05:30-16:30", "brand": "Fresenius Kidney Care", "brand:wikidata": "Q650259"}, "geometry": {"type": "Point", "coordinates": [-116.57522542404, 43.5568569210336]}},
{"type": "Feature", "id": "iASTxEcx_4VF30yKhK9y-kcjr0A=", "properties": {"ref": "1984", "@spider": "freseniuskidneycare", "addr:full": "2252 Verus St", "addr:city": "San Diego", "addr:state": "California", "addr:postcode": "92154", "name": "Fresenius Kidney Care Chula Vista South", "phone": "1-800-881-5101", "website": "https://www.freseniuskidneycare.com/dialysis-centers/california/1984", "opening_hours": "Mo-Su 05:00-19:30", "brand": "Fresenius Kidney Care", "brand:wikidata": "Q650259"}, "geometry": {"type": "Point", "coordinates": [-117.086610458828, 32.594508330703]}},
{"type": "Feature", "id": "MZuTkApDhgPeLfAj8yY86xRPmcQ=", "properties": {"ref": "9385", "@spider": "freseniuskidneycare", "addr:full": "2585 Alluvial Ave", "addr:city": "Clovis", "addr:state": "California", "addr:postcode": "93611", "name": "Fresenius Kidney Care Clovis, Ca", "phone": "1-800-881-5101", "website": "https://www.freseniuskidneycare.com/dialysis-centers/california/9385", "opening_hours": "Mo-Sa 05:00-18:00", "brand": "Fresenius Kidney Care", "brand:wikidata": "Q650259"}, "geometry": {"type": "Point", "coordinates": [-119.66622878158, 36.845491164875]}},
{"type": "Feature", "id": "E0LnKQExU3ohix5G46oVHj2MHTU=", "properties": {"ref": "7427", "@spider": "freseniuskidneycare", "addr:full": "4620 Enterprise Way", "addr:city": "Caldwell", "addr:state": "Idaho", "addr:postcode": "83605", "name": "Fresenius Kidney Care Caldwell", "phone": "1-800-881-5101", "website": "https://www.freseniuskidneycare.com/dialysis-centers/idaho/7427", "opening_hours": "Mo 05:00-22:00; Tu 05:00-17:00; We 05:00-22:00; Th 05:00-17:00; Fr 05:00-22:00; Sa 05:00-17:00", "brand": "Fresenius Kidney Care", "brand:wikidata": "Q650259"}, "geometry": {"type": "Point", "coordinates": [-116.640748009086, 43.6608884680492]}},
{"type": "Feature", "id": "6W84N8kFI4vVFcsoQjX01MlL3jU=", "properties": {"ref": "6883", "@spider": "freseniuskidneycare", "addr:full": "3201 Mall View Rd", "addr:city": "Bakersfield", "addr:state": "California", "addr:postcode": "93306", "name": "Fresenius Kidney Care Bakersfield Northeast", "phone": "1-800-881-5101", "website": "https://www.freseniuskidneycare.com/dialysis-centers/california/6883", "opening_hours": "Mo-Sa 04:00-19:00", "brand": "Fresenius Kidney Care", "brand:wikidata": "Q650259"}, "geometry": {"type": "Point", "coordinates": [-118.957180641719, 35.3941634143355]}},
{"type": "Feature", "id": "2G-y-CgOAReB54ofvo3D2BFf9tU=", "properties": {"ref": "8442", "@spider": "freseniuskidneycare", "addr:full": "411 Lone Pine Blvd", "addr:city": "The Dalles", "addr:state": "Oregon", "addr:postcode": "97058", "name": "Fresenius Kidney Care The Dalles", "phone": "1-800-881-5101", "website": "https://www.freseniuskidneycare.com/dialysis-centers/oregon/8442", "opening_hours": "Mo 06:00-20:00; We 06:00-20:00; Fr 06:00-20:00", "brand": "Fresenius Kidney Care", "brand:wikidata": "Q650259"}, "geometry": {"type": "Point", "coordinates": [-121.139722466469, 45.6052337131833]}},
{"type": "Feature", "id": "lkSCXCV4qW_wYTLTCWp8gj418qU=", "properties": {"ref": "7494", "@spider": "freseniuskidneycare", "addr:full": "5915 S Los Altos Pkwy", "addr:city": "Sparks", "addr:state": "Nevada", "addr:postcode": "89436", "name": "Fresenius Kidney Care Sparks", "phone": "1-800-881-5101", "website": "https://www.freseniuskidneycare.com/dialysis-centers/nevada/7494", "opening_hours": "Mo 05:00-18:00; Tu 08:00-13:00; We 05:00-18:00; Th 08:00-13:00; Fr 05:00-18:00; Sa 08:00-13:00", "brand": "Fresenius Kidney Care", "brand:wikidata": "Q650259"}, "geometry": {"type": "Point", "coordinates": [-119.704021811485, 39.5652523871948]}},
{"type": "Feature", "id": "v95OouxV04Dtn-HkrRaYUL_Qauo=", "properties": {"ref": "7420", "@spider": "freseniuskidneycare", "addr:full": "1210 Washington Ave", "addr:city": "Sandpoint", "addr:state": "Idaho", "addr:postcode": "83864", "name": "Fresenius Kidney Care Sandpoint", "phone": "1-800-881-5101", "website": "https://www.freseniuskidneycare.com/dialysis-centers/idaho/7420", "opening_hours": "Mo-Sa 04:30-17:00", "brand": "Fresenius Kidney Care", "brand:wikidata": "Q650259"}, "geometry": {"type": "Point", "coordinates": [-116.565421963514, 48.2849205636229]}},
{"type": "Feature", "id": "kI_WGcz50FY7n7yCMhU0VJ7_b9s=", "properties": {"ref": "8353", "@spider": "freseniuskidneycare", "addr:full": "3100 Great Northern Ave", "addr:city": "Missoula", "addr:state": "Montana", "addr:postcode": "59808", "name": "Fresenius Kidney Care Missoula", "phone": "1-800-881-5101", "website": "https://www.freseniuskidneycare.com/dialysis-centers/montana/8353", "opening_hours": "Mo-Sa 06:00-18:00", "brand": "Fresenius Kidney Care", "brand:wikidata": "Q650259"}, "geometry": {"type": "Point", "coordinates": [-114.034861922264, 46.8926620989921]}},
{"type": "Feature", "id": "lSfa6FvdX2J9V-p_0mSk8S4GRa8=", "properties": {"ref": "7195", "@spider": "freseniuskidneycare", "addr:full": "1536 E 6th St", "addr:city": "Beaumont", "addr:state": "California", "addr:postcode": "92223", "name": "Fresenius Kidney Care E. 6th Street - Beaumont", "phone": "1-800-881-5101", "website": "https://www.freseniuskidneycare.com/dialysis-centers/california/7195", "opening_hours": "Mo 04:00-20:00; Tu 04:00-17:00; We 04:00-20:00; Th 04:00-17:00; Fr 04:00-20:00; Sa 04:00-17:00", "brand": "Fresenius Kidney Care", "brand:wikidata": "Q650259"}, "geometry": {"type": "Point", "coordinates": [-116.9530274, 33.9299505]}},
{"type": "Feature", "id": "-kcmhX4FFRt4STFu5PT5QIxUnfM=", "properties": {"ref": "6974", "@spider": "freseniuskidneycare", "addr:full": "7465 W Azure Dr", "addr:city": "Las Vegas", "addr:state": "Nevada", "addr:postcode": "89130", "name": "Fresenius Kidney Care Centennial NV", "phone": "1-800-881-5101", "website": "https://www.freseniuskidneycare.com/dialysis-centers/nevada/6974", "opening_hours": "Mo-Sa 04:00-20:00", "brand": "Fresenius Kidney Care", "brand:wikidata": "Q650259"}, "geometry": {"type": "Point", "coordinates": [-115.258403867483, 36.2735986654608]}},
{"type": "Feature", "id": "I92pRFxmZoUS9Np8tc90SGx1gts=", "properties": {"ref": "4648", "@spider": "freseniuskidneycare", "addr:full": "2100 Ironwood Ct", "addr:city": "Coeur D Alene", "addr:state": "Idaho", "addr:postcode": "83814", "name": "Fresenius Kidney Care North Idaho", "phone": "1-800-881-5101", "website": "https://www.freseniuskidneycare.com/dialysis-centers/idaho/4648", "opening_hours": "Mo 09:00-14:00; We 09:00-14:00; Fr 09:00-14:00", "brand": "Fresenius Kidney Care", "brand:wikidata": "Q650259"}, "geometry": {"type": "Point", "coordinates": [-116.79569453001, 47.6961550170859]}},
{"type": "Feature", "id": "niIf577xyXJZfXxdxfYcy-izUpc=", "properties": {"ref": "7423", "@spider": "freseniuskidneycare", "addr:full": "245 Poplar St", "addr:city": "Blackfoot", "addr:state": "Idaho", "addr:postcode": "83221", "name": "Fresenius Kidney Care Ikc - Blackfoot", "phone": "1-800-881-5101", "website": "https://www.freseniuskidneycare.com/dialysis-centers/idaho/7423", "opening_hours": "Mo 05:30-17:00; Tu 05:30-17:30; We 05:30-17:00; Th 05:30-17:30; Fr 05:30-17:00; Sa 05:30-17:30", "brand": "Fresenius Kidney Care", "brand:wikidata": "Q650259"}, "geometry": {"type": "Point", "coordinates": [-112.347942030783, 43.1944780926487]}},
{"type": "Feature", "id": "vHSo2pWFiByN9o-oSubQZuXjnKs=", "properties": {"ref": "7429", "@spider": "freseniuskidneycare", "addr:full": "2132 N 1700 W", "addr:city": "Layton", "addr:state": "Utah", "addr:postcode": "84041", "name": "Fresenius Kidney Care Davis County", "phone": "1-800-881-5101", "website": "https://www.freseniuskidneycare.com/dialysis-centers/utah/7429", "opening_hours": "Mo 05:30-22:00; Tu 05:30-17:00; We 05:30-22:00; Th 05:30-17:00; Fr 05:30-22:00; Sa 05:30-17:00", "brand": "Fresenius Kidney Care", "brand:wikidata": "Q650259"}, "geometry": {"type": "Point", "coordinates": [-111.996795594823, 41.091228039623]}},
{"type": "Feature", "id": "KNn4Ly_Lem1E4gPfOknInP5UtJA=", "properties": {"ref": "7428", "@spider": "freseniuskidneycare", "addr:full": "624 S 1000 E", "addr:city": "St George", "addr:state": "Utah", "addr:postcode": "84790", "name": "Fresenius Kidney Care St. George", "phone": "1-800-881-5101", "website": "https://www.freseniuskidneycare.com/dialysis-centers/utah/7428", "opening_hours": "Mo-Sa 05:00-17:00", "brand": "Fresenius Kidney Care", "brand:wikidata": "Q650259"}, "geometry": {"type": "Point", "coordinates": [-113.562793583785, 37.0974447036101]}},
{"type": "Feature", "id": "WJCfZZhJumfR5czqFD3b4IOWzLM=", "properties": {"ref": "9476", "@spider": "freseniuskidneycare", "addr:full": "1320 N Main St", "addr:city": "Cedar City", "addr:state": "Utah", "addr:postcode": "84721", "name": "Fresenius Kidney Care Cedar City", "phone": "1-800-881-5101", "website": "https://www.freseniuskidneycare.com/dialysis-centers/utah/9476", "opening_hours": "Mo 06:30-16:00; We 06:30-16:00; Fr 06:30-16:00", "brand": "Fresenius Kidney Care", "brand:wikidata": "Q650259"}, "geometry": {"type": "Point", "coordinates": [-113.06325601364, 37.7006012621003]}},
{"type": "Feature", "id": "mtGJjwx-cwL5aOqhy65p5r4DEGg=", "properties": {"ref": "7483", "@spider": "freseniuskidneycare", "addr:full": "350 N Haven Dr", "addr:city": "Twin Falls", "addr:state": "Idaho", "addr:postcode": "83301", "name": "Fresenius Kidney Care Twin Falls, ID", "phone": "1-800-881-5101", "website": "https://www.freseniuskidneycare.com/dialysis-centers/idaho/7483", "opening_hours": "Mo-Sa 06:00-18:00", "brand": "Fresenius Kidney Care", "brand:wikidata": "Q650259"}, "geometry": {"type": "Point", "coordinates": [-114.48607440583, 42.5910402036723]}},
{"type": "Feature", "id": "AzYbg91wbTWtHFo2dCRpGETSOgg=", "properties": {"ref": "8354", "@spider": "freseniuskidneycare", "addr:full": "3745 Harrison Ave", "addr:city": "Butte", "addr:state": "Montana", "addr:postcode": "59701", "name": "Fresenius Kidney Care Butte", "phone": "1-800-881-5101", "website": "https://www.freseniuskidneycare.com/dialysis-centers/montana/8354", "opening_hours": "Mo-Sa 07:00-17:00", "brand": "Fresenius Kidney Care", "brand:wikidata": "Q650259"}, "geometry": {"type": "Point", "coordinates": [-112.509733736515, 45.9685908727985]}},
{"type": "Feature", "id": "NZTg3YvZpCSCSLX0RVGXOqH9GGs=", "properties": {"ref": "6263", "@spider": "freseniuskidneycare", "addr:full": "Rr 1", "addr:city": "Parker", "addr:state": "Arizona", "addr:postcode": "85344", "name": "Fresenius Kidney Care Parker", "phone": "1-800-881-5101", "website": "https://www.freseniuskidneycare.com/dialysis-centers/arizona/6263", "opening_hours": "Mo 06:00-19:00", "brand": "Fresenius Kidney Care", "brand:wikidata": "Q650259"}, "geometry": {"type": "Point", "coordinates": [-114.30478479889, 34.1473278424201]}},
{"type": "Feature", "id": "KkRfQYmHZig4M1nADJyOQ5egAiY=", "properties": {"ref": "6264", "@spider": "freseniuskidneycare", "addr:full": "2201 N Vickey St", "addr:city": "Flagstaff", "addr:state": "Arizona", "addr:postcode": "86004", "name": "Fresenius Kidney Care Flagstaff", "phone": "1-800-881-5101", "website": "https://www.freseniuskidneycare.com/dialysis-centers/arizona/6264", "opening_hours": "Mo 06:00-20:00; Tu 07:00-18:00; We 06:00-20:00; Th 07:00-18:00; Fr 06:00-20:00; Sa 07:00-18:00", "brand": "Fresenius Kidney Care", "brand:wikidata": "Q650259"}, "geometry": {"type": "Point", "coordinates": [-111.606762834341, 35.207386772747]}},
{"type": "Feature", "id": "TIu9yN58yQEqHS1Yi4OUOdI3HRk=", "properties": {"ref": "7425", "@spider": "freseniuskidneycare", "addr:full": "333 Knudsen Blvd", "addr:city": "Chubbuck", "addr:state": "Idaho", "addr:postcode": "83202", "name": "Fresenius Kidney Care Pocatello", "phone": "1-800-881-5101", "website": "https://www.freseniuskidneycare.com/dialysis-centers/idaho/7425", "opening_hours": "Mo 05:00-18:00; Tu 05:00-17:00; We 05:00-18:00; Th 05:00-17:00; Fr 05:00-18:00; Sa 05:00-17:00", "brand": "Fresenius Kidney Care", "brand:wikidata": "Q650259"}, "geometry": {"type": "Point", "coordinates": [-112.472221515845, 42.9156319646059]}},
{"type": "Feature", "id": "o-Gg0ylI9FOjIToyAP8p5M4mM9c=", "properties": {"ref": "6678", "@spider": "freseniuskidneycare", "addr:full": "1724 26th St S", "addr:city": "Great Falls", "addr:state": "Montana", "addr:postcode": "59405", "name": "Fresenius Kidney Care Great Falls Dialysis", "phone": "1-800-881-5101", "website": "https://www.freseniuskidneycare.com/dialysis-centers/montana/6678", "opening_hours": "Mo 06:00-18:00; We 06:00-18:00; Fr 06:00-18:00", "brand": "Fresenius Kidney Care", "brand:wikidata": "Q650259"}, "geometry": {"type": "Point", "coordinates": [-111.263661284955, 47.4852949816328]}},
{"type": "Feature", "id": "bloHctxSa8RwpEAB_g5Bwg_eFuU=", "properties": {"ref": "100058", "@spider": "freseniuskidneycare", "addr:full": "305 Ridgewater Dr", "addr:city": "Polson", "addr:state": "Montana", "addr:postcode": "59860", "name": "Fresenius Kidney Care Polson", "phone": "1-800-881-5101", "website": "https://www.freseniuskidneycare.com/dialysis-centers/montana/100058", "opening_hours": "Mo 06:00-18:00; We 06:00-18:00; Fr 06:00-18:00", "brand": "Fresenius Kidney Care", "brand:wikidata": "Q650259"}, "geometry": {"type": "Point", "coordinates": [-114.127176542328, 47.6850826113535]}},
{"type": "Feature", "id": "ydPPdeKy0i7raxTpc5dT4V8lYAo=", "properties": {"ref": "8818", "@spider": "freseniuskidneycare", "addr:full": "572 W 750 S", "addr:city": "Bountiful", "addr:state": "Utah", "addr:postcode": "84010", "name": "Fresenius Kidney Care Woods Cross", "phone": "1-800-881-5101", "website": "https://www.freseniuskidneycare.com/dialysis-centers/utah/8818", "opening_hours": "Mo 04:30-22:00; Tu 04:30-12:30; We 04:30-22:00; Th 04:30-12:30; Fr 04:30-22:00; Sa 04:30-12:30", "brand": "Fresenius Kidney Care", "brand:wikidata": "Q650259"}, "geometry": {"type": "Point", "coordinates": [-111.894989068474, 40.882230715799]}},
{"type": "Feature", "id": "b82TmAJt1Xh-NQsrA9lCf88uHGk=", "properties": {"ref": "7410", "@spider": "freseniuskidneycare", "addr:full": "6144 Mae Anne Ave", "addr:city": "Reno", "addr:state": "Nevada", "addr:postcode": "89523", "name": "Fresenius Kidney Care Northwest Reno", "phone": "1-800-881-5101", "website": "https://www.freseniuskidneycare.com/dialysis-centers/nevada/7410", "opening_hours": "Mo 04:00-21:00; Tu 06:00-17:00; We 04:00-21:00; Th 06:00-17:00; Fr 04:00-21:00; Sa 06:00-17:00", "brand": "Fresenius Kidney Care", "brand:wikidata": "Q650259"}, "geometry": {"type": "Point", "coordinates": [-119.883466959, 39.5281466418098]}},
{"type": "Feature", "id": "8WRHmOjqjZdU19V5MCTOCQIoXSM=", "properties": {"ref": "6135", "@spider": "freseniuskidneycare", "addr:full": "147 Garden Homes Dr", "addr:city": "Colville", "addr:state": "Washington", "addr:postcode": "99114", "name": "Fresenius Kidney Care Colville WA", "phone": "1-800-881-5101", "website": "https://www.freseniuskidneycare.com/dialysis-centers/washington/6135", "opening_hours": "Mo 06:00-17:00; Tu 07:00-16:30; We 06:00-17:00; Th 07:00-16:30; Fr 06:00-17:00; Sa 07:00-16:30", "brand": "Fresenius Kidney Care", "brand:wikidata": "Q650259"}, "geometry": {"type": "Point", "coordinates": [-117.888429059902, 48.5335194165596]}},
{"type": "Feature", "id": "OsDvhJPg9ipj8H8PoIKPIJf-8us=", "properties": {"ref": "100300", "@spider": "freseniuskidneycare", "addr:full": "5555 Mesa Verde Dr", "addr:city": "Sierra Vista", "addr:state": "Arizona", "addr:postcode": "85635", "name": "Fresenius Kidney Care Canyon Vista", "phone": "1-800-881-5101", "website": "https://www.freseniuskidneycare.com/dialysis-centers/arizona/100300", "opening_hours": "Mo-Sa 07:00-17:00", "brand": "Fresenius Kidney Care", "brand:wikidata": "Q650259"}, "geometry": {"type": "Point", "coordinates": [-110.232545337417, 31.5518803000881]}},
{"type": "Feature", "id": "ag5wddUctH9TtiBHMrb_OE4MmBs=", "properties": {"ref": "6497", "@spider": "freseniuskidneycare", "addr:full": "937 Highland Blvd", "addr:city": "Bozeman", "addr:state": "Montana", "addr:postcode": "59715", "name": "Fresenius Kidney Care Bozeman", "phone": "1-800-881-5101", "website": "https://www.freseniuskidneycare.com/dialysis-centers/montana/6497", "opening_hours": "Mo 06:00-22:00; Tu 06:00-18:00; We 06:00-22:00; Th 06:00-18:00; Fr 06:00-22:00; Sa 06:00-18:00", "brand": "Fresenius Kidney Care", "brand:wikidata": "Q650259"}, "geometry": {"type": "Point", "coordinates": [-111.019801338623, 45.6699349555088]}},
{"type": "Feature", "id": "ABgc-4v5DuE_l-9UBGDcKd4-NE8=", "properties": {"ref": "7424", "@spider": "freseniuskidneycare", "addr:full": "2381 E Sunnyside Rd", "addr:city": "Idaho Falls", "addr:state": "Idaho", "addr:postcode": "83404", "name": "Fresenius Kidney Care Idaho Falls", "phone": "1-800-881-5101", "website": "https://www.freseniuskidneycare.com/dialysis-centers/idaho/7424", "opening_hours": "Mo-Sa 06:00-18:00", "brand": "Fresenius Kidney Care", "brand:wikidata": "Q650259"}, "geometry": {"type": "Point", "coordinates": [-111.986601054668, 43.4684432526634]}},
{"type": "Feature", "id": "Oyo5j8aU9H0Cyxc8ndjQriGViu0=", "properties": {"ref": "6271", "@spider": "freseniuskidneycare", "addr:full": "16536 N Maricopa Rd", "addr:city": "Maricopa", "addr:state": "Arizona", "addr:postcode": "85139", "name": "Fresenius Kidney Care Ak-Chin", "phone": "1-800-881-5101", "website": "https://www.freseniuskidneycare.com/dialysis-centers/arizona/6271", "opening_hours": "Mo-Sa 05:00-21:00", "brand": "Fresenius Kidney Care", "brand:wikidata": "Q650259"}, "geometry": {"type": "Point", "coordinates": [-112.04837812129, 33.0300430924838]}},
{"type": "Feature", "id": "-091q40hGt6TbrH1NQdCc9wl0bY=", "properties": {"ref": "6835", "@spider": "freseniuskidneycare", "addr:full": "5555 E 5th St", "addr:city": "Tucson", "addr:state": "Arizona", "addr:postcode": "85711", "name": "Fresenius Kidney Care East Tucson", "phone": "1-800-881-5101", "website": "https://www.freseniuskidneycare.com/dialysis-centers/arizona/6835", "opening_hours": "Mo 05:00-22:00; Tu 05:00-16:00; We 05:00-22:00; Th 05:00-16:00; Fr 05:00-22:00; Sa 05:00-16:00", "brand": "Fresenius Kidney Care", "brand:wikidata": "Q650259"}, "geometry": {"type": "Point", "coordinates": [-110.874176323414, 32.2295336970337]}},
{"type": "Feature", "id": "Fplv6mur04fctQcyJHojrLxIup0=", "properties": {"ref": "6251", "@spider": "freseniuskidneycare", "addr:full": "16101 N 82nd St", "addr:city": "Scottsdale", "addr:state": "Arizona", "addr:postcode": "85260", "name": "Fresenius Kidney Care North Scottsdale", "phone": "1-800-881-5101", "website": "https://www.freseniuskidneycare.com/dialysis-centers/arizona/6251", "opening_hours": "Mo-Sa 05:00-22:00", "brand": "Fresenius Kidney Care", "brand:wikidata": "Q650259"}, "geometry": {"type": "Point", "coordinates": [-111.902044415474, 33.6327415476984]}},
{"type": "Feature", "id": "YYGWIbg3ckdZjKBD52efy86o-i8=", "properties": {"ref": "100259", "@spider": "freseniuskidneycare", "addr:full": "121 S Orem Blvd", "addr:city": "Orem", "addr:state": "Utah", "addr:postcode": "84058", "name": "Fresenius Kidney Care Utah Valley", "phone": "1-800-881-5101", "website": "https://www.freseniuskidneycare.com/dialysis-centers/utah/100259", "opening_hours": "Mo-Sa 07:00-17:00", "brand": "Fresenius Kidney Care", "brand:wikidata": "Q650259"}, "geometry": {"type": "Point", "coordinates": [-111.695951968717, 40.2948528431871]}},
{"type": "Feature", "id": "ziLXdmZFQMme-UrkkszB5AFWoIg=", "properties": {"ref": "6256", "@spider": "freseniuskidneycare", "addr:full": "721 Mikes Pike St", "addr:city": "Winslow", "addr:state": "Arizona", "addr:postcode": "86047", "name": "Fresenius Kidney Care Winslow Dialysis", "phone": "1-800-881-5101", "website": "https://www.freseniuskidneycare.com/dialysis-centers/arizona/6256", "opening_hours": "Mo 05:00-23:00; Tu 05:00-21:30; We 05:00-23:00; Th 05:00-21:30; Fr 05:00-23:00; Sa 05:00-21:30", "brand": "Fresenius Kidney Care", "brand:wikidata": "Q650259"}, "geometry": {"type": "Point", "coordinates": [-110.701538488331, 35.0402445949745]}},
{"type": "Feature", "id": "kZ-_LHbtkA3P2Mw5_xV2PdPLqxk=", "properties": {"ref": "1839", "@spider": "freseniuskidneycare", "addr:full": "351 E Birch St", "addr:city": "Calexico", "addr:state": "California", "addr:postcode": "92231", "name": "Fresenius Kidney Care Calexico", "phone": "1-800-881-5101", "website": "https://www.freseniuskidneycare.com/dialysis-centers/california/1839", "opening_hours": "Mo-Sa 05:00-21:30", "brand": "Fresenius Kidney Care", "brand:wikidata": "Q650259"}, "geometry": {"type": "Point", "coordinates": [-115.494030555856, 32.6797984456353]}},
{"type": "Feature", "id": "kUEZNWOP0OZR9bLuZYsQP-MiIXM=", "properties": {"ref": "4290", "@spider": "freseniuskidneycare", "addr:full": "7040 W Sunset Rd", "addr:city": "Las Vegas", "addr:state": "Nevada", "addr:postcode": "89113", "name": "Fresenius Kidney Care South Rainbow", "phone": "1-800-881-5101", "website": "https://www.freseniuskidneycare.com/dialysis-centers/nevada/4290", "opening_hours": "Mo 05:00-24:00; Tu 05:00-20:00; We 05:00-24:00; Th 05:00-20:00; Fr 05:00-24:00; Sa 05:00-20:00", "brand": "Fresenius Kidney Care", "brand:wikidata": "Q650259"}, "geometry": {"type": "Point", "coordinates": [-115.245266628572, 36.0711960308447]}},
{"type": "Feature", "id": "qz3jRC7xkwozs5mPD_y6GzNWCQc=", "properties": {"ref": "4147", "@spider": "freseniuskidneycare", "addr:full": "1739 Meadowland Dr", "addr:city": "Cheyenne", "addr:state": "Wyoming", "addr:postcode": "82009", "name": "Fresenius Kidney Care Cheyenne", "phone": "1-800-881-5101", "website": "https://www.freseniuskidneycare.com/dialysis-centers/wyoming/4147", "opening_hours": "Mo-Fr 04:00-22:00", "brand": "Fresenius Kidney Care", "brand:wikidata": "Q650259"}, "geometry": {"type": "Point", "coordinates": [-104.798755645752, 41.1583831730538]}},
{"type": "Feature", "id": "tdLW0ys2nKIObBQhV337UGGEJec=", "properties": {"ref": "101134", "@spider": "freseniuskidneycare", "addr:full": "2050 Knudsen Ave Ste C", "addr:city": "Farmington", "addr:state": "New Mexico", "addr:postcode": "87401", "name": "Fresenius Kidney Care Farmington, NM", "phone": "1-888-489-4718", "website": "https://www.freseniuskidneycare.com/dialysis-centers/new-mexico/101134", "opening_hours": "Mo-Sa 05:00-18:00", "brand": "Fresenius Kidney Care", "brand:wikidata": "Q650259"}, "geometry": {"type": "Point", "coordinates": [-108.188226993219, 36.7492972531515]}},
{"type": "Feature", "id": "X0JjtNWcl-CcyfLi3LeqlsFfoV4=", "properties": {"ref": "1217", "@spider": "freseniuskidneycare", "addr:full": "2107 S Timberline Rd", "addr:city": "Fort Collins", "addr:state": "Colorado", "addr:postcode": "80525", "name": "Fresenius Kidney Care Fort Collins", "phone": "1-800-881-5101", "website": "https://www.freseniuskidneycare.com/dialysis-centers/colorado/1217", "opening_hours": "Mo 05:30-23:00; Tu 05:45-17:30; We 05:30-23:00; Th 05:45-17:30; Fr 05:30-23:00; Sa 05:45-17:30", "brand": "Fresenius Kidney Care", "brand:wikidata": "Q650259"}, "geometry": {"type": "Point", "coordinates": [-105.040605, 40.559946]}},
{"type": "Feature", "id": "YDvGlFhPUuEZkOKm48-c8I7sd0M=", "properties": {"ref": "4672", "@spider": "freseniuskidneycare", "addr:full": "814 W Adobe Dr", "addr:city": "Deming", "addr:state": "New Mexico", "addr:postcode": "88030", "name": "Fresenius Kidney Care Deming", "phone": "1-888-489-4718", "website": "https://www.freseniuskidneycare.com/dialysis-centers/new-mexico/4672", "opening_hours": "Mo-Sa 04:00-20:00", "brand": "Fresenius Kidney Care", "brand:wikidata": "Q650259"}, "geometry": {"type": "Point", "coordinates": [-107.767942249775, 32.2554162309991]}},
{"type": "Feature", "id": "dn9I7JEnwriFSjFtacbRZdjtwTY=", "properties": {"ref": "6260", "@spider": "freseniuskidneycare", "addr:full": "1500 S White Mountain Rd", "addr:city": "Show Low", "addr:state": "Arizona", "addr:postcode": "85901", "name": "Fresenius Kidney Care Show Low", "phone": "1-800-881-5101", "website": "https://www.freseniuskidneycare.com/dialysis-centers/arizona/6260", "opening_hours": "Mo-Sa 06:00-22:30", "brand": "Fresenius Kidney Care", "brand:wikidata": "Q650259"}, "geometry": {"type": "Point", "coordinates": [-110.027754306793, 34.2364592999826]}},
{"type": "Feature", "id": "XWF_SWqxCO6_9iLcFL6T96LwUEk=", "properties": {"ref": "100521", "@spider": "freseniuskidneycare", "addr:full": "4097 W Colfax Ave", "addr:city": "Denver", "addr:state": "Colorado", "addr:postcode": "80204", "name": "Fresenius Kidney Care Sloans Lake", "phone": "1-800-881-5101", "website": "https://www.freseniuskidneycare.com/dialysis-centers/colorado/100521", "opening_hours": "Mo 05:00-17:00; We 05:00-17:00; Fr 05:00-17:00", "brand": "Fresenius Kidney Care", "brand:wikidata": "Q650259"}, "geometry": {"type": "Point", "coordinates": [-105.04023170342, 39.7407805592928]}},
{"type": "Feature", "id": "a14PUHo5e1Fdd7iVetbB17Uvn8E=", "properties": {"ref": "2107", "@spider": "freseniuskidneycare", "addr:full": "2245 Fremont Dr", "addr:city": "Canon City", "addr:state": "Colorado", "addr:postcode": "81212", "name": "Fresenius Kidney Care Qci Canon City", "phone": "1-800-881-5101", "website": "https://www.freseniuskidneycare.com/dialysis-centers/colorado/2107", "opening_hours": "Mo 05:00-16:30; Tu 05:00-12:00; We 05:00-16:30; Th 05:00-12:00; Fr 05:00-16:30; Sa 05:00-12:00", "brand": "Fresenius Kidney Care", "brand:wikidata": "Q650259"}, "geometry": {"type": "Point", "coordinates": [-105.215236991644, 38.4485095925534]}},
{"type": "Feature", "id": "Y4ijeIeeFGL6YoFGsea1FK3ZwKU=", "properties": {"ref": "100168", "@spider": "freseniuskidneycare", "addr:full": "1306 Enterprise Rd", "addr:city": "Socorro", "addr:state": "New Mexico", "addr:postcode": "87801", "name": "Fresenius Kidney Care Sandhill", "phone": "1-888-489-4718", "website": "https://www.freseniuskidneycare.com/dialysis-centers/new-mexico/100168", "opening_hours": "Mo 05:00-22:00; We 05:00-22:00; Fr 05:00-22:00", "brand": "Fresenius Kidney Care", "brand:wikidata": "Q650259"}, "geometry": {"type": "Point", "coordinates": [-106.917551046627, 34.0322303421263]}},
{"type": "Feature", "id": "LQO5ehf2OmQJIsGHlYqimL8qx3g=", "properties": {"ref": "1030", "@spider": "freseniuskidneycare", "addr:full": "246 Mills Ave", "addr:city": "Las Vegas", "addr:state": "New Mexico", "addr:postcode": "87701", "name": "Fresenius Kidney Care Las Vegas", "phone": "1-888-489-4718", "website": "https://www.freseniuskidneycare.com/dialysis-centers/new-mexico/1030", "opening_hours": "Mo 05:00-20:00; Tu 05:00-18:00; We 05:00-20:00; Th 05:00-18:00; Fr 05:00-20:00; Sa 05:00-18:00", "brand": "Fresenius Kidney Care", "brand:wikidata": "Q650259"}, "geometry": {"type": "Point", "coordinates": [-105.233607441187, 35.5997506678983]}},
{"type": "Feature", "id": "D1r3LTZsrQMhZKrifAn9UMBE28U=", "properties": {"ref": "100939", "@spider": "freseniuskidneycare", "addr:full": "4352 Trail Boss Dr", "addr:city": "Castle Rock", "addr:state": "Colorado", "addr:postcode": "80104", "name": "Fresenius Kidney Care Castle Rock", "phone": "1-800-881-5101", "website": "https://www.freseniuskidneycare.com/dialysis-centers/colorado/100939", "opening_hours": "Mo 09:00-17:00; We 09:00-17:00; Fr 09:00-17:00", "brand": "Fresenius Kidney Care", "brand:wikidata": "Q650259"}, "geometry": {"type": "Point", "coordinates": [-104.858798133919, 39.4055639296804]}},
{"type": "Feature", "id": "dnpFlMEfprRS-ElvJMFPM6Ik_Yo=", "properties": {"ref": "4189", "@spider": "freseniuskidneycare", "addr:full": "12245 Rojas Dr", "addr:city": "El Paso", "addr:state": "Texas", "addr:postcode": "79936", "name": "Fresenius Kidney Care Horizon Dialysis", "phone": "1-800-881-5101", "website": "https://www.freseniuskidneycare.com/dialysis-centers/texas/4189", "opening_hours": "Mo 04:00-19:00; We 04:00-19:00; Fr 04:00-19:00", "brand": "Fresenius Kidney Care", "brand:wikidata": "Q650259"}, "geometry": {"type": "Point", "coordinates": [-106.286411546207, 31.7101941482845]}},
{"type": "Feature", "id": "ZzqbZVHpG_4Ki8RSBniZXW0LZu4=", "properties": {"ref": "4671", "@spider": "freseniuskidneycare", "addr:full": "2578 Medical Dr", "addr:city": "Alamogordo", "addr:state": "New Mexico", "addr:postcode": "88310", "name": "Fresenius Kidney Care Alamogordo", "phone": "1-888-489-4718", "website": "https://www.freseniuskidneycare.com/dialysis-centers/new-mexico/4671", "opening_hours": "Mo-Sa 05:00-17:00", "brand": "Fresenius Kidney Care", "brand:wikidata": "Q650259"}, "geometry": {"type": "Point", "coordinates": [-105.93273460865, 32.9240459532016]}},
{"type": "Feature", "id": "kQB8gWB8_rF18Se0RQC-dWIWOU0=", "properties": {"ref": "2109", "@spider": "freseniuskidneycare", "addr:full": "1012 Hayes Ave", "addr:city": "La Junta", "addr:state": "Colorado", "addr:postcode": "81050", "name": "Fresenius Kidney Care Qci LA Junta", "phone": "1-800-881-5101", "website": "https://www.freseniuskidneycare.com/dialysis-centers/colorado/2109", "opening_hours": "Mo-Sa 06:00-17:00", "brand": "Fresenius Kidney Care", "brand:wikidata": "Q650259"}, "geometry": {"type": "Point", "coordinates": [-103.557043489022, 37.9783632596147]}},
{"type": "Feature", "id": "XoxEKUYMlztfHBPWlx0RnkzTgyU=", "properties": {"ref": "2763", "@spider": "freseniuskidneycare", "addr:full": "2117 N Thomas St", "addr:city": "Clovis", "addr:state": "New Mexico", "addr:postcode": "88101", "name": "Fresenius Kidney Care Plains Regional Dialysis", "phone": "1-888-489-4718", "website": "https://www.freseniuskidneycare.com/dialysis-centers/new-mexico/2763", "opening_hours": "Mo-Sa 07:00-18:00", "brand": "Fresenius Kidney Care", "brand:wikidata": "Q650259"}, "geometry": {"type": "Point", "coordinates": [-103.231337066953, 34.4204473811008]}},
{"type": "Feature", "id": "0-9gzkqzQMp5QSSIwvhAdUURH2E=", "properties": {"ref": "8399", "@spider": "freseniuskidneycare", "addr:full": "230 N Washington Ave", "addr:city": "Odessa", "addr:state": "Texas", "addr:postcode": "79761", "name": "Fresenius Kidney Care Desert Milagro", "phone": "1-800-881-5101", "website": "https://www.freseniuskidneycare.com/dialysis-centers/texas/8399", "opening_hours": "Mo 06:00-18:00", "brand": "Fresenius Kidney Care", "brand:wikidata": "Q650259"}, "geometry": {"type": "Point", "coordinates": [-102.371836602688, 31.8440105040521]}},
{"type": "Feature", "id": "-f2vPoj0iBgXXIJNKiq9Q8X8eQc=", "properties": {"ref": "8819", "@spider": "freseniuskidneycare", "addr:full": "608 N Bedell Ave", "addr:city": "Del Rio", "addr:state": "Texas", "addr:postcode": "78840", "name": "Fresenius Kidney Care Val Verde", "phone": "1-800-881-5101", "website": "https://www.freseniuskidneycare.com/dialysis-centers/texas/8819", "opening_hours": "Mo 05:30-21:00; We 05:30-21:00; Fr 05:30-21:00", "brand": "Fresenius Kidney Care", "brand:wikidata": "Q650259"}, "geometry": {"type": "Point", "coordinates": [-100.892324504299, 29.3728092763753]}},
{"type": "Feature", "id": "QdPxJ7IY8Lj_MzFkgKZw23V7Rts=", "properties": {"ref": "4665", "@spider": "freseniuskidneycare", "addr:full": "785 E Francis St", "addr:city": "North Platte", "addr:state": "Nebraska", "addr:postcode": "69101", "name": "Fresenius Kidney Care North Platte", "phone": "1-800-881-5101", "website": "https://www.freseniuskidneycare.com/dialysis-centers/nebraska/4665", "opening_hours": "Mo 05:00-20:00; Tu 05:00-16:00; We 05:00-20:00; Th 05:00-16:00; Fr 05:00-20:00; Sa 05:00-16:00", "brand": "Fresenius Kidney Care", "brand:wikidata": "Q650259"}, "geometry": {"type": "Point", "coordinates": [-100.755397975445, 41.1231682160383]}},
{"type": "Feature", "id": "Yi6hysm1iMrBTf_vhmGJiz0Kk1Y=", "properties": {"ref": "100154", "@spider": "freseniuskidneycare", "addr:full": "2053 E Mary St", "addr:city": "Garden City", "addr:state": "Kansas", "addr:postcode": "67846", "name": "Fresenius Kidney Care Garden City", "phone": "1-800-881-5101", "website": "https://www.freseniuskidneycare.com/dialysis-centers/kansas/100154", "opening_hours": "Mo-Sa 07:00-17:00", "brand": "Fresenius Kidney Care", "brand:wikidata": "Q650259"}, "geometry": {"type": "Point", "coordinates": [-100.845928244282, 37.9899654115265]}},
{"type": "Feature", "id": "VTJ6M9Mdc-qjTzM0a_ZeeRih-Ps=", "properties": {"ref": "3284", "@spider": "freseniuskidneycare", "addr:full": "3304 Olton Rd", "addr:city": "Plainview", "addr:state": "Texas", "addr:postcode": "79072", "name": "Fresenius Kidney Care Plainview", "phone": "1-800-881-5101", "website": "https://www.freseniuskidneycare.com/dialysis-centers/texas/3284", "opening_hours": "Mo-Tu 05:30-17:30; We 06:30-17:30; Th-Sa 05:30-17:30", "brand": "Fresenius Kidney Care", "brand:wikidata": "Q650259"}, "geometry": {"type": "Point", "coordinates": [-101.743302494287, 34.1864899237888]}},
{"type": "Feature", "id": "lLTnSKxbddLHtCEPTo_ewTO0mEg=", "properties": {"ref": "1820", "@spider": "freseniuskidneycare", "addr:full": "1805 Point West Pkwy", "addr:city": "Amarillo", "addr:state": "Texas", "addr:postcode": "79124", "name": "Fresenius Kidney Care Crown Of Texas", "phone": "1-800-881-5101", "website": "https://www.freseniuskidneycare.com/dialysis-centers/texas/1820", "opening_hours": "Mo 06:00-21:00; Tu 06:00-17:30; We 06:00-21:00; Th 06:00-17:30; Fr 06:00-21:00; Sa 06:00-17:30", "brand": "Fresenius Kidney Care", "brand:wikidata": "Q650259"}, "geometry": {"type": "Point", "coordinates": [-101.928620956791, 35.1933907727373]}},
{"type": "Feature", "id": "hWu_28VhnGs8aBsed5GIDWXrE7Y=", "properties": {"ref": "2712", "@spider": "freseniuskidneycare", "addr:full": "108 Lee Ave", "addr:city": "Lamar", "addr:state": "Colorado", "addr:postcode": "81052", "name": "Fresenius Kidney Care Lamar", "phone": "1-800-881-5101", "website": "https://www.freseniuskidneycare.com/dialysis-centers/colorado/2712", "opening_hours": "Mo 05:00-17:00; We 05:00-17:00; Fr 05:00-17:00", "brand": "Fresenius Kidney Care", "brand:wikidata": "Q650259"}, "geometry": {"type": "Point", "coordinates": [-102.619587326662, 38.0755194041235]}},
{"type": "Feature", "id": "wmq5k8TqhR9Szc9o-cGTdEJZJAg=", "properties": {"ref": "8869", "@spider": "freseniuskidneycare", "addr:full": "2201 N Bedell Ave", "addr:city": "Del Rio", "addr:state": "Texas", "addr:postcode": "78840", "name": "Fresenius Kidney Care Del Rio", "phone": "1-800-881-5101", "website": "https://www.freseniuskidneycare.com/dialysis-centers/texas/8869", "opening_hours": "Mo 05:00-22:00; Tu 05:00-18:00; We 05:00-22:00; Th 05:00-18:00; Fr 05:00-22:00; Sa 05:00-18:00", "brand": "Fresenius Kidney Care", "brand:wikidata": "Q650259"}, "geometry": {"type": "Point", "coordinates": [-100.90110629797, 29.3889783992138]}},
{"type": "Feature", "id": "iFSZaBzGksuDByHM4T6-x9PUzdY=", "properties": {"ref": "1548", "@spider": "freseniuskidneycare", "addr:full": "2545 Perryton Pkwy", "addr:city": "Pampa", "addr:state": "Texas", "addr:postcode": "79065", "name": "Fresenius Kidney Care Pampa", "phone": "1-800-881-5101", "website": "https://www.freseniuskidneycare.com/dialysis-centers/texas/1548", "opening_hours": "Mo 06:30-19:00; Tu 06:30-17:30; We 06:30-19:00; Th 06:30-15:30; Fr 06:30-19:00; Sa 06:30-17:30", "brand": "Fresenius Kidney Care", "brand:wikidata": "Q650259"}, "geometry": {"type": "Point", "coordinates": [-100.969150185847, 35.5671112327715]}},
{"type": "Feature", "id": "BHq_l7gKbnaKabt9NZTiaFbub3g=", "properties": {"ref": "2136", "@spider": "freseniuskidneycare", "addr:full": "907 S Mill St", "addr:city": "Fergus Falls", "addr:state": "Minnesota", "addr:postcode": "56537", "name": "Fresenius Kidney Care Fergus Falls Dialysis", "phone": "1-800-881-5101", "website": "https://www.freseniuskidneycare.com/dialysis-centers/minnesota/2136", "opening_hours": "Mo 04:00-16:30; Tu-Th 04:00-16:00; Fr 04:00-16:30; Sa 04:00-15:00", "brand": "Fresenius Kidney Care", "brand:wikidata": "Q650259"}, "geometry": {"type": "Point", "coordinates": [-96.0733360647828, 46.2749397825514]}},
{"type": "Feature", "id": "zlM83xsolmHHtpbjbqQ6JaVExeM=", "properties": {"ref": "8500", "@spider": "freseniuskidneycare", "addr:full": "2905 Canterbury Dr", "addr:city": "Hays", "addr:state": "Kansas", "addr:postcode": "67601", "name": "Fresenius Kidney Care Hays", "phone": "1-800-881-5101", "website": "https://www.freseniuskidneycare.com/dialysis-centers/kansas/8500", "opening_hours": "Mo 05:30-16:00; Tu 05:30-15:00; We 05:30-16:00; Th 05:30-15:00; Fr 05:30-16:00; Sa 05:30-23:00", "brand": "Fresenius Kidney Care", "brand:wikidata": "Q650259"}, "geometry": {"type": "Point", "coordinates": [-99.2996287644564, 38.888273702472]}},
{"type": "Feature", "id": "1ojSKSUZxjT4z4xs62flQHafyVY=", "properties": {"ref": "101297", "@spider": "freseniuskidneycare", "addr:full": "387 W Interstate 10", "addr:city": "Fort Stockton", "addr:state": "Texas", "addr:postcode": "79735", "name": "Fresenius Kidney Care Fort Stockton", "phone": "1-800-881-5101", "website": "https://www.freseniuskidneycare.com/dialysis-centers/texas/101297", "opening_hours": "Mo-Sa 05:00-18:00", "brand": "Fresenius Kidney Care", "brand:wikidata": "Q650259"}, "geometry": {"type": "Point", "coordinates": [-102.880255, 30.906033]}},
{"type": "Feature", "id": "sf5WjSOB0a0oiZYKvvgWV9JffWA=", "properties": {"ref": "8854", "@spider": "freseniuskidneycare", "addr:full": "3065 Megan St", "addr:city": "Eagle Pass", "addr:state": "Texas", "addr:postcode": "78852", "name": "Fresenius Kidney Care Eagle Pass", "phone": "1-800-881-5101", "website": "https://www.freseniuskidneycare.com/dialysis-centers/texas/8854", "opening_hours": "Mo 06:00-22:00; Tu 06:00-18:00; We 06:00-22:00; Th 06:00-18:00; Fr 06:00-22:00; Sa 06:00-18:00", "brand": "Fresenius Kidney Care", "brand:wikidata": "Q650259"}, "geometry": {"type": "Point", "coordinates": [-100.457276249872, 28.7104865180705]}},
{"type": "Feature", "id": "pOSS6WsAXAx-U1P1iV41LMBnpug=", "properties": {"ref": "7049", "@spider": "freseniuskidneycare", "addr:full": "1600 9th St", "addr:city": "Wichita Falls", "addr:state": "Texas", "addr:postcode": "76301", "name": "Fresenius Kidney Care Wichita Falls", "phone": "1-800-881-5101", "website": "https://www.freseniuskidneycare.com/dialysis-centers/texas/7049", "opening_hours": "Mo-Sa 05:00-22:00", "brand": "Fresenius Kidney Care", "brand:wikidata": "Q650259"}, "geometry": {"type": "Point", "coordinates": [-98.5024738311768, 33.9049855477812]}},
{"type": "Feature", "id": "6KmHzq-xKM9ooFB8a5teHy6erIo=", "properties": {"ref": "4664", "@spider": "freseniuskidneycare", "addr:full": "5210 Parklane Dr", "addr:city": "Kearney", "addr:state": "Nebraska", "addr:postcode": "68847", "name": "Fresenius Kidney Care Overland Trails", "phone": "1-800-881-5101", "website": "https://www.freseniuskidneycare.com/dialysis-centers/nebraska/4664", "opening_hours": "Mo 06:00-20:00; Tu 06:00-16:00; We 06:00-24:00; Th 06:00-16:00; Fr 06:00-20:00; Sa 06:00-16:00", "brand": "Fresenius Kidney Care", "brand:wikidata": "Q650259"}, "geometry": {"type": "Point", "coordinates": [-99.0793499350548, 40.7257505296916]}},
{"type": "Feature", "id": "L-IPqJJokAxxN6Bu_1KD0YrZvYE=", "properties": {"ref": "8503", "@spider": "freseniuskidneycare", "addr:full": "3904 6th St", "addr:city": "Great Bend", "addr:state": "Kansas", "addr:postcode": "67530", "name": "Fresenius Kidney Care Great Bend", "phone": "1-800-881-5101", "website": "https://www.freseniuskidneycare.com/dialysis-centers/kansas/8503", "opening_hours": "Mo 05:30-16:30; Tu 10:00-16:00; We 05:30-16:30; Th 10:00-16:00; Fr 05:30-16:30", "brand": "Fresenius Kidney Care", "brand:wikidata": "Q650259"}, "geometry": {"type": "Point", "coordinates": [-98.7919192668141, 38.3571119631559]}},
{"type": "Feature", "id": "a4M3gOyMF3w3HpKTdBlQVG7FKLU=", "properties": {"ref": "100480", "@spider": "freseniuskidneycare", "addr:full": "357 W Tower Rd", "addr:city": "North Sioux City", "addr:state": "South Dakota", "addr:postcode": "57049", "name": "Fresenius Kidney Care Dakota Dunes", "phone": "1-800-881-5101", "website": "https://www.freseniuskidneycare.com/dialysis-centers/south-dakota/100480", "opening_hours": "Mo-Fr 08:00-17:00", "brand": "Fresenius Kidney Care", "brand:wikidata": "Q650259"}, "geometry": {"type": "Point", "coordinates": [-96.4982425042992, 42.503521564506]}},
{"type": "Feature", "id": "CAf0wk1IBfXvX4Ot7ywE1V8MuX8=", "properties": {"ref": "4497", "@spider": "freseniuskidneycare", "addr:full": "1515 N Us Highway 281", "addr:city": "Marble Falls", "addr:state": "Texas", "addr:postcode": "78654", "name": "Fresenius Kidney Care Marble Falls", "phone": "1-800-881-5101", "website": "https://www.freseniuskidneycare.com/dialysis-centers/texas/4497", "opening_hours": "Mo 05:00-20:30; Tu 05:00-17:00; We 05:00-20:30; Th 05:00-17:00; Fr 05:00-20:30; Sa 05:00-17:00", "brand": "Fresenius Kidney Care", "brand:wikidata": "Q650259"}, "geometry": {"type": "Point", "coordinates": [-98.2715623321539, 30.5852488885726]}},
{"type": "Feature", "id": "QuKNWhq4TB7Q4RKiCB43qXfh2SU=", "properties": {"ref": "1021", "@spider": "freseniuskidneycare", "addr:full": "2533 Central Palm Dr", "addr:city": "Rio Grande City", "addr:state": "Texas", "addr:postcode": "78582", "name": "Fresenius Kidney Care Rio Grande City", "phone": "1-800-881-5101", "website": "https://www.freseniuskidneycare.com/dialysis-centers/texas/1021", "opening_hours": "Mo 05:00-20:00; Tu 05:30-20:30; We 05:00-20:00; Th 05:30-20:30; Fr 05:00-20:00; Sa 05:30-20:30", "brand": "Fresenius Kidney Care", "brand:wikidata": "Q650259"}, "geometry": {"type": "Point", "coordinates": [-98.8548222184181, 26.3775946140248]}},
{"type": "Feature", "id": "J-VocrO0_hYxxWUipVqsIAYPOM4=", "properties": {"ref": "4471", "@spider": "freseniuskidneycare", "addr:full": "222 E Sinton St", "addr:city": "Sinton", "addr:state": "Texas", "addr:postcode": "78387", "name": "Fresenius Kidney Care Sinton", "phone": "1-800-881-5101", "website": "https://www.freseniuskidneycare.com/dialysis-centers/texas/4471", "opening_hours": "Mo-Sa 05:00-22:00", "brand": "Fresenius Kidney Care", "brand:wikidata": "Q650259"}, "geometry": {"type": "Point", "coordinates": [-97.508395537734, 28.0363738288694]}},
{"type": "Feature", "id": "z2OLxvS9MUsz1WVc7z8ygcg_rFg=", "properties": {"ref": "6334", "@spider": "freseniuskidneycare", "addr:full": "700 E Iron Ave", "addr:city": "Salina", "addr:state": "Kansas", "addr:postcode": "67401", "name": "Fresenius Kidney Care Salina", "phone": "1-800-881-5101", "website": "https://www.freseniuskidneycare.com/dialysis-centers/kansas/6334", "opening_hours": "Mo 05:00-17:30; Tu-Th 05:30-17:30; Fr 05:00-17:30; Sa 05:30-17:30", "brand": "Fresenius Kidney Care", "brand:wikidata": "Q650259"}, "geometry": {"type": "Point", "coordinates": [-97.6003678143024, 38.8402131938058]}},
{"type": "Feature", "id": "GAgKb3IwH3cQJuUKiqvEH_06508=", "properties": {"ref": "2378", "@spider": "freseniuskidneycare", "addr:full": "1030 E Highway 377", "addr:city": "Granbury", "addr:state": "Texas", "addr:postcode": "76048", "name": "Fresenius Kidney Care Granbury", "phone": "1-800-881-5101", "website": "https://www.freseniuskidneycare.com/dialysis-centers/texas/2378", "opening_hours": "Mo 04:00-17:30; Tu 04:00-17:00; We 04:00-17:30; Th 04:00-17:00; Fr 04:00-17:30; Sa 04:00-17:00", "brand": "Fresenius Kidney Care", "brand:wikidata": "Q650259"}, "geometry": {"type": "Point", "coordinates": [-97.8019977080668, 32.4348457670631]}},
{"type": "Feature", "id": "v9Mk7zjZsNatGkRZHJ894JyR3_E=", "properties": {"ref": "101330", "@spider": "freseniuskidneycare", "addr:full": "600 E Park Ave Ste 1", "addr:city": "Olivia", "addr:state": "Minnesota", "addr:postcode": "56277", "name": "Fresenius Kidney Care Olivia", "phone": "1-800-881-5101", "website": "https://www.freseniuskidneycare.com/dialysis-centers/minnesota/101330", "opening_hours": "Mo 05:00-16:00; We 05:00-16:00; Fr 05:00-16:00", "brand": "Fresenius Kidney Care", "brand:wikidata": "Q650259"}, "geometry": {"type": "Point", "coordinates": [-94.9847232569392, 44.773644568306]}},
{"type": "Feature", "id": "EFPwmYpx__m6qtd9rMtrZGTTB38=", "properties": {"ref": "100344", "@spider": "freseniuskidneycare", "addr:full": "15801 W Dodge Rd", "addr:city": "Omaha", "addr:state": "Nebraska", "addr:postcode": "68118", "name": "Fresenius Kidney Care Omaha West", "phone": "1-800-881-5101", "website": "https://www.freseniuskidneycare.com/dialysis-centers/nebraska/100344", "opening_hours": "Mo-Sa 07:00-17:00", "brand": "Fresenius Kidney Care", "brand:wikidata": "Q650259"}, "geometry": {"type": "Point", "coordinates": [-96.1618505351921, 41.2615723451422]}},
{"type": "Feature", "id": "x1p-XnTJFruKtzV9ZE3v0uGf7DM=", "properties": {"ref": "5474", "@spider": "freseniuskidneycare", "addr:full": "701 W Central Ave", "addr:city": "El Dorado", "addr:state": "Kansas", "addr:postcode": "67042", "name": "Fresenius Kidney Care El Dorado - Closed", "phone": "1-800-881-5101", "website": "https://www.freseniuskidneycare.com/dialysis-centers/kansas/5474", "brand": "Fresenius Kidney Care", "brand:wikidata": "Q650259"}, "geometry": {"type": "Point", "coordinates": [-96.8585801124573, 37.8170817043501]}},
{"type": "Feature", "id": "ZFUYNzB6x_kUlwFUnv4Po4gTgFw=", "properties": {"ref": "7371", "@spider": "freseniuskidneycare", "addr:full": "3314 Longmire Dr", "addr:city": "College Station", "addr:state": "Texas", "addr:postcode": "77845", "name": "Fresenius Kidney Care College Station", "phone": "1-800-881-5101", "website": "https://www.freseniuskidneycare.com/dialysis-centers/texas/7371", "opening_hours": "Mo 05:00-20:00; Tu 05:00-17:30; We 05:00-20:00; Th 05:00-17:30; Fr 05:00-20:00; Sa 05:00-17:30", "brand": "Fresenius Kidney Care", "brand:wikidata": "Q650259"}, "geometry": {"type": "Point", "coordinates": [-96.2894207239151, 30.5851254945926]}},
{"type": "Feature", "id": "QL5raoSbAi-OWo2Nz28f6U43ZG0=", "properties": {"ref": "1219", "@spider": "freseniuskidneycare", "addr:full": "350 N Expressway", "addr:city": "Brownsville", "addr:state": "Texas", "addr:postcode": "78521", "name": "Fresenius Kidney Care Brownsville", "phone": "1-800-881-5101", "website": "https://www.freseniuskidneycare.com/dialysis-centers/texas/1219", "opening_hours": "Mo-Sa 05:00-19:00", "brand": "Fresenius Kidney Care", "brand:wikidata": "Q650259"}, "geometry": {"type": "Point", "coordinates": [-97.489911, 25.9263912452514]}},
{"type": "Feature", "id": "AOjuOUA8DEqXjDtnE-uP45DJngk=", "properties": {"ref": "7123", "@spider": "freseniuskidneycare", "addr:full": "324 NW J A Richardson Loop", "addr:city": "Ada", "addr:state": "Oklahoma", "addr:postcode": "74820", "name": "Fresenius Kidney Care J.A. Richardson Loop - Ada", "phone": "1-800-881-5101", "website": "https://www.freseniuskidneycare.com/dialysis-centers/oklahoma/7123", "opening_hours": "Mo 05:30-17:00; Tu 05:30-16:30; We 05:30-17:00; Th 05:30-16:30; Fr 05:30-17:00; Sa 05:30-16:30", "brand": "Fresenius Kidney Care", "brand:wikidata": "Q650259"}, "geometry": {"type": "Point", "coordinates": [-96.6827130317688, 34.7904574863778]}},
{"type": "Feature", "id": "mNFvpjtpg9DO0V3xB9cS1neXecM=", "properties": {"ref": "9016", "@spider": "freseniuskidneycare", "addr:full": "3371 W Broadway St", "addr:city": "Muskogee", "addr:state": "Oklahoma", "addr:postcode": "74401", "name": "Fresenius Kidney Care - Muskogee", "phone": "1-800-881-5101", "website": "https://www.freseniuskidneycare.com/dialysis-centers/oklahoma/9016", "opening_hours": "Mo-Sa 07:00-17:00", "brand": "Fresenius Kidney Care", "brand:wikidata": "Q650259"}, "geometry": {"type": "Point", "coordinates": [-95.4039913415909, 35.7557418080526]}},
{"type": "Feature", "id": "tJNhTEptfFj3U8k6jFzRiqwZ28k=", "properties": {"ref": "7088", "@spider": "freseniuskidneycare", "addr:full": "1 1st St Sw", "addr:city": "Le Mars", "addr:state": "Iowa", "addr:postcode": "51031", "name": "Le Mars Dialysis Clinic", "phone": "1-800-881-5101", "website": "https://www.freseniuskidneycare.com/dialysis-centers/iowa/7088", "opening_hours": "Mo 05:00-16:00; We 05:00-16:00; Fr 05:00-16:00", "brand": "Fresenius Kidney Care", "brand:wikidata": "Q650259"}, "geometry": {"type": "Point", "coordinates": [-96.1668524891138, 42.7920586217843]}},
{"type": "Feature", "id": "FLdSeogu39RkTbCHGXtOKjYGIh8=", "properties": {"ref": "100328", "@spider": "freseniuskidneycare", "addr:full": "6011 Broadway St", "addr:city": "Galveston", "addr:state": "Texas", "addr:postcode": "77551", "name": "Fresenius Kidney Care Galveston", "phone": "1-800-881-5101", "website": "https://www.freseniuskidneycare.com/dialysis-centers/texas/100328", "opening_hours": "Mo-Sa 07:00-17:00", "brand": "Fresenius Kidney Care", "brand:wikidata": "Q650259"}, "geometry": {"type": "Point", "coordinates": [-94.8368949741166, 29.2879843980541]}},
{"type": "Feature", "id": "UNikIpWGBKm611ao4ecF4wYa1r8=", "properties": {"ref": "3975", "@spider": "freseniuskidneycare", "addr:full": "3899 Highway 73", "addr:city": "Hibbing", "addr:state": "Minnesota", "addr:postcode": "55746", "name": "Fresenius Kidney Care Hibbing", "phone": "1-800-881-5101", "website": "https://www.freseniuskidneycare.com/dialysis-centers/minnesota/3975", "opening_hours": "Mo 06:00-16:00; We 06:00-16:00; Fr 06:00-16:00", "brand": "Fresenius Kidney Care", "brand:wikidata": "Q650259"}, "geometry": {"type": "Point", "coordinates": [-92.963675, 47.3993287378167]}},
{"type": "Feature", "id": "4VHVdZMYMUWBjcsoroyurVXzl4k=", "properties": {"ref": "2838", "@spider": "freseniuskidneycare", "addr:full": "155 SE 13th St", "addr:city": "Grand Rapids", "addr:state": "Minnesota", "addr:postcode": "55744", "name": "Fresenius Kidney Care Dialysis Services Grand Rapids", "phone": "1-800-881-5101", "website": "https://www.freseniuskidneycare.com/dialysis-centers/minnesota/2838", "opening_hours": "Mo-Sa 06:30-17:00", "brand": "Fresenius Kidney Care", "brand:wikidata": "Q650259"}, "geometry": {"type": "Point", "coordinates": [-93.5260994715726, 47.2179214171014]}},
{"type": "Feature", "id": "Ni8xxNKIcHCIkJ3x3nG812lnuKg=", "properties": {"ref": "100064", "@spider": "freseniuskidneycare", "addr:full": "3408 SE 29th St", "addr:city": "Topeka", "addr:state": "Kansas", "addr:postcode": "66605", "name": "Fresenius Kidney Care Topeka East", "phone": "1-800-881-5101", "website": "https://www.freseniuskidneycare.com/dialysis-centers/kansas/100064", "opening_hours": "Mo-Sa 07:00-17:00", "brand": "Fresenius Kidney Care", "brand:wikidata": "Q650259"}, "geometry": {"type": "Point", "coordinates": [-95.6186429388913, 39.0156127194403]}},
{"type": "Feature", "id": "MR7ggllbgNkKMcrNJCFzK9npSEI=", "properties": {"ref": "8314", "@spider": "freseniuskidneycare", "addr:full": "13901 McAuley Blvd", "addr:city": "Oklahoma City", "addr:state": "Oklahoma", "addr:postcode": "73134", "name": "Fresenius Kidney Care Oklahoma Kidney Care Dialysis", "phone": "1-800-881-5101", "website": "https://www.freseniuskidneycare.com/dialysis-centers/oklahoma/8314", "opening_hours": "Mo-Sa 07:00-17:00", "brand": "Fresenius Kidney Care", "brand:wikidata": "Q650259"}, "geometry": {"type": "Point", "coordinates": [-97.598569393158, 35.6115779753591]}},
{"type": "Feature", "id": "C8PC62lzSk0K_3coiWIZpQBwJQA=", "properties": {"ref": "4919", "@spider": "freseniuskidneycare", "addr:full": "6651 SW 9th St", "addr:city": "Des Moines", "addr:state": "Iowa", "addr:postcode": "50315", "name": "Fresenius Kidney Care Des Moines South", "phone": "1-800-881-5101", "website": "https://www.freseniuskidneycare.com/dialysis-centers/iowa/4919", "opening_hours": "Mo 04:00-16:00; Tu 04:00-20:00; We 04:00-16:00; Th 04:00-20:00; Fr 04:00-16:00; Sa 04:00-20:00", "brand": "Fresenius Kidney Care", "brand:wikidata": "Q650259"}, "geometry": {"type": "Point", "coordinates": [-93.6244453439576, 41.5241379114518]}},
{"type": "Feature", "id": "5QlFDkLKvgLUUxpp8wWkKbXryeA=", "properties": {"ref": "8693", "@spider": "freseniuskidneycare", "addr:full": "1104 E Lincoln Rd", "addr:city": "Idabel", "addr:state": "Oklahoma", "addr:postcode": "74745", "name": "Fresenius Kidney Care Idabel", "phone": "1-800-881-5101", "website": "https://www.freseniuskidneycare.com/dialysis-centers/oklahoma/8693", "opening_hours": "Mo 06:00-17:00; Tu 05:30-16:00; We 06:00-17:00; Th 05:30-16:00; Fr 06:00-17:00; Sa 05:30-16:00", "brand": "Fresenius Kidney Care", "brand:wikidata": "Q650259"}, "geometry": {"type": "Point", "coordinates": [-94.813569588914, 33.8802921421207]}},
{"type": "Feature", "id": "1H83YKewgjbTBzlJ9l5Y6p61-OQ=", "properties": {"ref": "101324", "@spider": "freseniuskidneycare", "addr:full": "111 17th Ave E", "addr:city": "Alexandria", "addr:state": "Minnesota", "addr:postcode": "56308", "name": "Fresenius Kidney Care Douglas County", "phone": "1-800-881-5101", "website": "https://www.freseniuskidneycare.com/dialysis-centers/minnesota/101324", "opening_hours": "Mo-Sa 05:00-18:00", "brand": "Fresenius Kidney Care", "brand:wikidata": "Q650259"}, "geometry": {"type": "Point", "coordinates": [-95.3762915473775, 45.8738323661507]}},
{"type": "Feature", "id": "yCEaGqlfJWaAW5SW2v5hmbzHb4Y=", "properties": {"ref": "100284", "@spider": "freseniuskidneycare", "addr:full": "100 E Arizona Ave", "addr:city": "Sweetwater", "addr:state": "Texas", "addr:postcode": "79556", "name": "Fresenius Kidney Care Rolling Plains", "phone": "1-800-881-5101", "website": "https://www.freseniuskidneycare.com/dialysis-centers/texas/100284", "opening_hours": "Mo-Sa 07:00-17:00", "brand": "Fresenius Kidney Care", "brand:wikidata": "Q650259"}, "geometry": {"type": "Point", "coordinates": [-100.398803871732, 32.4526924464537]}},
{"type": "Feature", "id": "utlJhLuIBA9qTaCmPdLIYvMzm4M=", "properties": {"ref": "8802", "@spider": "freseniuskidneycare", "addr:full": "396 Schilling Dr S", "addr:city": "Dundas", "addr:state": "Minnesota", "addr:postcode": "55019", "name": "Fresenius Kidney Care Cannon Valley", "phone": "1-800-881-5101", "website": "https://www.freseniuskidneycare.com/dialysis-centers/minnesota/8802", "opening_hours": "Mo 07:00-17:00; We 07:00-17:00; Fr 07:00-17:00", "brand": "Fresenius Kidney Care", "brand:wikidata": "Q650259"}, "geometry": {"type": "Point", "coordinates": [-93.1993118724031, 44.4279805897035]}},
{"type": "Feature", "id": "i_ysc474iGB7Fn9_q-0qKuhHH3s=", "properties": {"ref": "4511", "@spider": "freseniuskidneycare", "addr:full": "3826 Troup Hwy", "addr:city": "Tyler", "addr:state": "Texas", "addr:postcode": "75703", "name": "Fresenius Kidney Care South East Tyler", "phone": "1-800-881-5101", "website": "https://www.freseniuskidneycare.com/dialysis-centers/texas/4511", "opening_hours": "Mo-Fr 06:00-17:00; Sa 06:00-18:00", "brand": "Fresenius Kidney Care", "brand:wikidata": "Q650259"}, "geometry": {"type": "Point", "coordinates": [-95.2708293198884, 32.3093096070243]}},
{"type": "Feature", "id": "dQ-wLt273n_X9gB6_VDbk-pq5yI=", "properties": {"ref": "100107", "@spider": "freseniuskidneycare", "addr:full": "707 Gilbert St", "addr:city": "Charles City", "addr:state": "Iowa", "addr:postcode": "50616", "name": "Fresenius Kidney Care Charles City", "phone": "1-800-881-5101", "website": "https://www.freseniuskidneycare.com/dialysis-centers/iowa/100107", "opening_hours": "Mo-Sa 07:00-17:00", "brand": "Fresenius Kidney Care", "brand:wikidata": "Q650259"}, "geometry": {"type": "Point", "coordinates": [-92.6803240962727, 43.0644681641474]}},
{"type": "Feature", "id": "H322YuhFdoBqyhoHi0FpOUwR738=", "properties": {"ref": "4413", "@spider": "freseniuskidneycare", "addr:full": "201 Skyline Dr", "addr:city": "Conway", "addr:state": "Arkansas", "addr:postcode": "72032", "name": "Fresenius Kidney Care Faulkner", "phone": "1-800-881-5101", "website": "https://www.freseniuskidneycare.com/dialysis-centers/arkansas/4413", "opening_hours": "Mo 04:30-18:00; We 04:30-18:00; Fr 04:30-18:00", "brand": "Fresenius Kidney Care", "brand:wikidata": "Q650259"}, "geometry": {"type": "Point", "coordinates": [-92.43074811842, 35.1105910321021]}},
{"type": "Feature", "id": "35SQkuBiSN-V0A-V2w0HM5_pwvk=", "properties": {"ref": "100526", "@spider": "freseniuskidneycare", "addr:full": "1820 Veterans Memorial Dr", "addr:city": "Abbeville", "addr:state": "Louisiana", "addr:postcode": "70510", "name": "Fresenius Kidney Care Veterans Memorial", "phone": "1-800-881-5101", "website": "https://www.freseniuskidneycare.com/dialysis-centers/louisiana/100526", "opening_hours": "Mo 06:00-19:30; Tu 06:00-17:00; We 06:00-19:30; Th 06:00-17:00; Fr 06:00-19:30; Sa 06:00-17:00", "brand": "Fresenius Kidney Care", "brand:wikidata": "Q650259"}, "geometry": {"type": "Point", "coordinates": [-92.115582354535, 29.9797891907983]}},
{"type": "Feature", "id": "5rpDICwURtTg8tj3gwLjCfGkGmo=", "properties": {"ref": "2835", "@spider": "freseniuskidneycare", "addr:full": "4155 Richard Ave", "addr:city": "Hermantown", "addr:state": "Minnesota", "addr:postcode": "55811", "name": "Fresenius Kidney Care Dialysis Services Duluth", "phone": "1-800-881-5101", "website": "https://www.freseniuskidneycare.com/dialysis-centers/minnesota/2835", "opening_hours": "Mo-Sa 09:00-20:00", "brand": "Fresenius Kidney Care", "brand:wikidata": "Q650259"}, "geometry": {"type": "Point", "coordinates": [-92.1771742, 46.8095804]}},
{"type": "Feature", "id": "LE0xkVcsmWOZm9vZjiWYbWXOR0I=", "properties": {"ref": "2757", "@spider": "freseniuskidneycare", "addr:full": "910 Stonner Loop", "addr:city": "Richmond", "addr:state": "Missouri", "addr:postcode": "64085", "name": "Fresenius Kidney Care Letholt", "phone": "1-800-881-5101", "website": "https://www.freseniuskidneycare.com/dialysis-centers/missouri/2757", "opening_hours": "Mo 06:00-17:00; We 06:00-17:00; Fr 06:00-17:00", "brand": "Fresenius Kidney Care", "brand:wikidata": "Q650259"}, "geometry": {"type": "Point", "coordinates": [-93.9573365449905, 39.2643365437775]}},
{"type": "Feature", "id": "kuwSMaloxGnnmn9LGc5UBNbpDXA=", "properties": {"ref": "100146", "@spider": "freseniuskidneycare", "addr:full": "311 Parham St", "addr:city": "Muscatine", "addr:state": "Iowa", "addr:postcode": "52761", "name": "Fresenius Kidney Care Muscatine", "phone": "1-800-881-5101", "website": "https://www.freseniuskidneycare.com/dialysis-centers/iowa/100146", "opening_hours": "Mo 05:00-19:00; Tu 00:00-12:00; We 05:00-19:00; Fr 05:00-19:00", "brand": "Fresenius Kidney Care", "brand:wikidata": "Q650259"}, "geometry": {"type": "Point", "coordinates": [-91.0568198561668, 41.4342218550398]}},
{"type": "Feature", "id": "Y6uVWmS7Y2BAW1n_JzzLL-K8AWk=", "properties": {"ref": "2837", "@spider": "freseniuskidneycare", "addr:full": "233 McKinley Ave", "addr:city": "Eveleth", "addr:state": "Minnesota", "addr:postcode": "55734", "name": "Fresenius Kidney Care Dialysis Services Eveleth", "phone": "1-800-881-5101", "website": "https://www.freseniuskidneycare.com/dialysis-centers/minnesota/2837", "opening_hours": "Mo-Sa 06:00-16:30", "brand": "Fresenius Kidney Care", "brand:wikidata": "Q650259"}, "geometry": {"type": "Point", "coordinates": [-92.5355413183934, 47.4615235415075]}},
{"type": "Feature", "id": "UisiWIkNrOGomxb4zU-2yAqTxUw=", "properties": {"ref": "101254", "@spider": "freseniuskidneycare", "addr:full": "2661 County Highway I", "addr:city": "Chippewa Falls", "addr:state": "Wisconsin", "addr:postcode": "54729", "name": "Fresenius Kidney Care Chippewa Falls", "phone": "1-800-881-5101", "website": "https://www.freseniuskidneycare.com/dialysis-centers/wisconsin/101254", "brand": "Fresenius Kidney Care", "brand:wikidata": "Q650259"}, "geometry": {"type": "Point", "coordinates": [-91.3596931892392, 44.9508880074209]}},
{"type": "Feature", "id": "SvoR4cKOaccW0uobD6mG0BySlSs=", "properties": {"ref": "101327", "@spider": "freseniuskidneycare", "addr:full": "520 11th Ave Sw", "addr:city": "Cambridge", "addr:state": "Minnesota", "addr:postcode": "55008", "name": "Fresenius Kidney Care Cambridge", "phone": "1-800-881-5101", "website": "https://www.freseniuskidneycare.com/dialysis-centers/minnesota/101327", "opening_hours": "Mo-Sa 05:00-18:00", "brand": "Fresenius Kidney Care", "brand:wikidata": "Q650259"}, "geometry": {"type": "Point", "coordinates": [-93.230348, 45.562094]}},
{"type": "Feature", "id": "ZIP7A5gKUQtSIWi6pfgRRV4b7ng=", "properties": {"ref": "101044", "@spider": "freseniuskidneycare", "addr:full": "1070 S Bishop Ave", "addr:city": "Rolla", "addr:state": "Missouri", "addr:postcode": "65401", "name": "Fresenius Kidney Care Phelps County", "phone": "1-800-881-5101", "website": "https://www.freseniuskidneycare.com/dialysis-centers/missouri/101044", "opening_hours": "Mo 08:00-16:00; We 08:00-16:00; Fr 08:00-16:00", "brand": "Fresenius Kidney Care", "brand:wikidata": "Q650259"}, "geometry": {"type": "Point", "coordinates": [-91.7801243253994, 37.9273054239906]}},
{"type": "Feature", "id": "RJ-mvF2MoexRsTGg7tX1AciWjwk=", "properties": {"ref": "6199", "@spider": "freseniuskidneycare", "addr:full": "10342 Dyno Dr", "addr:city": "Hayward", "addr:state": "Wisconsin", "addr:postcode": "54843", "name": "Fresenius Kidney Care Hayward WI", "phone": "1-800-881-5101", "website": "https://www.freseniuskidneycare.com/dialysis-centers/wisconsin/6199", "opening_hours": "Mo-Sa 07:00-17:00", "brand": "Fresenius Kidney Care", "brand:wikidata": "Q650259"}, "geometry": {"type": "Point", "coordinates": [-91.4909831682883, 46.0072666621112]}},
{"type": "Feature", "id": "kkG1mHy1D43hCa8dOWq-Wa6FekA=", "properties": {"ref": "3865", "@spider": "freseniuskidneycare", "addr:full": "219 Mills Ave", "addr:city": "Ruston", "addr:state": "Louisiana", "addr:postcode": "71270", "name": "Fresenius Kidney Care Lincoln Kidney Center", "phone": "1-800-881-5101", "website": "https://www.freseniuskidneycare.com/dialysis-centers/louisiana/3865", "opening_hours": "Mo-Sa 05:00-17:00", "brand": "Fresenius Kidney Care", "brand:wikidata": "Q650259"}, "geometry": {"type": "Point", "coordinates": [-92.6366248726844, 32.5200731765371]}},
{"type": "Feature", "id": "7hkp-LNI7-r6a2Gxl22Fn9_KyeY=", "properties": {"ref": "4435", "@spider": "freseniuskidneycare", "addr:full": "2101 W Broadway St", "addr:city": "Bolivar", "addr:state": "Missouri", "addr:postcode": "65613", "name": "Fresenius Kidney Care Bolivar", "phone": "1-800-881-5101", "website": "https://www.freseniuskidneycare.com/dialysis-centers/missouri/4435", "opening_hours": "Mo-Su 06:00-17:00", "brand": "Fresenius Kidney Care", "brand:wikidata": "Q650259"}, "geometry": {"type": "Point", "coordinates": [-93.4340965747833, 37.612880106751]}},
{"type": "Feature", "id": "x2fSGwQag0n2oe4679U10WSFa68=", "properties": {"ref": "6845", "@spider": "freseniuskidneycare", "addr:full": "64 S Price Rd", "addr:city": "Brownsville", "addr:state": "Texas", "addr:postcode": "78521", "name": "Fresenius Kidney Care South Price", "phone": "1-800-881-5101", "website": "https://www.freseniuskidneycare.com/dialysis-centers/texas/6845", "opening_hours": "Mo-Sa 07:00-17:00", "brand": "Fresenius Kidney Care", "brand:wikidata": "Q650259"}, "geometry": {"type": "Point", "coordinates": [-97.4865395899587, 25.9338249802066]}},
{"type": "Feature", "id": "onZKqHXIvU5vhE0Ah-tcrnQGi5M=", "properties": {"ref": "1483", "@spider": "freseniuskidneycare", "addr:full": "1856 Hospital Dr", "addr:city": "Jackson", "addr:state": "Mississippi", "addr:postcode": "39204", "name": "Fresenius Kidney Care Southwest Jackson", "phone": "1-800-881-5101", "website": "https://www.freseniuskidneycare.com/dialysis-centers/mississippi/1483", "opening_hours": "Mo-Sa 05:00-17:00", "brand": "Fresenius Kidney Care", "brand:wikidata": "Q650259"}, "geometry": {"type": "Point", "coordinates": [-90.2534553408623, 32.283232464696]}},
{"type": "Feature", "id": "3dTVUI8Cl1-HK4HGur6KND3Inzs=", "properties": {"ref": "6498", "@spider": "freseniuskidneycare", "addr:full": "1009 Harbor Hills Dr", "addr:city": "Marquette", "addr:state": "Michigan", "addr:postcode": "49855", "name": "Fresenius Kidney Care Marquette", "phone": "1-800-881-5101", "website": "https://www.freseniuskidneycare.com/dialysis-centers/michigan/6498", "opening_hours": "Mo-Fr 06:00-16:00; Sa 06:00-15:00", "brand": "Fresenius Kidney Care", "brand:wikidata": "Q650259"}, "geometry": {"type": "Point", "coordinates": [-87.40033175809, 46.5551246505971]}},
{"type": "Feature", "id": "4LudlSmEHlhaZwM5-40uAOe_52I=", "properties": {"ref": "1980", "@spider": "freseniuskidneycare", "addr:full": "1001 E Moultrie Dr", "addr:city": "Blytheville", "addr:state": "Arkansas", "addr:postcode": "72315", "name": "Fresenius Kidney Care Blytheville", "phone": "1-800-881-5101", "website": "https://www.freseniuskidneycare.com/dialysis-centers/arkansas/1980", "opening_hours": "Mo 04:30-20:30; Tu 04:30-18:00; We 04:30-20:30; Th 04:30-18:00; Fr 04:30-20:30; Sa 04:30-18:00", "brand": "Fresenius Kidney Care", "brand:wikidata": "Q650259"}, "geometry": {"type": "Point", "coordinates": [-89.8824548721313, 35.9358274936762]}},
{"type": "Feature", "id": "4DPpFi-C6wqkVq_ic39_v7D4dbE=", "properties": {"ref": "4418", "@spider": "freseniuskidneycare", "addr:full": "2910 Market St", "addr:city": "Pine Bluff", "addr:state": "Arkansas", "addr:postcode": "71601", "name": "Fresenius Kidney Care Pine Bluff", "phone": "1-800-881-5101", "website": "https://www.freseniuskidneycare.com/dialysis-centers/arkansas/4418", "opening_hours": "Mo-Sa 05:30-22:00", "brand": "Fresenius Kidney Care", "brand:wikidata": "Q650259"}, "geometry": {"type": "Point", "coordinates": [-91.9699403643608, 34.2124720189251]}},
{"type": "Feature", "id": "BbUVuIrfppPewQGnD_dGr8ozud0=", "properties": {"ref": "100472", "@spider": "freseniuskidneycare", "addr:full": "707 Grand Caillou Rd", "addr:city": "Houma", "addr:state": "Louisiana", "addr:postcode": "70363", "name": "Fresenius Kidney Care East Houma", "phone": "1-800-881-5101", "website": "https://www.freseniuskidneycare.com/dialysis-centers/louisiana/100472", "opening_hours": "Mo-Fr 06:30-17:00; Sa 06:30-16:00", "brand": "Fresenius Kidney Care", "brand:wikidata": "Q650259"}, "geometry": {"type": "Point", "coordinates": [-90.7006278634071, 29.587221873102]}},
{"type": "Feature", "id": "bbQDG6pxdl3esionRyEAJwGxtWg=", "properties": {"ref": "5450", "@spider": "freseniuskidneycare", "addr:full": "2356 N Bloomington St", "addr:city": "Streator", "addr:state": "Illinois", "addr:postcode": "61364", "name": "Fresenius Kidney Care Streator IL", "phone": "1-800-881-5101", "website": "https://www.freseniuskidneycare.com/dialysis-centers/illinois/5450", "opening_hours": "Mo 05:30-16:00; Tu 05:30-15:00; We 05:30-16:00; Th 05:30-15:00; Fr 05:30-16:00; Sa 05:30-15:00", "brand": "Fresenius Kidney Care", "brand:wikidata": "Q650259"}, "geometry": {"type": "Point", "coordinates": [-88.8333088737579, 41.1491899162781]}},
{"type": "Feature", "id": "V_GOqxGpE3fZVFuLMGkwujc4h9E=", "properties": {"ref": "1647", "@spider": "freseniuskidneycare", "addr:full": "75 Eastgate Plz", "addr:city": "East Alton", "addr:state": "Illinois", "addr:postcode": "62024", "name": "Fresenius Kidney Care Southwestern Illinois", "phone": "1-800-881-5101", "website": "https://www.freseniuskidneycare.com/dialysis-centers/illinois/1647", "opening_hours": "Mo 06:00-21:00; Tu 06:00-17:30; We 06:00-21:00; Th 06:00-17:30; Fr 06:00-21:30; Sa 06:00-17:30", "brand": "Fresenius Kidney Care", "brand:wikidata": "Q650259"}, "geometry": {"type": "Point", "coordinates": [-90.1192154021357, 38.8795635912239]}},
{"type": "Feature", "id": "frg73voMuP3uIoPEC9cU0U5pq0E=", "properties": {"ref": "2433", "@spider": "freseniuskidneycare", "addr:full": "900 Skyline Dr", "addr:city": "Marion", "addr:state": "Illinois", "addr:postcode": "62959", "name": "Fresenius Kidney Care Williamson County", "phone": "1-800-881-5101", "website": "https://www.freseniuskidneycare.com/dialysis-centers/illinois/2433", "opening_hours": "Mo-Sa 05:00-15:30", "brand": "Fresenius Kidney Care", "brand:wikidata": "Q650259"}, "geometry": {"type": "Point", "coordinates": [-88.9851019636241, 37.7424274631719]}},
{"type": "Feature", "id": "momo0g9G0W2d565hw69KzfdcHm4=", "properties": {"ref": "3604", "@spider": "freseniuskidneycare", "addr:full": "3301 25th Ave", "addr:city": "Gulfport", "addr:state": "Mississippi", "addr:postcode": "39501", "name": "Fresenius Kidney Care North Gulfport Home Program", "phone": "1-800-881-5101", "website": "https://www.freseniuskidneycare.com/dialysis-centers/mississippi/3604", "opening_hours": "Mo-Sa 07:00-17:00", "brand": "Fresenius Kidney Care", "brand:wikidata": "Q650259"}, "geometry": {"type": "Point", "coordinates": [-89.0939565002918, 30.3904860966446]}},
{"type": "Feature", "id": "6HJtUUXf4NV0nWzBUeZ3ynBLLPo=", "properties": {"ref": "6058", "@spider": "freseniuskidneycare", "addr:full": "102 Grand Seasons Dr", "addr:city": "Waupaca", "addr:state": "Wisconsin", "addr:postcode": "54981", "name": "Fresenius Kidney Care Waupaca", "phone": "1-800-881-5101", "website": "https://www.freseniuskidneycare.com/dialysis-centers/wisconsin/6058", "opening_hours": "Mo-Sa 05:30-16:00", "brand": "Fresenius Kidney Care", "brand:wikidata": "Q650259"}, "geometry": {"type": "Point", "coordinates": [-89.1176980733871, 44.3569697126127]}},
{"type": "Feature", "id": "QugGFyKZp-zcX3_RYkkXE2yEj-g=", "properties": {"ref": "4737", "@spider": "freseniuskidneycare", "addr:full": "2978 Mattox St", "addr:city": "Tupelo", "addr:state": "Mississippi", "addr:postcode": "38801", "name": "Fresenius Kidney Care Tupelo", "phone": "1-800-881-5101", "website": "https://www.freseniuskidneycare.com/dialysis-centers/mississippi/4737", "opening_hours": "Mo 06:00-22:00; Tu 06:00-21:00; We 06:00-22:00; Th 06:00-21:00; Fr 06:00-22:00; Sa 06:00-21:00", "brand": "Fresenius Kidney Care", "brand:wikidata": "Q650259"}, "geometry": {"type": "Point", "coordinates": [-88.7175245583057, 34.2158678229323]}},
{"type": "Feature", "id": "lKyFhF_dLQsi1rB3jet4uBDlu54=", "properties": {"ref": "9457", "@spider": "freseniuskidneycare", "addr:full": "800 Compassion Way", "addr:city": "Dodgeville", "addr:state": "Wisconsin", "addr:postcode": "53533", "name": "Fresenius Kidney Care Dodgeville", "phone": "1-800-881-5101", "website": "https://www.freseniuskidneycare.com/dialysis-centers/wisconsin/9457", "opening_hours": "Mo 05:30-18:00; Tu 05:30-16:30; We 05:30-18:00; Th 05:30-16:30; Fr 05:30-18:00; Sa 05:30-16:30", "brand": "Fresenius Kidney Care", "brand:wikidata": "Q650259"}, "geometry": {"type": "Point", "coordinates": [-90.1294434070587, 42.9517542386694]}},
{"type": "Feature", "id": "KqL7N6AfOcZqDV5UiY6zc11lA1U=", "properties": {"ref": "8714", "@spider": "freseniuskidneycare", "addr:full": "6810 Green Bay Rd Ste 1", "addr:city": "Kenosha", "addr:state": "Wisconsin", "addr:postcode": "53142", "name": "Fresenius Kidney Care Kenosha", "phone": "1-800-881-5101", "website": "https://www.freseniuskidneycare.com/dialysis-centers/wisconsin/8714", "opening_hours": "Mo 05:00-20:30; Tu 05:00-16:00; We 05:00-20:30; Th 05:00-16:00; Fr 05:00-20:30; Sa 05:00-16:00", "brand": "Fresenius Kidney Care", "brand:wikidata": "Q650259"}, "geometry": {"type": "Point", "coordinates": [-87.888944054786, 42.5734480161891]}},
{"type": "Feature", "id": "8O-x3I45cGr49L7vvDggnJynfSE=", "properties": {"ref": "5488", "@spider": "freseniuskidneycare", "addr:full": "193 Brown Jct", "addr:city": "Centerville", "addr:state": "Tennessee", "addr:postcode": "37033", "name": "Fresenius Kidney Care Centerville TN", "phone": "1-800-881-5101", "website": "https://www.freseniuskidneycare.com/dialysis-centers/tennessee/5488", "opening_hours": "Mo 05:00-17:00; We 05:00-17:00; Fr 05:00-17:00", "brand": "Fresenius Kidney Care", "brand:wikidata": "Q650259"}, "geometry": {"type": "Point", "coordinates": [-87.4673031085239, 35.7833724275409]}},
{"type": "Feature", "id": "HGxLSo6Zj26LLDrZ-9yd7ZNLIzE=", "properties": {"ref": "4363", "@spider": "freseniuskidneycare", "addr:full": "1333 Smith St", "addr:city": "Logansport", "addr:state": "Indiana", "addr:postcode": "46947", "name": "Fresenius Kidney Care Logansport", "phone": "1-800-881-5101", "website": "https://www.freseniuskidneycare.com/dialysis-centers/indiana/4363", "opening_hours": "Mo-Sa 04:30-20:30", "brand": "Fresenius Kidney Care", "brand:wikidata": "Q650259"}, "geometry": {"type": "Point", "coordinates": [-86.3532149791718, 40.766976935261]}},
{"type": "Feature", "id": "AJhEgyMAatbxsP0fgH5aQZFBdhE=", "properties": {"ref": "6983", "@spider": "freseniuskidneycare", "addr:full": "1324 Woodland Dr", "addr:city": "Elizabethtown", "addr:state": "Kentucky", "addr:postcode": "42701", "name": "Fresenius Kidney Care Hardin County", "phone": "1-800-881-5101", "website": "https://www.freseniuskidneycare.com/dialysis-centers/kentucky/6983", "opening_hours": "Mo 06:00-21:30; Tu 06:00-15:00; We 06:00-21:30; Th 06:00-15:00; Fr 06:00-21:30; Sa 06:00-15:00", "brand": "Fresenius Kidney Care", "brand:wikidata": "Q650259"}, "geometry": {"type": "Point", "coordinates": [-85.8858101662531, 37.7255828308726]}},
{"type": "Feature", "id": "-0igUOlcOvWSPRlX6sLf0ipn7Fw=", "properties": {"ref": "2828", "@spider": "freseniuskidneycare", "addr:full": "30230 Highway 43", "addr:city": "Thomasville", "addr:state": "Alabama", "addr:postcode": "36784", "name": "Fresenius Kidney Care Thomasville", "phone": "1-800-881-5101", "website": "https://www.freseniuskidneycare.com/dialysis-centers/alabama/2828", "opening_hours": "Mo 05:30-17:00; Tu 05:30-12:00; We 05:30-17:00; Th 05:30-12:00; Fr 05:30-17:00; Sa 05:30-12:00", "brand": "Fresenius Kidney Care", "brand:wikidata": "Q650259"}, "geometry": {"type": "Point", "coordinates": [-87.7442025393248, 31.8814113880192]}},
{"type": "Feature", "id": "2YNW-LFgG6x8Gc6kCRBXyRe0C8s=", "properties": {"ref": "8898", "@spider": "freseniuskidneycare", "addr:full": "4304 Lancaster Dr", "addr:city": "Niceville", "addr:state": "Florida", "addr:postcode": "32578", "name": "Fresenius Kidney Care Niceville", "phone": "1-800-881-5101", "website": "https://www.freseniuskidneycare.com/dialysis-centers/florida/8898", "opening_hours": "Mo-Sa 06:30-17:00", "brand": "Fresenius Kidney Care", "brand:wikidata": "Q650259"}, "geometry": {"type": "Point", "coordinates": [-86.4367662090808, 30.4971419172913]}},
{"type": "Feature", "id": "yVxPhsX6pvoCrMCWMcGr0M9nnYo=", "properties": {"ref": "4532", "@spider": "freseniuskidneycare", "addr:full": "150 Gilbreath Dr", "addr:city": "Oneonta", "addr:state": "Alabama", "addr:postcode": "35121", "name": "Fresenius Kidney Care Oneonta", "phone": "1-800-881-5101", "website": "https://www.freseniuskidneycare.com/dialysis-centers/alabama/4532", "opening_hours": "Mo-Sa 05:00-17:00", "brand": "Fresenius Kidney Care", "brand:wikidata": "Q650259"}, "geometry": {"type": "Point", "coordinates": [-86.4943333135941, 33.9319763568375]}},
{"type": "Feature", "id": "mpcZEW30VbkdcWJaLHZR5XD1j3k=", "properties": {"ref": "6322", "@spider": "freseniuskidneycare", "addr:full": "1711 S Stephenson Ave", "addr:city": "Iron Mountain", "addr:state": "Michigan", "addr:postcode": "49801", "name": "Fresenius Kidney Care Iron Mountain", "phone": "1-800-881-5101", "website": "https://www.freseniuskidneycare.com/dialysis-centers/michigan/6322", "opening_hours": "Mo 06:00-17:00; Tu 07:00-16:00; We 06:00-17:00; Th 07:00-16:00; Fr 06:00-17:00; Sa 07:00-16:00", "brand": "Fresenius Kidney Care", "brand:wikidata": "Q650259"}, "geometry": {"type": "Point", "coordinates": [-88.0455574393272, 45.8093117695005]}},
{"type": "Feature", "id": "2fZhowqxPocRIMRx6njGVDypGgE=", "properties": {"ref": "3279", "@spider": "freseniuskidneycare", "addr:full": "1705 E Industrial Dr", "addr:city": "Terre Haute", "addr:state": "Indiana", "addr:postcode": "47802", "name": "Fresenius Kidney Care Vigo County", "phone": "1-800-881-5101", "website": "https://www.freseniuskidneycare.com/dialysis-centers/indiana/3279", "opening_hours": "Mo 06:00-17:00; Tu 09:00-16:00; We 06:00-17:00; Th 09:00-16:00; Fr 06:00-17:00; Sa 09:00-16:00", "brand": "Fresenius Kidney Care", "brand:wikidata": "Q650259"}, "geometry": {"type": "Point", "coordinates": [-87.3895303, 39.3451351]}},
{"type": "Feature", "id": "DnIN0W6PsnZPHdtvnNaUlvPob7g=", "properties": {"ref": "4375", "@spider": "freseniuskidneycare", "addr:full": "2405 Ludington St", "addr:city": "Escanaba", "addr:state": "Michigan", "addr:postcode": "49829", "name": "Fresenius Kidney Care Escanaba", "phone": "1-800-881-5101", "website": "https://www.freseniuskidneycare.com/dialysis-centers/michigan/4375", "opening_hours": "Mo 06:00-16:00; Tu 05:30-14:30; We 06:00-16:00; Th 05:30-14:30; Fr 06:00-16:00; Sa 05:30-14:30", "brand": "Fresenius Kidney Care", "brand:wikidata": "Q650259"}, "geometry": {"type": "Point", "coordinates": [-87.0830872613256, 45.7454072493058]}},
{"type": "Feature", "id": "dD4s89gAahOH1QoeUjaaBbXu8gk=", "properties": {"ref": "8366", "@spider": "freseniuskidneycare", "addr:full": "1230 W State St", "addr:city": "Hastings", "addr:state": "Michigan", "addr:postcode": "49058", "name": "Fresenius Kidney Care Hastings", "phone": "1-800-881-5101", "website": "https://www.freseniuskidneycare.com/dialysis-centers/michigan/8366", "opening_hours": "Mo 04:00-17:00; Tu 04:30-17:00; We 04:00-17:00; Th 04:30-17:00; Fr 04:00-17:00; Sa 04:30-17:00", "brand": "Fresenius Kidney Care", "brand:wikidata": "Q650259"}, "geometry": {"type": "Point", "coordinates": [-85.3014671802521, 42.6478057300277]}},
{"type": "Feature", "id": "QBvu5d6Z1Q_FI7rkmSL6qBMJwRc=", "properties": {"ref": "6085", "@spider": "freseniuskidneycare", "addr:full": "999 N Michigan Ave", "addr:city": "Greensburg", "addr:state": "Indiana", "addr:postcode": "47240", "name": "Fresenius Kidney Care Greensburg IN", "phone": "1-800-881-5101", "website": "https://www.freseniuskidneycare.com/dialysis-centers/indiana/6085", "opening_hours": "Mo 06:00-19:00; We 06:00-19:00; Fr 06:00-19:00", "brand": "Fresenius Kidney Care", "brand:wikidata": "Q650259"}, "geometry": {"type": "Point", "coordinates": [-85.4967587024641, 39.3452423341664]}},
{"type": "Feature", "id": "G5u4wxBX3bXtgFfw4Xkv64GG_5A=", "properties": {"ref": "8878", "@spider": "freseniuskidneycare", "addr:full": "2500 Commercial Dr", "addr:city": "Port Allen", "addr:state": "Louisiana", "addr:postcode": "70767", "name": "Fresenius Kidney Care Westport", "phone": "1-800-881-5101", "website": "https://www.freseniuskidneycare.com/dialysis-centers/louisiana/8878", "opening_hours": "Mo 05:30-17:30; Tu 05:30-17:00; We 05:30-17:30; Th 05:30-17:00; Fr 05:30-17:30; Sa 05:30-17:00", "brand": "Fresenius Kidney Care", "brand:wikidata": "Q650259"}, "geometry": {"type": "Point", "coordinates": [-91.2382198870455, 30.4495469495077]}},
{"type": "Feature", "id": "hhxw5uXxy2gPS0p9WPz8GHXb6ck=", "properties": {"ref": "100712", "@spider": "freseniuskidneycare", "addr:full": "50 N 11th St", "addr:city": "Beaumont", "addr:state": "Texas", "addr:postcode": "77702", "name": "Fresenius Kidney Care Beaumont", "phone": "1-800-881-5101", "website": "https://www.freseniuskidneycare.com/dialysis-centers/texas/100712", "opening_hours": "Mo-Sa 07:00-17:00", "brand": "Fresenius Kidney Care", "brand:wikidata": "Q650259"}, "geometry": {"type": "Point", "coordinates": [-94.1292000932132, 30.07962740297]}},
{"type": "Feature", "id": "3F2oDA-hy0pIUOkdwYE7UPRgYbk=", "properties": {"ref": "100196", "@spider": "freseniuskidneycare", "addr:full": "601 State Route 224", "addr:city": "Ottawa", "addr:state": "Ohio", "addr:postcode": "45875", "name": "Fresenius Kidney Care Putnam County", "phone": "1-800-881-5101", "website": "https://www.freseniuskidneycare.com/dialysis-centers/ohio/100196", "opening_hours": "Mo 05:30-16:30; We 05:30-16:30; Fr 05:30-16:30", "brand": "Fresenius Kidney Care", "brand:wikidata": "Q650259"}, "geometry": {"type": "Point", "coordinates": [-84.0690521952595, 41.0198447617283]}},
{"type": "Feature", "id": "1J0Yppee3eSU5Mo3bMjYbTz-PUQ=", "properties": {"ref": "6305", "@spider": "freseniuskidneycare", "addr:full": "1293 E Parkdale Ave", "addr:city": "Manistee", "addr:state": "Michigan", "addr:postcode": "49660", "name": "Fresenius Kidney Care Manistee", "phone": "1-800-881-5101", "website": "https://www.freseniuskidneycare.com/dialysis-centers/michigan/6305", "opening_hours": "Mo-Sa 06:00-15:30", "brand": "Fresenius Kidney Care", "brand:wikidata": "Q650259"}, "geometry": {"type": "Point", "coordinates": [-86.275779068601, 44.2710611332738]}},
{"type": "Feature", "id": "wsoH1nuSWSnNGHUBclYz9kCe89Y=", "properties": {"ref": "101317", "@spider": "freseniuskidneycare", "addr:full": "99 Dooley St", "addr:city": "Crossville", "addr:state": "Tennessee", "addr:postcode": "38555", "name": "Fresenius Kidney Care Crossville Home", "phone": "1-800-881-5101", "website": "https://www.freseniuskidneycare.com/dialysis-centers/tennessee/101317", "opening_hours": "Mo-Fr 07:00-17:00", "brand": "Fresenius Kidney Care", "brand:wikidata": "Q650259"}, "geometry": {"type": "Point", "coordinates": [-85.0324835364445, 35.9601909618371]}},
{"type": "Feature", "id": "Qgorsu-2cy4PiN6Gxrt3phaddI4=", "properties": {"ref": "4994", "@spider": "freseniuskidneycare", "addr:full": "185 Old Peachtree Rd Nw", "addr:city": "Suwanee", "addr:state": "Georgia", "addr:postcode": "30024", "name": "Fresenius Kidney Care North Gwinnett", "phone": "1-800-881-5101", "website": "https://www.freseniuskidneycare.com/dialysis-centers/georgia/4994", "opening_hours": "Mo 04:00-21:00; Tu 06:00-17:00; We 04:00-21:00; Th 06:00-16:30; Fr 04:00-21:00; Sa 06:00-16:00", "brand": "Fresenius Kidney Care", "brand:wikidata": "Q650259"}, "geometry": {"type": "Point", "coordinates": [-84.050104022026, 34.0245318975249]}},
{"type": "Feature", "id": "OuyXfYeZtifcigUwIYMlP5Ozk20=", "properties": {"ref": "100450", "@spider": "freseniuskidneycare", "addr:full": "2600 Centennial Pl", "addr:city": "Tallahassee", "addr:state": "Florida", "addr:postcode": "32308", "name": "Fresenius Kidney Care Central Tallahassee", "phone": "1-800-881-5101", "website": "https://www.freseniuskidneycare.com/dialysis-centers/florida/100450", "opening_hours": "Mo 05:30-20:30; Tu 05:30-16:00; We 05:30-20:30; Th 05:30-16:00; Fr 05:30-20:30; Sa 05:30-16:00", "brand": "Fresenius Kidney Care", "brand:wikidata": "Q650259"}, "geometry": {"type": "Point", "coordinates": [-84.2309102419282, 30.4815595544803]}},
{"type": "Feature", "id": "Q3g9lXg2BSIPyXK6PDmwu2ASVd4=", "properties": {"ref": "8426", "@spider": "freseniuskidneycare", "addr:full": "820 Veterans Dr", "addr:city": "Jackson", "addr:state": "Ohio", "addr:postcode": "45640", "name": "Fresenius Kidney Care Indian Hills", "phone": "1-800-881-5101", "website": "https://www.freseniuskidneycare.com/dialysis-centers/ohio/8426", "opening_hours": "Mo 05:30-18:30; We 05:30-18:30; Fr 05:30-18:30", "brand": "Fresenius Kidney Care", "brand:wikidata": "Q650259"}, "geometry": {"type": "Point", "coordinates": [-82.6199233531952, 39.0368571428947]}},
{"type": "Feature", "id": "vCc-VdP6Lix6pf92hNll7Od03QY=", "properties": {"ref": "9188", "@spider": "freseniuskidneycare", "addr:full": "509 Richmond Rd N", "addr:city": "Berea", "addr:state": "Kentucky", "addr:postcode": "40403", "name": "Fresenius Kidney Care Berea", "phone": "1-800-881-5101", "website": "https://www.freseniuskidneycare.com/dialysis-centers/kentucky/9188", "opening_hours": "Mo-Sa 07:00-17:00", "brand": "Fresenius Kidney Care", "brand:wikidata": "Q650259"}, "geometry": {"type": "Point", "coordinates": [-84.2841323519579, 37.5919725279593]}},
{"type": "Feature", "id": "woyZinJ4E8TjAwsryy8QRz49oKQ=", "properties": {"ref": "6995", "@spider": "freseniuskidneycare", "addr:full": "2100 Harrison Ave", "addr:city": "Panama City", "addr:state": "Florida", "addr:postcode": "32405", "name": "Fresenius Kidney Care Panama City", "phone": "1-800-881-5101", "website": "https://www.freseniuskidneycare.com/dialysis-centers/florida/6995", "opening_hours": "Mo 05:00-17:00; Tu 07:00-17:00; We 05:00-17:00; Th 07:00-17:00; Fr 05:00-17:00; Sa 07:00-13:00", "brand": "Fresenius Kidney Care", "brand:wikidata": "Q650259"}, "geometry": {"type": "Point", "coordinates": [-85.6576645374298, 30.1863492290386]}},
{"type": "Feature", "id": "0BCJBlmE3rPjGkek5orfZrq6F2U=", "properties": {"ref": "100948", "@spider": "freseniuskidneycare", "addr:full": "3214 Flagler Ave", "addr:city": "Key West", "addr:state": "Florida", "addr:postcode": "33040", "name": "Fresenius Kidney Care Key West", "phone": "1-800-881-5101", "website": "https://www.freseniuskidneycare.com/dialysis-centers/florida/100948", "opening_hours": "Mo-Sa 05:00-18:00", "brand": "Fresenius Kidney Care", "brand:wikidata": "Q650259"}, "geometry": {"type": "Point", "coordinates": [-81.7634129766456, 24.561480886327]}},
{"type": "Feature", "id": "1DE7deIxCwSlGMUItKVRVjln9gg=", "properties": {"ref": "4170", "@spider": "freseniuskidneycare", "addr:full": "105 Melvin Page Dr", "addr:city": "Vidalia", "addr:state": "Georgia", "addr:postcode": "30474", "name": "Fresenius Kidney Care Toombs County", "phone": "1-800-881-5101", "website": "https://www.freseniuskidneycare.com/dialysis-centers/georgia/4170", "opening_hours": "Mo-Sa 05:00-22:00", "brand": "Fresenius Kidney Care", "brand:wikidata": "Q650259"}, "geometry": {"type": "Point", "coordinates": [-82.3903879523278, 32.1999556538501]}},
{"type": "Feature", "id": "-5O7_ZTaRPbh290bt6zw2gpBVTs=", "properties": {"ref": "1633", "@spider": "freseniuskidneycare", "addr:full": "1565 Corporate Woods Pkwy", "addr:city": "Uniontown", "addr:state": "Ohio", "addr:postcode": "44685", "name": "Fresenius Kidney Care South Summit", "phone": "1-800-881-5101", "website": "https://www.freseniuskidneycare.com/dialysis-centers/ohio/1633", "opening_hours": "Mo-Sa 07:00-17:00", "brand": "Fresenius Kidney Care", "brand:wikidata": "Q650259"}, "geometry": {"type": "Point", "coordinates": [-81.4675122499466, 40.9644371124564]}},
{"type": "Feature", "id": "gfKM_Fd-jj8hjE8Jl3tx5Op7ky4=", "properties": {"ref": "3403", "@spider": "freseniuskidneycare", "addr:full": "1698 E Us 23", "addr:city": "East Tawas", "addr:state": "Michigan", "addr:postcode": "48730", "name": "Fresenius Kidney Care Tawas", "phone": "1-800-881-5101", "website": "https://www.freseniuskidneycare.com/dialysis-centers/michigan/3403", "opening_hours": "Mo 06:00-16:30; Tu 06:00-15:30; We 06:00-16:30; Th 06:00-15:30; Fr 06:00-16:30; Sa 06:00-15:30", "brand": "Fresenius Kidney Care", "brand:wikidata": "Q650259"}, "geometry": {"type": "Point", "coordinates": [-83.4537372214785, 44.2887452397997]}},
{"type": "Feature", "id": "zB_E34gXEA5LN2S7ux6wXXGZFIU=", "properties": {"ref": "3775", "@spider": "freseniuskidneycare", "addr:full": "48656 Gratiot Ave", "addr:city": "Chesterfield", "addr:state": "Michigan", "addr:postcode": "48051", "name": "Fresenius Kidney Care Chesterfield", "phone": "1-800-881-5101", "website": "https://www.freseniuskidneycare.com/dialysis-centers/michigan/3775", "opening_hours": "Mo-Sa 06:00-16:30", "brand": "Fresenius Kidney Care", "brand:wikidata": "Q650259"}, "geometry": {"type": "Point", "coordinates": [-82.8455842266549, 42.6577598022112]}},
{"type": "Feature", "id": "8NNn0WwlVYOEquMu3vbz2b5ymuA=", "properties": {"ref": "100215", "@spider": "freseniuskidneycare", "addr:full": "1211 Saint Johns Bluff Rd N", "addr:city": "Jacksonville", "addr:state": "Florida", "addr:postcode": "32225", "name": "Fresenius Kidney Care Regency", "phone": "1-800-881-5101", "website": "https://www.freseniuskidneycare.com/dialysis-centers/florida/100215", "opening_hours": "Mo 05:00-16:30; We 05:00-16:30; Fr 05:00-16:30", "brand": "Fresenius Kidney Care", "brand:wikidata": "Q650259"}, "geometry": {"type": "Point", "coordinates": [-81.5226407729266, 30.3418971767883]}},
{"type": "Feature", "id": "r1-JuaQYBDRI7n_sFKpO6duRmHY=", "properties": {"ref": "100437", "@spider": "freseniuskidneycare", "addr:full": "15991 N Cleveland Ave", "addr:city": "North Fort Myers", "addr:state": "Florida", "addr:postcode": "33903", "name": "Fresenius Kidney Care North Ft. Myers", "phone": "1-800-881-5101", "website": "https://www.freseniuskidneycare.com/dialysis-centers/florida/100437", "opening_hours": "Mo-Sa 06:00-21:00", "brand": "Fresenius Kidney Care", "brand:wikidata": "Q650259"}, "geometry": {"type": "Point", "coordinates": [-81.9015968687172, 26.695555]}},
{"type": "Feature", "id": "Rkf3TtHAsVpOhFYTT3c80rkcB0M=", "properties": {"ref": "1312", "@spider": "freseniuskidneycare", "addr:full": "180 Serral Dr", "addr:city": "Greeneville", "addr:state": "Tennessee", "addr:postcode": "37745", "name": "Fresenius Kidney Care Eastern Tennessee", "phone": "1-800-881-5101", "website": "https://www.freseniuskidneycare.com/dialysis-centers/tennessee/1312", "opening_hours": "Mo 05:00-17:00; Tu 08:00-16:30; We 05:00-17:00; Th 08:00-16:30; Fr 05:00-17:00", "brand": "Fresenius Kidney Care", "brand:wikidata": "Q650259"}, "geometry": {"type": "Point", "coordinates": [-82.7662236802917, 36.1895448749186]}},
{"type": "Feature", "id": "EFBiuF0eFbwTe59KS2ggx2kop_A=", "properties": {"ref": "101173", "@spider": "freseniuskidneycare", "addr:full": "14153 Yosemite Dr", "addr:city": "Hudson", "addr:state": "Florida", "addr:postcode": "34667", "name": "Fresenius Kidney Care Bayonet Point", "phone": "1-800-881-5101", "website": "https://www.freseniuskidneycare.com/dialysis-centers/florida/101173", "opening_hours": "Mo-Sa 05:00-18:00", "brand": "Fresenius Kidney Care", "brand:wikidata": "Q650259"}, "geometry": {"type": "Point", "coordinates": [-82.6873638, 28.3634761]}},
{"type": "Feature", "id": "ebigixRun_6I7WgeONG28FH-MfA=", "properties": {"ref": "6396", "@spider": "freseniuskidneycare", "addr:full": "303 Village Square Dr", "addr:city": "Leesville", "addr:state": "South Carolina", "addr:postcode": "29070", "name": "Fresenius Kidney Care Batesburg Leesville", "phone": "1-800-881-5101", "website": "https://www.freseniuskidneycare.com/dialysis-centers/south-carolina/6396", "opening_hours": "Mo-Sa 08:00-17:00", "brand": "Fresenius Kidney Care", "brand:wikidata": "Q650259"}, "geometry": {"type": "Point", "coordinates": [-81.5193754434586, 33.9145841068465]}},
{"type": "Feature", "id": "Ob6toKlHvh2Wnnzu7o49iqnoTIE=", "properties": {"ref": "100470", "@spider": "freseniuskidneycare", "addr:full": "711 Talbotton Rd", "addr:city": "Columbus", "addr:state": "Georgia", "addr:postcode": "31904", "name": "Fresenius Kidney Care Columbus Home", "phone": "1-800-881-5101", "website": "https://www.freseniuskidneycare.com/dialysis-centers/georgia/100470", "opening_hours": "Mo-Sa 08:00-17:00", "brand": "Fresenius Kidney Care", "brand:wikidata": "Q650259"}, "geometry": {"type": "Point", "coordinates": [-84.983392059803, 32.4828998460588]}},
{"type": "Feature", "id": "5ycecmVXURWw1N6lr7PuKWbGZbo=", "properties": {"ref": "100724", "@spider": "freseniuskidneycare", "addr:full": "2117 Lake Ave", "addr:city": "Ashtabula", "addr:state": "Ohio", "addr:postcode": "44004", "name": "Fresenius Kidney Care Ashtabula", "phone": "1-800-881-5101", "website": "https://www.freseniuskidneycare.com/dialysis-centers/ohio/100724", "opening_hours": "Mo-Sa 05:00-18:00", "brand": "Fresenius Kidney Care", "brand:wikidata": "Q650259"}, "geometry": {"type": "Point", "coordinates": [-80.8001817330066, 41.8824309091867]}},
{"type": "Feature", "id": "ZcoVKhXez48U3feSvcPh-to2eCY=", "properties": {"ref": "6742", "@spider": "freseniuskidneycare", "addr:full": "1777 Cook Parkway", "addr:city": "Oceana", "addr:state": "West Virginia", "addr:postcode": "24870", "name": "Fresenius Kidney Care Oceana", "phone": "1-800-881-5101", "website": "https://www.freseniuskidneycare.com/dialysis-centers/west-virginia/6742", "opening_hours": "Mo 06:30-17:00; Tu 06:30-13:30; We 06:30-17:00; Th 06:30-13:30; Fr 06:30-17:00; Sa 06:30-13:30", "brand": "Fresenius Kidney Care", "brand:wikidata": "Q650259"}, "geometry": {"type": "Point", "coordinates": [-81.6312235593796, 37.6917290479357]}},
{"type": "Feature", "id": "lZDTvmZmy1c41ApLku2duzSno84=", "properties": {"ref": "8357", "@spider": "freseniuskidneycare", "addr:full": "3018 Military Rd", "addr:city": "Niagara Falls", "addr:state": "New York", "addr:postcode": "14304", "name": "Fresenius Kidney Care Niagara Renal Center", "phone": "1-800-881-5101", "website": "https://www.freseniuskidneycare.com/dialysis-centers/new-york/8357", "opening_hours": "Mo 06:00-17:00; We 06:00-17:00; Fr 06:00-17:00", "brand": "Fresenius Kidney Care", "brand:wikidata": "Q650259"}, "geometry": {"type": "Point", "coordinates": [-78.9909669756889, 43.1130886093412]}},
{"type": "Feature", "id": "tWNs4axUZzOHLNt0x7rSUXRtkfE=", "properties": {"ref": "100189", "@spider": "freseniuskidneycare", "addr:full": "3204 Old Forest Rd", "addr:city": "Lynchburg", "addr:state": "Virginia", "addr:postcode": "24501", "name": "Fresenius Kidney Care Lynchburg Dialysis Center", "phone": "1-800-881-5101", "website": "https://www.freseniuskidneycare.com/dialysis-centers/virginia/100189", "opening_hours": "Mo 05:00-15:00; We 05:00-15:00; Fr 05:00-15:00", "brand": "Fresenius Kidney Care", "brand:wikidata": "Q650259"}, "geometry": {"type": "Point", "coordinates": [-79.2098415596819, 37.4150460509715]}},
{"type": "Feature", "id": "aV1bYJ2WMXlFKQE1VMch8Kkg_-A=", "properties": {"ref": "7206", "@spider": "freseniuskidneycare", "addr:full": "245 S Courtenay Pkwy", "addr:city": "Merritt Island", "addr:state": "Florida", "addr:postcode": "32952", "name": "Fresenius Kidney Care Courtenay-Merritt Island", "phone": "1-800-881-5101", "website": "https://www.freseniuskidneycare.com/dialysis-centers/florida/7206", "opening_hours": "Mo-Sa 06:00-22:00", "brand": "Fresenius Kidney Care", "brand:wikidata": "Q650259"}, "geometry": {"type": "Point", "coordinates": [-80.7006545076193, 28.3529019193874]}},
{"type": "Feature", "id": "9K1-6kHg-jIzJ6hhkW-nTVxBz_U=", "properties": {"ref": "6962", "@spider": "freseniuskidneycare", "addr:full": "3047 Forest Hill Blvd", "addr:city": "West Palm Beach", "addr:state": "Florida", "addr:postcode": "33406", "name": "Fresenius Kidney Care Lake Clarke Shores", "phone": "1-800-881-5101", "website": "https://www.freseniuskidneycare.com/dialysis-centers/florida/6962", "opening_hours": "Mo 04:00-21:00; Tu 04:00-16:30; We 04:00-21:00; Th 04:00-16:30; Fr 04:00-21:00; Sa 04:00-16:30", "brand": "Fresenius Kidney Care", "brand:wikidata": "Q650259"}, "geometry": {"type": "Point", "coordinates": [-80.0900135189295, 26.6530514967732]}},
{"type": "Feature", "id": "2kKYqe72Fo5Wki6D0h2XIolzTyI=", "properties": {"ref": "2779", "@spider": "freseniuskidneycare", "addr:full": "2700 Hollywood Blvd", "addr:city": "Hollywood", "addr:state": "Florida", "addr:postcode": "33020", "name": "Fresenius Kidney Care Southern Broward", "phone": "1-800-881-5101", "website": "https://www.freseniuskidneycare.com/dialysis-centers/florida/2779", "opening_hours": "Mo-Sa 07:00-17:00", "brand": "Fresenius Kidney Care", "brand:wikidata": "Q650259"}, "geometry": {"type": "Point", "coordinates": [-80.1620644468527, 26.010633811036]}},
{"type": "Feature", "id": "WQW5KwHACb5W22Oq0eYOlb82iCg=", "properties": {"ref": "1255", "@spider": "freseniuskidneycare", "addr:full": "10 Johnny Morrall Cir", "addr:city": "Port Royal", "addr:state": "South Carolina", "addr:postcode": "29935", "name": "Fresenius Kidney Care Beaufort/Low Country Dialysis Facility", "phone": "1-800-881-5101", "website": "https://www.freseniuskidneycare.com/dialysis-centers/south-carolina/1255", "opening_hours": "Mo 05:30-19:00; Tu 05:30-18:00; We 05:30-19:00; Th 05:30-18:00; Fr 05:30-19:00; Sa 05:30-17:30", "brand": "Fresenius Kidney Care", "brand:wikidata": "Q650259"}, "geometry": {"type": "Point", "coordinates": [-80.6847766041756, 32.3953066638427]}},
{"type": "Feature", "id": "PQx62r-VajTDJSYk4qIgHx29hrw=", "properties": {"ref": "1843", "@spider": "freseniuskidneycare", "addr:full": "3827 Bell St", "addr:city": "Loris", "addr:state": "South Carolina", "addr:postcode": "29569", "name": "Fresenius Kidney Care Loris Dialysis Center.", "phone": "1-800-881-5101", "website": "https://www.freseniuskidneycare.com/dialysis-centers/south-carolina/1843", "opening_hours": "Mo-Sa 06:00-16:30", "brand": "Fresenius Kidney Care", "brand:wikidata": "Q650259"}, "geometry": {"type": "Point", "coordinates": [-78.8933959901988, 34.0566847504151]}},
{"type": "Feature", "id": "8Jgtg-JiFc3mXBlzY5K3inbHLn8=", "properties": {"ref": "3836", "@spider": "freseniuskidneycare", "addr:full": "179 E Burr Blvd", "addr:city": "Kearneysville", "addr:state": "West Virginia", "addr:postcode": "25430", "name": "Fresenius Kidney Care Charles Town", "phone": "1-800-881-5101", "website": "https://www.freseniuskidneycare.com/dialysis-centers/west-virginia/3836", "opening_hours": "Mo-Sa 06:00-17:00", "brand": "Fresenius Kidney Care", "brand:wikidata": "Q650259"}, "geometry": {"type": "Point", "coordinates": [-77.8595311753634, 39.3603271260428]}},
{"type": "Feature", "id": "tcuRmm9f7KfelhtP4vMJwWC92DQ=", "properties": {"ref": "9112", "@spider": "freseniuskidneycare", "addr:full": "5730 Shaffer Rd Sandy Plz", "addr:city": "Du Bois", "addr:state": "Pennsylvania", "addr:postcode": "15801", "name": "Fresenius Kidney Care Dubois Dialysis", "phone": "1-800-881-5101", "website": "https://www.freseniuskidneycare.com/dialysis-centers/pennsylvania/9112", "opening_hours": "Mo 06:00-20:00; We 06:00-20:00; Fr 06:00-20:00", "brand": "Fresenius Kidney Care", "brand:wikidata": "Q650259"}, "geometry": {"type": "Point", "coordinates": [-78.7270728936207, 41.1237942397226]}},
{"type": "Feature", "id": "8_iBVRHq_2hb2DoHH0UbGujAuc4=", "properties": {"ref": "8361", "@spider": "freseniuskidneycare", "addr:full": "22571 Summit Dr", "addr:city": "Watertown", "addr:state": "New York", "addr:postcode": "13601", "name": "Fresenius Kidney Care Watertown Dialysis Center", "phone": "1-800-881-5101", "website": "https://www.freseniuskidneycare.com/dialysis-centers/new-york/8361", "opening_hours": "Mo-Sa 06:00-21:00", "brand": "Fresenius Kidney Care", "brand:wikidata": "Q650259"}, "geometry": {"type": "Point", "coordinates": [-75.9134019615885, 43.9471598798749]}},
{"type": "Feature", "id": "CyPgjCn_BMp9xAHT_Dgiee6yw8k=", "properties": {"ref": "4071", "@spider": "freseniuskidneycare", "addr:full": "16 Sterling Dr", "addr:city": "Bridgeport", "addr:state": "West Virginia", "addr:postcode": "26330", "name": "Fresenius Kidney Care - Clarksburg", "phone": "1-800-881-5101", "website": "https://www.freseniuskidneycare.com/dialysis-centers/west-virginia/4071", "opening_hours": "Mo-Sa 06:00-16:30", "brand": "Fresenius Kidney Care", "brand:wikidata": "Q650259"}, "geometry": {"type": "Point", "coordinates": [-80.2821712943478, 39.2568085419845]}},
{"type": "Feature", "id": "pwKvKgCzro4xwFZJOmak3dag-EA=", "properties": {"ref": "2738", "@spider": "freseniuskidneycare", "addr:full": "301 Market St", "addr:city": "Berwick", "addr:state": "Pennsylvania", "addr:postcode": "18603", "name": "Fresenius Kidney Care Berwick", "phone": "1-800-881-5101", "website": "https://www.freseniuskidneycare.com/dialysis-centers/pennsylvania/2738", "opening_hours": "Mo 06:00-20:00; Tu 06:00-17:00; We 06:00-20:00; Th 06:00-17:00; Fr 06:00-20:00; Sa 06:00-17:00", "brand": "Fresenius Kidney Care", "brand:wikidata": "Q650259"}, "geometry": {"type": "Point", "coordinates": [-76.2349998950958, 41.0559460938646]}},
{"type": "Feature", "id": "xGOGz5sDCXcbblTSWdFBxLs5PMc=", "properties": {"ref": "7260", "@spider": "freseniuskidneycare", "addr:full": "6740 Main St", "addr:city": "Gloucester", "addr:state": "Virginia", "addr:postcode": "23061", "name": "Fresenius Kidney Care Medical Drive - Gloucester", "phone": "1-800-881-5101", "website": "https://www.freseniuskidneycare.com/dialysis-centers/virginia/7260", "opening_hours": "Mo 05:30-18:30; Tu 05:30-16:00; We 05:30-18:30; Th 05:30-16:00; Fr 05:30-18:30; Sa 05:30-16:00", "brand": "Fresenius Kidney Care", "brand:wikidata": "Q650259"}, "geometry": {"type": "Point", "coordinates": [-76.5222756378535, 37.4118580130947]}},
{"type": "Feature", "id": "og09CBKqSlcauIeO8EIoV931rRc=", "properties": {"ref": "100853", "@spider": "freseniuskidneycare", "addr:full": "12 Cornwell Dr", "addr:city": "Bridgeton", "addr:state": "New Jersey", "addr:postcode": "08302", "name": "Fresenius Kidney Care NJ Bridgeton", "phone": "1-800-881-5101", "website": "https://www.freseniuskidneycare.com/dialysis-centers/new-jersey/100853", "opening_hours": "Mo-Sa 05:00-18:00", "brand": "Fresenius Kidney Care", "brand:wikidata": "Q650259"}, "geometry": {"type": "Point", "coordinates": [-75.2092384622395, 39.4615930844584]}},
{"type": "Feature", "id": "FuUI_jNJp0_F64HpSNNoc_qKFMo=", "properties": {"ref": "6602", "@spider": "freseniuskidneycare", "addr:full": "373 Church St", "addr:city": "Saratoga Springs", "addr:state": "New York", "addr:postcode": "12866", "name": "Fresenius Kidney Care Saratoga Springs", "phone": "1-800-881-5101", "website": "https://www.freseniuskidneycare.com/dialysis-centers/new-york/6602", "opening_hours": "Mo 06:00-17:00; We 06:00-17:00; Fr 06:00-17:00", "brand": "Fresenius Kidney Care", "brand:wikidata": "Q650259"}, "geometry": {"type": "Point", "coordinates": [-73.815706, 43.086229]}},
{"type": "Feature", "id": "tSEF-HA1HRw8yHCw6xkntV4Iidw=", "properties": {"ref": "5361", "@spider": "freseniuskidneycare", "addr:full": "47 Dawson St", "addr:city": "Sandusky", "addr:state": "Michigan", "addr:postcode": "48471", "name": "Fresenius Kidney Care Sandusky", "phone": "1-800-881-5101", "website": "https://www.freseniuskidneycare.com/dialysis-centers/michigan/5361", "opening_hours": "Mo-Su 05:30-16:00", "brand": "Fresenius Kidney Care", "brand:wikidata": "Q650259"}, "geometry": {"type": "Point", "coordinates": [-82.8409415537488, 43.4225372658115]}},
{"type": "Feature", "id": "zzdxIaWvxGs5RLZqgF9otqM59DI=", "properties": {"ref": "100272", "@spider": "freseniuskidneycare", "addr:full": "1320 Eastchester Dr", "addr:city": "High Point", "addr:state": "North Carolina", "addr:postcode": "27265", "name": "Fresenius Kidney Care High Point", "phone": "1-800-881-5101", "website": "https://www.freseniuskidneycare.com/dialysis-centers/north-carolina/100272", "opening_hours": "Mo-Sa 07:00-17:00", "brand": "Fresenius Kidney Care", "brand:wikidata": "Q650259"}, "geometry": {"type": "Point", "coordinates": [-79.993977703316, 35.9961291565835]}},
{"type": "Feature", "id": "4fe3hucyNaOjuqcCNxfskcsB_mg=", "properties": {"ref": "8415", "@spider": "freseniuskidneycare", "addr:full": "30164 Commerce Dr", "addr:city": "Millsboro", "addr:state": "Delaware", "addr:postcode": "19966", "name": "Fresenius Kidney Care Millsboro", "phone": "1-800-881-5101", "website": "https://www.freseniuskidneycare.com/dialysis-centers/delaware/8415", "opening_hours": "Mo 05:30-20:00; Tu 05:30-16:00; We 05:30-20:00; Th 05:30-16:00; Fr 05:30-20:00; Sa 05:30-16:00", "brand": "Fresenius Kidney Care", "brand:wikidata": "Q650259"}, "geometry": {"type": "Point", "coordinates": [-75.2868255972862, 38.5727632071362]}},
{"type": "Feature", "id": "EWzN7PTWvlTpyAExMcftv_hfozk=", "properties": {"ref": "2597", "@spider": "freseniuskidneycare", "addr:full": "115 Exeter St", "addr:city": "Manteo", "addr:state": "North Carolina", "addr:postcode": "27954", "name": "Fresenius Kidney Care Dare County Dialysis", "phone": "1-800-881-5101", "website": "https://www.freseniuskidneycare.com/dialysis-centers/north-carolina/2597", "opening_hours": "Mo 06:00-16:00; Tu 06:00-12:00; We 06:00-16:00; Th 06:00-12:00; Fr 06:00-16:00; Sa 06:00-12:00", "brand": "Fresenius Kidney Care", "brand:wikidata": "Q650259"}, "geometry": {"type": "Point", "coordinates": [-75.6748466750121, 35.9038632495721]}},
{"type": "Feature", "id": "gQcXI_4wekGlpJVMaa2YhSvsGY4=", "properties": {"ref": "100852", "@spider": "freseniuskidneycare", "addr:full": "64 Hudson Ave", "addr:city": "Tenafly", "addr:state": "New Jersey", "addr:postcode": "07670", "name": "Fresenius Kidney Care Tenafly Dialysis", "phone": "1-800-881-5101", "website": "https://www.freseniuskidneycare.com/dialysis-centers/new-jersey/100852", "opening_hours": "Mo-Sa 05:00-18:00", "brand": "Fresenius Kidney Care", "brand:wikidata": "Q650259"}, "geometry": {"type": "Point", "coordinates": [-73.9607033, 40.9338124]}},
{"type": "Feature", "id": "NQRapWKHfgKbNwgYs_nFXfX0zC4=", "properties": {"ref": "3036", "@spider": "freseniuskidneycare", "addr:full": "2814 Post Rd", "addr:city": "Warwick", "addr:state": "Rhode Island", "addr:postcode": "02886", "name": "Fresenius Kidney Care Warwick", "phone": "1-800-881-5101", "website": "https://www.freseniuskidneycare.com/dialysis-centers/rhode-island/3036", "opening_hours": "Mo 05:30-21:30; Tu 05:30-16:30; We 05:30-21:30; Th 05:30-16:30; Fr 05:30-21:30; Sa 05:30-16:30", "brand": "Fresenius Kidney Care", "brand:wikidata": "Q650259"}, "geometry": {"type": "Point", "coordinates": [-71.450566649437, 41.7079191705319]}},
{"type": "Feature", "id": "McbnFbGFjdSsBqa2pw3St4zzGdg=", "properties": {"ref": "2121", "@spider": "freseniuskidneycare", "addr:full": "115 Wildwood Ave", "addr:city": "Greenfield", "addr:state": "Massachusetts", "addr:postcode": "01301", "name": "Fresenius Kidney Care Yankee Family Dialysis Center", "phone": "1-800-881-5101", "website": "https://www.freseniuskidneycare.com/dialysis-centers/massachusetts/2121", "opening_hours": "Mo 06:00-20:00; Tu 06:00-16:00; We 06:00-20:00; Th 06:00-16:00; Fr 06:00-20:00; Sa 06:00-16:00", "brand": "Fresenius Kidney Care", "brand:wikidata": "Q650259"}, "geometry": {"type": "Point", "coordinates": [-72.5794365685885, 42.6060921807892]}},
{"type": "Feature", "id": "2aAS9VO61J715RDwVvKVwFjsxJM=", "properties": {"ref": "2222", "@spider": "freseniuskidneycare", "addr:full": "230 S Fairview Rd", "addr:city": "Rocky Mount", "addr:state": "North Carolina", "addr:postcode": "27801", "name": "Fresenius Kidney Care East Rocky Mount", "phone": "1-800-881-5101", "website": "https://www.freseniuskidneycare.com/dialysis-centers/north-carolina/2222", "opening_hours": "Mo-Sa 06:00-17:30", "brand": "Fresenius Kidney Care", "brand:wikidata": "Q650259"}, "geometry": {"type": "Point", "coordinates": [-77.7751982930386, 35.9277395684897]}},
{"type": "Feature", "id": "cMFC3jYaGxNtRih_BzD6GwSZXIE=", "properties": {"ref": "100113", "@spider": "freseniuskidneycare", "addr:full": "603 William St", "addr:city": "Towanda", "addr:state": "Pennsylvania", "addr:postcode": "18848", "name": "Fresenius Kidney Care Towanda", "phone": "1-800-881-5101", "website": "https://www.freseniuskidneycare.com/dialysis-centers/pennsylvania/100113", "opening_hours": "Mo 05:00-18:00; We 05:00-18:00; Fr 05:00-18:00", "brand": "Fresenius Kidney Care", "brand:wikidata": "Q650259"}, "geometry": {"type": "Point", "coordinates": [-76.4462015286654, 41.7835192127463]}},
{"type": "Feature", "id": "wsucDaSzFZvyfE0MuteO5p_6Aco=", "properties": {"ref": "8378", "@spider": "freseniuskidneycare", "addr:full": "21b Poliquin Dr", "addr:city": "Conway", "addr:state": "New Hampshire", "addr:postcode": "03818", "name": "Fresenius Kidney Care Mt. Washington Valley", "phone": "1-800-881-5101", "website": "https://www.freseniuskidneycare.com/dialysis-centers/new-hampshire/8378", "opening_hours": "Mo-Sa 05:30-16:30", "brand": "Fresenius Kidney Care", "brand:wikidata": "Q650259"}, "geometry": {"type": "Point", "coordinates": [-71.1102828383446, 43.9868303437799]}},
{"type": "Feature", "id": "mBuR5IDaEx87QGtzJecaVXRCl-c=", "properties": {"ref": "7364", "@spider": "freseniuskidneycare", "addr:full": "27 Park Ave", "addr:city": "Binghamton", "addr:state": "New York", "addr:postcode": "13903", "name": "Fresenius Kidney Care Uhs Park Avenue", "phone": "1-800-881-5101", "website": "https://www.freseniuskidneycare.com/dialysis-centers/new-york/7364", "opening_hours": "Mo 06:00-17:00; We 06:00-17:00; Fr 06:00-17:00", "brand": "Fresenius Kidney Care", "brand:wikidata": "Q650259"}, "geometry": {"type": "Point", "coordinates": [-75.9151196479797, 42.086471240396]}},
{"type": "Feature", "id": "-TjMr-QiirTeW1KLL62T6f09kcA=", "properties": {"ref": "2889", "@spider": "freseniuskidneycare", "addr:full": "73 Allen St", "addr:city": "Wilton", "addr:state": "Maine", "addr:postcode": "04294", "name": "Fresenius Kidney Care Umbagog Dialysis Center", "phone": "1-800-881-5101", "website": "https://www.freseniuskidneycare.com/dialysis-centers/maine/2889", "opening_hours": "Mo 05:30-16:30; Tu 05:30-13:00; We 05:30-16:30; Th 05:30-13:00; Fr 05:30-16:30; Sa 05:30-13:00", "brand": "Fresenius Kidney Care", "brand:wikidata": "Q650259"}, "geometry": {"type": "Point", "coordinates": [-70.2253169474896, 44.5819718624703]}},
{"type": "Feature", "id": "ErrFu_bMvlTS6ZFef3ucAlnSmfo=", "properties": {"ref": "1112", "@spider": "freseniuskidneycare", "addr:full": "241 Willow St", "addr:city": "Yarmouth Port", "addr:state": "Massachusetts", "addr:postcode": "02675", "name": "Fresenius Kidney Care Cape Cod", "phone": "1-800-881-5101", "website": "https://www.freseniuskidneycare.com/dialysis-centers/massachusetts/1112", "opening_hours": "Mo 06:00-21:30; Tu 06:00-16:30; We 06:00-21:30; Th 06:00-16:30; Fr 06:00-21:30; Sa 06:00-16:30", "brand": "Fresenius Kidney Care", "brand:wikidata": "Q650259"}, "geometry": {"type": "Point", "coordinates": [-70.2566450089216, 41.6902085690419]}},
{"type": "Feature", "id": "t_NWRVZF-suJgy-vfqaZH9dfiL8=", "properties": {"ref": "1527", "@spider": "freseniuskidneycare", "addr:full": "2900 Arendell St", "addr:city": "Morehead City", "addr:state": "North Carolina", "addr:postcode": "28557", "name": "Fresenius Kidney Care Crystal Coast", "phone": "1-800-881-5101", "website": "https://www.freseniuskidneycare.com/dialysis-centers/north-carolina/1527", "opening_hours": "Mo-Sa 06:00-16:30", "brand": "Fresenius Kidney Care", "brand:wikidata": "Q650259"}, "geometry": {"type": "Point", "coordinates": [-76.7440743575081, 34.7252520962255]}},
{"type": "Feature", "id": "r1MwOmTbB3rGZPzitx_s_kt-Dk8=", "properties": {"ref": "2879", "@spider": "freseniuskidneycare", "addr:full": "4 Edwards Ave", "addr:city": "Damariscotta", "addr:state": "Maine", "addr:postcode": "04543", "name": "Fresenius Kidney Care Damariscotta", "phone": "1-800-881-5101", "website": "https://www.freseniuskidneycare.com/dialysis-centers/maine/2879", "opening_hours": "Mo 05:00-17:00; Tu 08:00-14:00; We 05:00-17:00; Th 08:00-14:00; Fr 05:00-17:00; Sa 08:00-14:00", "brand": "Fresenius Kidney Care", "brand:wikidata": "Q650259"}, "geometry": {"type": "Point", "coordinates": [-69.5053915493372, 44.0357825119037]}},
{"type": "Feature", "id": "P6AuPvdw-B4E6BgTs8Pp0HD3bCU=", "properties": {"ref": "2141", "@spider": "freseniuskidneycare", "addr:full": "133 Brimbal Ave", "addr:city": "Beverly", "addr:state": "Massachusetts", "addr:postcode": "01915", "name": "Fresenius Kidney Care Northshore Reg. Dial. Ctr.", "phone": "1-800-881-5101", "website": "https://www.freseniuskidneycare.com/dialysis-centers/massachusetts/2141", "opening_hours": "Mo-Sa 06:00-23:00", "brand": "Fresenius Kidney Care", "brand:wikidata": "Q650259"}, "geometry": {"type": "Point", "coordinates": [-70.8768373940296, 42.5740515690669]}},
{"type": "Feature", "id": "F6D7qNzXJZjwMHZdw5wFhaiD6yE=", "properties": {"ref": "4291", "@spider": "freseniuskidneycare", "addr:full": "1080 Hospital Dr", "addr:city": "Saint Johnsbury", "addr:state": "Vermont", "addr:postcode": "05819", "name": "Fresenius Kidney Care St. Johnsbury", "phone": "1-800-881-5101", "website": "https://www.freseniuskidneycare.com/dialysis-centers/vermont/4291", "opening_hours": "Mo 06:00-21:00; We 06:00-21:00; Fr 06:00-21:00", "brand": "Fresenius Kidney Care", "brand:wikidata": "Q650259"}, "geometry": {"type": "Point", "coordinates": [-72.0138090848923, 44.4447187775888]}},
{"type": "Feature", "id": "23uOnYbb6zxq07a1hZZBQt2C7Oc=", "properties": {"ref": "1215", "@spider": "freseniuskidneycare", "addr:full": "1050 Corazones Ave", "addr:city": "Mayaguez", "addr:state": "Puerto Rico", "addr:postcode": "00680", "name": "Fresenius Kidney Care Mayaguez", "phone": "1-800-881-5101", "website": "https://www.freseniuskidneycare.com/dialysis-centers/puerto-rico/1215", "opening_hours": "Mo-Sa 05:00-21:30", "brand": "Fresenius Kidney Care", "brand:wikidata": "Q650259"}, "geometry": {"type": "Point", "coordinates": [-67.1461730473609, 18.1733113737628]}},
{"type": "Feature", "id": "dTPLsr2M1Ooke9jfigNgOEu3Ahw=", "properties": {"ref": "1536", "@spider": "freseniuskidneycare", "addr:full": "Hospital Cayetano Coll Y Toste", "addr:city": "Arecibo", "addr:state": "Puerto Rico", "addr:postcode": "00614", "name": "Fresenius Kidney Care Del Norte", "phone": "1-800-881-5101", "website": "https://www.freseniuskidneycare.com/dialysis-centers/puerto-rico/1536", "opening_hours": "Mo-Su 06:00-22:30", "brand": "Fresenius Kidney Care", "brand:wikidata": "Q650259"}, "geometry": {"type": "Point", "coordinates": [-66.7314316171084, 18.4672623384726]}},
{"type": "Feature", "id": "R-XTDbi4lv1dqtV2BWJrD19UsCY=", "properties": {"ref": "100924", "@spider": "freseniuskidneycare", "addr:full": "Urb Brisas Las Marias 212 St", "addr:city": "Vieques", "addr:state": "Puerto Rico", "addr:postcode": "00765", "name": "Fresenius Kidney Care Vieques Mobile", "phone": "1-800-881-5101", "website": "https://www.freseniuskidneycare.com/dialysis-centers/puerto-rico/100924", "opening_hours": "Mo-Sa 05:00-18:00", "brand": "Fresenius Kidney Care", "brand:wikidata": "Q650259"}, "geometry": {"type": "Point", "coordinates": [-65.4425555967341, 18.1506779560269]}},
{"type": "Feature", "id": "zCv9flQWyJWTg_tJ-SOjsSgIK9Y=", "properties": {"ref": "3229", "@spider": "freseniuskidneycare", "addr:full": "19 Vanasse Rd", "addr:city": "Eastport", "addr:state": "Maine", "addr:postcode": "04631", "name": "Fresenius Kidney Care Sunrise County Dialysis", "phone": "1-800-881-5101", "website": "https://www.freseniuskidneycare.com/dialysis-centers/maine/3229", "opening_hours": "Mo-Sa 05:00-17:00", "brand": "Fresenius Kidney Care", "brand:wikidata": "Q650259"}, "geometry": {"type": "Point", "coordinates": [-67.0270916819572, 44.9361325006019]}}]}