{"type":"FeatureCollection","features":[{"type": "Feature", "id": "NSIkikkqslTJVtVsXqbqxYKbEWU=", "properties": {"ref": "246", "@spider": "freshmarket", "shop": "supermarket", "addr:street_address": "4925 PGA Blvd", "addr:city": "Palm Beach Gardens", "addr:state": "FL", "addr:postcode": "33418", "addr:country": "US", "name": "The Fresh Market on PGA Blvd", "phone": "561.708.7072", "website": "https://www.thefreshmarket.com/my-market/store/the-fresh-market-on-pga-blvd", "opening_hours": "Mo-Su 07:00-21:00", "brand": "Fresh Market", "brand:wikidata": "Q7735265", "nsi_id": "thefreshmarket-dde59d"}, "geometry": {"type": "Point", "coordinates": [-80.112, 26.83897]}},
{"type": "Feature", "id": "ekpjk1-5e2svYifZ-g74iOpO1yU=", "properties": {"ref": "235", "@spider": "freshmarket", "shop": "supermarket", "addr:street_address": "1960 E West Pkwy, Ste 100", "addr:city": "Fleming Island", "addr:state": "FL", "addr:postcode": "32003", "addr:country": "US", "name": "The Fresh Market on E West Pkwy", "phone": "904.375.9400", "website": "https://www.thefreshmarket.com/my-market/store/1960EWestParkway-fleming-island", "opening_hours": "Mo-Su 08:00-21:00", "brand": "Fresh Market", "brand:wikidata": "Q7735265", "nsi_id": "thefreshmarket-dde59d"}, "geometry": {"type": "Point", "coordinates": [-81.717925, 30.101121]}},
{"type": "Feature", "id": "aX8vlfW56VP7jcBKF3vFoNecQp8=", "properties": {"ref": "221", "@spider": "freshmarket", "shop": "supermarket", "addr:street_address": "3580 NW 83rd Ave", "addr:city": "Doral", "addr:state": "FL", "addr:postcode": "33166", "addr:country": "US", "name": "The Fresh Market on NW 83rd Ave", "phone": "305.594.5770", "website": "https://www.thefreshmarket.com/my-market/store/83rdavenue-doral", "opening_hours": "Mo-Su 08:00-21:00", "brand": "Fresh Market", "brand:wikidata": "Q7735265", "nsi_id": "thefreshmarket-dde59d"}, "geometry": {"type": "Point", "coordinates": [-80.331725, 25.809486]}},
{"type": "Feature", "id": "k1yA29FewfTTNUjq5NSAXXm4N64=", "properties": {"ref": "231", "@spider": "freshmarket", "shop": "supermarket", "addr:street_address": "10286 Two Notch Rd", "addr:city": "Columbia", "addr:state": "SC", "addr:postcode": "29229", "addr:country": "US", "name": "The Fresh Market on Two Notch Rd", "phone": "803.699.5110", "website": "https://www.thefreshmarket.com/my-market/store/10286two-notch-road-columbia", "opening_hours": "Mo-Su 08:00-21:00", "brand": "Fresh Market", "brand:wikidata": "Q7735265", "nsi_id": "thefreshmarket-dde59d"}, "geometry": {"type": "Point", "coordinates": [-80.872973, 34.12323]}},
{"type": "Feature", "id": "n_N_3hd2WZWiU3MnV7KvjoAw_1g=", "properties": {"ref": "126", "@spider": "freshmarket", "shop": "supermarket", "addr:street_address": "20409 State Road 7", "addr:city": "Boca Raton", "addr:state": "FL", "addr:postcode": "33498", "addr:country": "US", "name": "The Fresh Market on State Road 7", "phone": "561.479.4845", "website": "https://www.thefreshmarket.com/my-market/store/20409staterd7-bocaraton", "opening_hours": "Mo-Su 08:00-21:00", "brand": "Fresh Market", "brand:wikidata": "Q7735265", "nsi_id": "thefreshmarket-dde59d"}, "geometry": {"type": "Point", "coordinates": [-80.205374, 26.371708]}},
{"type": "Feature", "id": "Fw0ckbkWYezsejhS76QouuyG7b4=", "properties": {"ref": "178", "@spider": "freshmarket", "shop": "supermarket", "addr:street_address": "549 Brookwood Village", "addr:city": "Homewood", "addr:state": "AL", "addr:postcode": "35209", "addr:country": "US", "name": "The Fresh Market on Brookwood Village", "phone": "205.414.0017", "website": "https://www.thefreshmarket.com/my-market/store/549brookwood-homewood", "opening_hours": "Mo-Su 08:00-21:00", "brand": "Fresh Market", "brand:wikidata": "Q7735265", "nsi_id": "thefreshmarket-dde59d"}, "geometry": {"type": "Point", "coordinates": [-86.774088, 33.468022]}},
{"type": "Feature", "id": "b6aF6FB04fTVwpwKqPS0d1GGExQ=", "properties": {"ref": "73", "@spider": "freshmarket", "shop": "supermarket", "addr:street_address": "10640 Forest Hill Blvd", "addr:city": "Wellington", "addr:state": "FL", "addr:postcode": "33414", "addr:country": "US", "name": "The Fresh Market on Forest Hill Blvd", "phone": "561.753.9861", "website": "https://www.thefreshmarket.com/my-market/store/10640forest-hill-wellington", "opening_hours": "Mo-Su 08:00-21:00", "brand": "Fresh Market", "brand:wikidata": "Q7735265", "nsi_id": "thefreshmarket-dde59d"}, "geometry": {"type": "Point", "coordinates": [-80.215626, 26.649986]}},
{"type": "Feature", "id": "A-9ZAdjsB4-rm8YbiMyMfqTBAwQ=", "properties": {"ref": "66", "@spider": "freshmarket", "shop": "supermarket", "addr:street_address": "27251 Bay Landing Dr", "addr:city": "Bonita Springs", "addr:state": "FL", "addr:postcode": "34135", "addr:country": "US", "name": "The Fresh Market on Bay Landing Dr", "phone": "239.390.5948", "website": "https://www.thefreshmarket.com/my-market/store/27251bay-landing-bonita-springs", "opening_hours": "Mo-Su 08:00-21:00", "brand": "Fresh Market", "brand:wikidata": "Q7735265", "nsi_id": "thefreshmarket-dde59d"}, "geometry": {"type": "Point", "coordinates": [-81.805574, 26.3429]}},
{"type": "Feature", "id": "9VHtslT4A1vtT8nBEaxxhu22gxY=", "properties": {"ref": "79", "@spider": "freshmarket", "shop": "supermarket", "addr:street_address": "3088 Madison Road", "addr:city": "Cincinnati", "addr:state": "OH", "addr:postcode": "45209", "addr:country": "US", "name": "The Fresh Market on Madison Rd", "phone": "513.533.2600", "website": "https://www.thefreshmarket.com/my-market/store/3088madison-cincinnati", "opening_hours": "Mo-Su 08:00-21:00", "brand": "Fresh Market", "brand:wikidata": "Q7735265", "nsi_id": "thefreshmarket-dde59d"}, "geometry": {"type": "Point", "coordinates": [-84.431013, 39.153424]}},
{"type": "Feature", "id": "DsaCxe8ckznZAKTPqEQw8f4Sm0U=", "properties": {"ref": "68", "@spider": "freshmarket", "shop": "supermarket", "addr:street_address": "1500 Peachtree Industrial Blvd, Ste 300", "addr:city": "Suwanee", "addr:state": "GA", "addr:postcode": "30024", "addr:country": "US", "name": "The Fresh Market on Peachtree Industrial Blvd", "phone": "678.714.0976", "website": "https://www.thefreshmarket.com/my-market/store/1500peachtree-industrial-suwanee", "opening_hours": "Mo-Su 08:00-21:00", "brand": "Fresh Market", "brand:wikidata": "Q7735265", "nsi_id": "thefreshmarket-dde59d"}, "geometry": {"type": "Point", "coordinates": [-84.0989, 34.03821]}},
{"type": "Feature", "id": "MO-rYkfcz74FuVAPTgJjEVzYFus=", "properties": {"ref": "81", "@spider": "freshmarket", "shop": "supermarket", "addr:street_address": "3060 Center Valley Pkwy", "addr:city": "Center Valley", "addr:state": "PA", "addr:postcode": "18034", "addr:country": "US", "name": "The Fresh Market on Center Valley Pkwy", "phone": "610.798.7474", "website": "https://www.thefreshmarket.com/my-market/store/3060center-valley-center-valley", "opening_hours": "Mo-Su 08:00-21:00", "brand": "Fresh Market", "brand:wikidata": "Q7735265", "nsi_id": "thefreshmarket-dde59d"}, "geometry": {"type": "Point", "coordinates": [-75.412641, 40.557866]}},
{"type": "Feature", "id": "Fg4xUp4PJejg7mhWurN4-cTJ0D0=", "properties": {"ref": "76", "@spider": "freshmarket", "shop": "supermarket", "addr:street_address": "4495 Commons Dr W", "addr:city": "Destin", "addr:state": "FL", "addr:postcode": "32541", "addr:country": "US", "name": "The Fresh Market on Commons Dr W", "phone": "850.650.0989", "website": "https://www.thefreshmarket.com/my-market/store/4495-commons-destin", "opening_hours": "Mo-Su 08:00-21:00", "brand": "Fresh Market", "brand:wikidata": "Q7735265", "nsi_id": "thefreshmarket-dde59d"}, "geometry": {"type": "Point", "coordinates": [-86.437122, 30.388703]}},
{"type": "Feature", "id": "qtWUrDZgC0VuArUJQygCgF_yEig=", "properties": {"ref": "82", "@spider": "freshmarket", "shop": "supermarket", "addr:street_address": "4120 NW 16th Blvd", "addr:city": "Gainesville", "addr:state": "FL", "addr:postcode": "32605", "addr:country": "US", "name": "The Fresh Market on NW 16th Blvd", "phone": "352.376.1024", "website": "https://www.thefreshmarket.com/my-market/store/4120northwest-gainsville", "opening_hours": "Mo-Su 08:00-21:00", "brand": "Fresh Market", "brand:wikidata": "Q7735265", "nsi_id": "thefreshmarket-dde59d"}, "geometry": {"type": "Point", "coordinates": [-82.387059, 29.674489]}},
{"type": "Feature", "id": "-cgdRt59Ep9R0oYv2l2nqoAT3ss=", "properties": {"ref": "75", "@spider": "freshmarket", "shop": "supermarket", "addr:street_address": "7888 Montgomery Rd", "addr:city": "Cincinnati", "addr:state": "OH", "addr:postcode": "45236", "addr:country": "US", "name": "The Fresh Market on Montgomery Rd", "phone": "513.791.3028", "website": "https://www.thefreshmarket.com/my-market/store/7888montgomery-cincinnati", "opening_hours": "Mo-Su 08:00-21:00", "brand": "Fresh Market", "brand:wikidata": "Q7735265", "nsi_id": "thefreshmarket-dde59d"}, "geometry": {"type": "Point", "coordinates": [-84.377052, 39.199468]}},
{"type": "Feature", "id": "3dBTYhJXYSr3foPFTUPkQOehrjw=", "properties": {"ref": "83", "@spider": "freshmarket", "shop": "supermarket", "addr:street_address": "4800 Whitesburg Dr SW", "addr:city": "Huntsville", "addr:state": "AL", "addr:postcode": "35802", "addr:country": "US", "name": "The Fresh Market on Whitesburg Dr SW", "phone": "256.880.9042", "website": "https://www.thefreshmarket.com/my-market/store/4800whitesburg-huntsville", "opening_hours": "Mo-Su 08:00-21:00", "brand": "Fresh Market", "brand:wikidata": "Q7735265", "nsi_id": "thefreshmarket-dde59d"}, "geometry": {"type": "Point", "coordinates": [-86.569979, 34.692102]}},
{"type": "Feature", "id": "1NOsTtVoxxAQ_85_eZTiX4dmmWU=", "properties": {"ref": "77", "@spider": "freshmarket", "shop": "supermarket", "addr:street_address": "11525 Cantrell Rd, Ste 800", "addr:city": "Little Rock", "addr:state": "AR", "addr:postcode": "72212", "addr:country": "US", "name": "The Fresh Market on Cantrell Rd", "phone": "501.225.7700", "website": "https://www.thefreshmarket.com/my-market/store/11525cantrell-little-rock", "opening_hours": "Mo-Su 08:00-21:00", "brand": "Fresh Market", "brand:wikidata": "Q7735265", "nsi_id": "thefreshmarket-dde59d"}, "geometry": {"type": "Point", "coordinates": [-92.400491, 34.792572]}},
{"type": "Feature", "id": "UPHBbqAXwu61wKj0k17abT_6lhs=", "properties": {"ref": "80", "@spider": "freshmarket", "shop": "supermarket", "addr:street_address": "1060 International Dr", "addr:city": "Wilmington", "addr:state": "NC", "addr:postcode": "28405", "addr:country": "US", "name": "The Fresh Market on International Dr", "phone": "910.256.3524", "website": "https://www.thefreshmarket.com/my-market/store/1060international-wilmington", "opening_hours": "Mo-Su 08:00-21:00", "brand": "Fresh Market", "brand:wikidata": "Q7735265", "nsi_id": "thefreshmarket-dde59d"}, "geometry": {"type": "Point", "coordinates": [-77.829947, 34.239753]}},
{"type": "Feature", "id": "jgrIEG6L5T7VFtSaLR-V-eSWlQg=", "properties": {"ref": "95", "@spider": "freshmarket", "shop": "supermarket", "addr:street_address": "3315 W Central Ave", "addr:city": "Toledo", "addr:state": "OH", "addr:postcode": "43606", "addr:country": "US", "name": "The Fresh Market on W Central Ave", "phone": "419.531.5218", "website": "https://www.thefreshmarket.com/my-market/store/3315west-central-toledo", "opening_hours": "Mo-Su 08:00-21:00", "brand": "Fresh Market", "brand:wikidata": "Q7735265", "nsi_id": "thefreshmarket-dde59d"}, "geometry": {"type": "Point", "coordinates": [-83.623885, 41.675669]}},
{"type": "Feature", "id": "_vp-yeWuhDG7Zd1nXzYaMzV0HWk=", "properties": {"ref": "74", "@spider": "freshmarket", "shop": "supermarket", "addr:street_address": "10555 Perkins Rd", "addr:city": "Baton Rouge", "addr:state": "LA", "addr:postcode": "70810", "addr:country": "US", "name": "The Fresh Market on Perkins Rd", "phone": "225.765.2915", "website": "https://www.thefreshmarket.com/my-market/store/10555perkins-baton-rouge", "opening_hours": "Mo-Su 08:00-21:00", "brand": "Fresh Market", "brand:wikidata": "Q7735265", "nsi_id": "thefreshmarket-dde59d"}, "geometry": {"type": "Point", "coordinates": [-91.093498, 30.377791]}},
{"type": "Feature", "id": "8bdVr6hRlr8bZvAXsduHyFrdM14=", "properties": {"ref": "87", "@spider": "freshmarket", "shop": "supermarket", "addr:street_address": "3387 Tates Creek Rd", "addr:city": "Lexington", "addr:state": "KY", "addr:postcode": "40502", "addr:country": "US", "name": "The Fresh Market on Tates Creek Rd", "phone": "859.266.0150", "website": "https://www.thefreshmarket.com/my-market/store/3387tates-creek-lexington", "opening_hours": "Mo-Su 08:00-21:00", "brand": "Fresh Market", "brand:wikidata": "Q7735265", "nsi_id": "thefreshmarket-dde59d"}, "geometry": {"type": "Point", "coordinates": [-84.49614, 37.994406]}},
{"type": "Feature", "id": "urdLTaloQhYHbfWkS0mFB9nROEk=", "properties": {"ref": "84", "@spider": "freshmarket", "shop": "supermarket", "addr:street_address": "4405 Roswell Road NE", "addr:city": "Atlanta", "addr:state": "GA", "addr:postcode": "30342", "addr:country": "US", "name": "The Fresh Market on Roswell Rd NE", "phone": "404.250.0852", "website": "https://www.thefreshmarket.com/my-market/store/4405roswell-atlanta", "opening_hours": "Mo-Su 08:00-21:00", "brand": "Fresh Market", "brand:wikidata": "Q7735265", "nsi_id": "thefreshmarket-dde59d"}, "geometry": {"type": "Point", "coordinates": [-84.380066, 33.874504]}},
{"type": "Feature", "id": "QZdgV0jYayjDN1i4S_LscdbPQjg=", "properties": {"ref": "72", "@spider": "freshmarket", "shop": "supermarket", "addr:street_address": "3232 Lake Ave, Ste 150", "addr:city": "Wilmette", "addr:state": "IL", "addr:postcode": "60091", "addr:country": "US", "name": "The Fresh Market on Lake Ave", "phone": "847.251.4261", "website": "https://www.thefreshmarket.com/my-market/store/3232lake-wilmette", "opening_hours": "Mo-Su 08:00-21:00", "brand": "Fresh Market", "brand:wikidata": "Q7735265", "nsi_id": "thefreshmarket-dde59d"}, "geometry": {"type": "Point", "coordinates": [-87.7563, 42.08157]}},
{"type": "Feature", "id": "dpYmO0QuIF_y_FiuH17OufQMgB4=", "properties": {"ref": "85", "@spider": "freshmarket", "shop": "supermarket", "addr:street_address": "1810 Kaliste Saloom Rd", "addr:city": "Lafayette", "addr:state": "LA", "addr:postcode": "70508", "addr:country": "US", "name": "The Fresh Market on Kaliste Saloom Rd", "phone": "337.216.4503", "website": "https://www.thefreshmarket.com/my-market/store/1810kaliste-saloom-lafayette", "opening_hours": "Mo-Su 08:00-21:00", "brand": "Fresh Market", "brand:wikidata": "Q7735265", "nsi_id": "thefreshmarket-dde59d"}, "geometry": {"type": "Point", "coordinates": [-92.03444, 30.169796]}},
{"type": "Feature", "id": "MBRTfwUy7jOIWvQ5CqnwD9aWYhU=", "properties": {"ref": "86", "@spider": "freshmarket", "shop": "supermarket", "addr:street_address": "2510 Quarry Lake Dr", "addr:city": "Baltimore", "addr:state": "MD", "addr:postcode": "21209", "addr:country": "US", "name": "The Fresh Market on Quarry Lake Dr", "phone": "410.580.1930", "website": "https://www.thefreshmarket.com/my-market/store/2510quarry-lake-baltimore", "opening_hours": "Mo-Su 08:00-21:00", "brand": "Fresh Market", "brand:wikidata": "Q7735265", "nsi_id": "thefreshmarket-dde59d"}, "geometry": {"type": "Point", "coordinates": [-76.687174, 39.385529]}},
{"type": "Feature", "id": "IFcdu-3zWsb3VKN6j9cYtUN2Z20=", "properties": {"ref": "91", "@spider": "freshmarket", "shop": "supermarket", "addr:street_address": "1000 Highland Colony Pkwy, Ste 1001", "addr:city": "Ridgeland", "addr:state": "MS", "addr:postcode": "39157", "addr:country": "US", "name": "The Fresh Market on Highland Colony Pkwy", "phone": "601.856.2866", "website": "https://www.thefreshmarket.com/my-market/store/1000highland-colony-ridgeland", "opening_hours": "Mo-Su 08:00-21:00", "brand": "Fresh Market", "brand:wikidata": "Q7735265", "nsi_id": "thefreshmarket-dde59d"}, "geometry": {"type": "Point", "coordinates": [-90.148275, 32.433217]}},
{"type": "Feature", "id": "owypoc6KGPq-ZMApCBVaTc_Yrxg=", "properties": {"ref": "92", "@spider": "freshmarket", "shop": "supermarket", "addr:street_address": "5415 N College Ave", "addr:city": "Indianapolis", "addr:state": "IN", "addr:postcode": "46220", "addr:country": "US", "name": "The Fresh Market on N College Ave", "phone": "317.259.9270", "website": "https://www.thefreshmarket.com/my-market/store/5415north-college-indianapolis", "opening_hours": "Mo-Su 08:00-21:00", "brand": "Fresh Market", "brand:wikidata": "Q7735265", "nsi_id": "thefreshmarket-dde59d"}, "geometry": {"type": "Point", "coordinates": [-86.145451, 39.851441]}},
{"type": "Feature", "id": "094vwJVg1S6HQYoA-aZMGE28ohg=", "properties": {"ref": "94", "@spider": "freshmarket", "shop": "supermarket", "addr:street_address": "1200A Raleigh Rd", "addr:city": "Chapel Hill", "addr:state": "NC", "addr:postcode": "27517", "addr:country": "US", "name": "The Fresh Market on Raleigh Rd", "phone": "919.932.7501", "website": "https://www.thefreshmarket.com/my-market/store/1200raleigh-chapel-hill", "opening_hours": "Mo-Su 08:00-21:00", "brand": "Fresh Market", "brand:wikidata": "Q7735265", "nsi_id": "thefreshmarket-dde59d"}, "geometry": {"type": "Point", "coordinates": [-79.026004, 35.907843]}},
{"type": "Feature", "id": "I7cOvZitl7oqlRZh-umJFw0eddM=", "properties": {"ref": "93", "@spider": "freshmarket", "shop": "supermarket", "addr:street_address": "4357 Forsyth Rd", "addr:city": "Macon", "addr:state": "GA", "addr:postcode": "31210", "addr:country": "US", "name": "The Fresh Market on Forsyth Rd", "phone": "478.757.4222", "website": "https://www.thefreshmarket.com/my-market/store/4357forsyth-macon", "opening_hours": "Mo-Su 08:00-21:00", "brand": "Fresh Market", "brand:wikidata": "Q7735265", "nsi_id": "thefreshmarket-dde59d"}, "geometry": {"type": "Point", "coordinates": [-83.696369, 32.868849]}},
{"type": "Feature", "id": "OfB70B0mVUDURhb8EkG5LrRMR7w=", "properties": {"ref": "101", "@spider": "freshmarket", "shop": "supermarket", "addr:street_address": "950 Criswell Dr, Ste 111", "addr:city": "Greenville", "addr:state": "NC", "addr:postcode": "27834", "addr:country": "US", "name": "The Fresh Market on Criswell Dr", "phone": "252.756.6210", "website": "https://www.thefreshmarket.com/my-market/store/950criswell-greenville", "opening_hours": "Mo-Su 08:00-21:00", "brand": "Fresh Market", "brand:wikidata": "Q7735265", "nsi_id": "thefreshmarket-dde59d"}, "geometry": {"type": "Point", "coordinates": [-77.406052, 35.56637]}},
{"type": "Feature", "id": "wBudIkCt1vymHqc-aOZnGz29NBQ=", "properties": {"ref": "102", "@spider": "freshmarket", "shop": "supermarket", "addr:street_address": "1200 Huguenot Rd", "addr:city": "Midlothian", "addr:state": "VA", "addr:postcode": "23113", "addr:country": "US", "name": "The Fresh Market on Huguenot Rd", "phone": "804.897.0300", "website": "https://www.thefreshmarket.com/my-market/store/1200huguenot-midlothian", "opening_hours": "Mo-Su 08:00-21:00", "brand": "Fresh Market", "brand:wikidata": "Q7735265", "nsi_id": "thefreshmarket-dde59d"}, "geometry": {"type": "Point", "coordinates": [-77.614091, 37.508727]}},
{"type": "Feature", "id": "vqhEv4pakX6swve8x_9yM-EGPgo=", "properties": {"ref": "96", "@spider": "freshmarket", "shop": "supermarket", "addr:street_address": "3740 Wedgewood Ln", "addr:city": "The Villages", "addr:state": "FL", "addr:postcode": "32162", "addr:country": "US", "name": "The Fresh Market on Wedgewood Ln", "phone": "352.391.9620", "website": "https://www.thefreshmarket.com/my-market/store/3740wedgewood-the-villages", "opening_hours": "Mo-Su 08:00-21:00", "brand": "Fresh Market", "brand:wikidata": "Q7735265", "nsi_id": "thefreshmarket-dde59d"}, "geometry": {"type": "Point", "coordinates": [-82.02111, 28.92786]}},
{"type": "Feature", "id": "fSRtfJr_s1MErpMpN-FYhQQRMWQ=", "properties": {"ref": "103", "@spider": "freshmarket", "shop": "supermarket", "addr:street_address": "5251 University Pkwy", "addr:city": "University Park", "addr:state": "FL", "addr:postcode": "34201", "addr:country": "US", "name": "The Fresh Market on University Pkwy", "phone": "941.355.0417", "website": "https://www.thefreshmarket.com/my-market/store/5251university-sarasota", "opening_hours": "Mo-Su 08:00-21:00", "brand": "Fresh Market", "brand:wikidata": "Q7735265", "nsi_id": "thefreshmarket-dde59d"}, "geometry": {"type": "Point", "coordinates": [-82.463, 27.38952]}},
{"type": "Feature", "id": "GquGOOhNcTKALYDaRoB7jOjxEp0=", "properties": {"ref": "105", "@spider": "freshmarket", "shop": "supermarket", "addr:street_address": "1800 West Ave", "addr:city": "Miami Beach", "addr:state": "FL", "addr:postcode": "33139", "addr:country": "US", "name": "The Fresh Market on West Ave", "phone": "305.532.0377", "website": "https://www.thefreshmarket.com/my-market/store/1800west-miami-beach", "opening_hours": "Mo-Su 08:00-21:00", "brand": "Fresh Market", "brand:wikidata": "Q7735265", "nsi_id": "thefreshmarket-dde59d"}, "geometry": {"type": "Point", "coordinates": [-80.142728, 25.793765]}},
{"type": "Feature", "id": "WkqCaZvjjq5mH8BcDEhdK7t8K4s=", "properties": {"ref": "106", "@spider": "freshmarket", "shop": "supermarket", "addr:street_address": "925 Baltimore Pike", "addr:city": "Glen Mills", "addr:state": "PA", "addr:postcode": "19342", "addr:country": "US", "name": "The Fresh Market on Baltimore Pike", "phone": "610.358.4091", "website": "https://www.thefreshmarket.com/my-market/store/925baltimore-glenn-mills", "opening_hours": "Mo-Su 08:00-21:00", "brand": "Fresh Market", "brand:wikidata": "Q7735265", "nsi_id": "thefreshmarket-dde59d"}, "geometry": {"type": "Point", "coordinates": [-75.532309, 39.885799]}},
{"type": "Feature", "id": "h-QeCOgxHPuobbzm9XPss7sA1XA=", "properties": {"ref": "107", "@spider": "freshmarket", "shop": "supermarket", "addr:street_address": "11421-A Ocean Hwy", "addr:city": "Pawleys Island", "addr:state": "SC", "addr:postcode": "29585", "addr:country": "US", "name": "The Fresh Market on Ocean Hwy", "phone": "843.235.3467", "website": "https://www.thefreshmarket.com/my-market/store/11421ocean-pawleys-island", "opening_hours": "Mo-Su 08:00-21:00", "brand": "Fresh Market", "brand:wikidata": "Q7735265", "nsi_id": "thefreshmarket-dde59d"}, "geometry": {"type": "Point", "coordinates": [-79.1203, 33.45033]}},
{"type": "Feature", "id": "AI4rcE09HftWeYB8RZ_oFdpB6oM=", "properties": {"ref": "108", "@spider": "freshmarket", "shop": "supermarket", "addr:street_address": "100 Welsh Rd, Ste D", "addr:city": "Horsham", "addr:state": "PA", "addr:postcode": "19044", "addr:country": "US", "name": "The Fresh Market on Welsh Rd", "phone": "215.659.9432", "website": "https://www.thefreshmarket.com/my-market/store/100welsh-horsham", "opening_hours": "Mo-Su 08:00-21:00", "brand": "Fresh Market", "brand:wikidata": "Q7735265", "nsi_id": "thefreshmarket-dde59d"}, "geometry": {"type": "Point", "coordinates": [-75.143563, 40.158541]}},
{"type": "Feature", "id": "eFXa1_qai5AbJ2Ed8P9kkC9XHKo=", "properties": {"ref": "117", "@spider": "freshmarket", "shop": "supermarket", "addr:street_address": "605 Post Rd E", "addr:city": "Westport", "addr:state": "CT", "addr:postcode": "06880", "addr:country": "US", "name": "The Fresh Market on Post Rd E", "phone": "203.227.2910", "website": "https://www.thefreshmarket.com/my-market/store/605post-road-westport", "opening_hours": "Mo-Su 08:00-21:00", "brand": "Fresh Market", "brand:wikidata": "Q7735265", "nsi_id": "thefreshmarket-dde59d"}, "geometry": {"type": "Point", "coordinates": [-73.3444, 41.1393]}},
{"type": "Feature", "id": "9mS2Nb_CtHqIyx2im1Otgg_Hf5Y=", "properties": {"ref": "113", "@spider": "freshmarket", "shop": "supermarket", "addr:street_address": "11 Essington Dr", "addr:city": "Hingham", "addr:state": "MA", "addr:postcode": "02043", "addr:country": "US", "name": "The Fresh Market on Essington Dr ", "phone": "781.740.2066", "website": "https://www.thefreshmarket.com/my-market/store/11essington-hingham", "opening_hours": "Mo-Su 08:00-21:00", "brand": "Fresh Market", "brand:wikidata": "Q7735265", "nsi_id": "thefreshmarket-dde59d"}, "geometry": {"type": "Point", "coordinates": [-70.920863, 42.24992]}},
{"type": "Feature", "id": "aUaWZArJGDul8HwhhDVmKnsOSj4=", "properties": {"ref": "118", "@spider": "freshmarket", "shop": "supermarket", "addr:street_address": "664 New Loudon Rd", "addr:city": "Latham", "addr:state": "NY", "addr:postcode": "12110", "addr:country": "US", "name": "The Fresh Market on New Loudon Rd", "phone": "518.786.5150", "website": "https://www.thefreshmarket.com/my-market/store/664new-loudon-latham", "opening_hours": "Mo-Su 08:00-21:00", "brand": "Fresh Market", "brand:wikidata": "Q7735265", "nsi_id": "thefreshmarket-dde59d"}, "geometry": {"type": "Point", "coordinates": [-73.7635, 42.73618]}},
{"type": "Feature", "id": "xsQL1ZneEAvfjLESD-vcSX1JWw4=", "properties": {"ref": "120", "@spider": "freshmarket", "shop": "supermarket", "addr:street_address": "2900 4th St N", "addr:city": "St. Petersburg", "addr:state": "FL", "addr:postcode": "33704", "addr:country": "US", "name": "The Fresh Market on 4th St N", "phone": "727.822.4913", "website": "https://www.thefreshmarket.com/my-market/store/29004th-st-petersburg", "opening_hours": "Mo-Su 08:00-21:00", "brand": "Fresh Market", "brand:wikidata": "Q7735265", "nsi_id": "thefreshmarket-dde59d"}, "geometry": {"type": "Point", "coordinates": [-82.638991, 27.798969]}},
{"type": "Feature", "id": "sen3wacB31c9aXD2DhYIfRdX_sY=", "properties": {"ref": "122", "@spider": "freshmarket", "shop": "supermarket", "addr:street_address": "1591 Bradley Park Dr, Ste B", "addr:city": "Columbus", "addr:state": "GA", "addr:postcode": "31904", "addr:country": "US", "name": "The Fresh Market on Bradley Park Dr", "phone": "706.317.2977", "website": "https://www.thefreshmarket.com/my-market/store/1591bradley-park-columbus", "opening_hours": "Mo-Su 08:00-21:00", "brand": "Fresh Market", "brand:wikidata": "Q7735265", "nsi_id": "thefreshmarket-dde59d"}, "geometry": {"type": "Point", "coordinates": [-84.970194, 32.534742]}},
{"type": "Feature", "id": "6n5p4HodsVnXzFsw7-Y6j5Dpq_4=", "properties": {"ref": "128", "@spider": "freshmarket", "shop": "supermarket", "addr:street_address": "100 N Peachtree Pkwy", "addr:city": "Peachtree City", "addr:state": "GA", "addr:postcode": "30269", "addr:country": "US", "name": "The Fresh Market on N Peachtree Pkwy", "phone": "770.486.2738", "website": "https://www.thefreshmarket.com/my-market/store/100north-peachtree-peachtree-city", "opening_hours": "Mo-Su 08:00-21:00", "brand": "Fresh Market", "brand:wikidata": "Q7735265", "nsi_id": "thefreshmarket-dde59d"}, "geometry": {"type": "Point", "coordinates": [-84.569181, 33.409364]}},
{"type": "Feature", "id": "RpQfMAAZL35wQMo3O8l_wO8V3BE=", "properties": {"ref": "130", "@spider": "freshmarket", "shop": "supermarket", "addr:street_address": "6401 E Lloyd Expy", "addr:city": "Evansville", "addr:state": "IN", "addr:postcode": "47715", "addr:country": "US", "name": "The Fresh Market on E Lloyd Expy", "phone": "812.402.5361", "website": "https://www.thefreshmarket.com/my-market/store/6401east-lloyd-evansville", "opening_hours": "Mo-Su 08:00-21:00", "brand": "Fresh Market", "brand:wikidata": "Q7735265", "nsi_id": "thefreshmarket-dde59d"}, "geometry": {"type": "Point", "coordinates": [-87.473457, 37.973643]}},
{"type": "Feature", "id": "0CGCXbthXjqMTGkx6MhJ4lJ4Hwo=", "properties": {"ref": "129", "@spider": "freshmarket", "shop": "supermarket", "addr:street_address": "838 Dulaney Valley Rd", "addr:city": "Towson", "addr:state": "MD", "addr:postcode": "21204", "addr:country": "US", "name": "The Fresh Market on Dulaney Valley Rd", "phone": "410.494.4930", "website": "https://www.thefreshmarket.com/my-market/store/838dulaney-valley-towson", "opening_hours": "Mo-Su 08:00-21:00", "brand": "Fresh Market", "brand:wikidata": "Q7735265", "nsi_id": "thefreshmarket-dde59d"}, "geometry": {"type": "Point", "coordinates": [-76.602307, 39.405413]}},
{"type": "Feature", "id": "2b9ulNGdMPxoyhZV9Jy4mn5mv9g=", "properties": {"ref": "124", "@spider": "freshmarket", "shop": "supermarket", "addr:street_address": "150 Branch Rd SE", "addr:city": "Vienna", "addr:state": "VA", "addr:postcode": "22180", "addr:country": "US", "name": "The Fresh Market on Branch Rd SE", "phone": "703.242.8923", "website": "https://www.thefreshmarket.com/my-market/store/150branch-vienna", "opening_hours": "Mo-Su 08:00-21:00", "brand": "Fresh Market", "brand:wikidata": "Q7735265", "nsi_id": "thefreshmarket-dde59d"}, "geometry": {"type": "Point", "coordinates": [-77.257102, 38.905902]}},
{"type": "Feature", "id": "UPnBYh1QLBsLQHT2dAkJVKoNhUY=", "properties": {"ref": "48", "@spider": "freshmarket", "shop": "supermarket", "addr:street_address": "890 William Hilton Pkwy, Ste 110", "addr:city": "Hilton Head Island", "addr:state": "SC", "addr:postcode": "29928", "addr:country": "US", "name": "The Fresh Market on William Hilton Pkwy", "phone": "843.842.8332", "website": "https://www.thefreshmarket.com/my-market/store/890william-hilton-hilton-head-island", "opening_hours": "Mo-Su 08:00-21:00", "brand": "Fresh Market", "brand:wikidata": "Q7735265", "nsi_id": "thefreshmarket-dde59d"}, "geometry": {"type": "Point", "coordinates": [-80.738961, 32.170366]}},
{"type": "Feature", "id": "0gJhBgfNnG7el4nojczsWZXQ5Xs=", "properties": {"ref": "64", "@spider": "freshmarket", "shop": "supermarket", "addr:street_address": "6306 W Jefferson Blvd", "addr:city": "Fort Wayne", "addr:state": "IN", "addr:postcode": "46804", "addr:country": "US", "name": "The Fresh Market on W Jefferson Blvd", "phone": "260.459.9691", "website": "https://www.thefreshmarket.com/my-market/store/6306w-jefferson-fort-wayne", "opening_hours": "Mo-Su 08:00-21:00", "brand": "Fresh Market", "brand:wikidata": "Q7735265", "nsi_id": "thefreshmarket-dde59d"}, "geometry": {"type": "Point", "coordinates": [-85.223474, 41.058768]}},
{"type": "Feature", "id": "XTtiGR_WTDN4wB_hgAoC1OUUypk=", "properties": {"ref": "65", "@spider": "freshmarket", "shop": "supermarket", "addr:street_address": "5525 Abercorn St", "addr:city": "Savannah", "addr:state": "GA", "addr:postcode": "31405", "addr:country": "US", "name": "The Fresh Market on Abercorn St", "phone": "912.354.6075", "website": "https://www.thefreshmarket.com/my-market/store/5525abercorn-savannah", "opening_hours": "Mo-Su 08:00-21:00", "brand": "Fresh Market", "brand:wikidata": "Q7735265", "nsi_id": "thefreshmarket-dde59d"}, "geometry": {"type": "Point", "coordinates": [-81.111376, 32.024688]}},
{"type": "Feature", "id": "iQlFo3aWpaKb4b1Bm5Ah6mM6C8s=", "properties": {"ref": "67", "@spider": "freshmarket", "shop": "supermarket", "addr:street_address": "2207 Colonial Ave SW", "addr:city": "Roanoke", "addr:state": "VA", "addr:postcode": "24015", "addr:country": "US", "name": "The Fresh Market on Colonial Ave SW ", "phone": "540.344.5490", "website": "https://www.thefreshmarket.com/my-market/store/2207colonial-roanoke", "opening_hours": "Mo-Su 08:00-21:00", "brand": "Fresh Market", "brand:wikidata": "Q7735265", "nsi_id": "thefreshmarket-dde59d"}, "geometry": {"type": "Point", "coordinates": [-79.957337, 37.255062]}},
{"type": "Feature", "id": "BzZkRVO6mVLEyR985QESqdmpCzw=", "properties": {"ref": "71", "@spider": "freshmarket", "shop": "supermarket", "addr:street_address": "3722 Henderson Blvd", "addr:city": "Tampa", "addr:state": "FL", "addr:postcode": "33609", "addr:country": "US", "name": "The Fresh Market on Henderson Blvd", "phone": "813.875.7400", "website": "https://www.thefreshmarket.com/my-market/store/3722henderson-tampa", "opening_hours": "Mo-Su 08:00-21:00", "brand": "Fresh Market", "brand:wikidata": "Q7735265", "nsi_id": "thefreshmarket-dde59d"}, "geometry": {"type": "Point", "coordinates": [-82.504512, 27.93434]}},
{"type": "Feature", "id": "CeaPtLMbwMzsvG14VonuuAq6GoQ=", "properties": {"ref": "70", "@spider": "freshmarket", "shop": "supermarket", "addr:street_address": "1527 N Parham Rd", "addr:city": "Richmond", "addr:state": "VA", "addr:postcode": "23229", "addr:country": "US", "name": "The Fresh Market on N Parham Rd", "phone": "804.282.3823", "website": "https://www.thefreshmarket.com/my-market/store/1527north-parham-richmond", "opening_hours": "Mo-Su 08:00-21:00", "brand": "Fresh Market", "brand:wikidata": "Q7735265", "nsi_id": "thefreshmarket-dde59d"}, "geometry": {"type": "Point", "coordinates": [-77.563173, 37.604033]}},
{"type": "Feature", "id": "uENfCHkE-tE5JzluU3_Ro9NW2y0=", "properties": {"ref": "88", "@spider": "freshmarket", "shop": "supermarket", "addr:street_address": "13493 Atlantic Blvd", "addr:city": "Jacksonville", "addr:state": "FL", "addr:postcode": "32225", "addr:country": "US", "name": "The Fresh Market on Atlantic Blvd", "phone": "904.221.6286", "website": "https://www.thefreshmarket.com/my-market/store/13493atlantic-jacksonville", "opening_hours": "Mo-Su 08:00-21:00", "brand": "Fresh Market", "brand:wikidata": "Q7735265", "nsi_id": "thefreshmarket-dde59d"}, "geometry": {"type": "Point", "coordinates": [-81.451573, 30.321472]}},
{"type": "Feature", "id": "R2w6kcfHQVIe1u9eHEMVZsAjFTc=", "properties": {"ref": "104", "@spider": "freshmarket", "shop": "supermarket", "addr:street_address": "20623 Torrence Chapel Rd", "addr:city": "Cornelius", "addr:state": "NC", "addr:postcode": "28031", "addr:country": "US", "name": "The Fresh Market on Torrence Chapel Rd", "phone": "704.892.8802", "website": "https://www.thefreshmarket.com/my-market/store/20623torrence-chapel-cornelius", "opening_hours": "Mo-Su 08:00-21:00", "brand": "Fresh Market", "brand:wikidata": "Q7735265", "nsi_id": "thefreshmarket-dde59d"}, "geometry": {"type": "Point", "coordinates": [-80.877504, 35.485994]}},
{"type": "Feature", "id": "3k1oI58fbiECskLuOHfqbzDmDVI=", "properties": {"ref": "97", "@spider": "freshmarket", "shop": "supermarket", "addr:street_address": "1805 Rudy Ln", "addr:city": "Louisville", "addr:state": "KY", "addr:postcode": "40207", "addr:country": "US", "name": "The Fresh Market on Rudy Ln", "phone": "502.895.7593", "website": "https://www.thefreshmarket.com/my-market/store/1805rudy-louisville", "opening_hours": "Mo-Su 08:00-21:00", "brand": "Fresh Market", "brand:wikidata": "Q7735265", "nsi_id": "thefreshmarket-dde59d"}, "geometry": {"type": "Point", "coordinates": [-85.638031, 38.279682]}},
{"type": "Feature", "id": "yqRx1LWeUFTYEOTGbg0zqBNkzhI=", "properties": {"ref": "114", "@spider": "freshmarket", "shop": "supermarket", "addr:street_address": "12131 Jefferson Ave", "addr:city": "Newport News", "addr:state": "VA", "addr:postcode": "23602", "addr:country": "US", "name": "The Fresh Market on Jefferson Ave", "phone": "757.269.0034", "website": "https://www.thefreshmarket.com/my-market/store/12131jefferson-newport-news", "opening_hours": "Mo-Su 08:00-21:00", "brand": "Fresh Market", "brand:wikidata": "Q7735265", "nsi_id": "thefreshmarket-dde59d"}, "geometry": {"type": "Point", "coordinates": [-76.497006, 37.107384]}},
{"type": "Feature", "id": "86qJKTpFcpYlGPjVC92-ivkwG6U=", "properties": {"ref": "218", "@spider": "freshmarket", "shop": "supermarket", "addr:street_address": "5540 N Military Trail", "addr:city": "Boca Raton", "addr:state": "FL", "addr:postcode": "33496", "addr:country": "US", "name": "The Fresh Market on N Military Trail", "phone": "561.994.2221", "website": "https://www.thefreshmarket.com/my-market/store/5540nmilitarytrail-boca-raton", "opening_hours": "Mo-Su 08:00-21:00", "brand": "Fresh Market", "brand:wikidata": "Q7735265", "nsi_id": "thefreshmarket-dde59d"}, "geometry": {"type": "Point", "coordinates": [-80.120522, 26.399359]}},
{"type": "Feature", "id": "4AlNNng8CfOHiZEWBeNI3Id-mFk=", "properties": {"ref": "116", "@spider": "freshmarket", "shop": "supermarket", "addr:street_address": "2504 Solomons Island Rd", "addr:city": "Annapolis", "addr:state": "MD", "addr:postcode": "21401", "addr:country": "US", "name": "The Fresh Market on Solomons Island Rd", "phone": "410.573.9700", "website": "https://www.thefreshmarket.com/my-market/store/2504solomons-island-annapolis", "opening_hours": "Mo-Su 08:00-21:00", "brand": "Fresh Market", "brand:wikidata": "Q7735265", "nsi_id": "thefreshmarket-dde59d"}, "geometry": {"type": "Point", "coordinates": [-76.544861, 38.975945]}},
{"type": "Feature", "id": "qzV99Qedps2o2qpxmpMzC7EALqw=", "properties": {"ref": "115", "@spider": "freshmarket", "shop": "supermarket", "addr:street_address": "526-A 21st St", "addr:city": "Vero Beach", "addr:state": "FL", "addr:postcode": "32960", "addr:country": "US", "name": "The Fresh Market on 21st St", "phone": "772.794.2216", "website": "https://www.thefreshmarket.com/my-market/store/526-21st-vero-beach", "opening_hours": "Mo-Su 08:00-21:00", "brand": "Fresh Market", "brand:wikidata": "Q7735265", "nsi_id": "thefreshmarket-dde59d"}, "geometry": {"type": "Point", "coordinates": [-80.384275, 27.641076]}},
{"type": "Feature", "id": "4dd4yO_QSC-P_-G5ph8w1pUOsAg=", "properties": {"ref": "131", "@spider": "freshmarket", "shop": "supermarket", "addr:street_address": "1649 Rockville Pike", "addr:city": "Rockville", "addr:state": "MD", "addr:postcode": "20852", "addr:country": "US", "name": "The Fresh Market on Rockville Pike", "phone": "240.221.0780", "website": "https://www.thefreshmarket.com/my-market/store/1649rockville-rockville", "opening_hours": "Mo-Su 08:00-21:00", "brand": "Fresh Market", "brand:wikidata": "Q7735265", "nsi_id": "thefreshmarket-dde59d"}, "geometry": {"type": "Point", "coordinates": [-77.127, 39.06195]}},
{"type": "Feature", "id": "NlfMcd74G3H1KBPVoEruI_Mu1rg=", "properties": {"ref": "121", "@spider": "freshmarket", "shop": "supermarket", "addr:street_address": "32 Chestnut Ridge Rd", "addr:city": "Montvale", "addr:state": "NJ", "addr:postcode": "07645", "addr:country": "US", "name": "The Fresh Market on Chestnut Ridge Rd", "phone": "201.802.9300", "website": "https://www.thefreshmarket.com/my-market/store/32chestnut-ridge-montvale", "opening_hours": "Mo-Su 08:00-21:00", "brand": "Fresh Market", "brand:wikidata": "Q7735265", "nsi_id": "thefreshmarket-dde59d"}, "geometry": {"type": "Point", "coordinates": [-74.071772, 41.048457]}},
{"type": "Feature", "id": "Un1BJ_8kg3gtszxs4M6nNjRHovM=", "properties": {"ref": "127", "@spider": "freshmarket", "shop": "supermarket", "addr:street_address": "315 W Main St", "addr:city": "Avon", "addr:state": "CT", "addr:postcode": "06001", "addr:country": "US", "name": "The Fresh Market on W Main St", "phone": "860.677.0756", "website": "https://www.thefreshmarket.com/my-market/store/315west-main-avon", "opening_hours": "Mo-Su 08:00-21:00", "brand": "Fresh Market", "brand:wikidata": "Q7735265", "nsi_id": "thefreshmarket-dde59d"}, "geometry": {"type": "Point", "coordinates": [-72.858947, 41.813932]}},
{"type": "Feature", "id": "9mEaUOQ3BodFgxVJlO0r7wEJOSQ=", "properties": {"ref": "125", "@spider": "freshmarket", "shop": "supermarket", "addr:street_address": "723 White Plains Rd", "addr:city": "Scarsdale", "addr:state": "NY", "addr:postcode": "10583", "addr:country": "US", "name": "The Fresh Market on White Plains Rd", "phone": "914.723.6600", "website": "https://www.thefreshmarket.com/my-market/store/723white-plains-scarsdale", "opening_hours": "Mo-Su 08:00-21:00", "brand": "Fresh Market", "brand:wikidata": "Q7735265", "nsi_id": "thefreshmarket-dde59d"}, "geometry": {"type": "Point", "coordinates": [-73.806003, 40.971516]}},
{"type": "Feature", "id": "2Gg6b13mCaCuXjEOLsT0g0BSvGA=", "properties": {"ref": "135", "@spider": "freshmarket", "shop": "supermarket", "addr:street_address": "424 N Federal Hwy", "addr:city": "Fort Lauderdale", "addr:state": "FL", "addr:postcode": "33301", "addr:country": "US", "name": "The Fresh Market on 424 N Federal Hwy", "phone": "954.763.1250", "website": "https://www.thefreshmarket.com/my-market/store/424north-federal-fort-lauderdale", "opening_hours": "Mo-Su 08:00-21:00", "brand": "Fresh Market", "brand:wikidata": "Q7735265", "nsi_id": "thefreshmarket-dde59d"}, "geometry": {"type": "Point", "coordinates": [-80.136795, 26.127112]}},
{"type": "Feature", "id": "mi1_KdqE7KWqAjUE6Q_5O67WCMI=", "properties": {"ref": "134", "@spider": "freshmarket", "shop": "supermarket", "addr:street_address": "5808 Northwest Hwy", "addr:city": "Crystal Lake", "addr:state": "IL", "addr:postcode": "60014", "addr:country": "US", "name": "The Fresh Market on Northwest Hwy", "phone": "815.444.7360", "website": "https://www.thefreshmarket.com/my-market/store/5808northwest-crystal-lake", "opening_hours": "Mo-Su 08:00-21:00", "brand": "Fresh Market", "brand:wikidata": "Q7735265", "nsi_id": "thefreshmarket-dde59d"}, "geometry": {"type": "Point", "coordinates": [-88.312208, 42.227817]}},
{"type": "Feature", "id": "h5ZxihqoGjLN4m0J88UIX5CURXk=", "properties": {"ref": "136", "@spider": "freshmarket", "shop": "supermarket", "addr:street_address": "1400 Whiskey Rd", "addr:city": "Aiken", "addr:state": "SC", "addr:postcode": "29803", "addr:country": "US", "name": "The Fresh Market on Whiskey Rd", "phone": "803.649.7600", "website": "https://www.thefreshmarket.com/my-market/store/1400whiskey-aiken", "opening_hours": "Mo-Su 08:00-21:00", "brand": "Fresh Market", "brand:wikidata": "Q7735265", "nsi_id": "thefreshmarket-dde59d"}, "geometry": {"type": "Point", "coordinates": [-81.722999, 33.533927]}},
{"type": "Feature", "id": "AUj2fCtWLghOG_sJWQ8uYaagU8g=", "properties": {"ref": "132", "@spider": "freshmarket", "shop": "supermarket", "addr:street_address": "421 N State of Franklin Rd, Ste 200", "addr:city": "Johnson City", "addr:state": "TN", "addr:postcode": "37601", "addr:country": "US", "name": "The Fresh Market on N State of Franklin Rd", "phone": "423.232.1555", "website": "https://www.thefreshmarket.com/my-market/store/421n-state-of-franklin-johnson-city", "opening_hours": "Mo-Su 08:00-21:00", "brand": "Fresh Market", "brand:wikidata": "Q7735265", "nsi_id": "thefreshmarket-dde59d"}, "geometry": {"type": "Point", "coordinates": [-82.387666, 36.310011]}},
{"type": "Feature", "id": "mTBPlE23-NCa9mF_w2DrEG4aJG0=", "properties": {"ref": "137", "@spider": "freshmarket", "shop": "supermarket", "addr:street_address": "2300 SE Ocean Blvd", "addr:city": "Stuart", "addr:state": "FL", "addr:postcode": "34996", "addr:country": "US", "name": "The Fresh Market on SE Ocean Blvd", "phone": "772.223.5240", "website": "https://www.thefreshmarket.com/my-market/store/2300se-ocean-boulevard-stuart-florida", "opening_hours": "Mo-Su 08:00-21:00", "brand": "Fresh Market", "brand:wikidata": "Q7735265", "nsi_id": "thefreshmarket-dde59d"}, "geometry": {"type": "Point", "coordinates": [-80.222432, 27.195797]}},
{"type": "Feature", "id": "AA6te7graMw86jdaFNcfxI-E3e0=", "properties": {"ref": "139", "@spider": "freshmarket", "shop": "supermarket", "addr:street_address": "10 N Nansemond St, Ste B", "addr:city": "Richmond", "addr:state": "VA", "addr:postcode": "23221", "addr:country": "US", "name": "The Fresh Market on N Nansemond St", "phone": "804.355.3190", "website": "https://www.thefreshmarket.com/my-market/store/10north-nansemond-richmond", "opening_hours": "Mo-Su 08:00-21:00", "brand": "Fresh Market", "brand:wikidata": "Q7735265", "nsi_id": "thefreshmarket-dde59d"}, "geometry": {"type": "Point", "coordinates": [-77.486161, 37.557166]}},
{"type": "Feature", "id": "YaSlGEXezgr84X11NkGoCvyLPP4=", "properties": {"ref": "140", "@spider": "freshmarket", "shop": "supermarket", "addr:street_address": "8760 SW 136th St", "addr:city": "Miami", "addr:state": "FL", "addr:postcode": "33176", "addr:country": "US", "name": "The Fresh Market on SW 136th St", "phone": "305.253.2500", "website": "https://www.thefreshmarket.com/my-market/store/8760sw-136th-miami", "opening_hours": "Mo-Su 08:00-21:00", "brand": "Fresh Market", "brand:wikidata": "Q7735265", "nsi_id": "thefreshmarket-dde59d"}, "geometry": {"type": "Point", "coordinates": [-80.335306, 25.643323]}},
{"type": "Feature", "id": "HRmiwnBjpBErmQHd0RDO5P44rus=", "properties": {"ref": "147", "@spider": "freshmarket", "shop": "supermarket", "addr:street_address": "6701 Manatee Ave W", "addr:city": "Bradenton", "addr:state": "FL", "addr:postcode": "34209", "addr:country": "US", "name": "The Fresh Market on Manatee Ave W", "phone": "941.795.1800", "website": "https://www.thefreshmarket.com/my-market/store/6701manatee-bradenton", "opening_hours": "Mo-Su 08:00-21:00", "brand": "Fresh Market", "brand:wikidata": "Q7735265", "nsi_id": "thefreshmarket-dde59d"}, "geometry": {"type": "Point", "coordinates": [-82.629, 27.494974]}},
{"type": "Feature", "id": "BTjDC-ua2EHfEQi2FjhtvbRd8cQ=", "properties": {"ref": "155", "@spider": "freshmarket", "shop": "supermarket", "addr:street_address": "196 Alps Rd, Ste 50", "addr:city": "Athens", "addr:state": "GA", "addr:postcode": "30606", "addr:country": "US", "name": "The Fresh Market on Alps Rd", "phone": "706.543.6343", "website": "https://www.thefreshmarket.com/my-market/store/196alps-road-athens", "opening_hours": "Mo-Su 08:00-21:00", "brand": "Fresh Market", "brand:wikidata": "Q7735265", "nsi_id": "thefreshmarket-dde59d"}, "geometry": {"type": "Point", "coordinates": [-83.40996, 33.946892]}},
{"type": "Feature", "id": "ojSv2hyJi7kqZVEl5fxmASaJ_rk=", "properties": {"ref": "144", "@spider": "freshmarket", "shop": "supermarket", "addr:street_address": "3338 St Charles Ave", "addr:city": "New Orleans", "addr:state": "LA", "addr:postcode": "70115", "addr:country": "US", "name": "The Fresh Market on St Charles Ave", "phone": "504.895.5160", "website": "https://www.thefreshmarket.com/my-market/store/3338st-charles-avenue-new-orleans", "opening_hours": "Mo-Su 08:00-21:00", "brand": "Fresh Market", "brand:wikidata": "Q7735265", "nsi_id": "thefreshmarket-dde59d"}, "geometry": {"type": "Point", "coordinates": [-90.090793, 29.92797]}},
{"type": "Feature", "id": "KB-1C-W07HLM1eg8vk5TEWF2T6I=", "properties": {"ref": "151", "@spider": "freshmarket", "shop": "supermarket", "addr:street_address": "6900 US Highway 90, Ste 2", "addr:city": "Daphne", "addr:state": "AL", "addr:postcode": "36526", "addr:country": "US", "name": "The Fresh Market on US Highway 90", "phone": "251.626.1422", "website": "https://www.thefreshmarket.com/my-market/store/6900us-daphne", "opening_hours": "Mo-Su 08:00-21:00", "brand": "Fresh Market", "brand:wikidata": "Q7735265", "nsi_id": "thefreshmarket-dde59d"}, "geometry": {"type": "Point", "coordinates": [-87.903926, 30.654007]}},
{"type": "Feature", "id": "2Wg5sPjW4HqmGAQlUx2xg_TsWsw=", "properties": {"ref": "154", "@spider": "freshmarket", "shop": "supermarket", "addr:street_address": "1650 Airport Blvd, Ste 400", "addr:city": "Pensacola", "addr:state": "FL", "addr:postcode": "32504", "addr:country": "US", "name": "The Fresh Market on Airport Blvd", "phone": "850.479.0886", "website": "https://www.thefreshmarket.com/my-market/store/1650airport-pensacola", "opening_hours": "Mo-Su 08:00-21:00", "brand": "Fresh Market", "brand:wikidata": "Q7735265", "nsi_id": "thefreshmarket-dde59d"}, "geometry": {"type": "Point", "coordinates": [-87.208024, 30.481436]}},
{"type": "Feature", "id": "j3wbLP4Fim0XudbMms6ayiNxh2I=", "properties": {"ref": "146", "@spider": "freshmarket", "shop": "supermarket", "addr:street_address": "8015 S Yale Ave", "addr:city": "Tulsa", "addr:state": "OK", "addr:postcode": "74136", "addr:country": "US", "name": "The Fresh Market on S Yale Ave", "phone": "918.477.7838", "website": "https://www.thefreshmarket.com/my-market/store/8015south-yale-tulsa", "opening_hours": "Mo-Su 08:00-21:00", "brand": "Fresh Market", "brand:wikidata": "Q7735265", "nsi_id": "thefreshmarket-dde59d"}, "geometry": {"type": "Point", "coordinates": [-95.920796, 36.047704]}},
{"type": "Feature", "id": "n_Oklo0afYwEvUQTbbVMKvJOpWk=", "properties": {"ref": "150", "@spider": "freshmarket", "shop": "supermarket", "addr:street_address": "7720 Voice of America Centre Dr", "addr:city": "West Chester", "addr:state": "OH", "addr:postcode": "45069", "addr:country": "US", "name": "The Fresh Market on Voice of America Centre Dr", "phone": "513.755.6111", "website": "https://www.thefreshmarket.com/my-market/store/7720voice-of-america-centre-west-chester", "opening_hours": "Mo-Su 08:00-21:00", "brand": "Fresh Market", "brand:wikidata": "Q7735265", "nsi_id": "thefreshmarket-dde59d"}, "geometry": {"type": "Point", "coordinates": [-84.360646, 39.353991]}},
{"type": "Feature", "id": "aXKusqtupPRXFBRwTFq_Ciy3qZg=", "properties": {"ref": "153", "@spider": "freshmarket", "shop": "supermarket", "addr:street_address": "2203 S Promenade Blvd, Ste 12100", "addr:city": "Rogers", "addr:state": "AR", "addr:postcode": "72758", "addr:country": "US", "name": "The Fresh Market on S Promenade Blvd", "phone": "479.986.8886", "website": "https://www.thefreshmarket.com/my-market/store/2203promenade-rogers", "opening_hours": "Mo-Su 08:00-21:00", "brand": "Fresh Market", "brand:wikidata": "Q7735265", "nsi_id": "thefreshmarket-dde59d"}, "geometry": {"type": "Point", "coordinates": [-94.176768, 36.304535]}},
{"type": "Feature", "id": "gxWineJbrL3GXimriDqLYqAG9S4=", "properties": {"ref": "157", "@spider": "freshmarket", "shop": "supermarket", "addr:street_address": "1500 N Mills Ave", "addr:city": "Orlando", "addr:state": "FL", "addr:postcode": "32803", "addr:country": "US", "name": "The Fresh Market on N Mills Ave", "phone": "407.228.9989", "website": "https://www.thefreshmarket.com/my-market/store/1500north-mills-orlando", "opening_hours": "Mo-Su 08:00-21:00", "brand": "Fresh Market", "brand:wikidata": "Q7735265", "nsi_id": "thefreshmarket-dde59d"}, "geometry": {"type": "Point", "coordinates": [-81.365685, 28.565103]}},
{"type": "Feature", "id": "_4pNxLM833NVjstz1dTEBKvMXSc=", "properties": {"ref": "138", "@spider": "freshmarket", "shop": "supermarket", "addr:street_address": "1551 Washington Rd", "addr:city": "Mt Lebanon", "addr:state": "PA", "addr:postcode": "15228", "addr:country": "US", "name": "The Fresh Market on Washington Rd", "phone": "412.831.5601", "website": "https://www.thefreshmarket.com/my-market/store/1551washington-mount-lebanon", "opening_hours": "Mo-Su 08:00-21:00", "brand": "Fresh Market", "brand:wikidata": "Q7735265", "nsi_id": "thefreshmarket-dde59d"}, "geometry": {"type": "Point", "coordinates": [-80.049564, 40.354704]}},
{"type": "Feature", "id": "w_haf7jhW4lc7E4MHdGiuuiSn9w=", "properties": {"ref": "187", "@spider": "freshmarket", "shop": "supermarket", "addr:street_address": "1727 S Federal Hwy", "addr:city": "Delray Beach", "addr:state": "FL", "addr:postcode": "33483", "addr:country": "US", "name": "The Fresh Market on S Federal Hwy", "phone": "561.279.2806", "website": "https://www.thefreshmarket.com/my-market/store/1727south-federal-delray-beach", "opening_hours": "Mo-Su 08:00-21:00", "brand": "Fresh Market", "brand:wikidata": "Q7735265", "nsi_id": "thefreshmarket-dde59d"}, "geometry": {"type": "Point", "coordinates": [-80.069591, 26.440549]}},
{"type": "Feature", "id": "HYz3Eil2ajuFDNCiQMMJnOw9LkE=", "properties": {"ref": "180", "@spider": "freshmarket", "shop": "supermarket", "addr:street_address": "7747 N Kings Hwy", "addr:city": "Myrtle Beach", "addr:state": "SC", "addr:postcode": "29572", "addr:country": "US", "name": "The Fresh Market on N Kings Hwy", "phone": "843.945.4652", "website": "https://www.thefreshmarket.com/my-market/store/7747north-kings-myrtle-beach", "opening_hours": "Mo-Su 08:00-21:00", "brand": "Fresh Market", "brand:wikidata": "Q7735265", "nsi_id": "thefreshmarket-dde59d"}, "geometry": {"type": "Point", "coordinates": [-78.817989, 33.74943]}},
{"type": "Feature", "id": "m-weEEW8zfPmjBGdMlUyHB2EOm4=", "properties": {"ref": "170", "@spider": "freshmarket", "shop": "supermarket", "addr:street_address": "3901 Old Forest Rd, Ste A", "addr:city": "Lynchburg", "addr:state": "VA", "addr:postcode": "24501", "addr:country": "US", "name": "The Fresh Market on Old Forest Rd", "phone": "434.385.4202", "website": "https://www.thefreshmarket.com/my-market/store/3901old-forest-lynchburg", "opening_hours": "Mo-Su 08:00-21:00", "brand": "Fresh Market", "brand:wikidata": "Q7735265", "nsi_id": "thefreshmarket-dde59d"}, "geometry": {"type": "Point", "coordinates": [-79.22289, 37.39792]}},
{"type": "Feature", "id": "n5nQ9Ut9rLQLBvGewr6_J1hPfNU=", "properties": {"ref": "171", "@spider": "freshmarket", "shop": "supermarket", "addr:street_address": "12628 Tamiami Trail E", "addr:city": "Naples", "addr:state": "FL", "addr:postcode": "34113", "addr:country": "US", "name": "The Fresh Market on Tamiami Trail E", "phone": "239.732.0237", "website": "https://www.thefreshmarket.com/my-market/store/12628tamiami-trail-naples", "opening_hours": "Mo-Su 08:00-21:00", "brand": "Fresh Market", "brand:wikidata": "Q7735265", "nsi_id": "thefreshmarket-dde59d"}, "geometry": {"type": "Point", "coordinates": [-81.7032, 26.06408]}},
{"type": "Feature", "id": "adw_oI2SeHzKo9kVRObpNWlpDIE=", "properties": {"ref": "181", "@spider": "freshmarket", "shop": "supermarket", "addr:street_address": "75 Washington Valley Rd", "addr:city": "Bedminster", "addr:state": "NJ", "addr:postcode": "07921", "addr:country": "US", "name": "The Fresh Market on Washington Valley Rd", "phone": "908.658.3162", "website": "https://www.thefreshmarket.com/my-market/store/75washington-valley-bedminster", "opening_hours": "Mo-Su 08:00-21:00", "brand": "Fresh Market", "brand:wikidata": "Q7735265", "nsi_id": "thefreshmarket-dde59d"}, "geometry": {"type": "Point", "coordinates": [-74.639489, 40.647148]}},
{"type": "Feature", "id": "DztOVHCRW1AjzUSIG2x7X37BX7g=", "properties": {"ref": "177", "@spider": "freshmarket", "shop": "supermarket", "addr:street_address": "3468 Lithia Pinecrest Rd", "addr:city": "Valrico", "addr:state": "FL", "addr:postcode": "33596", "addr:country": "US", "name": "The Fresh Market on Lithia Pinecrest Rd", "phone": "813.689.2565", "website": "https://www.thefreshmarket.com/my-market/store/3468lithia-pinecrest-valrico", "opening_hours": "Mo-Su 08:00-21:00", "brand": "Fresh Market", "brand:wikidata": "Q7735265", "nsi_id": "thefreshmarket-dde59d"}, "geometry": {"type": "Point", "coordinates": [-82.2421, 27.8905]}},
{"type": "Feature", "id": "dPvQyZbmdosjg_0hXYtfoHZOxug=", "properties": {"ref": "172", "@spider": "freshmarket", "shop": "supermarket", "addr:street_address": "52 Marion Ave", "addr:city": "Saratoga Springs", "addr:state": "NY", "addr:postcode": "12866", "addr:country": "US", "name": "The Fresh Market on Marion Ave", "phone": "518.581.8050", "website": "https://www.thefreshmarket.com/my-market/store/52marion-saratoga-springs", "opening_hours": "Mo-Su 08:00-21:00", "brand": "Fresh Market", "brand:wikidata": "Q7735265", "nsi_id": "thefreshmarket-dde59d"}, "geometry": {"type": "Point", "coordinates": [-73.771984, 43.091391]}},
{"type": "Feature", "id": "9TVf-z48SYxayNR-eNriV3h48VE=", "properties": {"ref": "174", "@spider": "freshmarket", "shop": "supermarket", "addr:street_address": "3680 King St", "addr:city": "Alexandria", "addr:state": "VA", "addr:postcode": "22302", "addr:country": "US", "name": "The Fresh Market on King St", "phone": "703.824.5205", "website": "https://www.thefreshmarket.com/my-market/store/3680king-alexandria", "opening_hours": "Mo-Su 08:00-21:00", "brand": "Fresh Market", "brand:wikidata": "Q7735265", "nsi_id": "thefreshmarket-dde59d"}, "geometry": {"type": "Point", "coordinates": [-77.092518, 38.82898]}},
{"type": "Feature", "id": "O-tOeLATcH8SRqqiyKVcmszR7Qo=", "properties": {"ref": "183", "@spider": "freshmarket", "shop": "supermarket", "addr:street_address": "5920 Red Bug Lake Rd", "addr:city": "Winter Springs", "addr:state": "FL", "addr:postcode": "32708", "addr:country": "US", "name": "The Fresh Market on Red Bug Lake Rd", "phone": "407.388.1745", "website": "https://www.thefreshmarket.com/my-market/store/5920red-bug-lake-winter-springs", "opening_hours": "Mo-Su 08:00-21:00", "brand": "Fresh Market", "brand:wikidata": "Q7735265", "nsi_id": "thefreshmarket-dde59d"}, "geometry": {"type": "Point", "coordinates": [-81.266598, 28.648351]}},
{"type": "Feature", "id": "Fl_d-P31QkSzddGG_s46dQU4Ypc=", "properties": {"ref": "191", "@spider": "freshmarket", "shop": "supermarket", "addr:street_address": "311 E Indiantown Rd", "addr:city": "Jupiter", "addr:state": "FL", "addr:postcode": "33477", "addr:country": "US", "name": "The Fresh Market on E Indiantown Rd", "phone": "561.743.1059", "website": "https://www.thefreshmarket.com/my-market/store/311e-indiantown-jupiter", "opening_hours": "Mo-Su 08:00-21:00", "brand": "Fresh Market", "brand:wikidata": "Q7735265", "nsi_id": "thefreshmarket-dde59d"}, "geometry": {"type": "Point", "coordinates": [-80.087663, 26.934643]}},
{"type": "Feature", "id": "lQRTBMmzAFS1pRiK0jSnAhCFKHk=", "properties": {"ref": "190", "@spider": "freshmarket", "shop": "supermarket", "addr:street_address": "3775 Lake Emma Rd", "addr:city": "Lake Mary", "addr:state": "FL", "addr:postcode": "32746", "addr:country": "US", "name": "The Fresh Market on Lake Emma Rd", "phone": "407.804.9838", "website": "https://www.thefreshmarket.com/my-market/store/3775lake-emma-lake-mary", "opening_hours": "Mo-Su 08:00-21:00", "brand": "Fresh Market", "brand:wikidata": "Q7735265", "nsi_id": "thefreshmarket-dde59d"}, "geometry": {"type": "Point", "coordinates": [-81.354462, 28.754644]}},
{"type": "Feature", "id": "z9SXS-qJuEgRiZxYniR21eJjxjU=", "properties": {"ref": "188", "@spider": "freshmarket", "shop": "supermarket", "addr:street_address": "5000 S Croatan Hwy, Ste 5000", "addr:city": "Nags Head", "addr:state": "NC", "addr:postcode": "27959", "addr:country": "US", "name": "The Fresh Market on S Croatan Hwy", "phone": "252.255.5022", "website": "https://www.thefreshmarket.com/my-market/store/5000south-croatan-nags-head", "opening_hours": "Mo-Su 08:00-21:00", "brand": "Fresh Market", "brand:wikidata": "Q7735265", "nsi_id": "thefreshmarket-dde59d"}, "geometry": {"type": "Point", "coordinates": [-75.617209, 35.938608]}},
{"type": "Feature", "id": "ESQoI3F-V_2mCO1Mz5cHvZoxGME=", "properties": {"ref": "189", "@spider": "freshmarket", "shop": "supermarket", "addr:street_address": "1378 Hendersonville Rd, Ste H", "addr:city": "Asheville", "addr:state": "NC", "addr:postcode": "28803", "addr:country": "US", "name": "The Fresh Market on Hendersonville Rd", "phone": "828.277.7023", "website": "https://www.thefreshmarket.com/my-market/store/1378hendersonville-asheville", "opening_hours": "Mo-Su 08:00-21:00", "brand": "Fresh Market", "brand:wikidata": "Q7735265", "nsi_id": "thefreshmarket-dde59d"}, "geometry": {"type": "Point", "coordinates": [-82.528496, 35.522541]}},
{"type": "Feature", "id": "x5cdVla3kyA8Yi-DylFfFUBHTQg=", "properties": {"ref": "196", "@spider": "freshmarket", "shop": "supermarket", "addr:street_address": "150 Riverside Ave, Ste 200", "addr:city": "Jacksonville", "addr:state": "FL", "addr:postcode": "32202", "addr:country": "US", "name": "The Fresh Market on Riverside Ave", "phone": "904.665.0180", "website": "https://www.thefreshmarket.com/my-market/store/150riverside-jacksonville", "opening_hours": "Mo-Su 08:00-21:00", "brand": "Fresh Market", "brand:wikidata": "Q7735265", "nsi_id": "thefreshmarket-dde59d"}, "geometry": {"type": "Point", "coordinates": [-81.67184, 30.323731]}},
{"type": "Feature", "id": "QTfTbrrjk9wAbnkDQtwF9_NZSJw=", "properties": {"ref": "198", "@spider": "freshmarket", "shop": "supermarket", "addr:street_address": "924 W 21st St", "addr:city": "Norfolk", "addr:state": "VA", "addr:postcode": "23517", "addr:country": "US", "name": "The Fresh Market on W 21st St", "phone": "757.623.3291", "website": "https://www.thefreshmarket.com/my-market/store/924west-21st-norfolk", "opening_hours": "Mo-Su 08:00-21:00", "brand": "Fresh Market", "brand:wikidata": "Q7735265", "nsi_id": "thefreshmarket-dde59d"}, "geometry": {"type": "Point", "coordinates": [-76.298363, 36.872277]}},
{"type": "Feature", "id": "iPWdnKVca65k17O30aTIlpLMxa8=", "properties": {"ref": "205", "@spider": "freshmarket", "shop": "supermarket", "addr:street_address": "4215 University Dr, Ste A3", "addr:city": "Durham", "addr:state": "NC", "addr:postcode": "27707", "addr:country": "US", "name": "The Fresh Market on University Dr", "phone": "919.401.9467", "website": "https://www.thefreshmarket.com/my-market/store/4215university-durham", "opening_hours": "Mo-Su 08:00-21:00", "brand": "Fresh Market", "brand:wikidata": "Q7735265", "nsi_id": "thefreshmarket-dde59d"}, "geometry": {"type": "Point", "coordinates": [-78.95846, 35.962664]}},
{"type": "Feature", "id": "pkuTcRsLrHFJm6fA3nr4AxaRTs4=", "properties": {"ref": "192", "@spider": "freshmarket", "shop": "supermarket", "addr:street_address": "12171 W Sunrise Blvd", "addr:city": "Plantation", "addr:state": "FL", "addr:postcode": "33323", "addr:country": "US", "name": "The Fresh Market on W Sunrise Blvd", "phone": "954.370.6831", "website": "https://www.thefreshmarket.com/my-market/store/12171w-sunrise-plantation", "opening_hours": "Mo-Su 08:00-21:00", "brand": "Fresh Market", "brand:wikidata": "Q7735265", "nsi_id": "thefreshmarket-dde59d"}, "geometry": {"type": "Point", "coordinates": [-80.310371, 26.14646]}},
{"type": "Feature", "id": "aT54uV-6b6tZhjVNkr65kAe4K2A=", "properties": {"ref": "194", "@spider": "freshmarket", "shop": "supermarket", "addr:street_address": "2145 Union Ave, Ste 110", "addr:city": "Memphis", "addr:state": "TN", "addr:postcode": "38104", "addr:country": "US", "name": "The Fresh Market on Union Ave", "phone": "901.726.5263", "website": "https://www.thefreshmarket.com/my-market/store/2145union-memphis", "opening_hours": "Mo-Su 08:00-21:00", "brand": "Fresh Market", "brand:wikidata": "Q7735265", "nsi_id": "thefreshmarket-dde59d"}, "geometry": {"type": "Point", "coordinates": [-89.989674, 35.133565]}},
{"type": "Feature", "id": "a8ECw0Mj-WNzRNl-dI4z77ILJkM=", "properties": {"ref": "213", "@spider": "freshmarket", "shop": "supermarket", "addr:street_address": "1919 Boston Post Rd, Ste 305", "addr:city": "Guilford", "addr:state": "CT", "addr:postcode": "06437", "addr:country": "US", "name": "The Fresh Market on Boston Post Rd", "phone": "203.453.0614", "website": "https://www.thefreshmarket.com/my-market/store/1919boston-post-guilford", "opening_hours": "Mo-Su 08:00-21:00", "brand": "Fresh Market", "brand:wikidata": "Q7735265", "nsi_id": "thefreshmarket-dde59d"}, "geometry": {"type": "Point", "coordinates": [-72.706058, 41.299412]}},
{"type": "Feature", "id": "ycOKlEOD0nkEm7Zix1YNUJyDJ9Q=", "properties": {"ref": "204", "@spider": "freshmarket", "shop": "supermarket", "addr:street_address": "10828 Providence Rd, Ste 100", "addr:city": "Charlotte", "addr:state": "NC", "addr:postcode": "28277", "addr:country": "US", "name": "The Fresh Market at 10828 Providence Rd", "phone": "704.443.0160", "website": "https://www.thefreshmarket.com/my-market/store/10828providence-charlotte", "opening_hours": "Mo-Su 08:00-21:00", "brand": "Fresh Market", "brand:wikidata": "Q7735265", "nsi_id": "thefreshmarket-dde59d"}, "geometry": {"type": "Point", "coordinates": [-80.7714, 35.06148]}},
{"type": "Feature", "id": "hOnSkFTG-wgN7hTRGTbOQEi2x-M=", "properties": {"ref": "210", "@spider": "freshmarket", "shop": "supermarket", "addr:street_address": "138 E Main St", "addr:city": "Smithtown", "addr:state": "NY", "addr:postcode": "11787", "addr:country": "US", "name": "The Fresh Market on E Main St", "phone": "631.265.5970", "website": "https://www.thefreshmarket.com/my-market/store/138east-main-smithtown", "opening_hours": "Mo-Su 08:00-21:00", "brand": "Fresh Market", "brand:wikidata": "Q7735265", "nsi_id": "thefreshmarket-dde59d"}, "geometry": {"type": "Point", "coordinates": [-73.188671, 40.854945]}},
{"type": "Feature", "id": "yQvVsXjB1DQc-5Z45gJ9maKHtzQ=", "properties": {"ref": "208", "@spider": "freshmarket", "shop": "supermarket", "addr:street_address": "230 Glensford Dr", "addr:city": "Fayetteville", "addr:state": "NC", "addr:postcode": "28314", "addr:country": "US", "name": "The Fresh Market on Glensford Dr", "phone": "910.867.2588", "website": "https://www.thefreshmarket.com/my-market/store/230glensford-fayetteville", "opening_hours": "Mo-Su 08:00-21:00", "brand": "Fresh Market", "brand:wikidata": "Q7735265", "nsi_id": "thefreshmarket-dde59d"}, "geometry": {"type": "Point", "coordinates": [-78.962569, 35.06576]}},
{"type": "Feature", "id": "LeYiALu6uqWThilphmm6-UrdGmU=", "properties": {"ref": "201", "@spider": "freshmarket", "shop": "supermarket", "addr:street_address": "755 Veterans Memorial Blvd, Ste A", "addr:city": "Metairie", "addr:state": "LA", "addr:postcode": "70005", "addr:country": "US", "name": "The Fresh Market on Veterans Memorial Blvd", "phone": "504.831.0784", "website": "https://www.thefreshmarket.com/my-market/store/755veterans-memorial-metairie", "opening_hours": "Mo-Su 08:00-21:00", "brand": "Fresh Market", "brand:wikidata": "Q7735265", "nsi_id": "thefreshmarket-dde59d"}, "geometry": {"type": "Point", "coordinates": [-90.130611, 30.00363]}},
{"type": "Feature", "id": "5uHQsLUDjLMh63hJ_nfRVLL4MKM=", "properties": {"ref": "211", "@spider": "freshmarket", "shop": "supermarket", "addr:street_address": "1601 Woodruff Rd, Ste E", "addr:city": "Greenville", "addr:state": "SC", "addr:postcode": "29607", "addr:country": "US", "name": "The Fresh Market on Woodruff Rd", "phone": "864.987.0994", "website": "https://www.thefreshmarket.com/my-market/store/1601woodruff-greenville", "opening_hours": "Mo-Su 08:00-21:00", "brand": "Fresh Market", "brand:wikidata": "Q7735265", "nsi_id": "thefreshmarket-dde59d"}, "geometry": {"type": "Point", "coordinates": [-82.276933, 34.820853]}},
{"type": "Feature", "id": "vchiVhoxI6r-tj8vo8vkqBQzvVE=", "properties": {"ref": "212", "@spider": "freshmarket", "shop": "supermarket", "addr:street_address": "6385 N Wickham Rd", "addr:city": "Melbourne", "addr:state": "FL", "addr:postcode": "32940", "addr:country": "US", "name": "The Fresh Market on N Wickham Rd", "phone": "321.259.5619", "website": "https://www.thefreshmarket.com/my-market/store/6385north-wickham-melbourne", "opening_hours": "Mo-Su 08:00-21:00", "brand": "Fresh Market", "brand:wikidata": "Q7735265", "nsi_id": "thefreshmarket-dde59d"}, "geometry": {"type": "Point", "coordinates": [-80.672703, 28.217231]}},
{"type": "Feature", "id": "Ho7UKHjpZ-nlK_5YsjmMomQa1uc=", "properties": {"ref": "207", "@spider": "freshmarket", "shop": "supermarket", "addr:street_address": "1320 McFarland Blvd E, Ste 100", "addr:city": "Tuscaloosa", "addr:state": "AL", "addr:postcode": "35404", "addr:country": "US", "name": "The Fresh Market on McFarland Blvd E", "phone": "205.391.1204", "website": "https://www.thefreshmarket.com/my-market/store/1320mcfarlandblvd-tuscaloosa", "opening_hours": "Mo-Su 08:00-21:00", "brand": "Fresh Market", "brand:wikidata": "Q7735265", "nsi_id": "thefreshmarket-dde59d"}, "geometry": {"type": "Point", "coordinates": [-87.526145, 33.200251]}},
{"type": "Feature", "id": "BEXjNU0tpjJLM-p8hcn4nH9etFU=", "properties": {"ref": "216", "@spider": "freshmarket", "shop": "supermarket", "addr:street_address": "4600 Commonwealth Centre Pkwy", "addr:city": "Midlothian", "addr:state": "VA", "addr:postcode": "23112", "addr:country": "US", "name": "The Fresh Market on Commonwealth Centre Pkwy", "phone": "804.744.7535", "website": "https://www.thefreshmarket.com/my-market/store/4600commonwealth-centre-midlothian", "opening_hours": "Mo-Su 08:00-21:00", "brand": "Fresh Market", "brand:wikidata": "Q7735265", "nsi_id": "thefreshmarket-dde59d"}, "geometry": {"type": "Point", "coordinates": [-77.633732, 37.418894]}},
{"type": "Feature", "id": "JcFnFwGnTm-3toTxht8oDYYyJbk=", "properties": {"ref": "232", "@spider": "freshmarket", "shop": "supermarket", "addr:street_address": "4588 Virginia Beach Blvd, Ste 106", "addr:city": "Virginia Beach", "addr:state": "VA", "addr:postcode": "23462", "addr:country": "US", "name": "The Fresh Market on Virginia Beach Blvd", "phone": "757.687.3280", "website": "https://www.thefreshmarket.com/my-market/store/4588virginia-beach-virginia-beach", "opening_hours": "Mo-Su 08:00-21:00", "brand": "Fresh Market", "brand:wikidata": "Q7735265", "nsi_id": "thefreshmarket-dde59d"}, "geometry": {"type": "Point", "coordinates": [-76.135861, 36.846053]}},
{"type": "Feature", "id": "Mizjz3AxhdLSr7DN2WABsPEcETU=", "properties": {"ref": "219", "@spider": "freshmarket", "shop": "supermarket", "addr:street_address": "1408 East Blvd, Ste C", "addr:city": "Charlotte", "addr:state": "NC", "addr:postcode": "28203", "addr:country": "US", "name": "The Fresh Market on East Blvd", "phone": "704.337.8031", "website": "https://www.thefreshmarket.com/my-market/store/1408east-charlotte", "opening_hours": "Mo-Su 08:00-21:00", "brand": "Fresh Market", "brand:wikidata": "Q7735265", "nsi_id": "thefreshmarket-dde59d"}, "geometry": {"type": "Point", "coordinates": [-80.84424, 35.199954]}},
{"type": "Feature", "id": "y20BaWuReWkmhsNsISKwHATKyxI=", "properties": {"ref": "217", "@spider": "freshmarket", "shop": "supermarket", "addr:street_address": "1125 Woodstock Rd, Ste 400", "addr:city": "Roswell", "addr:state": "GA", "addr:postcode": "30075", "addr:country": "US", "name": "The Fresh Market on Woodstock Rd", "phone": "678.795.9062", "website": "https://www.thefreshmarket.com/my-market/store/1125woodstock-roswell", "opening_hours": "Mo-Su 08:00-21:00", "brand": "Fresh Market", "brand:wikidata": "Q7735265", "nsi_id": "thefreshmarket-dde59d"}, "geometry": {"type": "Point", "coordinates": [-84.395565, 34.064287]}},
{"type": "Feature", "id": "GaEdfRKgthHI2XsAaULZCLy6tdk=", "properties": {"ref": "214", "@spider": "freshmarket", "shop": "supermarket", "addr:street_address": "15500 Panama City Beach Pkwy, Ste 200", "addr:city": "Panama City Beach", "addr:state": "FL", "addr:postcode": "32413", "addr:country": "US", "name": "The Fresh Market on Panama City Beach Pkwy", "phone": "850.233.0206", "website": "https://www.thefreshmarket.com/my-market/store/15500panama-city-beach-panama-city-beach", "opening_hours": "Mo-Su 08:00-21:00", "brand": "Fresh Market", "brand:wikidata": "Q7735265", "nsi_id": "thefreshmarket-dde59d"}, "geometry": {"type": "Point", "coordinates": [-85.863985, 30.221377]}},
{"type": "Feature", "id": "jifgi4NypWBnpI8O6yFvjkvc9FM=", "properties": {"ref": "229", "@spider": "freshmarket", "shop": "supermarket", "addr:street_address": "30098 Veterans Way", "addr:city": "Rehoboth Beach", "addr:state": "DE", "addr:postcode": "19971", "addr:country": "US", "name": "The Fresh Market on Veterans Way", "phone": "302.227.3401", "website": "https://www.thefreshmarket.com/my-market/store/30098veterans-rehoboth-beach", "opening_hours": "Mo-Su 08:00-21:00", "brand": "Fresh Market", "brand:wikidata": "Q7735265", "nsi_id": "thefreshmarket-dde59d"}, "geometry": {"type": "Point", "coordinates": [-75.106385, 38.712891]}},
{"type": "Feature", "id": "od5bxfymiMlJqApW0egsXUrmKT4=", "properties": {"ref": "225", "@spider": "freshmarket", "shop": "supermarket", "addr:street_address": "612 Centerview Blvd", "addr:city": "Kissimmee", "addr:state": "FL", "addr:postcode": "34741", "addr:country": "US", "name": "The Fresh Market on Centerview Blvd", "phone": "407.343.0791", "website": "https://www.thefreshmarket.com/my-market/store/612centerview-kissimmee", "opening_hours": "Mo-Su 08:00-21:00", "brand": "Fresh Market", "brand:wikidata": "Q7735265", "nsi_id": "thefreshmarket-dde59d"}, "geometry": {"type": "Point", "coordinates": [-81.407465, 28.340268]}},
{"type": "Feature", "id": "hVAasGLtimdTeF0aRP2DS4oiJnc=", "properties": {"ref": "222", "@spider": "freshmarket", "shop": "supermarket", "addr:street_address": "3820 N Federal Hwy", "addr:city": "Fort Lauderdale", "addr:state": "FL", "addr:postcode": "33308", "addr:country": "US", "name": "The Fresh Market on 3820 N Federal Hwy", "phone": "954.564.5353", "website": "https://www.thefreshmarket.com/my-market/store/3820n-federal-fort-lauderdale", "opening_hours": "Mo-Su 08:00-21:00", "brand": "Fresh Market", "brand:wikidata": "Q7735265", "nsi_id": "thefreshmarket-dde59d"}, "geometry": {"type": "Point", "coordinates": [-80.118867, 26.174906]}},
{"type": "Feature", "id": "36iCukJFOPfCJhc7i0HG8weBIWU=", "properties": {"ref": "133", "@spider": "freshmarket", "shop": "supermarket", "addr:street_address": "8208-18 Germantown Ave", "addr:city": "Philadelphia", "addr:state": "PA", "addr:postcode": "19118", "addr:country": "US", "name": "The Fresh Market on Germantown Ave", "phone": "215.248.9180", "website": "https://www.thefreshmarket.com/my-market/store/8208-germantown-philadelphia", "opening_hours": "Mo-Su 08:00-21:00", "brand": "Fresh Market", "brand:wikidata": "Q7735265", "nsi_id": "thefreshmarket-dde59d"}, "geometry": {"type": "Point", "coordinates": [-75.203256, 40.073193]}},
{"type": "Feature", "id": "jU3Yxt0muPuGQDwbB2ZcxorUYJA=", "properties": {"ref": "61", "@spider": "freshmarket", "shop": "supermarket", "addr:street_address": "2099 Peachtree Rd NW", "addr:city": "Atlanta", "addr:state": "GA", "addr:postcode": "30309", "addr:country": "US", "name": "The Fresh Market on Peachtree Rd NW", "phone": "404.350.3211", "website": "https://www.thefreshmarket.com/my-market/store/2099peachtree-atlanta", "opening_hours": "Mo-Su 08:00-21:00", "brand": "Fresh Market", "brand:wikidata": "Q7735265", "nsi_id": "thefreshmarket-dde59d"}, "geometry": {"type": "Point", "coordinates": [-84.391634, 33.812159]}},
{"type": "Feature", "id": "cy4vHKdYJVkBdFX5FqwNqYSc6IM=", "properties": {"ref": "3", "@spider": "freshmarket", "shop": "supermarket", "addr:street_address": "944 Merrimon Ave", "addr:city": "Asheville", "addr:state": "NC", "addr:postcode": "28804", "addr:country": "US", "name": "The Fresh Market on Merrimon Ave", "phone": "828.252.9098", "website": "https://www.thefreshmarket.com/my-market/store/944merrimon-asheville", "opening_hours": "Mo-Su 08:00-21:00", "brand": "Fresh Market", "brand:wikidata": "Q7735265", "nsi_id": "thefreshmarket-dde59d"}, "geometry": {"type": "Point", "coordinates": [-82.553922, 35.630491]}},
{"type": "Feature", "id": "MPAiqUYtzqDqApTxC_lHa3atiPQ=", "properties": {"ref": "28", "@spider": "freshmarket", "shop": "supermarket", "addr:street_address": "100 W Camino Real", "addr:city": "Boca Raton", "addr:state": "FL", "addr:postcode": "33432", "addr:country": "US", "name": "The Fresh Market on W Camino Real", "phone": "561.338.2444", "website": "https://www.thefreshmarket.com/my-market/store/100west-camino-boca-raton", "opening_hours": "Mo-Su 08:00-21:00", "brand": "Fresh Market", "brand:wikidata": "Q7735265", "nsi_id": "thefreshmarket-dde59d"}, "geometry": {"type": "Point", "coordinates": [-80.090123, 26.34008]}},
{"type": "Feature", "id": "R084Q7FIElno4XB97q7-uys3bNA=", "properties": {"ref": "119", "@spider": "freshmarket", "shop": "supermarket", "addr:street_address": "850 N Western Ave", "addr:city": "Lake Forest", "addr:state": "IL", "addr:postcode": "60045", "addr:country": "US", "name": "The Fresh Market on N Western Ave", "phone": "847.482.0643", "website": "https://www.thefreshmarket.com/my-market/store/850western-lake-forest", "opening_hours": "Mo-Su 08:00-21:00", "brand": "Fresh Market", "brand:wikidata": "Q7735265", "nsi_id": "thefreshmarket-dde59d"}, "geometry": {"type": "Point", "coordinates": [-87.841053, 42.255166]}},
{"type": "Feature", "id": "fZNw8vcar-TYI37QkOjPqWkxqXM=", "properties": {"ref": "1", "@spider": "freshmarket", "shop": "supermarket", "addr:street_address": "3712 Lawndale Dr", "addr:city": "Greensboro", "addr:state": "NC", "addr:postcode": "27455", "addr:country": "US", "name": "The Fresh Market on Lawndale Dr", "phone": "336.282.4832", "website": "https://www.thefreshmarket.com/my-market/store/3712-lawndale-greensboro", "opening_hours": "Mo-Su 07:00-21:00", "brand": "Fresh Market", "brand:wikidata": "Q7735265", "nsi_id": "thefreshmarket-dde59d"}, "geometry": {"type": "Point", "coordinates": [-79.8287, 36.11925]}},
{"type": "Feature", "id": "ch-sTQbj-EnH22vbcDQtkuzgXDM=", "properties": {"ref": "42", "@spider": "freshmarket", "shop": "supermarket", "addr:street_address": "3940 Airport Blvd, Ste A", "addr:city": "Mobile", "addr:state": "AL", "addr:postcode": "36605", "addr:country": "US", "name": "The Fresh Market on Airport Blvd", "phone": "251.344.8026", "website": "https://www.thefreshmarket.com/my-market/store/3940airport-mobile", "opening_hours": "Mo-Su 08:00-21:00", "brand": "Fresh Market", "brand:wikidata": "Q7735265", "nsi_id": "thefreshmarket-dde59d"}, "geometry": {"type": "Point", "coordinates": [-88.147201, 30.677178]}},
{"type": "Feature", "id": "ceHdK5TXtgyl9dSj_qizsz2GXxE=", "properties": {"ref": "43", "@spider": "freshmarket", "shop": "supermarket", "addr:street_address": "5515 Chamblee Dunwoody Rd", "addr:city": "Dunwoody", "addr:state": "GA", "addr:postcode": "30338", "addr:country": "US", "name": "The Fresh Market on Chamblee Dunwoody Rd", "phone": "770.481.0304", "website": "https://www.thefreshmarket.com/my-market/store/5515chamblee-dunwoody-dunwoody", "opening_hours": "Mo-Su 08:00-21:00", "brand": "Fresh Market", "brand:wikidata": "Q7735265", "nsi_id": "thefreshmarket-dde59d"}, "geometry": {"type": "Point", "coordinates": [-84.334933, 33.948371]}},
{"type": "Feature", "id": "CiNXzolPEkOy-VVrAknCL2WvV9w=", "properties": {"ref": "59", "@spider": "freshmarket", "shop": "supermarket", "addr:street_address": "718 Commons Dr", "addr:city": "Geneva", "addr:state": "IL", "addr:postcode": "60134", "addr:country": "US", "name": "The Fresh Market on Commons Dr", "phone": "630.845.4095", "website": "https://www.thefreshmarket.com/my-market/store/718commons-geneva", "opening_hours": "Mo-Su 08:00-21:00", "brand": "Fresh Market", "brand:wikidata": "Q7735265", "nsi_id": "thefreshmarket-dde59d"}, "geometry": {"type": "Point", "coordinates": [-88.343412, 41.897239]}},
{"type": "Feature", "id": "qZRDAavwqQiMPiBCxaN-jehuSgI=", "properties": {"ref": "58", "@spider": "freshmarket", "shop": "supermarket", "addr:street_address": "235 Franklin Rd", "addr:city": "Brentwood", "addr:state": "TN", "addr:postcode": "37027", "addr:country": "US", "name": "The Fresh Market on Franklin Rd", "phone": "615.373.9402", "website": "https://www.thefreshmarket.com/my-market/store/235franklin-brentwood", "opening_hours": "Mo-Su 08:00-21:00", "brand": "Fresh Market", "brand:wikidata": "Q7735265", "nsi_id": "thefreshmarket-dde59d"}, "geometry": {"type": "Point", "coordinates": [-86.79125, 36.031081]}},
{"type": "Feature", "id": "Gf5_QyVVnEFPFo0ec9pCtwtKO70=", "properties": {"ref": "62", "@spider": "freshmarket", "shop": "supermarket", "addr:street_address": "1816 N Causeway Blvd", "addr:city": "Mandeville", "addr:state": "LA", "addr:postcode": "70471", "addr:country": "US", "name": "The Fresh Market on N Causeway Blvd", "phone": "985.674.4105", "website": "https://www.thefreshmarket.com/my-market/store/1816north-causeway-mandeville", "opening_hours": "Mo-Su 08:00-21:00", "brand": "Fresh Market", "brand:wikidata": "Q7735265", "nsi_id": "thefreshmarket-dde59d"}, "geometry": {"type": "Point", "coordinates": [-90.092152, 30.393987]}},
{"type": "Feature", "id": "lA-WYNU0oFX-b0K4QzQCw0Zn4W4=", "properties": {"ref": "56", "@spider": "freshmarket", "shop": "supermarket", "addr:street_address": "2490 E 146th St", "addr:city": "Carmel", "addr:state": "IN", "addr:postcode": "46033", "addr:country": "US", "name": "The Fresh Market on E 146th St", "phone": "317.815.1970", "website": "https://www.thefreshmarket.com/my-market/store/2490east-146th-carmel", "opening_hours": "Mo-Su 08:00-21:00", "brand": "Fresh Market", "brand:wikidata": "Q7735265", "nsi_id": "thefreshmarket-dde59d"}, "geometry": {"type": "Point", "coordinates": [-86.118435, 40.001863]}},
{"type": "Feature", "id": "LibNeKPIy6ai4y4sXLsFkndUn4Y=", "properties": {"ref": "49", "@spider": "freshmarket", "shop": "supermarket", "addr:street_address": "4700 US-280, Ste 6", "addr:city": "Birmingham", "addr:state": "AL", "addr:postcode": "35242", "addr:country": "US", "name": "The Fresh Market on US-280", "phone": "205.991.0294", "website": "https://www.thefreshmarket.com/my-market/store/4700highway-birmingham", "opening_hours": "Mo-Su 08:00-21:00", "brand": "Fresh Market", "brand:wikidata": "Q7735265", "nsi_id": "thefreshmarket-dde59d"}, "geometry": {"type": "Point", "coordinates": [-86.700079, 33.421577]}},
{"type": "Feature", "id": "IiPSerEgBHv_C-hbNY-7Pm1LW9w=", "properties": {"ref": "47", "@spider": "freshmarket", "shop": "supermarket", "addr:street_address": "1390 Village Square Blvd", "addr:city": "Tallahassee", "addr:state": "FL", "addr:postcode": "32312", "addr:country": "US", "name": "The Fresh Market on Village Square Blvd", "phone": "850.907.1392", "website": "https://www.thefreshmarket.com/my-market/store/1390village-square-tallahassee", "opening_hours": "Mo-Su 08:00-21:00", "brand": "Fresh Market", "brand:wikidata": "Q7735265", "nsi_id": "thefreshmarket-dde59d"}, "geometry": {"type": "Point", "coordinates": [-84.24984, 30.511893]}},
{"type": "Feature", "id": "4LDiCzji9miCgg2oU7A6Vns_PjI=", "properties": {"ref": "45", "@spider": "freshmarket", "shop": "supermarket", "addr:street_address": "1635 Perry Hill Rd", "addr:city": "Montgomery", "addr:state": "AL", "addr:postcode": "36106", "addr:country": "US", "name": "The Fresh Market on Perry Hill Rd", "phone": "334.272.8952", "website": "https://www.thefreshmarket.com/my-market/store/1635perry-hill-montgomery", "opening_hours": "Mo-Su 08:00-21:00", "brand": "Fresh Market", "brand:wikidata": "Q7735265", "nsi_id": "thefreshmarket-dde59d"}, "geometry": {"type": "Point", "coordinates": [-86.242465, 32.355316]}},
{"type": "Feature", "id": "z01PVlX2aBWjNE2Qp0HlWPUoIOI=", "properties": {"ref": "55", "@spider": "freshmarket", "shop": "supermarket", "addr:street_address": "2640 S Bayshore Dr", "addr:city": "Miami", "addr:state": "FL", "addr:postcode": "33133", "addr:country": "US", "name": "The Fresh Market on S Bayshore Dr", "phone": "305.854.7202", "website": "https://www.thefreshmarket.com/my-market/store/2640south-bayshore-coconut-grove", "opening_hours": "Mo-Su 07:00-21:00", "brand": "Fresh Market", "brand:wikidata": "Q7735265", "nsi_id": "thefreshmarket-dde59d"}, "geometry": {"type": "Point", "coordinates": [-80.234407, 25.730762]}},
{"type": "Feature", "id": "TpLDiiIHODdp2xRXqAeTGYTk0Ag=", "properties": {"ref": "46", "@spider": "freshmarket", "shop": "supermarket", "addr:street_address": "13499 S Cleveland Ave", "addr:city": "Fort Myers", "addr:state": "FL", "addr:postcode": "33907", "addr:country": "US", "name": "The Fresh Market on S Cleveland Ave", "phone": "239.454.1053", "website": "https://www.thefreshmarket.com/my-market/store/13499south-cleveland", "opening_hours": "Mo-Su 08:00-21:00", "brand": "Fresh Market", "brand:wikidata": "Q7735265", "nsi_id": "thefreshmarket-dde59d"}, "geometry": {"type": "Point", "coordinates": [-81.8708, 26.54871]}},
{"type": "Feature", "id": "DTtCuMaV8j7-88LNI5PtR5Dx7GI=", "properties": {"ref": "41", "@spider": "freshmarket", "shop": "supermarket", "addr:street_address": "835 S White Station Rd", "addr:city": "Memphis", "addr:state": "TN", "addr:postcode": "38117", "addr:country": "US", "name": "The Fresh Market on S White Station Rd", "phone": "901.682.3434", "website": "https://www.thefreshmarket.com/my-market/store/835south-white-station-memphis", "opening_hours": "Mo-Su 08:00-20:00", "brand": "Fresh Market", "brand:wikidata": "Q7735265", "nsi_id": "thefreshmarket-dde59d"}, "geometry": {"type": "Point", "coordinates": [-89.890039, 35.108485]}},
{"type": "Feature", "id": "_HIXFOj9l_p6YhM7owE8QgTJPMI=", "properties": {"ref": "31", "@spider": "freshmarket", "shop": "supermarket", "addr:street_address": "4633 N University Dr", "addr:city": "Coral Springs", "addr:state": "FL", "addr:postcode": "33067", "addr:country": "US", "name": "The Fresh Market on N University Dr", "phone": "954.757.3640", "website": "https://www.thefreshmarket.com/my-market/store/4633university-coral-springs", "opening_hours": "Mo-Su 08:00-21:00", "brand": "Fresh Market", "brand:wikidata": "Q7735265", "nsi_id": "thefreshmarket-dde59d"}, "geometry": {"type": "Point", "coordinates": [-80.248683, 26.28799]}},
{"type": "Feature", "id": "GfcTrr5bdk__CPunsbbwO5a7QbQ=", "properties": {"ref": "37", "@spider": "freshmarket", "shop": "supermarket", "addr:street_address": "2200 N Flamingo Rd, Ste 14A", "addr:city": "Pembroke Pines", "addr:state": "FL", "addr:postcode": "33028", "addr:country": "US", "name": "The Fresh Market on N Flamingo Rd", "phone": "954.436.7064", "website": "https://www.thefreshmarket.com/my-market/store/2200north-flamingo-pembroke-pines", "opening_hours": "Mo-Su 08:00-21:00", "brand": "Fresh Market", "brand:wikidata": "Q7735265", "nsi_id": "thefreshmarket-dde59d"}, "geometry": {"type": "Point", "coordinates": [-80.314156, 26.027793]}},
{"type": "Feature", "id": "QIVl2Wv7z1HxDfalpt8WeIoIhQE=", "properties": {"ref": "39", "@spider": "freshmarket", "shop": "supermarket", "addr:street_address": "9375 Poplar Ave", "addr:city": "Germantown", "addr:state": "TN", "addr:postcode": "38138", "addr:country": "US", "name": "The Fresh Market on Poplar Ave", "phone": "901.737.5759", "website": "https://www.thefreshmarket.com/my-market/store/9375poplar-ave-germantown", "opening_hours": "Mo-Su 08:00-21:00", "brand": "Fresh Market", "brand:wikidata": "Q7735265", "nsi_id": "thefreshmarket-dde59d"}, "geometry": {"type": "Point", "coordinates": [-89.75014, 35.062838]}},
{"type": "Feature", "id": "2N-ve1AiVBW1srN83qrYk3ZEKRg=", "properties": {"ref": "34", "@spider": "freshmarket", "shop": "supermarket", "addr:street_address": "3005 Old Alabama Rd", "addr:city": "Alpharetta", "addr:state": "GA", "addr:postcode": "30022", "addr:country": "US", "name": "The Fresh Market on Old Alabama Rd", "phone": "770.664.5350", "website": "https://www.thefreshmarket.com/my-market/store/3005old-alabama-alpharetta", "opening_hours": "Mo-Su 08:00-21:00", "brand": "Fresh Market", "brand:wikidata": "Q7735265", "nsi_id": "thefreshmarket-dde59d"}, "geometry": {"type": "Point", "coordinates": [-84.2724356245022, 34.02051086761914]}},
{"type": "Feature", "id": "4fvpZrMtyH6K9d-GMoom1T87qWs=", "properties": {"ref": "38", "@spider": "freshmarket", "shop": "supermarket", "addr:street_address": "5000 Dr Phillips Blvd", "addr:city": "Orlando", "addr:state": "FL", "addr:postcode": "32819", "addr:country": "US", "name": "The Fresh Market on Dr Phillips Blvd", "phone": "407.294.1516", "website": "https://www.thefreshmarket.com/my-market/store/5000dr-phillips-orlando", "opening_hours": "Mo-Su 08:00-21:00", "brand": "Fresh Market", "brand:wikidata": "Q7735265", "nsi_id": "thefreshmarket-dde59d"}, "geometry": {"type": "Point", "coordinates": [-81.492407, 28.492561]}},
{"type": "Feature", "id": "y1xDZWTuRmR5Fq32LdKMEaHfJ2M=", "properties": {"ref": "32", "@spider": "freshmarket", "shop": "supermarket", "addr:street_address": "744 Hilltop North Shopping Center", "addr:city": "Virginia Beach", "addr:state": "VA", "addr:postcode": "23451", "addr:country": "US", "name": "The Fresh Market on Hilltop North Shopping Center", "phone": "757.491.0904", "website": "https://www.thefreshmarket.com/my-market/store/744hilltop-north-shopping-virginia-beach", "opening_hours": "Mo-Su 08:00-21:00", "brand": "Fresh Market", "brand:wikidata": "Q7735265", "nsi_id": "thefreshmarket-dde59d"}, "geometry": {"type": "Point", "coordinates": [-76.019705, 36.852829]}},
{"type": "Feature", "id": "JUOsaLyqYIlRs9kNNIFTVTjjCzA=", "properties": {"ref": "40", "@spider": "freshmarket", "shop": "supermarket", "addr:street_address": "18299 Biscayne Blvd", "addr:city": "Aventura", "addr:state": "FL", "addr:postcode": "33160", "addr:country": "US", "name": "The Fresh Market on Biscayne Blvd", "phone": "305.466.1786", "website": "https://www.thefreshmarket.com/my-market/store/18299biscayne-aventura", "opening_hours": "Mo-Su 08:00-21:00", "brand": "Fresh Market", "brand:wikidata": "Q7735265", "nsi_id": "thefreshmarket-dde59d"}, "geometry": {"type": "Point", "coordinates": [-80.146915, 25.944658]}},
{"type": "Feature", "id": "E8t3pmUALR-58o0_gcAW_nvSSo0=", "properties": {"ref": "36", "@spider": "freshmarket", "shop": "supermarket", "addr:street_address": "13147 N Dale Mabry Hwy", "addr:city": "Tampa", "addr:state": "FL", "addr:postcode": "33618", "addr:country": "US", "name": "The Fresh Market on N Dale Mabry Hwy", "phone": "813.964.8001", "website": "https://www.thefreshmarket.com/my-market/store/13147north-dale-mabry-tampa", "opening_hours": "Mo-Su 08:00-21:00", "brand": "Fresh Market", "brand:wikidata": "Q7735265", "nsi_id": "thefreshmarket-dde59d"}, "geometry": {"type": "Point", "coordinates": [-82.50212, 28.066341]}},
{"type": "Feature", "id": "EPusKJwGWWPsHF6Ia7E74d99xqQ=", "properties": {"ref": "30", "@spider": "freshmarket", "shop": "supermarket", "addr:street_address": "25961 US Hwy 19 N", "addr:city": "Clearwater", "addr:state": "FL", "addr:postcode": "33763", "addr:country": "US", "name": "The Fresh Market on US Hwy 19 N", "phone": "727.669.6111", "website": "https://www.thefreshmarket.com/my-market/store/25961us-highway-clearwater", "opening_hours": "Mo-Su 08:00-21:00", "brand": "Fresh Market", "brand:wikidata": "Q7735265", "nsi_id": "thefreshmarket-dde59d"}, "geometry": {"type": "Point", "coordinates": [-82.728818, 28.008536]}},
{"type": "Feature", "id": "wOHopywhpjbWyp_-74xDOCXFRCg=", "properties": {"ref": "29", "@spider": "freshmarket", "shop": "supermarket", "addr:street_address": "155 Beverly Ln", "addr:city": "Southern Pines", "addr:state": "NC", "addr:postcode": "28387", "addr:country": "US", "name": "The Fresh Market on Beverly Ln", "phone": "910.695.0587", "website": "https://www.thefreshmarket.com/my-market/store/155beverly-southern-pines", "opening_hours": "Mo-Su 08:00-21:00", "brand": "Fresh Market", "brand:wikidata": "Q7735265", "nsi_id": "thefreshmarket-dde59d"}, "geometry": {"type": "Point", "coordinates": [-79.428712, 35.177115]}},
{"type": "Feature", "id": "fP8VKXCza4kudfKCPRfXYKHGWRw=", "properties": {"ref": "27", "@spider": "freshmarket", "shop": "supermarket", "addr:street_address": "4129 Tamiami Trail N", "addr:city": "Naples", "addr:state": "FL", "addr:postcode": "34103", "addr:country": "US", "name": "The Fresh Market on Tamiami Trail N", "phone": "239.430.2444", "website": "https://www.thefreshmarket.com/my-market/store/4129tamiami-naples", "opening_hours": "Mo-Su 08:00-21:00", "brand": "Fresh Market", "brand:wikidata": "Q7735265", "nsi_id": "thefreshmarket-dde59d"}, "geometry": {"type": "Point", "coordinates": [-81.802248, 26.198025]}},
{"type": "Feature", "id": "hjWIcXbYLj69rRtoLS7d0JcIyCg=", "properties": {"ref": "26", "@spider": "freshmarket", "shop": "supermarket", "addr:street_address": "12795 San Jose Blvd, Ste 1", "addr:city": "Jacksonville", "addr:state": "FL", "addr:postcode": "32223", "addr:country": "US", "name": "The Fresh Market on San Jose Blvd", "phone": "904.880.7889", "website": "https://www.thefreshmarket.com/my-market/store/12795san-jose-jacksonville", "opening_hours": "Mo-Su 08:00-21:00", "brand": "Fresh Market", "brand:wikidata": "Q7735265", "nsi_id": "thefreshmarket-dde59d"}, "geometry": {"type": "Point", "coordinates": [-81.63175480985642, 30.135932646676185]}},
{"type": "Feature", "id": "8-bJqla5koI23ZOLnjCGR4Q_xfI=", "properties": {"ref": "25", "@spider": "freshmarket", "shop": "supermarket", "addr:street_address": "840 A1A N", "addr:city": "Ponte Vedra Beach", "addr:state": "FL", "addr:postcode": "32082", "addr:country": "US", "name": "The Fresh Market on A1A N", "phone": "904.273.8450", "website": "https://www.thefreshmarket.com/my-market/store/840a1a-north-ponte-vedra-beach", "opening_hours": "Mo-Su 08:00-21:00", "brand": "Fresh Market", "brand:wikidata": "Q7735265", "nsi_id": "thefreshmarket-dde59d"}, "geometry": {"type": "Point", "coordinates": [-81.38212029199602, 30.196113596772772]}},
{"type": "Feature", "id": "JvrqXG7tTpFdylSqj8L71ukXYKo=", "properties": {"ref": "23", "@spider": "freshmarket", "shop": "supermarket", "addr:street_address": "5231 Monticello Ave", "addr:city": "Williamsburg", "addr:state": "VA", "addr:postcode": "23188", "addr:country": "US", "name": "The Fresh Market on Monticello Ave", "phone": "757.565.1661", "website": "https://www.thefreshmarket.com/my-market/store/5231monticello-williamsburg", "opening_hours": "Mo-Su 08:00-21:00", "brand": "Fresh Market", "brand:wikidata": "Q7735265", "nsi_id": "thefreshmarket-dde59d"}, "geometry": {"type": "Point", "coordinates": [-76.747291, 37.275229]}},
{"type": "Feature", "id": "jpWCySSsJAFmmyIwjEYqwP_BPek=", "properties": {"ref": "22", "@spider": "freshmarket", "shop": "supermarket", "addr:street_address": "2288 Gunbarrel Rd, Ste 124", "addr:city": "Chattanooga", "addr:state": "TN", "addr:postcode": "37421", "addr:country": "US", "name": "The Fresh Market on Gunbarrel Rd", "phone": "423.499.4223", "website": "https://www.thefreshmarket.com/my-market/store/2288gunbarrel-chattanooga", "opening_hours": "Mo-Su 08:00-21:00", "brand": "Fresh Market", "brand:wikidata": "Q7735265", "nsi_id": "thefreshmarket-dde59d"}, "geometry": {"type": "Point", "coordinates": [-85.1492969669342, 35.03870187403845]}},
{"type": "Feature", "id": "4mcVTtFy1rUYohk5Z3qZ1RNvqqI=", "properties": {"ref": "21", "@spider": "freshmarket", "shop": "supermarket", "addr:street_address": "11535 Kingston Pike", "addr:city": "Farragut", "addr:state": "TN", "addr:postcode": "37934", "addr:country": "US", "name": "The Fresh Market on 11535 Kingston Pike", "phone": "865.671.3377", "website": "https://www.thefreshmarket.com/my-market/store/11535kingston-farragut", "opening_hours": "Mo-Su 08:00-21:00", "brand": "Fresh Market", "brand:wikidata": "Q7735265", "nsi_id": "thefreshmarket-dde59d"}, "geometry": {"type": "Point", "coordinates": [-84.165091, 35.880758]}},
{"type": "Feature", "id": "NBJ_W34q-rWYue2lUkxs4vfhzUw=", "properties": {"ref": "20", "@spider": "freshmarket", "shop": "supermarket", "addr:street_address": "6325 Falls of Neuse Rd", "addr:city": "Raleigh", "addr:state": "NC", "addr:postcode": "27615", "addr:country": "US", "name": "The Fresh Market on Falls of Neuse Rd", "phone": "919.872.8501", "website": "https://www.thefreshmarket.com/my-market/store/6325falls-of-neuse-raleigh", "opening_hours": "Mo-Su 08:00-21:00", "brand": "Fresh Market", "brand:wikidata": "Q7735265", "nsi_id": "thefreshmarket-dde59d"}, "geometry": {"type": "Point", "coordinates": [-78.622605, 35.868741]}},
{"type": "Feature", "id": "m5qH50EnQe-D1jf4xklJTK8o5mc=", "properties": {"ref": "19", "@spider": "freshmarket", "shop": "supermarket", "addr:street_address": "7625 Pineville-Matthews Rd", "addr:city": "Charlotte", "addr:state": "NC", "addr:postcode": "28226", "addr:country": "US", "name": "The Fresh Market on Pineville-Matthews Rd", "phone": "704.541.1882", "website": "https://www.thefreshmarket.com/my-market/store/7625pineville-matthews-charlotte", "opening_hours": "Mo-Su 08:00-21:00", "brand": "Fresh Market", "brand:wikidata": "Q7735265", "nsi_id": "thefreshmarket-dde59d"}, "geometry": {"type": "Point", "coordinates": [-80.848564, 35.086529]}},
{"type": "Feature", "id": "R-Bii-caesxOSnlUveAlCO-tp2g=", "properties": {"ref": "17", "@spider": "freshmarket", "shop": "supermarket", "addr:street_address": "4207 Providence Rd", "addr:city": "Charlotte", "addr:state": "NC", "addr:postcode": "28211", "addr:country": "US", "name": "The Fresh Market on 4207 Providence Rd", "phone": "704.365.6659", "website": "https://www.thefreshmarket.com/my-market/store/4207providence-charlotte", "opening_hours": "Mo-Su 08:00-21:00", "brand": "Fresh Market", "brand:wikidata": "Q7735265", "nsi_id": "thefreshmarket-dde59d"}, "geometry": {"type": "Point", "coordinates": [-80.7957256501236, 35.15635459547007]}},
{"type": "Feature", "id": "OL4p9HgFrHrUxvLIi7v1h7ZpZnI=", "properties": {"ref": "15", "@spider": "freshmarket", "shop": "supermarket", "addr:street_address": "2701 Washington Rd, Ste 12", "addr:city": "Augusta", "addr:state": "GA", "addr:postcode": "30909", "addr:country": "US", "name": "The Fresh Market on Washington Rd", "phone": "706.667.0090", "website": "https://www.thefreshmarket.com/my-market/store/2701washington-augusta", "opening_hours": "Mo-Su 08:00-21:00", "brand": "Fresh Market", "brand:wikidata": "Q7735265", "nsi_id": "thefreshmarket-dde59d"}, "geometry": {"type": "Point", "coordinates": [-82.0220800588608, 33.509638138000525]}},
{"type": "Feature", "id": "iCFDmk2ZRyUtcpCyDjZm6KUqJTg=", "properties": {"ref": "14", "@spider": "freshmarket", "shop": "supermarket", "addr:street_address": "1200 E Main St", "addr:city": "Spartanburg", "addr:state": "SC", "addr:postcode": "29307", "addr:country": "US", "name": "The Fresh Market on E Main St", "phone": "864.573.6527", "website": "https://www.thefreshmarket.com/my-market/store/1200east-main-spartanburg", "opening_hours": "Mo-Su 08:00-21:00", "brand": "Fresh Market", "brand:wikidata": "Q7735265", "nsi_id": "thefreshmarket-dde59d"}, "geometry": {"type": "Point", "coordinates": [-81.901372, 34.963474]}},
{"type": "Feature", "id": "ElUkSasnPnbGX5BGihCVK4xQcg0=", "properties": {"ref": "13", "@spider": "freshmarket", "shop": "supermarket", "addr:street_address": "400 Woodburn Rd", "addr:city": "Raleigh", "addr:state": "NC", "addr:postcode": "27605", "addr:country": "US", "name": "The Fresh Market on Woodburn Rd", "phone": "919.828.7888", "website": "https://www.thefreshmarket.com/my-market/store/400woodburn-raleigh", "opening_hours": "Mo-Su 08:00-21:00", "brand": "Fresh Market", "brand:wikidata": "Q7735265", "nsi_id": "thefreshmarket-dde59d"}, "geometry": {"type": "Point", "coordinates": [-78.658642, 35.789598]}},
{"type": "Feature", "id": "sEystj8AXzkUgEhrlx0bmXvu9XY=", "properties": {"ref": "11", "@spider": "freshmarket", "shop": "supermarket", "addr:street_address": "4475 Kingston Pike", "addr:city": "Knoxville", "addr:state": "TN", "addr:postcode": "37919", "addr:country": "US", "name": "The Fresh Market on 4475 Kingston Pike", "phone": "865.584.8699", "website": "https://www.thefreshmarket.com/my-market/store/4475kingston-knoxville", "opening_hours": "Mo-Su 08:00-21:00", "brand": "Fresh Market", "brand:wikidata": "Q7735265", "nsi_id": "thefreshmarket-dde59d"}, "geometry": {"type": "Point", "coordinates": [-83.978415, 35.941849]}},
{"type": "Feature", "id": "HYXVD44X65TgbIZj9l-xQkUe9Jg=", "properties": {"ref": "9", "@spider": "freshmarket", "shop": "supermarket", "addr:street_address": "1560 Highwoods Blvd", "addr:city": "Greensboro", "addr:state": "NC", "addr:postcode": "27410", "addr:country": "US", "name": "The Fresh Market on Highwoods Blvd", "phone": "336.855.6114", "website": "https://www.thefreshmarket.com/my-market/store/1560highwoods-greensboro", "opening_hours": "Mo-Su 08:00-21:00", "brand": "Fresh Market", "brand:wikidata": "Q7735265", "nsi_id": "thefreshmarket-dde59d"}, "geometry": {"type": "Point", "coordinates": [-79.879397, 36.11137]}},
{"type": "Feature", "id": "u1HNk9iMBMP5xNJwZ8xN6FxXn4U=", "properties": {"ref": "12", "@spider": "freshmarket", "shop": "supermarket", "addr:street_address": "3285 Robinhood Rd", "addr:city": "Winston-Salem", "addr:state": "NC", "addr:postcode": "27106", "addr:country": "US", "name": "The Fresh Market on Robinhood Rd", "phone": "336.760.2519", "website": "https://www.thefreshmarket.com/my-market/store/3285robinhood-winston-salem", "opening_hours": "Mo-Su 08:00-21:00", "brand": "Fresh Market", "brand:wikidata": "Q7735265", "nsi_id": "thefreshmarket-dde59d"}, "geometry": {"type": "Point", "coordinates": [-80.311403, 36.115691]}},
{"type": "Feature", "id": "8C7mHhzzINd81noNU7y8A07Cv-A=", "properties": {"ref": "8", "@spider": "freshmarket", "shop": "supermarket", "addr:street_address": "3655 SW Cary Pkwy", "addr:city": "Cary", "addr:state": "NC", "addr:postcode": "27513", "addr:country": "US", "name": "The Fresh Market on SW Cary Pkwy", "phone": "919.481.2865", "website": "https://www.thefreshmarket.com/my-market/store/3655sw-cary-cary", "opening_hours": "Mo-Su 08:00-21:00", "brand": "Fresh Market", "brand:wikidata": "Q7735265", "nsi_id": "thefreshmarket-dde59d"}, "geometry": {"type": "Point", "coordinates": [-78.838095, 35.782041]}},
{"type": "Feature", "id": "zVdXeJEYPZZHOsHTNW7eazNpbGY=", "properties": {"ref": "7", "@spider": "freshmarket", "shop": "supermarket", "addr:street_address": "4840 Forest Dr", "addr:city": "Columbia", "addr:state": "SC", "addr:postcode": "29206", "addr:country": "US", "name": "The Fresh Market on Forest Dr", "phone": "803.782.9100", "website": "https://www.thefreshmarket.com/my-market/store/4840forest-columbia", "opening_hours": "Mo-Su 08:00-21:00", "brand": "Fresh Market", "brand:wikidata": "Q7735265", "nsi_id": "thefreshmarket-dde59d"}, "geometry": {"type": "Point", "coordinates": [-80.964076, 34.017787]}},
{"type": "Feature", "id": "rzGtFjoOGwz8zCDneSpApv2RSH0=", "properties": {"ref": "5", "@spider": "freshmarket", "shop": "supermarket", "addr:street_address": "223 Greenville Hwy", "addr:city": "Hendersonville", "addr:state": "NC", "addr:postcode": "28792", "addr:country": "US", "name": "The Fresh Market on Greenville Hwy", "phone": "828.698.4682", "website": "https://www.thefreshmarket.com/my-market/store/223greenville-hendersonville", "opening_hours": "Mo-Su 08:00-21:00", "brand": "Fresh Market", "brand:wikidata": "Q7735265", "nsi_id": "thefreshmarket-dde59d"}, "geometry": {"type": "Point", "coordinates": [-82.460188, 35.307621]}},
{"type": "Feature", "id": "kthMX1H0yqSjA4_cGi2Aw8Zqiy8=", "properties": {"ref": "6", "@spider": "freshmarket", "shop": "supermarket", "addr:street_address": "27 S Pleasantburg Dr, Ste 10", "addr:city": "Greenville", "addr:state": "SC", "addr:postcode": "29607", "addr:country": "US", "name": "The Fresh Market on S Pleasantburg Dr", "phone": "864.242.9616", "website": "https://www.thefreshmarket.com/my-market/store/27south-pleasantburg-greenville", "opening_hours": "Mo-Su 08:00-21:00", "brand": "Fresh Market", "brand:wikidata": "Q7735265", "nsi_id": "thefreshmarket-dde59d"}, "geometry": {"type": "Point", "coordinates": [-82.36284979629517, 34.84155646242226]}}]}