{"type":"FeatureCollection","features":[{"type": "Feature", "id": "_bN_QUNLw6jsbo_juvuj4qq4X_0=", "properties": {"ref": "151", "@spider": "freshthyme", "shop": "supermarket", "addr:street": "14880 Florence Trail", "addr:city": "Apple Valley", "addr:state": "MN", "addr:postcode": "55124", "addr:country": "US", "name": "Apple Valley, MN", "phone": "612-851-0600", "website": "www.freshthyme.com/stores/502", "opening_hours": "Mo-Su 07:00-21:00", "brand": "Fresh Thyme", "brand:wikidata": "Q64132791", "nsi_id": "freshthyme-dde59d"}, "geometry": {"type": "Point", "coordinates": [-93.20555, 44.73435]}},
{"type": "Feature", "id": "Pxv04t3irbVsBvHSKhGufFGmFPw=", "properties": {"ref": "171", "@spider": "freshthyme", "shop": "supermarket", "addr:street": "2767 S. Oneida St.", "addr:city": "Ashwaubenon", "addr:state": "WI", "addr:postcode": "54304", "addr:country": "US", "name": "Ashwaubenon, WI", "phone": "920-301-4035", "website": "www.freshthyme.com/stores/707", "opening_hours": "Mo-Su 07:00-21:00", "brand": "Fresh Thyme", "brand:wikidata": "Q64132791", "nsi_id": "freshthyme-dde59d"}, "geometry": {"type": "Point", "coordinates": [-88.07316, 44.4729]}},
{"type": "Feature", "id": "QF21cSkWO5p0nYNTuXmIBaoLMH0=", "properties": {"ref": "134", "@spider": "freshthyme", "shop": "supermarket", "addr:street": "2850 E. Centre Dr.", "addr:city": "Beavercreek", "addr:state": "OH", "addr:postcode": "45324", "addr:country": "US", "name": "Beavercreek, OH", "phone": "937-429-4516", "website": "www.freshthyme.com/stores/302", "opening_hours": "Mo-Su 07:00-21:00", "brand": "Fresh Thyme", "brand:wikidata": "Q64132791", "nsi_id": "freshthyme-dde59d"}, "geometry": {"type": "Point", "coordinates": [-84.04686, 39.77177]}},
{"type": "Feature", "id": "hLVcLzBqjU2124_7pT8HifMh6xg=", "properties": {"ref": "119", "@spider": "freshthyme", "shop": "supermarket", "addr:street": "403 N. Veterans Parkway, Unit 2", "addr:city": "Bloomington", "addr:state": "IL", "addr:postcode": "61704", "addr:country": "US", "name": "Bloomington, IL", "phone": "309-445-6018", "website": "www.freshthyme.com/stores/110", "opening_hours": "Mo-Su 07:00-21:00", "brand": "Fresh Thyme", "brand:wikidata": "Q64132791", "nsi_id": "freshthyme-dde59d"}, "geometry": {"type": "Point", "coordinates": [-88.9526, 40.48274]}},
{"type": "Feature", "id": "2Q5H0xSYkmgJgZ8jB2GiR9WbDuU=", "properties": {"ref": "183", "@spider": "freshthyme", "shop": "supermarket", "addr:street": "2812 E. 3rd St.", "addr:city": "Bloomington", "addr:state": "IN", "addr:postcode": "47401", "addr:country": "US", "name": "Bloomington, IN - East", "phone": "812-558-7600", "website": "www.freshthyme.com/stores/215", "opening_hours": "Mo-Su 07:00-22:00", "brand": "Fresh Thyme", "brand:wikidata": "Q64132791", "nsi_id": "freshthyme-dde59d"}, "geometry": {"type": "Point", "coordinates": [-86.49609, 39.16303]}},
{"type": "Feature", "id": "mHQGKM5EMcGJFQDbbgqQpGIXINU=", "properties": {"ref": "128", "@spider": "freshthyme", "shop": "supermarket", "addr:street": "3600 W. 3rd St.", "addr:city": "Bloomington", "addr:state": "IN", "addr:postcode": "47404", "addr:country": "US", "name": "Bloomington, IN - West", "phone": "812-558-7208", "website": "www.freshthyme.com/stores/209", "opening_hours": "Mo-Su 07:00-21:00", "brand": "Fresh Thyme", "brand:wikidata": "Q64132791", "nsi_id": "freshthyme-dde59d"}, "geometry": {"type": "Point", "coordinates": [-86.58272, 39.16498]}},
{"type": "Feature", "id": "u7Fz1JJuRBSJ0rCZ6TfjFZl9UgQ=", "properties": {"ref": "150", "@spider": "freshthyme", "shop": "supermarket", "addr:street": "2100 W. 80 1/2 St.", "addr:city": "Bloomington", "addr:state": "MN", "addr:postcode": "55431", "addr:country": "US", "name": "Bloomington, MN", "phone": "763-321-3555", "website": "www.freshthyme.com/stores/501", "opening_hours": "Mo-Su 07:00-21:00", "brand": "Fresh Thyme", "brand:wikidata": "Q64132791", "nsi_id": "freshthyme-dde59d"}, "geometry": {"type": "Point", "coordinates": [-93.3074, 44.85846]}},
{"type": "Feature", "id": "Vm03dXsr8fjt5W2HfbwGJk8NvCQ=", "properties": {"ref": "148", "@spider": "freshthyme", "shop": "supermarket", "addr:street": "1155 Washington Pike, Ste 38", "addr:city": "Bridgeville", "addr:state": "PA", "addr:postcode": "15017", "addr:country": "US", "name": "Bridgeville, PA", "phone": "412-319-4101", "website": "www.freshthyme.com/stores/451", "opening_hours": "Mo-Su 07:00-21:00", "brand": "Fresh Thyme", "brand:wikidata": "Q64132791", "nsi_id": "freshthyme-dde59d"}, "geometry": {"type": "Point", "coordinates": [-80.10615, 40.3698]}},
{"type": "Feature", "id": "k_HgjmmxibkBBvgBpAYPt-N82tM=", "properties": {"ref": "167", "@spider": "freshthyme", "shop": "supermarket", "addr:street": "17300 W. Bluemound Rd.", "addr:city": "Brookfield", "addr:state": "WI", "addr:postcode": "53045", "addr:country": "US", "name": "Brookfield, WI", "phone": "262-317-4749", "website": "www.freshthyme.com/stores/702", "opening_hours": "Mo-Su 07:00-21:00", "brand": "Fresh Thyme", "brand:wikidata": "Q64132791", "nsi_id": "freshthyme-dde59d"}, "geometry": {"type": "Point", "coordinates": [-88.12778, 43.03751]}},
{"type": "Feature", "id": "SUbkLQwvui7kohzML5xy_N2p5i8=", "properties": {"ref": "165", "@spider": "freshthyme", "shop": "supermarket", "addr:street": "43480 Ford Rd.", "addr:city": "Canton", "addr:state": "MI", "addr:postcode": "48187", "addr:country": "US", "name": "Canton, MI", "phone": "734-781-4301", "website": "www.freshthyme.com/stores/609", "opening_hours": "Mo-Su 07:00-21:00", "brand": "Fresh Thyme", "brand:wikidata": "Q64132791", "nsi_id": "freshthyme-dde59d"}, "geometry": {"type": "Point", "coordinates": [-83.4691, 42.32284]}},
{"type": "Feature", "id": "T0Q3LfXyAcobXTXFNMMtMsPHH_U=", "properties": {"ref": "126", "@spider": "freshthyme", "shop": "supermarket", "addr:street": "14727 Fresh Thyme Market Dr.", "addr:city": "Carmel", "addr:state": "IN", "addr:postcode": "46033", "addr:country": "US", "name": "Carmel, IN", "phone": "317-975-7203", "website": "www.freshthyme.com/stores/207", "opening_hours": "Mo-Su 07:00-21:00", "brand": "Fresh Thyme", "brand:wikidata": "Q64132791", "nsi_id": "freshthyme-dde59d"}, "geometry": {"type": "Point", "coordinates": [-86.10813, 40.00102]}},
{"type": "Feature", "id": "Xgy2YQvsXvpIBTOEJNWNLUjuYjg=", "properties": {"ref": "116", "@spider": "freshthyme", "shop": "supermarket", "addr:street": "2500 N. Elston Ave.", "addr:city": "Chicago", "addr:state": "IL", "addr:postcode": "60647", "addr:country": "US", "name": "Chicago, IL - Bucktown", "phone": "872-210-3010", "website": "www.freshthyme.com/stores/107", "opening_hours": "Mo-Su 07:00-22:00", "brand": "Fresh Thyme", "brand:wikidata": "Q64132791", "nsi_id": "freshthyme-dde59d"}, "geometry": {"type": "Point", "coordinates": [-87.68091, 41.92649]}},
{"type": "Feature", "id": "46YSC02VvvjkJejwFR44XDkpot0=", "properties": {"ref": "135", "@spider": "freshthyme", "shop": "supermarket", "addr:street": "11349 Montgomery Rd.", "addr:city": "Cincinnati", "addr:state": "OH", "addr:postcode": "45249", "addr:country": "US", "name": "Cincinnati, OH - Harpers Station", "phone": "513-247-0018", "website": "www.freshthyme.com/stores/304", "opening_hours": "Mo-Su 08:00-21:00", "brand": "Fresh Thyme", "brand:wikidata": "Q64132791", "nsi_id": "freshthyme-dde59d"}, "geometry": {"type": "Point", "coordinates": [-84.33068, 39.27197]}},
{"type": "Feature", "id": "1Y--cqoVE_rWoQPSRbBCNBH6hkQ=", "properties": {"ref": "185", "@spider": "freshthyme", "shop": "supermarket", "addr:street": "1717 Route 228 Ste. E", "addr:city": "Cranberry Township", "addr:state": "PA", "addr:postcode": "16066", "addr:country": "US", "name": "Cranberry Township, PA", "phone": "724 -553 - 7051", "website": "www.freshthyme.com/stores/453", "opening_hours": "Mo-Su 07:00-21:00", "brand": "Fresh Thyme", "brand:wikidata": "Q64132791", "nsi_id": "freshthyme-dde59d"}, "geometry": {"type": "Point", "coordinates": [-80.0824, 40.68837]}},
{"type": "Feature", "id": "AlTr5Sm0maPVzv2VCP1N2es6oqU=", "properties": {"ref": "118", "@spider": "freshthyme", "shop": "supermarket", "addr:street": "5340 NW Hwy Suite B", "addr:city": "Crystal Lake", "addr:state": "IL", "addr:postcode": "60014", "addr:country": "US", "name": "Crystal Lake, IL", "phone": "779-800-7100", "website": "www.freshthyme.com/stores/109", "opening_hours": "Mo-Su 07:00-21:00", "brand": "Fresh Thyme", "brand:wikidata": "Q64132791", "nsi_id": "freshthyme-dde59d"}, "geometry": {"type": "Point", "coordinates": [-88.30428, 42.22821]}},
{"type": "Feature", "id": "JtIzvsZXnR9Vcor4jVARAggPPDc=", "properties": {"ref": "180", "@spider": "freshthyme", "shop": "supermarket", "addr:street": "2130 E. Kimberly Rd.", "addr:city": "Davenport", "addr:state": "IA", "addr:postcode": "52807", "addr:country": "US", "name": "Davenport, IA", "phone": "563-232-0024", "website": "www.freshthyme.com/stores/952", "opening_hours": "Mo-Su 07:00-21:00", "brand": "Fresh Thyme", "brand:wikidata": "Q64132791", "nsi_id": "freshthyme-dde59d"}, "geometry": {"type": "Point", "coordinates": [-90.54581, 41.5575]}},
{"type": "Feature", "id": "eo_kGGoRcUnpNodwgzzCrj11fQw=", "properties": {"ref": "113", "@spider": "freshthyme", "shop": "supermarket", "addr:street": "325 Ogden Avenue", "addr:city": "Downers Grove", "addr:state": "IL", "addr:postcode": "60515", "addr:country": "US", "name": "Downers Grove, IL", "phone": "630-968-3145", "website": "www.freshthyme.com/stores/104", "opening_hours": "Mo-Su 07:00-21:00", "brand": "Fresh Thyme", "brand:wikidata": "Q64132791", "nsi_id": "freshthyme-dde59d"}, "geometry": {"type": "Point", "coordinates": [-87.99407, 41.80944]}},
{"type": "Feature", "id": "5g1gqBmcT5iLF0pOMR23lnVZbhQ=", "properties": {"ref": "133", "@spider": "freshthyme", "shop": "supermarket", "addr:street": "6670 Sawmill Rd.", "addr:city": "Columbus", "addr:state": "OH", "addr:postcode": "43235", "addr:country": "US", "name": "Dublin, OH", "phone": "614-210-0349", "website": "www.freshthyme.com/stores/301", "opening_hours": "Mo-Su 07:00-21:00", "brand": "Fresh Thyme", "brand:wikidata": "Q64132791", "nsi_id": "freshthyme-dde59d"}, "geometry": {"type": "Point", "coordinates": [-83.08982, 40.10335]}},
{"type": "Feature", "id": "Rr-CGFcoK0o2BuVISP7bldu0l5s=", "properties": {"ref": "158", "@spider": "freshthyme", "shop": "supermarket", "addr:street": "940 Trowbridge Rd.", "addr:city": "East Lansing", "addr:state": "MI", "addr:postcode": "48823", "addr:country": "US", "name": "East Lansing, MI", "phone": "517-203-4366", "website": "www.freshthyme.com/stores/601", "opening_hours": "Mo-Su 07:00-21:00", "brand": "Fresh Thyme", "brand:wikidata": "Q64132791", "nsi_id": "freshthyme-dde59d"}, "geometry": {"type": "Point", "coordinates": [-84.49494, 42.72059]}},
{"type": "Feature", "id": "6IaDv2mepQM73CPaHlEIXMbtC6s=", "properties": {"ref": "131", "@spider": "freshthyme", "shop": "supermarket", "addr:street": "1121 Hirschland Rd.", "addr:city": "Evansville", "addr:state": "IN", "addr:postcode": "47715", "addr:country": "US", "name": "Evansville, IN", "phone": "812-909-7063", "website": "www.freshthyme.com/stores/213", "opening_hours": "Mo-Su 07:00-21:00", "brand": "Fresh Thyme", "brand:wikidata": "Q64132791", "nsi_id": "freshthyme-dde59d"}, "geometry": {"type": "Point", "coordinates": [-87.46963, 37.98862]}},
{"type": "Feature", "id": "Rm5HBq0GiC7NB39uepJIy88kxg4=", "properties": {"ref": "112", "@spider": "freshthyme", "shop": "supermarket", "addr:street": "6569 N. Illinois Street", "addr:city": "Fairview Heights", "addr:state": "IL", "addr:postcode": "62208", "addr:country": "US", "name": "Fairview Heights, IL", "phone": "618-394-7753", "website": "www.freshthyme.com/stores/103", "opening_hours": "Mo-Su 07:00-22:00", "brand": "Fresh Thyme", "brand:wikidata": "Q64132791", "nsi_id": "freshthyme-dde59d"}, "geometry": {"type": "Point", "coordinates": [-89.98703, 38.59425]}},
{"type": "Feature", "id": "eDyMgEztYXXXzV2jApmTeIFRyhk=", "properties": {"ref": "162", "@spider": "freshthyme", "shop": "supermarket", "addr:street": "23300 Farmington Rd.", "addr:city": "Farmington", "addr:state": "MI", "addr:postcode": "48336", "addr:country": "US", "name": "Farmington, MI", "phone": "248-699-5343", "website": "www.freshthyme.com/stores/605", "opening_hours": "Mo-Su 07:00-21:00", "brand": "Fresh Thyme", "brand:wikidata": "Q64132791", "nsi_id": "freshthyme-dde59d"}, "geometry": {"type": "Point", "coordinates": [-83.37543, 42.46263]}},
{"type": "Feature", "id": "OErM4Tw1tC_lNIGXxYaYf-0HgD0=", "properties": {"ref": "125", "@spider": "freshthyme", "shop": "supermarket", "addr:street": "11481 E. 116th St.", "addr:city": "Fishers", "addr:state": "IN", "addr:postcode": "46037", "addr:country": "US", "name": "Fishers, IN", "phone": "317-572-6109", "website": "www.freshthyme.com/stores/206", "opening_hours": "Mo-Su 07:00-21:00", "brand": "Fresh Thyme", "brand:wikidata": "Q64132791", "nsi_id": "freshthyme-dde59d"}, "geometry": {"type": "Point", "coordinates": [-85.96158, 39.95681]}},
{"type": "Feature", "id": "JulmCGPlkqwCp1M_OjGxEIgMET4=", "properties": {"ref": "122", "@spider": "freshthyme", "shop": "supermarket", "addr:street": "4320 Coldwater Rd.", "addr:city": "Fort Wayne", "addr:state": "IN", "addr:postcode": "46805", "addr:country": "US", "name": "Ft Wayne, IN", "phone": "260-373-1677", "website": "www.freshthyme.com/stores/203", "opening_hours": "Mo-Su 07:00-21:00", "brand": "Fresh Thyme", "brand:wikidata": "Q64132791", "nsi_id": "freshthyme-dde59d"}, "geometry": {"type": "Point", "coordinates": [-85.1341, 41.11779]}},
{"type": "Feature", "id": "TIUA0Usay5wIWGImPvvjvO-iFCc=", "properties": {"ref": "140", "@spider": "freshthyme", "shop": "supermarket", "addr:street": "1125 N. Hamilton Rd.", "addr:city": "Gahanna", "addr:state": "OH", "addr:postcode": "43230", "addr:country": "US", "name": "Gahanna, OH", "phone": "614-934-1943", "website": "www.freshthyme.com/stores/310", "opening_hours": "Mo-Su 07:00-21:00", "brand": "Fresh Thyme", "brand:wikidata": "Q64132791", "nsi_id": "freshthyme-dde59d"}, "geometry": {"type": "Point", "coordinates": [-82.86676, 40.0479]}},
{"type": "Feature", "id": "6z1FlU3E0Riu1_DyOxjsFp6GbgY=", "properties": {"ref": "194", "@spider": "freshthyme", "shop": "supermarket", "addr:street": "2000 S. Randall Rd, Ste 100", "addr:city": "Geneva", "addr:state": "IL", "addr:postcode": "60134", "addr:country": "US", "name": "Geneva, IL", "phone": "630-492-5558", "website": "www.freshthyme.com/stores/113", "opening_hours": "Mo-Su 07:00-21:00", "brand": "Fresh Thyme", "brand:wikidata": "Q64132791", "nsi_id": "freshthyme-dde59d"}, "geometry": {"type": "Point", "coordinates": [-88.34284, 41.86698]}},
{"type": "Feature", "id": "WfYvwAcKnTaaUQ-nNuq7BUFngfg=", "properties": {"ref": "163", "@spider": "freshthyme", "shop": "supermarket", "addr:street": "2470 Burton St. SE", "addr:city": "Grand Rapids", "addr:state": "MI", "addr:postcode": "49546", "addr:country": "US", "name": "Grand Rapids, MI", "phone": "616-228-6530", "website": "www.freshthyme.com/stores/606", "opening_hours": "Mo-Su 07:00-22:00", "brand": "Fresh Thyme", "brand:wikidata": "Q64132791", "nsi_id": "freshthyme-dde59d"}, "geometry": {"type": "Point", "coordinates": [-85.60546, 42.92613]}},
{"type": "Feature", "id": "rqGfp7cY0U7W_scpObgxM3WD3ZQ=", "properties": {"ref": "169", "@spider": "freshthyme", "shop": "supermarket", "addr:street": "8680 W. Sura Lane", "addr:city": "Greenfield", "addr:state": "WI", "addr:postcode": "53228", "addr:country": "US", "name": "Greenfield, WI", "phone": "414-246-6022", "website": "www.freshthyme.com/stores/705", "opening_hours": "Mo-Su 07:00-21:00", "brand": "Fresh Thyme", "brand:wikidata": "Q64132791", "nsi_id": "freshthyme-dde59d"}, "geometry": {"type": "Point", "coordinates": [-88.02356, 42.96078]}},
{"type": "Feature", "id": "CzGxKlE3m_R29OHn5BcAvR65spU=", "properties": {"ref": "120", "@spider": "freshthyme", "shop": "supermarket", "addr:street": "8750 US Highway 31", "addr:city": "Indianapolis", "addr:state": "IN", "addr:postcode": "46227", "addr:country": "US", "name": "Greenwood, IN", "phone": "317-881-6621", "website": "www.freshthyme.com/stores/201", "opening_hours": "Mo-Su 07:00-21:00", "brand": "Fresh Thyme", "brand:wikidata": "Q64132791", "nsi_id": "freshthyme-dde59d"}, "geometry": {"type": "Point", "coordinates": [-86.13046, 39.63846]}},
{"type": "Feature", "id": "c7QX15CslFgJeDV6t6YxJSyPO-c=", "properties": {"ref": "123", "@spider": "freshthyme", "shop": "supermarket", "addr:street": "4225 E. 82nd St.", "addr:city": "Indianapolis", "addr:state": "IN", "addr:postcode": "46250", "addr:country": "US", "name": "Indianapolis, IN - 82nd Street", "phone": "317-845-4452", "website": "www.freshthyme.com/stores/204", "opening_hours": "Mo-Su 07:00-21:00", "brand": "Fresh Thyme", "brand:wikidata": "Q64132791", "nsi_id": "freshthyme-dde59d"}, "geometry": {"type": "Point", "coordinates": [-86.09488, 39.90647]}},
{"type": "Feature", "id": "Sl31_K21JbA2J881yGXd0qRklC4=", "properties": {"ref": "124", "@spider": "freshthyme", "shop": "supermarket", "addr:street": "2342 W. 86th St.", "addr:city": "Indianapolis", "addr:state": "IN", "addr:postcode": "46260", "addr:country": "US", "name": "Indianapolis, IN - 86th Street", "phone": "317-876-8329", "website": "www.freshthyme.com/stores/205", "opening_hours": "Mo-Su 07:00-21:00", "brand": "Fresh Thyme", "brand:wikidata": "Q64132791", "nsi_id": "freshthyme-dde59d"}, "geometry": {"type": "Point", "coordinates": [-86.2022, 39.91228]}},
{"type": "Feature", "id": "ogyNLvI-05qKJ8N_bvHqSTRlz_0=", "properties": {"ref": "129", "@spider": "freshthyme", "shop": "supermarket", "addr:street": "9040 Rockville Rd.", "addr:city": "Indianapolis", "addr:state": "IN", "addr:postcode": "46234", "addr:country": "US", "name": "Indianapolis, IN - Avon", "phone": "317-287-0483", "website": "www.freshthyme.com/stores/211", "opening_hours": "Mo-Th 07:00-21:00; Fr 07:00-22:00; Sa-Su 07:00-21:00", "brand": "Fresh Thyme", "brand:wikidata": "Q64132791", "nsi_id": "freshthyme-dde59d"}, "geometry": {"type": "Point", "coordinates": [-86.32311, 39.76498]}},
{"type": "Feature", "id": "fev1Co0IxNkN8oMB_NWRTKlNdVU=", "properties": {"ref": "127", "@spider": "freshthyme", "shop": "supermarket", "addr:street": "6301 N. College Ave., #101", "addr:city": "Indianapolis", "addr:state": "IN", "addr:postcode": "46220", "addr:country": "US", "name": "Indianapolis, IN - Broad Ripple", "phone": "317-554-1646", "website": "www.freshthyme.com/stores/208", "opening_hours": "Mo-Su 07:00-22:00", "brand": "Fresh Thyme", "brand:wikidata": "Q64132791", "nsi_id": "freshthyme-dde59d"}, "geometry": {"type": "Point", "coordinates": [-86.14589, 39.87081]}},
{"type": "Feature", "id": "p0g4a-5smKlCyPygyegd6vcxMek=", "properties": {"ref": "115", "@spider": "freshthyme", "shop": "supermarket", "addr:street": "2700 Plainfield Rd., Suite C", "addr:city": "Joliet", "addr:state": "IL", "addr:postcode": "60435", "addr:country": "US", "name": "Joliet, IL", "phone": "815-733-4001", "website": "www.freshthyme.com/stores/106", "opening_hours": "Mo-Su 07:00-21:00", "brand": "Fresh Thyme", "brand:wikidata": "Q64132791", "nsi_id": "freshthyme-dde59d"}, "geometry": {"type": "Point", "coordinates": [-88.15786, 41.57477]}},
{"type": "Feature", "id": "mrn4wOwwkyBQeKQu12yQi3_Y5eQ=", "properties": {"ref": "168", "@spider": "freshthyme", "shop": "supermarket", "addr:street": "7100 Green Bay Rd.", "addr:city": "Kenosha", "addr:state": "WI", "addr:postcode": "53142", "addr:country": "US", "name": "Kenosha, WI", "phone": "262-612-8495", "website": "www.freshthyme.com/stores/704", "opening_hours": "Mo-Su 07:00-21:00", "brand": "Fresh Thyme", "brand:wikidata": "Q64132791", "nsi_id": "freshthyme-dde59d"}, "geometry": {"type": "Point", "coordinates": [-87.88897, 42.57064]}},
{"type": "Feature", "id": "MsWK02eeHQAM7MdQjNwWlE8sypE=", "properties": {"ref": "143", "@spider": "freshthyme", "shop": "supermarket", "addr:street": "1018 North Kirkwood Rd.", "addr:city": "Kirkwood", "addr:state": "MO", "addr:postcode": "63122", "addr:country": "US", "name": "Kirkwood, MO", "phone": "314-626-6102", "website": "www.freshthyme.com/stores/401", "opening_hours": "Mo-Su 07:00-21:00", "brand": "Fresh Thyme", "brand:wikidata": "Q64132791", "nsi_id": "freshthyme-dde59d"}, "geometry": {"type": "Point", "coordinates": [-90.40544, 38.59996]}},
{"type": "Feature", "id": "oDT8duoFnQY53fufcdLWWE3dTAw=", "properties": {"ref": "121", "@spider": "freshthyme", "shop": "supermarket", "addr:street": "220 S. Creasy Ln.", "addr:city": "Lafayette", "addr:state": "IN", "addr:postcode": "47905", "addr:country": "US", "name": "Lafayette, IN", "phone": "765-588-4383", "website": "www.freshthyme.com/stores/202", "opening_hours": "Mo-Su 07:00-21:00", "brand": "Fresh Thyme", "brand:wikidata": "Q64132791", "nsi_id": "freshthyme-dde59d"}, "geometry": {"type": "Point", "coordinates": [-86.83958, 40.41274]}},
{"type": "Feature", "id": "d5CU0yexI33xP3WOR2lha386ddg=", "properties": {"ref": "138", "@spider": "freshthyme", "shop": "supermarket", "addr:street": "1545 Golden Gate Plaza", "addr:city": "Mayfield Heights", "addr:state": "OH", "addr:postcode": "44124", "addr:country": "US", "name": "Mayfield Heights, OH", "phone": "440-544-2077", "website": "www.freshthyme.com/stores/307", "opening_hours": "Mo-Su 07:00-22:00", "brand": "Fresh Thyme", "brand:wikidata": "Q64132791", "nsi_id": "freshthyme-dde59d"}, "geometry": {"type": "Point", "coordinates": [-81.44881, 41.51794]}},
{"type": "Feature", "id": "wpWefgDu4XqYtWcvOoSXfu9C5-w=", "properties": {"ref": "166", "@spider": "freshthyme", "shop": "supermarket", "addr:street": "470 E. Pleasant", "addr:city": "Milwaukee", "addr:state": "WI", "addr:postcode": "53202", "addr:country": "US", "name": "Milwaukee, WI - North End", "phone": "414-290-3999", "website": "www.freshthyme.com/stores/701", "opening_hours": "Mo-Su 07:00-21:00", "brand": "Fresh Thyme", "brand:wikidata": "Q64132791", "nsi_id": "freshthyme-dde59d"}, "geometry": {"type": "Point", "coordinates": [-87.90616, 43.05128]}},
{"type": "Feature", "id": "SXEn0jxzzHl-85sMx-nluyg2_hw=", "properties": {"ref": "156", "@spider": "freshthyme", "shop": "supermarket", "addr:street": "24 30th Avenue SE", "addr:city": "Minneapolis", "addr:state": "MN", "addr:postcode": "55414", "addr:country": "US", "name": "Minneapolis, MN - Prospect Park", "phone": "651-846-0908", "website": "www.freshthyme.com/stores/510", "opening_hours": "Mo-Su 07:00-23:00", "brand": "Fresh Thyme", "brand:wikidata": "Q64132791", "nsi_id": "freshthyme-dde59d"}, "geometry": {"type": "Point", "coordinates": [-93.21389, 44.97091]}},
{"type": "Feature", "id": "v7pn6lDK0kM35GMrwIRi6eRghS4=", "properties": {"ref": "182", "@spider": "freshthyme", "shop": "supermarket", "addr:street": "5518 Grape Rd.", "addr:city": "Mishawaka", "addr:state": "IN", "addr:postcode": "46545", "addr:country": "US", "name": "Mishawaka, IN", "phone": "574-406-6350", "website": "www.freshthyme.com/stores/210", "opening_hours": "Mo-Su 07:00-21:00", "brand": "Fresh Thyme", "brand:wikidata": "Q64132791", "nsi_id": "freshthyme-dde59d"}, "geometry": {"type": "Point", "coordinates": [-86.186, 41.71017]}},
{"type": "Feature", "id": "DKjnAaiqtmeVqzcBccUraFUQ97M=", "properties": {"ref": "111", "@spider": "freshthyme", "shop": "supermarket", "addr:street": "211 W. Rand Road", "addr:city": "Mt. Prospect", "addr:state": "IL", "addr:postcode": "60056", "addr:country": "US", "name": "Mount Prospect, IL", "phone": "224-318-4003", "website": "www.freshthyme.com/stores/101", "opening_hours": "Mo-Su 07:00-21:00", "brand": "Fresh Thyme", "brand:wikidata": "Q64132791", "nsi_id": "freshthyme-dde59d"}, "geometry": {"type": "Point", "coordinates": [-87.94064, 42.0827]}},
{"type": "Feature", "id": "YtGW7JTUxgfuP0FgRgon7bPQ7YQ=", "properties": {"ref": "132", "@spider": "freshthyme", "shop": "supermarket", "addr:street": "505 W. McGalliard Rd.", "addr:city": "Muncie", "addr:state": "IN", "addr:postcode": "47303", "addr:country": "US", "name": "Muncie, IN", "phone": "765-702-2153", "website": "www.freshthyme.com/stores/214", "opening_hours": "Mo-Su 07:00-21:00", "brand": "Fresh Thyme", "brand:wikidata": "Q64132791", "nsi_id": "freshthyme-dde59d"}, "geometry": {"type": "Point", "coordinates": [-85.39252, 40.21884]}},
{"type": "Feature", "id": "JakWYpgL7aHhJ3lDssNkj3nI_Ek=", "properties": {"ref": "114", "@spider": "freshthyme", "shop": "supermarket", "addr:street": "790 Royal Saint George Dr., Suite 139E", "addr:city": "Naperville", "addr:state": "IL", "addr:postcode": "60563", "addr:country": "US", "name": "Naperville, IL", "phone": "331-229-4124", "website": "www.freshthyme.com/stores/105", "opening_hours": "Mo-Su 07:00-21:00", "brand": "Fresh Thyme", "brand:wikidata": "Q64132791", "nsi_id": "freshthyme-dde59d"}, "geometry": {"type": "Point", "coordinates": [-88.16519, 41.78325]}},
{"type": "Feature", "id": "otoF9BMAOHTBQXUYjDeNQhagsyw=", "properties": {"ref": "172", "@spider": "freshthyme", "shop": "supermarket", "addr:street": "82A Carothers Rd.", "addr:city": "Newport", "addr:state": "KY", "addr:postcode": "41071", "addr:country": "US", "name": "Newport, KY", "phone": "859-486-2106", "website": "www.freshthyme.com/stores/801", "opening_hours": "Mo-Su 07:00-21:00", "brand": "Fresh Thyme", "brand:wikidata": "Q64132791", "nsi_id": "freshthyme-dde59d"}, "geometry": {"type": "Point", "coordinates": [-84.47848, 39.08546]}},
{"type": "Feature", "id": "ctkQUfJf-bl3bH_7WndQDVhxJaQ=", "properties": {"ref": "142", "@spider": "freshthyme", "shop": "supermarket", "addr:street": "5509 Dressler Rd. NW", "addr:city": "North Canton", "addr:state": "OH", "addr:postcode": "44720", "addr:country": "US", "name": "North Canton, OH", "phone": "330-826-0020", "website": "www.freshthyme.com/stores/313", "opening_hours": "Mo-Su 07:00-21:00", "brand": "Fresh Thyme", "brand:wikidata": "Q64132791", "nsi_id": "freshthyme-dde59d"}, "geometry": {"type": "Point", "coordinates": [-81.43397, 40.86159]}},
{"type": "Feature", "id": "D9e3PGX4DmJ0u_ubqXQIZti72Io=", "properties": {"ref": "159", "@spider": "freshthyme", "shop": "supermarket", "addr:street": "15480 Sheldon Rd.", "addr:city": "Northville", "addr:state": "MI", "addr:postcode": "48168", "addr:country": "US", "name": "Northville, MI", "phone": "734-456-7003", "website": "www.freshthyme.com/stores/602", "opening_hours": "Mo-Su 07:00-21:00", "brand": "Fresh Thyme", "brand:wikidata": "Q64132791", "nsi_id": "freshthyme-dde59d"}, "geometry": {"type": "Point", "coordinates": [-83.48102, 42.39627]}},
{"type": "Feature", "id": "7JXiucX9GWnph34nK1DNcpH-t0E=", "properties": {"ref": "145", "@spider": "freshthyme", "shop": "supermarket", "addr:street": "2235 Highway K", "addr:city": "O'Fallon", "addr:state": "MO", "addr:postcode": "63368", "addr:country": "US", "name": "O'Fallon, MO", "phone": "636-385-7033", "website": "www.freshthyme.com/stores/403", "opening_hours": "Mo-Su 07:00-21:00", "brand": "Fresh Thyme", "brand:wikidata": "Q64132791", "nsi_id": "freshthyme-dde59d"}, "geometry": {"type": "Point", "coordinates": [-90.70261, 38.77894]}},
{"type": "Feature", "id": "FXiRorBkvhbcHBu36lpaHf1qh-M=", "properties": {"ref": "149", "@spider": "freshthyme", "shop": "supermarket", "addr:street": "665 Clairton Blvd.", "addr:city": "Pleasant Hills", "addr:state": "PA", "addr:postcode": "15236", "addr:country": "US", "name": "Pleasant Hills, PA", "phone": "412-714-0003", "website": "www.freshthyme.com/stores/452", "opening_hours": "Mo-Su 07:00-21:00", "brand": "Fresh Thyme", "brand:wikidata": "Q64132791", "nsi_id": "freshthyme-dde59d"}, "geometry": {"type": "Point", "coordinates": [-79.94605, 40.33023]}},
{"type": "Feature", "id": "i6mS4UI_ZN5wSxa25ACspeJkU1o=", "properties": {"ref": "155", "@spider": "freshthyme", "shop": "supermarket", "addr:street": "15760 32nd Ave. N.", "addr:city": "Plymouth", "addr:state": "MN", "addr:postcode": "55447", "addr:country": "US", "name": "Plymouth, MN", "phone": "651-846-8821", "website": "www.freshthyme.com/stores/508", "opening_hours": "Mo-Su 07:00-21:00", "brand": "Fresh Thyme", "brand:wikidata": "Q64132791", "nsi_id": "freshthyme-dde59d"}, "geometry": {"type": "Point", "coordinates": [-93.48145, 45.01799]}},
{"type": "Feature", "id": "nygMyg94TzKPPB5cl97a0BOKjoI=", "properties": {"ref": "196", "@spider": "freshthyme", "shop": "supermarket", "addr:street": "6212 S. Westnedge Ave.", "addr:city": "Portage", "addr:state": "MI", "addr:postcode": "49002", "addr:country": "US", "name": "Portage, MI", "phone": "269-206-5300", "website": "www.freshthyme.com/stores/607", "opening_hours": "Mo-Su 07:00-21:00", "brand": "Fresh Thyme", "brand:wikidata": "Q64132791", "nsi_id": "freshthyme-dde59d"}, "geometry": {"type": "Point", "coordinates": [-85.59138, 42.22702]}},
{"type": "Feature", "id": "WNqKTPMmkZkbc2sZykdrCJmf-NM=", "properties": {"ref": "117", "@spider": "freshthyme", "shop": "supermarket", "addr:street": "7501 North  Ave", "addr:city": "River Forest", "addr:state": "IL", "addr:postcode": "60305", "addr:country": "US", "name": "River Forest, IL", "phone": "708-689-5036", "website": "www.freshthyme.com/stores/108", "opening_hours": "Mo-Su 07:00-21:00", "brand": "Fresh Thyme", "brand:wikidata": "Q64132791", "nsi_id": "freshthyme-dde59d"}, "geometry": {"type": "Point", "coordinates": [-87.81272, 41.90843]}},
{"type": "Feature", "id": "YVsSXZ_2aqk2IpJsZE9fxt77pUA=", "properties": {"ref": "161", "@spider": "freshthyme", "shop": "supermarket", "addr:street": "2025 S. Rochester Rd.", "addr:city": "Rochester Hills", "addr:state": "MI", "addr:postcode": "48307", "addr:country": "US", "name": "Rochester Hills, MI", "phone": "248-537-7047", "website": "www.freshthyme.com/stores/604", "opening_hours": "Mo-Su 07:00-21:00", "brand": "Fresh Thyme", "brand:wikidata": "Q64132791", "nsi_id": "freshthyme-dde59d"}, "geometry": {"type": "Point", "coordinates": [-83.13092, 42.65083]}},
{"type": "Feature", "id": "nN9Nepr_YlftCSMZF8W2Brh4AOA=", "properties": {"ref": "186", "@spider": "freshthyme", "shop": "supermarket", "addr:street": "40 17th Ave SW", "addr:city": "Rochester", "addr:state": "MN", "addr:postcode": "55902", "addr:country": "US", "name": "Rochester, MN", "phone": "507 -513- 6709", "website": "www.freshthyme.com/stores/512", "opening_hours": "Mo-Su 07:00-21:00", "brand": "Fresh Thyme", "brand:wikidata": "Q64132791", "nsi_id": "freshthyme-dde59d"}, "geometry": {"type": "Point", "coordinates": [-92.48681, 44.02303]}},
{"type": "Feature", "id": "0Vm5VHxnt4YWY9al0uJtxSqOUTs=", "properties": {"ref": "153", "@spider": "freshthyme", "shop": "supermarket", "addr:street": "14100 Hwy 13 S.", "addr:city": "Savage", "addr:state": "MN", "addr:postcode": "55378", "addr:country": "US", "name": "Savage, MN", "phone": "952-229-5300", "website": "www.freshthyme.com/stores/506", "opening_hours": "Mo-Su 07:00-21:00", "brand": "Fresh Thyme", "brand:wikidata": "Q64132791", "nsi_id": "freshthyme-dde59d"}, "geometry": {"type": "Point", "coordinates": [-93.38115, 44.74858]}},
{"type": "Feature", "id": "h540mQ4U9XNWkB9G62AW4twgaK0=", "properties": {"ref": "146", "@spider": "freshthyme", "shop": "supermarket", "addr:street": "9920 Lin Ferry Dr.", "addr:city": "St Louis", "addr:state": "MO", "addr:postcode": "63123", "addr:country": "US", "name": "St. Louis - South County", "phone": "314-270-0580", "website": "www.freshthyme.com/stores/405", "opening_hours": "Mo-Su 07:00-21:00", "brand": "Fresh Thyme", "brand:wikidata": "Q64132791", "nsi_id": "freshthyme-dde59d"}, "geometry": {"type": "Point", "coordinates": [-90.35236, 38.52349]}},
{"type": "Feature", "id": "8DxHA2mSjsTWOYmDWuQ4kEVc6us=", "properties": {"ref": "152", "@spider": "freshthyme", "shop": "supermarket", "addr:street": "4840 Excelsior Blvd.", "addr:city": "St Louis Park", "addr:state": "MN", "addr:postcode": "55416", "addr:country": "US", "name": "St. Louis Park, MN", "phone": "952-229-2102", "website": "www.freshthyme.com/stores/505", "opening_hours": "Mo-Su 07:00-21:00", "brand": "Fresh Thyme", "brand:wikidata": "Q64132791", "nsi_id": "freshthyme-dde59d"}, "geometry": {"type": "Point", "coordinates": [-93.34301, 44.93263]}},
{"type": "Feature", "id": "97rdmsepG53vYToSwN0KN3SUPLc=", "properties": {"ref": "147", "@spider": "freshthyme", "shop": "supermarket", "addr:street": "3600 S. St. Peter's Pkwy.", "addr:city": "St. Peters", "addr:state": "MO", "addr:postcode": "63304", "addr:country": "US", "name": "St. Peters, MO", "phone": "636-851-6971", "website": "www.freshthyme.com/stores/406", "opening_hours": "Mo-Su 07:00-21:00", "brand": "Fresh Thyme", "brand:wikidata": "Q64132791", "nsi_id": "freshthyme-dde59d"}, "geometry": {"type": "Point", "coordinates": [-90.58557, 38.74713]}},
{"type": "Feature", "id": "_2SXrJ_DGX1KLItGHYhDNVEb6jc=", "properties": {"ref": "130", "@spider": "freshthyme", "shop": "supermarket", "addr:street": "4428 S. US Highway 41", "addr:city": "Terre Haute", "addr:state": "IN", "addr:postcode": "47802", "addr:country": "US", "name": "Terre Haute, IN", "phone": "812-233-6325", "website": "www.freshthyme.com/stores/212", "opening_hours": "Mo-Su 08:00-21:00", "brand": "Fresh Thyme", "brand:wikidata": "Q64132791", "nsi_id": "freshthyme-dde59d"}, "geometry": {"type": "Point", "coordinates": [-87.41294, 39.41415]}},
{"type": "Feature", "id": "lKcYwd1cwbnEJY_161SIIm-yGf0=", "properties": {"ref": "141", "@spider": "freshthyme", "shop": "supermarket", "addr:street": "5105 Monroe St.", "addr:city": "Toledo", "addr:state": "OH", "addr:postcode": "43623", "addr:country": "US", "name": "Toledo, OH", "phone": "567-455-9076", "website": "www.freshthyme.com/stores/312", "opening_hours": "Mo-Su 07:00-21:00", "brand": "Fresh Thyme", "brand:wikidata": "Q64132791", "nsi_id": "freshthyme-dde59d"}, "geometry": {"type": "Point", "coordinates": [-83.64732, 41.70001]}},
{"type": "Feature", "id": "d5e4NFapCN_pwCQI32vVSrqbYQk=", "properties": {"ref": "144", "@spider": "freshthyme", "shop": "supermarket", "addr:street": "13957 Manchester Rd.", "addr:city": "Ballwin", "addr:state": "MO", "addr:postcode": "63011", "addr:country": "US", "name": "Town and Country, MO", "phone": "314-858-7000", "website": "www.freshthyme.com/stores/402", "opening_hours": "Mo-Su 07:00-21:00", "brand": "Fresh Thyme", "brand:wikidata": "Q64132791", "nsi_id": "freshthyme-dde59d"}, "geometry": {"type": "Point", "coordinates": [-90.48516, 38.59668]}},
{"type": "Feature", "id": "QU7BXe3V-wSJraCK5Muq1lECF64=", "properties": {"ref": "160", "@spider": "freshthyme", "shop": "supermarket", "addr:street": "901 E. Big Beaver Rd.", "addr:city": "Troy", "addr:state": "MI", "addr:postcode": "48083", "addr:country": "US", "name": "Troy, MI", "phone": "248-509-1006", "website": "www.freshthyme.com/stores/603", "opening_hours": "Mo-Su 07:00-21:00", "brand": "Fresh Thyme", "brand:wikidata": "Q64132791", "nsi_id": "freshthyme-dde59d"}, "geometry": {"type": "Point", "coordinates": [-83.13037, 42.56383]}},
{"type": "Feature", "id": "xBBadnyz8ZR_USBNvNf4ZiSrJC4=", "properties": {"ref": "154", "@spider": "freshthyme", "shop": "supermarket", "addr:street": "955 E. County Rd,. Ste. E150", "addr:city": "East Vadnais Heights", "addr:state": "MN", "addr:postcode": "55127", "addr:country": "US", "name": "Vadnais Heights, MN", "phone": "651-414-8110", "website": "www.freshthyme.com/stores/507", "opening_hours": "Mo-Su 07:00-21:00", "brand": "Fresh Thyme", "brand:wikidata": "Q64132791", "nsi_id": "freshthyme-dde59d"}, "geometry": {"type": "Point", "coordinates": [-93.06176, 45.05175]}},
{"type": "Feature", "id": "w7npoDp6xnOKEmEB6iEBSvWrwmg=", "properties": {"ref": "157", "@spider": "freshthyme", "shop": "supermarket", "addr:street": "50 2nd St. S.", "addr:city": "Waite Park", "addr:state": "MN", "addr:postcode": "56387", "addr:country": "US", "name": "Waite Park, MN", "phone": "320-200-6086", "website": "www.freshthyme.com/stores/511", "opening_hours": "Mo-Su 07:00-21:00", "brand": "Fresh Thyme", "brand:wikidata": "Q64132791", "nsi_id": "freshthyme-dde59d"}, "geometry": {"type": "Point", "coordinates": [-94.21507, 45.54947]}},
{"type": "Feature", "id": "MoCZ2oXr3lwqvwo-VmaBH0CQYXs=", "properties": {"ref": "179", "@spider": "freshthyme", "shop": "supermarket", "addr:street": "2900 University Ave., Suite 240", "addr:city": "West Des Moines", "addr:state": "IA", "addr:postcode": "50266", "addr:country": "US", "name": "West Des Moines, IA", "phone": "515-635-6016", "website": "www.freshthyme.com/stores/951", "opening_hours": "Mo-Su 07:00-21:00", "brand": "Fresh Thyme", "brand:wikidata": "Q64132791", "nsi_id": "freshthyme-dde59d"}, "geometry": {"type": "Point", "coordinates": [-93.74415, 41.59917]}},
{"type": "Feature", "id": "P4jOdbPvpri_CnqZxBr19KkJOAU=", "properties": {"ref": "195", "@spider": "freshthyme", "shop": "supermarket", "addr:street": "2410 N. Salisbury St. #110", "addr:city": "West Lafayette", "addr:state": "IN", "addr:postcode": "47906", "addr:country": "US", "name": "West Lafayette, IN", "phone": "605-949-5165", "website": "www.freshthyme.com/stores/216", "opening_hours": "Mo-Su 07:00-21:00", "brand": "Fresh Thyme", "brand:wikidata": "Q64132791", "nsi_id": "freshthyme-dde59d"}, "geometry": {"type": "Point", "coordinates": [-86.91427, 40.45192]}},
{"type": "Feature", "id": "UkNhNKm8D-1ouIHGRlfY_l773KQ=", "properties": {"ref": "139", "@spider": "freshthyme", "shop": "supermarket", "addr:street": "849 Polaris Pkwy.", "addr:city": "Columbus", "addr:state": "OH", "addr:postcode": "43082", "addr:country": "US", "name": "Westerville, OH", "phone": "614-987-0500", "website": "www.freshthyme.com/stores/309", "opening_hours": "Mo-Su 07:00-21:00", "brand": "Fresh Thyme", "brand:wikidata": "Q64132791", "nsi_id": "freshthyme-dde59d"}, "geometry": {"type": "Point", "coordinates": [-82.95793, 40.14536]}},
{"type": "Feature", "id": "Ba4HQYY4Rff8YwrGdQidUhQxHhs=", "properties": {"ref": "184", "@spider": "freshthyme", "shop": "supermarket", "addr:street": "30016 Detroit Rd.", "addr:city": "Westlake", "addr:state": "OH", "addr:postcode": "44145", "addr:country": "US", "name": "Westlake, OH", "phone": "440-872-6910", "website": "www.freshthyme.com/stores/311", "opening_hours": "Mo-Su 07:00-21:00", "brand": "Fresh Thyme", "brand:wikidata": "Q64132791", "nsi_id": "freshthyme-dde59d"}, "geometry": {"type": "Point", "coordinates": [-81.9526, 41.46552]}},
{"type": "Feature", "id": "lI8BqHwDFVHQPw3EcincIhqS6Jg=", "properties": {"ref": "137", "@spider": "freshthyme", "shop": "supermarket", "addr:street": "933 High St.", "addr:city": "Worthington", "addr:state": "OH", "addr:postcode": "43085", "addr:country": "US", "name": "Worthington, OH", "phone": "614-681-7050", "website": "www.freshthyme.com/stores/306", "opening_hours": "Mo-Su 07:00-21:00", "brand": "Fresh Thyme", "brand:wikidata": "Q64132791", "nsi_id": "freshthyme-dde59d"}, "geometry": {"type": "Point", "coordinates": [-83.01796, 40.09312]}},
{"type": "Feature", "id": "rcRy0MtkbvbuduusfIHVSEgsuC4=", "properties": {"ref": "164", "@spider": "freshthyme", "shop": "supermarket", "addr:street": "2985 Washtenaw Rd.", "addr:city": "Ypsilanti", "addr:state": "MI", "addr:postcode": "48197", "addr:country": "US", "name": "Ypsilanti, MI", "phone": "734-896-4076", "website": "www.freshthyme.com/stores/608", "opening_hours": "Mo-Su 07:00-22:00", "brand": "Fresh Thyme", "brand:wikidata": "Q64132791", "nsi_id": "freshthyme-dde59d"}, "geometry": {"type": "Point", "coordinates": [-83.66009, 42.2494]}}]}