{"type":"FeatureCollection","features":[{"type": "Feature", "id": "N7Tn2XGC5fStqnGwFYLP7NDfNoc=", "properties": {"ref": "https://locations.frischs.com/us/oh/dayton/209/", "@spider": "frischs", "amenity": "restaurant", "cuisine": "burger", "takeaway": "yes", "addr:street_address": "3311 Benchwood Rd", "addr:city": "Dayton", "addr:state": "OH", "addr:postcode": "45414", "addr:country": "US", "name": "Frisch's Big Boy", "phone": "+19374150930", "website": "https://locations.frischs.com/us/oh/dayton/209/", "brand": "Frisch's Big Boy", "brand:wikidata": "Q5504660", "nsi_id": "frischsbigboy-96af40"}, "geometry": {"type": "Point", "coordinates": [-84.1951442, 39.8420035]}},
{"type": "Feature", "id": "vlm3H--4eviFP5lIR_IyB1CUi9k=", "properties": {"ref": "https://locations.frischs.com/us/oh/dayton/215/", "@spider": "frischs", "amenity": "restaurant", "cuisine": "burger", "takeaway": "yes", "addr:street_address": "1231 N Fairfield Rd", "addr:city": "Dayton", "addr:state": "OH", "addr:postcode": "45432", "addr:country": "US", "name": "Frisch's Big Boy", "phone": "+19374294939", "website": "https://locations.frischs.com/us/oh/dayton/215/", "brand": "Frisch's Big Boy", "brand:wikidata": "Q5504660", "nsi_id": "frischsbigboy-96af40"}, "geometry": {"type": "Point", "coordinates": [-84.0586709, 39.7257959]}},
{"type": "Feature", "id": "TiJCmLqupzcgcC1QtobqdFGhBIA=", "properties": {"ref": "https://locations.frischs.com/us/oh/dayton/176/", "@spider": "frischs", "amenity": "restaurant", "cuisine": "burger", "takeaway": "yes", "addr:street_address": "8154 Old Troy Pike", "addr:city": "Dayton", "addr:state": "OH", "addr:postcode": "45424", "addr:country": "US", "name": "Frisch's Big Boy", "phone": "+19372375200", "website": "https://locations.frischs.com/us/oh/dayton/176/", "brand": "Frisch's Big Boy", "brand:wikidata": "Q5504660", "nsi_id": "frischsbigboy-96af40"}, "geometry": {"type": "Point", "coordinates": [-84.13660929999999, 39.8739272]}},
{"type": "Feature", "id": "ixxhjw-hGf6qw2ntYs310jqJu0o=", "properties": {"ref": "https://locations.frischs.com/us/oh/dayton/206/", "@spider": "frischs", "amenity": "restaurant", "cuisine": "burger", "takeaway": "yes", "addr:street_address": "2861 Wilmington Pike", "addr:city": "Dayton", "addr:state": "OH", "addr:postcode": "45419", "addr:country": "US", "name": "Frisch's Big Boy", "phone": "+19372970833", "website": "https://locations.frischs.com/us/oh/dayton/206/", "brand": "Frisch's Big Boy", "brand:wikidata": "Q5504660", "nsi_id": "frischsbigboy-96af40"}, "geometry": {"type": "Point", "coordinates": [-84.1428128, 39.7056604]}},
{"type": "Feature", "id": "Q27AXeqM-ue0-806lIuVgssKAcY=", "properties": {"ref": "https://locations.frischs.com/us/ky/covington/95/", "@spider": "frischs", "amenity": "restaurant", "cuisine": "burger", "takeaway": "yes", "addr:street_address": "520 W 5th St", "addr:city": "Covington", "addr:state": "KY", "addr:postcode": "41011", "addr:country": "US", "name": "Frisch's Big Boy", "phone": "+18592613276", "website": "https://locations.frischs.com/us/ky/covington/95/", "brand": "Frisch's Big Boy", "brand:wikidata": "Q5504660", "nsi_id": "frischsbigboy-96af40"}, "geometry": {"type": "Point", "coordinates": [-84.5195155, 39.0857192]}},
{"type": "Feature", "id": "whF-tJaMPDIlURU-w38zEEDYHGw=", "properties": {"ref": "https://locations.frischs.com/us/ky/covington/167/", "@spider": "frischs", "amenity": "restaurant", "cuisine": "burger", "takeaway": "yes", "addr:street_address": "20 Kyles Ln", "addr:city": "Covington", "addr:state": "KY", "addr:postcode": "41011", "addr:country": "US", "name": "Frisch's Big Boy", "phone": "+18593312483", "website": "https://locations.frischs.com/us/ky/covington/167/", "brand": "Frisch's Big Boy", "brand:wikidata": "Q5504660", "nsi_id": "frischsbigboy-96af40"}, "geometry": {"type": "Point", "coordinates": [-84.5390511, 39.0611127]}},
{"type": "Feature", "id": "AjV7uR9sBfx5ksnYN88mPW2DVIo=", "properties": {"ref": "https://locations.frischs.com/us/ky/cold-spring/79/", "@spider": "frischs", "amenity": "restaurant", "cuisine": "burger", "takeaway": "yes", "addr:street_address": "5010 Alexandria Pike", "addr:city": "Cold Spring", "addr:state": "KY", "addr:postcode": "41076", "addr:country": "US", "name": "Frisch's Big Boy", "phone": "+18595720601", "website": "https://locations.frischs.com/us/ky/cold-spring/79/", "brand": "Frisch's Big Boy", "brand:wikidata": "Q5504660", "nsi_id": "frischsbigboy-96af40"}, "geometry": {"type": "Point", "coordinates": [-84.4269758, 39.0053816]}},
{"type": "Feature", "id": "AkKbp3KLFmE0SW-WRi3XzHG8zFw=", "properties": {"ref": "https://locations.frischs.com/us/oh/cincinnati/8/", "@spider": "frischs", "amenity": "restaurant", "cuisine": "burger", "takeaway": "yes", "addr:street_address": "5216 Glenway Ave", "addr:city": "Cincinnati", "addr:state": "OH", "addr:postcode": "45238", "addr:country": "US", "name": "Frisch's Big Boy", "phone": "+15134716726", "website": "https://locations.frischs.com/us/oh/cincinnati/8/", "brand": "Frisch's Big Boy", "brand:wikidata": "Q5504660", "nsi_id": "frischsbigboy-96af40"}, "geometry": {"type": "Point", "coordinates": [-84.6023476, 39.1238092]}},
{"type": "Feature", "id": "bLTJoJzEVWTkcOtEeXUiHiDgizg=", "properties": {"ref": "https://locations.frischs.com/us/oh/cincinnati/97/", "@spider": "frischs", "amenity": "restaurant", "cuisine": "burger", "takeaway": "yes", "addr:street_address": "5202 Delhi Ave", "addr:city": "Cincinnati", "addr:state": "OH", "addr:postcode": "45238", "addr:country": "US", "name": "Frisch's Big Boy", "phone": "+15134515920", "website": "https://locations.frischs.com/us/oh/cincinnati/97/", "brand": "Frisch's Big Boy", "brand:wikidata": "Q5504660", "nsi_id": "frischsbigboy-96af40"}, "geometry": {"type": "Point", "coordinates": [-84.5773347, 39.095307]}},
{"type": "Feature", "id": "LDVGp372ngidtPilwZYkU4_4YXk=", "properties": {"ref": "https://locations.frischs.com/us/oh/cincinnati/5/", "@spider": "frischs", "amenity": "restaurant", "cuisine": "burger", "takeaway": "yes", "addr:street_address": "8383 Vine St", "addr:city": "Cincinnati", "addr:state": "OH", "addr:postcode": "45216", "addr:country": "US", "name": "Frisch's Big Boy", "phone": "+15138214224", "website": "https://locations.frischs.com/us/oh/cincinnati/5/", "brand": "Frisch's Big Boy", "brand:wikidata": "Q5504660", "nsi_id": "frischsbigboy-96af40"}, "geometry": {"type": "Point", "coordinates": [-84.4742399, 39.2146918]}},
{"type": "Feature", "id": "p0yGhqWgiwAg0SscoIISGhxlYvA=", "properties": {"ref": "https://locations.frischs.com/us/oh/cincinnati/3/", "@spider": "frischs", "amenity": "restaurant", "cuisine": "burger", "takeaway": "yes", "addr:street_address": "3226 Central Pkwy", "addr:city": "Cincinnati", "addr:state": "OH", "addr:postcode": "45225", "addr:country": "US", "name": "Frisch's Big Boy", "phone": "+15135590555", "website": "https://locations.frischs.com/us/oh/cincinnati/3/", "brand": "Frisch's Big Boy", "brand:wikidata": "Q5504660", "nsi_id": "frischsbigboy-96af40"}, "geometry": {"type": "Point", "coordinates": [-84.5314374, 39.1413058]}},
{"type": "Feature", "id": "1_QqLhgYJoCSE34xY-o5ilvTsP0=", "properties": {"ref": "https://locations.frischs.com/us/oh/cincinnati/49/", "@spider": "frischs", "amenity": "restaurant", "cuisine": "burger", "takeaway": "yes", "addr:street_address": "4645 Spring Grove Ave", "addr:city": "Cincinnati", "addr:state": "OH", "addr:postcode": "45232", "addr:country": "US", "name": "Frisch's Big Boy", "phone": "+15135412900", "website": "https://locations.frischs.com/us/oh/cincinnati/49/", "brand": "Frisch's Big Boy", "brand:wikidata": "Q5504660", "nsi_id": "frischsbigboy-96af40"}, "geometry": {"type": "Point", "coordinates": [-84.5183275, 39.165085]}},
{"type": "Feature", "id": "OxaxCx0UV_Kw2H-fOcjf3bgVJa8=", "properties": {"ref": "https://locations.frischs.com/us/oh/cincinnati/218/", "@spider": "frischs", "amenity": "restaurant", "cuisine": "burger", "takeaway": "yes", "addr:street_address": "5351 North Bend Rd.", "addr:city": "Cincinnati", "addr:state": "OH", "addr:postcode": "45247", "addr:country": "US", "name": "Frisch's Big Boy", "phone": "+15134818100", "website": "https://locations.frischs.com/us/oh/cincinnati/218/", "brand": "Frisch's Big Boy", "brand:wikidata": "Q5504660", "nsi_id": "frischsbigboy-96af40"}, "geometry": {"type": "Point", "coordinates": [-84.60346799999999, 39.1867989]}},
{"type": "Feature", "id": "DzH0qFk5gJl_stvXmYNGH40-3_w=", "properties": {"ref": "https://locations.frischs.com/us/oh/cincinnati/25/", "@spider": "frischs", "amenity": "restaurant", "cuisine": "burger", "takeaway": "yes", "addr:street_address": "7706 Beechmont Ave", "addr:city": "Cincinnati", "addr:state": "OH", "addr:postcode": "45255", "addr:country": "US", "name": "Frisch's Big Boy", "phone": "+15132316500", "website": "https://locations.frischs.com/us/oh/cincinnati/25/", "brand": "Frisch's Big Boy", "brand:wikidata": "Q5504660", "nsi_id": "frischsbigboy-96af40"}, "geometry": {"type": "Point", "coordinates": [-84.3443044, 39.073263]}},
{"type": "Feature", "id": "o4eLNct7zqJiQ0wNFd1ibA7woSU=", "properties": {"ref": "https://locations.frischs.com/us/oh/cincinnati/181/", "@spider": "frischs", "amenity": "restaurant", "cuisine": "burger", "takeaway": "yes", "addr:street_address": "559 State Route 125", "addr:city": "Cincinnati", "addr:state": "OH", "addr:postcode": "45255", "addr:country": "US", "name": "Frisch's Big Boy", "phone": "+15135283322", "website": "https://locations.frischs.com/us/oh/cincinnati/181/", "brand": "Frisch's Big Boy", "brand:wikidata": "Q5504660", "nsi_id": "frischsbigboy-96af40"}, "geometry": {"type": "Point", "coordinates": [-84.30211299999999, 39.0689566]}},
{"type": "Feature", "id": "-RHDC5PpT9KFpjXMQj5Ic55C6Z0=", "properties": {"ref": "https://locations.frischs.com/us/oh/cincinnati/182/", "@spider": "frischs", "amenity": "restaurant", "cuisine": "burger", "takeaway": "yes", "addr:street_address": "11990 Chase Plz", "addr:city": "Cincinnati", "addr:state": "OH", "addr:postcode": "45240", "addr:country": "US", "name": "Frisch's Big Boy", "phone": "+15138519910", "website": "https://locations.frischs.com/us/oh/cincinnati/182/", "brand": "Frisch's Big Boy", "brand:wikidata": "Q5504660", "nsi_id": "frischsbigboy-96af40"}, "geometry": {"type": "Point", "coordinates": [-84.5247993, 39.295799]}},
{"type": "Feature", "id": "I7MJlSLeFabPEzL1M3l5_OjxY0k=", "properties": {"ref": "https://locations.frischs.com/us/oh/xenia/177/", "@spider": "frischs", "amenity": "restaurant", "cuisine": "burger", "takeaway": "yes", "addr:street_address": "386 W Main St", "addr:city": "Xenia", "addr:state": "OH", "addr:postcode": "45385", "addr:country": "US", "name": "Frisch's Big Boy", "phone": "+19373727575", "website": "https://locations.frischs.com/us/oh/xenia/177/", "brand": "Frisch's Big Boy", "brand:wikidata": "Q5504660", "nsi_id": "frischsbigboy-96af40"}, "geometry": {"type": "Point", "coordinates": [-83.9363164, 39.6849436]}},
{"type": "Feature", "id": "nzZB78omihoE9s7m_nfjQv7tlKU=", "properties": {"ref": "https://locations.frischs.com/us/ky/winchester/208/", "@spider": "frischs", "amenity": "restaurant", "cuisine": "burger", "takeaway": "yes", "addr:street_address": "843 Bypass Road", "addr:city": "Winchester", "addr:state": "KY", "addr:postcode": "40391", "addr:country": "US", "name": "Frisch's Big Boy", "phone": "+18597448390", "website": "https://locations.frischs.com/us/ky/winchester/208/", "brand": "Frisch's Big Boy", "brand:wikidata": "Q5504660", "nsi_id": "frischsbigboy-96af40"}, "geometry": {"type": "Point", "coordinates": [-84.2128524, 38.0034147]}},
{"type": "Feature", "id": "GJ806_dKy2T3t7Y3B5dgLlik678=", "properties": {"ref": "https://locations.frischs.com/us/oh/wilmington/105/", "@spider": "frischs", "amenity": "restaurant", "cuisine": "burger", "takeaway": "yes", "addr:street_address": "1341 Rombach Ave", "addr:city": "Wilmington", "addr:state": "OH", "addr:postcode": "45177", "addr:country": "US", "name": "Frisch's Big Boy", "phone": "+19373821675", "website": "https://locations.frischs.com/us/oh/wilmington/105/", "brand": "Frisch's Big Boy", "brand:wikidata": "Q5504660", "nsi_id": "frischsbigboy-96af40"}, "geometry": {"type": "Point", "coordinates": [-83.8058214, 39.4490909]}},
{"type": "Feature", "id": "DrFiS46s5KIfMW5b5zIYnIjULEo=", "properties": {"ref": "https://locations.frischs.com/us/oh/west-chester/226/", "@spider": "frischs", "amenity": "restaurant", "cuisine": "burger", "takeaway": "yes", "addr:street_address": "8545 Cinti-Dayton Rd", "addr:city": "West Chester", "addr:state": "OH", "addr:postcode": "45069", "addr:country": "US", "name": "Frisch's Big Boy", "phone": "+15137776228", "website": "https://locations.frischs.com/us/oh/west-chester/226/", "brand": "Frisch's Big Boy", "brand:wikidata": "Q5504660", "nsi_id": "frischsbigboy-96af40"}, "geometry": {"type": "Point", "coordinates": [-84.3988444, 39.3392868]}},
{"type": "Feature", "id": "pt-zDjTyLIp0-DmWZT5WeJZGAMI=", "properties": {"ref": "https://locations.frischs.com/us/oh/washington-court-house/19/", "@spider": "frischs", "amenity": "restaurant", "cuisine": "burger", "takeaway": "yes", "addr:street_address": "1815 Columbus Ave", "addr:city": "Washington Court House", "addr:state": "OH", "addr:postcode": "43160", "addr:country": "US", "name": "Frisch's Big Boy", "phone": "+17403358911", "website": "https://locations.frischs.com/us/oh/washington-court-house/19/", "brand": "Frisch's Big Boy", "brand:wikidata": "Q5504660", "nsi_id": "frischsbigboy-96af40"}, "geometry": {"type": "Point", "coordinates": [-83.4209523, 39.5518608]}},
{"type": "Feature", "id": "DG8Iy7VIS8LYaD9Br4VfqBvZIOg=", "properties": {"ref": "https://locations.frischs.com/us/oh/troy/186/", "@spider": "frischs", "amenity": "restaurant", "cuisine": "burger", "takeaway": "yes", "addr:street_address": "20 Troy Town Dr", "addr:city": "Troy", "addr:state": "OH", "addr:postcode": "45373", "addr:country": "US", "name": "Frisch's Big Boy", "phone": "+19373391889", "website": "https://locations.frischs.com/us/oh/troy/186/", "brand": "Frisch's Big Boy", "brand:wikidata": "Q5504660", "nsi_id": "frischsbigboy-96af40"}, "geometry": {"type": "Point", "coordinates": [-84.2379642, 40.0537871]}},
{"type": "Feature", "id": "L7kboQGKI7SQTEesdpBR63ts_Yg=", "properties": {"ref": "https://locations.frischs.com/us/oh/tipp-city/194/", "@spider": "frischs", "amenity": "restaurant", "cuisine": "burger", "takeaway": "yes", "addr:street_address": "16 Weller Dr", "addr:city": "Tipp City", "addr:state": "OH", "addr:postcode": "45371", "addr:country": "US", "name": "Frisch's Big Boy", "phone": "+19376670393", "website": "https://locations.frischs.com/us/oh/tipp-city/194/", "brand": "Frisch's Big Boy", "brand:wikidata": "Q5504660", "nsi_id": "frischsbigboy-96af40"}, "geometry": {"type": "Point", "coordinates": [-84.1906958, 39.9623309]}},
{"type": "Feature", "id": "PTFGqNLbMbR5tSNYxrjCpEYqpXo=", "properties": {"ref": "https://locations.frischs.com/us/oh/springfield/40/", "@spider": "frischs", "amenity": "restaurant", "cuisine": "burger", "takeaway": "yes", "addr:street_address": "2201 E Main St", "addr:city": "Springfield", "addr:state": "OH", "addr:postcode": "45503", "addr:country": "US", "name": "Frisch's Big Boy", "phone": "+19373255571", "website": "https://locations.frischs.com/us/oh/springfield/40/", "brand": "Frisch's Big Boy", "brand:wikidata": "Q5504660", "nsi_id": "frischsbigboy-96af40"}, "geometry": {"type": "Point", "coordinates": [-83.7751605, 39.9229348]}},
{"type": "Feature", "id": "uyQMWTj5eV0QeSE6stBZ8ZY8Gsg=", "properties": {"ref": "https://locations.frischs.com/us/oh/springfield/207/", "@spider": "frischs", "amenity": "restaurant", "cuisine": "burger", "takeaway": "yes", "addr:street_address": "1831 N Bechtle Avenue", "addr:city": "Springfield", "addr:state": "OH", "addr:postcode": "45504", "addr:country": "US", "name": "Frisch's Big Boy", "phone": "+19373992937", "website": "https://locations.frischs.com/us/oh/springfield/207/", "brand": "Frisch's Big Boy", "brand:wikidata": "Q5504660", "nsi_id": "frischsbigboy-96af40"}, "geometry": {"type": "Point", "coordinates": [-83.8322625, 39.9506177]}},
{"type": "Feature", "id": "4dhCFys1SIQP7Jbk9bTUSzYwmnE=", "properties": {"ref": "https://locations.frischs.com/us/oh/sidney/221/", "@spider": "frischs", "amenity": "restaurant", "cuisine": "burger", "takeaway": "yes", "addr:street_address": "2120 W. Michigan St.", "addr:city": "Sidney", "addr:state": "OH", "addr:postcode": "45365", "addr:country": "US", "name": "Frisch's Big Boy", "phone": "+19374920321", "website": "https://locations.frischs.com/us/oh/sidney/221/", "brand": "Frisch's Big Boy", "brand:wikidata": "Q5504660", "nsi_id": "frischsbigboy-96af40"}, "geometry": {"type": "Point", "coordinates": [-84.18733490000001, 40.288192]}},
{"type": "Feature", "id": "D6H5nqBWDRKxFxYRf2CkDrGYnMs=", "properties": {"ref": "https://locations.frischs.com/us/ky/shepherdsville/213/", "@spider": "frischs", "amenity": "restaurant", "cuisine": "burger", "takeaway": "yes", "addr:street_address": "157 Keystone Crossroad Dr", "addr:city": "Shepherdsville", "addr:state": "KY", "addr:postcode": "40165", "addr:country": "US", "name": "Frisch's Big Boy", "phone": "+15025431230", "website": "https://locations.frischs.com/us/ky/shepherdsville/213/", "brand": "Frisch's Big Boy", "brand:wikidata": "Q5504660", "nsi_id": "frischsbigboy-96af40"}, "geometry": {"type": "Point", "coordinates": [-85.708129, 37.9918753]}},
{"type": "Feature", "id": "hSAVVQGWcQ1sVNw6VwW_vMHreLg=", "properties": {"ref": "https://locations.frischs.com/us/in/richmond/204/", "@spider": "frischs", "amenity": "restaurant", "cuisine": "burger", "takeaway": "yes", "addr:street_address": "3704 National Rd E", "addr:city": "Richmond", "addr:state": "IN", "addr:postcode": "47374", "addr:country": "US", "name": "Frisch's Big Boy", "phone": "+17659622882", "website": "https://locations.frischs.com/us/in/richmond/204/", "brand": "Frisch's Big Boy", "brand:wikidata": "Q5504660", "nsi_id": "frischsbigboy-96af40"}, "geometry": {"type": "Point", "coordinates": [-84.8501957, 39.8314983]}},
{"type": "Feature", "id": "51opKvIczifcWrO2MaChOk8JUpY=", "properties": {"ref": "https://locations.frischs.com/us/in/new-albany/195/", "@spider": "frischs", "amenity": "restaurant", "cuisine": "burger", "takeaway": "yes", "addr:street_address": "804 Hausfeldt Ln", "addr:city": "New Albany", "addr:state": "IN", "addr:postcode": "47150", "addr:country": "US", "name": "Frisch's Big Boy", "phone": "+18129481972", "website": "https://locations.frischs.com/us/in/new-albany/195/", "brand": "Frisch's Big Boy", "brand:wikidata": "Q5504660", "nsi_id": "frischsbigboy-96af40"}, "geometry": {"type": "Point", "coordinates": [-85.8165114, 38.338819]}},
{"type": "Feature", "id": "w_Sq88pE7th8alJrcAAPUezDHQk=", "properties": {"ref": "https://locations.frischs.com/us/oh/milford/50/", "@spider": "frischs", "amenity": "restaurant", "cuisine": "burger", "takeaway": "yes", "addr:street_address": "840 Lila Ave", "addr:city": "Milford", "addr:state": "OH", "addr:postcode": "45150", "addr:country": "US", "name": "Frisch's Big Boy", "phone": "+15138310111", "website": "https://locations.frischs.com/us/oh/milford/50/", "brand": "Frisch's Big Boy", "brand:wikidata": "Q5504660", "nsi_id": "frischsbigboy-96af40"}, "geometry": {"type": "Point", "coordinates": [-84.2815782, 39.1749535]}},
{"type": "Feature", "id": "jZu73_gvMPU1wxAE6nKgZU2PbqA=", "properties": {"ref": "https://locations.frischs.com/us/ky/maysville/90/", "@spider": "frischs", "amenity": "restaurant", "cuisine": "burger", "takeaway": "yes", "addr:street_address": "408 Market Square Dr", "addr:city": "Maysville", "addr:state": "KY", "addr:postcode": "41056", "addr:country": "US", "name": "Frisch's Big Boy", "phone": "+16067597830", "website": "https://locations.frischs.com/us/ky/maysville/90/", "brand": "Frisch's Big Boy", "brand:wikidata": "Q5504660", "nsi_id": "frischsbigboy-96af40"}, "geometry": {"type": "Point", "coordinates": [-83.7915601, 38.62735050000001]}},
{"type": "Feature", "id": "qjBMCxl7B0RkHpx_Mkxunnhm5W8=", "properties": {"ref": "https://locations.frischs.com/us/oh/middletown/22/", "@spider": "frischs", "amenity": "restaurant", "cuisine": "burger", "takeaway": "yes", "addr:street_address": "1800 Germantown Rd", "addr:city": "Middletown", "addr:state": "OH", "addr:postcode": "45042", "addr:country": "US", "name": "Frisch's Big Boy", "phone": "+15134236596", "website": "https://locations.frischs.com/us/oh/middletown/22/", "brand": "Frisch's Big Boy", "brand:wikidata": "Q5504660", "nsi_id": "frischsbigboy-96af40"}, "geometry": {"type": "Point", "coordinates": [-84.384478, 39.5325036]}},
{"type": "Feature", "id": "WtEw_lQGL4yEuuzDzMIQL88nS4s=", "properties": {"ref": "https://locations.frischs.com/us/oh/miamisburg/123/", "@spider": "frischs", "amenity": "restaurant", "cuisine": "burger", "takeaway": "yes", "addr:street_address": "8181 Springboro Pike", "addr:city": "Miamisburg", "addr:state": "OH", "addr:postcode": "45342", "addr:country": "US", "name": "Frisch's Big Boy", "phone": "+19374333721", "website": "https://locations.frischs.com/us/oh/miamisburg/123/", "brand": "Frisch's Big Boy", "brand:wikidata": "Q5504660", "nsi_id": "frischsbigboy-96af40"}, "geometry": {"type": "Point", "coordinates": [-84.2263724, 39.63202829999999]}},
{"type": "Feature", "id": "EDYcQPC9i0-XBx3AI2xs3nFvT3w=", "properties": {"ref": "https://locations.frischs.com/us/oh/mason/169/", "@spider": "frischs", "amenity": "restaurant", "cuisine": "burger", "takeaway": "yes", "addr:street_address": "5571 State Route 741", "addr:city": "Mason", "addr:state": "OH", "addr:postcode": "45040", "addr:country": "US", "name": "Frisch's Big Boy", "phone": "+15133986434", "website": "https://locations.frischs.com/us/oh/mason/169/", "brand": "Frisch's Big Boy", "brand:wikidata": "Q5504660", "nsi_id": "frischsbigboy-96af40"}, "geometry": {"type": "Point", "coordinates": [-84.2678384, 39.3573865]}},
{"type": "Feature", "id": "y2DKUo2SQnfL9V4y4-xdMiWVV_8=", "properties": {"ref": "https://locations.frischs.com/us/in/madison/223/", "@spider": "frischs", "amenity": "restaurant", "cuisine": "burger", "takeaway": "yes", "addr:street_address": "460 Clifty Drive", "addr:city": "Madison", "addr:state": "IN", "addr:postcode": "47250", "addr:country": "US", "name": "Frisch's Big Boy", "phone": "+18122736524", "website": "https://locations.frischs.com/us/in/madison/223/", "brand": "Frisch's Big Boy", "brand:wikidata": "Q5504660", "nsi_id": "frischsbigboy-96af40"}, "geometry": {"type": "Point", "coordinates": [-85.39607529999999, 38.775399]}},
{"type": "Feature", "id": "akBwFTExmCKnns2auHM9gdNt0Mg=", "properties": {"ref": "https://locations.frischs.com/us/oh/loveland/46/", "@spider": "frischs", "amenity": "restaurant", "cuisine": "burger", "takeaway": "yes", "addr:street_address": "663 Service Rd", "addr:city": "Loveland", "addr:state": "OH", "addr:postcode": "45140", "addr:country": "US", "name": "Frisch's Big Boy", "phone": "+15138313575", "website": "https://locations.frischs.com/us/oh/loveland/46/", "brand": "Frisch's Big Boy", "brand:wikidata": "Q5504660", "nsi_id": "frischsbigboy-96af40"}, "geometry": {"type": "Point", "coordinates": [-84.26382600000001, 39.2689476]}},
{"type": "Feature", "id": "MFx5cf1W_CTqkwVA_P4V0d1virU=", "properties": {"ref": "https://locations.frischs.com/us/oh/loveland/158/", "@spider": "frischs", "amenity": "restaurant", "cuisine": "burger", "takeaway": "yes", "addr:street_address": "1283 State Route 28", "addr:city": "Loveland", "addr:state": "OH", "addr:postcode": "45140", "addr:country": "US", "name": "Frisch's Big Boy", "phone": "+15135751575", "website": "https://locations.frischs.com/us/oh/loveland/158/", "brand": "Frisch's Big Boy", "brand:wikidata": "Q5504660", "nsi_id": "frischsbigboy-96af40"}, "geometry": {"type": "Point", "coordinates": [-84.21956879999999, 39.2032398]}},
{"type": "Feature", "id": "pmWtIP4NS3HDN7_7vRRYiABEU9E=", "properties": {"ref": "https://locations.frischs.com/us/ky/louisville/201/", "@spider": "frischs", "amenity": "restaurant", "cuisine": "burger", "takeaway": "yes", "addr:street_address": "7401 Dixie Hwy", "addr:city": "Louisville", "addr:state": "KY", "addr:postcode": "40258", "addr:country": "US", "name": "Frisch's Big Boy", "phone": "+15029955800", "website": "https://locations.frischs.com/us/ky/louisville/201/", "brand": "Frisch's Big Boy", "brand:wikidata": "Q5504660", "nsi_id": "frischsbigboy-96af40"}, "geometry": {"type": "Point", "coordinates": [-85.83892209999999, 38.1430094]}},
{"type": "Feature", "id": "Q6jaCVo8Ml5MslPf_NXaS9JVUQM=", "properties": {"ref": "https://locations.frischs.com/us/ky/louisville/154/", "@spider": "frischs", "amenity": "restaurant", "cuisine": "burger", "takeaway": "yes", "addr:street_address": "4800 Shelbyville Rd", "addr:city": "Louisville", "addr:state": "KY", "addr:postcode": "40207", "addr:country": "US", "name": "Frisch's Big Boy", "phone": "+15028979818", "website": "https://locations.frischs.com/us/ky/louisville/154/", "brand": "Frisch's Big Boy", "brand:wikidata": "Q5504660", "nsi_id": "frischsbigboy-96af40"}, "geometry": {"type": "Point", "coordinates": [-85.62794930000001, 38.2499803]}},
{"type": "Feature", "id": "4QyUCwZcPoo4luXrmw31f5N983k=", "properties": {"ref": "https://locations.frischs.com/us/ky/louisville/153/", "@spider": "frischs", "amenity": "restaurant", "cuisine": "burger", "takeaway": "yes", "addr:street_address": "1710 Lincoln Ave", "addr:city": "Louisville", "addr:state": "KY", "addr:postcode": "40213", "addr:country": "US", "name": "Frisch's Big Boy", "phone": "+15024519880", "website": "https://locations.frischs.com/us/ky/louisville/153/", "brand": "Frisch's Big Boy", "brand:wikidata": "Q5504660", "nsi_id": "frischsbigboy-96af40"}, "geometry": {"type": "Point", "coordinates": [-85.7068357, 38.1970847]}},
{"type": "Feature", "id": "DgAXPOsxDLBpY5zC1u-w3sECEgk=", "properties": {"ref": "https://locations.frischs.com/us/ky/lexington/222/", "@spider": "frischs", "amenity": "restaurant", "cuisine": "burger", "takeaway": "yes", "addr:street_address": "1849 Alysheba Way", "addr:city": "Lexington", "addr:state": "KY", "addr:postcode": "40509", "addr:country": "US", "name": "Frisch's Big Boy", "phone": "+18592640292", "website": "https://locations.frischs.com/us/ky/lexington/222/", "brand": "Frisch's Big Boy", "brand:wikidata": "Q5504660", "nsi_id": "frischsbigboy-96af40"}, "geometry": {"type": "Point", "coordinates": [-84.4197696, 38.0194254]}},
{"type": "Feature", "id": "vGJo-Z0kKskOpIGu0voePW4iW40=", "properties": {"ref": "https://locations.frischs.com/us/oh/lebanon/205/", "@spider": "frischs", "amenity": "restaurant", "cuisine": "burger", "takeaway": "yes", "addr:street_address": "1330 Columbus Ave", "addr:city": "Lebanon", "addr:state": "OH", "addr:postcode": "45036", "addr:country": "US", "name": "Frisch's Big Boy", "phone": "+15139327010", "website": "https://locations.frischs.com/us/oh/lebanon/205/", "brand": "Frisch's Big Boy", "brand:wikidata": "Q5504660", "nsi_id": "frischsbigboy-96af40"}, "geometry": {"type": "Point", "coordinates": [-84.179738, 39.4528378]}},
{"type": "Feature", "id": "GstPr6rQZWYWm6tbCVo4cPcJkxU=", "properties": {"ref": "https://locations.frischs.com/us/in/lawrenceburg/210/", "@spider": "frischs", "amenity": "restaurant", "cuisine": "burger", "takeaway": "yes", "addr:street_address": "1020 W Eads Pkwy", "addr:city": "Lawrenceburg", "addr:state": "IN", "addr:postcode": "47025", "addr:country": "US", "name": "Frisch's Big Boy", "phone": "+18125373173", "website": "https://locations.frischs.com/us/in/lawrenceburg/210/", "brand": "Frisch's Big Boy", "brand:wikidata": "Q5504660", "nsi_id": "frischsbigboy-96af40"}, "geometry": {"type": "Point", "coordinates": [-84.88081, 39.082979]}},
{"type": "Feature", "id": "w0W_y5xUad04FJ02C_PcIFzmhUw=", "properties": {"ref": "https://locations.frischs.com/us/ky/lexington/148/", "@spider": "frischs", "amenity": "restaurant", "cuisine": "burger", "takeaway": "yes", "addr:street_address": "1927 Harrodsburg Rd", "addr:city": "Lexington", "addr:state": "KY", "addr:postcode": "40503", "addr:country": "US", "name": "Frisch's Big Boy", "phone": "+18592786002", "website": "https://locations.frischs.com/us/ky/lexington/148/", "brand": "Frisch's Big Boy", "brand:wikidata": "Q5504660", "nsi_id": "frischsbigboy-96af40"}, "geometry": {"type": "Point", "coordinates": [-84.5334819, 38.0278943]}},
{"type": "Feature", "id": "7N0i75gPkLiy-THqcds7aQAdzKM=", "properties": {"ref": "https://locations.frischs.com/us/oh/lancaster/88/", "@spider": "frischs", "amenity": "restaurant", "cuisine": "burger", "takeaway": "yes", "addr:street_address": "1707 River Valley Cir N", "addr:city": "Lancaster", "addr:state": "OH", "addr:postcode": "43130", "addr:country": "US", "name": "Frisch's Big Boy", "phone": "+17406811177", "website": "https://locations.frischs.com/us/oh/lancaster/88/", "brand": "Frisch's Big Boy", "brand:wikidata": "Q5504660", "nsi_id": "frischsbigboy-96af40"}, "geometry": {"type": "Point", "coordinates": [-82.6302381, 39.7343848]}},
{"type": "Feature", "id": "En1QkeXd94UYB5APXYl6a4Zi4Ho=", "properties": {"ref": "https://locations.frischs.com/us/ky/independence/212/", "@spider": "frischs", "amenity": "restaurant", "cuisine": "burger", "takeaway": "yes", "addr:street_address": "2112 Declaration Drive", "addr:city": "Independence", "addr:state": "KY", "addr:postcode": "41051", "addr:country": "US", "name": "Frisch's Big Boy", "phone": "+18593563888", "website": "https://locations.frischs.com/us/ky/independence/212/", "brand": "Frisch's Big Boy", "brand:wikidata": "Q5504660", "nsi_id": "frischsbigboy-96af40"}, "geometry": {"type": "Point", "coordinates": [-84.54517849999999, 38.9283647]}},
{"type": "Feature", "id": "UZBuavhWPLIB2hsda_NUSBFG1Ac=", "properties": {"ref": "https://locations.frischs.com/us/oh/hillsboro/147/", "@spider": "frischs", "amenity": "restaurant", "cuisine": "burger", "takeaway": "yes", "addr:street_address": "1285 N High St", "addr:city": "Hillsboro", "addr:state": "OH", "addr:postcode": "45133", "addr:country": "US", "name": "Frisch's Big Boy", "phone": "+19373939973", "website": "https://locations.frischs.com/us/oh/hillsboro/147/", "brand": "Frisch's Big Boy", "brand:wikidata": "Q5504660", "nsi_id": "frischsbigboy-96af40"}, "geometry": {"type": "Point", "coordinates": [-83.60993959999999, 39.2239029]}},
{"type": "Feature", "id": "5HUyLHojDgNn8lOYJPEhk-nGvxk=", "properties": {"ref": "https://locations.frischs.com/us/oh/heath/217/", "@spider": "frischs", "amenity": "restaurant", "cuisine": "burger", "takeaway": "yes", "addr:street_address": "775 Hebron Rd.", "addr:city": "Heath", "addr:state": "OH", "addr:postcode": "43056", "addr:country": "US", "name": "Frisch's Big Boy", "phone": "+17407888153", "website": "https://locations.frischs.com/us/oh/heath/217/", "brand": "Frisch's Big Boy", "brand:wikidata": "Q5504660", "nsi_id": "frischsbigboy-96af40"}, "geometry": {"type": "Point", "coordinates": [-82.4400256, 40.0307717]}},
{"type": "Feature", "id": "1R6cz6hpMxUh5HCR0fc8v4R0aVo=", "properties": {"ref": "https://locations.frischs.com/us/ky/highland-heights/219/", "@spider": "frischs", "amenity": "restaurant", "cuisine": "burger", "takeaway": "yes", "addr:street_address": "2611 Alexandria Pike", "addr:city": "Highland Heights", "addr:state": "KY", "addr:postcode": "41076", "addr:country": "US", "name": "Frisch's Big Boy", "phone": "+18597811225", "website": "https://locations.frischs.com/us/ky/highland-heights/219/", "brand": "Frisch's Big Boy", "brand:wikidata": "Q5504660", "nsi_id": "frischsbigboy-96af40"}, "geometry": {"type": "Point", "coordinates": [-84.4535769, 39.0362314]}},
{"type": "Feature", "id": "orgE8sd_N5YR2gf_fw26SYpRErg=", "properties": {"ref": "https://locations.frischs.com/us/oh/harrison/185/", "@spider": "frischs", "amenity": "restaurant", "cuisine": "burger", "takeaway": "yes", "addr:street_address": "1181 Stone Dr", "addr:city": "Harrison", "addr:state": "OH", "addr:postcode": "45030", "addr:country": "US", "name": "Frisch's Big Boy", "phone": "+15133675777", "website": "https://locations.frischs.com/us/oh/harrison/185/", "brand": "Frisch's Big Boy", "brand:wikidata": "Q5504660", "nsi_id": "frischsbigboy-96af40"}, "geometry": {"type": "Point", "coordinates": [-84.7956019, 39.2555103]}},
{"type": "Feature", "id": "LHpFW1RcPAPt2DBJKxKS6rV96LM=", "properties": {"ref": "https://locations.frischs.com/us/oh/hamilton/7/", "@spider": "frischs", "amenity": "restaurant", "cuisine": "burger", "takeaway": "yes", "addr:street_address": "2949 Dixie Hwy", "addr:city": "Hamilton", "addr:state": "OH", "addr:postcode": "45015", "addr:country": "US", "name": "Frisch's Big Boy", "phone": "+15138636159", "website": "https://locations.frischs.com/us/oh/hamilton/7/", "brand": "Frisch's Big Boy", "brand:wikidata": "Q5504660", "nsi_id": "frischsbigboy-96af40"}, "geometry": {"type": "Point", "coordinates": [-84.5458678, 39.3665415]}},
{"type": "Feature", "id": "e0OrPa_1bKsKHJ61hISCEAGAPvc=", "properties": {"ref": "https://locations.frischs.com/us/oh/hamilton/227/", "@spider": "frischs", "amenity": "restaurant", "cuisine": "burger", "takeaway": "yes", "addr:street_address": "1255 Main St", "addr:city": "Hamilton", "addr:state": "OH", "addr:postcode": "45013", "addr:country": "US", "name": "Frisch's Big Boy", "phone": "+15138636075", "website": "https://locations.frischs.com/us/oh/hamilton/227/", "brand": "Frisch's Big Boy", "brand:wikidata": "Q5504660", "nsi_id": "frischsbigboy-96af40"}, "geometry": {"type": "Point", "coordinates": [-84.5873424, 39.4173309]}},
{"type": "Feature", "id": "XesH3tLXlpBBqv27HCOvmD5wmxk=", "properties": {"ref": "https://locations.frischs.com/us/oh/hamilton/211/", "@spider": "frischs", "amenity": "restaurant", "cuisine": "burger", "takeaway": "yes", "addr:street_address": "3050 Anchor Drive", "addr:city": "Hamilton", "addr:state": "OH", "addr:postcode": "45011", "addr:country": "US", "name": "Frisch's Big Boy", "phone": "+15137377414", "website": "https://locations.frischs.com/us/oh/hamilton/211/", "brand": "Frisch's Big Boy", "brand:wikidata": "Q5504660", "nsi_id": "frischsbigboy-96af40"}, "geometry": {"type": "Point", "coordinates": [-84.513166, 39.3906819]}},
{"type": "Feature", "id": "Ig9qR8ifxQBRKStDdSB--vzsZMw=", "properties": {"ref": "https://locations.frischs.com/us/oh/groveport/78/", "@spider": "frischs", "amenity": "restaurant", "cuisine": "burger", "takeaway": "yes", "addr:street_address": "3920 S Hamilton Rd", "addr:city": "Groveport", "addr:state": "OH", "addr:postcode": "43125", "addr:country": "US", "name": "Frisch's Big Boy", "phone": "+16148361101", "website": "https://locations.frischs.com/us/oh/groveport/78/", "brand": "Frisch's Big Boy", "brand:wikidata": "Q5504660", "nsi_id": "frischsbigboy-96af40"}, "geometry": {"type": "Point", "coordinates": [-82.8817242, 39.8946117]}},
{"type": "Feature", "id": "SIP3L9qi_xT0qU5yL3PUNjJwaDw=", "properties": {"ref": "https://locations.frischs.com/us/oh/hamilton/108/", "@spider": "frischs", "amenity": "restaurant", "cuisine": "burger", "takeaway": "yes", "addr:street_address": "5570 Liberty Fairfield Rd", "addr:city": "Hamilton", "addr:state": "OH", "addr:postcode": "45011", "addr:country": "US", "name": "Frisch's Big Boy", "phone": "+15137371209", "website": "https://locations.frischs.com/us/oh/hamilton/108/", "brand": "Frisch's Big Boy", "brand:wikidata": "Q5504660", "nsi_id": "frischsbigboy-96af40"}, "geometry": {"type": "Point", "coordinates": [-84.47498089999999, 39.4156734]}},
{"type": "Feature", "id": "d6WBboVRGALrosDBw2fV_iq9edM=", "properties": {"ref": "https://locations.frischs.com/us/oh/grove-city/84/", "@spider": "frischs", "amenity": "restaurant", "cuisine": "burger", "takeaway": "yes", "addr:street_address": "2878 Home Rd", "addr:city": "Grove City", "addr:state": "OH", "addr:postcode": "43123", "addr:country": "US", "name": "Frisch's Big Boy", "phone": "+16145390213", "website": "https://locations.frischs.com/us/oh/grove-city/84/", "brand": "Frisch's Big Boy", "brand:wikidata": "Q5504660", "nsi_id": "frischsbigboy-96af40"}, "geometry": {"type": "Point", "coordinates": [-83.078206, 39.9020427]}},
{"type": "Feature", "id": "AkH9HBcrD3bmXUXhUNnKuoGBWK4=", "properties": {"ref": "https://locations.frischs.com/us/in/greensburg/64/", "@spider": "frischs", "amenity": "restaurant", "cuisine": "burger", "takeaway": "yes", "addr:street_address": "1803 N Greensburg Xing", "addr:city": "Greensburg", "addr:state": "IN", "addr:postcode": "47240", "addr:country": "US", "name": "Frisch's Big Boy", "phone": "+18126638114", "website": "https://locations.frischs.com/us/in/greensburg/64/", "brand": "Frisch's Big Boy", "brand:wikidata": "Q5504660", "nsi_id": "frischsbigboy-96af40"}, "geometry": {"type": "Point", "coordinates": [-85.48392009999999, 39.3550945]}},
{"type": "Feature", "id": "ceZn4j3daWly0QOxX1U62MCBQXY=", "properties": {"ref": "https://locations.frischs.com/us/oh/franklin/146/", "@spider": "frischs", "amenity": "restaurant", "cuisine": "burger", "takeaway": "yes", "addr:street_address": "8201 Claude Thomas Rd", "addr:city": "Franklin", "addr:state": "OH", "addr:postcode": "45005", "addr:country": "US", "name": "Frisch's Big Boy", "phone": "+19377462871", "website": "https://locations.frischs.com/us/oh/franklin/146/", "brand": "Frisch's Big Boy", "brand:wikidata": "Q5504660", "nsi_id": "frischsbigboy-96af40"}, "geometry": {"type": "Point", "coordinates": [-84.27310299999999, 39.5638977]}},
{"type": "Feature", "id": "iGhsrsFJ86DUfNAm3mBaN1Tsqvg=", "properties": {"ref": "https://locations.frischs.com/us/ky/georgetown/184/", "@spider": "frischs", "amenity": "restaurant", "cuisine": "burger", "takeaway": "yes", "addr:street_address": "460 Connector Rd", "addr:city": "Georgetown", "addr:state": "KY", "addr:postcode": "40324", "addr:country": "US", "name": "Frisch's Big Boy", "phone": "+15028680044", "website": "https://locations.frischs.com/us/ky/georgetown/184/", "brand": "Frisch's Big Boy", "brand:wikidata": "Q5504660", "nsi_id": "frischsbigboy-96af40"}, "geometry": {"type": "Point", "coordinates": [-84.5349561, 38.2295812]}},
{"type": "Feature", "id": "AiMe4jXA9K_lASkFlKmAgACAWSk=", "properties": {"ref": "https://locations.frischs.com/us/oh/franklin/173/", "@spider": "frischs", "amenity": "restaurant", "cuisine": "burger", "takeaway": "yes", "addr:street_address": "3560 S Dixie Hwy", "addr:city": "Franklin", "addr:state": "OH", "addr:postcode": "45005", "addr:country": "US", "name": "Frisch's Big Boy", "phone": "+15134230185", "website": "https://locations.frischs.com/us/oh/franklin/173/", "brand": "Frisch's Big Boy", "brand:wikidata": "Q5504660", "nsi_id": "frischsbigboy-96af40"}, "geometry": {"type": "Point", "coordinates": [-84.3351114, 39.4962984]}},
{"type": "Feature", "id": "-oDcP00z6tXi0s0xlGgBU-U7ET4=", "properties": {"ref": "https://locations.frischs.com/us/ky/frankfort/170/", "@spider": "frischs", "amenity": "restaurant", "cuisine": "burger", "takeaway": "yes", "addr:street_address": "1302 U S Highway 127 S", "addr:city": "Frankfort", "addr:state": "KY", "addr:postcode": "40601", "addr:country": "US", "name": "Frisch's Big Boy", "phone": "+15022277915", "website": "https://locations.frischs.com/us/ky/frankfort/170/", "brand": "Frisch's Big Boy", "brand:wikidata": "Q5504660", "nsi_id": "frischsbigboy-96af40"}, "geometry": {"type": "Point", "coordinates": [-84.8985182, 38.1653055]}},
{"type": "Feature", "id": "fzadMwDz9M_AF5u0ckbxLCyYfmo=", "properties": {"ref": "https://locations.frischs.com/us/ky/fort-mitchell/172/", "@spider": "frischs", "amenity": "restaurant", "cuisine": "burger", "takeaway": "yes", "addr:street_address": "494 Orphanage Rd", "addr:city": "Fort Mitchell", "addr:state": "KY", "addr:postcode": "41017", "addr:country": "US", "name": "Frisch's Big Boy", "phone": "+18593317771", "website": "https://locations.frischs.com/us/ky/fort-mitchell/172/", "brand": "Frisch's Big Boy", "brand:wikidata": "Q5504660", "nsi_id": "frischsbigboy-96af40"}, "geometry": {"type": "Point", "coordinates": [-84.5406976, 39.0299661]}},
{"type": "Feature", "id": "iJNfoilTXLXszgZQVUOWPA8Bj4I=", "properties": {"ref": "https://locations.frischs.com/us/oh/fairfield/149/", "@spider": "frischs", "amenity": "restaurant", "cuisine": "burger", "takeaway": "yes", "addr:street_address": "6638 Dixie Hwy", "addr:city": "Fairfield", "addr:state": "OH", "addr:postcode": "45014", "addr:country": "US", "name": "Frisch's Big Boy", "phone": "+15138743122", "website": "https://locations.frischs.com/us/oh/fairfield/149/", "brand": "Frisch's Big Boy", "brand:wikidata": "Q5504660", "nsi_id": "frischsbigboy-96af40"}, "geometry": {"type": "Point", "coordinates": [-84.49612139999999, 39.3195115]}},
{"type": "Feature", "id": "a6imv-OKoSUjASfuFeEjXjaW4bg=", "properties": {"ref": "https://locations.frischs.com/us/ky/florence/163/", "@spider": "frischs", "amenity": "restaurant", "cuisine": "burger", "takeaway": "yes", "addr:street_address": "6808 Burlington Pike", "addr:city": "Florence", "addr:state": "KY", "addr:postcode": "41042", "addr:country": "US", "name": "Frisch's Big Boy", "phone": "+18593711607", "website": "https://locations.frischs.com/us/ky/florence/163/", "brand": "Frisch's Big Boy", "brand:wikidata": "Q5504660", "nsi_id": "frischsbigboy-96af40"}, "geometry": {"type": "Point", "coordinates": [-84.6292311, 39.0110515]}},
{"type": "Feature", "id": "gPZJobqcyMNvwu8JGYSFrQCQhDY=", "properties": {"ref": "https://locations.frischs.com/us/ky/florence/200/", "@spider": "frischs", "amenity": "restaurant", "cuisine": "burger", "takeaway": "yes", "addr:street_address": "7908 Dream St", "addr:city": "Florence", "addr:state": "KY", "addr:postcode": "41042", "addr:country": "US", "name": "Frisch's Big Boy", "phone": "+18593715122", "website": "https://locations.frischs.com/us/ky/florence/200/", "brand": "Frisch's Big Boy", "brand:wikidata": "Q5504660", "nsi_id": "frischsbigboy-96af40"}, "geometry": {"type": "Point", "coordinates": [-84.6400314, 38.9882466]}},
{"type": "Feature", "id": "4mbt1imKjZFBbkGKN9X9O2wl9I4=", "properties": {"ref": "https://locations.frischs.com/us/oh/fairborn/180/", "@spider": "frischs", "amenity": "restaurant", "cuisine": "burger", "takeaway": "yes", "addr:street_address": "3110 Colonel Glenn Hwy", "addr:city": "Fairborn", "addr:state": "OH", "addr:postcode": "45324", "addr:country": "US", "name": "Frisch's Big Boy", "phone": "+19374270096", "website": "https://locations.frischs.com/us/oh/fairborn/180/", "brand": "Frisch's Big Boy", "brand:wikidata": "Q5504660", "nsi_id": "frischsbigboy-96af40"}, "geometry": {"type": "Point", "coordinates": [-84.0662528, 39.7764068]}},
{"type": "Feature", "id": "SbmLSbOewiJL1ulsGjE9nLrY8cc=", "properties": {"ref": "https://locations.frischs.com/us/ky/erlanger/18/", "@spider": "frischs", "amenity": "restaurant", "cuisine": "burger", "takeaway": "yes", "addr:street_address": "4016 Dixie Hwy", "addr:city": "Erlanger", "addr:state": "KY", "addr:postcode": "41018", "addr:country": "US", "name": "Frisch's Big Boy", "phone": "+18593426166", "website": "https://locations.frischs.com/us/ky/erlanger/18/", "brand": "Frisch's Big Boy", "brand:wikidata": "Q5504660", "nsi_id": "frischsbigboy-96af40"}, "geometry": {"type": "Point", "coordinates": [-84.6073404, 39.0124779]}},
{"type": "Feature", "id": "kZj6lbZp5dRGJr-gMqBnGJujxRk=", "properties": {"ref": "https://locations.frischs.com/us/oh/eaton/66/", "@spider": "frischs", "amenity": "restaurant", "cuisine": "burger", "takeaway": "yes", "addr:street_address": "1204 N Barron St", "addr:city": "Eaton", "addr:state": "OH", "addr:postcode": "45320", "addr:country": "US", "name": "Frisch's Big Boy", "phone": "+19374569912", "website": "https://locations.frischs.com/us/oh/eaton/66/", "brand": "Frisch's Big Boy", "brand:wikidata": "Q5504660", "nsi_id": "frischsbigboy-96af40"}, "geometry": {"type": "Point", "coordinates": [-84.635971, 39.757271]}},
{"type": "Feature", "id": "7rp94e03Sob63kowFooDkHTv6AY=", "properties": {"ref": "https://locations.frischs.com/us/oh/englewood/152/", "@spider": "frischs", "amenity": "restaurant", "cuisine": "burger", "takeaway": "yes", "addr:street_address": "1095 S Main St", "addr:city": "Englewood", "addr:state": "OH", "addr:postcode": "45322", "addr:country": "US", "name": "Frisch's Big Boy", "phone": "+19378360906", "website": "https://locations.frischs.com/us/oh/englewood/152/", "brand": "Frisch's Big Boy", "brand:wikidata": "Q5504660", "nsi_id": "frischsbigboy-96af40"}, "geometry": {"type": "Point", "coordinates": [-84.28434659999999, 39.8612511]}},
{"type": "Feature", "id": "kTl5Y6zpV2JR-kq8C1yrQhczUzY=", "properties": {"ref": "https://locations.frischs.com/us/ky/dry-ridge/225/", "@spider": "frischs", "amenity": "restaurant", "cuisine": "burger", "takeaway": "yes", "addr:street_address": "1000 Fashion Ridge", "addr:city": "Dry Ridge", "addr:state": "KY", "addr:postcode": "41035", "addr:country": "US", "name": "Frisch's Big Boy", "phone": "+18598248870", "website": "https://locations.frischs.com/us/ky/dry-ridge/225/", "brand": "Frisch's Big Boy", "brand:wikidata": "Q5504660", "nsi_id": "frischsbigboy-96af40"}, "geometry": {"type": "Point", "coordinates": [-84.6035498, 38.68392970000001]}},
{"type": "Feature", "id": "CplFuhAWSnYL68trjopYs4Pg8m8=", "properties": {"ref": "https://locations.frischs.com/us/oh/dayton/69/", "@spider": "frischs", "amenity": "restaurant", "cuisine": "burger", "takeaway": "yes", "addr:street_address": "6188 Wilmington Pike", "addr:city": "Dayton", "addr:state": "OH", "addr:postcode": "45459", "addr:country": "US", "name": "Frisch's Big Boy", "phone": "+19378483362", "website": "https://locations.frischs.com/us/oh/dayton/69/", "brand": "Frisch's Big Boy", "brand:wikidata": "Q5504660", "nsi_id": "frischsbigboy-96af40"}, "geometry": {"type": "Point", "coordinates": [-84.1096177, 39.649641]}},
{"type": "Feature", "id": "NyX7pNRKWTbZpY92PFpJEyBbXfU=", "properties": {"ref": "https://locations.frischs.com/us/oh/dayton/39/", "@spider": "frischs", "amenity": "restaurant", "cuisine": "burger", "takeaway": "yes", "addr:street_address": "4830 S Dixie Dr", "addr:city": "Dayton", "addr:state": "OH", "addr:postcode": "45439", "addr:country": "US", "name": "Frisch's Big Boy", "phone": "+19372931134", "website": "https://locations.frischs.com/us/oh/dayton/39/", "brand": "Frisch's Big Boy", "brand:wikidata": "Q5504660", "nsi_id": "frischsbigboy-96af40"}, "geometry": {"type": "Point", "coordinates": [-84.2202068, 39.6871383]}},
{"type": "Feature", "id": "xcJkmNR5wazK-8qO_SDV1zz3ZzU=", "properties": {"ref": "https://locations.frischs.com/us/oh/cincinnati/174/", "@spider": "frischs", "amenity": "restaurant", "cuisine": "burger", "takeaway": "yes", "addr:street_address": "4462 Eastgate Blvd", "addr:city": "Cincinnati", "addr:state": "OH", "addr:postcode": "45245", "addr:country": "US", "name": "Frisch's Big Boy", "phone": "+15137525977", "website": "https://locations.frischs.com/us/oh/cincinnati/174/", "brand": "Frisch's Big Boy", "brand:wikidata": "Q5504660", "nsi_id": "frischsbigboy-96af40"}, "geometry": {"type": "Point", "coordinates": [-84.2763875, 39.09631359999999]}},
{"type": "Feature", "id": "ETqRnhKoB6PbTaXUf_0Z-JOPkB8=", "properties": {"ref": "https://locations.frischs.com/us/oh/cincinnati/168/", "@spider": "frischs", "amenity": "restaurant", "cuisine": "burger", "takeaway": "yes", "addr:street_address": "11122 Hamilton Ave", "addr:city": "Cincinnati", "addr:state": "OH", "addr:postcode": "45231", "addr:country": "US", "name": "Frisch's Big Boy", "phone": "+15138519696", "website": "https://locations.frischs.com/us/oh/cincinnati/168/", "brand": "Frisch's Big Boy", "brand:wikidata": "Q5504660", "nsi_id": "frischsbigboy-96af40"}, "geometry": {"type": "Point", "coordinates": [-84.5637179, 39.28144899999999]}},
{"type": "Feature", "id": "4yMmgHqWMwTyvOgkXDFPXVEdU6E=", "properties": {"ref": "https://locations.frischs.com/us/oh/cincinnati/17/", "@spider": "frischs", "amenity": "restaurant", "cuisine": "burger", "takeaway": "yes", "addr:street_address": "1575 W Galbraith Rd", "addr:city": "Cincinnati", "addr:state": "OH", "addr:postcode": "45231", "addr:country": "US", "name": "Frisch's Big Boy", "phone": "+15139314515", "website": "https://locations.frischs.com/us/oh/cincinnati/17/", "brand": "Frisch's Big Boy", "brand:wikidata": "Q5504660", "nsi_id": "frischsbigboy-96af40"}, "geometry": {"type": "Point", "coordinates": [-84.4882658, 39.2147715]}},
{"type": "Feature", "id": "w2WpE1sqIDvIV5-YHO2vaM6EIAk=", "properties": {"ref": "https://locations.frischs.com/us/oh/cincinnati/161/", "@spider": "frischs", "amenity": "restaurant", "cuisine": "burger", "takeaway": "yes", "addr:street_address": "12150 Mason Montgomery", "addr:city": "Cincinnati", "addr:state": "OH", "addr:postcode": "45249", "addr:country": "US", "name": "Frisch's Big Boy", "phone": "+15136832680", "website": "https://locations.frischs.com/us/oh/cincinnati/161/", "brand": "Frisch's Big Boy", "brand:wikidata": "Q5504660", "nsi_id": "frischsbigboy-96af40"}, "geometry": {"type": "Point", "coordinates": [-84.31520929999999, 39.291585]}},
{"type": "Feature", "id": "aVfpa2whxWdAbbQ6BFxsoQGkFfY=", "properties": {"ref": "https://locations.frischs.com/us/oh/cincinnati/150/", "@spider": "frischs", "amenity": "restaurant", "cuisine": "burger", "takeaway": "yes", "addr:street_address": "6080 Colerain Ave", "addr:city": "Cincinnati", "addr:state": "OH", "addr:postcode": "45239", "addr:country": "US", "name": "Frisch's Big Boy", "phone": "+15139234700", "website": "https://locations.frischs.com/us/oh/cincinnati/150/", "brand": "Frisch's Big Boy", "brand:wikidata": "Q5504660", "nsi_id": "frischsbigboy-96af40"}, "geometry": {"type": "Point", "coordinates": [-84.5810489, 39.2039847]}},
{"type": "Feature", "id": "82yEBg1bqN9w2_5QqpcawVRKHqw=", "properties": {"ref": "https://locations.frischs.com/us/oh/cincinnati/157/", "@spider": "frischs", "amenity": "restaurant", "cuisine": "burger", "takeaway": "yes", "addr:street_address": "4227 Bridgetown Rd", "addr:city": "Cincinnati", "addr:state": "OH", "addr:postcode": "45211", "addr:country": "US", "name": "Frisch's Big Boy", "phone": "+15135745704", "website": "https://locations.frischs.com/us/oh/cincinnati/157/", "brand": "Frisch's Big Boy", "brand:wikidata": "Q5504660", "nsi_id": "frischsbigboy-96af40"}, "geometry": {"type": "Point", "coordinates": [-84.6199159, 39.15774680000001]}},
{"type": "Feature", "id": "vfBHy02rLcaZD9u7w83wcoq8Oc4=", "properties": {"ref": "https://locations.frischs.com/us/oh/cincinnati/141/", "@spider": "frischs", "amenity": "restaurant", "cuisine": "burger", "takeaway": "yes", "addr:street_address": "2439 E Sharon Rd", "addr:city": "Cincinnati", "addr:state": "OH", "addr:postcode": "45241", "addr:country": "US", "name": "Frisch's Big Boy", "phone": "+15137724121", "website": "https://locations.frischs.com/us/oh/cincinnati/141/", "brand": "Frisch's Big Boy", "brand:wikidata": "Q5504660", "nsi_id": "frischsbigboy-96af40"}, "geometry": {"type": "Point", "coordinates": [-84.4354007, 39.2693637]}},
{"type": "Feature", "id": "28WMmAy_jw_ETU9Ze7g0dsaVUpg=", "properties": {"ref": "https://locations.frischs.com/us/oh/cincinnati/139/", "@spider": "frischs", "amenity": "restaurant", "cuisine": "burger", "takeaway": "yes", "addr:street_address": "9830 Colerain Ave", "addr:city": "Cincinnati", "addr:state": "OH", "addr:postcode": "45251", "addr:country": "US", "name": "Frisch's Big Boy", "phone": "+15133850300", "website": "https://locations.frischs.com/us/oh/cincinnati/139/", "brand": "Frisch's Big Boy", "brand:wikidata": "Q5504660", "nsi_id": "frischsbigboy-96af40"}, "geometry": {"type": "Point", "coordinates": [-84.5970833, 39.2508055]}},
{"type": "Feature", "id": "1gBH_Z23b4BY1t183d63VFE2hYw=", "properties": {"ref": "https://locations.frischs.com/us/oh/cincinnati/125/", "@spider": "frischs", "amenity": "restaurant", "cuisine": "burger", "takeaway": "yes", "addr:street_address": "9070 Plainfield Rd", "addr:city": "Cincinnati", "addr:state": "OH", "addr:postcode": "45236", "addr:country": "US", "name": "Frisch's Big Boy", "phone": "+15138913080", "website": "https://locations.frischs.com/us/oh/cincinnati/125/", "brand": "Frisch's Big Boy", "brand:wikidata": "Q5504660", "nsi_id": "frischsbigboy-96af40"}, "geometry": {"type": "Point", "coordinates": [-84.3930106, 39.22416200000001]}},
{"type": "Feature", "id": "dunC7pMpQ3Heg6-i-x_BTaJqsW8=", "properties": {"ref": "https://locations.frischs.com/us/oh/cincinnati/110/", "@spider": "frischs", "amenity": "restaurant", "cuisine": "burger", "takeaway": "yes", "addr:street_address": "1001 Gest St", "addr:city": "Cincinnati", "addr:state": "OH", "addr:postcode": "45203", "addr:country": "US", "name": "Frisch's Big Boy", "phone": "+15136218494", "website": "https://locations.frischs.com/us/oh/cincinnati/110/", "brand": "Frisch's Big Boy", "brand:wikidata": "Q5504660", "nsi_id": "frischsbigboy-96af40"}, "geometry": {"type": "Point", "coordinates": [-84.5329904, 39.1060232]}},
{"type": "Feature", "id": "HvI2NlUln7qC9M80OzivbdKKMLQ=", "properties": {"ref": "https://locations.frischs.com/us/oh/cincinnati/10/", "@spider": "frischs", "amenity": "restaurant", "cuisine": "burger", "takeaway": "yes", "addr:street_address": "4765 Montgomery Rd", "addr:city": "Cincinnati", "addr:state": "OH", "addr:postcode": "45212", "addr:country": "US", "name": "Frisch's Big Boy", "phone": "+15135314100", "website": "https://locations.frischs.com/us/oh/cincinnati/10/", "brand": "Frisch's Big Boy", "brand:wikidata": "Q5504660", "nsi_id": "frischsbigboy-96af40"}, "geometry": {"type": "Point", "coordinates": [-84.455167, 39.163882]}},
{"type": "Feature", "id": "XT5T09fCV1CFaznAl5N9xbzKmRk=", "properties": {"ref": "https://locations.frischs.com/us/oh/cincinnati/1/", "@spider": "frischs", "amenity": "restaurant", "cuisine": "burger", "takeaway": "yes", "addr:street_address": "5760 Wooster Pike", "addr:city": "Cincinnati", "addr:state": "OH", "addr:postcode": "45227", "addr:country": "US", "name": "Frisch's Big Boy", "phone": "+15132712105", "website": "https://locations.frischs.com/us/oh/cincinnati/1/", "brand": "Frisch's Big Boy", "brand:wikidata": "Q5504660", "nsi_id": "frischsbigboy-96af40"}, "geometry": {"type": "Point", "coordinates": [-84.3932596, 39.1418085]}},
{"type": "Feature", "id": "SGbO6PrD6KIF3YMM_RlmIZ1Zsdw=", "properties": {"ref": "https://locations.frischs.com/us/oh/chillicothe/76/", "@spider": "frischs", "amenity": "restaurant", "cuisine": "burger", "takeaway": "yes", "addr:street_address": "831 North Bridge Street", "addr:city": "Chillicothe", "addr:state": "OH", "addr:postcode": "45601", "addr:country": "US", "name": "Frisch's Big Boy", "phone": "+17407753663", "website": "https://locations.frischs.com/us/oh/chillicothe/76/", "brand": "Frisch's Big Boy", "brand:wikidata": "Q5504660", "nsi_id": "frischsbigboy-96af40"}, "geometry": {"type": "Point", "coordinates": [-82.9761132, 39.3521553]}},
{"type": "Feature", "id": "Mr6TpsfqxGjz4tWxsMY-KoSeiEA=", "properties": {"ref": "https://locations.frischs.com/us/oh/bethel/138/", "@spider": "frischs", "amenity": "restaurant", "cuisine": "burger", "takeaway": "yes", "addr:street_address": "551 W Plane St", "addr:city": "Bethel", "addr:state": "OH", "addr:postcode": "45106", "addr:country": "US", "name": "Frisch's Big Boy", "phone": "+15137346201", "website": "https://locations.frischs.com/us/oh/bethel/138/", "brand": "Frisch's Big Boy", "brand:wikidata": "Q5504660", "nsi_id": "frischsbigboy-96af40"}, "geometry": {"type": "Point", "coordinates": [-84.0867815, 38.963495]}},
{"type": "Feature", "id": "jBZTP1vdXyDAkYYr5WJ_c7Sx60s=", "properties": {"ref": "https://locations.frischs.com/us/ky/burlington/70/", "@spider": "frischs", "amenity": "restaurant", "cuisine": "burger", "takeaway": "yes", "addr:street_address": "1731 Patrick Dr", "addr:city": "Burlington", "addr:state": "KY", "addr:postcode": "41005", "addr:country": "US", "name": "Frisch's Big Boy", "phone": "+18595256674", "website": "https://locations.frischs.com/us/ky/burlington/70/", "brand": "Frisch's Big Boy", "brand:wikidata": "Q5504660", "nsi_id": "frischsbigboy-96af40"}, "geometry": {"type": "Point", "coordinates": [-84.6889905, 39.0182656]}},
{"type": "Feature", "id": "EhHioRnrGDwTnDkN9dfvDB4ErBI=", "properties": {"ref": "https://locations.frischs.com/us/oh/batavia/188/", "@spider": "frischs", "amenity": "restaurant", "cuisine": "burger", "takeaway": "yes", "addr:street_address": "2192 Winemiller Ln", "addr:city": "Batavia", "addr:state": "OH", "addr:postcode": "45103", "addr:country": "US", "name": "Frisch's Big Boy", "phone": "+15137357100", "website": "https://locations.frischs.com/us/oh/batavia/188/", "brand": "Frisch's Big Boy", "brand:wikidata": "Q5504660", "nsi_id": "frischsbigboy-96af40"}, "geometry": {"type": "Point", "coordinates": [-84.15346819999999, 39.0835873]}},
{"type": "Feature", "id": "RddLxIm-h3N6QMEIB9_Bsq6zeQw=", "properties": {"ref": "https://locations.frischs.com/us/ky/bellevue/159/", "@spider": "frischs", "amenity": "restaurant", "cuisine": "burger", "takeaway": "yes", "addr:street_address": "100 Landmark Dr", "addr:city": "Bellevue", "addr:state": "KY", "addr:postcode": "41073", "addr:country": "US", "name": "Frisch's Big Boy", "phone": "+18594913205", "website": "https://locations.frischs.com/us/ky/bellevue/159/", "brand": "Frisch's Big Boy", "brand:wikidata": "Q5504660", "nsi_id": "frischsbigboy-96af40"}, "geometry": {"type": "Point", "coordinates": [-84.48522009999999, 39.099639]}}]}