{"type":"FeatureCollection","features":[{"type": "Feature", "id": "fvbUu_lPh7F45vCLfM7eJSGsvvE=", "properties": {"ref": "https://www.fuddruckers.com/sevierville", "@spider": "fuddruckers", "amenity": "restaurant", "cuisine": "burger", "addr:street_address": "168 Collier Dr", "addr:city": "Sevierville", "addr:state": "TN", "addr:postcode": "37862", "name": "Sevierville / Pigeon Forge", "phone": "(865) 453-2221", "website": "https://www.fuddruckers.com/sevierville", "brand": "Fuddruckers", "brand:wikidata": "Q5507056", "nsi_id": "fuddruckers-2fabb0"}, "geometry": {"type": "Point", "coordinates": [-83.56160736084, 35.837738037109]}},
{"type": "Feature", "id": "1dWXAExsFQpD_lBqIIxaMQboifI=", "properties": {"ref": "https://www.fuddruckers.com/stafford", "@spider": "fuddruckers", "amenity": "restaurant", "cuisine": "burger", "addr:street_address": "11445 Fountain Lake Dr", "addr:city": "Stafford", "addr:state": "TX", "addr:postcode": "77477", "name": "Stafford", "phone": "(281) 240-9414", "website": "https://www.fuddruckers.com/stafford", "brand": "Fuddruckers", "brand:wikidata": "Q5507056", "nsi_id": "fuddruckers-2fabb0"}, "geometry": {"type": "Point", "coordinates": [-95.584243774414, 29.638502120972]}},
{"type": "Feature", "id": "SZdvdOzKu9WlAywBh6sjIpbglWA=", "properties": {"ref": "https://www.fuddruckers.com/houston-greenway-plaza", "@spider": "fuddruckers", "amenity": "restaurant", "cuisine": "burger", "addr:street_address": "3929 Southwest Freeway", "addr:city": "Houston", "addr:state": "TX", "addr:postcode": "77027", "name": "Houston Greenway Plaza", "phone": "(713) 621-8222", "website": "https://www.fuddruckers.com/houston-greenway-plaza", "brand": "Fuddruckers", "brand:wikidata": "Q5507056", "nsi_id": "fuddruckers-2fabb0"}, "geometry": {"type": "Point", "coordinates": [-95.439849853516, 29.728214263916]}},
{"type": "Feature", "id": "frX4dKFItpvNEY4kNd3H3N7jIZ0=", "properties": {"ref": "https://www.fuddruckers.com/superstition-springs", "@spider": "fuddruckers", "amenity": "restaurant", "cuisine": "burger", "addr:street_address": "6455 East Southern Ave", "addr:city": "Mesa", "addr:state": "AZ", "addr:postcode": "85206", "name": "Mesa Superstition Springs", "phone": "(480) 396-3077", "website": "https://www.fuddruckers.com/superstition-springs", "brand": "Fuddruckers", "brand:wikidata": "Q5507056", "nsi_id": "fuddruckers-2fabb0"}, "geometry": {"type": "Point", "coordinates": [-111.691696166992, 33.393501281738]}},
{"type": "Feature", "id": "W8lPHQcT6zvj060i1LxA5UOODzA=", "properties": {"ref": "https://www.fuddruckers.com/rockwall", "@spider": "fuddruckers", "amenity": "restaurant", "cuisine": "burger", "addr:street_address": "2235 S Goliad St", "addr:city": "Rockwall", "addr:state": "TX", "addr:postcode": "75032", "name": "Rockwall", "phone": "(972) 961-9753", "website": "https://www.fuddruckers.com/rockwall", "brand": "Fuddruckers", "brand:wikidata": "Q5507056", "nsi_id": "fuddruckers-2fabb0"}, "geometry": {"type": "Point", "coordinates": [-96.448745727539, 32.907409667969]}},
{"type": "Feature", "id": "z1PfAdS15SIPaB7J6vAb7mLgRXQ=", "properties": {"ref": "https://www.fuddruckers.com/caguas", "@spider": "fuddruckers", "amenity": "restaurant", "cuisine": "burger", "addr:street_address": "Rafael Cordero Avenue, Street #30", "addr:city": "Caguas", "addr:state": "PR", "addr:postcode": "00725", "name": "Caguas", "phone": "(787) 223-0445", "website": "https://www.fuddruckers.com/caguas", "brand": "Fuddruckers", "brand:wikidata": "Q5507056", "nsi_id": "fuddruckers-2fabb0"}, "geometry": {"type": "Point", "coordinates": [-66.031562805176, 18.233066558838]}},
{"type": "Feature", "id": "1lqes5hjq1HgXI3gImAt0D61p_8=", "properties": {"ref": "https://www.fuddruckers.com/austin-slaughter-lane", "@spider": "fuddruckers", "amenity": "restaurant", "cuisine": "burger", "addr:street_address": "415 W Slaughter Ln", "addr:city": "Austin", "addr:state": "TX", "addr:postcode": "78748", "name": "Austin - W. Slaughter Ln.", "phone": "(512) 590-7540", "website": "https://www.fuddruckers.com/austin-slaughter-lane", "brand": "Fuddruckers", "brand:wikidata": "Q5507056", "nsi_id": "fuddruckers-2fabb0"}, "geometry": {"type": "Point", "coordinates": [-97.797233581543, 30.170370101929]}},
{"type": "Feature", "id": "6MjgIDNU-4TWE49n-UopSOm8PJw=", "properties": {"ref": "https://www.fuddruckers.com/webster", "@spider": "fuddruckers", "amenity": "restaurant", "cuisine": "burger", "addr:street_address": "20001 Gulf Freeway", "addr:city": "Webster", "addr:state": "TX", "addr:postcode": "77598", "name": "Webster", "phone": "(281) 724-2692", "website": "https://www.fuddruckers.com/webster", "brand": "Fuddruckers", "brand:wikidata": "Q5507056", "nsi_id": "fuddruckers-2fabb0"}, "geometry": {"type": "Point", "coordinates": [-95.137054443359, 29.536066055298]}},
{"type": "Feature", "id": "rjw0T0lOjd7cUxmF-Tqrn_imZss=", "properties": {"ref": "https://www.fuddruckers.com/arrowhead", "@spider": "fuddruckers", "amenity": "restaurant", "cuisine": "burger", "addr:street_address": "7704 West Bell Rd", "addr:city": "Glendale", "addr:state": "AZ", "addr:postcode": "85308", "name": "Glendale", "phone": "(623) 979-8826", "website": "https://www.fuddruckers.com/arrowhead", "brand": "Fuddruckers", "brand:wikidata": "Q5507056", "nsi_id": "fuddruckers-2fabb0"}, "geometry": {"type": "Point", "coordinates": [-112.224922180176, 33.639373779297]}},
{"type": "Feature", "id": "YPIaGoAAMscZ6wrw0QZ9k1R-ZwM=", "properties": {"ref": "https://www.fuddruckers.com/norfolk", "@spider": "fuddruckers", "amenity": "restaurant", "cuisine": "burger", "addr:street_address": "7750 Tidewater Dr #301", "addr:city": "Norfolk", "addr:state": "VA", "addr:postcode": "23505", "name": "Norfolk", "phone": "(757) 227-5334", "website": "https://www.fuddruckers.com/norfolk", "brand": "Fuddruckers", "brand:wikidata": "Q5507056", "nsi_id": "fuddruckers-2fabb0"}, "geometry": {"type": "Point", "coordinates": [-76.254005432129, 36.914810180664]}},
{"type": "Feature", "id": "p0ri09GjGapblkKipBoJUzoEhQs=", "properties": {"ref": "https://www.fuddruckers.com/houston-tidwell", "@spider": "fuddruckers", "amenity": "restaurant", "cuisine": "burger", "addr:street_address": "13010 North West Freeway", "addr:city": "Houston", "addr:state": "TX", "addr:postcode": "77040", "name": "Houston Tidwell", "phone": "(713) 462-4508", "website": "https://www.fuddruckers.com/houston-tidwell", "brand": "Fuddruckers", "brand:wikidata": "Q5507056", "nsi_id": "fuddruckers-2fabb0"}, "geometry": {"type": "Point", "coordinates": [-95.497947692871, 29.845958709717]}},
{"type": "Feature", "id": "kF2ZwZ0lkLEPRLcJnZb677-9VpM=", "properties": {"ref": "https://www.fuddruckers.com/laredo", "@spider": "fuddruckers", "amenity": "restaurant", "cuisine": "burger", "addr:street_address": "711 West Hillside", "addr:city": "Laredo", "addr:state": "TX", "addr:postcode": "78041", "name": "Laredo", "phone": "(956) 718-4046", "website": "https://www.fuddruckers.com/laredo", "brand": "Fuddruckers", "brand:wikidata": "Q5507056", "nsi_id": "fuddruckers-2fabb0"}, "geometry": {"type": "Point", "coordinates": [-99.501899719238, 27.547159194946]}},
{"type": "Feature", "id": "A1qwHgYKBmaFRFbqkhLg-0u_sPQ=", "properties": {"ref": "https://www.fuddruckers.com/tempe", "@spider": "fuddruckers", "amenity": "restaurant", "cuisine": "burger", "addr:street_address": "7470 South Priest Dr", "addr:city": "Tempe", "addr:state": "AZ", "addr:postcode": "85283", "name": "Tempe", "phone": "(480) 413-9114", "website": "https://www.fuddruckers.com/tempe", "brand": "Fuddruckers", "brand:wikidata": "Q5507056", "nsi_id": "fuddruckers-2fabb0"}, "geometry": {"type": "Point", "coordinates": [-111.963500976562, 33.351139068604]}},
{"type": "Feature", "id": "gu1w9hOT36SUWKpOjD1iivck1ws=", "properties": {"ref": "https://www.fuddruckers.com/kingwood", "@spider": "fuddruckers", "amenity": "restaurant", "cuisine": "burger", "addr:street_address": "4360 Kingwood Dr", "addr:city": "Kingwood", "addr:state": "TX", "addr:postcode": "77339", "name": "Kingwood", "phone": "(281) 361-7800", "website": "https://www.fuddruckers.com/kingwood", "brand": "Fuddruckers", "brand:wikidata": "Q5507056", "nsi_id": "fuddruckers-2fabb0"}, "geometry": {"type": "Point", "coordinates": [-95.186225891113, 30.048868179321]}},
{"type": "Feature", "id": "ACRFrxXd1WfFCOOxfprsdkIxFJE=", "properties": {"ref": "https://www.fuddruckers.com/houston-town-and-country", "@spider": "fuddruckers", "amenity": "restaurant", "cuisine": "burger", "addr:street_address": "10500 Town and Country Way", "addr:city": "Houston", "addr:state": "TX", "addr:postcode": "77024", "name": "Houston Town & Country", "phone": "(713) 722-7440", "website": "https://www.fuddruckers.com/houston-town-and-country", "brand": "Fuddruckers", "brand:wikidata": "Q5507056", "nsi_id": "fuddruckers-2fabb0"}, "geometry": {"type": "Point", "coordinates": [-95.556015014648, 29.782066345215]}},
{"type": "Feature", "id": "gciImEuJy4Eb38dZf-MQEHjut5A=", "properties": {"ref": "https://www.fuddruckers.com/myrtle-beach-kings-highway", "@spider": "fuddruckers", "amenity": "restaurant", "cuisine": "burger", "addr:street_address": "2101 N King's Hwy", "addr:city": "Myrtle Beach", "addr:state": "SC", "addr:postcode": "29577", "name": "Myrtle Beach King's Highway", "phone": "(843) 946-6887", "website": "https://www.fuddruckers.com/myrtle-beach-kings-highway", "brand": "Fuddruckers", "brand:wikidata": "Q5507056", "nsi_id": "fuddruckers-2fabb0"}, "geometry": {"type": "Point", "coordinates": [-78.87215423584, 33.702415466309]}},
{"type": "Feature", "id": "CO0ytNzA_5WPGBggNe6POulCTGA=", "properties": {"ref": "https://www.fuddruckers.com/frisco-kitchen-united-mix", "@spider": "fuddruckers", "amenity": "restaurant", "cuisine": "burger", "addr:street_address": "9506 State Highway 121", "addr:city": "Frisco", "addr:state": "TX", "addr:postcode": "75035", "name": "Frisco Kitchen United Mix", "website": "https://www.fuddruckers.com/frisco-kitchen-united-mix", "brand": "Fuddruckers", "brand:wikidata": "Q5507056", "nsi_id": "fuddruckers-2fabb0"}, "geometry": {"type": "Point", "coordinates": [-96.800666809082, 33.100337982178]}},
{"type": "Feature", "id": "aOoyZI1TqF_RkMHM89AOj0yON2U=", "properties": {"ref": "https://www.fuddruckers.com/fuddruckers-austin-at-kitchen-united-mix", "@spider": "fuddruckers", "amenity": "restaurant", "cuisine": "burger", "addr:street_address": "8023 Burnett Road", "addr:city": "Austin", "addr:state": "TX", "addr:postcode": "78757", "name": "Austin at Kitchen United Mix", "website": "https://www.fuddruckers.com/fuddruckers-austin-at-kitchen-united-mix", "brand": "Fuddruckers", "brand:wikidata": "Q5507056", "nsi_id": "fuddruckers-2fabb0"}, "geometry": {"type": "Point", "coordinates": [-97.729507446289, 30.359098434448]}},
{"type": "Feature", "id": "DfunN0mViA5rpFoIiEBxS0KCViE=", "properties": {"ref": "https://www.fuddruckers.com/houston-the-heights-in-kitchen-united-mix-kroger", "@spider": "fuddruckers", "amenity": "restaurant", "cuisine": "burger", "addr:street_address": "1035 N. Shepherd Drive", "addr:city": "Houston", "addr:state": "TX", "addr:postcode": "77008", "name": "Houston The Heights \u2013 Kitchen United Mix Kroger", "website": "https://www.fuddruckers.com/houston-the-heights-in-kitchen-united-mix-kroger", "brand": "Fuddruckers", "brand:wikidata": "Q5507056", "nsi_id": "fuddruckers-2fabb0"}, "geometry": {"type": "Point", "coordinates": [-95.4111328125, 29.789319992065]}},
{"type": "Feature", "id": "ZVH4T0IvRQfYmqJNn4moHXcOQys=", "properties": {"ref": "https://www.fuddruckers.com/virginia-beach", "@spider": "fuddruckers", "amenity": "restaurant", "cuisine": "burger", "addr:street_address": "1784 General Booth Blvd", "addr:city": "Virginia Beach", "addr:state": "VA", "addr:postcode": "23454", "name": "Virginia Beach", "phone": "7577972300", "website": "https://www.fuddruckers.com/virginia-beach", "brand": "Fuddruckers", "brand:wikidata": "Q5507056", "nsi_id": "fuddruckers-2fabb0"}, "geometry": {"type": "Point", "coordinates": [-76.002059936523, 36.779373168945]}},
{"type": "Feature", "id": "CReqkyNmG1qqvYn8Kzr6WJ34TMM=", "properties": {"ref": "https://www.fuddruckers.com/fitz-tunica-casino", "@spider": "fuddruckers", "amenity": "restaurant", "cuisine": "burger", "addr:street_address": "711 Lucky Ln", "addr:city": "Robinsonville", "addr:state": "MS", "addr:postcode": "38664", "name": "Fitz Tunica Casino", "phone": "662-363-5825", "website": "https://www.fuddruckers.com/fitz-tunica-casino", "brand": "Fuddruckers", "brand:wikidata": "Q5507056", "nsi_id": "fuddruckers-2fabb0"}, "geometry": {"type": "Point", "coordinates": [-90.358772277832, 34.840766906738]}},
{"type": "Feature", "id": "6D0pi5YPhGKvIx6bb_S5Rhz9Ogs=", "properties": {"ref": "https://www.fuddruckers.com/ta-savannah", "@spider": "fuddruckers", "amenity": "restaurant", "cuisine": "burger", "addr:street_address": "4401 Hwy. 17", "addr:city": "Richmond Hill", "addr:state": "GA", "addr:postcode": "31324-0280", "name": "TA Savannah", "phone": "(912) 756-3381", "website": "https://www.fuddruckers.com/ta-savannah", "brand": "Fuddruckers", "brand:wikidata": "Q5507056", "nsi_id": "fuddruckers-2fabb0"}, "geometry": {"type": "Point", "coordinates": [-81.332916259766, 31.924736022949]}},
{"type": "Feature", "id": "5fPrwnMC-JgTQWHk4zFMAy_kPp4=", "properties": {"ref": "https://www.fuddruckers.com/lancaster", "@spider": "fuddruckers", "amenity": "restaurant", "cuisine": "burger", "addr:street_address": "100 Rohrerstown Rd, Suite 6B", "addr:city": "Lancaster", "addr:state": "PA", "addr:postcode": "17603", "name": "Lancaster", "phone": "717-874-4905", "website": "https://www.fuddruckers.com/lancaster", "brand": "Fuddruckers", "brand:wikidata": "Q5507056", "nsi_id": "fuddruckers-2fabb0"}, "geometry": {"type": "Point", "coordinates": [-76.363403320312, 40.044467926025]}},
{"type": "Feature", "id": "o-m39xvPDxpU1M3oqf6lspDjbvM=", "properties": {"ref": "https://www.fuddruckers.com/creekside", "@spider": "fuddruckers", "amenity": "restaurant", "cuisine": "burger", "addr:street_address": "8510 Creekside Forest Dr, E-200", "addr:city": "Tomball", "addr:state": "TX", "addr:postcode": "77375", "name": "Creekside", "phone": "832-534-4350", "website": "https://www.fuddruckers.com/creekside", "brand": "Fuddruckers", "brand:wikidata": "Q5507056", "nsi_id": "fuddruckers-2fabb0"}, "geometry": {"type": "Point", "coordinates": [-95.548812866211, 30.145879745483]}},
{"type": "Feature", "id": "x9ObfE4S1rzeL6cU57VqhApiQNs=", "properties": {"ref": "https://www.fuddruckers.com/sparks-travel-centers", "@spider": "fuddruckers", "amenity": "restaurant", "cuisine": "burger", "addr:street_address": "200 North McCarran", "addr:city": "Sparks", "addr:state": "NV", "addr:postcode": "89431-5419", "name": "Sparks - Travel Centers", "phone": "(775) 359-0550", "website": "https://www.fuddruckers.com/sparks-travel-centers", "brand": "Fuddruckers", "brand:wikidata": "Q5507056", "nsi_id": "fuddruckers-2fabb0"}, "geometry": {"type": "Point", "coordinates": [-119.736221313477, 39.534812927246]}},
{"type": "Feature", "id": "gkBsuo7Kp2I0iDwObcqXyKXhTMU=", "properties": {"ref": "https://www.fuddruckers.com/regina", "@spider": "fuddruckers", "amenity": "restaurant", "cuisine": "burger", "addr:street_address": "2540 Victoria Ave E, North Service Rd", "addr:city": "Regina", "addr:state": "SK", "addr:postcode": "S4N 6M5", "name": "Regina", "phone": "306-586-3833", "website": "https://www.fuddruckers.com/regina", "brand": "Fuddruckers", "brand:wikidata": "Q5507056", "nsi_id": "fuddruckers-2fabb0"}, "geometry": {"type": "Point", "coordinates": [-104.547241210938, 50.448234558105]}},
{"type": "Feature", "id": "ZvTx9te8eIFTQD_QEnRfh4ykHMQ=", "properties": {"ref": "https://www.fuddruckers.com/duncan-sc", "@spider": "fuddruckers", "amenity": "restaurant", "cuisine": "burger", "addr:street_address": "1515 E. Main St.", "addr:city": "Duncan", "addr:state": "SC", "addr:postcode": "29334", "name": "Duncan, SC", "phone": "864-249-3656", "website": "https://www.fuddruckers.com/duncan-sc", "brand": "Fuddruckers", "brand:wikidata": "Q5507056", "nsi_id": "fuddruckers-2fabb0"}, "geometry": {"type": "Point", "coordinates": [-82.1044921875, 34.912349700928]}},
{"type": "Feature", "id": "wKlHC-274nyxSmKaY9C35tg_msg=", "properties": {"ref": "https://www.fuddruckers.com/manheim", "@spider": "fuddruckers", "amenity": "restaurant", "cuisine": "burger", "addr:street_address": "2001 Strickler Rd, Ste B", "addr:city": "Manheim", "addr:state": "PA", "addr:postcode": "17545", "name": "Manheim", "phone": "717-492-4624", "website": "https://www.fuddruckers.com/manheim", "brand": "Fuddruckers", "brand:wikidata": "Q5507056", "nsi_id": "fuddruckers-2fabb0"}, "geometry": {"type": "Point", "coordinates": [-76.450462341309, 40.11319732666]}},
{"type": "Feature", "id": "fVU3GXZvnjekFtcrIbIaRzDEDcY=", "properties": {"ref": "https://www.fuddruckers.com/merida", "@spider": "fuddruckers", "amenity": "restaurant", "cuisine": "burger", "addr:street_address": "Plaza Altabrisa Calle 7 451, Residencial Montecristo", "addr:city": "Merida", "addr:state": "YU", "addr:postcode": "97133", "name": "Merida", "phone": "999-406-0413", "website": "https://www.fuddruckers.com/merida", "brand": "Fuddruckers", "brand:wikidata": "Q5507056", "nsi_id": "fuddruckers-2fabb0"}, "geometry": {"type": "Point", "coordinates": [-89.584419250488, 21.018045425415]}},
{"type": "Feature", "id": "LqgZFDdFkGWF6i2NVDEpz7p_sxo=", "properties": {"ref": "https://www.fuddruckers.com/panama-planta-baja", "@spider": "fuddruckers", "amenity": "restaurant", "cuisine": "burger", "addr:street_address": "Entrada Norte Centro Comercial Metromall Av Do, Planta Baja", "addr:city": "Panama", "addr:state": "PA", "addr:postcode": "N/A", "name": "Panama City - Metromall", "phone": "(507) 203-5800", "website": "https://www.fuddruckers.com/panama-planta-baja", "brand": "Fuddruckers", "brand:wikidata": "Q5507056", "nsi_id": "fuddruckers-2fabb0"}, "geometry": {"type": "Point", "coordinates": [-79.46085357666, 9.048509597778]}},
{"type": "Feature", "id": "HsJ3J7eQvIUY6kvTYAe_0YGXoY8=", "properties": {"ref": "https://www.fuddruckers.com/palmetto-bay", "@spider": "fuddruckers", "amenity": "restaurant", "cuisine": "burger", "addr:street_address": "14875 South Dixie Hwy", "addr:city": "Palmetto Bay", "addr:state": "FL", "addr:postcode": "33176", "name": "Palmetto Bay", "phone": "(305) 238-5680", "website": "https://www.fuddruckers.com/palmetto-bay", "brand": "Fuddruckers", "brand:wikidata": "Q5507056", "nsi_id": "fuddruckers-2fabb0"}, "geometry": {"type": "Point", "coordinates": [-80.339736938477, 25.63151550293]}},
{"type": "Feature", "id": "RJbQGJqTcS0bD8sXC3gjpO8pfho=", "properties": {"ref": "https://www.fuddruckers.com/farmington", "@spider": "fuddruckers", "amenity": "restaurant", "cuisine": "burger", "addr:street_address": "4601 E Main St", "addr:city": "Farmington", "addr:state": "NM", "addr:postcode": "87402", "name": "Farmington", "phone": "(505) 326-2089", "website": "https://www.fuddruckers.com/farmington", "brand": "Fuddruckers", "brand:wikidata": "Q5507056", "nsi_id": "fuddruckers-2fabb0"}, "geometry": {"type": "Point", "coordinates": [-108.151779174805, 36.764553070068]}},
{"type": "Feature", "id": "olTVhGP5Dfh3eYdtqHbECIVpkxc=", "properties": {"ref": "https://www.fuddruckers.com/houston-copperfield", "@spider": "fuddruckers", "amenity": "restaurant", "cuisine": "burger", "addr:street_address": "7250 Hwy 6 North", "addr:city": "Houston", "addr:state": "TX", "addr:postcode": "77095", "name": "Houston Copperfield", "phone": "(281) 550-5100", "website": "https://www.fuddruckers.com/houston-copperfield", "brand": "Fuddruckers", "brand:wikidata": "Q5507056", "nsi_id": "fuddruckers-2fabb0"}, "geometry": {"type": "Point", "coordinates": [-95.644233703613, 29.883792877197]}},
{"type": "Feature", "id": "HqvDkQTeFdHpKHHtKZnUHCTmo1g=", "properties": {"ref": "https://www.fuddruckers.com/houston-south-macgregor", "@spider": "fuddruckers", "amenity": "restaurant", "cuisine": "burger", "addr:street_address": "2400 B South MacGregor Way", "addr:city": "Houston", "addr:state": "TX", "addr:postcode": "77021", "name": "Houston South MacGregor", "phone": "(713) 588-1377", "website": "https://www.fuddruckers.com/houston-south-macgregor", "brand": "Fuddruckers", "brand:wikidata": "Q5507056", "nsi_id": "fuddruckers-2fabb0"}, "geometry": {"type": "Point", "coordinates": [-95.381134033203, 29.712068557739]}},
{"type": "Feature", "id": "yPz8axonmbzt1xdMWvUq5y9dmdM=", "properties": {"ref": "https://www.fuddruckers.com/woodbridge", "@spider": "fuddruckers", "amenity": "restaurant", "cuisine": "burger", "addr:street_address": "14000 Foulger Square", "addr:city": "Woodbridge", "addr:state": "VA", "addr:postcode": "22192", "name": "Woodbridge", "phone": "(571) 659-6284", "website": "https://www.fuddruckers.com/woodbridge", "brand": "Fuddruckers", "brand:wikidata": "Q5507056", "nsi_id": "fuddruckers-2fabb0"}, "geometry": {"type": "Point", "coordinates": [-77.305320739746, 38.654491424561]}},
{"type": "Feature", "id": "1ALTSwLsDZEU-e-0i-8G-ewg0bU=", "properties": {"ref": "https://www.fuddruckers.com/nrg-stadium", "@spider": "fuddruckers", "amenity": "restaurant", "cuisine": "burger", "addr:street_address": "NRG Parkway", "addr:city": "Houston", "addr:state": "TX", "addr:postcode": "77054", "name": "NRG Stadium", "website": "https://www.fuddruckers.com/nrg-stadium", "brand": "Fuddruckers", "brand:wikidata": "Q5507056", "nsi_id": "fuddruckers-2fabb0"}, "geometry": {"type": "Point", "coordinates": [-95.407745361328, 29.686416625977]}},
{"type": "Feature", "id": "vwcpDyVy1kVglaEtM4853dp0jeY=", "properties": {"ref": "https://www.fuddruckers.com/ashland", "@spider": "fuddruckers", "amenity": "restaurant", "cuisine": "burger", "addr:street_address": "100 North Carter Rd", "addr:city": "Ashland", "addr:state": "VA", "addr:postcode": "23005", "name": "Ashland", "phone": "(804) 798-6011", "website": "https://www.fuddruckers.com/ashland", "brand": "Fuddruckers", "brand:wikidata": "Q5507056", "nsi_id": "fuddruckers-2fabb0"}, "geometry": {"type": "Point", "coordinates": [-77.462875366211, 37.760364532471]}},
{"type": "Feature", "id": "vVgGZqcRhL_MNUlOWok83bR0rhQ=", "properties": {"ref": "https://www.fuddruckers.com/commerce", "@spider": "fuddruckers", "amenity": "restaurant", "cuisine": "burger", "addr:street_address": "30732 Highway 441 South", "addr:city": "Commerce", "addr:state": "GA", "addr:postcode": "30529", "name": "Commerce", "phone": "(706) 335-4920", "website": "https://www.fuddruckers.com/commerce", "brand": "Fuddruckers", "brand:wikidata": "Q5507056", "nsi_id": "fuddruckers-2fabb0"}, "geometry": {"type": "Point", "coordinates": [-83.463310241699, 34.252838134766]}},
{"type": "Feature", "id": "vK5vTrAgWY3bBSIdYTcl5ysaMwI=", "properties": {"ref": "https://www.fuddruckers.com/odessa", "@spider": "fuddruckers", "amenity": "restaurant", "cuisine": "burger", "addr:street_address": "4101 E 42nd St", "addr:city": "Odessa", "addr:state": "TX", "addr:postcode": "79762", "name": "Odessa", "phone": "(432) 362-4330", "website": "https://www.fuddruckers.com/odessa", "brand": "Fuddruckers", "brand:wikidata": "Q5507056", "nsi_id": "fuddruckers-2fabb0"}, "geometry": {"type": "Point", "coordinates": [-102.340950012207, 31.893154144287]}},
{"type": "Feature", "id": "L6ONs3xWbyMiTDwwwLeqnCUVp80=", "properties": {"ref": "https://www.fuddruckers.com/las-vegas-orleans-casino", "@spider": "fuddruckers", "amenity": "restaurant", "cuisine": "burger", "addr:street_address": "Orleans Casino 423, Food Court, 4500 W Tropicana", "addr:city": "Las Vegas", "addr:state": "NV", "addr:postcode": "89103", "name": "Las Vegas Orleans Casino", "phone": "(702) 256-3833", "website": "https://www.fuddruckers.com/las-vegas-orleans-casino", "brand": "Fuddruckers", "brand:wikidata": "Q5507056", "nsi_id": "fuddruckers-2fabb0"}, "geometry": {"type": "Point", "coordinates": [-115.206703186035, 36.110412597656]}},
{"type": "Feature", "id": "4UpIzczTtS9HlSAZo4uBnGm2-is=", "properties": {"ref": "https://www.fuddruckers.com/harrahs-bossier-city", "@spider": "fuddruckers", "amenity": "restaurant", "cuisine": "burger", "addr:street_address": "8000 E Texas Rd", "addr:city": "Bossier City", "addr:state": "LA", "addr:postcode": "71111", "name": "Bossier City Harrahs", "phone": "(318) 742-8158", "website": "https://www.fuddruckers.com/harrahs-bossier-city", "brand": "Fuddruckers", "brand:wikidata": "Q5507056", "nsi_id": "fuddruckers-2fabb0"}, "geometry": {"type": "Point", "coordinates": [-93.629745483398, 32.549877166748]}},
{"type": "Feature", "id": "rKlp1GJ5DjCg9Fw8dA_9qr-ooAA=", "properties": {"ref": "https://www.fuddruckers.com/pembroke-pines", "@spider": "fuddruckers", "amenity": "restaurant", "cuisine": "burger", "addr:street_address": "14532 SW 5th St", "addr:city": "Pembroke Pines", "addr:state": "FL", "addr:postcode": "33027", "name": "Pembroke Pines", "phone": "(954) 436-9011", "website": "https://www.fuddruckers.com/pembroke-pines", "brand": "Fuddruckers", "brand:wikidata": "Q5507056", "nsi_id": "fuddruckers-2fabb0"}, "geometry": {"type": "Point", "coordinates": [-80.341926574707, 26.003917694092]}},
{"type": "Feature", "id": "k9kwDA4VyhFheeH4_SL9gVBMgxc=", "properties": {"ref": "https://www.fuddruckers.com/hialeah", "@spider": "fuddruckers", "amenity": "restaurant", "cuisine": "burger", "addr:street_address": "1645 W. 49th Street, Space 1304", "addr:city": "Hialeah", "addr:state": "FL", "addr:postcode": "33012", "name": "Hialeah", "phone": "(305) 557-8020", "website": "https://www.fuddruckers.com/hialeah", "brand": "Fuddruckers", "brand:wikidata": "Q5507056", "nsi_id": "fuddruckers-2fabb0"}, "geometry": {"type": "Point", "coordinates": [-80.304595947266, 25.864120483398]}},
{"type": "Feature", "id": "fnU7KCU39Ys_J5aklffQwO8GETc=", "properties": {"ref": "https://www.fuddruckers.com/boardwalk", "@spider": "fuddruckers", "amenity": "restaurant", "cuisine": "burger", "addr:street_address": "330 Plaza Loop", "addr:city": "Bossier City", "addr:state": "LA", "addr:postcode": "71111", "name": "Bossier City Boardwalk", "phone": "(318) 742-0324", "website": "https://www.fuddruckers.com/boardwalk", "brand": "Fuddruckers", "brand:wikidata": "Q5507056", "nsi_id": "fuddruckers-2fabb0"}, "geometry": {"type": "Point", "coordinates": [-93.713279724121, 32.519157409668]}},
{"type": "Feature", "id": "ILSYzHNWwIOY96Xh_1sfJ1i52Bc=", "properties": {"ref": "https://www.fuddruckers.com/york", "@spider": "fuddruckers", "amenity": "restaurant", "cuisine": "burger", "addr:street_address": "2300 E Market St", "addr:city": "York", "addr:state": "PA", "addr:postcode": "17402", "name": "York", "phone": "(717) 718-8070", "website": "https://www.fuddruckers.com/york", "brand": "Fuddruckers", "brand:wikidata": "Q5507056", "nsi_id": "fuddruckers-2fabb0"}, "geometry": {"type": "Point", "coordinates": [-76.681488037109, 39.973133087158]}},
{"type": "Feature", "id": "wDE2_WuSVGi2Zk8Cf49BR7Uhu-E=", "properties": {"ref": "https://www.fuddruckers.com/ashburn", "@spider": "fuddruckers", "amenity": "restaurant", "cuisine": "burger", "addr:street_address": "44036 Pipeline Plaza", "addr:city": "Ashburn", "addr:state": "VA", "addr:postcode": "20147", "name": "Ashburn", "phone": "(703) 724-0990", "website": "https://www.fuddruckers.com/ashburn", "brand": "Fuddruckers", "brand:wikidata": "Q5507056", "nsi_id": "fuddruckers-2fabb0"}, "geometry": {"type": "Point", "coordinates": [-77.477012634277, 39.022106170654]}},
{"type": "Feature", "id": "9GNkDmFJKjlkIIpezhh-W1FhBhY=", "properties": {"ref": "https://www.fuddruckers.com/roxbury", "@spider": "fuddruckers", "amenity": "restaurant", "cuisine": "burger", "addr:street_address": "275 Rt 10", "addr:city": "Succasunna", "addr:state": "NJ", "addr:postcode": "07876", "name": "Roxbury", "phone": "(973) 927-6966", "website": "https://www.fuddruckers.com/roxbury", "brand": "Fuddruckers", "brand:wikidata": "Q5507056", "nsi_id": "fuddruckers-2fabb0"}, "geometry": {"type": "Point", "coordinates": [-74.64672088623, 40.870422363281]}},
{"type": "Feature", "id": "2OrWowMpIGt9t2bT8TxRyfbuakM=", "properties": {"ref": "https://www.fuddruckers.com/chambersburg", "@spider": "fuddruckers", "amenity": "restaurant", "cuisine": "burger", "addr:street_address": "442 Gateway Ave", "addr:city": "Chambersburg", "addr:state": "PA", "addr:postcode": "17201", "name": "Chambersburg", "phone": "(717) 263-9011", "website": "https://www.fuddruckers.com/chambersburg", "brand": "Fuddruckers", "brand:wikidata": "Q5507056", "nsi_id": "fuddruckers-2fabb0"}, "geometry": {"type": "Point", "coordinates": [-77.632972717285, 39.935684204102]}},
{"type": "Feature", "id": "L6o4nhPlPxcdoXq1LolmOxO3564=", "properties": {"ref": "https://www.fuddruckers.com/mashantucket-foxswoods-casino", "@spider": "fuddruckers", "amenity": "restaurant", "cuisine": "burger", "addr:street_address": "39 Norwich Westerly Rd", "addr:city": "Mashantucket", "addr:state": "CT", "addr:postcode": "06338", "name": "Mashantucket Foxwoods Casino", "phone": "(860) 312-3000 x35063", "website": "https://www.fuddruckers.com/mashantucket-foxswoods-casino", "brand": "Fuddruckers", "brand:wikidata": "Q5507056", "nsi_id": "fuddruckers-2fabb0"}, "geometry": {"type": "Point", "coordinates": [-71.959999084473, 41.479999542236]}},
{"type": "Feature", "id": "2sU-pZSkfJ3mmHZWkaaCUYJcy6w=", "properties": {"ref": "https://www.fuddruckers.com/reading", "@spider": "fuddruckers", "amenity": "restaurant", "cuisine": "burger", "addr:street_address": "50 Walkers Brook Dr", "addr:city": "Reading", "addr:state": "MA", "addr:postcode": "01867", "name": "Reading", "phone": "(781) 942-4891", "website": "https://www.fuddruckers.com/reading", "brand": "Fuddruckers", "brand:wikidata": "Q5507056", "nsi_id": "fuddruckers-2fabb0"}, "geometry": {"type": "Point", "coordinates": [-71.090759277344, 42.519901275635]}},
{"type": "Feature", "id": "ODcbz1WSow-fPe9eODLNHQvrc0g=", "properties": {"ref": "https://www.fuddruckers.com/kansas-city", "@spider": "fuddruckers", "amenity": "restaurant", "cuisine": "burger", "addr:street_address": "1705 Village West Pkwy", "addr:city": "Kansas City", "addr:state": "KS", "addr:postcode": "66111", "name": "Kansas City", "phone": "(913) 334-4500", "website": "https://www.fuddruckers.com/kansas-city", "brand": "Fuddruckers", "brand:wikidata": "Q5507056", "nsi_id": "fuddruckers-2fabb0"}, "geometry": {"type": "Point", "coordinates": [-94.825942993164, 39.124599456787]}},
{"type": "Feature", "id": "4LXn-SXESEY8DVwZV3jrKVcBL4Y=", "properties": {"ref": "https://www.fuddruckers.com/eagle-pass", "@spider": "fuddruckers", "amenity": "restaurant", "cuisine": "burger", "addr:street_address": "406 S Bibb Ave", "addr:city": "Eagle Pass", "addr:state": "TX", "addr:postcode": "78853", "name": "Eagle Pass", "phone": "(830) 773-3177", "website": "https://www.fuddruckers.com/eagle-pass", "brand": "Fuddruckers", "brand:wikidata": "Q5507056", "nsi_id": "fuddruckers-2fabb0"}, "geometry": {"type": "Point", "coordinates": [-100.48274230957, 28.704959869385]}},
{"type": "Feature", "id": "RPKr4cbq03zlkTP8D-fKwq9ge2s=", "properties": {"ref": "https://www.fuddruckers.com/taylors-greer", "@spider": "fuddruckers", "amenity": "restaurant", "cuisine": "burger", "addr:street_address": "6100 Wade Hampton Blvd", "addr:city": "Taylors", "addr:state": "SC", "addr:postcode": "29687", "name": "Taylors Greer", "phone": "(864) 877-5554", "website": "https://www.fuddruckers.com/taylors-greer", "brand": "Fuddruckers", "brand:wikidata": "Q5507056", "nsi_id": "fuddruckers-2fabb0"}, "geometry": {"type": "Point", "coordinates": [-82.275718688965, 34.935508728027]}},
{"type": "Feature", "id": "PCFUllIhkwF8Xf3YYxn99AKI35o=", "properties": {"ref": "https://www.fuddruckers.com/corpus-christi", "@spider": "fuddruckers", "amenity": "restaurant", "cuisine": "burger", "addr:street_address": "1949 South Padre Island Dr", "addr:city": "Corpus Christi", "addr:state": "TX", "addr:postcode": "78416", "name": "Corpus Christi", "phone": "(361) 857-0808", "website": "https://www.fuddruckers.com/corpus-christi", "brand": "Fuddruckers", "brand:wikidata": "Q5507056", "nsi_id": "fuddruckers-2fabb0"}, "geometry": {"type": "Point", "coordinates": [-97.43586730957, 27.738208770752]}},
{"type": "Feature", "id": "ghx2EQezgBoZHP8PtvQuGGRVnP4=", "properties": {"ref": "https://www.fuddruckers.com/branson", "@spider": "fuddruckers", "amenity": "restaurant", "cuisine": "burger", "addr:street_address": "1615 Hwy 76, Bldg A", "addr:city": "Branson", "addr:state": "MO", "addr:postcode": "65616", "name": "Branson", "phone": "(417) 334-6666", "website": "https://www.fuddruckers.com/branson", "brand": "Fuddruckers", "brand:wikidata": "Q5507056", "nsi_id": "fuddruckers-2fabb0"}, "geometry": {"type": "Point", "coordinates": [-93.248229980469, 36.642711639404]}},
{"type": "Feature", "id": "W8ZRENLSjHPVwlSS0slCPLaMmsQ=", "properties": {"ref": "https://www.fuddruckers.com/new-orleans", "@spider": "fuddruckers", "amenity": "restaurant", "cuisine": "burger", "addr:street_address": "4 Canal St", "addr:city": "New Orleans", "addr:state": "LA", "addr:postcode": "70130", "name": "New Orleans", "phone": "(504) 589-0090", "website": "https://www.fuddruckers.com/new-orleans", "brand": "Fuddruckers", "brand:wikidata": "Q5507056", "nsi_id": "fuddruckers-2fabb0"}, "geometry": {"type": "Point", "coordinates": [-90.064315795898, 29.949777603149]}},
{"type": "Feature", "id": "U4MUD4iIP4VaDWCOGIbguWSxYlw=", "properties": {"ref": "https://www.fuddruckers.com/miami-doral", "@spider": "fuddruckers", "amenity": "restaurant", "cuisine": "burger", "addr:street_address": "10680 NW 19th St", "addr:city": "Miami", "addr:state": "FL", "addr:postcode": "33172", "name": "Miami Doral", "phone": "(305) 591-4050", "website": "https://www.fuddruckers.com/miami-doral", "brand": "Fuddruckers", "brand:wikidata": "Q5507056", "nsi_id": "fuddruckers-2fabb0"}, "geometry": {"type": "Point", "coordinates": [-80.334457397461, 25.792839050293]}},
{"type": "Feature", "id": "_38yII_9Y0P6QJ8BhWIWjmgBbrQ=", "properties": {"ref": "https://www.fuddruckers.com/anderson", "@spider": "fuddruckers", "amenity": "restaurant", "cuisine": "burger", "addr:street_address": "100 Destination Blvd", "addr:city": "Anderson", "addr:state": "SC", "addr:postcode": "29621", "name": "Anderson", "phone": "(864) 222-0145", "website": "https://www.fuddruckers.com/anderson", "brand": "Fuddruckers", "brand:wikidata": "Q5507056", "nsi_id": "fuddruckers-2fabb0"}, "geometry": {"type": "Point", "coordinates": [-82.708969116211, 34.570899963379]}},
{"type": "Feature", "id": "twg3idBasx9WYgVw-Ae9TT3JMGA=", "properties": {"ref": "https://www.fuddruckers.com/lubbock", "@spider": "fuddruckers", "amenity": "restaurant", "cuisine": "burger", "addr:street_address": "5501 Slide Rd", "addr:city": "Lubbock", "addr:state": "TX", "addr:postcode": "79414", "name": "Lubbock", "phone": "(806) 687-3833", "website": "https://www.fuddruckers.com/lubbock", "brand": "Fuddruckers", "brand:wikidata": "Q5507056", "nsi_id": "fuddruckers-2fabb0"}, "geometry": {"type": "Point", "coordinates": [-101.921783447266, 33.543975830078]}},
{"type": "Feature", "id": "JbyOUiMQosE3C2Nt_eE0F-kXg2w=", "properties": {"ref": "https://www.fuddruckers.com/albuquerque-menaul", "@spider": "fuddruckers", "amenity": "restaurant", "cuisine": "burger", "addr:street_address": "6600 Menaul NE, Suite N1A", "addr:city": "Albuquerque", "addr:state": "NM", "addr:postcode": "87110", "name": "Albuquerque Menaul", "phone": "(505) 883-8337", "website": "https://www.fuddruckers.com/albuquerque-menaul", "brand": "Fuddruckers", "brand:wikidata": "Q5507056", "nsi_id": "fuddruckers-2fabb0"}, "geometry": {"type": "Point", "coordinates": [-106.570190429688, 35.10099029541]}},
{"type": "Feature", "id": "dJwohipY_PPIpjhNEdd1hVU7NNg=", "properties": {"ref": "https://www.fuddruckers.com/southfield", "@spider": "fuddruckers", "amenity": "restaurant", "cuisine": "burger", "addr:street_address": "25309 Evergreen Rd", "addr:city": "Southfield", "addr:state": "MI", "addr:postcode": "48075", "name": "Southfield", "phone": "(248) 809-6714", "website": "https://www.fuddruckers.com/southfield", "brand": "Fuddruckers", "brand:wikidata": "Q5507056", "nsi_id": "fuddruckers-2fabb0"}, "geometry": {"type": "Point", "coordinates": [-83.241539001465, 42.475555419922]}},
{"type": "Feature", "id": "kRFJ3Qyrd9RcPJhMYar4eM97sYA=", "properties": {"ref": "https://www.fuddruckers.com/albuquerque-yale-blvd", "@spider": "fuddruckers", "amenity": "restaurant", "cuisine": "burger", "addr:street_address": "2120 Yale Blvd SE", "addr:city": "Albuquerque", "addr:state": "NM", "addr:postcode": "87106", "name": "Albuquerque Yale Blvd", "phone": "(505) 224-2841", "website": "https://www.fuddruckers.com/albuquerque-yale-blvd", "brand": "Fuddruckers", "brand:wikidata": "Q5507056", "nsi_id": "fuddruckers-2fabb0"}, "geometry": {"type": "Point", "coordinates": [-106.621688842773, 35.057605743408]}},
{"type": "Feature", "id": "dtBZVXrVJP4Ae1xzpdmzyPJdlOM=", "properties": {"ref": "https://www.fuddruckers.com/myrtle-beach-briarcliffe", "@spider": "fuddruckers", "amenity": "restaurant", "cuisine": "burger", "addr:street_address": "10435 N King's Hwy", "addr:city": "Myrtle Beach", "addr:state": "SC", "addr:postcode": "29572", "name": "Myrtle Beach Briarcliffe", "phone": "(843) 272-8637", "website": "https://www.fuddruckers.com/myrtle-beach-briarcliffe", "brand": "Fuddruckers", "brand:wikidata": "Q5507056", "nsi_id": "fuddruckers-2fabb0"}, "geometry": {"type": "Point", "coordinates": [-78.749481201172, 33.795585632324]}},
{"type": "Feature", "id": "AeblZmZKnglRgZ2fABpFvcUaAFI=", "properties": {"ref": "https://www.fuddruckers.com/hummelstown", "@spider": "fuddruckers", "amenity": "restaurant", "cuisine": "burger", "addr:street_address": "Hershey, 1221 West Chocolate", "addr:city": "Hummelstown", "addr:state": "PA", "addr:postcode": "17036", "name": "Hummelstown", "phone": "(717) 533-5446", "website": "https://www.fuddruckers.com/hummelstown", "brand": "Fuddruckers", "brand:wikidata": "Q5507056", "nsi_id": "fuddruckers-2fabb0"}, "geometry": {"type": "Point", "coordinates": [-76.683288574219, 40.267978668213]}},
{"type": "Feature", "id": "D9ZG4Czn2ii4eQ-FPXFSrDSkVyA=", "properties": {"ref": "https://www.fuddruckers.com/great-falls", "@spider": "fuddruckers", "amenity": "restaurant", "cuisine": "burger", "addr:street_address": "3315 10th Ave South", "addr:city": "Great Falls", "addr:state": "MT", "addr:postcode": "59405", "name": "Great Falls", "phone": "(406) 727-6988", "website": "https://www.fuddruckers.com/great-falls", "brand": "Fuddruckers", "brand:wikidata": "Q5507056", "nsi_id": "fuddruckers-2fabb0"}, "geometry": {"type": "Point", "coordinates": [-111.249130249023, 47.494365692139]}},
{"type": "Feature", "id": "fW35aot3zQqh2C9xQzXTzZCegXE=", "properties": {"ref": "https://www.fuddruckers.com/albuquerque-pan-american-freweay", "@spider": "fuddruckers", "amenity": "restaurant", "cuisine": "burger", "addr:street_address": "4855 Pan American Freeway", "addr:city": "Albuquerque", "addr:state": "NM", "addr:postcode": "87109", "name": "Albuquerque Pan American Freeway", "phone": "(505) 344-7449", "website": "https://www.fuddruckers.com/albuquerque-pan-american-freweay", "brand": "Fuddruckers", "brand:wikidata": "Q5507056", "nsi_id": "fuddruckers-2fabb0"}, "geometry": {"type": "Point", "coordinates": [-106.604354858398, 35.136184692383]}},
{"type": "Feature", "id": "SYsYeBInNeR4v1hpYFJWT0l_G38=", "properties": {"ref": "https://www.fuddruckers.com/parsippany", "@spider": "fuddruckers", "amenity": "restaurant", "cuisine": "burger", "addr:street_address": "3159 Route 46 E", "addr:city": "Parsippany", "addr:state": "NJ", "addr:postcode": "07054", "name": "Parsippany", "phone": "(973) 334-2424", "website": "https://www.fuddruckers.com/parsippany", "brand": "Fuddruckers", "brand:wikidata": "Q5507056", "nsi_id": "fuddruckers-2fabb0"}, "geometry": {"type": "Point", "coordinates": [-74.428039550781, 40.87230682373]}},
{"type": "Feature", "id": "yfWZaxmZ0Q1YzeIZQxPsntCDJho=", "properties": {"ref": "https://www.fuddruckers.com/greenville", "@spider": "fuddruckers", "amenity": "restaurant", "cuisine": "burger", "addr:street_address": "1147 Woodruff Rd", "addr:city": "Greenville", "addr:state": "SC", "addr:postcode": "29607", "name": "Greenville", "phone": "(864) 234-7528", "website": "https://www.fuddruckers.com/greenville", "brand": "Fuddruckers", "brand:wikidata": "Q5507056", "nsi_id": "fuddruckers-2fabb0"}, "geometry": {"type": "Point", "coordinates": [-82.293167114258, 34.825046539307]}},
{"type": "Feature", "id": "ur8gxAknPIWGX3ZI6YQPttJ-hyo=", "properties": {"ref": "https://www.fuddruckers.com/sioux-falls", "@spider": "fuddruckers", "amenity": "restaurant", "cuisine": "burger", "addr:street_address": "3101 West 41st St", "addr:city": "Sioux Falls", "addr:state": "SD", "addr:postcode": "57105", "name": "Sioux Falls", "phone": "(605) 336-6282", "website": "https://www.fuddruckers.com/sioux-falls", "brand": "Fuddruckers", "brand:wikidata": "Q5507056", "nsi_id": "fuddruckers-2fabb0"}, "geometry": {"type": "Point", "coordinates": [-96.764663696289, 43.514846801758]}},
{"type": "Feature", "id": "2ztnDG-8-lIp6Hs2HHBfDGHLP5U=", "properties": {"ref": "https://www.fuddruckers.com/concord", "@spider": "fuddruckers", "amenity": "restaurant", "cuisine": "burger", "addr:street_address": "1975 Diamond Blvd Suite E-260", "addr:city": "Concord", "addr:state": "CA", "addr:postcode": "94520", "name": "Concord", "phone": "(925) 825-1443", "website": "https://www.fuddruckers.com/concord", "brand": "Fuddruckers", "brand:wikidata": "Q5507056", "nsi_id": "fuddruckers-2fabb0"}, "geometry": {"type": "Point", "coordinates": [-122.057350158691, 37.968952178955]}},
{"type": "Feature", "id": "3IcjXksjzuJfIJaPKG7gR3XC6FA=", "properties": {"ref": "https://www.fuddruckers.com/saugus", "@spider": "fuddruckers", "amenity": "restaurant", "cuisine": "burger", "addr:street_address": "900 Broadway, Rte 1 North", "addr:city": "Saugus", "addr:state": "MA", "addr:postcode": "01906", "name": "Saugus", "phone": "(781) 233-6399", "website": "https://www.fuddruckers.com/saugus", "brand": "Fuddruckers", "brand:wikidata": "Q5507056", "nsi_id": "fuddruckers-2fabb0"}, "geometry": {"type": "Point", "coordinates": [-71.024963378906, 42.470611572266]}},
{"type": "Feature", "id": "TMSbLPh_CgpRgw70iNoCYM8E_gw=", "properties": {"ref": "https://www.fuddruckers.com/saint-louis-sunset-plaza", "@spider": "fuddruckers", "amenity": "restaurant", "cuisine": "burger", "addr:street_address": "10752 Sunset Plaza", "addr:city": "St. Louis", "addr:state": "MO", "addr:postcode": "63127", "name": "St. Louis Sunset Plaza", "phone": "(314) 966-3833", "website": "https://www.fuddruckers.com/saint-louis-sunset-plaza", "brand": "Fuddruckers", "brand:wikidata": "Q5507056", "nsi_id": "fuddruckers-2fabb0"}, "geometry": {"type": "Point", "coordinates": [-90.408508300781, 38.55472946167]}},
{"type": "Feature", "id": "xqD7ADnM5v5o2RaVN7oqr5yFjCk=", "properties": {"ref": "https://www.fuddruckers.com/miami-kendall-drive", "@spider": "fuddruckers", "amenity": "restaurant", "cuisine": "burger", "addr:street_address": "15400 Kendall Dr", "addr:city": "Miami", "addr:state": "FL", "addr:postcode": "33196", "name": "Miami Kendall", "phone": "(305) 380-8340", "website": "https://www.fuddruckers.com/miami-kendall-drive", "brand": "Fuddruckers", "brand:wikidata": "Q5507056", "nsi_id": "fuddruckers-2fabb0"}, "geometry": {"type": "Point", "coordinates": [-80.444557189941, 25.684341430664]}},
{"type": "Feature", "id": "ShaMML0QcrNJCQV1P67jEF-bSsI=", "properties": {"ref": "https://www.fuddruckers.com/saskatoon", "@spider": "fuddruckers", "amenity": "restaurant", "cuisine": "burger", "addr:street_address": "2910 8th Street E", "addr:city": "Saskatoon", "addr:state": "CA", "addr:postcode": "S7H 0W1", "name": "Saskatoon", "phone": "(306) 955-7777", "website": "https://www.fuddruckers.com/saskatoon", "brand": "Fuddruckers", "brand:wikidata": "Q5507056", "nsi_id": "fuddruckers-2fabb0"}, "geometry": {"type": "Point", "coordinates": [-106.612464904785, 52.114696502686]}},
{"type": "Feature", "id": "BGOJA4LaPnhsZ4Kl-ctmxPCVRIg=", "properties": {"ref": "https://www.fuddruckers.com/sterling-heights-van-dyke", "@spider": "fuddruckers", "amenity": "restaurant", "cuisine": "burger", "addr:street_address": "40955 Van Dyke", "addr:city": "Sterling Heights", "addr:state": "MI", "addr:postcode": "48313", "name": "Sterling Heights - Van Dyke", "phone": "(586) 977-7760", "website": "https://www.fuddruckers.com/sterling-heights-van-dyke", "brand": "Fuddruckers", "brand:wikidata": "Q5507056", "nsi_id": "fuddruckers-2fabb0"}, "geometry": {"type": "Point", "coordinates": [-83.030906677246, 42.594688415527]}},
{"type": "Feature", "id": "Oi7bbUDJwR7SKxBQrVEL4efjW-U=", "properties": {"ref": "https://www.fuddruckers.com/spartanburg", "@spider": "fuddruckers", "amenity": "restaurant", "cuisine": "burger", "addr:street_address": "1509 John B White Sr Blvd", "addr:city": "Spartanburg", "addr:state": "SC", "addr:postcode": "29301", "name": "Spartanburg", "phone": "(864) 576-8329", "website": "https://www.fuddruckers.com/spartanburg", "brand": "Fuddruckers", "brand:wikidata": "Q5507056", "nsi_id": "fuddruckers-2fabb0"}, "geometry": {"type": "Point", "coordinates": [-81.971702575684, 34.923110961914]}},
{"type": "Feature", "id": "1qRYTe5dt2OMh3nkKwoZ2Fbt9mg=", "properties": {"ref": "https://www.fuddruckers.com/midland", "@spider": "fuddruckers", "amenity": "restaurant", "cuisine": "burger", "addr:street_address": "4511 North Midkiff Rd #C-22", "addr:city": "Midland", "addr:state": "TX", "addr:postcode": "79705", "name": "Midland", "phone": "(432) 689-0448", "website": "https://www.fuddruckers.com/midland", "brand": "Fuddruckers", "brand:wikidata": "Q5507056", "nsi_id": "fuddruckers-2fabb0"}, "geometry": {"type": "Point", "coordinates": [-102.131004333496, 32.031108856201]}},
{"type": "Feature", "id": "ZBwv-lyvpJQ9SbVp3sBhUY7tlfY=", "properties": {"ref": "https://www.fuddruckers.com/waco", "@spider": "fuddruckers", "amenity": "restaurant", "cuisine": "burger", "addr:street_address": "1411-A N Valley Mills Dr", "addr:city": "Waco", "addr:state": "TX", "addr:postcode": "76710", "name": "Waco", "phone": "(254) 776-0961", "website": "https://www.fuddruckers.com/waco", "brand": "Fuddruckers", "brand:wikidata": "Q5507056", "nsi_id": "fuddruckers-2fabb0"}, "geometry": {"type": "Point", "coordinates": [-97.191497802734, 31.531784057617]}},
{"type": "Feature", "id": "XFfQP7h0wpwP9WQkIF0e4EfPKk0=", "properties": {"ref": "https://www.fuddruckers.com/billings-homestead", "@spider": "fuddruckers", "amenity": "restaurant", "cuisine": "burger", "addr:street_address": "Homestead Business Park, 2011 Overland Ave", "addr:city": "Billings", "addr:state": "MT", "addr:postcode": "59102", "name": "Billings Homestead", "phone": "(406) 656-5455", "website": "https://www.fuddruckers.com/billings-homestead", "brand": "Fuddruckers", "brand:wikidata": "Q5507056", "nsi_id": "fuddruckers-2fabb0"}, "geometry": {"type": "Point", "coordinates": [-108.565864562988, 45.752498626709]}},
{"type": "Feature", "id": "l0fbqrZjHXficWz3gJQv0zpbj9g=", "properties": {"ref": "https://www.fuddruckers.com/phoenix", "@spider": "fuddruckers", "amenity": "restaurant", "cuisine": "burger", "addr:street_address": "8941 North Black Canyon Hwy", "addr:city": "Phoenix", "addr:state": "AZ", "addr:postcode": "85021", "name": "Phoenix", "phone": "(602) 870-1111", "website": "https://www.fuddruckers.com/phoenix", "brand": "Fuddruckers", "brand:wikidata": "Q5507056", "nsi_id": "fuddruckers-2fabb0"}, "geometry": {"type": "Point", "coordinates": [-112.116249084473, 33.566989898682]}}]}