{"type":"FeatureCollection","features":[{"type": "Feature", "id": "ma-9hYkfDa6086WeFiuQqCtsc7Y=", "properties": {"ref": "leeds", "@spider": "furniture_village_gb", "shop": "furniture", "addr:street_address": "West Yorkshire Retail Park", "addr:city": "Leeds", "addr:state": "West Yorkshire", "addr:postcode": "WF17 9AD", "addr:country": "GB", "name": "Furniture Village Leeds", "phone": "01924 284400", "website": "https://www.furniturevillage.co.uk/stores/leeds.html", "contact:email": "fv.leeds@furniturevillage.co.uk", "brand": "Furniture Village", "brand:wikidata": "Q5509685", "nsi_id": "furniturevillage-5a41a5"}, "geometry": {"type": "Point", "coordinates": [-1.644827, 53.744059]}},
{"type": "Feature", "id": "jibaaOx_2wAC-9ZQFHYHnIF55OQ=", "properties": {"ref": "ipswich", "@spider": "furniture_village_gb", "shop": "furniture", "addr:street_address": "3 James Bennett Avenue", "addr:city": "Ipswich", "addr:state": "Suffolk", "addr:postcode": "IP3 9SR", "addr:country": "GB", "name": "Furniture Village Ipswich", "phone": "01473 558850", "website": "https://www.furniturevillage.co.uk/stores/ipswich.html", "contact:email": "fv.ipswich@furniturevillage.co.uk", "brand": "Furniture Village", "brand:wikidata": "Q5509685", "nsi_id": "furniturevillage-5a41a5"}, "geometry": {"type": "Point", "coordinates": [1.202623, 52.032984]}},
{"type": "Feature", "id": "2SNcBRMr8ygQXCd5944JfSNCFYE=", "properties": {"ref": "high-wycombe", "@spider": "furniture_village_gb", "shop": "furniture", "addr:street_address": "High Wycombe Retail Park", "addr:city": "High Wycombe", "addr:state": "Buckinghamshire", "addr:postcode": "HP11 1LP", "addr:country": "GB", "name": "Furniture Village High Wycombe", "phone": "01494 455000", "website": "https://www.furniturevillage.co.uk/stores/high-wycombe.html", "contact:email": "fv.high-wycombe@furniturevillage.co.uk", "brand": "Furniture Village", "brand:wikidata": "Q5509685", "nsi_id": "furniturevillage-5a41a5"}, "geometry": {"type": "Point", "coordinates": [-0.721486, 51.620766]}},
{"type": "Feature", "id": "wX_zQ9EpnG_kd5XsMMzK-qYK3Ho=", "properties": {"ref": "guildford", "@spider": "furniture_village_gb", "shop": "furniture", "addr:street_address": "Ladymead Retail Park", "addr:city": "Guildford", "addr:state": "Surrey", "addr:postcode": "GU1 1AG", "addr:country": "GB", "name": "Furniture Village Guildford", "phone": "01483 304242", "website": "https://www.furniturevillage.co.uk/stores/guildford.html", "contact:email": "fv.guildford@furniturevillage.co.uk", "brand": "Furniture Village", "brand:wikidata": "Q5509685", "nsi_id": "furniturevillage-5a41a5"}, "geometry": {"type": "Point", "coordinates": [-0.578688, 51.248814]}},
{"type": "Feature", "id": "i3FdrxLncma7ztqCx7bKOAy6gII=", "properties": {"ref": "gillingham", "@spider": "furniture_village_gb", "shop": "furniture", "addr:street_address": "Will Adams Way", "addr:city": "Gillingham", "addr:state": "Kent", "addr:postcode": "ME8 6BY", "addr:country": "GB", "name": "Furniture Village Gillingham", "phone": "01634 266230", "website": "https://www.furniturevillage.co.uk/stores/gillingham.html", "contact:email": "fv.gillingham@furniturevillage.co.uk", "brand": "Furniture Village", "brand:wikidata": "Q5509685", "nsi_id": "furniturevillage-5a41a5"}, "geometry": {"type": "Point", "coordinates": [0.57007, 51.369065]}},
{"type": "Feature", "id": "7BphEKSkezhtfiEr6eY1i95xchY=", "properties": {"ref": "gateshead", "@spider": "furniture_village_gb", "shop": "furniture", "addr:street_address": "Metro Retail Park", "addr:city": "Gateshead", "addr:state": "Tyne & Wear", "addr:postcode": "NE11 9XU", "addr:country": "GB", "name": "Furniture Village Gateshead", "phone": "0191 460 3255", "website": "https://www.furniturevillage.co.uk/stores/gateshead.html", "contact:email": "fv.metro-centre@furniturevillage.co.uk", "brand": "Furniture Village", "brand:wikidata": "Q5509685", "nsi_id": "furniturevillage-5a41a5"}, "geometry": {"type": "Point", "coordinates": [-1.674591, 54.960624]}},
{"type": "Feature", "id": "Hx1xWTyKMo7EvL-_V5wSkqjTpGA=", "properties": {"ref": "friern-barnet", "@spider": "furniture_village_gb", "shop": "furniture", "addr:street_address": "Friern Bridge Retail Park", "addr:city": "Greater London", "addr:state": "Friern Barnet", "addr:postcode": "N11 3PW", "addr:country": "GB", "name": "Furniture Village Friern Barnet", "phone": "020 8362 8690", "website": "https://www.furniturevillage.co.uk/stores/friern-barnet.html", "contact:email": "fv.friern-barnet@furniturevillage.co.uk", "brand": "Furniture Village", "brand:wikidata": "Q5509685", "nsi_id": "furniturevillage-5a41a5"}, "geometry": {"type": "Point", "coordinates": [-0.142629, 51.611563]}},
{"type": "Feature", "id": "MhqFNAGhGUOFRx5KyThtp0HHxoc=", "properties": {"ref": "farnborough", "@spider": "furniture_village_gb", "shop": "furniture", "addr:street_address": "Solartron Retail Park", "addr:city": "Farnborough", "addr:postcode": "GU14 7QJ", "addr:country": "GB", "name": "Furniture Village Farnborough", "phone": "01252 399070", "website": "https://www.furniturevillage.co.uk/stores/farnborough.html", "contact:email": "fv.farnborough@furniturevillage.co.uk", "brand": "Furniture Village", "brand:wikidata": "Q5509685", "nsi_id": "furniturevillage-5a41a5"}, "geometry": {"type": "Point", "coordinates": [-0.761633, 51.28923]}},
{"type": "Feature", "id": "E8MoV6haWCtC9nJfYzWRqgu8zIo=", "properties": {"ref": "enfield", "@spider": "furniture_village_gb", "shop": "furniture", "addr:street_address": "198 Great Cambridge Road", "addr:city": "Enfield", "addr:state": "Middlesex", "addr:postcode": "EN1 1UJ", "addr:country": "GB", "name": "Furniture Village Enfield", "phone": "0203 826 5000", "website": "https://www.furniturevillage.co.uk/stores/enfield.html", "contact:email": "fv.enfield@furniturevillage.co.uk", "brand": "Furniture Village", "brand:wikidata": "Q5509685", "nsi_id": "furniturevillage-5a41a5"}, "geometry": {"type": "Point", "coordinates": [-0.059269, 51.646184]}},
{"type": "Feature", "id": "b85dAFHzG_IOLofS5AWPhJXW21o=", "properties": {"ref": "darlington", "@spider": "furniture_village_gb", "shop": "furniture", "addr:country": "GB", "name": "Furniture Village", "phone": "0800 804 8879", "website": "https://www.furniturevillage.co.uk/stores/darlington.html", "brand": "Furniture Village", "brand:wikidata": "Q5509685", "nsi_id": "furniturevillage-5a41a5"}},
{"type": "Feature", "id": "99uv_iwdvWpcX3T8HWa2D4Piy2o=", "properties": {"ref": "croydon", "@spider": "furniture_village_gb", "shop": "furniture", "addr:street_address": "222 Purley Way", "addr:city": "Croydon", "addr:state": "Surrey", "addr:postcode": "CR0 4XG", "addr:country": "GB", "name": "Furniture Village Croydon", "phone": "0208 688 0550", "website": "https://www.furniturevillage.co.uk/stores/croydon.html", "contact:email": "fv.croydon@furniturevillage.co.uk", "brand": "Furniture Village", "brand:wikidata": "Q5509685", "nsi_id": "furniturevillage-5a41a5"}, "geometry": {"type": "Point", "coordinates": [-0.120869, 51.376203]}},
{"type": "Feature", "id": "OkTKSuI2A-c5tbG3RdPLUroZvEU=", "properties": {"ref": "chester", "@spider": "furniture_village_gb", "shop": "furniture", "addr:street_address": "Deva Retail Centre", "addr:city": "Chester", "addr:state": "Cheshire", "addr:postcode": "CH1 4LU", "addr:country": "GB", "name": "Furniture Village Chester", "phone": "01244 651930", "website": "https://www.furniturevillage.co.uk/stores/chester.html", "contact:email": "fv.chester@furniturevillage.co.uk", "brand": "Furniture Village", "brand:wikidata": "Q5509685", "nsi_id": "furniturevillage-5a41a5"}, "geometry": {"type": "Point", "coordinates": [-2.912808, 53.197465]}},
{"type": "Feature", "id": "8nNrjgbuXgaVa_8cXljI8SiTDgw=", "properties": {"ref": "leicester", "@spider": "furniture_village_gb", "shop": "furniture", "addr:street_address": "Fosse Park South", "addr:city": "Leicester", "addr:state": "Leicestershire", "addr:postcode": "LE19 1UT", "addr:country": "GB", "name": "Furniture Village Leicester", "phone": "0116 497 2120", "website": "https://www.furniturevillage.co.uk/stores/leicester.html", "contact:email": "fv.leicester@furniturevillage.co.uk", "brand": "Furniture Village", "brand:wikidata": "Q5509685", "nsi_id": "furniturevillage-5a41a5"}, "geometry": {"type": "Point", "coordinates": [-1.180698, 52.595822]}},
{"type": "Feature", "id": "66OrqLQ9q25OGMt6BXRa1Jtp6bo=", "properties": {"ref": "sheffield", "@spider": "furniture_village_gb", "shop": "furniture", "addr:street_address": "Drakehouse Retail Park", "addr:city": "Sheffield", "addr:state": "South Yorkshire", "addr:postcode": "S20 7JJ", "addr:country": "GB", "name": "Furniture Village Sheffield", "phone": "0114 551 5350", "website": "https://www.furniturevillage.co.uk/stores/sheffield.html", "contact:email": "fv.sheffield@furniturevillage.co.uk", "brand": "Furniture Village", "brand:wikidata": "Q5509685", "nsi_id": "furniturevillage-5a41a5"}, "geometry": {"type": "Point", "coordinates": [-1.357736, 53.344415]}},
{"type": "Feature", "id": "YUIneogUITtpQcCkbIVKhXrsEpk=", "properties": {"ref": "crawley", "@spider": "furniture_village_gb", "shop": "furniture", "addr:street_address": "County Oak Retail Park", "addr:city": "Crawley", "addr:state": "West Sussex", "addr:postcode": "RH11 7XN", "addr:country": "GB", "name": "Furniture Village Crawley", "phone": "01293 699 600", "website": "https://www.furniturevillage.co.uk/stores/crawley.html", "contact:email": "fv.crawley@furniturevillage.co.uk", "brand": "Furniture Village", "brand:wikidata": "Q5509685", "nsi_id": "furniturevillage-5a41a5"}, "geometry": {"type": "Point", "coordinates": [-0.190277, 51.132543]}},
{"type": "Feature", "id": "9s7464HO6mjewgzKduRQLXBaKjQ=", "properties": {"ref": "milton-keynes---temporary-clearance-outlet", "@spider": "furniture_village_gb", "shop": "furniture", "addr:street_address": "Cairngorm Gate Retail Park", "addr:city": "Milton Keynes", "addr:state": "Buckinghamshire", "addr:postcode": "MK6 1AZ", "addr:country": "GB", "name": "Furniture Village Milton Keynes", "phone": "01908 209400", "website": "https://www.furniturevillage.co.uk/stores/milton-keynes---temporary-clearance-outlet.html", "contact:email": "fv.milton-keynes@furniturevillage.co.uk", "brand": "Furniture Village", "brand:wikidata": "Q5509685", "nsi_id": "furniturevillage-5a41a5"}, "geometry": {"type": "Point", "coordinates": [-0.766809, 52.028487]}},
{"type": "Feature", "id": "nc1Yi13Vrm9B02FGc9si1laSwzc=", "properties": {"ref": "chelmsford", "@spider": "furniture_village_gb", "shop": "furniture", "addr:street_address": "Clock Tower Retail Park", "addr:city": "Westway", "addr:state": "Chelmsford", "addr:postcode": "CM1 3BG", "addr:country": "GB", "name": "Furniture Village Chelmsford", "phone": "01245 847 888", "website": "https://www.furniturevillage.co.uk/stores/chelmsford.html", "contact:email": "fv.chelmsford@furniturevillage.co.uk", "brand": "Furniture Village", "brand:wikidata": "Q5509685", "nsi_id": "furniturevillage-5a41a5"}, "geometry": {"type": "Point", "coordinates": [0.451887, 51.723329]}},
{"type": "Feature", "id": "VKOkS-OqBWeS7d5d_O47tP0ZpHM=", "properties": {"ref": "rugby", "@spider": "furniture_village_gb", "shop": "furniture", "addr:street_address": "Elliott\u2019s Field Shopping Park", "addr:city": "Leicester Road", "addr:state": "Rugby", "addr:postcode": "CV21 1SR", "addr:country": "GB", "name": "Furniture Village Rugby", "phone": "01788 225580", "website": "https://www.furniturevillage.co.uk/stores/rugby.html", "contact:email": "fv.rugby@furniturevillage.co.uk", "brand": "Furniture Village", "brand:wikidata": "Q5509685", "nsi_id": "furniturevillage-5a41a5"}, "geometry": {"type": "Point", "coordinates": [-1.260088, 52.388554]}},
{"type": "Feature", "id": "wnWFE8cvULPquWOzwK8i9z5x5p4=", "properties": {"ref": "york", "@spider": "furniture_village_gb", "shop": "furniture", "addr:street_address": "Clifton Moor Centre", "addr:city": "York", "addr:state": "Yorkshire", "addr:postcode": "YO30 4XZ", "addr:country": "GB", "name": "Furniture Village York", "phone": "01904 809333", "website": "https://www.furniturevillage.co.uk/stores/york.html", "contact:email": "fv.york@furniturevillage.co.uk", "brand": "Furniture Village", "brand:wikidata": "Q5509685", "nsi_id": "furniturevillage-5a41a5"}, "geometry": {"type": "Point", "coordinates": [-1.102422, 53.991556]}},
{"type": "Feature", "id": "ubyaPurKb1JsRr4CKLsKKU-HSso=", "properties": {"ref": "aintree", "@spider": "furniture_village_gb", "shop": "furniture", "addr:street_address": "Aintree Shopping Park, Ormskirk Road", "addr:city": "Liverpool", "addr:state": "Aintree", "addr:postcode": "L9 5AN", "addr:country": "GB", "name": "Furniture Village Aintree", "phone": "01513 053300", "website": "https://www.furniturevillage.co.uk/stores/aintree.html", "contact:email": "fv.aintree@furniturevillage.co.uk", "brand": "Furniture Village", "brand:wikidata": "Q5509685", "nsi_id": "furniturevillage-5a41a5"}, "geometry": {"type": "Point", "coordinates": [-2.950122, 53.481252]}},
{"type": "Feature", "id": "9LfqEAYyhO7ztdeQRD3GbRR-Dr0=", "properties": {"ref": "tamworth", "@spider": "furniture_village_gb", "shop": "furniture", "addr:street_address": "Cardinal Point Retail Park, Ventura Park Road", "addr:city": "Tamworth", "addr:postcode": "B78 3JG", "addr:country": "GB", "name": "Furniture Village Tamworth", "phone": "01827 213600", "website": "https://www.furniturevillage.co.uk/stores/tamworth.html", "contact:email": "fv.tamworth@furniturevillage.co.uk", "brand": "Furniture Village", "brand:wikidata": "Q5509685", "nsi_id": "furniturevillage-5a41a5"}, "geometry": {"type": "Point", "coordinates": [-1.709939, 52.626678]}},
{"type": "Feature", "id": "OR6Ik4no_4eT5TIcqij9hL9oOV0=", "properties": {"ref": "hull", "@spider": "furniture_village_gb", "shop": "furniture", "addr:street_address": "St Andrews Quay Retail Park, Clive Sullivan Way", "addr:city": "Hull", "addr:postcode": "HU3 4SA", "addr:country": "GB", "name": "Furniture Village Hull", "phone": "01482 296300", "website": "https://www.furniturevillage.co.uk/stores/hull.html", "contact:email": "fv.hull@furniturevillage.co.uk", "brand": "Furniture Village", "brand:wikidata": "Q5509685", "nsi_id": "furniturevillage-5a41a5"}, "geometry": {"type": "Point", "coordinates": [-0.371821, 53.728217]}},
{"type": "Feature", "id": "EEXexpfPyeXAaoNLrQrt5OULZ_c=", "properties": {"ref": "taunton", "@spider": "furniture_village_gb", "shop": "furniture", "addr:street_address": "Priory Fields Retail Park", "addr:city": "Taunton", "addr:postcode": "TA1 1QS", "addr:country": "GB", "name": "Furniture Village Taunton", "phone": "01823 217600", "website": "https://www.furniturevillage.co.uk/stores/taunton.html", "contact:email": "fv.taunton@furniturevillage.co.uk", "brand": "Furniture Village", "brand:wikidata": "Q5509685", "nsi_id": "furniturevillage-5a41a5"}, "geometry": {"type": "Point", "coordinates": [-3.092974, 51.020641]}},
{"type": "Feature", "id": "W7kGJNBB1ORxegs0LL2v_PNGpg4=", "properties": {"ref": "cheadle", "@spider": "furniture_village_gb", "shop": "furniture", "addr:street_address": "Stanley Green Retail Park, Earl Road", "addr:city": "Cheadle Hulme", "addr:state": "Cheadle", "addr:postcode": "SK8 6PT", "addr:country": "GB", "name": "Furniture Village Cheadle", "phone": "0161 804 7500", "website": "https://www.furniturevillage.co.uk/stores/cheadle.html", "contact:email": "fv.cheadle@furniturevillage.co.uk", "brand": "Furniture Village", "brand:wikidata": "Q5509685", "nsi_id": "furniturevillage-5a41a5"}, "geometry": {"type": "Point", "coordinates": [-2.20328, 53.358497]}},
{"type": "Feature", "id": "xKG2DRPIn2jpYB7jWz6g40evEVc=", "properties": {"ref": "preston", "@spider": "furniture_village_gb", "shop": "furniture", "addr:street_address": "Capitol Retail Park, London Way", "addr:city": "Preston", "addr:postcode": "PR5 4AW", "addr:country": "GB", "name": "Furniture Village Preston", "phone": "01772 754 100", "website": "https://www.furniturevillage.co.uk/stores/preston.html", "contact:email": "fv.preston@furniturevillage.co.uk", "brand": "Furniture Village", "brand:wikidata": "Q5509685", "nsi_id": "furniturevillage-5a41a5"}, "geometry": {"type": "Point", "coordinates": [-2.67673, 53.749794]}},
{"type": "Feature", "id": "IhHrQf_FVVDdfrG7tT_TwS-Lt38=", "properties": {"ref": "exeter", "@spider": "furniture_village_gb", "shop": "furniture", "addr:street_address": "Sowton Retail Park", "addr:city": "Exeter", "addr:state": "Devon", "addr:postcode": "EX2 7JA", "addr:country": "GB", "name": "Furniture Village Exeter", "phone": "01392 440020", "website": "https://www.furniturevillage.co.uk/stores/exeter.html", "contact:email": "fv.exeter@furniturevillage.co.uk", "brand": "Furniture Village", "brand:wikidata": "Q5509685", "nsi_id": "furniturevillage-5a41a5"}, "geometry": {"type": "Point", "coordinates": [-3.4678, 50.724524]}},
{"type": "Feature", "id": "yxXJRB92OAAn-JNFYbWjGrnfaqs=", "properties": {"ref": "wednesbury", "@spider": "furniture_village_gb", "shop": "furniture", "addr:street_address": "Gallagher Retail Park, Axletree Way", "addr:city": "Wednesbury", "addr:state": "West Midlands", "addr:postcode": "WS10 9QY", "addr:country": "GB", "name": "Furniture Village Wednesbury", "phone": "0121 502 7960", "website": "https://www.furniturevillage.co.uk/stores/wednesbury.html", "contact:email": "fv.wednesbury@furniturevillage.co.uk", "brand": "Furniture Village", "brand:wikidata": "Q5509685", "nsi_id": "furniturevillage-5a41a5"}, "geometry": {"type": "Point", "coordinates": [-2.008628, 52.565455]}},
{"type": "Feature", "id": "DamS4Zw5nMKLXmgaz-LQ1TTUDmY=", "properties": {"ref": "watford", "@spider": "furniture_village_gb", "shop": "furniture", "addr:street_address": "Century Retail Park", "addr:city": "Watford", "addr:state": "Hertfordshire", "addr:postcode": "WD17 2SF", "addr:country": "GB", "name": "Furniture Village Watford", "phone": "01923 690840", "website": "https://www.furniturevillage.co.uk/stores/watford.html", "contact:email": "fv.watford@furniturevillage.co.uk", "brand": "Furniture Village", "brand:wikidata": "Q5509685", "nsi_id": "furniturevillage-5a41a5"}, "geometry": {"type": "Point", "coordinates": [-0.39, 51.6495]}},
{"type": "Feature", "id": "qkH0FnBye-M6NqRjJ2LF6Dp1aaY=", "properties": {"ref": "tunbridge-wells", "@spider": "furniture_village_gb", "shop": "furniture", "addr:street_address": "Kingstanding Retail Park", "addr:city": "Tunbridge Wells", "addr:state": "Kent", "addr:postcode": "TN2 3UP", "addr:country": "GB", "name": "Furniture Village Tunbridge Wells", "phone": "01892 534499", "website": "https://www.furniturevillage.co.uk/stores/tunbridge-wells.html", "contact:email": "fv.tunbridgewells@furniturevillage.co.uk", "brand": "Furniture Village", "brand:wikidata": "Q5509685", "nsi_id": "furniturevillage-5a41a5"}, "geometry": {"type": "Point", "coordinates": [0.295571, 51.159634]}},
{"type": "Feature", "id": "EzsytMqkCoPPbK82YPrVwj3cJEM=", "properties": {"ref": "thurrock", "@spider": "furniture_village_gb", "shop": "furniture", "addr:street_address": "The Junction, Thurrock Shopping Park", "addr:city": "West Thurrock", "addr:state": "Essex", "addr:postcode": "RM20 3LP", "addr:country": "GB", "name": "Furniture Village Thurrock", "phone": "01708 899420", "website": "https://www.furniturevillage.co.uk/stores/thurrock.html", "contact:email": "fv.thurrock@furniturevillage.co.uk", "brand": "Furniture Village", "brand:wikidata": "Q5509685", "nsi_id": "furniturevillage-5a41a5"}, "geometry": {"type": "Point", "coordinates": [0.27352, 51.483829]}},
{"type": "Feature", "id": "bUrY-mo950kvNugis8RI8EX-FGU=", "properties": {"ref": "telford", "@spider": "furniture_village_gb", "shop": "furniture", "addr:street_address": "Telford Forge Retail Park", "addr:city": "Telford", "addr:state": "Shropshire", "addr:postcode": "TF3 4AG", "addr:country": "GB", "name": "Furniture Village Telford", "phone": "01952 213170", "website": "https://www.furniturevillage.co.uk/stores/telford.html", "contact:email": "fv.telford@furniturevillage.co.uk", "brand": "Furniture Village", "brand:wikidata": "Q5509685", "nsi_id": "furniturevillage-5a41a5"}, "geometry": {"type": "Point", "coordinates": [-2.452939, 52.682187]}},
{"type": "Feature", "id": "LormrewMTbmBa_13Meq5fnE-ixw=", "properties": {"ref": "stockton-on-tees", "@spider": "furniture_village_gb", "shop": "furniture", "addr:street_address": "Haverton Hill Road", "addr:city": "Stockton-On-Tees", "addr:state": "Cleveland", "addr:postcode": "TS18 2QA", "addr:country": "GB", "name": "Furniture Village Stockton-On-Tees", "phone": "01642 634340", "website": "https://www.furniturevillage.co.uk/stores/stockton-on-tees.html", "contact:email": "fv.stockton@furniturevillage.co.uk", "brand": "Furniture Village", "brand:wikidata": "Q5509685", "nsi_id": "furniturevillage-5a41a5"}, "geometry": {"type": "Point", "coordinates": [-1.279844, 54.575673]}},
{"type": "Feature", "id": "-cVq2-dZe4gFh_umjxm-UevqIJU=", "properties": {"ref": "stevenage", "@spider": "furniture_village_gb", "shop": "furniture", "addr:street_address": "Roaring Meg Retail Park, Great North Road", "addr:city": "Stevenage", "addr:state": "Hertfordshire", "addr:postcode": "SG1 1XN", "addr:country": "GB", "name": "Furniture Village Stevenage", "phone": "01438 725692", "website": "https://www.furniturevillage.co.uk/stores/stevenage.html", "contact:email": "fv.stevenage@furniturevillage.co.uk", "brand": "Furniture Village", "brand:wikidata": "Q5509685", "nsi_id": "furniturevillage-5a41a5"}, "geometry": {"type": "Point", "coordinates": [-0.197458, 51.891912]}},
{"type": "Feature", "id": "Sk7syCfsfXZT29y1sPjvcfrX_CM=", "properties": {"ref": "staines", "@spider": "furniture_village_gb", "shop": "furniture", "addr:street_address": "Two Rivers Retail Park", "addr:city": "Staines", "addr:state": "Surrey", "addr:postcode": "TW18 4WA", "addr:country": "GB", "name": "Furniture Village Staines", "phone": "01784 417980", "website": "https://www.furniturevillage.co.uk/stores/staines.html", "contact:email": "fv.staines@furniturevillage.co.uk", "brand": "Furniture Village", "brand:wikidata": "Q5509685", "nsi_id": "furniturevillage-5a41a5"}, "geometry": {"type": "Point", "coordinates": [-0.513256, 51.437141]}},
{"type": "Feature", "id": "7xlzbRDkacCkzS_HQyIubU4TR_Q=", "properties": {"ref": "southampton", "@spider": "furniture_village_gb", "shop": "furniture", "addr:street_address": "West Quay Retail Park", "addr:city": "Southampton", "addr:state": "Hants", "addr:postcode": "SO15 1BA", "addr:country": "GB", "name": "Furniture Village Southampton", "phone": "023 8082 1919", "website": "https://www.furniturevillage.co.uk/stores/southampton.html", "contact:email": "fv.southampton@furniturevillage.co.uk", "brand": "Furniture Village", "brand:wikidata": "Q5509685", "nsi_id": "furniturevillage-5a41a5"}, "geometry": {"type": "Point", "coordinates": [-1.410062, 50.904146]}},
{"type": "Feature", "id": "ryS4q1ziB46y87O10RKoKcJETdU=", "properties": {"ref": "south-ruislip", "@spider": "furniture_village_gb", "shop": "furniture", "addr:street_address": "Ruislip Retail Park, Victoria Road", "addr:city": "South Ruislip", "addr:state": "Middlesex", "addr:postcode": "HA4 0QE", "addr:country": "GB", "name": "Furniture Village South Ruislip", "phone": "020 8869 1400", "website": "https://www.furniturevillage.co.uk/stores/south-ruislip.html", "contact:email": "fv.ruislip@furniturevillage.co.uk", "brand": "Furniture Village", "brand:wikidata": "Q5509685", "nsi_id": "furniturevillage-5a41a5"}, "geometry": {"type": "Point", "coordinates": [-0.38161, 51.55827]}},
{"type": "Feature", "id": "VBmZcY_BQrOdYCjvEX1FInoyUXM=", "properties": {"ref": "solihull", "@spider": "furniture_village_gb", "shop": "furniture", "addr:street_address": "605 Solihull Gate Retail Park, Stratford Road", "addr:city": "Solihull", "addr:state": "West Midlands", "addr:postcode": "B90 4BP", "addr:country": "GB", "name": "Furniture Village Solihull", "phone": "0121 506 8680", "website": "https://www.furniturevillage.co.uk/stores/solihull.html", "contact:email": "fv.solihull@furniturevillage.co.uk", "brand": "Furniture Village", "brand:wikidata": "Q5509685", "nsi_id": "furniturevillage-5a41a5"}, "geometry": {"type": "Point", "coordinates": [-1.818493, 52.398437]}},
{"type": "Feature", "id": "M5SJZ_9XCsST2tyaDQ3TeNIxHCo=", "properties": {"ref": "slough", "@spider": "furniture_village_gb", "shop": "furniture", "addr:street_address": "Slough Retail Park", "addr:city": "Slough", "addr:state": "Berkshire", "addr:postcode": "SL1 5AD", "addr:country": "GB", "name": "Furniture Village Slough", "phone": "01753 897700", "website": "https://www.furniturevillage.co.uk/stores/slough.html", "contact:email": "fv.slough@furniturevillage.co.uk", "brand": "Furniture Village", "brand:wikidata": "Q5509685", "nsi_id": "furniturevillage-5a41a5"}, "geometry": {"type": "Point", "coordinates": [-0.622068, 51.512618]}},
{"type": "Feature", "id": "4EHHZdO5jlVOdRwYazfUtVGBNvM=", "properties": {"ref": "romford", "@spider": "furniture_village_gb", "shop": "furniture", "addr:street_address": "Gallows Corner Retail Park", "addr:city": "Romford", "addr:state": "Essex", "addr:postcode": "RM3 0AD", "addr:country": "GB", "name": "Furniture Village Romford", "phone": "01708 382180", "website": "https://www.furniturevillage.co.uk/stores/romford.html", "contact:email": "fv.romford@furniturevillage.co.uk", "brand": "Furniture Village", "brand:wikidata": "Q5509685", "nsi_id": "furniturevillage-5a41a5"}, "geometry": {"type": "Point", "coordinates": [0.215572, 51.59246]}},
{"type": "Feature", "id": "2EQeE2sSjbs5HPORXDhT-z_Lbfw=", "properties": {"ref": "reading", "@spider": "furniture_village_gb", "shop": "furniture", "addr:street_address": "Forbury Retail Park", "addr:city": "Reading", "addr:state": "Berkshire", "addr:postcode": "RG1 3JD", "addr:country": "GB", "name": "Furniture Village Reading", "phone": "01189 520980", "website": "https://www.furniturevillage.co.uk/stores/reading.html", "contact:email": "fv.reading@furniturevillage.co.uk", "brand": "Furniture Village", "brand:wikidata": "Q5509685", "nsi_id": "furniturevillage-5a41a5"}, "geometry": {"type": "Point", "coordinates": [-0.963258, 51.457883]}},
{"type": "Feature", "id": "Kt2WXjy6GE5TL_5x_2V2W3ZvM20=", "properties": {"ref": "poole", "@spider": "furniture_village_gb", "shop": "furniture", "addr:street_address": "Wessex Gate Retail Park", "addr:city": "Poole", "addr:state": "Dorset", "addr:postcode": "BH15 3TE", "addr:country": "GB", "name": "Furniture Village Poole", "phone": "01202 493100", "website": "https://www.furniturevillage.co.uk/stores/poole.html", "contact:email": "fv.poole@furniturevillage.co.uk", "brand": "Furniture Village", "brand:wikidata": "Q5509685", "nsi_id": "furniturevillage-5a41a5"}, "geometry": {"type": "Point", "coordinates": [-1.992048, 50.734469]}},
{"type": "Feature", "id": "peiDQ6MgdlVIDarYeTZP50-8zCQ=", "properties": {"ref": "plymouth", "@spider": "furniture_village_gb", "shop": "furniture", "addr:street_address": "Marsh Mills Retail Park", "addr:city": "Plymouth", "addr:state": "Devon", "addr:postcode": "PL6 8LX", "addr:country": "GB", "name": "Furniture Village Plymouth", "phone": "01752 264100", "website": "https://www.furniturevillage.co.uk/stores/plymouth.html", "contact:email": "fv.plymouth@furniturevillage.co.uk", "brand": "Furniture Village", "brand:wikidata": "Q5509685", "nsi_id": "furniturevillage-5a41a5"}, "geometry": {"type": "Point", "coordinates": [-4.091204, 50.394133]}},
{"type": "Feature", "id": "3o0pEQTkCh-k6_jS_WyJfdEBVuE=", "properties": {"ref": "peterborough", "@spider": "furniture_village_gb", "shop": "furniture", "addr:street_address": "Boulevard Retail Park", "addr:city": "Peterborough", "addr:state": "Cambridgeshire", "addr:postcode": "PE1 2HS", "addr:country": "GB", "name": "Furniture Village Peterborough", "phone": "01733 318800", "website": "https://www.furniturevillage.co.uk/stores/peterborough.html", "contact:email": "fv.peterborough@furniturevillage.co.uk", "brand": "Furniture Village", "brand:wikidata": "Q5509685", "nsi_id": "furniturevillage-5a41a5"}, "geometry": {"type": "Point", "coordinates": [-0.263528, 52.596093]}},
{"type": "Feature", "id": "_C_0Lh-o2KT0Xkjkwj8ThbiL_iw=", "properties": {"ref": "orpington", "@spider": "furniture_village_gb", "shop": "furniture", "addr:street_address": "Springvale Retail Park, Sevenoaks Way", "addr:city": "Orpington", "addr:state": "Kent", "addr:postcode": "BR5 3SG", "addr:country": "GB", "name": "Furniture Village Orpington", "phone": "01689 884680", "website": "https://www.furniturevillage.co.uk/stores/orpington.html", "contact:email": "fv.orpington@furniturevillage.co.uk", "brand": "Furniture Village", "brand:wikidata": "Q5509685", "nsi_id": "furniturevillage-5a41a5"}, "geometry": {"type": "Point", "coordinates": [0.114315, 51.398638]}},
{"type": "Feature", "id": "FK5K80m0nlkOJhLs8qaa5Oy1doc=", "properties": {"ref": "nottingham", "@spider": "furniture_village_gb", "shop": "furniture", "addr:street_address": "Castle Marina Retail Park", "addr:city": "Nottingham", "addr:state": "Notts", "addr:postcode": "NG7 1GX", "addr:country": "GB", "name": "Furniture Village Nottingham", "phone": "0115 988 6880", "website": "https://www.furniturevillage.co.uk/stores/nottingham.html", "contact:email": "fv.nottingham@furniturevillage.co.uk", "brand": "Furniture Village", "brand:wikidata": "Q5509685", "nsi_id": "furniturevillage-5a41a5"}, "geometry": {"type": "Point", "coordinates": [-1.158275, 52.946169]}},
{"type": "Feature", "id": "73ApI0OyEQf_Nu9YOB8a4nB5D-4=", "properties": {"ref": "norwich", "@spider": "furniture_village_gb", "shop": "furniture", "addr:street_address": "Sprowston Retail Park", "addr:city": "Norwich", "addr:state": "Norfolk", "addr:postcode": "NR7 9AZ", "addr:country": "GB", "name": "Furniture Village Norwich", "phone": "01603 256020", "website": "https://www.furniturevillage.co.uk/stores/norwich.html", "contact:email": "fv.norwich@furniturevillage.co.uk", "brand": "Furniture Village", "brand:wikidata": "Q5509685", "nsi_id": "furniturevillage-5a41a5"}, "geometry": {"type": "Point", "coordinates": [1.325949, 52.646487]}},
{"type": "Feature", "id": "8qEdcNVJLGriJrCUY2pzubJwH5g=", "properties": {"ref": "northampton", "@spider": "furniture_village_gb", "shop": "furniture", "addr:street_address": "Riverside Retail Park", "addr:city": "Northampton", "addr:state": "Northamptonshire", "addr:postcode": "NN3 9HU", "addr:country": "GB", "name": "Furniture Village Northampton", "phone": "01604 320170", "website": "https://www.furniturevillage.co.uk/stores/northampton.html", "contact:email": "fv.northampton@furniturevillage.co.uk", "brand": "Furniture Village", "brand:wikidata": "Q5509685", "nsi_id": "furniturevillage-5a41a5"}, "geometry": {"type": "Point", "coordinates": [-0.840648, 52.241734]}},
{"type": "Feature", "id": "7tduuFiYxhd2kMsU6-K0jKMKS3o=", "properties": {"ref": "new-malden", "@spider": "furniture_village_gb", "shop": "furniture", "addr:street_address": "150 Kingston Road", "addr:city": "New Malden", "addr:state": "Greater London", "addr:postcode": "KT3 3RD", "addr:country": "GB", "name": "Furniture Village New Malden", "phone": "020 8329 0570", "website": "https://www.furniturevillage.co.uk/stores/new-malden.html", "contact:email": "fv.new-malden@furniturevillage.co.uk", "brand": "Furniture Village", "brand:wikidata": "Q5509685", "nsi_id": "furniturevillage-5a41a5"}, "geometry": {"type": "Point", "coordinates": [-0.270394, 51.401764]}},
{"type": "Feature", "id": "4imzM_zGnv_QlZ5OcOTHpiCnoY8=", "properties": {"ref": "milton-keynes", "@spider": "furniture_village_gb", "shop": "furniture", "addr:street_address": "Cairngorm Gate Retail Park", "addr:city": "Milton Keynes", "addr:state": "Buckinghamshire", "addr:postcode": "MK6 1AZ", "addr:country": "GB", "name": "Furniture Village Milton Keynes", "phone": "01908 209400", "website": "https://www.furniturevillage.co.uk/stores/milton-keynes.html", "contact:email": "fv.milton-keynes@furniturevillage.co.uk", "brand": "Furniture Village", "brand:wikidata": "Q5509685", "nsi_id": "furniturevillage-5a41a5"}, "geometry": {"type": "Point", "coordinates": [-0.766809, 52.028487]}},
{"type": "Feature", "id": "bQj20QAmN58KZ5etN7f7C73s66k=", "properties": {"ref": "manchester", "@spider": "furniture_village_gb", "shop": "furniture", "addr:street_address": "White City Retail Park", "addr:city": "Manchester", "addr:state": "Greater Manchester", "addr:postcode": "M16 0RP", "addr:country": "GB", "name": "Furniture Village Manchester", "phone": "0161 855 3740", "website": "https://www.furniturevillage.co.uk/stores/manchester.html", "contact:email": "fv.manchester@furniturevillage.co.uk", "brand": "Furniture Village", "brand:wikidata": "Q5509685", "nsi_id": "furniturevillage-5a41a5"}, "geometry": {"type": "Point", "coordinates": [-2.28394, 53.461103]}},
{"type": "Feature", "id": "5f82SJ-Bwmc9mktFVf44Yy_5buM=", "properties": {"ref": "cheltenham", "@spider": "furniture_village_gb", "shop": "furniture", "addr:street_address": "Kingsditch Retail Park", "addr:city": "Cheltenham", "addr:state": "Gloucestershire", "addr:postcode": "GL51 9PX", "addr:country": "GB", "name": "Furniture Village Cheltenham", "phone": "01242 266970", "website": "https://www.furniturevillage.co.uk/stores/cheltenham.html", "contact:email": "fv.cheltenham@furniturevillage.co.uk", "brand": "Furniture Village", "brand:wikidata": "Q5509685", "nsi_id": "furniturevillage-5a41a5"}, "geometry": {"type": "Point", "coordinates": [-2.0992, 51.915]}},
{"type": "Feature", "id": "bZFbL_vJcOoi6Wjc8FjwRXIEcIQ=", "properties": {"ref": "cambridge", "@spider": "furniture_village_gb", "shop": "furniture", "addr:street_address": "Cambridge Retail Park, Newmarket Road", "addr:city": "Cambridge", "addr:state": "Cambridgeshire", "addr:postcode": "CB5 8WR", "addr:country": "GB", "name": "Furniture Village Cambridge", "phone": "01223 454570", "website": "https://www.furniturevillage.co.uk/stores/cambridge.html", "contact:email": "fv.cambridge@furniturevillage.co.uk", "brand": "Furniture Village", "brand:wikidata": "Q5509685", "nsi_id": "furniturevillage-5a41a5"}, "geometry": {"type": "Point", "coordinates": [0.14744, 52.20959]}},
{"type": "Feature", "id": "5yIxRFzBXTWNXf-ChCSbsDb0oPw=", "properties": {"ref": "bristol", "@spider": "furniture_village_gb", "shop": "furniture", "addr:street_address": "Lysander Road", "addr:city": "Bristol", "addr:state": "City of Bristol", "addr:postcode": "BS10 7TX", "addr:country": "GB", "name": "Furniture Village Bristol", "phone": "0117 941 9580", "website": "https://www.furniturevillage.co.uk/stores/bristol.html", "contact:email": "fv.bristol@furniturevillage.co.uk", "brand": "Furniture Village", "brand:wikidata": "Q5509685", "nsi_id": "furniturevillage-5a41a5"}, "geometry": {"type": "Point", "coordinates": [-2.60406, 51.528784]}},
{"type": "Feature", "id": "Py2vuV2WNJp0g0Y6dOZLZnZ0lPI=", "properties": {"ref": "brighton-and-hove", "@spider": "furniture_village_gb", "shop": "furniture", "addr:street_address": "154 Old Shoreham Road", "addr:city": "Hove", "addr:state": "East Sussex", "addr:postcode": "BN3 7BD", "addr:country": "GB", "name": "Furniture Village Brighton & Hove", "phone": "01273 716140", "website": "https://www.furniturevillage.co.uk/stores/brighton-and-hove.html", "contact:email": "fv.brighton@furniturevillage.co.uk", "brand": "Furniture Village", "brand:wikidata": "Q5509685", "nsi_id": "furniturevillage-5a41a5"}, "geometry": {"type": "Point", "coordinates": [-0.17616, 50.838651]}},
{"type": "Feature", "id": "1psrtL-r1AtRXW4QWa3vkA2QX9E=", "properties": {"ref": "bolton", "@spider": "furniture_village_gb", "shop": "furniture", "addr:street_address": "Middlebrook Retail Park", "addr:city": "Bolton", "addr:state": "Greater Manchester", "addr:postcode": "BL6 6JA", "addr:country": "GB", "name": "Furniture Village Bolton", "phone": "01204 674190", "website": "https://www.furniturevillage.co.uk/stores/bolton.html", "contact:email": "fv.bolton@furniturevillage.co.uk", "brand": "Furniture Village", "brand:wikidata": "Q5509685", "nsi_id": "furniturevillage-5a41a5"}, "geometry": {"type": "Point", "coordinates": [-2.539087, 53.585178]}},
{"type": "Feature", "id": "s6IZ7m7OkGjYII3GXlN9PdxYS2g=", "properties": {"ref": "abingdon", "@spider": "furniture_village_gb", "shop": "furniture", "addr:street_address": "Fairacres Retail Park", "addr:city": "Abingdon", "addr:state": "Oxon", "addr:postcode": "OX14 1TR", "addr:country": "GB", "name": "Furniture Village Abingdon", "phone": "01235 535654", "website": "https://www.furniturevillage.co.uk/stores/abingdon.html", "contact:email": "fv.abingdon@furniturevillage.co.uk", "brand": "Furniture Village", "brand:wikidata": "Q5509685", "nsi_id": "furniturevillage-5a41a5"}, "geometry": {"type": "Point", "coordinates": [-1.303058, 51.670414]}}]}