{"type":"FeatureCollection","features":[{"type": "Feature", "id": "D2PbOlhus2hvNmgYqgrK7oxNy6I=", "properties": {"ref": "35701", "@spider": "fuzzystacos", "addr:street_address": "7425 W. Adams Ave", "addr:city": "Temple", "addr:state": "TX", "addr:postcode": "76502", "name": "Fuzzy's Taco Shop - Temple", "phone": "+12547427747", "website": "https://restaurants.fuzzystacoshop.com/fuzzys-taco-shop-45f38085aff9", "opening_hours": "Mo-We 11:00-22:00; Th-Sa 10:00-24:00; Su 11:00-22:00", "brand": "Fuzzy's Taco Shop", "brand:wikidata": "Q85762348"}, "geometry": {"type": "Point", "coordinates": [-97.42100548732513, 31.118404555636847]}},
{"type": "Feature", "id": "O4RHKVZAv5G5ufqZM9ybY7BpQpw=", "properties": {"ref": "710201", "@spider": "fuzzystacos", "addr:street_address": "1678 S College St", "addr:city": "Auburn", "addr:state": "AL", "addr:postcode": "36832", "name": "Fuzzy's Taco Shop - Auburn, AL", "phone": "+13343101744", "website": "https://restaurants.fuzzystacoshop.com/fuzzys-taco-shop-1eb78c28cba3", "opening_hours": "Mo-Th 07:00-23:00; Fr-Sa 07:00-24:00; Su 07:00-23:00", "brand": "Fuzzy's Taco Shop", "brand:wikidata": "Q85762348"}, "geometry": {"type": "Point", "coordinates": [-85.49987354785043, 32.57350198090473]}},
{"type": "Feature", "id": "o9aMLnQJFqEOaeqJSzvM3NLyITA=", "properties": {"ref": "38901", "@spider": "fuzzystacos", "addr:street_address": "10275 B South Post Oak", "addr:city": "Houston", "addr:state": "TX", "addr:postcode": "77096", "name": "Fuzzy's Taco Shop - Houston (Meyerland)", "phone": "+12815019917", "website": "https://restaurants.fuzzystacoshop.com/fuzzys-taco-shop-4497ae719806", "opening_hours": "Mo-Th 10:00-22:00; Fr-Sa 10:00-23:00; Su 10:00-22:00", "brand": "Fuzzy's Taco Shop", "brand:wikidata": "Q85762348"}, "geometry": {"type": "Point", "coordinates": [-95.46059132333087, 29.671820929704843]}},
{"type": "Feature", "id": "mZG-1FzBrADqLk1tpROFZZZnAC4=", "properties": {"ref": "39002", "@spider": "fuzzystacos", "addr:street_address": "2412 S Interstate 35E", "addr:city": "Denton", "addr:state": "TX", "addr:postcode": "76210", "name": "Fuzzy's Taco Shop - Denton (I-35E)", "phone": "+19404884779", "website": "https://restaurants.fuzzystacoshop.com/fuzzys-taco-shop-41f2de2e1a8c", "opening_hours": "Mo-Th 07:00-22:00; Fr-Sa 07:00-23:00; Su 07:00-22:00", "brand": "Fuzzy's Taco Shop", "brand:wikidata": "Q85762348"}, "geometry": {"type": "Point", "coordinates": [-97.10737673398688, 33.18498962048849]}},
{"type": "Feature", "id": "_y-R_mKk1NKgFmUwUo5LJDM7Ly0=", "properties": {"ref": "31806", "@spider": "fuzzystacos", "addr:street_address": "2439 N Judge Ely Blvd", "addr:city": "Abilene", "addr:state": "TX", "addr:postcode": "79601", "name": "Fuzzy's Taco Shop - Abilene (North)", "phone": "+13257043191", "website": "https://restaurants.fuzzystacoshop.com/fuzzys-taco-shop-41d183955dbe", "opening_hours": "Mo-Sa 07:00-24:00; Su 07:00-23:00", "brand": "Fuzzy's Taco Shop", "brand:wikidata": "Q85762348"}, "geometry": {"type": "Point", "coordinates": [-99.70671306950483, 32.475629287585456]}},
{"type": "Feature", "id": "1M4CLkheUJM0SBvY6814qns023M=", "properties": {"ref": "30106", "@spider": "fuzzystacos", "addr:street_address": "5724 Bryant Irvin Rd", "addr:city": "Fort Worth", "addr:state": "TX", "addr:postcode": "76132", "name": "Fuzzy's Taco Shop - Fort Worth (Bryant Irvin)", "phone": "+18172928226", "website": "https://restaurants.fuzzystacoshop.com/fuzzys-taco-shop-3e0f8647cd65", "opening_hours": "Mo-Th 06:30-22:00; Fr-Sa 06:30-23:00; Su 06:30-22:00", "brand": "Fuzzy's Taco Shop", "brand:wikidata": "Q85762348"}, "geometry": {"type": "Point", "coordinates": [-97.42103613398687, 32.66561956646105]}},
{"type": "Feature", "id": "-fhkyjuwNESHouq5qv-njI9vezQ=", "properties": {"ref": "77302", "@spider": "fuzzystacos", "addr:street_address": "3607 S. Rangeline Rd.", "addr:city": "Joplin", "addr:state": "MO", "addr:postcode": "64804", "name": "Fuzzy's Taco Shop - Joplin", "phone": "+14176275549", "website": "https://restaurants.fuzzystacoshop.com/fuzzys-taco-shop-409cf37a2ec5", "opening_hours": "Mo-Th 10:00-22:00; Fr-Su 08:00-22:00", "brand": "Fuzzy's Taco Shop", "brand:wikidata": "Q85762348"}, "geometry": {"type": "Point", "coordinates": [-94.47789910207501, 37.050041155820665]}},
{"type": "Feature", "id": "MQuAntfMuoZXiHs-NVwEX_O94ho=", "properties": {"ref": "31209", "@spider": "fuzzystacos", "addr:street_address": "409 S. Central Expy", "addr:city": "Anna", "addr:state": "TX", "addr:postcode": "75409", "name": "Fuzzy's Taco Shop - Anna, TX", "phone": "+19725202084", "website": "https://restaurants.fuzzystacoshop.com/fuzzys-taco-shop-3bb7b8c79db1", "opening_hours": "Mo-Th 10:00-22:00; Fr 10:00-23:00; Sa 07:00-23:00; Su 08:00-22:00", "brand": "Fuzzy's Taco Shop", "brand:wikidata": "Q85762348"}, "geometry": {"type": "Point", "coordinates": [-96.58491706548456, 33.34786883971041]}},
{"type": "Feature", "id": "_JwNCu2-WwhLpt59HHnFQUZ07Xg=", "properties": {"ref": "35801", "@spider": "fuzzystacos", "addr:street_address": "215 S University Parks Dr", "addr:city": "Waco", "addr:state": "TX", "addr:postcode": "76701", "name": "Fuzzy's Taco Shop - Waco", "phone": "+12547321818", "website": "https://restaurants.fuzzystacoshop.com/fuzzys-taco-shop-3c9598604c61", "opening_hours": "Mo 10:00-21:00; Tu 10:00-22:00; We 10:00-21:00; Th-Sa 10:00-22:00; Su 10:00-21:00", "brand": "Fuzzy's Taco Shop", "brand:wikidata": "Q85762348"}, "geometry": {"type": "Point", "coordinates": [-97.1266360002226, 31.558288083224067]}},
{"type": "Feature", "id": "3F9tnBeCeMHK9jMaWxBtvvJvTJQ=", "properties": {"ref": "31803", "@spider": "fuzzystacos", "addr:street_address": "3351 Turner Plaza Dr", "addr:city": "Abilene", "addr:state": "TX", "addr:postcode": "79606", "name": "Fuzzy's Taco Shop - Abilene", "phone": "+13257019521", "website": "https://restaurants.fuzzystacoshop.com/fuzzys-taco-shop-3ad883ed71eb", "opening_hours": "Mo-Sa 07:00-24:00; Su 07:00-23:00", "brand": "Fuzzy's Taco Shop", "brand:wikidata": "Q85762348"}, "geometry": {"type": "Point", "coordinates": [-99.7640306618129, 32.40444730225409]}},
{"type": "Feature", "id": "q_UfdCVqCP-zXQxrtzxA0t8mS2s=", "properties": {"ref": "30806", "@spider": "fuzzystacos", "addr:street_address": "825 SW 19th St.", "addr:city": "Moore", "addr:state": "OK", "addr:postcode": "73160", "name": "Fuzzy's Taco Shop - Moore", "phone": "+14053782419", "website": "https://restaurants.fuzzystacoshop.com/fuzzys-taco-shop-3b59d4c2cee1", "opening_hours": "Mo-Su 10:00-22:00", "brand": "Fuzzy's Taco Shop", "brand:wikidata": "Q85762348"}, "geometry": {"type": "Point", "coordinates": [-97.50615473411145, 35.32066545051944]}},
{"type": "Feature", "id": "Ks4b2MyATVgO55rpBzHR4g8kJJ8=", "properties": {"ref": "30214", "@spider": "fuzzystacos", "addr:street_address": "6010 Azle Ave", "addr:city": "Lake Worth", "addr:state": "TX", "addr:postcode": "76135", "name": "Fuzzy's Taco Shop - Lake Worth", "phone": "+18172378292", "website": "https://restaurants.fuzzystacoshop.com/fuzzys-taco-shop-32bb0dd9b358", "opening_hours": "Mo-We 07:00-22:00; Th-Sa 07:00-23:00; Su 07:00-22:00", "brand": "Fuzzy's Taco Shop", "brand:wikidata": "Q85762348"}, "geometry": {"type": "Point", "coordinates": [-97.41434752847508, 32.814670373375606]}},
{"type": "Feature", "id": "2Oydykv4o5N7q2gWikbZ6Aoh5nc=", "properties": {"ref": "310101", "@spider": "fuzzystacos", "addr:street_address": "508 N Center Ave.", "addr:city": "Brownwood", "addr:state": "TX", "addr:postcode": "76801", "name": "Fuzzy's Taco Shop - Brownwood, TX", "phone": "+13255101999", "website": "https://restaurants.fuzzystacoshop.com/fuzzys-taco-shop-361ef1768126", "opening_hours": "Mo-Th 10:00-21:00; Fr-Sa 10:00-23:00; Su 10:00-21:00", "brand": "Fuzzy's Taco Shop", "brand:wikidata": "Q85762348"}, "geometry": {"type": "Point", "coordinates": [-98.98058624909115, 31.724308488047413]}},
{"type": "Feature", "id": "jCIq6MfrOnS1mykxBtHGB_oMxj4=", "properties": {"ref": "38702", "@spider": "fuzzystacos", "addr:street_address": "1288 W. Main Street", "addr:city": "Lewisville", "addr:state": "TX", "addr:postcode": "75067", "name": "Fuzzy's Taco Shop - Lewisville", "phone": "+19725398226", "website": "https://restaurants.fuzzystacoshop.com/fuzzys-taco-shop-31fa02c26f33", "opening_hours": "Mo-Th 07:00-22:00; Fr-Sa 07:00-23:00; Su 07:00-22:00", "brand": "Fuzzy's Taco Shop", "brand:wikidata": "Q85762348"}, "geometry": {"type": "Point", "coordinates": [-97.02667205583707, 33.04148837177385]}},
{"type": "Feature", "id": "DlkZlLbrpPMywgYQZDt34XRrT-0=", "properties": {"ref": "12012", "@spider": "fuzzystacos", "addr:street_address": "12231 Pine Bluffs Way", "addr:city": "Parker", "addr:state": "CO", "addr:postcode": "80134", "name": "Fuzzy's Taco Shop - Parker", "phone": "+17206386030", "website": "https://restaurants.fuzzystacoshop.com/fuzzys-taco-shop-24ac5798958e", "opening_hours": "Mo-Th 08:00-22:00; Fr-Sa 08:00-23:00; Su 08:00-22:00", "brand": "Fuzzy's Taco Shop", "brand:wikidata": "Q85762348"}, "geometry": {"type": "Point", "coordinates": [-104.7596209182709, 39.493730759142245]}},
{"type": "Feature", "id": "FEgwNnaqKnuN3nsyuLlSjCDoCO4=", "properties": {"ref": "38906", "@spider": "fuzzystacos", "addr:street_address": "2660 Marina Bay Drive", "addr:city": "League City", "addr:state": "TX", "addr:postcode": "77573", "name": "Fuzzy's Taco Shop - League City", "phone": "+12815326714", "website": "https://restaurants.fuzzystacoshop.com/fuzzys-taco-shop-32db9f7ff80c", "opening_hours": "Mo-Su 10:00-23:00", "brand": "Fuzzy's Taco Shop", "brand:wikidata": "Q85762348"}, "geometry": {"type": "Point", "coordinates": [-95.06730574049283, 29.53695188306437]}},
{"type": "Feature", "id": "z2JIbBzX83DC4zoF6tjdjee4NYc=", "properties": {"ref": "31204", "@spider": "fuzzystacos", "addr:street_address": "3704 W Camp Wisdom Rd", "addr:city": "Dallas", "addr:state": "TX", "addr:postcode": "75237", "name": "Fuzzy's Taco Shop - Dallas - Redbird", "phone": "+19726777538", "website": "https://restaurants.fuzzystacoshop.com/fuzzys-taco-shop-opening-soon-cd04aab73bdf", "opening_hours": "Mo-Th 10:00-22:00; Fr 10:00-23:00; Sa 07:00-23:00; Su 08:00-22:00", "brand": "Fuzzy's Taco Shop", "brand:wikidata": "Q85762348"}, "geometry": {"type": "Point", "coordinates": [-96.8797341350975, 32.661658759780536]}},
{"type": "Feature", "id": "iD_H9lMg3mpGikPUsHjKhJIK5Sw=", "properties": {"ref": "59801", "@spider": "fuzzystacos", "addr:street_address": "701 North Washington Ave", "addr:city": "Minneapolis", "addr:state": "MN", "addr:postcode": "55401", "name": "Fuzzy's Taco Shop Taqueria - Minneapolis", "phone": "+16122081547", "website": "https://restaurants.fuzzystacoshop.com/fuzzys-taco-shop-taqueria-b031e830f297", "opening_hours": "Mo-Th 08:00-22:00; Fr-Sa 08:00-01:00; Su 08:00-22:00", "brand": "Fuzzy's Taco Shop", "brand:wikidata": "Q85762348"}, "geometry": {"type": "Point", "coordinates": [-93.27723531292281, 44.98731969850615]}},
{"type": "Feature", "id": "cXqSGo7K1D_JFvEtSpE3lhaAvss=", "properties": {"ref": "710202", "@spider": "fuzzystacos", "addr:street_address": "101 Tower Place Lane", "addr:city": "Leesburg", "addr:state": "GA", "addr:postcode": "31763", "name": "Fuzzy's Taco Shop - Leesburg, GA", "phone": "+12295181810", "website": "https://restaurants.fuzzystacoshop.com/fuzzys-taco-shop-opening-soon-cd48df133e5a", "opening_hours": "Mo-Th 07:00-23:00; Fr-Sa 07:00-24:00; Su 07:00-23:00", "brand": "Fuzzy's Taco Shop", "brand:wikidata": "Q85762348"}, "geometry": {"type": "Point", "coordinates": [-84.24937393948059, 31.639724085149602]}},
{"type": "Feature", "id": "SNEwD7kx-SmdcSKjrixJDWtbl6s=", "properties": {"ref": "30114", "@spider": "fuzzystacos", "addr:street_address": "3100 Grapevine Mills Parkway", "addr:city": "Grapevine", "addr:state": "TX", "addr:postcode": "76051", "name": "Fuzzy's Taco Shop - Grapevine (Grapevine Mills)", "phone": "+19722218226", "website": "https://restaurants.fuzzystacoshop.com/fuzzys-taco-shop-ffed4e86800b", "opening_hours": "Mo-Th 08:00-22:00; Fr-Sa 08:00-23:00; Su 08:00-21:00", "brand": "Fuzzy's Taco Shop", "brand:wikidata": "Q85762348"}, "geometry": {"type": "Point", "coordinates": [-97.03603087172064, 32.96863594264077]}},
{"type": "Feature", "id": "WBu-GeGre7zFU735oAvZ-I1iqrk=", "properties": {"ref": "34502", "@spider": "fuzzystacos", "addr:street_address": "306 N Rock Rd.", "addr:city": "Wichita", "addr:state": "KS", "addr:postcode": "67206", "name": "Fuzzy's Taco Shop - Wichita", "phone": "+13166848226", "website": "https://restaurants.fuzzystacoshop.com/fuzzys-taco-shop-f68c3b2f6bfa", "opening_hours": "Mo-Th 10:00-22:00; Fr-Sa 10:00-22:30; Su 10:00-22:00", "brand": "Fuzzy's Taco Shop", "brand:wikidata": "Q85762348"}, "geometry": {"type": "Point", "coordinates": [-97.24367004963051, 37.69058633777297]}},
{"type": "Feature", "id": "UXhg1Its20_5iv_e2Qwj2PEpiQ0=", "properties": {"ref": "30808", "@spider": "fuzzystacos", "addr:street_address": "1671 Shedeck Circle", "addr:city": "Yukon", "addr:state": "OK", "addr:postcode": "73099", "name": "Fuzzy's Taco Shop - Yukon", "phone": "+14054674410", "website": "https://restaurants.fuzzystacoshop.com/fuzzys-taco-shop-e554005e3237", "opening_hours": "Mo-Su 10:00-22:00", "brand": "Fuzzy's Taco Shop", "brand:wikidata": "Q85762348"}, "geometry": {"type": "Point", "coordinates": [-97.75452985557249, 35.48075005223554]}},
{"type": "Feature", "id": "04JzscVH1fDKjEOFe2LgEcICZT4=", "properties": {"ref": "31205", "@spider": "fuzzystacos", "addr:street_address": "709 W Exchange", "addr:city": "Allen", "addr:state": "TX", "addr:postcode": "75013", "name": "Fuzzy's Taco Shop - Allen", "phone": "+14696569645", "website": "https://restaurants.fuzzystacoshop.com/fuzzys-taco-shop-f5e11399b66c", "opening_hours": "Mo-Th 07:00-22:00; Fr-Sa 07:00-23:00; Su 07:00-22:00", "brand": "Fuzzy's Taco Shop", "brand:wikidata": "Q85762348"}, "geometry": {"type": "Point", "coordinates": [-96.6738501395591, 33.11809270217641]}},
{"type": "Feature", "id": "o-ZLEOJHiOq2iKqriCe2OfHG-1g=", "properties": {"ref": "31805", "@spider": "fuzzystacos", "addr:street_address": "4333 Sherwood Way", "addr:city": "San Angelo", "addr:state": "TX", "addr:postcode": "76901", "name": "Fuzzy's Taco Shop - San Angelo", "phone": "+13257035044", "website": "https://restaurants.fuzzystacoshop.com/fuzzys-taco-shop-f291668c84f7", "opening_hours": "Mo-Th 08:00-23:00; Fr-Sa 08:00-24:00; Su 08:00-23:00", "brand": "Fuzzy's Taco Shop", "brand:wikidata": "Q85762348"}, "geometry": {"type": "Point", "coordinates": [-100.49580756821406, 31.43602109517784]}},
{"type": "Feature", "id": "ik4yHc8PGwSa2mis3XqVLulAMwM=", "properties": {"ref": "30501", "@spider": "fuzzystacos", "addr:street_address": "1217 S Main St", "addr:city": "Weatherford", "addr:state": "TX", "addr:postcode": "76086", "name": "Fuzzy's Taco Shop - Weatherford", "phone": "+18176138226", "website": "https://restaurants.fuzzystacoshop.com/fuzzys-taco-shop-f2d4186a0b2a", "opening_hours": "Mo-We 10:00-22:00; Th-Sa 10:00-23:00; Su 10:00-21:00", "brand": "Fuzzy's Taco Shop", "brand:wikidata": "Q85762348"}, "geometry": {"type": "Point", "coordinates": [-97.79727729352815, 32.74485393497166]}},
{"type": "Feature", "id": "LloALamNDHjmJQIbRo_BYbiSr28=", "properties": {"ref": "31402", "@spider": "fuzzystacos", "addr:street_address": "2030 Glade Road", "addr:city": "Grapevine", "addr:state": "TX", "addr:postcode": "76051", "name": "Fuzzy's Taco Shop - Grapevine (Glade)", "phone": "+18174168226", "website": "https://restaurants.fuzzystacoshop.com/fuzzys-taco-shop-eee9c0983b3a", "opening_hours": "Mo-Th 07:00-22:00; Fr-Sa 07:00-23:00; Su 07:00-21:00", "brand": "Fuzzy's Taco Shop", "brand:wikidata": "Q85762348"}, "geometry": {"type": "Point", "coordinates": [-97.09644084133801, 32.881525992373255]}},
{"type": "Feature", "id": "YvBaW_tMrRBmN4FmEBTBQO3FrXo=", "properties": {"ref": "30802", "@spider": "fuzzystacos", "addr:street_address": "208 Johnny Bench Dr", "addr:city": "Oklahoma City", "addr:state": "OK", "addr:postcode": "73104", "name": "Fuzzy's Taco Shop - Oklahoma City (Bricktown)", "phone": "+14056023899", "website": "https://restaurants.fuzzystacoshop.com/fuzzys-taco-shop-f2b9868f36ca", "opening_hours": "Mo-Su 10:00-22:00", "brand": "Fuzzy's Taco Shop", "brand:wikidata": "Q85762348"}, "geometry": {"type": "Point", "coordinates": [-97.50882816589872, 35.46384161003551]}},
{"type": "Feature", "id": "5nw-dT0fBDN4IVsWE6aCySNLTdU=", "properties": {"ref": "38902", "@spider": "fuzzystacos", "addr:street_address": "4875 Hwy 6", "addr:city": "Missouri City", "addr:state": "TX", "addr:postcode": "77459", "name": "Fuzzy's Taco Shop - Missouri City (CLOSED)", "phone": "+13463042424", "website": "https://restaurants.fuzzystacoshop.com/fuzzys-taco-shop-e6feae4d4fb0", "opening_hours": "24/7", "brand": "Fuzzy's Taco Shop", "brand:wikidata": "Q85762348"}, "geometry": {"type": "Point", "coordinates": [-95.58059864597098, 29.57964300531507]}},
{"type": "Feature", "id": "qN6_JLY2gKq7AdxiI1mvEf5UDO0=", "properties": {"ref": "30805", "@spider": "fuzzystacos", "addr:street_address": "13230 Pawnee Dr", "addr:city": "Oklahoma City", "addr:state": "OK", "addr:postcode": "73114", "name": "Fuzzy's Taco Shop - Oklahoma City (Chisholm Creek)", "phone": "+14052865633", "website": "https://restaurants.fuzzystacoshop.com/fuzzys-taco-shop-e86589cd3860", "opening_hours": "Mo-Su 10:00-22:00", "brand": "Fuzzy's Taco Shop", "brand:wikidata": "Q85762348"}, "geometry": {"type": "Point", "coordinates": [-97.5341855, 35.6040757]}},
{"type": "Feature", "id": "RwMNoldI-91r9_wCN1RH0nF1AfY=", "properties": {"ref": "13005", "@spider": "fuzzystacos", "addr:street_address": "3996 Central Park Blvd", "addr:city": "Denver", "addr:state": "CO", "addr:postcode": "80238", "name": "Fuzzy's Taco Shop - Denver (Stapleton)", "phone": "+13035763228", "website": "https://restaurants.fuzzystacoshop.com/fuzzys-taco-shop-e53816f78bf1", "opening_hours": "Mo-Fr 07:00-22:00; Sa-Su 08:00-22:00", "brand": "Fuzzy's Taco Shop", "brand:wikidata": "Q85762348"}, "geometry": {"type": "Point", "coordinates": [-104.88227685916009, 39.77368043263843]}},
{"type": "Feature", "id": "ejNB_0Kx8lIMawOZvORqzIa1chY=", "properties": {"ref": "31401", "@spider": "fuzzystacos", "addr:street_address": "1363 W Euless Blvd", "addr:city": "Euless", "addr:state": "TX", "addr:postcode": "76040", "name": "Fuzzy's Taco Shop - Euless", "phone": "+18172678226", "website": "https://restaurants.fuzzystacoshop.com/fuzzys-taco-shop-daba634de949", "opening_hours": "Mo-Sa 08:00-22:00; Su 09:00-21:00", "brand": "Fuzzy's Taco Shop", "brand:wikidata": "Q85762348"}, "geometry": {"type": "Point", "coordinates": [-97.10467388247362, 32.82640176265639]}},
{"type": "Feature", "id": "ld2Aq-qPkt39jvnTZIJZmut076Y=", "properties": {"ref": "30803", "@spider": "fuzzystacos", "addr:street_address": "305 South Washington Street", "addr:city": "Stillwater", "addr:state": "OK", "addr:postcode": "74074", "name": "Fuzzy's Taco Shop - Stillwater", "phone": "+14055640433", "website": "https://restaurants.fuzzystacoshop.com/fuzzys-taco-shop-e4808250ee46", "opening_hours": "Mo-Su 10:00-22:00", "brand": "Fuzzy's Taco Shop", "brand:wikidata": "Q85762348"}, "geometry": {"type": "Point", "coordinates": [-97.0691297713733, 36.118493134285856]}},
{"type": "Feature", "id": "2eVnDP4-YoKMY6oe42ImOHIs3Vs=", "properties": {"ref": "12008", "@spider": "fuzzystacos", "addr:street_address": "1375 Interquest Parkway", "addr:city": "Colorado Springs", "addr:state": "CO", "addr:postcode": "80921", "name": "Fuzzy's Taco Shop - Colorado Springs (Interquest Pkwy)", "phone": "+17195982554", "website": "https://restaurants.fuzzystacoshop.com/fuzzys-taco-shop-e043c9c889b8", "opening_hours": "Mo-Th 08:00-22:00; Fr-Sa 08:00-23:00; Su 08:00-22:00", "brand": "Fuzzy's Taco Shop", "brand:wikidata": "Q85762348"}, "geometry": {"type": "Point", "coordinates": [-104.79974783980879, 38.99013380690383]}},
{"type": "Feature", "id": "H6HcM-DPMVACCMSrkQcxzrKJ_xM=", "properties": {"ref": "32905", "@spider": "fuzzystacos", "addr:street_address": "4740 W. University Dr", "addr:city": "Prosper", "addr:state": "TX", "addr:postcode": "75078", "name": "Fuzzy's Taco Shop - Prosper", "phone": "+14694816020", "website": "https://restaurants.fuzzystacoshop.com/fuzzys-taco-shop-ddddb98b5ceb", "opening_hours": "Mo 10:00-20:00; Tu 10:00-21:00; We 10:00-20:00; Th 10:00-21:00; Fr-Sa 08:00-21:00; Su 10:00-21:00", "brand": "Fuzzy's Taco Shop", "brand:wikidata": "Q85762348"}, "geometry": {"type": "Point", "coordinates": [-96.87963438799615, 33.220885238337466]}},
{"type": "Feature", "id": "cw_9el_uYY68tPaTgCej79XMdVo=", "properties": {"ref": "30105", "@spider": "fuzzystacos", "addr:street_address": "6353 Camp Bowie", "addr:city": "Fort Worth", "addr:state": "TX", "addr:postcode": "76116", "name": "Fuzzy's Taco Shop - Fort Worth (Camp Bowie)", "phone": "+18179898226", "website": "https://restaurants.fuzzystacoshop.com/fuzzys-taco-shop-e1980009abf7", "opening_hours": "Mo-Th 07:00-22:00; Fr-Sa 07:00-23:00; Su 07:00-22:00", "brand": "Fuzzy's Taco Shop", "brand:wikidata": "Q85762348"}, "geometry": {"type": "Point", "coordinates": [-97.4203364545587, 32.726220461384635]}},
{"type": "Feature", "id": "S3CBArcEgHfLuhQH5FzpyDbv_JM=", "properties": {"ref": "38904", "@spider": "fuzzystacos", "addr:street_address": "219 S Hwy 342", "addr:city": "Red Oak", "addr:state": "TX", "addr:postcode": "75154", "name": "Fuzzy's Taco Shop - Red Oak", "phone": "+14695526554", "website": "https://restaurants.fuzzystacoshop.com/fuzzys-taco-shop-d8295aa1f16b", "opening_hours": "Mo-Su 09:00-22:00", "brand": "Fuzzy's Taco Shop", "brand:wikidata": "Q85762348"}, "geometry": {"type": "Point", "coordinates": [-96.80495410485587, 32.51082960900135]}},
{"type": "Feature", "id": "CvydFyPUDfYrGlkxluNTkaEjVf8=", "properties": {"ref": "38707", "@spider": "fuzzystacos", "addr:street_address": "407 W Eldorado Pkwy", "addr:city": "Little Elm", "addr:state": "TX", "addr:postcode": "75068", "name": "Fuzzy's Taco Shop - Little Elm (On the Lake)", "phone": "+14695795907", "website": "https://restaurants.fuzzystacoshop.com/fuzzys-taco-shop-d52dcc3c5a13", "opening_hours": "Mo-Th 10:00-22:00; Fr-Sa 10:00-23:00; Su 10:00-22:00", "brand": "Fuzzy's Taco Shop", "brand:wikidata": "Q85762348"}, "geometry": {"type": "Point", "coordinates": [-96.9419696728968, 33.158280466482736]}},
{"type": "Feature", "id": "PyDxlaEaDPNaLXIxrhkAWTrVN_c=", "properties": {"ref": "31201", "@spider": "fuzzystacos", "addr:street_address": "2205 N. Central Expy", "addr:city": "Plano", "addr:state": "TX", "addr:postcode": "75075", "name": "Fuzzy's Taco Shop - Plano (N. Central)", "phone": "+19723128226", "website": "https://restaurants.fuzzystacoshop.com/fuzzys-taco-shop-9a397e3a77e5", "opening_hours": "Mo-Th 07:00-22:00; Fr-Sa 07:00-23:00; Su 07:00-22:00", "brand": "Fuzzy's Taco Shop", "brand:wikidata": "Q85762348"}, "geometry": {"type": "Point", "coordinates": [-96.7096911462377, 33.02978661657757]}},
{"type": "Feature", "id": "TQUc0aAb3QJ311xbTjLQA0J508Q=", "properties": {"ref": "78501", "@spider": "fuzzystacos", "addr:street_address": "854 West Cypress Creek Road", "addr:city": "Fort Lauderdale", "addr:state": "FL", "addr:postcode": "33309", "name": "Fuzzy's Taco Shop - Fort Lauderdale", "phone": "+19542898111", "website": "https://restaurants.fuzzystacoshop.com/fuzzys-taco-shop-d4a415efee5c", "opening_hours": "Mo-Th 10:00-22:00; Fr 10:00-23:00; Sa 11:00-23:00; Su 11:00-21:00", "brand": "Fuzzy's Taco Shop", "brand:wikidata": "Q85762348"}, "geometry": {"type": "Point", "coordinates": [-80.15408417695107, 26.20260119210029]}},
{"type": "Feature", "id": "fwnI0k0z11UEmoWOH1d-rRDIFig=", "properties": {"ref": "12006", "@spider": "fuzzystacos", "addr:street_address": "5915 Dublin Blvd", "addr:city": "Colorado Springs", "addr:state": "CO", "addr:postcode": "80923", "name": "Fuzzy's Taco Shop - Colorado Springs (Dublin)", "phone": "+17193888226", "website": "https://restaurants.fuzzystacoshop.com/fuzzys-taco-shop-cfeda4d7b82c", "opening_hours": "Mo-Sa 08:00-23:00; Su 08:00-22:00", "brand": "Fuzzy's Taco Shop", "brand:wikidata": "Q85762348"}, "geometry": {"type": "Point", "coordinates": [-104.7182291061468, 38.9255397323281]}},
{"type": "Feature", "id": "CZ5S4duMhc6t2HI6R1girlBqYDU=", "properties": {"ref": "74602", "@spider": "fuzzystacos", "addr:street_address": "5621 E. Fowler Avenue", "addr:city": "Tampa", "addr:state": "FL", "addr:postcode": "33617", "name": "Fuzzy's Taco Shop - Tampa (Temple Terrace / USF)", "phone": "+18136445281", "website": "https://restaurants.fuzzystacoshop.com/fuzzys-taco-shop-c186376df1af", "opening_hours": "Mo 11:00-22:00; Tu 11:00-23:00; We 11:00-22:00; Th-Sa 11:00-23:00; Su 11:00-22:00", "brand": "Fuzzy's Taco Shop", "brand:wikidata": "Q85762348"}, "geometry": {"type": "Point", "coordinates": [-82.39281463979945, 28.053328874293708]}},
{"type": "Feature", "id": "X8YdM1MBJJy3TjSYE0Hs99f9ogQ=", "properties": {"ref": "12013", "@spider": "fuzzystacos", "addr:street_address": "140 East Cheyenne Road", "addr:city": "Colorado Springs", "addr:state": "CO", "addr:postcode": "80906", "name": "Fuzzy's Taco Shop Colorado Springs - Creekwalk", "phone": "+17196533345", "website": "https://restaurants.fuzzystacoshop.com/fuzzys-taco-shop-colorado-springs-creekwalk-fdbb85ecef38", "opening_hours": "Mo-Th 08:00-22:00; Fr-Sa 08:00-23:00; Su 08:00-22:00", "brand": "Fuzzy's Taco Shop", "brand:wikidata": "Q85762348"}, "geometry": {"type": "Point", "coordinates": [-104.82342747605743, 38.80809670853169]}},
{"type": "Feature", "id": "SOS98AlEHsdxcHJCdnRu3iKOcL4=", "properties": {"ref": "13002", "@spider": "fuzzystacos", "addr:street_address": "10280 Washington St.", "addr:city": "Thornton", "addr:state": "CO", "addr:postcode": "80229", "name": "Fuzzy's Taco Shop - Thornton", "phone": "+13032528226", "website": "https://restaurants.fuzzystacoshop.com/fuzzys-taco-shop-cd1ff80552fd", "opening_hours": "Mo-Su 09:00-22:00", "brand": "Fuzzy's Taco Shop", "brand:wikidata": "Q85762348"}, "geometry": {"type": "Point", "coordinates": [-104.97721368125022, 39.88265836144568]}},
{"type": "Feature", "id": "vg77Zuh3K4qFKOjkeqsfsKJmOpc=", "properties": {"ref": "32904", "@spider": "fuzzystacos", "addr:street_address": "11450 Hwy 380", "addr:city": "Cross Roads", "addr:state": "TX", "addr:postcode": "76227", "name": "Fuzzy's Taco Shop - Cross Roads", "phone": "+19403659992", "website": "https://restaurants.fuzzystacoshop.com/fuzzys-taco-shop-c72a1e7c8c99", "opening_hours": "Mo 10:00-15:00; Tu 10:00-20:00; We 10:00-15:00; Th-Su 10:00-20:00", "brand": "Fuzzy's Taco Shop", "brand:wikidata": "Q85762348"}, "geometry": {"type": "Point", "coordinates": [-96.98619577320424, 33.22615049144464]}},
{"type": "Feature", "id": "SKESKNqdnl5Wo2bkvz4r6g-u0YQ=", "properties": {"ref": "32701", "@spider": "fuzzystacos", "addr:street_address": "1115 Massachusetts Street", "addr:city": "Lawrence", "addr:state": "KS", "addr:postcode": "66044", "name": "Fuzzy's Taco Shop - Lawrence", "phone": "+17858418226", "website": "https://restaurants.fuzzystacoshop.com/fuzzys-taco-shop-c8a4c0e60e53", "opening_hours": "Mo-Su 11:00-21:00", "brand": "Fuzzy's Taco Shop", "brand:wikidata": "Q85762348"}, "geometry": {"type": "Point", "coordinates": [-95.23621655363027, 38.96320075382072]}},
{"type": "Feature", "id": "VGT8ILazCp0Y4ECj3odt_B0ad-U=", "properties": {"ref": "12007", "@spider": "fuzzystacos", "addr:street_address": "4365 Centerplace Dr", "addr:city": "Greeley", "addr:state": "CO", "addr:postcode": "80634", "name": "Fuzzy's Taco Shop - Greeley", "phone": "+19703393663", "website": "https://restaurants.fuzzystacoshop.com/fuzzys-taco-shop-c6fee0e72923", "opening_hours": "Mo-Su 08:00-22:00", "brand": "Fuzzy's Taco Shop", "brand:wikidata": "Q85762348"}, "geometry": {"type": "Point", "coordinates": [-104.7487972867728, 40.39551996312984]}},
{"type": "Feature", "id": "GiRNj0b_UcvsbPSshNv9gPgdNSM=", "properties": {"ref": "54302", "@spider": "fuzzystacos", "addr:street_address": "2732 E Delaware Ave", "addr:city": "Ankeny", "addr:state": "IA", "addr:postcode": "50021", "name": "Fuzzy's Taco Shop - Ankeny", "phone": "+15156199404", "website": "https://restaurants.fuzzystacoshop.com/fuzzys-taco-shop-c06d15da59c0", "opening_hours": "Mo-Th 08:00-20:00; Fr-Sa 08:00-22:00; Su 08:00-20:00", "brand": "Fuzzy's Taco Shop", "brand:wikidata": "Q85762348"}, "geometry": {"type": "Point", "coordinates": [-93.58264888591886, 41.701337662622485]}},
{"type": "Feature", "id": "mB3NcgkfMCy8obFVC80Zptpt4FU=", "properties": {"ref": "13003", "@spider": "fuzzystacos", "addr:street_address": "4301 Main Street", "addr:city": "Westminster", "addr:state": "CO", "addr:postcode": "80031", "name": "Fuzzy's Taco Shop - Westminster", "phone": "+13034608226", "website": "https://restaurants.fuzzystacoshop.com/fuzzys-taco-shop-c68f57cec668", "opening_hours": "Mo 10:00-21:00; Tu-Fr 10:00-22:00; Sa 09:00-22:00; Su 09:00-21:00", "brand": "Fuzzy's Taco Shop", "brand:wikidata": "Q85762348"}, "geometry": {"type": "Point", "coordinates": [-105.0427383509609, 39.91308690397275]}},
{"type": "Feature", "id": "33mu2Y-Pp_g-J0pEJyvyHJ5Fw2I=", "properties": {"ref": "39003", "@spider": "fuzzystacos", "addr:street_address": "2917 W. Berry Street", "addr:city": "Fort Worth", "addr:state": "TX", "addr:postcode": "76109", "name": "Fuzzy's Taco Shop - Fort Worth (Berry)", "phone": "+18179247943", "website": "https://restaurants.fuzzystacoshop.com/fuzzys-taco-shop-bfdfcdaa4dda", "opening_hours": "Mo 07:00-22:00; Tu-We 07:00-23:00; Th-Sa 07:00-02:00; Su 07:00-22:00", "brand": "Fuzzy's Taco Shop", "brand:wikidata": "Q85762348"}, "geometry": {"type": "Point", "coordinates": [-97.35910235119081, 32.705910340292135]}},
{"type": "Feature", "id": "oFuHdBpomKdK55C_YmsUy3UO8XQ=", "properties": {"ref": "30503", "@spider": "fuzzystacos", "addr:street_address": "149 Willow Bend Drive", "addr:city": "Willow Park", "addr:state": "TX", "addr:postcode": "76008", "name": "Fuzzy's Taco Shop - Willow Park", "phone": "+18178418226", "website": "https://restaurants.fuzzystacoshop.com/fuzzys-taco-shop-be027d950a97", "opening_hours": "Mo-We 10:00-22:00; Th-Sa 10:00-23:00; Su 10:00-21:00", "brand": "Fuzzy's Taco Shop", "brand:wikidata": "Q85762348"}, "geometry": {"type": "Point", "coordinates": [-97.6305306, 32.7319622]}},
{"type": "Feature", "id": "-PY-XSfH-ky-_gZk0X82yE30rPk=", "properties": {"ref": "17801", "@spider": "fuzzystacos", "addr:street_address": "350 S Mill Ave", "addr:city": "Tempe", "addr:state": "AZ", "addr:postcode": "85281", "name": "Fuzzy's Taco Shop - Tempe", "phone": "+14809688226", "website": "https://restaurants.fuzzystacoshop.com/fuzzys-taco-shop-b659ec792831", "opening_hours": "Mo-Th 10:00-22:00; Fr-Sa 10:00-24:00; Su 10:00-22:00", "brand": "Fuzzy's Taco Shop", "brand:wikidata": "Q85762348"}, "geometry": {"type": "Point", "coordinates": [-111.940435, 33.426931]}},
{"type": "Feature", "id": "O3_rAm43DGAwFKvO566Ux3_qy7s=", "properties": {"ref": "39005", "@spider": "fuzzystacos", "addr:street_address": "4112 N Josey Ln", "addr:city": "Carrollton", "addr:state": "TX", "addr:postcode": "75007", "name": "Fuzzy's Taco Shop - Carrollton (Josey)", "phone": "+12144832700", "website": "https://restaurants.fuzzystacoshop.com/fuzzys-taco-shop-b75de9fe49a9", "opening_hours": "Mo-Th 07:00-22:00; Fr-Sa 07:00-23:00; Su 07:00-22:00", "brand": "Fuzzy's Taco Shop", "brand:wikidata": "Q85762348"}, "geometry": {"type": "Point", "coordinates": [-96.88433914771001, 33.02276420090174]}},
{"type": "Feature", "id": "oXXe6v5-nMVDgnLwZY6l9oqsmow=", "properties": {"ref": "74603", "@spider": "fuzzystacos", "addr:street_address": "3950 S. Florida Avenue", "addr:city": "Lakeland", "addr:state": "FL", "addr:postcode": "33813", "name": "Fuzzy's Taco Shop - Lakeland", "phone": "+18636176163", "website": "https://restaurants.fuzzystacoshop.com/fuzzys-taco-shop-bbbdf549e76b", "opening_hours": "Mo 11:00-21:00; Tu-Th 11:00-22:00; Fr-Sa 11:00-23:00; Su 11:00-21:00", "brand": "Fuzzy's Taco Shop", "brand:wikidata": "Q85762348"}, "geometry": {"type": "Point", "coordinates": [-81.95630864040311, 27.992182881358794]}},
{"type": "Feature", "id": "0u74bVMa3P3T3B6fL2pu4CwEcF4=", "properties": {"ref": "59701", "@spider": "fuzzystacos", "addr:street_address": "201 East 9th St.", "addr:city": "Coralville", "addr:state": "IA", "addr:postcode": "52241", "name": "Fuzzy's Taco Shop - Coralville", "phone": "+13193591644", "website": "https://restaurants.fuzzystacoshop.com/fuzzys-taco-shop-b8b61aa1e78f", "opening_hours": "Mo 10:00-19:00; Tu-Sa 10:00-22:00; Su 10:00-19:00", "brand": "Fuzzy's Taco Shop", "brand:wikidata": "Q85762348"}, "geometry": {"type": "Point", "coordinates": [-91.5616818832657, 41.682000501600065]}},
{"type": "Feature", "id": "Oe3UC7Fifd2_7a4JPP-MbX1DZYQ=", "properties": {"ref": "35901", "@spider": "fuzzystacos", "addr:street_address": "1155 Union Circle", "addr:city": "Denton", "addr:state": "TX", "addr:postcode": "76203", "name": "Fuzzy's Taco Shop - Denton (UNT Union)", "phone": "+19403698754", "website": "https://restaurants.fuzzystacoshop.com/fuzzys-taco-shop-b6d3c960208a", "opening_hours": "Mo-Fr 09:30-24:00; Sa 10:00-24:00; Su 08:00-24:00", "brand": "Fuzzy's Taco Shop", "brand:wikidata": "Q85762348"}, "geometry": {"type": "Point", "coordinates": [-97.14722844293956, 33.21079413075271]}},
{"type": "Feature", "id": "EER_L1zyAWbEkeE4w15qDYyvdlM=", "properties": {"ref": "33203", "@spider": "fuzzystacos", "addr:street_address": "1871 Troup Hwy", "addr:city": "Tyler", "addr:state": "TX", "addr:postcode": "75701", "name": "Fuzzy's Taco Shop - Tyler (Troup)", "phone": "+19035973899", "website": "https://restaurants.fuzzystacoshop.com/fuzzys-taco-shop-a3ccaa69807c", "opening_hours": "Mo-We 07:00-22:00; Th-Fr 07:00-24:00; Sa 07:00-01:00; Su 10:00-22:00", "brand": "Fuzzy's Taco Shop", "brand:wikidata": "Q85762348"}, "geometry": {"type": "Point", "coordinates": [-95.27802358001958, 32.316236897145906]}},
{"type": "Feature", "id": "-EKHEhOHHGwokSapBD6Ppdq644I=", "properties": {"ref": "34503", "@spider": "fuzzystacos", "addr:street_address": "4521 E 21st St", "addr:city": "Wichita", "addr:state": "KS", "addr:postcode": "67208", "name": "Fuzzy's Taco Shop - Wichita (WSU)", "phone": "+13166848227", "website": "https://restaurants.fuzzystacoshop.com/fuzzys-taco-shop-b5d720e5d982", "opening_hours": "Mo-We 10:30-22:30; Th-Sa 10:30-23:00; Su 11:00-20:00", "brand": "Fuzzy's Taco Shop", "brand:wikidata": "Q85762348"}, "geometry": {"type": "Point", "coordinates": [-97.28373641964332, 37.72206936621528]}},
{"type": "Feature", "id": "gNY8Cd_QnAR_G0u-bliPuPlf-8E=", "properties": {"ref": "30212", "@spider": "fuzzystacos", "addr:street_address": "5710 Rufe Snow Drive", "addr:city": "North Richland Hills", "addr:state": "TX", "addr:postcode": "76180", "name": "Fuzzy's Taco Shop - North Richland Hills", "phone": "+18174853899", "website": "https://restaurants.fuzzystacoshop.com/fuzzys-taco-shop-b2804846494d", "opening_hours": "Mo-Th 07:00-22:00; Fr-Sa 07:00-24:00; Su 07:00-22:00", "brand": "Fuzzy's Taco Shop", "brand:wikidata": "Q85762348"}, "geometry": {"type": "Point", "coordinates": [-97.2382480640463, 32.851068820898334]}},
{"type": "Feature", "id": "weN2V3r01BstEckyPZPmKBiSm2s=", "properties": {"ref": "19601", "@spider": "fuzzystacos", "addr:street_address": "3243 Talon Drive", "addr:city": "Casper", "addr:state": "WY", "addr:postcode": "82604", "name": "Fuzzy's Taco Shop - Casper", "phone": "+13072432100", "website": "https://restaurants.fuzzystacoshop.com/fuzzys-taco-shop-b0d24465a962", "opening_hours": "Mo-Th 07:00-22:00; Fr-Sa 07:00-23:00; Su 08:00-22:00", "brand": "Fuzzy's Taco Shop", "brand:wikidata": "Q85762348"}, "geometry": {"type": "Point", "coordinates": [-106.36583379051834, 42.81494418283685]}},
{"type": "Feature", "id": "THlLGwoUmkMhVWFULlr7qcPNsks=", "properties": {"ref": "510805", "@spider": "fuzzystacos", "addr:street_address": "205 E. Nifong", "addr:city": "Columbia", "addr:state": "MO", "addr:postcode": "65203", "name": "Fuzzy's Taco Shop - Columbia (Nifong)", "phone": "+15738182233", "website": "https://restaurants.fuzzystacoshop.com/fuzzys-taco-shop-ab4f128acf91", "opening_hours": "Mo-Sa 10:00-22:00; Su 10:00-15:00", "brand": "Fuzzy's Taco Shop", "brand:wikidata": "Q85762348"}, "geometry": {"type": "Point", "coordinates": [-92.33729164906637, 38.911079817431165]}},
{"type": "Feature", "id": "iPyX6ICeRtI73C2Q03dbdI3YhXM=", "properties": {"ref": "30209", "@spider": "fuzzystacos", "addr:street_address": "9180 North Freeway", "addr:city": "Fort Worth", "addr:state": "TX", "addr:postcode": "76177", "name": "Fuzzy's Taco Shop - Fort Worth (Alliance)", "phone": "+18177508226", "website": "https://restaurants.fuzzystacoshop.com/fuzzys-taco-shop-ace4bd68de04", "opening_hours": "Mo-Th 10:00-22:00; Fr-Su 08:00-22:00", "brand": "Fuzzy's Taco Shop", "brand:wikidata": "Q85762348"}, "geometry": {"type": "Point", "coordinates": [-97.31549375148501, 32.90484532353435]}},
{"type": "Feature", "id": "VWRnk7DEBHEXBSR9Xmz0HEz8SfY=", "properties": {"ref": "74401", "@spider": "fuzzystacos", "addr:street_address": "2515 University Pkwy", "addr:city": "Sarasota", "addr:state": "FL", "addr:postcode": "34243", "name": "Fuzzy's Taco Shop - Sarasota", "phone": "+19418228933", "website": "https://restaurants.fuzzystacoshop.com/fuzzys-taco-shop-a5b825aa424a", "opening_hours": "Mo 11:00-23:00; Tu-Sa 11:00-24:00; Su 11:00-23:00", "brand": "Fuzzy's Taco Shop", "brand:wikidata": "Q85762348"}, "geometry": {"type": "Point", "coordinates": [-82.5194489337778, 27.38982427266841]}},
{"type": "Feature", "id": "_9YEMLqgXfTcT7TBqVyZZb2XK2I=", "properties": {"ref": "39201", "@spider": "fuzzystacos", "addr:street_address": "115 West Pearl Street", "addr:city": "Granbury", "addr:state": "TX", "addr:postcode": "76048", "name": "Fuzzy's Taco Shop - Granbury", "phone": "+18175738226", "website": "https://restaurants.fuzzystacoshop.com/fuzzys-taco-shop-a43ff262d46f", "opening_hours": "Mo-Th 10:00-21:00; Fr-Sa 08:00-22:00; Su 08:00-21:00", "brand": "Fuzzy's Taco Shop", "brand:wikidata": "Q85762348"}, "geometry": {"type": "Point", "coordinates": [-97.78827285740059, 32.441968859178004]}},
{"type": "Feature", "id": "NndTNa-RqAYfPu8ViplJikBXQ5M=", "properties": {"ref": "30801", "@spider": "fuzzystacos", "addr:street_address": "752 Asp Avenue", "addr:city": "Norman", "addr:state": "OK", "addr:postcode": "73069", "name": "Fuzzy's Taco Shop - Norman", "phone": "+14057011000", "website": "https://restaurants.fuzzystacoshop.com/fuzzys-taco-shop-a759ef002982", "opening_hours": "Mo-Su 10:00-22:00", "brand": "Fuzzy's Taco Shop", "brand:wikidata": "Q85762348"}, "geometry": {"type": "Point", "coordinates": [-97.44395263286368, 35.212347932995456]}},
{"type": "Feature", "id": "kneXXcC1thTncd_JMiG1DSaxYPc=", "properties": {"ref": "510501", "@spider": "fuzzystacos", "addr:street_address": "4600 E Texas St.", "addr:city": "Bossier City", "addr:state": "LA", "addr:postcode": "71111", "name": "Fuzzy's Taco Shop - Bossier City", "phone": "+13185505639", "website": "https://restaurants.fuzzystacoshop.com/fuzzys-taco-shop-a63d5f829840", "opening_hours": "Mo-Th 07:00-22:00; Fr-Sa 07:00-23:00; Su 07:00-22:00", "brand": "Fuzzy's Taco Shop", "brand:wikidata": "Q85762348"}, "geometry": {"type": "Point", "coordinates": [-93.67192583382125, 32.533083377151364]}},
{"type": "Feature", "id": "rmrN5TBi8fBwpAg94Hz5kYW_dr8=", "properties": {"ref": "90111", "@spider": "fuzzystacos", "addr:street_address": "165 West McMillan Street", "addr:city": "Cincinnati", "addr:state": "OH", "addr:postcode": "45219", "name": "Fuzzy's Taco Shop - Cincinnati", "phone": "+15133481888", "website": "https://restaurants.fuzzystacoshop.com/fuzzys-taco-shop-9b962877032c", "opening_hours": "Mo-We 11:00-21:00; Th 11:00-09:00; Fr-Sa 11:00-23:00; Su 12:00-20:00", "brand": "Fuzzy's Taco Shop", "brand:wikidata": "Q85762348"}, "geometry": {"type": "Point", "coordinates": [-84.51900257179949, 39.127659748610455]}},
{"type": "Feature", "id": "OMZWlaGPcKA_-j8L2VTR4m6eKYM=", "properties": {"ref": "510802", "@spider": "fuzzystacos", "addr:street_address": "1288 Old Orchard Center", "addr:city": "Manchester", "addr:state": "MO", "addr:postcode": "63021", "name": "Fuzzy's Taco Shop - Manchester (Old Orchard)", "phone": "+16366867394", "website": "https://restaurants.fuzzystacoshop.com/fuzzys-taco-shop-9d519609b8a9", "opening_hours": "Mo-Sa 10:00-20:00; Su 10:00-16:00", "brand": "Fuzzy's Taco Shop", "brand:wikidata": "Q85762348"}, "geometry": {"type": "Point", "coordinates": [-90.49617652171843, 38.59261068944144]}},
{"type": "Feature", "id": "rfYAaqGIw6ox3Rce8ur5CZD5WoA=", "properties": {"ref": "35201", "@spider": "fuzzystacos", "addr:street_address": "17305 Davenport Street", "addr:city": "Omaha", "addr:state": "NE", "addr:postcode": "68118", "name": "Fuzzy's Taco Shop - Omaha (Village Pointe)", "phone": "+14027632220", "website": "https://restaurants.fuzzystacoshop.com/fuzzys-taco-shop-990374680756", "opening_hours": "24/7", "brand": "Fuzzy's Taco Shop", "brand:wikidata": "Q85762348"}, "geometry": {"type": "Point", "coordinates": [-96.18572330919373, 41.26076365041546]}},
{"type": "Feature", "id": "cBJ3ZMnIZVk2-vu1EALKeDiaM_k=", "properties": {"ref": "74701", "@spider": "fuzzystacos", "addr:street_address": "795 Gateway Dr", "addr:city": "Altamonte Springs", "addr:state": "FL", "addr:postcode": "32714", "name": "Fuzzy's Taco Shop - Altamonte Springs", "phone": "+14077907750", "website": "https://restaurants.fuzzystacoshop.com/fuzzys-taco-shop-9a28d9c5277b", "opening_hours": "Mo-Sa 10:00-22:00; Su 10:00-21:00", "brand": "Fuzzy's Taco Shop", "brand:wikidata": "Q85762348"}, "geometry": {"type": "Point", "coordinates": [-81.41463981451169, 28.645170268442897]}},
{"type": "Feature", "id": "mnRq1JabwCZ9UcYbNNp1pDRAHrU=", "properties": {"ref": "36002", "@spider": "fuzzystacos", "addr:street_address": "3100 NE Loop 286", "addr:city": "Paris", "addr:state": "TX", "addr:postcode": "75460", "name": "Fuzzy's Taco Shop - Paris", "phone": "+19037065169", "website": "https://restaurants.fuzzystacoshop.com/fuzzys-taco-shop-97b35d56c1e2", "opening_hours": "Mo-Su 09:00-20:00", "brand": "Fuzzy's Taco Shop", "brand:wikidata": "Q85762348"}, "geometry": {"type": "Point", "coordinates": [-95.51969801735711, 33.67261104478945]}},
{"type": "Feature", "id": "yb4Y4ZZQAZ1JBQ0ggG2y_q7H4G4=", "properties": {"ref": "78801", "@spider": "fuzzystacos", "addr:street_address": "7002 State Highway 21", "addr:city": "Port Wentworth", "addr:state": "GA", "addr:postcode": "31407", "name": "Fuzzy's Taco Shop - Port Wentworth", "phone": "+19129650411", "website": "https://restaurants.fuzzystacoshop.com/fuzzys-taco-shop-96d4a87f59da", "opening_hours": "Mo-Su 07:00-22:00", "brand": "Fuzzy's Taco Shop", "brand:wikidata": "Q85762348"}, "geometry": {"type": "Point", "coordinates": [-81.19337779218931, 32.18909739015803]}},
{"type": "Feature", "id": "_wqZPYVAjSAmqN7kyQIOuFJs5JU=", "properties": {"ref": "74604", "@spider": "fuzzystacos", "addr:street_address": "10240 Big Bend Road", "addr:city": "Riverview", "addr:state": "FL", "addr:postcode": "33578", "name": "Fuzzy's Taco Shop - Riverview (Big Bend)", "phone": "+18136664005", "website": "https://restaurants.fuzzystacoshop.com/fuzzys-taco-shop-880d0e56dd47", "opening_hours": "Mo-Th 11:00-21:00; Fr-Sa 11:00-22:00; Su 11:00-21:00", "brand": "Fuzzy's Taco Shop", "brand:wikidata": "Q85762348"}, "geometry": {"type": "Point", "coordinates": [-82.34088211972728, 27.792867217374795]}},
{"type": "Feature", "id": "a0_fzgQIIQxp4A5z17vC7tq4cHM=", "properties": {"ref": "38701", "@spider": "fuzzystacos", "addr:street_address": "5810 Long Prairie Rd", "addr:city": "Flower Mound", "addr:state": "TX", "addr:postcode": "75028", "name": "Fuzzy's Taco Shop - Flower Mound", "phone": "+19723558226", "website": "https://restaurants.fuzzystacoshop.com/fuzzys-taco-shop-8e8191d0bebc", "opening_hours": "Mo-Su 07:00-22:00", "brand": "Fuzzy's Taco Shop", "brand:wikidata": "Q85762348"}, "geometry": {"type": "Point", "coordinates": [-97.07931399904123, 33.06515095535706]}},
{"type": "Feature", "id": "I4CkdyNrMLawsTiVV8t6KTtBYtw=", "properties": {"ref": "71902", "@spider": "fuzzystacos", "addr:street_address": "265 North Lumpkin", "addr:city": "Athens", "addr:state": "GA", "addr:postcode": "30601", "name": "Fuzzy's Taco Shop - Athens", "phone": "+17063530305", "website": "https://restaurants.fuzzystacoshop.com/fuzzys-taco-shop-91e0601efd72", "brand": "Fuzzy's Taco Shop", "brand:wikidata": "Q85762348"}, "geometry": {"type": "Point", "coordinates": [-83.37745071927895, 33.95872407620341]}},
{"type": "Feature", "id": "avy58vCfF3pFnSR7riCFG06BTdY=", "properties": {"ref": "36505", "@spider": "fuzzystacos", "addr:street_address": "3501 Towne Crossing Blvd", "addr:city": "Mesquite", "addr:state": "TX", "addr:postcode": "75150", "name": "Fuzzy's Taco Shop - Mesquite", "phone": "+19726134115", "website": "https://restaurants.fuzzystacoshop.com/fuzzys-taco-shop-8f94314fe844", "opening_hours": "Mo-Th 08:00-22:00; Fr-Sa 08:00-24:00; Su 09:00-22:00", "brand": "Fuzzy's Taco Shop", "brand:wikidata": "Q85762348"}, "geometry": {"type": "Point", "coordinates": [-96.62916629153304, 32.8122605572143]}},
{"type": "Feature", "id": "HvXl5DrKbCqWagknsVZSZoiLfJg=", "properties": {"ref": "30202", "@spider": "fuzzystacos", "addr:street_address": "4201 W. Green Oaks Blvd", "addr:city": "Arlington", "addr:state": "TX", "addr:postcode": "76016", "name": "Fuzzy's Taco Shop - Arlington (Green Oaks)", "phone": "+18175168226", "website": "https://restaurants.fuzzystacoshop.com/fuzzys-taco-shop-89a43f627d8d", "opening_hours": "Mo-We 07:00-22:00; Th-Sa 07:00-23:00; Su 07:00-22:00", "brand": "Fuzzy's Taco Shop", "brand:wikidata": "Q85762348"}, "geometry": {"type": "Point", "coordinates": [-97.1957016, 32.681025]}},
{"type": "Feature", "id": "p-nfxYK3ke2j1HeIex_fKNXuwFw=", "properties": {"ref": "35602", "@spider": "fuzzystacos", "addr:street_address": "310 E. Hawkins Parkway", "addr:city": "Longview", "addr:state": "TX", "addr:postcode": "75605", "name": "Fuzzy's Taco Shop - Longview", "phone": "+19036637545", "website": "https://restaurants.fuzzystacoshop.com/fuzzys-taco-shop-9607d85e8cc8", "opening_hours": "Mo-Th 07:00-22:00; Fr-Sa 07:00-23:00; Su 07:00-22:00", "brand": "Fuzzy's Taco Shop", "brand:wikidata": "Q85762348"}, "geometry": {"type": "Point", "coordinates": [-94.73762416123517, 32.54675654146318]}},
{"type": "Feature", "id": "fb-oysAZlmP8imTeBUmTyJ--t5I=", "properties": {"ref": "32702", "@spider": "fuzzystacos", "addr:street_address": "2614 SW 17th St.", "addr:city": "Topeka", "addr:state": "KS", "addr:postcode": "66604", "name": "Fuzzy's Taco Shop - Topeka", "phone": "+17857308090", "website": "https://restaurants.fuzzystacoshop.com/fuzzys-taco-shop-91c8d6f0bcdf", "opening_hours": "Mo-Th 10:00-22:00; Fr 10:00-23:00; Sa 09:00-23:00; Su 09:00-22:00", "brand": "Fuzzy's Taco Shop", "brand:wikidata": "Q85762348"}, "geometry": {"type": "Point", "coordinates": [-95.71040224195616, 39.037112018924574]}},
{"type": "Feature", "id": "M4DduMtKPqdY75dsTPnVfAWTI8g=", "properties": {"ref": "31804", "@spider": "fuzzystacos", "addr:street_address": "7408 SW 34th Ave", "addr:city": "Amarillo", "addr:state": "TX", "addr:postcode": "79121", "name": "Fuzzy's Taco Shop - Amarillo", "phone": "+18063528226", "website": "https://restaurants.fuzzystacoshop.com/fuzzys-taco-shop-8e688d56ed72", "opening_hours": "Mo-Th 07:00-23:00; Fr-Sa 07:00-24:00; Su 07:00-23:00", "brand": "Fuzzy's Taco Shop", "brand:wikidata": "Q85762348"}, "geometry": {"type": "Point", "coordinates": [-101.92281791556684, 35.17699461699377]}},
{"type": "Feature", "id": "8zlPtJUkzi_6fNoGuoZG1BHws14=", "properties": {"ref": "39007", "@spider": "fuzzystacos", "addr:street_address": "1100 W John W Carpenter Fwy", "addr:city": "Irving", "addr:state": "TX", "addr:postcode": "75039", "name": "Fuzzy's Taco Shop - Irving", "phone": "+19725508226", "website": "https://restaurants.fuzzystacoshop.com/fuzzys-taco-shop-8dfa03501125", "opening_hours": "Mo-We 07:00-22:00; Th-Sa 07:00-23:00; Su 07:00-22:00", "brand": "Fuzzy's Taco Shop", "brand:wikidata": "Q85762348"}, "geometry": {"type": "Point", "coordinates": [-96.96574591805559, 32.89060063088533]}},
{"type": "Feature", "id": "e-NimD4auELuzDCurVM2Oznp_oE=", "properties": {"ref": "12009", "@spider": "fuzzystacos", "addr:street_address": "3111 N Chestnut", "addr:city": "Colorado Springs", "addr:state": "CO", "addr:postcode": "80907", "name": "Fuzzy's Taco Shop - Colorado Springs (Fillmore)", "phone": "+17193751851", "website": "https://restaurants.fuzzystacoshop.com/fuzzys-taco-shop-8b4e11c512a7", "opening_hours": "Mo-Th 08:00-22:00; Fr-Sa 08:00-23:00; Su 08:00-22:00", "brand": "Fuzzy's Taco Shop", "brand:wikidata": "Q85762348"}, "geometry": {"type": "Point", "coordinates": [-104.83624522357812, 38.8775353280693]}},
{"type": "Feature", "id": "wXiJa-dlomDsS6DDqDcXdE4Lrcg=", "properties": {"ref": "13001", "@spider": "fuzzystacos", "addr:street_address": "5760 Olde Wadsworth", "addr:city": "Arvada", "addr:state": "CO", "addr:postcode": "80002", "name": "Fuzzy's Taco Shop - Arvada", "phone": "+13034389997", "website": "https://restaurants.fuzzystacoshop.com/fuzzys-taco-shop-84cb0049da00", "opening_hours": "Mo-Th 09:00-21:00; Fr-Sa 09:00-22:00; Su 09:00-21:00", "brand": "Fuzzy's Taco Shop", "brand:wikidata": "Q85762348"}, "geometry": {"type": "Point", "coordinates": [-105.08114609595815, 39.80135903116549]}},
{"type": "Feature", "id": "izMnT0qRg_Fm4OfzB1tasD6Xmrw=", "properties": {"ref": "32901", "@spider": "fuzzystacos", "addr:street_address": "1004 Maple Street", "addr:city": "Sanger", "addr:state": "TX", "addr:postcode": "76266", "name": "Fuzzy's Taco Shop - Sanger", "phone": "+19404582525", "website": "https://restaurants.fuzzystacoshop.com/fuzzys-taco-shop-86ab5fc61c28", "opening_hours": "Mo-Th 08:00-21:00; Fr-Sa 08:00-22:00; Su 08:00-21:00", "brand": "Fuzzy's Taco Shop", "brand:wikidata": "Q85762348"}, "geometry": {"type": "Point", "coordinates": [-97.1784753121961, 33.36523695183549]}},
{"type": "Feature", "id": "F1rrVBBYZFJd1lUzTrzHyW4gt9k=", "properties": {"ref": "38704", "@spider": "fuzzystacos", "addr:street_address": "2661 Midway Road", "addr:city": "Carrollton", "addr:state": "TX", "addr:postcode": "75006", "name": "Fuzzy's Taco Shop - Carrollton (Midway)", "phone": "+19729318226", "website": "https://restaurants.fuzzystacoshop.com/fuzzys-taco-shop-7e9d0f543999", "opening_hours": "Mo-Th 07:00-22:00; Fr-Sa 07:00-23:00; Su 07:00-22:00", "brand": "Fuzzy's Taco Shop", "brand:wikidata": "Q85762348"}, "geometry": {"type": "Point", "coordinates": [-96.84277558566286, 32.98447160182725]}},
{"type": "Feature", "id": "ODX0aj5ynOSOhbPcAFLYDLknZxI=", "properties": {"ref": "30203", "@spider": "fuzzystacos", "addr:street_address": "480 W. Southlake Blvd", "addr:city": "Southlake", "addr:state": "TX", "addr:postcode": "76092", "name": "Fuzzy's Taco Shop - Southlake", "phone": "+18174882500", "website": "https://restaurants.fuzzystacoshop.com/fuzzys-taco-shop-845d46c3aa63", "opening_hours": "Mo-Su 07:00-22:00", "brand": "Fuzzy's Taco Shop", "brand:wikidata": "Q85762348"}, "geometry": {"type": "Point", "coordinates": [-97.1577386337469, 32.94172814934302]}},
{"type": "Feature", "id": "DOWj2lddplnGcoWwxBQEv1nHqq4=", "properties": {"ref": "312040", "@spider": "fuzzystacos", "addr:street_address": "241 E FM 1382", "addr:city": "Cedar Hill", "addr:state": "TX", "addr:postcode": "75104", "name": "Fuzzy's Taco Shop - Cedar Hill", "phone": "+19722938482", "website": "https://restaurants.fuzzystacoshop.com/fuzzys-taco-shop-7c6eb5e2192b", "opening_hours": "24/7", "brand": "Fuzzy's Taco Shop", "brand:wikidata": "Q85762348"}, "geometry": {"type": "Point", "coordinates": [-96.93950748336005, 32.59844988572942]}},
{"type": "Feature", "id": "jXuzkMKcLknA2E6SJs1nS8Ubnv4=", "properties": {"ref": "96801", "@spider": "fuzzystacos", "addr:street_address": "3332 W Central Ave", "addr:city": "Toledo", "addr:state": "OH", "addr:postcode": "43606", "name": "Fuzzy's Taco Shop - Toledo", "phone": "+14192144291", "website": "https://restaurants.fuzzystacoshop.com/fuzzys-taco-shop-7a815d4a7df4", "opening_hours": "Mo-Sa 07:00-21:00; Su 11:00-19:00", "brand": "Fuzzy's Taco Shop", "brand:wikidata": "Q85762348"}, "geometry": {"type": "Point", "coordinates": [-83.62466922427345, 41.678398803834924]}},
{"type": "Feature", "id": "Zhdx7v8nAiy-xY8P0EU4qepy2bs=", "properties": {"ref": "12002", "@spider": "fuzzystacos", "addr:street_address": "2909 E Harmony", "addr:city": "Fort Collins", "addr:state": "CO", "addr:postcode": "80528", "name": "Fuzzy's Taco Shop - Fort Collins (Harmony)", "phone": "+19702238226", "website": "https://restaurants.fuzzystacoshop.com/fuzzys-taco-shop-7642977f5942", "opening_hours": "Mo-Th 08:00-22:00; Fr-Sa 08:00-23:00; Su 08:00-22:00", "brand": "Fuzzy's Taco Shop", "brand:wikidata": "Q85762348"}, "geometry": {"type": "Point", "coordinates": [-105.02337949228803, 40.52257323613979]}},
{"type": "Feature", "id": "0pT-o0DT1vuTLKwb-4KovYRMBG8=", "properties": {"ref": "38705", "@spider": "fuzzystacos", "addr:street_address": "2930 Preston Road", "addr:city": "Frisco", "addr:state": "TX", "addr:postcode": "75034", "name": "Fuzzy's Taco Shop - Frisco (Preston)", "phone": "+19723778226", "website": "https://restaurants.fuzzystacoshop.com/fuzzys-taco-shop-7adfbddefd39", "opening_hours": "Mo-Th 07:00-22:00; Fr-Sa 07:00-23:00; Su 07:00-22:00", "brand": "Fuzzy's Taco Shop", "brand:wikidata": "Q85762348"}, "geometry": {"type": "Point", "coordinates": [-96.80205596246469, 33.10098558361148]}},
{"type": "Feature", "id": "EWH6yUA-9XWmnAPqWq5ym0yAqWc=", "properties": {"ref": "12010", "@spider": "fuzzystacos", "addr:street_address": "4305 North Fairgrounds Avenue", "addr:city": "Loveland", "addr:state": "CO", "addr:postcode": "80550", "name": "Fuzzy's Taco Shop - Windsor", "phone": "+19706676874", "website": "https://restaurants.fuzzystacoshop.com/fuzzys-taco-shop-73e246f37422", "opening_hours": "Mo-Th 08:00-22:00; Fr-Sa 08:00-23:00; Su 08:00-22:00", "brand": "Fuzzy's Taco Shop", "brand:wikidata": "Q85762348"}, "geometry": {"type": "Point", "coordinates": [-104.98198026445931, 40.43636001566443]}},
{"type": "Feature", "id": "7ZquE1dBWnDtHTKugIyn6GYvmKo=", "properties": {"ref": "36301", "@spider": "fuzzystacos", "addr:street_address": "513 George Hopper Road", "addr:city": "Midlothian", "addr:state": "TX", "addr:postcode": "76065", "name": "Fuzzy's Taco Shop - Midlothian", "phone": "+12148178430", "website": "https://restaurants.fuzzystacoshop.com/fuzzys-taco-shop-6562e9b4e928", "opening_hours": "Mo-We 10:00-21:00; Th 10:00-22:00; Fr 10:00-23:00; Sa 08:00-23:00; Su 10:00-21:00", "brand": "Fuzzy's Taco Shop", "brand:wikidata": "Q85762348"}, "geometry": {"type": "Point", "coordinates": [-96.98855165084262, 32.475404274774085]}},
{"type": "Feature", "id": "5hHEYtW7oRXSJL4QZ_Z27mkhDDI=", "properties": {"ref": "30807", "@spider": "fuzzystacos", "addr:street_address": "5835 SE 15th St", "addr:city": "Midwest City", "addr:state": "OK", "addr:postcode": "73110", "name": "Fuzzy's Taco Shop - Midwest City", "phone": "+14059313389", "website": "https://restaurants.fuzzystacoshop.com/fuzzys-taco-shop-744596423ca1", "opening_hours": "Mo-Su 10:00-22:00", "brand": "Fuzzy's Taco Shop", "brand:wikidata": "Q85762348"}, "geometry": {"type": "Point", "coordinates": [-97.418684, 35.449715]}},
{"type": "Feature", "id": "aU95ZlsAjPEqkO3OJy9XDMW8y-g=", "properties": {"ref": "75101", "@spider": "fuzzystacos", "addr:street_address": "8700 Gladiolus Dr", "addr:city": "Fort Myers", "addr:state": "FL", "addr:postcode": "33908", "name": "Fuzzy's Taco Shop - Fort Myers (Gladiolus)", "phone": "+12393137214", "website": "https://restaurants.fuzzystacoshop.com/fuzzys-taco-shop-6dbddcd8fe37", "opening_hours": "24/7", "brand": "Fuzzy's Taco Shop", "brand:wikidata": "Q85762348"}, "geometry": {"type": "Point", "coordinates": [-81.89937034014574, 26.52107504136409]}},
{"type": "Feature", "id": "-Ow6PJlP_qiLJiLqvH1HcOd9Lr8=", "properties": {"ref": "59101", "@spider": "fuzzystacos", "addr:street_address": "10157 Wornall Road", "addr:city": "Kansas City", "addr:state": "MO", "addr:postcode": "64114", "name": "Fuzzy's Taco Shop - Kansas City (Wornall)", "phone": "+18169438226", "website": "https://restaurants.fuzzystacoshop.com/fuzzys-taco-shop-6e587432c800", "opening_hours": "Mo-Sa 09:00-22:00; Su 11:00-20:00", "brand": "Fuzzy's Taco Shop", "brand:wikidata": "Q85762348"}, "geometry": {"type": "Point", "coordinates": [-94.59595399755261, 38.94324727688335]}},
{"type": "Feature", "id": "JEvRH0X0hOhDGeVN5_gz37ZGW3A=", "properties": {"ref": "36501", "@spider": "fuzzystacos", "addr:street_address": "4740 W. Mockingbird Ln.", "addr:city": "Dallas", "addr:state": "TX", "addr:postcode": "75209", "name": "Fuzzy's Taco Shop - Dallas (Love Field)", "phone": "+12143528226", "website": "https://restaurants.fuzzystacoshop.com/fuzzys-taco-shop-70b81598f934", "opening_hours": "Mo-Th 06:30-21:00; Fr-Sa 06:30-22:00; Su 09:00-21:00", "brand": "Fuzzy's Taco Shop", "brand:wikidata": "Q85762348"}, "geometry": {"type": "Point", "coordinates": [-96.8277460603275, 32.83629439736028]}},
{"type": "Feature", "id": "vilGGnSrSLw5qKYmHRxUTtSNo_0=", "properties": {"ref": "17802", "@spider": "fuzzystacos", "addr:street_address": "2050 E Williams Field Rd", "addr:city": "Gilbert", "addr:state": "AZ", "addr:postcode": "85295", "name": "Fuzzy's Taco Shop - Gilbert", "phone": "+16234715510", "website": "https://restaurants.fuzzystacoshop.com/fuzzys-taco-shop-69dd5f365d36", "opening_hours": "Mo-Th 10:00-21:00; Fr-Sa 10:00-22:00; Su 10:00-21:00", "brand": "Fuzzy's Taco Shop", "brand:wikidata": "Q85762348"}, "geometry": {"type": "Point", "coordinates": [-111.74581622276195, 33.30825352992611]}},
{"type": "Feature", "id": "HaThvVs-zN9TXXBYf6Qf9eJKxNQ=", "properties": {"ref": "76201", "@spider": "fuzzystacos", "addr:street_address": "3102 Hardy Street", "addr:city": "Hattiesburg", "addr:state": "MS", "addr:postcode": "39401", "name": "Fuzzy's Taco Shop - Hattiesburg", "phone": "+16015799668", "website": "https://restaurants.fuzzystacoshop.com/fuzzys-taco-shop-5bd445f9478a", "opening_hours": "Mo-Sa 10:00-22:00; Su 08:00-20:00", "brand": "Fuzzy's Taco Shop", "brand:wikidata": "Q85762348"}, "geometry": {"type": "Point", "coordinates": [-89.33624696467535, 31.324537334920308]}},
{"type": "Feature", "id": "LRxESeaOvF8otiyh99lv40dg1ZY=", "properties": {"ref": "35603", "@spider": "fuzzystacos", "addr:street_address": "6361 Old Jacksonville Hwy", "addr:city": "Tyler", "addr:state": "TX", "addr:postcode": "75703", "name": "Fuzzy's Taco Shop - Tyler (Old Jacksonville)", "phone": "+19037072026", "website": "https://restaurants.fuzzystacoshop.com/fuzzys-taco-shop-5db6ad94fd79", "brand": "Fuzzy's Taco Shop", "brand:wikidata": "Q85762348"}, "geometry": {"type": "Point", "coordinates": [-95.33615830613422, 32.27945773231742]}},
{"type": "Feature", "id": "u0zEbwbtY0amzsNOO7JhUfdar40=", "properties": {"ref": "30502", "@spider": "fuzzystacos", "addr:street_address": "109 North State Street", "addr:city": "Decatur", "addr:state": "TX", "addr:postcode": "76234", "name": "Fuzzy's Taco Shop - Decatur", "phone": "+19406268226", "website": "https://restaurants.fuzzystacoshop.com/fuzzys-taco-shop-5f1ec2f5186f", "opening_hours": "Mo-We 10:00-22:00; Th-Sa 10:00-23:00; Su 10:00-21:00", "brand": "Fuzzy's Taco Shop", "brand:wikidata": "Q85762348"}, "geometry": {"type": "Point", "coordinates": [-97.5875349, 33.2343749]}},
{"type": "Feature", "id": "N3gFLPo1EqXMXFRMuTgT2Z-9_5c=", "properties": {"ref": "36503", "@spider": "fuzzystacos", "addr:street_address": "10910 N. Central Expy.", "addr:city": "Dallas", "addr:state": "TX", "addr:postcode": "75231", "name": "Fuzzy's Taco Shop - Dallas (Royal Crossing)", "phone": "+12142386778", "website": "https://restaurants.fuzzystacoshop.com/fuzzys-taco-shop-568afed28048", "opening_hours": "Mo-Th 07:00-22:00; Fr-Sa 07:00-24:00; Su 09:00-22:00", "brand": "Fuzzy's Taco Shop", "brand:wikidata": "Q85762348"}, "geometry": {"type": "Point", "coordinates": [-96.76823550309314, 32.8974757739777]}},
{"type": "Feature", "id": "PM95SxGlFOE2gvcYPW1julANs6c=", "properties": {"ref": "74601", "@spider": "fuzzystacos", "addr:street_address": "2874 Providence Lake Blvd", "addr:city": "Brandon", "addr:state": "FL", "addr:postcode": "33511", "name": "Fuzzy's Taco Shop - Brandon", "phone": "+18133247177", "website": "https://restaurants.fuzzystacoshop.com/fuzzys-taco-shop-5878913f22e8", "opening_hours": "Mo 11:00-21:00; Tu-Th 11:00-22:00; Fr-Sa 11:00-23:00; Su 11:00-21:00", "brand": "Fuzzy's Taco Shop", "brand:wikidata": "Q85762348"}, "geometry": {"type": "Point", "coordinates": [-82.32772771927897, 27.921002315276695]}},
{"type": "Feature", "id": "e29XiGBRDv3NzriyBH8Tuuu6ZqI=", "properties": {"ref": "57605", "@spider": "fuzzystacos", "addr:street_address": "8909 W. 95th Street", "addr:city": "Overland Park", "addr:state": "KS", "addr:postcode": "66212", "name": "Fuzzy's Taco Shop - Overland Park (Antioch)", "phone": "+19132912056", "website": "https://restaurants.fuzzystacoshop.com/fuzzys-taco-shop-569fbe2fe9c6", "opening_hours": "Mo-Th 10:00-22:00; Fr-Sa 10:00-23:00; Su 10:00-22:00", "brand": "Fuzzy's Taco Shop", "brand:wikidata": "Q85762348"}, "geometry": {"type": "Point", "coordinates": [-94.68936453891507, 38.95621503350983]}},
{"type": "Feature", "id": "bJVzkR1iNvt1_tQh_BgpjH_870U=", "properties": {"ref": "30804", "@spider": "fuzzystacos", "addr:street_address": "1462 S. Bryant", "addr:city": "Edmond", "addr:state": "OK", "addr:postcode": "73034", "name": "Fuzzy's Taco Shop - Edmond", "phone": "+14055624800", "website": "https://restaurants.fuzzystacoshop.com/fuzzys-taco-shop-53a180f8cd2d", "opening_hours": "Mo-Su 10:00-22:00", "brand": "Fuzzy's Taco Shop", "brand:wikidata": "Q85762348"}, "geometry": {"type": "Point", "coordinates": [-97.4586865023765, 35.639144071217046]}},
{"type": "Feature", "id": "BNpq_W6nLysZU5PaEo0J3CGMgms=", "properties": {"ref": "35802", "@spider": "fuzzystacos", "addr:street_address": "1509 Hewitt Dr", "addr:city": "Waco", "addr:state": "TX", "addr:postcode": "76710", "name": "Fuzzy's Taco Shop - Waco (Hewitt Drive)", "phone": "+12547322320", "website": "https://restaurants.fuzzystacoshop.com/fuzzys-taco-shop-53b0b60350d8", "opening_hours": "Mo 10:00-21:00; Tu 10:00-22:00; We 10:00-21:00; Th-Sa 10:00-22:00; Su 10:00-21:00", "brand": "Fuzzy's Taco Shop", "brand:wikidata": "Q85762348"}, "geometry": {"type": "Point", "coordinates": [-97.20955796751825, 31.482890507144916]}},
{"type": "Feature", "id": "k0o2hqY_IdTc3iQXicZIvdjqjTY=", "properties": {"ref": "31801", "@spider": "fuzzystacos", "addr:street_address": "2102 Broadway", "addr:city": "Lubbock", "addr:state": "TX", "addr:postcode": "79401", "name": "Fuzzy's Taco Shop - Lubbock (Broadway)", "phone": "+18067408226", "website": "https://restaurants.fuzzystacoshop.com/fuzzys-taco-shop-4eef83595c27", "opening_hours": "Mo-Sa 07:00-24:00; Su 07:00-23:00", "brand": "Fuzzy's Taco Shop", "brand:wikidata": "Q85762348"}, "geometry": {"type": "Point", "coordinates": [-101.8623158, 33.5847966]}},
{"type": "Feature", "id": "c_3T4kLgALdjOFHOtWjOgi-EInU=", "properties": {"ref": "75001", "@spider": "fuzzystacos", "addr:street_address": "435 Merchant Walk Square", "addr:city": "Charlottesville", "addr:state": "VA", "addr:postcode": "22902", "name": "Fuzzy's Taco Shop - Charlottesville", "phone": "+14342140500", "website": "https://restaurants.fuzzystacoshop.com/fuzzys-taco-shop-502694bb9dfa", "opening_hours": "Mo-Th 10:00-22:00; Fr-Sa 10:00-23:00; Su 10:00-21:00", "brand": "Fuzzy's Taco Shop", "brand:wikidata": "Q85762348"}, "geometry": {"type": "Point", "coordinates": [-78.49813695959553, 38.01054747903822]}},
{"type": "Feature", "id": "B-7KlO6TuyVwydo5i3hOYUGnSOw=", "properties": {"ref": "31802", "@spider": "fuzzystacos", "addr:street_address": "10101 Slide Rd", "addr:city": "Lubbock", "addr:state": "TX", "addr:postcode": "79424", "name": "Fuzzy's Taco Shop - Lubbock (Slide)", "phone": "+18067978226", "website": "https://restaurants.fuzzystacoshop.com/fuzzys-taco-shop-52abbfb8e508", "opening_hours": "Mo-Th 09:00-23:00; Fr-Sa 09:00-24:00; Su 09:00-23:00", "brand": "Fuzzy's Taco Shop", "brand:wikidata": "Q85762348"}, "geometry": {"type": "Point", "coordinates": [-101.92153924689164, 33.50167014851357]}},
{"type": "Feature", "id": "xtreEWol5uWxQpK0llUt5PuNpso=", "properties": {"ref": "33201", "@spider": "fuzzystacos", "addr:street_address": "4909 North St", "addr:city": "Nacogdoches", "addr:state": "TX", "addr:postcode": "75965", "name": "Fuzzy's Taco Shop - Nacogdoches", "phone": "+19362055661", "website": "https://restaurants.fuzzystacoshop.com/fuzzys-taco-shop-4baa260b22a7", "opening_hours": "Mo-We 07:30-23:00; Th-Fr 07:30-24:00; Sa 07:30-01:00; Su 07:30-23:00", "brand": "Fuzzy's Taco Shop", "brand:wikidata": "Q85762348"}, "geometry": {"type": "Point", "coordinates": [-94.65600533177007, 31.650628145298914]}},
{"type": "Feature", "id": "OpOoKidywYybNTNzo2RfYCxvwcs=", "properties": {"ref": "57606", "@spider": "fuzzystacos", "addr:street_address": "13505 S. Mur-Len Rd", "addr:city": "Olathe", "addr:state": "KS", "addr:postcode": "66062", "name": "Fuzzy's Taco Shop - Olathe", "phone": "+19134409715", "website": "https://restaurants.fuzzystacoshop.com/fuzzys-taco-shop-48f00b10e073", "opening_hours": "Mo-Su 10:00-22:00", "brand": "Fuzzy's Taco Shop", "brand:wikidata": "Q85762348"}, "geometry": {"type": "Point", "coordinates": [-94.77887551560156, 38.882949376623536]}},
{"type": "Feature", "id": "S3ZXdnFroFCWjmKpdqT6mPGRKlQ=", "properties": {"ref": "31203", "@spider": "fuzzystacos", "addr:street_address": "910 W. FM 544", "addr:city": "Wylie", "addr:state": "TX", "addr:postcode": "75098", "name": "Fuzzy's Taco Shop - Wylie", "phone": "+19724294500", "website": "https://restaurants.fuzzystacoshop.com/fuzzys-taco-shop-4e7438cef89b", "opening_hours": "Mo-Th 09:00-22:00; Fr 09:00-23:00; Sa 07:00-23:00; Su 07:00-22:00", "brand": "Fuzzy's Taco Shop", "brand:wikidata": "Q85762348"}, "geometry": {"type": "Point", "coordinates": [-96.55108502025509, 33.00800964102705]}},
{"type": "Feature", "id": "SLzW6yVRyyC2Zo1Atm-l2sy2XF4=", "properties": {"ref": "38905", "@spider": "fuzzystacos", "addr:street_address": "1712 Southwest Pkwy", "addr:city": "College Station", "addr:state": "TX", "addr:postcode": "77840", "name": "Fuzzy's Taco Shop - College Station", "phone": "+19797648226", "website": "https://restaurants.fuzzystacoshop.com/fuzzys-taco-shop-4a673fb74cb7", "opening_hours": "Mo-We 08:00-22:00; Th-Sa 08:00-23:00; Su 08:00-22:00", "brand": "Fuzzy's Taco Shop", "brand:wikidata": "Q85762348"}, "geometry": {"type": "Point", "coordinates": [-96.30991616223588, 30.606014390436258]}},
{"type": "Feature", "id": "_fl4otz9zkIIKs4wz8PFa0hWun8=", "properties": {"ref": "39001", "@spider": "fuzzystacos", "addr:street_address": "3144 South Hwy 161", "addr:city": "Grand Prairie", "addr:state": "TX", "addr:postcode": "75052", "name": "Fuzzy's Taco Shop - Grand Prairie", "phone": "+19726393215", "website": "https://restaurants.fuzzystacoshop.com/fuzzys-taco-shop-484015158f0b", "opening_hours": "Mo-Th 07:00-22:00; Fr-Sa 07:00-23:00; Su 07:00-22:00", "brand": "Fuzzy's Taco Shop", "brand:wikidata": "Q85762348"}, "geometry": {"type": "Point", "coordinates": [-97.02664812260744, 32.69424640382892]}},
{"type": "Feature", "id": "f0m_kjYIEHjc7e0UHvLK4_bVirs=", "properties": {"ref": "39006", "@spider": "fuzzystacos", "addr:street_address": "1601 E. Debbie Lane", "addr:city": "Mansfield", "addr:state": "TX", "addr:postcode": "76063", "name": "Fuzzy's Taco Shop - Mansfield", "phone": "+18174531682", "website": "https://restaurants.fuzzystacoshop.com/fuzzys-taco-shop-47ca5eaff54a", "opening_hours": "Mo 07:00-22:00; Tu-We 07:00-23:00; Th-Sa 07:00-24:00; Su 07:00-22:00", "brand": "Fuzzy's Taco Shop", "brand:wikidata": "Q85762348"}, "geometry": {"type": "Point", "coordinates": [-97.11009409862807, 32.609187808773505]}},
{"type": "Feature", "id": "uXeu4KD2fsew_LbAHCvRpEM-r3g=", "properties": {"ref": "31406", "@spider": "fuzzystacos", "addr:street_address": "125 East Renfro", "addr:city": "Burleson", "addr:state": "TX", "addr:postcode": "76028", "name": "Fuzzy's Taco Shop - Burleson", "phone": "+18174478226", "website": "https://restaurants.fuzzystacoshop.com/fuzzys-taco-shop-4552add77418", "opening_hours": "Mo-Th 07:00-22:00; Fr-Sa 07:00-23:00; Su 07:00-21:00", "brand": "Fuzzy's Taco Shop", "brand:wikidata": "Q85762348"}, "geometry": {"type": "Point", "coordinates": [-97.31894593708567, 32.54350374601075]}},
{"type": "Feature", "id": "tYpex8258xv30q52nOff4lFlpaU=", "properties": {"ref": "13006", "@spider": "fuzzystacos", "addr:street_address": "16401 E Arapahoe Rd", "addr:city": "Aurora", "addr:state": "CO", "addr:postcode": "80016", "name": "Fuzzy's Taco Shop - Aurora", "phone": "+13036995729", "website": "https://restaurants.fuzzystacoshop.com/fuzzys-taco-shop-325863f4e778", "opening_hours": "Mo-Th 08:00-22:00; Fr-Sa 08:00-23:00; Su 08:00-22:00", "brand": "Fuzzy's Taco Shop", "brand:wikidata": "Q85762348"}, "geometry": {"type": "Point", "coordinates": [-104.79835804345927, 39.595266247083515]}},
{"type": "Feature", "id": "snihoVT8j4uxbV4XYAchog4_vXg=", "properties": {"ref": "39004", "@spider": "fuzzystacos", "addr:street_address": "510 East Abram", "addr:city": "Arlington", "addr:state": "TX", "addr:postcode": "76010", "name": "Fuzzy's Taco Shop - Arlington (Abram)", "phone": "+18172658226", "website": "https://restaurants.fuzzystacoshop.com/fuzzys-taco-shop-30d5e08aeddb", "opening_hours": "Mo-We 07:00-22:00; Th-Sa 07:00-23:00; Su 07:00-22:00", "brand": "Fuzzy's Taco Shop", "brand:wikidata": "Q85762348"}, "geometry": {"type": "Point", "coordinates": [-97.10214124479198, 32.73528589197838]}},
{"type": "Feature", "id": "E0DizGqTvrUiEYl9o1JxjZhQV2g=", "properties": {"ref": "31208", "@spider": "fuzzystacos", "addr:street_address": "8031 W. University Drive", "addr:city": "McKinney", "addr:state": "TX", "addr:postcode": "75071", "name": "Fuzzy's Taco Shop - McKinney (University)", "phone": "+19728860069", "website": "https://restaurants.fuzzystacoshop.com/fuzzys-taco-shop-2fc4fedfaa6a", "opening_hours": "Mo-Th 07:00-22:00; Fr-Sa 07:00-23:00; Su 07:00-22:00", "brand": "Fuzzy's Taco Shop", "brand:wikidata": "Q85762348"}, "geometry": {"type": "Point", "coordinates": [-96.72111694010374, 33.218230390752865]}},
{"type": "Feature", "id": "7YaxHK1mzrQnMOTSCAJ3v5A5HYg=", "properties": {"ref": "310302", "@spider": "fuzzystacos", "addr:street_address": "791 North Hwy 77", "addr:city": "Waxahachie", "addr:state": "TX", "addr:postcode": "75165", "name": "Fuzzy's Taco Shop - Waxahachie", "phone": "+19729379400", "website": "https://restaurants.fuzzystacoshop.com/fuzzys-taco-shop-2b7b5f54da83", "opening_hours": "Mo-Su 08:00-21:00", "brand": "Fuzzy's Taco Shop", "brand:wikidata": "Q85762348"}, "geometry": {"type": "Point", "coordinates": [-96.84281297690909, 32.411396504326326]}},
{"type": "Feature", "id": "_b310ZYJ7-GbqXyTOuRcXct-ny0=", "properties": {"ref": "36001", "@spider": "fuzzystacos", "addr:street_address": "117 West IH-30", "addr:city": "Royse City", "addr:state": "TX", "addr:postcode": "75189", "name": "Fuzzy's Taco Shop - Royse City", "phone": "+19726352707", "website": "https://restaurants.fuzzystacoshop.com/fuzzys-taco-shop-2ce84f83901f", "opening_hours": "Mo-Fr 08:00-20:00; Sa 08:00-21:00; Su 10:00-19:00", "brand": "Fuzzy's Taco Shop", "brand:wikidata": "Q85762348"}, "geometry": {"type": "Point", "coordinates": [-96.33271061451654, 32.96780692904113]}},
{"type": "Feature", "id": "py49mLU1d2Zrin7v6E_su3KEkRo=", "properties": {"ref": "37107", "@spider": "fuzzystacos", "addr:street_address": "8804 TX-146", "addr:city": "Baytown", "addr:state": "TX", "addr:postcode": "77523", "name": "Fuzzy's Taco Shop - Baytown", "phone": "+12819180956", "website": "https://restaurants.fuzzystacoshop.com/fuzzys-taco-shop-275acf9ac8b7", "opening_hours": "Mo-Th 07:00-22:00; Fr-Sa 07:00-23:00; Su 10:00-22:00", "brand": "Fuzzy's Taco Shop", "brand:wikidata": "Q85762348"}, "geometry": {"type": "Point", "coordinates": [-94.89879391995069, 29.819069265013038]}},
{"type": "Feature", "id": "NBuNbftR_LVpX90g3OgFKdP2mIc=", "properties": {"ref": "310701", "@spider": "fuzzystacos", "addr:street_address": "115 Industrial Street", "addr:city": "Denton", "addr:state": "TX", "addr:postcode": "76201", "name": "Fuzzy's Taco Shop - Denton (Industrial)", "phone": "+19403808226", "website": "https://restaurants.fuzzystacoshop.com/fuzzys-taco-shop-29ceed1acca9", "opening_hours": "Mo-We 06:30-22:00; Th 06:30-23:00; Fr 06:30-24:00; Sa 07:00-24:00; Su 08:00-22:00", "brand": "Fuzzy's Taco Shop", "brand:wikidata": "Q85762348"}, "geometry": {"type": "Point", "coordinates": [-97.13004024473699, 33.21366348579566]}},
{"type": "Feature", "id": "tCyy5acIBIWMZNkFa7m18uuJMBU=", "properties": {"ref": "510801", "@spider": "fuzzystacos", "addr:street_address": "8073 Watson Rd", "addr:city": "Webster Groves", "addr:state": "MO", "addr:postcode": "63119", "name": "Fuzzy's Taco Shop - Webster Groves", "phone": "+13149688226", "website": "https://restaurants.fuzzystacoshop.com/fuzzys-taco-shop-2a52b18b0996", "opening_hours": "Mo-Su 11:00-21:00", "brand": "Fuzzy's Taco Shop", "brand:wikidata": "Q85762348"}, "geometry": {"type": "Point", "coordinates": [-90.3432390474787, 38.568037659660035]}},
{"type": "Feature", "id": "WhVxn5XSvWuOHj5UD6oqFtF6eLk=", "properties": {"ref": "12005", "@spider": "fuzzystacos", "addr:street_address": "1230 S. Hover St", "addr:city": "Longmont", "addr:state": "CO", "addr:postcode": "80501", "name": "Fuzzy's Taco Shop - Longmont", "phone": "+13038484215", "website": "https://restaurants.fuzzystacoshop.com/fuzzys-taco-shop-2aa422874002", "opening_hours": "Mo-Th 08:00-22:00; Fr-Sa 08:00-23:00; Su 08:00-22:00", "brand": "Fuzzy's Taco Shop", "brand:wikidata": "Q85762348"}, "geometry": {"type": "Point", "coordinates": [-105.12731201237882, 40.14785997482765]}},
{"type": "Feature", "id": "ZdqwHXnEewchNHiOpQCb_qvg-wc=", "properties": {"ref": "12011", "@spider": "fuzzystacos", "addr:street_address": "5700 New Abbey Lane", "addr:city": "Castle Rock", "addr:state": "CO", "addr:postcode": "80108", "name": "Fuzzy's Taco Shop - Castle Rock", "phone": "+13032849963", "website": "https://restaurants.fuzzystacoshop.com/fuzzys-taco-shop-228e7b1f4991", "opening_hours": "Mo-Th 08:00-22:00; Fr-Sa 08:00-23:00; Su 08:00-22:00", "brand": "Fuzzy's Taco Shop", "brand:wikidata": "Q85762348"}, "geometry": {"type": "Point", "coordinates": [-104.87953212172572, 39.41689152798835]}},
{"type": "Feature", "id": "80kQ575j2wnIIZVWwWhLAHG56HQ=", "properties": {"ref": "510804", "@spider": "fuzzystacos", "addr:street_address": "2412 West Clay Street", "addr:city": "St. Charles", "addr:state": "MO", "addr:postcode": "63301", "name": "Fuzzy's Taco Shop - Saint Charles", "phone": "+16369253025", "website": "https://restaurants.fuzzystacoshop.com/fuzzys-taco-shop-280abdff5af7", "opening_hours": "Mo-Su 10:30-21:00", "brand": "Fuzzy's Taco Shop", "brand:wikidata": "Q85762348"}, "geometry": {"type": "Point", "coordinates": [-90.51055668874125, 38.78426803911389]}},
{"type": "Feature", "id": "b-YImUcITpQohBeE5SVmkmYXGso=", "properties": {"ref": "39501", "@spider": "fuzzystacos", "addr:street_address": "4310 Vine St", "addr:city": "Hays", "addr:state": "KS", "addr:postcode": "67601", "name": "Fuzzy's Taco Shop - Hays", "phone": "+17852610822", "website": "https://restaurants.fuzzystacoshop.com/fuzzys-taco-shop-1f8181b7a52f", "opening_hours": "Mo-Th 11:00-22:00; Fr-Sa 11:00-23:00; Su 11:00-22:00", "brand": "Fuzzy's Taco Shop", "brand:wikidata": "Q85762348"}, "geometry": {"type": "Point", "coordinates": [-99.31715525339031, 38.902696104649635]}},
{"type": "Feature", "id": "V7xSWtkDnzreSjqnYm3zAufHGLw=", "properties": {"ref": "38703", "@spider": "fuzzystacos", "addr:street_address": "13881 Midway Rd", "addr:city": "Farmers Branch", "addr:state": "TX", "addr:postcode": "75244", "name": "Fuzzy's Taco Shop - Farmers Branch", "phone": "+19723878226", "website": "https://restaurants.fuzzystacoshop.com/fuzzys-taco-shop-1ecd9333a715", "opening_hours": "Mo-We 07:00-22:00; Th-Sa 07:00-23:00; Su 07:00-22:00", "brand": "Fuzzy's Taco Shop", "brand:wikidata": "Q85762348"}, "geometry": {"type": "Point", "coordinates": [-96.83960871619588, 32.93800161711414]}},
{"type": "Feature", "id": "YAlaAgh8QtZWJm55pJpM5lUo5_o=", "properties": {"ref": "34504", "@spider": "fuzzystacos", "addr:street_address": "10728 W. 21st St. N", "addr:city": "Wichita", "addr:state": "KS", "addr:postcode": "67205", "name": "Fuzzy's Taco Shop - Wichita (New Market Square) COMING SOON!", "phone": "+13162602701", "website": "https://restaurants.fuzzystacoshop.com/fuzzys-taco-shop-1d12b58e7743", "brand": "Fuzzy's Taco Shop", "brand:wikidata": "Q85762348"}, "geometry": {"type": "Point", "coordinates": [-97.46597008329249, 37.72325054787138]}},
{"type": "Feature", "id": "6lA0_2Fp51mCrG2-YtInyznkv-k=", "properties": {"ref": "36004", "@spider": "fuzzystacos", "addr:street_address": "4300 TX-91", "addr:city": "Denison", "addr:state": "TX", "addr:postcode": "75020", "name": "Fuzzy's Taco Shop - Denison, TX (COMING SOON!)", "phone": "+19034621482", "website": "https://restaurants.fuzzystacoshop.com/fuzzys-taco-shop-1a1736ccc2e8", "brand": "Fuzzy's Taco Shop", "brand:wikidata": "Q85762348"}, "geometry": {"type": "Point", "coordinates": [-96.554542, 33.793728]}},
{"type": "Feature", "id": "DlXyEtjDggBsRRzh5jkEPlTb0bo=", "properties": {"ref": "78802", "@spider": "fuzzystacos", "addr:street_address": "448 Independence Blvd", "addr:city": "Hardeeville", "addr:state": "SC", "addr:postcode": "29927", "name": "Fuzzy's Taco Shop - Hardeeville", "phone": "+18437843899", "website": "https://restaurants.fuzzystacoshop.com/fuzzys-taco-shop-1e46bcee3d5c", "opening_hours": "Mo-Su 06:00-22:00", "brand": "Fuzzy's Taco Shop", "brand:wikidata": "Q85762348"}, "geometry": {"type": "Point", "coordinates": [-81.056959413405, 32.31148104221009]}},
{"type": "Feature", "id": "slioIhsxpPJ_U7YlTWyu1Vnmf5M=", "properties": {"ref": "30210", "@spider": "fuzzystacos", "addr:street_address": "561 W Campbell Rd", "addr:city": "Richardson", "addr:state": "TX", "addr:postcode": "75080", "name": "Fuzzy's Taco Shop - Richardson", "phone": "+19729078226", "website": "https://restaurants.fuzzystacoshop.com/fuzzys-taco-shop-1e3ddbee58da", "opening_hours": "Mo-Su 07:00-22:00", "brand": "Fuzzy's Taco Shop", "brand:wikidata": "Q85762348"}, "geometry": {"type": "Point", "coordinates": [-96.73900289529958, 32.97729457104892]}},
{"type": "Feature", "id": "m24bX7PTLokZFVN0GOwxCokQEmY=", "properties": {"ref": "36003", "@spider": "fuzzystacos", "addr:street_address": "4105 S. Beltline Road", "addr:city": "Balch Springs", "addr:state": "TX", "addr:postcode": "75181", "name": "Fuzzy's Taco Shop - Balch Springs", "phone": "+19729135090", "website": "https://restaurants.fuzzystacoshop.com/fuzzys-taco-shop-18d3755f964a", "opening_hours": "Mo-Su 10:00-22:00", "brand": "Fuzzy's Taco Shop", "brand:wikidata": "Q85762348"}, "geometry": {"type": "Point", "coordinates": [-96.58567588735983, 32.70724865845424]}},
{"type": "Feature", "id": "PCOBgewpEkx6cjij5ZAW_sk98eo=", "properties": {"ref": "12001", "@spider": "fuzzystacos", "addr:street_address": "1335 W Elizabeth", "addr:city": "Fort Collins", "addr:state": "CO", "addr:postcode": "80521", "name": "Fuzzy's Taco Shop - Fort Collins (Elizabeth)", "phone": "+19704078226", "website": "https://restaurants.fuzzystacoshop.com/fuzzys-taco-shop-19bb48426cef", "opening_hours": "Mo-Th 08:00-22:00; Fr-Sa 08:00-23:00; Su 09:00-22:00", "brand": "Fuzzy's Taco Shop", "brand:wikidata": "Q85762348"}, "geometry": {"type": "Point", "coordinates": [-105.10009822850897, 40.57432794087777]}},
{"type": "Feature", "id": "Wq1KdYrrmCT-kbUk4RMzTv6Spgg=", "properties": {"ref": "13004", "@spider": "fuzzystacos", "addr:street_address": "7562-7592 S. University", "addr:city": "Centennial", "addr:state": "CO", "addr:postcode": "80122", "name": "Fuzzy's Taco Shop - Centennial", "phone": "+13037708226", "website": "https://restaurants.fuzzystacoshop.com/fuzzys-taco-shop-0a8ccecdea5e", "opening_hours": "Mo-Su 09:00-22:00", "brand": "Fuzzy's Taco Shop", "brand:wikidata": "Q85762348"}, "geometry": {"type": "Point", "coordinates": [-104.95978305004668, 39.57866279025019]}},
{"type": "Feature", "id": "8b0FDbaiiep8uETChZWmGYdl8EM=", "properties": {"ref": "31202", "@spider": "fuzzystacos", "addr:street_address": "3190 South Central Expy", "addr:city": "McKinney", "addr:state": "TX", "addr:postcode": "75070", "name": "Fuzzy's Taco Shop - McKinney (Highway 75)", "phone": "+14699522252", "website": "https://restaurants.fuzzystacoshop.com/fuzzys-taco-shop-0b601006d465", "opening_hours": "Mo-Th 07:00-22:00; Fr-Sa 07:00-23:00; Su 07:00-22:00", "brand": "Fuzzy's Taco Shop", "brand:wikidata": "Q85762348"}, "geometry": {"type": "Point", "coordinates": [-96.64318215781569, 33.171068047322755]}},
{"type": "Feature", "id": "YYx1KKVn6puwgkgz-g5ltOMs40Y=", "properties": {"ref": "36502", "@spider": "fuzzystacos", "addr:street_address": "2706 Elm Street", "addr:city": "Dallas", "addr:state": "TX", "addr:postcode": "75226", "name": "Fuzzy's Taco Shop - Dallas (Deep Ellum)", "phone": "+12146538226", "website": "https://restaurants.fuzzystacoshop.com/fuzzys-taco-shop-0d72b3ee1c38", "opening_hours": "Mo-Th 08:00-22:00; Fr 08:00-24:00; Sa 10:00-24:00; Su 10:00-22:00", "brand": "Fuzzy's Taco Shop", "brand:wikidata": "Q85762348"}, "geometry": {"type": "Point", "coordinates": [-96.7843486493384, 32.784335779593555]}},
{"type": "Feature", "id": "65yz2HiqjIgD5Osql-aqfvyEIL0=", "properties": {"ref": "38706", "@spider": "fuzzystacos", "addr:street_address": "2575 Main St", "addr:city": "Frisco", "addr:state": "TX", "addr:postcode": "75035", "name": "Fuzzy's Taco Shop - Frisco (W Main)", "phone": "+12147058226", "website": "https://restaurants.fuzzystacoshop.com/fuzzys-taco-shop-0f73712ea895", "opening_hours": "Mo-Th 07:00-22:00; Fr-Sa 07:00-23:00; Su 07:00-22:00", "brand": "Fuzzy's Taco Shop", "brand:wikidata": "Q85762348"}, "geometry": {"type": "Point", "coordinates": [-96.86622258306066, 33.151627912250305]}},
{"type": "Feature", "id": "DvZxDp0ftJBSFjSqQwUBIAFSZC0=", "properties": {"ref": "36504", "@spider": "fuzzystacos", "addr:street_address": "6760 Abrams Street", "addr:city": "Dallas", "addr:state": "TX", "addr:postcode": "75231", "name": "Fuzzy's Taco Shop - Dallas (Skillman & Abrams)", "phone": "+14692480601", "website": "https://restaurants.fuzzystacoshop.com/fuzzys-taco-shop-167a5108a853", "brand": "Fuzzy's Taco Shop", "brand:wikidata": "Q85762348"}, "geometry": {"type": "Point", "coordinates": [-96.7414946, 32.866875]}},
{"type": "Feature", "id": "N6lAvu5JVWu2xBsd42M6iwKs_ZI=", "properties": {"ref": "30901", "@spider": "fuzzystacos", "addr:street_address": "4849 Texas Blvd", "addr:city": "Texarkana", "addr:state": "TX", "addr:postcode": "75503", "name": "Fuzzy's Taco Shop - Texarkana", "phone": "+19037918226", "website": "https://restaurants.fuzzystacoshop.com/fuzzys-taco-shop-05f8e89a384f", "opening_hours": "Mo-Th 10:00-22:00; Fr-Sa 10:00-23:00; Su 10:00-22:00", "brand": "Fuzzy's Taco Shop", "brand:wikidata": "Q85762348"}, "geometry": {"type": "Point", "coordinates": [-94.04399825055448, 33.461043167110425]}},
{"type": "Feature", "id": "TWzfIob02PT-dS927OCCsHhkKeI=", "properties": {"ref": "59401", "@spider": "fuzzystacos", "addr:street_address": "4204 South J.B Hunt Drive", "addr:city": "Rogers", "addr:state": "AR", "addr:postcode": "72758", "name": "Fuzzy's Taco Shop - Rogers", "phone": "+14798998226", "website": "https://restaurants.fuzzystacoshop.com/fuzzys-taco-shop-0ceca95c847a", "opening_hours": "Mo-Th 10:00-21:00; Fr-Sa 10:00-22:00; Su 10:00-20:00", "brand": "Fuzzy's Taco Shop", "brand:wikidata": "Q85762348"}, "geometry": {"type": "Point", "coordinates": [-94.18408033914503, 36.29564492006693]}},
{"type": "Feature", "id": "YzK1j-XO3aDE-XYvfXIAMbN3Twg=", "properties": {"ref": "510803", "@spider": "fuzzystacos", "addr:street_address": "302 W Port Plaza Drive", "addr:city": "Maryland Heights", "addr:state": "MO", "addr:postcode": "63146", "name": "Fuzzy's Taco Shop - Maryland Heights (Westport)", "phone": "+13148788226", "website": "https://restaurants.fuzzystacoshop.com/fuzzys-taco-shop-08661ebd8e8a", "opening_hours": "Mo 10:00-21:00; Tu-We 09:00-21:00; Th 10:00-21:00; Fr 09:00-22:00; Sa 10:00-22:00; Su 10:00-21:00", "brand": "Fuzzy's Taco Shop", "brand:wikidata": "Q85762348"}, "geometry": {"type": "Point", "coordinates": [-90.44718415148292, 38.70157057355653]}},
{"type": "Feature", "id": "mmPCSMtj12HS9RFn1tE9fJhu85A=", "properties": {"ref": "30208", "@spider": "fuzzystacos", "addr:street_address": "600 Byron Nelson Blvd", "addr:city": "Roanoke", "addr:state": "TX", "addr:postcode": "76262", "name": "Fuzzy's Taco Shop - Roanoke", "phone": "+18174912424", "website": "https://restaurants.fuzzystacoshop.com/fuzzys-taco-shop-18a26cf9235a", "opening_hours": "Mo-Su 07:00-22:00", "brand": "Fuzzy's Taco Shop", "brand:wikidata": "Q85762348"}, "geometry": {"type": "Point", "coordinates": [-97.22079551864991, 33.00187668171199]}},
{"type": "Feature", "id": "p8tRb9v5jhgjIg2J9HVZOtctqLA=", "properties": {"ref": "37102", "@spider": "fuzzystacos", "addr:street_address": "5655 Eastex Freeway", "addr:city": "Beaumont", "addr:state": "TX", "addr:postcode": "77706", "name": "Fuzzy's Taco Shop - Beaumont", "phone": "+14099248226", "website": "https://restaurants.fuzzystacoshop.com/fuzzys-taco-shop-09c5111b7d20", "opening_hours": "Mo-Th 07:00-22:00; Fr-Sa 07:00-23:00; Su 10:00-22:00", "brand": "Fuzzy's Taco Shop", "brand:wikidata": "Q85762348"}, "geometry": {"type": "Point", "coordinates": [-94.15333008951161, 30.123801167087258]}},
{"type": "Feature", "id": "Buj7SIJ0NdcomUJBAuJX3HTI23A=", "properties": {"ref": "31407", "@spider": "fuzzystacos", "addr:street_address": "265 E. Washington", "addr:city": "Stephenville", "addr:state": "TX", "addr:postcode": "76401", "name": "Fuzzy's Taco Shop - Stephenville", "phone": "+12549653474", "website": "https://restaurants.fuzzystacoshop.com/fuzzys-taco-shop-073ae3d250c1", "opening_hours": "Mo-We 08:00-22:00; Th-Sa 08:00-23:00; Su 08:30-21:00", "brand": "Fuzzy's Taco Shop", "brand:wikidata": "Q85762348"}, "geometry": {"type": "Point", "coordinates": [-98.2011840425852, 32.22142459132612]}},
{"type": "Feature", "id": "HcW_jg1jlMBAP81al2eN9qLhkjA=", "properties": {"ref": "54301", "@spider": "fuzzystacos", "addr:street_address": "300 W Martin Luther King Jr Pkwy", "addr:city": "Des Moines", "addr:state": "IA", "addr:postcode": "50309", "name": "Fuzzy's Taco Shop - Des Moines", "phone": "+15152803898", "website": "https://restaurants.fuzzystacoshop.com/fuzzys-taco-shop-08944cd0897c", "opening_hours": "Mo-Th 10:00-22:00; Fr-Sa 10:00-02:00; Su 10:00-22:00", "brand": "Fuzzy's Taco Shop", "brand:wikidata": "Q85762348"}, "geometry": {"type": "Point", "coordinates": [-93.61950560303816, 41.58179349959143]}},
{"type": "Feature", "id": "iuRvFXEIwipWlRzE61WgFEZB7IU=", "properties": {"ref": "31206", "@spider": "fuzzystacos", "addr:street_address": "228 E. Pleasant Run Rd.", "addr:city": "DeSoto", "addr:state": "TX", "addr:postcode": "75115", "name": "Fuzzy's Taco Shop - DeSoto", "phone": "+14692974924", "website": "https://restaurants.fuzzystacoshop.com/fuzzys-taco-shop-0b02168f344b", "opening_hours": "Mo-Th 10:00-23:00; Fr 10:00-24:00; Sa 07:00-24:00; Su 07:00-23:00", "brand": "Fuzzy's Taco Shop", "brand:wikidata": "Q85762348"}, "geometry": {"type": "Point", "coordinates": [-96.8545906926771, 32.603777886865515]}},
{"type": "Feature", "id": "E3UCeUfNv_wP76OKKtreahQQ54c=", "properties": {"ref": "77501", "@spider": "fuzzystacos", "addr:street_address": "12241 East Colonial Dr", "addr:city": "Orlando", "addr:state": "FL", "addr:postcode": "32826", "name": "Fuzzy's Taco Shop - Orlando (E. Colonial)", "phone": "+14075121536", "website": "https://restaurants.fuzzystacoshop.com/fuzzys-taco-shop-0375664051df", "opening_hours": "Mo-Su 11:00-23:00", "brand": "Fuzzy's Taco Shop", "brand:wikidata": "Q85762348"}, "geometry": {"type": "Point", "coordinates": [-81.19523171326534, 28.566596639513396]}}]}