{"type":"FeatureCollection","features":[{"type": "Feature", "id": "i8zxT-c6eHr1RaDuzPdeh4ej1LA=", "properties": {"ref": "2317", "@spider": "game_gb", "shop": "video_games", "addr:street_address": "Corporation Street", "addr:city": "Birmngham", "addr:state": "West Midlands", "addr:postcode": "B2 5JS", "addr:country": "GB", "name": "GAME Birmingham HOF", "website": "https://storefinder.game.co.uk/game/stores/2317/Birmingham-HOF", "image": "https://cdn.game.net/image/upload/gmStore/StoreFront/bhamhoff", "brand": "Game", "brand:wikidata": "Q5519813", "located_in": "House of Fraser", "located_in:wikidata": "Q5928422", "nsi_id": "game-b2f4fe"}, "geometry": {"type": "Point", "coordinates": [-1.89662, 52.480865]}},
{"type": "Feature", "id": "jQQUK0pLyM83fueRi5xHUWo8Fbk=", "properties": {"ref": "2293", "@spider": "game_gb", "shop": "video_games", "addr:street_address": "18 New Street", "addr:city": "Birmingham", "addr:state": "West Midlands", "addr:postcode": "B2 4RQ", "addr:country": "GB", "name": "GAME Birmingham New Street", "website": "https://storefinder.game.co.uk/game/stores/2293/Birmingham-New-Street", "brand": "Game", "brand:wikidata": "Q5519813", "located_in": "Sports Direct", "located_in:wikidata": "Q7579661", "nsi_id": "game-b2f4fe"}, "geometry": {"type": "Point", "coordinates": [-1.8971303, 52.4790767]}},
{"type": "Feature", "id": "sqE0Xu-FUtddr6bO0r-5i4mwEO0=", "properties": {"ref": "2214", "@spider": "game_gb", "shop": "video_games", "addr:street_address": "Unit F2, The Fort Shopping Park", "addr:city": "Birmingham", "addr:state": "Birmingham", "addr:postcode": "B24 9FP", "addr:country": "GB", "name": "GAME Birmingham Fort", "website": "https://storefinder.game.co.uk/game/stores/2214/Birmingham-Fort", "image": "https://cdn.game.net/image/upload/gmStore/StoreFront/Fort_2214_OS_Rajeev_Sharma", "brand": "Game", "brand:wikidata": "Q5519813", "located_in": "Sports Direct", "located_in:wikidata": "Q7579661", "nsi_id": "game-b2f4fe"}, "geometry": {"type": "Point", "coordinates": [-1.81702, 52.50811]}},
{"type": "Feature", "id": "urqaTJXQAE1PVED9MPsjvf7aEVE=", "properties": {"ref": "344", "@spider": "game_gb", "shop": "video_games", "addr:street_address": "5 St Johns square, The Grange shopping centre", "addr:city": "Birkenhead", "addr:state": "Merseyside", "addr:postcode": "CH41 2YB", "addr:country": "GB", "name": "GAME Birkenhead", "website": "https://storefinder.game.co.uk/game/stores/344/Birkenhead", "image": "https://cdn.game.net/image/upload/gmStore/StoreFront/344_Birkehead_FOS_Graham_Futhey", "brand": "Game", "brand:wikidata": "Q5519813", "nsi_id": "game-b2f4fe"}, "geometry": {"type": "Point", "coordinates": [-3.025449, 53.38892]}},
{"type": "Feature", "id": "XeSO34vSYvFLBUa2ttt_AMf22Fk=", "properties": {"ref": "616", "@spider": "game_gb", "shop": "video_games", "addr:street_address": "Unit D, Broadway Shopping Centre", "addr:city": "Bexleyheath", "addr:state": "Kent", "addr:postcode": "DA6 7AY", "addr:country": "GB", "name": "GAME Bexleyheath", "website": "https://storefinder.game.co.uk/game/stores/616/Bexleyheath", "brand": "Game", "brand:wikidata": "Q5519813", "nsi_id": "game-b2f4fe"}, "geometry": {"type": "Point", "coordinates": [-0.1387, 51.4583]}},
{"type": "Feature", "id": "pgl3d94bFo08DPSdT3iNzXgyepM=", "properties": {"ref": "2316", "@spider": "game_gb", "shop": "video_games", "addr:street_address": "Victoria Square", "addr:city": "Belfast", "addr:state": "County Antrim", "addr:postcode": "BT1 4QG", "addr:country": "GB", "name": "GAME Belfast HOF", "website": "https://storefinder.game.co.uk/game/stores/2316/Belfast-HOF", "brand": "Game", "brand:wikidata": "Q5519813", "located_in": "HoF", "nsi_id": "game-b2f4fe"}, "geometry": {"type": "Point", "coordinates": [-5.92529, 54.5979]}},
{"type": "Feature", "id": "Jvlh2MHHbI4k_HI-TXVSnQP2O4E=", "properties": {"ref": "2431", "@spider": "game_gb", "shop": "video_games", "addr:street_address": "Unit 24, Connswater Shopping Centre, Bloomfield Ave", "addr:city": "Belfast", "addr:state": "Northern Ireland", "addr:postcode": "BT5 5LP", "addr:country": "GB", "name": "GAME Belfast Connswater BM", "website": "https://storefinder.game.co.uk/game/stores/2431/Belfast-Connswater-BM", "image": "https://cdn.game.net/image/upload/gmStore/StoreFront/B0CBF417-AF3A-4DB9-9EB4-F411FF92D7A6_Scott_Mcmullan", "brand": "Game", "brand:wikidata": "Q5519813", "located_in": "BrandMax", "nsi_id": "game-b2f4fe"}, "geometry": {"type": "Point", "coordinates": [-5.8925, 54.5957]}},
{"type": "Feature", "id": "GubbR7sYCitgo3239Q6-yKU44NM=", "properties": {"ref": "526", "@spider": "game_gb", "shop": "video_games", "addr:street_address": "5 Donegall Arcade", "addr:city": "BELFAST", "addr:state": "Northern Ireland", "addr:postcode": "BT1 1PT", "addr:country": "GB", "name": "GAME Belfast", "website": "https://storefinder.game.co.uk/game/stores/526/Belfast", "image": "https://cdn.game.net/image/upload/gmStore/StoreFront/526SF", "brand": "Game", "brand:wikidata": "Q5519813", "nsi_id": "game-b2f4fe"}, "geometry": {"type": "Point", "coordinates": [-5.931851, 54.601934]}},
{"type": "Feature", "id": "_DDy3s2tFvRQM03NgXHTqXQcsJM=", "properties": {"ref": "2443", "@spider": "game_gb", "shop": "video_games", "addr:street_address": "Unit 5, 10 Westgate Buildings", "addr:city": "Bath", "addr:state": "Avon", "addr:postcode": "BA1 1EB", "addr:country": "GB", "name": "GAME Bath SPD", "website": "https://storefinder.game.co.uk/game/stores/2443/Bath-SPD", "brand": "Game", "brand:wikidata": "Q5519813", "located_in": "Sports Direct", "located_in:wikidata": "Q7579661", "nsi_id": "game-b2f4fe"}, "geometry": {"type": "Point", "coordinates": [-2.3647756, 51.3807338]}},
{"type": "Feature", "id": "DlZpAujDPQhp75hOAwIw6CzeGsI=", "properties": {"ref": "2307", "@spider": "game_gb", "shop": "video_games", "addr:street_address": "13 Milsom Street", "addr:city": "Bath", "addr:state": "Somerset", "addr:postcode": "BA1 1DD", "addr:country": "GB", "name": "GAME Bath HOF", "website": "https://storefinder.game.co.uk/game/stores/2307/Bath-HOF", "image": "https://cdn.game.net/image/upload/gmStore/StoreFront/Bath_2307_entrance_Richard_Gaisford", "brand": "Game", "brand:wikidata": "Q5519813", "located_in": "House of Fraser", "located_in:wikidata": "Q5928422", "nsi_id": "game-b2f4fe"}, "geometry": {"type": "Point", "coordinates": [-2.36166, 51.38425]}},
{"type": "Feature", "id": "M8kosOtrMjTopksVbWgq2GEYP3Y=", "properties": {"ref": "625", "@spider": "game_gb", "shop": "video_games", "addr:street_address": "Unit 15, Festival Place", "addr:city": "BASINGSTOKE", "addr:state": "Hampshire", "addr:postcode": "RG21 7BE", "addr:country": "GB", "name": "GAME Basingstoke", "website": "https://storefinder.game.co.uk/game/stores/625/Basingstoke", "image": "https://cdn.game.net/image/upload/gmStore/StoreFront/0625_Basingstoke_Exterior", "brand": "Game", "brand:wikidata": "Q5519813", "nsi_id": "game-b2f4fe"}, "geometry": {"type": "Point", "coordinates": [-1.085517, 51.265327]}},
{"type": "Feature", "id": "my0mDe3hlL3LWjQjagI-8ccDuFU=", "properties": {"ref": "2241", "@spider": "game_gb", "shop": "video_games", "addr:street_address": "Southernhay", "addr:city": "Basildon", "addr:state": "Essex", "addr:postcode": "SS14 1AZ", "addr:country": "GB", "name": "GAME Basildon", "website": "https://storefinder.game.co.uk/game/stores/2241/Basildon", "image": "https://cdn.game.net/image/upload/gmStore/StoreFront/Basildon2241store_front_Aaron_Jordan", "brand": "Game", "brand:wikidata": "Q5519813", "located_in": "Sports Direct", "located_in:wikidata": "Q7579661", "nsi_id": "game-b2f4fe"}, "geometry": {"type": "Point", "coordinates": [0.51385, 51.58121]}},
{"type": "Feature", "id": "uvwCWtncv4-0-kZHm5jeuT4j0Eo=", "properties": {"ref": "3155", "@spider": "game_gb", "shop": "video_games", "addr:street_address": "6B Portland Walk", "addr:city": "BARROW IN FURNESS", "addr:state": "Cumbria", "addr:postcode": "LA14 1DB", "addr:country": "GB", "name": "GAME BARROW", "website": "https://storefinder.game.co.uk/game/stores/3155/BARROW", "image": "https://cdn.game.net/image/upload/gmStore/StoreFront/3155_Barrow_Exterior", "brand": "Game", "brand:wikidata": "Q5519813", "nsi_id": "game-b2f4fe"}, "geometry": {"type": "Point", "coordinates": [-3.226795, 54.11242]}},
{"type": "Feature", "id": "d7xBwlbdUXOP2Hj9cDD3qsn8xDs=", "properties": {"ref": "2425", "@spider": "game_gb", "shop": "video_games", "addr:street_address": "Unit 6, Barnstaple Retail Park", "addr:city": "Barnstaple", "addr:state": "Devon", "addr:postcode": "EX31 2AU", "addr:country": "GB", "name": "GAME Barnstaple", "website": "https://storefinder.game.co.uk/game/stores/2425/Barnstaple", "image": "https://cdn.game.net/image/upload/gmStore/StoreFront/9CAD5240-E7E8-42A4-B30F-84B8773E3BEF_Keef_Cowee", "brand": "Game", "brand:wikidata": "Q5519813", "located_in": "Sports Direct", "located_in:wikidata": "Q7579661", "nsi_id": "game-b2f4fe"}, "geometry": {"type": "Point", "coordinates": [-4.062146, 51.07472]}},
{"type": "Feature", "id": "mJGTyj3w_EGj0_SxCiIYYnMsog4=", "properties": {"ref": "2415", "@spider": "game_gb", "shop": "video_games", "addr:street_address": "MSU2, The Glassworks", "addr:city": "Barnsley", "addr:state": "South Yorkshire", "addr:postcode": "S70 1GW", "addr:country": "GB", "name": "GAME Barnsley", "website": "https://storefinder.game.co.uk/game/stores/2415/Barnsley", "image": "https://cdn.game.net/image/upload/gmStore/StoreFront/Barnsley_1_Terry_Railton", "brand": "Game", "brand:wikidata": "Q5519813", "located_in": "Sports Direct", "located_in:wikidata": "Q7579661", "nsi_id": "game-b2f4fe"}, "geometry": {"type": "Point", "coordinates": [-1.480292, 53.5522834]}},
{"type": "Feature", "id": "hIw5kUoKV4-N1CS-_PU1FpU9Dn8=", "properties": {"ref": "2265", "@spider": "game_gb", "shop": "video_games", "addr:street_address": "Unit 6, Springhill Shopping Centre", "addr:city": "Bangor", "addr:state": "Northern Ireland", "addr:postcode": "BT19 1ND", "addr:country": "GB", "name": "GAME Bangor Springhill", "website": "https://storefinder.game.co.uk/game/stores/2265/Bangor-Springhill", "image": "https://cdn.game.net/image/upload/gmStore/StoreFront/B1B39207-4CB5-4C33-B93A-5131915A9484_Scott_Mcmullan", "brand": "Game", "brand:wikidata": "Q5519813", "located_in": "Sports Direct", "located_in:wikidata": "Q7579661", "nsi_id": "game-b2f4fe"}, "geometry": {"type": "Point", "coordinates": [-5.70002, 54.65519]}},
{"type": "Feature", "id": "J8B8VKcf-2uB98m6YBcqiUyx9so=", "properties": {"ref": "287", "@spider": "game_gb", "shop": "video_games", "addr:street_address": "Unit B, Monks Cross Retail Park", "addr:city": "YORK", "addr:state": "Yorkshire", "addr:postcode": "YO32 9GX", "addr:country": "GB", "name": "GAME Monks Cross", "website": "https://storefinder.game.co.uk/game/stores/287/Monks-Cross", "image": "https://cdn.game.net/image/upload/gmStore/StoreFront/0287_Monks_Cross_Exterior", "brand": "Game", "brand:wikidata": "Q5519813", "nsi_id": "game-b2f4fe"}, "geometry": {"type": "Point", "coordinates": [-1.046755, 53.988164]}},
{"type": "Feature", "id": "wMNwRq2JOTmX-11HlURvsxUVUtk=", "properties": {"ref": "2233", "@spider": "game_gb", "shop": "video_games", "addr:street_address": "Unit 5, Babylon Retail Park", "addr:city": "Yeovil", "addr:state": "Somerset", "addr:postcode": "BA21 5BT", "addr:country": "GB", "name": "GAME Yeovil", "website": "https://storefinder.game.co.uk/game/stores/2233/Yeovil", "image": "https://cdn.game.net/image/upload/gmStore/StoreFront/22333_James_Hazell", "brand": "Game", "brand:wikidata": "Q5519813", "located_in": "Sports Direct", "located_in:wikidata": "Q7579661", "nsi_id": "game-b2f4fe"}, "geometry": {"type": "Point", "coordinates": [-2.60133, 50.9407]}},
{"type": "Feature", "id": "BbJhMg56FogWnkr1xVSPNCieWZI=", "properties": {"ref": "2209", "@spider": "game_gb", "shop": "video_games", "addr:street_address": "1st Floor, 1 Henblas Street", "addr:city": "Wrexham", "addr:state": "Wrexham", "addr:postcode": "LL13 8AE", "addr:country": "GB", "name": "GAME Wrexham", "website": "https://storefinder.game.co.uk/game/stores/2209/Wrexham", "image": "https://cdn.game.net/image/upload/gmStore/StoreFront/Wrexham_2209_Outside_Charles_Hallworth", "brand": "Game", "brand:wikidata": "Q5519813", "located_in": "Sports Direct", "located_in:wikidata": "Q7579661", "nsi_id": "game-b2f4fe"}, "geometry": {"type": "Point", "coordinates": [-2.99251, 53.04611]}},
{"type": "Feature", "id": "TGzJafnx8CSkEn7LpugE8Xr5O9k=", "properties": {"ref": "134", "@spider": "game_gb", "shop": "video_games", "addr:street_address": "Unit 3, Montague Centre", "addr:city": "WORTHING", "addr:state": "West Sussex", "addr:postcode": "BN11 1YJ", "addr:country": "GB", "name": "GAME Worthing", "website": "https://storefinder.game.co.uk/game/stores/134/Worthing", "image": "https://cdn.game.net/image/upload/gmStore/StoreFront/Worthing_134_Marc_Owen", "brand": "Game", "brand:wikidata": "Q5519813", "nsi_id": "game-b2f4fe"}, "geometry": {"type": "Point", "coordinates": [-0.371946, 50.810619]}},
{"type": "Feature", "id": "uxUr_NcvNA4BIL_OtSa09a3KuZ4=", "properties": {"ref": "2223", "@spider": "game_gb", "shop": "video_games", "addr:street_address": "Unit A, The Priory Centre", "addr:city": "WORKSOP", "addr:state": "Worksop", "addr:postcode": "S80 1JR", "addr:country": "GB", "name": "GAME WORKSOP", "website": "https://storefinder.game.co.uk/game/stores/2223/WORKSOP", "image": "https://cdn.game.net/image/upload/gmStore/StoreFront/Worksop_2223_Paul_Steele", "brand": "Game", "brand:wikidata": "Q5519813", "located_in": "Sports Direct", "located_in:wikidata": "Q7579661", "nsi_id": "game-b2f4fe"}, "geometry": {"type": "Point", "coordinates": [-1.125075, 53.304721]}},
{"type": "Feature", "id": "orqvG8RNBAU3R1uT02h8FXxfNUs=", "properties": {"ref": "2246", "@spider": "game_gb", "shop": "video_games", "addr:street_address": "1st Floor, 60-70 Pow Street", "addr:city": "Workington", "addr:state": "Cumbria", "addr:postcode": "CA14 3AB", "addr:country": "GB", "name": "GAME Workington", "website": "https://storefinder.game.co.uk/game/stores/2246/Workington", "image": "https://cdn.game.net/image/upload/gmStore/StoreFront/Workington_Store_Front_Kirk_Spencer", "brand": "Game", "brand:wikidata": "Q5519813", "located_in": "Sports Direct", "located_in:wikidata": "Q7579661", "nsi_id": "game-b2f4fe"}, "geometry": {"type": "Point", "coordinates": [-3.49086, 54.6146]}},
{"type": "Feature", "id": "fT9Fjp--Lr5RLbQMY-FiyjkVT7Q=", "properties": {"ref": "2315", "@spider": "game_gb", "shop": "video_games", "addr:street_address": "24 Chapel Walk, Crown Gate", "addr:city": "Worcester", "addr:state": "Worcestershire", "addr:postcode": "WR1 3LD", "addr:country": "GB", "name": "GAME Worcester HOF", "website": "https://storefinder.game.co.uk/game/stores/2315/Worcester-HOF", "image": "https://cdn.game.net/image/upload/gmStore/StoreFront/wor_hof_out", "brand": "Game", "brand:wikidata": "Q5519813", "located_in": "House of Fraser", "located_in:wikidata": "Q5928422", "nsi_id": "game-b2f4fe"}, "geometry": {"type": "Point", "coordinates": [-2.222542, 52.19205]}},
{"type": "Feature", "id": "Wa_kQFtbdA6m4PsV0hQU2Gkma10=", "properties": {"ref": "2221", "@spider": "game_gb", "shop": "video_games", "addr:street_address": "Sports Direct, Unit 3A, St Martins Quarter", "addr:city": "WORCESTER", "addr:state": "Worcestershire", "addr:postcode": "WR1 2DA", "addr:country": "GB", "name": "GAME WORCESTER", "website": "https://storefinder.game.co.uk/game/stores/2221/WORCESTER", "image": "https://cdn.game.net/image/upload/gmStore/StoreFront/2221_Worcester_front_Nicola_Clarkechapman", "brand": "Game", "brand:wikidata": "Q5519813", "nsi_id": "game-b2f4fe"}, "geometry": {"type": "Point", "coordinates": [-2.22233, 52.192095]}},
{"type": "Feature", "id": "Rl-oFjjzngcIsz1E0TfjMM6OzsU=", "properties": {"ref": "2219", "@spider": "game_gb", "shop": "video_games", "addr:street_address": "Unit DS1 The Mander Centre", "addr:city": "Wolverhampton", "addr:state": "Wolverhampton", "addr:postcode": "WV1 3NN", "addr:country": "GB", "name": "GAME Wolverhampton", "website": "https://storefinder.game.co.uk/game/stores/2219/Wolverhampton", "image": "https://cdn.game.net/image/upload/gmStore/StoreFront/IMG-20220211-WA0003_Dean_Floyd", "brand": "Game", "brand:wikidata": "Q5519813", "located_in": "Sports Direct", "located_in:wikidata": "Q7579661", "nsi_id": "game-b2f4fe"}, "geometry": {"type": "Point", "coordinates": [-2.05679, 52.60221]}},
{"type": "Feature", "id": "gNBUXu93Duq4PmfuPeWPWsIS_gM=", "properties": {"ref": "207", "@spider": "game_gb", "shop": "video_games", "addr:street_address": "Unit 22, Woolgate Centre", "addr:city": "WITNEY", "addr:state": "Oxfordshire", "addr:postcode": "OX28 6AP", "addr:country": "GB", "name": "GAME Witney", "website": "https://storefinder.game.co.uk/game/stores/207/Witney", "image": "https://cdn.game.net/image/upload/gmStore/StoreFront/Witney_207_Christopher_Owen", "brand": "Game", "brand:wikidata": "Q5519813", "nsi_id": "game-b2f4fe"}, "geometry": {"type": "Point", "coordinates": [-1.485324, 51.784789]}},
{"type": "Feature", "id": "v5AzezdLNJTZHSMYMnhOgnuEyzI=", "properties": {"ref": "2289", "@spider": "game_gb", "shop": "video_games", "addr:street_address": "Unit 31, Croft Retail Park, Welton Road", "addr:city": "Wirral", "addr:state": "Bromborough", "addr:postcode": "CH62 3PN", "addr:country": "GB", "name": "GAME Bromborough", "website": "https://storefinder.game.co.uk/game/stores/2289/Bromborough", "image": "https://cdn.game.net/image/upload/gmStore/StoreFront/2289_Bromborough_FOS_Graham_Futhey", "brand": "Game", "brand:wikidata": "Q5519813", "located_in": "Sports Direct", "located_in:wikidata": "Q7579661", "nsi_id": "game-b2f4fe"}, "geometry": {"type": "Point", "coordinates": [-2.97724, 53.34057]}},
{"type": "Feature", "id": "rKJh_639Afs0Mt14c3mXtqlVkBs=", "properties": {"ref": "2432", "@spider": "game_gb", "shop": "video_games", "addr:street_address": "29 Grand Arcade", "addr:city": "Wigan", "addr:state": "Lancashire", "addr:postcode": "WN1 1BH", "addr:country": "GB", "name": "GAME Wigan", "website": "https://storefinder.game.co.uk/game/stores/2432/Wigan", "image": "https://cdn.game.net/image/upload/gmStore/StoreFront/Wigan_2432_Front_of_store_Jonathan_Lemon", "brand": "Game", "brand:wikidata": "Q5519813", "located_in": "Sports Direct", "located_in:wikidata": "Q7579661", "nsi_id": "game-b2f4fe"}, "geometry": {"type": "Point", "coordinates": [-2.63129, 53.54639]}},
{"type": "Feature", "id": "h7XZlgUQhnKeIr1Yc1jE9P1WzN8=", "properties": {"ref": "2459", "@spider": "game_gb", "shop": "video_games", "addr:street_address": "Unit 30, Albert Square Shopping Centre", "addr:city": "Widnes", "addr:state": "Cheshire", "addr:postcode": "WA8 6JW", "addr:country": "GB", "name": "GAME Widnes", "website": "https://storefinder.game.co.uk/game/stores/2459/Widnes", "image": "https://cdn.game.net/image/upload/gmStore/StoreFront/Store_Front_Widnes", "brand": "Game", "brand:wikidata": "Q5519813", "located_in": "Sports Direct", "located_in:wikidata": "Q7579661", "nsi_id": "game-b2f4fe"}, "geometry": {"type": "Point", "coordinates": [-2.72669, 53.36851]}},
{"type": "Feature", "id": "EpHRM5D0PKhZVvhYEegiVdfobLU=", "properties": {"ref": "2468", "@spider": "game_gb", "shop": "video_games", "addr:street_address": "4 Jubilee Retail Park, Jubilee Close", "addr:city": "Weymouth", "addr:state": "Dorset", "addr:postcode": "DT4 7BG", "addr:country": "GB", "name": "GAME Weymouth Jubiliee", "website": "https://storefinder.game.co.uk/game/stores/2468/Weymouth-Jubiliee", "image": "https://cdn.game.net/image/upload/gmStore/StoreFront/weymouth_out", "brand": "Game", "brand:wikidata": "Q5519813", "located_in": "SPD", "nsi_id": "game-b2f4fe"}, "geometry": {"type": "Point", "coordinates": [-2.45753, 50.61714]}},
{"type": "Feature", "id": "Ut2AIagfTtqd_o9oLxv_U2MSme8=", "properties": {"ref": "2201", "@spider": "game_gb", "shop": "video_games", "addr:street_address": "Unit 12, The Junction, Thurrock Shopping Park", "addr:city": "West Thurrock", "addr:state": "Grays", "addr:postcode": "RM20 3LP", "addr:country": "GB", "name": "GAME Lakeside (in Sports Direct Unit)", "website": "https://storefinder.game.co.uk/game/stores/2201/Lakeside--in-Sports-Direct-Unit", "image": "https://cdn.game.net/image/upload/gmStore/StoreFront/Lakesidespd2201outside_Aaron_Jordan", "brand": "Game", "brand:wikidata": "Q5519813", "located_in": "Sports Direct", "located_in:wikidata": "Q7579661", "nsi_id": "game-b2f4fe"}, "geometry": {"type": "Point", "coordinates": [0.2714, 51.4859]}},
{"type": "Feature", "id": "7i_spMRhz47TsJrSj1k6ktc-KCg=", "properties": {"ref": "156", "@spider": "game_gb", "shop": "video_games", "addr:street_address": "61 Sandwell Centre", "addr:city": "WEST BROMWICH", "addr:state": "West Midlands", "addr:postcode": "B70 7NJ", "addr:country": "GB", "name": "GAME West Bromwich", "website": "https://storefinder.game.co.uk/game/stores/156/West-Bromwich", "image": "https://cdn.game.net/image/upload/gmStore/StoreFront/West_Brom_156_Richard_Meek", "brand": "Game", "brand:wikidata": "Q5519813", "nsi_id": "game-b2f4fe"}, "geometry": {"type": "Point", "coordinates": [-1.992599, 52.517754]}},
{"type": "Feature", "id": "B3YlUXLmt1NPcE_g1J81u9vvs1w=", "properties": {"ref": "2206", "@spider": "game_gb", "shop": "video_games", "addr:street_address": "83-87 high street", "addr:city": "Watford", "addr:state": "Watford", "addr:postcode": "WD17 2DQ", "addr:country": "GB", "name": "GAME Watford", "website": "https://storefinder.game.co.uk/game/stores/2206/Watford", "image": "https://cdn.game.net/image/upload/gmStore/StoreFront/Watford_2206_Outside_Dean_Griffin.", "brand": "Game", "brand:wikidata": "Q5519813", "located_in": "Sports Direct", "located_in:wikidata": "Q7579661", "nsi_id": "game-b2f4fe"}, "geometry": {"type": "Point", "coordinates": [-0.3946, 51.6547]}},
{"type": "Feature", "id": "uRztng8g3IaGdfjoGNeJif7O-1U=", "properties": {"ref": "3243", "@spider": "game_gb", "shop": "video_games", "addr:street_address": "95 London Road", "addr:city": "WATERLOOVILLE", "addr:state": "Hampshire", "addr:postcode": "PO7 7EQ", "addr:country": "GB", "name": "GAME WATERLOOVILLE", "website": "https://storefinder.game.co.uk/game/stores/3243/WATERLOOVILLE", "image": "https://cdn.game.net/image/upload/gmStore/StoreFront/Waterlooville_2599_James_Hazell", "brand": "Game", "brand:wikidata": "Q5519813", "nsi_id": "game-b2f4fe"}, "geometry": {"type": "Point", "coordinates": [-1.031975, 50.879115]}},
{"type": "Feature", "id": "Y9jO25nN2RoGZ0zqavFg_3w1zvE=", "properties": {"ref": "3358", "@spider": "game_gb", "shop": "video_games", "addr:street_address": "26 Albany Mall", "addr:city": "Washington", "addr:state": "Tyne and Wear", "addr:postcode": "NE38 7SA", "addr:country": "GB", "name": "GAME Washington", "website": "https://storefinder.game.co.uk/game/stores/3358/Washington", "image": "https://cdn.game.net/image/upload/gmStore/StoreFront/Washington_3358_Deepak_Kohli", "brand": "Game", "brand:wikidata": "Q5519813", "nsi_id": "game-b2f4fe"}, "geometry": {"type": "Point", "coordinates": [-1.533714, 54.899653]}},
{"type": "Feature", "id": "zdZ9S5e8DD1pc5Orqk6_Rt3boQ4=", "properties": {"ref": "3359", "@spider": "game_gb", "shop": "video_games", "addr:street_address": "46 The Mall, Golden Square Shopping Centre", "addr:city": "Warrington", "addr:state": "Warrington", "addr:postcode": "WA1 1QP", "addr:country": "GB", "name": "GAME Warrington", "website": "https://storefinder.game.co.uk/game/stores/3359/Warrington", "image": "https://cdn.game.net/image/upload/gmStore/StoreFront/3359_Warrington_FOS_Graham_Futhey", "brand": "Game", "brand:wikidata": "Q5519813", "nsi_id": "game-b2f4fe"}, "geometry": {"type": "Point", "coordinates": [-2.596909, 53.389135]}},
{"type": "Feature", "id": "VvBItY2XrytuSp4oWqbEydOqm9A=", "properties": {"ref": "2446", "@spider": "game_gb", "shop": "video_games", "addr:street_address": "Unit F1, Silverlink Retail Park", "addr:city": "Wallsend", "addr:state": "Newcastle", "addr:postcode": "NE28 9ND", "addr:country": "GB", "name": "GAME Newcastle Silverlink", "website": "https://storefinder.game.co.uk/game/stores/2446/Newcastle-Silverlink", "image": "https://cdn.game.net/image/upload/gmStore/StoreFront/newcastl_out", "brand": "Game", "brand:wikidata": "Q5519813", "located_in": "Sports Direct", "located_in:wikidata": "Q7579661", "nsi_id": "game-b2f4fe"}, "geometry": {"type": "Point", "coordinates": [-1.49579, 55.01263]}},
{"type": "Feature", "id": "Jwgf6ozkAMAn01IwwuQV3KS9d_c=", "properties": {"ref": "2279", "@spider": "game_gb", "shop": "video_games", "addr:street_address": "2nd Floor, 24-26 Park Street", "addr:city": "Wallsall", "addr:state": "Staffordshire", "addr:postcode": "WS1 1NG", "addr:country": "GB", "name": "GAME Walsall", "website": "https://storefinder.game.co.uk/game/stores/2279/Walsall", "image": "https://cdn.game.net/image/upload/gmStore/StoreFront/Game_Walsall_2279_Front_Store_Richard_Meek", "brand": "Game", "brand:wikidata": "Q5519813", "located_in": "Sports Direct", "located_in:wikidata": "Q7579661", "nsi_id": "game-b2f4fe"}, "geometry": {"type": "Point", "coordinates": [-1.983732, 52.58428]}},
{"type": "Feature", "id": "fvyJ4JUyF6_-HhDoTOXA8DsyimY=", "properties": {"ref": "2434", "@spider": "game_gb", "shop": "video_games", "addr:street_address": "45-47 Westgate", "addr:city": "Wakefield", "addr:state": "West Yorkshire", "addr:postcode": "WF1 1BW", "addr:country": "GB", "name": "GAME Wakefield", "website": "https://storefinder.game.co.uk/game/stores/2434/Wakefield", "image": "https://cdn.game.net/image/upload/gmStore/StoreFront/Wakefield24341_Adam_Williams", "brand": "Game", "brand:wikidata": "Q5519813", "located_in": "Sports Direct", "located_in:wikidata": "Q7579661", "nsi_id": "game-b2f4fe"}, "geometry": {"type": "Point", "coordinates": [-1.50311, 53.682]}},
{"type": "Feature", "id": "WiJSYWc-oAULpeZaDmEaStbp4gA=", "properties": {"ref": "2270", "@spider": "game_gb", "shop": "video_games", "addr:street_address": "Unit B, 159/161 High Street", "addr:city": "Uxbridge", "addr:state": "Middlesex", "addr:postcode": "UB8 1JY", "addr:country": "GB", "name": "GAME Uxbridge", "website": "https://storefinder.game.co.uk/game/stores/2270/Uxbridge", "image": "https://cdn.game.net/image/upload/gmStore/StoreFront/Uxbridge_2270_Outside_Dean_Griffin", "brand": "Game", "brand:wikidata": "Q5519813", "located_in": "Sports Direct", "located_in:wikidata": "Q7579661", "nsi_id": "game-b2f4fe"}, "geometry": {"type": "Point", "coordinates": [-0.47722, 51.54507]}},
{"type": "Feature", "id": "kMfScXGg2MOlLNWk9rTIsBSOc1Q=", "properties": {"ref": "3143", "@spider": "game_gb", "shop": "video_games", "addr:street_address": "46 The Shires Shopping centre", "addr:city": "TROWBRIDGE", "addr:state": "Wiltshire", "addr:postcode": "BA14 8AT", "addr:country": "GB", "name": "GAME TROWBRIDGE", "website": "https://storefinder.game.co.uk/game/stores/3143/TROWBRIDGE", "image": "https://cdn.game.net/image/upload/gmStore/StoreFront/Vegas_3143_Entrance_Richard_Gaisford", "brand": "Game", "brand:wikidata": "Q5519813", "nsi_id": "game-b2f4fe"}, "geometry": {"type": "Point", "coordinates": [-2.209478, 51.319965]}},
{"type": "Feature", "id": "kOdXIXceUyTHcrYPyyHbm4oVMB4=", "properties": {"ref": "125", "@spider": "game_gb", "shop": "video_games", "addr:street_address": "75 Union Street", "addr:city": "TORQUAY", "addr:state": "Devon", "addr:postcode": "TQ1 3DA", "addr:country": "GB", "name": "GAME Torquay", "website": "https://storefinder.game.co.uk/game/stores/125/Torquay", "image": "https://cdn.game.net/image/upload/gmStore/StoreFront/125SF", "brand": "Game", "brand:wikidata": "Q5519813", "nsi_id": "game-b2f4fe"}, "geometry": {"type": "Point", "coordinates": [-3.530191, 50.466589]}},
{"type": "Feature", "id": "iAoaTGNFZL44bHQ--Hqr95x7OPk=", "properties": {"ref": "2438", "@spider": "game_gb", "shop": "video_games", "addr:street_address": "Unit 1, Link Retail Park", "addr:city": "Thanet", "addr:state": "Kent", "addr:postcode": "CT10 2FF", "addr:country": "GB", "name": "GAME Thanet Link", "website": "https://storefinder.game.co.uk/game/stores/2438/Thanet-Link", "brand": "Game", "brand:wikidata": "Q5519813", "located_in": "Sports Direct", "located_in:wikidata": "Q7579661", "nsi_id": "game-b2f4fe"}, "geometry": {"type": "Point", "coordinates": [1.3901303, 51.3592833]}},
{"type": "Feature", "id": "c0qN4IHtSGwrEulFVHwfD6PSX5o=", "properties": {"ref": "2271", "@spider": "game_gb", "shop": "video_games", "addr:street_address": "43-45 Sherwood St, Telford Shopping Centre", "addr:city": "Telford", "addr:state": "Shropshire", "addr:postcode": "TF3 4BW", "addr:country": "GB", "name": "GAME Telford", "website": "https://storefinder.game.co.uk/game/stores/2271/Telford", "image": "https://cdn.game.net/image/upload/gmStore/StoreFront/IMG-20220211-WA0006_Dean_Floyd", "brand": "Game", "brand:wikidata": "Q5519813", "located_in": "Sports Direct", "located_in:wikidata": "Q7579661", "nsi_id": "game-b2f4fe"}, "geometry": {"type": "Point", "coordinates": [-2.447, 52.67511]}},
{"type": "Feature", "id": "8XcckfFbl4gNoGc3zwwp2i_avok=", "properties": {"ref": "737", "@spider": "game_gb", "shop": "video_games", "addr:street_address": "unit 4 Orchard shopping centre, Pul street", "addr:city": "Taunton", "addr:state": "Somerset", "addr:postcode": "TA1 3TP", "addr:country": "GB", "name": "GAME Taunton", "website": "https://storefinder.game.co.uk/game/stores/737/Taunton", "image": "https://cdn.game.net/image/upload/gmStore/StoreFront/0737_Taunton_Geoff_Urwin", "brand": "Game", "brand:wikidata": "Q5519813", "nsi_id": "game-b2f4fe"}, "geometry": {"type": "Point", "coordinates": [-3.10334, 51.013706]}},
{"type": "Feature", "id": "JQo5d0SXlk6nJOd2XclJq8aVulc=", "properties": {"ref": "2408", "@spider": "game_gb", "shop": "video_games", "addr:street_address": "Unit C, Ventura Retail Park, Bonehill", "addr:city": "Tamworth", "addr:state": "Staffordshire", "addr:postcode": "B78 3HB", "addr:country": "GB", "name": "GAME Tamworth", "website": "https://storefinder.game.co.uk/game/stores/2408/Tamworth", "image": "https://cdn.game.net/image/upload/gmStore/StoreFront/Tamworth_2408_Front_Store_Richard_Meek", "brand": "Game", "brand:wikidata": "Q5519813", "located_in": "Sports Direct", "located_in:wikidata": "Q7579661", "nsi_id": "game-b2f4fe"}, "geometry": {"type": "Point", "coordinates": [-1.7072952, 52.6275455]}},
{"type": "Feature", "id": "mY6pYn5WX1euVXVvWMB6QcQmLpA=", "properties": {"ref": "2427", "@spider": "game_gb", "shop": "video_games", "addr:street_address": "Unit 4, Talbot Green Retail Park", "addr:city": "Talbot Green", "addr:state": "Pontyclun", "addr:postcode": "CF72 8LW", "addr:country": "GB", "name": "GAME Llantrisant", "website": "https://storefinder.game.co.uk/game/stores/2427/Llantrisant", "image": "https://cdn.game.net/image/upload/gmStore/StoreFront/Llantrisant_front_Michael_Morton", "brand": "Game", "brand:wikidata": "Q5519813", "located_in": "Sports Direct", "located_in:wikidata": "Q7579661", "nsi_id": "game-b2f4fe"}, "geometry": {"type": "Point", "coordinates": [-3.3822, 51.5373]}},
{"type": "Feature", "id": "QInkLzQfyQmeveSdLkrDi6Jqbdc=", "properties": {"ref": "2266", "@spider": "game_gb", "shop": "video_games", "addr:street_address": "Unit 4/5, 64-72 Regent Street", "addr:city": "Swindon", "addr:state": "Swindon", "addr:postcode": "SN1 1JY", "addr:country": "GB", "name": "GAME Swindon", "website": "https://storefinder.game.co.uk/game/stores/2266/Swindon", "image": "https://cdn.game.net/image/upload/gmStore/StoreFront/Swindon_2266_Entrance_Richard_Gaisford", "brand": "Game", "brand:wikidata": "Q5519813", "located_in": "Sports Direct", "located_in:wikidata": "Q7579661", "nsi_id": "game-b2f4fe"}, "geometry": {"type": "Point", "coordinates": [-1.78494, 51.56128]}},
{"type": "Feature", "id": "OLpGROhRacH5NDZv7YlMdvhNbBg=", "properties": {"ref": "2444", "@spider": "game_gb", "shop": "video_games", "addr:street_address": "Unit 6B, Parc Tawe Retail Park", "addr:city": "Swansea", "addr:state": "Glamorgan", "addr:postcode": "SA1 2AP", "addr:country": "GB", "name": "GAME Swansea Parc Tawe", "website": "https://storefinder.game.co.uk/game/stores/2444/Swansea-Parc-Tawe", "image": "https://cdn.game.net/image/upload/gmStore/StoreFront/Store_front", "brand": "Game", "brand:wikidata": "Q5519813", "located_in": "Sports Direct", "located_in:wikidata": "Q7579661", "nsi_id": "game-b2f4fe"}, "geometry": {"type": "Point", "coordinates": [-3.93968, 51.62264]}},
{"type": "Feature", "id": "k5x8Sjd9Wwo9BdzxUvEgmQUnpnM=", "properties": {"ref": "2321", "@spider": "game_gb", "shop": "video_games", "addr:street_address": "132-138 The Parade, Gracechurch Centre", "addr:city": "Sutton Coldfield", "addr:state": "Warwichshire", "addr:postcode": "B72 1PB", "addr:country": "GB", "name": "GAME Sutton Coldfield", "website": "https://storefinder.game.co.uk/game/stores/2321/Sutton-Coldfield", "image": "https://cdn.game.net/image/upload/gmStore/StoreFront/Sutton_C_2321_OS_Rajeev_Sharma", "brand": "Game", "brand:wikidata": "Q5519813", "located_in": "House of Fraser", "located_in:wikidata": "Q5928422", "nsi_id": "game-b2f4fe"}, "geometry": {"type": "Point", "coordinates": [-1.828129, 52.5625561]}},
{"type": "Feature", "id": "TgbxnVw_RiiSHxsnSV-7mT5e2YM=", "properties": {"ref": "2210", "@spider": "game_gb", "shop": "video_games", "addr:street_address": "Unit 41, Times Square Shopping Centre", "addr:city": "Sutton", "addr:state": "Surrey", "addr:postcode": "SM1 1LF", "addr:country": "GB", "name": "GAME Sutton", "website": "https://storefinder.game.co.uk/game/stores/2210/Sutton", "image": "https://cdn.game.net/image/upload/gmStore/StoreFront/thumbnail_IMG_2005_Lauren_Clark", "brand": "Game", "brand:wikidata": "Q5519813", "nsi_id": "game-b2f4fe"}, "geometry": {"type": "Point", "coordinates": [-0.1924, 51.3633]}},
{"type": "Feature", "id": "YD8hHVWcdyqedvA6GY7gSjpM-WY=", "properties": {"ref": "649", "@spider": "game_gb", "shop": "video_games", "addr:street_address": "Unit 23 Surrey Quays Shopping Centre, Redriff Road", "addr:city": "Surrey Quays", "addr:state": "London", "addr:postcode": "SE16 7LL", "addr:country": "GB", "name": "GAME Surrey Quays", "website": "https://storefinder.game.co.uk/game/stores/649/Surrey-Quays", "image": "https://cdn.game.net/image/upload/gmStore/StoreFront/649SF", "brand": "Game", "brand:wikidata": "Q5519813", "nsi_id": "game-b2f4fe"}, "geometry": {"type": "Point", "coordinates": [-0.048043, 51.494534]}},
{"type": "Feature", "id": "8Kll3vSvAP6MVKDj9hnb3g6pJa8=", "properties": {"ref": "2234", "@spider": "game_gb", "shop": "video_games", "addr:street_address": "Sunderland West, 86/89 High Street West", "addr:city": "Sunderland", "addr:state": "Sunderland", "addr:postcode": "SR1 3DB", "addr:country": "GB", "name": "GAME Sunderland", "website": "https://storefinder.game.co.uk/game/stores/2234/Sunderland", "image": "https://cdn.game.net/image/upload/gmStore/StoreFront/sunderlandoutside", "brand": "Game", "brand:wikidata": "Q5519813", "located_in": "Sports Direct", "located_in:wikidata": "Q7579661", "nsi_id": "game-b2f4fe"}, "geometry": {"type": "Point", "coordinates": [-1.44429, 54.91585]}},
{"type": "Feature", "id": "LVaCIwLD2mQfSIk7uz7lu7--Eeo=", "properties": {"ref": "327", "@spider": "game_gb", "shop": "video_games", "addr:street_address": "214-215 The Potteries, Hanley", "addr:city": "Stoke on Trent", "addr:state": "Staffordshire", "addr:postcode": "ST1 1PS", "addr:country": "GB", "name": "GAME Hanley (Potteries)", "website": "https://storefinder.game.co.uk/game/stores/327/Hanley--Potteries", "image": "https://cdn.game.net/image/upload/gmStore/StoreFront/327_hanley_external_Derrick_Wright", "brand": "Game", "brand:wikidata": "Q5519813", "nsi_id": "game-b2f4fe"}, "geometry": {"type": "Point", "coordinates": [-2.175903, 53.026441]}},
{"type": "Feature", "id": "3ia6amqDBxeT7QCAzVxLp36cvw8=", "properties": {"ref": "2412", "@spider": "game_gb", "shop": "video_games", "addr:street_address": "Unit 7C, Teesside Retail Park", "addr:city": "Stockton on Tees", "addr:state": "County Durham", "addr:postcode": "TS17 7BW", "addr:country": "GB", "name": "GAME Teesside", "website": "https://storefinder.game.co.uk/game/stores/2412/Teesside", "image": "https://cdn.game.net/image/upload/gmStore/StoreFront/Teesside_Park_2954_3_Tom_Chandler", "brand": "Game", "brand:wikidata": "Q5519813", "located_in": "Sports Direct", "located_in:wikidata": "Q7579661", "nsi_id": "game-b2f4fe"}, "geometry": {"type": "Point", "coordinates": [-1.27886, 54.55441]}},
{"type": "Feature", "id": "hZf3EFYl1WNaShegyz4Q7cDB_CA=", "properties": {"ref": "84", "@spider": "game_gb", "shop": "video_games", "addr:street_address": "67-69 Princes Street", "addr:city": "STOCKPORT", "addr:state": "Greater Manchester", "addr:postcode": "SK1 1RW", "addr:country": "GB", "name": "GAME Stockport", "website": "https://storefinder.game.co.uk/game/stores/84/Stockport", "image": "https://cdn.game.net/image/upload/gmStore/StoreFront/Stockport_Daniel_Reilly", "brand": "Game", "brand:wikidata": "Q5519813", "nsi_id": "game-b2f4fe"}, "geometry": {"type": "Point", "coordinates": [-2.162439, 53.410292]}},
{"type": "Feature", "id": "roI_z0Lu-ePCCgwgo41AInof-qk=", "properties": {"ref": "2465", "@spider": "game_gb", "shop": "video_games", "addr:street_address": "Unit 3C, Ochilview Mall", "addr:city": "Stirling", "addr:state": "Stirlingshire", "addr:postcode": "FK8 2EA", "addr:country": "GB", "name": "GAME Stirling", "website": "https://storefinder.game.co.uk/game/stores/2465/Stirling", "brand": "Game", "brand:wikidata": "Q5519813", "located_in": "Sports Direct", "located_in:wikidata": "Q7579661", "nsi_id": "game-b2f4fe"}, "geometry": {"type": "Point", "coordinates": [-3.93401, 56.11697]}},
{"type": "Feature", "id": "tjc7H90MjWzMQbIRFIuiBGV9kEk=", "properties": {"ref": "340", "@spider": "game_gb", "shop": "video_games", "addr:street_address": "Unit 2, The Forum", "addr:city": "Stevenage", "addr:state": "Hertfordshire", "addr:postcode": "SG1 1EH", "addr:country": "GB", "name": "GAME Stevenage Forum", "website": "https://storefinder.game.co.uk/game/stores/340/Stevenage-Forum", "image": "https://cdn.game.net/image/upload/gmStore/StoreFront/Stevenage_0340_Trevor_Sheldrick", "brand": "Game", "brand:wikidata": "Q5519813", "nsi_id": "game-b2f4fe"}, "geometry": {"type": "Point", "coordinates": [-0.203353, 51.903472]}},
{"type": "Feature", "id": "Pe_lvxKBN-Y1HkMDkt753TMZF2A=", "properties": {"ref": "2420", "@spider": "game_gb", "shop": "video_games", "addr:street_address": "105-111 High Street, Elmsleigh Shopping Centre", "addr:city": "Staines", "addr:state": "Middlesex", "addr:postcode": "TW18 4PJ", "addr:country": "GB", "name": "GAME Staines", "website": "https://storefinder.game.co.uk/game/stores/2420/Staines", "image": "https://cdn.game.net/image/upload/gmStore/StoreFront/20220603_083157", "brand": "Game", "brand:wikidata": "Q5519813", "located_in": "Sports Direct", "located_in:wikidata": "Q7579661", "nsi_id": "game-b2f4fe"}, "geometry": {"type": "Point", "coordinates": [0.28316, 51.4877]}},
{"type": "Feature", "id": "MsTqaNZvwP0cfT7LDVMRv8CWIBk=", "properties": {"ref": "2483", "@spider": "game_gb", "shop": "video_games", "addr:street_address": "18 Gaolgate Street", "addr:city": "Stafford", "addr:state": "Staffordshire", "addr:postcode": "ST16 2BQ", "addr:country": "GB", "name": "GAME Stafford", "website": "https://storefinder.game.co.uk/game/stores/2483/Stafford", "brand": "Game", "brand:wikidata": "Q5519813", "located_in": "Sports Direct", "located_in:wikidata": "Q7579661", "nsi_id": "game-b2f4fe"}, "geometry": {"type": "Point", "coordinates": [-2.127389, 52.817605]}},
{"type": "Feature", "id": "uHcc9p5Hine-EdsoeDV1IFmbYU8=", "properties": {"ref": "2228", "@spider": "game_gb", "shop": "video_games", "addr:street_address": "17 King Street", "addr:city": "St Helens", "addr:state": "Merseyside", "addr:postcode": "WA10 2LE", "addr:country": "GB", "name": "GAME St Helens", "website": "https://storefinder.game.co.uk/game/stores/2228/St-Helens", "image": "https://cdn.game.net/image/upload/gmStore/StoreFront/2228_St_Helens_Front_Graham_Futhey", "brand": "Game", "brand:wikidata": "Q5519813", "located_in": "Sports Direct", "located_in:wikidata": "Q7579661", "nsi_id": "game-b2f4fe"}, "geometry": {"type": "Point", "coordinates": [-2.74073, 53.45457]}},
{"type": "Feature", "id": "B3FAGqTf2pVjXHtNkJ3JOW2yCnE=", "properties": {"ref": "2405", "@spider": "game_gb", "shop": "video_games", "addr:street_address": "6-14 Truro Road", "addr:city": "St Austell", "addr:state": "Cornwall", "addr:postcode": "PL25 5JB", "addr:country": "GB", "name": "GAME St Austell", "website": "https://storefinder.game.co.uk/game/stores/2405/St-Austell", "image": "https://cdn.game.net/image/upload/gmStore/StoreFront/2st_austell_SPD_GOOGLE", "brand": "Game", "brand:wikidata": "Q5519813", "located_in": "Sports Direct", "located_in:wikidata": "Q7579661", "nsi_id": "game-b2f4fe"}, "geometry": {"type": "Point", "coordinates": [-4.7982706, 50.3385323]}},
{"type": "Feature", "id": "Nhr7mCO1T719DJjdQDhh-s8hBUc=", "properties": {"ref": "2264", "@spider": "game_gb", "shop": "video_games", "addr:street_address": "Unit 3, New Mersey Retail Park, Speke Road", "addr:city": "Speke", "addr:state": "Liverpool", "addr:postcode": "L24 8QB", "addr:country": "GB", "name": "GAME Speke", "website": "https://storefinder.game.co.uk/game/stores/2264/Speke", "image": "https://cdn.game.net/image/upload/gmStore/StoreFront/8cba41c5-1d14-4a73-b9a5-b50968f8861a_Graham_Futhey", "brand": "Game", "brand:wikidata": "Q5519813", "located_in": "Sports Direct", "located_in:wikidata": "Q7579661", "nsi_id": "game-b2f4fe"}, "geometry": {"type": "Point", "coordinates": [-2.87794, 53.34895]}},
{"type": "Feature", "id": "VF72PRU-UDnwaMFBR9uEl3P3sF8=", "properties": {"ref": "2469", "@spider": "game_gb", "shop": "video_games", "addr:street_address": "Unit 26-27 Springfields", "addr:city": "Spalding", "addr:state": "Lincolnshire", "addr:postcode": "PE12 6EU", "addr:country": "GB", "name": "GAME Spalding Springfield", "website": "https://storefinder.game.co.uk/game/stores/2469/Spalding-Springfield", "image": "https://cdn.game.net/image/upload/gmStore/StoreFront/20221031_092152", "brand": "Game", "brand:wikidata": "Q5519813", "located_in": "Sports Direct", "located_in:wikidata": "Q7579661", "nsi_id": "game-b2f4fe"}, "geometry": {"type": "Point", "coordinates": [-0.127379, 52.799339]}},
{"type": "Feature", "id": "QKuIV8dhtUFSVvOgbJYMlqu8DkA=", "properties": {"ref": "2243", "@spider": "game_gb", "shop": "video_games", "addr:street_address": "Unit 1&2, 34-36 Tulketh Street", "addr:city": "Southport", "addr:state": "Merseyside", "addr:postcode": "PR8 1AQ", "addr:country": "GB", "name": "GAME Southport", "website": "https://storefinder.game.co.uk/game/stores/2243/Southport", "image": "https://cdn.game.net/image/upload/gmStore/StoreFront/Game_Southport_2243_Willem_Vanduyvenvoor", "brand": "Game", "brand:wikidata": "Q5519813", "located_in": "Sports Direct", "located_in:wikidata": "Q7579661", "nsi_id": "game-b2f4fe"}, "geometry": {"type": "Point", "coordinates": [-3.00387, 53.64617]}},
{"type": "Feature", "id": "Z-CK6fZX1Y0eqspSAPkuA4mJnig=", "properties": {"ref": "83", "@spider": "game_gb", "shop": "video_games", "addr:street_address": "120 High Street", "addr:city": "SOUTHEND ON SEA", "addr:state": "Essex", "addr:postcode": "SS1 1JT", "addr:country": "GB", "name": "GAME Southend (High St)", "website": "https://storefinder.game.co.uk/game/stores/83/Southend--High-St", "image": "https://cdn.game.net/image/upload/gmStore/StoreFront/Southend_2571_Philip_Bruce", "brand": "Game", "brand:wikidata": "Q5519813", "nsi_id": "game-b2f4fe"}, "geometry": {"type": "Point", "coordinates": [0.712362, 51.537866]}},
{"type": "Feature", "id": "uJ_Ld-9mppgPbq57qR0D-0kLCIM=", "properties": {"ref": "352", "@spider": "game_gb", "shop": "video_games", "addr:street_address": "59 Above Bar street", "addr:city": "Southampton", "addr:state": "Hampshire", "addr:postcode": "SO14 7DZ", "addr:country": "GB", "name": "GAME Southampton Above Bar St", "website": "https://storefinder.game.co.uk/game/stores/352/Southampton-Above-Bar-St", "image": "https://cdn.game.net/image/upload/gmStore/StoreFront/Southampton_352_James_Hazell", "brand": "Game", "brand:wikidata": "Q5519813", "nsi_id": "game-b2f4fe"}, "geometry": {"type": "Point", "coordinates": [-1.405497, 50.904096]}},
{"type": "Feature", "id": "4jM1Hiniiq7vwunkBkt3PU97eJY=", "properties": {"ref": "2406", "@spider": "game_gb", "shop": "video_games", "addr:street_address": "383-389 Bath Road", "addr:city": "Slough", "addr:state": "Berkshire", "addr:postcode": "SL1 5QA", "addr:country": "GB", "name": "GAME Slough", "website": "https://storefinder.game.co.uk/game/stores/2406/Slough", "image": "https://cdn.game.net/image/upload/gmStore/StoreFront/slough1", "brand": "Game", "brand:wikidata": "Q5519813", "located_in": "Sports Direct", "located_in:wikidata": "Q7579661", "nsi_id": "game-b2f4fe"}, "geometry": {"type": "Point", "coordinates": [-0.643416, 51.5199493]}},
{"type": "Feature", "id": "vQuXYDMo3kX-B_41SBfcdFZVD_c=", "properties": {"ref": "374", "@spider": "game_gb", "shop": "video_games", "addr:street_address": "18/19, Shoplatch", "addr:city": "Shrewsbury", "addr:state": "Shropshire", "addr:postcode": "SY1 1HS", "addr:country": "GB", "name": "GAME Shrewsbury", "website": "https://storefinder.game.co.uk/game/stores/374/Shrewsbury", "image": "https://cdn.game.net/image/upload/gmStore/StoreFront/20220210_120818_2_Manager_Shrewsbury_G", "brand": "Game", "brand:wikidata": "Q5519813", "nsi_id": "game-b2f4fe"}, "geometry": {"type": "Point", "coordinates": [-2.75577, 52.70758]}},
{"type": "Feature", "id": "poemEUCAvHRx_iO8LMDOXBEzB6Y=", "properties": {"ref": "2249", "@spider": "game_gb", "shop": "video_games", "addr:street_address": "498-510 Stratford Road", "addr:city": "Shirley", "addr:state": "Solihull", "addr:postcode": "B90 4AY", "addr:country": "GB", "name": "GAME Solihull", "website": "https://storefinder.game.co.uk/game/stores/2249/Solihull", "image": "https://cdn.game.net/image/upload/gmStore/StoreFront/Solihull_2249_store_front_Richard_Mcghee", "brand": "Game", "brand:wikidata": "Q5519813", "located_in": "Sports Direct", "located_in:wikidata": "Q7579661", "nsi_id": "game-b2f4fe"}, "geometry": {"type": "Point", "coordinates": [-1.77965, 52.41326]}},
{"type": "Feature", "id": "cdx2qvGLDzvFa872p-p6gu6IycM=", "properties": {"ref": "2212", "@spider": "game_gb", "shop": "video_games", "addr:street_address": "Unit D, Brook Park, Meadow Lane", "addr:city": "Shirebrook", "addr:state": "Mansfield", "addr:postcode": "NG20 8RY", "addr:country": "GB", "name": "GAME Shirebrook", "website": "https://storefinder.game.co.uk/game/stores/2212/Shirebrook", "image": "https://cdn.game.net/image/upload/gmStore/StoreFront/shirebrook_2212_2_Jonathan_Padley", "brand": "Game", "brand:wikidata": "Q5519813", "located_in": "Sports Direct", "located_in:wikidata": "Q7579661", "nsi_id": "game-b2f4fe"}, "geometry": {"type": "Point", "coordinates": [-1.22922, 53.1934]}},
{"type": "Feature", "id": "8Tu20gL8fRltj5XDaZxM2J6nGv8=", "properties": {"ref": "2402", "@spider": "game_gb", "shop": "video_games", "addr:street_address": "1-3 The Moor", "addr:city": "Sheffield", "addr:state": "Yorkshire", "addr:postcode": "S1 4PH", "addr:country": "GB", "name": "GAME Sheffield Moor", "website": "https://storefinder.game.co.uk/game/stores/2402/Sheffield-Moor", "brand": "Game", "brand:wikidata": "Q5519813", "located_in": "Sports Direct", "located_in:wikidata": "Q7579661", "nsi_id": "game-b2f4fe"}, "geometry": {"type": "Point", "coordinates": [-1.47466, 53.37465]}},
{"type": "Feature", "id": "G74K1pYNpqrgYIBCGL-KjYne77Q=", "properties": {"ref": "3338", "@spider": "game_gb", "shop": "video_games", "addr:street_address": "Unit 15 The Gallery, Meadowhall Shopping Centre", "addr:city": "SHEFFIELD", "addr:state": "South Yorkshire", "addr:postcode": "S9 1ER", "addr:country": "GB", "name": "GAME MEADOWHALL", "website": "https://storefinder.game.co.uk/game/stores/3338/MEADOWHALL", "image": "https://cdn.game.net/image/upload/gmStore/StoreFront/Meadowhall_Terry_Railton", "brand": "Game", "brand:wikidata": "Q5519813", "nsi_id": "game-b2f4fe"}, "geometry": {"type": "Point", "coordinates": [-1.413229, 53.412556]}},
{"type": "Feature", "id": "gEJFDLzs94-gW0HWkLXU_sQ40N8=", "properties": {"ref": "2299", "@spider": "game_gb", "shop": "video_games", "addr:street_address": "Unit 18, Battery Retail Park", "addr:city": "Selly Oak", "addr:state": "Birmingham", "addr:postcode": "B29 6SJ", "addr:country": "GB", "name": "GAME Selly Oak", "website": "https://storefinder.game.co.uk/game/stores/2299/Selly-Oak", "image": "https://cdn.game.net/image/upload/gmStore/StoreFront/Selly_Oak_2299_store_front_Richard_Mcghee", "brand": "Game", "brand:wikidata": "Q5519813", "located_in": "Sports Direct", "located_in:wikidata": "Q7579661", "nsi_id": "game-b2f4fe"}, "geometry": {"type": "Point", "coordinates": [-1.94037, 52.4415]}},
{"type": "Feature", "id": "097nJCSEAu2Y8gzbmZmEX8FcEFw=", "properties": {"ref": "2211", "@spider": "game_gb", "shop": "video_games", "addr:street_address": "10 Cole Street", "addr:city": "Scunthorpe", "addr:state": "North Lincolnshire", "addr:postcode": "DN15 6QZ", "addr:country": "GB", "name": "GAME Scunthorpe", "website": "https://storefinder.game.co.uk/game/stores/2211/Scunthorpe", "image": "https://cdn.game.net/image/upload/gmStore/StoreFront/Scunthorpe_2211_Front_Paul_Steele", "brand": "Game", "brand:wikidata": "Q5519813", "located_in": "Sports Direct", "located_in:wikidata": "Q7579661", "nsi_id": "game-b2f4fe"}, "geometry": {"type": "Point", "coordinates": [-0.64635, 53.59104]}},
{"type": "Feature", "id": "f82IYdW3KbVqMt01C99Hp_LQy4U=", "properties": {"ref": "623", "@spider": "game_gb", "shop": "video_games", "addr:street_address": "18 West Borough", "addr:city": "SCARBOROUGH", "addr:state": "North Yorkshire", "addr:postcode": "YO11 1UH", "addr:country": "GB", "name": "GAME Scarborough", "website": "https://storefinder.game.co.uk/game/stores/623/Scarborough", "image": "https://cdn.game.net/image/upload/gmStore/StoreFront/0623_Scarborough_Exterior", "brand": "Game", "brand:wikidata": "Q5519813", "nsi_id": "game-b2f4fe"}, "geometry": {"type": "Point", "coordinates": [-0.402565, 54.280652]}},
{"type": "Feature", "id": "8HVs4-yQ72xUyuoVi-ZfK2D97-g=", "properties": {"ref": "2277", "@spider": "game_gb", "shop": "video_games", "addr:street_address": "Unit 3, Churchill Way", "addr:city": "Salisbury", "addr:state": "Wiltshire", "addr:postcode": "SP2 7TS", "addr:country": "GB", "name": "GAME Salisbury", "website": "https://storefinder.game.co.uk/game/stores/2277/Salisbury", "image": "https://cdn.game.net/image/upload/gmStore/StoreFront/salisbury1.", "brand": "Game", "brand:wikidata": "Q5519813", "located_in": "Sports Direct", "located_in:wikidata": "Q7579661", "nsi_id": "game-b2f4fe"}, "geometry": {"type": "Point", "coordinates": [-1.80042, 51.07399]}},
{"type": "Feature", "id": "TkJ3-7HG7dukWQqZCnYOmfRRkIY=", "properties": {"ref": "2244", "@spider": "game_gb", "shop": "video_games", "addr:street_address": "1 Northwalk, Rushden Lakes Shopping Centre", "addr:city": "Rushden", "addr:state": "Northamptonshire", "addr:postcode": "NN10 6FG", "addr:country": "GB", "name": "GAME Rushden Lakes", "website": "https://storefinder.game.co.uk/game/stores/2244/Rushden-Lakes", "image": "https://cdn.game.net/image/upload/gmStore/StoreFront/Frasers_front_Manager_Rushden_Lake", "brand": "Game", "brand:wikidata": "Q5519813", "located_in": "Frasers", "located_in:wikidata": "Q5928422", "nsi_id": "game-b2f4fe"}, "geometry": {"type": "Point", "coordinates": [-0.6228, 52.30226]}},
{"type": "Feature", "id": "c94uBoMn-1a705HLF42wW0Fp_wM=", "properties": {"ref": "3067", "@spider": "game_gb", "shop": "video_games", "addr:street_address": "34 Manning Walk, RUGBY CENTRAL SHOPPING CENTRE", "addr:city": "RUGBY", "addr:state": "Warwickshire", "addr:postcode": "CV21 2JT", "addr:country": "GB", "name": "GAME RUGBY", "website": "https://storefinder.game.co.uk/game/stores/3067/RUGBY", "image": "https://cdn.game.net/image/upload/gmStore/StoreFront/3067_rugby_survey_Store_Outside_Jagdish_Kumar", "brand": "Game", "brand:wikidata": "Q5519813", "nsi_id": "game-b2f4fe"}, "geometry": {"type": "Point", "coordinates": [-1.264047, 52.373418]}},
{"type": "Feature", "id": "MIvqLtBfWI-PaOZ1RYXR6VyXEzI=", "properties": {"ref": "506", "@spider": "game_gb", "shop": "video_games", "addr:street_address": "Unit 15, The Mercury Shopping Centre", "addr:city": "ROMFORD", "addr:state": "Essex", "addr:postcode": "RM1 3EE", "addr:country": "GB", "name": "GAME Romford", "website": "https://storefinder.game.co.uk/game/stores/506/Romford", "image": "https://cdn.game.net/image/upload/gmStore/StoreFront/Romford_-_0506_Atif_Malik", "brand": "Game", "brand:wikidata": "Q5519813", "nsi_id": "game-b2f4fe"}, "geometry": {"type": "Point", "coordinates": [0.185047, 51.578554]}},
{"type": "Feature", "id": "Ta07GIYtjVRNG4Lu8OSFpd96lCM=", "properties": {"ref": "659", "@spider": "game_gb", "shop": "video_games", "addr:street_address": "38 HIGH STREET", "addr:city": "RHYL", "addr:state": "Wales", "addr:postcode": "LL18 1ET", "addr:country": "GB", "name": "GAME Rhyl", "website": "https://storefinder.game.co.uk/game/stores/659/Rhyl", "image": "https://cdn.game.net/image/upload/gmStore/StoreFront/Rhyl_659_Charles_Hallworth", "brand": "Game", "brand:wikidata": "Q5519813", "nsi_id": "game-b2f4fe"}, "geometry": {"type": "Point", "coordinates": [-3.492206, 53.320171]}},
{"type": "Feature", "id": "lh5ZWL1g69LYtRQDo0epCffPXiM=", "properties": {"ref": "383", "@spider": "game_gb", "shop": "video_games", "addr:street_address": "Unit 155 Braehead Shopping Center, Kings Inch Road", "addr:city": "Renfrew", "addr:state": "Glasgow", "addr:postcode": "G51 4BN", "addr:country": "GB", "name": "GAME Braehead", "website": "https://storefinder.game.co.uk/game/stores/383/Braehead", "brand": "Game", "brand:wikidata": "Q5519813", "nsi_id": "game-b2f4fe"}, "geometry": {"type": "Point", "coordinates": [-4.3668525, 55.8762172]}},
{"type": "Feature", "id": "i-W-9tVlF15tGg_pqu4jjx1ZaO0=", "properties": {"ref": "56", "@spider": "game_gb", "shop": "video_games", "addr:street_address": "Unit 4, The Belfry Centre", "addr:city": "REDHILL", "addr:state": "Surrey", "addr:postcode": "RH1 1SA", "addr:country": "GB", "name": "GAME Redhill", "website": "https://storefinder.game.co.uk/game/stores/56/Redhill", "image": "https://cdn.game.net/image/upload/gmStore/StoreFront/IMG_20220209_105120_Lauren_Clark", "brand": "Game", "brand:wikidata": "Q5519813", "nsi_id": "game-b2f4fe"}, "geometry": {"type": "Point", "coordinates": [-0.170615, 51.239315]}},
{"type": "Feature", "id": "B421XHVh3qN2fMHcmosG3NQIzOc=", "properties": {"ref": "302", "@spider": "game_gb", "shop": "video_games", "addr:street_address": "Unit 22-24, Evesham Walk, Kingfisher Centre", "addr:city": "REDDITCH", "addr:state": "Worcestershire", "addr:postcode": "B97 4EX", "addr:country": "GB", "name": "GAME Redditch", "website": "https://storefinder.game.co.uk/game/stores/302/Redditch", "image": "https://cdn.game.net/image/upload/gmStore/StoreFront/redditch_0302_store_front_Richard_Mcghee", "brand": "Game", "brand:wikidata": "Q5519813", "nsi_id": "game-b2f4fe"}, "geometry": {"type": "Point", "coordinates": [-1.944235, 52.305571]}},
{"type": "Feature", "id": "lJx_9_jiTsbXfkZRl40vwzQQP_Q=", "properties": {"ref": "332", "@spider": "game_gb", "shop": "video_games", "addr:street_address": "Unit 18, Oracle Shopping Centre", "addr:city": "Reading", "addr:state": "Berkshire", "addr:postcode": "RG1 2AQ", "addr:country": "GB", "name": "GAME Reading Oracle", "website": "https://storefinder.game.co.uk/game/stores/332/Reading-Oracle", "image": "https://cdn.game.net/image/upload/gmStore/StoreFront/0332_reading_Mark_Fellows", "brand": "Game", "brand:wikidata": "Q5519813", "nsi_id": "game-b2f4fe"}, "geometry": {"type": "Point", "coordinates": [-0.972387, 51.453224]}},
{"type": "Feature", "id": "B7MJQ78qfMzRtzNhLbOikrZ494U=", "properties": {"ref": "2290", "@spider": "game_gb", "shop": "video_games", "addr:street_address": "Unit A Deepdale Shopping Park", "addr:city": "Preston", "addr:state": "Lancashire", "addr:postcode": "PR1 6QY", "addr:country": "GB", "name": "GAME Preston Deepdale", "website": "https://storefinder.game.co.uk/game/stores/2290/Preston-Deepdale", "brand": "Game", "brand:wikidata": "Q5519813", "located_in": "Sports Direct", "located_in:wikidata": "Q7579661", "nsi_id": "game-b2f4fe"}, "geometry": {"type": "Point", "coordinates": [-2.67839, 53.77341]}},
{"type": "Feature", "id": "TsTM8L-N2BItcz6kjCM_XOSDIJM=", "properties": {"ref": "370", "@spider": "game_gb", "shop": "video_games", "addr:street_address": "Unit 12, St Georges Centre", "addr:city": "PRESTON", "addr:state": "Lancashire", "addr:postcode": "PR1 2TU", "addr:country": "GB", "name": "GAME Preston", "website": "https://storefinder.game.co.uk/game/stores/370/Preston", "image": "https://cdn.game.net/image/upload/gmStore/StoreFront/Game_Preston_370_Willem_Vanduyvenvoor", "brand": "Game", "brand:wikidata": "Q5519813", "nsi_id": "game-b2f4fe"}, "geometry": {"type": "Point", "coordinates": [-2.702235, 53.757997]}},
{"type": "Feature", "id": "_4NvMz5K-56YFWh1SLd6duJVAM0=", "properties": {"ref": "2239", "@spider": "game_gb", "shop": "video_games", "addr:street_address": "1st Floor, Unit 107, Cascades Shopping Centre", "addr:city": "Portsmouth", "addr:state": "Hampshire", "addr:postcode": "PO1 4RL", "addr:country": "GB", "name": "GAME Portsmouth", "website": "https://storefinder.game.co.uk/game/stores/2239/Portsmouth", "image": "https://cdn.game.net/image/upload/gmStore/StoreFront/Portsmouth_2553_outside_James_Hazell", "brand": "Game", "brand:wikidata": "Q5519813", "located_in": "Sports Direct", "located_in:wikidata": "Q7579661", "nsi_id": "game-b2f4fe"}, "geometry": {"type": "Point", "coordinates": [-1.07708, 50.80677]}},
{"type": "Feature", "id": "--3xCG3b0QdyWGZNAQoeT-0n3Ec=", "properties": {"ref": "2463", "@spider": "game_gb", "shop": "video_games", "addr:street_address": "Unit 3A, Brown Lennox Retail Park", "addr:city": "Pontypridd", "addr:state": "Glamorgan", "addr:postcode": "CF37 4DA", "addr:country": "GB", "name": "GAME Pontypridd", "website": "https://storefinder.game.co.uk/game/stores/2463/Pontypridd", "image": "https://cdn.game.net/image/upload/gmStore/StoreFront/ponty_out", "brand": "Game", "brand:wikidata": "Q5519813", "located_in": "Sports Direct", "located_in:wikidata": "Q7579661", "nsi_id": "game-b2f4fe"}, "geometry": {"type": "Point", "coordinates": [-3.33245, 51.60275]}},
{"type": "Feature", "id": "VefI1T-N3konOYfRlVWAPxBi_us=", "properties": {"ref": "2313", "@spider": "game_gb", "shop": "video_games", "addr:street_address": "40-46 Royal Parade", "addr:city": "Plymouth", "addr:state": "Devon", "addr:postcode": "PL1 1DY", "addr:country": "GB", "name": "GAME Plymouth HOF", "website": "https://storefinder.game.co.uk/game/stores/2313/Plymouth-HOF", "image": "https://cdn.game.net/image/upload/gmStore/StoreFront/20221107_092157", "brand": "Game", "brand:wikidata": "Q5519813", "located_in": "HoF", "nsi_id": "game-b2f4fe"}, "geometry": {"type": "Point", "coordinates": [-4.141894, 50.370897]}},
{"type": "Feature", "id": "GU_4K8W7fCUz2hbRJhLyPADzjzU=", "properties": {"ref": "2416", "@spider": "game_gb", "shop": "video_games", "addr:street_address": "82-84 New George Street", "addr:city": "Plymouth", "addr:state": "Devon", "addr:postcode": "PL1 1RX", "addr:country": "GB", "name": "GAME Plymouth", "website": "https://storefinder.game.co.uk/game/stores/2416/Plymouth", "image": "https://cdn.game.net/image/upload/gmStore/StoreFront/EBF55D29-DD1A-4D78-86E3-A0075F7E047A_Keef_Cowee", "brand": "Game", "brand:wikidata": "Q5519813", "located_in": "Sports Direct", "located_in:wikidata": "Q7579661", "nsi_id": "game-b2f4fe"}, "geometry": {"type": "Point", "coordinates": [-4.1478373, 50.3715073]}},
{"type": "Feature", "id": "LCY-QwlGDi-entW4QM7-R28mT2Q=", "properties": {"ref": "2486", "@spider": "game_gb", "shop": "video_games", "addr:street_address": "Bretton", "addr:city": "Peterborough", "addr:state": "Cambridge", "addr:postcode": "PE3 8DZ", "addr:country": "GB", "name": "GAME Peterborough Bretton", "website": "https://storefinder.game.co.uk/game/stores/2486/Peterborough-Bretton", "image": "https://cdn.game.net/image/upload/gmStore/StoreFront/bretton_front", "brand": "Game", "brand:wikidata": "Q5519813", "located_in": "Sports Direct 19 Bretton Centre", "nsi_id": "game-b2f4fe"}, "geometry": {"type": "Point", "coordinates": [-0.281171, 52.5849]}},
{"type": "Feature", "id": "gITCQagd0gsQ9RRRW6O1-2Oz-rs=", "properties": {"ref": "129", "@spider": "game_gb", "shop": "video_games", "addr:street_address": "Unit 19, St John's Centre, St John's Square", "addr:city": "PERTH", "addr:state": "Tayside", "addr:postcode": "PH1 5UX", "addr:country": "GB", "name": "GAME Perth", "website": "https://storefinder.game.co.uk/game/stores/129/Perth", "image": "https://cdn.game.net/image/upload/gmStore/StoreFront/Perth_129_Fraser_Horn", "brand": "Game", "brand:wikidata": "Q5519813", "nsi_id": "game-b2f4fe"}, "geometry": {"type": "Point", "coordinates": [-3.432067, 56.395534]}},
{"type": "Feature", "id": "FxO1zya_3GVpAdNS6ILtmfjbEKE=", "properties": {"ref": "2487", "@spider": "game_gb", "shop": "video_games", "addr:street_address": "Unit 2 Seacourt Tower Retail Park, West Way", "addr:city": "Oxford", "addr:state": "Oxfordshire", "addr:postcode": "OX2 0JJ", "addr:country": "GB", "name": "GAME Oxford Seacourt", "website": "https://storefinder.game.co.uk/game/stores/2487/Oxford-Seacourt", "image": "https://cdn.game.net/image/upload/gmStore/StoreFront/thumbnail_IMG_20221031_094002", "brand": "Game", "brand:wikidata": "Q5519813", "located_in": "Sports Direct", "located_in:wikidata": "Q7579661", "nsi_id": "game-b2f4fe"}, "geometry": {"type": "Point", "coordinates": [-1.295271, 51.753587]}},
{"type": "Feature", "id": "WSaoNzmy5sUrOXjhfKI2m7nU50c=", "properties": {"ref": "380", "@spider": "game_gb", "shop": "video_games", "addr:street_address": "Unit 11 Ropewalk, Chapel Street", "addr:city": "Nuneaton", "addr:state": "Warwickshire", "addr:postcode": "CV11 5TZ", "addr:country": "GB", "name": "GAME Nuneaton", "website": "https://storefinder.game.co.uk/game/stores/380/Nuneaton", "image": "https://cdn.game.net/image/upload/gmStore/StoreFront/380.", "brand": "Game", "brand:wikidata": "Q5519813", "nsi_id": "game-b2f4fe"}, "geometry": {"type": "Point", "coordinates": [-1.4717147, 52.5217555]}},
{"type": "Feature", "id": "Q7_j0Afu5deXqAKtywaKWm27D8U=", "properties": {"ref": "2447", "@spider": "game_gb", "shop": "video_games", "addr:street_address": "Unit 3 Chilwell Retail Park, Beeston Lane", "addr:city": "Nottingham", "addr:state": "Nottinghamshire", "addr:postcode": "NG9 6DS", "addr:country": "GB", "name": "GAME Chilwell", "website": "https://storefinder.game.co.uk/game/stores/2447/Chilwell", "image": "https://cdn.game.net/image/upload/gmStore/StoreFront/chilwell.", "brand": "Game", "brand:wikidata": "Q5519813", "located_in": "Sports Direct", "located_in:wikidata": "Q7579661", "nsi_id": "game-b2f4fe"}, "geometry": {"type": "Point", "coordinates": [-1.24472, 52.90278]}},
{"type": "Feature", "id": "H1kzFk9p266KWeFcyd0Jf3hUlQ4=", "properties": {"ref": "2319", "@spider": "game_gb", "shop": "video_games", "addr:street_address": "2 Union Road", "addr:city": "Nottingham", "addr:state": "Nottinghamshire", "addr:postcode": "NG1 3HF", "addr:country": "GB", "name": "GAME Nottingham HoF", "website": "https://storefinder.game.co.uk/game/stores/2319/Nottingham-HoF", "image": "https://cdn.game.net/image/upload/gmStore/StoreFront/not", "brand": "Game", "brand:wikidata": "Q5519813", "located_in": "House of Fraser", "located_in:wikidata": "Q5928422", "nsi_id": "game-b2f4fe"}, "geometry": {"type": "Point", "coordinates": [-1.1504078, 52.9583104]}},
{"type": "Feature", "id": "aMw3Q11FwriKkrsiheeI5ClwbgY=", "properties": {"ref": "569", "@spider": "game_gb", "shop": "video_games", "addr:street_address": "Unit 308A, Victoria Centre", "addr:city": "NOTTINGHAM", "addr:state": "Nottinghamshire", "addr:postcode": "NG1 3QN", "addr:country": "GB", "name": "GAME Nottingham (Victoria)", "website": "https://storefinder.game.co.uk/game/stores/569/Nottingham--Victoria", "image": "https://cdn.game.net/image/upload/gmStore/StoreFront/569SF", "brand": "Game", "brand:wikidata": "Q5519813", "nsi_id": "game-b2f4fe"}, "geometry": {"type": "Point", "coordinates": [-1.148467, 52.957899]}},
{"type": "Feature", "id": "iThNzpujupoBTGr1_P6Zirnv4ik=", "properties": {"ref": "2309", "@spider": "game_gb", "shop": "video_games", "addr:street_address": "130 Merchants Hall, Chapelfields Shopping Centre", "addr:city": "Norwich", "addr:state": "Norfolk", "addr:postcode": "NR2 1SH", "addr:country": "GB", "name": "GAME Norwich", "website": "https://storefinder.game.co.uk/game/stores/2309/Norwich", "image": "https://cdn.game.net/image/upload/gmStore/StoreInside/2309front2", "brand": "Game", "brand:wikidata": "Q5519813", "located_in": "House of Fraser", "located_in:wikidata": "Q5928422", "nsi_id": "game-b2f4fe"}, "geometry": {"type": "Point", "coordinates": [1.29033, 52.62639]}},
{"type": "Feature", "id": "2XpCDm38IfKkxEusBhbT9ELE1pg=", "properties": {"ref": "2220", "@spider": "game_gb", "shop": "video_games", "addr:street_address": "Sports Direct, Unit 28, Barons Quay", "addr:city": "NORTHWICH", "addr:state": "Cheshire", "addr:postcode": "CW9 5LG", "addr:country": "GB", "name": "GAME NORTHWICH", "website": "https://storefinder.game.co.uk/game/stores/2220/NORTHWICH", "image": "https://cdn.game.net/image/upload/gmStore/StoreFront/Northwich_2220_outside_Charles_Hallworth", "brand": "Game", "brand:wikidata": "Q5519813", "nsi_id": "game-b2f4fe"}, "geometry": {"type": "Point", "coordinates": [-2.512681, 53.261883]}},
{"type": "Feature", "id": "pquf9MpKO9FYtGOXb1By7zI3YTw=", "properties": {"ref": "2269", "@spider": "game_gb", "shop": "video_games", "addr:street_address": "68/72 Abington Street", "addr:city": "Northampton", "addr:state": "Northamptonshire", "addr:postcode": "NN1 2AP", "addr:country": "GB", "name": "GAME Northampton", "website": "https://storefinder.game.co.uk/game/stores/2269/Northampton", "image": "https://cdn.game.net/image/upload/gmStore/StoreFront/Northampton_2269_Front_of_Store_Manager_Trowbridge_S", "brand": "Game", "brand:wikidata": "Q5519813", "located_in": "Sports Direct", "located_in:wikidata": "Q7579661", "nsi_id": "game-b2f4fe"}, "geometry": {"type": "Point", "coordinates": [-0.8919, 52.23878]}},
{"type": "Feature", "id": "G2rEdGNGeeQSIVkquG_PLuiScAU=", "properties": {"ref": "162", "@spider": "game_gb", "shop": "video_games", "addr:street_address": "33 Abbey Centre", "addr:city": "NEWTOWNABBEY", "addr:state": "County Antrim", "addr:postcode": "BT37 9UH", "addr:country": "GB", "name": "GAME Belfast (Abbey)", "website": "https://storefinder.game.co.uk/game/stores/162/Belfast--Abbey", "image": "https://cdn.game.net/image/upload/gmStore/StoreFront/PXL_20220210_130309977_Jacob_Mcalister", "brand": "Game", "brand:wikidata": "Q5519813", "nsi_id": "game-b2f4fe"}, "geometry": {"type": "Point", "coordinates": [-5.918322, 54.654714]}},
{"type": "Feature", "id": "70ghddyIN3hmsCBd1wkrVb7D8uA=", "properties": {"ref": "3227", "@spider": "game_gb", "shop": "video_games", "addr:street_address": "9 Market Walk", "addr:city": "NEWTON ABBOT", "addr:state": "Devon", "addr:postcode": "TQ12 2RX", "addr:country": "GB", "name": "GAME NEWTON ABBOT", "website": "https://storefinder.game.co.uk/game/stores/3227/NEWTON-ABBOT", "image": "https://cdn.game.net/image/upload/gmStore/StoreFront/Newton_Abbot_3227_Mark_Hurdencass", "brand": "Game", "brand:wikidata": "Q5519813", "nsi_id": "game-b2f4fe"}, "geometry": {"type": "Point", "coordinates": [-3.611266, 50.530251]}},
{"type": "Feature", "id": "RXir_9c7_CyglrrCoJ_h3XOPEOo=", "properties": {"ref": "2213", "@spider": "game_gb", "shop": "video_games", "addr:street_address": "Unit 1, 1st Floor, Buttercrane Shopping Cntr, Buttercrane Quay", "addr:city": "Newry", "addr:state": "Northern Ireland", "addr:postcode": "BT35 8HJ", "addr:country": "GB", "name": "GAME Newry", "website": "https://storefinder.game.co.uk/game/stores/2213/Newry", "image": "https://cdn.game.net/image/upload/gmStore/StoreFront/Newry_SPD_2213_Front_Paul_Mullholland", "brand": "Game", "brand:wikidata": "Q5519813", "located_in": "Sports Direct", "located_in:wikidata": "Q7579661", "nsi_id": "game-b2f4fe"}, "geometry": {"type": "Point", "coordinates": [-5.88834, 54.21482]}},
{"type": "Feature", "id": "Jg54OfCIMTjyjdNhNqQqWl-it4I=", "properties": {"ref": "3317", "@spider": "game_gb", "shop": "video_games", "addr:street_address": "29 St James Street", "addr:city": "NEWPORT", "addr:state": "Isle of Wight", "addr:postcode": "PO30 1HY", "addr:country": "GB", "name": "GAME ISLE OF WIGHT", "website": "https://storefinder.game.co.uk/game/stores/3317/ISLE-OF-WIGHT", "image": "https://cdn.game.net/image/upload/gmStore/StoreFront/IOW_3317_James_Hazell", "brand": "Game", "brand:wikidata": "Q5519813", "nsi_id": "game-b2f4fe"}, "geometry": {"type": "Point", "coordinates": [-1.296239, 50.698451]}},
{"type": "Feature", "id": "lJ1v9BAT87k72i16dcGfrLkq5wM=", "properties": {"ref": "3018", "@spider": "game_gb", "shop": "video_games", "addr:street_address": "46 Commercial Street", "addr:city": "NEWPORT", "addr:state": "Gwent", "addr:postcode": "NP20 1LP", "addr:country": "GB", "name": "GAME NEWPORT", "website": "https://storefinder.game.co.uk/game/stores/3018/NEWPORT", "image": "https://cdn.game.net/image/upload/gmStore/StoreFront/3018SF", "brand": "Game", "brand:wikidata": "Q5519813", "nsi_id": "game-b2f4fe"}, "geometry": {"type": "Point", "coordinates": [-2.994431, 51.584792]}},
{"type": "Feature", "id": "E-OpwIRAk9-nMMDA5ZbX3TM8s1I=", "properties": {"ref": "748", "@spider": "game_gb", "shop": "video_games", "addr:street_address": "32 High Friars Intu, Eldon Square", "addr:city": "Newcastle upon Tyne", "addr:state": "Tyne and Wear", "addr:postcode": "NE1 7XG", "addr:country": "GB", "name": "GAME Newcastle", "website": "https://storefinder.game.co.uk/game/stores/748/Newcastle", "image": "https://cdn.game.net/image/upload/gmStore/StoreFront/Newcastle_748_Deepak_Kohli", "brand": "Game", "brand:wikidata": "Q5519813", "nsi_id": "game-b2f4fe"}, "geometry": {"type": "Point", "coordinates": [-1.6156, 54.9741]}},
{"type": "Feature", "id": "wLcupLLAaXjJ_NkcKKqiPT04-HU=", "properties": {"ref": "2230", "@spider": "game_gb", "shop": "video_games", "addr:street_address": "16 Castle Walk", "addr:city": "Newcastle Under Lyme", "addr:state": "Staffordshire", "addr:postcode": "ST5 1AN", "addr:country": "GB", "name": "GAME Newcastle Under Lyme", "website": "https://storefinder.game.co.uk/game/stores/2230/Newcastle-Under-Lyme", "image": "https://cdn.game.net/image/upload/gmStore/StoreFront/2230_newcastle_under_lyme_external_Derrick_Wright", "brand": "Game", "brand:wikidata": "Q5519813", "located_in": "Sports Direct", "located_in:wikidata": "Q7579661", "nsi_id": "game-b2f4fe"}, "geometry": {"type": "Point", "coordinates": [-2.22535, 53.01132]}},
{"type": "Feature", "id": "-rjjdcmVH9f5DVeTwm-iQa4RL_4=", "properties": {"ref": "3356", "@spider": "game_gb", "shop": "video_games", "addr:street_address": "9 ST MARKS PLACE, NEWARK", "addr:city": "NEWARK", "addr:state": "NOTTINGHAMSHIRE", "addr:postcode": "NG24 1XT", "addr:country": "GB", "name": "GAME Newark", "website": "https://storefinder.game.co.uk/game/stores/3356/Newark", "image": "https://cdn.game.net/image/upload/gmStore/StoreFront/3356_Newark_Exterior", "brand": "Game", "brand:wikidata": "Q5519813", "nsi_id": "game-b2f4fe"}, "geometry": {"type": "Point", "coordinates": [-0.8118, 53.074575]}},
{"type": "Feature", "id": "e8fbY0_II6VSSKYMK8kWJOSO2GM=", "properties": {"ref": "2242", "@spider": "game_gb", "shop": "video_games", "addr:street_address": "38 Queens Street", "addr:city": "Neath", "addr:state": "Port Talbot", "addr:postcode": "SA11 1DL", "addr:country": "GB", "name": "GAME Neath", "website": "https://storefinder.game.co.uk/game/stores/2242/Neath", "image": "https://cdn.game.net/image/upload/gmStore/StoreFront/Sports_direct_neath.", "brand": "Game", "brand:wikidata": "Q5519813", "located_in": "Sports Direct", "located_in:wikidata": "Q7579661", "nsi_id": "game-b2f4fe"}, "geometry": {"type": "Point", "coordinates": [-3.80403, 51.66162]}},
{"type": "Feature", "id": "EoKQuvO-bv-U64JfJCfcMJ2CCdE=", "properties": {"ref": "363", "@spider": "game_gb", "shop": "video_games", "addr:street_address": "17-19 Crowns Walk", "addr:city": "Milton Keynes", "addr:state": "Buckinghamshire", "addr:postcode": "MK9 3AH", "addr:country": "GB", "name": "GAME Milton Keynes", "website": "https://storefinder.game.co.uk/game/stores/363/Milton-Keynes", "image": "https://cdn.game.net/image/upload/gmStore/StoreFront/363_Milton_Keynes_outside_Jagdish_Kumar", "brand": "Game", "brand:wikidata": "Q5519813", "nsi_id": "game-b2f4fe"}, "geometry": {"type": "Point", "coordinates": [-0.756244, 52.042788]}},
{"type": "Feature", "id": "l5RvNjGUbRjDb-nnQu8PW2lu8q4=", "properties": {"ref": "2232", "@spider": "game_gb", "shop": "video_games", "addr:street_address": "68 Linthorpe Road", "addr:city": "Middlesbrough", "addr:state": "North Yorkshire", "addr:postcode": "TS1 2LB", "addr:country": "GB", "name": "GAME Middlesbrough", "website": "https://storefinder.game.co.uk/game/stores/2232/Middlesbrough", "image": "https://cdn.game.net/image/upload/gmStore/StoreFront/Middlesbrough_2845_3_Tom_Chandler", "brand": "Game", "brand:wikidata": "Q5519813", "located_in": "Sports Direct", "located_in:wikidata": "Q7579661", "nsi_id": "game-b2f4fe"}, "geometry": {"type": "Point", "coordinates": [-1.2426, 54.57207]}},
{"type": "Feature", "id": "KOC0aTJSHhFf9RKHVedKPBS4RBE=", "properties": {"ref": "2291", "@spider": "game_gb", "shop": "video_games", "addr:street_address": "Unit 1, Cyfarthfa Retail Park", "addr:city": "Merthyr Tydfil", "addr:state": "Wales", "addr:postcode": "CF48 1HY", "addr:country": "GB", "name": "GAME Merthyr Tydfil", "website": "https://storefinder.game.co.uk/game/stores/2291/Merthyr-Tydfil", "image": "https://cdn.game.net/image/upload/gmStore/StoreFront/Merthyr_tydil_2291_Neil_Williams", "brand": "Game", "brand:wikidata": "Q5519813", "located_in": "Sports Direct", "located_in:wikidata": "Q7579661", "nsi_id": "game-b2f4fe"}, "geometry": {"type": "Point", "coordinates": [-3.3954106, 51.7498568]}},
{"type": "Feature", "id": "GTNW7HOBULCw08iPRLRxzYrvBVg=", "properties": {"ref": "2464", "@spider": "game_gb", "shop": "video_games", "addr:street_address": "Unit Msu2 Level 18, Arndale Centre", "addr:city": "Manchester", "addr:state": "Greater Manchester", "addr:postcode": "M4 2HU", "addr:country": "GB", "name": "GAME Arndale SPD", "website": "https://storefinder.game.co.uk/game/stores/2464/Arndale-SPD", "brand": "Game", "brand:wikidata": "Q5519813", "located_in": "SPD", "nsi_id": "game-b2f4fe"}, "geometry": {"type": "Point", "coordinates": [-2.2428, 53.48294]}},
{"type": "Feature", "id": "ieRqNf_vH6uBO_bmUKUzAFE7x_g=", "properties": {"ref": "2437", "@spider": "game_gb", "shop": "video_games", "addr:street_address": "Cheetham Hill Retail Park, Cheetham Hill Road", "addr:city": "Manchester", "addr:state": "Greater Manchester", "addr:postcode": "M8 8BB", "addr:country": "GB", "name": "GAME Manchester Cheetham Hill", "website": "https://storefinder.game.co.uk/game/stores/2437/Manchester-Cheetham-Hill", "brand": "Game", "brand:wikidata": "Q5519813", "located_in": "Sports Direct", "located_in:wikidata": "Q7579661", "nsi_id": "game-b2f4fe"}, "geometry": {"type": "Point", "coordinates": [-2.2428, 53.48294]}},
{"type": "Feature", "id": "YhIG7l1J6U-tDDlBjapVQDYo6qo=", "properties": {"ref": "2314", "@spider": "game_gb", "shop": "video_games", "addr:street_address": "98-116 Deansgate", "addr:city": "Manchester", "addr:state": "Manchester", "addr:postcode": "M3 2QG", "addr:country": "GB", "name": "GAME Manchester HOF", "website": "https://storefinder.game.co.uk/game/stores/2314/Manchester-HOF", "image": "https://cdn.game.net/image/upload/gmStore/StoreFront/Manchester_HOF_2314_Christopher_Barber", "brand": "Game", "brand:wikidata": "Q5519813", "located_in": "House of Fraser", "located_in:wikidata": "Q5928422", "nsi_id": "game-b2f4fe"}, "geometry": {"type": "Point", "coordinates": [-2.24948, 53.482]}},
{"type": "Feature", "id": "BnmeSj_2KsG_DWfXeUowKOJQYD8=", "properties": {"ref": "351", "@spider": "game_gb", "shop": "video_games", "addr:street_address": "Unit L29, 46 peel avenue Trafford centre", "addr:city": "Manchester", "addr:state": "Greater Manchester", "addr:postcode": "M17 8DF", "addr:country": "GB", "name": "GAME Manchester Trafford", "website": "https://storefinder.game.co.uk/game/stores/351/Manchester-Trafford", "image": "https://cdn.game.net/image/upload/gmStore/StoreFront/Trafford_351_Daniel_Reilly", "brand": "Game", "brand:wikidata": "Q5519813", "nsi_id": "game-b2f4fe"}, "geometry": {"type": "Point", "coordinates": [-2.349435, 53.465621]}},
{"type": "Feature", "id": "wr7uzf7ZplQgqpWwug5Imu4-CUw=", "properties": {"ref": "251", "@spider": "game_gb", "shop": "video_games", "addr:street_address": "Unit 11b Crowne Point Shopping Park, Denton", "addr:city": "MANCHESTER", "addr:state": "Lancashire", "addr:postcode": "M34 3JP", "addr:country": "GB", "name": "GAME Manchester Denton", "website": "https://storefinder.game.co.uk/game/stores/251/Manchester-Denton", "image": "https://cdn.game.net/image/upload/gmStore/StoreFront/Denton_Daniel_Reilly", "brand": "Game", "brand:wikidata": "Q5519813", "nsi_id": "game-b2f4fe"}, "geometry": {"type": "Point", "coordinates": [-2.118948, 53.458882]}},
{"type": "Feature", "id": "0izzfh19eMBnzed2NzYNtcUq34A=", "properties": {"ref": "2325", "@spider": "game_gb", "shop": "video_games", "addr:street_address": "44 Fremlin Walk Shopping Centre, Earl Street", "addr:city": "Maidstone", "addr:state": "Kent", "addr:postcode": "ME14 1QP", "addr:country": "GB", "name": "GAME Maidstone", "website": "https://storefinder.game.co.uk/game/stores/2325/Maidstone", "brand": "Game", "brand:wikidata": "Q5519813", "located_in": "House of Fraser", "located_in:wikidata": "Q5928422", "nsi_id": "game-b2f4fe"}, "geometry": {"type": "Point", "coordinates": [-3.10873, 55.9322]}},
{"type": "Feature", "id": "_4nMktoUACb8ln4S4eUZZx5BTv0=", "properties": {"ref": "2460", "@spider": "game_gb", "shop": "video_games", "addr:street_address": "114/116 London Road North", "addr:city": "Lowestoft", "addr:state": "Suffolk", "addr:postcode": "NR32 1LZ", "addr:country": "GB", "name": "GAME Lowestoft", "website": "https://storefinder.game.co.uk/game/stores/2460/Lowestoft", "image": "https://cdn.game.net/image/upload/gmStore/StoreFront/lowestoft_out.", "brand": "Game", "brand:wikidata": "Q5519813", "located_in": "Sports Direct", "located_in:wikidata": "Q7579661", "nsi_id": "game-b2f4fe"}, "geometry": {"type": "Point", "coordinates": [1.753277, 52.477255]}},
{"type": "Feature", "id": "FRiLjk2TgYKxhYEQe3KZ4blm_9U=", "properties": {"ref": "557", "@spider": "game_gb", "shop": "video_games", "addr:street_address": "31/32 Carillon Court", "addr:city": "LOUGHBOROUGH", "addr:state": "Leicestershire", "addr:postcode": "LE11 3XA", "addr:country": "GB", "name": "GAME Loughborough", "website": "https://storefinder.game.co.uk/game/stores/557/Loughborough", "image": "https://cdn.game.net/image/upload/gmStore/StoreFront/557SF", "brand": "Game", "brand:wikidata": "Q5519813", "nsi_id": "game-b2f4fe"}, "geometry": {"type": "Point", "coordinates": [-1.208439, 52.771326]}},
{"type": "Feature", "id": "Riz-D2U_z74rM862HlZbMVrZ-70=", "properties": {"ref": "372", "@spider": "game_gb", "shop": "video_games", "addr:street_address": "143 The Street, Westfield Stratford City", "addr:city": "London", "addr:state": "London", "addr:postcode": "E20 1EN", "addr:country": "GB", "name": "GAME Stratford", "website": "https://storefinder.game.co.uk/game/stores/372/Stratford", "image": "https://cdn.game.net/image/upload/gmStore/StoreFront/Stratford_0372_Dean_Griffin", "brand": "Game", "brand:wikidata": "Q5519813", "nsi_id": "game-b2f4fe"}, "geometry": {"type": "Point", "coordinates": [-0.0069, 51.54329]}},
{"type": "Feature", "id": "2ET_MpcrN1p-EvDNbWPcxIijBL0=", "properties": {"ref": "2302", "@spider": "game_gb", "shop": "video_games", "addr:street_address": "Westfield shopping centre", "addr:city": "London", "addr:state": "London", "addr:postcode": "w12 7sl", "addr:country": "GB", "name": "GAME Westfield HOF", "website": "https://storefinder.game.co.uk/game/stores/2302/Westfield-HOF", "image": "https://cdn.game.net/image/upload/gmStore/StoreFront/White_City_2302_Store_Front_Mark_Hamilton", "brand": "Game", "brand:wikidata": "Q5519813", "located_in": "House of Fraser", "located_in:wikidata": "Q5928422", "nsi_id": "game-b2f4fe"}, "geometry": {"type": "Point", "coordinates": [-0.224679, 51.509032]}},
{"type": "Feature", "id": "VtVv-8bC3bhJ6UY6bFEtczcW4ao=", "properties": {"ref": "2262", "@spider": "game_gb", "shop": "video_games", "addr:street_address": "19B Straiton Mains", "addr:city": "Loanhead", "addr:state": "Edinburgh", "addr:postcode": "EH20 9PW", "addr:country": "GB", "name": "GAME Edinburgh Straiton", "website": "https://storefinder.game.co.uk/game/stores/2262/Edinburgh-Straiton", "image": "https://cdn.game.net/image/upload/gmStore/StoreFront/Edinburgh_Straiton_2866_front_Ewan_Shaw", "brand": "Game", "brand:wikidata": "Q5519813", "located_in": "Sports Direct", "located_in:wikidata": "Q7579661", "nsi_id": "game-b2f4fe"}, "geometry": {"type": "Point", "coordinates": [-3.1649, 55.8845]}},
{"type": "Feature", "id": "SeVcb6WjNIf42Zm07vQJjgNsdY4=", "properties": {"ref": "2297", "@spider": "game_gb", "shop": "video_games", "addr:street_address": "Unit 8D Troste Retail Park", "addr:city": "Llanelli", "addr:state": "Carmarthenshire", "addr:postcode": "SA14 9UY", "addr:country": "GB", "name": "GAME Llanelli", "website": "https://storefinder.game.co.uk/game/stores/2297/Llanelli", "image": "https://cdn.game.net/image/upload/gmStore/StoreFront/16445911267772796450430108695403_Geoffrey_Pugh", "brand": "Game", "brand:wikidata": "Q5519813", "located_in": "Sports Direct", "located_in:wikidata": "Q7579661", "nsi_id": "game-b2f4fe"}, "geometry": {"type": "Point", "coordinates": [-4.13714, 51.676998]}},
{"type": "Feature", "id": "Pi2hC7_YVYtCSGbzi8OAhBUmFT0=", "properties": {"ref": "2280", "@spider": "game_gb", "shop": "video_games", "addr:street_address": "Unit B2, Mosytn Champneys Retail Park", "addr:city": "Llandudno", "addr:state": "Clwyd", "addr:postcode": "LL30 1RY", "addr:country": "GB", "name": "GAME Llandudno", "website": "https://storefinder.game.co.uk/game/stores/2280/Llandudno", "image": "https://cdn.game.net/image/upload/gmStore/StoreFront/Llandudno_2280_outside_Charles_Hallworth", "brand": "Game", "brand:wikidata": "Q5519813", "located_in": "Sports Direct", "located_in:wikidata": "Q7579661", "nsi_id": "game-b2f4fe"}, "geometry": {"type": "Point", "coordinates": [-3.81617, 53.31892]}},
{"type": "Feature", "id": "nh4GXdyRqTlBI3NF2g0dF2ddH54=", "properties": {"ref": "601", "@spider": "game_gb", "shop": "video_games", "addr:street_address": "Unit 115, Almondvale Centre", "addr:city": "LIVINGSTON", "addr:state": "West Lothian", "addr:postcode": "EH54 6HT", "addr:country": "GB", "name": "GAME Livingston (Almondvale Centre)", "website": "https://storefinder.game.co.uk/game/stores/601/Livingston--Almondvale-Centre", "image": "https://cdn.game.net/image/upload/gmStore/StoreFront/20220208_152448_Andrew_Vass", "brand": "Game", "brand:wikidata": "Q5519813", "nsi_id": "game-b2f4fe"}, "geometry": {"type": "Point", "coordinates": [-3.515466, 55.883248]}},
{"type": "Feature", "id": "OUmGwlfvWfcGtCQs3K8lcbttH9s=", "properties": {"ref": "382", "@spider": "game_gb", "shop": "video_games", "addr:street_address": "62 Lord Street", "addr:city": "Liverpool", "addr:state": "Merseyside", "addr:postcode": "L2 1TD", "addr:country": "GB", "name": "GAME Liverpool", "website": "https://storefinder.game.co.uk/game/stores/382/Liverpool", "image": "https://cdn.game.net/image/upload/gmStore/StoreFront/liverpool1", "brand": "Game", "brand:wikidata": "Q5519813", "nsi_id": "game-b2f4fe"}, "geometry": {"type": "Point", "coordinates": [-2.9893573, 53.4052421]}},
{"type": "Feature", "id": "ZWxEJBpw0QUMV4YygaAoD4K8kcM=", "properties": {"ref": "2203", "@spider": "game_gb", "shop": "video_games", "addr:street_address": "Unit 2 & 3, Bow Street Mall", "addr:city": "Lisburn", "addr:state": "Northern Ireland", "addr:postcode": "BT28 1AW", "addr:country": "GB", "name": "GAME Lisburn", "website": "https://storefinder.game.co.uk/game/stores/2203/Lisburn", "image": "https://cdn.game.net/image/upload/gmStore/StoreFront/897E6B50-6C67-4759-A8D5-0E9EDA2D61D2_Scott_Mcmullan", "brand": "Game", "brand:wikidata": "Q5519813", "located_in": "Sports Direct", "located_in:wikidata": "Q7579661", "nsi_id": "game-b2f4fe"}, "geometry": {"type": "Point", "coordinates": [-6.05101, 54.51177]}},
{"type": "Feature", "id": "lS5h4gWc4YXhC0JZ7aREQ4kAYOQ=", "properties": {"ref": "2326", "@spider": "game_gb", "shop": "video_games", "addr:street_address": "226-231 High Street", "addr:city": "Lincoln", "addr:state": "Lincolnshire", "addr:postcode": "LN2 1AY", "addr:country": "GB", "name": "GAME Lincoln HOF", "website": "https://storefinder.game.co.uk/game/stores/2326/Lincoln-HOF", "contact:twitter": "@GameDigital", "brand": "Game", "brand:wikidata": "Q5519813", "located_in": "House of Fraser", "located_in:wikidata": "Q5928422", "nsi_id": "game-b2f4fe"}, "geometry": {"type": "Point", "coordinates": [-0.5404, 53.22973]}},
{"type": "Feature", "id": "CUBsLK7EpzSmd_HGsMeTV2xgf3c=", "properties": {"ref": "378", "@spider": "game_gb", "shop": "video_games", "addr:street_address": "Units 6 & 7, St. Benedicts Square", "addr:city": "Lincoln", "addr:state": "Lincolnshire", "addr:postcode": "LN5 7AR", "addr:country": "GB", "name": "GAME Lincoln", "website": "https://storefinder.game.co.uk/game/stores/378/Lincoln", "image": "https://cdn.game.net/image/upload/gmStore/StoreFront/lincoln_Jonathan_Padley", "brand": "Game", "brand:wikidata": "Q5519813", "nsi_id": "game-b2f4fe"}, "geometry": {"type": "Point", "coordinates": [-0.54174, 53.22834]}},
{"type": "Feature", "id": "4wSaReHu6joraYOsqS3KeeIMrhI=", "properties": {"ref": "2292", "@spider": "game_gb", "shop": "video_games", "addr:street_address": "Unit 8 Personage Retail Park", "addr:city": "Leigh", "addr:state": "Greater Manchester", "addr:postcode": "WN7 5SJ", "addr:country": "GB", "name": "GAME Leigh", "website": "https://storefinder.game.co.uk/game/stores/2292/Leigh", "image": "https://cdn.game.net/image/upload/gmStore/StoreFront/Leigh_2292_Front_of_Store_Jonathan_Lemon", "brand": "Game", "brand:wikidata": "Q5519813", "located_in": "Sports Direct", "located_in:wikidata": "Q7579661", "nsi_id": "game-b2f4fe"}, "geometry": {"type": "Point", "coordinates": [-2.7662171, 53.597449]}},
{"type": "Feature", "id": "wZsi84W1Qbl3b2wBX1zhvzCobqU=", "properties": {"ref": "2215", "@spider": "game_gb", "shop": "video_games", "addr:street_address": "Unit 12, Fosse Park West", "addr:city": "Leicester", "addr:state": "Leicestershire", "addr:postcode": "LE19 1HZ", "addr:country": "GB", "name": "GAME Leicester Fosse Park", "website": "https://storefinder.game.co.uk/game/stores/2215/Leicester-Fosse-Park", "image": "https://cdn.game.net/image/upload/gmStore/StoreFront/outside", "brand": "Game", "brand:wikidata": "Q5519813", "located_in": "Sports Direct", "located_in:wikidata": "Q7579661", "nsi_id": "game-b2f4fe"}, "geometry": {"type": "Point", "coordinates": [-1.1818678, 52.597734]}},
{"type": "Feature", "id": "xsw1JtOZj8TTdif28Uzo8U-cBQg=", "properties": {"ref": "2224", "@spider": "game_gb", "shop": "video_games", "addr:street_address": "Sports Direct, 52-56 Gallowtree Gate", "addr:city": "LEICESTER", "addr:state": "Leicestershire", "addr:postcode": "LE1 1DA", "addr:country": "GB", "name": "GAME Leicester", "website": "https://storefinder.game.co.uk/game/stores/2224/Leicester", "image": "https://cdn.game.net/image/upload/gmStore/StoreFront/2224_Leicester_outside_1_Jagdish_Kumar", "brand": "Game", "brand:wikidata": "Q5519813", "nsi_id": "game-b2f4fe"}, "geometry": {"type": "Point", "coordinates": [-1.135521, 52.635966]}},
{"type": "Feature", "id": "cVMxpJP6EPyvQXpQahnHN4F-jgc=", "properties": {"ref": "2414", "@spider": "game_gb", "shop": "video_games", "addr:street_address": "Geldered Rd, Birstall Batley", "addr:city": "Leeds", "addr:state": "West Yorkshire", "addr:postcode": "WF17 9TB", "addr:country": "GB", "name": "GAME Leeds Birstall", "website": "https://storefinder.game.co.uk/game/stores/2414/Leeds-Birstall", "image": "https://cdn.game.net/image/upload/gmStore/StoreFront/Birstall_2414_Outside_Scott_Trenam", "brand": "Game", "brand:wikidata": "Q5519813", "located_in": "Sports Direct", "located_in:wikidata": "Q7579661", "nsi_id": "game-b2f4fe"}, "geometry": {"type": "Point", "coordinates": [-1.6441728, 53.7436152]}},
{"type": "Feature", "id": "HN0CXK6AJDBHktL-ILG_fi0qnfE=", "properties": {"ref": "2410", "@spider": "game_gb", "shop": "video_games", "addr:street_address": "20 The Headrow", "addr:city": "Leeds", "addr:state": "West Yorkshire", "addr:postcode": "LS1 6PT", "addr:country": "GB", "name": "GAME Leeds Headrow", "website": "https://storefinder.game.co.uk/game/stores/2410/Leeds-Headrow", "image": "https://cdn.game.net/image/upload/gmStore/StoreFront/Headrow24101_Adam_Williams", "brand": "Game", "brand:wikidata": "Q5519813", "located_in": "Sports Direct", "located_in:wikidata": "Q7579661", "nsi_id": "game-b2f4fe"}, "geometry": {"type": "Point", "coordinates": [-1.62507, 53.84582]}},
{"type": "Feature", "id": "oC6PTa3hTi0_gEcZFV3J0aAYBwg=", "properties": {"ref": "2428", "@spider": "game_gb", "shop": "video_games", "addr:street_address": "Unit 2, Sunnycliffe Retail Park, Millishaw Lane", "addr:city": "Lancaster", "addr:state": "Lancashire", "addr:postcode": "LA3 3FE", "addr:country": "GB", "name": "GAME Lancaster SPD", "website": "https://storefinder.game.co.uk/game/stores/2428/Lancaster-SPD", "image": "https://cdn.game.net/image/upload/gmStore/StoreFront/20220427_135342", "brand": "Game", "brand:wikidata": "Q5519813", "located_in": "Sports Direct", "located_in:wikidata": "Q7579661", "nsi_id": "game-b2f4fe"}, "geometry": {"type": "Point", "coordinates": [0.8729612, 51.1492572]}},
{"type": "Feature", "id": "vqcRqApkhlLwztT3u-7xQnU7J5A=", "properties": {"ref": "3058", "@spider": "game_gb", "shop": "video_games", "addr:street_address": "3 Lancaster Street, St Nicholas Arcade", "addr:city": "LANCASTER", "addr:state": "Lancashire", "addr:postcode": "LA1 1NB", "addr:country": "GB", "name": "GAME LANCASTER", "website": "https://storefinder.game.co.uk/game/stores/3058/LANCASTER", "image": "https://cdn.game.net/image/upload/gmStore/StoreFront/Lancaster_Matthew_Hodgson", "brand": "Game", "brand:wikidata": "Q5519813", "nsi_id": "game-b2f4fe"}, "geometry": {"type": "Point", "coordinates": [-2.800295, 54.048602]}},
{"type": "Feature", "id": "sYNUuNweppRz4WN0Ia8U2eKgE08=", "properties": {"ref": "2489", "@spider": "game_gb", "shop": "video_games", "addr:street_address": "26 high Street", "addr:city": "Kirkcaldy", "addr:state": "Fife", "addr:postcode": "KY1 1LU", "addr:country": "GB", "name": "GAME Kirkcaldy", "website": "https://storefinder.game.co.uk/game/stores/2489/Kirkcaldy", "image": "https://cdn.game.net/image/upload/gmStore/StoreFront/thumbnail_image_50433281", "brand": "Game", "brand:wikidata": "Q5519813", "located_in": "Sports Direct", "located_in:wikidata": "Q7579661", "nsi_id": "game-b2f4fe"}, "geometry": {"type": "Point", "coordinates": [-3.159509, 56.107482]}},
{"type": "Feature", "id": "Tw4hWmwqvQcYYFYWxe9ndOyoPM8=", "properties": {"ref": "2235", "@spider": "game_gb", "shop": "video_games", "addr:street_address": "Ground Floor, Unit 6 Kingsway Shopping Centre", "addr:city": "Kingsway", "addr:state": "Rochdale", "addr:postcode": "OL16 5AF", "addr:country": "GB", "name": "GAME Rochdale", "website": "https://storefinder.game.co.uk/game/stores/2235/Rochdale", "image": "https://cdn.game.net/image/upload/gmStore/StoreFront/Rochdale_Lee_Casson", "brand": "Game", "brand:wikidata": "Q5519813", "located_in": "Sports Direct", "located_in:wikidata": "Q7579661", "nsi_id": "game-b2f4fe"}, "geometry": {"type": "Point", "coordinates": [-2.12957, 53.61456]}},
{"type": "Feature", "id": "xl5orc218TpnEPH-XbIEG5XxuNs=", "properties": {"ref": "379", "@spider": "game_gb", "shop": "video_games", "addr:street_address": "Unit 12 Vancouver Quarter, 37 Broad street", "addr:city": "Kings Lynn", "addr:state": "Kings Lynn", "addr:postcode": "PE30 1DP", "addr:country": "GB", "name": "GAME Kings Lynn", "website": "https://storefinder.game.co.uk/game/stores/379/Kings-Lynn-", "image": "https://cdn.game.net/image/upload/gmStore/StoreFront/379_Kings_Lynn_Storefront_Grant_Freeman", "brand": "Game", "brand:wikidata": "Q5519813", "nsi_id": "game-b2f4fe"}, "geometry": {"type": "Point", "coordinates": [0.3978316092028316, 52.75433474996392]}},
{"type": "Feature", "id": "VR5lNumtXYqQse5IinCApEh5Kt0=", "properties": {"ref": "2490", "@spider": "game_gb", "shop": "video_games", "addr:street_address": "68 Portland Street", "addr:city": "Kilmarnock", "addr:state": "Ayrshire", "addr:postcode": "KA1 1JD", "addr:country": "GB", "name": "GAME Kilmarnock", "website": "https://storefinder.game.co.uk/game/stores/2490/Kilmarnock", "image": "https://cdn.game.net/image/upload/gmStore/StoreFront/Store_Sfrom_outside_24", "brand": "Game", "brand:wikidata": "Q5519813", "located_in": "Sports Direct", "located_in:wikidata": "Q7579661", "nsi_id": "game-b2f4fe"}, "geometry": {"type": "Point", "coordinates": [-4.485003, 55.575966]}},
{"type": "Feature", "id": "vwNseLFVo0WuqcHLxJd-rz5Y4RQ=", "properties": {"ref": "2451", "@spider": "game_gb", "shop": "video_games", "addr:street_address": "Unit 16, Weaver Wharf", "addr:city": "Kidderminster", "addr:state": "Worcestershire", "addr:postcode": "DY10 1AA", "addr:country": "GB", "name": "GAME Kidderminster", "website": "https://storefinder.game.co.uk/game/stores/2451/Kidderminster", "image": "https://cdn.game.net/image/upload/gmStore/StoreFront/external", "brand": "Game", "brand:wikidata": "Q5519813", "located_in": "Sports Direct", "located_in:wikidata": "Q7579661", "nsi_id": "game-b2f4fe"}, "geometry": {"type": "Point", "coordinates": [-2.248646, 52.38657]}},
{"type": "Feature", "id": "nxn_rb99JHdLN2ryHfk1_f1vPZQ=", "properties": {"ref": "2245", "@spider": "game_gb", "shop": "video_games", "addr:street_address": "1st Floor, Unit 3, Cavendish Retail Park", "addr:city": "Keighley", "addr:state": "Bradford", "addr:postcode": "BD21 3RB", "addr:country": "GB", "name": "GAME Keighley", "website": "https://storefinder.game.co.uk/game/stores/2245/Keighley", "image": "https://cdn.game.net/image/upload/gmStore/StoreFront/Keighley_2245_outside_Scott_Trenam", "brand": "Game", "brand:wikidata": "Q5519813", "located_in": "Sports Direct", "located_in:wikidata": "Q7579661", "nsi_id": "game-b2f4fe"}, "geometry": {"type": "Point", "coordinates": [-1.90409, 53.86756]}},
{"type": "Feature", "id": "ye2Ryf98Zax_9cUUJzTVNY8Uyew=", "properties": {"ref": "626", "@spider": "game_gb", "shop": "video_games", "addr:street_address": "Unit 26A, Rivergate", "addr:city": "IRVINE", "addr:state": "North Ayrshire", "addr:postcode": "KA12 8EH", "addr:country": "GB", "name": "GAME Irvine", "website": "https://storefinder.game.co.uk/game/stores/626/Irvine", "image": "https://cdn.game.net/image/upload/gmStore/StoreFront/Irvine_626_Jonathan_Black", "brand": "Game", "brand:wikidata": "Q5519813", "nsi_id": "game-b2f4fe"}, "geometry": {"type": "Point", "coordinates": [-4.672146, 55.612778]}},
{"type": "Feature", "id": "9ZoyIfPA3jrjiOyzILjsOvo7Ltg=", "properties": {"ref": "2445", "@spider": "game_gb", "shop": "video_games", "addr:street_address": "27 Carr Street", "addr:city": "Ipswich", "addr:state": "Essex", "addr:postcode": "IP4 1HA", "addr:country": "GB", "name": "GAME Ipswich", "website": "https://storefinder.game.co.uk/game/stores/2445/Ipswich", "image": "https://cdn.game.net/image/upload/gmStore/StoreFront/ips_outt", "brand": "Game", "brand:wikidata": "Q5519813", "located_in": "Sports Direct", "located_in:wikidata": "Q7579661", "nsi_id": "game-b2f4fe"}, "geometry": {"type": "Point", "coordinates": [1.1554037, 52.0576218]}},
{"type": "Feature", "id": "W9Ev3X3pL7bVbOdLRrH570CqMrQ=", "properties": {"ref": "2231", "@spider": "game_gb", "shop": "video_games", "addr:street_address": "Unit 1, Strothers Lane", "addr:city": "Inverness", "addr:state": "Inverness", "addr:postcode": "IV1 1LR", "addr:country": "GB", "name": "GAME Inverness", "website": "https://storefinder.game.co.uk/game/stores/2231/Inverness", "image": "https://cdn.game.net/image/upload/gmStore/StoreFront/750A62B2-4EE0-4717-B97B-CFD1AFB55C9F_Ruari_Begg", "brand": "Game", "brand:wikidata": "Q5519813", "located_in": "Sports Direct", "located_in:wikidata": "Q7579661", "nsi_id": "game-b2f4fe"}, "geometry": {"type": "Point", "coordinates": [-4.22432, 57.48055]}},
{"type": "Feature", "id": "nbhVDcxl51lh_AMLiezdDTjFJ0I=", "properties": {"ref": "288", "@spider": "game_gb", "shop": "video_games", "addr:street_address": "6 Albion Centre", "addr:city": "ILKESTON", "addr:state": "UK", "addr:postcode": "DE7 8AG", "addr:country": "GB", "name": "GAME Ilkeston", "website": "https://storefinder.game.co.uk/game/stores/288/Ilkeston", "image": "https://cdn.game.net/image/upload/gmStore/StoreFront/Ilkeston_2496_FG_Lee_Mcfarland", "brand": "Game", "brand:wikidata": "Q5519813", "nsi_id": "game-b2f4fe"}, "geometry": {"type": "Point", "coordinates": [-1.309011, 52.972425]}},
{"type": "Feature", "id": "VRS95di8izGvizM-PITqT1puqj4=", "properties": {"ref": "695", "@spider": "game_gb", "shop": "video_games", "addr:street_address": "127 High Street", "addr:city": "HUNTINGDON", "addr:state": "Cambridgeshire", "addr:postcode": "PE29 3NE", "addr:country": "GB", "name": "GAME Huntingdon", "website": "https://storefinder.game.co.uk/game/stores/695/Huntingdon", "image": "https://cdn.game.net/image/upload/gmStore/StoreFront/Huntingdon_0695_Trevor_Sheldrick", "brand": "Game", "brand:wikidata": "Q5519813", "nsi_id": "game-b2f4fe"}, "geometry": {"type": "Point", "coordinates": [-0.183208, 52.329374]}},
{"type": "Feature", "id": "N5LvfPqdZDi0myAeL6vZpfj48VA=", "properties": {"ref": "2238", "@spider": "game_gb", "shop": "video_games", "addr:street_address": "119-121 Ferensway", "addr:city": "Hull", "addr:state": "Yorkshire", "addr:postcode": "HU1 3UN", "addr:country": "GB", "name": "GAME Hull", "website": "https://storefinder.game.co.uk/game/stores/2238/Hull", "image": "https://cdn.game.net/image/upload/gmStore/StoreFront/Game_Hull_2238_Outside_Manager_Hull_SPD_GA", "brand": "Game", "brand:wikidata": "Q5519813", "located_in": "Sports Direct", "located_in:wikidata": "Q7579661", "nsi_id": "game-b2f4fe"}, "geometry": {"type": "Point", "coordinates": [-0.3472, 53.7452]}},
{"type": "Feature", "id": "IhJqBdgiMDlX1nqbQNDxeuNVhO4=", "properties": {"ref": "97", "@spider": "game_gb", "shop": "video_games", "addr:street_address": "Unit 2, Kingsgate Centre, King Street", "addr:city": "HUDDERSFIELD", "addr:state": "West Yorkshire", "addr:postcode": "HD1 2QB", "addr:country": "GB", "name": "GAME Huddersfield", "website": "https://storefinder.game.co.uk/game/stores/97/Huddersfield", "image": "https://cdn.game.net/image/upload/gmStore/StoreFront/Huddersfielf_97_outside_Scott_Trenam", "brand": "Game", "brand:wikidata": "Q5519813", "nsi_id": "game-b2f4fe"}, "geometry": {"type": "Point", "coordinates": [-1.78062, 53.645701]}},
{"type": "Feature", "id": "-SKccpcrDyAZIqdnLLMi2uRHbkA=", "properties": {"ref": "2485", "@spider": "game_gb", "shop": "video_games", "addr:street_address": "17 Octagon Parade", "addr:city": "High Wycombe", "addr:state": "Buckinghamshire", "addr:postcode": "HP11 2HU", "addr:country": "GB", "name": "GAME High Wycombe", "website": "https://storefinder.game.co.uk/game/stores/2485/High-Wycombe", "brand": "Game", "brand:wikidata": "Q5519813", "located_in": "Sports Direct", "located_in:wikidata": "Q7579661", "nsi_id": "game-b2f4fe"}, "geometry": {"type": "Point", "coordinates": [-0.753655, 51.630284]}},
{"type": "Feature", "id": "ycUOxVyT5IK-LL5j6kEZ9qCupBQ=", "properties": {"ref": "2462", "@spider": "game_gb", "shop": "video_games", "addr:street_address": "A2 The Marlowes Shopping Centre", "addr:city": "Hemel Hempstead", "addr:state": "Hertfordshire", "addr:postcode": "HP1 1DX", "addr:country": "GB", "name": "GAME Hemel Hempstead", "website": "https://storefinder.game.co.uk/game/stores/2462/Hemel-Hempstead", "image": "https://cdn.game.net/image/upload/gmStore/StoreFront/hemel_out", "brand": "Game", "brand:wikidata": "Q5519813", "located_in": "Sports Direct", "located_in:wikidata": "Q7579661", "nsi_id": "game-b2f4fe"}, "geometry": {"type": "Point", "coordinates": [-0.50897, 51.43396]}},
{"type": "Feature", "id": "tIOdQFzvK3gxh-54rYGAvCjBYI0=", "properties": {"ref": "2436", "@spider": "game_gb", "shop": "video_games", "addr:street_address": "Withybush Retail Park, Fishguard Road", "addr:city": "Haverfordwest", "addr:state": "Pembrokeshire", "addr:postcode": "SA61 2PY", "addr:country": "GB", "name": "GAME Haverfordwest", "website": "https://storefinder.game.co.uk/game/stores/2436/Haverfordwest", "image": "https://cdn.game.net/image/upload/gmStore/StoreFront/Outside_of_store", "brand": "Game", "brand:wikidata": "Q5519813", "located_in": "Sports Direct", "located_in:wikidata": "Q7579661", "nsi_id": "game-b2f4fe"}, "geometry": {"type": "Point", "coordinates": [-4.9663899, 51.8121251]}},
{"type": "Feature", "id": "InDl30l2jfK_MqVIlqVU9f7X3ls=", "properties": {"ref": "133", "@spider": "game_gb", "shop": "video_games", "addr:street_address": "18 PRIORY MEADOWS", "addr:city": "HASTINGS", "addr:state": "East Sussex", "addr:postcode": "TN34 1PH", "addr:country": "GB", "name": "GAME Hastings", "website": "https://storefinder.game.co.uk/game/stores/133/Hastings", "image": "https://cdn.game.net/image/upload/gmStore/StoreFront/Hastings_0133_Storefront_Peter_Lakesmith", "brand": "Game", "brand:wikidata": "Q5519813", "nsi_id": "game-b2f4fe"}, "geometry": {"type": "Point", "coordinates": [0.580245, 50.856399]}},
{"type": "Feature", "id": "KIgz0KeY8v2dcfrZljphGtXvgNI=", "properties": {"ref": "2287", "@spider": "game_gb", "shop": "video_games", "addr:street_address": "Unit U1 Victoria Shopping Centre", "addr:city": "Harrogate", "addr:state": "North Yorkshire", "addr:postcode": "HG1 1AE", "addr:country": "GB", "name": "GAME Harrogate", "website": "https://storefinder.game.co.uk/game/stores/2287/Harrogate", "image": "https://cdn.game.net/image/upload/gmStore/StoreFront/F10083C2-20D2-4AE7-A7BC-42C5FB554DDB_Jody_Jones", "brand": "Game", "brand:wikidata": "Q5519813", "located_in": "Sports Direct", "located_in:wikidata": "Q7579661", "nsi_id": "game-b2f4fe"}, "geometry": {"type": "Point", "coordinates": [-1.53972, 53.99327]}},
{"type": "Feature", "id": "2O3JmaJq9xpmaP5LzVKW1q7ucmk=", "properties": {"ref": "57", "@spider": "game_gb", "shop": "video_games", "addr:street_address": "Unit 13, The Harvey Centre", "addr:city": "HARLOW", "addr:state": "Essex", "addr:postcode": "CM20 1XN", "addr:country": "GB", "name": "GAME Harlow", "website": "https://storefinder.game.co.uk/game/stores/57/Harlow", "image": "https://cdn.game.net/image/upload/gmStore/StoreFront/20220210_162258_Robert_Gow", "brand": "Game", "brand:wikidata": "Q5519813", "nsi_id": "game-b2f4fe"}, "geometry": {"type": "Point", "coordinates": [0.092778, 51.769084]}},
{"type": "Feature", "id": "0rfUtD_AWPn9Zs3RRGz8yOcaC_A=", "properties": {"ref": "2276", "@spider": "game_gb", "shop": "video_games", "addr:street_address": "Unit 2, Arena Shopping Centre, Green Lanes", "addr:city": "Haringey", "addr:state": "London", "addr:postcode": "N4 1ED", "addr:country": "GB", "name": "GAME Haringey", "website": "https://storefinder.game.co.uk/game/stores/2276/Haringey", "image": "https://cdn.game.net/image/upload/gmStore/StoreFront/Harringey_-_2276_Front_of_Store_Atif_Malik", "brand": "Game", "brand:wikidata": "Q5519813", "located_in": "Sports Direct", "located_in:wikidata": "Q7579661", "nsi_id": "game-b2f4fe"}, "geometry": {"type": "Point", "coordinates": [-0.108733, 51.594449]}},
{"type": "Feature", "id": "K7aH4VYWsp8yQRcjU6SrbD8sKCo=", "properties": {"ref": "2426", "@spider": "game_gb", "shop": "video_games", "addr:street_address": "Unit 6A, Ladymead Retail Park", "addr:city": "Guildford", "addr:state": "Surrey", "addr:postcode": "GU1 1AJ", "addr:country": "GB", "name": "GAME Guildford Ladymead", "website": "https://storefinder.game.co.uk/game/stores/2426/Guildford-Ladymead", "image": "https://cdn.game.net/image/upload/gmStore/StoreFront/GOOGLE_1", "brand": "Game", "brand:wikidata": "Q5519813", "located_in": "Sports Direct", "located_in:wikidata": "Q7579661", "nsi_id": "game-b2f4fe"}, "geometry": {"type": "Point", "coordinates": [-0.57835, 51.24889]}},
{"type": "Feature", "id": "jFSyosXBE4sk-Q4bJiFDxYEezIg=", "properties": {"ref": "2304", "@spider": "game_gb", "shop": "video_games", "addr:street_address": "105-111 High Street", "addr:city": "Guildford", "addr:state": "Surrey", "addr:postcode": "GU1 3DP", "addr:country": "GB", "name": "GAME Guildford", "website": "https://storefinder.game.co.uk/game/stores/2304/Guildford", "image": "https://cdn.game.net/image/upload/gmStore/StoreFront/Guildford_2304_Manager_Guildford_HO", "brand": "Game", "brand:wikidata": "Q5519813", "located_in": "House of Fraser", "located_in:wikidata": "Q5928422", "nsi_id": "game-b2f4fe"}, "geometry": {"type": "Point", "coordinates": [-0.576148, 51.235959]}},
{"type": "Feature", "id": "T-BlALMK1JwrgOU0QL9T9KfOa6E=", "properties": {"ref": "376", "@spider": "game_gb", "shop": "video_games", "addr:street_address": "54 Friar Gate, Freshny Shopping Centre", "addr:city": "Grimsby", "addr:state": "Lincolnshire", "addr:postcode": "DN31 1ED", "addr:country": "GB", "name": "GAME Grimsby", "website": "https://storefinder.game.co.uk/game/stores/376/Grimsby", "image": "https://cdn.game.net/image/upload/gmStore/StoreFront/WhatsApp_Image_2022-02-14_at_15.49.13_David_Branch", "brand": "Game", "brand:wikidata": "Q5519813", "nsi_id": "game-b2f4fe"}, "geometry": {"type": "Point", "coordinates": [-2.7045565208873197, 53.76124183337083]}},
{"type": "Feature", "id": "1GruzmD9a7kxX1y7uR5CtIecw7o=", "properties": {"ref": "2284", "@spider": "game_gb", "shop": "video_games", "addr:street_address": "25 West Stewart Street", "addr:city": "Greenock", "addr:state": "Scotland", "addr:postcode": "PA15 1SN", "addr:country": "GB", "name": "GAME Greenock", "website": "https://storefinder.game.co.uk/game/stores/2284/Greenock", "image": "https://cdn.game.net/image/upload/gmStore/StoreFront/MicrosoftTeams-image", "brand": "Game", "brand:wikidata": "Q5519813", "located_in": "Sports Direct", "located_in:wikidata": "Q7579661", "nsi_id": "game-b2f4fe"}, "geometry": {"type": "Point", "coordinates": [-4.759336, 55.948833]}},
{"type": "Feature", "id": "AZYwDdpE-VmQAbwoMrwxNFgYnSU=", "properties": {"ref": "2320", "@spider": "game_gb", "shop": "video_games", "addr:street_address": "Bluewater Shopping Centre", "addr:city": "Greenhithe", "addr:state": "Kent", "addr:postcode": "DA9 9SB", "addr:country": "GB", "name": "GAME Bluewater HoF", "website": "https://storefinder.game.co.uk/game/stores/2320/Bluewater-HoF", "image": "https://cdn.game.net/image/upload/gmStore/StoreFront/Bluewater_HOF_2320_Front_Marc_Owen", "brand": "Game", "brand:wikidata": "Q5519813", "located_in": "House of Fraser", "located_in:wikidata": "Q5928422", "nsi_id": "game-b2f4fe"}, "geometry": {"type": "Point", "coordinates": [0.2659027, 51.4388797]}},
{"type": "Feature", "id": "5t77xfLk_QUska0YhQxEbXEYKec=", "properties": {"ref": "584", "@spider": "game_gb", "shop": "video_games", "addr:street_address": "Unit UO23, Upper Rose Gallery, Bluewater", "addr:city": "GREENHITHE", "addr:state": "Kent", "addr:postcode": "DA9 9SP", "addr:country": "GB", "name": "GAME Bluewater", "website": "https://storefinder.game.co.uk/game/stores/584/Bluewater", "image": "https://cdn.game.net/image/upload/gmStore/StoreFront/bw3.2", "brand": "Game", "brand:wikidata": "Q5519813", "nsi_id": "game-b2f4fe"}, "geometry": {"type": "Point", "coordinates": [0.271882, 51.438409]}},
{"type": "Feature", "id": "BnpYcgPRFp5UHngSP3QRyKP-JRE=", "properties": {"ref": "2286", "@spider": "game_gb", "shop": "video_games", "addr:street_address": "3-7 King Street", "addr:city": "Great Yarmouth", "addr:state": "Norfolk", "addr:postcode": "NR30 2BB", "addr:country": "GB", "name": "GAME Great Yarmouth", "website": "https://storefinder.game.co.uk/game/stores/2286/Great-Yarmouth", "image": "https://cdn.game.net/image/upload/gmStore/StoreFront/yarmouth_outside", "brand": "Game", "brand:wikidata": "Q5519813", "located_in": "Sports Direct", "located_in:wikidata": "Q7579661", "nsi_id": "game-b2f4fe"}, "geometry": {"type": "Point", "coordinates": [1.7251689, 52.6076519]}},
{"type": "Feature", "id": "90vXXsC_YbZ4HgQhntmie1iZgoo=", "properties": {"ref": "2374", "@spider": "game_gb", "shop": "video_games", "addr:street_address": "Lakeside Shopping Centre", "addr:city": "Grays", "addr:state": "Essex", "addr:postcode": "RM20 2ZQ", "addr:country": "GB", "name": "GAME Lakeside HOF", "website": "https://storefinder.game.co.uk/game/stores/2374/Lakeside-HOF", "brand": "Game", "brand:wikidata": "Q5519813", "located_in": "House of Fraser", "located_in:wikidata": "Q5928422", "nsi_id": "game-b2f4fe"}, "geometry": {"type": "Point", "coordinates": [0.28316, 51.48767]}},
{"type": "Feature", "id": "9uRr8eCaoQ4P-6Aygp3nlWdP0Eo=", "properties": {"ref": "508", "@spider": "game_gb", "shop": "video_games", "addr:street_address": "Unit 106, Lakeside Shopping Centre", "addr:city": "GRAYS", "addr:state": "Essex", "addr:postcode": "RM20 2ZQ", "addr:country": "GB", "name": "GAME West Thurrock", "website": "https://storefinder.game.co.uk/game/stores/508/West-Thurrock", "image": "https://cdn.game.net/image/upload/gmStore/StoreFront/20220210_120856_Aaron_Jordan", "brand": "Game", "brand:wikidata": "Q5519813", "nsi_id": "game-b2f4fe"}, "geometry": {"type": "Point", "coordinates": [0.281489, 51.486786]}},
{"type": "Feature", "id": "6g5GB102U8ECUxI4jKbeOZHROik=", "properties": {"ref": "2261", "@spider": "game_gb", "shop": "video_games", "addr:street_address": "22/26 Nortgate Street", "addr:city": "Gloucester", "addr:state": "Gloucestershire", "addr:postcode": "GL1 1SE", "addr:country": "GB", "name": "GAME Gloucester", "website": "https://storefinder.game.co.uk/game/stores/2261/Gloucester", "brand": "Game", "brand:wikidata": "Q5519813", "located_in": "Sports Direct", "located_in:wikidata": "Q7579661", "nsi_id": "game-b2f4fe"}, "geometry": {"type": "Point", "coordinates": [-2.22876, 51.85768]}},
{"type": "Feature", "id": "ROiGq7CK9RNm9q7tQtwer0xHDwk=", "properties": {"ref": "169", "@spider": "game_gb", "shop": "video_games", "addr:street_address": "25 Lyon Way", "addr:city": "GLENROTHES", "addr:state": "Fife", "addr:postcode": "KY7 5NN", "addr:country": "GB", "name": "GAME Glenrothes", "website": "https://storefinder.game.co.uk/game/stores/169/Glenrothes", "image": "https://cdn.game.net/image/upload/gmStore/StoreFront/Glenrothes_169_Fraser_Horn", "brand": "Game", "brand:wikidata": "Q5519813", "nsi_id": "game-b2f4fe"}, "geometry": {"type": "Point", "coordinates": [-3.17159, 56.196102]}},
{"type": "Feature", "id": "VYQMpVXUTNK-Zz9m66DAExsE9p8=", "properties": {"ref": "2324", "@spider": "game_gb", "shop": "video_games", "addr:street_address": "45 Buchanan Street", "addr:city": "Glasgow", "addr:state": "Glasgow", "addr:postcode": "G1 3HL", "addr:country": "GB", "name": "GAME Glasgow HoF", "website": "https://storefinder.game.co.uk/game/stores/2324/Glasgow-HoF", "brand": "Game", "brand:wikidata": "Q5519813", "located_in": "House of Fraser", "located_in:wikidata": "Q5928422", "nsi_id": "game-b2f4fe"}, "geometry": {"type": "Point", "coordinates": [-4.2550416, 55.8591837]}},
{"type": "Feature", "id": "oAaOx2ecuRJXR81P1fc8v9KXqXw=", "properties": {"ref": "384", "@spider": "game_gb", "shop": "video_games", "addr:street_address": "20 Argyle Street", "addr:city": "Glasgow", "addr:state": "Lanarkshire", "addr:postcode": "G2 8AD", "addr:country": "GB", "name": "GAME Glasgow Argyle Street", "website": "https://storefinder.game.co.uk/game/stores/384/Glasgow-Argyle-Street", "brand": "Game", "brand:wikidata": "Q5519813", "nsi_id": "game-b2f4fe"}, "geometry": {"type": "Point", "coordinates": [-4.2529343, 55.858016]}},
{"type": "Feature", "id": "iMyx_VxWobKztEVYWKnuSagl-5c=", "properties": {"ref": "2424", "@spider": "game_gb", "shop": "video_games", "addr:street_address": "Unit 11, Forge Retail Park", "addr:city": "Glasgow", "addr:state": "Lanarkshire", "addr:postcode": "G31 4EB", "addr:country": "GB", "name": "GAME Glasgow Forge", "website": "https://storefinder.game.co.uk/game/stores/2424/Glasgow-Forge", "image": "https://cdn.game.net/image/upload/gmStore/StoreFront/GAME_Glasgow_Forge_2424_Andrew_Vass", "brand": "Game", "brand:wikidata": "Q5519813", "located_in": "Sports Direct", "located_in:wikidata": "Q7579661", "nsi_id": "game-b2f4fe"}, "geometry": {"type": "Point", "coordinates": [-4.20215, 55.85477]}},
{"type": "Feature", "id": "EYIcYuPWRcx_mVqj3Uo3g59ZGO4=", "properties": {"ref": "2411", "@spider": "game_gb", "shop": "video_games", "addr:street_address": "Unit B6, Silverburn, Barhead Rd", "addr:city": "Glasgow", "addr:state": "Glasgow", "addr:postcode": "G53 6QR", "addr:country": "GB", "name": "GAME Glasgow Silverburn", "website": "https://storefinder.game.co.uk/game/stores/2411/Glasgow-Silverburn", "image": "https://cdn.game.net/image/upload/gmStore/StoreFront/Siverburn_Front_of_SD_2411_Jonathan_Black", "brand": "Game", "brand:wikidata": "Q5519813", "located_in": "Sports Direct", "located_in:wikidata": "Q7579661", "nsi_id": "game-b2f4fe"}, "geometry": {"type": "Point", "coordinates": [-4.3436467, 55.8212759]}},
{"type": "Feature", "id": "eWte7Zo1pZfhcNHtFx9gPE0mw84=", "properties": {"ref": "2207", "@spider": "game_gb", "shop": "video_games", "addr:street_address": "80 Aunchinlea Way", "addr:city": "Glasgow", "addr:state": "Glasgow", "addr:postcode": "G34 9JJ", "addr:country": "GB", "name": "GAME Glasgow Auchinlea", "website": "https://storefinder.game.co.uk/game/stores/2207/Glasgow-Auchinlea", "image": "https://cdn.game.net/image/upload/gmStore/StoreFront/2207_test_upload", "brand": "Game", "brand:wikidata": "Q5519813", "located_in": "Sports Direct", "located_in:wikidata": "Q7579661", "nsi_id": "game-b2f4fe"}, "geometry": {"type": "Point", "coordinates": [-4.13159, 55.86961]}},
{"type": "Feature", "id": "tA0rWL3A2IsGYNSSJPz7be663MI=", "properties": {"ref": "338", "@spider": "game_gb", "shop": "video_games", "addr:street_address": "5 The Olympia, Town Centre, East Kilbride", "addr:city": "Glasgow", "addr:state": "Glasgow", "addr:postcode": "G74 1PG", "addr:country": "GB", "name": "GAME East Kilbride", "website": "https://storefinder.game.co.uk/game/stores/338/East-Kilbride", "image": "https://cdn.game.net/image/upload/gmStore/StoreFront/received_1340817883059883_Andrew_Vass", "brand": "Game", "brand:wikidata": "Q5519813", "nsi_id": "game-b2f4fe"}, "geometry": {"type": "Point", "coordinates": [-4.176854, 55.759185]}},
{"type": "Feature", "id": "YSUfVMwzfujghvFxU4UxmyMlfMQ=", "properties": {"ref": "2448", "@spider": "game_gb", "shop": "video_games", "addr:street_address": "Gibside Way", "addr:city": "Gateshead", "addr:state": "Tyne And Wear", "addr:postcode": "NE11 9ya", "addr:country": "GB", "name": "GAME Gateshead Ilva", "website": "https://storefinder.game.co.uk/game/stores/2448/Gateshead-Ilva", "brand": "Game", "brand:wikidata": "Q5519813", "located_in": "Sports Direct", "located_in:wikidata": "Q7579661", "nsi_id": "game-b2f4fe"}, "geometry": {"type": "Point", "coordinates": [-1.680408, 54.9601068]}},
{"type": "Feature", "id": "HU2G3JL6VuJhGWmVl46iiYIJSkI=", "properties": {"ref": "381", "@spider": "game_gb", "shop": "video_games", "addr:street_address": "Unit 83, Metro Centre", "addr:city": "Gateshead", "addr:state": "Tyne & Wear", "addr:postcode": "NE11 9YG", "addr:country": "GB", "name": "GAME Metro Centre", "website": "https://storefinder.game.co.uk/game/stores/381/Metro-Centre", "image": "https://cdn.game.net/image/upload/gmStore/StoreFront/Metro_Deepak_Kohli", "brand": "Game", "brand:wikidata": "Q5519813", "nsi_id": "game-b2f4fe"}, "geometry": {"type": "Point", "coordinates": [-1.668929, 54.955881]}},
{"type": "Feature", "id": "Pp9GgdBzOxTjSCKuvUK7z4zroe4=", "properties": {"ref": "2229", "@spider": "game_gb", "shop": "video_games", "addr:street_address": "Bouverie Place", "addr:city": "Folkestone", "addr:state": "Kent", "addr:postcode": "CT20 1AU", "addr:country": "GB", "name": "GAME Folkestone", "website": "https://storefinder.game.co.uk/game/stores/2229/Folkestone", "image": "https://cdn.game.net/image/upload/gmStore/StoreFront/Folkestone_2229_Front_of_Store_Ross_Newman", "brand": "Game", "brand:wikidata": "Q5519813", "located_in": "Sports Direct", "located_in:wikidata": "Q7579661", "nsi_id": "game-b2f4fe"}, "geometry": {"type": "Point", "coordinates": [1.17812, 51.07848]}},
{"type": "Feature", "id": "1uLCPXZhnjOMjO7FocAdsDyv-TE=", "properties": {"ref": "2", "@spider": "game_gb", "shop": "video_games", "addr:street_address": "Unit 7, Princes Mead Centre", "addr:city": "FARNBOROUGH", "addr:state": "Hampshire", "addr:postcode": "GU14 6YA", "addr:country": "GB", "name": "GAME Farnborough", "website": "https://storefinder.game.co.uk/game/stores/2/Farnborough", "image": "https://cdn.game.net/image/upload/gmStore/StoreFront/Farnborough_2468_Kelly_Allkins", "brand": "Game", "brand:wikidata": "Q5519813", "nsi_id": "game-b2f4fe"}, "geometry": {"type": "Point", "coordinates": [-0.758018, 51.291086]}},
{"type": "Feature", "id": "F4hd98QNA8e9RYX5byWZuc2o0ew=", "properties": {"ref": "605", "@spider": "game_gb", "shop": "video_games", "addr:street_address": "Unit 50, 22 Westbury Square", "addr:city": "FAREHAM", "addr:state": "Hampshire", "addr:postcode": "PO16 0PB", "addr:country": "GB", "name": "GAME Fareham", "website": "https://storefinder.game.co.uk/game/stores/605/Fareham", "image": "https://cdn.game.net/image/upload/gmStore/StoreFront/Fareham_2467_James_Hazell", "brand": "Game", "brand:wikidata": "Q5519813", "nsi_id": "game-b2f4fe"}, "geometry": {"type": "Point", "coordinates": [-1.176014, 50.852342]}},
{"type": "Feature", "id": "mx33iAF7ZnQCpUCqSR796LBGWqw=", "properties": {"ref": "2258", "@spider": "game_gb", "shop": "video_games", "addr:street_address": "Unit 1 Central Retail Park", "addr:city": "Falkirk", "addr:state": "Scotland", "addr:postcode": "FK1 1LW", "addr:country": "GB", "name": "GAME Falkirk", "website": "https://storefinder.game.co.uk/game/stores/2258/Falkirk", "image": "https://cdn.game.net/image/upload/gmStore/StoreFront/Falkirk_outside_Stuart_Mcallister", "brand": "Game", "brand:wikidata": "Q5519813", "located_in": "Sports Direct", "located_in:wikidata": "Q7579661", "nsi_id": "game-b2f4fe"}, "geometry": {"type": "Point", "coordinates": [-3.77942, 56.00377]}},
{"type": "Feature", "id": "M0I5of6ij6I8co8iZZHjgIXeaUc=", "properties": {"ref": "3304", "@spider": "game_gb", "shop": "video_games", "addr:street_address": "unit1 Guildhall Centre", "addr:city": "EXETER", "addr:state": "Devon", "addr:postcode": "EX4 3HP", "addr:country": "GB", "name": "GAME Exeter", "website": "https://storefinder.game.co.uk/game/stores/3304/Exeter", "image": "https://cdn.game.net/image/upload/gmStore/StoreFront/Exeter_3304_Mark_Hurdencass", "brand": "Game", "brand:wikidata": "Q5519813", "nsi_id": "game-b2f4fe"}, "geometry": {"type": "Point", "coordinates": [-3.532857, 50.722874]}},
{"type": "Feature", "id": "YXV1WSQhj84smr170Z_6LGtlQ1U=", "properties": {"ref": "187", "@spider": "game_gb", "shop": "video_games", "addr:street_address": "37 Palace Gardens", "addr:city": "ENFIELD", "addr:state": "Middlesex", "addr:postcode": "EN2 6SN", "addr:country": "GB", "name": "GAME Enfield", "website": "https://storefinder.game.co.uk/game/stores/187/Enfield", "image": "https://cdn.game.net/image/upload/gmStore/StoreFront/187SF", "brand": "Game", "brand:wikidata": "Q5519813", "nsi_id": "game-b2f4fe"}, "geometry": {"type": "Point", "coordinates": [-0.084708, 51.650712]}},
{"type": "Feature", "id": "V6ms5Z_jjKjL3lCDk7teoHj2n88=", "properties": {"ref": "612", "@spider": "game_gb", "shop": "video_games", "addr:street_address": "Unit 12, Coliseum Way, Cheshire Oaks Outlet Village", "addr:city": "ELLESMERE PORT", "addr:state": "Cheshire", "addr:postcode": "CH65 9HD", "addr:country": "GB", "name": "GAME Cheshire Oaks", "website": "https://storefinder.game.co.uk/game/stores/612/Cheshire-Oaks", "image": "https://cdn.game.net/image/upload/gmStore/StoreFront/612SF", "brand": "Game", "brand:wikidata": "Q5519813", "nsi_id": "game-b2f4fe"}, "geometry": {"type": "Point", "coordinates": [-2.887525, 53.264177]}},
{"type": "Feature", "id": "nFZY7WErnVHlHLBb3UWj-J4kzTU=", "properties": {"ref": "356", "@spider": "game_gb", "shop": "video_games", "addr:street_address": "Unit 7 Waverley Mall", "addr:city": "Edinburgh", "addr:state": "Edinburgh", "addr:postcode": "EH1 1BQ", "addr:country": "GB", "name": "GAME Edinburgh", "website": "https://storefinder.game.co.uk/game/stores/356/Edinburgh", "image": "https://cdn.game.net/image/upload/gmStore/StoreFront/Edinburgh_Waverley_2461_Ewan_Shaw", "brand": "Game", "brand:wikidata": "Q5519813", "nsi_id": "game-b2f4fe"}, "geometry": {"type": "Point", "coordinates": [-3.191445, 55.952406]}},
{"type": "Feature", "id": "6rFPkKvTGeHL3-JZZHbEYEJQUCY=", "properties": {"ref": "2273", "@spider": "game_gb", "shop": "video_games", "addr:street_address": "76-78 The Beacon", "addr:city": "Eastbourne", "addr:state": "East Sussex", "addr:postcode": "BN21 3NW", "addr:country": "GB", "name": "GAME Eastbourne", "website": "https://storefinder.game.co.uk/game/stores/2273/Eastbourne", "brand": "Game", "brand:wikidata": "Q5519813", "located_in": "Sports Direct", "located_in:wikidata": "Q7579661", "nsi_id": "game-b2f4fe"}, "geometry": {"type": "Point", "coordinates": [0.28886, 50.77117]}},
{"type": "Feature", "id": "mn8fqni7kub9TfIOSvfC2QATwWk=", "properties": {"ref": "2281", "@spider": "game_gb", "shop": "video_games", "addr:street_address": "21-23 The Broadway", "addr:city": "Ealing", "addr:state": "London", "addr:postcode": "W5 2NH", "addr:country": "GB", "name": "GAME Ealing", "website": "https://storefinder.game.co.uk/game/stores/2281/Ealing", "image": "https://cdn.game.net/image/upload/gmStore/StoreFront/Ealing_2281_Store_Front_Mark_Hamilton", "brand": "Game", "brand:wikidata": "Q5519813", "located_in": "Sports Direct", "located_in:wikidata": "Q7579661", "nsi_id": "game-b2f4fe"}, "geometry": {"type": "Point", "coordinates": [-0.3056842, 51.5135612]}},
{"type": "Feature", "id": "fF6c4NQacRhPZMsTjISEoOwZmhw=", "properties": {"ref": "2252", "@spider": "game_gb", "shop": "video_games", "addr:street_address": "Unit 7, Durham Retail Park, Eden Terrace", "addr:city": "Durham", "addr:state": "Durham", "addr:postcode": "DH1 2HJ", "addr:country": "GB", "name": "GAME Durham", "website": "https://storefinder.game.co.uk/game/stores/2252/Durham", "image": "https://cdn.game.net/image/upload/gmStore/StoreFront/Durham_2252_Store_front_Deepak_Kohli", "brand": "Game", "brand:wikidata": "Q5519813", "located_in": "Sports Direct", "located_in:wikidata": "Q7579661", "nsi_id": "game-b2f4fe"}, "geometry": {"type": "Point", "coordinates": [-1.5370448, 54.784178]}},
{"type": "Feature", "id": "XoV6rr3M90BPrg3-3WM57bal6Ls=", "properties": {"ref": "2255", "@spider": "game_gb", "shop": "video_games", "addr:street_address": "unit 9-10 White Lion Retail Park", "addr:city": "Dunstable", "addr:state": "Bedfordshire", "addr:postcode": "LU5 4WL", "addr:country": "GB", "name": "GAME Dunstable", "website": "https://storefinder.game.co.uk/game/stores/2255/Dunstable", "image": "https://cdn.game.net/image/upload/gmStore/StoreFront/Game_Dunstable_2255_outside_Carl_Edlin", "brand": "Game", "brand:wikidata": "Q5519813", "located_in": "Sports Direct", "located_in:wikidata": "Q7579661", "nsi_id": "game-b2f4fe"}, "geometry": {"type": "Point", "coordinates": [-0.5128, 51.8905]}},
{"type": "Feature", "id": "bqvaY9J0YJe_keGvxH9Ihc1XHxI=", "properties": {"ref": "172", "@spider": "game_gb", "shop": "video_games", "addr:street_address": "10 Kingsgate Centre", "addr:city": "DUNFERMLINE", "addr:state": "Fife", "addr:postcode": "KY12 7QA", "addr:country": "GB", "name": "GAME Dunfermline", "website": "https://storefinder.game.co.uk/game/stores/172/Dunfermline", "image": "https://cdn.game.net/image/upload/gmStore/StoreFront/IMG-20220211-WA0003_Stuart_Mcallister", "brand": "Game", "brand:wikidata": "Q5519813", "nsi_id": "game-b2f4fe"}, "geometry": {"type": "Point", "coordinates": [-3.460199, 56.071723]}},
{"type": "Feature", "id": "S9vf25p7wHOkwxUMlkVSwvVuLMI=", "properties": {"ref": "598", "@spider": "game_gb", "shop": "video_games", "addr:street_address": "51 Murraygate", "addr:city": "DUNDEE", "addr:state": "Angus", "addr:postcode": "DD1 2EA", "addr:country": "GB", "name": "GAME Dundee", "website": "https://storefinder.game.co.uk/game/stores/598/Dundee", "image": "https://cdn.game.net/image/upload/gmStore/StoreFront/1EE0BA6F-0A85-4FD2-A6F4-DCE50CC9119A_Ruari_Begg", "brand": "Game", "brand:wikidata": "Q5519813", "nsi_id": "game-b2f4fe"}, "geometry": {"type": "Point", "coordinates": [-2.96881, 56.462911]}},
{"type": "Feature", "id": "aHEoXChLDpN2a1qbnLfuisy6VHY=", "properties": {"ref": "2409", "@spider": "game_gb", "shop": "video_games", "addr:street_address": "Unit 4, Peel Retail Pk, Lockerbie Rd", "addr:city": "Dumfries", "addr:state": "Dumfrieshire", "addr:postcode": "DG1 3PF", "addr:country": "GB", "name": "GAME Dumfries", "website": "https://storefinder.game.co.uk/game/stores/2409/Dumfries", "image": "https://cdn.game.net/image/upload/gmStore/StoreFront/Dumfries_Storefront_Kirk_Spencer", "brand": "Game", "brand:wikidata": "Q5519813", "located_in": "Sports Direct", "located_in:wikidata": "Q7579661", "nsi_id": "game-b2f4fe"}, "geometry": {"type": "Point", "coordinates": [-3.56485, 55.07982]}},
{"type": "Feature", "id": "KGfGxhS-4LG5aj5kBeRlcWK_c-g=", "properties": {"ref": "2236", "@spider": "game_gb", "shop": "video_games", "addr:street_address": "Units 12-15, Strand Shopping Centre, Strand Street", "addr:city": "Douglas", "addr:state": "Isle of Man", "addr:postcode": "IM1 2ER", "addr:country": "GB", "name": "GAME Douglas", "website": "https://storefinder.game.co.uk/game/stores/2236/Douglas", "image": "https://cdn.game.net/image/upload/gmStore/StoreFront/douglas_storefront", "brand": "Game", "brand:wikidata": "Q5519813", "located_in": "Sports Direct", "located_in:wikidata": "Q7579661", "nsi_id": "game-b2f4fe"}, "geometry": {"type": "Point", "coordinates": [-4.4793569, 54.1520986]}},
{"type": "Feature", "id": "d88D4i56HeBtMFiX3beKkkNUDUQ=", "properties": {"ref": "246", "@spider": "game_gb", "shop": "video_games", "addr:street_address": "Unit 47, The Frenchgate Interchange", "addr:city": "DONCASTER", "addr:state": "South Yorkshire", "addr:postcode": "DN1 1LF", "addr:country": "GB", "name": "GAME Doncaster", "website": "https://storefinder.game.co.uk/game/stores/246/Doncaster", "image": "https://cdn.game.net/image/upload/gmStore/StoreFront/Doncaster_0246_Paul_Steele", "brand": "Game", "brand:wikidata": "Q5519813", "nsi_id": "game-b2f4fe"}, "geometry": {"type": "Point", "coordinates": [-1.138679, 53.523254]}},
{"type": "Feature", "id": "IwZFVcgJzuy5WSaljeAr5mxqgww=", "properties": {"ref": "273", "@spider": "game_gb", "shop": "video_games", "addr:street_address": "Unit 22b, The Orchard Centre", "addr:city": "DIDCOT", "addr:state": "Oxfordshire", "addr:postcode": "OX11 7LG", "addr:country": "GB", "name": "GAME Didcot", "website": "https://storefinder.game.co.uk/game/stores/273/Didcot", "image": "https://cdn.game.net/image/upload/gmStore/StoreFront/0273_Didcot_Exterior", "brand": "Game", "brand:wikidata": "Q5519813", "nsi_id": "game-b2f4fe"}, "geometry": {"type": "Point", "coordinates": [-1.240415, 51.606329]}},
{"type": "Feature", "id": "--8u2XNgn7RKve0GFyoPnjwk8tc=", "properties": {"ref": "291", "@spider": "game_gb", "shop": "video_games", "addr:street_address": "Unit SU128, Intu Centre", "addr:city": "DERBY", "addr:state": "Derbyshire", "addr:postcode": "DE1 2PQ", "addr:country": "GB", "name": "GAME Derby", "website": "https://storefinder.game.co.uk/game/stores/291/Derby", "image": "https://cdn.game.net/image/upload/gmStore/StoreFront/291SF", "brand": "Game", "brand:wikidata": "Q5519813", "nsi_id": "game-b2f4fe"}, "geometry": {"type": "Point", "coordinates": [-1.473472, 52.918431]}},
{"type": "Feature", "id": "yUhoeBKbSRAbriOnmaFpDOE6L44=", "properties": {"ref": "2491", "@spider": "game_gb", "shop": "video_games", "addr:street_address": "Unit 1&2 Ground Floor, Cornhill Shopping Centre", "addr:city": "Darlington", "addr:state": "Durham", "addr:postcode": "DL1 1PB", "addr:country": "GB", "name": "GAME Darlington SPD", "website": "https://storefinder.game.co.uk/game/stores/2491/Darlington-SPD", "contact:twitter": "@gamedigital", "brand": "Game", "brand:wikidata": "Q5519813", "located_in": "Sports Direct", "located_in:wikidata": "Q7579661", "nsi_id": "game-b2f4fe"}, "geometry": {"type": "Point", "coordinates": [-1.55185, 54.52506]}},
{"type": "Feature", "id": "ma1lpWCmwrG7pQT4VvQoQRewz74=", "properties": {"ref": "2372", "@spider": "game_gb", "shop": "video_games", "addr:street_address": "7 High Row", "addr:city": "Darlington", "addr:state": "County Durham", "addr:postcode": "DL3 7QE", "addr:country": "GB", "name": "GAME Darlington HOF", "website": "https://storefinder.game.co.uk/game/stores/2372/Darlington-HOF", "brand": "Game", "brand:wikidata": "Q5519813", "located_in": "House of Fraser", "located_in:wikidata": "Q5928422", "nsi_id": "game-b2f4fe"}, "geometry": {"type": "Point", "coordinates": [-1.55635, 54.52425]}},
{"type": "Feature", "id": "xHWCxJCXRZzurK3EQOeWz_ivBFQ=", "properties": {"ref": "2370", "@spider": "game_gb", "shop": "video_games", "addr:street_address": "Centrale Shopping Centre, 21 North End", "addr:city": "Croydon", "addr:state": "London", "addr:postcode": "CR0 1TY", "addr:country": "GB", "name": "GAME Croydon HoF", "website": "https://storefinder.game.co.uk/game/stores/2370/Croydon-HoF", "image": "https://cdn.game.net/image/upload/gmStore/StoreFront/croydon_out", "brand": "Game", "brand:wikidata": "Q5519813", "located_in": "House of Fraser", "located_in:wikidata": "Q5928422", "nsi_id": "game-b2f4fe"}, "geometry": {"type": "Point", "coordinates": [-0.10227, 51.37568]}},
{"type": "Feature", "id": "_-z2DOTrfQm837-gZ-7KdSRryH4=", "properties": {"ref": "2226", "@spider": "game_gb", "shop": "video_games", "addr:street_address": "Unit C, Grand Junction Retail Pk, Earle Street", "addr:city": "Crewe", "addr:state": "Staffordshire", "addr:postcode": "CW1 2RP", "addr:country": "GB", "name": "GAME Crewe", "website": "https://storefinder.game.co.uk/game/stores/2226/Crewe", "image": "https://cdn.game.net/image/upload/gmStore/StoreFront/Game_Blackpool_L_2225_Willem_Vanduyvenvoor", "brand": "Game", "brand:wikidata": "Q5519813", "located_in": "Sports Direct", "located_in:wikidata": "Q7579661", "nsi_id": "game-b2f4fe"}, "geometry": {"type": "Point", "coordinates": [-2.4367, 53.09815]}},
{"type": "Feature", "id": "H7womLm1vrX2vzc112A8bmS9IQk=", "properties": {"ref": "667", "@spider": "game_gb", "shop": "video_games", "addr:street_address": "UNIT 16, RUSHMERE SHOPPING CENTRE", "addr:city": "CRAIGAVON", "addr:state": "Northern Ireland", "addr:postcode": "BT64 1AA", "addr:country": "GB", "name": "GAME Craigavon", "website": "https://storefinder.game.co.uk/game/stores/667/Craigavon", "image": "https://cdn.game.net/image/upload/gmStore/StoreFront/Criagvaon_667_Front_Paul_Mullholland", "brand": "Game", "brand:wikidata": "Q5519813", "nsi_id": "game-b2f4fe"}, "geometry": {"type": "Point", "coordinates": [-6.391316, 54.448993]}},
{"type": "Feature", "id": "K83K4NcZYOBiJSv8WHp0VCCRSTc=", "properties": {"ref": "2267", "@spider": "game_gb", "shop": "video_games", "addr:street_address": "Unit 6, Oxford Retail Pk, Ambassador Ave", "addr:city": "Cowley", "addr:state": "Oxford", "addr:postcode": "OX4 6XJ", "addr:country": "GB", "name": "GAME Cowley", "website": "https://storefinder.game.co.uk/game/stores/2267/Cowley", "image": "https://cdn.game.net/image/upload/gmStore/StoreFront/cowley1", "brand": "Game", "brand:wikidata": "Q5519813", "located_in": "Sports Direct", "located_in:wikidata": "Q7579661", "nsi_id": "game-b2f4fe"}, "geometry": {"type": "Point", "coordinates": [-1.22869, 51.73236]}},
{"type": "Feature", "id": "6G30EP4OtxXiPRvLvQvUmrUu0jc=", "properties": {"ref": "359", "@spider": "game_gb", "shop": "video_games", "addr:street_address": "Unit 80, North Gallery", "addr:city": "Coventry", "addr:state": "Coventry", "addr:postcode": "CV1 1NQ", "addr:country": "GB", "name": "GAME Coventry", "website": "https://storefinder.game.co.uk/game/stores/359/Coventry", "image": "https://cdn.game.net/image/upload/gmStore/StoreFront/359_coventry_survey_outside_Jagdish_Kumar", "brand": "Game", "brand:wikidata": "Q5519813", "nsi_id": "game-b2f4fe"}, "geometry": {"type": "Point", "coordinates": [-1.514853, 52.407978]}},
{"type": "Feature", "id": "fIPdl69jemiI3tSWu-rT30rpI8A=", "properties": {"ref": "3223", "@spider": "game_gb", "shop": "video_games", "addr:street_address": "27 Corporation Street", "addr:city": "CORBY", "addr:state": "Northamptonshire", "addr:postcode": "NN17 1NG", "addr:country": "GB", "name": "GAME CORBY", "website": "https://storefinder.game.co.uk/game/stores/3223/CORBY", "image": "https://cdn.game.net/image/upload/gmStore/StoreFront/3223SF", "brand": "Game", "brand:wikidata": "Q5519813", "nsi_id": "game-b2f4fe"}, "geometry": {"type": "Point", "coordinates": [-0.701033, 52.48725]}},
{"type": "Feature", "id": "6O006S0lujSfRY7EJ0tylaAmkGY=", "properties": {"ref": "2257", "@spider": "game_gb", "shop": "video_games", "addr:street_address": "5/5A & 7/9 Head Street", "addr:city": "Colchester", "addr:state": "Essex", "addr:postcode": "CO1 1NX", "addr:country": "GB", "name": "GAME Colchester", "website": "https://storefinder.game.co.uk/game/stores/2257/Colchester", "image": "https://cdn.game.net/image/upload/gmStore/StoreFront/Colchester_2862_Philip_Bruce", "brand": "Game", "brand:wikidata": "Q5519813", "located_in": "Sports Direct", "located_in:wikidata": "Q7579661", "nsi_id": "game-b2f4fe"}, "geometry": {"type": "Point", "coordinates": [0.89611, 51.88941]}},
{"type": "Feature", "id": "yIHsi9gskW_N49xsCU79MokYin8=", "properties": {"ref": "686", "@spider": "game_gb", "shop": "video_games", "addr:street_address": "6 Britannia Way", "addr:city": "CLYDEBANK", "addr:state": "Clydebank", "addr:postcode": "G81 2RZ", "addr:country": "GB", "name": "GAME Clydebank", "website": "https://storefinder.game.co.uk/game/stores/686/Clydebank", "image": "https://cdn.game.net/image/upload/gmStore/StoreFront/686SF", "brand": "Game", "brand:wikidata": "Q5519813", "nsi_id": "game-b2f4fe"}, "geometry": {"type": "Point", "coordinates": [-4.404156, 55.904148]}},
{"type": "Feature", "id": "VPpnebagGlESksog2jqKJ8VaFoA=", "properties": {"ref": "2458", "@spider": "game_gb", "shop": "video_games", "addr:street_address": "56-58 Station Road", "addr:city": "Clacton on Sea", "addr:state": "Essex", "addr:postcode": "CO15 1SP", "addr:country": "GB", "name": "GAME Clacton on Sea", "website": "https://storefinder.game.co.uk/game/stores/2458/Clacton-on-Sea", "brand": "Game", "brand:wikidata": "Q5519813", "located_in": "Sports Direct", "located_in:wikidata": "Q7579661", "nsi_id": "game-b2f4fe"}, "geometry": {"type": "Point", "coordinates": [1.1537957, 51.7906069]}},
{"type": "Feature", "id": "P9sZniKvFCOSqLLWGWXaIAIhMJc=", "properties": {"ref": "3095", "@spider": "game_gb", "shop": "video_games", "addr:street_address": "30 Market Walk", "addr:city": "CHORLEY", "addr:state": "Lancashire", "addr:postcode": "PR7 1DE", "addr:country": "GB", "name": "GAME CHORLEY", "website": "https://storefinder.game.co.uk/game/stores/3095/CHORLEY", "image": "https://cdn.game.net/image/upload/gmStore/StoreFront/3095SF", "brand": "Game", "brand:wikidata": "Q5519813", "nsi_id": "game-b2f4fe"}, "geometry": {"type": "Point", "coordinates": [-2.630893, 53.653229]}},
{"type": "Feature", "id": "IbrmP_cIaVEKIGNfEkCmyt6LhB0=", "properties": {"ref": "2421", "@spider": "game_gb", "shop": "video_games", "addr:street_address": "Unit 2, 48 East Street", "addr:city": "Chichester", "addr:state": "West Sussex", "addr:postcode": "PO19 1HX", "addr:country": "GB", "name": "GAME Chichester", "website": "https://storefinder.game.co.uk/game/stores/2421/Chichester", "brand": "Game", "brand:wikidata": "Q5519813", "located_in": "Sports Direct", "located_in:wikidata": "Q7579661", "nsi_id": "game-b2f4fe"}, "geometry": {"type": "Point", "coordinates": [-0.7776429, 50.8363749]}},
{"type": "Feature", "id": "ekEieSglgyRyj4UCho4Zb9z5oKY=", "properties": {"ref": "3053", "@spider": "game_gb", "shop": "video_games", "addr:street_address": "26 Burlington Street", "addr:city": "CHESTERFIELD", "addr:state": "Derbyshire", "addr:postcode": "S40 1RR", "addr:country": "GB", "name": "GAME CHESTERFIELD", "website": "https://storefinder.game.co.uk/game/stores/3053/CHESTERFIELD", "image": "https://cdn.game.net/image/upload/gmStore/StoreFront/Chesterfield_Terry_Railton", "brand": "Game", "brand:wikidata": "Q5519813", "nsi_id": "game-b2f4fe"}, "geometry": {"type": "Point", "coordinates": [-1.427638, 53.235543]}},
{"type": "Feature", "id": "fJzjicIwiORzaKIY1564XsD174w=", "properties": {"ref": "2295", "@spider": "game_gb", "shop": "video_games", "addr:street_address": "Unit 3, Brookfield Retail Park, Halfhide Lane", "addr:city": "Cheshunt, Waltham Cross", "addr:state": "Hertfordshire", "addr:postcode": "EN8 0QL", "addr:country": "GB", "name": "GAME Cheshunt", "website": "https://storefinder.game.co.uk/game/stores/2295/Cheshunt", "image": "https://cdn.game.net/image/upload/gmStore/StoreFront/Game_Cheshunt_Front_2295_Carl_Edlin", "brand": "Game", "brand:wikidata": "Q5519813", "located_in": "Sports Direct", "located_in:wikidata": "Q7579661", "nsi_id": "game-b2f4fe"}, "geometry": {"type": "Point", "coordinates": [-0.0420232, 51.7235736]}},
{"type": "Feature", "id": "hBAh7FHc9WrF54Vx7EHnJA6gfW0=", "properties": {"ref": "2311", "@spider": "game_gb", "shop": "video_games", "addr:street_address": "32-48 The Promenade", "addr:city": "Cheltenham", "addr:state": "Gloucestershire", "addr:postcode": "GL50 1HP", "addr:country": "GB", "name": "GAME Cheltenham", "website": "https://storefinder.game.co.uk/game/stores/2311/Cheltenham", "image": "https://cdn.game.net/image/upload/gmStore/StoreFront/Cheltenham_Nicola_Clarkechapman", "brand": "Game", "brand:wikidata": "Q5519813", "located_in": "House of Fraser", "located_in:wikidata": "Q5928422", "nsi_id": "game-b2f4fe"}, "geometry": {"type": "Point", "coordinates": [-2.0779522, 51.8996294]}},
{"type": "Feature", "id": "3hOeYlk4KovZp9UiFaYDZPOBmGo=", "properties": {"ref": "3", "@spider": "game_gb", "shop": "video_games", "addr:street_address": "48 Pentagon Centre", "addr:city": "CHATHAM", "addr:state": "Kent", "addr:postcode": "ME4 4HP", "addr:country": "GB", "name": "GAME Chatham", "website": "https://storefinder.game.co.uk/game/stores/3/Chatham", "image": "https://cdn.game.net/image/upload/gmStore/StoreFront/0003_Chatham_Exterior", "brand": "Game", "brand:wikidata": "Q5519813", "nsi_id": "game-b2f4fe"}, "geometry": {"type": "Point", "coordinates": [0.524958, 51.382864]}},
{"type": "Feature", "id": "DcLV3ZVrxUByGYkmSOMxZSvOzAU=", "properties": {"ref": "663", "@spider": "game_gb", "shop": "video_games", "addr:street_address": "UNIT F113 CARWOOD RD, GLASSHOUGHTON", "addr:city": "CASTLEFORD", "addr:state": "UK", "addr:postcode": "WF10 4SB", "addr:country": "GB", "name": "GAME Castleford", "website": "https://storefinder.game.co.uk/game/stores/663/Castleford", "image": "https://cdn.game.net/image/upload/gmStore/StoreFront/0663_Castleford_Exterior", "brand": "Game", "brand:wikidata": "Q5519813", "nsi_id": "game-b2f4fe"}, "geometry": {"type": "Point", "coordinates": [-1.336338, 53.712376]}},
{"type": "Feature", "id": "vcx7lOmjVpPynLbIn4ND2NS3w7Q=", "properties": {"ref": "2263", "@spider": "game_gb", "shop": "video_games", "addr:street_address": "Unit 2, Pensarn Retail Pk, Stephens Way", "addr:city": "Carmarthen", "addr:state": "Carmarthen", "addr:postcode": "SA31 2BG", "addr:country": "GB", "name": "GAME Carmarthen", "website": "https://storefinder.game.co.uk/game/stores/2263/Carmarthen", "image": "https://cdn.game.net/image/upload/gmStore/StoreFront/Carmarthen_2263_entrance_Graham_Evans", "brand": "Game", "brand:wikidata": "Q5519813", "located_in": "Sports Direct", "located_in:wikidata": "Q7579661", "nsi_id": "game-b2f4fe"}, "geometry": {"type": "Point", "coordinates": [-4.30741, 51.850262]}},
{"type": "Feature", "id": "JizE-bVSvPHmZdNATGLhNiHxLLA=", "properties": {"ref": "2488", "@spider": "game_gb", "shop": "video_games", "addr:street_address": "Unit 1, 42-48 Scotch Street", "addr:city": "Carlisle", "addr:state": "Cumbria", "addr:postcode": "CA3 8PN", "addr:country": "GB", "name": "GAME Carlisle", "website": "https://storefinder.game.co.uk/game/stores/2488/Carlisle", "image": "https://cdn.game.net/image/upload/gmStore/StoreFront/Carlisle_SD_front_of_store", "brand": "Game", "brand:wikidata": "Q5519813", "located_in": "Sports Direct", "located_in:wikidata": "Q7579661", "nsi_id": "game-b2f4fe"}, "geometry": {"type": "Point", "coordinates": [-2.935836, 54.895114]}},
{"type": "Feature", "id": "CZasGUXrwfz18Yv6NMpCv6-wsag=", "properties": {"ref": "2373", "@spider": "game_gb", "shop": "video_games", "addr:street_address": "26-40 English Street", "addr:city": "Carlisle", "addr:state": "Cumbria", "addr:postcode": "CA3 8HU", "addr:country": "GB", "name": "GAME Carlisle HOF", "website": "https://storefinder.game.co.uk/game/stores/2373/Carlisle-HOF", "image": "https://cdn.game.net/image/upload/gmStore/StoreFront/Carlisle_out", "brand": "Game", "brand:wikidata": "Q5519813", "located_in": "House of Fraser", "located_in:wikidata": "Q5928422", "nsi_id": "game-b2f4fe"}, "geometry": {"type": "Point", "coordinates": [-2.92529, 54.5979]}},
{"type": "Feature", "id": "IMOn-bkhc3z6-C4pzYH0g-ttrU4=", "properties": {"ref": "2259", "@spider": "game_gb", "shop": "video_games", "addr:street_address": "Unit MSU10, St Davids 2, St Davids Centre", "addr:city": "Cardiff", "addr:state": "Glamorgan", "addr:postcode": "CF10 2DP", "addr:country": "GB", "name": "GAME Cardiff St Davids", "website": "https://storefinder.game.co.uk/game/stores/2259/Cardiff-St-Davids-", "image": "https://cdn.game.net/image/upload/gmStore/StoreFront/2259_Cardiff_SPD_Outside_Kerry_Bowen", "brand": "Game", "brand:wikidata": "Q5519813", "located_in": "Sports Direct", "located_in:wikidata": "Q7579661", "nsi_id": "game-b2f4fe"}, "geometry": {"type": "Point", "coordinates": [-3.17512, 51.47996]}},
{"type": "Feature", "id": "fc5pTpcVkDR-kFbCbE-RVB7J8po=", "properties": {"ref": "2423", "@spider": "game_gb", "shop": "video_games", "addr:street_address": "The Capital Retail Park", "addr:city": "Cardiff", "addr:state": "Cardiff", "addr:postcode": "CF11 8EG", "addr:country": "GB", "name": "GAME Cardiff Leckwith", "website": "https://storefinder.game.co.uk/game/stores/2423/Cardiff-Leckwith", "image": "https://cdn.game.net/image/upload/gmStore/StoreFront/Leckwith_Concession_1_Michael_Morton", "brand": "Game", "brand:wikidata": "Q5519813", "located_in": "Sports Direct", "located_in:wikidata": "Q7579661", "nsi_id": "game-b2f4fe"}, "geometry": {"type": "Point", "coordinates": [-3.2074649, 51.4705988]}},
{"type": "Feature", "id": "_bra-sQHVFHwQCGQHW2mgxPEJ68=", "properties": {"ref": "2305", "@spider": "game_gb", "shop": "video_games", "addr:street_address": "14-18 St Mary's Street", "addr:city": "Cardiff", "addr:state": "Cardiff", "addr:postcode": "CF10 1TT", "addr:country": "GB", "name": "GAME Cardiff", "website": "https://storefinder.game.co.uk/game/stores/2305/Cardiff", "image": "https://cdn.game.net/image/upload/gmStore/StoreFront/Cardiff_2305_Outside_1_Kerry_Bowen", "brand": "Game", "brand:wikidata": "Q5519813", "located_in": "House of Fraser", "located_in:wikidata": "Q5928422", "nsi_id": "game-b2f4fe"}, "geometry": {"type": "Point", "coordinates": [-3.17828, 51.47983]}},
{"type": "Feature", "id": "XmZ5C7cweWIYsvA-eNnKTXBwGMI=", "properties": {"ref": "2247", "@spider": "game_gb", "shop": "video_games", "addr:street_address": "Ground Floor, Unit 2B Stour Retail Park", "addr:city": "Canterbury", "addr:state": "Kent", "addr:postcode": "CT1 1AD", "addr:country": "GB", "name": "GAME Canterbury", "website": "https://storefinder.game.co.uk/game/stores/2247/Canterbury", "image": "https://cdn.game.net/image/upload/gmStore/StoreFront/Canterbury_2247_Front_of_Store_Ross_Newman", "brand": "Game", "brand:wikidata": "Q5519813", "located_in": "Sports Direct", "located_in:wikidata": "Q7579661", "nsi_id": "game-b2f4fe"}, "geometry": {"type": "Point", "coordinates": [1.10783, 51.29197]}},
{"type": "Feature", "id": "lzCdDLw1dRQ6Lsp8Pd0ud8itabs=", "properties": {"ref": "680", "@spider": "game_gb", "shop": "video_games", "addr:street_address": "UNIT 8B SHOPPING CENTRE, Market Hall Street", "addr:city": "CANNOCK", "addr:state": "Staffordshire", "addr:postcode": "WS11 1EB", "addr:country": "GB", "name": "GAME Cannock", "website": "https://storefinder.game.co.uk/game/stores/680/Cannock", "image": "https://cdn.game.net/image/upload/gmStore/StoreFront/20220211_100338_Dean_Floyd", "brand": "Game", "brand:wikidata": "Q5519813", "nsi_id": "game-b2f4fe"}, "geometry": {"type": "Point", "coordinates": [-2.031037, 52.689458]}},
{"type": "Feature", "id": "PBAw9a-uRqd-djxqEUGua3EVSQw=", "properties": {"ref": "3056", "@spider": "game_gb", "shop": "video_games", "addr:street_address": "11 Fitzroy Street", "addr:city": "CAMBRIDGE", "addr:state": "Cambridgeshire", "addr:postcode": "CB1 1ER", "addr:country": "GB", "name": "GAME CAMBRIDGE (Fitzroy ST)", "website": "https://storefinder.game.co.uk/game/stores/3056/CAMBRIDGE--Fitzroy-ST", "image": "https://cdn.game.net/image/upload/gmStore/StoreFront/3056_Cambridge_Exterior.", "brand": "Game", "brand:wikidata": "Q5519813", "nsi_id": "game-b2f4fe"}, "geometry": {"type": "Point", "coordinates": [0.129369, 52.206357]}},
{"type": "Feature", "id": "NQHaExRjvvyX8dp5_nYyQk_mYPM=", "properties": {"ref": "2318", "@spider": "game_gb", "shop": "video_games", "addr:street_address": "45-51 Park Street", "addr:city": "Camberley", "addr:state": "Surrey", "addr:postcode": "GU15 3PG", "addr:country": "GB", "name": "GAME Camberley HOF", "website": "https://storefinder.game.co.uk/game/stores/2318/Camberley-HOF", "brand": "Game", "brand:wikidata": "Q5519813", "located_in": "HoF", "nsi_id": "game-b2f4fe"}, "geometry": {"type": "Point", "coordinates": [-0.747676, 51.336993]}},
{"type": "Feature", "id": "7dpqL9h6SoOK6eIxJEWdUDRubiI=", "properties": {"ref": "2250", "@spider": "game_gb", "shop": "video_games", "addr:street_address": "Unit B8 The Atrium", "addr:city": "Camberley", "addr:state": "Surrey", "addr:postcode": "GU15 3PE", "addr:country": "GB", "name": "GAME Camberley", "website": "https://storefinder.game.co.uk/game/stores/2250/Camberley", "image": "https://cdn.game.net/image/upload/gmStore/StoreFront/Camberley_2860_Kelly_Allkins", "brand": "Game", "brand:wikidata": "Q5519813", "located_in": "Sports Direct", "located_in:wikidata": "Q7579661", "nsi_id": "game-b2f4fe"}, "geometry": {"type": "Point", "coordinates": [-0.74744, 51.33614]}},
{"type": "Feature", "id": "6oSQWW3vf7axqAeIpjYXw7hqkIk=", "properties": {"ref": "3288", "@spider": "game_gb", "shop": "video_games", "addr:street_address": "27 Castle Shopping Centre", "addr:city": "CAERPHILLY", "addr:state": "South Wales", "addr:postcode": "CF83 1NU", "addr:country": "GB", "name": "GAME CAERPHILLY", "website": "https://storefinder.game.co.uk/game/stores/3288/CAERPHILLY", "image": "https://cdn.game.net/image/upload/gmStore/StoreFront/3288_Caerphilly_Exterior", "brand": "Game", "brand:wikidata": "Q5519813", "nsi_id": "game-b2f4fe"}, "geometry": {"type": "Point", "coordinates": [-3.217907, 51.575493]}},
{"type": "Feature", "id": "UgAyj-YyAXix0YWLwlrBmpDQYg0=", "properties": {"ref": "656", "@spider": "game_gb", "shop": "video_games", "addr:street_address": "42A BUTTER MARKET", "addr:city": "BURY ST  EDMUNDS", "addr:state": "Suffolk", "addr:postcode": "IP33 1DX", "addr:country": "GB", "name": "GAME Bury St Edmunds", "website": "https://storefinder.game.co.uk/game/stores/656/Bury-St-Edmunds", "image": "https://cdn.game.net/image/upload/gmStore/StoreFront/656SF", "brand": "Game", "brand:wikidata": "Q5519813", "nsi_id": "game-b2f4fe"}, "geometry": {"type": "Point", "coordinates": [0.712854, 52.245639]}},
{"type": "Feature", "id": "jm7Of3Sxriss2nhOWTUG3yUJIUU=", "properties": {"ref": "308", "@spider": "game_gb", "shop": "video_games", "addr:street_address": "Unit F02, The Rock", "addr:city": "BURY", "addr:state": "Greater Manchester", "addr:postcode": "BL9 0JN", "addr:country": "GB", "name": "GAME Bury", "website": "https://storefinder.game.co.uk/game/stores/308/Bury", "image": "https://cdn.game.net/image/upload/gmStore/StoreFront/0308_Bury_Exterior", "brand": "Game", "brand:wikidata": "Q5519813", "nsi_id": "game-b2f4fe"}, "geometry": {"type": "Point", "coordinates": [-2.30517, 53.596082]}},
{"type": "Feature", "id": "yOHKi0ywdpOe8qQHW_thX0Iaqzo=", "properties": {"ref": "3252", "@spider": "game_gb", "shop": "video_games", "addr:street_address": "6-8 Dame Paulet Walk", "addr:city": "BURTON ON TRENT", "addr:state": "Staffordshire", "addr:postcode": "DE14 1DQ", "addr:country": "GB", "name": "GAME BURTON ON TRENT", "website": "https://storefinder.game.co.uk/game/stores/3252/BURTON-ON-TRENT", "image": "https://cdn.game.net/image/upload/gmStore/StoreFront/3252SF", "brand": "Game", "brand:wikidata": "Q5519813", "nsi_id": "game-b2f4fe"}, "geometry": {"type": "Point", "coordinates": [-1.6336, 52.801269]}},
{"type": "Feature", "id": "x2z65QofizhDKhqE6PgU2xXkH-Q=", "properties": {"ref": "159", "@spider": "game_gb", "shop": "video_games", "addr:street_address": "101/103 St James Street", "addr:city": "BURNLEY", "addr:state": "Lancashire", "addr:postcode": "BB11 1PY", "addr:country": "GB", "name": "GAME Burnley", "website": "https://storefinder.game.co.uk/game/stores/159/Burnley", "image": "https://cdn.game.net/image/upload/gmStore/StoreFront/0159_Burnley_Exterior", "brand": "Game", "brand:wikidata": "Q5519813", "nsi_id": "game-b2f4fe"}, "geometry": {"type": "Point", "coordinates": [-2.245867, 53.789463]}},
{"type": "Feature", "id": "dGNnAzp9BEFiqAGfcJI9sEYGMh4=", "properties": {"ref": "511", "@spider": "game_gb", "shop": "video_games", "addr:street_address": "Unit 12, The Glades Shopping Centre", "addr:city": "BROMLEY", "addr:state": "Kent", "addr:postcode": "BR1 1DD", "addr:country": "GB", "name": "GAME Bromley", "website": "https://storefinder.game.co.uk/game/stores/511/Bromley", "image": "https://cdn.game.net/image/upload/gmStore/StoreFront/bromley", "brand": "Game", "brand:wikidata": "Q5519813", "nsi_id": "game-b2f4fe"}, "geometry": {"type": "Point", "coordinates": [0.015656, 51.403527]}},
{"type": "Feature", "id": "fAz7nGtBnlHSWzasu9aPy-PAFFc=", "properties": {"ref": "2323", "@spider": "game_gb", "shop": "video_games", "addr:street_address": "Cabots Circus", "addr:city": "Bristol", "addr:state": "Avon", "addr:postcode": "BS1 3BB", "addr:country": "GB", "name": "GAME Bristol HOF", "website": "https://storefinder.game.co.uk/game/stores/2323/Bristol-HOF", "image": "https://cdn.game.net/image/upload/gmStore/StoreFront/bris_out", "brand": "Game", "brand:wikidata": "Q5519813", "located_in": "House of Fraser", "located_in:wikidata": "Q5928422", "nsi_id": "game-b2f4fe"}, "geometry": {"type": "Point", "coordinates": [-2.59116, 51.45824]}},
{"type": "Feature", "id": "BJ0DakSTbIF8PsWhZhrALqRFr6A=", "properties": {"ref": "366", "@spider": "game_gb", "shop": "video_games", "addr:street_address": "22-25 MERCHANT STREET", "addr:city": "BRISTOL", "addr:state": "AVON", "addr:postcode": "BS1 3BX", "addr:country": "GB", "name": "GAME BRISTOL MERCHANT ST", "website": "https://storefinder.game.co.uk/game/stores/366/BRISTOL-MERCHANT-ST", "image": "https://cdn.game.net/image/upload/gmStore/StoreFront/0366_Geoff_Urwin", "brand": "Game", "brand:wikidata": "Q5519813", "nsi_id": "game-b2f4fe"}, "geometry": {"type": "Point", "coordinates": [-2.585776, 51.458063]}},
{"type": "Feature", "id": "2XvdxuFn4elqwftLk-Ke3F3_xdI=", "properties": {"ref": "578", "@spider": "game_gb", "shop": "video_games", "addr:street_address": "Unit 94, Churchill Square", "addr:city": "BRIGHTON", "addr:state": "East Sussex", "addr:postcode": "BN1 2TF", "addr:country": "GB", "name": "GAME Brighton", "website": "https://storefinder.game.co.uk/game/stores/578/Brighton", "image": "https://cdn.game.net/image/upload/gmStore/StoreFront/578SF", "brand": "Game", "brand:wikidata": "Q5519813", "nsi_id": "game-b2f4fe"}, "geometry": {"type": "Point", "coordinates": [-0.147198, 50.822554]}},
{"type": "Feature", "id": "JgjDNCcSk201erAmCPTIKajZkvs=", "properties": {"ref": "123", "@spider": "game_gb", "shop": "video_games", "addr:street_address": "Unit L98, Phase 4 Merry Hill", "addr:city": "BRIERLEY HILL", "addr:state": "West Midlands", "addr:postcode": "DY5 1SJ", "addr:country": "GB", "name": "GAME Dudley (Merry Hill)", "website": "https://storefinder.game.co.uk/game/stores/123/Dudley--Merry-Hill", "image": "https://cdn.game.net/image/upload/gmStore/StoreFront/0123_Merry_Hill_Exterior", "brand": "Game", "brand:wikidata": "Q5519813", "nsi_id": "game-b2f4fe"}, "geometry": {"type": "Point", "coordinates": [-2.111875, 52.480842]}},
{"type": "Feature", "id": "IH88jxQchYAmlkZMlLHThR-nXRk=", "properties": {"ref": "2248", "@spider": "game_gb", "shop": "video_games", "addr:street_address": "17-21 Cornhil", "addr:city": "Bridgwater", "addr:state": "Somerset", "addr:postcode": "TA6 3BX", "addr:country": "GB", "name": "GAME Bridgwater", "website": "https://storefinder.game.co.uk/game/stores/2248/Bridgwater", "image": "https://cdn.game.net/image/upload/gmStore/StoreFront/2248_Bridgwater_Geoff_Urwin", "brand": "Game", "brand:wikidata": "Q5519813", "nsi_id": "game-b2f4fe"}, "geometry": {"type": "Point", "coordinates": [-3.00427, 51.12796]}},
{"type": "Feature", "id": "l72DaZ8fjxJRf0BQzWHoteHKCSU=", "properties": {"ref": "184", "@spider": "game_gb", "shop": "video_games", "addr:street_address": "19/20 The Rhiw Centre", "addr:city": "BRIDGEND", "addr:state": "Mid Glamorgan", "addr:postcode": "CF31 3BL", "addr:country": "GB", "name": "GAME Bridgend", "website": "https://storefinder.game.co.uk/game/stores/184/Bridgend", "image": "https://cdn.game.net/image/upload/gmStore/StoreFront/184SF", "brand": "Game", "brand:wikidata": "Q5519813", "nsi_id": "game-b2f4fe"}, "geometry": {"type": "Point", "coordinates": [-3.577681, 51.504664]}},
{"type": "Feature", "id": "c4JP4D5dvbv1Kg9bZ3asQTKd6NE=", "properties": {"ref": "2413", "@spider": "game_gb", "shop": "video_games", "addr:street_address": "Unit D, Brent Cross Shopping Pk, Tilling Rd", "addr:city": "Brent Cross", "addr:state": "London", "addr:postcode": "NW2 1LW", "addr:country": "GB", "name": "GAME Brent Cross", "website": "https://storefinder.game.co.uk/game/stores/2413/Brent-Cross", "image": "https://cdn.game.net/image/upload/gmStore/StoreFront/Brent_Cross_2413_Outside_Dean_Griffin", "brand": "Game", "brand:wikidata": "Q5519813", "located_in": "Sports Direct", "located_in:wikidata": "Q7579661", "nsi_id": "game-b2f4fe"}, "geometry": {"type": "Point", "coordinates": [-0.2322095, 51.5720442]}},
{"type": "Feature", "id": "iLLViMQPZ_axxd6md-j0x0NXpZo=", "properties": {"ref": "2298", "@spider": "game_gb", "shop": "video_games", "addr:street_address": "Unit D, Commerce Centre, Croer Road", "addr:city": "Branksome, Poole", "addr:state": "Dorset", "addr:postcode": "BH12 1DN", "addr:country": "GB", "name": "GAME Poole Branksome", "website": "https://storefinder.game.co.uk/game/stores/2298/Poole-Branksome", "image": "https://cdn.game.net/image/upload/gmStore/StoreFront/Branksome_2298_outside_James_Hazell", "brand": "Game", "brand:wikidata": "Q5519813", "located_in": "Sports Direct", "located_in:wikidata": "Q7579661", "nsi_id": "game-b2f4fe"}, "geometry": {"type": "Point", "coordinates": [-1.9233363, 50.7292666]}},
{"type": "Feature", "id": "XfH9tsRzNzV0GV9u1mzl1_XxRKM=", "properties": {"ref": "2218", "@spider": "game_gb", "shop": "video_games", "addr:street_address": "1st Floor, Unit 1A Braintree Retail Park", "addr:city": "Braintree", "addr:state": "Essex", "addr:postcode": "CM77 8YH", "addr:country": "GB", "name": "GAME Braintree", "website": "https://storefinder.game.co.uk/game/stores/2218/Braintree", "image": "https://cdn.game.net/image/upload/gmStore/StoreFront/braintree_2218_b", "brand": "Game", "brand:wikidata": "Q5519813", "located_in": "Sports Direct", "located_in:wikidata": "Q7579661", "nsi_id": "game-b2f4fe"}, "geometry": {"type": "Point", "coordinates": [0.57299, 51.86942]}},
{"type": "Feature", "id": "SOP4zaszdLXi2vxK85QuwTLSSfY=", "properties": {"ref": "364", "@spider": "game_gb", "shop": "video_games", "addr:street_address": "Unit SU17, 17 Petergate mall", "addr:city": "Bradford", "addr:state": "West Yorkshire", "addr:postcode": "BD1 1AH", "addr:country": "GB", "name": "GAME Bradford", "website": "https://storefinder.game.co.uk/game/stores/364/Bradford", "image": "https://cdn.game.net/image/upload/gmStore/StoreFront/0364_Bradford_Exterior", "brand": "Game", "brand:wikidata": "Q5519813", "nsi_id": "game-b2f4fe"}, "geometry": {"type": "Point", "coordinates": [-1.749636054, 53.79457092]}},
{"type": "Feature", "id": "8DheuEXXQkKDqKEDTOJKQjBMCM0=", "properties": {"ref": "2455", "@spider": "game_gb", "shop": "video_games", "addr:street_address": "7 Princess Square, The Lexicon", "addr:city": "Bracknell", "addr:state": "Berkshire", "addr:postcode": "RG12 1EN", "addr:country": "GB", "name": "GAME Bracknell Princess", "website": "https://storefinder.game.co.uk/game/stores/2455/Bracknell-Princess", "image": "https://cdn.game.net/image/upload/gmStore/StoreFront/Image.", "brand": "Game", "brand:wikidata": "Q5519813", "located_in": "Sports Direct", "located_in:wikidata": "Q7579661", "nsi_id": "game-b2f4fe"}, "geometry": {"type": "Point", "coordinates": [-0.75157, 51.41766]}},
{"type": "Feature", "id": "B5zetOcbpjbNQZdf8m1thbLkxno=", "properties": {"ref": "2254", "@spider": "game_gb", "shop": "video_games", "addr:street_address": "1st Floor, Avenue Centre, Commercial Road", "addr:city": "Bournemouth", "addr:state": "Dorset", "addr:postcode": "BH2 5RP", "addr:country": "GB", "name": "GAME Bournemouth", "website": "https://storefinder.game.co.uk/game/stores/2254/Bournemouth", "image": "https://cdn.game.net/image/upload/gmStore/StoreFront/Bournemouth_2254_outside_James_Hazell", "brand": "Game", "brand:wikidata": "Q5519813", "located_in": "Sports Direct", "located_in:wikidata": "Q7579661", "nsi_id": "game-b2f4fe"}, "geometry": {"type": "Point", "coordinates": [-1.88164, 50.72056]}},
{"type": "Feature", "id": "f-U7DtORNR_X3e86N_F6LuufjCE=", "properties": {"ref": "694", "@spider": "game_gb", "shop": "video_games", "addr:street_address": "Unit 28, The Sovereign Centre, 600 Christchurch Road", "addr:city": "Boscombe", "addr:state": "Bournemouth", "addr:postcode": "BH1 4SX", "addr:country": "GB", "name": "GAME Boscombe", "website": "https://storefinder.game.co.uk/game/stores/694/Boscombe", "image": "https://cdn.game.net/image/upload/gmStore/StoreFront/0694_Boscombe_Exterior", "brand": "Game", "brand:wikidata": "Q5519813", "nsi_id": "game-b2f4fe"}, "geometry": {"type": "Point", "coordinates": [-1.839871, 50.726545]}},
{"type": "Feature", "id": "YpVTnUyh9dV6Idz4JHzPylfN1ik=", "properties": {"ref": "2418", "@spider": "game_gb", "shop": "video_games", "addr:street_address": "Unit 5, Borehamwood Shopping Park", "addr:city": "Borehamwood", "addr:state": "Hertfordshire", "addr:postcode": "WD6 4PR", "addr:country": "GB", "name": "GAME Borehamwood", "website": "https://storefinder.game.co.uk/game/stores/2418/Borehamwood", "image": "https://cdn.game.net/image/upload/gmStore/StoreFront/Borehamwood_2418_Outside_Dean_Griffin", "brand": "Game", "brand:wikidata": "Q5519813", "located_in": "Sports Direct", "located_in:wikidata": "Q7579661", "nsi_id": "game-b2f4fe"}, "geometry": {"type": "Point", "coordinates": [-0.2800194, 51.6565656]}},
{"type": "Feature", "id": "arXRrV1jzHCxE-nlUlVIMRZJ5N0=", "properties": {"ref": "3215", "@spider": "game_gb", "shop": "video_games", "addr:street_address": "315 Stanley Road", "addr:city": "BOOTLE", "addr:state": "Merseyside", "addr:postcode": "L20 3LQ", "addr:country": "GB", "name": "GAME BOOTLE", "website": "https://storefinder.game.co.uk/game/stores/3215/BOOTLE", "image": "https://cdn.game.net/image/upload/gmStore/StoreFront/3215_Bootle_FOS_Graham_Futhey", "brand": "Game", "brand:wikidata": "Q5519813", "nsi_id": "game-b2f4fe"}, "geometry": {"type": "Point", "coordinates": [-2.992314, 53.451225]}},
{"type": "Feature", "id": "-3LSo4ptxY0PZto3he_TIvtBzDI=", "properties": {"ref": "2240", "@spider": "game_gb", "shop": "video_games", "addr:street_address": "5A Victoria Plaza", "addr:city": "Bolton", "addr:state": "Bolton", "addr:postcode": "BL1 1RD", "addr:country": "GB", "name": "GAME Bolton", "website": "https://storefinder.game.co.uk/game/stores/2240/Bolton", "image": "https://cdn.game.net/image/upload/gmStore/StoreFront/Bolton-out", "brand": "Game", "brand:wikidata": "Q5519813", "located_in": "Sports Direct", "located_in:wikidata": "Q7579661", "nsi_id": "game-b2f4fe"}, "geometry": {"type": "Point", "coordinates": [-2.4289, 53.57634]}},
{"type": "Feature", "id": "IIBw5bfSmIZSOT4tL4T7VjIB368=", "properties": {"ref": "2268", "@spider": "game_gb", "shop": "video_games", "addr:street_address": "45 London Road", "addr:city": "Bognor Regis", "addr:state": "West Sussex", "addr:postcode": "PO21 1PQ", "addr:country": "GB", "name": "GAME Bognor Regis", "website": "https://storefinder.game.co.uk/game/stores/2268/Bognor-Regis", "image": "https://cdn.game.net/image/upload/gmStore/StoreFront/Bognor_2883_outside_James_Hazell", "brand": "Game", "brand:wikidata": "Q5519813", "located_in": "Sports Direct", "located_in:wikidata": "Q7579661", "nsi_id": "game-b2f4fe"}, "geometry": {"type": "Point", "coordinates": [-0.67348, 50.78433]}},
{"type": "Feature", "id": "qOwGY8pYb0CzQxB4WgX3xcdho50=", "properties": {"ref": "2225", "@spider": "game_gb", "shop": "video_games", "addr:street_address": "Pricebusters Bldg, Bank Hey St", "addr:city": "Blackpool", "addr:state": "Lancashire", "addr:postcode": "FY1 4RY", "addr:country": "GB", "name": "GAME Blackpool", "website": "https://storefinder.game.co.uk/game/stores/2225/Blackpool", "image": "https://cdn.game.net/image/upload/gmStore/StoreFront/blackpook_inside", "brand": "Game", "brand:wikidata": "Q5519813", "located_in": "Sports Direct", "located_in:wikidata": "Q7579661", "nsi_id": "game-b2f4fe"}, "geometry": {"type": "Point", "coordinates": [-3.05473, 53.81577]}},
{"type": "Feature", "id": "CIt-ijpn9ckxJwf0iyEgbxLYvjQ=", "properties": {"ref": "2452", "@spider": "game_gb", "shop": "video_games", "addr:street_address": "1st Floor, 56 King William Street", "addr:city": "Blackburn", "addr:state": "Lancashire", "addr:postcode": "BB1 7HR", "addr:country": "GB", "name": "GAME Blackburn", "website": "https://storefinder.game.co.uk/game/stores/2452/Blackburn", "brand": "Game", "brand:wikidata": "Q5519813", "located_in": "Sports Direct", "located_in:wikidata": "Q7579661", "nsi_id": "game-b2f4fe"}, "geometry": {"type": "Point", "coordinates": [-2.483825, 53.749363]}},
{"type": "Feature", "id": "wyVodNr02CE6_5DqchmbindpiFQ=", "properties": {"ref": "258", "@spider": "game_gb", "shop": "video_games", "addr:street_address": "Unit 19, Jacksons Square", "addr:city": "BISHOPS STORTFORD", "addr:state": "Essex", "addr:postcode": "CM23 3XQ", "addr:country": "GB", "name": "GAME Bishops Stortford", "website": "https://storefinder.game.co.uk/game/stores/258/Bishops-Stortford", "image": "https://cdn.game.net/image/upload/gmStore/StoreFront/IMG-20220210-WA0012_Robert_Gow", "brand": "Game", "brand:wikidata": "Q5519813", "nsi_id": "game-b2f4fe"}, "geometry": {"type": "Point", "coordinates": [0.159945, 51.870385]}},
{"type": "Feature", "id": "TZtFVX9WlNtR74PfqFUSADEesxw=", "properties": {"ref": "2401", "@spider": "game_gb", "shop": "video_games", "addr:street_address": "Unit 9 Castle Quay", "addr:city": "Banbury", "addr:state": "Oxfordshire", "addr:postcode": "OX16 5UW", "addr:country": "GB", "name": "GAME Banbury", "website": "https://storefinder.game.co.uk/game/stores/2401/Banbury", "image": "https://cdn.game.net/image/upload/gmStore/StoreFront/2401_Banbury_outside_Jagdish_Kumar", "brand": "Game", "brand:wikidata": "Q5519813", "located_in": "Sports Direct", "located_in:wikidata": "Q7579661", "nsi_id": "game-b2f4fe"}, "geometry": {"type": "Point", "coordinates": [-1.33533, 52.06234]}},
{"type": "Feature", "id": "L7ySBQ59V1u3HtVVwoUgT3ubBPc=", "properties": {"ref": "2205", "@spider": "game_gb", "shop": "video_games", "addr:street_address": "MSU1, Tower Centre, 5A Wellington Street", "addr:city": "Ballymena", "addr:state": "Ballymena", "addr:postcode": "BT43 6AH", "addr:country": "GB", "name": "GAME Ballymena", "website": "https://storefinder.game.co.uk/game/stores/2205/Ballymena", "image": "https://cdn.game.net/image/upload/gmStore/StoreFront/Ballymena_2205_SPD_Exterior_Manager_Ballymena_GA", "brand": "Game", "brand:wikidata": "Q5519813", "located_in": "Sports Direct", "located_in:wikidata": "Q7579661", "nsi_id": "game-b2f4fe"}, "geometry": {"type": "Point", "coordinates": [-6.2784, 54.8654]}},
{"type": "Feature", "id": "lr2OpMoIEHwCAX3fwVuDoHibck4=", "properties": {"ref": "2442", "@spider": "game_gb", "shop": "video_games", "addr:street_address": "21 Beresford Terrace", "addr:city": "Ayr", "addr:state": "Ayrshire", "addr:postcode": "KA7 2EU", "addr:country": "GB", "name": "GAME Ayr", "website": "https://storefinder.game.co.uk/game/stores/2442/Ayr", "image": "https://cdn.game.net/image/upload/gmStore/StoreFront/Ayr_SD_2442_store_front_Jonathan_Black", "brand": "Game", "brand:wikidata": "Q5519813", "located_in": "Sports Direct", "located_in:wikidata": "Q7579661", "nsi_id": "game-b2f4fe"}, "geometry": {"type": "Point", "coordinates": [-4.6310327, 55.4566896]}},
{"type": "Feature", "id": "GKzTTIOPtH8B1izzgea8RD0M2Bo=", "properties": {"ref": "2312", "@spider": "game_gb", "shop": "video_games", "addr:street_address": "27 Friars Square", "addr:city": "Aylesbury", "addr:state": "Buckinghamshire", "addr:postcode": "HP20 2SP", "addr:country": "GB", "name": "GAME Aylesbury HOF", "website": "https://storefinder.game.co.uk/game/stores/2312/Aylesbury-HOF", "image": "https://cdn.game.net/image/upload/gmStore/StoreFront/Game_Aylesbury_2312_front_of_store_Carl_Edlin", "brand": "Game", "brand:wikidata": "Q5519813", "located_in": "House of Fraser", "located_in:wikidata": "Q5928422", "nsi_id": "game-b2f4fe"}, "geometry": {"type": "Point", "coordinates": [-0.8156454, 51.8153617]}},
{"type": "Feature", "id": "Rq2fqg0dhxsR_8BBxVglyJEPPFw=", "properties": {"ref": "2450", "@spider": "game_gb", "shop": "video_games", "addr:street_address": "24-28 High Street", "addr:city": "Ashford", "addr:state": "Kent", "addr:postcode": "TN24 8TD", "addr:country": "GB", "name": "GAME Ashford", "website": "https://storefinder.game.co.uk/game/stores/2450/Ashford", "image": "https://cdn.game.net/image/upload/gmStore/StoreInside/GAME_Concession", "brand": "Game", "brand:wikidata": "Q5519813", "located_in": "Sports Direct", "located_in:wikidata": "Q7579661", "nsi_id": "game-b2f4fe"}, "geometry": {"type": "Point", "coordinates": [0.8720921, 51.1491862]}},
{"type": "Feature", "id": "DQZt1E2ILIT8l9gn4mydkblWQ6U=", "properties": {"ref": "2296", "@spider": "game_gb", "shop": "video_games", "addr:street_address": "99 Ormskirk Road", "addr:city": "Aintree", "addr:state": "Merseyside", "addr:postcode": "L9 5AE", "addr:country": "GB", "name": "GAME Aintree", "website": "https://storefinder.game.co.uk/game/stores/2296/Aintree", "image": "https://cdn.game.net/image/upload/gmStore/StoreFront/2296_Aintree_FOS_Graham_Futhey", "brand": "Game", "brand:wikidata": "Q5519813", "located_in": "Sports Direct", "located_in:wikidata": "Q7579661", "nsi_id": "game-b2f4fe"}, "geometry": {"type": "Point", "coordinates": [-2.94192, 53.485519]}},
{"type": "Feature", "id": "mTIg4JhT3W-_g5jGoLhTGOotmn8=", "properties": {"ref": "2237", "@spider": "game_gb", "shop": "video_games", "addr:street_address": "12 Pier Street", "addr:city": "Aberystwyth", "addr:state": "Ceredigion", "addr:postcode": "SY23 2LJ", "addr:country": "GB", "name": "GAME Aberystwyth", "website": "https://storefinder.game.co.uk/game/stores/2237/Aberystwyth", "image": "https://cdn.game.net/image/upload/gmStore/StoreFront/Aberystwyth_2237_store_entrance_Graham_Evans", "brand": "Game", "brand:wikidata": "Q5519813", "located_in": "Sports Direct", "located_in:wikidata": "Q7579661", "nsi_id": "game-b2f4fe"}, "geometry": {"type": "Point", "coordinates": [-4.08642, 52.41467]}},
{"type": "Feature", "id": "ZuQpHaFd1PWDThv8tLJKzFax63c=", "properties": {"ref": "2278", "@spider": "game_gb", "shop": "video_games", "addr:street_address": "Unit 3A, Berryden Retail Park, Berryden Road", "addr:city": "Aberdeen", "addr:state": "Aberdeenshire", "addr:postcode": "AB25 3SG", "addr:country": "GB", "name": "GAME Aberdeen Berryden", "website": "https://storefinder.game.co.uk/game/stores/2278/Aberdeen-Berryden-", "image": "https://cdn.game.net/image/upload/gmStore/StoreFront/A47FFACF-31A3-4C55-976E-5D3D69B5CCC5_Ruari_Begg", "brand": "Game", "brand:wikidata": "Q5519813", "located_in": "Sports Direct", "located_in:wikidata": "Q7579661", "nsi_id": "game-b2f4fe"}, "geometry": {"type": "Point", "coordinates": [-2.1152, 57.15565]}},
{"type": "Feature", "id": "YkB3zE0DuXhGbSEZx8hB1mI3uE8=", "properties": {"ref": "5", "@spider": "game_gb", "shop": "video_games", "addr:street_address": "Unit 37, Bon Accord Centre, George Street", "addr:city": "ABERDEEN", "addr:state": "Grampian", "addr:postcode": "AB25 1HZ", "addr:country": "GB", "name": "GAME Aberdeen", "website": "https://storefinder.game.co.uk/game/stores/5/Aberdeen", "image": "https://cdn.game.net/image/upload/gmStore/StoreFront/1B7E14B8-585C-41B7-97D6-AE247E60A059_Ruari_Begg", "brand": "Game", "brand:wikidata": "Q5519813", "nsi_id": "game-b2f4fe"}, "geometry": {"type": "Point", "coordinates": [-2.10078, 57.148512]}},
{"type": "Feature", "id": "6PWXLEUOaQjZhfFy4LtMkqpbfzs=", "properties": {"ref": "2449", "@spider": "game_gb", "shop": "video_games", "addr:street_address": "MSU 3A, The Swan Shopping Centre, Wells Place", "addr:city": "Eastleigh", "addr:state": "Hampshire", "addr:postcode": "SO50 5SF", "addr:country": "GB", "name": "GAME Eastleigh", "website": "https://storefinder.game.co.uk/game/stores/2449/Eastleigh", "brand": "Game", "brand:wikidata": "Q5519813", "located_in": "Sports Direct", "located_in:wikidata": "Q7579661", "nsi_id": "game-b2f4fe"}, "geometry": {"type": "Point", "coordinates": [-1.3553381, 50.9666509]}},
{"type": "Feature", "id": "TNB9v4VA_v6-LZ6WZjtfjgRAvM4=", "properties": {"ref": "2430", "@spider": "game_gb", "shop": "video_games", "addr:street_address": "4 Broadway", "addr:city": "Accrington", "addr:state": "Lancashire", "addr:postcode": "BB5 1EY", "addr:country": "GB", "name": "GAME Accrington", "website": "https://storefinder.game.co.uk/game/stores/2430/Accrington", "image": "https://cdn.game.net/image/upload/gmStore/StoreFront/7.", "brand": "Game", "brand:wikidata": "Q5519813", "located_in": "Sports Direct", "located_in:wikidata": "Q7579661", "nsi_id": "game-b2f4fe"}, "geometry": {"type": "Point", "coordinates": [-2.3649, 53.7536]}}]}