{"type":"FeatureCollection","features":[{"type": "Feature", "id": "CSwhH_w1K8vU2GPhqCjpDpX0b9s=", "properties": {"ref": "montgomery-selma_perry-hudson", "@spider": "geico", "office": "insurance", "addr:full": "5163 Atlanta Highway", "addr:city": "Montgomery", "addr:state": "AL", "addr:postcode": "36109", "name": "Perry Hudson", "phone": "334-260-0755", "website": "https://www.geico.com/insurance-agents/alabama/montgomery-selma/perry-hudson/", "brand": "GEICO", "brand:wikidata": "Q1498689", "nsi_id": "geico-6b1e37"}, "geometry": {"type": "Point", "coordinates": [-86.221509, 32.382302]}},
{"type": "Feature", "id": "bhqX1CVIJUIulUEbObyNielZkS0=", "properties": {"ref": "mobile_ron-davis", "@spider": "geico", "office": "insurance", "addr:full": "3766 Airport Boulevard, Suite C", "addr:city": "Mobile", "addr:state": "AL", "addr:postcode": "36608", "name": "Ron Davis", "phone": "251-445-0053", "website": "https://www.geico.com/insurance-agents/alabama/mobile/ron-davis/", "brand": "GEICO", "brand:wikidata": "Q1498689", "nsi_id": "geico-6b1e37"}, "geometry": {"type": "Point", "coordinates": [-88.1395229, 30.6768089]}},
{"type": "Feature", "id": "dc6FIBLC6v_TwSGEighmGUUi3Qg=", "properties": {"ref": "huntsville_jason-zarrilli", "@spider": "geico", "office": "insurance", "addr:full": "1410 Paramount Dr. Suite B", "addr:city": "Huntsville", "addr:state": "AL", "addr:postcode": "35806", "name": "Jason Zarrilli", "phone": "256-837-0551", "website": "https://www.geico.com/insurance-agents/alabama/huntsville/jason-zarrilli/", "brand": "GEICO", "brand:wikidata": "Q1498689", "nsi_id": "geico-6b1e37"}, "geometry": {"type": "Point", "coordinates": [-86.6995413, 34.751312]}},
{"type": "Feature", "id": "ot3cjY1VVUQTLLzmDej1pqJYL-0=", "properties": {"ref": "birmingham_rhonda-evans", "@spider": "geico", "office": "insurance", "addr:full": "1631 Montgomery Hwy", "addr:city": "Birmingham", "addr:state": "AL", "addr:postcode": "35216", "name": "Rhonda Evans", "phone": "205-824-4449", "website": "https://www.geico.com/insurance-agents/alabama/birmingham/rhonda-evans/", "brand": "GEICO", "brand:wikidata": "Q1498689", "nsi_id": "geico-6b1e37"}, "geometry": {"type": "Point", "coordinates": [-86.8055965, 33.396828]}},
{"type": "Feature", "id": "sHl_DfQQYRIamp5a785_a280rGM=", "properties": {"ref": "birmingham_greg-armstrong", "@spider": "geico", "office": "insurance", "addr:full": "1423 Gadsden Hwy, Suite 109", "addr:city": "Birmingham", "addr:state": "AL", "addr:postcode": "35235", "name": "Greg Armstrong", "phone": "205-508-6077", "website": "https://www.geico.com/insurance-agents/alabama/birmingham/greg-armstrong/", "brand": "GEICO", "brand:wikidata": "Q1498689", "nsi_id": "geico-6b1e37"}, "geometry": {"type": "Point", "coordinates": [-86.6445231, 33.5962734]}},
{"type": "Feature", "id": "dImq1s9ltcR9P-hhWP9cpzk69D8=", "properties": {"ref": "tallahassee_jim-smith", "@spider": "geico", "office": "insurance", "addr:full": "2508 North Monroe Street", "addr:city": "Tallahassee", "addr:state": "FL", "addr:postcode": "32303", "name": "Jim Smith", "phone": "850-778-4000", "website": "https://www.geico.com/insurance-agents/florida/tallahassee/jim-smith/", "brand": "GEICO", "brand:wikidata": "Q1498689", "nsi_id": "geico-6b1e37"}, "geometry": {"type": "Point", "coordinates": [-84.294715, 30.4739242]}},
{"type": "Feature", "id": "18RXJx08Vm8teYkoFJEOxELTtpA=", "properties": {"ref": "panama-city_jennifer-koppel", "@spider": "geico", "office": "insurance", "addr:full": "1314 North Tyndall Parkway", "addr:city": "Panama City", "addr:state": "FL", "addr:postcode": "32404", "name": "Jennifer Koppel", "phone": "850-785-0538", "website": "https://www.geico.com/insurance-agents/florida/panama-city/jennifer-koppel/", "brand": "GEICO", "brand:wikidata": "Q1498689", "nsi_id": "geico-6b1e37"}, "geometry": {"type": "Point", "coordinates": [-85.5913353, 30.1716112]}},
{"type": "Feature", "id": "ZVYl6MatRoZm4El8jXAebhNHjfM=", "properties": {"ref": "orlando_zachary-ingram", "@spider": "geico", "office": "insurance", "addr:full": "3840 E State Road 436, Suite 1012", "addr:city": "Apopka", "addr:state": "FL", "addr:postcode": "32703", "name": "Zachary Ingram", "phone": "407-551-4350", "website": "https://www.geico.com/insurance-agents/florida/orlando/zachary-ingram/", "brand": "GEICO", "brand:wikidata": "Q1498689", "nsi_id": "geico-6b1e37"}, "geometry": {"type": "Point", "coordinates": [-81.4423835, 28.6688675]}},
{"type": "Feature", "id": "xZBcYgTNidK2F1aJ8tuBE01hAHg=", "properties": {"ref": "orlando_rufus-johnson", "@spider": "geico", "office": "insurance", "addr:full": "921 West International Speedway Boulevard", "addr:city": "Daytona Beach", "addr:state": "FL", "addr:postcode": "32114", "name": "Rufus Johnson", "phone": "386-304-9363", "website": "https://www.geico.com/insurance-agents/florida/orlando/rufus-johnson/", "brand": "GEICO", "brand:wikidata": "Q1498689", "nsi_id": "geico-6b1e37"}, "geometry": {"type": "Point", "coordinates": [-81.0366701, 29.2044265]}},
{"type": "Feature", "id": "Itl0JPySQHjWtW1phy7BsCGrVXI=", "properties": {"ref": "orlando_kyle-bradfield", "@spider": "geico", "office": "insurance", "addr:full": "2395 S Washington Ave, Suite 3", "addr:city": "Titusville", "addr:state": "FL", "addr:postcode": "32780", "name": "Kyle Bradfield", "phone": "321-607-9300", "website": "https://www.geico.com/insurance-agents/florida/orlando/kyle-bradfield/", "brand": "GEICO", "brand:wikidata": "Q1498689", "nsi_id": "geico-6b1e37"}, "geometry": {"type": "Point", "coordinates": [-80.8014848, 28.5870102]}},
{"type": "Feature", "id": "VTxKGebWB28MNfGGno2yW3gDwdM=", "properties": {"ref": "orlando_kathryn-hutton", "@spider": "geico", "office": "insurance", "addr:full": "5005 East Colonial Drive", "addr:city": "Orlando", "addr:state": "FL", "addr:postcode": "32803", "name": "Kathryn Hutton", "phone": "407-897-7157", "website": "https://www.geico.com/insurance-agents/florida/orlando/kathryn-hutton/", "brand": "GEICO", "brand:wikidata": "Q1498689", "nsi_id": "geico-6b1e37"}, "geometry": {"type": "Point", "coordinates": [-81.3234597, 28.5538264]}},
{"type": "Feature", "id": "WOS7EpCBetIZY7SLF65NCqK8WWM=", "properties": {"ref": "orlando_carole-johnson", "@spider": "geico", "office": "insurance", "addr:full": "2105 W Town Center Blvd", "addr:city": "Orlando", "addr:state": "FL", "addr:postcode": "32837", "name": "Carole Johnson", "phone": "407-204-2600", "website": "https://www.geico.com/insurance-agents/florida/orlando/carole-johnson/", "brand": "GEICO", "brand:wikidata": "Q1498689", "nsi_id": "geico-6b1e37"}, "geometry": {"type": "Point", "coordinates": [-81.4074428, 28.3690859]}},
{"type": "Feature", "id": "vffntP2PEzDhh1Gjd2p5o69CNtU=", "properties": {"ref": "orlando_amber-smith", "@spider": "geico", "office": "insurance", "addr:full": "865 Palm Bay Rd. NE St 101", "addr:city": "West Melbourne", "addr:state": "FL", "addr:postcode": "32904", "name": "Amber Smith", "phone": "321-327-6022", "website": "https://www.geico.com/insurance-agents/florida/orlando/amber-smith/", "brand": "GEICO", "brand:wikidata": "Q1498689", "nsi_id": "geico-6b1e37"}, "geometry": {"type": "Point", "coordinates": [-80.6466515, 28.0357374]}},
{"type": "Feature", "id": "zlKVAQiDr7FNyX3wC_dJdGs1d7U=", "properties": {"ref": "mobile_david-thompson", "@spider": "geico", "office": "insurance", "addr:full": "596 East Nine Mile Road, Suite 300", "addr:city": "Pensacola", "addr:state": "FL", "addr:postcode": "32514", "name": "David Thompson", "phone": "850-494-0052", "website": "https://www.geico.com/insurance-agents/florida/mobile/david-thompson/", "brand": "GEICO", "brand:wikidata": "Q1498689", "nsi_id": "geico-6b1e37"}, "geometry": {"type": "Point", "coordinates": [-87.2546492, 30.533324]}},
{"type": "Feature", "id": "Ru2PbXM0al8IuZG-_7VhBSOSmbc=", "properties": {"ref": "miami-ft-lauderdale_roxanne-jackson", "@spider": "geico", "office": "insurance", "addr:full": "2595 E Sunrise Blvd.", "addr:city": "Fort Lauderdale", "addr:state": "FL", "addr:postcode": "33304", "name": "Roxanne Jackson", "phone": "954-713-1600", "website": "https://www.geico.com/insurance-agents/florida/miami-ft-lauderdale/roxanne-jackson/", "brand": "GEICO", "brand:wikidata": "Q1498689", "nsi_id": "geico-6b1e37"}, "geometry": {"type": "Point", "coordinates": [-80.1110803, 26.1386443]}},
{"type": "Feature", "id": "F8ua4gabTffRILH3UI6Is8Q-Yuk=", "properties": {"ref": "miami-ft-lauderdale_mario-sueiras", "@spider": "geico", "office": "insurance", "addr:full": "8514 Southwest 8th Street", "addr:city": "Miami", "addr:state": "FL", "addr:postcode": "33144", "name": "Mario Sueiras", "phone": "305-595-2911", "website": "https://www.geico.com/insurance-agents/florida/miami-ft-lauderdale/mario-sueiras/", "brand": "GEICO", "brand:wikidata": "Q1498689", "nsi_id": "geico-6b1e37"}, "geometry": {"type": "Point", "coordinates": [-80.3343879, 25.7610384]}},
{"type": "Feature", "id": "wCiWveywyQawDZ1Ttbc3EzGF8wY=", "properties": {"ref": "madison_ethan-sherman", "@spider": "geico", "office": "insurance", "addr:full": "668 N High Point Rd", "addr:city": "Madison", "addr:state": "WI", "addr:postcode": "53717", "name": "Ethan Sherman", "phone": "608-841-4380", "website": "https://www.geico.com/insurance-agents/wisconsin/madison/ethan-sherman/", "brand": "GEICO", "brand:wikidata": "Q1498689", "nsi_id": "geico-6b1e37"}, "geometry": {"type": "Point", "coordinates": [-89.5192225, 43.0745299]}},
{"type": "Feature", "id": "sMghJ7s74wdnAsLejD1wcSe3ZWY=", "properties": {"ref": "pittsburgh_james-robinson", "@spider": "geico", "office": "insurance", "addr:full": "918 Chestnut Ridge Road, Suite 1", "addr:city": "Morgantown", "addr:state": "WV", "addr:postcode": "26505", "name": "James Robinson", "phone": "304-225-3551", "website": "https://www.geico.com/insurance-agents/west-virginia/pittsburgh/james-robinson/", "brand": "GEICO", "brand:wikidata": "Q1498689", "nsi_id": "geico-6b1e37"}, "geometry": {"type": "Point", "coordinates": [-79.9542001, 39.6571938]}},
{"type": "Feature", "id": "-zF73erKycgj3QU67Elq_6r41yY=", "properties": {"ref": "charleston_steve-robinson", "@spider": "geico", "office": "insurance", "addr:full": "3806 MacCorkle Avenue Southeast", "addr:city": "Charleston", "addr:state": "WV", "addr:postcode": "25304", "name": "Steve Robinson", "phone": "304-344-0555", "website": "https://www.geico.com/insurance-agents/west-virginia/charleston/steve-robinson/", "brand": "GEICO", "brand:wikidata": "Q1498689", "nsi_id": "geico-6b1e37"}, "geometry": {"type": "Point", "coordinates": [-81.5928382, 38.3277323]}},
{"type": "Feature", "id": "mPwQhV82CHYbmhmbb--W1AancH8=", "properties": {"ref": "spokane_dan-cantillana", "@spider": "geico", "office": "insurance", "addr:full": "4201 N Division St.", "addr:city": "Spokane", "addr:state": "WA", "addr:postcode": "99207", "name": "Dan Cantillana", "phone": "509-328-1422", "website": "https://www.geico.com/insurance-agents/washington/spokane/dan-cantillana/", "brand": "GEICO", "brand:wikidata": "Q1498689", "nsi_id": "geico-6b1e37"}, "geometry": {"type": "Point", "coordinates": [-117.411718, 47.6966233]}},
{"type": "Feature", "id": "9dsppsDZxxoAlzx8GQ5pE6OWzKg=", "properties": {"ref": "seattle-tacoma_rick-stevens", "@spider": "geico", "office": "insurance", "addr:full": "12930 Pacific Highway Southwest, Suite A", "addr:city": "Lakewood", "addr:state": "WA", "addr:postcode": "98499", "name": "Rick Stevens", "phone": "253-584-7755", "website": "https://www.geico.com/insurance-agents/washington/seattle-tacoma/rick-stevens/", "brand": "GEICO", "brand:wikidata": "Q1498689", "nsi_id": "geico-6b1e37"}, "geometry": {"type": "Point", "coordinates": [-122.5213708, 47.1398635]}},
{"type": "Feature", "id": "0NJ9isWwNjzlsGZB5jRKDl4A2Fk=", "properties": {"ref": "seattle-tacoma_randy-dubois", "@spider": "geico", "office": "insurance", "addr:full": "14310 Northeast 20th Street, Suite A", "addr:city": "Bellevue", "addr:state": "WA", "addr:postcode": "98007", "name": "Randy DuBois", "phone": "425-454-1026", "website": "https://www.geico.com/insurance-agents/washington/seattle-tacoma/randy-dubois/", "brand": "GEICO", "brand:wikidata": "Q1498689", "nsi_id": "geico-6b1e37"}, "geometry": {"type": "Point", "coordinates": [-122.1498174, 47.6282849]}},
{"type": "Feature", "id": "hPrnmGqvAB8yVCfJr68X8FzNuBY=", "properties": {"ref": "seattle-tacoma_kevin-krieger", "@spider": "geico", "office": "insurance", "addr:full": "10705 Silverdale Way NW, Suite 100", "addr:city": "Silverdale", "addr:state": "WA", "addr:postcode": "98383", "name": "Kevin Krieger", "phone": "360-692-1117", "website": "https://www.geico.com/insurance-agents/washington/seattle-tacoma/kevin-krieger/", "brand": "GEICO", "brand:wikidata": "Q1498689", "nsi_id": "geico-6b1e37"}, "geometry": {"type": "Point", "coordinates": [-122.6864214, 47.6599715]}},
{"type": "Feature", "id": "HsRDOCjFvttPi_I8kn70zLCxhfU=", "properties": {"ref": "washington-dc_thomas-king", "@spider": "geico", "office": "insurance", "addr:full": "3595 Plank Road", "addr:city": "Fredericksburg", "addr:state": "VA", "addr:postcode": "22407", "name": "Tom King", "phone": "540-736-6571", "website": "https://www.geico.com/insurance-agents/virginia/washington-dc/thomas-king/", "brand": "GEICO", "brand:wikidata": "Q1498689", "nsi_id": "geico-6b1e37"}, "geometry": {"type": "Point", "coordinates": [-77.5224765, 38.2937977]}},
{"type": "Feature", "id": "5QU-DfvaRdJqvPYlaTEHi4RaDLg=", "properties": {"ref": "washington-dc_matthew-mccarthy", "@spider": "geico", "office": "insurance", "addr:full": " 4617 Duke Street", "addr:city": "Alexandria", "addr:state": "VA", "addr:postcode": "22304", "name": "Matthew McCarthy", "phone": "703-236-1366", "website": "https://www.geico.com/insurance-agents/virginia/washington-dc/matthew-mccarthy/", "brand": "GEICO", "brand:wikidata": "Q1498689", "nsi_id": "geico-6b1e37"}, "geometry": {"type": "Point", "coordinates": [-77.112234, 38.8131667]}},
{"type": "Feature", "id": "ERJgrV-Gu_6Bi13e0mSRmG-fVUU=", "properties": {"ref": "washington-dc_doug-white", "@spider": "geico", "office": "insurance", "addr:full": " 21430 Cedar Drive, Unit 104", "addr:city": "Sterling", "addr:state": "VA", "addr:postcode": "20164", "name": "Doug White", "phone": "703-439-5311", "website": "https://www.geico.com/insurance-agents/virginia/washington-dc/doug-white/", "brand": "GEICO", "brand:wikidata": "Q1498689", "nsi_id": "geico-6b1e37"}, "geometry": {"type": "Point", "coordinates": [-77.3785637, 39.0206052]}},
{"type": "Feature", "id": "GGDO36iwN6tu6Z_7P5oDJ9quQTw=", "properties": {"ref": "washington-dc_david-stinson", "@spider": "geico", "office": "insurance", "addr:full": "6446 Trading Square", "addr:city": "Haymarket", "addr:state": "VA", "addr:postcode": "20169", "name": "David Stinson Sr.", "phone": "703-754-3555", "website": "https://www.geico.com/insurance-agents/virginia/washington-dc/david-stinson/", "brand": "GEICO", "brand:wikidata": "Q1498689", "nsi_id": "geico-6b1e37"}, "geometry": {"type": "Point", "coordinates": [-77.6427618, 38.8168852]}},
{"type": "Feature", "id": "3eEZOTS3_R5fDofjA2yGcYjjOFU=", "properties": {"ref": "roanoke_michael-craft", "@spider": "geico", "office": "insurance", "addr:full": "4750 Valley View Boulevard, Suite 20", "addr:city": "Roanoke", "addr:state": "VA", "addr:postcode": "24012", "name": "Michael Craft", "phone": "540-985-6550", "website": "https://www.geico.com/insurance-agents/virginia/roanoke/michael-craft/", "brand": "GEICO", "brand:wikidata": "Q1498689", "nsi_id": "geico-6b1e37"}, "geometry": {"type": "Point", "coordinates": [-79.9563581, 37.301586]}},
{"type": "Feature", "id": "CUCUTQQh743d_gtxs7tEDvCwpzI=", "properties": {"ref": "richmond_kelly-garrison", "@spider": "geico", "office": "insurance", "addr:full": "8405 West Broad Street", "addr:city": "Richmond", "addr:state": "VA", "addr:postcode": "23294", "name": "Kelly Garrison", "phone": "804-934-0222", "website": "https://www.geico.com/insurance-agents/virginia/richmond/kelly-garrison/", "brand": "GEICO", "brand:wikidata": "Q1498689", "nsi_id": "geico-6b1e37"}, "geometry": {"type": "Point", "coordinates": [-77.5387103, 37.6314504]}},
{"type": "Feature", "id": "gtxTekSO31LTQDuIZS5rJx2inoI=", "properties": {"ref": "richmond_brian-cory", "@spider": "geico", "office": "insurance", "addr:full": " 8010 Midlothian Turnpike", "addr:city": "Richmond", "addr:state": "VA", "addr:postcode": "23235", "name": "Brian Cory", "phone": "804-591-4797", "website": "https://www.geico.com/insurance-agents/virginia/richmond/brian-cory/", "brand": "GEICO", "brand:wikidata": "Q1498689", "nsi_id": "geico-6b1e37"}, "geometry": {"type": "Point", "coordinates": [-77.5444095, 37.4981299]}},
{"type": "Feature", "id": "QF6pmU-HKBv_1eVCaHY9BeBFQig=", "properties": {"ref": "norfolk_mike-pagan", "@spider": "geico", "office": "insurance", "addr:full": " 109 Volvo Parkway, Suite 5", "addr:city": "Chesapeake", "addr:state": "VA", "addr:postcode": "23320", "name": "Mike Pagan", "phone": "757-549-1772", "website": "https://www.geico.com/insurance-agents/virginia/norfolk/mike-pagan/", "brand": "GEICO", "brand:wikidata": "Q1498689", "nsi_id": "geico-6b1e37"}, "geometry": {"type": "Point", "coordinates": [-76.2485033, 36.7643768]}},
{"type": "Feature", "id": "1glSf2JRNlBEAZKcaZVtvfAhq1M=", "properties": {"ref": "norfolk_greg-holestin", "@spider": "geico", "office": "insurance", "addr:full": "97 Coliseum Crossing", "addr:city": "Hampton", "addr:state": "VA", "addr:postcode": "23666", "name": "Greg Holestin", "phone": "757-838-5050", "website": "https://www.geico.com/insurance-agents/virginia/norfolk/greg-holestin/", "brand": "GEICO", "brand:wikidata": "Q1498689", "nsi_id": "geico-6b1e37"}, "geometry": {"type": "Point", "coordinates": [-76.3923616, 37.0502616]}},
{"type": "Feature", "id": "p2TXEqseQVmEdl2p6lZ3JQUH4UA=", "properties": {"ref": "norfolk_ben-willis", "@spider": "geico", "office": "insurance", "addr:full": " 4389 Virginia Beach Boulevard", "addr:city": "Virginia Beach", "addr:state": "VA", "addr:postcode": "23462", "name": "Ben Willis", "phone": "757-583-2200", "website": "https://www.geico.com/insurance-agents/virginia/norfolk/ben-willis/", "brand": "GEICO", "brand:wikidata": "Q1498689", "nsi_id": "geico-6b1e37"}, "geometry": {"type": "Point", "coordinates": [-76.1258798, 36.8427865]}},
{"type": "Feature", "id": "hbQsgg6_DrBO7HqbFceWGNeCrOY=", "properties": {"ref": "harrisonburg_john-edwards", "@spider": "geico", "office": "insurance", "addr:full": "1854 East Market Street, Suite 102", "addr:city": "Harrisonburg", "addr:state": "VA", "addr:postcode": "22801", "name": "John Edwards", "phone": "540-568-1844", "website": "https://www.geico.com/insurance-agents/virginia/harrisonburg/john-edwards/", "brand": "GEICO", "brand:wikidata": "Q1498689", "nsi_id": "geico-6b1e37"}, "geometry": {"type": "Point", "coordinates": [-78.8408705, 38.4302622]}},
{"type": "Feature", "id": "qlmRywGLUa6ZHQtCv-rtFiDVPt0=", "properties": {"ref": "salt-lake-city_vincenzo-alaimo", "@spider": "geico", "office": "insurance", "addr:full": "2237 S State Street", "addr:city": "Salt Lake City", "addr:state": "UT", "addr:postcode": "84115", "name": "Vincenzo Alaimo", "phone": "801-401-1700", "website": "https://www.geico.com/insurance-agents/utah/salt-lake-city/vincenzo-alaimo/", "brand": "GEICO", "brand:wikidata": "Q1498689", "nsi_id": "geico-6b1e37"}, "geometry": {"type": "Point", "coordinates": [-111.8871799, 40.722088]}},
{"type": "Feature", "id": "-Ts4qrCgGRJeEVTk5N7-QN52Jj0=", "properties": {"ref": "salt-lake-city_rex-olson", "@spider": "geico", "office": "insurance", "addr:full": "1399 W 9000 S", "addr:city": "West Jordan", "addr:state": "UT", "addr:postcode": "84088", "name": "Rex Olson", "phone": "801-262-5200", "website": "https://www.geico.com/insurance-agents/utah/salt-lake-city/rex-olson/", "brand": "GEICO", "brand:wikidata": "Q1498689", "nsi_id": "geico-6b1e37"}, "geometry": {"type": "Point", "coordinates": [-111.9314728, 40.5870276]}},
{"type": "Feature", "id": "oj9R2JtNJrBEj3D__JfTg2psquo=", "properties": {"ref": "salt-lake-city_john-chatwin", "@spider": "geico", "office": "insurance", "addr:full": "594 E 800 S, Suite 101", "addr:city": "Orem", "addr:state": "UT", "addr:postcode": "84097", "name": "John Chatwin", "phone": "801-607-9852", "website": "https://www.geico.com/insurance-agents/utah/salt-lake-city/john-chatwin/", "brand": "GEICO", "brand:wikidata": "Q1498689", "nsi_id": "geico-6b1e37"}, "geometry": {"type": "Point", "coordinates": [-111.6810316, 40.2818937]}},
{"type": "Feature", "id": "c4WWMwwu_gvrTHHcvWrjupS9mQQ=", "properties": {"ref": "waco-temple-bryan_randy-hardin", "@spider": "geico", "office": "insurance", "addr:full": "3310 E Central Texas Expy, Suite 206", "addr:city": "Killeen", "addr:state": "TX", "addr:postcode": "76543", "name": "Randy Hardin", "phone": "254-526-6696", "website": "https://www.geico.com/insurance-agents/texas/waco-temple-bryan/randy-hardin/", "brand": "GEICO", "brand:wikidata": "Q1498689", "nsi_id": "geico-6b1e37"}, "geometry": {"type": "Point", "coordinates": [-97.7098859, 31.0847834]}},
{"type": "Feature", "id": "JLme5FcFPTbzTNwy4DG9thJ78i8=", "properties": {"ref": "tyler-longview_hunter-chaumont", "@spider": "geico", "office": "insurance", "addr:full": "3709 Troup HWY Suite 300", "addr:city": "Tyler", "addr:state": "TX", "addr:postcode": "75703", "name": "Hunter Chaumont", "phone": "903-508-6591", "website": "https://www.geico.com/insurance-agents/texas/tyler-longview/hunter-chaumont/", "brand": "GEICO", "brand:wikidata": "Q1498689", "nsi_id": "geico-6b1e37"}, "geometry": {"type": "Point", "coordinates": [-95.2739128, 32.3089514]}},
{"type": "Feature", "id": "h2YoUrzU0qqO1FkhAcbopB_lDBE=", "properties": {"ref": "san-antonio_will-ramirez", "@spider": "geico", "office": "insurance", "addr:full": " 1455 Austin Highway", "addr:city": "San Antonio", "addr:state": "TX", "addr:postcode": "78209", "name": "Will Ramirez", "phone": "210-962-6477", "website": "https://www.geico.com/insurance-agents/texas/san-antonio/will-ramirez/", "brand": "GEICO", "brand:wikidata": "Q1498689", "nsi_id": "geico-6b1e37"}, "geometry": {"type": "Point", "coordinates": [-98.4356442, 29.4936907]}},
{"type": "Feature", "id": "XKpRB5e2Ys4M7wCD-YiF6_fxLgU=", "properties": {"ref": "san-antonio_rod-musslewhite", "@spider": "geico", "office": "insurance", "addr:full": "8910 Bandera Road, Suite 110", "addr:city": "San Antonio", "addr:state": "TX", "addr:postcode": "78250", "name": "Rod Musslewhite", "phone": "210-673-2391", "website": "https://www.geico.com/insurance-agents/texas/san-antonio/rod-musslewhite/", "brand": "GEICO", "brand:wikidata": "Q1498689", "nsi_id": "geico-6b1e37"}, "geometry": {"type": "Point", "coordinates": [-98.6405237, 29.5273835]}},
{"type": "Feature", "id": "Xjv2TJ8O0kAPzcuG-9GiMEr-yPM=", "properties": {"ref": "san-antonio_humberto-becerra", "@spider": "geico", "office": "insurance", "addr:full": "1926 SW Military Dr", "addr:city": "San Antonio", "addr:state": "TX", "addr:postcode": "78221", "name": "Humberto Becerra", "phone": "210-806-9000", "website": "https://www.geico.com/insurance-agents/texas/san-antonio/humberto-becerra/", "brand": "GEICO", "brand:wikidata": "Q1498689", "nsi_id": "geico-6b1e37"}, "geometry": {"type": "Point", "coordinates": [-98.5240191, 29.3557843]}},
{"type": "Feature", "id": "b1YCGtBgbp8DYnTBV5_lOksFWGk=", "properties": {"ref": "lubbock_keith-roberts", "@spider": "geico", "office": "insurance", "addr:full": "6010 82nd St.", "addr:city": "Lubbock", "addr:state": "TX", "addr:postcode": "79424", "name": "Keith Roberts", "phone": "806-705-6810", "website": "https://www.geico.com/insurance-agents/texas/lubbock/keith-roberts/", "brand": "GEICO", "brand:wikidata": "Q1498689", "nsi_id": "geico-6b1e37"}, "geometry": {"type": "Point", "coordinates": [-101.9458175, 33.5202327]}},
{"type": "Feature", "id": "msvWcMrlPUXbf9-0DMNffvGCjf0=", "properties": {"ref": "houston_tom-maler", "@spider": "geico", "office": "insurance", "addr:full": "24025 Katy Fwy", "addr:city": "Katy", "addr:state": "TX", "addr:postcode": "77494", "name": "Tom Maler", "phone": "832-500-2020", "website": "https://www.geico.com/insurance-agents/texas/houston/tom-maler/", "brand": "GEICO", "brand:wikidata": "Q1498689", "nsi_id": "geico-6b1e37"}, "geometry": {"type": "Point", "coordinates": [-95.7873117, 29.7844632]}},
{"type": "Feature", "id": "m6d58jTvUUKfzWDbk39-EubVQXI=", "properties": {"ref": "houston_serena-galloway", "@spider": "geico", "office": "insurance", "addr:full": "9402 Highway 6, Suite 200", "addr:city": "Missouri City", "addr:state": "TX", "addr:postcode": "77459", "name": "Serena Galloway", "phone": "346-816-5030", "website": "https://www.geico.com/insurance-agents/texas/houston/serena-galloway/", "brand": "GEICO", "brand:wikidata": "Q1498689", "nsi_id": "geico-6b1e37"}, "geometry": {"type": "Point", "coordinates": [-95.5282125, 29.5363017]}},
{"type": "Feature", "id": "XubJc48V6U_fx9DEm9ZvFDCkcK0=", "properties": {"ref": "houston_katie-kuroski", "@spider": "geico", "office": "insurance", "addr:full": "2640 E League City Pkwy, Suite 106", "addr:city": "League City", "addr:state": "TX", "addr:postcode": "77573", "name": "Katie Kuroski", "phone": "832-737-6200", "website": "https://www.geico.com/insurance-agents/texas/houston/katie-kuroski/", "brand": "GEICO", "brand:wikidata": "Q1498689", "nsi_id": "geico-6b1e37"}, "geometry": {"type": "Point", "coordinates": [-95.0426401, 29.5073956]}},
{"type": "Feature", "id": "NFGrQDijVeC_zeiuFCAtJP5NJU0=", "properties": {"ref": "houston_jerry-coker", "@spider": "geico", "office": "insurance", "addr:full": "1403 Spring Cypress Road, Suite 104", "addr:city": "Spring", "addr:state": "TX", "addr:postcode": "77373", "name": "Jerry Coker", "phone": "713-224-3426", "website": "https://www.geico.com/insurance-agents/texas/houston/jerry-coker/", "brand": "GEICO", "brand:wikidata": "Q1498689", "nsi_id": "geico-6b1e37"}, "geometry": {"type": "Point", "coordinates": [-95.434093, 30.0750721]}},
{"type": "Feature", "id": "D23XDd0kmk_ZxaucxmwINQH-7LQ=", "properties": {"ref": "houston_erik-hirsch", "@spider": "geico", "office": "insurance", "addr:full": "6360 Garth Rd, Suite 115", "addr:city": "Baytown", "addr:state": "TX", "addr:postcode": "77521", "name": "Erik Hirsch", "phone": "832-806-6100", "website": "https://www.geico.com/insurance-agents/texas/houston/erik-hirsch/", "brand": "GEICO", "brand:wikidata": "Q1498689", "nsi_id": "geico-6b1e37"}, "geometry": {"type": "Point", "coordinates": [-94.979821, 29.7942336]}},
{"type": "Feature", "id": "pmimr7Vzb_FmZXMnFCThl2ULCpQ=", "properties": {"ref": "houston_eric-mays", "@spider": "geico", "office": "insurance", "addr:full": "2705 E Broadway Street, Suite 107", "addr:city": "Pearland", "addr:state": "TX", "addr:postcode": "77581", "name": "Eric Mays", "phone": "281-925-4955", "website": "https://www.geico.com/insurance-agents/texas/houston/eric-mays/", "brand": "GEICO", "brand:wikidata": "Q1498689", "nsi_id": "geico-6b1e37"}, "geometry": {"type": "Point", "coordinates": [-95.2582023, 29.5546052]}},
{"type": "Feature", "id": "ZMM6r7gyecA2FLoashn6B8NFyMQ=", "properties": {"ref": "houston_denise-buckley", "@spider": "geico", "office": "insurance", "addr:full": "24324 Northwest Fwy, Suite 500", "addr:city": "Cypress", "addr:state": "TX", "addr:postcode": "77429", "name": "Denise Ramirez-Buckley", "phone": "832-349-7211", "website": "https://www.geico.com/insurance-agents/texas/houston/denise-buckley/", "brand": "GEICO", "brand:wikidata": "Q1498689", "nsi_id": "geico-6b1e37"}, "geometry": {"type": "Point", "coordinates": [-95.6758305, 29.9558788]}},
{"type": "Feature", "id": "j7dhXlO25N4aEwmydk8NvuuoE4Y=", "properties": {"ref": "houston_dave-nelson", "@spider": "geico", "office": "insurance", "addr:full": "12661 West Lake Houston Parkway, Suite D", "addr:city": "Houston", "addr:state": "TX", "addr:postcode": "77044", "name": "Dave Nelson", "phone": "281-925-6733", "website": "https://www.geico.com/insurance-agents/texas/houston/dave-nelson/", "brand": "GEICO", "brand:wikidata": "Q1498689", "nsi_id": "geico-6b1e37"}, "geometry": {"type": "Point", "coordinates": [-95.1969451, 29.9255067]}},
{"type": "Feature", "id": "gHwzLKLw0gN9NcvE0_hc-FkqKXk=", "properties": {"ref": "houston_chadwick-sapenter", "@spider": "geico", "office": "insurance", "addr:full": "400 Promenade Way, Suite 1000", "addr:city": "Sugar Land", "addr:state": "TX", "addr:postcode": "77478", "name": "Chadwick Sapenter", "phone": "346-375-6140", "website": "https://www.geico.com/insurance-agents/texas/houston/chadwick-sapenter/", "brand": "GEICO", "brand:wikidata": "Q1498689", "nsi_id": "geico-6b1e37"}, "geometry": {"type": "Point", "coordinates": [-95.649555, 29.610251]}},
{"type": "Feature", "id": "6zAC6gxgzt-HM5_i24qqF3sT0MM=", "properties": {"ref": "houston_aquarius-johnson", "@spider": "geico", "office": "insurance", "addr:full": "6875 FM-1488, Suite 500", "addr:city": "Magnolia", "addr:state": "TX", "addr:postcode": "77354", "name": "Aquarius Johnson", "phone": "346-416-6500", "website": "https://www.geico.com/insurance-agents/texas/houston/aquarius-johnson/", "brand": "GEICO", "brand:wikidata": "Q1498689", "nsi_id": "geico-6b1e37"}, "geometry": {"type": "Point", "coordinates": [-95.5709579, 30.2201645]}},
{"type": "Feature", "id": "JgcZ8mCM9lmfp5zhfdLgtyHbeeI=", "properties": {"ref": "el-paso_rocio-pinon", "@spider": "geico", "office": "insurance", "addr:full": "3800 N. Mesa St., Suite D4", "addr:city": "El Paso", "addr:state": "TX", "addr:postcode": "79912", "name": "Rocio Pinon", "phone": "915-265-2300", "website": "https://www.geico.com/insurance-agents/texas/el-paso/rocio-pinon/", "brand": "GEICO", "brand:wikidata": "Q1498689", "nsi_id": "geico-6b1e37"}, "geometry": {"type": "Point", "coordinates": [-106.5056192, 31.7870988]}},
{"type": "Feature", "id": "lAYJcSCOV_K-ITOUMep33P1Mqps=", "properties": {"ref": "el-paso_daniel-lucas", "@spider": "geico", "office": "insurance", "addr:full": "6600 Montana Avenue, Suite J", "addr:city": "El Paso", "addr:state": "TX", "addr:postcode": "79925", "name": "Daniel Lucas", "phone": "915-779-2489", "website": "https://www.geico.com/insurance-agents/texas/el-paso/daniel-lucas/", "brand": "GEICO", "brand:wikidata": "Q1498689", "nsi_id": "geico-6b1e37"}, "geometry": {"type": "Point", "coordinates": [-106.3975443, 31.7885817]}},
{"type": "Feature", "id": "84nZSilT21YWz14DGlaLKNyQk1E=", "properties": {"ref": "dallas-fort-worth_victoria-elliott", "@spider": "geico", "office": "insurance", "addr:full": "18671 Lyndon B Johnson Fwy, Suite 500", "addr:city": "Mesquite", "addr:state": "TX", "addr:postcode": "75150", "name": "Victoria Elliott", "phone": "469-357-0900", "website": "https://www.geico.com/insurance-agents/texas/dallas-fort-worth/victoria-elliott/", "brand": "GEICO", "brand:wikidata": "Q1498689", "nsi_id": "geico-6b1e37"}, "geometry": {"type": "Point", "coordinates": [-96.628004, 32.8021402]}},
{"type": "Feature", "id": "0WesWdq0nlWyZihZSEY_GAy5CGk=", "properties": {"ref": "dallas-fort-worth_shayla-boles", "@spider": "geico", "office": "insurance", "addr:full": "3337 Beltline Rd", "addr:city": "Garland", "addr:state": "TX", "addr:postcode": "75044", "name": "Shayla Boles", "phone": "469-808-7950", "website": "https://www.geico.com/insurance-agents/texas/dallas-fort-worth/shayla-boles/", "brand": "GEICO", "brand:wikidata": "Q1498689", "nsi_id": "geico-6b1e37"}, "geometry": {"type": "Point", "coordinates": [-96.6792397, 32.9454393]}},
{"type": "Feature", "id": "u89rd1HYjhy6OYD0_7XIH98EU1o=", "properties": {"ref": "dallas-fort-worth_scott-goldsberry", "@spider": "geico", "office": "insurance", "addr:full": "2219 S. Loop 288, Suite 100", "addr:city": "Denton", "addr:state": "TX", "addr:postcode": "76205", "name": "Scott Goldsberry", "phone": "940-783-4000", "website": "https://www.geico.com/insurance-agents/texas/dallas-fort-worth/scott-goldsberry/", "brand": "GEICO", "brand:wikidata": "Q1498689", "nsi_id": "geico-6b1e37"}, "geometry": {"type": "Point", "coordinates": [-97.1060826, 33.1869737]}},
{"type": "Feature", "id": "z-5WXTSaeqYPgTk3nUv8DKHIYDw=", "properties": {"ref": "dallas-fort-worth_michael-anderson", "@spider": "geico", "office": "insurance", "addr:full": "4608 Bryant Irvin Rd, Suite 412", "addr:city": "Fort Worth", "addr:state": "TX", "addr:postcode": "76132", "name": "Michael Anderson", "phone": "682-291-6550", "website": "https://www.geico.com/insurance-agents/texas/dallas-fort-worth/michael-anderson/", "brand": "GEICO", "brand:wikidata": "Q1498689", "nsi_id": "geico-6b1e37"}, "geometry": {"type": "Point", "coordinates": [-97.4158247, 32.681129]}},
{"type": "Feature", "id": "42Gek996c4M6iLD91iOUleoUoSU=", "properties": {"ref": "dallas-fort-worth_matt-bischof", "@spider": "geico", "office": "insurance", "addr:full": "5733 State Highway 121", "addr:city": "The Colony", "addr:state": "TX", "addr:postcode": "75056", "name": "Matt Bischof", "phone": "469-200-7202", "website": "https://www.geico.com/insurance-agents/texas/dallas-fort-worth/matt-bischof/", "brand": "GEICO", "brand:wikidata": "Q1498689", "nsi_id": "geico-6b1e37"}, "geometry": {"type": "Point", "coordinates": [-96.8637897, 33.0783421]}},
{"type": "Feature", "id": "MHQ7k6Ay9EiZwkz2S0f-8jWUAfs=", "properties": {"ref": "dallas-fort-worth_mandy-bradley", "@spider": "geico", "office": "insurance", "addr:full": "4822 Little Rd", "addr:city": "Arlington", "addr:state": "TX", "addr:postcode": "76017", "name": "Mandy Bradley", "phone": "817-985-5300", "website": "https://www.geico.com/insurance-agents/texas/dallas-fort-worth/mandy-bradley/", "brand": "GEICO", "brand:wikidata": "Q1498689", "nsi_id": "geico-6b1e37"}, "geometry": {"type": "Point", "coordinates": [-97.2029479, 32.6702174]}},
{"type": "Feature", "id": "8MUX5LokUQjU1Zj9KRxrZI6pvZ8=", "properties": {"ref": "dallas-fort-worth_laura-ferring", "@spider": "geico", "office": "insurance", "addr:full": "4630 Long Prairie Road, Suite 200 ", "addr:city": "Flower Mound", "addr:state": "TX", "addr:postcode": "75028", "name": "Laura Ferring", "phone": "469-390-6500", "website": "https://www.geico.com/insurance-agents/texas/dallas-fort-worth/laura-ferring/", "brand": "GEICO", "brand:wikidata": "Q1498689", "nsi_id": "geico-6b1e37"}, "geometry": {"type": "Point", "coordinates": [-97.0687179, 33.048439]}},
{"type": "Feature", "id": "WcTKzrwXdpfJemjuuy6qv8drSfM=", "properties": {"ref": "dallas-fort-worth_jennifer-reed", "@spider": "geico", "office": "insurance", "addr:full": "1001 N I-35 E., Suite 316B", "addr:city": "DeSoto", "addr:state": "TX", "addr:postcode": "75115", "name": "Jennifer Reed", "phone": "469-801-2700", "website": "https://www.geico.com/insurance-agents/texas/dallas-fort-worth/jennifer-reed/", "brand": "GEICO", "brand:wikidata": "Q1498689", "nsi_id": "geico-6b1e37"}, "geometry": {"type": "Point", "coordinates": [-96.8228486, 32.6056222]}},
{"type": "Feature", "id": "Tz4qMQuacmePf7Gm-QgB3zWPlS0=", "properties": {"ref": "dallas-fort-worth_jake-bosse", "@spider": "geico", "office": "insurance", "addr:full": "2455 Ridge Rd Suite 125", "addr:city": "Rockwall", "addr:state": "TX", "addr:postcode": "75087", "name": "Jake Bosse", "phone": "469-745-6900", "website": "https://www.geico.com/insurance-agents/texas/dallas-fort-worth/jake-bosse/", "brand": "GEICO", "brand:wikidata": "Q1498689", "nsi_id": "geico-6b1e37"}, "geometry": {"type": "Point", "coordinates": [-96.4659593, 32.8999367]}},
{"type": "Feature", "id": "qo1bCmLocV9whaA8bdo1kgGEXCw=", "properties": {"ref": "dallas-fort-worth_greg-hilst", "@spider": "geico", "office": "insurance", "addr:full": "750 S Main St. #131 ", "addr:city": "Keller", "addr:state": "TX", "addr:postcode": "76248", "name": "Greg Hilst", "phone": "817-898-6550", "website": "https://www.geico.com/insurance-agents/texas/dallas-fort-worth/greg-hilst/", "brand": "GEICO", "brand:wikidata": "Q1498689", "nsi_id": "geico-6b1e37"}, "geometry": {"type": "Point", "coordinates": [-97.2549187, 32.9230251]}},
{"type": "Feature", "id": "EKRg25VyJaTNymaJMrwoeUfPHsY=", "properties": {"ref": "dallas-fort-worth_amrit-narasimhan", "@spider": "geico", "office": "insurance", "addr:full": "3959 North Belt Line Rd", "addr:city": "Irving", "addr:state": "TX", "addr:postcode": "75038", "name": "Amrit Narasimhan", "phone": "469-276-3710", "website": "https://www.geico.com/insurance-agents/texas/dallas-fort-worth/amrit-narasimhan/", "brand": "GEICO", "brand:wikidata": "Q1498689", "nsi_id": "geico-6b1e37"}, "geometry": {"type": "Point", "coordinates": [-96.9927135, 32.8594756]}},
{"type": "Feature", "id": "Oghj8DI2R8vJeMsNqpxeBsIQvxY=", "properties": {"ref": "corpus-christi_ariel-garcia", "@spider": "geico", "office": "insurance", "addr:full": "5725 South Padre Island Drive, Suite 100", "addr:city": "Corpus Christi", "addr:state": "TX", "addr:postcode": "78412", "name": "Ariel Garcia", "phone": "361-992-4955", "website": "https://www.geico.com/insurance-agents/texas/corpus-christi/ariel-garcia/", "brand": "GEICO", "brand:wikidata": "Q1498689", "nsi_id": "geico-6b1e37"}, "geometry": {"type": "Point", "coordinates": [-97.367441, 27.705568]}},
{"type": "Feature", "id": "BGgI-k35KF_LYJqbn6tf9FZFHh0=", "properties": {"ref": "beaumont-port-arthur_alicia-davis", "@spider": "geico", "office": "insurance", "addr:full": "860 I-10, Suite C", "addr:city": "Beaumont", "addr:state": "TX", "addr:postcode": "77707", "name": "Alicia Davis", "phone": "409-813-5150", "website": "https://www.geico.com/insurance-agents/texas/beaumont-port-arthur/alicia-davis/", "brand": "GEICO", "brand:wikidata": "Q1498689", "nsi_id": "geico-6b1e37"}, "geometry": {"type": "Point", "coordinates": [-94.135499, 30.069473]}},
{"type": "Feature", "id": "KrgHT0loVu7Q3k9NW0wLAL1Dcyk=", "properties": {"ref": "austin_xzavier-haywood", "@spider": "geico", "office": "insurance", "addr:full": "4930 South Congress Ave Unit C-302A", "addr:city": "Austin", "addr:state": "TX", "addr:postcode": "78745", "name": "Xzavier Haywood", "phone": "737-402-5600", "website": "https://www.geico.com/insurance-agents/texas/austin/xzavier-haywood/", "brand": "GEICO", "brand:wikidata": "Q1498689", "nsi_id": "geico-6b1e37"}, "geometry": {"type": "Point", "coordinates": [-97.7715105, 30.2129456]}},
{"type": "Feature", "id": "4ptEPxHsB8L6_M85GaOrF3ix-_I=", "properties": {"ref": "austin_sameer-chande", "@spider": "geico", "office": "insurance", "addr:full": "2200 E Palm Valley Blvd, Suite 120", "addr:city": "Round Rock", "addr:state": "TX", "addr:postcode": "78665", "name": "Sam Chande", "phone": "737-220-9800", "website": "https://www.geico.com/insurance-agents/texas/austin/sameer-chande/", "brand": "GEICO", "brand:wikidata": "Q1498689", "nsi_id": "geico-6b1e37"}, "geometry": {"type": "Point", "coordinates": [-97.6511238, 30.519294]}},
{"type": "Feature", "id": "UHbh7i0zSdIBtPe0FCDyxIY2IWQ=", "properties": {"ref": "austin_rob-geiger", "@spider": "geico", "office": "insurance", "addr:full": "2430 S Interstate 35, Suite 116", "addr:city": "San Marcos", "addr:state": "TX", "addr:postcode": "78666", "name": "Rob Geiger", "phone": "737-373-6000", "website": "https://www.geico.com/insurance-agents/texas/austin/rob-geiger/", "brand": "GEICO", "brand:wikidata": "Q1498689", "nsi_id": "geico-6b1e37"}, "geometry": {"type": "Point", "coordinates": [-97.9464368, 29.8627268]}},
{"type": "Feature", "id": "m9P9IKdwZpOWlMItfS_H6teCNxc=", "properties": {"ref": "austin_graves-erskine", "@spider": "geico", "office": "insurance", "addr:full": "2600 Mc Hale Ct", "addr:city": "Austin", "addr:state": "TX", "addr:postcode": "78758", "name": "Graves Erskine", "phone": "512-993-3980", "website": "https://www.geico.com/insurance-agents/texas/austin/graves-erskine/", "brand": "GEICO", "brand:wikidata": "Q1498689", "nsi_id": "geico-6b1e37"}, "geometry": {"type": "Point", "coordinates": [-97.7222363, 30.3855231]}},
{"type": "Feature", "id": "uVvx36NJapidv9wxCCB8EWfMCC8=", "properties": {"ref": "abilene-sweetwater_reggie-wrinkle", "@spider": "geico", "office": "insurance", "addr:full": "1329 South Danville Drive", "addr:city": "Abilene", "addr:state": "TX", "addr:postcode": "79605", "name": "Reggie Wrinkle", "phone": "325-692-0440", "website": "https://www.geico.com/insurance-agents/texas/abilene-sweetwater/reggie-wrinkle/", "brand": "GEICO", "brand:wikidata": "Q1498689", "nsi_id": "geico-6b1e37"}, "geometry": {"type": "Point", "coordinates": [-99.7863869, 32.4348001]}},
{"type": "Feature", "id": "_hXMHy2iREPWZQNA9ve3quI8EeA=", "properties": {"ref": "tri-cities_kathryn-robinson", "@spider": "geico", "office": "insurance", "addr:full": "1120 W State of Franklin Rd, #20", "addr:city": "Johnson City", "addr:state": "TN", "addr:postcode": "37604", "name": "Katie Robinson", "phone": "423-549-6154", "website": "https://www.geico.com/insurance-agents/tennessee/tri-cities/kathryn-robinson/", "brand": "GEICO", "brand:wikidata": "Q1498689", "nsi_id": "geico-6b1e37"}, "geometry": {"type": "Point", "coordinates": [-82.3661385, 36.3079935]}},
{"type": "Feature", "id": "abrwvwS-63-w0s_5rBvE15l0pVk=", "properties": {"ref": "nashville_taanya-jones", "@spider": "geico", "office": "insurance", "addr:full": "621 S Cumberland St", "addr:city": "Lebanon", "addr:state": "TN", "addr:postcode": "37087", "name": "Taanya Jones", "phone": "615-994-4690", "website": "https://www.geico.com/insurance-agents/tennessee/nashville/taanya-jones/", "brand": "GEICO", "brand:wikidata": "Q1498689", "nsi_id": "geico-6b1e37"}, "geometry": {"type": "Point", "coordinates": [-86.2938064, 36.1923437]}},
{"type": "Feature", "id": "U-y8D7rZtqkGWxNKoTEaRBI25ug=", "properties": {"ref": "nashville_sarah-polston", "@spider": "geico", "office": "insurance", "addr:full": "14981 Old Hickory Blvd", "addr:city": "Nashville", "addr:state": "TN", "addr:postcode": "37211", "name": "Sarah Polston", "phone": "615-376-2969", "website": "https://www.geico.com/insurance-agents/tennessee/nashville/sarah-polston/", "brand": "GEICO", "brand:wikidata": "Q1498689", "nsi_id": "geico-6b1e37"}, "geometry": {"type": "Point", "coordinates": [-86.7100158, 36.0453168]}},
{"type": "Feature", "id": "_1YRloxTu3W5E__5NG2W19l7H0A=", "properties": {"ref": "nashville_jeffrey-flowers", "@spider": "geico", "office": "insurance", "addr:full": "510 N Thompson Lane, Suite B", "addr:city": "Murfreesboro", "addr:state": "TN", "addr:postcode": "37129", "name": "Jeff Flowers", "phone": "629-218-6080", "website": "https://www.geico.com/insurance-agents/tennessee/nashville/jeffrey-flowers/", "brand": "GEICO", "brand:wikidata": "Q1498689", "nsi_id": "geico-6b1e37"}, "geometry": {"type": "Point", "coordinates": [-86.4297155, 35.8562561]}},
{"type": "Feature", "id": "14RjvE1NKPNRYynR9cCMVK-YFmI=", "properties": {"ref": "nashville_holly-geronzin", "@spider": "geico", "office": "insurance", "addr:full": "2120 Rosa L. Parks Boulevard", "addr:city": "Nashville", "addr:state": "TN", "addr:postcode": "37228", "name": "Holly Geronzin", "phone": "629-208-0333", "website": "https://www.geico.com/insurance-agents/tennessee/nashville/holly-geronzin/", "brand": "GEICO", "brand:wikidata": "Q1498689", "nsi_id": "geico-6b1e37"}, "geometry": {"type": "Point", "coordinates": [-86.8003385, 36.1929726]}},
{"type": "Feature", "id": "-onvQv6YkDlzDKXm96_1Wth0zKs=", "properties": {"ref": "nashville_daniel-ingram", "@spider": "geico", "office": "insurance", "addr:full": "1767 Wilma Rudolph Blvd, Suite D", "addr:city": "Clarksville", "addr:state": "TN", "addr:postcode": "37040", "name": "Daniel Ingram", "phone": "931-263-5390", "website": "https://www.geico.com/insurance-agents/tennessee/nashville/daniel-ingram/", "brand": "GEICO", "brand:wikidata": "Q1498689", "nsi_id": "geico-6b1e37"}, "geometry": {"type": "Point", "coordinates": [-87.3256438, 36.5523919]}},
{"type": "Feature", "id": "EiNETCpMpUW8jpMWcdtuKfDf7rA=", "properties": {"ref": "memphis_jeremiah-martin", "@spider": "geico", "office": "insurance", "addr:full": "8222 US-64", "addr:city": "Bartlett", "addr:state": "TN", "addr:postcode": "38133", "name": "Jeremiah Martin", "phone": "901-761-5240", "website": "https://www.geico.com/insurance-agents/tennessee/memphis/jeremiah-martin/", "brand": "GEICO", "brand:wikidata": "Q1498689", "nsi_id": "geico-6b1e37"}, "geometry": {"type": "Point", "coordinates": [-89.7884658, 35.2048312]}},
{"type": "Feature", "id": "u01SIh4XT3JF9HZYL-U3Mh3XeP8=", "properties": {"ref": "memphis_blake-sims", "@spider": "geico", "office": "insurance", "addr:full": "4759 Poplar Ave.", "addr:city": "Memphis", "addr:state": "TN", "addr:postcode": "38117", "name": "Blake Sims", "phone": "901-800-5777", "website": "https://www.geico.com/insurance-agents/tennessee/memphis/blake-sims/", "brand": "GEICO", "brand:wikidata": "Q1498689", "nsi_id": "geico-6b1e37"}, "geometry": {"type": "Point", "coordinates": [-89.9033995, 35.1146981]}},
{"type": "Feature", "id": "M0V7UBcYX7xiNBl4h0krGhK6ZPs=", "properties": {"ref": "knoxville_brian-chapman", "@spider": "geico", "office": "insurance", "addr:full": "7824 Kingston Pike", "addr:city": "Knoxville", "addr:state": "TN", "addr:postcode": "37919", "name": "Brian Chapman", "phone": "865-347-5111", "website": "https://www.geico.com/insurance-agents/tennessee/knoxville/brian-chapman/", "brand": "GEICO", "brand:wikidata": "Q1498689", "nsi_id": "geico-6b1e37"}, "geometry": {"type": "Point", "coordinates": [-84.0435635, 35.9258268]}},
{"type": "Feature", "id": "aAlOMxid8QeccDjQrTlEIc_3uGA=", "properties": {"ref": "chattanooga_greta-vaughan", "@spider": "geico", "office": "insurance", "addr:full": "6227 Lee Highway, Suite 131", "addr:city": "Chattanooga", "addr:state": "TN", "addr:postcode": "37421", "name": "Greta Vaughan", "phone": "423-894-2600", "website": "https://www.geico.com/insurance-agents/tennessee/chattanooga/greta-vaughan/", "brand": "GEICO", "brand:wikidata": "Q1498689", "nsi_id": "geico-6b1e37"}, "geometry": {"type": "Point", "coordinates": [-85.1846593, 35.0329512]}},
{"type": "Feature", "id": "uDkfPvBGJhqIqc3jh-erto-XvGE=", "properties": {"ref": "myrtle-beach_roger-armfield", "@spider": "geico", "office": "insurance", "addr:full": "2151 West Evans Street", "addr:city": "Florence", "addr:state": "SC", "addr:postcode": "29501", "name": "Roger Armfield", "phone": "843-664-0064", "website": "https://www.geico.com/insurance-agents/south-carolina/myrtle-beach/roger-armfield/", "brand": "GEICO", "brand:wikidata": "Q1498689", "nsi_id": "geico-6b1e37"}, "geometry": {"type": "Point", "coordinates": [-79.8113326, 34.1900071]}},
{"type": "Feature", "id": "T0izYIbkaFxUcFYk-vH47Fh7lSQ=", "properties": {"ref": "myrtle-beach_kevin-mcguigan", "@spider": "geico", "office": "insurance", "addr:full": "3068 Dick Pond Road", "addr:city": "Myrtle Beach", "addr:state": "SC", "addr:postcode": "29588", "name": "Kevin McGuigan", "phone": "843-691-6047", "website": "https://www.geico.com/insurance-agents/south-carolina/myrtle-beach/kevin-mcguigan/", "brand": "GEICO", "brand:wikidata": "Q1498689", "nsi_id": "geico-6b1e37"}, "geometry": {"type": "Point", "coordinates": [-78.9850721, 33.6530065]}},
{"type": "Feature", "id": "LMOICHfuN0f4nNMqpA_Vhxns8QI=", "properties": {"ref": "greenville_grant-sims", "@spider": "geico", "office": "insurance", "addr:full": "1280 Woodruff Road", "addr:city": "Greenville", "addr:state": "SC", "addr:postcode": "29607", "name": "Grant Sims", "phone": "864-272-0246", "website": "https://www.geico.com/insurance-agents/south-carolina/greenville/grant-sims/", "brand": "GEICO", "brand:wikidata": "Q1498689", "nsi_id": "geico-6b1e37"}, "geometry": {"type": "Point", "coordinates": [-82.2856121, 34.8206992]}},
{"type": "Feature", "id": "N8m9nRk0me_bhw8M0Q78cj4ncnQ=", "properties": {"ref": "greenville_colin-earles", "@spider": "geico", "office": "insurance", "addr:full": "1735 John B. White Sr. Blvd, Suite 12", "addr:city": "Spartanburg", "addr:state": "SC", "addr:postcode": "29301", "name": "Colin Earles", "phone": "864-381-6900", "website": "https://www.geico.com/insurance-agents/south-carolina/greenville/colin-earles/", "brand": "GEICO", "brand:wikidata": "Q1498689", "nsi_id": "geico-6b1e37"}, "geometry": {"type": "Point", "coordinates": [-81.9856752, 34.9213967]}},
{"type": "Feature", "id": "ACYEZbp-vsZxZud_yd_8KbgJ5po=", "properties": {"ref": "greenville_carl-dohn-iii", "@spider": "geico", "office": "insurance", "addr:full": "1918 Hendersonville Road", "addr:city": "Asheville", "addr:state": "NC", "addr:postcode": "28803", "name": "Carl Dohn III", "phone": "828-255-5445", "website": "https://www.geico.com/insurance-agents/south-carolina/greenville/carl-dohn-iii/", "brand": "GEICO", "brand:wikidata": "Q1498689", "nsi_id": "geico-6b1e37"}, "geometry": {"type": "Point", "coordinates": [-82.5206459, 35.496668]}},
{"type": "Feature", "id": "-8lR89IZuveTPV-wIYjY2KKcmA0=", "properties": {"ref": "columbia_ricardo-hagood", "@spider": "geico", "office": "insurance", "addr:full": "1925 Bull St.", "addr:city": "Columbia", "addr:state": "SC", "addr:postcode": "29201", "name": "Ricardo Hagood", "phone": "803-250-4930", "website": "https://www.geico.com/insurance-agents/south-carolina/columbia/ricardo-hagood/", "brand": "GEICO", "brand:wikidata": "Q1498689", "nsi_id": "geico-6b1e37"}, "geometry": {"type": "Point", "coordinates": [-81.0336502, 34.0129074]}},
{"type": "Feature", "id": "f2mJs58-n4ko3FL6LHrymXW5Vz4=", "properties": {"ref": "charleston_tony-kolgaklis", "@spider": "geico", "office": "insurance", "addr:full": "5609 Rivers Avenue", "addr:city": "North Charleston", "addr:state": "SC", "addr:postcode": "29406", "name": "Tony Kolgaklis", "phone": "843-974-6044", "website": "https://www.geico.com/insurance-agents/south-carolina/charleston/tony-kolgaklis/", "brand": "GEICO", "brand:wikidata": "Q1498689", "nsi_id": "geico-6b1e37"}, "geometry": {"type": "Point", "coordinates": [-80.0167897, 32.896216]}},
{"type": "Feature", "id": "dhZeJUrYnH7KWYOirVYkbzqU_Yk=", "properties": {"ref": "providence_stephen-guyott", "@spider": "geico", "office": "insurance", "addr:full": "1664 Mineral Spring Ave.", "addr:city": "North Providence", "addr:state": "RI", "addr:postcode": "02904", "name": "Stephen Guyott", "phone": "401-288-4690", "website": "https://www.geico.com/insurance-agents/rhode-island/providence/stephen-guyott/", "brand": "GEICO", "brand:wikidata": "Q1498689", "nsi_id": "geico-6b1e37"}, "geometry": {"type": "Point", "coordinates": [-71.4520602, 41.8628141]}},
{"type": "Feature", "id": "Jzyg5Ibj3VE2_KnpBOu9Q9RqrE0=", "properties": {"ref": "providence_mark-nickerson", "@spider": "geico", "office": "insurance", "addr:full": "120 Lambert Lind Highway", "addr:city": "Warwick", "addr:state": "RI", "addr:postcode": "02886", "name": "Mark Nickerson", "phone": "401-244-9044", "website": "https://www.geico.com/insurance-agents/rhode-island/providence/mark-nickerson/", "brand": "GEICO", "brand:wikidata": "Q1498689", "nsi_id": "geico-6b1e37"}, "geometry": {"type": "Point", "coordinates": [-71.4759914, 41.7288752]}},
{"type": "Feature", "id": "hQyYBs1r7N_0h2QurKRtcx5Z-0Q=", "properties": {"ref": "wilkes-barre_kathleen-mcguigan", "@spider": "geico", "office": "insurance", "addr:full": "1745 North Keyser Avenue", "addr:city": "Scranton", "addr:state": "PA", "addr:postcode": "18508", "name": "Kathleen McGuigan", "phone": "570-341-7300", "website": "https://www.geico.com/insurance-agents/pennsylvania/wilkes-barre/kathleen-mcguigan/", "brand": "GEICO", "brand:wikidata": "Q1498689", "nsi_id": "geico-6b1e37"}, "geometry": {"type": "Point", "coordinates": [-75.6690604, 41.4455387]}},
{"type": "Feature", "id": "B-anuo-eJKEUJiAkC4R5pPY5AJs=", "properties": {"ref": "pittsburgh_tim-hester", "@spider": "geico", "office": "insurance", "addr:full": "11269 Perry Highway, Suite 224", "addr:city": "Wexford", "addr:state": "PA", "addr:postcode": "15090", "name": "Tim Hester", "phone": "412-364-7170", "website": "https://www.geico.com/insurance-agents/pennsylvania/pittsburgh/tim-hester/", "brand": "GEICO", "brand:wikidata": "Q1498689", "nsi_id": "geico-6b1e37"}, "geometry": {"type": "Point", "coordinates": [-80.0549444, 40.6214365]}},
{"type": "Feature", "id": "dLFJhx9bVveYAkrctAy6pz-p7BU=", "properties": {"ref": "pittsburgh_monica-conroy", "@spider": "geico", "office": "insurance", "addr:full": "1720 Washington Road", "addr:city": "Pittsburgh", "addr:state": "PA", "addr:postcode": "15241", "name": "Monica Conroy", "phone": "412-308-1001", "website": "https://www.geico.com/insurance-agents/pennsylvania/pittsburgh/monica-conroy/", "brand": "GEICO", "brand:wikidata": "Q1498689", "nsi_id": "geico-6b1e37"}, "geometry": {"type": "Point", "coordinates": [-80.0537256, 40.3483004]}},
{"type": "Feature", "id": "ONQtZwqPwsugb6yO4QNb-qGcphM=", "properties": {"ref": "pittsburgh_bob-shanahan", "@spider": "geico", "office": "insurance", "addr:full": "3463 William Penn Highway", "addr:city": "Pittsburgh", "addr:state": "PA", "addr:postcode": "15235", "name": "Bob Shanahan", "phone": "412-317-5500", "website": "https://www.geico.com/insurance-agents/pennsylvania/pittsburgh/bob-shanahan/", "brand": "GEICO", "brand:wikidata": "Q1498689", "nsi_id": "geico-6b1e37"}, "geometry": {"type": "Point", "coordinates": [-79.8100193, 40.4307327]}},
{"type": "Feature", "id": "XdcNIm-CAA7U0zZXkwKafX2t704=", "properties": {"ref": "philadelphia_scott-hordis", "@spider": "geico", "office": "insurance", "addr:full": "1126 Baltimore Pike", "addr:city": "Springfield", "addr:state": "PA", "addr:postcode": "19064", "name": "Scott Hordis", "phone": "610-549-9234", "website": "https://www.geico.com/insurance-agents/pennsylvania/philadelphia/scott-hordis/", "brand": "GEICO", "brand:wikidata": "Q1498689", "nsi_id": "geico-6b1e37"}, "geometry": {"type": "Point", "coordinates": [-75.3457484, 39.9143907]}},
{"type": "Feature", "id": "GG0i3wCDKwKD2fwvEdQB6M-s9DA=", "properties": {"ref": "philadelphia_rob-vahey", "@spider": "geico", "office": "insurance", "addr:full": "333 East Lancaster Avenue, Suite B", "addr:city": "Wynnewood", "addr:state": "PA", "addr:postcode": "19096", "name": "Rob Vahey", "phone": "610-992-1500", "website": "https://www.geico.com/insurance-agents/pennsylvania/philadelphia/rob-vahey/", "brand": "GEICO", "brand:wikidata": "Q1498689", "nsi_id": "geico-6b1e37"}, "geometry": {"type": "Point", "coordinates": [-75.27771, 40.002402]}},
{"type": "Feature", "id": "Ml7K7FLWfanveLdpEq_e7b8YNKk=", "properties": {"ref": "philadelphia_peter-shaw", "@spider": "geico", "office": "insurance", "addr:full": "2733 Papermill Rd, Suite X3", "addr:city": "Wyomissing", "addr:state": "PA", "addr:postcode": "19610", "name": "Peter Shaw", "phone": "484-878-6500", "website": "https://www.geico.com/insurance-agents/pennsylvania/philadelphia/peter-shaw/", "brand": "GEICO", "brand:wikidata": "Q1498689", "nsi_id": "geico-6b1e37"}, "geometry": {"type": "Point", "coordinates": [-75.9836509, 40.3575147]}},
{"type": "Feature", "id": "IGwl70qNGCIuvzTTUNjZ-BS4S5M=", "properties": {"ref": "philadelphia_mike-yeager", "@spider": "geico", "office": "insurance", "addr:full": "3634 Street Road", "addr:city": "Bensalem", "addr:state": "PA", "addr:postcode": "19020", "name": "Mike Yeager", "phone": "215-436-1234", "website": "https://www.geico.com/insurance-agents/pennsylvania/philadelphia/mike-yeager/", "brand": "GEICO", "brand:wikidata": "Q1498689", "nsi_id": "geico-6b1e37"}, "geometry": {"type": "Point", "coordinates": [-74.9636994, 40.1265414]}},
{"type": "Feature", "id": "O8AV_0XMI5dSLGeWgHhNmhhPlSc=", "properties": {"ref": "philadelphia_john-lee", "@spider": "geico", "office": "insurance", "addr:full": "140 Allendale Rd, Suite 3A", "addr:city": "King of Prussia", "addr:state": "PA", "addr:postcode": "19406", "name": "John Lee", "phone": "610-382-7100", "website": "https://www.geico.com/insurance-agents/pennsylvania/philadelphia/john-lee/", "brand": "GEICO", "brand:wikidata": "Q1498689", "nsi_id": "geico-6b1e37"}, "geometry": {"type": "Point", "coordinates": [-75.382115, 40.089282]}},
{"type": "Feature", "id": "G00qzCp68sa_uaZc7fHTw_HVqDY=", "properties": {"ref": "philadelphia_dan-mensch", "@spider": "geico", "office": "insurance", "addr:full": "1952 MacArthur Road", "addr:city": "Whitehall", "addr:state": "PA", "addr:postcode": "18052", "name": "Dan Mensch", "phone": "610-437-7119", "website": "https://www.geico.com/insurance-agents/pennsylvania/philadelphia/dan-mensch/", "brand": "GEICO", "brand:wikidata": "Q1498689", "nsi_id": "geico-6b1e37"}, "geometry": {"type": "Point", "coordinates": [-75.4869637, 40.6336349]}},
{"type": "Feature", "id": "nsAdV1k39Dqhpa4p7CjeKl1C2Iw=", "properties": {"ref": "philadelphia_bruce-carthon", "@spider": "geico", "office": "insurance", "addr:full": "1056 Easton Road", "addr:city": "Willow Grove", "addr:state": "PA", "addr:postcode": "19090", "name": "Bruce Carthon", "phone": "215-346-8902", "website": "https://www.geico.com/insurance-agents/pennsylvania/philadelphia/bruce-carthon/", "brand": "GEICO", "brand:wikidata": "Q1498689", "nsi_id": "geico-6b1e37"}, "geometry": {"type": "Point", "coordinates": [-75.1222247, 40.1554094]}},
{"type": "Feature", "id": "Z2QcKhtC2r4Xd5k0v_lbxzThDPs=", "properties": {"ref": "harrisburg_frank-rossi", "@spider": "geico", "office": "insurance", "addr:full": "5521 Carlisle Pike, Suite 2A", "addr:city": "Mechanicsburg", "addr:state": "PA", "addr:postcode": "17050", "name": "Frank Rossi", "phone": "717-232-3040", "website": "https://www.geico.com/insurance-agents/pennsylvania/harrisburg/frank-rossi/", "brand": "GEICO", "brand:wikidata": "Q1498689", "nsi_id": "geico-6b1e37"}, "geometry": {"type": "Point", "coordinates": [-76.9847173, 40.2413059]}},
{"type": "Feature", "id": "kAxH_y6R-emEVyiWqySgfz2x9tA=", "properties": {"ref": "erie_jake-krezmien", "@spider": "geico", "office": "insurance", "addr:full": "6839 Peach St., Suite A-5 ", "addr:city": "Erie", "addr:state": "PA", "addr:postcode": "16509", "name": "Jake Krezmien", "phone": "814-738-6000", "website": "https://www.geico.com/insurance-agents/pennsylvania/erie/jake-krezmien/", "brand": "GEICO", "brand:wikidata": "Q1498689", "nsi_id": "geico-6b1e37"}, "geometry": {"type": "Point", "coordinates": [-80.0882439, 42.0564499]}},
{"type": "Feature", "id": "J42IBuv62TpVOB1Lkgb-x2QowJU=", "properties": {"ref": "portland_susan-bogart", "@spider": "geico", "office": "insurance", "addr:full": "22202 NE Glisan St", "addr:city": "Gresham", "addr:state": "OR", "addr:postcode": "97030", "name": "Susan Bogart", "phone": "503-766-0700", "website": "https://www.geico.com/insurance-agents/oregon/portland/susan-bogart/", "brand": "GEICO", "brand:wikidata": "Q1498689", "nsi_id": "geico-6b1e37"}, "geometry": {"type": "Point", "coordinates": [-122.4346717, 45.5275089]}},
{"type": "Feature", "id": "dW0cdvgNluK_GrGGlW_U5FeCtXU=", "properties": {"ref": "portland_steve-ching", "@spider": "geico", "office": "insurance", "addr:full": "1606 NE 6th Ave.", "addr:city": "Portland", "addr:state": "OR", "addr:postcode": "97232", "name": "Steven Ching", "phone": "503-535-5915", "website": "https://www.geico.com/insurance-agents/oregon/portland/steve-ching/", "brand": "GEICO", "brand:wikidata": "Q1498689", "nsi_id": "geico-6b1e37"}, "geometry": {"type": "Point", "coordinates": [-122.6592016, 45.5344876]}},
{"type": "Feature", "id": "tMVnrdI6rGb7WdHcC4i2e72-mo8=", "properties": {"ref": "portland_rudi-pino", "@spider": "geico", "office": "insurance", "addr:full": "10800 SE 82nd Ave", "addr:city": "Happy Valley", "addr:state": "OR", "addr:postcode": "97086", "name": "Rudi Pino", "phone": "503-451-2895", "website": "https://www.geico.com/insurance-agents/oregon/portland/rudi-pino/", "brand": "GEICO", "brand:wikidata": "Q1498689", "nsi_id": "geico-6b1e37"}, "geometry": {"type": "Point", "coordinates": [-122.578363, 45.4447667]}},
{"type": "Feature", "id": "tJ85qpgvynRbLkwusfmAhafxvTM=", "properties": {"ref": "portland_kristi-lebaron", "@spider": "geico", "office": "insurance", "addr:full": "4105 SW 117th Ave Suite A", "addr:city": "Beaverton", "addr:state": "OR", "addr:postcode": "97005", "name": "Kristi LeBaron", "phone": "503-924-3320", "website": "https://www.geico.com/insurance-agents/oregon/portland/kristi-lebaron/", "brand": "GEICO", "brand:wikidata": "Q1498689", "nsi_id": "geico-6b1e37"}, "geometry": {"type": "Point", "coordinates": [-122.7990744, 45.4898152]}},
{"type": "Feature", "id": "qHfR9wm5qCtZ67QBwbryARNjjv8=", "properties": {"ref": "portland_joel-lewis", "@spider": "geico", "office": "insurance", "addr:full": "2825 Commercial Street SE, Suite 100", "addr:city": "Salem", "addr:state": "OR", "addr:postcode": "97302", "name": "Joel Lewis", "phone": "503-385-4323", "website": "https://www.geico.com/insurance-agents/oregon/portland/joel-lewis/", "brand": "GEICO", "brand:wikidata": "Q1498689", "nsi_id": "geico-6b1e37"}, "geometry": {"type": "Point", "coordinates": [-123.0458664, 44.9133364]}},
{"type": "Feature", "id": "5VTqjzctNi0wCBIlzXCQU14EJ-U=", "properties": {"ref": "wichita-falls_r-a-burt", "@spider": "geico", "office": "insurance", "addr:full": "1315 NW Sheridan Road", "addr:city": "Lawton", "addr:state": "OK", "addr:postcode": "73505", "name": "R.A. Burt", "phone": "580-353-0773", "website": "https://www.geico.com/insurance-agents/oklahoma/wichita-falls/r-a-burt/", "brand": "GEICO", "brand:wikidata": "Q1498689", "nsi_id": "geico-6b1e37"}, "geometry": {"type": "Point", "coordinates": [-98.42147, 34.6221441]}},
{"type": "Feature", "id": "CZbaow6B5_rdMj3_25EKCcBVRr0=", "properties": {"ref": "tulsa_kevin-gallien", "@spider": "geico", "office": "insurance", "addr:full": "8353 South Memorial Drive", "addr:city": "Tulsa", "addr:state": "OK", "addr:postcode": "74133", "name": "Kevin Gallien", "phone": "918-384-0707", "website": "https://www.geico.com/insurance-agents/oklahoma/tulsa/kevin-gallien/", "brand": "GEICO", "brand:wikidata": "Q1498689", "nsi_id": "geico-6b1e37"}, "geometry": {"type": "Point", "coordinates": [-95.885494, 36.043338]}},
{"type": "Feature", "id": "jSHWPQr1Tt_6ks9Z6QDEv5JZ3R8=", "properties": {"ref": "oklahoma-city_warren-stowe", "@spider": "geico", "office": "insurance", "addr:full": "1500 W I-240 Service Rd Suite A-7 ", "addr:city": "Oklahoma City", "addr:state": "OK", "addr:postcode": "73159", "name": "Warren Stowe", "phone": "405-248-9509", "website": "https://www.geico.com/insurance-agents/oklahoma/oklahoma-city/warren-stowe/", "brand": "GEICO", "brand:wikidata": "Q1498689", "nsi_id": "geico-6b1e37"}, "geometry": {"type": "Point", "coordinates": [-97.4858887, 35.3899855]}},
{"type": "Feature", "id": "iuL-86_6YTx45riUzc27n_LKvwM=", "properties": {"ref": "oklahoma-city_edward-shelton", "@spider": "geico", "office": "insurance", "addr:full": "5616 W Memorial Rd, Suite C ", "addr:city": "Oklahoma City", "addr:state": "OK", "addr:postcode": "73142", "name": "Edward Shelton", "phone": "405-384-1518", "website": "https://www.geico.com/insurance-agents/oklahoma/oklahoma-city/edward-shelton/", "brand": "GEICO", "brand:wikidata": "Q1498689", "nsi_id": "geico-6b1e37"}, "geometry": {"type": "Point", "coordinates": [-97.6180561, 35.6082216]}},
{"type": "Feature", "id": "xO2ce-w-T75h4eK7efNVwjInEm8=", "properties": {"ref": "youngstown_ryan-dimillo", "@spider": "geico", "office": "insurance", "addr:full": "7050 Market St, Suite 104", "addr:city": "Youngstown", "addr:state": "OH", "addr:postcode": "44512", "name": "Ryan DiMillo", "phone": "234-264-8220", "website": "https://www.geico.com/insurance-agents/ohio/youngstown/ryan-dimillo/", "brand": "GEICO", "brand:wikidata": "Q1498689", "nsi_id": "geico-6b1e37"}, "geometry": {"type": "Point", "coordinates": [-80.6634838, 41.0270562]}},
{"type": "Feature", "id": "TQ7vSFlbQSbeImz91Py0Y4OsmPQ=", "properties": {"ref": "dayton_andrew-etheridge", "@spider": "geico", "office": "insurance", "addr:full": "466 North Springboro Pike", "addr:city": "West Carrollton", "addr:state": "OH", "addr:postcode": "45446", "name": "Andrew Etheridge", "phone": "937-269-0777", "website": "https://www.geico.com/insurance-agents/ohio/dayton/andrew-etheridge/", "brand": "GEICO", "brand:wikidata": "Q1498689", "nsi_id": "geico-6b1e37"}, "geometry": {"type": "Point", "coordinates": [-84.22366, 39.6467391]}},
{"type": "Feature", "id": "x_4bgcc0Txn6vrsmRk4ByYchcBk=", "properties": {"ref": "columbus_kyle-haskins", "@spider": "geico", "office": "insurance", "addr:full": "8651 Sancus Boulevard", "addr:city": "Columbus", "addr:state": "OH", "addr:postcode": "43240", "name": "Kyle Haskins", "phone": "614-934-3131", "website": "https://www.geico.com/insurance-agents/ohio/columbus/kyle-haskins/", "brand": "GEICO", "brand:wikidata": "Q1498689", "nsi_id": "geico-6b1e37"}, "geometry": {"type": "Point", "coordinates": [-82.9929184, 40.1397782]}},
{"type": "Feature", "id": "RSA1HW344nkVlTiGUdhw78eaQcw=", "properties": {"ref": "columbus_joshua-haskins", "@spider": "geico", "office": "insurance", "addr:full": "1730 Stringtown Rd", "addr:city": "Grove City", "addr:state": "OH", "addr:postcode": "43123", "name": "Joshua Haskins", "phone": "614-689-8140", "website": "https://www.geico.com/insurance-agents/ohio/columbus/joshua-haskins/", "brand": "GEICO", "brand:wikidata": "Q1498689", "nsi_id": "geico-6b1e37"}, "geometry": {"type": "Point", "coordinates": [-83.0411092, 39.879134]}},
{"type": "Feature", "id": "4dQXcS6gcPzMpEy5EgqyREISM80=", "properties": {"ref": "cleveland_ryan-wanner", "@spider": "geico", "office": "insurance", "addr:full": "5112 Whipple Avenue Northwest", "addr:city": "Canton", "addr:state": "OH", "addr:postcode": "44718", "name": "Ryan Wanner", "phone": "234-214-4026", "website": "https://www.geico.com/insurance-agents/ohio/cleveland/ryan-wanner/", "brand": "GEICO", "brand:wikidata": "Q1498689", "nsi_id": "geico-6b1e37"}, "geometry": {"type": "Point", "coordinates": [-81.4221679, 40.8555975]}},
{"type": "Feature", "id": "_jLwRCVecXSxsls_bGE7KcsH18A=", "properties": {"ref": "cleveland_joe-conjerti", "@spider": "geico", "office": "insurance", "addr:full": "1963 State Road", "addr:city": "Cuyahoga Falls", "addr:state": "OH", "addr:postcode": "44223", "name": "Joe Conjerti", "phone": "234-900-7801", "website": "https://www.geico.com/insurance-agents/ohio/cleveland/joe-conjerti/", "brand": "GEICO", "brand:wikidata": "Q1498689", "nsi_id": "geico-6b1e37"}, "geometry": {"type": "Point", "coordinates": [-81.508157, 41.1341501]}},
{"type": "Feature", "id": "wlt5z-LcQBc7ujFgAdCcZps1g1o=", "properties": {"ref": "cleveland_james-moyer", "@spider": "geico", "office": "insurance", "addr:full": "4679 Great Northern Boulevard", "addr:city": "North Olmsted", "addr:state": "OH", "addr:postcode": "44070", "name": "James Moyer", "phone": "440-777-7272", "website": "https://www.geico.com/insurance-agents/ohio/cleveland/james-moyer/", "brand": "GEICO", "brand:wikidata": "Q1498689", "nsi_id": "geico-6b1e37"}, "geometry": {"type": "Point", "coordinates": [-81.9011045, 41.4215096]}},
{"type": "Feature", "id": "Nf-CZeV0KnGV4vyLpTX6qoNuxfc=", "properties": {"ref": "cleveland_charlie-craine", "@spider": "geico", "office": "insurance", "addr:full": "45 Briggs Dr", "addr:city": "Mansfield", "addr:state": "OH", "addr:postcode": "44906", "name": "Charlie Craine", "phone": "567-345-3500", "website": "https://www.geico.com/insurance-agents/ohio/cleveland/charlie-craine/", "brand": "GEICO", "brand:wikidata": "Q1498689", "nsi_id": "geico-6b1e37"}, "geometry": {"type": "Point", "coordinates": [-82.5882768, 40.7611248]}},
{"type": "Feature", "id": "5TeL3-nyyjaM2qojClXu6fV9TFg=", "properties": {"ref": "cincinnati_sidney-taghiof", "@spider": "geico", "office": "insurance", "addr:full": " 4081 East Galbraith Road, Suite 1B", "addr:city": "Cincinnati", "addr:state": "OH", "addr:postcode": "45236", "name": "Sidney Taghiof", "phone": "513-794-3426", "website": "https://www.geico.com/insurance-agents/ohio/cincinnati/sidney-taghiof/", "brand": "GEICO", "brand:wikidata": "Q1498689", "nsi_id": "geico-6b1e37"}, "geometry": {"type": "Point", "coordinates": [-84.3994767, 39.2080888]}},
{"type": "Feature", "id": "0N2fLxO2U7SeCCvZlF1pOu6iSZQ=", "properties": {"ref": "cincinnati_kevin-rettig", "@spider": "geico", "office": "insurance", "addr:full": "8667 U.S. HWY 42, Suite 200", "addr:city": "Union", "addr:state": "KY", "addr:postcode": "41091", "name": "Kevin Rettig", "phone": "859-594-6810", "website": "https://www.geico.com/insurance-agents/ohio/cincinnati/kevin-rettig/", "brand": "GEICO", "brand:wikidata": "Q1498689", "nsi_id": "geico-6b1e37"}, "geometry": {"type": "Point", "coordinates": [-84.6709126, 38.9671082]}},
{"type": "Feature", "id": "ZYrVVzJjxQcKZ9n8D-UlXPkffmo=", "properties": {"ref": "cincinnati_katherine-harrison", "@spider": "geico", "office": "insurance", "addr:full": "9709 Colerain Avenue,", "addr:city": "Cincinnati", "addr:state": "OH", "addr:postcode": "45251", "name": "Katherine Harrison", "phone": "513-824-3262", "website": "https://www.geico.com/insurance-agents/ohio/cincinnati/katherine-harrison/", "brand": "GEICO", "brand:wikidata": "Q1498689", "nsi_id": "geico-6b1e37"}, "geometry": {"type": "Point", "coordinates": [-84.596752, 39.2468274]}},
{"type": "Feature", "id": "_skEE_mkkhyHmCdtwNClhWUPqOE=", "properties": {"ref": "wilmington_patrick-punzalan", "@spider": "geico", "office": "insurance", "addr:full": " 140 Hays Lane, Suite 130", "addr:city": "Wilmington", "addr:state": "NC", "addr:postcode": "28411", "name": "Patrick Punzalan", "phone": "910-799-9565", "website": "https://www.geico.com/insurance-agents/north-carolina/wilmington/patrick-punzalan/", "brand": "GEICO", "brand:wikidata": "Q1498689", "nsi_id": "geico-6b1e37"}, "geometry": {"type": "Point", "coordinates": [-77.795949, 34.297059]}},
{"type": "Feature", "id": "s7jL9Tl_7c3zhz8MUSVcPar_ZQw=", "properties": {"ref": "raleigh_john-ratliff", "@spider": "geico", "office": "insurance", "addr:full": "7011 Fayetteville Rd., Unit 103", "addr:city": "Durham", "addr:state": "NC", "addr:postcode": "27713", "name": "John Ratliff", "phone": "919-536-5577", "website": "https://www.geico.com/insurance-agents/north-carolina/raleigh/john-ratliff/", "brand": "GEICO", "brand:wikidata": "Q1498689", "nsi_id": "geico-6b1e37"}, "geometry": {"type": "Point", "coordinates": [-78.9390618, 35.9015206]}},
{"type": "Feature", "id": "khGbvKPXyKiKD0ynTZ6pfvpB_zU=", "properties": {"ref": "raleigh_frank-fortunato", "@spider": "geico", "office": "insurance", "addr:full": " 5011 Falls of Neuse Road, Suite A", "addr:city": "Raleigh", "addr:state": "NC", "addr:postcode": "27609", "name": "Frank Fortunato", "phone": "919-862-1300", "website": "https://www.geico.com/insurance-agents/north-carolina/raleigh/frank-fortunato/", "brand": "GEICO", "brand:wikidata": "Q1498689", "nsi_id": "geico-6b1e37"}, "geometry": {"type": "Point", "coordinates": [-78.6157398, 35.8497102]}},
{"type": "Feature", "id": "irUwKwm2PQ0G1Fs_28r4-qMiXMY=", "properties": {"ref": "raleigh_charity-sexton", "@spider": "geico", "office": "insurance", "addr:full": "1245 US-70", "addr:city": "Garner", "addr:state": "NC", "addr:postcode": "27529", "name": "Charity Sexton", "phone": "919-664-1340", "website": "https://www.geico.com/insurance-agents/north-carolina/raleigh/charity-sexton/", "brand": "GEICO", "brand:wikidata": "Q1498689", "nsi_id": "geico-6b1e37"}, "geometry": {"type": "Point", "coordinates": [-78.6400239, 35.7188984]}},
{"type": "Feature", "id": "WcikFvxd56xZdXDZxDNk3A3krfk=", "properties": {"ref": "raleigh_cameron-martin", "@spider": "geico", "office": "insurance", "addr:full": "1200 Village Market Place", "addr:city": "Morrisville", "addr:state": "NC", "addr:postcode": "27560", "name": "Cameron Martin", "phone": "984-228-5880", "website": "https://www.geico.com/insurance-agents/north-carolina/raleigh/cameron-martin/", "brand": "GEICO", "brand:wikidata": "Q1498689", "nsi_id": "geico-6b1e37"}, "geometry": {"type": "Point", "coordinates": [-78.8136864, 35.8063862]}},
{"type": "Feature", "id": "IADMdn0KeGtzcktoLYjx-8qEm-Y=", "properties": {"ref": "raleigh_caesar-blue", "@spider": "geico", "office": "insurance", "addr:full": "7835 Good Middling Dr, Suite 110", "addr:city": "Fayetteville", "addr:state": "NC", "addr:postcode": "28304", "name": "Caesar Blue", "phone": "910-487-0037", "website": "https://www.geico.com/insurance-agents/north-carolina/raleigh/caesar-blue/", "brand": "GEICO", "brand:wikidata": "Q1498689", "nsi_id": "geico-6b1e37"}, "geometry": {"type": "Point", "coordinates": [-79.0596694, 35.029602]}},
{"type": "Feature", "id": "DC2w8WHylbx0eR2V_UzicP5a_L4=", "properties": {"ref": "greensboro-high-point-winston-salem_matthew-young", "@spider": "geico", "office": "insurance", "addr:full": "4401 West Wendover Avenue, Suite 103", "addr:city": "Greensboro", "addr:state": "NC", "addr:postcode": "27407", "name": "Matthew Young", "phone": "336-852-7283", "website": "https://www.geico.com/insurance-agents/north-carolina/greensboro-high-point-winston-salem/matthew-young/", "brand": "GEICO", "brand:wikidata": "Q1498689", "nsi_id": "geico-6b1e37"}, "geometry": {"type": "Point", "coordinates": [-79.89334, 36.05551]}},
{"type": "Feature", "id": "9s03U6LmlxiSbLpxFrJLcvWOWK4=", "properties": {"ref": "greensboro-high-point-winston-salem_brad-peskoe", "@spider": "geico", "office": "insurance", "addr:full": "1348 Java Lane, Suite 102", "addr:city": "Burlington", "addr:state": "NC", "addr:postcode": "27215", "name": "Brad Peskoe", "phone": "336-290-0680", "website": "https://www.geico.com/insurance-agents/north-carolina/greensboro-high-point-winston-salem/brad-peskoe/", "brand": "GEICO", "brand:wikidata": "Q1498689", "nsi_id": "geico-6b1e37"}, "geometry": {"type": "Point", "coordinates": [-79.5160876, 36.0682978]}},
{"type": "Feature", "id": "IL3SA24efJQB53DaHiVluLGk5Bg=", "properties": {"ref": "greensboro-high-point-winston-salem_anant-venkataraman", "@spider": "geico", "office": "insurance", "addr:full": "1031 Hanes Mall Blvd", "addr:city": "Winston Salem", "addr:state": "NC", "addr:postcode": "27103", "name": "Anant Venkataraman", "phone": "336-955-8656", "website": "https://www.geico.com/insurance-agents/north-carolina/greensboro-high-point-winston-salem/anant-venkataraman/", "brand": "GEICO", "brand:wikidata": "Q1498689", "nsi_id": "geico-6b1e37"}, "geometry": {"type": "Point", "coordinates": [-80.3160661, 36.0655938]}},
{"type": "Feature", "id": "OlJaOvdRlDkLGVB68VW9jE7tGn0=", "properties": {"ref": "charlotte_tasia-davies", "@spider": "geico", "office": "insurance", "addr:full": "5140 Old Charlotte Hwy, Suite E", "addr:city": "Monroe", "addr:state": "NC", "addr:postcode": "28110", "name": "Tasia Davies", "phone": "704-218-5500", "website": "https://www.geico.com/insurance-agents/north-carolina/charlotte/tasia-davies/", "brand": "GEICO", "brand:wikidata": "Q1498689", "nsi_id": "geico-6b1e37"}, "geometry": {"type": "Point", "coordinates": [-80.6428368, 35.0461395]}},
{"type": "Feature", "id": "O-JEBt3l3e3EIYwKD-9bPNA7DZ8=", "properties": {"ref": "charlotte_tara-morgan-barreiro", "@spider": "geico", "office": "insurance", "addr:full": "7741 Gateway Lane NW, Suite 100", "addr:city": "Concord", "addr:state": "NC", "addr:postcode": "28027", "name": "Tara Morgan-Barreiro", "phone": "980-258-6340", "website": "https://www.geico.com/insurance-agents/north-carolina/charlotte/tara-morgan-barreiro/", "brand": "GEICO", "brand:wikidata": "Q1498689", "nsi_id": "geico-6b1e37"}, "geometry": {"type": "Point", "coordinates": [-80.7092703, 35.366559]}},
{"type": "Feature", "id": "kKGyvM9C1MRgfZ3C7kcXBWubOiQ=", "properties": {"ref": "charlotte_megan-donoho", "@spider": "geico", "office": "insurance", "addr:full": "301 E Woodlawn Rd., Suite 2", "addr:city": "Charlotte", "addr:state": "NC", "addr:postcode": "28217", "name": "Megan Donoho", "phone": "704-523-2886", "website": "https://www.geico.com/insurance-agents/north-carolina/charlotte/megan-donoho/", "brand": "GEICO", "brand:wikidata": "Q1498689", "nsi_id": "geico-6b1e37"}, "geometry": {"type": "Point", "coordinates": [-80.8789816, 35.178476]}},
{"type": "Feature", "id": "5vYheH_rNmeOpIGSxI-MP4uHiLo=", "properties": {"ref": "charlotte_lowell-morgan", "@spider": "geico", "office": "insurance", "addr:full": "9325 Center Lake Drive, Suite 130", "addr:city": "Charlotte", "addr:state": "NC", "addr:postcode": "28216", "name": "Lowell Morgan", "phone": "704-596-2886", "website": "https://www.geico.com/insurance-agents/north-carolina/charlotte/lowell-morgan/", "brand": "GEICO", "brand:wikidata": "Q1498689", "nsi_id": "geico-6b1e37"}, "geometry": {"type": "Point", "coordinates": [-80.85493, 35.34932]}},
{"type": "Feature", "id": "5N6HLoA79yq9sdAVwlUbxO5ljRk=", "properties": {"ref": "watertown_mark-smith", "@spider": "geico", "office": "insurance", "addr:full": "1063 Arsenal Street", "addr:city": "Watertown", "addr:state": "NY", "addr:postcode": "13601", "name": "Mark Smith", "phone": "315-221-2886", "website": "https://www.geico.com/insurance-agents/new-york/watertown/mark-smith/", "brand": "GEICO", "brand:wikidata": "Q1498689", "nsi_id": "geico-6b1e37"}, "geometry": {"type": "Point", "coordinates": [-75.9369795, 43.9764741]}},
{"type": "Feature", "id": "vmP1j41BX_HFwYp9jAoqTogAY2A=", "properties": {"ref": "syracuse_lori-myers", "@spider": "geico", "office": "insurance", "addr:full": "2528 Erie Boulevard East", "addr:city": "Syracuse", "addr:state": "NY", "addr:postcode": "13224", "name": "Lori Myers", "phone": "315-479-2886", "website": "https://www.geico.com/insurance-agents/new-york/syracuse/lori-myers/", "brand": "GEICO", "brand:wikidata": "Q1498689", "nsi_id": "geico-6b1e37"}, "geometry": {"type": "Point", "coordinates": [-76.102709, 43.053088]}},
{"type": "Feature", "id": "U53iYRSkO3moH45NJRFsSgiJzFg=", "properties": {"ref": "rochester_max-scheur", "@spider": "geico", "office": "insurance", "addr:full": "1900 Empire Blvd, Suite #877", "addr:city": "Webster", "addr:state": "NY", "addr:postcode": "14580", "name": "Maxwell Scheur", "phone": "585-670-2040", "website": "https://www.geico.com/insurance-agents/new-york/rochester/max-scheur/", "brand": "GEICO", "brand:wikidata": "Q1498689", "nsi_id": "geico-6b1e37"}, "geometry": {"type": "Point", "coordinates": [-77.501411, 43.1896076]}},
{"type": "Feature", "id": "mqTf-DX2WhqyR2aGqMAq7XJgcMg=", "properties": {"ref": "rochester_craig-brown", "@spider": "geico", "office": "insurance", "addr:full": "3740 West Henrietta Road", "addr:city": "Rochester", "addr:state": "NY", "addr:postcode": "14623", "name": "Craig Brown", "phone": "585-271-2886", "website": "https://www.geico.com/insurance-agents/new-york/rochester/craig-brown/", "brand": "GEICO", "brand:wikidata": "Q1498689", "nsi_id": "geico-6b1e37"}, "geometry": {"type": "Point", "coordinates": [-77.6405445, 43.079264]}},
{"type": "Feature", "id": "RDAGc3PFUJWcSlGKyiAAlN9DTCA=", "properties": {"ref": "new-york_weezie-mullaly", "@spider": "geico", "office": "insurance", "addr:full": "2243 Central Park Avenue", "addr:city": "Yonkers", "addr:state": "NY", "addr:postcode": "10710", "name": "Weezie Mullaly", "phone": "914-874-2886", "website": "https://www.geico.com/insurance-agents/new-york/new-york/weezie-mullaly/", "brand": "GEICO", "brand:wikidata": "Q1498689", "nsi_id": "geico-6b1e37"}, "geometry": {"type": "Point", "coordinates": [-73.8335081, 40.9755231]}},
{"type": "Feature", "id": "ruDqoHWIL24QnHB-egOWxogqFBQ=", "properties": {"ref": "new-york_ryan-mcgowan", "@spider": "geico", "office": "insurance", "addr:full": "677 Hillside Ave.", "addr:city": "New Hyde Park", "addr:state": "NY", "addr:postcode": "11040", "name": "Ryan McGowan", "phone": "516-302-2130", "website": "https://www.geico.com/insurance-agents/new-york/new-york/ryan-mcgowan/", "brand": "GEICO", "brand:wikidata": "Q1498689", "nsi_id": "geico-6b1e37"}, "geometry": {"type": "Point", "coordinates": [-73.6981799, 40.7423337]}},
{"type": "Feature", "id": "PafPRyBVconzJzTKDkn3UjnBiUs=", "properties": {"ref": "new-york_melissa-matassa", "@spider": "geico", "office": "insurance", "addr:full": "475 Sunrise Hwy", "addr:city": "Lynbrook", "addr:state": "NY", "addr:postcode": "11563", "name": "Melissa Matassa", "phone": "516-881-3210", "website": "https://www.geico.com/insurance-agents/new-york/new-york/melissa-matassa/", "brand": "GEICO", "brand:wikidata": "Q1498689", "nsi_id": "geico-6b1e37"}, "geometry": {"type": "Point", "coordinates": [-73.6738831, 40.6550822]}},
{"type": "Feature", "id": "ewj4Oo5jQlSZQzm8E21FYqfiimY=", "properties": {"ref": "new-york_laura-macdonald", "@spider": "geico", "office": "insurance", "addr:full": "1955 South Road", "addr:city": "Poughkeepsie", "addr:state": "NY", "addr:postcode": "12601", "name": "Laura MacDonald", "phone": "845-298-0451", "website": "https://www.geico.com/insurance-agents/new-york/new-york/laura-macdonald/", "brand": "GEICO", "brand:wikidata": "Q1498689", "nsi_id": "geico-6b1e37"}, "geometry": {"type": "Point", "coordinates": [-73.9184632, 41.6223698]}},
{"type": "Feature", "id": "XBwGtqt8sMExXW0Uog7ZersTh1A=", "properties": {"ref": "new-york_hernan-picalomino", "@spider": "geico", "office": "insurance", "addr:full": "766 Lafayette Ave", "addr:city": "Brooklyn", "addr:state": "NY", "addr:postcode": "11221", "name": "Hernan Picalomino", "phone": "718-306-0800", "website": "https://www.geico.com/insurance-agents/new-york/new-york/hernan-picalomino/", "brand": "GEICO", "brand:wikidata": "Q1498689", "nsi_id": "geico-6b1e37"}, "geometry": {"type": "Point", "coordinates": [-73.9423183, 40.6906964]}},
{"type": "Feature", "id": "5K-R5-1D38QO9u2SDu76Zs_slwo=", "properties": {"ref": "new-york_david-chiang", "@spider": "geico", "office": "insurance", "addr:full": "72-02 Austin St", "addr:city": "Forest Hills", "addr:state": "NY", "addr:postcode": "11375", "name": "David Chiang", "phone": "718-487-1850", "website": "https://www.geico.com/insurance-agents/new-york/new-york/david-chiang/", "brand": "GEICO", "brand:wikidata": "Q1498689", "nsi_id": "geico-6b1e37"}, "geometry": {"type": "Point", "coordinates": [-73.8425829, 40.7191344]}},
{"type": "Feature", "id": "7tVz2Arzw_S1jhQnrLzR-mHviXY=", "properties": {"ref": "new-york_cary-nichols", "@spider": "geico", "office": "insurance", "addr:full": "75 Henry St", "addr:city": "Commack", "addr:state": "NY", "addr:postcode": "11725", "name": "Cary Nichols", "phone": "631-623-4460", "website": "https://www.geico.com/insurance-agents/new-york/new-york/cary-nichols/", "brand": "GEICO", "brand:wikidata": "Q1498689", "nsi_id": "geico-6b1e37"}, "geometry": {"type": "Point", "coordinates": [-73.2929829, 40.8080658]}},
{"type": "Feature", "id": "f6QivUpsZuvKyveq97reYEiJp0U=", "properties": {"ref": "new-york_ben-isik", "@spider": "geico", "office": "insurance", "addr:full": "128 E. Route 59", "addr:city": "Nanuet", "addr:state": "NY", "addr:postcode": "10954", "name": "Ben Isik", "phone": "845-215-6090", "website": "https://www.geico.com/insurance-agents/new-york/new-york/ben-isik/", "brand": "GEICO", "brand:wikidata": "Q1498689", "nsi_id": "geico-6b1e37"}, "geometry": {"type": "Point", "coordinates": [-74.0061647, 41.0953848]}},
{"type": "Feature", "id": "kQ2qa72BAGM5N_1mTmoSjUd5PqY=", "properties": {"ref": "buffalo_zachary-korzelius", "@spider": "geico", "office": "insurance", "addr:full": "222 E Main St", "addr:city": "Batavia", "addr:state": "NY", "addr:postcode": "14020", "name": "Zachary Korzelius", "phone": "585-300-2270", "website": "https://www.geico.com/insurance-agents/new-york/buffalo/zachary-korzelius/", "brand": "GEICO", "brand:wikidata": "Q1498689", "nsi_id": "geico-6b1e37"}, "geometry": {"type": "Point", "coordinates": [-78.179748, 42.996745]}},
{"type": "Feature", "id": "cCKE5h1o0Qe_jow3sEHiEBxfWB8=", "properties": {"ref": "buffalo_scott-kaltman", "@spider": "geico", "office": "insurance", "addr:full": "1102 Union Road, 1st floor", "addr:city": "Buffalo", "addr:state": "NY", "addr:postcode": "14224", "name": "Scott Kaltman", "phone": "716-604-0345", "website": "https://www.geico.com/insurance-agents/new-york/buffalo/scott-kaltman/", "brand": "GEICO", "brand:wikidata": "Q1498689", "nsi_id": "geico-6b1e37"}, "geometry": {"type": "Point", "coordinates": [-78.7546774, 42.8297279]}},
{"type": "Feature", "id": "4WSAfffMAvsP_zCGvHeTpdG8wWI=", "properties": {"ref": "buffalo_craig-maitland", "@spider": "geico", "office": "insurance", "addr:full": "3618 Delaware Ave Suite 400", "addr:city": "Buffalo", "addr:state": "NY", "addr:postcode": "14217", "name": "Craig Maitland", "phone": "716-517-3300", "website": "https://www.geico.com/insurance-agents/new-york/buffalo/craig-maitland/", "brand": "GEICO", "brand:wikidata": "Q1498689", "nsi_id": "geico-6b1e37"}, "geometry": {"type": "Point", "coordinates": [-78.8729901, 42.9826813]}},
{"type": "Feature", "id": "owqBuMm7XFxaDLcx86pnx0lDQjs=", "properties": {"ref": "binghamton_robert-pearlman", "@spider": "geico", "office": "insurance", "addr:full": "3951 Vestal Pkwy E", "addr:city": "Vestal", "addr:state": "NY", "addr:postcode": "13850", "name": "Robert Pearlman", "phone": "607-621-4850", "website": "https://www.geico.com/insurance-agents/new-york/binghamton/robert-pearlman/", "brand": "GEICO", "brand:wikidata": "Q1498689", "nsi_id": "geico-6b1e37"}, "geometry": {"type": "Point", "coordinates": [-75.9779365, 42.096472]}},
{"type": "Feature", "id": "fudI7aYUkjt-X1ZdoHyaTs_JrSk=", "properties": {"ref": "albany_rick-schrade", "@spider": "geico", "office": "insurance", "addr:full": "1761 Central Ave", "addr:city": "Albany", "addr:state": "NY", "addr:postcode": "12205", "name": "Rick Schrade", "phone": "518-389-4060", "website": "https://www.geico.com/insurance-agents/new-york/albany/rick-schrade/", "brand": "GEICO", "brand:wikidata": "Q1498689", "nsi_id": "geico-6b1e37"}, "geometry": {"type": "Point", "coordinates": [-73.8434355, 42.7274411]}},
{"type": "Feature", "id": "P1LlGKPXgB2TPAtrbs0wk9x0Ing=", "properties": {"ref": "albuquerque-santa-fe_jay-lapierre", "@spider": "geico", "office": "insurance", "addr:full": "5318 Menaul Boulevard Northeast", "addr:city": "Albuquerque", "addr:state": "NM", "addr:postcode": "87110", "name": "Jay Lapierre", "phone": "505-265-1600", "website": "https://www.geico.com/insurance-agents/new-mexico/albuquerque-santa-fe/jay-lapierre/", "brand": "GEICO", "brand:wikidata": "Q1498689", "nsi_id": "geico-6b1e37"}, "geometry": {"type": "Point", "coordinates": [-106.5846493, 35.108748]}},
{"type": "Feature", "id": "xrpEe-Qsm4ES2U8xvgzpBR1TsZs=", "properties": {"ref": "philadelphia_nicholas-barbieri", "@spider": "geico", "office": "insurance", "addr:full": "1188 East Route 70", "addr:city": "Cherry Hill", "addr:state": "NJ", "addr:postcode": "08034", "name": "Nicholas Barbieri", "phone": "856-665-6900", "website": "https://www.geico.com/insurance-agents/new-jersey/philadelphia/nicholas-barbieri/", "brand": "GEICO", "brand:wikidata": "Q1498689", "nsi_id": "geico-6b1e37"}, "geometry": {"type": "Point", "coordinates": [-74.995672, 39.9116994]}},
{"type": "Feature", "id": "1Gg5YfemBGnpJh-977CtcJsukik=", "properties": {"ref": "philadelphia_chris-cline", "@spider": "geico", "office": "insurance", "addr:full": "825 Route 33", "addr:city": "Hamilton", "addr:state": "NJ", "addr:postcode": "08619", "name": "Chris Cline", "phone": "609-530-1000", "website": "https://www.geico.com/insurance-agents/new-jersey/philadelphia/chris-cline/", "brand": "GEICO", "brand:wikidata": "Q1498689", "nsi_id": "geico-6b1e37"}, "geometry": {"type": "Point", "coordinates": [-74.6750242, 40.2295556]}},
{"type": "Feature", "id": "ZDfl_810ft81wy1iBlTqAdpNVLo=", "properties": {"ref": "philadelphia_calvin-chan", "@spider": "geico", "office": "insurance", "addr:full": "45 S New York Rd, Suite 218", "addr:city": "Galloway", "addr:state": "NJ", "addr:postcode": "08205", "name": "Calvin Chan", "phone": "609-415-6800", "website": "https://www.geico.com/insurance-agents/new-jersey/philadelphia/calvin-chan/", "brand": "GEICO", "brand:wikidata": "Q1498689", "nsi_id": "geico-6b1e37"}, "geometry": {"type": "Point", "coordinates": [-74.4645609, 39.4883093]}},
{"type": "Feature", "id": "OErwbMsOCpliYXQLr-MlqsRJ8e8=", "properties": {"ref": "new-york_tara-egglinger", "@spider": "geico", "office": "insurance", "addr:full": "81 Route 17 South", "addr:city": "East Rutherford", "addr:state": "NJ", "addr:postcode": "07073", "name": "Tara Egglinger", "phone": "201-646-1660", "website": "https://www.geico.com/insurance-agents/new-jersey/new-york/tara-egglinger/", "brand": "GEICO", "brand:wikidata": "Q1498689", "nsi_id": "geico-6b1e37"}, "geometry": {"type": "Point", "coordinates": [-74.0930251, 40.8313411]}},
{"type": "Feature", "id": "iwGiM5pCdboZZ75lDEqyFtjibNM=", "properties": {"ref": "new-york_paul-tye", "@spider": "geico", "office": "insurance", "addr:full": "200 Route 22", "addr:city": "Springfield", "addr:state": "NJ", "addr:postcode": "07081", "name": "Paul Tye", "phone": "973-924-2048", "website": "https://www.geico.com/insurance-agents/new-jersey/new-york/paul-tye/", "brand": "GEICO", "brand:wikidata": "Q1498689", "nsi_id": "geico-6b1e37"}, "geometry": {"type": "Point", "coordinates": [-74.3196584, 40.6858616]}},
{"type": "Feature", "id": "T_8kRqvZhQl96xHrUPsyYhG_rMA=", "properties": {"ref": "new-york_hari-roth", "@spider": "geico", "office": "insurance", "addr:full": "2100 Highway 35", "addr:city": "Oakhurst", "addr:state": "NJ", "addr:postcode": "07755", "name": "Hari Roth", "phone": "732-686-4980", "website": "https://www.geico.com/insurance-agents/new-jersey/new-york/hari-roth/", "brand": "GEICO", "brand:wikidata": "Q1498689", "nsi_id": "geico-6b1e37"}, "geometry": {"type": "Point", "coordinates": [-74.0425431, 40.2648139]}},
{"type": "Feature", "id": "46lj5Z4JksTdGD_4frlwzb_x68U=", "properties": {"ref": "new-york_greg-ingrassia", "@spider": "geico", "office": "insurance", "addr:full": "2122 Lincoln Highway", "addr:city": "Edison", "addr:state": "NJ", "addr:postcode": "08817", "name": "Greg Ingrassia", "phone": "732-248-1804", "website": "https://www.geico.com/insurance-agents/new-jersey/new-york/greg-ingrassia/", "brand": "GEICO", "brand:wikidata": "Q1498689", "nsi_id": "geico-6b1e37"}, "geometry": {"type": "Point", "coordinates": [-74.3854586, 40.526695]}},
{"type": "Feature", "id": "qZEaRpnQD0ITQZK0Z0D8QoPpEOU=", "properties": {"ref": "new-york_christian-aracena", "@spider": "geico", "office": "insurance", "addr:full": "1767 Route 10 East", "addr:city": "Morris Plains", "addr:state": "NJ", "addr:postcode": "07950", "name": "Christian Aracena", "phone": "973-775-8850", "website": "https://www.geico.com/insurance-agents/new-jersey/new-york/christian-aracena/", "brand": "GEICO", "brand:wikidata": "Q1498689", "nsi_id": "geico-6b1e37"}, "geometry": {"type": "Point", "coordinates": [-74.4709718, 40.8482062]}},
{"type": "Feature", "id": "XKoT5q15BEt_6y8DIuDDSAEgP-c=", "properties": {"ref": "boston_ryan-hatch", "@spider": "geico", "office": "insurance", "addr:full": "2800 Lafayette Rd, Suite 10A", "addr:city": "Portsmouth", "addr:state": "NH", "addr:postcode": "03801", "name": "Ryan Hatch", "phone": "603-368-6030", "website": "https://www.geico.com/insurance-agents/new-hampshire/boston/ryan-hatch/", "brand": "GEICO", "brand:wikidata": "Q1498689", "nsi_id": "geico-6b1e37"}, "geometry": {"type": "Point", "coordinates": [-70.7897431, 43.0293376]}},
{"type": "Feature", "id": "WbIa2OHsCy5uLTbfrwcTl3VaQtw=", "properties": {"ref": "boston_greg-gerard", "@spider": "geico", "office": "insurance", "addr:full": "427 Amherst Street", "addr:city": "Nashua", "addr:state": "NH", "addr:postcode": "03063", "name": "Greg Gerard", "phone": "603-391-0670", "website": "https://www.geico.com/insurance-agents/new-hampshire/boston/greg-gerard/", "brand": "GEICO", "brand:wikidata": "Q1498689", "nsi_id": "geico-6b1e37"}, "geometry": {"type": "Point", "coordinates": [-71.5132763, 42.7878948]}},
{"type": "Feature", "id": "vu3HBz0bVv5B8rJZSyFpEEACyDA=", "properties": {"ref": "las-vegas_marco-vargas", "@spider": "geico", "office": "insurance", "addr:full": "7345 S Durango Dr., Suite 106", "addr:city": "Las Vegas", "addr:state": "NV", "addr:postcode": "89113", "name": "Marco Vargas", "phone": "725-228-4700", "website": "https://www.geico.com/insurance-agents/nevada/las-vegas/marco-vargas/", "brand": "GEICO", "brand:wikidata": "Q1498689", "nsi_id": "geico-6b1e37"}, "geometry": {"type": "Point", "coordinates": [-115.2811671, 36.0546159]}},
{"type": "Feature", "id": "zNspVrJ0bbkq8jDMUq4yc8xGvfE=", "properties": {"ref": "las-vegas_hugh-hamilton", "@spider": "geico", "office": "insurance", "addr:full": "3315 West Craig Road, Suite 110", "addr:city": "North Las Vegas", "addr:state": "NV", "addr:postcode": "89032", "name": "Hugh Hamilton", "phone": "702-643-0057", "website": "https://www.geico.com/insurance-agents/nevada/las-vegas/hugh-hamilton/", "brand": "GEICO", "brand:wikidata": "Q1498689", "nsi_id": "geico-6b1e37"}, "geometry": {"type": "Point", "coordinates": [-115.1850051, 36.2389361]}},
{"type": "Feature", "id": "Vfhe-ZxoCh3DtOPtRW6W3T-ifFQ=", "properties": {"ref": "las-vegas_dean-collotta", "@spider": "geico", "office": "insurance", "addr:full": "1920 East Serene Ave, Suite 510", "addr:city": "Las Vegas", "addr:state": "NV", "addr:postcode": "89123", "name": "Dean Collotta", "phone": "702-565-9198", "website": "https://www.geico.com/insurance-agents/nevada/las-vegas/dean-collotta/", "brand": "GEICO", "brand:wikidata": "Q1498689", "nsi_id": "geico-6b1e37"}, "geometry": {"type": "Point", "coordinates": [-115.1260001, 36.0208197]}},
{"type": "Feature", "id": "SRTh8QYXohwTUo1nJZCYJQ39UAo=", "properties": {"ref": "las-vegas_darin-hershey", "@spider": "geico", "office": "insurance", "addr:full": "8441 West Lake Mead Blvd", "addr:city": "Las Vegas", "addr:state": "NV", "addr:postcode": "89128", "name": "Darin Hershey", "phone": "725-228-4630", "website": "https://www.geico.com/insurance-agents/nevada/las-vegas/darin-hershey/", "brand": "GEICO", "brand:wikidata": "Q1498689", "nsi_id": "geico-6b1e37"}, "geometry": {"type": "Point", "coordinates": [-115.2801364, 36.1976519]}},
{"type": "Feature", "id": "emvrOsefVhtGzGMlb_JdyBnK5l0=", "properties": {"ref": "omaha_jon-manz", "@spider": "geico", "office": "insurance", "addr:full": "573 N 155th Plaza", "addr:city": "Omaha", "addr:state": "NE", "addr:postcode": "68154", "name": "Jon Manz", "phone": "402-491-4100", "website": "https://www.geico.com/insurance-agents/nebraska/omaha/jon-manz/", "brand": "GEICO", "brand:wikidata": "Q1498689", "nsi_id": "geico-6b1e37"}, "geometry": {"type": "Point", "coordinates": [-96.1556398, 41.265484]}},
{"type": "Feature", "id": "7wXvUlPdypFqaNgEBdptyZBGxrk=", "properties": {"ref": "billings_allan-martinez", "@spider": "geico", "office": "insurance", "addr:full": "1010 Grand Avenue, Suite D", "addr:city": "Billings", "addr:state": "MT", "addr:postcode": "59102", "name": "Allan Martinez", "phone": "406-413-6740", "website": "https://www.geico.com/insurance-agents/montana/billings/allan-martinez/", "brand": "GEICO", "brand:wikidata": "Q1498689", "nsi_id": "geico-6b1e37"}, "geometry": {"type": "Point", "coordinates": [-108.5414477, 45.7838134]}},
{"type": "Feature", "id": "VmHPhqSeVi61UJS7LBwiv5bVKPo=", "properties": {"ref": "st-louis_ray-dinkins", "@spider": "geico", "office": "insurance", "addr:full": "1582 Country Club Plaza Drive", "addr:city": "St. Charles", "addr:state": "MO", "addr:postcode": "63303", "name": "Ray Dinkins", "phone": "636-946-9500", "website": "https://www.geico.com/insurance-agents/missouri/st-louis/ray-dinkins/", "brand": "GEICO", "brand:wikidata": "Q1498689", "nsi_id": "geico-6b1e37"}, "geometry": {"type": "Point", "coordinates": [-90.5205212, 38.7702842]}},
{"type": "Feature", "id": "2OYuUvmUtZy5bNApsYc3xVdsLa8=", "properties": {"ref": "st-louis_jay-body", "@spider": "geico", "office": "insurance", "addr:full": "5809 South Lindbergh Blvd.", "addr:city": "St. Louis", "addr:state": "MO", "addr:postcode": "63123", "name": "Jay Body", "phone": "314-721-2426", "website": "https://www.geico.com/insurance-agents/missouri/st-louis/jay-body/", "brand": "GEICO", "brand:wikidata": "Q1498689", "nsi_id": "geico-6b1e37"}, "geometry": {"type": "Point", "coordinates": [-90.3481937, 38.521756]}},
{"type": "Feature", "id": "hG9TjcYer5CL7neD78CDQIUTiAU=", "properties": {"ref": "springfield_chad-astle", "@spider": "geico", "office": "insurance", "addr:full": "3600 S Campbell Avenue", "addr:city": "Springfield", "addr:state": "MO", "addr:postcode": "65807", "name": "Chad Astle", "phone": "417-414-6634", "website": "https://www.geico.com/insurance-agents/missouri/springfield/chad-astle/", "brand": "GEICO", "brand:wikidata": "Q1498689", "nsi_id": "geico-6b1e37"}, "geometry": {"type": "Point", "coordinates": [-93.294433, 37.148962]}},
{"type": "Feature", "id": "6v6d2nXcC4CdN-pta1sOylX0tAs=", "properties": {"ref": "kansas-city_jeff-evenson", "@spider": "geico", "office": "insurance", "addr:full": "705 Southeast Melody Lane, Suite C", "addr:city": "Lee's Summit", "addr:state": "MO", "addr:postcode": "64063", "name": "Jeff Evenson", "phone": "816-478-1132", "website": "https://www.geico.com/insurance-agents/missouri/kansas-city/jeff-evenson/", "brand": "GEICO", "brand:wikidata": "Q1498689", "nsi_id": "geico-6b1e37"}, "geometry": {"type": "Point", "coordinates": [-94.3620531, 38.9056857]}},
{"type": "Feature", "id": "K-ra2MAfh_Dfcukl-0ANh930Kg0=", "properties": {"ref": "biloxi-gulfport_ernie-lewelling", "@spider": "geico", "office": "insurance", "addr:full": "3586 Sangani Boulevard, Suite A", "addr:city": "D'Iberville", "addr:state": "MS", "addr:postcode": "39540", "name": "Ernie Lewelling", "phone": "228-832-0600", "website": "https://www.geico.com/insurance-agents/mississippi/biloxi-gulfport/ernie-lewelling/", "brand": "GEICO", "brand:wikidata": "Q1498689", "nsi_id": "geico-6b1e37"}, "geometry": {"type": "Point", "coordinates": [-88.8939971, 30.459271]}},
{"type": "Feature", "id": "buH3ZjWmbDAOs-SOEWUTZ0WTjvE=", "properties": {"ref": "minneapolis-st-paul_steven-blome", "@spider": "geico", "office": "insurance", "addr:full": "2174 Snelling Ave N", "addr:city": "Roseville", "addr:state": "MN", "addr:postcode": "55113", "name": "Steven Blome", "phone": "651-846-2525", "website": "https://www.geico.com/insurance-agents/minnesota/minneapolis-st-paul/steven-blome/", "brand": "GEICO", "brand:wikidata": "Q1498689", "nsi_id": "geico-6b1e37"}, "geometry": {"type": "Point", "coordinates": [-93.1655136, 45.00679]}},
{"type": "Feature", "id": "EmAhTwDaCK6LvCH3HvRGSotGYpI=", "properties": {"ref": "minneapolis-st-paul_matt-gallegos", "@spider": "geico", "office": "insurance", "addr:full": "7101 France Avenue South,", "addr:city": "Minneapolis", "addr:state": "MN", "addr:postcode": "55435", "name": "Matt Gallegos", "phone": "612-656-0544", "website": "https://www.geico.com/insurance-agents/minnesota/minneapolis-st-paul/matt-gallegos/", "brand": "GEICO", "brand:wikidata": "Q1498689", "nsi_id": "geico-6b1e37"}, "geometry": {"type": "Point", "coordinates": [-93.3274806, 44.8745891]}},
{"type": "Feature", "id": "XXJG3m3fgcgjUFp9gvlNpdQYpUk=", "properties": {"ref": "detroit_michael-sloan", "@spider": "geico", "office": "insurance", "addr:full": "30780 Orchard Lake Rd", "addr:city": "Farmington Hills", "addr:state": "MI", "addr:postcode": "48334", "name": "Michael Sloan", "phone": "248-970-6080", "website": "https://www.geico.com/insurance-agents/michigan/detroit/michael-sloan/", "brand": "GEICO", "brand:wikidata": "Q1498689", "nsi_id": "geico-6b1e37"}, "geometry": {"type": "Point", "coordinates": [-83.3592787, 42.523024]}},
{"type": "Feature", "id": "qPWFrG131b_qMJfDPDRMNoPxvEI=", "properties": {"ref": "springfield_daniel-marchese", "@spider": "geico", "office": "insurance", "addr:full": "1010 Union St", "addr:city": "West Springfield", "addr:state": "MA", "addr:postcode": "01089", "name": "Daniel Marchese", "phone": "413-504-1950", "website": "https://www.geico.com/insurance-agents/massachusetts/springfield/daniel-marchese/", "brand": "GEICO", "brand:wikidata": "Q1498689", "nsi_id": "geico-6b1e37"}, "geometry": {"type": "Point", "coordinates": [-72.6067546, 42.0966082]}},
{"type": "Feature", "id": "dX4qCTp-j2PhDFUzPIBF-8oXI-Y=", "properties": {"ref": "boston_rick-hurwitz", "@spider": "geico", "office": "insurance", "addr:full": "84 Boston Turnpike", "addr:city": "Shrewsbury", "addr:state": "MA", "addr:postcode": "01545", "name": "Rick Hurwitz", "phone": "508-926-6752", "website": "https://www.geico.com/insurance-agents/massachusetts/boston/rick-hurwitz/", "brand": "GEICO", "brand:wikidata": "Q1498689", "nsi_id": "geico-6b1e37"}, "geometry": {"type": "Point", "coordinates": [-71.7510574, 42.2741452]}},
{"type": "Feature", "id": "sZJNNDcEX1TpcmZqEP1csGO8a-4=", "properties": {"ref": "boston_matthew-crampton", "@spider": "geico", "office": "insurance", "addr:full": "43 Drum Hill Rd", "addr:city": "North Chelmsford", "addr:state": "MA", "addr:postcode": "01863", "name": "Matthew Crampton", "phone": "978-805-6900", "website": "https://www.geico.com/insurance-agents/massachusetts/boston/matthew-crampton/", "brand": "GEICO", "brand:wikidata": "Q1498689", "nsi_id": "geico-6b1e37"}, "geometry": {"type": "Point", "coordinates": [-71.3616572, 42.6255179]}},
{"type": "Feature", "id": "rRRlnqHP0WI_cuLKdusLrYsWA1I=", "properties": {"ref": "boston_justin-levine", "@spider": "geico", "office": "insurance", "addr:full": "855 Broadway Unit 6", "addr:city": "Saugus", "addr:state": "MA", "addr:postcode": "01906", "name": "Justin Levine", "phone": "781-417-1066", "website": "https://www.geico.com/insurance-agents/massachusetts/boston/justin-levine/", "brand": "GEICO", "brand:wikidata": "Q1498689", "nsi_id": "geico-6b1e37"}, "geometry": {"type": "Point", "coordinates": [-71.024529, 42.4746391]}},
{"type": "Feature", "id": "Qsheq33AfM27kaDkkQMfl7uGPWg=", "properties": {"ref": "boston_joe-jiusto", "@spider": "geico", "office": "insurance", "addr:full": "20 Commercial Road", "addr:city": "Leominster", "addr:state": "MA", "addr:postcode": "01453", "name": "Joe Jiusto", "phone": "978-227-0500", "website": "https://www.geico.com/insurance-agents/massachusetts/boston/joe-jiusto/", "brand": "GEICO", "brand:wikidata": "Q1498689", "nsi_id": "geico-6b1e37"}, "geometry": {"type": "Point", "coordinates": [-71.7408395, 42.5344803]}},
{"type": "Feature", "id": "Zf_VZVQ-F3bwpNCZ-2aMa8Ah0bQ=", "properties": {"ref": "boston_jeff-belz", "@spider": "geico", "office": "insurance", "addr:full": "53-7 Commerce Way", "addr:city": "Plymouth", "addr:state": "MA", "addr:postcode": "02360", "name": "Jeff Belz", "phone": "508-927-0400", "website": "https://www.geico.com/insurance-agents/massachusetts/boston/jeff-belz/", "brand": "GEICO", "brand:wikidata": "Q1498689", "nsi_id": "geico-6b1e37"}, "geometry": {"type": "Point", "coordinates": [-70.7111152, 41.9534149]}},
{"type": "Feature", "id": "tJZs-dfq9h6BInY59PIKV3fJtRc=", "properties": {"ref": "boston_eric-vaden", "@spider": "geico", "office": "insurance", "addr:full": "485 Granite Street", "addr:city": "Braintree", "addr:state": "MA", "addr:postcode": "02184", "name": "Eric Vaden", "phone": "781-817-8877", "website": "https://www.geico.com/insurance-agents/massachusetts/boston/eric-vaden/", "brand": "GEICO", "brand:wikidata": "Q1498689", "nsi_id": "geico-6b1e37"}, "geometry": {"type": "Point", "coordinates": [-71.0218258, 42.2137097]}},
{"type": "Feature", "id": "9x_hiDGPFA53KypnoH3WwCU3Yvw=", "properties": {"ref": "boston_david-white", "@spider": "geico", "office": "insurance", "addr:full": "120 Highland Avenue", "addr:city": "Needham", "addr:state": "MA", "addr:postcode": "02494", "name": "David White", "phone": "781-707-9929", "website": "https://www.geico.com/insurance-agents/massachusetts/boston/david-white/", "brand": "GEICO", "brand:wikidata": "Q1498689", "nsi_id": "geico-6b1e37"}, "geometry": {"type": "Point", "coordinates": [-71.2186025, 42.3049649]}},
{"type": "Feature", "id": "wDwwEGmRtQmhC1QD3uqoArvrHNw=", "properties": {"ref": "boston_angelo-perrina", "@spider": "geico", "office": "insurance", "addr:full": "150 Andover St", "addr:city": "Danvers", "addr:state": "MA", "addr:postcode": "01923", "name": "Angelo Perrina", "phone": "978-326-1850", "website": "https://www.geico.com/insurance-agents/massachusetts/boston/angelo-perrina/", "brand": "GEICO", "brand:wikidata": "Q1498689", "nsi_id": "geico-6b1e37"}, "geometry": {"type": "Point", "coordinates": [-70.9729766, 42.5548632]}},
{"type": "Feature", "id": "aOmtOnm9yuC1HX_7JDQAlLvdvTs=", "properties": {"ref": "boston_aaron-burwick", "@spider": "geico", "office": "insurance", "addr:full": "770 New State Highway", "addr:city": "Raynham", "addr:state": "MA", "addr:postcode": "02767", "name": "Aaron Burwick", "phone": "508-844-2311", "website": "https://www.geico.com/insurance-agents/massachusetts/boston/aaron-burwick/", "brand": "GEICO", "brand:wikidata": "Q1498689", "nsi_id": "geico-6b1e37"}, "geometry": {"type": "Point", "coordinates": [-71.0365498, 41.9062329]}},
{"type": "Feature", "id": "UngqJRncTOa5Q9rGdJ-Uw6qMdqA=", "properties": {"ref": "washington-dc_william-gunn", "@spider": "geico", "office": "insurance", "addr:full": "13600 Baltimore Ave, Suite 702", "addr:city": "Laurel", "addr:state": "MD", "addr:postcode": "20707", "name": "William Gunn", "phone": "301-543-3690", "website": "https://www.geico.com/insurance-agents/maryland/washington-dc/william-gunn/", "brand": "GEICO", "brand:wikidata": "Q1498689", "nsi_id": "geico-6b1e37"}, "geometry": {"type": "Point", "coordinates": [-76.8696403, 39.0771436]}},
{"type": "Feature", "id": "6rjM6Ys62YhyhGsDcGkzhLCmTOU=", "properties": {"ref": "washington-dc_patrick-foster", "@spider": "geico", "office": "insurance", "addr:full": "9100 Alaking Court, Suite 120", "addr:city": "Capitol Heights", "addr:state": "MD", "addr:postcode": "20743", "name": "Patrick Foster", "phone": "301-541-1277", "website": "https://www.geico.com/insurance-agents/maryland/washington-dc/patrick-foster/", "brand": "GEICO", "brand:wikidata": "Q1498689", "nsi_id": "geico-6b1e37"}, "geometry": {"type": "Point", "coordinates": [-76.8494382, 38.8705651]}},
{"type": "Feature", "id": "Ffdjg7HEz8Y2pp56WTvKtGtgixI=", "properties": {"ref": "washington-dc_patrick-donoho", "@spider": "geico", "office": "insurance", "addr:full": "1170 Rockville Pike 1A", "addr:city": "Rockville", "addr:state": "MD", "addr:postcode": "20852", "name": "Patrick Donoho", "phone": "301-354-4444", "website": "https://www.geico.com/insurance-agents/maryland/washington-dc/patrick-donoho/", "brand": "GEICO", "brand:wikidata": "Q1498689", "nsi_id": "geico-6b1e37"}, "geometry": {"type": "Point", "coordinates": [-77.1313132, 39.0710916]}},
{"type": "Feature", "id": "tuKL22BElETQc-lP0uoM7FLDtcU=", "properties": {"ref": "baltimore_wayne-nieberlein", "@spider": "geico", "office": "insurance", "addr:full": "11054 Red Run Blvd., Suite 100", "addr:city": "Owings Mills", "addr:state": "MD", "addr:postcode": "21117", "name": "Wayne Nieberlein", "phone": "410-559-3800", "website": "https://www.geico.com/insurance-agents/maryland/baltimore/wayne-nieberlein/", "brand": "GEICO", "brand:wikidata": "Q1498689", "nsi_id": "geico-6b1e37"}, "geometry": {"type": "Point", "coordinates": [-76.8076252, 39.4248282]}},
{"type": "Feature", "id": "9jQoZUvbCXCzDFixg1qjVdEr-EM=", "properties": {"ref": "baltimore_tom-white", "@spider": "geico", "office": "insurance", "addr:full": "7915A Belair Road", "addr:city": "Baltimore", "addr:state": "MD", "addr:postcode": "21236", "name": "Tom White", "phone": "410-882-8200", "website": "https://www.geico.com/insurance-agents/maryland/baltimore/tom-white/", "brand": "GEICO", "brand:wikidata": "Q1498689", "nsi_id": "geico-6b1e37"}, "geometry": {"type": "Point", "coordinates": [-76.5099356, 39.3725347]}},
{"type": "Feature", "id": "9QXGc9MRQyyEjeI4NDcS7Fwv8sM=", "properties": {"ref": "baltimore_sylvia-hopkins", "@spider": "geico", "office": "insurance", "addr:full": "2563 Forest Drive, 1st Floor", "addr:city": "Annapolis", "addr:state": "MD", "addr:postcode": "21401", "name": "Sylvia Hopkins", "phone": "410-571-7722", "website": "https://www.geico.com/insurance-agents/maryland/baltimore/sylvia-hopkins/", "brand": "GEICO", "brand:wikidata": "Q1498689", "nsi_id": "geico-6b1e37"}, "geometry": {"type": "Point", "coordinates": [-76.537693, 38.9780482]}},
{"type": "Feature", "id": "zKmITzIZhQXTutqI6vz6KswyXwI=", "properties": {"ref": "baltimore_matt-hauser", "@spider": "geico", "office": "insurance", "addr:full": "6567 Baltimore National Pike", "addr:city": "Catonsville", "addr:state": "MD", "addr:postcode": "21228", "name": "Matt Hauser", "phone": "410-995-0040", "website": "https://www.geico.com/insurance-agents/maryland/baltimore/matt-hauser/", "brand": "GEICO", "brand:wikidata": "Q1498689", "nsi_id": "geico-6b1e37"}, "geometry": {"type": "Point", "coordinates": [-76.7656178, 39.286354]}},
{"type": "Feature", "id": "OVyCFrjeTn2XcK-G65xl7HOUpWY=", "properties": {"ref": "portland-auburn_ashley-bullard", "@spider": "geico", "office": "insurance", "addr:full": "91 Auburn Street", "addr:city": "Portland", "addr:state": "ME", "addr:postcode": "04103", "name": "Ashley Bullard", "phone": "207-387-6838", "website": "https://www.geico.com/insurance-agents/maine/portland-auburn/ashley-bullard/", "brand": "GEICO", "brand:wikidata": "Q1498689", "nsi_id": "geico-6b1e37"}, "geometry": {"type": "Point", "coordinates": [-70.2881767, 43.7028994]}},
{"type": "Feature", "id": "n0dufUPYnJFsW6RM19lsehm9Zd4=", "properties": {"ref": "shreveport_justin-marshall", "@spider": "geico", "office": "insurance", "addr:full": "8510 Youree Drive", "addr:city": "Shreveport", "addr:state": "LA", "addr:postcode": "71115", "name": "Justin Marshall", "phone": "318-742-3600", "website": "https://www.geico.com/insurance-agents/louisiana/shreveport/justin-marshall/", "brand": "GEICO", "brand:wikidata": "Q1498689", "nsi_id": "geico-6b1e37"}, "geometry": {"type": "Point", "coordinates": [-93.7103136, 32.4278877]}},
{"type": "Feature", "id": "kHSnE2A97D0jKdmD7R1sAmFgSJc=", "properties": {"ref": "new-orleans_bobby-faul", "@spider": "geico", "office": "insurance", "addr:full": "2629 N Causeway Blvd", "addr:city": "Mandeville", "addr:state": "LA", "addr:postcode": "70471", "name": "Bobby Faul", "phone": "985-875-5001", "website": "https://www.geico.com/insurance-agents/louisiana/new-orleans/bobby-faul/", "brand": "GEICO", "brand:wikidata": "Q1498689", "nsi_id": "geico-6b1e37"}, "geometry": {"type": "Point", "coordinates": [-90.085166, 30.402482]}},
{"type": "Feature", "id": "WEHROGs6_TxYc0EAxUQOuQGuxUM=", "properties": {"ref": "new-orleans_allen-boudreaux", "@spider": "geico", "office": "insurance", "addr:full": "4051 Veterans Memorial Boulevard, Suite 100", "addr:city": "Metairie", "addr:state": "LA", "addr:postcode": "70002", "name": "Allen Boudreaux", "phone": "504-457-2345", "website": "https://www.geico.com/insurance-agents/louisiana/new-orleans/allen-boudreaux/", "brand": "GEICO", "brand:wikidata": "Q1498689", "nsi_id": "geico-6b1e37"}, "geometry": {"type": "Point", "coordinates": [-90.1763935, 30.0053015]}},
{"type": "Feature", "id": "nhYHOylW-_-mrejtSWpF0x28w-8=", "properties": {"ref": "new-orleans_allen-boudreaux-iii", "@spider": "geico", "office": "insurance", "addr:full": "1451 Manhattan Blvd., Suite A", "addr:city": "Harvey", "addr:state": "LA", "addr:postcode": "70058", "name": "Allen Boudreaux III", "phone": "504-381-3480", "website": "https://www.geico.com/insurance-agents/louisiana/new-orleans/allen-boudreaux-iii/", "brand": "GEICO", "brand:wikidata": "Q1498689", "nsi_id": "geico-6b1e37"}, "geometry": {"type": "Point", "coordinates": [-90.0601894, 29.8954719]}},
{"type": "Feature", "id": "bf3vF2NQhIWTOIAMMqFPMiWPV34=", "properties": {"ref": "lake-charles_jennifer-stevens", "@spider": "geico", "office": "insurance", "addr:full": "4201 Nelson Road", "addr:city": "Lake Charles", "addr:state": "LA", "addr:postcode": "70605", "name": "Jennifer Stevens", "phone": "337-474-1700", "website": "https://www.geico.com/insurance-agents/louisiana/lake-charles/jennifer-stevens/", "brand": "GEICO", "brand:wikidata": "Q1498689", "nsi_id": "geico-6b1e37"}, "geometry": {"type": "Point", "coordinates": [-93.2488557, 30.181724]}},
{"type": "Feature", "id": "Aib3n6BqacrmmU1iZFRzEipZys8=", "properties": {"ref": "lafayette_matt-long", "@spider": "geico", "office": "insurance", "addr:full": "4401 Ambassador Caffery Pkwy", "addr:city": "Lafayette", "addr:state": "LA", "addr:postcode": "70508", "name": "Matt Long", "phone": "337-294-1000", "website": "https://www.geico.com/insurance-agents/louisiana/lafayette/matt-long/", "brand": "GEICO", "brand:wikidata": "Q1498689", "nsi_id": "geico-6b1e37"}, "geometry": {"type": "Point", "coordinates": [-92.0485804, 30.1599511]}},
{"type": "Feature", "id": "5-Vs-YgZ6NccKJsxbEad72GP_Yw=", "properties": {"ref": "baton-rouge_mike-long", "@spider": "geico", "office": "insurance", "addr:full": "6166 Siegen Lane, Suite D", "addr:city": "Baton Rouge", "addr:state": "LA", "addr:postcode": "70809", "name": "Mike Long", "phone": "225-295-7675", "website": "https://www.geico.com/insurance-agents/louisiana/baton-rouge/mike-long/", "brand": "GEICO", "brand:wikidata": "Q1498689", "nsi_id": "geico-6b1e37"}, "geometry": {"type": "Point", "coordinates": [-91.0594739, 30.3945296]}},
{"type": "Feature", "id": "iLi08tI1YgfLOHT3XGAvdm44gqI=", "properties": {"ref": "alexandria_jennifer-stevens", "@spider": "geico", "office": "insurance", "addr:full": "11275 Lake Charles Highway, Suite A", "addr:city": "Leesville", "addr:state": "LA", "addr:postcode": "71446", "name": "Jennifer Stevens", "phone": "337-238-2934", "website": "https://www.geico.com/insurance-agents/louisiana/alexandria/jennifer-stevens/", "brand": "GEICO", "brand:wikidata": "Q1498689", "nsi_id": "geico-6b1e37"}, "geometry": {"type": "Point", "coordinates": [-93.2694825, 31.1063348]}},
{"type": "Feature", "id": "aFeQcU4axL81pLCakVwMsvoTIUk=", "properties": {"ref": "louisville_matt-worley", "@spider": "geico", "office": "insurance", "addr:full": "2039 Hurstbourne Parkway", "addr:city": "Louisville", "addr:state": "KY", "addr:postcode": "40220", "name": "Matt Worley", "phone": "502-313-6644", "website": "https://www.geico.com/insurance-agents/kentucky/louisville/matt-worley/", "brand": "GEICO", "brand:wikidata": "Q1498689", "nsi_id": "geico-6b1e37"}, "geometry": {"type": "Point", "coordinates": [-85.5874126, 38.2166801]}},
{"type": "Feature", "id": "T670Xm58FEtLdDw40p-JlmhZlIE=", "properties": {"ref": "lexington_david-saab", "@spider": "geico", "office": "insurance", "addr:full": "3100 Old Todds Road, Suite 110", "addr:city": "Lexington", "addr:state": "KY", "addr:postcode": "40509", "name": "David Saab", "phone": "859-286-8655", "website": "https://www.geico.com/insurance-agents/kentucky/lexington/david-saab/", "brand": "GEICO", "brand:wikidata": "Q1498689", "nsi_id": "geico-6b1e37"}, "geometry": {"type": "Point", "coordinates": [-84.4239007, 38.0088602]}},
{"type": "Feature", "id": "Qfp9-copYIGf7Uij3GrFG0Xo_fw=", "properties": {"ref": "bowling-green_nathaniel-mccracken", "@spider": "geico", "office": "insurance", "addr:full": "2508 Scottsville Rd, Suite 101", "addr:city": "Bowling Green", "addr:state": "KY", "addr:postcode": "42104", "name": "Nathaniel McCracken", "phone": "270-770-9620", "website": "https://www.geico.com/insurance-agents/kentucky/bowling-green/nathaniel-mccracken/", "brand": "GEICO", "brand:wikidata": "Q1498689", "nsi_id": "geico-6b1e37"}, "geometry": {"type": "Point", "coordinates": [-86.4253061, 36.9523057]}},
{"type": "Feature", "id": "mryS20JEfnaikPgd09q5H7xu8Sk=", "properties": {"ref": "kansas-city_james-buckman", "@spider": "geico", "office": "insurance", "addr:full": "11532 West 95th Street", "addr:city": "Overland Park", "addr:state": "KS", "addr:postcode": "66214", "name": "James Buckman", "phone": "913-681-3200", "website": "https://www.geico.com/insurance-agents/kansas/kansas-city/james-buckman/", "brand": "GEICO", "brand:wikidata": "Q1498689", "nsi_id": "geico-6b1e37"}, "geometry": {"type": "Point", "coordinates": [-94.7194067, 38.9572018]}},
{"type": "Feature", "id": "uIuobJF0luwDdyMYGOo6BOfS6aE=", "properties": {"ref": "des-moines-ames_justin-krogman", "@spider": "geico", "office": "insurance", "addr:full": "1221 Keosauqua Way", "addr:city": "Des Moines", "addr:state": "IA", "addr:postcode": "50309", "name": "Justin Krogman", "phone": "515-318-6307", "website": "https://www.geico.com/insurance-agents/iowa/des-moines-ames/justin-krogman/", "brand": "GEICO", "brand:wikidata": "Q1498689", "nsi_id": "geico-6b1e37"}, "geometry": {"type": "Point", "coordinates": [-93.6326652, 41.5941967]}},
{"type": "Feature", "id": "V8hYYKOXPxnTisow-KqiTtD-nTo=", "properties": {"ref": "indianapolis_linda-hansel", "@spider": "geico", "office": "insurance", "addr:full": "506 IN-32", "addr:city": "Westfield", "addr:state": "IN", "addr:postcode": "46074", "name": "Linda Hansel", "phone": "317-399-3800", "website": "https://www.geico.com/insurance-agents/indiana/indianapolis/linda-hansel/", "brand": "GEICO", "brand:wikidata": "Q1498689", "nsi_id": "geico-6b1e37"}, "geometry": {"type": "Point", "coordinates": [-86.1505953, 40.0430903]}},
{"type": "Feature", "id": "9d5iKFnMvFiRtHzOyd1jDTELWgk=", "properties": {"ref": "indianapolis_jay-pletch", "@spider": "geico", "office": "insurance", "addr:full": "8254 Rockville Road", "addr:city": "Indianapolis", "addr:state": "IN", "addr:postcode": "46214", "name": "Jay Pletch", "phone": "317-216-0932", "website": "https://www.geico.com/insurance-agents/indiana/indianapolis/jay-pletch/", "brand": "GEICO", "brand:wikidata": "Q1498689", "nsi_id": "geico-6b1e37"}, "geometry": {"type": "Point", "coordinates": [-86.3074616, 39.7645819]}},
{"type": "Feature", "id": "HGsAONxsyELBZB9m_sfyZQPvHp0=", "properties": {"ref": "indianapolis_jamie-walton", "@spider": "geico", "office": "insurance", "addr:full": "5977 E 82nd St.", "addr:city": "Indianapolis", "addr:state": "IN", "addr:postcode": "46250", "name": "Jamie Walton", "phone": "317-558-7444", "website": "https://www.geico.com/insurance-agents/indiana/indianapolis/jamie-walton/", "brand": "GEICO", "brand:wikidata": "Q1498689", "nsi_id": "geico-6b1e37"}, "geometry": {"type": "Point", "coordinates": [-86.0650477, 39.9046667]}},
{"type": "Feature", "id": "tYEF9NKoa8pCMKyECIJQ4RzKl1E=", "properties": {"ref": "indianapolis_daniel-johnston", "@spider": "geico", "office": "insurance", "addr:full": "862 S State Rd 135, Suite K", "addr:city": "Greenwood", "addr:state": "IN", "addr:postcode": "46143", "name": "Daniel Johnston", "phone": "463-204-6163", "website": "https://www.geico.com/insurance-agents/indiana/indianapolis/daniel-johnston/", "brand": "GEICO", "brand:wikidata": "Q1498689", "nsi_id": "geico-6b1e37"}, "geometry": {"type": "Point", "coordinates": [-86.1603036, 39.604268]}},
{"type": "Feature", "id": "FJdknCqWecRlZUkf_xs6Tsb1zkg=", "properties": {"ref": "evansville_daniel-edwards", "@spider": "geico", "office": "insurance", "addr:full": "244 N. Burkhardt Rd", "addr:city": "Evansville", "addr:state": "IN", "addr:postcode": "47715", "name": "Daniel Edwards", "phone": "812-916-6450", "website": "https://www.geico.com/insurance-agents/indiana/evansville/daniel-edwards/", "brand": "GEICO", "brand:wikidata": "Q1498689", "nsi_id": "geico-6b1e37"}, "geometry": {"type": "Point", "coordinates": [-87.4748876, 37.9792353]}},
{"type": "Feature", "id": "0vht3EL7MVuM4t_ZqrRjslSFzKg=", "properties": {"ref": "chicago_david-ber", "@spider": "geico", "office": "insurance", "addr:full": "7727 West 75th Avenue, Suite 1B", "addr:city": "Schererville", "addr:state": "IN", "addr:postcode": "46375", "name": "David Ber", "phone": "219-322-8700", "website": "https://www.geico.com/insurance-agents/indiana/chicago/david-ber/", "brand": "GEICO", "brand:wikidata": "Q1498689", "nsi_id": "geico-6b1e37"}, "geometry": {"type": "Point", "coordinates": [-87.4303068, 41.4819943]}},
{"type": "Feature", "id": "JkI-qYrsDM-4pqvPKvBsG67R__M=", "properties": {"ref": "chicago_tim-calcagno", "@spider": "geico", "office": "insurance", "addr:full": "670 South Roselle Road", "addr:city": "Schaumburg", "addr:state": "IL", "addr:postcode": "60193", "name": "Tim Calcagno", "phone": "630-671-0600", "website": "https://www.geico.com/insurance-agents/illinois/chicago/tim-calcagno/", "brand": "GEICO", "brand:wikidata": "Q1498689", "nsi_id": "geico-6b1e37"}, "geometry": {"type": "Point", "coordinates": [-88.0809684, 42.0145783]}},
{"type": "Feature", "id": "EOPgnbmguUZRCdsLZ6x6ouMIeAU=", "properties": {"ref": "chicago_kevin-ware", "@spider": "geico", "office": "insurance", "addr:full": "8549 South Cicero Avenue", "addr:city": "Chicago", "addr:state": "IL", "addr:postcode": "60652", "name": "Kevin Ware", "phone": "773-582-2886", "website": "https://www.geico.com/insurance-agents/illinois/chicago/kevin-ware/", "brand": "GEICO", "brand:wikidata": "Q1498689", "nsi_id": "geico-6b1e37"}, "geometry": {"type": "Point", "coordinates": [-87.7404034, 41.736699]}},
{"type": "Feature", "id": "IeAkl3zrmU2NHHQ6gyt5z_5TfkY=", "properties": {"ref": "chicago_jenny-clemente", "@spider": "geico", "office": "insurance", "addr:full": "2861 N Milwaukee Ave", "addr:city": "Chicago", "addr:state": "IL", "addr:postcode": "60618", "name": "Jenny Clemente", "phone": "872-255-6800", "website": "https://www.geico.com/insurance-agents/illinois/chicago/jenny-clemente/", "brand": "GEICO", "brand:wikidata": "Q1498689", "nsi_id": "geico-6b1e37"}, "geometry": {"type": "Point", "coordinates": [-87.713951, 41.9334842]}},
{"type": "Feature", "id": "La6oQMln2fdN6BRKnGRRPLAvjN8=", "properties": {"ref": "chicago_howard-greer", "@spider": "geico", "office": "insurance", "addr:full": "5414 Grand Ave, #300", "addr:city": "Gurnee", "addr:state": "IL", "addr:postcode": "60031", "name": "Howard Greer", "phone": "847-672-0144", "website": "https://www.geico.com/insurance-agents/illinois/chicago/howard-greer/", "brand": "GEICO", "brand:wikidata": "Q1498689", "nsi_id": "geico-6b1e37"}, "geometry": {"type": "Point", "coordinates": [-87.9367943, 42.3782796]}},
{"type": "Feature", "id": "MkUxJ5sEmmeAB_B3Ye_MJpxz6ic=", "properties": {"ref": "chicago_brian-helmig", "@spider": "geico", "office": "insurance", "addr:full": "4412 E New York Street, Unit B", "addr:city": "Aurora", "addr:state": "IL", "addr:postcode": "60504", "name": "Brian Helmig", "phone": "630-449-0116", "website": "https://www.geico.com/insurance-agents/illinois/chicago/brian-helmig/", "brand": "GEICO", "brand:wikidata": "Q1498689", "nsi_id": "geico-6b1e37"}, "geometry": {"type": "Point", "coordinates": [-88.2063224, 41.7637207]}},
{"type": "Feature", "id": "vb2edWYHuEn4l819DIIKKvKnNjo=", "properties": {"ref": "chicago_anthony-calcagno", "@spider": "geico", "office": "insurance", "addr:full": "170 North York Rd.", "addr:city": "Elmhurst", "addr:state": "IL", "addr:postcode": "60126", "name": "Anthony Calcagno", "phone": "630-359-2600", "website": "https://www.geico.com/insurance-agents/illinois/chicago/anthony-calcagno/", "brand": "GEICO", "brand:wikidata": "Q1498689", "nsi_id": "geico-6b1e37"}, "geometry": {"type": "Point", "coordinates": [-87.9401752, 41.9022833]}},
{"type": "Feature", "id": "ZUOh0Z0ICJdOzasFxQcymKE-CwQ=", "properties": {"ref": "chicago_alton-williams", "@spider": "geico", "office": "insurance", "addr:full": "4769B W Cermak Rd", "addr:city": "Cicero", "addr:state": "IL", "addr:postcode": "60804", "name": "Alton Williams", "phone": "708-735-8900", "website": "https://www.geico.com/insurance-agents/illinois/chicago/alton-williams/", "brand": "GEICO", "brand:wikidata": "Q1498689", "nsi_id": "geico-6b1e37"}, "geometry": {"type": "Point", "coordinates": [-87.7427835, 41.8507704]}},
{"type": "Feature", "id": "jSPqC8uUaik4oBcb-TmMqg4HDtU=", "properties": {"ref": "chicago_allan-gerszonovicz", "@spider": "geico", "office": "insurance", "addr:full": "7111 West Dempster Street", "addr:city": "Niles", "addr:state": "IL", "addr:postcode": "60714", "name": "Allan Gerszonovicz", "phone": "847-779-8101", "website": "https://www.geico.com/insurance-agents/illinois/chicago/allan-gerszonovicz/", "brand": "GEICO", "brand:wikidata": "Q1498689", "nsi_id": "geico-6b1e37"}, "geometry": {"type": "Point", "coordinates": [-87.804636, 42.0404063]}},
{"type": "Feature", "id": "Mk32KG7aF87rqe3iyp57E8frsC0=", "properties": {"ref": "boise_nathan-bude", "@spider": "geico", "office": "insurance", "addr:full": "2959 N Eagle Rd.", "addr:city": "Meridian", "addr:state": "ID", "addr:postcode": "83646", "name": "Nathan Bude", "phone": "208-917-6050", "website": "https://www.geico.com/insurance-agents/idaho/boise/nathan-bude/", "brand": "GEICO", "brand:wikidata": "Q1498689", "nsi_id": "geico-6b1e37"}, "geometry": {"type": "Point", "coordinates": [-116.3550709, 43.6317386]}},
{"type": "Feature", "id": "kSZWKrv4U2XnSvXBOhua9Ag2b5I=", "properties": {"ref": "honolulu_kevin-mak", "@spider": "geico", "office": "insurance", "addr:full": "563 Farrington HWY #105", "addr:city": "Honolulu", "addr:state": "HI", "addr:postcode": "96707", "name": "Kevin Mak", "phone": "808-913-6331 ", "website": "https://www.geico.com/insurance-agents/hawaii/honolulu/kevin-mak/", "brand": "GEICO", "brand:wikidata": "Q1498689", "nsi_id": "geico-6b1e37"}, "geometry": {"type": "Point", "coordinates": [-158.0778685, 21.3378658]}},
{"type": "Feature", "id": "S8BzAlTF3lcWN1lEnFtBA1XO7iY=", "properties": {"ref": "savannah_rick-spinks", "@spider": "geico", "office": "insurance", "addr:full": "7601 Waters Avenue, Suite M", "addr:city": "Savannah", "addr:state": "GA", "addr:postcode": "31406", "name": "Rick Spinks", "phone": "912-352-1271", "website": "https://www.geico.com/insurance-agents/georgia/savannah/rick-spinks/", "brand": "GEICO", "brand:wikidata": "Q1498689", "nsi_id": "geico-6b1e37"}, "geometry": {"type": "Point", "coordinates": [-81.1027587, 32.0029593]}},
{"type": "Feature", "id": "-YafZiVrmf_vlU3pyGnBZlDi3PE=", "properties": {"ref": "savannah_jon-butler", "@spider": "geico", "office": "insurance", "addr:full": "63 Towne Dr", "addr:city": "Bluffton", "addr:state": "SC", "addr:postcode": "29910", "name": "Jon Butler", "phone": "843-949-6130", "website": "https://www.geico.com/insurance-agents/georgia/savannah/jon-butler/", "brand": "GEICO", "brand:wikidata": "Q1498689", "nsi_id": "geico-6b1e37"}, "geometry": {"type": "Point", "coordinates": [-80.8602261, 32.2696988]}},
{"type": "Feature", "id": "7uJwmnw8aovZsG84xi0v_hiDIEg=", "properties": {"ref": "macon_steven-wilson", "@spider": "geico", "office": "insurance", "addr:full": "2801 Watson Blvd", "addr:city": "Warner Robins", "addr:state": "GA", "addr:postcode": "31093", "name": "Steven Wilson", "phone": "478-922-8114", "website": "https://www.geico.com/insurance-agents/georgia/macon/steven-wilson/", "brand": "GEICO", "brand:wikidata": "Q1498689", "nsi_id": "geico-6b1e37"}, "geometry": {"type": "Point", "coordinates": [-83.6768528, 32.6178156]}},
{"type": "Feature", "id": "BByiVuxrvHSYFHIksu3x2OIahl0=", "properties": {"ref": "columbus_mendez-hollis", "@spider": "geico", "office": "insurance", "addr:full": "6053 Veterans Parkway, Suite 201", "addr:city": "Columbus", "addr:state": "GA", "addr:postcode": "31909", "name": "Mendez Hollis", "phone": "706-689-2787", "website": "https://www.geico.com/insurance-agents/georgia/columbus/mendez-hollis/", "brand": "GEICO", "brand:wikidata": "Q1498689", "nsi_id": "geico-6b1e37"}, "geometry": {"type": "Point", "coordinates": [-84.956658, 32.5320405]}},
{"type": "Feature", "id": "jyryMDMZve7hiqUkmgySbzt6LkQ=", "properties": {"ref": "augusta_jay-harden", "@spider": "geico", "office": "insurance", "addr:full": "630 Crane Creek Dr, Suite 303", "addr:city": "Augusta", "addr:state": "GA", "addr:postcode": "30907", "name": "Jay Harden", "phone": "706-793-7290", "website": "https://www.geico.com/insurance-agents/georgia/augusta/jay-harden/", "brand": "GEICO", "brand:wikidata": "Q1498689", "nsi_id": "geico-6b1e37"}, "geometry": {"type": "Point", "coordinates": [-82.0788315, 33.4966501]}},
{"type": "Feature", "id": "WBUGGkMc_tI3mUfuE7DkDc1tfZY=", "properties": {"ref": "atlanta_sheldon-whittaker", "@spider": "geico", "office": "insurance", "addr:full": "5197 Stone Mountain Hwy.", "addr:city": "Stone Mountain", "addr:state": "GA", "addr:postcode": "30087", "name": "Sheldon Whittaker", "phone": "770-576-2400", "website": "https://www.geico.com/insurance-agents/georgia/atlanta/sheldon-whittaker/", "brand": "GEICO", "brand:wikidata": "Q1498689", "nsi_id": "geico-6b1e37"}, "geometry": {"type": "Point", "coordinates": [-84.1099072, 33.8242882]}},
{"type": "Feature", "id": "0qk7OvkhqMP6N3d3GImKEJmV3n0=", "properties": {"ref": "atlanta_nick-kuglar", "@spider": "geico", "office": "insurance", "addr:full": "311 Bullsboro Dr., Suite 130", "addr:city": "Newnan", "addr:state": "GA", "addr:postcode": "30263", "name": "Nick Kuglar", "phone": "470-686-8000", "website": "https://www.geico.com/insurance-agents/georgia/atlanta/nick-kuglar/", "brand": "GEICO", "brand:wikidata": "Q1498689", "nsi_id": "geico-6b1e37"}, "geometry": {"type": "Point", "coordinates": [-84.7647467, 33.3930969]}},
{"type": "Feature", "id": "w7t0Hvl1BQeUeJ_1ad2b-t06_EI=", "properties": {"ref": "atlanta_kim-dao", "@spider": "geico", "office": "insurance", "addr:full": "2512 Blackmon Dr., Suite 920,", "addr:city": "Decatur", "addr:state": "GA", "addr:postcode": "30033", "name": "Kim Dao", "phone": "404-799-4282", "website": "https://www.geico.com/insurance-agents/georgia/atlanta/kim-dao/", "brand": "GEICO", "brand:wikidata": "Q1498689", "nsi_id": "geico-6b1e37"}, "geometry": {"type": "Point", "coordinates": [-84.2862645, 33.7954448]}},
{"type": "Feature", "id": "0fjRIa3_xTlfNtOCyd4JiTm9yCs=", "properties": {"ref": "atlanta_john-gordon", "@spider": "geico", "office": "insurance", "addr:full": "10800 Alpharetta Highway, #192", "addr:city": "Roswell", "addr:state": "GA", "addr:postcode": "30076", "name": "John Gordon", "phone": "470-639-3910", "website": "https://www.geico.com/insurance-agents/georgia/atlanta/john-gordon/", "brand": "GEICO", "brand:wikidata": "Q1498689", "nsi_id": "geico-6b1e37"}, "geometry": {"type": "Point", "coordinates": [-84.3413333, 34.0441028]}},
{"type": "Feature", "id": "_99QvuO1-x1HC71KIPCmS9wk7Kg=", "properties": {"ref": "atlanta_jim-somers", "@spider": "geico", "office": "insurance", "addr:full": "3455 Peachtree Industrial Blvd, Suite 225", "addr:city": "Duluth", "addr:state": "GA", "addr:postcode": "30096", "name": "Jim Somers", "phone": "770-753-9300", "website": "https://www.geico.com/insurance-agents/georgia/atlanta/jim-somers/", "brand": "GEICO", "brand:wikidata": "Q1498689", "nsi_id": "geico-6b1e37"}, "geometry": {"type": "Point", "coordinates": [-84.1735744, 34.0054581]}},
{"type": "Feature", "id": "soAP7Nj92Xx9kuvfjmgJXHHpzlo=", "properties": {"ref": "atlanta_jesse-warren", "@spider": "geico", "office": "insurance", "addr:full": "2095 Hwy 211 NW, Suite 1A", "addr:city": "Braselton", "addr:state": "GA", "addr:postcode": "30517", "name": "Jesse Warren", "phone": "470-429-6290", "website": "https://www.geico.com/insurance-agents/georgia/atlanta/jesse-warren/", "brand": "GEICO", "brand:wikidata": "Q1498689", "nsi_id": "geico-6b1e37"}, "geometry": {"type": "Point", "coordinates": [-83.8131788, 34.102179]}},
{"type": "Feature", "id": "C01oA_3cSCW3W2rmIqLUyhumpAc=", "properties": {"ref": "atlanta_jerry-sorrels", "@spider": "geico", "office": "insurance", "addr:full": "2125 Roswell Road, Suite 25", "addr:city": "Marietta", "addr:state": "GA", "addr:postcode": "30062", "name": "Jerry Sorrels", "phone": "770-565-9696", "website": "https://www.geico.com/insurance-agents/georgia/atlanta/jerry-sorrels/", "brand": "GEICO", "brand:wikidata": "Q1498689", "nsi_id": "geico-6b1e37"}, "geometry": {"type": "Point", "coordinates": [-84.491798, 33.9674087]}},
{"type": "Feature", "id": "1WcCcTkYoH86VbKVV6OrlbQITx4=", "properties": {"ref": "atlanta_jerica-decarish", "@spider": "geico", "office": "insurance", "addr:full": "1955 GA-138 Suite 500", "addr:city": "Conyers", "addr:state": "GA", "addr:postcode": "30013", "name": "Jerica Decarish", "phone": "470-914-0000", "website": "https://www.geico.com/insurance-agents/georgia/atlanta/jerica-decarish/", "brand": "GEICO", "brand:wikidata": "Q1498689", "nsi_id": "geico-6b1e37"}, "geometry": {"type": "Point", "coordinates": [-83.9805027, 33.6720785]}},
{"type": "Feature", "id": "CoTtCNX3eJPVFjiGm3btKKMYL3w=", "properties": {"ref": "atlanta_jason-cobb", "@spider": "geico", "office": "insurance", "addr:full": "1720 Epps Bridge Pkwy Suite 106", "addr:city": "Athens", "addr:state": "GA", "addr:postcode": "30606", "name": "Jason Cobb", "phone": "762-400-5070", "website": "https://www.geico.com/insurance-agents/georgia/atlanta/jason-cobb/", "brand": "GEICO", "brand:wikidata": "Q1498689", "nsi_id": "geico-6b1e37"}, "geometry": {"type": "Point", "coordinates": [-83.4470602, 33.9136915]}},
{"type": "Feature", "id": "FagQuO0w1U_iR4Mhqz3igc0a_NM=", "properties": {"ref": "atlanta_charles-solomon", "@spider": "geico", "office": "insurance", "addr:full": "3680 Cascade Road, Suite C", "addr:city": "Atlanta", "addr:state": "GA", "addr:postcode": "30331", "name": "Charles Solomon", "phone": "404-472-9003", "website": "https://www.geico.com/insurance-agents/georgia/atlanta/charles-solomon/", "brand": "GEICO", "brand:wikidata": "Q1498689", "nsi_id": "geico-6b1e37"}, "geometry": {"type": "Point", "coordinates": [-84.5083669, 33.7229639]}},
{"type": "Feature", "id": "KsE4CGNaEPzmi8VeFd3ybDp9bHw=", "properties": {"ref": "atlanta_brian-hicks", "@spider": "geico", "office": "insurance", "addr:full": "1930 Cobb Parkway, Suite 110", "addr:city": "Kennesaw", "addr:state": "GA", "addr:postcode": "30144", "name": "Brian Hicks", "phone": "470-938-7200", "website": "https://www.geico.com/insurance-agents/georgia/atlanta/brian-hicks/", "brand": "GEICO", "brand:wikidata": "Q1498689", "nsi_id": "geico-6b1e37"}, "geometry": {"type": "Point", "coordinates": [-84.5891999, 34.0001522]}},
{"type": "Feature", "id": "CLKCIGB-X3sezCCsQrCeVWTrhp0=", "properties": {"ref": "atlanta_alveno-nelson", "@spider": "geico", "office": "insurance", "addr:full": "121 South Point Blvd.", "addr:city": "McDonough", "addr:state": "GA", "addr:postcode": "30253", "name": "Alveno Nelson", "phone": "470-483-0350", "website": "https://www.geico.com/insurance-agents/georgia/atlanta/alveno-nelson/", "brand": "GEICO", "brand:wikidata": "Q1498689", "nsi_id": "geico-6b1e37"}, "geometry": {"type": "Point", "coordinates": [-84.1888105, 33.4230276]}},
{"type": "Feature", "id": "m4NBclYxm59eBjVp91QyKZvL6Ig=", "properties": {"ref": "west-palm-beach_steven-sprague-jr", "@spider": "geico", "office": "insurance", "addr:full": "8903 Glades Road, # L-6", "addr:city": "Boca Raton", "addr:state": "FL", "addr:postcode": "33434", "name": "Steven Sprague Jr.", "phone": "561-226-8250", "website": "https://www.geico.com/insurance-agents/florida/west-palm-beach/steven-sprague-jr/", "brand": "GEICO", "brand:wikidata": "Q1498689", "nsi_id": "geico-6b1e37"}, "geometry": {"type": "Point", "coordinates": [-80.1853706, 26.3693937]}},
{"type": "Feature", "id": "yVQRs7UNuru-tfHC1tuF_GO6JWY=", "properties": {"ref": "west-palm-beach_steve-sprague", "@spider": "geico", "office": "insurance", "addr:full": "884 North Military Trail", "addr:city": "West Palm Beach", "addr:state": "FL", "addr:postcode": "33415", "name": "Steve Sprague", "phone": "561-616-5944", "website": "https://www.geico.com/insurance-agents/florida/west-palm-beach/steve-sprague/", "brand": "GEICO", "brand:wikidata": "Q1498689", "nsi_id": "geico-6b1e37"}, "geometry": {"type": "Point", "coordinates": [-80.1110585, 26.6906096]}},
{"type": "Feature", "id": "T1dcurAOJzCn6VPJ6pzJ9YgfJkc=", "properties": {"ref": "west-palm-beach_maggie-deng", "@spider": "geico", "office": "insurance", "addr:full": "921 15th Pl", "addr:city": "Vero Beach", "addr:state": "FL", "addr:postcode": "32960", "name": "Maggie Deng", "phone": "772-400-6680", "website": "https://www.geico.com/insurance-agents/florida/west-palm-beach/maggie-deng/", "brand": "GEICO", "brand:wikidata": "Q1498689", "nsi_id": "geico-6b1e37"}, "geometry": {"type": "Point", "coordinates": [-80.3901303, 27.6297728]}},
{"type": "Feature", "id": "95wOxK7FEhruqs0VFZwgQvVVNyc=", "properties": {"ref": "west-palm-beach_caroline-sprague", "@spider": "geico", "office": "insurance", "addr:full": "9851 S Military Trail, Suite F", "addr:city": "Boynton Beach", "addr:state": "FL", "addr:postcode": "33436", "name": "Caroline Sprague", "phone": "561-903-3400", "website": "https://www.geico.com/insurance-agents/florida/west-palm-beach/caroline-sprague/", "brand": "GEICO", "brand:wikidata": "Q1498689", "nsi_id": "geico-6b1e37"}, "geometry": {"type": "Point", "coordinates": [-80.1242117, 26.5303902]}},
{"type": "Feature", "id": "VYkmHOlr7HcS9cYktAHFQQQ5N84=", "properties": {"ref": "tampa_ryan-gunkel", "@spider": "geico", "office": "insurance", "addr:full": "5935 Cypress Gardens Blvd Suite 200", "addr:city": "Winter Haven", "addr:state": "FL", "addr:postcode": "33884", "name": "Ryan Gunkel", "phone": "863-269-4700", "website": "https://www.geico.com/insurance-agents/florida/tampa/ryan-gunkel/", "brand": "GEICO", "brand:wikidata": "Q1498689", "nsi_id": "geico-6b1e37"}, "geometry": {"type": "Point", "coordinates": [-81.6891854, 27.992731]}},
{"type": "Feature", "id": "Z7XQdWWbssSwYAerNcMl2cTYPxk=", "properties": {"ref": "tampa_jose-loret-de-mola", "@spider": "geico", "office": "insurance", "addr:full": "3924 US-301", "addr:city": "Riverview", "addr:state": "FL", "addr:postcode": "33578", "name": "Jose Loret de Mola", "phone": "813-425-8700", "website": "https://www.geico.com/insurance-agents/florida/tampa/jose-loret-de-mola/", "brand": "GEICO", "brand:wikidata": "Q1498689", "nsi_id": "geico-6b1e37"}, "geometry": {"type": "Point", "coordinates": [-82.3476114, 27.9127776]}},
{"type": "Feature", "id": "5fmEyC39iu38XOjrb6eXCYvsPY0=", "properties": {"ref": "tampa_joe-pignatora", "@spider": "geico", "office": "insurance", "addr:full": "13887 Tamiami Trail", "addr:city": "North Port", "addr:state": "FL", "addr:postcode": "34287", "name": "Joe Pignatora", "phone": "941-240-3400", "website": "https://www.geico.com/insurance-agents/florida/tampa/joe-pignatora/", "brand": "GEICO", "brand:wikidata": "Q1498689", "nsi_id": "geico-6b1e37"}, "geometry": {"type": "Point", "coordinates": [-82.2442571, 27.0456847]}},
{"type": "Feature", "id": "Rm3yX9IcmS63NHvbNt6i0FWuY0w=", "properties": {"ref": "tampa_jim-leavy", "@spider": "geico", "office": "insurance", "addr:full": "7406 North Tamiami Trail", "addr:city": "Sarasota", "addr:state": "FL", "addr:postcode": "34243", "name": "Jim Leavy", "phone": "941-753-2886", "website": "https://www.geico.com/insurance-agents/florida/tampa/jim-leavy/", "brand": "GEICO", "brand:wikidata": "Q1498689", "nsi_id": "geico-6b1e37"}, "geometry": {"type": "Point", "coordinates": [-82.5706737, 27.4088247]}},
{"type": "Feature", "id": "O9t80IbV4ro5YVAEcfD72OW515c=", "properties": {"ref": "tampa_james-boley", "@spider": "geico", "office": "insurance", "addr:full": "3615 South Florida Avenue, Suite 910", "addr:city": "Lakeland", "addr:state": "FL", "addr:postcode": "33803", "name": "James Boley", "phone": "863-400-7460", "website": "https://www.geico.com/insurance-agents/florida/tampa/james-boley/", "brand": "GEICO", "brand:wikidata": "Q1498689", "nsi_id": "geico-6b1e37"}, "geometry": {"type": "Point", "coordinates": [-81.959121, 27.9981382]}},
{"type": "Feature", "id": "Bq-Tey3XxYMWbQbtzlQ2JUqi680=", "properties": {"ref": "tampa_jaime-bryant", "@spider": "geico", "office": "insurance", "addr:full": "1227 Bruce B Downs Blvd", "addr:city": "Wesley Chapel", "addr:state": "FL", "addr:postcode": "33544", "name": "Jaime Bryant", "phone": "813-953-4200", "website": "https://www.geico.com/insurance-agents/florida/tampa/jaime-bryant/", "brand": "GEICO", "brand:wikidata": "Q1498689", "nsi_id": "geico-6b1e37"}, "geometry": {"type": "Point", "coordinates": [-82.355382, 28.1743851]}},
{"type": "Feature", "id": "X1WVTPSl2b1HwW_eT_vCsz3LGSc=", "properties": {"ref": "tampa_gustavo-espinosa", "@spider": "geico", "office": "insurance", "addr:full": "18423 US Highway 19 N.", "addr:city": "Clearwater", "addr:state": "FL", "addr:postcode": "33764", "name": "Gustavo Espinosa", "phone": "727-373-1283", "website": "https://www.geico.com/insurance-agents/florida/tampa/gustavo-espinosa/", "brand": "GEICO", "brand:wikidata": "Q1498689", "nsi_id": "geico-6b1e37"}, "geometry": {"type": "Point", "coordinates": [-82.7296354, 27.9403836]}},
{"type": "Feature", "id": "A0SjiD056X6YT3jI6fpD190xafk=", "properties": {"ref": "tampa_felipe-soto", "@spider": "geico", "office": "insurance", "addr:full": "7787 Dr MLK Jr St N", "addr:city": "St. Petersburg", "addr:state": "FL", "addr:postcode": "33702", "name": "Felipe Soto", "phone": "727-292-9500", "website": "https://www.geico.com/insurance-agents/florida/tampa/felipe-soto/", "brand": "GEICO", "brand:wikidata": "Q1498689", "nsi_id": "geico-6b1e37"}, "geometry": {"type": "Point", "coordinates": [-82.6461591, 27.8440915]}},
{"type": "Feature", "id": "J2VgeaduhR_GSPStoC4mFZd9jLY=", "properties": {"ref": "tampa_dave-donoho", "@spider": "geico", "office": "insurance", "addr:full": "2703 West Kennedy Boulevard", "addr:city": "Tampa", "addr:state": "FL", "addr:postcode": "33609", "name": "Dave Donoho", "phone": "813-259-1142", "website": "https://www.geico.com/insurance-agents/florida/tampa/dave-donoho/", "brand": "GEICO", "brand:wikidata": "Q1498689", "nsi_id": "geico-6b1e37"}, "geometry": {"type": "Point", "coordinates": [-82.4881546, 27.94513]}},
{"type": "Feature", "id": "vCRO29XePsDeyeAANpP1hno1cA0=", "properties": {"ref": "tampa_andrea-neiman", "@spider": "geico", "office": "insurance", "addr:full": "5149 US 19", "addr:city": "New Port Richey", "addr:state": "FL", "addr:postcode": "34652", "name": "Andrea Neiman", "phone": "727-484-1089", "website": "https://www.geico.com/insurance-agents/florida/tampa/andrea-neiman/", "brand": "GEICO", "brand:wikidata": "Q1498689", "nsi_id": "geico-6b1e37"}, "geometry": {"type": "Point", "coordinates": [-82.7302015, 28.2345006]}},
{"type": "Feature", "id": "S03W-zzIC9ZBf9HxgAVVoA55c78=", "properties": {"ref": "tallahassee_tyson-barrett", "@spider": "geico", "office": "insurance", "addr:full": "1571 Baytree Rd", "addr:city": "Valdosta", "addr:state": "GA", "addr:postcode": "31602", "name": "Tyson Barrett", "phone": "229-262-6720 ", "website": "https://www.geico.com/insurance-agents/florida/tallahassee/tyson-barrett/", "brand": "GEICO", "brand:wikidata": "Q1498689", "nsi_id": "geico-6b1e37"}, "geometry": {"type": "Point", "coordinates": [-83.3216855, 30.8466707]}},
{"type": "Feature", "id": "I-6lYKHspVL4zQolZafWcubSWVY=", "properties": {"ref": "miami-ft-lauderdale_jose-laurido", "@spider": "geico", "office": "insurance", "addr:full": "809 N Homestead Blvd", "addr:city": "Homestead", "addr:state": "FL", "addr:postcode": "33030", "name": "Jose Laurido", "phone": "786-572-6450", "website": "https://www.geico.com/insurance-agents/florida/miami-ft-lauderdale/jose-laurido/", "brand": "GEICO", "brand:wikidata": "Q1498689", "nsi_id": "geico-6b1e37"}, "geometry": {"type": "Point", "coordinates": [-80.4640053, 25.4779317]}},
{"type": "Feature", "id": "Ed8pOeKwKWXOoLFna2VGobulEy8=", "properties": {"ref": "miami-ft-lauderdale_jorge-milanes", "@spider": "geico", "office": "insurance", "addr:full": "17029 South Dixie Highway", "addr:city": "Palmetto Bay", "addr:state": "FL", "addr:postcode": "33157", "name": "Jorge Milanes", "phone": "305-421-8000", "website": "https://www.geico.com/insurance-agents/florida/miami-ft-lauderdale/jorge-milanes/", "brand": "GEICO", "brand:wikidata": "Q1498689", "nsi_id": "geico-6b1e37"}, "geometry": {"type": "Point", "coordinates": [-80.3472543, 25.6097094]}},
{"type": "Feature", "id": "rIGsUR7PymZ_656lzhsn2UUBWMc=", "properties": {"ref": "miami-ft-lauderdale_gilbert-suarez", "@spider": "geico", "office": "insurance", "addr:full": "13631 Biscayne Boulevard", "addr:city": "North Miami", "addr:state": "FL", "addr:postcode": "33181", "name": "Gilbert Suarez", "phone": "305-914-9220", "website": "https://www.geico.com/insurance-agents/florida/miami-ft-lauderdale/gilbert-suarez/", "brand": "GEICO", "brand:wikidata": "Q1498689", "nsi_id": "geico-6b1e37"}, "geometry": {"type": "Point", "coordinates": [-80.1593425, 25.9014056]}},
{"type": "Feature", "id": "i2Gj16nh6TjNkQ4gwR41HQpBX4o=", "properties": {"ref": "jacksonville_ralph-perez", "@spider": "geico", "office": "insurance", "addr:full": "410 Blanding Blvd.", "addr:city": "Orange Park", "addr:state": "FL", "addr:postcode": "32073", "name": "Ralph Perez", "phone": "904-622-1850", "website": "https://www.geico.com/insurance-agents/florida/jacksonville/ralph-perez/", "brand": "GEICO", "brand:wikidata": "Q1498689", "nsi_id": "geico-6b1e37"}, "geometry": {"type": "Point", "coordinates": [-81.7488763, 30.1632247]}},
{"type": "Feature", "id": "PFfYTXhp6PgR1gWinDmyh-ls7VA=", "properties": {"ref": "jacksonville_madeline-nguyen", "@spider": "geico", "office": "insurance", "addr:full": "10150 Beach Boulevard, Unit 10", "addr:city": "Jacksonville", "addr:state": "FL", "addr:postcode": "32246", "name": "Madeline Nguyen", "phone": "904-661-3900", "website": "https://www.geico.com/insurance-agents/florida/jacksonville/madeline-nguyen/", "brand": "GEICO", "brand:wikidata": "Q1498689", "nsi_id": "geico-6b1e37"}, "geometry": {"type": "Point", "coordinates": [-81.5495128, 30.2860288]}},
{"type": "Feature", "id": "mi8ntaQR06fdudTkRb1NeRVq5x4=", "properties": {"ref": "jacksonville_christopher-brown", "@spider": "geico", "office": "insurance", "addr:full": "224 FL-312", "addr:city": "St. Augustine", "addr:state": "FL", "addr:postcode": "32086", "name": "Christopher Brown", "phone": "904-506-6500", "website": "https://www.geico.com/insurance-agents/florida/jacksonville/christopher-brown/", "brand": "GEICO", "brand:wikidata": "Q1498689", "nsi_id": "geico-6b1e37"}, "geometry": {"type": "Point", "coordinates": [-81.3200211, 29.868494]}},
{"type": "Feature", "id": "iLSJO6BVU84zVGe4hUKBeKtXX54=", "properties": {"ref": "gainesville_ken-castellani", "@spider": "geico", "office": "insurance", "addr:full": "3080 SW Archer Road, Suite 10", "addr:city": "Gainesville", "addr:state": "FL", "addr:postcode": "32608", "name": "Ken Castellani", "phone": "352-375-2886", "website": "https://www.geico.com/insurance-agents/florida/gainesville/ken-castellani/", "brand": "GEICO", "brand:wikidata": "Q1498689", "nsi_id": "geico-6b1e37"}, "geometry": {"type": "Point", "coordinates": [-82.3688415, 29.6293889]}},
{"type": "Feature", "id": "V0wkkoQQM0AP7KbF6uzVmmrpnYM=", "properties": {"ref": "ft-myers-naples_mickey-carney", "@spider": "geico", "office": "insurance", "addr:full": "3701 Tamiami Trail", "addr:city": "Naples", "addr:state": "FL", "addr:postcode": "34103", "name": "Mickey Carney", "phone": "239-316-5600", "website": "https://www.geico.com/insurance-agents/florida/ft-myers-naples/mickey-carney/", "brand": "GEICO", "brand:wikidata": "Q1498689", "nsi_id": "geico-6b1e37"}, "geometry": {"type": "Point", "coordinates": [-81.8006151, 26.1907146]}},
{"type": "Feature", "id": "zcQC6Ltb5BGi9eIXnVIHMnDIdxo=", "properties": {"ref": "ft-myers-naples_fred-trelli", "@spider": "geico", "office": "insurance", "addr:full": "12123 South Cleveland Avenue", "addr:city": "Fort Myers", "addr:state": "FL", "addr:postcode": "33907", "name": "Fred Trelli", "phone": "239-415-7777", "website": "https://www.geico.com/insurance-agents/florida/ft-myers-naples/fred-trelli/", "brand": "GEICO", "brand:wikidata": "Q1498689", "nsi_id": "geico-6b1e37"}, "geometry": {"type": "Point", "coordinates": [-81.8713948, 26.5662483]}},
{"type": "Feature", "id": "D74zp0w_OKAxRjrhppCUx-p-Ors=", "properties": {"ref": "washington_lashawn-hayes", "@spider": "geico", "office": "insurance", "addr:full": "3115 14th Street, NW", "addr:city": "Washington", "addr:state": "DC", "addr:postcode": "20010", "name": "Lashawn Hayes", "phone": "202-920-8600", "website": "https://www.geico.com/insurance-agents/district-of-columbia/washington/lashawn-hayes/", "brand": "GEICO", "brand:wikidata": "Q1498689", "nsi_id": "geico-6b1e37"}, "geometry": {"type": "Point", "coordinates": [-77.0323027, 38.9297164]}},
{"type": "Feature", "id": "Gn63vjJF-elWT1QBBmRCWYucdhQ=", "properties": {"ref": "philadelphia_anne-scharp", "@spider": "geico", "office": "insurance", "addr:full": "3925 Kirkwood Highway", "addr:city": "Wilmington", "addr:state": "DE", "addr:postcode": "19808", "name": "Anne Scharp", "phone": "302-998-9192", "website": "https://www.geico.com/insurance-agents/delaware/philadelphia/anne-scharp/", "brand": "GEICO", "brand:wikidata": "Q1498689", "nsi_id": "geico-6b1e37"}, "geometry": {"type": "Point", "coordinates": [-75.6461979, 39.7304676]}},
{"type": "Feature", "id": "RNi-DvQKIRJtAW8yVWHp-LEev8g=", "properties": {"ref": "new-york_mark-fields", "@spider": "geico", "office": "insurance", "addr:full": "572 Main Ave, Route 7", "addr:city": "Norwalk", "addr:state": "CT", "addr:postcode": "06851", "name": "Mark Fields", "phone": "203-523-4910", "website": "https://www.geico.com/insurance-agents/connecticut/new-york/mark-fields/", "brand": "GEICO", "brand:wikidata": "Q1498689", "nsi_id": "geico-6b1e37"}, "geometry": {"type": "Point", "coordinates": [-73.4216813, 41.1568653]}},
{"type": "Feature", "id": "jLp-c3nGT5tH84wi6yWeJm_zNd4=", "properties": {"ref": "hartford_neil-feigl", "@spider": "geico", "office": "insurance", "addr:full": "525 Boston Post Road", "addr:city": "Orange", "addr:state": "CT", "addr:postcode": "06477", "name": "Neil Feigl", "phone": "203-799-2886", "website": "https://www.geico.com/insurance-agents/connecticut/hartford/neil-feigl/", "brand": "GEICO", "brand:wikidata": "Q1498689", "nsi_id": "geico-6b1e37"}, "geometry": {"type": "Point", "coordinates": [-73.0182742, 41.2539834]}},
{"type": "Feature", "id": "sxdpxJ0xAVT3O3mDqSIwvj9Te9I=", "properties": {"ref": "hartford_mark-nickerson", "@spider": "geico", "office": "insurance", "addr:full": "711 Broad Street Extension", "addr:city": "Waterford", "addr:state": "CT", "addr:postcode": "06385", "name": "Mark Nickerson", "phone": "860-865-2060", "website": "https://www.geico.com/insurance-agents/connecticut/hartford/mark-nickerson/", "brand": "GEICO", "brand:wikidata": "Q1498689", "nsi_id": "geico-6b1e37"}, "geometry": {"type": "Point", "coordinates": [-72.1263867, 41.368026]}},
{"type": "Feature", "id": "Zf1kbHo_QR3Z6bGsm29vEVwn5kc=", "properties": {"ref": "hartford_germany-jimenez", "@spider": "geico", "office": "insurance", "addr:full": "372 Middle Turnpike West", "addr:city": "Manchester", "addr:state": "CT", "addr:postcode": "06040", "name": "Germany Jimenez", "phone": "860-812-6300", "website": "https://www.geico.com/insurance-agents/connecticut/hartford/germany-jimenez/", "brand": "GEICO", "brand:wikidata": "Q1498689", "nsi_id": "geico-6b1e37"}, "geometry": {"type": "Point", "coordinates": [-72.5400589, 41.7790953]}},
{"type": "Feature", "id": "s9rpC85REqKT8SBGIZqHUsRRXyw=", "properties": {"ref": "hartford_david-johnson", "@spider": "geico", "office": "insurance", "addr:full": "2434 Berlin Turnpike", "addr:city": "Newington", "addr:state": "CT", "addr:postcode": "06111", "name": "David Johnson", "phone": "860-667-0877", "website": "https://www.geico.com/insurance-agents/connecticut/hartford/david-johnson/", "brand": "GEICO", "brand:wikidata": "Q1498689", "nsi_id": "geico-6b1e37"}, "geometry": {"type": "Point", "coordinates": [-72.7081675, 41.6844436]}},
{"type": "Feature", "id": "39kDohKW--D28bss3HGxYED57yc=", "properties": {"ref": "denver_wynter-pacha", "@spider": "geico", "office": "insurance", "addr:full": "550 East Thornton Pkwy, Suite #218", "addr:city": "Thornton", "addr:state": "CO", "addr:postcode": "80229", "name": "Wynter Pacha", "phone": "720-624-2200", "website": "https://www.geico.com/insurance-agents/colorado/denver/wynter-pacha/", "brand": "GEICO", "brand:wikidata": "Q1498689", "nsi_id": "geico-6b1e37"}, "geometry": {"type": "Point", "coordinates": [-104.9796893, 39.8694275]}},
{"type": "Feature", "id": "HYMWSCoUxtiL_UqtmGKUJ9vGKVA=", "properties": {"ref": "denver_steve-allen", "@spider": "geico", "office": "insurance", "addr:full": "2024 East Harmony Road, Suite 120", "addr:city": "Ft. Collins", "addr:state": "CO", "addr:postcode": "80528", "name": "Steve Allen", "phone": "970-221-5230", "website": "https://www.geico.com/insurance-agents/colorado/denver/steve-allen/", "brand": "GEICO", "brand:wikidata": "Q1498689", "nsi_id": "geico-6b1e37"}, "geometry": {"type": "Point", "coordinates": [-105.0398333, 40.523636]}},
{"type": "Feature", "id": "L5CbjryjE2VNkun17ZWVNL6K6zg=", "properties": {"ref": "denver_sandy-perkins", "@spider": "geico", "office": "insurance", "addr:full": "6840 S University Blvd,", "addr:city": "Centennial", "addr:state": "CO", "addr:postcode": "80122", "name": "Sandy Perkins", "phone": "303-730-2426", "website": "https://www.geico.com/insurance-agents/colorado/denver/sandy-perkins/", "brand": "GEICO", "brand:wikidata": "Q1498689", "nsi_id": "geico-6b1e37"}, "geometry": {"type": "Point", "coordinates": [-104.9596029, 39.5926876]}},
{"type": "Feature", "id": "ZU7wHMzRQ2_b2MlKc7SWfcGGgak=", "properties": {"ref": "denver_michael-martinez", "@spider": "geico", "office": "insurance", "addr:full": "5145 Kipling Street", "addr:city": "Wheat Ridge", "addr:state": "CO", "addr:postcode": "80033", "name": "Michael Martinez", "phone": "303-537-8252", "website": "https://www.geico.com/insurance-agents/colorado/denver/michael-martinez/", "brand": "GEICO", "brand:wikidata": "Q1498689", "nsi_id": "geico-6b1e37"}, "geometry": {"type": "Point", "coordinates": [-105.1099529, 39.7897629]}},
{"type": "Feature", "id": "SOX9fiiBIfqaG8EtgENL2nRNt3E=", "properties": {"ref": "denver_john-sanchez", "@spider": "geico", "office": "insurance", "addr:full": "10550 E Garden Dr, Suite 104", "addr:city": "Aurora", "addr:state": "CO", "addr:postcode": "80012", "name": "John Sanchez", "phone": "303-824-3430", "website": "https://www.geico.com/insurance-agents/colorado/denver/john-sanchez/", "brand": "GEICO", "brand:wikidata": "Q1498689", "nsi_id": "geico-6b1e37"}, "geometry": {"type": "Point", "coordinates": [-104.8648476, 39.6933841]}},
{"type": "Feature", "id": "RSwBQTg7uhCHCi4fGXfla3PD7Ss=", "properties": {"ref": "denver_alec-miller", "@spider": "geico", "office": "insurance", "addr:full": "10530 S Parker Rd, Unit #A-B", "addr:city": "Parker", "addr:state": "CO", "addr:postcode": "80134", "name": "Alec Miller", "phone": "303-583-1500", "website": "https://www.geico.com/insurance-agents/colorado/denver/alec-miller/", "brand": "GEICO", "brand:wikidata": "Q1498689", "nsi_id": "geico-6b1e37"}, "geometry": {"type": "Point", "coordinates": [-104.7653572, 39.5254293]}},
{"type": "Feature", "id": "hlNe9Gu7JmH1FjM8smmCp1qIBLg=", "properties": {"ref": "colorado-springs_pawel-posorski", "@spider": "geico", "office": "insurance", "addr:full": "3515 N Chestnut St", "addr:city": "Colorado Springs", "addr:state": "CO", "addr:postcode": "80907", "name": "Pawel Posorski", "phone": "719-960-5490", "website": "https://www.geico.com/insurance-agents/colorado/colorado-springs/pawel-posorski/", "brand": "GEICO", "brand:wikidata": "Q1498689", "nsi_id": "geico-6b1e37"}, "geometry": {"type": "Point", "coordinates": [-104.8367747, 38.8827344]}},
{"type": "Feature", "id": "TDf5iHp9vXKH0cPymygnzL95kMM=", "properties": {"ref": "little-rock_ronald-davis", "@spider": "geico", "office": "insurance", "addr:full": "9101 West Markham St, Suite 26", "addr:city": "Little Rock", "addr:state": "AR", "addr:postcode": "72205", "name": "Ronald Davis", "phone": "501-369-6450", "website": "https://www.geico.com/insurance-agents/arkansas/little-rock/ronald-davis/", "brand": "GEICO", "brand:wikidata": "Q1498689", "nsi_id": "geico-6b1e37"}, "geometry": {"type": "Point", "coordinates": [-92.375269, 34.7523047]}},
{"type": "Feature", "id": "NY33GwHc39JEDGl4Yl1qrepmJLU=", "properties": {"ref": "little-rock_robert-reed", "@spider": "geico", "office": "insurance", "addr:full": "4509 John F Kennedy Boulevard", "addr:city": "North Little Rock", "addr:state": "AR", "addr:postcode": "72116", "name": "Robert Reed", "phone": "501-771-0078", "website": "https://www.geico.com/insurance-agents/arkansas/little-rock/robert-reed/", "brand": "GEICO", "brand:wikidata": "Q1498689", "nsi_id": "geico-6b1e37"}, "geometry": {"type": "Point", "coordinates": [-92.2574043, 34.7953631]}},
{"type": "Feature", "id": "rDtQ9X_6hnwDBJatzs1hNjdJ5l4=", "properties": {"ref": "fort-smith_josiah-dodson", "@spider": "geico", "office": "insurance", "addr:full": "1706 SE Walton Blvd, Suite 6", "addr:city": "Bentonville", "addr:state": "AR", "addr:postcode": "72712", "name": "Josiah Dodson", "phone": "479-326-6100", "website": "https://www.geico.com/insurance-agents/arkansas/fort-smith/josiah-dodson/", "brand": "GEICO", "brand:wikidata": "Q1498689", "nsi_id": "geico-6b1e37"}, "geometry": {"type": "Point", "coordinates": [-94.1894966, 36.3348676]}},
{"type": "Feature", "id": "rN1-lwjab51Usw-fnGUoeIBfulM=", "properties": {"ref": "tucson-sierra-vista_william-derby", "@spider": "geico", "office": "insurance", "addr:full": "6781 Thornydale Rd., Suite 203", "addr:city": "Tucson", "addr:state": "AZ", "addr:postcode": "85741", "name": "William Derby", "phone": "520-416-7181", "website": "https://www.geico.com/insurance-agents/arizona/tucson-sierra-vista/william-derby/", "brand": "GEICO", "brand:wikidata": "Q1498689", "nsi_id": "geico-6b1e37"}, "geometry": {"type": "Point", "coordinates": [-111.0468736, 32.3297336]}},
{"type": "Feature", "id": "plUylFhtNQRqo0nzJuskHjyV9tc=", "properties": {"ref": "tucson-sierra-vista_charles-vanpeenen", "@spider": "geico", "office": "insurance", "addr:full": "3255 East Speedway Boulevard", "addr:city": "Tucson", "addr:state": "AZ", "addr:postcode": "85716", "name": "Charles VanPeenen", "phone": "520-747-4223", "website": "https://www.geico.com/insurance-agents/arizona/tucson-sierra-vista/charles-vanpeenen/", "brand": "GEICO", "brand:wikidata": "Q1498689", "nsi_id": "geico-6b1e37"}, "geometry": {"type": "Point", "coordinates": [-110.9227453, 32.2364055]}},
{"type": "Feature", "id": "gZZl1Jz7iu9UUb42EgS8O9j3jL0=", "properties": {"ref": "phoenix_john-nix", "@spider": "geico", "office": "insurance", "addr:full": "9515 West Camelback Road, Suite 134", "addr:city": "Phoenix", "addr:state": "AZ", "addr:postcode": "85037", "name": "John Nix", "phone": "602-234-3426", "website": "https://www.geico.com/insurance-agents/arizona/phoenix/john-nix/", "brand": "GEICO", "brand:wikidata": "Q1498689", "nsi_id": "geico-6b1e37"}, "geometry": {"type": "Point", "coordinates": [-112.2648098, 33.5076413]}},
{"type": "Feature", "id": "6XXb4HYzVZYE8MnfyDEHVjawSrw=", "properties": {"ref": "phoenix_jay-harris", "@spider": "geico", "office": "insurance", "addr:full": "3757 South Gilbert Road", "addr:city": "Gilbert", "addr:state": "AZ", "addr:postcode": "85297", "name": "Jay Harris", "phone": "623-824-7010", "website": "https://www.geico.com/insurance-agents/arizona/phoenix/jay-harris/", "brand": "GEICO", "brand:wikidata": "Q1498689", "nsi_id": "geico-6b1e37"}, "geometry": {"type": "Point", "coordinates": [-111.7886214, 33.2818781]}},
{"type": "Feature", "id": "vG3_CgpBipxhLwQtLc0RHGAGFqo=", "properties": {"ref": "phoenix_jack-chumadevsky", "@spider": "geico", "office": "insurance", "addr:full": "815 East Baseline Road, Suite 105", "addr:city": "Tempe", "addr:state": "AZ", "addr:postcode": "85283", "name": "Jack Chumadevsky", "phone": "480-827-8500", "website": "https://www.geico.com/insurance-agents/arizona/phoenix/jack-chumadevsky/", "brand": "GEICO", "brand:wikidata": "Q1498689", "nsi_id": "geico-6b1e37"}, "geometry": {"type": "Point", "coordinates": [-111.9294963, 33.3779216]}},
{"type": "Feature", "id": "7fm_Xh7GlYJ1gAHlot_Y_oMrmP4=", "properties": {"ref": "phoenix_daniel-ordaz", "@spider": "geico", "office": "insurance", "addr:full": "6610 E Baseline Rd, Suite 101", "addr:city": "Mesa", "addr:state": "AZ", "addr:postcode": "85206", "name": "Daniel Ordaz", "phone": "480-824-0420", "website": "https://www.geico.com/insurance-agents/arizona/phoenix/daniel-ordaz/", "brand": "GEICO", "brand:wikidata": "Q1498689", "nsi_id": "geico-6b1e37"}, "geometry": {"type": "Point", "coordinates": [-111.6911089, 33.3798532]}},
{"type": "Feature", "id": "rVQZ03ET-WkWaFlldAOhq427zLI=", "properties": {"ref": "phoenix_brian-creuz", "@spider": "geico", "office": "insurance", "addr:full": "226 W Gurley HWY.", "addr:city": "Prescott", "addr:state": "AZ", "addr:postcode": "86301", "name": "Brian Creuz", "phone": "928-227-9850", "website": "https://www.geico.com/insurance-agents/arizona/phoenix/brian-creuz/", "brand": "GEICO", "brand:wikidata": "Q1498689", "nsi_id": "geico-6b1e37"}, "geometry": {"type": "Point", "coordinates": [-112.4712296, 34.5421914]}},
{"type": "Feature", "id": "7WYxVFFWwHDMYF8TWe-dqhMu2X8=", "properties": {"ref": "anchorage_monica-johnson", "@spider": "geico", "office": "insurance", "addr:full": "1830 East Parks Highway, Suite A116", "addr:city": "Wasilla", "addr:state": "AK", "addr:postcode": "99654", "name": "Monica Johnson", "phone": "907-631-6001", "website": "https://www.geico.com/insurance-agents/alaska/anchorage/monica-johnson/", "brand": "GEICO", "brand:wikidata": "Q1498689", "nsi_id": "geico-6b1e37"}, "geometry": {"type": "Point", "coordinates": [-149.4035768, 61.5739667]}},
{"type": "Feature", "id": "x9uLyMvsYQDqSAQRq9xiC7NuvvQ=", "properties": {"ref": "anchorage_chaila-tyner", "@spider": "geico", "office": "insurance", "addr:full": "8920 Old Seward Highway, Suite D", "addr:city": "Anchorage", "addr:state": "AK", "addr:postcode": "99515", "name": "Chaila Tyner", "phone": "907-344-4411", "website": "https://www.geico.com/insurance-agents/alaska/anchorage/chaila-tyner/", "brand": "GEICO", "brand:wikidata": "Q1498689", "nsi_id": "geico-6b1e37"}, "geometry": {"type": "Point", "coordinates": [-149.8650926, 61.1400638]}}]}