{"type":"FeatureCollection","features":[{"type": "Feature", "id": "gYjJYD2OIX7PGsXCr4Wxl62Aujg=", "properties": {"ref": "century-city", "@spider": "gelsons", "shop": "supermarket", "addr:street_address": "10250 Santa Monica Blvd.", "addr:city": "Los Angeles", "addr:postcode": "90067", "addr:country": "US", "name": "Century City", "phone": "(310) 277-4288", "website": "https://www.gelsons.com/en/stores/century-city", "opening_hours": "Mo-Su 07:00-10:00", "brand": "Gelson's Markets", "brand:wikidata": "Q16993993", "nsi_id": "gelsons-097dbf"}, "geometry": {"type": "Point", "coordinates": [-118.41941, 34.05791]}},
{"type": "Feature", "id": "6tj3uQDID2spLWvwx4Xp8FP0rMk=", "properties": {"ref": "dana-point", "@spider": "gelsons", "shop": "supermarket", "addr:street_address": "24 Monarch Bay Plaza", "addr:city": "Dana Point", "addr:postcode": "92629", "addr:country": "US", "name": "Dana Point", "phone": "(949) 488-8147", "website": "https://www.gelsons.com/en/stores/dana-point", "opening_hours": "Mo-Su 07:00-09:30", "brand": "Gelson's Markets", "brand:wikidata": "Q16993993", "nsi_id": "gelsons-097dbf"}, "geometry": {"type": "Point", "coordinates": [-117.72269, 33.48527]}},
{"type": "Feature", "id": "DpgUiwkocxOWW3u5qScZullgUVM=", "properties": {"ref": "del-mar", "@spider": "gelsons", "shop": "supermarket", "addr:street_address": "2707 Via De La Valle", "addr:city": "Del Mar", "addr:postcode": "92014", "addr:country": "US", "name": "Del Mar", "phone": "858-481-9300", "website": "https://www.gelsons.com/en/stores/del-mar", "opening_hours": "Mo-Su 07:00-09:30", "brand": "Gelson's Markets", "brand:wikidata": "Q16993993", "nsi_id": "gelsons-097dbf"}, "geometry": {"type": "Point", "coordinates": [-117.24857, 32.97907]}},
{"type": "Feature", "id": "0LY3a39_1gB1ESFBUv7i87AjpZ4=", "properties": {"ref": "encino", "@spider": "gelsons", "shop": "supermarket", "addr:street_address": "16450 Ventura Blvd", "addr:city": "Encino", "addr:postcode": "91436", "addr:country": "US", "name": "Encino", "phone": "(818) 906-5780", "website": "https://www.gelsons.com/en/stores/encino", "opening_hours": "Mo-Su 07:00-09:30", "brand": "Gelson's Markets", "brand:wikidata": "Q16993993", "nsi_id": "gelsons-097dbf"}, "geometry": {"type": "Point", "coordinates": [-118.49179, 34.1572]}},
{"type": "Feature", "id": "wq60X087R8gjm3g_iA9fNr47NL4=", "properties": {"ref": "hollywood", "@spider": "gelsons", "shop": "supermarket", "addr:street_address": "5877 Franklin Ave", "addr:city": "Hollywood", "addr:postcode": "90028", "addr:country": "US", "name": "Hollywood", "phone": "(323) 464-7316", "website": "https://www.gelsons.com/en/stores/hollywood", "opening_hours": "Mo-Su 07:00-11:00", "brand": "Gelson's Markets", "brand:wikidata": "Q16993993", "nsi_id": "gelsons-097dbf"}, "geometry": {"type": "Point", "coordinates": [-118.31754, 34.10656]}},
{"type": "Feature", "id": "xJtloQq1kS7f0Jyd6naJ3TGmNb8=", "properties": {"ref": "calabasas", "@spider": "gelsons", "shop": "supermarket", "addr:street_address": "22277 Mulholland Highway", "addr:city": "Calabasas", "addr:postcode": "91302", "addr:country": "US", "name": "Calabasas", "phone": "(818) 906-6228", "website": "https://www.gelsons.com/en/stores/calabasas", "opening_hours": "Mo-Su 07:00-09:30", "brand": "Gelson's Markets", "brand:wikidata": "Q16993993", "nsi_id": "gelsons-097dbf"}, "geometry": {"type": "Point", "coordinates": [-118.61332, 34.14835]}},
{"type": "Feature", "id": "EW2KFFfMHS0pzpWSxNu3SfT9gPc=", "properties": {"ref": "irvine", "@spider": "gelsons", "shop": "supermarket", "addr:street_address": "5521 Alton Parkway", "addr:city": "Irvine", "addr:postcode": "92618", "addr:country": "US", "name": "Irvine", "phone": "(949) 551-6093", "website": "https://www.gelsons.com/en/stores/irvine", "opening_hours": "Mo-Su 07:00-09:30", "brand": "Gelson's Markets", "brand:wikidata": "Q16993993", "nsi_id": "gelsons-097dbf"}, "geometry": {"type": "Point", "coordinates": [-117.78671, 33.6706]}},
{"type": "Feature", "id": "cZI401ql69k9X6xOzVWW5pNmC3Q=", "properties": {"ref": "la-ca\u00f1ada-flintridge", "@spider": "gelsons", "shop": "supermarket", "addr:street_address": "635 Foothill Blvd", "addr:city": "La Ca\u00f1ada Flintridge", "addr:postcode": "91011", "addr:country": "US", "name": "La Ca\u00f1ada Flintridge", "phone": "(818) 790-0563", "website": "https://www.gelsons.com/en/stores/la-ca%C3%B1ada-flintridge", "opening_hours": "Mo-Su 07:00-09:00", "brand": "Gelson's Markets", "brand:wikidata": "Q16993993", "nsi_id": "gelsons-097dbf"}, "geometry": {"type": "Point", "coordinates": [-118.19261, 34.20196]}},
{"type": "Feature", "id": "OwKLwl5X9OjbIDMeltprX-3iq-w=", "properties": {"ref": "la-costa-carlsbad", "@spider": "gelsons", "shop": "supermarket", "addr:street_address": "7660 El Camino Real", "addr:city": "Carlsbad", "addr:postcode": "92009", "addr:country": "US", "name": "La Costa/Carlsbad", "phone": "760-632-7511", "website": "https://www.gelsons.com/en/stores/la-costa-carlsbad", "opening_hours": "Mo-Su 07:00-09:00", "brand": "Gelson's Markets", "brand:wikidata": "Q16993993", "nsi_id": "gelsons-097dbf"}, "geometry": {"type": "Point", "coordinates": [-117.2674, 33.08742]}},
{"type": "Feature", "id": "Ozm0a0fCp0Hrdz4VZL-9faK1oTw=", "properties": {"ref": "laguna-beach", "@spider": "gelsons", "shop": "supermarket", "addr:street_address": "30922 South Coast Highway", "addr:city": "Laguna Beach", "addr:postcode": "92651", "addr:country": "US", "name": "Laguna Beach", "phone": "(949) 499-8130", "website": "https://www.gelsons.com/en/stores/laguna-beach", "opening_hours": "Mo-Su 07:00-09:00", "brand": "Gelson's Markets", "brand:wikidata": "Q16993993", "nsi_id": "gelsons-097dbf"}, "geometry": {"type": "Point", "coordinates": [-117.75476, 33.51495]}},
{"type": "Feature", "id": "Uf0T_clpLzZtTnRidKFDkmSljfI=", "properties": {"ref": "long-beach", "@spider": "gelsons", "shop": "supermarket", "addr:street_address": "6255 E. 2nd Street", "addr:city": "Long Beach", "addr:postcode": "90803", "addr:country": "US", "name": "Long Beach", "phone": "(562) 430-6042", "website": "https://www.gelsons.com/en/stores/long-beach", "opening_hours": "Mo-Su 07:00-09:00", "brand": "Gelson's Markets", "brand:wikidata": "Q16993993", "nsi_id": "gelsons-097dbf"}, "geometry": {"type": "Point", "coordinates": [-118.11233, 33.7588]}},
{"type": "Feature", "id": "U16WVNL0GGPI4UMnPkDH66JYB_s=", "properties": {"ref": "manhattan-beach", "@spider": "gelsons", "shop": "supermarket", "addr:street_address": "707 North Sepulveda Blvd", "addr:city": "Manhattan Beach", "addr:postcode": "90266", "addr:country": "US", "name": "Manhattan Beach", "phone": "(424) 452-0412", "website": "https://www.gelsons.com/en/stores/manhattan-beach", "opening_hours": "Mo-Su 07:00-09:00", "brand": "Gelson's Markets", "brand:wikidata": "Q16993993", "nsi_id": "gelsons-097dbf"}, "geometry": {"type": "Point", "coordinates": [-118.39628, 33.88374]}},
{"type": "Feature", "id": "-h3noYi2GqgBfKy63kZ_vLXMXXs=", "properties": {"ref": "marina-del-rey", "@spider": "gelsons", "shop": "supermarket", "addr:street_address": "13455 Maxella Ave", "addr:city": "Marina del Rey", "addr:postcode": "90292", "addr:country": "US", "name": "Marina Del Rey", "phone": "(310) 306-2952", "website": "https://www.gelsons.com/en/stores/marina-del-rey", "opening_hours": "Mo-Su 07:00-09:00", "brand": "Gelson's Markets", "brand:wikidata": "Q16993993", "nsi_id": "gelsons-097dbf"}, "geometry": {"type": "Point", "coordinates": [-118.44199, 33.987]}},
{"type": "Feature", "id": "DBvyspaDqE5sA0Uvm5OSCSwKEP4=", "properties": {"ref": "newport-beach", "@spider": "gelsons", "shop": "supermarket", "addr:street_address": "1660 San Miguel Drive", "addr:city": "Newport Beach", "addr:postcode": "92660", "addr:country": "US", "name": "Newport Beach", "phone": "(949) 644-8660", "website": "https://www.gelsons.com/en/stores/newport-beach", "opening_hours": "Mo-Su 07:00-10:00", "brand": "Gelson's Markets", "brand:wikidata": "Q16993993", "nsi_id": "gelsons-097dbf"}, "geometry": {"type": "Point", "coordinates": [-117.86339, 33.61188]}},
{"type": "Feature", "id": "Q2zjNJPreaqTbEmKZ_Lp8GxMVU8=", "properties": {"ref": "pacific-beach", "@spider": "gelsons", "shop": "supermarket", "addr:street_address": "730 Turquoise St", "addr:city": "San Diego", "addr:postcode": "92109", "addr:country": "US", "name": "Pacific Beach", "phone": "858-488-0044", "website": "https://www.gelsons.com/en/stores/pacific-beach", "opening_hours": "Mo-Su 07:00-09:30", "brand": "Gelson's Markets", "brand:wikidata": "Q16993993", "nsi_id": "gelsons-097dbf"}, "geometry": {"type": "Point", "coordinates": [-117.26009, 32.80902]}},
{"type": "Feature", "id": "ffkPGubbyjnalBAUQxzTQseFslY=", "properties": {"ref": "pacific-palisades", "@spider": "gelsons", "shop": "supermarket", "addr:street_address": "15424 Sunset Blvd", "addr:city": "Pacific Palisades", "addr:postcode": "90272", "addr:country": "US", "name": "Pacific Palisades", "phone": "(310) 459-4483", "website": "https://www.gelsons.com/en/stores/pacific-palisades", "opening_hours": "Mo-Su 07:00-10:00", "brand": "Gelson's Markets", "brand:wikidata": "Q16993993", "nsi_id": "gelsons-097dbf"}, "geometry": {"type": "Point", "coordinates": [-118.52801, 34.048]}},
{"type": "Feature", "id": "AZCmVekz4Bx1PFAfGOod3mdWUwI=", "properties": {"ref": "rancho-mirage", "@spider": "gelsons", "shop": "supermarket", "addr:street_address": "36101 Bob Hope Drive", "addr:city": "Rancho Mirage", "addr:postcode": "92270", "addr:country": "US", "name": "Rancho Mirage", "phone": "(760) 770-0010", "website": "https://www.gelsons.com/en/stores/rancho-mirage", "opening_hours": "Mo-Su 07:00-09:00", "brand": "Gelson's Markets", "brand:wikidata": "Q16993993", "nsi_id": "gelsons-097dbf"}, "geometry": {"type": "Point", "coordinates": [-116.40719, 33.78662]}},
{"type": "Feature", "id": "iTDsYgRsW2SnCbGg2pj021WPcwI=", "properties": {"ref": "rancho-mission-viejo", "@spider": "gelsons", "shop": "supermarket", "addr:street_address": "30731 Gateway Place", "addr:city": "Rancho Mission Viejo", "addr:postcode": "92694", "addr:country": "US", "name": "Rancho Mission Viejo", "phone": "(949) 226-5807", "website": "https://www.gelsons.com/en/stores/rancho-mission-viejo", "opening_hours": "Mo-Su 07:00-09:30", "brand": "Gelson's Markets", "brand:wikidata": "Q16993993", "nsi_id": "gelsons-097dbf"}, "geometry": {"type": "Point", "coordinates": [-117.61867, 33.52132]}},
{"type": "Feature", "id": "ptAMdcaNM-vjgGOmDti-VA4KNjg=", "properties": {"ref": "santa-barbara", "@spider": "gelsons", "shop": "supermarket", "addr:street_address": "3305 State Street", "addr:city": "Santa Barbara", "addr:postcode": "93105", "addr:country": "US", "name": "Santa Barbara", "phone": "(805) 687-5810", "website": "https://www.gelsons.com/en/stores/santa-barbara", "opening_hours": "Mo-Su 07:00-08:00", "brand": "Gelson's Markets", "brand:wikidata": "Q16993993", "nsi_id": "gelsons-097dbf"}, "geometry": {"type": "Point", "coordinates": [-119.73517, 34.43954]}},
{"type": "Feature", "id": "jJbXF7jFknO5iaDBNRqr6VvZRrE=", "properties": {"ref": "santa-monica", "@spider": "gelsons", "shop": "supermarket", "addr:street_address": "2627 Lincoln Blvd", "addr:city": "Santa Monica", "addr:postcode": "90405", "addr:country": "US", "name": "Santa Monica", "phone": "(310) 581-6450", "website": "https://www.gelsons.com/en/stores/santa-monica", "opening_hours": "Mo-Su 07:00-10:00", "brand": "Gelson's Markets", "brand:wikidata": "Q16993993", "nsi_id": "gelsons-097dbf"}, "geometry": {"type": "Point", "coordinates": [-118.47467, 34.00722]}},
{"type": "Feature", "id": "1mHp-Jpebk8h1M8Qfc38D7FLDX8=", "properties": {"ref": "silver-lake", "@spider": "gelsons", "shop": "supermarket", "addr:street_address": "2725 Hyperion Ave", "addr:city": "Los Angeles", "addr:postcode": "90027", "addr:country": "US", "name": "Silver Lake", "phone": "(323) 660-0387", "website": "https://www.gelsons.com/en/stores/silver-lake", "opening_hours": "Mo-Su 07:00-11:00", "brand": "Gelson's Markets", "brand:wikidata": "Q16993993", "nsi_id": "gelsons-097dbf"}, "geometry": {"type": "Point", "coordinates": [-118.27263, 34.10812]}},
{"type": "Feature", "id": "jjzvQhRnYFGvIi4pca6ikV58VQ0=", "properties": {"ref": "tarzana", "@spider": "gelsons", "shop": "supermarket", "addr:street_address": "5500 Reseda Blvd", "addr:city": "Tarzana", "addr:postcode": "91356", "addr:country": "US", "name": "Tarzana", "phone": "(818) 906-5752", "website": "https://www.gelsons.com/en/stores/tarzana", "opening_hours": "Mo-Su 07:00-09:00", "brand": "Gelson's Markets", "brand:wikidata": "Q16993993", "nsi_id": "gelsons-097dbf"}, "geometry": {"type": "Point", "coordinates": [-118.53493, 34.17067]}},
{"type": "Feature", "id": "MbNPni2lAC9czghzGzm_fNOJJxs=", "properties": {"ref": "valley-village-noho", "@spider": "gelsons", "shop": "supermarket", "addr:street_address": "4738 Laurel Canyon Blvd", "addr:city": "Valley Village", "addr:postcode": "91607", "addr:country": "US", "name": "Valley Village/NoHo", "phone": "(818) 906-5743", "website": "https://www.gelsons.com/en/stores/valley-village-noho", "opening_hours": "Mo-Su 07:00-11:00", "brand": "Gelson's Markets", "brand:wikidata": "Q16993993", "nsi_id": "gelsons-097dbf"}, "geometry": {"type": "Point", "coordinates": [-118.39652, 34.15948]}},
{"type": "Feature", "id": "u7A_wMu4VbPIk6c-RkJHbU-KDVo=", "properties": {"ref": "west-hollywood", "@spider": "gelsons", "shop": "supermarket", "addr:street_address": "8330 W. Santa Monica Blvd", "addr:city": "West Hollywood", "addr:postcode": "90069", "addr:country": "US", "name": "West Hollywood", "phone": "(323) 656-5580", "website": "https://www.gelsons.com/en/stores/west-hollywood", "opening_hours": "Mo-Su 07:00-11:00", "brand": "Gelson's Markets", "brand:wikidata": "Q16993993", "nsi_id": "gelsons-097dbf"}, "geometry": {"type": "Point", "coordinates": [-118.37127, 34.09041]}},
{"type": "Feature", "id": "Gj0-DdHa1VfjayXCvjVMBjIw0Hk=", "properties": {"ref": "westlake-village", "@spider": "gelsons", "shop": "supermarket", "addr:street_address": "2734 Townsgate Road", "addr:city": "Westlake Village", "addr:postcode": "91361", "addr:country": "US", "name": "Westlake Village", "phone": "(805) 496-0353", "website": "https://www.gelsons.com/en/stores/westlake-village", "opening_hours": "Mo-Su 07:00-10:00", "brand": "Gelson's Markets", "brand:wikidata": "Q16993993", "nsi_id": "gelsons-097dbf"}, "geometry": {"type": "Point", "coordinates": [-118.82509, 34.15286]}},
{"type": "Feature", "id": "innI1vRgFRDDrfyg8l2coFThiuU=", "properties": {"ref": "thousand-oaks", "@spider": "gelsons", "shop": "supermarket", "addr:street_address": "1736 E Avenida de Los Arboles", "addr:city": "Thousand Oaks", "addr:postcode": "91362", "addr:country": "US", "name": "Thousand Oaks", "phone": "(805) 493-4301", "website": "https://www.gelsons.com/en/stores/thousand-oaks", "opening_hours": "Mo-Su 07:00-09:00", "brand": "Gelson's Markets", "brand:wikidata": "Q16993993", "nsi_id": "gelsons-097dbf"}, "geometry": {"type": "Point", "coordinates": [-118.84701, 34.21064]}},
{"type": "Feature", "id": "seUUS7Xm-f4FEPSn2gtLvntO-Co=", "properties": {"ref": "sherman-oaks", "@spider": "gelsons", "shop": "supermarket", "addr:street_address": "4520 Van Nuys Blvd", "addr:city": "Sherman Oaks", "addr:postcode": "91403", "addr:country": "US", "name": "Sherman Oaks", "phone": "(818) 377-4140", "website": "https://www.gelsons.com/en/stores/sherman-oaks", "opening_hours": "Mo-Su 07:00-11:00", "brand": "Gelson's Markets", "brand:wikidata": "Q16993993", "nsi_id": "gelsons-097dbf"}, "geometry": {"type": "Point", "coordinates": [-118.44788, 34.15406]}}]}