{"type":"FeatureCollection","features":[{"type": "Feature", "id": "UDCMlycmRn1e_W_UkuV285_DEFw=", "properties": {"ref": "13075 BlackbirdCAGarden Grove", "@spider": "gen_rehab", "addr:full": "13075 Blackbird", "addr:city": "Garden Grove", "addr:state": "CA", "addr:postcode": "92843", "addr:country": "US", "name": "Genesis Healthcare", "brand": "Genesis Rehab Services", "brand:wikidata": "Q5532813"}, "geometry": {"type": "Point", "coordinates": [-117.913515, 33.773436]}},
{"type": "Feature", "id": "IDzbsyDYq607X9aX5nowk3ZnRLE=", "properties": {"ref": "5154 Sunset Blvd.CALos Angeles", "@spider": "gen_rehab", "addr:full": "5154 Sunset Blvd.", "addr:city": "Los Angeles", "addr:state": "CA", "addr:postcode": "90027", "addr:country": "US", "name": "Genesis Healthcare", "brand": "Genesis Rehab Services", "brand:wikidata": "Q5532813"}, "geometry": {"type": "Point", "coordinates": [-118.30232, 34.097723]}},
{"type": "Feature", "id": "eUbspuvn7vYGpyxgDzTyyRhIX4w=", "properties": {"ref": "1100 E. Nelson Rd.WAMoses Lake", "@spider": "gen_rehab", "addr:full": "1100 E. Nelson Rd.", "addr:city": "Moses Lake", "addr:state": "WA", "addr:postcode": "98837-2360", "addr:country": "US", "name": "Genesis Healthcare", "brand": "Genesis Rehab Services", "brand:wikidata": "Q5532813"}, "geometry": {"type": "Point", "coordinates": [-119.260081, 47.116952]}},
{"type": "Feature", "id": "ApWVAx49q4lCoHoKoro94HvFWUE=", "properties": {"ref": "1919 - 112th St.WAEverett", "@spider": "gen_rehab", "addr:full": "1919 - 112th St.", "addr:city": "Everett", "addr:state": "WA", "addr:postcode": "98204-3784", "addr:country": "US", "name": "Genesis Healthcare", "brand": "Genesis Rehab Services", "brand:wikidata": "Q5532813"}, "geometry": {"type": "Point", "coordinates": [-122.259278, 47.8971]}},
{"type": "Feature", "id": "GJNZvqw9rihTi5IZWOQhqpibXN0=", "properties": {"ref": "817 East Plum StreetWAMoses Lake", "@spider": "gen_rehab", "addr:full": "817 East Plum Street", "addr:city": "Moses Lake", "addr:state": "WA", "addr:postcode": "98837-1870", "addr:country": "US", "name": "Genesis Healthcare", "brand": "Genesis Rehab Services", "brand:wikidata": "Q5532813"}, "geometry": {"type": "Point", "coordinates": [-119.26346, 47.128379]}},
{"type": "Feature", "id": "qkeiArX4QsZPKnhcZUN1wpIyKk0=", "properties": {"ref": "120 Seminary AveMANewton", "@spider": "gen_rehab", "addr:full": "120 Seminary Ave", "addr:city": "Newton", "addr:state": "MA", "addr:postcode": "02466", "addr:country": "US", "name": "Genesis Healthcare", "brand": "Genesis Rehab Services", "brand:wikidata": "Q5532813"}, "geometry": {"type": "Point", "coordinates": [-71.251255, 42.339026]}},
{"type": "Feature", "id": "3kPjWTufhoACkdwwaOTnvlwxTxI=", "properties": {"ref": "424 Dean DriveALGardendale", "@spider": "gen_rehab", "addr:full": "424 Dean Drive", "addr:city": "Gardendale", "addr:state": "AL", "addr:postcode": "35071-2763", "addr:country": "US", "name": "Genesis Healthcare", "brand": "Genesis Rehab Services", "brand:wikidata": "Q5532813"}, "geometry": {"type": "Point", "coordinates": [-86.79668, 33.649696]}},
{"type": "Feature", "id": "4XXMOyJs9bEir0Uq43WrcMxbDFU=", "properties": {"ref": "14766 Washington AveCASan Leandro", "@spider": "gen_rehab", "addr:full": "14766 Washington Ave", "addr:city": "San Leandro", "addr:state": "CA", "addr:postcode": "94578-4220", "addr:country": "US", "name": "Genesis Healthcare", "brand": "Genesis Rehab Services", "brand:wikidata": "Q5532813"}, "geometry": {"type": "Point", "coordinates": [-122.13818, 37.697685]}},
{"type": "Feature", "id": "D623jHQ-x-kYsp_ruAEP4pqyPzQ=", "properties": {"ref": "8167 W. 3rd StreetCALos Angeles", "@spider": "gen_rehab", "addr:full": "8167 W. 3rd Street", "addr:city": "Los Angeles", "addr:state": "CA", "addr:postcode": "90048", "addr:country": "US", "name": "Genesis Healthcare", "brand": "Genesis Rehab Services", "brand:wikidata": "Q5532813"}, "geometry": {"type": "Point", "coordinates": [-118.367577, 34.072631]}},
{"type": "Feature", "id": "RONIVJ1NlSq7YT17tBpC3LCFAcU=", "properties": {"ref": "15005 Health Center DriveMDBowie", "@spider": "gen_rehab", "addr:full": "15005 Health Center Drive", "addr:city": "Bowie", "addr:state": "MD", "addr:postcode": "20716-1017", "addr:country": "US", "name": "Genesis Healthcare", "brand": "Genesis Rehab Services", "brand:wikidata": "Q5532813"}, "geometry": {"type": "Point", "coordinates": [-76.743593, 38.949029]}},
{"type": "Feature", "id": "j6GB5qnv9GmfLpvJe4uwkV-gzQU=", "properties": {"ref": "3 Glen Hill RoadCTDanbury", "@spider": "gen_rehab", "addr:full": "3 Glen Hill Road", "addr:city": "Danbury", "addr:state": "CT", "addr:postcode": "06811-4981", "addr:country": "US", "name": "Genesis Healthcare", "brand": "Genesis Rehab Services", "brand:wikidata": "Q5532813"}, "geometry": {"type": "Point", "coordinates": [-73.449014, 41.414511]}},
{"type": "Feature", "id": "ChJHXVY03BJgGmI8h1Ww4z_Wghs=", "properties": {"ref": "877 Hill Everhart RdNCLexington", "@spider": "gen_rehab", "addr:full": "877 Hill Everhart Rd", "addr:city": "Lexington", "addr:state": "NC", "addr:postcode": "27295-9140", "addr:country": "US", "name": "Genesis Healthcare", "brand": "Genesis Rehab Services", "brand:wikidata": "Q5532813"}, "geometry": {"type": "Point", "coordinates": [-80.228033, 35.851225]}},
{"type": "Feature", "id": "WWEJTCMZQGvJPMS27UsItvJhTeE=", "properties": {"ref": "89 Morton StreetMAAndover", "@spider": "gen_rehab", "addr:full": "89 Morton Street", "addr:city": "Andover", "addr:state": "MA", "addr:postcode": "01810", "addr:country": "US", "name": "Genesis Healthcare", "brand": "Genesis Rehab Services", "brand:wikidata": "Q5532813"}, "geometry": {"type": "Point", "coordinates": [-71.128869, 42.655609]}},
{"type": "Feature", "id": "fHVuf48YkklIUmoECgFgxOj83T0=", "properties": {"ref": "103 Hospital Loop NENMAlbuquerque", "@spider": "gen_rehab", "addr:full": "103 Hospital Loop NE", "addr:city": "Albuquerque", "addr:state": "NM", "addr:postcode": "87109", "addr:country": "US", "name": "Genesis Healthcare", "brand": "Genesis Rehab Services", "brand:wikidata": "Q5532813"}, "geometry": {"type": "Point", "coordinates": [-106.590393, 35.133478]}},
{"type": "Feature", "id": "z-c_g0dlKnAvo91KMXXfm1d2W-A=", "properties": {"ref": "179 Combs StreetNCSparta", "@spider": "gen_rehab", "addr:full": "179 Combs Street", "addr:city": "Sparta", "addr:state": "NC", "addr:postcode": "28675-8429", "addr:country": "US", "name": "Genesis Healthcare", "brand": "Genesis Rehab Services", "brand:wikidata": "Q5532813"}, "geometry": {"type": "Point", "coordinates": [-81.125218, 36.505999]}},
{"type": "Feature", "id": "_jJugV3vUrAg8JkS-bUSM6xGjOQ=", "properties": {"ref": "96 Tyree StreetWVAnsted", "@spider": "gen_rehab", "addr:full": "96 Tyree Street", "addr:city": "Ansted", "addr:state": "WV", "addr:postcode": "25812", "addr:country": "US", "name": "Genesis Healthcare", "brand": "Genesis Rehab Services", "brand:wikidata": "Q5532813"}, "geometry": {"type": "Point", "coordinates": [-81.09465, 38.13592]}},
{"type": "Feature", "id": "At1IOpNCjW3gwkdzuROrzR-5Wt8=", "properties": {"ref": "400 Groton RoadMAAyer", "@spider": "gen_rehab", "addr:full": "400 Groton Road", "addr:city": "Ayer", "addr:state": "MA", "addr:postcode": "01432", "addr:country": "US", "name": "Genesis Healthcare", "brand": "Genesis Rehab Services", "brand:wikidata": "Q5532813"}, "geometry": {"type": "Point", "coordinates": [-71.571791, 42.577949]}},
{"type": "Feature", "id": "PXCtXtnwW1C0p0MJj1008DbR7V0=", "properties": {"ref": "8 Snow RoadNHWinchester", "@spider": "gen_rehab", "addr:full": "8 Snow Road", "addr:city": "Winchester", "addr:state": "NH", "addr:postcode": "03470-2806", "addr:country": "US", "name": "Genesis Healthcare", "brand": "Genesis Rehab Services", "brand:wikidata": "Q5532813"}, "geometry": {"type": "Point", "coordinates": [-72.386279, 42.761342]}},
{"type": "Feature", "id": "7tvaKMUWGh_FBDCyRD_pFtEWQhQ=", "properties": {"ref": "25 East Lindsley RoadNJCedar Grove", "@spider": "gen_rehab", "addr:full": "25 East Lindsley Road", "addr:city": "Cedar Grove", "addr:state": "NJ", "addr:postcode": "07009", "addr:country": "US", "name": "Genesis Healthcare", "brand": "Genesis Rehab Services", "brand:wikidata": "Q5532813"}, "geometry": {"type": "Point", "coordinates": [-74.238261, 40.875163]}},
{"type": "Feature", "id": "oN8sMVCcPoIuds-i7Wn1tCPePwo=", "properties": {"ref": "850 Mix AvenueCTHamden", "@spider": "gen_rehab", "addr:full": "850 Mix Avenue", "addr:city": "Hamden", "addr:state": "CT", "addr:postcode": "06514-2102", "addr:country": "US", "name": "Genesis Healthcare", "brand": "Genesis Rehab Services", "brand:wikidata": "Q5532813"}, "geometry": {"type": "Point", "coordinates": [-72.920713, 41.375907]}},
{"type": "Feature", "id": "X7Gv4QYBcaBzfNfHE5hpU0g3mfI=", "properties": {"ref": "5123 Juan-Tabo Blvd. NENMAlbuquerque", "@spider": "gen_rehab", "addr:full": "5123 Juan-Tabo Blvd. NE", "addr:city": "Albuquerque", "addr:state": "NM", "addr:postcode": "87111", "addr:country": "US", "name": "Genesis Healthcare", "brand": "Genesis Rehab Services", "brand:wikidata": "Q5532813"}, "geometry": {"type": "Point", "coordinates": [-106.517664, 35.139908]}},
{"type": "Feature", "id": "HcgdHmp1vMb5JHVhtpHtKEbNJLw=", "properties": {"ref": "30 Colby CourtNHBedford", "@spider": "gen_rehab", "addr:full": "30 Colby Court", "addr:city": "Bedford", "addr:state": "NH", "addr:postcode": "03110-6426", "addr:country": "US", "name": "Genesis Healthcare", "brand": "Genesis Rehab Services", "brand:wikidata": "Q5532813"}, "geometry": {"type": "Point", "coordinates": [-71.482644, 42.963358]}},
{"type": "Feature", "id": "Atfddkql9JtKT0iZwct9ouTiQUA=", "properties": {"ref": "35 Bel-Aire DriveVTNewport", "@spider": "gen_rehab", "addr:full": "35 Bel-Aire Drive", "addr:city": "Newport", "addr:state": "VT", "addr:postcode": "05855", "addr:country": "US", "name": "Genesis Healthcare", "brand": "Genesis Rehab Services", "brand:wikidata": "Q5532813"}, "geometry": {"type": "Point", "coordinates": [-72.223621, 44.934971]}},
{"type": "Feature", "id": "RBgz3t8AbGvVo1Ue1eyW-2OAZ34=", "properties": {"ref": "1831 Camino del LlanoNMBelen", "@spider": "gen_rehab", "addr:full": "1831 Camino del Llano", "addr:city": "Belen", "addr:state": "NM", "addr:postcode": "87002", "addr:country": "US", "name": "Genesis Healthcare", "brand": "Genesis Rehab Services", "brand:wikidata": "Q5532813"}, "geometry": {"type": "Point", "coordinates": [-106.790626, 34.653424]}},
{"type": "Feature", "id": "imhXIhJ3lT5es7wWfXsM5dd_cfw=", "properties": {"ref": "2 Blackberry LaneVTBennington", "@spider": "gen_rehab", "addr:full": "2 Blackberry Lane", "addr:city": "Bennington", "addr:state": "VT", "addr:postcode": "05201", "addr:country": "US", "name": "Genesis Healthcare", "brand": "Genesis Rehab Services", "brand:wikidata": "Q5532813"}, "geometry": {"type": "Point", "coordinates": [-73.20333, 42.86994]}},
{"type": "Feature", "id": "m1rAHeeVc84Vbz-qTIV9MGLdEBg=", "properties": {"ref": "5485 Perkiomen AvenuePAReading", "@spider": "gen_rehab", "addr:full": "5485 Perkiomen Avenue", "addr:city": "Reading", "addr:state": "PA", "addr:postcode": "19606", "addr:country": "US", "name": "Genesis Healthcare", "brand": "Genesis Rehab Services", "brand:wikidata": "Q5532813"}, "geometry": {"type": "Point", "coordinates": [-75.844016, 40.297979]}},
{"type": "Feature", "id": "EVbRQn6HHhB-neqP-1wVW8KThbk=", "properties": {"ref": "98 Hospitality DriveVTBarre", "@spider": "gen_rehab", "addr:full": "98 Hospitality Drive", "addr:city": "Barre", "addr:state": "VT", "addr:postcode": "05641", "addr:country": "US", "name": "Genesis Healthcare", "brand": "Genesis Rehab Services", "brand:wikidata": "Q5532813"}, "geometry": {"type": "Point", "coordinates": [-72.55505, 44.21672]}},
{"type": "Feature", "id": "pY3-AnceEixg6ARjxoowP8vcH6A=", "properties": {"ref": "803 Hacienda LaneNMBloomfield", "@spider": "gen_rehab", "addr:full": "803 Hacienda Lane", "addr:city": "Bloomfield", "addr:state": "NM", "addr:postcode": "87413", "addr:country": "US", "name": "Genesis Healthcare", "brand": "Genesis Rehab Services", "brand:wikidata": "Q5532813"}, "geometry": {"type": "Point", "coordinates": [-107.9852803, 36.7197118]}},
{"type": "Feature", "id": "t3jXVWCYIVltslsgwEQVlHwtYlw=", "properties": {"ref": "1040 US Highway 127 SouthKYFrankfort", "@spider": "gen_rehab", "addr:full": "1040 US Highway 127 South", "addr:city": "Frankfort", "addr:state": "KY", "addr:postcode": "40601-4326", "addr:country": "US", "name": "Genesis Healthcare", "brand": "Genesis Rehab Services", "brand:wikidata": "Q5532813"}, "geometry": {"type": "Point", "coordinates": [-84.89493, 38.179076]}},
{"type": "Feature", "id": "wJlVTcsgCuQykFjvckQOdqyZTQ4=", "properties": {"ref": "7300 Woodspoint DriveKYFlorence", "@spider": "gen_rehab", "addr:full": "7300 Woodspoint Drive", "addr:city": "Florence", "addr:state": "KY", "addr:postcode": "41042-1543", "addr:country": "US", "name": "Genesis Healthcare", "brand": "Genesis Rehab Services", "brand:wikidata": "Q5532813"}, "geometry": {"type": "Point", "coordinates": [-84.642753, 39.007623]}},
{"type": "Feature", "id": "E5FYcmnD9at2jPebLZTpZmOAe3I=", "properties": {"ref": "3590 Washington PikePABridgeville", "@spider": "gen_rehab", "addr:full": "3590 Washington Pike", "addr:city": "Bridgeville", "addr:state": "PA", "addr:postcode": "15017", "addr:country": "US", "name": "Genesis Healthcare", "brand": "Genesis Rehab Services", "brand:wikidata": "Q5532813"}, "geometry": {"type": "Point", "coordinates": [-80.1411481, 40.327446]}},
{"type": "Feature", "id": "sLs6lp_ZPaf20rLFPdeNKE_1yrw=", "properties": {"ref": "840 Lee RoadWVFollansbee", "@spider": "gen_rehab", "addr:full": "840 Lee Road", "addr:city": "Follansbee", "addr:state": "WV", "addr:postcode": "26037", "addr:country": "US", "name": "Genesis Healthcare", "brand": "Genesis Rehab Services", "brand:wikidata": "Q5532813"}, "geometry": {"type": "Point", "coordinates": [-80.590908, 40.317498]}},
{"type": "Feature", "id": "Oy6g4QlvcY3XsQoV_YO0Hnp2WL4=", "properties": {"ref": "300 Pearl StreetVTBurlington", "@spider": "gen_rehab", "addr:full": "300 Pearl Street", "addr:city": "Burlington", "addr:state": "VT", "addr:postcode": "05401", "addr:country": "US", "name": "Genesis Healthcare", "brand": "Genesis Rehab Services", "brand:wikidata": "Q5532813"}, "geometry": {"type": "Point", "coordinates": [-73.20666, 44.48131]}},
{"type": "Feature", "id": "fiQuU8WwhCmWG_lcR7yNmmje8Wk=", "properties": {"ref": "80 Maddex DriveWVShepherdstown", "@spider": "gen_rehab", "addr:full": "80 Maddex Drive", "addr:city": "Shepherdstown", "addr:state": "WV", "addr:postcode": "25443", "addr:country": "US", "name": "Genesis Healthcare", "brand": "Genesis Rehab Services", "brand:wikidata": "Q5532813"}, "geometry": {"type": "Point", "coordinates": [-77.817676, 39.436278]}},
{"type": "Feature", "id": "vDL2MdAaop8HGTEbBBcoF60W42w=", "properties": {"ref": "10101 Lagrima de Oro NENMAlbuquerque", "@spider": "gen_rehab", "addr:full": "10101 Lagrima de Oro NE", "addr:city": "Albuquerque", "addr:state": "NM", "addr:postcode": "87111", "addr:country": "US", "name": "Genesis Healthcare", "brand": "Genesis Rehab Services", "brand:wikidata": "Q5532813"}, "geometry": {"type": "Point", "coordinates": [-106.528433, 35.132747]}},
{"type": "Feature", "id": "Pre4c218S3NPgjiGeX0_e5W_svc=", "properties": {"ref": "2720 Charles Town RoadWVMartinsburg", "@spider": "gen_rehab", "addr:full": "2720 Charles Town Road", "addr:city": "Martinsburg", "addr:state": "WV", "addr:postcode": "25405", "addr:country": "US", "name": "Genesis Healthcare", "brand": "Genesis Rehab Services", "brand:wikidata": "Q5532813"}, "geometry": {"type": "Point", "coordinates": [-77.918122, 39.415625]}},
{"type": "Feature", "id": "xbQmt-QrWdN_B8-Wkboibi1xw3w=", "properties": {"ref": "1005 Lujan Hill RoadNMLas Cruces", "@spider": "gen_rehab", "addr:full": "1005 Lujan Hill Road", "addr:city": "Las Cruces", "addr:state": "NM", "addr:postcode": "88007-6304", "addr:country": "US", "name": "Genesis Healthcare", "brand": "Genesis Rehab Services", "brand:wikidata": "Q5532813"}, "geometry": {"type": "Point", "coordinates": [-106.85903, 32.423658]}},
{"type": "Feature", "id": "eb120H_32jugiKbx1g4QQu9EgJk=", "properties": {"ref": "2905 East Missouri AvenueNMLas Cruces", "@spider": "gen_rehab", "addr:full": "2905 East Missouri Avenue", "addr:city": "Las Cruces", "addr:state": "NM", "addr:postcode": "88011-4813", "addr:country": "US", "name": "Genesis Healthcare", "brand": "Genesis Rehab Services", "brand:wikidata": "Q5532813"}, "geometry": {"type": "Point", "coordinates": [-106.736, 32.3006]}},
{"type": "Feature", "id": "7OOXSPg4GLAwGkhIwuSbpIifUVU=", "properties": {"ref": "1650 Galisteo StreetNMSanta Fe", "@spider": "gen_rehab", "addr:full": "1650 Galisteo Street", "addr:city": "Santa Fe", "addr:state": "NM", "addr:postcode": "87505", "addr:country": "US", "name": "Genesis Healthcare", "brand": "Genesis Rehab Services", "brand:wikidata": "Q5532813"}, "geometry": {"type": "Point", "coordinates": [-105.9533117, 35.6615846]}},
{"type": "Feature", "id": "3P5eKXQHP5IvQAh6FYB6XSr12js=", "properties": {"ref": "302 Cedar Ridge RoadWVSissonville", "@spider": "gen_rehab", "addr:full": "302 Cedar Ridge Road", "addr:city": "Sissonville", "addr:state": "WV", "addr:postcode": "25320", "addr:country": "US", "name": "Genesis Healthcare", "brand": "Genesis Rehab Services", "brand:wikidata": "Q5532813"}, "geometry": {"type": "Point", "coordinates": [-81.644171, 38.511545]}},
{"type": "Feature", "id": "6pSW1x2obhxtVGhujd20erJ_Dv0=", "properties": {"ref": "23 Cedar Ridge DriveMESkowhegan", "@spider": "gen_rehab", "addr:full": "23 Cedar Ridge Drive", "addr:city": "Skowhegan", "addr:state": "ME", "addr:postcode": "04976", "addr:country": "US", "name": "Genesis Healthcare", "brand": "Genesis Rehab Services", "brand:wikidata": "Q5532813"}, "geometry": {"type": "Point", "coordinates": [-69.705481, 44.781981]}},
{"type": "Feature", "id": "47xX-mcRx1-Ae3O-mgUi69EwfBA=", "properties": {"ref": "1104 Welsh RoadPAPhiladelphia", "@spider": "gen_rehab", "addr:full": "1104 Welsh Road", "addr:city": "Philadelphia", "addr:state": "PA", "addr:postcode": "19115", "addr:country": "US", "name": "Genesis Healthcare", "brand": "Genesis Rehab Services", "brand:wikidata": "Q5532813"}, "geometry": {"type": "Point", "coordinates": [-75.046776, 40.090607]}},
{"type": "Feature", "id": "C_nfVSkFEuZ03bZKgcR60ypC808=", "properties": {"ref": "835 Tenderfoot Hill Rd.COColorado Springs", "@spider": "gen_rehab", "addr:full": "835 Tenderfoot Hill Rd.", "addr:city": "Colorado Springs", "addr:state": "CO", "addr:postcode": "80906-3903", "addr:country": "US", "name": "Genesis Healthcare", "brand": "Genesis Rehab Services", "brand:wikidata": "Q5532813"}, "geometry": {"type": "Point", "coordinates": [-104.812393, 38.793322]}},
{"type": "Feature", "id": "kR73qHJzJPv_Jtye5a3tmyO8zN0=", "properties": {"ref": "945 Tenderfoot Hill Rd.COColorado Springs", "@spider": "gen_rehab", "addr:full": "945 Tenderfoot Hill Rd.", "addr:city": "Colorado Springs", "addr:state": "CO", "addr:postcode": "80906-3900", "addr:country": "US", "name": "Genesis Healthcare", "brand": "Genesis Rehab Services", "brand:wikidata": "Q5532813"}, "geometry": {"type": "Point", "coordinates": [-104.810498, 38.792689]}},
{"type": "Feature", "id": "c4SJEpqNLkEVx6rEqjCSOUSIH9o=", "properties": {"ref": "419 Harding StreetNMClayton", "@spider": "gen_rehab", "addr:full": "419 Harding Street", "addr:city": "Clayton", "addr:state": "NM", "addr:postcode": "88415", "addr:country": "US", "name": "Genesis Healthcare", "brand": "Genesis Rehab Services", "brand:wikidata": "Q5532813"}, "geometry": {"type": "Point", "coordinates": [-103.1959522, 36.4532174]}},
{"type": "Feature", "id": "-4j_bEc446_EJLJ_UOgPP28hBdA=", "properties": {"ref": "1201 N. Norris St.NMClovis", "@spider": "gen_rehab", "addr:full": "1201 N. Norris St.", "addr:city": "Clovis", "addr:state": "NM", "addr:postcode": "88101", "addr:country": "US", "name": "Genesis Healthcare", "brand": "Genesis Rehab Services", "brand:wikidata": "Q5532813"}, "geometry": {"type": "Point", "coordinates": [-103.178303, 34.410817]}},
{"type": "Feature", "id": "PXDoVrA5SeIBzBi00WbJQSN_Ug4=", "properties": {"ref": "2365 Nashville RoadKYBowling Green", "@spider": "gen_rehab", "addr:full": "2365 Nashville Road", "addr:city": "Bowling Green", "addr:state": "KY", "addr:postcode": "42101-4144", "addr:country": "US", "name": "Genesis Healthcare", "brand": "Genesis Rehab Services", "brand:wikidata": "Q5532813"}, "geometry": {"type": "Point", "coordinates": [-86.467302, 36.963936]}},
{"type": "Feature", "id": "aYxUyoeR4IrUVeTuhE_gtbCSfeY=", "properties": {"ref": "500 John Aldridge Dr.ALTuscumbia", "@spider": "gen_rehab", "addr:full": "500 John Aldridge Dr.", "addr:city": "Tuscumbia", "addr:state": "AL", "addr:postcode": "35674-3000", "addr:country": "US", "name": "Genesis Healthcare", "brand": "Genesis Rehab Services", "brand:wikidata": "Q5532813"}, "geometry": {"type": "Point", "coordinates": [-87.678986, 34.728172]}},
{"type": "Feature", "id": "l2sf1iXL9sAIahqS-_p0W5HjSE8=", "properties": {"ref": "91 Country Village RoadNHLancaster", "@spider": "gen_rehab", "addr:full": "91 Country Village Road", "addr:city": "Lancaster", "addr:state": "NH", "addr:postcode": "03584", "addr:country": "US", "name": "Genesis Healthcare", "brand": "Genesis Rehab Services", "brand:wikidata": "Q5532813"}, "geometry": {"type": "Point", "coordinates": [-71.575339, 44.498666]}},
{"type": "Feature", "id": "x9Mzx-Fz2E5V2xsN5EAL399LmQM=", "properties": {"ref": "200 Governors AvenueMAMedford", "@spider": "gen_rehab", "addr:full": "200 Governors Avenue", "addr:city": "Medford", "addr:state": "MA", "addr:postcode": "02155", "addr:country": "US", "name": "Genesis Healthcare", "brand": "Genesis Rehab Services", "brand:wikidata": "Q5532813"}, "geometry": {"type": "Point", "coordinates": [-71.110186, 42.426376]}},
{"type": "Feature", "id": "zFwTpHw0QLHNzWMGyU8BDIbDbcM=", "properties": {"ref": "292 Applegarth Rd.NJMonroe Township", "@spider": "gen_rehab", "addr:full": "292 Applegarth Rd.", "addr:city": "Monroe Township", "addr:state": "NJ", "addr:postcode": "08831", "addr:country": "US", "name": "Genesis Healthcare", "brand": "Genesis Rehab Services", "brand:wikidata": "Q5532813"}, "geometry": {"type": "Point", "coordinates": [-74.472399, 40.31255]}},
{"type": "Feature", "id": "UgfaEzRqMnv1ecPFR0_b0sqiE6s=", "properties": {"ref": "262 Toll Gate RoadPALanghorne", "@spider": "gen_rehab", "addr:full": "262 Toll Gate Road", "addr:city": "Langhorne", "addr:state": "PA", "addr:postcode": "19047", "addr:country": "US", "name": "Genesis Healthcare", "brand": "Genesis Rehab Services", "brand:wikidata": "Q5532813"}, "geometry": {"type": "Point", "coordinates": [-74.924583, 40.207318]}},
{"type": "Feature", "id": "eobh-wGTMj_g4Rygu28YPAODVgU=", "properties": {"ref": "40 Crosby StreetNHMilford", "@spider": "gen_rehab", "addr:full": "40 Crosby Street", "addr:city": "Milford", "addr:state": "NH", "addr:postcode": "03055-4707", "addr:country": "US", "name": "Genesis Healthcare", "brand": "Genesis Rehab Services", "brand:wikidata": "Q5532813"}, "geometry": {"type": "Point", "coordinates": [-71.663512, 42.835453]}},
{"type": "Feature", "id": "sL6qzDQeYLKkNa34i2CJOC5ggBk=", "properties": {"ref": "136 Davis LaneTNLa Follette", "@spider": "gen_rehab", "addr:full": "136 Davis Lane", "addr:city": "La Follette", "addr:state": "TN", "addr:postcode": "37766-3118", "addr:country": "US", "name": "Genesis Healthcare", "brand": "Genesis Rehab Services", "brand:wikidata": "Q5532813"}, "geometry": {"type": "Point", "coordinates": [-84.155348, 36.355309]}},
{"type": "Feature", "id": "ygFv-BUozh3VCFUABSNQaTq7J7U=", "properties": {"ref": "200 Alabama Ave.ALMuscle Shoals", "@spider": "gen_rehab", "addr:full": "200 Alabama Ave.", "addr:city": "Muscle Shoals", "addr:state": "AL", "addr:postcode": "35661-3102", "addr:country": "US", "name": "Genesis Healthcare", "brand": "Genesis Rehab Services", "brand:wikidata": "Q5532813"}, "geometry": {"type": "Point", "coordinates": [-87.63832, 34.744356]}},
{"type": "Feature", "id": "MW_4ggV2zAZRHU4yq_Lnli-gQRU=", "properties": {"ref": "6710 Mallery DriveMDLanham", "@spider": "gen_rehab", "addr:full": "6710 Mallery Drive", "addr:city": "Lanham", "addr:state": "MD", "addr:postcode": "20706", "addr:country": "US", "name": "Genesis Healthcare", "brand": "Genesis Rehab Services", "brand:wikidata": "Q5532813"}, "geometry": {"type": "Point", "coordinates": [-76.8635962, 38.9809196]}},
{"type": "Feature", "id": "MXJD5e2klIs7dxvCBU81c9nfEnU=", "properties": {"ref": "501 Caldwell LaneWVDunbar", "@spider": "gen_rehab", "addr:full": "501 Caldwell Lane", "addr:city": "Dunbar", "addr:state": "WV", "addr:postcode": "25064-2026", "addr:country": "US", "name": "Genesis Healthcare", "brand": "Genesis Rehab Services", "brand:wikidata": "Q5532813"}, "geometry": {"type": "Point", "coordinates": [-81.716274, 38.369833]}},
{"type": "Feature", "id": "SUuiP6o6V7kVWKWLoQPIWcn2N-0=", "properties": {"ref": "813 S. Main StreetKYBrownsville", "@spider": "gen_rehab", "addr:full": "813 S. Main Street", "addr:city": "Brownsville", "addr:state": "KY", "addr:postcode": "42210-9009", "addr:country": "US", "name": "Genesis Healthcare", "brand": "Genesis Rehab Services", "brand:wikidata": "Q5532813"}, "geometry": {"type": "Point", "coordinates": [-86.259074, 37.190958]}},
{"type": "Feature", "id": "Bzq7YjHX6bh87O84ikLkjeYpKE4=", "properties": {"ref": "20 North Maple StreetMAHadley", "@spider": "gen_rehab", "addr:full": "20 North Maple Street", "addr:city": "Hadley", "addr:state": "MA", "addr:postcode": "01035-9715", "addr:country": "US", "name": "Genesis Healthcare", "brand": "Genesis Rehab Services", "brand:wikidata": "Q5532813"}, "geometry": {"type": "Point", "coordinates": [-72.555974, 42.359204]}},
{"type": "Feature", "id": "2RGEDbEE5HxIRbVBJWkwtusFIh8=", "properties": {"ref": "290 Hanover StreetNHClaremont", "@spider": "gen_rehab", "addr:full": "290 Hanover Street", "addr:city": "Claremont", "addr:state": "NH", "addr:postcode": "03743", "addr:country": "US", "name": "Genesis Healthcare", "brand": "Genesis Rehab Services", "brand:wikidata": "Q5532813"}, "geometry": {"type": "Point", "coordinates": [-72.339187, 43.390694]}},
{"type": "Feature", "id": "6PjNci9nkB9tBPOnEBG8TNyEA6Y=", "properties": {"ref": "12080 Bellaire WayCOThornton", "@spider": "gen_rehab", "addr:full": "12080 Bellaire Way", "addr:city": "Thornton", "addr:state": "CO", "addr:postcode": "80241-3600", "addr:country": "US", "name": "Genesis Healthcare", "brand": "Genesis Rehab Services", "brand:wikidata": "Q5532813"}, "geometry": {"type": "Point", "coordinates": [-104.935814, 39.915503]}},
{"type": "Feature", "id": "J6VHSuAXatZVra6K8C4xVLVOgWg=", "properties": {"ref": "8 Hampton RdNHExeter", "@spider": "gen_rehab", "addr:full": "8 Hampton Rd", "addr:city": "Exeter", "addr:state": "NH", "addr:postcode": "03833-4806", "addr:country": "US", "name": "Genesis Healthcare", "brand": "Genesis Rehab Services", "brand:wikidata": "Q5532813"}, "geometry": {"type": "Point", "coordinates": [-70.911689, 42.976089]}},
{"type": "Feature", "id": "UCZ7LBw-oVXKE2TUSX4Zx5fKvjY=", "properties": {"ref": "2101 Fairland RoadMDSilver Spring", "@spider": "gen_rehab", "addr:full": "2101 Fairland Road", "addr:city": "Silver Spring", "addr:state": "MD", "addr:postcode": "20904", "addr:country": "US", "name": "Genesis Healthcare", "brand": "Genesis Rehab Services", "brand:wikidata": "Q5532813"}, "geometry": {"type": "Point", "coordinates": [-76.968972, 39.076811]}},
{"type": "Feature", "id": "ZO7dvlDPLiXEM_XF49YUQS93dWM=", "properties": {"ref": "1253 Hartford TurnpikeCTVernon Rockville", "@spider": "gen_rehab", "addr:full": "1253 Hartford Turnpike", "addr:city": "Vernon Rockville", "addr:state": "CT", "addr:postcode": "06066", "addr:country": "US", "name": "Genesis Healthcare", "brand": "Genesis Rehab Services", "brand:wikidata": "Q5532813"}, "geometry": {"type": "Point", "coordinates": [-72.436234, 41.857835]}},
{"type": "Feature", "id": "WzUkSqm8zDIInfdUzpHfc-ed5A4=", "properties": {"ref": "9200 Franklin Square DriveMDBaltimore", "@spider": "gen_rehab", "addr:full": "9200 Franklin Square Drive", "addr:city": "Baltimore", "addr:state": "MD", "addr:postcode": "21237", "addr:country": "US", "name": "Genesis Healthcare", "brand": "Genesis Rehab Services", "brand:wikidata": "Q5532813"}, "geometry": {"type": "Point", "coordinates": [-76.483092, 39.350644]}},
{"type": "Feature", "id": "e1KogunXoou3e00TR3nAUGpnmwg=", "properties": {"ref": "867 York RoadPAGettysburg", "@spider": "gen_rehab", "addr:full": "867 York Road", "addr:city": "Gettysburg", "addr:state": "PA", "addr:postcode": "17325", "addr:country": "US", "name": "Genesis Healthcare", "brand": "Genesis Rehab Services", "brand:wikidata": "Q5532813"}, "geometry": {"type": "Point", "coordinates": [-77.2135, 39.837672]}},
{"type": "Feature", "id": "t9xIBLFWm_VY6t1czEQkffiuoLk=", "properties": {"ref": "1 Glen Hill RoadCTDanbury", "@spider": "gen_rehab", "addr:full": "1 Glen Hill Road", "addr:city": "Danbury", "addr:state": "CT", "addr:postcode": "06811-4921", "addr:country": "US", "name": "Genesis Healthcare", "brand": "Genesis Rehab Services", "brand:wikidata": "Q5532813"}, "geometry": {"type": "Point", "coordinates": [-73.448969, 41.413571]}},
{"type": "Feature", "id": "_mhcPKCK0BS93EHyOqQaMa76m-w=", "properties": {"ref": "120 Murray StreetMAMedford", "@spider": "gen_rehab", "addr:full": "120 Murray Street", "addr:city": "Medford", "addr:state": "MA", "addr:postcode": "02155", "addr:country": "US", "name": "Genesis Healthcare", "brand": "Genesis Rehab Services", "brand:wikidata": "Q5532813"}, "geometry": {"type": "Point", "coordinates": [-71.0911191, 42.4293911]}},
{"type": "Feature", "id": "GIhvRZ2pECAwpF3hxdyw4CX3inI=", "properties": {"ref": "111 Fairground RoadWVGlenville", "@spider": "gen_rehab", "addr:full": "111 Fairground Road", "addr:city": "Glenville", "addr:state": "WV", "addr:postcode": "26351-1388", "addr:country": "US", "name": "Genesis Healthcare", "brand": "Genesis Rehab Services", "brand:wikidata": "Q5532813"}, "geometry": {"type": "Point", "coordinates": [-80.818246, 38.937698]}},
{"type": "Feature", "id": "TjBakydeGlIrxtsKrWcvOPXsEtk=", "properties": {"ref": "211 Ana DriveALFlorence", "@spider": "gen_rehab", "addr:full": "211 Ana Drive", "addr:city": "Florence", "addr:state": "AL", "addr:postcode": "35630", "addr:country": "US", "name": "Genesis Healthcare", "brand": "Genesis Rehab Services", "brand:wikidata": "Q5532813"}, "geometry": {"type": "Point", "coordinates": [-87.6316367, 34.8329587]}},
{"type": "Feature", "id": "MlcOqe9MrsYvuPGVFLulcCMUIkI=", "properties": {"ref": "333 Green End AvenueRIMiddletown", "@spider": "gen_rehab", "addr:full": "333 Green End Avenue", "addr:city": "Middletown", "addr:state": "RI", "addr:postcode": "02842", "addr:country": "US", "name": "Genesis Healthcare", "brand": "Genesis Rehab Services", "brand:wikidata": "Q5532813"}, "geometry": {"type": "Point", "coordinates": [-71.28643, 41.506561]}},
{"type": "Feature", "id": "JSts4zwv9z-Aw5Ti1vteS08F8ZI=", "properties": {"ref": "100 Chambers StreetRICumberland", "@spider": "gen_rehab", "addr:full": "100 Chambers Street", "addr:city": "Cumberland", "addr:state": "RI", "addr:postcode": "02864", "addr:country": "US", "name": "Genesis Healthcare", "brand": "Genesis Rehab Services", "brand:wikidata": "Q5532813"}, "geometry": {"type": "Point", "coordinates": [-71.397463, 41.908239]}},
{"type": "Feature", "id": "7gEDR7-d5Zk0hpy3wnIczNb3lMU=", "properties": {"ref": "151 Langley ParkwayNHConcord", "@spider": "gen_rehab", "addr:full": "151 Langley Parkway", "addr:city": "Concord", "addr:state": "NH", "addr:postcode": "03301", "addr:country": "US", "name": "Genesis Healthcare", "brand": "Genesis Rehab Services", "brand:wikidata": "Q5532813"}, "geometry": {"type": "Point", "coordinates": [-71.562354, 43.197382]}},
{"type": "Feature", "id": "nvj2IzOf2snxW3S-5MNjJs5rG0Y=", "properties": {"ref": "735 Putnam PikeRIGreenville", "@spider": "gen_rehab", "addr:full": "735 Putnam Pike", "addr:city": "Greenville", "addr:state": "RI", "addr:postcode": "02828", "addr:country": "US", "name": "Genesis Healthcare", "brand": "Genesis Rehab Services", "brand:wikidata": "Q5532813"}, "geometry": {"type": "Point", "coordinates": [-71.573099, 41.878446]}},
{"type": "Feature", "id": "Mqv1tVeMWj-4wNI55ztCZ43KvTE=", "properties": {"ref": "1139 Main AvenueRIWarwick", "@spider": "gen_rehab", "addr:full": "1139 Main Avenue", "addr:city": "Warwick", "addr:state": "RI", "addr:postcode": "02886-1940", "addr:country": "US", "name": "Genesis Healthcare", "brand": "Genesis Rehab Services", "brand:wikidata": "Q5532813"}, "geometry": {"type": "Point", "coordinates": [-71.460942, 41.716854]}},
{"type": "Feature", "id": "OT7BxTYcIdKaHJ0JkTzdds5zC9Y=", "properties": {"ref": "191 Hackett Hill RdNHManchester", "@spider": "gen_rehab", "addr:full": "191 Hackett Hill Rd", "addr:city": "Manchester", "addr:state": "NH", "addr:postcode": "03102", "addr:country": "US", "name": "Genesis Healthcare", "brand": "Genesis Rehab Services", "brand:wikidata": "Q5532813"}, "geometry": {"type": "Point", "coordinates": [-71.4819326, 43.0364055]}},
{"type": "Feature", "id": "K8MGMgaf5YlnmSIq5I40vUSSBBc=", "properties": {"ref": "613 Hammonds LaneMDBrooklyn Park", "@spider": "gen_rehab", "addr:full": "613 Hammonds Lane", "addr:city": "Brooklyn Park", "addr:state": "MD", "addr:postcode": "21225", "addr:country": "US", "name": "Genesis Healthcare", "brand": "Genesis Rehab Services", "brand:wikidata": "Q5532813"}, "geometry": {"type": "Point", "coordinates": [-76.627732, 39.2125]}},
{"type": "Feature", "id": "iQArF1Yl1IOO-cNC32VAXACieWk=", "properties": {"ref": "260 Sunrise BoulevardWVRomney", "@spider": "gen_rehab", "addr:full": "260 Sunrise Boulevard", "addr:city": "Romney", "addr:state": "WV", "addr:postcode": "26757-6345", "addr:country": "US", "name": "Genesis Healthcare", "brand": "Genesis Rehab Services", "brand:wikidata": "Q5532813"}, "geometry": {"type": "Point", "coordinates": [-78.75793, 39.345729]}},
{"type": "Feature", "id": "ZYSTXRwYUsD0skiqg7_oUxgsd4U=", "properties": {"ref": "2 Footbridge RoadMEBelfast", "@spider": "gen_rehab", "addr:full": "2 Footbridge Road", "addr:city": "Belfast", "addr:state": "ME", "addr:postcode": "04915", "addr:country": "US", "name": "Genesis Healthcare", "brand": "Genesis Rehab Services", "brand:wikidata": "Q5532813"}, "geometry": {"type": "Point", "coordinates": [-69.003645, 44.433998]}},
{"type": "Feature", "id": "zrt6oPuB4Hzvs68W9rXo0kIkfoI=", "properties": {"ref": "20 Maitland StreetNHConcord", "@spider": "gen_rehab", "addr:full": "20 Maitland Street", "addr:city": "Concord", "addr:state": "NH", "addr:postcode": "03301", "addr:country": "US", "name": "Genesis Healthcare", "brand": "Genesis Rehab Services", "brand:wikidata": "Q5532813"}, "geometry": {"type": "Point", "coordinates": [-71.533721, 43.190928]}},
{"type": "Feature", "id": "o1eYucbDAY2G1SOcB4H0mCCi5N8=", "properties": {"ref": "15 Kirkbride DriveMADanvers", "@spider": "gen_rehab", "addr:full": "15 Kirkbride Drive", "addr:city": "Danvers", "addr:state": "MA", "addr:postcode": "01923", "addr:country": "US", "name": "Genesis Healthcare", "brand": "Genesis Rehab Services", "brand:wikidata": "Q5532813"}, "geometry": {"type": "Point", "coordinates": [-70.973412, 42.585106]}},
{"type": "Feature", "id": "M0dKUQ2EH2xkbFUv-rg7iA4YC8M=", "properties": {"ref": "8005 U. S. Highway 60 WestKYLewisport", "@spider": "gen_rehab", "addr:full": "8005 U. S. Highway 60 West", "addr:city": "Lewisport", "addr:state": "KY", "addr:postcode": "42351-7079", "addr:country": "US", "name": "Genesis Healthcare", "brand": "Genesis Rehab Services", "brand:wikidata": "Q5532813"}, "geometry": {"type": "Point", "coordinates": [-86.887024, 37.925735]}},
{"type": "Feature", "id": "kT83M4p39SfST_UqSLfPSYuJWLE=", "properties": {"ref": "101 13th StreetWVHuntington", "@spider": "gen_rehab", "addr:full": "101 13th Street", "addr:city": "Huntington", "addr:state": "WV", "addr:postcode": "25708", "addr:country": "US", "name": "Genesis Healthcare", "brand": "Genesis Rehab Services", "brand:wikidata": "Q5532813"}, "geometry": {"type": "Point", "coordinates": [-82.437484, 38.424032]}},
{"type": "Feature", "id": "1t9uItITBYwsCF39zz_QGrIN60U=", "properties": {"ref": "55 Cooper StreetMAAgawam", "@spider": "gen_rehab", "addr:full": "55 Cooper Street", "addr:city": "Agawam", "addr:state": "MA", "addr:postcode": "01001", "addr:country": "US", "name": "Genesis Healthcare", "brand": "Genesis Rehab Services", "brand:wikidata": "Q5532813"}, "geometry": {"type": "Point", "coordinates": [-72.618023, 42.081668]}},
{"type": "Feature", "id": "v5oCv0wpbMKj5L_Z-Gr2vDx9EE0=", "properties": {"ref": "65 Cooper StreetMAAgawam", "@spider": "gen_rehab", "addr:full": "65 Cooper Street", "addr:city": "Agawam", "addr:state": "MA", "addr:postcode": "01001", "addr:country": "US", "name": "Genesis Healthcare", "brand": "Genesis Rehab Services", "brand:wikidata": "Q5532813"}, "geometry": {"type": "Point", "coordinates": [-72.618415, 42.081739]}},
{"type": "Feature", "id": "UuLCCMBhrdEmjPIk4Yn7zIUQMhI=", "properties": {"ref": "61 Cooper StreetMAAgawam", "@spider": "gen_rehab", "addr:full": "61 Cooper Street", "addr:city": "Agawam", "addr:state": "MA", "addr:postcode": "01001", "addr:country": "US", "name": "Genesis Healthcare", "brand": "Genesis Rehab Services", "brand:wikidata": "Q5532813"}, "geometry": {"type": "Point", "coordinates": [-72.618258, 42.081711]}},
{"type": "Feature", "id": "_4PjJ72OZ99pDAoZz4QNQptrzbA=", "properties": {"ref": "3362 Buckland SquareKYOwensboro", "@spider": "gen_rehab", "addr:full": "3362 Buckland Square", "addr:city": "Owensboro", "addr:state": "KY", "addr:postcode": "42301-5829", "addr:country": "US", "name": "Genesis Healthcare", "brand": "Genesis Rehab Services", "brand:wikidata": "Q5532813"}, "geometry": {"type": "Point", "coordinates": [-87.145399, 37.737422]}},
{"type": "Feature", "id": "0Z11GstwoRDK9Sgm4GMtT593nUs=", "properties": {"ref": "462 Main StreetMAAgawam", "@spider": "gen_rehab", "addr:full": "462 Main Street", "addr:city": "Agawam", "addr:state": "MA", "addr:postcode": "01001", "addr:country": "US", "name": "Genesis Healthcare", "brand": "Genesis Rehab Services", "brand:wikidata": "Q5532813"}, "geometry": {"type": "Point", "coordinates": [-72.614627, 42.077441]}},
{"type": "Feature", "id": "3D7RtPxncTYf-J4-lQUhq5JclVw=", "properties": {"ref": "422 23rd StreetWVOak Hill", "@spider": "gen_rehab", "addr:full": "422 23rd Street", "addr:city": "Oak Hill", "addr:state": "WV", "addr:postcode": "25901", "addr:country": "US", "name": "Genesis Healthcare", "brand": "Genesis Rehab Services", "brand:wikidata": "Q5532813"}, "geometry": {"type": "Point", "coordinates": [-81.125783, 37.988332]}},
{"type": "Feature", "id": "L1MbiDEKmsEfNyO4Qvi4DdLdaDs=", "properties": {"ref": "600 Paoli Pointe DrivePAPaoli", "@spider": "gen_rehab", "addr:full": "600 Paoli Pointe Drive", "addr:city": "Paoli", "addr:state": "PA", "addr:postcode": "19301", "addr:country": "US", "name": "Genesis Healthcare", "brand": "Genesis Rehab Services", "brand:wikidata": "Q5532813"}, "geometry": {"type": "Point", "coordinates": [-75.477153, 40.043434]}},
{"type": "Feature", "id": "YLwbf_CYL5iUiv_70Cga-xeJ5LE=", "properties": {"ref": "1245 Church RoadPAWyncote", "@spider": "gen_rehab", "addr:full": "1245 Church Road", "addr:city": "Wyncote", "addr:state": "PA", "addr:postcode": "19095", "addr:country": "US", "name": "Genesis Healthcare", "brand": "Genesis Rehab Services", "brand:wikidata": "Q5532813"}, "geometry": {"type": "Point", "coordinates": [-75.148422, 40.087083]}},
{"type": "Feature", "id": "mkvkXFhYxPduciN_gejTQoIk7aU=", "properties": {"ref": "1500 Pride AvenueKYMadisonville", "@spider": "gen_rehab", "addr:full": "1500 Pride Avenue", "addr:city": "Madisonville", "addr:state": "KY", "addr:postcode": "42431-9157", "addr:country": "US", "name": "Genesis Healthcare", "brand": "Genesis Rehab Services", "brand:wikidata": "Q5532813"}, "geometry": {"type": "Point", "coordinates": [-87.504517, 37.347209]}},
{"type": "Feature", "id": "QAhddeLNMBh347U9epBUdBxaXaY=", "properties": {"ref": "213 Ana DriveALFlorence", "@spider": "gen_rehab", "addr:full": "213 Ana Drive", "addr:city": "Florence", "addr:state": "AL", "addr:postcode": "35630", "addr:country": "US", "name": "Genesis Healthcare", "brand": "Genesis Rehab Services", "brand:wikidata": "Q5532813"}, "geometry": {"type": "Point", "coordinates": [-87.631621, 34.8329275]}},
{"type": "Feature", "id": "IJNKm-XM6x1aU4gFGfI9hhhixz8=", "properties": {"ref": "152 Saddle Shop RoadWVHilltop", "@spider": "gen_rehab", "addr:full": "152 Saddle Shop Road", "addr:city": "Hilltop", "addr:state": "WV", "addr:postcode": "25855", "addr:country": "US", "name": "Genesis Healthcare", "brand": "Genesis Rehab Services", "brand:wikidata": "Q5532813"}, "geometry": {"type": "Point", "coordinates": [-81.151099, 37.9427]}},
{"type": "Feature", "id": "qQ34m6xAH6OetnlYw48b_NApYYs=", "properties": {"ref": "84 Cold Hill RoadNJMendham", "@spider": "gen_rehab", "addr:full": "84 Cold Hill Road", "addr:city": "Mendham", "addr:state": "NJ", "addr:postcode": "07945", "addr:country": "US", "name": "Genesis Healthcare", "brand": "Genesis Rehab Services", "brand:wikidata": "Q5532813"}, "geometry": {"type": "Point", "coordinates": [-74.586396, 40.790882]}},
{"type": "Feature", "id": "RqOWbJS3KD9qv7vCnNHIsCILwBk=", "properties": {"ref": "8100 Washington LanePAWyncote", "@spider": "gen_rehab", "addr:full": "8100 Washington Lane", "addr:city": "Wyncote", "addr:state": "PA", "addr:postcode": "19095", "addr:country": "US", "name": "Genesis Healthcare", "brand": "Genesis Rehab Services", "brand:wikidata": "Q5532813"}, "geometry": {"type": "Point", "coordinates": [-75.142128, 40.083724]}},
{"type": "Feature", "id": "BRXZI-H2-UCxwk473Vtr6-CrCA8=", "properties": {"ref": "460 S. College StreetKYWoodburn", "@spider": "gen_rehab", "addr:full": "460 S. College Street", "addr:city": "Woodburn", "addr:state": "KY", "addr:postcode": "42170-9638", "addr:country": "US", "name": "Genesis Healthcare", "brand": "Genesis Rehab Services", "brand:wikidata": "Q5532813"}, "geometry": {"type": "Point", "coordinates": [-86.528191, 36.836529]}},
{"type": "Feature", "id": "5m80ZvTmJuFCG_L9Ss9Rt1dLKgM=", "properties": {"ref": "3 Industrial Way EastNJEatontown", "@spider": "gen_rehab", "addr:full": "3 Industrial Way East", "addr:city": "Eatontown", "addr:state": "NJ", "addr:postcode": "07724", "addr:country": "US", "name": "Genesis Healthcare", "brand": "Genesis Rehab Services", "brand:wikidata": "Q5532813"}, "geometry": {"type": "Point", "coordinates": [-74.044, 40.276937]}},
{"type": "Feature", "id": "0q1gSEQSxs8-TW_kTxeT_mU4m5A=", "properties": {"ref": "677 Court StreetNHKeene", "@spider": "gen_rehab", "addr:full": "677 Court Street", "addr:city": "Keene", "addr:state": "NH", "addr:postcode": "03431", "addr:country": "US", "name": "Genesis Healthcare", "brand": "Genesis Rehab Services", "brand:wikidata": "Q5532813"}, "geometry": {"type": "Point", "coordinates": [-72.297746, 42.955183]}},
{"type": "Feature", "id": "Vk4DTaimWkLWBwv75pKu4BVaoQ0=", "properties": {"ref": "813 Keller LaneALTuscumbia", "@spider": "gen_rehab", "addr:full": "813 Keller Lane", "addr:city": "Tuscumbia", "addr:state": "AL", "addr:postcode": "35674-1110", "addr:country": "US", "name": "Genesis Healthcare", "brand": "Genesis Rehab Services", "brand:wikidata": "Q5532813"}, "geometry": {"type": "Point", "coordinates": [-87.705851, 34.741893]}},
{"type": "Feature", "id": "Jl3RMpHOsmF90d4slz8mf0q1b1c=", "properties": {"ref": "225 St. John RoadKYElizabethtown", "@spider": "gen_rehab", "addr:full": "225 St. John Road", "addr:city": "Elizabethtown", "addr:state": "KY", "addr:postcode": "42701-2918", "addr:country": "US", "name": "Genesis Healthcare", "brand": "Genesis Rehab Services", "brand:wikidata": "Q5532813"}, "geometry": {"type": "Point", "coordinates": [-85.873182, 37.703248]}},
{"type": "Feature", "id": "R-VRXEeHJIcN8xNA1GxZM7lkIa4=", "properties": {"ref": "660 Commonwealth Ave.RIWarwick", "@spider": "gen_rehab", "addr:full": "660 Commonwealth Ave.", "addr:city": "Warwick", "addr:state": "RI", "addr:postcode": "02886", "addr:country": "US", "name": "Genesis Healthcare", "brand": "Genesis Rehab Services", "brand:wikidata": "Q5532813"}, "geometry": {"type": "Point", "coordinates": [-71.479578, 41.701904]}},
{"type": "Feature", "id": "ErOGSCoMfxNZ7RCZDO0lUdtME8k=", "properties": {"ref": "One Emerson DriveCTWindsor", "@spider": "gen_rehab", "addr:full": "One Emerson Drive", "addr:city": "Windsor", "addr:state": "CT", "addr:postcode": "06095", "addr:country": "US", "name": "Genesis Healthcare", "brand": "Genesis Rehab Services", "brand:wikidata": "Q5532813"}, "geometry": {"type": "Point", "coordinates": [-72.6668, 41.837905]}},
{"type": "Feature", "id": "3oIjzbgXUxXDpYkrFxEvNPBHgBI=", "properties": {"ref": "3802 Klondike LaneKYLouisville", "@spider": "gen_rehab", "addr:full": "3802 Klondike Lane", "addr:city": "Louisville", "addr:state": "KY", "addr:postcode": "40218-1796", "addr:country": "US", "name": "Genesis Healthcare", "brand": "Genesis Rehab Services", "brand:wikidata": "Q5532813"}, "geometry": {"type": "Point", "coordinates": [-85.638842, 38.207772]}},
{"type": "Feature", "id": "AWY6Rr8VafsaiQVIT1Wz0T9EqgM=", "properties": {"ref": "15810 South 42nd StreetAZPhoenix", "@spider": "gen_rehab", "addr:full": "15810 South 42nd Street", "addr:city": "Phoenix", "addr:state": "AZ", "addr:postcode": "85048", "addr:country": "US", "name": "Genesis Healthcare", "brand": "Genesis Rehab Services", "brand:wikidata": "Q5532813"}, "geometry": {"type": "Point", "coordinates": [-111.9957512, 33.3037768]}},
{"type": "Feature", "id": "ahKV0S-U76cD1ry9TwTqZ8BInxs=", "properties": {"ref": "175 Blueberry LaneNHLaconia", "@spider": "gen_rehab", "addr:full": "175 Blueberry Lane", "addr:city": "Laconia", "addr:state": "NH", "addr:postcode": "03246", "addr:country": "US", "name": "Genesis Healthcare", "brand": "Genesis Rehab Services", "brand:wikidata": "Q5532813"}, "geometry": {"type": "Point", "coordinates": [-71.488232, 43.538997]}},
{"type": "Feature", "id": "7uxP1bjKtz9LURdJE-EM1lg_BfA=", "properties": {"ref": "5901 Ouray Road NWNMAlbuquerque", "@spider": "gen_rehab", "addr:full": "5901 Ouray Road NW", "addr:city": "Albuquerque", "addr:state": "NM", "addr:postcode": "87120-1381", "addr:country": "US", "name": "Genesis Healthcare", "brand": "Genesis Rehab Services", "brand:wikidata": "Q5532813"}, "geometry": {"type": "Point", "coordinates": [-106.705956, 35.113101]}},
{"type": "Feature", "id": "Qt3agnpMaWKcmdT5tB686wp4LGk=", "properties": {"ref": "60 Middle RoadNHDover", "@spider": "gen_rehab", "addr:full": "60 Middle Road", "addr:city": "Dover", "addr:state": "NH", "addr:postcode": "03820-4146", "addr:country": "US", "name": "Genesis Healthcare", "brand": "Genesis Rehab Services", "brand:wikidata": "Q5532813"}, "geometry": {"type": "Point", "coordinates": [-70.857087, 43.180205]}},
{"type": "Feature", "id": "qSI2MZwRev04EGZo777vksPVVLw=", "properties": {"ref": "17 Hampton RoadNHExeter", "@spider": "gen_rehab", "addr:full": "17 Hampton Road", "addr:city": "Exeter", "addr:state": "NH", "addr:postcode": "03833-4859", "addr:country": "US", "name": "Genesis Healthcare", "brand": "Genesis Rehab Services", "brand:wikidata": "Q5532813"}, "geometry": {"type": "Point", "coordinates": [-70.911187, 42.975948]}},
{"type": "Feature", "id": "p45E4TlaZki0stjTe6L7aYRLX9s=", "properties": {"ref": "136A  Arch StreetNHKeene", "@spider": "gen_rehab", "addr:full": "136A  Arch Street", "addr:city": "Keene", "addr:state": "NH", "addr:postcode": "03431-2186", "addr:country": "US", "name": "Genesis Healthcare", "brand": "Genesis Rehab Services", "brand:wikidata": "Q5532813"}, "geometry": {"type": "Point", "coordinates": [-72.329267, 42.93657]}},
{"type": "Feature", "id": "z3aNhzQwWkc5dSbAQ374mZIvQH0=", "properties": {"ref": "136A Arch StreetNHKeene", "@spider": "gen_rehab", "addr:full": "136A Arch Street", "addr:city": "Keene", "addr:state": "NH", "addr:postcode": "03431-2186", "addr:country": "US", "name": "Genesis Healthcare", "brand": "Genesis Rehab Services", "brand:wikidata": "Q5532813"}, "geometry": {"type": "Point", "coordinates": [-72.329267, 42.93657]}},
{"type": "Feature", "id": "oLqaoTZyoCtv8wJyMxNFmvWnNYA=", "properties": {"ref": "319 East Dunstable RoadNHNashua", "@spider": "gen_rehab", "addr:full": "319 East Dunstable Road", "addr:city": "Nashua", "addr:state": "NH", "addr:postcode": "03062-4207", "addr:country": "US", "name": "Genesis Healthcare", "brand": "Genesis Rehab Services", "brand:wikidata": "Q5532813"}, "geometry": {"type": "Point", "coordinates": [-71.471365, 42.712122]}},
{"type": "Feature", "id": "LD8DFsPVfMc_-ZaHvYBmEZ05ny8=", "properties": {"ref": "8100 Palomas NENMAlbuquerque", "@spider": "gen_rehab", "addr:full": "8100 Palomas NE", "addr:city": "Albuquerque", "addr:state": "NM", "addr:postcode": "87109-5264", "addr:country": "US", "name": "Genesis Healthcare", "brand": "Genesis Rehab Services", "brand:wikidata": "Q5532813"}, "geometry": {"type": "Point", "coordinates": [-106.554595, 35.172171]}},
{"type": "Feature", "id": "uILZjj607KP2hFoIwaEuq-KFsyw=", "properties": {"ref": "125 Holly RoadPAHamburg", "@spider": "gen_rehab", "addr:full": "125 Holly Road", "addr:city": "Hamburg", "addr:state": "PA", "addr:postcode": "19526", "addr:country": "US", "name": "Genesis Healthcare", "brand": "Genesis Rehab Services", "brand:wikidata": "Q5532813"}, "geometry": {"type": "Point", "coordinates": [-76.011217, 40.559794]}},
{"type": "Feature", "id": "OQ2WfBvYYhnEo8F9-9P_TIun35k=", "properties": {"ref": "75 Hickle StreetPAUniontown", "@spider": "gen_rehab", "addr:full": "75 Hickle Street", "addr:city": "Uniontown", "addr:state": "PA", "addr:postcode": "15401", "addr:country": "US", "name": "Genesis Healthcare", "brand": "Genesis Rehab Services", "brand:wikidata": "Q5532813"}, "geometry": {"type": "Point", "coordinates": [-79.712887, 39.893751]}},
{"type": "Feature", "id": "eSBQ04vEA7XxndxQrKhQwALBJqM=", "properties": {"ref": "24 Old Etna RoadNHLebanon", "@spider": "gen_rehab", "addr:full": "24 Old Etna Road", "addr:city": "Lebanon", "addr:state": "NH", "addr:postcode": "03766", "addr:country": "US", "name": "Genesis Healthcare", "brand": "Genesis Rehab Services", "brand:wikidata": "Q5532813"}, "geometry": {"type": "Point", "coordinates": [-72.250936, 43.655138]}},
{"type": "Feature", "id": "RLoERXf9WKWgaRY4VH7XjBsItF8=", "properties": {"ref": "1680 Spring Creek RoadPAMacungie", "@spider": "gen_rehab", "addr:full": "1680 Spring Creek Road", "addr:city": "Macungie", "addr:state": "PA", "addr:postcode": "18062", "addr:country": "US", "name": "Genesis Healthcare", "brand": "Genesis Rehab Services", "brand:wikidata": "Q5532813"}, "geometry": {"type": "Point", "coordinates": [-75.570741, 40.546051]}},
{"type": "Feature", "id": "2-5n3EtdnkY9mmR4KKYVcU0UX7Q=", "properties": {"ref": "715 King StreetDESeaford", "@spider": "gen_rehab", "addr:full": "715 King Street", "addr:city": "Seaford", "addr:state": "DE", "addr:postcode": "19973", "addr:country": "US", "name": "Genesis Healthcare", "brand": "Genesis Rehab Services", "brand:wikidata": "Q5532813"}, "geometry": {"type": "Point", "coordinates": [-75.607009, 38.643556]}},
{"type": "Feature", "id": "f7_5KTv__IeTOzEYZGFPhUi4LFY=", "properties": {"ref": "PO Box 540WVLogan", "@spider": "gen_rehab", "addr:full": "PO Box 540", "addr:city": "Logan", "addr:state": "WV", "addr:postcode": "25601", "addr:country": "US", "name": "Genesis Healthcare", "brand": "Genesis Rehab Services", "brand:wikidata": "Q5532813"}, "geometry": {"type": "Point", "coordinates": [-81.986216, 37.867533]}},
{"type": "Feature", "id": "4mjG6lcZ9LwzuD6HfCP6Tdk71aA=", "properties": {"ref": "390 Red School LaneNJPhillipsburg", "@spider": "gen_rehab", "addr:full": "390 Red School Lane", "addr:city": "Phillipsburg", "addr:state": "NJ", "addr:postcode": "08865", "addr:country": "US", "name": "Genesis Healthcare", "brand": "Genesis Rehab Services", "brand:wikidata": "Q5532813"}, "geometry": {"type": "Point", "coordinates": [-75.168232, 40.70731]}},
{"type": "Feature", "id": "r5bubStX_i17mn-c68mfpPZk8n0=", "properties": {"ref": "161 Bakers Ridge RoadWVMorgantown", "@spider": "gen_rehab", "addr:full": "161 Bakers Ridge Road", "addr:city": "Morgantown", "addr:state": "WV", "addr:postcode": "26508", "addr:country": "US", "name": "Genesis Healthcare", "brand": "Genesis Rehab Services", "brand:wikidata": "Q5532813"}, "geometry": {"type": "Point", "coordinates": [-79.924136, 39.686185]}},
{"type": "Feature", "id": "9yl6j1A-39DpCbT4TtCT9XN1YlU=", "properties": {"ref": "34 Wildwood AvenueCTMadison", "@spider": "gen_rehab", "addr:full": "34 Wildwood Avenue", "addr:city": "Madison", "addr:state": "CT", "addr:postcode": "06443-2102", "addr:country": "US", "name": "Genesis Healthcare", "brand": "Genesis Rehab Services", "brand:wikidata": "Q5532813"}, "geometry": {"type": "Point", "coordinates": [-72.638356, 41.287072]}},
{"type": "Feature", "id": "Avk8QQhuqMEq4kHKEfMhtdV2oxg=", "properties": {"ref": "420 Dean DriveALGardendale", "@spider": "gen_rehab", "addr:full": "420 Dean Drive", "addr:city": "Gardendale", "addr:state": "AL", "addr:postcode": "35071-2763", "addr:country": "US", "name": "Genesis Healthcare", "brand": "Genesis Rehab Services", "brand:wikidata": "Q5532813"}, "geometry": {"type": "Point", "coordinates": [-86.798173, 33.650847]}},
{"type": "Feature", "id": "GiivvrJ4EqUweZ3y6_mPD0ql2DY=", "properties": {"ref": "1381 Campbell LaneKYBowling Green", "@spider": "gen_rehab", "addr:full": "1381 Campbell Lane", "addr:city": "Bowling Green", "addr:state": "KY", "addr:postcode": "42104-1049", "addr:country": "US", "name": "Genesis Healthcare", "brand": "Genesis Rehab Services", "brand:wikidata": "Q5532813"}, "geometry": {"type": "Point", "coordinates": [-86.445353, 36.953432]}},
{"type": "Feature", "id": "WwzDonLQ85aF2rryf5o5ANmMu_Y=", "properties": {"ref": "12-15 Saddle River RoadNJFair Lawn", "@spider": "gen_rehab", "addr:full": "12-15 Saddle River Road", "addr:city": "Fair Lawn", "addr:state": "NJ", "addr:postcode": "07410", "addr:country": "US", "name": "Genesis Healthcare", "brand": "Genesis Rehab Services", "brand:wikidata": "Q5532813"}, "geometry": {"type": "Point", "coordinates": [-74.099007, 40.940169]}},
{"type": "Feature", "id": "UG5-iIP9u8zsknETKPpdBI8yXPw=", "properties": {"ref": "1 Sutphin DriveWVMarmet", "@spider": "gen_rehab", "addr:full": "1 Sutphin Drive", "addr:city": "Marmet", "addr:state": "WV", "addr:postcode": "25315", "addr:country": "US", "name": "Genesis Healthcare", "brand": "Genesis Rehab Services", "brand:wikidata": "Q5532813"}, "geometry": {"type": "Point", "coordinates": [-81.56929167, 38.234545]}},
{"type": "Feature", "id": "t86HZc-uuFfk74gDxVKzvzQ7dr4=", "properties": {"ref": "33 Roger StreetMELewiston", "@spider": "gen_rehab", "addr:full": "33 Roger Street", "addr:city": "Lewiston", "addr:state": "ME", "addr:postcode": "04240", "addr:country": "US", "name": "Genesis Healthcare", "brand": "Genesis Rehab Services", "brand:wikidata": "Q5532813"}, "geometry": {"type": "Point", "coordinates": [-70.161338, 44.101973]}},
{"type": "Feature", "id": "z0lgvER3qu5ywl3GTwtEPuURh-4=", "properties": {"ref": "306 E. Nizhoni Blvd.NMGallup", "@spider": "gen_rehab", "addr:full": "306 E. Nizhoni Blvd.", "addr:city": "Gallup", "addr:state": "NM", "addr:postcode": "87301-5794", "addr:country": "US", "name": "Genesis Healthcare", "brand": "Genesis Rehab Services", "brand:wikidata": "Q5532813"}, "geometry": {"type": "Point", "coordinates": [-108.735607, 35.508427]}},
{"type": "Feature", "id": "FxBPQrqY7IhWYNvS0fLkgt7QYUQ=", "properties": {"ref": "464 Main StreetMAAgawam", "@spider": "gen_rehab", "addr:full": "464 Main Street", "addr:city": "Agawam", "addr:state": "MA", "addr:postcode": "01001", "addr:country": "US", "name": "Genesis Healthcare", "brand": "Genesis Rehab Services", "brand:wikidata": "Q5532813"}, "geometry": {"type": "Point", "coordinates": [-72.614505, 42.077758]}},
{"type": "Feature", "id": "ZffYwfwgHhmL3UvEKMUycGNw9HA=", "properties": {"ref": "707 North Elm StNCHigh Point", "@spider": "gen_rehab", "addr:full": "707 North Elm St", "addr:city": "High Point", "addr:state": "NC", "addr:postcode": "27262-3917", "addr:country": "US", "name": "Genesis Healthcare", "brand": "Genesis Rehab Services", "brand:wikidata": "Q5532813"}, "geometry": {"type": "Point", "coordinates": [-80.013771, 35.964173]}},
{"type": "Feature", "id": "AVIr28sl3pzwRFZo27jt4cbvYSw=", "properties": {"ref": "280 Mt. Hebron Rd.ALElmore", "@spider": "gen_rehab", "addr:full": "280 Mt. Hebron Rd.", "addr:city": "Elmore", "addr:state": "AL", "addr:postcode": "36025-1526", "addr:country": "US", "name": "Genesis Healthcare", "brand": "Genesis Rehab Services", "brand:wikidata": "Q5532813"}, "geometry": {"type": "Point", "coordinates": [-86.322488, 32.558471]}},
{"type": "Feature", "id": "qFroabs_0apqD1XcxKHwOBRNQOU=", "properties": {"ref": "255 West Brown RoadAZMesa", "@spider": "gen_rehab", "addr:full": "255 West Brown Road", "addr:city": "Mesa", "addr:state": "AZ", "addr:postcode": "85201", "addr:country": "US", "name": "Genesis Healthcare", "brand": "Genesis Rehab Services", "brand:wikidata": "Q5532813"}, "geometry": {"type": "Point", "coordinates": [-111.8394379, 33.434661]}},
{"type": "Feature", "id": "Ube6anYIrccFigZtE1bJgVZ4IU8=", "properties": {"ref": "2901 N. 12th St.COGrand Junction", "@spider": "gen_rehab", "addr:full": "2901 N. 12th St.", "addr:city": "Grand Junction", "addr:state": "CO", "addr:postcode": "81506-2811", "addr:country": "US", "name": "Genesis Healthcare", "brand": "Genesis Rehab Services", "brand:wikidata": "Q5532813"}, "geometry": {"type": "Point", "coordinates": [-108.553491, 39.094005]}},
{"type": "Feature", "id": "-ssA1RZ2x2A0uAkAeMp3XQdSFsQ=", "properties": {"ref": "500 E. Philadelphia AvePAShillington", "@spider": "gen_rehab", "addr:full": "500 E. Philadelphia Ave", "addr:city": "Shillington", "addr:state": "PA", "addr:postcode": "19607", "addr:country": "US", "name": "Genesis Healthcare", "brand": "Genesis Rehab Services", "brand:wikidata": "Q5532813"}, "geometry": {"type": "Point", "coordinates": [-75.95604, 40.29832]}},
{"type": "Feature", "id": "G9Dr3oef-xuVk1PEnRoNfga6AD0=", "properties": {"ref": "450 East Philadelphia AvenuePAShillington", "@spider": "gen_rehab", "addr:full": "450 East Philadelphia Avenue", "addr:city": "Shillington", "addr:state": "PA", "addr:postcode": "19607", "addr:country": "US", "name": "Genesis Healthcare", "brand": "Genesis Rehab Services", "brand:wikidata": "Q5532813"}, "geometry": {"type": "Point", "coordinates": [-75.958587, 40.298673]}},
{"type": "Feature", "id": "1_vE1WOjmowIsN7Ya94i1x75WD4=", "properties": {"ref": "825 Summit StreetWVSpencer", "@spider": "gen_rehab", "addr:full": "825 Summit Street", "addr:city": "Spencer", "addr:state": "WV", "addr:postcode": "25276", "addr:country": "US", "name": "Genesis Healthcare", "brand": "Genesis Rehab Services", "brand:wikidata": "Q5532813"}, "geometry": {"type": "Point", "coordinates": [-81.364375, 38.809334]}},
{"type": "Feature", "id": "odiMB1V_X32eEZ776A4FZBSNBFc=", "properties": {"ref": "700 Marvel RoadDEMilford", "@spider": "gen_rehab", "addr:full": "700 Marvel Road", "addr:city": "Milford", "addr:state": "DE", "addr:postcode": "19963", "addr:country": "US", "name": "Genesis Healthcare", "brand": "Genesis Rehab Services", "brand:wikidata": "Q5532813"}, "geometry": {"type": "Point", "coordinates": [-75.440479, 38.906469]}},
{"type": "Feature", "id": "IjfXTrxXxZD_tWaUhT6K1j1ZTfc=", "properties": {"ref": "10 Veterans Memorial DriveMAMilford", "@spider": "gen_rehab", "addr:full": "10 Veterans Memorial Drive", "addr:city": "Milford", "addr:state": "MA", "addr:postcode": "01757-2900", "addr:country": "US", "name": "Genesis Healthcare", "brand": "Genesis Rehab Services", "brand:wikidata": "Q5532813"}, "geometry": {"type": "Point", "coordinates": [-71.502699, 42.147702]}},
{"type": "Feature", "id": "0Hp3YjKYlLZtLGlHS5soINXvWL0=", "properties": {"ref": "54 Sharp StreetNJMillville", "@spider": "gen_rehab", "addr:full": "54 Sharp Street", "addr:city": "Millville", "addr:state": "NJ", "addr:postcode": "08332", "addr:country": "US", "name": "Genesis Healthcare", "brand": "Genesis Rehab Services", "brand:wikidata": "Q5532813"}, "geometry": {"type": "Point", "coordinates": [-75.042106, 39.414728]}},
{"type": "Feature", "id": "c9mHS61RoUTQ9t-PvPyROEVJTH8=", "properties": {"ref": "1251 White Mountain HighwayNHNorth Conway", "@spider": "gen_rehab", "addr:full": "1251 White Mountain Highway", "addr:city": "North Conway", "addr:state": "NH", "addr:postcode": "03860-5154", "addr:country": "US", "name": "Genesis Healthcare", "brand": "Genesis Rehab Services", "brand:wikidata": "Q5532813"}, "geometry": {"type": "Point", "coordinates": [-71.128404, 44.05368]}},
{"type": "Feature", "id": "1_dCT5fIrPIljkHyOdtNZN0IdcA=", "properties": {"ref": "3200 Mission Arch DriveNMRoswell", "@spider": "gen_rehab", "addr:full": "3200 Mission Arch Drive", "addr:city": "Roswell", "addr:state": "NM", "addr:postcode": "88201-8307", "addr:country": "US", "name": "Genesis Healthcare", "brand": "Genesis Rehab Services", "brand:wikidata": "Q5532813"}, "geometry": {"type": "Point", "coordinates": [-104.508294, 33.436102]}},
{"type": "Feature", "id": "NE3HVKewXV81PL4Y0gxvTDfqdHw=", "properties": {"ref": "228 Smith Chapel RdNCMount Olive", "@spider": "gen_rehab", "addr:full": "228 Smith Chapel Rd", "addr:city": "Mount Olive", "addr:state": "NC", "addr:postcode": "28365-1917", "addr:country": "US", "name": "Genesis Healthcare", "brand": "Genesis Rehab Services", "brand:wikidata": "Q5532813"}, "geometry": {"type": "Point", "coordinates": [-78.107123, 35.200434]}},
{"type": "Feature", "id": "1Ie9iZcvC0rBj1UylE6I2CVt6sU=", "properties": {"ref": "7 Baldwin StreetNHFranklin", "@spider": "gen_rehab", "addr:full": "7 Baldwin Street", "addr:city": "Franklin", "addr:state": "NH", "addr:postcode": "03235", "addr:country": "US", "name": "Genesis Healthcare", "brand": "Genesis Rehab Services", "brand:wikidata": "Q5532813"}, "geometry": {"type": "Point", "coordinates": [-71.630589, 43.438546]}},
{"type": "Feature", "id": "b4zL8TYPxWctgVrUBVczxrwUeyQ=", "properties": {"ref": "9 Haywood AvenueVTRutland", "@spider": "gen_rehab", "addr:full": "9 Haywood Avenue", "addr:city": "Rutland", "addr:state": "VT", "addr:postcode": "05701", "addr:country": "US", "name": "Genesis Healthcare", "brand": "Genesis Rehab Services", "brand:wikidata": "Q5532813"}, "geometry": {"type": "Point", "coordinates": [-72.962174, 43.593555]}},
{"type": "Feature", "id": "v_DYIgPQjYegvOmnBsk8JadR28s=", "properties": {"ref": "225 Russell AvenueWVNew Martinsville", "@spider": "gen_rehab", "addr:full": "225 Russell Avenue", "addr:city": "New Martinsville", "addr:state": "WV", "addr:postcode": "26155-1572", "addr:country": "US", "name": "Genesis Healthcare", "brand": "Genesis Rehab Services", "brand:wikidata": "Q5532813"}, "geometry": {"type": "Point", "coordinates": [-80.858678, 39.654998]}},
{"type": "Feature", "id": "dEl7KZYvDuEKIe4kkPL8-5pzh1k=", "properties": {"ref": "1700 Pine StreetPANorristown", "@spider": "gen_rehab", "addr:full": "1700 Pine Street", "addr:city": "Norristown", "addr:state": "PA", "addr:postcode": "19401", "addr:country": "US", "name": "Genesis Healthcare", "brand": "Genesis Rehab Services", "brand:wikidata": "Q5532813"}, "geometry": {"type": "Point", "coordinates": [-75.331793, 40.129014]}},
{"type": "Feature", "id": "bD_ewIss4qez7rkd1ZILlRzR1qI=", "properties": {"ref": "700 Town Bank RdNJNorth Cape May", "@spider": "gen_rehab", "addr:full": "700 Town Bank Rd", "addr:city": "North Cape May", "addr:state": "NJ", "addr:postcode": "08204", "addr:country": "US", "name": "Genesis Healthcare", "brand": "Genesis Rehab Services", "brand:wikidata": "Q5532813"}, "geometry": {"type": "Point", "coordinates": [-74.92524, 38.973881]}},
{"type": "Feature", "id": "dXvRLRwoWpxRqZlUM33N8HBty7o=", "properties": {"ref": "27 Cool StreetMEWaterville", "@spider": "gen_rehab", "addr:full": "27 Cool Street", "addr:city": "Waterville", "addr:state": "ME", "addr:postcode": "04901", "addr:country": "US", "name": "Genesis Healthcare", "brand": "Genesis Rehab Services", "brand:wikidata": "Q5532813"}, "geometry": {"type": "Point", "coordinates": [-69.644636, 44.546672]}},
{"type": "Feature", "id": "IQbE8eWsFlNezaOKhzuMWGFdBEY=", "properties": {"ref": "22 Tuck RoadNHHampton", "@spider": "gen_rehab", "addr:full": "22 Tuck Road", "addr:city": "Hampton", "addr:state": "NH", "addr:postcode": "03842", "addr:country": "US", "name": "Genesis Healthcare", "brand": "Genesis Rehab Services", "brand:wikidata": "Q5532813"}, "geometry": {"type": "Point", "coordinates": [-70.831812, 42.947039]}},
{"type": "Feature", "id": "HXF-ykH6VFUAugECc5EH5fiVOU8=", "properties": {"ref": "117 Bennoch RoadMEOrono", "@spider": "gen_rehab", "addr:full": "117 Bennoch Road", "addr:city": "Orono", "addr:state": "ME", "addr:postcode": "04473", "addr:country": "US", "name": "Genesis Healthcare", "brand": "Genesis Rehab Services", "brand:wikidata": "Q5532813"}, "geometry": {"type": "Point", "coordinates": [-68.678835, 44.89377]}},
{"type": "Feature", "id": "IzghjIwjr0dFzDVRdwcOMOhIU4M=", "properties": {"ref": "40 Parkhurst RoadMAChelmsford", "@spider": "gen_rehab", "addr:full": "40 Parkhurst Road", "addr:city": "Chelmsford", "addr:state": "MA", "addr:postcode": "01824", "addr:country": "US", "name": "Genesis Healthcare", "brand": "Genesis Rehab Services", "brand:wikidata": "Q5532813"}, "geometry": {"type": "Point", "coordinates": [-71.36015, 42.619817]}},
{"type": "Feature", "id": "WbvptynA7AtwtliN-dRZm3n0klA=", "properties": {"ref": "1716 Gihon RoadWVParkersburg", "@spider": "gen_rehab", "addr:full": "1716 Gihon Road", "addr:city": "Parkersburg", "addr:state": "WV", "addr:postcode": "26101-9655", "addr:country": "US", "name": "Genesis Healthcare", "brand": "Genesis Rehab Services", "brand:wikidata": "Q5532813"}, "geometry": {"type": "Point", "coordinates": [-81.561719, 39.232484]}},
{"type": "Feature", "id": "vGB0uWYYLPs_aS156rzvqXvi4AQ=", "properties": {"ref": "777 Lafayette RoadNHHampton", "@spider": "gen_rehab", "addr:full": "777 Lafayette Road", "addr:city": "Hampton", "addr:state": "NH", "addr:postcode": "03842", "addr:country": "US", "name": "Genesis Healthcare", "brand": "Genesis Rehab Services", "brand:wikidata": "Q5532813"}, "geometry": {"type": "Point", "coordinates": [-70.832152, 42.94893]}},
{"type": "Feature", "id": "HJxOQwiy31lIZUWey5TGB_GJjsU=", "properties": {"ref": "310 East Wardell DrNCPembroke", "@spider": "gen_rehab", "addr:full": "310 East Wardell Dr", "addr:city": "Pembroke", "addr:state": "NC", "addr:postcode": "28372-7997", "addr:country": "US", "name": "Genesis Healthcare", "brand": "Genesis Rehab Services", "brand:wikidata": "Q5532813"}, "geometry": {"type": "Point", "coordinates": [-79.180157, 34.682524]}},
{"type": "Feature", "id": "epZtz-hR7xOnvrjfyvwdBGP4DtA=", "properties": {"ref": "530 Macoby StreetPAPennsburg", "@spider": "gen_rehab", "addr:full": "530 Macoby Street", "addr:city": "Pennsburg", "addr:state": "PA", "addr:postcode": "18073", "addr:country": "US", "name": "Genesis Healthcare", "brand": "Genesis Rehab Services", "brand:wikidata": "Q5532813"}, "geometry": {"type": "Point", "coordinates": [-75.493704, 40.397846]}},
{"type": "Feature", "id": "lPASfiC1wiI_ChYvNBI7AbPWuho=", "properties": {"ref": "50 Pheasant RoadNHPeterborough", "@spider": "gen_rehab", "addr:full": "50 Pheasant Road", "addr:city": "Peterborough", "addr:state": "NH", "addr:postcode": "03458-2110", "addr:country": "US", "name": "Genesis Healthcare", "brand": "Genesis Rehab Services", "brand:wikidata": "Q5532813"}, "geometry": {"type": "Point", "coordinates": [-71.936418, 42.907408]}},
{"type": "Feature", "id": "njzDfklp1pnd0XNVXVCnwEuk_tw=", "properties": {"ref": "1543 Country Club RoadWVFairmont", "@spider": "gen_rehab", "addr:full": "1543 Country Club Road", "addr:city": "Fairmont", "addr:state": "WV", "addr:postcode": "26554", "addr:country": "US", "name": "Genesis Healthcare", "brand": "Genesis Rehab Services", "brand:wikidata": "Q5532813"}, "geometry": {"type": "Point", "coordinates": [-80.178601, 39.473147]}},
{"type": "Feature", "id": "Zcim1OUUTQnFM-dbbW_kvP0xteU=", "properties": {"ref": "2719 N. Union Blvd.COColorado Springs", "@spider": "gen_rehab", "addr:full": "2719 N. Union Blvd.", "addr:city": "Colorado Springs", "addr:state": "CO", "addr:postcode": "80909-1145", "addr:country": "US", "name": "Genesis Healthcare", "brand": "Genesis Rehab Services", "brand:wikidata": "Q5532813"}, "geometry": {"type": "Point", "coordinates": [-104.793353, 38.871055]}},
{"type": "Feature", "id": "znWZPs65o6tzby5wNIM4M-zw1os=", "properties": {"ref": "405 Stanaford Rd.WVBeckley", "@spider": "gen_rehab", "addr:full": "405 Stanaford Rd.", "addr:city": "Beckley", "addr:state": "WV", "addr:postcode": "25801-3143", "addr:country": "US", "name": "Genesis Healthcare", "brand": "Genesis Rehab Services", "brand:wikidata": "Q5532813"}, "geometry": {"type": "Point", "coordinates": [-81.168158, 37.800337]}},
{"type": "Feature", "id": "dxS3qkBjzDbNPQH4KqhGSUXQC_Y=", "properties": {"ref": "67 Pine Point RoadMEScarborough", "@spider": "gen_rehab", "addr:full": "67 Pine Point Road", "addr:city": "Scarborough", "addr:state": "ME", "addr:postcode": "04074", "addr:country": "US", "name": "Genesis Healthcare", "brand": "Genesis Rehab Services", "brand:wikidata": "Q5532813"}, "geometry": {"type": "Point", "coordinates": [-70.378579, 43.567353]}},
{"type": "Feature", "id": "QFYr9FLB6LRh8609caSJgsuadkQ=", "properties": {"ref": "5 Everett Tibbs RoadWVMarlinton", "@spider": "gen_rehab", "addr:full": "5 Everett Tibbs Road", "addr:city": "Marlinton", "addr:state": "WV", "addr:postcode": "24954", "addr:country": "US", "name": "Genesis Healthcare", "brand": "Genesis Rehab Services", "brand:wikidata": "Q5532813"}, "geometry": {"type": "Point", "coordinates": [-80.095568, 38.217649]}},
{"type": "Feature", "id": "46YfBrbnFrXhEbU4ek78rl-d22o=", "properties": {"ref": "2611 Jones Ave.COPueblo", "@spider": "gen_rehab", "addr:full": "2611 Jones Ave.", "addr:city": "Pueblo", "addr:state": "CO", "addr:postcode": "81004-2650", "addr:country": "US", "name": "Genesis Healthcare", "brand": "Genesis Rehab Services", "brand:wikidata": "Q5532813"}, "geometry": {"type": "Point", "coordinates": [-104.641946, 38.237616]}},
{"type": "Feature", "id": "KjOVST4RtxWuoyXp8rBWA7zNNQo=", "properties": {"ref": "300 Seville RdWVHurricane", "@spider": "gen_rehab", "addr:full": "300 Seville Rd", "addr:city": "Hurricane", "addr:state": "WV", "addr:postcode": "25526-9206", "addr:country": "US", "name": "Genesis Healthcare", "brand": "Genesis Rehab Services", "brand:wikidata": "Q5532813"}, "geometry": {"type": "Point", "coordinates": [-81.956399, 38.452026]}},
{"type": "Feature", "id": "T8dUFYRsoWV2OcVQvC7oPv3g5hs=", "properties": {"ref": "1020 South Main StreetPAQuakertown", "@spider": "gen_rehab", "addr:full": "1020 South Main Street", "addr:city": "Quakertown", "addr:state": "PA", "addr:postcode": "18951", "addr:country": "US", "name": "Genesis Healthcare", "brand": "Genesis Rehab Services", "brand:wikidata": "Q5532813"}, "geometry": {"type": "Point", "coordinates": [-75.343196, 40.429166]}},
{"type": "Feature", "id": "XUL0_DJZ6pMCCiftmHbep2Vz1Qs=", "properties": {"ref": "1631 Ritter DriveWVDaniels", "@spider": "gen_rehab", "addr:full": "1631 Ritter Drive", "addr:city": "Daniels", "addr:state": "WV", "addr:postcode": "25832", "addr:country": "US", "name": "Genesis Healthcare", "brand": "Genesis Rehab Services", "brand:wikidata": "Q5532813"}, "geometry": {"type": "Point", "coordinates": [-81.113843, 37.738179]}},
{"type": "Feature", "id": "G_dni2CzQWvpmxVBpuN3PcD_S3w=", "properties": {"ref": "200 S. Ritchie AveWVRavenswood", "@spider": "gen_rehab", "addr:full": "200 S. Ritchie Ave", "addr:city": "Ravenswood", "addr:state": "WV", "addr:postcode": "26164", "addr:country": "US", "name": "Genesis Healthcare", "brand": "Genesis Rehab Services", "brand:wikidata": "Q5532813"}, "geometry": {"type": "Point", "coordinates": [-81.763347, 38.954914]}},
{"type": "Feature", "id": "wJ2WteFC4c0kH3d1sCJ5NgNdJyc=", "properties": {"ref": "3720 Church Rock StreetNMGallup", "@spider": "gen_rehab", "addr:full": "3720 Church Rock Street", "addr:city": "Gallup", "addr:state": "NM", "addr:postcode": "87301", "addr:country": "US", "name": "Genesis Healthcare", "brand": "Genesis Rehab Services", "brand:wikidata": "Q5532813"}, "geometry": {"type": "Point", "coordinates": [-108.6730085, 35.5276159]}},
{"type": "Feature", "id": "piH7jbxT-QdhaLhjnP4ff1JsgMQ=", "properties": {"ref": "1550 Raydale DriveKYLouisville", "@spider": "gen_rehab", "addr:full": "1550 Raydale Drive", "addr:city": "Louisville", "addr:state": "KY", "addr:postcode": "40219-5031", "addr:country": "US", "name": "Genesis Healthcare", "brand": "Genesis Rehab Services", "brand:wikidata": "Q5532813"}, "geometry": {"type": "Point", "coordinates": [-85.671957, 38.122264]}},
{"type": "Feature", "id": "Fd3UgGXeHaAHoK-ucySz4ctmHX4=", "properties": {"ref": "279 Cabot StreetMAHolyoke", "@spider": "gen_rehab", "addr:full": "279 Cabot Street", "addr:city": "Holyoke", "addr:state": "MA", "addr:postcode": "01040", "addr:country": "US", "name": "Genesis Healthcare", "brand": "Genesis Rehab Services", "brand:wikidata": "Q5532813"}, "geometry": {"type": "Point", "coordinates": [-72.6214159, 42.20697]}},
{"type": "Feature", "id": "UN8TkOQi-STBX4tFYaIEmZn69MQ=", "properties": {"ref": "10 Woodland DriveRICoventry", "@spider": "gen_rehab", "addr:full": "10 Woodland Drive", "addr:city": "Coventry", "addr:state": "RI", "addr:postcode": "02816", "addr:country": "US", "name": "Genesis Healthcare", "brand": "Genesis Rehab Services", "brand:wikidata": "Q5532813"}, "geometry": {"type": "Point", "coordinates": [-71.594594, 41.67392]}},
{"type": "Feature", "id": "FcOL5uRAvDzhOvfkwRo5cdO4Wo4=", "properties": {"ref": "25 Ridgewood RoadNHBedford", "@spider": "gen_rehab", "addr:full": "25 Ridgewood Road", "addr:city": "Bedford", "addr:state": "NH", "addr:postcode": "03110", "addr:country": "US", "name": "Genesis Healthcare", "brand": "Genesis Rehab Services", "brand:wikidata": "Q5532813"}, "geometry": {"type": "Point", "coordinates": [-71.481166, 42.960096]}},
{"type": "Feature", "id": "BkWPc-Q0z82r2Ew5GBS_UsIR8X4=", "properties": {"ref": "330 Franklin TurnpikeNJRidgewood", "@spider": "gen_rehab", "addr:full": "330 Franklin Turnpike", "addr:city": "Ridgewood", "addr:state": "NJ", "addr:postcode": "07450", "addr:country": "US", "name": "Genesis Healthcare", "brand": "Genesis Rehab Services", "brand:wikidata": "Q5532813"}, "geometry": {"type": "Point", "coordinates": [-74.103159, 40.99415]}},
{"type": "Feature", "id": "0Q0_Q2C26Lfate_O5HE8srujoOA=", "properties": {"ref": "4210 Sabana Grande SENMRio Rancho", "@spider": "gen_rehab", "addr:full": "4210 Sabana Grande SE", "addr:city": "Rio Rancho", "addr:state": "NM", "addr:postcode": "87124-1152", "addr:country": "US", "name": "Genesis Healthcare", "brand": "Genesis Rehab Services", "brand:wikidata": "Q5532813"}, "geometry": {"type": "Point", "coordinates": [-106.651415, 35.243013]}},
{"type": "Feature", "id": "_QUpsCRvYOu8MpnVMFaJLKSJfSQ=", "properties": {"ref": "1350 14th Avenue SEALDecatur", "@spider": "gen_rehab", "addr:full": "1350 14th Avenue SE", "addr:city": "Decatur", "addr:state": "AL", "addr:postcode": "35601-4364", "addr:country": "US", "name": "Genesis Healthcare", "brand": "Genesis Rehab Services", "brand:wikidata": "Q5532813"}, "geometry": {"type": "Point", "coordinates": [-86.970321, 34.58646]}},
{"type": "Feature", "id": "jtoJg9AYDKvATq5J0PsGAbYC834=", "properties": {"ref": "3 Brazier LaneMEKennebunk", "@spider": "gen_rehab", "addr:full": "3 Brazier Lane", "addr:city": "Kennebunk", "addr:state": "ME", "addr:postcode": "04043", "addr:country": "US", "name": "Genesis Healthcare", "brand": "Genesis Rehab Services", "brand:wikidata": "Q5532813"}, "geometry": {"type": "Point", "coordinates": [-70.55221, 43.388835]}},
{"type": "Feature", "id": "cQIdDDqVoSMI2JjbwqaUt_mkFOM=", "properties": {"ref": "40 Whitehall RoadNHRochester", "@spider": "gen_rehab", "addr:full": "40 Whitehall Road", "addr:city": "Rochester", "addr:state": "NH", "addr:postcode": "03867", "addr:country": "US", "name": "Genesis Healthcare", "brand": "Genesis Rehab Services", "brand:wikidata": "Q5532813"}, "geometry": {"type": "Point", "coordinates": [-70.9577812, 43.2988933]}},
{"type": "Feature", "id": "jDpvU4YzKLP2KqnUdr8f6uGREmQ=", "properties": {"ref": "8 Rose StreetWVGrafton", "@spider": "gen_rehab", "addr:full": "8 Rose Street", "addr:city": "Grafton", "addr:state": "WV", "addr:postcode": "26354", "addr:country": "US", "name": "Genesis Healthcare", "brand": "Genesis Rehab Services", "brand:wikidata": "Q5532813"}, "geometry": {"type": "Point", "coordinates": [-80.034996, 39.336286]}},
{"type": "Feature", "id": "mm929NPjWBLb4ixNJcF1i7fPeyY=", "properties": {"ref": "46 Nichols StreetVTRutland", "@spider": "gen_rehab", "addr:full": "46 Nichols Street", "addr:city": "Rutland", "addr:state": "VT", "addr:postcode": "05701", "addr:country": "US", "name": "Genesis Healthcare", "brand": "Genesis Rehab Services", "brand:wikidata": "Q5532813"}, "geometry": {"type": "Point", "coordinates": [-72.974525, 43.611019]}},
{"type": "Feature", "id": "M6sD2-2qVzZ_cVQJ8ZY8Lq4PHRE=", "properties": {"ref": "596 Sheldon RoadVTSt. Albans", "@spider": "gen_rehab", "addr:full": "596 Sheldon Road", "addr:city": "St. Albans", "addr:state": "VT", "addr:postcode": "05478", "addr:country": "US", "name": "Genesis Healthcare", "brand": "Genesis Rehab Services", "brand:wikidata": "Q5532813"}, "geometry": {"type": "Point", "coordinates": [-73.070709, 44.826387]}},
{"type": "Feature", "id": "Tb8Qd9cwikI-QpQEt4zLQQtXQdg=", "properties": {"ref": "33 Lincoln AvenueCTDanbury", "@spider": "gen_rehab", "addr:full": "33 Lincoln Avenue", "addr:city": "Danbury", "addr:state": "CT", "addr:postcode": "06810-7963", "addr:country": "US", "name": "Genesis Healthcare", "brand": "Genesis Rehab Services", "brand:wikidata": "Q5532813"}, "geometry": {"type": "Point", "coordinates": [-73.453256, 41.385731]}},
{"type": "Feature", "id": "oY-dUtVWwTSqOv_LHeZV2CF6hJg=", "properties": {"ref": "255 Sunbridge DriveWVSalem", "@spider": "gen_rehab", "addr:full": "255 Sunbridge Drive", "addr:city": "Salem", "addr:state": "WV", "addr:postcode": "26426-8400", "addr:country": "US", "name": "Genesis Healthcare", "brand": "Genesis Rehab Services", "brand:wikidata": "Q5532813"}, "geometry": {"type": "Point", "coordinates": [-80.56053, 39.288915]}},
{"type": "Feature", "id": "_cofxR6R99MRdsA2SlTB24n3l6M=", "properties": {"ref": "200 Civic AvenueMDSalisbury", "@spider": "gen_rehab", "addr:full": "200 Civic Avenue", "addr:city": "Salisbury", "addr:state": "MD", "addr:postcode": "21804", "addr:country": "US", "name": "Genesis Healthcare", "brand": "Genesis Rehab Services", "brand:wikidata": "Q5532813"}, "geometry": {"type": "Point", "coordinates": [-75.573145, 38.36993]}},
{"type": "Feature", "id": "veG7MQ2hWCBWj8KrJJP5HWzATXk=", "properties": {"ref": "806 W. MapleNMFarmington", "@spider": "gen_rehab", "addr:full": "806 W. Maple", "addr:city": "Farmington", "addr:state": "NM", "addr:postcode": "87401-5631", "addr:country": "US", "name": "Genesis Healthcare", "brand": "Genesis Rehab Services", "brand:wikidata": "Q5532813"}, "geometry": {"type": "Point", "coordinates": [-108.216989, 36.725339]}},
{"type": "Feature", "id": "QUFtE_1YfehaMZ290Bu_9TyXGQw=", "properties": {"ref": "225 Evergreen RoadPAPottstown", "@spider": "gen_rehab", "addr:full": "225 Evergreen Road", "addr:city": "Pottstown", "addr:state": "PA", "addr:postcode": "19464", "addr:country": "US", "name": "Genesis Healthcare", "brand": "Genesis Rehab Services", "brand:wikidata": "Q5532813"}, "geometry": {"type": "Point", "coordinates": [-75.58047, 40.237281]}},
{"type": "Feature", "id": "lI7UXWeTLlG24UGeXivP2qE3zic=", "properties": {"ref": "227 Evergreen RoadPAPottstown", "@spider": "gen_rehab", "addr:full": "227 Evergreen Road", "addr:city": "Pottstown", "addr:state": "PA", "addr:postcode": "19464", "addr:country": "US", "name": "Genesis Healthcare", "brand": "Genesis Rehab Services", "brand:wikidata": "Q5532813"}, "geometry": {"type": "Point", "coordinates": [-75.580583, 40.23724]}},
{"type": "Feature", "id": "DEp5d65JVXqq7z251dl0h319q4o=", "properties": {"ref": "2216 Lester Drive NENMAlbuquerque", "@spider": "gen_rehab", "addr:full": "2216 Lester Drive NE", "addr:city": "Albuquerque", "addr:state": "NM", "addr:postcode": "87112", "addr:country": "US", "name": "Genesis Healthcare", "brand": "Genesis Rehab Services", "brand:wikidata": "Q5532813"}, "geometry": {"type": "Point", "coordinates": [-106.546553, 35.108149]}},
{"type": "Feature", "id": "hzbWmNZOK2M9qMcjX3GO7pS2Yt4=", "properties": {"ref": "119 Livermore Falls RoadMEFarmington", "@spider": "gen_rehab", "addr:full": "119 Livermore Falls Road", "addr:city": "Farmington", "addr:state": "ME", "addr:postcode": "04938", "addr:country": "US", "name": "Genesis Healthcare", "brand": "Genesis Rehab Services", "brand:wikidata": "Q5532813"}, "geometry": {"type": "Point", "coordinates": [-70.160051, 44.620475]}},
{"type": "Feature", "id": "GoSygo6BOczWZILowHazeeyuuwo=", "properties": {"ref": "1100 Norman Eskridge Hwy.DESeaford", "@spider": "gen_rehab", "addr:full": "1100 Norman Eskridge Hwy.", "addr:city": "Seaford", "addr:state": "DE", "addr:postcode": "19973", "addr:country": "US", "name": "Genesis Healthcare", "brand": "Genesis Rehab Services", "brand:wikidata": "Q5532813"}, "geometry": {"type": "Point", "coordinates": [-75.597484, 38.652522]}},
{"type": "Feature", "id": "jeg_pEDbbG5vEc4JXVIxnD14HEk=", "properties": {"ref": "22 Northbrook DriveMEFalmouth", "@spider": "gen_rehab", "addr:full": "22 Northbrook Drive", "addr:city": "Falmouth", "addr:state": "ME", "addr:postcode": "04105", "addr:country": "US", "name": "Genesis Healthcare", "brand": "Genesis Rehab Services", "brand:wikidata": "Q5532813"}, "geometry": {"type": "Point", "coordinates": [-70.220385, 43.735959]}},
{"type": "Feature", "id": "llaKo7MSZyOaefIXraRaI8vkLrs=", "properties": {"ref": "50 Mulberry Tree StreetWVCharles Town", "@spider": "gen_rehab", "addr:full": "50 Mulberry Tree Street", "addr:city": "Charles Town", "addr:state": "WV", "addr:postcode": "25414", "addr:country": "US", "name": "Genesis Healthcare", "brand": "Genesis Rehab Services", "brand:wikidata": "Q5532813"}, "geometry": {"type": "Point", "coordinates": [-77.845928, 39.293591]}},
{"type": "Feature", "id": "8-7XjJLiqst0x-tEBc2VlM_4Cp0=", "properties": {"ref": "900 West Dolphin StNCSiler City", "@spider": "gen_rehab", "addr:full": "900 West Dolphin St", "addr:city": "Siler City", "addr:state": "NC", "addr:postcode": "27344-3711", "addr:country": "US", "name": "Genesis Healthcare", "brand": "Genesis Rehab Services", "brand:wikidata": "Q5532813"}, "geometry": {"type": "Point", "coordinates": [-79.474142, 35.717611]}},
{"type": "Feature", "id": "7NVMu2WqD3l1o8SAQ9pbklO7bss=", "properties": {"ref": "3514 Fowler AvenueNMSilver City", "@spider": "gen_rehab", "addr:full": "3514 Fowler Avenue", "addr:city": "Silver City", "addr:state": "NM", "addr:postcode": "88061", "addr:country": "US", "name": "Genesis Healthcare", "brand": "Genesis Rehab Services", "brand:wikidata": "Q5532813"}, "geometry": {"type": "Point", "coordinates": [-108.2634177, 32.7988727]}},
{"type": "Feature", "id": "r2GzIadQ_qPFqXv0sne9bGnQWEM=", "properties": {"ref": "201 Wood StreetWVSistersville", "@spider": "gen_rehab", "addr:full": "201 Wood Street", "addr:city": "Sistersville", "addr:state": "WV", "addr:postcode": "26175", "addr:country": "US", "name": "Genesis Healthcare", "brand": "Genesis Rehab Services", "brand:wikidata": "Q5532813"}, "geometry": {"type": "Point", "coordinates": [-80.988945, 39.567344]}},
{"type": "Feature", "id": "8F67nvSosqY8z8nefn2afoCi4sE=", "properties": {"ref": "9150 McMahon NWNMAlbuquerque", "@spider": "gen_rehab", "addr:full": "9150 McMahon NW", "addr:city": "Albuquerque", "addr:state": "NM", "addr:postcode": "87114", "addr:country": "US", "name": "Genesis Healthcare", "brand": "Genesis Rehab Services", "brand:wikidata": "Q5532813"}, "geometry": {"type": "Point", "coordinates": [-106.689489, 35.209828]}},
{"type": "Feature", "id": "FBd79qSxUzAxqnxuikwEvD-LU7c=", "properties": {"ref": "1361 Route 72 WestNJManahawkin", "@spider": "gen_rehab", "addr:full": "1361 Route 72 West", "addr:city": "Manahawkin", "addr:state": "NJ", "addr:postcode": "08050", "addr:country": "US", "name": "Genesis Healthcare", "brand": "Genesis Rehab Services", "brand:wikidata": "Q5532813"}, "geometry": {"type": "Point", "coordinates": [-74.290244, 39.72549]}},
{"type": "Feature", "id": "5L-PhWLNj9VzC-PS2cOx91JVso0=", "properties": {"ref": "300 Spring StreetMEWestbrook", "@spider": "gen_rehab", "addr:full": "300 Spring Street", "addr:city": "Westbrook", "addr:state": "ME", "addr:postcode": "04092", "addr:country": "US", "name": "Genesis Healthcare", "brand": "Genesis Rehab Services", "brand:wikidata": "Q5532813"}, "geometry": {"type": "Point", "coordinates": [-70.35881, 43.666415]}},
{"type": "Feature", "id": "lOwf4BSWboU1F1dN8HN57hcTzmE=", "properties": {"ref": "105 Chester RoadVTSpringfield", "@spider": "gen_rehab", "addr:full": "105 Chester Road", "addr:city": "Springfield", "addr:state": "VT", "addr:postcode": "05156", "addr:country": "US", "name": "Genesis Healthcare", "brand": "Genesis Rehab Services", "brand:wikidata": "Q5532813"}, "geometry": {"type": "Point", "coordinates": [-72.50629, 43.30191]}},
{"type": "Feature", "id": "EGOvHOqJPQv33UArVnXenoXNlTs=", "properties": {"ref": "6448 Main StreetCTTrumbull", "@spider": "gen_rehab", "addr:full": "6448 Main Street", "addr:city": "Trumbull", "addr:state": "CT", "addr:postcode": "06611-2075", "addr:country": "US", "name": "Genesis Healthcare", "brand": "Genesis Rehab Services", "brand:wikidata": "Q5532813"}, "geometry": {"type": "Point", "coordinates": [-73.226897, 41.275291]}},
{"type": "Feature", "id": "BwHJd5Py7ei9UqUnwnimom9fSAc=", "properties": {"ref": "1400 West 21st StreetNMClovis", "@spider": "gen_rehab", "addr:full": "1400 West 21st Street", "addr:city": "Clovis", "addr:state": "NM", "addr:postcode": "88101", "addr:country": "US", "name": "Genesis Healthcare", "brand": "Genesis Rehab Services", "brand:wikidata": "Q5532813"}, "geometry": {"type": "Point", "coordinates": [-103.222334, 34.419946]}},
{"type": "Feature", "id": "7lNyBGH5FuMkucciakVUsNC2qFM=", "properties": {"ref": "1248 Hospital DriveVTSt. Johnsbury", "@spider": "gen_rehab", "addr:full": "1248 Hospital Drive", "addr:city": "St. Johnsbury", "addr:state": "VT", "addr:postcode": "05819", "addr:country": "US", "name": "Genesis Healthcare", "brand": "Genesis Rehab Services", "brand:wikidata": "Q5532813"}, "geometry": {"type": "Point", "coordinates": [-72.01175, 44.44469]}},
{"type": "Feature", "id": "ZSajY0K44DbgB31ULI61L31I1pI=", "properties": {"ref": "9940 West Union Hills DrAZSun City", "@spider": "gen_rehab", "addr:full": "9940 West Union Hills Dr", "addr:city": "Sun City", "addr:state": "AZ", "addr:postcode": "85373", "addr:country": "US", "name": "Genesis Healthcare", "brand": "Genesis Rehab Services", "brand:wikidata": "Q5532813"}, "geometry": {"type": "Point", "coordinates": [-112.2827369, 33.6531798]}},
{"type": "Feature", "id": "ITommTDYJlrHErZv3ryZg2tlgIg=", "properties": {"ref": "1801 Turnpike StreetMANorth Andover", "@spider": "gen_rehab", "addr:full": "1801 Turnpike Street", "addr:city": "North Andover", "addr:state": "MA", "addr:postcode": "01845", "addr:country": "US", "name": "Genesis Healthcare", "brand": "Genesis Rehab Services", "brand:wikidata": "Q5532813"}, "geometry": {"type": "Point", "coordinates": [-71.076541, 42.636082]}},
{"type": "Feature", "id": "2-eYe1TrCIgeRpsk3x7CrW3_80Y=", "properties": {"ref": "1390 N Poplar Fork RoadWVHurricane", "@spider": "gen_rehab", "addr:full": "1390 N Poplar Fork Road", "addr:city": "Hurricane", "addr:state": "WV", "addr:postcode": "25526", "addr:country": "US", "name": "Genesis Healthcare", "brand": "Genesis Rehab Services", "brand:wikidata": "Q5532813"}, "geometry": {"type": "Point", "coordinates": [-81.950932, 38.459886]}},
{"type": "Feature", "id": "iHCKClzmEznmFXvOlzoIYcdKMtQ=", "properties": {"ref": "2507 Chestnut StreetPAChester", "@spider": "gen_rehab", "addr:full": "2507 Chestnut Street", "addr:city": "Chester", "addr:state": "PA", "addr:postcode": "19013", "addr:country": "US", "name": "Genesis Healthcare", "brand": "Genesis Rehab Services", "brand:wikidata": "Q5532813"}, "geometry": {"type": "Point", "coordinates": [-75.363943, 39.870407]}},
{"type": "Feature", "id": "Ypy1TD2Z3IHfUnphgwN_UoYoR5k=", "properties": {"ref": "71 Elm StreetNHMilford", "@spider": "gen_rehab", "addr:full": "71 Elm Street", "addr:city": "Milford", "addr:state": "NH", "addr:postcode": "03055-4810", "addr:country": "US", "name": "Genesis Healthcare", "brand": "Genesis Rehab Services", "brand:wikidata": "Q5532813"}, "geometry": {"type": "Point", "coordinates": [-71.658988, 42.835918]}},
{"type": "Feature", "id": "cpxpg7WDpj7jq_20BNlquQak2sQ=", "properties": {"ref": "5900 Forest Hills Dr. NENMAlbuquerque", "@spider": "gen_rehab", "addr:full": "5900 Forest Hills Dr. NE", "addr:city": "Albuquerque", "addr:state": "NM", "addr:postcode": "87109", "addr:country": "US", "name": "Genesis Healthcare", "brand": "Genesis Rehab Services", "brand:wikidata": "Q5532813"}, "geometry": {"type": "Point", "coordinates": [-106.584476, 35.156018]}},
{"type": "Feature", "id": "8d9EldyCDZC4Rh_VHrQ-eJ8C_pI=", "properties": {"ref": "1 Emily WayCTWest Hartford", "@spider": "gen_rehab", "addr:full": "1 Emily Way", "addr:city": "West Hartford", "addr:state": "CT", "addr:postcode": "06107-3136", "addr:country": "US", "name": "Genesis Healthcare", "brand": "Genesis Rehab Services", "brand:wikidata": "Q5532813"}, "geometry": {"type": "Point", "coordinates": [-72.775981, 41.74254]}},
{"type": "Feature", "id": "yHcgXDi2aZnSByPP4J39kliLltA=", "properties": {"ref": "2884 N. Roadrunner ParkwayNMLas Cruces", "@spider": "gen_rehab", "addr:full": "2884 N. Roadrunner Parkway", "addr:city": "Las Cruces", "addr:state": "NM", "addr:postcode": "88011-0853", "addr:country": "US", "name": "Genesis Healthcare", "brand": "Genesis Rehab Services", "brand:wikidata": "Q5532813"}, "geometry": {"type": "Point", "coordinates": [-106.753, 32.3562]}},
{"type": "Feature", "id": "OPlfwjxStX5MYZvKfOn2ZjzB9AY=", "properties": {"ref": "2880 N. Roadrunner ParkwayNMLas Cruces", "@spider": "gen_rehab", "addr:full": "2880 N. Roadrunner Parkway", "addr:city": "Las Cruces", "addr:state": "NM", "addr:postcode": "88011-0853", "addr:country": "US", "name": "Genesis Healthcare", "brand": "Genesis Rehab Services", "brand:wikidata": "Q5532813"}, "geometry": {"type": "Point", "coordinates": [-106.754895, 32.355959]}},
{"type": "Feature", "id": "YztKXSmvWO28aPb-rOcjX-IByUw=", "properties": {"ref": "2882 N. Roadrunner ParkwayNMLas Cruces", "@spider": "gen_rehab", "addr:full": "2882 N. Roadrunner Parkway", "addr:city": "Las Cruces", "addr:state": "NM", "addr:postcode": "88011-0853", "addr:country": "US", "name": "Genesis Healthcare", "brand": "Genesis Rehab Services", "brand:wikidata": "Q5532813"}, "geometry": {"type": "Point", "coordinates": [-106.754233, 32.355304]}},
{"type": "Feature", "id": "oQ6NcT8rVfOmK6Esf5u6Nhqewyo=", "properties": {"ref": "225 Amity RoadCTWoodbridge", "@spider": "gen_rehab", "addr:full": "225 Amity Road", "addr:city": "Woodbridge", "addr:state": "CT", "addr:postcode": "06525-2206", "addr:country": "US", "name": "Genesis Healthcare", "brand": "Genesis Rehab Services", "brand:wikidata": "Q5532813"}, "geometry": {"type": "Point", "coordinates": [-72.983238, 41.341943]}},
{"type": "Feature", "id": "YJcqMDeyXKIG7WI-BvQu1ZFqMjg=", "properties": {"ref": "200 Reynolds AveNJParsippany", "@spider": "gen_rehab", "addr:full": "200 Reynolds Ave", "addr:city": "Parsippany", "addr:state": "NJ", "addr:postcode": "07054", "addr:country": "US", "name": "Genesis Healthcare", "brand": "Genesis Rehab Services", "brand:wikidata": "Q5532813"}, "geometry": {"type": "Point", "coordinates": [-74.402207, 40.846114]}},
{"type": "Feature", "id": "_C7RxPY2z0EhbO65ivNPD8cY-wU=", "properties": {"ref": "1539 Country Club RoadWVFairmont", "@spider": "gen_rehab", "addr:full": "1539 Country Club Road", "addr:city": "Fairmont", "addr:state": "WV", "addr:postcode": "26554", "addr:country": "US", "name": "Genesis Healthcare", "brand": "Genesis Rehab Services", "brand:wikidata": "Q5532813"}, "geometry": {"type": "Point", "coordinates": [-80.178507, 39.47314]}},
{"type": "Feature", "id": "ZuWPAPxZwKWRftTPQgDsU1F1MSk=", "properties": {"ref": "7900 Constitution Ave. NENMAlbuquerque", "@spider": "gen_rehab", "addr:full": "7900 Constitution Ave. NE", "addr:city": "Albuquerque", "addr:state": "NM", "addr:postcode": "87110", "addr:country": "US", "name": "Genesis Healthcare", "brand": "Genesis Rehab Services", "brand:wikidata": "Q5532813"}, "geometry": {"type": "Point", "coordinates": [-106.55756, 35.093967]}},
{"type": "Feature", "id": "6IE_U2K_NiMMnehOcxBFd0oIsqg=", "properties": {"ref": "1000 Lincoln DriveWVSouth Charleston", "@spider": "gen_rehab", "addr:full": "1000 Lincoln Drive", "addr:city": "South Charleston", "addr:state": "WV", "addr:postcode": "25309", "addr:country": "US", "name": "Genesis Healthcare", "brand": "Genesis Rehab Services", "brand:wikidata": "Q5532813"}, "geometry": {"type": "Point", "coordinates": [-81.748625, 38.345339]}},
{"type": "Feature", "id": "4kO4F6OPnWB1-9cDfRIP-OgS-pE=", "properties": {"ref": "23 Fair StreetCTBristol", "@spider": "gen_rehab", "addr:full": "23 Fair Street", "addr:city": "Bristol", "addr:state": "CT", "addr:postcode": "06010", "addr:country": "US", "name": "Genesis Healthcare", "brand": "Genesis Rehab Services", "brand:wikidata": "Q5532813"}, "geometry": {"type": "Point", "coordinates": [-72.9044974, 41.6807168]}},
{"type": "Feature", "id": "cqueXAXhfRGr6XBGxB46UlNOe8E=", "properties": {"ref": "1 Bathol StreetMAWakefield", "@spider": "gen_rehab", "addr:full": "1 Bathol Street", "addr:city": "Wakefield", "addr:state": "MA", "addr:postcode": "01880-3655", "addr:country": "US", "name": "Genesis Healthcare", "brand": "Genesis Rehab Services", "brand:wikidata": "Q5532813"}, "geometry": {"type": "Point", "coordinates": [-71.074719, 42.474091]}},
{"type": "Feature", "id": "OyyJcMSH51LeNoRLHLqD7bPeKNs=", "properties": {"ref": "4140 Old Washington RoadMDWaldorf", "@spider": "gen_rehab", "addr:full": "4140 Old Washington Road", "addr:city": "Waldorf", "addr:state": "MD", "addr:postcode": "20602", "addr:country": "US", "name": "Genesis Healthcare", "brand": "Genesis Rehab Services", "brand:wikidata": "Q5532813"}, "geometry": {"type": "Point", "coordinates": [-76.909587, 38.624093]}},
{"type": "Feature", "id": "OFRdVrhfv_kbst3MVTnGm3wTYag=", "properties": {"ref": "642 Metacom AvenueRIWarren", "@spider": "gen_rehab", "addr:full": "642 Metacom Avenue", "addr:city": "Warren", "addr:state": "RI", "addr:postcode": "02885", "addr:country": "US", "name": "Genesis Healthcare", "brand": "Genesis Rehab Services", "brand:wikidata": "Q5532813"}, "geometry": {"type": "Point", "coordinates": [-71.268128, 41.715906]}},
{"type": "Feature", "id": "CJUauBXX_MNMqQ57hWEtVJ8oPrI=", "properties": {"ref": "30 West AvenuePAWayne", "@spider": "gen_rehab", "addr:full": "30 West Avenue", "addr:city": "Wayne", "addr:state": "PA", "addr:postcode": "19087", "addr:country": "US", "name": "Genesis Healthcare", "brand": "Genesis Rehab Services", "brand:wikidata": "Q5532813"}, "geometry": {"type": "Point", "coordinates": [-75.388213, 40.045563]}},
{"type": "Feature", "id": "3mAASUBlQTEggXgTSD_ukkYbjyU=", "properties": {"ref": "60 East Silver StreetMAWestfield", "@spider": "gen_rehab", "addr:full": "60 East Silver Street", "addr:city": "Westfield", "addr:state": "MA", "addr:postcode": "01085-4434", "addr:country": "US", "name": "Genesis Healthcare", "brand": "Genesis Rehab Services", "brand:wikidata": "Q5532813"}, "geometry": {"type": "Point", "coordinates": [-72.739913, 42.114735]}},
{"type": "Feature", "id": "sHa2t_Myh00E-cV-t-TUNkRETmI=", "properties": {"ref": "20 Westwood Medical ParkVABluefield", "@spider": "gen_rehab", "addr:full": "20 Westwood Medical Park", "addr:city": "Bluefield", "addr:state": "VA", "addr:postcode": "24605", "addr:country": "US", "name": "Genesis Healthcare", "brand": "Genesis Rehab Services", "brand:wikidata": "Q5532813"}, "geometry": {"type": "Point", "coordinates": [-81.27062, 37.252811]}},
{"type": "Feature", "id": "QUVsxj4uYHVuZMyLFWZqzwyOb9E=", "properties": {"ref": "345 Pocahontas TrailWVWhite Sulphur Springs", "@spider": "gen_rehab", "addr:full": "345 Pocahontas Trail", "addr:city": "White Sulphur Springs", "addr:state": "WV", "addr:postcode": "24986", "addr:country": "US", "name": "Genesis Healthcare", "brand": "Genesis Rehab Services", "brand:wikidata": "Q5532813"}, "geometry": {"type": "Point", "coordinates": [-80.298401, 37.796197]}},
{"type": "Feature", "id": "fhNq00Tb1GFkrh0hPTdWGn7REfM=", "properties": {"ref": "215 Richardson WayTNMaynardville", "@spider": "gen_rehab", "addr:full": "215 Richardson Way", "addr:city": "Maynardville", "addr:state": "TN", "addr:postcode": "37807-3803", "addr:country": "US", "name": "Genesis Healthcare", "brand": "Genesis Rehab Services", "brand:wikidata": "Q5532813"}, "geometry": {"type": "Point", "coordinates": [-83.775184, 36.252265]}},
{"type": "Feature", "id": "MQr9ysPwNDSMhEb2Fo06gRLFIHw=", "properties": {"ref": "723 Summers St.WVParkersburg", "@spider": "gen_rehab", "addr:full": "723 Summers St.", "addr:city": "Parkersburg", "addr:state": "WV", "addr:postcode": "26101", "addr:country": "US", "name": "Genesis Healthcare", "brand": "Genesis Rehab Services", "brand:wikidata": "Q5532813"}, "geometry": {"type": "Point", "coordinates": [-81.569087, 39.252868]}},
{"type": "Feature", "id": "j6Z0re-90rwUnkRP2Ynm-NDlgFc=", "properties": {"ref": "105 Mechanic StreetMECamden", "@spider": "gen_rehab", "addr:full": "105 Mechanic Street", "addr:city": "Camden", "addr:state": "ME", "addr:postcode": "04843", "addr:country": "US", "name": "Genesis Healthcare", "brand": "Genesis Rehab Services", "brand:wikidata": "Q5532813"}, "geometry": {"type": "Point", "coordinates": [-69.079734, 44.208828]}},
{"type": "Feature", "id": "L0w-gwfsfOv2cWxYeCCVfWqpLeU=", "properties": {"ref": "39 Clipper Dr.NHWolfeboro", "@spider": "gen_rehab", "addr:full": "39 Clipper Dr.", "addr:city": "Wolfeboro", "addr:state": "NH", "addr:postcode": "03894-4222", "addr:country": "US", "name": "Genesis Healthcare", "brand": "Genesis Rehab Services", "brand:wikidata": "Q5532813"}, "geometry": {"type": "Point", "coordinates": [-71.205374, 43.576502]}},
{"type": "Feature", "id": "rQiOTL8pL2ieHiK9IE96tgXZmeI=", "properties": {"ref": "400 Vision DrNCAsheboro", "@spider": "gen_rehab", "addr:full": "400 Vision Dr", "addr:city": "Asheboro", "addr:state": "NC", "addr:postcode": "27203-3855", "addr:country": "US", "name": "Genesis Healthcare", "brand": "Genesis Rehab Services", "brand:wikidata": "Q5532813"}, "geometry": {"type": "Point", "coordinates": [-79.815918, 35.736308]}},
{"type": "Feature", "id": "x8E2IBs8A6QpNhWsBxjn3LDMQME=", "properties": {"ref": "11 Dairy LaneVAFredericksburg", "@spider": "gen_rehab", "addr:full": "11 Dairy Lane", "addr:city": "Fredericksburg", "addr:state": "VA", "addr:postcode": "22405", "addr:country": "US", "name": "Genesis Healthcare", "brand": "Genesis Rehab Services", "brand:wikidata": "Q5532813"}, "geometry": {"type": "Point", "coordinates": [-77.448787, 38.303169]}}]}