{"type":"FeatureCollection","features":[{"type": "Feature", "id": "pNL5TU7Nb0JsimyIKYG-ypj1_JM=", "properties": {"ref": "1013", "@spider": "genghis_grill", "addr:full": "1699 Laguna Drive ", "addr:city": "Rockwall", "addr:state": "TX", "addr:postcode": "75087", "name": "Genghis Grill Rockwall", "phone": "(972) 771-5426", "website": "https://locations.genghisgrill.com/tx/rockwall/genghis-grill-1013.html", "opening_hours": "Mo-Th 11:00-21:00; Fr-Sa 11:00-22:00; Su 11:00-21:00", "brand": "Genghis Grill", "brand:wikidata": "Q29470710"}, "geometry": {"type": "Point", "coordinates": [-96.4756136, 32.896629]}},
{"type": "Feature", "id": "l5aAWliN5Sg5_PofjOpUuK-I684=", "properties": {"ref": "2705", "@spider": "genghis_grill", "addr:full": "11849 West Broad Street ", "addr:city": "Richmond", "addr:state": "VA", "addr:postcode": "23233", "name": "Genghis Grill Short Pump", "phone": "(804) 360-4206", "website": "https://locations.genghisgrill.com/va/richmond/genghis-grill-2705.html", "opening_hours": "Mo-Th 11:00-21:00; Fr-Sa 11:00-22:00; Su 11:00-21:00", "brand": "Genghis Grill", "brand:wikidata": "Q29470710"}, "geometry": {"type": "Point", "coordinates": [-77.623363, 37.653816]}},
{"type": "Feature", "id": "4WsNOtd2wsYOcFP4QkqCVCs_lz8=", "properties": {"ref": "1502", "@spider": "genghis_grill", "addr:full": "191 Damonte Ranch Parkway ", "addr:city": "Reno", "addr:state": "NV", "addr:postcode": "89521", "name": "Genghis Grill Reno", "phone": "(775) 851-2695", "website": "https://locations.genghisgrill.com/nv/reno/genghis-grill-1502.html", "opening_hours": "Mo-Th 11:00-21:30; Fr-Sa 11:00-22:00; Su 11:00-21:00", "brand": "Genghis Grill", "brand:wikidata": "Q29470710"}, "geometry": {"type": "Point", "coordinates": [-119.7546251, 39.4202367]}},
{"type": "Feature", "id": "vQv65FUZ3mKOuDaf7kQ5_gKtwKI=", "properties": {"ref": "1004", "@spider": "genghis_grill", "addr:full": "921 North Central Expressway #101 ", "addr:city": "Plano", "addr:state": "TX", "addr:postcode": "75075", "name": "Genghis Grill Plano", "phone": "(972) 422-4745", "website": "https://locations.genghisgrill.com/tx/plano/genghis-grill-1004.html", "opening_hours": "Mo-Th 11:00-21:00; Fr-Sa 11:00-22:00; Su 11:00-21:00", "brand": "Genghis Grill", "brand:wikidata": "Q29470710"}, "geometry": {"type": "Point", "coordinates": [-96.7095065, 33.0133715]}},
{"type": "Feature", "id": "EsGwL7-4y-jujmeP_PK7WWWjSMQ=", "properties": {"ref": "2206", "@spider": "genghis_grill", "addr:full": "2615 Medical Center Parkway ", "addr:city": "Murfreesboro", "addr:state": "TN", "addr:postcode": "37129", "name": "Genghis Grill Murfreesboro", "phone": "(615) 494-1181", "website": "https://locations.genghisgrill.com/tn/murfreesboro/genghis-grill-2206.html", "opening_hours": "Mo-Th 11:00-21:00; Fr-Sa 11:00-22:00; Su 11:00-21:00", "brand": "Genghis Grill", "brand:wikidata": "Q29470710"}, "geometry": {"type": "Point", "coordinates": [-86.4442476, 35.8588949]}},
{"type": "Feature", "id": "U6gBnnprBBKLyLCu2Hiwa6IDx40=", "properties": {"ref": "1103", "@spider": "genghis_grill", "addr:full": "2370 South Service Road ", "addr:city": "Moore", "addr:state": "OK", "addr:postcode": "73160", "name": "Genghis Grill Moore", "phone": "(405) 793-2695", "website": "https://locations.genghisgrill.com/ok/moore/genghis-grill-1103.html", "opening_hours": "Mo-Th 11:00-21:00; Fr-Sa 11:00-22:00; Su 11:00-21:00", "brand": "Genghis Grill", "brand:wikidata": "Q29470710"}, "geometry": {"type": "Point", "coordinates": [-97.488684, 35.316664]}},
{"type": "Feature", "id": "2BxUtJiHLj-BpQcaRVsR0e_diuo=", "properties": {"ref": "1044", "@spider": "genghis_grill", "addr:full": "4517 North Midkiff Road ", "addr:city": "Midland", "addr:state": "TX", "addr:postcode": "79705", "name": "Genghis Grill Midland", "phone": "(432) 520-5426", "website": "https://locations.genghisgrill.com/tx/midland/genghis-grill-1044.html", "opening_hours": "Mo-Sa 11:00-22:00; Su 11:00-21:00", "brand": "Genghis Grill", "brand:wikidata": "Q29470710"}, "geometry": {"type": "Point", "coordinates": [-102.1293996, 32.0320782]}},
{"type": "Feature", "id": "xdfiIlDWlMbStdYAn1G0XCYDML4=", "properties": {"ref": "1040", "@spider": "genghis_grill", "addr:full": "1765 North Town East Boulevard #109 ", "addr:city": "Mesquite", "addr:state": "TX", "addr:postcode": "75150", "name": "Genghis Grill Mesquite", "phone": "(972) 270-5426", "website": "https://locations.genghisgrill.com/tx/mesquite/genghis-grill-1040.html", "opening_hours": "Mo-Th 11:00-22:00; Fr-Sa 11:00-23:00; Su 11:00-22:00", "brand": "Genghis Grill", "brand:wikidata": "Q29470710"}, "geometry": {"type": "Point", "coordinates": [-96.6263989, 32.8111984]}},
{"type": "Feature", "id": "GZbQxln93VsTgAH4TcFejyJ7toM=", "properties": {"ref": "2207", "@spider": "genghis_grill", "addr:full": "5849 U.S. 72 #117 ", "addr:city": "Memphis", "addr:state": "TN", "addr:postcode": "38119", "name": "Genghis Grill Germantown", "phone": "(901) 308-4040", "website": "https://locations.genghisgrill.com/tn/memphis/genghis-grill-2207.html", "opening_hours": "Mo-Th 11:00-21:00; Fr-Sa 11:00-22:00; Su 11:00-21:00", "brand": "Genghis Grill", "brand:wikidata": "Q29470710"}, "geometry": {"type": "Point", "coordinates": [-89.8661704, 35.1019239]}},
{"type": "Feature", "id": "LsjK_RTc2CH7Ma_EKvc5kKRYmmI=", "properties": {"ref": "2205", "@spider": "genghis_grill", "addr:full": "2362 North Germantown Parkway ", "addr:city": "Cordova", "addr:state": "TN", "addr:postcode": "38016", "name": "Genghis Grill Cordova", "phone": "(901) 584-0412", "website": "https://locations.genghisgrill.com/tn/cordova/genghis-grill-2205.html", "opening_hours": "Mo-Th 11:00-21:00; Fr-Sa 11:00-22:00; Su 11:00-21:00", "brand": "Genghis Grill", "brand:wikidata": "Q29470710"}, "geometry": {"type": "Point", "coordinates": [-89.7914155, 35.1898487]}},
{"type": "Feature", "id": "1m7hbrLLEqaYm6sPIu2ZvI3tw6I=", "properties": {"ref": "1006", "@spider": "genghis_grill", "addr:full": "1920 Eldorado Pkwy #400 ", "addr:city": "McKinney", "addr:state": "TX", "addr:postcode": "75069", "name": "Genghis Grill Mckinney", "phone": "(214) 585-4745", "website": "https://locations.genghisgrill.com/tx/mckinney/genghis-grill-1006.html", "opening_hours": "Mo-Th 11:00-21:00; Fr-Sa 11:00-22:00; Su 11:00-21:00", "brand": "Genghis Grill", "brand:wikidata": "Q29470710"}, "geometry": {"type": "Point", "coordinates": [-96.638581, 33.172209]}},
{"type": "Feature", "id": "KGR-zHsK9gSTRblOXYVWBW4TFtY=", "properties": {"ref": "2603", "@spider": "genghis_grill", "addr:full": "9727 East Independence Boulevard ", "addr:city": "Matthews", "addr:state": "NC", "addr:postcode": "28105", "name": "Genghis Grill Matthews", "phone": "(704) 444-0068", "website": "https://locations.genghisgrill.com/nc/matthews/genghis-grill-2603.html", "opening_hours": "Mo-Th 11:00-21:00; Fr-Sa 11:00-22:00; Su 11:00-21:00", "brand": "Genghis Grill", "brand:wikidata": "Q29470710"}, "geometry": {"type": "Point", "coordinates": [-80.7117827, 35.1338014]}},
{"type": "Feature", "id": "gMhgNehD573NZ3i5nHlddC3gzkU=", "properties": {"ref": "2506", "@spider": "genghis_grill", "addr:full": "5437 Bowman Rd #100 ", "addr:city": "Macon", "addr:state": "GA", "addr:postcode": "31210", "name": "Genghis Grill Macon", "phone": "(478) 238-9926", "website": "https://locations.genghisgrill.com/ga/macon/genghis-grill-2506.html", "opening_hours": "Mo-Su 11:00-21:00", "brand": "Genghis Grill", "brand:wikidata": "Q29470710"}, "geometry": {"type": "Point", "coordinates": [-83.7341499, 32.9245015]}},
{"type": "Feature", "id": "xaf-vnNtUO1zolK4DWhlojj20II=", "properties": {"ref": "2101", "@spider": "genghis_grill", "addr:full": "12318 Chenal Pkwy ", "addr:city": "Little Rock", "addr:state": "AR", "addr:postcode": "72211", "name": "Genghis Grill Little Rock", "phone": "(501) 223-2695", "website": "https://locations.genghisgrill.com/ar/littlerock/genghis-grill-2101.html", "opening_hours": "Mo-Th 11:00-21:00; Fr-Sa 11:00-22:00; Su 11:00-21:00", "brand": "Genghis Grill", "brand:wikidata": "Q29470710"}, "geometry": {"type": "Point", "coordinates": [-92.4125826, 34.7526556]}},
{"type": "Feature", "id": "-p37WiBvWjRZOY5XG3a-8c9a41o=", "properties": {"ref": "2209", "@spider": "genghis_grill", "addr:full": "1231 Vann Drive #16 ", "addr:city": "Jackson", "addr:state": "TN", "addr:postcode": "38305", "name": "Genghis Grill Jackson", "phone": "(731) 736-0166", "website": "https://locations.genghisgrill.com/tn/jackson/genghis-grill-2209.html", "opening_hours": "Mo-Th 11:00-21:00; Fr-Sa 11:00-22:00; Su 11:00-21:00", "brand": "Genghis Grill", "brand:wikidata": "Q29470710"}, "geometry": {"type": "Point", "coordinates": [-88.860342, 35.6640342]}},
{"type": "Feature", "id": "AGvqHm_q2BgAa8n61I--3bshYeE=", "properties": {"ref": "1027", "@spider": "genghis_grill", "addr:full": "9490 Farm to Market 1960 Bypass ", "addr:city": "Humble", "addr:state": "TX", "addr:postcode": "77338", "name": "Genghis Grill Humble", "phone": "(281) 964-4000", "website": "https://locations.genghisgrill.com/tx/humble/genghis-grill-1027.html", "opening_hours": "Mo-Th 11:00-22:00; Fr-Sa 11:00-23:00; Su 11:00-22:00", "brand": "Genghis Grill", "brand:wikidata": "Q29470710"}, "geometry": {"type": "Point", "coordinates": [-95.2817774, 30.0041946]}},
{"type": "Feature", "id": "VRBHq6HmyW2KOPD-WNkfsWIoQUw=", "properties": {"ref": "1903", "@spider": "genghis_grill", "addr:full": "5201 W War Memorial Drive ", "addr:city": "Peoria", "addr:state": "IL", "addr:postcode": "61615", "name": "Genghis Grill Peoria", "phone": "(309) 282-4099", "website": "https://locations.genghisgrill.com/il/peoria/genghis-grill-1903.html", "opening_hours": "Mo-Th 11:00-21:00; Fr-Sa 11:00-22:00; Su 11:00-21:00", "brand": "Genghis Grill", "brand:wikidata": "Q29470710"}, "geometry": {"type": "Point", "coordinates": [-89.6744159, 40.7795082]}},
{"type": "Feature", "id": "XqnGemE0sStN1_X-1YCXZ5BI8tE=", "properties": {"ref": "1056", "@spider": "genghis_grill", "addr:full": "3148 Hwy 161 Suite 420", "addr:city": "Grand Prairie", "addr:state": "TX", "addr:postcode": "75052", "name": "Genghis Grill Grand Prairie", "phone": "(972) 400-4768", "website": "https://locations.genghisgrill.com/tx/grandprairie/genghis-grill-1056.html", "opening_hours": "Mo-Th 11:00-21:00; Fr-Sa 11:00-22:00; Su 11:00-21:00", "brand": "Genghis Grill", "brand:wikidata": "Q29470710"}, "geometry": {"type": "Point", "coordinates": [-97.0249504, 32.6931992]}},
{"type": "Feature", "id": "WVb4yVrsOai7JiFxKm5zU0V-GSA=", "properties": {"ref": "1019", "@spider": "genghis_grill", "addr:full": "8214 Agora Parkway #100 8214 Agora Parkway", "addr:city": "Live Oak", "addr:state": "TX", "addr:postcode": "78154", "name": "Genghis Grill San Antonio Forum", "phone": "(210) 658-5426", "website": "https://locations.genghisgrill.com/tx/liveoak/genghis-grill-1019.html", "opening_hours": "Mo-Th 11:00-21:00; Fr-Sa 11:00-22:00; Su 11:00-21:00", "brand": "Genghis Grill", "brand:wikidata": "Q29470710"}, "geometry": {"type": "Point", "coordinates": [-98.3276702, 29.563067]}},
{"type": "Feature", "id": "oKhGYbX-SLXqDEBSNJLL1l8i-iU=", "properties": {"ref": "1203", "@spider": "genghis_grill", "addr:full": "840 South Telshor Boulevard ", "addr:city": "Las Cruces", "addr:state": "NM", "addr:postcode": "88011", "name": "Genghis Grill Las Cruces", "phone": "(575) 532-1410", "website": "https://locations.genghisgrill.com/nm/lascruces/genghis-grill-1203.html", "opening_hours": "Mo-Th 11:00-22:00; Fr-Sa 11:00-23:00; Su 11:00-22:00", "brand": "Genghis Grill", "brand:wikidata": "Q29470710"}, "geometry": {"type": "Point", "coordinates": [-106.7398198, 32.3074969]}},
{"type": "Feature", "id": "62LghJ0oExkHtg7PFrvXyNG_K5U=", "properties": {"ref": "2801", "@spider": "genghis_grill", "addr:full": "1140 Woodruff Road ", "addr:city": "Greenville", "addr:state": "SC", "addr:postcode": "29607", "name": "Genghis Grill Greenville", "phone": "(864) 990-4560", "website": "https://locations.genghisgrill.com/sc/greenville/genghis-grill-2801.html", "opening_hours": "Mo-Th 11:00-21:00; Fr-Sa 11:00-22:00; Su 11:00-21:00", "brand": "Genghis Grill", "brand:wikidata": "Q29470710"}, "geometry": {"type": "Point", "coordinates": [-82.3010094, 34.8255774]}},
{"type": "Feature", "id": "DXvORvFDXR_Th3HlIitU-PWUoeg=", "properties": {"ref": "1005", "@spider": "genghis_grill", "addr:full": "1101 Melbourne Road Suite 6220", "addr:city": "Hurst", "addr:state": "TX", "addr:postcode": "76053", "name": "Genghis Grill Hurst", "phone": "(817) 284-7999", "website": "https://locations.genghisgrill.com/tx/hurst/genghis-grill-1005.html", "opening_hours": "Mo-Th 11:00-21:00; Fr-Sa 11:00-22:00; Su 11:00-21:00", "brand": "Genghis Grill", "brand:wikidata": "Q29470710"}, "geometry": {"type": "Point", "coordinates": [-97.2002438, 32.8300589]}},
{"type": "Feature", "id": "I_95bzKZd2srarQGXIn8CgiU4Ac=", "properties": {"ref": "2601", "@spider": "genghis_grill", "addr:full": "3298 Silas Creek Parkway ", "addr:city": "Winston-Salem", "addr:state": "NC", "addr:postcode": "27103", "name": "Genghis Grill Winston Salem", "phone": "(336) 774-2154", "website": "https://locations.genghisgrill.com/nc/winston-salem/genghis-grill-2601.html", "opening_hours": "Mo-Th 11:00-21:00; Fr-Sa 11:00-22:00; Su 11:00-21:00", "brand": "Genghis Grill", "brand:wikidata": "Q29470710"}, "geometry": {"type": "Point", "coordinates": [-80.2958467, 36.0714609]}},
{"type": "Feature", "id": "C8oDXY7fxkFI3QUOZaZEW_Dny28=", "properties": {"ref": "1021", "@spider": "genghis_grill", "addr:full": "510 Bay Area Boulevard ", "addr:city": "Webster", "addr:state": "TX", "addr:postcode": "77598", "name": "Genghis Grill Clearlake", "phone": "(281) 332-0970", "website": "https://locations.genghisgrill.com/tx/webster/genghis-grill-1021.html", "opening_hours": "Mo-Th 11:00-22:00; Fr-Sa 11:00-23:00; Su 11:00-22:00", "brand": "Genghis Grill", "brand:wikidata": "Q29470710"}, "geometry": {"type": "Point", "coordinates": [-95.13378, 29.54556]}},
{"type": "Feature", "id": "Obs-BF1ms7P488Ix9hoXTCdt9y0=", "properties": {"ref": "1102", "@spider": "genghis_grill", "addr:full": "10438 South 82nd East Avenue ", "addr:city": "Tulsa", "addr:state": "OK", "addr:postcode": "74133", "name": "Genghis Grill Bixby", "phone": "(918) 358-0050", "website": "https://locations.genghisgrill.com/ok/tulsa/genghis-grill-1102.html", "opening_hours": "Mo-Th 11:00-21:00; Fr-Sa 11:00-22:00; Su 11:00-21:00", "brand": "Genghis Grill", "brand:wikidata": "Q29470710"}, "geometry": {"type": "Point", "coordinates": [-95.8853278, 36.01131]}},
{"type": "Feature", "id": "j_KwBFdy7nBa9y_WNmI6td5N644=", "properties": {"ref": "1020", "@spider": "genghis_grill", "addr:full": "9300 Six Pines Drive #100a ", "addr:city": "The Woodlands", "addr:state": "TX", "addr:postcode": "77380", "name": "Genghis Grill Woodlands", "phone": "(281) 363-4745", "website": "https://locations.genghisgrill.com/tx/thewoodlands/genghis-grill-1020.html", "opening_hours": "Mo-Th 11:00-22:00; Fr-Sa 11:00-23:00; Su 11:00-22:00", "brand": "Genghis Grill", "brand:wikidata": "Q29470710"}, "geometry": {"type": "Point", "coordinates": [-95.4611127, 30.1675088]}},
{"type": "Feature", "id": "VgaJmCJdkNyxcYx-e1yzkcdZRNY=", "properties": {"ref": "1010", "@spider": "genghis_grill", "addr:full": "8603 Texas 151 Access Road #109 ", "addr:city": "San Antonio", "addr:state": "TX", "addr:postcode": "78245", "name": "Genghis Grill San Antonio Sea World", "phone": "(210) 647-5426", "website": "https://locations.genghisgrill.com/tx/sanantonio/genghis-grill-1010.html", "opening_hours": "Mo-Th 11:00-21:00; Fr-Sa 11:00-22:00; Su 11:00-21:00", "brand": "Genghis Grill", "brand:wikidata": "Q29470710"}, "geometry": {"type": "Point", "coordinates": [-98.6562438, 29.4387524]}},
{"type": "Feature", "id": "mjpmoK41eV42ENz8zTxPQcG20uw=", "properties": {"ref": "1009", "@spider": "genghis_grill", "addr:full": "1903 North Loop 1604 East Suite 1106 ", "addr:city": "San Antonio", "addr:state": "TX", "addr:postcode": "78232", "name": "Genghis Grill San Antonio", "phone": "(210) 496-5426", "website": "https://locations.genghisgrill.com/tx/sanantonio/genghis-grill-1009.html", "opening_hours": "Mo-Su 11:00-22:00", "brand": "Genghis Grill", "brand:wikidata": "Q29470710"}, "geometry": {"type": "Point", "coordinates": [-98.462407, 29.60834]}},
{"type": "Feature", "id": "mHbUHH0YmjPALMWm4xD5T3GRQDM=", "properties": {"ref": "1026", "@spider": "genghis_grill", "addr:full": "3879 Southwest Fwy ", "addr:city": "Houston", "addr:state": "TX", "addr:postcode": "77027", "name": "Genghis Grill West U", "phone": "(713) 960-1100", "website": "https://locations.genghisgrill.com/tx/houston/genghis-grill-1026.html", "opening_hours": "Mo-Th 11:00-22:00; Fr-Sa 11:00-23:00; Su 11:00-22:00", "brand": "Genghis Grill", "brand:wikidata": "Q29470710"}, "geometry": {"type": "Point", "coordinates": [-95.4383982, 29.7283226]}},
{"type": "Feature", "id": "cMb-J9BFDg6ynObCUttGs6851vo=", "properties": {"ref": "1022", "@spider": "genghis_grill", "addr:full": "9766 Katy Freeway ", "addr:city": "Houston", "addr:state": "TX", "addr:postcode": "77055", "name": "Genghis Grill Bunker Hill", "phone": "(713) 461-9975", "website": "https://locations.genghisgrill.com/tx/houston/genghis-grill-1022.html", "opening_hours": "Mo-Th 11:00-22:00; Fr-Sa 11:00-23:00; Su 11:00-22:00", "brand": "Genghis Grill", "brand:wikidata": "Q29470710"}, "geometry": {"type": "Point", "coordinates": [-95.5351126, 29.785686]}},
{"type": "Feature", "id": "KsDjZn8Cn93XicYK80FkJ9ZH0e8=", "properties": {"ref": "1503", "@spider": "genghis_grill", "addr:full": "550 North Stephanie Street ", "addr:city": "Henderson", "addr:state": "NV", "addr:postcode": "89014", "name": "Genghis Grill Henderson", "phone": "(702) 625-8289", "website": "https://locations.genghisgrill.com/nv/henderson/genghis-grill-1503.html", "opening_hours": "Mo-Th 11:00-21:00; Fr-Sa 11:00-22:00; Su 11:00-21:00", "brand": "Genghis Grill", "brand:wikidata": "Q29470710"}, "geometry": {"type": "Point", "coordinates": [-115.0456074, 36.0601343]}},
{"type": "Feature", "id": "BlzPPrauHP183D5jasZBKCbXm9w=", "properties": {"ref": "1030", "@spider": "genghis_grill", "addr:full": "201 East Central Texas Expressway ", "addr:city": "Harker Heights", "addr:state": "TX", "addr:postcode": "76548", "name": "Genghis Grill Harker Heights", "phone": "(254) 953-1150", "website": "https://locations.genghisgrill.com/tx/harkerheights/genghis-grill-1030.html", "opening_hours": "Mo-Th 11:00-22:00; Fr-Sa 11:00-23:00; Su 11:00-22:00", "brand": "Genghis Grill", "brand:wikidata": "Q29470710"}, "geometry": {"type": "Point", "coordinates": [-97.6627375, 31.072559]}},
{"type": "Feature", "id": "Of4vH0hT36JttFgTRRNgc3V_b7g=", "properties": {"ref": "1403", "@spider": "genghis_grill", "addr:full": "2474-C Hwy 6 ", "addr:city": "Grand Junction", "addr:state": "CO", "addr:postcode": "81505", "name": "Genghis Grill Grand Junction", "phone": "(970) 241-5020", "website": "https://locations.genghisgrill.com/co/grandjunction/genghis-grill-1403.html", "opening_hours": "Mo-Th 11:00-20:00; Fr-Sa 11:00-21:00; Su 11:00-20:00", "brand": "Genghis Grill", "brand:wikidata": "Q29470710"}, "geometry": {"type": "Point", "coordinates": [-108.5940443, 39.0857612]}},
{"type": "Feature", "id": "MWMjgGNB52nub5qf65dh5VOcTns=", "properties": {"ref": "1015", "@spider": "genghis_grill", "addr:full": "3211 Preston Road ", "addr:city": "Frisco", "addr:state": "TX", "addr:postcode": "75034", "name": "Genghis Grill Frisco", "phone": "(972) 668-5426", "website": "https://locations.genghisgrill.com/tx/frisco/genghis-grill-1015.html", "opening_hours": "Mo-Th 11:00-21:00; Fr-Sa 11:00-22:00; Su 11:00-21:00", "brand": "Genghis Grill", "brand:wikidata": "Q29470710"}, "geometry": {"type": "Point", "coordinates": [-96.8085575, 33.1053864]}},
{"type": "Feature", "id": "d21--T5ZyOl3yW2owEXyBvL9nRU=", "properties": {"ref": "2201", "@spider": "genghis_grill", "addr:full": "600B Frazier Drive #104 ", "addr:city": "Franklin", "addr:state": "TN", "addr:postcode": "37067", "name": "Genghis Grill Franklin", "phone": "(615) 771-0111", "website": "https://locations.genghisgrill.com/tn/franklin/genghis-grill-2201.html", "opening_hours": "Mo-Th 11:00-21:00; Fr-Sa 11:00-22:00; Su 11:00-21:00", "brand": "Genghis Grill", "brand:wikidata": "Q29470710"}, "geometry": {"type": "Point", "coordinates": [-86.8213784, 35.9449624]}},
{"type": "Feature", "id": "Da6XaPAbLkYP2y4VDQU_-8fYRhk=", "properties": {"ref": "1008", "@spider": "genghis_grill", "addr:full": "6600 North Fwy. Suite 144 ", "addr:city": "Fort Worth", "addr:state": "TX", "addr:postcode": "76137", "name": "Genghis Grill Fossil Creek", "phone": "(817) 306-7560", "website": "https://locations.genghisgrill.com/tx/fortworth/genghis-grill-1008.html", "opening_hours": "Mo-Th 11:00-21:00; Fr-Sa 11:00-22:00; Su 11:00-21:00", "brand": "Genghis Grill", "brand:wikidata": "Q29470710"}, "geometry": {"type": "Point", "coordinates": [-97.3130541, 32.8614221]}},
{"type": "Feature", "id": "dKaQbxqIYosqCFO5SbRLjYKC930=", "properties": {"ref": "1011", "@spider": "genghis_grill", "addr:full": "4469 Bryant Irvin Road ", "addr:city": "Fort Worth", "addr:state": "TX", "addr:postcode": "76132", "name": "Genghis Grill Bryant Irvin", "phone": "(817) 737-5800", "website": "https://locations.genghisgrill.com/tx/fortworth/genghis-grill-1011.html", "opening_hours": "Mo-Th 11:00-21:00; Fr-Sa 11:00-22:00; Su 11:00-21:00", "brand": "Genghis Grill", "brand:wikidata": "Q29470710"}, "geometry": {"type": "Point", "coordinates": [-97.41319, 32.685373]}},
{"type": "Feature", "id": "p4eU4qvKHo5wJn-IWA25d1X-YQA=", "properties": {"ref": "1054", "@spider": "genghis_grill", "addr:full": "3530 Northwest Center Drive #150 ", "addr:city": "Fort Worth", "addr:state": "TX", "addr:postcode": "76135", "name": "Genghis Grill Lake Worth", "phone": "(817) 237-2680", "website": "https://locations.genghisgrill.com/tx/fortworth/genghis-grill-1054.html", "opening_hours": "Mo-Th 11:00-21:00; Fr-Sa 11:00-22:00; Su 11:00-21:00", "brand": "Genghis Grill", "brand:wikidata": "Q29470710"}, "geometry": {"type": "Point", "coordinates": [-97.405738, 32.844976]}},
{"type": "Feature", "id": "_yrKGWjGnNEohDNj9xkYc2DcseQ=", "properties": {"ref": "1014", "@spider": "genghis_grill", "addr:full": "150 East Highway 67 #100 ", "addr:city": "Duncanville", "addr:state": "TX", "addr:postcode": "75137", "name": "Genghis Grill Duncanville", "phone": "(972) 296-5426", "website": "https://locations.genghisgrill.com/tx/duncanville/genghis-grill-1014.html", "opening_hours": "Mo-Th 11:00-22:00; Fr-Sa 11:00-23:00; Su 11:00-22:00", "brand": "Genghis Grill", "brand:wikidata": "Q29470710"}, "geometry": {"type": "Point", "coordinates": [-96.9054436, 32.6262825]}},
{"type": "Feature", "id": "HFwwzTpC0h9GK_2fMGoeytBbcDU=", "properties": {"ref": "1003", "@spider": "genghis_grill", "addr:full": "5500 Greenville Avenue Suite 402", "addr:city": "Dallas", "addr:state": "TX", "addr:postcode": "75206", "name": "Genghis Grill Old Town", "phone": "(214) 987-3330", "website": "https://locations.genghisgrill.com/tx/dallas/genghis-grill-1003.html", "opening_hours": "Mo-Th 11:00-22:00; Fr-Sa 11:00-23:00; Su 11:00-22:00", "brand": "Genghis Grill", "brand:wikidata": "Q29470710"}, "geometry": {"type": "Point", "coordinates": [-96.7684718, 32.8535692]}},
{"type": "Feature", "id": "zrNmeoLejQfvx0soyYarpgq2CqQ=", "properties": {"ref": "2602", "@spider": "genghis_grill", "addr:full": "11324 North Community House Road #10 ", "addr:city": "Charlotte", "addr:state": "NC", "addr:postcode": "28277", "name": "Genghis Grill Charlotte Ballantyne", "phone": "(980) 236-1427", "website": "https://locations.genghisgrill.com/nc/charlotte/genghis-grill-2602.html", "opening_hours": "Mo-Th 11:00-21:00; Fr-Sa 11:00-22:00; Su 11:00-21:00", "brand": "Genghis Grill", "brand:wikidata": "Q29470710"}, "geometry": {"type": "Point", "coordinates": [-80.8350541, 35.0553287]}},
{"type": "Feature", "id": "wJRkW1CLo4I5XfOHN9drimrjFl4=", "properties": {"ref": "1405", "@spider": "genghis_grill", "addr:full": "9617 E County Line Rd, STE B ", "addr:city": "Centennial", "addr:state": "CO", "addr:postcode": "80112", "name": "Genghis Grill Park Meadows", "phone": "(303) 792-5426", "website": "https://locations.genghisgrill.com/co/centennial/genghis-grill-1405.html", "opening_hours": "Mo-Th 11:00-21:00; Fr-Sa 11:00-22:00; Su 11:00-21:00", "brand": "Genghis Grill", "brand:wikidata": "Q29470710"}, "geometry": {"type": "Point", "coordinates": [-104.876147, 39.567553]}},
{"type": "Feature", "id": "dHRLidHYv7h4PM2lQmmHmqeLtVU=", "properties": {"ref": "2505", "@spider": "genghis_grill", "addr:full": "250 Robert C. Daniels Junior Parkway ", "addr:city": "Augusta", "addr:state": "GA", "addr:postcode": "30909", "name": "Genghis Grill Augusta", "phone": "(706) 869-3782", "website": "https://locations.genghisgrill.com/ga/augusta/genghis-grill-2505.html", "opening_hours": "Mo-Th 11:00-21:00; Fr-Sa 11:00-22:00; Su 11:00-21:00", "brand": "Genghis Grill", "brand:wikidata": "Q29470710"}, "geometry": {"type": "Point", "coordinates": [-82.079914, 33.487567]}},
{"type": "Feature", "id": "7mQYlkYDv2RUxcouK1-Yw5jbVpg=", "properties": {"ref": "1007", "@spider": "genghis_grill", "addr:full": "4000 5 Points Boulevard #189 ", "addr:city": "Arlington", "addr:state": "TX", "addr:postcode": "76018", "name": "Genghis Grill Arlington", "phone": "(817) 465-7847", "website": "https://locations.genghisgrill.com/tx/arlington/genghis-grill-1007.html", "opening_hours": "Mo-Th 11:00-22:00; Fr-Sa 11:00-23:00; Su 11:00-22:00", "brand": "Genghis Grill", "brand:wikidata": "Q29470710"}, "geometry": {"type": "Point", "coordinates": [-97.1072751, 32.6799386]}},
{"type": "Feature", "id": "FSWzXk5znJCta46Jn--9Q0u5Vo0=", "properties": {"ref": "2701", "@spider": "genghis_grill", "addr:full": "7001 Manchester Boulevard ", "addr:city": "Alexandria", "addr:state": "VA", "addr:postcode": "22310", "name": "Genghis Grill Alexandria Kingstowne DC", "phone": "(703) 313-4781", "website": "https://locations.genghisgrill.com/va/alexandria/genghis-grill-2701.html", "opening_hours": "Mo-Th 11:00-20:00; Fr-Sa 11:00-21:00; Su 11:00-20:00", "brand": "Genghis Grill", "brand:wikidata": "Q29470710"}, "geometry": {"type": "Point", "coordinates": [-77.154425, 38.766647]}},
{"type": "Feature", "id": "n8QLQTbnJOIl00vV3BzEOgFzerQ=", "properties": {"ref": "1201", "@spider": "genghis_grill", "addr:full": "4410 The 25 Way NE ", "addr:city": "Albuquerque", "addr:state": "NM", "addr:postcode": "87109", "name": "Genghis Grill Albuquerque", "phone": "(505) 344-9335", "website": "https://locations.genghisgrill.com/nm/albuquerque/genghis-grill-1201.html", "opening_hours": "Mo-Su 11:00-21:00", "brand": "Genghis Grill", "brand:wikidata": "Q29470710"}, "geometry": {"type": "Point", "coordinates": [-106.5931672, 35.1441203]}},
{"type": "Feature", "id": "WTlCh_pRgUk6QolsrpmtzBFErbE=", "properties": {"ref": "1001", "@spider": "genghis_grill", "addr:full": "4201 Belt Line Road ", "addr:city": "Addison", "addr:state": "TX", "addr:postcode": "75001", "name": "Genghis Grill Addison", "phone": "(972) 503-5426", "website": "https://locations.genghisgrill.com/tx/addison/genghis-grill-1001.html", "opening_hours": "Mo-Th 11:00-21:00; Fr-Sa 11:00-22:00; Su 11:00-21:00", "brand": "Genghis Grill", "brand:wikidata": "Q29470710"}, "geometry": {"type": "Point", "coordinates": [-96.8384382, 32.9549324]}},
{"type": "Feature", "id": "o0i0A60cxMIG_W1JXl7CPz5eb7c=", "properties": {"ref": "1301", "@spider": "genghis_grill", "addr:full": "2000 East Rio Salado Parkway, Suite 1151 ", "addr:city": "Tempe", "addr:state": "AZ", "addr:postcode": "85281", "name": "Genghis Grill Tempe", "phone": "(480) 777-2695", "website": "https://locations.genghisgrill.com/az/tempe/genghis-grill-1301.html", "opening_hours": "Mo-Su 11:00-22:00", "brand": "Genghis Grill", "brand:wikidata": "Q29470710"}, "geometry": {"type": "Point", "coordinates": [-111.9023035, 33.4324571]}}]}