{"type":"FeatureCollection","features":[{"type": "Feature", "id": "eeb2WCR0C7tD9NwlLfPoSZjovPw=", "properties": {"ref": "0758", "@spider": "giantfood", "official_name": "Giant Food", "shop": "supermarket", "addr:full": "1454 Chain Bridge Rd", "addr:city": "McLean", "addr:state": "VA", "addr:postcode": "22101", "addr:country": "US", "name": "Giant Food Chain Bridge Corner", "phone": "(703) 893-0377", "website": "https://stores.giantfood.com/va/mclean/1454-chain-bridge-rd", "opening_hours": "Mo-Sa 06:00-24:00; Su 06:00-23:00", "brand": "Giant Food", "brand:wikidata": "Q5558336", "nsi_id": "giant-fc203b"}, "geometry": {"type": "Point", "coordinates": [-77.1801518, 38.9327885]}},
{"type": "Feature", "id": "8oB4C9GUN3NBd-PMRzxA3TuE21U=", "properties": {"ref": "0798", "@spider": "giantfood", "official_name": "Giant Food", "shop": "supermarket", "addr:full": "8941 Ox Rd", "addr:city": "Lorton", "addr:state": "VA", "addr:postcode": "22079", "addr:country": "US", "name": "Giant Food Shoppes At Lorton Valley", "phone": "(703) 690-5000", "website": "https://stores.giantfood.com/va/lorton/8941-ox-rd", "opening_hours": "Mo-Sa 06:00-24:00; Su 06:00-23:00", "brand": "Giant Food", "brand:wikidata": "Q5558336", "nsi_id": "giant-fc203b"}, "geometry": {"type": "Point", "coordinates": [-77.2623737, 38.7155309]}},
{"type": "Feature", "id": "jILVBqywSyUNpXf5fpF5_CkH6Go=", "properties": {"ref": "0781", "@spider": "giantfood", "official_name": "Giant Food", "shop": "supermarket", "addr:full": "12445 Hedges Run Dr", "addr:city": "Lake Ridge", "addr:state": "VA", "addr:postcode": "22192", "addr:country": "US", "name": "Giant Food Lake Ridge Commons", "phone": "(703) 491-7615", "website": "https://stores.giantfood.com/va/lake-ridge/12445-hedges-run-dr", "opening_hours": "Mo-Sa 06:00-24:00; Su 06:00-23:00", "brand": "Giant Food", "brand:wikidata": "Q5558336", "nsi_id": "giant-fc203b"}, "geometry": {"type": "Point", "coordinates": [-77.31124699115753, 38.68604993296842]}},
{"type": "Feature", "id": "TpjfuQAwzqZ6ho-0dmIl_2Zzq0o=", "properties": {"ref": "0790", "@spider": "giantfood", "official_name": "Giant Food", "shop": "supermarket", "addr:full": "5581 Merchants View Square", "addr:city": "Haymarket", "addr:state": "VA", "addr:postcode": "20169", "addr:country": "US", "name": "Giant Food Merchants View Square", "phone": "(571) 248-4550", "website": "https://stores.giantfood.com/va/haymarket/5581-merchants-view-square", "opening_hours": "Mo-Sa 06:00-24:00; Su 06:00-23:00", "brand": "Giant Food", "brand:wikidata": "Q5558336", "nsi_id": "giant-fc203b"}, "geometry": {"type": "Point", "coordinates": [-77.638447, 38.8449135]}},
{"type": "Feature", "id": "Tcdzj2KuE8KrS5jOc_xGWorhDoc=", "properties": {"ref": "0257", "@spider": "giantfood", "official_name": "Giant Food", "shop": "supermarket", "addr:full": "7575 Linton Hall Road", "addr:city": "Gainesville", "addr:state": "VA", "addr:postcode": "20155", "addr:country": "US", "name": "Giant Food Virginia Gateway", "phone": "(703) 754-2040", "website": "https://stores.giantfood.com/va/gainesville/7575-linton-hall-road", "opening_hours": "Mo-Sa 06:00-24:00; Su 06:00-23:00", "brand": "Giant Food", "brand:wikidata": "Q5558336", "nsi_id": "giant-fc203b"}, "geometry": {"type": "Point", "coordinates": [-77.60828018188477, 38.79301998273739]}},
{"type": "Feature", "id": "jfw9ZJfmXIRTT52oyX7Z7wazWa0=", "properties": {"ref": "0789", "@spider": "giantfood", "official_name": "Giant Food", "shop": "supermarket", "addr:full": "35 Town And Country Rd", "addr:city": "Falmouth", "addr:state": "VA", "addr:postcode": "22405", "addr:country": "US", "name": "Giant Food Falmouth", "phone": "(540) 899-1060", "website": "https://stores.giantfood.com/va/falmouth/35-town-and-country-rd", "opening_hours": "Mo-Sa 06:00-24:00; Su 06:00-23:00", "brand": "Giant Food", "brand:wikidata": "Q5558336", "nsi_id": "giant-fc203b"}, "geometry": {"type": "Point", "coordinates": [-77.42791771888727, 38.30894009139481]}},
{"type": "Feature", "id": "ffwvpkXy__238N7JAuWur8FFFMk=", "properties": {"ref": "0778", "@spider": "giantfood", "official_name": "Giant Food", "shop": "supermarket", "addr:full": "41 West Lee Hwy", "addr:city": "Warrenton", "addr:state": "VA", "addr:postcode": "20186", "addr:country": "US", "name": "Giant Food Oaksprings Plaza", "phone": "(540) 347-7464", "website": "https://stores.giantfood.com/va/warrenton/41-west-lee-hwy", "opening_hours": "Mo-Sa 06:00-24:00; Su 06:00-23:00", "brand": "Giant Food", "brand:wikidata": "Q5558336", "nsi_id": "giant-fc203b"}, "geometry": {"type": "Point", "coordinates": [-77.7916151, 38.7300708]}},
{"type": "Feature", "id": "cJ4wkYbDVkjM-umd7FMexjFNQJQ=", "properties": {"ref": "0336", "@spider": "giantfood", "official_name": "Giant Food", "shop": "supermarket", "addr:full": "2900 University Boulevard West", "addr:city": "Wheaton", "addr:state": "MD", "addr:postcode": "20902", "addr:country": "US", "name": "Giant Food Westfield Shoppingtown Wheaton", "phone": "(301) 692-4180", "website": "https://stores.giantfood.com/md/wheaton/2900-university-boulevard-west", "opening_hours": "Mo-Su 06:00-22:00", "brand": "Giant Food", "brand:wikidata": "Q5558336", "nsi_id": "giant-fc203b"}, "geometry": {"type": "Point", "coordinates": [-77.0585577, 39.0374789]}},
{"type": "Feature", "id": "cVrmM3dFb_SNVhjkl-92CghsKYg=", "properties": {"ref": "0386", "@spider": "giantfood", "official_name": "Giant Food", "shop": "supermarket", "addr:full": "4301 Concord Pike", "addr:city": "Wilmington", "addr:state": "DE", "addr:postcode": "19803", "addr:country": "US", "name": "Giant Food Concord Square Super G", "phone": "(302) 475-5862", "website": "https://stores.giantfood.com/de/wilmington/4301-concord-pike", "opening_hours": "Mo-Sa 06:00-24:00; Su 06:00-23:00", "brand": "Giant Food", "brand:wikidata": "Q5558336", "nsi_id": "giant-fc203b"}, "geometry": {"type": "Point", "coordinates": [-75.5474666, 39.8137448]}},
{"type": "Feature", "id": "etfa71gowyI89C4e8GCIH_EbrUY=", "properties": {"ref": "0383", "@spider": "giantfood", "official_name": "Giant Food", "shop": "supermarket", "addr:full": "4303 Conn Ave NW", "addr:city": "Washington", "addr:state": "DC", "addr:postcode": "20008", "addr:country": "US", "name": "Giant Food Van Ness", "phone": "(202) 364-8250", "website": "https://stores.giantfood.com/dc/washington/4303-conn-ave-nw", "opening_hours": "Mo-Sa 06:00-24:00; Su 06:00-23:00", "brand": "Giant Food", "brand:wikidata": "Q5558336", "nsi_id": "giant-fc203b"}, "geometry": {"type": "Point", "coordinates": [-77.0632579, 38.9445665]}},
{"type": "Feature", "id": "xv6qY3MD8kFsYRFtbfuAN89lO2g=", "properties": {"ref": "2379", "@spider": "giantfood", "official_name": "Giant Food", "shop": "supermarket", "addr:full": "3336 Wisconsin Ave NW", "addr:city": "Washington", "addr:state": "DC", "addr:postcode": "20016", "addr:country": "US", "name": "Giant Food Washington", "phone": "(202) 237-5820", "website": "https://stores.giantfood.com/dc/washington/3336-wisconsin-ave-nw", "opening_hours": "Mo-Sa 06:00-24:00; Su 06:00-23:00", "brand": "Giant Food", "brand:wikidata": "Q5558336", "nsi_id": "giant-fc203b"}, "geometry": {"type": "Point", "coordinates": [-77.07301172883598, 38.93435622239853]}},
{"type": "Feature", "id": "IFYomd3jk6yDKsugxndteW2dKJk=", "properties": {"ref": "0239", "@spider": "giantfood", "official_name": "Giant Food", "shop": "supermarket", "addr:full": "10864 Sudley Manor Drive", "addr:city": "Manassas", "addr:state": "VA", "addr:postcode": "20109", "addr:country": "US", "name": "Giant Food Manassas", "phone": "(703) 361-2541", "website": "https://stores.giantfood.com/va/manassas/10864-sudley-manor-drive", "opening_hours": "Mo-Sa 06:00-24:00; Su 06:00-23:00", "brand": "Giant Food", "brand:wikidata": "Q5558336", "nsi_id": "giant-fc203b"}, "geometry": {"type": "Point", "coordinates": [-77.5194937, 38.7858892]}},
{"type": "Feature", "id": "A2jehyzOFHT9Z5kNIYJb3CHQiVU=", "properties": {"ref": "0227", "@spider": "giantfood", "official_name": "Giant Food", "shop": "supermarket", "addr:full": "10100 Dumfries Road", "addr:city": "Manassas", "addr:state": "VA", "addr:postcode": "20110", "addr:country": "US", "name": "Giant Food Wellington Station", "phone": "(703) 331-2310", "website": "https://stores.giantfood.com/va/manassas/10100-dumfries-road", "opening_hours": "Mo-Sa 06:00-24:00; Su 06:00-23:00", "brand": "Giant Food", "brand:wikidata": "Q5558336", "nsi_id": "giant-fc203b"}, "geometry": {"type": "Point", "coordinates": [-77.4751647, 38.7377605]}},
{"type": "Feature", "id": "MZV1Srwn11TXvw-jKuagHFo3hRY=", "properties": {"ref": "0250", "@spider": "giantfood", "official_name": "Giant Food", "shop": "supermarket", "addr:full": "635 Potomac Station Dr", "addr:city": "Leesburg", "addr:state": "VA", "addr:postcode": "20176", "addr:country": "US", "name": "Giant Food Potomac Station", "phone": "(571) 258-1900", "website": "https://stores.giantfood.com/va/leesburg/635-potomac-station-dr", "opening_hours": "Mo-Sa 06:00-24:00; Su 06:00-23:00", "brand": "Giant Food", "brand:wikidata": "Q5558336", "nsi_id": "giant-fc203b"}, "geometry": {"type": "Point", "coordinates": [-77.5262126, 39.098062]}},
{"type": "Feature", "id": "sTvYOtAV-C5TriYcv-mVcGD6sn8=", "properties": {"ref": "0799", "@spider": "giantfood", "official_name": "Giant Food", "shop": "supermarket", "addr:full": "61 Catoctin Circle NE", "addr:city": "Leesburg", "addr:state": "VA", "addr:postcode": "20176", "addr:country": "US", "name": "Giant Food Leesburg Plaza", "phone": "(703) 771-1899", "website": "https://stores.giantfood.com/va/leesburg/61-catoctin-circle-ne", "opening_hours": "Mo-Sa 06:00-24:00; Su 06:00-23:00", "brand": "Giant Food", "brand:wikidata": "Q5558336", "nsi_id": "giant-fc203b"}, "geometry": {"type": "Point", "coordinates": [-77.5531128, 39.1114416]}},
{"type": "Feature", "id": "r_nGY7ddNxEHzsCcY3iNng0lbMk=", "properties": {"ref": "0753", "@spider": "giantfood", "official_name": "Giant Food", "shop": "supermarket", "addr:full": "2551 John Milton Dr", "addr:city": "Herndon", "addr:state": "VA", "addr:postcode": "20171", "addr:country": "US", "name": "Giant Food Fox Mill", "phone": "(703) 715-9852", "website": "https://stores.giantfood.com/va/herndon/2551-john-milton-dr", "opening_hours": "Mo-Sa 06:00-24:00; Su 06:00-23:00", "brand": "Giant Food", "brand:wikidata": "Q5558336", "nsi_id": "giant-fc203b"}, "geometry": {"type": "Point", "coordinates": [-77.3749440908432, 38.92681489779921]}},
{"type": "Feature", "id": "xa27RV6ctZK3Yw-3K6zh5WLWHW8=", "properties": {"ref": "2746", "@spider": "giantfood", "official_name": "Giant Food", "shop": "supermarket", "addr:full": "2425 Centreville Road", "addr:city": "Herndon", "addr:state": "VA", "addr:postcode": "20171", "addr:country": "US", "name": "Giant Food Herndon", "phone": "(703) 437-3162", "website": "https://stores.giantfood.com/va/herndon/2425-centreville-road", "opening_hours": "Mo-Sa 06:00-24:00; Su 06:00-23:00", "brand": "Giant Food", "brand:wikidata": "Q5558336", "nsi_id": "giant-fc203b"}, "geometry": {"type": "Point", "coordinates": [-77.4077197, 38.9503043]}},
{"type": "Feature", "id": "pUDVmtSqb9vOGCCxnM6H9Fd80lg=", "properties": {"ref": "0775", "@spider": "giantfood", "official_name": "Giant Food", "shop": "supermarket", "addr:full": "13330 Franklin Farm Rd", "addr:city": "Herndon", "addr:state": "VA", "addr:postcode": "20171", "addr:country": "US", "name": "Giant Food Franklin Farm", "phone": "(703) 689-3564", "website": "https://stores.giantfood.com/va/herndon/13330-franklin-farm-rd", "opening_hours": "Mo-Sa 06:00-24:00; Su 06:00-23:00", "brand": "Giant Food", "brand:wikidata": "Q5558336", "nsi_id": "giant-fc203b"}, "geometry": {"type": "Point", "coordinates": [-77.40652978420263, 38.90874244748181]}},
{"type": "Feature", "id": "ChzI9rrfnF-4bG1OAuVdGSLzuxw=", "properties": {"ref": "0235", "@spider": "giantfood", "official_name": "Giant Food", "shop": "supermarket", "addr:full": "5701 Plank Road", "addr:city": "Fredericksburg", "addr:state": "VA", "addr:postcode": "22407", "addr:country": "US", "name": "Giant Food Fredericksburg", "phone": "(540) 785-1020", "website": "https://stores.giantfood.com/va/fredericksburg/5701-plank-road", "opening_hours": "Mo-Sa 06:00-24:00; Su 06:00-23:00", "brand": "Giant Food", "brand:wikidata": "Q5558336", "nsi_id": "giant-fc203b"}, "geometry": {"type": "Point", "coordinates": [-77.56667107343674, 38.29345224061366]}},
{"type": "Feature", "id": "KQhEY5ZpCZJnd0Hr49xpvyTp3Tk=", "properties": {"ref": "0234", "@spider": "giantfood", "official_name": "Giant Food", "shop": "supermarket", "addr:full": "550 Celebrate Virginia Parkway", "addr:city": "Fredericksburg", "addr:state": "VA", "addr:postcode": "22406", "addr:country": "US", "name": "Giant Food Celebrate Virginia Shopping Center", "phone": "(540) 286-1721", "website": "https://stores.giantfood.com/va/fredericksburg/550-celebrate-virginia-parkway", "opening_hours": "Mo-Sa 06:00-24:00; Su 06:00-23:00", "brand": "Giant Food", "brand:wikidata": "Q5558336", "nsi_id": "giant-fc203b"}, "geometry": {"type": "Point", "coordinates": [-77.5216446, 38.3597309]}},
{"type": "Feature", "id": "U_nV5ptfHPmVC4N_G1fW-qgyYIk=", "properties": {"ref": "0233", "@spider": "giantfood", "official_name": "Giant Food", "shop": "supermarket", "addr:full": "7235 Arlington Blvd", "addr:city": "Falls Church", "addr:state": "VA", "addr:postcode": "22042", "addr:country": "US", "name": "Giant Food Loehmann's Plaza", "phone": "(703) 280-3340", "website": "https://stores.giantfood.com/va/falls-church/7235-arlington-blvd", "opening_hours": "Mo-Sa 06:00-24:00; Su 06:00-23:00", "brand": "Giant Food", "brand:wikidata": "Q5558336", "nsi_id": "giant-fc203b"}, "geometry": {"type": "Point", "coordinates": [-77.19559818506241, 38.864639721054544]}},
{"type": "Feature", "id": "9atC6oOcJ0euTRCZa_THphymK4c=", "properties": {"ref": "2744", "@spider": "giantfood", "official_name": "Giant Food", "shop": "supermarket", "addr:full": "9400 Fairfax Boulevard Fairfax Circle", "addr:city": "Fairfax", "addr:state": "VA", "addr:postcode": "22031", "addr:country": "US", "name": "Giant Food Fairfax", "phone": "(703) 359-2584", "website": "https://stores.giantfood.com/va/fairfax/9400-fairfax-boulevard", "opening_hours": "Mo-Sa 06:00-24:00; Su 06:00-23:00", "brand": "Giant Food", "brand:wikidata": "Q5558336", "nsi_id": "giant-fc203b"}, "geometry": {"type": "Point", "coordinates": [-77.2710839, 38.8652522]}},
{"type": "Feature", "id": "NDjtqsl3BO9zDA0odkQhryQQpGo=", "properties": {"ref": "0741", "@spider": "giantfood", "official_name": "Giant Food", "shop": "supermarket", "addr:full": "5469 Mapledale Plaza", "addr:city": "Dale City", "addr:state": "VA", "addr:postcode": "22193", "addr:country": "US", "name": "Giant Food Mapledale Plaza", "phone": "(703) 590-1200", "website": "https://stores.giantfood.com/va/dale-city/5469-mapledale-plaza", "opening_hours": "Mo-Sa 06:00-24:00; Su 06:00-23:00", "brand": "Giant Food", "brand:wikidata": "Q5558336", "nsi_id": "giant-fc203b"}, "geometry": {"type": "Point", "coordinates": [-77.36702620983124, 38.66204389436017]}},
{"type": "Feature", "id": "GS5lsZhMt14k4GMPRFaViAtuJGQ=", "properties": {"ref": "0754", "@spider": "giantfood", "official_name": "Giant Food", "shop": "supermarket", "addr:full": "4309 Dale Blvd", "addr:city": "Dale City", "addr:state": "VA", "addr:postcode": "22193", "addr:country": "US", "name": "Giant Food Centre Plaza", "phone": "(703) 670-5407", "website": "https://stores.giantfood.com/va/dale-city/4309-dale-blvd", "opening_hours": "Mo-Sa 06:00-24:00; Su 06:00-23:00", "brand": "Giant Food", "brand:wikidata": "Q5558336", "nsi_id": "giant-fc203b"}, "geometry": {"type": "Point", "coordinates": [-77.339426279068, 38.64591948091621]}},
{"type": "Feature", "id": "qq2pwWofxCkSpA4wS-akI3wvNGg=", "properties": {"ref": "0745", "@spider": "giantfood", "official_name": "Giant Food", "shop": "supermarket", "addr:full": "13043 Lee Jackson Mem Hwy", "addr:city": "Fairfax", "addr:state": "VA", "addr:postcode": "22033", "addr:country": "US", "name": "Giant Food Greenbriar", "phone": "(703) 968-8324", "website": "https://stores.giantfood.com/va/fairfax/13043-lee-jackson-mem-hwy", "opening_hours": "Mo-Sa 06:00-24:00; Su 06:00-23:00", "brand": "Giant Food", "brand:wikidata": "Q5558336", "nsi_id": "giant-fc203b"}, "geometry": {"type": "Point", "coordinates": [-77.3989473, 38.8791043]}},
{"type": "Feature", "id": "HIjgnYNs7BdCkZCUhJOajaUhf2Q=", "properties": {"ref": "2741", "@spider": "giantfood", "official_name": "Giant Food", "shop": "supermarket", "addr:full": "10653 Braddock Road", "addr:city": "Fairfax", "addr:state": "VA", "addr:postcode": "22032", "addr:country": "US", "name": "Giant Food Fairfax", "phone": "(703) 259-5514", "website": "https://stores.giantfood.com/va/fairfax/10653-braddock-road", "opening_hours": "Mo-Sa 06:00-24:00; Su 06:00-23:00", "brand": "Giant Food", "brand:wikidata": "Q5558336", "nsi_id": "giant-fc203b"}, "geometry": {"type": "Point", "coordinates": [-77.3153818, 38.8250762]}},
{"type": "Feature", "id": "kqL-wgzRYygpWtCX376eGlC8yeI=", "properties": {"ref": "2748", "@spider": "giantfood", "official_name": "Giant Food", "shop": "supermarket", "addr:full": "6360 Seven Corners Center", "addr:city": "Falls Church", "addr:state": "VA", "addr:postcode": "22044", "addr:country": "US", "name": "Giant Food Falls Church", "phone": "(703) 534-6687", "website": "https://stores.giantfood.com/va/falls-church/6360-seven-corners-center", "opening_hours": "Mo-Sa 06:00-24:00; Su 06:00-23:00", "brand": "Giant Food", "brand:wikidata": "Q5558336", "nsi_id": "giant-fc203b"}, "geometry": {"type": "Point", "coordinates": [-77.1505391, 38.8680932]}},
{"type": "Feature", "id": "4oZmQE0SpO5S6iJ7tGHZXK8tq38=", "properties": {"ref": "0780", "@spider": "giantfood", "official_name": "Giant Food", "shop": "supermarket", "addr:full": "3480 S Jefferson St", "addr:city": "Falls Church", "addr:state": "VA", "addr:postcode": "22041", "addr:country": "US", "name": "Giant Food Bailey's Cross Roads", "phone": "(703) 845-0446", "website": "https://stores.giantfood.com/va/falls-church/3480-s-jefferson-st", "opening_hours": "Mo-Sa 06:00-24:00; Su 06:00-23:00", "brand": "Giant Food", "brand:wikidata": "Q5558336", "nsi_id": "giant-fc203b"}, "geometry": {"type": "Point", "coordinates": [-77.1187648, 38.8496928]}},
{"type": "Feature", "id": "yKFGjLJHeKtFF7nssUGYVgRHAL0=", "properties": {"ref": "0765", "@spider": "giantfood", "official_name": "Giant Food", "shop": "supermarket", "addr:full": "1230 W Broad St", "addr:city": "Falls Church", "addr:state": "VA", "addr:postcode": "22046", "addr:country": "US", "name": "Giant Food Falls Plaza", "phone": "(703) 237-9609", "website": "https://stores.giantfood.com/va/falls-church/1230-w-broad-st", "opening_hours": "Mo-Sa 06:00-24:00; Su 06:00-23:00", "brand": "Giant Food", "brand:wikidata": "Q5558336", "nsi_id": "giant-fc203b"}, "geometry": {"type": "Point", "coordinates": [-77.188856, 38.8949712]}},
{"type": "Feature", "id": "3PS2_OthiNZtAHc9zJQYFeA0RBU=", "properties": {"ref": "0770", "@spider": "giantfood", "official_name": "Giant Food", "shop": "supermarket", "addr:full": "1245 Jefferson Davis Hwy", "addr:city": "Fredericksburg", "addr:state": "VA", "addr:postcode": "22401", "addr:country": "US", "name": "Giant Food Eagle Village", "phone": "(540) 373-2734", "website": "https://stores.giantfood.com/va/fredericksburg/1245-jefferson-davis-hwy", "opening_hours": "Mo-Sa 06:00-24:00; Su 06:00-23:00", "brand": "Giant Food", "brand:wikidata": "Q5558336", "nsi_id": "giant-fc203b"}, "geometry": {"type": "Point", "coordinates": [-77.48183816671371, 38.30674698705127]}},
{"type": "Feature", "id": "E4XwLALilxxajX6LVgL18g5_5Nc=", "properties": {"ref": "2381", "@spider": "giantfood", "official_name": "Giant Food", "shop": "supermarket", "addr:full": "300 H Street NE", "addr:city": "Washington", "addr:state": "DC", "addr:postcode": "20002", "addr:country": "US", "name": "Giant Food Washington", "phone": "(202) 548-5100", "website": "https://stores.giantfood.com/dc/washington/300-h-street-ne", "opening_hours": "Mo-Sa 06:00-24:00; Su 06:00-23:00", "brand": "Giant Food", "brand:wikidata": "Q5558336", "nsi_id": "giant-fc203b"}, "geometry": {"type": "Point", "coordinates": [-77.00169056653982, 38.900420477685955]}},
{"type": "Feature", "id": "t3jwV_GRdmn8L7rIArVdIhP8BDw=", "properties": {"ref": "0384", "@spider": "giantfood", "official_name": "Giant Food", "shop": "supermarket", "addr:full": "1535 Alabama Avenue SE", "addr:city": "Washington", "addr:state": "DC", "addr:postcode": "20032", "addr:country": "US", "name": "Giant Food Washington", "phone": "(202) 610-6464", "website": "https://stores.giantfood.com/dc/washington/1535-alabama-avenue-se", "opening_hours": "Mo-Su 06:00-23:00", "brand": "Giant Food", "brand:wikidata": "Q5558336", "nsi_id": "giant-fc203b"}, "geometry": {"type": "Point", "coordinates": [-76.9812147, 38.8448649]}},
{"type": "Feature", "id": "7eButAJnx6Bz_-uDB1v1mirDnUM=", "properties": {"ref": "2376", "@spider": "giantfood", "official_name": "Giant Food", "shop": "supermarket", "addr:full": "1400 7th Street NW", "addr:city": "Washington", "addr:state": "DC", "addr:postcode": "20001", "addr:country": "US", "name": "Giant Food Washington", "phone": "(202) 238-0180", "website": "https://stores.giantfood.com/dc/washington/1400-7th-street-nw", "opening_hours": "Mo-Sa 06:00-24:00; Su 06:00-23:00", "brand": "Giant Food", "brand:wikidata": "Q5558336", "nsi_id": "giant-fc203b"}, "geometry": {"type": "Point", "coordinates": [-77.022241, 38.909034]}},
{"type": "Feature", "id": "9ArHUfdqki1_vt_Wq76CdiZLtOg=", "properties": {"ref": "0378", "@spider": "giantfood", "official_name": "Giant Food", "shop": "supermarket", "addr:full": "1345 Park Road, NW", "addr:city": "Washington", "addr:state": "DC", "addr:postcode": "20010", "addr:country": "US", "name": "Giant Food Tivoli Square", "phone": "(202) 777-1077", "website": "https://stores.giantfood.com/dc/washington/1345-park-road,-nw", "opening_hours": "Mo-Sa 06:00-24:00; Su 06:00-23:00", "brand": "Giant Food", "brand:wikidata": "Q5558336", "nsi_id": "giant-fc203b"}, "geometry": {"type": "Point", "coordinates": [-77.031962, 38.930805]}},
{"type": "Feature", "id": "3Z2NlxKoqjikYmuASMq2OeIhN90=", "properties": {"ref": "0375", "@spider": "giantfood", "official_name": "Giant Food", "shop": "supermarket", "addr:full": "1050 Brentwood Road", "addr:city": "Washington", "addr:state": "DC", "addr:postcode": "20018", "addr:country": "US", "name": "Giant Food Brentwood", "phone": "(202) 281-3900", "website": "https://stores.giantfood.com/dc/washington/1050-brentwood-road", "opening_hours": "Mo-Sa 06:00-24:00; Su 06:00-23:00", "brand": "Giant Food", "brand:wikidata": "Q5558336", "nsi_id": "giant-fc203b"}, "geometry": {"type": "Point", "coordinates": [-76.9922606, 38.9194422]}},
{"type": "Feature", "id": "oQvhtoLp3eMKFScbXxWhbT9fbuM=", "properties": {"ref": "0387", "@spider": "giantfood", "official_name": "Giant Food", "shop": "supermarket", "addr:full": "19312 Lighthouse Plaza Blvd", "addr:city": "Rehoboth Beach", "addr:state": "DE", "addr:postcode": "19971", "addr:country": "US", "name": "Giant Food Rt 1 & 271", "phone": "(302) 227-5950", "website": "https://stores.giantfood.com/de/rehoboth-beach/19312-lighthouse-plaza-blvd", "opening_hours": "Mo-Sa 06:00-24:00; Su 06:00-23:00", "brand": "Giant Food", "brand:wikidata": "Q5558336", "nsi_id": "giant-fc203b"}, "geometry": {"type": "Point", "coordinates": [-75.1212539, 38.7231292]}},
{"type": "Feature", "id": "JnIRxXkJT_sYAMk_a3bnenViCm0=", "properties": {"ref": "0389", "@spider": "giantfood", "official_name": "Giant Food", "shop": "supermarket", "addr:full": "38069 Town Center Drive Unit 9", "addr:city": "Millville", "addr:state": "DE", "addr:postcode": "19967", "addr:country": "US", "name": "Giant Food Millville", "phone": "(302) 537-8200", "website": "https://stores.giantfood.com/de/millville/38069-town-center-drive", "opening_hours": "Mo-Sa 06:00-24:00; Su 06:00-23:00", "brand": "Giant Food", "brand:wikidata": "Q5558336", "nsi_id": "giant-fc203b"}, "geometry": {"type": "Point", "coordinates": [-75.1073335, 38.5456902]}},
{"type": "Feature", "id": "XwDd5NJ93ape-UpcDT7A0pX1wXU=", "properties": {"ref": "2351", "@spider": "giantfood", "official_name": "Giant Food", "shop": "supermarket", "addr:full": "25939 John J Williams Hwy", "addr:city": "Millsboro", "addr:state": "DE", "addr:postcode": "19966", "addr:country": "US", "name": "Giant Food Millsboro", "phone": "(302) 947-4370", "website": "https://stores.giantfood.com/de/millsboro/25939-john-j-williams-hwy", "opening_hours": "Mo-Sa 06:00-24:00; Su 06:00-23:00", "brand": "Giant Food", "brand:wikidata": "Q5558336", "nsi_id": "giant-fc203b"}, "geometry": {"type": "Point", "coordinates": [-75.1931494474411, 38.63081395240168]}},
{"type": "Feature", "id": "t4TNdCtElUtZmLOhCWTd4yfShs8=", "properties": {"ref": "0388", "@spider": "giantfood", "official_name": "Giant Food", "shop": "supermarket", "addr:full": "200 Dove Run Drive", "addr:city": "Middletown", "addr:state": "DE", "addr:postcode": "19709", "addr:country": "US", "name": "Giant Food Dove Run Centre", "phone": "(302) 828-9180", "website": "https://stores.giantfood.com/de/middletown/200-dove-run-drive", "opening_hours": "Mo-Sa 06:00-24:00; Su 06:00-23:00", "brand": "Giant Food", "brand:wikidata": "Q5558336", "nsi_id": "giant-fc203b"}, "geometry": {"type": "Point", "coordinates": [-75.688804, 39.4543814]}},
{"type": "Feature", "id": "0jJIP6QQUukq9WLHMyaxAyVQzus=", "properties": {"ref": "0385", "@spider": "giantfood", "official_name": "Giant Food", "shop": "supermarket", "addr:full": "300 Eden Square Sc", "addr:city": "Bear", "addr:state": "DE", "addr:postcode": "19701", "addr:country": "US", "name": "Giant Food Eden Square Super G", "phone": "(302) 832-0166", "website": "https://stores.giantfood.com/de/bear/300-eden-square-sc", "opening_hours": "Mo-Sa 06:00-24:00; Su 06:00-23:00", "brand": "Giant Food", "brand:wikidata": "Q5558336", "nsi_id": "giant-fc203b"}, "geometry": {"type": "Point", "coordinates": [-75.65523505210876, 39.63348539257387]}},
{"type": "Feature", "id": "s_CZh6bJCkVYgfABGeWVbDrojyQ=", "properties": {"ref": "0109", "@spider": "giantfood", "official_name": "Giant Food", "shop": "supermarket", "addr:full": "405 N Center St", "addr:city": "Westminster", "addr:state": "MD", "addr:postcode": "21157", "addr:country": "US", "name": "Giant Food Westminster", "phone": "(410) 857-3579", "website": "https://stores.giantfood.com/md/westminster/405-n-center-st", "opening_hours": "Mo-Sa 06:00-24:00; Su 06:00-23:00", "brand": "Giant Food", "brand:wikidata": "Q5558336", "nsi_id": "giant-fc203b"}, "geometry": {"type": "Point", "coordinates": [-76.9826662, 39.5734651]}},
{"type": "Feature", "id": "KQWXVBucXI1zq0DOQDZYVHKU6P4=", "properties": {"ref": "0304", "@spider": "giantfood", "official_name": "Giant Food", "shop": "supermarket", "addr:full": "3297 Crain Highway", "addr:city": "Waldorf", "addr:state": "MD", "addr:postcode": "20603", "addr:country": "US", "name": "Giant Food Charles Center Plaza", "phone": "(301) 542-4180", "website": "https://stores.giantfood.com/md/waldorf/3297-crain-highway", "opening_hours": "Mo-Sa 06:00-24:00; Su 06:00-23:00", "brand": "Giant Food", "brand:wikidata": "Q5558336", "nsi_id": "giant-fc203b"}, "geometry": {"type": "Point", "coordinates": [-76.91708564758301, 38.62322017945176]}},
{"type": "Feature", "id": "RFkLM74P1JYVlrz9bp4GaVC2rkA=", "properties": {"ref": "0361", "@spider": "giantfood", "official_name": "Giant Food", "shop": "supermarket", "addr:full": "5700 Southeast Crain Hwy", "addr:city": "Upper Marlboro", "addr:state": "MD", "addr:postcode": "20772", "addr:country": "US", "name": "Giant Food Marlboro Crossroads", "phone": "(301) 952-7515", "website": "https://stores.giantfood.com/md/upper-marlboro/5700-southeast-crain-hwy", "opening_hours": "Mo-Sa 06:00-24:00; Su 06:00-23:00", "brand": "Giant Food", "brand:wikidata": "Q5558336", "nsi_id": "giant-fc203b"}, "geometry": {"type": "Point", "coordinates": [-76.7375113, 38.8114932]}},
{"type": "Feature", "id": "eN9kp-xe8RKaC2eTR6w42lbGFEc=", "properties": {"ref": "0353", "@spider": "giantfood", "official_name": "Giant Food", "shop": "supermarket", "addr:full": "8100 Loch Raven Blvd", "addr:city": "Towson", "addr:state": "MD", "addr:postcode": "21286", "addr:country": "US", "name": "Giant Food Ravenwood", "phone": "(410) 828-0006", "website": "https://stores.giantfood.com/md/towson/8100-loch-raven-blvd", "opening_hours": "Mo-Sa 06:00-24:00; Su 06:00-23:00", "brand": "Giant Food", "brand:wikidata": "Q5558336", "nsi_id": "giant-fc203b"}, "geometry": {"type": "Point", "coordinates": [-76.5768684, 39.387247]}},
{"type": "Feature", "id": "_0WbTdfYqA5sYfxnpphdtjYunjc=", "properties": {"ref": "0128", "@spider": "giantfood", "official_name": "Giant Food", "shop": "supermarket", "addr:full": "2145 York Road", "addr:city": "Timonium", "addr:state": "MD", "addr:postcode": "21093", "addr:country": "US", "name": "Giant Food Timonium", "phone": "(410) 308-3868", "website": "https://stores.giantfood.com/md/timonium/2145-york-road", "opening_hours": "Mo-Sa 06:00-24:00; Su 06:00-23:00", "brand": "Giant Food", "brand:wikidata": "Q5558336", "nsi_id": "giant-fc203b"}, "geometry": {"type": "Point", "coordinates": [-76.62460416555405, 39.44359635098373]}},
{"type": "Feature", "id": "nx2ZRG0Uxcek06O3REfdMvrHLLE=", "properties": {"ref": "0358", "@spider": "giantfood", "official_name": "Giant Food", "shop": "supermarket", "addr:full": "573 Gov Ritchie Hwy", "addr:city": "Severna Park", "addr:state": "MD", "addr:postcode": "21146", "addr:country": "US", "name": "Giant Food Severna Park Mall", "phone": "(410) 544-4619", "website": "https://stores.giantfood.com/md/severna-park/573-gov-ritchie-hwy", "opening_hours": "Mo-Sa 06:00-24:00; Su 06:00-23:00", "brand": "Giant Food", "brand:wikidata": "Q5558336", "nsi_id": "giant-fc203b"}, "geometry": {"type": "Point", "coordinates": [-76.5432581, 39.076721]}},
{"type": "Feature", "id": "mPyXQbkA_5GdKmY6WCkM2opbUKA=", "properties": {"ref": "0322", "@spider": "giantfood", "official_name": "Giant Food", "shop": "supermarket", "addr:full": "11604 Reisterstown Road", "addr:city": "Reisterstown", "addr:state": "MD", "addr:postcode": "21136", "addr:country": "US", "name": "Giant Food Reisterstown", "phone": "(410) 526-1660", "website": "https://stores.giantfood.com/md/reisterstown/11604-reisterstown-road", "opening_hours": "Mo-Sa 06:00-24:00; Su 06:00-23:00", "brand": "Giant Food", "brand:wikidata": "Q5558336", "nsi_id": "giant-fc203b"}, "geometry": {"type": "Point", "coordinates": [-76.8079876, 39.440861]}},
{"type": "Feature", "id": "vpFzswtV20pIlR_cThjYx9x6KFY=", "properties": {"ref": "0146", "@spider": "giantfood", "official_name": "Giant Food", "shop": "supermarket", "addr:full": "655 Solomon's Island Rd North", "addr:city": "Prince Frederick", "addr:state": "MD", "addr:postcode": "20678", "addr:country": "US", "name": "Giant Food Fox Run", "phone": "(410) 535-5641", "website": "https://stores.giantfood.com/md/prince-frederick/655-solomon's-island-rd-north", "opening_hours": "Mo-Sa 06:00-24:00; Su 06:00-23:00", "brand": "Giant Food", "brand:wikidata": "Q5558336", "nsi_id": "giant-fc203b"}, "geometry": {"type": "Point", "coordinates": [-76.5937737, 38.5542363]}},
{"type": "Feature", "id": "KYI4hDPOv7A0t_Hmxl9B8W12n88=", "properties": {"ref": "0159", "@spider": "giantfood", "official_name": "Giant Food", "shop": "supermarket", "addr:full": "3757 Old Court Rd", "addr:city": "Pikesville", "addr:state": "MD", "addr:postcode": "21208", "addr:country": "US", "name": "Giant Food Centre Court", "phone": "(410) 602-7660", "website": "https://stores.giantfood.com/md/pikesville/3757-old-court-rd", "opening_hours": "Mo-Sa 06:00-24:00; Su 06:00-23:00", "brand": "Giant Food", "brand:wikidata": "Q5558336", "nsi_id": "giant-fc203b"}, "geometry": {"type": "Point", "coordinates": [-76.7237842, 39.3774272]}},
{"type": "Feature", "id": "46-Xq_eVvoHPAgRC0DtQ4CWTPdM=", "properties": {"ref": "0324", "@spider": "giantfood", "official_name": "Giant Food", "shop": "supermarket", "addr:full": "4315 Mountain Rd", "addr:city": "Pasadena", "addr:state": "MD", "addr:postcode": "21122", "addr:country": "US", "name": "Giant Food Pasadena", "phone": "(410) 439-2103", "website": "https://stores.giantfood.com/md/pasadena/4315-mountain-rd", "opening_hours": "Mo-Sa 06:00-24:00; Su 06:00-23:00", "brand": "Giant Food", "brand:wikidata": "Q5558336", "nsi_id": "giant-fc203b"}, "geometry": {"type": "Point", "coordinates": [-76.5116369, 39.1201603]}},
{"type": "Feature", "id": "xX5KiY7SoFBQ5jLjbNLOy4igL58=", "properties": {"ref": "2305", "@spider": "giantfood", "official_name": "Giant Food", "shop": "supermarket", "addr:full": "7709 Harford Rd", "addr:city": "Parkville", "addr:state": "MD", "addr:postcode": "21234", "addr:country": "US", "name": "Giant Food Parkville", "phone": "(410) 665-3462", "website": "https://stores.giantfood.com/md/parkville/7709-harford-rd", "opening_hours": "Mo-Sa 06:00-24:00; Su 06:00-23:00", "brand": "Giant Food", "brand:wikidata": "Q5558336", "nsi_id": "giant-fc203b"}, "geometry": {"type": "Point", "coordinates": [-76.54170781373978, 39.3724593516165]}},
{"type": "Feature", "id": "Om2rM_wUHcovqVfMhrmj_c1FvCY=", "properties": {"ref": "0341", "@spider": "giantfood", "official_name": "Giant Food", "shop": "supermarket", "addr:full": "20 Audrey Lane", "addr:city": "Oxon Hill", "addr:state": "MD", "addr:postcode": "20745", "addr:country": "US", "name": "Giant Food Eastover", "phone": "(301) 839-3714", "website": "https://stores.giantfood.com/md/oxon-hill/20-audrey-lane", "opening_hours": "Mo-Sa 06:00-24:00; Su 06:00-23:00", "brand": "Giant Food", "brand:wikidata": "Q5558336", "nsi_id": "giant-fc203b"}, "geometry": {"type": "Point", "coordinates": [-77.0026087, 38.8170958]}},
{"type": "Feature", "id": "LFL9WvWVbl7mYGO6WAC3fwDk3Kk=", "properties": {"ref": "2318", "@spider": "giantfood", "official_name": "Giant Food", "shop": "supermarket", "addr:full": "10210 Mill Run Circle", "addr:city": "Owings Mills", "addr:state": "MD", "addr:postcode": "21117", "addr:country": "US", "name": "Giant Food Owings Mills", "phone": "(410) 413-2961", "website": "https://stores.giantfood.com/md/owings-mills/10210-mill-run-circle", "opening_hours": "Mo-Su 06:00-22:00", "brand": "Giant Food", "brand:wikidata": "Q5558336", "nsi_id": "giant-fc203b"}, "geometry": {"type": "Point", "coordinates": [-76.7911055, 39.4055542]}},
{"type": "Feature", "id": "p1iXnsOy0XVyYhzuCGFfwLqFD-E=", "properties": {"ref": "2317", "@spider": "giantfood", "official_name": "Giant Food", "shop": "supermarket", "addr:full": "18140 Village Center", "addr:city": "Olney", "addr:state": "MD", "addr:postcode": "20832", "addr:country": "US", "name": "Giant Food Olney", "phone": "(301) 570-1665", "website": "https://stores.giantfood.com/md/olney/18140-village-center", "opening_hours": "Mo-Sa 06:00-24:00; Su 06:00-23:00", "brand": "Giant Food", "brand:wikidata": "Q5558336", "nsi_id": "giant-fc203b"}, "geometry": {"type": "Point", "coordinates": [-77.06443167, 39.15327]}},
{"type": "Feature", "id": "ld0SJnNpAXZWcitE41XM_5uD3Dw=", "properties": {"ref": "2311", "@spider": "giantfood", "official_name": "Giant Food", "shop": "supermarket", "addr:full": "1155 Annapolis Road", "addr:city": "Odenton", "addr:state": "MD", "addr:postcode": "21113", "addr:country": "US", "name": "Giant Food Odenton", "phone": "(410) 305-2370", "website": "https://stores.giantfood.com/md/odenton/1155-annapolis-road", "opening_hours": "Mo-Sa 06:00-24:00; Su 06:00-23:00", "brand": "Giant Food", "brand:wikidata": "Q5558336", "nsi_id": "giant-fc203b"}, "geometry": {"type": "Point", "coordinates": [-76.6900405, 39.0803527]}},
{"type": "Feature", "id": "mfXAD3cxHHubmuscymfu_RxTTuA=", "properties": {"ref": "2304", "@spider": "giantfood", "official_name": "Giant Food", "shop": "supermarket", "addr:full": "8905 Belair Rd", "addr:city": "Nottingham", "addr:state": "MD", "addr:postcode": "21236", "addr:country": "US", "name": "Giant Food Perry Hall Giant", "phone": "(410) 256-9860", "website": "https://stores.giantfood.com/md/nottingham/8905-belair-rd", "opening_hours": "Mo-Sa 06:00-24:00; Su 06:00-23:00", "brand": "Giant Food", "brand:wikidata": "Q5558336", "nsi_id": "giant-fc203b"}, "geometry": {"type": "Point", "coordinates": [-76.4796704, 39.3972224]}},
{"type": "Feature", "id": "4_jn5hdI8cT6U1Unpahe81-kvbU=", "properties": {"ref": "0342", "@spider": "giantfood", "official_name": "Giant Food", "shop": "supermarket", "addr:full": "4119 Branch Ave", "addr:city": "Marlow Heights", "addr:state": "MD", "addr:postcode": "20748", "addr:country": "US", "name": "Giant Food Marlow Heights", "phone": "(301) 630-7724", "website": "https://stores.giantfood.com/md/marlow-heights/4119-branch-ave", "opening_hours": "Mo-Sa 06:00-24:00; Su 06:00-23:00", "brand": "Giant Food", "brand:wikidata": "Q5558336", "nsi_id": "giant-fc203b"}, "geometry": {"type": "Point", "coordinates": [-76.94437980651861, 38.83244524619137]}},
{"type": "Feature", "id": "h2Cyq9qWy_gQlJzujMrZXHoondI=", "properties": {"ref": "0343", "@spider": "giantfood", "official_name": "Giant Food", "shop": "supermarket", "addr:full": "11740 Rousby Hall Road", "addr:city": "Lusby", "addr:state": "MD", "addr:postcode": "20657", "addr:country": "US", "name": "Giant Food Lusby", "phone": "(410) 394-2160", "website": "https://stores.giantfood.com/md/lusby/11740-rousby-hall-road", "opening_hours": "Mo-Sa 06:00-24:00; Su 06:00-23:00", "brand": "Giant Food", "brand:wikidata": "Q5558336", "nsi_id": "giant-fc203b"}, "geometry": {"type": "Point", "coordinates": [-76.4424, 38.3740781]}},
{"type": "Feature", "id": "gYyfXu1QjV7qXAfcPrQPwtjUXKo=", "properties": {"ref": "0340", "@spider": "giantfood", "official_name": "Giant Food", "shop": "supermarket", "addr:full": "1009 Fairlawn St", "addr:city": "Laurel", "addr:state": "MD", "addr:postcode": "20707", "addr:country": "US", "name": "Giant Food Laurel Center", "phone": "(301) 725-0046", "website": "https://stores.giantfood.com/md/laurel/1009-fairlawn-st", "opening_hours": "Mo-Sa 06:00-24:00; Su 06:00-23:00", "brand": "Giant Food", "brand:wikidata": "Q5558336", "nsi_id": "giant-fc203b"}, "geometry": {"type": "Point", "coordinates": [-76.8561547, 39.0965342]}},
{"type": "Feature", "id": "HD6p8KIm74SgHIPxvqIJ-CEtQlY=", "properties": {"ref": "0366", "@spider": "giantfood", "official_name": "Giant Food", "shop": "supermarket", "addr:full": "8750 Arliss St", "addr:city": "Silver Spring", "addr:state": "MD", "addr:postcode": "20901", "addr:country": "US", "name": "Giant Food Arliss Street Center", "phone": "(301) 587-3450", "website": "https://stores.giantfood.com/md/silver-spring/8750-arliss-st", "opening_hours": "Mo-Sa 06:00-24:00; Su 06:00-23:00", "brand": "Giant Food", "brand:wikidata": "Q5558336", "nsi_id": "giant-fc203b"}, "geometry": {"type": "Point", "coordinates": [-77.00242817401886, 38.99960063021364]}},
{"type": "Feature", "id": "UZ0Xq95J6-Lm1I1kigrLoZw271s=", "properties": {"ref": "0135", "@spider": "giantfood", "official_name": "Giant Food", "shop": "supermarket", "addr:full": "3860 International Dr", "addr:city": "Silver Spring", "addr:state": "MD", "addr:postcode": "20906", "addr:country": "US", "name": "Giant Food Leisure World Plaza", "phone": "(301) 598-4666", "website": "https://stores.giantfood.com/md/silver-spring/3860-international-dr", "opening_hours": "Mo-Sa 06:00-24:00; Su 06:00-23:00", "brand": "Giant Food", "brand:wikidata": "Q5558336", "nsi_id": "giant-fc203b"}, "geometry": {"type": "Point", "coordinates": [-77.07502216100693, 39.10168720803231]}},
{"type": "Feature", "id": "AACXXINZ2iNE5TM0-XvbZvO0apU=", "properties": {"ref": "0329", "@spider": "giantfood", "official_name": "Giant Food", "shop": "supermarket", "addr:full": "9719 Traville Gateway Drive", "addr:city": "Rockville", "addr:state": "MD", "addr:postcode": "20850", "addr:country": "US", "name": "Giant Food Shoppes At Traville", "phone": "(301) 315-1460", "website": "https://stores.giantfood.com/md/rockville/9719-traville-gateway-drive", "opening_hours": "Mo-Sa 06:00-24:00; Su 06:00-23:00", "brand": "Giant Food", "brand:wikidata": "Q5558336", "nsi_id": "giant-fc203b"}, "geometry": {"type": "Point", "coordinates": [-77.2032517, 39.091244]}},
{"type": "Feature", "id": "RHJMQ6clrU2hue5fjy47PRq3wvw=", "properties": {"ref": "0319", "@spider": "giantfood", "official_name": "Giant Food", "shop": "supermarket", "addr:full": "625 Hungerford Drive", "addr:city": "Rockville", "addr:state": "MD", "addr:postcode": "20850", "addr:country": "US", "name": "Giant Food Rockville Town Center", "phone": "(240) 314-5160", "website": "https://stores.giantfood.com/md/rockville/625-hungerford-drive", "opening_hours": "Mo-Sa 06:00-24:00; Su 06:00-23:00", "brand": "Giant Food", "brand:wikidata": "Q5558336", "nsi_id": "giant-fc203b"}, "geometry": {"type": "Point", "coordinates": [-77.1518862247467, 39.09251149627748]}},
{"type": "Feature", "id": "bR8EwMnY9F7yVrO5HcvtclaC2NA=", "properties": {"ref": "0125", "@spider": "giantfood", "official_name": "Giant Food", "shop": "supermarket", "addr:full": "12051 Rockville Pike", "addr:city": "Rockville", "addr:state": "MD", "addr:postcode": "20852", "addr:country": "US", "name": "Giant Food Montrose Crossing", "phone": "(301) 881-4541", "website": "https://stores.giantfood.com/md/rockville/12051-rockville-pike", "opening_hours": "Mo-Sa 06:00-24:00; Su 06:00-23:00", "brand": "Giant Food", "brand:wikidata": "Q5558336", "nsi_id": "giant-fc203b"}, "geometry": {"type": "Point", "coordinates": [-77.1153866, 39.0552378]}},
{"type": "Feature", "id": "Cel1odhRNw9bnJlPG8GcsU7UnXQ=", "properties": {"ref": "0198", "@spider": "giantfood", "official_name": "Giant Food", "shop": "supermarket", "addr:full": "9812 Falls Road", "addr:city": "Potomac", "addr:state": "MD", "addr:postcode": "20854", "addr:country": "US", "name": "Giant Food Potomac Promenade", "phone": "(301) 983-4246", "website": "https://stores.giantfood.com/md/potomac/9812-falls-road", "opening_hours": "Mo-Sa 06:00-24:00; Su 06:00-23:00", "brand": "Giant Food", "brand:wikidata": "Q5558336", "nsi_id": "giant-fc203b"}, "geometry": {"type": "Point", "coordinates": [-77.211244, 39.0181475]}},
{"type": "Feature", "id": "UnjeP9TsDh8IQjnPAp_SOLNrwWE=", "properties": {"ref": "0106", "@spider": "giantfood", "official_name": "Giant Food", "shop": "supermarket", "addr:full": "7919 Tuckerman La", "addr:city": "Potomac", "addr:state": "MD", "addr:postcode": "20854", "addr:country": "US", "name": "Giant Food Cabin John", "phone": "(301) 469-9549", "website": "https://stores.giantfood.com/md/potomac/7919-tuckerman-la", "opening_hours": "Mo-Sa 06:00-24:00; Su 06:00-23:00", "brand": "Giant Food", "brand:wikidata": "Q5558336", "nsi_id": "giant-fc203b"}, "geometry": {"type": "Point", "coordinates": [-77.1564839, 39.0409352]}},
{"type": "Feature", "id": "qjwKmyglgZWCwzOfYqyc_mTp9Y8=", "properties": {"ref": "0301", "@spider": "giantfood", "official_name": "Giant Food", "shop": "supermarket", "addr:full": "13781 Connecticut Avenue", "addr:city": "Silver Spring", "addr:state": "MD", "addr:postcode": "20906", "addr:country": "US", "name": "Giant Food Aspen Hill Shopping Center", "phone": "(301) 460-7527", "website": "https://stores.giantfood.com/md/silver-spring/13781-connecticut-avenue", "opening_hours": "Mo-Sa 06:00-24:00; Su 06:00-23:00", "brand": "Giant Food", "brand:wikidata": "Q5558336", "nsi_id": "giant-fc203b"}, "geometry": {"type": "Point", "coordinates": [-77.0787653, 39.079893]}},
{"type": "Feature", "id": "WkgQ7ymB4Y9e-TxLMxaa4PtzGUQ=", "properties": {"ref": "0354", "@spider": "giantfood", "official_name": "Giant Food", "shop": "supermarket", "addr:full": "1280 East West Hwy", "addr:city": "Silver Spring", "addr:state": "MD", "addr:postcode": "20910", "addr:country": "US", "name": "Giant Food Blair Park", "phone": "(301) 585-1670", "website": "https://stores.giantfood.com/md/silver-spring/1280-east-west-hwy", "opening_hours": "Mo-Sa 06:00-24:00; Su 06:00-23:00", "brand": "Giant Food", "brand:wikidata": "Q5558336", "nsi_id": "giant-fc203b"}, "geometry": {"type": "Point", "coordinates": [-77.03153460978695, 38.991920628258704]}},
{"type": "Feature", "id": "bV1NQPrVnFDKy2ZJsm7EGWbetCM=", "properties": {"ref": "938282", "@spider": "giantfood", "official_name": "Giant Food", "shop": "supermarket", "addr:full": "12028 Cherry Hill Road", "addr:city": "Silver Spring", "addr:state": "MD", "addr:postcode": "20904", "addr:country": "US", "name": "Giant Food Silver Spring", "phone": "(301) 572-6442", "website": "https://stores.giantfood.com/md/silver-spring/12028-cherry-hill-road", "opening_hours": "Mo-Sa 06:00-24:00; Su 06:00-23:00", "brand": "Giant Food", "brand:wikidata": "Q5558336", "nsi_id": "giant-fc203b"}, "geometry": {"type": "Point", "coordinates": [-76.9566272880263, 39.054762690217146]}},
{"type": "Feature", "id": "Ngay1XC1drGw7kjo2xmvPqBIlYw=", "properties": {"ref": "0350", "@spider": "giantfood", "official_name": "Giant Food", "shop": "supermarket", "addr:full": "11221 New Hampshire Ave", "addr:city": "Silver Spring", "addr:state": "MD", "addr:postcode": "20904", "addr:country": "US", "name": "Giant Food White Oak", "phone": "(301) 593-1225", "website": "https://stores.giantfood.com/md/silver-spring/11221-new-hampshire-ave", "opening_hours": "Mo-Sa 06:00-24:00; Su 06:00-23:00", "brand": "Giant Food", "brand:wikidata": "Q5558336", "nsi_id": "giant-fc203b"}, "geometry": {"type": "Point", "coordinates": [-76.98895275592798, 39.04097795160938]}},
{"type": "Feature", "id": "aSQW-lua-dwZQA74iybO0bDuoqU=", "properties": {"ref": "0347", "@spider": "giantfood", "official_name": "Giant Food", "shop": "supermarket", "addr:full": "10480 Campus Way South", "addr:city": "Largo", "addr:state": "MD", "addr:postcode": "20774", "addr:country": "US", "name": "Giant Food Largo Plaza", "phone": "(301) 336-9402", "website": "https://stores.giantfood.com/md/largo/10480-campus-way-south", "opening_hours": "Mo-Sa 06:00-24:00; Su 06:00-23:00", "brand": "Giant Food", "brand:wikidata": "Q5558336", "nsi_id": "giant-fc203b"}, "geometry": {"type": "Point", "coordinates": [-76.82712972164154, 38.89487404346211]}},
{"type": "Feature", "id": "OrmludhXYdsv0Jv80c2fsaHv2Kg=", "properties": {"ref": "0339", "@spider": "giantfood", "official_name": "Giant Food", "shop": "supermarket", "addr:full": "200 Rosewick Road", "addr:city": "La Plata", "addr:state": "MD", "addr:postcode": "20646", "addr:country": "US", "name": "Giant Food La Plata", "phone": "(301) 392-5429", "website": "https://stores.giantfood.com/md/la-plata/200-rosewick-road", "opening_hours": "Mo-Sa 06:00-24:00; Su 06:00-23:00", "brand": "Giant Food", "brand:wikidata": "Q5558336", "nsi_id": "giant-fc203b"}, "geometry": {"type": "Point", "coordinates": [-76.9852999, 38.5575394]}},
{"type": "Feature", "id": "I03J3-UD8glU6Pgi3QDbl-QOEvM=", "properties": {"ref": "0316", "@spider": "giantfood", "official_name": "Giant Food", "shop": "supermarket", "addr:full": "6000 Greenbelt Rd", "addr:city": "Greenbelt", "addr:state": "MD", "addr:postcode": "20770", "addr:country": "US", "name": "Giant Food Beltway Plaza", "phone": "(301) 982-5482", "website": "https://stores.giantfood.com/md/greenbelt/6000-greenbelt-rd", "opening_hours": "Mo-Sa 06:00-24:00; Su 06:00-23:00", "brand": "Giant Food", "brand:wikidata": "Q5558336", "nsi_id": "giant-fc203b"}, "geometry": {"type": "Point", "coordinates": [-76.909769, 38.99953]}},
{"type": "Feature", "id": "EfjcD7ZRgCNZPGoWklz_7P_C9S8=", "properties": {"ref": "0121", "@spider": "giantfood", "official_name": "Giant Food", "shop": "supermarket", "addr:full": "1161 MD Route 3 N", "addr:city": "Gambrills", "addr:state": "MD", "addr:postcode": "21054", "addr:country": "US", "name": "Giant Food Crofton Station", "phone": "(410) 721-6623", "website": "https://stores.giantfood.com/md/gambrills/1161-md-route-3-n", "opening_hours": "Mo-Sa 06:00-24:00; Su 06:00-23:00", "brand": "Giant Food", "brand:wikidata": "Q5558336", "nsi_id": "giant-fc203b"}, "geometry": {"type": "Point", "coordinates": [-76.69382929801941, 39.01980469054608]}},
{"type": "Feature", "id": "GdIxY2oQogQefACbBEx0PPb8lAQ=", "properties": {"ref": "0147", "@spider": "giantfood", "official_name": "Giant Food", "shop": "supermarket", "addr:full": "9580 Livingston Rd", "addr:city": "Fort Washington", "addr:state": "MD", "addr:postcode": "20744", "addr:country": "US", "name": "Giant Food Livingston Square", "phone": "(301) 248-0167", "website": "https://stores.giantfood.com/md/fort-washington/9580-livingston-rd", "opening_hours": "Mo-Sa 06:00-24:00; Su 06:00-23:00", "brand": "Giant Food", "brand:wikidata": "Q5558336", "nsi_id": "giant-fc203b"}, "geometry": {"type": "Point", "coordinates": [-76.99463367462164, 38.75837530188432]}},
{"type": "Feature", "id": "BnreT028-fFmL0vscpZnsKvowyY=", "properties": {"ref": "0344", "@spider": "giantfood", "official_name": "Giant Food", "shop": "supermarket", "addr:full": "6020 Marshalee Drive", "addr:city": "Elkridge", "addr:state": "MD", "addr:postcode": "21075", "addr:country": "US", "name": "Giant Food Lyndwood Square", "phone": "(410) 379-6405", "website": "https://stores.giantfood.com/md/elkridge/6020-marshalee-drive", "opening_hours": "Mo-Sa 06:00-24:00; Su 06:00-23:00", "brand": "Giant Food", "brand:wikidata": "Q5558336", "nsi_id": "giant-fc203b"}, "geometry": {"type": "Point", "coordinates": [-76.7785802, 39.2100649]}},
{"type": "Feature", "id": "VSEkayQn1Vsr1P40KQ_Y0cx3gpI=", "properties": {"ref": "0308", "@spider": "giantfood", "official_name": "Giant Food", "shop": "supermarket", "addr:full": "13 Lee Airpark Drive", "addr:city": "Edgewater", "addr:state": "MD", "addr:postcode": "21037", "addr:country": "US", "name": "Giant Food Edgewater", "phone": "(410) 956-7472", "website": "https://stores.giantfood.com/md/edgewater/13-lee-airpark-drive", "opening_hours": "Mo-Sa 06:00-24:00; Su 06:00-23:00", "brand": "Giant Food", "brand:wikidata": "Q5558336", "nsi_id": "giant-fc203b"}, "geometry": {"type": "Point", "coordinates": [-76.56378775835032, 38.943105373596026]}},
{"type": "Feature", "id": "RWirsm3485OnFJi6HnrPsEA_6T0=", "properties": {"ref": "0323", "@spider": "giantfood", "official_name": "Giant Food", "shop": "supermarket", "addr:full": "8223 Elliott Road", "addr:city": "Easton", "addr:state": "MD", "addr:postcode": "21601", "addr:country": "US", "name": "Giant Food Easton Shops", "phone": "(410) 819-3212", "website": "https://stores.giantfood.com/md/easton/8223-elliott-road", "opening_hours": "Mo-Sa 06:00-24:00; Su 06:00-23:00", "brand": "Giant Food", "brand:wikidata": "Q5558336", "nsi_id": "giant-fc203b"}, "geometry": {"type": "Point", "coordinates": [-76.0555931, 38.7750509]}},
{"type": "Feature", "id": "Ip2yOKpmsc33cvFHloxu5r3XVYs=", "properties": {"ref": "0325", "@spider": "giantfood", "official_name": "Giant Food", "shop": "supermarket", "addr:full": "10790 Town Center Blvd", "addr:city": "Dunkirk", "addr:state": "MD", "addr:postcode": "20754", "addr:country": "US", "name": "Giant Food Town Center", "phone": "(410) 286-2900", "website": "https://stores.giantfood.com/md/dunkirk/10790-town-center-blvd", "opening_hours": "Mo-Sa 06:00-24:00; Su 06:00-23:00", "brand": "Giant Food", "brand:wikidata": "Q5558336", "nsi_id": "giant-fc203b"}, "geometry": {"type": "Point", "coordinates": [-76.657128, 38.7237692]}},
{"type": "Feature", "id": "0EdM-zzTA_-Swjhd7IwXz1HOjCk=", "properties": {"ref": "0363", "@spider": "giantfood", "official_name": "Giant Food", "shop": "supermarket", "addr:full": "1400 Merritt Boulevard", "addr:city": "Dundalk", "addr:state": "MD", "addr:postcode": "21222", "addr:country": "US", "name": "Giant Food Dundalk", "phone": "(410) 631-1250", "website": "https://stores.giantfood.com/md/dundalk/1400-merritt-boulevard", "opening_hours": "Mo-Sa 06:00-24:00; Su 06:00-23:00", "brand": "Giant Food", "brand:wikidata": "Q5558336", "nsi_id": "giant-fc203b"}, "geometry": {"type": "Point", "coordinates": [-76.5058108, 39.2777619]}},
{"type": "Feature", "id": "e5Sbf6o61SpbZdNSsN-e_ADmqMM=", "properties": {"ref": "0373", "@spider": "giantfood", "official_name": "Giant Food", "shop": "supermarket", "addr:full": "5500 Silver Hill Road", "addr:city": "District Heights", "addr:state": "MD", "addr:postcode": "20747", "addr:country": "US", "name": "Giant Food District Heights", "phone": "(301) 817-3180", "website": "https://stores.giantfood.com/md/district-heights/5500-silver-hill-road", "opening_hours": "Mo-Sa 06:00-24:00; Su 06:00-23:00", "brand": "Giant Food", "brand:wikidata": "Q5558336", "nsi_id": "giant-fc203b"}, "geometry": {"type": "Point", "coordinates": [-76.9126707315445, 38.85405466924288]}},
{"type": "Feature", "id": "Q1QNiGsBtzVJ5QpnaGOdEALG9_I=", "properties": {"ref": "0315", "@spider": "giantfood", "official_name": "Giant Food", "shop": "supermarket", "addr:full": "7546 Annapolis Rd", "addr:city": "Lanham", "addr:state": "MD", "addr:postcode": "20784", "addr:country": "US", "name": "Giant Food Glenridge Center", "phone": "(301) 306-0498", "website": "https://stores.giantfood.com/md/lanham/7546-annapolis-rd", "opening_hours": "Mo-Sa 06:00-24:00; Su 06:00-23:00", "brand": "Giant Food", "brand:wikidata": "Q5558336", "nsi_id": "giant-fc203b"}, "geometry": {"type": "Point", "coordinates": [-76.88774362206459, 38.95169350420738]}},
{"type": "Feature", "id": "Uy8iSOnYqzq2_EG4QRLOWcE2I8o=", "properties": {"ref": "0326", "@spider": "giantfood", "official_name": "Giant Food", "shop": "supermarket", "addr:full": "10501 Greenbelt Rd", "addr:city": "Lanham", "addr:state": "MD", "addr:postcode": "20706", "addr:country": "US", "name": "Giant Food Eastgate Shopping Center", "phone": "(301) 666-1180", "website": "https://stores.giantfood.com/md/lanham/10501-greenbelt-rd", "opening_hours": "Mo-Sa 06:00-24:00; Su 06:00-23:00", "brand": "Giant Food", "brand:wikidata": "Q5558336", "nsi_id": "giant-fc203b"}, "geometry": {"type": "Point", "coordinates": [-76.8236656, 38.9886573]}},
{"type": "Feature", "id": "71ZK3inALUAfBL00pjXnp2Ve7xQ=", "properties": {"ref": "0140", "@spider": "giantfood", "official_name": "Giant Food", "shop": "supermarket", "addr:full": "5815 Eastern Avenue", "addr:city": "Hyattsville", "addr:state": "MD", "addr:postcode": "20782", "addr:country": "US", "name": "Giant Food Riggs Plaza", "phone": "(301) 559-8413", "website": "https://stores.giantfood.com/md/hyattsville/5815-eastern-avenue", "opening_hours": "Mo-Su 06:00-22:00", "brand": "Giant Food", "brand:wikidata": "Q5558336", "nsi_id": "giant-fc203b"}, "geometry": {"type": "Point", "coordinates": [-76.9951821, 38.9613383]}},
{"type": "Feature", "id": "hLALLzB9o7Kj6x8fhWEOE307XJ4=", "properties": {"ref": "0334", "@spider": "giantfood", "official_name": "Giant Food", "shop": "supermarket", "addr:full": "3521 East-West Highway", "addr:city": "Hyattsville", "addr:state": "MD", "addr:postcode": "20782", "addr:country": "US", "name": "Giant Food Hyattsville Station", "phone": "(301) 853-3700", "website": "https://stores.giantfood.com/md/hyattsville/3521-east-west-highway", "opening_hours": "Mo-Sa 06:00-24:00; Su 06:00-23:00", "brand": "Giant Food", "brand:wikidata": "Q5558336", "nsi_id": "giant-fc203b"}, "geometry": {"type": "Point", "coordinates": [-76.95850968360907, 38.965661334898755]}},
{"type": "Feature", "id": "6QwN9XRAqrBVHuNPoAJ2lEu5Jzs=", "properties": {"ref": "0141", "@spider": "giantfood", "official_name": "Giant Food", "shop": "supermarket", "addr:full": "7940 Crain Hwy", "addr:city": "Glen Burnie", "addr:state": "MD", "addr:postcode": "21061", "addr:country": "US", "name": "Giant Food Park 97", "phone": "(410) 969-7590", "website": "https://stores.giantfood.com/md/glen-burnie/7940-crain-hwy", "opening_hours": "Mo-Sa 06:00-24:00; Su 06:00-23:00", "brand": "Giant Food", "brand:wikidata": "Q5558336", "nsi_id": "giant-fc203b"}, "geometry": {"type": "Point", "coordinates": [-76.6381367, 39.1333963]}},
{"type": "Feature", "id": "8pd4nuNGKBtnhpq18AEhz4wM_hQ=", "properties": {"ref": "0362", "@spider": "giantfood", "official_name": "Giant Food", "shop": "supermarket", "addr:full": "20944 Frederick Road", "addr:city": "Germantown", "addr:state": "MD", "addr:postcode": "20876", "addr:country": "US", "name": "Giant Food Neelsville Village Center", "phone": "(301) 515-9282", "website": "https://stores.giantfood.com/md/germantown/20944-frederick-road", "opening_hours": "Mo-Sa 06:00-24:00; Su 06:00-23:00", "brand": "Giant Food", "brand:wikidata": "Q5558336", "nsi_id": "giant-fc203b"}, "geometry": {"type": "Point", "coordinates": [-77.2468852, 39.2033972]}},
{"type": "Feature", "id": "G3eoYmCKZc9fROyfJ9xO7EI5u8w=", "properties": {"ref": "0313", "@spider": "giantfood", "official_name": "Giant Food", "shop": "supermarket", "addr:full": "18331 Leaman Farm Road", "addr:city": "Germantown", "addr:state": "MD", "addr:postcode": "20874", "addr:country": "US", "name": "Giant Food Kingsview Village", "phone": "(301) 528-2760", "website": "https://stores.giantfood.com/md/germantown/18331-leaman-farm-road", "opening_hours": "Mo-Sa 06:00-24:00; Su 06:00-23:00", "brand": "Giant Food", "brand:wikidata": "Q5558336", "nsi_id": "giant-fc203b"}, "geometry": {"type": "Point", "coordinates": [-77.27873593568802, 39.1597612239127]}},
{"type": "Feature", "id": "-5Mr5m0FQ4PQ_dTel17Xdc-PQd4=", "properties": {"ref": "0368", "@spider": "giantfood", "official_name": "Giant Food", "shop": "supermarket", "addr:full": "842 Muddy Branch Rd", "addr:city": "Gaithersburg", "addr:state": "MD", "addr:postcode": "20878", "addr:country": "US", "name": "Giant Food Muddy Branch", "phone": "(301) 948-8148", "website": "https://stores.giantfood.com/md/gaithersburg/842-muddy-branch-rd", "opening_hours": "Mo-Sa 06:00-24:00; Su 06:00-23:00", "brand": "Giant Food", "brand:wikidata": "Q5558336", "nsi_id": "giant-fc203b"}, "geometry": {"type": "Point", "coordinates": [-77.2177237272262, 39.114770107042425]}},
{"type": "Feature", "id": "Esa_d__ZzRkVw7fdvN4VCiFDUzM=", "properties": {"ref": "0346", "@spider": "giantfood", "official_name": "Giant Food", "shop": "supermarket", "addr:full": "5316 New Design Road", "addr:city": "Frederick", "addr:state": "MD", "addr:postcode": "21701", "addr:country": "US", "name": "Giant Food Kingsbrook Crossing", "phone": "(301) 698-9411", "website": "https://stores.giantfood.com/md/frederick/5316-new-design-road", "opening_hours": "Mo-Sa 06:00-24:00; Su 06:00-23:00", "brand": "Giant Food", "brand:wikidata": "Q5558336", "nsi_id": "giant-fc203b"}, "geometry": {"type": "Point", "coordinates": [-77.42258012294769, 39.38105949687033]}},
{"type": "Feature", "id": "QpMuccsDirJ4sH16naTmHRgDQOM=", "properties": {"ref": "0349", "@spider": "giantfood", "official_name": "Giant Food", "shop": "supermarket", "addr:full": "3530 Sugarloaf Parkway", "addr:city": "Frederick", "addr:state": "MD", "addr:postcode": "21704", "addr:country": "US", "name": "Giant Food The Villages Of Urbana", "phone": "(301) 874-1200", "website": "https://stores.giantfood.com/md/frederick/3530-sugarloaf-parkway", "opening_hours": "Mo-Sa 06:00-24:00; Su 06:00-23:00", "brand": "Giant Food", "brand:wikidata": "Q5558336", "nsi_id": "giant-fc203b"}, "geometry": {"type": "Point", "coordinates": [-77.3520469, 39.3307102]}},
{"type": "Feature", "id": "dqMu4CJKKm0_el44GYmFiwO4XqA=", "properties": {"ref": "2310", "@spider": "giantfood", "official_name": "Giant Food", "shop": "supermarket", "addr:full": "9200 Baltimore National Pike", "addr:city": "Ellicott City", "addr:state": "MD", "addr:postcode": "21043", "addr:country": "US", "name": "Giant Food Ellicott City", "phone": "(410) 461-3120", "website": "https://stores.giantfood.com/md/ellicott-city/9200-baltimore-national-pike", "opening_hours": "Mo-Sa 06:00-24:00; Su 06:00-23:00", "brand": "Giant Food", "brand:wikidata": "Q5558336", "nsi_id": "giant-fc203b"}, "geometry": {"type": "Point", "coordinates": [-76.8302963, 39.2799522]}},
{"type": "Feature", "id": "sp8x0UScl2mwuRgkIIF_2PXDYZE=", "properties": {"ref": "0143", "@spider": "giantfood", "official_name": "Giant Food", "shop": "supermarket", "addr:full": "4715 Dorsey Hall Dr", "addr:city": "Ellicott City", "addr:state": "MD", "addr:postcode": "21043", "addr:country": "US", "name": "Giant Food Dorsey Search", "phone": "(410) 995-0557", "website": "https://stores.giantfood.com/md/ellicott-city/4715-dorsey-hall-dr", "opening_hours": "Mo-Sa 06:00-24:00; Su 06:00-23:00", "brand": "Giant Food", "brand:wikidata": "Q5558336", "nsi_id": "giant-fc203b"}, "geometry": {"type": "Point", "coordinates": [-76.8429061, 39.2433417]}},
{"type": "Feature", "id": "_TKKvkihTNnJfbxssqyrHpjXYlw=", "properties": {"ref": "0335", "@spider": "giantfood", "official_name": "Giant Food", "shop": "supermarket", "addr:full": "1700 Kingfisher Dr", "addr:city": "Frederick", "addr:state": "MD", "addr:postcode": "21701", "addr:country": "US", "name": "Giant Food Frederick", "phone": "(301) 815-2200", "website": "https://stores.giantfood.com/md/frederick/1700-kingfisher-dr", "opening_hours": "Mo-Sa 06:00-24:00; Su 06:00-23:00", "brand": "Giant Food", "brand:wikidata": "Q5558336", "nsi_id": "giant-fc203b"}, "geometry": {"type": "Point", "coordinates": [-77.3835699, 39.4481893]}},
{"type": "Feature", "id": "pgC63yrd7WfzyUjHHqxioa18rXA=", "properties": {"ref": "0150", "@spider": "giantfood", "official_name": "Giant Food", "shop": "supermarket", "addr:full": "46 Bureau Dr", "addr:city": "Gaithersburg", "addr:state": "MD", "addr:postcode": "20878", "addr:country": "US", "name": "Giant Food Diamond Square", "phone": "(301) 216-0911", "website": "https://stores.giantfood.com/md/gaithersburg/46-bureau-dr", "opening_hours": "Mo-Sa 06:00-24:00; Su 06:00-23:00", "brand": "Giant Food", "brand:wikidata": "Q5558336", "nsi_id": "giant-fc203b"}, "geometry": {"type": "Point", "coordinates": [-77.21765667200089, 39.14419879008445]}},
{"type": "Feature", "id": "qlIZC1LaqytEYFkJoN_hMwE-xbM=", "properties": {"ref": "0320", "@spider": "giantfood", "official_name": "Giant Food", "shop": "supermarket", "addr:full": "229 Kentlands Blvd", "addr:city": "Gaithersburg", "addr:state": "MD", "addr:postcode": "20878", "addr:country": "US", "name": "Giant Food Kentlands", "phone": "(301) 208-8203", "website": "https://stores.giantfood.com/md/gaithersburg/229-kentlands-blvd", "opening_hours": "Mo-Sa 06:00-24:00; Su 06:00-23:00", "brand": "Giant Food", "brand:wikidata": "Q5558336", "nsi_id": "giant-fc203b"}, "geometry": {"type": "Point", "coordinates": [-77.23874151706696, 39.125507674631834]}},
{"type": "Feature", "id": "jLvW8Bpd6q3ZFlOQd-nIw51fVQM=", "properties": {"ref": "0196", "@spider": "giantfood", "official_name": "Giant Food", "shop": "supermarket", "addr:full": "20044 Goshen Rd", "addr:city": "Gaithersburg", "addr:state": "MD", "addr:postcode": "20879", "addr:country": "US", "name": "Giant Food Goshen Crossing", "phone": "(301) 990-0322", "website": "https://stores.giantfood.com/md/gaithersburg/20044-goshen-rd", "opening_hours": "Mo-Sa 06:00-24:00; Su 06:00-23:00", "brand": "Giant Food", "brand:wikidata": "Q5558336", "nsi_id": "giant-fc203b"}, "geometry": {"type": "Point", "coordinates": [-77.18836355952453, 39.186899421332924]}},
{"type": "Feature", "id": "5ADkWQt0JFy-_sCQGW4-3FcZyBI=", "properties": {"ref": "0192", "@spider": "giantfood", "official_name": "Giant Food", "shop": "supermarket", "addr:full": "18250 Flower Hill Way", "addr:city": "Gaithersburg", "addr:state": "MD", "addr:postcode": "20879", "addr:country": "US", "name": "Giant Food Flower Hill", "phone": "(301) 926-0340", "website": "https://stores.giantfood.com/md/gaithersburg/18250-flower-hill-way", "opening_hours": "Mo-Sa 06:00-24:00; Su 06:00-23:00", "brand": "Giant Food", "brand:wikidata": "Q5558336", "nsi_id": "giant-fc203b"}, "geometry": {"type": "Point", "coordinates": [-77.1656984, 39.1552839]}},
{"type": "Feature", "id": "fCAcJXtqjKvLZYSE_B5h1GSMrek=", "properties": {"ref": "0169", "@spider": "giantfood", "official_name": "Giant Food", "shop": "supermarket", "addr:full": "13060 Middlebrook Rd", "addr:city": "Germantown", "addr:state": "MD", "addr:postcode": "20874", "addr:country": "US", "name": "Giant Food Germantown Commons", "phone": "(301) 428-4961", "website": "https://stores.giantfood.com/md/germantown/13060-middlebrook-rd", "opening_hours": "Mo-Sa 06:00-24:00; Su 06:00-23:00", "brand": "Giant Food", "brand:wikidata": "Q5558336", "nsi_id": "giant-fc203b"}, "geometry": {"type": "Point", "coordinates": [-77.2712004, 39.1818824]}},
{"type": "Feature", "id": "uFpoVCFU9aLWo2tFszvHxYBl6LM=", "properties": {"ref": "2312", "@spider": "giantfood", "official_name": "Giant Food", "shop": "supermarket", "addr:full": "6636 N Ritchie Highway", "addr:city": "Glen Burnie", "addr:state": "MD", "addr:postcode": "21061", "addr:country": "US", "name": "Giant Food Glen Burnie", "phone": "(410) 487-0100", "website": "https://stores.giantfood.com/md/glen-burnie/6636-n-ritchie-highway", "opening_hours": "Mo-Sa 06:00-24:00; Su 06:00-23:00", "brand": "Giant Food", "brand:wikidata": "Q5558336", "nsi_id": "giant-fc203b"}, "geometry": {"type": "Point", "coordinates": [-76.6160702, 39.1970051]}},
{"type": "Feature", "id": "IebfMxZxOeZwd8VFGPaym6cOlFg=", "properties": {"ref": "0161", "@spider": "giantfood", "official_name": "Giant Food", "shop": "supermarket", "addr:full": "16837 Crabbs Branch Way", "addr:city": "Derwood", "addr:state": "MD", "addr:postcode": "20855", "addr:country": "US", "name": "Giant Food Shady Grove", "phone": "(301) 216-0912", "website": "https://stores.giantfood.com/md/derwood/16837-crabbs-branch-way", "opening_hours": "Mo-Sa 06:00-24:00; Su 06:00-23:00", "brand": "Giant Food", "brand:wikidata": "Q5558336", "nsi_id": "giant-fc203b"}, "geometry": {"type": "Point", "coordinates": [-77.16804519295692, 39.13114840367968]}},
{"type": "Feature", "id": "vw7D2ik_0x-SjrSYiK-yPbed2bA=", "properties": {"ref": "0152", "@spider": "giantfood", "official_name": "Giant Food", "shop": "supermarket", "addr:full": "13490 New Hampshire Ave", "addr:city": "Colesville", "addr:state": "MD", "addr:postcode": "20904", "addr:country": "US", "name": "Giant Food Colesville", "phone": "(301) 384-1572", "website": "https://stores.giantfood.com/md/colesville/13490-new-hampshire-ave", "opening_hours": "Mo-Sa 06:00-24:00; Su 06:00-23:00", "brand": "Giant Food", "brand:wikidata": "Q5558336", "nsi_id": "giant-fc203b"}, "geometry": {"type": "Point", "coordinates": [-77.0036319, 39.0771763]}},
{"type": "Feature", "id": "X6NFRGWDxx9creDdXM9aG9aqNaU=", "properties": {"ref": "0100", "@spider": "giantfood", "official_name": "Giant Food", "shop": "supermarket", "addr:full": "11399 York Rd", "addr:city": "Cockeysville", "addr:state": "MD", "addr:postcode": "21030", "addr:country": "US", "name": "Giant Food Hunt Valley", "phone": "(410) 785-1062", "website": "https://stores.giantfood.com/md/cockeysville/11399-york-rd", "opening_hours": "Mo-Sa 06:00-24:00; Su 06:00-23:00", "brand": "Giant Food", "brand:wikidata": "Q5558336", "nsi_id": "giant-fc203b"}, "geometry": {"type": "Point", "coordinates": [-76.6484158, 39.495291]}},
{"type": "Feature", "id": "Lad3RHqeiIBmLpcIf9eSQy8bVHE=", "properties": {"ref": "0348", "@spider": "giantfood", "official_name": "Giant Food", "shop": "supermarket", "addr:full": "6050 Daybreak Circle", "addr:city": "Clarksville", "addr:state": "MD", "addr:postcode": "21029", "addr:country": "US", "name": "Giant Food Village Of River Hill", "phone": "(410) 531-7831", "website": "https://stores.giantfood.com/md/clarksville/6050-daybreak-circle", "opening_hours": "Mo-Sa 06:00-24:00; Su 06:00-23:00", "brand": "Giant Food", "brand:wikidata": "Q5558336", "nsi_id": "giant-fc203b"}, "geometry": {"type": "Point", "coordinates": [-76.935605, 39.2115911]}},
{"type": "Feature", "id": "DgFeQNK2ihOp5BlYFprYXRgDkHQ=", "properties": {"ref": "0117", "@spider": "giantfood", "official_name": "Giant Food", "shop": "supermarket", "addr:full": "6223 Baltimore National Pike", "addr:city": "Catonsville", "addr:state": "MD", "addr:postcode": "21228", "addr:country": "US", "name": "Giant Food Giant Plaza", "phone": "(410) 788-8023", "website": "https://stores.giantfood.com/md/catonsville/6223-baltimore-national-pike", "opening_hours": "Mo-Su 12:00-24:00", "brand": "Giant Food", "brand:wikidata": "Q5558336", "nsi_id": "giant-fc203b"}, "geometry": {"type": "Point", "coordinates": [-76.7529246, 39.2816709]}},
{"type": "Feature", "id": "fOQhE_F--I4VJE5YJmUJ9xl4CkM=", "properties": {"ref": "0123", "@spider": "giantfood", "official_name": "Giant Food", "shop": "supermarket", "addr:full": "7074 Allentown Rd", "addr:city": "Camp Springs", "addr:state": "MD", "addr:postcode": "20748", "addr:country": "US", "name": "Giant Food Padgetts Corner", "phone": "(301) 248-9578", "website": "https://stores.giantfood.com/md/camp-springs/7074-allentown-rd", "opening_hours": "Mo-Sa 06:00-24:00; Su 06:00-23:00", "brand": "Giant Food", "brand:wikidata": "Q5558336", "nsi_id": "giant-fc203b"}, "geometry": {"type": "Point", "coordinates": [-76.9264567, 38.7922537]}},
{"type": "Feature", "id": "_N223rCOI0YVTih5KNJB9ItlxHg=", "properties": {"ref": "0359", "@spider": "giantfood", "official_name": "Giant Food", "shop": "supermarket", "addr:full": "45101 First Colony Way", "addr:city": "California", "addr:state": "MD", "addr:postcode": "20619", "addr:country": "US", "name": "Giant Food First Colony", "phone": "(240) 725-5198", "website": "https://stores.giantfood.com/md/california/45101-first-colony-way", "opening_hours": "Mo-Sa 06:00-24:00; Su 06:00-23:00", "brand": "Giant Food", "brand:wikidata": "Q5558336", "nsi_id": "giant-fc203b"}, "geometry": {"type": "Point", "coordinates": [-76.5151194, 38.2981202]}},
{"type": "Feature", "id": "wdblBpEIlRxp_qhRtbS5JXchr5A=", "properties": {"ref": "2301", "@spider": "giantfood", "official_name": "Giant Food", "shop": "supermarket", "addr:full": "15618 Columbia Pike", "addr:city": "Burtonsville", "addr:state": "MD", "addr:postcode": "20866", "addr:country": "US", "name": "Giant Food Burtonsville", "phone": "(301) 476-7181", "website": "https://stores.giantfood.com/md/burtonsville/15618-columbia-pike", "opening_hours": "Mo-Sa 06:00-24:00; Su 06:00-23:00", "brand": "Giant Food", "brand:wikidata": "Q5558336", "nsi_id": "giant-fc203b"}, "geometry": {"type": "Point", "coordinates": [-76.93551778793335, 39.11319262883081]}},
{"type": "Feature", "id": "p6AN3hlSmb3mXPuKwnsYA0O0KFg=", "properties": {"ref": "0364", "@spider": "giantfood", "official_name": "Giant Food", "shop": "supermarket", "addr:full": "1401 Rock Spring Road", "addr:city": "Bel Air", "addr:state": "MD", "addr:postcode": "21014", "addr:country": "US", "name": "Giant Food Rock Springs Shopping Center", "phone": "(410) 420-2960", "website": "https://stores.giantfood.com/md/bel-air/1401-rock-spring-road", "opening_hours": "Mo-Sa 06:00-24:00; Su 06:00-23:00", "brand": "Giant Food", "brand:wikidata": "Q5558336", "nsi_id": "giant-fc203b"}, "geometry": {"type": "Point", "coordinates": [-76.3674669, 39.5570535]}},
{"type": "Feature", "id": "XJ_6L1qPCKBPr50xiKv8P-bLpT8=", "properties": {"ref": "2333", "@spider": "giantfood", "official_name": "Giant Food", "shop": "supermarket", "addr:full": "857 East Fort Avenue", "addr:city": "Baltimore City", "addr:state": "MD", "addr:postcode": "21230", "addr:country": "US", "name": "Giant Food Baltimore City", "website": "https://stores.giantfood.com/md/baltimore-city/857-east-fort-avenue", "opening_hours": "Mo-Sa 06:00-24:00; Su 06:00-23:00", "brand": "Giant Food", "brand:wikidata": "Q5558336", "nsi_id": "giant-fc203b"}, "geometry": {"type": "Point", "coordinates": [-76.6037899, 39.2704261]}},
{"type": "Feature", "id": "73v1JOpOz2Ozo1SdYG8biEMEHZw=", "properties": {"ref": "0338", "@spider": "giantfood", "official_name": "Giant Food", "shop": "supermarket", "addr:full": "7025 Berry Road", "addr:city": "Accokeek", "addr:state": "MD", "addr:postcode": "20607", "addr:country": "US", "name": "Giant Food Manokeek Village Center", "phone": "(301) 893-3100", "website": "https://stores.giantfood.com/md/accokeek/7025-berry-road", "opening_hours": "Mo-Sa 06:00-24:00; Su 06:00-23:00", "brand": "Giant Food", "brand:wikidata": "Q5558336", "nsi_id": "giant-fc203b"}, "geometry": {"type": "Point", "coordinates": [-77.0166234, 38.6603168]}},
{"type": "Feature", "id": "UL80yRkvg98O2NowWmh_RzK4mu4=", "properties": {"ref": "0365", "@spider": "giantfood", "official_name": "Giant Food", "shop": "supermarket", "addr:full": "3299 Emmorton Road", "addr:city": "Abingdon", "addr:state": "MD", "addr:postcode": "21009", "addr:country": "US", "name": "Giant Food Abingdon", "phone": "(410) 420-3160", "website": "https://stores.giantfood.com/md/abingdon/3299-emmorton-road", "opening_hours": "Mo-Sa 06:00-24:00; Su 06:00-23:00", "brand": "Giant Food", "brand:wikidata": "Q5558336", "nsi_id": "giant-fc203b"}, "geometry": {"type": "Point", "coordinates": [-76.30816385149956, 39.47278365483326]}},
{"type": "Feature", "id": "aAa4tPbnvATQNkW9TehqlgzC1A0=", "properties": {"ref": "0763", "@spider": "giantfood", "official_name": "Giant Food", "shop": "supermarket", "addr:full": "359 Maple Avenue East", "addr:city": "Vienna", "addr:state": "VA", "addr:postcode": "22180", "addr:country": "US", "name": "Giant Food Vienna", "phone": "(703) 281-9257", "website": "https://stores.giantfood.com/va/vienna/359-maple-avenue-east", "opening_hours": "Mo-Sa 06:00-24:00; Su 06:00-23:00", "brand": "Giant Food", "brand:wikidata": "Q5558336", "nsi_id": "giant-fc203b"}, "geometry": {"type": "Point", "coordinates": [-77.25804135203362, 38.9053632651142]}},
{"type": "Feature", "id": "SYECcS2bM9PQWLJk4kkWM0qp4a8=", "properties": {"ref": "0300", "@spider": "giantfood", "official_name": "Giant Food", "shop": "supermarket", "addr:full": "8805 Centre Park Drive", "addr:city": "Columbia", "addr:state": "MD", "addr:postcode": "21045", "addr:country": "US", "name": "Giant Food Columbia Palace", "phone": "(443) 364-5180", "website": "https://stores.giantfood.com/md/columbia/8805-centre-park-drive", "opening_hours": "Mo-Sa 06:00-24:00; Su 06:00-23:00", "brand": "Giant Food", "brand:wikidata": "Q5558336", "nsi_id": "giant-fc203b"}, "geometry": {"type": "Point", "coordinates": [-76.8169075, 39.2277922]}},
{"type": "Feature", "id": "KUbXMltjLQvahbsmokQGibkgZvc=", "properties": {"ref": "0155", "@spider": "giantfood", "official_name": "Giant Food", "shop": "supermarket", "addr:full": "7200 Cradlerock Way", "addr:city": "Columbia", "addr:state": "MD", "addr:postcode": "21045", "addr:country": "US", "name": "Giant Food Owen Brown Village Center", "phone": "(410) 995-6893", "website": "https://stores.giantfood.com/md/columbia/7200-cradlerock-way", "opening_hours": "Mo-Sa 06:00-24:00; Su 06:00-23:00", "brand": "Giant Food", "brand:wikidata": "Q5558336", "nsi_id": "giant-fc203b"}, "geometry": {"type": "Point", "coordinates": [-76.8425446, 39.1864367]}},
{"type": "Feature", "id": "7NDcR5iEeAKbV-59MS8CwZ35wMs=", "properties": {"ref": "0111", "@spider": "giantfood", "official_name": "Giant Food", "shop": "supermarket", "addr:full": "6480 Freetown Rd", "addr:city": "Columbia", "addr:state": "MD", "addr:postcode": "21044", "addr:country": "US", "name": "Giant Food Hickory Ridge Village", "phone": "(410) 531-3752", "website": "https://stores.giantfood.com/md/columbia/6480-freetown-rd", "opening_hours": "Mo-Sa 06:00-24:00; Su 06:00-23:00", "brand": "Giant Food", "brand:wikidata": "Q5558336", "nsi_id": "giant-fc203b"}, "geometry": {"type": "Point", "coordinates": [-76.88396573066711, 39.19455936149471]}},
{"type": "Feature", "id": "4TDmqmDx6lUopifnV3P1T0v_tCg=", "properties": {"ref": "0243", "@spider": "giantfood", "official_name": "Giant Food", "shop": "supermarket", "addr:full": "317 Worth Avenue", "addr:city": "Stafford", "addr:state": "VA", "addr:postcode": "22554", "addr:country": "US", "name": "Giant Food Doc Stone Commons", "phone": "(540) 657-5006", "website": "https://stores.giantfood.com/va/stafford/317-worth-avenue", "opening_hours": "Mo-Sa 06:00-24:00; Su 06:00-23:00", "brand": "Giant Food", "brand:wikidata": "Q5558336", "nsi_id": "giant-fc203b"}, "geometry": {"type": "Point", "coordinates": [-77.417038, 38.4770668]}},
{"type": "Feature", "id": "kDOX2Pk05VcaDxKNbLOO8cACq74=", "properties": {"ref": "0256", "@spider": "giantfood", "official_name": "Giant Food", "shop": "supermarket", "addr:full": "10346 Courthouse Road", "addr:city": "Spotsylvania", "addr:state": "VA", "addr:postcode": "22553", "addr:country": "US", "name": "Giant Food Hilltop Shopping Center", "phone": "(540) 710-9310", "website": "https://stores.giantfood.com/va/spotsylvania/10346-courthouse-road", "opening_hours": "Mo-Sa 06:00-24:00; Su 06:00-23:00", "brand": "Giant Food", "brand:wikidata": "Q5558336", "nsi_id": "giant-fc203b"}, "geometry": {"type": "Point", "coordinates": [-77.52907454967499, 38.245292081173375]}},
{"type": "Feature", "id": "4rxLbR8ds8q59F6LKmBL7tuF88o=", "properties": {"ref": "0747", "@spider": "giantfood", "official_name": "Giant Food", "shop": "supermarket", "addr:full": "1450 North Point Village Ctr", "addr:city": "Reston", "addr:state": "VA", "addr:postcode": "20194", "addr:country": "US", "name": "Giant Food North Point Village Ctr.", "phone": "(703) 437-0031", "website": "https://stores.giantfood.com/va/reston/1450-north-point-village-ctr", "opening_hours": "Mo-Sa 06:00-24:00; Su 06:00-23:00", "brand": "Giant Food", "brand:wikidata": "Q5558336", "nsi_id": "giant-fc203b"}, "geometry": {"type": "Point", "coordinates": [-77.3502631, 38.979411]}},
{"type": "Feature", "id": "ML9mVIS2ktYkUxBiOuQrhD9Zd3M=", "properties": {"ref": "0330", "@spider": "giantfood", "official_name": "Giant Food", "shop": "supermarket", "addr:full": "3500 NW Crain Hwy", "addr:city": "Bowie", "addr:state": "MD", "addr:postcode": "20716", "addr:country": "US", "name": "Giant Food Collington Plaza", "phone": "(301) 352-2360", "website": "https://stores.giantfood.com/md/bowie/3500-nw-crain-hwy", "opening_hours": "Mo-Sa 06:00-24:00; Su 06:00-23:00", "brand": "Giant Food", "brand:wikidata": "Q5558336", "nsi_id": "giant-fc203b"}, "geometry": {"type": "Point", "coordinates": [-76.7202298, 38.9377914]}},
{"type": "Feature", "id": "8kADd542G4izz2uABr9kr1YVpSQ=", "properties": {"ref": "0327", "@spider": "giantfood", "official_name": "Giant Food", "shop": "supermarket", "addr:full": "7142 Arlington Road", "addr:city": "Bethesda", "addr:state": "MD", "addr:postcode": "20814", "addr:country": "US", "name": "Giant Food Bethesda Row West", "phone": "(301) 492-5160", "website": "https://stores.giantfood.com/md/bethesda/7142-arlington-road", "opening_hours": "Mo-Sa 06:00-24:00; Su 06:00-23:00", "brand": "Giant Food", "brand:wikidata": "Q5558336", "nsi_id": "giant-fc203b"}, "geometry": {"type": "Point", "coordinates": [-77.0989277, 38.981248]}},
{"type": "Feature", "id": "mHS7-ezepRkjg-hwUOACUr2Sqoo=", "properties": {"ref": "0357", "@spider": "giantfood", "official_name": "Giant Food", "shop": "supermarket", "addr:full": "5400 Westbard Ave", "addr:city": "Bethesda", "addr:state": "MD", "addr:postcode": "20816", "addr:country": "US", "name": "Giant Food Westwood Shopping Center", "phone": "(301) 652-1484", "website": "https://stores.giantfood.com/md/bethesda/5400-westbard-ave", "opening_hours": "Mo-Sa 06:00-24:00; Su 06:00-23:00", "brand": "Giant Food", "brand:wikidata": "Q5558336", "nsi_id": "giant-fc203b"}, "geometry": {"type": "Point", "coordinates": [-77.1073105931282, 38.963821918393215]}},
{"type": "Feature", "id": "4t21BFB-eyj8tndN-iO_CxTV6j0=", "properties": {"ref": "0132", "@spider": "giantfood", "official_name": "Giant Food", "shop": "supermarket", "addr:full": "10400 Old Georgetown Rd", "addr:city": "Bethesda", "addr:state": "MD", "addr:postcode": "20814", "addr:country": "US", "name": "Giant Food Georgetown Square", "phone": "(301) 897-9139", "website": "https://stores.giantfood.com/md/bethesda/10400-old-georgetown-rd", "opening_hours": "Mo-Su 12:00-24:00", "brand": "Giant Food", "brand:wikidata": "Q5558336", "nsi_id": "giant-fc203b"}, "geometry": {"type": "Point", "coordinates": [-77.1276208, 39.0262581]}},
{"type": "Feature", "id": "dt4y8KZZ6UDaqnc0aKObhjw9ORg=", "properties": {"ref": "0131", "@spider": "giantfood", "official_name": "Giant Food", "shop": "supermarket", "addr:full": "8665 Philadelphia Rd", "addr:city": "Baltimore", "addr:state": "MD", "addr:postcode": "21237", "addr:country": "US", "name": "Giant Food Golden Ring Mall", "phone": "(410) 687-1007", "website": "https://stores.giantfood.com/md/baltimore/8665-philadelphia-rd", "opening_hours": "Mo-Sa 06:00-24:00; Su 06:00-23:00", "brand": "Giant Food", "brand:wikidata": "Q5558336", "nsi_id": "giant-fc203b"}, "geometry": {"type": "Point", "coordinates": [-76.4851974, 39.3376815]}},
{"type": "Feature", "id": "Uk_wqxvVkzKty61zeI9V08_WYHc=", "properties": {"ref": "0167", "@spider": "giantfood", "official_name": "Giant Food", "shop": "supermarket", "addr:full": "948 Bay Ridge Rd", "addr:city": "Annapolis", "addr:state": "MD", "addr:postcode": "21403", "addr:country": "US", "name": "Giant Food Bay Forest Center", "phone": "(410) 267-0228", "website": "https://stores.giantfood.com/md/annapolis/948-bay-ridge-rd", "opening_hours": "Mo-Sa 06:00-24:00; Su 06:00-23:00", "brand": "Giant Food", "brand:wikidata": "Q5558336", "nsi_id": "giant-fc203b"}, "geometry": {"type": "Point", "coordinates": [-76.48658841848373, 38.94862926511866]}},
{"type": "Feature", "id": "QznOoG3nxLuuHn2757wBPaanXRE=", "properties": {"ref": "0194", "@spider": "giantfood", "official_name": "Giant Food", "shop": "supermarket", "addr:full": "2323 Forest Drive", "addr:city": "Annapolis", "addr:state": "MD", "addr:postcode": "21401", "addr:country": "US", "name": "Giant Food Festival At Riva", "phone": "(410) 266-9316", "website": "https://stores.giantfood.com/md/annapolis/2323-forest-drive", "opening_hours": "Mo-Sa 06:00-24:00; Su 06:00-23:00", "brand": "Giant Food", "brand:wikidata": "Q5558336", "nsi_id": "giant-fc203b"}, "geometry": {"type": "Point", "coordinates": [-76.545635, 38.9780588]}},
{"type": "Feature", "id": "qKc4p1TKWSZ-K4tVlxhRsHVtFZY=", "properties": {"ref": "0197", "@spider": "giantfood", "official_name": "Giant Food", "shop": "supermarket", "addr:full": "7944 Honeygo Blvd", "addr:city": "Baltimore", "addr:state": "MD", "addr:postcode": "21236", "addr:country": "US", "name": "Giant Food White Marsh Mall", "phone": "(410) 931-6818", "website": "https://stores.giantfood.com/md/baltimore/7944-honeygo-blvd", "opening_hours": "Mo-Sa 06:00-24:00; Su 06:00-23:00", "brand": "Giant Food", "brand:wikidata": "Q5558336", "nsi_id": "giant-fc203b"}, "geometry": {"type": "Point", "coordinates": [-76.4721121, 39.37354]}},
{"type": "Feature", "id": "YsvGJrFokYS_1Le4KZbGoLB2gRw=", "properties": {"ref": "0144", "@spider": "giantfood", "official_name": "Giant Food", "shop": "supermarket", "addr:full": "7920-30 Belair Road", "addr:city": "Baltimore", "addr:state": "MD", "addr:postcode": "21236", "addr:country": "US", "name": "Giant Food Putty Hill Plaza", "phone": "(410) 661-8885", "website": "https://stores.giantfood.com/md/baltimore/7920-30-belair-road", "opening_hours": "Mo-Sa 06:00-24:00; Su 06:00-23:00", "brand": "Giant Food", "brand:wikidata": "Q5558336", "nsi_id": "giant-fc203b"}, "geometry": {"type": "Point", "coordinates": [-76.5114265, 39.3742738]}},
{"type": "Feature", "id": "KFVf2zh6hcj66O3-jeX0RefS6Fk=", "properties": {"ref": "0337", "@spider": "giantfood", "official_name": "Giant Food", "shop": "supermarket", "addr:full": "6620 Reisterstown Road", "addr:city": "Baltimore", "addr:state": "MD", "addr:postcode": "21215", "addr:country": "US", "name": "Giant Food Reisterstown Road Plaza", "phone": "(410) 649-8180", "website": "https://stores.giantfood.com/md/baltimore/6620-reisterstown-road", "opening_hours": "Mo-Sa 06:00-24:00; Su 06:00-23:00", "brand": "Giant Food", "brand:wikidata": "Q5558336", "nsi_id": "giant-fc203b"}, "geometry": {"type": "Point", "coordinates": [-76.7067078, 39.3575143]}},
{"type": "Feature", "id": "jXIkfqdwZZJ7mjTjjlZ7b1MNzXI=", "properties": {"ref": "0108", "@spider": "giantfood", "official_name": "Giant Food", "shop": "supermarket", "addr:full": "6340-50 York Rd", "addr:city": "Baltimore", "addr:state": "MD", "addr:postcode": "21212", "addr:country": "US", "name": "Giant Food York Road Plaza (Off Gittings)", "phone": "(410) 377-2673", "website": "https://stores.giantfood.com/md/baltimore/6340-50-york-rd", "opening_hours": "Mo-Sa 06:00-24:00; Su 06:00-23:00", "brand": "Giant Food", "brand:wikidata": "Q5558336", "nsi_id": "giant-fc203b"}, "geometry": {"type": "Point", "coordinates": [-76.61189317703247, 39.37309382475715]}},
{"type": "Feature", "id": "VW3rJut2gZldU0H2x2PmANS3vG4=", "properties": {"ref": "0303", "@spider": "giantfood", "official_name": "Giant Food", "shop": "supermarket", "addr:full": "601 East 33rd St", "addr:city": "Baltimore", "addr:state": "MD", "addr:postcode": "21218", "addr:country": "US", "name": "Giant Food Waverly Crossroads", "phone": "(410) 649-4180", "website": "https://stores.giantfood.com/md/baltimore/601-east-33rd-st", "opening_hours": "Mo-Su 06:00-22:00", "brand": "Giant Food", "brand:wikidata": "Q5558336", "nsi_id": "giant-fc203b"}, "geometry": {"type": "Point", "coordinates": [-76.6077651, 39.327816]}},
{"type": "Feature", "id": "ZRIaOQXF1GCu6iix4BA06OgGX8c=", "properties": {"ref": "0762", "@spider": "giantfood", "official_name": "Giant Food", "shop": "supermarket", "addr:full": "21800 Town Center Plaza #226", "addr:city": "Sterling", "addr:state": "VA", "addr:postcode": "20164", "addr:country": "US", "name": "Giant Food Sterling Town Center", "phone": "(703) 430-6115", "website": "https://stores.giantfood.com/va/sterling/21800-town-center-plaza", "opening_hours": "Mo-Sa 06:00-24:00; Su 06:00-23:00", "brand": "Giant Food", "brand:wikidata": "Q5558336", "nsi_id": "giant-fc203b"}, "geometry": {"type": "Point", "coordinates": [-77.37324625253677, 39.01351107981982]}},
{"type": "Feature", "id": "eG1ollJj0zn-SfHfl5EUjmvKmMg=", "properties": {"ref": "0794", "@spider": "giantfood", "official_name": "Giant Food", "shop": "supermarket", "addr:full": "21000 Southbank Street Ste 150", "addr:city": "Sterling", "addr:state": "VA", "addr:postcode": "20165", "addr:country": "US", "name": "Giant Food Cascades Marketplace", "phone": "(703) 430-1100", "website": "https://stores.giantfood.com/va/sterling/21000-southbank-street", "opening_hours": "Mo-Sa 06:00-24:00; Su 06:00-23:00", "brand": "Giant Food", "brand:wikidata": "Q5558336", "nsi_id": "giant-fc203b"}, "geometry": {"type": "Point", "coordinates": [-77.3955904, 39.0343228]}},
{"type": "Feature", "id": "eQwJuX97ssTVnfyUWt1JZCMk0ds=", "properties": {"ref": "2743", "@spider": "giantfood", "official_name": "Giant Food", "shop": "supermarket", "addr:full": "8970 Burke Lake Road", "addr:city": "Springfield", "addr:state": "VA", "addr:postcode": "22151", "addr:country": "US", "name": "Giant Food Springfield", "phone": "(571) 328-7996", "website": "https://stores.giantfood.com/va/springfield/8970-burke-lake-road", "opening_hours": "Mo-Sa 06:00-24:00; Su 06:00-23:00", "brand": "Giant Food", "brand:wikidata": "Q5558336", "nsi_id": "giant-fc203b"}, "geometry": {"type": "Point", "coordinates": [-77.25452363491058, 38.80939548593797]}},
{"type": "Feature", "id": "lkpCmapL1dhrzfJtYZ-AyAUzDXU=", "properties": {"ref": "0756", "@spider": "giantfood", "official_name": "Giant Food", "shop": "supermarket", "addr:full": "8320 Old Keene Mill Rd", "addr:city": "Springfield", "addr:state": "VA", "addr:postcode": "22152", "addr:country": "US", "name": "Giant Food Cardinal Forest Plaza", "phone": "(703) 912-6384", "website": "https://stores.giantfood.com/va/springfield/8320-old-keene-mill-rd", "opening_hours": "Mo-Sa 06:00-24:00; Su 06:00-23:00", "brand": "Giant Food", "brand:wikidata": "Q5558336", "nsi_id": "giant-fc203b"}, "geometry": {"type": "Point", "coordinates": [-77.23210036754608, 38.780881204148336]}},
{"type": "Feature", "id": "nwpTB0TqX0d-IzPhN9GFcItVV5Q=", "properties": {"ref": "0229", "@spider": "giantfood", "official_name": "Giant Food", "shop": "supermarket", "addr:full": "8074 Rolling Road", "addr:city": "Springfield", "addr:state": "VA", "addr:postcode": "22153", "addr:country": "US", "name": "Giant Food Saratoga Shopping Center", "phone": "(703) 912-6483", "website": "https://stores.giantfood.com/va/springfield/8074-rolling-road", "opening_hours": "Mo-Sa 06:00-24:00; Su 06:00-23:00", "brand": "Giant Food", "brand:wikidata": "Q5558336", "nsi_id": "giant-fc203b"}, "geometry": {"type": "Point", "coordinates": [-77.2134798, 38.7397537]}},
{"type": "Feature", "id": "q6BW_AuQuFqswGHsFyTMwDrDbbs=", "properties": {"ref": "0795", "@spider": "giantfood", "official_name": "Giant Food", "shop": "supermarket", "addr:full": "7501 Huntsman Blvd", "addr:city": "Springfield", "addr:state": "VA", "addr:postcode": "22153", "addr:country": "US", "name": "Giant Food Huntsman Square", "phone": "(703) 866-3009", "website": "https://stores.giantfood.com/va/springfield/7501-huntsman-blvd", "opening_hours": "Mo-Sa 06:00-24:00; Su 06:00-23:00", "brand": "Giant Food", "brand:wikidata": "Q5558336", "nsi_id": "giant-fc203b"}, "geometry": {"type": "Point", "coordinates": [-77.2646047, 38.7520892]}},
{"type": "Feature", "id": "tx-VlR2kJxEvGdKrFsbdO2Wdqss=", "properties": {"ref": "2745", "@spider": "giantfood", "official_name": "Giant Food", "shop": "supermarket", "addr:full": "6364A Springfield Plaza", "addr:city": "Springfield", "addr:state": "VA", "addr:postcode": "22150", "addr:country": "US", "name": "Giant Food Springfield", "phone": "(703) 569-9277", "website": "https://stores.giantfood.com/va/springfield/6364a-springfield-plaza", "opening_hours": "Mo-Sa 06:00-24:00; Su 06:00-23:00", "brand": "Giant Food", "brand:wikidata": "Q5558336", "nsi_id": "giant-fc203b"}, "geometry": {"type": "Point", "coordinates": [-77.1884638, 38.7819802]}},
{"type": "Feature", "id": "zQ46GYYm_5upntDKVsklkFev2-Y=", "properties": {"ref": "0145", "@spider": "giantfood", "official_name": "Giant Food", "shop": "supermarket", "addr:full": "5150 Sinclair Lane", "addr:city": "Baltimore", "addr:state": "MD", "addr:postcode": "21206", "addr:country": "US", "name": "Giant Food Parkside", "phone": "(410) 483-6674", "website": "https://stores.giantfood.com/md/baltimore/5150-sinclair-lane", "opening_hours": "Mo-Sa 06:00-24:00; Su 06:00-23:00", "brand": "Giant Food", "brand:wikidata": "Q5558336", "nsi_id": "giant-fc203b"}, "geometry": {"type": "Point", "coordinates": [-76.5448468, 39.3235931]}},
{"type": "Feature", "id": "PVU9NUcXw5ZleT7yvNa3BHUgH3c=", "properties": {"ref": "0317", "@spider": "giantfood", "official_name": "Giant Food", "shop": "supermarket", "addr:full": "4624 Edmondson Avenue", "addr:city": "Baltimore", "addr:state": "MD", "addr:postcode": "21229", "addr:country": "US", "name": "Giant Food Edmondson Square", "phone": "(410) 362-1371", "website": "https://stores.giantfood.com/md/baltimore/4624-edmondson-avenue", "opening_hours": "Mo-Su 06:00-22:00", "brand": "Giant Food", "brand:wikidata": "Q5558336", "nsi_id": "giant-fc203b"}, "geometry": {"type": "Point", "coordinates": [-76.6957385, 39.2938967]}},
{"type": "Feature", "id": "smqz2YaPEod-Ybt8mG6kHSPvQ40=", "properties": {"ref": "0166", "@spider": "giantfood", "official_name": "Giant Food", "shop": "supermarket", "addr:full": "4622 Wilkens Ave", "addr:city": "Baltimore", "addr:state": "MD", "addr:postcode": "21229", "addr:country": "US", "name": "Giant Food Wilkens Beltway Plz", "phone": "(410) 242-4669", "website": "https://stores.giantfood.com/md/baltimore/4622-wilkens-ave", "opening_hours": "Mo-Sa 06:00-24:00; Su 06:00-23:00", "brand": "Giant Food", "brand:wikidata": "Q5558336", "nsi_id": "giant-fc203b"}, "geometry": {"type": "Point", "coordinates": [-76.6986217, 39.266147]}},
{"type": "Feature", "id": "bzDU_fmxE8d5W8Eg72v2CqutPVU=", "properties": {"ref": "2306", "@spider": "giantfood", "official_name": "Giant Food", "shop": "supermarket", "addr:full": "1020 W 41st Street", "addr:city": "Baltimore", "addr:state": "MD", "addr:postcode": "21211", "addr:country": "US", "name": "Giant Food Baltimore", "phone": "(410) 554-3730", "website": "https://stores.giantfood.com/md/baltimore/1020-w-41st-street", "opening_hours": "Mo-Sa 06:00-24:00; Su 06:00-23:00", "brand": "Giant Food", "brand:wikidata": "Q5558336", "nsi_id": "giant-fc203b"}, "geometry": {"type": "Point", "coordinates": [-76.6353312, 39.338724]}},
{"type": "Feature", "id": "SxlkkQJ_7f5mbrDQFJDsb6eh5pQ=", "properties": {"ref": "0310", "@spider": "giantfood", "official_name": "Giant Food", "shop": "supermarket", "addr:full": "15520 Annapolis Road", "addr:city": "Bowie", "addr:state": "MD", "addr:postcode": "20715", "addr:country": "US", "name": "Giant Food Free State Mall", "phone": "(301) 809-3150", "website": "https://stores.giantfood.com/md/bowie/15520-annapolis-road", "opening_hours": "Mo-Sa 06:00-24:00; Su 06:00-23:00", "brand": "Giant Food", "brand:wikidata": "Q5558336", "nsi_id": "giant-fc203b"}, "geometry": {"type": "Point", "coordinates": [-76.7355927, 38.9816445]}},
{"type": "Feature", "id": "8yiBrpJi3vnGQLCtmzFL9EbjkFk=", "properties": {"ref": "0252", "@spider": "giantfood", "official_name": "Giant Food", "shop": "supermarket", "addr:full": "1000 East Main Street", "addr:city": "Purcellville", "addr:state": "VA", "addr:postcode": "20132", "addr:country": "US", "name": "Giant Food Main Street Station", "phone": "(703) 443-6360", "website": "https://stores.giantfood.com/va/purcellville/1000-east-main-street", "opening_hours": "Mo-Sa 06:00-24:00; Su 06:00-23:00", "brand": "Giant Food", "brand:wikidata": "Q5558336", "nsi_id": "giant-fc203b"}, "geometry": {"type": "Point", "coordinates": [-77.7002717, 39.1355941]}},
{"type": "Feature", "id": "jd9GnjSRTyRBF-kQZ_8NnrsDJ3s=", "properties": {"ref": "0231", "@spider": "giantfood", "official_name": "Giant Food", "shop": "supermarket", "addr:full": "2932 Chain Bridge Road", "addr:city": "Oakton", "addr:state": "VA", "addr:postcode": "22124", "addr:country": "US", "name": "Giant Food Oakton", "phone": "(703) 242-2368", "website": "https://stores.giantfood.com/va/oakton/2932-chain-bridge-road", "opening_hours": "Mo-Sa 06:00-24:00; Su 06:00-23:00", "brand": "Giant Food", "brand:wikidata": "Q5558336", "nsi_id": "giant-fc203b"}, "geometry": {"type": "Point", "coordinates": [-77.30005413293839, 38.88398448814609]}},
{"type": "Feature", "id": "p6NSjdmrzFnSnrlUAssvhy0HLso=", "properties": {"ref": "0744", "@spider": "giantfood", "official_name": "Giant Food", "shop": "supermarket", "addr:full": "5740 Union Mill Rd", "addr:city": "Clifton", "addr:state": "VA", "addr:postcode": "20124", "addr:country": "US", "name": "Giant Food Colonnade", "phone": "(703) 818-0776", "website": "https://stores.giantfood.com/va/clifton/5740-union-mill-rd", "opening_hours": "Mo-Sa 06:00-24:00; Su 06:00-23:00", "brand": "Giant Food", "brand:wikidata": "Q5558336", "nsi_id": "giant-fc203b"}, "geometry": {"type": "Point", "coordinates": [-77.4138125, 38.8343727]}},
{"type": "Feature", "id": "-dleck_nWto0c65Qznu4_v8oqOs=", "properties": {"ref": "0251", "@spider": "giantfood", "official_name": "Giant Food", "shop": "supermarket", "addr:full": "1900 Abbey Road", "addr:city": "Charlottesville", "addr:state": "VA", "addr:postcode": "22911", "addr:country": "US", "name": "Giant Food Rivanna Ridge", "phone": "(434) 244-4300", "website": "https://stores.giantfood.com/va/charlottesville/1900-abbey-road", "opening_hours": "Mo-Sa 06:00-24:00; Su 06:00-23:00", "brand": "Giant Food", "brand:wikidata": "Q5558336", "nsi_id": "giant-fc203b"}, "geometry": {"type": "Point", "coordinates": [-78.4459324, 38.0296747]}},
{"type": "Feature", "id": "18lKWklkHY3hL088FUI14xU2dVs=", "properties": {"ref": "0237", "@spider": "giantfood", "official_name": "Giant Food", "shop": "supermarket", "addr:full": "25050 Riding Plaza Suite 100", "addr:city": "Chantilly", "addr:state": "VA", "addr:postcode": "20152", "addr:country": "US", "name": "Giant Food South Riding Plaza", "phone": "(703) 542-2950", "website": "https://stores.giantfood.com/va/chantilly/25050-riding-plaza", "opening_hours": "Mo-Sa 06:00-24:00; Su 06:00-23:00", "brand": "Giant Food", "brand:wikidata": "Q5558336", "nsi_id": "giant-fc203b"}, "geometry": {"type": "Point", "coordinates": [-77.5205648, 38.9246332]}},
{"type": "Feature", "id": "F4kOfIClCwC1ODNalASNiqVXAIE=", "properties": {"ref": "0783", "@spider": "giantfood", "official_name": "Giant Food", "shop": "supermarket", "addr:full": "6011 Burke Ctr Parkway", "addr:city": "Burke", "addr:state": "VA", "addr:postcode": "22015", "addr:country": "US", "name": "Giant Food Burke Center", "phone": "(703) 425-0360", "website": "https://stores.giantfood.com/va/burke/6011-burke-ctr-parkway", "opening_hours": "Mo-Sa 06:00-24:00; Su 06:00-23:00", "brand": "Giant Food", "brand:wikidata": "Q5558336", "nsi_id": "giant-fc203b"}, "geometry": {"type": "Point", "coordinates": [-77.2969776391983, 38.78754670735968]}},
{"type": "Feature", "id": "rCZ0ziKTFNHxB-B2q-V2_fsR9Qo=", "properties": {"ref": "0740", "@spider": "giantfood", "official_name": "Giant Food", "shop": "supermarket", "addr:full": "5615 Stone Rd", "addr:city": "Centreville", "addr:state": "VA", "addr:postcode": "20120", "addr:country": "US", "name": "Giant Food Sully Station", "phone": "(703) 803-9698", "website": "https://stores.giantfood.com/va/centreville/5615-stone-rd", "opening_hours": "Mo-Su 06:00-22:00", "brand": "Giant Food", "brand:wikidata": "Q5558336", "nsi_id": "giant-fc203b"}, "geometry": {"type": "Point", "coordinates": [-77.44926542043686, 38.854017071538976]}},
{"type": "Feature", "id": "dLp88SQDoTrz0VQiKGHKi9MGPzQ=", "properties": {"ref": "0788", "@spider": "giantfood", "official_name": "Giant Food", "shop": "supermarket", "addr:full": "14125 St Germain Dr", "addr:city": "Centreville", "addr:state": "VA", "addr:postcode": "20121", "addr:country": "US", "name": "Giant Food Centrewood Plaza", "phone": "(703) 631-3310", "website": "https://stores.giantfood.com/va/centreville/14125-st-germain-dr", "opening_hours": "Mo-Sa 06:00-24:00; Su 06:00-23:00", "brand": "Giant Food", "brand:wikidata": "Q5558336", "nsi_id": "giant-fc203b"}, "geometry": {"type": "Point", "coordinates": [-77.438187, 38.836146]}},
{"type": "Feature", "id": "3q8l0wNFfPJCFItybP3POT0p4bM=", "properties": {"ref": "0797", "@spider": "giantfood", "official_name": "Giant Food", "shop": "supermarket", "addr:full": "44110 Ashburn Shopping Plz", "addr:city": "Ashburn", "addr:state": "VA", "addr:postcode": "20147", "addr:country": "US", "name": "Giant Food Ashburn Village", "phone": "(703) 729-3877", "website": "https://stores.giantfood.com/va/ashburn/44110-ashburn-shopping-plz", "opening_hours": "Mo-Sa 06:00-24:00; Su 06:00-23:00", "brand": "Giant Food", "brand:wikidata": "Q5558336", "nsi_id": "giant-fc203b"}, "geometry": {"type": "Point", "coordinates": [-77.4739193, 39.0445681]}},
{"type": "Feature", "id": "lVZXbkqUuo_i35H193s2BYFXjVo=", "properties": {"ref": "0791", "@spider": "giantfood", "official_name": "Giant Food", "shop": "supermarket", "addr:full": "43670 Greenway Corp Drive", "addr:city": "Ashburn", "addr:state": "VA", "addr:postcode": "20147", "addr:country": "US", "name": "Giant Food Ryan Park", "phone": "(571) 223-3848", "website": "https://stores.giantfood.com/va/ashburn/43670-greenway-corp-drive", "opening_hours": "Mo-Sa 06:00-24:00; Su 06:00-23:00", "brand": "Giant Food", "brand:wikidata": "Q5558336", "nsi_id": "giant-fc203b"}, "geometry": {"type": "Point", "coordinates": [-77.4915717, 39.0093597]}},
{"type": "Feature", "id": "jDfiDgaMCWaUvcAEh5cTcvTuk7c=", "properties": {"ref": "0262", "@spider": "giantfood", "official_name": "Giant Food", "shop": "supermarket", "addr:full": "43330 Junction Plaza", "addr:city": "Ashburn", "addr:state": "VA", "addr:postcode": "20147", "addr:country": "US", "name": "Giant Food Ashburn Farm Town Center", "phone": "(703) 723-2160", "website": "https://stores.giantfood.com/va/ashburn/43330-junction-plaza", "opening_hours": "Mo-Sa 06:00-24:00; Su 06:00-23:00", "brand": "Giant Food", "brand:wikidata": "Q5558336", "nsi_id": "giant-fc203b"}, "geometry": {"type": "Point", "coordinates": [-77.50122115015984, 39.03686339303936]}},
{"type": "Feature", "id": "UP6Ht0REK6Yo8XNqXREUCT6rEWM=", "properties": {"ref": "0743", "@spider": "giantfood", "official_name": "Giant Food", "shop": "supermarket", "addr:full": "3450 Washington Blvd", "addr:city": "Arlington", "addr:state": "VA", "addr:postcode": "22201", "addr:country": "US", "name": "Giant Food Virginia Square", "phone": "(703) 358-9343", "website": "https://stores.giantfood.com/va/arlington/3450-washington-blvd", "opening_hours": "Mo-Sa 06:00-24:00; Su 06:00-23:00", "brand": "Giant Food", "brand:wikidata": "Q5558336", "nsi_id": "giant-fc203b"}, "geometry": {"type": "Point", "coordinates": [-77.1029807031482, 38.885602995455535]}},
{"type": "Feature", "id": "VupxWsX6hmb49Ev_Y2J-7osU2x0=", "properties": {"ref": "0771", "@spider": "giantfood", "official_name": "Giant Food", "shop": "supermarket", "addr:full": "3115 Lee Hwy", "addr:city": "Arlington", "addr:state": "VA", "addr:postcode": "22201", "addr:country": "US", "name": "Giant Food Lyon Village", "phone": "(703) 527-9453", "website": "https://stores.giantfood.com/va/arlington/3115-lee-hwy", "opening_hours": "Mo-Sa 06:00-24:00; Su 06:00-23:00", "brand": "Giant Food", "brand:wikidata": "Q5558336", "nsi_id": "giant-fc203b"}, "geometry": {"type": "Point", "coordinates": [-77.0959809422493, 38.896863461676965]}},
{"type": "Feature", "id": "A8pvOiqZkbjDqP3T-CdeAZc18yA=", "properties": {"ref": "0748", "@spider": "giantfood", "official_name": "Giant Food", "shop": "supermarket", "addr:full": "2901-11 S Glebe Rd", "addr:city": "Arlington", "addr:state": "VA", "addr:postcode": "22206", "addr:country": "US", "name": "Giant Food Shirley Park", "phone": "(703) 836-0245", "website": "https://stores.giantfood.com/va/arlington/2901-11-s-glebe-rd", "opening_hours": "Mo-Sa 06:00-24:00; Su 06:00-23:00", "brand": "Giant Food", "brand:wikidata": "Q5558336", "nsi_id": "giant-fc203b"}, "geometry": {"type": "Point", "coordinates": [-77.06872165203094, 38.845728381491206]}},
{"type": "Feature", "id": "VTa2VSXKeCYgSqq038rIu_h5cz8=", "properties": {"ref": "0774", "@spider": "giantfood", "official_name": "Giant Food", "shop": "supermarket", "addr:full": "2501 9th Road South", "addr:city": "Arlington", "addr:state": "VA", "addr:postcode": "22204", "addr:country": "US", "name": "Giant Food (Col.Pike@S.Barton)", "phone": "(703) 271-2479", "website": "https://stores.giantfood.com/va/arlington/2501-9th-road-south", "opening_hours": "Mo-Sa 06:00-24:00; Su 06:00-23:00", "brand": "Giant Food", "brand:wikidata": "Q5558336", "nsi_id": "giant-fc203b"}, "geometry": {"type": "Point", "coordinates": [-77.08442062139511, 38.863975590890924]}},
{"type": "Feature", "id": "MKZwhZunwhc7HJbZxjTmw50tp_o=", "properties": {"ref": "0749", "@spider": "giantfood", "official_name": "Giant Food", "shop": "supermarket", "addr:full": "7137 Columbia Pike", "addr:city": "Annandale", "addr:state": "VA", "addr:postcode": "22003", "addr:country": "US", "name": "Giant Food Annandale Center", "phone": "(703) 354-5081", "website": "https://stores.giantfood.com/va/annandale/7137-columbia-pike", "opening_hours": "Mo-Sa 06:00-24:00; Su 06:00-23:00", "brand": "Giant Food", "brand:wikidata": "Q5558336", "nsi_id": "giant-fc203b"}, "geometry": {"type": "Point", "coordinates": [-77.19199061393738, 38.8305981968268]}},
{"type": "Feature", "id": "BhRBBDRmBAXZoKQ1hMp0Umr8tjc=", "properties": {"ref": "0249", "@spider": "giantfood", "official_name": "Giant Food", "shop": "supermarket", "addr:full": "6980 Braddock Road", "addr:city": "Annandale", "addr:state": "VA", "addr:postcode": "22003", "addr:country": "US", "name": "Giant Food Bradlick Shopping Center", "phone": "(703) 333-6360", "website": "https://stores.giantfood.com/va/annandale/6980-braddock-road", "opening_hours": "Mo-Sa 06:00-24:00; Su 06:00-23:00", "brand": "Giant Food", "brand:wikidata": "Q5558336", "nsi_id": "giant-fc203b"}, "geometry": {"type": "Point", "coordinates": [-77.1854808, 38.8132019]}},
{"type": "Feature", "id": "AdQr87phxI-zR9QRBPFkdis-ODg=", "properties": {"ref": "0760", "@spider": "giantfood", "official_name": "Giant Food", "shop": "supermarket", "addr:full": "6800 Richmond Hwy", "addr:city": "Alexandria", "addr:state": "VA", "addr:postcode": "22306", "addr:country": "US", "name": "Giant Food Beacon Mall", "phone": "(703) 768-6720", "website": "https://stores.giantfood.com/va/alexandria/6800-richmond-hwy", "opening_hours": "Mo-Sa 06:00-24:00; Su 06:00-23:00", "brand": "Giant Food", "brand:wikidata": "Q5558336", "nsi_id": "giant-fc203b"}, "geometry": {"type": "Point", "coordinates": [-77.0838364, 38.7708179]}},
{"type": "Feature", "id": "wur--7WDpmOZ4EoWkHW6DBuzKIU=", "properties": {"ref": "2742", "@spider": "giantfood", "official_name": "Giant Food", "shop": "supermarket", "addr:full": "621 East Glebe Road", "addr:city": "Alexandria", "addr:state": "VA", "addr:postcode": "22305", "addr:country": "US", "name": "Giant Food Alexandria", "phone": "(703) 518-4797", "website": "https://stores.giantfood.com/va/alexandria/621-east-glebe-road", "opening_hours": "Mo-Fr 10:00-24:00; Sa 10:00-22:00; Su 10:00-21:00", "brand": "Giant Food", "brand:wikidata": "Q5558336", "nsi_id": "giant-fc203b"}, "geometry": {"type": "Point", "coordinates": [-77.0503981411457, 38.831970951889566]}},
{"type": "Feature", "id": "eaEM1bnOVZo8m-ushS06i9XI0xM=", "properties": {"ref": "2747", "@spider": "giantfood", "official_name": "Giant Food", "shop": "supermarket", "addr:full": "6200 Little River Turnpike", "addr:city": "Alexandria", "addr:state": "VA", "addr:postcode": "22312", "addr:country": "US", "name": "Giant Food Alexandria", "phone": "(703) 370-4856", "website": "https://stores.giantfood.com/va/alexandria/6200-little-river-turnpike", "opening_hours": "Mo-Sa 06:00-24:00; Su 06:00-23:00", "brand": "Giant Food", "brand:wikidata": "Q5558336", "nsi_id": "giant-fc203b"}, "geometry": {"type": "Point", "coordinates": [-77.1399951, 38.8185911]}},
{"type": "Feature", "id": "Dj_BYwLLnMCiFV-Fi3T2dIw_Mt0=", "properties": {"ref": "0232", "@spider": "giantfood", "official_name": "Giant Food", "shop": "supermarket", "addr:full": "5870 Kingstowne Blvd", "addr:city": "Alexandria", "addr:state": "VA", "addr:postcode": "22315", "addr:country": "US", "name": "Giant Food Kingstowne", "phone": "(703) 313-0855", "website": "https://stores.giantfood.com/va/alexandria/5870-kingstowne-blvd", "opening_hours": "Mo-Sa 06:00-24:00; Su 06:00-23:00", "brand": "Giant Food", "brand:wikidata": "Q5558336", "nsi_id": "giant-fc203b"}, "geometry": {"type": "Point", "coordinates": [-77.1371956, 38.7729798]}},
{"type": "Feature", "id": "bqgnC9R5X6URZ14AsS0Dk636oHI=", "properties": {"ref": "0261", "@spider": "giantfood", "official_name": "Giant Food", "shop": "supermarket", "addr:full": "3131 Duke Street", "addr:city": "Alexandria", "addr:state": "VA", "addr:postcode": "22314", "addr:country": "US", "name": "Giant Food Alexandria Commons", "phone": "(703) 461-6198", "website": "https://stores.giantfood.com/va/alexandria/3131-duke-street", "opening_hours": "Mo-Sa 06:00-24:00; Su 06:00-23:00", "brand": "Giant Food", "brand:wikidata": "Q5558336", "nsi_id": "giant-fc203b"}, "geometry": {"type": "Point", "coordinates": [-77.08418726921087, 38.80899001087712]}}]}