{"type":"FeatureCollection","features":[{"type": "Feature", "id": "xsGFks4X7U7NH0bs8cNzxNUSe3Q=", "properties": {"ref": "#6519", "@spider": "giantfoodstores", "addr:street_address": "4275 County Line Rd", "addr:city": "Chalfont", "addr:state": "PA", "addr:postcode": "18914", "name": "GIANT Chalfont", "phone": "(215) 997-2883", "website": "https://stores.giantfoodstores.com/pa/chalfont/4275-county-line-rd", "opening_hours": "Mo-Fr 06:00-23:00,09:00-20:00; Sa 06:00-23:00,09:00-17:00; Su 06:00-23:00,10:00-17:00", "brand": "Giant", "brand:wikidata": "Q5558332"}, "geometry": {"type": "Point", "coordinates": [-75.225261, 40.2674536]}},
{"type": "Feature", "id": "7X4MOChpA67PidmWjttxpCGSZ-A=", "properties": {"ref": "#6542", "@spider": "giantfoodstores", "addr:street_address": "950 Walnut Bottom Road", "addr:city": "Carlisle", "addr:state": "PA", "addr:postcode": "17015", "name": "GIANT Carlisle", "phone": "(717) 601-3676", "website": "https://stores.giantfoodstores.com/pa/carlisle/950-walnut-bottom-road", "opening_hours": "Mo-Fr 06:00-23:00,09:00-20:00; Sa 06:00-23:00,09:00-17:00; Su 06:00-23:00,10:00-17:00", "brand": "Giant", "brand:wikidata": "Q5558332"}, "geometry": {"type": "Point", "coordinates": [-77.21303255904786, 40.18212782557018]}},
{"type": "Feature", "id": "dzwlTToT78buVhUAOVg5EOJ1guE=", "properties": {"ref": "#6112", "@spider": "giantfoodstores", "addr:street_address": "255 S Spring Garden St", "addr:city": "Carlisle", "addr:state": "PA", "addr:postcode": "17013", "name": "GIANT Carlisle", "phone": "(717) 249-2323", "website": "https://stores.giantfoodstores.com/pa/carlisle/255-s-spring-garden-st", "opening_hours": "Mo-Fr 06:00-23:00,09:00-21:00; Sa 06:00-23:00,09:00-19:00; Su 06:00-23:00,09:00-17:00", "brand": "Giant", "brand:wikidata": "Q5558332"}, "geometry": {"type": "Point", "coordinates": [-77.17966318130493, 40.19626143546472]}},
{"type": "Feature", "id": "abOVDlLhgKMol8SEz6SCxzFriQ0=", "properties": {"ref": "#GFSHQ", "@spider": "giantfoodstores", "addr:street_address": "1149 Harrisburg Pike", "addr:city": "Carlisle", "addr:state": "PA", "addr:postcode": "17013", "name": "GIANT - Corporate Office Carlisle", "phone": "(888) 814-4268", "website": "https://stores.giantfoodstores.com/pa/carlisle/1149-harrisburg-pike", "opening_hours": "Mo-Su 06:00-22:00", "brand": "Giant", "brand:wikidata": "Q5558332"}, "geometry": {"type": "Point", "coordinates": [-77.15272669495789, 40.225195415135204]}},
{"type": "Feature", "id": "jSWyhpMtY7WjYH6TbMXgYNjT0Zw=", "properties": {"ref": "#6269", "@spider": "giantfoodstores", "addr:street_address": "3301 Trindle Rd", "addr:city": "Camp Hill", "addr:state": "PA", "addr:postcode": "17011", "name": "GIANT Camp Hill", "phone": "(717) 724-1166", "website": "https://stores.giantfoodstores.com/pa/camp-hill/3301-trindle-rd", "opening_hours": "Mo-Fr 06:00-24:00,09:00-21:00; Sa 06:00-24:00,09:00-19:00; Su 06:00-24:00,09:00-17:00", "brand": "Giant", "brand:wikidata": "Q5558332"}, "geometry": {"type": "Point", "coordinates": [-76.93584233522415, 40.2364464574142]}},
{"type": "Feature", "id": "aTzhj64B-z9Hbsl6s7afZ7Y5w0U=", "properties": {"ref": "#6055", "@spider": "giantfoodstores", "addr:street_address": "325 West Freedom Ave", "addr:city": "Burnham", "addr:state": "PA", "addr:postcode": "17009", "name": "GIANT Burnham", "phone": "(717) 248-3963", "website": "https://stores.giantfoodstores.com/pa/burnham/325-west-freedom-ave", "opening_hours": "Mo-Fr 06:00-23:00,09:00-20:00; Sa 06:00-23:00,09:00-17:00; Su 06:00-23:00,10:00-17:00", "brand": "Giant", "brand:wikidata": "Q5558332"}, "geometry": {"type": "Point", "coordinates": [-77.5737065076828, 40.63072779228402]}},
{"type": "Feature", "id": "D8CpYJoAuGHXWdysP5PdNTDHSBI=", "properties": {"ref": "#6523", "@spider": "giantfoodstores", "addr:street_address": "2180 West Chester Pike", "addr:city": "Broomall", "addr:state": "PA", "addr:postcode": "19008", "name": "GIANT Broomall", "phone": "(610) 355-7717", "website": "https://stores.giantfoodstores.com/pa/broomall/2180-west-chester-pike", "opening_hours": "Mo-Fr 06:00-23:00,09:00-20:00; Sa 06:00-23:00,09:00-17:00; Su 06:00-23:00,10:00-17:00", "brand": "Giant", "brand:wikidata": "Q5558332"}, "geometry": {"type": "Point", "coordinates": [-75.3447032, 39.9765462]}},
{"type": "Feature", "id": "5J2x9KDZwU8plWSTGt810hw8OM0=", "properties": {"ref": "#6534", "@spider": "giantfoodstores", "addr:street_address": "4930 Edgmont Ave", "addr:city": "Brookhaven", "addr:state": "PA", "addr:postcode": "19015", "name": "GIANT Brookhaven", "phone": "(610) 876-6445", "website": "https://stores.giantfoodstores.com/pa/brookhaven/4930-edgmont-ave", "opening_hours": "Mo-Fr 06:00-23:00,09:00-20:00; Sa 06:00-23:00,09:00-17:00; Su 06:00-23:00,10:00-17:00", "brand": "Giant", "brand:wikidata": "Q5558332"}, "geometry": {"type": "Point", "coordinates": [-75.3973562, 39.8760886]}},
{"type": "Feature", "id": "saAkV6igNSDdqjzZtnkQD_nk0EI=", "properties": {"ref": "#6091", "@spider": "giantfoodstores", "addr:street_address": "1760 Dekalb Pike", "addr:city": "Blue Bell", "addr:state": "PA", "addr:postcode": "19422", "name": "GIANT Blue Bell", "phone": "(610) 239-7804", "website": "https://stores.giantfoodstores.com/pa/blue-bell/1760-dekalb-pike", "opening_hours": "Mo-Fr 06:00-23:00,09:00-20:00; Sa 06:00-23:00,09:00-17:00; Su 06:00-23:00,10:00-17:00", "brand": "Giant", "brand:wikidata": "Q5558332"}, "geometry": {"type": "Point", "coordinates": [-75.30612543225288, 40.1491048206392]}},
{"type": "Feature", "id": "JvkJDDC257y64GldQY5CKcF9Aok=", "properties": {"ref": "#6287", "@spider": "giantfoodstores", "addr:street_address": "1000 Scott Town Plaza", "addr:city": "Bloomsburg", "addr:state": "PA", "addr:postcode": "17815", "name": "GIANT Bloomsburg", "phone": "(570) 389-9004", "website": "https://stores.giantfoodstores.com/pa/bloomsburg/1000-scott-town-plaza", "opening_hours": "Mo-Fr 06:00-23:00,09:00-21:00; Sa 06:00-23:00,09:00-19:00; Su 06:00-23:00,09:00-17:00", "brand": "Giant", "brand:wikidata": "Q5558332"}, "geometry": {"type": "Point", "coordinates": [-76.43460291630618, 41.00690154691386]}},
{"type": "Feature", "id": "8YWU_rjlAbqhVCj9CGIbJMkVTxo=", "properties": {"ref": "#6336", "@spider": "giantfoodstores", "addr:street_address": "3926 Linden St", "addr:city": "Bethlehem", "addr:state": "PA", "addr:postcode": "18020", "name": "GIANT Bethlehem", "phone": "(610) 882-0585", "website": "https://stores.giantfoodstores.com/pa/bethlehem/3926-linden-st", "opening_hours": "Mo-Fr 06:00-23:00,09:00-20:00; Sa 06:00-23:00,09:00-17:00; Su 06:00-23:00,10:00-17:00", "brand": "Giant", "brand:wikidata": "Q5558332"}, "geometry": {"type": "Point", "coordinates": [-75.3423868, 40.6751392]}},
{"type": "Feature", "id": "FRYAmywysc97ugL4MdcdQh3yKV4=", "properties": {"ref": "#6123", "@spider": "giantfoodstores", "addr:street_address": "2918 Easton Ave", "addr:city": "Bethlehem", "addr:state": "PA", "addr:postcode": "18017", "name": "GIANT Bethlehem", "phone": "(610) 866-3355", "website": "https://stores.giantfoodstores.com/pa/bethlehem/2918-easton-ave", "opening_hours": "Mo-Su 06:00-23:00", "brand": "Giant", "brand:wikidata": "Q5558332"}, "geometry": {"type": "Point", "coordinates": [-75.33726185560226, 40.64782454162209]}},
{"type": "Feature", "id": "JE7BoBndB0UzQ3WS97Ih9yqqWNU=", "properties": {"ref": "#6313", "@spider": "giantfoodstores", "addr:street_address": "2174 West Union Blvd", "addr:city": "Bethlehem", "addr:state": "PA", "addr:postcode": "18018", "name": "GIANT Bethlehem", "phone": "(610) 691-4304", "website": "https://stores.giantfoodstores.com/pa/bethlehem/2174-west-union-blvd", "opening_hours": "Mo-Fr 06:00-23:00,09:00-20:00; Sa 06:00-23:00,09:00-17:00; Su 06:00-23:00,10:00-17:00", "brand": "Giant", "brand:wikidata": "Q5558332"}, "geometry": {"type": "Point", "coordinates": [-75.41870176792145, 40.62722241786334]}},
{"type": "Feature", "id": "OLyQSKZPoh3xQd7CR6WuTomhUX4=", "properties": {"ref": "#6121", "@spider": "giantfoodstores", "addr:street_address": "50 Briar Creek Plz", "addr:city": "Berwick", "addr:state": "PA", "addr:postcode": "18603", "name": "GIANT Berwick", "phone": "(570) 802-0595", "website": "https://stores.giantfoodstores.com/pa/berwick/50-briar-creek-plz", "opening_hours": "Mo-Fr 06:00-23:00,09:00-21:00; Sa 06:00-23:00,09:00-19:00; Su 06:00-23:00,09:00-17:00", "brand": "Giant", "brand:wikidata": "Q5558332"}, "geometry": {"type": "Point", "coordinates": [-76.275195479393, 41.04926318434648]}},
{"type": "Feature", "id": "bD1J1ngcaLqM9tEfOPDqAMmYwKI=", "properties": {"ref": "#6046", "@spider": "giantfoodstores", "addr:street_address": "2721 Street Rd", "addr:city": "Bensalem", "addr:state": "PA", "addr:postcode": "19020", "name": "GIANT Bensalem", "phone": "(215) 604-9924", "website": "https://stores.giantfoodstores.com/pa/bensalem/2721-street-rd", "opening_hours": "Mo-Fr 06:00-24:00,09:00-20:00; Sa 06:00-24:00,09:00-17:00; Su 06:00-24:00,10:00-17:00", "brand": "Giant", "brand:wikidata": "Q5558332"}, "geometry": {"type": "Point", "coordinates": [-74.9513053894043, 40.11114301053709]}},
{"type": "Feature", "id": "u-1zC_UG1gSRFyIQvHbvz261x-4=", "properties": {"ref": "#6455", "@spider": "giantfoodstores", "addr:street_address": "65 Route 611", "addr:city": "Bartonsville", "addr:state": "PA", "addr:postcode": "18321", "name": "GIANT Bartonsville", "phone": "(570) 421-1797", "website": "https://stores.giantfoodstores.com/pa/bartonsville/65-route-611", "opening_hours": "Mo-Fr 06:00-24:00,09:00-20:00; Sa 06:00-24:00,09:00-17:00; Su 06:00-24:00,10:00-17:00", "brand": "Giant", "brand:wikidata": "Q5558332"}, "geometry": {"type": "Point", "coordinates": [-75.27411127976234, 41.001160526497344]}},
{"type": "Feature", "id": "2AUrZ4RFb3hHHw4bOD6PeEKjo5o=", "properties": {"ref": "#6079", "@spider": "giantfoodstores", "addr:street_address": "275 Pauline Dr", "addr:city": "York", "addr:state": "PA", "addr:postcode": "17402", "name": "GIANT York", "phone": "(717) 741-5332", "website": "https://stores.giantfoodstores.com/pa/york/275-pauline-dr", "opening_hours": "Mo-Fr 06:00-23:00,09:00-20:00; Sa 06:00-23:00,09:00-17:00; Su 06:00-23:00,10:00-17:00", "brand": "Giant", "brand:wikidata": "Q5558332"}, "geometry": {"type": "Point", "coordinates": [-76.68207049369806, 39.93426433731968]}},
{"type": "Feature", "id": "8I7O_mnzbDasZehvZjUNm8v-uyQ=", "properties": {"ref": "#6087", "@spider": "giantfoodstores", "addr:street_address": "2415 East Market St", "addr:city": "York", "addr:state": "PA", "addr:postcode": "17402", "name": "GIANT York", "phone": "(717) 755-0991", "website": "https://stores.giantfoodstores.com/pa/york/2415-east-market-st", "opening_hours": "Mo-Fr 06:00-23:00,09:00-20:00; Sa 06:00-23:00,09:00-17:00; Su 06:00-23:00,10:00-17:00", "brand": "Giant", "brand:wikidata": "Q5558332"}, "geometry": {"type": "Point", "coordinates": [-76.6788075864315, 39.9752517328181]}},
{"type": "Feature", "id": "uM1ZNkZpk1mo0xvJLXrma5kSfdE=", "properties": {"ref": "#6294", "@spider": "giantfoodstores", "addr:street_address": "1255 Carlisle Rd", "addr:city": "York", "addr:state": "PA", "addr:postcode": "17404", "name": "GIANT York", "phone": "(717) 718-1884", "website": "https://stores.giantfoodstores.com/pa/york/1255-carlisle-rd", "opening_hours": "Mo-Fr 06:00-23:00,09:00-21:00; Sa 06:00-23:00,09:00-19:00; Su 06:00-23:00,09:00-17:00", "brand": "Giant", "brand:wikidata": "Q5558332"}, "geometry": {"type": "Point", "coordinates": [-76.7673729, 39.9661093]}},
{"type": "Feature", "id": "3RHqtqIOman0qUA7qBk3zDlyX2Y=", "properties": {"ref": "#6062", "@spider": "giantfoodstores", "addr:street_address": "700 Stony Hill Rd", "addr:city": "Yardley", "addr:state": "PA", "addr:postcode": "19067", "name": "GIANT Yardley", "phone": "(215) 493-3540", "website": "https://stores.giantfoodstores.com/pa/yardley/700-stony-hill-rd", "opening_hours": "Mo-Su 06:00-23:00", "brand": "Giant", "brand:wikidata": "Q5558332"}, "geometry": {"type": "Point", "coordinates": [-74.8738986, 40.2219905]}},
{"type": "Feature", "id": "kjY_xlamsXDTlJBWnZRXxheLdf8=", "properties": {"ref": "#6506", "@spider": "giantfoodstores", "addr:street_address": "50 E Wynnewood Rd", "addr:city": "Wynnewood", "addr:state": "PA", "addr:postcode": "19096", "name": "GIANT Wynnewood", "phone": "(610) 642-5206", "website": "https://stores.giantfoodstores.com/pa/wynnewood/50-e-wynnewood-rd", "opening_hours": "Mo-Fr 06:00-23:00,09:00-20:00; Sa 06:00-23:00,09:00-17:00; Su 06:00-23:00,10:00-17:00", "brand": "Giant", "brand:wikidata": "Q5558332"}, "geometry": {"type": "Point", "coordinates": [-75.2721355, 40.0013629]}},
{"type": "Feature", "id": "LlkDQPVZiAp5wPXMdKjLe1FgTPk=", "properties": {"ref": "#6093", "@spider": "giantfoodstores", "addr:street_address": "837 Male Rd", "addr:city": "Wind Gap", "addr:state": "PA", "addr:postcode": "18091", "name": "GIANT Wind Gap", "phone": "(610) 863-8635", "website": "https://stores.giantfoodstores.com/pa/wind-gap/837-male-rd", "opening_hours": "Mo-Su 06:00-23:00", "brand": "Giant", "brand:wikidata": "Q5558332"}, "geometry": {"type": "Point", "coordinates": [-75.2995693, 40.8387846]}},
{"type": "Feature", "id": "ux0DMErlNeBNdcih_rC9xkS8KxM=", "properties": {"ref": "#6427", "@spider": "giantfoodstores", "addr:street_address": "315 York Rd", "addr:city": "Willow Grove", "addr:state": "PA", "addr:postcode": "19090", "name": "GIANT Willow Grove", "phone": "(215) 784-1960", "website": "https://stores.giantfoodstores.com/pa/willow-grove/315-york-rd", "opening_hours": "Mo-Fr 06:00-24:00,09:00-20:00; Sa 06:00-24:00,09:00-17:00; Su 06:00-24:00,10:00-17:00", "brand": "Giant", "brand:wikidata": "Q5558332"}, "geometry": {"type": "Point", "coordinates": [-75.11480212211609, 40.14669169515642]}},
{"type": "Feature", "id": "sYeSOZAMZeaTlZtJKlCxZwG0Wtw=", "properties": {"ref": "#6122", "@spider": "giantfoodstores", "addr:street_address": "1969 East 3rd St", "addr:city": "Williamsport", "addr:state": "PA", "addr:postcode": "17701", "name": "GIANT Williamsport", "phone": "(570) 329-2002", "website": "https://stores.giantfoodstores.com/pa/williamsport/1969-east-3rd-st", "opening_hours": "Mo-Fr 06:00-23:00,09:00-20:00; Sa 06:00-23:00,09:00-17:00; Su 06:00-23:00,10:00-17:00", "brand": "Giant", "brand:wikidata": "Q5558332"}, "geometry": {"type": "Point", "coordinates": [-76.9609022140503, 41.24970513437616]}},
{"type": "Feature", "id": "WQ06T_fto214VKfKuunWBjXJwpg=", "properties": {"ref": "#6335", "@spider": "giantfoodstores", "addr:street_address": "2651 MacArthur Commons", "addr:city": "Whitehall", "addr:state": "PA", "addr:postcode": "18052", "name": "GIANT Whitehall", "phone": "(484) 245-0080", "website": "https://stores.giantfoodstores.com/pa/whitehall/2651-macarthur-commons", "opening_hours": "Mo-Fr 06:00-23:00,09:00-20:00; Sa 06:00-23:00,09:00-17:00; Su 06:00-23:00,10:00-17:00", "brand": "Giant", "brand:wikidata": "Q5558332"}, "geometry": {"type": "Point", "coordinates": [-75.49151008573062, 40.647715688301844]}},
{"type": "Feature", "id": "tVZXqt-nlJJ6cCDzqj4wPhVinWc=", "properties": {"ref": "#6289", "@spider": "giantfoodstores", "addr:street_address": "2104 Van Reed Rd", "addr:city": "West Lawn", "addr:state": "PA", "addr:postcode": "19609", "name": "GIANT West Lawn", "phone": "(610) 670-4713", "website": "https://stores.giantfoodstores.com/pa/west-lawn/2104-van-reed-rd", "opening_hours": "Mo-Fr 06:00-23:00,09:00-20:00; Sa 06:00-23:00,09:00-17:00; Su 06:00-23:00,10:00-17:00", "brand": "Giant", "brand:wikidata": "Q5558332"}, "geometry": {"type": "Point", "coordinates": [-76.0017471, 40.3440513]}},
{"type": "Feature", "id": "5etxtbn2QEDHVa9Qk9zHSODmHKE=", "properties": {"ref": "#6045", "@spider": "giantfoodstores", "addr:street_address": "849 West Baltimore Pike", "addr:city": "West Grove", "addr:state": "PA", "addr:postcode": "19390", "name": "GIANT West Grove", "phone": "(610) 345-0183", "website": "https://stores.giantfoodstores.com/pa/west-grove/849-west-baltimore-pike", "opening_hours": "Mo-Fr 06:00-23:00,09:00-20:00; Sa 06:00-23:00,09:00-17:00; Su 06:00-23:00,10:00-17:00", "brand": "Giant", "brand:wikidata": "Q5558332"}, "geometry": {"type": "Point", "coordinates": [-75.87379217147827, 39.82226957029506]}},
{"type": "Feature", "id": "Of7Tvr5eSUvlxJYx3nM14aNAX6s=", "properties": {"ref": "#6291", "@spider": "giantfoodstores", "addr:street_address": "698 Downingtown Pike", "addr:city": "West Chester", "addr:state": "PA", "addr:postcode": "19380", "name": "GIANT West Chester", "phone": "(610) 430-7150", "website": "https://stores.giantfoodstores.com/pa/west-chester/698-downingtown-pike", "opening_hours": "Mo-Fr 06:00-23:00,09:00-20:00; Sa 06:00-23:00,09:00-17:00; Su 06:00-23:00,10:00-17:00", "brand": "Giant", "brand:wikidata": "Q5558332"}, "geometry": {"type": "Point", "coordinates": [-75.621889, 39.9607095]}},
{"type": "Feature", "id": "ylfp_2Rd8odZwDOkr9A4d1PFiHk=", "properties": {"ref": "#6116", "@spider": "giantfoodstores", "addr:street_address": "1393 Dilworthtown Xing", "addr:city": "West Chester", "addr:state": "PA", "addr:postcode": "19382", "name": "GIANT West Chester", "phone": "(610) 431-2351", "website": "https://stores.giantfoodstores.com/pa/west-chester/1393-dilworthtown-xing", "opening_hours": "Mo-Su 06:00-23:00", "brand": "Giant", "brand:wikidata": "Q5558332"}, "geometry": {"type": "Point", "coordinates": [-75.5620319, 39.9031349]}},
{"type": "Feature", "id": "OzvTwBTpvYA7nLqw0S66XUw5LHE=", "properties": {"ref": "#6505", "@spider": "giantfoodstores", "addr:street_address": "1375 Boot Rd", "addr:city": "West Chester", "addr:state": "PA", "addr:postcode": "19380", "name": "GIANT West Chester", "phone": "(610) 344-3050", "website": "https://stores.giantfoodstores.com/pa/west-chester/1375-boot-rd", "opening_hours": "Mo-Fr 06:00-23:00,09:00-20:00; Sa 06:00-23:00,09:00-17:00; Su 06:00-23:00,10:00-17:00", "brand": "Giant", "brand:wikidata": "Q5558332"}, "geometry": {"type": "Point", "coordinates": [-75.5675201, 39.9987901]}},
{"type": "Feature", "id": "6uIdBNc0txQrYrSs5XCzjRE3I4g=", "properties": {"ref": "#6547", "@spider": "giantfoodstores", "addr:street_address": "1661 South Easton Road", "addr:city": "Warrington", "addr:state": "PA", "addr:postcode": "18976", "name": "GIANT Warrington", "phone": "(215) 918-1220", "website": "https://stores.giantfoodstores.com/pa/warrington/1661-south-easton-road", "opening_hours": "Mo-Fr 06:00-23:00,09:00-20:00; Sa 06:00-23:00,09:00-17:00; Su 06:00-23:00,10:00-17:00", "brand": "Giant", "brand:wikidata": "Q5558332"}, "geometry": {"type": "Point", "coordinates": [-75.127956, 40.269227]}},
{"type": "Feature", "id": "06WCFVX61P5hwyxpTKeSpgXP2q4=", "properties": {"ref": "#6257", "@spider": "giantfoodstores", "addr:street_address": "720 West Street Rd", "addr:city": "Warminster", "addr:state": "PA", "addr:postcode": "18974", "name": "GIANT Warminster", "phone": "(215) 674-4607", "website": "https://stores.giantfoodstores.com/pa/warminster/720-west-street-rd", "opening_hours": "Mo-Su 06:00-23:00", "brand": "Giant", "brand:wikidata": "Q5558332"}, "geometry": {"type": "Point", "coordinates": [-75.1017452, 40.2057456]}},
{"type": "Feature", "id": "z6Wgonjw-daf-oUVxQhbGRsGSYk=", "properties": {"ref": "#6546", "@spider": "giantfoodstores", "addr:street_address": "300 S Best Ave", "addr:city": "Walnutport", "addr:state": "PA", "addr:postcode": "18088", "name": "GIANT Walnutport", "phone": "(610) 760-6184", "website": "https://stores.giantfoodstores.com/pa/walnutport/300-s-best-ave", "opening_hours": "Mo-Su 06:00-23:00", "brand": "Giant", "brand:wikidata": "Q5558332"}, "geometry": {"type": "Point", "coordinates": [-75.5934377, 40.7534866]}},
{"type": "Feature", "id": "HuTukzjRBnFv-0JoniyOP8J11tE=", "properties": {"ref": "#6457", "@spider": "giantfoodstores", "addr:street_address": "7150 Hamilton Blvd", "addr:city": "Trexlertown", "addr:state": "PA", "addr:postcode": "18087", "name": "GIANT Trexlertown", "phone": "(610) 391-0152", "website": "https://stores.giantfoodstores.com/pa/trexlertown/7150-hamilton-blvd", "opening_hours": "Mo-Fr 06:00-24:00,09:00-20:00; Sa 06:00-24:00,09:00-17:00; Su 06:00-24:00,10:00-17:00", "brand": "Giant", "brand:wikidata": "Q5558332"}, "geometry": {"type": "Point", "coordinates": [-75.59401631355286, 40.548447559592425]}},
{"type": "Feature", "id": "6AHUuuPrCKTPXwqeW5xV7b2wcwE=", "properties": {"ref": "#6301", "@spider": "giantfoodstores", "addr:street_address": "3477 Lincoln Hwy", "addr:city": "Thorndale", "addr:state": "PA", "addr:postcode": "19372", "name": "GIANT Thorndale", "phone": "(610) 383-5460", "website": "https://stores.giantfoodstores.com/pa/thorndale/3477-lincoln-hwy", "opening_hours": "Mo-Fr 06:00-23:00,09:00-20:00; Sa 06:00-23:00,09:00-17:00; Su 06:00-23:00,10:00-17:00", "brand": "Giant", "brand:wikidata": "Q5558332"}, "geometry": {"type": "Point", "coordinates": [-75.7546632, 39.9963396]}},
{"type": "Feature", "id": "yfjhlllAPu88aIrCGuFmovABSDw=", "properties": {"ref": "#6422", "@spider": "giantfoodstores", "addr:street_address": "4320 5th Street Hwy", "addr:city": "Temple", "addr:state": "PA", "addr:postcode": "19560", "name": "GIANT Temple", "phone": "(610) 939-2640", "website": "https://stores.giantfoodstores.com/pa/temple/4320-5th-street-hwy", "opening_hours": "Mo-Fr 06:00-23:00,09:00-20:00; Sa 06:00-23:00,09:00-17:00; Su 06:00-23:00,10:00-17:00", "brand": "Giant", "brand:wikidata": "Q5558332"}, "geometry": {"type": "Point", "coordinates": [-75.9290041, 40.3994709]}},
{"type": "Feature", "id": "DEKfF07P1XPVUEGHp9pZ2a7KRTc=", "properties": {"ref": "#6448", "@spider": "giantfoodstores", "addr:street_address": "180 Upland Square Dr", "addr:city": "Stowe", "addr:state": "PA", "addr:postcode": "19464", "name": "GIANT Stowe", "phone": "(610) 705-0000", "website": "https://stores.giantfoodstores.com/pa/stowe/180-upland-square-dr", "opening_hours": "Mo-Fr 06:00-23:00,09:00-20:00; Sa 06:00-23:00,09:00-17:00; Su 06:00-23:00,10:00-17:00", "brand": "Giant", "brand:wikidata": "Q5558332"}, "geometry": {"type": "Point", "coordinates": [-75.6540754, 40.2652499]}},
{"type": "Feature", "id": "DqbvEat9K654bBkNkeStJz7-Ils=", "properties": {"ref": "#6072", "@spider": "giantfoodstores", "addr:street_address": "255 Northland Ctr", "addr:city": "State College", "addr:state": "PA", "addr:postcode": "16803", "name": "GIANT State College", "phone": "(814) 237-1828", "website": "https://stores.giantfoodstores.com/pa/state-college/255-northland-ctr", "opening_hours": "Mo-Su 06:00-24:00", "brand": "Giant", "brand:wikidata": "Q5558332"}, "geometry": {"type": "Point", "coordinates": [-77.8869965672493, 40.8027752822563]}},
{"type": "Feature", "id": "zpKK4WX6XOlx38DF5QCg9NG2-j0=", "properties": {"ref": "#6524", "@spider": "giantfoodstores", "addr:street_address": "2121 South Atherton", "addr:city": "State College", "addr:state": "PA", "addr:postcode": "16801", "name": "GIANT State College", "phone": "(814) 861-2578", "website": "https://stores.giantfoodstores.com/pa/state-college/2121-south-atherton", "opening_hours": "Mo-Su 06:00-23:00", "brand": "Giant", "brand:wikidata": "Q5558332"}, "geometry": {"type": "Point", "coordinates": [-77.8310848, 40.7857357]}},
{"type": "Feature", "id": "d4rG4butcEqt5C9-TDjrEIGqb0M=", "properties": {"ref": "#6511", "@spider": "giantfoodstores", "addr:street_address": "950 Baltimore Pike", "addr:city": "Springfield", "addr:state": "PA", "addr:postcode": "19064", "name": "GIANT Springfield", "phone": "(610) 604-1570", "website": "https://stores.giantfoodstores.com/pa/springfield/950-baltimore-pike", "opening_hours": "Mo-Su 06:00-23:00", "brand": "Giant", "brand:wikidata": "Q5558332"}, "geometry": {"type": "Point", "coordinates": [-75.34174919128418, 39.91575387950513]}},
{"type": "Feature", "id": "hHym1ghNiv_KavUZwrJM2Ix6z4s=", "properties": {"ref": "#6464", "@spider": "giantfoodstores", "addr:street_address": "721 W Sproul Rd", "addr:city": "Springfield", "addr:state": "PA", "addr:postcode": "19064", "name": "GIANT Springfield", "phone": "(610) 328-0029", "website": "https://stores.giantfoodstores.com/pa/springfield/721-w-sproul-rd", "opening_hours": "Mo-Fr 06:00-23:00,09:00-20:00; Sa 06:00-23:00,09:00-17:00; Su 06:00-23:00,10:00-17:00", "brand": "Giant", "brand:wikidata": "Q5558332"}, "geometry": {"type": "Point", "coordinates": [-75.35116374492645, 39.93431369733424]}},
{"type": "Feature", "id": "JBw1qzYs47k5Gf27tFfa8NLibqg=", "properties": {"ref": "#6510", "@spider": "giantfoodstores", "addr:street_address": "1121 Bethlehem Pike", "addr:city": "Spring House", "addr:state": "PA", "addr:postcode": "19477", "name": "GIANT Spring House", "phone": "(215) 283-4585", "website": "https://stores.giantfoodstores.com/pa/spring-house/1121-bethlehem-pike", "opening_hours": "Mo-Su 06:00-23:00", "brand": "Giant", "brand:wikidata": "Q5558332"}, "geometry": {"type": "Point", "coordinates": [-75.226514, 40.1902996]}},
{"type": "Feature", "id": "-qTbwiHtOZ-aF5AHYRJY19NI2mA=", "properties": {"ref": "#6095", "@spider": "giantfoodstores", "addr:street_address": "466 Second Street Pike", "addr:city": "Southampton", "addr:state": "PA", "addr:postcode": "18966", "name": "GIANT Southampton", "phone": "(215) 357-5324", "website": "https://stores.giantfoodstores.com/pa/southampton/466-second-street-pike", "opening_hours": "Mo-Su 06:00-23:00", "brand": "Giant", "brand:wikidata": "Q5558332"}, "geometry": {"type": "Point", "coordinates": [-75.04819482564926, 40.169068760527516]}},
{"type": "Feature", "id": "B5gWaf6LMcfsTlK_urbH7FCzRFU=", "properties": {"ref": "#6018", "@spider": "giantfoodstores", "addr:street_address": "760 Pennsylvania 113", "addr:city": "Souderton", "addr:state": "PA", "addr:postcode": "18964", "name": "GIANT Souderton", "phone": "(215) 703-0580", "website": "https://stores.giantfoodstores.com/pa/souderton/760-pennsylvania-113", "opening_hours": "Mo-Fr 06:00-23:00,09:00-20:00; Sa 06:00-23:00,09:00-17:00; Su 06:00-23:00,10:00-17:00", "brand": "Giant", "brand:wikidata": "Q5558332"}, "geometry": {"type": "Point", "coordinates": [-75.3080324, 40.3196301]}},
{"type": "Feature", "id": "4Gg89SsbGaJfTy7_n4z88_gn_6M=", "properties": {"ref": "#6271", "@spider": "giantfoodstores", "addr:street_address": "14635 Mt Airy Rd", "addr:city": "Shrewsbury", "addr:state": "PA", "addr:postcode": "17361", "name": "GIANT Shrewsbury", "phone": "(717) 227-9420", "website": "https://stores.giantfoodstores.com/pa/shrewsbury/14635-mt-airy-rd", "opening_hours": "Mo-Fr 06:00-23:00,09:00-20:00; Sa 06:00-23:00,09:00-17:00; Su 06:00-23:00,10:00-17:00", "brand": "Giant", "brand:wikidata": "Q5558332"}, "geometry": {"type": "Point", "coordinates": [-76.66945338249207, 39.772716247640226]}},
{"type": "Feature", "id": "LkXtfCArtRMWW-PC_LK4kRyqxuU=", "properties": {"ref": "#6061", "@spider": "giantfoodstores", "addr:street_address": "397 Baltimore Rd", "addr:city": "Shippensburg", "addr:state": "PA", "addr:postcode": "17257", "name": "GIANT Shippensburg", "phone": "(717) 532-7515", "website": "https://stores.giantfoodstores.com/pa/shippensburg/397-baltimore-rd", "opening_hours": "Mo-Fr 06:00-23:00,09:00-20:00; Sa 06:00-23:00,09:00-17:00; Su 06:00-23:00,10:00-17:00", "brand": "Giant", "brand:wikidata": "Q5558332"}, "geometry": {"type": "Point", "coordinates": [-77.50153899192816, 40.04846203871417]}},
{"type": "Feature", "id": "jsbcTmyGfLudeHVw65NvbLGoj74=", "properties": {"ref": "#6453", "@spider": "giantfoodstores", "addr:street_address": "330 Marketplace Blvd", "addr:city": "Selinsgrove", "addr:state": "PA", "addr:postcode": "17870", "name": "GIANT Selinsgrove", "phone": "(570) 743-0106", "website": "https://stores.giantfoodstores.com/pa/selinsgrove/330-marketplace-blvd", "opening_hours": "Mo-Fr 06:00-23:00,09:00-20:00; Sa 06:00-23:00,09:00-17:00; Su 06:00-23:00,10:00-17:00", "brand": "Giant", "brand:wikidata": "Q5558332"}, "geometry": {"type": "Point", "coordinates": [-76.8339004, 40.8423453]}},
{"type": "Feature", "id": "NehfR4MjUAdHG5awnN7DyMDj8ac=", "properties": {"ref": "#6305", "@spider": "giantfoodstores", "addr:street_address": "1600 Nay Aug Ave", "addr:city": "Scranton", "addr:state": "PA", "addr:postcode": "18509", "name": "GIANT Scranton", "phone": "(570) 343-5997", "website": "https://stores.giantfoodstores.com/pa/scranton/1600-nay-aug-ave", "opening_hours": "Mo-Su 06:00-23:00", "brand": "Giant", "brand:wikidata": "Q5558332"}, "geometry": {"type": "Point", "coordinates": [-75.65749883651739, 41.434373677424574]}},
{"type": "Feature", "id": "m4umSNX0n-cLGspXCwgcQVMcyjY=", "properties": {"ref": "#6507", "@spider": "giantfoodstores", "addr:street_address": "550 E Lancaster Ave", "addr:city": "Saint Davids", "addr:state": "PA", "addr:postcode": "19087", "name": "GIANT Saint Davids", "phone": "(610) 989-0781", "website": "https://stores.giantfoodstores.com/pa/saint-davids/550-e-lancaster-ave", "opening_hours": "Mo-Su 06:00-23:00", "brand": "Giant", "brand:wikidata": "Q5558332"}, "geometry": {"type": "Point", "coordinates": [-75.370529, 40.0401439]}},
{"type": "Feature", "id": "Rho78IkZUI08ToArkC0r-gZbNWo=", "properties": {"ref": "#6317", "@spider": "giantfoodstores", "addr:street_address": "967 S Township Line Rd", "addr:city": "Royersford", "addr:state": "PA", "addr:postcode": "19468", "name": "GIANT Royersford", "phone": "(610) 792-9950", "website": "https://stores.giantfoodstores.com/pa/royersford/967-s-township-line-rd", "opening_hours": "Mo-Fr 06:00-23:00,09:00-20:00; Sa 06:00-23:00,09:00-17:00; Su 06:00-23:00,10:00-17:00", "brand": "Giant", "brand:wikidata": "Q5558332"}, "geometry": {"type": "Point", "coordinates": [-75.52961647510529, 40.194704349686816]}},
{"type": "Feature", "id": "_dpt6iLxiK90BzEWUlgGVKRWdhY=", "properties": {"ref": "#6284", "@spider": "giantfoodstores", "addr:street_address": "1824 Ridge Pike", "addr:city": "Royersford", "addr:state": "PA", "addr:postcode": "19468", "name": "GIANT Royersford", "phone": "(610) 831-5450", "website": "https://stores.giantfoodstores.com/pa/royersford/1824-ridge-pike", "opening_hours": "Mo-Fr 06:00-23:00,09:00-20:00; Sa 06:00-23:00,09:00-17:00; Su 06:00-23:00,10:00-17:00", "brand": "Giant", "brand:wikidata": "Q5558332"}, "geometry": {"type": "Point", "coordinates": [-75.49918949604034, 40.211391988438656]}},
{"type": "Feature", "id": "LkbELO-K6f8c58DDeCfCYWuOXoc=", "properties": {"ref": "#6518", "@spider": "giantfoodstores", "addr:street_address": "2350 Susquehanna Rd", "addr:city": "Roslyn", "addr:state": "PA", "addr:postcode": "19001", "name": "GIANT Roslyn", "phone": "(215) 881-2100", "website": "https://stores.giantfoodstores.com/pa/roslyn/2350-susquehanna-rd", "opening_hours": "Mo-Fr 06:00-23:00,09:00-20:00; Sa 06:00-23:00,09:00-17:00; Su 06:00-23:00,10:00-17:00", "brand": "Giant", "brand:wikidata": "Q5558332"}, "geometry": {"type": "Point", "coordinates": [-75.1354276, 40.1211739]}},
{"type": "Feature", "id": "gSQBmte8pSy7RNjJLgJA1N_xZtM=", "properties": {"ref": "#6571", "@spider": "giantfoodstores", "addr:street_address": "1025 Second Street Pike", "addr:city": "Richboro", "addr:state": "PA", "addr:postcode": "18954", "name": "GIANT Richboro", "phone": "(215) 396-3342", "website": "https://stores.giantfoodstores.com/pa/richboro/1025-second-street-pike", "opening_hours": "Mo-Su 06:00-23:00", "brand": "Giant", "brand:wikidata": "Q5558332"}, "geometry": {"type": "Point", "coordinates": [-75.00936382430295, 40.21652265772482]}},
{"type": "Feature", "id": "DezpTf4qwqQmJGAZp15MN0kmJH8=", "properties": {"ref": "#6300", "@spider": "giantfoodstores", "addr:street_address": "3175 Cape Horn Rd", "addr:city": "Red Lion", "addr:state": "PA", "addr:postcode": "17356", "name": "GIANT Red Lion", "phone": "(717) 246-7137", "website": "https://stores.giantfoodstores.com/pa/red-lion/3175-cape-horn-rd", "opening_hours": "Mo-Fr 06:00-23:00,09:00-21:00; Sa 06:00-23:00,09:00-19:00; Su 06:00-23:00,09:00-17:00", "brand": "Giant", "brand:wikidata": "Q5558332"}, "geometry": {"type": "Point", "coordinates": [-76.62797033786774, 39.91861130422933]}},
{"type": "Feature", "id": "A3oP2fwt7BMgyatDYyjM4j6G-_8=", "properties": {"ref": "#6273", "@spider": "giantfoodstores", "addr:street_address": "600 E Lancaster Ave", "addr:city": "Reading", "addr:state": "PA", "addr:postcode": "19607", "name": "GIANT Reading", "phone": "(610) 775-5015", "website": "https://stores.giantfoodstores.com/pa/reading/600-e-lancaster-ave", "opening_hours": "Mo-Fr 06:00-23:00,09:00-20:00; Sa 06:00-23:00,09:00-17:00; Su 06:00-23:00,10:00-17:00", "brand": "Giant", "brand:wikidata": "Q5558332"}, "geometry": {"type": "Point", "coordinates": [-75.9545106, 40.3074094]}},
{"type": "Feature", "id": "8y8RvQe85iTl10Gpfhi0aPULzy8=", "properties": {"ref": "#6446", "@spider": "giantfoodstores", "addr:street_address": "4655 Perkiomen Ave", "addr:city": "Reading", "addr:state": "PA", "addr:postcode": "19606", "name": "GIANT Reading", "phone": "(610) 406-9640", "website": "https://stores.giantfoodstores.com/pa/reading/4655-perkiomen-ave", "opening_hours": "Mo-Fr 06:00-23:00,09:00-21:00; Sa 06:00-23:00,09:00-19:00; Su 06:00-23:00,09:00-17:00", "brand": "Giant", "brand:wikidata": "Q5558332"}, "geometry": {"type": "Point", "coordinates": [-75.8582974, 40.3080347]}},
{"type": "Feature", "id": "K0rI7ZvvZ0XpcT1utYbO9XVCwF4=", "properties": {"ref": "#6050", "@spider": "giantfoodstores", "addr:street_address": "2641 Shillington Rd", "addr:city": "Reading", "addr:state": "PA", "addr:postcode": "19609", "name": "GIANT Reading", "phone": "(610) 678-3286", "website": "https://stores.giantfoodstores.com/pa/reading/2641-shillington-rd", "opening_hours": "Mo-Fr 06:00-23:00,09:00-20:00; Sa 06:00-23:00,09:00-17:00; Su 06:00-23:00,10:00-17:00", "brand": "Giant", "brand:wikidata": "Q5558332"}, "geometry": {"type": "Point", "coordinates": [-75.9991861, 40.3163367]}},
{"type": "Feature", "id": "-YpB3wwnW7MIEyZxAoYk_odg2pE=", "properties": {"ref": "#6567", "@spider": "giantfoodstores", "addr:street_address": "35 Friendly Drive", "addr:city": "Quarryville", "addr:state": "PA", "addr:postcode": "17566", "name": "GIANT Quarryville", "phone": "(717) 284-4147", "website": "https://stores.giantfoodstores.com/pa/quarryville/35-friendly-drive", "opening_hours": "Mo-Su 06:00-22:00", "brand": "Giant", "brand:wikidata": "Q5558332"}, "geometry": {"type": "Point", "coordinates": [-76.22455671501251, 39.87064597342191]}},
{"type": "Feature", "id": "dfnCDQXDg5cboQx92Xp29FwpSXE=", "properties": {"ref": "#6563", "@spider": "giantfoodstores", "addr:street_address": "100 Towns Edge Drive", "addr:city": "Quarryville", "addr:state": "PA", "addr:postcode": "17566", "name": "GIANT Quarryville", "phone": "(717) 786-7301", "website": "https://stores.giantfoodstores.com/pa/quarryville/100-towns-edge-drive", "opening_hours": "Mo-Su 06:00-22:00", "brand": "Giant", "brand:wikidata": "Q5558332"}, "geometry": {"type": "Point", "coordinates": [-76.1760789, 39.8948037]}},
{"type": "Feature", "id": "WeLLiCv1YR3VVxDw3-lJJKKUPRE=", "properties": {"ref": "#6333", "@spider": "giantfoodstores", "addr:street_address": "901 S West End Blvd", "addr:city": "Quakertown", "addr:state": "PA", "addr:postcode": "18951", "name": "GIANT Quakertown", "phone": "(215) 536-5065", "website": "https://stores.giantfoodstores.com/pa/quakertown/901-s-west-end-blvd", "opening_hours": "Mo-Fr 06:00-23:00,09:00-20:00; Sa 06:00-23:00,09:00-17:00; Su 06:00-23:00,10:00-17:00", "brand": "Giant", "brand:wikidata": "Q5558332"}, "geometry": {"type": "Point", "coordinates": [-75.3443576, 40.4215251]}},
{"type": "Feature", "id": "YcSFYSsI5_g2MnvzTzbUzlAVBpM=", "properties": {"ref": "#6476", "@spider": "giantfoodstores", "addr:street_address": "1465 W Broad St", "addr:city": "Quakertown", "addr:state": "PA", "addr:postcode": "18951", "name": "GIANT Quakertown", "phone": "(215) 538-3399", "website": "https://stores.giantfoodstores.com/pa/quakertown/1465-w-broad-st", "opening_hours": "Mo-Su 06:00-23:00", "brand": "Giant", "brand:wikidata": "Q5558332"}, "geometry": {"type": "Point", "coordinates": [-75.35654425621033, 40.44490584878311]}},
{"type": "Feature", "id": "2Gtrpmp3doWxRftjma7L3bWnrz0=", "properties": {"ref": "#6030", "@spider": "giantfoodstores", "addr:street_address": "1544 Route 61 Hwy S #6100", "addr:city": "Pottsville", "addr:state": "PA", "addr:postcode": "17901", "name": "GIANT Pottsville", "phone": "(570) 385-4273", "website": "https://stores.giantfoodstores.com/pa/pottsville/1544-route-61-hwy-s", "opening_hours": "Mo-Su 06:00-23:00", "brand": "Giant", "brand:wikidata": "Q5558332"}, "geometry": {"type": "Point", "coordinates": [-76.185926, 40.641544]}},
{"type": "Feature", "id": "34ciTG9zVqZNK4JlSUh0Imz7-3Y=", "properties": {"ref": "#6471", "@spider": "giantfoodstores", "addr:street_address": "86 Glocker Way", "addr:city": "Pottstown", "addr:state": "PA", "addr:postcode": "19465", "name": "GIANT Pottstown", "phone": "(610) 705-3352", "website": "https://stores.giantfoodstores.com/pa/pottstown/86-glocker-way", "opening_hours": "Mo-Fr 06:00-23:00,09:00-20:00; Sa 06:00-23:00,09:00-17:00; Su 06:00-23:00,10:00-17:00", "brand": "Giant", "brand:wikidata": "Q5558332"}, "geometry": {"type": "Point", "coordinates": [-75.6579097, 40.2079855]}},
{"type": "Feature", "id": "Xanf3nQKS-VGxEbn2ydPZto2Q4w=", "properties": {"ref": "#6011", "@spider": "giantfoodstores", "addr:street_address": "2450 Chemical Rd", "addr:city": "Plymouth Meeting", "addr:state": "PA", "addr:postcode": "19462", "name": "GIANT Plymouth Meeting", "phone": "(610) 941-5448", "website": "https://stores.giantfoodstores.com/pa/plymouth-meeting/2450-chemical-rd", "opening_hours": "Mo-Fr 06:00-23:00,09:00-20:00; Sa 06:00-23:00,09:00-17:00; Su 06:00-23:00,10:00-17:00", "brand": "Giant", "brand:wikidata": "Q5558332"}, "geometry": {"type": "Point", "coordinates": [-75.29179, 40.105843]}},
{"type": "Feature", "id": "uSjx9bwYsvHgYcBcHpxyBATaTn4=", "properties": {"ref": "#6475", "@spider": "giantfoodstores", "addr:street_address": "5858 Easton Rd", "addr:city": "Plumsteadville", "addr:state": "PA", "addr:postcode": "18949", "name": "GIANT Plumsteadville", "phone": "(215) 766-8665", "website": "https://stores.giantfoodstores.com/pa/plumsteadville/5858-easton-rd", "opening_hours": "Mo-Su 06:00-23:00", "brand": "Giant", "brand:wikidata": "Q5558332"}, "geometry": {"type": "Point", "coordinates": [-75.14421254396439, 40.38653775742915]}},
{"type": "Feature", "id": "6GnvsJqS_TTs3pVOj-mnTzfkTX8=", "properties": {"ref": "#6023", "@spider": "giantfoodstores", "addr:street_address": "700 Nutt Rd", "addr:city": "Phoenixville", "addr:state": "PA", "addr:postcode": "19460", "name": "GIANT Phoenixville", "phone": "(610) 917-9086", "website": "https://stores.giantfoodstores.com/pa/phoenixville/700-nutt-rd", "opening_hours": "Mo-Fr 06:00-23:00,09:00-20:00; Sa 06:00-23:00,09:00-17:00; Su 06:00-23:00,10:00-17:00", "brand": "Giant", "brand:wikidata": "Q5558332"}, "geometry": {"type": "Point", "coordinates": [-75.53396970033646, 40.13419619785424]}},
{"type": "Feature", "id": "3s7-dv8jKToeKIQxcKJ6j2uuje0=", "properties": {"ref": "#6569", "@spider": "giantfoodstores", "addr:street_address": "801 Market Street", "addr:city": "Philadelphia", "addr:state": "PA", "addr:postcode": "19107", "name": "GIANT Heirloom Market Philadelphia", "phone": "(215) 408-4830", "website": "https://stores.giantfoodstores.com/pa/philadelphia/801-market-street", "opening_hours": "Mo-Sa 07:00-20:00; Su 07:00-19:00", "brand": "Giant", "brand:wikidata": "Q5558332"}, "geometry": {"type": "Point", "coordinates": [-75.15370569253534, 39.951708952015146]}},
{"type": "Feature", "id": "5QlRQ_9X7CB41fxcAUdtxx1jsNs=", "properties": {"ref": "#6561", "@spider": "giantfoodstores", "addr:street_address": "60 North 23rd Street", "addr:city": "Philadelphia", "addr:state": "PA", "addr:postcode": "19103", "name": "GIANT Philadelphia", "phone": "(215) 587-0270", "website": "https://stores.giantfoodstores.com/pa/philadelphia/60-north-23rd-street", "opening_hours": "Mo-Su 06:00-23:00", "brand": "Giant", "brand:wikidata": "Q5558332"}, "geometry": {"type": "Point", "coordinates": [-75.1780137, 39.956528]}},
{"type": "Feature", "id": "7wreesjGto5xzWQ7z0hSPePUI6E=", "properties": {"ref": "#6573", "@spider": "giantfoodstores", "addr:street_address": "510 North Broad Street", "addr:city": "Philadelphia", "addr:state": "PA", "addr:postcode": "19130", "name": "GIANT Philadelphia", "phone": "(215) 523-6277", "website": "https://stores.giantfoodstores.com/pa/philadelphia/510-north-broad-street", "opening_hours": "Mo-Su 06:00-22:00", "brand": "Giant", "brand:wikidata": "Q5558332"}, "geometry": {"type": "Point", "coordinates": [-75.1599733, 39.95971]}},
{"type": "Feature", "id": "5uygijbVKyiPD4GKDJV8ENNFYM8=", "properties": {"ref": "#6551", "@spider": "giantfoodstores", "addr:street_address": "3401 Chestnut Street", "addr:city": "Philadelphia", "addr:state": "PA", "addr:postcode": "19104", "name": "GIANT Heirloom Market Philadelphia", "phone": "(445) 888-3022", "website": "https://stores.giantfoodstores.com/pa/philadelphia/3401-chestnut-street", "opening_hours": "Mo-Su 06:00-22:00", "brand": "Giant", "brand:wikidata": "Q5558332"}, "geometry": {"type": "Point", "coordinates": [-75.1920076, 39.9548144]}},
{"type": "Feature", "id": "QSdEcMuQBP3mN_jdR0NzPo4dwz0=", "properties": {"ref": "#6468", "@spider": "giantfoodstores", "addr:street_address": "2550 Grant Ave", "addr:city": "Philadelphia", "addr:state": "PA", "addr:postcode": "19114", "name": "GIANT Philadelphia", "phone": "(215) 464-8280", "website": "https://stores.giantfoodstores.com/pa/philadelphia/2550-grant-ave", "opening_hours": "Mo-Fr 06:00-24:00,09:00-20:00; Sa 06:00-24:00,09:00-17:00; Su 06:00-24:00,10:00-17:00", "brand": "Giant", "brand:wikidata": "Q5558332"}, "geometry": {"type": "Point", "coordinates": [-75.0269136, 40.0782578]}},
{"type": "Feature", "id": "0jx8Xken1RVwaN28g_OR24MwvlY=", "properties": {"ref": "#6553", "@spider": "giantfoodstores", "addr:street_address": "2303 Bainbridge St", "addr:city": "Philadelphia", "addr:state": "PA", "addr:postcode": "19146", "name": "GIANT Heirloom Market Philadelphia", "phone": "(215) 875-8305", "website": "https://stores.giantfoodstores.com/pa/philadelphia/2303-bainbridge-st", "opening_hours": "Mo-Su 07:00-22:00", "brand": "Giant", "brand:wikidata": "Q5558332"}, "geometry": {"type": "Point", "coordinates": [-75.180792, 39.9447649]}},
{"type": "Feature", "id": "QkgKpXZP0w3C2aKBbxN9UG7z18k=", "properties": {"ref": "#6562", "@spider": "giantfoodstores", "addr:street_address": "2201 Cottman Avenue", "addr:city": "Philadelphia", "addr:state": "PA", "addr:postcode": "19149", "name": "GIANT Philadelphia", "phone": "(215) 722-2043", "website": "https://stores.giantfoodstores.com/pa/philadelphia/2201-cottman-avenue", "opening_hours": "Mo-Su 06:00-23:00", "brand": "Giant", "brand:wikidata": "Q5558332"}, "geometry": {"type": "Point", "coordinates": [-75.0611677, 40.0494196]}},
{"type": "Feature", "id": "SwC-ReNf5j8IJchotyrBrN7Qupo=", "properties": {"ref": "#6570", "@spider": "giantfoodstores", "addr:street_address": "1403 S Christopher Columbus Blvd", "addr:city": "Philadelphia", "addr:state": "PA", "addr:postcode": "19147", "name": "GIANT Philadelphia", "phone": "(215) 218-7290", "website": "https://stores.giantfoodstores.com/pa/philadelphia/1403-s-christopher-columbus-blvd", "opening_hours": "Mo-Su 06:00-23:00", "brand": "Giant", "brand:wikidata": "Q5558332"}, "geometry": {"type": "Point", "coordinates": [-75.14236090000001, 39.92837859999999]}},
{"type": "Feature", "id": "_PJwUkMZUYqo3PHX7fhwRSrmqbs=", "properties": {"ref": "#6552", "@spider": "giantfoodstores", "addr:street_address": "1004 N 2nd street", "addr:city": "Philadelphia", "addr:state": "PA", "addr:postcode": "19123", "name": "GIANT Heirloom Market Philadelphia", "phone": "(215) 923-3919", "website": "https://stores.giantfoodstores.com/pa/philadelphia/1004-n-2nd-street", "opening_hours": "Mo-Su 07:00-22:00", "brand": "Giant", "brand:wikidata": "Q5558332"}, "geometry": {"type": "Point", "coordinates": [-75.140376, 39.9664914]}},
{"type": "Feature", "id": "Yn38GN66RnbzN47WCGTFzb-RQyM=", "properties": {"ref": "#6474", "@spider": "giantfoodstores", "addr:street_address": "1153 N 5th St", "addr:city": "Perkasie", "addr:state": "PA", "addr:postcode": "18944", "name": "GIANT Perkasie", "phone": "(215) 257-1131", "website": "https://stores.giantfoodstores.com/pa/perkasie/1153-n-5th-st", "opening_hours": "Mo-Fr 06:00-23:00,09:00-20:00; Sa 06:00-23:00,09:00-17:00; Su 06:00-23:00,10:00-17:00", "brand": "Giant", "brand:wikidata": "Q5558332"}, "geometry": {"type": "Point", "coordinates": [-75.2753392, 40.3824395]}},
{"type": "Feature", "id": "qhjQ7XXRpzrWIX16TMQaFC_VeAI=", "properties": {"ref": "#6265", "@spider": "giantfoodstores", "addr:street_address": "1201 Knapp Rd", "addr:city": "North Wales", "addr:state": "PA", "addr:postcode": "19454", "name": "GIANT North Wales", "phone": "(215) 661-1025", "website": "https://stores.giantfoodstores.com/pa/north-wales/1201-knapp-rd", "opening_hours": "Mo-Fr 06:00-23:00,09:00-20:00; Sa 06:00-23:00,09:00-17:00; Su 06:00-23:00,10:00-17:00", "brand": "Giant", "brand:wikidata": "Q5558332"}, "geometry": {"type": "Point", "coordinates": [-75.24067282676697, 40.22759223387487]}},
{"type": "Feature", "id": "eqA0h7BDfbZmGxFWT3Mgx4OP4IU=", "properties": {"ref": "#6084", "@spider": "giantfoodstores", "addr:street_address": "2670 Egypt Rd", "addr:city": "Norristown", "addr:state": "PA", "addr:postcode": "19403", "name": "GIANT Norristown", "phone": "(610) 631-8130", "website": "https://stores.giantfoodstores.com/pa/norristown/2670-egypt-rd", "opening_hours": "Mo-Fr 06:00-23:00,09:00-20:00; Sa 06:00-23:00,09:00-17:00; Su 06:00-23:00,10:00-17:00", "brand": "Giant", "brand:wikidata": "Q5558332"}, "geometry": {"type": "Point", "coordinates": [-75.40549457073217, 40.12933598932536]}},
{"type": "Feature", "id": "3fhnmh9oAadV3h6SbSdiBbKDJTs=", "properties": {"ref": "#6526", "@spider": "giantfoodstores", "addr:street_address": "4855 West Chester Pike", "addr:city": "Newtown Square", "addr:state": "PA", "addr:postcode": "19073", "name": "GIANT Newtown Square", "phone": "(610) 325-2478", "website": "https://stores.giantfoodstores.com/pa/newtown-square/4855-west-chester-pike", "opening_hours": "Mo-Su 06:00-23:00", "brand": "Giant", "brand:wikidata": "Q5558332"}, "geometry": {"type": "Point", "coordinates": [-75.4402881860733, 39.97648292778461]}},
{"type": "Feature", "id": "JNxv0nd6AXN8eCdqr4UK__c37lM=", "properties": {"ref": "#6100", "@spider": "giantfoodstores", "addr:street_address": "12 Newport Plaza", "addr:city": "Newport", "addr:state": "PA", "addr:postcode": "17074", "name": "GIANT Newport", "phone": "(717) 567-3950", "website": "https://stores.giantfoodstores.com/pa/newport/12-newport-plaza", "opening_hours": "Mo-Su 06:00-23:00", "brand": "Giant", "brand:wikidata": "Q5558332"}, "geometry": {"type": "Point", "coordinates": [-77.1134273, 40.493555]}},
{"type": "Feature", "id": "bWQr-dZ_s3ZhxBwJdwGVdI2qIFc=", "properties": {"ref": "#6106", "@spider": "giantfoodstores", "addr:street_address": "6542 Logan Square", "addr:city": "New Hope", "addr:state": "PA", "addr:postcode": "18938", "name": "GIANT New Hope", "phone": "(215) 862-9061", "website": "https://stores.giantfoodstores.com/pa/new-hope/6542-logan-square", "opening_hours": "Mo-Fr 06:00-23:00,09:00-20:00; Sa 06:00-23:00,09:00-17:00; Su 06:00-23:00,10:00-17:00", "brand": "Giant", "brand:wikidata": "Q5558332"}, "geometry": {"type": "Point", "coordinates": [-74.97652351856232, 40.357005657958084]}},
{"type": "Feature", "id": "OFn6QXhgDqtt32uw_IjWJUM0EJ4=", "properties": {"ref": "#6253", "@spider": "giantfoodstores", "addr:street_address": "130 Old York Rd", "addr:city": "New Cumberland", "addr:state": "PA", "addr:postcode": "17070", "name": "GIANT New Cumberland", "phone": "(717) 774-4936", "website": "https://stores.giantfoodstores.com/pa/new-cumberland/130-old-york-rd", "opening_hours": "Mo-Fr 06:00-23:00,09:00-20:00; Sa 06:00-23:00,09:00-17:00; Su 06:00-23:00,10:00-17:00", "brand": "Giant", "brand:wikidata": "Q5558332"}, "geometry": {"type": "Point", "coordinates": [-76.85791343450546, 40.221724956494]}},
{"type": "Feature", "id": "Y6Mx6qUE1iSHvckFS0Yxrstdkhc=", "properties": {"ref": "#6473", "@spider": "giantfoodstores", "addr:street_address": "200 Town Ctr", "addr:city": "New Britain", "addr:state": "PA", "addr:postcode": "18901", "name": "GIANT New Britain", "phone": "(215) 345-0334", "website": "https://stores.giantfoodstores.com/pa/new-britain/200-town-ctr", "opening_hours": "Mo-Su 06:00-23:00", "brand": "Giant", "brand:wikidata": "Q5558332"}, "geometry": {"type": "Point", "coordinates": [-75.19141674041748, 40.29637243849128]}},
{"type": "Feature", "id": "B7Xq4E3SAVYZyQaMxCpuISrcKvc=", "properties": {"ref": "#6321", "@spider": "giantfoodstores", "addr:street_address": "859 Nazareth Pike", "addr:city": "Nazareth", "addr:state": "PA", "addr:postcode": "18064", "name": "GIANT Nazareth", "phone": "(610) 759-7213", "website": "https://stores.giantfoodstores.com/pa/nazareth/859-nazareth-pike", "opening_hours": "Mo-Fr 06:00-23:00,09:00-20:00; Sa 06:00-23:00,09:00-17:00; Su 06:00-23:00,10:00-17:00", "brand": "Giant", "brand:wikidata": "Q5558332"}, "geometry": {"type": "Point", "coordinates": [-75.3155831, 40.7307564]}},
{"type": "Feature", "id": "7kiOySM0Da1fB7bfkwxbE4KU4v4=", "properties": {"ref": "#6485", "@spider": "giantfoodstores", "addr:street_address": "789 E Main St", "addr:city": "Mount Joy", "addr:state": "PA", "addr:postcode": "17552", "name": "GIANT Mount Joy", "phone": "(717) 653-0396", "website": "https://stores.giantfoodstores.com/pa/mount-joy/789-e-main-st", "opening_hours": "Mo-Fr 06:00-23:00,09:00-20:00; Sa 06:00-23:00,09:00-17:00; Su 06:00-23:00,10:00-17:00", "brand": "Giant", "brand:wikidata": "Q5558332"}, "geometry": {"type": "Point", "coordinates": [-76.48501127958298, 40.111099932319654]}},
{"type": "Feature", "id": "oZMkXnxpxZEV9niWVOkquICtGXE=", "properties": {"ref": "#6103", "@spider": "giantfoodstores", "addr:street_address": "833 W Trenton Ave", "addr:city": "Morrisville", "addr:state": "PA", "addr:postcode": "19067", "name": "GIANT Morrisville", "phone": "(215) 295-8032", "website": "https://stores.giantfoodstores.com/pa/morrisville/833-w-trenton-ave", "opening_hours": "Mo-Su 06:00-23:00", "brand": "Giant", "brand:wikidata": "Q5558332"}, "geometry": {"type": "Point", "coordinates": [-74.7994553, 40.207644]}},
{"type": "Feature", "id": "L4MtuFC5fo5nEwVhUEVgXgSZ5Is=", "properties": {"ref": "#6088", "@spider": "giantfoodstores", "addr:street_address": "450 East Main St", "addr:city": "Middletown", "addr:state": "PA", "addr:postcode": "17057", "name": "GIANT Middletown", "phone": "(717) 948-1607", "website": "https://stores.giantfoodstores.com/pa/middletown/450-east-main-st", "opening_hours": "Mo-Fr 06:00-23:00,09:00-21:00; Sa 06:00-23:00,09:00-19:00; Su 06:00-23:00,09:00-17:00", "brand": "Giant", "brand:wikidata": "Q5558332"}, "geometry": {"type": "Point", "coordinates": [-76.7224282, 40.199617]}},
{"type": "Feature", "id": "D7xHLhZloFt7h6GBLZtb4Ry63zY=", "properties": {"ref": "#6005", "@spider": "giantfoodstores", "addr:street_address": "6560 Carlisle Pike", "addr:city": "Mechanicsburg", "addr:state": "PA", "addr:postcode": "17050", "name": "GIANT Mechanicsburg", "phone": "(717) 796-6555", "website": "https://stores.giantfoodstores.com/pa/mechanicsburg/6560-carlisle-pike", "opening_hours": "Mo-Fr 06:00-23:00,09:00-20:00; Sa 06:00-23:00,09:00-17:00; Su 06:00-23:00,10:00-17:00", "brand": "Giant", "brand:wikidata": "Q5558332"}, "geometry": {"type": "Point", "coordinates": [-77.03131020069122, 40.24755560060039]}},
{"type": "Feature", "id": "oZs0H09J4iopzQ5lIAgFqar_jSE=", "properties": {"ref": "#6331", "@spider": "giantfoodstores", "addr:street_address": "5301 Simpson Ferry Rd", "addr:city": "Mechanicsburg", "addr:state": "PA", "addr:postcode": "17055", "name": "GIANT Mechanicsburg", "phone": "(717) 766-6550", "website": "https://stores.giantfoodstores.com/pa/mechanicsburg/5301-simpson-ferry-rd", "opening_hours": "Mo-Fr 06:00-23:00,09:00-20:00; Sa 06:00-23:00,09:00-17:00; Su 06:00-23:00,10:00-17:00", "brand": "Giant", "brand:wikidata": "Q5558332"}, "geometry": {"type": "Point", "coordinates": [-76.99424475431442, 40.216066085117]}},
{"type": "Feature", "id": "d5imesNzO1lxzpgmccwjB7toIoc=", "properties": {"ref": "#6120", "@spider": "giantfoodstores", "addr:street_address": "255 Cumberland Pwky", "addr:city": "Mechanicsburg", "addr:state": "PA", "addr:postcode": "17055", "name": "GIANT Mechanicsburg", "phone": "(717) 591-0979", "website": "https://stores.giantfoodstores.com/pa/mechanicsburg/255-cumberland-pwky", "opening_hours": "Mo-Fr 06:00-23:00,09:00-20:00; Sa 06:00-23:00,09:00-17:00; Su 06:00-23:00,10:00-17:00", "brand": "Giant", "brand:wikidata": "Q5558332"}, "geometry": {"type": "Point", "coordinates": [-76.98180466890335, 40.195331285891896]}},
{"type": "Feature", "id": "OM8XTcvoPHyH-BMpjoL-FaTAyKQ=", "properties": {"ref": "#6272", "@spider": "giantfoodstores", "addr:street_address": "360 South 2nd St", "addr:city": "Mcconnellsburg", "addr:state": "PA", "addr:postcode": "17233", "name": "GIANT Mcconnellsburg", "phone": "(717) 485-0430", "website": "https://stores.giantfoodstores.com/pa/mcconnellsburg/360-south-2nd-st", "opening_hours": "Mo-Su 06:00-23:00", "brand": "Giant", "brand:wikidata": "Q5558332"}, "geometry": {"type": "Point", "coordinates": [-78.0002069, 39.9274269]}},
{"type": "Feature", "id": "aH2bP8tS1s7BNKx9v21A1Skta5U=", "properties": {"ref": "#6513", "@spider": "giantfoodstores", "addr:street_address": "1925 Norristown Rd", "addr:city": "Maple Glen", "addr:state": "PA", "addr:postcode": "19002", "name": "GIANT Maple Glen", "phone": "(215) 643-4567", "website": "https://stores.giantfoodstores.com/pa/maple-glen/1925-norristown-rd", "opening_hours": "Mo-Fr 06:00-23:00,09:00-20:00; Sa 06:00-23:00,09:00-17:00; Su 06:00-23:00,10:00-17:00", "brand": "Giant", "brand:wikidata": "Q5558332"}, "geometry": {"type": "Point", "coordinates": [-75.18226504325867, 40.17848804507512]}},
{"type": "Feature", "id": "Yy_CTsl78HVp5tkI4EUBc4kopok=", "properties": {"ref": "#6449", "@spider": "giantfoodstores", "addr:street_address": "205 Glen Dr", "addr:city": "Manchester", "addr:state": "PA", "addr:postcode": "17345", "name": "GIANT Manchester", "phone": "(717) 266-8560", "website": "https://stores.giantfoodstores.com/pa/manchester/205-glen-dr", "opening_hours": "Mo-Su 06:00-23:00", "brand": "Giant", "brand:wikidata": "Q5558332"}, "geometry": {"type": "Point", "coordinates": [-76.72650396823883, 40.04292219286973]}},
{"type": "Feature", "id": "IzHYZ0Urri1K3u6rFDncCv6wVa8=", "properties": {"ref": "#6477", "@spider": "giantfoodstores", "addr:street_address": "225 Lancaster Ave", "addr:city": "Malvern", "addr:state": "PA", "addr:postcode": "19355", "name": "GIANT Malvern", "phone": "(610) 296-5551", "website": "https://stores.giantfoodstores.com/pa/malvern/225-lancaster-ave", "opening_hours": "Mo-Su 06:00-23:00", "brand": "Giant", "brand:wikidata": "Q5558332"}, "geometry": {"type": "Point", "coordinates": [-75.54196804761887, 40.04230206350306]}},
{"type": "Feature", "id": "Y9G8Kva8qayqfF2nXAo_UsSv3Wk=", "properties": {"ref": "#6004", "@spider": "giantfoodstores", "addr:street_address": "1008 Lititz Pike", "addr:city": "Lititz", "addr:state": "PA", "addr:postcode": "17543", "name": "GIANT Lititz", "phone": "(717) 625-0303", "website": "https://stores.giantfoodstores.com/pa/lititz/1008-lititz-pike", "opening_hours": "Mo-Fr 06:00-23:00,09:00-20:00; Sa 06:00-23:00,09:00-17:00; Su 06:00-23:00,10:00-17:00", "brand": "Giant", "brand:wikidata": "Q5558332"}, "geometry": {"type": "Point", "coordinates": [-76.3074722, 40.1311865]}},
{"type": "Feature", "id": "w8v_DKBqrqXE52GPiJf5oH2nU6o=", "properties": {"ref": "#6025", "@spider": "giantfoodstores", "addr:street_address": "200 S Dorcas St", "addr:city": "Lewistown", "addr:state": "PA", "addr:postcode": "17044", "name": "GIANT Lewistown", "phone": "(717) 242-2371", "website": "https://stores.giantfoodstores.com/pa/lewistown/200-s-dorcas-st", "opening_hours": "Mo-Su 06:00-23:00", "brand": "Giant", "brand:wikidata": "Q5558332"}, "geometry": {"type": "Point", "coordinates": [-77.57039666175842, 40.595193262503514]}},
{"type": "Feature", "id": "SgAMf7wd3Njh-yl3TRZHjYz7rcs=", "properties": {"ref": "#6332", "@spider": "giantfoodstores", "addr:street_address": "224 Hardwood Drive", "addr:city": "Lewisburg", "addr:state": "PA", "addr:postcode": "17837", "name": "GIANT Lewisburg", "phone": "(570) 524-9868", "website": "https://stores.giantfoodstores.com/pa/lewisburg/224-hardwood-drive", "opening_hours": "Mo-Su 06:00-23:00", "brand": "Giant", "brand:wikidata": "Q5558332"}, "geometry": {"type": "Point", "coordinates": [-76.89549386501318, 40.96133111811247]}},
{"type": "Feature", "id": "90MIhI8WgfZ1UDkGbL_SLhAxDoU=", "properties": {"ref": "#6324", "@spider": "giantfoodstores", "addr:street_address": "4001 New Falls Rd", "addr:city": "Levittown", "addr:state": "PA", "addr:postcode": "19056", "name": "GIANT Levittown", "phone": "(215) 949-1408", "website": "https://stores.giantfoodstores.com/pa/levittown/4001-new-falls-rd", "opening_hours": "Mo-Fr 06:00-24:00,09:00-20:00; Sa 06:00-24:00,09:00-17:00; Su 06:00-24:00,10:00-17:00", "brand": "Giant", "brand:wikidata": "Q5558332"}, "geometry": {"type": "Point", "coordinates": [-74.88588094711304, 40.13438895845277]}},
{"type": "Feature", "id": "UbToOChlyCkHP0CQtfmHxn0i7qY=", "properties": {"ref": "#6117", "@spider": "giantfoodstores", "addr:street_address": "10 Newport Rd", "addr:city": "Leola", "addr:state": "PA", "addr:postcode": "17540", "name": "GIANT Leola", "phone": "(717) 656-9983", "website": "https://stores.giantfoodstores.com/pa/leola/10-newport-rd", "opening_hours": "Mo-Fr 06:00-23:00,09:00-20:00; Sa 06:00-23:00,09:00-17:00; Su 06:00-23:00,10:00-17:00", "brand": "Giant", "brand:wikidata": "Q5558332"}, "geometry": {"type": "Point", "coordinates": [-76.1913933, 40.0863621]}},
{"type": "Feature", "id": "jq-nCpCfj-1tuf-60eJ2sWftc3o=", "properties": {"ref": "#6320", "@spider": "giantfoodstores", "addr:street_address": "1241 Blakeslee Blvd", "addr:city": "Lehighton", "addr:state": "PA", "addr:postcode": "18235", "name": "GIANT Lehighton", "phone": "(570) 386-4146", "website": "https://stores.giantfoodstores.com/pa/lehighton/1241-blakeslee-blvd", "opening_hours": "Mo-Su 06:00-23:00", "brand": "Giant", "brand:wikidata": "Q5558332"}, "geometry": {"type": "Point", "coordinates": [-75.73131859302521, 40.81479986146346]}},
{"type": "Feature", "id": "wiNqhdNYdNQglGd6fn2Um59KXt8=", "properties": {"ref": "#6266", "@spider": "giantfoodstores", "addr:street_address": "835 Bowman Street", "addr:city": "Lebanon", "addr:state": "PA", "addr:postcode": "17046", "name": "GIANT Lebanon", "phone": "(717) 272-5584", "website": "https://stores.giantfoodstores.com/pa/lebanon/835-bowman-street", "opening_hours": "Mo-Su 06:00-23:00", "brand": "Giant", "brand:wikidata": "Q5558332"}, "geometry": {"type": "Point", "coordinates": [-76.39537383670591, 40.34534547709961]}},
{"type": "Feature", "id": "8qQvYowSQZzWrJyezZ4dVP0XEw4=", "properties": {"ref": "#6565", "@spider": "giantfoodstores", "addr:street_address": "1750 Quentin Road", "addr:city": "Lebanon", "addr:state": "PA", "addr:postcode": "17042", "name": "GIANT Lebanon", "phone": "(717) 270-9955", "website": "https://stores.giantfoodstores.com/pa/lebanon/1750-quentin-road", "opening_hours": "Mo-Su 06:00-22:00", "brand": "Giant", "brand:wikidata": "Q5558332"}, "geometry": {"type": "Point", "coordinates": [-76.423226, 40.3116703]}},
{"type": "Feature", "id": "Go67KfB2_Fm9tcNvXkcuXkynSv4=", "properties": {"ref": "#6329", "@spider": "giantfoodstores", "addr:street_address": "300 E Baltimore Ave", "addr:city": "Lansdowne", "addr:state": "PA", "addr:postcode": "19050", "name": "GIANT Lansdowne", "phone": "(610) 623-9223", "website": "https://stores.giantfoodstores.com/pa/lansdowne/300-e-baltimore-ave", "opening_hours": "Mo-Su 06:00-23:00", "brand": "Giant", "brand:wikidata": "Q5558332"}, "geometry": {"type": "Point", "coordinates": [-75.26401984698168, 39.939017954692304]}},
{"type": "Feature", "id": "8vVEBmysqoQcakX1WHbqq-iazJo=", "properties": {"ref": "#6480", "@spider": "giantfoodstores", "addr:street_address": "3 Doublewoods Rd", "addr:city": "Langhorne", "addr:state": "PA", "addr:postcode": "19047", "name": "GIANT Langhorne", "phone": "(215) 968-0676", "website": "https://stores.giantfoodstores.com/pa/langhorne/3-doublewoods-rd", "opening_hours": "Mo-Su 06:00-23:00", "brand": "Giant", "brand:wikidata": "Q5558332"}, "geometry": {"type": "Point", "coordinates": [-74.9266934, 40.2165725]}},
{"type": "Feature", "id": "QqyIN13porq-X98AQkk-R58T7HU=", "properties": {"ref": "#6517", "@spider": "giantfoodstores", "addr:street_address": "168 N Flowers Mill Rd", "addr:city": "Langhorne", "addr:state": "PA", "addr:postcode": "19047", "name": "GIANT Langhorne", "phone": "(215) 741-3360", "website": "https://stores.giantfoodstores.com/pa/langhorne/168-n-flowers-mill-rd", "opening_hours": "Mo-Fr 06:00-23:00,09:00-20:00; Sa 06:00-23:00,09:00-17:00; Su 06:00-23:00,10:00-17:00", "brand": "Giant", "brand:wikidata": "Q5558332"}, "geometry": {"type": "Point", "coordinates": [-74.90375518798828, 40.18249637792291]}},
{"type": "Feature", "id": "kHdaIRX5lwPAaLGWDMnOATtE8CE=", "properties": {"ref": "#6029", "@spider": "giantfoodstores", "addr:street_address": "550 Centerville Rd", "addr:city": "Lancaster", "addr:state": "PA", "addr:postcode": "17601", "name": "GIANT Lancaster", "phone": "(717) 898-3011", "website": "https://stores.giantfoodstores.com/pa/lancaster/550-centerville-rd", "opening_hours": "Mo-Su 06:00-23:00", "brand": "Giant", "brand:wikidata": "Q5558332"}, "geometry": {"type": "Point", "coordinates": [-76.4001017, 40.054506]}},
{"type": "Feature", "id": "SiBX4bmU6_y96Jn-eKVX7lHM-ug=", "properties": {"ref": "#6028", "@spider": "giantfoodstores", "addr:street_address": "235 N Reservoir St", "addr:city": "Lancaster", "addr:state": "PA", "addr:postcode": "17602", "name": "GIANT Direct Lancaster", "phone": "(800) 573-2763", "website": "https://stores.giantfoodstores.com/pa/lancaster/235-n-reservoir-st", "opening_hours": "Mo-Su 06:00-22:00", "brand": "Giant", "brand:wikidata": "Q5558332"}, "geometry": {"type": "Point", "coordinates": [-76.2886644374799, 40.04411293770261]}},
{"type": "Feature", "id": "iS9BhMGIjREiMAN3ONwraIp0wNU=", "properties": {"ref": "#6484", "@spider": "giantfoodstores", "addr:street_address": "1605 Lititz Pike", "addr:city": "Lancaster", "addr:state": "PA", "addr:postcode": "17601", "name": "GIANT Lancaster", "phone": "(717) 299-0391", "website": "https://stores.giantfoodstores.com/pa/lancaster/1605-lititz-pike", "opening_hours": "Mo-Fr 06:00-23:00,09:00-20:00; Sa 06:00-23:00,09:00-17:00; Su 06:00-23:00,10:00-17:00", "brand": "Giant", "brand:wikidata": "Q5558332"}, "geometry": {"type": "Point", "coordinates": [-76.30631983280176, 40.06774737397679]}},
{"type": "Feature", "id": "lzc14f_eGPb-5YiYRaAzRZldr8w=", "properties": {"ref": "#6065", "@spider": "giantfoodstores", "addr:street_address": "1360 Columbia Ave", "addr:city": "Lancaster", "addr:state": "PA", "addr:postcode": "17603", "name": "GIANT Lancaster", "phone": "(717) 291-9678", "website": "https://stores.giantfoodstores.com/pa/lancaster/1360-columbia-ave", "opening_hours": "Mo-Fr 06:00-23:00,09:00-20:00; Sa 06:00-23:00,09:00-17:00; Su 06:00-23:00,10:00-17:00", "brand": "Giant", "brand:wikidata": "Q5558332"}, "geometry": {"type": "Point", "coordinates": [-76.3403044, 40.0369836]}},
{"type": "Feature", "id": "SwbF3FWG_oB47Qb86dxxLI1-LnM=", "properties": {"ref": "#6548", "@spider": "giantfoodstores", "addr:street_address": "106 Willow Valley Square", "addr:city": "Lancaster", "addr:state": "PA", "addr:postcode": "17602", "name": "GIANT Lancaster", "phone": "(717) 464-2181", "website": "https://stores.giantfoodstores.com/pa/lancaster/106-willow-valley-square", "opening_hours": "Mo-Su 06:00-23:00", "brand": "Giant", "brand:wikidata": "Q5558332"}, "geometry": {"type": "Point", "coordinates": [-76.2854198, 39.9933429]}},
{"type": "Feature", "id": "y7Zg6gCxchL8MMQJ4tByVRHgvZU=", "properties": {"ref": "#6486", "@spider": "giantfoodstores", "addr:street_address": "15100 Kutztown Road", "addr:city": "KUTZTOWN", "addr:state": "PA", "addr:postcode": "19530", "name": "GIANT KUTZTOWN", "phone": "(610) 683-3689", "website": "https://stores.giantfoodstores.com/pa/kutztown/15100-kutztown-road", "opening_hours": "Mo-Su 06:00-23:00", "brand": "Giant", "brand:wikidata": "Q5558332"}, "geometry": {"type": "Point", "coordinates": [-75.78855693340302, 40.503092772687786]}},
{"type": "Feature", "id": "KSqFw8BTHrNgXvJhUvNY_90aCoU=", "properties": {"ref": "#6512", "@spider": "giantfoodstores", "addr:street_address": "310 S Henderson Rd", "addr:city": "King Of Prussia", "addr:state": "PA", "addr:postcode": "19406", "name": "GIANT King Of Prussia", "phone": "(610) 265-1870", "website": "https://stores.giantfoodstores.com/pa/king-of-prussia/310-s-henderson-rd", "opening_hours": "Mo-Fr 06:00-23:00,09:00-20:00; Sa 06:00-23:00,09:00-17:00; Su 06:00-23:00,10:00-17:00", "brand": "Giant", "brand:wikidata": "Q5558332"}, "geometry": {"type": "Point", "coordinates": [-75.3579573, 40.0916737]}},
{"type": "Feature", "id": "AWci6T5aMQIRWtmuIuljKVsG5uk=", "properties": {"ref": "#6516", "@spider": "giantfoodstores", "addr:street_address": "830 E Baltimore Pike", "addr:city": "Kennett Square", "addr:state": "PA", "addr:postcode": "19348", "name": "GIANT Kennett Square", "phone": "(610) 444-7020", "website": "https://stores.giantfoodstores.com/pa/kennett-square/830-e-baltimore-pike", "opening_hours": "Mo-Su 06:00-23:00", "brand": "Giant", "brand:wikidata": "Q5558332"}, "geometry": {"type": "Point", "coordinates": [-75.6829765, 39.8600859]}},
{"type": "Feature", "id": "ztxdgP0DjK509L2FUGa8fh7uMd0=", "properties": {"ref": "#6105", "@spider": "giantfoodstores", "addr:street_address": "350 Scarlet Rd", "addr:city": "Kennett Square", "addr:state": "PA", "addr:postcode": "19348", "name": "GIANT New Garden Center", "phone": "(610) 444-8160", "website": "https://stores.giantfoodstores.com/pa/kennett-square/350-scarlet-rd", "opening_hours": "Mo-Fr 06:00-23:00,09:00-20:00; Sa 06:00-23:00,09:00-17:00; Su 06:00-23:00,10:00-17:00", "brand": "Giant", "brand:wikidata": "Q5558332"}, "geometry": {"type": "Point", "coordinates": [-75.73163811904908, 39.84000425918338]}},
{"type": "Feature", "id": "Su0x9Dw-qhk3cHX9Lua1C_bLVaI=", "properties": {"ref": "#6277", "@spider": "giantfoodstores", "addr:street_address": "7673 Lake Raystown", "addr:city": "Huntingdon", "addr:state": "PA", "addr:postcode": "16652", "name": "GIANT Shopping Center", "phone": "(814) 643-2794", "website": "https://stores.giantfoodstores.com/pa/huntingdon/7673-lake-raystown", "opening_hours": "Mo-Fr 06:00-23:00,09:00-21:00; Sa 06:00-23:00,09:00-19:00; Su 06:00-23:00,09:00-17:00", "brand": "Giant", "brand:wikidata": "Q5558332"}, "geometry": {"type": "Point", "coordinates": [-78.00978273153305, 40.47890433404009]}},
{"type": "Feature", "id": "vMkmzjU0V9Hm8Qc37ou6f0XieiI=", "properties": {"ref": "#6509", "@spider": "giantfoodstores", "addr:street_address": "737 Huntingdon Pike", "addr:city": "Huntingdon Valley", "addr:state": "PA", "addr:postcode": "19006", "name": "GIANT Huntingdon Valley", "phone": "(215) 379-6900", "website": "https://stores.giantfoodstores.com/pa/huntingdon-valley/737-huntingdon-pike", "opening_hours": "Mo-Fr 06:00-23:00,09:00-20:00; Sa 06:00-23:00,09:00-17:00; Su 06:00-23:00,10:00-17:00", "brand": "Giant", "brand:wikidata": "Q5558332"}, "geometry": {"type": "Point", "coordinates": [-75.09179413318634, 40.086481397982254]}},
{"type": "Feature", "id": "cnwRnZCf-2BeQXKAZ7GVnicvo7g=", "properties": {"ref": "#6279", "@spider": "giantfoodstores", "addr:street_address": "277 Hershey Rd", "addr:city": "Hummelstown", "addr:state": "PA", "addr:postcode": "17036", "name": "GIANT Hummelstown", "phone": "(717) 256-0050", "website": "https://stores.giantfoodstores.com/pa/hummelstown/277-hershey-rd", "opening_hours": "Mo-Fr 06:00-23:00,09:00-21:00; Sa 06:00-23:00,09:00-19:00; Su 06:00-23:00,09:00-17:00", "brand": "Giant", "brand:wikidata": "Q5558332"}, "geometry": {"type": "Point", "coordinates": [-76.70020759105682, 40.31156096984361]}},
{"type": "Feature", "id": "SsLC4Fu1uNSTZZ3MyIUlGwgufIs=", "properties": {"ref": "#6089", "@spider": "giantfoodstores", "addr:street_address": "314 Horsham Rd", "addr:city": "Horsham", "addr:state": "PA", "addr:postcode": "19044", "name": "GIANT Horsham", "phone": "(215) 682-7422", "website": "https://stores.giantfoodstores.com/pa/horsham/314-horsham-rd", "opening_hours": "Mo-Su 06:00-23:00", "brand": "Giant", "brand:wikidata": "Q5558332"}, "geometry": {"type": "Point", "coordinates": [-75.1332126, 40.1820957]}},
{"type": "Feature", "id": "ymj6xtbGVYp_BEt_G7-cpGngA1M=", "properties": {"ref": "#6097", "@spider": "giantfoodstores", "addr:street_address": "1250 Cocoa Ave", "addr:city": "Hershey", "addr:state": "PA", "addr:postcode": "17033", "name": "GIANT Hershey", "phone": "(717) 312-0725", "website": "https://stores.giantfoodstores.com/pa/hershey/1250-cocoa-ave", "opening_hours": "Mo-Fr 06:00-23:00,09:00-20:00; Sa 06:00-23:00,09:00-17:00; Su 06:00-23:00,10:00-17:00", "brand": "Giant", "brand:wikidata": "Q5558332"}, "geometry": {"type": "Point", "coordinates": [-76.64938777685165, 40.269246545324]}},
{"type": "Feature", "id": "7H1FCPMwV3Eu5WzmH3gOryqqRQ8=", "properties": {"ref": "#6043", "@spider": "giantfoodstores", "addr:street_address": "1880 Leithsville Rd", "addr:city": "Hellertown", "addr:state": "PA", "addr:postcode": "18055", "name": "GIANT Hellertown", "phone": "(610) 838-7700", "website": "https://stores.giantfoodstores.com/pa/hellertown/1880-leithsville-rd", "opening_hours": "Mo-Fr 06:00-23:00,09:00-20:00; Sa 06:00-23:00,09:00-17:00; Su 06:00-23:00,10:00-17:00", "brand": "Giant", "brand:wikidata": "Q5558332"}, "geometry": {"type": "Point", "coordinates": [-75.3407756, 40.5626352]}},
{"type": "Feature", "id": "93IzYMuSNA38Tby6NdFE859yTB0=", "properties": {"ref": "#6081", "@spider": "giantfoodstores", "addr:street_address": "70 S Locust St", "addr:city": "Hazleton", "addr:state": "PA", "addr:postcode": "18201", "name": "GIANT Hazleton", "phone": "(570) 459-5613", "website": "https://stores.giantfoodstores.com/pa/hazleton/70-s-locust-st", "opening_hours": "Mo-Fr 06:00-23:00,09:00-21:00; Sa 06:00-23:00,09:00-19:00; Su 06:00-23:00,09:00-17:00", "brand": "Giant", "brand:wikidata": "Q5558332"}, "geometry": {"type": "Point", "coordinates": [-75.98256647586823, 40.95393366529133]}},
{"type": "Feature", "id": "QrmdU_B0nuURvuIVDJ-6qwTUVq0=", "properties": {"ref": "#6442", "@spider": "giantfoodstores", "addr:street_address": "116 Township Line Rd", "addr:city": "Havertown", "addr:state": "PA", "addr:postcode": "19083", "name": "GIANT Havertown", "phone": "(610) 449-1161", "website": "https://stores.giantfoodstores.com/pa/havertown/116-township-line-rd", "opening_hours": "Mo-Fr 06:00-24:00,09:00-20:00; Sa 06:00-24:00,09:00-17:00; Su 06:00-24:00,10:00-17:00", "brand": "Giant", "brand:wikidata": "Q5558332"}, "geometry": {"type": "Point", "coordinates": [-75.3022734, 39.966634]}},
{"type": "Feature", "id": "JYWaPu0M2-YpTbLe9C2rcmWwwEE=", "properties": {"ref": "#6445", "@spider": "giantfoodstores", "addr:street_address": "1540 Cowpath Rd", "addr:city": "Hatfield", "addr:state": "PA", "addr:postcode": "19440", "name": "GIANT Hatfield", "phone": "(215) 361-4190", "website": "https://stores.giantfoodstores.com/pa/hatfield/1540-cowpath-rd", "opening_hours": "Mo-Fr 06:00-23:00,09:00-20:00; Sa 06:00-23:00,09:00-17:00; Su 06:00-23:00,10:00-17:00", "brand": "Giant", "brand:wikidata": "Q5558332"}, "geometry": {"type": "Point", "coordinates": [-75.2905533, 40.2721132]}},
{"type": "Feature", "id": "rrA8aJyH8Qr6nddjAuJIFFAtsjo=", "properties": {"ref": "#6564", "@spider": "giantfoodstores", "addr:street_address": "6301 Grayson Road", "addr:city": "Harrisburg", "addr:state": "PA", "addr:postcode": "17111", "name": "GIANT Harrisburg", "phone": "(717) 561-1285", "website": "https://stores.giantfoodstores.com/pa/harrisburg/6301-grayson-road", "opening_hours": "Mo-Su 06:00-23:00", "brand": "Giant", "brand:wikidata": "Q5558332"}, "geometry": {"type": "Point", "coordinates": [-76.7763375, 40.2611466]}},
{"type": "Feature", "id": "ipqN0GpoVKrU3yl9z-SCtnW9Cfc=", "properties": {"ref": "#6539", "@spider": "giantfoodstores", "addr:street_address": "5005 Jonestown Road", "addr:city": "Harrisburg", "addr:state": "PA", "addr:postcode": "17109", "name": "GIANT Harrisburg", "phone": "(717) 545-3752", "website": "https://stores.giantfoodstores.com/pa/harrisburg/5005-jonestown-road", "opening_hours": "Mo-Fr 06:00-24:00,09:00-20:00; Sa 06:00-24:00,09:00-17:00; Su 06:00-24:00,10:00-17:00", "brand": "Giant", "brand:wikidata": "Q5558332"}, "geometry": {"type": "Point", "coordinates": [-76.80246412754059, 40.30639993974353]}},
{"type": "Feature", "id": "4uTo4icao9-eSRAev8M1O4GV9so=", "properties": {"ref": "#6304", "@spider": "giantfoodstores", "addr:street_address": "4211 Union Deposit Rd", "addr:city": "Harrisburg", "addr:state": "PA", "addr:postcode": "17111", "name": "GIANT Harrisburg", "phone": "(717) 920-0437", "website": "https://stores.giantfoodstores.com/pa/harrisburg/4211-union-deposit-rd", "opening_hours": "Mo-Fr 06:00-23:00,09:00-20:00; Sa 06:00-23:00,09:00-17:00; Su 06:00-23:00,10:00-17:00", "brand": "Giant", "brand:wikidata": "Q5558332"}, "geometry": {"type": "Point", "coordinates": [-76.8166046, 40.2776794]}},
{"type": "Feature", "id": "uxNcBCEguR_q9X-pWSheHsA3DGM=", "properties": {"ref": "#6447", "@spider": "giantfoodstores", "addr:street_address": "2300 Linglestown Rd", "addr:city": "Harrisburg", "addr:state": "PA", "addr:postcode": "17110", "name": "GIANT Harrisburg", "phone": "(717) 545-0489", "website": "https://stores.giantfoodstores.com/pa/harrisburg/2300-linglestown-rd", "opening_hours": "Mo-Fr 06:00-23:00,09:00-21:00; Sa 06:00-23:00,09:00-19:00; Su 06:00-23:00,09:00-17:00", "brand": "Giant", "brand:wikidata": "Q5558332"}, "geometry": {"type": "Point", "coordinates": [-76.8623453, 40.3311389]}},
{"type": "Feature", "id": "gNwuMXalUxrmS6z0-hALv33YaKg=", "properties": {"ref": "#6006", "@spider": "giantfoodstores", "addr:street_address": "136 Kline Vlg", "addr:city": "Harrisburg", "addr:state": "PA", "addr:postcode": "17104", "name": "GIANT Harrisburg", "phone": "(717) 909-7306", "website": "https://stores.giantfoodstores.com/pa/harrisburg/136-kline-vlg", "opening_hours": "Mo-Fr 06:00-23:00,09:00-20:00; Sa 06:00-23:00,09:00-17:00; Su 06:00-23:00,10:00-17:00", "brand": "Giant", "brand:wikidata": "Q5558332"}, "geometry": {"type": "Point", "coordinates": [-76.84056222438812, 40.27118461625846]}},
{"type": "Feature", "id": "5J2wdxqi-gxLz9ZTmV9oWU9FUaY=", "properties": {"ref": "#6472", "@spider": "giantfoodstores", "addr:street_address": "611 Main St", "addr:city": "Harleysville", "addr:state": "PA", "addr:postcode": "19438", "name": "GIANT Harleysville", "phone": "(215) 513-0400", "website": "https://stores.giantfoodstores.com/pa/harleysville/611-main-st", "opening_hours": "Mo-Su 06:00-23:00", "brand": "Giant", "brand:wikidata": "Q5558332"}, "geometry": {"type": "Point", "coordinates": [-75.39215862751007, 40.285741907736174]}},
{"type": "Feature", "id": "lV6oAne_EPpa58AdwcSUKFf-8_M=", "properties": {"ref": "#6461", "@spider": "giantfoodstores", "addr:street_address": "801 Baltimore St", "addr:city": "Hanover", "addr:state": "PA", "addr:postcode": "17331", "name": "GIANT Hanover", "phone": "(717) 632-6673", "website": "https://stores.giantfoodstores.com/pa/hanover/801-baltimore-st", "opening_hours": "Mo-Fr 06:00-23:00,09:00-20:00; Sa 06:00-23:00,09:00-17:00; Su 06:00-23:00,10:00-17:00", "brand": "Giant", "brand:wikidata": "Q5558332"}, "geometry": {"type": "Point", "coordinates": [-76.9702808, 39.7860256]}},
{"type": "Feature", "id": "X47XuHonwk52HxICZUE1AY7vRkI=", "properties": {"ref": "#6054", "@spider": "giantfoodstores", "addr:street_address": "455 Eisenhower Dr", "addr:city": "Hanover", "addr:state": "PA", "addr:postcode": "17331", "name": "GIANT Hanover", "phone": "(717) 632-2882", "website": "https://stores.giantfoodstores.com/pa/hanover/455-eisenhower-dr", "opening_hours": "Mo-Fr 06:00-23:00,09:00-20:00; Sa 06:00-23:00,09:00-17:00; Su 06:00-23:00,10:00-17:00", "brand": "Giant", "brand:wikidata": "Q5558332"}, "geometry": {"type": "Point", "coordinates": [-76.9775721, 39.8231142]}},
{"type": "Feature", "id": "irfqM3pWGuXCGzt-EnEcPhomyYo=", "properties": {"ref": "#6090", "@spider": "giantfoodstores", "addr:street_address": "3777 Peters Mtn", "addr:city": "Halifax", "addr:state": "PA", "addr:postcode": "17032", "name": "GIANT Halifax", "phone": "(717) 896-8703", "website": "https://stores.giantfoodstores.com/pa/halifax/3777-peters-mtn", "opening_hours": "Mo-Su 06:00-23:00", "brand": "Giant", "brand:wikidata": "Q5558332"}, "geometry": {"type": "Point", "coordinates": [-76.92496463656425, 40.455333744163]}},
{"type": "Feature", "id": "LihK_j4N6pHi7cB5lA2bxC1n1n4=", "properties": {"ref": "#6463", "@spider": "giantfoodstores", "addr:street_address": "173 Holly Rd", "addr:city": "Gilbertsville", "addr:state": "PA", "addr:postcode": "19525", "name": "GIANT Gilbertsville", "phone": "(610) 473-3200", "website": "https://stores.giantfoodstores.com/pa/gilbertsville/173-holly-rd", "opening_hours": "Mo-Fr 06:00-23:00,09:00-20:00; Sa 06:00-23:00,09:00-17:00; Su 06:00-23:00,10:00-17:00", "brand": "Giant", "brand:wikidata": "Q5558332"}, "geometry": {"type": "Point", "coordinates": [-75.61854511499405, 40.33555755651722]}},
{"type": "Feature", "id": "qhkPdoGWuYOOKNgGO6fJoHwIGpo=", "properties": {"ref": "#6267", "@spider": "giantfoodstores", "addr:street_address": "44 Natural Springs Rd", "addr:city": "Gettysburg", "addr:state": "PA", "addr:postcode": "17325", "name": "GIANT Gettysburg", "phone": "(717) 337-0017", "website": "https://stores.giantfoodstores.com/pa/gettysburg/44-natural-springs-rd", "opening_hours": "Mo-Fr 06:00-23:00,09:00-20:00; Sa 06:00-23:00,09:00-17:00; Su 06:00-23:00,10:00-17:00", "brand": "Giant", "brand:wikidata": "Q5558332"}, "geometry": {"type": "Point", "coordinates": [-77.2063679, 39.8381282]}},
{"type": "Feature", "id": "xXRuAA2uBtk_YyyKgCVa0mJ6LsQ=", "properties": {"ref": "#6522", "@spider": "giantfoodstores", "addr:street_address": "1874 Bethlehem Pike", "addr:city": "Flourtown", "addr:state": "PA", "addr:postcode": "19031", "name": "GIANT Flourtown", "phone": "(215) 836-4300", "website": "https://stores.giantfoodstores.com/pa/flourtown/1874-bethlehem-pike", "opening_hours": "Mo-Fr 06:00-23:00,09:00-20:00; Sa 06:00-23:00,09:00-17:00; Su 06:00-23:00,10:00-17:00", "brand": "Giant", "brand:wikidata": "Q5558332"}, "geometry": {"type": "Point", "coordinates": [-75.21074742078781, 40.111774821257704]}},
{"type": "Feature", "id": "TBCng1vQuOltHlaBi4cjnFmor_w=", "properties": {"ref": "#6541", "@spider": "giantfoodstores", "addr:street_address": "176 W. Street Road Feasterville", "addr:city": "Feasterville", "addr:state": "PA", "addr:postcode": "19053", "name": "GIANT Feasterville", "phone": "(215) 396-3393", "website": "https://stores.giantfoodstores.com/pa/feasterville/176-w.-street-road", "opening_hours": "Mo-Fr 06:00-23:00,09:00-20:00; Sa 06:00-23:00,09:00-17:00; Su 06:00-23:00,10:00-17:00", "brand": "Giant", "brand:wikidata": "Q5558332"}, "geometry": {"type": "Point", "coordinates": [-75.00909736441804, 40.152479601153665]}},
{"type": "Feature", "id": "sdNLSOnZUVqC3pyJjRxALC9r6LE=", "properties": {"ref": "#6094", "@spider": "giantfoodstores", "addr:street_address": "471 South Oxford Valley Rd", "addr:city": "Fairless Hills", "addr:state": "PA", "addr:postcode": "19030", "name": "GIANT Fairless Hills", "phone": "(215) 949-8941", "website": "https://stores.giantfoodstores.com/pa/fairless-hills/471-south-oxford-valley-rd", "opening_hours": "Mo-Fr 06:00-23:00,09:00-20:00; Sa 06:00-23:00,09:00-17:00; Su 06:00-23:00,10:00-17:00", "brand": "Giant", "brand:wikidata": "Q5558332"}, "geometry": {"type": "Point", "coordinates": [-74.85022097826004, 40.1726370114754]}},
{"type": "Feature", "id": "UoDlGmFLm5dbSwmG0pUuquld6wc=", "properties": {"ref": "#6478", "@spider": "giantfoodstores", "addr:street_address": "168 Eagleview Blvd", "addr:city": "Exton", "addr:state": "PA", "addr:postcode": "19341", "name": "GIANT Exton", "phone": "(610) 363-0799", "website": "https://stores.giantfoodstores.com/pa/exton/168-eagleview-blvd", "opening_hours": "Mo-Su 06:00-23:00", "brand": "Giant", "brand:wikidata": "Q5558332"}, "geometry": {"type": "Point", "coordinates": [-75.6648089, 40.0504655]}},
{"type": "Feature", "id": "e1UW3nhzeCRIIJ-seEoNdcMjeZo=", "properties": {"ref": "#6051", "@spider": "giantfoodstores", "addr:street_address": "141 E Swedesford Rd", "addr:city": "Exton", "addr:state": "PA", "addr:postcode": "19341", "name": "GIANT Exton", "phone": "(610) 594-0847", "website": "https://stores.giantfoodstores.com/pa/exton/141-e-swedesford-rd", "opening_hours": "Mo-Fr 06:00-23:00,09:00-20:00; Sa 06:00-23:00,09:00-17:00; Su 06:00-23:00,10:00-17:00", "brand": "Giant", "brand:wikidata": "Q5558332"}, "geometry": {"type": "Point", "coordinates": [-75.6277167, 40.0349236]}},
{"type": "Feature", "id": "YHc_3BbR47Kynqzr0-m17Z2PR6o=", "properties": {"ref": "#6501", "@spider": "giantfoodstores", "addr:street_address": "850 East Main St", "addr:city": "Ephrata", "addr:state": "PA", "addr:postcode": "17522", "name": "GIANT Ephrata", "phone": "(717) 733-6334", "website": "https://stores.giantfoodstores.com/pa/ephrata/850-east-main-st", "opening_hours": "Mo-Fr 06:00-23:00,09:00-20:00; Sa 06:00-23:00,09:00-17:00; Su 06:00-23:00,10:00-17:00", "brand": "Giant", "brand:wikidata": "Q5558332"}, "geometry": {"type": "Point", "coordinates": [-76.15679740905767, 40.166601003390895]}},
{"type": "Feature", "id": "P3VG9XOLyDB-RF7ts5F1bw7TBwg=", "properties": {"ref": "#6529", "@spider": "giantfoodstores", "addr:street_address": "4510 Marketplace Way", "addr:city": "Enola", "addr:state": "PA", "addr:postcode": "17025", "name": "GIANT Enola", "phone": "(717) 909-7012", "website": "https://stores.giantfoodstores.com/pa/enola/4510-marketplace-way", "opening_hours": "Mo-Fr 06:00-24:00,09:00-21:00; Sa 06:00-24:00,09:00-19:00; Su 06:00-24:00,09:00-17:00", "brand": "Giant", "brand:wikidata": "Q5558332"}, "geometry": {"type": "Point", "coordinates": [-76.97562217712408, 40.29296823189472]}},
{"type": "Feature", "id": "jEVJA8dN1ZmGgtPidOB2Uxp5rDc=", "properties": {"ref": "#6014", "@spider": "giantfoodstores", "addr:street_address": "1278 S Market St", "addr:city": "Elizabethtown", "addr:state": "PA", "addr:postcode": "17022", "name": "GIANT Elizabethtown", "phone": "(717) 367-1943", "website": "https://stores.giantfoodstores.com/pa/elizabethtown/1278-s-market-st", "opening_hours": "Mo-Fr 06:00-23:00,09:00-21:00; Sa 06:00-23:00,09:00-19:00; Su 06:00-23:00,09:00-17:00", "brand": "Giant", "brand:wikidata": "Q5558332"}, "geometry": {"type": "Point", "coordinates": [-76.590856, 40.1392089]}},
{"type": "Feature", "id": "CbjEXuye2RAuch3YpEgkC_avieY=", "properties": {"ref": "#6255", "@spider": "giantfoodstores", "addr:street_address": "801 S 25th St", "addr:city": "Easton", "addr:state": "PA", "addr:postcode": "18045", "name": "GIANT Easton", "phone": "(484) 546-0084", "website": "https://stores.giantfoodstores.com/pa/easton/801-s-25th-st", "opening_hours": "Mo-Fr 06:00-24:00,09:00-20:00; Sa 06:00-24:00,09:00-17:00; Su 06:00-24:00,10:00-17:00", "brand": "Giant", "brand:wikidata": "Q5558332"}, "geometry": {"type": "Point", "coordinates": [-75.24958848953247, 40.676663342350274]}},
{"type": "Feature", "id": "bm_ytyvJMxIpc9r8opzvyv_a-pE=", "properties": {"ref": "#6330", "@spider": "giantfoodstores", "addr:street_address": "301 Town Center Blvd", "addr:city": "Easton", "addr:state": "PA", "addr:postcode": "18040", "name": "GIANT Easton", "phone": "(610) 559-8770", "website": "https://stores.giantfoodstores.com/pa/easton/301-town-center-blvd", "opening_hours": "Mo-Fr 06:00-23:00,09:00-20:00; Sa 06:00-23:00,09:00-17:00; Su 06:00-23:00,10:00-17:00", "brand": "Giant", "brand:wikidata": "Q5558332"}, "geometry": {"type": "Point", "coordinates": [-75.22251963615412, 40.71297995577654]}},
{"type": "Feature", "id": "uoMvgpxtKzZ2g1HRZjCPuA9b4Dc=", "properties": {"ref": "#6504", "@spider": "giantfoodstores", "addr:street_address": "300 Lincoln Avenue", "addr:city": "East Stroudsburg", "addr:state": "PA", "addr:postcode": "18301", "name": "GIANT East Stroudsburg", "phone": "(570) 476-2908", "website": "https://stores.giantfoodstores.com/pa/east-stroudsburg/300-lincoln-avenue", "opening_hours": "Mo-Fr 06:00-23:00,09:00-20:00; Sa 06:00-23:00,09:00-17:00; Su 06:00-23:00,10:00-17:00", "brand": "Giant", "brand:wikidata": "Q5558332"}, "geometry": {"type": "Point", "coordinates": [-75.18215946737962, 40.99281959810351]}},
{"type": "Feature", "id": "VZ3SMzL_5s8L0GYPxTWG7-5hNOg=", "properties": {"ref": "#6572", "@spider": "giantfoodstores", "addr:street_address": "4377 Swamp Rd", "addr:city": "Doylestown", "addr:state": "PA", "addr:postcode": "18901", "name": "GIANT Doylestown", "phone": "(267) 885-0920", "website": "https://stores.giantfoodstores.com/pa/doylestown/4377-swamp-rd", "opening_hours": "Mo-Su 06:00-23:00", "brand": "Giant", "brand:wikidata": "Q5558332"}, "geometry": {"type": "Point", "coordinates": [-75.13340914936707, 40.33268442745099]}},
{"type": "Feature", "id": "9-9zIBA0syJNf76EVS8GmVSuiJ0=", "properties": {"ref": "#6306", "@spider": "giantfoodstores", "addr:street_address": "2130 Palomino Rd", "addr:city": "Dover", "addr:state": "PA", "addr:postcode": "17315", "name": "GIANT Dover", "phone": "(717) 292-3702", "website": "https://stores.giantfoodstores.com/pa/dover/2130-palomino-rd", "opening_hours": "Mo-Fr 06:00-23:00,09:00-20:00; Sa 06:00-23:00,09:00-17:00; Su 06:00-23:00,10:00-17:00", "brand": "Giant", "brand:wikidata": "Q5558332"}, "geometry": {"type": "Point", "coordinates": [-76.83970123529434, 39.99452283661598]}},
{"type": "Feature", "id": "KiWuCYC_XMTvEjaCmSSDAvou5QQ=", "properties": {"ref": "#6310", "@spider": "giantfoodstores", "addr:street_address": "830 N US Route 15", "addr:city": "Dillsburg", "addr:state": "PA", "addr:postcode": "17019", "name": "GIANT Dillsburg", "phone": "(717) 638-1230", "website": "https://stores.giantfoodstores.com/pa/dillsburg/830-n-us-route-15", "opening_hours": "Mo-Fr 06:00-23:00,09:00-21:00; Sa 06:00-23:00,09:00-19:00; Su 06:00-23:00,09:00-17:00", "brand": "Giant", "brand:wikidata": "Q5558332"}, "geometry": {"type": "Point", "coordinates": [-77.01985716819763, 40.128839695311605]}},
{"type": "Feature", "id": "KT08owmUpXhisD2e2s1--ARFEzQ=", "properties": {"ref": "#6316", "@spider": "giantfoodstores", "addr:street_address": "1550 Main St", "addr:city": "Dickson Cty", "addr:state": "PA", "addr:postcode": "18447", "name": "GIANT Dickson Cty", "phone": "(570) 307-1320", "website": "https://stores.giantfoodstores.com/pa/dickson-cty/1550-main-st", "opening_hours": "Mo-Fr 06:00-23:00,09:00-20:00; Sa 06:00-23:00,09:00-17:00; Su 06:00-23:00,10:00-17:00", "brand": "Giant", "brand:wikidata": "Q5558332"}, "geometry": {"type": "Point", "coordinates": [-75.6093345, 41.4676721]}},
{"type": "Feature", "id": "o-ZdZLpbk3om2nKB5prGYPjx2bA=", "properties": {"ref": "#6262", "@spider": "giantfoodstores", "addr:street_address": "502 Church St", "addr:city": "Danville", "addr:state": "PA", "addr:postcode": "17821", "name": "GIANT Danville", "phone": "(570) 271-0470", "website": "https://stores.giantfoodstores.com/pa/danville/502-church-st", "opening_hours": "Mo-Fr 06:00-23:00,09:00-20:00; Sa 06:00-23:00,09:00-17:00; Su 06:00-23:00,10:00-17:00", "brand": "Giant", "brand:wikidata": "Q5558332"}, "geometry": {"type": "Point", "coordinates": [-76.61241319999999, 40.963339]}},
{"type": "Feature", "id": "MD8pVKKJdtimT3aW7m7Zj5tWrhQ=", "properties": {"ref": "#6319", "@spider": "giantfoodstores", "addr:street_address": "202 Chestnut St", "addr:city": "Coplay", "addr:state": "PA", "addr:postcode": "18037", "name": "GIANT Coplay", "phone": "(610) 262-7581", "website": "https://stores.giantfoodstores.com/pa/coplay/202-chestnut-st", "opening_hours": "Mo-Fr 06:00-23:00,09:00-20:00; Sa 06:00-23:00,09:00-17:00; Su 06:00-23:00,10:00-17:00", "brand": "Giant", "brand:wikidata": "Q5558332"}, "geometry": {"type": "Point", "coordinates": [-75.4937846, 40.6744156]}},
{"type": "Feature", "id": "dfmynUwbVFgem0YD1ppbPMScOgA=", "properties": {"ref": "#6314", "@spider": "giantfoodstores", "addr:street_address": "216 E Fairmont St", "addr:city": "Coopersburg", "addr:state": "PA", "addr:postcode": "18036", "name": "GIANT Coopersburg", "phone": "(610) 282-4200", "website": "https://stores.giantfoodstores.com/pa/coopersburg/216-e-fairmont-st", "opening_hours": "Mo-Fr 06:00-23:00,09:00-20:00; Sa 06:00-23:00,09:00-17:00; Su 06:00-23:00,10:00-17:00", "brand": "Giant", "brand:wikidata": "Q5558332"}, "geometry": {"type": "Point", "coordinates": [-75.3842293, 40.5169333]}},
{"type": "Feature", "id": "PWZ9w0zT4UYoQo_DqFvFRwUJRiA=", "properties": {"ref": "#6481", "@spider": "giantfoodstores", "addr:street_address": "10 East Ridge Pike", "addr:city": "Conshohocken", "addr:state": "PA", "addr:postcode": "19428", "name": "GIANT Conshohocken", "phone": "(610) 940-2231", "website": "https://stores.giantfoodstores.com/pa/conshohocken/10-east-ridge-pike", "opening_hours": "Mo-Fr 06:00-23:00,09:00-20:00; Sa 06:00-23:00,09:00-17:00; Su 06:00-23:00,10:00-17:00", "brand": "Giant", "brand:wikidata": "Q5558332"}, "geometry": {"type": "Point", "coordinates": [-75.28518006205559, 40.093300140389246]}},
{"type": "Feature", "id": "Oxtz9D9727Uc0NFGlunE1UrZfAk=", "properties": {"ref": "#6566", "@spider": "giantfoodstores", "addr:street_address": "3985 Columbia Avenue", "addr:city": "Columbia", "addr:state": "PA", "addr:postcode": "17512", "name": "GIANT Columbia", "phone": "(717) 285-4380", "website": "https://stores.giantfoodstores.com/pa/columbia/3985-columbia-avenue", "opening_hours": "Mo-Su 06:00-22:00", "brand": "Giant", "brand:wikidata": "Q5558332"}, "geometry": {"type": "Point", "coordinates": [-76.4534436, 40.0378908]}},
{"type": "Feature", "id": "VhGgmdK6zyoycyXCPMhqoREEuKo=", "properties": {"ref": "#6098", "@spider": "giantfoodstores", "addr:street_address": "481 West Penn Ave", "addr:city": "Cleona", "addr:state": "PA", "addr:postcode": "17042", "name": "GIANT Cleona", "phone": "(717) 274-5629", "website": "https://stores.giantfoodstores.com/pa/cleona/481-west-penn-ave", "opening_hours": "Mo-Su 06:00-23:00", "brand": "Giant", "brand:wikidata": "Q5558332"}, "geometry": {"type": "Point", "coordinates": [-76.48577034473419, 40.33716864965601]}},
{"type": "Feature", "id": "r0r9BwWmQIuUM3ai2R1lPzGMiVg=", "properties": {"ref": "#6052", "@spider": "giantfoodstores", "addr:street_address": "993 Wayne Ave", "addr:city": "Chambersburg", "addr:state": "PA", "addr:postcode": "17201", "name": "GIANT Chambersburg", "phone": "(717) 263-4000", "website": "https://stores.giantfoodstores.com/pa/chambersburg/993-wayne-ave", "opening_hours": "Mo-Fr 06:00-23:00,09:00-20:00; Sa 06:00-23:00,09:00-17:00; Su 06:00-23:00,10:00-17:00", "brand": "Giant", "brand:wikidata": "Q5558332"}, "geometry": {"type": "Point", "coordinates": [-77.6514791, 39.915621]}},
{"type": "Feature", "id": "l0i_Dve9-pCPTNKi-UoygtZbYPs=", "properties": {"ref": "#6443", "@spider": "giantfoodstores", "addr:street_address": "925 Norland Ave", "addr:city": "Chambersburg", "addr:state": "PA", "addr:postcode": "17201", "name": "GIANT Chambersburg", "phone": "(717) 267-0440", "website": "https://stores.giantfoodstores.com/pa/chambersburg/925-norland-ave", "opening_hours": "Mo-Fr 06:00-23:00,09:00-20:00; Sa 06:00-23:00,09:00-17:00; Su 06:00-23:00,10:00-17:00", "brand": "Giant", "brand:wikidata": "Q5558332"}, "geometry": {"type": "Point", "coordinates": [-77.6296112, 39.9422686]}},
{"type": "Feature", "id": "SAtNgjSt0lpfTs-Kv_Bro0yZeL8=", "properties": {"ref": "#6535", "@spider": "giantfoodstores", "addr:street_address": "10000 Shannondell Drive", "addr:city": "Audubon", "addr:state": "PA", "addr:postcode": "19403", "name": "GIANT Audubon", "phone": "(610) 728-5600", "website": "https://stores.giantfoodstores.com/pa/audubon/10000-shannondell-drive", "opening_hours": "Mo-Fr 09:00-16:00,09:00-16:00; Sa 09:00-13:00,09:00-13:00", "brand": "Giant", "brand:wikidata": "Q5558332"}, "geometry": {"type": "Point", "coordinates": [-75.41137382998596, 40.13315084958855]}},
{"type": "Feature", "id": "vxDINAiTPrfOog-rpYKEYC1rgp4=", "properties": {"ref": "#6278", "@spider": "giantfoodstores", "addr:street_address": "3300 Concord Rd", "addr:city": "Aston", "addr:state": "PA", "addr:postcode": "19014", "name": "GIANT Aston", "phone": "(610) 497-5375", "website": "https://stores.giantfoodstores.com/pa/aston/3300-concord-rd", "opening_hours": "Mo-Fr 06:00-23:00,09:00-20:00; Sa 06:00-23:00,09:00-17:00; Su 06:00-23:00,10:00-17:00", "brand": "Giant", "brand:wikidata": "Q5558332"}, "geometry": {"type": "Point", "coordinates": [-75.42389592736956, 39.86748399107785]}},
{"type": "Feature", "id": "RgVmgoMfx0Hv7kbVDsRmhFSk8_o=", "properties": {"ref": "#6243", "@spider": "giantfoodstores", "addr:street_address": "3070 Tilghman St", "addr:city": "Allentown", "addr:state": "PA", "addr:postcode": "18104", "name": "GIANT Allentown", "phone": "(610) 776-1531", "website": "https://stores.giantfoodstores.com/pa/allentown/3070-tilghman-st", "opening_hours": "Mo-Fr 06:00-23:00,09:00-20:00; Sa 06:00-23:00,09:00-17:00; Su 06:00-23:00,10:00-17:00", "brand": "Giant", "brand:wikidata": "Q5558332"}, "geometry": {"type": "Point", "coordinates": [-75.52482336759567, 40.59634193495314]}},
{"type": "Feature", "id": "gJvAvoLty58baeWeka5fHuB8_TQ=", "properties": {"ref": "#6074", "@spider": "giantfoodstores", "addr:street_address": "3015 West Emmaus Ave", "addr:city": "Allentown", "addr:state": "PA", "addr:postcode": "18103", "name": "GIANT Allentown", "phone": "(610) 791-9644", "website": "https://stores.giantfoodstores.com/pa/allentown/3015-west-emmaus-ave", "opening_hours": "Mo-Fr 06:00-23:00,09:00-20:00; Sa 06:00-23:00,09:00-17:00; Su 06:00-23:00,10:00-17:00", "brand": "Giant", "brand:wikidata": "Q5558332"}, "geometry": {"type": "Point", "coordinates": [-75.4828313, 40.5585404]}},
{"type": "Feature", "id": "vYzCoOSjxnLr2XuNTR9dMFpYqCQ=", "properties": {"ref": "#6083", "@spider": "giantfoodstores", "addr:street_address": "539 North Oak Ave", "addr:city": "Aldan", "addr:state": "PA", "addr:postcode": "19018", "name": "GIANT Aldan", "phone": "(610) 623-5313", "website": "https://stores.giantfoodstores.com/pa/aldan/539-north-oak-ave", "opening_hours": "Mo-Fr 06:00-23:00,09:00-20:00; Sa 06:00-23:00,09:00-17:00; Su 06:00-23:00,10:00-17:00", "brand": "Giant", "brand:wikidata": "Q5558332"}, "geometry": {"type": "Point", "coordinates": [-75.29716943187714, 39.921443543576174]}}]}