{"type":"FeatureCollection","features":[{"type": "Feature", "id": "zlZvTk7b0ghZUiDmpLIqpwspoms=", "properties": {"ref": "black-park", "@spider": "go_ape_gb", "addr:street_address": "Go Ape Black Park,  Black Park Road Wexham", "addr:state": "Slough", "addr:postcode": "SL3 6DS", "addr:country": "GB", "name": "Black Park, Slough", "website": "https://goape.co.uk/locations/black-park", "contact:twitter": "@GoApeTribe", "image": "https://goape.co.uk/GoApe/media/Banners/Tarzan-Climb.jpg", "brand": "Go Ape", "brand:wikidata": "Q5574692"}, "geometry": {"type": "Point", "coordinates": [-0.5541739, 51.5392311]}},
{"type": "Feature", "id": "bKygMX_C1xENz5UHOUwM-dc5fiw=", "properties": {"ref": "bedgebury", "@spider": "go_ape_gb", "addr:street_address": "Go Ape Bedgebury, Bedgebury Road, Goudhurst, Cranbrook", "addr:state": "Kent", "addr:postcode": "TN17 2SJ", "addr:country": "GB", "name": "Bedgebury", "website": "https://goape.co.uk/locations/bedgebury", "contact:twitter": "@GoApeTribe", "image": "https://goape.co.uk/GoApe/media/Banners/bedgeburymainbanner.JPG", "brand": "Go Ape", "brand:wikidata": "Q5574692"}, "geometry": {"type": "Point", "coordinates": [0.4414154, 51.0708229]}},
{"type": "Feature", "id": "3ZII0sboSQK-cc_5FPRKMZpmzms=", "properties": {"ref": "battersea-park", "@spider": "go_ape_gb", "addr:street_address": "Go Ape Battersea,  Battersea Park", "addr:city": "London", "addr:postcode": "SW11 4NJ", "addr:country": "GB", "name": "Battersea Park, South London", "website": "https://goape.co.uk/locations/battersea-park", "contact:twitter": "@GoApeTribe", "image": "https://goape.co.uk/GoApe/media/Banners/goape_banner_battersea.jpg", "brand": "Go Ape", "brand:wikidata": "Q5574692"}, "geometry": {"type": "Point", "coordinates": [-0.1617251, 51.4757166]}},
{"type": "Feature", "id": "03zjo68jZ4Hj347c3_DWXBAb39U=", "properties": {"ref": "alice-holt", "@spider": "go_ape_gb", "addr:street_address": "Go Ape Alice Holt, Bucks Horn Oak, Nr Farnham, Surrey", "addr:state": "Surrey", "addr:postcode": "GU10 4LS", "addr:country": "GB", "name": "Alice Holt Forest", "website": "https://goape.co.uk/locations/alice-holt", "contact:twitter": "@GoApeTribe", "image": "https://goape.co.uk/GoApe/media/Banners/aliceholtadventurebanner.jpg", "brand": "Go Ape", "brand:wikidata": "Q5574692"}, "geometry": {"type": "Point", "coordinates": [-0.8473973, 51.1669689]}},
{"type": "Feature", "id": "9FH5sQ6xHcBqhWzUcFg2bbkOS-c=", "properties": {"ref": "alexandra-palace", "@spider": "go_ape_gb", "addr:street_address": "Go Ape Alexandra Palace, Alexandra Palace Way", "addr:city": "London", "addr:postcode": "N22 7AY", "addr:country": "GB", "name": "Alexandra Palace", "website": "https://goape.co.uk/locations/alexandra-palace", "contact:twitter": "@GoApeTribe", "image": "https://goape.co.uk/GoApe/media/Banners/alexandrapalacebanner.jpg", "brand": "Go Ape", "brand:wikidata": "Q5574692"}, "geometry": {"type": "Point", "coordinates": [-0.1319, 51.5967922]}},
{"type": "Feature", "id": "FLP0AU4cJ1zQJ_o6qtNZ3SOAMtw=", "properties": {"ref": "aberfoyle", "@spider": "go_ape_gb", "addr:street_address": "Go Ape Aberfoyle, The Lodge - Forest Visitor Centre, Queen Elizabeth Forest Park, Aberfoyle", "addr:state": "Stirling", "addr:postcode": "FK8 3SX", "addr:country": "GB", "name": "Aberfoyle", "website": "https://goape.co.uk/locations/aberfoyle", "contact:twitter": "@GoApeTribe", "image": "https://goape.co.uk/GoApe/media/Banners/aberfoyle_banner_goape.jpg", "brand": "Go Ape", "brand:wikidata": "Q5574692"}, "geometry": {"type": "Point", "coordinates": [-4.3858432, 56.1826287]}},
{"type": "Feature", "id": "nEL90TGqeTPbme5mEtoPC44K-FA=", "properties": {"ref": "wyre", "@spider": "go_ape_gb", "addr:street_address": "Go Ape Wyre Forest, , Callow Hill, Bewdley", "addr:state": "Worcestershire", "addr:postcode": "DY14 9XQ", "addr:country": "GB", "name": "Wyre Forest, Kidderminster", "website": "https://goape.co.uk/locations/wyre", "contact:twitter": "@GoApeTribe", "image": "https://goape.co.uk/GoApe/media/Banners/Wyre-1920_1.jpg", "brand": "Go Ape", "brand:wikidata": "Q5574692"}, "geometry": {"type": "Point", "coordinates": [-2.36784838339572, 52.3629370655487]}},
{"type": "Feature", "id": "wpfQao07ePNj91p5snH_9vC4Pkk=", "properties": {"ref": "woburn", "@spider": "go_ape_gb", "addr:street_address": "Go Ape Woburn, Turnpike Road", "addr:state": "Bedford", "addr:postcode": "MK43 0XB", "addr:country": "GB", "name": "Woburn", "website": "https://goape.co.uk/locations/woburn", "contact:twitter": "@GoApeTribe", "image": "https://goape.co.uk/GoApe/media/Banners/goapegroup.jpg", "brand": "Go Ape", "brand:wikidata": "Q5574692"}, "geometry": {"type": "Point", "coordinates": [-0.6035277, 51.9998084]}},
{"type": "Feature", "id": "V8AK7hYynLFttRdvZGDIXUC1XU8=", "properties": {"ref": "whinlatter", "@spider": "go_ape_gb", "addr:street_address": "Go Ape Whinlatter, Whinlatter Forest Park, Whinlatter Pass", "addr:city": "Braithwaite, Keswick", "addr:state": "Cumbria", "addr:postcode": "CA12 5TW", "addr:country": "GB", "name": "Whinlatter", "website": "https://goape.co.uk/locations/whinlatter", "contact:twitter": "@GoApeTribe", "image": "https://goape.co.uk/GoApe/media/Banners/Go-Ape-Whinlatter-Banner.jpg", "brand": "Go Ape", "brand:wikidata": "Q5574692"}, "geometry": {"type": "Point", "coordinates": [-3.2318473, 54.6095342]}},
{"type": "Feature", "id": "JeJizgk1sFoVRKlz9QOYh6ivzXs=", "properties": {"ref": "wendover", "@spider": "go_ape_gb", "addr:street_address": "Go Ape Wendover Woods , St Leonard's Rd. Off Upper Icknield Way", "addr:city": "Aston Clinton", "addr:state": "Buckinghamshire", "addr:postcode": "HP22 5NF", "addr:country": "GB", "name": "Wendover", "website": "https://goape.co.uk/locations/wendover", "contact:twitter": "@GoApeTribe", "image": "https://goape.co.uk/GoApe/media/Banners/wendovermainbanner.jpg", "brand": "Go Ape", "brand:wikidata": "Q5574692"}, "geometry": {"type": "Point", "coordinates": [-0.717478, 51.78634]}},
{"type": "Feature", "id": "5abhfohN4gTw-RCS-5aDBbVwSbo=", "properties": {"ref": "temple-newsam", "@spider": "go_ape_gb", "addr:street_address": "Stable Courtyard, Temple Newsam Estate", "addr:city": "Leeds", "addr:postcode": "LS15 0AD", "addr:country": "GB", "name": "Temple Newsam, Leeds", "website": "https://goape.co.uk/locations/temple-newsam", "contact:twitter": "@GoApeTribe", "image": "https://goape.co.uk/GoApe/media/Banners/190504_GA-GrizedaleD1-6757.jpg", "brand": "Go Ape", "brand:wikidata": "Q5574692"}, "geometry": {"type": "Point", "coordinates": [-1.455926, 53.7867866]}},
{"type": "Feature", "id": "xLLey_LFoJm_GmvS61RR22NAXqU=", "properties": {"ref": "thetford", "@spider": "go_ape_gb", "addr:street_address": "High Lodge Forest Centre, Santon Downham Brandon", "addr:state": "Suffolk", "addr:postcode": "IP27 0AF", "addr:country": "GB", "name": "Thetford Forest", "website": "https://goape.co.uk/locations/thetford", "contact:twitter": "@GoApeTribe", "image": "https://goape.co.uk/GoApe/media/Blog-images/3-millionth-gorilla.jpg", "brand": "Go Ape", "brand:wikidata": "Q5574692"}, "geometry": {"type": "Point", "coordinates": [0.661231, 52.4340908]}},
{"type": "Feature", "id": "7vJ81RKZvTcZ-2EBZhvnBITZFfs=", "properties": {"ref": "southampton", "@spider": "go_ape_gb", "addr:street_address": "Itchen Valley, Itchen Valley Country Park, Allington Lane", "addr:state": "Southampton", "addr:postcode": "SO30 3HQ", "addr:country": "GB", "name": "Southampton", "website": "https://goape.co.uk/locations/southampton", "contact:twitter": "@GoApeTribe", "image": "https://goape.co.uk/GoApe/media/Banners/Go-Ape-Southhampton-Banner-(1).jpg", "brand": "Go Ape", "brand:wikidata": "Q5574692"}, "geometry": {"type": "Point", "coordinates": [-1.3465441, 50.9443958]}},
{"type": "Feature", "id": "zdjMX3zTFtFpe3MjiJnijYxOT94=", "properties": {"ref": "sherwood-pines", "@spider": "go_ape_gb", "addr:street_address": "Sherwood Pines Forest Park, Edwinstowe", "addr:state": "Nottinghamshire", "addr:postcode": "NG21 9JH", "addr:country": "GB", "name": "Sherwood Pines, Nottinghamshire", "website": "https://goape.co.uk/locations/sherwood-pines", "contact:twitter": "@GoApeTribe", "image": "https://goape.co.uk/GoApe/media/Banners/Go-Ape-Forest-Segway.jpg", "brand": "Go Ape", "brand:wikidata": "Q5574692"}, "geometry": {"type": "Point", "coordinates": [-1.0884028, 53.1674115]}},
{"type": "Feature", "id": "CUKyuXhl6100Oth3QqybUcyy64o=", "properties": {"ref": "rivington", "@spider": "go_ape_gb", "addr:street_address": "Great House Barn, Rivington Lane", "addr:city": "Horwich", "addr:state": "Bolton", "addr:postcode": "BL6 7SB", "addr:country": "GB", "name": "Rivington", "website": "https://goape.co.uk/locations/rivington", "contact:twitter": "@GoApeTribe", "image": "https://goape.co.uk/GoApe/media/Banners/190504_GA-GrizedaleD1-6757.jpg", "brand": "Go Ape", "brand:wikidata": "Q5574692"}, "geometry": {"type": "Point", "coordinates": [-2.5658347, 53.6196902]}},
{"type": "Feature", "id": "sLMelHsu4ZHHGt0OegqqFdzGEnM=", "properties": {"ref": "normanby-hall", "@spider": "go_ape_gb", "addr:street_address": "Go Ape, Normanby Hall Country Park, Normanby Park", "addr:city": "Normanby", "addr:state": "Scunthorpe", "addr:postcode": "DN15 9HU", "addr:country": "GB", "name": "Normanby Hall", "website": "https://goape.co.uk/locations/normanby-hall", "contact:twitter": "@GoApeTribe", "image": "https://goape.co.uk/GoApe/media/Banners/Go-Ape-Normanby-Banner.jpg", "brand": "Go Ape", "brand:wikidata": "Q5574692"}, "geometry": {"type": "Point", "coordinates": [-0.6617677, 53.6390918]}},
{"type": "Feature", "id": "nngiLWzDDspOH5U9cS2iO2Igdog=", "properties": {"ref": "moors-valley", "@spider": "go_ape_gb", "addr:street_address": "Moors Valley Country Park, Horton Road, Ashley Heath, Nr Ringwood", "addr:state": "Hampshire", "addr:postcode": "BH24 2ET", "addr:country": "GB", "name": "Moors Valley Country Park", "website": "https://goape.co.uk/locations/moors-valley", "contact:twitter": "@GoApeTribe", "image": "https://goape.co.uk/GoApe/media/Banners/moorsvalleyttamain.jpg", "brand": "Go Ape", "brand:wikidata": "Q5574692"}, "geometry": {"type": "Point", "coordinates": [-1.8498413, 50.8418859]}},
{"type": "Feature", "id": "u2wXWBXKXUHo5Yl5oC7Ci8_NGVY=", "properties": {"ref": "margam", "@spider": "go_ape_gb", "addr:street_address": "Margam Country Park, Port Talbot", "addr:state": "South Wales", "addr:postcode": "SA13 2TJ", "addr:country": "GB", "name": "Margam Country Park", "website": "https://goape.co.uk/locations/margam", "contact:twitter": "@GoApeTribe", "image": "https://goape.co.uk/GoApe/media/Banners/margamgoape.jpg", "brand": "Go Ape", "brand:wikidata": "Q5574692"}, "geometry": {"type": "Point", "coordinates": [-3.7373515, 51.5576089]}},
{"type": "Feature", "id": "24BiNFtrKYOY5zp6XhxDprrpKXU=", "properties": {"ref": "matfen", "@spider": "go_ape_gb", "addr:street_address": "Go Ape Matfen", "addr:city": "Newcastle upon Tyne", "addr:postcode": "NE20 0RH", "addr:country": "GB", "name": "Matfen Hall, Newcastle", "website": "https://goape.co.uk/locations/matfen", "contact:twitter": "@GoApeTribe", "image": "https://goape.co.uk/GoApe/media/Banners/Go-Ape-Matfen.png", "brand": "Go Ape", "brand:wikidata": "Q5574692"}, "geometry": {"type": "Point", "coordinates": [-1.94660984431144, 55.030543684982]}},
{"type": "Feature", "id": "4yxVp_Qxf5UznVegoUunCb8vsl8=", "properties": {"ref": "leeds-castle", "@spider": "go_ape_gb", "addr:street_address": "Go Ape Leeds Castle, Maidstone", "addr:state": "Kent", "addr:postcode": "ME17 1PL", "addr:country": "GB", "name": "Leeds Castle Go Ape", "website": "https://goape.co.uk/locations/leeds-castle", "contact:twitter": "@GoApeTribe", "image": "https://goape.co.uk/GoApe/media/Banners/goapeleedstwo.jpg", "brand": "Go Ape", "brand:wikidata": "Q5574692"}, "geometry": {"type": "Point", "coordinates": [0.6187483, 51.2557621]}},
{"type": "Feature", "id": "J1xOuI_f41K8Gx1U7E344dRKEpk=", "properties": {"ref": "haldon", "@spider": "go_ape_gb", "addr:street_address": "Bullers Hill, Kennford", "addr:city": "Exeter", "addr:postcode": "EX6 7XR", "addr:country": "GB", "name": "Haldon", "website": "https://goape.co.uk/locations/haldon", "contact:twitter": "@GoApeTribe", "image": "https://goape.co.uk/GoApe/media/Banners/haldonmain.jpg", "brand": "Go Ape", "brand:wikidata": "Q5574692"}, "geometry": {"type": "Point", "coordinates": [-3.5831396, 50.6533638]}},
{"type": "Feature", "id": "fLiiPStmliezk45TRZv95UOOSzk=", "properties": {"ref": "glentress-forest", "@spider": "go_ape_gb", "addr:street_address": "Forestry Commission Scotland, Glentress Forest, Falla Brae Car Park", "addr:state": "Peebles", "addr:postcode": "EH45 8NB", "addr:country": "GB", "name": "Glentress Forest, Peebles", "website": "https://goape.co.uk/locations/glentress-forest", "contact:twitter": "@GoApeTribe", "image": "https://goape.co.uk/GoApe/media/Banners/Go-Ape-Glentress-Forest-Banner.jpg", "brand": "Go Ape", "brand:wikidata": "Q5574692"}, "geometry": {"type": "Point", "coordinates": [-3.1364723, 55.6511059]}},
{"type": "Feature", "id": "If3e5pcO-n1HyBrVmcrWCHI1AWM=", "properties": {"ref": "forest-of-dean-mallards-pike", "@spider": "go_ape_gb", "addr:street_address": "Mallards Pike Lake, Parkend", "addr:city": "Lydney", "addr:state": "Gloucestershire", "addr:postcode": "GL15 4HD", "addr:country": "GB", "name": "Forest of Dean Mallards Pike", "website": "https://goape.co.uk/locations/forest-of-dean-mallards-pike", "contact:twitter": "@GoApeTribe", "image": "https://goape.co.uk/GoApe/media/Banners/goapesegway.jpg", "brand": "Go Ape", "brand:wikidata": "Q5574692"}, "geometry": {"type": "Point", "coordinates": [-2.5304109, 51.7816268]}},
{"type": "Feature", "id": "KjWmTlYs23twGreLjObZuugDPRc=", "properties": {"ref": "forest-of-dean-beechenhurst", "@spider": "go_ape_gb", "addr:street_address": "Beechenhurst Lodge, B4226, Coleford", "addr:state": "Gloucestershire", "addr:postcode": "GL16 7EJ", "addr:country": "GB", "name": "Forest of Dean Beechenhurst", "website": "https://goape.co.uk/locations/forest-of-dean-beechenhurst", "contact:twitter": "@GoApeTribe", "image": "https://goape.co.uk/GoApe/media/Banners/challlengeforestodean.jpg", "brand": "Go Ape", "brand:wikidata": "Q5574692"}, "geometry": {"type": "Point", "coordinates": [-2.56318837435415, 51.8063466648326]}},
{"type": "Feature", "id": "uJ1UZUs0uNKzAWMKdjO-WguUii0=", "properties": {"ref": "delamere", "@spider": "go_ape_gb", "addr:street_address": "Delamere Forest, Linmere", "addr:city": "Northwich", "addr:state": "Cheshire", "addr:postcode": "CW8 2JD", "addr:country": "GB", "name": "Delamere Forest", "website": "https://goape.co.uk/locations/delamere", "contact:twitter": "@GoApeTribe", "image": "https://goape.co.uk/GoApe/media/Banners/delameremainbanner.jpg", "brand": "Go Ape", "brand:wikidata": "Q5574692"}, "geometry": {"type": "Point", "coordinates": [-2.6754529, 53.2297726]}},
{"type": "Feature", "id": "q4i8YSJZZ8Mg46QGl7skK-xQzl8=", "properties": {"ref": "dalkeith-edinburgh", "@spider": "go_ape_gb", "addr:street_address": "Go Ape Dalkeith, Via King's Gate, Dalkeith", "addr:city": "Edinburgh", "addr:postcode": "EH22 1ST", "addr:country": "GB", "name": "Dalkeith Edinburgh", "phone": "01603895500", "website": "https://goape.co.uk/locations/dalkeith-edinburgh", "contact:twitter": "@GoApeTribe", "image": "https://goape.co.uk/GoApe/media/Banners/dalkeith-country-park-man-children-walking-1920x840-dalkeith-pages-only.png", "brand": "Go Ape", "brand:wikidata": "Q5574692"}, "geometry": {"type": "Point", "coordinates": [-3.0623143, 55.8994892]}},
{"type": "Feature", "id": "jxhnFUgeIhg-hF5cJNZx3AsPN4E=", "properties": {"ref": "dalby", "@spider": "go_ape_gb", "addr:street_address": "Dalby Forest, Low Dalby, Thornton Le Dale, Dalby Forest", "addr:state": "North Yorkshire", "addr:postcode": "YO18 7LT", "addr:country": "GB", "name": "Dalby Forest", "website": "https://goape.co.uk/locations/dalby", "contact:twitter": "@GoApeTribe", "image": "https://goape.co.uk/GoApe/media/Banners/aberfoylechallenge.jpg", "brand": "Go Ape", "brand:wikidata": "Q5574692"}, "geometry": {"type": "Point", "coordinates": [-0.6892464, 54.2800007]}},
{"type": "Feature", "id": "Ls9Y_ytjfedNBuNZ4b-QQL1mLwk=", "properties": {"ref": "coventry", "@spider": "go_ape_gb", "addr:street_address": "Coombe Country Park, Brinklow Road, Binley", "addr:state": "Coventry", "addr:postcode": "CV3 2AB", "addr:country": "GB", "name": "Go Ape Coventry At Coombe Abbey", "website": "https://goape.co.uk/locations/coventry", "contact:twitter": "@GoApeTribe", "image": "https://goape.co.uk/GoApe/media/Banners/axethrowingthree_1.jpg", "brand": "Go Ape", "brand:wikidata": "Q5574692"}, "geometry": {"type": "Point", "coordinates": [-1.416292, 52.410273]}},
{"type": "Feature", "id": "0VvlylbydPTb4hgFoq1RtTmjlUw=", "properties": {"ref": "crawley", "@spider": "go_ape_gb", "addr:street_address": "Go Ape Crawley, Tilgate Park,  Tilgate Drive", "addr:state": "Crawley", "addr:postcode": "RH10 5PQ", "addr:country": "GB", "name": "Crawley, Tilgate Park", "website": "https://goape.co.uk/locations/crawley", "contact:twitter": "@GoApeTribe", "image": "https://goape.co.uk/GoApe/media/Banners/Go-Ape-Forest-Segway.jpg", "brand": "Go Ape", "brand:wikidata": "Q5574692"}, "geometry": {"type": "Point", "coordinates": [-0.181493, 51.0952559]}},
{"type": "Feature", "id": "ik15HLBOBM20iBedm_zChSkP780=", "properties": {"ref": "cockfosters", "@spider": "go_ape_gb", "addr:street_address": "Trent Country Park, Cockfosters Road, Trent Park", "addr:state": "Barnet", "addr:postcode": "EN4 0DZ", "addr:country": "GB", "name": "Cockfosters, Trent Park", "website": "https://goape.co.uk/locations/cockfosters", "contact:twitter": "@GoApeTribe", "image": "https://goape.co.uk/GoApe/media/Banners/Amelia.png", "brand": "Go Ape", "brand:wikidata": "Q5574692"}, "geometry": {"type": "Point", "coordinates": [-0.1517511, 51.6565766]}},
{"type": "Feature", "id": "_c9MfMe9Zsik5oJuOcBQKtmFx4U=", "properties": {"ref": "chessington", "@spider": "go_ape_gb", "addr:street_address": "Go Ape Chessington, Chessington World Of Adventures Resort, Leatherhead Road", "addr:state": "Chessington", "addr:postcode": "KT9 2NE", "addr:country": "GB", "name": "Chessington", "website": "https://goape.co.uk/locations/chessington", "contact:twitter": "@GoApeTribe", "image": "https://goape.co.uk/GoApe/media/Banners/chessingtonmain.jpg", "brand": "Go Ape", "brand:wikidata": "Q5574692"}, "geometry": {"type": "Point", "coordinates": [-0.3263546, 51.3462229]}},
{"type": "Feature", "id": "CSdpMU5qSYkNHKMjm1N-kN3PnVg=", "properties": {"ref": "cannock-chase", "@spider": "go_ape_gb", "addr:street_address": "Go Ape Cannock, Birches Valley Forest Centre Car Park", "addr:state": "Rugeley", "addr:postcode": "WS15 2UQ", "addr:country": "GB", "name": "Cannock Chase, Staffordshire", "website": "https://goape.co.uk/locations/cannock-chase", "contact:twitter": "@GoApeTribe", "image": "https://goape.co.uk/GoApe/media/Banners/Cannock-Go-Ape-Banner.jpg", "brand": "Go Ape", "brand:wikidata": "Q5574692"}, "geometry": {"type": "Point", "coordinates": [-1.9746563, 52.7513287]}},
{"type": "Feature", "id": "MEDIrGjrtcBgBO_i2YSu-iQTv-k=", "properties": {"ref": "bracknell", "@spider": "go_ape_gb", "addr:street_address": "Go Ape Bracknell, The Look Out, Nine Mile Ride, Bracknell", "addr:state": "Berkshire", "addr:postcode": "RG12 7QW", "addr:country": "GB", "name": "Bracknell, Swinley Forest", "website": "https://goape.co.uk/locations/bracknell", "contact:twitter": "@GoApeTribe", "image": "https://goape.co.uk/GoApe/media/Banners/bracknellmainbannerupdated.jpeg", "brand": "Go Ape", "brand:wikidata": "Q5574692"}, "geometry": {"type": "Point", "coordinates": [-0.7418392, 51.3873519]}},
{"type": "Feature", "id": "CfEaPucT0uwQVTxV9E2l_3UtXJM=", "properties": {"ref": "buxton", "@spider": "go_ape_gb", "addr:street_address": "Go Ape Buxton, Buxton Country Park, Pooles Cavern, Green Lane, Buxton", "addr:state": "Derbyshire", "addr:postcode": "SK17 9DH", "addr:country": "GB", "name": "Buxton", "website": "https://goape.co.uk/locations/buxton", "contact:twitter": "@GoApeTribe", "image": "https://goape.co.uk/GoApe/media/Banners/buxtonchallenge.jpg", "brand": "Go Ape", "brand:wikidata": "Q5574692"}, "geometry": {"type": "Point", "coordinates": [-1.9289631, 53.2497789]}}]}