{"type":"FeatureCollection","features":[{"type": "Feature", "id": "RaMrbPVsnbxcYaz6DhQMoLkgPoQ=", "properties": {"ref": "https://www.gooutdoors.co.uk/stores/go-outdoors-bangor", "@spider": "go_outdoors", "shop": "outdoor", "addr:street_address": "FIRST FLOOR, ST DAVIDS RETAIL PARK", "addr:city": "BANGOR", "addr:postcode": "LL57 4TJ", "addr:country": "GB", "name": "Go Outdoors", "website": "https://www.gooutdoors.co.uk/stores/go-outdoors-bangor", "opening_hours": "Mo-Fr 09:00-20:00; Sa 09:00-18:00; Su 10:00-16:30", "brand": "Go Outdoors", "brand:wikidata": "Q75293941", "nsi_id": "gooutdoors-f55d12"}, "geometry": {"type": "Point", "coordinates": [-4.142829, 53.217742]}},
{"type": "Feature", "id": "pjg4Y9qz1gEJ8qx2lWpOxaQ1u6M=", "properties": {"ref": "https://www.gooutdoors.co.uk/stores/go-outdoors-harlow", "@spider": "go_outdoors", "shop": "outdoor", "addr:street_address": "PRINCES GATE RETAIL PARK", "addr:city": "Harlow", "addr:postcode": "CM20 2SU", "addr:country": "GB", "name": "Go Outdoors", "phone": "03443876815", "website": "https://www.gooutdoors.co.uk/stores/go-outdoors-harlow", "opening_hours": "Mo-Fr 09:00-20:00; Sa 09:00-18:00; Su 10:30-16:30", "brand": "Go Outdoors", "brand:wikidata": "Q75293941", "nsi_id": "gooutdoors-f55d12"}, "geometry": {"type": "Point", "coordinates": [0.106342, 51.781468]}},
{"type": "Feature", "id": "kthqi2_QdMxgf4uCDvoWOX8rDns=", "properties": {"ref": "https://www.gooutdoors.co.uk/stores/go-outdoors-gloucester", "@spider": "go_outdoors", "shop": "outdoor", "addr:street_address": "98 - 108 BARTON STREET", "addr:city": "Gloucester", "addr:postcode": "GL1 4DZ", "addr:country": "GB", "name": "Go Outdoors", "phone": "03443876828", "website": "https://www.gooutdoors.co.uk/stores/go-outdoors-gloucester", "opening_hours": "Mo-Fr 09:00-20:00; Sa 09:00-18:00; Su 10:30-16:30", "brand": "Go Outdoors", "brand:wikidata": "Q75293941", "nsi_id": "gooutdoors-f55d12"}, "geometry": {"type": "Point", "coordinates": [-2.238905, 51.86107]}},
{"type": "Feature", "id": "PeSSKsgZvzx6Y5iMVKAixLKxKLc=", "properties": {"ref": "https://www.gooutdoors.co.uk/stores/go-outdoors-gateshead", "@spider": "go_outdoors", "shop": "outdoor", "addr:street_address": "UNIT 13 TEAM VALLEY RETAIL PARK", "addr:city": "GATESHEAD", "addr:postcode": "NE11 0BD", "addr:country": "GB", "name": "Go Outdoors", "phone": "0330 053 1801", "website": "https://www.gooutdoors.co.uk/stores/go-outdoors-gateshead", "opening_hours": "Mo-Fr 09:00-20:00; Sa 09:00-18:00; Su 10:30-16:30", "brand": "Go Outdoors", "brand:wikidata": "Q75293941", "nsi_id": "gooutdoors-f55d12"}, "geometry": {"type": "Point", "coordinates": [-1.61989, 54.923549]}},
{"type": "Feature", "id": "WGUKMjLHpV0Kb-rZWpca4jS-JiA=", "properties": {"ref": "https://www.gooutdoors.co.uk/stores/go-outdoors-exeter", "@spider": "go_outdoors", "shop": "outdoor", "addr:street_address": "RETAIL PARK CL MARSH BARTON RD", "addr:city": "Exeter", "addr:postcode": "EX2 8LG", "addr:country": "GB", "name": "Go Outdoors", "phone": "03443876832", "website": "https://www.gooutdoors.co.uk/stores/go-outdoors-exeter", "opening_hours": "Mo-Fr 09:00-20:00; Sa 09:00-18:00; Su 10:30-16:30", "brand": "Go Outdoors", "brand:wikidata": "Q75293941", "nsi_id": "gooutdoors-f55d12"}, "geometry": {"type": "Point", "coordinates": [-3.533208, 50.709532]}},
{"type": "Feature", "id": "hilYL31w3m9iXE5MQYUEzx4Wmow=", "properties": {"ref": "https://www.gooutdoors.co.uk/stores/go-outdoors-erdington", "@spider": "go_outdoors", "shop": "outdoor", "addr:street_address": "RAVENSIDE RETAIL PK, KINGSBURY", "addr:city": "Erdington", "addr:postcode": "B24 9QB", "addr:country": "GB", "name": "Go Outdoors", "phone": "03443876839", "website": "https://www.gooutdoors.co.uk/stores/go-outdoors-erdington", "opening_hours": "Mo-Fr 09:00-20:00; Sa 09:00-18:00; Su 10:30-16:30", "brand": "Go Outdoors", "brand:wikidata": "Q75293941", "nsi_id": "gooutdoors-f55d12"}, "geometry": {"type": "Point", "coordinates": [-1.802081, 52.517974]}},
{"type": "Feature", "id": "N2Gt9MlmW6o5Vlt8_y-lwVx0b2w=", "properties": {"ref": "https://www.gooutdoors.co.uk/stores/go-outdoors-edinburgh", "@spider": "go_outdoors", "shop": "outdoor", "addr:street_address": "UNIT D, 65 WEST HARBOUR ROAD", "addr:city": "Edinburgh", "addr:postcode": "EH5 1PW", "addr:country": "GB", "name": "Go Outdoors", "phone": "03443876826", "website": "https://www.gooutdoors.co.uk/stores/go-outdoors-edinburgh", "opening_hours": "Mo-Fr 09:00-20:00; Sa 09:00-18:00; Su 10:00-17:00", "brand": "Go Outdoors", "brand:wikidata": "Q75293941", "nsi_id": "gooutdoors-f55d12"}, "geometry": {"type": "Point", "coordinates": [-3.226027, 55.982757]}},
{"type": "Feature", "id": "cGsNvGHcBtRSmAKSg8LVrkb6kTI=", "properties": {"ref": "https://www.gooutdoors.co.uk/stores/go-outdoors-doncaster", "@spider": "go_outdoors", "shop": "outdoor", "addr:street_address": "LITTLEWORTH LN, OLD ROSSINGTON", "addr:city": "Doncaster", "addr:postcode": "DN11 0HJ", "addr:country": "GB", "name": "Go Outdoors", "phone": "03443876846", "website": "https://www.gooutdoors.co.uk/stores/go-outdoors-doncaster", "opening_hours": "Mo-Fr 09:00-20:00; Sa 09:00-18:00; Su 10:30-16:30", "brand": "Go Outdoors", "brand:wikidata": "Q75293941", "nsi_id": "gooutdoors-f55d12"}, "geometry": {"type": "Point", "coordinates": [-1.046133, 53.4795]}},
{"type": "Feature", "id": "P9Bwp6v4aNqCcCXLC48rIiKrwIU=", "properties": {"ref": "https://www.gooutdoors.co.uk/stores/go-outdoors-derby", "@spider": "go_outdoors", "shop": "outdoor", "addr:street_address": "WYVERN WAY", "addr:city": "DERBY", "addr:postcode": "DE21 6NZ", "addr:country": "GB", "name": "Go Outdoors", "phone": "01332 316852", "website": "https://www.gooutdoors.co.uk/stores/go-outdoors-derby", "opening_hours": "Mo-Fr 09:00-20:00; Sa 09:00-18:00; Su 10:30-16:30", "brand": "Go Outdoors", "brand:wikidata": "Q75293941", "nsi_id": "gooutdoors-f55d12"}, "geometry": {"type": "Point", "coordinates": [-1.439208, 52.917879]}},
{"type": "Feature", "id": "8fpLBLBewJK8eFqgPqK1MuN7p8c=", "properties": {"ref": "https://www.gooutdoors.co.uk/stores/go-outdoors-cribbs-causeway", "@spider": "go_outdoors", "shop": "outdoor", "addr:street_address": "UNIT 1CC CENTRAURUS RETAIL PK", "addr:city": "Bristol", "addr:postcode": "BS34 5TS", "addr:country": "GB", "name": "Go Outdoors", "phone": "03443876768", "website": "https://www.gooutdoors.co.uk/stores/go-outdoors-cribbs-causeway", "opening_hours": "Mo-Fr 09:00-20:00; Sa 09:00-18:00; Su 10:30-16:30", "brand": "Go Outdoors", "brand:wikidata": "Q75293941", "nsi_id": "gooutdoors-f55d12"}, "geometry": {"type": "Point", "coordinates": [-2.599, 51.5283]}},
{"type": "Feature", "id": "NLYCOtsacXsco0yhXuf0YiyA1LA=", "properties": {"ref": "https://www.gooutdoors.co.uk/stores/go-outdoors-coventry", "@spider": "go_outdoors", "shop": "outdoor", "addr:street_address": "CANLEY ROAD, CANLEY", "addr:city": "Coventry", "addr:postcode": "CV5 6RN", "addr:country": "GB", "name": "Go Outdoors", "phone": "03443876806", "website": "https://www.gooutdoors.co.uk/stores/go-outdoors-coventry", "opening_hours": "Mo-Fr 09:00-20:00; Sa 09:00-18:00; Su 10:30-16:30", "brand": "Go Outdoors", "brand:wikidata": "Q75293941", "nsi_id": "gooutdoors-f55d12"}, "geometry": {"type": "Point", "coordinates": [-1.5434, 52.400799]}},
{"type": "Feature", "id": "00TnMugX6T8MsCz2C3-o1yg1kdw=", "properties": {"ref": "https://www.gooutdoors.co.uk/stores/go-outdoors-colchester", "@spider": "go_outdoors", "shop": "outdoor", "addr:street_address": "UNIT C, SHEEPEN ROAD RETAIL PARK", "addr:city": "COLCHESTER", "addr:postcode": "CO3 3GT", "addr:country": "GB", "name": "Go Outdoors", "phone": "0344 387 6836", "website": "https://www.gooutdoors.co.uk/stores/go-outdoors-colchester", "opening_hours": "Mo-Fr 09:00-20:00; Sa 09:00-18:00; Su 10:30-16:30", "brand": "Go Outdoors", "brand:wikidata": "Q75293941", "nsi_id": "gooutdoors-f55d12"}, "geometry": {"type": "Point", "coordinates": [0.890644, 51.89243]}},
{"type": "Feature", "id": "1HvyB-y0_fcxyV5IijfSnSKf1pQ=", "properties": {"ref": "https://www.gooutdoors.co.uk/stores/go-outdoors-coatbridge", "@spider": "go_outdoors", "shop": "outdoor", "addr:street_address": "LOCKS ST", "addr:city": "Coatbridge", "addr:postcode": "ML5 3RT", "addr:country": "GB", "name": "Go Outdoors", "phone": "03443876805", "website": "https://www.gooutdoors.co.uk/stores/go-outdoors-coatbridge", "opening_hours": "Mo-Fr 09:00-20:00; Sa 09:00-18:00; Su 10:00-17:00", "brand": "Go Outdoors", "brand:wikidata": "Q75293941", "nsi_id": "gooutdoors-f55d12"}, "geometry": {"type": "Point", "coordinates": [-4.002948, 55.859565]}},
{"type": "Feature", "id": "Bg3zXo1839mTrHoZyoRzu8J5LtE=", "properties": {"ref": "https://www.gooutdoors.co.uk/stores/go-outdoors-clydebank", "@spider": "go_outdoors", "shop": "outdoor", "addr:street_address": "79 LIVINGSTONE STREET", "addr:city": "Clydebank", "addr:postcode": "G81 2XA", "addr:country": "GB", "name": "Go Outdoors", "phone": "03443876820", "website": "https://www.gooutdoors.co.uk/stores/go-outdoors-clydebank", "opening_hours": "Mo-Fr 09:00-20:00; Sa 09:00-18:00; Su 10:00-17:00", "brand": "Go Outdoors", "brand:wikidata": "Q75293941", "nsi_id": "gooutdoors-f55d12"}, "geometry": {"type": "Point", "coordinates": [-4.393471, 55.903656]}},
{"type": "Feature", "id": "uPOd-a0osbwxofnQQgMQiHBRPgA=", "properties": {"ref": "https://www.gooutdoors.co.uk/stores/go-outdoors-chesterfield", "@spider": "go_outdoors", "shop": "outdoor", "addr:street_address": "THE SPIRES RETAIL PARK", "addr:city": "Chesterfield", "addr:postcode": "S40 2WG", "addr:country": "GB", "name": "Go Outdoors", "phone": "03443876765", "website": "https://www.gooutdoors.co.uk/stores/go-outdoors-chesterfield", "opening_hours": "Mo-Fr 09:00-20:00; Sa 09:00-18:00; Su 10:30-16:30", "brand": "Go Outdoors", "brand:wikidata": "Q75293941", "nsi_id": "gooutdoors-f55d12"}, "geometry": {"type": "Point", "coordinates": [-1.427176, 53.230934]}},
{"type": "Feature", "id": "zZ6I2aRFMKUZbu83Z6xpLh_ehYM=", "properties": {"ref": "https://www.gooutdoors.co.uk/stores/go-outdoors-york", "@spider": "go_outdoors", "shop": "outdoor", "addr:street_address": "FOSS BANK", "addr:city": "York", "addr:postcode": "YO31 7JB", "addr:country": "GB", "name": "Go Outdoors", "phone": "03443876830", "website": "https://www.gooutdoors.co.uk/stores/go-outdoors-york", "opening_hours": "Mo-Fr 09:00-20:00; Sa 09:00-18:00; Su 10:30-16:30", "brand": "Go Outdoors", "brand:wikidata": "Q75293941", "nsi_id": "gooutdoors-f55d12"}, "geometry": {"type": "Point", "coordinates": [-1.07337, 53.963678]}},
{"type": "Feature", "id": "10YNVRdCLlrPpNNah2GcsloYfQA=", "properties": {"ref": "https://www.gooutdoors.co.uk/stores/go-outdoors-wolverhampton", "@spider": "go_outdoors", "shop": "outdoor", "addr:street_address": "EAGLE ST, BILSTON ROAD", "addr:city": "Wolverhampton", "addr:postcode": "WV2 2AQ", "addr:country": "GB", "name": "Go Outdoors", "phone": "03443876809", "website": "https://www.gooutdoors.co.uk/stores/go-outdoors-wolverhampton", "opening_hours": "Mo-Fr 09:00-20:00; Sa 09:00-18:00; Su 10:30-16:30", "brand": "Go Outdoors", "brand:wikidata": "Q75293941", "nsi_id": "gooutdoors-f55d12"}, "geometry": {"type": "Point", "coordinates": [-2.112396, 52.578594]}},
{"type": "Feature", "id": "_uOpEgcIzv_daBocC-S-RFj6iMc=", "properties": {"ref": "https://www.gooutdoors.co.uk/stores/go-outdoors-wigan", "@spider": "go_outdoors", "shop": "outdoor", "addr:street_address": "WALLGATE, CAROLINE STREET", "addr:city": "Wigan", "addr:postcode": "WN3 4EL", "addr:country": "GB", "name": "Go Outdoors", "phone": "03443876814", "website": "https://www.gooutdoors.co.uk/stores/go-outdoors-wigan", "opening_hours": "Mo-Fr 09:00-20:00; Sa 09:00-18:00; Su 10:30-16:30", "brand": "Go Outdoors", "brand:wikidata": "Q75293941", "nsi_id": "gooutdoors-f55d12"}, "geometry": {"type": "Point", "coordinates": [-2.636079, 53.542466]}},
{"type": "Feature", "id": "MOTYKht4Gep0cV6MEUZogW3WGC0=", "properties": {"ref": "https://www.gooutdoors.co.uk/stores/go-outdoors-warrington", "@spider": "go_outdoors", "shop": "outdoor", "addr:street_address": "WILSON PATTEN STREET", "addr:city": "Warrington", "addr:postcode": "WA1 1PS", "addr:country": "GB", "name": "Go Outdoors", "phone": "03443876833", "website": "https://www.gooutdoors.co.uk/stores/go-outdoors-warrington", "opening_hours": "Mo-Fr 09:00-20:00; Sa 09:00-18:00; Su 10:30-16:30", "brand": "Go Outdoors", "brand:wikidata": "Q75293941", "nsi_id": "gooutdoors-f55d12"}, "geometry": {"type": "Point", "coordinates": [-2.597306, 53.385913]}},
{"type": "Feature", "id": "s8ojscCwrjhy-KvQZXjipqSI6EY=", "properties": {"ref": "https://www.gooutdoors.co.uk/stores/go-outdoors-wakefield", "@spider": "go_outdoors", "shop": "outdoor", "addr:street_address": "HOSTINGLEY LANE, MIDDLESTOWN", "addr:city": "Wakefield", "addr:postcode": "WF4 4PZ", "addr:country": "GB", "name": "Go Outdoors", "phone": "03443876804", "website": "https://www.gooutdoors.co.uk/stores/go-outdoors-wakefield", "opening_hours": "Mo-Fr 09:00-20:00; Sa 09:00-18:00; Su 10:30-16:30", "brand": "Go Outdoors", "brand:wikidata": "Q75293941", "nsi_id": "gooutdoors-f55d12"}, "geometry": {"type": "Point", "coordinates": [-1.585981, 53.656475]}},
{"type": "Feature", "id": "OaVI69CbDaK-sEfjrEjWbhIb4uU=", "properties": {"ref": "https://www.gooutdoors.co.uk/stores/go-outdoors-thurrock", "@spider": "go_outdoors", "shop": "outdoor", "addr:street_address": "UNIT 2, LAKESIDE RETAIL PARK", "addr:city": "Thurrock", "addr:postcode": "RM20 3LP", "addr:country": "GB", "name": "Go Outdoors", "phone": "03443876838", "website": "https://www.gooutdoors.co.uk/stores/go-outdoors-thurrock", "opening_hours": "Mo-Fr 09:00-20:00; Sa 09:00-18:00; Su 10:30-16:30", "brand": "Go Outdoors", "brand:wikidata": "Q75293941", "nsi_id": "gooutdoors-f55d12"}, "geometry": {"type": "Point", "coordinates": [0.269713, 51.485242]}},
{"type": "Feature", "id": "LmOTzeYii_tI8KgY5KCvdkh2DkQ=", "properties": {"ref": "https://www.gooutdoors.co.uk/stores/go-outdoors-taunton", "@spider": "go_outdoors", "shop": "outdoor", "addr:street_address": "UNIT 2-3 ST JOHNS RETAIL PARK", "addr:city": "Taunton", "addr:postcode": "TA1 2BB", "addr:country": "GB", "name": "Go Outdoors", "phone": "03443876848", "website": "https://www.gooutdoors.co.uk/stores/go-outdoors-taunton", "opening_hours": "Mo-Fr 09:00-20:00; Sa 09:00-18:00; Su 10:30-16:30", "brand": "Go Outdoors", "brand:wikidata": "Q75293941", "nsi_id": "gooutdoors-f55d12"}, "geometry": {"type": "Point", "coordinates": [-3.085892, 51.023514]}},
{"type": "Feature", "id": "V_ZYFwb7TUrcf7IiUS6Dy5gZX6I=", "properties": {"ref": "https://www.gooutdoors.co.uk/stores/go-outdoors-swindon", "@spider": "go_outdoors", "shop": "outdoor", "addr:street_address": "Oxford Road", "addr:city": "Swindon", "addr:postcode": "SN3 4ER", "addr:country": "GB", "name": "Go Outdoors", "phone": "01793 268009", "website": "https://www.gooutdoors.co.uk/stores/go-outdoors-swindon", "opening_hours": "Mo-Fr 09:00-20:00; Sa 09:00-18:00; Su 10:30-16:30", "brand": "Go Outdoors", "brand:wikidata": "Q75293941", "nsi_id": "gooutdoors-f55d12"}, "geometry": {"type": "Point", "coordinates": [-1.73103, 51.5754]}},
{"type": "Feature", "id": "KfTKQdObfn0RPh1AYEerR4x8BBc=", "properties": {"ref": "https://www.gooutdoors.co.uk/stores/go-outdoors-swansea", "@spider": "go_outdoors", "shop": "outdoor", "addr:street_address": "BRAN CLOSE", "addr:city": "Swansea", "addr:postcode": "SA7 9DE", "addr:country": "GB", "name": "Go Outdoors", "phone": "03443876840", "website": "https://www.gooutdoors.co.uk/stores/go-outdoors-swansea", "opening_hours": "Mo-Fr 09:00-20:00; Sa 09:00-18:00; Su 10:30-16:30", "brand": "Go Outdoors", "brand:wikidata": "Q75293941", "nsi_id": "gooutdoors-f55d12"}, "geometry": {"type": "Point", "coordinates": [-3.905952, 51.660187]}},
{"type": "Feature", "id": "9OVXWpVyBrZ1L4jnPVOvZ0FycT8=", "properties": {"ref": "https://www.gooutdoors.co.uk/stores/go-outdoors-sunderland", "@spider": "go_outdoors", "shop": "outdoor", "addr:street_address": "PALLION RETAIL PARK", "addr:city": "Sunderland", "addr:postcode": "SR4 6TY", "addr:country": "GB", "name": "Go Outdoors", "phone": "03443876770", "website": "https://www.gooutdoors.co.uk/stores/go-outdoors-sunderland", "opening_hours": "Mo-Fr 09:00-20:00; Sa 09:00-18:00; Su 10:30-16:30", "brand": "Go Outdoors", "brand:wikidata": "Q75293941", "nsi_id": "gooutdoors-f55d12"}, "geometry": {"type": "Point", "coordinates": [-1.420197, 54.913555]}},
{"type": "Feature", "id": "D8m8gk9fzIkAtP-QHanuV6wiQXg=", "properties": {"ref": "https://www.gooutdoors.co.uk/stores/go-outdoors-stoke", "@spider": "go_outdoors", "shop": "outdoor", "addr:street_address": "UNIT 4 FESTIVAL RETAIL PARK, HANLEY", "addr:city": "STOKE", "addr:postcode": "ST1 5SJ", "addr:country": "GB", "name": "Go Outdoors", "phone": "01782 498 359", "website": "https://www.gooutdoors.co.uk/stores/go-outdoors-stoke", "opening_hours": "Mo-Fr 09:00-20:00; Sa 09:00-18:00; Su 10:30-16:00", "brand": "Go Outdoors", "brand:wikidata": "Q75293941", "nsi_id": "gooutdoors-f55d12"}, "geometry": {"type": "Point", "coordinates": [-2.191151, 53.029166]}},
{"type": "Feature", "id": "h9H9bET9F7y5tppMzlydVCxBzuU=", "properties": {"ref": "https://www.gooutdoors.co.uk/stores/go-outdoors-stockton", "@spider": "go_outdoors", "shop": "outdoor", "addr:street_address": "AINTREE ROAD", "addr:city": "Stockton", "addr:postcode": "TS18 2QQ", "addr:country": "GB", "name": "Go Outdoors", "phone": "03443876812", "website": "https://www.gooutdoors.co.uk/stores/go-outdoors-stockton", "opening_hours": "Mo-Fr 09:00-20:00; Sa 09:00-18:00; Su 10:30-16:30", "brand": "Go Outdoors", "brand:wikidata": "Q75293941", "nsi_id": "gooutdoors-f55d12"}, "geometry": {"type": "Point", "coordinates": [-1.278047, 54.576783]}},
{"type": "Feature", "id": "PzLs5EhzTOXhuYwrWFSc0aVSH0s=", "properties": {"ref": "https://www.gooutdoors.co.uk/stores/go-outdoors-stocksbridge", "@spider": "go_outdoors", "shop": "outdoor", "addr:street_address": "FOX VALLEY RETAIL PARK", "addr:city": "STOCKSBRIDGE | SHEFFIELD", "addr:postcode": "S36 2AB", "addr:country": "GB", "name": "Go Outdoors", "phone": "01143080665", "website": "https://www.gooutdoors.co.uk/stores/go-outdoors-stocksbridge", "opening_hours": "Mo-Fr 09:00-20:00; Sa 09:00-18:00; Su 10:30-16:30", "brand": "Go Outdoors", "brand:wikidata": "Q75293941", "nsi_id": "gooutdoors-f55d12"}, "geometry": {"type": "Point", "coordinates": [-1.588181, 53.482426]}},
{"type": "Feature", "id": "L5IJG7qCI8P4B11ekNDtxSYhSBs=", "properties": {"ref": "https://www.gooutdoors.co.uk/stores/go-outdoors-stockport", "@spider": "go_outdoors", "shop": "outdoor", "addr:street_address": "STOCKPORT ROAD", "addr:city": "Stockport", "addr:postcode": "SK3 0TQ", "addr:country": "GB", "name": "Go Outdoors", "phone": "03443876807", "website": "https://www.gooutdoors.co.uk/stores/go-outdoors-stockport", "opening_hours": "Mo-Fr 09:00-20:00; Sa 09:00-18:00; Su 10:30-16:30", "brand": "Go Outdoors", "brand:wikidata": "Q75293941", "nsi_id": "gooutdoors-f55d12"}, "geometry": {"type": "Point", "coordinates": [-2.191555, 53.400871]}},
{"type": "Feature", "id": "ZXSyp1HCxLkWf_ektNuhzd5WRnI=", "properties": {"ref": "https://www.gooutdoors.co.uk/stores/go-outdoors-southport", "@spider": "go_outdoors", "shop": "outdoor", "addr:street_address": "4/8 Tulketh Street", "addr:city": "Southport", "addr:postcode": "PR8 1AQ", "addr:country": "GB", "name": "Go Outdoors", "phone": "03443876772", "website": "https://www.gooutdoors.co.uk/stores/go-outdoors-southport", "opening_hours": "Mo-Sa 09:00-17:30; Su 10:30-16:30", "brand": "Go Outdoors", "brand:wikidata": "Q75293941", "nsi_id": "gooutdoors-f55d12"}, "geometry": {"type": "Point", "coordinates": [-3.004084, 53.646522]}},
{"type": "Feature", "id": "mOCRDc63k7qGCEHWl4eAfqD9NHU=", "properties": {"ref": "https://www.gooutdoors.co.uk/stores/go-outdoors-southampton", "@spider": "go_outdoors", "shop": "outdoor", "addr:street_address": "THIRD AVENUE, MILLBROOK ROAD", "addr:city": "Southampton", "addr:postcode": "SO15 0LE", "addr:country": "GB", "name": "Go Outdoors", "phone": "03443876825", "website": "https://www.gooutdoors.co.uk/stores/go-outdoors-southampton", "opening_hours": "Mo-Fr 09:00-20:00; Sa 09:00-18:00; Su 10:30-16:30", "brand": "Go Outdoors", "brand:wikidata": "Q75293941", "nsi_id": "gooutdoors-f55d12"}, "geometry": {"type": "Point", "coordinates": [-1.452362, 50.913717]}},
{"type": "Feature", "id": "L-v2JE1fWaFn769oUt8zsSD-OJ0=", "properties": {"ref": "https://www.gooutdoors.co.uk/stores/go-outdoors-shrewsbury", "@spider": "go_outdoors", "shop": "outdoor", "addr:street_address": "UNIT 2A BUILDING 1, BATTLEFIEL", "addr:city": "Shrewsbury", "addr:postcode": "SY1 4YA", "addr:country": "GB", "name": "Go Outdoors", "phone": "03443876754", "website": "https://www.gooutdoors.co.uk/stores/go-outdoors-shrewsbury", "opening_hours": "Mo-Fr 09:00-20:00; Sa 09:00-18:00; Su 10:30-16:30", "brand": "Go Outdoors", "brand:wikidata": "Q75293941", "nsi_id": "gooutdoors-f55d12"}, "geometry": {"type": "Point", "coordinates": [-2.720502, 52.739118]}},
{"type": "Feature", "id": "WgQN3_B601JrCMrmSHz3EV-yEY4=", "properties": {"ref": "https://www.gooutdoors.co.uk/stores/go-outdoors-sheffield", "@spider": "go_outdoors", "shop": "outdoor", "addr:street_address": "HILL STREET", "addr:city": "Sheffield", "addr:postcode": "S2 4SZ", "addr:country": "GB", "name": "Go Outdoors", "phone": "03443876801", "website": "https://www.gooutdoors.co.uk/stores/go-outdoors-sheffield", "opening_hours": "Mo-Fr 09:00-20:00; Sa 09:00-18:00; Su 10:30-16:30", "brand": "Go Outdoors", "brand:wikidata": "Q75293941", "nsi_id": "gooutdoors-f55d12"}, "geometry": {"type": "Point", "coordinates": [-1.474911, 53.370108]}},
{"type": "Feature", "id": "Ub8_LRDtqRZgkHhEZjW_-mauTes=", "properties": {"ref": "https://www.gooutdoors.co.uk/stores/go-outdoors-scunthorpe", "@spider": "go_outdoors", "shop": "outdoor", "addr:street_address": "DUDLEY ROAD", "addr:city": "Scunthorpe, Lincolnshire", "addr:postcode": "DN16 1BA", "addr:country": "GB", "name": "Go Outdoors", "phone": "03443876844", "website": "https://www.gooutdoors.co.uk/stores/go-outdoors-scunthorpe", "opening_hours": "Mo-Fr 09:00-20:00; Sa 09:00-18:00; Su 10:30-16:30", "brand": "Go Outdoors", "brand:wikidata": "Q75293941", "nsi_id": "gooutdoors-f55d12"}, "geometry": {"type": "Point", "coordinates": [-0.623633, 53.569048]}},
{"type": "Feature", "id": "cu0a1FNAQw1RYuzYAiawmb2rwKA=", "properties": {"ref": "https://www.gooutdoors.co.uk/stores/go-outdoors-pudsey", "@spider": "go_outdoors", "shop": "outdoor", "addr:street_address": "NEW STREET, BRADFORD ROAD", "addr:city": "Pudsey", "addr:postcode": "LS28 5AG", "addr:country": "GB", "name": "Go Outdoors", "phone": "03443876811", "website": "https://www.gooutdoors.co.uk/stores/go-outdoors-pudsey", "opening_hours": "Mo-Fr 09:00-20:00; Sa 09:00-18:00; Su 10:30-16:30", "brand": "Go Outdoors", "brand:wikidata": "Q75293941", "nsi_id": "gooutdoors-f55d12"}, "geometry": {"type": "Point", "coordinates": [-1.672686, 53.806083]}},
{"type": "Feature", "id": "xGWqs6FC5sNzOm9SVHHGH9SmmTU=", "properties": {"ref": "https://www.gooutdoors.co.uk/stores/go-outdoors-preston", "@spider": "go_outdoors", "shop": "outdoor", "addr:street_address": "DEEPDALE RETAIL PARK", "addr:city": "Preston", "addr:postcode": "PR1 6QY", "addr:country": "GB", "name": "Go Outdoors", "phone": "03443876766", "website": "https://www.gooutdoors.co.uk/stores/go-outdoors-preston", "opening_hours": "Mo-Fr 09:00-20:00; Sa 09:00-18:00; Su 10:30-16:30", "brand": "Go Outdoors", "brand:wikidata": "Q75293941", "nsi_id": "gooutdoors-f55d12"}, "geometry": {"type": "Point", "coordinates": [-2.676598, 53.773787]}},
{"type": "Feature", "id": "X9AAFd8oyBuI20incvPwYKk16Jw=", "properties": {"ref": "https://www.gooutdoors.co.uk/stores/go-outdoors-poole", "@spider": "go_outdoors", "shop": "outdoor", "addr:street_address": "PITWINES CLOSE", "addr:city": "Poole", "addr:postcode": "BH15 1XU", "addr:country": "GB", "name": "Go Outdoors", "phone": "03443876842", "website": "https://www.gooutdoors.co.uk/stores/go-outdoors-poole", "opening_hours": "Mo-Fr 09:00-20:00; Sa 09:00-18:00; Su 10:30-16:30", "brand": "Go Outdoors", "brand:wikidata": "Q75293941", "nsi_id": "gooutdoors-f55d12"}, "geometry": {"type": "Point", "coordinates": [-1.97881, 50.715759]}},
{"type": "Feature", "id": "l_rTOh0TJAaFErSizcLQKUsbczo=", "properties": {"ref": "https://www.gooutdoors.co.uk/stores/go-outdoors-plymouth", "@spider": "go_outdoors", "shop": "outdoor", "addr:street_address": "CATTEWATER RD, LAIRA BRIDGE RD", "addr:city": "Plymouth", "addr:postcode": "PL4 0SE", "addr:country": "GB", "name": "Go Outdoors", "phone": "03443876835", "website": "https://www.gooutdoors.co.uk/stores/go-outdoors-plymouth", "opening_hours": "Mo-Fr 09:00-20:00; Sa 09:00-18:00; Su 10:30-16:30", "brand": "Go Outdoors", "brand:wikidata": "Q75293941", "nsi_id": "gooutdoors-f55d12"}, "geometry": {"type": "Point", "coordinates": [-4.111987, 50.369646]}},
{"type": "Feature", "id": "mr8tU2iqghlGeiq19KP4p73Y7Vs=", "properties": {"ref": "https://www.gooutdoors.co.uk/stores/go-outdoors-peterborough", "@spider": "go_outdoors", "shop": "outdoor", "addr:street_address": "SAVILLE ROAD, WESTWOOD", "addr:city": "Peterborough", "addr:postcode": "PE3 7PR", "addr:country": "GB", "name": "Go Outdoors", "phone": "03443876753", "website": "https://www.gooutdoors.co.uk/stores/go-outdoors-peterborough", "opening_hours": "Mo-Fr 09:00-20:00; Sa 09:00-18:00; Su 10:30-16:30", "brand": "Go Outdoors", "brand:wikidata": "Q75293941", "nsi_id": "gooutdoors-f55d12"}, "geometry": {"type": "Point", "coordinates": [-0.264398, 52.585794]}},
{"type": "Feature", "id": "m6II-5MLZ7RkfUfcI6yYuYAUXdo=", "properties": {"ref": "https://www.gooutdoors.co.uk/stores/go-outdoors-penrith", "@spider": "go_outdoors", "shop": "outdoor", "addr:street_address": "ULLSWATER ROAD", "addr:city": "Penrith", "addr:postcode": "CA11 7EH", "addr:country": "GB", "name": "Go Outdoors", "phone": "03443876841", "website": "https://www.gooutdoors.co.uk/stores/go-outdoors-penrith", "opening_hours": "Mo-Fr 09:00-20:00; Sa 09:00-18:00; Su 10:30-16:30", "brand": "Go Outdoors", "brand:wikidata": "Q75293941", "nsi_id": "gooutdoors-f55d12"}, "geometry": {"type": "Point", "coordinates": [-2.762435, 54.656639]}},
{"type": "Feature", "id": "rxmDqOCHw0D_RwxqKfslArLTLaM=", "properties": {"ref": "https://www.gooutdoors.co.uk/stores/go-outdoors-oxford", "@spider": "go_outdoors", "shop": "outdoor", "addr:street_address": "426 ABINGDON ROAD", "addr:city": "Oxford", "addr:postcode": "OX1 4XN", "addr:country": "GB", "name": "Go Outdoors", "phone": "03443876802", "website": "https://www.gooutdoors.co.uk/stores/go-outdoors-oxford", "opening_hours": "Mo-Fr 09:00-20:00; Sa 09:00-18:00; Su 10:30-16:30", "brand": "Go Outdoors", "brand:wikidata": "Q75293941", "nsi_id": "gooutdoors-f55d12"}, "geometry": {"type": "Point", "coordinates": [-1.250308, 51.731611]}},
{"type": "Feature", "id": "z0DX5p1ey00NT1YMe8aZ2Rc5NEw=", "properties": {"ref": "https://www.gooutdoors.co.uk/stores/go-outdoors-nottingham", "@spider": "go_outdoors", "shop": "outdoor", "addr:street_address": "8-10 MANSFIELD ROAD, DAYBROO", "addr:city": "Nottingham", "addr:postcode": "NG5 6BP", "addr:country": "GB", "name": "Go Outdoors", "phone": "03443876761", "website": "https://www.gooutdoors.co.uk/stores/go-outdoors-nottingham", "opening_hours": "Mo-Fr 09:00-20:00; Sa 09:00-18:00; Su 10:30-16:30", "brand": "Go Outdoors", "brand:wikidata": "Q75293941", "nsi_id": "gooutdoors-f55d12"}, "geometry": {"type": "Point", "coordinates": [-1.137519, 52.995336]}},
{"type": "Feature", "id": "P8z0NeSQZ-PvaqXgvi7wNdpEG_Q=", "properties": {"ref": "https://www.gooutdoors.co.uk/stores/go-outdoors-norwich", "@spider": "go_outdoors", "shop": "outdoor", "addr:street_address": "CITY TRADING ESTATE", "addr:city": "Norwich", "addr:postcode": "NR2 4TQ", "addr:country": "GB", "name": "Go Outdoors", "phone": "03443876827", "website": "https://www.gooutdoors.co.uk/stores/go-outdoors-norwich", "opening_hours": "Mo-Fr 09:00-20:00; Sa 09:00-18:00; Su 10:30-16:30", "brand": "Go Outdoors", "brand:wikidata": "Q75293941", "nsi_id": "gooutdoors-f55d12"}, "geometry": {"type": "Point", "coordinates": [1.285439, 52.638357]}},
{"type": "Feature", "id": "VE5a_jAH7exzOsmPRfYT-TGG3kY=", "properties": {"ref": "https://www.gooutdoors.co.uk/stores/go-outdoors-milton-keynes", "@spider": "go_outdoors", "shop": "outdoor", "addr:street_address": "CENTRAL RETAIL PARK, PATRIOT D", "addr:city": "Milton Keynes", "addr:postcode": "MK13 8PU", "addr:country": "GB", "name": "Go Outdoors", "phone": "03443876843", "website": "https://www.gooutdoors.co.uk/stores/go-outdoors-milton-keynes", "opening_hours": "Mo-Fr 09:00-20:00; Sa 09:00-18:00; Su 10:30-16:30", "brand": "Go Outdoors", "brand:wikidata": "Q75293941", "nsi_id": "gooutdoors-f55d12"}, "geometry": {"type": "Point", "coordinates": [-0.778271, 52.04229]}},
{"type": "Feature", "id": "XZM_fG0SQElOLuZWznoeSGkZ5Hk=", "properties": {"ref": "https://www.gooutdoors.co.uk/stores/go-outdoors-manchester", "@spider": "go_outdoors", "shop": "outdoor", "addr:street_address": "URBAN EXCHANGE, UPPER ANCOATS", "addr:city": "Manchester", "addr:postcode": "M4 6DE", "addr:country": "GB", "name": "Go Outdoors", "phone": "03443876829", "website": "https://www.gooutdoors.co.uk/stores/go-outdoors-manchester", "opening_hours": "Mo-Fr 09:00-20:00; Sa 09:00-18:00; Su 10:30-16:30", "brand": "Go Outdoors", "brand:wikidata": "Q75293941", "nsi_id": "gooutdoors-f55d12"}, "geometry": {"type": "Point", "coordinates": [-2.228635, 53.481673]}},
{"type": "Feature", "id": "T41FSaIRaYiZMEaRozdJbpOWX78=", "properties": {"ref": "https://www.gooutdoors.co.uk/stores/go-outdoors-loughborough", "@spider": "go_outdoors", "shop": "outdoor", "addr:street_address": "BISHOP MEADOW ROAD", "addr:city": "Loughborough", "addr:postcode": "LE11 5RE", "addr:country": "GB", "name": "Go Outdoors", "phone": "03443876813", "website": "https://www.gooutdoors.co.uk/stores/go-outdoors-loughborough", "opening_hours": "Mo-Fr 09:00-20:00; Sa 09:00-18:00; Su 10:30-16:30", "brand": "Go Outdoors", "brand:wikidata": "Q75293941", "nsi_id": "gooutdoors-f55d12"}, "geometry": {"type": "Point", "coordinates": [-1.22652, 52.784278]}},
{"type": "Feature", "id": "LvMIrHV1j9KpgwRqUBK9-NDV6V0=", "properties": {"ref": "https://www.gooutdoors.co.uk/stores/go-outdoors-liverpool", "@spider": "go_outdoors", "shop": "outdoor", "addr:street_address": "107 RIMROSE ROAD, BOOTLE", "addr:city": "Liverpool", "addr:postcode": "L20 4HN", "addr:country": "GB", "name": "Go Outdoors", "phone": "03443876755", "website": "https://www.gooutdoors.co.uk/stores/go-outdoors-liverpool", "opening_hours": "Mo-Fr 09:00-20:00; Sa 09:00-18:00; Su 10:30-16:30", "brand": "Go Outdoors", "brand:wikidata": "Q75293941", "nsi_id": "gooutdoors-f55d12"}, "geometry": {"type": "Point", "coordinates": [-3.005752, 53.453813]}},
{"type": "Feature", "id": "zgcROzSx3tHCuGBHDd8CYVqV5Tw=", "properties": {"ref": "https://www.gooutdoors.co.uk/stores/go-outdoors-lincoln", "@spider": "go_outdoors", "shop": "outdoor", "addr:street_address": "FORMER DUNELM MILLS, OUTERCIRCLE ROAD", "addr:city": "Lincoln", "addr:postcode": "LN2 4LA", "addr:country": "GB", "name": "Go Outdoors", "phone": "03443876847", "website": "https://www.gooutdoors.co.uk/stores/go-outdoors-lincoln", "opening_hours": "Mo-Fr 09:00-20:00; Sa 09:00-18:00; Su 10:30-16:30", "brand": "Go Outdoors", "brand:wikidata": "Q75293941", "nsi_id": "gooutdoors-f55d12"}, "geometry": {"type": "Point", "coordinates": [-0.509867, 53.239688]}},
{"type": "Feature", "id": "CUDHeqT8ckfaj6grveWSksohvtQ=", "properties": {"ref": "https://www.gooutdoors.co.uk/stores/go-outdoors-leeds", "@spider": "go_outdoors", "shop": "outdoor", "addr:street_address": "YORK ROAD", "addr:city": "Leeds", "addr:postcode": "LS9 9AA", "addr:country": "GB", "name": "Go Outdoors", "phone": "03443876759", "website": "https://www.gooutdoors.co.uk/stores/go-outdoors-leeds", "opening_hours": "Mo-Fr 09:00-20:00; Sa 09:00-18:00; Su 10:30-16:30", "brand": "Go Outdoors", "brand:wikidata": "Q75293941", "nsi_id": "gooutdoors-f55d12"}, "geometry": {"type": "Point", "coordinates": [-1.521752, 53.797827]}},
{"type": "Feature", "id": "W0AezSkMgNKT6kIxW-AXufJcUbk=", "properties": {"ref": "https://www.gooutdoors.co.uk/stores/go-outdoors-launceston", "@spider": "go_outdoors", "shop": "outdoor", "addr:street_address": "UNIT 2 LAUNCESTON RETAIL PARK // HURDON ROAD", "addr:city": "LAUNCESTON", "addr:postcode": "PL15 9DJ", "addr:country": "GB", "name": "Go Outdoors", "phone": "-", "website": "https://www.gooutdoors.co.uk/stores/go-outdoors-launceston", "opening_hours": "Mo-Fr 09:00-20:00; Sa 09:00-18:00; Su 10:30-16:30", "brand": "Go Outdoors", "brand:wikidata": "Q75293941", "nsi_id": "gooutdoors-f55d12"}, "geometry": {"type": "Point", "coordinates": [-4.358159, 50.627641]}},
{"type": "Feature", "id": "jXU1DqgcTFgZVibNEvpfSgHzzNY=", "properties": {"ref": "https://www.gooutdoors.co.uk/stores/go-outdoors-kingston", "@spider": "go_outdoors", "shop": "outdoor", "addr:street_address": "3/5 THAMES STREET", "addr:city": "KINGSTON UPON THAMES", "addr:postcode": "KT1 1PH", "addr:country": "GB", "name": "Go Outdoors", "phone": "0333 188 0508", "website": "https://www.gooutdoors.co.uk/stores/go-outdoors-kingston", "opening_hours": "Mo-We 09:00-18:00; Th 09:00-20:00; Fr-Sa 09:00-18:00; Su 11:00-17:00", "brand": "Go Outdoors", "brand:wikidata": "Q75293941", "nsi_id": "gooutdoors-f55d12"}, "geometry": {"type": "Point", "coordinates": [-0.30708, 51.41003]}},
{"type": "Feature", "id": "bXRFVWt87FNuOFn0vmFzoecyCeQ=", "properties": {"ref": "https://www.gooutdoors.co.uk/stores/go-outdoors-kidderminster", "@spider": "go_outdoors", "shop": "outdoor", "addr:street_address": "1 FREDERICK ROAD", "addr:city": "Kidderminster", "addr:postcode": "DY11 7RA", "addr:country": "GB", "name": "Go Outdoors", "phone": "03443876845", "website": "https://www.gooutdoors.co.uk/stores/go-outdoors-kidderminster", "opening_hours": "Mo-Fr 09:00-20:00; Sa 09:00-18:00; Su 10:30-16:30", "brand": "Go Outdoors", "brand:wikidata": "Q75293941", "nsi_id": "gooutdoors-f55d12"}, "geometry": {"type": "Point", "coordinates": [-2.241619, 52.365371]}},
{"type": "Feature", "id": "CQBNmZyROU3U97vWy_ZHdEh0EPU=", "properties": {"ref": "https://www.gooutdoors.co.uk/stores/go-outdoors-ipswich", "@spider": "go_outdoors", "shop": "outdoor", "addr:street_address": "ANGLIAN RETAIL PARK", "addr:city": "Ipswich", "addr:postcode": "IP1 5QP", "addr:country": "GB", "name": "Go Outdoors", "phone": "03443876763", "website": "https://www.gooutdoors.co.uk/stores/go-outdoors-ipswich", "opening_hours": "Mo-Fr 09:00-20:00; Sa 09:00-18:00; Su 10:30-16:30", "brand": "Go Outdoors", "brand:wikidata": "Q75293941", "nsi_id": "gooutdoors-f55d12"}, "geometry": {"type": "Point", "coordinates": [1.118096, 52.085757]}},
{"type": "Feature", "id": "GPtBgTYyJV0PFxj0IpajkltnA5s=", "properties": {"ref": "https://www.gooutdoors.co.uk/stores/go-outdoors-inverness", "@spider": "go_outdoors", "shop": "outdoor", "addr:street_address": "GLENDOE TERRACE, TELFORD ST", "addr:city": "Inverness", "addr:postcode": "IV3 8DL", "addr:country": "GB", "name": "Go Outdoors", "phone": "03443876834", "website": "https://www.gooutdoors.co.uk/stores/go-outdoors-inverness", "opening_hours": "Mo-Fr 09:00-20:00; Sa 09:00-18:00; Su 10:00-17:00", "brand": "Go Outdoors", "brand:wikidata": "Q75293941", "nsi_id": "gooutdoors-f55d12"}, "geometry": {"type": "Point", "coordinates": [-4.243141, 57.484404]}},
{"type": "Feature", "id": "6L0oGxfSqrXtBy66XxOr_ZnSIzA=", "properties": {"ref": "https://www.gooutdoors.co.uk/stores/go-outdoors-hull", "@spider": "go_outdoors", "shop": "outdoor", "addr:street_address": "CLOUGH ROAD RETAIL PARK, CLOUG", "addr:city": "Hull", "addr:postcode": "HU6 7PT", "addr:country": "GB", "name": "Go Outdoors", "phone": "03443876756", "website": "https://www.gooutdoors.co.uk/stores/go-outdoors-hull", "opening_hours": "Mo-Fr 09:00-20:00; Sa 09:00-18:00; Su 10:30-16:30", "brand": "Go Outdoors", "brand:wikidata": "Q75293941", "nsi_id": "gooutdoors-f55d12"}, "geometry": {"type": "Point", "coordinates": [-0.340899, 53.768971]}},
{"type": "Feature", "id": "tNnO2nnRaEkUOHzdszpzMmdq2cg=", "properties": {"ref": "https://www.gooutdoors.co.uk/stores/go-outdoors-hathersage", "@spider": "go_outdoors", "shop": "outdoor", "addr:street_address": "6 MAIN ROAD", "addr:city": "Hathersage", "addr:postcode": "S32 1BB", "addr:country": "GB", "name": "Go Outdoors", "phone": "03443876803", "website": "https://www.gooutdoors.co.uk/stores/go-outdoors-hathersage", "opening_hours": "Mo-Sa 09:00-17:30; Su 10:30-16:30", "brand": "Go Outdoors", "brand:wikidata": "Q75293941", "nsi_id": "gooutdoors-f55d12"}, "geometry": {"type": "Point", "coordinates": [-1.656283, 53.330217]}},
{"type": "Feature", "id": "KkH3FZ4HF-tC3Im5wsNKymr3ESM=", "properties": {"ref": "https://www.gooutdoors.co.uk/stores/go-outdoors-chester", "@spider": "go_outdoors", "shop": "outdoor", "addr:street_address": "SALTNEY RETAIL PARK, RIVER LANE", "addr:city": "Chester", "addr:postcode": "CH4 8RF", "addr:country": "GB", "name": "Go Outdoors", "phone": "03443876837", "website": "https://www.gooutdoors.co.uk/stores/go-outdoors-chester", "opening_hours": "Mo-Fr 09:00-20:00; Sa 09:00-18:00; Su 10:30-16:30", "brand": "Go Outdoors", "brand:wikidata": "Q75293941", "nsi_id": "gooutdoors-f55d12"}, "geometry": {"type": "Point", "coordinates": [-2.933448, 53.17973]}},
{"type": "Feature", "id": "F7wA0TZte8iPA-dlsbZC1NUVcQY=", "properties": {"ref": "https://www.gooutdoors.co.uk/stores/go-outdoors-cardiff", "@spider": "go_outdoors", "shop": "outdoor", "addr:street_address": "NEWPORT ROAD", "addr:city": "Cardiff", "addr:postcode": "CF23 9AE", "addr:country": "GB", "name": "Go Outdoors", "phone": "03443876817", "website": "https://www.gooutdoors.co.uk/stores/go-outdoors-cardiff", "opening_hours": "Mo-Fr 09:00-20:00; Sa 09:00-18:00; Su 10:30-16:30", "brand": "Go Outdoors", "brand:wikidata": "Q75293941", "nsi_id": "gooutdoors-f55d12"}, "geometry": {"type": "Point", "coordinates": [-3.14147, 51.49632]}},
{"type": "Feature", "id": "1thk5_9Nd8bopOwweh_spcR4mCQ=", "properties": {"ref": "https://www.gooutdoors.co.uk/stores/go-outdoors-canterbury", "@spider": "go_outdoors", "shop": "outdoor", "addr:street_address": "MAYNARD ROAD, WINCHEAP", "addr:city": "Canterbury", "addr:postcode": "CT1 3RR", "addr:country": "GB", "name": "Go Outdoors", "phone": "03443876849", "website": "https://www.gooutdoors.co.uk/stores/go-outdoors-canterbury", "opening_hours": "Mo-Fr 09:00-20:00; Sa 09:00-18:00; Su 10:30-16:30", "brand": "Go Outdoors", "brand:wikidata": "Q75293941", "nsi_id": "gooutdoors-f55d12"}, "geometry": {"type": "Point", "coordinates": [1.066288, 51.273109]}},
{"type": "Feature", "id": "SuTAmjTKGFi_vZg3DQ3Dpl7vRbo=", "properties": {"ref": "https://www.gooutdoors.co.uk/stores/go-outdoors-cambridge", "@spider": "go_outdoors", "shop": "outdoor", "addr:street_address": "Unit 4 The Beehive Centre", "addr:city": "Cambridge", "addr:postcode": "CB1 3ET", "addr:country": "GB", "name": "Go Outdoors", "phone": "03443876771", "website": "https://www.gooutdoors.co.uk/stores/go-outdoors-cambridge", "opening_hours": "Mo-Fr 09:00-20:00; Sa 09:00-18:00; Su 10:30-16:30", "brand": "Go Outdoors", "brand:wikidata": "Q75293941", "nsi_id": "gooutdoors-f55d12"}, "geometry": {"type": "Point", "coordinates": [0.143721, 52.20471]}},
{"type": "Feature", "id": "iuXXJCLKtkAsunTK-xyFCf2xgj0=", "properties": {"ref": "https://www.gooutdoors.co.uk/stores/go-outdoors-bury", "@spider": "go_outdoors", "shop": "outdoor", "addr:street_address": "ANGOULEME WAY", "addr:city": "BURY", "addr:postcode": "BL9 0BB", "addr:country": "GB", "name": "Go Outdoors", "phone": "0161 393 9361", "website": "https://www.gooutdoors.co.uk/stores/go-outdoors-bury", "opening_hours": "Mo-Fr 09:00-20:00; Sa 09:00-18:00; Su 10:30-16:30", "brand": "Go Outdoors", "brand:wikidata": "Q75293941", "nsi_id": "gooutdoors-f55d12"}, "geometry": {"type": "Point", "coordinates": [-2.292338, 53.591262]}},
{"type": "Feature", "id": "ywH48CBSPuD5PdQetxfdozSPjTY=", "properties": {"ref": "https://www.gooutdoors.co.uk/stores/go-outdoors-bristol", "@spider": "go_outdoors", "shop": "outdoor", "addr:street_address": "TRAMWAY ROAD, BATH ROAD", "addr:city": "Bristol", "addr:postcode": "BS4 3DS", "addr:country": "GB", "name": "Go Outdoors", "phone": "03443876810", "website": "https://www.gooutdoors.co.uk/stores/go-outdoors-bristol", "opening_hours": "Mo-Fr 09:00-20:00; Sa 09:00-18:00; Su 10:30-16:30", "brand": "Go Outdoors", "brand:wikidata": "Q75293941", "nsi_id": "gooutdoors-f55d12"}, "geometry": {"type": "Point", "coordinates": [-2.556996, 51.440059]}},
{"type": "Feature", "id": "j5jd955CUC5OUZRlYgggIJzqg3I=", "properties": {"ref": "https://www.gooutdoors.co.uk/stores/go-outdoors-blackburn", "@spider": "go_outdoors", "shop": "outdoor", "addr:street_address": "THROSTLE STREET, BANK TOP", "addr:city": "Blackburn", "addr:postcode": "BB2 1TQ", "addr:country": "GB", "name": "Go Outdoors", "phone": "03443876822", "website": "https://www.gooutdoors.co.uk/stores/go-outdoors-blackburn", "opening_hours": "Mo-Fr 09:00-20:00; Sa 09:00-18:00; Su 10:30-16:30", "brand": "Go Outdoors", "brand:wikidata": "Q75293941", "nsi_id": "gooutdoors-f55d12"}, "geometry": {"type": "Point", "coordinates": [-2.495704, 53.743695]}},
{"type": "Feature", "id": "dwXHf6hKpB47vCnWI32vMS79Mr0=", "properties": {"ref": "https://www.gooutdoors.co.uk/stores/go-outdoors-berwick", "@spider": "go_outdoors", "shop": "outdoor", "addr:street_address": "BESIDE THE A1167", "addr:city": "Berwick", "addr:postcode": "TD15 2QT", "addr:country": "GB", "name": "Go Outdoors", "phone": "03443876757", "website": "https://www.gooutdoors.co.uk/stores/go-outdoors-berwick", "opening_hours": "Mo-Fr 09:00-20:00; Sa 09:00-18:00; Su 10:30-16:30", "brand": "Go Outdoors", "brand:wikidata": "Q75293941", "nsi_id": "gooutdoors-f55d12"}, "geometry": {"type": "Point", "coordinates": [-1.996672, 55.744628]}},
{"type": "Feature", "id": "LvgOmJckmFElJR3Cn5MsNF3IVSo=", "properties": {"ref": "https://www.gooutdoors.co.uk/stores/go-outdoors-belfast", "@spider": "go_outdoors", "shop": "outdoor", "addr:street_address": "UNITS 1&amp;2 VALLEY RETAIL PARK", "addr:city": "Belfast", "addr:postcode": "BT36 7LP", "addr:country": "GB", "name": "Go Outdoors", "phone": "03443876760", "website": "https://www.gooutdoors.co.uk/stores/go-outdoors-belfast", "opening_hours": "Mo-Fr 09:00-20:00; Sa 09:00-18:00; Su 13:00-18:00", "brand": "Go Outdoors", "brand:wikidata": "Q75293941", "nsi_id": "gooutdoors-f55d12"}, "geometry": {"type": "Point", "coordinates": [-5.927182, 54.660975]}},
{"type": "Feature", "id": "AytC66M71DLbgE-l2t-4GeDpiqM=", "properties": {"ref": "https://www.gooutdoors.co.uk/stores/go-outdoors-bedford", "@spider": "go_outdoors", "shop": "outdoor", "addr:street_address": "NORSE ROAD", "addr:city": "Bedford", "addr:postcode": "MK41 0QN", "addr:country": "GB", "name": "Go Outdoors", "phone": "03443876823", "website": "https://www.gooutdoors.co.uk/stores/go-outdoors-bedford", "opening_hours": "Mo-Fr 09:00-20:00; Sa 09:00-18:00; Su 10:30-16:30", "brand": "Go Outdoors", "brand:wikidata": "Q75293941", "nsi_id": "gooutdoors-f55d12"}, "geometry": {"type": "Point", "coordinates": [-0.40905, 52.148221]}},
{"type": "Feature", "id": "QN47XfaqtLmsJeATfDfbv-0f5ro=", "properties": {"ref": "https://www.gooutdoors.co.uk/stores/go-outdoors-basingstoke", "@spider": "go_outdoors", "shop": "outdoor", "addr:street_address": "READING ROAD, GASTON WOOD", "addr:city": "Basingstoke", "addr:postcode": "RG24 8TW", "addr:country": "GB", "name": "Go Outdoors", "phone": "3443876818", "website": "https://www.gooutdoors.co.uk/stores/go-outdoors-basingstoke", "opening_hours": "Mo-Fr 09:00-20:00; Sa 09:00-18:00; Su 10:30-16:30", "brand": "Go Outdoors", "brand:wikidata": "Q75293941", "nsi_id": "gooutdoors-f55d12"}, "geometry": {"type": "Point", "coordinates": [-1.069909, 51.282828]}}]}