{"type":"FeatureCollection","features":[{"type": "Feature", "id": "waKbpFrjy2A9hT7NvuK-4JLsBds=", "properties": {"ref": "https://www.graeters.com/stores/retail-stores/columbus/pickerington", "@spider": "graeters", "amenity": "ice_cream", "cuisine": "ice_cream", "takeaway": "yes", "addr:full": "1500 Cross Creeks Blvd. Columbus, OH 43147", "name": "Graeter's", "phone": "(614) 755-9865", "website": "https://www.graeters.com/stores/retail-stores/columbus/pickerington", "opening_hours": "Mo-Th 11:00-22:00; Fr-Sa 11:00-23:00; Su 11:00-22:00", "brand": "Graeter's", "brand:wikidata": "Q5592430", "nsi_id": "graeters-8697a4"}, "geometry": {"type": "Point", "coordinates": [-82.7841626, 39.9196187]}},
{"type": "Feature", "id": "Q_tho5EFE2EMJh9QWLUnnhyolJc=", "properties": {"ref": "https://www.graeters.com/stores/retail-stores/columbus/hilliard", "@spider": "graeters", "amenity": "ice_cream", "cuisine": "ice_cream", "takeaway": "yes", "addr:full": "5410 Scioto Darby Road Hilliard, OH 43026", "name": "Graeter's", "phone": "(614) 742-7740", "website": "https://www.graeters.com/stores/retail-stores/columbus/hilliard", "opening_hours": "Mo-Th 11:00-22:00; Fr-Sa 11:00-23:00; Su 11:00-22:00", "brand": "Graeter's", "brand:wikidata": "Q5592430", "nsi_id": "graeters-8697a4"}, "geometry": {"type": "Point", "coordinates": [-83.1626291, 40.0288879]}},
{"type": "Feature", "id": "euRIcir18KONbbr62KGiC3CY9eI=", "properties": {"ref": "https://www.graeters.com/stores/retail-stores/columbus/gahanna", "@spider": "graeters", "amenity": "ice_cream", "cuisine": "ice_cream", "takeaway": "yes", "addr:full": "425 Beecher Road Columbus, OH 43230", "name": "Graeter's", "phone": "(614) 855-5508", "website": "https://www.graeters.com/stores/retail-stores/columbus/gahanna", "opening_hours": "Mo-Th 11:00-22:00; Fr-Sa 11:00-23:00; Su 11:00-22:00", "brand": "Graeter's", "brand:wikidata": "Q5592430", "nsi_id": "graeters-8697a4"}, "geometry": {"type": "Point", "coordinates": [-82.86353, 40.045407]}},
{"type": "Feature", "id": "d7OZaIw_ZNsjgAH-ZoOUhu3U4OY=", "properties": {"ref": "https://www.graeters.com/stores/retail-stores/columbus/dublin", "@spider": "graeters", "amenity": "ice_cream", "cuisine": "ice_cream", "takeaway": "yes", "addr:full": "6255 Frantz Road Columbus, OH 43017", "name": "Graeter's", "phone": "(614) 799-2663", "website": "https://www.graeters.com/stores/retail-stores/columbus/dublin", "opening_hours": "Mo-Th 11:00-22:00; Fr-Sa 11:00-23:00; Su 11:00-22:00", "brand": "Graeter's", "brand:wikidata": "Q5592430", "nsi_id": "graeters-8697a4"}, "geometry": {"type": "Point", "coordinates": [-83.126292, 40.094242]}},
{"type": "Feature", "id": "UlWRgNCb3dloCZG29d75VGqniWk=", "properties": {"ref": "https://www.graeters.com/stores/retail-stores/columbus/bexley", "@spider": "graeters", "amenity": "ice_cream", "cuisine": "ice_cream", "takeaway": "yes", "addr:full": "2282 East Main Street Bexley, OH 43209", "name": "Graeter's", "phone": "(614) 236-2663", "website": "https://www.graeters.com/stores/retail-stores/columbus/bexley", "opening_hours": "Mo-Th 11:00-22:00; Fr-Sa 11:00-23:00; Su 11:00-22:00", "brand": "Graeter's", "brand:wikidata": "Q5592430", "nsi_id": "graeters-8697a4"}, "geometry": {"type": "Point", "coordinates": [-82.937916, 39.957437]}},
{"type": "Feature", "id": "78MGIFPNBPiuDqTJmxU4_a_S-Ek=", "properties": {"ref": "https://www.graeters.com/stores/retail-stores/columbus/bethel", "@spider": "graeters", "amenity": "ice_cream", "cuisine": "ice_cream", "takeaway": "yes", "addr:full": "2136 Bethel Road Columbus, OH 43220", "name": "Graeter's", "phone": "(614) 442-7622", "website": "https://www.graeters.com/stores/retail-stores/columbus/bethel", "opening_hours": "Mo-Th 10:00-22:00; Fr-Sa 10:00-23:00; Su 11:00-22:00", "brand": "Graeter's", "brand:wikidata": "Q5592430", "nsi_id": "graeters-8697a4"}, "geometry": {"type": "Point", "coordinates": [-83.07553, 40.064977]}},
{"type": "Feature", "id": "aJ6bzT6Aan98wVvWasSbrfLfoEY=", "properties": {"ref": "https://www.graeters.com/stores/retail-stores/cincinnati/xavier", "@spider": "graeters", "amenity": "ice_cream", "cuisine": "ice_cream", "takeaway": "yes", "addr:full": "3747 Montgomery Rd Norwood, OH 45212", "name": "Graeter's", "phone": "(513) 531-1200", "website": "https://www.graeters.com/stores/retail-stores/cincinnati/xavier", "brand": "Graeter's", "brand:wikidata": "Q5592430", "nsi_id": "graeters-8697a4"}, "geometry": {"type": "Point", "coordinates": [-84.466467, 39.148022]}},
{"type": "Feature", "id": "aj--Q8fAN1_IXPW0uDjZylS7SUE=", "properties": {"ref": "https://www.graeters.com/stores/retail-stores/cincinnati/overtherhine", "@spider": "graeters", "amenity": "ice_cream", "cuisine": "ice_cream", "takeaway": "yes", "name": "Graeter's", "website": "https://www.graeters.com/stores/retail-stores/cincinnati/overtherhine", "opening_hours": "Mo-Th 11:00-22:00; Fr-Sa 11:00-23:00; Su 11:00-22:00", "brand": "Graeter's", "brand:wikidata": "Q5592430", "nsi_id": "graeters-8697a4"}, "geometry": {"type": "Point", "coordinates": [-84.515454, 39.110644]}},
{"type": "Feature", "id": "Go2W8Tgu6q4Qgx96ntQofVyBs38=", "properties": {"ref": "https://www.graeters.com/stores/retail-stores/cincinnati/mountauburn", "@spider": "graeters", "amenity": "ice_cream", "cuisine": "ice_cream", "takeaway": "yes", "addr:full": "2145 Reading Road Cincinnati, OH 45202", "name": "Graeter's", "phone": "(513) 721-6265", "website": "https://www.graeters.com/stores/retail-stores/cincinnati/mountauburn", "opening_hours": "Mo-Sa 06:00-18:00", "brand": "Graeter's", "brand:wikidata": "Q5592430", "nsi_id": "graeters-8697a4"}, "geometry": {"type": "Point", "coordinates": [-84.501143, 39.121186]}},
{"type": "Feature", "id": "0lSmvlhGtr7T9W_boN5ZwSHbtBo=", "properties": {"ref": "https://www.graeters.com/stores/retail-stores/loveland/loveland-station", "@spider": "graeters", "amenity": "ice_cream", "cuisine": "ice_cream", "takeaway": "yes", "addr:full": "110 S. 2nd. Street Loveland, OH 45140", "name": "Graeter's", "phone": "(513) 583-0797", "website": "https://www.graeters.com/stores/retail-stores/loveland/loveland-station", "opening_hours": "Mo-Th 11:00-22:00; Fr-Sa 11:00-23:00; Su 11:00-22:00", "brand": "Graeter's", "brand:wikidata": "Q5592430", "nsi_id": "graeters-8697a4"}, "geometry": {"type": "Point", "coordinates": [-84.2594069, 39.2677553]}},
{"type": "Feature", "id": "NRgR9D7dcLYHgCm4h2p2IsqGbUQ=", "properties": {"ref": "https://www.graeters.com/stores/retail-stores/northern-kentucky/taylormill", "@spider": "graeters", "amenity": "ice_cream", "cuisine": "ice_cream", "takeaway": "yes", "name": "Graeter's", "website": "https://www.graeters.com/stores/retail-stores/northern-kentucky/taylormill", "opening_hours": "Mo-Th 11:00-22:00; Fr-Sa 11:00-23:00; Su 11:00-22:00", "brand": "Graeter's", "brand:wikidata": "Q5592430", "nsi_id": "graeters-8697a4"}, "geometry": {"type": "Point", "coordinates": [-84.506694, 39.018158]}},
{"type": "Feature", "id": "TQzblOYb4QdyDnx6EzVPuGQw2JQ=", "properties": {"ref": "https://www.graeters.com/stores/retail-stores/northern-kentucky/fortthomas", "@spider": "graeters", "amenity": "ice_cream", "cuisine": "ice_cream", "takeaway": "yes", "addr:full": "1409 North Grand Avenue Fort Thomas, KY 41071", "name": "Graeter's", "phone": "(859) 781-7770", "website": "https://www.graeters.com/stores/retail-stores/northern-kentucky/fortthomas", "opening_hours": "Mo-Th 06:30-22:00; Fr-Sa 06:30-23:00; Su 09:00-22:00", "brand": "Graeter's", "brand:wikidata": "Q5592430", "nsi_id": "graeters-8697a4"}, "geometry": {"type": "Point", "coordinates": [-84.4667297, 39.0800607]}},
{"type": "Feature", "id": "snKKpxepREqT4S4H03zSMWGWX-U=", "properties": {"ref": "https://www.graeters.com/stores/retail-stores/northern-kentucky/fortmitchell", "@spider": "graeters", "amenity": "ice_cream", "cuisine": "ice_cream", "takeaway": "yes", "addr:full": "301 Buttermilk Pike Fort Mitchell, KY 41017", "name": "Graeter's", "phone": "(859) 341-3005", "website": "https://www.graeters.com/stores/retail-stores/northern-kentucky/fortmitchell", "opening_hours": "Mo-Th 07:00-22:00; Fr-Sa 07:00-23:00; Su 09:00-22:00", "brand": "Graeter's", "brand:wikidata": "Q5592430", "nsi_id": "graeters-8697a4"}, "geometry": {"type": "Point", "coordinates": [-84.5709506, 39.0429279]}},
{"type": "Feature", "id": "Fk63KOleNdmCJHu-bjjT5rOTyT0=", "properties": {"ref": "https://www.graeters.com/stores/retail-stores/cincinnati/northgate", "@spider": "graeters", "amenity": "ice_cream", "cuisine": "ice_cream", "takeaway": "yes", "addr:full": "9356 Colerain Avenue  Cincinnati, OH 45251", "name": "Graeter's", "phone": "(513) 385-5045", "website": "https://www.graeters.com/stores/retail-stores/cincinnati/northgate", "opening_hours": "Mo-Th 07:00-22:00; Fr-Sa 07:00-23:00; Su 09:00-22:00", "brand": "Graeter's", "brand:wikidata": "Q5592430", "nsi_id": "graeters-8697a4"}, "geometry": {"type": "Point", "coordinates": [-84.593512, 39.241561]}},
{"type": "Feature", "id": "LioCIv4c0hnPIXAxpnc-d_5EZ7s=", "properties": {"ref": "https://www.graeters.com/stores/retail-stores/cincinnati/springdale", "@spider": "graeters", "amenity": "ice_cream", "cuisine": "ice_cream", "takeaway": "yes", "addr:full": "11511 Princeton Road Cincinnati, OH 45246", "name": "Graeter's", "phone": "(513) 771-7157", "website": "https://www.graeters.com/stores/retail-stores/cincinnati/springdale", "opening_hours": "Mo-Th 07:00-22:00; Fr-Sa 07:00-23:00; Su 09:00-22:00", "brand": "Graeter's", "brand:wikidata": "Q5592430", "nsi_id": "graeters-8697a4"}, "geometry": {"type": "Point", "coordinates": [-84.46781, 39.2857879]}},
{"type": "Feature", "id": "Hk-YkkrJRB6RrynnWOxb6gKhGLM=", "properties": {"ref": "https://www.graeters.com/stores/retail-stores/cincinnati/mariemont", "@spider": "graeters", "amenity": "ice_cream", "cuisine": "ice_cream", "takeaway": "yes", "addr:full": "6918 Wooster Pike Cincinnati, OH 45227", "name": "Graeter's", "phone": "(513) 272-0859", "website": "https://www.graeters.com/stores/retail-stores/cincinnati/mariemont", "opening_hours": "Mo-Th 07:00-22:00; Fr-Sa 07:00-23:00; Su 09:00-22:00", "brand": "Graeter's", "brand:wikidata": "Q5592430", "nsi_id": "graeters-8697a4"}, "geometry": {"type": "Point", "coordinates": [-84.3762973, 39.1453537]}},
{"type": "Feature", "id": "ut5QWoCoHrTSi1DsUIgu1xuPMYE=", "properties": {"ref": "https://www.graeters.com/stores/retail-stores/cincinnati/jungle-jims", "@spider": "graeters", "amenity": "ice_cream", "cuisine": "ice_cream", "takeaway": "yes", "addr:full": "5440 Dixie Hwy Fairfield, OH 45014", "name": "Graeter's", "phone": "(513) 829-0127", "website": "https://www.graeters.com/stores/retail-stores/cincinnati/jungle-jims", "opening_hours": "Mo-Th 11:00-22:00; Fr-Sa 11:00-23:00; Su 00:00-22:00", "brand": "Graeter's", "brand:wikidata": "Q5592430", "nsi_id": "graeters-8697a4"}, "geometry": {"type": "Point", "coordinates": [-84.5264353, 39.3350821]}},
{"type": "Feature", "id": "M3g1_BdYUrlM1CbZTr8FjXnY7GU=", "properties": {"ref": "https://www.graeters.com/stores/retail-stores/louisville/springhurst", "@spider": "graeters", "amenity": "ice_cream", "cuisine": "ice_cream", "takeaway": "yes", "addr:full": "9430 Brownsboro Road, Louisville, KY 40241", "name": "Graeter's", "phone": "(502) 327-0651", "website": "https://www.graeters.com/stores/retail-stores/louisville/springhurst", "opening_hours": "Mo-Th 11:00-22:00; Fr-Sa 11:00-23:00; Su 12:00-22:00", "brand": "Graeter's", "brand:wikidata": "Q5592430", "nsi_id": "graeters-8697a4"}, "geometry": {"type": "Point", "coordinates": [-85.693611, 38.224248]}},
{"type": "Feature", "id": "LNvFYgCQKr3nAUnvwjaFBC-cUh0=", "properties": {"ref": "https://www.graeters.com/stores/retail-stores/northern-kentucky/cincinnatiairport", "@spider": "graeters", "amenity": "ice_cream", "cuisine": "ice_cream", "takeaway": "yes", "addr:full": "2939 Terminal Drive, Hebron, KY 41048", "name": "Graeter's", "phone": "(859) 767-7801", "website": "https://www.graeters.com/stores/retail-stores/northern-kentucky/cincinnatiairport", "opening_hours": "Mo-Su 05:00-19:00", "brand": "Graeter's", "brand:wikidata": "Q5592430", "nsi_id": "graeters-8697a4"}, "geometry": {"type": "Point", "coordinates": [-84.656432, 39.055563]}},
{"type": "Feature", "id": "q8gR_GwHDfFdQ2_sq09Ku7TBy18=", "properties": {"ref": "https://www.graeters.com/stores/retail-stores/columbus/easton", "@spider": "graeters", "amenity": "ice_cream", "cuisine": "ice_cream", "takeaway": "yes", "addr:full": "142 Easton Town Center Columbus, OH 43219", "name": "Graeter's", "phone": "(614) 476-2094", "website": "https://www.graeters.com/stores/retail-stores/columbus/easton", "opening_hours": "Mo-Sa 23:00-21:30; Su 12:00-18:30", "brand": "Graeter's", "brand:wikidata": "Q5592430", "nsi_id": "graeters-8697a4"}, "geometry": {"type": "Point", "coordinates": [-82.915553, 40.050001]}},
{"type": "Feature", "id": "7MHtwMQW6jeQm-zO-nuq2zYKEYA=", "properties": {"ref": "https://www.graeters.com/stores/retail-stores/oxford/oxford", "@spider": "graeters", "amenity": "ice_cream", "cuisine": "ice_cream", "takeaway": "yes", "addr:full": "29 W High Street Oxford, OH 45056", "name": "Graeter's", "phone": "(513) 273-2000", "website": "https://www.graeters.com/stores/retail-stores/oxford/oxford", "opening_hours": "Mo-Th 11:00-22:00; Fr-Sa 11:00-23:00; Su 11:00-22:00", "brand": "Graeter's", "brand:wikidata": "Q5592430", "nsi_id": "graeters-8697a4"}, "geometry": {"type": "Point", "coordinates": [-84.7434789, 39.510089]}},
{"type": "Feature", "id": "BGGJNlemRvny2dKe3c7syWNw-YM=", "properties": {"ref": "https://www.graeters.com/stores/retail-stores/dayton/oakwood", "@spider": "graeters", "amenity": "ice_cream", "cuisine": "ice_cream", "takeaway": "yes", "addr:full": "2412 Far Hills Avenue Dayton, OH 45419", "name": "Graeter's", "phone": "(937) 534-0602", "website": "https://www.graeters.com/stores/retail-stores/dayton/oakwood", "opening_hours": "Mo-Th 11:00-22:00; Fr-Sa 11:00-23:00; Su 11:00-22:00", "brand": "Graeter's", "brand:wikidata": "Q5592430", "nsi_id": "graeters-8697a4"}, "geometry": {"type": "Point", "coordinates": [-84.170603, 39.709162]}},
{"type": "Feature", "id": "3qv9a_eyhEeUhVO91fGykgId0lE=", "properties": {"ref": "https://www.graeters.com/stores/retail-stores/dayton/centerville", "@spider": "graeters", "amenity": "ice_cream", "cuisine": "ice_cream", "takeaway": "yes", "addr:full": "2 N. Main Street, Centerville, OH 45459", "name": "Graeter's", "phone": "(937) 312-9001", "website": "https://www.graeters.com/stores/retail-stores/dayton/centerville", "opening_hours": "Mo-Th 11:00-22:00; Fr-Sa 11:00-23:00; Su 11:00-22:00", "brand": "Graeter's", "brand:wikidata": "Q5592430", "nsi_id": "graeters-8697a4"}, "geometry": {"type": "Point", "coordinates": [-84.15858, 39.628654]}},
{"type": "Feature", "id": "GaZpAjUS58gKf8D-mn4Szwt-3UI=", "properties": {"ref": "https://www.graeters.com/stores/retail-stores/dayton/beavercreek", "@spider": "graeters", "amenity": "ice_cream", "cuisine": "ice_cream", "takeaway": "yes", "addr:full": "2330-A N. Fairfield Road Dayton, OH 45431", "name": "Graeter's", "phone": "(937) 427-4700", "website": "https://www.graeters.com/stores/retail-stores/dayton/beavercreek", "opening_hours": "Mo-Th 11:00-22:00; Fr-Sa 11:00-23:00; Su 11:00-22:00", "brand": "Graeter's", "brand:wikidata": "Q5592430", "nsi_id": "graeters-8697a4"}, "geometry": {"type": "Point", "coordinates": [-84.053256, 39.756695]}},
{"type": "Feature", "id": "7DXjbGVu3VeJGRg9zdS9oWxnjs0=", "properties": {"ref": "https://www.graeters.com/stores/retail-stores/pittsburgh/castle-shannon", "@spider": "graeters", "amenity": "ice_cream", "cuisine": "ice_cream", "takeaway": "yes", "addr:full": "437 Mt Lebanon Boulevard Pittsburgh, PA 15234", "name": "Graeter's", "phone": "(412) 668-3641", "website": "https://www.graeters.com/stores/retail-stores/pittsburgh/castle-shannon", "opening_hours": "Mo-Th 11:00-22:00; Fr-Sa 11:00-23:00; Su 11:00-22:00", "brand": "Graeter's", "brand:wikidata": "Q5592430", "nsi_id": "graeters-8697a4"}, "geometry": {"type": "Point", "coordinates": [-80.0318141, 40.3694844]}},
{"type": "Feature", "id": "-R1Ffeu9RjdLNLwZRxKGWYyRS54=", "properties": {"ref": "https://www.graeters.com/stores/retail-stores/pittsburgh/wexford", "@spider": "graeters", "amenity": "ice_cream", "cuisine": "ice_cream", "takeaway": "yes", "addr:full": "10610 Perry Hwy, Wexford, PA 15090", "name": "Graeter's", "phone": "(724) 940-2272", "website": "https://www.graeters.com/stores/retail-stores/pittsburgh/wexford", "opening_hours": "Mo-Th 11:00-22:00; Fr-Sa 11:00-23:00; Su 11:00-22:00", "brand": "Graeter's", "brand:wikidata": "Q5592430", "nsi_id": "graeters-8697a4"}, "geometry": {"type": "Point", "coordinates": [-80.0538936, 40.6110491]}},
{"type": "Feature", "id": "zXX-0RPhy9N-CnKByGZwW32DIQ8=", "properties": {"ref": "https://www.graeters.com/stores/retail-stores/indianapolis/fishers", "@spider": "graeters", "amenity": "ice_cream", "cuisine": "ice_cream", "takeaway": "yes", "addr:full": "9367 Ambleside Drive Fishers, IN 46038", "name": "Graeter's", "phone": "(317) 845-0069", "website": "https://www.graeters.com/stores/retail-stores/indianapolis/fishers", "opening_hours": "Mo-Th 11:00-22:00; Fr-Sa 11:00-23:00; Su 12:00-22:00", "brand": "Graeter's", "brand:wikidata": "Q5592430", "nsi_id": "graeters-8697a4"}, "geometry": {"type": "Point", "coordinates": [-86.001505, 39.9797487]}},
{"type": "Feature", "id": "cu8gYVDVHBa_aH5CHW_ZlhrVufo=", "properties": {"ref": "https://www.graeters.com/stores/retail-stores/indianapolis/illinoisstreet", "@spider": "graeters", "amenity": "ice_cream", "cuisine": "ice_cream", "takeaway": "yes", "addr:full": "5560 North Illinois Street Indianapolis, IN 46208", "name": "Graeter's", "phone": "(317) 253-1405", "website": "https://www.graeters.com/stores/retail-stores/indianapolis/illinoisstreet", "opening_hours": "Mo-Th 11:00-22:00; Fr-Sa 11:00-23:00; Su 12:00-22:00", "brand": "Graeter's", "brand:wikidata": "Q5592430", "nsi_id": "graeters-8697a4"}, "geometry": {"type": "Point", "coordinates": [-86.159803, 39.853833]}},
{"type": "Feature", "id": "zJFlL3oJDJ-CO7425bCx_jNYuWI=", "properties": {"ref": "https://www.graeters.com/stores/retail-stores/indianapolis/carmel", "@spider": "graeters", "amenity": "ice_cream", "cuisine": "ice_cream", "takeaway": "yes", "addr:full": "864 S. Rangeline Road Carmel, IN 46032", "name": "Graeter's", "phone": "(317) 810-1673", "website": "https://www.graeters.com/stores/retail-stores/indianapolis/carmel", "opening_hours": "Mo-Th 11:00-22:00; Fr-Sa 11:00-23:00; Su 12:00-22:00", "brand": "Graeter's", "brand:wikidata": "Q5592430", "nsi_id": "graeters-8697a4"}, "geometry": {"type": "Point", "coordinates": [-86.1270506, 39.9684339]}},
{"type": "Feature", "id": "mvIWkZhBEqcHgtRcCdRDWa3kKK0=", "properties": {"ref": "https://www.graeters.com/stores/retail-stores/lexington/hamburg", "@spider": "graeters", "amenity": "ice_cream", "cuisine": "ice_cream", "takeaway": "yes", "addr:full": "1925 Justice Drive Lexington, KY 40509", "name": "Graeter's", "phone": "(859) 219-1936", "website": "https://www.graeters.com/stores/retail-stores/lexington/hamburg", "opening_hours": "Mo-Th 11:00-22:00; Fr-Sa 11:00-23:00; Su 12:00-22:00", "brand": "Graeter's", "brand:wikidata": "Q5592430", "nsi_id": "graeters-8697a4"}, "geometry": {"type": "Point", "coordinates": [-84.413154, 38.017461]}},
{"type": "Feature", "id": "jTKR4ew-OT-v4_y2hb-oKaaoYhY=", "properties": {"ref": "https://www.graeters.com/stores/retail-stores/louisville/stmatthews", "@spider": "graeters", "amenity": "ice_cream", "cuisine": "ice_cream", "takeaway": "yes", "addr:full": "140 Breckenridge Lane Louisville, KY 40207", "name": "Graeter's", "phone": "(502) 896-9952", "website": "https://www.graeters.com/stores/retail-stores/louisville/stmatthews", "opening_hours": "Mo-Th 11:00-22:00; Fr-Sa 11:00-23:00; Su 12:00-22:00", "brand": "Graeter's", "brand:wikidata": "Q5592430", "nsi_id": "graeters-8697a4"}, "geometry": {"type": "Point", "coordinates": [-85.654389, 38.25118]}},
{"type": "Feature", "id": "iBOhHJDf6kJHlDwqvt0PkRQPTTk=", "properties": {"ref": "https://www.graeters.com/stores/retail-stores/lexington/chevychase", "@spider": "graeters", "amenity": "ice_cream", "cuisine": "ice_cream", "takeaway": "yes", "addr:full": "836 Euclid Avenue Lexington, KY 40502", "name": "Graeter's", "phone": "(859) 253-6741", "website": "https://www.graeters.com/stores/retail-stores/lexington/chevychase", "opening_hours": "Mo-Th 11:00-22:00; Fr-Sa 11:00-23:00; Su 12:00-22:00", "brand": "Graeter's", "brand:wikidata": "Q5592430", "nsi_id": "graeters-8697a4"}, "geometry": {"type": "Point", "coordinates": [-84.490703, 38.029805]}},
{"type": "Feature", "id": "CSuSwGmb1uhEOmCKA8FYu64F5m4=", "properties": {"ref": "https://www.graeters.com/stores/retail-stores/louisville/landislake", "@spider": "graeters", "amenity": "ice_cream", "cuisine": "ice_cream", "takeaway": "yes", "addr:full": "13817 English Villa Drive Louisville, KY 40245", "name": "Graeter's", "phone": "(502) 254-1760", "website": "https://www.graeters.com/stores/retail-stores/louisville/landislake", "opening_hours": "Mo-Th 11:00-22:00; Fr-Sa 11:00-23:00; Su 12:00-22:00", "brand": "Graeter's", "brand:wikidata": "Q5592430", "nsi_id": "graeters-8697a4"}, "geometry": {"type": "Point", "coordinates": [-85.494254, 38.240307]}},
{"type": "Feature", "id": "vdhrvWe-5iKT63md6iPKwJSXPhI=", "properties": {"ref": "https://www.graeters.com/stores/retail-stores/louisville/newalbany", "@spider": "graeters", "amenity": "ice_cream", "cuisine": "ice_cream", "takeaway": "yes", "addr:full": "4310 Charlestown Road New Albany, IN 47150", "name": "Graeter's", "phone": "(812) 949-6263", "website": "https://www.graeters.com/stores/retail-stores/louisville/newalbany", "opening_hours": "Mo-Th 11:00-22:00; Fr-Sa 11:00-23:00; Su 12:00-22:00", "brand": "Graeter's", "brand:wikidata": "Q5592430", "nsi_id": "graeters-8697a4"}, "geometry": {"type": "Point", "coordinates": [-85.786695, 38.357908]}},
{"type": "Feature", "id": "MQpirsF11xdXzpIq9H0KxpWX3J4=", "properties": {"ref": "https://www.graeters.com/stores/retail-stores/louisville/highlandsdouglassloop", "@spider": "graeters", "amenity": "ice_cream", "cuisine": "ice_cream", "takeaway": "yes", "addr:full": "2204 Bardstown Road, Louisville, KY 40205", "name": "Graeter's", "phone": "(502) 451-0044", "website": "https://www.graeters.com/stores/retail-stores/louisville/highlandsdouglassloop", "opening_hours": "Mo-Sa 23:00-22:00; Su 12:00-22:00", "brand": "Graeter's", "brand:wikidata": "Q5592430", "nsi_id": "graeters-8697a4"}, "geometry": {"type": "Point", "coordinates": [-85.693611, 38.224248]}},
{"type": "Feature", "id": "4m_pnsMN6ShowsE12hCrC7GM3Ww=", "properties": {"ref": "https://www.graeters.com/stores/retail-stores/cleveland/pinecrest", "@spider": "graeters", "amenity": "ice_cream", "cuisine": "ice_cream", "takeaway": "yes", "addr:full": "10 Park Avenue, Suite 116 Beachwood, OH 44122", "name": "Graeter's", "phone": "(216) 727-0933", "website": "https://www.graeters.com/stores/retail-stores/cleveland/pinecrest", "opening_hours": "Mo-Th 12:00-21:00; Fr 12:00-22:00; Sa 23:00-22:00; Su 23:00-21:00", "brand": "Graeter's", "brand:wikidata": "Q5592430", "nsi_id": "graeters-8697a4"}, "geometry": {"type": "Point", "coordinates": [-81.4894577, 41.451228]}},
{"type": "Feature", "id": "t4doYzL7jrAKX4-NMgaCJPY7mPU=", "properties": {"ref": "https://www.graeters.com/stores/retail-stores/cleveland/crocker-park", "@spider": "graeters", "amenity": "ice_cream", "cuisine": "ice_cream", "takeaway": "yes", "addr:full": "261 Main St Westlake, OH 44145", "name": "Graeter's", "phone": "(440) 899-2158", "website": "https://www.graeters.com/stores/retail-stores/cleveland/crocker-park", "opening_hours": "Mo-Th 11:00-21:30; Fr-Sa 11:00-22:00; Su 11:00-21:30", "brand": "Graeter's", "brand:wikidata": "Q5592430", "nsi_id": "graeters-8697a4"}, "geometry": {"type": "Point", "coordinates": [-81.951434, 41.456935]}},
{"type": "Feature", "id": "HL-I-MUOViwflKIMsw8Xh30TBuI=", "properties": {"ref": "https://www.graeters.com/stores/retail-stores/columbus/worthington", "@spider": "graeters", "amenity": "ice_cream", "cuisine": "ice_cream", "takeaway": "yes", "addr:full": "654 High Street, Columbus, OH 43085", "name": "Graeter's", "phone": "(614) 848-5151", "website": "https://www.graeters.com/stores/retail-stores/columbus/worthington", "opening_hours": "Mo-Th 11:00-22:00; Fr-Sa 11:00-23:00; Su 11:00-22:00", "brand": "Graeter's", "brand:wikidata": "Q5592430", "nsi_id": "graeters-8697a4"}, "geometry": {"type": "Point", "coordinates": [-83.017786, 40.087053]}},
{"type": "Feature", "id": "55983asIHnm7MJfmM2cu01psn88=", "properties": {"ref": "https://www.graeters.com/stores/retail-stores/columbus/westerville", "@spider": "graeters", "amenity": "ice_cream", "cuisine": "ice_cream", "takeaway": "yes", "addr:full": "1 North State Street Columbus, OH 43081", "name": "Graeter's", "phone": "(614) 895-0553", "website": "https://www.graeters.com/stores/retail-stores/columbus/westerville", "opening_hours": "Mo-Th 11:00-22:00; Fr-Sa 11:00-23:00; Su 11:00-22:00", "brand": "Graeter's", "brand:wikidata": "Q5592430", "nsi_id": "graeters-8697a4"}, "geometry": {"type": "Point", "coordinates": [-82.93128, 40.126123]}},
{"type": "Feature", "id": "4w4VGWUH8qJpeDm36pwRGgnwc8M=", "properties": {"ref": "https://www.graeters.com/stores/retail-stores/columbus/upperarlington", "@spider": "graeters", "amenity": "ice_cream", "cuisine": "ice_cream", "takeaway": "yes", "addr:full": "1534 West Lane Avenue Columbus, OH 43221", "name": "Graeter's", "phone": "(614) 488-3222", "website": "https://www.graeters.com/stores/retail-stores/columbus/upperarlington", "opening_hours": "Mo-Th 11:00-22:00; Fr-Sa 11:00-23:00; Su 11:00-22:00", "brand": "Graeter's", "brand:wikidata": "Q5592430", "nsi_id": "graeters-8697a4"}, "geometry": {"type": "Point", "coordinates": [-83.0511, 40.007381]}},
{"type": "Feature", "id": "FvC3bhM7JKK_BNp83iDEQtuVFhw=", "properties": {"ref": "https://www.graeters.com/stores/retail-stores/columbus/powell", "@spider": "graeters", "amenity": "ice_cream", "cuisine": "ice_cream", "takeaway": "yes", "name": "Graeter's", "website": "https://www.graeters.com/stores/retail-stores/columbus/powell", "opening_hours": "Mo-Th 11:00-22:00; Fr-Sa 11:00-23:00; Su 11:00-22:00", "brand": "Graeter's", "brand:wikidata": "Q5592430", "nsi_id": "graeters-8697a4"}, "geometry": {"type": "Point", "coordinates": [-83.0897985, 40.158477]}},
{"type": "Feature", "id": "3ZJWe89GMLGBDYnVTPc03Ci3TMw=", "properties": {"ref": "https://www.graeters.com/stores/retail-stores/columbus/polaris", "@spider": "graeters", "amenity": "ice_cream", "cuisine": "ice_cream", "takeaway": "yes", "addr:full": "8749 Sancus Blvd Columbus, OH 43240", "name": "Graeter's", "phone": "(614) 396-7541", "website": "https://www.graeters.com/stores/retail-stores/columbus/polaris", "opening_hours": "Mo-Th 11:00-22:00; Fr-Sa 11:00-23:00; Su 11:00-22:00", "brand": "Graeter's", "brand:wikidata": "Q5592430", "nsi_id": "graeters-8697a4"}, "geometry": {"type": "Point", "coordinates": [-82.9907343, 40.1423334]}},
{"type": "Feature", "id": "BeKLWvLhZvG4lNkSBqxAhsgiIK8=", "properties": {"ref": "https://www.graeters.com/stores/retail-stores/liberty-township/liberty-way", "@spider": "graeters", "amenity": "ice_cream", "cuisine": "ice_cream", "takeaway": "yes", "addr:full": "7121 Foundry Row Liberty Township, OH 45069", "name": "Graeter's", "phone": "(513) 755-3243", "website": "https://www.graeters.com/stores/retail-stores/liberty-township/liberty-way", "opening_hours": "Mo-Th 11:00-22:00; Fr-Sa 10:00-23:00; Su 11:00-20:00", "brand": "Graeter's", "brand:wikidata": "Q5592430", "nsi_id": "graeters-8697a4"}, "geometry": {"type": "Point", "coordinates": [-84.3735907, 39.3723206]}},
{"type": "Feature", "id": "uAK-OYORRCzsZqqsASXTtWEhBhw=", "properties": {"ref": "https://www.graeters.com/stores/retail-stores/cincinnati/westchester", "@spider": "graeters", "amenity": "ice_cream", "cuisine": "ice_cream", "takeaway": "yes", "addr:full": "7651 Cox Lane West Chester Township, OH 45069", "name": "Graeter's", "phone": "(513) 755-2236", "website": "https://www.graeters.com/stores/retail-stores/cincinnati/westchester", "opening_hours": "Mo-Th 06:30-22:00; Fr-Sa 06:30-23:00; Su 09:00-22:00", "brand": "Graeter's", "brand:wikidata": "Q5592430", "nsi_id": "graeters-8697a4"}, "geometry": {"type": "Point", "coordinates": [-84.3660649, 39.356393]}},
{"type": "Feature", "id": "-JWzsS0E8XlQKwcTcrTpbVhG-Lg=", "properties": {"ref": "https://www.graeters.com/stores/retail-stores/cincinnati/westernhillswestbourne", "@spider": "graeters", "amenity": "ice_cream", "cuisine": "ice_cream", "takeaway": "yes", "addr:full": "3301 Westbourne Drive Cincinnati, OH 45248", "name": "Graeter's", "phone": "(513) 922-8700", "website": "https://www.graeters.com/stores/retail-stores/cincinnati/westernhillswestbourne", "opening_hours": "Mo-Th 06:30-22:00; Fr-Sa 06:30-23:00; Su 09:00-22:00", "brand": "Graeter's", "brand:wikidata": "Q5592430", "nsi_id": "graeters-8697a4"}, "geometry": {"type": "Point", "coordinates": [-84.629475, 39.146799]}},
{"type": "Feature", "id": "_jZoGbrurYxc6VRaj3lDI83dRYQ=", "properties": {"ref": "https://www.graeters.com/stores/retail-stores/cincinnati/kenwood", "@spider": "graeters", "amenity": "ice_cream", "cuisine": "ice_cream", "takeaway": "yes", "addr:full": "8167 Montgomery Road Cincinnati, OH 45236", "name": "Graeter's", "phone": "(513) 793-5665", "website": "https://www.graeters.com/stores/retail-stores/cincinnati/kenwood", "opening_hours": "Mo-Th 06:30-22:00; Fr-Sa 06:30-23:00; Su 09:00-22:00", "brand": "Graeter's", "brand:wikidata": "Q5592430", "nsi_id": "graeters-8697a4"}, "geometry": {"type": "Point", "coordinates": [-84.380978, 39.197175]}},
{"type": "Feature", "id": "7ki5B-Kc9sATqijR42nkmnub_LA=", "properties": {"ref": "https://www.graeters.com/stores/retail-stores/cincinnati/hydepark", "@spider": "graeters", "amenity": "ice_cream", "cuisine": "ice_cream", "takeaway": "yes", "addr:full": "2704 Erie Avenue Cincinnati, OH 45208", "name": "Graeter's", "phone": "(513) 321-6221", "website": "https://www.graeters.com/stores/retail-stores/cincinnati/hydepark", "opening_hours": "Mo-Th 11:00-22:00; Fr-Sa 11:00-23:00; Su 11:00-22:00", "brand": "Graeter's", "brand:wikidata": "Q5592430", "nsi_id": "graeters-8697a4"}, "geometry": {"type": "Point", "coordinates": [-84.4430294, 39.1397577]}},
{"type": "Feature", "id": "58NRH9PI31e-eDH9ZkYPVwigw6M=", "properties": {"ref": "https://www.graeters.com/stores/retail-stores/cincinnati/harrisongreen", "@spider": "graeters", "amenity": "ice_cream", "cuisine": "ice_cream", "takeaway": "yes", "addr:full": "5649 Harrison Avenue, Cincinnati, OH 45248", "name": "Graeter's", "phone": "(513) 574-1252", "website": "https://www.graeters.com/stores/retail-stores/cincinnati/harrisongreen", "opening_hours": "Mo-Th 06:30-22:00; Fr-Sa 06:30-23:00; Su 09:00-22:00", "brand": "Graeter's", "brand:wikidata": "Q5592430", "nsi_id": "graeters-8697a4"}, "geometry": {"type": "Point", "coordinates": [-84.638716, 39.167136]}},
{"type": "Feature", "id": "fzO3xfySx6y952O_JoTCBIhdtSQ=", "properties": {"ref": "https://www.graeters.com/stores/retail-stores/cincinnati/fountainsquare", "@spider": "graeters", "amenity": "ice_cream", "cuisine": "ice_cream", "takeaway": "yes", "addr:full": "511 Walnut Street, Cincinnati, OH 45202", "name": "Graeter's", "phone": "(513) 381-4191", "website": "https://www.graeters.com/stores/retail-stores/cincinnati/fountainsquare", "opening_hours": "Mo-Th 07:00-22:00; Fr 07:00-23:00; Sa 08:00-23:00; Su 09:00-22:00", "brand": "Graeter's", "brand:wikidata": "Q5592430", "nsi_id": "graeters-8697a4"}, "geometry": {"type": "Point", "coordinates": [-84.5120167, 39.1013791]}},
{"type": "Feature", "id": "STI2Pjme58c5Kof0a7xmUE0P9pk=", "properties": {"ref": "https://www.graeters.com/stores/retail-stores/cincinnati/finneytown", "@spider": "graeters", "amenity": "ice_cream", "cuisine": "ice_cream", "takeaway": "yes", "addr:full": "899 West Galbraith Road, Cincinnati, OH 45232", "name": "Graeter's", "phone": "(513) 522-8157", "website": "https://www.graeters.com/stores/retail-stores/cincinnati/finneytown", "opening_hours": "Mo-Th 07:00-22:00; Fr-Sa 07:00-23:00; Su 09:00-22:00", "brand": "Graeter's", "brand:wikidata": "Q5592430", "nsi_id": "graeters-8697a4"}, "geometry": {"type": "Point", "coordinates": [-84.5529323, 39.2148647]}},
{"type": "Feature", "id": "XoRtACV3DKxBudLANW3gkoRPAZQ=", "properties": {"ref": "https://www.graeters.com/stores/retail-stores/cincinnati/deerfield", "@spider": "graeters", "amenity": "ice_cream", "cuisine": "ice_cream", "takeaway": "yes", "addr:full": "5076 Natorp Blvd., Mason, OH 45040", "name": "Graeter's", "phone": "(513) 339-0140", "website": "https://www.graeters.com/stores/retail-stores/cincinnati/deerfield", "opening_hours": "Mo-Th 06:30-22:00; Fr-Sa 06:30-23:00; Su 09:00-22:00", "brand": "Graeter's", "brand:wikidata": "Q5592430", "nsi_id": "graeters-8697a4"}, "geometry": {"type": "Point", "coordinates": [-84.3163178, 39.3007153]}},
{"type": "Feature", "id": "qpBcigHDVz-gXKTpxdWJTd_0vmc=", "properties": {"ref": "https://www.graeters.com/stores/retail-stores/cincinnati/clifton", "@spider": "graeters", "amenity": "ice_cream", "cuisine": "ice_cream", "takeaway": "yes", "addr:full": "332 Ludlow Avenue, Cincinnati, OH 45220", "name": "Graeter's", "phone": "(513) 281-4749", "website": "https://www.graeters.com/stores/retail-stores/cincinnati/clifton", "opening_hours": "Mo-Th 07:00-22:00; Fr-Sa 07:00-23:00; Su 09:00-22:00", "brand": "Graeter's", "brand:wikidata": "Q5592430", "nsi_id": "graeters-8697a4"}, "geometry": {"type": "Point", "coordinates": [-84.520895, 39.14399]}},
{"type": "Feature", "id": "rYnbZNESw54FaXTQY4GCF_Npg34=", "properties": {"ref": "https://www.graeters.com/stores/retail-stores/cincinnati/cherrygrove", "@spider": "graeters", "amenity": "ice_cream", "cuisine": "ice_cream", "takeaway": "yes", "addr:full": "8533 Beechmont Avenue, Cincinnati, OH 45255", "name": "Graeter's", "phone": "(513) 474-5636", "website": "https://www.graeters.com/stores/retail-stores/cincinnati/cherrygrove", "opening_hours": "Mo-Th 07:00-22:00; Fr-Sa 07:00-23:00; Su 09:00-22:00", "brand": "Graeter's", "brand:wikidata": "Q5592430", "nsi_id": "graeters-8697a4"}, "geometry": {"type": "Point", "coordinates": [-84.3752666, 39.0851067]}},
{"type": "Feature", "id": "15gp61WrNA5oultSsFq_xAf9T0s=", "properties": {"ref": "https://www.graeters.com/stores/retail-stores/chicago/winnetka", "@spider": "graeters", "amenity": "ice_cream", "cuisine": "ice_cream", "takeaway": "yes", "addr:full": "940 Green Bay Road, Winnetka, IL 60093", "name": "Graeter's", "phone": "(847) 441-1725", "website": "https://www.graeters.com/stores/retail-stores/chicago/winnetka", "opening_hours": "Mo-Th 11:00-22:00; Fr-Sa 11:00-23:00; Su 11:00-22:00", "brand": "Graeter's", "brand:wikidata": "Q5592430", "nsi_id": "graeters-8697a4"}, "geometry": {"type": "Point", "coordinates": [-87.7442693, 42.117407]}},
{"type": "Feature", "id": "6q1ZSmrFN9KEqk976rdgJt9O9S4=", "properties": {"ref": "https://www.graeters.com/stores/retail-stores/chicago/northbrook", "@spider": "graeters", "amenity": "ice_cream", "cuisine": "ice_cream", "takeaway": "yes", "addr:full": "1347 Shermer Rd. Northbrook, IL 60062", "name": "Graeter's", "phone": "(224) 213-7606", "website": "https://www.graeters.com/stores/retail-stores/chicago/northbrook", "opening_hours": "Mo-Th 11:00-22:00; Fr-Sa 11:00-23:00; Su 11:00-22:00", "brand": "Graeter's", "brand:wikidata": "Q5592430", "nsi_id": "graeters-8697a4"}, "geometry": {"type": "Point", "coordinates": [-87.826831, 42.12768]}},
{"type": "Feature", "id": "R-qkf_ODl6L9KUQ1QUr8kKCjzi0=", "properties": {"ref": "https://www.graeters.com/stores/retail-stores/louisville/ferncreek", "@spider": "graeters", "amenity": "ice_cream", "cuisine": "ice_cream", "takeaway": "yes", "addr:full": "6509 Bardstown Road, 40291", "name": "Graeter's", "phone": "(502) 231-2083", "website": "https://www.graeters.com/stores/retail-stores/louisville/ferncreek", "opening_hours": "Mo-Th 11:00-22:00; Fr-Sa 11:00-23:00; Su 12:00-22:00", "brand": "Graeter's", "brand:wikidata": "Q5592430", "nsi_id": "graeters-8697a4"}, "geometry": {"type": "Point", "coordinates": [-85.5876119, 38.1518504]}}]}