{"type":"FeatureCollection","features":[{"type": "Feature", "id": "j6oZzsW0A3W2ANdu_wwg3ZOJvcA=", "properties": {"ref": "https://www.greenekinginns.co.uk/hotels/charnwood-arms/", "@spider": "greene_king_inns", "addr:street_address": "Beveridge Lane", "addr:city": "Coalville", "addr:state": "Leicestershire", "addr:postcode": "LE67 1TB", "addr:country": "GB", "name": "Charnwood Arms Hotel", "phone": "01530 813644", "website": "https://www.greenekinginns.co.uk/hotels/charnwood-arms/", "contact:email": "6293@greeneking.co.uk", "image": "https://www.greenekinginns.co.uk/media/2262/charnwood_double_room.jpg", "brand": "Greene King Inns", "brand:wikidata": "Q5564162"}, "geometry": {"type": "Point", "coordinates": [-1.326212, 52.702394]}},
{"type": "Feature", "id": "O4CVxMPtjSBfY9GoMBiUxtZjmIo=", "properties": {"ref": "https://www.greenekinginns.co.uk/hotels/the-channings-hotel/", "@spider": "greene_king_inns", "addr:street_address": "20 Pembroke Road", "addr:city": "Clifton", "addr:state": "Avon", "addr:postcode": "BS8 3BB", "addr:country": "GB", "name": "The Channings Hotel", "phone": "0117 973 3970", "website": "https://www.greenekinginns.co.uk/hotels/the-channings-hotel/", "contact:email": "6901@greeneking.co.uk", "image": "https://www.greenekinginns.co.uk/media/2967/channings_external.jpg", "brand": "Greene King Inns", "brand:wikidata": "Q5564162"}, "geometry": {"type": "Point", "coordinates": [-2.614243, 51.458749]}},
{"type": "Feature", "id": "wTDSg3iIaewpYOKuY6i5VuhDYEE=", "properties": {"ref": "https://www.greenekinginns.co.uk/hotels/cedars-inn/", "@spider": "greene_king_inns", "addr:street_address": "Bickington Road", "addr:city": "Sticklepath", "addr:state": "Devon", "addr:postcode": "EX31 2HE", "addr:country": "GB", "name": "Cedars Lodge Inn Hotel", "phone": "01271 371784", "website": "https://www.greenekinginns.co.uk/hotels/cedars-inn/", "contact:email": "6423@greeneking.co.uk", "image": "https://www.greenekinginns.co.uk/media/2876/cedars_external.jpg", "brand": "Greene King Inns", "brand:wikidata": "Q5564162"}, "geometry": {"type": "Point", "coordinates": [4.085376, 51.073092]}},
{"type": "Feature", "id": "zzBFJ9ndWYJF7Xt9sxKu6oJ7qhA=", "properties": {"ref": "https://www.greenekinginns.co.uk/hotels/castle-hotel-leicester/", "@spider": "greene_king_inns", "addr:street_address": "Main Street", "addr:city": "Kirby Muxloe", "addr:state": "Leicestershire", "addr:postcode": "LE9 2AP", "addr:country": "GB", "name": "Castle Hotel", "phone": "0116 239 5337", "website": "https://www.greenekinginns.co.uk/hotels/castle-hotel-leicester/", "contact:email": "6149@greeneking.co.uk", "image": "https://www.greenekinginns.co.uk/media/2247/castle_hotel_external.jpg", "brand": "Greene King Inns", "brand:wikidata": "Q5564162"}, "geometry": {"type": "Point", "coordinates": [-1.228668, 52.637561]}},
{"type": "Feature", "id": "KGER7Xz8EvEgEXeRvtng-6usYyU=", "properties": {"ref": "https://www.greenekinginns.co.uk/hotels/castle-inn-bakewell/", "@spider": "greene_king_inns", "addr:street_address": "Castle Street", "addr:city": "Bakewell", "addr:state": "Derbyshire", "addr:postcode": "DE45 1DU", "addr:country": "GB", "name": "Castle Inn", "phone": "01629 812103", "website": "https://www.greenekinginns.co.uk/hotels/castle-inn-bakewell/", "contact:email": "7669@greeneking.co.uk", "image": "https://www.greenekinginns.co.uk/media/2873/castle_inn_external.jpg", "brand": "Greene King Inns", "brand:wikidata": "Q5564162"}, "geometry": {"type": "Point", "coordinates": [-1.673644, 53.214317]}},
{"type": "Feature", "id": "k-amQFAjCyiSYWXZRTOPCWb5PVU=", "properties": {"ref": "https://www.greenekinginns.co.uk/hotels/castle-ball-marlborough/", "@spider": "greene_king_inns", "addr:street_address": "High Street", "addr:city": "Marlborough", "addr:state": "Wiltshire", "addr:postcode": "SN8 1LZ", "addr:country": "GB", "name": "Castle & Ball Hotel", "phone": "01672 515201", "website": "https://www.greenekinginns.co.uk/hotels/castle-ball-marlborough/", "contact:email": "6422@greeneking.co.uk", "image": "https://www.greenekinginns.co.uk/media/1256/castle_ball_external.jpg", "brand": "Greene King Inns", "brand:wikidata": "Q5564162"}, "geometry": {"type": "Point", "coordinates": [-1.732024, 51.420285]}},
{"type": "Feature", "id": "yj8w1vNIazXi54gDatHNdtsLuB4=", "properties": {"ref": "https://www.greenekinginns.co.uk/hotels/caledonian-hotel/", "@spider": "greene_king_inns", "addr:street_address": "81 High Street", "addr:city": "Leven", "addr:state": "Fife", "addr:postcode": "KY8 4NG", "addr:country": "GB", "name": "Caledonian Hotel", "phone": "01333 424101", "website": "https://www.greenekinginns.co.uk/hotels/caledonian-hotel/", "contact:email": "3689@greeneking.co.uk", "image": "https://www.greenekinginns.co.uk/media/2729/caledonian_exterior.jpg", "brand": "Greene King Inns", "brand:wikidata": "Q5564162"}, "geometry": {"type": "Point", "coordinates": [-2.996314, 56.195537]}},
{"type": "Feature", "id": "DIVnZhnjlpogUYP7Z3na_d7mTbM=", "properties": {"ref": "https://www.greenekinginns.co.uk/hotels/the-bushel/", "@spider": "greene_king_inns", "addr:street_address": "St Johns Street", "addr:city": "Bury St Edmunds", "addr:state": "Suffolk", "addr:postcode": "IP33 1SN", "addr:country": "GB", "name": "The Bushel", "phone": "01284 754333", "website": "https://www.greenekinginns.co.uk/hotels/the-bushel/", "contact:email": "1061@greeneking.co.uk", "image": "https://www.greenekinginns.co.uk/media/2726/bushel_exterior.jpg", "brand": "Greene King Inns", "brand:wikidata": "Q5564162"}, "geometry": {"type": "Point", "coordinates": [0.712019, 52.248707]}},
{"type": "Feature", "id": "woruSoekDgHJBjdZvYIlhOmmtUU=", "properties": {"ref": "https://www.greenekinginns.co.uk/hotels/bull-hotel-melford/", "@spider": "greene_king_inns", "addr:street_address": "Hall Street", "addr:city": "Long Melford, Sudbury", "addr:state": "Suffolk", "addr:postcode": "CO10 9JG", "addr:country": "GB", "name": "Bull Hotel", "phone": "01787 378494", "website": "https://www.greenekinginns.co.uk/hotels/bull-hotel-melford/", "contact:email": "6420@greeneking.co.uk", "image": "https://www.greenekinginns.co.uk/media/2873/bull_long_melford_exterior.jpg", "brand": "Greene King Inns", "brand:wikidata": "Q5564162"}, "geometry": {"type": "Point", "coordinates": [0.719826, 52.079821]}},
{"type": "Feature", "id": "PJMRSM4GgcsaAC9ZmDbffrTEbdo=", "properties": {"ref": "https://www.greenekinginns.co.uk/hotels/bull-hotel-halstead/", "@spider": "greene_king_inns", "addr:street_address": "Bridge Street", "addr:city": "Halstead", "addr:state": "Essex", "addr:postcode": "CO9 1HU", "addr:country": "GB", "name": "Bull Hotel", "phone": "01787 472144", "website": "https://www.greenekinginns.co.uk/hotels/bull-hotel-halstead/", "contact:email": "6421@greeneking.co.uk", "image": "https://www.greenekinginns.co.uk/media/1978/bull_inn_halstead_exterior.jpg", "brand": "Greene King Inns", "brand:wikidata": "Q5564162"}, "geometry": {"type": "Point", "coordinates": [0.634893, 51.943317]}},
{"type": "Feature", "id": "tMMujUKVedK23DKVLimIooJvx24=", "properties": {"ref": "https://www.greenekinginns.co.uk/hotels/the-broughton/", "@spider": "greene_king_inns", "addr:street_address": "Milton Road", "addr:city": "Milton Keynes", "addr:state": "Buckinghamshire", "addr:postcode": "MK10 9AA", "addr:country": "GB", "name": "The Broughton", "website": "https://www.greenekinginns.co.uk/hotels/the-broughton/", "contact:email": "6418@greeneking.co.uk", "brand": "Greene King Inns", "brand:wikidata": "Q5564162"}, "geometry": {"type": "Point", "coordinates": [-0.69542, 52.05117]}},
{"type": "Feature", "id": "p5i9h0W4P_hQAiZlnkqxSveCFXo=", "properties": {"ref": "https://www.greenekinginns.co.uk/hotels/bridge-inn-bristol/", "@spider": "greene_king_inns", "addr:street_address": "North End Road", "addr:city": "Yatton, Bristol", "addr:state": "Somerset", "addr:postcode": "BS49 4AU", "addr:country": "GB", "name": "The Bridge Inn", "phone": "01934 839100", "website": "https://www.greenekinginns.co.uk/hotels/bridge-inn-bristol/", "contact:email": "1964@greeneking.co.uk", "image": "https://www.greenekinginns.co.uk/media/2637/bridge_external.jpg", "brand": "Greene King Inns", "brand:wikidata": "Q5564162"}, "geometry": {"type": "Point", "coordinates": [-2.840725, 51.400517]}},
{"type": "Feature", "id": "biStxl3VHbzCtxLCtixddPdO1Pw=", "properties": {"ref": "https://www.greenekinginns.co.uk/hotels/the-brentwood-hotel/", "@spider": "greene_king_inns", "addr:street_address": "Moorgate Road", "addr:city": "Rotherham", "addr:state": "South Yorkshire", "addr:postcode": "S60 2TY", "addr:country": "GB", "name": "The Brentwood Hotel", "phone": "01709 382772", "website": "https://www.greenekinginns.co.uk/hotels/the-brentwood-hotel/", "contact:email": "6759@greeneking.co.uk", "image": "https://www.greenekinginns.co.uk/media/2222/brentwood_external.jpg", "brand": "Greene King Inns", "brand:wikidata": "Q5564162"}, "geometry": {"type": "Point", "coordinates": [-1.346901, 53.418074]}},
{"type": "Feature", "id": "kS8pOu4EZ-dU1jRlQsl_ls2uWx4=", "properties": {"ref": "https://www.greenekinginns.co.uk/hotels/the-bowman-hucknall/", "@spider": "greene_king_inns", "addr:street_address": "Nottingham Road", "addr:city": "Hucknall", "addr:state": "Nottinghamshire", "addr:postcode": "NG15 7PY", "addr:country": "GB", "name": "The Bowman, Hucknall", "phone": "01905 235730", "website": "https://www.greenekinginns.co.uk/hotels/the-bowman-hucknall/", "image": "https://www.greenekinginns.co.uk/media/3834/bowman-homepage.jpg", "brand": "Greene King Inns", "brand:wikidata": "Q5564162"}, "geometry": {"type": "Point", "coordinates": [-1.1938, 53.027802]}},
{"type": "Feature", "id": "zIyf5UGymZb1vvpROE9sAEhPTBE=", "properties": {"ref": "https://www.greenekinginns.co.uk/hotels/berkshire-arms-hotel/", "@spider": "greene_king_inns", "addr:street_address": "Bath Road", "addr:city": "Newbury", "addr:state": "Berkshire", "addr:postcode": "RG7 5UX", "addr:country": "GB", "name": "Berkshire Arms Hotel", "phone": "0118 971 4114", "website": "https://www.greenekinginns.co.uk/hotels/berkshire-arms-hotel/", "contact:email": "6115@greeneking.co.uk", "image": "https://www.greenekinginns.co.uk/media/2965/berkshire_arms_external.jpg", "brand": "Greene King Inns", "brand:wikidata": "Q5564162"}, "geometry": {"type": "Point", "coordinates": [-1.213533, 51.3983492]}},
{"type": "Feature", "id": "9GpAvUjjqOVBMRY-x5eZ4zPa_6Q=", "properties": {"ref": "https://www.greenekinginns.co.uk/hotels/the-waverley-hotel/", "@spider": "greene_king_inns", "addr:street_address": "88 - 94 Main Street", "addr:city": "Callander", "addr:postcode": "FK17 8BD", "addr:country": "GB", "name": "The Waverley Hotel", "website": "https://www.greenekinginns.co.uk/hotels/the-waverley-hotel/", "contact:email": "3978@greeneking.co.uk", "image": "https://www.greenekinginns.co.uk/media/2743/governors_house_exterior.jpg", "brand": "Greene King Inns", "brand:wikidata": "Q5564162"}, "geometry": {"type": "Point", "coordinates": [-4.214416, 56.243526]}},
{"type": "Feature", "id": "MsxTQ9BWKrvt1ryQ2c82sK671TU=", "properties": {"ref": "https://www.greenekinginns.co.uk/hotels/ye-olde-talbot/", "@spider": "greene_king_inns", "addr:street_address": "Friar Street", "addr:city": "Worcester", "addr:state": "Worcestershire", "addr:postcode": "WR1 2NA", "addr:country": "GB", "name": "WR1 2NA", "phone": "01905 235730", "website": "https://www.greenekinginns.co.uk/hotels/ye-olde-talbot/", "contact:email": "9250@greeneking.co.uk", "image": "https://www.greenekinginns.co.uk/media/1709/ye_olde_talbot_external.jpg", "brand": "Greene King Inns", "brand:wikidata": "Q5564162"}, "geometry": {"type": "Point", "coordinates": [-2.218826, 52.188949]}},
{"type": "Feature", "id": "rMGw3RopalaRPjLytlOxcSSDHt0=", "properties": {"ref": "https://www.greenekinginns.co.uk/hotels/woolpack/", "@spider": "greene_king_inns", "addr:street_address": "Warminster Road", "addr:city": "Frome", "addr:state": "Somerset", "addr:postcode": "BA11 6SP", "addr:country": "GB", "name": "Woolpack", "phone": "01373 831244", "website": "https://www.greenekinginns.co.uk/hotels/woolpack/", "contact:email": "6534@greeneking.co.uk", "image": "https://www.greenekinginns.co.uk/media/1738/woolpack_external.jpg", "brand": "Greene King Inns", "brand:wikidata": "Q5564162"}, "geometry": {"type": "Point", "coordinates": [-2.286819, 51.265079]}},
{"type": "Feature", "id": "I2CbhvacCzG79GsCX3D-TS4CWaA=", "properties": {"ref": "https://www.greenekinginns.co.uk/hotels/windmill-farm/", "@spider": "greene_king_inns", "addr:street_address": "Whisby Road", "addr:city": "Lincoln", "addr:state": "Lincolnshire", "addr:postcode": "LN6 3QZ", "addr:country": "GB", "name": "Windmill Farm", "phone": "O1522686878", "website": "https://www.greenekinginns.co.uk/hotels/windmill-farm/", "contact:email": "6395@greeneking.co.uk", "image": "https://www.greenekinginns.co.uk/media/2584/windmill_farm_exterrnal.jpg", "brand": "Greene King Inns", "brand:wikidata": "Q5564162"}, "geometry": {"type": "Point", "coordinates": [-0.617697, 53.200822]}},
{"type": "Feature", "id": "iARnBogGYuBCqbMJ2tc7a1kxEII=", "properties": {"ref": "https://www.greenekinginns.co.uk/hotels/the-white-rabbit-hotel/", "@spider": "greene_king_inns", "addr:street_address": "Romsey Road", "addr:city": "Lyndhurst", "addr:state": "Hampshire", "addr:postcode": "SO43 7AR", "addr:country": "GB", "name": "SO43 7AR", "phone": "02380282814", "website": "https://www.greenekinginns.co.uk/hotels/the-white-rabbit-hotel/", "contact:email": "6266@greeneking.co.uk", "image": "https://www.greenekinginns.co.uk/media/2973/white_rabbit_external.jpg", "brand": "Greene King Inns", "brand:wikidata": "Q5564162"}, "geometry": {"type": "Point", "coordinates": [-1.576761, 50.875607]}},
{"type": "Feature", "id": "mI_BAqZJTB1i2QLJGT4eMTDWC7g=", "properties": {"ref": "https://www.greenekinginns.co.uk/hotels/white-horse-hotel-rottingdean/", "@spider": "greene_king_inns", "addr:street_address": "High Street", "addr:city": "Rottingdean", "addr:state": "East Sussex", "addr:postcode": "BN2 7HR", "addr:country": "GB", "name": "White Horse Hotel", "phone": "01273 300301", "website": "https://www.greenekinginns.co.uk/hotels/white-horse-hotel-rottingdean/", "contact:email": "5308@greeneking.co.uk", "image": "https://www.greenekinginns.co.uk/media/1746/white_hart_external.jpg", "brand": "Greene King Inns", "brand:wikidata": "Q5564162"}, "geometry": {"type": "Point", "coordinates": [-0.0596097, 50.8029977]}},
{"type": "Feature", "id": "sQjANWoNsIRG8SSxz4jVPh3udg8=", "properties": {"ref": "https://www.greenekinginns.co.uk/hotels/white-hart-braintree/", "@spider": "greene_king_inns", "addr:street_address": "Bocking End", "addr:city": "Braintree", "addr:state": "Essex", "addr:postcode": "CM7 9AB", "addr:country": "GB", "name": "White Hart", "phone": "01376 321401", "website": "https://www.greenekinginns.co.uk/hotels/white-hart-braintree/", "contact:email": "6530@greeneking.co.uk", "image": "https://www.greenekinginns.co.uk/media/1824/white_hart_braintree_external.jpg", "brand": "Greene King Inns", "brand:wikidata": "Q5564162"}, "geometry": {"type": "Point", "coordinates": [0.551186, 51.879918]}},
{"type": "Feature", "id": "uDS964AJi4N3Y_XaWZG0MPM9LDg=", "properties": {"ref": "https://www.greenekinginns.co.uk/hotels/white-hart-coggeshall/", "@spider": "greene_king_inns", "addr:street_address": "Market End", "addr:city": "Coggeshall", "addr:state": "Essex", "addr:postcode": "CO6 1NH", "addr:country": "GB", "name": "White Hart", "phone": "01376 561654", "website": "https://www.greenekinginns.co.uk/hotels/white-hart-coggeshall/", "contact:email": "6529@greeneking.co.uk", "image": "https://www.greenekinginns.co.uk/media/2753/white_hart_coggleshall_exterior.jpg", "brand": "Greene King Inns", "brand:wikidata": "Q5564162"}, "geometry": {"type": "Point", "coordinates": [0.685569, 51.870936]}},
{"type": "Feature", "id": "ShueuVsuHrdVqRjBiW0pPT7jUyo=", "properties": {"ref": "https://www.greenekinginns.co.uk/hotels/white-hart-hotel/", "@spider": "greene_king_inns", "addr:street_address": "Market Square", "addr:city": "Buckingham", "addr:state": "Buckinghamshire", "addr:postcode": "MK18 1NL", "addr:country": "GB", "name": "White Hart Hotel", "phone": "O1280815151", "website": "https://www.greenekinginns.co.uk/hotels/white-hart-hotel/", "contact:email": "7150@greeneking.co.uk", "image": "https://www.greenekinginns.co.uk/media/2697/white_hart_external.jpg", "brand": "Greene King Inns", "brand:wikidata": "Q5564162"}, "geometry": {"type": "Point", "coordinates": [-0.987618, 51.999764]}},
{"type": "Feature", "id": "wdWVEvt5fv386-rL7Eq0nlp4ge8=", "properties": {"ref": "https://www.greenekinginns.co.uk/hotels/wheatsheaf-hotel-virginia-water/", "@spider": "greene_king_inns", "addr:street_address": "London Road", "addr:city": "Virginia Water", "addr:state": "Surrey", "addr:postcode": "GU25 4QF", "addr:country": "GB", "name": "Wheatsheaf Hotel", "phone": "O1256398282", "website": "https://www.greenekinginns.co.uk/hotels/wheatsheaf-hotel-virginia-water/", "contact:email": "6258@greeneking.co.uk", "image": "https://www.greenekinginns.co.uk/media/2690/wheatsheaf_virginia_water_external.jpg", "brand": "Greene King Inns", "brand:wikidata": "Q5564162"}, "geometry": {"type": "Point", "coordinates": [-0.592546, 51.409095]}},
{"type": "Feature", "id": "vufJRCwhhXDXxv6fZCgLUNxK6JQ=", "properties": {"ref": "https://www.greenekinginns.co.uk/hotels/the-wellow-hotel/", "@spider": "greene_king_inns", "addr:street_address": "Kings Road", "addr:city": "Cleethorpes", "addr:state": "North East Lincolnshire", "addr:postcode": "DN35 0AQ", "addr:country": "GB", "name": "The Wellow Hotel", "phone": "01472 695589", "website": "https://www.greenekinginns.co.uk/hotels/the-wellow-hotel/", "contact:email": "8021@greeneking.co.uk", "image": "https://www.greenekinginns.co.uk/media/3532/the-wellow-hotel-exterior.jpg", "brand": "Greene King Inns", "brand:wikidata": "Q5564162"}, "geometry": {"type": "Point", "coordinates": [-0.015455, 53.547831]}},
{"type": "Feature", "id": "7AiRa1qH6FHN3lgTempfN8bn-H4=", "properties": {"ref": "https://www.greenekinginns.co.uk/hotels/wellington-hotel/", "@spider": "greene_king_inns", "addr:street_address": "Wellington Road", "addr:city": "Aberdeen", "addr:state": "Aberdeenshire", "addr:postcode": "AB12 3GH", "addr:country": "GB", "name": "Wellington Hotel", "phone": "01224 873012", "website": "https://www.greenekinginns.co.uk/hotels/wellington-hotel/", "contact:email": "1657@greeneking.co.uk", "image": "https://www.greenekinginns.co.uk/media/2679/wellington_external.jpg", "brand": "Greene King Inns", "brand:wikidata": "Q5564162"}, "geometry": {"type": "Point", "coordinates": [-2.089767, 57.115725]}},
{"type": "Feature", "id": "aoWkkV6p7g74GIzOoWSeNHhpatY=", "properties": {"ref": "https://www.greenekinginns.co.uk/hotels/wee-waif/", "@spider": "greene_king_inns", "addr:street_address": "Old Bath Road", "addr:city": "Reading", "addr:state": "Berkshire", "addr:postcode": "RG10 9RJ", "addr:country": "GB", "name": "Wee Waif", "phone": "01189 440066", "website": "https://www.greenekinginns.co.uk/hotels/wee-waif/", "contact:email": "5306@greeneking.co.uk", "image": "https://www.greenekinginns.co.uk/media/2751/wee_waif_exterior.jpg", "brand": "Greene King Inns", "brand:wikidata": "Q5564162"}, "geometry": {"type": "Point", "coordinates": [-0.889729, 51.474759]}},
{"type": "Feature", "id": "mCck9Udu2ofQ00B5gRTosDcOm5c=", "properties": {"ref": "https://www.greenekinginns.co.uk/hotels/weathervane/", "@spider": "greene_king_inns", "addr:street_address": "Lysander Road", "addr:city": "Meir Park", "addr:state": "Stoke-on-Trent", "addr:postcode": "ST3 7WA", "addr:country": "GB", "name": "Weathervane", "website": "https://www.greenekinginns.co.uk/hotels/weathervane/", "contact:email": "5305@greeneking.co.uk", "brand": "Greene King Inns", "brand:wikidata": "Q5564162"}, "geometry": {"type": "Point", "coordinates": [-2.09595, 52.96747]}},
{"type": "Feature", "id": "SsiGv1deSSwo8AGPp_XsU4lnkqE=", "properties": {"ref": "https://www.greenekinginns.co.uk/hotels/waterside-hotel/", "@spider": "greene_king_inns", "addr:street_address": "1430 Park Boulevard", "addr:city": "Centre Park", "addr:state": "Warrington", "addr:postcode": "WA1 1PR", "addr:country": "GB", "name": "The Waterside Hotel", "phone": "01925 242692", "website": "https://www.greenekinginns.co.uk/hotels/waterside-hotel/", "contact:email": "4904@greeneking.co.uk", "image": "https://www.greenekinginns.co.uk/media/3549/waterside-exterior-full.jpg", "brand": "Greene King Inns", "brand:wikidata": "Q5564162"}, "geometry": {"type": "Point", "coordinates": [-2.593864, 53.38447]}},
{"type": "Feature", "id": "REKg-oCSAzYAYChf1w6ZBMtO1Ow=", "properties": {"ref": "https://www.greenekinginns.co.uk/hotels/trents-inn/", "@spider": "greene_king_inns", "addr:street_address": "50 South Street", "addr:city": "Chichester", "addr:state": "West Sussex", "addr:postcode": "PO19 1DS", "addr:country": "GB", "name": "Trents Inn", "phone": "01243 773714", "website": "https://www.greenekinginns.co.uk/hotels/trents-inn/", "contact:email": "7734@greeneking.co.uk", "image": "https://www.greenekinginns.co.uk/media/2668/trents_external.jpg", "brand": "Greene King Inns", "brand:wikidata": "Q5564162"}, "geometry": {"type": "Point", "coordinates": [-0.779428, -0.779428]}},
{"type": "Feature", "id": "CFtz5RDWWf2b9RC9nNXiEIB-DoQ=", "properties": {"ref": "https://www.greenekinginns.co.uk/hotels/titan/", "@spider": "greene_king_inns", "addr:street_address": "1710 Great Western Road", "addr:city": "Clydebank", "addr:state": "West Dunbartonshire", "addr:postcode": "G81 2XT", "addr:country": "GB", "name": "Titan", "phone": "01389 891224", "website": "https://www.greenekinginns.co.uk/hotels/titan/", "contact:email": "1782@greeneking.co.uk", "image": "https://www.greenekinginns.co.uk/media/2662/titan_external.jpg", "brand": "Greene King Inns", "brand:wikidata": "Q5564162"}, "geometry": {"type": "Point", "coordinates": [-4.390727, 55.912245]}},
{"type": "Feature", "id": "vKWvr8JGv1oV0-XfYsvmVj0tPEc=", "properties": {"ref": "https://www.greenekinginns.co.uk/hotels/swan-hotel-thaxted/", "@spider": "greene_king_inns", "addr:street_address": "Bull Ring", "addr:city": "Thaxted", "addr:state": "Essex", "addr:postcode": "CM6 2PL", "addr:country": "GB", "name": "Swan Hotel", "phone": "01371 830321", "website": "https://www.greenekinginns.co.uk/hotels/swan-hotel-thaxted/", "contact:email": "6519@greeneking.co.uk", "image": "https://www.greenekinginns.co.uk/media/1887/swan_external.jpg", "brand": "Greene King Inns", "brand:wikidata": "Q5564162"}, "geometry": {"type": "Point", "coordinates": [0.341567, 51.954605]}},
{"type": "Feature", "id": "6ct5lObbAzUi65yjDVmH7eL23pg=", "properties": {"ref": "https://www.greenekinginns.co.uk/hotels/swan-hotel-alton/", "@spider": "greene_king_inns", "addr:street_address": "High Street", "addr:city": "Alton", "addr:state": "Hampshire", "addr:postcode": "GU34 1AT", "addr:country": "GB", "name": "Swan Hotel", "phone": "01420 837777", "website": "https://www.greenekinginns.co.uk/hotels/swan-hotel-alton/", "contact:email": "6518@greeneking.co.uk", "image": "https://www.greenekinginns.co.uk/media/1909/swan_external.jpg", "brand": "Greene King Inns", "brand:wikidata": "Q5564162"}, "geometry": {"type": "Point", "coordinates": [-0.975518, 51.148721]}},
{"type": "Feature", "id": "dGau9zcQ1EegQQl622VZ-RLkG_k=", "properties": {"ref": "https://www.greenekinginns.co.uk/hotels/sun-inn/", "@spider": "greene_king_inns", "addr:street_address": "6 Derby Road", "addr:city": "Eastwood", "addr:state": "Nottinghamshire", "addr:postcode": "NG16 3NT", "addr:country": "GB", "name": "Sun Inn", "phone": "01773 712940", "website": "https://www.greenekinginns.co.uk/hotels/sun-inn/", "contact:email": "4885@greeneking.co.uk", "image": "https://www.greenekinginns.co.uk/media/2839/sun_inn_external.jpg", "brand": "Greene King Inns", "brand:wikidata": "Q5564162"}, "geometry": {"type": "Point", "coordinates": [-1.311005, 53.017764]}},
{"type": "Feature", "id": "4fGelBeLaWGcPjlk207-U81aM84=", "properties": {"ref": "https://www.greenekinginns.co.uk/hotels/sun-hotel/", "@spider": "greene_king_inns", "addr:street_address": "Sun Street", "addr:city": "Hitchin", "addr:state": "Hertfordshire", "addr:postcode": "SG5 1AF", "addr:country": "GB", "name": "Sun Hotel", "phone": "01462 432092", "website": "https://www.greenekinginns.co.uk/hotels/sun-hotel/", "contact:email": "6515@greeneking.co.uk", "image": "https://www.greenekinginns.co.uk/media/1954/the_sun_external.jpg", "brand": "Greene King Inns", "brand:wikidata": "Q5564162"}, "geometry": {"type": "Point", "coordinates": [-0.280678, 51.9466979]}},
{"type": "Feature", "id": "lfoCz1okegvGG6Z4LUJMGh0-zLE=", "properties": {"ref": "https://www.greenekinginns.co.uk/hotels/st-leonards-hotel/", "@spider": "greene_king_inns", "addr:street_address": "185 Ringwood Road", "addr:city": "St Leonards", "addr:state": "Hampshire", "addr:postcode": "BH24 2NP", "addr:country": "GB", "name": "St Leonards Hotel", "phone": "01425 471220", "website": "https://www.greenekinginns.co.uk/hotels/st-leonards-hotel/", "contact:email": "9230@greeneking.co.uk", "image": "https://www.greenekinginns.co.uk/media/1945/st_leonards_external.jpg", "brand": "Greene King Inns", "brand:wikidata": "Q5564162"}, "geometry": {"type": "Point", "coordinates": [-1.838599, 50.828273]}},
{"type": "Feature", "id": "uTHFjrkFIKADPgvrloswvEMaX3Q=", "properties": {"ref": "https://www.greenekinginns.co.uk/hotels/spyglass-kettle/", "@spider": "greene_king_inns", "addr:street_address": "25-27 Stourwood Avenue", "addr:city": "Southbourne", "addr:state": "Dorset", "addr:postcode": "BH6 3PW", "addr:country": "GB", "name": "Spyglass & Kettle", "phone": "O1202424888", "website": "https://www.greenekinginns.co.uk/hotels/spyglass-kettle/", "contact:email": "6944@greeneking.co.uk", "image": "https://www.greenekinginns.co.uk/media/2657/spyglass_kettle_beer_garden.jpg", "brand": "Greene King Inns", "brand:wikidata": "Q5564162"}, "geometry": {"type": "Point", "coordinates": [-1.810792, 50.722008]}},
{"type": "Feature", "id": "in15qzfSllJlsAOzjxhNYOtvaKE=", "properties": {"ref": "https://www.greenekinginns.co.uk/hotels/southern-cross/", "@spider": "greene_king_inns", "addr:street_address": "Langley Road", "addr:city": "Watford", "addr:state": "Hertfordshire", "addr:postcode": "WD17 4PP", "addr:country": "GB", "name": "Southern Cross", "phone": "01923 256033", "website": "https://www.greenekinginns.co.uk/hotels/southern-cross/", "contact:email": "6868@greeneking.co.uk", "image": "https://www.greenekinginns.co.uk/media/3542/the-southern-cross-exterior.jpg", "brand": "Greene King Inns", "brand:wikidata": "Q5564162"}, "geometry": {"type": "Point", "coordinates": [-0.404299, 51.664634]}},
{"type": "Feature", "id": "MDQuR8NA048CBw8Z_pctPCM8Kik=", "properties": {"ref": "https://www.greenekinginns.co.uk/hotels/saracens-head-hotel/", "@spider": "greene_king_inns", "addr:street_address": "219 Watling Street", "addr:city": "Towcester", "addr:state": "Northamptonshire", "addr:postcode": "NN12 6BX", "addr:country": "GB", "name": "Saracens Head Hotel", "phone": "01327 350414", "website": "https://www.greenekinginns.co.uk/hotels/saracens-head-hotel/", "contact:email": "6509@greeneking.co.uk", "image": "https://www.greenekinginns.co.uk/media/1933/saracens_head_external.jpg", "brand": "Greene King Inns", "brand:wikidata": "Q5564162"}, "geometry": {"type": "Point", "coordinates": [-0.990508, 52.133374]}},
{"type": "Feature", "id": "jv0pjTprfsQndZIyR4NMr7KlViw=", "properties": {"ref": "https://www.greenekinginns.co.uk/hotels/ryde-castle-hotel/", "@spider": "greene_king_inns", "addr:street_address": "Esplanade", "addr:city": "Ryde", "addr:state": "Isle Of Wight", "addr:postcode": "PO33 1JA", "addr:country": "GB", "name": "Ryde Castle Hotel", "phone": "01983 563755", "website": "https://www.greenekinginns.co.uk/hotels/ryde-castle-hotel/", "contact:email": "6506@greeneking.co.uk", "image": "https://www.greenekinginns.co.uk/media/1921/ryde_castle_external.jpg", "brand": "Greene King Inns", "brand:wikidata": "Q5564162"}, "geometry": {"type": "Point", "coordinates": [-1.1552115, 50.7311268]}},
{"type": "Feature", "id": "-7Qc80hJvaJczXZJeXb6_oxdLAo=", "properties": {"ref": "https://www.greenekinginns.co.uk/hotels/royal-oak-hotel/", "@spider": "greene_king_inns", "addr:street_address": "High Street", "addr:city": "Bromborough Cross", "addr:state": "The Wirral", "addr:postcode": "CH62 7EZ", "addr:country": "GB", "name": "Royal Oak Hotel", "phone": "0151 3342917", "website": "https://www.greenekinginns.co.uk/hotels/royal-oak-hotel/", "contact:email": "4862@greeneking.co.uk", "image": "https://www.greenekinginns.co.uk/media/3557/royal-oak-exterior2.jpg", "brand": "Greene King Inns", "brand:wikidata": "Q5564162"}, "geometry": {"type": "Point", "coordinates": [-2.593864, 53.38447]}},
{"type": "Feature", "id": "mrTHnuBIskNYInEUBfkiEDyepIY=", "properties": {"ref": "https://www.greenekinginns.co.uk/hotels/royal-hotel-scunthorpe/", "@spider": "greene_king_inns", "addr:street_address": "Doncaster Road", "addr:city": "Scunthorpe", "addr:state": "North Lincolnshire", "addr:postcode": "DN15 7DE", "addr:country": "GB", "name": "Royal Hotel", "phone": "O1724282233", "website": "https://www.greenekinginns.co.uk/hotels/royal-hotel-scunthorpe/", "contact:email": "7038@greeneking.co.uk", "image": "https://www.greenekinginns.co.uk/media/2709/royal_external.jpg", "brand": "Greene King Inns", "brand:wikidata": "Q5564162"}, "geometry": {"type": "Point", "coordinates": [-0.6636935, 53.5910359]}},
{"type": "Feature", "id": "5XJ7RifASbD4lfisvf6-j-P3SX4=", "properties": {"ref": "https://www.greenekinginns.co.uk/hotels/royal-hotel-ross-on-wye/", "@spider": "greene_king_inns", "addr:street_address": "Royal Parade", "addr:city": "Ross-on-Wye", "addr:state": "Herefordshire", "addr:postcode": "HR9 5HZ", "addr:country": "GB", "name": "Royal Hotel", "phone": "01989 565 105", "website": "https://www.greenekinginns.co.uk/hotels/royal-hotel-ross-on-wye/", "contact:email": "6504@greeneking.co.uk", "image": "https://www.greenekinginns.co.uk/media/1991/the_royal_exterior.jpg", "brand": "Greene King Inns", "brand:wikidata": "Q5564162"}, "geometry": {"type": "Point", "coordinates": [-2.5888813, 51.9141484]}},
{"type": "Feature", "id": "xLcBCC2486g7Po2rMLI-vtAv4iY=", "properties": {"ref": "https://www.greenekinginns.co.uk/hotels/royal-george-hotel/", "@spider": "greene_king_inns", "addr:street_address": "Birdlip", "addr:city": "Gloucester", "addr:state": "Gloucestershire", "addr:postcode": "GL4 8JH", "addr:country": "GB", "name": "51.828092", "phone": "01452 862506", "website": "https://www.greenekinginns.co.uk/hotels/royal-george-hotel/", "contact:email": "6503@greeneking.co.uk", "image": "https://www.greenekinginns.co.uk/media/2925/royal_george_external.jpg", "brand": "Greene King Inns", "brand:wikidata": "Q5564162"}, "geometry": {"type": "Point", "coordinates": [-2.109787, 51.828092]}},
{"type": "Feature", "id": "PbN_pmP1xDDH-HCK8LXixKSwYwo=", "properties": {"ref": "https://www.greenekinginns.co.uk/hotels/rothley-court-hotel/", "@spider": "greene_king_inns", "addr:street_address": "Westfield Lane", "addr:city": "Rothley", "addr:state": "Leicestershire", "addr:postcode": "LE7 7LG", "addr:country": "GB", "name": "Rothley Court Hotel", "phone": "01162 374141", "website": "https://www.greenekinginns.co.uk/hotels/rothley-court-hotel/", "contact:email": "6501@greeneking.co.uk", "image": "https://www.greenekinginns.co.uk/media/2922/rothley_court_external.jpg", "brand": "Greene King Inns", "brand:wikidata": "Q5564162"}, "geometry": {"type": "Point", "coordinates": [-1.150021, 52.7054434]}},
{"type": "Feature", "id": "FvsRsFo21wcyXKsT0RhvjWC6LZM=", "properties": {"ref": "https://www.greenekinginns.co.uk/hotels/rose-revived/", "@spider": "greene_king_inns", "addr:street_address": "Newbridge", "addr:city": "Witney", "addr:state": "Oxfordshire", "addr:postcode": "OX29 7QD", "addr:country": "GB", "name": "Rose Revived", "phone": "01865 300221", "website": "https://www.greenekinginns.co.uk/hotels/rose-revived/", "contact:email": "5284@greeneking.co.uk", "image": "https://www.greenekinginns.co.uk/media/2917/rose_revived_external.jpg", "brand": "Greene King Inns", "brand:wikidata": "Q5564162"}, "geometry": {"type": "Point", "coordinates": [-1.4194535, 51.7098977]}},
{"type": "Feature", "id": "VuREuWruNvMvRGHE4BPF6JlrbfE=", "properties": {"ref": "https://www.greenekinginns.co.uk/hotels/roebuck-hotel/", "@spider": "greene_king_inns", "addr:street_address": "Wych Cross", "addr:city": "Forest Row", "addr:state": "East Sussex", "addr:postcode": "RH18 5JL", "addr:country": "GB", "name": "The Roebuck Hotel", "phone": "01342 823811", "website": "https://www.greenekinginns.co.uk/hotels/roebuck-hotel/", "contact:email": "6499@greeneking.co.uk", "image": "https://www.greenekinginns.co.uk/media/2858/roebuck_external.jpg", "brand": "Greene King Inns", "brand:wikidata": "Q5564162"}, "geometry": {"type": "Point", "coordinates": [0.024999, 51.068904]}},
{"type": "Feature", "id": "YkVcFpSnc0d_F4_qskjmgvPzInw=", "properties": {"ref": "https://www.greenekinginns.co.uk/hotels/rockingham-arms-hotel/", "@spider": "greene_king_inns", "addr:street_address": "8 Main Street", "addr:city": "Wentworth", "addr:state": "South Yorkshire", "addr:postcode": "S62 7TL", "addr:country": "GB", "name": "Rockingham Arms Hotel", "phone": "O1226742075", "website": "https://www.greenekinginns.co.uk/hotels/rockingham-arms-hotel/", "contact:email": "6940@greeneking.co.uk", "image": "https://www.greenekinginns.co.uk/media/2576/rockingham_arms_external.jpg", "brand": "Greene King Inns", "brand:wikidata": "Q5564162"}, "geometry": {"type": "Point", "coordinates": [-1.4182223, 53.4780565]}},
{"type": "Feature", "id": "DqfStXXgMCu_mnmfN2mGHUzZbRI=", "properties": {"ref": "https://www.greenekinginns.co.uk/hotels/rising-sun-hotel/", "@spider": "greene_king_inns", "addr:street_address": "Cleeve Hill", "addr:city": "Cheltenham", "addr:state": "Gloucestershire", "addr:postcode": "GL52 3PX", "addr:country": "GB", "name": "Rising Sun Hotel", "phone": "01242 676281", "website": "https://www.greenekinginns.co.uk/hotels/rising-sun-hotel/", "contact:email": "9210@greeneking.co.uk", "image": "https://www.greenekinginns.co.uk/media/1875/rising_sun_external.jpg", "brand": "Greene King Inns", "brand:wikidata": "Q5564162"}, "geometry": {"type": "Point", "coordinates": [-2.0313577, 51.9389753]}},
{"type": "Feature", "id": "MpIdW89lkXZGR40fJDmnY1cmX1Q=", "properties": {"ref": "https://www.greenekinginns.co.uk/hotels/red-lion-fareham/", "@spider": "greene_king_inns", "addr:street_address": "East Street", "addr:city": "Fareham", "addr:state": "Hampshire", "addr:postcode": "PO16 0BP", "addr:country": "GB", "name": "Red Lion (Fareham)", "phone": "01329 822640", "website": "https://www.greenekinginns.co.uk/hotels/red-lion-fareham/", "contact:email": "9200@greeneking.co.uk", "image": "https://www.greenekinginns.co.uk/media/1835/red_lion_fareham_external.jpg", "brand": "Greene King Inns", "brand:wikidata": "Q5564162"}, "geometry": {"type": "Point", "coordinates": [-1.174096, 50.852161]}},
{"type": "Feature", "id": "FAVKn7tidyDn-fab2b4f3TjhuRA=", "properties": {"ref": "https://www.greenekinginns.co.uk/hotels/red-lion-todwick/", "@spider": "greene_king_inns", "addr:street_address": "Sheffield Road", "addr:city": "Todwick", "addr:state": "South Yorkshire", "addr:postcode": "S26 1DJ", "addr:country": "GB", "name": "Red Lion (Sheffield)", "phone": "01909 771654", "website": "https://www.greenekinginns.co.uk/hotels/red-lion-todwick/", "contact:email": "7933@greeneking.co.uk", "image": "https://www.greenekinginns.co.uk/media/1851/red_lion_todwick_external.jpg", "brand": "Greene King Inns", "brand:wikidata": "Q5564162"}, "geometry": {"type": "Point", "coordinates": [-1.256154, 53.359958]}},
{"type": "Feature", "id": "FYCjPAkapMSKCrMkwXQVgSB-XUk=", "properties": {"ref": "https://www.greenekinginns.co.uk/hotels/red-lion-adderbury/", "@spider": "greene_king_inns", "addr:street_address": "The Green", "addr:city": "Adderbury", "addr:state": "Oxfordshire", "addr:postcode": "OX17 3NG", "addr:country": "GB", "name": "Red Lion (Banbury)", "phone": "01295 810269", "website": "https://www.greenekinginns.co.uk/hotels/red-lion-adderbury/", "contact:email": "6496@greeneking.co.uk", "image": "https://www.greenekinginns.co.uk/media/2910/red_lion_adderbury_external.jpg", "brand": "Greene King Inns", "brand:wikidata": "Q5564162"}, "geometry": {"type": "Point", "coordinates": [-1.309789, 52.017507]}},
{"type": "Feature", "id": "z6hbp1A8h7I7ZgemG0pfTp88VdU=", "properties": {"ref": "https://www.greenekinginns.co.uk/hotels/raven-hotel/", "@spider": "greene_king_inns", "addr:street_address": "Station Road", "addr:city": "Hook", "addr:state": "Hampshire", "addr:postcode": "RG27 9HS", "addr:country": "GB", "name": "Raven Hotel", "phone": "01256 762541", "website": "https://www.greenekinginns.co.uk/hotels/raven-hotel/", "contact:email": "9190@greeneking.co.uk", "image": "https://www.greenekinginns.co.uk/media/1778/raven_external.jpg", "brand": "Greene King Inns", "brand:wikidata": "Q5564162"}, "geometry": {"type": "Point", "coordinates": [-0.961962, 51.280994]}},
{"type": "Feature", "id": "-6OTU0e45NOK-yJsAqWvgSSzCDM=", "properties": {"ref": "https://www.greenekinginns.co.uk/hotels/pen-parchment/", "@spider": "greene_king_inns", "addr:street_address": "Bridgefoot", "addr:city": "Stratford-Upon-Avon", "addr:state": "Warwickshire", "addr:postcode": "CV37 6YY", "addr:country": "GB", "name": "Pen & Parchment", "phone": "01789 297697", "website": "https://www.greenekinginns.co.uk/hotels/pen-parchment/", "contact:email": "7892@greeneking.co.uk", "image": "https://www.greenekinginns.co.uk/media/1578/pen_parchment_external.jpg", "brand": "Greene King Inns", "brand:wikidata": "Q5564162"}, "geometry": {"type": "Point", "coordinates": [-1.702915, 52.192891]}},
{"type": "Feature", "id": "eTupsdYChGCAYIys8vmgmG1TKqk=", "properties": {"ref": "https://www.greenekinginns.co.uk/hotels/old-manse-hotel/", "@spider": "greene_king_inns", "addr:street_address": "Victoria Street", "addr:city": "Cheltenham", "addr:state": "Gloucestershire", "addr:postcode": "GL54 2BX", "addr:country": "GB", "name": "Old Manse Hotel", "phone": "01451 820082", "website": "https://www.greenekinginns.co.uk/hotels/old-manse-hotel/", "contact:email": "6488@greeneking.co.uk", "image": "https://www.greenekinginns.co.uk/media/2911/old_manse_external.jpg", "brand": "Greene King Inns", "brand:wikidata": "Q5564162"}, "geometry": {"type": "Point", "coordinates": [-1.7608613, 51.8844162]}},
{"type": "Feature", "id": "rwrWNWNh1q1wy9cdFA5sXlFiiFY=", "properties": {"ref": "https://www.greenekinginns.co.uk/hotels/old-grey-mare/", "@spider": "greene_king_inns", "addr:street_address": "193 Cottinham Road", "addr:city": "Hull", "addr:state": "East Riding Yorkshire", "addr:postcode": "HU5 2EG", "addr:country": "GB", "name": "Old Grey Mare", "phone": "O1482448193", "website": "https://www.greenekinginns.co.uk/hotels/old-grey-mare/", "contact:email": "6832@greeneking.co.uk", "image": "https://www.greenekinginns.co.uk/media/2542/old_grey_mare_external.jpg", "brand": "Greene King Inns", "brand:wikidata": "Q5564162"}, "geometry": {"type": "Point", "coordinates": [-0.3705167, 53.7688216]}},
{"type": "Feature", "id": "QPHwd0YpxXhKARFpP_u67z0vW5E=", "properties": {"ref": "https://www.greenekinginns.co.uk/hotels/old-ferry-boat/", "@spider": "greene_king_inns", "addr:street_address": "Holywell", "addr:city": "St Ives", "addr:state": "Cambridgeshire", "addr:postcode": "PE27 4TG", "addr:country": "GB", "name": "Old Ferry Boat", "phone": "01480 463227", "website": "https://www.greenekinginns.co.uk/hotels/old-ferry-boat/", "contact:email": "8638@greeneking.co.uk", "image": "https://www.greenekinginns.co.uk/media/1530/old_ferry_boat_external.jpg", "brand": "Greene King Inns", "brand:wikidata": "Q5564162"}, "geometry": {"type": "Point", "coordinates": [-0.031855, 52.317284]}},
{"type": "Feature", "id": "BHjPBUwYnaXUiqoc6ieZsgGl_uE=", "properties": {"ref": "https://www.greenekinginns.co.uk/hotels/oaklands/", "@spider": "greene_king_inns", "addr:street_address": "93 Hoole Road", "addr:city": "Chester", "addr:state": "Cheshire", "addr:postcode": "CH2 3NB", "addr:country": "GB", "name": "Oaklands", "phone": "01244 345528", "website": "https://www.greenekinginns.co.uk/hotels/oaklands/", "contact:email": "7878@greeneking.co.uk", "image": "https://www.greenekinginns.co.uk/media/3519/oaklands-exterior.jpg", "brand": "Greene King Inns", "brand:wikidata": "Q5564162"}, "geometry": {"type": "Point", "coordinates": [-2.8714197, 53.2014771]}},
{"type": "Feature", "id": "Z28NnpSV36jT_p5-dxaLuWHRAj4=", "properties": {"ref": "https://www.greenekinginns.co.uk/hotels/new-inn-hotel/", "@spider": "greene_king_inns", "addr:street_address": "Chepstow Road", "addr:city": "Langstone", "addr:state": "Gwent", "addr:postcode": "NP18 2JN", "addr:country": "GB", "name": "New Inn Hotel", "phone": "O1633412426", "website": "https://www.greenekinginns.co.uk/hotels/new-inn-hotel/", "contact:email": "6370@greeneking.co.uk", "image": "https://www.greenekinginns.co.uk/media/2532/new_inn_external.jpg", "brand": "Greene King Inns", "brand:wikidata": "Q5564162"}, "geometry": {"type": "Point", "coordinates": [-2.896206, 51.607846]}},
{"type": "Feature", "id": "oiOoQV9z9AEQZwYV322WIGaRl2Y=", "properties": {"ref": "https://www.greenekinginns.co.uk/hotels/narborough-arms/", "@spider": "greene_king_inns", "addr:street_address": "6 Coventry Rd", "addr:city": "Narborough", "addr:state": "Leicester", "addr:postcode": "LE19 2GR", "addr:country": "GB", "name": "Narborough Arms", "phone": "01162 848212", "website": "https://www.greenekinginns.co.uk/hotels/narborough-arms/", "contact:email": "6824@greeneking.co.uk", "image": "https://www.greenekinginns.co.uk/media/3503/narborough-exterior.jpg", "brand": "Greene King Inns", "brand:wikidata": "Q5564162"}, "geometry": {"type": "Point", "coordinates": [-1.20559, 52.57184]}},
{"type": "Feature", "id": "wLxLIuAuQkz2wWV54BGdO8vRCEA=", "properties": {"ref": "https://www.greenekinginns.co.uk/hotels/mount-hotel/", "@spider": "greene_king_inns", "addr:street_address": "Orrell Road", "addr:city": "Orrell", "addr:state": "Wigan", "addr:postcode": "WN5 8HQ", "addr:country": "GB", "name": "The Mount Hotel", "phone": "01942 211516", "website": "https://www.greenekinginns.co.uk/hotels/mount-hotel/", "contact:email": "4891@greeneking.co.uk", "image": "https://www.greenekinginns.co.uk/media/3565/lea-gate-exterior.jpg", "brand": "Greene King Inns", "brand:wikidata": "Q5564162"}, "geometry": {"type": "Point", "coordinates": [-2.698204, 53.539699]}},
{"type": "Feature", "id": "mIEOMpnYZ5mEHbCkBt3P496jlqw=", "properties": {"ref": "https://www.greenekinginns.co.uk/hotels/millers-hotel/", "@spider": "greene_king_inns", "addr:street_address": "Twycross Road", "addr:city": "Sibson", "addr:state": "Warwickshire", "addr:postcode": "CV13 6LB", "addr:country": "GB", "name": "Millers Hotel", "phone": "01827 880 223", "website": "https://www.greenekinginns.co.uk/hotels/millers-hotel/", "contact:email": "6483@greeneking.co.uk", "image": "https://www.greenekinginns.co.uk/media/1493/millers_external.jpg", "brand": "Greene King Inns", "brand:wikidata": "Q5564162"}, "geometry": {"type": "Point", "coordinates": [-1.476542, 52.602242]}},
{"type": "Feature", "id": "OudxSFdIB9b90yV794gJXCziKjI=", "properties": {"ref": "https://www.greenekinginns.co.uk/hotels/mill-on-the-soar/", "@spider": "greene_king_inns", "addr:street_address": "Coventry Road", "addr:city": "Broughton Astley", "addr:state": "Leicestershire", "addr:postcode": "LE9 6QA", "addr:country": "GB", "name": "The Mill on the Soar Hotel", "phone": "01455 282419", "website": "https://www.greenekinginns.co.uk/hotels/mill-on-the-soar/", "contact:email": "1968@greeneking.co.uk", "image": "https://www.greenekinginns.co.uk/media/2653/mill_on_sour_external.jpg", "brand": "Greene King Inns", "brand:wikidata": "Q5564162"}, "geometry": {"type": "Point", "coordinates": [-1.250463, 52.539143]}},
{"type": "Feature", "id": "rNOW0B9nnzimobMh0uYuQnAob7U=", "properties": {"ref": "https://www.greenekinginns.co.uk/hotels/manor-hotel/", "@spider": "greene_king_inns", "addr:street_address": "26 Hendford", "addr:city": "Yeovil", "addr:state": "Somerset", "addr:postcode": "BA20 1TG", "addr:country": "GB", "name": "Manor Hotel", "phone": "01935 423116", "website": "https://www.greenekinginns.co.uk/hotels/manor-hotel/", "contact:email": "6480@greeneking.co.uk", "image": "https://www.greenekinginns.co.uk/media/2909/the_manor_external.jpg", "brand": "Greene King Inns", "brand:wikidata": "Q5564162"}, "geometry": {"type": "Point", "coordinates": [-2.635582, 50.940335]}},
{"type": "Feature", "id": "h_cv7ZCevS5G1U4ULAOd8Dvie1E=", "properties": {"ref": "https://www.greenekinginns.co.uk/hotels/longshoot/", "@spider": "greene_king_inns", "addr:street_address": "Watling Street", "addr:city": "Nuneaton", "addr:state": "Warwickshire", "addr:postcode": "CV11 6JH", "addr:country": "GB", "name": "The Longshoot", "phone": "02476 329711", "website": "https://www.greenekinginns.co.uk/hotels/longshoot/", "contact:email": "6351@greeneking.co.uk", "image": "https://www.greenekinginns.co.uk/media/2970/longshoot_external.jpg", "brand": "Greene King Inns", "brand:wikidata": "Q5564162"}, "geometry": {"type": "Point", "coordinates": [-1.420197, 52.536547]}},
{"type": "Feature", "id": "TnVzeBLtXf_kYKgkBT2RWDjRHBQ=", "properties": {"ref": "https://www.greenekinginns.co.uk/hotels/longship-hotel/", "@spider": "greene_king_inns", "addr:street_address": "Ushaw Road", "addr:city": "Hebburn", "addr:state": "Newcastle upon Tyne", "addr:postcode": "NE31 2YA", "addr:country": "GB", "name": "The Longship Hotel", "phone": "01914 837091", "website": "https://www.greenekinginns.co.uk/hotels/longship-hotel/", "contact:email": "6993@greeneking.co.uk", "image": "https://www.greenekinginns.co.uk/media/3510/longship-1.jpg", "brand": "Greene King Inns", "brand:wikidata": "Q5564162"}, "geometry": {"type": "Point", "coordinates": [1.50539, 54.97391]}},
{"type": "Feature", "id": "b-sA61su12jXaUnb3-nrce6XHAE=", "properties": {"ref": "https://www.greenekinginns.co.uk/hotels/lea-gate/", "@spider": "greene_king_inns", "addr:street_address": "Blackpool Road", "addr:city": "Lea", "addr:state": "Preston", "addr:postcode": "PR4 OXB", "addr:country": "GB", "name": "Lea Gate", "phone": "01772 720476", "website": "https://www.greenekinginns.co.uk/hotels/lea-gate/", "contact:email": "4750@greeneking.co.uk", "image": "https://www.greenekinginns.co.uk/media/3565/lea-gate-exterior.jpg", "brand": "Greene King Inns", "brand:wikidata": "Q5564162"}, "geometry": {"type": "Point", "coordinates": [-2.792678, 53.761768]}},
{"type": "Feature", "id": "OBh5QhpMY2p4jTye-Nwz8Ft5UoY=", "properties": {"ref": "https://www.greenekinginns.co.uk/hotels/lamb-hotel/", "@spider": "greene_king_inns", "addr:street_address": "2 Lynn Road", "addr:city": "Ely", "addr:state": "Cambridgeshire", "addr:postcode": "CB7 4EJ", "addr:country": "GB", "name": "Lamb Hotel", "phone": "01353 663574", "website": "https://www.greenekinginns.co.uk/hotels/lamb-hotel/", "contact:email": "6476@greeneking.co.uk", "image": "https://www.greenekinginns.co.uk/media/1506/lamb_external.jpg", "brand": "Greene King Inns", "brand:wikidata": "Q5564162"}, "geometry": {"type": "Point", "coordinates": [0.262648, 52.399692]}},
{"type": "Feature", "id": "4r_WbxuZvfmuul0P9rxfnELGVyw=", "properties": {"ref": "https://www.greenekinginns.co.uk/hotels/the-kingstown-hotel/", "@spider": "greene_king_inns", "addr:street_address": "Hull Road", "addr:city": "Hedon", "addr:state": "East Riding Yorkshire", "addr:postcode": "HU12 8DJ", "addr:country": "GB", "name": "The Kingstown Hotel", "website": "https://www.greenekinginns.co.uk/hotels/the-kingstown-hotel/", "contact:email": "6346@greeneking.co.uk", "image": "https://www.greenekinginns.co.uk/media/2972/kingstown_external.jpg", "brand": "Greene King Inns", "brand:wikidata": "Q5564162"}, "geometry": {"type": "Point", "coordinates": [-0.217356, 53.741388]}},
{"type": "Feature", "id": "T_VYKmhbd5CzkqeY3u0OZniNeOI=", "properties": {"ref": "https://www.greenekinginns.co.uk/hotels/kings-head-wimborne/", "@spider": "greene_king_inns", "addr:street_address": "The Square", "addr:city": "Wimborne", "addr:state": "Dorset", "addr:postcode": "BH21 1JG", "addr:country": "GB", "name": "Kings Head (Wimborne)", "phone": "01202 880101", "website": "https://www.greenekinginns.co.uk/hotels/kings-head-wimborne/", "contact:email": "6474@greeneking.co.uk", "image": "https://www.greenekinginns.co.uk/media/1458/kings_head_external.jpg", "brand": "Greene King Inns", "brand:wikidata": "Q5564162"}, "geometry": {"type": "Point", "coordinates": [-1.988379, 50.800165]}},
{"type": "Feature", "id": "B1wvmMqEArmi0nJm271GBElkAVs=", "properties": {"ref": "https://www.greenekinginns.co.uk/hotels/kings-head-hotel/", "@spider": "greene_king_inns", "addr:street_address": "Station Road", "addr:city": "Hoveton", "addr:state": "Norwich", "addr:postcode": "NR12 8UR", "addr:country": "GB", "name": "Kings Head Hotel", "phone": "O1603782429", "website": "https://www.greenekinginns.co.uk/hotels/kings-head-hotel/", "contact:email": "6924", "image": "https://www.greenekinginns.co.uk/media/2650/kings_head_external.jpg", "brand": "Greene King Inns", "brand:wikidata": "Q5564162"}, "geometry": {"type": "Point", "coordinates": [1.409435, 52.712437]}},
{"type": "Feature", "id": "6BzQRkouAWvIsYV_DmlzmtzKj_c=", "properties": {"ref": "https://www.greenekinginns.co.uk/hotels/kings-head-hotel-masham/", "@spider": "greene_king_inns", "addr:street_address": "Market Place", "addr:city": "Masham", "addr:state": "Ripon", "addr:postcode": "HG4 4EF", "addr:country": "GB", "name": "Kings Head Hotel", "phone": "01765 689295", "website": "https://www.greenekinginns.co.uk/hotels/kings-head-hotel-masham/", "contact:email": "6208@greeneking.co.uk", "image": "https://www.greenekinginns.co.uk/media/2606/george_huntingdon_oei_11-03-15-23.jpg", "brand": "Greene King Inns", "brand:wikidata": "Q5564162"}, "geometry": {"type": "Point", "coordinates": [-1.655846, 54.221314]}},
{"type": "Feature", "id": "jOgR8cniPzQ06mkEHXCw4Ym9F90=", "properties": {"ref": "https://www.greenekinginns.co.uk/hotels/kings-arms/", "@spider": "greene_king_inns", "addr:street_address": "Market Square", "addr:city": "Westerham", "addr:state": "Kent", "addr:postcode": "TN16 1AN", "addr:country": "GB", "name": "Kings Arms", "phone": "01959 562990", "website": "https://www.greenekinginns.co.uk/hotels/kings-arms/", "contact:email": "6471@greeneking.co.uk", "image": "https://www.greenekinginns.co.uk/media/1473/kings_arms_external.jpg", "brand": "Greene King Inns", "brand:wikidata": "Q5564162"}, "geometry": {"type": "Point", "coordinates": [0.071259, 51.267026]}},
{"type": "Feature", "id": "9ta4iF8QcHyUmYMOxdC0gMzLlhY=", "properties": {"ref": "https://www.greenekinginns.co.uk/hotels/hunters-hall-hotel/", "@spider": "greene_king_inns", "addr:street_address": "Kingscote", "addr:city": "Tetbury", "addr:state": "Gloucestershire", "addr:postcode": "GL8 8XZ", "addr:country": "GB", "name": "Hunters Hall Hotel", "phone": "01453 860393", "website": "https://www.greenekinginns.co.uk/hotels/hunters-hall-hotel/", "contact:email": "6468@greeneking.co.uk", "image": "https://www.greenekinginns.co.uk/media/1446/hunters_hall_external.jpg", "brand": "Greene King Inns", "brand:wikidata": "Q5564162"}, "geometry": {"type": "Point", "coordinates": [-2.270498, 51.662691]}},
{"type": "Feature", "id": "aMQgjfBtAwvcUV93Bsic4zgeQuI=", "properties": {"ref": "https://www.greenekinginns.co.uk/hotels/holmfield-arms/", "@spider": "greene_king_inns", "addr:street_address": "Denby Dale Road", "addr:city": "Wakefield", "addr:state": "West Yorkshire", "addr:postcode": "WF2 8DY", "addr:country": "GB", "name": "Holmfield Arms", "phone": "01924 367901", "website": "https://www.greenekinginns.co.uk/hotels/holmfield-arms/", "contact:email": "4862@greeneking.co.uk", "image": "https://www.greenekinginns.co.uk/media/3571/holmfield-arms-outdoor-seating2.jpg", "brand": "Greene King Inns", "brand:wikidata": "Q5564162"}, "geometry": {"type": "Point", "coordinates": [-1.506274, 53.671569]}},
{"type": "Feature", "id": "XeeBnYHIsEq0bwDvKIuo7Lx6Zmc=", "properties": {"ref": "https://www.greenekinginns.co.uk/hotels/himley-house-hotel/", "@spider": "greene_king_inns", "addr:street_address": "Wolverhampton Road", "addr:city": "Himley", "addr:state": "West Midlands", "addr:postcode": "DY3 4LD", "addr:country": "GB", "name": "Himley House Hotel", "phone": "01902 892468", "website": "https://www.greenekinginns.co.uk/hotels/himley-house-hotel/", "contact:email": "6199@greeneking.co.uk", "image": "https://www.greenekinginns.co.uk/media/2515/himley_external.jpg", "brand": "Greene King Inns", "brand:wikidata": "Q5564162"}, "geometry": {"type": "Point", "coordinates": [-2.1776317, 52.5195842]}},
{"type": "Feature", "id": "u-cz7sG2MlHJgpQU-EN6zzGJVqo=", "properties": {"ref": "https://www.greenekinginns.co.uk/hotels/highfield/", "@spider": "greene_king_inns", "addr:street_address": "Marton Road", "addr:city": "Middlesbrough", "addr:state": "North Yorkshire", "addr:postcode": "TS4 2PA", "addr:country": "GB", "name": "Highfield", "phone": "01642 811960", "website": "https://www.greenekinginns.co.uk/hotels/highfield/", "contact:email": "1729@greeneking.co.uk", "image": "https://www.greenekinginns.co.uk/media/2594/highfield_external.jpg", "brand": "Greene King Inns", "brand:wikidata": "Q5564162"}, "geometry": {"type": "Point", "coordinates": [-1.224499, 54.561569]}},
{"type": "Feature", "id": "Da2cnh0BKbpjpqXinbm8F_Zr6dI=", "properties": {"ref": "https://www.greenekinginns.co.uk/hotels/hartwood-hall-hotel/", "@spider": "greene_king_inns", "addr:street_address": "Preston Road", "addr:city": "Chorley", "addr:state": "Lancashire", "addr:postcode": "PR6 7AX", "addr:country": "GB", "name": "Hartwood Hall Hotel", "phone": "01257 269966", "website": "https://www.greenekinginns.co.uk/hotels/hartwood-hall-hotel/", "contact:email": "6333@greeneking.co.uk", "image": "https://www.greenekinginns.co.uk/media/2502/hartwood_beer_garden.jpg", "brand": "Greene King Inns", "brand:wikidata": "Q5564162"}, "geometry": {"type": "Point", "coordinates": [-2.632872, 53.667975]}},
{"type": "Feature", "id": "MrFoDOWpr3O9E0Z1-tYZZBydoUU=", "properties": {"ref": "https://www.greenekinginns.co.uk/hotels/hampton-hotel/", "@spider": "greene_king_inns", "addr:street_address": "14 Corstorphine Road", "addr:city": "Edinburgh", "addr:state": "Midlothian", "addr:postcode": "EH12 6HN", "addr:country": "GB", "name": "Hampton Hotel", "phone": "0131 337 1130", "website": "https://www.greenekinginns.co.uk/hotels/hampton-hotel/", "contact:email": "3755@greeneking.co.uk", "image": "https://www.greenekinginns.co.uk/media/2746/hampton_hotel_exterior.jpg", "brand": "Greene King Inns", "brand:wikidata": "Q5564162"}, "geometry": {"type": "Point", "coordinates": [-3.2450567, 55.94546]}},
{"type": "Feature", "id": "CA-F2BNGekq4YQW6Mcae1rAd77E=", "properties": {"ref": "https://www.greenekinginns.co.uk/hotels/greyfriars-hotel/", "@spider": "greene_king_inns", "addr:street_address": "129 North Street", "addr:city": "St Andrews", "addr:state": "Fife", "addr:postcode": "KY16 9AG", "addr:country": "GB", "name": "Greyfriars Hotel", "phone": "01334 474906", "website": "https://www.greenekinginns.co.uk/hotels/greyfriars-hotel/", "contact:email": "1794@greeneking.co.uk", "image": "https://www.greenekinginns.co.uk/media/2494/greyfriars_external.jpg", "brand": "Greene King Inns", "brand:wikidata": "Q5564162"}, "geometry": {"type": "Point", "coordinates": [-2.798982, 56.341879]}},
{"type": "Feature", "id": "DVk8PZTsP0CIdoQPVwffzjB7fcM=", "properties": {"ref": "https://www.greenekinginns.co.uk/hotels/the-green-man-hotel/", "@spider": "greene_king_inns", "addr:street_address": "Mullberry Green", "addr:city": "Harlow", "addr:state": "Essex", "addr:postcode": "CM17 0ET", "addr:country": "GB", "name": "The Green Man Hotel", "phone": "01279 442521", "website": "https://www.greenekinginns.co.uk/hotels/the-green-man-hotel/", "contact:email": "6189@greeneking.co.uk", "image": "https://www.greenekinginns.co.uk/media/2482/green_man_external.jpg", "brand": "Greene King Inns", "brand:wikidata": "Q5564162"}, "geometry": {"type": "Point", "coordinates": [0.140019, 51.783137]}},
{"type": "Feature", "id": "vHerAqW8MOG4gpv_gyc_DILvm88=", "properties": {"ref": "https://www.greenekinginns.co.uk/hotels/governors-house/", "@spider": "greene_king_inns", "addr:street_address": "43 Ravenoak Road", "addr:city": "Cheadle", "addr:state": "Cheshire", "addr:postcode": "SK8 7EQ", "addr:country": "GB", "name": "Governors House", "phone": "0161 4884222", "website": "https://www.greenekinginns.co.uk/hotels/governors-house/", "contact:email": "4718@greeneking.co.uk", "image": "https://www.greenekinginns.co.uk/media/2743/governors_house_exterior.jpg", "brand": "Greene King Inns", "brand:wikidata": "Q5564162"}, "geometry": {"type": "Point", "coordinates": [-2.183683, 53.367739]}},
{"type": "Feature", "id": "Eah9GJ6ZQi3STp-lKTDgdq9cL7M=", "properties": {"ref": "https://www.greenekinginns.co.uk/hotels/the-george-dragon-hotel/", "@spider": "greene_king_inns", "addr:street_address": "1 Liverpool Road", "addr:city": "Chester", "addr:state": "Cheshire", "addr:postcode": "CH2 1AA", "addr:country": "GB", "name": "George & Dragon", "phone": "01244 380714", "website": "https://www.greenekinginns.co.uk/hotels/the-george-dragon-hotel/", "contact:email": "7783@greeneking.co.uk", "image": "https://www.greenekinginns.co.uk/media/3520/george-dragon-chester-exterior.jpg", "brand": "Greene King Inns", "brand:wikidata": "Q5564162"}, "geometry": {"type": "Point", "coordinates": [-2.8945406, 53.1968741]}},
{"type": "Feature", "id": "ysjoUpOKdwfm0CJZI2r7pDP3NvY=", "properties": {"ref": "https://www.greenekinginns.co.uk/hotels/george-hotel/", "@spider": "greene_king_inns", "addr:street_address": "George Street", "addr:city": "Huntingdon", "addr:state": "Cambridgeshire", "addr:postcode": "PE29 3AB", "addr:country": "GB", "name": "George Hotel", "phone": "01480 432444", "website": "https://www.greenekinginns.co.uk/hotels/george-hotel/", "contact:email": "6457@greeneking.co.uk", "image": "https://www.greenekinginns.co.uk/media/2901/george_external.jpg", "brand": "Greene King Inns", "brand:wikidata": "Q5564162"}, "geometry": {"type": "Point", "coordinates": [-0.1876914, 52.3309327]}},
{"type": "Feature", "id": "PuO0ObwLOEIYua-kknHWXF5Z810=", "properties": {"ref": "https://www.greenekinginns.co.uk/hotels/fox-inn/", "@spider": "greene_king_inns", "addr:street_address": "1 Eastgate Street", "addr:city": "Bury St Edmunds", "addr:state": "Suffolk", "addr:postcode": "IP33 1XX", "addr:country": "GB", "name": "Fox Inn", "phone": "01284 705562", "website": "https://www.greenekinginns.co.uk/hotels/fox-inn/", "contact:email": "1071@greeneking.co.uk", "image": "https://www.greenekinginns.co.uk/media/1422/fox_external.jpg", "brand": "Greene King Inns", "brand:wikidata": "Q5564162"}, "geometry": {"type": "Point", "coordinates": [0.720006, 52.246381]}},
{"type": "Feature", "id": "WAyTn65CvTgaGHRM8r0A3LfnKaM=", "properties": {"ref": "https://www.greenekinginns.co.uk/hotels/fountain-inn/", "@spider": "greene_king_inns", "addr:street_address": "High Street", "addr:city": "Cowes", "addr:state": "Isle of Wight", "addr:postcode": "PO31 7AW", "addr:country": "GB", "name": "Fountain Inn", "phone": "01983 292397", "website": "https://www.greenekinginns.co.uk/hotels/fountain-inn/", "contact:email": "6774@greeneking.co.uk", "image": "https://www.greenekinginns.co.uk/media/1410/fountain_external.jpg", "brand": "Greene King Inns", "brand:wikidata": "Q5564162"}, "geometry": {"type": "Point", "coordinates": [-1.297751, 50.762447]}},
{"type": "Feature", "id": "SNmOgm7oukl0VJyVArkDFj_VrzY=", "properties": {"ref": "https://www.greenekinginns.co.uk/hotels/fishermans-tavern/", "@spider": "greene_king_inns", "addr:street_address": "10 - 16 Fort Street", "addr:city": "Dundee", "addr:state": "Angus", "addr:postcode": "DD5 2AD", "addr:country": "GB", "name": "Fisherman's Tavern", "phone": "01382 775941", "website": "https://www.greenekinginns.co.uk/hotels/fishermans-tavern/", "contact:email": "3994@greeneking.co.uk", "image": "https://www.greenekinginns.co.uk/media/2467/fishermans_rest_external.jpg", "brand": "Greene King Inns", "brand:wikidata": "Q5564162"}, "geometry": {"type": "Point", "coordinates": [-2.8792977, 56.4652009]}},
{"type": "Feature", "id": "Cqw-hixRn5U42TT0CPgQnj0I1cg=", "properties": {"ref": "https://www.greenekinginns.co.uk/hotels/fieldhead-hotel/", "@spider": "greene_king_inns", "addr:street_address": "Markfield Lane", "addr:city": "Markfield", "addr:state": "Leicestershire", "addr:postcode": "LE67 9PS", "addr:country": "GB", "name": "Fieldhead Hotel", "phone": "01530 245454", "website": "https://www.greenekinginns.co.uk/hotels/fieldhead-hotel/", "contact:email": "9160@greeneking.co.uk", "image": "https://www.greenekinginns.co.uk/media/2895/fieldhead_external.jpg", "brand": "Greene King Inns", "brand:wikidata": "Q5564162"}, "geometry": {"type": "Point", "coordinates": [-1.265772, 52.686525]}},
{"type": "Feature", "id": "W00jqUwf6jN_Ih_uYAYnlD1W8jk=", "properties": {"ref": "https://www.greenekinginns.co.uk/hotels/fernhurst-lodge/", "@spider": "greene_king_inns", "addr:street_address": "466 Bolton Road", "addr:city": "Blackburn", "addr:state": "Lancashire", "addr:postcode": "BB2 4JP", "addr:country": "GB", "name": "The Fernhurst", "phone": "01254 693541", "website": "https://www.greenekinginns.co.uk/hotels/fernhurst-lodge/", "contact:email": "1730@greeneking.co.uk", "image": "https://www.greenekinginns.co.uk/media/2457/fernhurst_external.jpg", "brand": "Greene King Inns", "brand:wikidata": "Q5564162"}, "geometry": {"type": "Point", "coordinates": [-2.488636, 53.725499]}},
{"type": "Feature", "id": "nM7TDjrkfmcMTiA4vlA-SXAT7rk=", "properties": {"ref": "https://www.greenekinginns.co.uk/hotels/feathers-inn/", "@spider": "greene_king_inns", "addr:street_address": "49 Cambridge Road", "addr:city": "Ware", "addr:state": "Hertfordshire", "addr:postcode": "SG12 0TN", "addr:country": "GB", "name": "Feathers Inn", "phone": "01920 462606", "website": "https://www.greenekinginns.co.uk/hotels/feathers-inn/", "contact:email": "7766@greeneking.co.uk", "image": "https://www.greenekinginns.co.uk/media/2892/feathers_external.jpg", "brand": "Greene King Inns", "brand:wikidata": "Q5564162"}, "geometry": {"type": "Point", "coordinates": [-0.027803, 51.840269]}},
{"type": "Feature", "id": "xZ7ENh93wc-gTGlAxxwhoIs_luU=", "properties": {"ref": "https://www.greenekinginns.co.uk/hotels/farmhouse-innlodge/", "@spider": "greene_king_inns", "addr:street_address": "Burrfields Road", "addr:city": "Portsmouth", "addr:state": "Hampshire", "addr:postcode": "PO3 5HH", "addr:country": "GB", "name": "Farmhouse & Innlodge", "phone": "02392 650510", "website": "https://www.greenekinginns.co.uk/hotels/farmhouse-innlodge/", "contact:email": "1965@greeneking.co.uk", "image": "https://www.greenekinginns.co.uk/media/2641/farmhouse_external.jpg", "brand": "Greene King Inns", "brand:wikidata": "Q5564162"}, "geometry": {"type": "Point", "coordinates": [-1.045921, 50.814898]}},
{"type": "Feature", "id": "jbq6dCpqF19COvTj0bbD5H9JgzY=", "properties": {"ref": "https://www.greenekinginns.co.uk/hotels/ely/", "@spider": "greene_king_inns", "addr:street_address": "London Road", "addr:city": "Camberley", "addr:state": "Hampshire", "addr:postcode": "GU17 9LJ", "addr:country": "GB", "name": "Ely", "phone": "01252 860444", "website": "https://www.greenekinginns.co.uk/hotels/ely/", "contact:email": "5249@greeneking.co.uk", "image": "https://www.greenekinginns.co.uk/media/2891/ely_external.jpg", "brand": "Greene King Inns", "brand:wikidata": "Q5564162"}, "geometry": {"type": "Point", "coordinates": [-0.821923, 51.323906]}},
{"type": "Feature", "id": "_ZPeSa3K7ywwZIV3SKvYli4g3ew=", "properties": {"ref": "https://www.greenekinginns.co.uk/hotels/dog-house-hotel/", "@spider": "greene_king_inns", "addr:street_address": "Faringdon Road", "addr:city": "Abingdon", "addr:state": "Oxfordshire", "addr:postcode": "OX13 6QJ", "addr:country": "GB", "name": "Dog House Hotel", "phone": "01865 390830", "website": "https://www.greenekinginns.co.uk/hotels/dog-house-hotel/", "contact:email": "5247@greeneking.co.uk", "image": "https://www.greenekinginns.co.uk/media/2933/dog_house_external.jpg", "brand": "Greene King Inns", "brand:wikidata": "Q5564162"}, "geometry": {"type": "Point", "coordinates": [-1.350676, 51.685113]}},
{"type": "Feature", "id": "R_eschzflRwZLqN4X16_4bjDcRw=", "properties": {"ref": "https://www.greenekinginns.co.uk/hotels/the-dog-partridge-hotel/", "@spider": "greene_king_inns", "addr:street_address": "High Street", "addr:city": "Burton-On-Trent", "addr:state": "Staffordshire", "addr:postcode": "DE13 9LS", "addr:country": "GB", "name": "The Dog & Partridge Hotel", "phone": "O1283 813030", "website": "https://www.greenekinginns.co.uk/hotels/the-dog-partridge-hotel/", "contact:email": "6172@greeneking.co.uk", "image": "https://www.greenekinginns.co.uk/media/2328/dog_partridge_tutbury_double_room.jpg", "brand": "Greene King Inns", "brand:wikidata": "Q5564162"}, "geometry": {"type": "Point", "coordinates": [-1.6870257, 52.8576172]}},
{"type": "Feature", "id": "lq7MlTX_iKuIXNhMtjRSa0jWvWk=", "properties": {"ref": "https://www.greenekinginns.co.uk/hotels/the-dog-partridge-inn/", "@spider": "greene_king_inns", "addr:street_address": "29 Crown Street", "addr:city": "Bury St Edmunds", "addr:state": "Suffolk", "addr:postcode": "IP33 1QU", "addr:country": "GB", "name": "The Dog & Partridge Inn", "phone": "01284 764792", "website": "https://www.greenekinginns.co.uk/hotels/the-dog-partridge-inn/", "contact:email": "1065@greeneking.co.uk", "image": "https://www.greenekinginns.co.uk/media/2736/dog__partridge_exterior.jpg", "brand": "Greene King Inns", "brand:wikidata": "Q5564162"}, "geometry": {"type": "Point", "coordinates": [0.716882, 52.241641]}},
{"type": "Feature", "id": "CAyxbqmqP273wvqcyYL159CFaGk=", "properties": {"ref": "https://www.greenekinginns.co.uk/hotels/de-trafford-arms-hotel/", "@spider": "greene_king_inns", "addr:street_address": "2 Congleton Road", "addr:city": "Alderley Edge", "addr:state": "Cheshire", "addr:postcode": "SK9 7AA", "addr:country": "GB", "name": "De Trafford Arms Hotel", "phone": "O162 558 3881", "website": "https://www.greenekinginns.co.uk/hotels/de-trafford-arms-hotel/", "contact:email": "6170@greeneking.co.uk", "image": "https://www.greenekinginns.co.uk/media/2970/de_trafford_external.jpg", "brand": "Greene King Inns", "brand:wikidata": "Q5564162"}, "geometry": {"type": "Point", "coordinates": [-2.236646, 53.299774]}},
{"type": "Feature", "id": "EQbwXIDWtrstXP2I_azGLI_uqfk=", "properties": {"ref": "https://www.greenekinginns.co.uk/hotels/dartbridge-inn/", "@spider": "greene_king_inns", "addr:street_address": "Dartbridge Inn", "addr:city": "Buckfastleigh", "addr:state": "Devon", "addr:postcode": "TQ11 0JR", "addr:country": "GB", "name": "Dartbridge Inn", "phone": "01364 642214", "website": "https://www.greenekinginns.co.uk/hotels/dartbridge-inn/", "contact:email": "6442@greeneking.co.uk", "image": "https://www.greenekinginns.co.uk/media/2890/dartbridge_external.jpg", "brand": "Greene King Inns", "brand:wikidata": "Q5564162"}, "geometry": {"type": "Point", "coordinates": [-3.767291, 50.485467]}},
{"type": "Feature", "id": "ehDYsH5ZkUC3iEgV8bk-QPPCp04=", "properties": {"ref": "https://www.greenekinginns.co.uk/hotels/darrington-hotel/", "@spider": "greene_king_inns", "addr:street_address": "Old Great North Road", "addr:city": "Pontefract", "addr:state": "West Yorkshire", "addr:postcode": "WF8 3BL", "addr:country": "GB", "name": "Darrington Hotel", "phone": "O197 7602516", "website": "https://www.greenekinginns.co.uk/hotels/darrington-hotel/", "contact:email": "6304@greeneking.co.uk", "image": "https://www.greenekinginns.co.uk/media/2969/darrington_external.jpg", "brand": "Greene King Inns", "brand:wikidata": "Q5564162"}, "geometry": {"type": "Point", "coordinates": [-1.262405, 53.673147]}},
{"type": "Feature", "id": "pCBu0VTqm_oWx2-ei0HyY6BH8dM=", "properties": {"ref": "https://www.greenekinginns.co.uk/hotels/cross-hands-hotel/", "@spider": "greene_king_inns", "addr:country": "GB", "name": "Cross Hands Hotel", "phone": "01454 313000", "website": "https://www.greenekinginns.co.uk/hotels/cross-hands-hotel/", "contact:email": "6435@greeneking.co.uk", "image": "https://www.greenekinginns.co.uk/media/2886/cross_hand_external.jpg", "brand": "Greene King Inns", "brand:wikidata": "Q5564162"}, "geometry": {"type": "Point", "coordinates": [-2.3448683, 51.5290473]}},
{"type": "Feature", "id": "eh3xect5kF_tXrIhHHPE9Q8keuE=", "properties": {"ref": "https://www.greenekinginns.co.uk/hotels/cromwell-lodge-hotel/", "@spider": "greene_king_inns", "addr:street_address": "9-11 North Bar Street", "addr:city": "Banbury", "addr:state": "Oxfordshire", "addr:postcode": "OX16 0TB", "addr:country": "GB", "name": "Cromwell Lodge Hotel", "phone": "01295 259781", "website": "https://www.greenekinginns.co.uk/hotels/cromwell-lodge-hotel/", "contact:email": "6434@greeneking.co.uk", "image": "https://www.greenekinginns.co.uk/media/1327/the_cromwell_external.jpg", "brand": "Greene King Inns", "brand:wikidata": "Q5564162"}, "geometry": {"type": "Point", "coordinates": [-1.339878, 52.062264]}},
{"type": "Feature", "id": "J_guwX3MINeJlEl-TI7xYKOCWRc=", "properties": {"ref": "https://www.greenekinginns.co.uk/hotels/corner-house-hotel/", "@spider": "greene_king_inns", "addr:street_address": "Heaton Road", "addr:city": "Newcastle-Upon-Tyne", "addr:state": "Tyne and Wear", "addr:postcode": "NE6 5RP", "addr:country": "GB", "name": "Corner House Hotel", "phone": "O191 265 9602", "website": "https://www.greenekinginns.co.uk/hotels/corner-house-hotel/", "contact:email": "6782@greeneking.co.uk", "image": "https://www.greenekinginns.co.uk/media/2283/corner_house_external.jpg", "brand": "Greene King Inns", "brand:wikidata": "Q5564162"}, "geometry": {"type": "Point", "coordinates": [-1.583928, 54.990856]}},
{"type": "Feature", "id": "XERdUdyt8CZJEdI_7XYzpUrElcw=", "properties": {"ref": "https://www.greenekinginns.co.uk/hotels/commodore/", "@spider": "greene_king_inns", "addr:street_address": "Southbourne Overcliffe Drive", "addr:city": "Bournemouth", "addr:state": "Dorset", "addr:postcode": "BH6 3TD", "addr:country": "GB", "name": "Commodore Hotel", "phone": "01202 423150", "website": "https://www.greenekinginns.co.uk/hotels/commodore/", "contact:email": "7688@greeneking.co.uk", "image": "https://www.greenekinginns.co.uk/media/1318/commodore_external.jpg", "brand": "Greene King Inns", "brand:wikidata": "Q5564162"}, "geometry": {"type": "Point", "coordinates": [-1.8192632, 50.7221745]}},
{"type": "Feature", "id": "P_9gK_kSXR6umk-mVTDTUfbKauI=", "properties": {"ref": "https://www.greenekinginns.co.uk/hotels/coleshill-hotel/", "@spider": "greene_king_inns", "addr:street_address": "152-156 High Street", "addr:city": "Coleshill", "addr:state": "West Midlands", "addr:postcode": "B46 3BG", "addr:country": "GB", "name": "Coleshill Hotel", "phone": "01675 465527", "website": "https://www.greenekinginns.co.uk/hotels/coleshill-hotel/", "contact:email": "9130@greeneking.co.uk", "image": "https://www.greenekinginns.co.uk/media/2883/the_coleshill_external.jpg", "brand": "Greene King Inns", "brand:wikidata": "Q5564162"}, "geometry": {"type": "Point", "coordinates": [-1.7074954, 52.4967934]}},
{"type": "Feature", "id": "GKGPmCUfl_8oBuXm9v5jZ_UNcGw=", "properties": {"ref": "https://www.greenekinginns.co.uk/hotels/cocked-hat-hotel/", "@spider": "greene_king_inns", "addr:street_address": "Rugby Road", "addr:city": "Binley Woods", "addr:state": "West Midlands", "addr:postcode": "CV3 2TA", "addr:country": "GB", "name": "Cocked Hat Hotel", "phone": "024 7663 6767", "website": "https://www.greenekinginns.co.uk/hotels/cocked-hat-hotel/", "contact:email": "6299@greeneking.co.uk", "image": "https://www.greenekinginns.co.uk/media/2292/cocked_hat_external.jpg", "brand": "Greene King Inns", "brand:wikidata": "Q5564162"}, "geometry": {"type": "Point", "coordinates": [-1.432251, 52.396872]}},
{"type": "Feature", "id": "JJsEKC30zwDL0uMNO-0vipTnpUo=", "properties": {"ref": "https://www.greenekinginns.co.uk/hotels/cock-hotel/", "@spider": "greene_king_inns", "addr:street_address": "72-74 High Street", "addr:city": "Stony Stratford", "addr:state": "Buckinghamshire", "addr:postcode": "MK11 1AH", "addr:country": "GB", "name": "Cock Hotel", "phone": "01908 567733", "website": "https://www.greenekinginns.co.uk/hotels/cock-hotel/", "contact:email": "6432@greeneking.co.uk", "image": "https://www.greenekinginns.co.uk/media/2943/the_cock_external.jpg", "brand": "Greene King Inns", "brand:wikidata": "Q5564162"}, "geometry": {"type": "Point", "coordinates": [-0.853892, 52.057568]}},
{"type": "Feature", "id": "eQGvn-p7j22ytmtL-gzDXI41kDM=", "properties": {"ref": "https://www.greenekinginns.co.uk/hotels/the-churchill-wootton-bassett/", "@spider": "greene_king_inns", "addr:city": "Wootten Bassett", "addr:state": "Swindon", "addr:postcode": "SN4 8ET", "addr:country": "GB", "name": "SN4 8ET", "phone": "01905 235730", "website": "https://www.greenekinginns.co.uk/hotels/the-churchill-wootton-bassett/", "image": "https://www.greenekinginns.co.uk/media/3849/churchill-exterior.jpg", "brand": "Greene King Inns", "brand:wikidata": "Q5564162"}, "geometry": {"type": "Point", "coordinates": [-1.879931, 51.545949]}},
{"type": "Feature", "id": "WjBu1JQigWI8XCjFrZl5tApwk6w=", "properties": {"ref": "https://www.greenekinginns.co.uk/hotels/chequers/", "@spider": "greene_king_inns", "addr:street_address": "High Street", "addr:city": "Maresfield", "addr:state": "Uckfield", "addr:postcode": "TN22 2EH", "addr:country": "GB", "name": "Chequers Inn Hotel", "phone": "01825 763843", "website": "https://www.greenekinginns.co.uk/hotels/chequers/", "contact:email": "1784@greeneking.co.uk", "image": "https://www.greenekinginns.co.uk/media/2879/cheqeurs_external.jpg", "brand": "Greene King Inns", "brand:wikidata": "Q5564162"}, "geometry": {"type": "Point", "coordinates": [0.088039, 50.997109]}},
{"type": "Feature", "id": "69-ykgZNrXLhW3wDRb8ydml8Zk0=", "properties": {"ref": "https://www.greenekinginns.co.uk/hotels/the-bell-hotel-thetford/", "@spider": "greene_king_inns", "addr:street_address": "King Street", "addr:city": "Thetford", "addr:state": "Norfolk", "addr:postcode": "IP24 2AZ", "addr:country": "GB", "name": "The Bell Hotel (Thetford)", "phone": "01842 754455", "website": "https://www.greenekinginns.co.uk/hotels/the-bell-hotel-thetford/", "contact:email": "6410@greeneking.co.uk", "image": "https://www.greenekinginns.co.uk/media/1672/the_bell_thetford_exterior.jpg", "brand": "Greene King Inns", "brand:wikidata": "Q5564162"}, "geometry": {"type": "Point", "coordinates": [0.746663, 52.414346]}},
{"type": "Feature", "id": "Ojv4rD88kOcZ8TecY8Z9KMWbEXc=", "properties": {"ref": "https://www.greenekinginns.co.uk/hotels/bell-inn-woburn/", "@spider": "greene_king_inns", "addr:country": "GB", "name": "Bell Inn (Woburn)", "phone": "01525 290280", "website": "https://www.greenekinginns.co.uk/hotels/bell-inn-woburn/", "contact:email": "4316@greeneking.co.uk", "image": "https://www.greenekinginns.co.uk/media/2867/the_bell_woburn_exterior.jpg", "brand": "Greene King Inns", "brand:wikidata": "Q5564162"}, "geometry": {"type": "Point", "coordinates": [-0.620164, 51.990576]}},
{"type": "Feature", "id": "9nuFMZtJeLnKd1kBvFkHXasmKWw=", "properties": {"ref": "https://www.greenekinginns.co.uk/hotels/bell-inn-tewkesbury/", "@spider": "greene_king_inns", "addr:street_address": "Church Street", "addr:city": "Tewkesbury", "addr:state": "Gloucestershire", "addr:postcode": "GL20 5SA", "addr:country": "GB", "name": "Bell Inn (Tewkesbury)", "phone": "01684 293293", "website": "https://www.greenekinginns.co.uk/hotels/bell-inn-tewkesbury/", "contact:email": "6408@greeneking.co.uk", "image": "https://www.greenekinginns.co.uk/media/1217/the_bell_tewkesbury_exterior.jpg", "brand": "Greene King Inns", "brand:wikidata": "Q5564162"}, "geometry": {"type": "Point", "coordinates": [-2.1617551, 51.9908652]}},
{"type": "Feature", "id": "F3qGrRqSEqueRTdVMvJeSheWsGM=", "properties": {"ref": "https://www.greenekinginns.co.uk/hotels/bear-hotel-hungerford/", "@spider": "greene_king_inns", "addr:street_address": "41 Charnham Street", "addr:city": "Hungerford", "addr:state": "Berkshire", "addr:postcode": "RG17 0EL", "addr:country": "GB", "name": "Bear Hotel (Hungerford)", "phone": "01488 682512", "website": "https://www.greenekinginns.co.uk/hotels/bear-hotel-hungerford/", "contact:email": "1762@greeneking.co.uk", "brand": "Greene King Inns", "brand:wikidata": "Q5564162"}, "geometry": {"type": "Point", "coordinates": [-1.513474, 51.418239]}},
{"type": "Feature", "id": "2pwn68YINT9heEazHFaUB3CAf9Y=", "properties": {"ref": "https://www.greenekinginns.co.uk/hotels/bear-hotel-havant/", "@spider": "greene_king_inns", "addr:street_address": "15 East Street", "addr:city": "Havant", "addr:state": "Hampshire", "addr:postcode": "PO9 1AA", "addr:country": "GB", "name": "Bear Hotel (Havant)", "phone": "02392 486501", "website": "https://www.greenekinginns.co.uk/hotels/bear-hotel-havant/", "contact:email": "9110@greeneking.co.uk", "image": "https://www.greenekinginns.co.uk/media/2861/bear_havant_exterior.jpg", "brand": "Greene King Inns", "brand:wikidata": "Q5564162"}, "geometry": {"type": "Point", "coordinates": [-0.980593, 50.851167]}},
{"type": "Feature", "id": "aA1bqkpeRohKpNugYFMsgAA6vVM=", "properties": {"ref": "https://www.greenekinginns.co.uk/hotels/the-bay-horse-hotel/", "@spider": "greene_king_inns", "addr:street_address": "49-53 Warrington Road", "addr:city": "Wigan", "addr:state": "Lancashire", "addr:postcode": "WN4 9PJ", "addr:country": "GB", "name": "The Bay Horse Hotel", "phone": "01942 725032", "website": "https://www.greenekinginns.co.uk/hotels/the-bay-horse-hotel/", "contact:email": "6750@greeneking.co.uk", "image": "https://www.greenekinginns.co.uk/media/2964/bay_horse_external.jpg", "brand": "Greene King Inns", "brand:wikidata": "Q5564162"}, "geometry": {"type": "Point", "coordinates": [-2.638231, 53.483231]}},
{"type": "Feature", "id": "Jzkhms11rts_55cpb0neGRcvQgU=", "properties": {"ref": "https://www.greenekinginns.co.uk/hotels/ardencaple-hotel/", "@spider": "greene_king_inns", "addr:street_address": "Gareloch Road", "addr:city": "Rhu", "addr:state": "Dunbartonshire", "addr:postcode": "G84 8LA", "addr:country": "GB", "name": "Ardencaple Hotel", "phone": "01436 820200", "website": "https://www.greenekinginns.co.uk/hotels/ardencaple-hotel/", "contact:email": "7064@greeneking.co.uk", "image": "https://www.greenekinginns.co.uk/media/2807/ardencaple_external.jpg", "brand": "Greene King Inns", "brand:wikidata": "Q5564162"}, "geometry": {"type": "Point", "coordinates": [-4.764394, 56.013123]}},
{"type": "Feature", "id": "fJOC9abU-01zofqZ18g_lCk6pcc=", "properties": {"ref": "https://www.greenekinginns.co.uk/hotels/antelope-inn/", "@spider": "greene_king_inns", "addr:street_address": "8 High Street", "addr:city": "Poole", "addr:state": "Dorset", "addr:postcode": "BH15 1BP", "addr:country": "GB", "name": "Antelope Inn Hotel", "phone": "01202 672029", "website": "https://www.greenekinginns.co.uk/hotels/antelope-inn/", "contact:email": "6603@greeneking.co.uk", "image": "https://www.greenekinginns.co.uk/media/1479/antelope_exterior.jpg", "brand": "Greene King Inns", "brand:wikidata": "Q5564162"}, "geometry": {"type": "Point", "coordinates": [-1.988471, 50.712873]}},
{"type": "Feature", "id": "7CnzGxMQR2TCEyOqCVWU1RNthdQ=", "properties": {"ref": "https://www.greenekinginns.co.uk/hotels/anchor-inn/", "@spider": "greene_king_inns", "addr:street_address": "Fore Street", "addr:city": "Beer", "addr:state": "Devon", "addr:postcode": "EX12 3ET", "addr:country": "GB", "name": "Anchor Inn", "phone": "01297 20386", "website": "https://www.greenekinginns.co.uk/hotels/anchor-inn/", "contact:email": "6403@greeneking.co.uk", "image": "https://www.greenekinginns.co.uk/media/1732/anchor_inn_exterior.jpg", "brand": "Greene King Inns", "brand:wikidata": "Q5564162"}, "geometry": {"type": "Point", "coordinates": [-3.091854, 50.697138]}}]}