{"type":"FeatureCollection","features":[{"type": "Feature", "id": "pPgsymY8FJSOztbmFNkdaAmnnto=", "properties": {"ref": "088", "@spider": "half_price_books", "shop": "books", "addr:full": "2321 Sir Barton Way, Lexington, KY 40509", "addr:street_address": "2321 Sir Barton Way", "addr:city": "Lexington", "addr:state": "KY", "addr:postcode": "40509", "name": "HPB Hamburg Pavilion", "phone": "(859) 264-0848", "website": "https://www.hpb.com/088", "brand": "Half Price Books", "brand:wikidata": "Q5641744", "nsi_id": "halfpricebooks-1bd7b6"}, "geometry": {"type": "Point", "coordinates": [-84.4235624, 38.0204847]}},
{"type": "Feature", "id": "fVgVSeu8cbPDNvJZd8n7q8_cgdY=", "properties": {"ref": "116", "@spider": "half_price_books", "shop": "books", "addr:full": "127 W Tiverton Way, Lexington, KY 40503", "addr:street_address": "127 W Tiverton Way", "addr:city": "Lexington", "addr:state": "KY", "addr:postcode": "40503", "name": "HPB Fayette Place", "phone": "(859) 271-8671", "website": "https://www.hpb.com/116", "brand": "Half Price Books", "brand:wikidata": "Q5641744", "nsi_id": "halfpricebooks-1bd7b6"}, "geometry": {"type": "Point", "coordinates": [-84.5305122, 37.9824367]}},
{"type": "Feature", "id": "Lf0SBnFM1izw-lWswUR2hE3bu_s=", "properties": {"ref": "107", "@spider": "half_price_books", "shop": "books", "addr:full": "4999 Houston Rd, Florence, KY 41042", "addr:street_address": "4999 Houston Rd", "addr:city": "Florence", "addr:state": "KY", "addr:postcode": "41042", "name": "HPB Florence ", "phone": "(859) 283-0546", "website": "https://www.hpb.com/107", "brand": "Half Price Books", "brand:wikidata": "Q5641744", "nsi_id": "halfpricebooks-1bd7b6"}, "geometry": {"type": "Point", "coordinates": [-84.6412082, 39.0151357]}},
{"type": "Feature", "id": "nTM5Lka8hIfYZkOoPzdYGyqAvVg=", "properties": {"ref": "221", "@spider": "half_price_books", "shop": "books", "addr:full": "1785 Campbell Ln, Bowling Green, KY 42104", "addr:street_address": "1785 Campbell Ln", "addr:city": "Bowling Green", "addr:state": "KY", "addr:postcode": "42104", "name": "HPB Bowling Green Outlet", "phone": "(270) 781-0089", "website": "https://www.hpb.com/221", "brand": "Half Price Books", "brand:wikidata": "Q5641744", "nsi_id": "halfpricebooks-1bd7b6"}, "geometry": {"type": "Point", "coordinates": [-86.4309787, 36.9526081]}},
{"type": "Feature", "id": "edK9htldVMI-UmUjI8N3cSYVIV8=", "properties": {"ref": "130", "@spider": "half_price_books", "shop": "books", "addr:full": "8145 E Kellogg Dr, Wichita, KS 67207", "addr:street_address": "8145 E Kellogg Dr", "addr:city": "Wichita", "addr:state": "KS", "addr:postcode": "67207", "name": "HPB Wichita", "phone": "(316) 652-2412", "website": "https://www.hpb.com/130", "brand": "Half Price Books", "brand:wikidata": "Q5641744", "nsi_id": "halfpricebooks-1bd7b6"}, "geometry": {"type": "Point", "coordinates": [-97.2401415, 37.6785901]}},
{"type": "Feature", "id": "8N1u2klCFNAZs8ySCbZ3d0XGf_U=", "properties": {"ref": "070", "@spider": "half_price_books", "shop": "books", "addr:full": "9622 Nall Ave., Overland Park, KS 66207", "addr:street_address": "9622 Nall Ave.", "addr:city": "Overland Park", "addr:state": "KS", "addr:postcode": "66207", "name": "HPB Overland Park", "phone": "(913) 383-3373", "website": "https://www.hpb.com/070", "brand": "Half Price Books", "brand:wikidata": "Q5641744", "nsi_id": "halfpricebooks-1bd7b6"}, "geometry": {"type": "Point", "coordinates": [-94.6502793, 38.9547081]}},
{"type": "Feature", "id": "FYezLy2BKq0zHBzhaJ5-IApjEZ4=", "properties": {"ref": "073", "@spider": "half_price_books", "shop": "books", "addr:full": "15309 W 119th St, Olathe, KS 66062", "addr:street_address": "15309 W 119th St", "addr:city": "Olathe", "addr:state": "KS", "addr:postcode": "66062", "name": "HPB Olathe", "phone": "(913) 829-9959", "website": "https://www.hpb.com/073", "brand": "Half Price Books", "brand:wikidata": "Q5641744", "nsi_id": "halfpricebooks-1bd7b6"}, "geometry": {"type": "Point", "coordinates": [-94.7624998, 38.910305]}},
{"type": "Feature", "id": "2GwChekjsVlRwDCRr4Ik-MejnUo=", "properties": {"ref": "086", "@spider": "half_price_books", "shop": "books", "addr:full": "1400 Twixt Town Rd, Marion, IA 52302", "addr:street_address": "1400 Twixt Town Rd", "addr:city": "Marion", "addr:state": "IA", "addr:postcode": "52302", "name": "HPB Marion", "phone": "(319) 377-4982", "website": "https://www.hpb.com/086", "brand": "Half Price Books", "brand:wikidata": "Q5641744", "nsi_id": "halfpricebooks-1bd7b6"}, "geometry": {"type": "Point", "coordinates": [-91.6246677, 42.0299629]}},
{"type": "Feature", "id": "u8rjy0dEXNde8FqUMrH3E1qZcsE=", "properties": {"ref": "031", "@spider": "half_price_books", "shop": "books", "addr:full": "10201 University Ave, Clive, IA 50325", "addr:street_address": "10201 University Ave", "addr:city": "Clive", "addr:state": "IA", "addr:postcode": "50325", "name": "HPB Clive", "phone": "(515) 224-4429", "website": "https://www.hpb.com/031", "brand": "Half Price Books", "brand:wikidata": "Q5641744", "nsi_id": "halfpricebooks-1bd7b6"}, "geometry": {"type": "Point", "coordinates": [-93.7575831, 41.6020146]}},
{"type": "Feature", "id": "wlkIgynFc_2fYoG5AKzhncOUJl0=", "properties": {"ref": "131", "@spider": "half_price_books", "shop": "books", "addr:full": "5608 Grape Rd., Mishawaka, IN 46545", "addr:street_address": "5608 Grape Rd.", "addr:city": "Mishawaka", "addr:state": "IN", "addr:postcode": "46545", "name": "HPB Mishawaka ", "phone": "(574) 243-6058", "website": "https://www.hpb.com/131", "brand": "Half Price Books", "brand:wikidata": "Q5641744", "nsi_id": "halfpricebooks-1bd7b6"}, "geometry": {"type": "Point", "coordinates": [-86.1876162, 41.7111919]}},
{"type": "Feature", "id": "kvO9oI389DZlPC-lbX3cwBo8UWI=", "properties": {"ref": "047", "@spider": "half_price_books", "shop": "books", "addr:full": "1551 W 86th St, Indianapolis, IN 46260", "addr:street_address": "1551 W 86th St", "addr:city": "Indianapolis", "addr:state": "IN", "addr:postcode": "46260", "name": "HPB Greenbriar", "phone": "(317) 824-9002", "website": "https://www.hpb.com/047", "brand": "Half Price Books", "brand:wikidata": "Q5641744", "nsi_id": "halfpricebooks-1bd7b6"}, "geometry": {"type": "Point", "coordinates": [-86.1867049, 39.9117629]}},
{"type": "Feature", "id": "7dLTa041WeSX5u4Nz1CSimITUHA=", "properties": {"ref": "039", "@spider": "half_price_books", "shop": "books", "addr:full": "4709 E 82nd St, Indianapolis, IN 46250", "addr:street_address": "4709 E 82nd St", "addr:city": "Indianapolis", "addr:state": "IN", "addr:postcode": "46250", "name": "HPB Clearwater Village", "phone": "(317) 577-0410", "website": "https://www.hpb.com/039", "brand": "Half Price Books", "brand:wikidata": "Q5641744", "nsi_id": "halfpricebooks-1bd7b6"}, "geometry": {"type": "Point", "coordinates": [-86.089517, 39.9057162]}},
{"type": "Feature", "id": "rpFqIqNav-gWu80_ee41mk6DSM0=", "properties": {"ref": "038", "@spider": "half_price_books", "shop": "books", "addr:full": "844 N US 31, Greenwood, IN 46142", "addr:street_address": "844 N US 31", "addr:city": "Greenwood", "addr:state": "IN", "addr:postcode": "46142", "name": "HPB Greenwood", "phone": "(317) 889-1076", "website": "https://www.hpb.com/038", "brand": "Half Price Books", "brand:wikidata": "Q5641744", "nsi_id": "halfpricebooks-1bd7b6"}, "geometry": {"type": "Point", "coordinates": [-86.1230453, 39.6292077]}},
{"type": "Feature", "id": "xxKv5YvQqDkHnuWYPVpcEjzGHlg=", "properties": {"ref": "102", "@spider": "half_price_books", "shop": "books", "addr:full": "533 E Coliseum Blvd, Fort Wayne, IN 46805", "addr:street_address": "533 E Coliseum Blvd", "addr:city": "Fort Wayne", "addr:state": "IN", "addr:postcode": "46805", "name": "HPB Fort Wayne", "phone": "(260) 373-2140", "website": "https://www.hpb.com/102", "brand": "Half Price Books", "brand:wikidata": "Q5641744", "nsi_id": "halfpricebooks-1bd7b6"}, "geometry": {"type": "Point", "coordinates": [-85.133285, 41.119193]}},
{"type": "Feature", "id": "cluJ1qblichFdsugmXkSGHWxf-M=", "properties": {"ref": "220", "@spider": "half_price_books", "shop": "books", "addr:full": "3120 W Susan Dr, Bloomington, IN 47404", "addr:street_address": "3120 W Susan Dr", "addr:city": "Bloomington", "addr:state": "IN", "addr:postcode": "47404", "name": "HPB Bloomington Outlet", "phone": "(812) 330-4316", "website": "https://www.hpb.com/220", "brand": "Half Price Books", "brand:wikidata": "Q5641744", "nsi_id": "halfpricebooks-1bd7b6"}, "geometry": {"type": "Point", "coordinates": [-86.5733149, 39.1715205]}},
{"type": "Feature", "id": "25G2aHS9AsBsG2qFRXLNSNXbIIg=", "properties": {"ref": "100", "@spider": "half_price_books", "shop": "books", "addr:full": "9867 E US Hwy 36, Avon, IN 46123", "addr:street_address": "9867 E US Hwy 36", "addr:city": "Avon", "addr:state": "IN", "addr:postcode": "46123", "name": "HPB Avon", "phone": "(317) 209-8841", "website": "https://www.hpb.com/100", "brand": "Half Price Books", "brand:wikidata": "Q5641744", "nsi_id": "halfpricebooks-1bd7b6"}, "geometry": {"type": "Point", "coordinates": [-86.3482997, 39.7613445]}},
{"type": "Feature", "id": "hc6FO4YPNkaqWGSHgE92ko-Wctc=", "properties": {"ref": "014", "@spider": "half_price_books", "shop": "books", "addr:full": "626 S Whitney Way, Madison, WI 53711", "addr:street_address": "626 S Whitney Way", "addr:city": "Madison", "addr:state": "WI", "addr:postcode": "53711", "name": "HPB West Madison", "phone": "(608) 273-1140", "website": "https://www.hpb.com/014", "brand": "Half Price Books", "brand:wikidata": "Q5641744", "nsi_id": "halfpricebooks-1bd7b6"}, "geometry": {"type": "Point", "coordinates": [-89.473608, 43.0517684]}},
{"type": "Feature", "id": "BY5Ta9u4Hzf0bICUOa-uxvawNQw=", "properties": {"ref": "041", "@spider": "half_price_books", "shop": "books", "addr:full": "4250 E Towne Blvd, Madison, WI 53704", "addr:street_address": "4250 E Towne Blvd", "addr:city": "Madison", "addr:state": "WI", "addr:postcode": "53704", "name": "HPB East Madison", "phone": "(608) 244-1189", "website": "https://www.hpb.com/041", "brand": "Half Price Books", "brand:wikidata": "Q5641744", "nsi_id": "halfpricebooks-1bd7b6"}, "geometry": {"type": "Point", "coordinates": [-89.3107125, 43.1252038]}},
{"type": "Feature", "id": "VMMYTR-o23gYVqVRF3Yq6V3ZpjY=", "properties": {"ref": "051", "@spider": "half_price_books", "shop": "books", "addr:full": "5032 S 74th St, Greenfield, WI 53220", "addr:street_address": "5032 S 74th St", "addr:city": "Greenfield", "addr:state": "WI", "addr:postcode": "53220", "name": "HPB Greenfield", "phone": "(414) 281-0000", "website": "https://www.hpb.com/051", "brand": "Half Price Books", "brand:wikidata": "Q5641744", "nsi_id": "halfpricebooks-1bd7b6"}, "geometry": {"type": "Point", "coordinates": [-88.0047513, 42.9536168]}},
{"type": "Feature", "id": "DP5TyCkOjmloV67VQ_KCmFN72GA=", "properties": {"ref": "035", "@spider": "half_price_books", "shop": "books", "addr:full": "17145 W Bluemound Rd, Brookfield, WI 53005", "addr:street_address": "17145 W Bluemound Rd", "addr:city": "Brookfield", "addr:state": "WI", "addr:postcode": "53005", "name": "HPB Brookfield", "phone": "(262) 789-0280", "website": "https://www.hpb.com/035", "brand": "Half Price Books", "brand:wikidata": "Q5641744", "nsi_id": "halfpricebooks-1bd7b6"}, "geometry": {"type": "Point", "coordinates": [-88.1254932, 43.0366914]}},
{"type": "Feature", "id": "qZ-SQYtuIUsxiG1QO-f8QQw3F4M=", "properties": {"ref": "103", "@spider": "half_price_books", "shop": "books", "addr:full": "281 N Casaloma Dr, Appleton, WI 54913", "addr:street_address": "281 N Casaloma Dr", "addr:city": "Appleton", "addr:state": "WI", "addr:postcode": "54913", "name": "HPB Appleton", "phone": "(920) 830-1237", "website": "https://www.hpb.com/103", "brand": "Half Price Books", "brand:wikidata": "Q5641744", "nsi_id": "halfpricebooks-1bd7b6"}, "geometry": {"type": "Point", "coordinates": [-88.4767832, 44.2644192]}},
{"type": "Feature", "id": "-m41yWS9Fp3rPkm1j83BAlnCyCA=", "properties": {"ref": "048", "@spider": "half_price_books", "shop": "books", "addr:full": "16828 Southcenter Pkwy, Tukwila, WA 98188", "addr:street_address": "16828 Southcenter Pkwy", "addr:city": "Tukwila", "addr:state": "WA", "addr:postcode": "98188", "name": "HPB Tukwila", "phone": "(206) 575-3173", "website": "https://www.hpb.com/048", "brand": "Half Price Books", "brand:wikidata": "Q5641744", "nsi_id": "halfpricebooks-1bd7b6"}, "geometry": {"type": "Point", "coordinates": [-122.2624369, 47.4525642]}},
{"type": "Feature", "id": "T-MhZ9igHOEksCyAwexn0URzYK4=", "properties": {"ref": "034", "@spider": "half_price_books", "shop": "books", "addr:full": "4027 Tacoma Mall Blvd, Tacoma, WA 98409", "addr:street_address": "4027 Tacoma Mall Blvd", "addr:city": "Tacoma", "addr:state": "WA", "addr:postcode": "98409", "name": "HPB Tacoma", "phone": "(253) 566-1238", "website": "https://www.hpb.com/034", "brand": "Half Price Books", "brand:wikidata": "Q5641744", "nsi_id": "halfpricebooks-1bd7b6"}, "geometry": {"type": "Point", "coordinates": [-122.4660809, 47.2215132]}},
{"type": "Feature", "id": "sof76c_LCeZu0TSMxiQrj4tlxMo=", "properties": {"ref": "054", "@spider": "half_price_books", "shop": "books", "addr:full": "7805 Leary Way, Redmond, WA 98052", "addr:street_address": "7805 Leary Way", "addr:city": "Redmond", "addr:state": "WA", "addr:postcode": "98052", "name": "HPB Redmond", "phone": "(425) 702-2499", "website": "https://www.hpb.com/054", "brand": "Half Price Books", "brand:wikidata": "Q5641744", "nsi_id": "halfpricebooks-1bd7b6"}, "geometry": {"type": "Point", "coordinates": [-122.123642, 47.673198]}},
{"type": "Feature", "id": "VMGxBCMGli_q-jkVIGbvZAaXmGI=", "properties": {"ref": "223", "@spider": "half_price_books", "shop": "books", "addr:full": "1520 Cooper Point Rd SW, Olympia, WA 98502", "addr:street_address": "1520 Cooper Point Rd SW", "addr:city": "Olympia", "addr:state": "WA", "addr:postcode": "98502", "name": "HPB Olympia Outlet", "phone": "(360) 705-0236", "website": "https://www.hpb.com/223", "brand": "Half Price Books", "brand:wikidata": "Q5641744", "nsi_id": "halfpricebooks-1bd7b6"}, "geometry": {"type": "Point", "coordinates": [-122.9363314, 47.0349566]}},
{"type": "Feature", "id": "y9bJZg4ghxUTvzdH5ZJy2yr8dWw=", "properties": {"ref": "071", "@spider": "half_price_books", "shop": "books", "addr:full": "19520 Hwy 99, Ste 103, Lynnwood, WA 98036", "addr:street_address": "19520 Hwy 99, Ste 103", "addr:city": "Lynnwood", "addr:state": "WA", "addr:postcode": "98036", "name": "HPB Lynnwood", "phone": "(425) 776-8885", "website": "https://www.hpb.com/071", "brand": "Half Price Books", "brand:wikidata": "Q5641744", "nsi_id": "halfpricebooks-1bd7b6"}, "geometry": {"type": "Point", "coordinates": [-122.3168013, 47.8217311]}},
{"type": "Feature", "id": "P8Mml3aSN8fXbOmQu7ZJH8PmAzg=", "properties": {"ref": "064", "@spider": "half_price_books", "shop": "books", "addr:full": "1321 SE Everett Mall Way, Everett, WA 98208", "addr:street_address": "1321 SE Everett Mall Way", "addr:city": "Everett", "addr:state": "WA", "addr:postcode": "98208", "name": "HPB Everett", "phone": "(425) 290-9924", "website": "https://www.hpb.com/064", "brand": "Half Price Books", "brand:wikidata": "Q5641744", "nsi_id": "halfpricebooks-1bd7b6"}, "geometry": {"type": "Point", "coordinates": [-122.215212, 47.91285]}},
{"type": "Feature", "id": "DwiWaiRDMty4VBY5xwtKIAh9dJI=", "properties": {"ref": "022", "@spider": "half_price_books", "shop": "books", "addr:full": "15600 NE 8th St, Bellevue, WA 98008", "addr:street_address": "15600 NE 8th St", "addr:city": "Bellevue", "addr:state": "WA", "addr:postcode": "98008", "name": "HPB Bellevue", "phone": "(425) 747-6616", "website": "https://www.hpb.com/022", "brand": "Half Price Books", "brand:wikidata": "Q5641744", "nsi_id": "halfpricebooks-1bd7b6"}, "geometry": {"type": "Point", "coordinates": [-122.1311564, 47.6187677]}},
{"type": "Feature", "id": "r5Pwx47UaO7Uao5-AHUvJKam4g0=", "properties": {"ref": "081", "@spider": "half_price_books", "shop": "books", "addr:full": "7620 Denton Hwy, Watauga, TX 76148", "addr:street_address": "7620 Denton Hwy", "addr:city": "Watauga", "addr:state": "TX", "addr:postcode": "76148", "name": "HPB Watauga", "phone": "(817) 605-3285", "website": "https://www.hpb.com/081", "brand": "Half Price Books", "brand:wikidata": "Q5641744", "nsi_id": "halfpricebooks-1bd7b6"}, "geometry": {"type": "Point", "coordinates": [-97.2588056, 32.8828333]}},
{"type": "Feature", "id": "gFzFVl5qytidE-YvQknhFQ68Dck=", "properties": {"ref": "224", "@spider": "half_price_books", "shop": "books", "addr:full": "4318 W Waco Dr, Waco, TX 76710", "addr:street_address": "4318 W Waco Dr", "addr:city": "Waco", "addr:state": "TX", "addr:postcode": "76710", "name": "HPB Waco Outlet", "phone": "(254) 399-6409", "website": "https://www.hpb.com/224", "brand": "Half Price Books", "brand:wikidata": "Q5641744", "nsi_id": "halfpricebooks-1bd7b6"}, "geometry": {"type": "Point", "coordinates": [-97.1704335, 31.5273139]}},
{"type": "Feature", "id": "ESEGVe_lBpVv4o77K_s2rkQQUOk=", "properties": {"ref": "016", "@spider": "half_price_books", "shop": "books", "addr:full": "8966 S Broadway Ave, Tyler, TX 75703", "addr:street_address": "8966 S Broadway Ave", "addr:city": "Tyler", "addr:state": "TX", "addr:postcode": "75703", "name": "HPB Tyler", "phone": "(903) 561-8258", "website": "https://www.hpb.com/016", "brand": "Half Price Books", "brand:wikidata": "Q5641744", "nsi_id": "halfpricebooks-1bd7b6"}, "geometry": {"type": "Point", "coordinates": [-95.3045611, 32.2481496]}},
{"type": "Feature", "id": "jbOCkVYLbeBV9ZXeCWoXrcAV6Xc=", "properties": {"ref": "044", "@spider": "half_price_books", "shop": "books", "addr:full": "3203 Hwy 6, Sugar Land, TX 77478", "addr:street_address": "3203 Hwy 6", "addr:city": "Sugar Land", "addr:state": "TX", "addr:postcode": "77478", "name": "HPB Sugar Land", "phone": "(281) 265-0900", "website": "https://www.hpb.com/044", "brand": "Half Price Books", "brand:wikidata": "Q5641744", "nsi_id": "halfpricebooks-1bd7b6"}, "geometry": {"type": "Point", "coordinates": [-95.6055937, 29.5931614]}},
{"type": "Feature", "id": "pq3YG6jydG8BpYRlEhD3xMKlhys=", "properties": {"ref": "076", "@spider": "half_price_books", "shop": "books", "addr:full": "900 Bugg Ln, San Marcos, TX 78666", "addr:street_address": "900 Bugg Ln", "addr:city": "San Marcos", "addr:state": "TX", "addr:postcode": "78666", "name": "HPB San Marcos", "phone": "(512) 805-7503", "website": "https://www.hpb.com/076", "brand": "Half Price Books", "brand:wikidata": "Q5641744", "nsi_id": "halfpricebooks-1bd7b6"}, "geometry": {"type": "Point", "coordinates": [-97.9209276, 29.8807438]}},
{"type": "Feature", "id": "Uplv-VordJnI0QQZZVwjBtKcaG8=", "properties": {"ref": "113", "@spider": "half_price_books", "shop": "books", "addr:full": "20821 US Hwy 281 N, San Antonio, TX 78258", "addr:street_address": "20821 US Hwy 281 N", "addr:city": "San Antonio", "addr:state": "TX", "addr:postcode": "78258", "name": "HPB Stone Ridge Market", "phone": "(210) 545-3836", "website": "https://www.hpb.com/113", "brand": "Half Price Books", "brand:wikidata": "Q5641744", "nsi_id": "halfpricebooks-1bd7b6"}, "geometry": {"type": "Point", "coordinates": [-98.4579581, 29.6388809]}},
{"type": "Feature", "id": "W2KTOmyriyjGnISJwqd8RV9FL54=", "properties": {"ref": "029", "@spider": "half_price_books", "shop": "books", "addr:full": "125 NW Loop 410, San Antonio, TX 78216", "addr:street_address": "125 NW Loop 410", "addr:city": "San Antonio", "addr:state": "TX", "addr:postcode": "78216", "name": "HPB North Central", "phone": "(210) 349-1429", "website": "https://www.hpb.com/029", "brand": "Half Price Books", "brand:wikidata": "Q5641744", "nsi_id": "halfpricebooks-1bd7b6"}, "geometry": {"type": "Point", "coordinates": [-98.4946962, 29.5233448]}},
{"type": "Feature", "id": "OFT_qRVTaAWk67Ww8TZJfMnKWtM=", "properties": {"ref": "025", "@spider": "half_price_books", "shop": "books", "addr:full": "11255 Huebner Rd, San Antonio, TX 78230", "addr:street_address": "11255 Huebner Rd", "addr:city": "San Antonio", "addr:state": "TX", "addr:postcode": "78230", "name": "HPB Huebner Road", "phone": "(210) 558-3247", "website": "https://www.hpb.com/025", "brand": "Half Price Books", "brand:wikidata": "Q5641744", "nsi_id": "halfpricebooks-1bd7b6"}, "geometry": {"type": "Point", "coordinates": [-98.5774663, 29.5466093]}},
{"type": "Feature", "id": "7yfgfHeU9oooTNQRWhpFZwJ9fzg=", "properties": {"ref": "010", "@spider": "half_price_books", "shop": "books", "addr:full": "3207 Broadway St, San Antonio, TX 78209", "addr:street_address": "3207 Broadway St", "addr:city": "San Antonio", "addr:state": "TX", "addr:postcode": "78209", "name": "HPB Brackenridge Park", "phone": "(210) 822-4597", "website": "https://www.hpb.com/010", "brand": "Half Price Books", "brand:wikidata": "Q5641744", "nsi_id": "halfpricebooks-1bd7b6"}, "geometry": {"type": "Point", "coordinates": [-98.4704179, 29.4563299]}},
{"type": "Feature", "id": "KuBtz5azqTJGIy8qwQt1O9LwII8=", "properties": {"ref": "004", "@spider": "half_price_books", "shop": "books", "addr:full": "11654 Bandera Rd, San Antonio, TX 78250", "addr:street_address": "11654 Bandera Rd", "addr:city": "San Antonio", "addr:state": "TX", "addr:postcode": "78250", "name": "HPB Bandera", "phone": "(210) 647-1103", "website": "https://www.hpb.com/004", "brand": "Half Price Books", "brand:wikidata": "Q5641744", "nsi_id": "halfpricebooks-1bd7b6"}, "geometry": {"type": "Point", "coordinates": [-98.6645345, 29.5540812]}},
{"type": "Feature", "id": "OkBWG7Ja9alstDBLJgGbcgmAZcE=", "properties": {"ref": "075", "@spider": "half_price_books", "shop": "books", "addr:full": "2601 S IH 35, Round Rock, TX 78664", "addr:street_address": "2601 S IH 35", "addr:city": "Round Rock", "addr:state": "TX", "addr:postcode": "78664", "name": "HPB Round Rock", "phone": "(512) 244-0203", "website": "https://www.hpb.com/075", "brand": "Half Price Books", "brand:wikidata": "Q5641744", "nsi_id": "halfpricebooks-1bd7b6"}, "geometry": {"type": "Point", "coordinates": [-97.6717701, 30.4834255]}},
{"type": "Feature", "id": "202So02HVIyqkvR_NP7NIfOik4U=", "properties": {"ref": "109", "@spider": "half_price_books", "shop": "books", "addr:full": "959 E I-30, Rockwall, TX 75087", "addr:street_address": "959 E I-30", "addr:city": "Rockwall", "addr:state": "TX", "addr:postcode": "75087", "name": "HPB Rockwall", "phone": "(972) 771-3496", "website": "https://www.hpb.com/109", "brand": "Half Price Books", "brand:wikidata": "Q5641744", "nsi_id": "halfpricebooks-1bd7b6"}, "geometry": {"type": "Point", "coordinates": [-96.4533679, 32.901471]}},
{"type": "Feature", "id": "0DCdMVI0O2Oxkn1n9_3PjFRvxv4=", "properties": {"ref": "008", "@spider": "half_price_books", "shop": "books", "addr:full": "100 S Central Expwy, Richardson, TX 75080", "addr:street_address": "100 S Central Expwy", "addr:city": "Richardson", "addr:state": "TX", "addr:postcode": "75080", "name": "HPB Richardson Heights", "phone": "(972) 234-4286", "website": "https://www.hpb.com/008", "brand": "Half Price Books", "brand:wikidata": "Q5641744", "nsi_id": "halfpricebooks-1bd7b6"}, "geometry": {"type": "Point", "coordinates": [-96.7384881, 32.9504711]}},
{"type": "Feature", "id": "jMLv9EPXRsmvsRjJnpI0syF9_fc=", "properties": {"ref": "059", "@spider": "half_price_books", "shop": "books", "addr:full": "2440 Preston Rd, Plano, TX 75093", "addr:street_address": "2440 Preston Rd", "addr:city": "Plano", "addr:state": "TX", "addr:postcode": "75093", "name": "HPB Plano", "phone": "(972) 985-6196", "website": "https://www.hpb.com/059", "brand": "Half Price Books", "brand:wikidata": "Q5641744", "nsi_id": "halfpricebooks-1bd7b6"}, "geometry": {"type": "Point", "coordinates": [-96.7935897, 33.0312574]}},
{"type": "Feature", "id": "mOi3NvL8PfnGBdKamOGot8mYDro=", "properties": {"ref": "095", "@spider": "half_price_books", "shop": "books", "addr:full": "2556 Smith Ranch Rd, Pearland, TX 77584", "addr:street_address": "2556 Smith Ranch Rd", "addr:city": "Pearland", "addr:state": "TX", "addr:postcode": "77584", "name": "HPB Pearland", "phone": "(713) 340-0094", "website": "https://www.hpb.com/095", "brand": "Half Price Books", "brand:wikidata": "Q5641744", "nsi_id": "halfpricebooks-1bd7b6"}, "geometry": {"type": "Point", "coordinates": [-95.385416, 29.5597329]}},
{"type": "Feature", "id": "Vm02W5sMvp7acW-Ma06lKyF5dcI=", "properties": {"ref": "049", "@spider": "half_price_books", "shop": "books", "addr:full": "1645 N. Town East Blvd, Mesquite, TX 75150", "addr:street_address": "1645 N. Town East Blvd", "addr:city": "Mesquite", "addr:state": "TX", "addr:postcode": "75150", "name": "HPB Mesquite", "phone": "(972) 686-0233", "website": "https://www.hpb.com/049", "brand": "Half Price Books", "brand:wikidata": "Q5641744", "nsi_id": "halfpricebooks-1bd7b6"}, "geometry": {"type": "Point", "coordinates": [-96.6229809, 32.8114962]}},
{"type": "Feature", "id": "_UN9jEyNSNXt4qZLC9cSavujC7s=", "properties": {"ref": "085", "@spider": "half_price_books", "shop": "books", "addr:full": "3190 S Central Expwy, McKinney, TX 75070", "addr:street_address": "3190 S Central Expwy", "addr:city": "McKinney", "addr:state": "TX", "addr:postcode": "75070", "name": "HPB McKinney", "phone": "(214) 544-7800", "website": "https://www.hpb.com/085", "brand": "Half Price Books", "brand:wikidata": "Q5641744", "nsi_id": "halfpricebooks-1bd7b6"}, "geometry": {"type": "Point", "coordinates": [-96.6432165, 33.1701223]}},
{"type": "Feature", "id": "puw_b2jJqRKRzjjLOrBQNi1jlKg=", "properties": {"ref": "111", "@spider": "half_price_books", "shop": "books", "addr:full": "1551 Hwy 287 N, Mansfield, TX 76063", "addr:street_address": "1551 Hwy 287 N", "addr:city": "Mansfield", "addr:state": "TX", "addr:postcode": "76063", "name": "HPB Mansfield", "phone": "(682) 518-7302", "website": "https://www.hpb.com/111", "brand": "Half Price Books", "brand:wikidata": "Q5641744", "nsi_id": "halfpricebooks-1bd7b6"}, "geometry": {"type": "Point", "coordinates": [-97.1401891, 32.5864321]}},
{"type": "Feature", "id": "vKf8Vl9OGJzo_O1aJQSrNIXnzzY=", "properties": {"ref": "058", "@spider": "half_price_books", "shop": "books", "addr:full": "420 E FM 3040, Lewisville, TX 75067", "addr:street_address": "420 E FM 3040", "addr:city": "Lewisville", "addr:state": "TX", "addr:postcode": "75067", "name": "HPB Lewisville", "phone": "(972) 459-3242", "website": "https://www.hpb.com/058", "brand": "Half Price Books", "brand:wikidata": "Q5641744", "nsi_id": "halfpricebooks-1bd7b6"}, "geometry": {"type": "Point", "coordinates": [-96.9820206, 33.0026502]}},
{"type": "Feature", "id": "EEpncLsytAxvYOvpdQZI4v7PTjY=", "properties": {"ref": "046", "@spider": "half_price_books", "shop": "books", "addr:full": "7631 N MacArthur Blvd, Irving, TX 75063", "addr:street_address": "7631 N MacArthur Blvd", "addr:city": "Irving", "addr:state": "TX", "addr:postcode": "75063", "name": "HPB Las Colinas", "phone": "(469) 420-9978", "website": "https://www.hpb.com/046", "brand": "Half Price Books", "brand:wikidata": "Q5641744", "nsi_id": "halfpricebooks-1bd7b6"}, "geometry": {"type": "Point", "coordinates": [-96.9588359, 32.909839]}},
{"type": "Feature", "id": "7n5GvGM1CeLwE3Ptg2ZdO3icCs4=", "properties": {"ref": "074", "@spider": "half_price_books", "shop": "books", "addr:full": "9743 FM 1960 Bypass Rd W, Humble, TX 77338", "addr:street_address": "9743 FM 1960 Bypass Rd W", "addr:city": "Humble", "addr:state": "TX", "addr:postcode": "77338", "name": "HPB Humble", "phone": "(281) 540-3950", "website": "https://www.hpb.com/074", "brand": "Half Price Books", "brand:wikidata": "Q5641744", "nsi_id": "halfpricebooks-1bd7b6"}, "geometry": {"type": "Point", "coordinates": [-95.2762274, 30.0049999]}},
{"type": "Feature", "id": "X_MIOYHmek5qhZWzaYkNvIivUy4=", "properties": {"ref": "009", "@spider": "half_price_books", "shop": "books", "addr:full": "10915 Westheimer Rd, Houston, TX 77042", "addr:street_address": "10915 Westheimer Rd", "addr:city": "Houston", "addr:state": "TX", "addr:postcode": "77042", "name": "HPB Westheimer", "phone": "(281) 558-4968", "website": "https://www.hpb.com/009", "brand": "Half Price Books", "brand:wikidata": "Q5641744", "nsi_id": "halfpricebooks-1bd7b6"}, "geometry": {"type": "Point", "coordinates": [-95.5691118, 29.7347961]}},
{"type": "Feature", "id": "qEOb2UQ1E302mozuyxm74EdchWk=", "properties": {"ref": "056", "@spider": "half_price_books", "shop": "books", "addr:full": "4685 Cypress Creek Pkwy, Houston, TX 77069", "addr:street_address": "4685 Cypress Creek Pkwy", "addr:city": "Houston", "addr:state": "TX", "addr:postcode": "77069", "name": "HPB North Oaks", "phone": "(281) 583-9992", "website": "https://www.hpb.com/056", "brand": "Half Price Books", "brand:wikidata": "Q5641744", "nsi_id": "halfpricebooks-1bd7b6"}, "geometry": {"type": "Point", "coordinates": [-95.4998883, 29.9852363]}},
{"type": "Feature", "id": "fOY8ivHSCM1ncSCf3hwL8WrwxcI=", "properties": {"ref": "006", "@spider": "half_price_books", "shop": "books", "addr:full": "15754 FM 529 Rd, Houston, TX 77095", "addr:street_address": "15754 FM 529 Rd", "addr:city": "Houston", "addr:state": "TX", "addr:postcode": "77095", "name": "HPB Copperfield Plaza", "phone": "(832) 593-9885", "website": "https://www.hpb.com/006", "brand": "Half Price Books", "brand:wikidata": "Q5641744", "nsi_id": "halfpricebooks-1bd7b6"}, "geometry": {"type": "Point", "coordinates": [-95.6477635, 29.8798468]}},
{"type": "Feature", "id": "WyTJQnTV4D2TryUWq72LetsWZGc=", "properties": {"ref": "024", "@spider": "half_price_books", "shop": "books", "addr:full": "961 E NASA Pkwy, Houston, TX 77058", "addr:street_address": "961 E NASA Pkwy", "addr:city": "Houston", "addr:state": "TX", "addr:postcode": "77058", "name": "HPB Clear Lake", "phone": "(281) 335-1283", "website": "https://www.hpb.com/024", "brand": "Half Price Books", "brand:wikidata": "Q5641744", "nsi_id": "halfpricebooks-1bd7b6"}, "geometry": {"type": "Point", "coordinates": [-95.108245, 29.5467188]}},
{"type": "Feature", "id": "VYsQU8CAxzJKGD2jMclqWokvASk=", "properties": {"ref": "043", "@spider": "half_price_books", "shop": "books", "addr:full": "3085 N George Bush Fwy, Garland, TX 75040", "addr:street_address": "3085 N George Bush Fwy", "addr:city": "Garland", "addr:state": "TX", "addr:postcode": "75040", "name": "HPB Garland", "phone": "(972) 276-1401", "website": "https://www.hpb.com/043", "brand": "Half Price Books", "brand:wikidata": "Q5641744", "nsi_id": "halfpricebooks-1bd7b6"}, "geometry": {"type": "Point", "coordinates": [-96.612998, 32.945263]}},
{"type": "Feature", "id": "5WQX2uJyCzCRlpipK9nGJ9gYzwE=", "properties": {"ref": "065", "@spider": "half_price_books", "shop": "books", "addr:full": "3221 Preston Rd, Frisco, TX 75034", "addr:street_address": "3221 Preston Rd", "addr:city": "Frisco", "addr:state": "TX", "addr:postcode": "75034", "name": "HPB Frisco", "phone": "(972) 668-3477", "website": "https://www.hpb.com/065", "brand": "Half Price Books", "brand:wikidata": "Q5641744", "nsi_id": "halfpricebooks-1bd7b6"}, "geometry": {"type": "Point", "coordinates": [-96.8090327, 33.1056474]}},
{"type": "Feature", "id": "OD8Z8K0gPvnqDu6oxesVmjpt8Yk=", "properties": {"ref": "003", "@spider": "half_price_books", "shop": "books", "addr:full": "475 Sherry Ln, Fort Worth, TX 76114", "addr:street_address": "475 Sherry Ln", "addr:city": "Fort Worth", "addr:state": "TX", "addr:postcode": "76114", "name": "HPB Ridgmar/Westover Village", "phone": "(817) 732-4111", "website": "https://www.hpb.com/003", "brand": "Half Price Books", "brand:wikidata": "Q5641744", "nsi_id": "halfpricebooks-1bd7b6"}, "geometry": {"type": "Point", "coordinates": [-97.428899, 32.751775]}},
{"type": "Feature", "id": "wLTMSxGkOs8ioKMnnXFMuaCD5EA=", "properties": {"ref": "033", "@spider": "half_price_books", "shop": "books", "addr:full": "5417 S Hulen St, Fort Worth, TX 76132", "addr:street_address": "5417 S Hulen St", "addr:city": "Fort Worth", "addr:state": "TX", "addr:postcode": "76132", "name": "HPB Hulen", "phone": "(817) 294-1166", "website": "https://www.hpb.com/033", "brand": "Half Price Books", "brand:wikidata": "Q5641744", "nsi_id": "halfpricebooks-1bd7b6"}, "geometry": {"type": "Point", "coordinates": [-97.3998146, 32.6701571]}},
{"type": "Feature", "id": "k_N8GP477YJfRm5y8pPVp4s2Cmk=", "properties": {"ref": "002", "@spider": "half_price_books", "shop": "books", "addr:full": "13388 Preston Rd, Dallas, TX 75240", "addr:street_address": "13388 Preston Rd", "addr:city": "Dallas", "addr:state": "TX", "addr:postcode": "75240", "name": "HPB Preston Village", "phone": "(972) 701-8055", "website": "https://www.hpb.com/002", "brand": "Half Price Books", "brand:wikidata": "Q5641744", "nsi_id": "halfpricebooks-1bd7b6"}, "geometry": {"type": "Point", "coordinates": [-96.8024137, 32.9296605]}},
{"type": "Feature", "id": "VgSCKpYvQadx45QwKTFY5fMPDLg=", "properties": {"ref": "001", "@spider": "half_price_books", "shop": "books", "addr:full": "5803 E Northwest Hwy, Dallas, TX 75231", "addr:street_address": "5803 E Northwest Hwy", "addr:city": "Dallas", "addr:state": "TX", "addr:postcode": "75231", "name": "HPB Flagship", "phone": "(214) 379-8000 ", "website": "https://www.hpb.com/001", "brand": "Half Price Books", "brand:wikidata": "Q5641744", "nsi_id": "halfpricebooks-1bd7b6"}, "geometry": {"type": "Point", "coordinates": [-96.764799, 32.8660983]}},
{"type": "Feature", "id": "14GWeTB6XA73HSeFfj804ISt8AM=", "properties": {"ref": "275", "@spider": "half_price_books", "shop": "books", "addr:full": "Dallas, TX", "addr:city": "Dallas", "addr:state": "TX", "name": "HPB Distribution Center", "website": "https://www.hpb.com/275", "brand": "Half Price Books", "brand:wikidata": "Q5641744", "nsi_id": "halfpricebooks-1bd7b6"}, "geometry": {"type": "Point", "coordinates": [-96.7969879, 32.7766642]}},
{"type": "Feature", "id": "KvTeo5xdIx4nydrT3ENg2Tf53Gs=", "properties": {"ref": "677", "@spider": "half_price_books", "shop": "books", "addr:full": "Dallas, TX", "addr:city": "Dallas", "addr:state": "TX", "name": "HPB Distribution Center", "website": "https://www.hpb.com/677", "brand": "Half Price Books", "brand:wikidata": "Q5641744", "nsi_id": "halfpricebooks-1bd7b6"}, "geometry": {"type": "Point", "coordinates": [-96.7969879, 32.7766642]}},
{"type": "Feature", "id": "epDgyI7EYgjedQ8HSQ6AizHRDvc=", "properties": {"ref": "015", "@spider": "half_price_books", "shop": "books", "addr:full": "5425 S.P.I.D., Corpus Christi, TX 78411", "addr:street_address": "5425 S.P.I.D.", "addr:city": "Corpus Christi", "addr:state": "TX", "addr:postcode": "78411", "name": "HPB Corpus Christi", "phone": "(361) 991-4494", "website": "https://www.hpb.com/015", "brand": "Half Price Books", "brand:wikidata": "Q5641744", "nsi_id": "halfpricebooks-1bd7b6"}, "geometry": {"type": "Point", "coordinates": [-97.3872816, 27.7140919]}},
{"type": "Feature", "id": "kKeqp2NFEVQJv87Q2PwPYiyuEmI=", "properties": {"ref": "021", "@spider": "half_price_books", "shop": "books", "addr:full": "1505 University Dr E, College Station, TX 77840", "addr:street_address": "1505 University Dr E", "addr:city": "College Station", "addr:state": "TX", "addr:postcode": "77840", "name": "HPB College Station", "phone": "(979) 696-2325", "website": "https://www.hpb.com/021", "brand": "Half Price Books", "brand:wikidata": "Q5641744", "nsi_id": "halfpricebooks-1bd7b6"}, "geometry": {"type": "Point", "coordinates": [-96.3163308, 30.6400592]}},
{"type": "Feature", "id": "MeiZ55v5SbIuyPJdUF7qa77lhG8=", "properties": {"ref": "104", "@spider": "half_price_books", "shop": "books", "addr:full": "1335 E Whitestone Blvd, Cedar Park, TX 78613", "addr:street_address": "1335 E Whitestone Blvd", "addr:city": "Cedar Park", "addr:state": "TX", "addr:postcode": "78613", "name": "HPB Cedar Park", "phone": "(512) 259-2851", "website": "https://www.hpb.com/104", "brand": "Half Price Books", "brand:wikidata": "Q5641744", "nsi_id": "halfpricebooks-1bd7b6"}, "geometry": {"type": "Point", "coordinates": [-97.8145472, 30.5271505]}},
{"type": "Feature", "id": "B3Ewv21egS0dqEpUgT4WO33qRVg=", "properties": {"ref": "083", "@spider": "half_price_books", "shop": "books", "addr:full": "711 N Hwy 67, Cedar Hill, TX 75104", "addr:street_address": "711 N Hwy 67", "addr:city": "Cedar Hill", "addr:state": "TX", "addr:postcode": "75104", "name": "HPB Cedar Hill", "phone": "(972) 299-9004", "website": "https://www.hpb.com/083", "brand": "Half Price Books", "brand:wikidata": "Q5641744", "nsi_id": "halfpricebooks-1bd7b6"}, "geometry": {"type": "Point", "coordinates": [-96.9374093, 32.6003351]}},
{"type": "Feature", "id": "eWwM13LtAylMKsZ2DUu_8uNBiW8=", "properties": {"ref": "098", "@spider": "half_price_books", "shop": "books", "addr:full": "12616 South Fwy, Burleson, TX 76028", "addr:street_address": "12616 South Fwy", "addr:city": "Burleson", "addr:state": "TX", "addr:postcode": "76028", "name": "HPB Burleson", "phone": "(817) 295-8560", "website": "https://www.hpb.com/098", "brand": "Half Price Books", "brand:wikidata": "Q5641744", "nsi_id": "halfpricebooks-1bd7b6"}, "geometry": {"type": "Point", "coordinates": [-97.321633, 32.5739702]}},
{"type": "Feature", "id": "opVa5jwZN_UBzcM15i4Jplbr__4=", "properties": {"ref": "012", "@spider": "half_price_books", "shop": "books", "addr:full": "713 Harwood Rd, Bedford, TX 76021", "addr:street_address": "713 Harwood Rd", "addr:city": "Bedford", "addr:state": "TX", "addr:postcode": "76021", "name": "HPB Bedford", "phone": "(817) 581-9888", "website": "https://www.hpb.com/012", "brand": "Half Price Books", "brand:wikidata": "Q5641744", "nsi_id": "halfpricebooks-1bd7b6"}, "geometry": {"type": "Point", "coordinates": [-97.157529, 32.8541541]}},
{"type": "Feature", "id": "8NBzOh2PVkpqIv2J8weFVlFtmFQ=", "properties": {"ref": "118", "@spider": "half_price_books", "shop": "books", "addr:full": "9900 S IH 35, Austin, TX 78748", "addr:street_address": "9900 S IH 35", "addr:city": "Austin", "addr:state": "TX", "addr:postcode": "78748", "name": "HPB Southpark Meadows", "phone": "(512) 280-0668", "website": "https://www.hpb.com/118", "brand": "Half Price Books", "brand:wikidata": "Q5641744", "nsi_id": "halfpricebooks-1bd7b6"}, "geometry": {"type": "Point", "coordinates": [-97.7930385, 30.1562322]}},
{"type": "Feature", "id": "_QDsx2KWwmWGa_QxHRQjfESin3k=", "properties": {"ref": "017", "@spider": "half_price_books", "shop": "books", "addr:full": "2929 S Lamar Blvd, Austin, TX 78704", "addr:street_address": "2929 S Lamar Blvd", "addr:city": "Austin", "addr:state": "TX", "addr:postcode": "78704", "name": "HPB South Lamar", "phone": "(512) 443-3138", "website": "https://www.hpb.com/017", "brand": "Half Price Books", "brand:wikidata": "Q5641744", "nsi_id": "halfpricebooks-1bd7b6"}, "geometry": {"type": "Point", "coordinates": [-97.782507, 30.2426379]}},
{"type": "Feature", "id": "RGVApvCA4fqYJn4v47PLu2dSPWk=", "properties": {"ref": "007", "@spider": "half_price_books", "shop": "books", "addr:full": "2506 W Parmer Ln, Austin, TX 78727", "addr:street_address": "2506 W Parmer Ln", "addr:city": "Austin", "addr:state": "TX", "addr:postcode": "78727", "name": "HPB Parmer Crossing", "phone": "(512) 454-3664", "website": "https://www.hpb.com/007", "brand": "Half Price Books", "brand:wikidata": "Q5641744", "nsi_id": "halfpricebooks-1bd7b6"}, "geometry": {"type": "Point", "coordinates": [-97.7011512, 30.4208827]}},
{"type": "Feature", "id": "Hi-Ffo4JbmoV8sC3Xh6tGb8Tumw=", "properties": {"ref": "005", "@spider": "half_price_books", "shop": "books", "addr:full": "5555 N Lamar Blvd, Austin, TX 78751", "addr:street_address": "5555 N Lamar Blvd", "addr:city": "Austin", "addr:state": "TX", "addr:postcode": "78751", "name": "HPB North Lamar", "phone": "(512) 451-4463", "website": "https://www.hpb.com/005", "brand": "Half Price Books", "brand:wikidata": "Q5641744", "nsi_id": "halfpricebooks-1bd7b6"}, "geometry": {"type": "Point", "coordinates": [-97.7253234, 30.323332]}},
{"type": "Feature", "id": "HFJKCEouyW3CzzN2NnS-OxGgQks=", "properties": {"ref": "057", "@spider": "half_price_books", "shop": "books", "addr:full": "13492 US Hwy 183 N, Austin, TX 78750", "addr:street_address": "13492 US Hwy 183 N", "addr:city": "Austin", "addr:state": "TX", "addr:postcode": "78750", "name": "HPB Anderson Mill", "phone": "(512) 335-5759", "website": "https://www.hpb.com/057", "brand": "Half Price Books", "brand:wikidata": "Q5641744", "nsi_id": "halfpricebooks-1bd7b6"}, "geometry": {"type": "Point", "coordinates": [-97.7921149, 30.4493096]}},
{"type": "Feature", "id": "7-TG8sil8wNoCZXzzF55BEfSdJg=", "properties": {"ref": "018", "@spider": "half_price_books", "shop": "books", "addr:full": "2211 S Cooper St, Arlington, TX 76013", "addr:street_address": "2211 S Cooper St", "addr:city": "Arlington", "addr:state": "TX", "addr:postcode": "76013", "name": "HPB South Arlington", "phone": "(817) 860-5247", "website": "https://www.hpb.com/018", "brand": "Half Price Books", "brand:wikidata": "Q5641744", "nsi_id": "halfpricebooks-1bd7b6"}, "geometry": {"type": "Point", "coordinates": [-97.1165571, 32.7073678]}},
{"type": "Feature", "id": "z9MHv74abf8sZ6VROr8sSqFQvwQ=", "properties": {"ref": "133", "@spider": "half_price_books", "shop": "books", "addr:full": "21 White Bridge Pike, Nashville, TN 37205", "addr:street_address": "21 White Bridge Pike", "addr:city": "Nashville", "addr:state": "TN", "addr:postcode": "37205", "name": "HPB Belle Meade", "phone": "(615) 352-4005", "website": "https://www.hpb.com/133", "brand": "Half Price Books", "brand:wikidata": "Q5641744", "nsi_id": "halfpricebooks-1bd7b6"}, "geometry": {"type": "Point", "coordinates": [-86.853745, 36.128207]}},
{"type": "Feature", "id": "iRo4rk815yHyrlFRPOHJOGLfmlM=", "properties": {"ref": "062", "@spider": "half_price_books", "shop": "books", "addr:full": "4932 McKnight Rd, Pittsburgh, PA 15237", "addr:street_address": "4932 McKnight Rd", "addr:city": "Pittsburgh", "addr:state": "PA", "addr:postcode": "15237", "name": "HPB Ross Township", "phone": "(412) 369-0860", "website": "https://www.hpb.com/062", "brand": "Half Price Books", "brand:wikidata": "Q5641744", "nsi_id": "halfpricebooks-1bd7b6"}, "geometry": {"type": "Point", "coordinates": [-80.0102888, 40.5324671]}},
{"type": "Feature", "id": "MLXIAt7H8I_I4-qoxx9dGILCDQs=", "properties": {"ref": "061", "@spider": "half_price_books", "shop": "books", "addr:full": "3757 William Penn Hwy, Monroeville, PA 15146", "addr:street_address": "3757 William Penn Hwy", "addr:city": "Monroeville", "addr:state": "PA", "addr:postcode": "15146", "name": "HPB Monroeville", "phone": "(412) 856-1949", "website": "https://www.hpb.com/061", "brand": "Half Price Books", "brand:wikidata": "Q5641744", "nsi_id": "halfpricebooks-1bd7b6"}, "geometry": {"type": "Point", "coordinates": [-79.7860857, 40.4375371]}},
{"type": "Feature", "id": "J0Jky79O7LHw1X_GrMkcu6tRSvg=", "properties": {"ref": "066", "@spider": "half_price_books", "shop": "books", "addr:full": "4000 Oxford Dr, Bethel Park, PA 15102", "addr:street_address": "4000 Oxford Dr", "addr:city": "Bethel Park", "addr:state": "PA", "addr:postcode": "15102", "name": "HPB Bethel Park", "phone": "(412) 835-3116", "website": "https://www.hpb.com/066", "brand": "Half Price Books", "brand:wikidata": "Q5641744", "nsi_id": "halfpricebooks-1bd7b6"}, "geometry": {"type": "Point", "coordinates": [-80.0509956, 40.3465018]}},
{"type": "Feature", "id": "9-5q0LlKqaZZHEDbFfArzQVOQt8=", "properties": {"ref": "110", "@spider": "half_price_books", "shop": "books", "addr:full": "1449 W I-240 Service Rd, Oklahoma City, OK 73159", "addr:street_address": "1449 W I-240 Service Rd", "addr:city": "Oklahoma City", "addr:state": "OK", "addr:postcode": "73159", "name": "HPB Penn Park", "phone": "(405) 680-8730", "website": "https://www.hpb.com/110", "brand": "Half Price Books", "brand:wikidata": "Q5641744", "nsi_id": "halfpricebooks-1bd7b6"}, "geometry": {"type": "Point", "coordinates": [-97.5412067, 35.3930548]}},
{"type": "Feature", "id": "F8lafhX5HxY2-nRDS6XSHpkYPGo=", "properties": {"ref": "105", "@spider": "half_price_books", "shop": "books", "addr:full": "6500 N May Ave, Oklahoma City, OK 73116", "addr:street_address": "6500 N May Ave", "addr:city": "Oklahoma City", "addr:state": "OK", "addr:postcode": "73116", "name": "HPB Country Club Corner", "phone": "(405) 843-5837", "website": "https://www.hpb.com/105", "brand": "Half Price Books", "brand:wikidata": "Q5641744", "nsi_id": "halfpricebooks-1bd7b6"}, "geometry": {"type": "Point", "coordinates": [-97.5650363, 35.5378219]}},
{"type": "Feature", "id": "_E-OHMw-EJuxWHBCt7DZDjljP2A=", "properties": {"ref": "114", "@spider": "half_price_books", "shop": "books", "addr:full": "1159 E 2nd St, Edmond, OK 73034", "addr:street_address": "1159 E 2nd St", "addr:city": "Edmond", "addr:state": "OK", "addr:postcode": "73034", "name": "HPB Edmond", "phone": "(405) 359-2934", "website": "https://www.hpb.com/114", "brand": "Half Price Books", "brand:wikidata": "Q5641744", "nsi_id": "halfpricebooks-1bd7b6"}, "geometry": {"type": "Point", "coordinates": [-97.464886, 35.6540541]}},
{"type": "Feature", "id": "xS5Z31Lk7v3WvVgbjHp7OZBIpCI=", "properties": {"ref": "091", "@spider": "half_price_books", "shop": "books", "addr:full": "561 S State St, Westerville, OH 43081", "addr:street_address": "561 S State St", "addr:city": "Westerville", "addr:state": "OH", "addr:postcode": "43081", "name": "HPB Westerville", "phone": "(614) 776-5551", "website": "https://www.hpb.com/091", "brand": "Half Price Books", "brand:wikidata": "Q5641744", "nsi_id": "halfpricebooks-1bd7b6"}, "geometry": {"type": "Point", "coordinates": [-82.9273896, 40.1113861]}},
{"type": "Feature", "id": "UYePfMkb9NBvVRrhog0u4faBrmI=", "properties": {"ref": "019", "@spider": "half_price_books", "shop": "books", "addr:full": "8107 E Broad St, Reynoldsburg, OH 43068", "addr:street_address": "8107 E Broad St", "addr:city": "Reynoldsburg", "addr:state": "OH", "addr:postcode": "43068", "name": "HPB Reynoldsburg", "phone": "(614) 755-4110", "website": "https://www.hpb.com/019", "brand": "Half Price Books", "brand:wikidata": "Q5641744", "nsi_id": "halfpricebooks-1bd7b6"}, "geometry": {"type": "Point", "coordinates": [-82.7849096, 39.9859358]}},
{"type": "Feature", "id": "OfGokRN7mcj7GStAz4TTnBAhTZg=", "properties": {"ref": "077", "@spider": "half_price_books", "shop": "books", "addr:full": "4687 Great Northern Blvd, North Olmsted, OH 44070", "addr:street_address": "4687 Great Northern Blvd", "addr:city": "North Olmsted", "addr:state": "OH", "addr:postcode": "44070", "name": "HPB North Olmsted", "phone": "(440) 777-6807", "website": "https://www.hpb.com/077", "brand": "Half Price Books", "brand:wikidata": "Q5641744", "nsi_id": "halfpricebooks-1bd7b6"}, "geometry": {"type": "Point", "coordinates": [-81.9011437, 41.4213771]}},
{"type": "Feature", "id": "iGQJ87CKczN6YHmN1ZXL49iZ7tE=", "properties": {"ref": "050", "@spider": "half_price_books", "shop": "books", "addr:full": "1607 Golden Gate Plaza, Mayfield Heights, OH 44124", "addr:street_address": "1607 Golden Gate Plaza", "addr:city": "Mayfield Heights", "addr:state": "OH", "addr:postcode": "44124", "name": "HPB Mayfield Heights", "phone": "(440) 461-9222", "website": "https://www.hpb.com/050", "brand": "Half Price Books", "brand:wikidata": "Q5641744", "nsi_id": "halfpricebooks-1bd7b6"}, "geometry": {"type": "Point", "coordinates": [-81.4497091, 41.5195501]}},
{"type": "Feature", "id": "MMr-Bf9ujq_SAHQgrnnzx9WNVFA=", "properties": {"ref": "082", "@spider": "half_price_books", "shop": "books", "addr:full": "8211 Arbor Square Dr, Mason, OH 45040", "addr:street_address": "8211 Arbor Square Dr", "addr:city": "Mason", "addr:state": "OH", "addr:postcode": "45040", "name": "HPB Mason", "phone": "(513) 770-4390", "website": "https://www.hpb.com/082", "brand": "Half Price Books", "brand:wikidata": "Q5641744", "nsi_id": "halfpricebooks-1bd7b6"}, "geometry": {"type": "Point", "coordinates": [-84.3140771, 39.3190777]}},
{"type": "Feature", "id": "b1c81okXm_aiZiAwkem0sXFTs88=", "properties": {"ref": "121", "@spider": "half_price_books", "shop": "books", "addr:full": "100 Meadow Park Ave, Lewis Center, OH 43035", "addr:street_address": "100 Meadow Park Ave", "addr:city": "Lewis Center", "addr:state": "OH", "addr:postcode": "43035", "name": "HPB NorthPointe Plaza", "phone": "(740) 548-1290", "website": "https://www.hpb.com/121", "brand": "Half Price Books", "brand:wikidata": "Q5641744", "nsi_id": "halfpricebooks-1bd7b6"}, "geometry": {"type": "Point", "coordinates": [-83.0162645, 40.1636144]}},
{"type": "Feature", "id": "dkwNr6EC988hkdFJoyF4f13ZAXc=", "properties": {"ref": "032", "@spider": "half_price_books", "shop": "books", "addr:full": "3185 Princeton Rd, Hamilton, OH 45011", "addr:street_address": "3185 Princeton Rd", "addr:city": "Hamilton", "addr:state": "OH", "addr:postcode": "45011", "name": "HPB Hamilton", "phone": "(513) 772-1511", "website": "https://www.hpb.com/032", "brand": "Half Price Books", "brand:wikidata": "Q5641744", "nsi_id": "halfpricebooks-1bd7b6"}, "geometry": {"type": "Point", "coordinates": [-84.5088272, 39.3905189]}},
{"type": "Feature", "id": "evJ7mtp-Ipd79apP2LFpGY6mdvc=", "properties": {"ref": "052", "@spider": "half_price_books", "shop": "books", "addr:full": "1375 W Lane Ave, Columbus, OH 43221", "addr:street_address": "1375 W Lane Ave", "addr:city": "Columbus", "addr:state": "OH", "addr:postcode": "43221", "name": "HPB West Lane Avenue ", "phone": "(614) 486-8765", "website": "https://www.hpb.com/052", "brand": "Half Price Books", "brand:wikidata": "Q5641744", "nsi_id": "halfpricebooks-1bd7b6"}, "geometry": {"type": "Point", "coordinates": [-83.0470752, 40.0065824]}},
{"type": "Feature", "id": "muxjwCrqWuO3vcWxgtEHftRQ3Zw=", "properties": {"ref": "690", "@spider": "half_price_books", "shop": "books", "addr:full": "Columbus, OH", "addr:city": "Columbus", "addr:state": "OH", "name": "HPB Distribution Center", "website": "https://www.hpb.com/690", "brand": "Half Price Books", "brand:wikidata": "Q5641744", "nsi_id": "halfpricebooks-1bd7b6"}, "geometry": {"type": "Point", "coordinates": [-82.9987942, 39.9611755]}},
{"type": "Feature", "id": "6CJE4uoGOCmI4Yugwy93quRTCHE=", "properties": {"ref": "290", "@spider": "half_price_books", "shop": "books", "addr:full": "Columbus, OH", "addr:city": "Columbus", "addr:state": "OH", "name": "HPB Distribution Center", "website": "https://www.hpb.com/290", "brand": "Half Price Books", "brand:wikidata": "Q5641744", "nsi_id": "halfpricebooks-1bd7b6"}, "geometry": {"type": "Point", "coordinates": [-82.9987942, 39.9611755]}},
{"type": "Feature", "id": "-9bc0hXCnSL9GI_aLb9d0q5GeO0=", "properties": {"ref": "040", "@spider": "half_price_books", "shop": "books", "addr:full": "2642 Bethel Rd, Columbus, OH 43220", "addr:street_address": "2642 Bethel Rd", "addr:city": "Columbus", "addr:state": "OH", "addr:postcode": "43220", "name": "HPB Carriage Place", "phone": "(614) 457-6333", "website": "https://www.hpb.com/040", "brand": "Half Price Books", "brand:wikidata": "Q5641744", "nsi_id": "halfpricebooks-1bd7b6"}, "geometry": {"type": "Point", "coordinates": [-83.0885829, 40.0669868]}},
{"type": "Feature", "id": "lvbOU-zDWWbVwP28s_6D5w6IrqM=", "properties": {"ref": "080", "@spider": "half_price_books", "shop": "books", "addr:full": "9720 Colerain Ave, Cincinnati, OH 45251", "addr:street_address": "9720 Colerain Ave", "addr:city": "Cincinnati", "addr:state": "OH", "addr:postcode": "45251", "name": "HPB Northgate", "phone": "(513) 385-4100", "website": "https://www.hpb.com/080", "brand": "Half Price Books", "brand:wikidata": "Q5641744", "nsi_id": "halfpricebooks-1bd7b6"}, "geometry": {"type": "Point", "coordinates": [-84.5965042, 39.2480701]}},
{"type": "Feature", "id": "FlBn-1uzDNsr4mRtxH7yVtJQvdw=", "properties": {"ref": "045", "@spider": "half_price_books", "shop": "books", "addr:full": "8118 Montgomery Rd, Cincinnati, OH 45236", "addr:street_address": "8118 Montgomery Rd", "addr:city": "Cincinnati", "addr:state": "OH", "addr:postcode": "45236", "name": "HPB Kenwood Galleria", "phone": "(513) 891-7170", "website": "https://www.hpb.com/045", "brand": "Half Price Books", "brand:wikidata": "Q5641744", "nsi_id": "halfpricebooks-1bd7b6"}, "geometry": {"type": "Point", "coordinates": [-84.3690051, 39.2035046]}},
{"type": "Feature", "id": "buHGTmOeHtrD5uexSCUMk_855do=", "properties": {"ref": "129", "@spider": "half_price_books", "shop": "books", "addr:full": "454 Ohio Pike, Cincinnati, OH 45255", "addr:street_address": "454 Ohio Pike", "addr:city": "Cincinnati", "addr:state": "OH", "addr:postcode": "45255", "name": "HPB Beechmont", "phone": "(513) 528-0427", "website": "https://www.hpb.com/129", "brand": "Half Price Books", "brand:wikidata": "Q5641744", "nsi_id": "halfpricebooks-1bd7b6"}, "geometry": {"type": "Point", "coordinates": [-84.3119258, 39.072916]}},
{"type": "Feature", "id": "N6yrjazLxaQQSoTgLkjvcM8Aliw=", "properties": {"ref": "030", "@spider": "half_price_books", "shop": "books", "addr:full": "3310 Pentagon Blvd, Beavercreek, OH 45431", "addr:street_address": "3310 Pentagon Blvd", "addr:city": "Beavercreek", "addr:state": "OH", "addr:postcode": "45431", "name": "HPB Beavercreek", "phone": "(937) 431-1820", "website": "https://www.hpb.com/030", "brand": "Half Price Books", "brand:wikidata": "Q5641744", "nsi_id": "halfpricebooks-1bd7b6"}, "geometry": {"type": "Point", "coordinates": [-84.0537704, 39.7722867]}},
{"type": "Feature", "id": "YZ8KYTDLLAZr0OiA1xsXWA5DuJw=", "properties": {"ref": "099", "@spider": "half_price_books", "shop": "books", "addr:full": "12355 W Center Rd, Omaha, NE 68144", "addr:street_address": "12355 W Center Rd", "addr:city": "Omaha", "addr:state": "NE", "addr:postcode": "68144", "name": "HPB Omaha", "phone": "(402) 330-0640", "website": "https://www.hpb.com/099", "brand": "Half Price Books", "brand:wikidata": "Q5641744", "nsi_id": "halfpricebooks-1bd7b6"}, "geometry": {"type": "Point", "coordinates": [-96.1068648, 41.2333876]}},
{"type": "Feature", "id": "7zZRAlOOAH5huLIjFwqcaaFV3oM=", "properties": {"ref": "123", "@spider": "half_price_books", "shop": "books", "addr:full": "630 N McKnight Rd, St Louis, MO 63132", "addr:street_address": "630 N McKnight Rd", "addr:city": "St Louis", "addr:state": "MO", "addr:postcode": "63132", "name": "HPB U City", "phone": "(314) 991-6793", "website": "https://www.hpb.com/123", "brand": "Half Price Books", "brand:wikidata": "Q5641744", "nsi_id": "halfpricebooks-1bd7b6"}, "geometry": {"type": "Point", "coordinates": [-90.3571059, 38.6611903]}},
{"type": "Feature", "id": "I-kyoGUi6h3I0T3AweZroLV40k8=", "properties": {"ref": "127", "@spider": "half_price_books", "shop": "books", "addr:full": "2107 Zumbehl Rd, St Charles, MO 63303", "addr:street_address": "2107 Zumbehl Rd", "addr:city": "St Charles", "addr:state": "MO", "addr:postcode": "63303", "name": "HPB St Charles", "phone": "(636) 724-1005", "website": "https://www.hpb.com/127", "brand": "Half Price Books", "brand:wikidata": "Q5641744", "nsi_id": "halfpricebooks-1bd7b6"}, "geometry": {"type": "Point", "coordinates": [-90.5355995, 38.7839224]}},
{"type": "Feature", "id": "h7Io9dL1GEMPdxEzyOewxHiDwvw=", "properties": {"ref": "084", "@spider": "half_price_books", "shop": "books", "addr:full": "1002 Westport Rd, Kansas City, MO 64111", "addr:street_address": "1002 Westport Rd", "addr:city": "Kansas City", "addr:state": "MO", "addr:postcode": "64111", "name": "HPB Kansas City", "phone": "(816) 931-5377", "website": "https://www.hpb.com/084", "brand": "Half Price Books", "brand:wikidata": "Q5641744", "nsi_id": "halfpricebooks-1bd7b6"}, "geometry": {"type": "Point", "coordinates": [-94.5991441, 39.0511008]}},
{"type": "Feature", "id": "odwIlbU50ta2cpEpEnPR_DoV7gk=", "properties": {"ref": "078", "@spider": "half_price_books", "shop": "books", "addr:full": "20000 E Jackson Dr, Independence, MO 64057", "addr:street_address": "20000 E Jackson Dr", "addr:city": "Independence", "addr:state": "MO", "addr:postcode": "64057", "name": "HPB Independence", "phone": "(816) 795-7558", "website": "https://www.hpb.com/078", "brand": "Half Price Books", "brand:wikidata": "Q5641744", "nsi_id": "halfpricebooks-1bd7b6"}, "geometry": {"type": "Point", "coordinates": [-94.3446614, 39.0425002]}},
{"type": "Feature", "id": "qvZ2FuUhEszQ9rLhAuxy2DRRNSE=", "properties": {"ref": "120", "@spider": "half_price_books", "shop": "books", "addr:full": "1664 Clarkson Rd, Chesterfield, MO 63017", "addr:street_address": "1664 Clarkson Rd", "addr:city": "Chesterfield", "addr:state": "MO", "addr:postcode": "63017", "name": "HPB Chesterfield", "phone": "(636) 536-3925", "website": "https://www.hpb.com/120", "brand": "Half Price Books", "brand:wikidata": "Q5641744", "nsi_id": "halfpricebooks-1bd7b6"}, "geometry": {"type": "Point", "coordinates": [-90.5646795, 38.6433482]}},
{"type": "Feature", "id": "RBcis3m00Rs9Hp-EFBBc9twUoNg=", "properties": {"ref": "023", "@spider": "half_price_books", "shop": "books", "addr:full": "2041 Ford Pkwy, St Paul, MN 55116", "addr:street_address": "2041 Ford Pkwy", "addr:city": "St Paul", "addr:state": "MN", "addr:postcode": "55116", "name": "HPB St Paul", "phone": "(651) 699-1391", "website": "https://www.hpb.com/023", "brand": "Half Price Books", "brand:wikidata": "Q5641744", "nsi_id": "halfpricebooks-1bd7b6"}, "geometry": {"type": "Point", "coordinates": [-93.1865522, 44.9182299]}},
{"type": "Feature", "id": "SBILeRJ3JItad0CkJNs3TmyZJJM=", "properties": {"ref": "026", "@spider": "half_price_books", "shop": "books", "addr:full": "5017 Excelsior Blvd, St. Louis Park, MN 55416", "addr:street_address": "5017 Excelsior Blvd", "addr:city": "St. Louis Park", "addr:state": "MN", "addr:postcode": "55416", "name": "HPB St Louis Park", "phone": "(952) 922-2414", "website": "https://www.hpb.com/026", "brand": "Half Price Books", "brand:wikidata": "Q5641744", "nsi_id": "halfpricebooks-1bd7b6"}, "geometry": {"type": "Point", "coordinates": [-93.3457204, 44.9309394]}},
{"type": "Feature", "id": "CN58MVhipYg7qYmoqS2Lf-3m8lU=", "properties": {"ref": "096", "@spider": "half_price_books", "shop": "books", "addr:full": "2481 Fairview Ave N, Roseville, MN 55113", "addr:street_address": "2481 Fairview Ave N", "addr:city": "Roseville", "addr:state": "MN", "addr:postcode": "55113", "name": "HPB Roseville", "phone": "(651) 631-2626", "website": "https://www.hpb.com/096", "brand": "Half Price Books", "brand:wikidata": "Q5641744", "nsi_id": "halfpricebooks-1bd7b6"}, "geometry": {"type": "Point", "coordinates": [-93.1779201, 45.0157405]}},
{"type": "Feature", "id": "LfGF84OpjXb9_gBTF5148VMHH0c=", "properties": {"ref": "036", "@spider": "half_price_books", "shop": "books", "addr:full": "2982 White Bear Ave N, Maplewood, MN 55109", "addr:street_address": "2982 White Bear Ave N", "addr:city": "Maplewood", "addr:state": "MN", "addr:postcode": "55109", "name": "HPB Maplewood", "phone": "(651) 773-0631", "website": "https://www.hpb.com/036", "brand": "Half Price Books", "brand:wikidata": "Q5641744", "nsi_id": "halfpricebooks-1bd7b6"}, "geometry": {"type": "Point", "coordinates": [-93.016027, 45.031261]}},
{"type": "Feature", "id": "tJWcW34D7t6GQ9qGzNmfRhkzwNc=", "properties": {"ref": "068", "@spider": "half_price_books", "shop": "books", "addr:full": "8601 Springbrook Dr NW, Coon Rapids, MN 55433", "addr:street_address": "8601 Springbrook Dr NW", "addr:city": "Coon Rapids", "addr:state": "MN", "addr:postcode": "55433", "name": "HPB Coon Rapids", "phone": "(763) 784-1500", "website": "https://www.hpb.com/068", "brand": "Half Price Books", "brand:wikidata": "Q5641744", "nsi_id": "halfpricebooks-1bd7b6"}, "geometry": {"type": "Point", "coordinates": [-93.2664967, 45.1261465]}},
{"type": "Feature", "id": "zvqy3MVBm_zQS5JIrwBW28DnCQc=", "properties": {"ref": "053", "@spider": "half_price_books", "shop": "books", "addr:full": "7600 W 150th St, Apple Valley, MN 55124", "addr:street_address": "7600 W 150th St", "addr:city": "Apple Valley", "addr:state": "MN", "addr:postcode": "55124", "name": "HPB Apple Valley", "phone": "(952) 431-0749", "website": "https://www.hpb.com/053", "brand": "Half Price Books", "brand:wikidata": "Q5641744", "nsi_id": "halfpricebooks-1bd7b6"}, "geometry": {"type": "Point", "coordinates": [-93.2207191, 44.7306481]}},
{"type": "Feature", "id": "c0rwUClc4_0PFWmQOkJBqeC1irU=", "properties": {"ref": "097", "@spider": "half_price_books", "shop": "books", "addr:full": "10220 Westport Rd, Louisville, KY 40241", "addr:street_address": "10220 Westport Rd", "addr:city": "Louisville", "addr:state": "KY", "addr:postcode": "40241", "name": "HPB Springhurst", "phone": "(502) 326-8585", "website": "https://www.hpb.com/097", "brand": "Half Price Books", "brand:wikidata": "Q5641744", "nsi_id": "halfpricebooks-1bd7b6"}, "geometry": {"type": "Point", "coordinates": [-85.5603076, 38.2920408]}},
{"type": "Feature", "id": "w2ELN8Yk3KkFU55N52W6XZJ9QPE=", "properties": {"ref": "013", "@spider": "half_price_books", "shop": "books", "addr:full": "2025 S Hurstbourne Pkwy, Louisville, KY 40220", "addr:street_address": "2025 S Hurstbourne Pkwy", "addr:city": "Louisville", "addr:state": "KY", "addr:postcode": "40220", "name": "HPB Hurstbourne", "phone": "(502) 491-4310", "website": "https://www.hpb.com/013", "brand": "Half Price Books", "brand:wikidata": "Q5641744", "nsi_id": "halfpricebooks-1bd7b6"}, "geometry": {"type": "Point", "coordinates": [-85.587135, 38.2166486]}},
{"type": "Feature", "id": "4U_dOiBAuKq-_nMf4n2T7HRQp9Q=", "properties": {"ref": "128", "@spider": "half_price_books", "shop": "books", "addr:full": "701 N Milwaukee Ave, Vernon Hills, IL 60061", "addr:street_address": "701 N Milwaukee Ave", "addr:city": "Vernon Hills", "addr:state": "IL", "addr:postcode": "60061", "name": "HPB Vernon Hills", "phone": "(847) 573-1947", "website": "https://www.hpb.com/128", "brand": "Half Price Books", "brand:wikidata": "Q5641744", "nsi_id": "halfpricebooks-1bd7b6"}, "geometry": {"type": "Point", "coordinates": [-87.9433895, 42.2400002]}},
{"type": "Feature", "id": "ejpy3Ri6C0jpEBb6e75_SlBlUKk=", "properties": {"ref": "119", "@spider": "half_price_books", "shop": "books", "addr:full": "1075 E Golf Rd, Schaumburg, IL 60173", "addr:street_address": "1075 E Golf Rd", "addr:city": "Schaumburg", "addr:state": "IL", "addr:postcode": "60173", "name": "HPB Schaumburg", "phone": "(847) 995-0240", "website": "https://www.hpb.com/119", "brand": "Half Price Books", "brand:wikidata": "Q5641744", "nsi_id": "halfpricebooks-1bd7b6"}, "geometry": {"type": "Point", "coordinates": [-88.0525781, 42.048941]}},
{"type": "Feature", "id": "zTR4LqzYWH7sqGEomZv73MUdxZs=", "properties": {"ref": "222", "@spider": "half_price_books", "shop": "books", "addr:full": "6669 E State St, Rockford, IL 61108", "addr:street_address": "6669 E State St", "addr:city": "Rockford", "addr:state": "IL", "addr:postcode": "61108", "name": "HPB Rockford Outlet", "phone": "(815) 484-9990", "website": "https://www.hpb.com/222", "brand": "Half Price Books", "brand:wikidata": "Q5641744", "nsi_id": "halfpricebooks-1bd7b6"}, "geometry": {"type": "Point", "coordinates": [-88.9883371, 42.2678599]}},
{"type": "Feature", "id": "ebOXAVQmzN_G0Drq41l3ViTUV-w=", "properties": {"ref": "108", "@spider": "half_price_books", "shop": "books", "addr:full": "31 Orland Square Dr, Orland Park, IL 60462", "addr:street_address": "31 Orland Square Dr", "addr:city": "Orland Park", "addr:state": "IL", "addr:postcode": "60462", "name": "HPB Orland Park", "phone": "(708) 403-4589", "website": "https://www.hpb.com/108", "brand": "Half Price Books", "brand:wikidata": "Q5641744", "nsi_id": "halfpricebooks-1bd7b6"}, "geometry": {"type": "Point", "coordinates": [-87.848474, 41.6199376]}},
{"type": "Feature", "id": "ISwkNV1D2Wl7d7PGRhr-Ap5N6E4=", "properties": {"ref": "087", "@spider": "half_price_books", "shop": "books", "addr:full": "5605 W Touhy Ave, Niles, IL 60714", "addr:street_address": "5605 W Touhy Ave", "addr:city": "Niles", "addr:state": "IL", "addr:postcode": "60714", "name": "HPB Niles", "phone": "(847) 588-2286", "website": "https://www.hpb.com/087", "brand": "Half Price Books", "brand:wikidata": "Q5641744", "nsi_id": "halfpricebooks-1bd7b6"}, "geometry": {"type": "Point", "coordinates": [-87.7676025, 42.0118833]}},
{"type": "Feature", "id": "57pQiBs7lDEfy7eFox40n8BXMM4=", "properties": {"ref": "115", "@spider": "half_price_books", "shop": "books", "addr:full": "2867 95th St, Naperville, IL 60564", "addr:street_address": "2867 95th St", "addr:city": "Naperville", "addr:state": "IL", "addr:postcode": "60564", "name": "HPB Naperville", "phone": "(630) 428-2877", "website": "https://www.hpb.com/115", "brand": "Half Price Books", "brand:wikidata": "Q5641744", "nsi_id": "halfpricebooks-1bd7b6"}, "geometry": {"type": "Point", "coordinates": [-88.2042531, 41.7098367]}},
{"type": "Feature", "id": "Tz4z-_HOGfAUVUGV_aWimITrjeQ=", "properties": {"ref": "124", "@spider": "half_price_books", "shop": "books", "addr:full": "1328 Butterfield Rd, Downers Grove, IL 60515", "addr:street_address": "1328 Butterfield Rd", "addr:city": "Downers Grove", "addr:state": "IL", "addr:postcode": "60515", "name": "HPB Downers Grove", "phone": "(630) 705-0970", "website": "https://www.hpb.com/124", "brand": "Half Price Books", "brand:wikidata": "Q5641744", "nsi_id": "halfpricebooks-1bd7b6"}, "geometry": {"type": "Point", "coordinates": [-88.0169257, 41.8358135]}},
{"type": "Feature", "id": "mbVu7nr1hlSZDLLqQYUp69OEHp4=", "properties": {"ref": "094", "@spider": "half_price_books", "shop": "books", "addr:full": "14 Countryside Plaza, Countryside, IL 60525", "addr:street_address": "14 Countryside Plaza", "addr:city": "Countryside", "addr:state": "IL", "addr:postcode": "60525", "name": "HPB Countryside", "phone": "(708) 579-1770", "website": "https://www.hpb.com/094", "brand": "Half Price Books", "brand:wikidata": "Q5641744", "nsi_id": "halfpricebooks-1bd7b6"}, "geometry": {"type": "Point", "coordinates": [-87.8717089, 41.7837916]}},
{"type": "Feature", "id": "3nLwiKAszkhmtWqNDUDKbm8vqYs=", "properties": {"ref": "090", "@spider": "half_price_books", "shop": "books", "addr:full": "366 W Army Trail Rd, Bloomingdale, IL 60108", "addr:street_address": "366 W Army Trail Rd", "addr:city": "Bloomingdale", "addr:state": "IL", "addr:postcode": "60108", "name": "HPB Bloomingdale", "phone": "(630) 893-8907", "website": "https://www.hpb.com/090", "brand": "Half Price Books", "brand:wikidata": "Q5641744", "nsi_id": "halfpricebooks-1bd7b6"}, "geometry": {"type": "Point", "coordinates": [-88.1120095, 41.9390559]}},
{"type": "Feature", "id": "Gjy3-9d0cSueyxV08owDxltblwU=", "properties": {"ref": "117", "@spider": "half_price_books", "shop": "books", "addr:full": "2226 S Randall Rd, Algonquin, IL 60102", "addr:street_address": "2226 S Randall Rd", "addr:city": "Algonquin", "addr:state": "IL", "addr:postcode": "60102", "name": "HPB Algonquin", "phone": "(847) 458-2669", "website": "https://www.hpb.com/117", "brand": "Half Price Books", "brand:wikidata": "Q5641744", "nsi_id": "halfpricebooks-1bd7b6"}, "geometry": {"type": "Point", "coordinates": [-88.3370692, 42.1475256]}},
{"type": "Feature", "id": "Bi6XR9OAPgEVBzZfHrA0GXL8Ezs=", "properties": {"ref": "132", "@spider": "half_price_books", "shop": "books", "addr:full": "3677 E. Fairview Ave., Meridian, ID 83642", "addr:street_address": "3677 E. Fairview Ave.", "addr:city": "Meridian", "addr:state": "ID", "addr:postcode": "83642", "name": "HPB Meridian Crossroads", "phone": "(208) 846-8997", "website": "https://www.hpb.com/132", "brand": "Half Price Books", "brand:wikidata": "Q5641744", "nsi_id": "halfpricebooks-1bd7b6"}, "geometry": {"type": "Point", "coordinates": [-116.3483086, 43.6179107]}},
{"type": "Feature", "id": "Usc-q3jDB2gsMLPs5cb34ai6daU=", "properties": {"ref": "126", "@spider": "half_price_books", "shop": "books", "addr:full": "1205 Johnson Ferry Rd, Marietta, GA 30068", "addr:street_address": "1205 Johnson Ferry Rd", "addr:city": "Marietta", "addr:state": "GA", "addr:postcode": "30068", "name": "HPB East Cobb", "phone": "(770) 565-3337", "website": "https://www.hpb.com/126", "brand": "Half Price Books", "brand:wikidata": "Q5641744", "nsi_id": "halfpricebooks-1bd7b6"}, "geometry": {"type": "Point", "coordinates": [-84.4190302, 33.9769833]}},
{"type": "Feature", "id": "qzkF_0imyvurhmYqtlAvVmnSy-I=", "properties": {"ref": "125", "@spider": "half_price_books", "shop": "books", "addr:full": "2615 N Decatur Rd, Decatur, GA 30033", "addr:street_address": "2615 N Decatur Rd", "addr:city": "Decatur", "addr:state": "GA", "addr:postcode": "30033", "name": "HPB Decatur", "phone": "(404) 377-4593", "website": "https://www.hpb.com/125", "brand": "Half Price Books", "brand:wikidata": "Q5641744", "nsi_id": "halfpricebooks-1bd7b6"}, "geometry": {"type": "Point", "coordinates": [-84.2860766, 33.7921765]}},
{"type": "Feature", "id": "_65RkESr-AwC_1hQmg6CbLf3HDc=", "properties": {"ref": "055", "@spider": "half_price_books", "shop": "books", "addr:full": "39152 Fremont Hub, Fremont, CA 94538", "addr:street_address": "39152 Fremont Hub", "addr:city": "Fremont", "addr:state": "CA", "addr:postcode": "94538", "name": "HPB Fremont", "phone": "(510) 744-0333", "website": "https://www.hpb.com/055", "brand": "Half Price Books", "brand:wikidata": "Q5641744", "nsi_id": "halfpricebooks-1bd7b6"}, "geometry": {"type": "Point", "coordinates": [-121.9886789, 37.5443243]}},
{"type": "Feature", "id": "bJVZLImIUzrPG0p1XPwi-RyJB_s=", "properties": {"ref": "112", "@spider": "half_price_books", "shop": "books", "addr:full": "7898 Dublin Blvd, Dublin, CA 94568", "addr:street_address": "7898 Dublin Blvd", "addr:city": "Dublin", "addr:state": "CA", "addr:postcode": "94568", "name": "HPB Dublin", "phone": "(925) 875-1942", "website": "https://www.hpb.com/112", "brand": "Half Price Books", "brand:wikidata": "Q5641744", "nsi_id": "halfpricebooks-1bd7b6"}, "geometry": {"type": "Point", "coordinates": [-121.9326652, 37.701743]}},
{"type": "Feature", "id": "vjVgavv-cnR2RxMK8lCorZC0P5Y=", "properties": {"ref": "067", "@spider": "half_price_books", "shop": "books", "addr:full": "1975 Diamond Blvd., Ste B-180, Concord, CA 94520", "addr:street_address": "1975 Diamond Blvd., Ste B-180", "addr:city": "Concord", "addr:state": "CA", "addr:postcode": "94520", "name": "HPB Concord at The Willows ", "phone": "(925) 288-9060", "website": "https://www.hpb.com/067", "brand": "Half Price Books", "brand:wikidata": "Q5641744", "nsi_id": "halfpricebooks-1bd7b6"}, "geometry": {"type": "Point", "coordinates": [-122.0565247, 37.9686443]}},
{"type": "Feature", "id": "zrLMZ85gvrIlm75pp1LJq8FNPwU=", "properties": {"ref": "122", "@spider": "half_price_books", "shop": "books", "addr:full": "7975 Greenback Ln, Citrus Heights, CA 95610", "addr:street_address": "7975 Greenback Ln", "addr:city": "Citrus Heights", "addr:state": "CA", "addr:postcode": "95610", "name": "HPB Citrus Heights", "phone": "(916) 722-1101", "website": "https://www.hpb.com/122", "brand": "Half Price Books", "brand:wikidata": "Q5641744", "nsi_id": "halfpricebooks-1bd7b6"}, "geometry": {"type": "Point", "coordinates": [-121.2686123, 38.679602]}},
{"type": "Feature", "id": "WSAnh-WXHTPyRT9gXqKnXB7eJlk=", "properties": {"ref": "037", "@spider": "half_price_books", "shop": "books", "addr:full": "2036 Shattuck Ave, Berkeley, CA 94704", "addr:street_address": "2036 Shattuck Ave", "addr:city": "Berkeley", "addr:state": "CA", "addr:postcode": "94704", "name": "HPB Berkeley", "phone": "(510) 526-6080", "website": "https://www.hpb.com/037", "brand": "Half Price Books", "brand:wikidata": "Q5641744", "nsi_id": "halfpricebooks-1bd7b6"}, "geometry": {"type": "Point", "coordinates": [-122.268705, 37.871272]}},
{"type": "Feature", "id": "rip9y0ssHbIi3xUG2i5q_uwpapI=", "properties": {"ref": "072", "@spider": "half_price_books", "shop": "books", "addr:full": "4322 E Cactus Rd, Phoenix, AZ 85032", "addr:street_address": "4322 E Cactus Rd", "addr:city": "Phoenix", "addr:state": "AZ", "addr:postcode": "85032", "name": "HPB Paradise Valley", "phone": "(602) 482-4100", "website": "https://www.hpb.com/072", "brand": "Half Price Books", "brand:wikidata": "Q5641744", "nsi_id": "halfpricebooks-1bd7b6"}, "geometry": {"type": "Point", "coordinates": [-111.9891055, 33.5999968]}},
{"type": "Feature", "id": "zURDgp-G2TFmrmA1nLJQFqsgqtM=", "properties": {"ref": "106", "@spider": "half_price_books", "shop": "books", "addr:full": "2102 E Camelback Rd, Phoenix, AZ 85016", "addr:street_address": "2102 E Camelback Rd", "addr:city": "Phoenix", "addr:state": "AZ", "addr:postcode": "85016", "name": "HPB Camelback - CLOSED", "phone": "(602) 954-4653", "website": "https://www.hpb.com/106", "brand": "Half Price Books", "brand:wikidata": "Q5641744", "nsi_id": "halfpricebooks-1bd7b6"}, "geometry": {"type": "Point", "coordinates": [-112.0364284, 33.509666]}},
{"type": "Feature", "id": "13g0STz_p4QxPNWHKxVb6BJrJqU=", "properties": {"ref": "069", "@spider": "half_price_books", "shop": "books", "addr:full": "6339 E Southern Ave, Mesa, AZ 85206", "addr:street_address": "6339 E Southern Ave", "addr:city": "Mesa", "addr:state": "AZ", "addr:postcode": "85206", "name": "HPB Mesa", "phone": "(480) 325-8354", "website": "https://www.hpb.com/069", "brand": "Half Price Books", "brand:wikidata": "Q5641744", "nsi_id": "halfpricebooks-1bd7b6"}, "geometry": {"type": "Point", "coordinates": [-111.6977232, 33.3938242]}}]}