{"type":"FeatureCollection","features":[{"type": "Feature", "id": "87MFYRLF5WB7VcMJVWycvd1CiuY=", "properties": {"ref": "Location1", "@spider": "hardrock", "addr:street": "215 Peachtree Street NE", "addr:city": "Atlanta", "addr:state": "Georgia", "addr:postcode": "30303", "addr:country": "US", "name": "Hard Rock Cafe Atlanta", "phone": "+1 404-688-7625", "website": "https://www.hardrockcafe.com/location/atlanta/", "brand": "Hard Rock"}, "geometry": {"type": "Point", "coordinates": [-84.3874, 33.75978]}},
{"type": "Feature", "id": "QptdEs5LSJqdwHkTkRZ2KrWPYrI=", "properties": {"ref": "Location2", "@spider": "hardrock", "addr:street": "1000 Boardwalk", "addr:city": "Atlantic City", "addr:state": "New Jersey", "addr:postcode": "08401", "addr:country": "US", "name": "Hard Rock Cafe Atlantic City", "phone": "+1 609-441-0007", "website": "https://www.hardrockcafe.com/location/atlantic-city/", "brand": "Hard Rock"}, "geometry": {"type": "Point", "coordinates": [-74.42124, 39.35999]}},
{"type": "Feature", "id": "nyORTy-5zuWG88K1j5wfkGwTlPs=", "properties": {"ref": "Location3", "@spider": "hardrock", "addr:street": "1000 Boardwalk", "addr:city": "Atlantic City", "addr:state": "New Jersey", "addr:postcode": "08401", "addr:country": "US", "name": "Hard Rock Hotel & Casino Atlantic City", "phone": "(609) 449-1000", "website": "https://www.hardrockhotels.com/atlantic-city", "brand": "Hard Rock"}, "geometry": {"type": "Point", "coordinates": [-74.42124, 39.35999]}},
{"type": "Feature", "id": "HpyD_tdWSspSyD3LC05vQM_aodE=", "properties": {"ref": "Location4", "@spider": "hardrock", "addr:street": "1000 Boardwalk", "addr:city": "NJ", "addr:state": "New Jersey", "addr:postcode": "08401", "addr:country": "US", "name": "Hard Rock Live Atlantic City", "phone": "+1 (609) 449-1000", "website": "https://www.hardrockhotelatlanticcity.com/event-calendar#d_venue=Hard%20Rock%20Live%20at%20Etess%20Arena", "brand": "Hard Rock"}, "geometry": {"type": "Point", "coordinates": [-74.42124, 39.35999]}},
{"type": "Feature", "id": "6Mh2va-PLbifP2GB3suF6fH93Cg=", "properties": {"ref": "Location5", "@spider": "hardrock", "addr:street": "601 E. Pratt Street", "addr:city": "Baltimore", "addr:country": "US", "name": "Hard Rock Cafe Baltimore", "website": "https://www.hardrockcafe.com/location/baltimore/", "brand": "Hard Rock"}, "geometry": {"type": "Point", "coordinates": [-76.60738, 39.2861]}},
{"type": "Feature", "id": "254I5bOc6kb1VfytASZeDcN6K24=", "properties": {"ref": "Location6", "@spider": "hardrock", "addr:street": "777 Beach Boulevard", "addr:city": "Biloxi", "addr:state": "Mississippi", "addr:postcode": "39530", "addr:country": "US", "name": "Hard Rock Cafe Biloxi", "phone": "+1-228-276-5233", "website": "https://www.hardrockcafe.com/location/biloxi/", "brand": "Hard Rock"}, "geometry": {"type": "Point", "coordinates": [-88.88771, 30.39255]}},
{"type": "Feature", "id": "kaLq_GyzWdvHr90xI6Rs0bfE6qk=", "properties": {"ref": "Location7", "@spider": "hardrock", "addr:street": "777 Beach Blvd, Biloxi, MS 39530", "addr:city": "Biloxi", "addr:state": "Mississippi", "addr:postcode": "39530", "addr:country": "US", "name": "Hard Rock Hotel & Casino Biloxi", "phone": "(228) 374-7625", "website": "https://www.hrhcbiloxi.com/", "brand": "Hard Rock"}, "geometry": {"type": "Point", "coordinates": [-88.88771, 30.39255]}},
{"type": "Feature", "id": "xk2yIWh_ORybbJx17uyCgB259do=", "properties": {"ref": "Location8", "@spider": "hardrock", "addr:street": "777 Beach Blvd", "addr:city": "Biloxi", "addr:state": "Mississippi", "addr:postcode": "39530", "addr:country": "US", "name": "Hard Rock Live Biloxi", "phone": "228-374-7625", "website": "https://www.hrhcbiloxi.com/hard-rock-live-biloxi.htm", "brand": "Hard Rock"}, "geometry": {"type": "Point", "coordinates": [-88.88756, 30.3929]}},
{"type": "Feature", "id": "5bkVZ1S3fMycO87uodlwsiBPEZA=", "properties": {"ref": "Location9", "@spider": "hardrock", "addr:street": "500 Gate City Hwy", "addr:city": "Bristol", "addr:state": "Virginia", "addr:postcode": "24201", "addr:country": "US", "name": "Future Home of Hard Rock Hotel & Casino Bristol", "website": "https://www.hardrockhotelcasinobristol.com/", "brand": "Hard Rock"}, "geometry": {"type": "Point", "coordinates": [-82.2194458, 36.5987958]}},
{"type": "Feature", "id": "6uFXw0jwEOB_wcnm9zilLnltLN4=", "properties": {"ref": "Location10", "@spider": "hardrock", "addr:street": "AV LAZARO CARDENAS ESQ AVENIDA MORELOS", "addr:city": "Cabo San Lucas", "addr:postcode": "23450", "addr:country": "MX", "name": "Hard Rock Cafe Cabo San Lucas", "website": "https://www.hardrockcafe.com/location/cabo-san-lucas/", "brand": "Hard Rock"}, "geometry": {"type": "Point", "coordinates": [-109.9116, 22.88719]}},
{"type": "Feature", "id": "ZMWoWKksLahQpKmYLivahdQH9UA=", "properties": {"ref": "Location11", "@spider": "hardrock", "addr:street": "Blvd. Kukulcan Km. 9.5 Zona Hotelera, Plaza Forum by the Sea", "addr:city": "Cancun", "addr:postcode": "77500", "addr:country": "MX", "name": "Hard Rock Cafe Cancun", "phone": "+52 998 688 5491", "website": "https://www.hardrockcafe.com/location/cancun/", "brand": "Hard Rock"}, "geometry": {"type": "Point", "coordinates": [-86.74696, 21.13218]}},
{"type": "Feature", "id": "onYuBiYD0zrKzLfVvucnJ1qLU1U=", "properties": {"ref": "Location12", "@spider": "hardrock", "addr:street": "Boulevard Kukulcan Km 14.5", "addr:city": "Cancun", "addr:postcode": "77500", "addr:country": "MX", "name": "Hard Rock Hotel Cancun", "phone": "52-998-881-3600", "website": "https://www.hrhcancun.com/", "brand": "Hard Rock"}, "geometry": {"type": "Point", "coordinates": [-86.76981, 21.0895]}},
{"type": "Feature", "id": "_mRIdwIuHu7blwd7ZTgCedFBD94=", "properties": {"ref": "Location13", "@spider": "hardrock", "addr:street": "63 W. Ontario", "addr:city": "Chicago", "addr:state": "Illinois", "addr:postcode": "60654", "addr:country": "US", "name": "Hard Rock Cafe Chicago", "phone": "+1-312-943-2252", "website": "https://www.hardrockcafe.com/location/chicago/", "brand": "Hard Rock"}, "geometry": {"type": "Point", "coordinates": [-87.63059, 41.89312]}},
{"type": "Feature", "id": "svh_riT8eVIj1WEcEELxQoO3rfY=", "properties": {"ref": "Location14", "@spider": "hardrock", "addr:street": "1000 Broadway Street", "addr:city": "Cincinnati", "addr:state": "Ohio", "addr:postcode": "45202", "addr:country": "US", "name": "Future Home of Hard Rock Casino Cincinnati", "phone": "(513) 250-3150", "website": "https://www.hardrockcasinocincinnati.com/", "brand": "Hard Rock"}, "geometry": {"type": "Point", "coordinates": [-84.5089871, 39.1081687]}},
{"type": "Feature", "id": "CXy3EdnMbLQBvsz6XvQs6r4Cdnw=", "properties": {"ref": "Location15", "@spider": "hardrock", "addr:street": "Av. Rafael Melgar Prolongacion, K.M. 3.5, Plaza Royal Village Local 9", "addr:city": "Cozumel", "addr:country": "MX", "name": "Hard Rock Cafe Cozumel", "phone": "(52)9896439 or (52)9896440", "website": "https://www.hardrockcafe.com/location/cozumel/", "brand": "Hard Rock"}, "geometry": {"type": "Point", "coordinates": [-86.95894, 20.50177]}},
{"type": "Feature", "id": "R8hP7NndAX7vPk9ggEaSZqz7k3M=", "properties": {"ref": "Location16", "@spider": "hardrock", "addr:street": "918 N. Atlantic Avenue", "addr:city": "Daytona Beach", "addr:state": "Florida", "addr:postcode": "32118", "addr:country": "US", "name": "Hard Rock Hotel Daytona Beach", "phone": "386-947-7300", "website": "https://www.hardrockhotels.com/daytonabeach/", "brand": "Hard Rock"}, "geometry": {"type": "Point", "coordinates": [-81.01509, 29.24112]}},
{"type": "Feature", "id": "t-WpDCIWZsW8MFWnNtxgI4QqbQY=", "properties": {"ref": "Location17", "@spider": "hardrock", "addr:street": "500 16th Street Mall, Suite 120", "addr:city": "Denver", "addr:state": "Colorado", "addr:postcode": "80202", "addr:country": "US", "name": "Hard Rock Cafe Denver", "phone": "+1-303-623-3191", "website": "https://www.hardrockcafe.com/location/denver/", "brand": "Hard Rock"}, "geometry": {"type": "Point", "coordinates": [-104.99044, 39.74369]}},
{"type": "Feature", "id": "vlGjYD4aPZHOOMCciOSN7IbujxU=", "properties": {"ref": "Location18", "@spider": "hardrock", "addr:street": "350 Trolley Line Blvd, Mashantucket, CT 06338", "addr:city": "Mashantucket", "addr:state": "Connecticut", "addr:postcode": "06338", "addr:country": "US", "name": "Hard Rock Cafe Foxwoods", "phone": "(860) 312-7625", "website": "https://www.hardrockcafe.com/location/foxwoods/", "brand": "Hard Rock"}, "geometry": {"type": "Point", "coordinates": [-71.96127, 41.47611]}},
{"type": "Feature", "id": "Jzmldj09bOjaKjQfQkpDQNUydtI=", "properties": {"ref": "Location19", "@spider": "hardrock", "addr:street": "Kungsportsavenyen 10, 411 36", "addr:city": "Gothenburg", "addr:postcode": "411 36", "addr:country": "SE", "name": "Hard Rock Cafe Gothenburg", "phone": "+46-31-102-330", "website": "https://www.hardrockcafe.com/location/gothenburg/", "brand": "Hard Rock"}, "geometry": {"type": "Point", "coordinates": [11.9741, 57.70137]}},
{"type": "Feature", "id": "v3zbWcoBJ3EYW6riMxMzZp0ZuP8=", "properties": {"ref": "Location20", "@spider": "hardrock", "addr:street": "Av. Ignacio L. Vallarta 5145, Camino Real, 45040 Zapopan", "addr:city": "Jalisco", "addr:postcode": "45040", "addr:country": "MX", "name": "Hard Rock Hotel Guadalajara", "phone": "52-333-333-3000", "website": "https://www.hrhguadalajara.com/", "brand": "Hard Rock"}, "geometry": {"type": "Point", "coordinates": [-103.413807, 20.676698]}},
{"type": "Feature", "id": "6e9cR_FR0k5G3AVMTd7hZwBifMg=", "properties": {"ref": "Location21", "@spider": "hardrock", "addr:street": "1 Seminole Way", "addr:city": "Hollywood", "addr:postcode": "33314", "addr:country": "US", "name": "Hard Rock Cafe Hollywood Florida", "phone": "(954) 315-9112", "website": "https://www.hardrockcafe.com/location/hollywood-fl/", "brand": "Hard Rock"}, "geometry": {"type": "Point", "coordinates": [-80.21249, 26.05192]}},
{"type": "Feature", "id": "rEP5siNxvBg7EmljKWd27tW5vfo=", "properties": {"ref": "Location22", "@spider": "hardrock", "addr:street": "6801 Hollywood Blvd Suite 105, Los Angeles, CA 90028", "addr:city": "Los Angeles", "addr:state": "California", "addr:postcode": "90028", "addr:country": "US", "name": "Hard Rock Cafe on Hollywood Blvd", "phone": "(323) 464-7625", "website": "https://www.hardrockcafe.com/location/hollywood-on-hollywood-blvd/", "brand": "Hard Rock"}, "geometry": {"type": "Point", "coordinates": [-118.33967, 34.10263]}},
{"type": "Feature", "id": "VQrx4UTy4DJLxJLnJ_a5ybDAl-c=", "properties": {"ref": "Location23", "@spider": "hardrock", "addr:street": "1 Seminole Way", "addr:city": "Hollywood", "addr:state": "Florida", "addr:postcode": "33314", "addr:country": "US", "name": "Hard Rock Hotel & Casino Hollywood Florida", "phone": "(866) 502-7529", "website": "https://www.seminolehardrockhollywood.com/", "brand": "Hard Rock"}, "geometry": {"type": "Point", "coordinates": [-80.211013, 26.051084]}},
{"type": "Feature", "id": "wQBaxoi_NWVl_g1IpWnGdkHOc6Y=", "properties": {"ref": "Location24", "@spider": "hardrock", "addr:street": "1 Seminole Way", "addr:city": "Fort Lauderdale", "addr:postcode": "33314", "addr:country": "US", "name": "Hard Rock Live at Hollywood Florida", "phone": "(954) 797-5531", "website": "https://www.seminolehardrockhollywood.com/events", "brand": "Hard Rock"}, "geometry": {"type": "Point", "coordinates": [-80.21171, 26.05223]}},
{"type": "Feature", "id": "0KA1n2YUkyLrFbJ6LTJGN_lh3BY=", "properties": {"ref": "Location25", "@spider": "hardrock", "addr:street": "280 Beach Walk", "addr:city": "Honolulu", "addr:state": "Hawaii", "addr:postcode": "96815", "addr:country": "US", "name": "Hard Rock Cafe Honolulu", "phone": "(808) 955-7383", "website": "https://www.hardrockcafe.com/location/honolulu/", "brand": "Hard Rock"}, "geometry": {"type": "Point", "coordinates": [-157.83077, 21.28092]}},
{"type": "Feature", "id": "xph3trivVag4n5psvW7W3bs73-0=", "properties": {"ref": "Location26", "@spider": "hardrock", "addr:street": "3100 S Terminal Rd, Houston, TX 77032", "addr:city": "Houston", "addr:state": "Texas", "addr:postcode": "77032", "addr:country": "US", "name": "Hard Rock Cafe Houston Airport", "phone": "(281) 233-7652", "website": "https://www.hardrockcafe.com/location/houston-airport/", "brand": "Hard Rock"}, "geometry": {"type": "Point", "coordinates": [-95.34539, 29.9869]}},
{"type": "Feature", "id": "Ev8JSZFi-9MibdR4tfU72zOk_hE=", "properties": {"ref": "Location27", "@spider": "hardrock", "addr:street": "313 Duval St", "addr:city": "Key West", "addr:postcode": "33040", "addr:country": "US", "name": "Hard Rock Cafe Key West", "phone": "+1-305-293-0230", "website": "https://www.hardrockcafe.com/location/key-west/", "brand": "Hard Rock"}, "geometry": {"type": "Point", "coordinates": [-81.80423, 24.55783]}},
{"type": "Feature", "id": "blBUC_fVrbanbr5K6i2UezzxsWU=", "properties": {"ref": "Location28", "@spider": "hardrock", "addr:street": "50 US-50", "addr:city": "Stateline", "addr:state": "Nevada", "addr:postcode": "89449", "addr:country": "US", "name": "Hard Rock Hotel & Casino Lake Tahoe", "phone": "(844) 588-7625", "website": "https://hardrockcasinolaketahoe.com/", "brand": "Hard Rock"}, "geometry": {"type": "Point", "coordinates": [-119.94318, 36.10425]}},
{"type": "Feature", "id": "s636bFE4F7atw0ihFnaHj6FX4Tk=", "properties": {"ref": "Location29", "@spider": "hardrock", "addr:street": "3771 S. Las Vegas Blvd, Ste 120", "addr:city": "Las Vegas", "addr:state": "Nevada", "addr:postcode": "89109", "addr:country": "US", "name": "Hard Rock Cafe Las Vegas", "phone": "+1-702-733-7625", "website": "https://www.hardrockcafe.com/location/las-vegas/", "brand": "Hard Rock"}, "geometry": {"type": "Point", "coordinates": [-115.17259, 36.10425]}},
{"type": "Feature", "id": "HESmrjnRhZV0vhL_XixZC1x54k0=", "properties": {"ref": "Location30", "@spider": "hardrock", "addr:street": "3771 South Las Vegas Blvd", "addr:city": "Las Vegas", "addr:state": "Nevada", "addr:postcode": "89109", "addr:country": "US", "name": "Hard Rock Live Las Vegas", "phone": "+1-702-733-7625", "website": "https://www.hardrock.com/live/locations/lasvegas/", "brand": "Hard Rock"}, "geometry": {"type": "Point", "coordinates": [-115.17259, 36.10425]}},
{"type": "Feature", "id": "n7zj7YZn31xSfOh8JWI4_9aGArA=", "properties": {"ref": "Location31", "@spider": "hardrock", "addr:street": "Fraccionamiento Diamante", "addr:city": "Cabo San Lucas", "addr:postcode": "23473", "addr:country": "MX", "name": "Hard Rock Hotel Los Cabos", "phone": "+52-624-689-0300", "website": "https://www.hardrockhotelloscabos.com/", "brand": "Hard Rock"}, "geometry": {"type": "Point", "coordinates": [-109.98543, 22.87741]}},
{"type": "Feature", "id": "mXoD4AoMXKcIYqn0vr1XrGWrErU=", "properties": {"ref": "Location32", "@spider": "hardrock", "addr:street": "126 Beale Street", "addr:city": "Memphis", "addr:postcode": "38103", "addr:country": "US", "name": "Hard Rock Cafe Memphis", "phone": "+1-901-529-0007", "website": "https://www.hardrockcafe.com/location/memphis/", "brand": "Hard Rock"}, "geometry": {"type": "Point", "coordinates": [-90.05373, 35.14042]}},
{"type": "Feature", "id": "tfg-DS9gJJqxQVzWPbddVtgcUlU=", "properties": {"ref": "Location33", "@spider": "hardrock", "addr:street": "401 Biscayne Blvd R-200, Bayside Marketplace", "addr:city": "Miami", "addr:postcode": "33132", "addr:country": "US", "name": "Hard Rock Cafe Miami", "phone": "+1-305-377-3110", "website": "https://www.hardrockcafe.com/location/miami/", "brand": "Hard Rock"}, "geometry": {"type": "Point", "coordinates": [-80.18457, 25.77724]}},
{"type": "Feature", "id": "ljpsjZBhG3jLBidKBMwJ9S6nAgo=", "properties": {"ref": "Location34", "@spider": "hardrock", "addr:street": "1318 Celebrity Circle, Broadway at the Beach", "addr:city": "Myrtle Beach", "addr:postcode": "29577", "addr:country": "US", "name": "Hard Rock Cafe Myrtle Beach", "phone": "+1-843-946-0007", "website": "https://www.hardrockcafe.com/location/myrtle-beach/", "brand": "Hard Rock"}, "geometry": {"type": "Point", "coordinates": [-78.88071, 33.7184]}},
{"type": "Feature", "id": "xRJo4H_rwabulPsK6eWkBx730t4=", "properties": {"ref": "Location35", "@spider": "hardrock", "addr:street": "100 Broadway", "addr:city": "Nashville", "addr:postcode": "37201", "addr:country": "US", "name": "Hard Rock Cafe Nashville", "phone": "+1-615-742-9900", "website": "https://www.hardrockcafe.com/location/nashville/", "brand": "Hard Rock"}, "geometry": {"type": "Point", "coordinates": [-86.77491, 36.16232]}},
{"type": "Feature", "id": "tyn5hWVvI7T-A1190YAMdIGyilw=", "properties": {"ref": "Location36", "@spider": "hardrock", "addr:street": "1501 Broadway", "addr:city": "New York", "addr:postcode": "10036", "addr:country": "US", "name": "Hard Rock Cafe New York", "phone": "+1-212-343-3355", "website": "https://www.hardrockcafe.com/location/new-york/", "brand": "Hard Rock"}, "geometry": {"type": "Point", "coordinates": [-73.98649, 40.75692]}},
{"type": "Feature", "id": "UBs4xT8jJXouLYEdUktwOuQbpVg=", "properties": {"ref": "Location37", "@spider": "hardrock", "addr:street": "159 West 48th Street", "addr:city": "New York", "addr:state": "New York", "addr:postcode": "10036", "addr:country": "US", "name": "Hard Rock Hotel New York", "website": "https://www.hardrockhotels.com/new-york/", "brand": "Hard Rock"}, "geometry": {"type": "Point", "coordinates": [-73.9860051, 40.7583625]}},
{"type": "Feature", "id": "8FWZ03XPkeJT3_uW3lnfR0MHDEI=", "properties": {"ref": "Location38", "@spider": "hardrock", "addr:street": "5705 Falls Ave.", "addr:city": "Niagara Falls", "addr:postcode": "L2H 6T3", "addr:country": "CA", "name": "Hard Rock Cafe Niagara Falls Canada", "phone": "+1-905-356-7625", "website": "https://www.hardrockcafe.com/location/niagara-falls-canada/", "brand": "Hard Rock"}, "geometry": {"type": "Point", "coordinates": [-79.07204, 43.09116]}},
{"type": "Feature", "id": "nc3KQC4maql6hY10HPFy4LUg4uM=", "properties": {"ref": "Location39", "@spider": "hardrock", "addr:street": "333 Prospect St", "addr:city": "Niagara Falls", "addr:postcode": "14303", "addr:country": "US", "name": "Hard Rock Cafe Niagara Falls USA", "phone": "+1-716-282-0007", "website": "https://www.hardrockcafe.com/location/niagara-falls-usa/", "brand": "Hard Rock"}, "geometry": {"type": "Point", "coordinates": [-79.06456, 43.08684]}},
{"type": "Feature", "id": "cGyEfEiaodA8P5jS635MdFXQEr8=", "properties": {"ref": "Location40", "@spider": "hardrock", "addr:street": "LA", "addr:city": "New Orleans", "addr:postcode": "70130", "addr:country": "US", "name": "Hard Rock Cafe New Orleans", "phone": "504-529-5617", "website": "https://www.hardrockcafe.com/location/new-orleans/", "brand": "Hard Rock"}, "geometry": {"type": "Point", "coordinates": [-90.07005, 29.95388]}},
{"type": "Feature", "id": "OFLiZIWoTarjINQmBWb7ZayrVPI=", "properties": {"ref": "Location41", "@spider": "hardrock", "addr:street": "6050 Universal Boulevard", "addr:city": "Orlando", "addr:postcode": "32819", "addr:country": "US", "name": "Hard Rock Cafe Orlando", "phone": "+1-407-351-7625", "website": "https://www.hardrockcafe.com/location/orlando/", "brand": "Hard Rock"}, "geometry": {"type": "Point", "coordinates": [-81.46737, 28.47368]}},
{"type": "Feature", "id": "c4XTcxVJ8UCjaTtAW1D7PRdYKdc=", "properties": {"ref": "Location42", "@spider": "hardrock", "addr:street": "5800 Universal Blvd", "addr:city": "Orlando", "addr:postcode": "32819", "addr:country": "US", "name": "Hard Rock Hotel Orlando", "phone": "888-832-7155", "website": "https://www.hardrockhotelorlando.com/", "brand": "Hard Rock"}, "geometry": {"type": "Point", "coordinates": [-81.46453, 28.4772]}},
{"type": "Feature", "id": "fC1yqEysec1jpZcfXk9PGaAu3pI=", "properties": {"ref": "Location43", "@spider": "hardrock", "addr:street": "6050 Universal Boulevard.", "addr:city": "Orlando", "addr:postcode": "32819", "addr:country": "US", "name": "Hard Rock Live Orlando", "phone": "407 351 5483", "website": "https://www.hardrock.com/live/locations/orlando/", "brand": "Hard Rock"}, "geometry": {"type": "Point", "coordinates": [-81.46761, 28.47353]}},
{"type": "Feature", "id": "yD45kWMUIAOhNep320ss3ECN7jw=", "properties": {"ref": "Location44", "@spider": "hardrock", "addr:street": "1113-31 Market St.", "addr:city": "Philadelphia", "addr:country": "US", "name": "Hard Rock Cafe Philadelphia", "phone": "+1-215-238-1000", "website": "https://www.hardrockcafe.com/location/philadelphia/", "brand": "Hard Rock"}, "geometry": {"type": "Point", "coordinates": [-75.15975, 39.95206]}},
{"type": "Feature", "id": "aONGw-hrTh78tLTttjM2B47VYss=", "properties": {"ref": "Location45", "@spider": "hardrock", "addr:street": "3 South 2nd Street Suite 117", "addr:city": "Phoenix", "addr:postcode": "85004", "addr:country": "US", "name": "Hard Rock Cafe Phoenix", "phone": "+1-602-261-7625", "website": "https://www.hardrockcafe.com/location/phoenix/", "brand": "Hard Rock"}, "geometry": {"type": "Point", "coordinates": [-112.07104, 33.44686]}},
{"type": "Feature", "id": "MyPCEpH4s32LdnDH-5g1gyYg1EQ=", "properties": {"ref": "Location46", "@spider": "hardrock", "addr:street": "2050 Parkway", "addr:city": "Pigeon Forge", "addr:postcode": "37863", "addr:country": "US", "name": "Hard Rock Cafe Pigeon Forge", "phone": "+1-865-430-7625", "website": "https://www.hardrockcafe.com/location/pigeon-forge/", "brand": "Hard Rock"}, "geometry": {"type": "Point", "coordinates": [-83.57914, 35.82423]}},
{"type": "Feature", "id": "24EkrIrWctCf5adLtLM5X6wC38I=", "properties": {"ref": "Location47", "@spider": "hardrock", "addr:street": "230 W. Station Square Drive", "addr:city": "Pittsburgh", "addr:postcode": "15219", "addr:country": "US", "name": "Hard Rock Cafe Pittsburgh", "phone": "+1-412-481-7625", "website": "https://www.hardrockcafe.com/location/pittsburgh/", "brand": "Hard Rock"}, "geometry": {"type": "Point", "coordinates": [-80.00499, 40.43386]}},
{"type": "Feature", "id": "as-w1zlGlZBQukUixA7-yVBObdM=", "properties": {"ref": "Location48", "@spider": "hardrock", "addr:street": "Quinta Avenida Esquina Calle 4 Norte", "addr:city": "Playa del Carmen", "addr:postcode": "77710", "addr:country": "MX", "name": "Hard Rock Cafe Playa del Carmen", "phone": "(998) 242 22 25", "website": "https://www.hardrockcafe.com/location/playa-del-carmen/", "brand": "Hard Rock"}, "geometry": {"type": "Point", "coordinates": [-87.0732, 20.6227]}},
{"type": "Feature", "id": "F29ui0v87zekyxiFRXfm8JqvdDM=", "properties": {"ref": "Location49", "@spider": "hardrock", "addr:street": "Km 72, Carretera Cancun-Chetumal", "addr:city": "Riviera Maya", "addr:postcode": "77710", "addr:country": "MX", "name": "Hard Rock Hotel Riviera Maya", "phone": "855-537-4603", "website": "https://www.hrhrivieramaya.com/", "brand": "Hard Rock"}, "geometry": {"type": "Point", "coordinates": [-87.21445, 20.50853]}},
{"type": "Feature", "id": "qlXr7T0wcAyJgQ-DzuKcpcDyGaQ=", "properties": {"ref": "Location50", "@spider": "hardrock", "addr:street": "610 N. Bell School Road", "addr:city": "Rockford", "addr:state": "Illinois", "addr:postcode": "61107", "addr:country": "US", "name": "Hard Rock Casino Rockford", "website": "https://www.hardrockcasinorockford.com/", "brand": "Hard Rock"}, "geometry": {"type": "Point", "coordinates": [-88.9731662, 42.2726037]}},
{"type": "Feature", "id": "B_mANKaf3S7mIofMqMmfCQOMpJc=", "properties": {"ref": "Location51", "@spider": "hardrock", "addr:street": "3317 Forty Mile Rd", "addr:city": "Wheatland", "addr:state": "California", "addr:postcode": "95692", "addr:country": "US", "name": "Hard Rock Hotel & Casino Sacramento at Fire Mountain", "phone": "(833) 337-3473", "website": "https://www.hardrockhotels.com/sacramento/", "brand": "Hard Rock"}, "geometry": {"type": "Point", "coordinates": [-121.512142, 39.051617]}},
{"type": "Feature", "id": "N21je5Xywcgq68WnT-UnO9dav4M=", "properties": {"ref": "Location52", "@spider": "hardrock", "addr:street": "3317 Forty Mile Road", "addr:city": "Sacramento", "addr:postcode": "95962", "addr:country": "US", "name": "Hard Rock Cafe Sacramento", "phone": "916-943-3473", "website": "https://www.hardrockcafe.com/location/sacramento/", "brand": "Hard Rock"}, "geometry": {"type": "Point", "coordinates": [39.03613, -121.51462]}},
{"type": "Feature", "id": "s-aRaxQfEJ0k-1nIWln4wBxoq2o=", "properties": {"ref": "Location53", "@spider": "hardrock", "addr:street": "111 W. Crockett St, Suite 210", "addr:city": "San Antonio", "addr:postcode": "78205", "addr:country": "US", "name": "Hard Rock Cafe San Antonio", "phone": "+1-210-224-7625", "website": "https://www.hardrockcafe.com/location/san-antonio/", "brand": "Hard Rock"}, "geometry": {"type": "Point", "coordinates": [-98.48912, 29.42511]}},
{"type": "Feature", "id": "tf507_nkap4EbkkLR0vkvCmb28s=", "properties": {"ref": "Location54", "@spider": "hardrock", "addr:street": "207 Fifth Avenue", "addr:city": "San Diego", "addr:postcode": "92101", "addr:country": "US", "name": "Hard Rock Hotel San Diego", "phone": "619-702-3000", "website": "http://www.hardrockhotelsd.com/", "brand": "Hard Rock"}, "geometry": {"type": "Point", "coordinates": [-117.15966, 32.70751]}},
{"type": "Feature", "id": "321-6HWLzsKF_aYnGlTuIJEzmD0=", "properties": {"ref": "Location55", "@spider": "hardrock", "addr:street": "39 Pier #256", "addr:city": "San Francisco", "addr:postcode": "94133", "addr:country": "US", "name": "Hard Rock Cafe San Francisco", "phone": "+1-415-956-2013", "website": "https://www.hardrockcafe.com/location/san-francisco/", "brand": "Hard Rock"}, "geometry": {"type": "Point", "coordinates": [-122.40998, 37.80861]}},
{"type": "Feature", "id": "Ba8yy9wE_fF1p41EV0kg0eqbSGQ=", "properties": {"ref": "Location56", "@spider": "hardrock", "addr:street": "116 Pike Street", "addr:city": "Seattle", "addr:postcode": "98101", "addr:country": "US", "name": "Hard Rock Cafe Seattle", "phone": "+1-206-204-2233", "website": "https://www.hardrockcafe.com/location/seattle/", "brand": "Hard Rock"}, "geometry": {"type": "Point", "coordinates": [-122.33976, 47.60899]}},
{"type": "Feature", "id": "RNxXhcO1LaO79b-q1qQ8QQcPjxo=", "properties": {"ref": "Location57", "@spider": "hardrock", "addr:street": "111 3rd St", "addr:city": "Sioux City", "addr:state": "Iowa", "addr:postcode": "51101", "addr:country": "US", "name": "Hard Rock Hotel & Casino Sioux City", "phone": "(712) 226-7600", "website": "https://www.hardrockcasinosiouxcity.com/", "brand": "Hard Rock"}, "geometry": {"type": "Point", "coordinates": [-96.40993, 42.49427]}},
{"type": "Feature", "id": "38X9mk0LinJItTB5CU6hm9Lnrto=", "properties": {"ref": "Location58", "@spider": "hardrock", "addr:street": "5223 N. Orient Road", "addr:city": "Tampa", "addr:postcode": "33601", "addr:country": "US", "name": "Hard Rock Cafe Tampa", "phone": "813-627-7757", "website": "https://www.hardrockcafe.com/location/tampa/", "brand": "Hard Rock"}, "geometry": {"type": "Point", "coordinates": [-82.37259, 27.99347]}},
{"type": "Feature", "id": "HoXbYGcrkEI3DLYXGpOCIEcMXC4=", "properties": {"ref": "Location59", "@spider": "hardrock", "addr:street": "Tampa International Airport / Marriott, 4200 George J Bean Pkwy.", "addr:city": "Tampa", "addr:postcode": "33607", "addr:country": "US", "name": "Hard Rock Cafe Tampa Airport", "phone": "813-387-9838", "website": "https://www.hardrockcafe.com/location/tampa-airport/", "brand": "Hard Rock"}, "geometry": {"type": "Point", "coordinates": [-82.53455, 27.98173]}},
{"type": "Feature", "id": "kxP5uHUkL9swKLUtQrC12tjkaIs=", "properties": {"ref": "Location60", "@spider": "hardrock", "addr:street": "5223 Orient Rd, Tampa, FL 33610", "addr:city": "Tampa", "addr:state": "Florida", "addr:postcode": "33610", "addr:country": "US", "name": "Hard Rock Hotel & Casino Tampa", "phone": "(866) 388-4263", "website": "https://www.seminolehardrocktampa.com/", "brand": "Hard Rock"}, "geometry": {"type": "Point", "coordinates": [-82.37259, 27.99347]}},
{"type": "Feature", "id": "eFqtPLUh-k9Fp5vW3VWdrPnGZTw=", "properties": {"ref": "Location61", "@spider": "hardrock", "addr:street": "777 W Cherokee St", "addr:city": "Catoosa", "addr:state": "Oklahoma", "addr:postcode": "74015", "addr:country": "US", "name": "Hard Rock Hotel & Casino Tulsa", "phone": "(800) 760-6700", "website": "https://www.hardrockcasinotulsa.com/", "brand": "Hard Rock"}, "geometry": {"type": "Point", "coordinates": [-95.7667328, 36.1652244]}},
{"type": "Feature", "id": "FaRCF5583geuwSwARygIFlXiTwo=", "properties": {"ref": "Location62", "@spider": "hardrock", "addr:street": "2080 United Boulevard", "addr:city": "Coquitlam", "addr:postcode": "V3K 6W3", "addr:country": "CA", "name": "Hard Rock Casino Vancouver", "website": "https://www.hardrockcasinovancouver.com/", "brand": "Hard Rock"}, "geometry": {"type": "Point", "coordinates": [-122.83711, 49.22777]}},
{"type": "Feature", "id": "E5PlPels97Y_DGG9kJcUKI0d1g4=", "properties": {"ref": "Location63", "@spider": "hardrock", "addr:street": "Paseo de los Cocoteros 19, Villa 8, Bahia de Banderas", "addr:city": "Nayarit", "addr:postcode": "63732", "addr:country": "MX", "name": "Hard Rock Hotel Vallarta", "phone": "52-322-226-8470", "website": "https://www.hrhvallarta.com/", "brand": "Hard Rock"}, "geometry": {"type": "Point", "coordinates": [-105.29717, 20.6963]}},
{"type": "Feature", "id": "ePDjprGerNkc4ed2sr7hAg4-Vl0=", "properties": {"ref": "Location64", "@spider": "hardrock", "addr:street": "999 E St NW Washington, DC 20004 US", "addr:city": "Washington DC", "addr:postcode": "20004", "addr:country": "US", "name": "Hard Rock Cafe Washington DC", "phone": "+1 202-737-7625", "website": "https://www.hardrockcafe.com/location/washington-dc/", "brand": "Hard Rock"}, "geometry": {"type": "Point", "coordinates": [-77.028037, 38.8963536]}},
{"type": "Feature", "id": "vsDBLpvHUZgAgXTSNG9uZvcAV2s=", "properties": {"ref": "Location65", "@spider": "hardrock", "addr:street": "1 E 161st St", "addr:city": "Bronx", "addr:state": "New York", "addr:postcode": "1045", "addr:country": "US", "name": "Hard Rock Cafe Yankee Stadium", "phone": "+1 646-977-8888", "website": "https://www.hardrockcafe.com/location/yankee-stadium/", "brand": "Hard Rock"}, "geometry": {"type": "Point", "coordinates": [-73.9280732, 40.82854]}},
{"type": "Feature", "id": "1I2BKIjhDFE8p4_CGUYSTGKUT_c=", "properties": {"ref": "Location66", "@spider": "hardrock", "addr:street": "89 Centennial Olympic Park Dr NW", "addr:city": "Atlanta", "addr:state": "Georgia", "addr:postcode": "30313", "addr:country": "US", "name": "REVERB Hotel Downtown Atlanta", "phone": "+1 (470) 552-8410", "website": "https://reverb.hardrockhotels.com/atlanta.aspx", "brand": "Hard Rock"}, "geometry": {"type": "Point", "coordinates": [-84.4013372, 33.7537087]}},
{"type": "Feature", "id": "CpzOGnUauIV-g80_xNwqBXDsoDM=", "properties": {"ref": "Location67", "@spider": "hardrock", "addr:street": "Av. San Martin esq. Lillo", "addr:city": "Asunci\u00f3n", "addr:postcode": "1849 PY", "addr:country": "PY", "name": "Hard Rock Cafe Asuncion", "phone": "+595 974 601269", "website": "https://www.hardrockcafe.com/location/asuncion/", "brand": "Hard Rock"}, "geometry": {"type": "Point", "coordinates": [-57.57376, -25.28969]}},
{"type": "Feature", "id": "ZDkI0C51JMc7lpK4PO0sEX8BYt0=", "properties": {"ref": "Location68", "@spider": "hardrock", "addr:street": "Av. Pueyrred\u00f3n y Libertador, Buenos Aires Design", "addr:city": "Buenos Aires", "addr:postcode": "1119", "addr:country": "AR", "name": "Hard Rock Cafe Buenos Aires", "phone": "+54-11-4807-7625", "website": "https://www.hardrockcafe.com/location/buenos-aires/", "brand": "Hard Rock"}, "geometry": {"type": "Point", "coordinates": [-58.39326, -34.58543]}},
{"type": "Feature", "id": "A1PF_kKhUtRdUvGEZ0UPfmrYgD0=", "properties": {"ref": "Location69", "@spider": "hardrock", "addr:street": "Av Rafael Obligado s/n 1425, Ciudad Aut\u00f3noma de Buenos Aires", "addr:city": "Buenos Aires", "addr:country": "AR", "name": "Hard Rock Cafe Buenos Aires Aeroparque", "phone": "1132269991", "website": "https://www.hardrockcafe.com/location/buenos-aires-aeroparque/", "brand": "Hard Rock"}, "geometry": {"type": "Point", "coordinates": [-58.41701, -34.55803]}},
{"type": "Feature", "id": "gaw3x-lhfP4kXqZuSRQT28oSAec=", "properties": {"ref": "Location70", "@spider": "hardrock", "addr:street": "Calle 81 # 13-05", "addr:city": "Bogota", "addr:postcode": "110221", "addr:country": "CO", "name": "Hard Rock Cafe Bogota", "phone": "+573156780396", "website": "https://www.hardrockcafe.com/location/bogota/", "brand": "Hard Rock"}, "geometry": {"type": "Point", "coordinates": [-74.07546, 4.59804]}},
{"type": "Feature", "id": "oxAGZ1ccaOIvOyZXi1sGBgmY-tU=", "properties": {"ref": "Location71", "@spider": "hardrock", "addr:street": "43 South Church Street", "addr:city": "Grand Cayman", "addr:postcode": "KY1-1103", "addr:country": "KY", "name": "Hard Rock Cafe Cayman Islands", "phone": "1-345-947-2020", "website": "https://www.hardrockcafe.com/location/cayman-islands/", "brand": "Hard Rock"}, "geometry": {"type": "Point", "coordinates": [-81.3838, 19.2937]}},
{"type": "Feature", "id": "s_gf1cbCZlfes0coxfB1DtBsKoA=", "properties": {"ref": "Location72", "@spider": "hardrock", "addr:street": "Cra. 7 No. 32, 10 Plaza de la Aduana, Old City", "addr:city": "Cartagena", "addr:postcode": "130000", "addr:country": "CO", "name": "Hard Rock Cafe Cartagena", "phone": "+57-5-6643938", "website": "https://www.hardrockcafe.com/location/cartagena/", "brand": "Hard Rock"}, "geometry": {"type": "Point", "coordinates": [-75.55017, 10.42216]}},
{"type": "Feature", "id": "lvlYuNbpX8DehPl1CflgO0_n58Q=", "properties": {"ref": "Location73", "@spider": "hardrock", "addr:street": "Rua Buenos Aires, 50, Batel", "addr:city": "Curitiba - PR", "addr:postcode": "80250-070", "addr:country": "BR", "name": "Hard Rock Cafe Curitiba", "phone": "+55-41-044-0144, Reservations 55 41 3091-6060", "website": "https://www.hardrockcafe.com/location/curitiba/", "brand": "Hard Rock"}, "geometry": {"type": "Point", "coordinates": [-49.28098, -25.43816]}},
{"type": "Feature", "id": "pNRYU45eL8txGKE3jFB-XlndYQ0=", "properties": {"ref": "Location74", "@spider": "hardrock", "addr:street": "Autopista Teniente General Ricchieri km 33,5, Terminal A, 1 piso", "addr:city": "Ezeiza", "addr:postcode": "CP 1802", "addr:country": "AR", "name": "Hard Rock Cafe Ezeiza Airport", "phone": "54-9-11-3088-1998", "website": "https://www.hardrockcafe.com/location/ezeiza-airport/", "brand": "Hard Rock"}, "geometry": {"type": "Point", "coordinates": [-58.53499, -34.81462]}},
{"type": "Feature", "id": "idr2drdz795waXRtYyWeey6CRAQ=", "properties": {"ref": "Location75", "@spider": "hardrock", "addr:street": "Vila Romana Shopping - Avenida Madre Benvenuta, 687 Store 106 to 109 / Ground Floor", "addr:city": "Florianopolis", "addr:state": "Santa Catarina", "addr:postcode": "88035", "addr:country": "BR", "name": "Hard Rock Cafe Florianopolis", "website": "https://www.hardrockcafe.com/location/florianopolis/", "brand": "Hard Rock"}, "geometry": {"type": "Point", "coordinates": [-48.6664909, -27.5932719]}},
{"type": "Feature", "id": "1CJf5oMNdx_dWiidzXM7o_pSTTY=", "properties": {"ref": "Location76", "@spider": "hardrock", "addr:street": "4000 SC 281", "addr:city": "Florianopolis", "addr:state": "Santa Catarina", "addr:postcode": "88035", "addr:country": "BR", "name": "Hard Rock Live Florianopolis", "phone": "+1-55-48-99168-7221", "website": "https://www.hardrock.com/live/locations/florianopolis/", "brand": "Hard Rock"}, "geometry": {"type": "Point", "coordinates": [-48.8176957, -27.5968251]}},
{"type": "Feature", "id": "_8ixCpNDlE8GNLr7yTejWvnK7UA=", "properties": {"ref": "Location77", "@spider": "hardrock", "addr:street": "Rua Desembargador Lauro Nogueira, 1500 Piso E1", "addr:city": "Fortaleza", "addr:postcode": "60175-055", "addr:country": "BR", "name": "Hard Rock Cafe Fortaleza", "phone": "+55 85 3182-1971", "website": "https://www.hardrockcafe.com/location/fortaleza/", "brand": "Hard Rock"}, "geometry": {"type": "Point", "coordinates": [-38.47017, -3.74172]}},
{"type": "Feature", "id": "SjUEd4rWb9FpGU-q7wNVoHVnVE8=", "properties": {"ref": "Location78", "@spider": "hardrock", "addr:street": "R. Wilma Dinnebier, 180", "addr:city": "Gramado", "addr:postcode": "95670-000", "addr:country": "BR", "name": "Hard Rock Cafe Gramado", "phone": "+55 54 3286-4040", "website": "https://www.hardrockcafe.com/location/gramado/", "brand": "Hard Rock"}, "geometry": {"type": "Point", "coordinates": [-50.8712, -29.38112]}},
{"type": "Feature", "id": "QOyvCgUpoFyVfWppLa8Fcazraq0=", "properties": {"ref": "Location79", "@spider": "hardrock", "addr:street": "Movie Towne, Rupert Craig Hwy", "addr:city": "Georgetown", "addr:country": "GY", "name": "Hard Rock Cafe Guyana", "phone": "+592 222 0505", "website": "https://www.hardrockcafe.com/location/guyana/", "brand": "Hard Rock"}, "geometry": {"type": "Point", "coordinates": [-58.1160444, 6.8247895]}},
{"type": "Feature", "id": "mRnprSBbJnBugvWUfQSF0PU0SlU=", "properties": {"ref": "Location80", "@spider": "hardrock", "addr:street": "15 Rafael Pabon Ave., Megacenter Mall, Ground Floor", "addr:city": "La Paz", "addr:postcode": "8052", "addr:country": "BO", "name": "Hard Rock Cafe La Paz", "phone": "+591 77770535", "website": "https://www.hardrockcafe.com/location/la-paz/", "brand": "Hard Rock"}, "geometry": {"type": "Point", "coordinates": [-68.0860554, -16.5406881]}},
{"type": "Feature", "id": "iwWeNJ9GYxbw24dPZalWDVZ7WsA=", "properties": {"ref": "Location81", "@spider": "hardrock", "addr:street": "Galerias Santo Domingo, Zona Viva", "addr:city": "Managua", "addr:postcode": "12066", "addr:country": "NI", "name": "Hard Rock Cafe Managua", "website": "https://www.hardrockcafe.com/location/managua/", "brand": "Hard Rock"}, "geometry": {"type": "Point", "coordinates": [-86.24941, 12.10276]}},
{"type": "Feature", "id": "Le2QHInlD36lqcr4EZhoyLZlKwc=", "properties": {"ref": "Location82", "@spider": "hardrock", "addr:street": "C.C. Sambil Margarita", "addr:city": "Isla Margarita", "addr:postcode": "5112", "addr:country": "VE", "name": "Hard Rock Cafe Margarita", "phone": "+58-295-260-2400", "website": "https://www.hardrockcafe.com/location/margarita/", "brand": "Hard Rock"}, "geometry": {"type": "Point", "coordinates": [-63.85058, 10.96053]}},
{"type": "Feature", "id": "ibssCup-mnpkxtSJmiJlk1JgJw0=", "properties": {"ref": "Location83", "@spider": "hardrock", "addr:street": "Rambla Armenia 1624", "addr:city": "Montevideo", "addr:postcode": "11300", "addr:country": "UY", "name": "Hard Rock Cafe Montevideo", "website": "https://www.hardrockcafe.com/location/montevideo/", "brand": "Hard Rock"}, "geometry": {"type": "Point", "coordinates": [-56.13437, -34.90948]}},
{"type": "Feature", "id": "MioY3Sz2BwnhvhYkg7jaXEwDUhY=", "properties": {"ref": "Location84", "@spider": "hardrock", "addr:street": "Multicentro Mall, Balboa Ave.", "addr:city": "Panama City", "addr:postcode": "82-K J5-L", "addr:country": "PA", "name": "Hard Rock Cafe Panama", "phone": "+507 -380-1111", "website": "https://www.hardrockcafe.com/location/panama/", "brand": "Hard Rock"}, "geometry": {"type": "Point", "coordinates": [-79.54363, 8.96711]}},
{"type": "Feature", "id": "1iv-98bO2IhVmr8srz7gALJQMIk=", "properties": {"ref": "Location85", "@spider": "hardrock", "addr:street": "Ave. Balboa al lado de Multicentro", "addr:city": "Panama City", "addr:country": "PA", "name": "Hard Rock Hotel Panama Megapolis", "phone": "+507-294-4000", "website": "https://www.hrhpanamamegapolis.com/", "brand": "Hard Rock"}, "geometry": {"type": "Point", "coordinates": [-79.51776, 8.97721]}},
{"type": "Feature", "id": "_Z4hL8CZU5WQSJfPhqNNq67ZpZw=", "properties": {"ref": "Location86", "@spider": "hardrock", "addr:street": "Carr PR #2 Km.228.9 Ave. Santiago de los Caballeros", "addr:city": "Ponce", "addr:postcode": "00717", "addr:country": "PR", "name": "Hard Rock Cafe Ponce", "website": "https://www.hardrockcafe.com/location/ponce/", "brand": "Hard Rock"}, "geometry": {"type": "Point", "coordinates": [-66.60401, 17.99704]}},
{"type": "Feature", "id": "ZzQICIyh9f_le3HqkBL4EB7Kb4A=", "properties": {"ref": "Location87", "@spider": "hardrock", "addr:street": "Puerto Madero, Buenos Aires, Argentina", "addr:city": "Buenos Aires", "addr:country": "AR", "name": "Hard Rock Cafe Puerto Madero", "website": "https://www.hardrockcafe.com/location/puerto-madero/", "brand": "Hard Rock"}, "geometry": {"type": "Point", "coordinates": [-58.36723, -34.60062]}},
{"type": "Feature", "id": "1DG7P_PfZBksP93Ec6r-ZHgcLnM=", "properties": {"ref": "Location88", "@spider": "hardrock", "addr:street": "Km 28, #74, Bv. Tur\u00edstico del Este", "addr:city": "Punta Cana", "addr:postcode": "23000", "addr:country": "DO", "name": "Hard Rock Hotel & Casino Punta Cana", "phone": "+1 809-687-0000", "website": "https://www.hardrockhotelpuntacana.com/", "brand": "Hard Rock"}, "geometry": {"type": "Point", "coordinates": [-68.41862, 18.67243]}},
{"type": "Feature", "id": "h2q_KGqMkm5HmJfifVcSltf9KrQ=", "properties": {"ref": "Location89", "@spider": "hardrock", "addr:street": "Pra\u00e7a Francisco Oranges,100", "addr:city": "Ribeir\u00e3o Preto", "addr:country": "BR", "name": "Hard Rock Cafe Ribeir\u00e3o Preto", "website": "https://www.hardrockcafe.com/location/ribeirao-preto/", "brand": "Hard Rock"}, "geometry": {"type": "Point", "coordinates": [-47.7914111, -21.2025647]}},
{"type": "Feature", "id": "6lu1G29YoXMRFHE2EAlHf-Gdy1Y=", "properties": {"ref": "Location90", "@spider": "hardrock", "addr:street": "Av. Cuarto Anillo, Esq. San Mart\u00edn", "addr:city": "Santa Cruz", "addr:postcode": "10260", "addr:country": "BO", "name": "Hard Rock Cafe Santa Cruz", "phone": "+591 388 8777", "website": "https://www.hardrockcafe.com/location/santa-cruz/", "brand": "Hard Rock"}, "geometry": {"type": "Point", "coordinates": [-63.20079, -17.75729]}},
{"type": "Feature", "id": "YXs8rQq1-OR0NrsGVIvBv1xlim4=", "properties": {"ref": "Location91", "@spider": "hardrock", "addr:street": "Nueva Tobalaba 0412, Costanera Center, Local 1226, Nivel 1", "addr:city": "Santiago", "addr:postcode": "7500000", "addr:country": "CL", "name": "Hard Rock Cafe Santiago", "phone": "+56224125830", "website": "https://www.hardrockcafe.com/location/santiago/", "brand": "Hard Rock"}, "geometry": {"type": "Point", "coordinates": [-70.60818, -33.41756]}},
{"type": "Feature", "id": "ydGF6a1HFBbLu10WVvk8VNoE3uA=", "properties": {"ref": "Location92", "@spider": "hardrock", "addr:street": "Blue Mall 4 to Peso Ave. Winston Churchill #80", "addr:city": "Santo Domingo", "addr:postcode": "10700 11999", "addr:country": "DO", "name": "Hard Rock Cafe Santo Domingo", "phone": "+8096867771", "website": "https://www.hardrockcafe.com/location/santo-domingo/", "brand": "Hard Rock"}, "geometry": {"type": "Point", "coordinates": [-69.94113, 18.47275]}},
{"type": "Feature", "id": "JkkMM0hJjUO9VXDZEbEdVZYgomY=", "properties": {"ref": "Location93", "@spider": "hardrock", "addr:street": "San Martin 594", "addr:city": "Ushuaia", "addr:postcode": "V9410BFS", "addr:country": "AR", "name": "Hard Rock Cafe Ushuaia", "phone": "+54 9 2901 430511 / 425258", "website": "https://www.hardrockcafe.com/location/ushuaia/", "brand": "Hard Rock"}, "geometry": {"type": "Point", "coordinates": [-68.30604, -54.80677]}},
{"type": "Feature", "id": "LgoNSKHCw5zbvsZ8c0grG1v7Kro=", "properties": {"ref": "Location94", "@spider": "hardrock", "addr:street": "Max Euweplein 57-61", "addr:city": "Amsterdam", "addr:postcode": "1017", "addr:country": "NL", "name": "Hard Rock Cafe Amsterdam", "phone": "+31-20-523-7625", "website": "https://www.hardrockcafe.com/location/amsterdam/", "brand": "Hard Rock"}, "geometry": {"type": "Point", "coordinates": [4.88298, 52.36211]}},
{"type": "Feature", "id": "w6uztmIDEcU1UTbi8tX7rW15NWc=", "properties": {"ref": "Location95", "@spider": "hardrock", "addr:street": "Leidsekade 97, 1017 PN", "addr:city": "Amsterdam Amsterdam", "addr:state": "North Holland", "addr:postcode": "1017", "addr:country": "NL", "name": "Hard Rock Hotel Amsterdam-American", "website": "https://www.hardrockhotels.com/amsterdam-american/", "brand": "Hard Rock"}, "geometry": {"type": "Point", "coordinates": [4.881296, 52.363893]}},
{"type": "Feature", "id": "LrldzId_ntfewSdyyLoAP29EHeo=", "properties": {"ref": "Location96", "@spider": "hardrock", "addr:street": "Sant Salvador 10", "addr:city": "Andorra la Vella", "addr:postcode": "AD500", "addr:country": "AD", "name": "Hard Rock Cafe Andorra", "phone": "+376 811 888", "website": "https://www.hardrockcafe.com/location/andorra/", "brand": "Hard Rock"}, "geometry": {"type": "Point", "coordinates": [1.53198, 42.50771]}},
{"type": "Feature", "id": "IgtMvJ7ZTfkhUDFuors2C96Zh-Y=", "properties": {"ref": "Location97", "@spider": "hardrock", "addr:street": "35 Groenplaats", "addr:city": "Antwerp", "addr:postcode": "2000 BE", "addr:country": "BE", "name": "Hard Rock Cafe Anthwerp", "phone": "+32 3 205 13 80", "website": "https://www.hardrockcafe.com/location/antwerp/", "brand": "Hard Rock"}, "geometry": {"type": "Point", "coordinates": [4.40213, 51.21867]}},
{"type": "Feature", "id": "qYukz4B_Rr57OdHEqOB7aZCVsmo=", "properties": {"ref": "Location98", "@spider": "hardrock", "addr:street": "Adrianou 52", "addr:city": "Athens", "addr:postcode": "10555 GR", "addr:country": "GR", "name": "Hard Rock Cafe Athens", "phone": "+30 21 0324 5170", "website": "https://www.hardrockcafe.com/location/athens/", "brand": "Hard Rock"}, "geometry": {"type": "Point", "coordinates": [23.72584, 37.97642]}},
{"type": "Feature", "id": "x6XqfLGXAirk6anlsBrgfH9yIIw=", "properties": {"ref": "Location99", "@spider": "hardrock", "addr:street": "13 Archbishop Makariou III Avenue", "addr:city": "Ayia Napa", "addr:country": "CY", "name": "Hard Rock Cafe Ayia Napa", "website": "https://www.hardrockcafe.com/location/ayia-napa/", "brand": "Hard Rock"}, "geometry": {"type": "Point", "coordinates": [34.00023, 34.98926]}},
{"type": "Feature", "id": "ON4j-vXcewP7r_VSIL8NkZyaIw8=", "properties": {"ref": "Location100", "@spider": "hardrock", "addr:street": "8, Aziz Aliyev str", "addr:city": "Baku", "addr:country": "AZ", "name": "Hard Rock Cafe Baku", "website": "https://www.hardrockcafe.com/location/baku/", "brand": "Hard Rock"}, "geometry": {"type": "Point", "coordinates": [49.83745, 40.36882]}},
{"type": "Feature", "id": "PnFJNZ2VTBDMYRyKjgyYPUy2HCo=", "properties": {"ref": "Location101", "@spider": "hardrock", "addr:street": "Plaza de Catalunya, 21", "addr:city": "Barcelona", "addr:postcode": "08002", "addr:country": "ES", "name": "Hard Rock Cafe Barcelona", "phone": "+34-93-270-2305", "website": "https://www.hardrockcafe.com/location/barcelona/", "brand": "Hard Rock"}, "geometry": {"type": "Point", "coordinates": [2.17063, 41.3859]}},
{"type": "Feature", "id": "TgRQNbmewMlsATmhEsOacTfEqJQ=", "properties": {"ref": "Location102", "@spider": "hardrock", "addr:street": "Kurf\u00fcrstendamm 224", "addr:city": "Berlin", "addr:postcode": "10719", "addr:country": "DE", "name": "Hard Rock Cafe Berlin", "phone": "+49 (0)30-884-62 0", "website": "https://www.hardrockcafe.com/location/berlin/", "brand": "Hard Rock"}, "geometry": {"type": "Point", "coordinates": [13.32939, 52.50317]}},
{"type": "Feature", "id": "6KC8bWZdkwQfOeOKtnXi5qbowZE=", "properties": {"ref": "Location103", "@spider": "hardrock", "addr:street": "Grand-Place 12A", "addr:city": "Brussels", "addr:postcode": "1000", "addr:country": "BE", "name": "Hard Rock Cafe Brussels", "phone": "0032 (0) 2 546 16 60", "website": "https://www.hardrockcafe.com/location/brussels/", "brand": "Hard Rock"}, "geometry": {"type": "Point", "coordinates": [4.35292, 50.84618]}},
{"type": "Feature", "id": "oRLYD4-We7XAfKaDpi6W7va8OH4=", "properties": {"ref": "Location104", "@spider": "hardrock", "addr:street": "1051 Budapest, V. district, De\u00e1k Ferenc street 3-5", "addr:city": "Budapest", "addr:postcode": "1051", "addr:country": "HU", "name": "Hard Rock Cafe Budapest", "phone": "+36 30 572 4011", "website": "https://www.hardrockcafe.com/location/budapest/", "brand": "Hard Rock"}, "geometry": {"type": "Point", "coordinates": [19.05106, 47.49615]}},
{"type": "Feature", "id": "2aBqfcinPsJveIExeJZ6VB2lqcY=", "properties": {"ref": "Location105", "@spider": "hardrock", "addr:street": "32 Kiseleff Avenue, District 1", "addr:city": "Bucharest", "addr:postcode": "11343", "addr:country": "RO", "name": "Hard Rock Cafe Bucharest", "phone": "+40-21-206-6261", "website": "https://www.hardrockcafe.com/location/bucharest/", "brand": "Hard Rock"}, "geometry": {"type": "Point", "coordinates": [26.07622, 44.47564]}},
{"type": "Feature", "id": "2N4uuEmO39SxQJYlWq6HYXL-KSU=", "properties": {"ref": "Location106", "@spider": "hardrock", "addr:street": "Nagymez\u0151 utca 38", "addr:city": "Budapest", "addr:postcode": "1065", "addr:country": "HU", "name": "Hard Rock Hotel Budapest", "phone": "+36-70-908-0601", "website": "https://www.hardrockhotels.com/budapest/", "brand": "Hard Rock"}, "geometry": {"type": "Point", "coordinates": [19.058412998147706, 47.504786170382]}},
{"type": "Feature", "id": "DxBqYWzqS88XfoyroOt56VW-w0I=", "properties": {"ref": "Location107", "@spider": "hardrock", "addr:street": "The Promenade, 87 Victoria Road, Shop 105, Camps Bay", "addr:city": "Cape Town", "addr:postcode": "8040", "addr:country": "ZA", "name": "Hard Rock Cafe Cape Town", "website": "https://www.hardrockcafe.com/location/cape-town/", "brand": "Hard Rock"}, "geometry": {"type": "Point", "coordinates": [18.37752, -33.95297]}},
{"type": "Feature", "id": "Pf--KL8edpVDQITEiD64aqOM_WQ=", "properties": {"ref": "Location108", "@spider": "hardrock", "addr:street": "G\u00fcrzenichstra\u00dfe 8", "addr:city": "Cologne", "addr:postcode": "50667", "addr:country": "DE", "name": "Hard Rock Cafe Cologne", "phone": "+49 (0)221 - 27 26 880", "website": "https://www.hardrockcafe.com/location/cologne/", "brand": "Hard Rock"}, "geometry": {"type": "Point", "coordinates": [6.95702, 50.93635]}},
{"type": "Feature", "id": "LzfK8UOVEan8b3YWaCzulzS0bVQ=", "properties": {"ref": "Location109", "@spider": "hardrock", "addr:street": "R\u00e5dhuspladsen 45-47", "addr:city": "Copenhagen", "addr:postcode": "1550", "addr:country": "DK", "name": "Hard Rock Cafe Copenhagen", "phone": "+45 3312 4333", "website": "https://www.hardrockcafe.com/location/copenhagen/", "brand": "Hard Rock"}, "geometry": {"type": "Point", "coordinates": [12.56797, 55.67682]}},
{"type": "Feature", "id": "MMO0buRJfhCjigUMsMf-mUtM0YI=", "properties": {"ref": "Location110", "@spider": "hardrock", "addr:street": "Tobelm\u00fchlestrasse 2", "addr:city": "Davos", "addr:country": "CH", "name": "Hard Rock Hotel Davos", "phone": "+41 81 4151600", "website": "https://www.hardrockhotels.com/davos/", "brand": "Hard Rock"}, "geometry": {"type": "Point", "coordinates": [9.82306, 46.79721]}},
{"type": "Feature", "id": "s8Wxlc74YoYIRWinywfVa9LdI_g=", "properties": {"ref": "Location111", "@spider": "hardrock", "addr:street": "Dubai Festival City Mall, Zone 8a", "addr:city": "Dubai", "addr:postcode": "126961", "addr:country": "AE", "name": "Hard Rock Cafe Dubai", "phone": "+971 4 232 8900", "website": "https://www.hardrockcafe.com/location/dubai/", "brand": "Hard Rock"}, "geometry": {"type": "Point", "coordinates": [55.35225, 25.22179]}},
{"type": "Feature", "id": "6uPZ8QP5qbQWHA2QTAhCmqMZLP8=", "properties": {"ref": "Location112", "@spider": "hardrock", "addr:street": "12 Fleet Street", "addr:city": "Dublin", "addr:country": "IE", "name": "Hard Rock Cafe Dublin", "phone": "+353-1-671-7777", "website": "https://www.hardrockcafe.com/location/dublin/", "brand": "Hard Rock"}, "geometry": {"type": "Point", "coordinates": [-6.26081, 53.34582]}},
{"type": "Feature", "id": "s_VARFOYI_pZMIJPJphywI_7YhU=", "properties": {"ref": "Location113", "@spider": "hardrock", "addr:street": "18 Exchange Street Upper, Temple Bar", "addr:city": "Dublin", "addr:postcode": "D08 AV24", "addr:country": "IE", "name": "Hard Rock Hotel Dublin", "phone": "353 1 482 5000", "website": "https://www.hardrockhotels.com/dublin", "brand": "Hard Rock"}, "geometry": {"type": "Point", "coordinates": [-6.268018, 53.344884]}},
{"type": "Feature", "id": "EbPQHTlw69fyFWJJYjIq1NOIA-4=", "properties": {"ref": "Location114", "@spider": "hardrock", "addr:street": "Poljana Paska Milicevica 4", "addr:city": "Dubrovnik", "addr:country": "HR", "name": "Hard Rock Cafe Dubrovnik", "phone": "+385 20 413 100", "website": "https://www.hardrockcafe.com/location/Dubrovnik/", "brand": "Hard Rock"}, "geometry": {"type": "Point", "coordinates": [18.1049591, 42.6418592]}},
{"type": "Feature", "id": "s6CcIxWKA5M7DtOuNKGPOacHtZY=", "properties": {"ref": "Location115", "@spider": "hardrock", "addr:street": "Dubai Airport (DXB), Terminal 3, Concourse B", "addr:city": "Dubai", "addr:postcode": "00000", "addr:country": "AE", "name": "Hard Rock Cafe DXB", "phone": "+971 4 232 8900", "website": "https://www.hardrockcafe.com/location/dubai-airport/", "brand": "Hard Rock"}, "geometry": {"type": "Point", "coordinates": [55.36051, 25.24502]}},
{"type": "Feature", "id": "EcMvXKtMDBLAmnz-YIPX7449hd4=", "properties": {"ref": "Location116", "@spider": "hardrock", "addr:street": "20 George Street", "addr:city": "Edinburgh", "addr:postcode": "EH2-2PF", "addr:country": "GB", "name": "Hard Rock Cafe Edinburgh", "phone": "+44-131-260-3000", "website": "https://www.hardrockcafe.com/location/edinburgh/", "brand": "Hard Rock"}, "geometry": {"type": "Point", "coordinates": [-3.19642, 55.95364]}},
{"type": "Feature", "id": "YmhgmJTwC9aVHYXTwnIzB9kmZK8=", "properties": {"ref": "Location117", "@spider": "hardrock", "addr:street": "Via dei Brunelleschi, 1, 50123", "addr:city": "Florence", "addr:postcode": "50123", "addr:country": "IT", "name": "Hard Rock Cafe Florence", "phone": "+39 055 27 78 41", "website": "https://www.hardrockcafe.com/location/florence/", "brand": "Hard Rock"}, "geometry": {"type": "Point", "coordinates": [11.25354, 43.77215]}},
{"type": "Feature", "id": "lw_1KV6tx3odwA2j1t0fqWsbTUQ=", "properties": {"ref": "Location118", "@spider": "hardrock", "addr:street": "D\u0142ugi Targ 35/38", "addr:city": "Gdansk", "addr:postcode": "80-830", "addr:country": "PL", "name": "Hard Rock Cafe Gdansk", "phone": "+48 58 535 77 04", "website": "https://www.hardrockcafe.com/location/gdansk/", "brand": "Hard Rock"}, "geometry": {"type": "Point", "coordinates": [18.65446, 54.3484]}},
{"type": "Feature", "id": "cZzzenX7Bdk2Mn72kNd7CSnPf-s=", "properties": {"ref": "Location119", "@spider": "hardrock", "addr:street": "179 Buchanan St", "addr:city": "Glasgow", "addr:postcode": "G1 2JZ", "addr:country": "GB", "name": "Hard Rock Cafe Glasgow", "phone": "+44 141 353 8790", "website": "https://www.hardrockcafe.com/location/glasgow/", "brand": "Hard Rock"}, "geometry": {"type": "Point", "coordinates": [-4.25314, 55.86305]}},
{"type": "Feature", "id": "Ubf7qZSM95e0lVmWnyoDTuOpPBo=", "properties": {"ref": "Location120", "@spider": "hardrock", "addr:street": "Gran Canaria, Calle las Dunas, 4, 35100 San Bartolom\u00e9 de Tirajana, Las Palmas, Spain", "addr:city": "Gran Canaria", "addr:postcode": "35100", "addr:country": "ES", "name": "Hard Rock Cafe Gran Canaria", "phone": "+34 928 30 26 70", "website": "https://www.hardrockcafe.com/location/gran-canaria/", "brand": "Hard Rock"}, "geometry": {"type": "Point", "coordinates": [-15.57006, -103.41323]}},
{"type": "Feature", "id": "wzqQxeIXFvptsixSDqnEv7bAyPU=", "properties": {"ref": "Location121", "@spider": "hardrock", "addr:street": "Br\u00fccke 5, Bei den St. Pauli-Landungsbr\u00fccken", "addr:city": "Hamburg", "addr:postcode": "20359", "addr:country": "DE", "name": "Hard Rock Cafe Hamburg", "phone": "+49 40 30068480", "website": "https://www.hardrockcafe.com/location/hamburg/", "brand": "Hard Rock"}, "geometry": {"type": "Point", "coordinates": [9.96764, 53.54577]}},
{"type": "Feature", "id": "gdXD59EPBnbQ9FteNAIsojbcBSY=", "properties": {"ref": "Location122", "@spider": "hardrock", "addr:street": "Nawwara Center, Tareek El Kora, Red Sea Governorate 84511, Egypt", "addr:city": "Hurghada", "addr:postcode": "84511", "addr:country": "EG", "name": "Hard Rock Cafe Hurghada", "phone": "+20 65 3465171", "website": "https://www.hardrockcafe.com/location/hurghada/", "brand": "Hard Rock"}, "geometry": {"type": "Point", "coordinates": [33.82352, 27.17179]}},
{"type": "Feature", "id": "Do3sO8PTkLmDVRyg-XJ04OBwLm0=", "properties": {"ref": "Location123", "@spider": "hardrock", "addr:street": "Aleksanterinkatu 21, 00100 Helsinki, Finland", "addr:city": "Helsinki", "addr:postcode": "00100", "addr:country": "FI", "name": "Hard Rock Cafe Helsinki", "phone": "+358 9 42826888", "website": "https://www.hardrockcafe.com/location/helsinki/", "brand": "Hard Rock"}, "geometry": {"type": "Point", "coordinates": [24.94144, 60.16886]}},
{"type": "Feature", "id": "iCuLVIxHoV900ccw-30SaVsBsdI=", "properties": {"ref": "Location124", "@spider": "hardrock", "addr:street": "Paseo Vara de Rey 1", "addr:city": "Ibiza", "addr:postcode": "07800", "addr:country": "ES", "name": "Hard Rock Cafe Ibiza", "phone": "+34 971 306 805", "website": "https://www.hardrockcafe.com/location/ibiza/", "brand": "Hard Rock"}, "geometry": {"type": "Point", "coordinates": [1.43399, 38.90927]}},
{"type": "Feature", "id": "mApjRzraIuvd_HBY9UlmxsV4JE4=", "properties": {"ref": "Location125", "@spider": "hardrock", "addr:street": "Carretera Playa D'en Bossa S/N", "addr:city": "Ibiza", "addr:country": "ES", "name": "Hard Rock Hotel Ibiza", "phone": "34-971-31-4210", "website": "https://www.hrhibiza.com/", "brand": "Hard Rock"}, "geometry": {"type": "Point", "coordinates": [1.40453, 38.8831]}},
{"type": "Feature", "id": "gL2qQrz2KXMb6-r5OuZ5zM_L6dI=", "properties": {"ref": "Location126", "@spider": "hardrock", "addr:street": "Maria-Theresien-Stra\u00dfe 16", "addr:city": "Innsbruck", "addr:postcode": "6020", "addr:country": "AT", "name": "Hard Rock Cafe Innsbruck", "phone": "+43 512 3197770", "website": "https://www.hardrockcafe.com/location/innsbruck/", "brand": "Hard Rock"}, "geometry": {"type": "Point", "coordinates": [11.39345, 47.26584]}},
{"type": "Feature", "id": "o8ltdAXRZ9Fok-Y7_Yzou_cfNHA=", "properties": {"ref": "Location127", "@spider": "hardrock", "addr:street": "Nelson Mandela Square, 8 Maude Street, Sandton", "addr:city": "Johannesburg", "addr:postcode": "2146", "addr:country": "ZA", "name": "Hard Rock Cafe Johannesburg", "phone": "+27 11 784 3144", "website": "https://www.hardrockcafe.com/location/johannesburg/", "brand": "Hard Rock"}, "geometry": {"type": "Point", "coordinates": [28.05466, -26.1074]}},
{"type": "Feature", "id": "ZgbU_67X84GHgfHs4vo2WKXbnd8=", "properties": {"ref": "Location128", "@spider": "hardrock", "addr:street": "Rynek G\u0142\u00f3wny", "addr:city": "Krakow", "addr:postcode": "31-042", "addr:country": "PL", "name": "Hard Rock Cafe Krakow", "phone": "+48-124-291-155", "website": "https://www.hardrockcafe.com/location/krakow/", "brand": "Hard Rock"}, "geometry": {"type": "Point", "coordinates": [19.93898, 50.06144]}},
{"type": "Feature", "id": "e5SvVQQw6qGsrR1gpWoBSKDgphQ=", "properties": {"ref": "Location129", "@spider": "hardrock", "addr:street": "Plot No 3 & 4, Block XVI, Oniru Estate, Victoria Island", "addr:city": "Lagos", "addr:postcode": "101241", "addr:country": "NG", "name": "Hard Rock Cafe Lagos", "phone": "+2349081988888", "website": "https://www.hardrockcafe.com/location/lagos/", "brand": "Hard Rock"}, "geometry": {"type": "Point", "coordinates": [3.44193, 6.42264]}},
{"type": "Feature", "id": "GIcpXcp4KtERPPnT83bJTNrdyq4=", "properties": {"ref": "Location130", "@spider": "hardrock", "addr:street": "Avenida da Liberdade, 2", "addr:city": "Lisbon", "addr:postcode": "1250 - 144", "addr:country": "PT", "name": "Hard Rock Cafe Lisbon", "phone": "+351-213-245-280", "website": "https://www.hardrockcafe.com/location/lisbon/", "brand": "Hard Rock"}, "geometry": {"type": "Point", "coordinates": [-9.14174, 38.71646]}},
{"type": "Feature", "id": "uTLiZG0Z_Hb6yhm5RlleyTjCZG4=", "properties": {"ref": "Location131", "@spider": "hardrock", "addr:street": "150 Old Park Lane", "addr:city": "London", "addr:postcode": "W1K 1QZ", "addr:country": "GB", "name": "Hard Rock Cafe London", "phone": "44 207 514 1700", "website": "https://www.hardrockcafe.com/location/london/", "brand": "Hard Rock"}, "geometry": {"type": "Point", "coordinates": [-0.14905, 51.50407]}},
{"type": "Feature", "id": "-slOM514plXPSVuB34FMfsKYV5c=", "properties": {"ref": "Location132", "@spider": "hardrock", "addr:street": "Great Cumberland Place", "addr:city": "London", "addr:postcode": "W1H 7DL", "addr:country": "GB", "name": "Hard Rock Hotel London", "phone": "0800330 8089", "website": "https://www.hardrockhotels.com/london", "brand": "Hard Rock"}, "geometry": {"type": "Point", "coordinates": [-0.1597, 51.51501]}},
{"type": "Feature", "id": "18xwxDk9T5hIqQmqcPwiLYxnLhs=", "properties": {"ref": "Location133", "@spider": "hardrock", "addr:street": "1 Rue du Pr\u00e9sident Carnot", "addr:city": "Lyon", "addr:postcode": "69002", "addr:country": "FR", "name": "Hard Rock Cafe Lyon", "phone": "0033 478 89 2242", "website": "https://www.hardrockcafe.com/location/lyon/", "brand": "Hard Rock"}, "geometry": {"type": "Point", "coordinates": [4.83751, 45.76267]}},
{"type": "Feature", "id": "EawdXqmNXst0hP1cmghWQSA6LzY=", "properties": {"ref": "Location134", "@spider": "hardrock", "addr:street": "Paseo de la Castellana 2", "addr:city": "Madrid", "addr:postcode": "28046", "addr:country": "ES", "name": "Hard Rock Cafe Madrid", "phone": "+34-91-436-4340", "website": "https://www.hardrockcafe.com/location/madrid/", "brand": "Hard Rock"}, "geometry": {"type": "Point", "coordinates": [-3.68981, 40.42609]}},
{"type": "Feature", "id": "Al4htwlZ5dltHmFlcnmBrsA3aQ4=", "properties": {"ref": "Location135", "@spider": "hardrock", "addr:street": "Paseo del Muelle Uno, 1", "addr:city": "Malaga", "addr:postcode": "29016", "addr:country": "ES", "name": "Hard Rock Cafe Malaga", "website": "https://www.hardrockcafe.com/location/malaga/", "brand": "Hard Rock"}, "geometry": {"type": "Point", "coordinates": [-4.4129, 36.7184]}},
{"type": "Feature", "id": "VxYQP72UFJIxvPRQ757iArm21Vk=", "properties": {"ref": "Location136", "@spider": "hardrock", "addr:street": "Paseo Maritimo s/n", "addr:city": "Palma de Mallorca", "addr:postcode": "07014", "addr:country": "ES", "name": "Hard Rock Cafe Mallorca", "phone": "+34 971 28 18 72", "website": "https://www.hardrockcafe.com/location/mallorca/", "brand": "Hard Rock"}, "geometry": {"type": "Point", "coordinates": [2.63501, 39.56921]}},
{"type": "Feature", "id": "-JwHoy3JK_UMCmwsW2eNsFIvCoY=", "properties": {"ref": "Location137", "@spider": "hardrock", "addr:street": "Malta International Airport, Departures Lounge", "addr:city": "Luqa", "addr:postcode": "4000", "addr:country": "MT", "name": "Hard Rock Cafe Malta Airport", "phone": "00356 23696703", "website": "https://www.hardrockcafe.com/location/malta-airport/", "brand": "Hard Rock"}, "geometry": {"type": "Point", "coordinates": [14.48303, 35.85441]}},
{"type": "Feature", "id": "jZ63NzdpIVbezbJTqguHFHmmEW8=", "properties": {"ref": "Location138", "@spider": "hardrock", "addr:street": "Vault 17, Valletta Waterfront", "addr:city": "Valletta", "addr:postcode": "FRNB1913", "addr:country": "MT", "name": "Hard Rock Bar Malta (Valletta)", "phone": "+356 2123 3346", "website": "https://www.hardrockcafe.com/location/malta-bar-(valletta)/", "brand": "Hard Rock"}, "geometry": {"type": "Point", "coordinates": [14.50795, 35.8902]}},
{"type": "Feature", "id": "zaJoB_Gga8NYRZKpJMQxzATFJ5g=", "properties": {"ref": "Location139", "@spider": "hardrock", "addr:street": "Exchange Square", "addr:city": "Manchester", "addr:postcode": "M4 2BS", "addr:country": "GB", "name": "Hard Rock Cafe Manchester", "phone": "+44-161-831-6700", "website": "https://www.hardrockcafe.com/location/manchester/", "brand": "Hard Rock"}, "geometry": {"type": "Point", "coordinates": [-2.24073, 53.48528]}},
{"type": "Feature", "id": "Pl82jHAYJiuK7cTBfz8vMvzAG2I=", "properties": {"ref": "Location140", "@spider": "hardrock", "addr:street": "Urb. Nueva Andaluc\u00eda", "addr:city": "Marbella", "addr:state": "M\u00e1laga", "addr:postcode": "29660", "addr:country": "ES", "name": "Hard Rock Hotel Marbella", "phone": "0034 951 55 20 50", "website": "https://www.hardrockhotels.com/marbella/", "brand": "Hard Rock"}, "geometry": {"type": "Point", "coordinates": [-4.9775306, 36.4874139]}},
{"type": "Feature", "id": "iKraIJWJPWikdAXUsb-EH5qdORs=", "properties": {"ref": "Location141", "@spider": "hardrock", "addr:street": "Via Dante, 5 Milano", "addr:city": "Milan", "addr:postcode": "20121", "addr:country": "IT", "name": "Hard Rock Cafe Milan", "phone": "+39-02-58124970", "website": "https://www.hardrockcafe.com/location/milan/", "brand": "Hard Rock"}, "geometry": {"type": "Point", "coordinates": [9.1670904, 45.4663085]}},
{"type": "Feature", "id": "aCSH9s5yrVhU8KZzPaRIlZoZY2o=", "properties": {"ref": "Location142", "@spider": "hardrock", "addr:street": "Stary Arbat, 44", "addr:city": "Moscow", "addr:postcode": "119002", "addr:country": "RU", "name": "Hard Rock Cafe Moscow", "phone": "+7-499-241-43-42", "website": "https://www.hardrockcafe.com/location/moscow/", "brand": "Hard Rock"}, "geometry": {"type": "Point", "coordinates": [37.5866, 55.74813]}},
{"type": "Feature", "id": "h-s3WzQguoYjG_DejtHLj1TpzZM=", "properties": {"ref": "Location143", "@spider": "hardrock", "addr:street": "Platzl 1", "addr:city": "Munich", "addr:postcode": "80331", "addr:country": "DE", "name": "Hard Rock Cafe Munich", "phone": "+4989-242-9490", "website": "https://www.hardrockcafe.com/location/munich/", "brand": "Hard Rock"}, "geometry": {"type": "Point", "coordinates": [11.57958, 48.13771]}},
{"type": "Feature", "id": "bro8OgOr34DcVOLTzbDuGMPw1mI=", "properties": {"ref": "Location144", "@spider": "hardrock", "addr:street": "El Salam Road, Nabq Bay, Sharm El Sheikh", "addr:city": "Nabq", "addr:postcode": "46619", "addr:country": "EG", "name": "Hard Rock Cafe Nabq", "phone": "+2 (069) 3710885", "website": "https://www.hardrockcafe.com/location/nabq/", "brand": "Hard Rock"}, "geometry": {"type": "Point", "coordinates": [34.42946, 28.0422]}},
{"type": "Feature", "id": "Xrd67meo14tNKEAD47K3SK1kvY4=", "properties": {"ref": "Location145", "@spider": "hardrock", "addr:street": "The Guildhall Sandhill Quayside", "addr:city": "Newcastle Upon Tyne", "addr:postcode": "NE1 3AF GB", "addr:country": "GB", "name": "Hard Rock Cafe Newcastle", "website": "https://www.hardrockcafe.com/location/newcastle/", "brand": "Hard Rock"}, "geometry": {"type": "Point", "coordinates": [-1.60839, 54.96849]}},
{"type": "Feature", "id": "F5V3air4DEKZ-vkjYYS5eCHeq_U=", "properties": {"ref": "Location146", "@spider": "hardrock", "addr:street": "5 Promenade des Anglais", "addr:city": "Nice", "addr:postcode": "06000", "addr:country": "FR", "name": "Hard Rock Cafe Nice", "phone": "+33 (0) 4 93 62 71 80", "website": "https://www.hardrockcafe.com/location/nice/", "brand": "Hard Rock"}, "geometry": {"type": "Point", "coordinates": [7.26495, 43.69502]}},
{"type": "Feature", "id": "hWEn3lhqbQHqSU5WI-GKAZ_zmvc=", "properties": {"ref": "Location147", "@spider": "hardrock", "addr:street": "Marble Arch & Great Cumberland Place", "addr:city": "London", "addr:postcode": "W1H 7EJ", "addr:country": "GB", "name": "Hard Rock Cafe Oxford Street", "phone": "0800 330 8089", "website": "https://www.hardrockcafe.com/location/oxford/", "brand": "Hard Rock"}, "geometry": {"type": "Point", "coordinates": [-0.15874, 51.51406]}},
{"type": "Feature", "id": "_-ndtDfbVU1hV9TkSXsmtiKMAFo=", "properties": {"ref": "Location148", "@spider": "hardrock", "addr:street": "14 Boulevard Montmartre", "addr:city": "Paris", "addr:postcode": "75009", "addr:country": "FR", "name": "Hard Rock Cafe Paris", "phone": "+331-5324-6000", "website": "https://www.hardrockcafe.com/location/paris/", "brand": "Hard Rock"}, "geometry": {"type": "Point", "coordinates": [2.34158, 48.87187]}},
{"type": "Feature", "id": "opeWHkpql7ag22q7tZciYjKl150=", "properties": {"ref": "Location149", "@spider": "hardrock", "addr:street": "Criterion Building, 225-229 Piccadilly", "addr:city": "London", "addr:postcode": "W1J9HR", "addr:country": "GB", "name": "Hard Rock Cafe Piccadilly Circus", "phone": "+44 20 7287 4600", "website": "https://www.hardrockcafe.com/location/piccadilly-circus/", "brand": "Hard Rock"}, "geometry": {"type": "Point", "coordinates": [-0.13372, 51.50991]}},
{"type": "Feature", "id": "H2Dy5K0nKEaUReSYtz0pe9BJkxU=", "properties": {"ref": "Location150", "@spider": "hardrock", "addr:street": "Port El Kantaoui, Sousse", "addr:city": "Port El Kantaoui", "addr:postcode": "4089", "addr:country": "TN", "name": "Hard Rock Cafe Port El Kantaoui", "phone": "+ 216 73 347 300", "website": "https://www.hardrockcafe.com/location/port-el-kantaoui/", "brand": "Hard Rock"}, "geometry": {"type": "Point", "coordinates": [10.5461, 35.90697]}},
{"type": "Feature", "id": "59nIERfUuxtkxO-sd51vhSYUjCw=", "properties": {"ref": "Location151", "@spider": "hardrock", "addr:street": "Cetinjska 1 Capital Plaza", "addr:city": "Podgorica", "addr:postcode": "81000", "addr:country": "ME", "name": "Hard Rock Cafe Podgorica", "phone": "+382 20 226 992", "website": "https://www.hardrockcafe.com/location/podgorica/", "brand": "Hard Rock"}, "geometry": {"type": "Point", "coordinates": [19.24448, 42.43965]}},
{"type": "Feature", "id": "4H_CNZ5LRLTvjZfJrB0ot6Ltngg=", "properties": {"ref": "Location152", "@spider": "hardrock", "addr:street": "Rua do Almada, 120", "addr:city": "Porto", "addr:postcode": "4005-031", "addr:country": "PT", "name": "Hard Rock Cafe Porto", "phone": "+351 227664470", "website": "https://www.hardrockcafe.com/location/porto/", "brand": "Hard Rock"}, "geometry": {"type": "Point", "coordinates": [-8.61419, 41.14717]}},
{"type": "Feature", "id": "06USbgr6i_RUEUBYOwvefEDkQyA=", "properties": {"ref": "Location153", "@spider": "hardrock", "addr:street": "D\u016fm U Rotta, Mal\u00e9 n\u00e1m\u011bst\u00ed 3, Praha 1", "addr:city": "Prague", "addr:postcode": "110 00", "addr:country": "CZ", "name": "Hard Rock Cafe Prague", "phone": "+420-224-229-529", "website": "https://www.hardrockcafe.com/location/prague/", "brand": "Hard Rock"}, "geometry": {"type": "Point", "coordinates": [14.41933, 50.08667]}},
{"type": "Feature", "id": "w2ITEhYr7vE0lSrqDLN_6mgMiaQ=", "properties": {"ref": "Location154", "@spider": "hardrock", "addr:street": "Shop G167, Menlyn Park Shopping Centre", "addr:city": "Pretoria", "addr:postcode": "0081", "addr:country": "ZA", "name": "Hard Rock Cafe Pretoria", "phone": "+27 010 140 0797", "website": "https://www.hardrockcafe.com/location/pretoria/", "brand": "Hard Rock"}, "geometry": {"type": "Point", "coordinates": [28.2753, -25.78348]}},
{"type": "Feature", "id": "tjr1io6Lyn3jmTHky3TQp4rJUTg=", "properties": {"ref": "Location155", "@spider": "hardrock", "addr:street": "L\u00e6kjargata 2A", "addr:city": "Reykjavik", "addr:postcode": "101", "addr:country": "IS", "name": "Hard Rock Cafe Reykjavik", "phone": "+354 5600 800", "website": "https://www.hardrockcafe.com/location/reykjavik/", "brand": "Hard Rock"}, "geometry": {"type": "Point", "coordinates": [-21.93735, 64.14721]}},
{"type": "Feature", "id": "tZ2uOs9S4hop7I1QYuKOGQL2INs=", "properties": {"ref": "Location156", "@spider": "hardrock", "addr:street": "Via Vittorio Veneto 62 a/b", "addr:city": "Rome", "addr:postcode": "00187", "addr:country": "IT", "name": "Hard Rock Cafe Rome", "phone": "+39-06-4203051", "website": "https://www.hardrockcafe.com/location/rome/", "brand": "Hard Rock"}, "geometry": {"type": "Point", "coordinates": [12.48975, 41.90622]}},
{"type": "Feature", "id": "ecGvI6Ab0kNVVjgajQ73q50b-MU=", "properties": {"ref": "Location157", "@spider": "hardrock", "addr:street": "El Soultan Qabous Street, Na'ama Bay", "addr:city": "Sharm El Sheikh", "addr:postcode": "46628", "addr:country": "EG", "name": "Hard Rock Cafe Sharm el Sheikh", "phone": "+20-693-602-664", "website": "https://www.hardrockcafe.com/location/sharm-el-sheikh/", "brand": "Hard Rock"}, "geometry": {"type": "Point", "coordinates": [34.32391, 27.90939]}},
{"type": "Feature", "id": "uWKFF0VRv6M0rcQHIbl88CpXuUs=", "properties": {"ref": "Location158", "@spider": "hardrock", "addr:street": "San Fernando, 3", "addr:city": "Seville", "addr:postcode": "41004", "addr:country": "ES", "name": "Hard Rock Cafe Seville", "phone": "+34 954 22 0126", "website": "https://www.hardrockcafe.com/location/seville/", "brand": "Hard Rock"}, "geometry": {"type": "Point", "coordinates": [-5.99273, 37.38239]}},
{"type": "Feature", "id": "h6Yxs-Mvakl3AtzXf-NfM1wgUAk=", "properties": {"ref": "Location159", "@spider": "hardrock", "addr:street": "Sveavagen 75", "addr:city": "Stockholm", "addr:postcode": "SE-113 50", "addr:country": "SE", "name": "Hard Rock Cafe Stockholm", "phone": "+46-8-545-494-00", "website": "https://www.hardrockcafe.com/location/stockholm/", "brand": "Hard Rock"}, "geometry": {"type": "Point", "coordinates": [18.05507, 59.34414]}},
{"type": "Feature", "id": "RxVUBZCAlO2jRUz0cnacPmWIQ_I=", "properties": {"ref": "Location160", "@spider": "hardrock", "addr:street": "Sadovaya ulitsa, 62", "addr:city": "St Petersburg", "addr:postcode": "190068", "addr:country": "RU", "name": "Hard Rock Cafe St Petersburg", "phone": "+7 812 455 9900", "website": "https://www.hardrockcafe.com/location/st-petersburg/", "brand": "Hard Rock"}, "geometry": {"type": "Point", "coordinates": [30.30196, 59.92113]}},
{"type": "Feature", "id": "DF2-Cd9Kdm_OtIJ0MfxxNg7FQEg=", "properties": {"ref": "Location161", "@spider": "hardrock", "addr:street": "Sun City Resort, R556", "addr:city": "Sun City", "addr:postcode": "0136", "addr:country": "ZA", "name": "Hard Rock Cafe Sun City", "phone": "+27 14 007 0717", "website": "https://www.hardrockcafe.com/location/sun-city/", "brand": "Hard Rock"}, "geometry": {"type": "Point", "coordinates": [27.09792, -25.34625]}},
{"type": "Feature", "id": "ac2AkJmYfJ3URUH8pNRd6J-3fFQ=", "properties": {"ref": "Location162", "@spider": "hardrock", "addr:street": "1 Vasil Petriashvili Street", "addr:city": "Tbilisi", "addr:country": "GE", "name": "Hard Rock Cafe Tbilisi", "website": "https://www.hardrockcafe.com/location/Tbilisi/", "brand": "Hard Rock"}, "geometry": {"type": "Point", "coordinates": [44.7782278, 41.708462]}},
{"type": "Feature", "id": "R2ba-E3F70Xpp14EQza_GzC-m0Y=", "properties": {"ref": "Location163", "@spider": "hardrock", "addr:street": "Avenida De Las Americas s/n, Piramide De Arona, Playa de las Am\u00e9ricas,", "addr:city": "Tenerife", "addr:postcode": "38660", "addr:country": "ES", "name": "Hard Rock Cafe Tenerife", "phone": "+34 922 055 022", "website": "https://www.hardrockcafe.com/location/tenerife/", "brand": "Hard Rock"}, "geometry": {"type": "Point", "coordinates": [-16.73126, 28.05463]}},
{"type": "Feature", "id": "uFebk7x8b6I1qsqe05r7tOQat0c=", "properties": {"ref": "Location164", "@spider": "hardrock", "addr:street": "Avenida de Adeje 300, s/n,", "addr:city": "Tenerife", "addr:postcode": "38660", "addr:country": "ES", "name": "Hard Rock Hotel Tenerife", "website": "https://www.hardrockhoteltenerife.com/", "brand": "Hard Rock"}, "geometry": {"type": "Point", "coordinates": [-16.73061, 28.08901]}},
{"type": "Feature", "id": "wzcwVcDBn1aqOIRRTZCW5qbGqX0=", "properties": {"ref": "Location165", "@spider": "hardrock", "addr:street": "Storgata 42", "addr:city": "Tromso", "addr:postcode": "9008", "addr:country": "NO", "name": "Hard Rock Cafe Tromso", "phone": "+47 404 00 081", "website": "https://www.hardrockcafe.com/location/tromso/", "brand": "Hard Rock"}, "geometry": {"type": "Point", "coordinates": [18.8436517, 69.6738682]}},
{"type": "Feature", "id": "n2B6YFJNm8SYOPQWK5_Le42mrt4=", "properties": {"ref": "Location166", "@spider": "hardrock", "addr:street": "Avenida del Marqu\u00e9s de Sotelo, 6", "addr:city": "Valencia", "addr:postcode": "46002", "addr:country": "ES", "name": "Hard Rock Cafe Valencia", "website": "https://www.hardrockcafe.com/location/valencia/", "brand": "Hard Rock"}, "geometry": {"type": "Point", "coordinates": [-0.37712, 39.46895]}},
{"type": "Feature", "id": "01b-DkoDtHjDkWyzeNru3nucbP8=", "properties": {"ref": "Location167", "@spider": "hardrock", "addr:street": "Bacino Orseolo, San Marco 1192", "addr:city": "Venice", "addr:postcode": "I-30124", "addr:country": "IT", "name": "Hard Rock Cafe Venice", "phone": "+39 0415229665", "website": "https://www.hardrockcafe.com/location/venice/", "brand": "Hard Rock"}, "geometry": {"type": "Point", "coordinates": [12.33681, 45.43419]}},
{"type": "Feature", "id": "eqv4V0b9lmnLXHbFVTVTDVFwX0o=", "properties": {"ref": "Location168", "@spider": "hardrock", "addr:street": "Piazza Bra 22", "addr:city": "Verona", "addr:postcode": "37121", "addr:country": "IT", "name": "Hard Rock Cafe Verona", "phone": "+39 045 491 6401", "website": "https://www.hardrockcafe.com/location/verona/", "brand": "Hard Rock"}, "geometry": {"type": "Point", "coordinates": [10.989548, 45.438883]}},
{"type": "Feature", "id": "2bsBhuaJIzisigh20q9CqyRkBw8=", "properties": {"ref": "Location169", "@spider": "hardrock", "addr:street": "Rotenturmstrasse 25", "addr:city": "Vienna", "addr:postcode": "1010", "addr:country": "AT", "name": "Hard Rock Cafe Vienna", "phone": "+43 (0)1 53 50 403", "website": "https://www.hardrockcafe.com/location/vienna/", "brand": "Hard Rock"}, "geometry": {"type": "Point", "coordinates": [16.37556, 48.21131]}},
{"type": "Feature", "id": "Cs6uPoUx6wi5unnONia4civD9UI=", "properties": {"ref": "Location170", "@spider": "hardrock", "addr:street": "Z\u0142ote Tarasy, ul. Zlota 59", "addr:city": "Warsaw", "addr:postcode": "00-120", "addr:country": "PL", "name": "Hard Rock Cafe Warsaw", "phone": "+48-22-222-0-700", "website": "https://www.hardrockcafe.com/location/warsaw/", "brand": "Hard Rock"}, "geometry": {"type": "Point", "coordinates": [21.00269, 52.23017]}},
{"type": "Feature", "id": "m9sYMWIA4l_VL5xRPkoQreXUuKc=", "properties": {"ref": "Location171", "@spider": "hardrock", "addr:street": "Rynek 25", "addr:city": "Wroclaw", "addr:country": "PL", "name": "Hard Rock Cafe Wroclaw", "website": "https://www.hardrockcafe.com/location/wroclaw/", "brand": "Hard Rock"}, "geometry": {"type": "Point", "coordinates": [17.0300344, 51.1091175]}},
{"type": "Feature", "id": "s9fVcGx1bkpcZCZyvQUP23w1CEM=", "properties": {"ref": "Location172", "@spider": "hardrock", "addr:street": "3a Pushkin St", "addr:city": "Yerevan", "addr:postcode": "0010", "addr:country": "AM", "name": "Hard Rock Cafe Yerevan", "phone": "+033 50 50 00", "website": "https://www.hardrockcafe.com/location/yerevan/", "brand": "Hard Rock"}, "geometry": {"type": "Point", "coordinates": [13.1896087, 45.0142859]}},
{"type": "Feature", "id": "Moq-7IXSCIDa4JY0M72Xt1NCMBI=", "properties": {"ref": "Location173", "@spider": "hardrock", "addr:street": "King's Road Angkor, Street 7 Makara, Old Market Bridge", "addr:city": "Krong Siem Reap", "addr:postcode": "17252", "addr:country": "KH", "name": "Hard Rock Cafe Angkor", "phone": "+855 63 963 964", "website": "https://www.hardrockcafe.com/location/angkor/", "brand": "Hard Rock"}, "geometry": {"type": "Point", "coordinates": [103.85676, 13.35316]}},
{"type": "Feature", "id": "Z7_0efvTwPzdQHjiAR3zKWsQJDk=", "properties": {"ref": "Location174", "@spider": "hardrock", "addr:street": "Jl. Pantai Kuta, Banjar Pande Mas Kuta", "addr:city": "Denpasar", "addr:postcode": "80361", "addr:country": "ID", "name": "Hard Rock Cafe Bali", "phone": "+62 361 755661", "website": "https://www.hardrockcafe.com/location/bali/", "brand": "Hard Rock"}, "geometry": {"type": "Point", "coordinates": [115.1677002, -8.7218889]}},
{"type": "Feature", "id": "_wCXSbj-3wtbXaTNy2la39GoezM=", "properties": {"ref": "Location175", "@spider": "hardrock", "addr:street": "Jalan Pantai, Banjar Pande Mas", "addr:city": "Bali", "addr:country": "ID", "name": "Hard Rock Hotel Bali", "phone": "+62 361 761 869", "website": "https://bali.hardrockhotels.net/", "brand": "Hard Rock"}, "geometry": {"type": "Point", "coordinates": [115.16976, -8.7212]}},
{"type": "Feature", "id": "i6G0ol5LCVN6ORZKtJTPmiZxF78=", "properties": {"ref": "Location176", "@spider": "hardrock", "addr:street": "424/3-6 Siam Square SOI 11", "addr:city": "Bangkok", "addr:country": "TH", "name": "Hard Rock Cafe Bangkok", "website": "https://www.hardrockcafe.com/location/bangkok/", "brand": "Hard Rock"}, "geometry": {"type": "Point", "coordinates": [100.53185, 13.74448]}},
{"type": "Feature", "id": "NKiaug1RJGhi5bk_2fsHiNb6v38=", "properties": {"ref": "Location177", "@spider": "hardrock", "addr:street": "40 St. Marks Road", "addr:city": "Bengaluru", "addr:postcode": "560001", "addr:country": "IN", "name": "Hard Rock Cafe Bengaluru", "phone": "+91 80 4124 2222", "website": "https://www.hardrockcafe.com/location/bengaluru/", "brand": "Hard Rock"}, "geometry": {"type": "Point", "coordinates": [77.60088, 12.96984]}},
{"type": "Feature", "id": "5ttwcK3bH0-pwodNApNBpo0_-HA=", "properties": {"ref": "Location178", "@spider": "hardrock", "addr:street": "40, ITPL Main Rd Unit no.G-25 & 26, Ground Floor", "addr:city": "Bangalore", "addr:country": "IN", "name": "Hard Rock Cafe -\tBengaluru Whitefield", "phone": "+91 80 6122 4722", "website": "https://www.hardrockcafe.com/location/whitefield/", "brand": "Hard Rock"}, "geometry": {"type": "Point", "coordinates": [77.711616, 12.9943405]}},
{"type": "Feature", "id": "qPd0HIN841YMxHdB7D-eHEJHFqQ=", "properties": {"ref": "Location179", "@spider": "hardrock", "addr:street": "S.C.O No 34 Sector 26 D", "addr:city": "Chandigarh", "addr:postcode": "160019", "addr:country": "IN", "name": "Hard Rock Cafe Chandigarh", "website": "https://www.hardrockcafe.com/location/chandigarh/", "brand": "Hard Rock"}, "geometry": {"type": "Point", "coordinates": [76.804, 30.72637]}},
{"type": "Feature", "id": "fzeOsAAe9kn5yWdPdqnhxfgYTP8=", "properties": {"ref": "Location180", "@spider": "hardrock", "addr:street": "115, 115/1-2, Loi Kror Road, Chang Khlan", "addr:city": "Chiang Mai", "addr:country": "TH", "name": "Hard Rock Cafe Chiang Mai", "phone": "+66 53 277 766", "website": "https://www.hardrockcafe.com/location/chiang-mai/", "brand": "Hard Rock"}, "geometry": {"type": "Point", "coordinates": [99.00041, 18.78398]}},
{"type": "Feature", "id": "nIpVHDlJ3qrc5wGGQqT6phfiC5s=", "properties": {"ref": "Location181", "@spider": "hardrock", "addr:street": "No. 65 West Haibin Road, Jinzhou District", "addr:city": "Dalian", "addr:state": "Liaoning", "addr:country": "CN", "name": "Hard Rock Hotel Dalian", "website": "https://www.hardrockhotels.com/dalian", "brand": "Hard Rock"}, "geometry": {"type": "Point", "coordinates": [122.005369, 39.08667]}},
{"type": "Feature", "id": "B4gpao6nMbLXPS4X4ebDMQAeN9E=", "properties": {"ref": "Location182", "@spider": "hardrock", "addr:street": "Jln Pantai 3, Desaru Coast", "addr:city": "Bandar Penawar", "addr:state": "Johor", "addr:postcode": "81930", "addr:country": "MY", "name": "Hard Rock Hotel Desaru Coast", "phone": "60 7-838 8888", "website": "https://www.hardrockhotels.com/desaru-coast", "brand": "Hard Rock"}, "geometry": {"type": "Point", "coordinates": [104.263691, 1.54117]}},
{"type": "Feature", "id": "hPs4SSGy3rhNF9yX1DOb3Qhs1cs=", "properties": {"ref": "Location183", "@spider": "hardrock", "addr:street": "370/14, Bishop Alex Dias Road, Porba Vaddo, Bardez", "addr:city": "Calangute", "addr:state": "Goa", "addr:postcode": "403516", "addr:country": "IN", "name": "Hard Rock Hotel Goa", "phone": "91 832 674 5555", "website": "https://www.hardrockhotelgoa.com/", "brand": "Hard Rock"}, "geometry": {"type": "Point", "coordinates": [73.764703, 15.639994]}},
{"type": "Feature", "id": "jrwGKTo3ed72S-Lt3yAXfaE3zPA=", "properties": {"ref": "Location184", "@spider": "hardrock", "addr:street": "1273 Pale San Vitores Rd", "addr:city": "Tamuning", "addr:postcode": "96913", "addr:country": "GU", "name": "Hard Rock Cafe Guam", "phone": "+1 671-648-7625", "website": "https://www.hardrockcafe.com/location/guam/", "brand": "Hard Rock"}, "geometry": {"type": "Point", "coordinates": [144.80585, 13.51461]}},
{"type": "Feature", "id": "xOzgYzJwsmeNOheHZzmqq6qRQdc=", "properties": {"ref": "Location185", "@spider": "hardrock", "addr:street": "Guwahati Central Mall, 191 R.G. B. Road Tarun Nagar, Opp. Assam State Zoo cum Botanical Gardens", "addr:city": "Guwahati", "addr:postcode": "781005", "addr:country": "IN", "name": "Hard Rock Cafe Guwahati", "website": "https://www.hardrockcafe.com/location/guwahati/", "brand": "Hard Rock"}, "geometry": {"type": "Point", "coordinates": [91.78036, 26.16394]}},
{"type": "Feature", "id": "eOq7ANg9RLdKfUFId8fq84l1wvI=", "properties": {"ref": "Location186", "@spider": "hardrock", "addr:street": "Gvk One, Rd Number 1, Balapur Basthi, Banjara Hills, Hyderabad, Telangana 500034, India", "addr:city": "Hyderabad", "addr:postcode": "500001", "addr:country": "IN", "name": "Hard Rock Cafe Hyderabad", "phone": "+91 98202 67989", "website": "https://www.hardrockcafe.com/location/hyderabad/", "brand": "Hard Rock"}, "geometry": {"type": "Point", "coordinates": [78.44837, 17.41943]}},
{"type": "Feature", "id": "VqxCkjgPCBj6eeTlXba1v0gg_iM=", "properties": {"ref": "Location187", "@spider": "hardrock", "addr:street": "Knowledge City, Salarpuria Sattva Plot No. 2 , Phase 1, Raidurga village", "addr:city": "Hitech City", "addr:postcode": "500032", "addr:country": "IN", "name": "Hard Rock Cafe Hyderabad Hitech City", "phone": "+91 40 4547 4828", "website": "https://www.hardrockcafe.com/location/hyderabad-hitech-city/", "brand": "Hard Rock"}, "geometry": {"type": "Point", "coordinates": [78.3978952, 17.4222962]}},
{"type": "Feature", "id": "Ys2pglT1CKTH38rf6Du15BYqnqY=", "properties": {"ref": "Location188", "@spider": "hardrock", "addr:street": "Pacific Place Mall Ground Floor #G-05 SCBD LOT 3-5, Jln.Jend.Sudirman Kav. 52 - 53", "addr:city": "Jakarta", "addr:postcode": "12190", "addr:country": "ID", "name": "Hard Rock Cafe Jakarta", "phone": "+62-21-5797-3055", "website": "https://www.hardrockcafe.com/location/jakarta/", "brand": "Hard Rock"}, "geometry": {"type": "Point", "coordinates": [106.82137, -6.2071]}},
{"type": "Feature", "id": "DHGBaqa_HdwI5ZUTwYuqf0Wc6s4=", "properties": {"ref": "Location189", "@spider": "hardrock", "addr:street": "Sherpa Mall, Durbarmarg", "addr:city": "Kathmandu", "addr:postcode": "44600", "addr:country": "NP", "name": "Hard Rock Cafe Kathmandu", "phone": "01-4418183", "website": "https://www.hardrockcafe.com/location/kathmandu/", "brand": "Hard Rock"}, "geometry": {"type": "Point", "coordinates": [85.3179, 27.7105]}},
{"type": "Feature", "id": "kJUDLl0IlcXXa7FsNX83081efQ8=", "properties": {"ref": "Location190", "@spider": "hardrock", "addr:street": "Park Mansion, 57A Park Street", "addr:city": "Kolkata", "addr:postcode": "700016", "addr:country": "IN", "name": "Hard Rock Cafe Kolkata", "website": "https://www.hardrockcafe.com/location/kolkata/", "brand": "Hard Rock"}, "geometry": {"type": "Point", "coordinates": [88.35316, 22.55253]}},
{"type": "Feature", "id": "vn_DrTmRPtuc8OpG9wMrT0CpXtg=", "properties": {"ref": "Location191", "@spider": "hardrock", "addr:street": "Ground Floor, Wisma Concorde, No 2 Jalan Sultan Ismail", "addr:city": "Kuala Lumpur", "addr:postcode": "50250", "addr:country": "MY", "name": "Hard Rock Cafe Kuala Lumpur", "phone": "+60-3-27155-555", "website": "https://www.hardrockcafe.com/location/kuala-lumpur/", "brand": "Hard Rock"}, "geometry": {"type": "Point", "coordinates": [101.70547, 3.15573]}},
{"type": "Feature", "id": "gm8s3EIF0mLdEMZA-t_kDqq9iK0=", "properties": {"ref": "Location192", "@spider": "hardrock", "addr:street": "Ground Floor, Glorietta 3, Parkway Drive", "addr:city": "Makati", "addr:postcode": "1223", "addr:country": "PH", "name": "Hard Rock Cafe Makati", "website": "https://www.hardrockcafe.com/location/makati/", "brand": "Hard Rock"}, "geometry": {"type": "Point", "coordinates": [121.02511, 14.55243]}},
{"type": "Feature", "id": "0GeUm7pPT86pmjv2n9EjozsI088=", "properties": {"ref": "Location193", "@spider": "hardrock", "addr:street": "No: 29 Emma Fushi South Male Atoll", "addr:city": "Male", "addr:country": "MV", "name": "Hard Rock Cafe Maldives", "website": "https://www.hardrockcafe.com/location/maldives/", "brand": "Hard Rock"}, "geometry": {"type": "Point", "coordinates": [73.46605, 4.12267]}},
{"type": "Feature", "id": "XS6jMWbzhXDQnfNWS_BAsIK6cHk=", "properties": {"ref": "Location194", "@spider": "hardrock", "addr:street": "Emboodhoo Lagoon South", "addr:city": "Maldives", "addr:country": "MV", "name": "Hard Rock Hotel Maldives", "phone": "960-665-1400", "website": "https://www.hardrockhotels.com/maldives", "brand": "Hard Rock"}, "geometry": {"type": "Point", "coordinates": [73.472915, 4.124766]}},
{"type": "Feature", "id": "xidbQk9D_CybnGL6F0mW-11UiLI=", "properties": {"ref": "Location195", "@spider": "hardrock", "addr:street": "Level 2, S Maison at Conrad Manila, Seaside Boulevard, Coral Way, Pasay, 1300 Metro Manila", "addr:city": "Manila", "addr:country": "PH", "name": "Hard Rock Cafe Manila", "phone": "(02) 836-7141", "website": "https://www.hardrockcafe.com/location/manila/", "brand": "Hard Rock"}, "geometry": {"type": "Point", "coordinates": [120.98021, 14.53184]}},
{"type": "Feature", "id": "pwSyBTMwBmj765LQp12667lP1t0=", "properties": {"ref": "Location196", "@spider": "hardrock", "addr:street": "No.28 Lorong Hang Jebat", "addr:city": "Melaka", "addr:postcode": "75200", "addr:country": "MY", "name": "Hard Rock Cafe Melaka", "phone": "+606 292-5188", "website": "https://www.hardrockcafe.com/location/melaka/", "brand": "Hard Rock"}, "geometry": {"type": "Point", "coordinates": [102.24825, 2.195]}},
{"type": "Feature", "id": "TcVBatct4JtZTD6FPMKjhOiXBF8=", "properties": {"ref": "Location197", "@spider": "hardrock", "addr:street": "Seawoods Station Rd", "addr:city": "Navi Mumbai", "addr:postcode": "400706", "addr:country": "IN", "name": "Hard Rock Cafe Navi Mumbai", "phone": "+91 22 6271 5075", "website": "https://www.hardrockcafe.com/location/Navi-Mumbai/", "brand": "Hard Rock"}, "geometry": {"type": "Point", "coordinates": [73.0154499, 19.021116]}},
{"type": "Feature", "id": "sKascSJfTklylifwbnJWQLGSD2w=", "properties": {"ref": "Location198", "@spider": "hardrock", "addr:street": "Universal CityWalk Osaka 3F & 4F, 6-2-61 Shimaya, Konokana-ku", "addr:city": "Osaka", "addr:postcode": "554-002", "addr:country": "JP", "name": "Hard Rock Cafe Osaka Universal", "phone": "+81-6-4804-3870", "website": "https://www.hardrockcafe.com/location/osaka-universal/", "brand": "Hard Rock"}, "geometry": {"type": "Point", "coordinates": [135.43617, 34.66806]}},
{"type": "Feature", "id": "8wqNpK_d5KPyelSNVPPsE5b5EV0=", "properties": {"ref": "Location199", "@spider": "hardrock", "addr:street": "429 Moo 9 Pattaya Beach Road Nongprue, Banglamung", "addr:city": "Pattaya City", "addr:postcode": "20150", "addr:country": "TH", "name": "Hard Rock Cafe Pattaya", "phone": "+66-38-428-755", "website": "https://www.hardrockcafe.com/location/pattaya/", "brand": "Hard Rock"}, "geometry": {"type": "Point", "coordinates": [100.88508, 12.93956]}},
{"type": "Feature", "id": "YlMPA9CznFZ2lKOl9Gyl6WQ2Mpw=", "properties": {"ref": "Location200", "@spider": "hardrock", "addr:street": "429 Moo 9, Pattaya Beach Road", "addr:city": "Cholburi", "addr:postcode": "20150", "addr:country": "TH", "name": "Hard Rock Hotel Pattaya", "phone": "+66 38 428755-9", "website": "https://pattaya.hardrockhotels.net/", "brand": "Hard Rock"}, "geometry": {"type": "Point", "coordinates": [100.88509, 12.93956]}},
{"type": "Feature", "id": "Tdqh2HyC32UzFT4bGfyvjquZEmQ=", "properties": {"ref": "Location201", "@spider": "hardrock", "addr:street": "Batu Feringghi Beach", "addr:city": "Penang", "addr:postcode": "11100", "addr:country": "MY", "name": "Hard Rock Cafe Penang", "phone": "+60-4-8811-711", "website": "https://www.hardrockcafe.com/location/penang/", "brand": "Hard Rock"}, "geometry": {"type": "Point", "coordinates": [100.24155, 5.4676]}},
{"type": "Feature", "id": "mxVvHdfkcZxiLdWtYO1a6S8c60U=", "properties": {"ref": "Location202", "@spider": "hardrock", "addr:street": "Batu Ferringhi Beach", "addr:city": "Penang", "addr:postcode": "11100", "addr:country": "MY", "name": "Hard Rock Hotel Penang", "phone": "+60 4 8811711", "website": "https://penang.hardrockhotels.net/", "brand": "Hard Rock"}, "geometry": {"type": "Point", "coordinates": [100.24153, 5.46875]}},
{"type": "Feature", "id": "yn-1FnOXSLgnZ4nrKBpnznfe6vY=", "properties": {"ref": "Location203", "@spider": "hardrock", "addr:street": "48/1 Ruamjai Road", "addr:city": "Kathu", "addr:postcode": "83150", "addr:country": "TH", "name": "Hard Rock Cafe Phuket", "phone": "+66-76-366-381", "website": "https://www.hardrockcafe.com/location/phuket/", "brand": "Hard Rock"}, "geometry": {"type": "Point", "coordinates": [98.29829, 7.89338]}},
{"type": "Feature", "id": "JZMMv28XwxggCXPqkXPfz_vG9qI=", "properties": {"ref": "Location204", "@spider": "hardrock", "addr:street": "Exchange Square, Street 102, Sangkat Wat Phnom", "addr:city": "Phnom Penh", "addr:postcode": "12202", "addr:country": "KH", "name": "Hard Rock Cafe Phnom Penh", "phone": "+855 (0) 81730000", "website": "https://www.hardrockcafe.com/location/phnom-penh/", "brand": "Hard Rock"}, "geometry": {"type": "Point", "coordinates": [104.93255, 11.54798]}},
{"type": "Feature", "id": "FVBtrmsbE98jqAYucPimnPNl_rU=", "properties": {"ref": "Location205", "@spider": "hardrock", "addr:street": "Jln Pantai 3, Desaru Coast", "addr:city": "Puteri Harbour", "addr:state": "Johor", "addr:postcode": "79100", "addr:country": "MY", "name": "Hard Rock Cafe Puteri Harbour", "phone": "+60 7-276 9999", "website": "https://www.hardrockcafe.com/location/Puteri-Harbour/", "brand": "Hard Rock"}, "geometry": {"type": "Point", "coordinates": [103.6299566, 1.4205825]}},
{"type": "Feature", "id": "Kej5KqfRkzvLdn_ASQVh9cVwYmc=", "properties": {"ref": "Location206", "@spider": "hardrock", "addr:street": "PMB 103 PPP Box 10000, Located inside DFS Galleria", "addr:city": "Saipan", "addr:postcode": "MP 96950", "addr:country": "MP", "name": "Hard Rock Cafe Saipan", "phone": "+670-233-ROCK", "website": "https://www.hardrockcafe.com/location/saipan/", "brand": "Hard Rock"}, "geometry": {"type": "Point", "coordinates": [145.71752, 15.20915]}},
{"type": "Feature", "id": "AZSXsw8V4psgxYSyh-7CSL0tXZM=", "properties": {"ref": "Location207", "@spider": "hardrock", "addr:street": "26 Sentosa Gateway, The Forum #01-209 to 214", "addr:city": "Sentosa", "addr:postcode": "098138", "addr:country": "SG", "name": "Hard Rock Cafe Sentosa", "phone": "+65 67957454", "website": "https://www.hardrockcafe.com/location/sentosa/", "brand": "Hard Rock"}, "geometry": {"type": "Point", "coordinates": [103.82349, 1.25459]}},
{"type": "Feature", "id": "t6nWqRSs2gtrmDez-bFxsjmGkV8=", "properties": {"ref": "Location208", "@spider": "hardrock", "addr:street": "50 Cuscaden Road, #02-01, HPL House", "addr:city": "Singapore", "addr:postcode": "249724", "addr:country": "SG", "name": "Hard Rock Cafe Singapore", "phone": "+65-62355232", "website": "https://www.hardrockcafe.com/location/singapore/", "brand": "Hard Rock"}, "geometry": {"type": "Point", "coordinates": [103.82809, 1.30585]}},
{"type": "Feature", "id": "-d8bdPW1MnDXTllyT70NTcefwjA=", "properties": {"ref": "Location209", "@spider": "hardrock", "addr:street": "No.9, Mission Hills Road", "addr:city": "Shenzhen", "addr:postcode": "518110", "addr:country": "CN", "name": "Hard Rock Cafe Shenzhen", "phone": "+86 \uff080\uff09755 3395 2666", "website": "https://www.hardrockcafe.com/location/shenzhen/", "brand": "Hard Rock"}, "geometry": {"type": "Point", "coordinates": [114.07425, 22.72087]}},
{"type": "Feature", "id": "YL701ql09ns3zxGXXyTaVCIH0pc=", "properties": {"ref": "Location210", "@spider": "hardrock", "addr:street": "No.9 Mission Hills Road", "addr:city": "Shenzhen", "addr:postcode": "518110", "addr:country": "CN", "name": "Hard Rock Hotel Shenzhen", "phone": "+86 \uff080\uff09755 3395 2666", "website": "https://www.hardrockhotels.com/shenzhen/", "brand": "Hard Rock"}, "geometry": {"type": "Point", "coordinates": [114.07425, 22.72087]}},
{"type": "Feature", "id": "ombnvPNEiNVTMC_QoX-qfF-Zd1o=", "properties": {"ref": "Location211", "@spider": "hardrock", "addr:street": "8 Sentosa Gateway, Sentosa Island", "addr:city": "Singapore", "addr:postcode": "098269", "addr:country": "SG", "name": "Hard Rock Hotel Singapore", "phone": "65 6577 8899", "website": "http://www.hardrockhotelsingapore.com", "brand": "Hard Rock"}, "geometry": {"type": "Point", "coordinates": [103.8261, 1.25354]}},
{"type": "Feature", "id": "r9aNQcHgLAF2ZQJG_GZjsN5d7RU=", "properties": {"ref": "Location212", "@spider": "hardrock", "addr:street": "56 Tianta Road, Nankai District", "addr:city": "Tianjin", "addr:postcode": "300381", "addr:country": "CN", "name": "Hard Rock Cafe Tianjin", "website": "https://www.hardrockcafe.com/location/tianjin/", "brand": "Hard Rock"}, "geometry": {"type": "Point", "coordinates": [117.17703, 39.09272]}},
{"type": "Feature", "id": "VblAw859wTFla1B2hplL37pPGEM=", "properties": {"ref": "Location213", "@spider": "hardrock", "addr:street": "Atre Ueno 1F, 7-1-1 Ueno Taito-ku", "addr:city": "Tokyo", "addr:postcode": "110-0005", "addr:country": "JP", "name": "Hard Rock Cafe Tokyo Uyeno Eki", "phone": "81 3 5826 5821", "website": "https://www.hardrockcafe.com/location/tokyo-uyeno-eki/", "brand": "Hard Rock"}, "geometry": {"type": "Point", "coordinates": [139.77734, 35.71393]}},
{"type": "Feature", "id": "a17ELZxdJLP3TwueqvL29DflOK0=", "properties": {"ref": "Location214", "@spider": "hardrock", "addr:street": "5-4-20 Roppongi, Minato-ku", "addr:city": "Tokyo", "addr:postcode": "106-0032", "addr:country": "JP", "name": "Hard Rock Cafe Tokyo Roppongi", "phone": "+81-3-3408-7018<", "website": "https://www.hardrockcafe.com/location/tokyo-roppongi/", "brand": "Hard Rock"}, "geometry": {"type": "Point", "coordinates": [139.73413, 35.66178]}},
{"type": "Feature", "id": "Kq4JXLEU1Ny7SkLrKu_awvRBj7I=", "properties": {"ref": "Location215", "@spider": "hardrock", "addr:street": "Naran Place Shopping Complex, Manlaibaatar Damdinsuren Rd, Bayanzurkh District", "addr:city": "Ulaanbaatar", "addr:postcode": "52003", "addr:country": "MN", "name": "Hard Rock Cafe Ulaanbaatar", "phone": "+97670157625, +97691818945", "website": "https://www.hardrockcafe.com/location/ulaanbaatar/", "brand": "Hard Rock"}, "geometry": {"type": "Point", "coordinates": [106.91667, 47.91684]}},
{"type": "Feature", "id": "dxedK51QbuLjVnalqLiF3mu77VU=", "properties": {"ref": "Location216", "@spider": "hardrock", "addr:street": "Minatomirai 2 Chome\u22123\u22121, Queen's Tower A", "addr:city": "Yokohama", "addr:country": "JP", "name": "Hard Rock Cafe Yokohama", "website": "https://www.hardrockcafe.com/location/yokohama/", "brand": "Hard Rock"}, "geometry": {"type": "Point", "coordinates": [139.6308391, 35.4558333]}}]}