{"type":"FeatureCollection","features":[{"type": "Feature", "id": "eJlDvfLz4anL6bgyvnacuDNbzWU=", "properties": {"ref": "https://www.harvester.co.uk/restaurants/london/thecompasseshornchurch", "@spider": "harvester_gb", "amenity": "restaurant", "cuisine": "american", "addr:street_address": "125 Abbs Cross Lane", "addr:city": "Hornchurch", "addr:state": "Greater London", "addr:postcode": "RM12 4XS", "addr:country": "GB", "name": "The Compasses Hornchurch", "phone": "01708 450240", "website": "https://www.harvester.co.uk/restaurants/london/thecompasseshornchurch", "contact:twitter": "HarvesterUK", "opening_hours": "Mo-Su 09:00-23:00", "image": "https://www.harvester.co.uk/content/dam/harvester/images/logo.png", "brand": "Harvester", "brand:wikidata": "Q5676915", "nsi_id": "harvester-9b5453"}, "geometry": {"type": "Point", "coordinates": [0.209226, 51.557785]}},
{"type": "Feature", "id": "pe2v57pLjzPA665ZH64qF5Q2C-c=", "properties": {"ref": "https://www.harvester.co.uk/restaurants/eastandwestmidlands/harvesterbassettspolesuttoncoldfield", "@spider": "harvester_gb", "amenity": "restaurant", "cuisine": "american", "addr:street_address": "London Road, Bassets Pole", "addr:city": "Sutton Coldfield", "addr:state": "West Midlands", "addr:postcode": "B75 5SA", "addr:country": "GB", "name": "Harvester Bassetts Pole Sutton Coldfield", "phone": "0121 308 0987", "website": "https://www.harvester.co.uk/restaurants/eastandwestmidlands/harvesterbassettspolesuttoncoldfield", "contact:twitter": "HarvesterUK", "opening_hours": "Mo-Th 09:00-22:00; Fr-Sa 09:00-22:30; Su 09:00-21:30", "image": "https://www.harvester.co.uk/content/dam/harvester/images/logo.png", "brand": "Harvester", "brand:wikidata": "Q5676915", "nsi_id": "harvester-9b5453"}, "geometry": {"type": "Point", "coordinates": [-1.781717, 52.591046]}},
{"type": "Feature", "id": "2r4yo1uASUguDP_IlxuXD0Lmrjc=", "properties": {"ref": "https://www.harvester.co.uk/restaurants/eastandwestmidlands/thebeatentrackshrewsbury", "@spider": "harvester_gb", "amenity": "restaurant", "cuisine": "american", "addr:street_address": "Old Potts Way", "addr:city": "Shrewsbury", "addr:state": "Shropshire", "addr:postcode": "SY3 7ET", "addr:country": "GB", "name": "Beaten Track Shrewsbury", "phone": "01743 233941", "website": "https://www.harvester.co.uk/restaurants/eastandwestmidlands/thebeatentrackshrewsbury", "contact:twitter": "HarvesterUK", "opening_hours": "Mo-Th 09:00-21:00; Fr-Su 09:00-22:00", "image": "https://www.harvester.co.uk/content/dam/harvester/images/logo.png", "brand": "Harvester", "brand:wikidata": "Q5676915", "nsi_id": "harvester-9b5453"}, "geometry": {"type": "Point", "coordinates": [-2.740541, 52.703511]}},
{"type": "Feature", "id": "Hec8-0dqQ9Z6UcUhOh97MHoFztw=", "properties": {"ref": "https://www.harvester.co.uk/restaurants/northeast/harvesterryhopesunderland", "@spider": "harvester_gb", "amenity": "restaurant", "cuisine": "american", "addr:street_address": "Ryhope Road", "addr:city": "Sunderland", "addr:state": "Tyne and Wear", "addr:postcode": "SR2 0SP", "addr:country": "GB", "name": "Ryhope Harvester Sunderland", "phone": "0191 514 5586", "website": "https://www.harvester.co.uk/restaurants/northeast/harvesterryhopesunderland", "contact:twitter": "HarvesterUK", "opening_hours": "Mo-Th 09:00-22:00; Fr-Sa 09:00-23:00; Su 09:00-22:00", "image": "https://www.harvester.co.uk/content/dam/harvester/images/logo.png", "brand": "Harvester", "brand:wikidata": "Q5676915", "nsi_id": "harvester-9b5453"}, "geometry": {"type": "Point", "coordinates": [-1.361255, 54.879322]}},
{"type": "Feature", "id": "PcCRSzTVYLtX4lQCkvllPqn7QNs=", "properties": {"ref": "https://www.harvester.co.uk/restaurants/northwest/thesirwinstonchurchillrochdale", "@spider": "harvester_gb", "amenity": "restaurant", "cuisine": "american", "addr:street_address": "710 Bury Road", "addr:city": "Rochdale", "addr:state": "Greater Manchester", "addr:postcode": "OL11 5HW", "addr:country": "GB", "name": "The Sir Winston Churchill Rochdale", "phone": "01706 360530", "website": "https://www.harvester.co.uk/restaurants/northwest/thesirwinstonchurchillrochdale", "contact:twitter": "HarvesterUK", "opening_hours": "Mo-Su 09:00-22:00", "image": "https://www.harvester.co.uk/content/dam/harvester/images/logo.png", "brand": "Harvester", "brand:wikidata": "Q5676915", "nsi_id": "harvester-9b5453"}, "geometry": {"type": "Point", "coordinates": [-2.207858, 53.607835]}},
{"type": "Feature", "id": "MLINQ1AssPr6m-6E3-pEe3PRTss=", "properties": {"ref": "https://www.harvester.co.uk/restaurants/northwest/harvesterapollowarrington", "@spider": "harvester_gb", "amenity": "restaurant", "cuisine": "american", "addr:street_address": "Gemini 8 Apollo Park, Burtonwood & Westbrook", "addr:city": "Warrington", "addr:state": "Cheshire", "addr:postcode": "WA5 7YA", "addr:country": "GB", "name": "Harvester Apollo Warrington", "phone": "01925 712345", "website": "https://www.harvester.co.uk/restaurants/northwest/harvesterapollowarrington", "contact:twitter": "HarvesterUK", "opening_hours": "Mo-Su 09:00-21:00", "image": "https://www.harvester.co.uk/content/dam/harvester/images/logo.png", "brand": "Harvester", "brand:wikidata": "Q5676915", "nsi_id": "harvester-9b5453"}, "geometry": {"type": "Point", "coordinates": [-2.638649, 53.415211]}},
{"type": "Feature", "id": "2o7fHUIKxlWzeez-Tt8gZusBvGg=", "properties": {"ref": "https://www.harvester.co.uk/restaurants/northwest/thederbypoolwallasey", "@spider": "harvester_gb", "amenity": "restaurant", "cuisine": "american", "addr:street_address": "Bay View Drive", "addr:city": "Wallasey", "addr:state": "Merseyside", "addr:postcode": "CH45 3QS", "addr:country": "GB", "name": "The Derby Pool Wallasey", "phone": "0151 630 5370", "website": "https://www.harvester.co.uk/restaurants/northwest/thederbypoolwallasey", "contact:twitter": "HarvesterUK", "opening_hours": "Mo-Su 09:00-22:00", "image": "https://www.harvester.co.uk/content/dam/harvester/images/logo.png", "brand": "Harvester", "brand:wikidata": "Q5676915", "nsi_id": "harvester-9b5453"}, "geometry": {"type": "Point", "coordinates": [-3.077896, 53.43112]}},
{"type": "Feature", "id": "I88XnV9Ut3ozXQ___GzmEkCfjyg=", "properties": {"ref": "https://www.harvester.co.uk/restaurants/northwest/harvesterthelowrymanchester", "@spider": "harvester_gb", "amenity": "restaurant", "cuisine": "american", "addr:street_address": "G2a Quayside Media City UK, The Quays", "addr:city": "Salford", "addr:state": "Greater Manchester", "addr:postcode": "M50 3AG", "addr:country": "GB", "name": "Harvester Quayside MediaCityUK Manchester", "phone": "0161 877 3952", "website": "https://www.harvester.co.uk/restaurants/northwest/harvesterthelowrymanchester", "contact:twitter": "HarvesterUK", "opening_hours": "Mo-Su 09:00-21:00", "image": "https://www.harvester.co.uk/content/dam/harvester/images/logo.png", "brand": "Harvester", "brand:wikidata": "Q5676915", "nsi_id": "harvester-9b5453"}, "geometry": {"type": "Point", "coordinates": [-2.294145, 53.470983]}},
{"type": "Feature", "id": "t3kpiEoKSEDIZBZc52uM1AVUaOE=", "properties": {"ref": "https://www.harvester.co.uk/restaurants/northwest/thehorwichparkinnbolton", "@spider": "harvester_gb", "amenity": "restaurant", "cuisine": "american", "addr:street_address": "1 Arena Approach, Horwich", "addr:city": "Bolton", "addr:state": "Greater Manchester", "addr:postcode": "BL6 6LB", "addr:country": "GB", "name": "The Horwich Park Inn Bolton", "phone": "01204 698877", "website": "https://www.harvester.co.uk/restaurants/northwest/thehorwichparkinnbolton", "contact:twitter": "HarvesterUK", "opening_hours": "Mo-Su 09:00-22:00", "image": "https://www.harvester.co.uk/content/dam/harvester/images/logo.png", "brand": "Harvester", "brand:wikidata": "Q5676915", "nsi_id": "harvester-9b5453"}, "geometry": {"type": "Point", "coordinates": [-2.53746, 53.579169]}},
{"type": "Feature", "id": "YLtgfGvHYdVfD4yjSFJWklteumY=", "properties": {"ref": "https://www.harvester.co.uk/restaurants/northwest/harvestercroftparkwirral", "@spider": "harvester_gb", "amenity": "restaurant", "cuisine": "american", "addr:street_address": "Bromborough", "addr:city": "Birkenhead", "addr:state": "Merseyside", "addr:postcode": "CH62 3PN", "addr:country": "GB", "name": "Harvester Croft Park Wirral", "phone": "0151 334 9689", "website": "https://www.harvester.co.uk/restaurants/northwest/harvestercroftparkwirral", "contact:twitter": "HarvesterUK", "opening_hours": "Mo-Su 09:00-21:00", "image": "https://www.harvester.co.uk/content/dam/harvester/images/logo.png", "brand": "Harvester", "brand:wikidata": "Q5676915", "nsi_id": "harvester-9b5453"}, "geometry": {"type": "Point", "coordinates": [-2.974812, 53.341162]}},
{"type": "Feature", "id": "YMHpC8RXacK1Qf8x6OqfGUtprsA=", "properties": {"ref": "https://www.harvester.co.uk/restaurants/northwest/harvesteratherleighleigh", "@spider": "harvester_gb", "amenity": "restaurant", "cuisine": "american", "addr:street_address": "Parsonage Way", "addr:city": "Leigh", "addr:state": "Greater Manchester", "addr:postcode": "WN7 5SJ", "addr:country": "GB", "name": "Harvester Atherleigh Leigh", "phone": "01942 261350", "website": "https://www.harvester.co.uk/restaurants/northwest/harvesteratherleighleigh", "contact:twitter": "HarvesterUK", "opening_hours": "Mo-Th 09:00-21:00; Fr-Sa 09:00-22:00; Su 09:00-21:00", "image": "https://www.harvester.co.uk/content/dam/harvester/images/logo.png", "brand": "Harvester", "brand:wikidata": "Q5676915", "nsi_id": "harvester-9b5453"}, "geometry": {"type": "Point", "coordinates": [-2.52766, 53.498]}},
{"type": "Feature", "id": "vswz6vbbcym4u6JZPgMRcco0JaY=", "properties": {"ref": "https://www.harvester.co.uk/restaurants/northwest/harvesterbuckshawchorley", "@spider": "harvester_gb", "amenity": "restaurant", "cuisine": "american", "addr:street_address": "Buckshaw Village", "addr:city": "CHORLEY", "addr:state": "Lancashire", "addr:postcode": "PR7 7EL", "addr:country": "GB", "name": "Harvester Buckshaw Link", "phone": "01772 424567", "website": "https://www.harvester.co.uk/restaurants/northwest/harvesterbuckshawchorley", "contact:twitter": "HarvesterUK", "opening_hours": "Mo-Th 09:00-21:00; Fr-Sa 09:00-22:00; Su 09:00-21:00", "image": "https://www.harvester.co.uk/content/dam/harvester/images/logo.png", "brand": "Harvester", "brand:wikidata": "Q5676915", "nsi_id": "harvester-9b5453"}, "geometry": {"type": "Point", "coordinates": [-2.655619, 53.676825]}},
{"type": "Feature", "id": "B46oLZQQdVwZAmjc6h_jPiTVkgg=", "properties": {"ref": "https://www.harvester.co.uk/restaurants/northwest/harvesteraintreeparkaintree", "@spider": "harvester_gb", "amenity": "restaurant", "cuisine": "american", "addr:street_address": "Aintree Racecourse Retail Park, Aintree", "addr:city": "Liverpool", "addr:state": "Merseyside", "addr:postcode": "L9 5AY", "addr:country": "GB", "name": "Harvester Aintree Park Aintree", "phone": "0151 523 3432", "website": "https://www.harvester.co.uk/restaurants/northwest/harvesteraintreeparkaintree", "contact:twitter": "HarvesterUK", "opening_hours": "Mo-Su 09:00-21:00", "image": "https://www.harvester.co.uk/content/dam/harvester/images/logo.png", "brand": "Harvester", "brand:wikidata": "Q5676915", "nsi_id": "harvester-9b5453"}, "geometry": {"type": "Point", "coordinates": [-2.952368, 53.47973]}},
{"type": "Feature", "id": "gSKvng00hnEEVvHpx1zXD_WslIM=", "properties": {"ref": "https://www.harvester.co.uk/restaurants/eastofengland/thehoneypotbasildon", "@spider": "harvester_gb", "amenity": "restaurant", "cuisine": "american", "addr:street_address": "Festival Leisure Park, Cranes Farm Road", "addr:city": "Basildon", "addr:state": "Essex", "addr:postcode": "SS14 3TJ", "addr:country": "GB", "name": "The Honey Pot Basildon", "phone": "01268 524113", "website": "https://www.harvester.co.uk/restaurants/eastofengland/thehoneypotbasildon", "contact:twitter": "HarvesterUK", "opening_hours": "Mo-Su 09:00-23:00", "image": "https://www.harvester.co.uk/content/dam/harvester/images/logo.png", "brand": "Harvester", "brand:wikidata": "Q5676915", "nsi_id": "harvester-9b5453"}, "geometry": {"type": "Point", "coordinates": [0.46327, 51.582709]}},
{"type": "Feature", "id": "-dSmJRWmj75C-QzmOSCjblNutOg=", "properties": {"ref": "https://www.harvester.co.uk/restaurants/eastofengland/thewhitehartleightonbuzzard", "@spider": "harvester_gb", "amenity": "restaurant", "cuisine": "american", "addr:street_address": "Watling Street, Hockliffe", "addr:city": "Leighton Buzzard", "addr:state": "Bedfordshire", "addr:postcode": "LU7 9NB", "addr:country": "GB", "name": "The White Hart Leighton Buzzard", "phone": "01525 210637", "website": "https://www.harvester.co.uk/restaurants/eastofengland/thewhitehartleightonbuzzard", "contact:twitter": "HarvesterUK", "opening_hours": "Mo-Sa 09:00-23:00; Su 09:00-22:30", "image": "https://www.harvester.co.uk/content/dam/harvester/images/logo.png", "brand": "Harvester", "brand:wikidata": "Q5676915", "nsi_id": "harvester-9b5453"}, "geometry": {"type": "Point", "coordinates": [-0.586267, 51.930544]}},
{"type": "Feature", "id": "_PQNh5XcMN5WGFl4k2Njnb9JcCc=", "properties": {"ref": "https://www.harvester.co.uk/restaurants/eastofengland/theorchardbedford", "@spider": "harvester_gb", "amenity": "restaurant", "cuisine": "american", "addr:street_address": "1 Riverfield Drive", "addr:city": "Bedford", "addr:state": "Bedfordshire", "addr:postcode": "MK41 0UE", "addr:country": "GB", "name": "The Orchard Bedford", "phone": "01234 271339", "website": "https://www.harvester.co.uk/restaurants/eastofengland/theorchardbedford", "contact:twitter": "HarvesterUK", "opening_hours": "Mo-Su 09:00-22:00", "image": "https://www.harvester.co.uk/content/dam/harvester/images/logo.png", "brand": "Harvester", "brand:wikidata": "Q5676915", "nsi_id": "harvester-9b5453"}, "geometry": {"type": "Point", "coordinates": [-0.422632, 52.143905]}},
{"type": "Feature", "id": "fo4RSehSwfx17BRxLhBBiWFm1jo=", "properties": {"ref": "https://www.harvester.co.uk/restaurants/eastofengland/thetalbotepping", "@spider": "harvester_gb", "amenity": "restaurant", "cuisine": "american", "addr:street_address": "275 High Road, North Weald", "addr:city": "Epping", "addr:state": "Essex", "addr:postcode": "CM16 6EE", "addr:country": "GB", "name": "The Talbot Epping", "phone": "01992 523966", "website": "https://www.harvester.co.uk/restaurants/eastofengland/thetalbotepping", "contact:twitter": "HarvesterUK", "opening_hours": "Mo-Su 09:00-23:00", "image": "https://www.harvester.co.uk/content/dam/harvester/images/logo.png", "brand": "Harvester", "brand:wikidata": "Q5676915", "nsi_id": "harvester-9b5453"}, "geometry": {"type": "Point", "coordinates": [0.181728, 51.724256]}},
{"type": "Feature", "id": "rVEr_UeRyf1KIatJIegFGYDW_-g=", "properties": {"ref": "https://www.harvester.co.uk/restaurants/eastofengland/harvesterstanwaycolchester", "@spider": "harvester_gb", "amenity": "restaurant", "cuisine": "american", "addr:street_address": "186 London Road, Stanway", "addr:city": "Colchester", "addr:state": "Essex", "addr:postcode": "CO3 8NZ", "addr:country": "GB", "name": "Harvester Stanway Colchester", "phone": "01206 575456", "website": "https://www.harvester.co.uk/restaurants/eastofengland/harvesterstanwaycolchester", "contact:twitter": "HarvesterUK", "opening_hours": "Mo-Fr 09:00-23:00; Sa-Su 08:00-23:00", "image": "https://www.harvester.co.uk/content/dam/harvester/images/logo.png", "brand": "Harvester", "brand:wikidata": "Q5676915", "nsi_id": "harvester-9b5453"}, "geometry": {"type": "Point", "coordinates": [0.831552, 51.886609]}},
{"type": "Feature", "id": "UzyKTdXIXQTtrXQJbeH5uQlPS60=", "properties": {"ref": "https://www.harvester.co.uk/restaurants/eastofengland/themallardhemelhempstead", "@spider": "harvester_gb", "amenity": "restaurant", "cuisine": "american", "addr:street_address": "507 London Road, Boxmoor", "addr:city": "Hemel Hempstead", "addr:state": "Hertfordshire", "addr:postcode": "HP3 9BQ", "addr:country": "GB", "name": "The Mallard Hemel Hempstead", "phone": "01442 260515", "website": "https://www.harvester.co.uk/restaurants/eastofengland/themallardhemelhempstead", "contact:twitter": "HarvesterUK", "opening_hours": "Mo-Su 09:00-22:00", "image": "https://www.harvester.co.uk/content/dam/harvester/images/logo.png", "brand": "Harvester", "brand:wikidata": "Q5676915", "nsi_id": "harvester-9b5453"}, "geometry": {"type": "Point", "coordinates": [-0.489658, 51.742763]}},
{"type": "Feature", "id": "Oz33MuEgdh3FBQ9c0lbYczXUinc=", "properties": {"ref": "https://www.harvester.co.uk/restaurants/eastofengland/thewindmillbushey", "@spider": "harvester_gb", "amenity": "restaurant", "cuisine": "american", "addr:street_address": "107 High Road, Bushey Heath", "addr:city": "Bushey", "addr:state": "Hertfordshire", "addr:postcode": "WD23 1JD", "addr:country": "GB", "name": "WINDMILL BUSHEY Bushey", "phone": "020 8950 1540", "website": "https://www.harvester.co.uk/restaurants/eastofengland/thewindmillbushey", "contact:twitter": "HarvesterUK", "opening_hours": "Mo-Th 11:30-22:00; Fr-Su 09:00-22:00", "image": "https://www.harvester.co.uk/content/dam/harvester/images/logo.png", "brand": "Harvester", "brand:wikidata": "Q5676915", "nsi_id": "harvester-9b5453"}, "geometry": {"type": "Point", "coordinates": [-0.338236, 51.631689]}},
{"type": "Feature", "id": "QGRenwWHh2wCqqYhv2t21jgY0g0=", "properties": {"ref": "https://www.harvester.co.uk/restaurants/eastofengland/theshorehousesouthendonsea", "@spider": "harvester_gb", "amenity": "restaurant", "cuisine": "american", "addr:street_address": "Ness Road, Shoeburyness", "addr:city": "Southend-On-Sea", "addr:state": "Essex", "addr:postcode": "SS3 9HQ", "addr:country": "GB", "name": "The Shorehouse Southend-on-Sea", "phone": "01702 292892", "website": "https://www.harvester.co.uk/restaurants/eastofengland/theshorehousesouthendonsea", "contact:twitter": "HarvesterUK", "opening_hours": "Mo-Su 09:00-23:00", "image": "https://www.harvester.co.uk/content/dam/harvester/images/logo.png", "brand": "Harvester", "brand:wikidata": "Q5676915", "nsi_id": "harvester-9b5453"}, "geometry": {"type": "Point", "coordinates": [0.777649, 51.524339]}},
{"type": "Feature", "id": "lYEstpW2IS9_UTggE1kVHF_KIMQ=", "properties": {"ref": "https://www.harvester.co.uk/restaurants/eastofengland/harvesterravenswoodipswich", "@spider": "harvester_gb", "amenity": "restaurant", "cuisine": "american", "addr:street_address": "1 Edith Cook Way, Nacton Road", "addr:city": "Ipswich", "addr:state": "Suffolk", "addr:postcode": "IP3 9GF", "addr:country": "GB", "name": "Harvester Ravenswood Ipswich", "phone": "01473 723021", "website": "https://www.harvester.co.uk/restaurants/eastofengland/harvesterravenswoodipswich", "contact:twitter": "HarvesterUK", "opening_hours": "Mo-Fr 09:00-22:00; Sa-Su 08:00-22:00", "image": "https://www.harvester.co.uk/content/dam/harvester/images/logo.png", "brand": "Harvester", "brand:wikidata": "Q5676915", "nsi_id": "harvester-9b5453"}, "geometry": {"type": "Point", "coordinates": [1.20146, 52.029401]}},
{"type": "Feature", "id": "X7t7JvLIns-iYkkTMdBRE_liIF4=", "properties": {"ref": "https://www.harvester.co.uk/restaurants/eastofengland/therayleighweirrayleigh", "@spider": "harvester_gb", "amenity": "restaurant", "cuisine": "american", "addr:street_address": "Arterial Road", "addr:city": "Rayleigh", "addr:state": "Essex", "addr:postcode": "SS6 7SP", "addr:country": "GB", "name": "The Rayleigh Weir Rayleigh", "phone": "01268 743729", "website": "https://www.harvester.co.uk/restaurants/eastofengland/therayleighweirrayleigh", "contact:twitter": "HarvesterUK", "opening_hours": "Mo-Su 09:00-23:00", "image": "https://www.harvester.co.uk/content/dam/harvester/images/logo.png", "brand": "Harvester", "brand:wikidata": "Q5676915", "nsi_id": "harvester-9b5453"}, "geometry": {"type": "Point", "coordinates": [0.599963, 51.577412]}},
{"type": "Feature", "id": "4oJgkQH-RkfwPO1EexYt_RK6iJ8=", "properties": {"ref": "https://www.harvester.co.uk/restaurants/eastofengland/theroaringmegstevenage", "@spider": "harvester_gb", "amenity": "restaurant", "cuisine": "american", "addr:street_address": "Roaring Meg Retail Park, London Road", "addr:city": "Stevenage", "addr:state": "Hertfordshire", "addr:postcode": "SG1 1XN", "addr:country": "GB", "name": "The Roaring Meg Stevenage", "phone": "01438 743391", "website": "https://www.harvester.co.uk/restaurants/eastofengland/theroaringmegstevenage", "contact:twitter": "HarvesterUK", "opening_hours": "Mo-Su 09:00-22:00", "image": "https://www.harvester.co.uk/content/dam/harvester/images/logo.png", "brand": "Harvester", "brand:wikidata": "Q5676915", "nsi_id": "harvester-9b5453"}, "geometry": {"type": "Point", "coordinates": [-0.200328, 51.893669]}},
{"type": "Feature", "id": "e8npah92sEy8bCiO8rEracRR-cE=", "properties": {"ref": "https://www.harvester.co.uk/restaurants/eastofengland/theploughchelmsford", "@spider": "harvester_gb", "amenity": "restaurant", "cuisine": "american", "addr:street_address": "306 Springfield Road", "addr:city": "Chelmsford", "addr:state": "Essex", "addr:postcode": "CM2 6BA", "addr:country": "GB", "name": "PLOUGH CHELMSFORD Chelmsford", "phone": "01245 353375", "website": "https://www.harvester.co.uk/restaurants/eastofengland/theploughchelmsford", "contact:twitter": "HarvesterUK", "opening_hours": "Mo-Su 09:00-23:00", "image": "https://www.harvester.co.uk/content/dam/harvester/images/logo.png", "brand": "Harvester", "brand:wikidata": "Q5676915", "nsi_id": "harvester-9b5453"}, "geometry": {"type": "Point", "coordinates": [0.496436, 51.742998]}},
{"type": "Feature", "id": "hhrJQ0AWjGLO8Q7l7t-Top8e7rI=", "properties": {"ref": "https://www.harvester.co.uk/restaurants/eastofengland/harvesterpavilionspeterborough", "@spider": "harvester_gb", "amenity": "restaurant", "cuisine": "american", "addr:street_address": "Unit 4 Pavilions West, Cygnet Park", "addr:city": "Peterborough", "addr:state": "Cambridgeshire", "addr:postcode": "PE7 8FD", "addr:country": "GB", "name": "Harvester Pavilions Peterborough", "phone": "01733 340753", "website": "https://www.harvester.co.uk/restaurants/eastofengland/harvesterpavilionspeterborough", "contact:twitter": "HarvesterUK", "opening_hours": "Mo-Su 09:00-22:00", "image": "https://www.harvester.co.uk/content/dam/harvester/images/logo.png", "brand": "Harvester", "brand:wikidata": "Q5676915", "nsi_id": "harvester-9b5453"}, "geometry": {"type": "Point", "coordinates": [-0.256133, 52.542128]}},
{"type": "Feature", "id": "wKrrTwEFI22z0SeG5QnF5htFlok=", "properties": {"ref": "https://www.harvester.co.uk/restaurants/eastofengland/harvestergarstonwatford", "@spider": "harvester_gb", "amenity": "restaurant", "cuisine": "american", "addr:street_address": "St Albans Road, Garston", "addr:city": "Watford", "addr:state": "Hertfordshire", "addr:postcode": "WD25 0LL", "addr:country": "GB", "name": "Harvester Garston Watford", "phone": "01923 672061", "website": "https://www.harvester.co.uk/restaurants/eastofengland/harvestergarstonwatford", "contact:twitter": "HarvesterUK", "opening_hours": "Mo-Su 09:00-22:00", "image": "https://www.harvester.co.uk/content/dam/harvester/images/logo.png", "brand": "Harvester", "brand:wikidata": "Q5676915", "nsi_id": "harvester-9b5453"}, "geometry": {"type": "Point", "coordinates": [-0.385568, 51.69444]}},
{"type": "Feature", "id": "9aTKdkeY4hSj2rrEK8SyJBjVPPM=", "properties": {"ref": "https://www.harvester.co.uk/restaurants/eastofengland/harvestergraysessex", "@spider": "harvester_gb", "amenity": "restaurant", "cuisine": "american", "addr:street_address": "Arterial Road (A1306)", "addr:city": "Grays", "addr:state": "Essex", "addr:postcode": "RM16 6UT", "addr:country": "GB", "name": "Harvester Grays Essex", "phone": "01375 387333", "website": "https://www.harvester.co.uk/restaurants/eastofengland/harvestergraysessex", "contact:twitter": "HarvesterUK", "opening_hours": "Mo-Su 09:00-23:00", "image": "https://www.harvester.co.uk/content/dam/harvester/images/logo.png", "brand": "Harvester", "brand:wikidata": "Q5676915", "nsi_id": "harvester-9b5453"}, "geometry": {"type": "Point", "coordinates": [0.303817, 51.493948]}},
{"type": "Feature", "id": "wZm1X255fxWxIMjRxyJyL2_dR7I=", "properties": {"ref": "https://www.harvester.co.uk/restaurants/eastofengland/thegoldenfleecebrentwood", "@spider": "harvester_gb", "amenity": "restaurant", "cuisine": "american", "addr:street_address": "101 London Road", "addr:city": "Brentwood", "addr:state": "Essex", "addr:postcode": "CM14 4NP", "addr:country": "GB", "name": "The Golden Fleece Brentwood", "phone": "01277 224511", "website": "https://www.harvester.co.uk/restaurants/eastofengland/thegoldenfleecebrentwood", "contact:twitter": "HarvesterUK", "opening_hours": "Mo-Su 09:00-23:00", "image": "https://www.harvester.co.uk/content/dam/harvester/images/logo.png", "brand": "Harvester", "brand:wikidata": "Q5676915", "nsi_id": "harvester-9b5453"}, "geometry": {"type": "Point", "coordinates": [0.277336, 51.612888]}},
{"type": "Feature", "id": "OIctLTjdZlP05-OecK1ireDnIRM=", "properties": {"ref": "https://www.harvester.co.uk/restaurants/eastofengland/harvestercroxleygreenrickmansworth", "@spider": "harvester_gb", "amenity": "restaurant", "cuisine": "american", "addr:street_address": "253 Watford Road, Croxley Green", "addr:city": "Rickmansworth", "addr:state": "Hertfordshire", "addr:postcode": "WD3 3RX", "addr:country": "GB", "name": "Harvester Croxley Green Rickmansworth", "phone": "01923 236784", "website": "https://www.harvester.co.uk/restaurants/eastofengland/harvestercroxleygreenrickmansworth", "contact:twitter": "HarvesterUK", "opening_hours": "Mo-Th 11:30-22:00; Fr-Su 09:00-22:00", "image": "https://www.harvester.co.uk/content/dam/harvester/images/logo.png", "brand": "Harvester", "brand:wikidata": "Q5676915", "nsi_id": "harvester-9b5453"}, "geometry": {"type": "Point", "coordinates": [-0.430462, 51.651482]}},
{"type": "Feature", "id": "Yi6JQuAtTiHx-I0Kafj4zteosfo=", "properties": {"ref": "https://www.harvester.co.uk/restaurants/eastofengland/harvesterflamsteadstalbans", "@spider": "harvester_gb", "amenity": "restaurant", "cuisine": "american", "addr:street_address": "London Road, Flamstead", "addr:city": "St Albans", "addr:state": "Hertfordshire", "addr:postcode": "AL3 8HT", "addr:country": "GB", "name": "Harvester Flamstead St. Albans", "phone": "01582 842800", "website": "https://www.harvester.co.uk/restaurants/eastofengland/harvesterflamsteadstalbans", "contact:twitter": "HarvesterUK", "opening_hours": "Mo-Th 11:30-22:00; Fr-Su 09:00-22:00", "image": "https://www.harvester.co.uk/content/dam/harvester/images/logo.png", "brand": "Harvester", "brand:wikidata": "Q5676915", "nsi_id": "harvester-9b5453"}, "geometry": {"type": "Point", "coordinates": [-0.421199, 51.820921]}},
{"type": "Feature", "id": "V-_h_v1SvJSpzIJ6MMNRnU0G9uU=", "properties": {"ref": "https://www.harvester.co.uk/restaurants/eastofengland/thefivebellsbasildon", "@spider": "harvester_gb", "amenity": "restaurant", "cuisine": "american", "addr:street_address": "London Road, Vange", "addr:city": "Basildon", "addr:state": "Essex", "addr:postcode": "SS16 5LD", "addr:country": "GB", "name": "The Five Bells Basildon", "phone": "01268 553162", "website": "https://www.harvester.co.uk/restaurants/eastofengland/thefivebellsbasildon", "contact:twitter": "HarvesterUK", "opening_hours": "Mo-Su 09:00-23:00", "image": "https://www.harvester.co.uk/content/dam/harvester/images/logo.png", "brand": "Harvester", "brand:wikidata": "Q5676915", "nsi_id": "harvester-9b5453"}, "geometry": {"type": "Point", "coordinates": [0.46428, 51.55176]}},
{"type": "Feature", "id": "SUY4S7p4Si_1HHq8K9MHzE2mStY=", "properties": {"ref": "https://www.harvester.co.uk/restaurants/eastofengland/harvesteralwaltonpeterborough", "@spider": "harvester_gb", "amenity": "restaurant", "cuisine": "american", "addr:street_address": "East of England Way, Orton Northgate", "addr:city": "Peterborough", "addr:state": "Cambridgeshire", "addr:postcode": "PE2 6HE", "addr:country": "GB", "name": "Harvester Alwalton Peterborough", "phone": "01733 237615", "website": "https://www.harvester.co.uk/restaurants/eastofengland/harvesteralwaltonpeterborough", "contact:twitter": "HarvesterUK", "opening_hours": "Mo-Th 11:30-23:00; Fr-Sa 09:00-23:00; Su 09:00-22:30", "image": "https://www.harvester.co.uk/content/dam/harvester/images/logo.png", "brand": "Harvester", "brand:wikidata": "Q5676915", "nsi_id": "harvester-9b5453"}, "geometry": {"type": "Point", "coordinates": [-0.322745, 52.549069]}},
{"type": "Feature", "id": "AStpW2WnHzhMwYrcFE7b4NThaqY=", "properties": {"ref": "https://www.harvester.co.uk/restaurants/eastofengland/theancientbritonstalbans", "@spider": "harvester_gb", "amenity": "restaurant", "cuisine": "american", "addr:street_address": "46 Harpenden Road, Beech Bottom", "addr:city": "St Albans", "addr:state": "Hertfordshire", "addr:postcode": "AL3 5AH", "addr:country": "GB", "name": "The Ancient Briton St Albans", "phone": "01727 855053", "website": "https://www.harvester.co.uk/restaurants/eastofengland/theancientbritonstalbans", "contact:twitter": "HarvesterUK", "opening_hours": "Mo-Su 09:00-22:00", "image": "https://www.harvester.co.uk/content/dam/harvester/images/logo.png", "brand": "Harvester", "brand:wikidata": "Q5676915", "nsi_id": "harvester-9b5453"}, "geometry": {"type": "Point", "coordinates": [-0.335094, 51.765502]}},
{"type": "Feature", "id": "4IZdCQFCd32NOVBq2G4G0l6TVZI=", "properties": {"ref": "https://www.harvester.co.uk/restaurants/eastofengland/theoakmerehousepottersbar", "@spider": "harvester_gb", "amenity": "restaurant", "cuisine": "american", "addr:street_address": "High Street", "addr:city": "Potters Bar", "addr:state": "Hertfordshire", "addr:postcode": "EN6 5BT", "addr:country": "GB", "name": "The Oakmere House Potters Bar", "phone": "01707 664035", "website": "https://www.harvester.co.uk/restaurants/eastofengland/theoakmerehousepottersbar", "contact:twitter": "HarvesterUK", "opening_hours": "Mo-Th 11:30-22:00; Fr-Su 09:00-22:00", "image": "https://www.harvester.co.uk/content/dam/harvester/images/logo.png", "brand": "Harvester", "brand:wikidata": "Q5676915", "nsi_id": "harvester-9b5453"}, "geometry": {"type": "Point", "coordinates": [-0.174477, 51.696825]}},
{"type": "Feature", "id": "6VUMcw9zl8En1hpeXb7jkDTkOrU=", "properties": {"ref": "https://www.harvester.co.uk/restaurants/eastofengland/thetarpotbenfleet", "@spider": "harvester_gb", "amenity": "restaurant", "cuisine": "american", "addr:street_address": "London Road", "addr:city": "South Benfleet", "addr:state": "Essex", "addr:postcode": "SS7 5SQ", "addr:country": "GB", "name": "The Tarpot Benfleet", "phone": "01268 793258", "website": "https://www.harvester.co.uk/restaurants/eastofengland/thetarpotbenfleet", "contact:twitter": "HarvesterUK", "opening_hours": "Mo-Su 09:00-23:00", "image": "https://www.harvester.co.uk/content/dam/harvester/images/logo.png", "brand": "Harvester", "brand:wikidata": "Q5676915", "nsi_id": "harvester-9b5453"}, "geometry": {"type": "Point", "coordinates": [0.550971, 51.567057]}},
{"type": "Feature", "id": "_l86DVgPlic8mZctcmEH4aMUN7s=", "properties": {"ref": "https://www.harvester.co.uk/restaurants/eastofengland/thepotterskilnlowestoft", "@spider": "harvester_gb", "amenity": "restaurant", "cuisine": "american", "addr:street_address": "Leisure Way", "addr:city": "Lowestoft", "addr:state": "Suffolk", "addr:postcode": "NR32 4TZ", "addr:country": "GB", "name": "The Potter's Kiln Lowestoft", "phone": "01502 733073", "website": "https://www.harvester.co.uk/restaurants/eastofengland/thepotterskilnlowestoft", "contact:twitter": "HarvesterUK", "opening_hours": "Mo-Fr 09:00-23:00; Sa-Su 08:00-23:00", "image": "https://www.harvester.co.uk/content/dam/harvester/images/logo.png", "brand": "Harvester", "brand:wikidata": "Q5676915", "nsi_id": "harvester-9b5453"}, "geometry": {"type": "Point", "coordinates": [1.733815, 52.501995]}},
{"type": "Feature", "id": "jrdqRfgLv5zmOBP66V2Nm04Y3Vg=", "properties": {"ref": "https://www.harvester.co.uk/restaurants/southeast/thegeorgeinnmorden", "@spider": "harvester_gb", "amenity": "restaurant", "cuisine": "american", "addr:street_address": "Epsom Road, Morden", "addr:city": "Morden", "addr:state": "Surrey", "addr:postcode": "SM4 5PJ", "addr:country": "GB", "name": "The George Inn Morden", "phone": "020 8648 4216", "website": "https://www.harvester.co.uk/restaurants/southeast/thegeorgeinnmorden", "contact:twitter": "HarvesterUK", "opening_hours": "Mo-Su 09:00-23:00", "image": "https://www.harvester.co.uk/content/dam/harvester/images/logo.png", "brand": "Harvester", "brand:wikidata": "Q5676915", "nsi_id": "harvester-9b5453"}, "geometry": {"type": "Point", "coordinates": [-0.203861, 51.39154]}},
{"type": "Feature", "id": "cnZ2TINFUfTVYRP99THYHMue71I=", "properties": {"ref": "https://www.harvester.co.uk/restaurants/southeast/thefountainmiltonkeynes", "@spider": "harvester_gb", "amenity": "restaurant", "cuisine": "american", "addr:street_address": "London Road, Loughton", "addr:city": "Milton Keynes", "addr:state": "Buckinghamshire", "addr:postcode": "MK5 8AF", "addr:country": "GB", "name": "The Fountain Milton Keynes", "phone": "01908 666203", "website": "https://www.harvester.co.uk/restaurants/southeast/thefountainmiltonkeynes", "contact:twitter": "HarvesterUK", "opening_hours": "Mo-Sa 09:00-23:00; Su 09:00-22:30", "image": "https://www.harvester.co.uk/content/dam/harvester/images/logo.png", "brand": "Harvester", "brand:wikidata": "Q5676915", "nsi_id": "harvester-9b5453"}, "geometry": {"type": "Point", "coordinates": [-0.782095, 52.025156]}},
{"type": "Feature", "id": "ALn2ZmqeXn4gvfX_7hxk4JVruEU=", "properties": {"ref": "https://www.harvester.co.uk/restaurants/southeast/harvestereastlakemiltonkeynes", "@spider": "harvester_gb", "amenity": "restaurant", "cuisine": "american", "addr:street_address": "Eastlake Park, Foxmilne", "addr:city": "Milton Keynes", "addr:state": "Buckinghamshire", "addr:postcode": "MK15 0SB", "addr:country": "GB", "name": "Harvester Eastlake Milton Keynes", "phone": "01908 395144", "website": "https://www.harvester.co.uk/restaurants/southeast/harvestereastlakemiltonkeynes", "contact:twitter": "HarvesterUK", "opening_hours": "Mo-Su 09:00-22:00", "image": "https://www.harvester.co.uk/content/dam/harvester/images/logo.png", "brand": "Harvester", "brand:wikidata": "Q5676915", "nsi_id": "harvester-9b5453"}, "geometry": {"type": "Point", "coordinates": [-0.709656, 52.048922]}},
{"type": "Feature", "id": "F5cuOtTqKChvdrN_9nqlLtJqArQ=", "properties": {"ref": "https://www.harvester.co.uk/restaurants/southeast/themansionhousereading", "@spider": "harvester_gb", "amenity": "restaurant", "cuisine": "american", "addr:street_address": "Liebenrood Road", "addr:city": "Reading", "addr:state": "Berkshire", "addr:postcode": "RG30 2ND", "addr:country": "GB", "name": "The Mansion House Reading", "phone": "0118 950 5125", "website": "https://www.harvester.co.uk/restaurants/southeast/themansionhousereading", "contact:twitter": "HarvesterUK", "opening_hours": "Mo-Su 09:00-22:00", "image": "https://www.harvester.co.uk/content/dam/harvester/images/logo.png", "brand": "Harvester", "brand:wikidata": "Q5676915", "nsi_id": "harvester-9b5453"}, "geometry": {"type": "Point", "coordinates": [-1.011459, 51.44936]}},
{"type": "Feature", "id": "ZK5Q2YN-BRFKSoTlpMzhbT5NL84=", "properties": {"ref": "https://www.harvester.co.uk/restaurants/southeast/thetworiversstaines", "@spider": "harvester_gb", "amenity": "restaurant", "cuisine": "american", "addr:street_address": "Tillys Lane, Two Rivers", "addr:city": "Staines-Upon-Thames", "addr:state": "Surrey", "addr:postcode": "TW18 4BL", "addr:country": "GB", "name": "The Two Rivers Staines", "phone": "01784 453146", "website": "https://www.harvester.co.uk/restaurants/southeast/thetworiversstaines", "contact:twitter": "HarvesterUK", "opening_hours": "Mo-Sa 09:00-22:00; Su 09:00-21:00", "image": "https://www.harvester.co.uk/content/dam/harvester/images/logo.png", "brand": "Harvester", "brand:wikidata": "Q5676915", "nsi_id": "harvester-9b5453"}, "geometry": {"type": "Point", "coordinates": [-0.512065, 51.43396]}},
{"type": "Feature", "id": "Y4TeT69bWRMd9P-iuJTCnKCeWDM=", "properties": {"ref": "https://www.harvester.co.uk/restaurants/southeast/theyeomanwestbyfleet", "@spider": "harvester_gb", "amenity": "restaurant", "cuisine": "american", "addr:street_address": "81 Old Woking Road", "addr:city": "West Byfleet", "addr:state": "Surrey", "addr:postcode": "KT14 6JA", "addr:country": "GB", "name": "YEOMAN WEST BYFLEET West Byfleet", "phone": "01932 344553", "website": "https://www.harvester.co.uk/restaurants/southeast/theyeomanwestbyfleet", "contact:twitter": "HarvesterUK", "opening_hours": "Mo-Th 09:00-21:00; Fr-Sa 09:00-22:00; Su 09:00-21:00", "image": "https://www.harvester.co.uk/content/dam/harvester/images/logo.png", "brand": "Harvester", "brand:wikidata": "Q5676915", "nsi_id": "harvester-9b5453"}, "geometry": {"type": "Point", "coordinates": [-0.506504, 51.335754]}},
{"type": "Feature", "id": "2jSwKkFJUkanjv17j3FiPIPv_jQ=", "properties": {"ref": "https://www.harvester.co.uk/restaurants/southeast/thecricketerscroydon", "@spider": "harvester_gb", "amenity": "restaurant", "cuisine": "american", "addr:street_address": "36 Addington Village Road", "addr:city": "Croydon", "addr:state": "Greater London", "addr:postcode": "CR0 5AQ", "addr:country": "GB", "name": "The Cricketers Croydon", "phone": "01689 842057", "website": "https://www.harvester.co.uk/restaurants/southeast/thecricketerscroydon", "contact:twitter": "HarvesterUK", "opening_hours": "Mo-Th 09:00-22:00; Fr-Sa 09:00-23:00; Su 09:00-22:00", "image": "https://www.harvester.co.uk/content/dam/harvester/images/logo.png", "brand": "Harvester", "brand:wikidata": "Q5676915", "nsi_id": "harvester-9b5453"}, "geometry": {"type": "Point", "coordinates": [-0.033034, 51.357815]}},
{"type": "Feature", "id": "ojy2bFCOpXlo4NLwrGO4Qr9JUag=", "properties": {"ref": "https://www.harvester.co.uk/restaurants/southeast/thehorseandgroomsidcup", "@spider": "harvester_gb", "amenity": "restaurant", "cuisine": "american", "addr:street_address": "136 Main Road", "addr:city": "Sidcup", "addr:state": "Greater London", "addr:postcode": "DA14 6NZ", "addr:country": "GB", "name": "HORSE & GROOM SIDCUP Sidcup", "phone": "020 8300 6489", "website": "https://www.harvester.co.uk/restaurants/southeast/thehorseandgroomsidcup", "contact:twitter": "HarvesterUK", "opening_hours": "Mo-Th 11:30-22:00; Fr-Su 09:00-22:00", "image": "https://www.harvester.co.uk/content/dam/harvester/images/logo.png", "brand": "Harvester", "brand:wikidata": "Q5676915", "nsi_id": "harvester-9b5453"}, "geometry": {"type": "Point", "coordinates": [0.096003, 51.426533]}},
{"type": "Feature", "id": "K7803SXHzlcGnBFlAf9EcNgAomU=", "properties": {"ref": "https://www.harvester.co.uk/restaurants/southeast/thehorseandgroompolegate", "@spider": "harvester_gb", "amenity": "restaurant", "cuisine": "american", "addr:street_address": "1 High Street", "addr:city": "Polegate", "addr:state": "East Sussex", "addr:postcode": "BN26 5HA", "addr:country": "GB", "name": "HORSE & GROOM POLEGATE Polegate", "phone": "01323 483037", "website": "https://www.harvester.co.uk/restaurants/southeast/thehorseandgroompolegate", "contact:twitter": "HarvesterUK", "opening_hours": "Mo-Th 11:30-22:00; Fr-Su 09:00-22:00", "image": "https://www.harvester.co.uk/content/dam/harvester/images/logo.png", "brand": "Harvester", "brand:wikidata": "Q5676915", "nsi_id": "harvester-9b5453"}, "geometry": {"type": "Point", "coordinates": [0.241845, 50.819502]}},
{"type": "Feature", "id": "Pe4vxgnUfYFZPdAn9tfA2jUB6gc=", "properties": {"ref": "https://www.harvester.co.uk/restaurants/southeast/therunninghorsemaidstone", "@spider": "harvester_gb", "amenity": "restaurant", "cuisine": "american", "addr:street_address": "Chatham Road, Sandling", "addr:city": "Maidstone", "addr:state": "Kent", "addr:postcode": "ME14 3AG", "addr:country": "GB", "name": "The Running Horse Maidstone", "phone": "01622 752975", "website": "https://www.harvester.co.uk/restaurants/southeast/therunninghorsemaidstone", "contact:twitter": "HarvesterUK", "opening_hours": "Mo-Th 09:00-22:00; Fr-Sa 09:00-23:00; Su 09:00-22:00", "image": "https://www.harvester.co.uk/content/dam/harvester/images/logo.png", "brand": "Harvester", "brand:wikidata": "Q5676915", "nsi_id": "harvester-9b5453"}, "geometry": {"type": "Point", "coordinates": [0.515946, 51.294513]}},
{"type": "Feature", "id": "mpJSgaebL56hCbYWqeU_l5ciM_c=", "properties": {"ref": "https://www.harvester.co.uk/restaurants/southeast/harvesterwestgatealdershot", "@spider": "harvester_gb", "amenity": "restaurant", "cuisine": "american", "addr:street_address": "Westgate Leisure Park, Wellington Avenue", "addr:city": "Aldershot", "addr:state": "Hampshire", "addr:postcode": "GU11 1WG", "addr:country": "GB", "name": "Harvester Westgate Aldershot", "phone": "01252 316059", "website": "https://www.harvester.co.uk/restaurants/southeast/harvesterwestgatealdershot", "contact:twitter": "HarvesterUK", "opening_hours": "24/7", "image": "https://www.harvester.co.uk/content/dam/harvester/images/logo.png", "brand": "Harvester", "brand:wikidata": "Q5676915", "nsi_id": "harvester-9b5453"}, "geometry": {"type": "Point", "coordinates": [-0.769453, 51.249616]}},
{"type": "Feature", "id": "Q4c3cUj1R7oBXFEtmG3i_7RZdXM=", "properties": {"ref": "https://www.harvester.co.uk/restaurants/southeast/harvesterswancentreeastleigh", "@spider": "harvester_gb", "amenity": "restaurant", "cuisine": "american", "addr:street_address": "Unit L1B The Swan Centre, Wells Place", "addr:city": "Eastleigh", "addr:state": "Hampshire", "addr:postcode": "SO50 5FX", "addr:country": "GB", "name": "Harvester Swan Centre Eastleigh", "phone": "023 8064 1304", "website": "https://www.harvester.co.uk/restaurants/southeast/harvesterswancentreeastleigh", "contact:twitter": "HarvesterUK", "opening_hours": "Mo-Th 09:00-21:00; Fr-Sa 09:00-21:30; Su 09:00-21:00", "image": "https://www.harvester.co.uk/content/dam/harvester/images/logo.png", "brand": "Harvester", "brand:wikidata": "Q5676915", "nsi_id": "harvester-9b5453"}, "geometry": {"type": "Point", "coordinates": [-1.351717, 50.967028]}},
{"type": "Feature", "id": "jTA_PK0nWGL-TeREJZH2PYYaYik=", "properties": {"ref": "https://www.harvester.co.uk/restaurants/southeast/thewindmilllittlehampton", "@spider": "harvester_gb", "amenity": "restaurant", "cuisine": "american", "addr:street_address": "Coastguard Road", "addr:city": "Littlehampton", "addr:state": "West Sussex", "addr:postcode": "BN17 5LH", "addr:country": "GB", "name": "WINDMILL LITTLEHAMPTON Littlehampton", "phone": "01903 721685", "website": "https://www.harvester.co.uk/restaurants/southeast/thewindmilllittlehampton", "contact:twitter": "HarvesterUK", "opening_hours": "Mo-Sa 09:00-23:00; Su 09:00-22:00", "image": "https://www.harvester.co.uk/content/dam/harvester/images/logo.png", "brand": "Harvester", "brand:wikidata": "Q5676915", "nsi_id": "harvester-9b5453"}, "geometry": {"type": "Point", "coordinates": [-0.540378, 50.803315]}},
{"type": "Feature", "id": "vpx9s-_MrYigWFI34gU5wIyiBDE=", "properties": {"ref": "https://www.harvester.co.uk/restaurants/southeast/harvesterwhiteleyfareham", "@spider": "harvester_gb", "amenity": "restaurant", "cuisine": "american", "addr:street_address": "Unit E1-E2, Whiteley Shopping Centre", "addr:city": "Fareham", "addr:state": "Hampshire", "addr:postcode": "PO15 7LJ", "addr:country": "GB", "name": "Harvester Whiteley Fareham", "phone": "01489 579522", "website": "https://www.harvester.co.uk/restaurants/southeast/harvesterwhiteleyfareham", "contact:twitter": "HarvesterUK", "opening_hours": "Mo-Su 09:00-20:00", "image": "https://www.harvester.co.uk/content/dam/harvester/images/logo.png", "brand": "Harvester", "brand:wikidata": "Q5676915", "nsi_id": "harvester-9b5453"}, "geometry": {"type": "Point", "coordinates": [-1.245699, 50.88561]}},
{"type": "Feature", "id": "d0W25Nke4Sv2xW0n3qw9Cq4ik84=", "properties": {"ref": "https://www.harvester.co.uk/restaurants/southeast/harvestercrawleyleisureparkcrawley", "@spider": "harvester_gb", "amenity": "restaurant", "cuisine": "american", "addr:street_address": "Unit 4B, Crawley Leisure Park", "addr:city": "Crawley", "addr:state": "West Sussex", "addr:postcode": "RH10 8LR", "addr:country": "GB", "name": "Harvester Crawley Leisure Park Crawley", "phone": "01293 515085", "website": "https://www.harvester.co.uk/restaurants/southeast/harvestercrawleyleisureparkcrawley", "contact:twitter": "HarvesterUK", "opening_hours": "Mo-Su 11:30-21:30", "image": "https://www.harvester.co.uk/content/dam/harvester/images/logo.png", "brand": "Harvester", "brand:wikidata": "Q5676915", "nsi_id": "harvester-9b5453"}, "geometry": {"type": "Point", "coordinates": [-0.188786, 51.119449]}},
{"type": "Feature", "id": "bUNn1jIysLeDj1EFnn7KVw-MI_M=", "properties": {"ref": "https://www.harvester.co.uk/restaurants/southeast/thestauntonarmsportsmouth", "@spider": "harvester_gb", "amenity": "restaurant", "cuisine": "american", "addr:street_address": "1 Whichers Gate Road, Rowlands Castle", "addr:city": "Portsmouth", "addr:state": "Hampshire", "addr:postcode": "PO9 6BB", "addr:country": "GB", "name": "The Staunton Arms Portsmouth", "phone": "023 9241 3761", "website": "https://www.harvester.co.uk/restaurants/southeast/thestauntonarmsportsmouth", "contact:twitter": "HarvesterUK", "opening_hours": "Mo-Th 09:00-22:00; Fr-Sa 09:00-23:00; Su 09:00-22:00", "image": "https://www.harvester.co.uk/content/dam/harvester/images/logo.png", "brand": "Harvester", "brand:wikidata": "Q5676915", "nsi_id": "harvester-9b5453"}, "geometry": {"type": "Point", "coordinates": [-0.968256, 50.884054]}},
{"type": "Feature", "id": "cxk7voTiyVJuEWEcHGdkJ9jsR78=", "properties": {"ref": "https://www.harvester.co.uk/restaurants/southeast/thesovereignharboureastbourne", "@spider": "harvester_gb", "amenity": "restaurant", "cuisine": "american", "addr:street_address": "29 The Waterfront, Sovereign Harbour", "addr:city": "Eastbourne", "addr:state": "East Sussex", "addr:postcode": "BN23 5UZ", "addr:country": "GB", "name": "The Sovereign Harbour Eastbourne", "phone": "01323 470074", "website": "https://www.harvester.co.uk/restaurants/southeast/thesovereignharboureastbourne", "contact:twitter": "HarvesterUK", "opening_hours": "Mo-Th 09:00-22:00; Fr-Sa 09:00-23:00; Su 09:00-22:00", "image": "https://www.harvester.co.uk/content/dam/harvester/images/logo.png", "brand": "Harvester", "brand:wikidata": "Q5676915", "nsi_id": "harvester-9b5453"}, "geometry": {"type": "Point", "coordinates": [0.325882, 50.793437]}},
{"type": "Feature", "id": "GZQcDXOHsDpaRhFqzYa_6oyaYQE=", "properties": {"ref": "https://www.harvester.co.uk/restaurants/southeast/thestagandhoundsbasingstoke", "@spider": "harvester_gb", "amenity": "restaurant", "cuisine": "american", "addr:street_address": "Winchester Road", "addr:city": "Basingstoke", "addr:state": "Hampshire", "addr:postcode": "RG22 6HN", "addr:country": "GB", "name": "The Stag and Hounds Basingstoke", "phone": "01256 359983", "website": "https://www.harvester.co.uk/restaurants/southeast/thestagandhoundsbasingstoke", "contact:twitter": "HarvesterUK", "opening_hours": "Mo-Th 09:00-22:00; Fr-Sa 09:00-23:00; Su 09:00-22:00", "image": "https://www.harvester.co.uk/content/dam/harvester/images/logo.png", "brand": "Harvester", "brand:wikidata": "Q5676915", "nsi_id": "harvester-9b5453"}, "geometry": {"type": "Point", "coordinates": [-1.114416, 51.249542]}},
{"type": "Feature", "id": "jFPSrfxZDqFkABBuzCLSTLFJRUc=", "properties": {"ref": "https://www.harvester.co.uk/restaurants/southeast/harvesterportsolentportsmouth", "@spider": "harvester_gb", "amenity": "restaurant", "cuisine": "american", "addr:street_address": "15 The Boardwalk, Port Solent", "addr:city": "Portsmouth", "addr:state": "Hampshire", "addr:postcode": "PO6 4TP", "addr:country": "GB", "name": "Harvester Port Solent Portsmouth", "phone": "023 9220 1012", "website": "https://www.harvester.co.uk/restaurants/southeast/harvesterportsolentportsmouth", "contact:twitter": "HarvesterUK", "opening_hours": "Mo-Th 09:00-22:00; Fr-Sa 09:00-23:00; Su 09:00-22:00", "image": "https://www.harvester.co.uk/content/dam/harvester/images/logo.png", "brand": "Harvester", "brand:wikidata": "Q5676915", "nsi_id": "harvester-9b5453"}, "geometry": {"type": "Point", "coordinates": [-1.096725, 50.841485]}},
{"type": "Feature", "id": "P5y28Omrip8VDQOQqLzDf778Ips=", "properties": {"ref": "https://www.harvester.co.uk/restaurants/southeast/therisingsundartford", "@spider": "harvester_gb", "amenity": "restaurant", "cuisine": "american", "addr:street_address": "105 Dartford Road", "addr:city": "Dartford", "addr:state": "Kent", "addr:postcode": "DA1 3EP", "addr:country": "GB", "name": "The Rising Sun Dartford", "phone": "01322 220063", "website": "https://www.harvester.co.uk/restaurants/southeast/therisingsundartford", "contact:twitter": "HarvesterUK", "opening_hours": "Mo-Su 09:00-22:00", "image": "https://www.harvester.co.uk/content/dam/harvester/images/logo.png", "brand": "Harvester", "brand:wikidata": "Q5676915", "nsi_id": "harvester-9b5453"}, "geometry": {"type": "Point", "coordinates": [0.200627, 51.446828]}},
{"type": "Feature", "id": "N-XXAAFJe6tkJR37NoYUFwYkpBk=", "properties": {"ref": "https://www.harvester.co.uk/restaurants/southeast/themontaguarmsslough", "@spider": "harvester_gb", "amenity": "restaurant", "cuisine": "american", "addr:street_address": "374 London Road, Langley", "addr:city": "Slough", "addr:state": "Berkshire", "addr:postcode": "SL3 7HX", "addr:country": "GB", "name": "The Montagu Arms Slough", "phone": "01753 543009", "website": "https://www.harvester.co.uk/restaurants/southeast/themontaguarmsslough", "contact:twitter": "HarvesterUK", "opening_hours": "Mo-Su 11:30-20:00", "image": "https://www.harvester.co.uk/content/dam/harvester/images/logo.png", "brand": "Harvester", "brand:wikidata": "Q5676915", "nsi_id": "harvester-9b5453"}, "geometry": {"type": "Point", "coordinates": [-0.550244, 51.494462]}},
{"type": "Feature", "id": "r3h489f-MHZoKUZDX-t3pK1yYuE=", "properties": {"ref": "https://www.harvester.co.uk/restaurants/southeast/theploughsutton", "@spider": "harvester_gb", "amenity": "restaurant", "cuisine": "american", "addr:street_address": "224 Sutton Common Road", "addr:city": "Sutton", "addr:state": "Greater London", "addr:postcode": "SM3 9PW", "addr:country": "GB", "name": "PLOUGH SUTTON Sutton", "phone": "020 8644 7577", "website": "https://www.harvester.co.uk/restaurants/southeast/theploughsutton", "contact:twitter": "HarvesterUK", "opening_hours": "Mo-Th 09:00-22:00; Fr-Sa 09:00-23:00; Su 09:00-22:00", "image": "https://www.harvester.co.uk/content/dam/harvester/images/logo.png", "brand": "Harvester", "brand:wikidata": "Q5676915", "nsi_id": "harvester-9b5453"}, "geometry": {"type": "Point", "coordinates": [-0.20086, 51.37938]}},
{"type": "Feature", "id": "D1GuxvbfLGvjMZicM6Itct-8tKM=", "properties": {"ref": "https://www.harvester.co.uk/restaurants/southeast/themadeirabrighton", "@spider": "harvester_gb", "amenity": "restaurant", "cuisine": "american", "addr:street_address": "Unit 1 The Terrace, Madeira Drive", "addr:city": "Brighton", "addr:state": "East Sussex", "addr:postcode": "BN2 1AY", "addr:country": "GB", "name": "The Madeira Brighton", "phone": "01273 696207", "website": "https://www.harvester.co.uk/restaurants/southeast/themadeirabrighton", "contact:twitter": "HarvesterUK", "opening_hours": "Mo-Th 11:30-22:00; Fr-Su 09:00-22:00", "image": "https://www.harvester.co.uk/content/dam/harvester/images/logo.png", "brand": "Harvester", "brand:wikidata": "Q5676915", "nsi_id": "harvester-9b5453"}, "geometry": {"type": "Point", "coordinates": [-0.13539, 50.819578]}},
{"type": "Feature", "id": "1_qTpIXZpaJSeRT3Ve8WbSJyvtQ=", "properties": {"ref": "https://www.harvester.co.uk/restaurants/southeast/thekatarinabrighton", "@spider": "harvester_gb", "amenity": "restaurant", "cuisine": "american", "addr:street_address": "Village Square, Brighton Marina Village", "addr:city": "Brighton", "addr:state": "East Sussex", "addr:postcode": "BN2 5WD", "addr:country": "GB", "name": "The Katarina Brighton", "phone": "01273 606268", "website": "https://www.harvester.co.uk/restaurants/southeast/thekatarinabrighton", "contact:twitter": "HarvesterUK", "opening_hours": "Mo-Su 11:30-21:00", "image": "https://www.harvester.co.uk/content/dam/harvester/images/logo.png", "brand": "Harvester", "brand:wikidata": "Q5676915", "nsi_id": "harvester-9b5453"}, "geometry": {"type": "Point", "coordinates": [-0.10251, 50.812887]}},
{"type": "Feature", "id": "wY7RXh6C-UtlBh9HfmeaZWJy0hk=", "properties": {"ref": "https://www.harvester.co.uk/restaurants/southeast/thekingsheadcamberley", "@spider": "harvester_gb", "amenity": "restaurant", "cuisine": "american", "addr:street_address": "Guildford Road, Frimley Green", "addr:city": "Camberley", "addr:state": "Surrey", "addr:postcode": "GU16 6NR", "addr:country": "GB", "name": "The King's Head Camberley", "phone": "01252 835431", "website": "https://www.harvester.co.uk/restaurants/southeast/thekingsheadcamberley", "contact:twitter": "HarvesterUK", "opening_hours": "Mo-Th 11:30-22:00; Fr-Su 09:00-22:00", "image": "https://www.harvester.co.uk/content/dam/harvester/images/logo.png", "brand": "Harvester", "brand:wikidata": "Q5676915", "nsi_id": "harvester-9b5453"}, "geometry": {"type": "Point", "coordinates": [-0.723477, 51.300111]}},
{"type": "Feature", "id": "kVI5tdjAbo2dz_Gs2Cvzn7HK2tY=", "properties": {"ref": "https://www.harvester.co.uk/restaurants/southeast/harvestergravesendchalk", "@spider": "harvester_gb", "amenity": "restaurant", "cuisine": "american", "addr:street_address": "Rochester Road, Chalk", "addr:city": "Gravesend", "addr:state": "Kent", "addr:postcode": "DA12 4TN", "addr:country": "GB", "name": "Harvester Gravesend Chalk", "phone": "01474 323272", "website": "https://www.harvester.co.uk/restaurants/southeast/harvestergravesendchalk", "contact:twitter": "HarvesterUK", "opening_hours": "Mo-Th 09:00-22:00; Fr-Sa 09:00-23:00; Su 09:00-22:00", "image": "https://www.harvester.co.uk/content/dam/harvester/images/logo.png", "brand": "Harvester", "brand:wikidata": "Q5676915", "nsi_id": "harvester-9b5453"}, "geometry": {"type": "Point", "coordinates": [0.396776, 51.431379]}},
{"type": "Feature", "id": "9oXRGKGuG9APGJvalyXM8xNrozo=", "properties": {"ref": "https://www.harvester.co.uk/restaurants/southeast/thehawthparkinncrawley", "@spider": "harvester_gb", "amenity": "restaurant", "cuisine": "american", "addr:street_address": "Haslett Avenue East", "addr:city": "Crawley", "addr:state": "West Sussex", "addr:postcode": "RH10 1UJ", "addr:country": "GB", "name": "The Hawth Park Inn Crawley", "phone": "01293 536024", "website": "https://www.harvester.co.uk/restaurants/southeast/thehawthparkinncrawley", "contact:twitter": "HarvesterUK", "opening_hours": "Mo-Th 11:30-22:00; Fr-Sa 11:30-23:00; Su 11:30-22:00", "image": "https://www.harvester.co.uk/content/dam/harvester/images/logo.png", "brand": "Harvester", "brand:wikidata": "Q5676915", "nsi_id": "harvester-9b5453"}, "geometry": {"type": "Point", "coordinates": [-0.171641, 51.113975]}},
{"type": "Feature", "id": "9H9jcDk62YzTTfzhbgkvuaYfKUY=", "properties": {"ref": "https://www.harvester.co.uk/restaurants/southeast/thegreatsalternsmansionportsmouth", "@spider": "harvester_gb", "amenity": "restaurant", "cuisine": "american", "addr:street_address": "Eastern Road, Copnor", "addr:city": "Portsmouth", "addr:state": "Hampshire", "addr:postcode": "PO3 6QB", "addr:country": "GB", "name": "The Great Salterns Mansion Portsmouth", "phone": "023 9265 1051", "website": "https://www.harvester.co.uk/restaurants/southeast/thegreatsalternsmansionportsmouth", "contact:twitter": "HarvesterUK", "opening_hours": "Mo-Th 09:00-22:00; Fr-Sa 09:00-23:00; Su 09:00-22:00", "image": "https://www.harvester.co.uk/content/dam/harvester/images/logo.png", "brand": "Harvester", "brand:wikidata": "Q5676915", "nsi_id": "harvester-9b5453"}, "geometry": {"type": "Point", "coordinates": [-1.042816, 50.814814]}},
{"type": "Feature", "id": "UUDrKkxgh6epAVJ70u2ACWgGaZM=", "properties": {"ref": "https://www.harvester.co.uk/restaurants/southeast/thehamfarmhampshire", "@spider": "harvester_gb", "amenity": "restaurant", "cuisine": "american", "addr:street_address": "Twyford Road", "addr:city": "Eastleigh", "addr:state": "Hampshire", "addr:postcode": "SO50 4LF", "addr:country": "GB", "name": "The Ham Farm Hampshire", "phone": "023 8061 9181", "website": "https://www.harvester.co.uk/restaurants/southeast/thehamfarmhampshire", "contact:twitter": "HarvesterUK", "opening_hours": "Mo-Su 09:00-23:00", "image": "https://www.harvester.co.uk/content/dam/harvester/images/logo.png", "brand": "Harvester", "brand:wikidata": "Q5676915", "nsi_id": "harvester-9b5453"}, "geometry": {"type": "Point", "coordinates": [-1.350484, 50.983927]}},
{"type": "Feature", "id": "kxcJetRARa__bP7kjFcf9L6u23k=", "properties": {"ref": "https://www.harvester.co.uk/restaurants/southeast/thebybrookbarnashford", "@spider": "harvester_gb", "amenity": "restaurant", "cuisine": "american", "addr:street_address": "Canterbury Road, Kennington", "addr:city": "Ashford", "addr:state": "Kent", "addr:postcode": "TN24 8QQ", "addr:country": "GB", "name": "The Bybrook Barn Ashford", "phone": "01233 663634", "website": "https://www.harvester.co.uk/restaurants/southeast/thebybrookbarnashford", "contact:twitter": "HarvesterUK", "opening_hours": "Mo-Th 09:00-21:00; Fr-Sa 09:00-22:00; Su 09:00-21:00", "image": "https://www.harvester.co.uk/content/dam/harvester/images/logo.png", "brand": "Harvester", "brand:wikidata": "Q5676915", "nsi_id": "harvester-9b5453"}, "geometry": {"type": "Point", "coordinates": [0.87968, 51.157874]}},
{"type": "Feature", "id": "P-TN_Z-pj4KJmmCItpxllGidMk4=", "properties": {"ref": "https://www.harvester.co.uk/restaurants/southeast/thebulldogashford", "@spider": "harvester_gb", "amenity": "restaurant", "cuisine": "american", "addr:street_address": "556 London Road", "addr:city": "Ashford", "addr:state": "Surrey", "addr:postcode": "TW15 3AF", "addr:country": "GB", "name": "The Bulldog Ashford", "phone": "01784 252386", "website": "https://www.harvester.co.uk/restaurants/southeast/thebulldogashford", "contact:twitter": "HarvesterUK", "opening_hours": "Mo-Sa 09:00-23:00; Su 09:00-22:00", "image": "https://www.harvester.co.uk/content/dam/harvester/images/logo.png", "brand": "Harvester", "brand:wikidata": "Q5676915", "nsi_id": "harvester-9b5453"}, "geometry": {"type": "Point", "coordinates": [-0.47346, 51.442753]}},
{"type": "Feature", "id": "hoettyeuJ0MYfMiqM73Fp4_CdX8=", "properties": {"ref": "https://www.harvester.co.uk/restaurants/southeast/thebuccaneerfareham", "@spider": "harvester_gb", "amenity": "restaurant", "cuisine": "american", "addr:street_address": "14 The Avenue", "addr:city": "Fareham", "addr:state": "Hampshire", "addr:postcode": "PO14 1NS", "addr:country": "GB", "name": "The Buccaneer Fareham", "phone": "01329 230800", "website": "https://www.harvester.co.uk/restaurants/southeast/thebuccaneerfareham", "contact:twitter": "HarvesterUK", "opening_hours": "Mo-Sa 09:00-23:00; Su 09:00-22:30", "image": "https://www.harvester.co.uk/content/dam/harvester/images/logo.png", "brand": "Harvester", "brand:wikidata": "Q5676915", "nsi_id": "harvester-9b5453"}, "geometry": {"type": "Point", "coordinates": [-1.194884, 50.85295]}},
{"type": "Feature", "id": "Mgl2nffqHZT_NIt2fPjif_ixXWo=", "properties": {"ref": "https://www.harvester.co.uk/restaurants/southeast/thebridgeoxford", "@spider": "harvester_gb", "amenity": "restaurant", "cuisine": "american", "addr:street_address": "London Road, Wheatley", "addr:city": "Oxford", "addr:state": "Oxfordshire", "addr:postcode": "OX33 1JH", "addr:country": "GB", "name": "The Bridge Oxford", "phone": "01865 875270", "website": "https://www.harvester.co.uk/restaurants/southeast/thebridgeoxford", "contact:twitter": "HarvesterUK", "opening_hours": "Mo-Su 11:30-20:00", "image": "https://www.harvester.co.uk/content/dam/harvester/images/logo.png", "brand": "Harvester", "brand:wikidata": "Q5676915", "nsi_id": "harvester-9b5453"}, "geometry": {"type": "Point", "coordinates": [-1.116187, 51.742132]}},
{"type": "Feature", "id": "W6PgvmlQGrVWga6oPr9bg0GSZ48=", "properties": {"ref": "https://www.harvester.co.uk/restaurants/southeast/thebritannialancing", "@spider": "harvester_gb", "amenity": "restaurant", "cuisine": "american", "addr:street_address": "98 Grinstead Lane", "addr:city": "Lancing", "addr:state": "West Sussex", "addr:postcode": "BN15 9DP", "addr:country": "GB", "name": "The Britannia Lancing", "phone": "01903 750511", "website": "https://www.harvester.co.uk/restaurants/southeast/thebritannialancing", "contact:twitter": "HarvesterUK", "opening_hours": "Mo-Th 09:00-21:00; Fr-Sa 09:00-22:00; Su 09:00-21:00", "image": "https://www.harvester.co.uk/content/dam/harvester/images/logo.png", "brand": "Harvester", "brand:wikidata": "Q5676915", "nsi_id": "harvester-9b5453"}, "geometry": {"type": "Point", "coordinates": [-0.31948, 50.831261]}},
{"type": "Feature", "id": "acOjsH_kIHhq8DhVYh4AunN7vRE=", "properties": {"ref": "https://www.harvester.co.uk/restaurants/southeast/harvesteraylesburyaylesbury", "@spider": "harvester_gb", "amenity": "restaurant", "cuisine": "american", "addr:street_address": "Bicester Road, Alyesbury", "addr:city": "Aylesbury", "addr:state": "Buckinghamshire", "addr:postcode": "HP19 8BU", "addr:country": "GB", "name": "Harvester Aylesbury Aylesbury", "phone": "01296 434764", "website": "https://www.harvester.co.uk/restaurants/southeast/harvesteraylesburyaylesbury", "contact:twitter": "HarvesterUK", "opening_hours": "Mo-Th 09:00-20:00; Fr-Sa 09:00-21:30; Su 09:00-20:00", "image": "https://www.harvester.co.uk/content/dam/harvester/images/logo.png", "brand": "Harvester", "brand:wikidata": "Q5676915", "nsi_id": "harvester-9b5453"}, "geometry": {"type": "Point", "coordinates": [-0.834566, 51.824153]}},
{"type": "Feature", "id": "pfE0Hi0kM42hifhMK2ehftWbTRc=", "properties": {"ref": "https://www.harvester.co.uk/restaurants/southeast/thebarnchichester", "@spider": "harvester_gb", "amenity": "restaurant", "cuisine": "american", "addr:street_address": "Barnfield Drive, Somerstown", "addr:city": "Chichester", "addr:state": "West Sussex", "addr:postcode": "PO19 7AG", "addr:country": "GB", "name": "The Barn Chichester", "phone": "01243 785213", "website": "https://www.harvester.co.uk/restaurants/southeast/thebarnchichester", "contact:twitter": "HarvesterUK", "opening_hours": "Mo-Th 09:00-21:00; Fr-Sa 09:00-22:00; Su 09:00-21:00", "image": "https://www.harvester.co.uk/content/dam/harvester/images/logo.png", "brand": "Harvester", "brand:wikidata": "Q5676915", "nsi_id": "harvester-9b5453"}, "geometry": {"type": "Point", "coordinates": [-0.757881, 50.845673]}},
{"type": "Feature", "id": "CkEIVfKbN4KJI4Xiwm9UEsCPma0=", "properties": {"ref": "https://www.harvester.co.uk/restaurants/southeast/thebeechhursthaywardsheath", "@spider": "harvester_gb", "amenity": "restaurant", "cuisine": "american", "addr:street_address": "Beechurst Gardens, Butlers Green Road", "addr:city": "Haywards Heath", "addr:state": "West Sussex", "addr:postcode": "RH16 4BB", "addr:country": "GB", "name": "The Beech Hurst Haywards Heath", "phone": "01444 451290", "website": "https://www.harvester.co.uk/restaurants/southeast/thebeechhursthaywardsheath", "contact:twitter": "HarvesterUK", "opening_hours": "Mo-Su 11:00-21:00", "image": "https://www.harvester.co.uk/content/dam/harvester/images/logo.png", "brand": "Harvester", "brand:wikidata": "Q5676915", "nsi_id": "harvester-9b5453"}, "geometry": {"type": "Point", "coordinates": [-0.11523, 50.999152]}},
{"type": "Feature", "id": "vpHBKw_9UnOSFbTGL2BbCB2D6pI=", "properties": {"ref": "https://www.harvester.co.uk/restaurants/southeast/thebellsofouzeleyoldwindsor", "@spider": "harvester_gb", "amenity": "restaurant", "cuisine": "american", "addr:street_address": "Straight Road", "addr:city": "Old Windsor", "addr:state": "Berkshire", "addr:postcode": "SL4 2SH", "addr:country": "GB", "name": "The Bells of Ouzeley Old Windsor", "phone": "01753 861526", "website": "https://www.harvester.co.uk/restaurants/southeast/thebellsofouzeleyoldwindsor", "contact:twitter": "HarvesterUK", "opening_hours": "Mo-Sa 09:00-23:00; Su 09:00-22:30", "image": "https://www.harvester.co.uk/content/dam/harvester/images/logo.png", "brand": "Harvester", "brand:wikidata": "Q5676915", "nsi_id": "harvester-9b5453"}, "geometry": {"type": "Point", "coordinates": [-0.57414, 51.452087]}},
{"type": "Feature", "id": "m7RCUMuBk3L68CyNmKoL2cA4NNQ=", "properties": {"ref": "https://www.harvester.co.uk/restaurants/southeast/thewindsorladwindsor", "@spider": "harvester_gb", "amenity": "restaurant", "cuisine": "american", "addr:street_address": "250 Maidenhead Road, Clewer", "addr:city": "Windsor", "addr:state": "Berkshire", "addr:postcode": "SL4 5HQ", "addr:country": "GB", "name": "The Windsor Lad Windsor", "phone": "01753 864634", "website": "https://www.harvester.co.uk/restaurants/southeast/thewindsorladwindsor", "contact:twitter": "HarvesterUK", "opening_hours": "Mo-Th 11:00-22:00; Fr 11:30-23:00; Sa 09:00-23:00; Su 09:00-22:00", "image": "https://www.harvester.co.uk/content/dam/harvester/images/logo.png", "brand": "Harvester", "brand:wikidata": "Q5676915", "nsi_id": "harvester-9b5453"}, "geometry": {"type": "Point", "coordinates": [-0.636807, 51.485321]}},
{"type": "Feature", "id": "rca6Extxm_hXNIuxJw3OSzlC9mM=", "properties": {"ref": "https://www.harvester.co.uk/restaurants/southeast/theblacksmitharmshighwycombe", "@spider": "harvester_gb", "amenity": "restaurant", "cuisine": "american", "addr:street_address": "Old Marlow Road, Handy Cross", "addr:city": "High Wycombe", "addr:state": "Buckinghamshire", "addr:postcode": "HP10 9QD", "addr:country": "GB", "name": "The Blacksmith Arms High Wycombe", "phone": "01494 525323", "website": "https://www.harvester.co.uk/restaurants/southeast/theblacksmitharmshighwycombe", "contact:twitter": "HarvesterUK", "opening_hours": "Mo-Th 11:00-22:30; Fr-Sa 09:00-23:00; Su 09:00-21:30", "image": "https://www.harvester.co.uk/content/dam/harvester/images/logo.png", "brand": "Harvester", "brand:wikidata": "Q5676915", "nsi_id": "harvester-9b5453"}, "geometry": {"type": "Point", "coordinates": [-0.771244, 51.608874]}},
{"type": "Feature", "id": "xIPYE1iD-3_N1EHN5ZHFQJ_HoSs=", "properties": {"ref": "https://www.harvester.co.uk/restaurants/wales/merthyrtydfilmidglamorgan", "@spider": "harvester_gb", "amenity": "restaurant", "cuisine": "american", "addr:street_address": "Rhydycar Leisure Park", "addr:city": "Merthyr Tydfil", "addr:state": "Glamorgan", "addr:postcode": "CF48 1UT", "addr:country": "GB", "name": "Harvester Merthyr Tydfil Mid Glamorgan", "phone": "01685 379552", "website": "https://www.harvester.co.uk/restaurants/wales/merthyrtydfilmidglamorgan", "contact:twitter": "HarvesterUK", "opening_hours": "Mo-Th 09:00-21:00; Fr-Sa 09:00-22:00; Su 09:00-21:00", "image": "https://www.harvester.co.uk/content/dam/harvester/images/logo.png", "brand": "Harvester", "brand:wikidata": "Q5676915", "nsi_id": "harvester-9b5453"}, "geometry": {"type": "Point", "coordinates": [-3.378372, 51.739575]}},
{"type": "Feature", "id": "GHW1bIODxXBCSWhPqIFDXQdHX20=", "properties": {"ref": "https://www.harvester.co.uk/restaurants/wales/harvesterborderernewport", "@spider": "harvester_gb", "amenity": "restaurant", "cuisine": "american", "addr:street_address": "323 Malpas Road", "addr:city": "Newport", "addr:state": "Gwent", "addr:postcode": "NP20 6EP", "addr:country": "GB", "name": "Harvester Borderer Newport", "phone": "01633 858667", "website": "https://www.harvester.co.uk/restaurants/wales/harvesterborderernewport", "contact:twitter": "HarvesterUK", "opening_hours": "Mo-Th 09:00-21:00; Fr-Sa 09:00-22:00; Su 09:00-21:00", "image": "https://www.harvester.co.uk/content/dam/harvester/images/logo.png", "brand": "Harvester", "brand:wikidata": "Q5676915", "nsi_id": "harvester-9b5453"}, "geometry": {"type": "Point", "coordinates": [-3.008508, 51.607781]}},
{"type": "Feature", "id": "Ty9FpT6MWz0SkZKyiL2E7Zr40fI=", "properties": {"ref": "https://www.harvester.co.uk/restaurants/wales/harvesterpontypooltorfaen", "@spider": "harvester_gb", "amenity": "restaurant", "cuisine": "american", "addr:street_address": "Ty Felin Fawr, Lower Mill Field", "addr:city": "Pontypool", "addr:state": "Gwent", "addr:postcode": "NP4 0RH", "addr:country": "GB", "name": "Harvester Pontypool Torfaen", "phone": "01495 751551", "website": "https://www.harvester.co.uk/restaurants/wales/harvesterpontypooltorfaen", "contact:twitter": "HarvesterUK", "opening_hours": "Mo-Th 09:00-21:00; Fr-Sa 09:00-22:00; Su 09:00-21:00", "image": "https://www.harvester.co.uk/content/dam/harvester/images/logo.png", "brand": "Harvester", "brand:wikidata": "Q5676915", "nsi_id": "harvester-9b5453"}, "geometry": {"type": "Point", "coordinates": [-3.022588, 51.694519]}},
{"type": "Feature", "id": "B4ESdTC-UH6uwqQPT_RXtD1fZTg=", "properties": {"ref": "https://www.harvester.co.uk/restaurants/wales/harvesterllandarcyneath", "@spider": "harvester_gb", "amenity": "restaurant", "cuisine": "american", "addr:street_address": "Junction 43 M4, Llandarcy", "addr:city": "Neath", "addr:state": "West Glamorgan", "addr:postcode": "SA10 6GZ", "addr:country": "GB", "name": "Harvester Llandarcy Neath", "phone": "01792 321384", "website": "https://www.harvester.co.uk/restaurants/wales/harvesterllandarcyneath", "contact:twitter": "HarvesterUK", "opening_hours": "Mo-Th 09:00-21:00; Fr-Sa 09:00-22:00; Su 09:00-21:00", "image": "https://www.harvester.co.uk/content/dam/harvester/images/logo.png", "brand": "Harvester", "brand:wikidata": "Q5676915", "nsi_id": "harvester-9b5453"}, "geometry": {"type": "Point", "coordinates": [-3.850995, 51.647724]}},
{"type": "Feature", "id": "-KSbJG_C-ENEnXR8hwIz0X5ilao=", "properties": {"ref": "https://www.harvester.co.uk/restaurants/wales/harvestercwmbrantorfaen", "@spider": "harvester_gb", "amenity": "restaurant", "cuisine": "american", "addr:street_address": "Unit 5 Cwmbran Leisure Park, Glyndyr Road", "addr:city": "Cwmbran", "addr:state": "Gwent", "addr:postcode": "NP44 1QS", "addr:country": "GB", "name": "Harvester Cwmbran Torfaen", "phone": "01633 489880", "website": "https://www.harvester.co.uk/restaurants/wales/harvestercwmbrantorfaen", "contact:twitter": "HarvesterUK", "opening_hours": "Mo-Th 09:00-21:00; Fr-Sa 09:00-22:00; Su 09:00-21:00", "image": "https://www.harvester.co.uk/content/dam/harvester/images/logo.png", "brand": "Harvester", "brand:wikidata": "Q5676915", "nsi_id": "harvester-9b5453"}, "geometry": {"type": "Point", "coordinates": [-3.019017, 51.654672]}},
{"type": "Feature", "id": "erhVEki0w7IV7Llr9rSIel-gT1Y=", "properties": {"ref": "https://www.harvester.co.uk/restaurants/wales/harvesterstcatherineswalkcarmarthen", "@spider": "harvester_gb", "amenity": "restaurant", "cuisine": "american", "addr:street_address": "Unit 6, St Catherines Walk", "addr:city": "Carmarthen", "addr:state": "Dyfed", "addr:postcode": "SA31 1GA", "addr:country": "GB", "name": "Harvester St Catherine's Walk Carmarthen", "phone": "01267 238901", "website": "https://www.harvester.co.uk/restaurants/wales/harvesterstcatherineswalkcarmarthen", "contact:twitter": "HarvesterUK", "opening_hours": "Mo-Fr 11:30-21:00; Sa 09:00-22:00; Su 09:00-21:00", "image": "https://www.harvester.co.uk/content/dam/harvester/images/logo.png", "brand": "Harvester", "brand:wikidata": "Q5676915", "nsi_id": "harvester-9b5453"}, "geometry": {"type": "Point", "coordinates": [-4.309721, 51.858905]}},
{"type": "Feature", "id": "pzQZM4e9fCYJmwchJ3_hIKcB3_Q=", "properties": {"ref": "https://www.harvester.co.uk/restaurants/wales/harvestersarnbridgend", "@spider": "harvester_gb", "amenity": "restaurant", "cuisine": "american", "addr:street_address": "Sarn Retail Park, New Street", "addr:city": "Bridgend", "addr:state": "Mid Glamorgan", "addr:postcode": "CF32 9SH", "addr:country": "GB", "name": "Harvester Sarn Bridgend", "phone": "01656 768668", "website": "https://www.harvester.co.uk/restaurants/wales/harvestersarnbridgend", "contact:twitter": "HarvesterUK", "opening_hours": "Mo-Th 09:00-21:00; Fr-Sa 09:00-22:00; Su 09:00-21:00", "image": "https://www.harvester.co.uk/content/dam/harvester/images/logo.png", "brand": "Harvester", "brand:wikidata": "Q5676915", "nsi_id": "harvester-9b5453"}, "geometry": {"type": "Point", "coordinates": [-3.572425, 51.531981]}},
{"type": "Feature", "id": "voc4Kji-QNLy77xdmWLx8VY8dKA=", "properties": {"ref": "https://www.harvester.co.uk/restaurants/wales/harvesternewportretailparknewport", "@spider": "harvester_gb", "amenity": "restaurant", "cuisine": "american", "addr:street_address": "Severn Styles Avenue, Spytty", "addr:city": "Newport", "addr:state": "Gwent", "addr:postcode": "NP19 4QR", "addr:country": "GB", "name": "Harvester Newport Retail Park Newport", "phone": "01633 283545", "website": "https://www.harvester.co.uk/restaurants/wales/harvesternewportretailparknewport", "contact:twitter": "HarvesterUK", "opening_hours": "Mo-Th 09:00-21:00; Fr-Sa 09:00-22:00; Su 09:00-21:00", "image": "https://www.harvester.co.uk/content/dam/harvester/images/logo.png", "brand": "Harvester", "brand:wikidata": "Q5676915", "nsi_id": "harvester-9b5453"}, "geometry": {"type": "Point", "coordinates": [-2.944625, 51.573919]}},
{"type": "Feature", "id": "jWczmsecgamNrDEjKGqzDVvWYwU=", "properties": {"ref": "https://www.harvester.co.uk/restaurants/wales/themorfaparcswansea", "@spider": "harvester_gb", "amenity": "restaurant", "cuisine": "american", "addr:street_address": "Unit 19 Morfa Shopping Park, Brunel Way", "addr:city": "Swansea", "addr:state": "West Glamorgan", "addr:postcode": "SA1 2FB", "addr:country": "GB", "name": "The Morfa Parc Swansea", "phone": "01792 475605", "website": "https://www.harvester.co.uk/restaurants/wales/themorfaparcswansea", "contact:twitter": "HarvesterUK", "opening_hours": "Mo-Th 09:00-21:00; Fr-Sa 09:00-22:00; Su 09:00-21:00", "image": "https://www.harvester.co.uk/content/dam/harvester/images/logo.png", "brand": "Harvester", "brand:wikidata": "Q5676915", "nsi_id": "harvester-9b5453"}, "geometry": {"type": "Point", "coordinates": [-3.935211, 51.641303]}},
{"type": "Feature", "id": "3Fv1Mxd-CAwwiN5U7jPK3Lu0hM8=", "properties": {"ref": "https://www.harvester.co.uk/restaurants/wales/theoldmillbridgend", "@spider": "harvester_gb", "amenity": "restaurant", "cuisine": "american", "addr:street_address": "Felindre, Pencoed", "addr:city": "Bridgend", "addr:state": "Mid Glamorgan", "addr:postcode": "CF35 5HU", "addr:country": "GB", "name": "The Old Mill Bridgend", "phone": "01656 860288", "website": "https://www.harvester.co.uk/restaurants/wales/theoldmillbridgend", "contact:twitter": "HarvesterUK", "opening_hours": "Mo-Th 09:00-21:00; Fr-Sa 09:00-22:00; Su 09:00-21:00", "image": "https://www.harvester.co.uk/content/dam/harvester/images/logo.png", "brand": "Harvester", "brand:wikidata": "Q5676915", "nsi_id": "harvester-9b5453"}, "geometry": {"type": "Point", "coordinates": [-3.48345, 51.522106]}},
{"type": "Feature", "id": "wjXjANpmKtBbzcv-b-uzJuWiisk=", "properties": {"ref": "https://www.harvester.co.uk/restaurants/wales/harvestertalbotgreenllantrisant", "@spider": "harvester_gb", "amenity": "restaurant", "cuisine": "american", "addr:street_address": "Talbot Green Retail Park, Talbot Green", "addr:city": "Llantrisant", "addr:state": "Mid Glamorgan", "addr:postcode": "CF72 8LW", "addr:country": "GB", "name": "Harvester Talbot Green Llantrisant", "phone": "01443 237417", "website": "https://www.harvester.co.uk/restaurants/wales/harvestertalbotgreenllantrisant", "contact:twitter": "HarvesterUK", "opening_hours": "Mo-Th 09:00-21:00; Fr-Sa 09:00-22:00; Su 09:00-21:00", "image": "https://www.harvester.co.uk/content/dam/harvester/images/logo.png", "brand": "Harvester", "brand:wikidata": "Q5676915", "nsi_id": "harvester-9b5453"}, "geometry": {"type": "Point", "coordinates": [-3.38049, 51.537903]}},
{"type": "Feature", "id": "QCMssWG25NO0QZ9ATAaOKa6HwXc=", "properties": {"ref": "https://www.harvester.co.uk/restaurants/wales/harvestercardiffbaycardiff", "@spider": "harvester_gb", "amenity": "restaurant", "cuisine": "american", "addr:street_address": "Dunleavy Drive, Penarth", "addr:city": "Cardiff", "addr:state": "South Glamorgan", "addr:postcode": "CF11 0SN", "addr:country": "GB", "name": "Harvester Cardiff Bay Cardiff", "phone": "029 2039 6901", "website": "https://www.harvester.co.uk/restaurants/wales/harvestercardiffbaycardiff", "contact:twitter": "HarvesterUK", "opening_hours": "Mo-Th 09:00-21:00; Fr-Sa 09:00-22:00; Su 09:00-21:00", "image": "https://www.harvester.co.uk/content/dam/harvester/images/logo.png", "brand": "Harvester", "brand:wikidata": "Q5676915", "nsi_id": "harvester-9b5453"}, "geometry": {"type": "Point", "coordinates": [-3.186697, 51.451991]}},
{"type": "Feature", "id": "dLGNJlvcxDsl4s-mg8NcG_LaZrc=", "properties": {"ref": "https://www.harvester.co.uk/restaurants/wales/harvestercoedygorescardiff", "@spider": "harvester_gb", "amenity": "restaurant", "cuisine": "american", "addr:street_address": "Circle Way East, Llanedeyrn", "addr:city": "Cardiff", "addr:state": "South Glamorgan", "addr:postcode": "CF23 9PD", "addr:country": "GB", "name": "Harvester Coed-Y-Gores Cardiff", "phone": "029 2054 9866", "website": "https://www.harvester.co.uk/restaurants/wales/harvestercoedygorescardiff", "contact:twitter": "HarvesterUK", "opening_hours": "Mo-Th 09:00-21:00; Fr-Sa 09:00-22:00; Su 09:00-21:00", "image": "https://www.harvester.co.uk/content/dam/harvester/images/logo.png", "brand": "Harvester", "brand:wikidata": "Q5676915", "nsi_id": "harvester-9b5453"}, "geometry": {"type": "Point", "coordinates": [-3.144236, 51.515088]}},
{"type": "Feature", "id": "t4srCkD8KyE-YVEpkKwFdt2qCu8=", "properties": {"ref": "https://www.harvester.co.uk/restaurants/wales/harvestergowertonswansea", "@spider": "harvester_gb", "amenity": "restaurant", "cuisine": "american", "addr:street_address": "Victoria Road, Gowerton", "addr:city": "Swansea", "addr:state": "West Glamorgan", "addr:postcode": "SA4 3AB", "addr:country": "GB", "name": "Harvester Gowerton Swansea", "phone": "01792 872444", "website": "https://www.harvester.co.uk/restaurants/wales/harvestergowertonswansea", "contact:twitter": "HarvesterUK", "opening_hours": "Mo-Th 09:00-21:00; Fr-Sa 09:00-22:00; Su 09:00-21:00", "image": "https://www.harvester.co.uk/content/dam/harvester/images/logo.png", "brand": "Harvester", "brand:wikidata": "Q5676915", "nsi_id": "harvester-9b5453"}, "geometry": {"type": "Point", "coordinates": [-4.04042, 51.653954]}},
{"type": "Feature", "id": "HvQ_nVG-JrFhbUB6UaYaXKFsAhU=", "properties": {"ref": "https://www.harvester.co.uk/restaurants/southwest/theneptuneboscombe", "@spider": "harvester_gb", "amenity": "restaurant", "cuisine": "american", "addr:street_address": "Undercliff Drive, Boscombe Pier", "addr:city": "Bournemouth", "addr:state": "Dorset", "addr:postcode": "BH5 1BN", "addr:country": "GB", "name": "The Neptune Boscombe", "phone": "01202 399987", "website": "https://www.harvester.co.uk/restaurants/southwest/theneptuneboscombe", "contact:twitter": "HarvesterUK", "opening_hours": "Mo-Sa 09:00-23:00; Su 09:00-22:30", "image": "https://www.harvester.co.uk/content/dam/harvester/images/logo.png", "brand": "Harvester", "brand:wikidata": "Q5676915", "nsi_id": "harvester-9b5453"}, "geometry": {"type": "Point", "coordinates": [-1.842655, 50.720118]}},
{"type": "Feature", "id": "SCmWKr6C1tFkYIzQD86W5NL1skA=", "properties": {"ref": "https://www.harvester.co.uk/restaurants/southwest/harvesterswindonwiltshire", "@spider": "harvester_gb", "amenity": "restaurant", "cuisine": "american", "addr:street_address": "Latham Road, Off Thamesdown Road", "addr:city": "Swindon", "addr:state": "Wiltshire", "addr:postcode": "SN25 4DL", "addr:country": "GB", "name": "Harvester Swindon Wiltshire", "phone": "01793 702631", "website": "https://www.harvester.co.uk/restaurants/southwest/harvesterswindonwiltshire", "contact:twitter": "HarvesterUK", "opening_hours": "Mo-Su 09:00-21:00", "image": "https://www.harvester.co.uk/content/dam/harvester/images/logo.png", "brand": "Harvester", "brand:wikidata": "Q5676915", "nsi_id": "harvester-9b5453"}, "geometry": {"type": "Point", "coordinates": [-1.782804, 51.60337]}},
{"type": "Feature", "id": "8nbSbXRwaqp52e2KIagL89wV70I=", "properties": {"ref": "https://www.harvester.co.uk/restaurants/southwest/theredgrovecheltenham", "@spider": "harvester_gb", "amenity": "restaurant", "cuisine": "american", "addr:street_address": "Hatherley Lane", "addr:city": "Cheltenham", "addr:state": "Gloucestershire", "addr:postcode": "GL51 6TA", "addr:country": "GB", "name": "The Redgrove Cheltenham", "phone": "01242 220020", "website": "https://www.harvester.co.uk/restaurants/southwest/theredgrovecheltenham", "contact:twitter": "HarvesterUK", "opening_hours": "Mo-Sa 09:00-23:00; Su 09:00-22:00", "image": "https://www.harvester.co.uk/content/dam/harvester/images/logo.png", "brand": "Harvester", "brand:wikidata": "Q5676915", "nsi_id": "harvester-9b5453"}, "geometry": {"type": "Point", "coordinates": [-2.128795, 51.893918]}},
{"type": "Feature", "id": "kqJNNYBJai62eNF9nr0js3yh6To=", "properties": {"ref": "https://www.harvester.co.uk/restaurants/southwest/theunicornplymouth", "@spider": "harvester_gb", "amenity": "restaurant", "cuisine": "american", "addr:street_address": "160 Plymouth Road", "addr:city": "Plymouth", "addr:state": "Devon", "addr:postcode": "PL7 4NE", "addr:country": "GB", "name": "The Unicorn Plymouth", "phone": "01752 337939", "website": "https://www.harvester.co.uk/restaurants/southwest/theunicornplymouth", "contact:twitter": "HarvesterUK", "opening_hours": "Mo-Su 09:00-22:00", "image": "https://www.harvester.co.uk/content/dam/harvester/images/logo.png", "brand": "Harvester", "brand:wikidata": "Q5676915", "nsi_id": "harvester-9b5453"}, "geometry": {"type": "Point", "coordinates": [-4.072093, 50.391146]}},
{"type": "Feature", "id": "QrD9OOESLyAde7G5H5c9l2-4ojU=", "properties": {"ref": "https://www.harvester.co.uk/restaurants/southwest/thespyglassinnweymouth", "@spider": "harvester_gb", "amenity": "restaurant", "cuisine": "american", "addr:street_address": "Bowleaze Coveway", "addr:city": "Weymouth", "addr:state": "Dorset", "addr:postcode": "DT3 6PN", "addr:country": "GB", "name": "The Spyglass Inn Weymouth", "phone": "01305 833141", "website": "https://www.harvester.co.uk/restaurants/southwest/thespyglassinnweymouth", "contact:twitter": "HarvesterUK", "opening_hours": "Mo-Su 11:30-21:00", "image": "https://www.harvester.co.uk/content/dam/harvester/images/logo.png", "brand": "Harvester", "brand:wikidata": "Q5676915", "nsi_id": "harvester-9b5453"}, "geometry": {"type": "Point", "coordinates": [-2.429835, 50.634629]}},
{"type": "Feature", "id": "1Z6Pd6pg0y2dJzMGciFuFneQmh8=", "properties": {"ref": "https://www.harvester.co.uk/restaurants/southwest/harvesterpooleparkstone", "@spider": "harvester_gb", "amenity": "restaurant", "cuisine": "american", "addr:street_address": "Alder Road, Parkstone", "addr:city": "Poole", "addr:state": "Dorset", "addr:postcode": "BH12 4AY", "addr:country": "GB", "name": "Harvester Poole Parkstone", "phone": "01202 722836", "website": "https://www.harvester.co.uk/restaurants/southwest/harvesterpooleparkstone", "contact:twitter": "HarvesterUK", "opening_hours": "Mo-Tu 09:00-22:30; We-Sa 09:00-23:00; Su 09:00-22:00", "image": "https://www.harvester.co.uk/content/dam/harvester/images/logo.png", "brand": "Harvester", "brand:wikidata": "Q5676915", "nsi_id": "harvester-9b5453"}, "geometry": {"type": "Point", "coordinates": [-1.911394, 50.74011]}},
{"type": "Feature", "id": "2j7vh6mgIGqpLYvPbDMhWgS1dNM=", "properties": {"ref": "https://www.harvester.co.uk/restaurants/southwest/thesnuffmillbristol", "@spider": "harvester_gb", "amenity": "restaurant", "cuisine": "american", "addr:street_address": "207 Frenchay Park Road, Frenchay", "addr:city": "Bristol", "addr:state": "Gloucestershire", "addr:postcode": "BS16 1LF", "addr:country": "GB", "name": "The Snuff Mill Bristol", "phone": "0117 956 6560", "website": "https://www.harvester.co.uk/restaurants/southwest/thesnuffmillbristol", "contact:twitter": "HarvesterUK", "opening_hours": "Mo-Su 09:00-22:00", "image": "https://www.harvester.co.uk/content/dam/harvester/images/logo.png", "brand": "Harvester", "brand:wikidata": "Q5676915", "nsi_id": "harvester-9b5453"}, "geometry": {"type": "Point", "coordinates": [-2.532333, 51.495156]}},
{"type": "Feature", "id": "R0Z5QkCP7HKK3nnI2ia8eulnJY8=", "properties": {"ref": "https://www.harvester.co.uk/restaurants/southwest/harvesterflagship", "@spider": "harvester_gb", "amenity": "restaurant", "cuisine": "american", "addr:street_address": "Esplanade Road, Festival Theatre", "addr:city": "Paignton", "addr:state": "Devon", "addr:postcode": "TQ4 6AG", "addr:country": "GB", "name": "Harvester Paignton Paignton", "phone": "01803 529521", "website": "https://www.harvester.co.uk/restaurants/southwest/harvesterflagship", "contact:twitter": "HarvesterUK", "opening_hours": "Mo-Su 09:00-22:00", "image": "https://www.harvester.co.uk/content/dam/harvester/images/logo.png", "brand": "Harvester", "brand:wikidata": "Q5676915", "nsi_id": "harvester-9b5453"}, "geometry": {"type": "Point", "coordinates": [-3.559822, 50.435661]}},
{"type": "Feature", "id": "bfW-8Lle_gCdbiNi5h90sAJpa_g=", "properties": {"ref": "https://www.harvester.co.uk/restaurants/southwest/themalthouseexeter", "@spider": "harvester_gb", "amenity": "restaurant", "cuisine": "american", "addr:street_address": "7 Haven Road", "addr:city": "Exeter", "addr:state": "Devon", "addr:postcode": "EX2 8BP", "addr:country": "GB", "name": "The Malt House Exeter", "phone": "01392 490555", "website": "https://www.harvester.co.uk/restaurants/southwest/themalthouseexeter", "contact:twitter": "HarvesterUK", "opening_hours": "Mo-Th 11:30-22:00; Fr-Sa 09:00-23:00; Su 09:00-22:00", "image": "https://www.harvester.co.uk/content/dam/harvester/images/logo.png", "brand": "Harvester", "brand:wikidata": "Q5676915", "nsi_id": "harvester-9b5453"}, "geometry": {"type": "Point", "coordinates": [-3.534646, 50.716914]}},
{"type": "Feature", "id": "9ol35EYTyblGRpj7cxrwkp6_fUo=", "properties": {"ref": "https://www.harvester.co.uk/restaurants/southwest/thegriffintaunton", "@spider": "harvester_gb", "amenity": "restaurant", "cuisine": "american", "addr:street_address": "Blackbrook Park Avenue", "addr:city": "Taunton", "addr:state": "Somerset", "addr:postcode": "TA1 2PX", "addr:country": "GB", "name": "The Griffin Taunton", "phone": "01823 442221", "website": "https://www.harvester.co.uk/restaurants/southwest/thegriffintaunton", "contact:twitter": "HarvesterUK", "opening_hours": "Mo-Su 09:00-23:00", "image": "https://www.harvester.co.uk/content/dam/harvester/images/logo.png", "brand": "Harvester", "brand:wikidata": "Q5676915", "nsi_id": "harvester-9b5453"}, "geometry": {"type": "Point", "coordinates": [-3.067526, 51.017258]}},
{"type": "Feature", "id": "8Eqfbl3MHfEy6Ey3hjtrJpSU0Og=", "properties": {"ref": "https://www.harvester.co.uk/restaurants/southwest/thedurleyinnbournemouth", "@spider": "harvester_gb", "amenity": "restaurant", "cuisine": "american", "addr:street_address": "West Undercliffe Promenade, Durley Chine Road", "addr:city": "Bournemouth", "addr:state": "Dorset", "addr:postcode": "BH2 5JF", "addr:country": "GB", "name": "The Durley Inn Bournemouth", "phone": "01202 290480", "website": "https://www.harvester.co.uk/restaurants/southwest/thedurleyinnbournemouth", "contact:twitter": "HarvesterUK", "opening_hours": "Mo-Sa 09:00-23:00; Su 09:00-22:30", "image": "https://www.harvester.co.uk/content/dam/harvester/images/logo.png", "brand": "Harvester", "brand:wikidata": "Q5676915", "nsi_id": "harvester-9b5453"}, "geometry": {"type": "Point", "coordinates": [-1.888994, 50.713472]}},
{"type": "Feature", "id": "8BeESJWZNC68o1PaHfza3GQ_Q7s=", "properties": {"ref": "https://www.harvester.co.uk/restaurants/southwest/thecooperdeanbournemouth", "@spider": "harvester_gb", "amenity": "restaurant", "cuisine": "american", "addr:street_address": "700 Castle Lane West", "addr:city": "Bournemouth", "addr:state": "Dorset", "addr:postcode": "BH8 9UQ", "addr:country": "GB", "name": "The Cooper Dean Bournemouth", "phone": "01202 397927", "website": "https://www.harvester.co.uk/restaurants/southwest/thecooperdeanbournemouth", "contact:twitter": "HarvesterUK", "opening_hours": "Mo-Su 09:00-22:00", "image": "https://www.harvester.co.uk/content/dam/harvester/images/logo.png", "brand": "Harvester", "brand:wikidata": "Q5676915", "nsi_id": "harvester-9b5453"}, "geometry": {"type": "Point", "coordinates": [-1.829523, 50.747663]}},
{"type": "Feature", "id": "A5VLrXDHV8fPEc3G60zf7BSxAOo=", "properties": {"ref": "https://www.harvester.co.uk/restaurants/southwest/harvesterbeaconquaytorquay", "@spider": "harvester_gb", "amenity": "restaurant", "cuisine": "american", "addr:street_address": "Beacon Quay", "addr:city": "Torquay", "addr:state": "Devon", "addr:postcode": "TQ1 2RD", "addr:country": "GB", "name": "Harvester Beacon Quay Torquay", "phone": "01803 380004", "website": "https://www.harvester.co.uk/restaurants/southwest/harvesterbeaconquaytorquay", "contact:twitter": "HarvesterUK", "opening_hours": "Mo-Th 11:30-21:00; Fr-Sa 09:00-22:30; Su 09:00-22:00", "image": "https://www.harvester.co.uk/content/dam/harvester/images/logo.png", "brand": "Harvester", "brand:wikidata": "Q5676915", "nsi_id": "harvester-9b5453"}, "geometry": {"type": "Point", "coordinates": [-3.524953, 50.458383]}},
{"type": "Feature", "id": "RU9dYR7moajY5WElxEETnvb3poE=", "properties": {"ref": "https://www.harvester.co.uk/restaurants/southwest/theamesburyarchersalisbury", "@spider": "harvester_gb", "amenity": "restaurant", "cuisine": "american", "addr:street_address": "Mid Summer Place, Amesbury", "addr:city": "Salisbury", "addr:state": "Wiltshire", "addr:postcode": "SP4 7SQ", "addr:country": "GB", "name": "The Amesbury Archer Salisbury", "phone": "01980 664790", "website": "https://www.harvester.co.uk/restaurants/southwest/theamesburyarchersalisbury", "contact:twitter": "HarvesterUK", "opening_hours": "Mo-Su 08:00-23:00", "image": "https://www.harvester.co.uk/content/dam/harvester/images/logo.png", "brand": "Harvester", "brand:wikidata": "Q5676915", "nsi_id": "harvester-9b5453"}, "geometry": {"type": "Point", "coordinates": [-1.757776, 51.176973]}},
{"type": "Feature", "id": "X-0eEqtahpSDrKA6Gjws1MWh3tM=", "properties": {"ref": "https://www.harvester.co.uk/restaurants/southwest/theoldcastlesalisbury", "@spider": "harvester_gb", "amenity": "restaurant", "cuisine": "american", "addr:street_address": "Old Castle Road", "addr:city": "Salisbury", "addr:state": "Wiltshire", "addr:postcode": "SP1 3SF", "addr:country": "GB", "name": "The Old Castle Salisbury", "phone": "01722 328703", "website": "https://www.harvester.co.uk/restaurants/southwest/theoldcastlesalisbury", "contact:twitter": "HarvesterUK", "opening_hours": "Mo-Su 09:00-23:00", "image": "https://www.harvester.co.uk/content/dam/harvester/images/logo.png", "brand": "Harvester", "brand:wikidata": "Q5676915", "nsi_id": "harvester-9b5453"}, "geometry": {"type": "Point", "coordinates": [-1.799346, 51.091661]}},
{"type": "Feature", "id": "Nkrh5i2LJktjWXk3l7kI71Iw-n4=", "properties": {"ref": "https://www.harvester.co.uk/restaurants/southwest/thecrowninnbristol", "@spider": "harvester_gb", "amenity": "restaurant", "cuisine": "american", "addr:street_address": "126 Bath Road, Longwell Green", "addr:city": "Bristol", "addr:state": "Gloucestershire", "addr:postcode": "BS30 9DE", "addr:country": "GB", "name": "The Crown Inn Bristol", "phone": "0117 932 2846", "website": "https://www.harvester.co.uk/restaurants/southwest/thecrowninnbristol", "contact:twitter": "HarvesterUK", "opening_hours": "Mo-Tu 11:00-22:00; We-Su 09:00-22:00", "image": "https://www.harvester.co.uk/content/dam/harvester/images/logo.png", "brand": "Harvester", "brand:wikidata": "Q5676915", "nsi_id": "harvester-9b5453"}, "geometry": {"type": "Point", "coordinates": [-2.494002, 51.437902]}},
{"type": "Feature", "id": "ZwL9-qmgKjikSq85EynHnnHe2Z8=", "properties": {"ref": "https://www.harvester.co.uk/restaurants/scotlandandnorthernireland/harvesterhalbeathparkdunfermline", "@spider": "harvester_gb", "amenity": "restaurant", "cuisine": "american", "addr:street_address": "Unit 8 Halbeath Retail Park, Halbeath Retail Park", "addr:city": "Dunfermline", "addr:state": "Fife", "addr:postcode": "KY11 4LP", "addr:country": "GB", "name": "Harvester Halbeath Park Dunfermline", "phone": "01383 620737", "website": "https://www.harvester.co.uk/restaurants/scotlandandnorthernireland/harvesterhalbeathparkdunfermline", "contact:twitter": "HarvesterUK", "opening_hours": "Mo-Su 09:00-22:30", "image": "https://www.harvester.co.uk/content/dam/harvester/images/logo.png", "brand": "Harvester", "brand:wikidata": "Q5676915", "nsi_id": "harvester-9b5453"}, "geometry": {"type": "Point", "coordinates": [-3.407681, 56.080958]}},
{"type": "Feature", "id": "5iEfq15hExG8UPDbAZxIhiZX8Zs=", "properties": {"ref": "https://www.harvester.co.uk/restaurants/scotlandandnorthernireland/harvestereastkilbride", "@spider": "harvester_gb", "amenity": "restaurant", "cuisine": "american", "addr:street_address": "Eaglesham Road, East Kilbride", "addr:city": "Glasgow", "addr:postcode": "G75 8LW", "addr:country": "GB", "name": "Harvester East Kilbride Glasgow", "phone": "01355 222747", "website": "https://www.harvester.co.uk/restaurants/scotlandandnorthernireland/harvestereastkilbride", "contact:twitter": "HarvesterUK", "opening_hours": "Mo-Su 09:00-23:00", "image": "https://www.harvester.co.uk/content/dam/harvester/images/logo.png", "brand": "Harvester", "brand:wikidata": "Q5676915", "nsi_id": "harvester-9b5453"}, "geometry": {"type": "Point", "coordinates": [-4.20636, 55.763736]}},
{"type": "Feature", "id": "W7G3zE-XrTGkS-OjVgbAeSqx6ts=", "properties": {"ref": "https://www.harvester.co.uk/restaurants/scotlandandnorthernireland/thebroxdenmanorperth", "@spider": "harvester_gb", "amenity": "restaurant", "cuisine": "american", "addr:street_address": "3 Broxden Avenue", "addr:city": "Perth", "addr:postcode": "PH2 0PX", "addr:country": "GB", "name": "The Broxden Manor Perth", "phone": "01738 625230", "website": "https://www.harvester.co.uk/restaurants/scotlandandnorthernireland/thebroxdenmanorperth", "contact:twitter": "HarvesterUK", "opening_hours": "Mo-Su 09:00-22:00", "image": "https://www.harvester.co.uk/content/dam/harvester/images/logo.png", "brand": "Harvester", "brand:wikidata": "Q5676915", "nsi_id": "harvester-9b5453"}, "geometry": {"type": "Point", "coordinates": [-3.481711, 56.388058]}},
{"type": "Feature", "id": "w2Qcn3d3jBDeqcZNaSwgo9bp8Wk=", "properties": {"ref": "https://www.harvester.co.uk/restaurants/scotlandandnorthernireland/harvesterhillingtonglasgow", "@spider": "harvester_gb", "amenity": "restaurant", "cuisine": "american", "addr:street_address": "Hillington Industrial Estate, Napier Road", "addr:city": "Glasgow", "addr:postcode": "G52 4DR", "addr:country": "GB", "name": "Harvester Hillington Glasgow", "phone": "0141 810 1011", "website": "https://www.harvester.co.uk/restaurants/scotlandandnorthernireland/harvesterhillingtonglasgow", "contact:twitter": "HarvesterUK", "opening_hours": "Mo-Su 09:00-22:00", "image": "https://www.harvester.co.uk/content/dam/harvester/images/logo.png", "brand": "Harvester", "brand:wikidata": "Q5676915", "nsi_id": "harvester-9b5453"}, "geometry": {"type": "Point", "coordinates": [-4.36578, 55.862468]}},
{"type": "Feature", "id": "si5QZOLs4LuFwMCchcLB2JQIbF0=", "properties": {"ref": "https://www.harvester.co.uk/restaurants/scotlandandnorthernireland/theghillieslairaberdeen", "@spider": "harvester_gb", "amenity": "restaurant", "cuisine": "american", "addr:street_address": "Great Southern Road, Bridge Of Dee", "addr:city": "Aberdeen", "addr:postcode": "AB12 5XA", "addr:country": "GB", "name": "The Ghillies Lair Aberdeen", "phone": "01224 249924", "website": "https://www.harvester.co.uk/restaurants/scotlandandnorthernireland/theghillieslairaberdeen", "contact:twitter": "HarvesterUK", "opening_hours": "Mo-Su 09:00-22:30", "image": "https://www.harvester.co.uk/content/dam/harvester/images/logo.png", "brand": "Harvester", "brand:wikidata": "Q5676915", "nsi_id": "harvester-9b5453"}, "geometry": {"type": "Point", "coordinates": [-2.116814, 57.123075]}},
{"type": "Feature", "id": "0-W8Prl-B3Wml23FqklJxnq8F30=", "properties": {"ref": "https://www.harvester.co.uk/restaurants/yorkshireandthehumber/thewindingwheelcastleford", "@spider": "harvester_gb", "amenity": "restaurant", "cuisine": "american", "addr:street_address": "Carr Wood Road, Colorado Way", "addr:city": "Castleford", "addr:state": "West Yorkshire", "addr:postcode": "WF10 4PS", "addr:country": "GB", "name": "The Winding Wheel Castleford", "phone": "01977 603535", "website": "https://www.harvester.co.uk/restaurants/yorkshireandthehumber/thewindingwheelcastleford", "contact:twitter": "HarvesterUK", "opening_hours": "Mo-Sa 09:00-22:30; Su 09:00-22:00", "image": "https://www.harvester.co.uk/content/dam/harvester/images/logo.png", "brand": "Harvester", "brand:wikidata": "Q5676915", "nsi_id": "harvester-9b5453"}, "geometry": {"type": "Point", "coordinates": [-1.335391, 53.709943]}},
{"type": "Feature", "id": "wIcqyptM0B8MhbpewCYloi7uumw=", "properties": {"ref": "https://www.harvester.co.uk/restaurants/yorkshireandthehumber/harvestermeadowhallsheffield", "@spider": "harvester_gb", "amenity": "restaurant", "cuisine": "american", "addr:street_address": "Unit 13 The Oasis, Meadowhall Centre", "addr:city": "Sheffield", "addr:state": "South Yorkshire", "addr:postcode": "S9 1EP", "addr:country": "GB", "name": "Harvester Meadowhall Sheffield", "phone": "0114 256 8248", "website": "https://www.harvester.co.uk/restaurants/yorkshireandthehumber/harvestermeadowhallsheffield", "contact:twitter": "HarvesterUK", "opening_hours": "Mo-Th 09:00-22:00; Fr-Sa 09:00-23:00; Su 09:00-21:00", "image": "https://www.harvester.co.uk/content/dam/harvester/images/logo.png", "brand": "Harvester", "brand:wikidata": "Q5676915", "nsi_id": "harvester-9b5453"}, "geometry": {"type": "Point", "coordinates": [-1.413431, 53.414265]}},
{"type": "Feature", "id": "kcpMDGKXoysOxDOqAZ70lvazvd8=", "properties": {"ref": "https://www.harvester.co.uk/restaurants/yorkshireandthehumber/harvestercliftonmooryork", "@spider": "harvester_gb", "amenity": "restaurant", "cuisine": "american", "addr:street_address": "Stirling Road, Clifton Moor", "addr:city": "York", "addr:state": "North Yorkshire", "addr:postcode": "YO30 4XY", "addr:country": "GB", "name": "Harvester Clifton Moor York", "phone": "01904 693145", "website": "https://www.harvester.co.uk/restaurants/yorkshireandthehumber/harvestercliftonmooryork", "contact:twitter": "HarvesterUK", "opening_hours": "Mo-Th 09:00-21:00; Fr-Sa 09:00-21:30; Su 09:00-21:00", "image": "https://www.harvester.co.uk/content/dam/harvester/images/logo.png", "brand": "Harvester", "brand:wikidata": "Q5676915", "nsi_id": "harvester-9b5453"}, "geometry": {"type": "Point", "coordinates": [-1.103915, 53.989727]}},
{"type": "Feature", "id": "UZ8aS2UP1jI0F5ZDJ8eOB_uIpp4=", "properties": {"ref": "https://www.harvester.co.uk/restaurants/yorkshireandthehumber/thecoltonmillleeds", "@spider": "harvester_gb", "amenity": "restaurant", "cuisine": "american", "addr:street_address": "Stile Hill Way, Colton", "addr:city": "Leeds", "addr:state": "West Yorkshire", "addr:postcode": "LS15 9JH", "addr:country": "GB", "name": "The Colton Mill Harvester Leeds", "phone": "0113 264 1541", "website": "https://www.harvester.co.uk/restaurants/yorkshireandthehumber/thecoltonmillleeds", "contact:twitter": "HarvesterUK", "opening_hours": "Mo-Fr 09:00-23:00; Sa 08:00-23:00; Su 08:00-22:00", "image": "https://www.harvester.co.uk/content/dam/harvester/images/logo.png", "brand": "Harvester", "brand:wikidata": "Q5676915", "nsi_id": "harvester-9b5453"}, "geometry": {"type": "Point", "coordinates": [-1.431932, 53.791964]}},
{"type": "Feature", "id": "PMR5Xp8JbC_KdnzT-S2Gc_pG5uI=", "properties": {"ref": "https://www.harvester.co.uk/restaurants/eastandwestmidlands/thepoacherscottagestokeontrent", "@spider": "harvester_gb", "amenity": "restaurant", "cuisine": "american", "addr:street_address": "Stone Road, Trentham", "addr:city": "Stoke On Trent", "addr:state": "Staffordshire", "addr:postcode": "ST4 8AA", "addr:country": "GB", "name": "The Poacher's Cottage Stoke on Trent", "phone": "01782 657115", "website": "https://www.harvester.co.uk/restaurants/eastandwestmidlands/thepoacherscottagestokeontrent", "contact:twitter": "HarvesterUK", "opening_hours": "Mo-Th 11:30-22:00; Fr-Su 09:00-22:00", "image": "https://www.harvester.co.uk/content/dam/harvester/images/logo.png", "brand": "Harvester", "brand:wikidata": "Q5676915", "nsi_id": "harvester-9b5453"}, "geometry": {"type": "Point", "coordinates": [-2.199111, 52.96676]}},
{"type": "Feature", "id": "ohFob95jSEw18h3RYYDjeqkYM4A=", "properties": {"ref": "https://www.harvester.co.uk/restaurants/eastandwestmidlands/theyeomannuneaton", "@spider": "harvester_gb", "amenity": "restaurant", "cuisine": "american", "addr:street_address": "St Nicolas Park Drive", "addr:city": "Nuneaton", "addr:state": "Warwickshire", "addr:postcode": "CV11 6EN", "addr:country": "GB", "name": "YEOMAN NUNEATON Nuneaton", "phone": "024 7634 0301", "website": "https://www.harvester.co.uk/restaurants/eastandwestmidlands/theyeomannuneaton", "contact:twitter": "HarvesterUK", "opening_hours": "Mo-Sa 09:00-22:00; Su 09:00-22:30", "image": "https://www.harvester.co.uk/content/dam/harvester/images/logo.png", "brand": "Harvester", "brand:wikidata": "Q5676915", "nsi_id": "harvester-9b5453"}, "geometry": {"type": "Point", "coordinates": [-1.438192, 52.529186]}},
{"type": "Feature", "id": "C5htQ0EuGdxgdcu44v8fJ8cBAVE=", "properties": {"ref": "https://www.harvester.co.uk/restaurants/eastandwestmidlands/thewheatsheafcoleshill", "@spider": "harvester_gb", "amenity": "restaurant", "cuisine": "american", "addr:street_address": "Station Road, Coleshill", "addr:city": "Birmingham", "addr:state": "West Midlands", "addr:postcode": "B46 1EE", "addr:country": "GB", "name": "WHEATSHEAF COLESHILL Coleshill", "phone": "01675 467583", "website": "https://www.harvester.co.uk/restaurants/eastandwestmidlands/thewheatsheafcoleshill", "contact:twitter": "HarvesterUK", "opening_hours": "Mo-Sa 09:00-23:00; Su 09:00-22:30", "image": "https://www.harvester.co.uk/content/dam/harvester/images/logo.png", "brand": "Harvester", "brand:wikidata": "Q5676915", "nsi_id": "harvester-9b5453"}, "geometry": {"type": "Point", "coordinates": [-1.707693, 52.503737]}},
{"type": "Feature", "id": "nUX4xFj4qSQE1gp36IqZVdALqug=", "properties": {"ref": "https://www.harvester.co.uk/restaurants/eastandwestmidlands/thewheatsheafloughborough", "@spider": "harvester_gb", "amenity": "restaurant", "cuisine": "american", "addr:street_address": "New Ashby Road, Ashby Road", "addr:city": "Loughborough", "addr:state": "Leicestershire", "addr:postcode": "LE11 4EX", "addr:country": "GB", "name": "WHEATSHEAF LOUGHBOROUGH Loughborough", "phone": "01509 214165", "website": "https://www.harvester.co.uk/restaurants/eastandwestmidlands/thewheatsheafloughborough", "contact:twitter": "HarvesterUK", "opening_hours": "Mo-Th 09:00-22:30; Fr-Sa 09:00-23:00; Su 09:00-22:00", "image": "https://www.harvester.co.uk/content/dam/harvester/images/logo.png", "brand": "Harvester", "brand:wikidata": "Q5676915", "nsi_id": "harvester-9b5453"}, "geometry": {"type": "Point", "coordinates": [-1.249872, 52.762559]}},
{"type": "Feature", "id": "7aFgevrb8bMhiDQMP01o79xJ76U=", "properties": {"ref": "https://www.harvester.co.uk/restaurants/eastandwestmidlands/harvesterriversidenorthampton", "@spider": "harvester_gb", "amenity": "restaurant", "cuisine": "american", "addr:street_address": "Marquee Drive, Riverside Retail Park", "addr:city": "Northampton", "addr:state": "Northamptonshire", "addr:postcode": "NN3 9HU", "addr:country": "GB", "name": "Harvester Riverside Northampton", "phone": "01604 412365", "website": "https://www.harvester.co.uk/restaurants/eastandwestmidlands/harvesterriversidenorthampton", "contact:twitter": "HarvesterUK", "opening_hours": "Mo-Su 09:00-22:00", "image": "https://www.harvester.co.uk/content/dam/harvester/images/logo.png", "brand": "Harvester", "brand:wikidata": "Q5676915", "nsi_id": "harvester-9b5453"}, "geometry": {"type": "Point", "coordinates": [-0.83742, 52.243579]}},
{"type": "Feature", "id": "LhuJceDMvC0RAecdIkZ2sg3Oa6c=", "properties": {"ref": "https://www.harvester.co.uk/restaurants/eastandwestmidlands/harvestermonkspathsolihull", "@spider": "harvester_gb", "amenity": "restaurant", "cuisine": "american", "addr:street_address": "1036 Stratford Road, Shirley", "addr:city": "Solihull", "addr:state": "West Midlands", "addr:postcode": "B90 4EE", "addr:country": "GB", "name": "Harvester Monkspath Solihull", "phone": "0121 733 1666", "website": "https://www.harvester.co.uk/restaurants/eastandwestmidlands/harvestermonkspathsolihull", "contact:twitter": "HarvesterUK", "opening_hours": "Mo-Su 09:00-23:00", "image": "https://www.harvester.co.uk/content/dam/harvester/images/logo.png", "brand": "Harvester", "brand:wikidata": "Q5676915", "nsi_id": "harvester-9b5453"}, "geometry": {"type": "Point", "coordinates": [-1.801723, 52.387275]}},
{"type": "Feature", "id": "ke_juaPzUc8OKsratSproanlE_M=", "properties": {"ref": "https://www.harvester.co.uk/restaurants/eastandwestmidlands/harvestergrangeparknorthampton", "@spider": "harvester_gb", "amenity": "restaurant", "cuisine": "american", "addr:street_address": "Loake Close, Grange Park", "addr:city": "Northampton", "addr:state": "Northamptonshire", "addr:postcode": "NN4 5EZ", "addr:country": "GB", "name": "Harvester Grange Park Northampton", "phone": "01604 675300", "website": "https://www.harvester.co.uk/restaurants/eastandwestmidlands/harvestergrangeparknorthampton", "contact:twitter": "HarvesterUK", "opening_hours": "Mo-Su 09:00-22:00", "image": "https://www.harvester.co.uk/content/dam/harvester/images/logo.png", "brand": "Harvester", "brand:wikidata": "Q5676915", "nsi_id": "harvester-9b5453"}, "geometry": {"type": "Point", "coordinates": [-0.891651, 52.186199]}},
{"type": "Feature", "id": "-p0w-bsal-QaWczUEDfH43xEZoc=", "properties": {"ref": "https://www.harvester.co.uk/restaurants/eastandwestmidlands/theelmscoventry", "@spider": "harvester_gb", "amenity": "restaurant", "cuisine": "american", "addr:street_address": "Birmingham Road, Allesley", "addr:city": "Coventry", "addr:state": "West Midlands", "addr:postcode": "CV5 9TZ", "addr:country": "GB", "name": "The Elms Coventry", "phone": "024 7640 7550", "website": "https://www.harvester.co.uk/restaurants/eastandwestmidlands/theelmscoventry", "contact:twitter": "HarvesterUK", "opening_hours": "Mo-Sa 09:00-23:00; Su 09:00-22:30", "image": "https://www.harvester.co.uk/content/dam/harvester/images/logo.png", "brand": "Harvester", "brand:wikidata": "Q5676915", "nsi_id": "harvester-9b5453"}, "geometry": {"type": "Point", "coordinates": [-1.556433, 52.42195]}},
{"type": "Feature", "id": "zPATAizSjcBkfBepShs-gp0UVqs=", "properties": {"ref": "https://www.harvester.co.uk/restaurants/eastandwestmidlands/thebellandbargerugby", "@spider": "harvester_gb", "amenity": "restaurant", "cuisine": "american", "addr:street_address": "Brownsover Road", "addr:city": "Rugby", "addr:state": "Warwickshire", "addr:postcode": "CV21 1RG", "addr:country": "GB", "name": "The Bell and Barge Rugby", "phone": "01788 569466", "website": "https://www.harvester.co.uk/restaurants/eastandwestmidlands/thebellandbargerugby", "contact:twitter": "HarvesterUK", "opening_hours": "Mo-Sa 09:00-23:00; Su 09:00-22:30", "image": "https://www.harvester.co.uk/content/dam/harvester/images/logo.png", "brand": "Harvester", "brand:wikidata": "Q5676915", "nsi_id": "harvester-9b5453"}, "geometry": {"type": "Point", "coordinates": [-1.255173, 52.390129]}},
{"type": "Feature", "id": "BXyCCltQOWotFObvyQBPrsBddCY=", "properties": {"ref": "https://www.harvester.co.uk/restaurants/eastandwestmidlands/theardenoaksheldon", "@spider": "harvester_gb", "amenity": "restaurant", "cuisine": "american", "addr:street_address": "Arden Oak Road, Sheldon", "addr:city": "Birmingham", "addr:state": "West Midlands", "addr:postcode": "B26 3LU", "addr:country": "GB", "name": "The Arden Oak Sheldon", "phone": "0121 743 3438", "website": "https://www.harvester.co.uk/restaurants/eastandwestmidlands/theardenoaksheldon", "contact:twitter": "HarvesterUK", "opening_hours": "Mo-Su 09:00-23:00", "image": "https://www.harvester.co.uk/content/dam/harvester/images/logo.png", "brand": "Harvester", "brand:wikidata": "Q5676915", "nsi_id": "harvester-9b5453"}, "geometry": {"type": "Point", "coordinates": [-1.769617, 52.452243]}},
{"type": "Feature", "id": "DitG1JMfexewPjE1tTQKOckknCc=", "properties": {"ref": "https://www.harvester.co.uk/restaurants/eastandwestmidlands/harvestermeridianparkbraunstone", "@spider": "harvester_gb", "amenity": "restaurant", "cuisine": "american", "addr:street_address": "Meridian Leisure Park, Lubbesthorpe Way", "addr:city": "Leicester", "addr:state": "Leicestershire", "addr:postcode": "LE19 1JZ", "addr:country": "GB", "name": "Harvester Meridian Park Braunstone", "phone": "0116 289 5128", "website": "https://www.harvester.co.uk/restaurants/eastandwestmidlands/harvestermeridianparkbraunstone", "contact:twitter": "HarvesterUK", "opening_hours": "Mo-Th 09:00-21:30; Fr-Sa 09:00-22:00; Su 09:00-21:30", "image": "https://www.harvester.co.uk/content/dam/harvester/images/logo.png", "brand": "Harvester", "brand:wikidata": "Q5676915", "nsi_id": "harvester-9b5453"}, "geometry": {"type": "Point", "coordinates": [-1.188544, 52.613505]}},
{"type": "Feature", "id": "3nlrOGVD-ZPLPAkZyQfVc8YcXko=", "properties": {"ref": "https://www.harvester.co.uk/restaurants/eastandwestmidlands/harvestertrenthamlakesstokeontrent", "@spider": "harvester_gb", "amenity": "restaurant", "cuisine": "american", "addr:street_address": "Stanley Matthews Way, Trentham Lakes", "addr:city": "Stoke On Trent", "addr:state": "Staffordshire", "addr:postcode": "ST4 4TL", "addr:country": "GB", "name": "Harvester Trentham Lakes Stoke on Trent", "phone": "01782 331234", "website": "https://www.harvester.co.uk/restaurants/eastandwestmidlands/harvestertrenthamlakesstokeontrent", "contact:twitter": "HarvesterUK", "opening_hours": "Mo-Th 09:00-21:00; Fr-Su 09:00-22:00", "image": "https://www.harvester.co.uk/content/dam/harvester/images/logo.png", "brand": "Harvester", "brand:wikidata": "Q5676915", "nsi_id": "harvester-9b5453"}, "geometry": {"type": "Point", "coordinates": [-2.173072, 52.989499]}},
{"type": "Feature", "id": "FKKGcnfeTNuPa8hGL3dpflDTRe8=", "properties": {"ref": "https://www.harvester.co.uk/restaurants/eastandwestmidlands/thedogstudley", "@spider": "harvester_gb", "amenity": "restaurant", "cuisine": "american", "addr:street_address": "Henley Road, Mappleborough Green", "addr:city": "Studley", "addr:state": "Warwickshire", "addr:postcode": "B80 7DR", "addr:country": "GB", "name": "The Dog Studley", "phone": "01527 852230", "website": "https://www.harvester.co.uk/restaurants/eastandwestmidlands/thedogstudley", "contact:twitter": "HarvesterUK", "opening_hours": "Mo 09:00-22:00; Tu-Sa 09:00-23:00; Su 09:00-22:00", "image": "https://www.harvester.co.uk/content/dam/harvester/images/logo.png", "brand": "Harvester", "brand:wikidata": "Q5676915", "nsi_id": "harvester-9b5453"}, "geometry": {"type": "Point", "coordinates": [-1.877201, 52.297986]}},
{"type": "Feature", "id": "lZYtmRp3TLD0b6U37-6zGeTS-Ts=", "properties": {"ref": "https://www.harvester.co.uk/restaurants/eastandwestmidlands/thewillowbrookbradleystoke", "@spider": "harvester_gb", "amenity": "restaurant", "cuisine": "american", "addr:street_address": "Units 5-7 Savages Wood Road, Bradley Stoke", "addr:city": "Willow Brook", "addr:state": "Gloucestershire", "addr:postcode": "BS32 8EF", "addr:country": "GB", "name": "The Willow Brook Bradley Stoke", "phone": "01454 614980", "website": "https://www.harvester.co.uk/restaurants/eastandwestmidlands/thewillowbrookbradleystoke", "contact:twitter": "HarvesterUK", "opening_hours": "Mo-Su 09:00-22:00", "image": "https://www.harvester.co.uk/content/dam/harvester/images/logo.png", "brand": "Harvester", "brand:wikidata": "Q5676915", "nsi_id": "harvester-9b5453"}, "geometry": {"type": "Point", "coordinates": [-2.549715, 51.535431]}},
{"type": "Feature", "id": "XThAL5Rm63SvEPKaxRhMYi_T9OE=", "properties": {"ref": "https://www.harvester.co.uk/restaurants/eastandwestmidlands/thewychwayinndroitwich", "@spider": "harvester_gb", "amenity": "restaurant", "cuisine": "american", "addr:street_address": "Worcester Road", "addr:city": "Droitwich", "addr:state": "Worcestershire", "addr:postcode": "WR9 7PA", "addr:country": "GB", "name": "The Wych Way Inn Droitwich", "phone": "01527 860130", "website": "https://www.harvester.co.uk/restaurants/eastandwestmidlands/thewychwayinndroitwich", "contact:twitter": "HarvesterUK", "opening_hours": "Mo-Sa 09:00-23:00; Su 09:00-22:00", "image": "https://www.harvester.co.uk/content/dam/harvester/images/logo.png", "brand": "Harvester", "brand:wikidata": "Q5676915", "nsi_id": "harvester-9b5453"}, "geometry": {"type": "Point", "coordinates": [-2.119309, 52.289161]}},
{"type": "Feature", "id": "2vmKFopW-YjinStdw3xPoypZ4os=", "properties": {"ref": "https://www.harvester.co.uk/restaurants/eastandwestmidlands/harvesterwilfordnottingham", "@spider": "harvester_gb", "amenity": "restaurant", "cuisine": "american", "addr:street_address": "1 Clifton Lane, Wilford", "addr:city": "Nottingham", "addr:state": "Nottinghamshire", "addr:postcode": "NG11 7AT", "addr:country": "GB", "name": "Harvester Wilford Nottingham", "phone": "0115 981 9756", "website": "https://www.harvester.co.uk/restaurants/eastandwestmidlands/harvesterwilfordnottingham", "contact:twitter": "HarvesterUK", "opening_hours": "Mo-Su 09:00-22:00", "image": "https://www.harvester.co.uk/content/dam/harvester/images/logo.png", "brand": "Harvester", "brand:wikidata": "Q5676915", "nsi_id": "harvester-9b5453"}, "geometry": {"type": "Point", "coordinates": [-1.160768, 52.926117]}},
{"type": "Feature", "id": "yp_G9FH9rWVyLCs-sofOOs4VltM=", "properties": {"ref": "https://www.harvester.co.uk/restaurants/eastandwestmidlands/thetimberdineworcester", "@spider": "harvester_gb", "amenity": "restaurant", "cuisine": "american", "addr:street_address": "Bath Road, Broom Hall", "addr:city": "Worcester", "addr:state": "Worcestershire", "addr:postcode": "WR5 3HP", "addr:country": "GB", "name": "The Timberdine Worcester", "phone": "01905 359294", "website": "https://www.harvester.co.uk/restaurants/eastandwestmidlands/thetimberdineworcester", "contact:twitter": "HarvesterUK", "opening_hours": "Mo-Su 09:00-23:00", "image": "https://www.harvester.co.uk/content/dam/harvester/images/logo.png", "brand": "Harvester", "brand:wikidata": "Q5676915", "nsi_id": "harvester-9b5453"}, "geometry": {"type": "Point", "coordinates": [-2.214819, 52.166485]}},
{"type": "Feature", "id": "RNPiIMHx8Q77auDGM3NQ9AdMt74=", "properties": {"ref": "https://www.harvester.co.uk/restaurants/eastandwestmidlands/thesummerhillkingswinford", "@spider": "harvester_gb", "amenity": "restaurant", "cuisine": "american", "addr:street_address": "Swindon Road", "addr:city": "Kingswinford", "addr:state": "West Midlands", "addr:postcode": "DY6 9XA", "addr:country": "GB", "name": "The Summerhill Kingswinford", "phone": "01384 295254", "website": "https://www.harvester.co.uk/restaurants/eastandwestmidlands/thesummerhillkingswinford", "contact:twitter": "HarvesterUK", "opening_hours": "Mo-We 09:00-22:00; Th-Sa 09:00-23:00; Su 09:00-21:30", "image": "https://www.harvester.co.uk/content/dam/harvester/images/logo.png", "brand": "Harvester", "brand:wikidata": "Q5676915", "nsi_id": "harvester-9b5453"}, "geometry": {"type": "Point", "coordinates": [-2.174666, 52.496768]}},
{"type": "Feature", "id": "y3M1OPmuMRn5MYpvrkbIqxvKyxg=", "properties": {"ref": "https://www.harvester.co.uk/restaurants/eastandwestmidlands/harvesterprideparkderby", "@spider": "harvester_gb", "amenity": "restaurant", "cuisine": "american", "addr:street_address": "Roundhouse Road, Off Pride Park", "addr:city": "Derby", "addr:state": "Derbyshire", "addr:postcode": "DE24 8JE", "addr:country": "GB", "name": "Harvester Pride Park Derby", "phone": "01332 371471", "website": "https://www.harvester.co.uk/restaurants/eastandwestmidlands/harvesterprideparkderby", "contact:twitter": "HarvesterUK", "opening_hours": "Mo-Sa 09:00-23:30; Su 09:00-23:00", "image": "https://www.harvester.co.uk/content/dam/harvester/images/logo.png", "brand": "Harvester", "brand:wikidata": "Q5676915", "nsi_id": "harvester-9b5453"}, "geometry": {"type": "Point", "coordinates": [-1.457891, 52.915663]}},
{"type": "Feature", "id": "WcASTr4ta3teBrZWGY4J-7kO-tk=", "properties": {"ref": "https://www.harvester.co.uk/restaurants/eastandwestmidlands/harvesternewsquarewestbromwich", "@spider": "harvester_gb", "amenity": "restaurant", "cuisine": "american", "addr:street_address": "New Square", "addr:city": "West Bromwich", "addr:state": "West Midlands", "addr:postcode": "B70 7PP", "addr:country": "GB", "name": "Harvester New Square West Bromwich", "phone": "0121 553 1424", "website": "https://www.harvester.co.uk/restaurants/eastandwestmidlands/harvesternewsquarewestbromwich", "contact:twitter": "HarvesterUK", "opening_hours": "Mo-Th 09:00-21:00; Fr-Sa 09:00-22:00; Su 09:00-21:00", "image": "https://www.harvester.co.uk/content/dam/harvester/images/logo.png", "brand": "Harvester", "brand:wikidata": "Q5676915", "nsi_id": "harvester-9b5453"}, "geometry": {"type": "Point", "coordinates": [-1.992304, 52.519641]}},
{"type": "Feature", "id": "DiY-y0PjIHuOmZv46Okdae-Jtkg=", "properties": {"ref": "https://www.harvester.co.uk/restaurants/eastandwestmidlands/thegeorgestephensonwalsall", "@spider": "harvester_gb", "amenity": "restaurant", "cuisine": "american", "addr:street_address": "Stephenson Avenue, Reedswood Way", "addr:city": "Walsall", "addr:state": "West  Midlands", "addr:postcode": "WS2 7EU", "addr:country": "GB", "name": "Harvester George Stephenson Walsall", "phone": "01922 630458", "website": "https://www.harvester.co.uk/restaurants/eastandwestmidlands/thegeorgestephensonwalsall", "contact:twitter": "HarvesterUK", "opening_hours": "Mo-Sa 09:00-23:00; Su 09:00-22:00", "image": "https://www.harvester.co.uk/content/dam/harvester/images/logo.png", "brand": "Harvester", "brand:wikidata": "Q5676915", "nsi_id": "harvester-9b5453"}, "geometry": {"type": "Point", "coordinates": [-1.998388, 52.597963]}},
{"type": "Feature", "id": "k3JqM6Sj_bpPWOm6UsQ24aMHi2g=", "properties": {"ref": "https://www.harvester.co.uk/restaurants/eastandwestmidlands/thefoxhunthalesowen", "@spider": "harvester_gb", "amenity": "restaurant", "cuisine": "american", "addr:street_address": "Hagley Road", "addr:city": "Halesowen", "addr:state": "West Midlands", "addr:postcode": "B63 1DQ", "addr:country": "GB", "name": "The Foxhunt Halesowen", "phone": "0121 585 5886", "website": "https://www.harvester.co.uk/restaurants/eastandwestmidlands/thefoxhunthalesowen", "contact:twitter": "HarvesterUK", "opening_hours": "Mo-We 09:00-22:00; Th-Sa 09:00-23:00; Su 09:00-22:00", "image": "https://www.harvester.co.uk/content/dam/harvester/images/logo.png", "brand": "Harvester", "brand:wikidata": "Q5676915", "nsi_id": "harvester-9b5453"}, "geometry": {"type": "Point", "coordinates": [-2.076697, 52.438022]}},
{"type": "Feature", "id": "delFk8KsRXmCVYe9h5f3cVZlU3o=", "properties": {"ref": "https://www.harvester.co.uk/restaurants/eastandwestmidlands/harvesterthefortbirmingham", "@spider": "harvester_gb", "amenity": "restaurant", "cuisine": "american", "addr:street_address": "The Fort Retail Park, Fort Parkway", "addr:city": "Birmingham", "addr:state": "West Midlands", "addr:postcode": "B24 9FP", "addr:country": "GB", "name": "Harvester The Fort Birmingham", "phone": "0121 373 2308", "website": "https://www.harvester.co.uk/restaurants/eastandwestmidlands/harvesterthefortbirmingham", "contact:twitter": "HarvesterUK", "opening_hours": "Mo-Th 09:00-21:00; Fr-Sa 09:00-22:00; Su 09:00-20:00", "image": "https://www.harvester.co.uk/content/dam/harvester/images/logo.png", "brand": "Harvester", "brand:wikidata": "Q5676915", "nsi_id": "harvester-9b5453"}, "geometry": {"type": "Point", "coordinates": [-1.821985, 52.507821]}},
{"type": "Feature", "id": "e4PL7mg5y0Jh9b-NYkhZ72zuA50=", "properties": {"ref": "https://www.harvester.co.uk/restaurants/eastandwestmidlands/harvestercastlegate", "@spider": "harvester_gb", "amenity": "restaurant", "cuisine": "american", "addr:street_address": "Castlegate, Tipton Road", "addr:city": "Dudley", "addr:state": "West Midlands", "addr:postcode": "DY1 4TA", "addr:country": "GB", "name": "Harvester Castlegate Dudley", "phone": "01384 240856", "website": "https://www.harvester.co.uk/restaurants/eastandwestmidlands/harvestercastlegate", "contact:twitter": "HarvesterUK", "opening_hours": "Mo-Th 09:00-22:00; Fr-Sa 09:00-23:00; Su 09:00-22:00", "image": "https://www.harvester.co.uk/content/dam/harvester/images/logo.png", "brand": "Harvester", "brand:wikidata": "Q5676915", "nsi_id": "harvester-9b5453"}, "geometry": {"type": "Point", "coordinates": [-2.073061, 52.516068]}},
{"type": "Feature", "id": "KPS0xElOYkmunEShjJVsRDOr70c=", "properties": {"ref": "https://www.harvester.co.uk/restaurants/eastandwestmidlands/thebrayfordwharflincoln", "@spider": "harvester_gb", "amenity": "restaurant", "cuisine": "american", "addr:street_address": "The Maltings, Brayford Wharf North", "addr:city": "Lincoln", "addr:state": "Lincolnshire", "addr:postcode": "LN1 1YW", "addr:country": "GB", "name": "The Brayford Wharf Lincoln", "phone": "01522 787588", "website": "https://www.harvester.co.uk/restaurants/eastandwestmidlands/thebrayfordwharflincoln", "contact:twitter": "HarvesterUK", "opening_hours": "Mo-Su 09:00-22:00", "image": "https://www.harvester.co.uk/content/dam/harvester/images/logo.png", "brand": "Harvester", "brand:wikidata": "Q5676915", "nsi_id": "harvester-9b5453"}, "geometry": {"type": "Point", "coordinates": [-0.545824, 53.229394]}},
{"type": "Feature", "id": "JSM4_UuUn5je5WQ4ZfkwtM9xAa4=", "properties": {"ref": "https://www.harvester.co.uk/restaurants/eastandwestmidlands/harvesterboldmeresuttoncoldfield", "@spider": "harvester_gb", "amenity": "restaurant", "cuisine": "american", "addr:street_address": "Boldmere Road", "addr:city": "Sutton Coldfield", "addr:state": "West Midlands", "addr:postcode": "B73 5UP", "addr:country": "GB", "name": "Harvester Boldmere Sutton Coldfield", "phone": "0121 354 3533", "website": "https://www.harvester.co.uk/restaurants/eastandwestmidlands/harvesterboldmeresuttoncoldfield", "contact:twitter": "HarvesterUK", "opening_hours": "Mo-Sa 09:00-23:00; Su 09:00-22:30", "image": "https://www.harvester.co.uk/content/dam/harvester/images/logo.png", "brand": "Harvester", "brand:wikidata": "Q5676915", "nsi_id": "harvester-9b5453"}, "geometry": {"type": "Point", "coordinates": [-1.840698, 52.548096]}},
{"type": "Feature", "id": "9DMfiwqOpnzaAh7OgY8l72WBD78=", "properties": {"ref": "https://www.harvester.co.uk/restaurants/eastandwestmidlands/harvesterchesterfieldalmaleisurepark", "@spider": "harvester_gb", "amenity": "restaurant", "cuisine": "american", "addr:street_address": "Alma Leisure Park, Derby Road", "addr:city": "Chesterfield", "addr:state": "Derbyshire", "addr:postcode": "S40 2EZ", "addr:country": "GB", "name": "Harvester Chesterfield Chesterfield", "phone": "01246 540518", "website": "https://www.harvester.co.uk/restaurants/eastandwestmidlands/harvesterchesterfieldalmaleisurepark", "contact:twitter": "HarvesterUK", "opening_hours": "Mo-Su 09:00-22:00", "image": "https://www.harvester.co.uk/content/dam/harvester/images/logo.png", "brand": "Harvester", "brand:wikidata": "Q5676915", "nsi_id": "harvester-9b5453"}, "geometry": {"type": "Point", "coordinates": [-1.422028, 53.229403]}},
{"type": "Feature", "id": "6O4ExW357k3zY9aQn22qtHd7U8s=", "properties": {"ref": "https://www.harvester.co.uk/restaurants/eastandwestmidlands/thebeacongreatbarr", "@spider": "harvester_gb", "amenity": "restaurant", "cuisine": "american", "addr:street_address": "Birmingham Road, Great Barr", "addr:city": "Birmingham", "addr:state": "West Midlands", "addr:postcode": "B43 7AG", "addr:country": "GB", "name": "The Beacon Great Barr", "phone": "0121 357 2567", "website": "https://www.harvester.co.uk/restaurants/eastandwestmidlands/thebeacongreatbarr", "contact:twitter": "HarvesterUK", "opening_hours": "Mo-Th 09:00-22:00; Fr-Sa 09:00-23:00; Su 09:00-22:00", "image": "https://www.harvester.co.uk/content/dam/harvester/images/logo.png", "brand": "Harvester", "brand:wikidata": "Q5676915", "nsi_id": "harvester-9b5453"}, "geometry": {"type": "Point", "coordinates": [-1.937986, 52.558184]}},
{"type": "Feature", "id": "DCYKCGnCoRccha4KnPwhPWUhWLo=", "properties": {"ref": "https://www.harvester.co.uk/restaurants/eastandwestmidlands/harvestertreblebobchesterfield", "@spider": "harvester_gb", "amenity": "restaurant", "cuisine": "american", "addr:street_address": "Tallys End, Barlborough", "addr:city": "Chesterfield", "addr:state": "Derbyshire", "addr:postcode": "S43 4TX", "addr:country": "GB", "name": "The Treble Bob Chesterfield", "phone": "01246 813005", "website": "https://www.harvester.co.uk/restaurants/eastandwestmidlands/harvestertreblebobchesterfield", "contact:twitter": "HarvesterUK", "opening_hours": "Mo-Sa 09:00-23:30; Su 09:00-23:00", "image": "https://www.harvester.co.uk/content/dam/harvester/images/logo.png", "brand": "Harvester", "brand:wikidata": "Q5676915", "nsi_id": "harvester-9b5453"}, "geometry": {"type": "Point", "coordinates": [-1.289649, 53.284357]}},
{"type": "Feature", "id": "6GieSkrA4qAhKODUtsNU5BxX_mo=", "properties": {"ref": "https://www.harvester.co.uk/restaurants/london/themandevillearmsnortholt", "@spider": "harvester_gb", "amenity": "restaurant", "cuisine": "american", "addr:street_address": "Mandeville Road", "addr:city": "Northolt", "addr:state": "Greater London", "addr:postcode": "UB5 4LU", "addr:country": "GB", "name": "The Mandeville Arms Northolt", "phone": "020 8422 2050", "website": "https://www.harvester.co.uk/restaurants/london/themandevillearmsnortholt", "contact:twitter": "HarvesterUK", "opening_hours": "Mo-Su 09:00-23:00", "image": "https://www.harvester.co.uk/content/dam/harvester/images/logo.png", "brand": "Harvester", "brand:wikidata": "Q5676915", "nsi_id": "harvester-9b5453"}, "geometry": {"type": "Point", "coordinates": [-0.366284, 51.548768]}},
{"type": "Feature", "id": "o39fekzJqWfLl_ojW-OUoB6ytBo=", "properties": {"ref": "https://www.harvester.co.uk/restaurants/london/thecrookedbilletbromley", "@spider": "harvester_gb", "amenity": "restaurant", "cuisine": "american", "addr:street_address": "286 Southborough Lane", "addr:city": "Bromley", "addr:state": "Greater London", "addr:postcode": "BR2 8AA", "addr:country": "GB", "name": "The Crooked Billet Bromley", "phone": "020 8467 1124", "website": "https://www.harvester.co.uk/restaurants/london/thecrookedbilletbromley", "contact:twitter": "HarvesterUK", "opening_hours": "Mo-Th 09:00-22:00; Fr-Sa 09:00-23:00; Su 09:00-22:00", "image": "https://www.harvester.co.uk/content/dam/harvester/images/logo.png", "brand": "Harvester", "brand:wikidata": "Q5676915", "nsi_id": "harvester-9b5453"}, "geometry": {"type": "Point", "coordinates": [0.054026, 51.39027]}},
{"type": "Feature", "id": "fCK74UVDowifWRF96SxMjhOmfKY=", "properties": {"ref": "https://www.harvester.co.uk/restaurants/london/theunicornromford", "@spider": "harvester_gb", "amenity": "restaurant", "cuisine": "american", "addr:street_address": "91 Main Road", "addr:city": "Romford", "addr:state": "Essex", "addr:postcode": "RM2 5EL", "addr:country": "GB", "name": "Gidea Park Romford", "phone": "01708 738811", "website": "https://www.harvester.co.uk/restaurants/london/theunicornromford", "contact:twitter": "HarvesterUK", "opening_hours": "Mo-Su 09:00-23:00", "image": "https://www.harvester.co.uk/content/dam/harvester/images/logo.png", "brand": "Harvester", "brand:wikidata": "Q5676915", "nsi_id": "harvester-9b5453"}, "geometry": {"type": "Point", "coordinates": [0.200562, 51.586897]}},
{"type": "Feature", "id": "W1zYVOjgkxc8c3A6YAjgY4GtvgQ=", "properties": {"ref": "https://www.harvester.co.uk/restaurants/london/thebeulahspastreatham", "@spider": "harvester_gb", "amenity": "restaurant", "cuisine": "american", "addr:street_address": "41 Beulah Hill, Upper Norwood", "addr:city": "London", "addr:state": "Greater London", "addr:postcode": "SE19 3DS", "addr:country": "GB", "name": "The Beulah Spa Streatham", "phone": "020 8653 2051", "website": "https://www.harvester.co.uk/restaurants/london/thebeulahspastreatham", "contact:twitter": "HarvesterUK", "opening_hours": "Mo-Su 09:00-22:00", "image": "https://www.harvester.co.uk/content/dam/harvester/images/logo.png", "brand": "Harvester", "brand:wikidata": "Q5676915", "nsi_id": "harvester-9b5453"}, "geometry": {"type": "Point", "coordinates": [-0.092479, 51.41361]}},
{"type": "Feature", "id": "jT1cILHOJqs0FsZNSALjf5-mI8A=", "properties": {"ref": "https://www.harvester.co.uk/restaurants/london/thebeehiveilford", "@spider": "harvester_gb", "amenity": "restaurant", "cuisine": "american", "addr:street_address": "Beehive Lane", "addr:city": "Ilford", "addr:state": "Greater London", "addr:postcode": "IG4 5DR", "addr:country": "GB", "name": "The Beehive Ilford", "phone": "020 8550 3361", "website": "https://www.harvester.co.uk/restaurants/london/thebeehiveilford", "contact:twitter": "HarvesterUK", "opening_hours": "Mo-Su 09:00-22:00", "image": "https://www.harvester.co.uk/content/dam/harvester/images/logo.png", "brand": "Harvester", "brand:wikidata": "Q5676915", "nsi_id": "harvester-9b5453"}, "geometry": {"type": "Point", "coordinates": [0.059193, 51.577413]}},
{"type": "Feature", "id": "fEPszUxZOuE-SY0aTrbVWphyJKA=", "properties": {"ref": "https://www.harvester.co.uk/restaurants/london/harvesterchingfordlondon", "@spider": "harvester_gb", "amenity": "restaurant", "cuisine": "american", "addr:street_address": "Unit 5 Larkswood Leisure Park, 175 New Road", "addr:city": "Chingford", "addr:state": "Greater London", "addr:postcode": "E4 9EY", "addr:country": "GB", "name": "The Larkswood Harvester London", "phone": "020 8529 2990", "website": "https://www.harvester.co.uk/restaurants/london/harvesterchingfordlondon", "contact:twitter": "HarvesterUK", "opening_hours": "Mo-Su 09:00-22:00", "image": "https://www.harvester.co.uk/content/dam/harvester/images/logo.png", "brand": "Harvester", "brand:wikidata": "Q5676915", "nsi_id": "harvester-9b5453"}, "geometry": {"type": "Point", "coordinates": [-0.007377, 51.617546]}},
{"type": "Feature", "id": "nttuQ1XZ34qhHaoHxYKbgjdJVjM=", "properties": {"ref": "https://www.harvester.co.uk/restaurants/london/theroyallondon", "@spider": "harvester_gb", "amenity": "restaurant", "cuisine": "american", "addr:street_address": "Boston Road, Hanwell", "addr:city": "London", "addr:state": "Greater London", "addr:postcode": "W7 2AX", "addr:country": "GB", "name": "The Royal London", "phone": "020 8567 3711", "website": "https://www.harvester.co.uk/restaurants/london/theroyallondon", "contact:twitter": "HarvesterUK", "opening_hours": "Mo-Sa 09:00-23:00; Su 09:00-22:30", "image": "https://www.harvester.co.uk/content/dam/harvester/images/logo.png", "brand": "Harvester", "brand:wikidata": "Q5676915", "nsi_id": "harvester-9b5453"}, "geometry": {"type": "Point", "coordinates": [-0.326627, 51.498247]}},
{"type": "Feature", "id": "LhiNjMvRsTFJ1AuHlyHu2hPbrdc=", "properties": {"ref": "https://www.harvester.co.uk/restaurants/london/thenavigationenfield", "@spider": "harvester_gb", "amenity": "restaurant", "cuisine": "american", "addr:street_address": "4 Wharf Road, Ponders End", "addr:city": "Enfield", "addr:state": "Greater London", "addr:postcode": "EN3 4XX", "addr:country": "GB", "name": "The Navigation Enfield", "phone": "020 8804 7788", "website": "https://www.harvester.co.uk/restaurants/london/thenavigationenfield", "contact:twitter": "HarvesterUK", "opening_hours": "Mo-Th 11:30-22:00; Fr-Su 09:00-22:00", "image": "https://www.harvester.co.uk/content/dam/harvester/images/logo.png", "brand": "Harvester", "brand:wikidata": "Q5676915", "nsi_id": "harvester-9b5453"}, "geometry": {"type": "Point", "coordinates": [-0.0298, 51.643463]}},
{"type": "Feature", "id": "czUWVdFS6unhKYS3sYNHcAiDrmc=", "properties": {"ref": "https://www.harvester.co.uk/restaurants/london/thejollybadgeredgware", "@spider": "harvester_gb", "amenity": "restaurant", "cuisine": "american", "addr:street_address": "128 Hale Lane", "addr:city": "Edgware", "addr:state": "Greater London", "addr:postcode": "HA8 9RZ", "addr:country": "GB", "name": "The Jolly Badger Edgware", "phone": "020 8959 6403", "website": "https://www.harvester.co.uk/restaurants/london/thejollybadgeredgware", "contact:twitter": "HarvesterUK", "opening_hours": "Mo-Th 11:30-22:00; Fr 11:30-22:30; Sa 09:00-22:30; Su 09:00-22:00", "image": "https://www.harvester.co.uk/content/dam/harvester/images/logo.png", "brand": "Harvester", "brand:wikidata": "Q5676915", "nsi_id": "harvester-9b5453"}, "geometry": {"type": "Point", "coordinates": [-0.260437, 51.61701]}},
{"type": "Feature", "id": "eNrxlgdUutHbw67eaaNWeXjemSg=", "properties": {"ref": "https://www.harvester.co.uk/restaurants/london/thegreyhoundromford", "@spider": "harvester_gb", "amenity": "restaurant", "cuisine": "american", "addr:street_address": "900 High Road", "addr:city": "Romford", "addr:state": "Essex", "addr:postcode": "RM6 4HU", "addr:country": "GB", "name": "The Greyhound Romford", "phone": "020 8599 1533", "website": "https://www.harvester.co.uk/restaurants/london/thegreyhoundromford", "contact:twitter": "HarvesterUK", "opening_hours": "Mo-Th 09:00-22:00; Fr-Sa 09:00-23:00; Su 09:00-22:00", "image": "https://www.harvester.co.uk/content/dam/harvester/images/logo.png", "brand": "Harvester", "brand:wikidata": "Q5676915", "nsi_id": "harvester-9b5453"}, "geometry": {"type": "Point", "coordinates": [0.119546, 51.568289]}},
{"type": "Feature", "id": "V77EZ8UoRSGmC8XfQzMmktqFOfw=", "properties": {"ref": "https://www.harvester.co.uk/restaurants/london/thefalconeltham", "@spider": "harvester_gb", "amenity": "restaurant", "cuisine": "american", "addr:street_address": "Lingfield Crescent, Eltham", "addr:city": "London", "addr:state": "Greater London", "addr:postcode": "SE9 2RN", "addr:country": "GB", "name": "The Falcon Eltham", "phone": "020 8850 3663", "website": "https://www.harvester.co.uk/restaurants/london/thefalconeltham", "contact:twitter": "HarvesterUK", "opening_hours": "Mo-Sa 09:00-23:00; Su 09:00-22:00", "image": "https://www.harvester.co.uk/content/dam/harvester/images/logo.png", "brand": "Harvester", "brand:wikidata": "Q5676915", "nsi_id": "harvester-9b5453"}, "geometry": {"type": "Point", "coordinates": [0.080412, 51.458556]}}]}