{"type":"FeatureCollection","features":[{"type": "Feature", "id": "m6nPKpWxRmW3TICOT40fWcGPZao=", "properties": {"ref": "1", "@spider": "heart_of_england_cooperative", "addr:full": "Alfall Road  Coventry,   CV2 3GF", "addr:postcode": "CV2 3GF", "addr:country": "GB", "name": "Alfall Road", "phone": "024 7644 5916", "brand": "Heart of England Co-operative", "brand:wikidata": "Q5692254"}, "geometry": {"type": "Point", "coordinates": [-1.475709, 52.419191]}},
{"type": "Feature", "id": "KBhDBy8_y6eAKrCEfWz4DBpNV1c=", "properties": {"ref": "2", "@spider": "heart_of_england_cooperative", "addr:full": "Allesley Old Road  Coventry,   CV5 8GG", "addr:postcode": "CV5 8GG", "addr:country": "GB", "name": "Allesley", "phone": "024 7667 2783", "brand": "Heart of England Co-operative", "brand:wikidata": "Q5692254"}, "geometry": {"type": "Point", "coordinates": [-1.548367, 52.412]}},
{"type": "Feature", "id": "EoByUtBNR6YVf7up-BXysRu8g8I=", "properties": {"ref": "3", "@spider": "heart_of_england_cooperative", "addr:full": "Kem Street  Attleborough,  Warwickshire CV11 4LH", "addr:postcode": "CV11 4LH", "addr:country": "GB", "name": "Attleborough", "phone": "024 7634 4938", "website": "https://www.cawtest.com/heartofengland/food/attleborough/", "brand": "Heart of England Co-operative", "brand:wikidata": "Q5692254"}, "geometry": {"type": "Point", "coordinates": [-1.4556445, 52.5123177]}},
{"type": "Feature", "id": "rHBdKCk32QGx3GSRptKwRGSk8m8=", "properties": {"ref": "4", "@spider": "heart_of_england_cooperative", "addr:full": "Kenilworth Road  Coventry,   CV77DL", "addr:country": "GB", "name": "Balsall Common", "phone": "01676535006", "brand": "Heart of England Co-operative", "brand:wikidata": "Q5692254"}, "geometry": {"type": "Point", "coordinates": [-1.649281, 52.391149]}},
{"type": "Feature", "id": "hP6drddsW2pqTRSnzmNVlTOZaVI=", "properties": {"ref": "5", "@spider": "heart_of_england_cooperative", "addr:full": "Malt Mill Bank    LE9 8GT", "addr:postcode": "LE9 8GT", "addr:country": "GB", "name": "Barwell", "phone": "01455 846200", "brand": "Heart of England Co-operative", "brand:wikidata": "Q5692254"}, "geometry": {"type": "Point", "coordinates": [-1.346202, 52.567937]}},
{"type": "Feature", "id": "QNwyYxX8_5cXrGRD5_wOI8AUWfg=", "properties": {"ref": "6", "@spider": "heart_of_england_cooperative", "addr:full": "Chapel Street    CV47 2RB", "addr:postcode": "CV47 2RB", "addr:country": "GB", "name": "Bishops Itchington", "phone": "01926 612180", "brand": "Heart of England Co-operative", "brand:wikidata": "Q5692254"}, "geometry": {"type": "Point", "coordinates": [-1.430161, 52.215764]}},
{"type": "Feature", "id": "_JF_JAeamhCf6aN7CJy2Udr1dSE=", "properties": {"ref": "7", "@spider": "heart_of_england_cooperative", "addr:full": "School Road    CV12 9JB", "addr:postcode": "CV12 9JB", "addr:country": "GB", "name": "Bulkington", "phone": "024 7631 2146", "brand": "Heart of England Co-operative", "brand:wikidata": "Q5692254"}, "geometry": {"type": "Point", "coordinates": [-1.423615, 52.476333]}},
{"type": "Feature", "id": "6gj__dMLbt1lKalhW_MryVYlZ-8=", "properties": {"ref": "8", "@spider": "heart_of_england_cooperative", "addr:full": "Copper Beech Road  Nuneaton,   CV10 9FB", "addr:postcode": "CV10 9FB", "addr:country": "GB", "name": "Camp Hill", "phone": "024 7639 2438", "brand": "Heart of England Co-operative", "brand:wikidata": "Q5692254"}, "geometry": {"type": "Point", "coordinates": [-1.50603, 52.531474]}},
{"type": "Feature", "id": "1CTuahMxcw5ve1pGemvFW6bxYbo=", "properties": {"ref": "9", "@spider": "heart_of_england_cooperative", "addr:full": "Norman Place Road  Coventry,   CV6 2BQ", "addr:postcode": "CV6 2BQ", "addr:country": "GB", "name": "Coundon", "phone": "024 7633 2548", "brand": "Heart of England Co-operative", "brand:wikidata": "Q5692254"}, "geometry": {"type": "Point", "coordinates": [-1.532825, 52.43026]}},
{"type": "Feature", "id": "GA_wP_t7-abD33Ptxbpy2vqjovo=", "properties": {"ref": "10", "@spider": "heart_of_england_cooperative", "addr:full": "High Street   NN67TS ", "addr:country": "GB", "name": "Crick", "phone": "01788 822277", "brand": "Heart of England Co-operative", "brand:wikidata": "Q5692254"}, "geometry": {"type": "Point", "coordinates": [-1.136901, 52.346433]}},
{"type": "Feature", "id": "0H6qXAqPAecNC9YoiFv65YQK260=", "properties": {"ref": "11", "@spider": "heart_of_england_cooperative", "addr:full": "Earlsdon Street  Coventry,   CV5 6EG", "addr:postcode": "CV5 6EG", "addr:country": "GB", "name": "Earlsdon", "phone": "024 7671 3377", "brand": "Heart of England Co-operative", "brand:wikidata": "Q5692254"}, "geometry": {"type": "Point", "coordinates": [-1.531154, 52.3997232]}},
{"type": "Feature", "id": "bX3M-bdUREwHH6YrTyaBuJrJyTY=", "properties": {"ref": "12", "@spider": "heart_of_england_cooperative", "addr:full": "High Street    CV47 2XT", "addr:postcode": "CV47 2XT", "addr:country": "GB", "name": "Fenny Compton", "phone": "01295 770246", "brand": "Heart of England Co-operative", "brand:wikidata": "Q5692254"}, "geometry": {"type": "Point", "coordinates": [-1.389932, 52.168702]}},
{"type": "Feature", "id": "pdSOe0izezRqa8wqZooqCGX1zuc=", "properties": {"ref": "13", "@spider": "heart_of_england_cooperative", "addr:full": "Chesterton Drive  Nuneaton,   CV10 9RP", "addr:postcode": "CV10 9RP", "addr:country": "GB", "name": "Galley Common", "phone": "02476 393 962", "brand": "Heart of England Co-operative", "brand:wikidata": "Q5692254"}, "geometry": {"type": "Point", "coordinates": [-1.530875, 52.5244608]}},
{"type": "Feature", "id": "0V__ERnKwpjHYrU8RaQ5_QDH_64=", "properties": {"ref": "14", "@spider": "heart_of_england_cooperative", "addr:full": "High Street    CV33 9HW", "addr:postcode": "CV33 9HW", "addr:country": "GB", "name": "Harbury", "phone": "01926 612252", "brand": "Heart of England Co-operative", "brand:wikidata": "Q5692254"}, "geometry": {"type": "Point", "coordinates": [-1.455635, 52.236704]}},
{"type": "Feature", "id": "wU7_1Hy16Lej9KqbKFSj3F178ZM=", "properties": {"ref": "15", "@spider": "heart_of_england_cooperative", "addr:full": "High Street    CV21 4EG", "addr:postcode": "CV21 4EG", "addr:country": "GB", "name": "Hillmorton", "phone": "01788 543567", "brand": "Heart of England Co-operative", "brand:wikidata": "Q5692254"}, "geometry": {"type": "Point", "coordinates": [-1.218859, 52.358483]}},
{"type": "Feature", "id": "c42FmPZu9UMfPcKQveAtRGcyuho=", "properties": {"ref": "16", "@spider": "heart_of_england_cooperative", "addr:full": "Church Road    CV47 9PN", "addr:postcode": "CV47 9PN", "addr:country": "GB", "name": "Long Itchington", "phone": "01926 812411", "brand": "Heart of England Co-operative", "brand:wikidata": "Q5692254"}, "geometry": {"type": "Point", "coordinates": [-1.3984383, 52.2830996]}},
{"type": "Feature", "id": "n046n8peX8A50WAt67eLXcc7iqk=", "properties": {"ref": "17", "@spider": "heart_of_england_cooperative", "addr:full": "Townsend Lane    CV23 9DE", "addr:postcode": "CV23 9DE", "addr:country": "GB", "name": "Long Lawford", "phone": "01788 565066", "brand": "Heart of England Co-operative", "brand:wikidata": "Q5692254"}, "geometry": {"type": "Point", "coordinates": [-1.305548, 52.3800672]}},
{"type": "Feature", "id": "-sMuASwdsrB5RPlecIi83RxupXo=", "properties": {"ref": "18", "@spider": "heart_of_england_cooperative", "addr:full": "Main Street    CV130JN", "addr:country": "GB", "name": "Market Bosworth", "phone": "01455 290231", "brand": "Heart of England Co-operative", "brand:wikidata": "Q5692254"}, "geometry": {"type": "Point", "coordinates": [-1.401783, 52.62435]}},
{"type": "Feature", "id": "Lo-0IWmexZo-q840l8-Awrl_LrI=", "properties": {"ref": "19", "@spider": "heart_of_england_cooperative", "addr:full": "The Green    CV7 7LN", "addr:postcode": "CV7 7LN", "addr:country": "GB", "name": "Meriden", "phone": "01676 522378", "brand": "Heart of England Co-operative", "brand:wikidata": "Q5692254"}, "geometry": {"type": "Point", "coordinates": [-1.64851, 52.43766]}},
{"type": "Feature", "id": "qsJ55d-c34duGj0S4e3Og0-OKqs=", "properties": {"ref": "20", "@spider": "heart_of_england_cooperative", "addr:full": "Gun Hill    CV78HB", "addr:country": "GB", "name": "New Arley", "phone": "01676 540480", "brand": "Heart of England Co-operative", "brand:wikidata": "Q5692254"}, "geometry": {"type": "Point", "coordinates": [-1.5668381, 52.5050302]}},
{"type": "Feature", "id": "hiDI6Ox8b_Xw-F6DSjPSVf0Gcvo=", "properties": {"ref": "21", "@spider": "heart_of_england_cooperative", "addr:full": "Lawford Road  Rugby,   CV21 2HS", "addr:postcode": "CV21 2HS", "addr:country": "GB", "name": "New Bilton", "phone": "01788 536248", "brand": "Heart of England Co-operative", "brand:wikidata": "Q5692254"}, "geometry": {"type": "Point", "coordinates": [-1.276725, 52.373545]}},
{"type": "Feature", "id": "9G8Fwxjh8DOI9AC380WmYnCwQLU=", "properties": {"ref": "22", "@spider": "heart_of_england_cooperative", "addr:full": "The Green  Rugby,   CV22 7LY", "addr:postcode": "CV22 7LY", "addr:country": "GB", "name": "Old Bilton", "phone": "01788 811774", "brand": "Heart of England Co-operative", "brand:wikidata": "Q5692254"}, "geometry": {"type": "Point", "coordinates": [-1.2906242, 52.3591837]}},
{"type": "Feature", "id": "5r39mKL-ib4Ts8aUZcLuu1QbqOw=", "properties": {"ref": "23", "@spider": "heart_of_england_cooperative", "addr:full": "High Street    CV8 3FH", "addr:postcode": "CV8 3FH", "addr:country": "GB", "name": "Ryton - On - Dunsmore", "phone": "024 7630 2691", "brand": "Heart of England Co-operative", "brand:wikidata": "Q5692254"}, "geometry": {"type": "Point", "coordinates": [-1.4366973, 52.3638158]}},
{"type": "Feature", "id": "Ru5Dr1GtjgocGJ0T7KFU08fzyBQ=", "properties": {"ref": "24", "@spider": "heart_of_england_cooperative", "addr:full": "Church Street    LE9 4FG", "addr:postcode": "LE9 4FG", "addr:country": "GB", "name": "Sapcote", "phone": "01455 272257", "brand": "Heart of England Co-operative", "brand:wikidata": "Q5692254"}, "geometry": {"type": "Point", "coordinates": [-1.280553, 52.536263]}},
{"type": "Feature", "id": "ZmZdavHLCDg5vhPXHm6zWrQYKbY=", "properties": {"ref": "25", "@spider": "heart_of_england_cooperative", "addr:full": "Coventry Street    CV47 0EA", "addr:postcode": "CV47 0EA", "addr:country": "GB", "name": "Southam", "phone": "01926 812308", "brand": "Heart of England Co-operative", "brand:wikidata": "Q5692254"}, "geometry": {"type": "Point", "coordinates": [-1.38793, 52.253886]}},
{"type": "Feature", "id": "CbpFtzarwux4g0DtEfZDOnB2W4M=", "properties": {"ref": "26", "@spider": "heart_of_england_cooperative", "addr:full": "Coniston Way  Nuneaton,   CV11 6DG", "addr:postcode": "CV11 6DG", "addr:country": "GB", "name": "St Nicholas Park", "phone": "024 7632 9974", "brand": "Heart of England Co-operative", "brand:wikidata": "Q5692254"}, "geometry": {"type": "Point", "coordinates": [-1.445216, 52.536134]}},
{"type": "Feature", "id": "ATsxYYSxQh3nf16v7PbYRBcjKZs=", "properties": {"ref": "27", "@spider": "heart_of_england_cooperative", "addr:full": "Long Street    LE9 4DQ", "addr:postcode": "LE9 4DQ", "addr:country": "GB", "name": "Stoney Stanton", "phone": "01455 273813", "brand": "Heart of England Co-operative", "brand:wikidata": "Q5692254"}, "geometry": {"type": "Point", "coordinates": [-1.278209, 52.548178]}},
{"type": "Feature", "id": "UF-93PJUBlueExLQpcYLN0OvtJ8=", "properties": {"ref": "28", "@spider": "heart_of_england_cooperative", "addr:full": "Tile Hill Lane  Coventry,   CV49DU", "addr:country": "GB", "name": "Tile HIll", "phone": "024 7646 6170", "brand": "Heart of England Co-operative", "brand:wikidata": "Q5692254"}, "geometry": {"type": "Point", "coordinates": [-1.562805, 52.403899]}},
{"type": "Feature", "id": "Sdf9RSqR8trmiPtyeTh-fDKNLNI=", "properties": {"ref": "29", "@spider": "heart_of_england_cooperative", "addr:full": "Cressida Close  Wariwick,   CV34 6DZ", "addr:postcode": "CV34 6DZ", "addr:country": "GB", "name": "Warwick Gates", "phone": "01926 426506", "brand": "Heart of England Co-operative", "brand:wikidata": "Q5692254"}, "geometry": {"type": "Point", "coordinates": [-1.538275, 52.268567]}},
{"type": "Feature", "id": "ON1EOVaLmPxm93dPbTz7ukVpGns=", "properties": {"ref": "30", "@spider": "heart_of_england_cooperative", "addr:full": "Loxley Close    CV35 9RU", "addr:postcode": "CV35 9RU", "addr:country": "GB", "name": "Wellesbourne", "phone": "01789 840861", "brand": "Heart of England Co-operative", "brand:wikidata": "Q5692254"}, "geometry": {"type": "Point", "coordinates": [-1.598151, 52.190762]}},
{"type": "Feature", "id": "yKDqZWvw00UfvbGru69gm50PI5I=", "properties": {"ref": "31", "@spider": "heart_of_england_cooperative", "addr:full": "16 Reardon Court  Warwick,   CV34 5RN", "addr:postcode": "CV34 5RN", "addr:country": "GB", "name": "Woodloes", "phone": "01926 493281", "brand": "Heart of England Co-operative", "brand:wikidata": "Q5692254"}, "geometry": {"type": "Point", "coordinates": [-1.586713, 52.295229]}},
{"type": "Feature", "id": "C2nNRh31MgxdceFuZezusJh2L8c=", "properties": {"ref": "32", "@spider": "heart_of_england_cooperative", "addr:full": "Ansty Road  Coventry,   CV23EX", "addr:country": "GB", "name": "Wyken", "phone": "024 7644 5616", "brand": "Heart of England Co-operative", "brand:wikidata": "Q5692254"}, "geometry": {"type": "Point", "coordinates": [-1.460619, 52.416609]}}]}