{"type":"FeatureCollection","features":[{"type": "Feature", "id": "cLDCxpBrfM74GXH_mngnHzL1HYc=", "properties": {"ref": "h-e-b-frisco-789", "@spider": "heb", "addr:full": "4800 MAIN STREET", "addr:city": "FRISCO", "addr:state": "TX", "addr:postcode": "75033", "addr:country": "US", "name": "H-E-B Frisco", "phone": "+14694734419", "website": "https://www.heb.com/heb-store/US/tx/frisco/h-e-b-frisco-789", "opening_hours": "Mo-Su 06:00-23:00", "brand": "H-E-B", "brand:wikidata": "Q830621"}, "geometry": {"type": "Point", "coordinates": [-96.84583, 33.15458]}},
{"type": "Feature", "id": "7PlECh1ki3BoQtfS64PppFdHQL8=", "properties": {"ref": "h-e-b-at-ronald-reagan-blvd-774", "@spider": "heb", "addr:full": "19348 RONALD W.REAGAN BLVD", "addr:city": "GEORGETOWN", "addr:state": "TX", "addr:postcode": "78628", "addr:country": "US", "name": "H-E-B at Ronald Reagan Blvd", "phone": "+15128434902", "website": "https://www.heb.com/heb-store/US/tx/georgetown/h-e-b-at-ronald-reagan-blvd-774", "opening_hours": "Mo-Su 06:00-23:00", "brand": "H-E-B", "brand:wikidata": "Q830621"}, "geometry": {"type": "Point", "coordinates": [-97.82446, 30.63307]}},
{"type": "Feature", "id": "ovJjs86TDNOaE4i3bLSKbp1jcdg=", "properties": {"ref": "new-braunfels-h-e-b-at-walnut-775", "@spider": "heb", "addr:full": "651 S.WALNUT", "addr:city": "NEW BRAUNFELS", "addr:state": "TX", "addr:postcode": "78130-5722", "addr:country": "US", "name": "New Braunfels H-E-B at Walnut", "phone": "+18306080017", "website": "https://www.heb.com/heb-store/US/tx/new-braunfels/new-braunfels-h-e-b-at-walnut-775", "opening_hours": "Mo-Su 06:00-23:00", "brand": "H-E-B", "brand:wikidata": "Q830621"}, "geometry": {"type": "Point", "coordinates": [-98.12631, 29.68903]}},
{"type": "Feature", "id": "lotCGJ_r6gJXdxNRE8LBZ0V9Jh0=", "properties": {"ref": "h-e-b-pharmacy-at-the-uthtb-773", "@spider": "heb", "addr:full": "1601 TRINITY ST", "addr:city": "AUSTIN", "addr:state": "TX", "addr:postcode": "78712", "addr:country": "US", "name": "H-E-B Pharmacy at the UTHTB", "phone": "+15123209998", "website": "https://www.heb.com/heb-store/US/tx/austin/h-e-b-pharmacy-at-the-uthtb-773", "opening_hours": "Mo-Fr 08:00-18:00", "brand": "H-E-B", "brand:wikidata": "Q830621"}, "geometry": {"type": "Point", "coordinates": [-97.73507, 30.27747]}}]}