{"type":"FeatureCollection","features":[{"type": "Feature", "id": "LvO-y3JsrFsvufpolmBTDkTJsP4=", "properties": {"ref": "9199407", "@spider": "heron_foods", "shop": "convenience", "addr:street_address": "Marsh Farm District Centre, Purway Close", "addr:city": "Luton", "addr:postcode": "LU3 3RT", "addr:country": "GB", "name": "Marsh Farm", "website": "https://heronfoods.com/store/marsh-farm-bm-express/", "opening_hours": "Mo-Sa 08:00-20:00; Su 09:00-17:00", "brand": "B&M Express", "brand:wikidata": "Q99640578", "nsi_id": "bandmexpress-232829"}, "geometry": {"type": "Point", "coordinates": [-0.453029, 51.9183]}},
{"type": "Feature", "id": "_9_M70uD8D25cNAPB-Ti4V9ufxg=", "properties": {"ref": "9203654", "@spider": "heron_foods", "shop": "supermarket", "addr:street_address": "All Saints View High Street", "addr:city": "Dunstable", "addr:postcode": "LU5 5LQ", "addr:country": "GB", "name": "Houghton Regis", "website": "https://heronfoods.com/store/houghton-regis/", "opening_hours": "Mo-Su 08:00-20:00", "brand": "Heron Foods", "brand:wikidata": "Q5743472", "nsi_id": "heronfoods-a8278b"}, "geometry": {"type": "Point", "coordinates": [-0.5182757, 51.9045558]}},
{"type": "Feature", "id": "s-q2sew1PiYjl-dFN_GEzIgmuRw=", "properties": {"ref": "9199415", "@spider": "heron_foods", "shop": "convenience", "addr:street_address": "Unit 29a Farthing Grove, Netherfield District Centre, Netherfield", "addr:city": "Milton Keynes", "addr:postcode": "MK6 4JH", "addr:country": "GB", "name": "Netherfield", "website": "https://heronfoods.com/store/netherfield-bm-express/", "opening_hours": "Mo-Sa 08:00-19:00; Su 10:00-16:00", "brand": "B&M Express", "brand:wikidata": "Q99640578", "nsi_id": "bandmexpress-232829"}, "geometry": {"type": "Point", "coordinates": [-0.7338836999999999, 52.0223546]}},
{"type": "Feature", "id": "pr3d59BMSBoNLlGopz2myrxGn1g=", "properties": {"ref": "9199510", "@spider": "heron_foods", "shop": "supermarket", "addr:street_address": "106A Gold Street", "addr:city": "Wellingborough", "addr:postcode": "NN8 4ES", "addr:country": "GB", "name": "Wellingborough", "website": "https://heronfoods.com/store/wellingborough/", "opening_hours": "Mo-Sa 08:00-20:00; Su 08:00-18:00", "brand": "Heron Foods", "brand:wikidata": "Q5743472", "nsi_id": "heronfoods-a8278b"}, "geometry": {"type": "Point", "coordinates": [-0.6924838, 52.30783419999999]}},
{"type": "Feature", "id": "QT8BJRqktIIyYwxUgMdx3JtYZxw=", "properties": {"ref": "9199386", "@spider": "heron_foods", "shop": "supermarket", "addr:street_address": "14 Kingsthorpe Centre, Harborough Road", "addr:city": "Northampton", "addr:postcode": "NN2 7BD", "addr:country": "GB", "name": "Kingsthorpe", "website": "https://heronfoods.com/store/kingsthorpe/", "opening_hours": "Mo-Sa 08:00-20:00; Su 09:00-17:00", "brand": "Heron Foods", "brand:wikidata": "Q5743472", "nsi_id": "heronfoods-a8278b"}, "geometry": {"type": "Point", "coordinates": [-0.9008751, 52.2630697]}},
{"type": "Feature", "id": "XIfAhIwC_8tEwRCLmbx8kSZNJKg=", "properties": {"ref": "9202175", "@spider": "heron_foods", "shop": "supermarket", "addr:street_address": "King St Mildenhall", "addr:city": "Bury", "addr:postcode": "IP28 7ES", "addr:country": "GB", "name": "Mildenhall", "website": "https://heronfoods.com/store/mildenhall/", "opening_hours": "Mo-Sa 08:00-20:00; Su 10:00-16:00", "brand": "Heron Foods", "brand:wikidata": "Q5743472", "nsi_id": "heronfoods-a8278b"}, "geometry": {"type": "Point", "coordinates": [0.511821, 52.34372]}},
{"type": "Feature", "id": "WQv1VBEFgT5xIWYSHibhI_sLiGY=", "properties": {"ref": "9199450", "@spider": "heron_foods", "shop": "supermarket", "addr:street_address": "22 Great Whyte", "addr:city": "Ramsey", "addr:postcode": "PE26 1HA", "addr:country": "GB", "name": "Ramsey B&M Express", "website": "https://heronfoods.com/store/ramsey-bm-express/", "opening_hours": "Mo-Sa 08:00-19:00; Su 10:00-16:00", "brand": "Heron Foods", "brand:wikidata": "Q5743472", "nsi_id": "heronfoods-a8278b"}, "geometry": {"type": "Point", "coordinates": [-0.1072556, 52.4490384]}},
{"type": "Feature", "id": "9gRjcn9cXSGTAD3XxqE-XFtCWKM=", "properties": {"ref": "9199316", "@spider": "heron_foods", "shop": "supermarket", "addr:street_address": "76 High Street", "addr:city": "Daventry", "addr:postcode": "NN11 4HT", "addr:country": "GB", "name": "Daventry", "website": "https://heronfoods.com/store/daventry/", "opening_hours": "Mo-Sa 08:00-18:00; Su 09:00-17:00", "brand": "Heron Foods", "brand:wikidata": "Q5743472", "nsi_id": "heronfoods-a8278b"}, "geometry": {"type": "Point", "coordinates": [-1.1639747, 52.2578435]}},
{"type": "Feature", "id": "EIbbey2-_RUBfMSK33YH3a2e-FM=", "properties": {"ref": "9199305", "@spider": "heron_foods", "shop": "convenience", "addr:street_address": "56-58 Corporation Street", "addr:city": "Corby", "addr:postcode": "NN17 1NH", "addr:country": "GB", "name": "Corby", "website": "https://heronfoods.com/store/corby-bm-express/", "opening_hours": "Mo-Sa 08:00-18:00; Su 09:00-17:00", "brand": "B&M Express", "brand:wikidata": "Q99640578", "nsi_id": "bandmexpress-232829"}, "geometry": {"type": "Point", "coordinates": [-0.7026133, 52.4880967]}},
{"type": "Feature", "id": "5CvMcaZepqWIGUwmySIbxCONf5A=", "properties": {"ref": "9199519", "@spider": "heron_foods", "shop": "supermarket", "addr:street_address": "23 High Causeway", "addr:city": "Whittlesey", "addr:postcode": "PE7 1AJ", "addr:country": "GB", "name": "Whittlesey", "website": "https://heronfoods.com/store/whittlesey/", "opening_hours": "Mo-Sa 08:00-20:00; Su 10:00-17:00", "brand": "Heron Foods", "brand:wikidata": "Q5743472", "nsi_id": "heronfoods-a8278b"}, "geometry": {"type": "Point", "coordinates": [-0.1274036, 52.5576477]}},
{"type": "Feature", "id": "79QDGSy6CVudWEo7KM6ToMzm3G4=", "properties": {"ref": "9199404", "@spider": "heron_foods", "shop": "supermarket", "addr:street_address": "21 Broad Street, March", "addr:city": "Cambridgeshire", "addr:postcode": "PE15 8TS", "addr:country": "GB", "name": "March", "website": "https://heronfoods.com/store/march/", "opening_hours": "Mo-Sa 08:00-18:00; Su 09:00-17:00", "brand": "Heron Foods", "brand:wikidata": "Q5743472", "nsi_id": "heronfoods-a8278b"}, "geometry": {"type": "Point", "coordinates": [0.0884691, 52.5505242]}},
{"type": "Feature", "id": "2P81SJf-_BKg5owdWg8HoW2m3xs=", "properties": {"ref": "9199524", "@spider": "heron_foods", "shop": "supermarket", "addr:street_address": "Unit 9-10, The Horsefair Shopping Centre", "addr:city": "Wisbech", "addr:postcode": "PE12 1AR", "addr:country": "GB", "name": "Wisbech", "website": "https://heronfoods.com/store/wisbech/", "opening_hours": "Mo-Sa 08:00-18:00; Su 10:00-16:00", "brand": "Heron Foods", "brand:wikidata": "Q5743472", "nsi_id": "heronfoods-a8278b"}, "geometry": {"type": "Point", "coordinates": [0.161492, 52.666735]}},
{"type": "Feature", "id": "s37AsqiCUzqKEAhMm4pU4t9pRXs=", "properties": {"ref": "9199454", "@spider": "heron_foods", "shop": "supermarket", "addr:street_address": "Unit 1, Remembrance Road", "addr:city": "Coventry", "addr:postcode": "CV3 3DP", "addr:country": "GB", "name": "Remembrance Road", "website": "https://heronfoods.com/store/remembrance-road/", "opening_hours": "Mo-Sa 08:00-20:00", "brand": "Heron Foods", "brand:wikidata": "Q5743472", "nsi_id": "heronfoods-a8278b"}, "geometry": {"type": "Point", "coordinates": [-1.458107, 52.3870507]}},
{"type": "Feature", "id": "rj3UEFk6wMYPFrTc_UuWZAuMrtA=", "properties": {"ref": "9199504", "@spider": "heron_foods", "shop": "supermarket", "addr:street_address": "251-253 Walsgrave Road", "addr:city": "Coventry,", "addr:postcode": "CV2 4BD", "addr:country": "GB", "name": "Walsgrave", "website": "https://heronfoods.com/store/walsgrave/", "opening_hours": "Mo-Sa 08:00-20:00; Su 10:00-16:00", "brand": "Heron Foods", "brand:wikidata": "Q5743472", "nsi_id": "heronfoods-a8278b"}, "geometry": {"type": "Point", "coordinates": [-1.4817045, 52.41124199999999]}},
{"type": "Feature", "id": "3Iiy0LLHEusdNKPhJn4q2t29Zv8=", "properties": {"ref": "9199380", "@spider": "heron_foods", "shop": "convenience", "addr:street_address": "96 Jubilee Crescent, Radford", "addr:city": "Coventry", "addr:postcode": "CV6 3ES", "addr:country": "GB", "name": "Jubilee Crescent", "website": "https://heronfoods.com/store/jubilee-crescent-bm-express/", "opening_hours": "Mo-Sa 08:00-20:00; Su 09:00-17:00", "brand": "B&M Express", "brand:wikidata": "Q99640578", "nsi_id": "bandmexpress-232829"}, "geometry": {"type": "Point", "coordinates": [-1.5165986, 52.4304667]}},
{"type": "Feature", "id": "8pAZ-1oAhUZnA_NkzBsUSUOdfsI=", "properties": {"ref": "9199464", "@spider": "heron_foods", "shop": "supermarket", "addr:street_address": "14/16 Hallaton Street", "addr:city": "Saffron Lane", "addr:postcode": "LE2 6UG", "addr:country": "GB", "name": "Saffron Lane", "website": "https://heronfoods.com/store/saffron-lane/", "opening_hours": "Mo-Sa 08:00-19:00; Su 09:00-18:00", "brand": "Heron Foods", "brand:wikidata": "Q5743472", "nsi_id": "heronfoods-a8278b"}, "geometry": {"type": "Point", "coordinates": [-1.1391853, 52.6040769]}},
{"type": "Feature", "id": "bX1-Ah-1ew4m_CmzDLEzz7vylcI=", "properties": {"ref": "9199274", "@spider": "heron_foods", "shop": "supermarket", "addr:street_address": "13 North Street", "addr:city": "Bourne", "addr:postcode": "PE10 9EA", "addr:country": "GB", "name": "Bourne", "website": "https://heronfoods.com/store/bourne/", "opening_hours": "Mo-Sa 08:00-18:00; Su 09:00-17:00", "brand": "Heron Foods", "brand:wikidata": "Q5743472", "nsi_id": "heronfoods-a8278b"}, "geometry": {"type": "Point", "coordinates": [-0.3778888, 52.7687962]}},
{"type": "Feature", "id": "oFZ9AhdNE7RpVGjeNV_oycKieNs=", "properties": {"ref": "9199484", "@spider": "heron_foods", "shop": "supermarket", "addr:street_address": "15A Sheep Market, Spalding", "addr:city": "Lincolnshire", "addr:postcode": "PE11 1BE", "addr:country": "GB", "name": "Spalding", "website": "https://heronfoods.com/store/spalding/", "opening_hours": "Mo-Sa 08:00-19:00; Su 09:00-17:00", "brand": "Heron Foods", "brand:wikidata": "Q5743472", "nsi_id": "heronfoods-a8278b"}, "geometry": {"type": "Point", "coordinates": [-0.1539477, 52.7876154]}},
{"type": "Feature", "id": "WP2xEXOVVAdGegAz9uKQFM_n48w=", "properties": {"ref": "9199255", "@spider": "heron_foods", "shop": "supermarket", "addr:street_address": "Haymarket Centre, 13 Belgrave Gate", "addr:city": "Leicester", "addr:postcode": "LE1 3HP", "addr:country": "GB", "name": "Belgrave Gate", "website": "https://heronfoods.com/store/belgrave-gate/", "opening_hours": "Mo-Sa 08:00-19:00; Su 10:00-16:00", "brand": "Heron Foods", "brand:wikidata": "Q5743472", "nsi_id": "heronfoods-a8278b"}, "geometry": {"type": "Point", "coordinates": [-1.1313889, 52.63666670000001]}},
{"type": "Feature", "id": "ES9uhxnG8gzLoGE-8E4HCoFpPQA=", "properties": {"ref": "9199430", "@spider": "heron_foods", "shop": "supermarket", "addr:street_address": "125-125A Abbey Street", "addr:city": "Nuneaton", "addr:postcode": "CV11 5BZ", "addr:country": "GB", "name": "Nuneaton", "website": "https://heronfoods.com/store/nuneaton/", "opening_hours": "Mo-Sa 08:00-18:00; Su 09:00-16:30", "brand": "Heron Foods", "brand:wikidata": "Q5743472", "nsi_id": "heronfoods-a8278b"}, "geometry": {"type": "Point", "coordinates": [-1.4691189, 52.5236197]}},
{"type": "Feature", "id": "BfFd24iscdtW2lTs-u0254uWkfE=", "properties": {"ref": "9199366", "@spider": "heron_foods", "shop": "supermarket", "addr:street_address": "115 Hobs Moat Road, Sheldon", "addr:city": "Solihull", "addr:postcode": "B92 8JN", "addr:country": "GB", "name": "Hobs Moat", "website": "https://heronfoods.com/store/hobs-moat/", "opening_hours": "Mo-Sa 08:00-20:00; Su 10:00-16:00", "brand": "Heron Foods", "brand:wikidata": "Q5743472", "nsi_id": "heronfoods-a8278b"}, "geometry": {"type": "Point", "coordinates": [-1.7845477, 52.4448181]}},
{"type": "Feature", "id": "bBJVPzQ2wuSRWZFvKdbpua5IHus=", "properties": {"ref": "9199294", "@spider": "heron_foods", "shop": "supermarket", "addr:street_address": "Unit 58-60, Chelmsley Wood Shopping Centre", "addr:city": "Birmingham", "addr:postcode": "B37 5TS", "addr:country": "GB", "name": "Chelmsley Wood", "website": "https://heronfoods.com/store/chelmsley-wood/", "opening_hours": "Mo-Sa 08:00-18:00; Su 10:00-16:00", "brand": "Heron Foods", "brand:wikidata": "Q5743472", "nsi_id": "heronfoods-a8278b"}, "geometry": {"type": "Point", "coordinates": [-1.7393975, 52.479721]}},
{"type": "Feature", "id": "REWLdZ3bzwbbyLZJHqCczI_ziQk=", "properties": {"ref": "9201757", "@spider": "heron_foods", "shop": "supermarket", "addr:street_address": "1034 Yardley Wood Road", "addr:city": "Birmingham", "addr:postcode": "B14 4BW", "addr:country": "GB", "name": "Yardley Wood", "website": "https://heronfoods.com/store/yardley-wood/", "opening_hours": "Mo-Sa 08:00-20:00", "brand": "Heron Foods", "brand:wikidata": "Q5743472", "nsi_id": "heronfoods-a8278b"}, "geometry": {"type": "Point", "coordinates": [-1.8704314, 52.4145502]}},
{"type": "Feature", "id": "UnaisHPkcPDAZPMGE2Ix6fZxI5M=", "properties": {"ref": "9202744", "@spider": "heron_foods", "shop": "supermarket", "addr:street_address": "39 Burtons Way Smiths Wood, Solihull", "addr:city": "Birmingham", "addr:postcode": "B36 0UG", "addr:country": "GB", "name": "Smith Wood", "website": "https://heronfoods.com/store/smith-wood/", "opening_hours": "Mo-Su 08:00-20:00", "brand": "Heron Foods", "brand:wikidata": "Q5743472", "nsi_id": "heronfoods-a8278b"}, "geometry": {"type": "Point", "coordinates": [-1.7493534, 52.5037156]}},
{"type": "Feature", "id": "6Dl1u3wNIT9jlRFwz9QLcWhZU2M=", "properties": {"ref": "9199307", "@spider": "heron_foods", "shop": "supermarket", "addr:street_address": "26-28 Watford Road, Cotteridge", "addr:city": "Birmingham", "addr:postcode": "B30 1JA", "addr:country": "GB", "name": "Cotteridge", "website": "https://heronfoods.com/store/cotteridge/", "opening_hours": "Mo-Sa 08:00-20:00; Su 09:00-19:00", "brand": "Heron Foods", "brand:wikidata": "Q5743472", "nsi_id": "heronfoods-a8278b"}, "geometry": {"type": "Point", "coordinates": [-1.9303435, 52.4166415]}},
{"type": "Feature", "id": "_Jr7KoRFeQlnJj2Hfd8jR-4_Iqs=", "properties": {"ref": "9199429", "@spider": "heron_foods", "shop": "supermarket", "addr:street_address": "727a Bristol Road South", "addr:city": "Northfield", "addr:postcode": "B31 2NG", "addr:country": "GB", "name": "Northfield", "website": "https://heronfoods.com/store/northfield/", "opening_hours": "Mo-Sa 08:00-19:00; Su 09:00-17:00", "brand": "Heron Foods", "brand:wikidata": "Q5743472", "nsi_id": "heronfoods-a8278b"}, "geometry": {"type": "Point", "coordinates": [-1.9703527, 52.4163279]}},
{"type": "Feature", "id": "X6o6_3j8zMuk8rhhFGf8AFhB1MU=", "properties": {"ref": "9199331", "@spider": "heron_foods", "shop": "supermarket", "addr:street_address": "146 High Street, Erdington", "addr:city": "Birmingham", "addr:postcode": "B23 6SJ", "addr:country": "GB", "name": "Erdington", "website": "https://heronfoods.com/store/erdington/", "opening_hours": "Mo-Sa 08:00-18:00; Su 10:00-16:00", "brand": "Heron Foods", "brand:wikidata": "Q5743472", "nsi_id": "heronfoods-a8278b"}, "geometry": {"type": "Point", "coordinates": [-1.8389301, 52.5237859]}},
{"type": "Feature", "id": "71_ofztfjEyDT2wEBAH4BPHoFqg=", "properties": {"ref": "9199512", "@spider": "heron_foods", "shop": "supermarket", "addr:street_address": "146-150 Castle Square", "addr:city": "Birmingham", "addr:postcode": "B29 5QL", "addr:country": "GB", "name": "Weoley Castle", "website": "https://heronfoods.com/store/weoley-castle/", "opening_hours": "Mo-Sa 08:00-20:00; Su 10:00-16:00", "brand": "Heron Foods", "brand:wikidata": "Q5743472", "nsi_id": "heronfoods-a8278b"}, "geometry": {"type": "Point", "coordinates": [-1.9704046, 52.4371634]}},
{"type": "Feature", "id": "d_Gfbe1gToreqBIfmwQcPGbyKkA=", "properties": {"ref": "9199273", "@spider": "heron_foods", "shop": "supermarket", "addr:street_address": "26A Wide Bargate", "addr:city": "Boston", "addr:postcode": "PE21 6RX", "addr:country": "GB", "name": "Boston", "website": "https://heronfoods.com/store/boston/", "opening_hours": "Mo-Sa 08:00-18:00; Su 09:00-17:00", "brand": "Heron Foods", "brand:wikidata": "Q5743472", "nsi_id": "heronfoods-a8278b"}, "geometry": {"type": "Point", "coordinates": [-0.0212311, 52.9803576]}},
{"type": "Feature", "id": "wwR-GVqnyk0fpUkbax6khdCZn5o=", "properties": {"ref": "9199443", "@spider": "heron_foods", "shop": "supermarket", "addr:street_address": "Unit 93 One Stop Shopping Centre, Walsall Road", "addr:city": "Birmingham", "addr:postcode": "B42 1AA", "addr:country": "GB", "name": "Perry Bar", "website": "https://heronfoods.com/store/perry-bar/", "opening_hours": "Mo-Sa 08:00-19:00", "brand": "Heron Foods", "brand:wikidata": "Q5743472", "nsi_id": "heronfoods-a8278b"}, "geometry": {"type": "Point", "coordinates": [-1.9030166, 52.518186]}},
{"type": "Feature", "id": "uj41B1PrfEL4KVBSs9gz14BOJZA=", "properties": {"ref": "9199385", "@spider": "heron_foods", "shop": "supermarket", "addr:street_address": "232-234 Hawthorn Road, Kingstanding", "addr:city": "Birmingham", "addr:postcode": "B44 8PT", "addr:country": "GB", "name": "Kingstanding", "website": "https://heronfoods.com/store/kingstanding/", "opening_hours": "Mo-Su 08:00-20:00", "brand": "Heron Foods", "brand:wikidata": "Q5743472", "nsi_id": "heronfoods-a8278b"}, "geometry": {"type": "Point", "coordinates": [-1.8847702, 52.5418107]}},
{"type": "Feature", "id": "gkifl5yiq7RZne67Qgb5pCNZCbY=", "properties": {"ref": "9201610", "@spider": "heron_foods", "shop": "supermarket", "addr:street_address": "134 Pottery Road", "addr:city": "Oldbury", "addr:country": "GB", "name": "Oldbury", "website": "https://heronfoods.com/store/oldbury/", "opening_hours": "Mo-Sa 08:00-19:00; Su 09:00-17:00", "brand": "Heron Foods", "brand:wikidata": "Q5743472", "nsi_id": "heronfoods-a8278b"}, "geometry": {"type": "Point", "coordinates": [-1.992153, 52.4745099]}},
{"type": "Feature", "id": "2nhFqrHgs9WR9PZZnPdxD9kvyYU=", "properties": {"ref": "9201753", "@spider": "heron_foods", "shop": "supermarket", "addr:street_address": "Unit 1 The Precinct Candleby Lane", "addr:city": "Cotgrave", "addr:postcode": "NG12 7AR", "addr:country": "GB", "name": "Cotgrave", "website": "https://heronfoods.com/store/cotgrave/", "opening_hours": "Mo-Sa 08:00-20:00", "brand": "Heron Foods", "brand:wikidata": "Q5743472", "nsi_id": "heronfoods-a8278b"}, "geometry": {"type": "Point", "coordinates": [-1.041255, 52.911411]}},
{"type": "Feature", "id": "OwHcGlIshZoKaBuB-0ZkKU9dZm0=", "properties": {"ref": "9199352", "@spider": "heron_foods", "shop": "supermarket", "addr:street_address": "59-61 Queensway, Cornbow Shopping Centre, Halesowen", "addr:city": "Birmingham", "addr:postcode": "B63 4AB", "addr:country": "GB", "name": "Halesowen", "website": "https://heronfoods.com/store/halesowen/", "opening_hours": "Mo-Sa 08:00-18:00", "brand": "Heron Foods", "brand:wikidata": "Q5743472", "nsi_id": "heronfoods-a8278b"}, "geometry": {"type": "Point", "coordinates": [-2.052197, 52.4488287]}},
{"type": "Feature", "id": "kBNBwnvOuExHm8DGszDzHxDN9WA=", "properties": {"ref": "9199268", "@spider": "heron_foods", "shop": "supermarket", "addr:street_address": "168-169 High Street, Rowley Regis", "addr:city": "Blackheath", "addr:postcode": "B65 0DX", "addr:country": "GB", "name": "Blackheath", "website": "https://heronfoods.com/store/blackheath/", "opening_hours": "Mo-Sa 08:00-18:00; Su 09:00-17:00", "brand": "Heron Foods", "brand:wikidata": "Q5743472", "nsi_id": "heronfoods-a8278b"}, "geometry": {"type": "Point", "coordinates": [-2.0406037, 52.4758237]}},
{"type": "Feature", "id": "bAot_KjhEdDiq7aGHHGqa-NWdP0=", "properties": {"ref": "9199513", "@spider": "heron_foods", "shop": "supermarket", "addr:street_address": "191-193 Princess Parade, High Street", "addr:city": "West Bromwich", "addr:postcode": "B70 7RD", "addr:country": "GB", "name": "West Brom", "website": "https://heronfoods.com/store/west-brom/", "opening_hours": "Mo-Sa 08:00-18:00; Su 10:00-16:00", "brand": "Heron Foods", "brand:wikidata": "Q5743472", "nsi_id": "heronfoods-a8278b"}, "geometry": {"type": "Point", "coordinates": [-1.9914205, 52.5174438]}},
{"type": "Feature", "id": "pBbcBmjHwrqVITb9wHFucqNJb0s=", "properties": {"ref": "9199300", "@spider": "heron_foods", "shop": "supermarket", "addr:street_address": "194\u2010198 Southchurch Drive, Clifton", "addr:city": "Nottingham", "addr:postcode": "NG11 8AA", "addr:country": "GB", "name": "Clifton", "website": "https://heronfoods.com/store/clifton/", "opening_hours": "Mo-Sa 08:00-20:00; Su 10:00-16:00", "brand": "Heron Foods", "brand:wikidata": "Q5743472", "nsi_id": "heronfoods-a8278b"}, "geometry": {"type": "Point", "coordinates": [-1.1776686, 52.9032867]}},
{"type": "Feature", "id": "aHTErHgsgz0DkcGMYCB-dy1PMVs=", "properties": {"ref": "9203621", "@spider": "heron_foods", "shop": "supermarket", "addr:street_address": "102-106 East Street Bedminster", "addr:city": "Bristol", "addr:postcode": "BS3 4EY", "addr:country": "GB", "name": "Bedminster", "website": "https://heronfoods.com/store/bedminster/", "opening_hours": "Mo-Sa 08:00-18:00; Su 10:00-16:00", "brand": "Heron Foods", "brand:wikidata": "Q5743472", "nsi_id": "heronfoods-a8278b"}, "geometry": {"type": "Point", "coordinates": [-2.5984387, 51.441679]}},
{"type": "Feature", "id": "UlwLMvHvRfcmlWRFigjbovD7lAU=", "properties": {"ref": "9199349", "@spider": "heron_foods", "shop": "supermarket", "addr:street_address": "34-38 Great Bridge", "addr:city": "Tipton", "addr:postcode": "DY4 7EW", "addr:country": "GB", "name": "Great Bridge", "website": "https://heronfoods.com/store/great-bridge/", "opening_hours": "Mo-Sa 08:00-19:00; Su 09:00-17:00", "brand": "Heron Foods", "brand:wikidata": "Q5743472", "nsi_id": "heronfoods-a8278b"}, "geometry": {"type": "Point", "coordinates": [-2.0330053, 52.5299685]}},
{"type": "Feature", "id": "tF5rLYp2wNE_qM-EWydw9EXCeq0=", "properties": {"ref": "9199508", "@spider": "heron_foods", "shop": "supermarket", "addr:street_address": "Unit 4, 19 Union Street, Wednesbury", "addr:city": "West Midlands", "addr:postcode": "WS10 7HD", "addr:country": "GB", "name": "Wednesbury", "website": "https://heronfoods.com/store/wednesbury/", "opening_hours": "Mo-Sa 08:00-18:00; Su 10:00-16:00", "brand": "Heron Foods", "brand:wikidata": "Q5743472", "nsi_id": "heronfoods-a8278b"}, "geometry": {"type": "Point", "coordinates": [-2.0205815, 52.5526394]}},
{"type": "Feature", "id": "11cDwmPIK9DGDNBdC5EV9g0H_78=", "properties": {"ref": "9199491", "@spider": "heron_foods", "shop": "convenience", "addr:street_address": "43 High Street", "addr:city": "Stourport-On-Severn", "addr:postcode": "DY13 8BU", "addr:country": "GB", "name": "Stourport", "website": "https://heronfoods.com/store/stourport-bm-express/", "opening_hours": "Mo-Sa 08:00-19:00; Su 10:00-16:00", "brand": "B&M Express", "brand:wikidata": "Q99640578", "nsi_id": "bandmexpress-232829"}, "geometry": {"type": "Point", "coordinates": [-2.2790995, 52.3401116]}},
{"type": "Feature", "id": "SsHDOesBNITpXbnV_CT_luIKSJI=", "properties": {"ref": "9199320", "@spider": "heron_foods", "shop": "supermarket", "addr:street_address": "246-248 Castle Street", "addr:city": "Dudley", "addr:postcode": "DY1 1LQ", "addr:country": "GB", "name": "Dudley", "website": "https://heronfoods.com/store/dudley/", "opening_hours": "Mo-Sa 08:00-18:00; Su 10:00-16:00", "brand": "Heron Foods", "brand:wikidata": "Q5743472", "nsi_id": "heronfoods-a8278b"}, "geometry": {"type": "Point", "coordinates": [-2.0816436, 52.5112607]}},
{"type": "Feature", "id": "5D-IQgxsXvPvq3XdmFO3v6vk2DA=", "properties": {"ref": "9203189", "@spider": "heron_foods", "shop": "supermarket", "addr:street_address": "46-48 Blenhelm Drive Beeston", "addr:city": "Nottingham", "addr:postcode": "NG9 5ES", "addr:country": "GB", "name": "Chilwell", "website": "https://heronfoods.com/store/chiwell/", "opening_hours": "Mo-Su 08:00-20:00", "brand": "Heron Foods", "brand:wikidata": "Q5743472", "nsi_id": "heronfoods-a8278b"}, "geometry": {"type": "Point", "coordinates": [-1.2406589, 52.9196754]}},
{"type": "Feature", "id": "ZAzG4G5AOq0ON-zCja8jQhkep1o=", "properties": {"ref": "9199503", "@spider": "heron_foods", "shop": "supermarket", "addr:street_address": "2-4 Bradford Mall, Saddlers Shopping Centre", "addr:city": "Walsall", "addr:postcode": "WS1 1YT", "addr:country": "GB", "name": "Walsall", "website": "https://heronfoods.com/store/walsall/", "opening_hours": "Mo-Sa 07:00-18:00; Su 09:00-17:00", "brand": "Heron Foods", "brand:wikidata": "Q5743472", "nsi_id": "heronfoods-a8278b"}, "geometry": {"type": "Point", "coordinates": [-1.9840962, 52.58412329999999]}},
{"type": "Feature", "id": "5WYQHhm7eA6BCh1Njd66xz8JRDw=", "properties": {"ref": "9199446", "@spider": "heron_foods", "shop": "supermarket", "addr:street_address": "245 St Marks Road, Princes End", "addr:city": "Tipton", "addr:postcode": "DY4 0SZ", "addr:country": "GB", "name": "Princes End", "website": "https://heronfoods.com/store/princes-end/", "opening_hours": "Mo-Sa 08:00-19:00; Su 09:00-18:00", "brand": "Heron Foods", "brand:wikidata": "Q5743472", "nsi_id": "heronfoods-a8278b"}, "geometry": {"type": "Point", "coordinates": [-2.0581367, 52.5409593]}},
{"type": "Feature", "id": "a-Bb34HPcqd5x6jSI5532cc3MJM=", "properties": {"ref": "9199485", "@spider": "heron_foods", "shop": "supermarket", "addr:street_address": "387-389 St Anns Well Road", "addr:city": "Nottingham", "addr:postcode": "NG3 3JL", "addr:country": "GB", "name": "St Ann's", "website": "https://heronfoods.com/store/st-anns/", "opening_hours": "Mo-Su 08:00-20:00", "brand": "Heron Foods", "brand:wikidata": "Q5743472", "nsi_id": "heronfoods-a8278b"}, "geometry": {"type": "Point", "coordinates": [-1.1346387, 52.9631054]}},
{"type": "Feature", "id": "hlYWh7k3ji8_PPqQHK2KCBzOElY=", "properties": {"ref": "9199315", "@spider": "heron_foods", "shop": "supermarket", "addr:street_address": "54/56 Kings Street", "addr:city": "Darlaston", "addr:postcode": "WS10 8DE", "addr:country": "GB", "name": "Darlaston", "website": "https://heronfoods.com/store/darlaston/", "opening_hours": "Mo-Sa 08:00-18:00; Su 10:00-16:00", "brand": "Heron Foods", "brand:wikidata": "Q5743472", "nsi_id": "heronfoods-a8278b"}, "geometry": {"type": "Point", "coordinates": [-2.0347601, 52.5678692]}},
{"type": "Feature", "id": "EX_rKVGt0WyVGl55rWUfGI7Jths=", "properties": {"ref": "9199474", "@spider": "heron_foods", "shop": "supermarket", "addr:street_address": "36 High Street, Shirehampton", "addr:city": "Bristol", "addr:postcode": "BS11 0DJ", "addr:country": "GB", "name": "Shirehampton", "website": "https://heronfoods.com/store/shirehampton/", "opening_hours": "Mo-Sa 08:00-20:00", "brand": "Heron Foods", "brand:wikidata": "Q5743472", "nsi_id": "heronfoods-a8278b"}, "geometry": {"type": "Point", "coordinates": [-2.6763394, 51.4895352]}},
{"type": "Feature", "id": "pc1nbV4VQSRGXJFk4_ISZB_mD0E=", "properties": {"ref": "9199306", "@spider": "heron_foods", "shop": "supermarket", "addr:street_address": "Unit 19, Roseville Shopping Centre, 48 Castle Street", "addr:city": "Coseley", "addr:postcode": "WV14 9EP", "addr:country": "GB", "name": "Coseley", "website": "https://heronfoods.com/store/coseley/", "opening_hours": "Mo-Sa 08:00-19:00; Su 10:00-16:00", "brand": "Heron Foods", "brand:wikidata": "Q5743472", "nsi_id": "heronfoods-a8278b"}, "geometry": {"type": "Point", "coordinates": [-2.087706, 52.540656]}},
{"type": "Feature", "id": "_5G7c5Wzi_4IUkEf184jNOGayJY=", "properties": {"ref": "9200628", "@spider": "heron_foods", "shop": "supermarket", "addr:street_address": "New Inn Blakenall Lane", "addr:city": "Walsall", "addr:postcode": "WS3 1HU", "addr:country": "GB", "name": "Blakenhall", "website": "https://heronfoods.com/store/blakenhall/", "opening_hours": "Mo-Sa 08:00-19:00; Su 10:00-16:00", "brand": "Heron Foods", "brand:wikidata": "Q5743472", "nsi_id": "heronfoods-a8278b"}, "geometry": {"type": "Point", "coordinates": [-1.9906673, 52.6130478]}},
{"type": "Feature", "id": "jPDrImGYsbAvR_WAGim8d504cNM=", "properties": {"ref": "9199387", "@spider": "heron_foods", "shop": "supermarket", "addr:street_address": "39/41 Market Street", "addr:city": "Kingswinford", "addr:postcode": "DY6 9JY", "addr:country": "GB", "name": "Kingswinford", "website": "https://heronfoods.com/store/kingswinford/", "opening_hours": "Mo-Sa 08:00-20:00", "brand": "Heron Foods", "brand:wikidata": "Q5743472", "nsi_id": "heronfoods-a8278b"}, "geometry": {"type": "Point", "coordinates": [-2.1677715, 52.49623649999999]}},
{"type": "Feature", "id": "Qj_sitmdhTX8nVYHQvefUVvmfvw=", "properties": {"ref": "9199262", "@spider": "heron_foods", "shop": "supermarket", "addr:street_address": "108-110 Church Street", "addr:city": "Bilston", "addr:postcode": "WV14 OBJ", "addr:country": "GB", "name": "Bilston", "website": "https://heronfoods.com/store/bilston/", "opening_hours": "Mo-Sa 08:00-18:00; Su 10:00-16:00", "brand": "Heron Foods", "brand:wikidata": "Q5743472", "nsi_id": "heronfoods-a8278b"}, "geometry": {"type": "Point", "coordinates": [-2.0780568, 52.5651156]}},
{"type": "Feature", "id": "ZPZl8Z21xoskD09JO1bMKgqBhus=", "properties": {"ref": "9199522", "@spider": "heron_foods", "shop": "supermarket", "addr:street_address": "19 & 20 Stafford Street", "addr:city": "Willenhall", "addr:postcode": "WV13 1TG", "addr:country": "GB", "name": "Willenhall", "website": "https://heronfoods.com/store/willenhall/", "opening_hours": "Mo-Sa 08:00-18:00; Su 10:00-16:00", "brand": "Heron Foods", "brand:wikidata": "Q5743472", "nsi_id": "heronfoods-a8278b"}, "geometry": {"type": "Point", "coordinates": [-2.0561055, 52.5855624]}},
{"type": "Feature", "id": "-ql7CRZP9YnjrnWkZnOjcBc8GZg=", "properties": {"ref": "9202172", "@spider": "heron_foods", "shop": "supermarket", "addr:street_address": "840 Osmaston Rd Allenton", "addr:city": "Derby", "addr:postcode": "DE24 9AB", "addr:country": "GB", "name": "Osmaston Road", "website": "https://heronfoods.com/store/ormaston-road/", "opening_hours": "Mo-Sa 08:00-21:00; Su 10:00-16:00", "brand": "Heron Foods", "brand:wikidata": "Q5743472", "nsi_id": "heronfoods-a8278b"}, "geometry": {"type": "Point", "coordinates": [-1.4523256, 52.8901159]}},
{"type": "Feature", "id": "23TCp0gX9Tw6E4ECmUqXRn4r-pg=", "properties": {"ref": "9199248", "@spider": "heron_foods", "shop": "supermarket", "addr:street_address": "362 Melbourne Road, Aspley", "addr:city": "Nottingham", "addr:postcode": "NG8 5GB", "addr:country": "GB", "name": "Aspley", "website": "https://heronfoods.com/store/aspley/", "opening_hours": "Mo-Sa 08:00-20:00; Su 09:00-17:00", "brand": "Heron Foods", "brand:wikidata": "Q5743472", "nsi_id": "heronfoods-a8278b"}, "geometry": {"type": "Point", "coordinates": [-1.1975689, 52.9711009]}},
{"type": "Feature", "id": "JZMmjieCKcGGszxSD206Sl-f51Q=", "properties": {"ref": "9199260", "@spider": "heron_foods", "shop": "supermarket", "addr:street_address": "63 Bracebridge Drive, Bilborough", "addr:city": "Nottingham", "addr:postcode": "NG8 4PH", "addr:country": "GB", "name": "Bilborough", "website": "https://heronfoods.com/store/bilborough/", "opening_hours": "Mo-Sa 08:00-21:00; Su 10:00-16:00", "brand": "Heron Foods", "brand:wikidata": "Q5743472", "nsi_id": "heronfoods-a8278b"}, "geometry": {"type": "Point", "coordinates": [-1.2274673, 52.9648765]}},
{"type": "Feature", "id": "ozC9cjIXsUP25_NNDL05kLwgp70=", "properties": {"ref": "9199419", "@spider": "heron_foods", "shop": "supermarket", "addr:street_address": "Cardinals Hat, Jersey Street", "addr:city": "Newark", "addr:postcode": "NG24 4NE", "addr:country": "GB", "name": "Newark", "website": "https://heronfoods.com/store/newark/", "opening_hours": "Mo-Su 08:00-20:00", "brand": "Heron Foods", "brand:wikidata": "Q5743472", "nsi_id": "heronfoods-a8278b"}, "geometry": {"type": "Point", "coordinates": [-0.8159099, 53.061791]}},
{"type": "Feature", "id": "-OX_w4iD6lQAmfZd6l-QqMLR3KQ=", "properties": {"ref": "9199282", "@spider": "heron_foods", "shop": "supermarket", "addr:street_address": "Unit 1a Cannock Road, Chase Terrace, The Burntwood Shop Centre", "addr:city": "Burntwood", "addr:postcode": "WS7 1JR", "addr:country": "GB", "name": "Burntwood", "website": "https://heronfoods.com/store/burntwood/", "opening_hours": "Mo-Sa 08:00-20:00; Su 10:00-16:00", "brand": "Heron Foods", "brand:wikidata": "Q5743472", "nsi_id": "heronfoods-a8278b"}, "geometry": {"type": "Point", "coordinates": [-1.9345965, 52.6822848]}},
{"type": "Feature", "id": "xJuEYkRO9tZOgvb06-XAMSyfxnU=", "properties": {"ref": "9199509", "@spider": "heron_foods", "shop": "supermarket", "addr:street_address": "6 High Street", "addr:city": "Wednesfield", "addr:postcode": "WV11 1SZ", "addr:country": "GB", "name": "Wednesfield", "website": "https://heronfoods.com/store/wednesfield/", "opening_hours": "Mo-Sa 08:00-20:00; Su 10:00-16:00", "brand": "Heron Foods", "brand:wikidata": "Q5743472", "nsi_id": "heronfoods-a8278b"}, "geometry": {"type": "Point", "coordinates": [-2.0831525, 52.5991419]}},
{"type": "Feature", "id": "rM-qCi3pwrqGm48jCprpop4MbbY=", "properties": {"ref": "9199280", "@spider": "heron_foods", "shop": "supermarket", "addr:street_address": "77/79 Main Street", "addr:city": "Bulwell", "addr:postcode": "NG6 8QD", "addr:country": "GB", "name": "Bulwell", "website": "https://heronfoods.com/store/bulwell/", "opening_hours": "Mo-Sa 08:00-18:00; Su 09:00-17:00", "brand": "Heron Foods", "brand:wikidata": "Q5743472", "nsi_id": "heronfoods-a8278b"}, "geometry": {"type": "Point", "coordinates": [-1.1972287, 53.0005007]}},
{"type": "Feature", "id": "RxV-QK227rxBJNDt-0q_qNpMc7w=", "properties": {"ref": "9199457", "@spider": "heron_foods", "shop": "supermarket", "addr:street_address": "17 Bestwood Park Drive West", "addr:city": "Notts", "addr:postcode": "NG5 5EJ", "addr:country": "GB", "name": "Rise Park", "website": "https://heronfoods.com/store/rise-park/", "opening_hours": "Mo-Sa 08:00-20:00", "brand": "Heron Foods", "brand:wikidata": "Q5743472", "nsi_id": "heronfoods-a8278b"}, "geometry": {"type": "Point", "coordinates": [-1.1730358, 53.0100034]}},
{"type": "Feature", "id": "gETHARY1mqFe3gRbm9S080ZpjoQ=", "properties": {"ref": "9199374", "@spider": "heron_foods", "shop": "supermarket", "addr:street_address": "68-70 Bath Street", "addr:city": "Ilkeston", "addr:postcode": "DE7 8FE", "addr:country": "GB", "name": "Ilkeston", "website": "https://heronfoods.com/store/ilkeston/", "opening_hours": "Mo-Sa 08:00-18:00; Su 10:00-16:00", "brand": "Heron Foods", "brand:wikidata": "Q5743472", "nsi_id": "heronfoods-a8278b"}, "geometry": {"type": "Point", "coordinates": [-1.3085619, 52.974296]}},
{"type": "Feature", "id": "21nTIo5XPgu3i8yBjfRZRGIr2iA=", "properties": {"ref": "9199291", "@spider": "heron_foods", "shop": "supermarket", "addr:street_address": "Wiltshire Road", "addr:city": "Derby", "addr:postcode": "DE21 6EZ", "addr:country": "GB", "name": "Chaddesden", "website": "https://heronfoods.com/store/chaddesden/", "opening_hours": "Mo-Sa 08:00-20:00; Su 09:00-17:00", "brand": "Heron Foods", "brand:wikidata": "Q5743472", "nsi_id": "heronfoods-a8278b"}, "geometry": {"type": "Point", "coordinates": [-1.4507719, 52.9306938]}},
{"type": "Feature", "id": "9FvZIET6dZqI4EWevX_Hsecfz6I=", "properties": {"ref": "9199332", "@spider": "heron_foods", "shop": "supermarket", "addr:street_address": "5 Raynor Parade, Fallings Park", "addr:city": "Wolverhampton", "addr:postcode": "WV10 9QY", "addr:country": "GB", "name": "Fallings Park", "website": "https://heronfoods.com/store/fallings-park/", "opening_hours": "Mo-Sa 08:00-20:00", "brand": "Heron Foods", "brand:wikidata": "Q5743472", "nsi_id": "heronfoods-a8278b"}, "geometry": {"type": "Point", "coordinates": [-2.1057544, 52.6048536]}},
{"type": "Feature", "id": "VcoQt48gkB-wPllpNCPrIEZmPEY=", "properties": {"ref": "9199384", "@spider": "heron_foods", "shop": "supermarket", "addr:street_address": "Unit 3, Greens Lane, Kimberley Shopping Centre", "addr:city": "Nottingham", "addr:postcode": "NG16 2PD", "addr:country": "GB", "name": "Kimberley", "website": "https://heronfoods.com/store/kimberley/", "opening_hours": "Mo-Sa 08:00-19:00; Su 09:00-18:00", "brand": "Heron Foods", "brand:wikidata": "Q5743472", "nsi_id": "heronfoods-a8278b"}, "geometry": {"type": "Point", "coordinates": [-1.2563986, 52.9962648]}},
{"type": "Feature", "id": "H6NoQWNRrVlRjQFkQsoYfQUKtRU=", "properties": {"ref": "9201606", "@spider": "heron_foods", "shop": "supermarket", "addr:street_address": "Marsh Lane Parade Stafford Road", "addr:city": "Wolverhampton", "addr:postcode": "WV10 6RT", "addr:country": "GB", "name": "Marsh Lane", "website": "https://heronfoods.com/store/marsh-lane/", "opening_hours": "Mo-Sa 08:00-19:00", "brand": "Heron Foods", "brand:wikidata": "Q5743472", "nsi_id": "heronfoods-a8278b"}, "geometry": {"type": "Point", "coordinates": [-2.1303706, 52.62109]}},
{"type": "Feature", "id": "5HESuV8i-7rrg9LzB7MOYnXm1Ug=", "properties": {"ref": "9201743", "@spider": "heron_foods", "shop": "supermarket", "addr:street_address": "43-45 Lumley Road", "addr:city": "Skegness", "addr:postcode": "PE25 3LL", "addr:country": "GB", "name": "Lumley Road", "website": "https://heronfoods.com/store/lumley-road/", "opening_hours": "Mo-Sa 08:00-20:00; Su 09:00-17:00", "brand": "Heron Foods", "brand:wikidata": "Q5743472", "nsi_id": "heronfoods-a8278b"}, "geometry": {"type": "Point", "coordinates": [0.3385054, 53.1434206]}},
{"type": "Feature", "id": "SdqCdVrNW0vFnu9lV62Be-BiVY4=", "properties": {"ref": "9200632", "@spider": "heron_foods", "shop": "supermarket", "addr:street_address": "The Red Piper Pye Green Road", "addr:city": "Cannock", "addr:postcode": "WS11 5RY", "addr:country": "GB", "name": "Cannock", "website": "https://heronfoods.com/store/cannock/", "opening_hours": "Mo-Sa 08:00-20:00; Su 09:00-17:00", "brand": "Heron Foods", "brand:wikidata": "Q5743472", "nsi_id": "heronfoods-a8278b"}, "geometry": {"type": "Point", "coordinates": [-2.0303196, 52.6970478]}},
{"type": "Feature", "id": "NPAkwk0WCZM-2eHMCtQ8_qgmhAI=", "properties": {"ref": "9199326", "@spider": "heron_foods", "shop": "supermarket", "addr:street_address": "101 Nottingham Road, Eastwood", "addr:city": "Nottingham", "addr:postcode": "NG16 3AF", "addr:country": "GB", "name": "Eastwood", "website": "https://heronfoods.com/store/eastwood/", "opening_hours": "Mo-Sa 08:00-18:00; Su 10:00-16:00", "brand": "Heron Foods", "brand:wikidata": "Q5743472", "nsi_id": "heronfoods-a8278b"}, "geometry": {"type": "Point", "coordinates": [-1.302458, 53.0175603]}},
{"type": "Feature", "id": "Q8ihpUU4O90sbWvK2qUF6In8zu8=", "properties": {"ref": "9199368", "@spider": "heron_foods", "shop": "supermarket", "addr:street_address": "1 Market Place", "addr:city": "Horncastle", "addr:postcode": "LN9 5HD", "addr:country": "GB", "name": "Horncastle", "website": "https://heronfoods.com/store/horncastle/", "opening_hours": "Mo-Sa 08:00-20:00; Su 09:00-17:00", "brand": "Heron Foods", "brand:wikidata": "Q5743472", "nsi_id": "heronfoods-a8278b"}, "geometry": {"type": "Point", "coordinates": [-0.1173772, 53.2085245]}},
{"type": "Feature", "id": "Ft2o-8YOJgPupt21JVY1u0-SAtY=", "properties": {"ref": "9199376", "@spider": "heron_foods", "shop": "supermarket", "addr:street_address": "Red Arcade Sea Lane", "addr:city": "Ingoldmells", "addr:postcode": "PE25 1NU", "addr:country": "GB", "name": "Ingoldmells", "website": "https://heronfoods.com/store/ingoldmells/", "opening_hours": "Mo-Sa 08:00-20:00; Su 10:00-16:00", "brand": "Heron Foods", "brand:wikidata": "Q5743472", "nsi_id": "heronfoods-a8278b"}, "geometry": {"type": "Point", "coordinates": [0.3509428, 53.1927938]}},
{"type": "Feature", "id": "84fZndMlwp6mDE6rTlUpo58BVTA=", "properties": {"ref": "9199392", "@spider": "heron_foods", "shop": "supermarket", "addr:street_address": "16 Cornhill", "addr:city": "Lincoln", "addr:postcode": "LN5 7HB", "addr:country": "GB", "name": "Lincoln", "website": "https://heronfoods.com/store/lincoln/", "opening_hours": "Mo-Sa 08:00-19:00; Su 10:00-17:00", "brand": "Heron Foods", "brand:wikidata": "Q5743472", "nsi_id": "heronfoods-a8278b"}, "geometry": {"type": "Point", "coordinates": [-0.5400182, 53.2272235]}},
{"type": "Feature", "id": "3RMwu9CYcOwAxNOQkFju4e9q-fg=", "properties": {"ref": "9203657", "@spider": "heron_foods", "shop": "supermarket", "addr:street_address": "136 Greenhill Lane Riddings", "addr:postcode": "DE55 4EX", "addr:country": "GB", "name": "Greenhill Lane", "website": "https://heronfoods.com/store/greenhill-lane/", "opening_hours": "Mo-Sa 08:00-20:00; Su 10:00-16:00", "brand": "Heron Foods", "brand:wikidata": "Q5743472", "nsi_id": "heronfoods-a8278b"}, "geometry": {"type": "Point", "coordinates": [-1.3703954, 53.071488]}},
{"type": "Feature", "id": "2gKmXOB7OpK__t8Pon4y2MlKzo4=", "properties": {"ref": "9199493", "@spider": "heron_foods", "shop": "supermarket", "addr:street_address": "Unit 18, Idlewells Centre", "addr:city": "Sutton In Ashfield", "addr:postcode": "NG17 0BL", "addr:country": "GB", "name": "Sutton In Ashfield", "website": "https://heronfoods.com/store/sutton-in-ashfield/", "opening_hours": "Mo-Sa 08:00-18:00; Su 10:00-16:00", "brand": "Heron Foods", "brand:wikidata": "Q5743472", "nsi_id": "heronfoods-a8278b"}, "geometry": {"type": "Point", "coordinates": [-1.2625341, 53.1252466]}},
{"type": "Feature", "id": "wV7jeA_f7LZdvW7K9cE4lAUfYrU=", "properties": {"ref": "9199480", "@spider": "heron_foods", "shop": "supermarket", "addr:street_address": "128 Market Street", "addr:city": "South Normanton", "addr:postcode": "DE55 2EJ", "addr:country": "GB", "name": "South Normanton", "website": "https://heronfoods.com/store/south-normanton/", "opening_hours": "Mo-Su 08:00-21:00", "brand": "Heron Foods", "brand:wikidata": "Q5743472", "nsi_id": "heronfoods-a8278b"}, "geometry": {"type": "Point", "coordinates": [-1.3419795, 53.1056669]}},
{"type": "Feature", "id": "WxtNWKpdLM-_GQfQjjPGwv1ur-8=", "properties": {"ref": "9199403", "@spider": "heron_foods", "shop": "supermarket", "addr:street_address": "38 Westgate", "addr:city": "Mansfield", "addr:postcode": "NG18 1RS", "addr:country": "GB", "name": "Mansfield", "website": "https://heronfoods.com/store/mansfield/", "opening_hours": "Mo-Sa 08:00-18:00; Su 10:00-17:00", "brand": "Heron Foods", "brand:wikidata": "Q5743472", "nsi_id": "heronfoods-a8278b"}, "geometry": {"type": "Point", "coordinates": [-1.1980928, 53.1457542]}},
{"type": "Feature", "id": "tqEAolQKmYbEhYaCHsm5PnhTius=", "properties": {"ref": "9199389", "@spider": "heron_foods", "shop": "supermarket", "addr:street_address": "Ladybrook PH, Ladybrook Lane", "addr:city": "Mansfield", "addr:postcode": "NG18 5JJ", "addr:country": "GB", "name": "Ladybrook", "website": "https://heronfoods.com/store/ladybrook/", "opening_hours": "Mo-Sa 08:00-20:00; Su 09:00-17:00", "brand": "Heron Foods", "brand:wikidata": "Q5743472", "nsi_id": "heronfoods-a8278b"}, "geometry": {"type": "Point", "coordinates": [-1.2182249, 53.1453885]}},
{"type": "Feature", "id": "pjr9xFZ233i3j6pwo8clIuAQ2Vk=", "properties": {"ref": "9199418", "@spider": "heron_foods", "shop": "supermarket", "addr:street_address": "Unit 2, Forest Road, New Ollerton", "addr:city": "Nottingham", "addr:postcode": "NG22 9PL", "addr:country": "GB", "name": "New Ollerton", "website": "https://heronfoods.com/store/new-ollerton/", "opening_hours": "Mo-Sa 08:00-20:00; Su 08:00-18:00", "brand": "Heron Foods", "brand:wikidata": "Q5743472", "nsi_id": "heronfoods-a8278b"}, "geometry": {"type": "Point", "coordinates": [-1.0024876, 53.2043713]}},
{"type": "Feature", "id": "6BDSTzgre-zGyYiBfTEloWCN3LI=", "properties": {"ref": "9199399", "@spider": "heron_foods", "shop": "supermarket", "addr:street_address": "Cardiff Road, Maes Glas", "addr:city": "Newport", "addr:postcode": "NP20 3AG", "addr:country": "GB", "name": "Maes Glas", "website": "https://heronfoods.com/store/maes-glas/", "opening_hours": "Mo-Sa 08:00-20:00; Su 09:00-17:00", "brand": "Heron Foods", "brand:wikidata": "Q5743472", "nsi_id": "heronfoods-a8278b"}, "geometry": {"type": "Point", "coordinates": [-3.0074201, 51.5757614]}},
{"type": "Feature", "id": "y_ngEgChfnIpDJd5Dpe4cqs93pk=", "properties": {"ref": "9199314", "@spider": "heron_foods", "shop": "supermarket", "addr:street_address": "27 North Walk", "addr:city": "Cwmbran", "addr:postcode": "NP44 1PB", "addr:country": "GB", "name": "Cwmbran", "website": "https://heronfoods.com/store/cwmbran/", "opening_hours": "Mo-Sa 08:00-20:00; Su 10:00-16:00", "brand": "Heron Foods", "brand:wikidata": "Q5743472", "nsi_id": "heronfoods-a8278b"}, "geometry": {"type": "Point", "coordinates": [-3.0216431, 51.6548467]}},
{"type": "Feature", "id": "dXebZq0K69sSj1jxaOoymYVUAb8=", "properties": {"ref": "9199511", "@spider": "heron_foods", "shop": "supermarket", "addr:street_address": "15 New Street", "addr:city": "Wellington", "addr:postcode": "TF1 1LY", "addr:country": "GB", "name": "Wellington", "website": "https://heronfoods.com/store/wellington/", "opening_hours": "Mo-Sa 08:00-18:00; Su 10:00-16:00", "brand": "Heron Foods", "brand:wikidata": "Q5743472", "nsi_id": "heronfoods-a8278b"}, "geometry": {"type": "Point", "coordinates": [-2.4658858, 52.6617133]}},
{"type": "Feature", "id": "X0FPOMhIlhDkdd_WGN4iRM1sIq8=", "properties": {"ref": "9199398", "@spider": "heron_foods", "shop": "supermarket", "addr:street_address": "100 High Street", "addr:city": "Mablethorpe", "addr:postcode": "LN12 1AT", "addr:country": "GB", "name": "Mablethorpe", "website": "https://heronfoods.com/store/mablethorpe/", "opening_hours": "Mo-Sa 08:00-21:00; Su 09:00-20:00", "brand": "Heron Foods", "brand:wikidata": "Q5743472", "nsi_id": "heronfoods-a8278b"}, "geometry": {"type": "Point", "coordinates": [0.2592063, 53.3411942]}},
{"type": "Feature", "id": "WDaUNoZ0yWkgcwOcCsOEebIKiqc=", "properties": {"ref": "9199396", "@spider": "heron_foods", "shop": "supermarket", "addr:street_address": "53 Eastgate", "addr:city": "Louth", "addr:postcode": "LN11 9NP", "addr:country": "GB", "name": "Louth", "website": "https://heronfoods.com/store/louth/", "opening_hours": "Mo-Sa 08:00-20:00; Su 09:00-17:00", "brand": "Heron Foods", "brand:wikidata": "Q5743472", "nsi_id": "heronfoods-a8278b"}, "geometry": {"type": "Point", "coordinates": [-0.003748, 53.3673502]}},
{"type": "Feature", "id": "0JtCetdCEWVBBGXfXL-C_Iu5pZ0=", "properties": {"ref": "9202168", "@spider": "heron_foods", "shop": "supermarket", "addr:street_address": "40-46 Countisbury Ave Llanrumney", "addr:city": "Cardiff", "addr:postcode": "CF3 5SL", "addr:country": "GB", "name": "Llanrumney", "website": "https://heronfoods.com/store/llanrumney/", "opening_hours": "Mo-Sa 08:00-19:00", "brand": "Heron Foods", "brand:wikidata": "Q5743472", "nsi_id": "heronfoods-a8278b"}, "geometry": {"type": "Point", "coordinates": [-3.1197038, 51.5209862]}},
{"type": "Feature", "id": "BvLjeYB1mOFXOlizo2-AQiNpoh0=", "properties": {"ref": "9199286", "@spider": "heron_foods", "shop": "supermarket", "addr:street_address": "Unit 24, Castle Court Shopping Centre, Caerphilly, CF83 1", "addr:city": "Caerphilly", "addr:postcode": "CF83 1NU", "addr:country": "GB", "name": "Caerphilly", "website": "https://heronfoods.com/store/caerphilly/", "opening_hours": "Mo-Sa 08:00-18:00; Su 10:00-16:00", "brand": "Heron Foods", "brand:wikidata": "Q5743472", "nsi_id": "heronfoods-a8278b"}, "geometry": {"type": "Point", "coordinates": [-3.2165916, 51.57648649999999]}},
{"type": "Feature", "id": "Nx0DpONKWDIj44Hxphk478BwQ8Y=", "properties": {"ref": "9199395", "@spider": "heron_foods", "shop": "supermarket", "addr:street_address": "Unit 5, Longton Exchange Shopping Centre", "addr:city": "Stoke on Trent", "addr:postcode": "ST3 2TE", "addr:country": "GB", "name": "Longton Exchange", "website": "https://heronfoods.com/store/longton-exchange/", "opening_hours": "Mo-Sa 08:00-18:00; Su 10:00-16:00", "brand": "Heron Foods", "brand:wikidata": "Q5743472", "nsi_id": "heronfoods-a8278b"}, "geometry": {"type": "Point", "coordinates": [-2.1355598, 52.9881554]}},
{"type": "Feature", "id": "GA4srQq6SiHZ7Wx3qL0bk42hQHc=", "properties": {"ref": "9199327", "@spider": "heron_foods", "shop": "supermarket", "addr:street_address": "32 Bethcar Street", "addr:city": "Ebbw Vale", "addr:postcode": "NP23 6HQ", "addr:country": "GB", "name": "Ebbw Vale", "website": "https://heronfoods.com/store/ebbw-vale/", "opening_hours": "Mo-Sa 08:00-18:00", "brand": "Heron Foods", "brand:wikidata": "Q5743472", "nsi_id": "heronfoods-a8278b"}, "geometry": {"type": "Point", "coordinates": [-3.2073327, 51.778005]}},
{"type": "Feature", "id": "mlLePXzAWtlzVD4fGiz9UVZxe9s=", "properties": {"ref": "9199343", "@spider": "heron_foods", "shop": "supermarket", "addr:street_address": "32 Market Place", "addr:city": "Gainsborough", "addr:postcode": "DN21 2BY", "addr:country": "GB", "name": "Gainsborough", "website": "https://heronfoods.com/store/gainsborough/", "opening_hours": "Mo-Sa 08:00-18:00; Su 09:00-17:00", "brand": "Heron Foods", "brand:wikidata": "Q5743472", "nsi_id": "heronfoods-a8278b"}, "geometry": {"type": "Point", "coordinates": [-0.7764215999999999, 53.3994271]}},
{"type": "Feature", "id": "DWkI1mmIv8LK5WDj3_YBP3p1GaQ=", "properties": {"ref": "9199285", "@spider": "heron_foods", "shop": "supermarket", "addr:street_address": "Bishopston Road, Caerau", "addr:city": "Cardiff", "addr:postcode": "CF5 5DZ", "addr:country": "GB", "name": "Caerau", "website": "https://heronfoods.com/store/caerau/", "opening_hours": "Mo-Sa 08:00-19:00; Su 10:00-16:00", "brand": "Heron Foods", "brand:wikidata": "Q5743472", "nsi_id": "heronfoods-a8278b"}, "geometry": {"type": "Point", "coordinates": [-3.2402249, 51.4742764]}},
{"type": "Feature", "id": "_hRUqK-zRVTVKJQE0bphX_rjPZY=", "properties": {"ref": "9199256", "@spider": "heron_foods", "shop": "supermarket", "addr:street_address": "30 Devonshire Square, Bentillee", "addr:city": "Stoke on Trent", "addr:postcode": "ST2 0ES", "addr:country": "GB", "name": "Bentilee", "website": "https://heronfoods.com/store/bentilee/", "opening_hours": "Mo-Su 08:00-20:00", "brand": "Heron Foods", "brand:wikidata": "Q5743472", "nsi_id": "heronfoods-a8278b"}, "geometry": {"type": "Point", "coordinates": [-2.1282126, 53.0135571]}},
{"type": "Feature", "id": "sudGXO6DGhVLHm2wV20l1JT47W8=", "properties": {"ref": "9199287", "@spider": "heron_foods", "shop": "convenience", "addr:street_address": "28-32 Campbell Place", "addr:city": "Stoke on Trent", "addr:postcode": "ST4 1NA", "addr:country": "GB", "name": "Campbell Place", "website": "https://heronfoods.com/store/campbell-place-bm-express/", "opening_hours": "Mo-Sa 08:00-18:00; Su 10:00-16:00", "brand": "B&M Express", "brand:wikidata": "Q99640578", "nsi_id": "bandmexpress-232829"}, "geometry": {"type": "Point", "coordinates": [-2.1856876, 53.0032315]}},
{"type": "Feature", "id": "c1g6ztbs1LC3bOj0pM2giyDbyA0=", "properties": {"ref": "9199253", "@spider": "heron_foods", "shop": "supermarket", "addr:street_address": "102-1-6 Holton Road", "addr:city": "Barry", "addr:postcode": "CF63 4HJ", "addr:country": "GB", "name": "Barry", "website": "https://heronfoods.com/store/barry/", "opening_hours": "Mo-Sa 08:00-20:00; Su 10:00-16:00", "brand": "Heron Foods", "brand:wikidata": "Q5743472", "nsi_id": "heronfoods-a8278b"}, "geometry": {"type": "Point", "coordinates": [-3.2678467, 51.4058115]}},
{"type": "Feature", "id": "hM4TnnYJi3C2lEoMb5m0VqqMetU=", "properties": {"ref": "9199235", "@spider": "heron_foods", "shop": "supermarket", "addr:street_address": "Unit 1, 1349 Leek Road, Abbey Hulton", "addr:city": "Stoke on Trent", "addr:postcode": "ST2 8BW", "addr:country": "GB", "name": "Abbey Hulton", "website": "https://heronfoods.com/store/abbey-hulton/", "opening_hours": "Mo-Sa 08:00-20:00; Su 09:00-17:00", "brand": "Heron Foods", "brand:wikidata": "Q5743472", "nsi_id": "heronfoods-a8278b"}, "geometry": {"type": "Point", "coordinates": [-2.1451211, 53.03394369999999]}},
{"type": "Feature", "id": "1mlJgYhdjh8_NAZMPXBstoEXpAE=", "properties": {"ref": "9199318", "@spider": "heron_foods", "shop": "supermarket", "addr:street_address": "53 Laughton Road, Dinnington", "addr:city": "Sheffield", "addr:postcode": "S25 2PN", "addr:country": "GB", "name": "Dinnington", "website": "https://heronfoods.com/store/dinnington/", "opening_hours": "Mo-Sa 08:00-19:00; Su 09:00-17:00", "brand": "Heron Foods", "brand:wikidata": "Q5743472", "nsi_id": "heronfoods-a8278b"}, "geometry": {"type": "Point", "coordinates": [-1.2105214, 53.36888159999999]}},
{"type": "Feature", "id": "tHEtprRwZwKkYkOW4Si-ArZemUg=", "properties": {"ref": "9199421", "@spider": "heron_foods", "shop": "supermarket", "addr:street_address": "10 Castle Walk", "addr:city": "Newcastle Under Lyme", "addr:postcode": "ST5 1AN", "addr:country": "GB", "name": "Newcastle Under Lyme", "website": "https://heronfoods.com/store/newcastle-under-lyme/", "opening_hours": "Mo-Sa 08:00-18:00; Su 10:00-16:00", "brand": "Heron Foods", "brand:wikidata": "Q5743472", "nsi_id": "heronfoods-a8278b"}, "geometry": {"type": "Point", "coordinates": [-2.2251636, 53.0114806]}},
{"type": "Feature", "id": "-Fkw7JqLdtA3D5_3rCweU6xTcfg=", "properties": {"ref": "9199478", "@spider": "heron_foods", "shop": "supermarket", "addr:street_address": "113/117 Ford Green Road, Smallthorne", "addr:city": "Stoke on Trent", "addr:postcode": "ST6 1PF", "addr:country": "GB", "name": "Smallthorne", "website": "https://heronfoods.com/store/smallthorne/", "opening_hours": "Mo-Sa 08:00-20:00; Su 09:00-17:00", "brand": "Heron Foods", "brand:wikidata": "Q5743472", "nsi_id": "heronfoods-a8278b"}, "geometry": {"type": "Point", "coordinates": [-2.1732977, 53.0518284]}},
{"type": "Feature", "id": "97FmFeAQI8QncPI3T6HxUNCU1F4=", "properties": {"ref": "9199379", "@spider": "heron_foods", "shop": "supermarket", "addr:street_address": "Unit 2, Jordansthorpe, Dyche Road", "addr:city": "Sheffield", "addr:postcode": "S8 8DX", "addr:country": "GB", "name": "Jordanthorpe", "website": "https://heronfoods.com/store/jordanthorpe/", "opening_hours": "Mo-Sa 08:00-20:00; Su 10:00-16:00", "brand": "Heron Foods", "brand:wikidata": "Q5743472", "nsi_id": "heronfoods-a8278b"}, "geometry": {"type": "Point", "coordinates": [-1.4649466, 53.3228946]}},
{"type": "Feature", "id": "zyPYyB74DVuax1JQFmNwIhEIMBY=", "properties": {"ref": "9199357", "@spider": "heron_foods", "shop": "convenience", "addr:street_address": "75 Scrooby Road, Harworth", "addr:city": "Doncaster", "addr:postcode": "DN11 8JN", "addr:country": "GB", "name": "Harworth", "website": "https://heronfoods.com/store/harworth-bm-express/", "opening_hours": "Mo-Sa 08:00-19:00; Su 09:00-17:00", "brand": "B&M Express", "brand:wikidata": "Q99640578", "nsi_id": "bandmexpress-232829"}, "geometry": {"type": "Point", "coordinates": [-1.0615314, 53.4169563]}},
{"type": "Feature", "id": "YNiFWu8NRdxxsQAg1qSyTGrcwgk=", "properties": {"ref": "9199265", "@spider": "heron_foods", "shop": "supermarket", "addr:street_address": "68 Birley Moor Road", "addr:city": "Sheffield", "addr:postcode": "S12 4WF", "addr:country": "GB", "name": "Birley Moor Road", "website": "https://heronfoods.com/store/birley-moor-road/", "opening_hours": "Mo-Sa 08:00-20:00; Su 10:00-16:00", "brand": "Heron Foods", "brand:wikidata": "Q5743472", "nsi_id": "heronfoods-a8278b"}, "geometry": {"type": "Point", "coordinates": [-1.4008805, 53.3485148]}},
{"type": "Feature", "id": "Pn-aanGEtgKnoKXYo_fwvqLrskU=", "properties": {"ref": "9199354", "@spider": "heron_foods", "shop": "supermarket", "addr:street_address": "85 Hanbridge Avenue, Bradwell", "addr:city": "Newcastle Under Lyme", "addr:postcode": "ST5 8HX", "addr:country": "GB", "name": "Hanbridge Avenue", "website": "https://heronfoods.com/store/hanbridge-avenue/", "opening_hours": "Mo-Sa 08:00-20:00; Su 09:00-18:00", "brand": "Heron Foods", "brand:wikidata": "Q5743472", "nsi_id": "heronfoods-a8278b"}, "geometry": {"type": "Point", "coordinates": [-2.234996, 53.0401894]}},
{"type": "Feature", "id": "BnUmT_WdiJYDdzSF8aNrteQUA2Q=", "properties": {"ref": "9201616", "@spider": "heron_foods", "shop": "supermarket", "addr:street_address": "10-18 Riverside Mall Pride Hill", "addr:city": "Shrewsbury", "addr:postcode": "SY1 1PJ", "addr:country": "GB", "name": "CT Shrewsbury", "website": "https://heronfoods.com/store/shrewsbury/", "opening_hours": "Mo-Sa 08:00-17:30; Su 10:00-16:00", "brand": "Heron Foods", "brand:wikidata": "Q5743472", "nsi_id": "heronfoods-a8278b"}, "geometry": {"type": "Point", "coordinates": [-2.7543716, 52.7096425]}},
{"type": "Feature", "id": "mSTQUIKRc-bbtzO1yiNhZAVd3Kk=", "properties": {"ref": "9199346", "@spider": "heron_foods", "shop": "supermarket", "addr:street_address": "551-553 Gleadless Road, Sheffield, S2 2BS", "addr:city": "Sheffield", "addr:postcode": "S2 2BS", "addr:country": "GB", "name": "Gleadless Rd", "website": "https://heronfoods.com/store/gleadless-rd/", "opening_hours": "Mo-Sa 08:00-20:00; Su 10:00-16:00", "brand": "Heron Foods", "brand:wikidata": "Q5743472", "nsi_id": "heronfoods-a8278b"}, "geometry": {"type": "Point", "coordinates": [-1.4484536, 53.3555132]}},
{"type": "Feature", "id": "_G0i8Fk7JyR6I5AAu85i5G4g190=", "properties": {"ref": "9199401", "@spider": "heron_foods", "shop": "supermarket", "addr:street_address": "The New Indoor Market, 72-74 High Street, Maltby", "addr:city": "Rotherham", "addr:postcode": "S66 7BN", "addr:country": "GB", "name": "Maltby", "website": "https://heronfoods.com/store/maltby/", "opening_hours": "Mo-Sa 08:00-19:00", "brand": "Heron Foods", "brand:wikidata": "Q5743472", "nsi_id": "heronfoods-a8278b"}, "geometry": {"type": "Point", "coordinates": [-1.1996046, 53.4236137]}},
{"type": "Feature", "id": "HmBi1mMK2j2YpGZ54mu5g4ka3iw=", "properties": {"ref": "9199410", "@spider": "heron_foods", "shop": "supermarket", "addr:street_address": "44\u201045 High Street", "addr:city": "Merthyr Tydfil", "addr:postcode": "CF47 8DE", "addr:country": "GB", "name": "Merthyr Tydfil", "website": "https://heronfoods.com/store/merthyr-tydfil/", "opening_hours": "Mo-Sa 08:00-18:00", "brand": "Heron Foods", "brand:wikidata": "Q5743472", "nsi_id": "heronfoods-a8278b"}, "geometry": {"type": "Point", "coordinates": [-3.3781752, 51.7449138]}},
{"type": "Feature", "id": "2_4wIRorE1y9osX30ypmYQV1HGc=", "properties": {"ref": "9199431", "@spider": "heron_foods", "shop": "supermarket", "addr:street_address": "52-54 Second Avenue, Nunsthorpe", "addr:city": "Grimsby", "addr:postcode": "DN33 1NN", "addr:country": "GB", "name": "Nunsthorpe", "website": "https://heronfoods.com/store/nunsthorpe/", "opening_hours": "Mo-Sa 08:00-20:00; Su 09:00-18:00", "brand": "Heron Foods", "brand:wikidata": "Q5743472", "nsi_id": "heronfoods-a8278b"}, "geometry": {"type": "Point", "coordinates": [-0.0994895, 53.548883]}},
{"type": "Feature", "id": "OuhJhTqapwC2BpTqh3Zh7rI86Jo=", "properties": {"ref": "9199358", "@spider": "heron_foods", "shop": "supermarket", "addr:street_address": "19-21 Haymarket", "addr:city": "Sheffield", "addr:postcode": "S1 2AW", "addr:country": "GB", "name": "Haymarket", "website": "https://heronfoods.com/store/haymarket/", "opening_hours": "Mo-Sa 08:00-18:00; Su 10:00-16:00", "brand": "Heron Foods", "brand:wikidata": "Q5743472", "nsi_id": "heronfoods-a8278b"}, "geometry": {"type": "Point", "coordinates": [-1.4643817, 53.3838265]}},
{"type": "Feature", "id": "qv2p-bSaYEWvuywr3SeaADy6szE=", "properties": {"ref": "9199299", "@spider": "heron_foods", "shop": "supermarket", "addr:street_address": "57-59 St Peters Avenue", "addr:city": "Cleethorpes", "addr:postcode": "DN35 8HF", "addr:country": "GB", "name": "Cleethorpes", "website": "https://heronfoods.com/store/cleethorpes/", "opening_hours": "Mo-Sa 08:00-20:00; Su 09:00-17:00", "brand": "Heron Foods", "brand:wikidata": "Q5743472", "nsi_id": "heronfoods-a8278b"}, "geometry": {"type": "Point", "coordinates": [-0.0310332, 53.5590927]}},
{"type": "Feature", "id": "KzT6Xd5AP7i7FC9o6XtkZ8yVhVM=", "properties": {"ref": "9199460", "@spider": "heron_foods", "shop": "supermarket", "addr:street_address": "Queen Mary's Road, Norman Crescent, Rossington", "addr:city": "Doncaster", "addr:postcode": "DN11 0PD", "addr:country": "GB", "name": "Rossington", "website": "https://heronfoods.com/store/rossington/", "opening_hours": "Mo-Sa 08:00-20:00; Su 09:00-18:00", "brand": "Heron Foods", "brand:wikidata": "Q5743472", "nsi_id": "heronfoods-a8278b"}, "geometry": {"type": "Point", "coordinates": [-1.077993, 53.47747039999999]}},
{"type": "Feature", "id": "AqTIHm8Ql6WxtyzLrkkLhvEj1Ns=", "properties": {"ref": "9199325", "@spider": "heron_foods", "shop": "supermarket", "addr:street_address": "138 Doncaster Road, Eastdene", "addr:city": "Rotherham", "addr:postcode": "S65 2UB", "addr:country": "GB", "name": "Eastdene", "website": "https://heronfoods.com/store/eastdene/", "opening_hours": "Mo-Sa 08:00-20:00; Su 09:00-19:00", "brand": "Heron Foods", "brand:wikidata": "Q5743472", "nsi_id": "heronfoods-a8278b"}, "geometry": {"type": "Point", "coordinates": [-1.3396652, 53.4347533]}},
{"type": "Feature", "id": "dIrs3VWfgWS8wHSxae3l1834zbw=", "properties": {"ref": "9201457", "@spider": "heron_foods", "shop": "supermarket", "addr:street_address": "2-4 Grimsby Road", "addr:city": "Cleethorpes", "addr:postcode": "Dn35 7AB", "addr:country": "GB", "name": "Grimsby Road", "website": "https://heronfoods.com/store/grimsby-road/", "opening_hours": "Mo-Sa 08:00-19:00; Su 10:00-16:00", "brand": "Heron Foods", "brand:wikidata": "Q5743472", "nsi_id": "heronfoods-a8278b"}, "geometry": {"type": "Point", "coordinates": [-0.0560286, 53.5715437]}},
{"type": "Feature", "id": "NVBRYfleYMf3eZQ_qv07NvXDCu0=", "properties": {"ref": "9199341", "@spider": "heron_foods", "shop": "supermarket", "addr:street_address": "75/79 Freeman Street", "addr:city": "Grimsby", "addr:postcode": "DN32 7AF", "addr:country": "GB", "name": "Freeman St", "website": "https://heronfoods.com/store/freeman-st/", "opening_hours": "Mo-Sa 08:00-18:00; Su 09:00-16:00", "brand": "Heron Foods", "brand:wikidata": "Q5743472", "nsi_id": "heronfoods-a8278b"}, "geometry": {"type": "Point", "coordinates": [-0.0732715, 53.5721942]}},
{"type": "Feature", "id": "HqVqx3E5mbQUjrIi9laTgpzGtWg=", "properties": {"ref": "9199461", "@spider": "heron_foods", "shop": "supermarket", "addr:street_address": "2-4 Howard Street", "addr:city": "Rotherham", "addr:postcode": "S60 1QU", "addr:country": "GB", "name": "Rotherham", "website": "https://heronfoods.com/store/rotherham/", "opening_hours": "Mo-Sa 08:00-18:00; Su 10:00-16:00", "brand": "Heron Foods", "brand:wikidata": "Q5743472", "nsi_id": "heronfoods-a8278b"}, "geometry": {"type": "Point", "coordinates": [-1.355857, 53.4323798]}},
{"type": "Feature", "id": "XroNjZYCHCIUEP8D95sdBvwGQrg=", "properties": {"ref": "9199365", "@spider": "heron_foods", "shop": "supermarket", "addr:street_address": "16 Middlewood Road", "addr:city": "Hilsborough", "addr:postcode": "S6 4GZ", "addr:country": "GB", "name": "Hillsborough", "website": "https://heronfoods.com/store/hillsborough/", "opening_hours": "Mo-Sa 08:00-18:00; Su 09:00-17:00", "brand": "Heron Foods", "brand:wikidata": "Q5743472", "nsi_id": "heronfoods-a8278b"}, "geometry": {"type": "Point", "coordinates": [-1.5017224, 53.4031645]}},
{"type": "Feature", "id": "q-HsW6A0LeRk4srToD3z-LIVZKo=", "properties": {"ref": "9199337", "@spider": "heron_foods", "shop": "supermarket", "addr:street_address": "15 Sicey Avenue, Firth Park", "addr:city": "Sheffield", "addr:postcode": "S5 6NF", "addr:country": "GB", "name": "Firth Park", "website": "https://heronfoods.com/store/firth-park/", "opening_hours": "Mo-Sa 08:00-20:00; Su 10:00-16:00", "brand": "Heron Foods", "brand:wikidata": "Q5743472", "nsi_id": "heronfoods-a8278b"}, "geometry": {"type": "Point", "coordinates": [-1.4481741, 53.4191162]}},
{"type": "Feature", "id": "nPr_qqdrxdOA-QQFgVhzMwPYb4w=", "properties": {"ref": "9201614", "@spider": "heron_foods", "shop": "supermarket", "addr:street_address": "Willoughby Road", "addr:city": "Scunthorpe", "addr:postcode": "Dn17 2DJ", "addr:country": "GB", "name": "Riddings", "website": "https://heronfoods.com/store/riddings/", "opening_hours": "Mo-Sa 08:00-20:00; Su 10:00-16:00", "brand": "Heron Foods", "brand:wikidata": "Q5743472", "nsi_id": "heronfoods-a8278b"}, "geometry": {"type": "Point", "coordinates": [-0.6654814, 53.5621898]}},
{"type": "Feature", "id": "MzSztPsZ465VQq3ufn4tfVIx31o=", "properties": {"ref": "9199243", "@spider": "heron_foods", "shop": "supermarket", "addr:street_address": "22 The Broadway, Ashby High St, Ashby", "addr:city": "Scunthorpe", "addr:postcode": "DN16 2NL", "addr:country": "GB", "name": "Ashby", "website": "https://heronfoods.com/store/ashby/", "opening_hours": "Mo-Sa 08:00-18:00; Su 09:00-17:00", "brand": "Heron Foods", "brand:wikidata": "Q5743472", "nsi_id": "heronfoods-a8278b"}, "geometry": {"type": "Point", "coordinates": [-0.6488360999999999, 53.5665493]}},
{"type": "Feature", "id": "iT-Zy1YJ_ecTc0oMYaVF3liBU8w=", "properties": {"ref": "9199452", "@spider": "heron_foods", "shop": "supermarket", "addr:street_address": "Unit B, Bellows Road Shopping Centre, Rawmarsh", "addr:city": "Rotherham", "addr:postcode": "S62 6NG", "addr:country": "GB", "name": "Rawmarsh", "website": "https://heronfoods.com/store/rawmarsh/", "opening_hours": "Mo-Su 08:00-20:00", "brand": "Heron Foods", "brand:wikidata": "Q5743472", "nsi_id": "heronfoods-a8278b"}, "geometry": {"type": "Point", "coordinates": [-1.343498, 53.4600221]}},
{"type": "Feature", "id": "EIuzhdf1wxI5xG7DePkXjUvAWEA=", "properties": {"ref": "9199440", "@spider": "heron_foods", "shop": "supermarket", "addr:street_address": "Parsons Cross, Margetson Crescent", "addr:city": "Sheffield", "addr:postcode": "S5 9ND", "addr:country": "GB", "name": "Parsons Cross", "website": "https://heronfoods.com/store/parsons-cross/", "opening_hours": "Mo-Sa 08:00-20:00; Su 10:00-16:00", "brand": "Heron Foods", "brand:wikidata": "Q5743472", "nsi_id": "heronfoods-a8278b"}, "geometry": {"type": "Point", "coordinates": [-1.4786518, 53.4315631]}},
{"type": "Feature", "id": "sO9nEIn76HXj2k7Stl8F8DLdt_0=", "properties": {"ref": "9199378", "@spider": "heron_foods", "shop": "supermarket", "addr:street_address": "51 Sandringham Road", "addr:city": "Doncaster", "addr:postcode": "DN2 5HY", "addr:country": "GB", "name": "Intake", "website": "https://heronfoods.com/store/intake/", "opening_hours": "Mo-Sa 08:00-20:00; Su 09:00-18:00", "brand": "Heron Foods", "brand:wikidata": "Q5743472", "nsi_id": "heronfoods-a8278b"}, "geometry": {"type": "Point", "coordinates": [-1.1061433, 53.52601]}},
{"type": "Feature", "id": "I_aFcF3_xQzoQGCkivpSNQub29M=", "properties": {"ref": "9199319", "@spider": "heron_foods", "shop": "supermarket", "addr:street_address": "45-46a Market Place", "addr:city": "Doncaster", "addr:postcode": "DN1 1NJ", "addr:country": "GB", "name": "Doncaster Market Place", "website": "https://heronfoods.com/store/doncaster-market-place/", "opening_hours": "Mo-Sa 08:00-18:00; Su 09:00-17:00", "brand": "Heron Foods", "brand:wikidata": "Q5743472", "nsi_id": "heronfoods-a8278b"}, "geometry": {"type": "Point", "coordinates": [-1.132497, 53.5240046]}},
{"type": "Feature", "id": "FBsC8UICBsBelQqfMO7XMSXuwkw=", "properties": {"ref": "9199411", "@spider": "heron_foods", "shop": "supermarket", "addr:street_address": "60-62 High Street", "addr:city": "Mexborough", "addr:postcode": "S64 9AU", "addr:country": "GB", "name": "Mexborough", "website": "https://heronfoods.com/store/mexborough/", "opening_hours": "Mo-Sa 08:00-18:00; Su 09:00-17:00", "brand": "Heron Foods", "brand:wikidata": "Q5743472", "nsi_id": "heronfoods-a8278b"}, "geometry": {"type": "Point", "coordinates": [-1.2904675, 53.4936731]}},
{"type": "Feature", "id": "C2StHtern6BoDvr0ezGAuXMfnEQ=", "properties": {"ref": "9199375", "@spider": "heron_foods", "shop": "supermarket", "addr:street_address": "25 Kennedy Way", "addr:city": "Immingham", "addr:postcode": "DN40 2AB", "addr:country": "GB", "name": "Immingham", "website": "https://heronfoods.com/store/immingham/", "opening_hours": "Mo-Sa 08:00-18:00; Su 09:00-17:00", "brand": "Heron Foods", "brand:wikidata": "Q5743472", "nsi_id": "heronfoods-a8278b"}, "geometry": {"type": "Point", "coordinates": [-0.2138508, 53.61594479999999]}},
{"type": "Feature", "id": "GohrKp003XK5jAbBkxb4rnHFCms=", "properties": {"ref": "9201619", "@spider": "heron_foods", "shop": "supermarket", "addr:street_address": "Co-op Beckett Road Wheatley", "addr:city": "Doncaster", "addr:postcode": "DN2 4BB", "addr:country": "GB", "name": "Wheatley", "website": "https://heronfoods.com/store/wheatley/", "opening_hours": "Mo-Sa 08:00-20:00", "brand": "Heron Foods", "brand:wikidata": "Q5743472", "nsi_id": "heronfoods-a8278b"}, "geometry": {"type": "Point", "coordinates": [-1.1138462, 53.5356488]}},
{"type": "Feature", "id": "IOntqtQBQFXBR_Mqmchsv8NzXck=", "properties": {"ref": "9201459", "@spider": "heron_foods", "shop": "supermarket", "addr:street_address": "Greengate Lane, High Green", "addr:city": "Sheffield", "addr:postcode": "S35 3GS", "addr:country": "GB", "name": "High Green", "website": "https://heronfoods.com/store/high-green/", "opening_hours": "Mo-Sa 08:00-20:00; Su 10:00-16:00", "brand": "Heron Foods", "brand:wikidata": "Q5743472", "nsi_id": "heronfoods-a8278b"}, "geometry": {"type": "Point", "coordinates": [-1.4842329, 53.4706778]}},
{"type": "Feature", "id": "OfUYIJuT6gvUTT_IuGjmVPCDhHI=", "properties": {"ref": "9199257", "@spider": "heron_foods", "shop": "supermarket", "addr:street_address": "High Street", "addr:city": "Doncaster", "addr:postcode": "DN5 0AA", "addr:country": "GB", "name": "Bentley", "website": "https://heronfoods.com/store/bentley/", "opening_hours": "Mo-Sa 08:00-19:00; Su 09:00-18:00", "brand": "Heron Foods", "brand:wikidata": "Q5743472", "nsi_id": "heronfoods-a8278b"}, "geometry": {"type": "Point", "coordinates": [-1.1470534, 53.5453088]}},
{"type": "Feature", "id": "B33_pB5jcAQnX79Mt4QUFJ_5uYg=", "properties": {"ref": "9199468", "@spider": "heron_foods", "shop": "supermarket", "addr:street_address": "Amershall Road, Scawthorpe", "addr:city": "Doncaster", "addr:postcode": "DN5 9PQ", "addr:country": "GB", "name": "Scawthorpe", "website": "https://heronfoods.com/store/scawthorpe/", "opening_hours": "Mo-Sa 08:00-20:00", "brand": "Heron Foods", "brand:wikidata": "Q5743472", "nsi_id": "heronfoods-a8278b"}, "geometry": {"type": "Point", "coordinates": [-1.1655139, 53.5436541]}},
{"type": "Feature", "id": "qyzpXqxpnUuaaXVUBnKq3RNVvqQ=", "properties": {"ref": "9199372", "@spider": "heron_foods", "shop": "supermarket", "addr:street_address": "1-9 King Street Hoyland", "addr:city": "Hoyland", "addr:postcode": "S74 9JU", "addr:country": "GB", "name": "Hoyland", "website": "https://heronfoods.com/store/hoyland/", "opening_hours": "Mo-Sa 08:00-20:00; Su 10:00-16:00", "brand": "Heron Foods", "brand:wikidata": "Q5743472", "nsi_id": "heronfoods-a8278b"}, "geometry": {"type": "Point", "coordinates": [-1.4375498, 53.5007723]}},
{"type": "Feature", "id": "hhaILjBAPM6FNRUAHR3c6kxgo3s=", "properties": {"ref": "9199277", "@spider": "heron_foods", "shop": "supermarket", "addr:street_address": "21 Market Street", "addr:city": "Bridgend", "addr:postcode": "CF31 1LL", "addr:country": "GB", "name": "Bridgend", "website": "https://heronfoods.com/store/bridgend/", "opening_hours": "Mo-Sa 08:00-18:00", "brand": "Heron Foods", "brand:wikidata": "Q5743472", "nsi_id": "heronfoods-a8278b"}, "geometry": {"type": "Point", "coordinates": [-3.5781172, 51.5079]}},
{"type": "Feature", "id": "4CQl6Z2-DrMDBMFvTPIOb2Bzy8E=", "properties": {"ref": "9199275", "@spider": "heron_foods", "shop": "supermarket", "addr:street_address": "The Merlin PH, Bradfield Road", "addr:city": "Crewe", "addr:postcode": "CW1 3RH", "addr:country": "GB", "name": "Bradfield Road", "website": "https://heronfoods.com/store/bradfield-road/", "opening_hours": "Mo-Sa 08:00-20:00", "brand": "Heron Foods", "brand:wikidata": "Q5743472", "nsi_id": "heronfoods-a8278b"}, "geometry": {"type": "Point", "coordinates": [-2.460925, 53.11377700000001]}},
{"type": "Feature", "id": "BFR3qwKHjyP0MrAm9sw9UCgIqUo=", "properties": {"ref": "9199527", "@spider": "heron_foods", "shop": "supermarket", "addr:street_address": "268 Great North Road, Woodlands", "addr:city": "Doncaster", "addr:postcode": "DN6 7HN", "addr:country": "GB", "name": "Woodlands", "website": "https://heronfoods.com/store/woodlands/", "opening_hours": "Mo-Sa 08:00-20:00; Su 09:00-18:00", "brand": "Heron Foods", "brand:wikidata": "Q5743472", "nsi_id": "heronfoods-a8278b"}, "geometry": {"type": "Point", "coordinates": [-1.1950749, 53.5637129]}},
{"type": "Feature", "id": "5GhE7Vos3fLMDt_hNgF-YJPpzKs=", "properties": {"ref": "9199526", "@spider": "heron_foods", "shop": "supermarket", "addr:street_address": "60-62 High Street, Wombwell, Barnsley", "addr:city": "South Yorkshire", "addr:postcode": "S73 8DA", "addr:country": "GB", "name": "Wombwell", "website": "https://heronfoods.com/store/wombwell/", "opening_hours": "Mo-Sa 08:00-20:00; Su 10:00-16:00", "brand": "Heron Foods", "brand:wikidata": "Q5743472", "nsi_id": "heronfoods-a8278b"}, "geometry": {"type": "Point", "coordinates": [-1.4001237, 53.5238599]}},
{"type": "Feature", "id": "6fl-ncc28KN85HhJ8sd7pYmzMWk=", "properties": {"ref": "9199497", "@spider": "heron_foods", "shop": "supermarket", "addr:street_address": "2/3 The Green", "addr:city": "Thorne", "addr:postcode": "DN8 4AP", "addr:country": "GB", "name": "Thorne", "website": "https://heronfoods.com/store/thorne/", "opening_hours": "Mo-Sa 08:00-20:00; Su 09:00-18:00", "brand": "Heron Foods", "brand:wikidata": "Q5743472", "nsi_id": "heronfoods-a8278b"}, "geometry": {"type": "Point", "coordinates": [-0.9626441000000001, 53.6117021]}},
{"type": "Feature", "id": "YeJCSjfVxd0AsFT7wbm9msGCFjY=", "properties": {"ref": "9199254", "@spider": "heron_foods", "shop": "supermarket", "addr:street_address": "High Street", "addr:city": "Barton", "addr:postcode": "DN18 5PU", "addr:country": "GB", "name": "Barton High Street", "website": "https://heronfoods.com/store/barton-high-street/", "opening_hours": "Mo-Sa 08:00-20:00; Su 10:00-16:00", "brand": "Heron Foods", "brand:wikidata": "Q5743472", "nsi_id": "heronfoods-a8278b"}, "geometry": {"type": "Point", "coordinates": [-0.4432517, 53.6855847]}},
{"type": "Feature", "id": "xt-vlvGehMzK8g3s25bPNLboji4=", "properties": {"ref": "9199381", "@spider": "heron_foods", "shop": "convenience", "addr:street_address": "Neville Avenue", "addr:city": "Barnsley", "addr:postcode": "S70 3HF", "addr:country": "GB", "name": "Kendray", "website": "https://heronfoods.com/store/kendray-bm-express/", "opening_hours": "Mo-Sa 08:00-19:00; Su 10:00-16:00", "brand": "B&M Express", "brand:wikidata": "Q99640578", "nsi_id": "bandmexpress-232829"}, "geometry": {"type": "Point", "coordinates": [-1.4502313, 53.5452702]}},
{"type": "Feature", "id": "YP_yeWkjk5xpq4x2MVm_YkySEfQ=", "properties": {"ref": "9199247", "@spider": "heron_foods", "shop": "supermarket", "addr:street_address": "24 Station Road, Askern", "addr:city": "Doncaster", "addr:postcode": "DN6 0JA", "addr:country": "GB", "name": "Askern", "website": "https://heronfoods.com/store/askern/", "opening_hours": "Mo-Sa 08:00-20:00; Su 09:00-18:00", "brand": "Heron Foods", "brand:wikidata": "Q5743472", "nsi_id": "heronfoods-a8278b"}, "geometry": {"type": "Point", "coordinates": [-1.150733, 53.6161232]}},
{"type": "Feature", "id": "DqgaPCVkic1QoqnMWQELA8tA9xA=", "properties": {"ref": "9199479", "@spider": "heron_foods", "shop": "supermarket", "addr:street_address": "Barnsley Street, South Elmsall", "addr:city": "Pontefract", "addr:postcode": "WF9 2SE", "addr:country": "GB", "name": "South Elmsall", "website": "https://heronfoods.com/store/south-elmsall/", "opening_hours": "Mo-Sa 08:00-20:00; Su 09:00-18:00", "brand": "Heron Foods", "brand:wikidata": "Q5743472", "nsi_id": "heronfoods-a8278b"}, "geometry": {"type": "Point", "coordinates": [-1.2892713, 53.5948417]}},
{"type": "Feature", "id": "xwdlxUoqGfVVcuKs1yEH6m6bUAA=", "properties": {"ref": "9199362", "@spider": "heron_foods", "shop": "supermarket", "addr:street_address": "23 The Square", "addr:city": "Hessle", "addr:postcode": "HU13 0AE", "addr:country": "GB", "name": "Hessle Square", "website": "https://heronfoods.com/store/hessle-square/", "opening_hours": "Mo-Sa 08:00-20:00; Su 09:00-18:00", "brand": "Heron Foods", "brand:wikidata": "Q5743472", "nsi_id": "heronfoods-a8278b"}, "geometry": {"type": "Point", "coordinates": [-0.4348039, 53.7234458]}},
{"type": "Feature", "id": "YrY9Npqii9rQe-xRjeDUAWG8aUs=", "properties": {"ref": "9199525", "@spider": "heron_foods", "shop": "supermarket", "addr:street_address": "171-173 Queen Street", "addr:city": "Withernsea", "addr:postcode": "HU19 2JR", "addr:country": "GB", "name": "Withernsea", "website": "https://heronfoods.com/store/withernsea/", "opening_hours": "Mo-Sa 08:00-18:00; Su 10:00-17:00", "brand": "Heron Foods", "brand:wikidata": "Q5743472", "nsi_id": "heronfoods-a8278b"}, "geometry": {"type": "Point", "coordinates": [0.0330682, 53.7303761]}},
{"type": "Feature", "id": "2sOXOUkLQ6I2yCQAabSH-8TtC7Q=", "properties": {"ref": "9199345", "@spider": "heron_foods", "shop": "supermarket", "addr:street_address": "761 Hessle High Road", "addr:city": "Hull", "addr:postcode": "HU4 6PJ", "addr:country": "GB", "name": "Gipsyville", "website": "https://heronfoods.com/store/gipsyville/", "opening_hours": "Mo-Sa 08:00-19:00; Su 09:00-17:00", "brand": "Heron Foods", "brand:wikidata": "Q5743472", "nsi_id": "heronfoods-a8278b"}, "geometry": {"type": "Point", "coordinates": [-0.4054982, 53.7280476]}},
{"type": "Feature", "id": "Ftl0ohK3QW-HVeC13lm-H1n0O_4=", "properties": {"ref": "9199347", "@spider": "heron_foods", "shop": "supermarket", "addr:street_address": "9/11 High Street, Glossop, SK13 8AN", "addr:city": "Glossop", "addr:postcode": "SK13 8AN", "addr:country": "GB", "name": "Glossop", "website": "https://heronfoods.com/store/glossop/", "opening_hours": "Mo-Sa 08:00-18:00; Su 09:00-17:00", "brand": "Heron Foods", "brand:wikidata": "Q5743472", "nsi_id": "heronfoods-a8278b"}, "geometry": {"type": "Point", "coordinates": [-1.9495075, 53.4431787]}},
{"type": "Feature", "id": "Gwm5hX6wziIR83goNBDNm3XNCTc=", "properties": {"ref": "9199361", "@spider": "heron_foods", "shop": "supermarket", "addr:street_address": "228-290 Hessle Road", "addr:city": "Hull", "addr:postcode": "HU3 3EA", "addr:country": "GB", "name": "Hessle Road", "website": "https://heronfoods.com/store/hessle-road/", "opening_hours": "Mo-Sa 08:00-19:00; Su 09:00-17:00", "brand": "Heron Foods", "brand:wikidata": "Q5743472", "nsi_id": "heronfoods-a8278b"}, "geometry": {"type": "Point", "coordinates": [-0.3615567, 53.7359246]}},
{"type": "Feature", "id": "O3Bj1_NgNARxLQTzO5npmdZKPIw=", "properties": {"ref": "9199360", "@spider": "heron_foods", "shop": "supermarket", "addr:street_address": "36 St Augustine's Gate", "addr:city": "Hedon", "addr:postcode": "HU12 8EX", "addr:country": "GB", "name": "Hedon", "website": "https://heronfoods.com/store/hedon/", "opening_hours": "Mo-Sa 08:00-20:00; Su 09:00-19:00", "brand": "Heron Foods", "brand:wikidata": "Q5743472", "nsi_id": "heronfoods-a8278b"}, "geometry": {"type": "Point", "coordinates": [-0.1987011, 53.740581]}},
{"type": "Feature", "id": "nn-RpSMvTj09Qwrk-WfqVkm86GY=", "properties": {"ref": "9199517", "@spider": "heron_foods", "shop": "supermarket", "addr:street_address": "25-26 Whiterfriargate", "addr:city": "Hull", "addr:postcode": "HU1 2EX", "addr:country": "GB", "name": "Whitefriargate", "website": "https://heronfoods.com/store/whitefriargate/", "opening_hours": "Mo-Sa 08:00-18:00; Su 10:00-16:00", "brand": "Heron Foods", "brand:wikidata": "Q5743472", "nsi_id": "heronfoods-a8278b"}, "geometry": {"type": "Point", "coordinates": [-0.3371182, 53.7430736]}},
{"type": "Feature", "id": "ml7y5vISBpIPH8FjWQolregIcRQ=", "properties": {"ref": "9199439", "@spider": "heron_foods", "shop": "supermarket", "addr:street_address": "84-86 Paragon Street", "addr:city": "Hull", "addr:postcode": "HU1 3QA", "addr:country": "GB", "name": "Paragon", "website": "https://heronfoods.com/store/paragon/", "opening_hours": "Mo-Sa 08:00-18:00; Su 09:00-16:00", "brand": "Heron Foods", "brand:wikidata": "Q5743472", "nsi_id": "heronfoods-a8278b"}, "geometry": {"type": "Point", "coordinates": [-0.3434964, 53.7441502]}},
{"type": "Feature", "id": "-6QuDhnn6G33sDE4uk03eOeFXLI=", "properties": {"ref": "9199240", "@spider": "heron_foods", "shop": "supermarket", "addr:street_address": "487 Anlaby Road", "addr:city": "Hull", "addr:postcode": "HU3 6DT", "addr:country": "GB", "name": "Anlaby Road", "website": "https://heronfoods.com/store/anlaby-road/", "opening_hours": "Mo-Sa 08:00-20:00; Su 09:00-17:00", "brand": "Heron Foods", "brand:wikidata": "Q5743472", "nsi_id": "heronfoods-a8278b"}, "geometry": {"type": "Point", "coordinates": [-0.3756927, 53.7435838]}},
{"type": "Feature", "id": "JdJY7lDcrl9VNHbuCtZb3tPQhRk=", "properties": {"ref": "9199437", "@spider": "heron_foods", "shop": "supermarket", "addr:street_address": "English Walls", "addr:city": "Oswestry", "addr:postcode": "SY11 2PA", "addr:country": "GB", "name": "Oswestry", "website": "https://heronfoods.com/store/oswestry/", "opening_hours": "Mo-Sa 08:00-18:00; Su 09:00-16:00", "brand": "Heron Foods", "brand:wikidata": "Q5743472", "nsi_id": "heronfoods-a8278b"}, "geometry": {"type": "Point", "coordinates": [-3.0542418, 52.8586125]}},
{"type": "Feature", "id": "wNJ3ldoOprEUuf9LwsoS7jd8qkQ=", "properties": {"ref": "9199447", "@spider": "heron_foods", "shop": "supermarket", "addr:street_address": "Ground Floor 955 Spring Bank West", "addr:city": "Hull", "addr:postcode": "HU5 5HD", "addr:country": "GB", "name": "Priory", "website": "https://heronfoods.com/store/priory/", "opening_hours": "Mo-Sa 08:00-21:00; Su 10:00-16:00", "brand": "Heron Foods", "brand:wikidata": "Q5743472", "nsi_id": "heronfoods-a8278b"}, "geometry": {"type": "Point", "coordinates": [-0.3957085, 53.7496115]}},
{"type": "Feature", "id": "7LKvddHWAGNI0IfqOnbR3dd4RZQ=", "properties": {"ref": "9199367", "@spider": "heron_foods", "shop": "supermarket", "addr:street_address": "284 Holderness Road", "addr:city": "Hull", "addr:postcode": "HU9 2JX", "addr:country": "GB", "name": "Holderness Rd", "website": "https://heronfoods.com/store/holderness-rd/", "opening_hours": "Mo-Sa 08:00-19:00; Su 09:00-17:00", "brand": "Heron Foods", "brand:wikidata": "Q5743472", "nsi_id": "heronfoods-a8278b"}, "geometry": {"type": "Point", "coordinates": [-0.3112543, 53.7549238]}},
{"type": "Feature", "id": "tfNGHJTmZ8_uXqB3IQkPT8N-Jf0=", "properties": {"ref": "9199241", "@spider": "heron_foods", "shop": "supermarket", "addr:street_address": "Annandale Road Elmbridge", "addr:city": "Hull", "addr:postcode": "HU9 4JZ", "addr:country": "GB", "name": "Annandale Road", "website": "https://heronfoods.com/store/annandale-road/", "opening_hours": "Mo-Sa 08:00-20:00", "brand": "Heron Foods", "brand:wikidata": "Q5743472", "nsi_id": "heronfoods-a8278b"}, "geometry": {"type": "Point", "coordinates": [-0.253165, 53.7570523]}},
{"type": "Feature", "id": "CZw1LRrUlz_PfdQeiTb8U5ieDUI=", "properties": {"ref": "9199405", "@spider": "heron_foods", "shop": "supermarket", "addr:street_address": "306 Marfleeet Lane", "addr:city": "Hull", "addr:postcode": "HU9 5AQ", "addr:country": "GB", "name": "Marfleet Lane", "website": "https://heronfoods.com/store/marfleet-lane/", "opening_hours": "Mo-Sa 08:00-19:00; Su 09:00-17:00", "brand": "Heron Foods", "brand:wikidata": "Q5743472", "nsi_id": "heronfoods-a8278b"}, "geometry": {"type": "Point", "coordinates": [-0.2729499, 53.7576056]}},
{"type": "Feature", "id": "Gflo0FEUezrSO4BuRRJMI4ZihLI=", "properties": {"ref": "9199292", "@spider": "heron_foods", "shop": "supermarket", "addr:street_address": "78 Chanterlands Avenue", "addr:city": "Hull", "addr:postcode": "HU5 3TS", "addr:country": "GB", "name": "Chanterlands Avenue", "website": "https://heronfoods.com/store/chants-ave/", "opening_hours": "Mo-Sa 08:00-18:00; Su 09:00-17:00", "brand": "Heron Foods", "brand:wikidata": "Q5743472", "nsi_id": "heronfoods-a8278b"}, "geometry": {"type": "Point", "coordinates": [-0.3735817, 53.75475669999999]}},
{"type": "Feature", "id": "X4vIPdrXrMMbuQCBizKdOhx1n78=", "properties": {"ref": "9199370", "@spider": "heron_foods", "shop": "supermarket", "addr:street_address": "793 Hotham Road South", "addr:city": "Hull", "addr:postcode": "HU5 5JX", "addr:country": "GB", "name": "Hotham Road", "website": "https://heronfoods.com/store/hotham-road/", "opening_hours": "Mo-Sa 08:00-18:00; Su 09:00-17:00", "brand": "Heron Foods", "brand:wikidata": "Q5743472", "nsi_id": "heronfoods-a8278b"}, "geometry": {"type": "Point", "coordinates": [-0.4154596, 53.7537086]}},
{"type": "Feature", "id": "t5wNDN2RSlvparXs1m-UBvoL88Y=", "properties": {"ref": "9199422", "@spider": "heron_foods", "shop": "supermarket", "addr:street_address": "75/78 Newland Avenue", "addr:city": "Hull", "addr:postcode": "HU5 3AB", "addr:country": "GB", "name": "Newland Ave", "website": "https://heronfoods.com/store/newland-ave/", "opening_hours": "Mo-Sa 08:00-20:00; Su 09:00-17:00", "brand": "Heron Foods", "brand:wikidata": "Q5743472", "nsi_id": "heronfoods-a8278b"}, "geometry": {"type": "Point", "coordinates": [-0.3586637, 53.762412]}},
{"type": "Feature", "id": "jiAcc-ZyAFx-uWXHievBEr0U2No=", "properties": {"ref": "9199328", "@spider": "heron_foods", "shop": "supermarket", "addr:street_address": "1-3 The Precinct, Edgeley, Castle Street", "addr:city": "Stockport", "addr:postcode": "SK3 9AB", "addr:country": "GB", "name": "Edgeley", "website": "https://heronfoods.com/store/edgeley-cool-trader/", "opening_hours": "Mo-Sa 08:00-18:00; Su 09:00-16:00", "brand": "Heron Foods", "brand:wikidata": "Q5743472", "nsi_id": "heronfoods-a8278b"}, "geometry": {"type": "Point", "coordinates": [-2.1672324, 53.4019281]}},
{"type": "Feature", "id": "P2E525P7zL0bkY8pxEMMSluRrV4=", "properties": {"ref": "9199350", "@spider": "heron_foods", "shop": "supermarket", "addr:street_address": "55 Greenwich Avenue", "addr:city": "Hull", "addr:postcode": "HU9 4UX", "addr:country": "GB", "name": "Greenwich Ave", "website": "https://heronfoods.com/store/greenwich/", "opening_hours": "Mo-Sa 08:00-20:00; Su 10:00-16:00", "brand": "Heron Foods", "brand:wikidata": "Q5743472", "nsi_id": "heronfoods-a8278b"}, "geometry": {"type": "Point", "coordinates": [-0.2650867, 53.7715794]}},
{"type": "Feature", "id": "Fhof899AJ9ny4F6VD__oifOOrdU=", "properties": {"ref": "9199377", "@spider": "heron_foods", "shop": "supermarket", "addr:street_address": "Unit 5, Ings Centre, Savoy Road", "addr:city": "Hull", "addr:postcode": "HU8 0XT", "addr:country": "GB", "name": "Ings Centre", "website": "https://heronfoods.com/store/ings-centre/", "opening_hours": "Mo-Sa 08:00-19:00; Su 09:00-17:00", "brand": "Heron Foods", "brand:wikidata": "Q5743472", "nsi_id": "heronfoods-a8278b"}, "geometry": {"type": "Point", "coordinates": [-0.2891758, 53.7714884]}},
{"type": "Feature", "id": "hptRPkFuUufBrUBtYJmMJ9nNLU8=", "properties": {"ref": "9199472", "@spider": "heron_foods", "shop": "supermarket", "addr:street_address": "82 Shannon Road, Longhill Estate", "addr:city": "Hull", "addr:postcode": "HU8 9PD", "addr:country": "GB", "name": "Shannon Road", "website": "https://heronfoods.com/store/shannon-road/", "opening_hours": "Mo-Sa 08:00-20:00; Su 09:00-17:00", "brand": "Heron Foods", "brand:wikidata": "Q5743472", "nsi_id": "heronfoods-a8278b"}, "geometry": {"type": "Point", "coordinates": [-0.2682707, 53.7767348]}},
{"type": "Feature", "id": "n30ZEYdTqKpLGzwlGRw_iukxsU0=", "properties": {"ref": "9199279", "@spider": "heron_foods", "shop": "convenience", "addr:street_address": "Brinnington Road Brinnington", "addr:city": "Stockport", "addr:postcode": "SK5 8BT", "addr:country": "GB", "name": "Brinnington", "website": "https://heronfoods.com/store/brinnington-bm-express/", "opening_hours": "Mo-Sa 08:00-20:00; Su 11:00-17:00", "brand": "B&M Express", "brand:wikidata": "Q99640578", "nsi_id": "bandmexpress-232829"}, "geometry": {"type": "Point", "coordinates": [-2.1323649, 53.42686399999999]}},
{"type": "Feature", "id": "nFiEMRCa-bwXDcQecirT-NYZJuM=", "properties": {"ref": "9199330", "@spider": "heron_foods", "shop": "supermarket", "addr:street_address": "459 Endike Lane", "addr:city": "Hull", "addr:postcode": "HU6 8AG", "addr:country": "GB", "name": "Endike Lane", "website": "https://heronfoods.com/store/endike-lane/", "opening_hours": "Mo-Sa 08:00-20:00; Su 10:00-16:00", "brand": "Heron Foods", "brand:wikidata": "Q5743472", "nsi_id": "heronfoods-a8278b"}, "geometry": {"type": "Point", "coordinates": [-0.3802852, 53.778084]}},
{"type": "Feature", "id": "RrGdfGbIYAuAh82nFgsnak2qK3U=", "properties": {"ref": "9199531", "@spider": "heron_foods", "shop": "supermarket", "addr:street_address": "21 Haletop", "addr:city": "Wythenshawe", "addr:postcode": "M22 5RF", "addr:country": "GB", "name": "Wythenshawe", "website": "https://heronfoods.com/store/wythenshawe/", "opening_hours": "Mo-Sa 08:00-18:00; Su 10:00-16:00", "brand": "Heron Foods", "brand:wikidata": "Q5743472", "nsi_id": "heronfoods-a8278b"}, "geometry": {"type": "Point", "coordinates": [-2.2629155, 53.3791662]}},
{"type": "Feature", "id": "HbHF2V20Gj9jF9jYv_jDWLE7-vs=", "properties": {"ref": "9199308", "@spider": "heron_foods", "shop": "supermarket", "addr:street_address": "30 King Street, Cottingham", "addr:city": "Hull", "addr:postcode": "HU16 5QE", "addr:country": "GB", "name": "Cottingham", "website": "https://heronfoods.com/store/cottingham/", "opening_hours": "Mo-Sa 08:00-19:00; Su 09:00-17:00", "brand": "Heron Foods", "brand:wikidata": "Q5743472", "nsi_id": "heronfoods-a8278b"}, "geometry": {"type": "Point", "coordinates": [-0.4137805, 53.7806577]}},
{"type": "Feature", "id": "uwALPDfUs6iBN2BeEz6lWIC6Wvc=", "properties": {"ref": "9199276", "@spider": "heron_foods", "shop": "supermarket", "addr:street_address": "Unit E1, Northpoint Shopping Centre, Bransholme", "addr:city": "Hull", "addr:postcode": "HU7 4EE", "addr:country": "GB", "name": "Bransholme", "website": "https://heronfoods.com/store/bransholme/", "opening_hours": "Mo-Sa 08:00-18:00; Su 10:00-16:00", "brand": "Heron Foods", "brand:wikidata": "Q5743472", "nsi_id": "heronfoods-a8278b"}, "geometry": {"type": "Point", "coordinates": [-0.3211365, 53.7863722]}},
{"type": "Feature", "id": "dpEiIWvia2cEJwlmoDOUE-nZb7Y=", "properties": {"ref": "9199433", "@spider": "heron_foods", "shop": "supermarket", "addr:street_address": "Unit N1C Orchard Park Road, Hull Road", "addr:city": "Hull", "addr:postcode": "HU6 9RR", "addr:country": "GB", "name": "Orchard Park", "website": "https://heronfoods.com/store/orchard-park/", "opening_hours": "Mo-Sa 08:00-20:00; Su 10:00-16:00", "brand": "Heron Foods", "brand:wikidata": "Q5743472", "nsi_id": "heronfoods-a8278b"}, "geometry": {"type": "Point", "coordinates": [-0.3798585, 53.7870244]}},
{"type": "Feature", "id": "Igmc-xP-FvT2GDlO245nvojQn8w=", "properties": {"ref": "9199426", "@spider": "heron_foods", "shop": "supermarket", "addr:street_address": "Unit 2, Grampian Way, North Brandsholme", "addr:city": "Hull", "addr:postcode": "HU7 5BZ", "addr:country": "GB", "name": "North Bransholme", "website": "https://heronfoods.com/store/north-bransholme/", "opening_hours": "Mo-Sa 08:00-20:00; Su 10:00-16:00", "brand": "Heron Foods", "brand:wikidata": "Q5743472", "nsi_id": "heronfoods-a8278b"}, "geometry": {"type": "Point", "coordinates": [-0.3281014, 53.8055974]}},
{"type": "Feature", "id": "t-aGQdtYS7Zmzz1cesgIwfPjbkI=", "properties": {"ref": "9199428", "@spider": "heron_foods", "shop": "convenience", "addr:street_address": "342 Palatine Road, Northenden", "addr:city": "Manchester", "addr:postcode": "M22 4HE", "addr:country": "GB", "name": "Northenden", "website": "https://heronfoods.com/store/northenden-bm-express/", "opening_hours": "Mo-Sa 08:00-19:00; Su 09:00-17:00", "brand": "B&M Express", "brand:wikidata": "Q99640578", "nsi_id": "bandmexpress-232829"}, "geometry": {"type": "Point", "coordinates": [-2.2572542, 53.4087523]}},
{"type": "Feature", "id": "VTBRcRL93hpRCiGgTlA9RyjsT4A=", "properties": {"ref": "9199246", "@spider": "heron_foods", "shop": "supermarket", "addr:street_address": "Unit 14, Ladysmith Arcade, Staveleigh Mall", "addr:city": "Ashton Under Lyne", "addr:postcode": "OL6 7JL", "addr:country": "GB", "name": "Ashton Under Lyne", "website": "https://heronfoods.com/store/ashton-under-lyne/", "opening_hours": "Mo-Sa 08:00-18:00; Su 10:00-17:00", "brand": "Heron Foods", "brand:wikidata": "Q5743472", "nsi_id": "heronfoods-a8278b"}, "geometry": {"type": "Point", "coordinates": [-2.0953897, 53.4881898]}},
{"type": "Feature", "id": "aLwtS_-B87noCJHXw_IiHNfWYb0=", "properties": {"ref": "9199424", "@spider": "heron_foods", "shop": "supermarket", "addr:street_address": "57\u201063, High Street", "addr:city": "Normanton", "addr:postcode": "WF6 2AF", "addr:country": "GB", "name": "Normanton", "website": "https://heronfoods.com/store/normanton/", "opening_hours": "Mo-Sa 08:00-18:00; Su 10:00-16:00", "brand": "Heron Foods", "brand:wikidata": "Q5743472", "nsi_id": "heronfoods-a8278b"}, "geometry": {"type": "Point", "coordinates": [-1.4185538, 53.70016760000001]}},
{"type": "Feature", "id": "oEVyE8r2PGKYfIHtbWZo-ergT-k=", "properties": {"ref": "9199529", "@spider": "heron_foods", "shop": "supermarket", "addr:street_address": "Unit 8b , Island Green Retail Park", "addr:city": "Wrexham", "addr:postcode": "LL13 7LW", "addr:country": "GB", "name": "Wrexham", "website": "https://heronfoods.com/store/wrexham/", "opening_hours": "Mo-Sa 08:00-18:00; Su 09:00-17:00", "brand": "Heron Foods", "brand:wikidata": "Q5743472", "nsi_id": "heronfoods-a8278b"}, "geometry": {"type": "Point", "coordinates": [-2.9982433, 53.0459518]}},
{"type": "Feature", "id": "8wTLc9wa40GNoB576droQGZGzZQ=", "properties": {"ref": "9199288", "@spider": "heron_foods", "shop": "supermarket", "addr:street_address": "55 Carlton Street", "addr:city": "Castleford", "addr:postcode": "WF10 1AN", "addr:country": "GB", "name": "Castleford", "website": "https://heronfoods.com/store/castleford/", "opening_hours": "Mo-Sa 08:00-18:00; Su 10:00-16:00", "brand": "Heron Foods", "brand:wikidata": "Q5743472", "nsi_id": "heronfoods-a8278b"}, "geometry": {"type": "Point", "coordinates": [-1.35141, 53.7261974]}},
{"type": "Feature", "id": "3PB11pk4Fzxduh8lxE1kEPQM0Q8=", "properties": {"ref": "9199259", "@spider": "heron_foods", "shop": "supermarket", "addr:street_address": "15-17 Toll Gavel", "addr:city": "Beverley", "addr:postcode": "HU17 9AA", "addr:country": "GB", "name": "Beverley", "website": "https://heronfoods.com/store/beverley/", "opening_hours": "Mo-Sa 08:00-18:00; Su 10:00-16:00", "brand": "Heron Foods", "brand:wikidata": "Q5743472", "nsi_id": "heronfoods-a8278b"}, "geometry": {"type": "Point", "coordinates": [-0.4297964, 53.8419828]}},
{"type": "Feature", "id": "QjjvmqBdVQ1XHDuxTOZLTqRokIA=", "properties": {"ref": "9199492", "@spider": "heron_foods", "shop": "supermarket", "addr:street_address": "67-68 Broady Street Mall, Stretford Shopping centre", "addr:city": "Stretford", "addr:postcode": "M32 9BD", "addr:country": "GB", "name": "Stretford", "website": "https://heronfoods.com/store/stretford/", "opening_hours": "Mo-Sa 08:30-17:30; Su 10:00-16:00", "brand": "Heron Foods", "brand:wikidata": "Q5743472", "nsi_id": "heronfoods-a8278b"}, "geometry": {"type": "Point", "coordinates": [-2.309567, 53.44461399999999]}},
{"type": "Feature", "id": "LNhin848tQm41vtJWHZeoIUaErk=", "properties": {"ref": "9202700", "@spider": "heron_foods", "shop": "supermarket", "addr:street_address": "15 Woodfield Street Morriston", "addr:city": "Swansea", "addr:country": "GB", "name": "Morriston", "website": "https://heronfoods.com/store/morriston/", "opening_hours": "Mo-Sa 08:00-19:00; Su 10:00-16:00", "brand": "Heron Foods", "brand:wikidata": "Q5743472", "nsi_id": "heronfoods-a8278b"}, "geometry": {"type": "Point", "coordinates": [-3.9250511, 51.66547]}},
{"type": "Feature", "id": "ze5-5K80xLwIxFKtu59j09SdN10=", "properties": {"ref": "9199451", "@spider": "heron_foods", "shop": "supermarket", "addr:street_address": "Unit 2, Ravensthorpe Retail Park", "addr:city": "WF13 3JR", "addr:postcode": "Dewsbury", "addr:country": "GB", "name": "Ravensthorpe", "website": "https://heronfoods.com/store/ravensthorpe/", "opening_hours": "Mo-Sa 08:00-20:00; Su 09:00-17:00", "brand": "Heron Foods", "brand:wikidata": "Q5743472", "nsi_id": "heronfoods-a8278b"}, "geometry": {"type": "Point", "coordinates": [-1.6640966, 53.6802676]}},
{"type": "Feature", "id": "STZkJJECS38yjp4QWtrmGH-luks=", "properties": {"ref": "9199432", "@spider": "heron_foods", "shop": "supermarket", "addr:street_address": "12-16 High Street", "addr:city": "Oldham", "addr:postcode": "OL1 1JA", "addr:country": "GB", "name": "Oldham", "website": "https://heronfoods.com/store/oldham/", "opening_hours": "Mo-Sa 08:00-19:00; Su 09:00-17:00", "brand": "Heron Foods", "brand:wikidata": "Q5743472", "nsi_id": "heronfoods-a8278b"}, "geometry": {"type": "Point", "coordinates": [-2.1128195, 53.54179689999999]}},
{"type": "Feature", "id": "vyHiQ8vh0k3CeGqOgIlqFXvhVkc=", "properties": {"ref": "9199441", "@spider": "heron_foods", "shop": "supermarket", "addr:street_address": "Unit 9, Partington Shopping Centre, Partington", "addr:city": "Manchester", "addr:postcode": "M31 4EL", "addr:country": "GB", "name": "Partington", "website": "https://heronfoods.com/store/partington/", "opening_hours": "Mo-Sa 08:00-20:00; Su 11:00-17:00", "brand": "Heron Foods", "brand:wikidata": "Q5743472", "nsi_id": "heronfoods-a8278b"}, "geometry": {"type": "Point", "coordinates": [-2.4262003, 53.4190081]}},
{"type": "Feature", "id": "PjCDx-YS3yohtiq9R9_aJKtoWAU=", "properties": {"ref": "9199465", "@spider": "heron_foods", "shop": "supermarket", "addr:street_address": "74 Fitzgerald Way, Salford", "addr:city": "Lancashire", "addr:postcode": "M6 5HW", "addr:country": "GB", "name": "Salford", "website": "https://heronfoods.com/store/salford/", "opening_hours": "Mo-Sa 08:00-18:00; Su 09:00-16:00", "brand": "Heron Foods", "brand:wikidata": "Q5743472", "nsi_id": "heronfoods-a8278b"}, "geometry": {"type": "Point", "coordinates": [-2.2884111, 53.4883471]}},
{"type": "Feature", "id": "ZjMOwPKxOEjAcXKUgVoBPv1cKRw=", "properties": {"ref": "9203580", "@spider": "heron_foods", "shop": "supermarket", "addr:street_address": "1a Coniston Road  Chester", "addr:city": "Chester", "addr:postcode": "CH2 2FL", "addr:country": "GB", "name": "Coniston Road", "website": "https://heronfoods.com/store/coniston-road/", "opening_hours": "Mo-Sa 08:00-20:00; Su 08:00-18:00", "brand": "Heron Foods", "brand:wikidata": "Q5743472", "nsi_id": "heronfoods-a8278b"}, "geometry": {"type": "Point", "coordinates": [-2.8711389, 53.2074936]}},
{"type": "Feature", "id": "Djqw1G318hMCWzUo7GNgFSKjRJQ=", "properties": {"ref": "9199412", "@spider": "heron_foods", "shop": "convenience", "addr:street_address": "Unit 1.1 Limetrees Road, Middleton Shopping Centre", "addr:city": "Manchester", "addr:postcode": "M24 4EL", "addr:country": "GB", "name": "Middleton", "website": "https://heronfoods.com/store/middleton-bm-express/", "opening_hours": "Mo-Sa 08:00-18:00; Su 10:00-16:00", "brand": "B&M Express", "brand:wikidata": "Q99640578", "nsi_id": "bandmexpress-232829"}, "geometry": {"type": "Point", "coordinates": [-2.2008967, 53.5476847]}},
{"type": "Feature", "id": "zd903fYBxMGS1C_d7RUwy9kpw7M=", "properties": {"ref": "9199263", "@spider": "heron_foods", "shop": "convenience", "addr:street_address": "Unit NU2, Birchwood Shopping Centre", "addr:city": "Warrington", "addr:postcode": "WA3 7PQ", "addr:country": "GB", "name": "Birchwood", "website": "https://heronfoods.com/store/birchwood-bm-express/", "opening_hours": "Mo-Sa 08:00-19:00; Su 10:00-16:00", "brand": "B&M Express", "brand:wikidata": "Q99640578", "nsi_id": "bandmexpress-232829"}, "geometry": {"type": "Point", "coordinates": [-2.5268928, 53.4142305]}},
{"type": "Feature", "id": "PSwnZrVZH_s9BIjxDPg_xn8lPic=", "properties": {"ref": "9199369", "@spider": "heron_foods", "shop": "supermarket", "addr:street_address": "Newbegin", "addr:city": "Hornsea", "addr:postcode": "HU18 1AB", "addr:country": "GB", "name": "Hornsea", "website": "https://heronfoods.com/store/hornsea/", "opening_hours": "Mo-Sa 08:00-20:00; Su 09:00-17:00", "brand": "Heron Foods", "brand:wikidata": "Q5743472", "nsi_id": "heronfoods-a8278b"}, "geometry": {"type": "Point", "coordinates": [-0.1708399, 53.91106079999999]}},
{"type": "Feature", "id": "ixqi_qYZklpQcHRFi_4jFC7fLNw=", "properties": {"ref": "9199507", "@spider": "heron_foods", "shop": "supermarket", "addr:street_address": "11 Buttermarket Street", "addr:city": "Warrington", "addr:postcode": "WA1 2LY", "addr:country": "GB", "name": "Warrington", "website": "https://heronfoods.com/store/warrington/", "opening_hours": "Mo-Sa 08:00-18:00; Su 09:00-16:00", "brand": "Heron Foods", "brand:wikidata": "Q5743472", "nsi_id": "heronfoods-a8278b"}, "geometry": {"type": "Point", "coordinates": [-2.5931634, 53.3891869]}},
{"type": "Feature", "id": "2zAb7IvgNjrGkz3HkawXL7wrlqE=", "properties": {"ref": "9201751", "@spider": "heron_foods", "shop": "supermarket", "addr:street_address": "Western Avenue Blacon", "addr:city": "Chester", "addr:postcode": "CH1 5QY", "addr:country": "GB", "name": "Blacon", "website": "https://heronfoods.com/store/blacon/", "opening_hours": "Mo-Sa 08:00-20:00; Su 10:00-16:00", "brand": "Heron Foods", "brand:wikidata": "Q5743472", "nsi_id": "heronfoods-a8278b"}, "geometry": {"type": "Point", "coordinates": [-2.9334154, 53.201535]}},
{"type": "Feature", "id": "xV1En7_Af9wnWPQVxOuCCDoLovk=", "properties": {"ref": "9199462", "@spider": "heron_foods", "shop": "supermarket", "addr:street_address": "Unit 1 Cherry Tree House, Linkway, Runcorn", "addr:city": "Cheshire", "addr:postcode": "WA7 5EJ", "addr:country": "GB", "name": "Runcorn", "website": "https://heronfoods.com/store/runcorn/", "opening_hours": "Mo-Sa 08:00-20:00; Su 09:00-17:00", "brand": "Heron Foods", "brand:wikidata": "Q5743472", "nsi_id": "heronfoods-a8278b"}, "geometry": {"type": "Point", "coordinates": [-2.7200458, 53.3289117]}},
{"type": "Feature", "id": "NRwh-KZ0OZYw7gzRiIizBknDIy8=", "properties": {"ref": "9199434", "@spider": "heron_foods", "shop": "supermarket", "addr:street_address": "184-186 Orford Lane", "addr:city": "Warrington", "addr:postcode": "WA2 7BE", "addr:country": "GB", "name": "Orford", "website": "https://heronfoods.com/store/orford/", "opening_hours": "Mo-Sa 08:00-21:00; Su 09:00-17:00", "brand": "Heron Foods", "brand:wikidata": "Q5743472", "nsi_id": "heronfoods-a8278b"}, "geometry": {"type": "Point", "coordinates": [-2.5871717, 53.3986037]}},
{"type": "Feature", "id": "K8UcVSwTMGMcWs4pigRDNXo2R0E=", "properties": {"ref": "9199310", "@spider": "heron_foods", "shop": "supermarket", "addr:street_address": "36-37 Crossgates Shopping Centre", "addr:city": "Leeds", "addr:postcode": "LS15 8ET", "addr:country": "GB", "name": "Crossgates", "website": "https://heronfoods.com/store/crossgates/", "opening_hours": "Mo-Sa 08:00-18:00; Su 10:00-16:00", "brand": "Heron Foods", "brand:wikidata": "Q5743472", "nsi_id": "heronfoods-a8278b"}, "geometry": {"type": "Point", "coordinates": [-1.4519432, 53.8061966]}},
{"type": "Feature", "id": "SccmK25eCmU3P_pNMPpIVkrbUoI=", "properties": {"ref": "9199520", "@spider": "heron_foods", "shop": "supermarket", "addr:street_address": "2-4 Albert Road", "addr:city": "Widnes", "addr:postcode": "WA8 6JF", "addr:country": "GB", "name": "Widnes", "website": "https://heronfoods.com/store/widnes/", "opening_hours": "Mo-Sa 08:00-18:00; Su 10:00-16:00", "brand": "Heron Foods", "brand:wikidata": "Q5743472", "nsi_id": "heronfoods-a8278b"}, "geometry": {"type": "Point", "coordinates": [-2.725962, 53.3677967]}},
{"type": "Feature", "id": "MU6omacs-tXENck1EdhXA5G9QMU=", "properties": {"ref": "9199530", "@spider": "heron_foods", "shop": "convenience", "addr:street_address": "Titan Centre, Towngate", "addr:city": "Wyke", "addr:postcode": "BD12 9JF", "addr:country": "GB", "name": "Wyke", "website": "https://heronfoods.com/store/wyke-bm-express/", "opening_hours": "Mo-Sa 08:00-20:00; Su 10:00-16:00", "brand": "B&M Express", "brand:wikidata": "Q99640578", "nsi_id": "bandmexpress-232829"}, "geometry": {"type": "Point", "coordinates": [-1.7683819, 53.7386879]}},
{"type": "Feature", "id": "OH9_Ir6b9Or8G-AazrWXWVjSXL8=", "properties": {"ref": "9199281", "@spider": "heron_foods", "shop": "supermarket", "addr:street_address": "101 Lincoln Green Road", "addr:city": "Leeds", "addr:postcode": "LS9 7SR", "addr:country": "GB", "name": "Burmantofts", "website": "https://heronfoods.com/store/burmantofts/", "opening_hours": "Mo-Sa 08:00-20:00; Su 09:00-17:00", "brand": "Heron Foods", "brand:wikidata": "Q5743472", "nsi_id": "heronfoods-a8278b"}, "geometry": {"type": "Point", "coordinates": [-1.5246214, 53.8024913]}},
{"type": "Feature", "id": "2PQVy6gQKw3MDz41rz9GyXv3xtg=", "properties": {"ref": "9199409", "@spider": "heron_foods", "shop": "supermarket", "addr:street_address": "Units 72-76 Merrion Centre", "addr:city": "Leeds", "addr:postcode": "LS2 8NG", "addr:country": "GB", "name": "Merrion Centre", "website": "https://heronfoods.com/store/merrion-centre-2/", "opening_hours": "Mo-Sa 08:00-19:00; Su 10:00-16:00", "brand": "Heron Foods", "brand:wikidata": "Q5743472", "nsi_id": "heronfoods-a8278b"}, "geometry": {"type": "Point", "coordinates": [-1.5442406, 53.8014344]}},
{"type": "Feature", "id": "mOnPeQlyRaarYYKMYefp0ba9MLE=", "properties": {"ref": "9199355", "@spider": "heron_foods", "shop": "supermarket", "addr:street_address": "318-320 Harehills Lane", "addr:city": "Leeds", "addr:postcode": "LS9 7BG", "addr:country": "GB", "name": "Harehills", "website": "https://heronfoods.com/store/harehills/", "opening_hours": "Mo-Sa 08:00-20:00; Su 09:00-16:00", "brand": "Heron Foods", "brand:wikidata": "Q5743472", "nsi_id": "heronfoods-a8278b"}, "geometry": {"type": "Point", "coordinates": [-1.5097852, 53.80931469999999]}},
{"type": "Feature", "id": "8G8NbyYdorzJCuU7YRRPnHQX1no=", "properties": {"ref": "9199353", "@spider": "heron_foods", "shop": "supermarket", "addr:street_address": "12-14 Market Street", "addr:city": "Halifax", "addr:postcode": "HX1 1PB", "addr:country": "GB", "name": "Halifax", "website": "https://heronfoods.com/store/halifax/", "opening_hours": "Mo-Sa 08:00-19:00; Su 09:00-17:00", "brand": "Heron Foods", "brand:wikidata": "Q5743472", "nsi_id": "heronfoods-a8278b"}, "geometry": {"type": "Point", "coordinates": [-1.8590163, 53.7229666]}},
{"type": "Feature", "id": "ghtw7PYTYRyv7YixwCULURTRhAM=", "properties": {"ref": "9199242", "@spider": "heron_foods", "shop": "supermarket", "addr:street_address": "25 Town Street, Armley", "addr:city": "Leeds", "addr:postcode": "LS12 1UX", "addr:country": "GB", "name": "Armley", "website": "https://heronfoods.com/store/armley/", "opening_hours": "Mo-Sa 08:00-20:00; Su 09:00-17:00", "brand": "Heron Foods", "brand:wikidata": "Q5743472", "nsi_id": "heronfoods-a8278b"}, "geometry": {"type": "Point", "coordinates": [-1.5897096, 53.79711769999999]}},
{"type": "Feature", "id": "7TA-UO2AGvilCkQYYSN6Ykbv21Y=", "properties": {"ref": "9199499", "@spider": "heron_foods", "shop": "supermarket", "addr:street_address": "5 The Square, Tyldesley", "addr:city": "Manchester", "addr:postcode": "M29 8DR", "addr:country": "GB", "name": "Tyldesley", "website": "https://heronfoods.com/store/tyldesley/", "opening_hours": "Mo-Sa 08:00-20:00; Su 10:00-16:00", "brand": "Heron Foods", "brand:wikidata": "Q5743472", "nsi_id": "heronfoods-a8278b"}, "geometry": {"type": "Point", "coordinates": [-2.467516, 53.5142372]}},
{"type": "Feature", "id": "46ltqye_je4IHtYtShEEfbhLY18=", "properties": {"ref": "9199449", "@spider": "heron_foods", "shop": "supermarket", "addr:street_address": "Unit 3, Butt Lane, Pudsey Road", "addr:city": "Leeds", "addr:postcode": "LS13 4JF", "addr:country": "GB", "name": "Pudsey Road", "website": "https://heronfoods.com/store/pudsey-road/", "opening_hours": "Mo-Sa 08:00-20:00; Su 09:00-18:00", "brand": "Heron Foods", "brand:wikidata": "Q5743472", "nsi_id": "heronfoods-a8278b"}, "geometry": {"type": "Point", "coordinates": [-1.6206873, 53.79565669999999]}},
{"type": "Feature", "id": "O7Sbc2DPx62fu0Zi6r_TTtjJNEo=", "properties": {"ref": "9199333", "@spider": "heron_foods", "shop": "supermarket", "addr:street_address": "52B Brackley Street, Farnworth", "addr:city": "Bolton", "addr:postcode": "BL4 9DR", "addr:country": "GB", "name": "Farnworth", "website": "https://heronfoods.com/store/farnworth/", "opening_hours": "Mo-Sa 08:00-19:00; Su 10:00-16:00", "brand": "Heron Foods", "brand:wikidata": "Q5743472", "nsi_id": "heronfoods-a8278b"}, "geometry": {"type": "Point", "coordinates": [-2.3957178, 53.54775540000001]}},
{"type": "Feature", "id": "j9DjgKqXMS_HKvSEeoXMCKzbYLM=", "properties": {"ref": "9199391", "@spider": "heron_foods", "shop": "supermarket", "addr:street_address": "44-46 Bradshawgate, Leigh", "addr:city": "Lancashire", "addr:postcode": "WN7 4LA", "addr:country": "GB", "name": "Leigh", "website": "https://heronfoods.com/store/leigh/", "opening_hours": "Mo-Sa 08:00-18:00; Su 10:00-16:00", "brand": "Heron Foods", "brand:wikidata": "Q5743472", "nsi_id": "heronfoods-a8278b"}, "geometry": {"type": "Point", "coordinates": [-2.5170408, 53.4961308]}},
{"type": "Feature", "id": "-msGYdrmJYmlx8VxpPFAAmTXPzI=", "properties": {"ref": "9199476", "@spider": "heron_foods", "shop": "convenience", "addr:street_address": "57 Chester Road, Shotton", "addr:city": "Flintshire", "addr:postcode": "CH5 1BY", "addr:country": "GB", "name": "Shotton", "website": "https://heronfoods.com/store/shotton-bm-express/", "opening_hours": "Mo-Sa 08:00-18:00; Su 10:00-16:00", "brand": "B&M Express", "brand:wikidata": "Q99640578", "nsi_id": "bandmexpress-232829"}, "geometry": {"type": "Point", "coordinates": [-3.0423351, 53.2130146]}},
{"type": "Feature", "id": "F_Z56g-RiaczocQvcdLxccPTskc=", "properties": {"ref": "9199284", "@spider": "heron_foods", "shop": "supermarket", "addr:street_address": "Unit 1, Kay Gardens, 15 Market Street", "addr:city": "Bury", "addr:postcode": "BL9 0BL", "addr:country": "GB", "name": "Bury", "website": "https://heronfoods.com/store/bury/", "opening_hours": "Mo-Sa 08:00-19:00", "brand": "Heron Foods", "brand:wikidata": "Q5743472", "nsi_id": "heronfoods-a8278b"}, "geometry": {"type": "Point", "coordinates": [-2.2971422, 53.5918863]}},
{"type": "Feature", "id": "znKTdxZ9XxMfk3elJ4EOtYzfW5U=", "properties": {"ref": "9199322", "@spider": "heron_foods", "shop": "supermarket", "addr:street_address": "10-12 Market Street, Earlestown", "addr:city": "Newton le Willows", "addr:postcode": "WA12 9AN", "addr:country": "GB", "name": "Earlstown", "website": "https://heronfoods.com/store/earlstown/", "opening_hours": "Mo-Sa 08:00-18:00; Su 09:00-17:00", "brand": "Heron Foods", "brand:wikidata": "Q5743472", "nsi_id": "heronfoods-a8278b"}, "geometry": {"type": "Point", "coordinates": [-2.6408608, 53.4521266]}},
{"type": "Feature", "id": "Pb27o31M4yWneVfrEkGdXAo6pbY=", "properties": {"ref": "9199249", "@spider": "heron_foods", "shop": "supermarket", "addr:street_address": "70-78 Market Street", "addr:city": "Atherton", "addr:postcode": "M46 0DA", "addr:country": "GB", "name": "Atherton", "website": "https://heronfoods.com/store/atherton/", "opening_hours": "Mo-Sa 08:00-18:00; Su 11:00-17:00", "brand": "Heron Foods", "brand:wikidata": "Q5743472", "nsi_id": "heronfoods-a8278b"}, "geometry": {"type": "Point", "coordinates": [-2.4938769, 53.52359689999999]}},
{"type": "Feature", "id": "pcM4m6oePUFZyy2U47AkegFj0po=", "properties": {"ref": "9199488", "@spider": "heron_foods", "shop": "convenience", "addr:street_address": "Unit 3, Belgrave Retail Park, Town Street", "addr:city": "Stanningley", "addr:postcode": "LS28 6EX", "addr:country": "GB", "name": "Stanningley", "website": "https://heronfoods.com/store/stanningley-bm-express/", "opening_hours": "Mo-Sa 08:00-20:00; Su 10:00-16:00", "brand": "B&M Express", "brand:wikidata": "Q99640578", "nsi_id": "bandmexpress-232829"}, "geometry": {"type": "Point", "coordinates": [-1.6620827, 53.8062879]}},
{"type": "Feature", "id": "N9LFARIV8Ehy2kYh96M6ChAD-M4=", "properties": {"ref": "9199297", "@spider": "heron_foods", "shop": "supermarket", "addr:street_address": "Unit 3, Scott Works, Clayton Road", "addr:city": "Bradford", "addr:postcode": "BD7 2SG", "addr:country": "GB", "name": "Clayton", "website": "https://heronfoods.com/store/clayton/", "opening_hours": "Mo-Sa 08:00-20:00; Su 10:00-16:00", "brand": "Heron Foods", "brand:wikidata": "Q5743472", "nsi_id": "heronfoods-a8278b"}, "geometry": {"type": "Point", "coordinates": [-1.7978844, 53.78304439999999]}},
{"type": "Feature", "id": "846U3hXFH1KaVYW7QSAL_F3Prjo=", "properties": {"ref": "9199245", "@spider": "heron_foods", "shop": "supermarket", "addr:street_address": "Unit 8B Gerard Centre, Gerard Street", "addr:city": "Ashton in Makerfield", "addr:postcode": "WN4 9AN", "addr:country": "GB", "name": "Ashton in Makerfield", "website": "https://heronfoods.com/store/ashton-in-makerfield/", "opening_hours": "Mo-Sa 08:00-20:00; Su 09:00-17:00", "brand": "Heron Foods", "brand:wikidata": "Q5743472", "nsi_id": "heronfoods-a8278b"}, "geometry": {"type": "Point", "coordinates": [-2.637104, 53.4864401]}},
{"type": "Feature", "id": "BSWYMDJrvD7G-6NOunx-Nc4BqXM=", "properties": {"ref": "9199498", "@spider": "heron_foods", "shop": "supermarket", "addr:street_address": "150 Tonge Moor Road", "addr:city": "Bolton", "addr:postcode": "BL2 2HT", "addr:country": "GB", "name": "Tonge Moor", "website": "https://heronfoods.com/store/tonge-moor/", "opening_hours": "Mo-Sa 08:00-20:00; Su 10:00-16:00", "brand": "Heron Foods", "brand:wikidata": "Q5743472", "nsi_id": "heronfoods-a8278b"}, "geometry": {"type": "Point", "coordinates": [-2.4123688, 53.5882071]}},
{"type": "Feature", "id": "S5xgDKgxTnZqObAHwZtIe3HfK7s=", "properties": {"ref": "9199486", "@spider": "heron_foods", "shop": "supermarket", "addr:street_address": "Unit 4, The Hardshaw Centre", "addr:city": "St Helens", "addr:postcode": "WA10 1EB", "addr:country": "GB", "name": "St Helens", "website": "https://heronfoods.com/store/st-helens/", "opening_hours": "Mo-Sa 08:00-17:30; Su 10:00-16:00", "brand": "Heron Foods", "brand:wikidata": "Q5743472", "nsi_id": "heronfoods-a8278b"}, "geometry": {"type": "Point", "coordinates": [-2.7341498, 53.4525753]}},
{"type": "Feature", "id": "FtUeisQ3FEO7eZsoW1CWguFLgjc=", "properties": {"ref": "9200626", "@spider": "heron_foods", "shop": "supermarket", "addr:street_address": "Allerton Road Allerton", "addr:city": "Bradford", "addr:postcode": "BD15 7BN", "addr:country": "GB", "name": "Allerton", "website": "https://heronfoods.com/store/allerton/", "opening_hours": "Mo-We 08:00-20:00; Th 08:00-17:20; Fr-Sa 08:00-20:00; Su 10:00-16:00", "brand": "Heron Foods", "brand:wikidata": "Q5743472", "nsi_id": "heronfoods-a8278b"}, "geometry": {"type": "Point", "coordinates": [-1.8223362, 53.8053636]}},
{"type": "Feature", "id": "6jWyC_avZtBMn3CbQSS27FIrefE=", "properties": {"ref": "9199444", "@spider": "heron_foods", "shop": "supermarket", "addr:street_address": "41/43 Eccleston Street", "addr:city": "Prescot", "addr:postcode": "L34 5QD", "addr:country": "GB", "name": "Prescot", "website": "https://heronfoods.com/store/prescot/", "opening_hours": "Mo-Sa 08:00-19:00; Su 09:00-17:00", "brand": "Heron Foods", "brand:wikidata": "Q5743472", "nsi_id": "heronfoods-a8278b"}, "geometry": {"type": "Point", "coordinates": [-2.804574, 53.4291566]}},
{"type": "Feature", "id": "SsHkEsCSj-CmEKlrii71dJU1wVs=", "properties": {"ref": "9199373", "@spider": "heron_foods", "shop": "supermarket", "addr:street_address": "63-65 Derby Road, Huyton", "addr:city": "Liverpool", "addr:postcode": "L36 9UQ", "addr:country": "GB", "name": "Huyton", "website": "https://heronfoods.com/store/huyton/", "opening_hours": "Mo-Sa 08:00-18:00; Su 10:00-16:00", "brand": "Heron Foods", "brand:wikidata": "Q5743472", "nsi_id": "heronfoods-a8278b"}, "geometry": {"type": "Point", "coordinates": [-2.8389569, 53.4109207]}},
{"type": "Feature", "id": "mTfRlOGNBC9DWhlPiLu0Oq26p5k=", "properties": {"ref": "9202502", "@spider": "heron_foods", "shop": "supermarket", "addr:street_address": "4 Front Street Acomb", "addr:city": "York", "addr:postcode": "YO24 3BN", "addr:country": "GB", "name": "Acomb", "website": "https://heronfoods.com/store/acomb/", "opening_hours": "Mo-Sa 08:00-20:00; Su 10:00-16:00", "brand": "Heron Foods", "brand:wikidata": "Q5743472", "nsi_id": "heronfoods-a8278b"}, "geometry": {"type": "Point", "coordinates": [-1.1240668, 53.9554394]}},
{"type": "Feature", "id": "FKdkIy1Lic436NYv3DnnqbcQpwQ=", "properties": {"ref": "9199283", "@spider": "heron_foods", "shop": "supermarket", "addr:street_address": "165-167 Burton Stone Lane", "addr:city": "York", "addr:postcode": "YO30 6DG", "addr:country": "GB", "name": "Burton Stone Lane", "website": "https://heronfoods.com/store/burton-stone-lane/", "opening_hours": "Mo-Sa 08:00-20:00; Su 09:00-17:00", "brand": "Heron Foods", "brand:wikidata": "Q5743472", "nsi_id": "heronfoods-a8278b"}, "geometry": {"type": "Point", "coordinates": [-1.0876539, 53.9724382]}},
{"type": "Feature", "id": "gmxAwY6DCTYlZHGc45f9zIwDzd4=", "properties": {"ref": "9199523", "@spider": "heron_foods", "shop": "supermarket", "addr:street_address": "Unit 73, The Winstanley Centre, Winstanley", "addr:city": "Wigan", "addr:postcode": "WN3 6JA", "addr:country": "GB", "name": "Winstanley", "website": "https://heronfoods.com/store/winstanley/", "opening_hours": "Mo-Sa 08:00-20:00; Su 10:00-16:00", "brand": "Heron Foods", "brand:wikidata": "Q5743472", "nsi_id": "heronfoods-a8278b"}, "geometry": {"type": "Point", "coordinates": [-2.6695993, 53.5217955]}},
{"type": "Feature", "id": "kJwVzgkntuOz9b7NIb4Yf3pkuSY=", "properties": {"ref": "9199237", "@spider": "heron_foods", "shop": "supermarket", "addr:street_address": "180/182 Aigburth Road", "addr:city": "Liverpool", "addr:postcode": "L17 9PE", "addr:country": "GB", "name": "Aigburth Road", "website": "https://heronfoods.com/store/aigburth-road/", "opening_hours": "Mo-Sa 08:00-19:00; Su 09:00-17:00", "brand": "Heron Foods", "brand:wikidata": "Q5743472", "nsi_id": "heronfoods-a8278b"}, "geometry": {"type": "Point", "coordinates": [-2.948138, 53.3782864]}},
{"type": "Feature", "id": "tV8LwSoRWuDrxLBBxrk4dRNyevY=", "properties": {"ref": "9199417", "@spider": "heron_foods", "shop": "supermarket", "addr:street_address": "76 New Chester Road", "addr:city": "New Ferry", "addr:postcode": "CH62 5AJ", "addr:country": "GB", "name": "New Ferry", "website": "https://heronfoods.com/store/new-ferry/", "opening_hours": "Mo-Sa 08:00-18:00; Su 08:00-17:00", "brand": "Heron Foods", "brand:wikidata": "Q5743472", "nsi_id": "heronfoods-a8278b"}, "geometry": {"type": "Point", "coordinates": [-2.9976082, 53.36114269999999]}},
{"type": "Feature", "id": "vzOp8D-uEGOMQ4_ItqumPgO9OXY=", "properties": {"ref": "9199442", "@spider": "heron_foods", "shop": "supermarket", "addr:street_address": "735/737 Ormsirk Road, Pemberton", "addr:city": "Wigan", "addr:postcode": "WN5 8AT", "addr:country": "GB", "name": "Pemberton", "website": "https://heronfoods.com/store/pemberton/", "opening_hours": "Mo-Sa 08:00-19:00; Su 09:00-17:00", "brand": "Heron Foods", "brand:wikidata": "Q5743472", "nsi_id": "heronfoods-a8278b"}, "geometry": {"type": "Point", "coordinates": [-2.682583, 53.5364581]}},
{"type": "Feature", "id": "UVPR-JC3yEz0ACKnnhv13NVPXns=", "properties": {"ref": "9199414", "@spider": "heron_foods", "shop": "supermarket", "addr:street_address": "Unit 5 Myrtle Parade, Myrtle Street", "addr:city": "Liverpool", "addr:postcode": "L7 7EL", "addr:country": "GB", "name": "Myrtle Parade", "website": "https://heronfoods.com/store/myrtle-parade/", "opening_hours": "Mo-Sa 08:00-20:00; Su 10:00-16:00", "brand": "Heron Foods", "brand:wikidata": "Q5743472", "nsi_id": "heronfoods-a8278b"}, "geometry": {"type": "Point", "coordinates": [-2.9654296, 53.4007269]}},
{"type": "Feature", "id": "bzE8lscRbMXjPf5dYbSYwho9TyY=", "properties": {"ref": "9199514", "@spider": "heron_foods", "shop": "supermarket", "addr:street_address": "539 West Derby Road", "addr:city": "Tuebrook", "addr:postcode": "L13 8AA", "addr:country": "GB", "name": "West Derby", "website": "https://heronfoods.com/store/west-derby/", "opening_hours": "Mo-Sa 08:00-18:00; Su 09:00-17:00", "brand": "Heron Foods", "brand:wikidata": "Q5743472", "nsi_id": "heronfoods-a8278b"}, "geometry": {"type": "Point", "coordinates": [-2.9340721, 53.4244627]}},
{"type": "Feature", "id": "Xw2jiOuD1rgdIJVjqDJx0Vm6GxA=", "properties": {"ref": "9199278", "@spider": "heron_foods", "shop": "supermarket", "addr:street_address": "Unit 28b, The Promenade Shopping Centre", "addr:city": "Bridlington", "addr:postcode": "YO15 2QD", "addr:country": "GB", "name": "Bridlington", "website": "https://heronfoods.com/store/bridlington/", "opening_hours": "Mo-Sa 08:30-18:00; Su 10:30-16:30", "brand": "Heron Foods", "brand:wikidata": "Q5743472", "nsi_id": "heronfoods-a8278b"}, "geometry": {"type": "Point", "coordinates": [-0.1898495, 54.0833904]}},
{"type": "Feature", "id": "5YWnY-VCjKqhVTx4A5LJl1QTZZs=", "properties": {"ref": "9203140", "@spider": "heron_foods", "shop": "supermarket", "addr:street_address": "89-91 Broad Lane Norris Green", "addr:city": "Liverpool", "addr:postcode": "L11 1DA", "addr:country": "GB", "name": "Broad Lane", "website": "https://heronfoods.com/store/broad-lane/", "opening_hours": "Mo-Sa 08:00-20:00; Su 10:00-16:00", "brand": "Heron Foods", "brand:wikidata": "Q5743472", "nsi_id": "heronfoods-a8278b"}, "geometry": {"type": "Point", "coordinates": [-2.9282304, 53.44139509999999]}},
{"type": "Feature", "id": "3hFMq3o2VZWG0--dBU0OLlWDMBI=", "properties": {"ref": "9199264", "@spider": "heron_foods", "shop": "supermarket", "addr:street_address": "Units 20-24, Princes Pavement, The Grange", "addr:city": "Birkenhead", "addr:postcode": "CH41 2XY", "addr:country": "GB", "name": "Birkenhead", "website": "https://heronfoods.com/store/birkenhead/", "opening_hours": "Mo-Sa 08:00-18:00; Su 10:00-16:00", "brand": "Heron Foods", "brand:wikidata": "Q5743472", "nsi_id": "heronfoods-a8278b"}, "geometry": {"type": "Point", "coordinates": [-3.0219763, 53.3907536]}},
{"type": "Feature", "id": "fGTvwC81CdoOO9J3WFbBXzbK214=", "properties": {"ref": "9199388", "@spider": "heron_foods", "shop": "supermarket", "addr:street_address": "148-150 Cherryfield Drive Ace ta", "addr:city": "Liverpool", "addr:postcode": "L32 8RX", "addr:country": "GB", "name": "Kirkby", "website": "https://heronfoods.com/store/kirkby/", "opening_hours": "Mo-Sa 08:00-18:00; Su 09:00-16:00", "brand": "Heron Foods", "brand:wikidata": "Q5743472", "nsi_id": "heronfoods-a8278b"}, "geometry": {"type": "Point", "coordinates": [-2.8891797, 53.4818273]}},
{"type": "Feature", "id": "eyfhavRINoWmxhdvJxxC7VjlqJk=", "properties": {"ref": "9199505", "@spider": "heron_foods", "shop": "supermarket", "addr:street_address": "49A County Road, Walton", "addr:city": "Liverpool", "addr:postcode": "L4 3QA", "addr:country": "GB", "name": "Walton", "website": "https://heronfoods.com/store/walton/", "opening_hours": "Mo-Sa 08:00-18:00; Su 09:00-17:00", "brand": "Heron Foods", "brand:wikidata": "Q5743472", "nsi_id": "heronfoods-a8278b"}, "geometry": {"type": "Point", "coordinates": [-2.971113, 53.4398732]}},
{"type": "Feature", "id": "Y5CQ1qOwzNAtHmurQtheQq3hudM=", "properties": {"ref": "9199501", "@spider": "heron_foods", "shop": "supermarket", "addr:street_address": "6-8 Cherry Square", "addr:city": "Wallasey", "addr:postcode": "CH44 5XU", "addr:country": "GB", "name": "Wallasey", "website": "https://heronfoods.com/store/wallasey/", "opening_hours": "Mo-Sa 10:00-17:30", "brand": "Heron Foods", "brand:wikidata": "Q5743472", "nsi_id": "heronfoods-a8278b"}, "geometry": {"type": "Point", "coordinates": [-3.0449241, 53.4190074]}},
{"type": "Feature", "id": "lfMSdQ5C9WHzuteAOiKt8vfTvkQ=", "properties": {"ref": "9200634", "@spider": "heron_foods", "shop": "supermarket", "addr:street_address": "Units 47-49 & 55-56 Cherry Tree Shopping Centre", "addr:city": "Wallasey", "addr:country": "GB", "name": "Cherry Tree", "website": "https://heronfoods.com/store/cherry-tree/", "opening_hours": "Mo-Sa 08:00-17:30", "brand": "Heron Foods", "brand:wikidata": "Q5743472", "nsi_id": "heronfoods-a8278b"}, "geometry": {"type": "Point", "coordinates": [-3.043947, 53.4195805]}},
{"type": "Feature", "id": "6IEiPe-SE0gTz4vzDYQQLPG8hNM=", "properties": {"ref": "9199272", "@spider": "heron_foods", "shop": "supermarket", "addr:street_address": "Unit 16, Parkside, Bootle, The Strand Shopping CentreT", "addr:city": "Liverpool", "addr:postcode": "L20 0ST", "addr:country": "GB", "name": "Bootle", "website": "https://heronfoods.com/store/bootle/", "opening_hours": "Mo-Sa 08:00-18:00; Su 10:00-16:00", "brand": "Heron Foods", "brand:wikidata": "Q5743472", "nsi_id": "heronfoods-a8278b"}, "geometry": {"type": "Point", "coordinates": [-2.9933739, 53.4518333]}},
{"type": "Feature", "id": "iFIeBYmnLAECAyk1mU_O1ihy1fI=", "properties": {"ref": "9199413", "@spider": "heron_foods", "shop": "supermarket", "addr:street_address": "220 Hoylake Road, Moreton", "addr:city": "Wirral", "addr:postcode": "CH46 6AD", "addr:country": "GB", "name": "Moreton", "website": "https://heronfoods.com/store/moreton/", "opening_hours": "Mo-Sa 08:00-20:00; Su 10:00-16:00", "brand": "Heron Foods", "brand:wikidata": "Q5743472", "nsi_id": "heronfoods-a8278b"}, "geometry": {"type": "Point", "coordinates": [-3.1127498, 53.4013108]}},
{"type": "Feature", "id": "gdNXwGxSxAs6ozqzN76GeDlD3q4=", "properties": {"ref": "9199436", "@spider": "heron_foods", "shop": "supermarket", "addr:street_address": "276 Union Road", "addr:city": "Oswaldtwistle", "addr:postcode": "BB5 3LB", "addr:country": "GB", "name": "Oswaldtwistle", "website": "https://heronfoods.com/store/oswaldtwistle/", "opening_hours": "Mo-Sa 08:00-20:00; Su 10:00-16:00", "brand": "Heron Foods", "brand:wikidata": "Q5743472", "nsi_id": "heronfoods-a8278b"}, "geometry": {"type": "Point", "coordinates": [-2.3973308, 53.7428702]}},
{"type": "Feature", "id": "bIloBEDk8KjQhYb2qhLPViBpV4Y=", "properties": {"ref": "9201567", "@spider": "heron_foods", "shop": "supermarket", "addr:street_address": "Brambles PH Twickenham Drive", "addr:city": "Leasowe", "addr:postcode": "CH46 2QE", "addr:country": "GB", "name": "Leasowe", "website": "https://heronfoods.com/store/leasowe/", "opening_hours": "Mo-Sa 08:00-20:00; Su 10:00-16:00", "brand": "Heron Foods", "brand:wikidata": "Q5743472", "nsi_id": "heronfoods-a8278b"}, "geometry": {"type": "Point", "coordinates": [-3.090745, 53.4150351]}},
{"type": "Feature", "id": "9kqfnUh16XNFu-Xd33Rr3SJgtuo=", "properties": {"ref": "9199416", "@spider": "heron_foods", "shop": "supermarket", "addr:street_address": "23-27 Marian Square, Netherton, Bootle", "addr:city": "Liverpool", "addr:postcode": "L30 5QA", "addr:country": "GB", "name": "Netherton", "website": "https://heronfoods.com/store/netherton/", "opening_hours": "Mo-Sa 08:00-19:00; Su 10:00-16:00", "brand": "Heron Foods", "brand:wikidata": "Q5743472", "nsi_id": "heronfoods-a8278b"}, "geometry": {"type": "Point", "coordinates": [-2.9743122, 53.48857220000001]}},
{"type": "Feature", "id": "EIQYxQlwrEgzSGKQuIp873IcTSI=", "properties": {"ref": "9199471", "@spider": "heron_foods", "shop": "supermarket", "addr:street_address": "Unit 5, Shadsworth Hub, Rothesay Road, Shadsworth", "addr:city": "Blackburn", "addr:postcode": "BB1 2JB", "addr:country": "GB", "name": "Shadsworth", "website": "https://heronfoods.com/store/shadsworth/", "opening_hours": "Mo-Sa 08:00-21:00; Su 10:00-16:00", "brand": "Heron Foods", "brand:wikidata": "Q5743472", "nsi_id": "heronfoods-a8278b"}, "geometry": {"type": "Point", "coordinates": [-2.4459442, 53.7384726]}},
{"type": "Feature", "id": "QRj3gPrMSfV1ZUmVeOf8CK9zEI8=", "properties": {"ref": "9199402", "@spider": "heron_foods", "shop": "supermarket", "addr:street_address": "15-17 Wheelgate", "addr:city": "Malton", "addr:postcode": "YO17 7HT", "addr:country": "GB", "name": "Malton", "website": "https://heronfoods.com/store/malton/", "opening_hours": "Mo-Sa 08:00-19:00; Su 10:00-16:00", "brand": "Heron Foods", "brand:wikidata": "Q5743472", "nsi_id": "heronfoods-a8278b"}, "geometry": {"type": "Point", "coordinates": [-0.7971224, 54.1355158]}},
{"type": "Feature", "id": "RK0jpADLfzuupPmMOkeWOVmojuI=", "properties": {"ref": "9199336", "@spider": "heron_foods", "shop": "supermarket", "addr:street_address": "16 Station Avenue", "addr:city": "Filey", "addr:postcode": "YO14 9AQ", "addr:country": "GB", "name": "Filey", "website": "https://heronfoods.com/store/filey/", "opening_hours": "Mo-Sa 08:00-21:00; Su 10:00-16:00", "brand": "Heron Foods", "brand:wikidata": "Q5743472", "nsi_id": "heronfoods-a8278b"}, "geometry": {"type": "Point", "coordinates": [-0.2936009, 54.2103027]}},
{"type": "Feature", "id": "NmI0zHQ8ME3b5GbDyw_r_cI-bN8=", "properties": {"ref": "9203666", "@spider": "heron_foods", "shop": "supermarket", "addr:street_address": "198 Miller Road Ribbleton", "addr:city": "Preston", "addr:postcode": "PR2 6NH", "addr:country": "GB", "name": "Ribbleton", "website": "https://heronfoods.com/store/ribbleton/", "opening_hours": "Mo-Sa 08:00-20:00; Su 10:00-16:00", "brand": "Heron Foods", "brand:wikidata": "Q5743472", "nsi_id": "heronfoods-a8278b"}, "geometry": {"type": "Point", "coordinates": [-2.6574247, 53.7706866]}},
{"type": "Feature", "id": "xpXOoa6PLrMGCxhLpDdfQQvYe4Q=", "properties": {"ref": "9199455", "@spider": "heron_foods", "shop": "supermarket", "addr:street_address": "84-86 High Street", "addr:city": "Rhyl", "addr:postcode": "LL18 1UB", "addr:country": "GB", "name": "Rhyl", "website": "https://heronfoods.com/store/rhyl/", "opening_hours": "Mo-Sa 08:00-18:00; Su 10:00-16:00", "brand": "Heron Foods", "brand:wikidata": "Q5743472", "nsi_id": "heronfoods-a8278b"}, "geometry": {"type": "Point", "coordinates": [-3.4891688, 53.3197583]}},
{"type": "Feature", "id": "Y5o4dnqAuYcvjlD2HHYOMDpq85g=", "properties": {"ref": "9199445", "@spider": "heron_foods", "shop": "supermarket", "addr:street_address": "Units 7-11 Lancaster Way, St Johns Centre", "addr:city": "Preston", "addr:postcode": "PR1 1FB", "addr:country": "GB", "name": "Preston", "website": "https://heronfoods.com/store/preston/", "opening_hours": "Mo-Sa 08:00-18:00; Su 10:00-16:00", "brand": "Heron Foods", "brand:wikidata": "Q5743472", "nsi_id": "heronfoods-a8278b"}, "geometry": {"type": "Point", "coordinates": [-2.6965162, 53.7612169]}},
{"type": "Feature", "id": "0nQngEYezJWJ5G2gqk0hpyB6sG4=", "properties": {"ref": "9199342", "@spider": "heron_foods", "shop": "supermarket", "addr:street_address": "412-414 Watling Street Road, Fulwood, Preston, PR2 6TY", "addr:city": "Preston", "addr:postcode": "PR2 6TY", "addr:country": "GB", "name": "Fulwood", "website": "https://heronfoods.com/store/fulwood/", "opening_hours": "Mo-Sa 08:00-20:00; Su 10:00-16:00", "brand": "Heron Foods", "brand:wikidata": "Q5743472", "nsi_id": "heronfoods-a8278b"}, "geometry": {"type": "Point", "coordinates": [-2.6706259, 53.78211289999999]}},
{"type": "Feature", "id": "Wbuh1pQeE5I-B8Z0xY1JBwFqU2c=", "properties": {"ref": "9199482", "@spider": "heron_foods", "shop": "convenience", "addr:street_address": "Unit 1 29/33 Tulketh Street", "addr:city": "Southport", "addr:postcode": "PR8 1AG", "addr:country": "GB", "name": "Southport", "website": "https://heronfoods.com/store/southport-bm-express/", "opening_hours": "Mo-Sa 08:00-18:00; Su 11:00-17:00", "brand": "B&M Express", "brand:wikidata": "Q99640578", "nsi_id": "bandmexpress-232829"}, "geometry": {"type": "Point", "coordinates": [-3.0039457, 53.645982]}},
{"type": "Feature", "id": "gxehv9Jghl2vFlWAf6Couq4q_Mk=", "properties": {"ref": "9199467", "@spider": "heron_foods", "shop": "supermarket", "addr:street_address": "71 Newborough", "addr:city": "Scarborough", "addr:postcode": "YO11 1ET", "addr:country": "GB", "name": "Scarborough", "website": "https://heronfoods.com/store/scarborough/", "opening_hours": "Mo-Sa 08:00-19:00; Su 09:00-17:00", "brand": "Heron Foods", "brand:wikidata": "Q5743472", "nsi_id": "heronfoods-a8278b"}, "geometry": {"type": "Point", "coordinates": [-0.3992223, 54.2829869]}},
{"type": "Feature", "id": "TtD7DeGh0f3gRbperYfFLBE_yhE=", "properties": {"ref": "9199496", "@spider": "heron_foods", "shop": "supermarket", "addr:street_address": "65-67 Market Place", "addr:city": "Thirsk", "addr:postcode": "YO7 1EY", "addr:country": "GB", "name": "Thirsk", "website": "https://heronfoods.com/store/thirsk/", "opening_hours": "Mo-Sa 08:00-19:00; Su 09:00-17:00", "brand": "Heron Foods", "brand:wikidata": "Q5743472", "nsi_id": "heronfoods-a8278b"}, "geometry": {"type": "Point", "coordinates": [-1.3424367, 54.2330942]}},
{"type": "Feature", "id": "JHXmKEKIzKiAo4sKSVUTImB2HRw=", "properties": {"ref": "9199302", "@spider": "heron_foods", "shop": "supermarket", "addr:street_address": "Unit 2 Bay View Shopping Centre", "addr:city": "Colwyn Bay", "addr:postcode": "LL29 8DG", "addr:country": "GB", "name": "Colwyn Bay", "website": "https://heronfoods.com/store/colwyn-bay/", "opening_hours": "Mo-Sa 08:00-19:00", "brand": "Heron Foods", "brand:wikidata": "Q5743472", "nsi_id": "heronfoods-a8278b"}, "geometry": {"type": "Point", "coordinates": [-3.7244651, 53.2953316]}},
{"type": "Feature", "id": "FXvTc-Eajh8-6QO1XvlmP1MLCMg=", "properties": {"ref": "9199250", "@spider": "heron_foods", "shop": "supermarket", "addr:street_address": "78 Bank Hey Street", "addr:city": "Blackpool", "addr:postcode": "FY1 4PX", "addr:country": "GB", "name": "Bank Hey Street", "website": "https://heronfoods.com/store/bank-hey-street/", "opening_hours": "Mo-Sa 08:00-18:00; Su 09:00-16:00", "brand": "Heron Foods", "brand:wikidata": "Q5743472", "nsi_id": "heronfoods-a8278b"}, "geometry": {"type": "Point", "coordinates": [-3.0541294, 53.8149102]}},
{"type": "Feature", "id": "z6NBcC-qM7a6_nNG9jnCMrA60Y0=", "properties": {"ref": "9199494", "@spider": "heron_foods", "shop": "supermarket", "addr:street_address": "65-67 Talbot Road", "addr:city": "Blackpool", "addr:postcode": "FY1 1LL", "addr:country": "GB", "name": "Talbot Road", "website": "https://heronfoods.com/store/talbot-road/", "opening_hours": "Mo-Sa 08:00-18:00; Su 09:00-16:00", "brand": "Heron Foods", "brand:wikidata": "Q5743472", "nsi_id": "heronfoods-a8278b"}, "geometry": {"type": "Point", "coordinates": [-3.0517692, 53.8202106]}},
{"type": "Feature", "id": "0tRmbF19T9DPfd6TMDPdBA5_3h0=", "properties": {"ref": "9199267", "@spider": "heron_foods", "shop": "supermarket", "addr:street_address": "Co-Op, Red Bank Road, Bispham", "addr:city": "Blackpool", "addr:postcode": "FY2 0HJ", "addr:country": "GB", "name": "Bispham", "website": "https://heronfoods.com/store/bispham/", "opening_hours": "Mo-Sa 08:00-20:00", "brand": "Heron Foods", "brand:wikidata": "Q5743472", "nsi_id": "heronfoods-a8278b"}, "geometry": {"type": "Point", "coordinates": [-3.0398555, 53.8519905]}},
{"type": "Feature", "id": "VkXzf1C7fXTGOC00WLjHFqj6EaA=", "properties": {"ref": "9199312", "@spider": "heron_foods", "shop": "supermarket", "addr:street_address": "74 Victoria Road West, Thornton", "addr:city": "Cleveleys", "addr:postcode": "FY5 1AG", "addr:country": "GB", "name": "CT Cleveleys", "website": "https://heronfoods.com/store/ct-cleveleys/", "opening_hours": "Mo-Sa 08:00-18:00; Su 10:00-16:00", "brand": "Heron Foods", "brand:wikidata": "Q5743472", "nsi_id": "heronfoods-a8278b"}, "geometry": {"type": "Point", "coordinates": [-3.0422733, 53.8771754]}},
{"type": "Feature", "id": "30oJm1QQoiHdP_iLbGdm2SdcLEg=", "properties": {"ref": "9201604", "@spider": "heron_foods", "shop": "supermarket", "addr:street_address": "155-161 Lord Street", "addr:city": "Fleetwood", "addr:postcode": "FY7 6LY", "addr:country": "GB", "name": "Lord Street", "website": "https://heronfoods.com/store/lord-street/", "opening_hours": "Mo-Sa 08:00-19:00", "brand": "Heron Foods", "brand:wikidata": "Q5743472", "nsi_id": "heronfoods-a8278b"}, "geometry": {"type": "Point", "coordinates": [-3.0144837, 53.9211629]}},
{"type": "Feature", "id": "elJpMb1L8w5QAhvNmK5ZtXExcUI=", "properties": {"ref": "9199338", "@spider": "heron_foods", "shop": "supermarket", "addr:street_address": "163 Lord Street", "addr:city": "Fleetwood", "addr:postcode": "FY7 6LY", "addr:country": "GB", "name": "Fleetwood", "website": "https://heronfoods.com/store/fleetwood/", "opening_hours": "Mo-Sa 08:00-18:00; Su 10:00-16:00", "brand": "Heron Foods", "brand:wikidata": "Q5743472", "nsi_id": "heronfoods-a8278b"}, "geometry": {"type": "Point", "coordinates": [-3.0146289, 53.921113]}},
{"type": "Feature", "id": "K6hfeNXXByidg4q74XruZR4iYEk=", "properties": {"ref": "9199516", "@spider": "heron_foods", "shop": "supermarket", "addr:street_address": "52-53 Baxtergate", "addr:city": "Whitby", "addr:postcode": "YO21 1BL", "addr:country": "GB", "name": "Whitby", "website": "https://heronfoods.com/store/whitby/", "opening_hours": "Mo-Sa 08:00-18:00; Su 10:00-17:00", "brand": "Heron Foods", "brand:wikidata": "Q5743472", "nsi_id": "heronfoods-a8278b"}, "geometry": {"type": "Point", "coordinates": [-0.6148950999999999, 54.486103]}},
{"type": "Feature", "id": "snu1N-Jfsel401BVxBNO4FleHsk=", "properties": {"ref": "9199456", "@spider": "heron_foods", "shop": "supermarket", "addr:street_address": "58-59 Market Place, Richmond", "addr:city": "North Yorkshire", "addr:postcode": "DL10 4HX", "addr:country": "GB", "name": "Richmond", "website": "https://heronfoods.com/store/richmond/", "opening_hours": "Mo-Sa 08:00-18:00; Su 10:00-16:00", "brand": "Heron Foods", "brand:wikidata": "Q5743472", "nsi_id": "heronfoods-a8278b"}, "geometry": {"type": "Point", "coordinates": [-1.7359469, 54.4030137]}},
{"type": "Feature", "id": "8YP7k2iqWWH39W2WvY1P3xRDbwI=", "properties": {"ref": "9199351", "@spider": "heron_foods", "shop": "supermarket", "addr:street_address": "26 Westgate", "addr:city": "Guisborough", "addr:postcode": "TS14 6BA", "addr:country": "GB", "name": "Guisborough", "website": "https://heronfoods.com/store/guisborough/", "opening_hours": "Mo-Sa 08:00-18:00; Su 10:00-17:00", "brand": "Heron Foods", "brand:wikidata": "Q5743472", "nsi_id": "heronfoods-a8278b"}, "geometry": {"type": "Point", "coordinates": [-1.0532267, 54.5355845]}},
{"type": "Feature", "id": "7L2lD_Wov091IBfkH1x3dklNb3w=", "properties": {"ref": "9199435", "@spider": "heron_foods", "shop": "supermarket", "addr:street_address": "Unit 3, 9 High Street, Ormesby", "addr:city": "Middlesbrough", "addr:postcode": "TS7 9PD", "addr:country": "GB", "name": "Ormesby", "website": "https://heronfoods.com/store/ormesby/", "opening_hours": "Mo-Sa 08:00-20:00; Su 10:00-17:00", "brand": "Heron Foods", "brand:wikidata": "Q5743472", "nsi_id": "heronfoods-a8278b"}, "geometry": {"type": "Point", "coordinates": [-1.1811711, 54.5499465]}},
{"type": "Feature", "id": "EEQ3-bYZMoYoiNhspqhNM_-BlqQ=", "properties": {"ref": "9199236", "@spider": "heron_foods", "shop": "supermarket", "addr:street_address": "Unit 1, 51 Acklam Road", "addr:city": "Middlesbrough", "addr:postcode": "TS5 5HA", "addr:country": "GB", "name": "Acklam", "website": "https://heronfoods.com/store/acklam/", "opening_hours": "Mo-Sa 08:00-20:00; Su 10:00-16:00", "brand": "Heron Foods", "brand:wikidata": "Q5743472", "nsi_id": "heronfoods-a8278b"}, "geometry": {"type": "Point", "coordinates": [-1.262045, 54.5515822]}},
{"type": "Feature", "id": "2jNmwAfO23A7InmtxShqLxf0jEw=", "properties": {"ref": "9199324", "@spider": "heron_foods", "shop": "supermarket", "addr:street_address": "57 Eastbourne Road", "addr:city": "Middlesbrough", "addr:postcode": "TS5 6QN", "addr:country": "GB", "name": "Eastbourne Rd", "website": "https://heronfoods.com/store/eastbourne-rd/", "opening_hours": "Mo-Sa 08:00-20:00; Su 10:00-17:00", "brand": "Heron Foods", "brand:wikidata": "Q5743472", "nsi_id": "heronfoods-a8278b"}, "geometry": {"type": "Point", "coordinates": [-1.2339992, 54.55714210000001]}},
{"type": "Feature", "id": "Z5mlftWgBRoSbUvGtTUy7VpBvuY=", "properties": {"ref": "9199348", "@spider": "heron_foods", "shop": "supermarket", "addr:street_address": "Birchington Avenue", "addr:city": "Grangetown", "addr:postcode": "TS6 7HX", "addr:country": "GB", "name": "Grangetown", "website": "https://heronfoods.com/store/grangetown/", "opening_hours": "Mo-Sa 08:00-19:00; Su 10:00-17:00", "brand": "Heron Foods", "brand:wikidata": "Q5743472", "nsi_id": "heronfoods-a8278b"}, "geometry": {"type": "Point", "coordinates": [-1.1420285, 54.5694378]}},
{"type": "Feature", "id": "nVkmaCyvOoYfFaUG4sHkrtkdMqs=", "properties": {"ref": "9199258", "@spider": "heron_foods", "shop": "supermarket", "addr:street_address": "Norfolk Place Ormesby Road Berwick Hills", "addr:city": "Middlesbrough", "addr:postcode": "TS3 7PA", "addr:country": "GB", "name": "Berwick Hills", "website": "https://heronfoods.com/store/berwick-hills/", "opening_hours": "Mo-Sa 08:00-20:00; Su 10:00-16:00", "brand": "Heron Foods", "brand:wikidata": "Q5743472", "nsi_id": "heronfoods-a8278b"}, "geometry": {"type": "Point", "coordinates": [-1.2048044, 54.5617747]}},
{"type": "Feature", "id": "q2XhVYjVdyQro74AWLpJm7vHH_U=", "properties": {"ref": "9199390", "@spider": "heron_foods", "shop": "supermarket", "addr:street_address": "8-10 Scargill Court, Lascelles Estate, Darlington", "addr:city": "County Durham", "addr:postcode": "DL1 4XJ", "addr:country": "GB", "name": "Lascelles", "website": "https://heronfoods.com/store/lascelles/", "opening_hours": "Mo-Sa 08:00-19:00; Su 10:00-16:00", "brand": "Heron Foods", "brand:wikidata": "Q5743472", "nsi_id": "heronfoods-a8278b"}, "geometry": {"type": "Point", "coordinates": [-1.5351201, 54.5162467]}},
{"type": "Feature", "id": "xENh2lk9y-WHFXIVU85kRWsjdBY=", "properties": {"ref": "9199393", "@spider": "heron_foods", "shop": "supermarket", "addr:street_address": "449 Linthorpe Road", "addr:city": "Middlesbrough", "addr:postcode": "TS5 6HX", "addr:country": "GB", "name": "Linthorpe", "website": "https://heronfoods.com/store/linthorpe/", "opening_hours": "Mo-Sa 08:00-20:00; Su 10:00-17:00", "brand": "Heron Foods", "brand:wikidata": "Q5743472", "nsi_id": "heronfoods-a8278b"}, "geometry": {"type": "Point", "coordinates": [-1.2430291, 54.5607396]}},
{"type": "Feature", "id": "7bdth_NbW5O5EtTJovOwTROcxSQ=", "properties": {"ref": "9199489", "@spider": "heron_foods", "shop": "supermarket", "addr:street_address": "8A Castle Way, Castle Gate Centre, Stockton", "addr:city": "Cleveland", "addr:postcode": "TS18 1AL", "addr:country": "GB", "name": "Stockton", "website": "https://heronfoods.com/store/stockton/", "opening_hours": "Mo-Sa 08:00-17:30", "brand": "Heron Foods", "brand:wikidata": "Q5743472", "nsi_id": "heronfoods-a8278b"}, "geometry": {"type": "Point", "coordinates": [-1.31194, 54.562817]}},
{"type": "Feature", "id": "sXbmJ5hufTpZuLuVm3W8wM3FqSA=", "properties": {"ref": "9203792", "@spider": "heron_foods", "shop": "supermarket", "addr:street_address": "Unit 13, Wellington Square Shopping Centre Stockton On Tees", "addr:postcode": "TS18 1NA", "addr:country": "GB", "name": "Wellington Square", "website": "https://heronfoods.com/store/wellington-square/", "opening_hours": "Mo-Sa 08:00-19:00; Su 10:00-16:00", "brand": "Heron Foods", "brand:wikidata": "Q5743472", "nsi_id": "heronfoods-a8278b"}, "geometry": {"type": "Point", "coordinates": [-1.3143078, 54.5658831]}},
{"type": "Feature", "id": "ykjvvdneVKhtJrb_fTxGjUrqdtM=", "properties": {"ref": "9199321", "@spider": "heron_foods", "shop": "supermarket", "addr:street_address": "57-59 Dundass Street", "addr:city": "Middlesbrough", "addr:postcode": "TS1 1HR", "addr:country": "GB", "name": "Dundas Street", "website": "https://heronfoods.com/store/dundas-street/", "opening_hours": "Mo-Sa 08:00-17:30; Su 10:00-16:00", "brand": "Heron Foods", "brand:wikidata": "Q5743472", "nsi_id": "heronfoods-a8278b"}, "geometry": {"type": "Point", "coordinates": [-1.2355187, 54.5766578]}},
{"type": "Feature", "id": "fiQUNyjSOn9MD5gYA2-yfjDg_N8=", "properties": {"ref": "9199458", "@spider": "heron_foods", "shop": "supermarket", "addr:street_address": "Unit 9 Roseberry Shopping Centre, Roseberry Road", "addr:city": "Redcar", "addr:postcode": "TS10 4NY", "addr:country": "GB", "name": "Roseberry", "website": "https://heronfoods.com/store/roseberry/", "opening_hours": "Mo-Sa 08:00-19:00; Su 10:00-17:00", "brand": "Heron Foods", "brand:wikidata": "Q5743472", "nsi_id": "heronfoods-a8278b"}, "geometry": {"type": "Point", "coordinates": [-1.0761472, 54.6024707]}},
{"type": "Feature", "id": "nqc0WxkO4hLvF73jJR5LSWI7rWM=", "properties": {"ref": "9199301", "@spider": "heron_foods", "shop": "supermarket", "addr:street_address": "16 Cockerton Green", "addr:city": "Darlington", "addr:postcode": "DL3 9EH", "addr:country": "GB", "name": "Cockerton Green", "website": "https://heronfoods.com/store/cockerton-green/", "opening_hours": "Mo-Sa 08:00-20:00", "brand": "Heron Foods", "brand:wikidata": "Q5743472", "nsi_id": "heronfoods-a8278b"}, "geometry": {"type": "Point", "coordinates": [-1.5792001, 54.5340141]}},
{"type": "Feature", "id": "BJHzPz0ID8ZDgyimTHKCse1BSRc=", "properties": {"ref": "9199453", "@spider": "heron_foods", "shop": "supermarket", "addr:street_address": "101 High Street, Redcar", "addr:city": "Cleveland", "addr:postcode": "TS10 3DE", "addr:country": "GB", "name": "Redcar", "website": "https://heronfoods.com/store/redcar/", "opening_hours": "Mo-Sa 08:00-18:00; Su 10:00-17:00", "brand": "Heron Foods", "brand:wikidata": "Q5743472", "nsi_id": "heronfoods-a8278b"}, "geometry": {"type": "Point", "coordinates": [-1.0626236, 54.6179104]}},
{"type": "Feature", "id": "bjBRZp84wCaJgbz88gS52aTUjvk=", "properties": {"ref": "9199495", "@spider": "heron_foods", "shop": "supermarket", "addr:street_address": "Hanover Parade, The Glebe", "addr:city": "Stockton-On-Tees", "addr:postcode": "TS20 1RF", "addr:country": "GB", "name": "The Glebe", "website": "https://heronfoods.com/store/the-glebe/", "opening_hours": "Mo-Sa 08:00-20:00", "brand": "Heron Foods", "brand:wikidata": "Q5743472", "nsi_id": "heronfoods-a8278b"}, "geometry": {"type": "Point", "coordinates": [-1.3247365, 54.5892517]}},
{"type": "Feature", "id": "tP7jnRup9KxtUG6txhVBG3uC0Yk=", "properties": {"ref": "9199459", "@spider": "heron_foods", "shop": "supermarket", "addr:street_address": "Redhill Road, Roseworth", "addr:city": "Stockton on Tees", "addr:postcode": "TS19 9NQ", "addr:country": "GB", "name": "Roseworth", "website": "https://heronfoods.com/store/roseworth/", "opening_hours": "Mo-Sa 08:00-20:00", "brand": "Heron Foods", "brand:wikidata": "Q5743472", "nsi_id": "heronfoods-a8278b"}, "geometry": {"type": "Point", "coordinates": [-1.3407166, 54.5882114]}},
{"type": "Feature", "id": "hV2iN-dKkc4WQQuHhE5FfMhDmu0=", "properties": {"ref": "9199261", "@spider": "heron_foods", "shop": "supermarket", "addr:street_address": "60 Queensway", "addr:city": "Billingham", "addr:postcode": "TS23 2NP", "addr:country": "GB", "name": "Billingham", "website": "https://heronfoods.com/store/billingham/", "opening_hours": "Mo-Sa 08:00-18:00; Su 10:00-16:00", "brand": "Heron Foods", "brand:wikidata": "Q5743472", "nsi_id": "heronfoods-a8278b"}, "geometry": {"type": "Point", "coordinates": [-1.2944507, 54.6080346]}},
{"type": "Feature", "id": "KTpy_IyS7M1k3bmlrb5ooq6eSJw=", "properties": {"ref": "9199252", "@spider": "heron_foods", "shop": "supermarket", "addr:street_address": "19-21 Portland Walk, New Market Entrance", "addr:city": "Barrow in Furness", "addr:postcode": "LA14 1HU", "addr:country": "GB", "name": "Barrow", "website": "https://heronfoods.com/store/barrow/", "opening_hours": "Mo-Sa 08:00-18:00; Su 10:00-16:00", "brand": "Heron Foods", "brand:wikidata": "Q5743472", "nsi_id": "heronfoods-a8278b"}, "geometry": {"type": "Point", "coordinates": [-3.2264253, 54.1124898]}},
{"type": "Feature", "id": "559Kx9OOXRBbr64RF-Uj9Dvr5Xo=", "properties": {"ref": "9199289", "@spider": "heron_foods", "shop": "supermarket", "addr:street_address": "424 Catcote Road", "addr:city": "Hartlepool", "addr:postcode": "TS25 2LS", "addr:country": "GB", "name": "Catcote Road", "website": "https://heronfoods.com/store/catcote-road/", "opening_hours": "Mo-Sa 08:00-20:00; Su 09:00-18:00", "brand": "Heron Foods", "brand:wikidata": "Q5743472", "nsi_id": "heronfoods-a8278b"}, "geometry": {"type": "Point", "coordinates": [-1.2326131, 54.6549353]}},
{"type": "Feature", "id": "xcjvgqft7AsrZn9cjCFebBJGlDM=", "properties": {"ref": "9199251", "@spider": "heron_foods", "shop": "supermarket", "addr:street_address": "22 Market Place", "addr:city": "Barnard Castle", "addr:postcode": "DL12 8NB", "addr:country": "GB", "name": "Barnard Castle", "website": "https://heronfoods.com/store/barnard-castle/", "opening_hours": "Mo-Sa 08:00-18:00; Su 10:00-17:00", "brand": "Heron Foods", "brand:wikidata": "Q5743472", "nsi_id": "heronfoods-a8278b"}, "geometry": {"type": "Point", "coordinates": [-1.9241361, 54.5429863]}},
{"type": "Feature", "id": "bpuzcnsj7YBV8gj3LQCfO8URCh8=", "properties": {"ref": "9199423", "@spider": "heron_foods", "shop": "supermarket", "addr:street_address": "uni 60a Beveridge Way, Block six Newton Aycliffe Shopping Centre", "addr:city": "Newton Aycliffe", "addr:postcode": "DL5 4DS", "addr:country": "GB", "name": "Newton Aycliffe", "website": "https://heronfoods.com/store/newton-aycliffe/", "opening_hours": "Mo-Sa 08:00-18:00; Su 10:00-16:00", "brand": "Heron Foods", "brand:wikidata": "Q5743472", "nsi_id": "heronfoods-a8278b"}, "geometry": {"type": "Point", "coordinates": [-1.5722963, 54.61955349999999]}},
{"type": "Feature", "id": "FGTQVXkl2gaNqc6WgPxfF7tqlLo=", "properties": {"ref": "9199356", "@spider": "heron_foods", "shop": "supermarket", "addr:street_address": "Unit 33/34 Middelton Grange Shopping Centre", "addr:city": "Hartlepool", "addr:postcode": "TS24 7RY", "addr:country": "GB", "name": "Hartlepool", "website": "https://heronfoods.com/store/hartlepool/", "opening_hours": "Mo-Sa 08:00-18:00; Su 10:00-16:00", "brand": "Heron Foods", "brand:wikidata": "Q5743472", "nsi_id": "heronfoods-a8278b"}, "geometry": {"type": "Point", "coordinates": [-1.2137769, 54.6839655]}},
{"type": "Feature", "id": "WEg8SvZ9ZkzHgWTqW0MLHgWn6lo=", "properties": {"ref": "9199266", "@spider": "heron_foods", "shop": "supermarket", "addr:street_address": "34 Newgate Street", "addr:city": "Bishop Auckland", "addr:postcode": "DL14 7EQ", "addr:country": "GB", "name": "Bishop Auckland", "website": "https://heronfoods.com/store/bishop-auckland/", "opening_hours": "Mo-Sa 08:00-18:00; Su 10:00-16:00", "brand": "Heron Foods", "brand:wikidata": "Q5743472", "nsi_id": "heronfoods-a8278b"}, "geometry": {"type": "Point", "coordinates": [-1.6748284, 54.6643205]}},
{"type": "Feature", "id": "QKqpgpng7UQZnPAuJUPMShcqNXY=", "properties": {"ref": "9199309", "@spider": "heron_foods", "shop": "supermarket", "addr:street_address": "2-4 Commercial Street", "addr:city": "Crook", "addr:postcode": "DL15 9HP", "addr:country": "GB", "name": "Crook", "website": "https://heronfoods.com/store/crook/", "opening_hours": "Mo-Sa 08:00-20:00", "brand": "Heron Foods", "brand:wikidata": "Q5743472", "nsi_id": "heronfoods-a8278b"}, "geometry": {"type": "Point", "coordinates": [-1.7465961, 54.7147952]}},
{"type": "Feature", "id": "0n1r1K6Wm5aD60hnNs9smtdnRus=", "properties": {"ref": "9201608", "@spider": "heron_foods", "shop": "supermarket", "addr:street_address": "2 Alnwick Road Newton Hall", "addr:city": "Durham", "addr:postcode": "DL1 5LX", "addr:country": "GB", "name": "Newton Hall", "website": "https://heronfoods.com/store/newton-hall/", "opening_hours": "Mo-Sa 08:00-20:00; Su 10:00-17:00", "brand": "Heron Foods", "brand:wikidata": "Q5743472", "nsi_id": "heronfoods-a8278b"}, "geometry": {"type": "Point", "coordinates": [-1.5765653, 54.7995385]}},
{"type": "Feature", "id": "Xv4Kzutr-hUoMlI08VBSau9fdHI=", "properties": {"ref": "9199470", "@spider": "heron_foods", "shop": "supermarket", "addr:street_address": "35 Church Street, Seaham", "addr:city": "Co Durham", "addr:postcode": "SR7 7HQ", "addr:country": "GB", "name": "Seaham", "website": "https://heronfoods.com/store/seaham/", "opening_hours": "Mo-Sa 08:00-20:00; Su 10:00-16:00", "brand": "Heron Foods", "brand:wikidata": "Q5743472", "nsi_id": "heronfoods-a8278b"}, "geometry": {"type": "Point", "coordinates": [-1.3337484, 54.8370021]}},
{"type": "Feature", "id": "87qVcoAFTIa6aST0kyia0lSF2tA=", "properties": {"ref": "9199463", "@spider": "heron_foods", "shop": "supermarket", "addr:street_address": "Electronic House, Front Street, Sacriston", "addr:city": "County Durham", "addr:postcode": "DH7 6JT", "addr:country": "GB", "name": "Sacriston", "website": "https://heronfoods.com/store/sacriston/", "opening_hours": "Mo-Sa 08:00-19:00; Su 10:00-17:00", "brand": "Heron Foods", "brand:wikidata": "Q5743472", "nsi_id": "heronfoods-a8278b"}, "geometry": {"type": "Point", "coordinates": [-1.6282607, 54.81892629999999]}},
{"type": "Feature", "id": "XBTlljDTFWwQMXRcZSVrEKqnH4I=", "properties": {"ref": "9199371", "@spider": "heron_foods", "shop": "supermarket", "addr:street_address": "54-56 Newbottle Street", "addr:city": "Houghton Le Spring", "addr:postcode": "DH4 4AF", "addr:country": "GB", "name": "Houghton", "website": "https://heronfoods.com/store/houghton/", "opening_hours": "Mo-Sa 08:00-19:00; Su 10:00-17:00", "brand": "Heron Foods", "brand:wikidata": "Q5743472", "nsi_id": "heronfoods-a8278b"}, "geometry": {"type": "Point", "coordinates": [-1.4721674, 54.8443866]}},
{"type": "Feature", "id": "PtERZhCof9OvJcmd1GL57t6M4fc=", "properties": {"ref": "9199363", "@spider": "heron_foods", "shop": "supermarket", "addr:street_address": "15 Front Street", "addr:city": "Hetton Le Hole", "addr:postcode": "DH5 9PE", "addr:country": "GB", "name": "Hetton Le Hole", "website": "https://heronfoods.com/store/hetton-le-hole/", "opening_hours": "Mo-Sa 08:00-20:00; Su 10:00-16:00", "brand": "Heron Foods", "brand:wikidata": "Q5743472", "nsi_id": "heronfoods-a8278b"}, "geometry": {"type": "Point", "coordinates": [-1.4951181, 54.8411824]}},
{"type": "Feature", "id": "2ol95tsrgcnKA5-Wsj-HzRK7-fY=", "properties": {"ref": "9202166", "@spider": "heron_foods", "shop": "supermarket", "addr:street_address": "Anthony Road, Farringdon", "addr:city": "Sunderland", "addr:postcode": "SR3 3HG", "addr:country": "GB", "name": "Farringdon", "website": "https://heronfoods.com/store/farringdon/", "opening_hours": "Mo-Sa 08:00-20:00", "brand": "Heron Foods", "brand:wikidata": "Q5743472", "nsi_id": "heronfoods-a8278b"}, "geometry": {"type": "Point", "coordinates": [-1.4284618, 54.87480919999999]}},
{"type": "Feature", "id": "7LiSxALxvbWZuaWMlHbTyP4pmCw=", "properties": {"ref": "9199295", "@spider": "heron_foods", "shop": "supermarket", "addr:street_address": "119 Front Street", "addr:city": "Chester Le Street", "addr:postcode": "DH3 3BL", "addr:country": "GB", "name": "Chester Le Street", "website": "https://heronfoods.com/store/chester-le-street/", "opening_hours": "Mo-Sa 08:00-18:00; Su 10:00-16:00", "brand": "Heron Foods", "brand:wikidata": "Q5743472", "nsi_id": "heronfoods-a8278b"}, "geometry": {"type": "Point", "coordinates": [-1.5738278, 54.85483869999999]}},
{"type": "Feature", "id": "hs57d6BKE8ydZutWLHbjFjvU7pc=", "properties": {"ref": "9199473", "@spider": "heron_foods", "shop": "supermarket", "addr:street_address": "Chester Road", "addr:city": "Houghton Le Spring", "addr:postcode": "DH4 4RB", "addr:country": "GB", "name": "Shiney Row", "website": "https://heronfoods.com/store/shiney-row/", "opening_hours": "Mo-Sa 08:00-20:00; Su 10:00-16:00", "brand": "Heron Foods", "brand:wikidata": "Q5743472", "nsi_id": "heronfoods-a8278b"}, "geometry": {"type": "Point", "coordinates": [-1.4981772, 54.8664508]}},
{"type": "Feature", "id": "ri9G5AVZKPzmWyj9uKfLUtUCUGk=", "properties": {"ref": "9199269", "@spider": "heron_foods", "shop": "supermarket", "addr:street_address": "19 Blandford Street", "addr:city": "Sunderland", "addr:postcode": "SR1 3JP", "addr:country": "GB", "name": "Blandford Street", "website": "https://heronfoods.com/store/blandford-street/", "opening_hours": "Mo-Sa 08:00-19:00; Su 10:00-17:00", "brand": "Heron Foods", "brand:wikidata": "Q5743472", "nsi_id": "heronfoods-a8278b"}, "geometry": {"type": "Point", "coordinates": [-1.3834437, 54.9050485]}},
{"type": "Feature", "id": "kNib1ZwJxXQe4ZzoR3XogfcZpuk=", "properties": {"ref": "9201612", "@spider": "heron_foods", "shop": "supermarket", "addr:street_address": "Robin Round Hylton Road", "addr:city": "Sunderland", "addr:postcode": "SR8 8AB", "addr:country": "GB", "name": "Pennywell", "website": "https://heronfoods.com/store/pennywell/", "opening_hours": "Mo-Sa 08:00-20:00; Su 10:00-18:00", "brand": "Heron Foods", "brand:wikidata": "Q5743472", "nsi_id": "heronfoods-a8278b"}, "geometry": {"type": "Point", "coordinates": [-1.4287146, 54.9015077]}},
{"type": "Feature", "id": "MW1yFlfKzpO0tz6bTXjp7ZSFJp4=", "properties": {"ref": "9199438", "@spider": "heron_foods", "shop": "supermarket", "addr:street_address": "38 St Lukes Terrace, Pallion", "addr:city": "Sunderland", "addr:postcode": "SR4 6NQ", "addr:country": "GB", "name": "Pallion", "website": "https://heronfoods.com/store/pallion/", "opening_hours": "Mo-Sa 08:00-19:00; Su 10:00-17:00", "brand": "Heron Foods", "brand:wikidata": "Q5743472", "nsi_id": "heronfoods-a8278b"}, "geometry": {"type": "Point", "coordinates": [-1.4145447, 54.9080026]}},
{"type": "Feature", "id": "M5VS1ftbZC7o1eme089auRMUF4Q=", "properties": {"ref": "9199487", "@spider": "heron_foods", "shop": "supermarket", "addr:street_address": "Unit 1, 36-40 Clifford Road, Stanley", "addr:city": "Co Durham", "addr:postcode": "DH9 0XG", "addr:country": "GB", "name": "Stanley", "website": "https://heronfoods.com/store/stanley/", "opening_hours": "Mo-Sa 08:00-18:00; Su 10:00-16:00", "brand": "Heron Foods", "brand:wikidata": "Q5743472", "nsi_id": "heronfoods-a8278b"}, "geometry": {"type": "Point", "coordinates": [-1.6977376, 54.86962140000001]}},
{"type": "Feature", "id": "-LqwutAW5tyJVsCP0x71SgCVebs=", "properties": {"ref": "9199304", "@spider": "heron_foods", "shop": "supermarket", "addr:street_address": "5-7 Middle Street", "addr:city": "Consett", "addr:postcode": "DH8 5QP", "addr:country": "GB", "name": "Consett", "website": "https://heronfoods.com/store/consett/", "opening_hours": "Mo-Sa 08:00-18:00; Su 10:00-16:00", "brand": "Heron Foods", "brand:wikidata": "Q5743472", "nsi_id": "heronfoods-a8278b"}, "geometry": {"type": "Point", "coordinates": [-1.8327354, 54.85148]}},
{"type": "Feature", "id": "YyleSvWl8YCpJU12fGG3VCMBGxE=", "properties": {"ref": "9199483", "@spider": "heron_foods", "shop": "supermarket", "addr:street_address": "Southwick Market, The Green, Southwick", "addr:city": "Sunderland", "addr:postcode": "SR5 2HT", "addr:country": "GB", "name": "Southwick", "website": "https://heronfoods.com/store/southwick/", "opening_hours": "Mo-Sa 08:00-18:00; Su 10:00-16:00", "brand": "Heron Foods", "brand:wikidata": "Q5743472", "nsi_id": "heronfoods-a8278b"}, "geometry": {"type": "Point", "coordinates": [-1.405051, 54.9201983]}},
{"type": "Feature", "id": "dLsXRNV2Hac5rwmfNG6jnZHve0A=", "properties": {"ref": "9199303", "@spider": "heron_foods", "shop": "supermarket", "addr:street_address": "9 Arndale House, Victoria Road, Concord", "addr:city": "Washington", "addr:postcode": "NE37 2SY", "addr:country": "GB", "name": "Concord", "website": "https://heronfoods.com/store/concord/", "opening_hours": "Mo-Sa 08:00-20:00; Su 09:00-17:00", "brand": "Heron Foods", "brand:wikidata": "Q5743472", "nsi_id": "heronfoods-a8278b"}, "geometry": {"type": "Point", "coordinates": [-1.5220959, 54.9130427]}},
{"type": "Feature", "id": "C5Bf18IWuSdFaVEbdbgbGIZ9BzI=", "properties": {"ref": "9199323", "@spider": "heron_foods", "shop": "supermarket", "addr:street_address": "45-47 East View", "addr:city": "Boldon Colliery", "addr:postcode": "NE35 9AU", "addr:country": "GB", "name": "East Boldon", "website": "https://heronfoods.com/store/east-boldon/", "opening_hours": "Mo-Sa 08:00-19:00; Su 10:00-17:00", "brand": "Heron Foods", "brand:wikidata": "Q5743472", "nsi_id": "heronfoods-a8278b"}, "geometry": {"type": "Point", "coordinates": [-1.4602905, 54.947304]}},
{"type": "Feature", "id": "JN6rEjg4748QaEZWLB8nNkac_OE=", "properties": {"ref": "9199335", "@spider": "heron_foods", "shop": "supermarket", "addr:street_address": "Fewster Square", "addr:city": "Leam Lane Estate", "addr:postcode": "NE10 8QH", "addr:country": "GB", "name": "Fewster Square", "website": "https://heronfoods.com/store/fewster-square/", "opening_hours": "Mo-Sa 08:00-19:00; Su 09:00-17:00", "brand": "Heron Foods", "brand:wikidata": "Q5743472", "nsi_id": "heronfoods-a8278b"}, "geometry": {"type": "Point", "coordinates": [-1.5453589, 54.94029159999999]}},
{"type": "Feature", "id": "ShldiL3CB4lsULGRjxC6XAQ-Yjo=", "properties": {"ref": "9199397", "@spider": "heron_foods", "shop": "supermarket", "addr:street_address": "477 Durham Road, Low Fell", "addr:city": "Gateshead", "addr:postcode": "NE9 5EX", "addr:country": "GB", "name": "Low Fell", "website": "https://heronfoods.com/store/low-fell/", "opening_hours": "Mo-Sa 08:00-18:00; Su 10:00-16:00", "brand": "Heron Foods", "brand:wikidata": "Q5743472", "nsi_id": "heronfoods-a8278b"}, "geometry": {"type": "Point", "coordinates": [-1.5994492, 54.9362845]}},
{"type": "Feature", "id": "FU_19jiYJjkYOkXcXDSNyzMIPBA=", "properties": {"ref": "9201455", "@spider": "heron_foods", "shop": "supermarket", "addr:street_address": "The Boldon Lad, Hedworth Lane", "addr:city": "Fellgate", "addr:postcode": "NE32 4LQ", "addr:country": "GB", "name": "Fellgate", "website": "https://heronfoods.com/store/fellgate/", "opening_hours": "Mo-Sa 08:00-20:00; Su 10:00-16:00", "brand": "Heron Foods", "brand:wikidata": "Q5743472", "nsi_id": "heronfoods-a8278b"}, "geometry": {"type": "Point", "coordinates": [-1.4758025, 54.9564681]}},
{"type": "Feature", "id": "KqDGYPiwayCpAjIHEEEK8o7dCxU=", "properties": {"ref": "9199481", "@spider": "heron_foods", "shop": "supermarket", "addr:street_address": "351 Prince Edward Road, The Nook", "addr:city": "South Shields", "addr:postcode": "NE34 7LZ", "addr:country": "GB", "name": "South Shields", "website": "https://heronfoods.com/store/south-shields/", "opening_hours": "Mo-Sa 08:00-19:00; Su 10:00-17:00", "brand": "Heron Foods", "brand:wikidata": "Q5743472", "nsi_id": "heronfoods-a8278b"}, "geometry": {"type": "Point", "coordinates": [-1.4069432, 54.9723183]}},
{"type": "Feature", "id": "Eyg82dBFYMKS-qujVL5UuHMFvDs=", "properties": {"ref": "9199334", "@spider": "heron_foods", "shop": "supermarket", "addr:street_address": "Unit 2 , Victoria Square, Felling", "addr:city": "Gateshead", "addr:postcode": "NE10 0BT", "addr:country": "GB", "name": "Felling", "website": "https://heronfoods.com/store/felling/", "opening_hours": "Mo-Sa 08:00-20:00; Su 10:00-17:00", "brand": "Heron Foods", "brand:wikidata": "Q5743472", "nsi_id": "heronfoods-a8278b"}, "geometry": {"type": "Point", "coordinates": [-1.5712067, 54.9495917]}},
{"type": "Feature", "id": "nvr26mYQSf7vV4_cPq8ecqD3KWo=", "properties": {"ref": "9202747", "@spider": "heron_foods", "shop": "supermarket", "addr:street_address": "187\u2010193 Durham Road Low Fell", "addr:city": "Gateshead", "addr:postcode": "NE9 5EF", "addr:country": "GB", "name": "Durham Road", "website": "https://heronfoods.com/store/durham-road/", "opening_hours": "Mo-Sa 08:00-20:00; Su 10:00-16:00", "brand": "Heron Foods", "brand:wikidata": "Q5743472", "nsi_id": "heronfoods-a8278b"}, "geometry": {"type": "Point", "coordinates": [-1.5991339, 54.9492294]}},
{"type": "Feature", "id": "EmzvUHr0A96goRPOvNtAd3Y5fcA=", "properties": {"ref": "9199515", "@spider": "heron_foods", "shop": "supermarket", "addr:street_address": "Unit 11a, St Mary's Green, Whickham", "addr:city": "Newcastle", "addr:postcode": "NE16 4DN", "addr:country": "GB", "name": "Whickham", "website": "https://heronfoods.com/store/whickham/", "opening_hours": "Mo-Sa 08:00-19:00; Su 10:00-17:00", "brand": "Heron Foods", "brand:wikidata": "Q5743472", "nsi_id": "heronfoods-a8278b"}, "geometry": {"type": "Point", "coordinates": [-1.6767628, 54.9459645]}},
{"type": "Feature", "id": "6VV9P9kOg5BcXfgiiiK8zrKTrEc=", "properties": {"ref": "9201745", "@spider": "heron_foods", "shop": "supermarket", "addr:street_address": "Unit 17-21 St James Mall Mountbatten Shopping Centre", "addr:city": "Hebburn", "addr:postcode": "NE31 1LE", "addr:country": "GB", "name": "St James Mall", "website": "https://heronfoods.com/store/st-james-mall/", "opening_hours": "Mo-Sa 08:00-19:00", "brand": "Heron Foods", "brand:wikidata": "Q5743472", "nsi_id": "heronfoods-a8278b"}, "geometry": {"type": "Point", "coordinates": [-1.5188184, 54.9728767]}},
{"type": "Feature", "id": "pzScch95xHa2HA9VwPkJqVdD6mE=", "properties": {"ref": "9199344", "@spider": "heron_foods", "shop": "supermarket", "addr:street_address": "10 Interchange Centre, West Street", "addr:city": "Gateshead", "addr:postcode": "NE8 1BH", "addr:country": "GB", "name": "Gateshead", "website": "https://heronfoods.com/store/gateshead/", "opening_hours": "Mo-Sa 08:00-18:00; Su 10:00-17:00", "brand": "Heron Foods", "brand:wikidata": "Q5743472", "nsi_id": "heronfoods-a8278b"}, "geometry": {"type": "Point", "coordinates": [-1.6042581, 54.9625863]}},
{"type": "Feature", "id": "JkW46OMPfIcaUw2b_PheX43nLt0=", "properties": {"ref": "9199340", "@spider": "heron_foods", "shop": "supermarket", "addr:street_address": "10-12 Frederick street", "addr:city": "South Shields", "addr:postcode": "NE55 5EA", "addr:country": "GB", "name": "Frederick Street", "website": "https://heronfoods.com/store/frederick-street/", "opening_hours": "Mo-Sa 08:00-18:00; Su 10:00-16:00", "brand": "Heron Foods", "brand:wikidata": "Q5743472", "nsi_id": "heronfoods-a8278b"}, "geometry": {"type": "Point", "coordinates": [-1.4377394, 54.9887222]}},
{"type": "Feature", "id": "mAhXNl3nqTkRCoY-5iyiZtOkafc=", "properties": {"ref": "9199296", "@spider": "heron_foods", "shop": "supermarket", "addr:street_address": "1 Church Walk Centre, Walker, Newcastle, NE6 3DH", "addr:city": "Newcastle", "addr:postcode": "NE6 3DH", "addr:country": "GB", "name": "Church Walk", "website": "https://heronfoods.com/store/church-walk/", "opening_hours": "Mo-Sa 08:00-18:00; Su 09:00-17:00", "brand": "Heron Foods", "brand:wikidata": "Q5743472", "nsi_id": "heronfoods-a8278b"}, "geometry": {"type": "Point", "coordinates": [-1.5456849, 54.9741632]}},
{"type": "Feature", "id": "xB6CAIOnY1282tEWudqpcIWJYeo=", "properties": {"ref": "9199500", "@spider": "heron_foods", "shop": "supermarket", "addr:street_address": "444-446 Welbeck Road", "addr:city": "Walker", "addr:postcode": "NE6 2NY", "addr:country": "GB", "name": "Walker", "website": "https://heronfoods.com/store/walker/", "opening_hours": "Mo-Sa 08:00-19:00; Su 10:00-16:00", "brand": "Heron Foods", "brand:wikidata": "Q5743472", "nsi_id": "heronfoods-a8278b"}, "geometry": {"type": "Point", "coordinates": [-1.5608314, 54.973889]}},
{"type": "Feature", "id": "zyNVTiJzBEp7j-dvlrw_W6StgfA=", "properties": {"ref": "9199298", "@spider": "heron_foods", "shop": "supermarket", "addr:street_address": "87 Clayton Street, Newcastle", "addr:city": "Tyne & Wear", "addr:postcode": "NE1 5PY", "addr:country": "GB", "name": "Clayton Street", "website": "https://heronfoods.com/store/clayton-street/", "opening_hours": "Mo-Sa 09:00-18:00; Su 10:00-16:00", "brand": "Heron Foods", "brand:wikidata": "Q5743472", "nsi_id": "heronfoods-a8278b"}, "geometry": {"type": "Point", "coordinates": [-1.6176537, 54.9713187]}},
{"type": "Feature", "id": "YB50MsCe2fqQgJIhbBW-lcZFEqE=", "properties": {"ref": "9199406", "@spider": "heron_foods", "shop": "supermarket", "addr:street_address": "17-24 Market Place, South Shields", "addr:city": "Tyne & Wear", "addr:postcode": "NE33 1JF", "addr:country": "GB", "name": "Market Place", "website": "https://heronfoods.com/store/market-place/", "opening_hours": "Mo-Sa 08:00-18:00; Su 10:00-16:00", "brand": "Heron Foods", "brand:wikidata": "Q5743472", "nsi_id": "heronfoods-a8278b"}, "geometry": {"type": "Point", "coordinates": [-1.4382665, 54.9979805]}},
{"type": "Feature", "id": "qVoquHK3RGkwzrthKxwdmmArxGE=", "properties": {"ref": "9199502", "@spider": "heron_foods", "shop": "supermarket", "addr:street_address": "2-4 High Street East", "addr:city": "Wallsend", "addr:postcode": "NE28 8PQ", "addr:country": "GB", "name": "Wallsend", "website": "https://heronfoods.com/store/wallsend/", "opening_hours": "Mo-Sa 08:00-18:00; Su 10:00-16:00", "brand": "Heron Foods", "brand:wikidata": "Q5743472", "nsi_id": "heronfoods-a8278b"}, "geometry": {"type": "Point", "coordinates": [-1.5331684, 54.9911409]}},
{"type": "Feature", "id": "nNKInSTF0fCOdm6E9D98ss_VU6I=", "properties": {"ref": "9199364", "@spider": "heron_foods", "shop": "supermarket", "addr:street_address": "Churchill Street", "addr:city": "High Howdon", "addr:postcode": "NE28 7DB", "addr:country": "GB", "name": "High Howdon", "website": "https://heronfoods.com/store/high-howdon/", "opening_hours": "Mo-Sa 08:00-20:00; Su 10:00-16:00", "brand": "Heron Foods", "brand:wikidata": "Q5743472", "nsi_id": "heronfoods-a8278b"}, "geometry": {"type": "Point", "coordinates": [-1.5036376, 54.9968008]}},
{"type": "Feature", "id": "PSQXkwVDCbOPaNJADTdiry9ytes=", "properties": {"ref": "9199427", "@spider": "heron_foods", "shop": "supermarket", "addr:street_address": "78-80 Bedford Street, North Shields", "addr:city": "Tyne & Wear", "addr:postcode": "NE29 6QF", "addr:country": "GB", "name": "North Shields", "website": "https://heronfoods.com/store/north-shields/", "opening_hours": "Mo-Sa 08:00-18:00; Su 10:00-16:00", "brand": "Heron Foods", "brand:wikidata": "Q5743472", "nsi_id": "heronfoods-a8278b"}, "geometry": {"type": "Point", "coordinates": [-1.4474884, 55.0090156]}},
{"type": "Feature", "id": "KnNYtyMgXw5BYeavIls2A_vgl7k=", "properties": {"ref": "9199448", "@spider": "heron_foods", "shop": "supermarket", "addr:street_address": "8A Front St Town Centre", "addr:city": "Prudhoe", "addr:postcode": "NE42 5HJ", "addr:country": "GB", "name": "Prudhoe", "website": "https://heronfoods.com/store/prudhoe/", "opening_hours": "Mo-Sa 08:00-20:00", "brand": "Heron Foods", "brand:wikidata": "Q5743472", "nsi_id": "heronfoods-a8278b"}, "geometry": {"type": "Point", "coordinates": [-1.850059, 54.96166170000001]}},
{"type": "Feature", "id": "wzsxEmV-Ea_M9vs_D9IVvNb3LxQ=", "properties": {"ref": "9199329", "@spider": "heron_foods", "shop": "supermarket", "addr:street_address": "35 Main Street", "addr:city": "Egremont", "addr:postcode": "CA22 2DR", "addr:country": "GB", "name": "Egremont", "website": "https://heronfoods.com/store/egremont/", "opening_hours": "Mo-Sa 07:00-21:00; Su 10:00-16:00", "brand": "Heron Foods", "brand:wikidata": "Q5743472", "nsi_id": "heronfoods-a8278b"}, "geometry": {"type": "Point", "coordinates": [-3.5278464, 54.4825454]}},
{"type": "Feature", "id": "hzxx7-ibd-O6Oyem-QngPpFfouo=", "properties": {"ref": "9199394", "@spider": "heron_foods", "shop": "supermarket", "addr:street_address": "Unit 8, Boulevard Shopping Centre", "addr:city": "West Farm Avenue", "addr:postcode": "NE12 8SE", "addr:country": "GB", "name": "Longbenton", "website": "https://heronfoods.com/store/longbenton/", "opening_hours": "Mo-Sa 08:00-18:00; Su 10:00-16:00", "brand": "Heron Foods", "brand:wikidata": "Q5743472", "nsi_id": "heronfoods-a8278b"}, "geometry": {"type": "Point", "coordinates": [-1.5899183, 55.0112872]}},
{"type": "Feature", "id": "1W7gtBV-yc9aCbTzagdxSkR3A7s=", "properties": {"ref": "9199293", "@spider": "heron_foods", "shop": "supermarket", "addr:street_address": "Unit 1, Chapel House Shopping Centre, Hillhead Parkway", "addr:city": "Newcastle", "addr:postcode": "NE5 1DT", "addr:country": "GB", "name": "Chapel House", "website": "https://heronfoods.com/store/chapel-house/", "opening_hours": "Mo-Sa 08:00-19:00; Su 10:00-16:00", "brand": "Heron Foods", "brand:wikidata": "Q5743472", "nsi_id": "heronfoods-a8278b"}, "geometry": {"type": "Point", "coordinates": [-1.717052, 54.9952742]}},
{"type": "Feature", "id": "_fm5cO8Qn3JCji1JnRw3kk4W514=", "properties": {"ref": "9199382", "@spider": "heron_foods", "shop": "supermarket", "addr:street_address": "Unit 29-31/ 151-153 Kenton Retail, Halewood Avenue, Kenton", "addr:city": "Newcastle", "addr:postcode": "NE3 3RX", "addr:country": "GB", "name": "Kenton", "website": "https://heronfoods.com/store/kenton/", "opening_hours": "Mo-Sa 08:00-20:00; Su 10:00-17:00", "brand": "Heron Foods", "brand:wikidata": "Q5743472", "nsi_id": "heronfoods-a8278b"}, "geometry": {"type": "Point", "coordinates": [-1.6528624, 55.0063165]}},
{"type": "Feature", "id": "tDOA2282NbX8_hA6g2loiMYVkUc=", "properties": {"ref": "9199420", "@spider": "heron_foods", "shop": "supermarket", "addr:street_address": "Unit 1, Newbiggin Lane, Westerhope", "addr:city": "Newcastle", "addr:postcode": "NE5 1NA", "addr:country": "GB", "name": "Newbiggin Hall", "website": "https://heronfoods.com/store/newbiggen-hall/", "opening_hours": "Mo-Sa 08:00-20:00; Su 10:00-16:00", "brand": "Heron Foods", "brand:wikidata": "Q5743472", "nsi_id": "heronfoods-a8278b"}, "geometry": {"type": "Point", "coordinates": [-1.6948828, 55.0004273]}},
{"type": "Feature", "id": "rGYn-feuh5TYZc1fUCwUNalmwC8=", "properties": {"ref": "9201755", "@spider": "heron_foods", "shop": "supermarket", "addr:street_address": "43-45 Station Road Forest Hall", "addr:city": "Newcastle", "addr:postcode": "NE12 7AR", "addr:country": "GB", "name": "Forest Hall", "website": "https://heronfoods.com/store/forrest-hall/", "opening_hours": "Mo-Sa 08:00-20:00; Su 10:00-16:00", "brand": "Heron Foods", "brand:wikidata": "Q5743472", "nsi_id": "heronfoods-a8278b"}, "geometry": {"type": "Point", "coordinates": [-1.5653107, 55.02172909999999]}},
{"type": "Feature", "id": "OBv9vniJpJA8H9TMNPReTWwdzkw=", "properties": {"ref": "9199475", "@spider": "heron_foods", "shop": "supermarket", "addr:street_address": "Unit 7, Northumberland Park District Centre", "addr:city": "Shiremoor", "addr:postcode": "NE27 0SJ", "addr:country": "GB", "name": "Shiremoor", "website": "https://heronfoods.com/store/shiremoor/", "opening_hours": "Mo-Sa 08:00-20:00; Su 10:00-16:00", "brand": "Heron Foods", "brand:wikidata": "Q5743472", "nsi_id": "heronfoods-a8278b"}, "geometry": {"type": "Point", "coordinates": [-1.5177958, 55.03349129999999]}},
{"type": "Feature", "id": "tWixeQiOgYIonozXZL57ngR8WUY=", "properties": {"ref": "9199518", "@spider": "heron_foods", "shop": "supermarket", "addr:street_address": "20-21 King Street, Whitehaven", "addr:city": "Cumbria", "addr:postcode": "CA28 7LA", "addr:country": "GB", "name": "Whitehaven", "website": "https://heronfoods.com/store/whitehaven/", "opening_hours": "Mo-Sa 08:00-18:00; Su 10:00-16:00", "brand": "Heron Foods", "brand:wikidata": "Q5743472", "nsi_id": "heronfoods-a8278b"}, "geometry": {"type": "Point", "coordinates": [-3.5890739, 54.5486303]}},
{"type": "Feature", "id": "GktAjiHsBCc8s_Cz9v9PaSURUX8=", "properties": {"ref": "9199270", "@spider": "heron_foods", "shop": "supermarket", "addr:street_address": "41 Waterloo Road, Blyth", "addr:city": "Northumberland", "addr:postcode": "NE24 1BW", "addr:country": "GB", "name": "Blyth", "website": "https://heronfoods.com/store/blyth/", "opening_hours": "Mo-Sa 08:00-18:00; Su 09:00-17:00", "brand": "Heron Foods", "brand:wikidata": "Q5743472", "nsi_id": "heronfoods-a8278b"}, "geometry": {"type": "Point", "coordinates": [-1.5097007, 55.1266362]}},
{"type": "Feature", "id": "g0EUfeY9J27lVcf5MAYbPn3IEg8=", "properties": {"ref": "9199528", "@spider": "heron_foods", "shop": "supermarket", "addr:street_address": "4 Murray Road Workington", "addr:city": "Cumbria", "addr:postcode": "CA14 2AD", "addr:country": "GB", "name": "Workington", "website": "https://heronfoods.com/store/workington/", "opening_hours": "Mo-Sa 08:00-18:00; Su 10:00-16:00", "brand": "Heron Foods", "brand:wikidata": "Q5743472", "nsi_id": "heronfoods-a8278b"}, "geometry": {"type": "Point", "coordinates": [-3.5483979, 54.6437326]}},
{"type": "Feature", "id": "SHR8oRQ1ejKebKJB9O3X613AYwc=", "properties": {"ref": "9199244", "@spider": "heron_foods", "shop": "supermarket", "addr:street_address": "14-18 Station Road, Ashington", "addr:city": "Northumberland", "addr:postcode": "NE63 9UL", "addr:country": "GB", "name": "Ashington", "website": "https://heronfoods.com/store/ashington/", "opening_hours": "Mo-Sa 08:00-19:00; Su 10:00-17:00", "brand": "Heron Foods", "brand:wikidata": "Q5743472", "nsi_id": "heronfoods-a8278b"}, "geometry": {"type": "Point", "coordinates": [-1.5703428, 55.1830122]}},
{"type": "Feature", "id": "oJRuzQwbaezWtIza19Mex_dcZUg=", "properties": {"ref": "9199408", "@spider": "heron_foods", "shop": "supermarket", "addr:street_address": "76-82A Senhouse Street, Maryport", "addr:city": "Cumbria", "addr:postcode": "CA15 6BS", "addr:country": "GB", "name": "Maryport", "website": "https://heronfoods.com/store/maryport/", "opening_hours": "Mo-Sa 08:00-18:00; Su 10:00-16:00", "brand": "Heron Foods", "brand:wikidata": "Q5743472", "nsi_id": "heronfoods-a8278b"}, "geometry": {"type": "Point", "coordinates": [-3.4968808, 54.7139606]}},
{"type": "Feature", "id": "7SPKK4-JWH1nSGVTBEFzCTaD1sc=", "properties": {"ref": "9199239", "@spider": "heron_foods", "shop": "supermarket", "addr:street_address": "70 Queen Street, Amble, Northumberland, NE65 0DD", "addr:city": "Northumberland", "addr:postcode": "NE65 0DD", "addr:country": "GB", "name": "Amble", "website": "https://heronfoods.com/store/amble/", "opening_hours": "Mo-Sa 08:00-19:00; Su 09:00-17:00", "brand": "Heron Foods", "brand:wikidata": "Q5743472", "nsi_id": "heronfoods-a8278b"}, "geometry": {"type": "Point", "coordinates": [-1.5833694, 55.33383079999999]}}]}