{"type":"FeatureCollection","features":[{"type": "Feature", "id": "3VvupbBVlETYrRGZrpahZCyl4GU=", "properties": {"ref": "LJU-38", "@spider": "hofer_si", "shop": "supermarket", "addr:full": "Zgornje Negonje 36b, Roga\u0161ka Slatina, 3250", "addr:street_address": "Zgornje Negonje 36b", "addr:city": "Roga\u0161ka Slatina", "addr:postcode": "3250", "addr:country": "SI", "name": "LJU-38", "opening_hours": "Mo-Sa 08:00-20:00", "brand": "Hofer", "brand:wikidata": "Q15815751", "nsi_id": "hofer-83285c"}, "geometry": {"type": "Point", "coordinates": [15.61647, 46.25378]}},
{"type": "Feature", "id": "pJasW4qCAkjQ_GX1RS4kEQRcsuY=", "properties": {"ref": "LJU-82", "@spider": "hofer_si", "shop": "supermarket", "addr:full": "Vodnikov trg 7, Maribor, 2000", "addr:street_address": "Vodnikov trg 7", "addr:city": "Maribor", "addr:postcode": "2000", "addr:country": "SI", "name": "LJU-82", "opening_hours": "Mo-Sa 08:00-21:00", "brand": "Hofer", "brand:wikidata": "Q15815751", "nsi_id": "hofer-83285c"}, "geometry": {"type": "Point", "coordinates": [15.64135, 46.55776]}},
{"type": "Feature", "id": "uIdjiCVUpn3tFy2qtCTrMufkJJA=", "properties": {"ref": "LJU-83", "@spider": "hofer_si", "shop": "supermarket", "addr:full": "Poljanski nasip 10, Ljubljana, 1000", "addr:street_address": "Poljanski nasip 10", "addr:city": "Ljubljana", "addr:postcode": "1000", "addr:country": "SI", "name": "LJU-83", "opening_hours": "Mo-Sa 08:00-21:00", "brand": "Hofer", "brand:wikidata": "Q15815751", "nsi_id": "hofer-83285c"}, "geometry": {"type": "Point", "coordinates": [14.512384, 46.051464]}},
{"type": "Feature", "id": "c8WF_M9Rq9oohhnVzxG4H5EBSR8=", "properties": {"ref": "LJU-49", "@spider": "hofer_si", "shop": "supermarket", "addr:full": "Drofenikova ulica 10, \u0160entjur, 3230", "addr:street_address": "Drofenikova ulica 10", "addr:city": "\u0160entjur", "addr:postcode": "3230", "addr:country": "SI", "name": "LJU-49", "opening_hours": "Mo-Sa 08:00-20:00", "brand": "Hofer", "brand:wikidata": "Q15815751", "nsi_id": "hofer-83285c"}, "geometry": {"type": "Point", "coordinates": [15.38913, 46.21436]}},
{"type": "Feature", "id": "CxUkdyvfirjge1f7_Uhq2OkhG9k=", "properties": {"ref": "LJU-51", "@spider": "hofer_si", "shop": "supermarket", "addr:full": "Dolenjska cesta 240d, Ljubljana, 1000", "addr:street_address": "Dolenjska cesta 240d", "addr:city": "Ljubljana", "addr:postcode": "1000", "addr:country": "SI", "name": "LJU-51", "opening_hours": "Mo-Sa 08:00-21:00", "brand": "Hofer", "brand:wikidata": "Q15815751", "nsi_id": "hofer-83285c"}, "geometry": {"type": "Point", "coordinates": [14.53821, 46.02508]}},
{"type": "Feature", "id": "GdOlluUwH6UG-lsNanF0Wk2H22k=", "properties": {"ref": "LJU-7", "@spider": "hofer_si", "shop": "supermarket", "addr:full": "Cesta 4. maja 5a, Cerknica, 1380", "addr:street_address": "Cesta 4. maja 5a", "addr:city": "Cerknica", "addr:postcode": "1380", "addr:country": "SI", "name": "LJU-7", "opening_hours": "Mo-Sa 08:00-20:00", "brand": "Hofer", "brand:wikidata": "Q15815751", "nsi_id": "hofer-83285c"}, "geometry": {"type": "Point", "coordinates": [14.36768, 45.7902]}},
{"type": "Feature", "id": "LNTGqnFKY043sL724e40xw-eZDk=", "properties": {"ref": "LJU-14", "@spider": "hofer_si", "shop": "supermarket", "addr:full": "Belokranjska cesta 24, \u010crnomelj, 8340", "addr:street_address": "Belokranjska cesta 24", "addr:city": "\u010crnomelj", "addr:postcode": "8340", "addr:country": "SI", "name": "LJU-14", "opening_hours": "Mo-Sa 08:00-20:00", "brand": "Hofer", "brand:wikidata": "Q15815751", "nsi_id": "hofer-83285c"}, "geometry": {"type": "Point", "coordinates": [15.19748, 45.58123]}},
{"type": "Feature", "id": "YmNKYeXE6GSq8WVHNemC4_AuQTI=", "properties": {"ref": "LJU-28", "@spider": "hofer_si", "shop": "supermarket", "addr:full": "Koro\u0161ka cesta 69b, Radlje ob Dravi, 2360", "addr:street_address": "Koro\u0161ka cesta 69b", "addr:city": "Radlje ob Dravi", "addr:postcode": "2360", "addr:country": "SI", "name": "LJU-28", "opening_hours": "Mo-Sa 08:00-20:00", "brand": "Hofer", "brand:wikidata": "Q15815751", "nsi_id": "hofer-83285c"}, "geometry": {"type": "Point", "coordinates": [15.20781, 46.61483]}},
{"type": "Feature", "id": "PL-fVHrGW1HyNH6ezzR0vPO_G30=", "properties": {"ref": "LJU-48", "@spider": "hofer_si", "shop": "supermarket", "addr:full": "Kraigherjeva ulica 32, Lenart, 2230", "addr:street_address": "Kraigherjeva ulica 32", "addr:city": "Lenart", "addr:postcode": "2230", "addr:country": "SI", "name": "LJU-48", "opening_hours": "Mo-Sa 08:00-20:00", "brand": "Hofer", "brand:wikidata": "Q15815751", "nsi_id": "hofer-83285c"}, "geometry": {"type": "Point", "coordinates": [15.83679, 46.57968]}},
{"type": "Feature", "id": "EMN-V4jvtQ5j0TKL_auuISgVfkc=", "properties": {"ref": "LJU-32", "@spider": "hofer_si", "shop": "supermarket", "addr:full": "\u0160aranovi\u010deva cesta 27a, Dom\u017eale, 1230", "addr:street_address": "\u0160aranovi\u010deva cesta 27a", "addr:city": "Dom\u017eale", "addr:postcode": "1230", "addr:country": "SI", "name": "LJU-32", "opening_hours": "Mo-Sa 08:00-21:00", "brand": "Hofer", "brand:wikidata": "Q15815751", "nsi_id": "hofer-83285c"}, "geometry": {"type": "Point", "coordinates": [14.61129, 46.14867]}},
{"type": "Feature", "id": "FGJHyfR2S7rLcCsP-a4WTHCZFAA=", "properties": {"ref": "LJU-25", "@spider": "hofer_si", "shop": "supermarket", "addr:full": "Selo 7a, Velenje, 3320", "addr:street_address": "Selo 7a", "addr:city": "Velenje", "addr:postcode": "3320", "addr:country": "SI", "name": "LJU-25", "opening_hours": "Mo-Sa 08:00-21:00", "brand": "Hofer", "brand:wikidata": "Q15815751", "nsi_id": "hofer-83285c"}, "geometry": {"type": "Point", "coordinates": [15.13224, 46.37012]}},
{"type": "Feature", "id": "oTwj_2b4V6JDzv_cOyl5CC6EFn4=", "properties": {"ref": "LJU-23", "@spider": "hofer_si", "shop": "supermarket", "addr:full": "Prevrat 21, Slovenske Konjice, 3210", "addr:street_address": "Prevrat 21", "addr:city": "Slovenske Konjice", "addr:postcode": "3210", "addr:country": "SI", "name": "LJU-23", "opening_hours": "Mo-Sa 08:00-20:00", "brand": "Hofer", "brand:wikidata": "Q15815751", "nsi_id": "hofer-83285c"}, "geometry": {"type": "Point", "coordinates": [15.43619, 46.34124]}},
{"type": "Feature", "id": "mmATaeM1NOS4njQ6P2hLTTOd7Lk=", "properties": {"ref": "LJU-47", "@spider": "hofer_si", "shop": "supermarket", "addr:full": "Vodenska cesta 5c, Trbovlje, 1420", "addr:street_address": "Vodenska cesta 5c", "addr:city": "Trbovlje", "addr:postcode": "1420", "addr:country": "SI", "name": "LJU-47", "opening_hours": "Mo-Sa 08:00-20:00", "brand": "Hofer", "brand:wikidata": "Q15815751", "nsi_id": "hofer-83285c"}, "geometry": {"type": "Point", "coordinates": [15.0355, 46.14005]}},
{"type": "Feature", "id": "M2xFhvSKLIwHGA8Y8scmSXL8X3Q=", "properties": {"ref": "LJU-24", "@spider": "hofer_si", "shop": "supermarket", "addr:full": "Linhartova ulica 5, Maribor, 2000", "addr:street_address": "Linhartova ulica 5", "addr:city": "Maribor", "addr:postcode": "2000", "addr:country": "SI", "name": "LJU-24", "opening_hours": "Mo-Sa 08:00-21:00", "brand": "Hofer", "brand:wikidata": "Q15815751", "nsi_id": "hofer-83285c"}, "geometry": {"type": "Point", "coordinates": [15.64988, 46.54859]}},
{"type": "Feature", "id": "dQE0JvPga1YKXkoNM1nD9tR5ol0=", "properties": {"ref": "LJU-9", "@spider": "hofer_si", "shop": "supermarket", "addr:full": "Toplarni\u0161ka ulica 4, Ljubljana, 1000", "addr:street_address": "Toplarni\u0161ka ulica 4", "addr:city": "Ljubljana", "addr:postcode": "1000", "addr:country": "SI", "name": "LJU-9", "opening_hours": "Mo-Sa 08:00-21:00", "brand": "Hofer", "brand:wikidata": "Q15815751", "nsi_id": "hofer-83285c"}, "geometry": {"type": "Point", "coordinates": [14.54159, 46.05651]}},
{"type": "Feature", "id": "d1Efzc1zs_rRLwjlQMN5GBB7wRI=", "properties": {"ref": "LJU-53", "@spider": "hofer_si", "shop": "supermarket", "addr:full": "Belokranjska cesta 2, Novo mesto, 8000", "addr:street_address": "Belokranjska cesta 2", "addr:city": "Novo mesto", "addr:postcode": "8000", "addr:country": "SI", "name": "LJU-53", "opening_hours": "Mo-Sa 08:00-21:00", "brand": "Hofer", "brand:wikidata": "Q15815751", "nsi_id": "hofer-83285c"}, "geometry": {"type": "Point", "coordinates": [15.17964, 45.79864]}},
{"type": "Feature", "id": "NNGap6lABtxum4icrZsZAbZ4Eco=", "properties": {"ref": "LJU-30", "@spider": "hofer_si", "shop": "supermarket", "addr:full": "Cesta na lepo njivo 7, Mozirje, 3330", "addr:street_address": "Cesta na lepo njivo 7", "addr:city": "Mozirje", "addr:postcode": "3330", "addr:country": "SI", "name": "LJU-30", "opening_hours": "Mo-Sa 08:00-20:00", "brand": "Hofer", "brand:wikidata": "Q15815751", "nsi_id": "hofer-83285c"}, "geometry": {"type": "Point", "coordinates": [14.97016, 46.34063]}},
{"type": "Feature", "id": "Ovwa2gPK1QkAOXxv2TMRrEXypuA=", "properties": {"ref": "LJU-93", "@spider": "hofer_si", "shop": "supermarket", "addr:full": "Zadr\u017ee 3, \u0160marje pri Jel\u0161ah, 3240", "addr:street_address": "Zadr\u017ee 3", "addr:city": "\u0160marje pri Jel\u0161ah", "addr:postcode": "3240", "addr:country": "SI", "name": "LJU-93", "opening_hours": "Mo-Sa 08:00-20:00", "brand": "Hofer", "brand:wikidata": "Q15815751", "nsi_id": "hofer-83285c"}, "geometry": {"type": "Point", "coordinates": [15.501113, 46.229231]}},
{"type": "Feature", "id": "wDglY8gYydr4Zc4DUVzJk9QTddI=", "properties": {"ref": "LJU-61", "@spider": "hofer_si", "shop": "supermarket", "addr:full": "Zagreb\u0161ka cesta 40, Ptuj, 2250", "addr:street_address": "Zagreb\u0161ka cesta 40", "addr:city": "Ptuj", "addr:postcode": "2250", "addr:country": "SI", "name": "LJU-61", "opening_hours": "Mo-Sa 08:00-20:00", "brand": "Hofer", "brand:wikidata": "Q15815751", "nsi_id": "hofer-83285c"}, "geometry": {"type": "Point", "coordinates": [15.86516, 46.40805]}},
{"type": "Feature", "id": "eQ11idRgHmWuzWrUcfrjaQ5JgEo=", "properties": {"ref": "LJU-15", "@spider": "hofer_si", "shop": "supermarket", "addr:full": "Pri Bran\u010durniku 9, Prevalje, 2391", "addr:street_address": "Pri Bran\u010durniku 9", "addr:city": "Prevalje", "addr:postcode": "2391", "addr:country": "SI", "name": "LJU-15", "opening_hours": "Mo-Sa 08:00-20:00", "brand": "Hofer", "brand:wikidata": "Q15815751", "nsi_id": "hofer-83285c"}, "geometry": {"type": "Point", "coordinates": [14.93418, 46.5448]}},
{"type": "Feature", "id": "kgP6HvjehnWIfbjaCCv-2r37BPk=", "properties": {"ref": "LJU-34", "@spider": "hofer_si", "shop": "supermarket", "addr:full": "Ulica Jo\u017eeta Jame 11, Ljubljana, 1000", "addr:street_address": "Ulica Jo\u017eeta Jame 11", "addr:city": "Ljubljana", "addr:postcode": "1000", "addr:country": "SI", "name": "LJU-34", "opening_hours": "Mo-Sa 08:00-21:00", "brand": "Hofer", "brand:wikidata": "Q15815751", "nsi_id": "hofer-83285c"}, "geometry": {"type": "Point", "coordinates": [14.47573, 46.08934]}},
{"type": "Feature", "id": "hZV3P_zVV8nIDhPuYRt7MB41C_k=", "properties": {"ref": "LJU-88", "@spider": "hofer_si", "shop": "supermarket", "addr:full": "Zalo\u0161ka cesta 166 A, Ljubljana, 1000", "addr:street_address": "Zalo\u0161ka cesta 166 A", "addr:city": "Ljubljana", "addr:postcode": "1000", "addr:country": "SI", "name": "LJU-88", "opening_hours": "Mo-Sa 08:00-21:00", "brand": "Hofer", "brand:wikidata": "Q15815751", "nsi_id": "hofer-83285c"}, "geometry": {"type": "Point", "coordinates": [14.588901, 46.053621]}},
{"type": "Feature", "id": "R--c3GYFtg4npjRNy-r0yPcwuJw=", "properties": {"ref": "LJU-11", "@spider": "hofer_si", "shop": "supermarket", "addr:full": "Ankaranska cesta 3b, Koper-Capodistria, 6000", "addr:street_address": "Ankaranska cesta 3b", "addr:city": "Koper-Capodistria", "addr:postcode": "6000", "addr:country": "SI", "name": "LJU-11", "opening_hours": "Mo-Sa 08:00-21:00", "brand": "Hofer", "brand:wikidata": "Q15815751", "nsi_id": "hofer-83285c"}, "geometry": {"type": "Point", "coordinates": [13.73846, 45.54327]}},
{"type": "Feature", "id": "6NGAps4FvO0qWWkvMtVWRGhAwDw=", "properties": {"ref": "LJU-43", "@spider": "hofer_si", "shop": "supermarket", "addr:full": "Cesta 25. junija 1L, Nova Gorica, 5000", "addr:street_address": "Cesta 25. junija 1L", "addr:city": "Nova Gorica", "addr:postcode": "5000", "addr:country": "SI", "name": "LJU-43", "opening_hours": "Mo-Sa 08:00-21:00", "brand": "Hofer", "brand:wikidata": "Q15815751", "nsi_id": "hofer-83285c"}, "geometry": {"type": "Point", "coordinates": [13.65688, 45.95419]}},
{"type": "Feature", "id": "RhAj7Gd5lGTFqX7BebKy32MYR38=", "properties": {"ref": "LJU-41", "@spider": "hofer_si", "shop": "supermarket", "addr:full": "Kolodvorska ulica 41, Lendava, 9220", "addr:street_address": "Kolodvorska ulica 41", "addr:city": "Lendava", "addr:postcode": "9220", "addr:country": "SI", "name": "LJU-41", "opening_hours": "Mo-Sa 08:00-20:00", "brand": "Hofer", "brand:wikidata": "Q15815751", "nsi_id": "hofer-83285c"}, "geometry": {"type": "Point", "coordinates": [16.44861, 46.55539]}},
{"type": "Feature", "id": "D8pAdsDPQ9QLDnkSK-GDH30MvKs=", "properties": {"ref": "LJU-36", "@spider": "hofer_si", "shop": "supermarket", "addr:full": "Spodnji plav\u017e 3c, Jesenice, 4270", "addr:street_address": "Spodnji plav\u017e 3c", "addr:city": "Jesenice", "addr:postcode": "4270", "addr:country": "SI", "name": "LJU-36", "opening_hours": "Mo-Sa 08:00-20:00", "brand": "Hofer", "brand:wikidata": "Q15815751", "nsi_id": "hofer-83285c"}, "geometry": {"type": "Point", "coordinates": [14.03546, 46.44144]}},
{"type": "Feature", "id": "RxQM5sonifcNa4gM0o5qgX2ApUc=", "properties": {"ref": "LJU-13", "@spider": "hofer_si", "shop": "supermarket", "addr:full": "Vilharjeva cesta 58, Ilirska Bistrica, 6250", "addr:street_address": "Vilharjeva cesta 58", "addr:city": "Ilirska Bistrica", "addr:postcode": "6250", "addr:country": "SI", "name": "LJU-13", "opening_hours": "Mo-Sa 08:00-20:00", "brand": "Hofer", "brand:wikidata": "Q15815751", "nsi_id": "hofer-83285c"}, "geometry": {"type": "Point", "coordinates": [14.2293, 45.57618]}},
{"type": "Feature", "id": "4aKe6nCKFeakjo5RVRVexRSRXQ8=", "properties": {"ref": "LJU-90", "@spider": "hofer_si", "shop": "supermarket", "addr:full": "C. proletarskih brigad 101, Maribor, 2000", "addr:street_address": "C. proletarskih brigad 101", "addr:city": "Maribor", "addr:postcode": "2000", "addr:country": "SI", "name": "LJU-90", "opening_hours": "Mo-Sa 08:00-21:00", "brand": "Hofer", "brand:wikidata": "Q15815751", "nsi_id": "hofer-83285c"}, "geometry": {"type": "Point", "coordinates": [15.617744, 46.545119]}},
{"type": "Feature", "id": "ez-SZAN21wTx67vhmvHpcnJd8sY=", "properties": {"ref": "LJU-39", "@spider": "hofer_si", "shop": "supermarket", "addr:full": "Kro\u0161ka ulica 58 a, Murska Sobota, 9000", "addr:street_address": "Kro\u0161ka ulica 58 a", "addr:city": "Murska Sobota", "addr:postcode": "9000", "addr:country": "SI", "name": "LJU-39", "opening_hours": "Mo-Sa 08:00-20:00", "brand": "Hofer", "brand:wikidata": "Q15815751", "nsi_id": "hofer-83285c"}, "geometry": {"type": "Point", "coordinates": [16.14728664, 46.6483404]}},
{"type": "Feature", "id": "xohakrKd3p6GSRDSdbDrL8oRryg=", "properties": {"ref": "LJU-42", "@spider": "hofer_si", "shop": "supermarket", "addr:full": "Cesta talcev 12, Logatec, 1370", "addr:street_address": "Cesta talcev 12", "addr:city": "Logatec", "addr:postcode": "1370", "addr:country": "SI", "name": "LJU-42", "opening_hours": "Mo-Sa 08:00-20:00", "brand": "Hofer", "brand:wikidata": "Q15815751", "nsi_id": "hofer-83285c"}, "geometry": {"type": "Point", "coordinates": [14.223475, 45.914706]}},
{"type": "Feature", "id": "cvUtroJeMllAFD-mwIkLUGxlpzU=", "properties": {"ref": "LJU-3", "@spider": "hofer_si", "shop": "supermarket", "addr:full": "Hra\u0161ka cesta 23, Lesce, 4248", "addr:street_address": "Hra\u0161ka cesta 23", "addr:city": "Lesce", "addr:postcode": "4248", "addr:country": "SI", "name": "LJU-3", "opening_hours": "Mo-Sa 08:00-21:00", "brand": "Hofer", "brand:wikidata": "Q15815751", "nsi_id": "hofer-83285c"}, "geometry": {"type": "Point", "coordinates": [14.1612, 46.366]}},
{"type": "Feature", "id": "C4yj5QHD4dygNY4U0Cxu-Fz5Lf8=", "properties": {"ref": "LJU-59", "@spider": "hofer_si", "shop": "supermarket", "addr:full": "Vojkova ulica 41, Idrija, 5280", "addr:street_address": "Vojkova ulica 41", "addr:city": "Idrija", "addr:postcode": "5280", "addr:country": "SI", "name": "LJU-59", "opening_hours": "Mo-Sa 08:00-20:00", "brand": "Hofer", "brand:wikidata": "Q15815751", "nsi_id": "hofer-83285c"}, "geometry": {"type": "Point", "coordinates": [14.02978, 46.01883]}},
{"type": "Feature", "id": "ZrXdxH1hhoah4JruSkgMc65h27Q=", "properties": {"ref": "LJU-85", "@spider": "hofer_si", "shop": "supermarket", "addr:full": "Mariborska cesta 36, Ru\u0161e, 2342", "addr:street_address": "Mariborska cesta 36", "addr:city": "Ru\u0161e", "addr:postcode": "2342", "addr:country": "SI", "name": "LJU-85", "opening_hours": "Mo-Sa 08:00-20:00", "brand": "Hofer", "brand:wikidata": "Q15815751", "nsi_id": "hofer-83285c"}, "geometry": {"type": "Point", "coordinates": [15.51994, 46.540765]}},
{"type": "Feature", "id": "cJYbmtWtqJiL8D8XKz2QOenIxLE=", "properties": {"ref": "LJU-45", "@spider": "hofer_si", "shop": "supermarket", "addr:full": "Obrtna cona Ugar 2, Ribnica, 1310", "addr:street_address": "Obrtna cona Ugar 2", "addr:city": "Ribnica", "addr:postcode": "1310", "addr:country": "SI", "name": "LJU-45", "opening_hours": "Mo-Sa 08:00-20:00", "brand": "Hofer", "brand:wikidata": "Q15815751", "nsi_id": "hofer-83285c"}, "geometry": {"type": "Point", "coordinates": [14.729484, 45.73625]}},
{"type": "Feature", "id": "cqgc2YkXWUoxLNdGSLdld4UGaQY=", "properties": {"ref": "LJU-31", "@spider": "hofer_si", "shop": "supermarket", "addr:full": "Ptujska cesta 194, Maribor, 2000", "addr:street_address": "Ptujska cesta 194", "addr:city": "Maribor", "addr:postcode": "2000", "addr:country": "SI", "name": "LJU-31", "opening_hours": "Mo-Sa 08:00-21:00", "brand": "Hofer", "brand:wikidata": "Q15815751", "nsi_id": "hofer-83285c"}, "geometry": {"type": "Point", "coordinates": [15.6739, 46.52644]}},
{"type": "Feature", "id": "4JXQv_e8X1ttLHu_gKPtYGS6gfg=", "properties": {"ref": "LJU-54", "@spider": "hofer_si", "shop": "supermarket", "addr:full": "Cesta II.grupe odredov 4, Ivan\u010dna Gorica, 1295", "addr:street_address": "Cesta II.grupe odredov 4", "addr:city": "Ivan\u010dna Gorica", "addr:postcode": "1295", "addr:country": "SI", "name": "LJU-54", "opening_hours": "Mo-Sa 08:00-20:00", "brand": "Hofer", "brand:wikidata": "Q15815751", "nsi_id": "hofer-83285c"}, "geometry": {"type": "Point", "coordinates": [14.80503, 45.93612]}},
{"type": "Feature", "id": "NyhT_DfTP6gHy0YBDF1j18QGMzI=", "properties": {"ref": "LJU-19", "@spider": "hofer_si", "shop": "supermarket", "addr:full": "Cesta kr\u0161kih \u017ertev 133, Kr\u0161ko, 8270", "addr:street_address": "Cesta kr\u0161kih \u017ertev 133", "addr:city": "Kr\u0161ko", "addr:postcode": "8270", "addr:country": "SI", "name": "LJU-19", "opening_hours": "Mo-Sa 08:00-20:00", "brand": "Hofer", "brand:wikidata": "Q15815751", "nsi_id": "hofer-83285c"}, "geometry": {"type": "Point", "coordinates": [15.48733, 45.94258]}},
{"type": "Feature", "id": "D1zwA9RGxpJBR9yLORGvx4r5bt4=", "properties": {"ref": "LJU-33", "@spider": "hofer_si", "shop": "supermarket", "addr:full": "Mariborska cesta 30, Celje, 3000", "addr:street_address": "Mariborska cesta 30", "addr:city": "Celje", "addr:postcode": "3000", "addr:country": "SI", "name": "LJU-33", "opening_hours": "Mo-Sa 08:00-21:00", "brand": "Hofer", "brand:wikidata": "Q15815751", "nsi_id": "hofer-83285c"}, "geometry": {"type": "Point", "coordinates": [15.27192, 46.23714]}},
{"type": "Feature", "id": "S57ve2uiexkrZK64MBGCEvTo-Ac=", "properties": {"ref": "LJU-74", "@spider": "hofer_si", "shop": "supermarket", "addr:full": "Andrijani\u010deva cesta 1, Novo mesto, 8000", "addr:street_address": "Andrijani\u010deva cesta 1", "addr:city": "Novo mesto", "addr:postcode": "8000", "addr:country": "SI", "name": "LJU-74", "opening_hours": "Mo-Sa 08:00-21:00", "brand": "Hofer", "brand:wikidata": "Q15815751", "nsi_id": "hofer-83285c"}, "geometry": {"type": "Point", "coordinates": [15.1579, 45.82314]}},
{"type": "Feature", "id": "89dE1wZJPTEHm_THBSPEWUzG3zM=", "properties": {"ref": "LJU-78", "@spider": "hofer_si", "shop": "supermarket", "addr:full": "Poslovna cona B 22, \u0160en\u010dur, 4208", "addr:street_address": "Poslovna cona B 22", "addr:city": "\u0160en\u010dur", "addr:postcode": "4208", "addr:country": "SI", "name": "LJU-78", "opening_hours": "Mo-Sa 08:00-21:00", "brand": "Hofer", "brand:wikidata": "Q15815751", "nsi_id": "hofer-83285c"}, "geometry": {"type": "Point", "coordinates": [14.414346, 46.235931]}},
{"type": "Feature", "id": "_6ZryfKNCOE5ejXkHVFF3Z-q6kY=", "properties": {"ref": "LJU-56", "@spider": "hofer_si", "shop": "supermarket", "addr:full": "Celov\u0161ka cesta 224, Ljubljana, 1000", "addr:street_address": "Celov\u0161ka cesta 224", "addr:city": "Ljubljana", "addr:postcode": "1000", "addr:country": "SI", "name": "LJU-56", "opening_hours": "Mo-Sa 08:00-21:00", "brand": "Hofer", "brand:wikidata": "Q15815751", "nsi_id": "hofer-83285c"}, "geometry": {"type": "Point", "coordinates": [14.48086, 46.08123]}},
{"type": "Feature", "id": "wr4jR_rIYlEO0oXxieycqYuuT2s=", "properties": {"ref": "LJU-70", "@spider": "hofer_si", "shop": "supermarket", "addr:full": "Metelkova ulica 2, Trebnje, 8210", "addr:street_address": "Metelkova ulica 2", "addr:city": "Trebnje", "addr:postcode": "8210", "addr:country": "SI", "name": "LJU-70", "opening_hours": "Mo-Sa 08:00-20:00", "brand": "Hofer", "brand:wikidata": "Q15815751", "nsi_id": "hofer-83285c"}, "geometry": {"type": "Point", "coordinates": [15.02545, 45.90715]}},
{"type": "Feature", "id": "6KnXvRvvK6NHdpMKEqLr9i95P3g=", "properties": {"ref": "LJU-64", "@spider": "hofer_si", "shop": "supermarket", "addr:full": "Radna 32, Bo\u0161tanj, 8294", "addr:street_address": "Radna 32", "addr:city": "Bo\u0161tanj", "addr:postcode": "8294", "addr:country": "SI", "name": "LJU-64", "opening_hours": "Mo-Sa 08:00-20:00", "brand": "Hofer", "brand:wikidata": "Q15815751", "nsi_id": "hofer-83285c"}, "geometry": {"type": "Point", "coordinates": [15.29295, 46.00676]}},
{"type": "Feature", "id": "z1Hu5G6VVYlsXgMMvZ3UxEyGhow=", "properties": {"ref": "LJU-63", "@spider": "hofer_si", "shop": "supermarket", "addr:full": "Mesarska cesta 13, Ljubljana, 1000", "addr:street_address": "Mesarska cesta 13", "addr:city": "Ljubljana", "addr:postcode": "1000", "addr:country": "SI", "name": "LJU-63", "opening_hours": "Mo-Sa 08:00-21:00", "brand": "Hofer", "brand:wikidata": "Q15815751", "nsi_id": "hofer-83285c"}, "geometry": {"type": "Point", "coordinates": [14.52456, 46.04777]}},
{"type": "Feature", "id": "c5bgGyUFRoQPAdDALm2uP_T_arA=", "properties": {"ref": "LJU-10", "@spider": "hofer_si", "shop": "supermarket", "addr:full": "\u0160entiljska cesta 116a, Maribor, 2000", "addr:street_address": "\u0160entiljska cesta 116a", "addr:city": "Maribor", "addr:postcode": "2000", "addr:country": "SI", "name": "LJU-10", "opening_hours": "Mo-Sa 08:00-21:00", "brand": "Hofer", "brand:wikidata": "Q15815751", "nsi_id": "hofer-83285c"}, "geometry": {"type": "Point", "coordinates": [15.66686, 46.58594]}},
{"type": "Feature", "id": "N750gkSbMOEQfSGAxciIu5rNKb4=", "properties": {"ref": "LJU-67", "@spider": "hofer_si", "shop": "supermarket", "addr:full": "Industrijska cesta 4, Postojna, 6230", "addr:street_address": "Industrijska cesta 4", "addr:city": "Postojna", "addr:postcode": "6230", "addr:country": "SI", "name": "LJU-67", "opening_hours": "Mo-Sa 08:00-20:00", "brand": "Hofer", "brand:wikidata": "Q15815751", "nsi_id": "hofer-83285c"}, "geometry": {"type": "Point", "coordinates": [14.19513, 45.76752]}},
{"type": "Feature", "id": "l2mgfA6J6jzxm44UXTdXGrHmzdg=", "properties": {"ref": "LJU-87", "@spider": "hofer_si", "shop": "supermarket", "addr:full": "Ulica gledali\u0161\u010da BTC 12, Ljubljana, 1000", "addr:street_address": "Ulica gledali\u0161\u010da BTC 12", "addr:city": "Ljubljana", "addr:postcode": "1000", "addr:country": "SI", "name": "LJU-87", "opening_hours": "Mo-Sa 07:30-21:00", "brand": "Hofer", "brand:wikidata": "Q15815751", "nsi_id": "hofer-83285c"}, "geometry": {"type": "Point", "coordinates": [14.54389, 46.06907]}},
{"type": "Feature", "id": "t3WlRA66sov6yRyCF-OXGQyG704=", "properties": {"ref": "LJU-89", "@spider": "hofer_si", "shop": "supermarket", "addr:full": "Sloven\u010deva ulica 91, Ljubljana, 1000", "addr:street_address": "Sloven\u010deva ulica 91", "addr:city": "Ljubljana", "addr:postcode": "1000", "addr:country": "SI", "name": "LJU-89", "opening_hours": "Mo-Sa 08:00-21:00", "brand": "Hofer", "brand:wikidata": "Q15815751", "nsi_id": "hofer-83285c"}, "geometry": {"type": "Point", "coordinates": [14.506618, 46.084637]}},
{"type": "Feature", "id": "MIBsQv_KqeSk5VT7ceQ3Pr7QK-E=", "properties": {"ref": "LJU-29", "@spider": "hofer_si", "shop": "supermarket", "addr:full": "Dom\u017ealska cesta 1, Kamnik, 1241", "addr:street_address": "Dom\u017ealska cesta 1", "addr:city": "Kamnik", "addr:postcode": "1241", "addr:country": "SI", "name": "LJU-29", "opening_hours": "Mo-Sa 08:00-21:00", "brand": "Hofer", "brand:wikidata": "Q15815751", "nsi_id": "hofer-83285c"}, "geometry": {"type": "Point", "coordinates": [14.59505, 46.19914]}},
{"type": "Feature", "id": "Ee5KJMd6ei5edlfKCc0cGyX6-D8=", "properties": {"ref": "LJU-17", "@spider": "hofer_si", "shop": "supermarket", "addr:full": "Ljubljanska cesta 33, Vrhnika, 1360", "addr:street_address": "Ljubljanska cesta 33", "addr:city": "Vrhnika", "addr:postcode": "1360", "addr:country": "SI", "name": "LJU-17", "opening_hours": "Mo-Sa 08:00-21:00", "brand": "Hofer", "brand:wikidata": "Q15815751", "nsi_id": "hofer-83285c"}, "geometry": {"type": "Point", "coordinates": [14.30686, 45.97572]}},
{"type": "Feature", "id": "ztnwn-gtocvaBlVZEzk9uWemq20=", "properties": {"ref": "LJU-60", "@spider": "hofer_si", "shop": "supermarket", "addr:full": "Oti\u0161ki vrh 168 A, \u0160entjan\u017e pri Dravogradu, 2373", "addr:street_address": "Oti\u0161ki vrh 168 A", "addr:city": "\u0160entjan\u017e pri Dravogradu", "addr:postcode": "2373", "addr:country": "SI", "name": "LJU-60", "opening_hours": "Mo-Sa 08:00-20:00", "brand": "Hofer", "brand:wikidata": "Q15815751", "nsi_id": "hofer-83285c"}, "geometry": {"type": "Point", "coordinates": [15.0266, 46.57667]}},
{"type": "Feature", "id": "iG6fUqaj8iorG3EdZOqHS35U4f0=", "properties": {"ref": "LJU-27", "@spider": "hofer_si", "shop": "supermarket", "addr:full": "Cesta na Brdo 105, Ljubljana, 1000", "addr:street_address": "Cesta na Brdo 105", "addr:city": "Ljubljana", "addr:postcode": "1000", "addr:country": "SI", "name": "LJU-27", "opening_hours": "Mo-Sa 07:30-21:00", "brand": "Hofer", "brand:wikidata": "Q15815751", "nsi_id": "hofer-83285c"}, "geometry": {"type": "Point", "coordinates": [14.4621, 46.0472]}},
{"type": "Feature", "id": "mdsN8F9EYEdFvplFymqSW1we76w=", "properties": {"ref": "LJU-77", "@spider": "hofer_si", "shop": "supermarket", "addr:full": "Gotoveljska cesta 18, \u017dalec, 3310", "addr:street_address": "Gotoveljska cesta 18", "addr:city": "\u017dalec", "addr:postcode": "3310", "addr:country": "SI", "name": "LJU-77", "opening_hours": "Mo-Sa 08:00-21:00", "brand": "Hofer", "brand:wikidata": "Q15815751", "nsi_id": "hofer-83285c"}, "geometry": {"type": "Point", "coordinates": [15.15101, 46.25481]}},
{"type": "Feature", "id": "w-NqnVN2W3dSk7OwIVIsZdtRtHI=", "properties": {"ref": "LJU-72", "@spider": "hofer_si", "shop": "supermarket", "addr:full": "Cesta Ste Marie aux mines 7, Tr\u017ei\u010d, 4290", "addr:street_address": "Cesta Ste Marie aux mines 7", "addr:city": "Tr\u017ei\u010d", "addr:postcode": "4290", "addr:country": "SI", "name": "LJU-72", "opening_hours": "Mo-Sa 08:00-20:00", "brand": "Hofer", "brand:wikidata": "Q15815751", "nsi_id": "hofer-83285c"}, "geometry": {"type": "Point", "coordinates": [14.29836, 46.35843]}},
{"type": "Feature", "id": "D3XivTcGghYa2fw-iGTtpL_pVdc=", "properties": {"ref": "LJU-92", "@spider": "hofer_si", "shop": "supermarket", "addr:full": "Dunajska cesta 20, Ljubljana, 1000", "addr:street_address": "Dunajska cesta 20", "addr:city": "Ljubljana", "addr:postcode": "1000", "addr:country": "SI", "name": "LJU-92", "opening_hours": "Mo-Sa 07:30-21:00", "brand": "Hofer", "brand:wikidata": "Q15815751", "nsi_id": "hofer-83285c"}, "geometry": {"type": "Point", "coordinates": [14.508768, 46.062654]}},
{"type": "Feature", "id": "dOoJSNLbDI6AT2nJdU3QvggqAlA=", "properties": {"ref": "LJU-18", "@spider": "hofer_si", "shop": "supermarket", "addr:full": "Bohovska cesta 6, Ho\u010de pri Mariboru, 2311", "addr:street_address": "Bohovska cesta 6", "addr:city": "Ho\u010de pri Mariboru", "addr:postcode": "2311", "addr:country": "SI", "name": "LJU-18", "opening_hours": "Mo-Sa 08:00-21:00", "brand": "Hofer", "brand:wikidata": "Q15815751", "nsi_id": "hofer-83285c"}, "geometry": {"type": "Point", "coordinates": [15.64966, 46.50085]}},
{"type": "Feature", "id": "KXtVWQ9NfL_K4ApbfOzkxdPxC2s=", "properties": {"ref": "LJU-40", "@spider": "hofer_si", "shop": "supermarket", "addr:full": "Ljubljanska cesta 69, Ko\u010devje, 1330", "addr:street_address": "Ljubljanska cesta 69", "addr:city": "Ko\u010devje", "addr:postcode": "1330", "addr:country": "SI", "name": "LJU-40", "opening_hours": "Mo-Sa 08:00-20:00", "brand": "Hofer", "brand:wikidata": "Q15815751", "nsi_id": "hofer-83285c"}, "geometry": {"type": "Point", "coordinates": [14.85311, 45.64936]}},
{"type": "Feature", "id": "VWUEFDnGB5VcRag2VVy7BrC8128=", "properties": {"ref": "LJU-26", "@spider": "hofer_si", "shop": "supermarket", "addr:full": "Pohorska cesta 19, Slovenj Gradec, 2380", "addr:street_address": "Pohorska cesta 19", "addr:city": "Slovenj Gradec", "addr:postcode": "2380", "addr:country": "SI", "name": "LJU-26", "opening_hours": "Mo-Sa 08:00-20:00", "brand": "Hofer", "brand:wikidata": "Q15815751", "nsi_id": "hofer-83285c"}, "geometry": {"type": "Point", "coordinates": [15.08404, 46.51155]}},
{"type": "Feature", "id": "lL5UQ7vwUIQ3VajPElTUXwEwSDg=", "properties": {"ref": "LJU-75", "@spider": "hofer_si", "shop": "supermarket", "addr:full": "Dolenjska cesta 337, Lavrica-\u0160kofljica, 1291", "addr:street_address": "Dolenjska cesta 337", "addr:city": "Lavrica-\u0160kofljica", "addr:postcode": "1291", "addr:country": "SI", "name": "LJU-75", "opening_hours": "Mo-Sa 08:00-21:00", "brand": "Hofer", "brand:wikidata": "Q15815751", "nsi_id": "hofer-83285c"}, "geometry": {"type": "Point", "coordinates": [14.55598, 46.00014]}},
{"type": "Feature", "id": "-9rLhbYySZuGSH2W5qqVOHdzZNU=", "properties": {"ref": "LJU-76", "@spider": "hofer_si", "shop": "supermarket", "addr:full": "Gorenjska cesta 12, Medvode, 1215", "addr:street_address": "Gorenjska cesta 12", "addr:city": "Medvode", "addr:postcode": "1215", "addr:country": "SI", "name": "LJU-76", "opening_hours": "Mo-Sa 08:00-21:00", "brand": "Hofer", "brand:wikidata": "Q15815751", "nsi_id": "hofer-83285c"}, "geometry": {"type": "Point", "coordinates": [14.41761, 46.13597]}},
{"type": "Feature", "id": "_5nGjIOPH1HeQyh2xMxuTg448O0=", "properties": {"ref": "LJU-52", "@spider": "hofer_si", "shop": "supermarket", "addr:full": "Ulica Alenke Gerlovi\u010d 9, Bre\u017eice, 8250", "addr:street_address": "Ulica Alenke Gerlovi\u010d 9", "addr:city": "Bre\u017eice", "addr:postcode": "8250", "addr:country": "SI", "name": "LJU-52", "opening_hours": "Mo-Sa 08:00-20:00", "brand": "Hofer", "brand:wikidata": "Q15815751", "nsi_id": "hofer-83285c"}, "geometry": {"type": "Point", "coordinates": [15.5932, 45.91473]}},
{"type": "Feature", "id": "q1tqzKR8c1jU7FVfcncy5FB9tsU=", "properties": {"ref": "LJU-66", "@spider": "hofer_si", "shop": "supermarket", "addr:full": "\u017dnidar\u010di\u010deva ulica 19 a, \u0160empeter pri Gorici, 5290", "addr:street_address": "\u017dnidar\u010di\u010deva ulica 19 a", "addr:city": "\u0160empeter pri Gorici", "addr:postcode": "5290", "addr:country": "SI", "name": "LJU-66", "opening_hours": "Mo-Sa 08:00-21:00", "brand": "Hofer", "brand:wikidata": "Q15815751", "nsi_id": "hofer-83285c"}, "geometry": {"type": "Point", "coordinates": [13.63167, 45.92652]}},
{"type": "Feature", "id": "4M490j5f3wiaPk-AbTEjR-Hdb1c=", "properties": {"ref": "LJU-5", "@spider": "hofer_si", "shop": "supermarket", "addr:full": "Ljubljanska cesta 14, Litija, 1270", "addr:street_address": "Ljubljanska cesta 14", "addr:city": "Litija", "addr:postcode": "1270", "addr:country": "SI", "name": "LJU-5", "opening_hours": "Mo-Sa 08:00-20:00", "brand": "Hofer", "brand:wikidata": "Q15815751", "nsi_id": "hofer-83285c"}, "geometry": {"type": "Point", "coordinates": [14.81995, 46.05715]}},
{"type": "Feature", "id": "poRdZTvKiHNLtYrHUWtvhfz4ueI=", "properties": {"ref": "LJU-86", "@spider": "hofer_si", "shop": "supermarket", "addr:full": "Gradnikova cesta 1C, Radovljica, 4240", "addr:street_address": "Gradnikova cesta 1C", "addr:city": "Radovljica", "addr:postcode": "4240", "addr:country": "SI", "name": "LJU-86", "opening_hours": "Mo-Sa 08:00-20:00", "brand": "Hofer", "brand:wikidata": "Q15815751", "nsi_id": "hofer-83285c"}, "geometry": {"type": "Point", "coordinates": [14.178555, 46.34811]}},
{"type": "Feature", "id": "DQOaGXXGIB2iOvc-vVV6ZL3tAi8=", "properties": {"ref": "LJU-73", "@spider": "hofer_si", "shop": "supermarket", "addr:full": "Smledni\u0161ka ulica 27H, Kranj, 4000", "addr:street_address": "Smledni\u0161ka ulica 27H", "addr:city": "Kranj", "addr:postcode": "4000", "addr:country": "SI", "name": "LJU-73", "opening_hours": "Mo-Sa 08:00-21:00", "brand": "Hofer", "brand:wikidata": "Q15815751", "nsi_id": "hofer-83285c"}, "geometry": {"type": "Point", "coordinates": [14.368875, 46.229975]}},
{"type": "Feature", "id": "sSPVfIkCGV0s2Fh4I9a3rKsqmm8=", "properties": {"ref": "LJU-71", "@spider": "hofer_si", "shop": "supermarket", "addr:full": "\u0160uceva ulica 23 a, Kranj, 4000", "addr:street_address": "\u0160uceva ulica 23 a", "addr:city": "Kranj", "addr:postcode": "4000", "addr:country": "SI", "name": "LJU-71", "opening_hours": "Mo-Sa 08:00-21:00", "brand": "Hofer", "brand:wikidata": "Q15815751", "nsi_id": "hofer-83285c"}, "geometry": {"type": "Point", "coordinates": [14.37771, 46.24577]}},
{"type": "Feature", "id": "9-QaxN9D7-6T7bqg_KrBP5tL2uE=", "properties": {"ref": "LJU-2", "@spider": "hofer_si", "shop": "supermarket", "addr:full": "Pre\u0161ernova ulica 42, Ljutomer, 9240", "addr:street_address": "Pre\u0161ernova ulica 42", "addr:city": "Ljutomer", "addr:postcode": "9240", "addr:country": "SI", "name": "LJU-2", "opening_hours": "Mo-Sa 08:00-20:00", "brand": "Hofer", "brand:wikidata": "Q15815751", "nsi_id": "hofer-83285c"}, "geometry": {"type": "Point", "coordinates": [16.19431, 46.52507]}},
{"type": "Feature", "id": "vH7W1ISt61tVNZiHBKPjD2a97KU=", "properties": {"ref": "LJU-79", "@spider": "hofer_si", "shop": "supermarket", "addr:full": "Ulica padlih borcev 11a, Tolmin, 5220", "addr:street_address": "Ulica padlih borcev 11a", "addr:city": "Tolmin", "addr:postcode": "5220", "addr:country": "SI", "name": "LJU-79", "opening_hours": "Mo-Sa 08:00-20:00", "brand": "Hofer", "brand:wikidata": "Q15815751", "nsi_id": "hofer-83285c"}, "geometry": {"type": "Point", "coordinates": [13.72886, 46.18114]}},
{"type": "Feature", "id": "H-9SjDTQZRC6SWimjqqm3N9Ornk=", "properties": {"ref": "LJU-58", "@spider": "hofer_si", "shop": "supermarket", "addr:full": "Partizanska cesta 71c, Se\u017eana, 6210", "addr:street_address": "Partizanska cesta 71c", "addr:city": "Se\u017eana", "addr:postcode": "6210", "addr:country": "SI", "name": "LJU-58", "opening_hours": "Mo-Sa 08:00-20:00", "brand": "Hofer", "brand:wikidata": "Q15815751", "nsi_id": "hofer-83285c"}, "geometry": {"type": "Point", "coordinates": [13.85783, 45.70501]}},
{"type": "Feature", "id": "Jgvym6JDM_uFvse886geMghi8_0=", "properties": {"ref": "LJU-46", "@spider": "hofer_si", "shop": "supermarket", "addr:full": "Grenc 55, \u0160kofja Loka, 4220", "addr:street_address": "Grenc 55", "addr:city": "\u0160kofja Loka", "addr:postcode": "4220", "addr:country": "SI", "name": "LJU-46", "opening_hours": "Mo-Sa 08:00-21:00", "brand": "Hofer", "brand:wikidata": "Q15815751", "nsi_id": "hofer-83285c"}, "geometry": {"type": "Point", "coordinates": [14.3207, 46.17508]}},
{"type": "Feature", "id": "f1-kmFuJ1K2PfSB-1yUdyWekKOM=", "properties": {"ref": "LJU-50", "@spider": "hofer_si", "shop": "supermarket", "addr:full": "Ulica Veljka Vlahovi\u010da 15, Maribor, 2000", "addr:street_address": "Ulica Veljka Vlahovi\u010da 15", "addr:city": "Maribor", "addr:postcode": "2000", "addr:country": "SI", "name": "LJU-50", "opening_hours": "Mo-Sa 08:00-21:00", "brand": "Hofer", "brand:wikidata": "Q15815751", "nsi_id": "hofer-83285c"}, "geometry": {"type": "Point", "coordinates": [15.67348, 46.54658]}},
{"type": "Feature", "id": "2orF8ECQfJIEKt5bzGC3fkk5qvg=", "properties": {"ref": "LJU-1", "@spider": "hofer_si", "shop": "supermarket", "addr:full": "Kajuhova ulica 22, Izola-Isola, 6310", "addr:street_address": "Kajuhova ulica 22", "addr:city": "Izola-Isola", "addr:postcode": "6310", "addr:country": "SI", "name": "LJU-1", "opening_hours": "Mo-Sa 08:00-21:00", "brand": "Hofer", "brand:wikidata": "Q15815751", "nsi_id": "hofer-83285c"}, "geometry": {"type": "Point", "coordinates": [13.66497, 45.53153]}},
{"type": "Feature", "id": "URJ0-4UWwukeTfS5SfXobgrIE9I=", "properties": {"ref": "LJU-68", "@spider": "hofer_si", "shop": "supermarket", "addr:full": "Chengdujska cesta 1, Ljubljana, 1000", "addr:street_address": "Chengdujska cesta 1", "addr:city": "Ljubljana", "addr:postcode": "1000", "addr:country": "SI", "name": "LJU-68", "opening_hours": "Mo-Sa 08:00-21:00", "brand": "Hofer", "brand:wikidata": "Q15815751", "nsi_id": "hofer-83285c"}, "geometry": {"type": "Point", "coordinates": [14.56708, 46.05439]}},
{"type": "Feature", "id": "hPU1HYfzZOshpuUivhBQtjooE30=", "properties": {"ref": "LJU-84", "@spider": "hofer_si", "shop": "supermarket", "addr:full": "Tr\u017ea\u0161ka cesta 429, Ljubljana, 1000", "addr:street_address": "Tr\u017ea\u0161ka cesta 429", "addr:city": "Ljubljana", "addr:postcode": "1000", "addr:country": "SI", "name": "LJU-84", "opening_hours": "Mo-Sa 08:00-21:00", "brand": "Hofer", "brand:wikidata": "Q15815751", "nsi_id": "hofer-83285c"}, "geometry": {"type": "Point", "coordinates": [14.435, 46.0272]}},
{"type": "Feature", "id": "1rfGPJx2Wka7r3O5jcub5qZrcp8=", "properties": {"ref": "LJU-65", "@spider": "hofer_si", "shop": "supermarket", "addr:full": "Ljubljanska cesta 112, Celje, 3000", "addr:street_address": "Ljubljanska cesta 112", "addr:city": "Celje", "addr:postcode": "3000", "addr:country": "SI", "name": "LJU-65", "opening_hours": "Mo-Sa 08:00-21:00", "brand": "Hofer", "brand:wikidata": "Q15815751", "nsi_id": "hofer-83285c"}, "geometry": {"type": "Point", "coordinates": [15.24342, 46.23829]}},
{"type": "Feature", "id": "8eCX4XhUJAoH4UEvys6hJRC5gB0=", "properties": {"ref": "LJU-97", "@spider": "hofer_si", "shop": "supermarket", "addr:full": "Sladkogorska cesta 6, \u0160entilj, 2212", "addr:street_address": "Sladkogorska cesta 6", "addr:city": "\u0160entilj", "addr:postcode": "2212", "addr:country": "SI", "name": "LJU-97", "opening_hours": "Mo-Sa 08:00-20:00", "brand": "Hofer", "brand:wikidata": "Q15815751", "nsi_id": "hofer-83285c"}, "geometry": {"type": "Point", "coordinates": [15.652762, 46.679408]}},
{"type": "Feature", "id": "Jf0O2mrArWbvuSy3UiLIQzoAqFY=", "properties": {"ref": "LJU-20", "@spider": "hofer_si", "shop": "supermarket", "addr:full": "Ljutomerska cesta 38, Gornja Radgona, 9250", "addr:street_address": "Ljutomerska cesta 38", "addr:city": "Gornja Radgona", "addr:postcode": "9250", "addr:country": "SI", "name": "LJU-20", "opening_hours": "Mo-Sa 08:00-20:00", "brand": "Hofer", "brand:wikidata": "Q15815751", "nsi_id": "hofer-83285c"}, "geometry": {"type": "Point", "coordinates": [16.01262, 46.66114]}},
{"type": "Feature", "id": "61TmLe8Lk4TA3AVVeqJHzWWIjiQ=", "properties": {"ref": "LJU-8", "@spider": "hofer_si", "shop": "supermarket", "addr:full": "Preradovi\u010deva ulica 20, Maribor, 2000", "addr:street_address": "Preradovi\u010deva ulica 20", "addr:city": "Maribor", "addr:postcode": "2000", "addr:country": "SI", "name": "LJU-8", "opening_hours": "Mo-Sa 08:00-21:00", "brand": "Hofer", "brand:wikidata": "Q15815751", "nsi_id": "hofer-83285c"}, "geometry": {"type": "Point", "coordinates": [15.62997, 46.55314]}},
{"type": "Feature", "id": "21LvS0hRKofErI9KEcbIHsU51fo=", "properties": {"ref": "LJU-12", "@spider": "hofer_si", "shop": "supermarket", "addr:full": "Lendavska ulica 64, Murska Sobota, 9000", "addr:street_address": "Lendavska ulica 64", "addr:city": "Murska Sobota", "addr:postcode": "9000", "addr:country": "SI", "name": "LJU-12", "opening_hours": "Mo-Sa 08:00-21:00", "brand": "Hofer", "brand:wikidata": "Q15815751", "nsi_id": "hofer-83285c"}, "geometry": {"type": "Point", "coordinates": [16.17817, 46.66725]}},
{"type": "Feature", "id": "ndx02t2BnJmu8RkuZhbhcY0FAtE=", "properties": {"ref": "LJU-57", "@spider": "hofer_si", "shop": "supermarket", "addr:full": "Gerbi\u010deva ulica 103, Ljubljana, 1000", "addr:street_address": "Gerbi\u010deva ulica 103", "addr:city": "Ljubljana", "addr:postcode": "1000", "addr:country": "SI", "name": "LJU-57", "opening_hours": "Mo-Sa 08:00-21:00", "brand": "Hofer", "brand:wikidata": "Q15815751", "nsi_id": "hofer-83285c"}, "geometry": {"type": "Point", "coordinates": [14.48011, 46.038]}},
{"type": "Feature", "id": "pey0waBi_zjlISeo9Z5Md5KTpkE=", "properties": {"ref": "LJU-55", "@spider": "hofer_si", "shop": "supermarket", "addr:full": "Mirce 10, Ajdov\u0161\u010dina, 5270", "addr:street_address": "Mirce 10", "addr:city": "Ajdov\u0161\u010dina", "addr:postcode": "5270", "addr:country": "SI", "name": "LJU-55", "opening_hours": "Mo-Sa 08:00-20:00", "brand": "Hofer", "brand:wikidata": "Q15815751", "nsi_id": "hofer-83285c"}, "geometry": {"type": "Point", "coordinates": [13.90256, 45.8809]}},
{"type": "Feature", "id": "Jns5pixe8161zZtXJGon90q11OE=", "properties": {"ref": "LJU-22", "@spider": "hofer_si", "shop": "supermarket", "addr:full": "Ormo\u0161ka cesta 22, Ptuj, 2250", "addr:street_address": "Ormo\u0161ka cesta 22", "addr:city": "Ptuj", "addr:postcode": "2250", "addr:country": "SI", "name": "LJU-22", "opening_hours": "Mo-Sa 08:00-21:00", "brand": "Hofer", "brand:wikidata": "Q15815751", "nsi_id": "hofer-83285c"}, "geometry": {"type": "Point", "coordinates": [15.87845, 46.41679]}},
{"type": "Feature", "id": "mdaE_gHk27ldiethKya1IFx3hGI=", "properties": {"ref": "LJU-21", "@spider": "hofer_si", "shop": "supermarket", "addr:full": "Partizanska cesta 52b, Velenje, 3320", "addr:street_address": "Partizanska cesta 52b", "addr:city": "Velenje", "addr:postcode": "3320", "addr:country": "SI", "name": "LJU-21", "opening_hours": "Mo-Sa 08:00-21:00", "brand": "Hofer", "brand:wikidata": "Q15815751", "nsi_id": "hofer-83285c"}, "geometry": {"type": "Point", "coordinates": [15.08925, 46.36532]}},
{"type": "Feature", "id": "yq2LKp6UUDMjbdKdgIzbv8vOfUY=", "properties": {"ref": "LJU-80", "@spider": "hofer_si", "shop": "supermarket", "addr:full": "Njego\u0161eva ulica 8, Ljubljana, 1000", "addr:street_address": "Njego\u0161eva ulica 8", "addr:city": "Ljubljana", "addr:postcode": "1000", "addr:country": "SI", "name": "LJU-80", "opening_hours": "Mo-Sa 07:30-21:00", "brand": "Hofer", "brand:wikidata": "Q15815751", "nsi_id": "hofer-83285c"}, "geometry": {"type": "Point", "coordinates": [14.5199, 46.05471]}},
{"type": "Feature", "id": "5QeH0dTpXtPmzNwe_JBqzWJAoIQ=", "properties": {"ref": "LJU-69", "@spider": "hofer_si", "shop": "supermarket", "addr:full": "Kranj\u010deva ulica 25, Ljubljana, 1000", "addr:street_address": "Kranj\u010deva ulica 25", "addr:city": "Ljubljana", "addr:postcode": "1000", "addr:country": "SI", "name": "LJU-69", "opening_hours": "Mo-Sa 07:30-21:00", "brand": "Hofer", "brand:wikidata": "Q15815751", "nsi_id": "hofer-83285c"}, "geometry": {"type": "Point", "coordinates": [14.52366, 46.07071]}},
{"type": "Feature", "id": "BwzCzbo98YK0MNrfiiY8icctAS8=", "properties": {"ref": "LJU-37", "@spider": "hofer_si", "shop": "supermarket", "addr:full": "Dolinska cesta 7, Koper, 6000", "addr:street_address": "Dolinska cesta 7", "addr:city": "Koper", "addr:postcode": "6000", "addr:country": "SI", "name": "LJU-37", "opening_hours": "Mo-Sa 08:00-21:00", "brand": "Hofer", "brand:wikidata": "Q15815751", "nsi_id": "hofer-83285c"}, "geometry": {"type": "Point", "coordinates": [13.728111, 45.53143566]}},
{"type": "Feature", "id": "GdU8doGRUkjs6zSCTc9-ohY49bs=", "properties": {"ref": "LJU-35", "@spider": "hofer_si", "shop": "supermarket", "addr:full": "Ljutomerska cesta 38c, Ormo\u017e, 2270", "addr:street_address": "Ljutomerska cesta 38c", "addr:city": "Ormo\u017e", "addr:postcode": "2270", "addr:country": "SI", "name": "LJU-35", "opening_hours": "Mo-Sa 08:00-20:00", "brand": "Hofer", "brand:wikidata": "Q15815751", "nsi_id": "hofer-83285c"}, "geometry": {"type": "Point", "coordinates": [16.1645, 46.41165]}},
{"type": "Feature", "id": "AAx2KAHQqqZHaIMfScgrwY5mOxE=", "properties": {"ref": "LJU-6", "@spider": "hofer_si", "shop": "supermarket", "addr:full": "Ljubljanska cesta 90, Slovenska Bistrica, 2310", "addr:street_address": "Ljubljanska cesta 90", "addr:city": "Slovenska Bistrica", "addr:postcode": "2310", "addr:country": "SI", "name": "LJU-6", "opening_hours": "Mo-Sa 08:00-21:00", "brand": "Hofer", "brand:wikidata": "Q15815751", "nsi_id": "hofer-83285c"}, "geometry": {"type": "Point", "coordinates": [15.56266, 46.38299]}},
{"type": "Feature", "id": "C8dIjpDr_zLL4J-musGlcorszSU=", "properties": {"ref": "LJU-4", "@spider": "hofer_si", "shop": "supermarket", "addr:full": "Teharje 1a, Teharje, 3221", "addr:street_address": "Teharje 1a", "addr:city": "Teharje", "addr:postcode": "3221", "addr:country": "SI", "name": "LJU-4", "opening_hours": "Mo-Sa 08:00-20:00", "brand": "Hofer", "brand:wikidata": "Q15815751", "nsi_id": "hofer-83285c"}, "geometry": {"type": "Point", "coordinates": [15.2973, 46.23346]}},
{"type": "Feature", "id": "cYjTrPiCvqfMj7e0kXu7HntaXds=", "properties": {"ref": "LJU-44", "@spider": "hofer_si", "shop": "supermarket", "addr:full": "Adami\u010deva  cesta 4, Grosuplje, 1290", "addr:street_address": "Adami\u010deva  cesta 4", "addr:city": "Grosuplje", "addr:postcode": "1290", "addr:country": "SI", "name": "LJU-44", "opening_hours": "Mo-Sa 08:00-21:00", "brand": "Hofer", "brand:wikidata": "Q15815751", "nsi_id": "hofer-83285c"}, "geometry": {"type": "Point", "coordinates": [14.64755, 45.95965]}}]}