{"type":"FeatureCollection","features":[{"type": "Feature", "id": "DkrSRXdDBQuCYXxE3mUCYKdlbDs=", "properties": {"ref": "https://locations.us.homesense.com/#11753484", "@spider": "homesense", "shop": "interior_decoration", "addr:street_address": "30018 Detroit Road", "addr:city": "Westlake", "addr:state": "Ohio", "addr:postcode": "44145", "addr:country": "US", "name": "Homesense Westlake", "phone": "(440) 250-9459", "website": "https://locations.us.homesense.com/oh/westlake", "opening_hours": "Mo-Sa 09:30-21:30; Su 10:00-20:00", "image": "https://dynl.mktgcdn.com/p/iZ3o3JLTWkjJzKkEzaYmgi3ejr39IGMy-4CfujKizo4/150x150.jpg", "brand": "HomeSense", "brand:wikidata": "Q16844433", "nsi_id": "homesense-d842e9"}, "geometry": {"type": "Point", "coordinates": [-81.9529683, 41.4658212]}},
{"type": "Feature", "id": "QYX3HHX7wgJfXFCbaZA5-HN7h1I=", "properties": {"ref": "https://locations.us.homesense.com/#12026007", "@spider": "homesense", "shop": "interior_decoration", "addr:street_address": "2490 Central Park Ave", "addr:city": "Yonkers", "addr:state": "New York", "addr:postcode": "10710", "addr:country": "US", "name": "Homesense Yonkers", "phone": "(914) 779-0752", "website": "https://locations.us.homesense.com/ny/yonkers", "opening_hours": "Mo-Sa 09:30-21:30; Su 10:00-20:00", "image": "https://dynl.mktgcdn.com/p/iZ3o3JLTWkjJzKkEzaYmgi3ejr39IGMy-4CfujKizo4/150x150.jpg", "brand": "HomeSense", "brand:wikidata": "Q16844433", "nsi_id": "homesense-d842e9"}, "geometry": {"type": "Point", "coordinates": [-73.82701113373753, 40.98213163364989]}},
{"type": "Feature", "id": "0HtQyKRkVZTKdyhgHcMBKIcGOsU=", "properties": {"ref": "https://locations.us.homesense.com/#12825816", "@spider": "homesense", "shop": "interior_decoration", "addr:street_address": "2162-A Nesconset Highway", "addr:city": "Stony Brook", "addr:state": "New York", "addr:postcode": "11790", "addr:country": "US", "name": "Homesense Stony Brook", "phone": "(631) 751-1785", "website": "https://locations.us.homesense.com/ny/stony-brook", "opening_hours": "Mo-Sa 09:30-21:30; Su 10:00-20:00", "image": "https://dynl.mktgcdn.com/p/sF7e8AXCRv7BAkNr7jXfwOPQKqMnhx9ObrrZK9_wWrQ/150x150.jpg", "brand": "HomeSense", "brand:wikidata": "Q16844433", "nsi_id": "homesense-d842e9"}, "geometry": {"type": "Point", "coordinates": [-73.1259807, 40.8735273]}},
{"type": "Feature", "id": "uZ5N1TdiAw_K-WSDg1FUg3I9LIU=", "properties": {"ref": "https://locations.us.homesense.com/#10783605", "@spider": "homesense", "shop": "interior_decoration", "addr:street_address": "1750 Old Country Road", "addr:city": "Riverhead", "addr:state": "New York", "addr:postcode": "11901", "addr:country": "US", "name": "Homesense Riverhead", "phone": "(631) 727-5281", "website": "https://locations.us.homesense.com/ny/riverhead", "opening_hours": "Mo-Sa 09:30-21:30; Su 10:00-20:00", "image": "https://dynl.mktgcdn.com/p/iZ3o3JLTWkjJzKkEzaYmgi3ejr39IGMy-4CfujKizo4/150x150.jpg", "brand": "HomeSense", "brand:wikidata": "Q16844433", "nsi_id": "homesense-d842e9"}, "geometry": {"type": "Point", "coordinates": [-72.7049802, 40.9267697]}},
{"type": "Feature", "id": "fimEX6cJ_WKUdTs0fI0Cvxps_HQ=", "properties": {"ref": "https://locations.us.homesense.com/#13683880", "@spider": "homesense", "shop": "interior_decoration", "addr:street_address": "3340 Monroe Ave", "addr:city": "Pittsford", "addr:state": "New York", "addr:postcode": "14618", "addr:country": "US", "name": "Homesense Pittsford", "phone": "(585) 218-9218", "website": "https://locations.us.homesense.com/ny/pittsford", "opening_hours": "Mo-Sa 09:30-21:30; Su 10:00-20:00", "image": "https://dynl.mktgcdn.com/p/sF7e8AXCRv7BAkNr7jXfwOPQKqMnhx9ObrrZK9_wWrQ/150x150.jpg", "brand": "HomeSense", "brand:wikidata": "Q16844433", "nsi_id": "homesense-d842e9"}, "geometry": {"type": "Point", "coordinates": [-77.5367644, 43.103625]}},
{"type": "Feature", "id": "MljYZf8-tbiP2UtZwRm4tDPKMrU=", "properties": {"ref": "https://locations.us.homesense.com/#10603915", "@spider": "homesense", "shop": "interior_decoration", "addr:street_address": "3144 East Main Street", "addr:city": "Mohegan Lake", "addr:state": "New York", "addr:postcode": "10547", "addr:country": "US", "name": "Homesense Mohegan Lake", "phone": "(914) 528-0195", "website": "https://locations.us.homesense.com/ny/mohegan-lake", "opening_hours": "Mo-Sa 09:30-21:30; Su 10:00-20:00", "image": "https://dynl.mktgcdn.com/p/iZ3o3JLTWkjJzKkEzaYmgi3ejr39IGMy-4CfujKizo4/150x150.jpg", "brand": "HomeSense", "brand:wikidata": "Q16844433", "nsi_id": "homesense-d842e9"}, "geometry": {"type": "Point", "coordinates": [-73.8693149, 41.313763]}},
{"type": "Feature", "id": "G-qTnbKqysfNXxSOQUmRAJH4pfk=", "properties": {"ref": "https://locations.us.homesense.com/#9445971", "@spider": "homesense", "shop": "interior_decoration", "addr:street_address": "4A Henry Street", "addr:city": "Commack", "addr:state": "New York", "addr:postcode": "11725", "addr:country": "US", "name": "Homesense Commack", "phone": "(631) 499-1503", "website": "https://locations.us.homesense.com/ny/commack", "opening_hours": "Mo-Sa 09:30-21:30; Su 10:00-20:00", "image": "https://dynl.mktgcdn.com/p/iZ3o3JLTWkjJzKkEzaYmgi3ejr39IGMy-4CfujKizo4/150x150.jpg", "brand": "HomeSense", "brand:wikidata": "Q16844433", "nsi_id": "homesense-d842e9"}, "geometry": {"type": "Point", "coordinates": [-73.2862352, 40.8095849]}},
{"type": "Feature", "id": "C-zI9fM_nU01xnRJPdlezuh2aqY=", "properties": {"ref": "https://locations.us.homesense.com/#20379774", "@spider": "homesense", "shop": "interior_decoration", "addr:street_address": "177 Old Country Road", "addr:city": "Carle Place", "addr:state": "New York", "addr:postcode": "11514", "addr:country": "US", "name": "Homesense Carle Place", "phone": "(516) 741-4625", "website": "https://locations.us.homesense.com/ny/carle-place", "opening_hours": "Mo-Sa 09:30-21:30; Su 10:00-20:00", "image": "https://dynl.mktgcdn.com/p/sF7e8AXCRv7BAkNr7jXfwOPQKqMnhx9ObrrZK9_wWrQ/150x150.jpg", "brand": "HomeSense", "brand:wikidata": "Q16844433", "nsi_id": "homesense-d842e9"}, "geometry": {"type": "Point", "coordinates": [-73.61448768133602, 40.74458535322238]}},
{"type": "Feature", "id": "qbAc6f8WYSOMg_5DZf84N4bDOQE=", "properties": {"ref": "https://locations.us.homesense.com/#57739644", "@spider": "homesense", "shop": "interior_decoration", "addr:street_address": "1501 Niagara Falls Blvd.", "addr:city": "Amherst", "addr:state": "New York", "addr:postcode": "14228", "addr:country": "US", "name": "Homesense Amherst", "phone": "(716) 862-3894", "website": "https://locations.us.homesense.com/ny/amherst", "opening_hours": "Mo-Sa 09:30-21:30; Su 10:00-20:00", "image": "https://dynl.mktgcdn.com/p/sF7e8AXCRv7BAkNr7jXfwOPQKqMnhx9ObrrZK9_wWrQ/150x150.jpg", "brand": "HomeSense", "brand:wikidata": "Q16844433", "nsi_id": "homesense-d842e9"}, "geometry": {"type": "Point", "coordinates": [-78.82078381104509, 42.995536981477755]}},
{"type": "Feature", "id": "wcC1zqMq7VQbVFwEKySgA-3J8D8=", "properties": {"ref": "https://locations.us.homesense.com/#13323809", "@spider": "homesense", "shop": "interior_decoration", "addr:street_address": "1656 Rt 22", "addr:city": "Watchung", "addr:state": "New Jersey", "addr:postcode": "07069", "addr:country": "US", "name": "Homesense Watchung", "phone": "(908) 322-1734", "website": "https://locations.us.homesense.com/nj/watchung", "opening_hours": "Mo-Sa 09:30-21:30; Su 10:00-20:00", "image": "https://dynl.mktgcdn.com/p/sF7e8AXCRv7BAkNr7jXfwOPQKqMnhx9ObrrZK9_wWrQ/150x150.jpg", "brand": "HomeSense", "brand:wikidata": "Q16844433", "nsi_id": "homesense-d842e9"}, "geometry": {"type": "Point", "coordinates": [-74.4091512, 40.6435]}},
{"type": "Feature", "id": "aVndq57uou64t-qNMeuvIAQya_o=", "properties": {"ref": "https://locations.us.homesense.com/#57739649", "@spider": "homesense", "shop": "interior_decoration", "addr:street_address": "465 Route 46 West", "addr:city": "Totowa", "addr:state": "New Jersey", "addr:postcode": "07512", "addr:country": "US", "name": "Homesense Totowa", "phone": "(973) 812-5202", "website": "https://locations.us.homesense.com/nj/totowa", "opening_hours": "Mo-Sa 09:30-21:30; Su 10:00-20:00", "image": "https://dynl.mktgcdn.com/p/sF7e8AXCRv7BAkNr7jXfwOPQKqMnhx9ObrrZK9_wWrQ/150x150.jpg", "brand": "HomeSense", "brand:wikidata": "Q16844433", "nsi_id": "homesense-d842e9"}, "geometry": {"type": "Point", "coordinates": [-74.2343482, 40.8957706]}},
{"type": "Feature", "id": "KMWrl9dWVxClcG0xszugCYKFca0=", "properties": {"ref": "https://locations.us.homesense.com/#20379773", "@spider": "homesense", "shop": "interior_decoration", "addr:street_address": "1205 Hooper Avenue", "addr:city": "Toms River", "addr:state": "New Jersey", "addr:postcode": "08753", "addr:country": "US", "name": "Homesense Toms River", "phone": "(732) 240-5683", "website": "https://locations.us.homesense.com/nj/toms-river", "opening_hours": "Mo-Sa 09:30-21:30; Su 10:00-20:00", "image": "https://dynl.mktgcdn.com/p/sF7e8AXCRv7BAkNr7jXfwOPQKqMnhx9ObrrZK9_wWrQ/150x150.jpg", "brand": "HomeSense", "brand:wikidata": "Q16844433", "nsi_id": "homesense-d842e9"}, "geometry": {"type": "Point", "coordinates": [-74.1781366752928, 39.98063457296488]}},
{"type": "Feature", "id": "TXczpyZRGwEeHpylNF8siqxNXxU=", "properties": {"ref": "https://locations.us.homesense.com/#13683881", "@spider": "homesense", "shop": "interior_decoration", "addr:street_address": "220 Nassau Park Boulevard", "addr:city": "Princeton", "addr:state": "New Jersey", "addr:postcode": "08540", "addr:country": "US", "name": "Homesense Princeton", "phone": "(609) 919-0980", "website": "https://locations.us.homesense.com/nj/princeton", "opening_hours": "Mo-Sa 09:30-21:30; Su 10:00-20:00", "image": "https://dynl.mktgcdn.com/p/sF7e8AXCRv7BAkNr7jXfwOPQKqMnhx9ObrrZK9_wWrQ/150x150.jpg", "brand": "HomeSense", "brand:wikidata": "Q16844433", "nsi_id": "homesense-d842e9"}, "geometry": {"type": "Point", "coordinates": [-74.6745105, 40.3051256]}},
{"type": "Feature", "id": "lk-X1TtC_MF9n0hwHLVSYEzwU-4=", "properties": {"ref": "https://locations.us.homesense.com/#13323810", "@spider": "homesense", "shop": "interior_decoration", "addr:street_address": "56 Waterview Boulevard", "addr:city": "Parsippany", "addr:state": "New Jersey", "addr:postcode": "07054", "addr:country": "US", "name": "Homesense Parsippany", "phone": "(973) 316-4919", "website": "https://locations.us.homesense.com/nj/parsippany", "opening_hours": "Mo-Sa 09:30-21:30; Su 10:00-20:00", "image": "https://dynl.mktgcdn.com/p/sF7e8AXCRv7BAkNr7jXfwOPQKqMnhx9ObrrZK9_wWrQ/150x150.jpg", "brand": "HomeSense", "brand:wikidata": "Q16844433", "nsi_id": "homesense-d842e9"}, "geometry": {"type": "Point", "coordinates": [-74.42781699999999, 40.8755309]}},
{"type": "Feature", "id": "ejKqmqcBpn4CbAOPSebhfJJR5yw=", "properties": {"ref": "https://locations.us.homesense.com/#10053553", "@spider": "homesense", "shop": "interior_decoration", "addr:street_address": "404 Route 17 North", "addr:city": "Paramus", "addr:state": "New Jersey", "addr:postcode": "07652", "addr:country": "US", "name": "Homesense Paramus", "phone": "(201) 261-2360", "website": "https://locations.us.homesense.com/nj/paramus", "opening_hours": "Mo-Sa 09:30-21:30", "image": "https://dynl.mktgcdn.com/p/iZ3o3JLTWkjJzKkEzaYmgi3ejr39IGMy-4CfujKizo4/150x150.jpg", "brand": "HomeSense", "brand:wikidata": "Q16844433", "nsi_id": "homesense-d842e9"}, "geometry": {"type": "Point", "coordinates": [-74.07066186043062, 40.94838904108746]}},
{"type": "Feature", "id": "DXL5H6Hq6WT65toh0tCYH2hGRac=", "properties": {"ref": "https://locations.us.homesense.com/#8571004", "@spider": "homesense", "shop": "interior_decoration", "addr:street_address": "2333 Route 66", "addr:city": "Ocean", "addr:state": "New Jersey", "addr:postcode": "07712", "addr:country": "US", "name": "Homesense Ocean", "phone": "(732) 493-0793", "website": "https://locations.us.homesense.com/nj/ocean", "opening_hours": "Mo-Sa 09:30-21:30; Su 10:00-20:00", "image": "https://dynl.mktgcdn.com/p/iZ3o3JLTWkjJzKkEzaYmgi3ejr39IGMy-4CfujKizo4/150x150.jpg", "brand": "HomeSense", "brand:wikidata": "Q16844433", "nsi_id": "homesense-d842e9"}, "geometry": {"type": "Point", "coordinates": [-74.04717745767209, 40.2306798544192]}},
{"type": "Feature", "id": "boGSZWyh4gZCZp75S8K28s0bHzw=", "properties": {"ref": "https://locations.us.homesense.com/#10264907", "@spider": "homesense", "shop": "interior_decoration", "addr:street_address": "46301 Potomac Run Plaza", "addr:city": "Sterling", "addr:state": "Virginia", "addr:postcode": "20164", "addr:country": "US", "name": "Homesense Sterling", "phone": "(703) 444-3432", "website": "https://locations.us.homesense.com/va/sterling", "opening_hours": "Mo-Sa 09:30-21:30; Su 10:00-20:00", "image": "https://dynl.mktgcdn.com/p/iZ3o3JLTWkjJzKkEzaYmgi3ejr39IGMy-4CfujKizo4/150x150.jpg", "brand": "HomeSense", "brand:wikidata": "Q16844433", "nsi_id": "homesense-d842e9"}, "geometry": {"type": "Point", "coordinates": [-77.3987957, 39.0252487]}},
{"type": "Feature", "id": "eprwCDxs2x2Nqn2FLGLifiI9ArY=", "properties": {"ref": "https://locations.us.homesense.com/#57035523", "@spider": "homesense", "shop": "interior_decoration", "addr:street_address": "3538 Pump Road", "addr:city": "Richmond", "addr:state": "Virginia", "addr:postcode": "23233", "addr:country": "US", "name": "Homesense Richmond", "phone": "(804) 360-4860", "website": "https://locations.us.homesense.com/va/richmond", "opening_hours": "Mo-Sa 09:30-21:30; Su 10:00-20:00", "image": "https://dynl.mktgcdn.com/p/sF7e8AXCRv7BAkNr7jXfwOPQKqMnhx9ObrrZK9_wWrQ/150x150.jpg", "brand": "HomeSense", "brand:wikidata": "Q16844433", "nsi_id": "homesense-d842e9"}, "geometry": {"type": "Point", "coordinates": [-77.612057, 37.6512303]}},
{"type": "Feature", "id": "qk5aeKYbnw4h4w_kaY43H4_jXr4=", "properties": {"ref": "https://locations.us.homesense.com/#20187265", "@spider": "homesense", "shop": "interior_decoration", "addr:street_address": "7005 Manchester Boulevard", "addr:city": "Franconia", "addr:state": "Virginia", "addr:postcode": "22310", "addr:country": "US", "name": "Homesense Franconia", "phone": "(703) 313-6781", "website": "https://locations.us.homesense.com/va/franconia", "opening_hours": "Mo-Sa 09:30-21:30; Su 10:00-20:00", "image": "https://dynl.mktgcdn.com/p/sF7e8AXCRv7BAkNr7jXfwOPQKqMnhx9ObrrZK9_wWrQ/150x150.jpg", "brand": "HomeSense", "brand:wikidata": "Q16844433", "nsi_id": "homesense-d842e9"}, "geometry": {"type": "Point", "coordinates": [-77.1534673, 38.7662105]}},
{"type": "Feature", "id": "UBhVCAGJ2Wf-zklj5msJLPwe8dc=", "properties": {"ref": "https://locations.us.homesense.com/#12026003", "@spider": "homesense", "shop": "interior_decoration", "addr:street_address": "12189 Fair Lakes Promenade Dr.", "addr:city": "Fairfax", "addr:state": "Virginia", "addr:postcode": "22033", "addr:country": "US", "name": "Homesense Fairfax", "phone": "(703) 278-8717", "website": "https://locations.us.homesense.com/va/fairfax", "opening_hours": "Mo-Sa 09:30-21:30; Su 10:00-20:00", "image": "https://dynl.mktgcdn.com/p/iZ3o3JLTWkjJzKkEzaYmgi3ejr39IGMy-4CfujKizo4/150x150.jpg", "brand": "HomeSense", "brand:wikidata": "Q16844433", "nsi_id": "homesense-d842e9"}, "geometry": {"type": "Point", "coordinates": [-77.366272, 38.859528]}},
{"type": "Feature", "id": "_fcw0JUWCCSjGkyIihrDgd3vLlk=", "properties": {"ref": "https://locations.us.homesense.com/#13683883", "@spider": "homesense", "shop": "interior_decoration", "addr:street_address": "550 East Lancaster Ave", "addr:city": "Radnor", "addr:state": "Pennsylvania", "addr:postcode": "19087", "addr:country": "US", "name": "Homesense Radnor", "phone": "(610) 293-8091", "website": "https://locations.us.homesense.com/pa/radnor", "opening_hours": "Mo-Sa 09:30-21:30; Su 10:00-20:00", "image": "https://dynl.mktgcdn.com/p/sF7e8AXCRv7BAkNr7jXfwOPQKqMnhx9ObrrZK9_wWrQ/150x150.jpg", "brand": "HomeSense", "brand:wikidata": "Q16844433", "nsi_id": "homesense-d842e9"}, "geometry": {"type": "Point", "coordinates": [-75.37014184598064, 40.04019330656815]}},
{"type": "Feature", "id": "K7hnwrZlLt1mPvxMdXJs2-fn-UA=", "properties": {"ref": "https://locations.us.homesense.com/#13683884", "@spider": "homesense", "shop": "interior_decoration", "addr:street_address": "12 Airport Square", "addr:city": "North Wales", "addr:state": "Pennsylvania", "addr:postcode": "19454", "addr:country": "US", "name": "Homesense North Wales", "phone": "(215) 393-6125", "website": "https://locations.us.homesense.com/pa/north-wales", "opening_hours": "Mo-Sa 09:30-21:30; Su 10:00-20:00", "image": "https://dynl.mktgcdn.com/p/sF7e8AXCRv7BAkNr7jXfwOPQKqMnhx9ObrrZK9_wWrQ/150x150.jpg", "brand": "HomeSense", "brand:wikidata": "Q16844433", "nsi_id": "homesense-d842e9"}, "geometry": {"type": "Point", "coordinates": [-75.241309, 40.2402875]}},
{"type": "Feature", "id": "yqceWBuxtnfX5sSMSZEpGMURSM8=", "properties": {"ref": "https://locations.us.homesense.com/#10603909", "@spider": "homesense", "shop": "interior_decoration", "addr:street_address": "2424 East Lincoln Highway", "addr:city": "Langhorne", "addr:state": "Pennsylvania", "addr:postcode": "19047", "addr:country": "US", "name": "Homesense Langhorne", "phone": "(215) 757-2960", "website": "https://locations.us.homesense.com/pa/langhorne", "opening_hours": "Mo-Sa 09:30-21:30; Su 10:00-20:00", "image": "https://dynl.mktgcdn.com/p/iZ3o3JLTWkjJzKkEzaYmgi3ejr39IGMy-4CfujKizo4/150x150.jpg", "brand": "HomeSense", "brand:wikidata": "Q16844433", "nsi_id": "homesense-d842e9"}, "geometry": {"type": "Point", "coordinates": [-74.87245165726989, 40.181705950889025]}},
{"type": "Feature", "id": "Wn5VbWCA8dS8rzaZQM-KrPG6HYs=", "properties": {"ref": "https://locations.us.homesense.com/#10603913", "@spider": "homesense", "shop": "interior_decoration", "addr:street_address": "107 E. Swedesford Road", "addr:city": "Exton", "addr:state": "Pennsylvania", "addr:postcode": "19341", "addr:country": "US", "name": "Homesense Exton", "phone": "(610) 363-6925", "website": "https://locations.us.homesense.com/pa/exton", "opening_hours": "Mo-Sa 09:30-21:30; Su 10:00-20:00", "image": "https://dynl.mktgcdn.com/p/iZ3o3JLTWkjJzKkEzaYmgi3ejr39IGMy-4CfujKizo4/150x150.jpg", "brand": "HomeSense", "brand:wikidata": "Q16844433", "nsi_id": "homesense-d842e9"}, "geometry": {"type": "Point", "coordinates": [-75.63068691534426, 40.03559842895973]}},
{"type": "Feature", "id": "EJtAZTM_HjJ8um1mF1wZRmdNmNI=", "properties": {"ref": "https://locations.us.homesense.com/#34171866", "@spider": "homesense", "shop": "interior_decoration", "addr:street_address": "66 Strathy Road", "addr:city": "Cobourg", "addr:state": "Ontario", "addr:postcode": "K9A 5J7", "addr:country": "CA", "name": "HomeSense Cobourg", "phone": "(905) 372-1412", "website": "https://locations.us.homesense.com/on/cobourg", "opening_hours": "Mo-Fr 09:30-21:00; Sa 09:00-19:00; Su 10:00-18:00", "image": "https://dynl.mktgcdn.com/p/ntDt52eE2A8IKFiytJ57Yn7vOvG0_j1a7sFFfStoQPI/150x150.jpg", "brand": "HomeSense", "brand:wikidata": "Q16844433", "nsi_id": "homesense-d842e9"}, "geometry": {"type": "Point", "coordinates": [-78.1987462533903, 43.975482186323056]}},
{"type": "Feature", "id": "Z8rIo0v2441xhZ5ZgwNoYLuyplI=", "properties": {"ref": "https://locations.us.homesense.com/#10109238", "@spider": "homesense", "shop": "interior_decoration", "addr:street_address": "400 West Route 38", "addr:city": "Moorestown", "addr:state": "New Jersey", "addr:postcode": "08057", "addr:country": "US", "name": "Homesense Moorestown", "phone": "(856) 608-8781", "website": "https://locations.us.homesense.com/nj/moorestown", "opening_hours": "Mo-Sa 09:30-21:30; Su 10:00-20:00", "image": "https://dynl.mktgcdn.com/p/iZ3o3JLTWkjJzKkEzaYmgi3ejr39IGMy-4CfujKizo4/150x150.jpg", "brand": "HomeSense", "brand:wikidata": "Q16844433", "nsi_id": "homesense-d842e9"}, "geometry": {"type": "Point", "coordinates": [-74.9643408907441, 39.94432470471381]}},
{"type": "Feature", "id": "fmtN6nEXyi3VIbnxdE2hGveHSzA=", "properties": {"ref": "https://locations.us.homesense.com/#11753482", "@spider": "homesense", "shop": "interior_decoration", "addr:street_address": "55 US Highway 9 South", "addr:city": "Manalapan", "addr:state": "New Jersey", "addr:postcode": "07726", "addr:country": "US", "name": "Homesense Manalapan", "phone": "(732) 431-0525", "website": "https://locations.us.homesense.com/nj/manalapan", "opening_hours": "Mo-Sa 09:30-21:30; Su 10:00-20:00", "image": "https://dynl.mktgcdn.com/p/iZ3o3JLTWkjJzKkEzaYmgi3ejr39IGMy-4CfujKizo4/150x150.jpg", "brand": "HomeSense", "brand:wikidata": "Q16844433", "nsi_id": "homesense-d842e9"}, "geometry": {"type": "Point", "coordinates": [-74.30084684386901, 40.289357176726895]}},
{"type": "Feature", "id": "dM8YiGGIyH1vi9HYxEvsY-Q3IvY=", "properties": {"ref": "https://locations.us.homesense.com/#8336060", "@spider": "homesense", "shop": "interior_decoration", "addr:street_address": "156 Rt. 10", "addr:city": "East Hanover", "addr:state": "New Jersey", "addr:postcode": "07936", "addr:country": "US", "name": "Homesense East Hanover", "phone": "(973) 884-8750", "website": "https://locations.us.homesense.com/nj/east-hanover", "opening_hours": "Mo-Sa 09:30-21:30; Su 10:00-20:00", "image": "https://dynl.mktgcdn.com/p/iZ3o3JLTWkjJzKkEzaYmgi3ejr39IGMy-4CfujKizo4/150x150.jpg", "brand": "HomeSense", "brand:wikidata": "Q16844433", "nsi_id": "homesense-d842e9"}, "geometry": {"type": "Point", "coordinates": [-74.3796105165329, 40.8108534584453]}},
{"type": "Feature", "id": "vA5cUDad4yx6NyOfXSjQ4N3e24w=", "properties": {"ref": "https://locations.us.homesense.com/#13260218", "@spider": "homesense", "shop": "interior_decoration", "addr:street_address": "67 Central St.", "addr:city": "Salem", "addr:state": "New Hampshire", "addr:postcode": "03079", "addr:country": "US", "name": "Homesense Salem", "phone": "(603) 912-5492", "website": "https://locations.us.homesense.com/nh/salem", "opening_hours": "Mo-Sa 09:30-21:30; Su 10:00-20:00", "image": "https://dynl.mktgcdn.com/p/sF7e8AXCRv7BAkNr7jXfwOPQKqMnhx9ObrrZK9_wWrQ/150x150.jpg", "brand": "HomeSense", "brand:wikidata": "Q16844433", "nsi_id": "homesense-d842e9"}, "geometry": {"type": "Point", "coordinates": [-71.23020793428468, 42.77671248681068]}},
{"type": "Feature", "id": "mHB52Km8bCvVPoIzQ-jUKshPYxo=", "properties": {"ref": "https://locations.us.homesense.com/#12200788", "@spider": "homesense", "shop": "interior_decoration", "addr:street_address": "1465 Woodbury Avenue", "addr:city": "Portsmouth", "addr:state": "New Hampshire", "addr:postcode": "03801", "addr:country": "US", "name": "Homesense Portsmouth", "phone": "(603) 427-0038", "website": "https://locations.us.homesense.com/nh/portsmouth", "opening_hours": "Mo-Sa 09:30-21:30; Su 10:00-20:00", "image": "https://dynl.mktgcdn.com/p/sF7e8AXCRv7BAkNr7jXfwOPQKqMnhx9ObrrZK9_wWrQ/150x150.jpg", "brand": "HomeSense", "brand:wikidata": "Q16844433", "nsi_id": "homesense-d842e9"}, "geometry": {"type": "Point", "coordinates": [-70.7886189, 43.0890782]}},
{"type": "Feature", "id": "lSfmO6gpPNYMDnOuad3gHiDgXGE=", "properties": {"ref": "https://locations.us.homesense.com/#13683882", "@spider": "homesense", "shop": "interior_decoration", "addr:street_address": "79 South River Street", "addr:city": "Bedford", "addr:state": "New Hampshire", "addr:postcode": "03104", "addr:country": "US", "name": "Homesense Bedford", "phone": "(603) 222-7147", "website": "https://locations.us.homesense.com/nh/bedford", "opening_hours": "Mo-Sa 09:30-21:30; Su 10:00-20:00", "image": "https://dynl.mktgcdn.com/p/sF7e8AXCRv7BAkNr7jXfwOPQKqMnhx9ObrrZK9_wWrQ/150x150.jpg", "brand": "HomeSense", "brand:wikidata": "Q16844433", "nsi_id": "homesense-d842e9"}, "geometry": {"type": "Point", "coordinates": [-71.47627, 42.956983]}},
{"type": "Feature", "id": "wr5cV2oEkXqL0WIGBxc36qifv-E=", "properties": {"ref": "https://locations.us.homesense.com/#40152155", "@spider": "homesense", "shop": "interior_decoration", "addr:street_address": "12013 Rockville Pike", "addr:city": "Rockville", "addr:state": "Maryland", "addr:postcode": "20852", "addr:country": "US", "name": "Homesense Rockville", "phone": "(301) 468-5690", "website": "https://locations.us.homesense.com/md/rockville", "opening_hours": "Mo-Sa 09:30-21:30; Su 10:00-20:00", "image": "https://dynl.mktgcdn.com/p/sF7e8AXCRv7BAkNr7jXfwOPQKqMnhx9ObrrZK9_wWrQ/150x150.jpg", "brand": "HomeSense", "brand:wikidata": "Q16844433", "nsi_id": "homesense-d842e9"}, "geometry": {"type": "Point", "coordinates": [-77.11364815087121, 39.05512967003515]}},
{"type": "Feature", "id": "7HrPyFTfMMcFswTAxz3Agv7OIRM=", "properties": {"ref": "https://locations.us.homesense.com/#13683879", "@spider": "homesense", "shop": "interior_decoration", "addr:street_address": "10220 Mill Run Circle", "addr:city": "Owings Mills", "addr:state": "Maryland", "addr:postcode": "21117", "addr:country": "US", "name": "Homesense Owings Mills", "phone": "(410) 356-8313", "website": "https://locations.us.homesense.com/md/owings-mills", "opening_hours": "Mo-Sa 09:30-21:30; Su 10:00-20:00", "image": "https://dynl.mktgcdn.com/p/sF7e8AXCRv7BAkNr7jXfwOPQKqMnhx9ObrrZK9_wWrQ/150x150.jpg", "brand": "HomeSense", "brand:wikidata": "Q16844433", "nsi_id": "homesense-d842e9"}, "geometry": {"type": "Point", "coordinates": [-76.789234, 39.4082863]}},
{"type": "Feature", "id": "ORTIJSE-rA3rJGQ9CUrRnoZrqks=", "properties": {"ref": "https://locations.us.homesense.com/#10053551", "@spider": "homesense", "shop": "interior_decoration", "addr:street_address": "6225 Columbia Circle", "addr:city": "Columbia", "addr:state": "Maryland", "addr:postcode": "21045", "addr:country": "US", "name": "Homesense Columbia", "phone": "(410) 290-0464", "website": "https://locations.us.homesense.com/md/columbia", "opening_hours": "Mo-Sa 09:30-21:30; Su 10:00-20:00", "image": "https://dynl.mktgcdn.com/p/iZ3o3JLTWkjJzKkEzaYmgi3ejr39IGMy-4CfujKizo4/150x150.jpg", "brand": "HomeSense", "brand:wikidata": "Q16844433", "nsi_id": "homesense-d842e9"}, "geometry": {"type": "Point", "coordinates": [-76.81578737301635, 39.198685943228114]}},
{"type": "Feature", "id": "A280RtshqXTEaSs5bvqEggMzBq8=", "properties": {"ref": "https://locations.us.homesense.com/#15113845", "@spider": "homesense", "shop": "interior_decoration", "addr:street_address": "660 Marketplace Drive", "addr:city": "Bel Air", "addr:state": "Maryland", "addr:postcode": "21014", "addr:country": "US", "name": "Homesense Bel Air", "phone": "(410) 836-7482", "website": "https://locations.us.homesense.com/md/bel-air", "opening_hours": "Mo-Sa 09:30-21:30; Su 10:00-20:00", "image": "https://dynl.mktgcdn.com/p/sF7e8AXCRv7BAkNr7jXfwOPQKqMnhx9ObrrZK9_wWrQ/150x150.jpg", "brand": "HomeSense", "brand:wikidata": "Q16844433", "nsi_id": "homesense-d842e9"}, "geometry": {"type": "Point", "coordinates": [-76.3522363, 39.52242710000001]}},
{"type": "Feature", "id": "nNIjM6r9UmZoiTyFWSSBj2v815w=", "properties": {"ref": "https://locations.us.homesense.com/#10109239", "@spider": "homesense", "shop": "interior_decoration", "addr:street_address": "150 Jennifer Road", "addr:city": "Annapolis", "addr:state": "Maryland", "addr:postcode": "21401", "addr:country": "US", "name": "Homesense Annapolis", "phone": "(410) 571-1782", "website": "https://locations.us.homesense.com/md/annapolis", "opening_hours": "Mo-Sa 09:30-21:30; Su 10:00-20:00", "image": "https://dynl.mktgcdn.com/p/iZ3o3JLTWkjJzKkEzaYmgi3ejr39IGMy-4CfujKizo4/150x150.jpg", "brand": "HomeSense", "brand:wikidata": "Q16844433", "nsi_id": "homesense-d842e9"}, "geometry": {"type": "Point", "coordinates": [-76.5387344, 38.98933]}},
{"type": "Feature", "id": "Tvj7RUeCCOJCNFWkX8CnBSjglh8=", "properties": {"ref": "https://locations.us.homesense.com/#20187266", "@spider": "homesense", "shop": "interior_decoration", "addr:street_address": "300 Mishawum Road", "addr:city": "Woburn", "addr:state": "Massachusetts", "addr:postcode": "01801", "addr:country": "US", "name": "Homesense Woburn", "phone": "(781) 933-4971", "website": "https://locations.us.homesense.com/ma/woburn", "opening_hours": "Mo-Sa 09:30-21:30; Su 10:00-20:00", "image": "https://dynl.mktgcdn.com/p/sF7e8AXCRv7BAkNr7jXfwOPQKqMnhx9ObrrZK9_wWrQ/150x150.jpg", "brand": "HomeSense", "brand:wikidata": "Q16844433", "nsi_id": "homesense-d842e9"}, "geometry": {"type": "Point", "coordinates": [-71.1329647, 42.5054564]}},
{"type": "Feature", "id": "PCKOUJilcg3D5U-_DooOT25-z3w=", "properties": {"ref": "https://locations.us.homesense.com/#8571005", "@spider": "homesense", "shop": "interior_decoration", "addr:street_address": "281 University Ave", "addr:city": "Westwood", "addr:state": "Massachusetts", "addr:postcode": "02090", "addr:country": "US", "name": "Homesense Westwood", "phone": "(781) 326-0760", "website": "https://locations.us.homesense.com/ma/westwood", "opening_hours": "Mo-Sa 09:30-21:30; Su 10:00-20:00", "image": "https://dynl.mktgcdn.com/p/iZ3o3JLTWkjJzKkEzaYmgi3ejr39IGMy-4CfujKizo4/150x150.jpg", "brand": "HomeSense", "brand:wikidata": "Q16844433", "nsi_id": "homesense-d842e9"}, "geometry": {"type": "Point", "coordinates": [-71.1547892, 42.2024446]}},
{"type": "Feature", "id": "BhpIgaF-b6MdQDdIam1XoMVpEGw=", "properties": {"ref": "https://locations.us.homesense.com/#10109240", "@spider": "homesense", "shop": "interior_decoration", "addr:street_address": "6104 Shops Way", "addr:city": "Northborough", "addr:state": "Massachusetts", "addr:postcode": "01532", "addr:country": "US", "name": "Homesense Northborough", "phone": "(508) 393-3470", "website": "https://locations.us.homesense.com/ma/northborough", "opening_hours": "Mo-Sa 09:30-21:30; Su 10:00-20:00", "image": "https://dynl.mktgcdn.com/p/iZ3o3JLTWkjJzKkEzaYmgi3ejr39IGMy-4CfujKizo4/150x150.jpg", "brand": "HomeSense", "brand:wikidata": "Q16844433", "nsi_id": "homesense-d842e9"}, "geometry": {"type": "Point", "coordinates": [-71.6742878, 42.2904116]}},
{"type": "Feature", "id": "7WgO5lCH3187GKKBsnoH2JSSAHI=", "properties": {"ref": "https://locations.us.homesense.com/#8336059", "@spider": "homesense", "shop": "interior_decoration", "addr:street_address": "1 Worcester Road", "addr:city": "Framingham", "addr:state": "Massachusetts", "addr:postcode": "01701", "addr:country": "US", "name": "Homesense Framingham", "phone": "(508) 424-2591", "website": "https://locations.us.homesense.com/ma/framingham", "opening_hours": "Mo-Sa 09:30-21:30; Su 10:00-20:00", "image": "https://dynl.mktgcdn.com/p/iZ3o3JLTWkjJzKkEzaYmgi3ejr39IGMy-4CfujKizo4/150x150.jpg", "brand": "HomeSense", "brand:wikidata": "Q16844433", "nsi_id": "homesense-d842e9"}, "geometry": {"type": "Point", "coordinates": [-71.39634098530868, 42.301603348393144]}},
{"type": "Feature", "id": "9f1LnNNLLkfliUXwKlK8Ei5Ah2A=", "properties": {"ref": "https://locations.us.homesense.com/#9445972", "@spider": "homesense", "shop": "interior_decoration", "addr:street_address": "180 Pearl St", "addr:city": "Braintree", "addr:state": "Massachusetts", "addr:postcode": "02184", "addr:country": "US", "name": "Homesense Braintree", "phone": "(781) 848-1451", "website": "https://locations.us.homesense.com/ma/braintree", "opening_hours": "Mo-Sa 09:30-21:30; Su 10:00-20:00", "image": "https://dynl.mktgcdn.com/p/iZ3o3JLTWkjJzKkEzaYmgi3ejr39IGMy-4CfujKizo4/150x150.jpg", "brand": "HomeSense", "brand:wikidata": "Q16844433", "nsi_id": "homesense-d842e9"}, "geometry": {"type": "Point", "coordinates": [-71.0013744, 42.2044448]}},
{"type": "Feature", "id": "Av4aJxJuSUmD2oHG1Vyza7H0B0w=", "properties": {"ref": "https://locations.us.homesense.com/#57739648", "@spider": "homesense", "shop": "interior_decoration", "addr:street_address": "125 N Cattlemen Road", "addr:city": "Sarasota", "addr:state": "Florida", "addr:postcode": "34243", "addr:country": "US", "name": "Homesense Sarasota", "phone": "(941) 355-2137", "website": "https://locations.us.homesense.com/fl/sarasota", "opening_hours": "Mo-Sa 09:30-21:30; Su 10:00-20:00", "image": "https://dynl.mktgcdn.com/p/sF7e8AXCRv7BAkNr7jXfwOPQKqMnhx9ObrrZK9_wWrQ/150x150.jpg", "brand": "HomeSense", "brand:wikidata": "Q16844433", "nsi_id": "homesense-d842e9"}, "geometry": {"type": "Point", "coordinates": [-82.45811203311705, 27.384778523766073]}},
{"type": "Feature", "id": "qUvkfndOxg1EktGCnIBKyAFFMxg=", "properties": {"ref": "https://locations.us.homesense.com/#12200765", "@spider": "homesense", "shop": "interior_decoration", "addr:street_address": "3050 Fashion Center Boulevard", "addr:city": "Newark", "addr:state": "Delaware", "addr:postcode": "19702", "addr:country": "US", "name": "Homesense Newark", "phone": "(302) 737-6740", "website": "https://locations.us.homesense.com/de/newark", "opening_hours": "Mo-Sa 09:30-21:30; Su 10:00-20:00", "image": "https://dynl.mktgcdn.com/p/sF7e8AXCRv7BAkNr7jXfwOPQKqMnhx9ObrrZK9_wWrQ/150x150.jpg", "brand": "HomeSense", "brand:wikidata": "Q16844433", "nsi_id": "homesense-d842e9"}, "geometry": {"type": "Point", "coordinates": [-75.64801832228714, 39.66997726616549]}},
{"type": "Feature", "id": "c4lr6yaFcp_PD0bvX2orTua4OZI=", "properties": {"ref": "https://locations.us.homesense.com/#15640985", "@spider": "homesense", "shop": "interior_decoration", "addr:street_address": "35 Talcottville Road", "addr:city": "Vernon", "addr:state": "Connecticut", "addr:postcode": "06066", "addr:country": "US", "name": "Homesense Vernon", "phone": "(860) 870-9992", "website": "https://locations.us.homesense.com/ct/vernon", "opening_hours": "Mo-Sa 09:30-21:30; Su 10:00-20:00", "image": "https://dynl.mktgcdn.com/p/sF7e8AXCRv7BAkNr7jXfwOPQKqMnhx9ObrrZK9_wWrQ/150x150.jpg", "brand": "HomeSense", "brand:wikidata": "Q16844433", "nsi_id": "homesense-d842e9"}, "geometry": {"type": "Point", "coordinates": [-72.4988675, 41.8270494]}},
{"type": "Feature", "id": "gqv-ZloXktog54uLDxTl7dMyFaQ=", "properties": {"ref": "https://locations.us.homesense.com/#15289100", "@spider": "homesense", "shop": "interior_decoration", "addr:street_address": "25 Hazard Avenue", "addr:city": "Enfield", "addr:state": "Connecticut", "addr:postcode": "06082", "addr:country": "US", "name": "Homesense Enfield", "phone": "(860) 741-3235", "website": "https://locations.us.homesense.com/ct/enfield", "opening_hours": "Mo-Sa 09:30-21:30; Su 10:00-20:00", "image": "https://dynl.mktgcdn.com/p/sF7e8AXCRv7BAkNr7jXfwOPQKqMnhx9ObrrZK9_wWrQ/150x150.jpg", "brand": "HomeSense", "brand:wikidata": "Q16844433", "nsi_id": "homesense-d842e9"}, "geometry": {"type": "Point", "coordinates": [-72.5790018, 41.9913956]}}]}