{"type":"FeatureCollection","features":[{"type": "Feature", "id": "bN3nFOvAiRFG1o8C1NiTkTl11IY=", "properties": {"ref": "https://store.homebase.co.uk/#24689798", "@spider": "homebase", "shop": "doityourself", "addr:street_address": "Unit F3, Fairacres Retail Park Marcham Rd", "addr:postcode": "OX14 1TP", "addr:country": "GB", "name": "Homebase Abingdon", "phone": "0345 640 7039", "website": "https://store.homebase.co.uk/abingdon/unit-f3-fairacres-retail-park", "opening_hours": "Mo-Fr 09:00-19:00; Sa 09:00-18:00; Su 10:00-16:00", "image": "https://dynl.mktgcdn.com/p/RJKoV7LI5QxTFraoya1oi1KdbntGkTM65u6B4b7zRO0/600x400.jpg", "brand": "Homebase", "brand:wikidata": "Q9293447", "nsi_id": "homebase-0c42e1"}, "geometry": {"type": "Point", "coordinates": [-1.3062913, 51.6692662]}},
{"type": "Feature", "id": "G6P8wX2N2WpiXCXXSpBLAArd42U=", "properties": {"ref": "https://store.homebase.co.uk/#15166873", "@spider": "homebase", "shop": "doityourself", "addr:street_address": "Horsted Retail Park Maidstone Road", "addr:postcode": "ME5 9SQ", "addr:country": "GB", "name": "Homebase Chatham", "phone": "0345 640 7051", "website": "https://store.homebase.co.uk/chatham/horsted-retail-park", "opening_hours": "Mo-Sa 09:00-18:00; Su 10:00-16:00", "image": "https://dynl.mktgcdn.com/p/twWOW6ihBAvfeu_u8_YK6EsqpItwfxEKiZExP5-v9vo/600x400.jpg", "brand": "Homebase", "brand:wikidata": "Q9293447", "nsi_id": "homebase-0c42e1"}, "geometry": {"type": "Point", "coordinates": [0.5072027183158525, 51.351130448073846]}},
{"type": "Feature", "id": "6gk5wLgZH3Q-tdN_BS6sJipVDkc=", "properties": {"ref": "https://store.homebase.co.uk/#15166778", "@spider": "homebase", "shop": "doityourself", "addr:street_address": "The Orbital Retail Centre Voyager Drive", "addr:postcode": "WS11 8XP", "addr:country": "GB", "name": "Homebase Cannock", "phone": "0345 640 7114", "website": "https://store.homebase.co.uk/cannock/the-orbital-retail-centre", "opening_hours": "Mo-Sa 09:00-18:00; Su 10:00-16:00", "image": "https://dynl.mktgcdn.com/p/twWOW6ihBAvfeu_u8_YK6EsqpItwfxEKiZExP5-v9vo/600x400.jpg", "brand": "Homebase", "brand:wikidata": "Q9293447", "nsi_id": "homebase-0c42e1"}, "geometry": {"type": "Point", "coordinates": [-2.020316, 52.675563]}},
{"type": "Feature", "id": "F8qteVA53ymuoyMKQx9S6jN4B04=", "properties": {"ref": "https://store.homebase.co.uk/#15166918", "@spider": "homebase", "shop": "doityourself", "addr:street_address": "Unit 10 - Cambridge Retail Park 254 Newmarket Road", "addr:postcode": "CB5 8JL", "addr:country": "GB", "name": "Homebase Cambridge", "phone": "0345 640 7256", "website": "https://store.homebase.co.uk/cambridge/unit-10-cambridge-retail-park", "opening_hours": "Mo-Sa 09:00-19:00; Su 10:00-16:00", "image": "https://dynl.mktgcdn.com/p/twWOW6ihBAvfeu_u8_YK6EsqpItwfxEKiZExP5-v9vo/600x400.jpg", "brand": "Homebase", "brand:wikidata": "Q9293447", "nsi_id": "homebase-0c42e1"}, "geometry": {"type": "Point", "coordinates": [0.1463272, 52.2086106]}},
{"type": "Feature", "id": "hyWjXlbGRsrPdJuFV023uD6rSp8=", "properties": {"ref": "https://store.homebase.co.uk/#23552214", "@spider": "homebase", "shop": "doityourself", "addr:street_address": "London Rd The Meadows", "addr:city": "Camberley York Town", "addr:postcode": "GU15 3XS", "addr:country": "GB", "name": "Garden by Homebase at Next - Camberley", "phone": "+443456407497", "website": "https://store.homebase.co.uk/camberley/london-rd", "image": "https://dynl.mktgcdn.com/p/McBd1z1vDSBOD2CNDcBDhVWh3MsQPfmrIDr8gZ_KEm0/619x408.jpg", "brand": "Homebase", "brand:wikidata": "Q9293447", "nsi_id": "homebase-0c42e1"}, "geometry": {"type": "Point", "coordinates": [-0.7731903999999999, 51.3331247]}},
{"type": "Feature", "id": "YZ5UVA_6DNNDsFtmbsgtZb-R8hE=", "properties": {"ref": "https://store.homebase.co.uk/#15167002", "@spider": "homebase", "shop": "doityourself", "addr:street_address": "Moreton Hall Estate Easlea Road", "addr:postcode": "IP32 7BY", "addr:country": "GB", "name": "Homebase Bury St. Edmunds", "phone": "0345 640 7612", "website": "https://store.homebase.co.uk/bury-saint-edmunds/moreton-hall-estate", "opening_hours": "Mo-Sa 09:00-18:00; Su 10:00-16:00", "image": "https://dynl.mktgcdn.com/p/twWOW6ihBAvfeu_u8_YK6EsqpItwfxEKiZExP5-v9vo/600x400.jpg", "brand": "Homebase", "brand:wikidata": "Q9293447", "nsi_id": "homebase-0c42e1"}, "geometry": {"type": "Point", "coordinates": [0.7416949207213293, 52.23873476648715]}},
{"type": "Feature", "id": "ZfhYp6MEfckgHBHNFBAE9OondlE=", "properties": {"ref": "https://store.homebase.co.uk/#15166836", "@spider": "homebase", "shop": "doityourself", "addr:street_address": "Brook Retail Park 2a Sherwood Road", "addr:postcode": "B60 3DR", "addr:country": "GB", "name": "Homebase Bromsgrove", "phone": "0345 640 7221", "website": "https://store.homebase.co.uk/bromsgrove/brook-retail-park", "opening_hours": "Mo-Sa 09:00-18:00; Su 10:00-16:00", "image": "https://dynl.mktgcdn.com/p/twWOW6ihBAvfeu_u8_YK6EsqpItwfxEKiZExP5-v9vo/600x400.jpg", "brand": "Homebase", "brand:wikidata": "Q9293447", "nsi_id": "homebase-0c42e1"}, "geometry": {"type": "Point", "coordinates": [-2.0581066608748415, 52.321729502536414]}},
{"type": "Feature", "id": "j94gNNB2LXTO6z4Zs9KMdpbYYdw=", "properties": {"ref": "https://store.homebase.co.uk/#15166883", "@spider": "homebase", "shop": "doityourself", "addr:street_address": "Westwood Gateway Retail Park Margate Road", "addr:postcode": "CT10 2PU", "addr:country": "GB", "name": "Homebase Broadstairs (including Bathstore)", "phone": "0345 640 7828", "website": "https://store.homebase.co.uk/broadstairs/westwood-gateway-retail-park", "opening_hours": "Mo-Sa 09:00-18:00; Su 10:00-16:00", "image": "https://dynl.mktgcdn.com/p/twWOW6ihBAvfeu_u8_YK6EsqpItwfxEKiZExP5-v9vo/600x400.jpg", "brand": "Homebase", "brand:wikidata": "Q9293447", "nsi_id": "homebase-0c42e1"}, "geometry": {"type": "Point", "coordinates": [1.393421, 51.36169]}},
{"type": "Feature", "id": "6w2ifG4XjIAp9xUjbL7GUWIbPSs=", "properties": {"ref": "https://store.homebase.co.uk/#15166908", "@spider": "homebase", "shop": "doityourself", "addr:street_address": "Wyndham Retail Park Wyndham Way", "addr:city": "Bristol Portishead", "addr:postcode": "BS20 8LR", "addr:country": "GB", "name": "Homebase Portishead", "phone": "0345 640 7815", "website": "https://store.homebase.co.uk/bristol/wyndham-retail-park", "opening_hours": "Mo-Sa 09:00-18:00; Su 10:00-16:00", "image": "https://dynl.mktgcdn.com/p/RJKoV7LI5QxTFraoya1oi1KdbntGkTM65u6B4b7zRO0/600x400.jpg", "brand": "Homebase", "brand:wikidata": "Q9293447", "nsi_id": "homebase-0c42e1"}, "geometry": {"type": "Point", "coordinates": [-2.7644249195222703, 51.48350109438177]}},
{"type": "Feature", "id": "1ERmhUh6d7VKwC7aiscOLt2R7zY=", "properties": {"ref": "https://store.homebase.co.uk/#23552216", "@spider": "homebase", "shop": "doityourself", "addr:street_address": "Unit 12a, Lysander Rd", "addr:city": "Bristol Patchway", "addr:postcode": "BS34 5UL", "addr:country": "GB", "name": "Garden by Homebase at Next - Bristol", "phone": "+443456407815", "website": "https://store.homebase.co.uk/bristol/unit-12a-lysander-rd", "image": "https://dynl.mktgcdn.com/p/McBd1z1vDSBOD2CNDcBDhVWh3MsQPfmrIDr8gZ_KEm0/619x408.jpg", "brand": "Homebase", "brand:wikidata": "Q9293447", "nsi_id": "homebase-0c42e1"}, "geometry": {"type": "Point", "coordinates": [-2.6014174850803053, 51.52499820886344]}},
{"type": "Feature", "id": "JwjBa7vkwQ5CuPMdHUOIlews6HU=", "properties": {"ref": "https://store.homebase.co.uk/#15166827", "@spider": "homebase", "shop": "doityourself", "addr:street_address": "Unit 1, Bridgend Retail Park Cowbridge Rd", "addr:postcode": "CF31 3XX", "addr:country": "GB", "name": "Homebase Bridgend", "phone": "0345 640 7477", "website": "https://store.homebase.co.uk/bridgend/unit-1-bridgend-retail-park", "opening_hours": "Mo-Sa 09:00-18:00; Su 10:00-16:00", "image": "https://dynl.mktgcdn.com/p/twWOW6ihBAvfeu_u8_YK6EsqpItwfxEKiZExP5-v9vo/600x400.jpg", "brand": "Homebase", "brand:wikidata": "Q9293447", "nsi_id": "homebase-0c42e1"}, "geometry": {"type": "Point", "coordinates": [-3.5671247, 51.4962522]}},
{"type": "Feature", "id": "ZWY8hm7Y3UQbmolWwuaPHo_kRa4=", "properties": {"ref": "https://store.homebase.co.uk/#27625924", "@spider": "homebase", "shop": "doityourself", "addr:street_address": "Unit 4, Enterprise 5 Retail Park 275 Bradford Road", "addr:city": "Bradford Idle", "addr:postcode": "BD10 8EG", "addr:country": "GB", "name": "Homebase Bradford", "phone": "0345 640 7046", "website": "https://store.homebase.co.uk/bradford/unit-4-enterprise-5-retail-park", "opening_hours": "Mo-Fr 09:00-19:00; Sa 09:00-18:00; Su 10:00-16:00", "image": "https://dynl.mktgcdn.com/p/RJKoV7LI5QxTFraoya1oi1KdbntGkTM65u6B4b7zRO0/600x400.jpg", "brand": "Homebase", "brand:wikidata": "Q9293447", "nsi_id": "homebase-0c42e1"}, "geometry": {"type": "Point", "coordinates": [-1.734473247593562, 53.8246510338734]}},
{"type": "Feature", "id": "Tx2J5kmACIG9J7MsFiBl89Qe7YA=", "properties": {"ref": "https://store.homebase.co.uk/#15166902", "@spider": "homebase", "shop": "doityourself", "addr:street_address": "Wokingham Rd", "addr:postcode": "RG42 1NB", "addr:country": "GB", "name": "Homebase Bracknell", "phone": "0345 640 7497", "website": "https://store.homebase.co.uk/bracknell/wokingham-rd", "opening_hours": "Mo-Sa 09:00-19:00; Su 10:00-16:00", "image": "https://dynl.mktgcdn.com/p/RJKoV7LI5QxTFraoya1oi1KdbntGkTM65u6B4b7zRO0/600x400.jpg", "brand": "Homebase", "brand:wikidata": "Q9293447", "nsi_id": "homebase-0c42e1"}, "geometry": {"type": "Point", "coordinates": [-0.763004, 51.417898]}},
{"type": "Feature", "id": "st2VG4mmyssogT8YShYjxu9GZ28=", "properties": {"ref": "https://store.homebase.co.uk/#30751718", "@spider": "homebase", "shop": "doityourself", "addr:street_address": "Shenley Rd", "addr:postcode": "WD6 1JG", "addr:country": "GB", "name": "Homebase Borehamwood (inside Tesco Extra)", "phone": "0345 640 7296", "website": "https://store.homebase.co.uk/borehamwood/shenley-rd", "opening_hours": "Mo-We 09:00-19:00; Th-Fr 09:00-20:00; Sa 09:00-19:00; Su 10:00-16:00", "image": "https://dynl.mktgcdn.com/p/5eB6YsrNxyzwLC_2iBTR5VhZ_6R-ymcxonGKbMUqt-0/600x441.jpg", "brand": "Homebase", "brand:wikidata": "Q9293447", "nsi_id": "homebase-0c42e1"}, "geometry": {"type": "Point", "coordinates": [-0.2694861949676497, 51.655694881772845]}},
{"type": "Feature", "id": "smaR40YkFd9t5SehtL3ySIKW8eU=", "properties": {"ref": "https://store.homebase.co.uk/#15166999", "@spider": "homebase", "shop": "doityourself", "addr:street_address": "Bodmin Retail Park Launceston Road", "addr:postcode": "PL31 2AP", "addr:country": "GB", "name": "Homebase Bodmin", "phone": "0345 640 7856", "website": "https://store.homebase.co.uk/bodmin/bodmin-retail-park", "opening_hours": "Mo-Sa 09:00-18:00; Su 10:00-16:00", "image": "https://dynl.mktgcdn.com/p/RJKoV7LI5QxTFraoya1oi1KdbntGkTM65u6B4b7zRO0/600x400.jpg", "brand": "Homebase", "brand:wikidata": "Q9293447", "nsi_id": "homebase-0c42e1"}, "geometry": {"type": "Point", "coordinates": [-4.7038177045340035, 50.47045888372279]}},
{"type": "Feature", "id": "kz-tTb8G2OwQ3vIt6a8L26RS0sE=", "properties": {"ref": "https://store.homebase.co.uk/#15166870", "@spider": "homebase", "shop": "doityourself", "addr:street_address": "Blyth Valley Retail Park Cowpen Road", "addr:postcode": "NE24 5TP", "addr:country": "GB", "name": "Homebase Blyth", "phone": "0345 640 7837", "website": "https://store.homebase.co.uk/blyth/blyth-valley-retail-park", "opening_hours": "Mo-Sa 09:00-18:00; Su 10:00-16:00", "image": "https://dynl.mktgcdn.com/p/RJKoV7LI5QxTFraoya1oi1KdbntGkTM65u6B4b7zRO0/600x400.jpg", "brand": "Homebase", "brand:wikidata": "Q9293447", "nsi_id": "homebase-0c42e1"}, "geometry": {"type": "Point", "coordinates": [-1.5345483, 55.1315529]}},
{"type": "Feature", "id": "zxFvUZbDutBOwQQTsB0rM0mB0OU=", "properties": {"ref": "https://store.homebase.co.uk/#15166806", "@spider": "homebase", "shop": "doityourself", "addr:street_address": "Elgar Retail Park Blackpole Road", "addr:postcode": "WR3 8HP", "addr:country": "GB", "name": "Homebase Worcester Blackpole", "phone": "0345 640 7352", "website": "https://store.homebase.co.uk/worcester/elgar-retail-park", "opening_hours": "Mo-Sa 09:00-19:00; Su 10:00-16:00", "image": "https://dynl.mktgcdn.com/p/twWOW6ihBAvfeu_u8_YK6EsqpItwfxEKiZExP5-v9vo/600x400.jpg", "brand": "Homebase", "brand:wikidata": "Q9293447", "nsi_id": "homebase-0c42e1"}, "geometry": {"type": "Point", "coordinates": [-2.2005777, 52.2113396]}},
{"type": "Feature", "id": "H2Wj-x0vHCYcbjP1mIjcSfdI9C8=", "properties": {"ref": "https://store.homebase.co.uk/#30751957", "@spider": "homebase", "shop": "doityourself", "addr:street_address": "Grand Depot Rd", "addr:postcode": "SE18 6HQ", "addr:country": "GB", "name": "Homebase Woolwich (inside Tesco Extra)", "phone": "0345 640 7295", "website": "https://store.homebase.co.uk/woolwich/grand-depot-rd", "opening_hours": "Mo-We 09:00-19:00; Th-Fr 09:00-20:00; Sa 09:00-19:00; Su 11:00-17:00", "image": "https://dynl.mktgcdn.com/p/5eB6YsrNxyzwLC_2iBTR5VhZ_6R-ymcxonGKbMUqt-0/600x441.jpg", "brand": "Homebase", "brand:wikidata": "Q9293447", "nsi_id": "homebase-0c42e1"}, "geometry": {"type": "Point", "coordinates": [0.06625478221371939, 51.48911092504384]}},
{"type": "Feature", "id": "eebbDu_iZQDDrdYJ7MqZl8g8i44=", "properties": {"ref": "https://store.homebase.co.uk/#15166837", "@spider": "homebase", "shop": "doityourself", "addr:street_address": "Unit A St. Johns Retail Park Church Ln", "addr:postcode": "WV2 4SJ", "addr:country": "GB", "name": "Homebase Wolverhampton", "phone": "0345 640 7103", "website": "https://store.homebase.co.uk/wolverhampton/unit-a-st.-johns-retail-park", "opening_hours": "Mo-Sa 09:00-18:00; Su 10:00-16:00", "image": "https://dynl.mktgcdn.com/p/RJKoV7LI5QxTFraoya1oi1KdbntGkTM65u6B4b7zRO0/600x400.jpg", "brand": "Homebase", "brand:wikidata": "Q9293447", "nsi_id": "homebase-0c42e1"}, "geometry": {"type": "Point", "coordinates": [-2.1263780865303827, 52.58018278133304]}},
{"type": "Feature", "id": "YWcDAoZVjSASzyN2Zef3pq3DHkE=", "properties": {"ref": "https://store.homebase.co.uk/#15166974", "@spider": "homebase", "shop": "doityourself", "addr:street_address": "Redding Way Knaphill", "addr:postcode": "GU21 2QT", "addr:country": "GB", "name": "Homebase Woking", "phone": "0345 640 7084", "website": "https://store.homebase.co.uk/woking/redding-way", "opening_hours": "Mo-Sa 09:00-18:00; Su 10:00-16:00", "image": "https://dynl.mktgcdn.com/p/RJKoV7LI5QxTFraoya1oi1KdbntGkTM65u6B4b7zRO0/600x400.jpg", "brand": "Homebase", "brand:wikidata": "Q9293447", "nsi_id": "homebase-0c42e1"}, "geometry": {"type": "Point", "coordinates": [-0.6246000171965989, 51.31221912297623]}},
{"type": "Feature", "id": "v-NAJY-gDronoCN527sK_YWIb74=", "properties": {"ref": "https://store.homebase.co.uk/#15166857", "@spider": "homebase", "shop": "doityourself", "addr:street_address": "Upton By-Pass", "addr:postcode": "CH49 6QG", "addr:country": "GB", "name": "Homebase Upton", "phone": "0345 640 7054", "website": "https://store.homebase.co.uk/wirral/upton-by-pass", "opening_hours": "Mo-Sa 09:00-19:00; Su 10:00-16:00", "image": "https://dynl.mktgcdn.com/p/twWOW6ihBAvfeu_u8_YK6EsqpItwfxEKiZExP5-v9vo/600x400.jpg", "brand": "Homebase", "brand:wikidata": "Q9293447", "nsi_id": "homebase-0c42e1"}, "geometry": {"type": "Point", "coordinates": [-3.1022182694567846, 53.37945536517159]}},
{"type": "Feature", "id": "cpMXmIAPmKuHtv7n4BzviUpDvdM=", "properties": {"ref": "https://store.homebase.co.uk/#15166833", "@spider": "homebase", "shop": "doityourself", "addr:street_address": "Easton Lane Winnall", "addr:postcode": "SO23 7UD", "addr:country": "GB", "name": "Homebase Winchester", "phone": "0345 640 7107", "website": "https://store.homebase.co.uk/winchester/easton-lane", "opening_hours": "Mo-Sa 09:00-18:00; Su 10:00-16:00", "image": "https://dynl.mktgcdn.com/p/twWOW6ihBAvfeu_u8_YK6EsqpItwfxEKiZExP5-v9vo/600x400.jpg", "brand": "Homebase", "brand:wikidata": "Q9293447", "nsi_id": "homebase-0c42e1"}, "geometry": {"type": "Point", "coordinates": [-1.2948517, 51.0716927]}},
{"type": "Feature", "id": "aEIQlIsaudKRyPPs7c-cYDqMXmQ=", "properties": {"ref": "https://store.homebase.co.uk/#15166777", "@spider": "homebase", "shop": "doityourself", "addr:street_address": "Unit 3, Farronshoneen, Outer Ring Road", "addr:country": "GB", "name": "Homebase Waterford", "phone": "(051) 844 006", "website": "https://store.homebase.co.uk/waterford/unit-3-farronshoneen-outer-ring-road", "opening_hours": "Mo-Sa 09:00-18:00; Su 10:00-18:00", "image": "https://dynl.mktgcdn.com/p/twWOW6ihBAvfeu_u8_YK6EsqpItwfxEKiZExP5-v9vo/600x400.jpg", "brand": "Homebase", "brand:wikidata": "Q9293447", "nsi_id": "homebase-0c42e1"}, "geometry": {"type": "Point", "coordinates": [-7.084512618385361, 52.24383297761833]}},
{"type": "Feature", "id": "vDWwY9GSKBF_lOL1feqwTGUwGWE=", "properties": {"ref": "https://store.homebase.co.uk/#23552213", "@spider": "homebase", "shop": "doityourself", "addr:street_address": "Gemini Retail Park, 810 Europa Blvd", "addr:city": "Warrington Westbrook", "addr:postcode": "WA5 7TY", "addr:country": "GB", "name": "Garden by Homebase at Next - Warrington", "phone": "+443456407117", "website": "https://store.homebase.co.uk/warrington/gemini-retail-park-810-europa-blvd", "image": "https://dynl.mktgcdn.com/p/McBd1z1vDSBOD2CNDcBDhVWh3MsQPfmrIDr8gZ_KEm0/619x408.jpg", "brand": "Homebase", "brand:wikidata": "Q9293447", "nsi_id": "homebase-0c42e1"}, "geometry": {"type": "Point", "coordinates": [-2.628333681670465, 53.415494313084416]}},
{"type": "Feature", "id": "xD5OCzvEfSdzBAFWQqbnVAZapPE=", "properties": {"ref": "https://store.homebase.co.uk/#15166854", "@spider": "homebase", "shop": "doityourself", "addr:street_address": "Auckland House New Zealand Avenue", "addr:postcode": "KT12 1PL", "addr:country": "GB", "name": "Homebase Walton-On-Thames", "phone": "0345 640 7067", "website": "https://store.homebase.co.uk/walton-on-thames/auckland-house", "opening_hours": "Mo-Sa 09:00-18:00; Su 10:00-16:00", "image": "https://dynl.mktgcdn.com/p/hJxjh_4PpyokwUV6eyTEs8IXu3K7CM6Eg6xSu6mny4s/1980x1320.jpg", "brand": "Homebase", "brand:wikidata": "Q9293447", "nsi_id": "homebase-0c42e1"}, "geometry": {"type": "Point", "coordinates": [-0.4184768203460676, 51.38407916265352]}},
{"type": "Feature", "id": "7HuNIKEgKSgla0jolQvr52CYQwE=", "properties": {"ref": "https://store.homebase.co.uk/#15166901", "@spider": "homebase", "shop": "doityourself", "addr:street_address": "Sturlas Way", "addr:postcode": "EN8 7BF", "addr:country": "GB", "name": "Homebase Waltham Cross", "phone": "0345 640 7035", "website": "https://store.homebase.co.uk/waltham-cross/sturlas-way", "opening_hours": "Mo-Sa 09:00-18:00; Su 10:00-16:00", "image": "https://dynl.mktgcdn.com/p/twWOW6ihBAvfeu_u8_YK6EsqpItwfxEKiZExP5-v9vo/600x400.jpg", "brand": "Homebase", "brand:wikidata": "Q9293447", "nsi_id": "homebase-0c42e1"}, "geometry": {"type": "Point", "coordinates": [-0.035335883031507365, 51.68874411126006]}},
{"type": "Feature", "id": "lBWUE8wrL0rZeVbqsIwth0WEIj0=", "properties": {"ref": "https://store.homebase.co.uk/#30750237", "@spider": "homebase", "shop": "doityourself", "addr:street_address": "Silverlink Retail Park Osprey Drive Unit 1 The Silverlink", "addr:city": "Wallsend North Shields", "addr:postcode": "NE28 9ND", "addr:country": "GB", "name": "Garden by Homebase at Next - Wallsend", "phone": "+443456407219", "website": "https://store.homebase.co.uk/wallsend/silverlink-retail-park", "image": "https://dynl.mktgcdn.com/p/McBd1z1vDSBOD2CNDcBDhVWh3MsQPfmrIDr8gZ_KEm0/619x408.jpg", "brand": "Homebase", "brand:wikidata": "Q9293447", "nsi_id": "homebase-0c42e1"}, "geometry": {"type": "Point", "coordinates": [-1.4956834956802556, 55.011129966944985]}},
{"type": "Feature", "id": "IDszdEQMXbB-FsrziX22wuos4IQ=", "properties": {"ref": "https://store.homebase.co.uk/#15167011", "@spider": "homebase", "shop": "doityourself", "addr:street_address": "Unit 1A Linden Park Road", "addr:postcode": "TN2 5QL", "addr:country": "GB", "name": "Homebase Tunbridge Wells West Station", "phone": "0345 640 7071", "website": "https://store.homebase.co.uk/tunbridge-wells/unit-1a", "opening_hours": "Mo-Sa 09:00-18:00; Su 10:00-16:00", "image": "https://dynl.mktgcdn.com/p/twWOW6ihBAvfeu_u8_YK6EsqpItwfxEKiZExP5-v9vo/600x400.jpg", "brand": "Homebase", "brand:wikidata": "Q9293447", "nsi_id": "homebase-0c42e1"}, "geometry": {"type": "Point", "coordinates": [0.2523446, 51.1230017]}},
{"type": "Feature", "id": "ZsTEVMBLoC91RtedEy2U3uBsDNI=", "properties": {"ref": "https://store.homebase.co.uk/#15166963", "@spider": "homebase", "shop": "doityourself", "addr:street_address": "Treliske Industrial Estate Oak Lane", "addr:postcode": "TR1 3LN", "addr:country": "GB", "name": "Homebase Truro", "phone": "0345 640 7123", "website": "https://store.homebase.co.uk/truro/treliske-industrial-estate", "opening_hours": "Mo-Sa 09:00-18:00; Su 10:00-16:00", "image": "https://dynl.mktgcdn.com/p/twWOW6ihBAvfeu_u8_YK6EsqpItwfxEKiZExP5-v9vo/600x400.jpg", "brand": "Homebase", "brand:wikidata": "Q9293447", "nsi_id": "homebase-0c42e1"}, "geometry": {"type": "Point", "coordinates": [-5.095523825632654, 50.26530493934892]}},
{"type": "Feature", "id": "-kOHrsKwInR0iCg3uuEd0OdtQeM=", "properties": {"ref": "https://store.homebase.co.uk/#15166807", "@spider": "homebase", "shop": "doityourself", "addr:street_address": "Lowman Way", "addr:postcode": "EX16 6SR", "addr:country": "GB", "name": "Homebase Tiverton", "phone": "0345 640 7226", "website": "https://store.homebase.co.uk/tiverton/lowman-way", "opening_hours": "Mo-Sa 09:00-18:00; Su 10:00-16:00", "image": "https://dynl.mktgcdn.com/p/twWOW6ihBAvfeu_u8_YK6EsqpItwfxEKiZExP5-v9vo/600x400.jpg", "brand": "Homebase", "brand:wikidata": "Q9293447", "nsi_id": "homebase-0c42e1"}, "geometry": {"type": "Point", "coordinates": [-3.4668896495875288, 50.91157131089346]}},
{"type": "Feature", "id": "jIoMNlzkv5tSIH9QkxlWIzE2X3I=", "properties": {"ref": "https://store.homebase.co.uk/#15166879", "@spider": "homebase", "shop": "doityourself", "addr:street_address": "Wrekin Retail Park Arleston", "addr:postcode": "TF1 2DE", "addr:country": "GB", "name": "Homebase Telford", "phone": "0345 640 7147", "website": "https://store.homebase.co.uk/telford/wrekin-retail-park", "opening_hours": "Mo-Sa 09:00-18:00; Su 10:00-16:00", "image": "https://dynl.mktgcdn.com/p/twWOW6ihBAvfeu_u8_YK6EsqpItwfxEKiZExP5-v9vo/600x400.jpg", "brand": "Homebase", "brand:wikidata": "Q9293447", "nsi_id": "homebase-0c42e1"}, "geometry": {"type": "Point", "coordinates": [-2.492873288360556, 52.690348203172846]}},
{"type": "Feature", "id": "P1I79XkpjWJtvNKvdAjQpqErRmk=", "properties": {"ref": "https://store.homebase.co.uk/#16033537", "@spider": "homebase", "shop": "doityourself", "addr:street_address": "66-72 Grove Road", "addr:postcode": "SM1 1BT", "addr:country": "GB", "name": "Decorate by Homebase -  Sutton", "phone": "020 3478 1622", "website": "https://store.homebase.co.uk/sutton/66-72-grove-road", "image": "https://dynl.mktgcdn.com/p/Q4oYGGScGDuGkVZSXVKZ-jTDdSLSmQO3yQEp_lDXBVI/1980x1320.jpg", "brand": "Homebase", "brand:wikidata": "Q9293447", "nsi_id": "homebase-0c42e1"}, "geometry": {"type": "Point", "coordinates": [-0.1944623, 51.3600567]}},
{"type": "Feature", "id": "RjLer1gdlaaXlfMM7aQ_xvTwhKQ=", "properties": {"ref": "https://store.homebase.co.uk/#15166947", "@spider": "homebase", "shop": "doityourself", "addr:street_address": "Waldingfield Road", "addr:postcode": "CO10 2YH", "addr:country": "GB", "name": "Homebase Sudbury", "phone": "0345 640 7128", "website": "https://store.homebase.co.uk/sudbury-suffolk/waldingfield-road", "opening_hours": "Mo-Sa 09:00-18:00; Su 10:00-16:00", "image": "https://dynl.mktgcdn.com/p/twWOW6ihBAvfeu_u8_YK6EsqpItwfxEKiZExP5-v9vo/600x400.jpg", "brand": "Homebase", "brand:wikidata": "Q9293447", "nsi_id": "homebase-0c42e1"}, "geometry": {"type": "Point", "coordinates": [0.7467396122165155, 52.047648097874834]}},
{"type": "Feature", "id": "bznsjJB0Ym6WwQX0wHWQ9SJPCV0=", "properties": {"ref": "https://store.homebase.co.uk/#15166911", "@spider": "homebase", "shop": "doityourself", "addr:street_address": "Cainscross Road", "addr:postcode": "GL5 4EX", "addr:country": "GB", "name": "Homebase Stroud", "phone": "0345 640 7257", "website": "https://store.homebase.co.uk/stroud/cainscross-road", "opening_hours": "Mo-Sa 09:00-18:00; Su 10:00-16:00", "image": "https://dynl.mktgcdn.com/p/twWOW6ihBAvfeu_u8_YK6EsqpItwfxEKiZExP5-v9vo/600x400.jpg", "brand": "Homebase", "brand:wikidata": "Q9293447", "nsi_id": "homebase-0c42e1"}, "geometry": {"type": "Point", "coordinates": [-2.2254712, 51.7445595]}},
{"type": "Feature", "id": "1K0T2iTfI5H-7gy8Rivk5nOt4Cw=", "properties": {"ref": "https://store.homebase.co.uk/#15166917", "@spider": "homebase", "shop": "doityourself", "addr:street_address": "Stockport Road East Bredbury", "addr:postcode": "SK6 2BN", "addr:country": "GB", "name": "Homebase Bredbury", "phone": "0345 640 7814", "website": "https://store.homebase.co.uk/stockport/stockport-road-east", "opening_hours": "Mo-Sa 09:00-18:00; Su 10:00-16:00", "image": "https://dynl.mktgcdn.com/p/twWOW6ihBAvfeu_u8_YK6EsqpItwfxEKiZExP5-v9vo/600x400.jpg", "brand": "Homebase", "brand:wikidata": "Q9293447", "nsi_id": "homebase-0c42e1"}, "geometry": {"type": "Point", "coordinates": [-2.1175936310959664, 53.42303216001016]}},
{"type": "Feature", "id": "9PqkZ2TVUkPUVpUzFjTcaiQDO20=", "properties": {"ref": "https://store.homebase.co.uk/#15166923", "@spider": "homebase", "shop": "doityourself", "addr:street_address": "Unit 2, Stamford Business Park Ryhall Road", "addr:postcode": "PE9 1XT", "addr:country": "GB", "name": "Homebase Stamford", "phone": "0345 640 7253", "website": "https://store.homebase.co.uk/stamford/unit-2-stamford-business-park", "opening_hours": "Mo-Sa 09:00-18:00; Su 10:00-16:00", "image": "https://dynl.mktgcdn.com/p/twWOW6ihBAvfeu_u8_YK6EsqpItwfxEKiZExP5-v9vo/600x400.jpg", "brand": "Homebase", "brand:wikidata": "Q9293447", "nsi_id": "homebase-0c42e1"}, "geometry": {"type": "Point", "coordinates": [-0.4653909, 52.6577454]}},
{"type": "Feature", "id": "wFK5uW1QguDHddKe0WNrIE4xdY0=", "properties": {"ref": "https://store.homebase.co.uk/#15166985", "@spider": "homebase", "shop": "doityourself", "addr:street_address": "The Causeway", "addr:postcode": "TW18 3AP", "addr:country": "GB", "name": "Homebase Staines", "phone": "0345 640 7069", "website": "https://store.homebase.co.uk/staines/the-causeway", "opening_hours": "Mo-Sa 09:00-19:00; Su 10:00-16:00", "image": "https://dynl.mktgcdn.com/p/twWOW6ihBAvfeu_u8_YK6EsqpItwfxEKiZExP5-v9vo/600x400.jpg", "brand": "Homebase", "brand:wikidata": "Q9293447", "nsi_id": "homebase-0c42e1"}, "geometry": {"type": "Point", "coordinates": [-0.522191, 51.434263]}},
{"type": "Feature", "id": "fKQf8NYshm6ZzQoMAb2CJwfmJfk=", "properties": {"ref": "https://store.homebase.co.uk/#30749229", "@spider": "homebase", "shop": "doityourself", "addr:street_address": "Wildern Mill Charles Watts Way", "addr:city": "Southampton Hedge End", "addr:postcode": "SO30 4RT", "addr:country": "GB", "name": "Garden by Homebase at Next - Southampton", "phone": "+443456407547", "website": "https://store.homebase.co.uk/southampton/wildern-mill", "image": "https://dynl.mktgcdn.com/p/McBd1z1vDSBOD2CNDcBDhVWh3MsQPfmrIDr8gZ_KEm0/619x408.jpg", "brand": "Homebase", "brand:wikidata": "Q9293447", "nsi_id": "homebase-0c42e1"}, "geometry": {"type": "Point", "coordinates": [-1.3130348552969173, 50.916707520359026]}},
{"type": "Feature", "id": "Gj2hGdLMQ5lkSjZVLJ_j20s11YE=", "properties": {"ref": "https://store.homebase.co.uk/#30750226", "@spider": "homebase", "shop": "doityourself", "addr:street_address": "131 Marshall Lake Rd Shirley Street", "addr:postcode": "B90 4RB", "addr:country": "GB", "name": "Garden by Homebase at Next - Solihull", "phone": "+443456407630", "website": "https://store.homebase.co.uk/solihull/131-marshall-lake-rd", "image": "https://dynl.mktgcdn.com/p/McBd1z1vDSBOD2CNDcBDhVWh3MsQPfmrIDr8gZ_KEm0/619x408.jpg", "brand": "Homebase", "brand:wikidata": "Q9293447", "nsi_id": "homebase-0c42e1"}, "geometry": {"type": "Point", "coordinates": [-1.8143737786136938, 52.401853459678264]}},
{"type": "Feature", "id": "bZPQvpvNyFJVXiy8XywsscFTpPM=", "properties": {"ref": "https://store.homebase.co.uk/#15166784", "@spider": "homebase", "shop": "doityourself", "addr:street_address": "Unit 7, Sligo Retail Park Carraroe", "addr:country": "GB", "name": "Homebase Sligo", "phone": "(071) 911 3127", "website": "https://store.homebase.co.uk/sligo/unit-7-sligo-retail-park", "opening_hours": "Mo-Sa 09:00-19:00; Su 10:00-18:00", "image": "https://dynl.mktgcdn.com/p/twWOW6ihBAvfeu_u8_YK6EsqpItwfxEKiZExP5-v9vo/600x400.jpg", "brand": "Homebase", "brand:wikidata": "Q9293447", "nsi_id": "homebase-0c42e1"}, "geometry": {"type": "Point", "coordinates": [-8.469880918106647, 54.25011389032982]}},
{"type": "Feature", "id": "oZS1rErIl8-WqxprPmmZgHFWv2w=", "properties": {"ref": "https://store.homebase.co.uk/#15166967", "@spider": "homebase", "shop": "doityourself", "addr:street_address": "Shorehan Rd Northgate", "addr:postcode": "NG34 7AQ", "addr:country": "GB", "name": "Homebase Sleaford", "phone": "0345 640 7627", "website": "https://store.homebase.co.uk/sleaford/shorehan-rd", "opening_hours": "Mo-Sa 09:00-18:00; Su 10:00-16:00", "image": "https://dynl.mktgcdn.com/p/twWOW6ihBAvfeu_u8_YK6EsqpItwfxEKiZExP5-v9vo/600x400.jpg", "brand": "Homebase", "brand:wikidata": "Q9293447", "nsi_id": "homebase-0c42e1"}, "geometry": {"type": "Point", "coordinates": [-0.412915, 53.005231]}},
{"type": "Feature", "id": "_sdy9s23Jiju1NJkWy30AZ0DVec=", "properties": {"ref": "https://store.homebase.co.uk/#15166866", "@spider": "homebase", "shop": "doityourself", "addr:street_address": "Sittingbourne Retail Park Mill Way", "addr:postcode": "ME10 3ET", "addr:country": "GB", "name": "Homebase Sittingbourne", "phone": "0345 640 7178", "website": "https://store.homebase.co.uk/sittingbourne/sittingbourne-retail-park", "opening_hours": "Mo-Sa 09:00-18:00; Su 10:00-16:00", "image": "https://dynl.mktgcdn.com/p/twWOW6ihBAvfeu_u8_YK6EsqpItwfxEKiZExP5-v9vo/600x400.jpg", "brand": "Homebase", "brand:wikidata": "Q9293447", "nsi_id": "homebase-0c42e1"}, "geometry": {"type": "Point", "coordinates": [0.7353029, 51.3439297]}},
{"type": "Feature", "id": "nEcaXjr030xUtNEcP5Bts2CghuE=", "properties": {"ref": "https://store.homebase.co.uk/#23550356", "@spider": "homebase", "shop": "doityourself", "addr:street_address": "Unit L12, Kingston Broadway, Holmbush Centre", "addr:postcode": "BN43 6TE", "addr:country": "GB", "name": "Garden by Homebase at Next - Shoreham-by-Sea", "phone": "+443456407076", "website": "https://store.homebase.co.uk/shoreham-by-sea/unit-l12-kingston-broadway-holmbush-centre", "image": "https://dynl.mktgcdn.com/p/McBd1z1vDSBOD2CNDcBDhVWh3MsQPfmrIDr8gZ_KEm0/619x408.jpg", "brand": "Homebase", "brand:wikidata": "Q9293447", "nsi_id": "homebase-0c42e1"}, "geometry": {"type": "Point", "coordinates": [-0.24695149814800127, 50.84247551082599]}},
{"type": "Feature", "id": "a-B7uvpFyUmtLJASkh69WDB6aS8=", "properties": {"ref": "https://store.homebase.co.uk/#23552217", "@spider": "homebase", "shop": "doityourself", "addr:street_address": "Vulcan Rd", "addr:city": "Sheffield Tinsley", "addr:postcode": "S9 2YL", "addr:country": "GB", "name": "Garden by Homebase at Next - Sheffield", "phone": "+443456407839", "website": "https://store.homebase.co.uk/sheffield/vulcan-rd", "image": "https://dynl.mktgcdn.com/p/McBd1z1vDSBOD2CNDcBDhVWh3MsQPfmrIDr8gZ_KEm0/619x408.jpg", "brand": "Homebase", "brand:wikidata": "Q9293447", "nsi_id": "homebase-0c42e1"}, "geometry": {"type": "Point", "coordinates": [-1.40744135402737, 53.41081590404147]}},
{"type": "Feature", "id": "cR9vMq-UK_vBOCuzOA1PWyJyx18=", "properties": {"ref": "https://store.homebase.co.uk/#15166996", "@spider": "homebase", "shop": "doityourself", "addr:street_address": "401 Chesterfield Rd", "addr:postcode": "S8 0RW", "addr:country": "GB", "name": "Homebase Sheffield Chesterfield Road", "phone": "0345 640 7070", "website": "https://store.homebase.co.uk/sheffield/401-chesterfield-rd", "opening_hours": "Mo-Sa 09:00-18:00; Su 10:00-16:00", "image": "https://dynl.mktgcdn.com/p/RJKoV7LI5QxTFraoya1oi1KdbntGkTM65u6B4b7zRO0/600x400.jpg", "brand": "Homebase", "brand:wikidata": "Q9293447", "nsi_id": "homebase-0c42e1"}, "geometry": {"type": "Point", "coordinates": [-1.4801358, 53.3500942]}},
{"type": "Feature", "id": "XUyx13BJP7aYNveR5P2FK4kJhEA=", "properties": {"ref": "https://store.homebase.co.uk/#15166867", "@spider": "homebase", "shop": "doityourself", "addr:street_address": "12, Drakehouse Retail Park Drake House Way, Waterthorpe", "addr:postcode": "S20 7JJ", "addr:country": "GB", "name": "Homebase Sheffield Drakehouse", "phone": "0345 640 7839", "website": "https://store.homebase.co.uk/sheffield/12-drakehouse-retail-park", "opening_hours": "Mo-Fr 09:00-19:00; Sa 09:00-18:00; Su 10:00-16:00", "image": "https://dynl.mktgcdn.com/p/RJKoV7LI5QxTFraoya1oi1KdbntGkTM65u6B4b7zRO0/600x400.jpg", "brand": "Homebase", "brand:wikidata": "Q9293447", "nsi_id": "homebase-0c42e1"}, "geometry": {"type": "Point", "coordinates": [-1.3559757, 53.3449885]}},
{"type": "Feature", "id": "I0ON07-NjSeSK2v4DuZIjxDT8oE=", "properties": {"ref": "https://store.homebase.co.uk/#15166810", "@spider": "homebase", "shop": "doityourself", "addr:street_address": "Sevenoaks Retail Park Old Otford Road", "addr:postcode": "TN14 5EW", "addr:country": "GB", "name": "Homebase Sevenoaks", "phone": "0345 640 7119", "website": "https://store.homebase.co.uk/sevenoaks/sevenoaks-retail-park", "opening_hours": "Mo-Sa 09:00-18:00; Su 10:00-16:00", "image": "https://dynl.mktgcdn.com/p/twWOW6ihBAvfeu_u8_YK6EsqpItwfxEKiZExP5-v9vo/600x400.jpg", "brand": "Homebase", "brand:wikidata": "Q9293447", "nsi_id": "homebase-0c42e1"}, "geometry": {"type": "Point", "coordinates": [0.193941, 51.298368]}},
{"type": "Feature", "id": "Y5EwNLCrbZkOSoh8D3FRj6agdl4=", "properties": {"ref": "https://store.homebase.co.uk/#15166881", "@spider": "homebase", "shop": "doityourself", "addr:street_address": "Three Lakes Retail Park Bawtry Road", "addr:postcode": "YO8 8ZY", "addr:country": "GB", "name": "Homebase Selby", "phone": "0345 640 7263", "website": "https://store.homebase.co.uk/selby/three-lakes-retail-park", "opening_hours": "Mo-Sa 09:00-18:00; Su 10:00-16:00", "image": "https://dynl.mktgcdn.com/p/twWOW6ihBAvfeu_u8_YK6EsqpItwfxEKiZExP5-v9vo/600x400.jpg", "brand": "Homebase", "brand:wikidata": "Q9293447", "nsi_id": "homebase-0c42e1"}, "geometry": {"type": "Point", "coordinates": [-1.066545, 53.77255]}},
{"type": "Feature", "id": "QN3rPU5rSZD6Uw8ufu74BhNV7kE=", "properties": {"ref": "https://store.homebase.co.uk/#15166790", "@spider": "homebase", "shop": "doityourself", "addr:street_address": "Elizabeth Way Ashdon Road", "addr:postcode": "CB10 2BL", "addr:country": "GB", "name": "Homebase Saffron Walden", "phone": "0345 640 7643", "website": "https://store.homebase.co.uk/saffron-walden/elizabeth-way", "opening_hours": "Mo-Sa 09:00-18:00; Su 10:00-16:00", "image": "https://dynl.mktgcdn.com/p/twWOW6ihBAvfeu_u8_YK6EsqpItwfxEKiZExP5-v9vo/600x400.jpg", "brand": "Homebase", "brand:wikidata": "Q9293447", "nsi_id": "homebase-0c42e1"}, "geometry": {"type": "Point", "coordinates": [0.2564069, 52.0255844]}},
{"type": "Feature", "id": "DKvbSFlKqXhNATNsAne9AsW68fY=", "properties": {"ref": "https://store.homebase.co.uk/#15166955", "@spider": "homebase", "shop": "doityourself", "addr:street_address": "1, Victoria Retail Park Crown Road", "addr:postcode": "HA4 0AJ", "addr:country": "GB", "name": "Homebase Ruislip", "phone": "0345 640 7093", "website": "https://store.homebase.co.uk/ruislip/1-victoria-retail-park", "opening_hours": "Mo-Sa 09:00-19:00; Su 10:00-16:00", "image": "https://dynl.mktgcdn.com/p/twWOW6ihBAvfeu_u8_YK6EsqpItwfxEKiZExP5-v9vo/600x400.jpg", "brand": "Homebase", "brand:wikidata": "Q9293447", "nsi_id": "homebase-0c42e1"}, "geometry": {"type": "Point", "coordinates": [-0.3879902744848778, 51.556092794185744]}},
{"type": "Feature", "id": "RTem7teia6VVaY_B-bcdnV1lITo=", "properties": {"ref": "https://store.homebase.co.uk/#15166834", "@spider": "homebase", "shop": "doityourself", "addr:street_address": "Unit 4, Technology Retail Park Technology Drive", "addr:postcode": "CV21 1GN", "addr:country": "GB", "name": "Homebase Rugby", "phone": "0345 640 7896", "website": "https://store.homebase.co.uk/rugby/unit-4-technology-retail-park", "opening_hours": "Mo-Sa 09:00-19:00; Su 10:00-16:00", "image": "https://dynl.mktgcdn.com/p/RJKoV7LI5QxTFraoya1oi1KdbntGkTM65u6B4b7zRO0/600x400.jpg", "brand": "Homebase", "brand:wikidata": "Q9293447", "nsi_id": "homebase-0c42e1"}, "geometry": {"type": "Point", "coordinates": [-1.2576756, 52.3839464]}},
{"type": "Feature", "id": "ToGervsO_xzB_nt0Rgo0XHJoiuc=", "properties": {"ref": "https://store.homebase.co.uk/#15166903", "@spider": "homebase", "shop": "doityourself", "addr:street_address": "Davidson Way", "addr:postcode": "RM7 0AJ", "addr:country": "GB", "name": "Homebase Romford", "phone": "0345 640 7034", "website": "https://store.homebase.co.uk/romford/davidson-way", "opening_hours": "Mo-Sa 09:00-18:00; Su 10:00-16:00", "image": "https://dynl.mktgcdn.com/p/twWOW6ihBAvfeu_u8_YK6EsqpItwfxEKiZExP5-v9vo/600x400.jpg", "brand": "Homebase", "brand:wikidata": "Q9293447", "nsi_id": "homebase-0c42e1"}, "geometry": {"type": "Point", "coordinates": [0.1824579973545042, 51.57094208509562]}},
{"type": "Feature", "id": "YdLLpvgFcTIH7RDuKX4i2U_SKX0=", "properties": {"ref": "https://store.homebase.co.uk/#15166973", "@spider": "homebase", "shop": "doityourself", "addr:street_address": "84 Manor Road", "addr:postcode": "TW9 1YB", "addr:country": "GB", "name": "Homebase Richmond", "phone": "0345 640 7092", "website": "https://store.homebase.co.uk/richmond/84-manor-road", "image": "https://dynl.mktgcdn.com/p/twWOW6ihBAvfeu_u8_YK6EsqpItwfxEKiZExP5-v9vo/600x400.jpg", "brand": "Homebase", "brand:wikidata": "Q9293447", "nsi_id": "homebase-0c42e1"}, "geometry": {"type": "Point", "coordinates": [-0.2896337228436323, 51.46532490054379]}},
{"type": "Feature", "id": "-VBoyHi5ul7FXYKlrYv62I9SgX8=", "properties": {"ref": "https://store.homebase.co.uk/#15166982", "@spider": "homebase", "shop": "doityourself", "addr:street_address": "London Road Rushworth Road", "addr:postcode": "RH2 0QG", "addr:country": "GB", "name": "Homebase Reigate", "phone": "0345 640 7626", "website": "https://store.homebase.co.uk/reigate/london-road", "opening_hours": "Mo-Sa 09:00-18:00; Su 10:00-16:00", "image": "https://dynl.mktgcdn.com/p/RJKoV7LI5QxTFraoya1oi1KdbntGkTM65u6B4b7zRO0/600x400.jpg", "brand": "Homebase", "brand:wikidata": "Q9293447", "nsi_id": "homebase-0c42e1"}, "geometry": {"type": "Point", "coordinates": [-0.2037381, 51.2414727]}},
{"type": "Feature", "id": "Oodd84eDwwMqTWXWL8r18kLiWU4=", "properties": {"ref": "https://store.homebase.co.uk/#15166900", "@spider": "homebase", "shop": "doityourself", "addr:street_address": "23-25 Stadium Way", "addr:city": "Rayleigh Benfleet", "addr:postcode": "SS7 3NT", "addr:country": "GB", "name": "Homebase Rayleigh Weir", "phone": "0345 640 7033", "website": "https://store.homebase.co.uk/rayleigh/23-25-stadium-way", "opening_hours": "Mo-Sa 09:00-19:00; Su 10:00-16:00", "image": "https://dynl.mktgcdn.com/p/twWOW6ihBAvfeu_u8_YK6EsqpItwfxEKiZExP5-v9vo/600x400.jpg", "brand": "Homebase", "brand:wikidata": "Q9293447", "nsi_id": "homebase-0c42e1"}, "geometry": {"type": "Point", "coordinates": [0.6006135, 51.575976]}},
{"type": "Feature", "id": "Gf2tO_04j5neKXQN70o0GttEJQQ=", "properties": {"ref": "https://store.homebase.co.uk/#15166796", "@spider": "homebase", "shop": "doityourself", "addr:street_address": "Unit 1, Portlaoise Retail Park Timahoe Road Roundabout", "addr:country": "GB", "name": "Homebase Portlaoise", "phone": "(057) 868 8764", "website": "https://store.homebase.co.uk/portlaoise/unit-1-portlaoise-retail-park", "opening_hours": "Mo-Sa 09:00-18:00; Su 10:00-18:00", "image": "https://dynl.mktgcdn.com/p/RJKoV7LI5QxTFraoya1oi1KdbntGkTM65u6B4b7zRO0/600x400.jpg", "brand": "Homebase", "brand:wikidata": "Q9293447", "nsi_id": "homebase-0c42e1"}, "geometry": {"type": "Point", "coordinates": [-7.289406, 53.0290105]}},
{"type": "Feature", "id": "5hohgQLiQGlPkHc-osIYsPfJM9g=", "properties": {"ref": "https://store.homebase.co.uk/#15166824", "@spider": "homebase", "shop": "doityourself", "addr:street_address": "1 Redlands Poole Road", "addr:postcode": "BH12 1DN", "addr:country": "GB", "name": "Homebase Branksome", "phone": "0345 640 7014", "website": "https://store.homebase.co.uk/poole/1-redlands-poole-road", "opening_hours": "Mo-Sa 09:00-18:00; Su 10:00-16:00", "image": "https://dynl.mktgcdn.com/p/twWOW6ihBAvfeu_u8_YK6EsqpItwfxEKiZExP5-v9vo/600x400.jpg", "brand": "Homebase", "brand:wikidata": "Q9293447", "nsi_id": "homebase-0c42e1"}, "geometry": {"type": "Point", "coordinates": [-1.9235993, 50.7280633]}},
{"type": "Feature", "id": "9SDHjjhEoJP1p-LuvKLMTqHHejI=", "properties": {"ref": "https://store.homebase.co.uk/#15166832", "@spider": "homebase", "shop": "doityourself", "addr:street_address": "Unit 6 Marsh Mills Ret Pk Longbridge Road", "addr:postcode": "PL6 8LX", "addr:country": "GB", "name": "Homebase Plymouth Marsh Mills", "phone": "0345 640 7113", "website": "https://store.homebase.co.uk/plymouth/unit-6-marsh-mills-ret-pk", "opening_hours": "Mo-Sa 09:00-18:00; Su 10:00-16:00", "image": "https://dynl.mktgcdn.com/p/twWOW6ihBAvfeu_u8_YK6EsqpItwfxEKiZExP5-v9vo/600x400.jpg", "brand": "Homebase", "brand:wikidata": "Q9293447", "nsi_id": "homebase-0c42e1"}, "geometry": {"type": "Point", "coordinates": [-4.0910875, 50.3941589]}},
{"type": "Feature", "id": "u-1Kd6ARywvBGNCDt3v9_F5VMxM=", "properties": {"ref": "https://store.homebase.co.uk/#15166954", "@spider": "homebase", "shop": "doityourself", "addr:street_address": "Horspath Driftway Cowley", "addr:postcode": "OX3 7JN", "addr:country": "GB", "name": "Homebase Oxford Cowley", "phone": "0345 640 7091", "website": "https://store.homebase.co.uk/oxford/horspath-driftway", "opening_hours": "Mo-Fr 09:00-19:00; Sa 09:00-18:00; Su 10:00-16:00", "image": "https://dynl.mktgcdn.com/p/twWOW6ihBAvfeu_u8_YK6EsqpItwfxEKiZExP5-v9vo/600x400.jpg", "brand": "Homebase", "brand:wikidata": "Q9293447", "nsi_id": "homebase-0c42e1"}, "geometry": {"type": "Point", "coordinates": [-1.1980230425663194, 51.7407102192163]}},
{"type": "Feature", "id": "SJiGbe5Q7Ox4YYGBYuzmLrxgPc4=", "properties": {"ref": "https://store.homebase.co.uk/#15166983", "@spider": "homebase", "shop": "doityourself", "addr:street_address": "Sevenoaks Way Industrial Estate Main Road", "addr:postcode": "BR5 3QD", "addr:country": "GB", "name": "Homebase Orpington", "phone": "0345 640 7065", "website": "https://store.homebase.co.uk/orpington/sevenoaks-way-industrial-estate", "opening_hours": "Mo-Sa 09:00-18:00; Su 10:00-16:00", "image": "https://dynl.mktgcdn.com/p/twWOW6ihBAvfeu_u8_YK6EsqpItwfxEKiZExP5-v9vo/600x400.jpg", "brand": "Homebase", "brand:wikidata": "Q9293447", "nsi_id": "homebase-0c42e1"}, "geometry": {"type": "Point", "coordinates": [0.11428827607483072, 51.40610410668872]}},
{"type": "Feature", "id": "EIUQSWAdsy4JRyI24JcCP0nZS0g=", "properties": {"ref": "https://store.homebase.co.uk/#15166991", "@spider": "homebase", "shop": "doityourself", "addr:street_address": "Unit 5, Great Northern Retail Park Tamlaght Road", "addr:postcode": "BT78 5AW", "addr:country": "GB", "name": "Homebase Omagh", "phone": "0345 640 7193", "website": "https://store.homebase.co.uk/omagh/unit-5-great-northern-retail-park", "opening_hours": "Mo-Sa 09:00-18:00; Su 13:00-18:00", "image": "https://dynl.mktgcdn.com/p/twWOW6ihBAvfeu_u8_YK6EsqpItwfxEKiZExP5-v9vo/600x400.jpg", "brand": "Homebase", "brand:wikidata": "Q9293447", "nsi_id": "homebase-0c42e1"}, "geometry": {"type": "Point", "coordinates": [-7.3122883612072656, 54.599390854334075]}},
{"type": "Feature", "id": "bAcZZvEKc1u-83FN1cyHMNNXQGs=", "properties": {"ref": "https://store.homebase.co.uk/#15166968", "@spider": "homebase", "shop": "doityourself", "addr:street_address": "1 Oldbury Ringway", "addr:postcode": "B69 3DD", "addr:country": "GB", "name": "Homebase Oldbury", "phone": "0345 640 7085", "website": "https://store.homebase.co.uk/oldbury/1-oldbury-ringway", "opening_hours": "Mo-Sa 09:00-19:00; Su 10:00-16:00", "image": "https://dynl.mktgcdn.com/p/twWOW6ihBAvfeu_u8_YK6EsqpItwfxEKiZExP5-v9vo/600x400.jpg", "brand": "Homebase", "brand:wikidata": "Q9293447", "nsi_id": "homebase-0c42e1"}, "geometry": {"type": "Point", "coordinates": [-2.02087583068851, 52.50514528626361]}},
{"type": "Feature", "id": "j8Vj2gIZhSPqtOjfpnqOVwPwFYM=", "properties": {"ref": "https://store.homebase.co.uk/#15166949", "@spider": "homebase", "shop": "doityourself", "addr:street_address": "Lochavulin Drive Lochavulin Industrial Estate", "addr:postcode": "PA34 4BW", "addr:country": "GB", "name": "Homebase Oban", "phone": "0345 640 7807", "website": "https://store.homebase.co.uk/oban/lochavulin-drive", "opening_hours": "Mo-Sa 09:00-18:00; Su 09:00-17:00", "image": "https://dynl.mktgcdn.com/p/RJKoV7LI5QxTFraoya1oi1KdbntGkTM65u6B4b7zRO0/600x400.jpg", "brand": "Homebase", "brand:wikidata": "Q9293447", "nsi_id": "homebase-0c42e1"}, "geometry": {"type": "Point", "coordinates": [-5.4744738, 56.4091795]}},
{"type": "Feature", "id": "5MAN_8mp0JguBjeFFyEwb6KrV3k=", "properties": {"ref": "https://store.homebase.co.uk/#15166981", "@spider": "homebase", "shop": "doityourself", "addr:street_address": "Unit 2, Madford Retail Park Mansfield Road, Daybrook", "addr:postcode": "NG5 6AD", "addr:country": "GB", "name": "Homebase Nottingham Arnold", "phone": "0345 640 7088", "website": "https://store.homebase.co.uk/nottingham/unit-2-madford-retail-park", "opening_hours": "Mo-Sa 09:00-19:00; Su 10:00-16:00", "image": "https://dynl.mktgcdn.com/p/twWOW6ihBAvfeu_u8_YK6EsqpItwfxEKiZExP5-v9vo/600x400.jpg", "brand": "Homebase", "brand:wikidata": "Q9293447", "nsi_id": "homebase-0c42e1"}, "geometry": {"type": "Point", "coordinates": [-1.1399769376763516, 52.995334640327926]}},
{"type": "Feature", "id": "DVDKOHynHU7haCHYm5nGWE8DQtc=", "properties": {"ref": "https://store.homebase.co.uk/#30749226", "@spider": "homebase", "shop": "doityourself", "addr:street_address": "William Frost Way", "addr:city": "Norwich New Costessey", "addr:postcode": "NR5 0JS", "addr:country": "GB", "name": "Garden by Homebase at Next - Norwich", "phone": "+443456407176", "website": "https://store.homebase.co.uk/norwich/william-frost-way", "image": "https://dynl.mktgcdn.com/p/McBd1z1vDSBOD2CNDcBDhVWh3MsQPfmrIDr8gZ_KEm0/619x408.jpg", "brand": "Homebase", "brand:wikidata": "Q9293447", "nsi_id": "homebase-0c42e1"}, "geometry": {"type": "Point", "coordinates": [1.1877317751331118, 52.65149833948009]}},
{"type": "Feature", "id": "zdXQ0Io5qBE5TOaIq-CZSE31xVM=", "properties": {"ref": "https://store.homebase.co.uk/#15166920", "@spider": "homebase", "shop": "doityourself", "addr:street_address": "Roundtree Way Sprowston", "addr:postcode": "NR7 8SH", "addr:country": "GB", "name": "Homebase Norwich Sprowston", "phone": "0345 640 7059", "website": "https://store.homebase.co.uk/norwich/roundtree-way", "opening_hours": "Mo-Sa 09:00-18:00; Su 10:00-16:00", "image": "https://dynl.mktgcdn.com/p/twWOW6ihBAvfeu_u8_YK6EsqpItwfxEKiZExP5-v9vo/600x400.jpg", "brand": "Homebase", "brand:wikidata": "Q9293447", "nsi_id": "homebase-0c42e1"}, "geometry": {"type": "Point", "coordinates": [1.323185, 52.645713]}},
{"type": "Feature", "id": "q31pNOwu8XrTrWZvB4LguN6dhw0=", "properties": {"ref": "https://store.homebase.co.uk/#15167012", "@spider": "homebase", "shop": "doityourself", "addr:street_address": "Hall Road", "addr:postcode": "NR4 6DH", "addr:country": "GB", "name": "Homebase Norwich Hall Road", "phone": "0345 640 7176", "website": "https://store.homebase.co.uk/norwich/hall-road", "opening_hours": "Mo-Sa 09:00-18:00; Su 10:00-16:00", "image": "https://dynl.mktgcdn.com/p/twWOW6ihBAvfeu_u8_YK6EsqpItwfxEKiZExP5-v9vo/600x400.jpg", "brand": "Homebase", "brand:wikidata": "Q9293447", "nsi_id": "homebase-0c42e1"}, "geometry": {"type": "Point", "coordinates": [1.2898485, 52.6085573]}},
{"type": "Feature", "id": "lvSHhiZxneP1bFd88nbt23aFLsE=", "properties": {"ref": "https://store.homebase.co.uk/#15166818", "@spider": "homebase", "shop": "doityourself", "addr:street_address": "Unit 1a 1-5 Fairground Way", "addr:postcode": "NN3 9HU", "addr:country": "GB", "name": "Homebase Northampton", "phone": "0345 640 7102", "website": "https://store.homebase.co.uk/northampton/unit-1a", "opening_hours": "Mo-Fr 09:00-19:00; Sa 09:00-18:00; Su 10:00-16:00", "image": "https://dynl.mktgcdn.com/p/twWOW6ihBAvfeu_u8_YK6EsqpItwfxEKiZExP5-v9vo/600x400.jpg", "brand": "Homebase", "brand:wikidata": "Q9293447", "nsi_id": "homebase-0c42e1"}, "geometry": {"type": "Point", "coordinates": [-0.8379324270065354, 52.242624485399084]}},
{"type": "Feature", "id": "N4BOqkjSAiaD5tj9TU07vEi-nuI=", "properties": {"ref": "https://store.homebase.co.uk/#15166875", "@spider": "homebase", "shop": "doityourself", "addr:street_address": "Greenhill Way Kingsteignton", "addr:postcode": "TQ12 3SB", "addr:country": "GB", "name": "Homebase Newton Abbot", "phone": "0345 640 7216", "website": "https://store.homebase.co.uk/newton-abbot/greenhill-way", "opening_hours": "Mo-Sa 09:00-18:00; Su 10:00-16:00", "image": "https://dynl.mktgcdn.com/p/twWOW6ihBAvfeu_u8_YK6EsqpItwfxEKiZExP5-v9vo/600x400.jpg", "brand": "Homebase", "brand:wikidata": "Q9293447", "nsi_id": "homebase-0c42e1"}, "geometry": {"type": "Point", "coordinates": [-3.5958297496681553, 50.543199795739504]}},
{"type": "Feature", "id": "0dAqJVZTRwLKwOKzIEt6P4QPJng=", "properties": {"ref": "https://store.homebase.co.uk/#15166844", "@spider": "homebase", "shop": "doityourself", "addr:street_address": "Harlech Retail Park Cardiff Rd", "addr:postcode": "NP20 3BA", "addr:country": "GB", "name": "Homebase Newport", "phone": "0345 640 7110", "website": "https://store.homebase.co.uk/newport/harlech-retail-park", "opening_hours": "Mo-Sa 09:00-18:00; Su 10:00-16:00", "image": "https://dynl.mktgcdn.com/p/twWOW6ihBAvfeu_u8_YK6EsqpItwfxEKiZExP5-v9vo/600x400.jpg", "brand": "Homebase", "brand:wikidata": "Q9293447", "nsi_id": "homebase-0c42e1"}, "geometry": {"type": "Point", "coordinates": [-3.0111571, 51.5726925]}},
{"type": "Feature", "id": "WTI5gmOwtrBg0weF10Ep6GsuYPY=", "properties": {"ref": "https://store.homebase.co.uk/#15166812", "@spider": "homebase", "shop": "doityourself", "addr:street_address": "Oaks Drive", "addr:postcode": "CB8 7SX", "addr:country": "GB", "name": "Homebase Newmarket", "phone": "0345 640 7189", "website": "https://store.homebase.co.uk/newmarket/oaks-drive", "opening_hours": "Mo-Sa 08:00-18:00; Su 10:00-16:00", "image": "https://dynl.mktgcdn.com/p/twWOW6ihBAvfeu_u8_YK6EsqpItwfxEKiZExP5-v9vo/600x400.jpg", "brand": "Homebase", "brand:wikidata": "Q9293447", "nsi_id": "homebase-0c42e1"}, "geometry": {"type": "Point", "coordinates": [0.3963369, 52.26294]}},
{"type": "Feature", "id": "Gha4vGVDZBBBvivXhp-EX6hZEZo=", "properties": {"ref": "https://store.homebase.co.uk/#15166928", "@spider": "homebase", "shop": "doityourself", "addr:street_address": "33 Brook Lane", "addr:postcode": "ST5 3HU", "addr:country": "GB", "name": "Homebase Newcastle Under Lyme", "phone": "0345 640 7047", "website": "https://store.homebase.co.uk/newcastle-under-lyme/33-brook-lane", "opening_hours": "Mo-Sa 09:00-18:00; Su 10:00-16:00", "image": "https://dynl.mktgcdn.com/p/twWOW6ihBAvfeu_u8_YK6EsqpItwfxEKiZExP5-v9vo/600x400.jpg", "brand": "Homebase", "brand:wikidata": "Q9293447", "nsi_id": "homebase-0c42e1"}, "geometry": {"type": "Point", "coordinates": [-2.2242688, 53.0058936]}},
{"type": "Feature", "id": "tzAC8AhTo_BdwMZm65ik5bhwWz0=", "properties": {"ref": "https://store.homebase.co.uk/#15166868", "@spider": "homebase", "shop": "doityourself", "addr:street_address": "Northgate Retail Park Trent Lane, Northgate", "addr:city": "Newark Newgate", "addr:postcode": "NG24 1HN", "addr:country": "GB", "name": "Homebase Newark", "phone": "0345 640 7264", "website": "https://store.homebase.co.uk/newark/northgate-retail-park", "opening_hours": "Mo-Sa 09:00-18:00; Su 10:00-16:00", "image": "https://dynl.mktgcdn.com/p/twWOW6ihBAvfeu_u8_YK6EsqpItwfxEKiZExP5-v9vo/600x400.jpg", "brand": "Homebase", "brand:wikidata": "Q9293447", "nsi_id": "homebase-0c42e1"}, "geometry": {"type": "Point", "coordinates": [-0.8035311752910568, 53.08430380740767]}},
{"type": "Feature", "id": "PcWObsJ5AZKx9O9XSgAKM_VBzYU=", "properties": {"ref": "https://store.homebase.co.uk/#15166799", "@spider": "homebase", "shop": "doityourself", "addr:street_address": "Navan Retail Park Athboy Road", "addr:postcode": "C15 A381", "addr:country": "GB", "name": "Homebase Navan", "phone": "(046) 903 1086", "website": "https://store.homebase.co.uk/navan/navan-retail-park", "opening_hours": "Mo-We 09:00-18:00; Th-Fr 09:00-19:00; Sa 09:00-18:00; Su 10:00-18:00", "image": "https://dynl.mktgcdn.com/p/twWOW6ihBAvfeu_u8_YK6EsqpItwfxEKiZExP5-v9vo/600x400.jpg", "brand": "Homebase", "brand:wikidata": "Q9293447", "nsi_id": "homebase-0c42e1"}, "geometry": {"type": "Point", "coordinates": [-6.7134514, 53.6509737]}},
{"type": "Feature", "id": "oDegDejOzJqnCJcuq0spkJbKpyE=", "properties": {"ref": "https://store.homebase.co.uk/#15166995", "@spider": "homebase", "shop": "doityourself", "addr:street_address": "Unit 2 Hilmore Way", "addr:postcode": "LA4 4DD", "addr:country": "GB", "name": "Homebase Morecambe", "phone": "0345 640 7845", "website": "https://store.homebase.co.uk/morecambe/unit-2", "opening_hours": "Mo-Fr 09:00-19:00; Sa 09:00-18:00; Su 10:00-16:00", "image": "https://dynl.mktgcdn.com/p/RJKoV7LI5QxTFraoya1oi1KdbntGkTM65u6B4b7zRO0/600x400.jpg", "brand": "Homebase", "brand:wikidata": "Q9293447", "nsi_id": "homebase-0c42e1"}, "geometry": {"type": "Point", "coordinates": [-2.872510956180463, 54.06859290909685]}},
{"type": "Feature", "id": "WcsZ7FnTBmyn8hbySBJYk_gbnRw=", "properties": {"ref": "https://store.homebase.co.uk/#15166891", "@spider": "homebase", "shop": "doityourself", "addr:street_address": "Snowdon Drive", "addr:postcode": "MK6 1AP", "addr:country": "GB", "name": "Homebase Milton Keynes", "phone": "0345 646 3835", "website": "https://store.homebase.co.uk/milton-keynes/snowdon-drive", "opening_hours": "Mo-Sa 09:00-19:00; Su 10:00-16:00", "image": "https://dynl.mktgcdn.com/p/twWOW6ihBAvfeu_u8_YK6EsqpItwfxEKiZExP5-v9vo/600x400.jpg", "brand": "Homebase", "brand:wikidata": "Q9293447", "nsi_id": "homebase-0c42e1"}, "geometry": {"type": "Point", "coordinates": [-0.7678572, 52.0300816]}},
{"type": "Feature", "id": "pMRCR7f3I9jnsbZxmvWtj8e55lw=", "properties": {"ref": "https://store.homebase.co.uk/#15167003", "@spider": "homebase", "shop": "doityourself", "addr:street_address": "Twickenham Road Feltham", "addr:postcode": "TW13 6EZ", "addr:country": "GB", "name": "Homebase Hanworth (including Bathstore)", "phone": "0345 640 7079", "website": "https://store.homebase.co.uk/middlesex/twickenham-road", "opening_hours": "Mo-Sa 09:00-18:00; Su 10:00-16:00", "image": "https://dynl.mktgcdn.com/p/twWOW6ihBAvfeu_u8_YK6EsqpItwfxEKiZExP5-v9vo/600x400.jpg", "brand": "Homebase", "brand:wikidata": "Q9293447", "nsi_id": "homebase-0c42e1"}, "geometry": {"type": "Point", "coordinates": [-0.3754069257400028, 51.43762264267544]}},
{"type": "Feature", "id": "YIihJW4DSpePzmivc2uDT-l38n8=", "properties": {"ref": "https://store.homebase.co.uk/#15166843", "@spider": "homebase", "shop": "doityourself", "addr:street_address": "1-2 Springfield Street", "addr:postcode": "LE16 9HD", "addr:country": "GB", "name": "Homebase Market Harborough", "phone": "0345 640 7593", "website": "https://store.homebase.co.uk/market-harborough/1-2-springfield-street", "opening_hours": "Mo-Sa 09:00-18:00; Su 10:00-16:00", "image": "https://dynl.mktgcdn.com/p/RJKoV7LI5QxTFraoya1oi1KdbntGkTM65u6B4b7zRO0/600x400.jpg", "brand": "Homebase", "brand:wikidata": "Q9293447", "nsi_id": "homebase-0c42e1"}, "geometry": {"type": "Point", "coordinates": [-0.9172950767590464, 52.4757931438916]}},
{"type": "Feature", "id": "SDlQpdKtqCou5H7fiKoUdEXfEiM=", "properties": {"ref": "https://store.homebase.co.uk/#30751971", "@spider": "homebase", "shop": "doityourself", "addr:street_address": "Ellesmere Shopping Centre Bolton Rd", "addr:city": "Manchester Walkden", "addr:postcode": "M28 3BT", "addr:country": "GB", "name": "Homebase Walkden (inside Tesco Extra)", "phone": "0345 640 7299", "website": "https://store.homebase.co.uk/manchester/ellesmere-shopping-centre", "opening_hours": "Mo-We 09:00-19:00; Th-Fr 09:00-20:00; Sa 09:00-19:00; Su 10:00-16:00", "image": "https://dynl.mktgcdn.com/p/5eB6YsrNxyzwLC_2iBTR5VhZ_6R-ymcxonGKbMUqt-0/600x441.jpg", "brand": "Homebase", "brand:wikidata": "Q9293447", "nsi_id": "homebase-0c42e1"}, "geometry": {"type": "Point", "coordinates": [-2.400625892960515, 53.52612978507503]}},
{"type": "Feature", "id": "BZUlLyxxseSqXPXTaq38XEEKFpY=", "properties": {"ref": "https://store.homebase.co.uk/#15166998", "@spider": "homebase", "shop": "doityourself", "addr:street_address": "Aylesford Retail Park London Road, Aylesford", "addr:postcode": "ME20 7TP", "addr:country": "GB", "name": "Homebase Maidstone Aylesford", "phone": "0345 640 7072", "website": "https://store.homebase.co.uk/maidstone/aylesford-retail-park", "opening_hours": "Mo-Sa 09:00-18:00; Su 10:00-16:00", "image": "https://dynl.mktgcdn.com/p/twWOW6ihBAvfeu_u8_YK6EsqpItwfxEKiZExP5-v9vo/600x400.jpg", "brand": "Homebase", "brand:wikidata": "Q9293447", "nsi_id": "homebase-0c42e1"}, "geometry": {"type": "Point", "coordinates": [0.470556, 51.2943545]}},
{"type": "Feature", "id": "XBlOenMJRJUcwdC9whrz4uTcMAk=", "properties": {"ref": "https://store.homebase.co.uk/#15166896", "@spider": "homebase", "shop": "doityourself", "addr:street_address": "Stafferton Way", "addr:postcode": "SL6 1AY", "addr:country": "GB", "name": "Homebase Maidenhead", "phone": "0345 640 7811", "website": "https://store.homebase.co.uk/maidenhead/stafferton-way", "opening_hours": "Mo-Sa 09:00-18:00; Su 10:00-16:00", "image": "https://dynl.mktgcdn.com/p/twWOW6ihBAvfeu_u8_YK6EsqpItwfxEKiZExP5-v9vo/600x400.jpg", "brand": "Homebase", "brand:wikidata": "Q9293447", "nsi_id": "homebase-0c42e1"}, "geometry": {"type": "Point", "coordinates": [-0.7170644649163478, 51.51854460555794]}},
{"type": "Feature", "id": "y3BreOTb3Sd2AnuBYERXAJYEOnY=", "properties": {"ref": "https://store.homebase.co.uk/#15166910", "@spider": "homebase", "shop": "doityourself", "addr:street_address": "Bramingham Business Park Enterprise Way", "addr:postcode": "LU3 4BU", "addr:country": "GB", "name": "Homebase Luton", "phone": "0345 640 7049", "website": "https://store.homebase.co.uk/luton/bramingham-business-park", "opening_hours": "Mo-Sa 09:00-19:00; Su 10:00-16:00", "image": "https://dynl.mktgcdn.com/p/y9Y1ywGZ-hnfpQPo06u9jnao-Ql5Krum6fwSKdKXuWA/1980x1320.jpg", "brand": "Homebase", "brand:wikidata": "Q9293447", "nsi_id": "homebase-0c42e1"}, "geometry": {"type": "Point", "coordinates": [-0.4309665, 51.9213156]}},
{"type": "Feature", "id": "stvgN9CzYER-sh-8uhgIGjP7SWw=", "properties": {"ref": "https://store.homebase.co.uk/#15166975", "@spider": "homebase", "shop": "doityourself", "addr:street_address": "Tower Road", "addr:postcode": "NR33 7NG", "addr:country": "GB", "name": "Homebase Lowestoft", "phone": "0345 640 7261", "website": "https://store.homebase.co.uk/lowestoft/tower-road", "opening_hours": "Mo-Sa 09:00-18:00; Su 10:00-16:00", "image": "https://dynl.mktgcdn.com/p/RJKoV7LI5QxTFraoya1oi1KdbntGkTM65u6B4b7zRO0/600x400.jpg", "brand": "Homebase", "brand:wikidata": "Q9293447", "nsi_id": "homebase-0c42e1"}, "geometry": {"type": "Point", "coordinates": [1.7233575701775408, 52.44361285206865]}},
{"type": "Feature", "id": "amDiN1x428kjH2FKPl15j_rTpy8=", "properties": {"ref": "https://store.homebase.co.uk/#15167009", "@spider": "homebase", "shop": "doityourself", "addr:street_address": "Crescent Link Retail Park Crescent Link", "addr:postcode": "BT47 1SX", "addr:country": "GB", "name": "Homebase Derry", "phone": "0345 640 7190", "website": "https://store.homebase.co.uk/londonderry/crescent-link-retail-park", "opening_hours": "Mo-Sa 09:00-19:00; Su 13:00-18:00", "image": "https://dynl.mktgcdn.com/p/twWOW6ihBAvfeu_u8_YK6EsqpItwfxEKiZExP5-v9vo/600x400.jpg", "brand": "Homebase", "brand:wikidata": "Q9293447", "nsi_id": "homebase-0c42e1"}, "geometry": {"type": "Point", "coordinates": [-7.273053673557342, 55.0002762899192]}},
{"type": "Feature", "id": "pFjLfhjoSLh5Mp6JewXsG2pK3J8=", "properties": {"ref": "https://store.homebase.co.uk/#15166944", "@spider": "homebase", "shop": "doityourself", "addr:street_address": "Arena Shopping Park Green Lanes", "addr:postcode": "N4 1DT", "addr:country": "GB", "name": "Homebase London Haringey", "phone": "0345 640 7801", "website": "https://store.homebase.co.uk/london/arena-shopping-park", "opening_hours": "Mo-Sa 09:00-19:00; Su 10:00-16:00", "image": "https://dynl.mktgcdn.com/p/twWOW6ihBAvfeu_u8_YK6EsqpItwfxEKiZExP5-v9vo/600x400.jpg", "brand": "Homebase", "brand:wikidata": "Q9293447", "nsi_id": "homebase-0c42e1"}, "geometry": {"type": "Point", "coordinates": [-0.0979202, 51.5756325]}},
{"type": "Feature", "id": "GVp0cslUxEOPztOvGxyB8hJ7ask=", "properties": {"ref": "https://store.homebase.co.uk/#15166964", "@spider": "homebase", "shop": "doityourself", "addr:street_address": "45 Oakfield Rd Penge", "addr:postcode": "SE20 8RD", "addr:country": "GB", "name": "Homebase Penge", "phone": "0345 640 7018", "website": "https://store.homebase.co.uk/london/45-oakfield-rd", "opening_hours": "Mo-Sa 09:00-18:00; Su 10:00-16:00", "image": "https://dynl.mktgcdn.com/p/twWOW6ihBAvfeu_u8_YK6EsqpItwfxEKiZExP5-v9vo/600x400.jpg", "brand": "Homebase", "brand:wikidata": "Q9293447", "nsi_id": "homebase-0c42e1"}, "geometry": {"type": "Point", "coordinates": [-0.0595132, 51.417264]}},
{"type": "Feature", "id": "f7t8tEkNZ-Pxy8NfsD6Z-HOHmXQ=", "properties": {"ref": "https://store.homebase.co.uk/#15166847", "@spider": "homebase", "shop": "doityourself", "addr:street_address": "255 Finchley Rd O2", "addr:postcode": "NW3 6LU", "addr:country": "GB", "name": "Homebase London Finchley Road", "phone": "0345 640 7589", "website": "https://store.homebase.co.uk/london/255-finchley-rd", "opening_hours": "Mo-Sa 09:00-19:00; Su 10:00-16:00", "image": "https://dynl.mktgcdn.com/p/twWOW6ihBAvfeu_u8_YK6EsqpItwfxEKiZExP5-v9vo/600x400.jpg", "brand": "Homebase", "brand:wikidata": "Q9293447", "nsi_id": "homebase-0c42e1"}, "geometry": {"type": "Point", "coordinates": [-0.186039, 51.5476624]}},
{"type": "Feature", "id": "KXvDNVAiC6UVeyp5JT7bjGfbJxc=", "properties": {"ref": "https://store.homebase.co.uk/#15166785", "@spider": "homebase", "shop": "doityourself", "addr:street_address": "100 Woodgate Drive Streatham Vale", "addr:postcode": "SW16 5YP", "addr:country": "GB", "name": "Homebase London Streatham Vale", "phone": "0345 640 7653", "website": "https://store.homebase.co.uk/london/100-woodgate-drive", "opening_hours": "Mo-Sa 09:00-18:00; Su 10:00-16:00", "image": "https://dynl.mktgcdn.com/p/twWOW6ihBAvfeu_u8_YK6EsqpItwfxEKiZExP5-v9vo/600x400.jpg", "brand": "Homebase", "brand:wikidata": "Q9293447", "nsi_id": "homebase-0c42e1"}, "geometry": {"type": "Point", "coordinates": [-0.1354629, 51.4170874]}},
{"type": "Feature", "id": "R-1tqKVbirdUrwOOQ3DaRv1HH0g=", "properties": {"ref": "https://store.homebase.co.uk/#15166820", "@spider": "homebase", "shop": "doityourself", "addr:street_address": "10 Beckenham Hill Rd Catford", "addr:postcode": "SE6 3NU", "addr:country": "GB", "name": "Homebase London Catford", "phone": "0345 640 7015", "website": "https://store.homebase.co.uk/london/10-beckenham-hill-rd", "opening_hours": "Mo-Sa 09:00-18:00; Su 10:00-16:00", "image": "https://dynl.mktgcdn.com/p/twWOW6ihBAvfeu_u8_YK6EsqpItwfxEKiZExP5-v9vo/600x400.jpg", "brand": "Homebase", "brand:wikidata": "Q9293447", "nsi_id": "homebase-0c42e1"}, "geometry": {"type": "Point", "coordinates": [-0.012136, 51.426743]}},
{"type": "Feature", "id": "JfE3PNXfcmMHUvjcjQzLYPJMA3E=", "properties": {"ref": "https://store.homebase.co.uk/#15166845", "@spider": "homebase", "shop": "doityourself", "addr:street_address": "Parkway Retail Park Dublin Rd", "addr:postcode": "V94 VHK8", "addr:country": "GB", "name": "Homebase Limerick", "phone": "(061) 489 687", "website": "https://store.homebase.co.uk/limerick/parkway-retail-park", "image": "https://dynl.mktgcdn.com/p/twWOW6ihBAvfeu_u8_YK6EsqpItwfxEKiZExP5-v9vo/600x400.jpg", "brand": "Homebase", "brand:wikidata": "Q9293447", "nsi_id": "homebase-0c42e1"}, "geometry": {"type": "Point", "coordinates": [-8.593699214990238, 52.6621948258479]}},
{"type": "Feature", "id": "DRjnYOGIBjMAQjons7NWcBaaNuE=", "properties": {"ref": "https://store.homebase.co.uk/#15166961", "@spider": "homebase", "shop": "doityourself", "addr:street_address": "Unit 5 Brooks Rd", "addr:postcode": "BN7 2BY", "addr:country": "GB", "name": "Homebase Lewes", "phone": "0345 640 7629", "website": "https://store.homebase.co.uk/lewes/unit-5-brooks-rd", "opening_hours": "Mo-Sa 09:00-18:00; Su 10:00-16:00", "image": "https://dynl.mktgcdn.com/p/twWOW6ihBAvfeu_u8_YK6EsqpItwfxEKiZExP5-v9vo/600x400.jpg", "brand": "Homebase", "brand:wikidata": "Q9293447", "nsi_id": "homebase-0c42e1"}, "geometry": {"type": "Point", "coordinates": [0.016425723146040738, 50.87788837071633]}},
{"type": "Feature", "id": "QLmLA4lyEesS1L1bVwLEkHmee_8=", "properties": {"ref": "https://store.homebase.co.uk/#15166921", "@spider": "homebase", "shop": "doityourself", "addr:street_address": "Neil T Blaney Rd", "addr:country": "GB", "name": "Homebase Letterkenny", "phone": "(074) 910 6308", "website": "https://store.homebase.co.uk/letterkenny/neil-t-blaney-rd", "opening_hours": "Mo-We 09:00-18:00; Th-Fr 09:00-19:00; Sa 09:00-18:00; Su 10:00-18:00", "image": "https://dynl.mktgcdn.com/p/twWOW6ihBAvfeu_u8_YK6EsqpItwfxEKiZExP5-v9vo/600x400.jpg", "brand": "Homebase", "brand:wikidata": "Q9293447", "nsi_id": "homebase-0c42e1"}, "geometry": {"type": "Point", "coordinates": [-7.7286351, 54.9481343]}},
{"type": "Feature", "id": "gkNWP01sdMHnHMBemA3lc-RJkcI=", "properties": {"ref": "https://store.homebase.co.uk/#15166804", "@spider": "homebase", "shop": "doityourself", "addr:street_address": "Vimy Road Linslade", "addr:postcode": "LU7 1ER", "addr:country": "GB", "name": "Homebase Leighton Buzzard", "phone": "0345 640 7649", "website": "https://store.homebase.co.uk/leighton-buzzard/vimy-road", "opening_hours": "Mo-Sa 09:00-18:00; Su 10:00-16:00", "image": "https://dynl.mktgcdn.com/p/RJKoV7LI5QxTFraoya1oi1KdbntGkTM65u6B4b7zRO0/600x400.jpg", "brand": "Homebase", "brand:wikidata": "Q9293447", "nsi_id": "homebase-0c42e1"}, "geometry": {"type": "Point", "coordinates": [-0.6683049859159818, 51.91936937605443]}},
{"type": "Feature", "id": "FTUPbQTc0nIOBDCTzcE4w1iOPMM=", "properties": {"ref": "https://store.homebase.co.uk/#15166927", "@spider": "homebase", "shop": "doityourself", "addr:street_address": "37 Putney Rd", "addr:postcode": "LE2 7TF", "addr:country": "GB", "name": "Homebase Leicester", "phone": "0345 640 7041", "website": "https://store.homebase.co.uk/leicester/37-putney-rd", "opening_hours": "Mo-Sa 09:00-18:00; Su 10:00-16:00", "image": "https://dynl.mktgcdn.com/p/twWOW6ihBAvfeu_u8_YK6EsqpItwfxEKiZExP5-v9vo/600x400.jpg", "brand": "Homebase", "brand:wikidata": "Q9293447", "nsi_id": "homebase-0c42e1"}, "geometry": {"type": "Point", "coordinates": [-1.1305024778924917, 52.61801597974002]}},
{"type": "Feature", "id": "xOhq3_EOqwggd186JYiroBesOC8=", "properties": {"ref": "https://store.homebase.co.uk/#15166816", "@spider": "homebase", "shop": "doityourself", "addr:street_address": "Moor Allerton Centre King Lane", "addr:postcode": "LS17 5NY", "addr:country": "GB", "name": "Homebase Leeds Moor Allerton", "phone": "0345 640 7584", "website": "https://store.homebase.co.uk/leeds/moor-allerton-centre", "opening_hours": "Mo-Fr 09:00-19:00; Sa 09:00-18:00; Su 10:00-16:00", "image": "https://dynl.mktgcdn.com/p/twWOW6ihBAvfeu_u8_YK6EsqpItwfxEKiZExP5-v9vo/600x400.jpg", "brand": "Homebase", "brand:wikidata": "Q9293447", "nsi_id": "homebase-0c42e1"}, "geometry": {"type": "Point", "coordinates": [-1.5552863, 53.8436984]}},
{"type": "Feature", "id": "2pyLfYVlATU0QNWVH2Sqh5bfLYI=", "properties": {"ref": "https://store.homebase.co.uk/#15166800", "@spider": "homebase", "shop": "doityourself", "addr:street_address": "New Mills Industrial Estate Leadon Way", "addr:postcode": "HR8 2SR", "addr:country": "GB", "name": "Homebase Ledbury", "phone": "0345 640 7317", "website": "https://store.homebase.co.uk/ledbury/new-mills-industrial-estate", "opening_hours": "Mo-Sa 09:00-18:00; Su 10:00-16:00", "image": "https://dynl.mktgcdn.com/p/RJKoV7LI5QxTFraoya1oi1KdbntGkTM65u6B4b7zRO0/600x400.jpg", "brand": "Homebase", "brand:wikidata": "Q9293447", "nsi_id": "homebase-0c42e1"}, "geometry": {"type": "Point", "coordinates": [-2.4381438, 52.0377178]}},
{"type": "Feature", "id": "BFBopHxDwYQlpAJ9Ots9mAhOSYE=", "properties": {"ref": "https://store.homebase.co.uk/#15166926", "@spider": "homebase", "shop": "doityourself", "addr:street_address": "Myton Rd", "addr:postcode": "CV31 3NY", "addr:country": "GB", "name": "Homebase Leamington Spa", "phone": "0345 640 7494", "website": "https://store.homebase.co.uk/leamington-spa/myton-rd", "opening_hours": "Mo-Sa 09:00-19:00; Su 10:00-16:00", "image": "https://dynl.mktgcdn.com/p/RJKoV7LI5QxTFraoya1oi1KdbntGkTM65u6B4b7zRO0/600x400.jpg", "brand": "Homebase", "brand:wikidata": "Q9293447", "nsi_id": "homebase-0c42e1"}, "geometry": {"type": "Point", "coordinates": [-1.549076, 52.283601]}},
{"type": "Feature", "id": "IzItqm8Q8dJXfOZo9p7m1EU0VQE=", "properties": {"ref": "https://store.homebase.co.uk/#15166938", "@spider": "homebase", "shop": "doityourself", "addr:street_address": "Beezon Road", "addr:postcode": "LA9 6EL", "addr:country": "GB", "name": "Homebase Kendal", "phone": "0345 640 7803", "website": "https://store.homebase.co.uk/kendal/beezon-road", "image": "https://dynl.mktgcdn.com/p/twWOW6ihBAvfeu_u8_YK6EsqpItwfxEKiZExP5-v9vo/600x400.jpg", "brand": "Homebase", "brand:wikidata": "Q9293447", "nsi_id": "homebase-0c42e1"}, "geometry": {"type": "Point", "coordinates": [-2.743574671281749, 54.33162174116949]}},
{"type": "Feature", "id": "PxVre-R_BF2d3TQ3thdtTLC1BPU=", "properties": {"ref": "https://store.homebase.co.uk/#15166912", "@spider": "homebase", "shop": "doityourself", "addr:street_address": "Syon Lane", "addr:postcode": "TW7 5QE", "addr:country": "GB", "name": "Homebase Brentford", "phone": "0345 640 7045", "website": "https://store.homebase.co.uk/isleworth/syon-lane", "opening_hours": "Mo-Sa 09:00-18:00; Su 10:00-16:00", "image": "https://dynl.mktgcdn.com/p/twWOW6ihBAvfeu_u8_YK6EsqpItwfxEKiZExP5-v9vo/600x400.jpg", "brand": "Homebase", "brand:wikidata": "Q9293447", "nsi_id": "homebase-0c42e1"}, "geometry": {"type": "Point", "coordinates": [-0.325366, 51.4829885]}},
{"type": "Feature", "id": "5w3h7iKYuBLmPitbBoke2YHc5kw=", "properties": {"ref": "https://store.homebase.co.uk/#23552215", "@spider": "homebase", "shop": "doityourself", "addr:street_address": "1-3 Beardmore Park, Martlesham Heath", "addr:city": "Ipswich Martlesham", "addr:postcode": "IP5 3RX", "addr:country": "GB", "name": "Garden by Homebase at Next - Ipswich", "phone": "+443456407650", "website": "https://store.homebase.co.uk/ipswich/1-3-beardmore-park-martlesham-heath", "image": "https://dynl.mktgcdn.com/p/McBd1z1vDSBOD2CNDcBDhVWh3MsQPfmrIDr8gZ_KEm0/619x408.jpg", "brand": "Homebase", "brand:wikidata": "Q9293447", "nsi_id": "homebase-0c42e1"}, "geometry": {"type": "Point", "coordinates": [1.278182095262248, 52.06498690726423]}},
{"type": "Feature", "id": "YKoW144IZBJFpbjU4NRYQ3Mkv8g=", "properties": {"ref": "https://store.homebase.co.uk/#15166797", "@spider": "homebase", "shop": "doityourself", "addr:street_address": "Unit 2, Inverurie Retail Park Oldmeldrum Road, Aberdeenshire", "addr:postcode": "AB51 0GZ", "addr:country": "GB", "name": "Homebase Inverurie", "phone": "0345 640 7892", "website": "https://store.homebase.co.uk/inverurie/unit-2-inverurie-retail-park", "opening_hours": "Mo-Fr 09:00-20:00; Sa-Su 09:00-18:00", "image": "https://dynl.mktgcdn.com/p/twWOW6ihBAvfeu_u8_YK6EsqpItwfxEKiZExP5-v9vo/600x400.jpg", "brand": "Homebase", "brand:wikidata": "Q9293447", "nsi_id": "homebase-0c42e1"}, "geometry": {"type": "Point", "coordinates": [-2.3720377, 57.2871404]}},
{"type": "Feature", "id": "TG1nfNhDlSv3oqzx90rLVyaHPBg=", "properties": {"ref": "https://store.homebase.co.uk/#15166860", "@spider": "homebase", "shop": "doityourself", "addr:street_address": "Stukeley Road", "addr:postcode": "PE29 6DA", "addr:country": "GB", "name": "Homebase Huntingdon", "phone": "0345 640 7451", "website": "https://store.homebase.co.uk/huntingdon/stukeley-road", "opening_hours": "Mo-Sa 09:00-18:00; Su 10:00-16:00", "image": "https://dynl.mktgcdn.com/p/twWOW6ihBAvfeu_u8_YK6EsqpItwfxEKiZExP5-v9vo/600x400.jpg", "brand": "Homebase", "brand:wikidata": "Q9293447", "nsi_id": "homebase-0c42e1"}, "geometry": {"type": "Point", "coordinates": [-0.1922720785859, 52.339715619763105]}},
{"type": "Feature", "id": "gHYjYI8kRNcxOtra_MQZknKA9XM=", "properties": {"ref": "https://store.homebase.co.uk/#15166808", "@spider": "homebase", "shop": "doityourself", "addr:street_address": "Sainsbury Way Hessle", "addr:postcode": "HU13 9NT", "addr:country": "GB", "name": "Homebase Hull", "phone": "0345 640 7019", "website": "https://store.homebase.co.uk/hull/sainsbury-way", "opening_hours": "Mo-Sa 09:00-18:00; Su 10:00-16:00", "image": "https://dynl.mktgcdn.com/p/RJKoV7LI5QxTFraoya1oi1KdbntGkTM65u6B4b7zRO0/600x400.jpg", "brand": "Homebase", "brand:wikidata": "Q9293447", "nsi_id": "homebase-0c42e1"}, "geometry": {"type": "Point", "coordinates": [-0.4200895361560031, 53.722680458234706]}},
{"type": "Feature", "id": "MS4NwYimJ1rS2JdJHxaGVsJ9UHU=", "properties": {"ref": "https://store.homebase.co.uk/#15167004", "@spider": "homebase", "shop": "doityourself", "addr:street_address": "182 Old Shoreham Rd", "addr:postcode": "BN3 7EX", "addr:country": "GB", "name": "Homebase Hove", "phone": "0345 640 7076", "website": "https://store.homebase.co.uk/hove/182-old-shoreham-rd", "opening_hours": "Mo-Sa 09:00-18:00; Su 10:00-16:00", "image": "https://dynl.mktgcdn.com/p/twWOW6ihBAvfeu_u8_YK6EsqpItwfxEKiZExP5-v9vo/600x400.jpg", "brand": "Homebase", "brand:wikidata": "Q9293447", "nsi_id": "homebase-0c42e1"}, "geometry": {"type": "Point", "coordinates": [-0.1799967, 50.8386924]}},
{"type": "Feature", "id": "9kTQ10K8bWvhYhzi1hSLmjiFrcM=", "properties": {"ref": "https://store.homebase.co.uk/#15166830", "@spider": "homebase", "shop": "doityourself", "addr:street_address": "Broadbridge Heath Retail Park Broadbridge Heath", "addr:postcode": "RH12 3TQ", "addr:country": "GB", "name": "Homebase Horsham", "phone": "0345 640 7471", "website": "https://store.homebase.co.uk/horsham/broadbridge-heath-retail-park", "opening_hours": "Mo-Sa 09:00-19:00; Su 10:00-16:00", "image": "https://dynl.mktgcdn.com/p/twWOW6ihBAvfeu_u8_YK6EsqpItwfxEKiZExP5-v9vo/600x400.jpg", "brand": "Homebase", "brand:wikidata": "Q9293447", "nsi_id": "homebase-0c42e1"}, "geometry": {"type": "Point", "coordinates": [-0.3555095, 51.0676649]}},
{"type": "Feature", "id": "JD5SOOtaLOM9PSHiFo_Mx4MzKe8=", "properties": {"ref": "https://store.homebase.co.uk/#15166939", "@spider": "homebase", "shop": "doityourself", "addr:street_address": "Heath Retail Park Gloucester Crescent", "addr:postcode": "EX14 1DB", "addr:country": "GB", "name": "Homebase Honiton", "phone": "0345 640 7262", "website": "https://store.homebase.co.uk/honiton/heath-retail-park", "opening_hours": "Mo-Sa 09:00-18:00; Su 10:00-16:00", "image": "https://dynl.mktgcdn.com/p/twWOW6ihBAvfeu_u8_YK6EsqpItwfxEKiZExP5-v9vo/600x400.jpg", "brand": "Homebase", "brand:wikidata": "Q9293447", "nsi_id": "homebase-0c42e1"}, "geometry": {"type": "Point", "coordinates": [-3.2074424015510203, 50.7930672960382]}},
{"type": "Feature", "id": "4DJ47DrlM7bEvSvBuFPupFevw4k=", "properties": {"ref": "https://store.homebase.co.uk/#15166872", "@spider": "homebase", "shop": "doityourself", "addr:street_address": "Knaves Beech Business Centre Loudwater", "addr:postcode": "HP10 9QR", "addr:country": "GB", "name": "Homebase High Wycombe Loudwater", "phone": "0345 640 7537", "website": "https://store.homebase.co.uk/high-wycombe/knaves-beech-business-centre", "opening_hours": "Mo-Sa 09:00-18:00; Su 10:00-16:00", "image": "https://dynl.mktgcdn.com/p/twWOW6ihBAvfeu_u8_YK6EsqpItwfxEKiZExP5-v9vo/600x400.jpg", "brand": "Homebase", "brand:wikidata": "Q9293447", "nsi_id": "homebase-0c42e1"}, "geometry": {"type": "Point", "coordinates": [-0.6920098134918362, 51.60210037377798]}},
{"type": "Feature", "id": "3ZeJjPLSapkX864ZccS6h-aFhU0=", "properties": {"ref": "https://store.homebase.co.uk/#30750015", "@spider": "homebase", "shop": "doityourself", "addr:street_address": "Crest Rd", "addr:postcode": "HP11 1UA", "addr:country": "GB", "name": "Garden by Homebase at Next - High Wycombe", "phone": "+443456407537", "website": "https://store.homebase.co.uk/high-wycombe/crest-rd", "image": "https://dynl.mktgcdn.com/p/McBd1z1vDSBOD2CNDcBDhVWh3MsQPfmrIDr8gZ_KEm0/619x408.jpg", "brand": "Homebase", "brand:wikidata": "Q9293447", "nsi_id": "homebase-0c42e1"}, "geometry": {"type": "Point", "coordinates": [-0.773563544025273, 51.61314342269639]}},
{"type": "Feature", "id": "2y51ZrrpLt4iHzi46rYIXVb-6z0=", "properties": {"ref": "https://store.homebase.co.uk/#15166825", "@spider": "homebase", "shop": "doityourself", "addr:street_address": "Unit 1 Tyne Valley Retail Park, Station Road", "addr:postcode": "NE46 1EZ", "addr:country": "GB", "name": "Homebase Hexham", "phone": "0345 640 7894", "website": "https://store.homebase.co.uk/hexham/unit-1", "opening_hours": "Mo-Sa 09:00-18:00; Su 10:00-16:00", "image": "https://dynl.mktgcdn.com/p/twWOW6ihBAvfeu_u8_YK6EsqpItwfxEKiZExP5-v9vo/600x400.jpg", "brand": "Homebase", "brand:wikidata": "Q9293447", "nsi_id": "homebase-0c42e1"}, "geometry": {"type": "Point", "coordinates": [-2.0931668385411513, 54.97218737321844]}},
{"type": "Feature", "id": "-7Zk39-VsHpdy62eG5ldiGdGqU4=", "properties": {"ref": "https://store.homebase.co.uk/#15166779", "@spider": "homebase", "shop": "doityourself", "addr:street_address": "Eddington Business Park Eddington Way", "addr:postcode": "CT6 5UJ", "addr:country": "GB", "name": "Homebase Herne Bay", "phone": "0345 640 7571", "website": "https://store.homebase.co.uk/herne-bay/eddington-business-park", "opening_hours": "Mo-Sa 09:00-18:00; Su 10:00-16:00", "image": "https://dynl.mktgcdn.com/p/twWOW6ihBAvfeu_u8_YK6EsqpItwfxEKiZExP5-v9vo/600x400.jpg", "brand": "Homebase", "brand:wikidata": "Q9293447", "nsi_id": "homebase-0c42e1"}, "geometry": {"type": "Point", "coordinates": [1.1218192400199314, 51.3620277647281]}},
{"type": "Feature", "id": "flI0aO_NP6brAhe_w22GKGiseM0=", "properties": {"ref": "https://store.homebase.co.uk/#15166789", "@spider": "homebase", "shop": "doityourself", "addr:street_address": "Springfield Retail Park Fishguard Road", "addr:postcode": "SA61 2PY", "addr:country": "GB", "name": "Homebase Haverfordwest", "phone": "0345 640 7881", "website": "https://store.homebase.co.uk/haverfordwest/springfield-retail-park", "opening_hours": "Mo-Sa 09:00-18:00; Su 10:00-16:00", "image": "https://dynl.mktgcdn.com/p/RJKoV7LI5QxTFraoya1oi1KdbntGkTM65u6B4b7zRO0/600x400.jpg", "brand": "Homebase", "brand:wikidata": "Q9293447", "nsi_id": "homebase-0c42e1"}, "geometry": {"type": "Point", "coordinates": [-4.963877132268408, 51.81493342504151]}},
{"type": "Feature", "id": "ebF__UUPVCV1KF1zR8a4CGzyjnA=", "properties": {"ref": "https://store.homebase.co.uk/#15166859", "@spider": "homebase", "shop": "doityourself", "addr:street_address": "Plumpton Park", "addr:postcode": "HG2 7LD", "addr:country": "GB", "name": "Homebase Harrogate", "phone": "0345 640 7450", "website": "https://store.homebase.co.uk/harrogate/plumpton-park", "opening_hours": "Mo-Fr 09:00-19:00; Sa 09:00-18:00; Su 10:00-16:00", "image": "https://dynl.mktgcdn.com/p/twWOW6ihBAvfeu_u8_YK6EsqpItwfxEKiZExP5-v9vo/600x400.jpg", "brand": "Homebase", "brand:wikidata": "Q9293447", "nsi_id": "homebase-0c42e1"}, "geometry": {"type": "Point", "coordinates": [-1.4964814576721892, 53.9936980630004]}},
{"type": "Feature", "id": "EqcjYRHFKAY2vJfw_sfqOpOJ79Y=", "properties": {"ref": "https://store.homebase.co.uk/#15166898", "@spider": "homebase", "shop": "doityourself", "addr:street_address": "Edinburgh Way", "addr:postcode": "CM20 2TN", "addr:country": "GB", "name": "Homebase Harlow (including Bathstore)", "phone": "0345 640 7802", "website": "https://store.homebase.co.uk/harlow/edinburgh-way", "opening_hours": "Mo-Sa 09:00-18:00; Su 10:00-16:00", "image": "https://dynl.mktgcdn.com/p/twWOW6ihBAvfeu_u8_YK6EsqpItwfxEKiZExP5-v9vo/600x400.jpg", "brand": "Homebase", "brand:wikidata": "Q9293447", "nsi_id": "homebase-0c42e1"}, "geometry": {"type": "Point", "coordinates": [0.111366, 51.785379]}},
{"type": "Feature", "id": "zEm20Tww2PJPMosvwihtIWRrIu4=", "properties": {"ref": "https://store.homebase.co.uk/#15166831", "@spider": "homebase", "shop": "doityourself", "addr:street_address": "Unit 10 Palace Grounds Road", "addr:postcode": "ML3 6AD", "addr:country": "GB", "name": "Homebase Hamilton", "phone": "0345 640 7592", "website": "https://store.homebase.co.uk/hamilton/unit-10-palace-grounds-road", "opening_hours": "Mo-Fr 09:00-20:00; Sa-Su 09:00-18:00", "image": "https://dynl.mktgcdn.com/p/twWOW6ihBAvfeu_u8_YK6EsqpItwfxEKiZExP5-v9vo/600x400.jpg", "brand": "Homebase", "brand:wikidata": "Q9293447", "nsi_id": "homebase-0c42e1"}, "geometry": {"type": "Point", "coordinates": [-4.027113033509295, 55.779680555401534]}},
{"type": "Feature", "id": "ZI69dr8nkpEh_N2kEMb0VC6voak=", "properties": {"ref": "https://store.homebase.co.uk/#17185492", "@spider": "homebase", "shop": "doityourself", "addr:street_address": "Cavendish House Sydenham Road", "addr:postcode": "GU1 3RX", "addr:country": "GB", "name": "Kitchens by Homebase - Guildford", "phone": "01483 906384", "website": "https://store.homebase.co.uk/guildford/cavendish-house", "opening_hours": "Mo-Sa 09:00-18:00; Su 10:00-16:00", "image": "https://dynl.mktgcdn.com/p/LLulPxjgQHIDknz6Z3boKhWG_3tRQ0UZWQcmnl4AzSE/1980x1320.jpg", "brand": "Homebase", "brand:wikidata": "Q9293447", "nsi_id": "homebase-0c42e1"}, "geometry": {"type": "Point", "coordinates": [-0.5697272, 51.2357286]}},
{"type": "Feature", "id": "99aEpspOtT9x0jb-ZKDztheeu5Q=", "properties": {"ref": "https://store.homebase.co.uk/#15166781", "@spider": "homebase", "shop": "doityourself", "addr:street_address": "1 Woolsack Way", "addr:postcode": "GU7 1DR", "addr:country": "GB", "name": "Homebase Godalming", "phone": "0345 640 7305", "website": "https://store.homebase.co.uk/godalming/1-woolsack-way", "opening_hours": "Mo-Sa 09:00-18:00; Su 10:00-16:00", "image": "https://dynl.mktgcdn.com/p/twWOW6ihBAvfeu_u8_YK6EsqpItwfxEKiZExP5-v9vo/600x400.jpg", "brand": "Homebase", "brand:wikidata": "Q9293447", "nsi_id": "homebase-0c42e1"}, "geometry": {"type": "Point", "coordinates": [-0.6075504, 51.1871905]}},
{"type": "Feature", "id": "2eJVEWkGFvo3RSyCeN-JxGbaVlY=", "properties": {"ref": "https://store.homebase.co.uk/#15166916", "@spider": "homebase", "shop": "doityourself", "addr:street_address": "Eastbrook Rd", "addr:postcode": "GL4 3DB", "addr:country": "GB", "name": "Homebase Gloucester", "phone": "0345 640 7135", "website": "https://store.homebase.co.uk/gloucester/eastbrook-rd", "opening_hours": "Mo-Sa 09:00-18:00; Su 10:00-16:00", "image": "https://dynl.mktgcdn.com/p/twWOW6ihBAvfeu_u8_YK6EsqpItwfxEKiZExP5-v9vo/600x400.jpg", "brand": "Homebase", "brand:wikidata": "Q9293447", "nsi_id": "homebase-0c42e1"}, "geometry": {"type": "Point", "coordinates": [-2.2184345, 51.8575213]}},
{"type": "Feature", "id": "O9oq7D9XpiFqiof5m2NoqoKa8Yo=", "properties": {"ref": "https://store.homebase.co.uk/#15167013", "@spider": "homebase", "shop": "doityourself", "addr:street_address": "Saltire Retail Park Pentland Park", "addr:postcode": "KY6 2AL", "addr:country": "GB", "name": "Homebase Glenrothes", "phone": "0345 640 7624", "website": "https://store.homebase.co.uk/glenrothes/saltire-retail-park", "opening_hours": "Mo-Su 09:00-18:00", "image": "https://dynl.mktgcdn.com/p/RJKoV7LI5QxTFraoya1oi1KdbntGkTM65u6B4b7zRO0/600x400.jpg", "brand": "Homebase", "brand:wikidata": "Q9293447", "nsi_id": "homebase-0c42e1"}, "geometry": {"type": "Point", "coordinates": [-3.1878392766691377, 56.18784591011867]}},
{"type": "Feature", "id": "PM9UgpBjbn4X2DERLMooTOAkXEw=", "properties": {"ref": "https://store.homebase.co.uk/#15167028", "@spider": "homebase", "shop": "doityourself", "addr:street_address": "Auldhouse Retail Park Cogan Street", "addr:postcode": "G43 1AP", "addr:country": "GB", "name": "Homebase Glasgow Pollokshaws", "phone": "0345 640 7293", "website": "https://store.homebase.co.uk/glasgow/auldhouse-retail-park", "opening_hours": "Mo-Su 09:00-18:00", "image": "https://dynl.mktgcdn.com/p/twWOW6ihBAvfeu_u8_YK6EsqpItwfxEKiZExP5-v9vo/600x400.jpg", "brand": "Homebase", "brand:wikidata": "Q9293447", "nsi_id": "homebase-0c42e1"}, "geometry": {"type": "Point", "coordinates": [-4.2981793, 55.8202741]}},
{"type": "Feature", "id": "Oacn1FhsItY9lBLx055iaMq9bjk=", "properties": {"ref": "https://store.homebase.co.uk/#15166856", "@spider": "homebase", "shop": "doityourself", "addr:street_address": "Retail World Team Valley Retail World, Tenth Avenue West", "addr:postcode": "NE11 0BD", "addr:country": "GB", "name": "Homebase Gateshead", "phone": "0345 640 7219", "website": "https://store.homebase.co.uk/gateshead/retail-world", "opening_hours": "Mo-Fr 09:00-19:00; Sa 09:00-18:00; Su 10:00-16:00", "image": "https://dynl.mktgcdn.com/p/RJKoV7LI5QxTFraoya1oi1KdbntGkTM65u6B4b7zRO0/600x400.jpg", "brand": "Homebase", "brand:wikidata": "Q9293447", "nsi_id": "homebase-0c42e1"}, "geometry": {"type": "Point", "coordinates": [-1.6173137133013142, 54.922341074380874]}},
{"type": "Feature", "id": "r0LmyuaPqz4tUB0YslkBz3fHQfk=", "properties": {"ref": "https://store.homebase.co.uk/#15166877", "@spider": "homebase", "shop": "doityourself", "addr:street_address": "Wessex Fields", "addr:postcode": "BA11 4DH", "addr:country": "GB", "name": "Homebase Frome", "phone": "0345 640 7591", "website": "https://store.homebase.co.uk/frome/wessex-fields", "opening_hours": "Mo-Sa 09:00-18:00; Su 10:00-16:00", "image": "https://dynl.mktgcdn.com/p/twWOW6ihBAvfeu_u8_YK6EsqpItwfxEKiZExP5-v9vo/600x400.jpg", "brand": "Homebase", "brand:wikidata": "Q9293447", "nsi_id": "homebase-0c42e1"}, "geometry": {"type": "Point", "coordinates": [-2.332560734428057, 51.21773139120158]}},
{"type": "Feature", "id": "UUYrHrJjuvR_-f8vBQfAlxUnpZk=", "properties": {"ref": "https://store.homebase.co.uk/#15166822", "@spider": "homebase", "shop": "doityourself", "addr:street_address": "Park Farm Road", "addr:postcode": "CT19 5FJ", "addr:country": "GB", "name": "Homebase Folkestone", "phone": "0345 646 3834", "website": "https://store.homebase.co.uk/folkestone/park-farm-road", "opening_hours": "Mo-Sa 09:00-18:00; Su 10:00-16:00", "image": "https://dynl.mktgcdn.com/p/twWOW6ihBAvfeu_u8_YK6EsqpItwfxEKiZExP5-v9vo/600x400.jpg", "brand": "Homebase", "brand:wikidata": "Q9293447", "nsi_id": "homebase-0c42e1"}, "geometry": {"type": "Point", "coordinates": [1.1694203, 51.0962663]}},
{"type": "Feature", "id": "Kn3VYTvDmFhufE8CAsTTcpItqmg=", "properties": {"ref": "https://store.homebase.co.uk/#15166770", "@spider": "homebase", "shop": "doityourself", "addr:street_address": "Great Eastern Square", "addr:postcode": "IP11 7DY", "addr:country": "GB", "name": "Homebase Felixstowe", "phone": "0345 640 7650", "website": "https://store.homebase.co.uk/felixstowe/great-eastern-square", "opening_hours": "Mo-Sa 09:00-18:00; Su 10:00-16:00", "image": "https://dynl.mktgcdn.com/p/twWOW6ihBAvfeu_u8_YK6EsqpItwfxEKiZExP5-v9vo/600x400.jpg", "brand": "Homebase", "brand:wikidata": "Q9293447", "nsi_id": "homebase-0c42e1"}, "geometry": {"type": "Point", "coordinates": [1.34991, 51.966786]}},
{"type": "Feature", "id": "nGqDle7bI3tk_VzWUywlt6D3rNE=", "properties": {"ref": "https://store.homebase.co.uk/#15167025", "@spider": "homebase", "shop": "doityourself", "addr:street_address": "Guildford Road", "addr:postcode": "GU9 9QJ", "addr:country": "GB", "name": "Homebase Farnham", "phone": "0345 640 7290", "website": "https://store.homebase.co.uk/farnham/guildford-road", "opening_hours": "Mo-Sa 09:00-18:00; Su 10:00-16:00", "image": "https://dynl.mktgcdn.com/p/twWOW6ihBAvfeu_u8_YK6EsqpItwfxEKiZExP5-v9vo/600x400.jpg", "brand": "Homebase", "brand:wikidata": "Q9293447", "nsi_id": "homebase-0c42e1"}, "geometry": {"type": "Point", "coordinates": [-0.7831733, 51.2180249]}},
{"type": "Feature", "id": "IXToneQY8gjJsEah_7U012D_2N8=", "properties": {"ref": "https://store.homebase.co.uk/#15166793", "@spider": "homebase", "shop": "doityourself", "addr:street_address": "Newgate Lane Collingwood Retail Park", "addr:postcode": "PO14 1AN", "addr:country": "GB", "name": "Homebase Fareham", "phone": "0345 640 7547", "website": "https://store.homebase.co.uk/fareham/newgate-lane", "opening_hours": "Mo-Sa 09:00-18:00; Su 10:00-16:00", "image": "https://dynl.mktgcdn.com/p/twWOW6ihBAvfeu_u8_YK6EsqpItwfxEKiZExP5-v9vo/600x400.jpg", "brand": "Homebase", "brand:wikidata": "Q9293447", "nsi_id": "homebase-0c42e1"}, "geometry": {"type": "Point", "coordinates": [-1.185342, 50.837667]}},
{"type": "Feature", "id": "wZut4MA9Zb-vSXzP7NMBjQe6-ik=", "properties": {"ref": "https://store.homebase.co.uk/#15166971", "@spider": "homebase", "shop": "doityourself", "addr:street_address": "23 Reigate Road Ewell", "addr:postcode": "KT17 1PE", "addr:country": "GB", "name": "Homebase Ewell", "phone": "0345 640 7127", "website": "https://store.homebase.co.uk/epsom/23-reigate-road", "opening_hours": "Mo-Sa 09:00-18:00; Su 10:00-16:00", "image": "https://dynl.mktgcdn.com/p/twWOW6ihBAvfeu_u8_YK6EsqpItwfxEKiZExP5-v9vo/600x400.jpg", "brand": "Homebase", "brand:wikidata": "Q9293447", "nsi_id": "homebase-0c42e1"}, "geometry": {"type": "Point", "coordinates": [-0.2471518, 51.3463042]}},
{"type": "Feature", "id": "HZI9oP-oX648tYDZspWzP_ZcvUc=", "properties": {"ref": "https://store.homebase.co.uk/#15166960", "@spider": "homebase", "shop": "doityourself", "addr:street_address": "36 South Groathill Avenue Craigleith Retail Park", "addr:city": "Edinburgh Blackhall", "addr:postcode": "EH4 2LN", "addr:country": "GB", "name": "Homebase Edinburgh Craigleith", "phone": "0345 640 7120", "website": "https://store.homebase.co.uk/edinburgh/36-south-groathill-avenue", "opening_hours": "Mo-Fr 09:00-20:00; Sa-Su 09:00-18:00", "image": "https://dynl.mktgcdn.com/p/twWOW6ihBAvfeu_u8_YK6EsqpItwfxEKiZExP5-v9vo/600x400.jpg", "brand": "Homebase", "brand:wikidata": "Q9293447", "nsi_id": "homebase-0c42e1"}, "geometry": {"type": "Point", "coordinates": [-3.241707473379847, 55.959683730463055]}},
{"type": "Feature", "id": "H-Kp-5hH41hhidrdscWPLFQQ6_s=", "properties": {"ref": "https://store.homebase.co.uk/#15166943", "@spider": "homebase", "shop": "doityourself", "addr:street_address": "27 Lottridge Drove", "addr:postcode": "BN23 6QD", "addr:country": "GB", "name": "Homebase Eastbourne", "phone": "0345 640 7126", "website": "https://store.homebase.co.uk/eastbourne/27-lottridge-drove", "opening_hours": "Mo-Sa 09:00-18:00; Su 10:00-16:00", "image": "https://dynl.mktgcdn.com/p/twWOW6ihBAvfeu_u8_YK6EsqpItwfxEKiZExP5-v9vo/600x400.jpg", "brand": "Homebase", "brand:wikidata": "Q9293447", "nsi_id": "homebase-0c42e1"}, "geometry": {"type": "Point", "coordinates": [0.3020707, 50.786703]}},
{"type": "Feature", "id": "yeGkweSFvHJk0rqm1b7LrCbvoX0=", "properties": {"ref": "https://store.homebase.co.uk/#15166823", "@spider": "homebase", "shop": "doityourself", "addr:street_address": "219-223 London Rd", "addr:postcode": "RH19 1HA", "addr:country": "GB", "name": "Homebase East Grinstead", "phone": "0345 640 7587", "website": "https://store.homebase.co.uk/east-grinstead/219-223-london-rd", "opening_hours": "Mo-Sa 09:00-18:00; Su 10:00-16:00", "image": "https://dynl.mktgcdn.com/p/twWOW6ihBAvfeu_u8_YK6EsqpItwfxEKiZExP5-v9vo/600x400.jpg", "brand": "Homebase", "brand:wikidata": "Q9293447", "nsi_id": "homebase-0c42e1"}, "geometry": {"type": "Point", "coordinates": [-0.0172731, 51.1305023]}},
{"type": "Feature", "id": "r8VM8XJeZAEgg6UDmDomi_DfOqE=", "properties": {"ref": "https://store.homebase.co.uk/#15166776", "@spider": "homebase", "shop": "doityourself", "addr:street_address": "Yaxham Rd", "addr:postcode": "NR19 1HB", "addr:country": "GB", "name": "Homebase East Dereham", "phone": "0345 640 7546", "website": "https://store.homebase.co.uk/east-dereham/yaxham-rd", "opening_hours": "Mo-Sa 09:00-18:00; Su 10:00-16:00", "image": "https://dynl.mktgcdn.com/p/RJKoV7LI5QxTFraoya1oi1KdbntGkTM65u6B4b7zRO0/600x400.jpg", "brand": "Homebase", "brand:wikidata": "Q9293447", "nsi_id": "homebase-0c42e1"}, "geometry": {"type": "Point", "coordinates": [0.9458399914017264, 52.67417023111639]}},
{"type": "Feature", "id": "l8a0yFfJGVyGQqOpeaDxD_E2vG8=", "properties": {"ref": "https://store.homebase.co.uk/#15166813", "@spider": "homebase", "shop": "doityourself", "addr:street_address": "Halbeath Retail Park Halbeath Rd", "addr:postcode": "KY11 4LP", "addr:country": "GB", "name": "Homebase Dunfermline", "phone": "0345 640 7472", "website": "https://store.homebase.co.uk/dunfermline/halbeath-retail-park", "opening_hours": "Mo-Fr 09:00-20:00; Sa-Su 09:00-18:00", "image": "https://dynl.mktgcdn.com/p/twWOW6ihBAvfeu_u8_YK6EsqpItwfxEKiZExP5-v9vo/600x400.jpg", "brand": "Homebase", "brand:wikidata": "Q9293447", "nsi_id": "homebase-0c42e1"}, "geometry": {"type": "Point", "coordinates": [-3.4103982, 56.0813398]}},
{"type": "Feature", "id": "gq5pklFdz05uX0uBw_X4gXh5wgU=", "properties": {"ref": "https://store.homebase.co.uk/#15166987", "@spider": "homebase", "shop": "doityourself", "addr:street_address": "Unit 1, Cuckoo Bridge Retail Park Glasgow Road", "addr:postcode": "DG2 9BF", "addr:country": "GB", "name": "Homebase Dumfries", "phone": "0345 640 7175", "website": "https://store.homebase.co.uk/dumfries/unit-1-cuckoo-bridge-retail-park", "opening_hours": "Mo-Fr 09:00-19:00; Sa-Su 09:00-18:00", "image": "https://dynl.mktgcdn.com/p/twWOW6ihBAvfeu_u8_YK6EsqpItwfxEKiZExP5-v9vo/600x400.jpg", "brand": "Homebase", "brand:wikidata": "Q9293447", "nsi_id": "homebase-0c42e1"}, "geometry": {"type": "Point", "coordinates": [-3.6257438, 55.0763621]}},
{"type": "Feature", "id": "oQXvHOEbkT2mLiT7tgf5LTcOBIs=", "properties": {"ref": "https://store.homebase.co.uk/#15167007", "@spider": "homebase", "shop": "doityourself", "addr:street_address": "Unit 7, Nutgrove Retail Park Nutgrove Avenue", "addr:country": "GB", "name": "Homebase Dublin Nutgrove", "phone": "(01) 491 6077", "website": "https://store.homebase.co.uk/dublin/unit-7-nutgrove-retail-park", "opening_hours": "Mo-We 09:00-19:00; Th 09:00-20:00; Fr-Sa 09:00-19:00; Su 09:00-18:00", "image": "https://dynl.mktgcdn.com/p/twWOW6ihBAvfeu_u8_YK6EsqpItwfxEKiZExP5-v9vo/600x400.jpg", "brand": "Homebase", "brand:wikidata": "Q9293447", "nsi_id": "homebase-0c42e1"}, "geometry": {"type": "Point", "coordinates": [-6.26800125702573, 53.29240813682181]}},
{"type": "Feature", "id": "5_e4RRbJ_zChNUUXibRYDg34QR8=", "properties": {"ref": "https://store.homebase.co.uk/#15166774", "@spider": "homebase", "shop": "doityourself", "addr:street_address": "Royal Liver Assurance Retail Park Old Naas Rd", "addr:country": "GB", "name": "Homebase Dublin Naas Road", "phone": "(01) 456 9044", "website": "https://store.homebase.co.uk/dublin/royal-liver-assurance-retail-park", "image": "https://dynl.mktgcdn.com/p/twWOW6ihBAvfeu_u8_YK6EsqpItwfxEKiZExP5-v9vo/600x400.jpg", "brand": "Homebase", "brand:wikidata": "Q9293447", "nsi_id": "homebase-0c42e1"}, "geometry": {"type": "Point", "coordinates": [-6.34266894175903, 53.32828419299535]}},
{"type": "Feature", "id": "tN-91W4glmNX_fwb8bnhGTSVFqI=", "properties": {"ref": "https://store.homebase.co.uk/#15166977", "@spider": "homebase", "shop": "doityourself", "addr:street_address": "Drogheda Retail Park Donore Road", "addr:postcode": "A92 V189", "addr:country": "GB", "name": "Homebase Drogheda", "phone": "(041) 987 4418", "website": "https://store.homebase.co.uk/drogheda/drogheda-retail-park", "opening_hours": "Mo-Sa 09:00-18:00; Su 10:00-18:00", "image": "https://dynl.mktgcdn.com/p/RJKoV7LI5QxTFraoya1oi1KdbntGkTM65u6B4b7zRO0/600x400.jpg", "brand": "Homebase", "brand:wikidata": "Q9293447", "nsi_id": "homebase-0c42e1"}, "geometry": {"type": "Point", "coordinates": [-6.38041216041529, 53.70202423598592]}},
{"type": "Feature", "id": "kf-rxCdIheS1PWaraV15LRn_hb8=", "properties": {"ref": "https://store.homebase.co.uk/#15166814", "@spider": "homebase", "shop": "doityourself", "addr:street_address": "Wyvern Retail Park Sidings Wyvern Way", "addr:postcode": "DE21 6NZ", "addr:country": "GB", "name": "Homebase Derby Chaddesden (including Bathstore)", "phone": "0345 640 7475", "website": "https://store.homebase.co.uk/derby/wyvern-retail-park-sidings", "opening_hours": "Mo-Sa 09:00-19:00; Su 10:00-16:00", "image": "https://dynl.mktgcdn.com/p/RJKoV7LI5QxTFraoya1oi1KdbntGkTM65u6B4b7zRO0/600x400.jpg", "brand": "Homebase", "brand:wikidata": "Q9293447", "nsi_id": "homebase-0c42e1"}, "geometry": {"type": "Point", "coordinates": [-1.4355056807657032, 52.917016548478]}},
{"type": "Feature", "id": "9BK5Exp8ANep6fiXiYCCnEUNMdM=", "properties": {"ref": "https://store.homebase.co.uk/#15166897", "@spider": "homebase", "shop": "doityourself", "addr:street_address": "Kingsway", "addr:postcode": "DE22 3FA", "addr:country": "GB", "name": "Homebase Derby Kingsway", "phone": "0345 640 7042", "website": "https://store.homebase.co.uk/derby/kingsway", "opening_hours": "Mo-Sa 09:00-19:00; Su 10:00-16:00", "image": "https://dynl.mktgcdn.com/p/RJKoV7LI5QxTFraoya1oi1KdbntGkTM65u6B4b7zRO0/600x400.jpg", "brand": "Homebase", "brand:wikidata": "Q9293447", "nsi_id": "homebase-0c42e1"}, "geometry": {"type": "Point", "coordinates": [-1.5088282532246922, 52.92112594583321]}},
{"type": "Feature", "id": "1iU6WwNConFn33XLzd8Kocw2750=", "properties": {"ref": "https://store.homebase.co.uk/#15166787", "@spider": "homebase", "shop": "doityourself", "addr:street_address": "Abby Retail Park Welton Road", "addr:postcode": "NN11 4GL", "addr:country": "GB", "name": "Homebase Daventry", "phone": "0345 640 7889", "website": "https://store.homebase.co.uk/daventry/abby-retail-park", "opening_hours": "Mo-Sa 09:00-19:00; Su 10:00-16:00", "image": "https://dynl.mktgcdn.com/p/RJKoV7LI5QxTFraoya1oi1KdbntGkTM65u6B4b7zRO0/600x400.jpg", "brand": "Homebase", "brand:wikidata": "Q9293447", "nsi_id": "homebase-0c42e1"}, "geometry": {"type": "Point", "coordinates": [-1.1576123, 52.2600258]}},
{"type": "Feature", "id": "NNhCHX5pO-qcwSQHmKLI4n5WszE=", "properties": {"ref": "https://store.homebase.co.uk/#15166788", "@spider": "homebase", "shop": "doityourself", "addr:street_address": "Princes Road", "addr:postcode": "DA1 1LA", "addr:country": "GB", "name": "Homebase Dartford", "phone": "+443456407065", "website": "https://store.homebase.co.uk/dartford/princes-road", "image": "https://dynl.mktgcdn.com/p/twWOW6ihBAvfeu_u8_YK6EsqpItwfxEKiZExP5-v9vo/600x400.jpg", "brand": "Homebase", "brand:wikidata": "Q9293447", "nsi_id": "homebase-0c42e1"}, "geometry": {"type": "Point", "coordinates": [0.217682, 51.437444]}},
{"type": "Feature", "id": "4Aw3z61kppdLHO6A8f5mKoQktEk=", "properties": {"ref": "https://store.homebase.co.uk/#15167018", "@spider": "homebase", "shop": "doityourself", "addr:street_address": "Holt Road", "addr:postcode": "NR27 9JW", "addr:country": "GB", "name": "Homebase Cromer", "phone": "0345 640 7852", "website": "https://store.homebase.co.uk/cromer/holt-road", "opening_hours": "Mo-Sa 09:00-18:00; Su 10:00-16:00", "image": "https://dynl.mktgcdn.com/p/RJKoV7LI5QxTFraoya1oi1KdbntGkTM65u6B4b7zRO0/600x400.jpg", "brand": "Homebase", "brand:wikidata": "Q9293447", "nsi_id": "homebase-0c42e1"}, "geometry": {"type": "Point", "coordinates": [1.288417144966374, 52.9276133000121]}},
{"type": "Feature", "id": "QBQnlI4QGABKPpBRVbLTagyazvs=", "properties": {"ref": "https://store.homebase.co.uk/#15166769", "@spider": "homebase", "shop": "doityourself", "addr:street_address": "31 Rushmere Shopping Centre", "addr:postcode": "BT64 1AA", "addr:country": "GB", "name": "Homebase Craigavon", "phone": "0345 640 7675", "website": "https://store.homebase.co.uk/craigavon/31-rushmere-shopping-centre", "opening_hours": "Mo-Sa 09:00-18:00; Su 13:00-18:00", "image": "https://dynl.mktgcdn.com/p/twWOW6ihBAvfeu_u8_YK6EsqpItwfxEKiZExP5-v9vo/600x400.jpg", "brand": "Homebase", "brand:wikidata": "Q9293447", "nsi_id": "homebase-0c42e1"}, "geometry": {"type": "Point", "coordinates": [-6.3917895, 54.452458]}},
{"type": "Feature", "id": "wKn5ohSoVAL55YgC7UC5RE2tzUM=", "properties": {"ref": "https://store.homebase.co.uk/#29259784", "@spider": "homebase", "shop": "doityourself", "addr:street_address": "Unit H Gallagher Retail Park Stoney Stanton Rd", "addr:postcode": "CV6 5QG", "addr:country": "GB", "name": "Homebase Coventry", "phone": "0345 640 7021", "website": "https://store.homebase.co.uk/coventry/unit-h-gallagher-retail-park", "opening_hours": "Mo-Sa 09:00-19:00; Su 10:00-16:00", "image": "https://dynl.mktgcdn.com/p/rcBmBiUv49el0C24nm6dLMIRwYrw6HJ24h6cTDubNiw/600x400.jpg", "brand": "Homebase", "brand:wikidata": "Q9293447", "nsi_id": "homebase-0c42e1"}, "geometry": {"type": "Point", "coordinates": [-1.4903642, 52.4301588]}},
{"type": "Feature", "id": "u4koBQRYRQ_fZwQEoOC4-rHX-Fw=", "properties": {"ref": "https://store.homebase.co.uk/#15166958", "@spider": "homebase", "shop": "doityourself", "addr:street_address": "159 Sir Henry Parkes Rd Canley", "addr:postcode": "CV5 6BL", "addr:country": "GB", "name": "Homebase Coventry", "phone": "+443456407021", "website": "https://store.homebase.co.uk/coventry/159-sir-henry-parkes-rd", "image": "https://dynl.mktgcdn.com/p/twWOW6ihBAvfeu_u8_YK6EsqpItwfxEKiZExP5-v9vo/600x400.jpg", "brand": "Homebase", "brand:wikidata": "Q9293447", "nsi_id": "homebase-0c42e1"}, "geometry": {"type": "Point", "coordinates": [-1.5497311398443117, 52.392957796025065]}},
{"type": "Feature", "id": "7RqDBgBm3DpMI3Du0h7N0mKEZnk=", "properties": {"ref": "https://store.homebase.co.uk/#15166886", "@spider": "homebase", "shop": "doityourself", "addr:street_address": "Orritor Road", "addr:postcode": "BT80 8BH", "addr:country": "GB", "name": "Homebase Cookstown", "phone": "0345 640 7838", "website": "https://store.homebase.co.uk/cookstown/orritor-road", "opening_hours": "Mo-Sa 09:00-18:00; Su 13:00-18:00", "image": "https://dynl.mktgcdn.com/p/twWOW6ihBAvfeu_u8_YK6EsqpItwfxEKiZExP5-v9vo/600x400.jpg", "brand": "Homebase", "brand:wikidata": "Q9293447", "nsi_id": "homebase-0c42e1"}, "geometry": {"type": "Point", "coordinates": [-6.748856017196658, 54.64987268890403]}},
{"type": "Feature", "id": "w9jQWp0-Gm4LonvDKU6-QQ98AKg=", "properties": {"ref": "https://store.homebase.co.uk/#15166862", "@spider": "homebase", "shop": "doityourself", "addr:street_address": "Tollgate West Stanway", "addr:postcode": "CO3 8RH", "addr:country": "GB", "name": "Homebase Colchester Stanway", "phone": "0345 640 7157", "website": "https://store.homebase.co.uk/colchester/tollgate-west", "opening_hours": "Mo-Sa 09:00-18:00; Su 10:00-16:00", "image": "https://dynl.mktgcdn.com/p/twWOW6ihBAvfeu_u8_YK6EsqpItwfxEKiZExP5-v9vo/600x400.jpg", "brand": "Homebase", "brand:wikidata": "Q9293447", "nsi_id": "homebase-0c42e1"}, "geometry": {"type": "Point", "coordinates": [0.8298484, 51.8841758]}},
{"type": "Feature", "id": "xHrMyXJ2BburcFRtZUwoOaJfpcw=", "properties": {"ref": "https://store.homebase.co.uk/#15166775", "@spider": "homebase", "shop": "doityourself", "addr:street_address": "Queensway", "addr:postcode": "BB7 1AU", "addr:country": "GB", "name": "Homebase Clitheroe", "phone": "0345 640 7888", "website": "https://store.homebase.co.uk/clitheroe/queensway", "opening_hours": "Mo-Sa 09:00-18:00; Su 10:00-16:00", "image": "https://dynl.mktgcdn.com/p/twWOW6ihBAvfeu_u8_YK6EsqpItwfxEKiZExP5-v9vo/600x400.jpg", "brand": "Homebase", "brand:wikidata": "Q9293447", "nsi_id": "homebase-0c42e1"}, "geometry": {"type": "Point", "coordinates": [-2.391025747761887, 53.868807248817134]}},
{"type": "Feature", "id": "bsywchTm3jH8Xr4lhf6puUtrv34=", "properties": {"ref": "https://store.homebase.co.uk/#15166841", "@spider": "homebase", "shop": "doityourself", "addr:street_address": "1 Bailey Drive", "addr:postcode": "BH23 2BN", "addr:country": "GB", "name": "Homebase Christchurch", "phone": "0345 640 7115", "website": "https://store.homebase.co.uk/christchurch/1-bailey-drive", "opening_hours": "Mo-Sa 09:00-18:00; Su 10:00-16:00", "image": "https://dynl.mktgcdn.com/p/twWOW6ihBAvfeu_u8_YK6EsqpItwfxEKiZExP5-v9vo/600x400.jpg", "brand": "Homebase", "brand:wikidata": "Q9293447", "nsi_id": "homebase-0c42e1"}, "geometry": {"type": "Point", "coordinates": [-1.7922177972593545, 50.7388979874529]}},
{"type": "Feature", "id": "juI61F1832k6Qlm3hBoMuIyyXe0=", "properties": {"ref": "https://store.homebase.co.uk/#15166989", "@spider": "homebase", "shop": "doityourself", "addr:street_address": "Discovery Park Westhampnett Road", "addr:postcode": "PO19 6UX", "addr:country": "GB", "name": "Homebase Chichester", "phone": "0345 640 7350", "website": "https://store.homebase.co.uk/chichester/discovery-park", "opening_hours": "Mo-Sa 09:00-18:00; Su 10:00-16:00", "image": "https://dynl.mktgcdn.com/p/TX1S_xQzIDt9xHXIC6Zrfh0GicpX1qBvhebs9bchT0c/1980x1320.jpg", "brand": "Homebase", "brand:wikidata": "Q9293447", "nsi_id": "homebase-0c42e1"}, "geometry": {"type": "Point", "coordinates": [-0.7590746352097995, 50.845439360250694]}},
{"type": "Feature", "id": "v2XVbPSQLPQh8djv4Izka9lu6wY=", "properties": {"ref": "https://store.homebase.co.uk/#38807569", "@spider": "homebase", "shop": "doityourself", "addr:street_address": "Unit 3, Greyhound Retail Park Greyhound Park Road", "addr:postcode": "CH1 4QG", "addr:country": "GB", "name": "Homebase Chester", "phone": "0345 640 7057", "website": "https://store.homebase.co.uk/chester/unit-3-greyhound-retail-park", "opening_hours": "Mo-Fr 09:00-19:00; Sa 09:00-18:00; Su 10:00-16:00", "image": "https://dynl.mktgcdn.com/p/twWOW6ihBAvfeu_u8_YK6EsqpItwfxEKiZExP5-v9vo/600x400.jpg", "brand": "Homebase", "brand:wikidata": "Q9293447", "nsi_id": "homebase-0c42e1"}, "geometry": {"type": "Point", "coordinates": [-2.9152440508066957, 53.19737203106222]}},
{"type": "Feature", "id": "ivDZgbcwGh9w-rUEl63gUPk5tpA=", "properties": {"ref": "https://store.homebase.co.uk/#15167015", "@spider": "homebase", "shop": "doityourself", "addr:street_address": "Tewkesbury Road", "addr:postcode": "GL51 9AA", "addr:country": "GB", "name": "Homebase Cheltenham", "phone": "0345 640 7037", "website": "https://store.homebase.co.uk/cheltenham/tewkesbury-road", "opening_hours": "Mo-Fr 09:00-19:00; Sa 09:00-18:00; Su 10:00-16:00", "image": "https://dynl.mktgcdn.com/p/RJKoV7LI5QxTFraoya1oi1KdbntGkTM65u6B4b7zRO0/600x400.jpg", "brand": "Homebase", "brand:wikidata": "Q9293447", "nsi_id": "homebase-0c42e1"}, "geometry": {"type": "Point", "coordinates": [-2.0925963, 51.9098541]}},
{"type": "Feature", "id": "ian-ajfFCWTvJtz7R-ev24LBjSQ=", "properties": {"ref": "https://store.homebase.co.uk/#15166893", "@spider": "homebase", "shop": "doityourself", "addr:street_address": "1 Baynes Place Waterhouse Lane", "addr:postcode": "CM1 2QX", "addr:country": "GB", "name": "Homebase Chelmsford", "phone": "0345 640 7818", "website": "https://store.homebase.co.uk/chelmsford/1-baynes-place", "opening_hours": "Mo-Sa 09:00-18:00; Su 10:00-16:00", "image": "https://dynl.mktgcdn.com/p/twWOW6ihBAvfeu_u8_YK6EsqpItwfxEKiZExP5-v9vo/600x400.jpg", "brand": "Homebase", "brand:wikidata": "Q9293447", "nsi_id": "homebase-0c42e1"}, "geometry": {"type": "Point", "coordinates": [0.45543757718860434, 51.73087196081549]}},
{"type": "Feature", "id": "IOX-5UOzqeHXcEQVIqCRxPSHJyM=", "properties": {"ref": "https://store.homebase.co.uk/#16033533", "@spider": "homebase", "shop": "doityourself", "addr:street_address": "15 Gatley Road", "addr:postcode": "SK8 1LY", "addr:country": "GB", "name": "Decorate by Homebase -  Cheadle", "phone": "0161 300 6819", "website": "https://store.homebase.co.uk/cheadle/15-gatley-road", "image": "https://dynl.mktgcdn.com/p/Q4oYGGScGDuGkVZSXVKZ-jTDdSLSmQO3yQEp_lDXBVI/1980x1320.jpg", "brand": "Homebase", "brand:wikidata": "Q9293447", "nsi_id": "homebase-0c42e1"}, "geometry": {"type": "Point", "coordinates": [-2.2184385959493813, 53.39330619451594]}},
{"type": "Feature", "id": "ZewvXAADEirZoPGtRobHRoQTbcU=", "properties": {"ref": "https://store.homebase.co.uk/#15166936", "@spider": "homebase", "shop": "doityourself", "addr:street_address": "Stour Park Blandford St. Mary", "addr:postcode": "DT11 9LQ", "addr:country": "GB", "name": "Homebase Blandford Forum", "phone": "0345 640 7242", "website": "https://store.homebase.co.uk/blandford-forum/stour-park", "opening_hours": "Mo-Sa 09:00-18:00; Su 10:00-16:00", "image": "https://dynl.mktgcdn.com/p/twWOW6ihBAvfeu_u8_YK6EsqpItwfxEKiZExP5-v9vo/600x400.jpg", "brand": "Homebase", "brand:wikidata": "Q9293447", "nsi_id": "homebase-0c42e1"}, "geometry": {"type": "Point", "coordinates": [-2.161163, 50.850529]}},
{"type": "Feature", "id": "JW_AaMccc6TO3edATBhEH5tBuTY=", "properties": {"ref": "https://store.homebase.co.uk/#15166994", "@spider": "homebase", "shop": "doityourself", "addr:street_address": "Fitzroy Park Stansted Road", "addr:postcode": "CM23 5PP", "addr:country": "GB", "name": "Homebase Bishops Stortford", "phone": "0345 640 7619", "website": "https://store.homebase.co.uk/bishops-stortford/fitzroy-park", "opening_hours": "Mo-Fr 09:00-19:00; Sa 09:00-18:00; Su 10:00-16:00", "image": "https://dynl.mktgcdn.com/p/twWOW6ihBAvfeu_u8_YK6EsqpItwfxEKiZExP5-v9vo/600x400.jpg", "brand": "Homebase", "brand:wikidata": "Q9293447", "nsi_id": "homebase-0c42e1"}, "geometry": {"type": "Point", "coordinates": [0.175642, 51.8845017]}},
{"type": "Feature", "id": "amOY63lSoz0wRbPRvkrP23yNL7Y=", "properties": {"ref": "https://store.homebase.co.uk/#15166932", "@spider": "homebase", "shop": "doityourself", "addr:street_address": "Watling Road", "addr:postcode": "DL14 9AS", "addr:country": "GB", "name": "Homebase Bishop Auckland", "phone": "0345 640 7822", "website": "https://store.homebase.co.uk/bishop-auckland/watling-road", "opening_hours": "Mo-Sa 09:00-18:00; Su 10:00-16:00", "image": "https://dynl.mktgcdn.com/p/RJKoV7LI5QxTFraoya1oi1KdbntGkTM65u6B4b7zRO0/600x400.jpg", "brand": "Homebase", "brand:wikidata": "Q9293447", "nsi_id": "homebase-0c42e1"}, "geometry": {"type": "Point", "coordinates": [-1.6853058809508639, 54.64142580882768]}},
{"type": "Feature", "id": "fchq06CUkI1UyXLz1ki6kDoWsWk=", "properties": {"ref": "https://store.homebase.co.uk/#15166946", "@spider": "homebase", "shop": "doityourself", "addr:street_address": "Findlay Road High Street", "addr:postcode": "B14 7SN", "addr:country": "GB", "name": "Homebase Birmingham Kings Heath", "phone": "0345 640 7630", "website": "https://store.homebase.co.uk/birmingham/findlay-road", "opening_hours": "Mo-Sa 09:00-18:00; Su 10:00-16:00", "image": "https://dynl.mktgcdn.com/p/twWOW6ihBAvfeu_u8_YK6EsqpItwfxEKiZExP5-v9vo/600x400.jpg", "brand": "Homebase", "brand:wikidata": "Q9293447", "nsi_id": "homebase-0c42e1"}, "geometry": {"type": "Point", "coordinates": [-1.8945136, 52.4381592]}},
{"type": "Feature", "id": "APCpk5N4DszNU1BL97QpQpBns3k=", "properties": {"ref": "https://store.homebase.co.uk/#15166826", "@spider": "homebase", "shop": "doityourself", "addr:street_address": "75 Chester Rd Sutton Coldfield", "addr:postcode": "B73 5BA", "addr:country": "GB", "name": "Homebase Birmingham Sutton Coldfield", "phone": "0345 640 7214", "website": "https://store.homebase.co.uk/birmingham/75-chester-rd", "opening_hours": "Mo-Sa 09:00-19:00; Su 10:00-16:00", "image": "https://dynl.mktgcdn.com/p/twWOW6ihBAvfeu_u8_YK6EsqpItwfxEKiZExP5-v9vo/600x400.jpg", "brand": "Homebase", "brand:wikidata": "Q9293447", "nsi_id": "homebase-0c42e1"}, "geometry": {"type": "Point", "coordinates": [-1.857081, 52.547497]}},
{"type": "Feature", "id": "_dHUq-O41z7ZSxTUKH_euKZTarI=", "properties": {"ref": "https://store.homebase.co.uk/#15166840", "@spider": "homebase", "shop": "doityourself", "addr:street_address": "1 Harborne Lane", "addr:postcode": "B29 6TL", "addr:country": "GB", "name": "Homebase Selly Oak", "phone": "0345 640 7895", "website": "https://store.homebase.co.uk/birmingham/1-harborne-lane", "opening_hours": "Mo-Sa 09:00-19:00; Su 10:00-16:00", "image": "https://dynl.mktgcdn.com/p/twWOW6ihBAvfeu_u8_YK6EsqpItwfxEKiZExP5-v9vo/600x400.jpg", "brand": "Homebase", "brand:wikidata": "Q9293447", "nsi_id": "homebase-0c42e1"}, "geometry": {"type": "Point", "coordinates": [-1.9412873, 52.4427165]}},
{"type": "Feature", "id": "FCI0S9tWYt4qxf6C-XG1ZhiWX8A=", "properties": {"ref": "https://store.homebase.co.uk/#15166869", "@spider": "homebase", "shop": "doityourself", "addr:street_address": "A1, Trading Estate London Road", "addr:postcode": "SG18 8PW", "addr:country": "GB", "name": "Homebase Biggleswade", "phone": "0345 640 7218", "website": "https://store.homebase.co.uk/biggleswade/a1-trading-estate", "opening_hours": "Mo-Sa 09:00-18:00; Su 10:00-16:00", "image": "https://dynl.mktgcdn.com/p/twWOW6ihBAvfeu_u8_YK6EsqpItwfxEKiZExP5-v9vo/600x400.jpg", "brand": "Homebase", "brand:wikidata": "Q9293447", "nsi_id": "homebase-0c42e1"}, "geometry": {"type": "Point", "coordinates": [-0.2432399225754125, 52.07270483673854]}},
{"type": "Feature", "id": "gYCeE9gYFTSspXYIVFc7JDmRmwI=", "properties": {"ref": "https://store.homebase.co.uk/#15166885", "@spider": "homebase", "shop": "doityourself", "addr:street_address": "Launton Rd Retail Park Launton Rd", "addr:postcode": "OX26 4JQ", "addr:country": "GB", "name": "Homebase Bicester", "phone": "0345 640 7212", "website": "https://store.homebase.co.uk/bicester/launton-rd-retail-park", "opening_hours": "Mo-Sa 09:00-18:00; Su 10:00-16:00", "image": "https://dynl.mktgcdn.com/p/twWOW6ihBAvfeu_u8_YK6EsqpItwfxEKiZExP5-v9vo/600x400.jpg", "brand": "Homebase", "brand:wikidata": "Q9293447", "nsi_id": "homebase-0c42e1"}, "geometry": {"type": "Point", "coordinates": [-1.1344118785909814, 51.902649271619055]}},
{"type": "Feature", "id": "ZokQAdSGjNDtsit4CkBj5yssYvk=", "properties": {"ref": "https://store.homebase.co.uk/#15166956", "@spider": "homebase", "shop": "doityourself", "addr:street_address": "Tweed Sawmills Northumberland Road, Tweedmouth", "addr:postcode": "TD15 2AS", "addr:country": "GB", "name": "Homebase Berwick Upon Tweed", "phone": "0345 640 7511", "website": "https://store.homebase.co.uk/berwick-upon-tweed/tweed-sawmills", "opening_hours": "Mo-Sa 09:00-18:00; Su 10:00-16:00", "image": "https://dynl.mktgcdn.com/p/twWOW6ihBAvfeu_u8_YK6EsqpItwfxEKiZExP5-v9vo/600x400.jpg", "brand": "Homebase", "brand:wikidata": "Q9293447", "nsi_id": "homebase-0c42e1"}, "geometry": {"type": "Point", "coordinates": [-2.0093436, 55.7583544]}},
{"type": "Feature", "id": "nOGEF1KwoZToRdLBV4W-wJdXjjk=", "properties": {"ref": "https://store.homebase.co.uk/#15166948", "@spider": "homebase", "shop": "doityourself", "addr:street_address": "Unit 1 Shane Park Shopping Centre 105 Boucher Road", "addr:postcode": "BT12 6UA", "addr:country": "GB", "name": "Homebase Belfast Boucher Road", "phone": "0345 640 7250", "website": "https://store.homebase.co.uk/belfast/unit-1-shane-park-shopping-centre", "opening_hours": "Mo-Sa 09:00-19:00; Su 13:00-18:00", "image": "https://dynl.mktgcdn.com/p/twWOW6ihBAvfeu_u8_YK6EsqpItwfxEKiZExP5-v9vo/600x400.jpg", "brand": "Homebase", "brand:wikidata": "Q9293447", "nsi_id": "homebase-0c42e1"}, "geometry": {"type": "Point", "coordinates": [-5.9710105, 54.5730002]}},
{"type": "Feature", "id": "BYye5Q5iWFyShsWlUkx0YO_N_Do=", "properties": {"ref": "https://store.homebase.co.uk/#15166802", "@spider": "homebase", "shop": "doityourself", "addr:street_address": "Drumkeen Complex Upper Galwally", "addr:postcode": "BT8 6FY", "addr:country": "GB", "name": "Homebase Belfast Galwally", "phone": "0345 640 7674", "website": "https://store.homebase.co.uk/belfast/drumkeen-complex", "opening_hours": "Mo-Sa 09:00-19:00; Su 13:00-18:00", "image": "https://dynl.mktgcdn.com/p/twWOW6ihBAvfeu_u8_YK6EsqpItwfxEKiZExP5-v9vo/600x400.jpg", "brand": "Homebase", "brand:wikidata": "Q9293447", "nsi_id": "homebase-0c42e1"}, "geometry": {"type": "Point", "coordinates": [-5.9116135356340465, 54.56632571305371]}},
{"type": "Feature", "id": "uSaZ_HSc7kx-rQ1AM06yohUqHPM=", "properties": {"ref": "https://store.homebase.co.uk/#15166984", "@spider": "homebase", "shop": "doityourself", "addr:street_address": "Winchester Road", "addr:postcode": "RG22 6HN", "addr:country": "GB", "name": "Homebase Basingstoke", "phone": "0345 640 7140", "website": "https://store.homebase.co.uk/basingstoke/winchester-road", "opening_hours": "Mo-Sa 09:00-18:00; Su 10:00-16:00", "image": "https://dynl.mktgcdn.com/p/twWOW6ihBAvfeu_u8_YK6EsqpItwfxEKiZExP5-v9vo/600x400.jpg", "brand": "Homebase", "brand:wikidata": "Q9293447", "nsi_id": "homebase-0c42e1"}, "geometry": {"type": "Point", "coordinates": [-1.1159685, 51.2491255]}},
{"type": "Feature", "id": "0EUC6JHkmRRLIt1QORy716LetMs=", "properties": {"ref": "https://store.homebase.co.uk/#15166853", "@spider": "homebase", "shop": "doityourself", "addr:street_address": "London Road Vange", "addr:postcode": "SS16 4PR", "addr:country": "GB", "name": "Homebase Basildon", "phone": "0345 640 7083", "website": "https://store.homebase.co.uk/basildon/london-road", "opening_hours": "Mo-Fr 09:00-19:00; Sa 09:00-18:00; Su 10:00-16:00", "image": "https://dynl.mktgcdn.com/p/twWOW6ihBAvfeu_u8_YK6EsqpItwfxEKiZExP5-v9vo/600x400.jpg", "brand": "Homebase", "brand:wikidata": "Q9293447", "nsi_id": "homebase-0c42e1"}, "geometry": {"type": "Point", "coordinates": [0.46566772883602425, 51.554122902244806]}},
{"type": "Feature", "id": "jwd1h5vA7SNUDlHqcQqTPBhG364=", "properties": {"ref": "https://store.homebase.co.uk/#15166864", "@spider": "homebase", "shop": "doityourself", "addr:street_address": "Rose Lane", "addr:postcode": "EX32 8PG", "addr:country": "GB", "name": "Homebase Barnstaple", "phone": "0345 640 7208", "website": "https://store.homebase.co.uk/barnstaple/rose-lane", "opening_hours": "Mo-Sa 09:00-18:00; Su 10:00-16:00", "image": "https://dynl.mktgcdn.com/p/twWOW6ihBAvfeu_u8_YK6EsqpItwfxEKiZExP5-v9vo/600x400.jpg", "brand": "Homebase", "brand:wikidata": "Q9293447", "nsi_id": "homebase-0c42e1"}, "geometry": {"type": "Point", "coordinates": [-4.033773533729573, 51.07225181053474]}},
{"type": "Feature", "id": "SPv6JLvvsVS4T1q1TeaZpeusT-s=", "properties": {"ref": "https://store.homebase.co.uk/#15167014", "@spider": "homebase", "shop": "doityourself", "addr:street_address": "Balloo Retail Park Balloo Link", "addr:postcode": "BT19 7HJ", "addr:country": "GB", "name": "Homebase Bangor", "phone": "0345 640 7185", "website": "https://store.homebase.co.uk/bangor/balloo-retail-park", "opening_hours": "Mo-Fr 09:00-19:00; Sa 09:00-18:00; Su 13:00-18:00", "image": "https://dynl.mktgcdn.com/p/twWOW6ihBAvfeu_u8_YK6EsqpItwfxEKiZExP5-v9vo/600x400.jpg", "brand": "Homebase", "brand:wikidata": "Q9293447", "nsi_id": "homebase-0c42e1"}, "geometry": {"type": "Point", "coordinates": [-5.6729283, 54.6443862]}},
{"type": "Feature", "id": "ycqxlLCHJ9nym3K0wbreUf9eHiM=", "properties": {"ref": "https://store.homebase.co.uk/#15166801", "@spider": "homebase", "shop": "doityourself", "addr:street_address": "Southam Road", "addr:postcode": "OX16 2AD", "addr:country": "GB", "name": "Homebase Banbury", "phone": "0345 640 7422", "website": "https://store.homebase.co.uk/banbury/southam-road", "opening_hours": "Mo-Sa 09:00-18:00; Su 10:00-16:00", "image": "https://dynl.mktgcdn.com/p/twWOW6ihBAvfeu_u8_YK6EsqpItwfxEKiZExP5-v9vo/600x400.jpg", "brand": "Homebase", "brand:wikidata": "Q9293447", "nsi_id": "homebase-0c42e1"}, "geometry": {"type": "Point", "coordinates": [-1.3387159725830315, 52.0684624269018]}},
{"type": "Feature", "id": "CxB_RWqqgLf9h_FmrNXQGETOH30=", "properties": {"ref": "https://store.homebase.co.uk/#15167008", "@spider": "homebase", "shop": "doityourself", "addr:street_address": "Spire House Waterside Business Park Clifton Road", "addr:postcode": "DE6 1DG", "addr:country": "GB", "name": "Homebase Ashbourne", "phone": "0345 640 7850", "website": "https://store.homebase.co.uk/ashbourne/spire-house-waterside-business-park", "opening_hours": "Mo-Sa 09:00-18:00; Su 10:00-16:00", "image": "https://dynl.mktgcdn.com/p/RJKoV7LI5QxTFraoya1oi1KdbntGkTM65u6B4b7zRO0/600x400.jpg", "brand": "Homebase", "brand:wikidata": "Q9293447", "nsi_id": "homebase-0c42e1"}, "geometry": {"type": "Point", "coordinates": [-1.74457310178434, 53.00955251559974]}},
{"type": "Feature", "id": "0Xy1S2HmlhloltqvNZ_dQEO0lTE=", "properties": {"ref": "https://store.homebase.co.uk/#15166890", "@spider": "homebase", "shop": "doityourself", "addr:street_address": "140 Junction One Retail Park Ballymena Road", "addr:postcode": "BT41 4NY", "addr:country": "GB", "name": "Homebase Antrim", "phone": "0345 640 7831", "website": "https://store.homebase.co.uk/antrim/140-junction-one-retail-park", "opening_hours": "Mo-Sa 09:00-18:00; Su 13:00-18:00", "image": "https://dynl.mktgcdn.com/p/twWOW6ihBAvfeu_u8_YK6EsqpItwfxEKiZExP5-v9vo/600x400.jpg", "brand": "Homebase", "brand:wikidata": "Q9293447", "nsi_id": "homebase-0c42e1"}, "geometry": {"type": "Point", "coordinates": [-6.2285818, 54.7287232]}},
{"type": "Feature", "id": "wtThhims6CovYcnjNxSSzCOLTlI=", "properties": {"ref": "https://store.homebase.co.uk/#15166846", "@spider": "homebase", "shop": "doityourself", "addr:street_address": "Unit 1, George Richards Way Broadheath", "addr:postcode": "WA14 5GR", "addr:country": "GB", "name": "Homebase Altrincham", "phone": "0345 640 7117", "website": "https://store.homebase.co.uk/altrincham/unit-1-george-richards-way", "opening_hours": "Mo-Fr 09:00-19:00; Sa 09:00-18:00; Su 10:00-16:00", "image": "https://dynl.mktgcdn.com/p/twWOW6ihBAvfeu_u8_YK6EsqpItwfxEKiZExP5-v9vo/600x400.jpg", "brand": "Homebase", "brand:wikidata": "Q9293447", "nsi_id": "homebase-0c42e1"}, "geometry": {"type": "Point", "coordinates": [-2.3540028346078543, 53.400254938308464]}},
{"type": "Feature", "id": "8IuV_HsF26fwsCjUK6TvQ6956Zs=", "properties": {"ref": "https://store.homebase.co.uk/#15167017", "@spider": "homebase", "shop": "doityourself", "addr:street_address": "Willowburn Avenue", "addr:postcode": "NE66 2JH", "addr:country": "GB", "name": "Homebase Alnwick", "phone": "0345 640 7842", "website": "https://store.homebase.co.uk/alnwick/willowburn-avenue", "opening_hours": "Mo-Sa 09:00-18:00; Su 10:00-16:00", "image": "https://dynl.mktgcdn.com/p/twWOW6ihBAvfeu_u8_YK6EsqpItwfxEKiZExP5-v9vo/600x400.jpg", "brand": "Homebase", "brand:wikidata": "Q9293447", "nsi_id": "homebase-0c42e1"}, "geometry": {"type": "Point", "coordinates": [-1.6936705279068986, 55.40101106341305]}}]}