{"type":"FeatureCollection","features":[{"type": "Feature", "id": "ZHLkXlqs7YWRIQ5YpWvkwQFls6Q=", "properties": {"ref": "7227", "@spider": "homedepot_ca", "alt_name": "Home Depot", "shop": "doityourself", "addr:street_address": "604-1 Westmount Shopping", "addr:city": "Edmonton", "addr:state": "AB", "addr:postcode": "T5M 3L7", "addr:country": "CA", "name": "The Home Depot: Home Improvement & Hardware Store in Edmonton.", "phone": "(780) 732-9225", "website": "https://stores.homedepot.ca/ab/edmonton/home-improvement-edmonton-ab-7227.html", "opening_hours": "Mo-Fr 07:00-21:00; Sa 07:00-20:00; Su 08:00-20:00", "brand": "The Home Depot", "brand:wikidata": "Q864407", "nsi_id": "thehomedepot-00d2a0"}, "geometry": {"type": "Point", "coordinates": [-113.553989, 53.562061]}},
{"type": "Feature", "id": "pqx5YuDhGlD47sQjlK9ol1MaSsc=", "properties": {"ref": "7065", "@spider": "homedepot_ca", "alt_name": "Home Depot", "shop": "doityourself", "addr:street_address": "2020 - 101 Street S.W.", "addr:city": "Edmonton", "addr:state": "AB", "addr:postcode": "T6N 1J2", "addr:country": "CA", "name": "The Home Depot: Home Improvement & Hardware Store in Edmonton.", "phone": "(780) 433-6500", "website": "https://stores.homedepot.ca/ab/edmonton/home-improvement-edmonton-ab-7065.html", "opening_hours": "Mo-Fr 07:00-21:00; Sa 07:00-20:00; Su 08:00-20:00", "brand": "The Home Depot", "brand:wikidata": "Q864407", "nsi_id": "thehomedepot-00d2a0"}, "geometry": {"type": "Point", "coordinates": [-113.491946, 53.414927]}},
{"type": "Feature", "id": "hQovAqYHC0je0qi5omm1p1yioHA=", "properties": {"ref": "7119", "@spider": "homedepot_ca", "alt_name": "Home Depot", "shop": "doityourself", "addr:street_address": "13360 137th Avenue", "addr:city": "Edmonton", "addr:state": "AB", "addr:postcode": "T5L 5C7", "addr:country": "CA", "name": "The Home Depot: Home Improvement & Hardware Store in Edmonton.", "phone": "(780) 472-4200", "website": "https://stores.homedepot.ca/ab/edmonton/home-improvement-edmonton-ab-7119.html", "opening_hours": "Mo-Fr 07:00-21:00; Sa 07:00-20:00; Su 08:00-20:00", "brand": "The Home Depot", "brand:wikidata": "Q864407", "nsi_id": "thehomedepot-00d2a0"}, "geometry": {"type": "Point", "coordinates": [-113.551613, 53.599741]}},
{"type": "Feature", "id": "R-NicSBPMaLYMYK7f_02awnmh_M=", "properties": {"ref": "7117", "@spider": "homedepot_ca", "alt_name": "Home Depot", "shop": "doityourself", "addr:street_address": "6725 - 104 Street N.W.", "addr:city": "Edmonton", "addr:state": "AB", "addr:postcode": "T6H 2L3", "addr:country": "CA", "name": "The Home Depot: Home Improvement & Hardware Store in Edmonton.", "phone": "(780) 431-4725", "website": "https://stores.homedepot.ca/ab/edmonton/home-improvement-edmonton-ab-7117.html", "opening_hours": "Mo-Fr 07:00-21:00; Sa 07:00-20:00; Su 08:00-20:00", "brand": "The Home Depot", "brand:wikidata": "Q864407", "nsi_id": "thehomedepot-00d2a0"}, "geometry": {"type": "Point", "coordinates": [-113.4965096, 53.5038206]}},
{"type": "Feature", "id": "Q5rnb5U_M-8p_gEmB4h4x5EQxRs=", "properties": {"ref": "7064", "@spider": "homedepot_ca", "alt_name": "Home Depot", "shop": "doityourself", "addr:street_address": "17404-99th Avenue N.W.", "addr:city": "Edmonton", "addr:state": "AB", "addr:postcode": "T5T 5L5", "addr:country": "CA", "name": "The Home Depot: Home Improvement & Hardware Store in Edmonton.", "phone": "(780) 484-5100", "website": "https://stores.homedepot.ca/ab/edmonton/home-improvement-edmonton-ab-7064.html", "opening_hours": "Mo-Fr 07:00-21:00; Sa 07:00-20:00; Su 08:00-20:00", "brand": "The Home Depot", "brand:wikidata": "Q864407", "nsi_id": "thehomedepot-00d2a0"}, "geometry": {"type": "Point", "coordinates": [-113.621409, 53.5370324]}},
{"type": "Feature", "id": "mIepF-41FW2C7ClXbVz8TeAeKg0=", "properties": {"ref": "7062", "@spider": "homedepot_ca", "alt_name": "Home Depot", "shop": "doityourself", "addr:street_address": "13304-50th Street N.W.", "addr:city": "Edmonton", "addr:state": "AB", "addr:postcode": "T5A 4Z8", "addr:country": "CA", "name": "The Home Depot: Home Improvement & Hardware Store in Edmonton.", "phone": "(780) 478-7100", "website": "https://stores.homedepot.ca/ab/edmonton/home-improvement-edmonton-ab-7062.html", "opening_hours": "Mo-Fr 07:00-21:00; Sa 07:00-20:00; Su 08:00-20:00", "brand": "The Home Depot", "brand:wikidata": "Q864407", "nsi_id": "thehomedepot-00d2a0"}, "geometry": {"type": "Point", "coordinates": [-113.4169887, 53.594587]}},
{"type": "Feature", "id": "e4DSe5Lb4Co3Uqs_eawCtgl3uO0=", "properties": {"ref": "7268", "@spider": "homedepot_ca", "alt_name": "Home Depot", "shop": "doityourself", "addr:street_address": "6218 Currents Drive NW", "addr:city": "Edmonton", "addr:state": "AB", "addr:postcode": "T6W 0L8", "addr:country": "CA", "name": "Home Depot : Magasin sp\u00e9cialis\u00e9 en am\u00e9lioration domiciliaire et en quincaillerie \u00e0 Edmonton.", "phone": "(780) 989-7460", "website": "https://stores.homedepot.ca/ab/edmonton/bricolage-edmonton-ab-7268.html", "opening_hours": "Mo-Fr 07:00-21:00; Sa 07:00-20:00; Su 08:00-20:00", "brand": "The Home Depot", "brand:wikidata": "Q864407", "nsi_id": "thehomedepot-00d2a0"}, "geometry": {"type": "Point", "coordinates": [-113.6066358, 53.4388276]}},
{"type": "Feature", "id": "4_yofUMTqa4JIXZ52ofuPfwIgB0=", "properties": {"ref": "7248", "@spider": "homedepot_ca", "alt_name": "Home Depot", "shop": "doityourself", "addr:street_address": "4430 - 17th Street NW", "addr:city": "Edmonton", "addr:state": "AB", "addr:postcode": "T6T 0B4", "addr:country": "CA", "name": "Home Depot : Magasin sp\u00e9cialis\u00e9 en am\u00e9lioration domiciliaire et en quincaillerie \u00e0 Edmonton.", "phone": "(780) 577-3575", "website": "https://stores.homedepot.ca/ab/edmonton/bricolage-edmonton-ab-7248.html", "opening_hours": "Mo-Fr 07:00-21:00; Sa 07:00-20:00; Su 08:00-20:00", "brand": "The Home Depot", "brand:wikidata": "Q864407", "nsi_id": "thehomedepot-00d2a0"}, "geometry": {"type": "Point", "coordinates": [-113.370585, 53.4801602]}},
{"type": "Feature", "id": "sF64dRZcJIhCOzbuWqfAzTosGrc=", "properties": {"ref": "7111", "@spider": "homedepot_ca", "alt_name": "Home Depot", "shop": "doityourself", "addr:street_address": "388 Country Hills Boulevard", "addr:city": "Calgary", "addr:state": "AB", "addr:postcode": "T3K 5H2", "addr:country": "CA", "name": "The Home Depot: Home Improvement & Hardware Store in Calgary.", "phone": "(403) 226-7500", "website": "https://stores.homedepot.ca/ab/calgary/home-improvement-calgary-ab-7111.html", "opening_hours": "Mo-Fr 07:00-21:00; Sa 07:00-20:00; Su 08:00-20:00", "brand": "The Home Depot", "brand:wikidata": "Q864407", "nsi_id": "thehomedepot-00d2a0"}, "geometry": {"type": "Point", "coordinates": [-114.063851, 51.154325]}},
{"type": "Feature", "id": "AaeZpYMbO2fpM1hRTizcWyyGXZE=", "properties": {"ref": "7265", "@spider": "homedepot_ca", "alt_name": "Home Depot", "shop": "doityourself", "addr:street_address": "3043 Clarence Avenue South", "addr:city": "Saskatoon", "addr:state": "SK", "addr:postcode": "S7T 0B5", "addr:country": "CA", "name": "The Home Depot: Home Improvement & Hardware Store in Saskatoon.", "phone": "(306) 657-4100", "website": "https://stores.homedepot.ca/sk/saskatoon/home-improvement-saskatoon-sk-7265.html", "opening_hours": "Mo-Fr 07:00-21:00; Sa 07:00-20:00; Su 08:00-18:00", "brand": "The Home Depot", "brand:wikidata": "Q864407", "nsi_id": "thehomedepot-00d2a0"}, "geometry": {"type": "Point", "coordinates": [-106.640498, 52.086516]}},
{"type": "Feature", "id": "eC0gRzaq5D083poi6KGY98h1WqI=", "properties": {"ref": "7051", "@spider": "homedepot_ca", "alt_name": "Home Depot", "shop": "doityourself", "addr:street_address": "707 Circle Drive East", "addr:city": "Saskatoon", "addr:state": "SK", "addr:postcode": "S7K 0V1", "addr:country": "CA", "name": "The Home Depot: Home Improvement & Hardware Store in Saskatoon.", "phone": "(306) 651-6250", "website": "https://stores.homedepot.ca/sk/saskatoon/home-improvement-saskatoon-sk-7051.html", "opening_hours": "Mo-Fr 07:00-21:00; Sa 07:00-20:00; Su 08:00-18:00", "brand": "The Home Depot", "brand:wikidata": "Q864407", "nsi_id": "thehomedepot-00d2a0"}, "geometry": {"type": "Point", "coordinates": [-106.656567, 52.157818]}},
{"type": "Feature", "id": "gKyNj1geTfOaJKdSNz42x4RRjGI=", "properties": {"ref": "7250", "@spider": "homedepot_ca", "alt_name": "Home Depot", "shop": "doityourself", "addr:street_address": "5019 Nose Hill Drive NW", "addr:city": "Calgary", "addr:state": "AB", "addr:postcode": "T3L 0A2", "addr:country": "CA", "name": "The Home Depot: Home Improvement & Hardware Store in Calgary.", "phone": "(403) 241-4060", "website": "https://stores.homedepot.ca/ab/calgary/home-improvement-calgary-ab-7250.html", "opening_hours": "Mo-Fr 07:00-21:00; Sa 07:00-20:00; Su 08:00-20:00", "brand": "The Home Depot", "brand:wikidata": "Q864407", "nsi_id": "thehomedepot-00d2a0"}, "geometry": {"type": "Point", "coordinates": [-114.239922, 51.107393]}},
{"type": "Feature", "id": "iTGD98IsIMWmGr_gaYkayLf8JCs=", "properties": {"ref": "7245", "@spider": "homedepot_ca", "alt_name": "Home Depot", "shop": "doityourself", "addr:street_address": "1030 North Pasqua Street", "addr:city": "Regina", "addr:state": "SK", "addr:postcode": "S4T 4L1", "addr:country": "CA", "name": "The Home Depot: Home Improvement & Hardware Store in Regina.", "phone": "(306) 564-5700", "website": "https://stores.homedepot.ca/sk/regina/home-improvement-regina-sk-7245.html", "opening_hours": "Mo-Fr 07:00-21:00; Sa 07:00-20:00; Su 08:00-18:00", "brand": "The Home Depot", "brand:wikidata": "Q864407", "nsi_id": "thehomedepot-00d2a0"}, "geometry": {"type": "Point", "coordinates": [-104.644132, 50.495081]}},
{"type": "Feature", "id": "FLEUdcuaA4Klfmz8VZUe4jiPcRE=", "properties": {"ref": "7052", "@spider": "homedepot_ca", "alt_name": "Home Depot", "shop": "doityourself", "addr:street_address": "1867 Victoria Avenue E.", "addr:city": "Regina", "addr:state": "SK", "addr:postcode": "S4N 6E6", "addr:country": "CA", "name": "The Home Depot: Home Improvement & Hardware Store in Regina.", "phone": "(306) 761-1919", "website": "https://stores.homedepot.ca/sk/regina/home-improvement-regina-sk-7052.html", "opening_hours": "Mo-Fr 07:00-21:00; Sa 07:00-20:00; Su 08:00-18:00", "brand": "The Home Depot", "brand:wikidata": "Q864407", "nsi_id": "thehomedepot-00d2a0"}, "geometry": {"type": "Point", "coordinates": [-104.5572801, 50.4469909]}},
{"type": "Feature", "id": "JhXFjFfY-ZGq2Uc80nYHS8KCFyg=", "properties": {"ref": "7087", "@spider": "homedepot_ca", "alt_name": "Home Depot", "shop": "doityourself", "addr:street_address": "160 Boulevard Arthabaska Ouest", "addr:city": "Victoriaville", "addr:state": "QC", "addr:postcode": "G6S 0P2", "addr:country": "CA", "name": "Home Depot : Magasin sp\u00e9cialis\u00e9 en am\u00e9lioration domiciliaire et en quincaillerie \u00e0 Victoriaville.", "phone": "(819) 752-0700", "website": "https://stores.homedepot.ca/qc/victoriaville/bricolage-victoriaville-qc-7087.html", "opening_hours": "Mo-Fr 08:00-21:00; Sa-Su 08:00-17:00", "brand": "The Home Depot", "brand:wikidata": "Q864407", "nsi_id": "thehomedepot-00d2a0"}, "geometry": {"type": "Point", "coordinates": [-71.927362, 46.064783]}},
{"type": "Feature", "id": "QmwHUFzvPOZfsomqZ0GA2PyzopI=", "properties": {"ref": "7187", "@spider": "homedepot_ca", "alt_name": "Home Depot", "shop": "doityourself", "addr:street_address": "55 Boulevard de la Cit\u00e9 des Jeunes", "addr:city": "Vaudreuil-Dorion", "addr:state": "QC", "addr:postcode": "J7V 8C1", "addr:country": "CA", "name": "The Home Depot: Home Improvement & Hardware Store in Vaudreuil-Dorion.", "phone": "(450) 510-2600", "website": "https://stores.homedepot.ca/qc/vaudreuil-dorion/home-improvement-vaudreuil-dorion-qc-7187.html", "opening_hours": "Mo-Fr 08:00-21:00; Sa-Su 08:00-17:00", "brand": "The Home Depot", "brand:wikidata": "Q864407", "nsi_id": "thehomedepot-00d2a0"}, "geometry": {"type": "Point", "coordinates": [-74.03766, 45.405218]}},
{"type": "Feature", "id": "mp_4eSb1fQpq3HDcat47vlFWKr8=", "properties": {"ref": "7169", "@spider": "homedepot_ca", "alt_name": "Home Depot", "shop": "doityourself", "addr:street_address": "4500 Real-Proulx", "addr:city": "Trois-Rivi\u00e8res", "addr:state": "QC", "addr:postcode": "G9A 6P9", "addr:country": "CA", "name": "The Home Depot: Home Improvement & Hardware Store in Trois-Rivi\u00e8res.", "phone": "(819) 379-3990", "website": "https://stores.homedepot.ca/qc/trois-rivieres/home-improvement-trois-rivieres-qc-7169.html", "opening_hours": "Mo-Fr 08:00-21:00; Sa-Su 08:00-17:00", "brand": "The Home Depot", "brand:wikidata": "Q864407", "nsi_id": "thehomedepot-00d2a0"}, "geometry": {"type": "Point", "coordinates": [-72.573889, 46.332341]}},
{"type": "Feature", "id": "1tz8J9DoK9V8YYa8D0ukUL8quzQ=", "properties": {"ref": "7089", "@spider": "homedepot_ca", "alt_name": "Home Depot", "shop": "doityourself", "addr:street_address": "1355 boulevard du Plateau Saint-Joseph", "addr:city": "Sherbrooke", "addr:state": "QC", "addr:postcode": "J1L 3C5", "addr:country": "CA", "name": "The Home Depot: Home Improvement & Hardware Store in Sherbrooke.", "phone": "(819) 348-4481", "website": "https://stores.homedepot.ca/qc/sherbrooke/home-improvement-sherbrooke-qc-7089.html", "opening_hours": "Mo-Fr 08:00-21:00; Sa-Su 08:00-17:00", "brand": "The Home Depot", "brand:wikidata": "Q864407", "nsi_id": "thehomedepot-00d2a0"}, "geometry": {"type": "Point", "coordinates": [-71.9688936, 45.4208926]}},
{"type": "Feature", "id": "67isb_M5i68-ctibszwDYmaJKSs=", "properties": {"ref": "7163", "@spider": "homedepot_ca", "alt_name": "Home Depot", "shop": "doityourself", "addr:street_address": "1516 Rue Jules-Verne", "addr:city": "Sainte-Foy", "addr:state": "QC", "addr:postcode": "G2G 2R5", "addr:country": "CA", "name": "The Home Depot: Home Improvement & Hardware Store in Sainte-Foy.", "phone": "(418) 872-8007", "website": "https://stores.homedepot.ca/qc/sainte-foy/home-improvement-sainte-foy-qc-7163.html", "opening_hours": "Mo-Fr 08:00-21:00; Sa-Su 08:00-17:00", "brand": "The Home Depot", "brand:wikidata": "Q864407", "nsi_id": "thehomedepot-00d2a0"}, "geometry": {"type": "Point", "coordinates": [-71.348955, 46.781029]}},
{"type": "Feature", "id": "lV0byJZnVNmHc5uMZfSgQxsTGs0=", "properties": {"ref": "7147", "@spider": "homedepot_ca", "alt_name": "Home Depot", "shop": "doityourself", "addr:street_address": "1045 Boul du Grand Heron", "addr:city": "Saint-J\u00e9r\u00f4me", "addr:state": "QC", "addr:postcode": "J7Y 3P2", "addr:country": "CA", "name": "The Home Depot: Home Improvement & Hardware Store in Saint-J\u00e9r\u00f4me.", "phone": "(450) 565-6020", "website": "https://stores.homedepot.ca/qc/saint-jerome/home-improvement-saint-jerome-qc-7147.html", "opening_hours": "Mo-Fr 08:00-21:00; Sa-Su 08:00-17:00", "brand": "The Home Depot", "brand:wikidata": "Q864407", "nsi_id": "thehomedepot-00d2a0"}, "geometry": {"type": "Point", "coordinates": [-74.019175, 45.758543]}},
{"type": "Feature", "id": "sxPhkrM-CuyVuTRAO5UmWoNIwOw=", "properties": {"ref": "7224", "@spider": "homedepot_ca", "alt_name": "Home Depot", "shop": "doityourself", "addr:street_address": "850 Douglas Street", "addr:city": "Saint-Jean-sur-Richelieu", "addr:state": "QC", "addr:postcode": "J3A 1V1", "addr:country": "CA", "name": "Home Depot : Magasin sp\u00e9cialis\u00e9 en am\u00e9lioration domiciliaire et en quincaillerie \u00e0 Saint-Jean-sur-Richelieu.", "phone": "(450) 349-8100", "website": "https://stores.homedepot.ca/qc/saint-jean-sur-richelieu/bricolage-saint-jean-sur-richelieu-qc-7224.html", "opening_hours": "Mo-Fr 08:00-21:00; Sa-Su 08:00-17:00", "brand": "The Home Depot", "brand:wikidata": "Q864407", "nsi_id": "thehomedepot-00d2a0"}, "geometry": {"type": "Point", "coordinates": [-73.2833791, 45.3284422]}},
{"type": "Feature", "id": "GhjeMEpNtkDXSHmVnJ_ZJ2zP95Q=", "properties": {"ref": "7185", "@spider": "homedepot_ca", "alt_name": "Home Depot", "shop": "doityourself", "addr:street_address": "490 Voie de la Desserte", "addr:city": "Saint-Constant", "addr:state": "QC", "addr:postcode": "J5A 2S6", "addr:country": "CA", "name": "Home Depot : Magasin sp\u00e9cialis\u00e9 en am\u00e9lioration domiciliaire et en quincaillerie \u00e0 Saint-Constant.", "phone": "(450) 633-2030", "website": "https://stores.homedepot.ca/qc/saint-constant/bricolage-saint-constant-qc-7185.html", "opening_hours": "Mo-Fr 08:00-21:00; Sa-Su 08:00-17:00", "brand": "The Home Depot", "brand:wikidata": "Q864407", "nsi_id": "thehomedepot-00d2a0"}, "geometry": {"type": "Point", "coordinates": [-73.58454, 45.392637]}},
{"type": "Feature", "id": "1uaa6rh3duy4hVVP6AXLSeezIAE=", "properties": {"ref": "7162", "@spider": "homedepot_ca", "alt_name": "Home Depot", "shop": "doityourself", "addr:street_address": "300 rue Bouvier", "addr:city": "Qu\u00e9bec", "addr:state": "QC", "addr:postcode": "G2J 1R8", "addr:country": "CA", "name": "The Home Depot: Home Improvement & Hardware Store in Qu\u00e9bec.", "phone": "(418) 634-8880", "website": "https://stores.homedepot.ca/qc/quebec/home-improvement-quebec-qc-7162.html", "opening_hours": "Mo-Fr 08:00-21:00; Sa-Su 08:00-17:00", "brand": "The Home Depot", "brand:wikidata": "Q864407", "nsi_id": "thehomedepot-00d2a0"}, "geometry": {"type": "Point", "coordinates": [-71.2722818, 46.8430633]}},
{"type": "Feature", "id": "VI7WdWBcFYeWKMIIAJSHEpeSYxY=", "properties": {"ref": "7150", "@spider": "homedepot_ca", "alt_name": "Home Depot", "shop": "doityourself", "addr:street_address": "901 Rue de l'\u00c9tang", "addr:city": "Saint-Bruno-de-Montarville", "addr:state": "QC", "addr:postcode": "J3V 6N8", "addr:country": "CA", "name": "The Home Depot: Home Improvement & Hardware Store in Saint-Bruno-de-Montarville.", "phone": "(450) 461-2000", "website": "https://stores.homedepot.ca/qc/saint-bruno-de-montarville/home-improvement-saint-bruno-de-montarville-qc-7150.html", "opening_hours": "Mo-Fr 08:00-21:00; Sa-Su 08:00-17:00", "brand": "The Home Depot", "brand:wikidata": "Q864407", "nsi_id": "thehomedepot-00d2a0"}, "geometry": {"type": "Point", "coordinates": [-73.3860452, 45.5051252]}},
{"type": "Feature", "id": "8CVphK5JAml7srNHoTApnvNtp00=", "properties": {"ref": "7266", "@spider": "homedepot_ca", "alt_name": "Home Depot", "shop": "doityourself", "addr:street_address": "185 Hymus Boulevard", "addr:city": "Pointe-Claire", "addr:state": "QC", "addr:postcode": "H9R 1E9", "addr:country": "CA", "name": "The Home Depot: Home Improvement & Hardware Store in Pointe-Claire.", "phone": "(514) 630-8631", "website": "https://stores.homedepot.ca/qc/pointe-claire/home-improvement-pointe-claire-qc-7266.html", "opening_hours": "Mo-Fr 08:00-21:00; Sa-Su 08:00-17:00", "brand": "The Home Depot", "brand:wikidata": "Q864407", "nsi_id": "thehomedepot-00d2a0"}, "geometry": {"type": "Point", "coordinates": [-73.817815, 45.461479]}},
{"type": "Feature", "id": "M8u0cPjxk9scD3z4CF1xzS8Hj2Q=", "properties": {"ref": "7146", "@spider": "homedepot_ca", "alt_name": "Home Depot", "shop": "doityourself", "addr:street_address": "1000 rue Sauve Ouest", "addr:city": "Montr\u00e9al", "addr:state": "QC", "addr:postcode": "H4N 3L5", "addr:country": "CA", "name": "The Home Depot: Home Improvement & Hardware Store in Montr\u00e9al.", "phone": "(514) 333-6868", "website": "https://stores.homedepot.ca/qc/montreal/home-improvement-montreal-qc-7146.html", "opening_hours": "Mo-Fr 08:00-21:00; Sa-Su 08:00-17:00", "brand": "The Home Depot", "brand:wikidata": "Q864407", "nsi_id": "thehomedepot-00d2a0"}, "geometry": {"type": "Point", "coordinates": [-73.6640703, 45.5372648]}},
{"type": "Feature", "id": "lbBY0vM2iU3LTI4brtZ6V3nEuTw=", "properties": {"ref": "7128", "@spider": "homedepot_ca", "alt_name": "Home Depot", "shop": "doityourself", "addr:street_address": "4625 Saint-Antoine West", "addr:city": "Montr\u00e9al", "addr:state": "QC", "addr:postcode": "H4C 1E2", "addr:country": "CA", "name": "The Home Depot: Home Improvement & Hardware Store in Montr\u00e9al.", "phone": "(514) 846-4770", "website": "https://stores.homedepot.ca/qc/montreal/home-improvement-montreal-qc-7128.html", "opening_hours": "Mo-Fr 08:00-21:00; Sa-Su 08:00-17:00", "brand": "The Home Depot", "brand:wikidata": "Q864407", "nsi_id": "thehomedepot-00d2a0"}, "geometry": {"type": "Point", "coordinates": [-73.593787, 45.476707]}},
{"type": "Feature", "id": "5qIsFz8XuXLEvnK5a6JE25Af7RE=", "properties": {"ref": "7149", "@spider": "homedepot_ca", "alt_name": "Home Depot", "shop": "doityourself", "addr:street_address": "100, rue Beaubien Ouest", "addr:city": "Montr\u00e9al", "addr:state": "QC", "addr:postcode": "H2S 3S1", "addr:country": "CA", "name": "The Home Depot: Home Improvement & Hardware Store in Montr\u00e9al.", "phone": "(514) 490-8030", "website": "https://stores.homedepot.ca/qc/montreal/home-improvement-montreal-qc-7149.html", "opening_hours": "Mo-Fr 08:00-21:00; Sa-Su 08:00-17:00", "brand": "The Home Depot", "brand:wikidata": "Q864407", "nsi_id": "thehomedepot-00d2a0"}, "geometry": {"type": "Point", "coordinates": [-73.6092075, 45.5282719]}},
{"type": "Feature", "id": "AvRpMLpvAg38l645NHLeKDThTg0=", "properties": {"ref": "7189", "@spider": "homedepot_ca", "alt_name": "Home Depot", "shop": "doityourself", "addr:street_address": "500 rue de la Concorde", "addr:city": "L\u00e9vis", "addr:state": "QC", "addr:postcode": "G6W 8A8", "addr:country": "CA", "name": "Home Depot : Magasin sp\u00e9cialis\u00e9 en am\u00e9lioration domiciliaire et en quincaillerie \u00e0 L\u00e9vis.", "phone": "(418) 834-7050", "website": "https://stores.homedepot.ca/qc/levis/bricolage-levis-qc-7189.html", "opening_hours": "Mo-Fr 08:00-21:00; Sa-Su 08:00-17:00", "brand": "The Home Depot", "brand:wikidata": "Q864407", "nsi_id": "thehomedepot-00d2a0"}, "geometry": {"type": "Point", "coordinates": [-71.2755261, 46.7310589]}},
{"type": "Feature", "id": "sSwtpQ6y7aSDJndfNWcF07OqgZg=", "properties": {"ref": "7124", "@spider": "homedepot_ca", "alt_name": "Home Depot", "shop": "doityourself", "addr:street_address": "1400 Le Corbusier Blvd", "addr:city": "Laval", "addr:state": "QC", "addr:postcode": "H7N 6J5", "addr:country": "CA", "name": "The Home Depot: Home Improvement & Hardware Store in Laval.", "phone": "(450) 680-2225", "website": "https://stores.homedepot.ca/qc/laval/home-improvement-laval-qc-7124.html", "opening_hours": "Mo-Fr 08:00-21:00; Sa-Su 08:00-17:00", "brand": "The Home Depot", "brand:wikidata": "Q864407", "nsi_id": "thehomedepot-00d2a0"}, "geometry": {"type": "Point", "coordinates": [-73.730737, 45.563654]}},
{"type": "Feature", "id": "rVwgmD0e5YBa64u3y7MV_LNlIA4=", "properties": {"ref": "7139", "@spider": "homedepot_ca", "alt_name": "Home Depot", "shop": "doityourself", "addr:street_address": "660 Montee des Pionniers", "addr:city": "Lachenaie", "addr:state": "QC", "addr:postcode": "J6V 1N9", "addr:country": "CA", "name": "The Home Depot: Home Improvement & Hardware Store in Lachenaie.", "phone": "(450) 657-4400", "website": "https://stores.homedepot.ca/qc/lachenaie/home-improvement-lachenaie-qc-7139.html", "opening_hours": "Mo-Fr 08:00-21:00; Sa-Su 08:00-17:00", "brand": "The Home Depot", "brand:wikidata": "Q864407", "nsi_id": "thehomedepot-00d2a0"}, "geometry": {"type": "Point", "coordinates": [-73.507908, 45.722042]}},
{"type": "Feature", "id": "G6nEpsgYev6l6k-8qHSy9lXtZyM=", "properties": {"ref": "7152", "@spider": "homedepot_ca", "alt_name": "Home Depot", "shop": "doityourself", "addr:street_address": "500 Auguste", "addr:city": "Greenfield Park", "addr:state": "QC", "addr:postcode": "J4V 3R4", "addr:country": "CA", "name": "Home Depot : Magasin sp\u00e9cialis\u00e9 en am\u00e9lioration domiciliaire et en quincaillerie \u00e0 Greenfield Park.", "phone": "(450) 462-5020", "website": "https://stores.homedepot.ca/qc/greenfieldpark/bricolage-greenfieldpark-qc-7152.html", "opening_hours": "Mo-Fr 08:00-21:00; Sa-Su 08:00-17:00", "brand": "The Home Depot", "brand:wikidata": "Q864407", "nsi_id": "thehomedepot-00d2a0"}, "geometry": {"type": "Point", "coordinates": [-73.463624, 45.486927]}},
{"type": "Feature", "id": "Z-qMhozzWTw9-6jpkpsaIOxt-6c=", "properties": {"ref": "7188", "@spider": "homedepot_ca", "alt_name": "Home Depot", "shop": "doityourself", "addr:street_address": "165 Rue Simonds Nord", "addr:city": "Granby", "addr:state": "QC", "addr:postcode": "J2J 0R7", "addr:country": "CA", "name": "Home Depot : Magasin sp\u00e9cialis\u00e9 en am\u00e9lioration domiciliaire et en quincaillerie \u00e0 Granby.", "phone": "(450) 375-5544", "website": "https://stores.homedepot.ca/qc/granby/bricolage-granby-qc-7188.html", "opening_hours": "Mo-Fr 08:00-21:00; Sa-Su 08:00-17:00", "brand": "The Home Depot", "brand:wikidata": "Q864407", "nsi_id": "thehomedepot-00d2a0"}, "geometry": {"type": "Point", "coordinates": [-72.753042, 45.416067]}},
{"type": "Feature", "id": "ZgN70anj5-UeAVbYJzIdmFJP-Bo=", "properties": {"ref": "7140", "@spider": "homedepot_ca", "alt_name": "Home Depot", "shop": "doityourself", "addr:street_address": "243 Montee Paiement", "addr:city": "Gatineau", "addr:state": "QC", "addr:postcode": "J8P 6M7", "addr:country": "CA", "name": "The Home Depot: Home Improvement & Hardware Store in Gatineau.", "phone": "(819) 246-4060", "website": "https://stores.homedepot.ca/qc/gatineau/home-improvement-gatineau-qc-7140.html", "opening_hours": "Mo-Fr 08:00-21:00; Sa-Su 08:00-17:00", "brand": "The Home Depot", "brand:wikidata": "Q864407", "nsi_id": "thehomedepot-00d2a0"}, "geometry": {"type": "Point", "coordinates": [-75.6769715, 45.4843529]}},
{"type": "Feature", "id": "nddLb3bE12LUbyTBYTh5dF5PF6c=", "properties": {"ref": "7159", "@spider": "homedepot_ca", "alt_name": "Home Depot", "shop": "doityourself", "addr:street_address": "2400 Boul du Faubourg", "addr:city": "Boisbriand", "addr:state": "QC", "addr:postcode": "J7H 1S3", "addr:country": "CA", "name": "The Home Depot: Home Improvement & Hardware Store in Boisbriand.", "phone": "(450) 971-6061", "website": "https://stores.homedepot.ca/qc/boisbriand/home-improvement-boisbriand-qc-7159.html", "opening_hours": "Mo-Fr 08:00-21:00; Sa-Su 08:00-17:00", "brand": "The Home Depot", "brand:wikidata": "Q864407", "nsi_id": "thehomedepot-00d2a0"}, "geometry": {"type": "Point", "coordinates": [-73.845695, 45.626122]}},
{"type": "Feature", "id": "gqHcT7BPnALzZSdoXYd6q-lHj0w=", "properties": {"ref": "7173", "@spider": "homedepot_ca", "alt_name": "Home Depot", "shop": "doityourself", "addr:street_address": "60 Buchanan Drive", "addr:city": "Charlottetown", "addr:state": "PE", "addr:postcode": "C1E 2E4", "addr:country": "CA", "name": "The Home Depot: Home Improvement & Hardware Store in Charlottetown.", "phone": "(902) 626-3140", "website": "https://stores.homedepot.ca/pe/charlottetown/home-improvement-charlottetown-pe-7173.html", "opening_hours": "Mo-Sa 08:00-20:00; Su 12:00-17:00", "brand": "The Home Depot", "brand:wikidata": "Q864407", "nsi_id": "thehomedepot-00d2a0"}, "geometry": {"type": "Point", "coordinates": [-63.154555, 46.261569]}},
{"type": "Feature", "id": "P95uQ1oSzyEigSd5RpFEnSEJC2M=", "properties": {"ref": "7156", "@spider": "homedepot_ca", "alt_name": "Home Depot", "shop": "doityourself", "addr:street_address": "11300 Renaude Lapointe", "addr:city": "Anjou", "addr:state": "QC", "addr:postcode": "H1J 2V7", "addr:country": "CA", "name": "Home Depot : Magasin sp\u00e9cialis\u00e9 en am\u00e9lioration domiciliaire et en quincaillerie \u00e0 Anjou.", "phone": "(514) 356-3650", "website": "https://stores.homedepot.ca/qc/anjou/bricolage-anjou-qc-7156.html", "opening_hours": "Mo-Fr 08:00-21:00; Sa-Su 08:00-17:00", "brand": "The Home Depot", "brand:wikidata": "Q864407", "nsi_id": "thehomedepot-00d2a0"}, "geometry": {"type": "Point", "coordinates": [-73.599694, 45.610498]}},
{"type": "Feature", "id": "0Qq6KMG-XvaHuzpJk607Xrwn1dY=", "properties": {"ref": "7002", "@spider": "homedepot_ca", "alt_name": "Home Depot", "shop": "doityourself", "addr:street_address": "140 Northview Boulevard", "addr:city": "Woodbridge", "addr:state": "ON", "addr:postcode": "L4L 8T2", "addr:country": "CA", "name": "The Home Depot: Home Improvement & Hardware Store in Woodbridge.", "phone": "(905) 851-1800", "website": "https://stores.homedepot.ca/on/woodbridge/home-improvement-woodbridge-on-7002.html", "opening_hours": "Mo-Fr 06:00-21:00; Sa 07:00-20:00; Su 08:00-20:00", "brand": "The Home Depot", "brand:wikidata": "Q864407", "nsi_id": "thehomedepot-00d2a0"}, "geometry": {"type": "Point", "coordinates": [-79.5458006, 43.7915016]}},
{"type": "Feature", "id": "1l-W7w85_QStWp0P3GiBuCXRdAE=", "properties": {"ref": "7182", "@spider": "homedepot_ca", "alt_name": "Home Depot", "shop": "doityourself", "addr:street_address": "901 Juliana Drive", "addr:city": "Woodstock", "addr:state": "ON", "addr:postcode": "N4V 1B9", "addr:country": "CA", "name": "The Home Depot: Home Improvement & Hardware Store in Woodstock.", "phone": "(519) 421-5500", "website": "https://stores.homedepot.ca/on/woodstock/home-improvement-woodstock-on-7182.html", "opening_hours": "Mo-Fr 07:00-21:00; Sa 07:00-19:00; Su 08:00-18:00", "brand": "The Home Depot", "brand:wikidata": "Q864407", "nsi_id": "thehomedepot-00d2a0"}, "geometry": {"type": "Point", "coordinates": [-80.7310547, 43.1171202]}},
{"type": "Feature", "id": "py3_16bKm2Echbk5l46SY_o22sk=", "properties": {"ref": "7228", "@spider": "homedepot_ca", "alt_name": "Home Depot", "shop": "doityourself", "addr:street_address": "1925 Division Road", "addr:city": "Windsor", "addr:state": "ON", "addr:postcode": "N8W 1Z7", "addr:country": "CA", "name": "The Home Depot: Home Improvement & Hardware Store in Windsor.", "phone": "(519) 967-3700", "website": "https://stores.homedepot.ca/on/windsor/home-improvement-windsor-on-7228.html", "opening_hours": "Mo-Fr 07:00-21:00; Sa 07:00-20:00; Su 08:00-20:00", "brand": "The Home Depot", "brand:wikidata": "Q864407", "nsi_id": "thehomedepot-00d2a0"}, "geometry": {"type": "Point", "coordinates": [-82.975784, 42.262159]}},
{"type": "Feature", "id": "_7ILvsh3tMroRg7MjpHVlNCii98=", "properties": {"ref": "7184", "@spider": "homedepot_ca", "alt_name": "Home Depot", "shop": "doityourself", "addr:street_address": "6630 Tecumseh Rd. E", "addr:city": "Windsor", "addr:state": "ON", "addr:postcode": "N8T 1E6", "addr:country": "CA", "name": "The Home Depot: Home Improvement & Hardware Store in Windsor.", "phone": "(519) 974-5420", "website": "https://stores.homedepot.ca/on/windsor/home-improvement-windsor-on-7184.html", "opening_hours": "Mo-Fr 07:00-21:00; Sa 07:00-20:00; Su 08:00-20:00", "brand": "The Home Depot", "brand:wikidata": "Q864407", "nsi_id": "thehomedepot-00d2a0"}, "geometry": {"type": "Point", "coordinates": [-82.9470722, 42.3136898]}},
{"type": "Feature", "id": "5ChG7rw8JrkbmzdBuajbXE_ZiNs=", "properties": {"ref": "7249", "@spider": "homedepot_ca", "alt_name": "Home Depot", "shop": "doityourself", "addr:street_address": "4200 Garden Street", "addr:city": "Whitby", "addr:state": "ON", "addr:postcode": "L1R 3K5", "addr:country": "CA", "name": "The Home Depot: Home Improvement & Hardware Store in Whitby.", "phone": "(905) 655-2900", "website": "https://stores.homedepot.ca/on/whitby/home-improvement-whitby-on-7249.html", "opening_hours": "Mo-Fr 06:00-21:00; Sa 07:00-20:00; Su 08:00-20:00", "brand": "The Home Depot", "brand:wikidata": "Q864407", "nsi_id": "thehomedepot-00d2a0"}, "geometry": {"type": "Point", "coordinates": [-78.949099, 43.921177]}},
{"type": "Feature", "id": "NTbR_ymWo6twm2mNrFQ76uqUeng=", "properties": {"ref": "7005", "@spider": "homedepot_ca", "alt_name": "Home Depot", "shop": "doityourself", "addr:street_address": "1700 Victoria Street East", "addr:city": "Whitby", "addr:state": "ON", "addr:postcode": "L1N 9K6", "addr:country": "CA", "name": "The Home Depot: Home Improvement & Hardware Store in Whitby.", "phone": "(800) 466-3337", "website": "https://stores.homedepot.ca/on/whitby/home-improvement-whitby-on-plmr7005.html", "brand": "The Home Depot", "brand:wikidata": "Q864407", "nsi_id": "thehomedepot-00d2a0"}, "geometry": {"type": "Point", "coordinates": [-78.8981017, 43.869385]}},
{"type": "Feature", "id": "SElVpHWwvux8v07hAJlGnt_TCWE=", "properties": {"ref": "7105", "@spider": "homedepot_ca", "alt_name": "Home Depot", "shop": "doityourself", "addr:street_address": "600 King Street North", "addr:city": "Waterloo", "addr:state": "ON", "addr:postcode": "N2V 2J5", "addr:country": "CA", "name": "Home Depot : Magasin sp\u00e9cialis\u00e9 en am\u00e9lioration domiciliaire et en quincaillerie \u00e0 Waterloo.", "phone": "(519) 883-0580", "website": "https://stores.homedepot.ca/on/waterloo/bricolage-waterloo-on-7105.html", "opening_hours": "Mo-Fr 07:00-21:00; Sa 07:00-20:00; Su 08:00-20:00", "brand": "The Home Depot", "brand:wikidata": "Q864407", "nsi_id": "thehomedepot-00d2a0"}, "geometry": {"type": "Point", "coordinates": [-80.5332493, 43.502694]}},
{"type": "Feature", "id": "iSiz5KkY_3ppSf1-MasXZMdbf3M=", "properties": {"ref": "7253", "@spider": "homedepot_ca", "alt_name": "Home Depot", "shop": "doityourself", "addr:street_address": "55 Cityview Blvd.", "addr:city": "Vaughan", "addr:state": "ON", "addr:postcode": "L4H 4E8", "addr:country": "CA", "name": "The Home Depot: Home Improvement & Hardware Store in Vaughan.", "phone": "(800) 466-3337", "website": "https://stores.homedepot.ca/on/vaughan/home-improvement-vaughan-on-plmr7253.html", "brand": "The Home Depot", "brand:wikidata": "Q864407", "nsi_id": "thehomedepot-00d2a0"}, "geometry": {"type": "Point", "coordinates": [-79.5522657, 43.8482143]}},
{"type": "Feature", "id": "nkGxo7dBaaxtObdNlzU2Oc86WQc=", "properties": {"ref": "7080", "@spider": "homedepot_ca", "alt_name": "Home Depot", "shop": "doityourself", "addr:street_address": "1000 Gerrard Street East", "addr:city": "Toronto", "addr:state": "ON", "addr:postcode": "M4M 3G6", "addr:country": "CA", "name": "The Home Depot: Home Improvement & Hardware Store in Toronto.", "phone": "(800) 466-3337", "website": "https://stores.homedepot.ca/on/toronto/home-improvement-toronto-on-plmr7080.html", "opening_hours": "Mo-Fr 06:00-21:00; Sa 07:00-21:00; Su 07:00-20:00", "brand": "The Home Depot", "brand:wikidata": "Q864407", "nsi_id": "thehomedepot-00d2a0"}, "geometry": {"type": "Point", "coordinates": [-79.3391627, 43.669144]}},
{"type": "Feature", "id": "9GE1Y3mqYq9o0fdJbT_KWtGD9pU=", "properties": {"ref": "7129", "@spider": "homedepot_ca", "alt_name": "Home Depot", "shop": "doityourself", "addr:street_address": "90 Billy Bishop Way", "addr:city": "Toronto", "addr:state": "ON", "addr:postcode": "M3K 2C8", "addr:country": "CA", "name": "The Home Depot: Home Improvement & Hardware Store in Toronto.", "phone": "(416) 373-6000", "website": "https://stores.homedepot.ca/on/toronto/home-improvement-toronto-on-7129.html", "opening_hours": "Mo-Fr 06:00-21:00; Sa 07:00-20:00; Su 08:00-20:00", "brand": "The Home Depot", "brand:wikidata": "Q864407", "nsi_id": "thehomedepot-00d2a0"}, "geometry": {"type": "Point", "coordinates": [-79.4528202, 43.7318303]}},
{"type": "Feature", "id": "FrdKms31W3_ItUWxyo2uyq8XnL8=", "properties": {"ref": "7107", "@spider": "homedepot_ca", "alt_name": "Home Depot", "shop": "doityourself", "addr:street_address": "2911 Eglinton Avenue East", "addr:city": "Toronto", "addr:state": "ON", "addr:postcode": "M1J 2E5", "addr:country": "CA", "name": "The Home Depot: Home Improvement & Hardware Store in Toronto.", "phone": "(416) 289-2500", "website": "https://stores.homedepot.ca/on/toronto/home-improvement-toronto-on-7107.html", "opening_hours": "Mo-Fr 06:00-21:00; Sa 07:00-20:00; Su 08:00-20:00", "brand": "The Home Depot", "brand:wikidata": "Q864407", "nsi_id": "thehomedepot-00d2a0"}, "geometry": {"type": "Point", "coordinates": [-79.2368126, 43.7383743]}},
{"type": "Feature", "id": "kOsMWp6JI2pTJ4LtxrlzmTeGo6Q=", "properties": {"ref": "7134", "@spider": "homedepot_ca", "alt_name": "Home Depot", "shop": "doityourself", "addr:street_address": "825 Caledonia Road", "addr:city": "Toronto", "addr:state": "ON", "addr:postcode": "M6B 3X8", "addr:country": "CA", "name": "The Home Depot: Home Improvement & Hardware Store in Toronto.", "phone": "(416) 780-4730", "website": "https://stores.homedepot.ca/on/toronto/home-improvement-toronto-on-7134.html", "opening_hours": "Mo-Fr 06:00-21:00; Sa 07:00-20:00; Su 08:00-20:00", "brand": "The Home Depot", "brand:wikidata": "Q864407", "nsi_id": "thehomedepot-00d2a0"}, "geometry": {"type": "Point", "coordinates": [-79.4622902, 43.7013171]}},
{"type": "Feature", "id": "O1o8Rx9AI73e8__q6UoybKj4b7o=", "properties": {"ref": "7078", "@spider": "homedepot_ca", "alt_name": "Home Depot", "shop": "doityourself", "addr:street_address": "2375 Steeles Ave. West", "addr:city": "Toronto", "addr:state": "ON", "addr:postcode": "M3J 3N2", "addr:country": "CA", "name": "The Home Depot: Home Improvement & Hardware Store in Toronto.", "phone": "(416) 664-9800", "website": "https://stores.homedepot.ca/on/toronto/home-improvement-toronto-on-7078.html", "opening_hours": "Mo-Fr 06:00-21:00; Sa 07:00-20:00; Su 08:00-20:00", "brand": "The Home Depot", "brand:wikidata": "Q864407", "nsi_id": "thehomedepot-00d2a0"}, "geometry": {"type": "Point", "coordinates": [-79.480949, 43.784856]}},
{"type": "Feature", "id": "mjby6otqcEKYCX3wUU5Lu0BINpo=", "properties": {"ref": "7013", "@spider": "homedepot_ca", "alt_name": "Home Depot", "shop": "doityourself", "addr:street_address": "2121 St. Clair Avenue West", "addr:city": "Toronto", "addr:state": "ON", "addr:postcode": "M6N 5A8", "addr:country": "CA", "name": "The Home Depot: Home Improvement & Hardware Store in Toronto.", "phone": "(416) 766-2800", "website": "https://stores.homedepot.ca/on/toronto/home-improvement-toronto-on-7013.html", "opening_hours": "Mo-Fr 06:00-21:00; Sa 07:00-20:00; Su 08:00-20:00", "brand": "The Home Depot", "brand:wikidata": "Q864407", "nsi_id": "thehomedepot-00d2a0"}, "geometry": {"type": "Point", "coordinates": [-79.4695096, 43.6713903]}},
{"type": "Feature", "id": "VPsJeLRxzmqK4KenayVd1qxa3qc=", "properties": {"ref": "7073", "@spider": "homedepot_ca", "alt_name": "Home Depot", "shop": "doityourself", "addr:street_address": "101 Wicksteed Ave", "addr:city": "Toronto", "addr:state": "ON", "addr:postcode": "M4G 4H9", "addr:country": "CA", "name": "The Home Depot: Home Improvement & Hardware Store in Toronto.", "phone": "(416) 467-2300", "website": "https://stores.homedepot.ca/on/toronto/home-improvement-toronto-on-7073.html", "opening_hours": "Mo-Fr 06:00-21:00; Sa 07:00-20:00; Su 08:00-20:00", "brand": "The Home Depot", "brand:wikidata": "Q864407", "nsi_id": "thehomedepot-00d2a0"}, "geometry": {"type": "Point", "coordinates": [-79.3575317, 43.7106641]}},
{"type": "Feature", "id": "UqstewJgYQMD9_WEnXCj3sAbDpw=", "properties": {"ref": "7012", "@spider": "homedepot_ca", "alt_name": "Home Depot", "shop": "doityourself", "addr:street_address": "7 Curity Avenue", "addr:city": "Toronto", "addr:state": "ON", "addr:postcode": "M4B 3L8", "addr:country": "CA", "name": "The Home Depot: Home Improvement & Hardware Store in Toronto.", "phone": "(416) 752-5900", "website": "https://stores.homedepot.ca/on/toronto/home-improvement-toronto-on-7012.html", "opening_hours": "Mo-Fr 06:00-21:00; Sa 07:00-20:00; Su 08:00-20:00", "brand": "The Home Depot", "brand:wikidata": "Q864407", "nsi_id": "thehomedepot-00d2a0"}, "geometry": {"type": "Point", "coordinates": [-79.3142242, 43.7075704]}},
{"type": "Feature", "id": "JNxMB4Xjvn8Yj72AaYVL9Eguq-I=", "properties": {"ref": "7027", "@spider": "homedepot_ca", "alt_name": "Home Depot", "shop": "doityourself", "addr:street_address": "60 Grand Marshall Drive", "addr:city": "Toronto", "addr:state": "ON", "addr:postcode": "M1B 5N6", "addr:country": "CA", "name": "The Home Depot: Home Improvement & Hardware Store in Toronto.", "phone": "(416) 283-3166", "website": "https://stores.homedepot.ca/on/toronto/home-improvement-toronto-on-7027.html", "opening_hours": "Mo-Fr 06:00-21:00; Sa 07:00-20:00; Su 08:00-20:00", "brand": "The Home Depot", "brand:wikidata": "Q864407", "nsi_id": "thehomedepot-00d2a0"}, "geometry": {"type": "Point", "coordinates": [-79.1962761, 43.8017365]}},
{"type": "Feature", "id": "akbzULEXzg0LqlW2yGyzAfkY6hw=", "properties": {"ref": "7236", "@spider": "homedepot_ca", "alt_name": "Home Depot", "shop": "doityourself", "addr:street_address": "2143 Riverside Drive", "addr:city": "Timmins", "addr:state": "ON", "addr:postcode": "P4N 7C3", "addr:country": "CA", "name": "The Home Depot: Home Improvement & Hardware Store in Timmins.", "phone": "(705) 360-8750", "website": "https://stores.homedepot.ca/on/timmins/home-improvement-timmins-on-7236.html", "opening_hours": "Mo-Fr 07:00-21:00; Sa 07:00-20:00; Su 08:00-18:00", "brand": "The Home Depot", "brand:wikidata": "Q864407", "nsi_id": "thehomedepot-00d2a0"}, "geometry": {"type": "Point", "coordinates": [-81.400092, 48.472741]}},
{"type": "Feature", "id": "hPeujQBzBe-XEEYqSovTscXPFq0=", "properties": {"ref": "7102", "@spider": "homedepot_ca", "alt_name": "Home Depot", "shop": "doityourself", "addr:street_address": "359 Main Street", "addr:city": "Thunder Bay", "addr:state": "ON", "addr:postcode": "P7B 5L6", "addr:country": "CA", "name": "The Home Depot: Home Improvement & Hardware Store in Thunder Bay.", "phone": "(807) 624-1100", "website": "https://stores.homedepot.ca/on/thunderbay/home-improvement-thunderbay-on-7102.html", "opening_hours": "Mo-Fr 07:00-21:00; Sa 07:00-20:00; Su 08:00-18:00", "brand": "The Home Depot", "brand:wikidata": "Q864407", "nsi_id": "thehomedepot-00d2a0"}, "geometry": {"type": "Point", "coordinates": [-89.2363874, 48.4022825]}},
{"type": "Feature", "id": "kcS1fVITTxHBWcmQQSdeOmv784o=", "properties": {"ref": "7022", "@spider": "homedepot_ca", "alt_name": "Home Depot", "shop": "doityourself", "addr:street_address": "1500 Marcus Drive", "addr:city": "Sudbury", "addr:state": "ON", "addr:postcode": "P3B 4K5", "addr:country": "CA", "name": "The Home Depot: Home Improvement & Hardware Store in Sudbury.", "phone": "(705) 525-2960", "website": "https://stores.homedepot.ca/on/sudbury/home-improvement-sudbury-on-7022.html", "opening_hours": "Mo-Fr 07:00-21:00; Sa 07:00-20:00; Su 08:00-19:00", "brand": "The Home Depot", "brand:wikidata": "Q864407", "nsi_id": "thehomedepot-00d2a0"}, "geometry": {"type": "Point", "coordinates": [-80.9416899, 46.5037511]}},
{"type": "Feature", "id": "EzbU7RFiF_S6haVYgDbIhtrLufc=", "properties": {"ref": "7023", "@spider": "homedepot_ca", "alt_name": "Home Depot", "shop": "doityourself", "addr:street_address": "20 YMCA Drive", "addr:city": "St. Catharines", "addr:state": "ON", "addr:postcode": "L2N 7R6", "addr:country": "CA", "name": "The Home Depot: Home Improvement & Hardware Store in St. Catharines.", "phone": "(905) 937-5900", "website": "https://stores.homedepot.ca/on/st-catharines/home-improvement-st-catharines-on-7023.html", "opening_hours": "Mo-Fr 07:00-21:00; Sa 07:00-20:00; Su 08:00-20:00", "brand": "The Home Depot", "brand:wikidata": "Q864407", "nsi_id": "thehomedepot-00d2a0"}, "geometry": {"type": "Point", "coordinates": [-79.2470348, 43.1799501]}},
{"type": "Feature", "id": "UfXVD79X58kIyAah_I0ke4sGAqA=", "properties": {"ref": "7256", "@spider": "homedepot_ca", "alt_name": "Home Depot", "shop": "doityourself", "addr:street_address": "1775 Stone Church Road East", "addr:city": "Stoney Creek", "addr:state": "ON", "addr:postcode": "L8J 0B4", "addr:country": "CA", "name": "Home Depot : Magasin sp\u00e9cialis\u00e9 en am\u00e9lioration domiciliaire et en quincaillerie \u00e0 Stoney Creek.", "phone": "(905) 574-4400", "website": "https://stores.homedepot.ca/on/stoneycreek/bricolage-stoneycreek-on-7256.html", "opening_hours": "Mo-Fr 07:00-21:00; Sa 07:00-20:00; Su 08:00-20:00", "brand": "The Home Depot", "brand:wikidata": "Q864407", "nsi_id": "thehomedepot-00d2a0"}, "geometry": {"type": "Point", "coordinates": [-79.8136232, 43.1935141]}},
{"type": "Feature", "id": "WYZc1QfgIVjPx-49YV-X-Smps90=", "properties": {"ref": "7001", "@spider": "homedepot_ca", "alt_name": "Home Depot", "shop": "doityourself", "addr:street_address": "428 Ellesmere Road", "addr:city": "Scarborough", "addr:state": "ON", "addr:postcode": "M1R 4E6", "addr:country": "CA", "name": "The Home Depot: Home Improvement & Hardware Store in Scarborough.", "phone": "(416) 609-1800", "website": "https://stores.homedepot.ca/on/scarborough/home-improvement-scarborough-on-7001.html", "opening_hours": "Mo-Fr 06:00-21:00; Sa 07:00-20:00; Su 08:00-20:00", "brand": "The Home Depot", "brand:wikidata": "Q864407", "nsi_id": "thehomedepot-00d2a0"}, "geometry": {"type": "Point", "coordinates": [-79.2982195, 43.762788]}},
{"type": "Feature", "id": "DE_FsIrAaEkAp_4vgjea0PGaZ9U=", "properties": {"ref": "7034", "@spider": "homedepot_ca", "alt_name": "Home Depot", "shop": "doityourself", "addr:street_address": "530 Great Northern Road", "addr:city": "Sault Ste. Marie", "addr:state": "ON", "addr:postcode": "P6B 4Z9", "addr:country": "CA", "name": "The Home Depot: Home Improvement & Hardware Store in Sault Ste. Marie.", "phone": "(705) 254-1150", "website": "https://stores.homedepot.ca/on/saultste-marie/home-improvement-saultste-marie-on-7034.html", "opening_hours": "Mo-Fr 07:00-21:00; Sa 07:00-20:00; Su 08:00-18:00", "brand": "The Home Depot", "brand:wikidata": "Q864407", "nsi_id": "thehomedepot-00d2a0"}, "geometry": {"type": "Point", "coordinates": [-84.3151766, 46.5432202]}},
{"type": "Feature", "id": "jYAhlExhEDC4Nl8sjrO84HrR79g=", "properties": {"ref": "7153", "@spider": "homedepot_ca", "alt_name": "Home Depot", "shop": "doityourself", "addr:street_address": "1350 Quinn Drive", "addr:city": "Sarnia", "addr:state": "ON", "addr:postcode": "N7S 6L5", "addr:country": "CA", "name": "The Home Depot: Home Improvement & Hardware Store in Sarnia.", "phone": "(519) 333-2300", "website": "https://stores.homedepot.ca/on/sarnia/home-improvement-sarnia-on-7153.html", "opening_hours": "Mo-Fr 07:00-21:00; Sa 07:00-20:00; Su 08:00-20:00", "brand": "The Home Depot", "brand:wikidata": "Q864407", "nsi_id": "thehomedepot-00d2a0"}, "geometry": {"type": "Point", "coordinates": [-82.3558169, 42.9871358]}},
{"type": "Feature", "id": "NP6Mrx5ZvRm5mSD5Hx2d90l7Lh8=", "properties": {"ref": "7106", "@spider": "homedepot_ca", "alt_name": "Home Depot", "shop": "doityourself", "addr:street_address": "50 Red Maple Road", "addr:city": "Richmond Hill", "addr:state": "ON", "addr:postcode": "L4B 4K1", "addr:country": "CA", "name": "The Home Depot: Home Improvement & Hardware Store in Richmond Hill.", "phone": "(800) 466-3337", "website": "https://stores.homedepot.ca/on/richmondhill/home-improvement-richmondhill-on-plmr7106.html", "opening_hours": "Mo-Fr 06:00-21:00; Sa 07:00-21:00; Su 07:00-20:00", "brand": "The Home Depot", "brand:wikidata": "Q864407", "nsi_id": "thehomedepot-00d2a0"}, "geometry": {"type": "Point", "coordinates": [-79.4237948, 43.8408848]}},
{"type": "Feature", "id": "0pZlfj2_P9lZuIP-Cat4cgFJCl8=", "properties": {"ref": "7161", "@spider": "homedepot_ca", "alt_name": "Home Depot", "shop": "doityourself", "addr:street_address": "10885 Leslie Street", "addr:city": "Richmond Hill", "addr:state": "ON", "addr:postcode": "L4S 0B2", "addr:country": "CA", "name": "The Home Depot: Home Improvement & Hardware Store in Richmond Hill.", "phone": "(905) 787-7200", "website": "https://stores.homedepot.ca/on/richmondhill/home-improvement-richmondhill-on-7161.html", "opening_hours": "Mo-Fr 06:00-21:00; Sa 07:00-20:00; Su 08:00-20:00", "brand": "The Home Depot", "brand:wikidata": "Q864407", "nsi_id": "thehomedepot-00d2a0"}, "geometry": {"type": "Point", "coordinates": [-79.3959043, 43.9018829]}},
{"type": "Feature", "id": "Bob9qIwdvJjoO7tojTEhFaU-ME4=", "properties": {"ref": "7238", "@spider": "homedepot_ca", "alt_name": "Home Depot", "shop": "doityourself", "addr:street_address": "1105-A Kingston Road", "addr:city": "Pickering", "addr:state": "ON", "addr:postcode": "L1V 1B5", "addr:country": "CA", "name": "The Home Depot: Home Improvement & Hardware Store in Pickering.", "phone": "(800) 466-3337", "website": "https://stores.homedepot.ca/on/pickering/home-improvement-pickering-on-plmr7238.html", "brand": "The Home Depot", "brand:wikidata": "Q864407", "nsi_id": "thehomedepot-00d2a0"}, "geometry": {"type": "Point", "coordinates": [-79.0945839, 43.8290725]}},
{"type": "Feature", "id": "JSgvBZohJiAPcbR57dNAUNz7l3o=", "properties": {"ref": "7116", "@spider": "homedepot_ca", "alt_name": "Home Depot", "shop": "doityourself", "addr:street_address": "500 Lansdowne Street West", "addr:city": "Peterborough", "addr:state": "ON", "addr:postcode": "K9J 8J7", "addr:country": "CA", "name": "The Home Depot: Home Improvement & Hardware Store in Peterborough.", "phone": "(705) 876-4560", "website": "https://stores.homedepot.ca/on/peterborough/home-improvement-peterborough-on-7116.html", "opening_hours": "Mo-Fr 06:00-21:00; Sa 07:00-20:00; Su 08:00-20:00", "brand": "The Home Depot", "brand:wikidata": "Q864407", "nsi_id": "thehomedepot-00d2a0"}, "geometry": {"type": "Point", "coordinates": [-78.3253325, 44.2882012]}},
{"type": "Feature", "id": "p3A_2fYIXQ91jXUTAOdfX7J4Z48=", "properties": {"ref": "7242", "@spider": "homedepot_ca", "alt_name": "Home Depot", "shop": "doityourself", "addr:street_address": "27 Robinson Lane", "addr:city": "Pembroke", "addr:state": "ON", "addr:postcode": "K8A 0A5", "addr:country": "CA", "name": "Home Depot : Magasin sp\u00e9cialis\u00e9 en am\u00e9lioration domiciliaire et en quincaillerie \u00e0 Pembroke.", "phone": "(613) 732-6550", "website": "https://stores.homedepot.ca/on/pembroke/bricolage-pembroke-on-7242.html", "opening_hours": "Mo-Sa 07:00-20:00; Su 08:00-18:00", "brand": "The Home Depot", "brand:wikidata": "Q864407", "nsi_id": "thehomedepot-00d2a0"}, "geometry": {"type": "Point", "coordinates": [-77.079101, 45.814858]}},
{"type": "Feature", "id": "w7cmOCGw1896D_jGjVuCNaE3x1g=", "properties": {"ref": "7226", "@spider": "homedepot_ca", "alt_name": "Home Depot", "shop": "doityourself", "addr:street_address": "100 Bowes Street", "addr:city": "Parry Sound", "addr:state": "ON", "addr:postcode": "P2A 2L7", "addr:country": "CA", "name": "Home Depot : Magasin sp\u00e9cialis\u00e9 en am\u00e9lioration domiciliaire et en quincaillerie \u00e0 Parry Sound.", "phone": "(705) 774-7000", "website": "https://stores.homedepot.ca/on/parrysound/bricolage-parrysound-on-7226.html", "opening_hours": "Mo-Fr 07:00-20:00; Sa 08:00-18:00; Su 09:00-18:00", "brand": "The Home Depot", "brand:wikidata": "Q864407", "nsi_id": "thehomedepot-00d2a0"}, "geometry": {"type": "Point", "coordinates": [-80.0140426, 45.3431712]}},
{"type": "Feature", "id": "gl1FsrosKARQwNtoilAGaTmWHV0=", "properties": {"ref": "7158", "@spider": "homedepot_ca", "alt_name": "Home Depot", "shop": "doityourself", "addr:street_address": "2056 Bank Street", "addr:city": "Ottawa", "addr:state": "ON", "addr:postcode": "K1V 7Z8", "addr:country": "CA", "name": "The Home Depot: Home Improvement & Hardware Store in Ottawa.", "phone": "(613) 739-5300", "website": "https://stores.homedepot.ca/on/ottawa/home-improvement-ottawa-on-7158.html", "opening_hours": "Mo-Fr 06:00-21:00; Sa 07:00-20:00; Su 08:00-20:00", "brand": "The Home Depot", "brand:wikidata": "Q864407", "nsi_id": "thehomedepot-00d2a0"}, "geometry": {"type": "Point", "coordinates": [-75.6605302, 45.3643463]}},
{"type": "Feature", "id": "_RxgsWWdSpDGtxUQw2aaEDvS92s=", "properties": {"ref": "7154", "@spider": "homedepot_ca", "alt_name": "Home Depot", "shop": "doityourself", "addr:street_address": "1590-20th Avenue East", "addr:city": "Owen Sound", "addr:state": "ON", "addr:postcode": "N4K 5N3", "addr:country": "CA", "name": "The Home Depot: Home Improvement & Hardware Store in Owen Sound.", "phone": "(519) 372-3970", "website": "https://stores.homedepot.ca/on/owensound/home-improvement-owensound-on-7154.html", "opening_hours": "Mo-Fr 07:00-21:00; Sa 07:00-19:00; Su 08:00-18:00", "brand": "The Home Depot", "brand:wikidata": "Q864407", "nsi_id": "thehomedepot-00d2a0"}, "geometry": {"type": "Point", "coordinates": [-80.907791, 44.584265]}},
{"type": "Feature", "id": "fsQpsDRkDxPezu1QadjZ5TO4UCo=", "properties": {"ref": "7026", "@spider": "homedepot_ca", "alt_name": "Home Depot", "shop": "doityourself", "addr:street_address": "1900 Baseline Road", "addr:city": "Ottawa", "addr:state": "ON", "addr:postcode": "K2C 0C6", "addr:country": "CA", "name": "The Home Depot: Home Improvement & Hardware Store in Ottawa.", "phone": "(613) 723-5900", "website": "https://stores.homedepot.ca/on/ottawa/home-improvement-ottawa-on-7026.html", "opening_hours": "Mo-Fr 06:00-21:00; Sa 07:00-20:00; Su 08:00-20:00", "brand": "The Home Depot", "brand:wikidata": "Q864407", "nsi_id": "thehomedepot-00d2a0"}, "geometry": {"type": "Point", "coordinates": [-75.7583758, 45.3526199]}},
{"type": "Feature", "id": "dQNSYC9y6Or8L668SNJJF7Kwxu0=", "properties": {"ref": "7123", "@spider": "homedepot_ca", "alt_name": "Home Depot", "shop": "doityourself", "addr:street_address": "1481 Harmony Rd. N.", "addr:city": "Oshawa", "addr:state": "ON", "addr:postcode": "L1H 7K5", "addr:country": "CA", "name": "The Home Depot: Home Improvement & Hardware Store in Oshawa.", "phone": "(800) 466-3337", "website": "https://stores.homedepot.ca/on/oshawa/home-improvement-oshawa-on-plmr7123.html", "brand": "The Home Depot", "brand:wikidata": "Q864407", "nsi_id": "thehomedepot-00d2a0"}, "geometry": {"type": "Point", "coordinates": [-78.845917, 43.9438867]}},
{"type": "Feature", "id": "leQBHJwaR0Ry2lPssdfr68bGexE=", "properties": {"ref": "7118", "@spider": "homedepot_ca", "alt_name": "Home Depot", "shop": "doityourself", "addr:street_address": "2121 10th Line", "addr:city": "Orleans", "addr:state": "ON", "addr:postcode": "K4A 4C5", "addr:country": "CA", "name": "The Home Depot: Home Improvement & Hardware Store in Orleans.", "phone": "(613) 590-2030", "website": "https://stores.homedepot.ca/on/orleans/home-improvement-orleans-on-7118.html", "opening_hours": "Mo-Fr 06:00-21:00; Sa 07:00-20:00; Su 08:00-20:00", "brand": "The Home Depot", "brand:wikidata": "Q864407", "nsi_id": "thehomedepot-00d2a0"}, "geometry": {"type": "Point", "coordinates": [-75.483584, 45.460312]}},
{"type": "Feature", "id": "r9gBCEQ2XJJbgPQvSs_W2wpR_Jg=", "properties": {"ref": "7137", "@spider": "homedepot_ca", "alt_name": "Home Depot", "shop": "doityourself", "addr:street_address": "3225 Monarch Dr.", "addr:city": "Orillia", "addr:state": "ON", "addr:postcode": "L3V 7Z4", "addr:country": "CA", "name": "The Home Depot: Home Improvement & Hardware Store in Orillia.", "phone": "(705) 327-6500", "website": "https://stores.homedepot.ca/on/orillia/home-improvement-orillia-on-7137.html", "opening_hours": "Mo-Fr 07:00-21:00; Sa 07:00-19:00; Su 08:00-19:00", "brand": "The Home Depot", "brand:wikidata": "Q864407", "nsi_id": "thehomedepot-00d2a0"}, "geometry": {"type": "Point", "coordinates": [-79.452306, 44.60805]}},
{"type": "Feature", "id": "LzAq6Rr8P6FGHz84YfdzDEYfBvA=", "properties": {"ref": "7167", "@spider": "homedepot_ca", "alt_name": "Home Depot", "shop": "doityourself", "addr:street_address": "49 Fourth Avenue", "addr:city": "Orangeville", "addr:state": "ON", "addr:postcode": "L9W 1G7", "addr:country": "CA", "name": "The Home Depot: Home Improvement & Hardware Store in Orangeville.", "phone": "(519) 940-9061", "website": "https://stores.homedepot.ca/on/orangeville/home-improvement-orangeville-on-7167.html", "opening_hours": "Mo-Fr 06:00-21:00; Sa 07:00-20:00; Su 08:00-20:00", "brand": "The Home Depot", "brand:wikidata": "Q864407", "nsi_id": "thehomedepot-00d2a0"}, "geometry": {"type": "Point", "coordinates": [-80.0943944, 43.9262637]}},
{"type": "Feature", "id": "pbjjEnahK0Lw96Ag42Y7vm3Wluk=", "properties": {"ref": "7157", "@spider": "homedepot_ca", "alt_name": "Home Depot", "shop": "doityourself", "addr:street_address": "99 Cross Avenue", "addr:city": "Oakville", "addr:state": "ON", "addr:postcode": "L6J 2W7", "addr:country": "CA", "name": "The Home Depot: Home Improvement & Hardware Store in Oakville.", "phone": "(905) 815-5000", "website": "https://stores.homedepot.ca/on/oakville/home-improvement-oakville-on-7157.html", "opening_hours": "Mo-Fr 06:00-21:00; Sa 07:00-20:00; Su 08:00-20:00", "brand": "The Home Depot", "brand:wikidata": "Q864407", "nsi_id": "thehomedepot-00d2a0"}, "geometry": {"type": "Point", "coordinates": [-79.686838, 43.453938]}},
{"type": "Feature", "id": "v7IPEWhbSkx6z08afqaicafM7oQ=", "properties": {"ref": "7115", "@spider": "homedepot_ca", "alt_name": "Home Depot", "shop": "doityourself", "addr:street_address": "3300 South Service Road West", "addr:city": "Oakville", "addr:state": "ON", "addr:postcode": "L6L 0B1", "addr:country": "CA", "name": "The Home Depot: Home Improvement & Hardware Store in Oakville.", "phone": "(905) 469-7110", "website": "https://stores.homedepot.ca/on/oakville/home-improvement-oakville-on-7115.html", "opening_hours": "Mo-Fr 06:00-21:00; Sa 07:00-20:00; Su 08:00-20:00", "brand": "The Home Depot", "brand:wikidata": "Q864407", "nsi_id": "thehomedepot-00d2a0"}, "geometry": {"type": "Point", "coordinates": [-79.7492632, 43.3996979]}},
{"type": "Feature", "id": "EU605KBammxUiRdxv68FJWGjVMY=", "properties": {"ref": "7003", "@spider": "homedepot_ca", "alt_name": "Home Depot", "shop": "doityourself", "addr:street_address": "2555 Bristol Circle", "addr:city": "Oakville", "addr:state": "ON", "addr:postcode": "L6H 5W9", "addr:country": "CA", "name": "The Home Depot: Home Improvement & Hardware Store in Oakville.", "phone": "(905) 829-5900", "website": "https://stores.homedepot.ca/on/oakville/home-improvement-oakville-on-7003.html", "opening_hours": "Mo-Fr 06:00-21:00; Sa 07:00-20:00; Su 08:00-20:00", "brand": "The Home Depot", "brand:wikidata": "Q864407", "nsi_id": "thehomedepot-00d2a0"}, "geometry": {"type": "Point", "coordinates": [-79.6845627, 43.5180044]}},
{"type": "Feature", "id": "uFBd3Z8v8OdemL5FEkcvEEg3b60=", "properties": {"ref": "7160", "@spider": "homedepot_ca", "alt_name": "Home Depot", "shop": "doityourself", "addr:street_address": "1275 Seymour Street", "addr:city": "North Bay", "addr:state": "ON", "addr:postcode": "P1B 9V6", "addr:country": "CA", "name": "The Home Depot: Home Improvement & Hardware Store in North Bay.", "phone": "(705) 845-2300", "website": "https://stores.homedepot.ca/on/northbay/home-improvement-northbay-on-7160.html", "opening_hours": "Mo-Fr 07:00-20:00; Sa 07:00-19:00; Su 08:00-18:00", "brand": "The Home Depot", "brand:wikidata": "Q864407", "nsi_id": "thehomedepot-00d2a0"}, "geometry": {"type": "Point", "coordinates": [-79.4387736, 46.306553]}},
{"type": "Feature", "id": "xHLgYNQB6ZREMjBGp3Wm3eYFsTs=", "properties": {"ref": "7174", "@spider": "homedepot_ca", "alt_name": "Home Depot", "shop": "doityourself", "addr:street_address": "7190 Morrison Street", "addr:city": "Niagara Falls", "addr:state": "ON", "addr:postcode": "L2E 7K5", "addr:country": "CA", "name": "The Home Depot: Home Improvement & Hardware Store in Niagara Falls.", "phone": "(905) 371-7470", "website": "https://stores.homedepot.ca/on/niagarafalls/home-improvement-niagarafalls-on-7174.html", "opening_hours": "Mo-Fr 07:00-21:00; Sa 07:00-20:00; Su 08:00-20:00", "brand": "The Home Depot", "brand:wikidata": "Q864407", "nsi_id": "thehomedepot-00d2a0"}, "geometry": {"type": "Point", "coordinates": [-79.1154468, 43.1026055]}},
{"type": "Feature", "id": "axo439czABhIHbe3-3q-ozT_5N8=", "properties": {"ref": "7030", "@spider": "homedepot_ca", "alt_name": "Home Depot", "shop": "doityourself", "addr:street_address": "17850 Yonge Street", "addr:city": "Newmarket", "addr:state": "ON", "addr:postcode": "L3Y 8S1", "addr:country": "CA", "name": "The Home Depot: Home Improvement & Hardware Store in Newmarket.", "phone": "(905) 898-0090", "website": "https://stores.homedepot.ca/on/newmarket/home-improvement-newmarket-on-7030.html", "opening_hours": "Mo-Fr 06:00-21:00; Sa 07:00-20:00; Su 08:00-20:00", "brand": "The Home Depot", "brand:wikidata": "Q864407", "nsi_id": "thehomedepot-00d2a0"}, "geometry": {"type": "Point", "coordinates": [-79.4849005, 44.0620611]}},
{"type": "Feature", "id": "GURdA_jGEowssKwJApl9Gh359ts=", "properties": {"ref": "7132", "@spider": "homedepot_ca", "alt_name": "Home Depot", "shop": "doityourself", "addr:street_address": "5975 Terry Fox Way", "addr:city": "Mississauga", "addr:state": "ON", "addr:postcode": "L5V 3E4", "addr:country": "CA", "name": "The Home Depot: Home Improvement & Hardware Store in Mississauga.", "phone": "(905) 285-4000", "website": "https://stores.homedepot.ca/on/mississauga/home-improvement-mississauga-on-7132.html", "opening_hours": "Mo-Fr 06:00-21:00; Sa 07:00-20:00; Su 08:00-20:00", "brand": "The Home Depot", "brand:wikidata": "Q864407", "nsi_id": "thehomedepot-00d2a0"}, "geometry": {"type": "Point", "coordinates": [-79.698576, 43.6079218]}},
{"type": "Feature", "id": "RLeEoJrbFBB6XHCIwwR8p3mn6uA=", "properties": {"ref": "7130", "@spider": "homedepot_ca", "alt_name": "Home Depot", "shop": "doityourself", "addr:street_address": "2920 Argentia Road", "addr:city": "Mississauga", "addr:state": "ON", "addr:postcode": "L5N 8C5", "addr:country": "CA", "name": "The Home Depot: Home Improvement & Hardware Store in Mississauga.", "phone": "(800) 466-3337", "website": "https://stores.homedepot.ca/on/mississauga/home-improvement-mississauga-on-plmr7130.html", "opening_hours": "Mo-Fr 06:00-21:00; Sa 07:00-21:00; Su 07:00-20:00", "brand": "The Home Depot", "brand:wikidata": "Q864407", "nsi_id": "thehomedepot-00d2a0"}, "geometry": {"type": "Point", "coordinates": [-79.7796934, 43.5981484]}},
{"type": "Feature", "id": "kGmeY8pcsiXzCVMC8YMDWGYKWe4=", "properties": {"ref": "7112", "@spider": "homedepot_ca", "alt_name": "Home Depot", "shop": "doityourself", "addr:street_address": "3065 Mavis Road", "addr:city": "Mississauga", "addr:state": "ON", "addr:postcode": "L5C 1T7", "addr:country": "CA", "name": "The Home Depot: Home Improvement & Hardware Store in Mississauga.", "phone": "(905) 281-6230", "website": "https://stores.homedepot.ca/on/mississauga/home-improvement-mississauga-on-7112.html", "opening_hours": "Mo-Fr 06:00-21:00; Sa 07:00-20:00; Su 08:00-20:00", "brand": "The Home Depot", "brand:wikidata": "Q864407", "nsi_id": "thehomedepot-00d2a0"}, "geometry": {"type": "Point", "coordinates": [-79.633054, 43.569282]}},
{"type": "Feature", "id": "08ez5uK05Xr9IA3OH4r5qEk3eQc=", "properties": {"ref": "7241", "@spider": "homedepot_ca", "alt_name": "Home Depot", "shop": "doityourself", "addr:street_address": "1013 Maple Avenue", "addr:city": "Milton", "addr:state": "ON", "addr:postcode": "L9T 0A5", "addr:country": "CA", "name": "The Home Depot: Home Improvement & Hardware Store in Milton.", "phone": "(905) 864-1200", "website": "https://stores.homedepot.ca/on/milton/home-improvement-milton-on-7241.html", "opening_hours": "Mo-Fr 06:00-21:00; Sa 07:00-20:00; Su 08:00-20:00", "brand": "The Home Depot", "brand:wikidata": "Q864407", "nsi_id": "thehomedepot-00d2a0"}, "geometry": {"type": "Point", "coordinates": [-79.8754869, 43.5367279]}},
{"type": "Feature", "id": "tD35b-Jycl959ugIbG5JZ5f-rLY=", "properties": {"ref": "7247", "@spider": "homedepot_ca", "alt_name": "Home Depot", "shop": "doityourself", "addr:street_address": "16775 Highway 12", "addr:city": "Midland", "addr:state": "ON", "addr:postcode": "L4R 0A9", "addr:country": "CA", "name": "The Home Depot: Home Improvement & Hardware Store in Midland.", "phone": "(705) 527-8800", "website": "https://stores.homedepot.ca/on/midland/home-improvement-midland-on-7247.html", "opening_hours": "Mo-Fr 07:00-20:00; Sa 07:00-19:00; Su 08:00-18:00", "brand": "The Home Depot", "brand:wikidata": "Q864407", "nsi_id": "thehomedepot-00d2a0"}, "geometry": {"type": "Point", "coordinates": [-79.873941, 44.72944]}},
{"type": "Feature", "id": "sddUz2KlaJCjB80MdeZ4_N94iCw=", "properties": {"ref": "7136", "@spider": "homedepot_ca", "alt_name": "Home Depot", "shop": "doityourself", "addr:street_address": "50 Kirkham Drive", "addr:city": "Markham", "addr:state": "ON", "addr:postcode": "L3S 4K7", "addr:country": "CA", "name": "The Home Depot: Home Improvement & Hardware Store in Markham.", "phone": "(800) 466-3337", "website": "https://stores.homedepot.ca/on/markham/home-improvement-markham-on-plmr7136.html", "brand": "The Home Depot", "brand:wikidata": "Q864407", "nsi_id": "thehomedepot-00d2a0"}, "geometry": {"type": "Point", "coordinates": [-79.2519868, 43.8524908]}},
{"type": "Feature", "id": "3BfOUnKOAgm8FIgMLXqqxk0Er-o=", "properties": {"ref": "7004", "@spider": "homedepot_ca", "alt_name": "Home Depot", "shop": "doityourself", "addr:street_address": "3155 Highway #7", "addr:city": "Markham", "addr:state": "ON", "addr:postcode": "L3R 0J6", "addr:country": "CA", "name": "The Home Depot: Home Improvement & Hardware Store in Markham.", "phone": "(905) 940-5900", "website": "https://stores.homedepot.ca/on/markham/home-improvement-markham-on-7004.html", "opening_hours": "Mo-Fr 06:00-21:00; Sa 07:00-20:00; Su 08:00-20:00", "brand": "The Home Depot", "brand:wikidata": "Q864407", "nsi_id": "thehomedepot-00d2a0"}, "geometry": {"type": "Point", "coordinates": [-79.352515, 43.851246]}},
{"type": "Feature", "id": "rrUE_Xbs8Ug0K9c2skUOnnvwQt0=", "properties": {"ref": "7262", "@spider": "homedepot_ca", "alt_name": "Home Depot", "shop": "doityourself", "addr:street_address": "1201 Castlemore Avenue", "addr:city": "Markham", "addr:state": "ON", "addr:postcode": "L6E 0G5", "addr:country": "CA", "name": "The Home Depot: Home Improvement & Hardware Store in Markham.", "phone": "(905) 201-5500", "website": "https://stores.homedepot.ca/on/markham/home-improvement-markham-on-7262.html", "opening_hours": "Mo-Fr 06:00-21:00; Sa 07:00-20:00; Su 08:00-20:00", "brand": "The Home Depot", "brand:wikidata": "Q864407", "nsi_id": "thehomedepot-00d2a0"}, "geometry": {"type": "Point", "coordinates": [-79.269541, 43.903416]}},
{"type": "Feature", "id": "GNdzPFDzGY4vz5sEfXw6RXWFwoU=", "properties": {"ref": "7033", "@spider": "homedepot_ca", "alt_name": "Home Depot", "shop": "doityourself", "addr:street_address": "3035 Wonderland Road South", "addr:city": "London", "addr:state": "ON", "addr:postcode": "N6L 1R4", "addr:country": "CA", "name": "The Home Depot: Home Improvement & Hardware Store in London.", "phone": "(519) 691-1400", "website": "https://stores.homedepot.ca/on/london/home-improvement-london-on-7033.html", "opening_hours": "Mo-Fr 07:00-21:00; Sa 07:00-20:00; Su 08:00-20:00", "brand": "The Home Depot", "brand:wikidata": "Q864407", "nsi_id": "thehomedepot-00d2a0"}, "geometry": {"type": "Point", "coordinates": [-81.2841826, 42.9374477]}},
{"type": "Feature", "id": "FbIa7WMkUQiSqnWI8con6Il_3xo=", "properties": {"ref": "7009", "@spider": "homedepot_ca", "alt_name": "Home Depot", "shop": "doityourself", "addr:street_address": "600 Fanshawe Park Rd. E.", "addr:city": "London", "addr:state": "ON", "addr:postcode": "N5X 1L1", "addr:country": "CA", "name": "The Home Depot: Home Improvement & Hardware Store in London.", "phone": "(519) 850-5900", "website": "https://stores.homedepot.ca/on/london/home-improvement-london-on-7009.html", "opening_hours": "Mo-Fr 07:00-21:00; Sa 07:00-20:00; Su 08:00-20:00", "brand": "The Home Depot", "brand:wikidata": "Q864407", "nsi_id": "thehomedepot-00d2a0"}, "geometry": {"type": "Point", "coordinates": [-81.2563459, 43.0353238]}},
{"type": "Feature", "id": "-ptrMQk6BtrRR5kBVim0RrUzgaA=", "properties": {"ref": "7237", "@spider": "homedepot_ca", "alt_name": "Home Depot", "shop": "doityourself", "addr:street_address": "448 Clarke Road", "addr:city": "London", "addr:state": "ON", "addr:postcode": "N5W 6H1", "addr:country": "CA", "name": "The Home Depot: Home Improvement & Hardware Store in London.", "phone": "(519) 457-5800", "website": "https://stores.homedepot.ca/on/london/home-improvement-london-on-7237.html", "opening_hours": "Mo-Fr 07:00-21:00; Sa 07:00-20:00; Su 08:00-20:00", "brand": "The Home Depot", "brand:wikidata": "Q864407", "nsi_id": "thehomedepot-00d2a0"}, "geometry": {"type": "Point", "coordinates": [-81.1763966, 43.0059432]}},
{"type": "Feature", "id": "Irif2MbUlfDx8S4-ESPxT0HyauE=", "properties": {"ref": "7179", "@spider": "homedepot_ca", "alt_name": "Home Depot", "shop": "doityourself", "addr:street_address": "1450 Ottawa Street South", "addr:city": "Kitchener", "addr:state": "ON", "addr:postcode": "N2E 4E2", "addr:country": "CA", "name": "The Home Depot: Home Improvement & Hardware Store in Kitchener.", "phone": "(519) 569-4300", "website": "https://stores.homedepot.ca/on/kitchener/home-improvement-kitchener-on-7179.html", "opening_hours": "Mo-Fr 07:00-21:00; Sa 07:00-20:00; Su 08:00-20:00", "brand": "The Home Depot", "brand:wikidata": "Q864407", "nsi_id": "thehomedepot-00d2a0"}, "geometry": {"type": "Point", "coordinates": [-80.5165418, 43.4138988]}},
{"type": "Feature", "id": "uJRA3hJ69o-rllYwMRL_HSRJfDI=", "properties": {"ref": "7017", "@spider": "homedepot_ca", "alt_name": "Home Depot", "shop": "doityourself", "addr:street_address": "100 Gateway Park Drive", "addr:city": "Kitchener", "addr:state": "ON", "addr:postcode": "N2P 2J4", "addr:country": "CA", "name": "The Home Depot: Home Improvement & Hardware Store in Kitchener.", "phone": "(519) 650-3900", "website": "https://stores.homedepot.ca/on/kitchener/home-improvement-kitchener-on-7017.html", "opening_hours": "Mo-Fr 06:00-21:00; Sa 07:00-20:00; Su 08:00-20:00", "brand": "The Home Depot", "brand:wikidata": "Q864407", "nsi_id": "thehomedepot-00d2a0"}, "geometry": {"type": "Point", "coordinates": [-80.3881923, 43.4075818]}},
{"type": "Feature", "id": "BO6y6TllIziN5ymR2h5Y32xe5xc=", "properties": {"ref": "7081", "@spider": "homedepot_ca", "alt_name": "Home Depot", "shop": "doityourself", "addr:street_address": "606 Gardiners Road", "addr:city": "Kingston", "addr:state": "ON", "addr:postcode": "K7M 3X9", "addr:country": "CA", "name": "The Home Depot: Home Improvement & Hardware Store in Kingston.", "phone": "(613) 384-3511", "website": "https://stores.homedepot.ca/on/kingston/home-improvement-kingston-on-7081.html", "opening_hours": "Mo-Fr 06:00-21:00; Sa 07:00-20:00; Su 08:00-18:00", "brand": "The Home Depot", "brand:wikidata": "Q864407", "nsi_id": "thehomedepot-00d2a0"}, "geometry": {"type": "Point", "coordinates": [-76.5661241, 44.2428852]}},
{"type": "Feature", "id": "VEy6pSxaF_lhbf9UnrC3dxHHyAA=", "properties": {"ref": "7108", "@spider": "homedepot_ca", "alt_name": "Home Depot", "shop": "doityourself", "addr:street_address": "10 Frank Nighbor Place", "addr:city": "Kanata", "addr:state": "ON", "addr:postcode": "K2T 1C4", "addr:country": "CA", "name": "The Home Depot: Home Improvement & Hardware Store in Kanata.", "phone": "(613) 271-7577", "website": "https://stores.homedepot.ca/on/kanata/home-improvement-kanata-on-7108.html", "opening_hours": "Mo-Fr 06:00-21:00; Sa 07:00-20:00; Su 08:00-20:00", "brand": "The Home Depot", "brand:wikidata": "Q864407", "nsi_id": "thehomedepot-00d2a0"}, "geometry": {"type": "Point", "coordinates": [-75.914304, 45.302604]}},
{"type": "Feature", "id": "efPMJwCZe0cVcVQ8RvkKHeKTyCw=", "properties": {"ref": "7008", "@spider": "homedepot_ca", "alt_name": "Home Depot", "shop": "doityourself", "addr:street_address": "350 Centennial Parkway", "addr:city": "Hamilton", "addr:state": "ON", "addr:postcode": "L8E 2X4", "addr:country": "CA", "name": "The Home Depot: Home Improvement & Hardware Store in Hamilton.", "phone": "(905) 561-9755", "website": "https://stores.homedepot.ca/on/hamilton/home-improvement-hamilton-on-7008.html", "opening_hours": "Mo-Fr 07:00-21:00; Sa 07:00-20:00; Su 08:00-20:00", "brand": "The Home Depot", "brand:wikidata": "Q864407", "nsi_id": "thehomedepot-00d2a0"}, "geometry": {"type": "Point", "coordinates": [-79.759172, 43.239902]}},
{"type": "Feature", "id": "cVCIYdGnqIYlmL3WjxZUBwMHMLI=", "properties": {"ref": "7244", "@spider": "homedepot_ca", "alt_name": "Home Depot", "shop": "doityourself", "addr:street_address": "9 Ott Street", "addr:city": "Huntsville", "addr:state": "ON", "addr:postcode": "P3H 0A2", "addr:country": "CA", "name": "The Home Depot: Home Improvement & Hardware Store in Huntsville.", "phone": "(705) 788-5000", "website": "https://stores.homedepot.ca/on/huntsville/home-improvement-huntsville-on-7244.html", "opening_hours": "Mo-Fr 07:00-20:00; Sa 07:00-19:00; Su 08:00-18:00", "brand": "The Home Depot", "brand:wikidata": "Q864407", "nsi_id": "thehomedepot-00d2a0"}, "geometry": {"type": "Point", "coordinates": [-79.221463, 45.342138]}},
{"type": "Feature", "id": "7bUdr04qybG0Iep6So8NQGtYi9w=", "properties": {"ref": "7142", "@spider": "homedepot_ca", "alt_name": "Home Depot", "shop": "doityourself", "addr:street_address": "63 Woodlawn Road West", "addr:city": "Guelph", "addr:state": "ON", "addr:postcode": "N1H 1G8", "addr:country": "CA", "name": "The Home Depot: Home Improvement & Hardware Store in Guelph.", "phone": "(519) 780-3400", "website": "https://stores.homedepot.ca/on/guelph/home-improvement-guelph-on-7142.html", "opening_hours": "Mo-Fr 07:00-21:00; Sa 07:00-20:00; Su 08:00-20:00", "brand": "The Home Depot", "brand:wikidata": "Q864407", "nsi_id": "thehomedepot-00d2a0"}, "geometry": {"type": "Point", "coordinates": [-80.2837328, 43.5623431]}},
{"type": "Feature", "id": "1EWxMsIbBGm-mNhlRc9K1KbD8qY=", "properties": {"ref": "7025", "@spider": "homedepot_ca", "alt_name": "Home Depot", "shop": "doityourself", "addr:street_address": "1616 Cyrville Road", "addr:city": "Gloucester", "addr:state": "ON", "addr:postcode": "K1B 3L8", "addr:country": "CA", "name": "The Home Depot: Home Improvement & Hardware Store in Gloucester.", "phone": "(613) 744-1700", "website": "https://stores.homedepot.ca/on/gloucester/home-improvement-gloucester-on-7025.html", "opening_hours": "Mo-Fr 06:00-21:00; Sa 07:00-20:00; Su 08:00-20:00", "brand": "The Home Depot", "brand:wikidata": "Q864407", "nsi_id": "thehomedepot-00d2a0"}, "geometry": {"type": "Point", "coordinates": [-75.6102498, 45.4172656]}},
{"type": "Feature", "id": "5CRQXw_ffTG4oXXqZptrknWINKQ=", "properties": {"ref": "7114", "@spider": "homedepot_ca", "alt_name": "Home Depot", "shop": "doityourself", "addr:street_address": "1983 Kipling Avenue", "addr:city": "Etobicoke", "addr:state": "ON", "addr:postcode": "M9W 4J4", "addr:country": "CA", "name": "The Home Depot: Home Improvement & Hardware Store in Etobicoke.", "phone": "(416) 746-1357", "website": "https://stores.homedepot.ca/on/etobicoke/home-improvement-etobicoke-on-7114.html", "opening_hours": "Mo-Fr 06:00-21:00; Sa 07:00-20:00; Su 08:00-20:00", "brand": "The Home Depot", "brand:wikidata": "Q864407", "nsi_id": "thehomedepot-00d2a0"}, "geometry": {"type": "Point", "coordinates": [-79.5621455, 43.7075431]}},
{"type": "Feature", "id": "E6wnDdGZQiSVDsykpeuo7daHLKU=", "properties": {"ref": "7011", "@spider": "homedepot_ca", "alt_name": "Home Depot", "shop": "doityourself", "addr:street_address": "193 North Queen Street", "addr:city": "Etobicoke", "addr:state": "ON", "addr:postcode": "M9C 4Y1", "addr:country": "CA", "name": "The Home Depot: Home Improvement & Hardware Store in Etobicoke.", "phone": "(416) 626-9800", "website": "https://stores.homedepot.ca/on/etobicoke/home-improvement-etobicoke-on-7011.html", "opening_hours": "Mo-Fr 06:00-21:00; Sa 07:00-20:00; Su 08:00-20:00", "brand": "The Home Depot", "brand:wikidata": "Q864407", "nsi_id": "thehomedepot-00d2a0"}, "geometry": {"type": "Point", "coordinates": [-79.553995, 43.616003]}},
{"type": "Feature", "id": "kMg6ImGH6StKMAGflEGzUcl03CI=", "properties": {"ref": "7075", "@spider": "homedepot_ca", "alt_name": "Home Depot", "shop": "doityourself", "addr:street_address": "1825 Brookdale Avenue", "addr:city": "Cornwall", "addr:state": "ON", "addr:postcode": "K6J 5X7", "addr:country": "CA", "name": "The Home Depot: Home Improvement & Hardware Store in Cornwall.", "phone": "(613) 930-4470", "website": "https://stores.homedepot.ca/on/cornwall/home-improvement-cornwall-on-7075.html", "opening_hours": "Mo-Sa 07:00-20:00; Su 08:00-18:00", "brand": "The Home Depot", "brand:wikidata": "Q864407", "nsi_id": "thehomedepot-00d2a0"}, "geometry": {"type": "Point", "coordinates": [-74.760242, 45.037952]}},
{"type": "Feature", "id": "H3UMxfi4oktKKzZ6FSDRftFWccs=", "properties": {"ref": "7251", "@spider": "homedepot_ca", "alt_name": "Home Depot", "shop": "doityourself", "addr:street_address": "1050 De Palma Drive", "addr:city": "Cobourg", "addr:state": "ON", "addr:postcode": "K9A 0A8", "addr:country": "CA", "name": "The Home Depot: Home Improvement & Hardware Store in Cobourg.", "phone": "(905) 377-7600", "website": "https://stores.homedepot.ca/on/cobourg/home-improvement-cobourg-on-7251.html", "opening_hours": "Mo-Fr 07:00-20:00; Sa 07:00-18:00; Su 08:00-18:00", "brand": "The Home Depot", "brand:wikidata": "Q864407", "nsi_id": "thehomedepot-00d2a0"}, "geometry": {"type": "Point", "coordinates": [-78.202374, 43.978063]}},
{"type": "Feature", "id": "2sKUOKOaP2w3tZMx6ENe0VuF04s=", "properties": {"ref": "7234", "@spider": "homedepot_ca", "alt_name": "Home Depot", "shop": "doityourself", "addr:street_address": "10 High Street", "addr:city": "Collingwood", "addr:state": "ON", "addr:postcode": "L9Y 3J6", "addr:country": "CA", "name": "The Home Depot: Home Improvement & Hardware Store in Collingwood.", "phone": "(705) 446-3100", "website": "https://stores.homedepot.ca/on/collingwood/home-improvement-collingwood-on-7234.html", "opening_hours": "Mo-Fr 07:00-20:00; Sa-Su 08:00-18:00", "brand": "The Home Depot", "brand:wikidata": "Q864407", "nsi_id": "thehomedepot-00d2a0"}, "geometry": {"type": "Point", "coordinates": [-80.234134, 44.499935]}},
{"type": "Feature", "id": "zH2XxYN8aE2Ks27j8fcQ8udsSpg=", "properties": {"ref": "7178", "@spider": "homedepot_ca", "alt_name": "Home Depot", "shop": "doityourself", "addr:street_address": "8582 Pioneer Line", "addr:city": "Chatham", "addr:state": "ON", "addr:postcode": "N7M 5J7", "addr:country": "CA", "name": "The Home Depot: Home Improvement & Hardware Store in Chatham.", "phone": "(519) 380-2040", "website": "https://stores.homedepot.ca/on/chatham/home-improvement-chatham-on-7178.html", "opening_hours": "Mo-Sa 08:00-20:00; Su 08:00-18:00", "brand": "The Home Depot", "brand:wikidata": "Q864407", "nsi_id": "thehomedepot-00d2a0"}, "geometry": {"type": "Point", "coordinates": [-82.2244201, 42.4315625]}},
{"type": "Feature", "id": "WPnfgj300Y-G3Mrg2sUxpEGDuHY=", "properties": {"ref": "7263", "@spider": "homedepot_ca", "alt_name": "Home Depot", "shop": "doityourself", "addr:street_address": "570 McNeely Avenue", "addr:city": "Carleton Place", "addr:state": "ON", "addr:postcode": "K7C 0A7", "addr:country": "CA", "name": "The Home Depot: Home Improvement & Hardware Store in Carleton Place.", "phone": "(613) 253-3870", "website": "https://stores.homedepot.ca/on/carletonplace/home-improvement-carletonplace-on-7263.html", "opening_hours": "Mo-Fr 07:00-21:00; Sa 07:00-20:00; Su 08:00-18:00", "brand": "The Home Depot", "brand:wikidata": "Q864407", "nsi_id": "thehomedepot-00d2a0"}, "geometry": {"type": "Point", "coordinates": [-76.118925, 45.131379]}},
{"type": "Feature", "id": "10p7WAcMwIwTMrw-S2Qw5J7YKRI=", "properties": {"ref": "7021", "@spider": "homedepot_ca", "alt_name": "Home Depot", "shop": "doityourself", "addr:street_address": "3050 Davidson Court", "addr:city": "Burlington", "addr:state": "ON", "addr:postcode": "L7M 4M9", "addr:country": "CA", "name": "The Home Depot: Home Improvement & Hardware Store in Burlington.", "phone": "(905) 331-1700", "website": "https://stores.homedepot.ca/on/burlington/home-improvement-burlington-on-7021.html", "opening_hours": "Mo-Fr 06:00-21:00; Sa 07:00-20:00; Su 08:00-20:00", "brand": "The Home Depot", "brand:wikidata": "Q864407", "nsi_id": "thehomedepot-00d2a0"}, "geometry": {"type": "Point", "coordinates": [-79.8064125, 43.3556908]}},
{"type": "Feature", "id": "A4LtgC8HDU-UOJAF2buPg-YzY9g=", "properties": {"ref": "7085", "@spider": "homedepot_ca", "alt_name": "Home Depot", "shop": "doityourself", "addr:street_address": "2120 Parkdale Avenue", "addr:city": "Brockville", "addr:state": "ON", "addr:postcode": "K6V 5T2", "addr:country": "CA", "name": "The Home Depot: Home Improvement & Hardware Store in Brockville.", "phone": "(613) 498-9600", "website": "https://stores.homedepot.ca/on/brockville/home-improvement-brockville-on-7085.html", "opening_hours": "Mo-Fr 07:00-21:00; Sa 07:00-20:00; Su 08:00-18:00", "brand": "The Home Depot", "brand:wikidata": "Q864407", "nsi_id": "thehomedepot-00d2a0"}, "geometry": {"type": "Point", "coordinates": [-75.6906867, 44.6110284]}},
{"type": "Feature", "id": "MdyM0jo9OR54jB8mnziAfYPaEyA=", "properties": {"ref": "7166", "@spider": "homedepot_ca", "alt_name": "Home Depot", "shop": "doityourself", "addr:street_address": "35 Pine Bush Drive", "addr:city": "Cambridge", "addr:state": "ON", "addr:postcode": "N1R 8E2", "addr:country": "CA", "name": "Home Depot : Magasin sp\u00e9cialis\u00e9 en am\u00e9lioration domiciliaire et en quincaillerie \u00e0 Cambridge.", "phone": "(519) 624-2700", "website": "https://stores.homedepot.ca/on/cambridge/bricolage-cambridge-on-7166.html", "opening_hours": "Mo-Fr 06:00-21:00; Sa 07:00-20:00; Su 08:00-20:00", "brand": "The Home Depot", "brand:wikidata": "Q864407", "nsi_id": "thehomedepot-00d2a0"}, "geometry": {"type": "Point", "coordinates": [-80.32531, 43.406948]}},
{"type": "Feature", "id": "Krq9oH__EFIRflxJ2LVtshX-dvw=", "properties": {"ref": "7138", "@spider": "homedepot_ca", "alt_name": "Home Depot", "shop": "doityourself", "addr:street_address": "25 Holiday Drive", "addr:city": "Brantford", "addr:state": "ON", "addr:postcode": "N3R 7J4", "addr:country": "CA", "name": "The Home Depot: Home Improvement & Hardware Store in Brantford.", "phone": "(519) 757-3534", "website": "https://stores.homedepot.ca/on/brantford/home-improvement-brantford-on-7138.html", "opening_hours": "Mo-Fr 07:00-21:00; Sa 07:00-20:00; Su 08:00-20:00", "brand": "The Home Depot", "brand:wikidata": "Q864407", "nsi_id": "thehomedepot-00d2a0"}, "geometry": {"type": "Point", "coordinates": [-80.2401503, 43.1641546]}},
{"type": "Feature", "id": "E5BWKagIo6DxrcpolnyUdqU209Q=", "properties": {"ref": "7239", "@spider": "homedepot_ca", "alt_name": "Home Depot", "shop": "doityourself", "addr:street_address": "9105 Airport Road", "addr:city": "Brampton", "addr:state": "ON", "addr:postcode": "L6S 0B8", "addr:country": "CA", "name": "The Home Depot: Home Improvement & Hardware Store in Brampton.", "phone": "(800) 466-3337", "website": "https://stores.homedepot.ca/on/brampton/home-improvement-brampton-on-plmr7239.html", "brand": "The Home Depot", "brand:wikidata": "Q864407", "nsi_id": "thehomedepot-00d2a0"}, "geometry": {"type": "Point", "coordinates": [-79.695987, 43.7473104]}},
{"type": "Feature", "id": "S8tbK03OAnbgqjVahvrN3L7XjDo=", "properties": {"ref": "7110", "@spider": "homedepot_ca", "alt_name": "Home Depot", "shop": "doityourself", "addr:street_address": "60 Great Lakes Drive", "addr:city": "Brampton", "addr:state": "ON", "addr:postcode": "L6R 2K7", "addr:country": "CA", "name": "The Home Depot: Home Improvement & Hardware Store in Brampton.", "phone": "(905) 792-5430", "website": "https://stores.homedepot.ca/on/brampton/home-improvement-brampton-on-7110.html", "opening_hours": "Mo-Fr 06:00-21:00; Sa 07:00-20:00; Su 08:00-20:00", "brand": "The Home Depot", "brand:wikidata": "Q864407", "nsi_id": "thehomedepot-00d2a0"}, "geometry": {"type": "Point", "coordinates": [-79.7678138, 43.7309188]}},
{"type": "Feature", "id": "2hCdFwkJnDTELOrVcp1BC_HGlbg=", "properties": {"ref": "7301", "@spider": "homedepot_ca", "alt_name": "Home Depot", "shop": "doityourself", "addr:street_address": "9515 Mississauga Rd", "addr:city": "Brampton", "addr:state": "ON", "addr:postcode": "L6X 0B3", "addr:country": "CA", "name": "The Home Depot: Home Improvement & Hardware Store in Brampton.", "phone": "(905) 453-3900", "website": "https://stores.homedepot.ca/on/brampton/home-improvement-brampton-on-7301.html", "opening_hours": "Mo-Fr 06:00-21:00; Sa 07:00-20:00; Su 08:00-20:00", "brand": "The Home Depot", "brand:wikidata": "Q864407", "nsi_id": "thehomedepot-00d2a0"}, "geometry": {"type": "Point", "coordinates": [-79.8164739, 43.6573109]}},
{"type": "Feature", "id": "aDaOtc2VOJPjlA2W3SxkO5r1css=", "properties": {"ref": "7006", "@spider": "homedepot_ca", "alt_name": "Home Depot", "shop": "doityourself", "addr:street_address": "49 First Gulf Boulevard", "addr:city": "Brampton", "addr:state": "ON", "addr:postcode": "L6W 4R8", "addr:country": "CA", "name": "The Home Depot: Home Improvement & Hardware Store in Brampton.", "phone": "(905) 457-1800", "website": "https://stores.homedepot.ca/on/brampton/home-improvement-brampton-on-7006.html", "opening_hours": "Mo-Fr 06:00-21:00; Sa 07:00-20:00; Su 08:00-20:00", "brand": "The Home Depot", "brand:wikidata": "Q864407", "nsi_id": "thehomedepot-00d2a0"}, "geometry": {"type": "Point", "coordinates": [-79.7170493, 43.6793805]}},
{"type": "Feature", "id": "3_619tSSwvvRAEef6BT5qTRfDoI=", "properties": {"ref": "7164", "@spider": "homedepot_ca", "alt_name": "Home Depot", "shop": "doityourself", "addr:street_address": "20 Depot Drive, R.R.2", "addr:city": "Bracebridge", "addr:state": "ON", "addr:postcode": "P1L 0A1", "addr:country": "CA", "name": "The Home Depot: Home Improvement & Hardware Store in Bracebridge.", "phone": "(705) 646-5600", "website": "https://stores.homedepot.ca/on/bracebridge/home-improvement-bracebridge-on-7164.html", "opening_hours": "Mo-Fr 07:00-20:00; Sa 07:00-18:00; Su 08:00-18:00", "brand": "The Home Depot", "brand:wikidata": "Q864407", "nsi_id": "thehomedepot-00d2a0"}, "geometry": {"type": "Point", "coordinates": [-79.2905842, 45.0503909]}},
{"type": "Feature", "id": "x3Ac2XV6SNwIM6Kvqm6GvDykqt8=", "properties": {"ref": "7264", "@spider": "homedepot_ca", "alt_name": "Home Depot", "shop": "doityourself", "addr:street_address": "470 Holland Street West", "addr:city": "Bradford", "addr:state": "ON", "addr:postcode": "L3Z 0A2", "addr:country": "CA", "name": "The Home Depot: Home Improvement & Hardware Store in Bradford.", "phone": "(905) 778-2100", "website": "https://stores.homedepot.ca/on/bradford/home-improvement-bradford-on-7264.html", "opening_hours": "Mo-Fr 06:00-21:00; Sa 07:00-20:00; Su 08:00-18:00", "brand": "The Home Depot", "brand:wikidata": "Q864407", "nsi_id": "thehomedepot-00d2a0"}, "geometry": {"type": "Point", "coordinates": [-79.586367, 44.109601]}},
{"type": "Feature", "id": "J3z3KO8XeHOWh8cDiR6RMkp5z0U=", "properties": {"ref": "7240", "@spider": "homedepot_ca", "alt_name": "Home Depot", "shop": "doityourself", "addr:street_address": "120 Clarington Boulevard", "addr:city": "Bowmanville", "addr:state": "ON", "addr:postcode": "L1C 0C3", "addr:country": "CA", "name": "The Home Depot: Home Improvement & Hardware Store in Bowmanville.", "phone": "(905) 697-5170", "website": "https://stores.homedepot.ca/on/bowmanville/home-improvement-bowmanville-on-7240.html", "opening_hours": "Mo-Fr 07:00-21:00; Sa 07:00-20:00; Su 08:00-20:00", "brand": "The Home Depot", "brand:wikidata": "Q864407", "nsi_id": "thehomedepot-00d2a0"}, "geometry": {"type": "Point", "coordinates": [-78.7084472, 43.9114325]}},
{"type": "Feature", "id": "0cmTHpl6BNuJh_o_kmt5oOUK2PM=", "properties": {"ref": "7269", "@spider": "homedepot_ca", "alt_name": "Home Depot", "shop": "doityourself", "addr:street_address": "12760 Highway # 50", "addr:city": "Bolton", "addr:state": "ON", "addr:postcode": "L7E 4G1", "addr:country": "CA", "name": "The Home Depot: Home Improvement & Hardware Store in Bolton.", "phone": "(905) 951-4100", "website": "https://stores.homedepot.ca/on/bolton/home-improvement-bolton-on-7269.html", "opening_hours": "Mo-Fr 06:00-21:00; Sa 07:00-20:00; Su 08:00-18:00", "brand": "The Home Depot", "brand:wikidata": "Q864407", "nsi_id": "thehomedepot-00d2a0"}, "geometry": {"type": "Point", "coordinates": [-79.719362, 43.868381]}},
{"type": "Feature", "id": "ixv5kYtytzTwETr7RIc32zK__DM=", "properties": {"ref": "7133", "@spider": "homedepot_ca", "alt_name": "Home Depot", "shop": "doityourself", "addr:street_address": "210 Bell Blvd", "addr:city": "Belleville", "addr:state": "ON", "addr:postcode": "K8P 5H6", "addr:country": "CA", "name": "The Home Depot: Home Improvement & Hardware Store in Belleville.", "phone": "(613) 961-5340", "website": "https://stores.homedepot.ca/on/belleville/home-improvement-belleville-on-7133.html", "opening_hours": "Mo-Fr 06:00-21:00; Sa 07:00-20:00; Su 08:00-20:00", "brand": "The Home Depot", "brand:wikidata": "Q864407", "nsi_id": "thehomedepot-00d2a0"}, "geometry": {"type": "Point", "coordinates": [-77.408391, 44.185901]}},
{"type": "Feature", "id": "NjDUZOcs4QneEFes9kP60C-Bfgo=", "properties": {"ref": "7024", "@spider": "homedepot_ca", "alt_name": "Home Depot", "shop": "doityourself", "addr:street_address": "10 Barrie View Drive", "addr:city": "Barrie", "addr:state": "ON", "addr:postcode": "L4N 6A7", "addr:country": "CA", "name": "The Home Depot: Home Improvement & Hardware Store in Barrie.", "phone": "(705) 733-2800", "website": "https://stores.homedepot.ca/on/barrie/home-improvement-barrie-on-7024.html", "opening_hours": "Mo-Fr 07:00-21:00; Sa 07:00-20:00; Su 08:00-19:00", "brand": "The Home Depot", "brand:wikidata": "Q864407", "nsi_id": "thehomedepot-00d2a0"}, "geometry": {"type": "Point", "coordinates": [-79.687498, 44.339997]}},
{"type": "Feature", "id": "A4qnQVhEzDGs9zwVHqsaE9I4JL4=", "properties": {"ref": "7079", "@spider": "homedepot_ca", "alt_name": "Home Depot", "shop": "doityourself", "addr:street_address": "3779 Strandherd Drive", "addr:city": "Barrhaven", "addr:state": "ON", "addr:postcode": "K2J 5M4", "addr:country": "CA", "name": "Home Depot : Magasin sp\u00e9cialis\u00e9 en am\u00e9lioration domiciliaire et en quincaillerie \u00e0 Barrhaven.", "phone": "(613) 843-7900", "website": "https://stores.homedepot.ca/on/barrhaven/bricolage-barrhaven-on-7079.html", "opening_hours": "Mo-Fr 06:00-21:00; Sa 07:00-20:00; Su 08:00-20:00", "brand": "The Home Depot", "brand:wikidata": "Q864407", "nsi_id": "thehomedepot-00d2a0"}, "geometry": {"type": "Point", "coordinates": [-75.751372, 45.267352]}},
{"type": "Feature", "id": "-ffE8BjDsnceh37Ggae4rKUFtiA=", "properties": {"ref": "7007", "@spider": "homedepot_ca", "alt_name": "Home Depot", "shop": "doityourself", "addr:street_address": "122 Martindale Crescent", "addr:city": "Ancaster", "addr:state": "ON", "addr:postcode": "L9K 1J9", "addr:country": "CA", "name": "The Home Depot: Home Improvement & Hardware Store in Ancaster.", "phone": "(905) 304-5900", "website": "https://stores.homedepot.ca/on/ancaster/home-improvement-ancaster-on-7007.html", "opening_hours": "Mo-Fr 07:00-21:00; Sa 07:00-20:00; Su 08:00-20:00", "brand": "The Home Depot", "brand:wikidata": "Q864407", "nsi_id": "thehomedepot-00d2a0"}, "geometry": {"type": "Point", "coordinates": [-79.9446589, 43.2304259]}},
{"type": "Feature", "id": "KZSsZ3Uo5I93TJkruXxii2CkP2g=", "properties": {"ref": "7135", "@spider": "homedepot_ca", "alt_name": "Home Depot", "shop": "doityourself", "addr:street_address": "15360 Bayview Avenue", "addr:city": "Aurora", "addr:state": "ON", "addr:postcode": "L4G 7G1", "addr:country": "CA", "name": "The Home Depot: Home Improvement & Hardware Store in Aurora.", "phone": "(905) 726-4500", "website": "https://stores.homedepot.ca/on/aurora/home-improvement-aurora-on-7135.html", "opening_hours": "Mo-Fr 06:00-21:00; Sa 07:00-20:00; Su 08:00-20:00", "brand": "The Home Depot", "brand:wikidata": "Q864407", "nsi_id": "thehomedepot-00d2a0"}, "geometry": {"type": "Point", "coordinates": [-79.447009, 44.007839]}},
{"type": "Feature", "id": "_TRL8jglWJ137UnUxQ8_VZ3259I=", "properties": {"ref": "7109", "@spider": "homedepot_ca", "alt_name": "Home Depot", "shop": "doityourself", "addr:street_address": "256-260 Kingston Road East", "addr:city": "Ajax", "addr:state": "ON", "addr:postcode": "L1Z 1G1", "addr:country": "CA", "name": "The Home Depot: Home Improvement & Hardware Store in Ajax.", "phone": "(905) 428-7939", "website": "https://stores.homedepot.ca/on/ajax/home-improvement-ajax-on-7109.html", "opening_hours": "Mo-Fr 06:00-21:00; Sa 07:00-20:00; Su 08:00-20:00", "brand": "The Home Depot", "brand:wikidata": "Q864407", "nsi_id": "thehomedepot-00d2a0"}, "geometry": {"type": "Point", "coordinates": [-79.012378, 43.864687]}},
{"type": "Feature", "id": "7dKkmeXPYCRG_qvFQ50LQQ2Bz0A=", "properties": {"ref": "7151", "@spider": "homedepot_ca", "alt_name": "Home Depot", "shop": "doityourself", "addr:street_address": "50 Sydney Port Access Road", "addr:city": "Sydney", "addr:state": "NS", "addr:postcode": "B1P 7H2", "addr:country": "CA", "name": "The Home Depot: Home Improvement & Hardware Store in Sydney.", "phone": "(902) 564-3250", "website": "https://stores.homedepot.ca/ns/sydney/home-improvement-sydney-ns-7151.html", "opening_hours": "Mo-Sa 07:00-20:00; Su 09:00-17:00", "brand": "The Home Depot", "brand:wikidata": "Q864407", "nsi_id": "thehomedepot-00d2a0"}, "geometry": {"type": "Point", "coordinates": [-60.145953, 46.14914]}},
{"type": "Feature", "id": "L3pvabv6L_NyeiKe2kHA5O7TPz8=", "properties": {"ref": "7261", "@spider": "homedepot_ca", "alt_name": "Home Depot", "shop": "doityourself", "addr:street_address": "21 Silver Fox Ave.", "addr:city": "New Minas", "addr:state": "NS", "addr:postcode": "B4N 0C9", "addr:country": "CA", "name": "The Home Depot: Home Improvement & Hardware Store in New Minas.", "phone": "(902) 681-3460", "website": "https://stores.homedepot.ca/ns/newminas/home-improvement-newminas-ns-7261.html", "opening_hours": "Mo-Fr 07:00-21:00; Sa 07:00-20:00; Su 08:00-17:00", "brand": "The Home Depot", "brand:wikidata": "Q864407", "nsi_id": "thehomedepot-00d2a0"}, "geometry": {"type": "Point", "coordinates": [-64.437269, 45.069552]}},
{"type": "Feature", "id": "DM8QBC9xOFlpVJSnOSgSFdBeCvQ=", "properties": {"ref": "7257", "@spider": "homedepot_ca", "alt_name": "Home Depot", "shop": "doityourself", "addr:street_address": "40 Finnian Row", "addr:city": "Dartmouth", "addr:state": "NS", "addr:postcode": "B3B 0B6", "addr:country": "CA", "name": "The Home Depot: Home Improvement & Hardware Store in Dartmouth.", "phone": "(902) 460-4700", "website": "https://stores.homedepot.ca/ns/dartmouth/home-improvement-dartmouth-ns-7257.html", "opening_hours": "Mo-Sa 07:00-21:00; Su 09:00-18:00", "brand": "The Home Depot", "brand:wikidata": "Q864407", "nsi_id": "thehomedepot-00d2a0"}, "geometry": {"type": "Point", "coordinates": [-63.5655414, 44.6956225]}},
{"type": "Feature", "id": "gAya9u8J2xEW9ofNM6dNTKmgsEA=", "properties": {"ref": "7126", "@spider": "homedepot_ca", "alt_name": "Home Depot", "shop": "doityourself", "addr:street_address": "368 Lacewood Drive", "addr:city": "Halifax", "addr:state": "NS", "addr:postcode": "B3S 1L8", "addr:country": "CA", "name": "Home Depot : Magasin sp\u00e9cialis\u00e9 en am\u00e9lioration domiciliaire et en quincaillerie \u00e0 Halifax.", "phone": "(902) 457-3480", "website": "https://stores.homedepot.ca/ns/halifax/bricolage-halifax-ns-7126.html", "opening_hours": "Mo-Sa 07:00-21:00; Su 08:00-18:00", "brand": "The Home Depot", "brand:wikidata": "Q864407", "nsi_id": "thehomedepot-00d2a0"}, "geometry": {"type": "Point", "coordinates": [-63.6715355, 44.6564632]}},
{"type": "Feature", "id": "fBLSX0IzMfuXg4Scv0fnc1vu7so=", "properties": {"ref": "7077", "@spider": "homedepot_ca", "alt_name": "Home Depot", "shop": "doityourself", "addr:street_address": "70 Kelsey Drive", "addr:city": "St. Johns", "addr:state": "NL", "addr:postcode": "A1B 5C7", "addr:country": "CA", "name": "The Home Depot: Home Improvement & Hardware Store in St. Johns.", "phone": "(709) 570-2400", "website": "https://stores.homedepot.ca/nl/st-johns/home-improvement-st-johns-nl-7077.html", "opening_hours": "Mo-Sa 07:00-21:00; Su 09:00-19:00", "brand": "The Home Depot", "brand:wikidata": "Q864407", "nsi_id": "thehomedepot-00d2a0"}, "geometry": {"type": "Point", "coordinates": [-52.7810669, 47.5550325]}},
{"type": "Feature", "id": "G595OciJpYPd8CD_7OFQivpcolI=", "properties": {"ref": "7103", "@spider": "homedepot_ca", "alt_name": "Home Depot", "shop": "doityourself", "addr:street_address": "55 Depot Court", "addr:city": "Saint John", "addr:state": "NB", "addr:postcode": "E2J 5E5", "addr:country": "CA", "name": "The Home Depot: Home Improvement & Hardware Store in Saint John.", "phone": "(506)-632-9440", "website": "https://stores.homedepot.ca/nb/saintjohn/home-improvement-saintjohn-nb-7103.html", "opening_hours": "Mo-Fr 07:00-21:00; Sa 07:00-20:00; Su 10:00-17:00", "brand": "The Home Depot", "brand:wikidata": "Q864407", "nsi_id": "thehomedepot-00d2a0"}, "geometry": {"type": "Point", "coordinates": [-66.0260862, 45.3037102]}},
{"type": "Feature", "id": "sNdt2C9NN19ZFjDxzIJirkYnbhE=", "properties": {"ref": "7233", "@spider": "homedepot_ca", "alt_name": "Home Depot", "shop": "doityourself", "addr:street_address": "1450 Regent Street", "addr:city": "Fredericton", "addr:state": "NB", "addr:postcode": "E3C 0A4", "addr:country": "CA", "name": "The Home Depot: Home Improvement & Hardware Store in Fredericton.", "phone": "(506) 462-9460", "website": "https://stores.homedepot.ca/nb/fredericton/home-improvement-fredericton-nb-7233.html", "opening_hours": "Mo-Fr 07:00-21:00; Sa 07:00-20:00; Su 10:00-17:00", "brand": "The Home Depot", "brand:wikidata": "Q864407", "nsi_id": "thehomedepot-00d2a0"}, "geometry": {"type": "Point", "coordinates": [-66.663707, 45.932466]}},
{"type": "Feature", "id": "iTw0V0_hxdkXiQffhJQ8JOt1iHE=", "properties": {"ref": "7148", "@spider": "homedepot_ca", "alt_name": "Home Depot", "shop": "doityourself", "addr:street_address": "235 Mapleton Road", "addr:city": "Moncton", "addr:state": "NB", "addr:postcode": "E1C 0G9", "addr:country": "CA", "name": "The Home Depot: Home Improvement & Hardware Store in Moncton.", "phone": "(506) 853-8150", "website": "https://stores.homedepot.ca/nb/moncton/home-improvement-moncton-nb-7148.html", "opening_hours": "Mo-Fr 07:00-21:00; Sa 07:00-20:00; Su 09:00-17:00", "brand": "The Home Depot", "brand:wikidata": "Q864407", "nsi_id": "thehomedepot-00d2a0"}, "geometry": {"type": "Point", "coordinates": [-64.825347, 46.115784]}},
{"type": "Feature", "id": "Unyq2DowwDyc79manwraer9HIyU=", "properties": {"ref": "7180", "@spider": "homedepot_ca", "alt_name": "Home Depot", "shop": "doityourself", "addr:street_address": "845 Leila Ave", "addr:city": "Winnipeg", "addr:state": "MB", "addr:postcode": "R2V 3J7", "addr:country": "CA", "name": "The Home Depot: Home Improvement & Hardware Store in Winnipeg.", "phone": "(204) 336-5530", "website": "https://stores.homedepot.ca/mb/winnipeg/home-improvement-winnipeg-mb-7180.html", "opening_hours": "Mo-Fr 07:00-21:00; Sa 07:00-20:00; Su 08:00-20:00", "brand": "The Home Depot", "brand:wikidata": "Q864407", "nsi_id": "thehomedepot-00d2a0"}, "geometry": {"type": "Point", "coordinates": [-97.1445318, 49.9542366]}},
{"type": "Feature", "id": "TpqkozgLrsd_RCH1fWRcS6DQVRg=", "properties": {"ref": "7086", "@spider": "homedepot_ca", "alt_name": "Home Depot", "shop": "doityourself", "addr:street_address": "1645 Kenaston Blvd", "addr:city": "Winnipeg", "addr:state": "MB", "addr:postcode": "R3P 2M4", "addr:country": "CA", "name": "The Home Depot: Home Improvement & Hardware Store in Winnipeg.", "phone": "(204) 928-7110", "website": "https://stores.homedepot.ca/mb/winnipeg/home-improvement-winnipeg-mb-7086.html", "opening_hours": "Mo-Fr 07:00-21:00; Sa 07:00-20:00; Su 08:00-20:00", "brand": "The Home Depot", "brand:wikidata": "Q864407", "nsi_id": "thehomedepot-00d2a0"}, "geometry": {"type": "Point", "coordinates": [-97.2005216, 49.8248259]}},
{"type": "Feature", "id": "8rZ3ymJCK2hARJRmIoxhgF0xUIA=", "properties": {"ref": "7057", "@spider": "homedepot_ca", "alt_name": "Home Depot", "shop": "doityourself", "addr:street_address": "727 Empress Street", "addr:city": "Winnipeg", "addr:state": "MB", "addr:postcode": "R3G 3P5", "addr:country": "CA", "name": "The Home Depot: Home Improvement & Hardware Store in Winnipeg.", "phone": "(204) 779-0703", "website": "https://stores.homedepot.ca/mb/winnipeg/home-improvement-winnipeg-mb-7057.html", "opening_hours": "Mo-Fr 07:00-21:00; Sa 07:00-20:00; Su 08:00-20:00", "brand": "The Home Depot", "brand:wikidata": "Q864407", "nsi_id": "thehomedepot-00d2a0"}, "geometry": {"type": "Point", "coordinates": [-97.1943699, 49.889876]}},
{"type": "Feature", "id": "0M53vhmTVlTFQgPb_WFqqF5vxoo=", "properties": {"ref": "7058", "@spider": "homedepot_ca", "alt_name": "Home Depot", "shop": "doityourself", "addr:street_address": "1999 Bishop Grandin Blvd.", "addr:city": "Winnipeg", "addr:state": "MB", "addr:postcode": "R2M 3E8", "addr:country": "CA", "name": "The Home Depot: Home Improvement & Hardware Store in Winnipeg.", "phone": "(204) 253-9411", "website": "https://stores.homedepot.ca/mb/winnipeg/home-improvement-winnipeg-mb-7058.html", "opening_hours": "Mo-Fr 07:00-21:00; Sa 07:00-20:00; Su 08:00-20:00", "brand": "The Home Depot", "brand:wikidata": "Q864407", "nsi_id": "thehomedepot-00d2a0"}, "geometry": {"type": "Point", "coordinates": [-97.097602, 49.838862]}},
{"type": "Feature", "id": "VpyFUu0GrioTVJGuNs_IfjNvCjs=", "properties": {"ref": "7056", "@spider": "homedepot_ca", "alt_name": "Home Depot", "shop": "doityourself", "addr:street_address": "1590 Regent Avenue W", "addr:city": "Winnipeg", "addr:state": "MB", "addr:postcode": "R2C 3B4", "addr:country": "CA", "name": "The Home Depot: Home Improvement & Hardware Store in Winnipeg.", "phone": "(204) 654-5400", "website": "https://stores.homedepot.ca/mb/winnipeg/home-improvement-winnipeg-mb-7056.html", "opening_hours": "Mo-Fr 07:00-21:00; Sa 07:00-20:00; Su 08:00-20:00", "brand": "The Home Depot", "brand:wikidata": "Q864407", "nsi_id": "thehomedepot-00d2a0"}, "geometry": {"type": "Point", "coordinates": [-97.068619, 49.894829]}},
{"type": "Feature", "id": "2KeEjf28lrAeliHykTJ_X41W2CM=", "properties": {"ref": "7038", "@spider": "homedepot_ca", "alt_name": "Home Depot", "shop": "doityourself", "addr:street_address": "801 18th Street North", "addr:city": "Brandon", "addr:state": "MB", "addr:postcode": "R7A 7S1", "addr:country": "CA", "name": "The Home Depot: Home Improvement & Hardware Store in Brandon.", "phone": "(204) 571-3300", "website": "https://stores.homedepot.ca/mb/brandon/home-improvement-brandon-mb-7038.html", "opening_hours": "Mo-Fr 07:00-21:00; Sa 07:00-20:00; Su 08:00-20:00", "brand": "The Home Depot", "brand:wikidata": "Q864407", "nsi_id": "thehomedepot-00d2a0"}, "geometry": {"type": "Point", "coordinates": [-99.957688, 49.8653715]}},
{"type": "Feature", "id": "5oK0sQNF9TAL3UXWnN47MhGAQM0=", "properties": {"ref": "7252", "@spider": "homedepot_ca", "alt_name": "Home Depot", "shop": "doityourself", "addr:street_address": "3550 Carrington Road, Unit #401", "addr:city": "Westbank", "addr:state": "BC", "addr:postcode": "V4T 2Z1", "addr:country": "CA", "name": "The Home Depot: Home Improvement & Hardware Store in Westbank.", "phone": "(250) 707-2300", "website": "https://stores.homedepot.ca/bc/westbank/home-improvement-westbank-bc-7252.html", "opening_hours": "Mo-Fr 07:00-21:00; Sa 07:00-20:00; Su 08:00-18:00", "brand": "The Home Depot", "brand:wikidata": "Q864407", "nsi_id": "thehomedepot-00d2a0"}, "geometry": {"type": "Point", "coordinates": [-119.611302, 49.837499]}},
{"type": "Feature", "id": "_4OPAAWsVpXiVkXdXKCsvRvO6hk=", "properties": {"ref": "7035", "@spider": "homedepot_ca", "alt_name": "Home Depot", "shop": "doityourself", "addr:street_address": "840 Main Street", "addr:city": "West Vancouver", "addr:state": "BC", "addr:postcode": "V7T 2Z3", "addr:country": "CA", "name": "The Home Depot: Home Improvement & Hardware Store in West Vancouver.", "phone": "(604) 913-2630", "website": "https://stores.homedepot.ca/bc/westvancouver/home-improvement-westvancouver-bc-7035.html", "opening_hours": "Mo-Fr 07:00-21:00; Sa 07:00-20:00; Su 08:00-20:00", "brand": "The Home Depot", "brand:wikidata": "Q864407", "nsi_id": "thehomedepot-00d2a0"}, "geometry": {"type": "Point", "coordinates": [-123.1410162, 49.325262]}},
{"type": "Feature", "id": "qS7b5Mg75IxwZ_qxeHBJQ-MkpLM=", "properties": {"ref": "7074", "@spider": "homedepot_ca", "alt_name": "Home Depot", "shop": "doityourself", "addr:street_address": "2400 Millstream Road", "addr:city": "Victoria", "addr:state": "BC", "addr:postcode": "V9B 3R3", "addr:country": "CA", "name": "The Home Depot: Home Improvement & Hardware Store in Victoria.", "phone": "(250) 391-6000", "website": "https://stores.homedepot.ca/bc/victoria/home-improvement-victoria-bc-7074.html", "opening_hours": "Mo-Fr 07:00-21:00; Sa 07:00-20:00; Su 08:00-20:00", "brand": "The Home Depot", "brand:wikidata": "Q864407", "nsi_id": "thehomedepot-00d2a0"}, "geometry": {"type": "Point", "coordinates": [-123.4997855, 48.4617222]}},
{"type": "Feature", "id": "fnZetuX0bQec0NJA1ev7lk5lIYM=", "properties": {"ref": "7084", "@spider": "homedepot_ca", "alt_name": "Home Depot", "shop": "doityourself", "addr:street_address": "5501 Anderson Way", "addr:city": "Vernon", "addr:state": "BC", "addr:postcode": "V1T 9V1", "addr:country": "CA", "name": "The Home Depot: Home Improvement & Hardware Store in Vernon.", "phone": "(250) 550-1600", "website": "https://stores.homedepot.ca/bc/vernon/home-improvement-vernon-bc-7084.html", "opening_hours": "Mo-Fr 07:00-21:00; Sa 07:00-20:00; Su 08:00-18:00", "brand": "The Home Depot", "brand:wikidata": "Q864407", "nsi_id": "thehomedepot-00d2a0"}, "geometry": {"type": "Point", "coordinates": [-119.272198, 50.285945]}},
{"type": "Feature", "id": "DVvidLy0cxf329PkiDIchHNhgkk=", "properties": {"ref": "7042", "@spider": "homedepot_ca", "alt_name": "Home Depot", "shop": "doityourself", "addr:street_address": "900 Terminal Avenue", "addr:city": "Vancouver", "addr:state": "BC", "addr:postcode": "V6A 4G4", "addr:country": "CA", "name": "The Home Depot: Home Improvement & Hardware Store in Vancouver.", "phone": "(604) 608-1423", "website": "https://stores.homedepot.ca/bc/vancouver/home-improvement-vancouver-bc-7042.html", "opening_hours": "Mo-Fr 06:00-21:00; Sa 07:00-19:00; Su 08:00-18:00", "brand": "The Home Depot", "brand:wikidata": "Q864407", "nsi_id": "thehomedepot-00d2a0"}, "geometry": {"type": "Point", "coordinates": [-123.082791, 49.269682]}},
{"type": "Feature", "id": "ewLyYb_VlbbjZxpNciCKoFfTbOw=", "properties": {"ref": "7259", "@spider": "homedepot_ca", "alt_name": "Home Depot", "shop": "doityourself", "addr:street_address": "2388 Cambie Street", "addr:city": "Vancouver", "addr:state": "BC", "addr:postcode": "V5Z 2T8", "addr:country": "CA", "name": "The Home Depot: Home Improvement & Hardware Store in Vancouver.", "phone": "(604) 675-1260", "website": "https://stores.homedepot.ca/bc/vancouver/home-improvement-vancouver-bc-7259.html", "opening_hours": "Mo-Fr 07:00-21:00; Sa-Su 08:00-20:00", "brand": "The Home Depot", "brand:wikidata": "Q864407", "nsi_id": "thehomedepot-00d2a0"}, "geometry": {"type": "Point", "coordinates": [-123.1144358, 49.2644419]}},
{"type": "Feature", "id": "DZ47ZTv8iI8U0_BCZGomF4HO5mo=", "properties": {"ref": "7122", "@spider": "homedepot_ca", "alt_name": "Home Depot", "shop": "doityourself", "addr:street_address": "2525 - 160th Street", "addr:city": "Surrey", "addr:state": "BC", "addr:postcode": "V3S 0C8", "addr:country": "CA", "name": "The Home Depot: Home Improvement & Hardware Store in Surrey.", "phone": "(604) 542-3520", "website": "https://stores.homedepot.ca/bc/surrey/home-improvement-surrey-bc-7122.html", "opening_hours": "Mo-Fr 07:00-21:00; Sa 07:00-20:00; Su 08:00-20:00", "brand": "The Home Depot", "brand:wikidata": "Q864407", "nsi_id": "thehomedepot-00d2a0"}, "geometry": {"type": "Point", "coordinates": [-122.7803971, 49.0477678]}},
{"type": "Feature", "id": "nIqb6sog4XPkmv8eFjoFIGa9edg=", "properties": {"ref": "7046", "@spider": "homedepot_ca", "alt_name": "Home Depot", "shop": "doityourself", "addr:street_address": "12701-110th Avenue", "addr:city": "Surrey", "addr:state": "BC", "addr:postcode": "V3V 3K7", "addr:country": "CA", "name": "The Home Depot: Home Improvement & Hardware Store in Surrey.", "phone": "(604) 580-1888", "website": "https://stores.homedepot.ca/bc/surrey/home-improvement-surrey-bc-7046.html", "opening_hours": "Mo-Fr 07:00-21:00; Sa 07:00-20:00; Su 08:00-20:00", "brand": "The Home Depot", "brand:wikidata": "Q864407", "nsi_id": "thehomedepot-00d2a0"}, "geometry": {"type": "Point", "coordinates": [-122.869361, 49.20401]}},
{"type": "Feature", "id": "GpLuhoTTxvngGDg0YbRPd-VUrMQ=", "properties": {"ref": "7044", "@spider": "homedepot_ca", "alt_name": "Home Depot", "shop": "doityourself", "addr:street_address": "7350-120th Street", "addr:city": "Surrey", "addr:state": "BC", "addr:postcode": "V3W 3M9", "addr:country": "CA", "name": "The Home Depot: Home Improvement & Hardware Store in Surrey.", "phone": "(604) 590-3546", "website": "https://stores.homedepot.ca/bc/surrey/home-improvement-surrey-bc-7044.html", "opening_hours": "Mo-Fr 07:00-21:00; Sa 07:00-20:00; Su 08:00-20:00", "brand": "The Home Depot", "brand:wikidata": "Q864407", "nsi_id": "thehomedepot-00d2a0"}, "geometry": {"type": "Point", "coordinates": [-122.8872227, 49.1364209]}},
{"type": "Feature", "id": "mmrD0eAt6b-ZnaNiIoZNRcU8KkQ=", "properties": {"ref": "7053", "@spider": "homedepot_ca", "alt_name": "Home Depot", "shop": "doityourself", "addr:street_address": "39251 Discovery Way", "addr:city": "Squamish", "addr:state": "BC", "addr:postcode": "V8B 0M9", "addr:country": "CA", "name": "The Home Depot: Home Improvement & Hardware Store in Squamish.", "phone": "(604) 892-8800", "website": "https://stores.homedepot.ca/bc/squamish/home-improvement-squamish-bc-7053.html", "opening_hours": "Mo-Fr 07:00-20:00; Sa-Su 08:00-18:00", "brand": "The Home Depot", "brand:wikidata": "Q864407", "nsi_id": "thehomedepot-00d2a0"}, "geometry": {"type": "Point", "coordinates": [-123.1520335, 49.7217058]}},
{"type": "Feature", "id": "gkYG5RpUHeh83kvqg0EvWfVgKk4=", "properties": {"ref": "7055", "@spider": "homedepot_ca", "alt_name": "Home Depot", "shop": "doityourself", "addr:street_address": "3986 Shelbourne Street", "addr:city": "Saanich", "addr:state": "BC", "addr:postcode": "V8N 3E3", "addr:country": "CA", "name": "The Home Depot: Home Improvement & Hardware Store in Saanich.", "phone": "(250) 853-5350", "website": "https://stores.homedepot.ca/bc/saanich/home-improvement-saanich-bc-7055.html", "opening_hours": "Mo-Fr 07:00-21:00; Sa 07:00-20:00; Su 08:00-20:00", "brand": "The Home Depot", "brand:wikidata": "Q864407", "nsi_id": "thehomedepot-00d2a0"}, "geometry": {"type": "Point", "coordinates": [-123.3340912, 48.4706869]}},
{"type": "Feature", "id": "42Cn3RakQwP7C2vJWJjOViHlVXA=", "properties": {"ref": "7043", "@spider": "homedepot_ca", "alt_name": "Home Depot", "shop": "doityourself", "addr:street_address": "2700 Sweden Way", "addr:city": "Richmond", "addr:state": "BC", "addr:postcode": "V6V 1K1", "addr:country": "CA", "name": "The Home Depot: Home Improvement & Hardware Store in Richmond.", "phone": "(604) 303-9882", "website": "https://stores.homedepot.ca/bc/richmond/home-improvement-richmond-bc-7043.html", "opening_hours": "Mo-Fr 06:00-21:00; Sa 07:00-20:00; Su 08:00-20:00", "brand": "The Home Depot", "brand:wikidata": "Q864407", "nsi_id": "thehomedepot-00d2a0"}, "geometry": {"type": "Point", "coordinates": [-123.082821, 49.194904]}},
{"type": "Feature", "id": "mKt8TU2huyc_dcuUq6KgZgbCKMg=", "properties": {"ref": "7171", "@spider": "homedepot_ca", "alt_name": "Home Depot", "shop": "doityourself", "addr:street_address": "5959 O'Grady Road", "addr:city": "Prince George", "addr:state": "BC", "addr:postcode": "V2N 6Z5", "addr:country": "CA", "name": "The Home Depot: Home Improvement & Hardware Store in Prince George.", "phone": "(250) 906-3610", "website": "https://stores.homedepot.ca/bc/princegeorge/home-improvement-princegeorge-bc-7171.html", "opening_hours": "Mo-Fr 07:00-21:00; Sa 07:00-20:00; Su 08:00-18:00", "brand": "The Home Depot", "brand:wikidata": "Q864407", "nsi_id": "thehomedepot-00d2a0"}, "geometry": {"type": "Point", "coordinates": [-122.780167, 53.86572]}},
{"type": "Feature", "id": "1IrC3p0LnPa0khVkt_0Km1qNwe4=", "properties": {"ref": "7145", "@spider": "homedepot_ca", "alt_name": "Home Depot", "shop": "doityourself", "addr:street_address": "1069 Nicola Dr.", "addr:city": "Port Coquitlam", "addr:state": "BC", "addr:postcode": "V3B 8B2", "addr:country": "CA", "name": "The Home Depot: Home Improvement & Hardware Store in Port Coquitlam.", "phone": "(604) 468-3360", "website": "https://stores.homedepot.ca/bc/portcoquitlam/home-improvement-portcoquitlam-bc-7145.html", "opening_hours": "Mo-Fr 07:00-21:00; Sa 07:00-20:00; Su 08:00-20:00", "brand": "The Home Depot", "brand:wikidata": "Q864407", "nsi_id": "thehomedepot-00d2a0"}, "geometry": {"type": "Point", "coordinates": [-122.74298, 49.257768]}},
{"type": "Feature", "id": "XaE2N5nKxmFTwyasjj6Aa342PqQ=", "properties": {"ref": "7041", "@spider": "homedepot_ca", "alt_name": "Home Depot", "shop": "doityourself", "addr:street_address": "6550 - 200th Street", "addr:city": "Langley", "addr:state": "BC", "addr:postcode": "V2Y 1P2", "addr:country": "CA", "name": "The Home Depot: Home Improvement & Hardware Store in Langley.", "phone": "(604) 514-1788", "website": "https://stores.homedepot.ca/bc/langley/home-improvement-langley-bc-7041.html", "opening_hours": "Mo-Fr 06:00-21:00; Sa-Su 07:00-20:00", "brand": "The Home Depot", "brand:wikidata": "Q864407", "nsi_id": "thehomedepot-00d2a0"}, "geometry": {"type": "Point", "coordinates": [-122.6670236, 49.1221119]}},
{"type": "Feature", "id": "q4y_d6so9nUbFokXiw37OV8aTOw=", "properties": {"ref": "7040", "@spider": "homedepot_ca", "alt_name": "Home Depot", "shop": "doityourself", "addr:street_address": "6555 Metral Street", "addr:city": "Nanaimo", "addr:state": "BC", "addr:postcode": "V9T 2L9", "addr:country": "CA", "name": "The Home Depot: Home Improvement & Hardware Store in Nanaimo.", "phone": "(250) 390-9093", "website": "https://stores.homedepot.ca/bc/nanaimo/home-improvement-nanaimo-bc-7040.html", "opening_hours": "Mo-Fr 07:00-21:00; Sa-Su 07:00-20:00", "brand": "The Home Depot", "brand:wikidata": "Q864407", "nsi_id": "thehomedepot-00d2a0"}, "geometry": {"type": "Point", "coordinates": [-124.0495921, 49.2321807]}},
{"type": "Feature", "id": "89UpPlZj2JHdcJZvJRJMrLcoC2w=", "properties": {"ref": "7032", "@spider": "homedepot_ca", "alt_name": "Home Depot", "shop": "doityourself", "addr:street_address": "2515 Enterprise Way", "addr:city": "Kelowna", "addr:state": "BC", "addr:postcode": "V1X 6C1", "addr:country": "CA", "name": "The Home Depot: Home Improvement & Hardware Store in Kelowna.", "phone": "(250) 979-4500", "website": "https://stores.homedepot.ca/bc/kelowna/home-improvement-kelowna-bc-7032.html", "opening_hours": "Mo-Fr 07:00-21:00; Sa 07:00-20:00; Su 08:00-20:00", "brand": "The Home Depot", "brand:wikidata": "Q864407", "nsi_id": "thehomedepot-00d2a0"}, "geometry": {"type": "Point", "coordinates": [-119.4315186, 49.8865611]}},
{"type": "Feature", "id": "Su-QR23O_3lJ5Ofsj_l14zxSkTE=", "properties": {"ref": "7144", "@spider": "homedepot_ca", "alt_name": "Home Depot", "shop": "doityourself", "addr:street_address": "1020 Hillside Drive", "addr:city": "Kamloops", "addr:state": "BC", "addr:postcode": "V2E 2S5", "addr:country": "CA", "name": "The Home Depot: Home Improvement & Hardware Store in Kamloops.", "phone": "(250) 371-4300", "website": "https://stores.homedepot.ca/bc/kamloops/home-improvement-kamloops-bc-7144.html", "opening_hours": "Mo-Fr 07:00-21:00; Sa 07:00-20:00; Su 08:00-20:00", "brand": "The Home Depot", "brand:wikidata": "Q864407", "nsi_id": "thehomedepot-00d2a0"}, "geometry": {"type": "Point", "coordinates": [-120.3741682, 50.6671939]}},
{"type": "Feature", "id": "lV4C_L39HTuOYuy1yHGNSAHk-Ik=", "properties": {"ref": "7255", "@spider": "homedepot_ca", "alt_name": "Home Depot", "shop": "doityourself", "addr:street_address": "2000 McPhee Road", "addr:city": "Cranbrook", "addr:state": "BC", "addr:postcode": "V1C 0A3", "addr:country": "CA", "name": "The Home Depot: Home Improvement & Hardware Store in Cranbrook.", "phone": "(250) 420-4250", "website": "https://stores.homedepot.ca/bc/cranbrook/home-improvement-cranbrook-bc-7255.html", "opening_hours": "Mo-Fr 07:00-20:00; Sa 08:00-18:00; Su 09:00-18:00", "brand": "The Home Depot", "brand:wikidata": "Q864407", "nsi_id": "thehomedepot-00d2a0"}, "geometry": {"type": "Point", "coordinates": [-115.753557, 49.533667]}},
{"type": "Feature", "id": "dZl3d_LgB0g8z_-VsmGRVhxGebI=", "properties": {"ref": "7272", "@spider": "homedepot_ca", "alt_name": "Home Depot", "shop": "doityourself", "addr:street_address": "2980 Drinkwater Road", "addr:city": "Duncan", "addr:state": "BC", "addr:postcode": "V9L 6C6", "addr:country": "CA", "name": "Home Depot : Magasin sp\u00e9cialis\u00e9 en am\u00e9lioration domiciliaire et en quincaillerie \u00e0 Duncan.", "phone": "(250) 737-2360", "website": "https://stores.homedepot.ca/bc/duncan/bricolage-duncan-bc-7272.html", "opening_hours": "Mo-Fr 07:00-21:00; Sa 07:00-20:00; Su 08:00-18:00", "brand": "The Home Depot", "brand:wikidata": "Q864407", "nsi_id": "thehomedepot-00d2a0"}, "geometry": {"type": "Point", "coordinates": [-123.719423, 48.802896]}},
{"type": "Feature", "id": "rdoK7OgTEd6QVlpiBQ-20UANQfU=", "properties": {"ref": "7177", "@spider": "homedepot_ca", "alt_name": "Home Depot", "shop": "doityourself", "addr:street_address": "388 Lerwick Road", "addr:city": "Courtenay", "addr:state": "BC", "addr:postcode": "V9N 9E5", "addr:country": "CA", "name": "The Home Depot: Home Improvement & Hardware Store in Courtenay.", "phone": "(250) 334-5400", "website": "https://stores.homedepot.ca/bc/courtenay/home-improvement-courtenay-bc-7177.html", "opening_hours": "Mo-Fr 07:00-21:00; Sa 07:00-20:00; Su 08:00-20:00", "brand": "The Home Depot", "brand:wikidata": "Q864407", "nsi_id": "thehomedepot-00d2a0"}, "geometry": {"type": "Point", "coordinates": [-124.9645509, 49.7121897]}},
{"type": "Feature", "id": "TPWZXI5Q5ooIksu1eWLlj8kBcLg=", "properties": {"ref": "7045", "@spider": "homedepot_ca", "alt_name": "Home Depot", "shop": "doityourself", "addr:street_address": "1900 United Boulevard", "addr:city": "Coquitlam", "addr:state": "BC", "addr:postcode": "V3K 6Z1", "addr:country": "CA", "name": "The Home Depot: Home Improvement & Hardware Store in Coquitlam.", "phone": "(604) 540-6226", "website": "https://stores.homedepot.ca/bc/coquitlam/home-improvement-coquitlam-bc-7045.html", "opening_hours": "Mo-Fr 07:00-21:00; Sa 07:00-20:00; Su 08:00-20:00", "brand": "The Home Depot", "brand:wikidata": "Q864407", "nsi_id": "thehomedepot-00d2a0"}, "geometry": {"type": "Point", "coordinates": [-122.8422849, 49.2272661]}},
{"type": "Feature", "id": "EYlXgO_MpE5zAxmQ2ed1FOfgcrU=", "properties": {"ref": "7273", "@spider": "homedepot_ca", "alt_name": "Home Depot", "shop": "doityourself", "addr:street_address": "100-8443 Eagle Landing Pkwy", "addr:city": "Chilliwack", "addr:state": "BC", "addr:postcode": "V2P 0E2", "addr:country": "CA", "name": "The Home Depot: Home Improvement & Hardware Store in Chilliwack.", "phone": "(604) 703-1502", "website": "https://stores.homedepot.ca/bc/chilliwack/home-improvement-chilliwack-bc-7273.html", "opening_hours": "Mo-Fr 07:00-21:00; Sa 07:00-20:00; Su 08:00-18:00", "brand": "The Home Depot", "brand:wikidata": "Q864407", "nsi_id": "thehomedepot-00d2a0"}, "geometry": {"type": "Point", "coordinates": [-121.977789, 49.152477]}},
{"type": "Feature", "id": "pGkrdEH622xVl-AHvlVXJZgYxMI=", "properties": {"ref": "7221", "@spider": "homedepot_ca", "alt_name": "Home Depot", "shop": "doityourself", "addr:street_address": "1482 Island Highway", "addr:city": "Campbell River", "addr:state": "BC", "addr:postcode": "V9W 8C9", "addr:country": "CA", "name": "The Home Depot: Home Improvement & Hardware Store in Campbell River.", "phone": "(250) 286-5400", "website": "https://stores.homedepot.ca/bc/campbellriver/home-improvement-campbellriver-bc-7221.html", "opening_hours": "Mo-Sa 07:00-20:00; Su 08:00-20:00", "brand": "The Home Depot", "brand:wikidata": "Q864407", "nsi_id": "thehomedepot-00d2a0"}, "geometry": {"type": "Point", "coordinates": [-125.259375, 50.034076]}},
{"type": "Feature", "id": "gO_sYk2qe_B2pPmkoXVYdptqHEQ=", "properties": {"ref": "7047", "@spider": "homedepot_ca", "alt_name": "Home Depot", "shop": "doityourself", "addr:street_address": "3950 Henning Drive", "addr:city": "Burnaby", "addr:state": "BC", "addr:postcode": "V5C 6M2", "addr:country": "CA", "name": "The Home Depot: Home Improvement & Hardware Store in Burnaby.", "phone": "(604) 294-3030", "website": "https://stores.homedepot.ca/bc/burnaby/home-improvement-burnaby-bc-7047.html", "opening_hours": "Mo-Fr 06:00-21:00; Sa 07:00-20:00; Su 08:00-20:00", "brand": "The Home Depot", "brand:wikidata": "Q864407", "nsi_id": "thehomedepot-00d2a0"}, "geometry": {"type": "Point", "coordinates": [-123.0169013, 49.2631361]}},
{"type": "Feature", "id": "QegVwJSpo3Fn1pZDvXLlbdJTXwc=", "properties": {"ref": "7141", "@spider": "homedepot_ca", "alt_name": "Home Depot", "shop": "doityourself", "addr:street_address": "1956 Vedder Way", "addr:city": "Abbotsford", "addr:state": "BC", "addr:postcode": "V2S 8K1", "addr:country": "CA", "name": "The Home Depot: Home Improvement & Hardware Store in Abbotsford.", "phone": "(604) 851-4400", "website": "https://stores.homedepot.ca/bc/abbotsford/home-improvement-abbotsford-bc-7141.html", "opening_hours": "Mo-Fr 07:00-21:00; Sa 07:00-20:00; Su 08:00-20:00", "brand": "The Home Depot", "brand:wikidata": "Q864407", "nsi_id": "thehomedepot-00d2a0"}, "geometry": {"type": "Point", "coordinates": [-122.270357, 49.0372272]}},
{"type": "Feature", "id": "xYcKuXRyu1xcwgF4_G7zX7h-v4w=", "properties": {"ref": "7088", "@spider": "homedepot_ca", "alt_name": "Home Depot", "shop": "doityourself", "addr:street_address": "750 St. Albert Road", "addr:city": "St. Albert", "addr:state": "AB", "addr:postcode": "T8N 7H5", "addr:country": "CA", "name": "The Home Depot: Home Improvement & Hardware Store in St. Albert.", "phone": "(780) 458-4026", "website": "https://stores.homedepot.ca/ab/st-albert/home-improvement-st-albert-ab-7088.html", "opening_hours": "Mo-Fr 07:00-21:00; Sa 07:00-20:00; Su 08:00-20:00", "brand": "The Home Depot", "brand:wikidata": "Q864407", "nsi_id": "thehomedepot-00d2a0"}, "geometry": {"type": "Point", "coordinates": [-113.63169, 53.662053]}},
{"type": "Feature", "id": "nrqBTuYYlyEyaE1twahCWqYg3jk=", "properties": {"ref": "7050", "@spider": "homedepot_ca", "alt_name": "Home Depot", "shop": "doityourself", "addr:street_address": "180 Hwy 16A", "addr:city": "Spruce Grove", "addr:state": "AB", "addr:postcode": "T7X 3X3", "addr:country": "CA", "name": "The Home Depot: Home Improvement & Hardware Store in Spruce Grove.", "phone": "(780) 960-5600", "website": "https://stores.homedepot.ca/ab/sprucegrove/home-improvement-sprucegrove-ab-7050.html", "opening_hours": "Mo-Fr 07:00-21:00; Sa 07:00-20:00; Su 08:00-20:00", "brand": "The Home Depot", "brand:wikidata": "Q864407", "nsi_id": "thehomedepot-00d2a0"}, "geometry": {"type": "Point", "coordinates": [-113.926831, 53.541615]}},
{"type": "Feature", "id": "iCMjy82BSeXWN9SfzccWgOW1Bg8=", "properties": {"ref": "7172", "@spider": "homedepot_ca", "alt_name": "Home Depot", "shop": "doityourself", "addr:street_address": "200-390 Baseline Road", "addr:city": "Sherwood Park", "addr:state": "AB", "addr:postcode": "T8H 1X1", "addr:country": "CA", "name": "The Home Depot: Home Improvement & Hardware Store in Sherwood Park.", "phone": "(780) 417-7875", "website": "https://stores.homedepot.ca/ab/sherwoodpark/home-improvement-sherwoodpark-ab-7172.html", "opening_hours": "Mo-Fr 07:00-21:00; Sa 07:00-20:00; Su 08:00-20:00", "brand": "The Home Depot", "brand:wikidata": "Q864407", "nsi_id": "thehomedepot-00d2a0"}, "geometry": {"type": "Point", "coordinates": [-113.299343, 53.542868]}},
{"type": "Feature", "id": "C1GuBT4WCSIDF_ubNVvCWjUs9Cg=", "properties": {"ref": "7131", "@spider": "homedepot_ca", "alt_name": "Home Depot", "shop": "doityourself", "addr:street_address": "2030-50th Avenue", "addr:city": "Red Deer", "addr:state": "AB", "addr:postcode": "T4R 3A2", "addr:country": "CA", "name": "The Home Depot: Home Improvement & Hardware Store in Red Deer.", "phone": "(403) 358-7550", "website": "https://stores.homedepot.ca/ab/reddeer/home-improvement-reddeer-ab-7131.html", "opening_hours": "Mo-Fr 07:00-21:00; Sa 07:00-20:00; Su 08:00-18:00", "brand": "The Home Depot", "brand:wikidata": "Q864407", "nsi_id": "thehomedepot-00d2a0"}, "geometry": {"type": "Point", "coordinates": [-113.8140828, 52.2372798]}},
{"type": "Feature", "id": "f9c8zk8kak5aOKBKLBIBHn1VtPE=", "properties": {"ref": "7223", "@spider": "homedepot_ca", "alt_name": "Home Depot", "shop": "doityourself", "addr:street_address": "10-101 Southbank Boulevard", "addr:city": "Okotoks", "addr:state": "AB", "addr:postcode": "T1S 0G1", "addr:country": "CA", "name": "The Home Depot: Home Improvement & Hardware Store in Okotoks.", "phone": "(403) 995-4710", "website": "https://stores.homedepot.ca/ab/okotoks/home-improvement-okotoks-ab-7223.html", "opening_hours": "Mo-Fr 07:00-21:00; Sa 07:00-20:00; Su 08:00-20:00", "brand": "The Home Depot", "brand:wikidata": "Q864407", "nsi_id": "thehomedepot-00d2a0"}, "geometry": {"type": "Point", "coordinates": [-113.951106, 50.705604]}},
{"type": "Feature", "id": "aChvc20x-jMuzgdMid2ft06QbcQ=", "properties": {"ref": "7258", "@spider": "homedepot_ca", "alt_name": "Home Depot", "shop": "doityourself", "addr:street_address": "7705-44th Street", "addr:city": "Lloydminster", "addr:state": "AB", "addr:postcode": "T9V 0X9", "addr:country": "CA", "name": "The Home Depot: Home Improvement & Hardware Store in Lloydminster.", "phone": "(780) 870-9420", "website": "https://stores.homedepot.ca/ab/lloydminster/home-improvement-lloydminster-ab-7258.html", "opening_hours": "Mo-Fr 07:00-20:00; Sa 07:00-18:00; Su 08:00-18:00", "brand": "The Home Depot", "brand:wikidata": "Q864407", "nsi_id": "thehomedepot-00d2a0"}, "geometry": {"type": "Point", "coordinates": [-110.0588642, 53.2757391]}},
{"type": "Feature", "id": "Yroj-Qpa_6kYMoPTrOgnXqyrUYI=", "properties": {"ref": "7036", "@spider": "homedepot_ca", "alt_name": "Home Depot", "shop": "doityourself", "addr:street_address": "1851 Strachan Road S.E.", "addr:city": "Medicine Hat", "addr:state": "AB", "addr:postcode": "T1B 4V7", "addr:country": "CA", "name": "The Home Depot: Home Improvement & Hardware Store in Medicine Hat.", "phone": "(403) 581-4300", "website": "https://stores.homedepot.ca/ab/medicinehat/home-improvement-medicinehat-ab-7036.html", "opening_hours": "Mo-Fr 07:00-21:00; Sa 07:00-20:00; Su 08:00-18:00", "brand": "The Home Depot", "brand:wikidata": "Q864407", "nsi_id": "thehomedepot-00d2a0"}, "geometry": {"type": "Point", "coordinates": [-110.6501678, 49.99687]}},
{"type": "Feature", "id": "sGkpz8fqpzZ73cb-gnpRz6MWK3o=", "properties": {"ref": "7170", "@spider": "homedepot_ca", "alt_name": "Home Depot", "shop": "doityourself", "addr:street_address": "3708 Mayor Magrath Dr.South", "addr:city": "Lethbridge", "addr:state": "AB", "addr:postcode": "T1K 7V1", "addr:country": "CA", "name": "The Home Depot: Home Improvement & Hardware Store in Lethbridge.", "phone": "(403) 331-3575", "website": "https://stores.homedepot.ca/ab/lethbridge/home-improvement-lethbridge-ab-7170.html", "opening_hours": "Mo-Fr 07:00-21:00; Sa 07:00-20:00; Su 08:00-18:00", "brand": "The Home Depot", "brand:wikidata": "Q864407", "nsi_id": "thehomedepot-00d2a0"}, "geometry": {"type": "Point", "coordinates": [-112.79331, 49.658986]}},
{"type": "Feature", "id": "MZUfZWB86Jg-Hwy_oztynng7FVs=", "properties": {"ref": "7175", "@spider": "homedepot_ca", "alt_name": "Home Depot", "shop": "doityourself", "addr:street_address": "11222 A 103 Ave", "addr:city": "Grande Prairie", "addr:state": "AB", "addr:postcode": "T8V 7H1", "addr:country": "CA", "name": "The Home Depot: Home Improvement & Hardware Store in Grande Prairie.", "phone": "(780) 831-3160", "website": "https://stores.homedepot.ca/ab/grandeprairie/home-improvement-grandeprairie-ab-7175.html", "opening_hours": "Mo-Fr 07:00-21:00; Sa 07:00-20:00; Su 08:00-18:00", "brand": "The Home Depot", "brand:wikidata": "Q864407", "nsi_id": "thehomedepot-00d2a0"}, "geometry": {"type": "Point", "coordinates": [-118.833758, 55.172743]}},
{"type": "Feature", "id": "QDZ_WUnde5pyWGYk7I4AX8c_l94=", "properties": {"ref": "7222", "@spider": "homedepot_ca", "alt_name": "Home Depot", "shop": "doityourself", "addr:street_address": "9280 Southfort Drive", "addr:city": "Fort Saskatchewan", "addr:state": "AB", "addr:postcode": "T8L 0C5", "addr:country": "CA", "name": "The Home Depot: Home Improvement & Hardware Store in Fort Saskatchewan.", "phone": "(780) 997-2275", "website": "https://stores.homedepot.ca/ab/fortsaskatchewan/home-improvement-fortsaskatchewan-ab-7222.html", "opening_hours": "Mo-Fr 07:00-21:00; Sa 07:00-20:00; Su 08:00-20:00", "brand": "The Home Depot", "brand:wikidata": "Q864407", "nsi_id": "thehomedepot-00d2a0"}, "geometry": {"type": "Point", "coordinates": [-113.2183615, 53.6916815]}},
{"type": "Feature", "id": "xEmVBKaQXQvg0hXl_USWSh7IigM=", "properties": {"ref": "7082", "@spider": "homedepot_ca", "alt_name": "Home Depot", "shop": "doityourself", "addr:street_address": "5125 126th Avenue SE", "addr:city": "Calgary", "addr:state": "AB", "addr:postcode": "T2Z 0B2", "addr:country": "CA", "name": "The Home Depot: Home Improvement & Hardware Store in Calgary.", "phone": "(403)257-8750", "website": "https://stores.homedepot.ca/ab/calgary/home-improvement-calgary-ab-7082.html", "opening_hours": "Mo-Fr 07:00-21:00; Sa 07:00-20:00; Su 08:00-20:00", "brand": "The Home Depot", "brand:wikidata": "Q864407", "nsi_id": "thehomedepot-00d2a0"}, "geometry": {"type": "Point", "coordinates": [-113.961173, 50.934527]}},
{"type": "Feature", "id": "tLuXKn2CMg_8xrGOvu4mga_jEh4=", "properties": {"ref": "7076", "@spider": "homedepot_ca", "alt_name": "Home Depot", "shop": "doityourself", "addr:street_address": "11320 Sarcee  Trail NW", "addr:city": "Calgary", "addr:state": "AB", "addr:postcode": "T3R 0A1", "addr:country": "CA", "name": "The Home Depot: Home Improvement & Hardware Store in Calgary.", "phone": "(403)-374-3860", "website": "https://stores.homedepot.ca/ab/calgary/home-improvement-calgary-ab-7076.html", "opening_hours": "Mo-Fr 07:00-21:00; Sa 07:00-20:00; Su 08:00-20:00", "brand": "The Home Depot", "brand:wikidata": "Q864407", "nsi_id": "thehomedepot-00d2a0"}, "geometry": {"type": "Point", "coordinates": [-114.1612553, 51.1545957]}},
{"type": "Feature", "id": "PVzxYI5Lv9Ai5g2lplHLvq43KJ8=", "properties": {"ref": "7067", "@spider": "homedepot_ca", "alt_name": "Home Depot", "shop": "doityourself", "addr:street_address": "390 Shawville Blvd. S.E.", "addr:city": "Calgary", "addr:state": "AB", "addr:postcode": "T2Y 3S4", "addr:country": "CA", "name": "The Home Depot: Home Improvement & Hardware Store in Calgary.", "phone": "(403) 201-5611", "website": "https://stores.homedepot.ca/ab/calgary/home-improvement-calgary-ab-7067.html", "opening_hours": "Mo-Fr 07:00-21:00; Sa 07:00-20:00; Su 08:00-20:00", "brand": "The Home Depot", "brand:wikidata": "Q864407", "nsi_id": "thehomedepot-00d2a0"}, "geometry": {"type": "Point", "coordinates": [-114.0598169, 50.8966983]}},
{"type": "Feature", "id": "DQHnu-dHOdQjCDE_jIYppFSvr7Q=", "properties": {"ref": "7063", "@spider": "homedepot_ca", "alt_name": "Home Depot", "shop": "doityourself", "addr:street_address": "6500 MacLeod Trail S.W.", "addr:city": "Calgary", "addr:state": "AB", "addr:postcode": "T2H 0K6", "addr:country": "CA", "name": "The Home Depot: Home Improvement & Hardware Store in Calgary.", "phone": "(403) 258-3800", "website": "https://stores.homedepot.ca/ab/calgary/home-improvement-calgary-ab-7063.html", "opening_hours": "Mo-Fr 06:00-21:00; Sa 07:00-20:00; Su 08:00-20:00", "brand": "The Home Depot", "brand:wikidata": "Q864407", "nsi_id": "thehomedepot-00d2a0"}, "geometry": {"type": "Point", "coordinates": [-114.0686856, 50.9960017]}},
{"type": "Feature", "id": "E22TyeeFSulChoZTLIVy2qZxohk=", "properties": {"ref": "7037", "@spider": "homedepot_ca", "alt_name": "Home Depot", "shop": "doityourself", "addr:street_address": "1818 16th Ave. N.W.", "addr:city": "Calgary", "addr:state": "AB", "addr:postcode": "T2M 0L8", "addr:country": "CA", "name": "The Home Depot: Home Improvement & Hardware Store in Calgary.", "phone": "(403) 284-7925", "website": "https://stores.homedepot.ca/ab/calgary/home-improvement-calgary-ab-7037.html", "opening_hours": "Mo-Fr 07:00-21:00; Sa 07:00-20:00; Su 08:00-20:00", "brand": "The Home Depot", "brand:wikidata": "Q864407", "nsi_id": "thehomedepot-00d2a0"}, "geometry": {"type": "Point", "coordinates": [-114.1049508, 51.0674431]}},
{"type": "Feature", "id": "GxBVBERjPEV6BnThfY3zLF1B788=", "properties": {"ref": "7061", "@spider": "homedepot_ca", "alt_name": "Home Depot", "shop": "doityourself", "addr:street_address": "343-36th Street N.E", "addr:city": "Calgary", "addr:state": "AB", "addr:postcode": "T2A 7S9", "addr:country": "CA", "name": "The Home Depot: Home Improvement & Hardware Store in Calgary.", "phone": "(403) 248-1222", "website": "https://stores.homedepot.ca/ab/calgary/home-improvement-calgary-ab-7061.html", "opening_hours": "Mo-Fr 07:00-21:00; Sa 07:00-20:00; Su 08:00-20:00", "brand": "The Home Depot", "brand:wikidata": "Q864407", "nsi_id": "thehomedepot-00d2a0"}, "geometry": {"type": "Point", "coordinates": [-113.985093, 51.053227]}},
{"type": "Feature", "id": "V9leJXB337wNhoyw5hMIKb-QF40=", "properties": {"ref": "7254", "@spider": "homedepot_ca", "alt_name": "Home Depot", "shop": "doityourself", "addr:street_address": "2925 Main Street SW", "addr:city": "Airdrie", "addr:state": "AB", "addr:postcode": "T4B 3G5", "addr:country": "CA", "name": "The Home Depot: Home Improvement & Hardware Store in Airdrie.", "phone": "(403) 945-3865", "website": "https://stores.homedepot.ca/ab/airdrie/home-improvement-airdrie-ab-7254.html", "opening_hours": "Mo-Fr 07:00-21:00; Sa 07:00-20:00; Su 08:00-20:00", "brand": "The Home Depot", "brand:wikidata": "Q864407", "nsi_id": "thehomedepot-00d2a0"}, "geometry": {"type": "Point", "coordinates": [-114.004292, 51.260785]}}]}