{"type":"FeatureCollection","features":[{"type": "Feature", "id": "mBIbRoyImek53ySmbKxjPLkONNU=", "properties": {"ref": "26634", "@spider": "hopdoddy_burger_bar", "addr:full": "12746 JEFFERSON BOULEVARD, Suite 1120", "addr:city": "Playa Vista", "addr:state": "CA", "addr:postcode": "90094", "addr:country": "US", "name": "Playa Vista", "phone": "(310) 410-2337"}, "geometry": {"type": "Point", "coordinates": [-118.4177606, 33.9763722]}},
{"type": "Feature", "id": "Ywj9N_yDRXAR9wRoJPeIwF8cres=", "properties": {"ref": "26638", "@spider": "hopdoddy_burger_bar", "addr:full": "830 South Pacific Coast Highway Boulevard, Suite 116", "addr:city": "El Segundo", "addr:state": "CA", "addr:postcode": "90245", "addr:country": "US", "name": "El Segundo", "phone": "(310) 414-2337"}, "geometry": {"type": "Point", "coordinates": [-118.3960659, 33.9018058]}},
{"type": "Feature", "id": "N1Zeh_LcCzcSteGhiKJ-6cgNbHI=", "properties": {"ref": "26639", "@spider": "hopdoddy_burger_bar", "addr:full": "311 NEWPORT CENTER DRIVE", "addr:city": "Newport Beach", "addr:state": "CA", "addr:postcode": "92660", "addr:country": "US", "name": "Fashion Island", "phone": "(949) 640-2337"}, "geometry": {"type": "Point", "coordinates": [-117.875054, 33.615364]}},
{"type": "Feature", "id": "bI6_dPXQoHWnIvB_P0DJaohYl5E=", "properties": {"ref": "26643", "@spider": "hopdoddy_burger_bar", "addr:full": "3030 El Camino Real", "addr:city": "Tustin", "addr:state": "CA", "addr:postcode": "92782", "addr:country": "US", "name": "Tustin", "phone": "(714) 505-2337"}, "geometry": {"type": "Point", "coordinates": [-117.793607, 33.722342]}},
{"type": "Feature", "id": "n9HFKHc892uvkmPunii1keq2bw0=", "properties": {"ref": "26640", "@spider": "hopdoddy_burger_bar", "addr:full": "2033 East Camelback Road, Suite A13", "addr:city": "Phoenix", "addr:state": "AZ", "addr:postcode": "85016", "addr:country": "US", "name": "Camelback", "phone": "(602) 242-2337"}, "geometry": {"type": "Point", "coordinates": [-112.0375069, 33.5083289]}},
{"type": "Feature", "id": "MXit_3ZdGbNay1BrGAAKE2-O3GY=", "properties": {"ref": "26632", "@spider": "hopdoddy_burger_bar", "addr:full": "11055 North SCOTTSDALE ROAD", "addr:city": "Scottsdale", "addr:state": "AZ", "addr:postcode": "85254", "addr:country": "US", "name": "Scottsdale", "phone": "(480) 348-2337"}, "geometry": {"type": "Point", "coordinates": [-111.92466, 33.586665]}},
{"type": "Feature", "id": "z2jz0K4b5043VmrdnTfBdsgk5x8=", "properties": {"ref": "26635", "@spider": "hopdoddy_burger_bar", "addr:full": "1747 WYNKOOP STREET", "addr:city": "Denver", "addr:state": "CO", "addr:postcode": "80202", "addr:country": "US", "name": "Union Station", "phone": "(303) 446-2337"}, "geometry": {"type": "Point", "coordinates": [-104.9991153, 39.7537185]}},
{"type": "Feature", "id": "QXFklO5PVOGqO_c5q9uHtpyp2e4=", "properties": {"ref": "132546", "@spider": "hopdoddy_burger_bar", "addr:full": "4024 E 8th Place", "addr:city": "Denver", "addr:state": "CO", "addr:postcode": "80220", "addr:country": "US", "name": "Denver 9th & CO", "phone": "(720) 780-3523"}, "geometry": {"type": "Point", "coordinates": [-104.9403433, 39.7298577]}},
{"type": "Feature", "id": "2IHDbJgOZ9rpAs8HDdbwrmcy7Wk=", "properties": {"ref": "182153", "@spider": "hopdoddy_burger_bar", "addr:full": "4400 North Midland Drive", "addr:city": "Midland", "addr:state": "TX", "addr:postcode": "79707", "addr:country": "US", "name": "Midland", "phone": "(432) 789-1855"}, "geometry": {"type": "Point", "coordinates": [-102.1431717, 32.0284324]}},
{"type": "Feature", "id": "R1mj4pQ_Gfptdu559A64tycn7qU=", "properties": {"ref": "82361", "@spider": "hopdoddy_burger_bar", "addr:full": "1301 North Loop 1604 W SUITE 101", "addr:city": "San Antonio", "addr:state": "TX", "addr:postcode": "78258", "addr:country": "US", "name": "Vineyard", "phone": "(210) 728-3800"}, "geometry": {"type": "Point", "coordinates": [-98.5123415, 29.6093648]}},
{"type": "Feature", "id": "_BlbOzGeT8zR6om-gdd2-u5FDgw=", "properties": {"ref": "26644", "@spider": "hopdoddy_burger_bar", "addr:full": "17623 La Cantera PARKWAY SUITE 101", "addr:city": "San Antonio", "addr:state": "TX", "addr:postcode": "78257", "addr:country": "US", "name": "The Rim", "phone": "(210) 434-2337"}, "geometry": {"type": "Point", "coordinates": [-98.5986326, 29.6094694]}},
{"type": "Feature", "id": "lkYxvjXax3s6Ronl0RcnzGv2kSk=", "properties": {"ref": "86959", "@spider": "hopdoddy_burger_bar", "addr:full": "200 Springtown Way SUITE 101", "addr:city": "San Marcos", "addr:state": "TX", "addr:postcode": "78666", "addr:country": "US", "name": "San Marcos", "phone": "(512) 738-8060"}, "geometry": {"type": "Point", "coordinates": [-97.922797, 29.886315]}},
{"type": "Feature", "id": "5B4YgRDmefq9fqmsu4JFsoi5_Cg=", "properties": {"ref": "76043", "@spider": "hopdoddy_burger_bar", "addr:full": "4625 WEST William Cannon DRIVE, SUITE 3", "addr:city": "Austin", "addr:state": "TX", "addr:postcode": "78749", "addr:country": "US", "name": "Lil Doddy Austin West Oak", "phone": "(512) 535-0300"}, "geometry": {"type": "Point", "coordinates": [-97.8443329, 30.2221345]}},
{"type": "Feature", "id": "gV-fF6FOraeDcj7P2QCh9fSeuYI=", "properties": {"ref": "95041", "@spider": "hopdoddy_burger_bar", "addr:full": "1320 EAST WHITESTONE BOULEVARD, SUITE 690", "addr:city": "Cedar Park", "addr:state": "TX", "addr:postcode": "78613", "addr:country": "US", "name": "Cedar Park", "phone": "(512) 778-2130"}, "geometry": {"type": "Point", "coordinates": [-97.8140487, 30.5251579]}},
{"type": "Feature", "id": "meJ-MemsHRWuz4UsjrhvlQxkmHw=", "properties": {"ref": "26641", "@spider": "hopdoddy_burger_bar", "addr:full": "2600 Hoppe Trail", "addr:city": "Round Rock", "addr:state": "TX", "addr:postcode": "78681", "addr:country": "US", "name": "Round Rock", "phone": "(512) 310-2337"}, "geometry": {"type": "Point", "coordinates": [-97.6930626, 30.5384857]}},
{"type": "Feature", "id": "vAYF133e5YcPyjz28yUEg0gpjX0=", "properties": {"ref": "26630", "@spider": "hopdoddy_burger_bar", "addr:full": "2438 WEST ANDERSON LANE, SUITE 100", "addr:city": "Austin", "addr:state": "TX", "addr:postcode": "78757", "addr:country": "US", "name": "Anderson", "phone": "(512) 467-2337"}, "geometry": {"type": "Point", "coordinates": [-97.7319542, 30.3574475]}},
{"type": "Feature", "id": "mHQcu_cLuDZvPVBV0I3RzwXUjVY=", "properties": {"ref": "26637", "@spider": "hopdoddy_burger_bar", "addr:full": "4615 NORTH Lamar BOULEVARD, SUITE 307", "addr:city": "Austin", "addr:state": "TX", "addr:postcode": "78751", "addr:country": "US", "name": "Triangle", "phone": "(512) 335-2337"}, "geometry": {"type": "Point", "coordinates": [-97.7344276, 30.3150543]}},
{"type": "Feature", "id": "HiNd4ZY-ejV6AgMKZccuhYjUq5k=", "properties": {"ref": "127986", "@spider": "hopdoddy_burger_bar", "addr:full": "1011 East 5th Street", "addr:city": "Austin", "addr:state": "TX", "addr:postcode": "78702", "addr:country": "US", "name": "Plaza Saltillo", "phone": "(512) 828-7855"}, "geometry": {"type": "Point", "coordinates": [-97.7322284, 30.2637645]}},
{"type": "Feature", "id": "AxNiWxwQKXFIEjucpi9VcaLNR-M=", "properties": {"ref": "26629", "@spider": "hopdoddy_burger_bar", "addr:full": "1400 SOUTH Congress Ave, SUITE A190", "addr:city": "Austin", "addr:state": "TX", "addr:postcode": "78704", "addr:country": "US", "name": "South Congress", "phone": "(512) 243-7505"}, "geometry": {"type": "Point", "coordinates": [-97.7501222, 30.2497657]}},
{"type": "Feature", "id": "8Dt766zC-4cvuPW9YMlMtyof5I8=", "properties": {"ref": "43807", "@spider": "hopdoddy_burger_bar", "addr:full": "2300 West 7th Street SUITE 140", "addr:city": "Fort Worth", "addr:state": "TX", "addr:postcode": "76107", "addr:country": "US", "name": "Fort Worth Left Bank", "phone": "(817) 270-2337"}, "geometry": {"type": "Point", "coordinates": [-97.3504998, 32.7513287]}},
{"type": "Feature", "id": "1QgaFFMgTItFEyaP3VY2k0G2aj8=", "properties": {"ref": "26636", "@spider": "hopdoddy_burger_bar", "addr:full": "3227 MCKINNEY AVENUE, SUITE 102", "addr:city": "Dallas", "addr:state": "TX", "addr:postcode": "75204", "addr:country": "US", "name": "McKinney Avenue", "phone": "(214) 871-2337"}, "geometry": {"type": "Point", "coordinates": [-96.7997929, 32.8041134]}},
{"type": "Feature", "id": "AH6tOAcfO_TG6M5vihDxp7dGWFc=", "properties": {"ref": "26631", "@spider": "hopdoddy_burger_bar", "addr:full": "6030 LUTHER LANE, SUITE 100", "addr:city": "Dallas", "addr:state": "TX", "addr:postcode": "75225", "addr:country": "US", "name": "Preston", "phone": "(214) 363-2337"}, "geometry": {"type": "Point", "coordinates": [-96.8070369, 32.8631978]}},
{"type": "Feature", "id": "1Oc3-LiAmg6GaGFG_bCHSmRgUl0=", "properties": {"ref": "26633", "@spider": "hopdoddy_burger_bar", "addr:full": "5100 BELT LINE ROAD, SUITE 502", "addr:city": "Addison", "addr:state": "TX", "addr:postcode": "75254", "addr:country": "US", "name": "Addison", "phone": "(972) 387-2337"}, "geometry": {"type": "Point", "coordinates": [-96.820879, 32.95082]}},
{"type": "Feature", "id": "jkWGcUnibyEWAVJlzyIlv7lB6EI=", "properties": {"ref": "60126", "@spider": "hopdoddy_burger_bar", "addr:full": "1200 Chisholm Trail Building E1, SUITE 101", "addr:city": "Euless", "addr:state": "TX", "addr:postcode": "76039", "addr:country": "US", "name": "Euless Glade Park", "phone": "(817) 354-2000"}, "geometry": {"type": "Point", "coordinates": [-97.1015794, 32.8751023]}},
{"type": "Feature", "id": "4O6ts8PGakuGrCZsZETPbdntSL8=", "properties": {"ref": "182154", "@spider": "hopdoddy_burger_bar", "addr:full": "8255 Preston Road", "addr:city": "Plano", "addr:state": "TX", "addr:postcode": "75024", "addr:country": "US", "name": "Plano", "phone": "(972) 535-5157"}, "geometry": {"type": "Point", "coordinates": [-96.8066112, 33.0908606]}},
{"type": "Feature", "id": "uYTexuu4n_boP5sAdZQ1usqTmjs=", "properties": {"ref": "42685", "@spider": "hopdoddy_burger_bar", "addr:full": "144 Century Court, SUITE 103", "addr:city": "College Station", "addr:state": "TX", "addr:postcode": "77840", "addr:country": "US", "name": "College Station", "phone": "(979) 272-2337"}, "geometry": {"type": "Point", "coordinates": [-96.339068, 30.625304]}},
{"type": "Feature", "id": "PRzndH1QyKTzv5PSIsaEyuC0qMM=", "properties": {"ref": "36352", "@spider": "hopdoddy_burger_bar", "addr:full": "142 Vintage Park BOULEVARD Suite A", "addr:city": "Houston", "addr:state": "TX", "addr:postcode": "77070", "addr:country": "US", "name": "Vintage Park", "phone": "(281) 554-2337"}, "geometry": {"type": "Point", "coordinates": [-95.5739118, 29.9957872]}},
{"type": "Feature", "id": "vFZG5O75bYYcdU2wcBvNO7FNNug=", "properties": {"ref": "182149", "@spider": "hopdoddy_burger_bar", "addr:full": "2417 Research Forest Drive", "addr:city": "Woodlands", "addr:state": "TX", "addr:postcode": "77381", "addr:country": "US", "name": "Woodlands", "phone": "(281) 907-9001"}, "geometry": {"type": "Point", "coordinates": [-95.474131, 30.1756796]}},
{"type": "Feature", "id": "RpOt-QepjdSTgkUpRrcMWc5YL-8=", "properties": {"ref": "69458", "@spider": "hopdoddy_burger_bar", "addr:full": "798 Sorella Court Suite 199", "addr:city": "Houston", "addr:state": "TX", "addr:postcode": "77024", "addr:country": "US", "name": "Houston CityCentre", "phone": "(713) 461-6600"}, "geometry": {"type": "Point", "coordinates": [-95.5614408, 29.7796241]}},
{"type": "Feature", "id": "qXvV6kMsgO4Q772JXN-gX63z01g=", "properties": {"ref": "72961", "@spider": "hopdoddy_burger_bar", "addr:full": "449 West 19th Street, Suite D-100", "addr:city": "Houston", "addr:state": "TX", "addr:postcode": "77008", "addr:country": "US", "name": "Houston Heights", "phone": "(346) 250-2100"}, "geometry": {"type": "Point", "coordinates": [-95.4055768, 29.803006]}},
{"type": "Feature", "id": "X7ZOy2vSdXNqP2twYhW9Yj7ihIA=", "properties": {"ref": "71295", "@spider": "hopdoddy_burger_bar", "addr:full": "820 West Bay Area Boulevard Suite 700", "addr:city": "Houston", "addr:state": "TX", "addr:postcode": "77598", "addr:country": "US", "name": "Baybrook", "phone": "(832) 932-1400"}, "geometry": {"type": "Point", "coordinates": [-95.1366187, 29.5438451]}},
{"type": "Feature", "id": "XnRKS0NO095AydLBXtr9JXquAdo=", "properties": {"ref": "35423", "@spider": "hopdoddy_burger_bar", "addr:full": "5510 Morningside DRIVE SUITE 100", "addr:city": "Houston", "addr:state": "TX", "addr:postcode": "77005", "addr:country": "US", "name": "Rice Village", "phone": "(281) 557-2337"}, "geometry": {"type": "Point", "coordinates": [-95.4153054, 29.7160605]}},
{"type": "Feature", "id": "GF6zmitmVV9EjuNzS9MUu5r7d9g=", "properties": {"ref": "26642", "@spider": "hopdoddy_burger_bar", "addr:full": "4444 Westheimer ROAD SUITE H100", "addr:city": "Houston", "addr:state": "TX", "addr:postcode": "77027", "addr:country": "US", "name": "River Oaks", "phone": "(713) 227-2337"}, "geometry": {"type": "Point", "coordinates": [-95.453213, 29.741911]}},
{"type": "Feature", "id": "M_WCuHO8cL2jQsQZGigZPNlp1Ig=", "properties": {"ref": "64816", "@spider": "hopdoddy_burger_bar", "addr:full": "4584 Poplar Avenue ", "addr:city": "Memphis", "addr:state": "TN", "addr:postcode": "38117", "addr:country": "US", "name": "Memphis Poplar Commons", "phone": "(901) 683-0700"}, "geometry": {"type": "Point", "coordinates": [-89.9091875, 35.1176468]}},
{"type": "Feature", "id": "dWHJHFJvyfvE6mGEFzbMhBmaeeU=", "properties": {"ref": "46740", "@spider": "hopdoddy_burger_bar", "addr:full": "1805 21st Avenue South", "addr:city": "Nashville", "addr:state": "TN", "addr:postcode": "37212", "addr:country": "US", "name": "Nashville Belcourt", "phone": "(615) 823-2337"}, "geometry": {"type": "Point", "coordinates": [-86.8013587, 36.1362941]}},
{"type": "Feature", "id": "VWOJPbb7GwMSIDTUCaGAeP_Hn4c=", "properties": {"ref": "182158", "@spider": "hopdoddy_burger_bar", "addr:full": "2470 Briarcliff Road", "addr:city": "Atlanta", "addr:state": "GA", "addr:postcode": "30329", "addr:country": "US", "name": "Druid Hills", "phone": "(678) 254-0930"}, "geometry": {"type": "Point", "coordinates": [-84.332553, 33.8268835]}},
{"type": "Feature", "id": "DqDXLalWtJnrIyQpzPI0KNnOVIw=", "properties": {"ref": "23245", "@spider": "hopdoddy_burger_bar", "addr:full": "26 Broadway", "addr:city": "New York", "addr:state": "NY", "addr:postcode": "10007", "addr:country": "US", "name": "1Hopdoddy Lab", "phone": "(515) 555-5555"}, "geometry": {"type": "Point", "coordinates": [-74.0128882, 40.7054423]}}]}