{"type":"FeatureCollection","features":[{"type": "Feature", "id": "3Cg1iR8KacOdi90RjE8zBzR_Ke4=", "properties": {"ref": "3289912819", "fax": null, "@spider": "howardhanna", "addr:full": "2 Town Square Blvd Asheville, NC 28803", "name": "Beverly-Hanks Mortgage Services Office, NC", "phone": "(828) 209-0910", "website": "https://www.howardhanna.com/Office/Detail/Beverly-Hanks-Mortgage-Services/3289912819", "brand": "Howard Hanna"}, "geometry": {"type": "Point", "coordinates": [-82.55502, 35.4861]}},
{"type": "Feature", "id": "d8MobxziscrlzgRKZ6cNal6R0Zw=", "properties": {"ref": "307609360507093", "fax": null, "@spider": "howardhanna", "addr:full": "Howard Hanna Rand Realty 162 Greenwood Avenue Bethel, CT 06801", "name": "Bethel Office, CT", "website": "https://www.howardhanna.com/Office/Detail/Bethel/307609360507093", "brand": "Howard Hanna"}, "geometry": {"type": "Point", "coordinates": [-73.41335, 41.37093]}},
{"type": "Feature", "id": "lkSayKMv0xM6ZHdmPy8imS5CyFU=", "properties": {"ref": "013105", "fax": null, "@spider": "howardhanna", "addr:full": "320 S. Main Street Bellefontaine, OH 43311", "name": "Bellefontaine Office, OH", "phone": "(937) 592-9498", "website": "https://www.howardhanna.com/Office/Detail/Bellefontaine/013105", "brand": "Howard Hanna"}, "geometry": {"type": "Point", "coordinates": [-83.76044, 40.35739]}},
{"type": "Feature", "id": "dNiSArq8qu2sfZhL118mJ4peNJM=", "properties": {"ref": "004624", "fax": null, "@spider": "howardhanna", "addr:full": "Howard Hanna Bardell Realty 115 S. Anderson Street Bedford, PA 15522", "name": "Bedford Office, PA", "phone": "(814) 623-8622", "website": "https://www.howardhanna.com/Office/Detail/Bedford/004624", "brand": "Howard Hanna"}, "geometry": {"type": "Point", "coordinates": [-78.49383, 40.01853]}},
{"type": "Feature", "id": "V0OFOdkLF5k1Di7OEv4Rn_vvDg4=", "properties": {"ref": "013189", "fax": null, "@spider": "howardhanna", "addr:full": "3045 Rodenbeck Drive, Suite 3A Beavercreek, OH 45432", "name": "Beavercreek Community Office Office, OH", "phone": "(937) 572-3124", "website": "https://www.howardhanna.com/Office/Detail/Beavercreek-Community-Office/013189", "brand": "Howard Hanna"}, "geometry": {"type": "Point", "coordinates": [-84.05212, 39.727]}},
{"type": "Feature", "id": "5IjamCuZLmPaDjLUCTRirFPJn2Q=", "properties": {"ref": "001405", "fax": "(724) 728-5556", "@spider": "howardhanna", "addr:full": "1335 3rd Street Beaver, PA 15009", "name": "Beaver Office, PA", "phone": "(724) 775-5700", "website": "https://www.howardhanna.com/Office/Detail/Beaver/001405", "brand": "Howard Hanna"}, "geometry": {"type": "Point", "coordinates": [-80.31519, 40.69064]}},
{"type": "Feature", "id": "KU8IsSLQRSIkJ2X8MLJIbrgEupw=", "properties": {"ref": "00224", "fax": "(440) 835-8276", "@spider": "howardhanna", "addr:full": "27115 Knickerbocker Bay Village, OH 44140", "name": "Bay Village Office, OH", "phone": "(440) 835-2800", "website": "https://www.howardhanna.com/Office/Detail/Bay-Village/00224", "brand": "Howard Hanna"}, "geometry": {"type": "Point", "coordinates": [-81.92025, 41.47794]}},
{"type": "Feature", "id": "2cYjWJM3_TceeWhjClGaOcxPpq0=", "properties": {"ref": "111751", "fax": "(585) 343-8502", "@spider": "howardhanna", "addr:full": "570 E. Main St Batavia, NY 14020", "name": "Batavia Office, NY", "phone": "(585) 343-6750", "website": "https://www.howardhanna.com/Office/Detail/Batavia/111751", "brand": "Howard Hanna"}, "geometry": {"type": "Point", "coordinates": [-78.16548, 42.99477]}},
{"type": "Feature", "id": "I8tFrySYEGCGa50gbGdQStL9Klc=", "properties": {"ref": "10221", "fax": null, "@spider": "howardhanna", "addr:full": "108 Milton Avenue Ballston Spa, NY 12020", "name": "Ballston Spa Office, NY", "phone": "(518) 885-2818", "website": "https://www.howardhanna.com/Office/Detail/Ballston-Spa/10221", "brand": "Howard Hanna"}, "geometry": {"type": "Point", "coordinates": [-73.84863, 43.00381]}},
{"type": "Feature", "id": "cPJ7pm_ZWY-5EtaY8YoPu_dwBE0=", "properties": {"ref": "00248", "fax": "(440) 934-0218", "@spider": "howardhanna", "addr:full": "2100 Center Rd. Avon, OH 44011", "name": "Avon Office, OH", "phone": "(440) 934-0966", "website": "https://www.howardhanna.com/Office/Detail/Avon/00248", "brand": "Howard Hanna"}, "geometry": {"type": "Point", "coordinates": [-82.0212, 41.45808]}},
{"type": "Feature", "id": "9r1upQv_Yh-aQCDiPb3GW2TScyw=", "properties": {"ref": "0029", "fax": "(330) 562-6352", "@spider": "howardhanna", "addr:full": "195 Barrington Town Square Dr. Aurora, OH 44202", "name": "Aurora Office, OH", "phone": "(330) 562-6188", "website": "https://www.howardhanna.com/Office/Detail/Aurora/0029", "brand": "Howard Hanna"}, "geometry": {"type": "Point", "coordinates": [-81.34792, 41.31785]}},
{"type": "Feature", "id": "8H8qGT6KKIvGuNFTzsecj1uVh2E=", "properties": {"ref": "013104", "fax": null, "@spider": "howardhanna", "addr:full": "112 Main St Augusta, KY 41002", "name": "Augusta Office, KY", "phone": "(606) 756-2500", "website": "https://www.howardhanna.com/Office/Detail/Augusta/013104", "brand": "Howard Hanna"}, "geometry": {"type": "Point", "coordinates": [-84.00813, 38.77434]}},
{"type": "Feature", "id": "pYjYym42mgKKhzlJpHCved11Rd8=", "properties": {"ref": "10710", "fax": "(315) 252-3786", "@spider": "howardhanna", "addr:full": "161 Genesee St., Suite 200 Auburn, NY 13021", "name": "Auburn Office, NY", "phone": "(315) 252-4848", "website": "https://www.howardhanna.com/Office/Detail/Auburn/10710", "brand": "Howard Hanna"}, "geometry": {"type": "Point", "coordinates": [-76.57027, 42.93015]}},
{"type": "Feature", "id": "oiSTgwNhH5cXezka2tZyQXkHObE=", "properties": {"ref": "013103", "fax": null, "@spider": "howardhanna", "addr:full": "102 E High St, PO Box 213 Ashley, OH 43003", "name": "Ashley Office, OH", "phone": "(740) 815-5062", "website": "https://www.howardhanna.com/Office/Detail/Ashley/013103", "brand": "Howard Hanna"}, "geometry": {"type": "Point", "coordinates": [-82.95442, 40.40927]}},
{"type": "Feature", "id": "vbvcvN5JVkxyiXhEYopu86hqXcY=", "properties": {"ref": "013102", "fax": null, "@spider": "howardhanna", "addr:full": "121 W Main St Ashland, OH 44805", "name": "Ashland Downtown Office, OH", "phone": "(419) 903-0333", "website": "https://www.howardhanna.com/Office/Detail/Ashland-Downtown/013102", "brand": "Howard Hanna"}, "geometry": {"type": "Point", "coordinates": [-82.31666, 40.86853]}},
{"type": "Feature", "id": "PMOvbCkGP7zXzMI0rcCTg5t1xGw=", "properties": {"ref": "3289912806", "fax": null, "@spider": "howardhanna", "addr:full": "4005 Hendersonville Road Fletcher, NC 28732", "name": "Asheville/Fletcher Office, NC", "phone": "(828) 484-3130", "website": "https://www.howardhanna.com/Office/Detail/Asheville-Fletcher/3289912806", "brand": "Howard Hanna"}, "geometry": {"type": "Point", "coordinates": [-82.50272, 35.42722]}},
{"type": "Feature", "id": "gt5xNX5W6WqLH1GWiv8xnmEU7MM=", "properties": {"ref": "007721", "fax": "(434) 589-2679", "@spider": "howardhanna", "addr:full": "Howard Hanna Roy Wheeler Realty 5574 Richmond Road Troy, VA 22974", "name": "Zion Crossroads Office, VA", "phone": "(434) 589-2611", "website": "https://www.howardhanna.com/Office/Detail/Zion-Crossroads/007721", "brand": "Howard Hanna"}, "geometry": {"type": "Point", "coordinates": [-78.22556, 37.97263]}},
{"type": "Feature", "id": "uny33ozhSPrI-Dy2YFruVM1VlQU=", "properties": {"ref": "013185", "fax": null, "@spider": "howardhanna", "addr:full": "3612 Maple Ave Zanesville, OH 43701", "name": "Zanesville The Carla Williams Group Office, OH", "phone": "(740) 819-6324", "website": "https://www.howardhanna.com/Office/Detail/Zanesville-The-Carla-Williams-Group/013185", "brand": "Howard Hanna"}, "geometry": {"type": "Point", "coordinates": [-82.02278, 39.98944]}},
{"type": "Feature", "id": "w-Z2wxqfM7ossFIztTeBGHc_Sc8=", "properties": {"ref": "307609312997848", "fax": null, "@spider": "howardhanna", "addr:full": "Howard Hanna Rand Realty 342 Downing Drive Yorktown Heights, NY 10598", "name": "Yorktown/Briarcliff Office, NY", "phone": "(914) 245-4422", "website": "https://www.howardhanna.com/Office/Detail/Yorktown-Briarcliff/307609312997848", "brand": "Howard Hanna"}, "geometry": {"type": "Point", "coordinates": [-73.78219, 41.27434]}},
{"type": "Feature", "id": "4QxqK2OGDel6xpnC4oIN0lO9IyU=", "properties": {"ref": "001157", "fax": "(717) 854-8428", "@spider": "howardhanna", "addr:full": "908 S. George Street York, PA 17403", "name": "York Office, PA", "phone": "(717) 846-6500", "website": "https://www.howardhanna.com/Office/Detail/York/001157", "brand": "Howard Hanna"}, "geometry": {"type": "Point", "coordinates": [-76.72234, 39.9487]}},
{"type": "Feature", "id": "rYmpZTRAfCFxdDxF-uFUxWeWjtc=", "properties": {"ref": "307609312998835", "fax": null, "@spider": "howardhanna", "addr:full": "Howard Hanna Rand Realty 2235 Central Park Avenue Yonkers, NY 10710", "name": "Yonkers Office, NY", "phone": "(914) 964-2002", "website": "https://www.howardhanna.com/Office/Detail/Yonkers/307609312998835", "brand": "Howard Hanna"}, "geometry": {"type": "Point", "coordinates": [-73.83363, 40.97555]}},
{"type": "Feature", "id": "2KkpARKW2zvF7fGMhUuUwJhFlBE=", "properties": {"ref": "013184", "fax": null, "@spider": "howardhanna", "addr:full": "670 N. Detroit St. North Xenia, OH 45385", "name": "Xenia - Liming Caudill Group Office, OH", "website": "https://www.howardhanna.com/Office/Detail/Xenia-Liming-Caudill-Group/013184", "brand": "Howard Hanna"}, "geometry": {"type": "Point", "coordinates": [-83.93163, 39.69402]}},
{"type": "Feature", "id": "xUiinkqs9XszVScOnaRXj7egsOg=", "properties": {"ref": "013183", "fax": null, "@spider": "howardhanna", "addr:full": "65 S. Progress Dr. Xenia, OH 45385", "name": "Xenia Office, OH", "phone": "(937) 376-3390", "website": "https://www.howardhanna.com/Office/Detail/Xenia/013183", "brand": "Howard Hanna"}, "geometry": {"type": "Point", "coordinates": [-83.9632, 39.68829]}},
{"type": "Feature", "id": "kTP5Q8ewl23XK2he8uzyJ0C2bes=", "properties": {"ref": "004682", "fax": "(570) 485-5900", "@spider": "howardhanna", "addr:full": "Howard Hanna At Home Realty 1980 Golden Mile Road Wysox, PA 18854", "name": "Wysox Office, PA", "phone": "(570) 265-6100", "website": "https://www.howardhanna.com/Office/Detail/Wysox/004682", "brand": "Howard Hanna"}, "geometry": {"type": "Point", "coordinates": [-76.40002, 41.7738]}},
{"type": "Feature", "id": "55W6eLkQyK2Cm7hLLs0HcTZlMek=", "properties": {"ref": "307609312999822", "fax": null, "@spider": "howardhanna", "addr:full": "Howard Hanna Rand Realty 646 Wyckoff Avenue Wyckoff, NJ 07481", "name": "Wyckoff Office, NJ", "phone": "(201) 812-2191", "website": "https://www.howardhanna.com/Office/Detail/Wyckoff/307609312999822", "brand": "Howard Hanna"}, "geometry": {"type": "Point", "coordinates": [-74.17242, 41.01116]}},
{"type": "Feature", "id": "D0hdDUgxW1hkhJF5IlACRjxPTJQ=", "properties": {"ref": "013182", "fax": null, "@spider": "howardhanna", "addr:full": "1024 W Third St Dayton, OH 45402", "name": "Wright Dunbar Office, OH", "phone": "(937) 771-7600", "website": "https://www.howardhanna.com/Office/Detail/Wright-Dunbar/013182", "brand": "Howard Hanna"}, "geometry": {"type": "Point", "coordinates": [-84.21104, 39.7562]}},
{"type": "Feature", "id": "mDj3z06LdQMqNB2k01HclqbmiOg=", "properties": {"ref": "013181", "fax": null, "@spider": "howardhanna", "addr:full": "681 High Street Worthington, OH 43085", "name": "Worthington Office, OH", "phone": "(614) 888-7400", "website": "https://www.howardhanna.com/Office/Detail/Worthington/013181", "brand": "Howard Hanna"}, "geometry": {"type": "Point", "coordinates": [-83.01844, 40.08783]}},
{"type": "Feature", "id": "OawQ-oz1ZqttJkHZMALolW5Ml1Q=", "properties": {"ref": "00239", "fax": "(330) 345-2256", "@spider": "howardhanna", "addr:full": "177 Milltown Road, Suite A Wooster, OH 44691", "name": "Wooster/Ashland Office, OH", "phone": "(330) 345-2244", "website": "https://www.howardhanna.com/Office/Detail/Wooster-Ashland/00239", "brand": "Howard Hanna"}, "geometry": {"type": "Point", "coordinates": [-81.94082, 40.84327]}},
{"type": "Feature", "id": "Gt6xMaZC3LwqmpAKtnv7FYUEUTo=", "properties": {"ref": "013180", "fax": null, "@spider": "howardhanna", "addr:full": "4146 Burbank Road, Suite A Wooster, OH 44691", "name": "Wooster - Humboldt Office, OH", "phone": "(330) 264-6888", "website": "https://www.howardhanna.com/Office/Detail/Wooster-Humboldt/013180", "brand": "Howard Hanna"}, "geometry": {"type": "Point", "coordinates": [-81.94879, 40.84912]}},
{"type": "Feature", "id": "vTJy4QJgHummuyEsTCuREJ6pPuE=", "properties": {"ref": "013179", "fax": null, "@spider": "howardhanna", "addr:full": "209 Eastern Ave, Suite A Woodsfield, OH 43793", "name": "Woodsfield Office, OH", "phone": "(740) 213-0244", "website": "https://www.howardhanna.com/Office/Detail/Woodsfield/013179", "brand": "Howard Hanna"}, "geometry": {"type": "Point", "coordinates": [-81.11352, 39.762]}},
{"type": "Feature", "id": "IpX1ruIGskjUSFS6nE6Jz9B7Jm4=", "properties": {"ref": "3289912312", "fax": "(336) 245-4199", "@spider": "howardhanna", "addr:full": "Allen Tate Realtors 370 Knollwood Street, Suite 300 Winston-Salem, NC 27103", "name": "Winston-Salem Office, NC", "phone": "(336) 778-3990", "website": "https://www.howardhanna.com/Office/Detail/Winston-Salem/3289912312", "brand": "Howard Hanna"}, "geometry": {"type": "Point", "coordinates": [-80.32726, 36.06779]}},
{"type": "Feature", "id": "FdXXatHt-THJVDgnWMj2iRGbAIQ=", "properties": {"ref": "00223", "fax": "(440) 944-5371", "@spider": "howardhanna", "addr:full": "34601 Ridge Road Willoughby, OH 44094", "name": "Willoughby Office, OH", "phone": "(440) 944-9600", "website": "https://www.howardhanna.com/Office/Detail/Willoughby/00223", "brand": "Howard Hanna"}, "geometry": {"type": "Point", "coordinates": [-81.44133, 41.6064]}},
{"type": "Feature", "id": "EQIPghHD0zjS8LERrN97TwxSEto=", "properties": {"ref": "1011", "fax": "(716) 689-2450", "@spider": "howardhanna", "addr:full": "914 Maple Rd Williamsville, NY 14221", "name": "Williamsville Office, NY", "phone": "(716) 689-8100", "website": "https://www.howardhanna.com/Office/Detail/Williamsville/1011", "brand": "Howard Hanna"}, "geometry": {"type": "Point", "coordinates": [-78.75382, 42.99087]}},
{"type": "Feature", "id": "j6k7qf7js5u3hh_F32OjhvYVZ8Q=", "properties": {"ref": "004002", "fax": null, "@spider": "howardhanna", "addr:full": "Howard Hanna Real Estate Executives 115 W. Grand River Williamston, MI 48879", "name": "Williamston Office, MI", "website": "https://www.howardhanna.com/Office/Detail/Williamston/004002", "brand": "Howard Hanna"}, "geometry": {"type": "Point", "coordinates": [-84.17455, 42.66669]}},
{"type": "Feature", "id": "8P1hWfreHy3wRpbW87r8CS867K4=", "properties": {"ref": "007716", "fax": null, "@spider": "howardhanna", "addr:full": "5208 Monticello Ave Williamsburg, VA 23188", "name": "Williamsburg Office, VA", "phone": "(757) 229-0550", "website": "https://www.howardhanna.com/Office/Detail/Williamsburg/007716", "brand": "Howard Hanna"}, "geometry": {"type": "Point", "coordinates": [-76.74047, 37.27645]}},
{"type": "Feature", "id": "-79FklnEMVKTvJShbfJZrldMpwk=", "properties": {"ref": "3289912702", "fax": null, "@spider": "howardhanna", "addr:full": "5121 Cashiers Road Highlands, NC 28741", "name": "Wildcat Cliffs/Cashiers Office, NC", "phone": "(828) 526-4525", "website": "https://www.howardhanna.com/Office/Detail/Wildcat-Cliffs-Cashiers/3289912702", "brand": "Howard Hanna"}, "geometry": {"type": "Point", "coordinates": [-83.15788, 35.09123]}},
{"type": "Feature", "id": "o78rLXw_Y4vFlB_4TXOqw6SIq4w=", "properties": {"ref": "307609313000809", "fax": null, "@spider": "howardhanna", "addr:full": "Howard Hanna Rand Realty 222 Bloomingdale Road White Plains, NY 10605", "name": "White Plains Office, NY", "phone": "(914) 328-0333", "website": "https://www.howardhanna.com/Office/Detail/White-Plains/307609313000809", "brand": "Howard Hanna"}, "geometry": {"type": "Point", "coordinates": [-73.75835, 41.02295]}},
{"type": "Feature", "id": "rfEr3gdx47OySTi1JZQPpI6P0l0=", "properties": {"ref": "001213", "fax": "(724) 934-3402", "@spider": "howardhanna", "addr:full": "2100 Corporate Drive, Suite 200 Wexford, PA 15090", "name": "Wexford Office, PA", "phone": "(724) 934-3400", "website": "https://www.howardhanna.com/Office/Detail/Wexford/001213", "brand": "Howard Hanna"}, "geometry": {"type": "Point", "coordinates": [-80.08926, 40.61032]}},
{"type": "Feature", "id": "sASFvsLCQzDam4bqQSCT21Cy3Go=", "properties": {"ref": "307609339239217", "fax": null, "@spider": "howardhanna", "addr:full": "Howard Hanna Rand Realty 50 Riverside Avenue Westport, CT 06880", "name": "Westport Office, CT", "phone": "(203) 226-5100", "website": "https://www.howardhanna.com/Office/Detail/Westport/307609339239217", "brand": "Howard Hanna"}, "geometry": {"type": "Point", "coordinates": [-73.36394, 41.13869]}},
{"type": "Feature", "id": "aKpNQe__YCNiTB0qQR7voBsGvOE=", "properties": {"ref": "00259", "fax": "(440) 793-0112", "@spider": "howardhanna", "addr:full": "2055 Crocker Rd., Suite 101 Westlake, OH 44145", "name": "Westlake - Crocker Road Office, OH", "phone": "(440) 793-0100", "website": "https://www.howardhanna.com/Office/Detail/Westlake-Crocker-Road/00259", "brand": "Howard Hanna"}, "geometry": {"type": "Point", "coordinates": [-81.94911, 41.45958]}},
{"type": "Feature", "id": "TkUNs7iQkguf8PEaBXwjUeE7Fgk=", "properties": {"ref": "013178", "fax": null, "@spider": "howardhanna", "addr:full": "42 N. State Street Westerville, OH 43081", "name": "Westerville - The McCurdy Team Office, OH", "phone": "(614) 818-7677", "website": "https://www.howardhanna.com/Office/Detail/Westerville-The-McCurdy-Team/013178", "brand": "Howard Hanna"}, "geometry": {"type": "Point", "coordinates": [-82.93172, 40.12705]}},
{"type": "Feature", "id": "t3tEzO4KpYHQpNE99pJ-UmHgyGQ=", "properties": {"ref": "013177", "fax": null, "@spider": "howardhanna", "addr:full": "413 N. State Street Westerville, OH 43082", "name": "Westerville - Northeast Office, OH", "phone": "(614) 891-7400", "website": "https://www.howardhanna.com/Office/Detail/Westerville-Northeast/013177", "brand": "Howard Hanna"}, "geometry": {"type": "Point", "coordinates": [-82.93152, 40.13594]}},
{"type": "Feature", "id": "BrSsuImu6umoUGseRSSkm1i4g2M=", "properties": {"ref": "007001", "fax": null, "@spider": "howardhanna", "addr:full": "Howard Hanna Roy Wheeler Realty 1005 Heathercroft Cr Crozet, VA 22932", "name": "Western Albemarle Office, VA", "phone": "(434) 205-4355", "website": "https://www.howardhanna.com/Office/Detail/Western-Albemarle/007001", "brand": "Howard Hanna"}, "geometry": {"type": "Point", "coordinates": [-78.70956, 38.05823]}},
{"type": "Feature", "id": "Tlrf0YkZUAGFCLzjt5tVR-cB8w0=", "properties": {"ref": "001307", "fax": "(412) 262-2043", "@spider": "howardhanna", "addr:full": "1001 Beaver Grade Road Moon Township, PA 15108", "name": "West Suburban Office, PA", "phone": "(412) 262-5500", "website": "https://www.howardhanna.com/Office/Detail/West-Suburban/001307", "brand": "Howard Hanna"}, "geometry": {"type": "Point", "coordinates": [-80.2075, 40.50543]}},
{"type": "Feature", "id": "2JG8ioby7eWRQ-maXh9fqvSK8y0=", "properties": {"ref": "1019", "fax": "(716) 825-4911", "@spider": "howardhanna", "addr:full": "174 Slade Ave West Seneca, NY 14224", "name": "West Seneca Office, NY", "phone": "(716) 825-0600", "website": "https://www.howardhanna.com/Office/Detail/West-Seneca/1019", "brand": "Howard Hanna"}, "geometry": {"type": "Point", "coordinates": [-78.78962, 42.83356]}},
{"type": "Feature", "id": "frpZXWYgUnGpiELUVdxrCGR7hf4=", "properties": {"ref": "013176", "fax": null, "@spider": "howardhanna", "addr:full": "8764 Union Centre Blvd. West Chester, OH 45069", "name": "West Chester Office, OH", "phone": "(513) 587-5420", "website": "https://www.howardhanna.com/Office/Detail/West-Chester/013176", "brand": "Howard Hanna"}, "geometry": {"type": "Point", "coordinates": [-84.4352, 39.33569]}},
{"type": "Feature", "id": "2HgUS8O3gw3w4lSJoPjGDfatFuo=", "properties": {"ref": "328991298", "fax": "(704) 234-8129", "@spider": "howardhanna", "addr:full": "Allen Tate Realtors 6330 Weddington Road, Suite A-2 Wesley Chapel, NC 28104", "name": "Wesley Chapel Office, NC", "phone": "(704) 234-5322", "website": "https://www.howardhanna.com/Office/Detail/Wesley-Chapel/328991298", "brand": "Howard Hanna"}, "geometry": {"type": "Point", "coordinates": [-80.69619, 35.00035]}},
{"type": "Feature", "id": "d5tMfqh0GnlJCQOKsRpKiBoFPMM=", "properties": {"ref": "004684", "fax": null, "@spider": "howardhanna", "addr:full": "Howard Hanna Professionals 11564 Route 6 Wellsboro, PA 16901", "name": "Wellsboro Office, PA", "phone": "(570) 723-1600", "website": "https://www.howardhanna.com/Office/Detail/Wellsboro/004684", "brand": "Howard Hanna"}, "geometry": {"type": "Point", "coordinates": [-77.27654, 41.74487]}},
{"type": "Feature", "id": "XUkMqpym23i18dgDllLyorNOh6E=", "properties": {"ref": "004608", "fax": "(304) 748-8420", "@spider": "howardhanna", "addr:full": "Howard Hanna Mortimer Realty 3028 Pennsylvania Ave. Weirton, WV 26062", "name": "Weirton Office, WV", "phone": "(304) 748-8400", "website": "https://www.howardhanna.com/Office/Detail/Weirton/004608", "brand": "Howard Hanna"}, "geometry": {"type": "Point", "coordinates": [-80.54823, 40.41199]}},
{"type": "Feature", "id": "vo69_Uvkp6Vrj7IcZ1PuKoTygHA=", "properties": {"ref": "111750", "fax": "(585) 671-3378", "@spider": "howardhanna", "addr:full": "2055 Empire Blvd Webster, NY 14580", "name": "Webster Office, NY", "phone": "(585) 671-5180", "website": "https://www.howardhanna.com/Office/Detail/Webster/111750", "brand": "Howard Hanna"}, "geometry": {"type": "Point", "coordinates": [-77.50085, 43.19638]}},
{"type": "Feature", "id": "HlCGys0C0fEL9kFvmbxYc5GxpDY=", "properties": {"ref": "3289912813", "fax": null, "@spider": "howardhanna", "addr:full": "74 N. Main Street Waynesville, NC 28786", "name": "Waynesville Office, NC", "phone": "(828) 452-5809", "website": "https://www.howardhanna.com/Office/Detail/Waynesville/3289912813", "brand": "Howard Hanna"}, "geometry": {"type": "Point", "coordinates": [-82.9873, 35.49067]}},
{"type": "Feature", "id": "eGZMUZJljMCIFiS-ZGLrXAywLhI=", "properties": {"ref": "307609313002783", "fax": null, "@spider": "howardhanna", "addr:full": "Howard Hanna Rand Realty 970 Valley Road Wayne, NJ 07470", "name": "Wayne Office, NJ", "phone": "(973) 694-6500", "website": "https://www.howardhanna.com/Office/Detail/Wayne/307609313002783", "brand": "Howard Hanna"}, "geometry": {"type": "Point", "coordinates": [-74.22678, 40.94474]}},
{"type": "Feature", "id": "C2q-wazCpdKFv_8jd1EN-NJfvuc=", "properties": {"ref": "00293", "fax": "(419) 335-5237", "@spider": "howardhanna", "addr:full": "1384 N. Shoop Avenue Wauseon, OH 43567", "name": "Wauseon Office, OH", "phone": "(419) 335-5170", "website": "https://www.howardhanna.com/Office/Detail/Wauseon/00293", "brand": "Howard Hanna"}, "geometry": {"type": "Point", "coordinates": [-84.13399, 41.57024]}},
{"type": "Feature", "id": "pNXOVFUnyF_4cIgrTb129yzccVE=", "properties": {"ref": "10728", "fax": "(315) 788-5270", "@spider": "howardhanna", "addr:full": "642 Coffeen St Watertown, NY 13601", "name": "Watertown Office, NY", "phone": "(315) 788-4444", "website": "https://www.howardhanna.com/Office/Detail/Watertown/10728", "brand": "Howard Hanna"}, "geometry": {"type": "Point", "coordinates": [-75.92413, 43.98217]}},
{"type": "Feature", "id": "jsgVvyLchCw-GoxF22W3xbXxl5M=", "properties": {"ref": "001326", "fax": "(724) 222-4392", "@spider": "howardhanna", "addr:full": "100 Adios Dr., Suite 1200 Washington, PA 15301", "name": "Washington Office, PA", "phone": "(724) 228-9700", "website": "https://www.howardhanna.com/Office/Detail/Washington/001326", "brand": "Howard Hanna"}, "geometry": {"type": "Point", "coordinates": [-80.19962, 40.21597]}},
{"type": "Feature", "id": "2UDBCbQIWFzocUEFBhgv-wxB5OQ=", "properties": {"ref": "307609313003770", "fax": null, "@spider": "howardhanna", "addr:full": "Howard Hanna Rand Realty 25 Railroad Avenue Warwick, NY 10990", "name": "Warwick Office, NY", "phone": "(845) 986-9898", "website": "https://www.howardhanna.com/Office/Detail/Warwick/307609313003770", "brand": "Howard Hanna"}, "geometry": {"type": "Point", "coordinates": [-74.35925, 41.25626]}},
{"type": "Feature", "id": "nTv87NNVAlH5pUoteoxBQKZtRqI=", "properties": {"ref": "004685", "fax": null, "@spider": "howardhanna", "addr:full": "Howard Hanna Professionals 200 West Third Avenue Warren, PA 16365", "name": "Warren Office, PA", "phone": "(814) 726-2000", "website": "https://www.howardhanna.com/Office/Detail/Warren/004685", "brand": "Howard Hanna"}, "geometry": {"type": "Point", "coordinates": [-79.15736, 41.85794]}},
{"type": "Feature", "id": "SBtgYlntF-r36jxl3lh9nu4SPbk=", "properties": {"ref": "3289912812", "fax": null, "@spider": "howardhanna", "addr:full": "630 Long Shoals Road Arden, NC 28704", "name": "Walnut Cove Realty Office, NC", "phone": "(828) 684-5151", "website": "https://www.howardhanna.com/Office/Detail/Walnut-Cove-Realty/3289912812", "brand": "Howard Hanna"}, "geometry": {"type": "Point", "coordinates": [-82.57456, 35.47085]}},
{"type": "Feature", "id": "EVCkYyYOiIifD8UkmN8aHHEspAI=", "properties": {"ref": "328991275", "fax": "(919) 453-5701", "@spider": "howardhanna", "addr:full": "Allen Tate Realtors 3612 Rogers Branch Road Wake Forest, NC 27587", "name": "Wake Forest/Rolesville Office, NC", "phone": "(919) 453-5700", "website": "https://www.howardhanna.com/Office/Detail/Wake-Forest-Rolesville/328991275", "brand": "Howard Hanna"}, "geometry": {"type": "Point", "coordinates": [-78.50261, 35.94489]}},
{"type": "Feature", "id": "ebwsT4hDp6vx0wlIUV_zkX7_iDQ=", "properties": {"ref": "00231", "fax": "(330) 334-1890", "@spider": "howardhanna", "addr:full": "185 Great Oaks Trail Wadsworth, OH 44281", "name": "Wadsworth Office, OH", "phone": "(330) 335-2560", "website": "https://www.howardhanna.com/Office/Detail/Wadsworth/00231", "brand": "Howard Hanna"}, "geometry": {"type": "Point", "coordinates": [-81.73307, 41.04879]}},
{"type": "Feature", "id": "AUi_VcBna0vxBkFNDeDkD4oznV4=", "properties": {"ref": "111773", "fax": "(212) 590-6132", "@spider": "howardhanna", "addr:full": "49 West Main Street Victor, NY 14564", "name": "Victor Office, NY", "phone": "(585) 433-2734", "website": "https://www.howardhanna.com/Office/Detail/Victor/111773", "brand": "Howard Hanna"}, "geometry": {"type": "Point", "coordinates": [-77.41122, 42.98303]}},
{"type": "Feature", "id": "9ALCLl5iD7FnOYYvOMxl6Iv9qwc=", "properties": {"ref": "1042", "fax": "(607) 772-2435", "@spider": "howardhanna", "addr:full": "4747 Parkway E Vestal, NY 13850", "name": "Vestal/Binghamton Office, NY", "phone": "(607) 772-1177", "website": "https://www.howardhanna.com/Office/Detail/Vestal-Binghamton/1042", "brand": "Howard Hanna"}, "geometry": {"type": "Point", "coordinates": [-75.94855, 42.09273]}},
{"type": "Feature", "id": "n36mwmkcK1K0dT-YNIPddx_1KAA=", "properties": {"ref": "004612", "fax": "(814) 677-5993", "@spider": "howardhanna", "addr:full": "Howard Hanna Rosewood Real Estate 3304 SR 257 Seneca, PA 16346", "name": "Venango Office, PA", "phone": "(814) 677-5895", "website": "https://www.howardhanna.com/Office/Detail/Venango/004612", "brand": "Howard Hanna"}, "geometry": {"type": "Point", "coordinates": [-79.70309, 41.38224]}},
{"type": "Feature", "id": "_H1GPcZ3RejfGa9ptutu2voy6Fg=", "properties": {"ref": "10223", "fax": null, "@spider": "howardhanna", "addr:full": "3748 State Highway 30 Amsterdam, NY 12010", "name": "Vail Mills/Amsterdam Office, NY", "phone": "(518) 883-8904", "website": "https://www.howardhanna.com/Office/Detail/Vail-Mills-Amsterdam/10223", "brand": "Howard Hanna"}, "geometry": {"type": "Point", "coordinates": [-74.21477, 43.0443]}},
{"type": "Feature", "id": "7ZpFZCBm22tnVRwEPwy0Utv72iY=", "properties": {"ref": "10727", "fax": "(315) 735-9211", "@spider": "howardhanna", "addr:full": "141 Genesee St New Hartford, NY 13413", "name": "Utica/New Hartford Office, NY", "phone": "(315) 735-8515", "website": "https://www.howardhanna.com/Office/Detail/Utica-New-Hartford/10727", "brand": "Howard Hanna"}, "geometry": {"type": "Point", "coordinates": [-75.29938, 43.07409]}},
{"type": "Feature", "id": "7i8FaVrdBJZQX02qOn7Fqfd9lYw=", "properties": {"ref": "013175", "fax": null, "@spider": "howardhanna", "addr:full": "1501 S US 68 Urbana, OH 43078", "name": "Urbana Office, OH", "phone": "(937) 652-2000", "website": "https://www.howardhanna.com/Office/Detail/Urbana/013175", "brand": "Howard Hanna"}, "geometry": {"type": "Point", "coordinates": [-83.75637, 40.08995]}},
{"type": "Feature", "id": "4_bBiBNLFJVcosR_NiaTF6f0nqA=", "properties": {"ref": "001311", "fax": "(412) 833-2075", "@spider": "howardhanna", "addr:full": "180 Fort Couch Road Upper St. Clair, PA 15241", "name": "Upper St. Clair Office, PA", "phone": "(412) 833-3600", "website": "https://www.howardhanna.com/Office/Detail/Upper-St-Clair/001311", "brand": "Howard Hanna"}, "geometry": {"type": "Point", "coordinates": [-80.05343, 40.34628]}},
{"type": "Feature", "id": "g01lonXTiRJyXduTxWhfuTtcFM0=", "properties": {"ref": "004615", "fax": "(724) 564-9916", "@spider": "howardhanna", "addr:full": "Howard Hanna Myers Real Estate 20 S Morgantown St Uniontown, PA 15436", "name": "Uniontown Office, PA", "phone": "(724) 437-7740", "website": "https://www.howardhanna.com/Office/Detail/Uniontown/004615", "brand": "Howard Hanna"}, "geometry": {"type": "Point", "coordinates": [-79.75883, 39.81947]}},
{"type": "Feature", "id": "J3RXKq98dd2COWAqyOq4xe8nF7U=", "properties": {"ref": "013174", "fax": null, "@spider": "howardhanna", "addr:full": "11 E. Main Street Troy, OH 45373", "name": "Troy Office, OH", "phone": "(937) 440-8740", "website": "https://www.howardhanna.com/Office/Detail/Troy/013174", "brand": "Howard Hanna"}, "geometry": {"type": "Point", "coordinates": [-84.20232, 40.03954]}},
{"type": "Feature", "id": "eU85jk9vsSR6NRDzeaNMdfSoirQ=", "properties": {"ref": "007718", "fax": "(757) 460-3859", "@spider": "howardhanna", "addr:full": "291 Independence Blvd., Pembroke 4, Suite 120 Virginia Beach, VA 23462", "name": "Town Center Office, VA", "phone": "(757) 424-5360", "website": "https://www.howardhanna.com/Office/Detail/Town-Center/007718", "brand": "Howard Hanna"}, "geometry": {"type": "Point", "coordinates": [-76.13988, 36.84498]}},
{"type": "Feature", "id": "YCst7pGb2VzFPUmfS-dVGFa0MPU=", "properties": {"ref": "004632", "fax": "(740) 537-4460", "@spider": "howardhanna", "addr:full": "Howard Hanna Premier Real Estate 309 Market Street Toronto, OH 43964", "name": "Toronto Office, OH", "phone": "(740) 537-3144", "website": "https://www.howardhanna.com/Office/Detail/Toronto/004632", "brand": "Howard Hanna"}, "geometry": {"type": "Point", "coordinates": [-80.60014, 40.46526]}},
{"type": "Feature", "id": "chb8kCkq3rY1mDnen5Rdc32VCT8=", "properties": {"ref": "1014", "fax": "(716) 837-1174", "@spider": "howardhanna", "addr:full": "2427 Sheridan Dr Tonawanda, NY 14150", "name": "Tonawanda Office, NY", "phone": "(716) 837-7500", "website": "https://www.howardhanna.com/Office/Detail/Tonawanda/1014", "brand": "Howard Hanna"}, "geometry": {"type": "Point", "coordinates": [-78.84406, 42.98041]}},
{"type": "Feature", "id": "KWdB_VHoNUXI2_hYNq4BacDmQYE=", "properties": {"ref": "013173", "fax": null, "@spider": "howardhanna", "addr:full": "27062 Oakmead Dr Perrysburg, OH 43551", "name": "Toledo - Mike Gunnarson Office, OH", "phone": "(419) 873-6399", "website": "https://www.howardhanna.com/Office/Detail/Toledo-Mike-Gunnarson/013173", "brand": "Howard Hanna"}, "geometry": {"type": "Point", "coordinates": [-83.59521, 41.54499]}},
{"type": "Feature", "id": "aJe6ITyHyRKsSgf3t1SDEodaZWc=", "properties": {"ref": "00292", "fax": "(419) 535-7571", "@spider": "howardhanna", "addr:full": "2460 N. Reynolds Road Toledo, OH 43615", "name": "Toledo Office, OH", "phone": "(419) 535-0011", "website": "https://www.howardhanna.com/Office/Detail/Toledo/00292", "brand": "Howard Hanna"}, "geometry": {"type": "Point", "coordinates": [-83.66738, 41.66758]}},
{"type": "Feature", "id": "lFq1iSB77iwZH94Szk4l51nhXlA=", "properties": {"ref": "004611", "fax": "(814) 755-4502", "@spider": "howardhanna", "addr:full": "Howard Hanna Forest Realty 220 Elm Street Tionesta, PA 16353", "name": "Tionesta Office, PA", "phone": "(814) 755-3518", "website": "https://www.howardhanna.com/Office/Detail/Tionesta/004611", "brand": "Howard Hanna"}, "geometry": {"type": "Point", "coordinates": [-79.45631, 41.49314]}},
{"type": "Feature", "id": "UR6y6wuYHHNXR-YDEahI2Ks1s34=", "properties": {"ref": "307609313005744", "fax": null, "@spider": "howardhanna", "addr:full": "Howard Hanna Rand Realty 654 Columbus Avenue Thornwood, NY 10594", "name": "Thornwood Office, NY", "phone": "(914) 769-3584", "website": "https://www.howardhanna.com/Office/Detail/Thornwood/307609313005744", "brand": "Howard Hanna"}, "geometry": {"type": "Point", "coordinates": [-73.76992, 41.11469]}},
{"type": "Feature", "id": "rFHk8BacHKJaLvX8jHzdezABhYs=", "properties": {"ref": "3289912820", "fax": null, "@spider": "howardhanna", "addr:full": "5 Valley Springs Asheville, NC 28803", "name": "The Ramble at Biltmore Forest Office, NC", "phone": "(828) 274-1336", "website": "https://www.howardhanna.com/Office/Detail/The-Ramble-at-Biltmore-Forest/3289912820", "brand": "Howard Hanna"}, "geometry": {"type": "Point", "coordinates": [-82.52875, 35.51553]}},
{"type": "Feature", "id": "KyuIOJpP4HI5KlXfXR7vIPg2G5o=", "properties": {"ref": "005652", "fax": "(517) 423-3625", "@spider": "howardhanna", "addr:full": "145 East Chicago Blvd Tecumseh, MI 49286", "name": "Tecumseh Office, MI", "phone": "(517) 424-4444", "website": "https://www.howardhanna.com/Office/Detail/Tecumseh/005652", "brand": "Howard Hanna"}, "geometry": {"type": "Point", "coordinates": [-83.94387, 42.00428]}},
{"type": "Feature", "id": "_MA3lh4k-5A6QwLSfq5VgDlyhGY=", "properties": {"ref": "00291", "fax": "(419) 825-2209", "@spider": "howardhanna", "addr:full": "131 E. Airport Highway Swanton, OH 43558", "name": "Swanton Office, OH", "phone": "(419) 825-2299", "website": "https://www.howardhanna.com/Office/Detail/Swanton/00291", "brand": "Howard Hanna"}, "geometry": {"type": "Point", "coordinates": [-83.88426, 41.58128]}},
{"type": "Feature", "id": "VrKaPqgfRRDMDnsnObCiYvZMrfw=", "properties": {"ref": "3289912108", "fax": null, "@spider": "howardhanna", "addr:full": "Allen Tate Realtors 5920 Khaki Place Summerfield, NC 27358", "name": "Summerfield Office, NC", "phone": "(336) 485-1881", "website": "https://www.howardhanna.com/Office/Detail/Summerfield/3289912108", "brand": "Howard Hanna"}, "geometry": {"type": "Point", "coordinates": [-79.91869, 36.20861]}},
{"type": "Feature", "id": "1M0aov77mdxaPevu5K2gN3uT9Lo=", "properties": {"ref": "307609313007718", "fax": "(845) 357-9699", "@spider": "howardhanna", "addr:full": "Howard Hanna Rand Realty 164 Lafayette Ave (Rte 59) Suffern, NY 10901", "name": "Suffern Office, NY", "phone": "(845) 357-6662", "website": "https://www.howardhanna.com/Office/Detail/Suffern/307609313007718", "brand": "Howard Hanna"}, "geometry": {"type": "Point", "coordinates": [-74.13827, 41.0745]}},
{"type": "Feature", "id": "Do2FsKYVX0WqkOZePcVjZddq0P4=", "properties": {"ref": "00210", "fax": "(440) 238-2359", "@spider": "howardhanna", "addr:full": "12333 Pearl Road Strongsville, OH 44136", "name": "Strongsville Office, OH", "phone": "(440) 238-1400", "website": "https://www.howardhanna.com/Office/Detail/Strongsville/00210", "brand": "Howard Hanna"}, "geometry": {"type": "Point", "coordinates": [-81.83482, 41.32308]}},
{"type": "Feature", "id": "v78w_vz2w9YlAxK_OO37NiXULbY=", "properties": {"ref": "00229", "fax": "(330) 686-9471", "@spider": "howardhanna", "addr:full": "3925 Darrow Rd., Suite 101 Stow, OH 44224", "name": "Stow Office, OH", "phone": "(330) 686-1166", "website": "https://www.howardhanna.com/Office/Detail/Stow/00229", "brand": "Howard Hanna"}, "geometry": {"type": "Point", "coordinates": [-81.44022, 41.17191]}},
{"type": "Feature", "id": "j-47fsgJB2ap7RGRGKFHiWFFIWU=", "properties": {"ref": "307609313008705", "fax": null, "@spider": "howardhanna", "addr:full": "Howard Hanna Rand Realty 50 S. Liberty Drive (Rte 9W) Stony Point, NY 10980", "name": "Stony Point Office, NY", "phone": "(845) 786-3333", "website": "https://www.howardhanna.com/Office/Detail/Stony-Point/307609313008705", "brand": "Howard Hanna"}, "geometry": {"type": "Point", "coordinates": [-73.98619, 41.21504]}},
{"type": "Feature", "id": "sBA1FRT-TxGXtdGMvUbqHyQfJ0w=", "properties": {"ref": "328991299", "fax": "(980) 223-8534", "@spider": "howardhanna", "addr:full": "Allen Tate Realtors 117 North Center Street, Suite B Statesville, NC 28677", "name": "Statesville Office, NC", "phone": "(704) 253-4340", "website": "https://www.howardhanna.com/Office/Detail/Statesville/328991299", "brand": "Howard Hanna"}, "geometry": {"type": "Point", "coordinates": [-80.88895, 35.78519]}},
{"type": "Feature", "id": "hdJ6qElHc4zEN7CpeOe99qDGl2M=", "properties": {"ref": "307609339240204", "fax": null, "@spider": "howardhanna", "addr:full": "Howard Hanna Rand Realty 60 Long Ridge Road Stamford, CT 06902", "name": "Stamford Office, CT", "phone": "(203) 322-8800", "website": "https://www.howardhanna.com/Office/Detail/Stamford/307609339240204", "brand": "Howard Hanna"}, "geometry": {"type": "Point", "coordinates": [-73.55081, 41.07273]}},
{"type": "Feature", "id": "zML_lzcspU8WjDdNRR4DPi0LC4w=", "properties": {"ref": "001115", "fax": "(412) 421-1392", "@spider": "howardhanna", "addr:full": "6310 Forbes Avenue Pittsburgh, PA 15217", "name": "Squirrel Hill Office, PA", "phone": "(412) 421-9120", "website": "https://www.howardhanna.com/Office/Detail/Squirrel-Hill/001115", "brand": "Howard Hanna"}, "geometry": {"type": "Point", "coordinates": [-79.91869, 40.43783]}},
{"type": "Feature", "id": "WPDNrlXzvJSgcnrkfkz5qfbeO7o=", "properties": {"ref": "013171", "fax": null, "@spider": "howardhanna", "addr:full": "1110 N. Bechtle Ave. Springfield, OH 45504", "name": "Springfield Office, OH", "phone": "(937) 324-5756", "website": "https://www.howardhanna.com/Office/Detail/Springfield/013171", "brand": "Howard Hanna"}, "geometry": {"type": "Point", "coordinates": [-83.83523, 39.93944]}},
{"type": "Feature", "id": "79XCEKJPb0j5_N5Asy6aTob5bc0=", "properties": {"ref": "013170", "fax": null, "@spider": "howardhanna", "addr:full": "209 S Main St Springboro, OH 45066", "name": "Springboro Office, OH", "phone": "(937) 748-5336", "website": "https://www.howardhanna.com/Office/Detail/Springboro/013170", "brand": "Howard Hanna"}, "geometry": {"type": "Point", "coordinates": [-84.23348, 39.55416]}},
{"type": "Feature", "id": "2fqg-hVUJCdAeuVQFyQMmWe9tGQ=", "properties": {"ref": "111748", "fax": "(585) 352-6974", "@spider": "howardhanna", "addr:full": "421 S Union St Spencerport, NY 14559", "name": "Spencerport Office, NY", "phone": "(585) 352-8833", "website": "https://www.howardhanna.com/Office/Detail/Spencerport/111748", "brand": "Howard Hanna"}, "geometry": {"type": "Point", "coordinates": [-77.80471, 43.18382]}},
{"type": "Feature", "id": "vbIZ7ym9KkulZNxpQvrDSjd1aFs=", "properties": {"ref": "10226", "fax": null, "@spider": "howardhanna", "addr:full": "2896 NY-8 Speculator, NY 12164", "name": "Speculator Office, NY", "phone": "(518) 548-8904", "website": "https://www.howardhanna.com/Office/Detail/Speculator/10226", "brand": "Howard Hanna"}, "geometry": {"type": "Point", "coordinates": [-74.36464, 43.50121]}},
{"type": "Feature", "id": "Jx7FB4SBGEIr4fERXtrz8v4VEaA=", "properties": {"ref": "009001", "fax": null, "@spider": "howardhanna", "addr:full": "23 Bedford Square Pittsburgh, PA 15203", "name": "South Side Office, PA", "phone": "(412) 481-0000", "website": "https://www.howardhanna.com/Office/Detail/South-Side/009001", "brand": "Howard Hanna"}, "geometry": {"type": "Point", "coordinates": [-79.98618, 40.42941]}},
{"type": "Feature", "id": "7rciiIiu5lQFGC2Dq0ugR2mnqLM=", "properties": {"ref": "001316", "fax": "(412) 882-4175", "@spider": "howardhanna", "addr:full": "5235 Clairton Boulevard Pittsburgh, PA 15236", "name": "South Hills Office, PA", "phone": "(412) 882-9100", "website": "https://www.howardhanna.com/Office/Detail/South-Hills/001316", "brand": "Howard Hanna"}, "geometry": {"type": "Point", "coordinates": [-79.97099, 40.34395]}},
{"type": "Feature", "id": "6S_J3rBLzOb64-yAEmSHVQCzwws=", "properties": {"ref": "013169", "fax": null, "@spider": "howardhanna", "addr:full": "7625 Paragon Rd., Suite E Centerville, OH 45459", "name": "South Dayton Office, OH", "phone": "(937) 433-1776", "website": "https://www.howardhanna.com/Office/Detail/South-Dayton/013169", "brand": "Howard Hanna"}, "geometry": {"type": "Point", "coordinates": [-84.17887, 39.63343]}},
{"type": "Feature", "id": "RXcgVPY806mbP_PqeheQ7-gPx6k=", "properties": {"ref": "013168", "fax": null, "@spider": "howardhanna", "addr:full": "109 N. Chillicothe Street South Charleston, OH 45368", "name": "South Charleston Office, OH", "phone": "(937) 462-8642", "website": "https://www.howardhanna.com/Office/Detail/South-Charleston/013168", "brand": "Howard Hanna"}, "geometry": {"type": "Point", "coordinates": [-83.63665, 39.82756]}},
{"type": "Feature", "id": "g6vYtOLLIS0KeRw5aNpiBvngNHM=", "properties": {"ref": "004674", "fax": null, "@spider": "howardhanna", "addr:full": "Howard Hanna SB Real Estate 3640 Edison Lakes Parkway Mishawaka, IN 46545", "name": "South Bend Office, IN", "phone": "(574) 207-7777", "website": "https://www.howardhanna.com/Office/Detail/South-Bend/004674", "brand": "Howard Hanna"}, "geometry": {"type": "Point", "coordinates": [-86.1799, 41.69349]}},
{"type": "Feature", "id": "BiSILTRZ3PPiMTUBFG13XkFHUBc=", "properties": {"ref": "004678", "fax": null, "@spider": "howardhanna", "addr:full": "Howard Hanna Bardell Realty 131 S. Pleasant Avenue Somerset, PA 15501", "name": "Somerset Office, PA", "phone": "(814) 445-6587", "website": "https://www.howardhanna.com/Office/Detail/Somerset/004678", "brand": "Howard Hanna"}, "geometry": {"type": "Point", "coordinates": [-79.07672, 40.02209]}},
{"type": "Feature", "id": "LCymc6UERnXqGj6CEy_R5dajRb0=", "properties": {"ref": "00221", "fax": "(440) 248-7540", "@spider": "howardhanna", "addr:full": "6240 SOM Center Rd., Suite 100 Solon, OH 44139", "name": "Solon Office, OH", "phone": "(440) 248-3000", "website": "https://www.howardhanna.com/Office/Detail/Solon/00221", "brand": "Howard Hanna"}, "geometry": {"type": "Point", "coordinates": [-81.43798, 41.38973]}},
{"type": "Feature", "id": "c835wVDNTndaXJInBqQhEyLtzA4=", "properties": {"ref": "007715", "fax": "(757) 365-9739", "@spider": "howardhanna", "addr:full": "1702 S. Church Street Smithfield, VA 23430", "name": "Smithfield Office, VA", "phone": "(757) 357-3217", "website": "https://www.howardhanna.com/Office/Detail/Smithfield/007715", "brand": "Howard Hanna"}, "geometry": {"type": "Point", "coordinates": [-76.60769, 36.9668]}},
{"type": "Feature", "id": "mKCjpagnpQoRJGhgMBPqivMsKeM=", "properties": {"ref": "004658", "fax": "(814) 887-5560", "@spider": "howardhanna", "addr:full": "Howard Hanna Professionals 104 Forest Ave Smethport, PA 16749", "name": "Smethport Office, PA", "phone": "(814) 887-7772", "website": "https://www.howardhanna.com/Office/Detail/Smethport/004658", "brand": "Howard Hanna"}, "geometry": {"type": "Point", "coordinates": [-78.4329, 41.81094]}},
{"type": "Feature", "id": "mNxhVbiTePeTWh1eJVrm4xDN23U=", "properties": {"ref": "1077", "fax": "(315) 685-3727", "@spider": "howardhanna", "addr:full": "28 E. Genesee St Skaneateles, NY 13152", "name": "Skaneateles/Fingerlakes Office, NY", "phone": "(315) 685-0111", "website": "https://www.howardhanna.com/Office/Detail/Skaneateles-Fingerlakes/1077", "brand": "Howard Hanna"}, "geometry": {"type": "Point", "coordinates": [-76.42825, 42.94554]}},
{"type": "Feature", "id": "iPIEvtt3F6bqT6M4Ye13yOdBzbg=", "properties": {"ref": "104100", "fax": "(607) 563-2813", "@spider": "howardhanna", "addr:full": "39 Main Street Sidney, NY 13838", "name": "Sidney Office, NY", "phone": "(607) 563-1020", "website": "https://www.howardhanna.com/Office/Detail/Sidney/104100", "brand": "Howard Hanna"}, "geometry": {"type": "Point", "coordinates": [-75.39179, 42.31535]}},
{"type": "Feature", "id": "pjb_VRyH9YlZ5sAml1tifNrQ3OM=", "properties": {"ref": "013167", "fax": null, "@spider": "howardhanna", "addr:full": "124 N. Main Ave. Sidney, OH 45365", "name": "Sidney Office, OH", "phone": "(937) 492-7792", "website": "https://www.howardhanna.com/Office/Detail/Sidney/013167", "brand": "Howard Hanna"}, "geometry": {"type": "Point", "coordinates": [-84.15482, 40.28641]}},
{"type": "Feature", "id": "JoG6dySnUVAI_Gd537zaWkhbBdA=", "properties": {"ref": "001158", "fax": "(717) 428-1699", "@spider": "howardhanna", "addr:full": "14625 Mt. Airy Road, Suite 107 Shrewsbury, PA 17361", "name": "Shrewsbury Office, PA", "phone": "(717) 235-6911", "website": "https://www.howardhanna.com/Office/Detail/Shrewsbury/001158", "brand": "Howard Hanna"}, "geometry": {"type": "Point", "coordinates": [-76.66948, 39.7729]}},
{"type": "Feature", "id": "8F8Cdm923GOl3IJDWR_Zp8kd0H4=", "properties": {"ref": "001402", "fax": "(724) 962-8709", "@spider": "howardhanna", "addr:full": "1483 North Hermitage Road Hermitage, PA 16148", "name": "Shenango Valley Office, PA", "phone": "(724) 962-8701", "website": "https://www.howardhanna.com/Office/Detail/Shenango-Valley/001402", "brand": "Howard Hanna"}, "geometry": {"type": "Point", "coordinates": [-80.45191, 41.25359]}},
{"type": "Feature", "id": "Vt1LIgVeNtN0ONOp0vszMdvEVxs=", "properties": {"ref": "328991226", "fax": "(704) 482-8999", "@spider": "howardhanna", "addr:full": "Allen Tate Realtors 305 East Warren Street Shelby, NC 28150", "name": "Shelby Office, NC", "phone": "(704) 482-6311", "website": "https://www.howardhanna.com/Office/Detail/Shelby/328991226", "brand": "Howard Hanna"}, "geometry": {"type": "Point", "coordinates": [-81.53689, 35.29119]}},
{"type": "Feature", "id": "vOguNBqgvC0ZsBYJjRb0dhqUZRc=", "properties": {"ref": "0021", "fax": "(216) 751-2804", "@spider": "howardhanna", "addr:full": "20710 Chagrin Blvd Shaker Heights, OH 44122", "name": "Shaker Heights Office, OH", "phone": "(216) 751-8550", "website": "https://www.howardhanna.com/Office/Detail/Shaker-Heights/0021", "brand": "Howard Hanna"}, "geometry": {"type": "Point", "coordinates": [-81.53388, 41.46446]}},
{"type": "Feature", "id": "n7ZB1P4TbjFqJnYWlMYD275s2b8=", "properties": {"ref": "001101", "fax": "(412) 361-5948", "@spider": "howardhanna", "addr:full": "5501 Baum Boulevard Pittsburgh, PA 15232", "name": "Shadyside Office, PA", "phone": "(412) 361-4000", "website": "https://www.howardhanna.com/Office/Detail/Shadyside/001101", "brand": "Howard Hanna"}, "geometry": {"type": "Point", "coordinates": [-79.9369, 40.45758]}},
{"type": "Feature", "id": "L0HVW_qVdXFYQ4P2zX3HSSRSslQ=", "properties": {"ref": "001305", "fax": "(412) 741-8219", "@spider": "howardhanna", "addr:full": "401 Broad Street Sewickley, PA 15143", "name": "Sewickley Office, PA", "phone": "(412) 741-2200", "website": "https://www.howardhanna.com/Office/Detail/Sewickley/001305", "brand": "Howard Hanna"}, "geometry": {"type": "Point", "coordinates": [-80.18167, 40.53946]}},
{"type": "Feature", "id": "uREufRYcyW6tYIBu5Vzk13FIygw=", "properties": {"ref": "004681", "fax": null, "@spider": "howardhanna", "addr:full": "Howard Hanna At Home Realty 237 Desmond Street Sayre, PA 18840", "name": "Sayre Office, PA", "phone": "(570) 731-0009", "website": "https://www.howardhanna.com/Office/Detail/Sayre/004681", "brand": "Howard Hanna"}, "geometry": {"type": "Point", "coordinates": [-76.5152, 41.97994]}},
{"type": "Feature", "id": "HZVdIddvIdZjCsl-TRs77BUj9wI=", "properties": {"ref": "10216", "fax": "(518) 583-8900", "@spider": "howardhanna", "addr:full": "28 Division St Saratoga Springs, NY 12866", "name": "Saratoga Springs - Division Street Office, NY", "phone": "(518) 583-7268", "website": "https://www.howardhanna.com/Office/Detail/Saratoga-Springs-Division-Street/10216", "brand": "Howard Hanna"}, "geometry": {"type": "Point", "coordinates": [-73.78835, 43.08168]}},
{"type": "Feature", "id": "ppJkwc1aixPhD9tUAtBKjRXFBoM=", "properties": {"ref": "1026", "fax": "(518) 584-2107", "@spider": "howardhanna", "addr:full": "505 Broadway Saratoga Springs, NY 12866", "name": "Saratoga Springs - Broadway Office, NY", "phone": "(518) 584-0743", "website": "https://www.howardhanna.com/Office/Detail/Saratoga-Springs-Broadway/1026", "brand": "Howard Hanna"}, "geometry": {"type": "Point", "coordinates": [-73.78468, 43.08438]}},
{"type": "Feature", "id": "pbh4XXNavwHEyNBSRQSL_ACYDzM=", "properties": {"ref": "3289912811", "fax": null, "@spider": "howardhanna", "addr:full": "153 E. Main Street Saluda, NC 28773", "name": "Saluda Office, NC", "phone": "(828) 749-3504", "website": "https://www.howardhanna.com/Office/Detail/Saluda/3289912811", "brand": "Howard Hanna"}, "geometry": {"type": "Point", "coordinates": [-82.34576, 35.23587]}},
{"type": "Feature", "id": "nm4bZmv5FibE4fsEMASECZLnhqA=", "properties": {"ref": "004647", "fax": "(814) 834-6778", "@spider": "howardhanna", "addr:full": "Howard Hanna North Star Realty Group 20 North Michael Street St. Marys, PA 15857", "name": "Saint Marys Office, PA", "phone": "(814) 834-6777", "website": "https://www.howardhanna.com/Office/Detail/Saint-Marys/004647", "brand": "Howard Hanna"}, "geometry": {"type": "Point", "coordinates": [-78.56091, 41.42844]}},
{"type": "Feature", "id": "uRQybUky4vaCpQNT5R3zjSyP9CA=", "properties": {"ref": "3289912818", "fax": null, "@spider": "howardhanna", "addr:full": "112 Mountains Blvd Lake Lure, NC 28746", "name": "Rumbling Bald Resort on Lake Lure Office, NC", "phone": "(828) 694-3001", "website": "https://www.howardhanna.com/Office/Detail/Rumbling-Bald-Resort-on-Lake-Lure/3289912818", "brand": "Howard Hanna"}, "geometry": {"type": "Point", "coordinates": [-82.18978, 35.46108]}},
{"type": "Feature", "id": "JoEnCoe6Xq0nbH0SgaVlcrNy890=", "properties": {"ref": "004609", "fax": "(724) 929-2980", "@spider": "howardhanna", "addr:full": "Howard Hanna Simon Real Estate Services 1751 Rostraver Road Rostraver Township, PA 15012", "name": "Rostraver Township Office, PA", "phone": "(724) 929-9699", "website": "https://www.howardhanna.com/Office/Detail/Rostraver-Township/004609", "brand": "Howard Hanna"}, "geometry": {"type": "Point", "coordinates": [-79.80503, 40.18071]}},
{"type": "Feature", "id": "ASsxuLdgL44N9fMD2cKU9gEUcsw=", "properties": {"ref": "0022", "fax": "(440) 356-6210", "@spider": "howardhanna", "addr:full": "19204 Detroit Road Rocky River, OH 44116", "name": "Rocky River Office, OH", "phone": "(440) 333-6500", "website": "https://www.howardhanna.com/Office/Detail/Rocky-River/0022", "brand": "Howard Hanna"}, "geometry": {"type": "Point", "coordinates": [-81.85089, 41.47772]}},
{"type": "Feature", "id": "YttAH0CenotlCAyiZz6dolPNJzE=", "properties": {"ref": "328991223", "fax": "(803) 324-5332", "@spider": "howardhanna", "addr:full": "Allen Tate Realtors 1602 Ebenezer Road Rock Hill, SC 29732", "name": "Rock Hill Office, SC", "phone": "(803) 324-1185", "website": "https://www.howardhanna.com/Office/Detail/Rock-Hill/328991223", "brand": "Howard Hanna"}, "geometry": {"type": "Point", "coordinates": [-81.04437, 34.95474]}},
{"type": "Feature", "id": "LK7wEarm4uIaN8tcUH2Enwcfaww=", "properties": {"ref": "111741", "fax": "(585) 756-7290", "@spider": "howardhanna", "addr:full": "217 W Main St Rochester, NY 14614", "name": "Rochester Main Office, NY", "phone": "(585) 756-7300", "website": "https://www.howardhanna.com/Office/Detail/Rochester-Main/111741", "brand": "Howard Hanna"}, "geometry": {"type": "Point", "coordinates": [-77.61842, 43.15416]}},
{"type": "Feature", "id": "CFHwdV-3UZCJfxTFu44aLhoxNLk=", "properties": {"ref": "3289912107", "fax": null, "@spider": "howardhanna", "addr:full": "Allen Tate Realtors 303 Rochester Highway Seneca, SC 29672", "name": "Rochester Highway Office, SC", "phone": "(864) 888-3211", "website": "https://www.howardhanna.com/Office/Detail/Rochester-Highway/3289912107", "brand": "Howard Hanna"}, "geometry": {"type": "Point", "coordinates": [-82.93291, 34.70424]}},
{"type": "Feature", "id": "cShC-wip5k0x8q1SYeyj41rAYuY=", "properties": {"ref": "307609339241191", "fax": null, "@spider": "howardhanna", "addr:full": "Howard Hanna Rand Realty 388 Main Street Ridgefield, CT 06877", "name": "Ridgefield Office, CT", "phone": "(203) 431-1400", "website": "https://www.howardhanna.com/Office/Detail/Ridgefield/307609339241191", "brand": "Howard Hanna"}, "geometry": {"type": "Point", "coordinates": [-73.49808, 41.28103]}},
{"type": "Feature", "id": "OSKMQMIgRHzav7dvWgDND5PlIpU=", "properties": {"ref": "013166", "fax": null, "@spider": "howardhanna", "addr:full": "2751 Independence Village Center Reynoldsburg, OH 43068", "name": "Reynoldsburg - Todd Bridges Office, OH", "website": "https://www.howardhanna.com/Office/Detail/Reynoldsburg-Todd-Bridges/013166", "brand": "Howard Hanna"}, "geometry": {"type": "Point", "coordinates": [-82.82638, 39.92628]}},
{"type": "Feature", "id": "PpMr1ZYW9TkhWR7I52l8ng70mJ8=", "properties": {"ref": "013165", "fax": null, "@spider": "howardhanna", "addr:full": "2002 Officeview Pl Reynoldsburg, OH 43068", "name": "Reynoldsburg - Joseph Moriarty Office, OH", "website": "https://www.howardhanna.com/Office/Detail/Reynoldsburg-Joseph-Moriarty/013165", "brand": "Howard Hanna"}, "geometry": {"type": "Point", "coordinates": [-82.82825, 39.93997]}},
{"type": "Feature", "id": "NSwaYwcWprGc6ocg_a964mZ1nj4=", "properties": {"ref": "013186", "fax": null, "@spider": "howardhanna", "addr:full": "1364 Hentz Dr Reynoldsburg, OH 43068", "name": "Reynoldsburg - Blacklick Office, OH", "phone": "(614) 327-5399", "website": "https://www.howardhanna.com/Office/Detail/Reynoldsburg-Blacklick/013186", "brand": "Howard Hanna"}, "geometry": {"type": "Point", "coordinates": [-82.815, 39.95461]}},
{"type": "Feature", "id": "DDqiqXKaRIQfFcSopAc0cCPX5jU=", "properties": {"ref": "328991230", "fax": "(704) 366-6941", "@spider": "howardhanna", "addr:full": "6700 Fairview Road Charlotte, NC 28210", "name": "Relocation Center Office, NC", "phone": "(704) 365-6900", "website": "https://www.howardhanna.com/Office/Detail/Relocation-Center/328991230", "brand": "Howard Hanna"}, "geometry": {"type": "Point", "coordinates": [-80.82909, 35.14703]}},
{"type": "Feature", "id": "VqBbAUCrLoun7s-1Ee4gWdGBalY=", "properties": {"ref": "328991272", "fax": "(919) 719-2901", "@spider": "howardhanna", "addr:full": "Allen Tate Realtors 3201 Glenwood Avenue,Suite 300 Raleigh, NC 27612", "name": "Raleigh-Glenwood Office, NC", "phone": "(919) 719-2900", "website": "https://www.howardhanna.com/Office/Detail/Raleigh-Glenwood/328991272", "brand": "Howard Hanna"}, "geometry": {"type": "Point", "coordinates": [-78.66637, 35.8248]}},
{"type": "Feature", "id": "-DCu1HM_rnV5USGAKp146WoEyFk=", "properties": {"ref": "328991274", "fax": "(919) 866-4601", "@spider": "howardhanna", "addr:full": "Allen Tate Realtors 9212 Falls of Neuse Road, Suite 111 Raleigh, NC 27615", "name": "Raleigh-Falls of Neuse Office, NC", "phone": "(919) 866-4600", "website": "https://www.howardhanna.com/Office/Detail/Raleigh-Falls-of-Neuse/328991274", "brand": "Howard Hanna"}, "geometry": {"type": "Point", "coordinates": [-78.60497, 35.90113]}},
{"type": "Feature", "id": "mi_ZrA07-u6V2g_CG09QVXil_kM=", "properties": {"ref": "307609339394176", "fax": null, "@spider": "howardhanna", "addr:full": "Howard Hanna Rand Realty 1516 Irving Street Rahway, NJ 07065", "name": "Rahway Office, NJ", "phone": "(732) 669-9090", "website": "https://www.howardhanna.com/Office/Detail/Rahway/307609339394176", "brand": "Howard Hanna"}, "geometry": {"type": "Point", "coordinates": [-74.27637, 40.60857]}},
{"type": "Feature", "id": "Rzs_E4v8vPuUl47bp93zKr8OqZw=", "properties": {"ref": "1024", "fax": "(518) 798-3287", "@spider": "howardhanna", "addr:full": "63 Quaker Rd Queensbury , NY 12804", "name": "Queensbury/Glens Falls/Lake George Office, NY", "phone": "(518) 798-3636", "website": "https://www.howardhanna.com/Office/Detail/Queensbury-Glens-Falls-Lake-George/1024", "brand": "Howard Hanna"}, "geometry": {"type": "Point", "coordinates": [-73.6678, 43.33229]}},
{"type": "Feature", "id": "V_GNldCKB4YG-ni1c7B5VVQ6F4w=", "properties": {"ref": "004606", "fax": "(814) 938-9705", "@spider": "howardhanna", "addr:full": "Howard Hanna Allemang Realty 232 West Mahoning Punxsutawney, PA 15767", "name": "Punxsutawney Office, PA", "phone": "(814) 938-9667", "website": "https://www.howardhanna.com/Office/Detail/Punxsutawney/004606", "brand": "Howard Hanna"}, "geometry": {"type": "Point", "coordinates": [-79.0462, 40.91767]}},
{"type": "Feature", "id": "BjRlKttU_0LsdDqxIOiBuPLRAEE=", "properties": {"ref": "007741", "fax": null, "@spider": "howardhanna", "addr:full": "114 West Washington Street, Suite 101 Lexington, VA 24450", "name": "Property Management-Lexington Office, VA", "phone": "(540) 319-6140", "website": "https://www.howardhanna.com/Office/Detail/Property-Management-Lexington/007741", "brand": "Howard Hanna"}, "geometry": {"type": "Point", "coordinates": [-79.44334, 37.78581]}},
{"type": "Feature", "id": "CVcWvKXg3UCaeePzJRsJVa4BmoA=", "properties": {"ref": "007717", "fax": "(757) 497-0961", "@spider": "howardhanna", "addr:full": "291 Independence Blvd, Pembroke 4 Virginia Beach, VA 23462", "name": "Property Management VA Office, VA", "phone": "(757) 499-5688", "website": "https://www.howardhanna.com/Office/Detail/Property-Management-VA/007717", "brand": "Howard Hanna"}, "geometry": {"type": "Point", "coordinates": [-76.13988, 36.84498]}},
{"type": "Feature", "id": "7sPsHflSy8wcQbyu51SLpTCRCj4=", "properties": {"ref": "002717", "fax": null, "@spider": "howardhanna", "addr:full": "6000 Parkland Blvd, Mayfield Heights, OH 44124", "name": "Property Management OH Office, OH", "phone": "(216) 447-4477", "website": "https://www.howardhanna.com/Office/Detail/Property-Management-OH/002717", "brand": "Howard Hanna"}, "geometry": {"type": "Point", "coordinates": [-81.46236, 41.50492]}},
{"type": "Feature", "id": "Uh3wq70QJ3SXYLqNaMtX4tdAS_U=", "properties": {"ref": "005941", "fax": null, "@spider": "howardhanna", "addr:full": "1898 West Stadium Blvd Ann Arbor, MI 48103", "name": "Property Management MI Office, MI", "website": "https://www.howardhanna.com/Office/Detail/Property-Management-MI/005941", "brand": "Howard Hanna"}, "geometry": {"type": "Point", "coordinates": [-83.77165, 42.26891]}},
{"type": "Feature", "id": "_HeQD_eAu74g1eWJdh9gxrqWSTQ=", "properties": {"ref": "013164", "fax": null, "@spider": "howardhanna", "addr:full": "9976 Brewster Ln Powell, OH 43065", "name": "Powell Office, OH", "phone": "(614) 793-7400", "website": "https://www.howardhanna.com/Office/Detail/Powell/013164", "brand": "Howard Hanna"}, "geometry": {"type": "Point", "coordinates": [-83.09489, 40.15344]}},
{"type": "Feature", "id": "r0DhYjFBUMp6YhXyc4glbvOmB50=", "properties": {"ref": "002443", "fax": "(330) 757-3428", "@spider": "howardhanna", "addr:full": "100 West McKinley Way Poland, OH 44514", "name": "Poland Office, OH", "phone": "(330) 707-1000", "website": "https://www.howardhanna.com/Office/Detail/Poland/002443", "brand": "Howard Hanna"}, "geometry": {"type": "Point", "coordinates": [-80.61605, 41.02434]}},
{"type": "Feature", "id": "Ylu8lY-EfBUI72tiXgfn8gx1cSo=", "properties": {"ref": "005514", "fax": null, "@spider": "howardhanna", "addr:full": "340 North Main Street Plymouth, MI 48170", "name": "Plymouth Office, MI", "phone": "(248) 626-8700", "website": "https://www.howardhanna.com/Office/Detail/Plymouth/005514", "brand": "Howard Hanna"}, "geometry": {"type": "Point", "coordinates": [-83.46323, 42.37484]}},
{"type": "Feature", "id": "1ndyufntHKJIm-nH4hZhrv7-31M=", "properties": {"ref": "111749", "fax": "(585) 586-4599", "@spider": "howardhanna", "addr:full": "33 S Main St Pittsford, NY 14534", "name": "Pittsford - Main Street Office, NY", "phone": "(585) 381-4770", "website": "https://www.howardhanna.com/Office/Detail/Pittsford-Main-Street/111749", "brand": "Howard Hanna"}, "geometry": {"type": "Point", "coordinates": [-77.51622, 43.08991]}},
{"type": "Feature", "id": "GK11mMMnQZkaVXPhlFjkpNLG48I=", "properties": {"ref": "307609313014627", "fax": null, "@spider": "howardhanna", "addr:full": "Howard Hanna Rand Realty 55 Main Street Pine Bush, NY 12566", "name": "Pine Bush Office, NY", "phone": "(845) 744-2095", "website": "https://www.howardhanna.com/Office/Detail/Pine-Bush/307609313014627", "brand": "Howard Hanna"}, "geometry": {"type": "Point", "coordinates": [-74.30048, 41.60885]}},
{"type": "Feature", "id": "qDTAVSvLme9Kex41g-IY8CoyObQ=", "properties": {"ref": "013188", "fax": null, "@spider": "howardhanna", "addr:full": "88 W Church Street Pickerington, OH 43147", "name": "Pickerington - The Don Shaffer Team Office, OH", "website": "https://www.howardhanna.com/Office/Detail/Pickerington-The-Don-Shaffer-Team/013188", "brand": "Howard Hanna"}, "geometry": {"type": "Point", "coordinates": [-82.75546, 39.8853]}},
{"type": "Feature", "id": "UQraYz6sRhPRbW0LS5kPSZ_eGJM=", "properties": {"ref": "013162", "fax": null, "@spider": "howardhanna", "addr:full": "1450 Tussing Road Pickerington, OH 43147", "name": "Pickerington Office, OH", "phone": "(614) 864-7400", "website": "https://www.howardhanna.com/Office/Detail/Pickerington/013162", "brand": "Howard Hanna"}, "geometry": {"type": "Point", "coordinates": [-82.79175, 39.92939]}},
{"type": "Feature", "id": "gFyLnmk6x9c2zvtpZ_YK0_HMWLQ=", "properties": {"ref": "001319", "fax": "(724) 942-0218", "@spider": "howardhanna", "addr:full": "3912 Washington Road McMurray, PA 15317", "name": "Peters Township Office, PA", "phone": "(724) 941-8800", "website": "https://www.howardhanna.com/Office/Detail/Peters-Township/001319", "brand": "Howard Hanna"}, "geometry": {"type": "Point", "coordinates": [-80.12791, 40.27163]}},
{"type": "Feature", "id": "8hwYErhHZe7NHOEcnGRtfPFSeQg=", "properties": {"ref": "00290", "fax": "(419) 874-9682", "@spider": "howardhanna", "addr:full": "124 Louisiana Avenue Perrysburg, OH 43551", "name": "Perrysburg Downtown Office, OH", "phone": "(419) 874-7958", "website": "https://www.howardhanna.com/Office/Detail/Perrysburg-Downtown/00290", "brand": "Howard Hanna"}, "geometry": {"type": "Point", "coordinates": [-83.62984, 41.5595]}},
{"type": "Feature", "id": "NBcy1oi3GJ-kjso3XYL24vX_VQA=", "properties": {"ref": "0027", "fax": "(216) 831-9784", "@spider": "howardhanna", "addr:full": "3550 Lander Center Pepper Pike, OH 44124", "name": "Pepper Pike Office, OH", "phone": "(216) 831-9310", "website": "https://www.howardhanna.com/Office/Detail/Pepper-Pike/0027", "brand": "Howard Hanna"}, "geometry": {"type": "Point", "coordinates": [-81.46396, 41.46347]}},
{"type": "Feature", "id": "5ieSX3PXS0f-LbrOl8FudyadFhs=", "properties": {"ref": "004657", "fax": "(315) 536-0918", "@spider": "howardhanna", "addr:full": "Howard Hanna Lake Group 229 Lake Street Penn Yan, NY 14527", "name": "Penn Yan Office, NY", "phone": "(315) 536-2700", "website": "https://www.howardhanna.com/Office/Detail/Penn-Yan/004657", "brand": "Howard Hanna"}, "geometry": {"type": "Point", "coordinates": [-77.05776, 42.65484]}},
{"type": "Feature", "id": "_d0eDKkBPLpMv0bCWxmqhe58tVE=", "properties": {"ref": "007714", "fax": "(757) 596-9811", "@spider": "howardhanna", "addr:full": "724 Thimble Shoals Blvd Suite A Newport News, VA 23606", "name": "Peninsula Office, VA", "phone": "(757) 595-8895", "website": "https://www.howardhanna.com/Office/Detail/Peninsula/007714", "brand": "Howard Hanna"}, "geometry": {"type": "Point", "coordinates": [-76.46977, 37.08397]}},
{"type": "Feature", "id": "nGodjIb9eThvpDYNkuh8P_RAA_Q=", "properties": {"ref": "111757", "fax": "(585) 381-8571", "@spider": "howardhanna", "addr:full": "1797 Penfield Rd Penfield, NY 14526", "name": "Penfield Office, NY", "phone": "(585) 381-0502", "website": "https://www.howardhanna.com/Office/Detail/Penfield/111757", "brand": "Howard Hanna"}, "geometry": {"type": "Point", "coordinates": [-77.46087, 43.13119]}},
{"type": "Feature", "id": "yITT1kq7omCcxpP2e691wJCKH7I=", "properties": {"ref": "307609313016601", "fax": null, "@spider": "howardhanna", "addr:full": "Howard Hanna Rand Realty 19 East Central Avenue Pearl River, NY 10965", "name": "Pearl River Office, NY", "phone": "(845) 735-3020", "website": "https://www.howardhanna.com/Office/Detail/Pearl-River/307609313016601", "brand": "Howard Hanna"}, "geometry": {"type": "Point", "coordinates": [-74.02069, 41.05935]}},
{"type": "Feature", "id": "IhPIpHQ8gp_CAHXaiwQMpYz_1mA=", "properties": {"ref": "001155", "fax": "(717) 564-0393", "@spider": "howardhanna", "addr:full": "4079 Derry Street Harrisburg, PA 17111", "name": "Paxtang Office, PA", "phone": "(717) 564-7900", "website": "https://www.howardhanna.com/Office/Detail/Paxtang/001155", "brand": "Howard Hanna"}, "geometry": {"type": "Point", "coordinates": [-76.81363, 40.2575]}},
{"type": "Feature", "id": "53EhEUEXl9cf_f_iGbIBrnCCYDo=", "properties": {"ref": "013187", "fax": null, "@spider": "howardhanna", "addr:full": "4663 Columbus Road Granville, OH 43023", "name": "Pataskala - Thompson Premier Home Team Office, OH", "website": "https://www.howardhanna.com/Office/Detail/Pataskala-Thompson-Premier-Home-Team/013187", "brand": "Howard Hanna"}, "geometry": {"type": "Point", "coordinates": [-82.58292, 40.03618]}},
{"type": "Feature", "id": "ajpYWlqigxqS_m3qMl1IeNQy-mI=", "properties": {"ref": "013160", "fax": null, "@spider": "howardhanna", "addr:full": "190 E. Broad Street Pataskala, OH 43062", "name": "Pataskala Office, OH", "phone": "(740) 927-7400", "website": "https://www.howardhanna.com/Office/Detail/Pataskala/013160", "brand": "Howard Hanna"}, "geometry": {"type": "Point", "coordinates": [-82.66906, 40.00461]}},
{"type": "Feature", "id": "sN5gLKrQiFhNaj9GPxL_D029dHA=", "properties": {"ref": "004679", "fax": null, "@spider": "howardhanna", "addr:full": "Howard Hanna Outer Banks Realty 114 W Oregon Avenue Kill Devil Hills, NC 27948", "name": "Outer Banks Office, NC", "phone": "(252) 679-3111", "website": "https://www.howardhanna.com/Office/Detail/Outer-Banks/004679", "brand": "Howard Hanna"}, "geometry": {"type": "Point", "coordinates": [-75.66133, 36.01186]}},
{"type": "Feature", "id": "p36Pe308SBtC6Q0OAG0zE6XuUPA=", "properties": {"ref": "1013", "fax": "(716) 662-9520", "@spider": "howardhanna", "addr:full": "6505 E Quaker St Orchard Park, NY 14127", "name": "Orchard Park - E. Quaker Street Office, NY", "phone": "(716) 662-2000", "website": "https://www.howardhanna.com/Office/Detail/Orchard-Park-E-Quaker-Street/1013", "brand": "Howard Hanna"}, "geometry": {"type": "Point", "coordinates": [-78.74367, 42.76731]}},
{"type": "Feature", "id": "Wb7KFrg7R9gcTZtSu-Ju_R8n7Ro=", "properties": {"ref": "111752", "fax": "(315) 524-4206", "@spider": "howardhanna", "addr:full": "1450 Route 104 Ontario, NY 14519", "name": "Ontario Office, NY", "phone": "(315) 524-2331", "website": "https://www.howardhanna.com/Office/Detail/Ontario/111752", "brand": "Howard Hanna"}, "geometry": {"type": "Point", "coordinates": [-77.31174, 43.22784]}},
{"type": "Feature", "id": "Yqvj82s2esJ8_2Rqxv3_Ge1k1qw=", "properties": {"ref": "104102", "fax": "(607) 433-9520", "@spider": "howardhanna", "addr:full": "75 Market Street Oneonta, NY 13820", "name": "Oneonta Office, NY", "phone": "(607) 433-1020", "website": "https://www.howardhanna.com/Office/Detail/Oneonta/104102", "brand": "Howard Hanna"}, "geometry": {"type": "Point", "coordinates": [-75.05771, 42.45386]}},
{"type": "Feature", "id": "ONp3k_Fkmk70lOyuhWdfYa5hQeY=", "properties": {"ref": "004655", "fax": "(716) 372-7057", "@spider": "howardhanna", "addr:full": "Howard Hanna Professionals 410 Wayne Street Olean, NY 14760", "name": "Olean Office, NY", "phone": "(716) 372-1155", "website": "https://www.howardhanna.com/Office/Detail/Olean/004655", "brand": "Howard Hanna"}, "geometry": {"type": "Point", "coordinates": [-78.43452, 42.08539]}},
{"type": "Feature", "id": "Rwh3-FmjYNvu1YiFzH4mw62j1LM=", "properties": {"ref": "307609362930178", "fax": null, "@spider": "howardhanna", "addr:full": "Howard Hanna Rand Realty 12 Bi State Plaza Old Tappan, NJ 07675", "name": "Old Tappan Office, NJ", "website": "https://www.howardhanna.com/Office/Detail/Old-Tappan/307609362930178", "brand": "Howard Hanna"}, "geometry": {"type": "Point", "coordinates": [-73.98207, 41.01466]}},
{"type": "Feature", "id": "GHn0sJ5POQxTcchC5ChmK3a9m58=", "properties": {"ref": "002699", "fax": "(216) 642-4805", "@spider": "howardhanna", "addr:full": "6000 Parkland Blvd Mayfield Heights, OH 44124", "name": "Ohio Home Office, OH", "phone": "(216) 447-4477", "website": "https://www.howardhanna.com/Office/Detail/Ohio-Home/002699", "brand": "Howard Hanna"}, "geometry": {"type": "Point", "coordinates": [-81.46265, 41.50475]}},
{"type": "Feature", "id": "meku3nvM6UcRpKGtClRQnTPYFRQ=", "properties": {"ref": "007713", "fax": "(757) 213-0517", "@spider": "howardhanna", "addr:full": "303 34th Street, Suite 102 Virginia Beach, VA 23451", "name": "Oceanfront", "phone": "(757) 213-0511", "website": "https://www.howardhanna.com/Office/Detail/Oceanfront/007713", "brand": "Howard Hanna"}, "geometry": {"type": "Point", "coordinates": [-75.98054, 36.86213]}},
{"type": "Feature", "id": "kYyqh-oYR_HwPQdFSkeROVXQDOY=", "properties": {"ref": "3289912136471669", "fax": null, "@spider": "howardhanna", "addr:full": "Allen Tate Realtors 1616 NC 68 Oak Ridge, NC 27310", "name": "Oak Ridge Highway 68 Office, NC", "phone": "(336) 644-1238", "website": "https://www.howardhanna.com/Office/Detail/Oak-Ridge-Highway-68/3289912136471669", "brand": "Howard Hanna"}, "geometry": {"type": "Point", "coordinates": [-79.98351, 36.16955]}},
{"type": "Feature", "id": "1PwCWvjAR7bl4SjuMd4d2mxS_Wg=", "properties": {"ref": "3289912313", "fax": null, "@spider": "howardhanna", "addr:full": "1616 NC 68 Oak Ridge, NC 27310", "name": "Oak Ridge Highway 68 Office, NC", "phone": "(336) 644-1238", "website": "https://www.howardhanna.com/Office/Detail/Oak-Ridge-Highway-68/3289912313", "brand": "Howard Hanna"}, "geometry": {"type": "Point", "coordinates": [-79.98348, 36.16961]}},
{"type": "Feature", "id": "Ic7VLbWBBuQOFgS7u2DvuNZYpOw=", "properties": {"ref": "328991267", "fax": "(336) 644-1237", "@spider": "howardhanna", "addr:full": "Allen Tate Realtors 2215 Oak Ridge Road Oak Ridge, NC 27310", "name": "Oak Ridge Commons Office, NC", "phone": "(336) 644-1238", "website": "https://www.howardhanna.com/Office/Detail/Oak-Ridge-Commons/328991267", "brand": "Howard Hanna"}, "geometry": {"type": "Point", "coordinates": [-79.98986, 36.17469]}},
{"type": "Feature", "id": "lNfVo-mbUvcxDSBdwJgU80y2vPA=", "properties": {"ref": "307609313018575", "fax": null, "@spider": "howardhanna", "addr:full": "Howard Hanna Rand Realty 46 South Broadway Nyack, NY 10960", "name": "Nyack Office, NY", "phone": "(845) 358-7310", "website": "https://www.howardhanna.com/Office/Detail/Nyack/307609313018575", "brand": "Howard Hanna"}, "geometry": {"type": "Point", "coordinates": [-73.91901, 41.08915]}},
{"type": "Feature", "id": "iCBmf5ChLoGBKwb9digE8lcJxBU=", "properties": {"ref": "001114", "fax": "(724) 863-8554", "@spider": "howardhanna", "addr:full": "9264 Route 30 Irwin, PA 15642", "name": "Norwin Office, PA", "phone": "(724) 863-3300", "website": "https://www.howardhanna.com/Office/Detail/Norwin/001114", "brand": "Howard Hanna"}, "geometry": {"type": "Point", "coordinates": [-79.69622, 40.32183]}},
{"type": "Feature", "id": "OXL71VGbgRXBpe28I8uS_dGkOew=", "properties": {"ref": "104101", "fax": "(607) 336-8085", "@spider": "howardhanna", "addr:full": "6095 State Highway 12 Norwich, NY 13815", "name": "Norwich Office, NY", "phone": "(607) 336-8080", "website": "https://www.howardhanna.com/Office/Detail/Norwich/104101", "brand": "Howard Hanna"}, "geometry": {"type": "Point", "coordinates": [-75.52554, 42.5471]}},
{"type": "Feature", "id": "KbMX5fhKAP68yxtd9nCGmcisyJk=", "properties": {"ref": "002801", "fax": null, "@spider": "howardhanna", "addr:full": "66 E. Main Street Norwalk, OH 44857", "name": "Norwalk Office, OH", "phone": "(567) 424-6185", "website": "https://www.howardhanna.com/Office/Detail/Norwalk/002801", "brand": "Howard Hanna"}, "geometry": {"type": "Point", "coordinates": [-82.61291, 41.24313]}},
{"type": "Feature", "id": "vdAJYaPuthMMxieLWJAVzdjm984=", "properties": {"ref": "10224", "fax": null, "@spider": "howardhanna", "addr:full": "122 Bridge Street Northville, NY 12134", "name": "Northville Office, NY", "phone": "(518) 863-8904", "website": "https://www.howardhanna.com/Office/Detail/Northville/10224", "brand": "Howard Hanna"}, "geometry": {"type": "Point", "coordinates": [-74.1731, 43.22553]}},
{"type": "Feature", "id": "_dWNWZaeDeyE54Fa46b5R1cUR8k=", "properties": {"ref": "00273", "fax": "(440) 971-5699", "@spider": "howardhanna", "addr:full": "9485 W. Sprague Road North Royalton, OH 44133", "name": "North Royalton - W. Sprague Road Office, OH", "phone": "(440) 971-5600", "website": "https://www.howardhanna.com/Office/Detail/North-Royalton-W-Sprague-Road/00273", "brand": "Howard Hanna"}, "geometry": {"type": "Point", "coordinates": [-81.75916, 41.35045]}},
{"type": "Feature", "id": "v8YkKkq4Qnee0Us7VTmZ52g-pBA=", "properties": {"ref": "00212", "fax": "(440) 777-9678", "@spider": "howardhanna", "addr:full": "28253 Lorain Rd. North Olmsted, OH 44070", "name": "North Olmsted Office, OH", "phone": "(440) 777-2000", "website": "https://www.howardhanna.com/Office/Detail/North-Olmsted/00212", "brand": "Howard Hanna"}, "geometry": {"type": "Point", "coordinates": [-81.93509, 41.40987]}},
{"type": "Feature", "id": "N97f4X5bjvRcDInkf60DLQDMGxs=", "properties": {"ref": "001203", "fax": "(412) 369-0514", "@spider": "howardhanna", "addr:full": "8413 Perry Highway Pittsburgh, PA 15237", "name": "North Hills Office, PA", "phone": "(412) 366-3100", "website": "https://www.howardhanna.com/Office/Detail/North-Hills/001203", "brand": "Howard Hanna"}, "geometry": {"type": "Point", "coordinates": [-80.0397, 40.55918]}},
{"type": "Feature", "id": "N_0ZkSRXXOZ92HzGQl6OfSwXpG8=", "properties": {"ref": "013158", "fax": null, "@spider": "howardhanna", "addr:full": "3452 York Commons Blvd. Dayton, OH 45414", "name": "North Dayton Office, OH", "phone": "(937) 890-8688", "website": "https://www.howardhanna.com/Office/Detail/North-Dayton/013158", "brand": "Howard Hanna"}, "geometry": {"type": "Point", "coordinates": [-84.19656, 39.84418]}},
{"type": "Feature", "id": "KTm6pvPHDhR0YZ1_T9bgaArqNzI=", "properties": {"ref": "1022", "fax": "(518) 370-5797", "@spider": "howardhanna", "addr:full": "480 Balltown Rd., Suite 2 Schenectady , NY 12304", "name": "Niskayuna/Schenectady Office, NY", "phone": "(518) 370-3170", "website": "https://www.howardhanna.com/Office/Detail/Niskayuna-Schenectady/1022", "brand": "Howard Hanna"}, "geometry": {"type": "Point", "coordinates": [-73.89114, 42.77719]}},
{"type": "Feature", "id": "NWIpLiypqtcDIZeXvLyjQdzXvUc=", "properties": {"ref": "013157", "fax": null, "@spider": "howardhanna", "addr:full": "153 W. Main St. Suite C Newcomerstown, OH 43832", "name": "Newcomerstown Office, OH", "phone": "(740) 202-0258", "website": "https://www.howardhanna.com/Office/Detail/Newcomerstown/013157", "brand": "Howard Hanna"}, "geometry": {"type": "Point", "coordinates": [-81.60785, 40.27528]}},
{"type": "Feature", "id": "WguQRsFawjmJKfDdSW1raUhNTMc=", "properties": {"ref": "013156", "fax": null, "@spider": "howardhanna", "addr:full": "20 1/2 N Park Pl Newark, OH 43055", "name": "Newark - Kelly & Company Office, OH", "phone": "(740) 334-9777", "website": "https://www.howardhanna.com/Office/Detail/Newark-Kelly-Company/013156", "brand": "Howard Hanna"}, "geometry": {"type": "Point", "coordinates": [-82.40216, 40.05871]}},
{"type": "Feature", "id": "OKbrSri4BdUpfG0jvSV9qY1G5Mc=", "properties": {"ref": "111761", "fax": "(315) 331-2726", "@spider": "howardhanna", "addr:full": "165 E. Union St Newark, NY 14513", "name": "Newark Office, NY", "phone": "(315) 331-1111", "website": "https://www.howardhanna.com/Office/Detail/Newark/111761", "brand": "Howard Hanna"}, "geometry": {"type": "Point", "coordinates": [-77.09339, 43.04649]}},
{"type": "Feature", "id": "o05LaaGzRu5J3A5ef2j5P2_DVC4=", "properties": {"ref": "307609313019562", "fax": null, "@spider": "howardhanna", "addr:full": "Howard Hanna Rand Realty 819 Little Britain Road New Windsor, NY 12553", "name": "New Windsor Office, NY", "phone": "(845) 562-0050", "website": "https://www.howardhanna.com/Office/Detail/New-Windsor/307609313019562", "brand": "Howard Hanna"}, "geometry": {"type": "Point", "coordinates": [-74.07143, 41.48498]}},
{"type": "Feature", "id": "EjjoukFqSfe5XLmodaO7w6-ncL4=", "properties": {"ref": "307609313021536", "fax": null, "@spider": "howardhanna", "addr:full": "Howard Hanna Rand Realty 1315 North Avenue New Rochelle, NY 10804", "name": "New Rochelle Office, NY", "phone": "(914) 576-1112", "website": "https://www.howardhanna.com/Office/Detail/New-Rochelle/307609313021536", "brand": "Howard Hanna"}, "geometry": {"type": "Point", "coordinates": [-73.79537, 40.94675]}},
{"type": "Feature", "id": "uysf6GoO-Addi0FG_eeYUJ5mjTw=", "properties": {"ref": "013155", "fax": null, "@spider": "howardhanna", "addr:full": "128-A Front St New Richmond, OH 45157", "name": "New Richmond Office, OH", "phone": "(513) 718-8029", "website": "https://www.howardhanna.com/Office/Detail/New-Richmond/013155", "brand": "Howard Hanna"}, "geometry": {"type": "Point", "coordinates": [-84.28345, 38.95075]}},
{"type": "Feature", "id": "NgrEJD_nthq9RdzcecU8f9QWULc=", "properties": {"ref": "00285", "fax": "(330) 364-9549", "@spider": "howardhanna", "addr:full": "507 Wabash Avenue Northwest New Philadelphia, OH 44663", "name": "New Philadelphia Office, OH", "phone": "(330) 364-7761", "website": "https://www.howardhanna.com/Office/Detail/New-Philadelphia/00285", "brand": "Howard Hanna"}, "geometry": {"type": "Point", "coordinates": [-81.45422, 40.50468]}},
{"type": "Feature", "id": "AWhORkfbpwnk4W153GXnBVbZ_mw=", "properties": {"ref": "007712", "fax": "(757) 318-7004", "@spider": "howardhanna", "addr:full": "291 Independence Blvd., Pembroke 4, Suite 300 Virginia Beach, VA 23462", "name": "New Homes - Virginia/North Carolina Office, VA", "phone": "(757) 318-3803", "website": "https://www.howardhanna.com/Office/Detail/New-Homes-Virginia-North-Carolina/007712", "brand": "Howard Hanna"}, "geometry": {"type": "Point", "coordinates": [-76.13986, 36.8451]}},
{"type": "Feature", "id": "rHJjg4cuin4wZeBFKEsW6iBwCuQ=", "properties": {"ref": "307609313023510", "fax": null, "@spider": "howardhanna", "addr:full": "Howard Hanna Rand Realty 268 South Main Street New City, NY 10956", "name": "New City Office, NY", "phone": "(845) 634-1034", "website": "https://www.howardhanna.com/Office/Detail/New-City/307609313023510", "brand": "Howard Hanna"}, "geometry": {"type": "Point", "coordinates": [-73.99003, 41.13833]}},
{"type": "Feature", "id": "S2EDVCDqLIwz0Vtk6208xDDPr0M=", "properties": {"ref": "001401", "fax": "(724) 652-9942", "@spider": "howardhanna", "addr:full": "2900 Wilmington Road New Castle, PA 16105", "name": "New Castle Office, PA", "phone": "(724) 654-5555", "website": "https://www.howardhanna.com/Office/Detail/New-Castle/001401", "brand": "Howard Hanna"}, "geometry": {"type": "Point", "coordinates": [-80.35711, 41.04083]}},
{"type": "Feature", "id": "7B4NvLgEvyzav65vqytFDCns66Q=", "properties": {"ref": "013154", "fax": null, "@spider": "howardhanna", "addr:full": "5207 Hampstead Village Center Way New Albany, OH 43054", "name": "New Albany Office, OH", "phone": "(614) 855-8700", "website": "https://www.howardhanna.com/Office/Detail/New-Albany/013154", "brand": "Howard Hanna"}, "geometry": {"type": "Point", "coordinates": [-82.82563, 40.08965]}},
{"type": "Feature", "id": "zqo-jWa1VupD-wFrxS6BnW0Wo4A=", "properties": {"ref": "013153", "fax": null, "@spider": "howardhanna", "addr:full": "415 E Broad St Suite 113 Columbus, OH 43215", "name": "Neon Homes Office, OH", "phone": "(614) 516-1903", "website": "https://www.howardhanna.com/Office/Detail/Neon-Homes/013153", "brand": "Howard Hanna"}, "geometry": {"type": "Point", "coordinates": [-82.98934, 39.96309]}},
{"type": "Feature", "id": "t6EN8Agt8cxvaDKUgwKiSgrO_0E=", "properties": {"ref": "00288", "fax": "(419) 592-7021", "@spider": "howardhanna", "addr:full": "1006 Dodd Street Napoleon, OH 43545", "name": "Napoleon Office, OH", "phone": "(419) 592-7653", "website": "https://www.howardhanna.com/Office/Detail/Napoleon/00288", "brand": "Howard Hanna"}, "geometry": {"type": "Point", "coordinates": [-84.12852, 41.39408]}},
{"type": "Feature", "id": "vkbkpypTE7-zndtuw3WekilfJto=", "properties": {"ref": "004671", "fax": "(585) 374-6568", "@spider": "howardhanna", "addr:full": "Howard Hanna The Rohr Agency 139 S Main St Naples, NY 14512", "name": "Naples Office, NY", "phone": "(585) 374-6560", "website": "https://www.howardhanna.com/Office/Detail/Naples/004671", "brand": "Howard Hanna"}, "geometry": {"type": "Point", "coordinates": [-77.4036, 42.61412]}},
{"type": "Feature", "id": "q7gQ7_OBfNtWvukibay-5ivUEKI=", "properties": {"ref": "3289912817", "fax": null, "@spider": "howardhanna", "addr:full": "410 Executive Park Asheville, NC 28801", "name": "NAI Beverly-Hanks Commercial Office, NC", "phone": "(828) 210-3940", "website": "https://www.howardhanna.com/Office/Detail/NAI-Beverly-Hanks-Commercial/3289912817", "brand": "Howard Hanna"}, "geometry": {"type": "Point", "coordinates": [-82.54568, 35.59854]}},
{"type": "Feature", "id": "q_JuXI3OOneZ6kQ5Cu3eaKQ7xXk=", "properties": {"ref": "001108", "fax": "(724) 325-1564", "@spider": "howardhanna", "addr:full": "4115 William Penn Highway Murrysville, PA 15668", "name": "Murrysville Office, PA", "phone": "(724) 327-5161", "website": "https://www.howardhanna.com/Office/Detail/Murrysville/001108", "brand": "Howard Hanna"}, "geometry": {"type": "Point", "coordinates": [-79.68919, 40.4271]}},
{"type": "Feature", "id": "13ZY--xXFvebD0jyB0pMnqTb0cM=", "properties": {"ref": "004686", "fax": null, "@spider": "howardhanna", "addr:full": "Howard Hanna Bardell Realty 445 W Main Street Mt Pleasant, PA 15666", "name": "Mt. Pleasant Office, PA", "phone": "(724) 547-2170", "website": "https://www.howardhanna.com/Office/Detail/Mt-Pleasant/004686", "brand": "Howard Hanna"}, "geometry": {"type": "Point", "coordinates": [-79.5416, 40.14825]}},
{"type": "Feature", "id": "LaWG632wpevrmKPM5MmftG5qRRs=", "properties": {"ref": "001306", "fax": "(412) 561-7580", "@spider": "howardhanna", "addr:full": "701 Washington Road Pittsburgh, PA 15228", "name": "Mt. Lebanon Office, PA", "phone": "(412) 561-7400", "website": "https://www.howardhanna.com/Office/Detail/Mt-Lebanon/001306", "brand": "Howard Hanna"}, "geometry": {"type": "Point", "coordinates": [-80.04447, 40.38044]}},
{"type": "Feature", "id": "kKnqk1bcS_wdmAcjF2kaucZ7AQ0=", "properties": {"ref": "004670", "fax": "(419) 947-1145", "@spider": "howardhanna", "addr:full": "Howard Hanna J.C. Meyer Realtors 6174 Commerce Drive, Suite C Mt. Gilead, OH 43338", "name": "Mt. Gilead Office, OH", "phone": "(419) 947-1144", "website": "https://www.howardhanna.com/Office/Detail/Mt-Gilead/004670", "brand": "Howard Hanna"}, "geometry": {"type": "Point", "coordinates": [-82.71468, 40.49331]}},
{"type": "Feature", "id": "iD8kol5jM5tM-h1U0IPn_3TSuck=", "properties": {"ref": "013152", "fax": null, "@spider": "howardhanna", "addr:full": "1485 Yauger Rd,PO Box 1091 Mount Vernon, OH 43050", "name": "Mt Vernon Office, OH", "phone": "(740) 247-5065", "website": "https://www.howardhanna.com/Office/Detail/Mt-Vernon/013152", "brand": "Howard Hanna"}, "geometry": {"type": "Point", "coordinates": [-82.44475, 40.39645]}},
{"type": "Feature", "id": "DTGvaIJiSh_QDcE1mZ9USQC4-Ug=", "properties": {"ref": "013151", "fax": null, "@spider": "howardhanna", "addr:full": "309 North High St.,Ste B Mt Orab, OH 45154", "name": "Mt Orab Office, OH", "phone": "(937) 444-1771", "website": "https://www.howardhanna.com/Office/Detail/Mt-Orab/013151", "brand": "Howard Hanna"}, "geometry": {"type": "Point", "coordinates": [-83.91965, 39.03181]}},
{"type": "Feature", "id": "9qAZnBPCQIQypAZhhOeK91eanjI=", "properties": {"ref": "013150", "fax": null, "@spider": "howardhanna", "addr:full": "31 S Main Street Mount Gilead, OH 43338", "name": "Mount Gilead - The Detty Group Office, OH", "phone": "(419) 751-4051", "website": "https://www.howardhanna.com/Office/Detail/Mount-Gilead-The-Detty-Group/013150", "brand": "Howard Hanna"}, "geometry": {"type": "Point", "coordinates": [-82.75629, 40.54972]}},
{"type": "Feature", "id": "piQjyOfHeERFZyyrZlbAR-ORZyM=", "properties": {"ref": "328991246", "fax": "(704) 547-0225", "@spider": "howardhanna", "addr:full": "Allen Tate Realtors 6700 Fairview Road Charlotte, NC 28210", "name": "Mortgage Office, NC", "phone": "(704) 547-5600", "website": "https://www.howardhanna.com/Office/Detail/Mortgage/328991246", "brand": "Howard Hanna"}, "geometry": {"type": "Point", "coordinates": [-80.75204, 35.3057]}},
{"type": "Feature", "id": "iJESulOnU0eJVRwl694_NGeSW00=", "properties": {"ref": "307609313792383", "fax": null, "@spider": "howardhanna", "addr:full": "Howard Hanna Rand Realty 374 Speedwell Ave Morris Plains, NJ 07950", "name": "Morris Plains Office, NJ", "phone": "(973) 532-5727", "website": "https://www.howardhanna.com/Office/Detail/Morris-Plains/307609313792383", "brand": "Howard Hanna"}, "geometry": {"type": "Point", "coordinates": [-74.48116, 40.82361]}},
{"type": "Feature", "id": "jSFQhTAifO-zHP3Kx4w4CJcGBgE=", "properties": {"ref": "004600", "fax": "(304) 594-0118", "@spider": "howardhanna", "addr:full": "Howard Hanna Premier Properties by Barbara Alexander 2800 Cranberry Square Morgantown, WV 26508", "name": "Morgantown Office, WV", "phone": "(304) 594-0115", "website": "https://www.howardhanna.com/Office/Detail/Morgantown/004600", "brand": "Howard Hanna"}, "geometry": {"type": "Point", "coordinates": [-79.85526, 39.67162]}},
{"type": "Feature", "id": "uDnsN4JinVkKydyjPwzc1ztnxG8=", "properties": {"ref": "328991259", "fax": "(704) 664-9336", "@spider": "howardhanna", "addr:full": "Allen Tate Realtors 137 Center Square Drive, Suite D Mooresville, NC 28117", "name": "Mooresville/Lake Norman Office, NC", "phone": "(704) 664-9333", "website": "https://www.howardhanna.com/Office/Detail/Mooresville-Lake-Norman/328991259", "brand": "Howard Hanna"}, "geometry": {"type": "Point", "coordinates": [-80.87518, 35.59624]}},
{"type": "Feature", "id": "ENzedCMUTW1lIpOu4lN4OvTuBhg=", "properties": {"ref": "0014", "fax": "(570) 278-0519", "@spider": "howardhanna", "addr:full": "17606 SR 706, Suite A Montrose, PA 18801", "name": "Montrose Office, PA", "phone": "(570) 278-0505", "website": "https://www.howardhanna.com/Office/Detail/Montrose/0014", "brand": "Howard Hanna"}, "geometry": {"type": "Point", "coordinates": [-75.87624, 41.83186]}},
{"type": "Feature", "id": "96rXp-JqybSvL37dBKWW1diKrL8=", "properties": {"ref": "001118", "fax": "(412) 856-4721", "@spider": "howardhanna", "addr:full": "4321 Northern Pike Monroeville, PA 15146", "name": "Monroeville Office, PA", "phone": "(412) 856-8800", "website": "https://www.howardhanna.com/Office/Detail/Monroeville/001118", "brand": "Howard Hanna"}, "geometry": {"type": "Point", "coordinates": [-79.75137, 40.43463]}},
{"type": "Feature", "id": "kCMnszTu_00PKF-DjEni-iSZc0o=", "properties": {"ref": "005657", "fax": "(734) 243-2400", "@spider": "howardhanna", "addr:full": "912 North Telegraph Road Monroe, MI 48162", "name": "Monroe Office, MI", "phone": "(734) 243-5000", "website": "https://www.howardhanna.com/Office/Detail/Monroe/005657", "brand": "Howard Hanna"}, "geometry": {"type": "Point", "coordinates": [-83.40859, 41.93366]}},
{"type": "Feature", "id": "Ga233JUw1FWlISwoPnhB5zC2RBo=", "properties": {"ref": "013149", "fax": null, "@spider": "howardhanna", "addr:full": "263 West Main Street Loundonville, OH 44842", "name": "Mohican Office, OH", "phone": "(419) 920-4100", "website": "https://www.howardhanna.com/Office/Detail/Mohican/013149", "brand": "Howard Hanna"}, "geometry": {"type": "Point", "coordinates": [-82.23643, 40.63555]}},
{"type": "Feature", "id": "Q42k6C1gP5Bz9wCvDhjcPmPuK38=", "properties": {"ref": "013148", "fax": null, "@spider": "howardhanna", "addr:full": "1197 Glen Dr. Millersburg, OH 44654", "name": "Millersburg Office, OH", "phone": "(330) 674-7610", "website": "https://www.howardhanna.com/Office/Detail/Millersburg/013148", "brand": "Howard Hanna"}, "geometry": {"type": "Point", "coordinates": [-81.91464, 40.54121]}},
{"type": "Feature", "id": "Bj7B2EkTtYjE4XparufwoQbpbZ4=", "properties": {"ref": "013147", "fax": null, "@spider": "howardhanna", "addr:full": "1505 S. Breiel Blvd. Middletown, OH 45044", "name": "Middletown Office, OH", "phone": "(513) 423-6521", "website": "https://www.howardhanna.com/Office/Detail/Middletown/013147", "brand": "Howard Hanna"}, "geometry": {"type": "Point", "coordinates": [-84.35516, 39.49768]}},
{"type": "Feature", "id": "Sb5GSg5wEo8nobbQWWknat0rMuk=", "properties": {"ref": "013146", "fax": null, "@spider": "howardhanna", "addr:full": "583 S. 3rd Street Columbus, OH 43215", "name": "Metro Columbus Office, OH", "phone": "(614) 240-7400", "website": "https://www.howardhanna.com/Office/Detail/Metro-Columbus/013146", "brand": "Howard Hanna"}, "geometry": {"type": "Point", "coordinates": [-82.99588, 39.95042]}},
{"type": "Feature", "id": "sSP6u5irVTi53rVfYzuKk-1jFto=", "properties": {"ref": "00215", "fax": "(440) 255-7128", "@spider": "howardhanna", "addr:full": "8396 Mentor Ave Mentor, OH 44060", "name": "Mentor Office, OH", "phone": "(440) 974-9999", "website": "https://www.howardhanna.com/Office/Detail/Mentor/00215", "brand": "Howard Hanna"}, "geometry": {"type": "Point", "coordinates": [-81.34052, 41.6656]}},
{"type": "Feature", "id": "a0754CYFI5V3i1xWaLwHq6zIHGo=", "properties": {"ref": "111762", "fax": "(585) 624-3458", "@spider": "howardhanna", "addr:full": "9 W Main St Honeoye Falls, NY 14472", "name": "Mendon/Honeoye Falls Office, NY", "phone": "(585) 624-3370", "website": "https://www.howardhanna.com/Office/Detail/Mendon-Honeoye-Falls/111762", "brand": "Howard Hanna"}, "geometry": {"type": "Point", "coordinates": [-77.59151, 42.95277]}},
{"type": "Feature", "id": "RUbUVav30m2xOizXRpkHKpgpPsQ=", "properties": {"ref": "00265", "fax": "(330) 764-4925", "@spider": "howardhanna", "addr:full": "5164 Normandy Park Dr Medina, OH 44256", "name": "Medina - Normandy Park Drive Office, OH", "phone": "(330) 721-7355", "website": "https://www.howardhanna.com/Office/Detail/Medina-Normandy-Park-Drive/00265", "brand": "Howard Hanna"}, "geometry": {"type": "Point", "coordinates": [-81.801, 41.13494]}},
{"type": "Feature", "id": "4OA_d1wdtmtkRO0csKt_XCkxkyc=", "properties": {"ref": "00225", "fax": "(330) 722-2238", "@spider": "howardhanna", "addr:full": "3565 Medina Rd. Medina, OH 44256", "name": "Medina - Medina Road Office, OH", "phone": "(330) 725-4137", "website": "https://www.howardhanna.com/Office/Detail/Medina-Medina-Road/00225", "brand": "Howard Hanna"}, "geometry": {"type": "Point", "coordinates": [-81.81776, 41.13652]}},
{"type": "Feature", "id": "0qu_VJMQ107jJL2qAgt1OIBxZP4=", "properties": {"ref": "004663", "fax": "(814) 337-0153", "@spider": "howardhanna", "addr:full": "Howard Hanna Bainbridge Kaufman Real Estate 1103 Park Avenue Meadville, PA 16335", "name": "Meadville Office, PA", "phone": "(814) 724-1100", "website": "https://www.howardhanna.com/Office/Detail/Meadville/004663", "brand": "Howard Hanna"}, "geometry": {"type": "Point", "coordinates": [-80.15405, 41.6333]}},
{"type": "Feature", "id": "ZH0LGAdPStxiSq2tiZdH-Hjyv6U=", "properties": {"ref": "004618", "fax": "(412) 751-2207", "@spider": "howardhanna", "addr:full": "Howard Hanna Wilson Baum Real Estate 314 Long Run Road McKeesport, PA 15132", "name": "McKeesport Office, PA", "phone": "(412) 751-2200", "website": "https://www.howardhanna.com/Office/Detail/McKeesport/004618", "brand": "Howard Hanna"}, "geometry": {"type": "Point", "coordinates": [-79.83795, 40.32379]}},
{"type": "Feature", "id": "7Y5sO6TU-KLQl1-oP64L-p7EUrE=", "properties": {"ref": "013144", "fax": null, "@spider": "howardhanna", "addr:full": "229 Market St Maysville, KY 41056", "name": "Maysville Office, KY", "phone": "(606) 375-4881", "website": "https://www.howardhanna.com/Office/Detail/Maysville/013144", "brand": "Howard Hanna"}, "geometry": {"type": "Point", "coordinates": [-83.76519, 38.64716]}},
{"type": "Feature", "id": "dnaUz8AyBmC0xAtQ7g6f7O3EClA=", "properties": {"ref": "00220", "fax": "(440) 461-1540", "@spider": "howardhanna", "addr:full": "6501 Wilson Mills Road Mayfield Village, OH 44143", "name": "Mayfield Village Office, OH", "phone": "(440) 461-0100", "website": "https://www.howardhanna.com/Office/Detail/Mayfield-Village/00220", "brand": "Howard Hanna"}, "geometry": {"type": "Point", "coordinates": [-81.44453, 41.53938]}},
{"type": "Feature", "id": "LQA1I8IKM69ykL5eyGlKDo4sI-0=", "properties": {"ref": "00284", "fax": null, "@spider": "howardhanna", "addr:full": "1677 Lance Pointe Rd. Maumee, OH 43537", "name": "Maumee  Office, OH", "phone": "(419) 861-7700", "website": "https://www.howardhanna.com/Office/Detail/Maumee/00284", "brand": "Howard Hanna"}, "geometry": {"type": "Point", "coordinates": [-83.67129, 41.58582]}},
{"type": "Feature", "id": "ylPQiouBajSRVUx-k0WtR9os4tI=", "properties": {"ref": "32899127", "fax": "(704) 845-1708", "@spider": "howardhanna", "addr:full": "Allen Tate Realtors 101 East Matthews Street, Suite 100 Matthews, NC 28105", "name": "Matthews/Mint Hill Office, NC", "phone": "(704) 847-6400", "website": "https://www.howardhanna.com/Office/Detail/Matthews-Mint-Hill/32899127", "brand": "Howard Hanna"}, "geometry": {"type": "Point", "coordinates": [-80.71945, 35.11833]}},
{"type": "Feature", "id": "O309bHNyxX26BC9eh2IifY5rzPI=", "properties": {"ref": "328991271", "fax": "(704) 348-7034", "@spider": "howardhanna", "addr:full": "Allen Tate Realtors 201 McCullough Dr., Suite 140 Charlotte, NC 28262", "name": "Master Title Office, NC", "phone": "(704) 348-2866", "website": "https://www.howardhanna.com/Office/Detail/Master-Title/328991271", "brand": "Howard Hanna"}, "geometry": {"type": "Point", "coordinates": [-80.75426, 35.30028]}},
{"type": "Feature", "id": "0ePdYXIEkMO1LNoRuNUqMij_qMM=", "properties": {"ref": "004001", "fax": null, "@spider": "howardhanna", "addr:full": "Howard Hanna Real Estate Executives 100 E. Ash St. Mason, MI 48854", "name": "Mason Office, MI", "phone": "(517) 657-9100", "website": "https://www.howardhanna.com/Office/Detail/Mason/004001", "brand": "Howard Hanna"}, "geometry": {"type": "Point", "coordinates": [-84.44295, 42.57898]}},
{"type": "Feature", "id": "vR8d6e5Pc-Rg3WLzk5vy3325dbw=", "properties": {"ref": "013143", "fax": null, "@spider": "howardhanna", "addr:full": "1041 North Maple Marysville, OH 43040", "name": "Marysville Office, OH", "phone": "(937) 644-0047", "website": "https://www.howardhanna.com/Office/Detail/Marysville/013143", "brand": "Howard Hanna"}, "geometry": {"type": "Point", "coordinates": [-83.37314, 40.25054]}},
{"type": "Feature", "id": "_Me48yU3Ot1imVSL8H5o1Hy12PI=", "properties": {"ref": "013142", "fax": null, "@spider": "howardhanna", "addr:full": "132 1/2 S Main St Marion, OH 43302", "name": "Marion Office, OH", "phone": "(740) 513-8956", "website": "https://www.howardhanna.com/Office/Detail/Marion/013142", "brand": "Howard Hanna"}, "geometry": {"type": "Point", "coordinates": [-81.51657, 41.08478]}},
{"type": "Feature", "id": "Os0dlxleBRkkXXMNnSLiquU5dAI=", "properties": {"ref": "1079", "fax": "(315) 682-5973", "@spider": "howardhanna", "addr:full": "102 West Seneca Street, Suite 110 Manlius, NY 13104", "name": "Manlius Office, NY", "phone": "(315) 682-9500", "website": "https://www.howardhanna.com/Office/Detail/Manlius/1079", "brand": "Howard Hanna"}, "geometry": {"type": "Point", "coordinates": [-75.97938, 43.00081]}},
{"type": "Feature", "id": "mQRTI2A6oZalQeTXFSnjOlKhFCM=", "properties": {"ref": "00233", "fax": "(440) 428-7161", "@spider": "howardhanna", "addr:full": "2757 Hubbard Rd. Madison, OH 44057", "name": "Madison Office, OH", "phone": "(440) 428-1818", "website": "https://www.howardhanna.com/Office/Detail/Madison/00233", "brand": "Howard Hanna"}, "geometry": {"type": "Point", "coordinates": [-81.04832, 41.79933]}},
{"type": "Feature", "id": "16cY_Pu8VnUowbuW8nI59QRX0YE=", "properties": {"ref": "00237", "fax": "(330) 468-6861", "@spider": "howardhanna", "addr:full": "907 East Aurora Rd. Macedonia, OH 44056", "name": "Macedonia Office, OH", "phone": "(330) 468-6833", "website": "https://www.howardhanna.com/Office/Detail/Macedonia/00237", "brand": "Howard Hanna"}, "geometry": {"type": "Point", "coordinates": [-81.5056, 41.31425]}},
{"type": "Feature", "id": "uGW1S7OEra4CBXU07IG8mq6dLQo=", "properties": {"ref": "007711", "fax": "(757) 486-2705", "@spider": "howardhanna", "addr:full": "222 Mustang Trail Virginia Beach, VA 23452", "name": "Lynnhaven Office, VA", "phone": "(757) 486-2410", "website": "https://www.howardhanna.com/Office/Detail/Lynnhaven/007711", "brand": "Howard Hanna"}, "geometry": {"type": "Point", "coordinates": [-76.06779, 36.83947]}},
{"type": "Feature", "id": "-9wLDqlOQtgx7Bzxn1IFBNhGPx8=", "properties": {"ref": "10210", "fax": "(518) 438-6176", "@spider": "howardhanna", "addr:full": "471 Albany Shaker Rd Loudonville, NY 12211", "name": "Loudonville/Latham Office, NY", "phone": "(518) 438-4511", "website": "https://www.howardhanna.com/Office/Detail/Loudonville-Latham/10210", "brand": "Howard Hanna"}, "geometry": {"type": "Point", "coordinates": [-73.77917, 42.70839]}},
{"type": "Feature", "id": "EI8Q8u2PLwUqyTvRkuSZnOI19M0=", "properties": {"ref": "013140", "fax": null, "@spider": "howardhanna", "addr:full": "57 W High London, OH 43140", "name": "London Office, OH", "phone": "(740) 490-7411", "website": "https://www.howardhanna.com/Office/Detail/London/013140", "brand": "Howard Hanna"}, "geometry": {"type": "Point", "coordinates": [-83.45007, 39.8856]}},
{"type": "Feature", "id": "O2GPeLn-ZOMRM5VsMo9vqfpxIoM=", "properties": {"ref": "013139", "fax": null, "@spider": "howardhanna", "addr:full": "12886 Grey St Logan, OH 43138", "name": "Logan Office, OH", "phone": "(740) 385-1965", "website": "https://www.howardhanna.com/Office/Detail/Logan/013139", "brand": "Howard Hanna"}, "geometry": {"type": "Point", "coordinates": [-82.44695, 39.54184]}},
{"type": "Feature", "id": "6lC5q6HjYpXJ_MjUGmaj9wCdQJU=", "properties": {"ref": "1017", "fax": "(716) 434-6289", "@spider": "howardhanna", "addr:full": "5665 S Transit Rd Lockport, NY 14094", "name": "Lockport Office, NY", "phone": "(716) 434-8458", "website": "https://www.howardhanna.com/Office/Detail/Lockport/1017", "brand": "Howard Hanna"}, "geometry": {"type": "Point", "coordinates": [-78.6964, 43.15086]}},
{"type": "Feature", "id": "y5IqPgnNNjHF6Zff_4jAZskHaFs=", "properties": {"ref": "307609334755276", "fax": null, "@spider": "howardhanna", "addr:full": "Howard Hanna Rand Realty 58 East Mt. Pleasant Avenue Livingston, NJ 07039", "name": "Livingston Office, NJ", "phone": "(973) 740-1881", "website": "https://www.howardhanna.com/Office/Detail/Livingston/307609334755276", "brand": "Howard Hanna"}, "geometry": {"type": "Point", "coordinates": [-74.31276, 40.79618]}},
{"type": "Feature", "id": "wPnN_-f4IiBTxXRhOKGhs7f5Pco=", "properties": {"ref": "1072", "fax": "(315) 652-3468", "@spider": "howardhanna", "addr:full": "7840 Oswego Rd Liverpool, NY 13090", "name": "Liverpool Office, NY", "phone": "(315) 622-2111", "website": "https://www.howardhanna.com/Office/Detail/Liverpool/1072", "brand": "Howard Hanna"}, "geometry": {"type": "Point", "coordinates": [-76.2289, 43.15021]}},
{"type": "Feature", "id": "7GLq9wqMlgr0jINsObn-Nc-CBeA=", "properties": {"ref": "007710", "fax": "(757) 588-8796", "@spider": "howardhanna", "addr:full": "1208 E. Little Creek Road Norfolk, VA 23518", "name": "Little Creek Norfolk Office, VA", "phone": "(757) 588-0213", "website": "https://www.howardhanna.com/Office/Detail/Little-Creek-Norfolk/007710", "brand": "Howard Hanna"}, "geometry": {"type": "Point", "coordinates": [-76.23816, 36.91558]}},
{"type": "Feature", "id": "xR2hsCopMs5vYEmtsI14ChVxVcg=", "properties": {"ref": "307609339395163", "fax": null, "@spider": "howardhanna", "addr:full": "Howard Hanna Rand Realty 918 North Wood Avenue Linden, NJ 07036", "name": "Linden Office, NJ", "phone": "(908) 587-0090", "website": "https://www.howardhanna.com/Office/Detail/Linden/307609339395163", "brand": "Howard Hanna"}, "geometry": {"type": "Point", "coordinates": [-74.26302, 40.6368]}},
{"type": "Feature", "id": "tH0SV1gM2t-Q2Vt5upj4aCsAF1Y=", "properties": {"ref": "013137", "fax": null, "@spider": "howardhanna", "addr:full": "102 Devonshire Dr Lima, OH 45804", "name": "Lima Office, OH", "phone": "(419) 419-8560", "website": "https://www.howardhanna.com/Office/Detail/Lima/013137", "brand": "Howard Hanna"}, "geometry": {"type": "Point", "coordinates": [-84.05709, 40.73125]}},
{"type": "Feature", "id": "Gp1d9Sr7UJGIIO-iOXApOwz5_zo=", "properties": {"ref": "001113", "fax": "(724) 238-9760", "@spider": "howardhanna", "addr:full": "610 West Main St Ligonier, PA 15658", "name": "Ligonier Office, PA", "phone": "(724) 238-9099", "website": "https://www.howardhanna.com/Office/Detail/Ligonier/001113", "brand": "Howard Hanna"}, "geometry": {"type": "Point", "coordinates": [-79.24538, 40.24819]}},
{"type": "Feature", "id": "rxdstypWTdostywKYH-TEu78wOk=", "properties": {"ref": "10114", "fax": "(716) 754-9352", "@spider": "howardhanna", "addr:full": "505 Center St Lewiston, NY 14092", "name": "Lewiston Office, NY", "phone": "(716) 754-8995", "website": "https://www.howardhanna.com/Office/Detail/Lewiston/10114", "brand": "Howard Hanna"}, "geometry": {"type": "Point", "coordinates": [-79.04096, 43.1725]}},
{"type": "Feature", "id": "zNHQ_9M63If9aTlMLnkXbGg43wA=", "properties": {"ref": "013136", "fax": null, "@spider": "howardhanna", "addr:full": "125 S Belmore St Leipsic, OH 45856", "name": "Leipsic Office, OH", "phone": "(937) 489-0388", "website": "https://www.howardhanna.com/Office/Detail/Leipsic/013136", "brand": "Howard Hanna"}, "geometry": {"type": "Point", "coordinates": [-83.98384, 41.09878]}},
{"type": "Feature", "id": "ve5ZHsacvsW73NfSSbdmAfj04Sc=", "properties": {"ref": "004652", "fax": "(610) 398-7294", "@spider": "howardhanna", "addr:full": "Howard Hanna The Frederick Group 3500 Winchester Rd., Suite #201 Allentown, PA 18104", "name": "Lehigh Valley Office, PA", "phone": "(610) 398-0411", "website": "https://www.howardhanna.com/Office/Detail/Lehigh-Valley/004652", "brand": "Howard Hanna"}, "geometry": {"type": "Point", "coordinates": [-75.53858, 40.61018]}},
{"type": "Feature", "id": "fQrb1qjjjlhR5A9TIRbYiLNbosQ=", "properties": {"ref": "004662", "fax": "(717) 273-3085", "@spider": "howardhanna", "addr:full": "Howard Hanna Krall Real Estate 1640 Cornwall Road Lebanon, PA 17042", "name": "Lebanon Krall Office, PA", "phone": "(717) 273-1631", "website": "https://www.howardhanna.com/Office/Detail/Lebanon-Krall/004662", "brand": "Howard Hanna"}, "geometry": {"type": "Point", "coordinates": [-76.41758, 40.31495]}},
{"type": "Feature", "id": "u3BK00c7XHkP9P5DCJnvic6dDMc=", "properties": {"ref": "001105", "fax": null, "@spider": "howardhanna", "addr:full": "3429 Butler Street Pittsburgh, PA 15201", "name": "Lawrenceville - City Living  Office, PA", "phone": "(412) 967-2900", "website": "https://www.howardhanna.com/Office/Detail/Lawrenceville-City-Living/001105", "brand": "Howard Hanna"}, "geometry": {"type": "Point", "coordinates": [-79.96706, 40.46316]}},
{"type": "Feature", "id": "u6boJ4RHjKeoURmGIAOf2LO31ok=", "properties": {"ref": "007709", "fax": "(757) 428-7815", "@spider": "howardhanna", "addr:full": "1321 Laskin Road Virginia Beach, VA 23451", "name": "Laskin Office, VA", "phone": "(757) 428-3516", "website": "https://www.howardhanna.com/Office/Detail/Laskin/007709", "brand": "Howard Hanna"}, "geometry": {"type": "Point", "coordinates": [-76.00477, 36.85181]}},
{"type": "Feature", "id": "ZhPMypqizzPDIQKQBwJQOj7xagU=", "properties": {"ref": "004675", "fax": null, "@spider": "howardhanna", "addr:full": "Howard Hanna Real Estate Executives 2101 N Aurelius Rd Holt, MI 48842", "name": "Lansing Office, MI", "phone": "(517) 657-9100", "website": "https://www.howardhanna.com/Office/Detail/Lansing/004675", "brand": "Howard Hanna"}, "geometry": {"type": "Point", "coordinates": [-84.5239, 42.64266]}},
{"type": "Feature", "id": "kE9YCUBxT8cGcmX5D-svIevFHP0=", "properties": {"ref": "328991225", "fax": "(803) 286-4668", "@spider": "howardhanna", "addr:full": "Allen Tate Realtors 1084 Camp Creek Road, Suite 400 Lancaster, SC 29720", "name": "Lancaster Office, SC", "phone": "(803) 286-4663", "website": "https://www.howardhanna.com/Office/Detail/Lancaster/328991225", "brand": "Howard Hanna"}, "geometry": {"type": "Point", "coordinates": [-80.75665, 34.73002]}},
{"type": "Feature", "id": "bPcPmpa0k1DLNBuXB1VYY7qa04I=", "properties": {"ref": "013135", "fax": null, "@spider": "howardhanna", "addr:full": "1746 N. Memorial Dr. Lancaster, OH 43130", "name": "Lancaster Office, OH", "phone": "(740) 687-1516", "website": "https://www.howardhanna.com/Office/Detail/Lancaster/013135", "brand": "Howard Hanna"}, "geometry": {"type": "Point", "coordinates": [-82.61732, 39.73236]}},
{"type": "Feature", "id": "4NR3gXpcwHfB6SYS9tzVDQIKO4M=", "properties": {"ref": "10112", "fax": "(716) 656-8698", "@spider": "howardhanna", "addr:full": "4909 Transit Rd Depew, NY 14043", "name": "Lancaster Office, NY", "phone": "(716) 656-8999", "website": "https://www.howardhanna.com/Office/Detail/Lancaster/10112", "brand": "Howard Hanna"}, "geometry": {"type": "Point", "coordinates": [-78.69606, 42.87765]}},
{"type": "Feature", "id": "_RXfUlP_wnbRvHfdzNgyrB5GOOs=", "properties": {"ref": "001159", "fax": "(717) 397-1819", "@spider": "howardhanna", "addr:full": "1580 Fruitville Pike Lancaster, PA 17601", "name": "Lancaster Office, PA", "phone": "(717) 392-0200", "website": "https://www.howardhanna.com/Office/Detail/Lancaster/001159", "brand": "Howard Hanna"}, "geometry": {"type": "Point", "coordinates": [-76.31565, 40.06522]}},
{"type": "Feature", "id": "7VmDYhQhH3nRaSguMmZT4e4UNps=", "properties": {"ref": "00226", "fax": "(216) 221-1956", "@spider": "howardhanna", "addr:full": "1495 Warren Road Lakewood, OH 44107", "name": "Lakewood Office, OH", "phone": "(216) 221-6585", "website": "https://www.howardhanna.com/Office/Detail/Lakewood/00226", "brand": "Howard Hanna"}, "geometry": {"type": "Point", "coordinates": [-81.79932, 41.48246]}},
{"type": "Feature", "id": "hrbaIQwySA7J7fW1-KMS0MgL6G8=", "properties": {"ref": "328991222", "fax": "(803) 831-9102", "@spider": "howardhanna", "addr:full": "Allen Tate Realtors 1000 Village Harbor Drive Lake Wylie, SC 29710", "name": "Lake Wylie Office, SC", "phone": "(803) 831-1185", "website": "https://www.howardhanna.com/Office/Detail/Lake-Wylie/328991222", "brand": "Howard Hanna"}, "geometry": {"type": "Point", "coordinates": [-81.07396, 35.11586]}},
{"type": "Feature", "id": "E9A78TMeKFlVI8nUgybw-tfau9Q=", "properties": {"ref": "3289912410", "fax": null, "@spider": "howardhanna", "addr:full": "Allen Tate Realtors 128 Lake Royale Louisburg, NC 27549", "name": "Lake Royale/Wake Forest Office, NC", "phone": "(252) 478-5608", "website": "https://www.howardhanna.com/Office/Detail/Lake-Royale-Wake-Forest/3289912410", "brand": "Howard Hanna"}, "geometry": {"type": "Point", "coordinates": [-78.2112, 35.99172]}},
{"type": "Feature", "id": "0JZZ3Qk_pTwPG4WgYKnpkXZ4qz8=", "properties": {"ref": "32899125", "fax": "(704) 896-8289", "@spider": "howardhanna", "addr:full": "Allen Tate Realtors 19460 Old Jetton Road Cornelius, NC 28031", "name": "Lake Norman Office, NC", "phone": "(704) 896-8283", "website": "https://www.howardhanna.com/Office/Detail/Lake-Norman/32899125", "brand": "Howard Hanna"}, "geometry": {"type": "Point", "coordinates": [-80.89165, 35.47763]}},
{"type": "Feature", "id": "vvphz0jNidhhboc1YpekEaTkUbw=", "properties": {"ref": "3289912810", "fax": null, "@spider": "howardhanna", "addr:full": "1518 Memorial Hwy Lake Lure, NC 28746", "name": "Lake Lure Office, NC", "phone": "(828) 436-5120", "website": "https://www.howardhanna.com/Office/Detail/Lake-Lure/3289912810", "brand": "Howard Hanna"}, "geometry": {"type": "Point", "coordinates": [-82.20002, 35.42451]}},
{"type": "Feature", "id": "Ocj8B5B85cjZtGg_aRKXQqD1AOA=", "properties": {"ref": "3289912103", "fax": null, "@spider": "howardhanna", "addr:full": "Allen Tate Realtors 1209C Stamp Creek Road Salem, SC 29676", "name": "Lake Keowee North Office, SC", "phone": "(864) 944-2400", "website": "https://www.howardhanna.com/Office/Detail/Lake-Keowee-North/3289912103", "brand": "Howard Hanna"}, "geometry": {"type": "Point", "coordinates": [-82.9174, 34.82564]}},
{"type": "Feature", "id": "EcnPwzkhU9IktBO9qFmuMYiVH9k=", "properties": {"ref": "3289912105", "fax": "(864) 888-2596", "@spider": "howardhanna", "addr:full": "Allen Tate Realtors 402 Cane Creek Landing Road Seneca, SC 29672", "name": "Lake Keowee - West Office, SC", "phone": "(864) 888-2258", "website": "https://www.howardhanna.com/Office/Detail/Lake-Keowee-West/3289912105", "brand": "Howard Hanna"}, "geometry": {"type": "Point", "coordinates": [-82.98565, 34.72895]}},
{"type": "Feature", "id": "sgvGzru1poHuwGZxQRoQipP5ihI=", "properties": {"ref": "3289912106", "fax": "(864) 885-0400", "@spider": "howardhanna", "addr:full": "Allen Tate Realtors 906 Bypass 123 Seneca, SC 29678", "name": "Lake Keowee - Seneca Office, SC", "phone": "(864) 882-1166", "website": "https://www.howardhanna.com/Office/Detail/Lake-Keowee-Seneca/3289912106", "brand": "Howard Hanna"}, "geometry": {"type": "Point", "coordinates": [-82.96754, 34.69772]}},
{"type": "Feature", "id": "GGW6eFxFkg5yN4u_ku1He9G581A=", "properties": {"ref": "001210", "fax": "(724) 842-0347", "@spider": "howardhanna", "addr:full": "451 Hyde Park Rd Leechburg, PA 15656", "name": "Kiski Valley Office, PA", "phone": "(724) 842-2200", "website": "https://www.howardhanna.com/Office/Detail/Kiski-Valley/001210", "brand": "Howard Hanna"}, "geometry": {"type": "Point", "coordinates": [-79.60701, 40.60522]}},
{"type": "Feature", "id": "LcYonxdus_tTsKKSHMkEW1-jmm8=", "properties": {"ref": "307609367029189", "fax": null, "@spider": "howardhanna", "addr:full": "Howard Hanna Rand Realty 304 Wall Street Kingston, NY 12401", "name": "Kingston Office, NY", "phone": "(845) 338-5252", "website": "https://www.howardhanna.com/Office/Detail/Kingston/307609367029189", "brand": "Howard Hanna"}, "geometry": {"type": "Point", "coordinates": [-74.01948, 41.93411]}},
{"type": "Feature", "id": "H3cIQkWjNMvB4ggmUw51tH9aGoQ=", "properties": {"ref": "3289912113", "fax": "(336) 245-4199", "@spider": "howardhanna", "addr:full": "Allen Tate Realtors 135 Church Lane Kernersville, NC 27284", "name": "Kernersville Office, NC", "phone": "(336) 310-5554", "website": "https://www.howardhanna.com/Office/Detail/Kernersville/3289912113", "brand": "Howard Hanna"}, "geometry": {"type": "Point", "coordinates": [-80.07173, 36.11988]}},
{"type": "Feature", "id": "DBqQxRcKUlzOEvjEgb1eVlZ72qo=", "properties": {"ref": "004660", "fax": "(814) 837-8455", "@spider": "howardhanna", "addr:full": "Howard Hanna Professionals 30 Fraley Street Kane, PA 16735", "name": "Kane Office, PA", "phone": "(814) 837-8540", "website": "https://www.howardhanna.com/Office/Detail/Kane/004660", "brand": "Howard Hanna"}, "geometry": {"type": "Point", "coordinates": [-78.81075, 41.65971]}},
{"type": "Feature", "id": "0BWJCGL5LMJhW7emI6FCfz9o9fw=", "properties": {"ref": "10222", "fax": null, "@spider": "howardhanna", "addr:full": "3 Church Street, Suites 1 and 2 Johnstown, NY 12095", "name": "Johnstown Office, NY", "phone": "(518) 762-8001", "website": "https://www.howardhanna.com/Office/Detail/Johnstown/10222", "brand": "Howard Hanna"}, "geometry": {"type": "Point", "coordinates": [-74.37338, 43.00703]}},
{"type": "Feature", "id": "Tjin3pj2hMIjCwqfR_EJeXHxlL4=", "properties": {"ref": "013134", "fax": null, "@spider": "howardhanna", "addr:full": "68 South Main Street Johnstown, OH 43031", "name": "Johnstown Office, OH", "phone": "(614) 563-6114", "website": "https://www.howardhanna.com/Office/Detail/Johnstown/013134", "brand": "Howard Hanna"}, "geometry": {"type": "Point", "coordinates": [-82.68363, 40.1528]}},
{"type": "Feature", "id": "Ce7lcJ7OFxX6YJl6Z9zp85BgAQ0=", "properties": {"ref": "307609364611039", "fax": null, "@spider": "howardhanna", "addr:full": "Howard Hanna Rand Realty 930 Newark Avenue Jersey City, NJ 07306", "name": "Jersey City - Journal Square Office, NJ", "phone": "(201) 420-4200", "website": "https://www.howardhanna.com/Office/Detail/Jersey-City-Journal-Square/307609364611039", "brand": "Howard Hanna"}, "geometry": {"type": "Point", "coordinates": [-74.0705, 40.73717]}},
{"type": "Feature", "id": "gX9gl9Q2Cw-J0jcsUOC_FPoQdnc=", "properties": {"ref": "307609333849210", "fax": null, "@spider": "howardhanna", "addr:full": "Howard Hanna Rand Realty 553 Jersey Avenue Jersey City, NJ 07302", "name": "Jersey City Office, NJ", "website": "https://www.howardhanna.com/Office/Detail/Jersey-City/307609333849210", "brand": "Howard Hanna"}, "geometry": {"type": "Point", "coordinates": [-74.04624, 40.72231]}},
{"type": "Feature", "id": "pZc_CHZ8UJEyb08In155vOAw5Bw=", "properties": {"ref": "004649", "fax": "(716) 484-4041", "@spider": "howardhanna", "addr:full": "Howard Hanna Holt Real Estate 341-343 East Fairmount Ave, Suite 3 Lakewood, NY 14750", "name": "Jamestown/Lakewood Office, NY", "phone": "(716) 484-4040", "website": "https://www.howardhanna.com/Office/Detail/Jamestown-Lakewood/004649", "brand": "Howard Hanna"}, "geometry": {"type": "Point", "coordinates": [-79.30143, 42.09956]}},
{"type": "Feature", "id": "qQS9HkwlrSGNvdrGrTWrdrUxsr8=", "properties": {"ref": "004651", "fax": "(724) 932-2133", "@spider": "howardhanna", "addr:full": "Howard Hanna Bainbridge Kaufman Real Estate 401 Liberty Street Jamestown, PA 16134", "name": "Jamestown Office, PA", "phone": "(724) 932-2131", "website": "https://www.howardhanna.com/Office/Detail/Jamestown/004651", "brand": "Howard Hanna"}, "geometry": {"type": "Point", "coordinates": [-80.43742, 41.48442]}},
{"type": "Feature", "id": "Z812rsis5q3qjBW580Z5Y2WLwf0=", "properties": {"ref": "013133", "fax": null, "@spider": "howardhanna", "addr:full": "237 E Main St Jackson, OH 45640", "name": "Jackson - McNerlin Network Team Office, OH", "website": "https://www.howardhanna.com/Office/Detail/Jackson-McNerlin-Network-Team/013133", "brand": "Howard Hanna"}, "geometry": {"type": "Point", "coordinates": [-82.69154, 39.05024]}},
{"type": "Feature", "id": "jXSldrfUhh5YywmTjph8CxiXSLk=", "properties": {"ref": "005656", "fax": "(517) 788-7913", "@spider": "howardhanna", "addr:full": "2131 Ferguson Road Jackson, MI 49203", "name": "Jackson Office, MI", "phone": "(517) 787-9800", "website": "https://www.howardhanna.com/Office/Detail/Jackson/005656", "brand": "Howard Hanna"}, "geometry": {"type": "Point", "coordinates": [-84.44032, 42.19763]}},
{"type": "Feature", "id": "2ADVb-zgHWRNHpyjPraouzWqYmc=", "properties": {"ref": "00281", "fax": "(330) 830-0973", "@spider": "howardhanna", "addr:full": "6722 Wales Ave. NW Massillon, OH 44646", "name": "Jackson Office, OH", "phone": "(330) 830-0969", "website": "https://www.howardhanna.com/Office/Detail/Jackson/00281", "brand": "Howard Hanna"}, "geometry": {"type": "Point", "coordinates": [-81.47928, 40.87852]}},
{"type": "Feature", "id": "6paIh7LG7FsaXqHXcd4yEE_1hPE=", "properties": {"ref": "104106", "fax": "(607) 257-1423", "@spider": "howardhanna", "addr:full": "2333 North Triphammer Rd Ithaca - Triphammer, NY 14850", "name": "Ithaca - Triphammer Road Office, NY", "phone": "(607) 257-0800", "website": "https://www.howardhanna.com/Office/Detail/Ithaca-Triphammer-Road/104106", "brand": "Howard Hanna"}, "geometry": {"type": "Point", "coordinates": [-76.48469, 42.48444]}},
{"type": "Feature", "id": "PKQuawtvx-IcbXLzTihqOqaHD4c=", "properties": {"ref": "104107", "fax": "(607) 273-2080", "@spider": "howardhanna", "addr:full": "710 Hancock St Ithaca - Hancock Street, NY 14850", "name": "Ithaca - Hancock Street Office, NY", "phone": "(607) 257-0800", "website": "https://www.howardhanna.com/Office/Detail/Ithaca-Hancock-Street/104107", "brand": "Howard Hanna"}, "geometry": {"type": "Point", "coordinates": [-76.50813, 42.44544]}},
{"type": "Feature", "id": "NoJXLJWMCa_fcuMz5jUa38oZz1g=", "properties": {"ref": "111747", "fax": "(585) 266-1762", "@spider": "howardhanna", "addr:full": "425 Titus Ave Rochester, NY 14617", "name": "Irondequoit Office, NY", "phone": "(585) 266-5560", "website": "https://www.howardhanna.com/Office/Detail/Irondequoit/111747", "brand": "Howard Hanna"}, "geometry": {"type": "Point", "coordinates": [-77.60532, 43.2102]}},
{"type": "Feature", "id": "Ip8ITGhUr1WeW6x5_W6t7m2yZf4=", "properties": {"ref": "328991247", "fax": "(704) 547-9411", "@spider": "howardhanna", "addr:full": "Allen Tate Realtors 6207 Park South Drive, Suite 201 Charlotte, NC 28210", "name": "Insurance Office, NC", "phone": "(704) 547-5656", "website": "https://www.howardhanna.com/Office/Detail/Insurance/328991247", "brand": "Howard Hanna"}, "geometry": {"type": "Point", "coordinates": [-80.84293, 35.14689]}},
{"type": "Feature", "id": "0Ow5JxfNzkqgNbVAPydYspZNanU=", "properties": {"ref": "004669", "fax": null, "@spider": "howardhanna", "addr:full": "Howard Hanna Kuzneski & Lockard Real Estate 101 Heritage Run Rd Indiana, PA 15701", "name": "Indiana Office, PA", "phone": "(724) 349-1924", "website": "https://www.howardhanna.com/Office/Detail/Indiana/004669", "brand": "Howard Hanna"}, "geometry": {"type": "Point", "coordinates": [-79.18066, 40.62283]}},
{"type": "Feature", "id": "0950dkAVvPwkLvxeMKQeF5UKCK0=", "properties": {"ref": "3289912100", "fax": "(803) 548-1190", "@spider": "howardhanna", "addr:full": "Allen Tate Realtors 8356 Charlotte Hwy #101 Indian Land, SC 29707", "name": "Indian Land Office, SC", "phone": "(803) 547-1250", "website": "https://www.howardhanna.com/Office/Detail/Indian-Land/3289912100", "brand": "Howard Hanna"}, "geometry": {"type": "Point", "coordinates": [-80.84937, 34.95572]}},
{"type": "Feature", "id": "_1945AClrU6-K0s7XLRq6Lg8-8Y=", "properties": {"ref": "328991251", "fax": "(704) 992-0761", "@spider": "howardhanna", "addr:full": "Allen Tate Realtors 14225 Market Square Drive Huntersville, NC 28078", "name": "Huntersville Office, NC", "phone": "(704) 949-1300", "website": "https://www.howardhanna.com/Office/Detail/Huntersville/328991251", "brand": "Howard Hanna"}, "geometry": {"type": "Point", "coordinates": [-80.86481, 35.40735]}},
{"type": "Feature", "id": "IoroEA38KHfOHdJ9aoiQ3LNHkR4=", "properties": {"ref": "00216", "fax": "(330) 656-4048", "@spider": "howardhanna", "addr:full": "122 North Main St. Hudson, OH 44236", "name": "Hudson Office, OH", "phone": "(330) 656-3340", "website": "https://www.howardhanna.com/Office/Detail/Hudson/00216", "brand": "Howard Hanna"}, "geometry": {"type": "Point", "coordinates": [-81.4407, 41.24167]}},
{"type": "Feature", "id": "oLci8xCRAfhvLGNyadjkvAU3gvk=", "properties": {"ref": "002444", "fax": "(330) 856-2460", "@spider": "howardhanna", "addr:full": "223 Niles Cortland Road Warren, OH 44484", "name": "Howland Office, OH", "phone": "(330) 856-7600", "website": "https://www.howardhanna.com/Office/Detail/Howland/002444", "brand": "Howard Hanna"}, "geometry": {"type": "Point", "coordinates": [-80.74049, 41.23685]}},
{"type": "Feature", "id": "wYZXYtVNqcms5I-CWptYOpX38Tc=", "properties": {"ref": "104109", "fax": "(607) 739-1887", "@spider": "howardhanna", "addr:full": "2783 Westinghouse Rd Horseheads, NY 14845", "name": "Horseheads Office, NY", "phone": "(607) 739-1444", "website": "https://www.howardhanna.com/Office/Detail/Horseheads/104109", "brand": "Howard Hanna"}, "geometry": {"type": "Point", "coordinates": [-76.84063, 42.16931]}},
{"type": "Feature", "id": "HRhjk46rC0LY57j5Jr6kFVgxZY4=", "properties": {"ref": "111772", "fax": "(607) 352-5001", "@spider": "howardhanna", "addr:full": "83 Main St Hornell, NY 14843", "name": "Hornell Office, NY", "phone": "(607) 352-5000", "website": "https://www.howardhanna.com/Office/Detail/Hornell/111772", "brand": "Howard Hanna"}, "geometry": {"type": "Point", "coordinates": [-77.66165, 42.32763]}},
{"type": "Feature", "id": "qPAoMVctOCa8JT5PSGUKwSJup2Y=", "properties": {"ref": "111775", "fax": "(585) 229-2017", "@spider": "howardhanna", "addr:full": "8733 Main St Honeoye, NY 14471", "name": "Honeoye Lake Office, NY", "phone": "(585) 229-4769", "website": "https://www.howardhanna.com/Office/Detail/Honeoye-Lake/111775", "brand": "Howard Hanna"}, "geometry": {"type": "Point", "coordinates": [-77.51653, 42.78979]}},
{"type": "Feature", "id": "HQqGX_lcGHXayqgfYWcMCfNr1Cw=", "properties": {"ref": "307609313793370", "fax": null, "@spider": "howardhanna", "addr:full": "Howard Hanna Rand Realty 209 Washington Street Hoboken, NJ 07030", "name": "Hoboken Office, NJ", "phone": "(201) 653-3933", "website": "https://www.howardhanna.com/Office/Detail/Hoboken/307609313793370", "brand": "Howard Hanna"}, "geometry": {"type": "Point", "coordinates": [-74.03013, 40.73906]}},
{"type": "Feature", "id": "J2x4khSjqTIYP-eEd9lXl6o2D9Y=", "properties": {"ref": "013132", "fax": null, "@spider": "howardhanna", "addr:full": "3499 Main Street Hilliard, OH 43026", "name": "Hilliard Office, OH", "phone": "(614) 771-7400", "website": "https://www.howardhanna.com/Office/Detail/Hilliard/013132", "brand": "Howard Hanna"}, "geometry": {"type": "Point", "coordinates": [-83.17562, 40.01616]}},
{"type": "Feature", "id": "S8ZsB2OQN_B5YhdRdLRRXbpO6bw=", "properties": {"ref": "3289912701", "fax": "(828) 220-4155", "@spider": "howardhanna", "addr:full": "295 Dillard Road Highlands, NC 28741", "name": "Highlands-Downtown Office, NC", "phone": "(828) 526-8784", "website": "https://www.howardhanna.com/Office/Detail/Highlands-Downtown/3289912701", "brand": "Howard Hanna"}, "geometry": {"type": "Point", "coordinates": [-83.20594, 35.05215]}},
{"type": "Feature", "id": "bLW-KWWxgI7SarXilIw7KQYClbA=", "properties": {"ref": "328991234", "fax": "(336) 883-1838", "@spider": "howardhanna", "addr:full": "Allen Tate Realtors 1400 Eastchester Drive High Point, NC 27265", "name": "High Point Office, NC", "phone": "(336) 883-0069", "website": "https://www.howardhanna.com/Office/Detail/High-Point/328991234", "brand": "Howard Hanna"}, "geometry": {"type": "Point", "coordinates": [-79.99414, 35.99729]}},
{"type": "Feature", "id": "eFSBtB3xGXJDOmITkwZil4s727I=", "properties": {"ref": "001154", "fax": "(717) 520-1385", "@spider": "howardhanna", "addr:full": "1249 Cocoa Avenue, Suite 101 Hershey, PA 17033", "name": "Hershey Office, PA", "phone": "(717) 520-0020", "website": "https://www.howardhanna.com/Office/Detail/Hershey/001154", "brand": "Howard Hanna"}, "geometry": {"type": "Point", "coordinates": [-76.64737, 40.26938]}},
{"type": "Feature", "id": "Vwbkh0JXHdiHB-t1DEYxhCKEKPk=", "properties": {"ref": "111746", "fax": "(585) 334-1194", "@spider": "howardhanna", "addr:full": "2920 E. Henrietta Rd Henrietta, NY 14467", "name": "Henrietta Office, NY", "phone": "(585) 334-1020", "website": "https://www.howardhanna.com/Office/Detail/Henrietta/111746", "brand": "Howard Hanna"}, "geometry": {"type": "Point", "coordinates": [-77.61033, 43.06224]}},
{"type": "Feature", "id": "GGpWH6wocElcYOXndyyfDKr49W4=", "properties": {"ref": "3289912814", "fax": null, "@spider": "howardhanna", "addr:full": "1 Hagen Drive Hendersonville, NC 28739", "name": "Hendersonville-Champion Hills Office, NC", "phone": "(828) 693-0072", "website": "https://www.howardhanna.com/Office/Detail/Hendersonville-Champion-Hills/3289912814", "brand": "Howard Hanna"}, "geometry": {"type": "Point", "coordinates": [-82.51596, 35.29334]}},
{"type": "Feature", "id": "d2LedzqshKjivdUr5l08xRpQs2c=", "properties": {"ref": "3289912805", "fax": null, "@spider": "howardhanna", "addr:full": "512 N. Main Street Hendersonville, NC 28792", "name": "Hendersonville Office, NC", "phone": "(828) 697-0515", "website": "https://www.howardhanna.com/Office/Detail/Hendersonville/3289912805", "brand": "Howard Hanna"}, "geometry": {"type": "Point", "coordinates": [-82.46013, 35.31801]}},
{"type": "Feature", "id": "g8pnWzElSdx1nUBvlClpTWxLuss=", "properties": {"ref": "013131", "fax": null, "@spider": "howardhanna", "addr:full": "626 Hebron C Rd. Heath, OH 43056", "name": "Heath Office, OH", "phone": "(740) 522-7946", "website": "https://www.howardhanna.com/Office/Detail/Heath/013131", "brand": "Howard Hanna"}, "geometry": {"type": "Point", "coordinates": [-82.43224, 40.03481]}},
{"type": "Feature", "id": "Jd3KjRz3uFGEsScCp__Qvklhlis=", "properties": {"ref": "10130", "fax": "(518) 489-3507", "@spider": "howardhanna", "addr:full": "20 Aviation Rd Albany, NY 12205", "name": "Hanna Commercial - Albany Office, NY", "phone": "(518) 489-1000", "website": "https://www.howardhanna.com/Office/Detail/Hanna-Commercial-Albany/10130", "brand": "Howard Hanna"}, "geometry": {"type": "Point", "coordinates": [-73.8038, 42.71488]}},
{"type": "Feature", "id": "Tp97hgnqtAMzvhrIElgvSvUNDN8=", "properties": {"ref": "001214", "fax": "(724) 449-9909", "@spider": "howardhanna", "addr:full": "5048 William Flynn Highway Gibsonia, PA 15044", "name": "Hampton Office, PA", "phone": "(724) 449-9900", "website": "https://www.howardhanna.com/Office/Detail/Hampton/001214", "brand": "Howard Hanna"}, "geometry": {"type": "Point", "coordinates": [-79.94694, 40.60792]}},
{"type": "Feature", "id": "j_dEkRlQv4sH5zA5xxio6Ua7rHI=", "properties": {"ref": "004656", "fax": "(607) 569-3421", "@spider": "howardhanna", "addr:full": "Howard Hanna Lake Group 52 Pulteney Street Hammondsport, NY 14840", "name": "Hammondsport Office, NY", "phone": "(607) 569-2020", "website": "https://www.howardhanna.com/Office/Detail/Hammondsport/004656", "brand": "Howard Hanna"}, "geometry": {"type": "Point", "coordinates": [-77.22162, 42.4108]}},
{"type": "Feature", "id": "DuVZ4L9M1clne1_NS4ltKDG7iIs=", "properties": {"ref": "013130", "fax": null, "@spider": "howardhanna", "addr:full": "120B N 2nd Street Hamilton, OH 45011", "name": "Hamilton Office, OH", "phone": "(513) 587-5420", "website": "https://www.howardhanna.com/Office/Detail/Hamilton/013130", "brand": "Howard Hanna"}, "geometry": {"type": "Point", "coordinates": [-84.56098, 39.40084]}},
{"type": "Feature", "id": "5seHd184gfxCfJ--v9pEjlLe9S8=", "properties": {"ref": "1015", "fax": "(716) 648-7882", "@spider": "howardhanna", "addr:full": "3674 Commerce Place Hamburg, NY 14075", "name": "Hamburg Office, NY", "phone": "(716) 648-7700", "website": "https://www.howardhanna.com/Office/Detail/Hamburg/1015", "brand": "Howard Hanna"}, "geometry": {"type": "Point", "coordinates": [-78.84838, 42.74145]}},
{"type": "Feature", "id": "G5lVL_2mNFGA9Y1eXRVjyKC9FYk=", "properties": {"ref": "013129", "fax": null, "@spider": "howardhanna", "addr:full": "576 East Main Street Groveport, OH 43125", "name": "Groveport - Marylee Bendig Office, OH", "phone": "(614) 836-2210", "website": "https://www.howardhanna.com/Office/Detail/Groveport-Marylee-Bendig/013129", "brand": "Howard Hanna"}, "geometry": {"type": "Point", "coordinates": [-82.87483, 39.83442]}},
{"type": "Feature", "id": "azlnrKxRvTdM6njGGGkTSz7QF-I=", "properties": {"ref": "001404", "fax": "(724) 458-8287", "@spider": "howardhanna", "addr:full": "1401 West Main Street Grove City, PA 16127", "name": "Grove City Office, PA", "phone": "(724) 458-6000", "website": "https://www.howardhanna.com/Office/Detail/Grove-City/001404", "brand": "Howard Hanna"}, "geometry": {"type": "Point", "coordinates": [-80.10631, 41.16691]}},
{"type": "Feature", "id": "VvUSXvO8lvmCwhPmZ7IU13ojlCM=", "properties": {"ref": "013128", "fax": null, "@spider": "howardhanna", "addr:full": "4183 Parkway Centre Dr. Grove City, OH 43123", "name": "Grove City Office, OH", "phone": "(614) 875-7400", "website": "https://www.howardhanna.com/Office/Detail/Grove-City/013128", "brand": "Howard Hanna"}, "geometry": {"type": "Point", "coordinates": [-83.0466, 39.8765]}},
{"type": "Feature", "id": "sJsCz8mqdQf4oPIx5c6DG1nk8UE=", "properties": {"ref": "328991288", "fax": "(864) 968-1424", "@spider": "howardhanna", "addr:full": "Allen Tate Realtors 1380 West Wade Hampton Boulevard Greer, SC 29650", "name": "Greer Office, SC", "phone": "(864) 416-3900", "website": "https://www.howardhanna.com/Office/Detail/Greer/328991288", "brand": "Howard Hanna"}, "geometry": {"type": "Point", "coordinates": [-82.26877, 34.93924]}},
{"type": "Feature", "id": "83JHO-aVVe17sW1_YnJ5o7kveLY=", "properties": {"ref": "328991295", "fax": "(864) 516-7466", "@spider": "howardhanna", "addr:full": "Allen Tate Realtors 117 Batesville Road, Suite 205 Simpsonville, SC 29681", "name": "Greenville/Simpsonville Office, SC", "phone": "(864) 516-7465", "website": "https://www.howardhanna.com/Office/Detail/Greenville-Simpsonville/328991295", "brand": "Howard Hanna"}, "geometry": {"type": "Point", "coordinates": [-82.23301, 34.80901]}},
{"type": "Feature", "id": "tiW9obepDKk6-00yxx4XUW4mJWU=", "properties": {"ref": "328991280", "fax": "(864) 297-8037", "@spider": "howardhanna", "addr:full": "Allen Tate Realtors 323 Buncombe Street Greenville, SC 29601", "name": "Greenville-Downtown Office, SC", "phone": "(864) 297-1953", "website": "https://www.howardhanna.com/Office/Detail/Greenville-Downtown/328991280", "brand": "Howard Hanna"}, "geometry": {"type": "Point", "coordinates": [-82.4015, 34.85415]}},
{"type": "Feature", "id": "H7eDZgwuMK1yP_jwPzXbnDnf4cw=", "properties": {"ref": "013127", "fax": null, "@spider": "howardhanna", "addr:full": "537 S. Broadway, Ste 202 Greenville, OH 45331", "name": "Greenville Office, OH", "phone": "(937) 569-4588", "website": "https://www.howardhanna.com/Office/Detail/Greenville/013127", "brand": "Howard Hanna"}, "geometry": {"type": "Point", "coordinates": [-84.63038, 40.10025]}},
{"type": "Feature", "id": "ugcyD4Rmdbiti5RZ0JfOm5jxy88=", "properties": {"ref": "004665", "fax": "(724) 373-8425", "@spider": "howardhanna", "addr:full": "Howard Hanna Bainbridge Kaufman Real Estate 46 North Main Street Greenville, PA 16125", "name": "Greenville Office, PA", "phone": "(724) 373-8425", "website": "https://www.howardhanna.com/Office/Detail/Greenville/004665", "brand": "Howard Hanna"}, "geometry": {"type": "Point", "coordinates": [-80.3758, 41.41009]}},
{"type": "Feature", "id": "UoHJxpU_hYt4WlNvy0MTHmsoRhY=", "properties": {"ref": "001112", "fax": "(724) 834-3777", "@spider": "howardhanna", "addr:full": "133 Donohoe Road Greensburg, PA 15601", "name": "Greensburg Office, PA", "phone": "(724) 832-2300", "website": "https://www.howardhanna.com/Office/Detail/Greensburg/001112", "brand": "Howard Hanna"}, "geometry": {"type": "Point", "coordinates": [-79.50861, 40.30547]}},
{"type": "Feature", "id": "5zhCC5g5UBhE7PGqpHT_Lew7k6Y=", "properties": {"ref": "328991213", "fax": "(336) 230-0005", "@spider": "howardhanna", "addr:full": "Allen Tate Realtors 717 Green Valley Road, Suite 300 Greensboro, NC 27408", "name": "Greensboro Office, NC", "phone": "(336) 273-7771", "website": "https://www.howardhanna.com/Office/Detail/Greensboro/328991213", "brand": "Howard Hanna"}, "geometry": {"type": "Point", "coordinates": [-79.82188, 36.09253]}},
{"type": "Feature", "id": "VMRF3yOJZBDeqWncxBXBUzHyBlU=", "properties": {"ref": "007722", "fax": "(434) 985-3556", "@spider": "howardhanna", "addr:full": "Howard Hanna Roy Wheeler Realty 8315 Seminole Trail Ruckersville, VA 22968", "name": "Greene County Office, VA", "phone": "(434) 985-2348", "website": "https://www.howardhanna.com/Office/Detail/Greene-County/007722", "brand": "Howard Hanna"}, "geometry": {"type": "Point", "coordinates": [-78.37547, 38.22521]}},
{"type": "Feature", "id": "vO9rbFjceV4MAYY47h539TtCy0E=", "properties": {"ref": "1025", "fax": "(518) 286-1140", "@spider": "howardhanna", "addr:full": "102 Van Rensselaer Avenue, Suite L Rensselaer, NY 12144", "name": "Greenbush Office, NY", "phone": "(518) 286-1000", "website": "https://www.howardhanna.com/Office/Detail/Greenbush/1025", "brand": "Howard Hanna"}, "geometry": {"type": "Point", "coordinates": [-73.68986, 42.65598]}},
{"type": "Feature", "id": "YBps_tHPWfXIMSxOOd8udzzoMaw=", "properties": {"ref": "00232", "fax": "(330) 896-5235", "@spider": "howardhanna", "addr:full": "4016 Massillon Rd, Suite A Uniontown, OH 44685", "name": "Green-Uniontown Office, OH", "phone": "(330) 896-5225", "website": "https://www.howardhanna.com/Office/Detail/Green-Uniontown/00232", "brand": "Howard Hanna"}, "geometry": {"type": "Point", "coordinates": [-81.4662, 40.95112]}},
{"type": "Feature", "id": "c-a822XwEjYEbSP8ifEM6XU-smE=", "properties": {"ref": "111745", "fax": "(585) 225-9368", "@spider": "howardhanna", "addr:full": "2833 W Ridge Road #3 Rochester, NY 14626", "name": "Greece Office, NY", "phone": "(585) 227-4770", "website": "https://www.howardhanna.com/Office/Detail/Greece/111745", "brand": "Howard Hanna"}, "geometry": {"type": "Point", "coordinates": [-77.70676, 43.2089]}},
{"type": "Feature", "id": "rDYvFbvz495rJ0qXpt13aGfN7gI=", "properties": {"ref": "007707", "fax": "(757) 481-4783", "@spider": "howardhanna", "addr:full": "2304 Kleen St. at Shore Dr Virginia Beach, VA 23451", "name": "Great Neck Office, VA", "phone": "(757) 481-3710", "website": "https://www.howardhanna.com/Office/Detail/Great-Neck/007707", "brand": "Howard Hanna"}, "geometry": {"type": "Point", "coordinates": [-76.08107, 36.91009]}},
{"type": "Feature", "id": "pBibpmqyR2m-pAg8ZnJx_x-LqWg=", "properties": {"ref": "007706", "fax": "(757) 547-9696", "@spider": "howardhanna", "addr:full": "128 Battlefield Blvd. N. Chesapeake, VA 23320", "name": "Great Bridge Office, VA", "phone": "(757) 547-9691", "website": "https://www.howardhanna.com/Office/Detail/Great-Bridge/007706", "brand": "Howard Hanna"}, "geometry": {"type": "Point", "coordinates": [-76.241, 36.72282]}},
{"type": "Feature", "id": "YCWMajvSt9mQgCAES2xUmJgOadc=", "properties": {"ref": "013126", "fax": null, "@spider": "howardhanna", "addr:full": "238 Broadway E. Granville, OH 43023", "name": "Granville Office, OH", "phone": "(740) 587-7319", "website": "https://www.howardhanna.com/Office/Detail/Granville/013126", "brand": "Howard Hanna"}, "geometry": {"type": "Point", "coordinates": [-82.51702, 40.06813]}},
{"type": "Feature", "id": "MYoJPxamXGFie3gxIQErn9vH2Bk=", "properties": {"ref": "10116", "fax": "(716) 773-1987", "@spider": "howardhanna", "addr:full": "2139 Grand Island Blvd Grand Island, NY 14072", "name": "Grand Island Office, NY", "phone": "(716) 773-1900", "website": "https://www.howardhanna.com/Office/Detail/Grand-Island/10116", "brand": "Howard Hanna"}, "geometry": {"type": "Point", "coordinates": [-78.96107, 43.02078]}},
{"type": "Feature", "id": "Qxzl3u2nfuCAVaph_Y60YIIHqwk=", "properties": {"ref": "307609313027458", "fax": null, "@spider": "howardhanna", "addr:full": "Howard Hanna Rand Realty 300 Canal Street Goshen, NY 10924", "name": "Goshen Office, NY", "phone": "(845) 294-7227", "website": "https://www.howardhanna.com/Office/Detail/Goshen/307609313027458", "brand": "Howard Hanna"}, "geometry": {"type": "Point", "coordinates": [-74.3264, 41.4029]}},
{"type": "Feature", "id": "caXsNoU8gYbE8ATeQgDAb8YyO0Y=", "properties": {"ref": "013125", "fax": null, "@spider": "howardhanna", "addr:full": "583 S. 3rd Street Columbus, OH 43215", "name": "German Village Office, OH", "phone": "(614) 240-7400", "website": "https://www.howardhanna.com/Office/Detail/German-Village/013125", "brand": "Howard Hanna"}, "geometry": {"type": "Point", "coordinates": [-82.99588, 39.95042]}},
{"type": "Feature", "id": "xe1vXC3Llh4ucyBRGonWSRER83k=", "properties": {"ref": "111768", "fax": "(315) 325-4129", "@spider": "howardhanna", "addr:full": "97 Seneca St Geneva, NY 14456", "name": "Geneva Office, NY", "phone": "(315) 781-7653", "website": "https://www.howardhanna.com/Office/Detail/Geneva/111768", "brand": "Howard Hanna"}, "geometry": {"type": "Point", "coordinates": [-76.98442, 42.86653]}},
{"type": "Feature", "id": "xzrgG8bgEbSMbF2Y6KyqW8TNEOs=", "properties": {"ref": "111763", "fax": "(585) 243-0029", "@spider": "howardhanna", "addr:full": "81 Main St Geneseo, NY 14454", "name": "Geneseo Office, NY", "phone": "(585) 243-3811", "website": "https://www.howardhanna.com/Office/Detail/Geneseo/111763", "brand": "Howard Hanna"}, "geometry": {"type": "Point", "coordinates": [-77.81659, 42.79602]}},
{"type": "Feature", "id": "THPAiVv-C_FU3YspOKtmnCECyBY=", "properties": {"ref": "0026", "fax": null, "@spider": "howardhanna", "addr:full": "1501 Chagrin River Rd. Gates Mills, OH 44040", "name": "Gates Mills Office, OH", "phone": "(440) 423-3100", "website": "https://www.howardhanna.com/Office/Detail/Gates-Mills/0026", "brand": "Howard Hanna"}, "geometry": {"type": "Point", "coordinates": [-81.40406, 41.51949]}},
{"type": "Feature", "id": "T5pjHUpri3xcRhWd6_rYwa4HqaE=", "properties": {"ref": "328991216", "fax": "(704) 868-2938", "@spider": "howardhanna", "addr:full": "Allen Tate Realtors 4016 E Franklin Blvd, Suite 130 Gastonia, NC 28056", "name": "Gastonia Office, NC", "phone": "(704) 868-4188", "website": "https://www.howardhanna.com/Office/Detail/Gastonia/328991216", "brand": "Howard Hanna"}, "geometry": {"type": "Point", "coordinates": [-81.10944, 35.25731]}},
{"type": "Feature", "id": "AD1r7uV5Pa7G26oYFua62-ewYm4=", "properties": {"ref": "013124", "fax": null, "@spider": "howardhanna", "addr:full": "5508 Hall Rd Columbus, OH 43228", "name": "Galloway - The Chris Harrington Group Office, OH", "phone": "(614) 664-3499", "website": "https://www.howardhanna.com/Office/Detail/Galloway-The-Chris-Harrington-Group/013124", "brand": "Howard Hanna"}, "geometry": {"type": "Point", "coordinates": [-83.14406, 39.93152]}},
{"type": "Feature", "id": "EJnQNG6SXriYo2DUzdWjubVKJLw=", "properties": {"ref": "013123", "fax": null, "@spider": "howardhanna", "addr:full": "141 Granville St Gahanna, OH 43230", "name": "Gahanna Downtown Office, OH", "phone": "(614) 273-8787", "website": "https://www.howardhanna.com/Office/Detail/Gahanna-Downtown/013123", "brand": "Howard Hanna"}, "geometry": {"type": "Point", "coordinates": [-82.87651, 40.01839]}},
{"type": "Feature", "id": "--AiVKJfd6s9GThymepteQA770k=", "properties": {"ref": "013122", "fax": null, "@spider": "howardhanna", "addr:full": "4261 Morse Road Gahanna, OH 43230", "name": "Gahanna Office, OH", "phone": "(614) 471-7400", "website": "https://www.howardhanna.com/Office/Detail/Gahanna/013122", "brand": "Howard Hanna"}, "geometry": {"type": "Point", "coordinates": [-82.88795, 40.05585]}},
{"type": "Feature", "id": "xMiQyTSpA2OS2lDMslCnqmudVag=", "properties": {"ref": "10724", "fax": "(315) 592-2545", "@spider": "howardhanna", "addr:full": "18 Canalview Mall Fulton , NY 13069", "name": "Fulton Office, NY", "phone": "(315) 592-7653", "website": "https://www.howardhanna.com/Office/Detail/Fulton/10724", "brand": "Howard Hanna"}, "geometry": {"type": "Point", "coordinates": [-76.41679, 43.32298]}},
{"type": "Feature", "id": "KFZTUveRnIRVIwPkEF4Fa_Z_o_E=", "properties": {"ref": "00283", "fax": "(419) 355-3889", "@spider": "howardhanna", "addr:full": "624 West State Street Fremont, OH 43420", "name": "Fremont Office, OH", "phone": "(419) 332-4000", "website": "https://www.howardhanna.com/Office/Detail/Fremont/00283", "brand": "Howard Hanna"}, "geometry": {"type": "Point", "coordinates": [-83.11583, 41.34669]}},
{"type": "Feature", "id": "sjxJHUaG9naUMXIxPdxjqShp4m4=", "properties": {"ref": "004604", "fax": "(716) 673-1804", "@spider": "howardhanna", "addr:full": "Howard Hanna Holt Real Estate 44 Temple Street Fredonia, NY 14063", "name": "Fredonia Office, NY", "phone": "(716) 673-1800", "website": "https://www.howardhanna.com/Office/Detail/Fredonia/004604", "brand": "Howard Hanna"}, "geometry": {"type": "Point", "coordinates": [-79.33382, 42.44127]}},
{"type": "Feature", "id": "UTGCE4OM9dGfatq8uyUheCDqc6Y=", "properties": {"ref": "005512", "fax": null, "@spider": "howardhanna", "addr:full": "32440 Franklin Road Franklin, MI 48025", "name": "Franklin Office, MI", "phone": "(248) 626-8700", "website": "https://www.howardhanna.com/Office/Detail/Franklin/005512", "brand": "Howard Hanna"}, "geometry": {"type": "Point", "coordinates": [-83.30568, 42.52598]}},
{"type": "Feature", "id": "-33hopmLko8zr9Ui_Ff3lN9EtUo=", "properties": {"ref": "001202", "fax": "(412) 782-1523", "@spider": "howardhanna", "addr:full": "1090 Freeport Road Pittsburgh, PA 15238", "name": "Fox Chapel Office, PA", "phone": "(412) 963-6300", "website": "https://www.howardhanna.com/Office/Detail/Fox-Chapel/001202", "brand": "Howard Hanna"}, "geometry": {"type": "Point", "coordinates": [-79.88324, 40.4873]}},
{"type": "Feature", "id": "1h7426uQrsCtfw2uDusoJyQwJB8=", "properties": {"ref": "328991224", "fax": "(803) 548-3901", "@spider": "howardhanna", "addr:full": "Allen Tate Realtors 870 Gold Hill Road, Suite 105 Fort Mill, SC 29708", "name": "Fort Mill Office, SC", "phone": "(803) 547-1185", "website": "https://www.howardhanna.com/Office/Detail/Fort-Mill/328991224", "brand": "Howard Hanna"}, "geometry": {"type": "Point", "coordinates": [-80.96254, 35.06169]}},
{"type": "Feature", "id": "HoC_k1-mni_gsfZyrAP44przoXg=", "properties": {"ref": "1073", "fax": "(315) 446-0018", "@spider": "howardhanna", "addr:full": "6866 Genesee St Fayetteville, NY 13066", "name": "Fayetteville Office, NY", "phone": "(315) 446-8291", "website": "https://www.howardhanna.com/Office/Detail/Fayetteville/1073", "brand": "Howard Hanna"}, "geometry": {"type": "Point", "coordinates": [-76.04751, 43.02861]}},
{"type": "Feature", "id": "6p5vdCFoZQkp6X1_G7E1luzNjlk=", "properties": {"ref": "111743", "fax": "(585) 223-2769", "@spider": "howardhanna", "addr:full": "65 S Main St Fairport, NY 14450", "name": "Fairport Office, NY", "phone": "(585) 223-9000", "website": "https://www.howardhanna.com/Office/Detail/Fairport/111743", "brand": "Howard Hanna"}, "geometry": {"type": "Point", "coordinates": [-77.44164, 43.09981]}},
{"type": "Feature", "id": "MFFol9SwRaWWJ_WFJNY_yDTVjyY=", "properties": {"ref": "004661", "fax": null, "@spider": "howardhanna", "addr:full": "Howard Hanna Bardell Realty 147 East Main Street Everett, PA 15536", "name": "Everett Office, PA", "phone": "(814) 652-6001", "website": "https://www.howardhanna.com/Office/Detail/Everett/004661", "brand": "Howard Hanna"}, "geometry": {"type": "Point", "coordinates": [-78.37075, 40.01187]}},
{"type": "Feature", "id": "FyvkOa6q7qWc09znR1dxn-9kTW0=", "properties": {"ref": "001478", "fax": "(814) 833-4820", "@spider": "howardhanna", "addr:full": "3738 Sterrettania Road Erie, PA 16506", "name": "Erie Southwest/Sterrettania Office, PA", "phone": "(814) 835-1200", "website": "https://www.howardhanna.com/Office/Detail/Erie-Southwest-Sterrettania/001478", "brand": "Howard Hanna"}, "geometry": {"type": "Point", "coordinates": [-80.14346, 42.07451]}},
{"type": "Feature", "id": "GlKqsXeshkSOGJ9ADOxfB5NOqxI=", "properties": {"ref": "001474", "fax": "(814) 899-2340", "@spider": "howardhanna", "addr:full": "4905 Buffalo Road Erie, PA 16510", "name": "Erie East Office, PA", "phone": "(814) 899-3005", "website": "https://www.howardhanna.com/Office/Detail/Erie-East/001474", "brand": "Howard Hanna"}, "geometry": {"type": "Point", "coordinates": [-79.99167, 42.15191]}},
{"type": "Feature", "id": "9iRmj2a0Dl6tr3Dik-zsjNJPLdo=", "properties": {"ref": "001571", "fax": "(814) 456-3188", "@spider": "howardhanna", "addr:full": "4244 West 12th Street Erie, PA 16505", "name": "Erie Commercial Office, PA", "phone": "(814) 480-8400", "website": "https://www.howardhanna.com/Office/Detail/Erie-Commercial/001571", "brand": "Howard Hanna"}, "geometry": {"type": "Point", "coordinates": [-80.13648, 42.10776]}},
{"type": "Feature", "id": "ntJYLyZT15sI5wlHZMGEZWCc50k=", "properties": {"ref": "001479", "fax": "(814) 833-3332", "@spider": "howardhanna", "addr:full": "4248 West 12th Street Erie, PA 16505", "name": "Erie Airport/West Office, PA", "phone": "(814) 833-1000", "website": "https://www.howardhanna.com/Office/Detail/Erie-Airport-West/001479", "brand": "Howard Hanna"}, "geometry": {"type": "Point", "coordinates": [-80.17912, 42.08751]}},
{"type": "Feature", "id": "TnDl92-07WAe_dEyLH3eFs2QFno=", "properties": {"ref": "307609322402971", "fax": null, "@spider": "howardhanna", "addr:full": "Howard Hanna Rand Realty 601 E. Palisade Avenue Englewood Cliffs, NJ 07632", "name": "Englewood Cliffs Office, NJ", "phone": "(201) 567-5335", "website": "https://www.howardhanna.com/Office/Detail/Englewood-Cliffs/307609322402971", "brand": "Howard Hanna"}, "geometry": {"type": "Point", "coordinates": [-73.9555, 40.8833]}},
{"type": "Feature", "id": "SypbWmiJQ82e2RbvCTZmA6zEk1E=", "properties": {"ref": "1041", "fax": "(607) 748-8903", "@spider": "howardhanna", "addr:full": "3630 George F Highway Endwell, NY 13760", "name": "Endwell/Binghamton Office, NY", "phone": "(607) 754-2600", "website": "https://www.howardhanna.com/Office/Detail/Endwell-Binghamton/1041", "brand": "Howard Hanna"}, "geometry": {"type": "Point", "coordinates": [-76.01351, 42.10773]}},
{"type": "Feature", "id": "wiSz6LC0UeuqH4bE-NJpjlQmUKY=", "properties": {"ref": "00236", "fax": "(440) 365-2769", "@spider": "howardhanna", "addr:full": "1240 North Abbe Road Elyria, OH 44035", "name": "Elyria Office, OH", "phone": "(440) 365-8392", "website": "https://www.howardhanna.com/Office/Detail/Elyria/00236", "brand": "Howard Hanna"}, "geometry": {"type": "Point", "coordinates": [-82.07794, 41.41731]}},
{"type": "Feature", "id": "7U40q4V7gIclO9s4wZBtOWbAYXg=", "properties": {"ref": "104108", "fax": "(607) 733-9740", "@spider": "howardhanna", "addr:full": "215 West Church St Elmira, NY 14901", "name": "Elmira Office, NY", "phone": "(607) 733-2700", "website": "https://www.howardhanna.com/Office/Detail/Elmira/104108", "brand": "Howard Hanna"}, "geometry": {"type": "Point", "coordinates": [-76.80934, 42.08926]}},
{"type": "Feature", "id": "xA-WTRhsFVTaacWPBRe0te8z81k=", "properties": {"ref": "013121", "fax": null, "@spider": "howardhanna", "addr:full": "PO Box 100 Ellsworth, MI 49729", "name": "Ellsworth Office, MI", "phone": "(231) 588-1030", "website": "https://www.howardhanna.com/Office/Detail/Ellsworth/013121", "brand": "Howard Hanna"}, "geometry": {"type": "Point", "coordinates": [-85.24224, 45.17092]}},
{"type": "Feature", "id": "LLZEzcs198XriP1TVKku7GiZuUQ=", "properties": {"ref": "10126", "fax": "(716) 699-4685", "@spider": "howardhanna", "addr:full": "34 Washington St Ellicottville, NY 14731", "name": "Ellicottville Office, NY", "phone": "(716) 699-4695", "website": "https://www.howardhanna.com/Office/Detail/Ellicottville/10126", "brand": "Howard Hanna"}, "geometry": {"type": "Point", "coordinates": [-78.67072, 42.276]}},
{"type": "Feature", "id": "q-b28evseLnCqGaHPDoR3CoVP14=", "properties": {"ref": "007705", "fax": "(252) 338-6663", "@spider": "howardhanna", "addr:full": "529 South Hughes Blvd Elizabeth City, NC 27909", "name": "Elizabeth City Office, NC", "phone": "(252) 338-7653", "website": "https://www.howardhanna.com/Office/Detail/Elizabeth-City/007705", "brand": "Howard Hanna"}, "geometry": {"type": "Point", "coordinates": [-76.24908, 36.29364]}},
{"type": "Feature", "id": "N3mmbXndnWydn7aNTQrfqLGOwmo=", "properties": {"ref": "001910", "fax": null, "@spider": "howardhanna", "addr:full": "119 Gamma Drive Pittsburgh, PA 15238", "name": "Education Office, PA", "website": "https://www.howardhanna.com/Office/Detail/Education/001910", "brand": "Howard Hanna"}, "geometry": {"type": "Point", "coordinates": [-79.86973, 40.4962]}},
{"type": "Feature", "id": "n9mHtqrmUdPtkx9XmNz6njImm9o=", "properties": {"ref": "307609362062605", "fax": null, "@spider": "howardhanna", "addr:full": "Howard Hanna Rand Realty 460 Ridgedale Avenue East Hanover, NJ 07936", "name": "East Hanover Office, NJ", "phone": "(973) 532-5727", "website": "https://www.howardhanna.com/Office/Detail/East-Hanover/307609362062605", "brand": "Howard Hanna"}, "geometry": {"type": "Point", "coordinates": [-74.35806, 40.82742]}},
{"type": "Feature", "id": "dWjklNnfbFpOU7h4kf8SKm3jTtY=", "properties": {"ref": "10124", "fax": "(716) 655-1760", "@spider": "howardhanna", "addr:full": "280 Main St East Aurora, NY 14052", "name": "East Aurora Office, NY", "phone": "(716) 655-1655", "website": "https://www.howardhanna.com/Office/Detail/East-Aurora/10124", "brand": "Howard Hanna"}, "geometry": {"type": "Point", "coordinates": [-78.62434, 42.76819]}},
{"type": "Feature", "id": "V_OmsLY_8RI-iYY-Ik_mwt5w7oM=", "properties": {"ref": "328991281", "fax": "(864) 752-4665", "@spider": "howardhanna", "addr:full": "Allen Tate Realtors 158 McNeely Road Powdersville, SC 29673", "name": "Easley/Powdersville Office, SC", "phone": "(864) 752-4663", "website": "https://www.howardhanna.com/Office/Detail/Easley-Powdersville/328991281", "brand": "Howard Hanna"}, "geometry": {"type": "Point", "coordinates": [-82.47883, 34.78757]}},
{"type": "Feature", "id": "fyoGtt3FO551TzZf-4VTxo8-YRw=", "properties": {"ref": "3289912409", "fax": null, "@spider": "howardhanna", "addr:full": "Allen Tate Realtors 555 S Mangum Street, Suite 100 Durham, NC 27701", "name": "Durham Office, NC", "phone": "(919) 913-4990", "website": "https://www.howardhanna.com/Office/Detail/Durham/3289912409", "brand": "Howard Hanna"}, "geometry": {"type": "Point", "coordinates": [-78.90164, 35.99039]}},
{"type": "Feature", "id": "HncKQiYanueOvzW2wv40uXC0tjg=", "properties": {"ref": "013119", "fax": null, "@spider": "howardhanna", "addr:full": "5725 Perimeter Dr. Dublin, OH 43017", "name": "Dublin Office, OH", "phone": "(614) 889-7400", "website": "https://www.howardhanna.com/Office/Detail/Dublin/013119", "brand": "Howard Hanna"}, "geometry": {"type": "Point", "coordinates": [-83.14291, 40.10206]}},
{"type": "Feature", "id": "S0RBlp3Q-5F6crOx-BE2wwfDiLY=", "properties": {"ref": "007704", "fax": "(757) 625-2580", "@spider": "howardhanna", "addr:full": "2204 Hampton Blvd. Norfolk, VA 23517", "name": "Downtown Norfolk Office, VA", "phone": "(757) 625-2580", "website": "https://www.howardhanna.com/Office/Detail/Downtown-Norfolk/007704", "brand": "Howard Hanna"}, "geometry": {"type": "Point", "coordinates": [-76.30119, 36.87277]}},
{"type": "Feature", "id": "RvDBXteBxmj72qm4fHl7mocBDsA=", "properties": {"ref": "005654", "fax": "(734) 475-7733", "@spider": "howardhanna", "addr:full": "8093 Main Street Dexter, MI 48130", "name": "Dexter Office, MI", "phone": "(734) 475-3737", "website": "https://www.howardhanna.com/Office/Detail/Dexter/005654", "brand": "Howard Hanna"}, "geometry": {"type": "Point", "coordinates": [-83.88883, 42.33798]}},
{"type": "Feature", "id": "ZAIUADegvwGj-WICkvMzd574Czk=", "properties": {"ref": "1028", "fax": "(518) 439-2899", "@spider": "howardhanna", "addr:full": "231 Delaware Ave Delmar, NY 12054", "name": "Delmar Office, NY", "phone": "(518) 439-2888", "website": "https://www.howardhanna.com/Office/Detail/Delmar/1028", "brand": "Howard Hanna"}, "geometry": {"type": "Point", "coordinates": [-73.81843, 42.62785]}},
{"type": "Feature", "id": "fApibtbTG0DFEqFdWu8xnPEfrqA=", "properties": {"ref": "013172", "fax": null, "@spider": "howardhanna", "addr:full": "345 W. Central Ave. Delaware, OH 43015", "name": "Delaware - The Kamann Professional Group Office, OH", "phone": "(740) 363-7355", "website": "https://www.howardhanna.com/Office/Detail/Delaware-The-Kamann-Professional-Group/013172", "brand": "Howard Hanna"}, "geometry": {"type": "Point", "coordinates": [-83.08121, 40.30311]}},
{"type": "Feature", "id": "_q_Q4l0oWIlhpqg2YD87S8my7jo=", "properties": {"ref": "00286", "fax": "(419) 782-0989", "@spider": "howardhanna", "addr:full": "905 N. Clinton Street Defiance, OH 43512", "name": "Defiance Office, OH", "phone": "(419) 782-8216", "website": "https://www.howardhanna.com/Office/Detail/Defiance/00286", "brand": "Howard Hanna"}, "geometry": {"type": "Point", "coordinates": [-84.36051, 41.29885]}},
{"type": "Feature", "id": "opIS8pdBFGf6coCFewFvIyTeW9M=", "properties": {"ref": "005001", "fax": null, "@spider": "howardhanna", "addr:full": "840 Beechmont St Dearborn, MI 48124", "name": "Dearborn Office, MI", "website": "https://www.howardhanna.com/Office/Detail/Dearborn/005001", "brand": "Howard Hanna"}, "geometry": {"type": "Point", "coordinates": [-83.27847, 42.30585]}},
{"type": "Feature", "id": "nFE189CyeNprcUUNuVbTnx2xfU4=", "properties": {"ref": "013118", "fax": null, "@spider": "howardhanna", "addr:full": "109 White Allen Dayton, OH 45405", "name": "Dayton - Traci Martin Office, OH", "website": "https://www.howardhanna.com/Office/Detail/Dayton-Traci-Martin/013118", "brand": "Howard Hanna"}, "geometry": {"type": "Point", "coordinates": [-84.19152, 39.76814]}},
{"type": "Feature", "id": "eza5_OiqZsWjZpx1ZRFI1rVKFI0=", "properties": {"ref": "328991289", "fax": "(704) 892-4021", "@spider": "howardhanna", "addr:full": "Allen Tate Realtors 103 North Main Street, PO Box 2248 Davidson, NC 28036", "name": "Davidson Office, NC", "phone": "(704) 892-0196", "website": "https://www.howardhanna.com/Office/Detail/Davidson/328991289", "brand": "Howard Hanna"}, "geometry": {"type": "Point", "coordinates": [-80.84866, 35.49923]}},
{"type": "Feature", "id": "irdfFa978DELivupvW6ZgmgP-M8=", "properties": {"ref": "111766", "fax": "(585) 335-2956", "@spider": "howardhanna", "addr:full": "182 Main St Dansville, NY 14437", "name": "Dansville Office, NY", "phone": "(585) 335-2070", "website": "https://www.howardhanna.com/Office/Detail/Dansville/111766", "brand": "Howard Hanna"}, "geometry": {"type": "Point", "coordinates": [-77.69604, 42.56163]}},
{"type": "Feature", "id": "sIw05fapInL0ZQEF1E1jvB9WbIE=", "properties": {"ref": "007703", "fax": "(252) 435-6888", "@spider": "howardhanna", "addr:full": "101 Commerce Drive Moyock, NC 27958", "name": "Currituck Office, NC", "phone": "(252) 435-6100", "website": "https://www.howardhanna.com/Office/Detail/Currituck/007703", "brand": "Howard Hanna"}, "geometry": {"type": "Point", "coordinates": [-76.16745, 36.51455]}},
{"type": "Feature", "id": "fUdQuxAq4lkTOcgiPouIB4icCTs=", "properties": {"ref": "10113", "fax": "(716) 691-6121", "@spider": "howardhanna", "addr:full": "3195 Niagara Falls Blvd Amherst, NY 14228", "name": "Crossroads Office, NY", "phone": "(716) 691-5800", "website": "https://www.howardhanna.com/Office/Detail/Crossroads/10113", "brand": "Howard Hanna"}, "geometry": {"type": "Point", "coordinates": [-78.82363, 43.04139]}},
{"type": "Feature", "id": "4xeiJLT63Gw5Unql0GANvIB0YpA=", "properties": {"ref": "001222", "fax": "(724) 452-1598", "@spider": "howardhanna", "addr:full": "20930 Route 19 Cranberry Township, PA 16066", "name": "Cranberry Office, PA", "phone": "(724) 452-1100", "website": "https://www.howardhanna.com/Office/Detail/Cranberry/001222", "brand": "Howard Hanna"}, "geometry": {"type": "Point", "coordinates": [-80.10584, 40.72311]}},
{"type": "Feature", "id": "PgGM38znW091Ug5OxVRmsFtmA_M=", "properties": {"ref": "004683", "fax": null, "@spider": "howardhanna", "addr:full": "Howard Hanna Professionals 336 Route 6, Suite #1 Coudersport, PA 16915", "name": "Coudersport Office, PA", "phone": "(814) 260-1464", "website": "https://www.howardhanna.com/Office/Detail/Coudersport/004683", "brand": "Howard Hanna"}, "geometry": {"type": "Point", "coordinates": [-78.03421, 41.76452]}},
{"type": "Feature", "id": "3PWtqp0KAZ20XXbcZls4vR6Fvrc=", "properties": {"ref": "013116", "fax": null, "@spider": "howardhanna", "addr:full": "550 Main Street Coshocton, OH 43812", "name": "Coshocton Office, OH", "phone": "(740) 202-0258", "website": "https://www.howardhanna.com/Office/Detail/Coshocton/013116", "brand": "Howard Hanna"}, "geometry": {"type": "Point", "coordinates": [-81.86175, 40.27369]}},
{"type": "Feature", "id": "Wjs8vTRsbYBMj-ywIsRiUsWLb5E=", "properties": {"ref": "104111", "fax": "(607) 936-3982", "@spider": "howardhanna", "addr:full": "48 W. Market St Corning, NY 14830", "name": "Corning - Market Street Office, NY", "phone": "(607) 936-4609", "website": "https://www.howardhanna.com/Office/Detail/Corning-Market-Street/104111", "brand": "Howard Hanna"}, "geometry": {"type": "Point", "coordinates": [-77.0564, 42.14362]}},
{"type": "Feature", "id": "9y-_fdeub8atTFiwkRGKykvzKKE=", "properties": {"ref": "104110", "fax": "(607) 936-0412", "@spider": "howardhanna", "addr:full": "71 Denison Parkway West Corning, NY 14830", "name": "Corning Office, NY", "phone": "(607) 936-4663", "website": "https://www.howardhanna.com/Office/Detail/Corning/104110", "brand": "Howard Hanna"}, "geometry": {"type": "Point", "coordinates": [-77.05775, 42.14347]}},
{"type": "Feature", "id": "LTMjeT0tgWL64a3W7pwUeOspbII=", "properties": {"ref": "104103", "fax": "(607) 547-1922", "@spider": "howardhanna", "addr:full": "4914 State Highway 28 Cooperstown, NY 13326", "name": "Cooperstown Office, NY", "phone": "(607) 547-5933", "website": "https://www.howardhanna.com/Office/Detail/Cooperstown/104103", "brand": "Howard Hanna"}, "geometry": {"type": "Point", "coordinates": [-74.95807, 42.66168]}},
{"type": "Feature", "id": "2RSi4vf4Fl5Q_f7v81abo_6lsHA=", "properties": {"ref": "004664", "fax": "(814) 337-0153", "@spider": "howardhanna", "addr:full": "Howard Hanna Bainbridge Kaufman Real Estate 12213 Midway Drive Conneaut Lake, PA 16316", "name": "Conneaut Lake Office, PA", "phone": "(814) 382-5225", "website": "https://www.howardhanna.com/Office/Detail/Conneaut-Lake/004664", "brand": "Howard Hanna"}, "geometry": {"type": "Point", "coordinates": [-80.28873, 41.62101]}},
{"type": "Feature", "id": "bjGtPydSI2aOrwpa0J7RdwjuKXk=", "properties": {"ref": "32899122", "fax": "(704) 786-6381", "@spider": "howardhanna", "addr:full": "Allen Tate Realtors 1339 Concord Parkway North Concord, NC 28025", "name": "Concord Office, NC", "phone": "(704) 786-6350", "website": "https://www.howardhanna.com/Office/Detail/Concord/32899122", "brand": "Howard Hanna"}, "geometry": {"type": "Point", "coordinates": [-80.60433, 35.43479]}},
{"type": "Feature", "id": "movcAV0HR2hzaq4o_ktw90-Hv4o=", "properties": {"ref": "013115", "fax": null, "@spider": "howardhanna", "addr:full": "1415 E Dublin Granville Rd, Suite 210 Columbus, OH 43229", "name": "Columbus - Kofi Amponsah Office, OH", "phone": "(614) 374-9343", "website": "https://www.howardhanna.com/Office/Detail/Columbus-Kofi-Amponsah/013115", "brand": "Howard Hanna"}, "geometry": {"type": "Point", "coordinates": [-82.97918, 40.08674]}},
{"type": "Feature", "id": "_KMt7lgLNYcmTc-cTE8cYGhIX10=", "properties": {"ref": "004666", "fax": null, "@spider": "howardhanna", "addr:full": "Howard Hanna Lenker Group Opening Soon Columbus, OH 43215", "name": "Columbus Office, OH", "phone": "(614) 569-3400", "website": "https://www.howardhanna.com/Office/Detail/Columbus/004666", "brand": "Howard Hanna"}, "geometry": {"type": "Point", "coordinates": [-82.99903, 39.96284]}},
{"type": "Feature", "id": "KAS9A7s91uL5UWp1rA4jGA-ycqw=", "properties": {"ref": "001151", "fax": "(717) 652-9261", "@spider": "howardhanna", "addr:full": "5137 Devonshire Road Harrisburg, PA 17112", "name": "Colonial Park Office, PA", "phone": "(717) 920-9700", "website": "https://www.howardhanna.com/Office/Detail/Colonial-Park/001151", "brand": "Howard Hanna"}, "geometry": {"type": "Point", "coordinates": [-76.80437, 40.30572]}},
{"type": "Feature", "id": "SuqWKVdapy3mRZn396O_hkrp_jE=", "properties": {"ref": "001322", "fax": "(412) 279-9320", "@spider": "howardhanna", "addr:full": "1597 Washington Pike, Suite B-1 Collier, PA 15017", "name": "Collier Office, PA", "phone": "(412) 276-5000", "website": "https://www.howardhanna.com/Office/Detail/Collier/001322", "brand": "Howard Hanna"}, "geometry": {"type": "Point", "coordinates": [-80.09512, 40.38262]}},
{"type": "Feature", "id": "LjrVz1_Uy93BMIWjivy7A41IRs0=", "properties": {"ref": "004628", "fax": "(814) 425-8388", "@spider": "howardhanna", "addr:full": "Howard Hanna Bainbridge Kaufman Real Estate 102 S Franklin Street Cochranton, PA 16314", "name": "Cochranton Office, PA", "phone": "(814) 425-7473", "website": "https://www.howardhanna.com/Office/Detail/Cochranton/004628", "brand": "Howard Hanna"}, "geometry": {"type": "Point", "coordinates": [-80.04795, 41.51946]}},
{"type": "Feature", "id": "EoExDiAGpxp3sJsfyvG0hRNxZkc=", "properties": {"ref": "307609313033380", "fax": null, "@spider": "howardhanna", "addr:full": "Howard Hanna Rand Realty 277 Closter Dock Road Closter, NJ 07624", "name": "Closter Office, NJ", "phone": "(201) 660-8800", "website": "https://www.howardhanna.com/Office/Detail/Closter/307609313033380", "brand": "Howard Hanna"}, "geometry": {"type": "Point", "coordinates": [-73.95972, 40.97185]}},
{"type": "Feature", "id": "MLh-hD32RzsY_Th6-8mJmOFSusw=", "properties": {"ref": "013114", "fax": null, "@spider": "howardhanna", "addr:full": "4041 N. High Street Clintonville, OH 43214", "name": "Clintonville Office, OH", "phone": "(614) 824-5419", "website": "https://www.howardhanna.com/Office/Detail/Clintonville/013114", "brand": "Howard Hanna"}, "geometry": {"type": "Point", "coordinates": [-83.01978, 40.0446]}},
{"type": "Feature", "id": "-B016rmr08--TdR1LA02GxsT4ks=", "properties": {"ref": "1023", "fax": "(518) 371-0512", "@spider": "howardhanna", "addr:full": "1547 Route 9 Clifton Park , NY 12065", "name": "Clifton Park  Office, NY", "phone": "(518) 371-4500", "website": "https://www.howardhanna.com/Office/Detail/Clifton-Park/1023", "brand": "Howard Hanna"}, "geometry": {"type": "Point", "coordinates": [-73.74833, 42.84504]}},
{"type": "Feature", "id": "gruxZNASQrOh1lv0ZtAECdLEurY=", "properties": {"ref": "0028", "fax": "(216) 721-3210", "@spider": "howardhanna", "addr:full": "12435 Cedar Rd. Cleveland Heights, OH 44106", "name": "Cleveland Heights/University Circle Office, OH", "phone": "(216) 721-1210", "website": "https://www.howardhanna.com/Office/Detail/Cleveland-Heights-University-Circle/0028", "brand": "Howard Hanna"}, "geometry": {"type": "Point", "coordinates": [-81.59315, 41.50115]}},
{"type": "Feature", "id": "5bDNsGngsp_Pt2l1g9HTbsSXvjg=", "properties": {"ref": "00241", "fax": "(216) 696-4720", "@spider": "howardhanna", "addr:full": "2605 Detroit Ave Cleveland, OH 44113", "name": "Cleveland City Office, OH", "phone": "(216) 696-4800", "website": "https://www.howardhanna.com/Office/Detail/Cleveland-City/00241", "brand": "Howard Hanna"}, "geometry": {"type": "Point", "coordinates": [-81.70831, 41.49071]}},
{"type": "Feature", "id": "s_rWyh4Jp_vQK3pbYk430p2eEwQ=", "properties": {"ref": "10722", "fax": "(315) 686-3464", "@spider": "howardhanna", "addr:full": "519A Riverside Drive Clayton, NY 13624", "name": "Clayton/Thousand Island Office, NY", "phone": "(315) 686-4000", "website": "https://www.howardhanna.com/Office/Detail/Clayton-Thousand-Island/10722", "brand": "Howard Hanna"}, "geometry": {"type": "Point", "coordinates": [-76.08413, 44.23573]}},
{"type": "Feature", "id": "noVILZ4odAjhJY5NofyzP-tELxM=", "properties": {"ref": "005513", "fax": "(248) 291-9844", "@spider": "howardhanna", "addr:full": "6681 Dixie Highway Clarkston, MI 48346", "name": "Clarkston Office, MI", "phone": "(248) 206-8383", "website": "https://www.howardhanna.com/Office/Detail/Clarkston/005513", "brand": "Howard Hanna"}, "geometry": {"type": "Point", "coordinates": [-83.41689, 42.71842]}},
{"type": "Feature", "id": "qi16oCaXNNzUo1kZMiTNUiiq76s=", "properties": {"ref": "013113", "fax": null, "@spider": "howardhanna", "addr:full": "1274 N. Court Street Circleville, OH 43113", "name": "Circleville Office, OH", "phone": "(740) 474-7581", "website": "https://www.howardhanna.com/Office/Detail/Circleville/013113", "brand": "Howard Hanna"}, "geometry": {"type": "Point", "coordinates": [-82.94062, 39.62273]}},
{"type": "Feature", "id": "AMixmweOw9VPmroLCUvtkOgqr8M=", "properties": {"ref": "1075", "fax": "(315) 458-8460", "@spider": "howardhanna", "addr:full": "401 North Main St North Syracuse, NY 13212", "name": "Cicero/North Syracuse Office, NY", "phone": "(315) 458-9100", "website": "https://www.howardhanna.com/Office/Detail/Cicero-North-Syracuse/1075", "brand": "Howard Hanna"}, "geometry": {"type": "Point", "coordinates": [-76.12952, 43.14015]}},
{"type": "Feature", "id": "K_hCIYm37PQ_mBs0Hm9LPcWX8DY=", "properties": {"ref": "007701", "fax": "(757) 483-3248", "@spider": "howardhanna", "addr:full": "3237 Western Branch Blvd. Chesapeake, VA 23321", "name": "Churchland Office, VA", "phone": "(757) 483-0306", "website": "https://www.howardhanna.com/Office/Detail/Churchland/007701", "brand": "Howard Hanna"}, "geometry": {"type": "Point", "coordinates": [-76.40673, 36.8638]}},
{"type": "Feature", "id": "tur0J3hqQBI3UT8HO4ftU07CtjM=", "properties": {"ref": "001410", "fax": "(724) 847-6206", "@spider": "howardhanna", "addr:full": "2558 Darlington Road Beaver Falls, PA 15010", "name": "Chippewa Office, PA", "phone": "(724) 846-5440", "website": "https://www.howardhanna.com/Office/Detail/Chippewa/001410", "brand": "Howard Hanna"}, "geometry": {"type": "Point", "coordinates": [-80.3757, 40.77312]}},
{"type": "Feature", "id": "L4G8uINXED3WPmz-SEmkUjWBCFg=", "properties": {"ref": "013112", "fax": null, "@spider": "howardhanna", "addr:full": "207 Delano Ave. Chillicothe, OH 45601", "name": "Chillicothe Office, OH", "phone": "(740) 702-6000", "website": "https://www.howardhanna.com/Office/Detail/Chillicothe/013112", "brand": "Howard Hanna"}, "geometry": {"type": "Point", "coordinates": [-83.00022, 39.33516]}},
{"type": "Feature", "id": "YIxcVlWa78Qhcd6AoSS_FkdFahU=", "properties": {"ref": "111754", "fax": "(585) 394-2929", "@spider": "howardhanna", "addr:full": "4156 Buffalo Rd Rochester, NY 14624", "name": "Chili-Ogden Office, NY", "phone": "(585) 594-4333", "website": "https://www.howardhanna.com/Office/Detail/Chili-Ogden/111754", "brand": "Howard Hanna"}, "geometry": {"type": "Point", "coordinates": [-77.78766, 43.12761]}},
{"type": "Feature", "id": "SX-zAwwzHcmEE7ieiKSbR2Iz1zE=", "properties": {"ref": "00219", "fax": "(440) 729-2862", "@spider": "howardhanna", "addr:full": "12668 Chillicothe Road Chesterland, OH 44026", "name": "Chesterland Office, OH", "phone": "(440) 729-1600", "website": "https://www.howardhanna.com/Office/Detail/Chesterland/00219", "brand": "Howard Hanna"}, "geometry": {"type": "Point", "coordinates": [-81.33862, 41.52461]}},
{"type": "Feature", "id": "rC-e9pOf3MticsVOBL6sTfX8Hc8=", "properties": {"ref": "004617", "fax": "(716) 753-2519", "@spider": "howardhanna", "addr:full": "Howard Hanna Holt Real Estate 79 West Lake Road Mayville, NY 14757", "name": "Chautauqua Office, NY", "phone": "(716) 753-7880", "website": "https://www.howardhanna.com/Office/Detail/Chautauqua/004617", "brand": "Howard Hanna"}, "geometry": {"type": "Point", "coordinates": [-79.49784, 42.24279]}},
{"type": "Feature", "id": "8QTRL3t2tJe_zEBSxF1XcZUIAOo=", "properties": {"ref": "007720", "fax": null, "@spider": "howardhanna", "addr:full": "Howard Hanna Roy Wheeler Realty 1100 Dryden Ln Charlottesville, VA 22903", "name": "Charlottesville Office, VA", "phone": "(434) 951-5155", "website": "https://www.howardhanna.com/Office/Detail/Charlottesville/007720", "brand": "Howard Hanna"}, "geometry": {"type": "Point", "coordinates": [-78.53795, 38.0518]}},
{"type": "Feature", "id": "tQjg0DKLczj2yrGdO-9busNJvJM=", "properties": {"ref": "328991212", "fax": "(704) 549-9544", "@spider": "howardhanna", "addr:full": "Allen Tate Realtors 145 West W.T. Harris Boulevard Charlotte, NC 28262", "name": "Charlotte-University City Office, NC", "phone": "(704) 547-8900", "website": "https://www.howardhanna.com/Office/Detail/Charlotte-University-City/328991212", "brand": "Howard Hanna"}, "geometry": {"type": "Point", "coordinates": [-80.75153, 35.30632]}},
{"type": "Feature", "id": "8mwz_8FMdftIck3wPWL3DT8pJXE=", "properties": {"ref": "328991285", "fax": "(704) 805-9601", "@spider": "howardhanna", "addr:full": "Allen Tate Realtors 2130 Ayrsley Town Boulevard, Suite A Charlotte, NC 28273", "name": "Charlotte-Steele Creek Office, NC", "phone": "(704) 805-9600", "website": "https://www.howardhanna.com/Office/Detail/Charlotte-Steele-Creek/328991285", "brand": "Howard Hanna"}, "geometry": {"type": "Point", "coordinates": [-80.93453, 35.13887]}},
{"type": "Feature", "id": "pCpw4SlAxJ9tseMDSfdaIGwZxM8=", "properties": {"ref": "328991211", "fax": "(704) 365-6901", "@spider": "howardhanna", "addr:full": "Allen Tate Realtors 6700 Fairview Road Charlotte, NC 28210", "name": "Charlotte-SouthPark Office, NC", "phone": "(704) 364-6400", "website": "https://www.howardhanna.com/Office/Detail/Charlotte-SouthPark/328991211", "brand": "Howard Hanna"}, "geometry": {"type": "Point", "coordinates": [-80.82909, 35.14703]}},
{"type": "Feature", "id": "BjaMKl33SIfspzktQ2yRjvhLZVA=", "properties": {"ref": "32899129", "fax": "(704) 845-9835", "@spider": "howardhanna", "addr:full": "Allen Tate Realtors 10851 Providence Road, Suite 200 Charlotte, NC 28277", "name": "Charlotte-Providence @485 Office, NC", "phone": "(704) 849-8300", "website": "https://www.howardhanna.com/Office/Detail/Charlotte-Providence-485/32899129", "brand": "Howard Hanna"}, "geometry": {"type": "Point", "coordinates": [-80.76911, 35.06268]}},
{"type": "Feature", "id": "bbIiNxM-oIeP0_a56D2trVFBOqo=", "properties": {"ref": "328991219", "fax": "(704) 331-0821", "@spider": "howardhanna", "addr:full": "Allen Tate Realtors 233 North Tryon Street Charlotte, NC 28202", "name": "Charlotte-Center City Office, NC", "phone": "(704) 331-2122", "website": "https://www.howardhanna.com/Office/Detail/Charlotte-Center-City/328991219", "brand": "Howard Hanna"}, "geometry": {"type": "Point", "coordinates": [-80.84119, 35.22878]}},
{"type": "Feature", "id": "ETensainmxi-YaHq40RNphRqvfc=", "properties": {"ref": "3289912110", "fax": "(704) 543-6941", "@spider": "howardhanna", "addr:full": "15640 Don Lochman Lane, Suite 170 Charlotte, NC 28277", "name": "Charlotte-Ballantyne Welcome Center Office, NC", "phone": "(704) 541-6200", "website": "https://www.howardhanna.com/Office/Detail/Charlotte-Ballantyne-Welcome-Center/3289912110", "brand": "Howard Hanna"}, "geometry": {"type": "Point", "coordinates": [-80.84988, 35.05916]}},
{"type": "Feature", "id": "xbjeNFivAsIpUP5VJ-T1km2uLDQ=", "properties": {"ref": "32899121", "fax": "(704) 543-6941", "@spider": "howardhanna", "addr:full": "Allen Tate Realtors 14120 Ballantyne Corporate Place,Suite 520 Charlotte, NC 28277", "name": "Charlotte-Ballantyne Cullman Park Building Office, NC", "phone": "(704) 541-6200", "website": "https://www.howardhanna.com/Office/Detail/Charlotte-Ballantyne-Cullman-Park-Building/32899121", "brand": "Howard Hanna"}, "geometry": {"type": "Point", "coordinates": [-80.85793, 35.05915]}},
{"type": "Feature", "id": "pBcLdDt_6FYfk3WbE4PMx5pH36A=", "properties": {"ref": "00234", "fax": "(440) 286-4099", "@spider": "howardhanna", "addr:full": "201 Center Street Chardon, OH 44024", "name": "Chardon Office, OH", "phone": "(440) 286-4111", "website": "https://www.howardhanna.com/Office/Detail/Chardon/00234", "brand": "Howard Hanna"}, "geometry": {"type": "Point", "coordinates": [-81.20923, 41.58297]}},
{"type": "Feature", "id": "9OznHAepkayOz4aUBCIKixeChxs=", "properties": {"ref": "3289912109", "fax": "(919) 297-2458", "@spider": "howardhanna", "addr:full": "Allen Tate Realtors 114 Russet Run, Suite 110 Pittsboro, NC 27312", "name": "Chapel Hill/Pittsboro Office, NC", "phone": "(919) 913-4990", "website": "https://www.howardhanna.com/Office/Detail/Chapel-Hill-Pittsboro/3289912109", "brand": "Howard Hanna"}, "geometry": {"type": "Point", "coordinates": [-79.1646, 35.7552]}},
{"type": "Feature", "id": "aCP63e0c6NDH_RSsdoxBH2dPz_A=", "properties": {"ref": "0025", "fax": "(440) 247-5814", "@spider": "howardhanna", "addr:full": "40 E. Washington Street Chagrin Falls, OH 44022", "name": "Chagrin Falls Office, OH", "phone": "(440) 247-8900", "website": "https://www.howardhanna.com/Office/Detail/Chagrin-Falls/0025", "brand": "Howard Hanna"}, "geometry": {"type": "Point", "coordinates": [-81.39016, 41.42968]}},
{"type": "Feature", "id": "FAfzoWwfB9keP-sYkNA3E7Y7BYA=", "properties": {"ref": "307609313034367", "fax": null, "@spider": "howardhanna", "addr:full": "Howard Hanna Rand Realty 229 Route 32 Central Valley, NY 10917", "name": "Central Valley Office, NY", "phone": "(845) 928-8161", "website": "https://www.howardhanna.com/Office/Detail/Central-Valley/307609313034367", "brand": "Howard Hanna"}, "geometry": {"type": "Point", "coordinates": [-74.12239, 41.32943]}},
{"type": "Feature", "id": "tLXzmK4FwIgBTuyb9BYs_xpndj0=", "properties": {"ref": "013111", "fax": null, "@spider": "howardhanna", "addr:full": "3390 Infirmary Road Dayton, OH 45417", "name": "Central Dayton Office, OH", "phone": "(937) 310-7558", "website": "https://www.howardhanna.com/Office/Detail/Central-Dayton/013111", "brand": "Howard Hanna"}, "geometry": {"type": "Point", "coordinates": [-84.27618, 39.69712]}},
{"type": "Feature", "id": "l24PD6T_fgYmreRE6Ybp04DWSU4=", "properties": {"ref": "10723", "fax": "(315) 655-1022", "@spider": "howardhanna", "addr:full": "87 Albany St Cazenovia, NY 13035", "name": "Cazenovia Office, NY", "phone": "(315) 655-1025", "website": "https://www.howardhanna.com/Office/Detail/Cazenovia/10723", "brand": "Howard Hanna"}, "geometry": {"type": "Point", "coordinates": [-75.85255, 42.93011]}},
{"type": "Feature", "id": "A0rWjNCKHWZSHykKSj2qE5FxurE=", "properties": {"ref": "00254", "fax": "(419) 734-5818", "@spider": "howardhanna", "addr:full": "4054 E. Harbor Road Port Clinton, OH 43452", "name": "Catawba Office, OH", "phone": "(877) 734-5751", "website": "https://www.howardhanna.com/Office/Detail/Catawba/00254", "brand": "Howard Hanna"}, "geometry": {"type": "Point", "coordinates": [-82.85436, 41.52296]}},
{"type": "Feature", "id": "nPElw5EQ4FvSxPdzllvTfgP-X3s=", "properties": {"ref": "328991276", "fax": "(919) 653-2502", "@spider": "howardhanna", "addr:full": "Allen Tate Realtors 150 Wellesley Trade Lane, Suite 200 Cary, NC 27519", "name": "Cary Office, NC", "phone": "(919) 653-2501", "website": "https://www.howardhanna.com/Office/Detail/Cary/328991276", "brand": "Howard Hanna"}, "geometry": {"type": "Point", "coordinates": [-78.84663, 35.79026]}},
{"type": "Feature", "id": "VQHiYkf7RfXHw3p_Es-CF8fDe0o=", "properties": {"ref": "001156", "fax": "(717) 243-1718", "@spider": "howardhanna", "addr:full": "163 N. Hanover Street Carlisle, PA 17013", "name": "Carlisle Office, PA", "phone": "(717) 243-1000", "website": "https://www.howardhanna.com/Office/Detail/Carlisle/001156", "brand": "Howard Hanna"}, "geometry": {"type": "Point", "coordinates": [-77.1886, 40.20447]}},
{"type": "Feature", "id": "GvbmpSs6LYu0oKFoja5wZd4LMuM=", "properties": {"ref": "00230", "fax": "(330) 493-8012", "@spider": "howardhanna", "addr:full": "4758 Dressler Road Canton, OH 44718", "name": "Canton Office, OH", "phone": "(330) 493-6555", "website": "https://www.howardhanna.com/Office/Detail/Canton/00230", "brand": "Howard Hanna"}, "geometry": {"type": "Point", "coordinates": [-81.43595, 40.84594]}},
{"type": "Feature", "id": "fKCJbjiS1OLISww2IKXjArHeYFE=", "properties": {"ref": "002446", "fax": "(330) 702-8560", "@spider": "howardhanna", "addr:full": "4374 Boardman-Canfield Road Canfield, OH 44406", "name": "Canfield Office, OH", "phone": "(330) 702-8400", "website": "https://www.howardhanna.com/Office/Detail/Canfield/002446", "brand": "Howard Hanna"}, "geometry": {"type": "Point", "coordinates": [-80.73051, 41.02574]}},
{"type": "Feature", "id": "RGHVj0bGARG9NajfrDpJ6f20sxM=", "properties": {"ref": "111760", "fax": "(585) 398-2091", "@spider": "howardhanna", "addr:full": "384 North Main St Canandaigua, NY 14424", "name": "Canandaigua Office, NY", "phone": "(585) 396-5253", "website": "https://www.howardhanna.com/Office/Detail/Canandaigua/111760", "brand": "Howard Hanna"}, "geometry": {"type": "Point", "coordinates": [-77.2903, 42.89947]}},
{"type": "Feature", "id": "kIcDUA3Ht9d0tET3UYWen5T7yEI=", "properties": {"ref": "013110", "fax": null, "@spider": "howardhanna", "addr:full": "11 S High Street Canal Winchester, OH 43110", "name": "Canal Winchester - Kelly Abbott & The A Team Office, OH", "phone": "(614) 321-4058", "website": "https://www.howardhanna.com/Office/Detail/Canal-Winchester-Kelly-Abbott-The-A-Team/013110", "brand": "Howard Hanna"}, "geometry": {"type": "Point", "coordinates": [-82.8055, 39.84234]}},
{"type": "Feature", "id": "FRpEjRy38uDZew27ILyvUVMk5gA=", "properties": {"ref": "001150", "fax": "(717) 761-5308", "@spider": "howardhanna", "addr:full": "3310 Market Street Camp Hill, PA 17011", "name": "Camp Hill Office, PA", "phone": "(717) 920-9600", "website": "https://www.howardhanna.com/Office/Detail/Camp-Hill/001150", "brand": "Howard Hanna"}, "geometry": {"type": "Point", "coordinates": [-76.93672, 40.23983]}},
{"type": "Feature", "id": "OOZmxlheCtLEc1b22Xmx6oVeb0k=", "properties": {"ref": "1071", "fax": "(315) 487-4042", "@spider": "howardhanna", "addr:full": "5110 West Genesee St Camillus, NY 13031", "name": "Camillus Office, NY", "phone": "(315) 487-0040", "website": "https://www.howardhanna.com/Office/Detail/Camillus/1071", "brand": "Howard Hanna"}, "geometry": {"type": "Point", "coordinates": [-76.26481, 43.04184]}},
{"type": "Feature", "id": "fhRwe8MtPQn2mj6wduyJDDvuEU4=", "properties": {"ref": "013109", "fax": null, "@spider": "howardhanna", "addr:full": "927 Wheeling Ave, Suite 206 Cambridge, OH 43725", "name": "Cambridge Office, OH", "phone": "(740) 421-9560", "website": "https://www.howardhanna.com/Office/Detail/Cambridge/013109", "brand": "Howard Hanna"}, "geometry": {"type": "Point", "coordinates": [-81.58719, 40.02487]}},
{"type": "Feature", "id": "O3HAkMXx-4M1r5PEI4zRTJz3Uns=", "properties": {"ref": "001225", "fax": "(724) 282-4082", "@spider": "howardhanna", "addr:full": "130 Bon Aire Plaza Butler, PA 16001", "name": "Butler Office, PA", "phone": "(724) 282-7903", "website": "https://www.howardhanna.com/Office/Detail/Butler/001225", "brand": "Howard Hanna"}, "geometry": {"type": "Point", "coordinates": [-79.89781, 40.88179]}},
{"type": "Feature", "id": "xQujEMq5g8hnXqbqJ8saEU7jXHw=", "properties": {"ref": "3289912809", "fax": null, "@spider": "howardhanna", "addr:full": "369 West US 19-E Burnsville, NC 28714", "name": "Burnsville Office, NC", "phone": "(828) 678-9944", "website": "https://www.howardhanna.com/Office/Detail/Burnsville/3289912809", "brand": "Howard Hanna"}, "geometry": {"type": "Point", "coordinates": [-82.2972, 35.91557]}},
{"type": "Feature", "id": "zmC5IGrneKTLOvXXulNFIbPmSVk=", "properties": {"ref": "328991265", "fax": "(336) 227-8081", "@spider": "howardhanna", "addr:full": "Allen Tate Realtors 3315 Garden Road Burlington, NC 27215", "name": "Burlington Office, NC", "phone": "(336) 227-3666", "website": "https://www.howardhanna.com/Office/Detail/Burlington/328991265", "brand": "Howard Hanna"}, "geometry": {"type": "Point", "coordinates": [-79.50378, 36.07218]}},
{"type": "Feature", "id": "MR6rwLWSV-llkPVtnu2E21-CWyE=", "properties": {"ref": "10122", "fax": "(716) 884-1095", "@spider": "howardhanna", "addr:full": "504 Elmwood Ave Buffalo, NY 14222", "name": "Buffalo Metro Office, NY", "phone": "(716) 885-4000", "website": "https://www.howardhanna.com/Office/Detail/Buffalo-Metro/10122", "brand": "Howard Hanna"}, "geometry": {"type": "Point", "coordinates": [-78.87739, 42.91084]}},
{"type": "Feature", "id": "Dk1rg06afe1cid7kpSRlYnJ4hF0=", "properties": {"ref": "013108", "fax": null, "@spider": "howardhanna", "addr:full": "4595 Walnut Street, Unit N Buckeye Lake, OH 43008", "name": "Buckeye Lake Office, OH", "phone": "(740) 928-0008", "website": "https://www.howardhanna.com/Office/Detail/Buckeye-Lake/013108", "brand": "Howard Hanna"}, "geometry": {"type": "Point", "coordinates": [-82.49152, 39.93806]}},
{"type": "Feature", "id": "ccwaC1_odb8xFKkoSLrjjrIEj0k=", "properties": {"ref": "00228", "fax": "(330) 225-4686", "@spider": "howardhanna", "addr:full": "3925 Center Rd. Brunswick, OH 44212", "name": "Brunswick Office, OH", "phone": "(330) 225-1077", "website": "https://www.howardhanna.com/Office/Detail/Brunswick/00228", "brand": "Howard Hanna"}, "geometry": {"type": "Point", "coordinates": [-81.8267, 41.23835]}},
{"type": "Feature", "id": "nQqUFC9Iv0Bdisde0ytxMO775Gc=", "properties": {"ref": "307609313035354", "fax": null, "@spider": "howardhanna", "addr:full": "Howard Hanna Rand Realty 3928 East Tremont Ave Bronx, NY 10465", "name": "Bronx Office, NY", "phone": "(347) 202-4965", "website": "https://www.howardhanna.com/Office/Detail/Bronx/307609313035354", "brand": "Howard Hanna"}, "geometry": {"type": "Point", "coordinates": [-73.81909, 40.82133]}},
{"type": "Feature", "id": "JL1CuXx8QAW4oJ_tcq2gY-gAGJk=", "properties": {"ref": "111764", "fax": "(585) 637-2956", "@spider": "howardhanna", "addr:full": "9 Main St Brockport, NY 14420", "name": "Brockport Office, NY", "phone": "(585) 637-2810", "website": "https://www.howardhanna.com/Office/Detail/Brockport/111764", "brand": "Howard Hanna"}, "geometry": {"type": "Point", "coordinates": [-77.93792, 43.21749]}},
{"type": "Feature", "id": "O0BTN800v9ggPEXZNP8BlD0yQrk=", "properties": {"ref": "111755", "fax": "(585) 271-6008", "@spider": "howardhanna", "addr:full": "2349 Monroe Ave Brighton, NY 14618", "name": "Brighton Office, NY", "phone": "(585) 473-1320", "website": "https://www.howardhanna.com/Office/Detail/Brighton/111755", "brand": "Howard Hanna"}, "geometry": {"type": "Point", "coordinates": [-77.55733, 43.11921]}},
{"type": "Feature", "id": "MaN4hupwCvAeWRT7Harr8bNJA78=", "properties": {"ref": "3289912808", "fax": null, "@spider": "howardhanna", "addr:full": "7737 Greenville Hwy Brevard, NC 28712", "name": "Brevard-South Office, NC", "phone": "(828) 392-8970", "website": "https://www.howardhanna.com/Office/Detail/Brevard-South/3289912808", "brand": "Howard Hanna"}, "geometry": {"type": "Point", "coordinates": [-82.69384, 35.14983]}},
{"type": "Feature", "id": "IifRQMSL5hZwRfirc98zUjMfZYQ=", "properties": {"ref": "3289912807", "fax": null, "@spider": "howardhanna", "addr:full": "6 East Main Street Brevard, NC 28712", "name": "Brevard-Downtown Office, NC", "phone": "(828) 469-9146", "website": "https://www.howardhanna.com/Office/Detail/Brevard-Downtown/3289912807", "brand": "Howard Hanna"}, "geometry": {"type": "Point", "coordinates": [-82.73425, 35.23354]}},
{"type": "Feature", "id": "V54O_lMzPWKFDATPfgGGnpiAE8s=", "properties": {"ref": "0024", "fax": "(440) 526-0946", "@spider": "howardhanna", "addr:full": "8949 Brecksville Rd. Brecksville, OH 44141", "name": "Brecksville/Broadview Heights Office, OH", "phone": "(440) 526-1800", "website": "https://www.howardhanna.com/Office/Detail/Brecksville-Broadview-Heights/0024", "brand": "Howard Hanna"}, "geometry": {"type": "Point", "coordinates": [-81.62652, 41.31863]}},
{"type": "Feature", "id": "gkaGP56-boqL-f60N7mvU9hI1wA=", "properties": {"ref": "004654", "fax": "(814) 362-7451", "@spider": "howardhanna", "addr:full": "Howard Hanna Professionals 90 Mechanic Street Bradford, PA 16701", "name": "Bradford Office, PA", "phone": "(814) 362-7450", "website": "https://www.howardhanna.com/Office/Detail/Bradford/004654", "brand": "Howard Hanna"}, "geometry": {"type": "Point", "coordinates": [-78.65127, 41.9586]}},
{"type": "Feature", "id": "2krL-08Kqge1ZAhfrwZxgXm0Vtw=", "properties": {"ref": "3289912602", "fax": "(828) 295-7850", "@spider": "howardhanna", "addr:full": "Allen Tate Realtors 736 West King Street Boone, NC 28607", "name": "Boone Office, NC", "phone": "(828) 278-8337", "website": "https://www.howardhanna.com/Office/Detail/Boone/3289912602", "brand": "Howard Hanna"}, "geometry": {"type": "Point", "coordinates": [-81.68513, 36.21958]}},
{"type": "Feature", "id": "lfz_nJ5TZa_NHp9tdiokPF6ITnA=", "properties": {"ref": "3289912111", "fax": null, "@spider": "howardhanna", "addr:full": "Allen Tate Realtors 6236 US Hwy 321 S Blowing Rock, NC 28605", "name": "Blowing Rock Office, NC", "phone": "(828) 295-7337", "website": "https://www.howardhanna.com/Office/Detail/Blowing-Rock/3289912111", "brand": "Howard Hanna"}, "geometry": {"type": "Point", "coordinates": [-81.65759, 36.15154]}},
{"type": "Feature", "id": "ths9dP5n43sbLXvDvgmhRTZeY70=", "properties": {"ref": "005660", "fax": "(248) 283-8701", "@spider": "howardhanna", "addr:full": "555 S. Old Woodward Avenue, Suite 22U Birmingham, MI 48009", "name": "Birmingham Office, MI", "phone": "(248) 283-8700", "website": "https://www.howardhanna.com/Office/Detail/Birmingham/005660", "brand": "Howard Hanna"}, "geometry": {"type": "Point", "coordinates": [-83.21873, 42.55287]}},
{"type": "Feature", "id": "YXwg6MhtUB8ZVzVOwrIEyWYxujE=", "properties": {"ref": "3289912815", "fax": null, "@spider": "howardhanna", "addr:full": "80 Lake Drive Asheville, NC 28715", "name": "Biltmore Lake Office, NC", "phone": "(828) 209-5253", "website": "https://www.howardhanna.com/Office/Detail/Biltmore-Lake/3289912815", "brand": "Howard Hanna"}, "geometry": {"type": "Point", "coordinates": [-82.62818, 35.57432]}},
{"type": "Feature", "id": "cH76WACITJNVw3VSwQuxZkRaQyE=", "properties": {"ref": "013107", "fax": null, "@spider": "howardhanna", "addr:full": "2256 E Main Street Bexley, OH 43209", "name": "Bexley - Gledhill Robbins & Talis Group Office, OH", "phone": "(614) 610-1417", "website": "https://www.howardhanna.com/Office/Detail/Bexley-Gledhill-Robbins-Talis-Group/013107", "brand": "Howard Hanna"}, "geometry": {"type": "Point", "coordinates": [-82.93861, 39.95734]}},
{"type": "Feature", "id": "mBPSwyB-iYvHvzUXNY7eg8yUuEE=", "properties": {"ref": "013106", "fax": null, "@spider": "howardhanna", "addr:full": "2815 E. Main Street Bexley, OH 43209", "name": "Bexley Office, OH", "phone": "(614) 239-7400", "website": "https://www.howardhanna.com/Office/Detail/Bexley/013106", "brand": "Howard Hanna"}, "geometry": {"type": "Point", "coordinates": [-82.92324, 39.95657]}},
{"type": "Feature", "id": "cAOzprn6F0jQBxTnZw2z3y_mexM=", "properties": {"ref": "3289912821", "fax": null, "@spider": "howardhanna", "addr:full": "10 Southcliff Parkway Fairview, NC 28730", "name": "Asheville-Southcliff Office, NC", "phone": "(828) 628-3532", "website": "https://www.howardhanna.com/Office/Detail/Asheville-Southcliff/3289912821", "brand": "Howard Hanna"}, "geometry": {"type": "Point", "coordinates": [-82.44407, 35.54611]}},
{"type": "Feature", "id": "eNm4d4q1sqZkyOFEy8n0JTLuMxc=", "properties": {"ref": "3289912802", "fax": null, "@spider": "howardhanna", "addr:full": "820 Merrimon Ave Asheville, NC 28804", "name": "Asheville-North Office, NC", "phone": "(828) 251-1800", "website": "https://www.howardhanna.com/Office/Detail/Asheville-North/3289912802", "brand": "Howard Hanna"}, "geometry": {"type": "Point", "coordinates": [-82.55284, 35.62666]}},
{"type": "Feature", "id": "OvyIL6g4WePGgmRg3xrya6NJngg=", "properties": {"ref": "3289912801", "fax": null, "@spider": "howardhanna", "addr:full": "300 Executive Park Asheville, NC 28801", "name": "Asheville-Downtown Office, NC", "phone": "(828) 254-7221", "website": "https://www.howardhanna.com/Office/Detail/Asheville-Downtown/3289912801", "brand": "Howard Hanna"}, "geometry": {"type": "Point", "coordinates": [-82.54576, 35.59808]}},
{"type": "Feature", "id": "yElA6UTQzHtMfxRQxXAY7oG5oM4=", "properties": {"ref": "3289912803", "fax": null, "@spider": "howardhanna", "addr:full": "One Town Square Blvd Asheville, NC 28803", "name": "Asheville-Biltmore Park Office, NC", "phone": "(828) 684-8999", "website": "https://www.howardhanna.com/Office/Detail/Asheville-Biltmore-Park/3289912803", "brand": "Howard Hanna"}, "geometry": {"type": "Point", "coordinates": [-82.55511, 35.48521]}},
{"type": "Feature", "id": "evC_mybm3iWPmsUE6BcjEP97LEY=", "properties": {"ref": "3289912804", "fax": null, "@spider": "howardhanna", "addr:full": "40 Biltmore Avenue Asheville, NC 28801", "name": "Asheville-Biltmore Avenue Office, NC", "phone": "(828) 782-5588", "website": "https://www.howardhanna.com/Office/Detail/Asheville-Biltmore-Avenue/3289912804", "brand": "Howard Hanna"}, "geometry": {"type": "Point", "coordinates": [-82.55094, 35.5934]}},
{"type": "Feature", "id": "9JskSLgLqARvF0aYMJ40vD2d1GY=", "properties": {"ref": "328991287", "fax": "(336) 625-1192", "@spider": "howardhanna", "addr:full": "Allen Tate Realtors 515 South Fayetteville Street Asheboro, NC 27203", "name": "Asheboro Office, NC", "phone": "(336) 633-1333", "website": "https://www.howardhanna.com/Office/Detail/Asheboro/328991287", "brand": "Howard Hanna"}, "geometry": {"type": "Point", "coordinates": [-79.81429, 35.70084]}},
{"type": "Feature", "id": "Oyvhm695O-DP8_TJTCFVdibLJek=", "properties": {"ref": "013101", "fax": null, "@spider": "howardhanna", "addr:full": "3311 Tremont Road Columbus, OH 43221", "name": "Arlington Northwest Office, OH", "phone": "(614) 451-7400", "website": "https://www.howardhanna.com/Office/Detail/Arlington-Northwest/013101", "brand": "Howard Hanna"}, "geometry": {"type": "Point", "coordinates": [-83.05833, 40.02486]}},
{"type": "Feature", "id": "nwF7KT9ONJlk7Fm_3byOqHGd6Us=", "properties": {"ref": "10118", "fax": "(585) 496-5232", "@spider": "howardhanna", "addr:full": "560 West Main St Arcade, NY 14009", "name": "Arcade Office, NY", "phone": "(585) 496-5230", "website": "https://www.howardhanna.com/Office/Detail/Arcade/10118", "brand": "Howard Hanna"}, "geometry": {"type": "Point", "coordinates": [-78.43742, 42.53314]}},
{"type": "Feature", "id": "P8xPVKbNtTGbSP7uH64ssbrH-Rs=", "properties": {"ref": "3289912411", "fax": null, "@spider": "howardhanna", "addr:full": "1617 Center Street Apex, NC 27502", "name": "Apex Office, NC", "phone": "(919) 267-3462", "website": "https://www.howardhanna.com/Office/Detail/Apex/3289912411", "brand": "Howard Hanna"}, "geometry": {"type": "Point", "coordinates": [-78.82917, 35.7272]}},
{"type": "Feature", "id": "tajZNBBp3CCubjW-GEgQKpBy9TE=", "properties": {"ref": "328991216313181", "fax": null, "@spider": "howardhanna", "addr:full": "Allen Tate Realtors 1421 Kelly Road Apex, NC 27502", "name": "Apex Office, NC", "phone": "(919) 267-3462", "website": "https://www.howardhanna.com/Office/Detail/Apex/328991216313181", "brand": "Howard Hanna"}, "geometry": {"type": "Point", "coordinates": [-78.8943, 35.73789]}},
{"type": "Feature", "id": "6hcyKuW9HF1gSu-rANIbFxhb2l4=", "properties": {"ref": "013100", "fax": null, "@spider": "howardhanna", "addr:full": "12999 Co Rd Anna, OH 45302", "name": "Anna Office, OH", "phone": "(937) 492-7792", "website": "https://www.howardhanna.com/Office/Detail/Anna/013100", "brand": "Howard Hanna"}, "geometry": {"type": "Point", "coordinates": [-84.17272, 40.39449]}},
{"type": "Feature", "id": "Afnqrv3VvU8zl3OHQO0YFBM1ui8=", "properties": {"ref": "005651", "fax": "(734) 761-6767", "@spider": "howardhanna", "addr:full": "1898 West Stadium Blvd Ann Arbor, MI 48103", "name": "Ann Arbor Office, MI", "phone": "(734) 761-6600", "website": "https://www.howardhanna.com/Office/Detail/Ann-Arbor/005651", "brand": "Howard Hanna"}, "geometry": {"type": "Point", "coordinates": [-83.77161, 42.26883]}},
{"type": "Feature", "id": "tGUrlwCnhySUq3ckhnnzarSaeo4=", "properties": {"ref": "004629", "fax": "(440) 293-5741", "@spider": "howardhanna", "addr:full": "Howard Hanna Bainbridge Kaufman Real Estate 320 East Main Street Andover, OH 44003", "name": "Andover Office, OH", "phone": "(440) 293-7799", "website": "https://www.howardhanna.com/Office/Detail/Andover/004629", "brand": "Howard Hanna"}, "geometry": {"type": "Point", "coordinates": [-80.56763, 41.60736]}},
{"type": "Feature", "id": "mC_aiRGZ1UArrga7G7u5tO36O2Y=", "properties": {"ref": "3289912104", "fax": "(864) 972-1375", "@spider": "howardhanna", "addr:full": "Allen Tate Realtors 4325-A Old Mill Road Anderson, SC 29621", "name": "Anderson Office, SC", "phone": "(864) 972-3042", "website": "https://www.howardhanna.com/Office/Detail/Anderson/3289912104", "brand": "Howard Hanna"}, "geometry": {"type": "Point", "coordinates": [-82.55299, 34.75987]}},
{"type": "Feature", "id": "L_LshwIoLMSon9g9HuAyTRQ2B10=", "properties": {"ref": "1012", "fax": "(716) 634-3372", "@spider": "howardhanna", "addr:full": "6000 Sheridan Dr Williamsville, NY 14221", "name": "Amherst/Clarence Office, NY", "phone": "(716) 634-4200", "website": "https://www.howardhanna.com/Office/Detail/Amherst-Clarence/1012", "brand": "Howard Hanna"}, "geometry": {"type": "Point", "coordinates": [-78.71056, 42.97838]}},
{"type": "Feature", "id": "keElpSZGCEh5og8cEwWoUGw_-zw=", "properties": {"ref": "10128", "fax": "(716) 932-5301", "@spider": "howardhanna", "addr:full": "5462 Sheridan Dr Williamsville, NY 14221", "name": "Amherst Office, NY", "phone": "(716) 932-5300", "website": "https://www.howardhanna.com/Office/Detail/Amherst/10128", "brand": "Howard Hanna"}, "geometry": {"type": "Point", "coordinates": [-78.73074, 42.97846]}},
{"type": "Feature", "id": "s0kskd5vxFyVCC6JXYnLz6N_gXw=", "properties": {"ref": "00240", "fax": "(440) 282-8727", "@spider": "howardhanna", "addr:full": "1711 Cooper Foster Park Road Amherst, OH 44001", "name": "Amherst Office, OH", "phone": "(440) 282-8002", "website": "https://www.howardhanna.com/Office/Detail/Amherst/00240", "brand": "Howard Hanna"}, "geometry": {"type": "Point", "coordinates": [-82.19593, 41.41595]}},
{"type": "Feature", "id": "sLH5KiDdyqYTP_fEFaWAJN1ZG0k=", "properties": {"ref": "004677", "fax": null, "@spider": "howardhanna", "addr:full": "Howard Hanna Bardell Realty 300 Orchard Avenue Altoona, PA 16602", "name": "Altoona Office, PA", "phone": "(814) 313-4111", "website": "https://www.howardhanna.com/Office/Detail/Altoona/004677", "brand": "Howard Hanna"}, "geometry": {"type": "Point", "coordinates": [-78.40204, 40.4706]}},
{"type": "Feature", "id": "sHVuTs0qAClP0150pqYj_Omy-Sc=", "properties": {"ref": "001209", "fax": "(724) 339-2888", "@spider": "howardhanna", "addr:full": "2400 Leechburg Road New Kensington, PA 15068", "name": "Allegheny Valley Office, PA", "phone": "(724) 339-4000", "website": "https://www.howardhanna.com/Office/Detail/Allegheny-Valley/001209", "brand": "Howard Hanna"}, "geometry": {"type": "Point", "coordinates": [-79.74821, 40.58666]}},
{"type": "Feature", "id": "lnZzlvSEgDvzuNNQlbe9r2A0kGY=", "properties": {"ref": "1021", "fax": "(518) 489-3507", "@spider": "howardhanna", "addr:full": "20 Aviation Rd Albany, NY 12205", "name": "Albany/Empire Office, NY", "phone": "(518) 489-1000", "website": "https://www.howardhanna.com/Office/Detail/Albany-Empire/1021", "brand": "Howard Hanna"}, "geometry": {"type": "Point", "coordinates": [-73.8038, 42.71488]}},
{"type": "Feature", "id": "apTEvxIVtT2M1nreRgQXsjzwhkg=", "properties": {"ref": "00218", "fax": "(330) 836-5966", "@spider": "howardhanna", "addr:full": "3030 West Market Street Akron, OH 44333", "name": "Akron Office, OH", "phone": "(330) 836-9300", "website": "https://www.howardhanna.com/Office/Detail/Akron/00218", "brand": "Howard Hanna"}, "geometry": {"type": "Point", "coordinates": [-81.59842, 41.12316]}},
{"type": "Feature", "id": "gGeqXBQEKuDl4nMi625deWhMAUc=", "properties": {"ref": "005653", "fax": "(517) 266-1692", "@spider": "howardhanna", "addr:full": "905 N. Main Street, Suite D Adrian, MI 49221", "name": "Adrian Office, MI", "phone": "(517) 263-4100", "website": "https://www.howardhanna.com/Office/Detail/Adrian/005653", "brand": "Howard Hanna"}, "geometry": {"type": "Point", "coordinates": [-84.03215, 41.90685]}},
{"type": "Feature", "id": "RE-5XFLLolxbYZG4hMes3NUN43g=", "properties": {"ref": "328991220", "fax": null, "@spider": "howardhanna", "addr:full": "6700 Fairview Road Charlotte, NC 28210", "name": "Administration Office, NC", "phone": "(704) 365-6910", "website": "https://www.howardhanna.com/Office/Detail/Administration/328991220", "brand": "Howard Hanna"}, "geometry": {"type": "Point", "coordinates": [-80.82909, 35.14703]}},
{"type": "Feature", "id": "V5mV8wHkRaAh4N92G67pkkwG2Ys=", "properties": {"ref": "001221", "fax": "(724) 776-0673", "@spider": "howardhanna", "addr:full": "100 High Pointe Drive Seven Fields, PA 16046", "name": "Adams Township/Seven Fields Office, PA", "phone": "(724) 772-8822", "website": "https://www.howardhanna.com/Office/Detail/Adams-Township-Seven-Fields/001221", "brand": "Howard Hanna"}, "geometry": {"type": "Point", "coordinates": [-80.05886, 40.68729]}}]}