{"type":"FeatureCollection","features":[{"type": "Feature", "id": "OEEzq4_aJ2qYZ8alaHj8Qg6eLLY=", "properties": {"ref": "1782", "@spider": "hungry_horse", "amenity": "pub", "addr:full": "1710 Great Western Road, Clydebank, G81 2XT, United Kingdom", "addr:postcode": "G81 2XT", "addr:country": "GB", "name": "Titan", "phone": "01389 891224", "website": "https://www.hungryhorse.co.uk/pubs/west-dunbartonshire/titan/", "opening_hours": "Mo 08:00-23:00; Tu 08:00-23:00; We 08:00-23:00; Th 08:00-23:00; Fr 08:00-00:00; Sa 08:00-00:00; Su 08:00-23:00", "brand": "Hungry Horse", "brand:wikidata": "Q5943510", "nsi_id": "hungryhorse-eaed91"}, "geometry": {"type": "Point", "coordinates": [-4.390727, 55.912245]}},
{"type": "Feature", "id": "MvVfI21d7aE8k7rr7_Cw1wx_6qk=", "properties": {"ref": "6724", "@spider": "hungry_horse", "amenity": "pub", "addr:full": "Palantine Road, Goring-By-Sea, Worthing, BN12 6JN, United Kingdom", "addr:postcode": "BN12 6JN", "addr:country": "GB", "name": "Sussex Yeoman", "phone": "01903 240050", "website": "https://www.hungryhorse.co.uk/pubs/west-sussex/sussex-yeoman/", "opening_hours": "Mo 09:00-23:00; Tu 09:00-23:00; We 09:00-23:00; Th 09:00-23:00; Fr 09:00-23:00; Sa 09:00-23:00; Su 09:00-23:00", "brand": "Hungry Horse", "brand:wikidata": "Q5943510", "nsi_id": "hungryhorse-eaed91"}, "geometry": {"type": "Point", "coordinates": [-0.4241, 50.823831]}},
{"type": "Feature", "id": "I-0tcc_R-MzNVmIa6AlF7_N6I-w=", "properties": {"ref": "6355", "@spider": "hungry_horse", "amenity": "pub", "addr:full": "Aldwick Road, Bognor Regis, PO21 3AD, United Kingdom", "addr:postcode": "PO21 3AD", "addr:country": "GB", "name": "Martlets", "phone": "01243 841402", "website": "https://www.hungryhorse.co.uk/pubs/west-sussex/martlets/", "opening_hours": "Mo 09:00-23:00; Tu 09:00-23:00; We 09:00-23:00; Th 09:00-23:00; Fr 09:00-00:00; Sa 09:00-00:00; Su 09:00-22:30", "brand": "Hungry Horse", "brand:wikidata": "Q5943510", "nsi_id": "hungryhorse-eaed91"}, "geometry": {"type": "Point", "coordinates": [-0.69717, 50.785619]}},
{"type": "Feature", "id": "pdkQwRGeRs3xS9EhVuM_e9jPB7s=", "properties": {"ref": "1955", "@spider": "hungry_horse", "amenity": "pub", "addr:full": "Steanard Lane, Shepley Bridge, Mirfield, WF14 8HB, United Kingdom", "addr:postcode": "WF14 8HB", "addr:country": "GB", "name": "Ship Inn", "phone": "01924 493364", "website": "https://www.hungryhorse.co.uk/pubs/west-yorkshire/ship-inn/", "opening_hours": "Mo 08:00-23:00; Tu 08:00-23:00; We 08:00-23:00; Th 08:00-23:00; Fr 08:00-23:00; Sa 08:00-23:00; Su 08:00-23:00", "brand": "Hungry Horse", "brand:wikidata": "Q5943510", "nsi_id": "hungryhorse-eaed91"}, "geometry": {"type": "Point", "coordinates": [-1.674342, 53.673915]}},
{"type": "Feature", "id": "3peAOsw8L9CZGFFPH-WP2IF7M8M=", "properties": {"ref": "6736", "@spider": "hungry_horse", "amenity": "pub", "addr:full": "Barnsley Road, Wakefield, WF2 6BH, United Kingdom", "addr:postcode": "WF2 6BH", "addr:country": "GB", "name": "Walnut Tree", "phone": "01924 250480", "website": "https://www.hungryhorse.co.uk/pubs/west-yorkshire/walnut-tree/", "opening_hours": "Mo 09:00-23:00; Tu 09:00-23:00; We 09:00-23:00; Th 09:00-23:00; Fr 09:00-00:00; Sa 09:00-00:00; Su 09:00-23:00", "brand": "Hungry Horse", "brand:wikidata": "Q5943510", "nsi_id": "hungryhorse-eaed91"}, "geometry": {"type": "Point", "coordinates": [-1.490786, 53.650799]}},
{"type": "Feature", "id": "QK8PxvOGHP_TdG21QnOSdWQhlss=", "properties": {"ref": "6718", "@spider": "hungry_horse", "amenity": "pub", "addr:full": "Ferry Lane, Stanley, Wakefield, WF3 4LT, United Kingdom", "addr:postcode": "WF3 4LT", "addr:country": "GB", "name": "Stanley Ferry", "phone": "01924 290596", "website": "https://www.hungryhorse.co.uk/pubs/west-yorkshire/stanley-ferry/", "opening_hours": "Mo 09:00-23:00; Tu 09:00-23:00; We 09:00-23:00; Th 09:00-23:00; Fr 09:00-23:00; Sa 09:00-23:00; Su 09:00-23:00", "brand": "Hungry Horse", "brand:wikidata": "Q5943510", "nsi_id": "hungryhorse-eaed91"}, "geometry": {"type": "Point", "coordinates": [-1.463176, 53.701435]}},
{"type": "Feature", "id": "5_kbK6E9oUY0_xDGX8TFOQoJlOc=", "properties": {"ref": "6375", "@spider": "hungry_horse", "amenity": "pub", "addr:full": "Quayside, Salts Mill Road, Shipley, BD18 3ST, United Kingdom", "addr:postcode": "BD18 3ST", "addr:country": "GB", "name": "Noble Comb", "phone": "01274 585770", "website": "https://www.hungryhorse.co.uk/pubs/west-yorkshire/noble-comb/", "opening_hours": "Mo 09:00-23:00; Tu 09:00-23:00; We 09:00-23:00; Th 09:00-23:00; Fr 09:00-23:00; Sa 09:00-23:00; Su 09:00-22:30", "brand": "Hungry Horse", "brand:wikidata": "Q5943510", "nsi_id": "hungryhorse-eaed91"}, "geometry": {"type": "Point", "coordinates": [-1.775071, 53.835931]}},
{"type": "Feature", "id": "fgAjzkU3B2bpTsyV9T50P5RT2nw=", "properties": {"ref": "7779", "@spider": "hungry_horse", "amenity": "pub", "addr:full": "6 Aberford Road, Garforth, Leeds, LS25 1PX, United Kingdom", "addr:postcode": "LS25 1PX", "addr:country": "GB", "name": "Lord Gascoigne", "phone": "0113 2862451", "website": "https://www.hungryhorse.co.uk/pubs/west-yorkshire/lord-gascoigne/", "opening_hours": "Mo 08:00-23:00; Tu 08:00-23:00; We 08:00-23:00; Th 08:00-23:00; Fr 08:00-00:00; Sa 08:00-00:00; Su 08:00-23:00", "brand": "Hungry Horse", "brand:wikidata": "Q5943510", "nsi_id": "hungryhorse-eaed91"}, "geometry": {"type": "Point", "coordinates": [-1.38618, 53.796628]}},
{"type": "Feature", "id": "hzAJ3h8Thc2UpSSr256IT70rftE=", "properties": {"ref": "6350", "@spider": "hungry_horse", "amenity": "pub", "addr:full": "Otley Road, Adel, Leeds, LS16 7PH, United Kingdom", "addr:postcode": "LS16 7PH", "addr:country": "GB", "name": "Lawnswood Arms", "phone": "01132 671823", "website": "https://www.hungryhorse.co.uk/pubs/west-yorkshire/lawnswood-arms/", "opening_hours": "Mo 09:00-23:00; Tu 09:00-23:00; We 09:00-23:00; Th 09:00-23:00; Fr 09:00-23:00; Sa 09:00-23:00; Su 09:00-23:00", "brand": "Hungry Horse", "brand:wikidata": "Q5943510", "nsi_id": "hungryhorse-eaed91"}, "geometry": {"type": "Point", "coordinates": [-1.591031, 53.856687]}},
{"type": "Feature", "id": "WtwqOWqnaxSKZuOBV5gJflIVxaI=", "properties": {"ref": "6304", "@spider": "hungry_horse", "amenity": "pub", "addr:full": "Old Great North Road, Darrington, Pontefract, WF8 3BL, United Kingdom", "addr:postcode": "WF8 3BL", "addr:country": "GB", "name": "Darrington", "phone": "01977 602516", "website": "https://www.hungryhorse.co.uk/pubs/west-yorkshire/darrington/", "opening_hours": "Mo 07:00-23:00; Tu 07:00-23:00; We 07:00-23:00; Th 07:00-23:00; Fr 07:00-23:00; Sa 08:00-23:00; Su 08:00-22:30", "brand": "Hungry Horse", "brand:wikidata": "Q5943510", "nsi_id": "hungryhorse-eaed91"}, "geometry": {"type": "Point", "coordinates": [-1.262405, 53.673147]}},
{"type": "Feature", "id": "tuJjud-QJdGiPn97aSgLmNAskYk=", "properties": {"ref": "1937", "@spider": "hungry_horse", "amenity": "pub", "addr:full": "Park Road, Woodsetton, Dudley, DY1 4JH, United Kingdom", "addr:postcode": "DY1 4JH", "addr:country": "GB", "name": "Bramford Arms", "phone": "01902 665105", "website": "https://www.hungryhorse.co.uk/pubs/west-midlands/bramford-arms/", "opening_hours": "Mo 09:00-23:00; Tu 09:00-23:00; We 09:00-23:00; Th 09:00-23:00; Fr 09:00-00:00; Sa 09:00-00:00; Su 09:00-23:00", "brand": "Hungry Horse", "brand:wikidata": "Q5943510", "nsi_id": "hungryhorse-eaed91"}, "geometry": {"type": "Point", "coordinates": [-2.096765, 52.533894]}},
{"type": "Feature", "id": "_A04VmamegnoE9j2kCy-KbyYGew=", "properties": {"ref": "1791", "@spider": "hungry_horse", "amenity": "pub", "addr:full": "4 Waterfront North Leisure, Wolverhampton Road, Walsall, WS2 8DH, United Kingdom", "addr:postcode": "WS2 8DH", "addr:country": "GB", "name": "Waterfront", "phone": "01922 616382", "website": "https://www.hungryhorse.co.uk/pubs/west-midlands/waterfront/", "opening_hours": "Mo 09:00-23:00; Tu 09:00-23:00; We 09:00-23:00; Th 09:00-23:00; Fr 09:00-23:00; Sa 09:00-23:00; Su 09:00-23:00", "brand": "Hungry Horse", "brand:wikidata": "Q5943510", "nsi_id": "hungryhorse-eaed91"}, "geometry": {"type": "Point", "coordinates": [-1.990306, 52.585844]}},
{"type": "Feature", "id": "rdWvhQX-VkYXWJ8u1jHjqjPwclo=", "properties": {"ref": "1812", "@spider": "hungry_horse", "amenity": "pub", "addr:full": "10 Victoria Square, Wolverhampton, WV1 1LD, United Kingdom", "addr:postcode": "WV1 1LD", "addr:country": "GB", "name": "Sunbeam", "phone": "01902 421208", "website": "https://www.hungryhorse.co.uk/pubs/west-midlands/sunbeam/", "opening_hours": "Mo 09:00-23:00; Tu 09:00-23:00; We 09:00-23:00; Th 09:00-23:00; Fr 08:00-23:00; Sa 08:00-23:00; Su 09:00-23:00", "brand": "Hungry Horse", "brand:wikidata": "Q5943510", "nsi_id": "hungryhorse-eaed91"}, "geometry": {"type": "Point", "coordinates": [-2.12277, 52.586616]}},
{"type": "Feature", "id": "bKc8-n_znl_bQRLQNxfclQnkpgg=", "properties": {"ref": "1828", "@spider": "hungry_horse", "amenity": "pub", "addr:full": "Wolverhampton Road West, Willenhall, WV13 2RN, United Kingdom", "addr:postcode": "WV13 2RN", "addr:country": "GB", "name": "Keymaster", "phone": "01902 604424", "website": "https://www.hungryhorse.co.uk/pubs/west-midlands/keymaster/", "opening_hours": "Mo 09:00-23:00; Tu 09:00-23:00; We 09:00-23:00; Th 09:00-23:00; Fr 09:00-00:00; Sa 09:00-00:00; Su 09:00-23:00", "brand": "Hungry Horse", "brand:wikidata": "Q5943510", "nsi_id": "hungryhorse-eaed91"}, "geometry": {"type": "Point", "coordinates": [-2.035748, 52.586875]}},
{"type": "Feature", "id": "RPaQ2eqvZEesxzO2aZCL_o8gRKI=", "properties": {"ref": "1820", "@spider": "hungry_horse", "amenity": "pub", "addr:full": "Unit 8, New Square, West Bromwich, B70 7PP, United Kingdom", "addr:postcode": "B70 7PP", "addr:country": "GB", "name": "Interceptor", "phone": "0121 553 4563", "website": "https://www.hungryhorse.co.uk/pubs/west-midlands/interceptor/", "opening_hours": "Mo 09:00-23:00; Tu 09:00-23:00; We 09:00-23:00; Th 09:00-23:00; Fr 09:00-23:00; Sa 09:00-23:00; Su 09:00-23:00", "brand": "Hungry Horse", "brand:wikidata": "Q5943510", "nsi_id": "hungryhorse-eaed91"}, "geometry": {"type": "Point", "coordinates": [-1.991283, 52.5201]}},
{"type": "Feature", "id": "Sb_GeUgn-Q4wVlBKmieW-tIjssY=", "properties": {"ref": "1671", "@spider": "hungry_horse", "amenity": "pub", "addr:full": "Chester Road North, Brownhills, Walsall, WS8 7JP, United Kingdom", "addr:postcode": "WS8 7JP", "addr:country": "GB", "name": "Hussey Arms", "phone": "01543 379205", "website": "https://www.hungryhorse.co.uk/pubs/west-midlands/hussey-arms/", "opening_hours": "Mo 09:00-23:00; Tu 09:00-23:00; We 09:00-23:00; Th 09:00-23:00; Fr 09:00-23:00; Sa 09:00-23:00; Su 09:00-23:00", "brand": "Hungry Horse", "brand:wikidata": "Q5943510", "nsi_id": "hungryhorse-eaed91"}, "geometry": {"type": "Point", "coordinates": [-1.937956, 52.650609]}},
{"type": "Feature", "id": "rAHHzgOqGaQGaP9dLq7wNX4gPHg=", "properties": {"ref": "1723", "@spider": "hungry_horse", "amenity": "pub", "addr:full": "220 Coleshill Road, Hodgehill, Birmingham, B36 8BE, United Kingdom", "addr:postcode": "B36 8BE", "addr:country": "GB", "name": "Hunters Moon", "phone": "0121 7492595", "website": "https://www.hungryhorse.co.uk/pubs/west-midlands/hunters-moon/", "opening_hours": "Mo 10:00-23:00; Tu 10:00-23:00; We 10:00-23:00; Th 10:00-23:00; Fr 10:00-23:00; Sa 10:00-23:00; Su 10:00-22:00", "brand": "Hungry Horse", "brand:wikidata": "Q5943510", "nsi_id": "hungryhorse-eaed91"}, "geometry": {"type": "Point", "coordinates": [-1.802751, 52.499199]}},
{"type": "Feature", "id": "ssOfYFw34vS0xMJWCqGDaPHnuTw=", "properties": {"ref": "6588", "@spider": "hungry_horse", "amenity": "pub", "addr:full": "The Common, Earlswood, Solihull, B94 5SL, United Kingdom", "addr:postcode": "B94 5SL", "addr:country": "GB", "name": "Reservoir", "phone": "01564 702220", "website": "https://www.hungryhorse.co.uk/pubs/west-midlands/reservoir/", "opening_hours": "Mo 09:00-23:00; Tu 09:00-23:00; We 09:00-23:00; Th 09:00-23:00; Fr 09:00-23:00; Sa 09:00-23:00; Su 09:00-22:00", "brand": "Hungry Horse", "brand:wikidata": "Q5943510", "nsi_id": "hungryhorse-eaed91"}, "geometry": {"type": "Point", "coordinates": [-1.829829, 52.363124]}},
{"type": "Feature", "id": "C-jdnLZwhPRX25MNtBNNYU55fPM=", "properties": {"ref": "1725", "@spider": "hungry_horse", "amenity": "pub", "addr:full": "Donington Grove, Wolverhampton, WV10 6EE, United Kingdom", "addr:postcode": "WV10 6EE", "addr:country": "GB", "name": "Gatehouse", "phone": "01902 426 372", "website": "https://www.hungryhorse.co.uk/pubs/west-midlands/gatehouse/", "opening_hours": "Mo 09:00-23:00; Tu 09:00-23:00; We 09:00-23:00; Th 09:00-23:00; Fr 09:00-23:00; Sa 09:00-23:00; Su 09:00-23:00", "brand": "Hungry Horse", "brand:wikidata": "Q5943510", "nsi_id": "hungryhorse-eaed91"}, "geometry": {"type": "Point", "coordinates": [-2.130323, 52.610125]}},
{"type": "Feature", "id": "nFBIzeoUxs2655cwbuHZ7K0ZUgg=", "properties": {"ref": "1848", "@spider": "hungry_horse", "amenity": "pub", "addr:full": "Castlegate Business Park, Castlegate Way, Dudley, DY1 4RJ, United Kingdom", "addr:postcode": "DY1 4RJ", "addr:country": "GB", "name": "Castle View", "phone": "01384 245910", "website": "https://www.hungryhorse.co.uk/pubs/west-midlands/castle-view/", "opening_hours": "Mo 09:00-23:00; Tu 09:00-23:00; We 09:00-23:00; Th 09:00-23:00; Fr 09:00-23:00; Sa 09:00-23:00; Su 09:00-23:00", "brand": "Hungry Horse", "brand:wikidata": "Q5943510", "nsi_id": "hungryhorse-eaed91"}, "geometry": {"type": "Point", "coordinates": [-2.071803, 52.513695]}},
{"type": "Feature", "id": "CjQxKFxYn6QiQvUWnFmX5EsIP-A=", "properties": {"ref": "1781", "@spider": "hungry_horse", "amenity": "pub", "addr:full": "77 Cranes Park Road, Sheldon, Birmingham, B26 3SN, United Kingdom", "addr:postcode": "B26 3SN", "addr:country": "GB", "name": "Crane", "phone": "0121 742 3256", "website": "https://www.hungryhorse.co.uk/pubs/west-midlands/crane/", "opening_hours": "Mo 09:00-23:00; Tu 09:00-23:00; We 09:00-23:00; Th 09:00-23:00; Fr 09:00-23:00; Sa 09:00-23:00; Su 09:00-23:00", "brand": "Hungry Horse", "brand:wikidata": "Q5943510", "nsi_id": "hungryhorse-eaed91"}, "geometry": {"type": "Point", "coordinates": [-1.775765, 52.456709]}},
{"type": "Feature", "id": "_oixYHoD5Yq8ys8GI48eB0B2Pv4=", "properties": {"ref": "1764", "@spider": "hungry_horse", "amenity": "pub", "addr:full": "6 College Street, Longbridge, Birmingham, B31 2US, United Kingdom", "addr:postcode": "B31 2US", "addr:country": "GB", "name": "Cambridge", "phone": "0121 475 0126", "website": "https://www.hungryhorse.co.uk/pubs/west-midlands/cambridge/", "opening_hours": "Mo 08:00-23:00; Tu 08:00-23:00; We 08:00-23:00; Th 08:00-23:00; Fr 08:00-23:00; Sa 08:00-23:00; Su 08:00-23:00", "brand": "Hungry Horse", "brand:wikidata": "Q5943510", "nsi_id": "hungryhorse-eaed91"}, "geometry": {"type": "Point", "coordinates": [-1.984674, 52.395331]}},
{"type": "Feature", "id": "NPuOoWivE6jYvBW5TS7Hho4mZm8=", "properties": {"ref": "1953", "@spider": "hungry_horse", "amenity": "pub", "addr:full": "Trysull Road, Wolverhampton, WV3 7HX, United Kingdom", "addr:postcode": "WV3 7HX", "addr:country": "GB", "name": "Bradmore Arms", "phone": "01902 341472", "website": "https://www.hungryhorse.co.uk/pubs/west-midlands/bradmore-arms/", "opening_hours": "Mo 11:00-23:00; Tu 11:00-23:00; We 11:00-23:00; Th 11:00-23:00; Fr 11:00-00:00; Sa 11:00-00:00; Su 11:00-23:00", "brand": "Hungry Horse", "brand:wikidata": "Q5943510", "nsi_id": "hungryhorse-eaed91"}, "geometry": {"type": "Point", "coordinates": [-2.155468, 52.576468]}},
{"type": "Feature", "id": "2V-pOAEsMxqW4_dRq7NFFXEkiKU=", "properties": {"ref": "1753", "@spider": "hungry_horse", "amenity": "pub", "addr:full": "Brook Lane, Birmingham, B13 0AB, United Kingdom", "addr:postcode": "B13 0AB", "addr:country": "GB", "name": "Billesley", "phone": "0121 441 4190", "website": "https://www.hungryhorse.co.uk/pubs/west-midlands/billesley/", "opening_hours": "Mo 09:00-23:00; Tu 09:00-23:00; We 09:00-23:00; Th 09:00-23:00; Fr 09:00-23:30; Sa 09:00-23:30; Su 09:00-22:30", "brand": "Hungry Horse", "brand:wikidata": "Q5943510", "nsi_id": "hungryhorse-eaed91"}, "geometry": {"type": "Point", "coordinates": [-1.87767, 52.431399]}},
{"type": "Feature", "id": "ufrLt5vG26_0qUwMkO70j8qBOaw=", "properties": {"ref": "1732", "@spider": "hungry_horse", "amenity": "pub", "addr:full": "116 Thornbridge Avenue, Birmingham, B42 2AE, United Kingdom", "addr:postcode": "B42 2AE", "addr:country": "GB", "name": "Beeches", "phone": "0121 358 6652", "website": "https://www.hungryhorse.co.uk/pubs/west-midlands/beeches/", "opening_hours": "Mo 09:00-23:00; Tu 09:00-23:00; We 09:00-23:00; Th 09:00-23:00; Fr 09:00-00:00; Sa 09:00-00:00; Su 09:00-23:00", "brand": "Hungry Horse", "brand:wikidata": "Q5943510", "nsi_id": "hungryhorse-eaed91"}, "geometry": {"type": "Point", "coordinates": [-1.905421, 52.536188]}},
{"type": "Feature", "id": "EuDZ4Tu2oHM5-sfrgaB0mmJmupY=", "properties": {"ref": "1731", "@spider": "hungry_horse", "amenity": "pub", "addr:full": "230-240 Baldwins Lane, Birmingham, B28 0QB, United Kingdom", "addr:postcode": "B28 0QB", "addr:country": "GB", "name": "Baldwin Arms", "phone": "0121 733 7944", "website": "https://www.hungryhorse.co.uk/pubs/west-midlands/baldwin-arms/", "opening_hours": "Mo 09:00-23:00; Tu 09:00-23:00; We 09:00-23:00; Th 09:00-23:00; Fr 09:00-00:00; Sa 09:00-00:00; Su 09:00-23:00", "brand": "Hungry Horse", "brand:wikidata": "Q5943510", "nsi_id": "hungryhorse-eaed91"}, "geometry": {"type": "Point", "coordinates": [-1.842592, 52.415594]}},
{"type": "Feature", "id": "oO6CCy4hi8X5JN7TNi5zr51Rm2w=", "properties": {"ref": "6307", "@spider": "hungry_horse", "amenity": "pub", "addr:full": "125 Samlet Road-Swansea Enterprise Park, Llansamlet, Swansea, SA7 9AD, United Kingdom", "addr:postcode": "SA7 9AD", "addr:country": "GB", "name": "Dylan Thomas", "phone": "01792 701670", "website": "https://www.hungryhorse.co.uk/pubs/west-glamorgan/dylan-thomas/", "opening_hours": "Mo 09:00-23:00; Tu 09:00-23:00; We 09:00-23:00; Th 09:00-23:00; Fr 09:00-23:00; Sa 09:00-23:00; Su 09:00-23:00", "brand": "Hungry Horse", "brand:wikidata": "Q5943510", "nsi_id": "hungryhorse-eaed91"}, "geometry": {"type": "Point", "coordinates": [-3.910201, 51.662178]}}]}