{"type":"FeatureCollection","features":[{"type": "Feature", "id": "RDgBVW40EUNrexhRRA9UnTEK8mQ=", "properties": {"ref": "140", "@spider": "ikes", "amenity": "fast_food", "cuisine": "sandwich", "short_name": "Ike's", "takeaway": "yes", "addr:street_address": "1020 N Rengstorff Ave", "addr:city": "Mountain View", "addr:state": "CA", "addr:postcode": "94043", "addr:country": "US", "name": "Mountain View", "phone": "+16503866469", "website": "https://locations.ikessandwich.com/ca/mountainview/140/", "brand": "Ike's Love & Sandwiches", "brand:wikidata": "Q112028897", "nsi_id": "ikesloveandsandwiches-4d2ff4"}, "geometry": {"type": "Point", "coordinates": [-122.0960991, 37.4199771]}},
{"type": "Feature", "id": "46WKrOxoZi4NMzPnEMxzLOL7Q6Y=", "properties": {"ref": "115", "@spider": "ikes", "amenity": "fast_food", "cuisine": "sandwich", "short_name": "Ike's", "takeaway": "yes", "addr:street_address": "570 Munras Ave", "addr:city": "Monterey", "addr:state": "CA", "addr:postcode": "93940", "addr:country": "US", "name": "Monterey", "phone": "+18316430900", "website": "https://locations.ikessandwich.com/ca/monterey/115/", "brand": "Ike's Love & Sandwiches", "brand:wikidata": "Q112028897", "nsi_id": "ikesloveandsandwiches-4d2ff4"}, "geometry": {"type": "Point", "coordinates": [-121.8943519, 36.5965585]}},
{"type": "Feature", "id": "eDHlBD-cgf63kt1M-5Z_fFZH_wk=", "properties": {"ref": "134", "@spider": "ikes", "amenity": "fast_food", "cuisine": "sandwich", "short_name": "Ike's", "takeaway": "yes", "addr:street_address": "1707 McHenry Ave.", "addr:city": "Modesto", "addr:state": "CA", "addr:postcode": "95350", "addr:country": "US", "name": "Modesto", "phone": "+12093007893", "website": "https://locations.ikessandwich.com/ca/modesto/134/", "brand": "Ike's Love & Sandwiches", "brand:wikidata": "Q112028897", "nsi_id": "ikesloveandsandwiches-4d2ff4"}, "geometry": {"type": "Point", "coordinates": [-120.9947121, 37.6698932]}},
{"type": "Feature", "id": "oynzNceT8bcNa3H1s4QXPMvzOmY=", "properties": {"ref": "413", "@spider": "ikes", "amenity": "fast_food", "cuisine": "sandwich", "short_name": "Ike's", "takeaway": "yes", "addr:street_address": "1335 S. Alma School Rd", "addr:city": "Mesa", "addr:state": "AZ", "addr:postcode": "85210", "addr:country": "US", "name": "Mesa - Coming Soon!", "website": "https://locations.ikessandwich.com/az/mesa/413/", "brand": "Ike's Love & Sandwiches", "brand:wikidata": "Q112028897", "nsi_id": "ikesloveandsandwiches-4d2ff4"}, "geometry": {"type": "Point", "coordinates": [-111.856812, 33.3896948]}},
{"type": "Feature", "id": "mAdPS9xKQ_PyjVH2Y-IwxKj6x-I=", "properties": {"ref": "405", "@spider": "ikes", "amenity": "fast_food", "cuisine": "sandwich", "short_name": "Ike's", "takeaway": "yes", "addr:street_address": "4371 Glencoe Ave.", "addr:city": "Marina del Rey", "addr:state": "CA", "addr:postcode": "91423", "addr:country": "US", "name": "Marina del Rey", "phone": "+12133152080", "website": "https://locations.ikessandwich.com/ca/marinadelrey/405/", "brand": "Ike's Love & Sandwiches", "brand:wikidata": "Q112028897", "nsi_id": "ikesloveandsandwiches-4d2ff4"}, "geometry": {"type": "Point", "coordinates": [-118.4396245, 33.9845983]}},
{"type": "Feature", "id": "R3AK4dl8JC5QlMcNzynLjiv50rU=", "properties": {"ref": "313", "@spider": "ikes", "amenity": "fast_food", "cuisine": "sandwich", "short_name": "Ike's", "takeaway": "yes", "addr:street_address": "1116 N. Sepulveda Blvd", "addr:city": "Manhattan Beach", "addr:state": "CA", "addr:postcode": "90026", "addr:country": "US", "name": "Manhattan Beach - Coming Soon!", "phone": "+14242574620", "website": "https://locations.ikessandwich.com/ca/manhattan-beach/313/", "brand": "Ike's Love & Sandwiches", "brand:wikidata": "Q112028897", "nsi_id": "ikesloveandsandwiches-4d2ff4"}, "geometry": {"type": "Point", "coordinates": [-118.3957801, 33.8869511]}},
{"type": "Feature", "id": "WACGc7ITlA2iCdi2z7KSmKfN9hk=", "properties": {"ref": "411", "@spider": "ikes", "amenity": "fast_food", "cuisine": "sandwich", "short_name": "Ike's", "takeaway": "yes", "addr:street_address": "523 W. 6th St", "addr:city": "Los Angeles", "addr:state": "CA", "addr:postcode": "90014", "addr:country": "US", "name": "Downtown Los Angeles - Coming Soon!", "website": "https://locations.ikessandwich.com/ca/los-angeles/411/", "brand": "Ike's Love & Sandwiches", "brand:wikidata": "Q112028897", "nsi_id": "ikesloveandsandwiches-4d2ff4"}, "geometry": {"type": "Point", "coordinates": [-118.2547171, 34.0486546]}},
{"type": "Feature", "id": "TKmCdyy4TghzHb4uND4SgB_iVCo=", "properties": {"ref": "210", "@spider": "ikes", "amenity": "fast_food", "cuisine": "sandwich", "short_name": "Ike's", "takeaway": "yes", "addr:street_address": "5745 Pacific Coast Hwy", "addr:city": "Long Beach", "addr:state": "CA", "addr:postcode": "90803", "addr:country": "US", "name": "Long Beach", "phone": "+15624980304", "website": "https://locations.ikessandwich.com/ca/longbeach/210/", "brand": "Ike's Love & Sandwiches", "brand:wikidata": "Q112028897", "nsi_id": "ikesloveandsandwiches-4d2ff4"}, "geometry": {"type": "Point", "coordinates": [-118.1193543, 33.7737314]}},
{"type": "Feature", "id": "y6Th77D31WxTWXifu83azZ11Dfw=", "properties": {"ref": "021", "@spider": "ikes", "amenity": "fast_food", "cuisine": "sandwich", "short_name": "Ike's", "takeaway": "yes", "addr:street_address": "1195 E Main Street", "addr:city": "Lehi", "addr:state": "UT", "addr:postcode": "84043", "addr:country": "US", "name": "Lehi", "phone": "+13854847437", "website": "https://locations.ikessandwich.com/ut/lehi/021/", "brand": "Ike's Love & Sandwiches", "brand:wikidata": "Q112028897", "nsi_id": "ikesloveandsandwiches-4d2ff4"}, "geometry": {"type": "Point", "coordinates": [-111.8309146, 40.3887241]}},
{"type": "Feature", "id": "xGPfWWzaCETOYC-b4hlQrDFsvBs=", "properties": {"ref": "002", "@spider": "ikes", "amenity": "fast_food", "cuisine": "sandwich", "short_name": "Ike's", "takeaway": "yes", "addr:street_address": "1942 E Southern Ave", "addr:city": "Mesa", "addr:state": "AZ", "addr:postcode": "85204", "addr:country": "US", "name": "Mesa (Gilbert and Southern)", "phone": "+14809771199", "website": "https://locations.ikessandwich.com/az/mesa/002/", "brand": "Ike's Love & Sandwiches", "brand:wikidata": "Q112028897", "nsi_id": "ikesloveandsandwiches-4d2ff4"}, "geometry": {"type": "Point", "coordinates": [-111.7901119, 33.3938769]}},
{"type": "Feature", "id": "vZUJ8k8ph0FJHZKlCPL2-eMLqgA=", "properties": {"ref": "311", "@spider": "ikes", "amenity": "fast_food", "cuisine": "sandwich", "short_name": "Ike's", "takeaway": "yes", "addr:street_address": "4700 S Maryland Pkwy", "addr:city": "Las Vegas", "addr:state": "NV", "addr:postcode": "89119", "addr:country": "US", "name": "Las Vegas (UNLV)", "phone": "+17257801011", "website": "https://locations.ikessandwich.com/nv/lasvegas/311/", "brand": "Ike's Love & Sandwiches", "brand:wikidata": "Q112028897", "nsi_id": "ikesloveandsandwiches-4d2ff4"}, "geometry": {"type": "Point", "coordinates": [-115.1362494, 36.1039369]}},
{"type": "Feature", "id": "1aIDt-YgYkwpbESoaq13O6bVi7c=", "properties": {"ref": "307", "@spider": "ikes", "amenity": "fast_food", "cuisine": "sandwich", "short_name": "Ike's", "takeaway": "yes", "addr:street_address": "3200 S. Las Vegas Blvd", "addr:city": "Las Vegas", "addr:state": "NV", "addr:postcode": "89109", "addr:country": "US", "name": "Las Vegas (Fashion Show)", "phone": "+17025008687", "website": "https://locations.ikessandwich.com/nv/lasvegas/307/", "brand": "Ike's Love & Sandwiches", "brand:wikidata": "Q112028897", "nsi_id": "ikesloveandsandwiches-4d2ff4"}, "geometry": {"type": "Point", "coordinates": [-115.1706181, 36.1277953]}},
{"type": "Feature", "id": "6Y4VytQ1-FJfOZA0ZSFRFoyOkNs=", "properties": {"ref": "560", "@spider": "ikes", "amenity": "fast_food", "cuisine": "sandwich", "short_name": "Ike's", "takeaway": "yes", "addr:street_address": "23646 Rockfield Blvd", "addr:city": "Lake Forest", "addr:state": "CA", "addr:postcode": "92630", "addr:country": "US", "name": "Lake Forest", "phone": "+19497674130", "website": "https://locations.ikessandwich.com/ca/lakeforest/560/", "brand": "Ike's Love & Sandwiches", "brand:wikidata": "Q112028897", "nsi_id": "ikesloveandsandwiches-4d2ff4"}, "geometry": {"type": "Point", "coordinates": [-117.7175899, 33.62953280000001]}},
{"type": "Feature", "id": "uDXsYt-e3kR9k8AjUN-EkhJgXHA=", "properties": {"ref": "412", "@spider": "ikes", "amenity": "fast_food", "cuisine": "sandwich", "short_name": "Ike's", "takeaway": "yes", "addr:street_address": "8657 Villa La Jolla Dr.", "addr:city": "La Jolla", "addr:state": "CA", "addr:postcode": "92037", "addr:country": "US", "name": "La Jolla - Coming Soon!", "website": "https://locations.ikessandwich.com/ca/la-jolla/412/", "brand": "Ike's Love & Sandwiches", "brand:wikidata": "Q112028897", "nsi_id": "ikesloveandsandwiches-4d2ff4"}, "geometry": {"type": "Point", "coordinates": [-117.2318811, 32.8649117]}},
{"type": "Feature", "id": "eGJkTaGZSDHICsC4vcIWPyi-bW0=", "properties": {"ref": "012", "@spider": "ikes", "amenity": "fast_food", "cuisine": "sandwich", "short_name": "Ike's", "takeaway": "yes", "addr:street_address": "1051 Heights Blvd", "addr:city": "Houston", "addr:state": "TX", "addr:postcode": "77008", "addr:country": "US", "name": "Houston", "phone": "+17134922965", "website": "https://locations.ikessandwich.com/tx/houston/012/", "brand": "Ike's Love & Sandwiches", "brand:wikidata": "Q112028897", "nsi_id": "ikesloveandsandwiches-4d2ff4"}, "geometry": {"type": "Point", "coordinates": [-95.3980658, 29.7902811]}},
{"type": "Feature", "id": "krfCpts3zRJO5j6CSNz-sCLW2ns=", "properties": {"ref": "502", "@spider": "ikes", "amenity": "fast_food", "cuisine": "sandwich", "short_name": "Ike's", "takeaway": "yes", "addr:street_address": "1517 Vine St.", "addr:city": "Hollywood", "addr:state": "CA", "addr:postcode": "90028", "addr:country": "US", "name": "Hollywood", "phone": "+13233726400", "website": "https://locations.ikessandwich.com/ca/hollywood/502/", "brand": "Ike's Love & Sandwiches", "brand:wikidata": "Q112028897", "nsi_id": "ikesloveandsandwiches-4d2ff4"}, "geometry": {"type": "Point", "coordinates": [-118.3268778, 34.0986348]}},
{"type": "Feature", "id": "ydflFroFWwIxUIfaVYU1xIBGDc8=", "properties": {"ref": "505", "@spider": "ikes", "amenity": "fast_food", "cuisine": "sandwich", "short_name": "Ike's", "takeaway": "yes", "addr:street_address": "23355 Mulholland Dr.", "addr:city": "Woodland Hills", "addr:state": "CA", "addr:postcode": "91364", "addr:country": "US", "name": "Woodland Hills", "phone": "+17473487101", "website": "https://locations.ikessandwich.com/ca/woodlands/505/", "brand": "Ike's Love & Sandwiches", "brand:wikidata": "Q112028897", "nsi_id": "ikesloveandsandwiches-4d2ff4"}, "geometry": {"type": "Point", "coordinates": [-118.6351597, 34.1575203]}},
{"type": "Feature", "id": "1xKkXIHVJwTcpUCpc-X2SzDskvs=", "properties": {"ref": "013", "@spider": "ikes", "amenity": "fast_food", "cuisine": "sandwich", "short_name": "Ike's", "takeaway": "yes", "addr:street_address": "4350 S. Durango Dr", "addr:city": "Las Vegas", "addr:state": "NV", "addr:postcode": "89147", "addr:country": "US", "name": "Las Vegas (Durango Dr)", "phone": "+17257792256", "website": "https://locations.ikessandwich.com/nv/lasvegas/013/", "brand": "Ike's Love & Sandwiches", "brand:wikidata": "Q112028897", "nsi_id": "ikesloveandsandwiches-4d2ff4"}, "geometry": {"type": "Point", "coordinates": [-115.2787346, 36.11088489999999]}},
{"type": "Feature", "id": "2wS_BPe2nSBKqJ5W6SrSAeCvV9M=", "properties": {"ref": "020", "@spider": "ikes", "amenity": "fast_food", "cuisine": "sandwich", "short_name": "Ike's", "takeaway": "yes", "addr:street_address": "1101 S Fort Apache", "addr:city": "Las Vegas", "addr:state": "NV", "addr:postcode": "89117", "addr:country": "US", "name": "Fort Apache Commons", "phone": "+17027907265", "website": "https://locations.ikessandwich.com/nv/forapache/020/", "brand": "Ike's Love & Sandwiches", "brand:wikidata": "Q112028897", "nsi_id": "ikesloveandsandwiches-4d2ff4"}, "geometry": {"type": "Point", "coordinates": [-115.2923707, 36.1583541]}},
{"type": "Feature", "id": "xQ6Tk1tDGrSFOHtKlMvEqgbAJ-I=", "properties": {"ref": "453", "@spider": "ikes", "amenity": "fast_food", "cuisine": "sandwich", "short_name": "Ike's", "takeaway": "yes", "addr:street_address": "15062 Goldenwest St", "addr:city": "Westminster", "addr:state": "CA", "addr:postcode": "92682", "addr:country": "US", "name": "Westminster - Coming Soon!", "website": "https://locations.ikessandwich.com/ca/westminister/453/", "brand": "Ike's Love & Sandwiches", "brand:wikidata": "Q112028897", "nsi_id": "ikesloveandsandwiches-4d2ff4"}, "geometry": {"type": "Point", "coordinates": [-118.0063718, 33.7433799]}},
{"type": "Feature", "id": "ODjhbgR8GZ_QaDXIb0ix3vR8psw=", "properties": {"ref": "302", "@spider": "ikes", "amenity": "fast_food", "cuisine": "sandwich", "short_name": "Ike's", "takeaway": "yes", "addr:street_address": "1159 Locust St", "addr:city": "Walnut Creek", "addr:state": "CA", "addr:postcode": "94596", "addr:country": "US", "name": "Walnut Creek", "phone": "+19259444755", "website": "https://locations.ikessandwich.com/ca/walnutcreek/302/", "brand": "Ike's Love & Sandwiches", "brand:wikidata": "Q112028897", "nsi_id": "ikesloveandsandwiches-4d2ff4"}, "geometry": {"type": "Point", "coordinates": [-122.0614836, 37.8953013]}},
{"type": "Feature", "id": "mcacNAna6w8rw7SpGlS6KBkyMOI=", "properties": {"ref": "145", "@spider": "ikes", "amenity": "fast_food", "cuisine": "sandwich", "short_name": "Ike's", "takeaway": "yes", "addr:street_address": "137 Plaza Drive", "addr:city": "Vallejo", "addr:state": "CA", "addr:postcode": "94591", "addr:country": "US", "name": "Vallejo", "phone": "+17077318700", "website": "https://locations.ikessandwich.com/ca/vallejo/145/", "brand": "Ike's Love & Sandwiches", "brand:wikidata": "Q112028897", "nsi_id": "ikesloveandsandwiches-4d2ff4"}, "geometry": {"type": "Point", "coordinates": [-122.2207379, 38.1321621]}},
{"type": "Feature", "id": "-8LVVoHmrBxdnP7B2YuiJGIcH3U=", "properties": {"ref": "130", "@spider": "ikes", "amenity": "fast_food", "cuisine": "sandwich", "short_name": "Ike's", "takeaway": "yes", "addr:street_address": "501 Davis St", "addr:city": "Vacaville", "addr:state": "CA", "addr:postcode": "95688", "addr:country": "US", "name": "Vacaville", "phone": "+17073055991", "website": "https://locations.ikessandwich.com/ca/vacaville/130/", "brand": "Ike's Love & Sandwiches", "brand:wikidata": "Q112028897", "nsi_id": "ikesloveandsandwiches-4d2ff4"}, "geometry": {"type": "Point", "coordinates": [-121.9859248, 38.3537119]}},
{"type": "Feature", "id": "Mv6VE6Muvf38nQwAUggaaEp774U=", "properties": {"ref": "208", "@spider": "ikes", "amenity": "fast_food", "cuisine": "sandwich", "short_name": "Ike's", "takeaway": "yes", "addr:street_address": "2487 Park Ave", "addr:city": "Tustin", "addr:state": "CA", "addr:postcode": "92782", "addr:country": "US", "name": "Tustin", "phone": "+19497835391", "website": "https://locations.ikessandwich.com/ca/tustin/208/", "brand": "Ike's Love & Sandwiches", "brand:wikidata": "Q112028897", "nsi_id": "ikesloveandsandwiches-4d2ff4"}, "geometry": {"type": "Point", "coordinates": [-117.8273593, 33.698223]}},
{"type": "Feature", "id": "v17hio0ALqvSZ_hUMFa9X6nKNTk=", "properties": {"ref": "137", "@spider": "ikes", "amenity": "fast_food", "cuisine": "sandwich", "short_name": "Ike's", "takeaway": "yes", "addr:street_address": "3202 Countryside Dr", "addr:city": "Turlock", "addr:state": "CA", "addr:postcode": "95380", "addr:country": "US", "name": "Turlock", "phone": "+12096694766", "website": "https://locations.ikessandwich.com/ca/turlock/137/", "brand": "Ike's Love & Sandwiches", "brand:wikidata": "Q112028897", "nsi_id": "ikesloveandsandwiches-4d2ff4"}, "geometry": {"type": "Point", "coordinates": [-120.8799705, 37.5225564]}},
{"type": "Feature", "id": "DwRx6ud9abSN-lqtgMvb50BopFI=", "properties": {"ref": "501", "@spider": "ikes", "amenity": "fast_food", "cuisine": "sandwich", "short_name": "Ike's", "takeaway": "yes", "addr:street_address": "1121 Rossi Rd.", "addr:city": "Templeton", "addr:state": "CA", "addr:postcode": "93465", "addr:country": "US", "name": "Templeton", "phone": "+18052864166", "website": "https://locations.ikessandwich.com/ca/templeton/501/", "brand": "Ike's Love & Sandwiches", "brand:wikidata": "Q112028897", "nsi_id": "ikesloveandsandwiches-4d2ff4"}, "geometry": {"type": "Point", "coordinates": [-120.7147419, 35.5416678]}},
{"type": "Feature", "id": "0gwocGs17kewR4pWoXwP9A1aVhk=", "properties": {"ref": "011", "@spider": "ikes", "amenity": "fast_food", "cuisine": "sandwich", "short_name": "Ike's", "takeaway": "yes", "addr:street_address": "7420 S Rural Rd", "addr:city": "Tempe (South)", "addr:state": "AZ", "addr:postcode": "85283", "addr:country": "US", "name": "Tempe (South)", "phone": "+14806106750", "website": "https://locations.ikessandwich.com/az/tempe/011/", "brand": "Ike's Love & Sandwiches", "brand:wikidata": "Q112028897", "nsi_id": "ikesloveandsandwiches-4d2ff4"}, "geometry": {"type": "Point", "coordinates": [-111.9296593, 33.3503911]}},
{"type": "Feature", "id": "iGXJZCYMAKgjSd6dtncb97UqswI=", "properties": {"ref": "010", "@spider": "ikes", "amenity": "fast_food", "cuisine": "sandwich", "short_name": "Ike's", "takeaway": "yes", "addr:street_address": "699 S Mill Ave", "addr:city": "Tempe", "addr:state": "AZ", "addr:postcode": "85281", "addr:country": "US", "name": "Tempe (ASU)", "phone": "+14809212053", "website": "https://locations.ikessandwich.com/az/tempe/010/", "brand": "Ike's Love & Sandwiches", "brand:wikidata": "Q112028897", "nsi_id": "ikesloveandsandwiches-4d2ff4"}, "geometry": {"type": "Point", "coordinates": [-111.9395366, 33.4235981]}},
{"type": "Feature", "id": "f6ovhRWvvfGz5x6sw53b0ac_sKM=", "properties": {"ref": "308", "@spider": "ikes", "amenity": "fast_food", "cuisine": "sandwich", "short_name": "Ike's", "takeaway": "yes", "addr:street_address": "5207 Bordie Ln.", "addr:city": "Sunset Valley", "addr:state": "TX", "addr:postcode": "78745", "addr:country": "US", "name": "Sunset Valley", "phone": "+15124325487", "website": "https://locations.ikessandwich.com/tx/sunsetvalley/308/", "brand": "Ike's Love & Sandwiches", "brand:wikidata": "Q112028897", "nsi_id": "ikesloveandsandwiches-4d2ff4"}, "geometry": {"type": "Point", "coordinates": [-97.8163077, 30.2308294]}},
{"type": "Feature", "id": "0tGODlWdZ7iGOh9xKnU_50ditsc=", "properties": {"ref": "143", "@spider": "ikes", "amenity": "fast_food", "cuisine": "sandwich", "short_name": "Ike's", "takeaway": "yes", "addr:street_address": "1253 W. El Camino Real", "addr:city": "Sunnyvale", "addr:state": "CA", "addr:postcode": "94087", "addr:country": "US", "name": "Sunnyvale", "phone": "+16696003962", "website": "https://locations.ikessandwich.com/ca/sunnyvale/143/", "brand": "Ike's Love & Sandwiches", "brand:wikidata": "Q112028897", "nsi_id": "ikesloveandsandwiches-4d2ff4"}, "geometry": {"type": "Point", "coordinates": [-122.0580509, 37.3751983]}},
{"type": "Feature", "id": "m3nWR0eV238jFXWr5-2gVNFcabg=", "properties": {"ref": "504", "@spider": "ikes", "amenity": "fast_food", "cuisine": "sandwich", "short_name": "Ike's", "takeaway": "yes", "addr:street_address": "13535 Ventura Blvd", "addr:city": "Sherman Oaks", "addr:state": "CA", "addr:postcode": "91423", "addr:country": "US", "name": "Sherman Oaks", "phone": "+17473772620", "website": "https://locations.ikessandwich.com/ca/shermanoaks/504/", "brand": "Ike's Love & Sandwiches", "brand:wikidata": "Q112028897", "nsi_id": "ikesloveandsandwiches-4d2ff4"}, "geometry": {"type": "Point", "coordinates": [-118.4281292, 34.1478961]}},
{"type": "Feature", "id": "1QwQCy-ciD4Pd5jV3nkRlnI2ygs=", "properties": {"ref": "008", "@spider": "ikes", "amenity": "fast_food", "cuisine": "sandwich", "short_name": "Ike's", "takeaway": "yes", "addr:street_address": "7369 N Via Paseo Del Sur", "addr:city": "Scottsdale", "addr:state": "AZ", "addr:postcode": "85258", "addr:country": "US", "name": "Scottsdale", "phone": "+14805466710", "website": "https://locations.ikessandwich.com/az/scottsdale/008/", "brand": "Ike's Love & Sandwiches", "brand:wikidata": "Q112028897", "nsi_id": "ikesloveandsandwiches-4d2ff4"}, "geometry": {"type": "Point", "coordinates": [-111.9052663, 33.544241]}},
{"type": "Feature", "id": "Hu6W75jBY9MSSSt5JehYXxBomz4=", "properties": {"ref": "014", "@spider": "ikes", "amenity": "fast_food", "cuisine": "sandwich", "short_name": "Ike's", "takeaway": "yes", "addr:street_address": "1780 Mendocino Ave", "addr:city": "Santa Rosa", "addr:state": "CA", "addr:postcode": "95404", "addr:country": "US", "name": "Santa Rosa", "phone": "+17072939814", "website": "https://locations.ikessandwich.com/ca/santarosa/014/", "brand": "Ike's Love & Sandwiches", "brand:wikidata": "Q112028897", "nsi_id": "ikesloveandsandwiches-4d2ff4"}, "geometry": {"type": "Point", "coordinates": [-122.7167478, 38.4571727]}},
{"type": "Feature", "id": "8ZAu8Z5Ufd_bAR12isKMG0Bxr7o=", "properties": {"ref": "127", "@spider": "ikes", "amenity": "fast_food", "cuisine": "sandwich", "short_name": "Ike's", "takeaway": "yes", "addr:street_address": "1318 Ocean St.", "addr:city": "Santa Cruz", "addr:state": "CA", "addr:postcode": "95060", "addr:country": "US", "name": "Santa Cruz", "phone": "+18314316260", "website": "https://locations.ikessandwich.com/ca/santacruz/127/", "brand": "Ike's Love & Sandwiches", "brand:wikidata": "Q112028897", "nsi_id": "ikesloveandsandwiches-4d2ff4"}, "geometry": {"type": "Point", "coordinates": [-122.0224458, 36.983692]}},
{"type": "Feature", "id": "SsM1mDJN2DR8D93Dz5Kc8QVm0rY=", "properties": {"ref": "114", "@spider": "ikes", "amenity": "fast_food", "cuisine": "sandwich", "short_name": "Ike's", "takeaway": "yes", "addr:street_address": "2235 The Alameda", "addr:city": "Santa Clara", "addr:state": "CA", "addr:postcode": "95050", "addr:country": "US", "name": "Santa Clara", "phone": "+14082442034", "website": "https://locations.ikessandwich.com/ca/santaclara/114/", "brand": "Ike's Love & Sandwiches", "brand:wikidata": "Q112028897", "nsi_id": "ikesloveandsandwiches-4d2ff4"}, "geometry": {"type": "Point", "coordinates": [-121.9328758, 37.3444931]}},
{"type": "Feature", "id": "i2Ts00uPn1gFpE5yb-J98BFXNCM=", "properties": {"ref": "007", "@spider": "ikes", "amenity": "fast_food", "cuisine": "sandwich", "short_name": "Ike's", "takeaway": "yes", "addr:street_address": "1936 State St", "addr:city": "Santa Barbara", "addr:state": "CA", "addr:postcode": "93101", "addr:country": "US", "name": "Santa Barbara", "website": "https://locations.ikessandwich.com/ca/santabarbara/007/", "brand": "Ike's Love & Sandwiches", "brand:wikidata": "Q112028897", "nsi_id": "ikesloveandsandwiches-4d2ff4"}, "geometry": {"type": "Point", "coordinates": [-119.7143018, 34.4308245]}},
{"type": "Feature", "id": "0DHe2SzDPxtCUX8yx8nugin56OA=", "properties": {"ref": "303", "@spider": "ikes", "amenity": "fast_food", "cuisine": "sandwich", "short_name": "Ike's", "takeaway": "yes", "addr:street_address": "3104 Crow Canyon Pl", "addr:city": "San Ramon", "addr:state": "CA", "addr:postcode": "94583", "addr:country": "US", "name": "San Ramon", "phone": "+19253806771", "website": "https://locations.ikessandwich.com/ca/sanramon/303/", "brand": "Ike's Love & Sandwiches", "brand:wikidata": "Q112028897", "nsi_id": "ikesloveandsandwiches-4d2ff4"}, "geometry": {"type": "Point", "coordinates": [-121.9714391, 37.7773978]}},
{"type": "Feature", "id": "N9jQLpNNIFjVLcG8MHJud7hJfx4=", "properties": {"ref": "309", "@spider": "ikes", "amenity": "fast_food", "cuisine": "sandwich", "short_name": "Ike's", "takeaway": "yes", "addr:street_address": "301 N Guadalupe St", "addr:city": "San Marcos", "addr:state": "TX", "addr:postcode": "78666", "addr:country": "US", "name": "San Marcos", "phone": "+15126677691", "website": "https://locations.ikessandwich.com/tx/sanmarcos/309/", "brand": "Ike's Love & Sandwiches", "brand:wikidata": "Q112028897", "nsi_id": "ikesloveandsandwiches-4d2ff4"}, "geometry": {"type": "Point", "coordinates": [-97.9420786, 29.8844758]}},
{"type": "Feature", "id": "6Rm0eghLQMGSTtLK-QTDvxxt4ZY=", "properties": {"ref": "144", "@spider": "ikes", "amenity": "fast_food", "cuisine": "sandwich", "short_name": "Ike's", "takeaway": "yes", "addr:street_address": "1028 Chorro St.", "addr:city": "San Luis Obispo", "addr:state": "CA", "addr:postcode": "93401", "addr:country": "US", "name": "San Luis Obispo", "phone": "+18054390269", "website": "https://locations.ikessandwich.com/ca/sanluisobispo/144/", "brand": "Ike's Love & Sandwiches", "brand:wikidata": "Q112028897", "nsi_id": "ikesloveandsandwiches-4d2ff4"}, "geometry": {"type": "Point", "coordinates": [-120.6630745, 35.2803239]}},
{"type": "Feature", "id": "s8coqc1WM-3QUz7i7VHcn5-r4iQ=", "properties": {"ref": "614", "@spider": "ikes", "amenity": "fast_food", "cuisine": "sandwich", "short_name": "Ike's", "takeaway": "yes", "addr:street_address": "155 Parrot Street", "addr:city": "San Leandro", "addr:state": "CA", "addr:postcode": "94577", "addr:country": "US", "name": "San Leandro - Coming Soon!", "website": "https://locations.ikessandwich.com/ca/san-leandro/614/", "brand": "Ike's Love & Sandwiches", "brand:wikidata": "Q112028897", "nsi_id": "ikesloveandsandwiches-4d2ff4"}, "geometry": {"type": "Point", "coordinates": [-122.1536193, 37.722104]}},
{"type": "Feature", "id": "_UegYIxOueIEHaAHQ5yIWs74jHg=", "properties": {"ref": "304", "@spider": "ikes", "amenity": "fast_food", "cuisine": "sandwich", "short_name": "Ike's", "takeaway": "yes", "addr:street_address": "3098 Olsen Drive", "addr:city": "San Jose", "addr:state": "CA", "addr:postcode": "95128", "addr:country": "US", "name": "Santana Row", "phone": "+14085645921", "website": "https://locations.ikessandwich.com/ca/sanjose/304/", "brand": "Ike's Love & Sandwiches", "brand:wikidata": "Q112028897", "nsi_id": "ikesloveandsandwiches-4d2ff4"}, "geometry": {"type": "Point", "coordinates": [-121.9493552, 37.3187699]}},
{"type": "Feature", "id": "_UWZuK-op6oRj0743lKfRT59fsk=", "properties": {"ref": "135", "@spider": "ikes", "amenity": "fast_food", "cuisine": "sandwich", "short_name": "Ike's", "takeaway": "yes", "addr:street_address": "3251 20th Ave.", "addr:city": "San Francisco", "addr:state": "CA", "addr:postcode": "94132", "addr:country": "US", "name": "San Francisco (Stonestown)", "phone": "+14156809651", "website": "https://locations.ikessandwich.com/ca/sanfrancisco/135/", "brand": "Ike's Love & Sandwiches", "brand:wikidata": "Q112028897", "nsi_id": "ikesloveandsandwiches-4d2ff4"}, "geometry": {"type": "Point", "coordinates": [-122.4765273, 37.7276591]}},
{"type": "Feature", "id": "g9AGg14lAf3e5GiTys1dSxRxbPw=", "properties": {"ref": "148", "@spider": "ikes", "amenity": "fast_food", "cuisine": "sandwich", "short_name": "Ike's", "takeaway": "yes", "addr:street_address": "9430 Scranton Rd.", "addr:city": "San Diego", "addr:state": "CA", "addr:postcode": "92121", "addr:country": "US", "name": "Sorrento Valley", "phone": "+16197385610", "website": "https://locations.ikessandwich.com/ca/san-diego/148/", "brand": "Ike's Love & Sandwiches", "brand:wikidata": "Q112028897", "nsi_id": "ikesloveandsandwiches-4d2ff4"}, "geometry": {"type": "Point", "coordinates": [-117.2029248, 32.8936248]}},
{"type": "Feature", "id": "1NGBuLBN_rjd4QEkdXmsi9SvjE4=", "properties": {"ref": "113", "@spider": "ikes", "amenity": "fast_food", "cuisine": "sandwich", "short_name": "Ike's", "takeaway": "yes", "addr:street_address": "1822 N Main St", "addr:city": "Salinas", "addr:state": "CA", "addr:postcode": "93906", "addr:country": "US", "name": "Salinas", "phone": "+18314494000", "website": "https://locations.ikessandwich.com/ca/salinas/113/", "brand": "Ike's Love & Sandwiches", "brand:wikidata": "Q112028897", "nsi_id": "ikesloveandsandwiches-4d2ff4"}, "geometry": {"type": "Point", "coordinates": [-121.6510589, 36.7191695]}},
{"type": "Feature", "id": "rysQ-O1NJAvEfz6bHpzuWmOAkXw=", "properties": {"ref": "ik022", "@spider": "ikes", "amenity": "fast_food", "cuisine": "sandwich", "short_name": "Ike's", "takeaway": "yes", "addr:street_address": "806 N Bluff Street", "addr:city": "Saint George", "addr:state": "UT", "addr:postcode": "84770", "addr:country": "US", "name": "St. George", "phone": "+14356748553", "website": "https://locations.ikessandwich.com/ut/saintgeorge/ik022/", "brand": "Ike's Love & Sandwiches", "brand:wikidata": "Q112028897", "nsi_id": "ikesloveandsandwiches-4d2ff4"}, "geometry": {"type": "Point", "coordinates": [-113.5988432, 37.12194160000001]}},
{"type": "Feature", "id": "A8WfQnRsFqGm5c_4Gv18PfGMm0Q=", "properties": {"ref": "141", "@spider": "ikes", "amenity": "fast_food", "cuisine": "sandwich", "short_name": "Ike's", "takeaway": "yes", "addr:street_address": "1420 16th Street", "addr:city": "Sacramento", "addr:state": "CA", "addr:postcode": "95814", "addr:country": "US", "name": "Sacramento", "phone": "+19166198777", "website": "https://locations.ikessandwich.com/ca/sacramento/141/", "brand": "Ike's Love & Sandwiches", "brand:wikidata": "Q112028897", "nsi_id": "ikesloveandsandwiches-4d2ff4"}, "geometry": {"type": "Point", "coordinates": [-121.4877039, 38.5729809]}},
{"type": "Feature", "id": "FGqvuffNANloicoNUL_kI-yOYos=", "properties": {"ref": "310", "@spider": "ikes", "amenity": "fast_food", "cuisine": "sandwich", "short_name": "Ike's", "takeaway": "yes", "addr:street_address": "201 University Oaks Blvd.", "addr:city": "Round Rock", "addr:state": "TX", "addr:postcode": "78665", "addr:country": "US", "name": "Round Rock", "phone": "+15125025873", "website": "https://locations.ikessandwich.com/tx/roundrock/310/", "brand": "Ike's Love & Sandwiches", "brand:wikidata": "Q112028897", "nsi_id": "ikesloveandsandwiches-4d2ff4"}, "geometry": {"type": "Point", "coordinates": [-97.6872451, 30.5583554]}},
{"type": "Feature", "id": "wisquTvj945k_pnolRf1MWXE8UA=", "properties": {"ref": "125", "@spider": "ikes", "amenity": "fast_food", "cuisine": "sandwich", "short_name": "Ike's", "takeaway": "yes", "addr:street_address": "2175 N Virginia Street", "addr:city": "Reno", "addr:state": "NV", "addr:postcode": "89503", "addr:country": "US", "name": "Reno (UNR)", "phone": "+17756839801", "website": "https://locations.ikessandwich.com/nv/reno/125/", "brand": "Ike's Love & Sandwiches", "brand:wikidata": "Q112028897", "nsi_id": "ikesloveandsandwiches-4d2ff4"}, "geometry": {"type": "Point", "coordinates": [-119.8215302, 39.5482799]}},
{"type": "Feature", "id": "XOeJbpgN8X8cA92c0Dqj69XXuQc=", "properties": {"ref": "513", "@spider": "ikes", "amenity": "fast_food", "cuisine": "sandwich", "short_name": "Ike's", "takeaway": "yes", "addr:street_address": "24921 S. Ellsworth Rd", "addr:city": "Queen Creek", "addr:state": "AZ", "addr:postcode": "85142", "addr:country": "US", "name": "Queen Creek - Coming Soon!", "phone": "+16236960007", "website": "https://locations.ikessandwich.com/az/queencreek/513/", "brand": "Ike's Love & Sandwiches", "brand:wikidata": "Q112028897", "nsi_id": "ikesloveandsandwiches-4d2ff4"}, "geometry": {"type": "Point", "coordinates": [-111.6327913, 33.22226370000001]}},
{"type": "Feature", "id": "1IfO2bBu1oug3SkE9fbp0prOHz4=", "properties": {"ref": "452", "@spider": "ikes", "amenity": "fast_food", "cuisine": "sandwich", "short_name": "Ike's", "takeaway": "yes", "addr:street_address": "14827 Pomerado Rd", "addr:city": "Poway", "addr:state": "CA", "addr:postcode": "92064", "addr:country": "US", "name": "Poway", "phone": "+18588599140", "website": "https://locations.ikessandwich.com/ca/poway/452/", "brand": "Ike's Love & Sandwiches", "brand:wikidata": "Q112028897", "nsi_id": "ikesloveandsandwiches-4d2ff4"}, "geometry": {"type": "Point", "coordinates": [-117.06099117737845, 32.98077724569917]}},
{"type": "Feature", "id": "g9OlC8DfvfZnP80Ww1hg4cFYs7k=", "properties": {"ref": "613", "@spider": "ikes", "amenity": "fast_food", "cuisine": "sandwich", "short_name": "Ike's", "takeaway": "yes", "addr:street_address": "1737 Santa Rita Rd", "addr:city": "Pleasanton", "addr:state": "CA", "addr:postcode": "94566", "addr:country": "US", "name": "Pleasanton", "phone": "+19259051630", "website": "https://locations.ikessandwich.com/ca/pleasanton/613/", "brand": "Ike's Love & Sandwiches", "brand:wikidata": "Q112028897", "nsi_id": "ikesloveandsandwiches-4d2ff4"}, "geometry": {"type": "Point", "coordinates": [-121.8739071, 37.6750903]}},
{"type": "Feature", "id": "7k4tk9de7XJ3wEnXfxJpKhXOLqs=", "properties": {"ref": "503", "@spider": "ikes", "amenity": "fast_food", "cuisine": "sandwich", "short_name": "Ike's", "takeaway": "yes", "addr:street_address": "1356 Fitzgerald Dr.", "addr:city": "Pinole", "addr:state": "CA", "addr:postcode": "94564", "addr:country": "US", "name": "Pinole", "phone": "+13416004810", "website": "https://locations.ikessandwich.com/ca/pinole/503/", "brand": "Ike's Love & Sandwiches", "brand:wikidata": "Q112028897", "nsi_id": "ikesloveandsandwiches-4d2ff4"}, "geometry": {"type": "Point", "coordinates": [-122.3107627, 37.9861072]}},
{"type": "Feature", "id": "eU-_Bk6K26LIGOlNNKmQo5scavY=", "properties": {"ref": "612", "@spider": "ikes", "amenity": "fast_food", "cuisine": "sandwich", "short_name": "Ike's", "takeaway": "yes", "addr:street_address": "1743 E. Camelback Rd", "addr:city": "Phoenix", "addr:state": "AZ", "addr:postcode": "85382", "addr:country": "US", "name": "Phoenix (Camelback)", "phone": "+14805008008", "website": "https://locations.ikessandwich.com/az/phoenix/612/", "brand": "Ike's Love & Sandwiches", "brand:wikidata": "Q112028897", "nsi_id": "ikesloveandsandwiches-4d2ff4"}, "geometry": {"type": "Point", "coordinates": [-112.0438644, 33.5087464]}},
{"type": "Feature", "id": "u-PgJb2H005nZqhP9147cVWpc10=", "properties": {"ref": "004", "@spider": "ikes", "amenity": "fast_food", "cuisine": "sandwich", "short_name": "Ike's", "takeaway": "yes", "addr:street_address": "910 N 4th St", "addr:city": "Phoenix", "addr:state": "AZ", "addr:postcode": "85004", "addr:country": "US", "name": "Phoenix (4th St and Roosevelt)", "phone": "+14805658573", "website": "https://locations.ikessandwich.com/az/phoenix/004/", "brand": "Ike's Love & Sandwiches", "brand:wikidata": "Q112028897", "nsi_id": "ikesloveandsandwiches-4d2ff4"}, "geometry": {"type": "Point", "coordinates": [-112.069341, 33.4579187]}},
{"type": "Feature", "id": "VgzvJSL7E-p6-n1tCD2k9KRPad8=", "properties": {"ref": "129", "@spider": "ikes", "amenity": "fast_food", "cuisine": "sandwich", "short_name": "Ike's", "takeaway": "yes", "addr:street_address": "13967 S Virginia St.", "addr:city": "Reno", "addr:state": "NV", "addr:postcode": "89511", "addr:country": "US", "name": "Reno (Summit Mall)", "phone": "+17754517725", "website": "https://locations.ikessandwich.com/nv/reno/129/", "brand": "Ike's Love & Sandwiches", "brand:wikidata": "Q112028897", "nsi_id": "ikesloveandsandwiches-4d2ff4"}, "geometry": {"type": "Point", "coordinates": [-119.7485075, 39.4035649]}},
{"type": "Feature", "id": "mXNDH2Z5vUvVp8gCQnb4JQxclBw=", "properties": {"ref": "006", "@spider": "ikes", "amenity": "fast_food", "cuisine": "sandwich", "short_name": "Ike's", "takeaway": "yes", "addr:street_address": "1010 University Ave", "addr:city": "San Diego", "addr:state": "CA", "addr:postcode": "92103", "addr:country": "US", "name": "San Diego (University)", "phone": "+16194522856", "website": "https://locations.ikessandwich.com/ca/sandiego/006/", "brand": "Ike's Love & Sandwiches", "brand:wikidata": "Q112028897", "nsi_id": "ikesloveandsandwiches-4d2ff4"}, "geometry": {"type": "Point", "coordinates": [-117.1551745, 32.7486814]}},
{"type": "Feature", "id": "-O38KUuT8NNHMy_bPeEo86CH7ss=", "properties": {"ref": "142", "@spider": "ikes", "amenity": "fast_food", "cuisine": "sandwich", "short_name": "Ike's", "takeaway": "yes", "addr:street_address": "3625 Midway Drive", "addr:city": "San Diego", "addr:state": "CA", "addr:postcode": "92110", "addr:country": "US", "name": "San Diego (Midway)", "phone": "+16192412775", "website": "https://locations.ikessandwich.com/ca/sandiego/142/", "brand": "Ike's Love & Sandwiches", "brand:wikidata": "Q112028897", "nsi_id": "ikesloveandsandwiches-4d2ff4"}, "geometry": {"type": "Point", "coordinates": [-117.2162129, 32.751535]}},
{"type": "Feature", "id": "L7nb0yhnLQxZZLdkSFncwGGg_mA=", "properties": {"ref": "005", "@spider": "ikes", "amenity": "fast_food", "cuisine": "sandwich", "short_name": "Ike's", "takeaway": "yes", "addr:street_address": "542 5th Ave", "addr:city": "San Diego", "addr:state": "CA", "addr:postcode": "92101", "addr:country": "US", "name": "San Diego (Gaslamp)", "phone": "+16192552562", "website": "https://locations.ikessandwich.com/ca/sandiego/005/", "brand": "Ike's Love & Sandwiches", "brand:wikidata": "Q112028897", "nsi_id": "ikesloveandsandwiches-4d2ff4"}, "geometry": {"type": "Point", "coordinates": [-117.1603211, 32.7109886]}},
{"type": "Feature", "id": "5aETt-xyTFcLm-22pQeM1CKTNNo=", "properties": {"ref": "122", "@spider": "ikes", "amenity": "fast_food", "cuisine": "sandwich", "short_name": "Ike's", "takeaway": "yes", "addr:street_address": "901 Polk St", "addr:city": "San Francisco", "addr:state": "CA", "addr:postcode": "94109", "addr:country": "US", "name": "San Francisco (Polk)", "phone": "+14153511972", "website": "https://locations.ikessandwich.com/ca/sanfrancisco/122/", "brand": "Ike's Love & Sandwiches", "brand:wikidata": "Q112028897", "nsi_id": "ikesloveandsandwiches-4d2ff4"}, "geometry": {"type": "Point", "coordinates": [-122.4197943, 37.7851488]}},
{"type": "Feature", "id": "vrCFH1cZfxWAjSlzyW9Sn5A5mSE=", "properties": {"ref": "201", "@spider": "ikes", "amenity": "fast_food", "cuisine": "sandwich", "short_name": "Ike's", "takeaway": "yes", "addr:street_address": "75 E Santa Clara St", "addr:city": "San Jose", "addr:state": "CA", "addr:postcode": "95113", "addr:country": "US", "name": "San Jose Downtown", "phone": "+14082942802", "website": "https://locations.ikessandwich.com/ca/sanjose/201/", "brand": "Ike's Love & Sandwiches", "brand:wikidata": "Q112028897", "nsi_id": "ikesloveandsandwiches-4d2ff4"}, "geometry": {"type": "Point", "coordinates": [-121.8893909, 37.3371187]}},
{"type": "Feature", "id": "PiSwRbFZ2Hd09zhF3qrybcZ90pc=", "properties": {"ref": "128", "@spider": "ikes", "amenity": "fast_food", "cuisine": "sandwich", "short_name": "Ike's", "takeaway": "yes", "addr:street_address": "5385 Prospect Rd.", "addr:city": "San Jose", "addr:state": "CA", "addr:postcode": "95129", "addr:country": "US", "name": "San Jose (Westgate)", "phone": "+14083201783", "website": "https://locations.ikessandwich.com/ca/sanjose/128/", "brand": "Ike's Love & Sandwiches", "brand:wikidata": "Q112028897", "nsi_id": "ikesloveandsandwiches-4d2ff4"}, "geometry": {"type": "Point", "coordinates": [-121.9970499, 37.2930122]}},
{"type": "Feature", "id": "xnqVUAULDoIoK3G6f8d1HRDICwM=", "properties": {"ref": "118", "@spider": "ikes", "amenity": "fast_food", "cuisine": "sandwich", "short_name": "Ike's", "takeaway": "yes", "addr:street_address": "91 Curtner Ave", "addr:city": "San Jose", "addr:state": "CA", "addr:postcode": "95125", "addr:country": "US", "name": "San Jose (The Plant)", "phone": "+14082479999", "website": "https://locations.ikessandwich.com/ca/sanjose/118/", "brand": "Ike's Love & Sandwiches", "brand:wikidata": "Q112028897", "nsi_id": "ikesloveandsandwiches-4d2ff4"}, "geometry": {"type": "Point", "coordinates": [-121.8650781, 37.3028919]}},
{"type": "Feature", "id": "IjubuDVrbOpV5tge1nQPPoicTYY=", "properties": {"ref": "121", "@spider": "ikes", "amenity": "fast_food", "cuisine": "sandwich", "short_name": "Ike's", "takeaway": "yes", "addr:street_address": "90 Skyport Dr", "addr:city": "San Jose", "addr:state": "CA", "addr:postcode": "95110", "addr:country": "US", "name": "San Jose (Skyport)", "phone": "+14086387015", "website": "https://locations.ikessandwich.com/ca/sanjose/121/", "brand": "Ike's Love & Sandwiches", "brand:wikidata": "Q112028897", "nsi_id": "ikesloveandsandwiches-4d2ff4"}, "geometry": {"type": "Point", "coordinates": [-121.9160655, 37.3653324]}},
{"type": "Feature", "id": "W2NE4GsWl-jURwKZBP301A4rqmQ=", "properties": {"ref": "123", "@spider": "ikes", "amenity": "fast_food", "cuisine": "sandwich", "short_name": "Ike's", "takeaway": "yes", "addr:street_address": "1795 Hillsdale Ave", "addr:city": "San Jose", "addr:state": "CA", "addr:postcode": "95124", "addr:country": "US", "name": "San Jose (Hillsdale)", "phone": "+14086228602", "website": "https://locations.ikessandwich.com/ca/sanjose/123/", "brand": "Ike's Love & Sandwiches", "brand:wikidata": "Q112028897", "nsi_id": "ikesloveandsandwiches-4d2ff4"}, "geometry": {"type": "Point", "coordinates": [-121.916599, 37.2640558]}},
{"type": "Feature", "id": "DIa_yJZciieMTwnh9z7dpI25htU=", "properties": {"ref": "611", "@spider": "ikes", "amenity": "fast_food", "cuisine": "sandwich", "short_name": "Ike's", "takeaway": "yes", "addr:street_address": "7635 W Bell Rd", "addr:city": "Peoria", "addr:state": "AZ", "addr:postcode": "85382", "addr:country": "US", "name": "Peoria (Arrowhead)", "phone": "+16028346521", "website": "https://locations.ikessandwich.com/az/peoria/611/", "brand": "Ike's Love & Sandwiches", "brand:wikidata": "Q112028897", "nsi_id": "ikesloveandsandwiches-4d2ff4"}, "geometry": {"type": "Point", "coordinates": [-112.2228934, 33.6376551]}},
{"type": "Feature", "id": "V41H3lsXYRURkQsFzxsvPXVSzGU=", "properties": {"ref": "003", "@spider": "ikes", "amenity": "fast_food", "cuisine": "sandwich", "short_name": "Ike's", "takeaway": "yes", "addr:street_address": "401 Lytton Ave", "addr:city": "Palo Alto", "addr:state": "CA", "addr:postcode": "94301", "addr:country": "US", "name": "Palo Alto", "phone": "+16505614762", "website": "https://locations.ikessandwich.com/ca/paloalto/003/", "brand": "Ike's Love & Sandwiches", "brand:wikidata": "Q112028897", "nsi_id": "ikesloveandsandwiches-4d2ff4"}, "geometry": {"type": "Point", "coordinates": [-122.16175, 37.44810530000001]}},
{"type": "Feature", "id": "hjQ2bR1Rk52N34mURWumdbauSyo=", "properties": {"ref": "119", "@spider": "ikes", "amenity": "fast_food", "cuisine": "sandwich", "short_name": "Ike's", "takeaway": "yes", "addr:street_address": "6310 College Ave", "addr:city": "Oakland", "addr:state": "CA", "addr:postcode": "94618", "addr:country": "US", "name": "Oakland (Rockridge)", "phone": "+15108232462", "website": "https://locations.ikessandwich.com/ca/oakland/119/", "brand": "Ike's Love & Sandwiches", "brand:wikidata": "Q112028897", "nsi_id": "ikesloveandsandwiches-4d2ff4"}, "geometry": {"type": "Point", "coordinates": [-122.2520065, 37.8507561]}},
{"type": "Feature", "id": "yFlFC4yVyIlDGbMqXdKVoiK_Nqg=", "properties": {"ref": "126", "@spider": "ikes", "amenity": "fast_food", "cuisine": "sandwich", "short_name": "Ike's", "takeaway": "yes", "addr:street_address": "19500 Plummer Street", "addr:city": "Northridge", "addr:state": "CA", "addr:postcode": "91324", "addr:country": "US", "name": "Northridge", "phone": "+18182803010", "website": "https://locations.ikessandwich.com/ca/northridge/126/", "brand": "Ike's Love & Sandwiches", "brand:wikidata": "Q112028897", "nsi_id": "ikesloveandsandwiches-4d2ff4"}, "geometry": {"type": "Point", "coordinates": [-118.5599752, 34.2415663]}},
{"type": "Feature", "id": "lhIr71J2Aant9qWv5K3ViiEJC3g=", "properties": {"ref": "204", "@spider": "ikes", "amenity": "fast_food", "cuisine": "sandwich", "short_name": "Ike's", "takeaway": "yes", "addr:street_address": "4221 MacArthur Blvd", "addr:city": "Newport Beach", "addr:state": "CA", "addr:postcode": "92660", "addr:country": "US", "name": "Newport Beach", "phone": "+19497833390", "website": "https://locations.ikessandwich.com/ca/newportbeach/204/", "brand": "Ike's Love & Sandwiches", "brand:wikidata": "Q112028897", "nsi_id": "ikesloveandsandwiches-4d2ff4"}, "geometry": {"type": "Point", "coordinates": [-117.8642617, 33.6640112]}},
{"type": "Feature", "id": "BdEB3EPNcHiq4G-fBRA8M8nhx5w=", "properties": {"ref": "312", "@spider": "ikes", "amenity": "fast_food", "cuisine": "sandwich", "short_name": "Ike's", "takeaway": "yes", "addr:street_address": "28549 Hesperian Blvd.", "addr:city": "Hayward", "addr:state": "CA", "addr:postcode": "94545", "addr:country": "US", "name": "Hayward", "phone": "+15103971690", "website": "https://locations.ikessandwich.com/ca/hayward/312/", "brand": "Ike's Love & Sandwiches", "brand:wikidata": "Q112028897", "nsi_id": "ikesloveandsandwiches-4d2ff4"}, "geometry": {"type": "Point", "coordinates": [-122.087537, 37.6141884]}},
{"type": "Feature", "id": "a1Ua1deuW7Q5h8emuaPoU8XCjr8=", "properties": {"ref": "015", "@spider": "ikes", "amenity": "fast_food", "cuisine": "sandwich", "short_name": "Ike's", "takeaway": "yes", "addr:street_address": "9404 W. Westgate Blvd Suite C-102", "addr:city": "Glendale", "addr:state": "AZ", "addr:postcode": "95305", "addr:country": "US", "name": "Glendale", "phone": "+16232637200", "website": "https://locations.ikessandwich.com/az/glendale/015/", "brand": "Ike's Love & Sandwiches", "brand:wikidata": "Q112028897", "nsi_id": "ikesloveandsandwiches-4d2ff4"}, "geometry": {"type": "Point", "coordinates": [-112.2619122, 33.5348199]}},
{"type": "Feature", "id": "V8jGaUySrxc4UxHIZuCIJhKAGes=", "properties": {"ref": "415", "@spider": "ikes", "amenity": "fast_food", "cuisine": "sandwich", "short_name": "Ike's", "takeaway": "yes", "addr:street_address": "3765 S Gilbert Rd", "addr:city": "Gilbert", "addr:state": "AZ", "addr:postcode": "85297", "addr:country": "US", "name": "Gilbert - Coming Soon!", "website": "https://locations.ikessandwich.com/az/gilbert/415/", "brand": "Ike's Love & Sandwiches", "brand:wikidata": "Q112028897", "nsi_id": "ikesloveandsandwiches-4d2ff4"}, "geometry": {"type": "Point", "coordinates": [-111.7889754, 33.2817211]}},
{"type": "Feature", "id": "4BA38tddoyeHynIdFn8QAogiRQY=", "properties": {"ref": "417", "@spider": "ikes", "amenity": "fast_food", "cuisine": "sandwich", "short_name": "Ike's", "takeaway": "yes", "addr:street_address": "1021 W University Ave", "addr:city": "Georgetown", "addr:state": "TX", "addr:postcode": "78628", "addr:country": "US", "name": "Georgetown - Coming Soon!", "website": "https://locations.ikessandwich.com/tx/georgetown/417/", "brand": "Ike's Love & Sandwiches", "brand:wikidata": "Q112028897", "nsi_id": "ikesloveandsandwiches-4d2ff4"}, "geometry": {"type": "Point", "coordinates": [-97.69873609999999, 30.6307469]}},
{"type": "Feature", "id": "HEH_K4UvKZug3RPzhZ3doM5OKvM=", "properties": {"ref": "146", "@spider": "ikes", "amenity": "fast_food", "cuisine": "sandwich", "short_name": "Ike's", "takeaway": "yes", "addr:street_address": "786 W Palmdon Drive", "addr:city": "Fresno", "addr:state": "CA", "addr:postcode": "93704", "addr:country": "US", "name": "Fresno (Palmdon)", "phone": "+15593198174", "website": "https://locations.ikessandwich.com/ca/fresno/146/", "brand": "Ike's Love & Sandwiches", "brand:wikidata": "Q112028897", "nsi_id": "ikesloveandsandwiches-4d2ff4"}, "geometry": {"type": "Point", "coordinates": [-119.8078514, 36.8366549]}},
{"type": "Feature", "id": "I32s9SqduK1rDGa0UBdgMSrzbnA=", "properties": {"ref": "207", "@spider": "ikes", "amenity": "fast_food", "cuisine": "sandwich", "short_name": "Ike's", "takeaway": "yes", "addr:street_address": "18529 Brookhurst St", "addr:city": "Fountain Valley", "addr:state": "CA", "addr:postcode": "92708", "addr:country": "US", "name": "Fountain Valley", "phone": "+17143750880", "website": "https://locations.ikessandwich.com/ca/fountainvalley/207/", "brand": "Ike's Love & Sandwiches", "brand:wikidata": "Q112028897", "nsi_id": "ikesloveandsandwiches-4d2ff4"}, "geometry": {"type": "Point", "coordinates": [-117.9548566, 33.6935464]}},
{"type": "Feature", "id": "0w1OCID7e5W28GnvNN0iuWYEgUU=", "properties": {"ref": "202", "@spider": "ikes", "amenity": "fast_food", "cuisine": "sandwich", "short_name": "Ike's", "takeaway": "yes", "addr:street_address": "1333 Powell St", "addr:city": "Emeryville", "addr:state": "CA", "addr:postcode": "94608", "addr:country": "US", "name": "Emeryville", "phone": "+15108174902", "website": "https://locations.ikessandwich.com/ca/emeryville/202/", "brand": "Ike's Love & Sandwiches", "brand:wikidata": "Q112028897", "nsi_id": "ikesloveandsandwiches-4d2ff4"}, "geometry": {"type": "Point", "coordinates": [-122.288653, 37.8394178]}},
{"type": "Feature", "id": "XFablIJppJ6Ie2opiAL3M1WpRLQ=", "properties": {"ref": "402", "@spider": "ikes", "amenity": "fast_food", "cuisine": "sandwich", "short_name": "Ike's", "takeaway": "yes", "addr:street_address": "460 N Pacific Coast Highway", "addr:city": "El Segundo", "addr:state": "CA", "addr:postcode": "90245", "addr:country": "US", "name": "El Segundo", "phone": "+13106163332", "website": "https://locations.ikessandwich.com/ca/elsegundo/402/", "brand": "Ike's Love & Sandwiches", "brand:wikidata": "Q112028897", "nsi_id": "ikesloveandsandwiches-4d2ff4"}, "geometry": {"type": "Point", "coordinates": [-118.3959464, 33.9213611]}},
{"type": "Feature", "id": "MUF852D-2Cl8RGBg7_16RhvYKKI=", "properties": {"ref": "209", "@spider": "ikes", "amenity": "fast_food", "cuisine": "sandwich", "short_name": "Ike's", "takeaway": "yes", "addr:street_address": "4930 Dublin Blvd.", "addr:city": "Dublin", "addr:state": "CA", "addr:postcode": "94568", "addr:country": "US", "name": "Dublin", "phone": "+19255563320", "website": "https://locations.ikessandwich.com/ca/dublin/209/", "brand": "Ike's Love & Sandwiches", "brand:wikidata": "Q112028897", "nsi_id": "ikesloveandsandwiches-4d2ff4"}, "geometry": {"type": "Point", "coordinates": [-121.885236, 37.7041575]}},
{"type": "Feature", "id": "2Qr6SsWxYhVsq60MPqW95BbvujI=", "properties": {"ref": "019", "@spider": "ikes", "amenity": "fast_food", "cuisine": "sandwich", "short_name": "Ike's", "takeaway": "yes", "addr:street_address": "8300 E. 36th Ave", "addr:city": "Denver", "addr:state": "CO", "addr:postcode": "80238", "addr:country": "US", "name": "Central Park", "phone": "+13035689697", "website": "https://locations.ikessandwich.com/co/denver/019/", "brand": "Ike's Love & Sandwiches", "brand:wikidata": "Q112028897", "nsi_id": "ikesloveandsandwiches-4d2ff4"}, "geometry": {"type": "Point", "coordinates": [-104.8912088, 39.7671113]}},
{"type": "Feature", "id": "OfAR8nlsrPzMUyuqcv9exvvCmuw=", "properties": {"ref": "138", "@spider": "ikes", "amenity": "fast_food", "cuisine": "sandwich", "short_name": "Ike's", "takeaway": "yes", "addr:street_address": "3071 E. Campus Pointe Drive", "addr:city": "Fresno", "addr:state": "CA", "addr:postcode": "93710", "addr:country": "US", "name": "Fresno (Campus)", "phone": "+15599004873", "website": "https://locations.ikessandwich.com/ca/fresno/138/", "brand": "Ike's Love & Sandwiches", "brand:wikidata": "Q112028897", "nsi_id": "ikesloveandsandwiches-4d2ff4"}, "geometry": {"type": "Point", "coordinates": [-119.7349095, 36.8118764]}},
{"type": "Feature", "id": "vw4eBbgdyLiWn12WFy6Pc-KXhwA=", "properties": {"ref": "401", "@spider": "ikes", "amenity": "fast_food", "cuisine": "sandwich", "short_name": "Ike's", "takeaway": "yes", "addr:street_address": "3545 Del Mar Heights Rd.", "addr:city": "Del Mar", "addr:state": "CA", "addr:postcode": "92130", "addr:country": "US", "name": "Del Mar", "phone": "+18583569554", "website": "https://locations.ikessandwich.com/ca/sandiego/401/", "brand": "Ike's Love & Sandwiches", "brand:wikidata": "Q112028897", "nsi_id": "ikesloveandsandwiches-4d2ff4"}, "geometry": {"type": "Point", "coordinates": [-117.2304534, 32.9540956]}},
{"type": "Feature", "id": "KAoueyuVy380BxzdXUlwe0tN3vc=", "properties": {"ref": "112", "@spider": "ikes", "amenity": "fast_food", "cuisine": "sandwich", "short_name": "Ike's", "takeaway": "yes", "addr:street_address": "2204 Broadway", "addr:city": "Oakland", "addr:state": "CA", "addr:postcode": "94612", "addr:country": "US", "name": "Oakland", "phone": "+15103386789", "website": "https://locations.ikessandwich.com/ca/oakland/112/", "brand": "Ike's Love & Sandwiches", "brand:wikidata": "Q112028897", "nsi_id": "ikesloveandsandwiches-4d2ff4"}, "geometry": {"type": "Point", "coordinates": [-122.2665335, 37.8110519]}},
{"type": "Feature", "id": "usqCvx68Nno4vDhwzejHVSeJEqU=", "properties": {"ref": "120", "@spider": "ikes", "amenity": "fast_food", "cuisine": "sandwich", "short_name": "Ike's", "takeaway": "yes", "addr:street_address": "212 F Street", "addr:city": "Davis", "addr:state": "CA", "addr:postcode": "95616", "addr:country": "US", "name": "Davis", "phone": "+15307462525", "website": "https://locations.ikessandwich.com/ca/davis/120/", "brand": "Ike's Love & Sandwiches", "brand:wikidata": "Q112028897", "nsi_id": "ikesloveandsandwiches-4d2ff4"}, "geometry": {"type": "Point", "coordinates": [-121.7397831, 38.5439281]}},
{"type": "Feature", "id": "-NiTvFOaoScwtqa3rWCyXhNK0Ic=", "properties": {"ref": "111", "@spider": "ikes", "amenity": "fast_food", "cuisine": "sandwich", "short_name": "Ike's", "takeaway": "yes", "addr:street_address": "21 Railroad Ave", "addr:city": "Danville", "addr:state": "CA", "addr:postcode": "94526", "addr:country": "US", "name": "Danville", "phone": "+19258209500", "website": "https://locations.ikessandwich.com/ca/danville/111/", "brand": "Ike's Love & Sandwiches", "brand:wikidata": "Q112028897", "nsi_id": "ikesloveandsandwiches-4d2ff4"}, "geometry": {"type": "Point", "coordinates": [-122.0043345, 37.823451]}},
{"type": "Feature", "id": "OaZPMa1WmUw6KocuGSTj0QxpOms=", "properties": {"ref": "117", "@spider": "ikes", "amenity": "fast_food", "cuisine": "sandwich", "short_name": "Ike's", "takeaway": "yes", "addr:street_address": "128 Serramonte Center", "addr:city": "Daly City", "addr:state": "CA", "addr:postcode": "94015", "addr:country": "US", "name": "Daly City", "phone": "+16509934755", "website": "https://locations.ikessandwich.com/ca/dalycity/117/", "brand": "Ike's Love & Sandwiches", "brand:wikidata": "Q112028897", "nsi_id": "ikesloveandsandwiches-4d2ff4"}, "geometry": {"type": "Point", "coordinates": [-122.4702753, 37.6715921]}},
{"type": "Feature", "id": "SwlImX81KX8GFCEgdEjfemecUX8=", "properties": {"ref": "301", "@spider": "ikes", "amenity": "fast_food", "cuisine": "sandwich", "short_name": "Ike's", "takeaway": "yes", "addr:street_address": "21000 Stevens Creek Blvd", "addr:city": "Cupertino", "addr:state": "CA", "addr:postcode": "95014", "addr:country": "US", "name": "Cupertino", "phone": "+14088611000", "website": "https://locations.ikessandwich.com/ca/cupertino/301/", "brand": "Ike's Love & Sandwiches", "brand:wikidata": "Q112028897", "nsi_id": "ikesloveandsandwiches-4d2ff4"}, "geometry": {"type": "Point", "coordinates": [-122.0410608, 37.322608]}},
{"type": "Feature", "id": "xulrLFS-7YDki7sCIxDzhJCQVf4=", "properties": {"ref": "404", "@spider": "ikes", "amenity": "fast_food", "cuisine": "sandwich", "short_name": "Ike's", "takeaway": "yes", "addr:street_address": "3895 Overland Ave.", "addr:city": "Culver City", "addr:state": "CA", "addr:postcode": "90232", "addr:country": "US", "name": "Culver City", "phone": "+13102047090", "website": "https://locations.ikessandwich.com/ca/culvercity/404/", "brand": "Ike's Love & Sandwiches", "brand:wikidata": "Q112028897", "nsi_id": "ikesloveandsandwiches-4d2ff4"}, "geometry": {"type": "Point", "coordinates": [-118.4060983, 34.0172267]}},
{"type": "Feature", "id": "iRZeTVG9ueYOPnr7mfuP-lMT7yc=", "properties": {"ref": "451", "@spider": "ikes", "amenity": "fast_food", "cuisine": "sandwich", "short_name": "Ike's", "takeaway": "yes", "addr:street_address": "1835 Newport Blvd", "addr:city": "Costa Mesa", "addr:state": "CA", "addr:postcode": "92627", "addr:country": "US", "name": "Costa Mesa", "phone": "+19496293303", "website": "https://locations.ikessandwich.com/ca/costamesa/451/", "brand": "Ike's Love & Sandwiches", "brand:wikidata": "Q112028897", "nsi_id": "ikesloveandsandwiches-4d2ff4"}, "geometry": {"type": "Point", "coordinates": [-117.9193157, 33.6430216]}},
{"type": "Feature", "id": "4Y3xy1xeQgy5xznF4_lR08KjZPU=", "properties": {"ref": "116", "@spider": "ikes", "amenity": "fast_food", "cuisine": "sandwich", "short_name": "Ike's", "takeaway": "yes", "addr:street_address": "1975 Diamond Blvd", "addr:city": "Concord", "addr:state": "CA", "addr:postcode": "94520", "addr:country": "US", "name": "Concord", "phone": "+19256098811", "website": "https://locations.ikessandwich.com/ca/concord/116/", "brand": "Ike's Love & Sandwiches", "brand:wikidata": "Q112028897", "nsi_id": "ikesloveandsandwiches-4d2ff4"}, "geometry": {"type": "Point", "coordinates": [-122.0561341, 37.9682152]}},
{"type": "Feature", "id": "S3luRC9UAVvoe4LK9fJXzWO58KU=", "properties": {"ref": "139", "@spider": "ikes", "amenity": "fast_food", "cuisine": "sandwich", "short_name": "Ike's", "takeaway": "yes", "addr:street_address": "4013 Grand Ave", "addr:city": "Chino", "addr:state": "CA", "addr:postcode": "91710", "addr:country": "US", "name": "Chino", "phone": "+19094640038", "website": "https://locations.ikessandwich.com/ca/chino/139/", "brand": "Ike's Love & Sandwiches", "brand:wikidata": "Q112028897", "nsi_id": "ikesloveandsandwiches-4d2ff4"}, "geometry": {"type": "Point", "coordinates": [-117.7159167, 33.9968111]}},
{"type": "Feature", "id": "58mw0Bx_7eWFkl7V1JerouW_EQc=", "properties": {"ref": "001", "@spider": "ikes", "amenity": "fast_food", "cuisine": "sandwich", "short_name": "Ike's", "takeaway": "yes", "addr:street_address": "648 W 5th St", "addr:city": "Chico", "addr:state": "CA", "addr:postcode": "95928", "addr:country": "US", "name": "Chico", "phone": "+15309243171", "website": "https://locations.ikessandwich.com/ca/chico/001/", "brand": "Ike's Love & Sandwiches", "brand:wikidata": "Q112028897", "nsi_id": "ikesloveandsandwiches-4d2ff4"}, "geometry": {"type": "Point", "coordinates": [-121.8436036, 39.724738]}},
{"type": "Feature", "id": "G9XkdJEuRRMwY2wDvXGGs67tElM=", "properties": {"ref": "306", "@spider": "ikes", "amenity": "fast_food", "cuisine": "sandwich", "short_name": "Ike's", "takeaway": "yes", "addr:street_address": "1335 E. Whitestone Blvd. Bldg. S-180", "addr:city": "Cedar Park", "addr:state": "TX", "addr:postcode": "78613", "addr:country": "US", "name": "Cedar Park", "phone": "+15124560511", "website": "https://locations.ikessandwich.com/tx/cedarpark/306/", "brand": "Ike's Love & Sandwiches", "brand:wikidata": "Q112028897", "nsi_id": "ikesloveandsandwiches-4d2ff4"}, "geometry": {"type": "Point", "coordinates": [-97.8144301, 30.5270437]}},
{"type": "Feature", "id": "SpHfhh7QHirv2xvSzBK01ZX1wvI=", "properties": {"ref": "403", "@spider": "ikes", "amenity": "fast_food", "cuisine": "sandwich", "short_name": "Ike's", "takeaway": "yes", "addr:street_address": "20810 S. Avalon Blvd", "addr:city": "Carson", "addr:state": "CA", "addr:postcode": "90746", "addr:country": "US", "name": "Carson", "phone": "+13108198597", "website": "https://locations.ikessandwich.com/ca/carson/403/", "brand": "Ike's Love & Sandwiches", "brand:wikidata": "Q112028897", "nsi_id": "ikesloveandsandwiches-4d2ff4"}, "geometry": {"type": "Point", "coordinates": [-118.2623924, 33.8415297]}},
{"type": "Feature", "id": "c7b--Is1Ze1LTonHX3g3rRZestI=", "properties": {"ref": "203", "@spider": "ikes", "amenity": "fast_food", "cuisine": "sandwich", "short_name": "Ike's", "takeaway": "yes", "addr:street_address": "1333 Powell St", "addr:city": "Burlingame", "addr:state": "CA", "addr:postcode": "94010", "addr:country": "US", "name": "Burlingame", "phone": "+16503152099", "website": "https://locations.ikessandwich.com/ca/burlingame/203/", "brand": "Ike's Love & Sandwiches", "brand:wikidata": "Q112028897", "nsi_id": "ikesloveandsandwiches-4d2ff4"}, "geometry": {"type": "Point", "coordinates": [-122.3122552, 37.5767081]}},
{"type": "Feature", "id": "r994yqcUXK5PeEHnQ22IsDrTICY=", "properties": {"ref": "206", "@spider": "ikes", "amenity": "fast_food", "cuisine": "sandwich", "short_name": "Ike's", "takeaway": "yes", "addr:street_address": "302 N San Fernando Blvd", "addr:city": "Burbank", "addr:state": "CA", "addr:postcode": "91502", "addr:country": "US", "name": "Burbank", "phone": "+18185627223", "website": "https://locations.ikessandwich.com/ca/burbank/206/", "brand": "Ike's Love & Sandwiches", "brand:wikidata": "Q112028897", "nsi_id": "ikesloveandsandwiches-4d2ff4"}, "geometry": {"type": "Point", "coordinates": [-118.3106739, 34.1826332]}},
{"type": "Feature", "id": "9Tr4aGBoRqjIYM-ww0IJw3mGdXQ=", "properties": {"ref": "205", "@spider": "ikes", "amenity": "fast_food", "cuisine": "sandwich", "short_name": "Ike's", "takeaway": "yes", "addr:street_address": "2172 Shattuck Ave", "addr:city": "Berkeley", "addr:state": "CA", "addr:postcode": "94704", "addr:country": "US", "name": "Berkeley (Shattuck)", "phone": "+15106795130", "website": "https://locations.ikessandwich.com/ca/berkeley/205/", "brand": "Ike's Love & Sandwiches", "brand:wikidata": "Q112028897", "nsi_id": "ikesloveandsandwiches-4d2ff4"}, "geometry": {"type": "Point", "coordinates": [-122.268328, 37.8697926]}},
{"type": "Feature", "id": "-nQEBEr3gNIu6NzAGwEOBdkDDGM=", "properties": {"ref": "131", "@spider": "ikes", "amenity": "fast_food", "cuisine": "sandwich", "short_name": "Ike's", "takeaway": "yes", "addr:street_address": "2701 Ming Ave", "addr:city": "Bakersfield", "addr:state": "CA", "addr:postcode": "93304", "addr:country": "US", "name": "Bakersfield (Valley Plaza)", "phone": "+16614917165", "website": "https://locations.ikessandwich.com/ca/bakersfield/131/", "brand": "Ike's Love & Sandwiches", "brand:wikidata": "Q112028897", "nsi_id": "ikesloveandsandwiches-4d2ff4"}, "geometry": {"type": "Point", "coordinates": [-119.0366279, 35.3353129]}},
{"type": "Feature", "id": "_YCzisTFYCWepD49hvn4chZTl-0=", "properties": {"ref": "132", "@spider": "ikes", "amenity": "fast_food", "cuisine": "sandwich", "short_name": "Ike's", "takeaway": "yes", "addr:street_address": "9000 Ming Ave", "addr:city": "Bakersfield", "addr:state": "CA", "addr:postcode": "93311", "addr:country": "US", "name": "Bakersfield (Marketplace)", "phone": "+16614128588", "website": "https://locations.ikessandwich.com/ca/bakersfield/132/", "brand": "Ike's Love & Sandwiches", "brand:wikidata": "Q112028897", "nsi_id": "ikesloveandsandwiches-4d2ff4"}, "geometry": {"type": "Point", "coordinates": [-119.1057607, 35.3401397]}},
{"type": "Feature", "id": "k9NwsYIEnMupbcqARNGcFhG0B08=", "properties": {"ref": "518", "@spider": "ikes", "amenity": "fast_food", "cuisine": "sandwich", "short_name": "Ike's", "takeaway": "yes", "addr:street_address": "13070 W Rancho Santa Fe Blvd", "addr:city": "Avondale", "addr:state": "AZ", "addr:postcode": "85392", "addr:country": "US", "name": "Avondale", "phone": "+16027262770", "website": "https://locations.ikessandwich.com/az/avondale/518/", "brand": "Ike's Love & Sandwiches", "brand:wikidata": "Q112028897", "nsi_id": "ikesloveandsandwiches-4d2ff4"}, "geometry": {"type": "Point", "coordinates": [-112.3397843, 33.4611035]}},
{"type": "Feature", "id": "HMrMfSpxPmpJTllkMPCvydqgUC0=", "properties": {"ref": "416", "@spider": "ikes", "amenity": "fast_food", "cuisine": "sandwich", "short_name": "Ike's", "takeaway": "yes", "addr:street_address": "1201 Barbara Jordan Blvd", "addr:city": "Austin", "addr:state": "TX", "addr:postcode": "78723", "addr:country": "US", "name": "Mueller - Coming Soon!", "website": "https://locations.ikessandwich.com/tx/austin/416/", "brand": "Ike's Love & Sandwiches", "brand:wikidata": "Q112028897", "nsi_id": "ikesloveandsandwiches-4d2ff4"}, "geometry": {"type": "Point", "coordinates": [-97.7100992, 30.3047659]}},
{"type": "Feature", "id": "dLZOj78In5rC27Vot_n8-JWD3Tk=", "properties": {"ref": "419", "@spider": "ikes", "amenity": "fast_food", "cuisine": "sandwich", "short_name": "Ike's", "takeaway": "yes", "addr:street_address": "9828 Great Hills Trail", "addr:city": "Austin", "addr:state": "TX", "addr:postcode": "79758", "addr:country": "US", "name": "Great Hills - Coming Soon!", "website": "https://locations.ikessandwich.com/tx/austin/419/", "brand": "Ike's Love & Sandwiches", "brand:wikidata": "Q112028897", "nsi_id": "ikesloveandsandwiches-4d2ff4"}, "geometry": {"type": "Point", "coordinates": [-97.74756939999999, 30.3945369]}}]}