{"type":"FeatureCollection","features":[{"type": "Feature", "id": "pnkDaE1_G1RrEaeBk4ReNo1nyqE=", "properties": {"ref": "601", "@spider": "ingles", "addr:full": "1550 West Main St.", "addr:city": "Centre", "addr:state": "AL", "addr:postcode": "35960", "name": "Centre", "phone": "256-927-6461", "website": "https://www.ingles-markets.com/storelocate/storeinfo.php?storenum=601", "opening_hours": "Mo-Su 07:00-10:00", "brand": "Ingles", "brand:wikidata": "Q6032595"}, "geometry": {"type": "Point", "coordinates": [-85.699738, 34.1569]}},
{"type": "Feature", "id": "AGer6JMpg6sepl5yRobQ1H4-hpE=", "properties": {"ref": "411", "@spider": "ingles", "addr:full": "5055 Cherokee St.", "addr:city": "Acworth", "addr:state": "GA", "addr:postcode": "30101", "name": "Acworth", "phone": "770-975-1947", "website": "https://www.ingles-markets.com/storelocate/storeinfo.php?storenum=411", "opening_hours": "Mo-Su 07:00-11:00", "brand": "Ingles", "brand:wikidata": "Q6032595"}, "geometry": {"type": "Point", "coordinates": [-84.677012, 34.072061]}},
{"type": "Feature", "id": "BQh3TLQyoMNNc6_S5i4sJHMJCoI=", "properties": {"ref": "456", "@spider": "ingles", "addr:full": "2835 Keith Bridge Rd.", "addr:city": "Cumming", "addr:state": "GA", "addr:postcode": "30040", "name": "Cumming", "phone": "770-886-1181", "website": "https://www.ingles-markets.com/storelocate/storeinfo.php?storenum=456", "opening_hours": "Mo-Su 07:00-11:00", "brand": "Ingles", "brand:wikidata": "Q6032595"}, "geometry": {"type": "Point", "coordinates": [-84.18, 34.236]}},
{"type": "Feature", "id": "eWyYkZp3kayrNGioSbt2oSGSTlU=", "properties": {"ref": "452", "@spider": "ingles", "addr:full": "7173 Turner Lake Rd.", "addr:city": "Covington", "addr:state": "GA", "addr:postcode": "30014", "name": "Covington", "phone": "770-787-8231", "website": "https://www.ingles-markets.com/storelocate/storeinfo.php?storenum=452", "opening_hours": "Mo-Su 07:00-11:00", "brand": "Ingles", "brand:wikidata": "Q6032595"}, "geometry": {"type": "Point", "coordinates": [-83.875919, 33.605513]}},
{"type": "Feature", "id": "eB2t_iRMExu6NpPYrATHy-OV3UM=", "properties": {"ref": "439", "@spider": "ingles", "addr:full": "9176 Hwy. 278 NE", "addr:city": "Covington", "addr:state": "GA", "addr:postcode": "30016", "name": "Covington", "phone": "770-787-8129", "website": "https://www.ingles-markets.com/storelocate/storeinfo.php?storenum=439", "opening_hours": "Mo-Su 07:00-11:00", "brand": "Ingles", "brand:wikidata": "Q6032595"}, "geometry": {"type": "Point", "coordinates": [-83.83293, 33.599094]}},
{"type": "Feature", "id": "H7KNs0Fr0C4X9lMR2V3YnHeDASU=", "properties": {"ref": "61", "@spider": "ingles", "addr:full": "199 Habersham County S/C. (US 441)", "addr:city": "Cornelia", "addr:state": "GA", "addr:postcode": "30531", "name": "Cornelia", "phone": "706-778-5434", "website": "https://www.ingles-markets.com/storelocate/storeinfo.php?storenum=61", "opening_hours": "Mo-Su 07:00-11:00", "brand": "Ingles", "brand:wikidata": "Q6032595"}, "geometry": {"type": "Point", "coordinates": [-83.543539, 34.510755]}},
{"type": "Feature", "id": "f-UzfAS42qhcgVXpkf-H3z5XliU=", "properties": {"ref": "469", "@spider": "ingles", "addr:full": "2455 Salem Road South East", "addr:city": "Conyers", "addr:state": "GA", "addr:postcode": "30013", "name": "Conyers", "phone": "770-483-5109", "website": "https://www.ingles-markets.com/storelocate/storeinfo.php?storenum=469", "opening_hours": "Mo-Su 06:00-11:00", "brand": "Ingles", "brand:wikidata": "Q6032595"}, "geometry": {"type": "Point", "coordinates": [-83.977283, 33.62615]}},
{"type": "Feature", "id": "6-0TYbfJXgjoHKWLLD6BgFqOhVw=", "properties": {"ref": "419", "@spider": "ingles", "addr:full": "220 Highway 334", "addr:city": "Commerce", "addr:state": "GA", "addr:postcode": "30529", "name": "Commerce", "phone": "706-335-7689", "website": "https://www.ingles-markets.com/storelocate/storeinfo.php?storenum=419", "opening_hours": "Mo-Su 06:00-11:00", "brand": "Ingles", "brand:wikidata": "Q6032595"}, "geometry": {"type": "Point", "coordinates": [-83.45554, 34.201416]}},
{"type": "Feature", "id": "XwF8Lvvn0k-_GiZXtZOqokVpvFk=", "properties": {"ref": "489", "@spider": "ingles", "addr:full": "55 Helen Highway", "addr:city": "Cleveland", "addr:state": "GA", "addr:postcode": "30528", "name": "Cleveland", "phone": "706-219-4096", "website": "https://www.ingles-markets.com/storelocate/storeinfo.php?storenum=489", "opening_hours": "Mo-Su 06:00-11:00", "brand": "Ingles", "brand:wikidata": "Q6032595"}, "geometry": {"type": "Point", "coordinates": [-83.762743, 34.603883]}},
{"type": "Feature", "id": "wODO0MQ9-JAdCNotUy0yvW6Rt3Y=", "properties": {"ref": "488", "@spider": "ingles", "addr:full": "176 Hwy. 441", "addr:city": "Clayton", "addr:state": "GA", "addr:postcode": "30525", "name": "Clayton", "phone": "706-782-3365", "website": "https://www.ingles-markets.com/storelocate/storeinfo.php?storenum=488", "opening_hours": "Mo-Su 06:00-11:00", "brand": "Ingles", "brand:wikidata": "Q6032595"}, "geometry": {"type": "Point", "coordinates": [-83.396481, 34.87992]}},
{"type": "Feature", "id": "BArzS-TInq4b1rKxHMqruQ1f02Y=", "properties": {"ref": "428", "@spider": "ingles", "addr:full": "199 East Louise St", "addr:city": "Clarkesville", "addr:state": "GA", "addr:postcode": "30523", "name": "Clarkesville", "phone": "706-754-3525", "website": "https://www.ingles-markets.com/storelocate/storeinfo.php?storenum=428", "opening_hours": "Mo-Su 07:00-11:00", "brand": "Ingles", "brand:wikidata": "Q6032595"}, "geometry": {"type": "Point", "coordinates": [-83.519602, 34.599904]}},
{"type": "Feature", "id": "eZVCbQQIUjaAtWmxG2aWG_8GIcM=", "properties": {"ref": "86", "@spider": "ingles", "addr:full": "964 GI Maddox Pkwy", "addr:city": "Chatsworth", "addr:state": "GA", "addr:postcode": "30705", "name": "Chatsworth", "phone": "706-695-5705", "website": "https://www.ingles-markets.com/storelocate/storeinfo.php?storenum=86", "opening_hours": "Mo-Su 06:00-11:00", "brand": "Ingles", "brand:wikidata": "Q6032595"}, "geometry": {"type": "Point", "coordinates": [-84.789495, 34.78277]}},
{"type": "Feature", "id": "MgWFLnq5kIKsHjxR4eXsEL2gS_c=", "properties": {"ref": "497", "@spider": "ingles", "addr:full": "633 N. Main St.", "addr:city": "Wrens", "addr:state": "GA", "addr:postcode": "30833", "name": "Wrens", "phone": "706-547-3255", "website": "https://www.ingles-markets.com/storelocate/storeinfo.php?storenum=497", "opening_hours": "Mo-Su 07:00-10:00", "brand": "Ingles", "brand:wikidata": "Q6032595"}, "geometry": {"type": "Point", "coordinates": [-82.383453, 33.215401]}},
{"type": "Feature", "id": "cQaJKG-tqLsLfwFd3h53a-7P-98=", "properties": {"ref": "82", "@spider": "ingles", "addr:full": "60 Ashemont Dr.", "addr:city": "West Jefferson", "addr:state": "NC", "addr:postcode": "28694", "name": "West Jefferson", "phone": "336-246-2804", "website": "https://www.ingles-markets.com/storelocate/storeinfo.php?storenum=82", "opening_hours": "Mo-Su 06:00-10:00", "brand": "Ingles", "brand:wikidata": "Q6032595"}, "geometry": {"type": "Point", "coordinates": [-81.487664, 36.382449]}},
{"type": "Feature", "id": "jMKohUQ5NvYmgX8MJKU5HmDhJs4=", "properties": {"ref": "249", "@spider": "ingles", "addr:full": "1049 East Main Street", "addr:city": "Westminster", "addr:state": "SC", "addr:postcode": "29693", "name": "Westminster", "phone": "864-647-4204", "website": "https://www.ingles-markets.com/storelocate/storeinfo.php?storenum=249", "opening_hours": "Mo-Su 07:00-10:00", "brand": "Ingles", "brand:wikidata": "Q6032595"}, "geometry": {"type": "Point", "coordinates": [-83.086759, 34.660098]}},
{"type": "Feature", "id": "prVA4dfK1P03_u8pufAOEAOHkwo=", "properties": {"ref": "306", "@spider": "ingles", "addr:full": "904 S. Main St.", "addr:city": "Sweetwater", "addr:state": "TN", "addr:postcode": "37874", "name": "Sweetwater", "phone": "423-337-6090", "website": "https://www.ingles-markets.com/storelocate/storeinfo.php?storenum=306", "opening_hours": "Mo-Su 07:00-10:00", "brand": "Ingles", "brand:wikidata": "Q6032595"}, "geometry": {"type": "Point", "coordinates": [-84.470238, 35.589888]}},
{"type": "Feature", "id": "Q-zjdfhXpCFVISO9UZZQJwo1RI8=", "properties": {"ref": "503", "@spider": "ingles", "addr:full": "1185 N. Main St.", "addr:city": "Marion", "addr:state": "VA", "addr:postcode": "24354", "name": "Marion", "phone": "276-783-5461", "website": "https://www.ingles-markets.com/storelocate/storeinfo.php?storenum=503", "opening_hours": "Mo-Su 07:00-10:00", "brand": "Ingles", "brand:wikidata": "Q6032595"}, "geometry": {"type": "Point", "coordinates": [-81.501199, 36.84452]}},
{"type": "Feature", "id": "Bqs3qN2c8mRmleTtb1QHGNlxBn4=", "properties": {"ref": "399", "@spider": "ingles", "addr:full": "430 Emory Rd.", "addr:city": "Powell", "addr:state": "TN", "addr:postcode": "37849", "name": "Powell", "phone": "865-947-4523", "website": "https://www.ingles-markets.com/storelocate/storeinfo.php?storenum=399", "opening_hours": "Mo-Su 06:00-12:00", "brand": "Ingles", "brand:wikidata": "Q6032595"}, "geometry": {"type": "Point", "coordinates": [-83.997256, 36.049734]}},
{"type": "Feature", "id": "7xvpMgEsYM6_Tt-Wf8wxeFGIKIg=", "properties": {"ref": "302", "@spider": "ingles", "addr:full": "Cumberland Gallery US 33 at 406 S. Broad St.", "addr:city": "New Tazewell", "addr:state": "TN", "addr:postcode": "37825", "name": "New Tazewell", "phone": "423-626-6610", "website": "https://www.ingles-markets.com/storelocate/storeinfo.php?storenum=302", "opening_hours": "Mo-Su 07:00-11:00", "brand": "Ingles", "brand:wikidata": "Q6032595"}, "geometry": {"type": "Point", "coordinates": [-83.600696, 36.442209]}},
{"type": "Feature", "id": "e5uKz6ueovnGuSXjaJKMz3Y5OPY=", "properties": {"ref": "85", "@spider": "ingles", "addr:full": "3980 W. Andrew Johnson Hwy.", "addr:city": "Morristown", "addr:state": "TN", "addr:postcode": "37814", "name": "Morristown", "phone": "423-587-3400", "website": "https://www.ingles-markets.com/storelocate/storeinfo.php?storenum=85", "opening_hours": "Mo-Su 06:00-11:00", "brand": "Ingles", "brand:wikidata": "Q6032595"}, "geometry": {"type": "Point", "coordinates": [-83.351337, 36.19547]}},
{"type": "Feature", "id": "e5aGdwVM2zwddvEG8mB5EA1FYkE=", "properties": {"ref": "313", "@spider": "ingles", "addr:full": "2342 E. Andrew Johnson Hwy.", "addr:city": "Morristown", "addr:state": "TN", "addr:postcode": "37814", "name": "Morristown", "phone": "423-586-9388", "website": "https://www.ingles-markets.com/storelocate/storeinfo.php?storenum=313", "opening_hours": "Mo-Su 07:00-10:00", "brand": "Ingles", "brand:wikidata": "Q6032595"}, "geometry": {"type": "Point", "coordinates": [-83.265609, 36.226384]}},
{"type": "Feature", "id": "KW95xG4mCYx_-rZBDkXdPmFOgfc=", "properties": {"ref": "87", "@spider": "ingles", "addr:full": "4629 Highway 411", "addr:city": "Madisonville", "addr:state": "TN", "addr:postcode": "37354", "name": "Madisonville", "phone": "423-442-4944", "website": "https://www.ingles-markets.com/storelocate/storeinfo.php?storenum=87", "opening_hours": "Mo-Su 07:00-10:00", "brand": "Ingles", "brand:wikidata": "Q6032595"}, "geometry": {"type": "Point", "coordinates": [-84.386617, 35.498191]}},
{"type": "Feature", "id": "2kjddMr4nGFXzrsLL7Xii11wkgc=", "properties": {"ref": "71", "@spider": "ingles", "addr:full": "404 Highway 321 N", "addr:city": "Lenoir City", "addr:state": "TN", "addr:postcode": "37771", "name": "Lenoir City", "phone": "865-988-5902", "website": "https://www.ingles-markets.com/storelocate/storeinfo.php?storenum=71", "opening_hours": "Mo-Su 06:00-11:00", "brand": "Ingles", "brand:wikidata": "Q6032595"}, "geometry": {"type": "Point", "coordinates": [-84.26106, 35.80236]}},
{"type": "Feature", "id": "mmuxvHyT87RgA8bVtDybGexrOJQ=", "properties": {"ref": "304", "@spider": "ingles", "addr:full": "7466 Oak Ridge Hwy. (Karns)", "addr:city": "Knoxville", "addr:state": "TN", "addr:postcode": "37931", "name": "Knoxville", "phone": "865-670-1049", "website": "https://www.ingles-markets.com/storelocate/storeinfo.php?storenum=304", "opening_hours": "Mo-Su 06:00-11:00", "brand": "Ingles", "brand:wikidata": "Q6032595"}, "geometry": {"type": "Point", "coordinates": [-84.09415, 35.982327]}},
{"type": "Feature", "id": "vYTDgQiQnjTje9W1T3STfbR1kX0=", "properties": {"ref": "307", "@spider": "ingles", "addr:full": "215 Cedar Lane", "addr:city": "Knoxville", "addr:state": "TN", "addr:postcode": "37912", "name": "Knoxville", "phone": "865-688-0821", "website": "https://www.ingles-markets.com/storelocate/storeinfo.php?storenum=307", "opening_hours": "Mo-Su 07:00-11:00", "brand": "Ingles", "brand:wikidata": "Q6032595"}, "geometry": {"type": "Point", "coordinates": [-83.96783, 36.014544]}},
{"type": "Feature", "id": "PH82gV_Bh6OOoUhnIPsUeQSZsO8=", "properties": {"ref": "305", "@spider": "ingles", "addr:full": "7220 Norris Fwy", "addr:city": "Knoxville", "addr:state": "TN", "addr:postcode": "37918", "name": "Knoxville", "phone": "865-922-1672", "website": "https://www.ingles-markets.com/storelocate/storeinfo.php?storenum=305", "opening_hours": "Mo-Su 07:00-11:00", "brand": "Ingles", "brand:wikidata": "Q6032595"}, "geometry": {"type": "Point", "coordinates": [-83.930032, 36.08245]}},
{"type": "Feature", "id": "dznzthDe6QspEyTvaCntibBinus=", "properties": {"ref": "72", "@spider": "ingles", "addr:full": "4345 Ft. Henry Dr.", "addr:city": "Kingsport", "addr:state": "TN", "addr:postcode": "37664", "name": "Kingsport", "phone": "423-239-6261", "website": "https://www.ingles-markets.com/storelocate/storeinfo.php?storenum=72", "opening_hours": "Mo-Su 06:00-11:00", "brand": "Ingles", "brand:wikidata": "Q6032595"}, "geometry": {"type": "Point", "coordinates": [-82.497514, 36.481387]}},
{"type": "Feature", "id": "fiQClphZe7YsdEvkkzEjSrpoBqw=", "properties": {"ref": "398", "@spider": "ingles", "addr:full": "1200 W. Jackson Blvd.", "addr:city": "Jonesborough", "addr:state": "TN", "addr:postcode": "37659", "name": "Jonesborough", "phone": "423-753-8893", "website": "https://www.ingles-markets.com/storelocate/storeinfo.php?storenum=398", "opening_hours": "Mo-Su 06:00-11:00", "brand": "Ingles", "brand:wikidata": "Q6032595"}, "geometry": {"type": "Point", "coordinates": [-82.496654, 36.2932]}},
{"type": "Feature", "id": "X0XFScz50Tn0vet_jQVs2hWjIdc=", "properties": {"ref": "372", "@spider": "ingles", "addr:full": "4470 N. Roan St.", "addr:city": "Johnson City", "addr:state": "TN", "addr:postcode": "37604", "name": "Johnson City", "phone": "423-952-0815", "website": "https://www.ingles-markets.com/storelocate/storeinfo.php?storenum=372", "opening_hours": "Mo-Su 06:00-11:00", "brand": "Ingles", "brand:wikidata": "Q6032595"}, "geometry": {"type": "Point", "coordinates": [-82.409312, 36.383602]}},
{"type": "Feature", "id": "Q7UJx_zeHwF6LgdeJ3q3KHgeYcY=", "properties": {"ref": "301", "@spider": "ingles", "addr:full": "Valley Plaza US 41 at East Valley Rd.", "addr:city": "Jasper", "addr:state": "TN", "addr:postcode": "37347", "name": "Jasper", "phone": "423-942-2269", "website": "https://www.ingles-markets.com/storelocate/storeinfo.php?storenum=301", "opening_hours": "Mo-Su 07:00-10:00", "brand": "Ingles", "brand:wikidata": "Q6032595"}, "geometry": {"type": "Point", "coordinates": [-85.638453, 35.067192]}},
{"type": "Feature", "id": "cjd_cRXZYhJ8HfPjUq13XYTeJOg=", "properties": {"ref": "21", "@spider": "ingles", "addr:full": "615 Asheville Hwy", "addr:city": "Greeneville", "addr:state": "TN", "addr:postcode": "37743", "name": "Greeneville", "phone": "423-639-6873", "website": "https://www.ingles-markets.com/storelocate/storeinfo.php?storenum=21", "opening_hours": "Mo-Su 07:00-10:00", "brand": "Ingles", "brand:wikidata": "Q6032595"}, "geometry": {"type": "Point", "coordinates": [-82.846311, 36.144579]}},
{"type": "Feature", "id": "5WzZlw1JpXE5hoOHtWgA84QuiRA=", "properties": {"ref": "70", "@spider": "ingles", "addr:full": "2845 E. Andrew Johnson Hwy.", "addr:city": "Greeneville", "addr:state": "TN", "addr:postcode": "37745", "name": "Greeneville", "phone": "423-639-0531", "website": "https://www.ingles-markets.com/storelocate/storeinfo.php?storenum=70", "opening_hours": "Mo-Su 06:00-11:00", "brand": "Ingles", "brand:wikidata": "Q6032595"}, "geometry": {"type": "Point", "coordinates": [-82.774442, 36.182994]}},
{"type": "Feature", "id": "N3PkMQoG6J7NhB0FquZvEx7waNM=", "properties": {"ref": "91", "@spider": "ingles", "addr:full": "11847 Kingston Pike", "addr:city": "Farragut", "addr:state": "TN", "addr:postcode": "11847", "name": "Farragut", "phone": "865-966-4360", "website": "https://www.ingles-markets.com/storelocate/storeinfo.php?storenum=91", "opening_hours": "Mo-Su 06:00-11:00", "brand": "Ingles", "brand:wikidata": "Q6032595"}, "geometry": {"type": "Point", "coordinates": [-84.175572, 35.87456]}},
{"type": "Feature", "id": "ArBkzfepPpTxO5PNsKvxp3_q7jA=", "properties": {"ref": "397", "@spider": "ingles", "addr:full": "768 W. Elk Ave.", "addr:city": "Elizabethton", "addr:state": "TN", "addr:postcode": "37643", "name": "Elizabethton", "phone": "423-547-9323", "website": "https://www.ingles-markets.com/storelocate/storeinfo.php?storenum=397", "opening_hours": "Mo-Su 06:00-11:00", "brand": "Ingles", "brand:wikidata": "Q6032595"}, "geometry": {"type": "Point", "coordinates": [-82.233127, 36.351258]}},
{"type": "Feature", "id": "lgRoUXZMfCYwhw8RKWOGCbhCPYw=", "properties": {"ref": "9", "@spider": "ingles", "addr:full": "190 Clinch Ave", "addr:city": "Clinton", "addr:state": "TN", "addr:postcode": "37716", "name": "Clinton", "phone": "865-457-1611", "website": "https://www.ingles-markets.com/storelocate/storeinfo.php?storenum=9", "opening_hours": "Mo-Su 07:00-10:00", "brand": "Ingles", "brand:wikidata": "Q6032595"}, "geometry": {"type": "Point", "coordinates": [-84.13166, 36.091611]}},
{"type": "Feature", "id": "0YLgipxNrQiB_A0HchecqOYDTM8=", "properties": {"ref": "88", "@spider": "ingles", "addr:full": "917 Decatur Pike", "addr:city": "Athens", "addr:state": "TN", "addr:postcode": "37303", "name": "Athens", "phone": "423-744-8550", "website": "https://www.ingles-markets.com/storelocate/storeinfo.php?storenum=88", "opening_hours": "Mo-Su 07:00-11:00", "brand": "Ingles", "brand:wikidata": "Q6032595"}, "geometry": {"type": "Point", "coordinates": [-84.610626, 35.448285]}},
{"type": "Feature", "id": "VNSk3h3KF6sQ62tc0KAfvOhrReU=", "properties": {"ref": "49", "@spider": "ingles", "addr:full": "180 Scenic Plaza Dr ", "addr:city": "West Union", "addr:state": "SC", "addr:postcode": "29696", "name": "West Union", "phone": "864-638-7217", "website": "https://www.ingles-markets.com/storelocate/storeinfo.php?storenum=49", "opening_hours": "Mo-Su 07:00-11:00", "brand": "Ingles", "brand:wikidata": "Q6032595"}, "geometry": {"type": "Point", "coordinates": [-83.045693, 34.75373]}},
{"type": "Feature", "id": "mpUcSB1zS1qexmTuqPi9r-L4_Xo=", "properties": {"ref": "206", "@spider": "ingles", "addr:full": "1500 Geer Hwy.", "addr:city": "Travelers Rest", "addr:state": "SC", "addr:postcode": "29690", "name": "Travelers Rest", "phone": "864-834-5937", "website": "https://www.ingles-markets.com/storelocate/storeinfo.php?storenum=206", "opening_hours": "Mo-Su 06:00-11:00", "brand": "Ingles", "brand:wikidata": "Q6032595"}, "geometry": {"type": "Point", "coordinates": [-82.471747, 34.995061]}},
{"type": "Feature", "id": "CWBPpefRw1XatDJEax_KkcI7Tjs=", "properties": {"ref": "37", "@spider": "ingles", "addr:full": "8650 Asheville Hwy", "addr:city": "Spartanburg", "addr:state": "SC", "addr:postcode": "29302", "name": "Spartanburg", "phone": "864-578-8020", "website": "https://www.ingles-markets.com/storelocate/storeinfo.php?storenum=37", "opening_hours": "Mo-Su 07:00-10:00", "brand": "Ingles", "brand:wikidata": "Q6032595"}, "geometry": {"type": "Point", "coordinates": [-82.007167, 35.002234]}},
{"type": "Feature", "id": "XZkzAJNXoMc57wqASX9m7VYeU6Q=", "properties": {"ref": "45", "@spider": "ingles", "addr:full": "2000 S. Pine St.", "addr:city": "Spartanburg", "addr:state": "SC", "addr:postcode": "29302", "name": "Spartanburg", "phone": "864-573-7822", "website": "https://www.ingles-markets.com/storelocate/storeinfo.php?storenum=45", "opening_hours": "Mo-Su 07:00-11:00", "brand": "Ingles", "brand:wikidata": "Q6032595"}, "geometry": {"type": "Point", "coordinates": [-81.895214, 34.934272]}},
{"type": "Feature", "id": "PUUHVnGSrCWbu_Th6CeKbXgNUoA=", "properties": {"ref": "201", "@spider": "ingles", "addr:full": "2120 Boiling Springs Rd.\r\n", "addr:city": "Spartanburg", "addr:state": "SC", "addr:postcode": "29316", "name": "Spartanburg", "phone": "864-578-8832", "website": "https://www.ingles-markets.com/storelocate/storeinfo.php?storenum=201", "opening_hours": "Mo-Su 06:00-11:00", "brand": "Ingles", "brand:wikidata": "Q6032595"}, "geometry": {"type": "Point", "coordinates": [-81.96201961129746, 35.02327677540731]}},
{"type": "Feature", "id": "uEMlXVSXmBfcgSmk5XffsE1N5Rc=", "properties": {"ref": "202", "@spider": "ingles", "addr:full": "2375 Chesnee Hwy.", "addr:city": "Spartanburg", "addr:state": "SC", "addr:postcode": "29303", "name": "Spartanburg", "phone": "864-573-8895", "website": "https://www.ingles-markets.com/storelocate/storeinfo.php?storenum=202", "opening_hours": "Mo-Su 06:00-10:00", "brand": "Ingles", "brand:wikidata": "Q6032595"}, "geometry": {"type": "Point", "coordinates": [-81.896722, 35.027726]}},
{"type": "Feature", "id": "z933OgJvgRee-ZSVaShgaT5ZmE4=", "properties": {"ref": "204", "@spider": "ingles", "addr:full": "8004 Warren H Abernathy Hwy ", "addr:city": "Spartanburg", "addr:state": "SC", "addr:postcode": "29301", "name": "Spartanburg", "phone": "864-574-8488", "website": "https://www.ingles-markets.com/storelocate/storeinfo.php?storenum=204", "opening_hours": "Mo-Su 06:00-11:00", "brand": "Ingles", "brand:wikidata": "Q6032595"}, "geometry": {"type": "Point", "coordinates": [-82.006998, 34.935616]}},
{"type": "Feature", "id": "Sm6fFbH8OhFYG1mbxjH9RRKYYv4=", "properties": {"ref": "38", "@spider": "ingles", "addr:full": "2795 E. Main St.", "addr:city": "Spartanburg", "addr:state": "SC", "addr:postcode": "29307", "name": "Spartanburg", "phone": "864-579-4450", "website": "https://www.ingles-markets.com/storelocate/storeinfo.php?storenum=38", "opening_hours": "Mo-Su 07:00-10:00", "brand": "Ingles", "brand:wikidata": "Q6032595"}, "geometry": {"type": "Point", "coordinates": [-81.881003, 34.974074]}},
{"type": "Feature", "id": "K_83cPoJKtdLJwd2l69qEYlLH8E=", "properties": {"ref": "41", "@spider": "ingles", "addr:full": "621 Fairview Rd.", "addr:city": "Simpsonville", "addr:state": "SC", "addr:postcode": "29681", "name": "Simpsonville", "phone": "864-967-7890", "website": "https://www.ingles-markets.com/storelocate/storeinfo.php?storenum=41", "opening_hours": "Mo-Su 07:00-10:00", "brand": "Ingles", "brand:wikidata": "Q6032595"}, "geometry": {"type": "Point", "coordinates": [-82.256489, 34.709616]}},
{"type": "Feature", "id": "oebo8Wg83ky8dTyp0Qu2EZ6UR4s=", "properties": {"ref": "94", "@spider": "ingles", "addr:full": "211 Ingles Place - US 76/123 and SC 28/130", "addr:city": "Seneca", "addr:state": "SC", "addr:postcode": "29678", "name": "Seneca", "phone": "864-882-8066", "website": "https://www.ingles-markets.com/storelocate/storeinfo.php?storenum=94", "opening_hours": "Mo-Su 06:00-11:00", "brand": "Ingles", "brand:wikidata": "Q6032595"}, "geometry": {"type": "Point", "coordinates": [-82.938582, 34.700196]}},
{"type": "Feature", "id": "nZHArz5wUx3gTeLNh2JaA5wV9F8=", "properties": {"ref": "73", "@spider": "ingles", "addr:full": "10903 Anderson Rd.", "addr:city": "Piedmont", "addr:state": "SC", "addr:postcode": "10903", "name": "Piedmont", "phone": "864-295-2200", "website": "https://www.ingles-markets.com/storelocate/storeinfo.php?storenum=73", "opening_hours": "Mo-Su 07:00-10:00", "brand": "Ingles", "brand:wikidata": "Q6032595"}, "geometry": {"type": "Point", "coordinates": [-82.484713, 34.783741]}},
{"type": "Feature", "id": "SeD1Mh5iooicNWkOmmwlmiGLPzA=", "properties": {"ref": "29", "@spider": "ingles", "addr:full": "7616 Augusta Rd", "addr:city": "Piedmont", "addr:state": "SC", "addr:postcode": "29673", "name": "Piedmont", "phone": "864-277-5082", "website": "https://www.ingles-markets.com/storelocate/storeinfo.php?storenum=29", "opening_hours": "Mo-Su 07:00-10:00", "brand": "Ingles", "brand:wikidata": "Q6032595"}, "geometry": {"type": "Point", "coordinates": [-82.388806, 34.720535]}},
{"type": "Feature", "id": "LOa8qPiouDcfj9bajpyWSaB-QIQ=", "properties": {"ref": "17", "@spider": "ingles", "addr:full": "502-A Ann St.", "addr:city": "Pickens", "addr:state": "SC", "addr:postcode": "29671", "name": "Pickens", "phone": "864-878-7906", "website": "https://www.ingles-markets.com/storelocate/storeinfo.php?storenum=17", "opening_hours": "Mo-Su 07:00-10:00", "brand": "Ingles", "brand:wikidata": "Q6032595"}, "geometry": {"type": "Point", "coordinates": [-82.708986, 34.893116]}},
{"type": "Feature", "id": "SnT3SUJYbC4UzHyP7Q2Gt8ZOwkQ=", "properties": {"ref": "42", "@spider": "ingles", "addr:full": "116 W. Butler Rd.", "addr:city": "Mauldin", "addr:state": "SC", "addr:postcode": "29662", "name": "Mauldin", "phone": "864-288-5374", "website": "https://www.ingles-markets.com/storelocate/storeinfo.php?storenum=42", "opening_hours": "Mo-Su 07:00-10:00", "brand": "Ingles", "brand:wikidata": "Q6032595"}, "geometry": {"type": "Point", "coordinates": [-82.311909, 34.777607]}},
{"type": "Feature", "id": "YhRfwYVj_6btTLrJRIzLph3Oe9Q=", "properties": {"ref": "253", "@spider": "ingles", "addr:full": "429 East Main St.", "addr:city": "Liberty", "addr:state": "SC", "addr:postcode": "29657", "name": "Liberty", "phone": "864-843-1249", "website": "https://www.ingles-markets.com/storelocate/storeinfo.php?storenum=253", "opening_hours": "Mo-Su 07:00-10:00", "brand": "Ingles", "brand:wikidata": "Q6032595"}, "geometry": {"type": "Point", "coordinates": [-82.688992, 34.789411]}},
{"type": "Feature", "id": "KFgEA2l-5rk84sr39qmrLOazwn8=", "properties": {"ref": "44", "@spider": "ingles", "addr:full": "901 East Main St", "addr:city": "Laurens", "addr:state": "SC", "addr:postcode": "29360", "name": "Laurens", "phone": "864-984-7132", "website": "https://www.ingles-markets.com/storelocate/storeinfo.php?storenum=44", "opening_hours": "Mo-Su 06:00-11:00", "brand": "Ingles", "brand:wikidata": "Q6032595"}, "geometry": {"type": "Point", "coordinates": [-81.98347, 34.493459]}},
{"type": "Feature", "id": "SmDy71578-UsEbdsM6j03SoJdrA=", "properties": {"ref": "205", "@spider": "ingles", "addr:full": "1851 Hwy. 14E (at I-26)", "addr:city": "Landrum", "addr:state": "SC", "addr:postcode": "29356", "name": "Landrum", "phone": "864-457-5187", "website": "https://www.ingles-markets.com/storelocate/storeinfo.php?storenum=205", "opening_hours": "Mo-Su 07:00-11:00", "brand": "Ingles", "brand:wikidata": "Q6032595"}, "geometry": {"type": "Point", "coordinates": [-82.163072, 35.180412]}},
{"type": "Feature", "id": "g3gW2K0fAcNBNCcpQRs2wfipgf8=", "properties": {"ref": "200", "@spider": "ingles", "addr:full": "4600 Hwy 9", "addr:city": "Inman", "addr:state": "SC", "addr:postcode": "29349", "name": "Inman", "phone": "864-814-3093", "website": "https://www.ingles-markets.com/storelocate/storeinfo.php?storenum=200", "opening_hours": "Mo-Su 06:00-11:00", "brand": "Ingles", "brand:wikidata": "Q6032595"}, "geometry": {"type": "Point", "coordinates": [-81.999103, 35.064296]}},
{"type": "Feature", "id": "4JO5hhGYa5OxHp2TlW1CD8FXbzU=", "properties": {"ref": "208", "@spider": "ingles", "addr:full": "1524 Locust Hill Road", "addr:city": "Greer", "addr:state": "SC", "addr:postcode": "29651", "name": "Greer", "phone": "864-801-0149", "website": "https://www.ingles-markets.com/storelocate/storeinfo.php?storenum=208", "opening_hours": "Mo-Su 06:00-11:00", "brand": "Ingles", "brand:wikidata": "Q6032595"}, "geometry": {"type": "Point", "coordinates": [-82.273613, 34.94875]}},
{"type": "Feature", "id": "UAhO_x8CfdobJvDf67ZoOgCKsvE=", "properties": {"ref": "74", "@spider": "ingles", "addr:full": "6605 White Horse Rd", "addr:city": "Greenville", "addr:state": "SC", "addr:postcode": "29602", "name": "Greenville", "phone": "864-246-5507", "website": "https://www.ingles-markets.com/storelocate/storeinfo.php?storenum=74", "opening_hours": "Mo-Su 07:00-10:00", "brand": "Ingles", "brand:wikidata": "Q6032595"}, "geometry": {"type": "Point", "coordinates": [-82.465328, 34.867923]}},
{"type": "Feature", "id": "roPtEBL1ZWIZ8QapRJvTT3jBJu4=", "properties": {"ref": "69", "@spider": "ingles", "addr:full": "1500 Poinsett Hwy.", "addr:city": "Greenville", "addr:state": "SC", "addr:postcode": "29609", "name": "Greenville", "phone": "864-242-0041", "website": "https://www.ingles-markets.com/storelocate/storeinfo.php?storenum=69", "opening_hours": "Mo-Su 07:00-11:00", "brand": "Ingles", "brand:wikidata": "Q6032595"}, "geometry": {"type": "Point", "coordinates": [-82.409069, 34.894251]}},
{"type": "Feature", "id": "dgiNOKs3wKi2m-ivUapz6C5j95Q=", "properties": {"ref": "32", "@spider": "ingles", "addr:full": "1335 Stallings Rd.", "addr:city": "Greenville", "addr:state": "SC", "addr:postcode": "29609", "name": "Greenville", "phone": "864-268-7330", "website": "https://www.ingles-markets.com/storelocate/storeinfo.php?storenum=32", "opening_hours": "Mo-Su 07:00-11:00", "brand": "Ingles", "brand:wikidata": "Q6032595"}, "geometry": {"type": "Point", "coordinates": [-82.34907, 34.904215]}},
{"type": "Feature", "id": "8dpoNN6KXRFNALnneTMCLH9W670=", "properties": {"ref": "203", "@spider": "ingles", "addr:full": "410 W. Third St.", "addr:city": "Gaffney", "addr:state": "SC", "addr:postcode": "29340", "name": "Gaffney", "phone": "864-487-5661", "website": "https://www.ingles-markets.com/storelocate/storeinfo.php?storenum=203", "opening_hours": "Mo-Su 07:00-10:00", "brand": "Ingles", "brand:wikidata": "Q6032595"}, "geometry": {"type": "Point", "coordinates": [-81.63999, 35.08379]}},
{"type": "Feature", "id": "sX3-Bz1Nx9PlSSeS_fsdW-qgB0M=", "properties": {"ref": "15", "@spider": "ingles", "addr:full": "1627 W. Floyd Baker Blvd.", "addr:city": "Gaffney", "addr:state": "SC", "addr:postcode": "29340", "name": "Gaffney", "phone": "864-489-2479", "website": "https://www.ingles-markets.com/storelocate/storeinfo.php?storenum=15", "opening_hours": "Mo-Su 07:00-10:00", "brand": "Ingles", "brand:wikidata": "Q6032595"}, "geometry": {"type": "Point", "coordinates": [-81.665534, 35.09298]}},
{"type": "Feature", "id": "PInhn7h8G_dOV3Nw2E4s09uxECI=", "properties": {"ref": "51", "@spider": "ingles", "addr:full": "5251 Calhoun Memorial Hwy", "addr:city": "Easley", "addr:state": "SC", "addr:postcode": "29642", "name": "Easley", "phone": "864-855-0176", "website": "https://www.ingles-markets.com/storelocate/storeinfo.php?storenum=51", "opening_hours": "Mo-Su 06:00-11:00", "brand": "Ingles", "brand:wikidata": "Q6032595"}, "geometry": {"type": "Point", "coordinates": [-82.555475, 34.824761]}},
{"type": "Feature", "id": "lhyFdVQ2BZyhYXXbhC9LNemEkO8=", "properties": {"ref": "251", "@spider": "ingles", "addr:full": "410 Pelzer Hwy. (at SC 8)", "addr:city": "Easley", "addr:state": "SC", "addr:postcode": "29640", "name": "Easley", "phone": "864-855-9133", "website": "https://www.ingles-markets.com/storelocate/storeinfo.php?storenum=251", "opening_hours": "Mo-Su 07:00-10:00", "brand": "Ingles", "brand:wikidata": "Q6032595"}, "geometry": {"type": "Point", "coordinates": [-82.599855, 34.802048]}},
{"type": "Feature", "id": "wNaHhlOf8tMg14TWjvuwtbzoI-c=", "properties": {"ref": "93", "@spider": "ingles", "addr:full": "2120 E. Main St.", "addr:city": "Duncan", "addr:state": "SC", "addr:postcode": "29334", "name": "Duncan", "phone": "864-433-9136", "website": "https://www.ingles-markets.com/storelocate/storeinfo.php?storenum=93", "opening_hours": "Mo-Su 06:00-11:00", "brand": "Ingles", "brand:wikidata": "Q6032595"}, "geometry": {"type": "Point", "coordinates": [-82.07124, 34.888725]}},
{"type": "Feature", "id": "jdjXw1QTmrnqiQZUHJlep9ovlXE=", "properties": {"ref": "68", "@spider": "ingles", "addr:full": "312 Jacobs Hwy.", "addr:city": "Clinton", "addr:state": "SC", "addr:postcode": "29325", "name": "Clinton", "phone": "864-833-4173", "website": "https://www.ingles-markets.com/storelocate/storeinfo.php?storenum=68", "opening_hours": "Mo-Su 07:00-10:00", "brand": "Ingles", "brand:wikidata": "Q6032595"}, "geometry": {"type": "Point", "coordinates": [-81.87593, 34.453302]}},
{"type": "Feature", "id": "txMTZNR5VFIBsgBTTsQ684XTHDM=", "properties": {"ref": "53", "@spider": "ingles", "addr:full": "854 Old Greenville Highway", "addr:city": "Clemson", "addr:state": "SC", "addr:postcode": "29631", "name": "Clemson", "phone": "864-654-3084", "website": "https://www.ingles-markets.com/storelocate/storeinfo.php?storenum=53", "opening_hours": "Mo-Su 06:00-11:00", "brand": "Ingles", "brand:wikidata": "Q6032595"}, "geometry": {"type": "Point", "coordinates": [-82.836424, 34.681468]}},
{"type": "Feature", "id": "Zbu1TGHt29jEdG65cIxqV_rSbiE=", "properties": {"ref": "16", "@spider": "ingles", "addr:full": "426 S. Main St.", "addr:city": "Belton", "addr:state": "SC", "addr:postcode": "29627", "name": "Belton", "phone": "864-338-7405", "website": "https://www.ingles-markets.com/storelocate/storeinfo.php?storenum=16", "opening_hours": "Mo-Su 07:00-10:00", "brand": "Ingles", "brand:wikidata": "Q6032595"}, "geometry": {"type": "Point", "coordinates": [-82.483637, 34.516073]}},
{"type": "Feature", "id": "YiM5aGKZaw7YHrfhTz4i6n6DqKI=", "properties": {"ref": "39", "@spider": "ingles", "addr:full": "4396 SC-24", "addr:city": "Anderson", "addr:state": "SC", "addr:postcode": "29626", "name": "Anderson", "phone": "864-716-0024", "website": "https://www.ingles-markets.com/storelocate/storeinfo.php?storenum=39", "opening_hours": "Mo-Su 06:00-10:00", "brand": "Ingles", "brand:wikidata": "Q6032595"}, "geometry": {"type": "Point", "coordinates": [-82.746334, 34.508658]}},
{"type": "Feature", "id": "GnSN42saxw59_eWsQhpAG-CPadU=", "properties": {"ref": "240", "@spider": "ingles", "addr:full": "2404 Hwy. 81", "addr:city": "Anderson", "addr:state": "SC", "addr:postcode": "29621", "name": "Anderson", "phone": "864-225-8196", "website": "https://www.ingles-markets.com/storelocate/storeinfo.php?storenum=240", "opening_hours": "Mo-Su 06:00-10:00", "brand": "Ingles", "brand:wikidata": "Q6032595"}, "geometry": {"type": "Point", "coordinates": [-82.626631, 34.562716]}},
{"type": "Feature", "id": "p3qKauz9QHDqxQ8LNlBSJ7GtcjI=", "properties": {"ref": "239", "@spider": "ingles", "addr:full": "1900 N. Main St.", "addr:city": "Anderson", "addr:state": "SC", "addr:postcode": "29621", "name": "Anderson", "phone": "864-716-0077", "website": "https://www.ingles-markets.com/storelocate/storeinfo.php?storenum=239", "opening_hours": "Mo-Su 06:00-10:00", "brand": "Ingles", "brand:wikidata": "Q6032595"}, "geometry": {"type": "Point", "coordinates": [-82.656153, 34.521579]}},
{"type": "Feature", "id": "ipxkiFqrYHHxwgFlfbxqfZ3d0-E=", "properties": {"ref": "56", "@spider": "ingles", "addr:full": "1507 N. Main St.", "addr:city": "Abbeville", "addr:state": "SC", "addr:postcode": "29620", "name": "Abbeville", "phone": "864-459-4413", "website": "https://www.ingles-markets.com/storelocate/storeinfo.php?storenum=56", "opening_hours": "Mo-Su 07:00-10:00", "brand": "Ingles", "brand:wikidata": "Q6032595"}, "geometry": {"type": "Point", "coordinates": [-82.399784, 34.188025]}},
{"type": "Feature", "id": "_cfnBHUk1r2TnGnATduPdudIUCs=", "properties": {"ref": "180", "@spider": "ingles", "addr:full": "140 Weaver Blvd.", "addr:city": "Weaverville", "addr:state": "NC", "addr:postcode": "28787", "name": "Weaverville", "phone": "828-645-2902", "website": "https://www.ingles-markets.com/storelocate/storeinfo.php?storenum=180", "opening_hours": "Mo-Su 06:00-12:00", "brand": "Ingles", "brand:wikidata": "Q6032595"}, "geometry": {"type": "Point", "coordinates": [-82.568682, 35.703956]}},
{"type": "Feature", "id": "pzP_MwvLZx1Mtkl5LzcMfcTnHHM=", "properties": {"ref": "23", "@spider": "ingles", "addr:full": "201 Barber Blvd.", "addr:city": "Waynesville", "addr:state": "NC", "addr:postcode": "28786", "name": "Waynesville", "phone": "828-456-7599", "website": "https://www.ingles-markets.com/storelocate/storeinfo.php?storenum=23", "opening_hours": "Mo-Su 07:00-11:00", "brand": "Ingles", "brand:wikidata": "Q6032595"}, "geometry": {"type": "Point", "coordinates": [-82.986748, 35.505035]}},
{"type": "Feature", "id": "h1G1tPEZKmEN443OzTb2iD_lLKw=", "properties": {"ref": "58", "@spider": "ingles", "addr:full": "1670 Brown Ave.", "addr:city": "Waynesville", "addr:state": "NC", "addr:postcode": "28786", "name": "Waynesville", "phone": "828-456-8776", "website": "https://www.ingles-markets.com/storelocate/storeinfo.php?storenum=58", "opening_hours": "Mo-Su 06:00-11:00", "brand": "Ingles", "brand:wikidata": "Q6032595"}, "geometry": {"type": "Point", "coordinates": [-83.005887, 35.470471]}},
{"type": "Feature", "id": "tMSf3LvcszoUK_NiFYFPerUVqdE=", "properties": {"ref": "109", "@spider": "ingles", "addr:full": "802 S. Main Street", "addr:city": "Walnut Cove", "addr:state": "NC", "addr:postcode": "27052", "name": "Walnut Cove", "phone": "336-591-5818", "website": "https://www.ingles-markets.com/storelocate/storeinfo.php?storenum=109", "opening_hours": "Mo-Su 07:00-10:00", "brand": "Ingles", "brand:wikidata": "Q6032595"}, "geometry": {"type": "Point", "coordinates": [-80.140697, 36.296503]}},
{"type": "Feature", "id": "hhtrlikzcl7iiKnx6lMCL9WexuA=", "properties": {"ref": "6", "@spider": "ingles", "addr:full": "1122 Randolph St. - Suite 106", "addr:city": "Thomasville", "addr:state": "NC", "addr:postcode": "27360", "name": "Thomasville", "phone": "336-472-4873", "website": "https://www.ingles-markets.com/storelocate/storeinfo.php?storenum=6", "opening_hours": "Mo-Su 07:00-10:00", "brand": "Ingles", "brand:wikidata": "Q6032595"}, "geometry": {"type": "Point", "coordinates": [-80.074824, 35.857711]}},
{"type": "Feature", "id": "4xRlGmumh_Pe14W37mXGBXYZCJk=", "properties": {"ref": "50", "@spider": "ingles", "addr:full": "19 Webster Rd.", "addr:city": "Sylva", "addr:state": "NC", "addr:postcode": "28779", "name": "Sylva", "phone": "828-586-3343", "website": "https://www.ingles-markets.com/storelocate/storeinfo.php?storenum=50", "opening_hours": "Mo-Su 07:00-11:00", "brand": "Ingles", "brand:wikidata": "Q6032595"}, "geometry": {"type": "Point", "coordinates": [-83.212613, 35.345619]}},
{"type": "Feature", "id": "kgM92sIRVyznPi1f2qiAUma6qsE=", "properties": {"ref": "34", "@spider": "ingles", "addr:full": "2299 U.S. 70", "addr:city": "Swannanoa", "addr:state": "NC", "addr:postcode": "28778", "name": "Swannanoa", "phone": "828-686-5410", "website": "https://www.ingles-markets.com/storelocate/storeinfo.php?storenum=34", "opening_hours": "Mo-Su 06:00-11:00", "brand": "Ingles", "brand:wikidata": "Q6032595"}, "geometry": {"type": "Point", "coordinates": [-82.408054, 35.598079]}},
{"type": "Feature", "id": "vfXrDlXSMgbmvZcrRoda2GbB-kM=", "properties": {"ref": "78", "@spider": "ingles", "addr:full": "3219 Taylorsville Rd.", "addr:city": "Statesville", "addr:state": "NC", "addr:postcode": "28625", "name": "Statesville", "phone": "704-872-1739", "website": "https://www.ingles-markets.com/storelocate/storeinfo.php?storenum=78", "opening_hours": "Mo-Su 07:00-10:00", "brand": "Ingles", "brand:wikidata": "Q6032595"}, "geometry": {"type": "Point", "coordinates": [-81.014708, 35.845099]}},
{"type": "Feature", "id": "5N8NijLg12dx-LipKKkswgTBuWk=", "properties": {"ref": "150", "@spider": "ingles", "addr:full": "722 Sullivan Rd.", "addr:city": "Statesville", "addr:state": "NC", "addr:postcode": "28677", "name": "Statesville", "phone": "704-872-4039", "website": "https://www.ingles-markets.com/storelocate/storeinfo.php?storenum=150", "opening_hours": "Mo-Su 06:00-11:00", "brand": "Ingles", "brand:wikidata": "Q6032595"}, "geometry": {"type": "Point", "coordinates": [-80.875929, 35.806393]}},
{"type": "Feature", "id": "4IrgECsu5aZ7OF2tQSz4WotoAAA=", "properties": {"ref": "33", "@spider": "ingles", "addr:full": "125 Greenwood Rd.", "addr:city": "Spruce Pine", "addr:state": "NC", "addr:postcode": "28777", "name": "Spruce Pine", "phone": "828-765-7997", "website": "https://www.ingles-markets.com/storelocate/storeinfo.php?storenum=33", "opening_hours": "Mo-Su 07:00-10:00", "brand": "Ingles", "brand:wikidata": "Q6032595"}, "geometry": {"type": "Point", "coordinates": [-82.074762, 35.914577]}},
{"type": "Feature", "id": "nIIDtsLqJL-F6RnZ6_nk9LeiH4s=", "properties": {"ref": "119", "@spider": "ingles", "addr:full": "1523 S. Post Rd.", "addr:city": "Shelby", "addr:state": "NC", "addr:postcode": "28150", "name": "Shelby", "phone": "704-482-7242", "website": "https://www.ingles-markets.com/storelocate/storeinfo.php?storenum=119", "opening_hours": "Mo-Su 07:00-10:00", "brand": "Ingles", "brand:wikidata": "Q6032595"}, "geometry": {"type": "Point", "coordinates": [-81.509416, 35.245784]}},
{"type": "Feature", "id": "fMxuNVldTxRmpAfNkpDL-j0dOas=", "properties": {"ref": "12", "@spider": "ingles", "addr:full": "1818 W. Dixon Blvd.", "addr:city": "Shelby", "addr:state": "NC", "addr:postcode": "28150", "name": "Shelby", "phone": "704-482-7761", "website": "https://www.ingles-markets.com/storelocate/storeinfo.php?storenum=12", "opening_hours": "Mo-Su 06:00-10:00", "brand": "Ingles", "brand:wikidata": "Q6032595"}, "geometry": {"type": "Point", "coordinates": [-81.57244, 35.296706]}},
{"type": "Feature", "id": "0wy_641dIJKU_xZ4VFyx2lqgj1k=", "properties": {"ref": "112", "@spider": "ingles", "addr:full": "706 E Dixon Blvd", "addr:city": "Shelby", "addr:state": "NC", "addr:postcode": "28152", "name": "Shelby", "phone": "704-471-9494", "website": "https://www.ingles-markets.com/storelocate/storeinfo.php?storenum=112", "opening_hours": "Mo-Su 07:00-10:00", "brand": "Ingles", "brand:wikidata": "Q6032595"}, "geometry": {"type": "Point", "coordinates": [-81.52861387897492, 35.27337760309626]}},
{"type": "Feature", "id": "xTCeKq-SFftDM_8pQTFkeBteHpo=", "properties": {"ref": "118", "@spider": "ingles", "addr:full": "1305 Fallston Rd.", "addr:city": "Shelby", "addr:state": "NC", "addr:postcode": "28150", "name": "Shelby", "phone": "704-480-9616", "website": "https://www.ingles-markets.com/storelocate/storeinfo.php?storenum=118", "opening_hours": "Mo-Su 07:00-10:00", "brand": "Ingles", "brand:wikidata": "Q6032595"}, "geometry": {"type": "Point", "coordinates": [-81.51738, 35.320106]}},
{"type": "Feature", "id": "Ag0mH4qZGW-izrYVcA-VdbEhcLQ=", "properties": {"ref": "131", "@spider": "ingles", "addr:full": "2 Sweetwater Rd.", "addr:city": "Robbinsville", "addr:state": "NC", "addr:postcode": "28771", "name": "Robbinsville", "phone": "828-479-6748", "website": "https://www.ingles-markets.com/storelocate/storeinfo.php?storenum=131", "opening_hours": "Mo-Su 07:00-10:00", "brand": "Ingles", "brand:wikidata": "Q6032595"}, "geometry": {"type": "Point", "coordinates": [-83.798726, 35.322363]}},
{"type": "Feature", "id": "jFtftuzEFKCiDnyYzbVEMVVS6b0=", "properties": {"ref": "83", "@spider": "ingles", "addr:full": "NC 194 at Vale Rd.", "addr:city": "Newland", "addr:state": "NC", "addr:postcode": "28657", "name": "Newland", "phone": "828-733-6086", "website": "https://www.ingles-markets.com/storelocate/storeinfo.php?storenum=83", "opening_hours": "Mo-Su 07:00-10:00", "brand": "Ingles", "brand:wikidata": "Q6032595"}, "geometry": {"type": "Point", "coordinates": [-81.911799, 36.077858]}},
{"type": "Feature", "id": "qV2yP5Pt6b2i1cDJ9qFVfdkKcuw=", "properties": {"ref": "25", "@spider": "ingles", "addr:full": "2060 U.S. 19", "addr:city": "Murphy", "addr:state": "NC", "addr:postcode": "28906", "name": "Murphy", "phone": "828-837-5553", "website": "https://www.ingles-markets.com/storelocate/storeinfo.php?storenum=25", "opening_hours": "Mo-Su 07:00-10:00", "brand": "Ingles", "brand:wikidata": "Q6032595"}, "geometry": {"type": "Point", "coordinates": [-84.006542, 35.105692]}},
{"type": "Feature", "id": "765CBxYsI-yjnnyNP08rvqquQGQ=", "properties": {"ref": "120", "@spider": "ingles", "addr:full": "120 Carbon City Rd.", "addr:city": "Morganton", "addr:state": "NC", "addr:postcode": "28655", "name": "Morganton", "phone": "828-437-9848", "website": "https://www.ingles-markets.com/storelocate/storeinfo.php?storenum=120", "opening_hours": "Mo-Su 06:00-12:00", "brand": "Ingles", "brand:wikidata": "Q6032595"}, "geometry": {"type": "Point", "coordinates": [-81.713514, 35.736014]}},
{"type": "Feature", "id": "0qiB1Ftxx8ZprMHbUT_7lLULRuQ=", "properties": {"ref": "133", "@spider": "ingles", "addr:full": "3338 Boylston Hwy", "addr:city": "Mills River", "addr:state": "NC", "addr:postcode": "28759", "name": "Mills River", "phone": "828-891-3260", "website": "https://www.ingles-markets.com/storelocate/storeinfo.php?storenum=133", "opening_hours": "Mo-Su 06:00-11:00", "brand": "Ingles", "brand:wikidata": "Q6032595"}, "geometry": {"type": "Point", "coordinates": [-82.57128, 35.399381]}},
{"type": "Feature", "id": "qcysR1KFlYp-K-9b3CdXb9PkbRc=", "properties": {"ref": "28", "@spider": "ingles", "addr:full": "5580 Hwy. 25/70", "addr:city": "Marshall", "addr:state": "NC", "addr:postcode": "28753", "name": "Marshall", "phone": "828-649-3266", "website": "https://www.ingles-markets.com/storelocate/storeinfo.php?storenum=28", "opening_hours": "Mo-Su 07:00-10:00", "brand": "Ingles", "brand:wikidata": "Q6032595"}, "geometry": {"type": "Point", "coordinates": [-82.67077, 35.813481]}},
{"type": "Feature", "id": "BdwPWrcHJto1GhhpMX6dV7wzfk4=", "properties": {"ref": "80", "@spider": "ingles", "addr:full": "225 Carl Eller Rd", "addr:city": "Mars Hill", "addr:state": "NC", "addr:postcode": "28754", "name": "Mars Hill", "phone": "828-689-5980", "website": "https://www.ingles-markets.com/storelocate/storeinfo.php?storenum=80", "opening_hours": "Mo-Su 06:00-11:00", "brand": "Ingles", "brand:wikidata": "Q6032595"}, "geometry": {"type": "Point", "coordinates": [-82.544651, 35.823592]}},
{"type": "Feature", "id": "pxr7eKJks9BceF__cdDcjUx49fA=", "properties": {"ref": "60", "@spider": "ingles", "addr:full": "625 W. Henderson St.", "addr:city": "Marion", "addr:state": "NC", "addr:postcode": "28752", "name": "Marion", "phone": "828-652-8588", "website": "https://www.ingles-markets.com/storelocate/storeinfo.php?storenum=60", "opening_hours": "Mo-Su 06:00-11:00", "brand": "Ingles", "brand:wikidata": "Q6032595"}, "geometry": {"type": "Point", "coordinates": [-82.011591, 35.679488]}},
{"type": "Feature", "id": "r2kHBLyEpUFaqcUnOh8Skck9CvE=", "properties": {"ref": "148", "@spider": "ingles", "addr:full": "2130 East Main Street", "addr:city": "Lincolnton", "addr:state": "NC", "addr:postcode": "28092", "name": "Lincolnton", "phone": "704-735-2398", "website": "https://www.ingles-markets.com/storelocate/storeinfo.php?storenum=148", "opening_hours": "Mo-Su 06:00-11:00", "brand": "Ingles", "brand:wikidata": "Q6032595"}, "geometry": {"type": "Point", "coordinates": [-81.221634, 35.478086]}},
{"type": "Feature", "id": "QkckKvMLC0PSuD6rSul-LK9sJZU=", "properties": {"ref": "127", "@spider": "ingles", "addr:full": "276 Nc Highway 9", "addr:city": "Lake Lure", "addr:state": "NC", "addr:postcode": "28746", "name": "Lake Lure", "phone": "828-625-0258", "website": "https://www.ingles-markets.com/storelocate/storeinfo.php?storenum=127", "opening_hours": "Mo-Su 06:00-11:00", "brand": "Ingles", "brand:wikidata": "Q6032595"}, "geometry": {"type": "Point", "coordinates": [-82.1961, 35.40614]}},
{"type": "Feature", "id": "P38LIFLRBeQX0W-SFyESU7H2Xzs=", "properties": {"ref": "147", "@spider": "ingles", "addr:full": "2111 Shelby Road", "addr:city": "Kings Mountain", "addr:state": "NC", "addr:postcode": "28086", "name": "Kings Mountain", "phone": "704-739-2970", "website": "https://www.ingles-markets.com/storelocate/storeinfo.php?storenum=147", "opening_hours": "Mo-Su 06:00-11:00", "brand": "Ingles", "brand:wikidata": "Q6032595"}, "geometry": {"type": "Point", "coordinates": [-81.404065, 35.244356]}},
{"type": "Feature", "id": "zfBzjNkYpHILn6Abm9awyMHFWVc=", "properties": {"ref": "11", "@spider": "ingles", "addr:full": "1980 Asheville Hwy", "addr:city": "Hendersonville", "addr:state": "NC", "addr:postcode": "28792", "name": "Hendersonville", "phone": "828-692-0456", "website": "https://www.ingles-markets.com/storelocate/storeinfo.php?storenum=11", "opening_hours": "Mo-Su 06:00-11:00", "brand": "Ingles", "brand:wikidata": "Q6032595"}, "geometry": {"type": "Point", "coordinates": [-82.471274, 35.336932]}},
{"type": "Feature", "id": "bWksb-ThWnfP_hDASlLPdSjVsG8=", "properties": {"ref": "179", "@spider": "ingles", "addr:full": "3643 Howard Gap Rd. (at Hwy 64)", "addr:city": "Hendersonville", "addr:state": "NC", "addr:postcode": "28792", "name": "Hendersonville", "phone": "828-696-2521", "website": "https://www.ingles-markets.com/storelocate/storeinfo.php?storenum=179", "opening_hours": "Mo-Su 06:00-11:00", "brand": "Ingles", "brand:wikidata": "Q6032595"}, "geometry": {"type": "Point", "coordinates": [-82.432962, 35.350378]}},
{"type": "Feature", "id": "Dqr-2uVlwoQe67MG2_5RcGLii3Y=", "properties": {"ref": "77", "@spider": "ingles", "addr:full": "625 Spartanburg Hwy", "addr:city": "Hendersonville", "addr:state": "NC", "addr:postcode": "28739", "name": "Hendersonville", "phone": "828-692-1368", "website": "https://www.ingles-markets.com/storelocate/storeinfo.php?storenum=77", "opening_hours": "Mo-Su 06:00-11:00", "brand": "Ingles", "brand:wikidata": "Q6032595"}, "geometry": {"type": "Point", "coordinates": [-82.456036, 35.30585]}},
{"type": "Feature", "id": "uBdw-Xts4zub4e_qijLW1vCuI1s=", "properties": {"ref": "104", "@spider": "ingles", "addr:full": "1705 Brevard Rd", "addr:city": "Hendersonville", "addr:state": "NC", "addr:postcode": "28791", "name": "Hendersonville", "phone": "828-693-6371", "website": "https://www.ingles-markets.com/storelocate/storeinfo.php?storenum=104", "opening_hours": "Mo-Su 07:00-11:00", "brand": "Ingles", "brand:wikidata": "Q6032595"}, "geometry": {"type": "Point", "coordinates": [-82.490895, 35.322262]}},
{"type": "Feature", "id": "CD218JmzMDV8fBmc7zsIS9KwQlE=", "properties": {"ref": "116", "@spider": "ingles", "addr:full": "230 Highway 64", "addr:city": "Hayesville", "addr:state": "NC", "addr:postcode": "28904", "name": "Hayesville", "phone": "828-389-4460", "website": "https://www.ingles-markets.com/storelocate/storeinfo.php?storenum=116", "opening_hours": "Mo-Su 07:00-10:00", "brand": "Ingles", "brand:wikidata": "Q6032595"}, "geometry": {"type": "Point", "coordinates": [-83.825646, 35.035023]}},
{"type": "Feature", "id": "i4Di3b3IXJlnqg0zgupuyOkIoVI=", "properties": {"ref": "121", "@spider": "ingles", "addr:full": "2630 Connelly Springs Rd.", "addr:city": "Granite Falls", "addr:state": "NC", "addr:postcode": "28630", "name": "Granite Falls", "phone": "828-726-0029", "website": "https://www.ingles-markets.com/storelocate/storeinfo.php?storenum=121", "opening_hours": "Mo-Su 07:00-10:00", "brand": "Ingles", "brand:wikidata": "Q6032595"}, "geometry": {"type": "Point", "coordinates": [-81.531383, 35.803788]}},
{"type": "Feature", "id": "kpGWuZCHWecyjHLAc5y22xSPRZk=", "properties": {"ref": "132", "@spider": "ingles", "addr:full": "4501 Highway 441 Byp", "addr:city": "Franklin", "addr:state": "NC", "addr:postcode": "28734", "name": "Franklin", "phone": "828-524-5011", "website": "https://www.ingles-markets.com/storelocate/storeinfo.php?storenum=132", "opening_hours": "Mo-Su 07:00-10:00", "brand": "Ingles", "brand:wikidata": "Q6032595"}, "geometry": {"type": "Point", "coordinates": [-83.354081, 35.184227]}},
{"type": "Feature", "id": "tU12w_GDhpFLPfd41W7yafdIOfU=", "properties": {"ref": "114", "@spider": "ingles", "addr:full": "1257 Georgia Rd", "addr:city": "Franklin", "addr:state": "NC", "addr:postcode": "28734", "name": "Franklin", "phone": "828-524-9321", "website": "https://www.ingles-markets.com/storelocate/storeinfo.php?storenum=114", "opening_hours": "Mo-Su 06:00-11:00", "brand": "Ingles", "brand:wikidata": "Q6032595"}, "geometry": {"type": "Point", "coordinates": [-83.402257, 35.16537]}},
{"type": "Feature", "id": "o7TB6I7wUHFSdRVJLvDm9QAX6fo=", "properties": {"ref": "14", "@spider": "ingles", "addr:full": "152 West Palmer St.", "addr:city": "Franklin", "addr:state": "NC", "addr:postcode": "28734", "name": "Franklin", "phone": "828-524-5616", "website": "https://www.ingles-markets.com/storelocate/storeinfo.php?storenum=14", "opening_hours": "Mo-Su 07:00-10:00", "brand": "Ingles", "brand:wikidata": "Q6032595"}, "geometry": {"type": "Point", "coordinates": [-83.386898, 35.178851]}},
{"type": "Feature", "id": "U-0Hbk6iFq2H84faXgxQHey5ehA=", "properties": {"ref": "27", "@spider": "ingles", "addr:full": "756 S Church St", "addr:city": "Forest City", "addr:state": "NC", "addr:postcode": "28043", "name": "Forest City", "phone": "828-245-1256", "website": "https://www.ingles-markets.com/storelocate/storeinfo.php?storenum=27", "opening_hours": "Mo-Su 07:00-11:00", "brand": "Ingles", "brand:wikidata": "Q6032595"}, "geometry": {"type": "Point", "coordinates": [-81.881855, 35.322291]}},
{"type": "Feature", "id": "Z0NBQrfEvaH2km_BqeSwSJHrzms=", "properties": {"ref": "43", "@spider": "ingles", "addr:full": "2901 Hendersonville Rd.", "addr:city": "Fletcher", "addr:state": "NC", "addr:postcode": "28732", "name": "Fletcher", "phone": "828-684-8858", "website": "https://www.ingles-markets.com/storelocate/storeinfo.php?storenum=43", "opening_hours": "Mo-Su 06:00-12:00", "brand": "Ingles", "brand:wikidata": "Q6032595"}, "geometry": {"type": "Point", "coordinates": [-82.513595, 35.441108]}},
{"type": "Feature", "id": "ndtcgRx5wsxnDTSrI3qs_fY9jDA=", "properties": {"ref": "177", "@spider": "ingles", "addr:full": "220 North Highland Lake Road", "addr:city": "Flat Rock", "addr:state": "NC", "addr:postcode": "28731", "name": "Flat Rock", "phone": "828-692-1335", "website": "https://www.ingles-markets.com/storelocate/storeinfo.php?storenum=177", "opening_hours": "Mo-Su 06:00-12:00", "brand": "Ingles", "brand:wikidata": "Q6032595"}, "geometry": {"type": "Point", "coordinates": [-82.439367, 35.286434]}},
{"type": "Feature", "id": "KootNxBEYSlKX0VpamHR7Hx3F-4=", "properties": {"ref": "63", "@spider": "ingles", "addr:full": "6400 Brevard Rd.", "addr:city": "Etowah", "addr:state": "NC", "addr:postcode": "28729", "name": "Etowah", "phone": "828-891-0089", "website": "https://www.ingles-markets.com/storelocate/storeinfo.php?storenum=63", "opening_hours": "Mo-Su 07:00-10:00", "brand": "Ingles", "brand:wikidata": "Q6032595"}, "geometry": {"type": "Point", "coordinates": [-82.605251, 35.317269]}},
{"type": "Feature", "id": "qldff4JexzIPwD3HfE4vmxp9Jgw=", "properties": {"ref": "115", "@spider": "ingles", "addr:full": "2095 N. Bridge St.", "addr:city": "Elkin", "addr:state": "NC", "addr:postcode": "28621", "name": "Elkin", "phone": "336-526-2942", "website": "https://www.ingles-markets.com/storelocate/storeinfo.php?storenum=115", "opening_hours": "Mo-Su 07:00-10:00", "brand": "Ingles", "brand:wikidata": "Q6032595"}, "geometry": {"type": "Point", "coordinates": [-80.852759, 36.285392]}},
{"type": "Feature", "id": "so_jylEuFceddZz805IA-mUFCIk=", "properties": {"ref": "146", "@spider": "ingles", "addr:full": "715 W Trade St", "addr:city": "Dallas", "addr:state": "NC", "addr:postcode": "28034", "name": "Dallas", "phone": "704-922-6791", "website": "https://www.ingles-markets.com/storelocate/storeinfo.php?storenum=146", "opening_hours": "Mo-Su 06:00-11:00", "brand": "Ingles", "brand:wikidata": "Q6032595"}, "geometry": {"type": "Point", "coordinates": [-81.18554, 35.316386]}},
{"type": "Feature", "id": "ItvGFYI9c4Y0aRZ6RQSrs538heM=", "properties": {"ref": "110", "@spider": "ingles", "addr:full": "203 Highway 64 East", "addr:city": "Cashiers", "addr:state": "NC", "addr:postcode": "28717", "name": "Cashiers", "phone": "828-743-3801", "website": "https://www.ingles-markets.com/storelocate/storeinfo.php?storenum=110", "opening_hours": "Mo-Su 07:00-10:00", "brand": "Ingles", "brand:wikidata": "Q6032595"}, "geometry": {"type": "Point", "coordinates": [-83.113499, 35.10901]}},
{"type": "Feature", "id": "sDMQOExn4TaRSu4L11lGUx_XXsk=", "properties": {"ref": "55", "@spider": "ingles", "addr:full": "1465 Champion Dr.", "addr:city": "Canton", "addr:state": "NC", "addr:postcode": "28716", "name": "Canton", "phone": "828-648-3200", "website": "https://www.ingles-markets.com/storelocate/storeinfo.php?storenum=55", "opening_hours": "Mo-Su 06:00-11:00", "brand": "Ingles", "brand:wikidata": "Q6032595"}, "geometry": {"type": "Point", "coordinates": [-82.850675, 35.552238]}},
{"type": "Feature", "id": "M4G-_tGD_DsQ240Dpu621fhPrCs=", "properties": {"ref": "134", "@spider": "ingles", "addr:full": "1572 Sand Hill Road", "addr:city": "Candler", "addr:state": "NC", "addr:postcode": "28715", "name": "Candler", "phone": "828-665-2861", "website": "https://www.ingles-markets.com/storelocate/storeinfo.php?storenum=134", "opening_hours": "Mo-Su 06:00-11:00", "brand": "Ingles", "brand:wikidata": "Q6032595"}, "geometry": {"type": "Point", "coordinates": [-82.656727, 35.542532]}},
{"type": "Feature", "id": "_Fodf6y52G7rOkOOTyQmAaoefG0=", "properties": {"ref": "13", "@spider": "ingles", "addr:full": "400 E US Hwy 19", "addr:city": "Burnsville", "addr:state": "NC", "addr:postcode": "28714", "name": "Burnsville", "phone": "828-682-6272", "website": "https://www.ingles-markets.com/storelocate/storeinfo.php?storenum=13", "opening_hours": "Mo-Su 07:00-11:00", "brand": "Ingles", "brand:wikidata": "Q6032595"}, "geometry": {"type": "Point", "coordinates": [-82.290942, 35.914334]}},
{"type": "Feature", "id": "zr4Yt5kluZKaNhbbXTnvzmcf8ck=", "properties": {"ref": "35", "@spider": "ingles", "addr:full": "19/23 at Hughes Branch Rd.", "addr:city": "Bryson City", "addr:state": "NC", "addr:postcode": "28713", "name": "Bryson City", "phone": "828-488-6600", "website": "https://www.ingles-markets.com/storelocate/storeinfo.php?storenum=35", "opening_hours": "Mo-Su 07:00-10:00", "brand": "Ingles", "brand:wikidata": "Q6032595"}, "geometry": {"type": "Point", "coordinates": [-83.452571, 35.419916]}},
{"type": "Feature", "id": "cp3g64WofDItcVRxYRpBn78mWIU=", "properties": {"ref": "67", "@spider": "ingles", "addr:full": "684 N. Broad St.", "addr:city": "Brevard", "addr:state": "NC", "addr:postcode": "28712", "name": "Brevard", "phone": "828-883-2323", "website": "https://www.ingles-markets.com/storelocate/storeinfo.php?storenum=67", "opening_hours": "Mo-Su 06:00-12:00", "brand": "Ingles", "brand:wikidata": "Q6032595"}, "geometry": {"type": "Point", "coordinates": [-82.727474, 35.241578]}},
{"type": "Feature", "id": "aYE5mFIBVcUYF3khfoZ0U_GuQsc=", "properties": {"ref": "84", "@spider": "ingles", "addr:full": "2575 Hwy 105", "addr:city": "Boone", "addr:state": "NC", "addr:postcode": "28607", "name": "Boone", "phone": "828-265-1913", "website": "https://www.ingles-markets.com/storelocate/storeinfo.php?storenum=84", "opening_hours": "Mo-Su 07:00-11:00", "brand": "Ingles", "brand:wikidata": "Q6032595"}, "geometry": {"type": "Point", "coordinates": [-81.696699, 36.205861]}},
{"type": "Feature", "id": "YhjN3qA4UQGF_GM1QRysYjEZHQE=", "properties": {"ref": "117", "@spider": "ingles", "addr:full": "214 N. Main St.", "addr:city": "Boiling Springs", "addr:state": "NC", "addr:postcode": "28017", "name": "Boiling Springs", "phone": "704-434-0096", "website": "https://www.ingles-markets.com/storelocate/storeinfo.php?storenum=117", "opening_hours": "Mo-Su 07:00-10:00", "brand": "Ingles", "brand:wikidata": "Q6032595"}, "geometry": {"type": "Point", "coordinates": [-81.667074, 35.256519]}},
{"type": "Feature", "id": "aKo1CiYyw1tEfLPlzqQ43AiibO4=", "properties": {"ref": "8", "@spider": "ingles", "addr:full": "550 Hwy. 9", "addr:city": "Black Mountain", "addr:state": "NC", "addr:postcode": "28711", "name": "Black Mountain", "phone": "828-669-6700", "website": "https://www.ingles-markets.com/storelocate/storeinfo.php?storenum=8", "opening_hours": "Mo-Su 07:00-11:00", "brand": "Ingles", "brand:wikidata": "Q6032595"}, "geometry": {"type": "Point", "coordinates": [-82.321237, 35.608821]}},
{"type": "Feature", "id": "HDmeqpV5aGk_OOd9T5d3NSSsuZc=", "properties": {"ref": "46", "@spider": "ingles", "addr:full": "1205 Gastonia Hwy", "addr:city": "Bessemer City", "addr:state": "NC", "addr:postcode": "28016", "name": "Bessemer City", "phone": "704-629-2326", "website": "https://www.ingles-markets.com/storelocate/storeinfo.php?storenum=46", "opening_hours": "Mo-Su 07:00-10:00", "brand": "Ingles", "brand:wikidata": "Q6032595"}, "geometry": {"type": "Point", "coordinates": [-81.26054, 35.287357]}},
{"type": "Feature", "id": "Dz2JwocGg19d7KX96Q5ihpImElY=", "properties": {"ref": "31", "@spider": "ingles", "addr:full": "153 Smokey Park Highway", "addr:city": "Asheville", "addr:state": "NC", "addr:postcode": "28806", "name": "Asheville", "phone": "828-667-9306", "website": "https://www.ingles-markets.com/storelocate/storeinfo.php?storenum=31", "opening_hours": "Mo-Su 06:00-11:00", "brand": "Ingles", "brand:wikidata": "Q6032595"}, "geometry": {"type": "Point", "coordinates": [-82.629161, 35.565086]}},
{"type": "Feature", "id": "MyWr2MPoCDqpuupBPOt4iuOu62s=", "properties": {"ref": "3", "@spider": "ingles", "addr:full": "915 Merrimon Ave.", "addr:city": "Asheville", "addr:state": "NC", "addr:postcode": "28804", "name": "Asheville", "phone": "828-253-1326", "website": "https://www.ingles-markets.com/storelocate/storeinfo.php?storenum=3", "opening_hours": "Mo-Su 06:00-12:00", "brand": "Ingles", "brand:wikidata": "Q6032595"}, "geometry": {"type": "Point", "coordinates": [-82.552067, 35.630653]}},
{"type": "Feature", "id": "5OBrhQDyQDyFKBXD1lEICgAEPDA=", "properties": {"ref": "7", "@spider": "ingles", "addr:full": "29 Tunnel Rd.", "addr:city": "Asheville", "addr:state": "NC", "addr:postcode": "28805", "name": "Asheville", "phone": "828-253-1528", "website": "https://www.ingles-markets.com/storelocate/storeinfo.php?storenum=7", "opening_hours": "Mo-Su 06:00-11:00", "brand": "Ingles", "brand:wikidata": "Q6032595"}, "geometry": {"type": "Point", "coordinates": [-82.535513, 35.595647]}},
{"type": "Feature", "id": "vdWVM-Es-teaGZzxPkYTK6EfPkY=", "properties": {"ref": "4", "@spider": "ingles", "addr:full": "1141 Tunnel Rd.", "addr:city": "Asheville", "addr:state": "NC", "addr:postcode": "28805", "name": "Asheville", "phone": "828-298-3514", "website": "https://www.ingles-markets.com/storelocate/storeinfo.php?storenum=4", "opening_hours": "Mo-Su 06:00-12:00", "brand": "Ingles", "brand:wikidata": "Q6032595"}, "geometry": {"type": "Point", "coordinates": [-82.487794, 35.585546]}},
{"type": "Feature", "id": "9lQ1KwkWlrdnnvYDvocMJHcfSRk=", "properties": {"ref": "79", "@spider": "ingles", "addr:full": "780 Hendersonville Rd.", "addr:city": "Asheville", "addr:state": "NC", "addr:postcode": "28803", "name": "Asheville", "phone": "828-274-1174", "website": "https://www.ingles-markets.com/storelocate/storeinfo.php?storenum=79", "opening_hours": "Mo-Su 07:00-11:00", "brand": "Ingles", "brand:wikidata": "Q6032595"}, "geometry": {"type": "Point", "coordinates": [-82.531842, 35.545296]}},
{"type": "Feature", "id": "9bmg_z5tu0xzsMfqhAjJ8NUbhzA=", "properties": {"ref": "24", "@spider": "ingles", "addr:full": "863 Brevard Road", "addr:city": "Asheville", "addr:state": "NC", "addr:postcode": "28806", "name": "Asheville", "phone": "828-665-0787", "website": "https://www.ingles-markets.com/storelocate/storeinfo.php?storenum=24", "opening_hours": "Mo-Su 07:00-11:00", "brand": "Ingles", "brand:wikidata": "Q6032595"}, "geometry": {"type": "Point", "coordinates": [-82.607439, 35.530846]}},
{"type": "Feature", "id": "TduJLJbFuypEddvzOOGifsycuns=", "properties": {"ref": "2", "@spider": "ingles", "addr:full": "7 Leicester Hwy.", "addr:city": "Asheville", "addr:state": "NC", "addr:postcode": "28806", "name": "Asheville", "phone": "828-253-2005", "website": "https://www.ingles-markets.com/storelocate/storeinfo.php?storenum=2", "opening_hours": "Mo-Su 07:00-11:00", "brand": "Ingles", "brand:wikidata": "Q6032595"}, "geometry": {"type": "Point", "coordinates": [-82.596978, 35.588004]}},
{"type": "Feature", "id": "F0mDJgQ9c1KFqXG4llY4y0iG-dw=", "properties": {"ref": "5", "@spider": "ingles", "addr:full": "669 Haywood Rd.", "addr:city": "Asheville", "addr:state": "NC", "addr:postcode": "28806", "name": "Asheville", "phone": "828-259-9268", "website": "https://www.ingles-markets.com/storelocate/storeinfo.php?storenum=5", "opening_hours": "Mo-Su 07:00-11:00", "brand": "Ingles", "brand:wikidata": "Q6032595"}, "geometry": {"type": "Point", "coordinates": [-82.590914, 35.578973]}},
{"type": "Feature", "id": "JzglYJjRSNxyexxxh71SNyBT1Cs=", "properties": {"ref": "22", "@spider": "ingles", "addr:full": "499 Weaverville Rd.", "addr:city": "Asheville", "addr:state": "NC", "addr:postcode": "28804", "name": "Asheville", "phone": "828-645-4521", "website": "https://www.ingles-markets.com/storelocate/storeinfo.php?storenum=22", "opening_hours": "Mo-Su 07:00-11:00", "brand": "Ingles", "brand:wikidata": "Q6032595"}, "geometry": {"type": "Point", "coordinates": [-82.580333, 35.673002]}},
{"type": "Feature", "id": "FVVSghefs0Ye81Xczqu2Y9CLuyQ=", "properties": {"ref": "62", "@spider": "ingles", "addr:full": "575 New Leicester Hwy", "addr:city": "Asheville", "addr:state": "NC", "addr:postcode": "28806", "name": "Asheville", "phone": "828-254-3496", "website": "https://www.ingles-markets.com/storelocate/storeinfo.php?storenum=62", "opening_hours": "Mo-Su 06:00-11:00", "brand": "Ingles", "brand:wikidata": "Q6032595"}, "geometry": {"type": "Point", "coordinates": [-82.621869, 35.619233]}},
{"type": "Feature", "id": "BxCO5zaLUp1GCtequjvJo_dc1zU=", "properties": {"ref": "111", "@spider": "ingles", "addr:full": "225 Charlotte Hwy", "addr:city": "Asheville", "addr:state": "NC", "addr:postcode": "28803", "name": "Asheville", "phone": "828-298-2160", "website": "https://www.ingles-markets.com/storelocate/storeinfo.php?storenum=111", "opening_hours": "Mo-Su 07:00-10:00", "brand": "Ingles", "brand:wikidata": "Q6032595"}, "geometry": {"type": "Point", "coordinates": [-82.469372, 35.550302]}},
{"type": "Feature", "id": "yWOUEy9XJxunJKXJu-PkjbS0o5A=", "properties": {"ref": "30", "@spider": "ingles", "addr:full": "1865 Hendersonville Rd.", "addr:city": "Asheville", "addr:state": "NC", "addr:postcode": "28803", "name": "Asheville", "phone": "828-274-0804", "website": "https://www.ingles-markets.com/storelocate/storeinfo.php?storenum=30", "opening_hours": "Mo-Su 06:00-12:00", "brand": "Ingles", "brand:wikidata": "Q6032595"}, "geometry": {"type": "Point", "coordinates": [-82.523966, 35.500485]}},
{"type": "Feature", "id": "bml8rGG2cvlQAMmyqmONOOKZa0o=", "properties": {"ref": "137", "@spider": "ingles", "addr:full": "352 Airport Rd", "addr:city": "Arden", "addr:state": "NC", "addr:postcode": "28704", "name": "Arden", "phone": "828-684-6335", "website": "https://www.ingles-markets.com/storelocate/storeinfo.php?storenum=137", "opening_hours": "Mo-Su 06:00-11:00", "brand": "Ingles", "brand:wikidata": "Q6032595"}, "geometry": {"type": "Point", "coordinates": [-82.53053108881241, 35.44994315956681]}},
{"type": "Feature", "id": "3aYFzMr2XnSn3Xzw-1ioWKHVyV8=", "properties": {"ref": "130", "@spider": "ingles", "addr:full": "301 Long Shoals Road", "addr:city": "Arden", "addr:state": "NC", "addr:postcode": "28704", "name": "Arden", "phone": "828-681-5173", "website": "https://www.ingles-markets.com/storelocate/storeinfo.php?storenum=130", "opening_hours": "Mo-Su 06:00-11:00", "brand": "Ingles", "brand:wikidata": "Q6032595"}, "geometry": {"type": "Point", "coordinates": [-82.549474, 35.480379]}},
{"type": "Feature", "id": "eQ-HH2B5chIz5CMzcT13OjVugpw=", "properties": {"ref": "47", "@spider": "ingles", "addr:full": "US 19 / 129 (Main St.)", "addr:city": "Andrews", "addr:state": "NC", "addr:postcode": "28901", "name": "Andrews", "phone": "828-321-5448", "website": "https://www.ingles-markets.com/storelocate/storeinfo.php?storenum=47", "opening_hours": "Mo-Su 07:00-10:00", "brand": "Ingles", "brand:wikidata": "Q6032595"}, "geometry": {"type": "Point", "coordinates": [-83.82858, 35.199658]}},
{"type": "Feature", "id": "qxPGguiAwhvd__Vci8RvtYZwrNc=", "properties": {"ref": "100", "@spider": "ingles", "addr:full": "636 NC 24 27 Byp E", "addr:city": "Albemarle", "addr:state": "NC", "addr:postcode": "28001", "name": "Albemarle", "phone": "704-982-4645", "website": "https://www.ingles-markets.com/storelocate/storeinfo.php?storenum=100", "opening_hours": "Mo-Su 07:00-10:00", "brand": "Ingles", "brand:wikidata": "Q6032595"}, "geometry": {"type": "Point", "coordinates": [-80.203268, 35.338642]}},
{"type": "Feature", "id": "HM47ySr1AB-yty_pM3HouBKJZQY=", "properties": {"ref": "492", "@spider": "ingles", "addr:full": "11078 Millarden Rd.", "addr:city": "Woodbury", "addr:state": "GA", "addr:postcode": "11078", "name": "Woodbury", "phone": "706-553-9590", "website": "https://www.ingles-markets.com/storelocate/storeinfo.php?storenum=492", "opening_hours": "Mo-Su 07:00-10:00", "brand": "Ingles", "brand:wikidata": "Q6032595"}, "geometry": {"type": "Point", "coordinates": [-84.574242, 32.984659]}},
{"type": "Feature", "id": "idZX2i53QuUUEObnQP3IoqJpnQs=", "properties": {"ref": "57", "@spider": "ingles", "addr:full": "285 N. Broad St.", "addr:city": "Winder", "addr:state": "GA", "addr:postcode": "30680", "name": "Winder", "phone": "770-867-9723", "website": "https://www.ingles-markets.com/storelocate/storeinfo.php?storenum=57", "opening_hours": "Mo-Su 06:00-11:00", "brand": "Ingles", "brand:wikidata": "Q6032595"}, "geometry": {"type": "Point", "coordinates": [-83.707285, 34.003096]}},
{"type": "Feature", "id": "5lBIQaMZsglwgwpg5GrtYYst1cw=", "properties": {"ref": "429", "@spider": "ingles", "addr:full": "110 Ann Denard Dr", "addr:city": "Washington", "addr:state": "GA", "addr:postcode": "30673", "name": "Washington", "phone": "706-678-4766", "website": "https://www.ingles-markets.com/storelocate/storeinfo.php?storenum=429", "opening_hours": "Mo-Su 07:00-10:00", "brand": "Ingles", "brand:wikidata": "Q6032595"}, "geometry": {"type": "Point", "coordinates": [-82.717726, 33.728399]}},
{"type": "Feature", "id": "VWJlzwyCY4F7w4uiZVf4PTESohw=", "properties": {"ref": "423", "@spider": "ingles", "addr:full": "98 Hwy. 61 Connector", "addr:city": "Villa Rica", "addr:state": "GA", "addr:postcode": "30180", "name": "Villa Rica", "phone": "770-459-0223", "website": "https://www.ingles-markets.com/storelocate/storeinfo.php?storenum=423", "opening_hours": "Mo-Su 07:00-10:00", "brand": "Ingles", "brand:wikidata": "Q6032595"}, "geometry": {"type": "Point", "coordinates": [-84.93956, 33.7264]}},
{"type": "Feature", "id": "Hgo84skFPIQSWvEmUt25VDOFRjE=", "properties": {"ref": "408", "@spider": "ingles", "addr:full": "12078 S Main Street", "addr:city": "Trenton", "addr:state": "GA", "addr:postcode": "12078", "name": "Trenton", "phone": "706-657-7875", "website": "https://www.ingles-markets.com/storelocate/storeinfo.php?storenum=408", "opening_hours": "Mo-Su 07:00-11:00", "brand": "Ingles", "brand:wikidata": "Q6032595"}, "geometry": {"type": "Point", "coordinates": [-85.510449, 34.867981]}},
{"type": "Feature", "id": "Jo-WwUQ4CoQ6VkCtekSRrTrf7fA=", "properties": {"ref": "436", "@spider": "ingles", "addr:full": "757 Big A Rd S ", "addr:city": "Toccoa", "addr:state": "GA", "addr:postcode": "30577", "name": "Toccoa", "phone": "706-886-8575", "website": "https://www.ingles-markets.com/storelocate/storeinfo.php?storenum=436", "opening_hours": "Mo-Su 06:00-10:00", "brand": "Ingles", "brand:wikidata": "Q6032595"}, "geometry": {"type": "Point", "coordinates": [-83.319, 34.56]}},
{"type": "Feature", "id": "1o4OSpcXnKNXiwtEQPq4FxkTJCc=", "properties": {"ref": "449", "@spider": "ingles", "addr:full": "730 N Church St", "addr:city": "Thomaston", "addr:state": "GA", "addr:postcode": "30286", "name": "Thomaston", "phone": "706-648-1953", "website": "https://www.ingles-markets.com/storelocate/storeinfo.php?storenum=449", "opening_hours": "Mo-Su 06:00-10:00", "brand": "Ingles", "brand:wikidata": "Q6032595"}, "geometry": {"type": "Point", "coordinates": [-84.328242, 32.897998]}},
{"type": "Feature", "id": "E6fZthslbZPVSWDKnH5zs6WaM3U=", "properties": {"ref": "405", "@spider": "ingles", "addr:full": "488 Carrollton St", "addr:city": "Temple", "addr:state": "GA", "addr:postcode": "30179", "name": "Temple", "phone": "770-562-0317", "website": "https://www.ingles-markets.com/storelocate/storeinfo.php?storenum=405", "opening_hours": "Mo-Su 06:00-11:00", "brand": "Ingles", "brand:wikidata": "Q6032595"}, "geometry": {"type": "Point", "coordinates": [-85.027806, 33.723416]}},
{"type": "Feature", "id": "qFLMmgu88p5F2G6nPtkdoQqpNHA=", "properties": {"ref": "416", "@spider": "ingles", "addr:full": "416 Highway 114", "addr:city": "Summerville", "addr:state": "GA", "addr:postcode": "30747", "name": "Summerville", "phone": "706-857-5977", "website": "https://www.ingles-markets.com/storelocate/storeinfo.php?storenum=416", "opening_hours": "Mo-Su 07:00-10:00", "brand": "Ingles", "brand:wikidata": "Q6032595"}, "geometry": {"type": "Point", "coordinates": [-85.35118, 34.47398]}},
{"type": "Feature", "id": "kTe1op3ipCAF-DOzfPQeSoNkrKc=", "properties": {"ref": "421", "@spider": "ingles", "addr:full": "4815 Rockbridge Rd.", "addr:city": "Stone Mountain", "addr:state": "GA", "addr:postcode": "30083", "name": "Stone Mountain", "phone": "404-299-0698", "website": "https://www.ingles-markets.com/storelocate/storeinfo.php?storenum=421", "opening_hours": "Mo-Su 07:00-10:00", "brand": "Ingles", "brand:wikidata": "Q6032595"}, "geometry": {"type": "Point", "coordinates": [-84.195111, 33.786946]}},
{"type": "Feature", "id": "uonU4s_ITL2l0qh-VX-OftNIiHU=", "properties": {"ref": "467", "@spider": "ingles", "addr:full": "3701 Walt Stephens Road", "addr:city": "Stockbridge", "addr:state": "GA", "addr:postcode": "30281", "name": "Stockbridge", "phone": "770-507-1230", "website": "https://www.ingles-markets.com/storelocate/storeinfo.php?storenum=467", "opening_hours": "Mo-Su 06:00-11:00", "brand": "Ingles", "brand:wikidata": "Q6032595"}, "geometry": {"type": "Point", "coordinates": [-84.269485, 33.526902]}},
{"type": "Feature", "id": "aJDdu0RLpma5zYRvJz7-BbBM1B8=", "properties": {"ref": "453", "@spider": "ingles", "addr:full": "1100 Nathan Dean Hwy.", "addr:city": "Rockmart", "addr:state": "GA", "addr:postcode": "30153", "name": "Rockmart", "phone": "770-684-0445", "website": "https://www.ingles-markets.com/storelocate/storeinfo.php?storenum=453", "opening_hours": "Mo-Su 07:00-10:00", "brand": "Ingles", "brand:wikidata": "Q6032595"}, "geometry": {"type": "Point", "coordinates": [-85.041658, 34.010165]}},
{"type": "Feature", "id": "PaPiIvl-9PoYqC6ovwhWgN9uhgU=", "properties": {"ref": "101", "@spider": "ingles", "addr:full": "5044 Alabama Road", "addr:city": "Ringgold", "addr:state": "GA", "addr:postcode": "30736", "name": "Ringgold", "phone": "706-935-6450", "website": "https://www.ingles-markets.com/storelocate/storeinfo.php?storenum=101", "opening_hours": "Mo-Su 07:00-10:00", "brand": "Ingles", "brand:wikidata": "Q6032595"}, "geometry": {"type": "Point", "coordinates": [-85.123924, 34.915264]}},
{"type": "Feature", "id": "8iEle4I03Bo6zacpQc_EHmnIBx8=", "properties": {"ref": "474", "@spider": "ingles", "addr:full": "5075 Peachtree Pkwy", "addr:city": "Peachtree Corners", "addr:state": "GA", "addr:postcode": "30092", "name": "Peachtree Corners", "phone": "770-448-7876", "website": "https://www.ingles-markets.com/storelocate/storeinfo.php?storenum=474", "opening_hours": "Mo-Su 06:00-11:00", "brand": "Ingles", "brand:wikidata": "Q6032595"}, "geometry": {"type": "Point", "coordinates": [-84.213511, 33.984106]}},
{"type": "Feature", "id": "E2YV84fZNP4o0U6o4qjFBUZKW-4=", "properties": {"ref": "496", "@spider": "ingles", "addr:full": "2340 Hwy. 16 West", "addr:city": "Monticello", "addr:state": "GA", "addr:postcode": "31064", "name": "Monticello", "phone": "706-468-1490", "website": "https://www.ingles-markets.com/storelocate/storeinfo.php?storenum=496", "opening_hours": "Mo-Su 07:00-10:00", "brand": "Ingles", "brand:wikidata": "Q6032595"}, "geometry": {"type": "Point", "coordinates": [-83.701702, 33.303517]}},
{"type": "Feature", "id": "RMQ1TimEwSvzHhUxq_0nWasgBsk=", "properties": {"ref": "444", "@spider": "ingles", "addr:full": "1441 Eatonton Rd", "addr:city": "Madison", "addr:state": "GA", "addr:postcode": "30650", "name": "Madison", "phone": "706-342-2220", "website": "https://www.ingles-markets.com/storelocate/storeinfo.php?storenum=444", "opening_hours": "Mo-Su 06:00-11:00", "brand": "Ingles", "brand:wikidata": "Q6032595"}, "geometry": {"type": "Point", "coordinates": [-83.477651, 33.569759]}},
{"type": "Feature", "id": "QmFWm3hqZlZjOtyEeWIRmBGGvx8=", "properties": {"ref": "494", "@spider": "ingles", "addr:full": "131 US 1 North ByPass", "addr:city": "Louisville", "addr:state": "GA", "addr:postcode": "30434", "name": "Louisville", "phone": "478-625-8629", "website": "https://www.ingles-markets.com/storelocate/storeinfo.php?storenum=494", "opening_hours": "Mo-Su 07:00-10:00", "brand": "Ingles", "brand:wikidata": "Q6032595"}, "geometry": {"type": "Point", "coordinates": [-82.396323, 33.00602]}},
{"type": "Feature", "id": "GiGCE7dYL-TvWqZXK5nDNqlQV1c=", "properties": {"ref": "424", "@spider": "ingles", "addr:full": "4555 Atlanta Hwy", "addr:city": "Loganville", "addr:state": "GA", "addr:postcode": "30052", "name": "Loganville", "phone": "770-466-0831", "website": "https://www.ingles-markets.com/storelocate/storeinfo.php?storenum=424", "opening_hours": "Mo-Su 07:00-11:00", "brand": "Ingles", "brand:wikidata": "Q6032595"}, "geometry": {"type": "Point", "coordinates": [-83.895201, 33.834712]}},
{"type": "Feature", "id": "fiJ36Qe_Ymmuy9xCiX5wRntWRjE=", "properties": {"ref": "495", "@spider": "ingles", "addr:full": "4920 Bill Gardner Parkway", "addr:city": "Locust Grove", "addr:state": "GA", "addr:postcode": "30248", "name": "Locust Grove", "phone": "678-583-0617", "website": "https://www.ingles-markets.com/storelocate/storeinfo.php?storenum=495", "opening_hours": "Mo-Su 06:00-11:00", "brand": "Ingles", "brand:wikidata": "Q6032595"}, "geometry": {"type": "Point", "coordinates": [-84.123568, 33.353268]}},
{"type": "Feature", "id": "7deQGysxpyCrHoHnJtBDx18Mjkg=", "properties": {"ref": "402", "@spider": "ingles", "addr:full": "650 Rockbridge Rd.", "addr:city": "Lilburn", "addr:state": "GA", "addr:postcode": "30047", "name": "Lilburn", "phone": "770-381-7318", "website": "https://www.ingles-markets.com/storelocate/storeinfo.php?storenum=402", "opening_hours": "Mo-Su 07:00-10:00", "brand": "Ingles", "brand:wikidata": "Q6032595"}, "geometry": {"type": "Point", "coordinates": [-84.140336, 33.856377]}},
{"type": "Feature", "id": "TiLIQn7pGxPC3KEqUUmOpAmA7rU=", "properties": {"ref": "437", "@spider": "ingles", "addr:full": "1449 W. Church St.", "addr:city": "Jasper", "addr:state": "GA", "addr:postcode": "30143", "name": "Jasper", "phone": "706-692-2696", "website": "https://www.ingles-markets.com/storelocate/storeinfo.php?storenum=437", "opening_hours": "Mo-Su 06:00-12:00", "brand": "Ingles", "brand:wikidata": "Q6032595"}, "geometry": {"type": "Point", "coordinates": [-84.4498, 34.465589]}},
{"type": "Feature", "id": "njekreJgqBi99jVkJSp0MDGRKfU=", "properties": {"ref": "499", "@spider": "ingles", "addr:full": "1305 W. 3rd St.", "addr:city": "Jackson", "addr:state": "GA", "addr:postcode": "30233", "name": "Jackson", "phone": "770-504-0740", "website": "https://www.ingles-markets.com/storelocate/storeinfo.php?storenum=499", "opening_hours": "Mo-Su 07:00-11:00", "brand": "Ingles", "brand:wikidata": "Q6032595"}, "geometry": {"type": "Point", "coordinates": [-83.986219, 33.292178]}},
{"type": "Feature", "id": "gToqRwF-R1wsI2NlKK4dOQ19X_g=", "properties": {"ref": "450", "@spider": "ingles", "addr:full": "9161 Hwy. 29", "addr:city": "Hull", "addr:state": "GA", "addr:postcode": "30646", "name": "Hull", "phone": "706-613-1334", "website": "https://www.ingles-markets.com/storelocate/storeinfo.php?storenum=450", "opening_hours": "Mo-Su 06:00-12:00", "brand": "Ingles", "brand:wikidata": "Q6032595"}, "geometry": {"type": "Point", "coordinates": [-83.315165, 34.032528]}},
{"type": "Feature", "id": "QS6ipTIXYvy0kbAHBuE8LZhX6To=", "properties": {"ref": "491", "@spider": "ingles", "addr:full": "1890 E. Main St.", "addr:city": "Hogansville", "addr:state": "GA", "addr:postcode": "30230", "name": "Hogansville", "phone": "706-637-9894", "website": "https://www.ingles-markets.com/storelocate/storeinfo.php?storenum=491", "opening_hours": "Mo-Su 07:00-10:00", "brand": "Ingles", "brand:wikidata": "Q6032595"}, "geometry": {"type": "Point", "coordinates": [-84.88859, 33.165895]}},
{"type": "Feature", "id": "84z7Ns_s1MjLDi0umRpzSMQk7X0=", "properties": {"ref": "483", "@spider": "ingles", "addr:full": "94 N. Main St.", "addr:city": "Hiawassee", "addr:state": "GA", "addr:postcode": "30546", "name": "Hiawassee", "phone": "706-896-8312", "website": "https://www.ingles-markets.com/storelocate/storeinfo.php?storenum=483", "opening_hours": "Mo-Su 07:00-10:00", "brand": "Ingles", "brand:wikidata": "Q6032595"}, "geometry": {"type": "Point", "coordinates": [-83.757523, 34.949079]}},
{"type": "Feature", "id": "QxVzbk0-T6ICKk3h89CUUMO-b6k=", "properties": {"ref": "66", "@spider": "ingles", "addr:full": "1000 E. Franklin St.", "addr:city": "Hartwell", "addr:state": "GA", "addr:postcode": "30643", "name": "Hartwell", "phone": "706-376-7006", "website": "https://www.ingles-markets.com/storelocate/storeinfo.php?storenum=66", "opening_hours": "Mo-Su 06:00-11:00", "brand": "Ingles", "brand:wikidata": "Q6032595"}, "geometry": {"type": "Point", "coordinates": [-82.91217, 34.354751]}},
{"type": "Feature", "id": "GxTc3GpM1wYg9fTmN0Rkq2vlS9w=", "properties": {"ref": "457", "@spider": "ingles", "addr:full": "1735 Zebulon Rd.", "addr:city": "Griffin", "addr:state": "GA", "addr:postcode": "30224", "name": "Griffin", "phone": "770-228-0607", "website": "https://www.ingles-markets.com/storelocate/storeinfo.php?storenum=457", "opening_hours": "Mo-Su 06:00-12:00", "brand": "Ingles", "brand:wikidata": "Q6032595"}, "geometry": {"type": "Point", "coordinates": [-84.283141, 33.196806]}},
{"type": "Feature", "id": "N0G-e16EVWrvwFzsTS5qxWe1z0k=", "properties": {"ref": "442", "@spider": "ingles", "addr:full": "1480 E. Broad St.", "addr:city": "Greensboro", "addr:state": "GA", "addr:postcode": "30642", "name": "Greensboro", "phone": "706-453-4936", "website": "https://www.ingles-markets.com/storelocate/storeinfo.php?storenum=442", "opening_hours": "Mo-Su 07:00-10:00", "brand": "Ingles", "brand:wikidata": "Q6032595"}, "geometry": {"type": "Point", "coordinates": [-83.169155, 33.579239]}},
{"type": "Feature", "id": "Fe_IAHVxQmjYVVSFMyAtRFjaOvw=", "properties": {"ref": "486", "@spider": "ingles", "addr:full": "261 W Clinton St", "addr:city": "Gray", "addr:state": "GA", "addr:postcode": "31032", "name": "Gray", "phone": "478-986-3159", "website": "https://www.ingles-markets.com/storelocate/storeinfo.php?storenum=486", "opening_hours": "Mo-Su 06:00-10:00", "brand": "Ingles", "brand:wikidata": "Q6032595"}, "geometry": {"type": "Point", "coordinates": [-83.535781, 33.008813]}},
{"type": "Feature", "id": "PC6JIBJF-naZW94zS_E3BWz9C_s=", "properties": {"ref": "440", "@spider": "ingles", "addr:full": "3320 Thompson Bridge Rd.", "addr:city": "Gainesville", "addr:state": "GA", "addr:postcode": "30501", "name": "Gainesville", "phone": "770-287-1330", "website": "https://www.ingles-markets.com/storelocate/storeinfo.php?storenum=440", "opening_hours": "Mo-Su 07:00-10:00", "brand": "Ingles", "brand:wikidata": "Q6032595"}, "geometry": {"type": "Point", "coordinates": [-83.86626, 34.362781]}},
{"type": "Feature", "id": "Rs6HjJXSI3biXEN_Fisax8gBx7U=", "properties": {"ref": "403", "@spider": "ingles", "addr:full": "260 Tift College Dr.", "addr:city": "Forsyth", "addr:state": "GA", "addr:postcode": "31029", "name": "Forsyth", "phone": "478-994-4900", "website": "https://www.ingles-markets.com/storelocate/storeinfo.php?storenum=403", "opening_hours": "Mo-Su 06:00-10:00", "brand": "Ingles", "brand:wikidata": "Q6032595"}, "geometry": {"type": "Point", "coordinates": [-83.932017, 33.035066]}},
{"type": "Feature", "id": "AhbttX-bLsiRpZz2Eaa36WnIWOw=", "properties": {"ref": "412", "@spider": "ingles", "addr:full": "4260 Winder Highway", "addr:city": "Flowery Branch", "addr:state": "GA", "addr:postcode": "30542", "name": "Flowery Branch", "phone": "770-965-3121", "website": "https://www.ingles-markets.com/storelocate/storeinfo.php?storenum=412", "opening_hours": "Mo-Su 06:00-11:00", "brand": "Ingles", "brand:wikidata": "Q6032595"}, "geometry": {"type": "Point", "coordinates": [-83.856421, 34.1894957]}},
{"type": "Feature", "id": "GvlZ1mJlh5Y_8FIHqrEjx0A8Q0o=", "properties": {"ref": "443", "@spider": "ingles", "addr:full": "135 Hwy. 92 South ( at GA 85)", "addr:city": "Fayetteville", "addr:state": "GA", "addr:postcode": "30215", "name": "Fayetteville", "phone": "770-460-5973", "website": "https://www.ingles-markets.com/storelocate/storeinfo.php?storenum=443", "opening_hours": "Mo-Su 07:00-10:00", "brand": "Ingles", "brand:wikidata": "Q6032595"}, "geometry": {"type": "Point", "coordinates": [-84.448837, 33.428915]}},
{"type": "Feature", "id": "XChCGk_H3mhlQZdN0wtqlD5W-vI=", "properties": {"ref": "409", "@spider": "ingles", "addr:full": "100 Old Orchard Square", "addr:city": "Ellijay", "addr:state": "GA", "addr:postcode": "30540", "name": "Ellijay", "phone": "706-635-2585", "website": "https://www.ingles-markets.com/storelocate/storeinfo.php?storenum=409", "opening_hours": "Mo-Su 06:00-10:00", "brand": "Ingles", "brand:wikidata": "Q6032595"}, "geometry": {"type": "Point", "coordinates": [-84.475611, 34.684028]}},
{"type": "Feature", "id": "Uypg-sjNIIYeDYxNkfVrTT2Py5Y=", "properties": {"ref": "445", "@spider": "ingles", "addr:full": "100 Fairview Rd.", "addr:city": "Ellenwood", "addr:state": "GA", "addr:postcode": "30294", "name": "Ellenwood", "phone": "770-981-1275", "website": "https://www.ingles-markets.com/storelocate/storeinfo.php?storenum=445", "opening_hours": "Mo-Su 07:00-11:00", "brand": "Ingles", "brand:wikidata": "Q6032595"}, "geometry": {"type": "Point", "coordinates": [-84.239996, 33.620312]}},
{"type": "Feature", "id": "d8rgj3TLfSULveDJ8gJBuwm9mmU=", "properties": {"ref": "65", "@spider": "ingles", "addr:full": "901 Lower Heard St.", "addr:city": "Elberton", "addr:state": "GA", "addr:postcode": "30635", "name": "Elberton", "phone": "706-283-8445", "website": "https://www.ingles-markets.com/storelocate/storeinfo.php?storenum=65", "opening_hours": "Mo-Su 06:00-10:00", "brand": "Ingles", "brand:wikidata": "Q6032595"}, "geometry": {"type": "Point", "coordinates": [-82.847221, 34.091787]}},
{"type": "Feature", "id": "jwfoVYlS6WUTtg-DbU3NZR3hiXM=", "properties": {"ref": "484", "@spider": "ingles", "addr:full": "754 Monticello Rd.", "addr:city": "Eatonton", "addr:state": "GA", "addr:postcode": "31024", "name": "Eatonton", "phone": "706-484-2256", "website": "https://www.ingles-markets.com/storelocate/storeinfo.php?storenum=484", "opening_hours": "Mo-Su 07:00-10:00", "brand": "Ingles", "brand:wikidata": "Q6032595"}, "geometry": {"type": "Point", "coordinates": [-83.409627, 33.3196]}},
{"type": "Feature", "id": "ZhhjLedR9ZId6Tmw-7_IzYX23nE=", "properties": {"ref": "432", "@spider": "ingles", "addr:full": "2175 Fairburn Rd ", "addr:city": "Douglasville", "addr:state": "GA", "addr:postcode": "30135", "name": "Douglasville", "phone": "770-920-1093", "website": "https://www.ingles-markets.com/storelocate/storeinfo.php?storenum=432", "opening_hours": "Mo-Su 07:00-10:00", "brand": "Ingles", "brand:wikidata": "Q6032595"}, "geometry": {"type": "Point", "coordinates": [-84.697264, 33.746538]}},
{"type": "Feature", "id": "_-JPUfnD0yaUedmO0w-dACIjuN0=", "properties": {"ref": "414", "@spider": "ingles", "addr:full": "1817 Dallas Nebo Rd", "addr:city": "Douglasville", "addr:state": "GA", "addr:postcode": "30134", "name": "Douglasville", "phone": "678-383-8704", "website": "https://www.ingles-markets.com/storelocate/storeinfo.php?storenum=414", "opening_hours": "Mo-Su 07:00-11:00", "brand": "Ingles", "brand:wikidata": "Q6032595"}, "geometry": {"type": "Point", "coordinates": [-84.8296, 33.837452]}},
{"type": "Feature", "id": "d9DN2TFGs6h15Q9C1buPTXMn8sk=", "properties": {"ref": "441", "@spider": "ingles", "addr:full": "53 Highway 400 S ", "addr:city": "Dawsonville", "addr:state": "GA", "addr:postcode": "30534", "name": "Dawsonville", "phone": "706-216-4180", "website": "https://www.ingles-markets.com/storelocate/storeinfo.php?storenum=441", "opening_hours": "Mo-Su 07:00-11:00", "brand": "Ingles", "brand:wikidata": "Q6032595"}, "geometry": {"type": "Point", "coordinates": [-84.041024, 34.3639]}},
{"type": "Feature", "id": "TD49WQOTocjTFk2NhrjvJ5_m850=", "properties": {"ref": "89", "@spider": "ingles", "addr:full": "270 Merchants Square Dr.", "addr:city": "Dallas", "addr:state": "GA", "addr:postcode": "30132", "name": "Dallas", "phone": "770-505-8710", "website": "https://www.ingles-markets.com/storelocate/storeinfo.php?storenum=89", "opening_hours": "Mo-Su 07:00-10:00", "brand": "Ingles", "brand:wikidata": "Q6032595"}, "geometry": {"type": "Point", "coordinates": [-84.829445, 33.915557]}},
{"type": "Feature", "id": "TMSz--NyuUfsAZQUBu7vXpxOqTQ=", "properties": {"ref": "493", "@spider": "ingles", "addr:full": "1221 Dacula Rd.", "addr:city": "Dacula", "addr:state": "GA", "addr:postcode": "30019", "name": "Dacula", "phone": "770-237-0016", "website": "https://www.ingles-markets.com/storelocate/storeinfo.php?storenum=493", "opening_hours": "Mo-Su 07:00-10:00", "brand": "Ingles", "brand:wikidata": "Q6032595"}, "geometry": {"type": "Point", "coordinates": [-83.907953, 34.031217]}},
{"type": "Feature", "id": "o4FeBss-bjdrn0LMLKxzIbUIwaI=", "properties": {"ref": "438", "@spider": "ingles", "addr:full": "436 Canton Rd.", "addr:city": "Cumming", "addr:state": "GA", "addr:postcode": "30040", "name": "Cumming", "phone": "770-889-5868", "website": "https://www.ingles-markets.com/storelocate/storeinfo.php?storenum=438", "opening_hours": "Mo-Su 07:00-10:00", "brand": "Ingles", "brand:wikidata": "Q6032595"}, "geometry": {"type": "Point", "coordinates": [-84.150557, 34.216934]}},
{"type": "Feature", "id": "G3L17SBxBb5YJDifnDHGYcF3h70=", "properties": {"ref": "106", "@spider": "ingles", "addr:full": "6055 Bethelview Rd.", "addr:city": "Cumming", "addr:state": "GA", "addr:postcode": "30040", "name": "Cumming", "phone": "770-887-2436", "website": "https://www.ingles-markets.com/storelocate/storeinfo.php?storenum=106", "opening_hours": "Mo-Su 07:00-11:00", "brand": "Ingles", "brand:wikidata": "Q6032595"}, "geometry": {"type": "Point", "coordinates": [-84.174897, 34.162567]}},
{"type": "Feature", "id": "sFu7NciuDkIBUbPyasc4zE0gBpI=", "properties": {"ref": "76", "@spider": "ingles", "addr:full": "879 Joe Frank Harris Pkwy.", "addr:city": "Cartersville", "addr:state": "GA", "addr:postcode": "30120", "name": "Cartersville", "phone": "770-607-3872", "website": "https://www.ingles-markets.com/storelocate/storeinfo.php?storenum=76", "opening_hours": "Mo-Su 06:00-12:00", "brand": "Ingles", "brand:wikidata": "Q6032595"}, "geometry": {"type": "Point", "coordinates": [-84.802391, 34.202008]}},
{"type": "Feature", "id": "RLDe5D7H1hW1xAy0UIIfS5Iu9Do=", "properties": {"ref": "476", "@spider": "ingles", "addr:full": "825 West Ave.", "addr:city": "Cartersville", "addr:state": "GA", "addr:postcode": "30120", "name": "Cartersville", "phone": "770-607-3518", "website": "https://www.ingles-markets.com/storelocate/storeinfo.php?storenum=476", "opening_hours": "Mo-Su 06:00-12:00", "brand": "Ingles", "brand:wikidata": "Q6032595"}, "geometry": {"type": "Point", "coordinates": [-84.845772, 34.247004]}},
{"type": "Feature", "id": "UUk_-5n3cai6Kyqu9iN2jatBO68=", "properties": {"ref": "480", "@spider": "ingles", "addr:full": "1124 N. Park St.", "addr:city": "Carrollton", "addr:state": "GA", "addr:postcode": "30117", "name": "Carrollton", "phone": "770-832-8742", "website": "https://www.ingles-markets.com/storelocate/storeinfo.php?storenum=480", "opening_hours": "Mo-Su 06:00-11:00", "brand": "Ingles", "brand:wikidata": "Q6032595"}, "geometry": {"type": "Point", "coordinates": [-85.079125, 33.599462]}},
{"type": "Feature", "id": "wEh8S3ylDovp6tcSyFEwki_8XT8=", "properties": {"ref": "96", "@spider": "ingles", "addr:full": "108 Riverstone Pkwy", "addr:city": "Canton", "addr:state": "GA", "addr:postcode": "30114", "name": "Canton", "phone": "770-479-4335", "website": "https://www.ingles-markets.com/storelocate/storeinfo.php?storenum=96", "opening_hours": "Mo-Su 06:00-10:00", "brand": "Ingles", "brand:wikidata": "Q6032595"}, "geometry": {"type": "Point", "coordinates": [-84.491451, 34.243727]}},
{"type": "Feature", "id": "aQvsINO62Q9peiElAb6ROf9gMWM=", "properties": {"ref": "105", "@spider": "ingles", "addr:full": "2865 Music Mill Road", "addr:city": "Bremen", "addr:state": "GA", "addr:postcode": "30110", "name": "Bremen", "phone": "770-537-3499", "website": "https://www.ingles-markets.com/storelocate/storeinfo.php?storenum=105", "opening_hours": "Mo-Su 07:00-11:00", "brand": "Ingles", "brand:wikidata": "Q6032595"}, "geometry": {"type": "Point", "coordinates": [-85.143194, 33.698637]}},
{"type": "Feature", "id": "zv7H3ml18hQHvM-46oZ4qFVSyUg=", "properties": {"ref": "36", "@spider": "ingles", "addr:full": "5679 Appalachian Hwy.", "addr:city": "Blue Ridge", "addr:state": "GA", "addr:postcode": "30513", "name": "Blue Ridge", "phone": "706-632-8060", "website": "https://www.ingles-markets.com/storelocate/storeinfo.php?storenum=36", "opening_hours": "Mo-Su 06:00-11:00", "brand": "Ingles", "brand:wikidata": "Q6032595"}, "geometry": {"type": "Point", "coordinates": [-84.2998, 34.878758]}},
{"type": "Feature", "id": "ydSdz2MR2C8XspwMgbjbdA7pqc4=", "properties": {"ref": "98", "@spider": "ingles", "addr:full": "207 B Hwy. 515 ", "addr:city": "Blairsville", "addr:state": "GA", "addr:postcode": "30512", "name": "Blairsville", "phone": "706-745-9862", "website": "https://www.ingles-markets.com/storelocate/storeinfo.php?storenum=98", "opening_hours": "Mo-Su 07:00-11:00", "brand": "Ingles", "brand:wikidata": "Q6032595"}, "geometry": {"type": "Point", "coordinates": [-83.958168, 34.879271]}},
{"type": "Feature", "id": "jwfxuSDTEVJgldOjG4k-uK23iIw=", "properties": {"ref": "498", "@spider": "ingles", "addr:full": "631 Veterans Parkway", "addr:city": "Barnesville", "addr:state": "GA", "addr:postcode": "30204", "name": "Barnesville", "phone": "770-358-7402", "website": "https://www.ingles-markets.com/storelocate/storeinfo.php?storenum=498", "opening_hours": "Mo-Su 07:00-11:00", "brand": "Ingles", "brand:wikidata": "Q6032595"}, "geometry": {"type": "Point", "coordinates": [-84.172423, 33.0445885]}},
{"type": "Feature", "id": "wrsUakEZoMHXZBYfg3NTBHwY824=", "properties": {"ref": "451", "@spider": "ingles", "addr:full": "1528 Atlanta Hwy. NW", "addr:city": "Auburn", "addr:state": "GA", "addr:postcode": "30011", "name": "Auburn", "phone": "770-682-8433", "website": "https://www.ingles-markets.com/storelocate/storeinfo.php?storenum=451", "opening_hours": "Mo-Su 06:00-11:00", "brand": "Ingles", "brand:wikidata": "Q6032595"}, "geometry": {"type": "Point", "coordinates": [-83.842441, 34.011314]}}]}