{"type":"FeatureCollection","features":[{"type": "Feature", "id": "XQIUY__G9mFU_I7O0b-S7IEEHBc=", "properties": {"ref": "1190", "@spider": "insomnia_cookies", "shop": "pastry", "addr:full": "632 E. 13th Avenue, Eugene, OR, 97401", "name": "Eugene, OR", "phone": "(541) 209-6681", "brand": "Insomnia Cookies", "brand:wikidata": "Q16997024", "nsi_id": "insomniacookies-64e364"}, "geometry": {"type": "Point", "coordinates": [-123.0831485, 44.0453129]}},
{"type": "Feature", "id": "BwFpd2wG0eOUEfgIE-NUv1OgbSI=", "properties": {"ref": "1206", "@spider": "insomnia_cookies", "shop": "pastry", "addr:full": "230 36th Street, Bellingham, WA, 98225", "name": "Bellingham, WA", "phone": "(360) 464-4048", "brand": "Insomnia Cookies", "brand:wikidata": "Q16997024", "nsi_id": "insomniacookies-64e364"}, "geometry": {"type": "Point", "coordinates": [-122.4717406, 48.7317344]}},
{"type": "Feature", "id": "jV45MCFSALnvbH-FdDkMFElcNeA=", "properties": {"ref": "2070", "@spider": "insomnia_cookies", "shop": "pastry", "addr:full": "1215 4th Street, San Francisco, CA, 94158", "name": "San Francisco Mission Bay ", "phone": "(415) 496-0241", "brand": "Insomnia Cookies", "brand:wikidata": "Q16997024", "nsi_id": "insomniacookies-64e364"}, "geometry": {"type": "Point", "coordinates": [-122.3911611, 37.7726108]}},
{"type": "Feature", "id": "zZ3uBmHYZevZX97E4yT4BUQr3z8=", "properties": {"ref": "2040", "@spider": "insomnia_cookies", "shop": "pastry", "addr:full": "390 1st Street, San Francisco, CA, 94105", "name": "San Francisco SoMa", "phone": "(415) 318-2411", "brand": "Insomnia Cookies", "brand:wikidata": "Q16997024", "nsi_id": "insomniacookies-64e364"}, "geometry": {"type": "Point", "coordinates": [-122.3934314, 37.7861748]}},
{"type": "Feature", "id": "gAv-GXuSotXhb4A31DTaWu0cwZ8=", "properties": {"ref": "1231", "@spider": "insomnia_cookies", "shop": "pastry", "addr:full": "362 Kearny Street, San Francisco, CA, 94108", "name": "San Francisco, CA", "phone": "(415) 582-4202", "brand": "Insomnia Cookies", "brand:wikidata": "Q16997024", "nsi_id": "insomniacookies-64e364"}, "geometry": {"type": "Point", "coordinates": [-122.4040812, 37.7916137]}},
{"type": "Feature", "id": "tOnFCSXXHkglLTnQ4zZJR2O24fc=", "properties": {"ref": "1202", "@spider": "insomnia_cookies", "shop": "pastry", "addr:full": "305 Main Street, Chico, CA, 95928", "name": "Chico, CA", "phone": "(530) 364-5220", "brand": "Insomnia Cookies", "brand:wikidata": "Q16997024", "nsi_id": "insomniacookies-64e364"}, "geometry": {"type": "Point", "coordinates": [-121.839171, 39.7296316]}},
{"type": "Feature", "id": "w3aL97yEHBtCRABa2Db92dogHW0=", "properties": {"ref": "1238", "@spider": "insomnia_cookies", "shop": "pastry", "addr:full": "42 S 1st Street, San Jose, CA, 95113", "name": "San Jose, CA", "phone": "(669) 900-1412", "brand": "Insomnia Cookies", "brand:wikidata": "Q16997024", "nsi_id": "insomniacookies-64e364"}, "geometry": {"type": "Point", "coordinates": [-121.8898201, 37.3353983]}},
{"type": "Feature", "id": "-9yJEQX5bh0EqR-SFtDQn5odVjE=", "properties": {"ref": "1222", "@spider": "insomnia_cookies", "shop": "pastry", "addr:full": "414 K Street, Suite 120, Sacramento, CA, 95814", "name": "Downtown Sacramento, CA", "phone": "(916) 374-7626", "brand": "Insomnia Cookies", "brand:wikidata": "Q16997024", "nsi_id": "insomniacookies-64e364"}, "geometry": {"type": "Point", "coordinates": [-121.501041, 38.581068]}},
{"type": "Feature", "id": "pWK872N8RS2ZbuU_6bghUis6MQ8=", "properties": {"ref": "1207", "@spider": "insomnia_cookies", "shop": "pastry", "addr:full": "202 E Street, Davis, CA, 95616", "name": "Davis, CA", "phone": "(916) 252-9873", "brand": "Insomnia Cookies", "brand:wikidata": "Q16997024", "nsi_id": "insomniacookies-64e364"}, "geometry": {"type": "Point", "coordinates": [-121.7410046, 38.5435179]}},
{"type": "Feature", "id": "UiMzb64BgIdb2p3mfYfEsBuEUv8=", "properties": {"ref": "1210", "@spider": "insomnia_cookies", "shop": "pastry", "addr:full": "22 Chorro Street, San Luis Obispo, CA, 93405", "name": "San Luis Obispo, CA", "phone": "(805) 360-5723", "brand": "Insomnia Cookies", "brand:wikidata": "Q16997024", "nsi_id": "insomniacookies-64e364"}, "geometry": {"type": "Point", "coordinates": [-120.6700928, 35.2938165]}},
{"type": "Feature", "id": "Y8wJ1l0n8JD3lBPypAcOyLV8bHU=", "properties": {"ref": "1196", "@spider": "insomnia_cookies", "shop": "pastry", "addr:full": "935 N. Virginia Street, Reno, NV, 89503", "name": "Reno, NV", "phone": "(775) 434-1748", "brand": "Insomnia Cookies", "brand:wikidata": "Q16997024", "nsi_id": "insomniacookies-64e364"}, "geometry": {"type": "Point", "coordinates": [-119.8167597, 39.5368364]}},
{"type": "Feature", "id": "TVVz-FDbqCWjA5FrcKrBF7mwnus=", "properties": {"ref": "1230", "@spider": "insomnia_cookies", "shop": "pastry", "addr:full": "430 State Street, Santa Barbara, CA, 93101", "name": "Santa Barbara, CA", "phone": "(805) 960-5152", "brand": "Insomnia Cookies", "brand:wikidata": "Q16997024", "nsi_id": "insomniacookies-64e364"}, "geometry": {"type": "Point", "coordinates": [-119.6950827, 34.4167934]}},
{"type": "Feature", "id": "IOhltvj5n4o_AUnDk-lv0bF_MTs=", "properties": {"ref": "1216", "@spider": "insomnia_cookies", "shop": "pastry", "addr:full": "8951 Santa Monica Blvd, Suite A, West Hollywood, CA, 90069", "name": "West Hollywood, CA", "phone": "(424) 528-0204", "brand": "Insomnia Cookies", "brand:wikidata": "Q16997024", "nsi_id": "insomniacookies-64e364"}, "geometry": {"type": "Point", "coordinates": [-118.3860492, 34.0839097]}},
{"type": "Feature", "id": "m4o3Qs6yCgCfIuO6DeCSlAPWvZM=", "properties": {"ref": "2032", "@spider": "insomnia_cookies", "shop": "pastry", "addr:full": "945 Westwood Boulevard, Los Angeles, CA, 90024", "name": "Westwood Los Angeles", "phone": "(818) 806-7303", "brand": "Insomnia Cookies", "brand:wikidata": "Q16997024", "nsi_id": "insomniacookies-64e364"}, "geometry": {"type": "Point", "coordinates": [-118.4456203, 34.0628719]}},
{"type": "Feature", "id": "aUR6WSpIipAoXjUrT4QD7d-Khpw=", "properties": {"ref": "2042", "@spider": "insomnia_cookies", "shop": "pastry", "addr:full": "929 W. Jefferson St., Suite 1620, Los Angeles, CA, 90089", "name": "USC Village ", "phone": "(213) 262-0434", "brand": "Insomnia Cookies", "brand:wikidata": "Q16997024", "nsi_id": "insomniacookies-64e364"}, "geometry": {"type": "Point", "coordinates": [-118.2853451, 34.0250132]}},
{"type": "Feature", "id": "kos91mJvQGvGztmC7VN9hZ0QYCI=", "properties": {"ref": "1221", "@spider": "insomnia_cookies", "shop": "pastry", "addr:full": "4187 Campus Drive, Irvine, CA, 92612", "name": "Irvine, CA", "phone": "(657) 900-5114", "brand": "Insomnia Cookies", "brand:wikidata": "Q16997024", "nsi_id": "insomniacookies-64e364"}, "geometry": {"type": "Point", "coordinates": [-117.8390875, 33.6508271]}},
{"type": "Feature", "id": "7b4yLd7vqT0nKihVKd2YOA3-eIQ=", "properties": {"ref": "1193", "@spider": "insomnia_cookies", "shop": "pastry", "addr:full": "902 NE Colorado Street, Pullman, WA, 99163", "name": "Pullman, WA", "phone": "(425) 595-2575", "brand": "Insomnia Cookies", "brand:wikidata": "Q16997024", "nsi_id": "insomniacookies-64e364"}, "geometry": {"type": "Point", "coordinates": [-117.1674926, 46.7336123]}},
{"type": "Feature", "id": "7Id_b319agcK0an_n5qUJwcjWdM=", "properties": {"ref": "1194", "@spider": "insomnia_cookies", "shop": "pastry", "addr:full": "1007 Garnet Ave, San Diego, CA, 92109", "name": "San Diego, CA", "phone": "(619) 600-0416", "brand": "Insomnia Cookies", "brand:wikidata": "Q16997024", "nsi_id": "insomniacookies-64e364"}, "geometry": {"type": "Point", "coordinates": [-117.2514237, 32.7972376]}},
{"type": "Feature", "id": "ug-vhpEc-IJZmDoSl90ozEDf2Yg=", "properties": {"ref": "1191", "@spider": "insomnia_cookies", "shop": "pastry", "addr:full": "4480 Paradise Road, Unit 475, Las Vegas, NV, 89169", "name": "Las Vegas, NV", "phone": "(702) 623-5508", "brand": "Insomnia Cookies", "brand:wikidata": "Q16997024", "nsi_id": "insomniacookies-64e364"}, "geometry": {"type": "Point", "coordinates": [-115.1518286, 36.1091872]}},
{"type": "Feature", "id": "qKSxjmBLpAx_0K8r4jPKNn5MtWs=", "properties": {"ref": "2072", "@spider": "insomnia_cookies", "shop": "pastry", "addr:full": "One East Washington Street, Suite 180 , Phoenix, AZ, 85004", "name": "Central Phoenix Coming Soon!", "phone": "(602) 813-2200", "brand": "Insomnia Cookies", "brand:wikidata": "Q16997024", "nsi_id": "insomniacookies-64e364"}, "geometry": {"type": "Point", "coordinates": [-112.0692858, 33.448243]}},
{"type": "Feature", "id": "UGxDCajIsMNuxZOTToTTa2JvJmg=", "properties": {"ref": "1197", "@spider": "insomnia_cookies", "shop": "pastry", "addr:full": "116 East University Drive, Suite 104, Tempe, AZ, 85281", "name": "Tempe, AZ", "phone": "(480) 795-3693", "brand": "Insomnia Cookies", "brand:wikidata": "Q16997024", "nsi_id": "insomniacookies-64e364"}, "geometry": {"type": "Point", "coordinates": [-111.9373471, 33.4221543]}},
{"type": "Feature", "id": "_zRk-Wcr_80S8_KItCP2I0h248A=", "properties": {"ref": "1199", "@spider": "insomnia_cookies", "shop": "pastry", "addr:full": "62 W Cougar Blvd, Suite 103, Provo, UT, 84604", "name": "Provo, UT", "phone": "(801) 406-7480", "brand": "Insomnia Cookies", "brand:wikidata": "Q16997024", "nsi_id": "insomniacookies-64e364"}, "geometry": {"type": "Point", "coordinates": [-111.6599781, 40.2512312]}},
{"type": "Feature", "id": "G_pOEM0c8e_7mam941w1Ii5LYPQ=", "properties": {"ref": "1189", "@spider": "insomnia_cookies", "shop": "pastry", "addr:full": "345 E Congress Street, Suite 145, Tucson, AZ, 85701", "name": "Tucson, AZ", "phone": "(520) 333-5622", "brand": "Insomnia Cookies", "brand:wikidata": "Q16997024", "nsi_id": "insomniacookies-64e364"}, "geometry": {"type": "Point", "coordinates": [-110.9655471, 32.2218346]}},
{"type": "Feature", "id": "eoma3-vBIbKsAfXJcizO_ok1i0c=", "properties": {"ref": "1183", "@spider": "insomnia_cookies", "shop": "pastry", "addr:full": "2132 Central Avenue SE, Suite A-2, Albuquerque, NM, 87106", "name": "Albuquerque, NM", "phone": "(505) 333-4422", "brand": "Insomnia Cookies", "brand:wikidata": "Q16997024", "nsi_id": "insomniacookies-64e364"}, "geometry": {"type": "Point", "coordinates": [-106.6225434, 35.0806909]}},
{"type": "Feature", "id": "_GMSvJ9U6rXw62XTGv1zD4-d8U0=", "properties": {"ref": "1167", "@spider": "insomnia_cookies", "shop": "pastry", "addr:full": "2500 N Mesa St, El Paso, TX, 79902", "name": "El Paso, TX", "phone": "(915) 320-5591", "brand": "Insomnia Cookies", "brand:wikidata": "Q16997024", "nsi_id": "insomniacookies-64e364"}, "geometry": {"type": "Point", "coordinates": [-106.5018337, 31.7760752]}},
{"type": "Feature", "id": "YSBc8xGL230X2coSzQb0YnOfPlY=", "properties": {"ref": "1146", "@spider": "insomnia_cookies", "shop": "pastry", "addr:full": "1203 13th Street, Boulder, CO, 80302", "name": "Boulder, CO", "phone": "(720) 408-7596", "brand": "Insomnia Cookies", "brand:wikidata": "Q16997024", "nsi_id": "insomniacookies-64e364"}, "geometry": {"type": "Point", "coordinates": [-105.2763961, 40.0088426]}},
{"type": "Feature", "id": "-v47YstFnMLg5OgJiyOGeNfWioE=", "properties": {"ref": "1180", "@spider": "insomnia_cookies", "shop": "pastry", "addr:full": "646 South College Ave, Fort Collins, CO, 80524", "name": "Fort Collins, CO", "phone": "(720) 996-2430", "brand": "Insomnia Cookies", "brand:wikidata": "Q16997024", "nsi_id": "insomniacookies-64e364"}, "geometry": {"type": "Point", "coordinates": [-105.0767366, 40.5783833]}},
{"type": "Feature", "id": "wyOcmmoa_gfNXtPVhDosIBK9Rp4=", "properties": {"ref": "1229", "@spider": "insomnia_cookies", "shop": "pastry", "addr:full": "78 S Broadway, Denver, CO, 80209", "name": "South Broadway, Denver", "phone": "(719) 242-9200", "brand": "Insomnia Cookies", "brand:wikidata": "Q16997024", "nsi_id": "insomniacookies-64e364"}, "geometry": {"type": "Point", "coordinates": [-104.9872266, 39.7151233]}},
{"type": "Feature", "id": "ZAHzvSLwltL-uI_83yXIx__D3O4=", "properties": {"ref": "1163", "@spider": "insomnia_cookies", "shop": "pastry", "addr:full": "2075 S. University Blvd, Unit D, Denver, CO, 80210", "name": "Denver, CO", "phone": "(720) 862-3105", "brand": "Insomnia Cookies", "brand:wikidata": "Q16997024", "nsi_id": "insomniacookies-64e364"}, "geometry": {"type": "Point", "coordinates": [-104.9599451, 39.6790943]}},
{"type": "Feature", "id": "2_cvGkw3MfaApVr3mfn9mvYHa5c=", "properties": {"ref": "1134", "@spider": "insomnia_cookies", "shop": "pastry", "addr:full": "1301 University Ave, Lubbock, TX, 79401", "name": "Lubbock, TX", "phone": "(806) 686-1426", "brand": "Insomnia Cookies", "brand:wikidata": "Q16997024", "nsi_id": "insomniacookies-64e364"}, "geometry": {"type": "Point", "coordinates": [-101.8703558, 33.5834319]}},
{"type": "Feature", "id": "GNmeW9GXtFTJOcZFIOk1vLMsm68=", "properties": {"ref": "1162", "@spider": "insomnia_cookies", "shop": "pastry", "addr:full": "111 East Hopkins Street, San Marcos, TX, 78666", "name": "San Marcos, TX", "phone": "(512) 399-0745", "brand": "Insomnia Cookies", "brand:wikidata": "Q16997024", "nsi_id": "insomniacookies-64e364"}, "geometry": {"type": "Point", "coordinates": [-97.940996, 29.883331]}},
{"type": "Feature", "id": "bG7SSoELftC8utiDHMJFXHFEKsI=", "properties": {"ref": "1214", "@spider": "insomnia_cookies", "shop": "pastry", "addr:full": "2323 San Antonio Street, Austin, TX, 78705", "name": "Austin, TX", "phone": "(737) 204-1983", "brand": "Insomnia Cookies", "brand:wikidata": "Q16997024", "nsi_id": "insomniacookies-64e364"}, "geometry": {"type": "Point", "coordinates": [-97.7423917, 30.2873249]}},
{"type": "Feature", "id": "TaFk4ORwFLWL4f34ST2qWDvNpiY=", "properties": {"ref": "1160", "@spider": "insomnia_cookies", "shop": "pastry", "addr:full": "1131 N. Walker Ave, Oklahoma City, OK, 73103", "name": "Oklahoma City, OK", "phone": "(405) 300-5720", "brand": "Insomnia Cookies", "brand:wikidata": "Q16997024", "nsi_id": "insomniacookies-64e364"}, "geometry": {"type": "Point", "coordinates": [-97.5213104, 35.4795972]}},
{"type": "Feature", "id": "PJiVrPYaJnSYvFDPY0IpCLFdw8Q=", "properties": {"ref": "2044", "@spider": "insomnia_cookies", "shop": "pastry", "addr:full": "825 Currie Street, Fort Worth, TX, 76107", "name": "Fort Worth, Currie Street", "phone": "(817) 200-4746", "brand": "Insomnia Cookies", "brand:wikidata": "Q16997024", "nsi_id": "insomniacookies-64e364"}, "geometry": {"type": "Point", "coordinates": [-97.358176, 32.7506089]}},
{"type": "Feature", "id": "n317pwbozsK-Y-aFxZJMObTTEpg=", "properties": {"ref": "1188", "@spider": "insomnia_cookies", "shop": "pastry", "addr:full": "2868 West Berry Street, Fort Worth, TX, 76129", "name": "Fort Worth, TX", "phone": "(817) 522-4455", "brand": "Insomnia Cookies", "brand:wikidata": "Q16997024", "nsi_id": "insomniacookies-64e364"}, "geometry": {"type": "Point", "coordinates": [-97.3578404, 32.7063073]}},
{"type": "Feature", "id": "WtLvBnXVsJkppu5dVmWOjggE-88=", "properties": {"ref": "1130", "@spider": "insomnia_cookies", "shop": "pastry", "addr:full": "215 S. Washington St, Stillwater, OK, 74074", "name": "Stillwater, OK", "phone": "(405) 331-6077", "brand": "Insomnia Cookies", "brand:wikidata": "Q16997024", "nsi_id": "insomniacookies-64e364"}, "geometry": {"type": "Point", "coordinates": [-97.0690984, 36.1190925]}},
{"type": "Feature", "id": "4MPRLGckuJSHREWMuVmsqi1z888=", "properties": {"ref": "1171", "@spider": "insomnia_cookies", "shop": "pastry", "addr:full": "758 Asp Ave, Norman, OK, 73069", "name": "Norman, OK", "phone": "(405) 369-5191", "brand": "Insomnia Cookies", "brand:wikidata": "Q16997024", "nsi_id": "insomniacookies-64e364"}, "geometry": {"type": "Point", "coordinates": [-97.4439036, 35.2122032]}},
{"type": "Feature", "id": "Px_05wDc7O-YFvWEIR5dzFWG8_I=", "properties": {"ref": "1161", "@spider": "insomnia_cookies", "shop": "pastry", "addr:full": "106 Fry Street, Denton, TX, 76201", "name": "Denton, TX", "phone": "(940) 241-4269", "brand": "Insomnia Cookies", "brand:wikidata": "Q16997024", "nsi_id": "insomniacookies-64e364"}, "geometry": {"type": "Point", "coordinates": [-97.1462411, 33.2149948]}},
{"type": "Feature", "id": "ET1wJThEZEkwu1hnqtLyhkZ2Ydw=", "properties": {"ref": "2066", "@spider": "insomnia_cookies", "shop": "pastry", "addr:full": "1508 Speight Ave, Suite #130, Waco, TX, 76706", "name": "Waco, TX ", "phone": "(254) 334-1558", "brand": "Insomnia Cookies", "brand:wikidata": "Q16997024", "nsi_id": "insomniacookies-64e364"}, "geometry": {"type": "Point", "coordinates": [-97.1277355, 31.5369383]}},
{"type": "Feature", "id": "45K3sldvwF5gJTW6oGN-EwvIDqA=", "properties": {"ref": "1153", "@spider": "insomnia_cookies", "shop": "pastry", "addr:full": "412 Broadway N, Suite 412A, Fargo, ND, 58102", "name": "Fargo, ND", "phone": "(701) 595-7433", "brand": "Insomnia Cookies", "brand:wikidata": "Q16997024", "nsi_id": "insomniacookies-64e364"}, "geometry": {"type": "Point", "coordinates": [-96.7882231, 46.8805591]}},
{"type": "Feature", "id": "JRuM20aUHSS6EMLc6alQBocwf9k=", "properties": {"ref": "2023", "@spider": "insomnia_cookies", "shop": "pastry", "addr:full": "2422 Victory Park Lane, Dallas, TX, 75219", "name": "Victory Park, Dallas", "phone": "(469) 839-6227", "brand": "Insomnia Cookies", "brand:wikidata": "Q16997024", "nsi_id": "insomniacookies-64e364"}, "geometry": {"type": "Point", "coordinates": [-96.8091856, 32.7882983]}},
{"type": "Feature", "id": "ZKUYz3BOv0sd4jTGkLwugvvEjos=", "properties": {"ref": "2011", "@spider": "insomnia_cookies", "shop": "pastry", "addr:full": "2656 Main Street, Dallas, TX, 75226", "name": "Deep Ellum, Dallas", "phone": "(469) 789-2645", "brand": "Insomnia Cookies", "brand:wikidata": "Q16997024", "nsi_id": "insomniacookies-64e364"}, "geometry": {"type": "Point", "coordinates": [-96.784247, 32.783601]}},
{"type": "Feature", "id": "PLDE1X00WibCerlzKK_kprJpeTs=", "properties": {"ref": "2067", "@spider": "insomnia_cookies", "shop": "pastry", "addr:full": "3000 Northside Boulevard, Suite 300, Richardson, TX, 75080", "name": "Richardson, TX ", "phone": "(469) 722-7557", "brand": "Insomnia Cookies", "brand:wikidata": "Q16997024", "nsi_id": "insomniacookies-64e364"}, "geometry": {"type": "Point", "coordinates": [-96.7481029, 32.9935219]}},
{"type": "Feature", "id": "Gl2gN70dzlm6RdLq-TBcUT1yZMY=", "properties": {"ref": "1138", "@spider": "insomnia_cookies", "shop": "pastry", "addr:full": "1319 Anderson Ave, Manhattan, KS, 66502", "name": "Manhattan, KS", "phone": "(785) 268-6877", "brand": "Insomnia Cookies", "brand:wikidata": "Q16997024", "nsi_id": "insomniacookies-64e364"}, "geometry": {"type": "Point", "coordinates": [-96.5773481, 39.1856829]}},
{"type": "Feature", "id": "B4We1mqbmdhFsjmIaN9XaNToutM=", "properties": {"ref": "2024", "@spider": "insomnia_cookies", "shop": "pastry", "addr:full": "505 University Drive, College Station, TX, 77840", "name": "College Station, TX", "phone": "(979) 291-2413", "brand": "Insomnia Cookies", "brand:wikidata": "Q16997024", "nsi_id": "insomniacookies-64e364"}, "geometry": {"type": "Point", "coordinates": [-96.3446057, 30.6194264]}},
{"type": "Feature", "id": "TUdOZtELIoHSufGGUD1qde0LtAM=", "properties": {"ref": "2038", "@spider": "insomnia_cookies", "shop": "pastry", "addr:full": "1401 West 23rd Street, Lawrence, KS, 66046", "name": "Lawrence, KS", "phone": "(785) 576-2085", "brand": "Insomnia Cookies", "brand:wikidata": "Q16997024", "nsi_id": "insomniacookies-64e364"}, "geometry": {"type": "Point", "coordinates": [-95.2514904, 38.9422481]}},
{"type": "Feature", "id": "VBAFGyvwPbqydGo0vadCRlLCHRY=", "properties": {"ref": "1158", "@spider": "insomnia_cookies", "shop": "pastry", "addr:full": "2100 Sam Houston Ave, Huntsville, TX, 77340", "name": "Huntsville, TX", "phone": "(256) 666-2581", "brand": "Insomnia Cookies", "brand:wikidata": "Q16997024", "nsi_id": "insomniacookies-64e364"}, "geometry": {"type": "Point", "coordinates": [-95.5519252, 30.7103375]}},
{"type": "Feature", "id": "phMhCpqW5hvI1mk02JYdcTVDkow=", "properties": {"ref": "1234", "@spider": "insomnia_cookies", "shop": "pastry", "addr:full": "2520 Rice Boulevard, Houston, TX, 77005", "name": "Houston, TX", "phone": "(346) 320-0969", "brand": "Insomnia Cookies", "brand:wikidata": "Q16997024", "nsi_id": "insomniacookies-64e364"}, "geometry": {"type": "Point", "coordinates": [-95.4176212, 29.7177275]}},
{"type": "Feature", "id": "jcbWEpvy_Bv367wsxQbrJybfiJ8=", "properties": {"ref": "1226", "@spider": "insomnia_cookies", "shop": "pastry", "addr:full": "2407 North Street, Suite 101, Nacogdoches, TX, 75965", "name": "Nacogdoches, TX", "phone": "(936) 342-0452", "brand": "Insomnia Cookies", "brand:wikidata": "Q16997024", "nsi_id": "insomniacookies-64e364"}, "geometry": {"type": "Point", "coordinates": [-94.6527037, 31.6251569]}},
{"type": "Feature", "id": "mC_uHD1GScKZEygun1sZ5E0K8EU=", "properties": {"ref": "1212", "@spider": "insomnia_cookies", "shop": "pastry", "addr:full": "305 5th Avenue South, Suite 105, Saint Cloud, MN, 56301", "name": "St. Cloud, MN", "phone": "(320) 314-7320", "brand": "Insomnia Cookies", "brand:wikidata": "Q16997024", "nsi_id": "insomniacookies-64e364"}, "geometry": {"type": "Point", "coordinates": [-94.1557964, 45.5580096]}},
{"type": "Feature", "id": "D8yHL3GHSsue8Dgl4uHs8ThpXdY=", "properties": {"ref": "2041", "@spider": "insomnia_cookies", "shop": "pastry", "addr:full": "405 Court Ave., Des Moines, IA, 50309", "name": "Des Moines, IA", "phone": "(515) 478-3475", "brand": "Insomnia Cookies", "brand:wikidata": "Q16997024", "nsi_id": "insomniacookies-64e364"}, "geometry": {"type": "Point", "coordinates": [-93.6220345, 41.5851074]}},
{"type": "Feature", "id": "iie1o39pqeYJ1HERrPy1oLw6vcc=", "properties": {"ref": "1120", "@spider": "insomnia_cookies", "shop": "pastry", "addr:full": "505 Westport Rd, Kansas City, MO, 64111", "name": "Westport, Kansas City", "phone": "(816) 974-0671", "brand": "Insomnia Cookies", "brand:wikidata": "Q16997024", "nsi_id": "insomniacookies-64e364"}, "geometry": {"type": "Point", "coordinates": [-94.5915655, 39.0526223]}},
{"type": "Feature", "id": "l3s3Z3ckl3efbWDtiWzu3ZuMiQ4=", "properties": {"ref": "1152", "@spider": "insomnia_cookies", "shop": "pastry", "addr:full": "54 E 14th St, Kansas City, MO, 64106", "name": "Kansas City, MO", "phone": "(816) 281-1689", "brand": "Insomnia Cookies", "brand:wikidata": "Q16997024", "nsi_id": "insomniacookies-64e364"}, "geometry": {"type": "Point", "coordinates": [-94.5828, 39.0974121]}},
{"type": "Feature", "id": "f-AmmY7awBamBdHZkn4lHFWW6tU=", "properties": {"ref": "1070", "@spider": "insomnia_cookies", "shop": "pastry", "addr:full": "1600 Warren Street, Mankato, MN, 56001", "name": "Mankato, MN", "phone": "(507) 800-0139", "brand": "Insomnia Cookies", "brand:wikidata": "Q16997024", "nsi_id": "insomniacookies-64e364"}, "geometry": {"type": "Point", "coordinates": [-93.992865, 44.1457956]}},
{"type": "Feature", "id": "l8et6NiVaplw30qZBJZbTCniaLg=", "properties": {"ref": "1204", "@spider": "insomnia_cookies", "shop": "pastry", "addr:full": "609 W. Dickson Street, Suite 202, Fayetteville, AR, 72701", "name": "Fayetteville, AR", "phone": "(479) 888-2471", "brand": "Insomnia Cookies", "brand:wikidata": "Q16997024", "nsi_id": "insomniacookies-64e364"}, "geometry": {"type": "Point", "coordinates": [-94.1670372, 36.0660776]}},
{"type": "Feature", "id": "gSizOMA4EmhvlFZdaxYxqZ7nND0=", "properties": {"ref": "1094", "@spider": "insomnia_cookies", "shop": "pastry", "addr:full": "217 Welch Ave., Suite 102, Ames, IA, 50014", "name": "Ames, IA", "phone": "(515) 585-1076", "brand": "Insomnia Cookies", "brand:wikidata": "Q16997024", "nsi_id": "insomniacookies-64e364"}, "geometry": {"type": "Point", "coordinates": [-93.6505725, 42.0206898]}},
{"type": "Feature", "id": "6s-wRDmzBRbsgDa8z1uy9wsOh0k=", "properties": {"ref": "1077", "@spider": "insomnia_cookies", "shop": "pastry", "addr:full": "402 14th Avenue SE, Minneapolis, MN, 55414", "name": "Dinkytown, Minneapolis", "phone": "(612) 260-9401", "brand": "Insomnia Cookies", "brand:wikidata": "Q16997024", "nsi_id": "insomniacookies-64e364"}, "geometry": {"type": "Point", "coordinates": [-93.235478, 44.9806127]}},
{"type": "Feature", "id": "dj4Bwn1GHuA_jGjv0m1CXEALrrI=", "properties": {"ref": "1108", "@spider": "insomnia_cookies", "shop": "pastry", "addr:full": "401 S Kimbrough Ave, Suite 108, Springfield, MO, 65804", "name": "Springfield, MO", "phone": "(417) 228-8218", "brand": "Insomnia Cookies", "brand:wikidata": "Q16997024", "nsi_id": "insomniacookies-64e364"}, "geometry": {"type": "Point", "coordinates": [-93.2869552, 37.2064975]}},
{"type": "Feature", "id": "OV8WiZnHR4KZIsKYeIIJLXc8DHQ=", "properties": {"ref": "1113", "@spider": "insomnia_cookies", "shop": "pastry", "addr:full": "2202 College St, Cedar Falls, IA, 50613", "name": "Cedar Falls, IA", "phone": "(319) 774-8220", "brand": "Insomnia Cookies", "brand:wikidata": "Q16997024", "nsi_id": "insomniacookies-64e364"}, "geometry": {"type": "Point", "coordinates": [-92.4555857, 42.5175765]}},
{"type": "Feature", "id": "un6Nd3DAAglEGo8Yyd3IEceBVD8=", "properties": {"ref": "1123", "@spider": "insomnia_cookies", "shop": "pastry", "addr:full": "308 S 9th Street, Suite 113, Columbia, MO, 65201", "name": "Columbia, MO", "phone": "(573) 250-8124", "brand": "Insomnia Cookies", "brand:wikidata": "Q16997024", "nsi_id": "insomniacookies-64e364"}, "geometry": {"type": "Point", "coordinates": [-92.3271755, 38.9476308]}},
{"type": "Feature", "id": "qSOVYVVsVVRh3RAzT0VSeERrRxo=", "properties": {"ref": "2037", "@spider": "insomnia_cookies", "shop": "pastry", "addr:full": "125 East Washington Street, Iowa City, IA, 52240", "name": "Iowa City", "phone": "(319) 462-8317", "brand": "Insomnia Cookies", "brand:wikidata": "Q16997024", "nsi_id": "insomniacookies-64e364"}, "geometry": {"type": "Point", "coordinates": [-91.5335237, 41.6599229]}},
{"type": "Feature", "id": "z_XB-JWdxKH-SO18DQh-QVBs2Jw=", "properties": {"ref": "1110", "@spider": "insomnia_cookies", "shop": "pastry", "addr:full": "128 West Chimes St, Baton Rouge, LA, 70802", "name": "Baton Rouge, LA", "phone": "(225) 314-7150", "brand": "Insomnia Cookies", "brand:wikidata": "Q16997024", "nsi_id": "insomniacookies-64e364"}, "geometry": {"type": "Point", "coordinates": [-91.1771322, 30.417452]}},
{"type": "Feature", "id": "6msgK2VBJeos6JDjKwHRhOR-yKc=", "properties": {"ref": "1101", "@spider": "insomnia_cookies", "shop": "pastry", "addr:full": "226 N Euclid Ave, St Louis, MO, 63108", "name": "Central West End, St. Louis", "phone": "(314) 207-4144", "brand": "Insomnia Cookies", "brand:wikidata": "Q16997024", "nsi_id": "insomniacookies-64e364"}, "geometry": {"type": "Point", "coordinates": [-90.2613904, 38.6441574]}},
{"type": "Feature", "id": "ISuGUeV1kbMS32fgvn9tCAMZgxw=", "properties": {"ref": "1150", "@spider": "insomnia_cookies", "shop": "pastry", "addr:full": "1136 Washington Ave, St Louis, MO, 63101", "name": "Downtown St. Louis", "phone": "(314) 690-4022", "brand": "Insomnia Cookies", "brand:wikidata": "Q16997024", "nsi_id": "insomniacookies-64e364"}, "geometry": {"type": "Point", "coordinates": [-90.1964097, 38.6314347]}},
{"type": "Feature", "id": "JG7XvFAtOW5WpNuk477w4pin5h4=", "properties": {"ref": "1106", "@spider": "insomnia_cookies", "shop": "pastry", "addr:full": "6301 Delmar Blvd., St Louis, MO, 63130", "name": "Delmar Loop, St. Louis", "phone": "(314) 626-0675", "brand": "Insomnia Cookies", "brand:wikidata": "Q16997024", "nsi_id": "insomniacookies-64e364"}, "geometry": {"type": "Point", "coordinates": [-90.3027725, 38.6559935]}},
{"type": "Feature", "id": "mTl5bG3-lQMtwWqUWU8ng0GRqYk=", "properties": {"ref": "1224", "@spider": "insomnia_cookies", "shop": "pastry", "addr:full": "200 Beale Street, Suite C, Memphis, TN, 38103", "name": "Downtown Memphis, TN", "phone": "(901) 334-9358", "brand": "Insomnia Cookies", "brand:wikidata": "Q16997024", "nsi_id": "insomniacookies-64e364"}, "geometry": {"type": "Point", "coordinates": [-90.0511998, 35.1395728]}},
{"type": "Feature", "id": "dDhZYE7cMXL1KaFpWx20w_wuZJg=", "properties": {"ref": "1159", "@spider": "insomnia_cookies", "shop": "pastry", "addr:full": "545 S. Highland St., Memphis, TN, 38111", "name": "Memphis, TN", "phone": "(901) 254-8587", "brand": "Insomnia Cookies", "brand:wikidata": "Q16997024", "nsi_id": "insomniacookies-64e364"}, "geometry": {"type": "Point", "coordinates": [-89.9459669, 35.1166908]}},
{"type": "Feature", "id": "C0v4s2z7yzu3d8YSr0Peg7mgvHk=", "properties": {"ref": "1201", "@spider": "insomnia_cookies", "shop": "pastry", "addr:full": "7527 Maple Street, New Orleans, LA, 70118", "name": "New Orleans, LA", "phone": "(504) 867-7442", "brand": "Insomnia Cookies", "brand:wikidata": "Q16997024", "nsi_id": "insomniacookies-64e364"}, "geometry": {"type": "Point", "coordinates": [-90.128294, 29.941201]}},
{"type": "Feature", "id": "njtZfT-psp_yrflbV6q17CItlRU=", "properties": {"ref": "2048", "@spider": "insomnia_cookies", "shop": "pastry", "addr:full": "203 E. Lincoln Highway, Dekalb, IL, 60115", "name": "Dekalb, IL ", "phone": "(779) 220-0119", "brand": "Insomnia Cookies", "brand:wikidata": "Q16997024", "nsi_id": "insomniacookies-64e364"}, "geometry": {"type": "Point", "coordinates": [-88.7523436, 41.9303914]}},
{"type": "Feature", "id": "GRzSsy5gDQAAFjtVk3WpDLotz_E=", "properties": {"ref": "1118", "@spider": "insomnia_cookies", "shop": "pastry", "addr:full": "303 S Lamar Blvd, Oxford, MS, 38655", "name": "Oxford, MS", "phone": "(662) 546-1772", "brand": "Insomnia Cookies", "brand:wikidata": "Q16997024", "nsi_id": "insomniacookies-64e364"}, "geometry": {"type": "Point", "coordinates": [-89.5185923, 34.3653294]}},
{"type": "Feature", "id": "n-mq1ZoauB3FSat73h6NpXnUqZ4=", "properties": {"ref": "1142", "@spider": "insomnia_cookies", "shop": "pastry", "addr:full": "3205 Hardy St. Suite 10 , Hattiesburg, MS, 39401", "name": "Hattiesburg, MS", "phone": "(601) 714-2346", "brand": "Insomnia Cookies", "brand:wikidata": "Q16997024", "nsi_id": "insomniacookies-64e364"}, "geometry": {"type": "Point", "coordinates": [-89.3381732, 31.3252582]}},
{"type": "Feature", "id": "y7akG19tbQ78OLzoyYGHfn0Ujhc=", "properties": {"ref": "1129", "@spider": "insomnia_cookies", "shop": "pastry", "addr:full": "462 State Street, Madison, WI, 53703", "name": "Madison, WI", "phone": "(608) 719-3550", "brand": "Insomnia Cookies", "brand:wikidata": "Q16997024", "nsi_id": "insomniacookies-64e364"}, "geometry": {"type": "Point", "coordinates": [-89.3929455, 43.0749639]}},
{"type": "Feature", "id": "FANpGSKtH-g-5qm5Emr91w_t1NM=", "properties": {"ref": "1099", "@spider": "insomnia_cookies", "shop": "pastry", "addr:full": "117 E. Beaufort Street, Normal, IL, 61761", "name": "Normal, IL", "phone": "(309) 326-5814", "brand": "Insomnia Cookies", "brand:wikidata": "Q16997024", "nsi_id": "insomniacookies-64e364"}, "geometry": {"type": "Point", "coordinates": [-88.9832352, 40.50949]}},
{"type": "Feature", "id": "BcGBeObrl5CR6gHixAbQH8nVlaE=", "properties": {"ref": "1124", "@spider": "insomnia_cookies", "shop": "pastry", "addr:full": "704 South Illinois Ave, Carbondale, IL, 62901", "name": "Carbondale, IL", "phone": "(618) 614-5648", "brand": "Insomnia Cookies", "brand:wikidata": "Q16997024", "nsi_id": "insomniacookies-64e364"}, "geometry": {"type": "Point", "coordinates": [-89.2165561, 37.7206772]}},
{"type": "Feature", "id": "VGf8vEi94egtIs9SmhqYNQOLfcQ=", "properties": {"ref": "1117", "@spider": "insomnia_cookies", "shop": "pastry", "addr:full": "87 Cotton Mill Drive, STE 3, Starkville, MS, 39759", "name": "Starkville, MS", "phone": "(662) 546-1907", "brand": "Insomnia Cookies", "brand:wikidata": "Q16997024", "nsi_id": "insomniacookies-64e364"}, "geometry": {"type": "Point", "coordinates": [-88.804542, 33.455363]}},
{"type": "Feature", "id": "a3PcCm80zrmamsYDjErD2Ggf-K4=", "properties": {"ref": "1088", "@spider": "insomnia_cookies", "shop": "pastry", "addr:full": "547 High Avenue , Oshkosh, WI, 54901", "name": "Oshkosh, WI", "phone": "(920) 349-1551", "brand": "Insomnia Cookies", "brand:wikidata": "Q16997024", "nsi_id": "insomniacookies-64e364"}, "geometry": {"type": "Point", "coordinates": [-88.5466341, 44.021124]}},
{"type": "Feature", "id": "nHAXL2virbJ3f5CV6ds51JfXi8E=", "properties": {"ref": "7", "@spider": "insomnia_cookies", "shop": "pastry", "addr:full": "502 E John Street, Champaign, IL, 61820", "name": "Champaign, IL", "phone": "(217) 284-6172", "brand": "Insomnia Cookies", "brand:wikidata": "Q16997024", "nsi_id": "insomniacookies-64e364"}, "geometry": {"type": "Point", "coordinates": [-88.231551, 40.1092224]}},
{"type": "Feature", "id": "hkM9WwLEH8XZh03mpmwSeh0hsfA=", "properties": {"ref": "1242", "@spider": "insomnia_cookies", "shop": "pastry", "addr:full": "5753 Old Shell Road, Suite 102-B, Mobile, AL, 36608", "name": "Mobile, AL", "phone": "(251) 472-9716", "brand": "Insomnia Cookies", "brand:wikidata": "Q16997024", "nsi_id": "insomniacookies-64e364"}, "geometry": {"type": "Point", "coordinates": [-88.1751638, 30.6889693]}},
{"type": "Feature", "id": "rckM3t-3XE8PrAYDIYeUIcIsp2Y=", "properties": {"ref": "1237", "@spider": "insomnia_cookies", "shop": "pastry", "addr:full": "1133 N Old World 3rd Street, Milwaukee, WI, 53203", "name": "Milwaukee Old World", "phone": "(414) 455-0921", "brand": "Insomnia Cookies", "brand:wikidata": "Q16997024", "nsi_id": "insomniacookies-64e364"}, "geometry": {"type": "Point", "coordinates": [-87.9147291, 43.0450769]}},
{"type": "Feature", "id": "JYO--V6rKdqrIqzIVYy-FgYSybE=", "properties": {"ref": "1187", "@spider": "insomnia_cookies", "shop": "pastry", "addr:full": "2217 S. Kinnickinnic Ave. , Milwaukee, WI, 53207", "name": "Bay View, Milwaukee", "phone": "(414) 312-5349", "brand": "Insomnia Cookies", "brand:wikidata": "Q16997024", "nsi_id": "insomniacookies-64e364"}, "geometry": {"type": "Point", "coordinates": [-87.9054405, 43.0040941]}},
{"type": "Feature", "id": "yDYDuygdMaj7x1kTcZ9Sse8cm5E=", "properties": {"ref": "1140", "@spider": "insomnia_cookies", "shop": "pastry", "addr:full": "1804 E North Ave, Milwaukee, WI, 53202", "name": "Milwaukee, WI", "phone": "(414) 240-1647", "brand": "Insomnia Cookies", "brand:wikidata": "Q16997024", "nsi_id": "insomniacookies-64e364"}, "geometry": {"type": "Point", "coordinates": [-87.887739, 43.060355]}},
{"type": "Feature", "id": "250j7Byl3R4LebqkTeFPorcstUk=", "properties": {"ref": "2073", "@spider": "insomnia_cookies", "shop": "pastry", "addr:full": "1335 W. Taylor St. , Chicago, IL, 60607", "name": "Taylor Street, Chicago", "brand": "Insomnia Cookies", "brand:wikidata": "Q16997024", "nsi_id": "insomniacookies-64e364"}, "geometry": {"type": "Point", "coordinates": [-87.6604371, 41.8691338]}},
{"type": "Feature", "id": "sM1_2FD7xVXnU3yS-tIG-CTi4zo=", "properties": {"ref": "1131", "@spider": "insomnia_cookies", "shop": "pastry", "addr:full": "1537 N Milwaukee Ave, Chicago, IL, 60622", "name": "Wicker Park, Chicago", "phone": "(773) 906-4880", "brand": "Insomnia Cookies", "brand:wikidata": "Q16997024", "nsi_id": "insomniacookies-64e364"}, "geometry": {"type": "Point", "coordinates": [-87.6757406, 41.9095513]}},
{"type": "Feature", "id": "O5GJbspsVmPelkT-gtbv8t-QzLE=", "properties": {"ref": "2029", "@spider": "insomnia_cookies", "shop": "pastry", "addr:full": "831 N Sedgwick St, Chicago, IL, 60610", "name": "River North, Chicago", "phone": "(312) 535-2558", "brand": "Insomnia Cookies", "brand:wikidata": "Q16997024", "nsi_id": "insomniacookies-64e364"}, "geometry": {"type": "Point", "coordinates": [-87.6385033, 41.8973543]}},
{"type": "Feature", "id": "PhYWLhsoc7CyX3HjSJ511a5gwOk=", "properties": {"ref": "2034", "@spider": "insomnia_cookies", "shop": "pastry", "addr:full": "636 S Wabash, Chicago, IL, 60605", "name": "South Loop, Chicago", "phone": "(708) 617-0327", "brand": "Insomnia Cookies", "brand:wikidata": "Q16997024", "nsi_id": "insomniacookies-64e364"}, "geometry": {"type": "Point", "coordinates": [-87.6264442, 41.8733604]}},
{"type": "Feature", "id": "Y-DBPq9VTKzazOiNnmLbDtFxDGQ=", "properties": {"ref": "1165", "@spider": "insomnia_cookies", "shop": "pastry", "addr:full": "1350 North Wells Street Suite 3, Chicago, IL, 60616", "name": "Old Town, Chicago", "phone": "(312) 471-0143", "brand": "Insomnia Cookies", "brand:wikidata": "Q16997024", "nsi_id": "insomniacookies-64e364"}, "geometry": {"type": "Point", "coordinates": [-87.6347514, 41.9069395]}},
{"type": "Feature", "id": "o7M9oTXJzVafX2H_6aR_Zuf6sKE=", "properties": {"ref": "46", "@spider": "insomnia_cookies", "shop": "pastry", "addr:full": "2260 North Lincoln Ave., Chicago, IL, 60614", "name": "Lincoln Park, Chicago", "phone": "(313) 509-1327", "brand": "Insomnia Cookies", "brand:wikidata": "Q16997024", "nsi_id": "insomniacookies-64e364"}, "geometry": {"type": "Point", "coordinates": [-87.6458453, 41.9231229]}},
{"type": "Feature", "id": "kV9Sj01IsRGXeSSRKl5WJ4UdOWs=", "properties": {"ref": "1149", "@spider": "insomnia_cookies", "shop": "pastry", "addr:full": "1105 E 55th St, Chicago, IL, 60615", "name": "Hyde Park, Chicago", "phone": "(845) 704-4214", "brand": "Insomnia Cookies", "brand:wikidata": "Q16997024", "nsi_id": "insomniacookies-64e364"}, "geometry": {"type": "Point", "coordinates": [-87.5989622, 41.7946253]}},
{"type": "Feature", "id": "Eu_2wwv8BxpVxzN4fTvQubdoi54=", "properties": {"ref": "1111", "@spider": "insomnia_cookies", "shop": "pastry", "addr:full": "6470 N Sheridan Rd, Chicago, IL, 60626", "name": "Rogers Park, Chicago", "phone": "(773) 839-4662", "brand": "Insomnia Cookies", "brand:wikidata": "Q16997024", "nsi_id": "insomniacookies-64e364"}, "geometry": {"type": "Point", "coordinates": [-87.6609355, 42.0001904]}},
{"type": "Feature", "id": "IqKNo-tvE1po2IpCDgxHYPcmhnA=", "properties": {"ref": "1170", "@spider": "insomnia_cookies", "shop": "pastry", "addr:full": "1725 N Sherman Ave, Evanston, IL, 60201", "name": "Evanston, IL", "phone": "(847) 260-9668", "brand": "Insomnia Cookies", "brand:wikidata": "Q16997024", "nsi_id": "insomniacookies-64e364"}, "geometry": {"type": "Point", "coordinates": [-87.6814438, 42.0493395]}},
{"type": "Feature", "id": "YwgKSJg9xwBuEO0KXmLLYFwVHoU=", "properties": {"ref": "1172", "@spider": "insomnia_cookies", "shop": "pastry", "addr:full": "647 Cherry Street, Terre Haute, IN, 47807", "name": "Terre Haute, IN", "phone": "(812) 618-1746", "brand": "Insomnia Cookies", "brand:wikidata": "Q16997024", "nsi_id": "insomniacookies-64e364"}, "geometry": {"type": "Point", "coordinates": [-87.4087735, 39.4673396]}},
{"type": "Feature", "id": "eWMMPVawCkiLpf0bd7_149LHkfM=", "properties": {"ref": "1154", "@spider": "insomnia_cookies", "shop": "pastry", "addr:full": "1130 University Blvd. Unit A-4, Tuscaloosa, AL, 35401", "name": "Tuscaloosa, AL", "phone": "(205) 509-1565", "brand": "Insomnia Cookies", "brand:wikidata": "Q16997024", "nsi_id": "insomniacookies-64e364"}, "geometry": {"type": "Point", "coordinates": [-87.5523133, 33.2109714]}},
{"type": "Feature", "id": "aBTnV19_LAS_-Mz-ClcYKF4WqeY=", "properties": {"ref": "2057", "@spider": "insomnia_cookies", "shop": "pastry", "addr:full": "318 Main Street Suite 100 , Evansville, IN, 47708", "name": "Evansville, IN ", "phone": "(930) 500-4814", "brand": "Insomnia Cookies", "brand:wikidata": "Q16997024", "nsi_id": "insomniacookies-64e364"}, "geometry": {"type": "Point", "coordinates": [-87.5715752, 37.9715793]}},
{"type": "Feature", "id": "wzA2Dl3fpxnofmQyxeWkBu8crAg=", "properties": {"ref": "17", "@spider": "insomnia_cookies", "shop": "pastry", "addr:full": "602 W Stadium Avenue, West Lafayette, IN, 47906", "name": "West Lafayette, IN", "phone": "(765) 587-3319", "brand": "Insomnia Cookies", "brand:wikidata": "Q16997024", "nsi_id": "insomniacookies-64e364"}, "geometry": {"type": "Point", "coordinates": [-86.9130068, 40.4315793]}},
{"type": "Feature", "id": "bff-sn8pVs2t08aYHd3IX_1lykE=", "properties": {"ref": "1102", "@spider": "insomnia_cookies", "shop": "pastry", "addr:full": "1919 11th Ave South, Suite 200, Birmingham, AL, 35205", "name": "Birmingham, AL", "phone": "(205) 236-9540", "brand": "Insomnia Cookies", "brand:wikidata": "Q16997024", "nsi_id": "insomniacookies-64e364"}, "geometry": {"type": "Point", "coordinates": [-86.7967772, 33.5001391]}},
{"type": "Feature", "id": "OTsYXFbxYaBseeGNceU-v58Otcw=", "properties": {"ref": "1198", "@spider": "insomnia_cookies", "shop": "pastry", "addr:full": "2130 South Bend Ave, South Bend, IN, 46637", "name": "South Bend, IN", "phone": "(574) 207-4154", "brand": "Insomnia Cookies", "brand:wikidata": "Q16997024", "nsi_id": "insomniacookies-64e364"}, "geometry": {"type": "Point", "coordinates": [-86.2174247, 41.6989516]}},
{"type": "Feature", "id": "TEDaw3bJ0qGu_ZetFooMmt-7cBM=", "properties": {"ref": "2005", "@spider": "insomnia_cookies", "shop": "pastry", "addr:full": "430 E Kirkwood Ave, Bloomington, IN, 47408", "name": "Bloomington, IN", "phone": "(463) 999-1817", "brand": "Insomnia Cookies", "brand:wikidata": "Q16997024", "nsi_id": "insomniacookies-64e364"}, "geometry": {"type": "Point", "coordinates": [-86.5285074, 39.166235]}},
{"type": "Feature", "id": "13njAV9B0y5eeo9Ig2Xr-lUCo_M=", "properties": {"ref": "2046", "@spider": "insomnia_cookies", "shop": "pastry", "addr:full": "422 A East Main Avenue, Bowling Green, KY, 42101", "name": "Western KY ", "phone": "(270) 238-0173", "brand": "Insomnia Cookies", "brand:wikidata": "Q16997024", "nsi_id": "insomniacookies-64e364"}, "geometry": {"type": "Point", "coordinates": [-86.4408436, 36.9935511]}},
{"type": "Feature", "id": "HEsyKwXQgP7EoKL806CMXLAWSrQ=", "properties": {"ref": "1205", "@spider": "insomnia_cookies", "shop": "pastry", "addr:full": "10745 48th Ave., Suite A-100, Allendale, MI, 49401", "name": "Allendale, MI", "phone": "(616) 239-3217", "brand": "Insomnia Cookies", "brand:wikidata": "Q16997024", "nsi_id": "insomniacookies-64e364"}, "geometry": {"type": "Point", "coordinates": [-85.9068135, 42.9641099]}},
{"type": "Feature", "id": "blsJlErx-jM5hgbrv-86TPBeUfE=", "properties": {"ref": "2061", "@spider": "insomnia_cookies", "shop": "pastry", "addr:full": "917 Indiana Ave.,  Indianapolis, IN, 46202", "name": "Indianapolis, IUPUI Coming Soon!", "phone": "(463) 212-7475", "brand": "Insomnia Cookies", "brand:wikidata": "Q16997024", "nsi_id": "insomniacookies-64e364"}, "geometry": {"type": "Point", "coordinates": [-86.172434, 39.7799155]}},
{"type": "Feature", "id": "luPHnxP8FLlULMhr0ruCROXgiVI=", "properties": {"ref": "29", "@spider": "insomnia_cookies", "shop": "pastry", "addr:full": "809 Broad Ripple Ave., Indianapolis, IN, 46220", "name": "Broad Ripple, Indianapolis", "phone": "(317) 427-6391", "brand": "Insomnia Cookies", "brand:wikidata": "Q16997024", "nsi_id": "insomniacookies-64e364"}, "geometry": {"type": "Point", "coordinates": [-86.1444776, 39.8695699]}},
{"type": "Feature", "id": "Gbq_vIOq7Fxkpc-8yP6aYjR3pQM=", "properties": {"ref": "1241", "@spider": "insomnia_cookies", "shop": "pastry", "addr:full": "44 Ionia Avenue SW , Grand Rapids , MI, 49503", "name": "Grand Rapids, MI", "phone": "(231) 903-0172", "brand": "Insomnia Cookies", "brand:wikidata": "Q16997024", "nsi_id": "insomniacookies-64e364"}, "geometry": {"type": "Point", "coordinates": [-85.6698614, 42.9619904]}},
{"type": "Feature", "id": "s5z5tXkQWXKQ8GZXaiyUnHPRSCU=", "properties": {"ref": "44", "@spider": "insomnia_cookies", "shop": "pastry", "addr:full": "2905 Howard Street, Kalamazoo, MI, 49006", "name": "Kalamazoo, MI", "phone": "(269) 220-6433", "brand": "Insomnia Cookies", "brand:wikidata": "Q16997024", "nsi_id": "insomniacookies-64e364"}, "geometry": {"type": "Point", "coordinates": [-85.622771, 42.2823484]}},
{"type": "Feature", "id": "DDCCANLLfoiWLMRn5JAB2SNWlWo=", "properties": {"ref": "2027", "@spider": "insomnia_cookies", "shop": "pastry", "addr:full": "948 Baxter Ave, Louisville, KY, 40202", "name": "Louisville Highlands", "phone": "(502) 665-0237", "brand": "Insomnia Cookies", "brand:wikidata": "Q16997024", "nsi_id": "insomniacookies-64e364"}, "geometry": {"type": "Point", "coordinates": [-85.7251362, 38.2409025]}},
{"type": "Feature", "id": "tcQCta05qRh4J9dJlxpdbvYiHgQ=", "properties": {"ref": "1078", "@spider": "insomnia_cookies", "shop": "pastry", "addr:full": "1913 South 4th Street, Louisville, KY, 40208", "name": "Louisville, KY", "phone": "(502) 385-5143", "brand": "Insomnia Cookies", "brand:wikidata": "Q16997024", "nsi_id": "insomniacookies-64e364"}, "geometry": {"type": "Point", "coordinates": [-85.7626086, 38.2201625]}},
{"type": "Feature", "id": "k6iaaJSCMDCgp9EMr-TvOBvFD60=", "properties": {"ref": "1218", "@spider": "insomnia_cookies", "shop": "pastry", "addr:full": "181 N. College Street, Auburn, AL, 36830", "name": "Auburn, AL", "phone": "(334) 649-6263", "brand": "Insomnia Cookies", "brand:wikidata": "Q16997024", "nsi_id": "insomniacookies-64e364"}, "geometry": {"type": "Point", "coordinates": [-85.4817258, 32.6087926]}},
{"type": "Feature", "id": "vXtSq118zhuu-DTo_a9P8YOd44o=", "properties": {"ref": "2039", "@spider": "insomnia_cookies", "shop": "pastry", "addr:full": "840 S. Calhoun Street, Fort Wayne, IN, 46802", "name": "Fort Wayne, IN", "phone": "(260) 333-5101", "brand": "Insomnia Cookies", "brand:wikidata": "Q16997024", "nsi_id": "insomniacookies-64e364"}, "geometry": {"type": "Point", "coordinates": [-85.1400517, 41.0783785]}},
{"type": "Feature", "id": "QH8sZa6dJWxWEJ5bZYxIPMlwAGg=", "properties": {"ref": "43", "@spider": "insomnia_cookies", "shop": "pastry", "addr:full": "1622 West University Avenue, Muncie, IN, 47303", "name": "Muncie, IN", "phone": "(765) 551-4377", "brand": "Insomnia Cookies", "brand:wikidata": "Q16997024", "nsi_id": "insomniacookies-64e364"}, "geometry": {"type": "Point", "coordinates": [-85.4054307, 40.1977771]}},
{"type": "Feature", "id": "Eu_K1lLm0PuRlfrOLawuhu8a8_s=", "properties": {"ref": "1076", "@spider": "insomnia_cookies", "shop": "pastry", "addr:full": "1620 S. Mission Street, Mt. Pleasant, MI, 48858", "name": "Mt. Pleasant, MI", "phone": "(989) 912-7509", "brand": "Insomnia Cookies", "brand:wikidata": "Q16997024", "nsi_id": "insomniacookies-64e364"}, "geometry": {"type": "Point", "coordinates": [-84.768316, 43.5860673]}},
{"type": "Feature", "id": "GxoYdVCSOMNLgx1jbbjXiVT3jMc=", "properties": {"ref": "15", "@spider": "insomnia_cookies", "shop": "pastry", "addr:full": "603 E Grand River Avenue, East Lansing, MI, 48823", "name": "East Lansing, MI", "phone": "(517) 418-6072", "brand": "Insomnia Cookies", "brand:wikidata": "Q16997024", "nsi_id": "insomniacookies-64e364"}, "geometry": {"type": "Point", "coordinates": [-84.4762024, 42.7334655]}},
{"type": "Feature", "id": "gob4AXuoPgP5yPGEU70dfi-y8-o=", "properties": {"ref": "1074", "@spider": "insomnia_cookies", "shop": "pastry", "addr:full": "33 East High Street, Oxford, OH, 45056", "name": "Oxford, OH", "phone": "(513) 780-5120", "brand": "Insomnia Cookies", "brand:wikidata": "Q16997024", "nsi_id": "insomniacookies-64e364"}, "geometry": {"type": "Point", "coordinates": [-84.7413605, 39.5102142]}},
{"type": "Feature", "id": "xDPsZd8T3MlQ6ntNIPEZ57XAKlM=", "properties": {"ref": "1098", "@spider": "insomnia_cookies", "shop": "pastry", "addr:full": "216 Calhoun St, Cincinnati, OH, 45219", "name": "Cincinnati, OH", "phone": "(513) 434-3781", "brand": "Insomnia Cookies", "brand:wikidata": "Q16997024", "nsi_id": "insomniacookies-64e364"}, "geometry": {"type": "Point", "coordinates": [-84.515671, 39.1284297]}},
{"type": "Feature", "id": "Xabs1CNkCuDLLl-ZYDZPblsh3Kc=", "properties": {"ref": "1233", "@spider": "insomnia_cookies", "shop": "pastry", "addr:full": "112 East Main Street, Richmond, KY, 40475", "name": "Richmond, KY", "phone": "(859) 757-0266", "brand": "Insomnia Cookies", "brand:wikidata": "Q16997024", "nsi_id": "insomniacookies-64e364"}, "geometry": {"type": "Point", "coordinates": [-84.2939103, 37.7470954]}},
{"type": "Feature", "id": "Ga1XpYJXfN-5IDe8eEuktV5UU2k=", "properties": {"ref": "2001", "@spider": "insomnia_cookies", "shop": "pastry", "addr:full": "1133 Chastain Road NW, Suite 600, Kennesaw, GA, 30144", "name": "Kennesaw, GA", "phone": "(470) 437-4192", "brand": "Insomnia Cookies", "brand:wikidata": "Q16997024", "nsi_id": "insomniacookies-64e364"}, "geometry": {"type": "Point", "coordinates": [-84.582522, 34.0302647]}},
{"type": "Feature", "id": "3TPnem5Bu4K6vfVDjtzwNSzHKC4=", "properties": {"ref": "1116", "@spider": "insomnia_cookies", "shop": "pastry", "addr:full": "1525 West Tennessee Street, Tallahassee, FL, 32303", "name": "Tallahassee, FL", "phone": "(850) 391-6773", "brand": "Insomnia Cookies", "brand:wikidata": "Q16997024", "nsi_id": "insomniacookies-64e364"}, "geometry": {"type": "Point", "coordinates": [-84.3073167, 30.448663]}},
{"type": "Feature", "id": "XBKcKej0vWXB7QfPOEmjpg80qhI=", "properties": {"ref": "2060", "@spider": "insomnia_cookies", "shop": "pastry", "addr:full": "6 Oakwood Ave, Dayton, OH, 45409", "name": "Dayton, OH", "phone": "(937) 709-0794", "brand": "Insomnia Cookies", "brand:wikidata": "Q16997024", "nsi_id": "insomniacookies-64e364"}, "geometry": {"type": "Point", "coordinates": [-84.1798252, 39.7330857]}},
{"type": "Feature", "id": "zeKClU5kuY5KwbOgJWpWM-Wne3E=", "properties": {"ref": "1244", "@spider": "insomnia_cookies", "shop": "pastry", "addr:full": "1126 Main Street, Cincinnati, OH, 45202", "name": "Downtown Cincinnati", "phone": "(513) 448-0925", "brand": "Insomnia Cookies", "brand:wikidata": "Q16997024", "nsi_id": "insomniacookies-64e364"}, "geometry": {"type": "Point", "coordinates": [-84.5111791, 39.108629]}},
{"type": "Feature", "id": "-AQCjCtazQpzWosuol8SxCMBlS0=", "properties": {"ref": "1104", "@spider": "insomnia_cookies", "shop": "pastry", "addr:full": "433 Jersey St, Lexington, KY, 40508", "name": "Lexington, KY", "phone": "(859) 654-0653", "brand": "Insomnia Cookies", "brand:wikidata": "Q16997024", "nsi_id": "insomniacookies-64e364"}, "geometry": {"type": "Point", "coordinates": [-84.5028108, 38.0432112]}},
{"type": "Feature", "id": "hq3IizalQq_tGteSV_xQbXEMTUs=", "properties": {"ref": "1213", "@spider": "insomnia_cookies", "shop": "pastry", "addr:full": "1271 Glenwood Ave SE, Atlanta, GA, 30316", "name": "East Atlanta, GA", "phone": "(470) 375-1340", "brand": "Insomnia Cookies", "brand:wikidata": "Q16997024", "nsi_id": "insomniacookies-64e364"}, "geometry": {"type": "Point", "coordinates": [-84.3459272, 33.7399618]}},
{"type": "Feature", "id": "6lzwI-vfXok1VG6qEpwciPc0Ehk=", "properties": {"ref": "2022", "@spider": "insomnia_cookies", "shop": "pastry", "addr:full": "619 Edgewood Ave SE, Suite 103, Atlanta, GA, 30312", "name": "Edgewood, Atlanta", "phone": "(470) 668-4007", "brand": "Insomnia Cookies", "brand:wikidata": "Q16997024", "nsi_id": "insomniacookies-64e364"}, "geometry": {"type": "Point", "coordinates": [-84.3670444, 33.7541126]}},
{"type": "Feature", "id": "D4JLb7HjiWu0B1E3_9fDztwGQqk=", "properties": {"ref": "1192", "@spider": "insomnia_cookies", "shop": "pastry", "addr:full": "700 Cleburne Terrace, Unit 2F, Atlanta, GA, 30306", "name": "Poncey Highlands, Atlanta", "phone": "(678) 304-6518", "brand": "Insomnia Cookies", "brand:wikidata": "Q16997024", "nsi_id": "insomniacookies-64e364"}, "geometry": {"type": "Point", "coordinates": [-84.3536861, 33.7735618]}},
{"type": "Feature", "id": "3BA9W03dak3SEE2WIcOBeMDFWH8=", "properties": {"ref": "1119", "@spider": "insomnia_cookies", "shop": "pastry", "addr:full": "930 Spring Street NW, Atlanta, GA, 30309", "name": "Midtown, Atlanta", "phone": "(404) 649-0167", "brand": "Insomnia Cookies", "brand:wikidata": "Q16997024", "nsi_id": "insomniacookies-64e364"}, "geometry": {"type": "Point", "coordinates": [-84.389518, 33.7799549]}},
{"type": "Feature", "id": "VFnNoJOurvvjWkFoGImhA273Mz8=", "properties": {"ref": "1089", "@spider": "insomnia_cookies", "shop": "pastry", "addr:full": "2121 Cumberland Ave, Suite 103, Knoxville, TN, 37916", "name": "Knoxville, TN", "phone": "(865) 205-9875", "brand": "Insomnia Cookies", "brand:wikidata": "Q16997024", "nsi_id": "insomniacookies-64e364"}, "geometry": {"type": "Point", "coordinates": [-83.9385233, 35.9545436]}},
{"type": "Feature", "id": "Oy2_EDsswNLEkus3kZT4KVA_pn4=", "properties": {"ref": "35", "@spider": "insomnia_cookies", "shop": "pastry", "addr:full": "1229 South University Avenue, Ann Arbor, MI, 48104", "name": "Ann Arbor, MI", "phone": "(734) 636-2891", "brand": "Insomnia Cookies", "brand:wikidata": "Q16997024", "nsi_id": "insomniacookies-64e364"}, "geometry": {"type": "Point", "coordinates": [-83.7335441, 42.2751322]}},
{"type": "Feature", "id": "KgozQi1xkrDrrmKAz8TfiFMEZtU=", "properties": {"ref": "47", "@spider": "insomnia_cookies", "shop": "pastry", "addr:full": "733 West Cross St., Ypsilanti, MI, 48197", "name": "Ypsilanti, MI", "phone": "(734) 237-3669", "brand": "Insomnia Cookies", "brand:wikidata": "Q16997024", "nsi_id": "insomniacookies-64e364"}, "geometry": {"type": "Point", "coordinates": [-83.6231591, 42.245599]}},
{"type": "Feature", "id": "0Ik_3BL8F4-Dmudm_iZd37m7YUs=", "properties": {"ref": "40", "@spider": "insomnia_cookies", "shop": "pastry", "addr:full": "143 E Wooster Street, Bowling Green, OH, 43402", "name": "Bowling Green, OH", "phone": "(270) 594-6171", "brand": "Insomnia Cookies", "brand:wikidata": "Q16997024", "nsi_id": "insomniacookies-64e364"}, "geometry": {"type": "Point", "coordinates": [-83.6494935, 41.3751149]}},
{"type": "Feature", "id": "wEaCMcX5AtkMnyRKNXFd0k-ajbs=", "properties": {"ref": "2043", "@spider": "insomnia_cookies", "shop": "pastry", "addr:full": "1440 Secor Road, Suite E, Toledo, OH, 43607", "name": "Toledo, OH", "phone": "(567) 215-0119", "brand": "Insomnia Cookies", "brand:wikidata": "Q16997024", "nsi_id": "insomniacookies-64e364"}, "geometry": {"type": "Point", "coordinates": [-83.6215179, 41.6537477]}},
{"type": "Feature", "id": "xLXRZqROr0i_sKnMwpGyQHYU7yc=", "properties": {"ref": "1069", "@spider": "insomnia_cookies", "shop": "pastry", "addr:full": "228 E Clayton St, Athens, GA, 30601", "name": "Athens, GA", "phone": "(706) 623-6277", "brand": "Insomnia Cookies", "brand:wikidata": "Q16997024", "nsi_id": "insomniacookies-64e364"}, "geometry": {"type": "Point", "coordinates": [-83.3750679, 33.9584389]}},
{"type": "Feature", "id": "0NNGaW9mRJ-AMfcX3XJXdOaCT7E=", "properties": {"ref": "2056", "@spider": "insomnia_cookies", "shop": "pastry", "addr:full": "5171 Anthony Wayne Drive, Detroit, MI, 48202", "name": "Detroit Wayne State ", "phone": "(313) 261-6035", "brand": "Insomnia Cookies", "brand:wikidata": "Q16997024", "nsi_id": "insomniacookies-64e364"}, "geometry": {"type": "Point", "coordinates": [-83.072867, 42.356423]}},
{"type": "Feature", "id": "9WyhGivmY4kptXfw8vq9QIkFyDs=", "properties": {"ref": "2049", "@spider": "insomnia_cookies", "shop": "pastry", "addr:full": "749 N. High Street, Columbus, OH, 43215", "name": "Columbus Short North", "phone": "(380) 201-7129", "brand": "Insomnia Cookies", "brand:wikidata": "Q16997024", "nsi_id": "insomniacookies-64e364"}, "geometry": {"type": "Point", "coordinates": [-83.0038752, 39.9777361]}},
{"type": "Feature", "id": "3fhtsLyNIuP4rR7nXDfCKokTpLk=", "properties": {"ref": "18", "@spider": "insomnia_cookies", "shop": "pastry", "addr:full": "2209 N. High St., Columbus, OH, 43201", "name": "Columbus, OH", "phone": "(614) 699-2974", "brand": "Insomnia Cookies", "brand:wikidata": "Q16997024", "nsi_id": "insomniacookies-64e364"}, "geometry": {"type": "Point", "coordinates": [-83.0096142, 40.0073735]}},
{"type": "Feature", "id": "ZVAeE_Dfz82xnc9MY3eQbALg0-4=", "properties": {"ref": "1185", "@spider": "insomnia_cookies", "shop": "pastry", "addr:full": "102 Fendley Street, Suite A, Clemson, SC, 29631", "name": "Clemson, SC", "phone": "(864) 835-8960", "brand": "Insomnia Cookies", "brand:wikidata": "Q16997024", "nsi_id": "insomniacookies-64e364"}, "geometry": {"type": "Point", "coordinates": [-82.8357256, 34.6836481]}},
{"type": "Feature", "id": "KGTZm8o-rePTt31mEjFSxkXZwgs=", "properties": {"ref": "1240", "@spider": "insomnia_cookies", "shop": "pastry", "addr:full": "12 E Broad Street, Suite 6A, Greenville, SC, 29601", "name": "Greenville, SC", "phone": "(803) 560-8123", "brand": "Insomnia Cookies", "brand:wikidata": "Q16997024", "nsi_id": "insomniacookies-64e364"}, "geometry": {"type": "Point", "coordinates": [-82.4001843, 34.8464473]}},
{"type": "Feature", "id": "EvEIEE4HM4rxSGGDlViD6PPsLEA=", "properties": {"ref": "2002", "@spider": "insomnia_cookies", "shop": "pastry", "addr:full": "5114 East Fowler Avenue, Suite 102, Tampa, FL, 33617", "name": "Tampa, USF", "phone": "(813) 819-0691", "brand": "Insomnia Cookies", "brand:wikidata": "Q16997024", "nsi_id": "insomniacookies-64e364"}, "geometry": {"type": "Point", "coordinates": [-82.3992308, 28.0548649]}},
{"type": "Feature", "id": "Scw4A2_Zd_pBzXIVKYwlJLNQBVg=", "properties": {"ref": "2013", "@spider": "insomnia_cookies", "shop": "pastry", "addr:full": "533 S Howard Ave, Tampa, FL, 33606", "name": "Tampa, South Howard", "phone": "(321) 758-8762", "brand": "Insomnia Cookies", "brand:wikidata": "Q16997024", "nsi_id": "insomniacookies-64e364"}, "geometry": {"type": "Point", "coordinates": [-82.4834192, 27.9396713]}},
{"type": "Feature", "id": "_2fEqpWBeoXDcOE3XXcSVF_q8LI=", "properties": {"ref": "34", "@spider": "insomnia_cookies", "shop": "pastry", "addr:full": "27 N Court St., Athens, OH, 45701", "name": "Athens, OH", "phone": "(740) 313-4361", "brand": "Insomnia Cookies", "brand:wikidata": "Q16997024", "nsi_id": "insomniacookies-64e364"}, "geometry": {"type": "Point", "coordinates": [-82.1012264, 39.3301059]}},
{"type": "Feature", "id": "L2dgChDRcl_cVEwGm8lkG7oaDRg=", "properties": {"ref": "2007", "@spider": "insomnia_cookies", "shop": "pastry", "addr:full": "1702 W University Avenue, Suite B1, Gainesville, FL, 32603", "name": "Gainesville, FL", "phone": "(305) 428-7482", "brand": "Insomnia Cookies", "brand:wikidata": "Q16997024", "nsi_id": "insomniacookies-64e364"}, "geometry": {"type": "Point", "coordinates": [-82.345129, 29.6524179]}},
{"type": "Feature", "id": "iePKeTeiA5k74U-l3oT4MhvDv80=", "properties": {"ref": "1179", "@spider": "insomnia_cookies", "shop": "pastry", "addr:full": "18508 Detroit Ave., Lakewood, OH, 44107", "name": "Lakewood, OH", "phone": "(216) 586-6313", "brand": "Insomnia Cookies", "brand:wikidata": "Q16997024", "nsi_id": "insomniacookies-64e364"}, "geometry": {"type": "Point", "coordinates": [-81.8271433, 41.4821713]}},
{"type": "Feature", "id": "t23aoZcuCQarHzpiu7ZEzH4fpU8=", "properties": {"ref": "1139", "@spider": "insomnia_cookies", "shop": "pastry", "addr:full": "1224 W 6th St, Cleveland, OH, 44113", "name": "Cleveland, OH", "phone": "(216) 208-6664", "brand": "Insomnia Cookies", "brand:wikidata": "Q16997024", "nsi_id": "insomniacookies-64e364"}, "geometry": {"type": "Point", "coordinates": [-81.6999447, 41.5008421]}},
{"type": "Feature", "id": "wpFGY5E6apzUeZ_6OIlRVv96DfE=", "properties": {"ref": "1232", "@spider": "insomnia_cookies", "shop": "pastry", "addr:full": "11308 Euclid Avenue , Cleveland, OH, 44106", "name": "Cleveland East", "phone": "(216) 404-2741", "brand": "Insomnia Cookies", "brand:wikidata": "Q16997024", "nsi_id": "insomniacookies-64e364"}, "geometry": {"type": "Point", "coordinates": [-81.605767, 41.508255]}},
{"type": "Feature", "id": "DYbNkhi2mY0FMnAMjaGuSFzl4TQ=", "properties": {"ref": "1126", "@spider": "insomnia_cookies", "shop": "pastry", "addr:full": "128 Appalachian St, Unit A, Boone, NC, 28607", "name": "Boone, NC", "phone": "(828) 970-1437", "brand": "Insomnia Cookies", "brand:wikidata": "Q16997024", "nsi_id": "insomniacookies-64e364"}, "geometry": {"type": "Point", "coordinates": [-81.6824512, 36.2173399]}},
{"type": "Feature", "id": "syN71CLTNsPfLABT_mfTg64Rx4c=", "properties": {"ref": "2068", "@spider": "insomnia_cookies", "shop": "pastry", "addr:full": "19800 Village Center Drive Suite 230-B , Ft. Myers, FL, 33913", "name": "Fort Myers, FL Coming Soon!", "phone": "(239) 324-0820", "brand": "Insomnia Cookies", "brand:wikidata": "Q16997024", "nsi_id": "insomniacookies-64e364"}, "geometry": {"type": "Point", "coordinates": [-81.7735569, 26.4521627]}},
{"type": "Feature", "id": "EnxSJxi27jSdKwe8ae75EWBs3Bw=", "properties": {"ref": "38", "@spider": "insomnia_cookies", "shop": "pastry", "addr:full": "367 South Main St., Akron, OH, 44308", "name": "Akron, OH", "phone": "(330) 529-5612", "brand": "Insomnia Cookies", "brand:wikidata": "Q16997024", "nsi_id": "insomniacookies-64e364"}, "geometry": {"type": "Point", "coordinates": [-81.5222394, 41.0759582]}},
{"type": "Feature", "id": "W-b5Z-ADZvVxMwdhAInVaQadyVM=", "properties": {"ref": "39", "@spider": "insomnia_cookies", "shop": "pastry", "addr:full": "295 South Water Street, Kent, OH, 44240", "name": "Kent, OH", "phone": "(330) 694-7024", "brand": "Insomnia Cookies", "brand:wikidata": "Q16997024", "nsi_id": "insomniacookies-64e364"}, "geometry": {"type": "Point", "coordinates": [-81.3578875, 41.1519374]}},
{"type": "Feature", "id": "cUZJEzcuqfQnL7E0hRPmpdu99nk=", "properties": {"ref": "1157", "@spider": "insomnia_cookies", "shop": "pastry", "addr:full": "1550 Chandler Rd, Unit B, Statesboro, GA, 30458", "name": "Statesboro, GA", "phone": "(912) 771-1167", "brand": "Insomnia Cookies", "brand:wikidata": "Q16997024", "nsi_id": "insomniacookies-64e364"}, "geometry": {"type": "Point", "coordinates": [-81.7777195, 32.4228363]}},
{"type": "Feature", "id": "SkzAa13P7EhIXYxXKToEo8IOAOA=", "properties": {"ref": "1217", "@spider": "insomnia_cookies", "shop": "pastry", "addr:full": "4549 Southside Boulevard, Jacksonville, FL, 32216", "name": "Jacksonville, FL", "phone": "(904) 239-5029", "brand": "Insomnia Cookies", "brand:wikidata": "Q16997024", "nsi_id": "insomniacookies-64e364"}, "geometry": {"type": "Point", "coordinates": [-81.5554006, 30.2623772]}},
{"type": "Feature", "id": "h0eHFZnlFcJz3MT7gDbizcmwoqM=", "properties": {"ref": "1147", "@spider": "insomnia_cookies", "shop": "pastry", "addr:full": "131 N Orange Ave, Orlando, FL, 32801", "name": "Downtown Orlando", "phone": "(407) 512-9237", "brand": "Insomnia Cookies", "brand:wikidata": "Q16997024", "nsi_id": "insomniacookies-64e364"}, "geometry": {"type": "Point", "coordinates": [-81.3788135, 28.5443793]}},
{"type": "Feature", "id": "KFEsioHvMvmqMy0yh2yvbglYnVg=", "properties": {"ref": "1112", "@spider": "insomnia_cookies", "shop": "pastry", "addr:full": "12101 University Blvd., Suite 225, Orlando, FL, 32817", "name": "Orlando East", "phone": "(407) 901-1873", "brand": "Insomnia Cookies", "brand:wikidata": "Q16997024", "nsi_id": "insomniacookies-64e364"}, "geometry": {"type": "Point", "coordinates": [-81.2091581, 28.5982332]}},
{"type": "Feature", "id": "bpCrrotyDTz2ui_ADzCFZiTK2Vg=", "properties": {"ref": "1219", "@spider": "insomnia_cookies", "shop": "pastry", "addr:full": "2116 Hawkins Street, Suite 103, Charlotte, NC, 28203", "name": "Charlotte, Hawkins St.", "phone": "(980) 321-0801", "brand": "Insomnia Cookies", "brand:wikidata": "Q16997024", "nsi_id": "insomniacookies-64e364"}, "geometry": {"type": "Point", "coordinates": [-80.8628236, 35.2100299]}},
{"type": "Feature", "id": "mXlyU0iSr5WD836ZudK2MUkTdQU=", "properties": {"ref": "1169", "@spider": "insomnia_cookies", "shop": "pastry", "addr:full": "210 E. Trade Street, #B-224, Charlotte, NC, 28202", "name": "Downtown Charlotte", "phone": "(704) 981-6559", "brand": "Insomnia Cookies", "brand:wikidata": "Q16997024", "nsi_id": "insomniacookies-64e364"}, "geometry": {"type": "Point", "coordinates": [-80.8418874, 35.2258476]}},
{"type": "Feature", "id": "Se4Vy0GJ3OY4VyW6Q7c_AREUIHA=", "properties": {"ref": "1148", "@spider": "insomnia_cookies", "shop": "pastry", "addr:full": "9211 N Tryon Street, Space 4, Charlotte, NC, 28262", "name": "Charlotte, UNCC", "phone": "(704) 313-1835", "brand": "Insomnia Cookies", "brand:wikidata": "Q16997024", "nsi_id": "insomniacookies-64e364"}, "geometry": {"type": "Point", "coordinates": [-80.7453632, 35.3123737]}},
{"type": "Feature", "id": "sfP3CXvs2L_LWgNpaqVcwJBewe4=", "properties": {"ref": "19", "@spider": "insomnia_cookies", "shop": "pastry", "addr:full": "2013 Devine Street, Columbia, SC, 29205", "name": "Columbia, SC", "phone": "(803) 937-3725", "brand": "Insomnia Cookies", "brand:wikidata": "Q16997024", "nsi_id": "insomniacookies-64e364"}, "geometry": {"type": "Point", "coordinates": [-81.0167366, 33.9988885]}},
{"type": "Feature", "id": "9-NpRZbC18IjCqydXute_0Z0RbY=", "properties": {"ref": "1135", "@spider": "insomnia_cookies", "shop": "pastry", "addr:full": "620 N Main St, Suite 103, Blacksburg, VA, 24060", "name": "Blacksburg, VA", "phone": "(540) 328-9276", "brand": "Insomnia Cookies", "brand:wikidata": "Q16997024", "nsi_id": "insomniacookies-64e364"}, "geometry": {"type": "Point", "coordinates": [-80.4192464, 37.2342883]}},
{"type": "Feature", "id": "xV03S8UBK2hodGdM9wP5H_xXbgA=", "properties": {"ref": "2012", "@spider": "insomnia_cookies", "shop": "pastry", "addr:full": "6620 SW 57th Avenue, South Miami, FL, 33143", "name": "South Miami, FL", "phone": "(305) 428-7494", "brand": "Insomnia Cookies", "brand:wikidata": "Q16997024", "nsi_id": "insomniacookies-64e364"}, "geometry": {"type": "Point", "coordinates": [-80.2857245, 25.7091625]}},
{"type": "Feature", "id": "ADfbnYTDJApLpLZILPAbOl_Lr6g=", "properties": {"ref": "1081", "@spider": "insomnia_cookies", "shop": "pastry", "addr:full": "1227 Washington Avenue, Miami Beach, FL, 33139", "name": "Miami Beach, FL", "phone": "(305) 290-4782", "brand": "Insomnia Cookies", "brand:wikidata": "Q16997024", "nsi_id": "insomniacookies-64e364"}, "geometry": {"type": "Point", "coordinates": [-80.1320671, 25.7833608]}},
{"type": "Feature", "id": "_KBROTdjBUb4HxbThPUNk388SI4=", "properties": {"ref": "1195", "@spider": "insomnia_cookies", "shop": "pastry", "addr:full": "115 Meyran Ave., Pittsburgh, PA, 15213", "name": "Oakland, Pittsburgh", "phone": "(412) 407-4240", "brand": "Insomnia Cookies", "brand:wikidata": "Q16997024", "nsi_id": "insomniacookies-64e364"}, "geometry": {"type": "Point", "coordinates": [-79.9586082, 40.4409588]}},
{"type": "Feature", "id": "4F9iIru-uRamUq20ngPuCDHPpo8=", "properties": {"ref": "1181", "@spider": "insomnia_cookies", "shop": "pastry", "addr:full": "1734 E. Carson Street, Pittsburgh, PA, 15203", "name": "South Side, Pittsburgh", "phone": "(412) 532-4461", "brand": "Insomnia Cookies", "brand:wikidata": "Q16997024", "nsi_id": "insomniacookies-64e364"}, "geometry": {"type": "Point", "coordinates": [-79.980816, 40.4286145]}},
{"type": "Feature", "id": "F7AOUFC-4qDSdmWD2iUQRk88bFs=", "properties": {"ref": "1107", "@spider": "insomnia_cookies", "shop": "pastry", "addr:full": "2161 University Ave, Suite 311, Morgantown, WV, 26505", "name": "Morgantown, WV", "phone": "(304) 355-9541", "brand": "Insomnia Cookies", "brand:wikidata": "Q16997024", "nsi_id": "insomniacookies-64e364"}, "geometry": {"type": "Point", "coordinates": [-79.9560901, 39.6400536]}},
{"type": "Feature", "id": "nfkSeo7g7vRRQocHYdF7eEURIaM=", "properties": {"ref": "2006", "@spider": "insomnia_cookies", "shop": "pastry", "addr:full": "509 King Street, Charleston, SC, 29403", "name": "Charleston, SC", "phone": "(803) 573-2436", "brand": "Insomnia Cookies", "brand:wikidata": "Q16997024", "nsi_id": "insomniacookies-64e364"}, "geometry": {"type": "Point", "coordinates": [-79.9395569, 32.790157]}},
{"type": "Feature", "id": "RRhpyV1ChWDnodohuUT-U8OWDWs=", "properties": {"ref": "1151", "@spider": "insomnia_cookies", "shop": "pastry", "addr:full": "425 Tate Street, Greensboro, NC, 27403", "name": "Greensboro, NC", "phone": "(336) 652-3307", "brand": "Insomnia Cookies", "brand:wikidata": "Q16997024", "nsi_id": "insomniacookies-64e364"}, "geometry": {"type": "Point", "coordinates": [-79.8053214, 36.0676757]}},
{"type": "Feature", "id": "lX_rkwgsIVjoRRuHVqaHd9hBgdM=", "properties": {"ref": "1090", "@spider": "insomnia_cookies", "shop": "pastry", "addr:full": "10 South 7th Street, Indiana, PA, 15701", "name": "Indiana, PA", "phone": "(724) 954-3197", "brand": "Insomnia Cookies", "brand:wikidata": "Q16997024", "nsi_id": "insomniacookies-64e364"}, "geometry": {"type": "Point", "coordinates": [-79.153518, 40.6225667]}},
{"type": "Feature", "id": "M55IknKudOKg1nnl6MwHk8xPRZc=", "properties": {"ref": "2064", "@spider": "insomnia_cookies", "shop": "pastry", "addr:full": "3920 Wards Rd. , Lynchburg, VA, 24502", "name": "Lynchburg, VA ", "phone": "(434) 207-8130", "brand": "Insomnia Cookies", "brand:wikidata": "Q16997024", "nsi_id": "insomniacookies-64e364"}, "geometry": {"type": "Point", "coordinates": [-79.1865516, 37.3499122]}},
{"type": "Feature", "id": "vlWTxTWLh4SE0uP4pYHrg3CYuRc=", "properties": {"ref": "2055", "@spider": "insomnia_cookies", "shop": "pastry", "addr:full": "201 Graduate Road, Conway, SC, 29526", "name": "Conway, SC", "phone": "(843) 212-4823", "brand": "Insomnia Cookies", "brand:wikidata": "Q16997024", "nsi_id": "insomniacookies-64e364"}, "geometry": {"type": "Point", "coordinates": [-79.0008404, 33.7972204]}},
{"type": "Feature", "id": "LdG5g9vuW4z38IVOssuB_N0NXjE=", "properties": {"ref": "1127", "@spider": "insomnia_cookies", "shop": "pastry", "addr:full": "563 University Blvd, Space 170, Harrisonburg, VA, 22801", "name": "Harrisonburg, VA", "phone": "(540) 779-1710", "brand": "Insomnia Cookies", "brand:wikidata": "Q16997024", "nsi_id": "insomniacookies-64e364"}, "geometry": {"type": "Point", "coordinates": [-78.8569685, 38.4297501]}},
{"type": "Feature", "id": "vkXcGk3Tywboc_p3dx-iw3EMOsk=", "properties": {"ref": "1079", "@spider": "insomnia_cookies", "shop": "pastry", "addr:full": "145 East Franklin Street, Chapel Hill, NC, 27514", "name": "Chapel Hill, NC", "phone": "(919) 336-0637", "brand": "Insomnia Cookies", "brand:wikidata": "Q16997024", "nsi_id": "insomniacookies-64e364"}, "geometry": {"type": "Point", "coordinates": [-79.0543002, 35.913882]}},
{"type": "Feature", "id": "E__mmhmuJ5wrqN6Cpp-hLxtm0zk=", "properties": {"ref": "1235", "@spider": "insomnia_cookies", "shop": "pastry", "addr:full": "1105 West Main Street, Durham, NC, 27701", "name": "Durham, NC", "phone": "(919) 364-3321", "brand": "Insomnia Cookies", "brand:wikidata": "Q16997024", "nsi_id": "insomniacookies-64e364"}, "geometry": {"type": "Point", "coordinates": [-78.9117609, 36.0012908]}},
{"type": "Feature", "id": "j4sVchUSqvnRvN57ZntbdS2H6jQ=", "properties": {"ref": "1225", "@spider": "insomnia_cookies", "shop": "pastry", "addr:full": "1300 Sweet Home Road, Suite 105, Amherst, NY, 14228", "name": "Buffalo, NY", "phone": "(716) 507-8907", "brand": "Insomnia Cookies", "brand:wikidata": "Q16997024", "nsi_id": "insomniacookies-64e364"}, "geometry": {"type": "Point", "coordinates": [-78.8002998, 42.9972834]}},
{"type": "Feature", "id": "3kPDITozi06W1hpBTJJh4M15lfI=", "properties": {"ref": "1128", "@spider": "insomnia_cookies", "shop": "pastry", "addr:full": "1409 University Ave, Charlottesville, VA, 22903", "name": "Charlottesville, VA", "phone": "(434) 205-3513", "brand": "Insomnia Cookies", "brand:wikidata": "Q16997024", "nsi_id": "insomniacookies-64e364"}, "geometry": {"type": "Point", "coordinates": [-78.4997669, 38.0343272]}},
{"type": "Feature", "id": "e84L60ERY2QkDjTheFopJHAA2bM=", "properties": {"ref": "1091", "@spider": "insomnia_cookies", "shop": "pastry", "addr:full": "2302 Hillsborough Street, Raleigh, NC, 27607", "name": "Raleigh, NC", "phone": "(919) 759-6572", "brand": "Insomnia Cookies", "brand:wikidata": "Q16997024", "nsi_id": "insomniacookies-64e364"}, "geometry": {"type": "Point", "coordinates": [-78.6659129, 35.7874202]}},
{"type": "Feature", "id": "4ezkN7Ubf-eQGaUMK33sOCaTma8=", "properties": {"ref": "2059", "@spider": "insomnia_cookies", "shop": "pastry", "addr:full": "1177 Celebrity Circle, Suite 435, Myrtle Beach, SC, 29577", "name": "Myrtle Beach, SC", "phone": "(843) 278-0787", "brand": "Insomnia Cookies", "brand:wikidata": "Q16997024", "nsi_id": "insomniacookies-64e364"}, "geometry": {"type": "Point", "coordinates": [-78.8845884, 33.7148348]}},
{"type": "Feature", "id": "MDG0DmS0B_6rRgCDZWFVyg0JXMI=", "properties": {"ref": "16", "@spider": "insomnia_cookies", "shop": "pastry", "addr:full": "421 E Beaver Ave, Suite G2, State College, PA, 16801", "name": "State College, PA", "phone": "(814) 324-9148", "brand": "Insomnia Cookies", "brand:wikidata": "Q16997024", "nsi_id": "insomniacookies-64e364"}, "geometry": {"type": "Point", "coordinates": [-77.8555111, 40.7972191]}},
{"type": "Feature", "id": "9uMcz05LT0asgDKsVe84LT9srVU=", "properties": {"ref": "1109", "@spider": "insomnia_cookies", "shop": "pastry", "addr:full": "918 W Grace St, Richmond, VA, 23220", "name": "Richmond, VA", "phone": "(804) 409-7997", "brand": "Insomnia Cookies", "brand:wikidata": "Q16997024", "nsi_id": "insomniacookies-64e364"}, "geometry": {"type": "Point", "coordinates": [-77.4520232, 37.5506016]}},
{"type": "Feature", "id": "ZN7Hnj_qsTyNowr92fHY0W-pCM0=", "properties": {"ref": "1145", "@spider": "insomnia_cookies", "shop": "pastry", "addr:full": "1040 S College Road, Wilmington, NC, 28403", "name": "Wilmington, NC", "phone": "(910) 370-8326", "brand": "Insomnia Cookies", "brand:wikidata": "Q16997024", "nsi_id": "insomniacookies-64e364"}, "geometry": {"type": "Point", "coordinates": [-77.8864226, 34.2157902]}},
{"type": "Feature", "id": "f01weQh1U69qI1FJ8AAWi8akKiU=", "properties": {"ref": "1103", "@spider": "insomnia_cookies", "shop": "pastry", "addr:full": "1333 Mount Hope Ave, Rochester, NY, 14620", "name": "Rochester, NY", "phone": "(585) 479-3836", "brand": "Insomnia Cookies", "brand:wikidata": "Q16997024", "nsi_id": "insomniacookies-64e364"}, "geometry": {"type": "Point", "coordinates": [-77.6184643, 43.1237827]}},
{"type": "Feature", "id": "xGH-PubGRp8WkzcEorHht3T6ick=", "properties": {"ref": "2063", "@spider": "insomnia_cookies", "shop": "pastry", "addr:full": "10669 Braddock Road, Space D-7 , Fairfax, VA, 22032", "name": "Fairfax, VA ", "phone": "(571) 370-5897", "brand": "Insomnia Cookies", "brand:wikidata": "Q16997024", "nsi_id": "insomniacookies-64e364"}, "geometry": {"type": "Point", "coordinates": [-77.3146816, 38.8250514]}},
{"type": "Feature", "id": "jwL3FqFUfwfn35yxRQ24ydDzZBs=", "properties": {"ref": "1125", "@spider": "insomnia_cookies", "shop": "pastry", "addr:full": "116 E. 5th Street, Greenville, NC, 27858", "name": "Greenville, NC", "phone": "(864) 362-2696", "brand": "Insomnia Cookies", "brand:wikidata": "Q16997024", "nsi_id": "insomniacookies-64e364"}, "geometry": {"type": "Point", "coordinates": [-77.3723561, 35.6108487]}},
{"type": "Feature", "id": "owJN1BH5NkEV2zdMCPzNzWBEl9Y=", "properties": {"ref": "1114", "@spider": "insomnia_cookies", "shop": "pastry", "addr:full": "4513 College Ave, College Park, MD, 20740", "name": "College Park, MD", "phone": "(240) 292-0176", "brand": "Insomnia Cookies", "brand:wikidata": "Q16997024", "nsi_id": "insomniacookies-64e364"}, "geometry": {"type": "Point", "coordinates": [-76.9369943, 38.981737]}},
{"type": "Feature", "id": "jjdg0VF-6xM792kz2ZuoaJ5lEok=", "properties": {"ref": "1174", "@spider": "insomnia_cookies", "shop": "pastry", "addr:full": "1309 H Street NE, Washington, DC, 20002", "name": "H Street, Washington DC", "phone": "(202) 753-7808", "brand": "Insomnia Cookies", "brand:wikidata": "Q16997024", "nsi_id": "insomniacookies-64e364"}, "geometry": {"type": "Point", "coordinates": [-76.98794, 38.90031]}},
{"type": "Feature", "id": "zBsmsCOA54YOMoLetkLMe69e8MM=", "properties": {"ref": "2058", "@spider": "insomnia_cookies", "shop": "pastry", "addr:full": "1924 8th Street NW #125, Washington, DC, 20001", "name": "Shaw, Washington DC Coming Soon!", "phone": "(202) 747-6679", "brand": "Insomnia Cookies", "brand:wikidata": "Q16997024", "nsi_id": "insomniacookies-64e364"}, "geometry": {"type": "Point", "coordinates": [-77.0236504, 38.9166911]}},
{"type": "Feature", "id": "w8qOYX1Poqae9xzPT2RARovqKQo=", "properties": {"ref": "2069", "@spider": "insomnia_cookies", "shop": "pastry", "addr:full": "614 E Street NW, Washington, DC, 20001", "name": "Penn Quarter Washington, DC Coming Soon!", "brand": "Insomnia Cookies", "brand:wikidata": "Q16997024", "nsi_id": "insomniacookies-64e364"}, "geometry": {"type": "Point", "coordinates": [-77.0211278, 38.8959733]}},
{"type": "Feature", "id": "lO9vWyc-lV_Lc9vXXLqXL07TNRM=", "properties": {"ref": "1144", "@spider": "insomnia_cookies", "shop": "pastry", "addr:full": "2318 18th St. NW, Washington, DC, 20009", "name": "Adams Morgan, Washington DC", "phone": "(202) 873-8429", "brand": "Insomnia Cookies", "brand:wikidata": "Q16997024", "nsi_id": "insomniacookies-64e364"}, "geometry": {"type": "Point", "coordinates": [-77.0421103, 38.9202939]}},
{"type": "Feature", "id": "aedXTEgLZAP8SiuZudZGvrnESf4=", "properties": {"ref": "1175", "@spider": "insomnia_cookies", "shop": "pastry", "addr:full": "3204 O Street NW, Washington, DC, 20007", "name": "Georgetown, Washington DC", "phone": "(202) 499-7228", "brand": "Insomnia Cookies", "brand:wikidata": "Q16997024", "nsi_id": "insomniacookies-64e364"}, "geometry": {"type": "Point", "coordinates": [-77.0637993, 38.9076942]}},
{"type": "Feature", "id": "TNK9wrPDj4I9zMgoC_q10B11czg=", "properties": {"ref": "2065", "@spider": "insomnia_cookies", "shop": "pastry", "addr:full": "100 College Row, Unit 2107, Williamsburg, VA, 23186", "name": "Williamsburg, VA ", "phone": "(757) 276-6508", "brand": "Insomnia Cookies", "brand:wikidata": "Q16997024", "nsi_id": "insomniacookies-64e364"}, "geometry": {"type": "Point", "coordinates": [-76.7221636, 37.2809236]}},
{"type": "Feature", "id": "yRHXwbKWpC25gNa6lSNV5Us0j1k=", "properties": {"ref": "8", "@spider": "insomnia_cookies", "shop": "pastry", "addr:full": "319 College Avenue, Ithaca, NY, 14850", "name": "Ithaca, NY", "phone": "(607) 289-2084", "brand": "Insomnia Cookies", "brand:wikidata": "Q16997024", "nsi_id": "insomniacookies-64e364"}, "geometry": {"type": "Point", "coordinates": [-76.4850232, 42.4412278]}},
{"type": "Feature", "id": "2n7DWEmyHzVHs9nvQ4BRY9EUJrk=", "properties": {"ref": "1184", "@spider": "insomnia_cookies", "shop": "pastry", "addr:full": "407 York Road, Towson, MD, 21204", "name": "Towson, MD", "phone": "(410) 525-4312", "brand": "Insomnia Cookies", "brand:wikidata": "Q16997024", "nsi_id": "insomniacookies-64e364"}, "geometry": {"type": "Point", "coordinates": [-76.6027855, 39.399803]}},
{"type": "Feature", "id": "SMm0Ld5XYKwqBVNPKzS7k4CuG20=", "properties": {"ref": "1095", "@spider": "insomnia_cookies", "shop": "pastry", "addr:full": "3301 N Charles St, Baltimore, MD, 21218", "name": "Charles Village, Baltimore", "phone": "(410) 305-7198", "brand": "Insomnia Cookies", "brand:wikidata": "Q16997024", "nsi_id": "insomniacookies-64e364"}, "geometry": {"type": "Point", "coordinates": [-76.6174042, 39.3283571]}},
{"type": "Feature", "id": "C5CCic7Ho4Gnkr9bs0s0-MLV3dA=", "properties": {"ref": "1133", "@spider": "insomnia_cookies", "shop": "pastry", "addr:full": "812 South Broadway, Baltimore, MD, 21231", "name": "Fells Point, Baltimore", "phone": "(410) 690-7643", "brand": "Insomnia Cookies", "brand:wikidata": "Q16997024", "nsi_id": "insomniacookies-64e364"}, "geometry": {"type": "Point", "coordinates": [-76.5936031, 39.2822123]}},
{"type": "Feature", "id": "e7Rc8gkJGcy9DIw77JKQR9Tv424=", "properties": {"ref": "1132", "@spider": "insomnia_cookies", "shop": "pastry", "addr:full": "1059 S Charles St, Baltimore, MD, 21230", "name": "Federal Hill, Baltimore", "phone": "(410) 469-8752", "brand": "Insomnia Cookies", "brand:wikidata": "Q16997024", "nsi_id": "insomniacookies-64e364"}, "geometry": {"type": "Point", "coordinates": [-76.6141599, 39.2769747]}},
{"type": "Feature", "id": "9lWJNjaNnos4WsZQBJvGImi7Poc=", "properties": {"ref": "1115", "@spider": "insomnia_cookies", "shop": "pastry", "addr:full": "4314 Monarch Way, Norfolk, VA, 23508", "name": "Norfolk, VA", "phone": "(757) 267-9737", "brand": "Insomnia Cookies", "brand:wikidata": "Q16997024", "nsi_id": "insomniacookies-64e364"}, "geometry": {"type": "Point", "coordinates": [-76.3000725, 36.883968]}},
{"type": "Feature", "id": "weDhiILPB8kyzkrY1FkHDzRVkX0=", "properties": {"ref": "2", "@spider": "insomnia_cookies", "shop": "pastry", "addr:full": "137 Marshall Street, Syracuse, NY, 13210", "name": "Syracuse, NY", "phone": "(315) 873-2053", "brand": "Insomnia Cookies", "brand:wikidata": "Q16997024", "nsi_id": "insomniacookies-64e364"}, "geometry": {"type": "Point", "coordinates": [-76.1356559, 43.0417268]}},
{"type": "Feature", "id": "VHa8klZi9O2XEGR9atGaVP2Js8U=", "properties": {"ref": "1155", "@spider": "insomnia_cookies", "shop": "pastry", "addr:full": "University Plaza, 4700 Vestal Parkway East, Vestal, NY, 13850", "name": "Binghamton, NY", "phone": "(607) 250-1141", "brand": "Insomnia Cookies", "brand:wikidata": "Q16997024", "nsi_id": "insomniacookies-64e364"}, "geometry": {"type": "Point", "coordinates": [-75.9535154, 42.0921597]}},
{"type": "Feature", "id": "YtCLZ2AquSnGw4VhLNM7Rd2Sr28=", "properties": {"ref": "2028", "@spider": "insomnia_cookies", "shop": "pastry", "addr:full": "349 E. Lincoln Highway, Exton, PA, 19341", "name": "Exton, PA", "phone": "(484) 657-7272", "brand": "Insomnia Cookies", "brand:wikidata": "Q16997024", "nsi_id": "insomniacookies-64e364"}, "geometry": {"type": "Point", "coordinates": [-75.6203697, 40.02912]}},
{"type": "Feature", "id": "YXjpniiPYFEK30g5giEQncC-lQ0=", "properties": {"ref": "2053", "@spider": "insomnia_cookies", "shop": "pastry", "addr:full": "150 Bridge St, Phoenixville, PA, 19460", "name": "Phoenixville, PA ", "phone": "(484) 933-4087", "brand": "Insomnia Cookies", "brand:wikidata": "Q16997024", "nsi_id": "insomniacookies-64e364"}, "geometry": {"type": "Point", "coordinates": [-75.5145449, 40.1339864]}},
{"type": "Feature", "id": "VZeQannA3L2uBxrMM9nQC10uZ-s=", "properties": {"ref": "1168", "@spider": "insomnia_cookies", "shop": "pastry", "addr:full": "142 W. Gay Street, West Chester, PA, 19380", "name": "West Chester, PA", "phone": "(610) 898-3642", "brand": "Insomnia Cookies", "brand:wikidata": "Q16997024", "nsi_id": "insomniacookies-64e364"}, "geometry": {"type": "Point", "coordinates": [-75.6071758, 39.9593939]}},
{"type": "Feature", "id": "HoO3Gs3GdcQsBD3vUwPbGHb47NM=", "properties": {"ref": "1096", "@spider": "insomnia_cookies", "shop": "pastry", "addr:full": "70 East Main Street, Newark, DE, 19711", "name": "Newark, DE", "phone": "(302) 865-8531", "brand": "Insomnia Cookies", "brand:wikidata": "Q16997024", "nsi_id": "insomniacookies-64e364"}, "geometry": {"type": "Point", "coordinates": [-75.7506461, 39.6833499]}},
{"type": "Feature", "id": "wjxB-uAkUwPjuLL1urGHdIeFK8c=", "properties": {"ref": "1071", "@spider": "insomnia_cookies", "shop": "pastry", "addr:full": "1084 E Lancaster Ave, Bryn Mawr, PA, 19010", "name": "Bryn Mawr, PA", "phone": "(646) 666-3195", "brand": "Insomnia Cookies", "brand:wikidata": "Q16997024", "nsi_id": "insomniacookies-64e364"}, "geometry": {"type": "Point", "coordinates": [-75.3287826, 40.0263019]}},
{"type": "Feature", "id": "GRZ85vwxNO2firpI0Wlk8L0B5K4=", "properties": {"ref": "1211", "@spider": "insomnia_cookies", "shop": "pastry", "addr:full": "121 Fayette Street, Conshohocken, PA, 19428", "name": "Conshohocken, PA", "phone": "(484) 938-1828", "brand": "Insomnia Cookies", "brand:wikidata": "Q16997024", "nsi_id": "insomniacookies-64e364"}, "geometry": {"type": "Point", "coordinates": [-75.3055398, 40.074356]}},
{"type": "Feature", "id": "f7L2SjMRFiKs9w3qMZITuyl9ric=", "properties": {"ref": "1087", "@spider": "insomnia_cookies", "shop": "pastry", "addr:full": "4319 Main St, Philadelphia, PA, 19127", "name": "Manayunk, Philadelphia", "phone": "(215) 544-3093", "brand": "Insomnia Cookies", "brand:wikidata": "Q16997024", "nsi_id": "insomniacookies-64e364"}, "geometry": {"type": "Point", "coordinates": [-75.2224611, 40.0252014]}},
{"type": "Feature", "id": "KsBeJShPczTDYaaW1S-eKCHAerE=", "properties": {"ref": "1239", "@spider": "insomnia_cookies", "shop": "pastry", "addr:full": "199 W City Avenue, Bala Cynwyd, PA, 19004", "name": "Bala Cynwyd, PA", "phone": "(267) 297-2219", "brand": "Insomnia Cookies", "brand:wikidata": "Q16997024", "nsi_id": "insomniacookies-64e364"}, "geometry": {"type": "Point", "coordinates": [-75.235337, 39.9972778]}},
{"type": "Feature", "id": "qJPObibdhXhUKsai7gwixsTU3p0=", "properties": {"ref": "20", "@spider": "insomnia_cookies", "shop": "pastry", "addr:full": "1394 Cecil B. Moore Ave, Philadelphia, PA, 19122", "name": "Temple, Philadelphia", "phone": "(215) 608-1094", "brand": "Insomnia Cookies", "brand:wikidata": "Q16997024", "nsi_id": "insomniacookies-64e364"}, "geometry": {"type": "Point", "coordinates": [-75.1573056, 39.9784384]}},
{"type": "Feature", "id": "lumAjjAbQi68KQhW_Clmi7caJZE=", "properties": {"ref": "24", "@spider": "insomnia_cookies", "shop": "pastry", "addr:full": "3400 Lancaster Avenue , Philadelphia, PA, 19104", "name": "University City North, Philadelphia", "phone": "(267) 214-0445", "brand": "Insomnia Cookies", "brand:wikidata": "Q16997024", "nsi_id": "insomniacookies-64e364"}, "geometry": {"type": "Point", "coordinates": [-75.1916189, 39.9570681]}},
{"type": "Feature", "id": "exLK5B7I7EzMah5CkC1U1-3WNwY=", "properties": {"ref": "14", "@spider": "insomnia_cookies", "shop": "pastry", "addr:full": "3417 Spruce Street, Philadelphia, PA, 19104", "name": "University City South, Philadelphia", "phone": "(215) 703-9271", "brand": "Insomnia Cookies", "brand:wikidata": "Q16997024", "nsi_id": "insomniacookies-64e364"}, "geometry": {"type": "Point", "coordinates": [-75.1938738, 39.9509138]}},
{"type": "Feature", "id": "sEshDtYu4AuxcztlnzGMYgzRdKQ=", "properties": {"ref": "33", "@spider": "insomnia_cookies", "shop": "pastry", "addr:full": "108 South 16th Street, Philadelphia, PA, 19102", "name": "16th St. Philadelphia / Center City", "phone": "(215) 544-2989", "brand": "Insomnia Cookies", "brand:wikidata": "Q16997024", "nsi_id": "insomniacookies-64e364"}, "geometry": {"type": "Point", "coordinates": [-75.1674574, 39.9508706]}},
{"type": "Feature", "id": "Wh5qQKode8NCu7M5z_aXlp9J2Os=", "properties": {"ref": "45", "@spider": "insomnia_cookies", "shop": "pastry", "addr:full": "135 S. 13th Street, Philadelphia, PA, 19107", "name": "13th St. Philadelphia / Center City", "phone": "(215) 544-2295", "brand": "Insomnia Cookies", "brand:wikidata": "Q16997024", "nsi_id": "insomniacookies-64e364"}, "geometry": {"type": "Point", "coordinates": [-75.1619396, 39.9494314]}},
{"type": "Feature", "id": "RuqpnOMIJGs2NOjaY5Na0ZGYots=", "properties": {"ref": "1173", "@spider": "insomnia_cookies", "shop": "pastry", "addr:full": "31 S. 2nd Street Unit C-4, Philadelphia, PA, 19106", "name": "Old City, Philadelphia", "phone": "(215) 608-3353", "brand": "Insomnia Cookies", "brand:wikidata": "Q16997024", "nsi_id": "insomniacookies-64e364"}, "geometry": {"type": "Point", "coordinates": [-75.143627, 39.949049]}},
{"type": "Feature", "id": "4Un8QBsWBuhIux3UCop_MVb7T78=", "properties": {"ref": "1209", "@spider": "insomnia_cookies", "shop": "pastry", "addr:full": "1420 Carpenter St., Philadelphia, PA, 19146", "name": "South Philadelphia", "phone": "(215) 607-8916", "brand": "Insomnia Cookies", "brand:wikidata": "Q16997024", "nsi_id": "insomniacookies-64e364"}, "geometry": {"type": "Point", "coordinates": [-75.1670329, 39.9388808]}},
{"type": "Feature", "id": "iISF7oc3VqhgYXgH7UU5Kclq-M0=", "properties": {"ref": "1236", "@spider": "insomnia_cookies", "shop": "pastry", "addr:full": "833 Wharton Street, Philadelphia, PA, 19147", "name": "Wharton St.", "phone": "(215) 989-4208", "brand": "Insomnia Cookies", "brand:wikidata": "Q16997024", "nsi_id": "insomniacookies-64e364"}, "geometry": {"type": "Point", "coordinates": [-75.1589506, 39.9333852]}},
{"type": "Feature", "id": "uOraxL9uoj_HzHLPvsWIKcJOtJc=", "properties": {"ref": "2033", "@spider": "insomnia_cookies", "shop": "pastry", "addr:full": "833 Wharton Street, Philadelphia, PA, 19147", "name": "CookieLab, Philadelphia", "phone": "(267) 817-5197", "brand": "Insomnia Cookies", "brand:wikidata": "Q16997024", "nsi_id": "insomniacookies-64e364"}, "geometry": {"type": "Point", "coordinates": [-75.1589506, 39.9333852]}},
{"type": "Feature", "id": "3JIYViTE4NdBs-zNvnkBRIswPS8=", "properties": {"ref": "1182", "@spider": "insomnia_cookies", "shop": "pastry", "addr:full": "300 Main Blvd East, Suite 502, Ewing, NJ, 08638", "name": "Ewing, NJ", "phone": "(609) 521-2169", "brand": "Insomnia Cookies", "brand:wikidata": "Q16997024", "nsi_id": "insomniacookies-64e364"}, "geometry": {"type": "Point", "coordinates": [-74.7832811, 40.2677791]}},
{"type": "Feature", "id": "-PX8Kdmr8UMQcAMwJfvr0TQdYL8=", "properties": {"ref": "2036", "@spider": "insomnia_cookies", "shop": "pastry", "addr:full": "176 Easton Ave, New Brunswick, NJ, 08901", "name": "New Brunswick", "phone": "(732) 708-6218", "brand": "Insomnia Cookies", "brand:wikidata": "Q16997024", "nsi_id": "insomniacookies-64e364"}, "geometry": {"type": "Point", "coordinates": [-74.4549212, 40.5000345]}},
{"type": "Feature", "id": "DjAWEtrt28Nq-0pD7l6Z2UKzTwA=", "properties": {"ref": "1143", "@spider": "insomnia_cookies", "shop": "pastry", "addr:full": "56 Newark St., Hoboken, NJ, 07030", "name": "Hoboken, NJ", "phone": "(201) 297-6076", "brand": "Insomnia Cookies", "brand:wikidata": "Q16997024", "nsi_id": "insomniacookies-64e364"}, "geometry": {"type": "Point", "coordinates": [-74.0303387, 40.7368977]}},
{"type": "Feature", "id": "W6VVOqR7aHuQE_FeSCQJc2enS2Q=", "properties": {"ref": "1097", "@spider": "insomnia_cookies", "shop": "pastry", "addr:full": "76 Pearl Street, New York, NY, 10004", "name": "Wall Street / Pearl, NYC", "phone": "(929) 258-7762", "brand": "Insomnia Cookies", "brand:wikidata": "Q16997024", "nsi_id": "insomniacookies-64e364"}, "geometry": {"type": "Point", "coordinates": [-74.0103882, 40.7037464]}},
{"type": "Feature", "id": "YoqoesFo9TQy3GD7bCtTY3u9JWQ=", "properties": {"ref": "2026", "@spider": "insomnia_cookies", "shop": "pastry", "addr:full": "125 Church Street, New York, NY, 10007", "name": "Tribeca, NYC", "phone": "(332) 230-2668", "brand": "Insomnia Cookies", "brand:wikidata": "Q16997024", "nsi_id": "insomniacookies-64e364"}, "geometry": {"type": "Point", "coordinates": [-74.008599, 40.7138553]}},
{"type": "Feature", "id": "ggdN-4O2yAGPHNQTcMoX2O9ylsM=", "properties": {"ref": "2052", "@spider": "insomnia_cookies", "shop": "pastry", "addr:full": "109 Smith St, Brooklyn, NY, 11201", "name": "Brooklyn Smith St.", "phone": "(929) 515-7605", "brand": "Insomnia Cookies", "brand:wikidata": "Q16997024", "nsi_id": "insomniacookies-64e364"}, "geometry": {"type": "Point", "coordinates": [-73.9894229, 40.6880843]}},
{"type": "Feature", "id": "BecgQLxITU8vVBsOVNq2_FBaAkM=", "properties": {"ref": "3", "@spider": "insomnia_cookies", "shop": "pastry", "addr:full": "116 MacDougal Street, New York, NY, 10012", "name": "Greenwich Village, NYC", "phone": "(917) 877-0659", "brand": "Insomnia Cookies", "brand:wikidata": "Q16997024", "nsi_id": "insomniacookies-64e364"}, "geometry": {"type": "Point", "coordinates": [-74.0004795, 40.7296921]}},
{"type": "Feature", "id": "7l2Gxtx1reC7nEaot2g9rXBJgiQ=", "properties": {"ref": "1228", "@spider": "insomnia_cookies", "shop": "pastry", "addr:full": "32 5th Avenue, Brooklyn, NY, 11217", "name": "Brooklyn, NY", "phone": "(718) 618-9994", "brand": "Insomnia Cookies", "brand:wikidata": "Q16997024", "nsi_id": "insomniacookies-64e364"}, "geometry": {"type": "Point", "coordinates": [-73.9769726, 40.6820124]}},
{"type": "Feature", "id": "WwcBX4sjor9pLyeSsz4_zkBhPLE=", "properties": {"ref": "1100", "@spider": "insomnia_cookies", "shop": "pastry", "addr:full": "304 West 14th Street, New York, NY, 10014", "name": "Meatpacking, NYC", "phone": "(646) 762-9313", "brand": "Insomnia Cookies", "brand:wikidata": "Q16997024", "nsi_id": "insomniacookies-64e364"}, "geometry": {"type": "Point", "coordinates": [-74.0032449, 40.7398603]}},
{"type": "Feature", "id": "swtZtNymxzlfc8AVlQ8ChD9bh_8=", "properties": {"ref": "1121", "@spider": "insomnia_cookies", "shop": "pastry", "addr:full": "164 Orchard St, New York, NY, 10002", "name": "Lower East Side, NYC", "phone": "(917) 924-8223", "brand": "Insomnia Cookies", "brand:wikidata": "Q16997024", "nsi_id": "insomniacookies-64e364"}, "geometry": {"type": "Point", "coordinates": [-73.9884895, 40.7211123]}},
{"type": "Feature", "id": "CttINd4COS-xlalzJAl3Yp_ZFWs=", "properties": {"ref": "1093", "@spider": "insomnia_cookies", "shop": "pastry", "addr:full": "299 E 11th Street, New York, NY, 10003", "name": "East Village, NYC", "phone": "(929) 436-4708", "brand": "Insomnia Cookies", "brand:wikidata": "Q16997024", "nsi_id": "insomniacookies-64e364"}, "geometry": {"type": "Point", "coordinates": [-73.9859717, 40.7303355]}},
{"type": "Feature", "id": "hTZVTc7esz34n_lG-uhlN8Lfec0=", "properties": {"ref": "22", "@spider": "insomnia_cookies", "shop": "pastry", "addr:full": "482 Third Avenue, New York, NY, 10016", "name": "Murray Hill / 33rd Street, NYC", "phone": "(929) 226-6392", "brand": "Insomnia Cookies", "brand:wikidata": "Q16997024", "nsi_id": "insomniacookies-64e364"}, "geometry": {"type": "Point", "coordinates": [-73.9788946, 40.7449894]}},
{"type": "Feature", "id": "E2xg_iJmX1rcDQaRhNac17KO2cQ=", "properties": {"ref": "2047", "@spider": "insomnia_cookies", "shop": "pastry", "addr:full": "796 9th Ave, New York, NY, 10019", "name": "Hells Kitchen", "phone": "(917) 522-2318", "brand": "Insomnia Cookies", "brand:wikidata": "Q16997024", "nsi_id": "insomniacookies-64e364"}, "geometry": {"type": "Point", "coordinates": [-73.9874866, 40.7651374]}},
{"type": "Feature", "id": "GFCvEFpiUOZg-D5dgmsKEHmmMLo=", "properties": {"ref": "1058", "@spider": "insomnia_cookies", "shop": "pastry", "addr:full": "237 E 53rd Street, New York, NY, 10022", "name": "Midtown East, NYC", "phone": "(929) 333-4032", "brand": "Insomnia Cookies", "brand:wikidata": "Q16997024", "nsi_id": "insomniacookies-64e364"}, "geometry": {"type": "Point", "coordinates": [-73.967786, 40.7573625]}},
{"type": "Feature", "id": "XWnkeGOxvhRM_eFF7vO2kv3ZPXw=", "properties": {"ref": "21", "@spider": "insomnia_cookies", "shop": "pastry", "addr:full": "405 Amsterdam Avenue, New York, NY, 10024", "name": "Upper West Side / Amsterdam Avenue", "phone": "(929) 239-4768", "brand": "Insomnia Cookies", "brand:wikidata": "Q16997024", "nsi_id": "insomniacookies-64e364"}, "geometry": {"type": "Point", "coordinates": [-73.9778724, 40.7832795]}},
{"type": "Feature", "id": "SeFnQpNNY-NB0PJazqWswoO3HhY=", "properties": {"ref": "1215", "@spider": "insomnia_cookies", "shop": "pastry", "addr:full": "17 West 125th Street, New York, NY, 10027", "name": "Harlem, NYC", "phone": "(929) 229-0938", "brand": "Insomnia Cookies", "brand:wikidata": "Q16997024", "nsi_id": "insomniacookies-64e364"}, "geometry": {"type": "Point", "coordinates": [-73.9432672, 40.8070359]}},
{"type": "Feature", "id": "nwWr2HrNdCqe2QBFLWIh0irW6XE=", "properties": {"ref": "1068", "@spider": "insomnia_cookies", "shop": "pastry", "addr:full": "1028 Amsterdam Avenue, New York, NY, 10025", "name": "Morningside Heights, NYC", "phone": "(917) 935-4257", "brand": "Insomnia Cookies", "brand:wikidata": "Q16997024", "nsi_id": "insomniacookies-64e364"}, "geometry": {"type": "Point", "coordinates": [-73.9637815, 40.8034893]}},
{"type": "Feature", "id": "K76OoGu7ahjOIQKpWjZM-GBBmz4=", "properties": {"ref": "23", "@spider": "insomnia_cookies", "shop": "pastry", "addr:full": "1579 2nd Ave., New York, NY, 10028", "name": "Upper East Side / 2nd Avenue, NYC", "phone": "(929) 325-1980", "brand": "Insomnia Cookies", "brand:wikidata": "Q16997024", "nsi_id": "insomniacookies-64e364"}, "geometry": {"type": "Point", "coordinates": [-73.9538748, 40.7752797]}},
{"type": "Feature", "id": "clsB-9EjKbUGUlBhEXcXCSGgYYQ=", "properties": {"ref": "30", "@spider": "insomnia_cookies", "shop": "pastry", "addr:full": "240-242 College Street, New Haven, CT, 06510", "name": "New Haven, CT", "phone": "(203) 763-4949", "brand": "Insomnia Cookies", "brand:wikidata": "Q16997024", "nsi_id": "insomniacookies-64e364"}, "geometry": {"type": "Point", "coordinates": [-72.9294247, 41.3064938]}},
{"type": "Feature", "id": "HsKMaejTTpFktFf4mbl1FgRKaCs=", "properties": {"ref": "1141", "@spider": "insomnia_cookies", "shop": "pastry", "addr:full": "30 Main Street, Amherst, MA, 01002", "name": "Amherst, MA", "phone": "(413) 887-3352", "brand": "Insomnia Cookies", "brand:wikidata": "Q16997024", "nsi_id": "insomniacookies-64e364"}, "geometry": {"type": "Point", "coordinates": [-72.5191425, 42.3758583]}},
{"type": "Feature", "id": "YIKUHuVBZzjeoWF6kefR2YnO4tU=", "properties": {"ref": "41", "@spider": "insomnia_cookies", "shop": "pastry", "addr:full": "1 Dog Lane, Suite 107, Storrs, CT, 06269", "name": "Storrs, CT", "phone": "(860) 931-7382", "brand": "Insomnia Cookies", "brand:wikidata": "Q16997024", "nsi_id": "insomniacookies-64e364"}, "geometry": {"type": "Point", "coordinates": [-72.2435735, 41.8050121]}},
{"type": "Feature", "id": "zTfqrPP0cCluBVAf7M5pxNUKimQ=", "properties": {"ref": "1220", "@spider": "insomnia_cookies", "shop": "pastry", "addr:full": "One Kelley Square, Space 1B, Worcester, MA, 01610", "name": "Worcester, MA", "phone": "(508) 318-5935", "brand": "Insomnia Cookies", "brand:wikidata": "Q16997024", "nsi_id": "insomniacookies-64e364"}, "geometry": {"type": "Point", "coordinates": [-71.7978928, 42.2549508]}},
{"type": "Feature", "id": "QsgHMwSj7T6f_b-AcVkbGmIXHuo=", "properties": {"ref": "1200", "@spider": "insomnia_cookies", "shop": "pastry", "addr:full": "99 Fortin Road, Suite 136, Kingston, RI, 02881", "name": "Kingston, RI", "phone": "(401) 441-6059", "brand": "Insomnia Cookies", "brand:wikidata": "Q16997024", "nsi_id": "insomniacookies-64e364"}, "geometry": {"type": "Point", "coordinates": [-71.5242547, 41.4855888]}},
{"type": "Feature", "id": "4IaR-QD4_pYHGMJ3adhlC5vwhk0=", "properties": {"ref": "1227", "@spider": "insomnia_cookies", "shop": "pastry", "addr:full": "263 Weybosset Street, Providence, RI, 02903", "name": "Downtown Providence, RI", "phone": "(401) 537-6013", "brand": "Insomnia Cookies", "brand:wikidata": "Q16997024", "nsi_id": "insomniacookies-64e364"}, "geometry": {"type": "Point", "coordinates": [-71.4133214, 41.8208679]}},
{"type": "Feature", "id": "p0W048L2veh8bjiDzJm4BDWOyww=", "properties": {"ref": "1164", "@spider": "insomnia_cookies", "shop": "pastry", "addr:full": "307 Thayer Street, Providence, RI, 02906", "name": "Providence, RI", "phone": "(401) 542-8368", "brand": "Insomnia Cookies", "brand:wikidata": "Q16997024", "nsi_id": "insomniacookies-64e364"}, "geometry": {"type": "Point", "coordinates": [-71.4007837, 41.8304438]}},
{"type": "Feature", "id": "ihs4lNwmSEw2tlt99Hd3CdHEbwI=", "properties": {"ref": "1072", "@spider": "insomnia_cookies", "shop": "pastry", "addr:full": "708 Commonwealth Avenue, Boston, MA, 02215", "name": "Kenmore, Boston", "phone": "(425) 405-7429", "brand": "Insomnia Cookies", "brand:wikidata": "Q16997024", "nsi_id": "insomniacookies-64e364"}, "geometry": {"type": "Point", "coordinates": [-71.1054178, 42.3495505]}},
{"type": "Feature", "id": "p5dCr2pngZEnBlQ8DIPscrMmLYs=", "properties": {"ref": "2054", "@spider": "insomnia_cookies", "shop": "pastry", "addr:full": "220 Clarendon Street Boston, Boston, MA, 02116", "name": "Boston Back Bay Coming Soon!", "brand": "Insomnia Cookies", "brand:wikidata": "Q16997024", "nsi_id": "insomniacookies-64e364"}, "geometry": {"type": "Point", "coordinates": [-71.0755971, 42.3511111]}},
{"type": "Feature", "id": "Rwwzex7O0C0_TbCG1EmMe-3q-PU=", "properties": {"ref": "42", "@spider": "insomnia_cookies", "shop": "pastry", "addr:full": "65 Mt. Auburn St., Cambridge, MA, 02138", "name": "Harvard Square, Cambridge", "phone": "(617) 657-2567", "brand": "Insomnia Cookies", "brand:wikidata": "Q16997024", "nsi_id": "insomniacookies-64e364"}, "geometry": {"type": "Point", "coordinates": [-71.1180151, 42.3720079]}},
{"type": "Feature", "id": "MlYkznZ2MkKTemNV0pOlF0QlNOA=", "properties": {"ref": "1223", "@spider": "insomnia_cookies", "shop": "pastry", "addr:full": "61 Bromfield Street, Boston, MA, 02108", "name": "Downtown Boston", "phone": "(617) 431-2494", "brand": "Insomnia Cookies", "brand:wikidata": "Q16997024", "nsi_id": "insomniacookies-64e364"}, "geometry": {"type": "Point", "coordinates": [-71.0607887, 42.3570665]}}]}