{"type":"FeatureCollection","features":[{"type": "Feature", "id": "HXu75AF5AIaGFPNXoFnmESbj4pA=", "properties": {"ref": "1221436", "@spider": "iowa_university", "addr:full": "202 4th Avenue", "addr:city": "Grinnell", "addr:state": "IA", "addr:postcode": "50112", "addr:country": "US", "name": "Grinnell\u20134th Avenue", "phone": "1-800-777-8442", "website": "https://uihc.org/locations/grinnell-4th-avenue", "brand": "University of Iowa Hospitals and Clinics", "brand:wikidata": "Q7895561"}, "geometry": {"type": "Point", "coordinates": [-92.734286437897, 41.742838344571]}},
{"type": "Feature", "id": "mkuFgbB0nExMmgLVW3ktP1vX4n8=", "properties": {"ref": "1206541", "@spider": "iowa_university", "addr:full": "803 Broad Street", "addr:city": "Grinnell", "addr:state": "IA", "addr:postcode": "50112", "addr:country": "US", "name": "Grinnell\u2013Broad Street", "phone": "1-641-236-7419", "website": "https://uihc.org/locations/grinnell-broad-street", "brand": "University of Iowa Hospitals and Clinics", "brand:wikidata": "Q7895561"}, "geometry": {"type": "Point", "coordinates": [-92.724722, 41.741399]}},
{"type": "Feature", "id": "N5iOapswzRAD8o0lpBcEpkvsi2k=", "properties": {"ref": "1207396", "@spider": "iowa_university", "addr:full": "1360 North Dodge Street, Suite 1500", "addr:city": "Iowa City", "addr:state": "IA", "addr:postcode": "52245", "addr:country": "US", "name": "Pediatric Associates of UI Stead Family Children\u2019s Hospital\u2013Iowa City", "phone": "1-319-351-1448", "website": "https://uihc.org/locations/pediatric-associates-ui-stead-family-children%E2%80%99s-hospital-iowa-city", "brand": "University of Iowa Hospitals and Clinics", "brand:wikidata": "Q7895561"}, "geometry": {"type": "Point", "coordinates": [-91.516155467519, 41.677886482541]}},
{"type": "Feature", "id": "CJNAqN_qeUCc07HS5iS39eosSao=", "properties": {"ref": "1205071", "@spider": "iowa_university", "addr:full": "200 Hawkins Drive", "addr:city": "Iowa City", "addr:state": "IA", "addr:postcode": "52242", "addr:country": "US", "name": "University of Iowa Stead Family Children's Hospital", "phone": "1-888-573-5437", "website": "https://uihc.org/locations/university-iowa-stead-family-childrens-hospital", "brand": "University of Iowa Hospitals and Clinics", "brand:wikidata": "Q7895561"}, "geometry": {"type": "Point", "coordinates": [-91.549071, 41.658387]}},
{"type": "Feature", "id": "tlavs6u-BUaRac60Ptk1zVJPaJg=", "properties": {"ref": "1207401", "@spider": "iowa_university", "addr:full": "5406 Merle Hay Road", "addr:city": "Johnston", "addr:state": "IA", "addr:postcode": "50131", "addr:country": "US", "name": "Johnston\u2013Merle Hay Road", "phone": "1-877-891-5350", "website": "https://uihc.org/locations/johnston-merle-hay-road", "brand": "University of Iowa Hospitals and Clinics", "brand:wikidata": "Q7895561"}, "geometry": {"type": "Point", "coordinates": [-93.699835, 41.660541]}},
{"type": "Feature", "id": "hh71j7KnLMQyVZYvKpopzXcgNRQ=", "properties": {"ref": "1207411", "@spider": "iowa_university", "addr:full": "687 S. Taft Avenue", "addr:city": "Mason City", "addr:state": "IA", "addr:postcode": "50401", "addr:country": "US", "name": "Mason City", "phone": "1-855-543-2884", "website": "https://uihc.org/locations/mason-city", "brand": "University of Iowa Hospitals and Clinics", "brand:wikidata": "Q7895561"}, "geometry": {"type": "Point", "coordinates": [-93.240036, 43.145554]}},
{"type": "Feature", "id": "KtFXhuQaXLrRpgloq4Z4Il1if5I=", "properties": {"ref": "10061", "@spider": "iowa_university", "addr:full": "3465 Mulberry Avenue", "addr:city": "Muscatine", "addr:state": "IA", "addr:postcode": "52761", "addr:country": "US", "name": "Muscatine\u20133465 Mulberry Avenue", "phone": "1-563-263-0339", "website": "https://uihc.org/locations/muscatine-3465-mulberry-avenue", "brand": "University of Iowa Hospitals and Clinics", "brand:wikidata": "Q7895561"}, "geometry": {"type": "Point", "coordinates": [-91.083847, 41.448016]}},
{"type": "Feature", "id": "_Bdsrl4ltYocFLkxC2Cu2UkLMoQ=", "properties": {"ref": "1210911", "@spider": "iowa_university", "addr:full": "5 Lions Drive", "addr:city": "North Liberty", "addr:state": "IA", "addr:postcode": "52317", "addr:country": "US", "name": "North Liberty\u20135 Lions Drive", "phone": "1-319-467-7190", "website": "https://uihc.org/locations/north-liberty-5-lions-drive", "brand": "University of Iowa Hospitals and Clinics", "brand:wikidata": "Q7895561"}, "geometry": {"type": "Point", "coordinates": [-91.606793, 41.731209]}},
{"type": "Feature", "id": "xtxqxNUomRe9C2CmcIysxKfsUwA=", "properties": {"ref": "1207416", "@spider": "iowa_university", "addr:full": "1765 Lininger Lane", "addr:city": "North Liberty", "addr:state": "IA", "addr:postcode": "52317", "addr:country": "US", "name": "North Liberty\u2013Lininger Lane", "phone": "1-319-467-7888", "website": "https://uihc.org/locations/north-liberty-lininger-lane", "brand": "University of Iowa Hospitals and Clinics", "brand:wikidata": "Q7895561"}, "geometry": {"type": "Point", "coordinates": [-91.629064, 41.753144]}},
{"type": "Feature", "id": "xreo-_MEohLdpNs0mqJhvmhWv50=", "properties": {"ref": "1207326", "@spider": "iowa_university", "addr:full": "1600 West 22nd Street", "addr:city": "Sioux Falls", "addr:state": "SD", "addr:postcode": "57117", "addr:country": "US", "name": "Sioux Falls, S.D.", "phone": "1-605-333-7188", "website": "https://uihc.org/locations/sioux-falls-sd", "brand": "University of Iowa Hospitals and Clinics", "brand:wikidata": "Q7895561"}, "geometry": {"type": "Point", "coordinates": [-96.745855, 43.535226]}},
{"type": "Feature", "id": "Efg7bRe429rl_NJ2X-xbfP1wsOg=", "properties": {"ref": "1212736", "@spider": "iowa_university", "addr:full": "400 East Polk Street", "addr:city": "Washington", "addr:state": "IA", "addr:postcode": "52353", "addr:country": "US", "name": "Washington\u2013400 East Polk Street", "phone": "1-800-777-8442", "website": "https://uihc.org/locations/washington-400-east-polk-street", "brand": "University of Iowa Hospitals and Clinics", "brand:wikidata": "Q7895561"}, "geometry": {"type": "Point", "coordinates": [-91.68747, 41.289358]}},
{"type": "Feature", "id": "PAir932a4XtquqREEw9bbe7KwE4=", "properties": {"ref": "1211846", "@spider": "iowa_university", "addr:full": "1223 South Gear Avenue", "addr:city": "West Burlington", "addr:state": "IA", "addr:postcode": "52655", "addr:country": "US", "name": "West Burlington\u2013South Gear Avenue", "website": "https://uihc.org/locations/west-burlington-south-gear-avenue", "brand": "University of Iowa Hospitals and Clinics", "brand:wikidata": "Q7895561"}, "geometry": {"type": "Point", "coordinates": [-91.170354, 40.81043]}},
{"type": "Feature", "id": "8qfx8HEZIwpszzNAx7zwPNsS3TI=", "properties": {"ref": "1216956", "@spider": "iowa_university", "addr:full": "1225 Jordan Creek Parkway", "addr:city": "West Des Moines", "addr:state": "IA", "addr:postcode": "50266", "addr:country": "US", "name": "West Des Moines", "phone": "1-515-336-6562", "website": "https://uihc.org/locations/west-des-moines", "brand": "University of Iowa Hospitals and Clinics", "brand:wikidata": "Q7895561"}, "geometry": {"type": "Point", "coordinates": [-93.808397, 41.587105]}},
{"type": "Feature", "id": "gGZD_cK5jOJ1VwvM7EZ9dXaI0sE=", "properties": {"ref": "1201811", "@spider": "iowa_university", "addr:full": "865 Lincoln Road", "addr:city": "Bettendorf", "addr:state": "IA", "addr:postcode": "52722", "addr:country": "US", "name": "Bettendorf", "phone": "1-563-344-2240", "website": "https://uihc.org/locations/bettendorf", "brand": "University of Iowa Hospitals and Clinics", "brand:wikidata": "Q7895561"}, "geometry": {"type": "Point", "coordinates": [-90.519811, 41.536139]}},
{"type": "Feature", "id": "l1xuyVZZ7kMhOFqb2IMh_JDgolo=", "properties": {"ref": "119071", "@spider": "iowa_university", "addr:full": "3705 River Ridge Drive NE", "addr:city": "Cedar Rapids", "addr:state": "IA", "addr:postcode": "52402", "addr:country": "US", "name": "Cedar Rapids\u2013River Ridge Drive", "phone": "1-319-393-1902", "website": "https://uihc.org/locations/cedar-rapids-river-ridge-drive", "brand": "University of Iowa Hospitals and Clinics", "brand:wikidata": "Q7895561"}, "geometry": {"type": "Point", "coordinates": [-91.69916, 42.016087]}},
{"type": "Feature", "id": "mrRJj7Cud8qTAc-IjGlDDtOYju4=", "properties": {"ref": "1201831", "@spider": "iowa_university", "addr:full": "425 South 2nd Street", "addr:city": "Clinton", "addr:state": "IA", "addr:postcode": "52732", "addr:country": "US", "name": "Clinton\u2013South 2nd Street", "phone": "1-800-777-8442", "website": "https://uihc.org/locations/clinton-south-2nd-street", "brand": "University of Iowa Hospitals and Clinics", "brand:wikidata": "Q7895561"}, "geometry": {"type": "Point", "coordinates": [-90.187949, 41.841542]}},
{"type": "Feature", "id": "y9r_xJb6vxtzXxKRrOFRgMkS7Yc=", "properties": {"ref": "1201821", "@spider": "iowa_university", "addr:full": "1410 North 4th Street", "addr:city": "Clinton", "addr:state": "IA", "addr:postcode": "52732", "addr:country": "US", "name": "Clinton\u2013North 4th Street", "phone": "1-800-777-8442", "website": "https://uihc.org/locations/clinton-north-4th-street", "brand": "University of Iowa Hospitals and Clinics", "brand:wikidata": "Q7895561"}, "geometry": {"type": "Point", "coordinates": [-90.188931, 41.861634]}},
{"type": "Feature", "id": "6pK4WbRF8Rk_BhetBuGpC8b4BzQ=", "properties": {"ref": "1200366", "@spider": "iowa_university", "addr:full": "920 East 2nd Avenue", "addr:city": "Coralville", "addr:state": "IA", "addr:postcode": "52241", "addr:country": "US", "name": "Iowa River Landing East", "phone": "1-319-467-2000", "website": "https://uihc.org/locations/iowa-river-landing-east", "brand": "University of Iowa Hospitals and Clinics", "brand:wikidata": "Q7895561"}, "geometry": {"type": "Point", "coordinates": [-91.562743, 41.682826]}},
{"type": "Feature", "id": "xVjd3N3FoGtS_e4agJKYi5hFZJs=", "properties": {"ref": "1201841", "@spider": "iowa_university", "addr:full": "1236 East Rusholme Street", "addr:city": "Davenport", "addr:state": "IA", "addr:postcode": "52803", "addr:country": "US", "name": "Davenport\u2013East Rusholme Street", "phone": "1-800-777-8442", "website": "https://uihc.org/locations/davenport-east-rusholme-street", "brand": "University of Iowa Hospitals and Clinics", "brand:wikidata": "Q7895561"}, "geometry": {"type": "Point", "coordinates": [-90.555785, 41.543242]}},
{"type": "Feature", "id": "oTxfwgnbpq_MFjYx2Oh1XlfwxvQ=", "properties": {"ref": "10086", "@spider": "iowa_university", "addr:full": "3385 Dexter Court", "addr:city": "Davenport", "addr:state": "IA", "addr:postcode": "52807", "addr:country": "US", "name": "Davenport\u2013Dexter Court", "phone": "1-563-355-2244", "website": "https://uihc.org/locations/davenport-dexter-court", "brand": "University of Iowa Hospitals and Clinics", "brand:wikidata": "Q7895561"}, "geometry": {"type": "Point", "coordinates": [-90.523803, 41.570565]}},
{"type": "Feature", "id": "LJLVYQbVMGanrMa_OXbx2TVUvqQ=", "properties": {"ref": "1201851", "@spider": "iowa_university", "addr:full": "1215 Pleasant Street", "addr:city": "Des Moines", "addr:state": "IA", "addr:postcode": "50309", "addr:country": "US", "name": "Des Moines\u20131215 Pleasant Street", "phone": "1-800-777-8442", "website": "https://uihc.org/locations/des-moines-1215-pleasant-street", "brand": "University of Iowa Hospitals and Clinics", "brand:wikidata": "Q7895561"}, "geometry": {"type": "Point", "coordinates": [-93.631792, 41.588884]}},
{"type": "Feature", "id": "-kVyilfSkMpkUg6WRB3zKNKSvhE=", "properties": {"ref": "1201866", "@spider": "iowa_university", "addr:full": "1000 Langworthy Street", "addr:city": "Dubuque", "addr:state": "IA", "addr:postcode": "52001", "addr:country": "US", "name": "Dubuque\u2013Langworthy Street", "phone": "1-800-777-8442", "website": "https://uihc.org/locations/dubuque-langworthy-street", "brand": "University of Iowa Hospitals and Clinics", "brand:wikidata": "Q7895561"}, "geometry": {"type": "Point", "coordinates": [-90.676129, 42.49257]}},
{"type": "Feature", "id": "AYhG3CSGXkSvNLdL1R7-mD0ijGQ=", "properties": {"ref": "1201886", "@spider": "iowa_university", "addr:full": "2000 South Main Street", "addr:city": "Fairfield", "addr:state": "IA", "addr:postcode": "52556", "addr:country": "US", "name": "Fairfield", "phone": "1-800-777-8442", "website": "https://uihc.org/locations/fairfield", "brand": "University of Iowa Hospitals and Clinics", "brand:wikidata": "Q7895561"}, "geometry": {"type": "Point", "coordinates": [-91.963118, 40.986826]}},
{"type": "Feature", "id": "6KCeajeWl_s8ex0HLwiC3tlg2lU=", "properties": {"ref": "1201911", "@spider": "iowa_university", "addr:full": "5445 Avenue O", "addr:city": "Fort Madison", "addr:state": "IA", "addr:postcode": "52627", "addr:country": "US", "name": "Fort Madison", "phone": "1-800-777-8442", "website": "https://uihc.org/locations/fort-madison", "brand": "University of Iowa Hospitals and Clinics", "brand:wikidata": "Q7895561"}, "geometry": {"type": "Point", "coordinates": [-91.382318, 40.624254]}},
{"type": "Feature", "id": "vmlgQGZ70dsgzy3cBVwvSyttFCI=", "properties": {"ref": "10121", "@spider": "iowa_university", "addr:full": "201 South Clinton Street", "addr:city": "Iowa City", "addr:state": "IA", "addr:postcode": "52240", "addr:country": "US", "name": "UI QuickCare\u2013Old Capitol Town Center", "phone": "1-319-384-8822", "website": "https://uihc.org/locations/ui-quickcare-old-capitol-town-center", "brand": "University of Iowa Hospitals and Clinics", "brand:wikidata": "Q7895561"}, "geometry": {"type": "Point", "coordinates": [-91.535356, 41.65926]}},
{"type": "Feature", "id": "T8HxhOGsPZvQtSx5MdfzErfsG4M=", "properties": {"ref": "10106", "@spider": "iowa_university", "addr:full": "767 Mormon Trek Boulevard", "addr:city": "Iowa City", "addr:state": "IA", "addr:postcode": "52246", "addr:country": "US", "name": "UI QuickCare\u2013Mormon Trek", "phone": "1-319-384-8822", "website": "https://uihc.org/locations/ui-quickcare-mormon-trek", "brand": "University of Iowa Hospitals and Clinics", "brand:wikidata": "Q7895561"}, "geometry": {"type": "Point", "coordinates": [-91.574558, 41.650386]}},
{"type": "Feature", "id": "Kvlfj5KGymAAs0qgQgl4FmHqBIE=", "properties": {"ref": "10101", "@spider": "iowa_university", "addr:full": "1632 Sycamore Street", "addr:city": "Iowa City", "addr:state": "IA", "addr:postcode": "52240", "addr:country": "US", "name": "UI QuickCare\u2013East", "phone": "1-319-384-8822", "website": "https://uihc.org/locations/ui-quickcare-east", "brand": "University of Iowa Hospitals and Clinics", "brand:wikidata": "Q7895561"}, "geometry": {"type": "Point", "coordinates": [-91.510428, 41.641727]}},
{"type": "Feature", "id": "xskO98rSzyyP3FpSxLNQO3le0eU=", "properties": {"ref": "10056", "@spider": "iowa_university", "addr:full": "2701 Prairie Meadow Drive", "addr:city": "Iowa City", "addr:state": "IA", "addr:postcode": "52242", "addr:country": "US", "name": "Sports Medicine", "phone": "1-319-384-7070", "website": "https://uihc.org/locations/sports-medicine", "brand": "University of Iowa Hospitals and Clinics", "brand:wikidata": "Q7895561"}, "geometry": {"type": "Point", "coordinates": [-91.578085, 41.660046]}},
{"type": "Feature", "id": "4y7octbid3v2b2G_s95ALSJmee4=", "properties": {"ref": "10021", "@spider": "iowa_university", "addr:full": "100 Hawkins Drive", "addr:city": "Iowa City", "addr:state": "IA", "addr:postcode": "52242", "addr:country": "US", "name": "Center for Disabilities and Development", "website": "https://uihc.org/locations/center-disabilities-and-development", "brand": "University of Iowa Hospitals and Clinics", "brand:wikidata": "Q7895561"}, "geometry": {"type": "Point", "coordinates": [-91.549834, 41.661488]}},
{"type": "Feature", "id": "3vYqvOsqUnvvqZx2hh0Kpz413m4=", "properties": {"ref": "10016", "@spider": "iowa_university", "addr:full": "200 Hawkins Drive", "addr:city": "Iowa City", "addr:state": "IA", "addr:postcode": "52242", "addr:country": "US", "name": "University of Iowa Hospitals & Clinics", "phone": "1-800-777-8442", "website": "https://uihc.org/locations/university-iowa-hospitals-clinics", "brand": "University of Iowa Hospitals and Clinics", "brand:wikidata": "Q7895561"}, "geometry": {"type": "Point", "coordinates": [-91.54876, 41.659871]}},
{"type": "Feature", "id": "DOm5daJZIfb1b33EZCIUMaDkQ7A=", "properties": {"ref": "1200771", "@spider": "iowa_university", "addr:full": "8605 Chambery Boulevard", "addr:city": "Johnston", "addr:state": "IA", "addr:postcode": "50131", "addr:country": "US", "name": "Johnston\u2013Chambery Boulevard", "phone": "1-515-457-2960", "website": "https://uihc.org/locations/johnston-chambery-boulevard", "brand": "University of Iowa Hospitals and Clinics", "brand:wikidata": "Q7895561"}, "geometry": {"type": "Point", "coordinates": [-93.737365, 41.661604]}},
{"type": "Feature", "id": "ENLlgjkU8ylduGnEon5eEGG31A0=", "properties": {"ref": "1201946", "@spider": "iowa_university", "addr:full": "819 Country Lane Road", "addr:city": "Keosauqua", "addr:state": "IA", "addr:postcode": "52565", "addr:country": "US", "name": "Keosauqua\u2013Country Lane Road", "phone": "1-800-777-8442", "website": "https://uihc.org/locations/keosauqua-country-lane-road", "brand": "University of Iowa Hospitals and Clinics", "brand:wikidata": "Q7895561"}, "geometry": {"type": "Point", "coordinates": [-91.968058, 40.736642]}},
{"type": "Feature", "id": "1gli6z0cb7k2Zgq59Lwybph9aAY=", "properties": {"ref": "1201936", "@spider": "iowa_university", "addr:full": "304 Franklin Street", "addr:city": "Keosauqua", "addr:state": "IA", "addr:postcode": "52565", "addr:country": "US", "name": "Keosauqua\u2013Franklin Street", "phone": "1-800-777-8442", "website": "https://uihc.org/locations/keosauqua-franklin-street", "brand": "University of Iowa Hospitals and Clinics", "brand:wikidata": "Q7895561"}, "geometry": {"type": "Point", "coordinates": [-91.9595, 40.736379]}},
{"type": "Feature", "id": "s2ld-iMik-MmXqd-4oQfPMoladY=", "properties": {"ref": "1202416", "@spider": "iowa_university", "addr:full": "1518 Mulberry Avenue", "addr:city": "Muscatine", "addr:state": "IA", "addr:postcode": "52761", "addr:country": "US", "name": "Muscatine\u20131518 Mulberry Avenue", "phone": "1-800-777-8442", "website": "https://uihc.org/locations/muscatine-1518-mulberry-avenue", "brand": "University of Iowa Hospitals and Clinics", "brand:wikidata": "Q7895561"}, "geometry": {"type": "Point", "coordinates": [-91.054522, 41.433172]}},
{"type": "Feature", "id": "7tS-Vqw67Gfg0opFZVS-rLv6AVg=", "properties": {"ref": "10116", "@spider": "iowa_university", "addr:full": "720 Pacha Parkway", "addr:city": "North Liberty", "addr:state": "IA", "addr:postcode": "52317", "addr:country": "US", "name": "UI QuickCare\u2013North Liberty", "phone": "1-319-384-8822", "website": "https://uihc.org/locations/ui-quickcare-north-liberty", "brand": "University of Iowa Hospitals and Clinics", "brand:wikidata": "Q7895561"}, "geometry": {"type": "Point", "coordinates": [-91.605986, 41.753747]}},
{"type": "Feature", "id": "crrMCA321DnT1Z0ydCHNx8BE8B0=", "properties": {"ref": "10071", "@spider": "iowa_university", "addr:full": "3056 River Crossing Court", "addr:city": "Riverside", "addr:state": "IA", "addr:postcode": "52327", "addr:country": "US", "name": "River Crossing", "phone": "1-319-467-8355", "website": "https://uihc.org/locations/river-crossing", "brand": "University of Iowa Hospitals and Clinics", "brand:wikidata": "Q7895561"}, "geometry": {"type": "Point", "coordinates": [-91.548526, 41.486828]}},
{"type": "Feature", "id": "Mo-swSv9h5rdvmSnrVFQ4JLRu9g=", "properties": {"ref": "1202026", "@spider": "iowa_university", "addr:full": "1301 2nd Avenue", "addr:city": "Vinton", "addr:state": "IA", "addr:postcode": "52349", "addr:country": "US", "name": "Vinton\u20132nd Avenue", "phone": "1-800-777-8442", "website": "https://uihc.org/locations/vinton-2nd-avenue", "brand": "University of Iowa Hospitals and Clinics", "brand:wikidata": "Q7895561"}, "geometry": {"type": "Point", "coordinates": [-92.023604, 42.158678]}},
{"type": "Feature", "id": "q1lS7hmuufYiyPs4SMgddmmulJU=", "properties": {"ref": "1202016", "@spider": "iowa_university", "addr:full": "502 North 9th Avenue", "addr:city": "Vinton", "addr:state": "IA", "addr:postcode": "52349", "addr:country": "US", "name": "Vinton\u2013North 9th Avenue", "phone": "1-800-777-8442", "website": "https://uihc.org/locations/vinton-north-9th-avenue", "brand": "University of Iowa Hospitals and Clinics", "brand:wikidata": "Q7895561"}, "geometry": {"type": "Point", "coordinates": [-92.012381, 42.173599]}},
{"type": "Feature", "id": "5SCTAmkc7F0pezCCKoqs06WqjQk=", "properties": {"ref": "1202466", "@spider": "iowa_university", "addr:full": "414 East Polk Street", "addr:city": "Washington", "addr:state": "IA", "addr:postcode": "52353", "addr:country": "US", "name": "Washington\u2013414 East Polk Street", "phone": "1-800-777-8442", "website": "https://uihc.org/locations/washington-414-east-polk-street", "brand": "University of Iowa Hospitals and Clinics", "brand:wikidata": "Q7895561"}, "geometry": {"type": "Point", "coordinates": [-91.688441, 41.288506]}},
{"type": "Feature", "id": "CoRk--IsXr5BVWP7IsufyY-AyeE=", "properties": {"ref": "1202456", "@spider": "iowa_university", "addr:full": "1203 East Washington Street", "addr:city": "Washington", "addr:state": "IA", "addr:postcode": "52353", "addr:country": "US", "name": "Washington\u2013East Washington Street", "phone": "1-800-777-8442", "website": "https://uihc.org/locations/washington-east-washington-street", "brand": "University of Iowa Hospitals and Clinics", "brand:wikidata": "Q7895561"}, "geometry": {"type": "Point", "coordinates": [-91.678336, 41.298021]}},
{"type": "Feature", "id": "LanucHsKALOWEnKQ6hoFvr02E30=", "properties": {"ref": "1202446", "@spider": "iowa_university", "addr:full": "413 East Tyler Street", "addr:city": "Washington", "addr:state": "IA", "addr:postcode": "52353", "addr:country": "US", "name": "Washington\u2013East Tyler Street", "phone": "1-800-777-8442", "website": "https://uihc.org/locations/washington-east-tyler-street", "brand": "University of Iowa Hospitals and Clinics", "brand:wikidata": "Q7895561"}, "geometry": {"type": "Point", "coordinates": [-91.687935, 41.29009]}},
{"type": "Feature", "id": "Mhq-6iMM80jjNzrWBb-vlX1HGQQ=", "properties": {"ref": "1202436", "@spider": "iowa_university", "addr:full": "1015 South Iowa Avenue", "addr:city": "Washington", "addr:state": "IA", "addr:postcode": "52353", "addr:country": "US", "name": "Washington\u2013South Iowa Avenue", "phone": "1-800-777-8442", "website": "https://uihc.org/locations/washington-south-iowa-avenue", "brand": "University of Iowa Hospitals and Clinics", "brand:wikidata": "Q7895561"}, "geometry": {"type": "Point", "coordinates": [-91.692049, 41.289216]}},
{"type": "Feature", "id": "TcAVFkCOmrowuJnSV4047VR9fMM=", "properties": {"ref": "1202036", "@spider": "iowa_university", "addr:full": "1401 West Agency Road", "addr:city": "West Burlington", "addr:state": "IA", "addr:postcode": "52655", "addr:country": "US", "name": "West Burlington\u2013West Agency Road", "phone": "1-800-777-8442", "website": "https://uihc.org/locations/west-burlington-west-agency-road", "brand": "University of Iowa Hospitals and Clinics", "brand:wikidata": "Q7895561"}, "geometry": {"type": "Point", "coordinates": [-91.172618, 40.81017]}}]}