{"type":"FeatureCollection","features":[{"type": "Feature", "id": "7Zxo3dNTS_2OwOaj5Rj7EPw_6NY=", "properties": {"ref": "metrocenter-mall-deli", "@spider": "jasonsdeli", "amenity": "restaurant", "cuisine": "sandwich", "addr:full": "1", "addr:city": "Phoenix", "addr:state": "Arizona", "addr:postcode": "85051", "name": "MetroCenter Mall Deli", "phone": "602-870-8611", "website": "https://www.jasonsdeli.com/restaurants/metrocenter-mall-deli", "opening_hours": "Mo-Su 10:00-21:00", "brand": "Jason's Deli", "brand:wikidata": "Q16997641", "nsi_id": "jasonsdeli-96af40"}},
{"type": "Feature", "id": "GGsi3G9VujoFAXD_vIs8nHgLS5E=", "properties": {"ref": "baseline-cooper-deli", "@spider": "jasonsdeli", "amenity": "restaurant", "cuisine": "sandwich", "addr:full": "1", "addr:city": "Gilbert", "addr:state": "Arizona", "addr:postcode": "85233", "name": "Baseline Cooper Deli", "phone": "480-813-1358", "website": "https://www.jasonsdeli.com/restaurants/baseline-cooper-deli", "opening_hours": "Mo-Su 10:00-22:00", "brand": "Jason's Deli", "brand:wikidata": "Q16997641", "nsi_id": "jasonsdeli-96af40"}},
{"type": "Feature", "id": "PB_ZjxSHuG-hPYdiZw2rxH2EQ7s=", "properties": {"ref": "ray-road-deli", "@spider": "jasonsdeli", "amenity": "restaurant", "cuisine": "sandwich", "addr:full": "7", "addr:city": "Chandler", "addr:state": "Arizona", "addr:postcode": "85226", "name": "Ray Road Deli", "phone": "480-705-9266", "website": "https://www.jasonsdeli.com/restaurants/ray-road-deli", "opening_hours": "Mo-Su 10:00-22:00", "brand": "Jason's Deli", "brand:wikidata": "Q16997641", "nsi_id": "jasonsdeli-96af40"}},
{"type": "Feature", "id": "a7df55MfQBpuqtsYR4oteesSXlc=", "properties": {"ref": "tuscaloosa-deli", "@spider": "jasonsdeli", "amenity": "restaurant", "cuisine": "sandwich", "addr:full": "2", "addr:city": "Tuscaloosa", "addr:state": "Alabama", "addr:postcode": "35401", "name": "Tuscaloosa Deli", "phone": "205-752-6192", "website": "https://www.jasonsdeli.com/restaurants/tuscaloosa-deli", "opening_hours": "Mo-Su 10:00-22:00", "brand": "Jason's Deli", "brand:wikidata": "Q16997641", "nsi_id": "jasonsdeli-96af40"}},
{"type": "Feature", "id": "zP1RyoGzwbg4ZSN_DDoem5wQRP0=", "properties": {"ref": "montgomery-deli", "@spider": "jasonsdeli", "amenity": "restaurant", "cuisine": "sandwich", "addr:full": "1", "addr:city": "Montgomery", "addr:state": "Alabama", "addr:postcode": "36117", "name": "Montgomery Deli", "phone": "334-409-9890", "website": "https://www.jasonsdeli.com/restaurants/montgomery-deli", "opening_hours": "Mo-Su 08:00-22:00", "brand": "Jason's Deli", "brand:wikidata": "Q16997641", "nsi_id": "jasonsdeli-96af40"}},
{"type": "Feature", "id": "1-CEbh3Qn_MPjfEhjk7JloFqLxE=", "properties": {"ref": "airport-blvd-deli", "@spider": "jasonsdeli", "amenity": "restaurant", "cuisine": "sandwich", "addr:full": "3", "addr:city": "Mobile", "addr:state": "Alabama", "addr:postcode": "36608", "name": "Airport Blvd Deli", "phone": "251-281-0801", "website": "https://www.jasonsdeli.com/restaurants/airport-blvd-deli", "opening_hours": "Mo-Su 10:00-22:00", "brand": "Jason's Deli", "brand:wikidata": "Q16997641", "nsi_id": "jasonsdeli-96af40"}},
{"type": "Feature", "id": "hK9NAlvfDKqD7uaOYwsfxEY4AY8=", "properties": {"ref": "research-park-deli", "@spider": "jasonsdeli", "amenity": "restaurant", "cuisine": "sandwich", "addr:full": "1", "addr:city": "Huntsville", "addr:state": "Alabama", "addr:postcode": "35806", "name": "Research Park Deli", "phone": "256-971-5325", "website": "https://www.jasonsdeli.com/restaurants/research-park-deli", "opening_hours": "Mo-Su 10:00-21:00", "brand": "Jason's Deli", "brand:wikidata": "Q16997641", "nsi_id": "jasonsdeli-96af40"}},
{"type": "Feature", "id": "AUjz2y1BYEDyN7Kr2wVC0lUe0GI=", "properties": {"ref": "huntsville-airport-deli", "@spider": "jasonsdeli", "amenity": "restaurant", "cuisine": "sandwich", "addr:full": "4", "addr:city": "Huntsville", "addr:state": "Alabama", "addr:postcode": "35802", "name": "Airport Deli", "phone": "256-883-7300", "website": "https://www.jasonsdeli.com/restaurants/huntsville-airport-deli", "opening_hours": "Mo-Su 10:00-21:00", "brand": "Jason's Deli", "brand:wikidata": "Q16997641", "nsi_id": "jasonsdeli-96af40"}},
{"type": "Feature", "id": "gwThScyXrCuVTreh7-qU_Y64pOU=", "properties": {"ref": "hoover-deli", "@spider": "jasonsdeli", "amenity": "restaurant", "cuisine": "sandwich", "addr:full": "3", "addr:city": "Birmingham", "addr:state": "Alabama", "addr:postcode": "35244", "name": "Hoover Deli", "phone": "205-987-8740", "website": "https://www.jasonsdeli.com/restaurants/hoover-deli", "opening_hours": "Mo-Su 10:00-22:00", "brand": "Jason's Deli", "brand:wikidata": "Q16997641", "nsi_id": "jasonsdeli-96af40"}},
{"type": "Feature", "id": "WOrqhdSHJ4kxvXUZuw98qt4YIpE=", "properties": {"ref": "bloomington-normal-deli", "@spider": "jasonsdeli", "amenity": "restaurant", "cuisine": "sandwich", "addr:full": "3", "addr:city": "Normal", "addr:state": "Illinois", "addr:postcode": "61761", "name": "Bloomington-Normal Deli", "phone": "309-451-1564", "website": "https://www.jasonsdeli.com/restaurants/bloomington-normal-deli", "opening_hours": "Mo-Su 10:00-22:00", "brand": "Jason's Deli", "brand:wikidata": "Q16997641", "nsi_id": "jasonsdeli-96af40"}},
{"type": "Feature", "id": "GLO4UFeGlatbgkYb1SmmQqY3wiI=", "properties": {"ref": "naperville-deli", "@spider": "jasonsdeli", "amenity": "restaurant", "cuisine": "sandwich", "addr:full": "1", "addr:city": "Naperville", "addr:state": "Illinois", "addr:postcode": "60563", "name": "Naperville Deli", "phone": "(630) 955-1179", "website": "https://www.jasonsdeli.com/restaurants/naperville-deli", "opening_hours": "Mo-Su 10:00-22:00", "brand": "Jason's Deli", "brand:wikidata": "Q16997641", "nsi_id": "jasonsdeli-96af40"}},
{"type": "Feature", "id": "FoAm9rT8u8lFjPTLQWdDsyralxw=", "properties": {"ref": "east-peoria-deli", "@spider": "jasonsdeli", "amenity": "restaurant", "cuisine": "sandwich", "addr:full": "1", "addr:city": "East Peoria", "addr:state": "Illinois", "addr:postcode": "61611", "name": "East Peoria Deli", "phone": "309-698-5400", "website": "https://www.jasonsdeli.com/restaurants/east-peoria-deli", "opening_hours": "Mo-Su 10:00-22:00", "brand": "Jason's Deli", "brand:wikidata": "Q16997641", "nsi_id": "jasonsdeli-96af40"}},
{"type": "Feature", "id": "ui3ydvgaqQjZAvkOgxEnRGbIHOI=", "properties": {"ref": "south-loop-deli", "@spider": "jasonsdeli", "amenity": "restaurant", "cuisine": "sandwich", "addr:full": "1", "addr:city": "Chicago", "addr:state": "Illinois", "addr:postcode": "60607", "name": "South Loop Deli", "phone": "312-850-0547", "website": "https://www.jasonsdeli.com/restaurants/south-loop-deli", "opening_hours": "Mo-Su 10:00-21:00", "brand": "Jason's Deli", "brand:wikidata": "Q16997641", "nsi_id": "jasonsdeli-96af40"}},
{"type": "Feature", "id": "OCNe7whtKYqqof2ScZYVjsBQWoU=", "properties": {"ref": "tucker-deli", "@spider": "jasonsdeli", "amenity": "restaurant", "cuisine": "sandwich", "addr:full": "4", "addr:city": "Tucker", "addr:state": "Georgia", "addr:postcode": "30084", "name": "Tucker Deli", "phone": "770-493-4020", "website": "https://www.jasonsdeli.com/restaurants/tucker-deli", "opening_hours": "Mo-Su 10:00-22:00", "brand": "Jason's Deli", "brand:wikidata": "Q16997641", "nsi_id": "jasonsdeli-96af40"}},
{"type": "Feature", "id": "fqkvyTcxkBkGP4rXWQiJSMI6EA4=", "properties": {"ref": "savannah-deli", "@spider": "jasonsdeli", "amenity": "restaurant", "cuisine": "sandwich", "addr:full": "3", "addr:city": "Savannah", "addr:state": "Georgia", "addr:postcode": "31406", "name": "Savannah Deli", "phone": "912-355-7955", "website": "https://www.jasonsdeli.com/restaurants/savannah-deli", "opening_hours": "Mo-Su 10:00-22:00", "brand": "Jason's Deli", "brand:wikidata": "Q16997641", "nsi_id": "jasonsdeli-96af40"}},
{"type": "Feature", "id": "kwkYpmOpyJeE_towSRLZZv76kM0=", "properties": {"ref": "madison-deli", "@spider": "jasonsdeli", "amenity": "restaurant", "cuisine": "sandwich", "addr:full": "7", "addr:city": "Madison", "addr:state": "Wisconsin", "addr:postcode": "53717", "name": "Madison Deli", "phone": "608-827-7780", "website": "https://www.jasonsdeli.com/restaurants/madison-deli", "opening_hours": "Mo-Su 10:00-22:00", "brand": "Jason's Deli", "brand:wikidata": "Q16997641", "nsi_id": "jasonsdeli-96af40"}},
{"type": "Feature", "id": "TaaaAVtfLY4x_cyFZDscTxu5HM4=", "properties": {"ref": "virginia-beach-deli", "@spider": "jasonsdeli", "amenity": "restaurant", "cuisine": "sandwich", "addr:full": "4", "addr:city": "Virginia Beach", "addr:state": "Virginia", "addr:postcode": "23462", "name": "Virginia Beach Deli", "phone": "757-456-5481", "website": "https://www.jasonsdeli.com/restaurants/virginia-beach-deli", "opening_hours": "Mo-Su 10:00-22:00", "brand": "Jason's Deli", "brand:wikidata": "Q16997641", "nsi_id": "jasonsdeli-96af40"}},
{"type": "Feature", "id": "EKyVkhztE0oqlY_1U8_EINCjha0=", "properties": {"ref": "willow-lawn-deli", "@spider": "jasonsdeli", "amenity": "restaurant", "cuisine": "sandwich", "addr:full": "1", "addr:city": "Richmond", "addr:state": "Virginia", "addr:postcode": "23230", "name": "Willow Lawn Deli", "phone": "804-673-5290", "website": "https://www.jasonsdeli.com/restaurants/willow-lawn-deli", "opening_hours": "Mo-Su 10:00-22:00", "brand": "Jason's Deli", "brand:wikidata": "Q16997641", "nsi_id": "jasonsdeli-96af40"}},
{"type": "Feature", "id": "0Lel6WCC8BM6MkbfIgmqxyqTjCs=", "properties": {"ref": "southside-richmond-deli", "@spider": "jasonsdeli", "amenity": "restaurant", "cuisine": "sandwich", "addr:full": "7", "addr:city": "Richmond", "addr:state": "Virginia", "addr:postcode": "23225", "name": "Southside Richmond Deli", "phone": "804-323-9390", "website": "https://www.jasonsdeli.com/restaurants/southside-richmond-deli", "opening_hours": "Mo-Su 10:00-22:00", "brand": "Jason's Deli", "brand:wikidata": "Q16997641", "nsi_id": "jasonsdeli-96af40"}},
{"type": "Feature", "id": "Ya5X59xIDzgMI6QgqCIyZRS3dhM=", "properties": {"ref": "newport-news-deli", "@spider": "jasonsdeli", "amenity": "restaurant", "cuisine": "sandwich", "addr:full": "1", "addr:city": "Newport News", "addr:state": "Virginia", "addr:postcode": "23602", "name": "Newport News Deli", "phone": "757-898-3978", "website": "https://www.jasonsdeli.com/restaurants/newport-news-deli", "opening_hours": "Mo-Su 08:00-22:00", "brand": "Jason's Deli", "brand:wikidata": "Q16997641", "nsi_id": "jasonsdeli-96af40"}},
{"type": "Feature", "id": "NqpDysNGkGXIjbHrVYWHGfePvio=", "properties": {"ref": "hampton-deli", "@spider": "jasonsdeli", "amenity": "restaurant", "cuisine": "sandwich", "addr:full": "3", "addr:city": "Hampton", "addr:state": "Virginia", "addr:postcode": "23666", "name": "Hampton Deli", "phone": "757-825-1501", "website": "https://www.jasonsdeli.com/restaurants/hampton-deli", "opening_hours": "Mo-Su 08:00-22:00", "brand": "Jason's Deli", "brand:wikidata": "Q16997641", "nsi_id": "jasonsdeli-96af40"}},
{"type": "Feature", "id": "mqzTq0ShFYqpLKL-zqszrt-Aiiw=", "properties": {"ref": "tysons-corner-deli", "@spider": "jasonsdeli", "amenity": "restaurant", "cuisine": "sandwich", "addr:full": "7", "addr:city": "Falls Church", "addr:state": "Virginia", "addr:postcode": "22043", "name": "Tyson's Corner Deli", "phone": "703-448-5514", "website": "https://www.jasonsdeli.com/restaurants/tysons-corner-deli", "opening_hours": "Mo-Su 08:00-22:00", "brand": "Jason's Deli", "brand:wikidata": "Q16997641", "nsi_id": "jasonsdeli-96af40"}},
{"type": "Feature", "id": "0YHubyq0EApESFBzsNWr0Aqj5ZM=", "properties": {"ref": "fairfax-deli", "@spider": "jasonsdeli", "amenity": "restaurant", "cuisine": "sandwich", "addr:full": "1", "addr:city": "Fairfax", "addr:state": "Virginia", "addr:postcode": "22033", "name": "Fairfax Deli ", "phone": "703-449-0924", "website": "https://www.jasonsdeli.com/restaurants/fairfax-deli", "opening_hours": "Mo-Su 08:00-21:00", "brand": "Jason's Deli", "brand:wikidata": "Q16997641", "nsi_id": "jasonsdeli-96af40"}},
{"type": "Feature", "id": "CC1_A7JyAyVo8aeBCaQLx2QZguQ=", "properties": {"ref": "chesapeake-deli", "@spider": "jasonsdeli", "amenity": "restaurant", "cuisine": "sandwich", "addr:full": "7", "addr:city": "Chesapeake", "addr:state": "Virginia", "addr:postcode": "23320", "name": "Chesapeake Deli", "phone": "757-382-0889", "website": "https://www.jasonsdeli.com/restaurants/chesapeake-deli", "opening_hours": "Mo-Su 08:00-22:00", "brand": "Jason's Deli", "brand:wikidata": "Q16997641", "nsi_id": "jasonsdeli-96af40"}},
{"type": "Feature", "id": "VqSZJfnziNWBpElT_UpBaFHcqLM=", "properties": {"ref": "wichita-falls-deli", "@spider": "jasonsdeli", "amenity": "restaurant", "cuisine": "sandwich", "addr:full": "2", "addr:city": "Wichita Falls", "addr:state": "Texas", "addr:postcode": "76308", "name": "Wichita Falls Deli", "phone": "940-761-5313", "website": "https://www.jasonsdeli.com/restaurants/wichita-falls-deli", "opening_hours": "Mo-Su 10:00-22:00", "brand": "Jason's Deli", "brand:wikidata": "Q16997641", "nsi_id": "jasonsdeli-96af40"}},
{"type": "Feature", "id": "lLtEP9ywRwEg3n2vjxzxLhu7k08=", "properties": {"ref": "weslaco-deli", "@spider": "jasonsdeli", "amenity": "restaurant", "cuisine": "sandwich", "addr:full": "1", "addr:city": "Weslaco", "addr:state": "Texas", "addr:postcode": "78596", "name": "Weslaco Deli", "phone": "956-520-7042", "website": "https://www.jasonsdeli.com/restaurants/weslaco-deli", "opening_hours": "Mo-Su 08:00-22:00", "brand": "Jason's Deli", "brand:wikidata": "Q16997641", "nsi_id": "jasonsdeli-96af40"}},
{"type": "Feature", "id": "RVu_LJfuqSoGY4bcIL2b57uJm50=", "properties": {"ref": "webster-deli", "@spider": "jasonsdeli", "amenity": "restaurant", "cuisine": "sandwich", "addr:full": "5", "addr:city": "Webster", "addr:state": "Texas", "addr:postcode": "77598", "name": "Clear Lake Deli", "phone": "281-338-8000", "website": "https://www.jasonsdeli.com/restaurants/webster-deli", "opening_hours": "Mo-Su 10:00-22:00", "brand": "Jason's Deli", "brand:wikidata": "Q16997641", "nsi_id": "jasonsdeli-96af40"}},
{"type": "Feature", "id": "h5_0OlTC7wGrdSfIbQBu9XD-sf4=", "properties": {"ref": "waco-deli", "@spider": "jasonsdeli", "amenity": "restaurant", "cuisine": "sandwich", "addr:full": "4", "addr:city": "Waco", "addr:state": "Texas", "addr:postcode": "76710", "name": "Waco Deli", "phone": "254-772-6611", "website": "https://www.jasonsdeli.com/restaurants/waco-deli", "opening_hours": "Mo-Su 08:00-22:00", "brand": "Jason's Deli", "brand:wikidata": "Q16997641", "nsi_id": "jasonsdeli-96af40"}},
{"type": "Feature", "id": "ASm1tW5mgPqYsffqJ1xOaLvBGpI=", "properties": {"ref": "victoria-deli", "@spider": "jasonsdeli", "amenity": "restaurant", "cuisine": "sandwich", "addr:full": "5", "addr:city": "Victoria", "addr:state": "Texas", "addr:postcode": "77904", "name": "Victoria Deli", "phone": "361-575-3354", "website": "https://www.jasonsdeli.com/restaurants/victoria-deli", "opening_hours": "Mo-Su 08:00-22:00", "brand": "Jason's Deli", "brand:wikidata": "Q16997641", "nsi_id": "jasonsdeli-96af40"}},
{"type": "Feature", "id": "9qTefKHYV6gykhusFYMkvDcx2Uo=", "properties": {"ref": "spring-cypress-plaza-deli", "@spider": "jasonsdeli", "amenity": "restaurant", "cuisine": "sandwich", "addr:full": "2", "addr:city": "Tomball", "addr:state": "Texas", "addr:postcode": "77070", "name": "Spring Cypress Plaza Deli", "phone": "281-257-4725", "website": "https://www.jasonsdeli.com/restaurants/spring-cypress-plaza-deli", "opening_hours": "Mo-Su 10:00-22:00", "brand": "Jason's Deli", "brand:wikidata": "Q16997641", "nsi_id": "jasonsdeli-96af40"}},
{"type": "Feature", "id": "PHmJsia2EJJJe_Yh-q9hE3AoBrc=", "properties": {"ref": "woodlands-deli", "@spider": "jasonsdeli", "amenity": "restaurant", "cuisine": "sandwich", "addr:full": "1", "addr:city": "The Woodlands", "addr:state": "Texas", "addr:postcode": "77380", "name": "The Woodlands Deli", "phone": "281-419-0100", "website": "https://www.jasonsdeli.com/restaurants/woodlands-deli", "opening_hours": "Mo-Su 06:00-22:00", "brand": "Jason's Deli", "brand:wikidata": "Q16997641", "nsi_id": "jasonsdeli-96af40"}},
{"type": "Feature", "id": "PWO7cw-xi3IhycOJWUDL179uh5A=", "properties": {"ref": "texarkana-deli", "@spider": "jasonsdeli", "amenity": "restaurant", "cuisine": "sandwich", "addr:full": "2", "addr:city": "Texarkana", "addr:state": "Texas", "addr:postcode": "75503", "name": "Texarkana Deli", "phone": "903-255-0480", "website": "https://www.jasonsdeli.com/restaurants/texarkana-deli", "opening_hours": "Mo-Su 10:00-22:00", "brand": "Jason's Deli", "brand:wikidata": "Q16997641", "nsi_id": "jasonsdeli-96af40"}},
{"type": "Feature", "id": "a6Zf9TN_BsqgiT-V3DhHNKiBgFU=", "properties": {"ref": "temple-deli", "@spider": "jasonsdeli", "amenity": "restaurant", "cuisine": "sandwich", "addr:full": "3", "addr:city": "Temple", "addr:state": "Texas", "addr:postcode": "76502", "name": "Temple Deli", "phone": "254-771-1948", "website": "https://www.jasonsdeli.com/restaurants/temple-deli", "opening_hours": "Mo-Su 10:00-22:00", "brand": "Jason's Deli", "brand:wikidata": "Q16997641", "nsi_id": "jasonsdeli-96af40"}},
{"type": "Feature", "id": "ympOsXozXKPMdMTU4kgV2jPI92s=", "properties": {"ref": "sugar-land-deli", "@spider": "jasonsdeli", "amenity": "restaurant", "cuisine": "sandwich", "addr:full": "1", "addr:city": "Sugar Land", "addr:state": "Texas", "addr:postcode": "77478", "name": "Sugar Land Deli", "phone": "281-565-3737", "website": "https://www.jasonsdeli.com/restaurants/sugar-land-deli", "opening_hours": "Mo-Su 07:00-22:00", "brand": "Jason's Deli", "brand:wikidata": "Q16997641", "nsi_id": "jasonsdeli-96af40"}},
{"type": "Feature", "id": "ZPSUhPOUkxdn_-GLu9VWlP8F3lE=", "properties": {"ref": "grand-parkway-deli", "@spider": "jasonsdeli", "amenity": "restaurant", "cuisine": "sandwich", "addr:full": "6", "addr:city": "Spring", "addr:state": "Texas", "addr:postcode": "77389", "name": "Grand Parkway Deli", "phone": "(832) 717-0444", "website": "https://www.jasonsdeli.com/restaurants/grand-parkway-deli", "opening_hours": "Mo-Su 10:00-22:00", "brand": "Jason's Deli", "brand:wikidata": "Q16997641", "nsi_id": "jasonsdeli-96af40"}},
{"type": "Feature", "id": "UhEQ8LvqrtfrX5B3VNS_pWOH8w0=", "properties": {"ref": "san-marcos-deli", "@spider": "jasonsdeli", "amenity": "restaurant", "cuisine": "sandwich", "addr:full": "9", "addr:city": "San Marcos", "addr:state": "Texas", "addr:postcode": "78666", "name": "San Marcos Deli", "phone": "512-393-3354", "website": "https://www.jasonsdeli.com/restaurants/san-marcos-deli", "opening_hours": "Mo-Su 10:00-22:00", "brand": "Jason's Deli", "brand:wikidata": "Q16997641", "nsi_id": "jasonsdeli-96af40"}},
{"type": "Feature", "id": "p7iby1rq1H2OiBMNkqi7gUy6wmg=", "properties": {"ref": "sonterra-deli", "@spider": "jasonsdeli", "amenity": "restaurant", "cuisine": "sandwich", "addr:full": "1", "addr:city": "San Antonio", "addr:state": "Texas", "addr:postcode": "78258", "name": "Sonterra Deli", "phone": "210-545-6888", "website": "https://www.jasonsdeli.com/restaurants/sonterra-deli", "opening_hours": "Mo-Su 10:00-21:00", "brand": "Jason's Deli", "brand:wikidata": "Q16997641", "nsi_id": "jasonsdeli-96af40"}},
{"type": "Feature", "id": "1xGqV_TVOJfAS32rmWTAJd1URgc=", "properties": {"ref": "pavilions-deli", "@spider": "jasonsdeli", "amenity": "restaurant", "cuisine": "sandwich", "addr:full": "2", "addr:city": "San Antonio", "addr:state": "Texas", "addr:postcode": "78216", "name": "Pavilions Deli", "phone": "210-524-9288", "website": "https://www.jasonsdeli.com/restaurants/pavilions-deli", "opening_hours": "Mo-Su 10:00-21:00", "brand": "Jason's Deli", "brand:wikidata": "Q16997641", "nsi_id": "jasonsdeli-96af40"}},
{"type": "Feature", "id": "q-ftBJr4mSEUyvzMMV9pmzLsmJY=", "properties": {"ref": "exchange-deli", "@spider": "jasonsdeli", "amenity": "restaurant", "cuisine": "sandwich", "addr:full": "5", "addr:city": "San Antonio", "addr:state": "Texas", "addr:postcode": "78238", "name": "Exchange Deli", "phone": "210-647-5000", "website": "https://www.jasonsdeli.com/restaurants/exchange-deli", "opening_hours": "Mo-Su 10:00-21:00", "brand": "Jason's Deli", "brand:wikidata": "Q16997641", "nsi_id": "jasonsdeli-96af40"}},
{"type": "Feature", "id": "9mAwDPrf76HjiCnHmTX5P2MsdBY=", "properties": {"ref": "colonnade-deli", "@spider": "jasonsdeli", "amenity": "restaurant", "cuisine": "sandwich", "addr:full": "9", "addr:city": "San Antonio", "addr:state": "Texas", "addr:postcode": "78230", "name": "Colonnade Deli", "phone": "210-690-3354", "website": "https://www.jasonsdeli.com/restaurants/colonnade-deli", "opening_hours": "Mo-Su 10:00-21:00", "brand": "Jason's Deli", "brand:wikidata": "Q16997641", "nsi_id": "jasonsdeli-96af40"}},
{"type": "Feature", "id": "l8Xp9iYNeByOnuGIE79EKIx6fBU=", "properties": {"ref": "alamo-ranch-deli", "@spider": "jasonsdeli", "amenity": "restaurant", "cuisine": "sandwich", "addr:full": "5", "addr:city": "San Antonio", "addr:state": "Texas", "addr:postcode": "78253", "name": "Alamo Ranch Deli", "phone": "210-688-0112", "website": "https://www.jasonsdeli.com/restaurants/alamo-ranch-deli", "opening_hours": "Mo-Su 10:00-21:00", "brand": "Jason's Deli", "brand:wikidata": "Q16997641", "nsi_id": "jasonsdeli-96af40"}},
{"type": "Feature", "id": "3d2d7xSSt4AkVy3Z6TOX9Mxqh6c=", "properties": {"ref": "san-angelo", "@spider": "jasonsdeli", "amenity": "restaurant", "cuisine": "sandwich", "addr:full": "1", "addr:city": "San Angelo", "addr:state": "Texas", "addr:postcode": "76904", "name": "NOW OPEN!", "phone": " 325-617-5215", "website": "https://www.jasonsdeli.com/restaurants/san-angelo", "opening_hours": "Mo-Su 10:00-22:00", "brand": "Jason's Deli", "brand:wikidata": "Q16997641", "nsi_id": "jasonsdeli-96af40"}},
{"type": "Feature", "id": "xKB6Cl7KLCUrpHku-vaVlozI6CA=", "properties": {"ref": "rowlett-deli", "@spider": "jasonsdeli", "amenity": "restaurant", "cuisine": "sandwich", "addr:full": "5", "addr:city": "Rowlett", "addr:state": "Texas", "addr:postcode": "75089", "name": "Rowlett Deli", "phone": "972-475-0088", "website": "https://www.jasonsdeli.com/restaurants/rowlett-deli", "opening_hours": "Mo-Su 10:00-21:00", "brand": "Jason's Deli", "brand:wikidata": "Q16997641", "nsi_id": "jasonsdeli-96af40"}},
{"type": "Feature", "id": "OZYOet3vK3KN19ooCzuQtW00eD8=", "properties": {"ref": "round-rock-deli", "@spider": "jasonsdeli", "amenity": "restaurant", "cuisine": "sandwich", "addr:full": "1", "addr:city": "Round Rock", "addr:state": "Texas", "addr:postcode": "78664", "name": "Round Rock Deli", "phone": "512-238-9023", "website": "https://www.jasonsdeli.com/restaurants/round-rock-deli", "opening_hours": "Mo-Su 08:00-22:00", "brand": "Jason's Deli", "brand:wikidata": "Q16997641", "nsi_id": "jasonsdeli-96af40"}},
{"type": "Feature", "id": "v94p1fwVIAk84Atdbq1bj7F6W08=", "properties": {"ref": "rosenberg-deli", "@spider": "jasonsdeli", "amenity": "restaurant", "cuisine": "sandwich", "addr:full": "2", "addr:city": "Rosenberg", "addr:state": "Texas", "addr:postcode": "77471", "name": "Rosenberg Deli ", "phone": "281-239-3196", "website": "https://www.jasonsdeli.com/restaurants/rosenberg-deli", "opening_hours": "Mo-Su 07:00-22:00", "brand": "Jason's Deli", "brand:wikidata": "Q16997641", "nsi_id": "jasonsdeli-96af40"}},
{"type": "Feature", "id": "aWZn_qiWFauJoLj2MY4KtrlFHaQ=", "properties": {"ref": "roanoke-deli", "@spider": "jasonsdeli", "amenity": "restaurant", "cuisine": "sandwich", "addr:full": "1", "addr:city": "Roanoke", "addr:state": "Texas", "addr:postcode": "76262", "name": "Roanoke Deli", "phone": "682-831-1401", "website": "https://www.jasonsdeli.com/restaurants/roanoke-deli", "opening_hours": "Mo-Su 08:00-22:00", "brand": "Jason's Deli", "brand:wikidata": "Q16997641", "nsi_id": "jasonsdeli-96af40"}},
{"type": "Feature", "id": "MeRRc6D_FAeSa5KaC5I6X22Z9eA=", "properties": {"ref": "richardson-square", "@spider": "jasonsdeli", "amenity": "restaurant", "cuisine": "sandwich", "addr:full": "1", "addr:city": "Richardson", "addr:state": "Texas", "addr:postcode": "75081", "name": "Richardson Square Deli ", "phone": "972-737-2553", "website": "https://www.jasonsdeli.com/restaurants/richardson-square", "opening_hours": "Mo-Su 10:00-22:00", "brand": "Jason's Deli", "brand:wikidata": "Q16997641", "nsi_id": "jasonsdeli-96af40"}},
{"type": "Feature", "id": "Td6bisgDsvanUOIHSvU7ZeLQtro=", "properties": {"ref": "dal-rich-deli", "@spider": "jasonsdeli", "amenity": "restaurant", "cuisine": "sandwich", "addr:full": "1", "addr:city": "Richardson", "addr:state": "Texas", "addr:postcode": "75080", "name": "Dal-Rich Deli", "phone": "972-437-9156", "website": "https://www.jasonsdeli.com/restaurants/dal-rich-deli", "opening_hours": "Mo-Su 10:00-22:00", "brand": "Jason's Deli", "brand:wikidata": "Q16997641", "nsi_id": "jasonsdeli-96af40"}},
{"type": "Feature", "id": "1pJ8lJOVIaSmqRnpp3w21ix6IOo=", "properties": {"ref": "central-mall-deli", "@spider": "jasonsdeli", "amenity": "restaurant", "cuisine": "sandwich", "addr:full": "3", "addr:city": "Port Arthur", "addr:state": "Texas", "addr:postcode": "77627", "name": "Central Mall Deli", "phone": "409-727-6420", "website": "https://www.jasonsdeli.com/restaurants/central-mall-deli", "opening_hours": "Mo-Su 10:00-22:00", "brand": "Jason's Deli", "brand:wikidata": "Q16997641", "nsi_id": "jasonsdeli-96af40"}},
{"type": "Feature", "id": "X55ENuwMxgjsn2zVdGKHFeZKjWw=", "properties": {"ref": "west-plano-deli", "@spider": "jasonsdeli", "amenity": "restaurant", "cuisine": "sandwich", "addr:full": "4", "addr:city": "Plano", "addr:state": "Texas", "addr:postcode": "75093", "name": "West Plano Deli", "phone": "972-519-0022", "website": "https://www.jasonsdeli.com/restaurants/west-plano-deli", "opening_hours": "Mo-Su 10:00-22:00", "brand": "Jason's Deli", "brand:wikidata": "Q16997641", "nsi_id": "jasonsdeli-96af40"}},
{"type": "Feature", "id": "nwHRme4-Qs0OJXGf_SHzMkWohhw=", "properties": {"ref": "collin-creek-mall-deli", "@spider": "jasonsdeli", "amenity": "restaurant", "cuisine": "sandwich", "addr:full": "9", "addr:city": "Plano", "addr:state": "Texas", "addr:postcode": "75075", "name": "Collin Creek Mall & Central Expressway Deli", "phone": "972-578-2520", "website": "https://www.jasonsdeli.com/restaurants/collin-creek-mall-deli", "opening_hours": "Mo-Su 10:00-22:00", "brand": "Jason's Deli", "brand:wikidata": "Q16997641", "nsi_id": "jasonsdeli-96af40"}},
{"type": "Feature", "id": "Xg_qucGGmnimIltj1YDURXCP4fg=", "properties": {"ref": "pearland-deli", "@spider": "jasonsdeli", "amenity": "restaurant", "cuisine": "sandwich", "addr:full": "9", "addr:city": "Pearland", "addr:state": "Texas", "addr:postcode": "77584", "name": "Pearland Deli", "phone": "713-340-2662", "website": "https://www.jasonsdeli.com/restaurants/pearland-deli", "opening_hours": "Mo-Su 08:00-22:00", "brand": "Jason's Deli", "brand:wikidata": "Q16997641", "nsi_id": "jasonsdeli-96af40"}},
{"type": "Feature", "id": "FHhVwzFaUcu-9NW7Z09vyAnp89E=", "properties": {"ref": "pasadena-deli", "@spider": "jasonsdeli", "amenity": "restaurant", "cuisine": "sandwich", "addr:full": "3", "addr:city": "Pasadena", "addr:state": "Texas", "addr:postcode": "77504", "name": "Pasadena Deli", "phone": "713-946-3354", "website": "https://www.jasonsdeli.com/restaurants/pasadena-deli", "opening_hours": "Mo-Su 10:00-22:00", "brand": "Jason's Deli", "brand:wikidata": "Q16997641", "nsi_id": "jasonsdeli-96af40"}},
{"type": "Feature", "id": "uhqlvoVfOq_fHkJDZfxBl8OWk04=", "properties": {"ref": "odessa-deli", "@spider": "jasonsdeli", "amenity": "restaurant", "cuisine": "sandwich", "addr:full": "3", "addr:city": "Odessa", "addr:state": "Texas", "addr:postcode": "79761", "name": "Odessa Deli", "phone": "432-362-3135", "website": "https://www.jasonsdeli.com/restaurants/odessa-deli", "opening_hours": "Mo-Su 10:00-22:00", "brand": "Jason's Deli", "brand:wikidata": "Q16997641", "nsi_id": "jasonsdeli-96af40"}},
{"type": "Feature", "id": "s-r-DxBSpb5u1yTSjQF6ryWwlHU=", "properties": {"ref": "new-braunfels-deli", "@spider": "jasonsdeli", "amenity": "restaurant", "cuisine": "sandwich", "addr:full": "2", "addr:city": "New Braunfels", "addr:state": "Texas", "addr:postcode": "78130", "name": "New Braunfels Deli", "phone": "830-620-7000", "website": "https://www.jasonsdeli.com/restaurants/new-braunfels-deli", "opening_hours": "Mo-Su 10:00-22:00", "brand": "Jason's Deli", "brand:wikidata": "Q16997641", "nsi_id": "jasonsdeli-96af40"}},
{"type": "Feature", "id": "JoPY0XaOorrtaGrz46mbJCCOfHA=", "properties": {"ref": "murphy-deli", "@spider": "jasonsdeli", "amenity": "restaurant", "cuisine": "sandwich", "addr:full": "2", "addr:city": "Murphy", "addr:state": "Texas", "addr:postcode": "75094", "name": "Murphy Deli", "phone": "972-881-0074", "website": "https://www.jasonsdeli.com/restaurants/murphy-deli", "opening_hours": "Mo-Su 07:00-22:00", "brand": "Jason's Deli", "brand:wikidata": "Q16997641", "nsi_id": "jasonsdeli-96af40"}},
{"type": "Feature", "id": "FtIlTaI0qNcG9gnx7KF4RDZ6vws=", "properties": {"ref": "midland-deli", "@spider": "jasonsdeli", "amenity": "restaurant", "cuisine": "sandwich", "addr:full": "4", "addr:city": "Midland", "addr:state": "Texas", "addr:postcode": "79705", "name": "Midland Deli", "phone": "432-682-2200", "website": "https://www.jasonsdeli.com/restaurants/midland-deli", "opening_hours": "Mo-Su 10:00-22:00", "brand": "Jason's Deli", "brand:wikidata": "Q16997641", "nsi_id": "jasonsdeli-96af40"}},
{"type": "Feature", "id": "sukR_wde0DsRo6LQBHFp4UvDYbE=", "properties": {"ref": "mesquite-deli", "@spider": "jasonsdeli", "amenity": "restaurant", "cuisine": "sandwich", "addr:full": "1", "addr:city": "Mesquite", "addr:state": "Texas", "addr:postcode": "75150", "name": "Mesquite Deli", "phone": "972-681-7878", "website": "https://www.jasonsdeli.com/restaurants/mesquite-deli", "opening_hours": "Mo-Su 10:00-22:00", "brand": "Jason's Deli", "brand:wikidata": "Q16997641", "nsi_id": "jasonsdeli-96af40"}},
{"type": "Feature", "id": "hHLlZIWxK_9KwuhYQtXy9T-PqqU=", "properties": {"ref": "mckinney-deli", "@spider": "jasonsdeli", "amenity": "restaurant", "cuisine": "sandwich", "addr:full": "1", "addr:city": "McKinney", "addr:state": "Texas", "addr:postcode": "75071", "name": "McKinney Deli", "phone": "972-542-9393", "website": "https://www.jasonsdeli.com/restaurants/mckinney-deli", "opening_hours": "Mo-Su 10:00-22:00", "brand": "Jason's Deli", "brand:wikidata": "Q16997641", "nsi_id": "jasonsdeli-96af40"}},
{"type": "Feature", "id": "VUBQ1lrHdi3j6r5Pv0c8agBkOxo=", "properties": {"ref": "south-mcallen-deli", "@spider": "jasonsdeli", "amenity": "restaurant", "cuisine": "sandwich", "addr:full": "1", "addr:city": "McAllen", "addr:state": "Texas", "addr:postcode": "78503", "name": "South McAllen Deli", "phone": "956-664-1700", "website": "https://www.jasonsdeli.com/restaurants/south-mcallen-deli", "opening_hours": "Mo-Su 08:00-22:00", "brand": "Jason's Deli", "brand:wikidata": "Q16997641", "nsi_id": "jasonsdeli-96af40"}},
{"type": "Feature", "id": "HJw1iBq7j3fY3CRaFq0krfYGhWc=", "properties": {"ref": "north-mcallen-deli", "@spider": "jasonsdeli", "amenity": "restaurant", "cuisine": "sandwich", "addr:full": "4", "addr:city": "McAllen", "addr:state": "Texas", "addr:postcode": "78504", "name": "North McAllen Deli", "phone": "956-664-2199", "website": "https://www.jasonsdeli.com/restaurants/north-mcallen-deli", "opening_hours": "Mo-Su 08:00-22:00", "brand": "Jason's Deli", "brand:wikidata": "Q16997641", "nsi_id": "jasonsdeli-96af40"}},
{"type": "Feature", "id": "XqpDEvEw3nWdKu6p7bYi3jlScoc=", "properties": {"ref": "mansfield-deli", "@spider": "jasonsdeli", "amenity": "restaurant", "cuisine": "sandwich", "addr:full": "1", "addr:city": "Mansfield", "addr:state": "Texas", "addr:postcode": "76063", "name": "Mansfield Deli", "phone": "817-453-7868", "website": "https://www.jasonsdeli.com/restaurants/mansfield-deli", "opening_hours": "Mo-Su 10:00-22:00", "brand": "Jason's Deli", "brand:wikidata": "Q16997641", "nsi_id": "jasonsdeli-96af40"}},
{"type": "Feature", "id": "25thSDpLM_uUqBpb9dh750UenbU=", "properties": {"ref": "west-woodlands-deli", "@spider": "jasonsdeli", "amenity": "restaurant", "cuisine": "sandwich", "addr:full": "3", "addr:city": "Magnolia", "addr:state": "Texas", "addr:postcode": "77354", "name": "West Woodlands Deli", "phone": "(281) 259-8120", "website": "https://www.jasonsdeli.com/restaurants/west-woodlands-deli", "opening_hours": "Mo-Su 10:00-22:00", "brand": "Jason's Deli", "brand:wikidata": "Q16997641", "nsi_id": "jasonsdeli-96af40"}},
{"type": "Feature", "id": "q-us9gd-U8sZdbr_vLN8W0BTAE8=", "properties": {"ref": "lubbock-deli", "@spider": "jasonsdeli", "amenity": "restaurant", "cuisine": "sandwich", "addr:full": "4", "addr:city": "Lubbock", "addr:state": "Texas", "addr:postcode": "79423", "name": "Lubbock Deli", "phone": "806-799-8660", "website": "https://www.jasonsdeli.com/restaurants/lubbock-deli", "opening_hours": "Mo-Su 10:00-22:00", "brand": "Jason's Deli", "brand:wikidata": "Q16997641", "nsi_id": "jasonsdeli-96af40"}},
{"type": "Feature", "id": "12A_lWVBRFfuogOJ8LzGUuL235w=", "properties": {"ref": "longview-deli", "@spider": "jasonsdeli", "amenity": "restaurant", "cuisine": "sandwich", "addr:full": "1", "addr:city": "Longview", "addr:state": "Texas", "addr:postcode": "75605", "name": "Longview Deli", "phone": "903-663-5161", "website": "https://www.jasonsdeli.com/restaurants/longview-deli", "opening_hours": "Mo-Su 10:00-21:00", "brand": "Jason's Deli", "brand:wikidata": "Q16997641", "nsi_id": "jasonsdeli-96af40"}},
{"type": "Feature", "id": "v1ABEQkAyyt7esC52IyOA2ATGw4=", "properties": {"ref": "lewisville-deli", "@spider": "jasonsdeli", "amenity": "restaurant", "cuisine": "sandwich", "addr:full": "7", "addr:city": "Lewisville", "addr:state": "Texas", "addr:postcode": "75057", "name": "Lewisville Deli", "phone": "972-459-2905", "website": "https://www.jasonsdeli.com/restaurants/lewisville-deli", "opening_hours": "Mo-Su 10:00-22:00", "brand": "Jason's Deli", "brand:wikidata": "Q16997641", "nsi_id": "jasonsdeli-96af40"}},
{"type": "Feature", "id": "gY9gl3Ps3wv2mFRdIl__zmehzsc=", "properties": {"ref": "league-city-deli", "@spider": "jasonsdeli", "amenity": "restaurant", "cuisine": "sandwich", "addr:full": "2", "addr:city": "League City", "addr:state": "Texas", "addr:postcode": "77573", "name": "League City Deli", "phone": "(281) 309-0007", "website": "https://www.jasonsdeli.com/restaurants/league-city-deli", "opening_hours": "Mo-Su 08:00-22:00", "brand": "Jason's Deli", "brand:wikidata": "Q16997641", "nsi_id": "jasonsdeli-96af40"}},
{"type": "Feature", "id": "52Bdardno_7iDCNsyp-hOqmp9-I=", "properties": {"ref": "lakeway-deli", "@spider": "jasonsdeli", "amenity": "restaurant", "cuisine": "sandwich", "addr:full": "1", "addr:city": "Lakeway", "addr:state": "Texas", "addr:postcode": "78734", "name": "Lakeway Deli", "phone": "512-263-8928", "website": "https://www.jasonsdeli.com/restaurants/lakeway-deli", "opening_hours": "Mo-Su 10:00-22:00", "brand": "Jason's Deli", "brand:wikidata": "Q16997641", "nsi_id": "jasonsdeli-96af40"}},
{"type": "Feature", "id": "d8fXIC5OxH7L8Nc6W-0joJp_NUo=", "properties": {"ref": "kingwood-deli", "@spider": "jasonsdeli", "amenity": "restaurant", "cuisine": "sandwich", "addr:full": "1", "addr:city": "Kingwood", "addr:state": "Texas", "addr:postcode": "77339", "name": "Kingwood Deli", "phone": "281-358-2603", "website": "https://www.jasonsdeli.com/restaurants/kingwood-deli", "opening_hours": "Mo-Su 06:00-22:00", "brand": "Jason's Deli", "brand:wikidata": "Q16997641", "nsi_id": "jasonsdeli-96af40"}},
{"type": "Feature", "id": "htcGYKLGJzinUTRZyJUemeTLY08=", "properties": {"ref": "killeen-deli", "@spider": "jasonsdeli", "amenity": "restaurant", "cuisine": "sandwich", "addr:full": "3", "addr:city": "Killeen", "addr:state": "Texas", "addr:postcode": "76543", "name": "Killeen Deli", "phone": "254-690-7888", "website": "https://www.jasonsdeli.com/restaurants/killeen-deli", "opening_hours": "Mo-Su 10:00-22:00", "brand": "Jason's Deli", "brand:wikidata": "Q16997641", "nsi_id": "jasonsdeli-96af40"}},
{"type": "Feature", "id": "vG82ehxWWyVA0HoaUcE_U06P4vA=", "properties": {"ref": "keller-deli", "@spider": "jasonsdeli", "amenity": "restaurant", "cuisine": "sandwich", "addr:full": "1", "addr:city": "Keller", "addr:state": "Texas", "addr:postcode": "76248", "name": "Keller Deli", "phone": "817-379-4342", "website": "https://www.jasonsdeli.com/restaurants/keller-deli", "opening_hours": "Mo-Su 10:00-22:00", "brand": "Jason's Deli", "brand:wikidata": "Q16997641", "nsi_id": "jasonsdeli-96af40"}},
{"type": "Feature", "id": "IFBTnEE199iyu8nCghpiDPdm-zM=", "properties": {"ref": "katy-deli", "@spider": "jasonsdeli", "amenity": "restaurant", "cuisine": "sandwich", "addr:full": "3", "addr:city": "Katy", "addr:state": "Texas", "addr:postcode": "77450", "name": "Katy Deli", "phone": "281-693-3354", "website": "https://www.jasonsdeli.com/restaurants/katy-deli", "opening_hours": "Mo-Su 08:00-22:00", "brand": "Jason's Deli", "brand:wikidata": "Q16997641", "nsi_id": "jasonsdeli-96af40"}},
{"type": "Feature", "id": "JPEHGjhlIRm-BzdITxtjkTAOabA=", "properties": {"ref": "irving-deli", "@spider": "jasonsdeli", "amenity": "restaurant", "cuisine": "sandwich", "addr:full": "7", "addr:city": "Irving", "addr:state": "Texas", "addr:postcode": "75063", "name": "Irving Deli", "phone": "972-432-0555", "website": "https://www.jasonsdeli.com/restaurants/irving-deli", "opening_hours": "Mo-Su 10:00-22:00", "brand": "Jason's Deli", "brand:wikidata": "Q16997641", "nsi_id": "jasonsdeli-96af40"}},
{"type": "Feature", "id": "DY9STMlwGjkPbbhkUIlpwrTNN1k=", "properties": {"ref": "humble-deli", "@spider": "jasonsdeli", "amenity": "restaurant", "cuisine": "sandwich", "addr:full": "1", "addr:city": "Humble", "addr:state": "Texas", "addr:postcode": "77338", "name": "Humble Deli", "phone": "281-540-2551", "website": "https://www.jasonsdeli.com/restaurants/humble-deli", "opening_hours": "Mo-Su 10:00-22:00", "brand": "Jason's Deli", "brand:wikidata": "Q16997641", "nsi_id": "jasonsdeli-96af40"}},
{"type": "Feature", "id": "Ibx2TEqMAp1B9TstYNmVobJCD34=", "properties": {"ref": "wilcrest-deli", "@spider": "jasonsdeli", "amenity": "restaurant", "cuisine": "sandwich", "addr:full": "1", "addr:city": "Houston", "addr:state": "Texas", "addr:postcode": "77042", "name": "Wilcrest Deli", "phone": "713-975-0357", "website": "https://www.jasonsdeli.com/restaurants/wilcrest-deli", "opening_hours": "Mo-Su 08:00-22:00", "brand": "Jason's Deli", "brand:wikidata": "Q16997641", "nsi_id": "jasonsdeli-96af40"}},
{"type": "Feature", "id": "DXXB-mqL96_CB9QnPOg_0va0dZA=", "properties": {"ref": "shepherd-square-deli", "@spider": "jasonsdeli", "amenity": "restaurant", "cuisine": "sandwich", "addr:full": "2", "addr:city": "Houston", "addr:state": "Texas", "addr:postcode": "77098", "name": "Shepherd Square Deli", "phone": "713-520-6728", "website": "https://www.jasonsdeli.com/restaurants/shepherd-square-deli", "opening_hours": "Mo-Su 10:00-22:00", "brand": "Jason's Deli", "brand:wikidata": "Q16997641", "nsi_id": "jasonsdeli-96af40"}},
{"type": "Feature", "id": "yFvEiWtJoqptcyBam2X-4LgJMNU=", "properties": {"ref": "memorial-city-deli", "@spider": "jasonsdeli", "amenity": "restaurant", "cuisine": "sandwich", "addr:full": "1", "addr:city": "Houston", "addr:state": "Texas", "addr:postcode": "77024", "name": "Memorial City Deli", "phone": "713-467-2007", "website": "https://www.jasonsdeli.com/restaurants/memorial-city-deli", "opening_hours": "Mo-Su 10:00-22:00", "brand": "Jason's Deli", "brand:wikidata": "Q16997641", "nsi_id": "jasonsdeli-96af40"}},
{"type": "Feature", "id": "rIP-qKKP-8S982HaCxbLv0deNaE=", "properties": {"ref": "jones-road-deli", "@spider": "jasonsdeli", "amenity": "restaurant", "cuisine": "sandwich", "addr:full": "1", "addr:city": "Houston", "addr:state": "Texas", "addr:postcode": "77065", "name": "Jones Road Deli", "phone": "281-970-5044", "website": "https://www.jasonsdeli.com/restaurants/jones-road-deli", "opening_hours": "Mo-Su 10:00-22:00", "brand": "Jason's Deli", "brand:wikidata": "Q16997641", "nsi_id": "jasonsdeli-96af40"}},
{"type": "Feature", "id": "C-a86Bwmf93uaYnT1iLLEqmOGmo=", "properties": {"ref": "hwy-290-deli", "@spider": "jasonsdeli", "amenity": "restaurant", "cuisine": "sandwich", "addr:full": "1", "addr:city": "Houston", "addr:state": "Texas", "addr:postcode": "77092", "name": "Hwy 290 Deli", "phone": "713-956-0122", "website": "https://www.jasonsdeli.com/restaurants/hwy-290-deli", "opening_hours": "Mo-Sa 10:00-21:00; Su 10:00-16:00", "brand": "Jason's Deli", "brand:wikidata": "Q16997641", "nsi_id": "jasonsdeli-96af40"}},
{"type": "Feature", "id": "4r5m6X8rqhUSTzH85WMUbdDzypo=", "properties": {"ref": "galleria-deli", "@spider": "jasonsdeli", "amenity": "restaurant", "cuisine": "sandwich", "addr:full": "5", "addr:city": "Houston", "addr:state": "Texas", "addr:postcode": "77057", "name": "Galleria Deli", "phone": "713-975-7878", "website": "https://www.jasonsdeli.com/restaurants/galleria-deli", "opening_hours": "Mo-Su 08:00-22:00", "brand": "Jason's Deli", "brand:wikidata": "Q16997641", "nsi_id": "jasonsdeli-96af40"}},
{"type": "Feature", "id": "eaYgQctjp96cuzLm7XkfoK_sAZs=", "properties": {"ref": "east-houston-deli", "@spider": "jasonsdeli", "amenity": "restaurant", "cuisine": "sandwich", "addr:full": "1", "addr:city": "Houston", "addr:state": "Texas", "addr:postcode": "77015", "name": "East Houston Deli", "phone": "713-637-8879", "website": "https://www.jasonsdeli.com/restaurants/east-houston-deli", "opening_hours": "Mo-Su 10:00-22:00", "brand": "Jason's Deli", "brand:wikidata": "Q16997641", "nsi_id": "jasonsdeli-96af40"}},
{"type": "Feature", "id": "xITdfgdCVHnlmRfGeBLYX32NKRw=", "properties": {"ref": "downtown-houston-mckinney-deli", "@spider": "jasonsdeli", "amenity": "restaurant", "cuisine": "sandwich", "addr:full": "9", "addr:city": "Houston", "addr:state": "Texas", "addr:postcode": "77002", "name": "Downtown Houston McKinney Deli", "phone": "713-650-1500", "website": "https://www.jasonsdeli.com/restaurants/downtown-houston-mckinney-deli", "opening_hours": "Mo-Fr 07:00-15:00", "brand": "Jason's Deli", "brand:wikidata": "Q16997641", "nsi_id": "jasonsdeli-96af40"}},
{"type": "Feature", "id": "iJSsBeTl9TFHIksusnuswDxV4ac=", "properties": {"ref": "dairy-ashford-deli", "@spider": "jasonsdeli", "amenity": "restaurant", "cuisine": "sandwich", "addr:full": "1", "addr:city": "Houston", "addr:state": "Texas", "addr:postcode": "77079", "name": "Dairy Ashford Deli", "phone": "281-531-1999", "website": "https://www.jasonsdeli.com/restaurants/dairy-ashford-deli", "opening_hours": "Mo-Su 08:00-22:00", "brand": "Jason's Deli", "brand:wikidata": "Q16997641", "nsi_id": "jasonsdeli-96af40"}},
{"type": "Feature", "id": "MJGADfH8DfIklsoZkkYlog4qY-k=", "properties": {"ref": "copperfield-deli", "@spider": "jasonsdeli", "amenity": "restaurant", "cuisine": "sandwich", "addr:full": "7", "addr:city": "Houston", "addr:state": "Texas", "addr:postcode": "77095", "name": "Copperfield Deli", "phone": "281-858-7500", "website": "https://www.jasonsdeli.com/restaurants/copperfield-deli", "opening_hours": "Mo-Su 10:00-22:00", "brand": "Jason's Deli", "brand:wikidata": "Q16997641", "nsi_id": "jasonsdeli-96af40"}},
{"type": "Feature", "id": "YKp5JJURI1QqSkmD9hCgD3S90G8=", "properties": {"ref": "champions-deli", "@spider": "jasonsdeli", "amenity": "restaurant", "cuisine": "sandwich", "addr:full": "5", "addr:city": "Houston", "addr:state": "Texas", "addr:postcode": "77069", "name": "Champions Deli", "phone": "281-444-7515", "website": "https://www.jasonsdeli.com/restaurants/champions-deli", "opening_hours": "Mo-Su 07:00-22:00", "brand": "Jason's Deli", "brand:wikidata": "Q16997641", "nsi_id": "jasonsdeli-96af40"}},
{"type": "Feature", "id": "CB26jB1U8ia4lb3ENAygPgNVZpQ=", "properties": {"ref": "harlingen-deli", "@spider": "jasonsdeli", "amenity": "restaurant", "cuisine": "sandwich", "addr:full": "2", "addr:city": "Harlingen", "addr:state": "Texas", "addr:postcode": "78550", "name": "Harlingen Deli", "phone": "956-428-3354", "website": "https://www.jasonsdeli.com/restaurants/harlingen-deli", "opening_hours": "Mo-Su 08:00-22:00", "brand": "Jason's Deli", "brand:wikidata": "Q16997641", "nsi_id": "jasonsdeli-96af40"}},
{"type": "Feature", "id": "TqnxGt0wVD-qc9MIX0Hw9hxlMhQ=", "properties": {"ref": "grapevine-deli", "@spider": "jasonsdeli", "amenity": "restaurant", "cuisine": "sandwich", "addr:full": "1", "addr:city": "Grapevine", "addr:state": "Texas", "addr:postcode": "76051", "name": "Grapevine Deli", "phone": "817-421-0566", "website": "https://www.jasonsdeli.com/restaurants/grapevine-deli", "opening_hours": "Mo-Su 10:00-22:00", "brand": "Jason's Deli", "brand:wikidata": "Q16997641", "nsi_id": "jasonsdeli-96af40"}},
{"type": "Feature", "id": "p3Lw4gfjJw2xFBFonVRcJTCqHvY=", "properties": {"ref": "grand-prairie-deli", "@spider": "jasonsdeli", "amenity": "restaurant", "cuisine": "sandwich", "addr:full": "3", "addr:city": "Grand Prairie", "addr:state": "Texas", "addr:postcode": "75052", "name": "Grand Prairie Deli", "phone": "972-602-9565", "website": "https://www.jasonsdeli.com/restaurants/grand-prairie-deli", "opening_hours": "Mo-Su 10:00-22:00", "brand": "Jason's Deli", "brand:wikidata": "Q16997641", "nsi_id": "jasonsdeli-96af40"}},
{"type": "Feature", "id": "dUt7Xw9AEaw2eQwfRpDXT4tlMS0=", "properties": {"ref": "georgetown-deli", "@spider": "jasonsdeli", "amenity": "restaurant", "cuisine": "sandwich", "addr:full": "1", "addr:city": "Georgetown", "addr:state": "Texas", "addr:postcode": "78626", "name": "Georgetown Deli", "phone": "512-688-4275", "website": "https://www.jasonsdeli.com/restaurants/georgetown-deli", "opening_hours": "Mo-Su 10:00-22:00", "brand": "Jason's Deli", "brand:wikidata": "Q16997641", "nsi_id": "jasonsdeli-96af40"}},
{"type": "Feature", "id": "lez17f-RNr699GktW4yT8Kb3_EU=", "properties": {"ref": "stonebriar-centre-deli", "@spider": "jasonsdeli", "amenity": "restaurant", "cuisine": "sandwich", "addr:full": "8", "addr:city": "Frisco", "addr:state": "Texas", "addr:postcode": "75034", "name": "Stonebriar Centre Deli", "phone": "972-377-8625", "website": "https://www.jasonsdeli.com/restaurants/stonebriar-centre-deli", "opening_hours": "Mo-Su 10:00-22:00", "brand": "Jason's Deli", "brand:wikidata": "Q16997641", "nsi_id": "jasonsdeli-96af40"}},
{"type": "Feature", "id": "PADrO19USZe2D2NNYnF4sMtYKCk=", "properties": {"ref": "sam-rayburn-custer-deli", "@spider": "jasonsdeli", "amenity": "restaurant", "cuisine": "sandwich", "addr:full": "1", "addr:city": "Frisco", "addr:state": "Texas", "addr:postcode": "75035", "name": "Sam Rayburn & Custer Deli ", "phone": "214-383-9974", "website": "https://www.jasonsdeli.com/restaurants/sam-rayburn-custer-deli", "opening_hours": "Mo-Su 10:00-22:00", "brand": "Jason's Deli", "brand:wikidata": "Q16997641", "nsi_id": "jasonsdeli-96af40"}},
{"type": "Feature", "id": "buYGfdfVAP5Aw1ticpLk5XaLDuc=", "properties": {"ref": "eldorado-deli", "@spider": "jasonsdeli", "amenity": "restaurant", "cuisine": "sandwich", "addr:full": "5", "addr:city": "Frisco", "addr:postcode": "75033", "name": "Eldorado Deli", "phone": "469-362-6144", "website": "https://www.jasonsdeli.com/restaurants/eldorado-deli", "opening_hours": "Mo-Su 10:00-22:00", "brand": "Jason's Deli", "brand:wikidata": "Q16997641", "nsi_id": "jasonsdeli-96af40"}},
{"type": "Feature", "id": "93b0DLAMeu0_r34c35tLko5Yhes=", "properties": {"ref": "overton-ridge-deli", "@spider": "jasonsdeli", "amenity": "restaurant", "cuisine": "sandwich", "addr:full": "5", "addr:city": "Fort Worth", "addr:state": "Texas", "addr:postcode": "76132", "name": "Overton Ridge Deli", "phone": "817-370-9187", "website": "https://www.jasonsdeli.com/restaurants/overton-ridge-deli", "opening_hours": "Mo-Su 10:00-22:00", "brand": "Jason's Deli", "brand:wikidata": "Q16997641", "nsi_id": "jasonsdeli-96af40"}},
{"type": "Feature", "id": "ddgnLxDJe6o9dHFdqMwM_C28OTs=", "properties": {"ref": "north-fort-worth-deli", "@spider": "jasonsdeli", "amenity": "restaurant", "cuisine": "sandwich", "addr:full": "9", "addr:city": "Fort Worth", "addr:state": "Texas", "addr:postcode": "76177", "name": "North Fort Worth Deli", "phone": "817-750-0151", "website": "https://www.jasonsdeli.com/restaurants/north-fort-worth-deli", "opening_hours": "Mo-Su 10:00-22:00", "brand": "Jason's Deli", "brand:wikidata": "Q16997641", "nsi_id": "jasonsdeli-96af40"}},
{"type": "Feature", "id": "OHbyohUkxVpcCWC4RYBrGy0cRS4=", "properties": {"ref": "midtown-lane-deli", "@spider": "jasonsdeli", "amenity": "restaurant", "cuisine": "sandwich", "addr:full": "2", "addr:city": "Fort Worth", "addr:state": "Texas", "addr:postcode": "76104", "name": "Midtown Lane Deli", "phone": "817-920-1880", "website": "https://www.jasonsdeli.com/restaurants/midtown-lane-deli", "opening_hours": "Mo-Su 10:00-22:00", "brand": "Jason's Deli", "brand:wikidata": "Q16997641", "nsi_id": "jasonsdeli-96af40"}},
{"type": "Feature", "id": "XKuD2fm5T56CikZ1rvZ7PBywL0o=", "properties": {"ref": "lake-worth-deli", "@spider": "jasonsdeli", "amenity": "restaurant", "cuisine": "sandwich", "addr:full": "6", "addr:city": "Fort Worth", "addr:state": "Texas", "addr:postcode": "76135", "name": "Lake Worth Deli", "phone": "(817) 238-1886", "website": "https://www.jasonsdeli.com/restaurants/lake-worth-deli", "opening_hours": "Mo-Su 10:00-22:00", "brand": "Jason's Deli", "brand:wikidata": "Q16997641", "nsi_id": "jasonsdeli-96af40"}},
{"type": "Feature", "id": "5r02D1vzHKTe-7hVDb-stg68BL4=", "properties": {"ref": "camp-bowie-deli", "@spider": "jasonsdeli", "amenity": "restaurant", "cuisine": "sandwich", "addr:full": "6", "addr:city": "Fort Worth", "addr:state": "Texas", "addr:postcode": "76116", "name": "Camp Bowie Deli", "phone": "817-738-7144", "website": "https://www.jasonsdeli.com/restaurants/camp-bowie-deli", "opening_hours": "Mo-Su 10:00-22:00", "brand": "Jason's Deli", "brand:wikidata": "Q16997641", "nsi_id": "jasonsdeli-96af40"}},
{"type": "Feature", "id": "2-V7Q6xfLSUZQm8KG8WNWpyMcCQ=", "properties": {"ref": "flower-mound-deli", "@spider": "jasonsdeli", "amenity": "restaurant", "cuisine": "sandwich", "addr:full": "6", "addr:city": "Flower Mound", "addr:state": "Texas", "addr:postcode": "75028", "name": "Flower Mound Deli", "phone": "972-355-3867", "website": "https://www.jasonsdeli.com/restaurants/flower-mound-deli", "opening_hours": "Mo-Su 10:00-22:00", "brand": "Jason's Deli", "brand:wikidata": "Q16997641", "nsi_id": "jasonsdeli-96af40"}},
{"type": "Feature", "id": "2dvElF7tE-BAvCwOuhlFvuwALh0=", "properties": {"ref": "mesa-deli", "@spider": "jasonsdeli", "amenity": "restaurant", "cuisine": "sandwich", "addr:full": "7", "addr:city": "El Paso", "addr:state": "Texas", "addr:postcode": "79912", "name": "Mesa Deli", "phone": "915-584-1800", "website": "https://www.jasonsdeli.com/restaurants/mesa-deli", "opening_hours": "Mo-Su 08:00-22:00", "brand": "Jason's Deli", "brand:wikidata": "Q16997641", "nsi_id": "jasonsdeli-96af40"}},
{"type": "Feature", "id": "oYwdeqYBYW4OJl8axJvZwfxl_Ac=", "properties": {"ref": "george-dieter-dr-deli", "@spider": "jasonsdeli", "amenity": "restaurant", "cuisine": "sandwich", "addr:full": "1", "addr:city": "El Paso", "addr:state": "Texas", "addr:postcode": "79936", "name": "George Dieter Dr Deli", "phone": "915-591-7600", "website": "https://www.jasonsdeli.com/restaurants/george-dieter-dr-deli", "opening_hours": "Mo-Su 08:00-22:00", "brand": "Jason's Deli", "brand:wikidata": "Q16997641", "nsi_id": "jasonsdeli-96af40"}},
{"type": "Feature", "id": "evyZuZpir0ZhLyNgDG6JQugCqRU=", "properties": {"ref": "fountains-deli", "@spider": "jasonsdeli", "amenity": "restaurant", "cuisine": "sandwich", "addr:full": "8", "addr:city": "El Paso", "addr:state": "Texas", "addr:postcode": "79925", "name": "Fountains Deli", "phone": "915-532-6200", "website": "https://www.jasonsdeli.com/restaurants/fountains-deli", "opening_hours": "Mo-Su 08:00-21:00", "brand": "Jason's Deli", "brand:wikidata": "Q16997641", "nsi_id": "jasonsdeli-96af40"}},
{"type": "Feature", "id": "H9uvGvNXhznZVr-tlEHpiUa2hbA=", "properties": {"ref": "edinburg-deli", "@spider": "jasonsdeli", "amenity": "restaurant", "cuisine": "sandwich", "addr:full": "1", "addr:city": "Edinburg", "addr:state": "Texas", "addr:postcode": "78539", "name": "Edinburg Deli", "phone": "(956) 250-8053", "website": "https://www.jasonsdeli.com/restaurants/edinburg-deli", "opening_hours": "Mo-Su 08:00-22:00", "brand": "Jason's Deli", "brand:wikidata": "Q16997641", "nsi_id": "jasonsdeli-96af40"}},
{"type": "Feature", "id": "GEIUEVqBf6UFsPD4yOshmi3zB6Q=", "properties": {"ref": "denton-deli", "@spider": "jasonsdeli", "amenity": "restaurant", "cuisine": "sandwich", "addr:full": "2", "addr:city": "Denton", "addr:state": "Texas", "addr:postcode": "76205", "name": "Denton Deli", "phone": "940-484-1234", "website": "https://www.jasonsdeli.com/restaurants/denton-deli", "opening_hours": "Mo-Su 10:00-21:00", "brand": "Jason's Deli", "brand:wikidata": "Q16997641", "nsi_id": "jasonsdeli-96af40"}},
{"type": "Feature", "id": "0_M_TawGt6gxthcdax2_KM688iA=", "properties": {"ref": "mockingbird-ln-deli", "@spider": "jasonsdeli", "amenity": "restaurant", "cuisine": "sandwich", "addr:full": "5", "addr:city": "Dallas", "addr:state": "Texas", "addr:postcode": "75206", "name": "Mockingbird Ln Deli", "phone": "214-821-7021", "website": "https://www.jasonsdeli.com/restaurants/mockingbird-ln-deli", "opening_hours": "Mo-Su 08:00-22:00", "brand": "Jason's Deli", "brand:wikidata": "Q16997641", "nsi_id": "jasonsdeli-96af40"}},
{"type": "Feature", "id": "UR7-KeAeMWb1nTGDLY5d4jaR5Sc=", "properties": {"ref": "downtown-dallas-deli", "@spider": "jasonsdeli", "amenity": "restaurant", "cuisine": "sandwich", "addr:full": "1", "addr:city": "Dallas", "addr:state": "Texas", "addr:postcode": "75202", "name": "Downtown Dallas Deli", "phone": "214-672-9340", "website": "https://www.jasonsdeli.com/restaurants/downtown-dallas-deli", "opening_hours": "Mo-Fr 07:00-15:00", "brand": "Jason's Deli", "brand:wikidata": "Q16997641", "nsi_id": "jasonsdeli-96af40"}},
{"type": "Feature", "id": "lUGEtyI7-NbxuMThFrT8kvGBpRo=", "properties": {"ref": "caruth-plaza-deli", "@spider": "jasonsdeli", "amenity": "restaurant", "cuisine": "sandwich", "addr:full": "9", "addr:city": "Dallas", "addr:state": "Texas", "addr:postcode": "75231", "name": "Caruth Plaza Deli", "phone": "214-739-1800 ", "website": "https://www.jasonsdeli.com/restaurants/caruth-plaza-deli", "opening_hours": "Mo-Su 10:00-22:00", "brand": "Jason's Deli", "brand:wikidata": "Q16997641", "nsi_id": "jasonsdeli-96af40"}},
{"type": "Feature", "id": "Q28jWjXR9n-bn2TxOTiurxWal5M=", "properties": {"ref": "cypress-deli", "@spider": "jasonsdeli", "amenity": "restaurant", "cuisine": "sandwich", "addr:full": "2", "addr:city": "Cypress", "addr:state": "Texas", "addr:postcode": "77433", "name": "Cypress Deli", "phone": "(281) 205-8347", "website": "https://www.jasonsdeli.com/restaurants/cypress-deli", "opening_hours": "Mo-Su 10:00-22:00", "brand": "Jason's Deli", "brand:wikidata": "Q16997641", "nsi_id": "jasonsdeli-96af40"}},
{"type": "Feature", "id": "ICCTlhT51hq1LckXjV0hRx9ykhs=", "properties": {"ref": "saratoga-deli", "@spider": "jasonsdeli", "amenity": "restaurant", "cuisine": "sandwich", "addr:full": "5", "addr:city": "Corpus Christi", "addr:state": "Texas", "addr:postcode": "78413", "name": "Saratoga Deli", "phone": "361-980-8300", "website": "https://www.jasonsdeli.com/restaurants/saratoga-deli", "opening_hours": "Mo-Su 08:00-22:00", "brand": "Jason's Deli", "brand:wikidata": "Q16997641", "nsi_id": "jasonsdeli-96af40"}},
{"type": "Feature", "id": "3mVnLTZcKjfL2fSVZ1Z1P_cPehw=", "properties": {"ref": "airline-deli", "@spider": "jasonsdeli", "amenity": "restaurant", "cuisine": "sandwich", "addr:full": "1", "addr:city": "Corpus Christi", "addr:state": "Texas", "addr:postcode": "78412", "name": "Airline Deli", "phone": "361-992-4649", "website": "https://www.jasonsdeli.com/restaurants/airline-deli", "opening_hours": "Mo-Su 08:00-22:00", "brand": "Jason's Deli", "brand:wikidata": "Q16997641", "nsi_id": "jasonsdeli-96af40"}},
{"type": "Feature", "id": "R9Vwi9vt9ZXje5IjEXWfHVYFDYo=", "properties": {"ref": "conroe-deli", "@spider": "jasonsdeli", "amenity": "restaurant", "cuisine": "sandwich", "addr:full": "1", "addr:city": "Conroe", "addr:state": "Texas", "addr:postcode": "77304", "name": "Conroe Deli", "phone": "936-788-6500", "website": "https://www.jasonsdeli.com/restaurants/conroe-deli", "opening_hours": "Mo-Su 06:30-22:00", "brand": "Jason's Deli", "brand:wikidata": "Q16997641", "nsi_id": "jasonsdeli-96af40"}},
{"type": "Feature", "id": "n5Z6xdEFXLrWpDaqU1wup-rN0-Y=", "properties": {"ref": "college-station-deli", "@spider": "jasonsdeli", "amenity": "restaurant", "cuisine": "sandwich", "addr:full": "1", "addr:city": "College Station", "addr:state": "Texas", "addr:postcode": "77840", "name": "College Station Deli", "phone": "979-764-2929", "website": "https://www.jasonsdeli.com/restaurants/college-station-deli", "opening_hours": "Mo-Su 10:00-22:00", "brand": "Jason's Deli", "brand:wikidata": "Q16997641", "nsi_id": "jasonsdeli-96af40"}},
{"type": "Feature", "id": "nHFuoNS78ncaBcBy__G3Fwpl3D4=", "properties": {"ref": "cedar-park-deli", "@spider": "jasonsdeli", "amenity": "restaurant", "cuisine": "sandwich", "addr:full": "4", "addr:city": "Cedar Park", "addr:state": "Texas", "addr:postcode": "78613", "name": "Cedar Park Deli", "phone": "(512) 260-7263", "website": "https://www.jasonsdeli.com/restaurants/cedar-park-deli", "opening_hours": "Mo-Su 10:00-22:00", "brand": "Jason's Deli", "brand:wikidata": "Q16997641", "nsi_id": "jasonsdeli-96af40"}},
{"type": "Feature", "id": "UTK9w2YFrnhlQ4cDXYAQ9SgGgTI=", "properties": {"ref": "cedar-hill-deli", "@spider": "jasonsdeli", "amenity": "restaurant", "cuisine": "sandwich", "addr:full": "9", "addr:city": "Cedar Hill", "addr:state": "Texas", "addr:postcode": "75104", "name": "Cedar Hill Deli", "phone": "(972) 299-9042", "website": "https://www.jasonsdeli.com/restaurants/cedar-hill-deli", "opening_hours": "Mo-Su 07:00-22:00", "brand": "Jason's Deli", "brand:wikidata": "Q16997641", "nsi_id": "jasonsdeli-96af40"}},
{"type": "Feature", "id": "yWruCsr2VQyEj9EXTyHjYmtYocE=", "properties": {"ref": "brownsville-deli", "@spider": "jasonsdeli", "amenity": "restaurant", "cuisine": "sandwich", "addr:full": "4", "addr:city": "Brownsville", "addr:state": "Texas", "addr:postcode": "78520", "name": "Brownsville Deli", "phone": "956-350-2400", "website": "https://www.jasonsdeli.com/restaurants/brownsville-deli", "opening_hours": "Mo-Su 08:00-22:00", "brand": "Jason's Deli", "brand:wikidata": "Q16997641", "nsi_id": "jasonsdeli-96af40"}},
{"type": "Feature", "id": "A1C_Gup1xA9z4hqFR6hiCwXbifI=", "properties": {"ref": "bedford-deli", "@spider": "jasonsdeli", "amenity": "restaurant", "cuisine": "sandwich", "addr:full": "2", "addr:city": "Bedford", "addr:state": "Texas", "addr:postcode": "76040", "name": "Bedford Deli", "phone": "817-354-1511", "website": "https://www.jasonsdeli.com/restaurants/bedford-deli", "opening_hours": "Mo-Su 10:00-22:00", "brand": "Jason's Deli", "brand:wikidata": "Q16997641", "nsi_id": "jasonsdeli-96af40"}},
{"type": "Feature", "id": "vgvkMjKA81vC_96DLevA1KRRo4A=", "properties": {"ref": "gateway-deli", "@spider": "jasonsdeli", "amenity": "restaurant", "cuisine": "sandwich", "addr:full": "1", "addr:city": "Beaumont", "addr:state": "Texas", "addr:postcode": "77701", "name": "Gateway Deli", "phone": "409-833-5914", "website": "https://www.jasonsdeli.com/restaurants/gateway-deli", "opening_hours": "Mo-Fr 06:30-21:00; Sa 08:00-21:00; Su 09:00-18:00", "brand": "Jason's Deli", "brand:wikidata": "Q16997641", "nsi_id": "jasonsdeli-96af40"}},
{"type": "Feature", "id": "6qvGdiI9ao_3Dg12Pu4OiH7BTrc=", "properties": {"ref": "dowlen-road-deli", "@spider": "jasonsdeli", "amenity": "restaurant", "cuisine": "sandwich", "addr:full": "5", "addr:city": "Beaumont", "addr:state": "Texas", "addr:postcode": "77706", "name": "Dowlen Road Deli", "phone": "409-866-9015", "website": "https://www.jasonsdeli.com/restaurants/dowlen-road-deli", "opening_hours": "Mo-Su 07:30-22:00", "brand": "Jason's Deli", "brand:wikidata": "Q16997641", "nsi_id": "jasonsdeli-96af40"}},
{"type": "Feature", "id": "xs-MEvsV38CUb1o5Q3nzVcmH9Ug=", "properties": {"ref": "baytown-village-deli", "@spider": "jasonsdeli", "amenity": "restaurant", "cuisine": "sandwich", "addr:full": "4", "addr:city": "Baytown", "addr:state": "Texas", "addr:postcode": "77521", "name": "Baytown Village Deli", "phone": "281-422-5434", "website": "https://www.jasonsdeli.com/restaurants/baytown-village-deli", "opening_hours": "Mo-Su 10:00-22:00", "brand": "Jason's Deli", "brand:wikidata": "Q16997641", "nsi_id": "jasonsdeli-96af40"}},
{"type": "Feature", "id": "f8lXcFHHzCxvbXRrDGiQogM1OP4=", "properties": {"ref": "south-austin-deli", "@spider": "jasonsdeli", "amenity": "restaurant", "cuisine": "sandwich", "addr:full": "9", "addr:city": "Austin", "addr:state": "Texas", "addr:postcode": "78748", "name": "South Austin Deli", "phone": "512-280-0990", "website": "https://www.jasonsdeli.com/restaurants/south-austin-deli", "opening_hours": "Mo-Su 10:00-22:00", "brand": "Jason's Deli", "brand:wikidata": "Q16997641", "nsi_id": "jasonsdeli-96af40"}},
{"type": "Feature", "id": "OfDTOWuaYPkVZ38Rrpc6Ft-GQDc=", "properties": {"ref": "hancock-deli", "@spider": "jasonsdeli", "amenity": "restaurant", "cuisine": "sandwich", "addr:full": "1", "addr:city": "Austin", "addr:state": "Texas", "addr:postcode": "78751", "name": "Hancock Deli", "phone": "512-453-8666", "website": "https://www.jasonsdeli.com/restaurants/hancock-deli", "opening_hours": "Mo-Su 08:00-22:00", "brand": "Jason's Deli", "brand:wikidata": "Q16997641", "nsi_id": "jasonsdeli-96af40"}},
{"type": "Feature", "id": "fy1m9vSdXdgbCGORT1zgzD2oaKs=", "properties": {"ref": "arboretum-deli", "@spider": "jasonsdeli", "amenity": "restaurant", "cuisine": "sandwich", "addr:full": "1", "addr:city": "Austin", "addr:state": "Texas", "addr:postcode": "78759", "name": "Arboretum Deli", "phone": "512-345-9586", "website": "https://www.jasonsdeli.com/restaurants/arboretum-deli", "opening_hours": "Mo-Su 08:00-22:00", "brand": "Jason's Deli", "brand:wikidata": "Q16997641", "nsi_id": "jasonsdeli-96af40"}},
{"type": "Feature", "id": "ptFytQEtDA7y2AU9JuECa8S1-fg=", "properties": {"ref": "south-arlington-deli", "@spider": "jasonsdeli", "amenity": "restaurant", "cuisine": "sandwich", "addr:full": "9", "addr:city": "Arlington", "addr:state": "Texas", "addr:postcode": "76017", "name": "South Arlington Deli", "phone": "817-557-3311", "website": "https://www.jasonsdeli.com/restaurants/south-arlington-deli", "opening_hours": "Mo-Su 10:00-22:00", "brand": "Jason's Deli", "brand:wikidata": "Q16997641", "nsi_id": "jasonsdeli-96af40"}},
{"type": "Feature", "id": "iKuyFaioX-9evQCY78PDzvMr3xk=", "properties": {"ref": "north-arlington-deli", "@spider": "jasonsdeli", "amenity": "restaurant", "cuisine": "sandwich", "addr:full": "7", "addr:city": "Arlington", "addr:state": "Texas", "addr:postcode": "76011", "name": "North Arlington Deli", "phone": "817-860-2888", "website": "https://www.jasonsdeli.com/restaurants/north-arlington-deli", "opening_hours": "Mo 09:00-22:00; Tu-Su 10:00-22:00", "brand": "Jason's Deli", "brand:wikidata": "Q16997641", "nsi_id": "jasonsdeli-96af40"}},
{"type": "Feature", "id": "6KpEQYa5fLq-sQvOFlPn7lKzGEQ=", "properties": {"ref": "amarillo-deli-2", "@spider": "jasonsdeli", "amenity": "restaurant", "cuisine": "sandwich", "addr:full": "2", "addr:city": "Amarillo", "addr:state": "Texas", "addr:postcode": "79109", "name": "Wolflin Avenue Deli", "phone": "(806) 803-9160", "website": "https://www.jasonsdeli.com/restaurants/amarillo-deli-2", "opening_hours": "Mo-Su 07:00-21:00", "brand": "Jason's Deli", "brand:wikidata": "Q16997641", "nsi_id": "jasonsdeli-96af40"}},
{"type": "Feature", "id": "EoBm9t_gcGl9ZfBbIYGGIIJsjEc=", "properties": {"ref": "amarillo-deli", "@spider": "jasonsdeli", "amenity": "restaurant", "cuisine": "sandwich", "addr:full": "7", "addr:city": "Amarillo", "addr:state": "Texas", "addr:postcode": "79121", "name": "34th Ave Deli", "phone": "806-353-4440", "website": "https://www.jasonsdeli.com/restaurants/amarillo-deli", "opening_hours": "Mo-Su 10:00-22:00", "brand": "Jason's Deli", "brand:wikidata": "Q16997641", "nsi_id": "jasonsdeli-96af40"}},
{"type": "Feature", "id": "8EStTdaObOyyX58o72xWSPem12E=", "properties": {"ref": "allen-deli", "@spider": "jasonsdeli", "amenity": "restaurant", "cuisine": "sandwich", "addr:full": "9", "addr:city": "Allen", "addr:state": "Texas", "addr:postcode": "75013", "name": "Allen Deli", "phone": "972-727-3440", "website": "https://www.jasonsdeli.com/restaurants/allen-deli", "opening_hours": "Mo-Th 10:00-22:00; Fr 22:00-22:00; Sa-Su 10:00-22:00", "brand": "Jason's Deli", "brand:wikidata": "Q16997641", "nsi_id": "jasonsdeli-96af40"}},
{"type": "Feature", "id": "haSz31iyOqxMxptvFRL9vVTaevA=", "properties": {"ref": "addison-deli", "@spider": "jasonsdeli", "amenity": "restaurant", "cuisine": "sandwich", "addr:full": "5", "addr:city": "Addison", "addr:state": "Texas", "addr:postcode": "75254", "name": "Addison Deli", "phone": "972-239-0074", "website": "https://www.jasonsdeli.com/restaurants/addison-deli", "opening_hours": "Mo-Su 10:00-22:00", "brand": "Jason's Deli", "brand:wikidata": "Q16997641", "nsi_id": "jasonsdeli-96af40"}},
{"type": "Feature", "id": "WWxRXDtoqUoyyc3KDuw7DwkRJyQ=", "properties": {"ref": "south-abilene-deli", "@spider": "jasonsdeli", "amenity": "restaurant", "cuisine": "sandwich", "addr:full": "3", "addr:city": "Abilene", "addr:state": "Texas", "addr:postcode": "79606", "name": "South Abilene Deli", "phone": "325-692-1975", "website": "https://www.jasonsdeli.com/restaurants/south-abilene-deli", "opening_hours": "Mo-Su 10:00-22:00", "brand": "Jason's Deli", "brand:wikidata": "Q16997641", "nsi_id": "jasonsdeli-96af40"}},
{"type": "Feature", "id": "EtfeoXbDcclfyiMmhv8a19dKgNo=", "properties": {"ref": "buck-creek-area-deli", "@spider": "jasonsdeli", "amenity": "restaurant", "cuisine": "sandwich", "addr:full": "1", "addr:city": "Abilene", "addr:state": "Texas", "addr:postcode": "79601", "name": "North Abilene Deli", "phone": "325-672-4232", "website": "https://www.jasonsdeli.com/restaurants/tx/abilene/buck-creek-area-deli", "opening_hours": "Mo-Su 10:00-22:00", "brand": "Jason's Deli", "brand:wikidata": "Q16997641", "nsi_id": "jasonsdeli-96af40"}},
{"type": "Feature", "id": "HXlKOih7LfuBMTjT5MG-irSccag=", "properties": {"ref": "nashville-deli", "@spider": "jasonsdeli", "amenity": "restaurant", "cuisine": "sandwich", "addr:full": "2", "addr:city": "Nashville", "addr:state": "Tennessee", "addr:postcode": "37203", "name": "Nashville Deli", "phone": "615-340-9991", "website": "https://www.jasonsdeli.com/restaurants/nashville-deli", "opening_hours": "Mo-Su 10:00-21:00", "brand": "Jason's Deli", "brand:wikidata": "Q16997641", "nsi_id": "jasonsdeli-96af40"}},
{"type": "Feature", "id": "uv0PChkzkWuiYbhiJEwQeR0IYzU=", "properties": {"ref": "murfreesboro-deli", "@spider": "jasonsdeli", "amenity": "restaurant", "cuisine": "sandwich", "addr:full": "4", "addr:city": "Murfreesboro", "addr:state": "Tennessee", "addr:postcode": "37129", "name": "Murfreesboro Deli", "phone": "615-217-3617", "website": "https://www.jasonsdeli.com/restaurants/murfreesboro-deli", "opening_hours": "Mo-Su 10:00-21:30", "brand": "Jason's Deli", "brand:wikidata": "Q16997641", "nsi_id": "jasonsdeli-96af40"}},
{"type": "Feature", "id": "yoEeE0WD1eFme0m4WbVNAO7u39I=", "properties": {"ref": "mt-juliet-deli", "@spider": "jasonsdeli", "amenity": "restaurant", "cuisine": "sandwich", "addr:full": "6", "addr:city": "Mt. Juliet", "addr:state": "Tennessee", "addr:postcode": "37122", "name": "Mt. Juliet Deli ", "phone": "615-553-2077", "website": "https://www.jasonsdeli.com/restaurants/mt-juliet-deli", "opening_hours": "Mo-Su 10:00-20:00", "brand": "Jason's Deli", "brand:wikidata": "Q16997641", "nsi_id": "jasonsdeli-96af40"}},
{"type": "Feature", "id": "q036CVALsBT1W3yuSaLcCQCunxE=", "properties": {"ref": "memphis-university-deli", "@spider": "jasonsdeli", "amenity": "restaurant", "cuisine": "sandwich", "addr:full": "3", "addr:city": "Memphis", "addr:state": "Tennessee", "addr:postcode": "38111", "name": "University Memphis Deli", "phone": "901-324-3181", "website": "https://www.jasonsdeli.com/restaurants/memphis-university-deli", "opening_hours": "Mo-Su 09:00-21:00", "brand": "Jason's Deli", "brand:wikidata": "Q16997641", "nsi_id": "jasonsdeli-96af40"}},
{"type": "Feature", "id": "OGTefSNX17dGB46skBQz6DjJD3c=", "properties": {"ref": "ridgeway-deli", "@spider": "jasonsdeli", "amenity": "restaurant", "cuisine": "sandwich", "addr:full": "1", "addr:city": "Memphis", "addr:state": "Tennessee", "addr:postcode": "38119", "name": "Ridgeway Deli", "phone": "901-685-3333", "website": "https://www.jasonsdeli.com/restaurants/ridgeway-deli", "opening_hours": "Mo-Su 09:00-21:00", "brand": "Jason's Deli", "brand:wikidata": "Q16997641", "nsi_id": "jasonsdeli-96af40"}},
{"type": "Feature", "id": "bGiU8htE9sAXbqI-ISdT9-EsKjs=", "properties": {"ref": "cordova-deli", "@spider": "jasonsdeli", "amenity": "restaurant", "cuisine": "sandwich", "addr:full": "1", "addr:city": "Memphis", "addr:state": "Tennessee", "addr:postcode": "38016", "name": "Cordova Deli", "phone": "901-844-1840", "website": "https://www.jasonsdeli.com/restaurants/cordova-deli", "opening_hours": "Mo-Su 09:00-21:00", "brand": "Jason's Deli", "brand:wikidata": "Q16997641", "nsi_id": "jasonsdeli-96af40"}},
{"type": "Feature", "id": "rq_zV_3q9v7Xf_OblwknEowPmK4=", "properties": {"ref": "knoxville-deli", "@spider": "jasonsdeli", "amenity": "restaurant", "cuisine": "sandwich", "addr:full": "1", "addr:city": "Knoxville", "addr:state": "Tennessee", "addr:postcode": "37923", "name": "Cedar Bluff Deli", "phone": "865-357-3354", "website": "https://www.jasonsdeli.com/restaurants/knoxville-deli", "opening_hours": "Mo-Su 10:00-20:00", "brand": "Jason's Deli", "brand:wikidata": "Q16997641", "nsi_id": "jasonsdeli-96af40"}},
{"type": "Feature", "id": "1XzyHx9bnFbkKZDP9lOItoha47E=", "properties": {"ref": "jackson-tn-deli", "@spider": "jasonsdeli", "amenity": "restaurant", "cuisine": "sandwich", "addr:full": "6", "addr:city": "Jackson", "addr:state": "Tennessee", "addr:postcode": "38305", "name": "Jackson Deli", "phone": "731-660-0594", "website": "https://www.jasonsdeli.com/restaurants/jackson-tn-deli", "opening_hours": "Mo-Su 10:00-21:00", "brand": "Jason's Deli", "brand:wikidata": "Q16997641", "nsi_id": "jasonsdeli-96af40"}},
{"type": "Feature", "id": "gzEmLbVRNOVNpjaJwDJ75oYO2fc=", "properties": {"ref": "franklin-deli", "@spider": "jasonsdeli", "amenity": "restaurant", "cuisine": "sandwich", "addr:full": "3", "addr:city": "Franklin", "addr:state": "Tennessee", "addr:postcode": "37067", "name": "Franklin Deli", "phone": "615-771-2626", "website": "https://www.jasonsdeli.com/restaurants/franklin-deli", "opening_hours": "Mo-Su 10:00-21:00", "brand": "Jason's Deli", "brand:wikidata": "Q16997641", "nsi_id": "jasonsdeli-96af40"}},
{"type": "Feature", "id": "TJz5J3inOgNn03Rk-oeNQUomNc4=", "properties": {"ref": "chattanooga-deli", "@spider": "jasonsdeli", "amenity": "restaurant", "cuisine": "sandwich", "addr:full": "2", "addr:city": "Chattanooga", "addr:state": "Tennessee", "addr:postcode": "37421", "name": "Chattanooga Deli", "phone": "423-296-1096", "website": "https://www.jasonsdeli.com/restaurants/chattanooga-deli", "opening_hours": "Mo-Su 10:00-22:00", "brand": "Jason's Deli", "brand:wikidata": "Q16997641", "nsi_id": "jasonsdeli-96af40"}},
{"type": "Feature", "id": "9YsbwdQiMFBHdcyknyiivfwo_uQ=", "properties": {"ref": "brentwood-deli", "@spider": "jasonsdeli", "amenity": "restaurant", "cuisine": "sandwich", "addr:full": "2", "addr:city": "Brentwood", "addr:state": "Tennessee", "addr:postcode": "37027", "name": "Brentwood Deli", "phone": "615-739-5800", "website": "https://www.jasonsdeli.com/restaurants/brentwood-deli", "opening_hours": "Mo-Su 10:00-21:00", "brand": "Jason's Deli", "brand:wikidata": "Q16997641", "nsi_id": "jasonsdeli-96af40"}},
{"type": "Feature", "id": "gOGL-jcE9YTNln2FqH3l066SjXI=", "properties": {"ref": "spartanburg-deli", "@spider": "jasonsdeli", "amenity": "restaurant", "cuisine": "sandwich", "addr:full": "1", "addr:city": "Spartanburg", "addr:state": "Carolina", "addr:postcode": "29301", "name": "Spartanburg Deli", "phone": "864-574-0202", "website": "https://www.jasonsdeli.com/restaurants/spartanburg-deli", "opening_hours": "Mo-Su 10:00-22:00", "brand": "Jason's Deli", "brand:wikidata": "Q16997641", "nsi_id": "jasonsdeli-96af40"}},
{"type": "Feature", "id": "RizWXg13bhFRl2_TZ4yOe3HWD3c=", "properties": {"ref": "greenville-deli", "@spider": "jasonsdeli", "amenity": "restaurant", "cuisine": "sandwich", "addr:full": "8", "addr:city": "Greenville", "addr:state": "Carolina", "addr:postcode": "29607", "name": "Greenville Deli", "phone": "864-284-9870", "website": "https://www.jasonsdeli.com/restaurants/greenville-deli", "opening_hours": "Mo-Su 10:00-22:00", "brand": "Jason's Deli", "brand:wikidata": "Q16997641", "nsi_id": "jasonsdeli-96af40"}},
{"type": "Feature", "id": "QrnGPsha9Hc9fbDLQCET_C6n_K4=", "properties": {"ref": "west-ashley-deli", "@spider": "jasonsdeli", "amenity": "restaurant", "cuisine": "sandwich", "addr:full": "9", "addr:city": "Charleston", "addr:state": "Carolina", "addr:postcode": "29407", "name": "West Ashley Deli", "phone": "843-769-6900", "website": "https://www.jasonsdeli.com/restaurants/west-ashley-deli", "opening_hours": "Mo-Su 10:00-21:00", "brand": "Jason's Deli", "brand:wikidata": "Q16997641", "nsi_id": "jasonsdeli-96af40"}},
{"type": "Feature", "id": "b7TRwEGr2LfKv8M3OZMvpOL3HFc=", "properties": {"ref": "cranberry-township-deli", "@spider": "jasonsdeli", "amenity": "restaurant", "cuisine": "sandwich", "addr:full": "2", "addr:city": "Cranberry Township", "addr:state": "Pennsylvania", "addr:postcode": "16066", "name": "Cranberry Township Deli", "phone": "724-741-0114", "website": "https://www.jasonsdeli.com/restaurants/cranberry-township-deli", "opening_hours": "Mo-Su 10:00-22:00", "brand": "Jason's Deli", "brand:wikidata": "Q16997641", "nsi_id": "jasonsdeli-96af40"}},
{"type": "Feature", "id": "3rfMnXyE9THNq3Z9obO7giciuMc=", "properties": {"ref": "lincoln-place-deli", "@spider": "jasonsdeli", "amenity": "restaurant", "cuisine": "sandwich", "addr:full": "1", "addr:city": "Tulsa", "addr:state": "Oklahoma", "addr:postcode": "74120", "name": "Lincoln Place Deli", "phone": "918-599-7777", "website": "https://www.jasonsdeli.com/restaurants/lincoln-place-deli", "opening_hours": "Mo-Su 10:00-21:00", "brand": "Jason's Deli", "brand:wikidata": "Q16997641", "nsi_id": "jasonsdeli-96af40"}},
{"type": "Feature", "id": "KOPSoadKeSnWgYSykm_Zse_NID4=", "properties": {"ref": "eton-square-deli", "@spider": "jasonsdeli", "amenity": "restaurant", "cuisine": "sandwich", "addr:full": "8", "addr:city": "Tulsa", "addr:state": "Oklahoma", "addr:postcode": "74133", "name": "Eton Square Deli", "phone": "918-252-9999", "website": "https://www.jasonsdeli.com/restaurants/eton-square-deli", "opening_hours": "Mo-Su 08:00-21:00", "brand": "Jason's Deli", "brand:wikidata": "Q16997641", "nsi_id": "jasonsdeli-96af40"}},
{"type": "Feature", "id": "3WcOdW7AL5IQtItUzE-o28eE0eE=", "properties": {"ref": "oklahoma-city-deli", "@spider": "jasonsdeli", "amenity": "restaurant", "cuisine": "sandwich", "addr:full": "4", "addr:city": "Oklahoma City", "addr:state": "Oklahoma", "addr:postcode": "73116", "name": "Oklahoma City Deli", "phone": "405-810-1800", "website": "https://www.jasonsdeli.com/restaurants/oklahoma-city-deli", "opening_hours": "Mo-Su 10:00-21:00", "brand": "Jason's Deli", "brand:wikidata": "Q16997641", "nsi_id": "jasonsdeli-96af40"}},
{"type": "Feature", "id": "jd4ATpLZfcTjHznkGQ4MAY2opsA=", "properties": {"ref": "edmond-deli", "@spider": "jasonsdeli", "amenity": "restaurant", "cuisine": "sandwich", "addr:full": "7", "addr:city": "Edmond", "addr:state": "Oklahoma", "addr:postcode": "73013", "name": "Edmond Deli", "phone": "405-330-1663", "website": "https://www.jasonsdeli.com/restaurants/edmond-deli", "opening_hours": "Mo-Su 10:00-21:00", "brand": "Jason's Deli", "brand:wikidata": "Q16997641", "nsi_id": "jasonsdeli-96af40"}},
{"type": "Feature", "id": "SnDhDAbMfyub7tAGAVDjNxZ2ejE=", "properties": {"ref": "dublin-deli", "@spider": "jasonsdeli", "amenity": "restaurant", "cuisine": "sandwich", "addr:full": "2", "addr:city": "Dublin", "addr:state": "Ohio", "addr:postcode": "43017", "name": "Dublin Deli", "phone": "614-336-3853", "website": "https://www.jasonsdeli.com/restaurants/dublin-deli", "opening_hours": "Mo-Su 10:00-21:00", "brand": "Jason's Deli", "brand:wikidata": "Q16997641", "nsi_id": "jasonsdeli-96af40"}},
{"type": "Feature", "id": "w92aj0rJnj66QPUQueTg-Wuazik=", "properties": {"ref": "polaris-deli", "@spider": "jasonsdeli", "amenity": "restaurant", "cuisine": "sandwich", "addr:full": "1", "addr:city": "Columbus", "addr:state": "Ohio", "addr:postcode": "43240", "name": "Polaris Deli", "phone": "614-785-0431", "website": "https://www.jasonsdeli.com/restaurants/polaris-deli", "opening_hours": "Mo-Su 10:00-21:00", "brand": "Jason's Deli", "brand:wikidata": "Q16997641", "nsi_id": "jasonsdeli-96af40"}},
{"type": "Feature", "id": "VEZWGq_hDKugUxHaa1OgTrLEGdk=", "properties": {"ref": "rookwood-deli", "@spider": "jasonsdeli", "amenity": "restaurant", "cuisine": "sandwich", "addr:full": "3", "addr:city": "Cincinnati", "addr:state": "Ohio", "addr:postcode": "45209", "name": "Rookwood Deli", "phone": "513-351-1685", "website": "https://www.jasonsdeli.com/restaurants/rookwood-deli", "opening_hours": "Mo-Su 10:00-21:00", "brand": "Jason's Deli", "brand:wikidata": "Q16997641", "nsi_id": "jasonsdeli-96af40"}},
{"type": "Feature", "id": "3has-0TPik5VJNpMzVeYuJ5r3uY=", "properties": {"ref": "winston-salem-deli", "@spider": "jasonsdeli", "amenity": "restaurant", "cuisine": "sandwich", "addr:full": "1", "addr:city": "Winston-Salem", "addr:state": "Carolina", "addr:postcode": "27103", "name": "Winston-Salem Deli", "phone": "336-794-0015", "website": "https://www.jasonsdeli.com/restaurants/winston-salem-deli", "opening_hours": "Mo-Su 08:00-22:00", "brand": "Jason's Deli", "brand:wikidata": "Q16997641", "nsi_id": "jasonsdeli-96af40"}},
{"type": "Feature", "id": "YrxtQERg8kfW-qhs3ZzfbnH0XN0=", "properties": {"ref": "wilmington-deli", "@spider": "jasonsdeli", "amenity": "restaurant", "cuisine": "sandwich", "addr:full": "5", "addr:city": "Wilmington", "addr:state": "Carolina", "addr:postcode": "28405", "name": "Wilmington Deli", "phone": "910-795-4164", "website": "https://www.jasonsdeli.com/restaurants/wilmington-deli", "opening_hours": "Mo-Su 10:00-22:00", "brand": "Jason's Deli", "brand:wikidata": "Q16997641", "nsi_id": "jasonsdeli-96af40"}},
{"type": "Feature", "id": "Jgc1TFU6GbcF0oh5-znz3JUXs9s=", "properties": {"ref": "spring-forest-deli", "@spider": "jasonsdeli", "amenity": "restaurant", "cuisine": "sandwich", "addr:full": "9", "addr:city": "Raleigh", "addr:state": "Carolina", "addr:postcode": "27609", "name": "Spring Forest Deli", "phone": "919-855-9898", "website": "https://www.jasonsdeli.com/restaurants/spring-forest-deli", "opening_hours": "Mo-Su 10:00-22:00", "brand": "Jason's Deli", "brand:wikidata": "Q16997641", "nsi_id": "jasonsdeli-96af40"}},
{"type": "Feature", "id": "wrcjntoS6_fTTVOJSbfqoBsYmfw=", "properties": {"ref": "brier-creek-deli", "@spider": "jasonsdeli", "amenity": "restaurant", "cuisine": "sandwich", "addr:full": "8", "addr:city": "Raleigh", "addr:state": "Carolina", "addr:postcode": "27617", "name": "Brier Creek Deli", "phone": "919-572-9996", "website": "https://www.jasonsdeli.com/restaurants/brier-creek-deli", "opening_hours": "Mo-Su 08:00-22:00", "brand": "Jason's Deli", "brand:wikidata": "Q16997641", "nsi_id": "jasonsdeli-96af40"}},
{"type": "Feature", "id": "Q5pGRZgzPH9WIbtk8cDSNyyaTA4=", "properties": {"ref": "birkdale-deli", "@spider": "jasonsdeli", "amenity": "restaurant", "cuisine": "sandwich", "addr:full": "1", "addr:city": "Huntersville", "addr:state": "Carolina", "addr:postcode": "28078", "name": "Birkdale Deli", "phone": "704-895-2505", "website": "https://www.jasonsdeli.com/restaurants/birkdale-deli", "opening_hours": "Mo-Su 10:00-22:00", "brand": "Jason's Deli", "brand:wikidata": "Q16997641", "nsi_id": "jasonsdeli-96af40"}},
{"type": "Feature", "id": "xxbAIjlUtZ73L5Fx1n8zSiI7dAk=", "properties": {"ref": "hickory-deli", "@spider": "jasonsdeli", "amenity": "restaurant", "cuisine": "sandwich", "addr:full": "2", "addr:city": "Hickory", "addr:state": "Carolina", "addr:postcode": "28602", "name": "Hickory Deli", "phone": "828-325-4938", "website": "https://www.jasonsdeli.com/restaurants/hickory-deli", "opening_hours": "Mo-Su 10:00-22:00", "brand": "Jason's Deli", "brand:wikidata": "Q16997641", "nsi_id": "jasonsdeli-96af40"}},
{"type": "Feature", "id": "_q7HupZ53z2G5klORUuFNHGEgFg=", "properties": {"ref": "greensboro-deli", "@spider": "jasonsdeli", "amenity": "restaurant", "cuisine": "sandwich", "addr:full": "3", "addr:city": "Greensboro", "addr:state": "Carolina", "addr:postcode": "27410", "name": "Greensboro Deli", "phone": "336-297-9195", "website": "https://www.jasonsdeli.com/restaurants/greensboro-deli", "opening_hours": "Mo-Su 08:00-22:00", "brand": "Jason's Deli", "brand:wikidata": "Q16997641", "nsi_id": "jasonsdeli-96af40"}},
{"type": "Feature", "id": "q-J3omq-Fa7vOaKJwlzBcGQ8SE0=", "properties": {"ref": "fayetteville-nc-deli", "@spider": "jasonsdeli", "amenity": "restaurant", "cuisine": "sandwich", "addr:full": "2", "addr:city": "Fayetteville", "addr:state": "Carolina", "addr:postcode": "28314", "name": "Fayetteville Deli", "phone": "910-860-0253", "website": "https://www.jasonsdeli.com/restaurants/fayetteville-nc-deli", "opening_hours": "Mo-Su 10:00-22:00", "brand": "Jason's Deli", "brand:wikidata": "Q16997641", "nsi_id": "jasonsdeli-96af40"}},
{"type": "Feature", "id": "TusCUxNpuK0AsquW4vaXrFLy0Sg=", "properties": {"ref": "durham-deli", "@spider": "jasonsdeli", "amenity": "restaurant", "cuisine": "sandwich", "addr:full": "5", "addr:city": "Durham", "addr:state": "Carolina", "addr:postcode": "27707", "name": "Durham Deli", "phone": "919-493-3350", "website": "https://www.jasonsdeli.com/restaurants/durham-deli", "opening_hours": "Mo-Su 10:00-22:00", "brand": "Jason's Deli", "brand:wikidata": "Q16997641", "nsi_id": "jasonsdeli-96af40"}},
{"type": "Feature", "id": "0HpEXHaLH86udvK4vj4t0x2t_7w=", "properties": {"ref": "concord-mills-deli", "@spider": "jasonsdeli", "amenity": "restaurant", "cuisine": "sandwich", "addr:full": "8", "addr:city": "Concord", "addr:state": "Carolina", "addr:postcode": "28027", "name": "Concord Mills Deli", "phone": "(980) 255-5950", "website": "https://www.jasonsdeli.com/restaurants/concord-mills-deli", "opening_hours": "Mo-Su 10:00-22:00", "brand": "Jason's Deli", "brand:wikidata": "Q16997641", "nsi_id": "jasonsdeli-96af40"}},
{"type": "Feature", "id": "hOoazZAlhbjchvXQWyW3cK_EpKk=", "properties": {"ref": "woodlawn-deli", "@spider": "jasonsdeli", "amenity": "restaurant", "cuisine": "sandwich", "addr:full": "1", "addr:city": "Charlotte", "addr:state": "Carolina", "addr:postcode": "28209", "name": "Woodlawn Deli", "phone": "704-676-5858", "website": "https://www.jasonsdeli.com/restaurants/woodlawn-deli", "opening_hours": "Mo-Su 10:00-22:00", "brand": "Jason's Deli", "brand:wikidata": "Q16997641", "nsi_id": "jasonsdeli-96af40"}},
{"type": "Feature", "id": "e_He9nHNiquwHdJEeFOj8akaZUw=", "properties": {"ref": "belgate-deli", "@spider": "jasonsdeli", "amenity": "restaurant", "cuisine": "sandwich", "addr:full": "8", "addr:city": "Charlotte", "addr:state": "Carolina", "addr:postcode": "28262", "name": "Belgate Deli - NOW OPEN!", "phone": "704-598-4434", "website": "https://www.jasonsdeli.com/restaurants/belgate-deli", "opening_hours": "Mo-Su 10:00-22:00", "brand": "Jason's Deli", "brand:wikidata": "Q16997641", "nsi_id": "jasonsdeli-96af40"}},
{"type": "Feature", "id": "xYeP__TlSFjHvtQvzhdAxzynYEM=", "properties": {"ref": "cary-deli", "@spider": "jasonsdeli", "amenity": "restaurant", "cuisine": "sandwich", "addr:full": "2", "addr:city": "Cary", "addr:state": "Carolina", "addr:postcode": "27518", "name": "Cary Deli", "phone": "919-233-6901", "website": "https://www.jasonsdeli.com/restaurants/cary-deli", "opening_hours": "Mo-Su 10:00-22:00", "brand": "Jason's Deli", "brand:wikidata": "Q16997641", "nsi_id": "jasonsdeli-96af40"}},
{"type": "Feature", "id": "kNV3bqapRWdRhzKvsIS9nKid_0Q=", "properties": {"ref": "las-cruces-deli", "@spider": "jasonsdeli", "amenity": "restaurant", "cuisine": "sandwich", "addr:full": "3", "addr:city": "Las Cruces", "addr:state": "Mexico", "addr:postcode": "88011", "name": "Las Cruces Deli", "phone": "575-521-0700", "website": "https://www.jasonsdeli.com/restaurants/las-cruces-deli", "opening_hours": "Mo-Su 08:00-22:00", "brand": "Jason's Deli", "brand:wikidata": "Q16997641", "nsi_id": "jasonsdeli-96af40"}},
{"type": "Feature", "id": "BpNXIO22qR43KgTD-_TIjJ81UPk=", "properties": {"ref": "paseo-deli", "@spider": "jasonsdeli", "amenity": "restaurant", "cuisine": "sandwich", "addr:full": "5", "addr:city": "Albuquerque", "addr:state": "Mexico", "addr:postcode": "87113", "name": "Paseo Deli", "phone": "505-821-7100", "website": "https://www.jasonsdeli.com/restaurants/paseo-deli", "opening_hours": "Mo-Su 08:00-22:00", "brand": "Jason's Deli", "brand:wikidata": "Q16997641", "nsi_id": "jasonsdeli-96af40"}},
{"type": "Feature", "id": "kOEqka0BjKdTlQj_Q2Z9glHL1YY=", "properties": {"ref": "louisiana-blvd-deli", "@spider": "jasonsdeli", "amenity": "restaurant", "cuisine": "sandwich", "addr:full": "2", "addr:city": "Albuquerque", "addr:state": "Mexico", "addr:postcode": "87110", "name": "Louisiana Blvd Deli", "phone": "505-881-6700", "website": "https://www.jasonsdeli.com/restaurants/louisiana-blvd-deli", "opening_hours": "Mo-Su 08:00-22:00", "brand": "Jason's Deli", "brand:wikidata": "Q16997641", "nsi_id": "jasonsdeli-96af40"}},
{"type": "Feature", "id": "hBxSvrMR_UKA-_sPiaYOETj7mVg=", "properties": {"ref": "cottonwood-deli", "@spider": "jasonsdeli", "amenity": "restaurant", "cuisine": "sandwich", "addr:full": "3", "addr:city": "Albuquerque", "addr:state": "Mexico", "addr:postcode": "87114", "name": "Cottonwood Deli", "phone": "505-897-2200", "website": "https://www.jasonsdeli.com/restaurants/cottonwood-deli", "opening_hours": "Mo-Su 08:00-22:00", "brand": "Jason's Deli", "brand:wikidata": "Q16997641", "nsi_id": "jasonsdeli-96af40"}},
{"type": "Feature", "id": "qzQxXzKl9Dpz0CrIRLgnEgo-D1w=", "properties": {"ref": "boca-park-deli", "@spider": "jasonsdeli", "amenity": "restaurant", "cuisine": "sandwich", "addr:full": "1", "addr:city": "Las Vegas", "addr:state": "Nevada", "addr:postcode": "89145", "name": "Boca Park Deli", "phone": "702-967-9008", "website": "https://www.jasonsdeli.com/restaurants/boca-park-deli", "opening_hours": "Mo-Su 10:00-22:00", "brand": "Jason's Deli", "brand:wikidata": "Q16997641", "nsi_id": "jasonsdeli-96af40"}},
{"type": "Feature", "id": "XyomZafmstKA6Sdo8MEdKGBrHdw=", "properties": {"ref": "arroyo-crossing-parkway-deli", "@spider": "jasonsdeli", "amenity": "restaurant", "cuisine": "sandwich", "addr:full": "7", "addr:city": "Las Vegas", "addr:state": "Nevada", "addr:postcode": "89113", "name": "Arroyo Crossing Parkway Deli", "phone": "702-270-0060", "website": "https://www.jasonsdeli.com/restaurants/arroyo-crossing-parkway-deli", "opening_hours": "Mo-Su 10:00-22:00", "brand": "Jason's Deli", "brand:wikidata": "Q16997641", "nsi_id": "jasonsdeli-96af40"}},
{"type": "Feature", "id": "nc7L0A2jerfjW5ZEMHDiwY8Y8P0=", "properties": {"ref": "henderson-deli", "@spider": "jasonsdeli", "amenity": "restaurant", "cuisine": "sandwich", "addr:full": "1", "addr:city": "Henderson", "addr:state": "Nevada", "addr:postcode": "89014", "name": "Henderson Deli", "phone": "702-898-0474", "website": "https://www.jasonsdeli.com/restaurants/henderson-deli", "opening_hours": "Mo-Su 10:00-22:00", "brand": "Jason's Deli", "brand:wikidata": "Q16997641", "nsi_id": "jasonsdeli-96af40"}},
{"type": "Feature", "id": "A_yN2w-evnTvMWC_BWTkTc9MXH4=", "properties": {"ref": "l-street-deli", "@spider": "jasonsdeli", "amenity": "restaurant", "cuisine": "sandwich", "addr:full": "1", "addr:city": "Omaha", "addr:state": "Nebraska", "addr:postcode": "68137", "name": "L Street Deli", "phone": "402-932-5544", "website": "https://www.jasonsdeli.com/restaurants/l-street-deli", "opening_hours": "Mo-Su 10:00-22:00", "brand": "Jason's Deli", "brand:wikidata": "Q16997641", "nsi_id": "jasonsdeli-96af40"}},
{"type": "Feature", "id": "_nGBcM23SSRmWYxROCaC3tkqMNw=", "properties": {"ref": "dodge-street-deli", "@spider": "jasonsdeli", "amenity": "restaurant", "cuisine": "sandwich", "addr:full": "7", "addr:city": "Omaha", "addr:state": "Nebraska", "addr:postcode": "68132", "name": "Dodge Street Deli", "phone": "402-551-2233", "website": "https://www.jasonsdeli.com/restaurants/dodge-street-deli", "opening_hours": "Mo-Su 10:00-22:00", "brand": "Jason's Deli", "brand:wikidata": "Q16997641", "nsi_id": "jasonsdeli-96af40"}},
{"type": "Feature", "id": "Tyffg_o0BSH4E3kQiTET0UsFuHI=", "properties": {"ref": "lees-summit-deli", "@spider": "jasonsdeli", "amenity": "restaurant", "cuisine": "sandwich", "addr:full": "6", "addr:city": "Lee's Summit", "addr:state": "Missouri", "addr:postcode": "64086", "name": "Lee's Summit Deli", "phone": "816-246-6400", "website": "https://www.jasonsdeli.com/restaurants/lees-summit-deli", "opening_hours": "Mo-Su 10:00-21:00", "brand": "Jason's Deli", "brand:wikidata": "Q16997641", "nsi_id": "jasonsdeli-96af40"}},
{"type": "Feature", "id": "-pRGu_7Ushs-U8eIkFQ-mrrYE2E=", "properties": {"ref": "northland-deli", "@spider": "jasonsdeli", "amenity": "restaurant", "cuisine": "sandwich", "addr:full": "9", "addr:city": "Kansas City", "addr:state": "Missouri", "addr:postcode": "64154", "name": "Northland Deli", "phone": "816-994-8891", "website": "https://www.jasonsdeli.com/restaurants/northland-deli", "opening_hours": "Mo-Su 10:00-21:00", "brand": "Jason's Deli", "brand:wikidata": "Q16997641", "nsi_id": "jasonsdeli-96af40"}},
{"type": "Feature", "id": "CiI7V8NTelBVf9LJjVN-4fbNVA0=", "properties": {"ref": "downtown-kansas-city-deli", "@spider": "jasonsdeli", "amenity": "restaurant", "cuisine": "sandwich", "addr:full": "1", "addr:city": "Kansas City", "addr:state": "Missouri", "addr:postcode": "64106", "name": "Downtown KC Deli", "phone": "816-842-6655", "website": "https://www.jasonsdeli.com/restaurants/downtown-kansas-city-deli", "opening_hours": "Mo-Fr 07:00-15:00", "brand": "Jason's Deli", "brand:wikidata": "Q16997641", "nsi_id": "jasonsdeli-96af40"}},
{"type": "Feature", "id": "gkpwozU13Be1Jfl6u4IizfjOZiY=", "properties": {"ref": "olive-branch-deli", "@spider": "jasonsdeli", "amenity": "restaurant", "cuisine": "sandwich", "addr:full": "4", "addr:city": "Olive Branch", "addr:state": "Mississippi", "addr:postcode": "38654", "name": "Olive Branch Deli", "phone": "662-892-8321", "website": "https://www.jasonsdeli.com/restaurants/olive-branch-deli", "opening_hours": "Mo-Su 08:00-21:00", "brand": "Jason's Deli", "brand:wikidata": "Q16997641", "nsi_id": "jasonsdeli-96af40"}},
{"type": "Feature", "id": "2GorMtonrOspIkB5FnmIcZMYHq8=", "properties": {"ref": "columbia-md-deli", "@spider": "jasonsdeli", "amenity": "restaurant", "cuisine": "sandwich", "addr:full": "8", "addr:city": "Columbia", "addr:state": "Maryland", "addr:postcode": "21045", "name": "Columbia Deli", "phone": "410-309-5980", "website": "https://www.jasonsdeli.com/restaurants/columbia-md-deli", "opening_hours": "Mo-Su 08:00-22:00", "brand": "Jason's Deli", "brand:wikidata": "Q16997641", "nsi_id": "jasonsdeli-96af40"}},
{"type": "Feature", "id": "m3LKLvRz7AwXaNeQt-KC0--_7cI=", "properties": {"ref": "shreveport-deli", "@spider": "jasonsdeli", "amenity": "restaurant", "cuisine": "sandwich", "addr:full": "5", "addr:city": "Shreveport", "addr:state": "Louisiana", "addr:postcode": "71106", "name": "Shreveport Deli", "phone": "318-861-6952", "website": "https://www.jasonsdeli.com/restaurants/shreveport-deli", "opening_hours": "Mo-Su 10:00-21:00", "brand": "Jason's Deli", "brand:wikidata": "Q16997641", "nsi_id": "jasonsdeli-96af40"}},
{"type": "Feature", "id": "X8ipJR7Ns0FGGgT4wAyCiB4zork=", "properties": {"ref": "metairie-deli", "@spider": "jasonsdeli", "amenity": "restaurant", "cuisine": "sandwich", "addr:full": "7", "addr:city": "Metairie", "addr:state": "Louisiana", "addr:postcode": "70005", "name": "Metairie Deli ", "phone": "504-834-8674", "website": "https://www.jasonsdeli.com/restaurants/metairie-deli", "opening_hours": "Mo-Su 10:00-22:00", "brand": "Jason's Deli", "brand:wikidata": "Q16997641", "nsi_id": "jasonsdeli-96af40"}},
{"type": "Feature", "id": "eEGLL9GzdN62WWnpP-NtuYccNuE=", "properties": {"ref": "lake-charles-deli", "@spider": "jasonsdeli", "amenity": "restaurant", "cuisine": "sandwich", "addr:full": "3", "addr:city": "Lake Charles", "addr:state": "Louisiana", "addr:postcode": "70605", "name": "Lake Charles Deli", "phone": "337-214-4096", "website": "https://www.jasonsdeli.com/restaurants/lake-charles-deli", "opening_hours": "Mo-Su 10:00-22:00", "brand": "Jason's Deli", "brand:wikidata": "Q16997641", "nsi_id": "jasonsdeli-96af40"}},
{"type": "Feature", "id": "7HJOWDfLbwzujY3NFT4NIbV86zk=", "properties": {"ref": "lafayette-deli", "@spider": "jasonsdeli", "amenity": "restaurant", "cuisine": "sandwich", "addr:full": "1", "addr:city": "Lafayette", "addr:state": "Louisiana", "addr:postcode": "70506", "name": "Lafayette Deli", "phone": "337-216-0194", "website": "https://www.jasonsdeli.com/restaurants/lafayette-deli", "opening_hours": "Mo-Su 10:00-22:00", "brand": "Jason's Deli", "brand:wikidata": "Q16997641", "nsi_id": "jasonsdeli-96af40"}},
{"type": "Feature", "id": "ghLEMWzy-rcm-OKzygkICcuTPko=", "properties": {"ref": "caffery-shopping-center-deli", "@spider": "jasonsdeli", "amenity": "restaurant", "cuisine": "sandwich", "addr:full": "4", "addr:city": "Lafayette", "addr:state": "Louisiana", "addr:postcode": "70508", "name": "Caffery Shopping Center Deli", "phone": "337-534-0773", "website": "https://www.jasonsdeli.com/restaurants/caffery-shopping-center-deli", "opening_hours": "Mo-Su 10:00-22:00", "brand": "Jason's Deli", "brand:wikidata": "Q16997641", "nsi_id": "jasonsdeli-96af40"}},
{"type": "Feature", "id": "dQV0Anum--Dky3QDDIufsuLfEQc=", "properties": {"ref": "siegen-ln-deli", "@spider": "jasonsdeli", "amenity": "restaurant", "cuisine": "sandwich", "addr:full": "6", "addr:city": "Baton Rouge", "addr:state": "Louisiana", "addr:postcode": "70809", "name": "Siegen Ln Deli", "phone": "225-293-9099", "website": "https://www.jasonsdeli.com/restaurants/siegen-ln-deli", "opening_hours": "Mo-Su 10:00-22:00", "brand": "Jason's Deli", "brand:wikidata": "Q16997641", "nsi_id": "jasonsdeli-96af40"}},
{"type": "Feature", "id": "uTOz9XUqezv22uftPgJ-UTBHZCU=", "properties": {"ref": "citiplace-deli", "@spider": "jasonsdeli", "amenity": "restaurant", "cuisine": "sandwich", "addr:full": "2", "addr:city": "Baton Rouge", "addr:state": "Louisiana", "addr:postcode": "70808", "name": "CitiPlace Deli", "phone": "225-926-7788", "website": "https://www.jasonsdeli.com/restaurants/citiplace-deli", "opening_hours": "Mo-Su 10:00-22:00", "brand": "Jason's Deli", "brand:wikidata": "Q16997641", "nsi_id": "jasonsdeli-96af40"}},
{"type": "Feature", "id": "jFHpkQ1E2QcY0uu0kl8ZYfG3NHs=", "properties": {"ref": "saint-matthews-deli", "@spider": "jasonsdeli", "amenity": "restaurant", "cuisine": "sandwich", "addr:full": "4", "addr:city": "Louisville", "addr:state": "Kentucky", "addr:postcode": "40207", "name": "Saint Matthews Deli", "phone": "502-896-0150", "website": "https://www.jasonsdeli.com/restaurants/saint-matthews-deli", "opening_hours": "Mo-Su 10:00-21:00", "brand": "Jason's Deli", "brand:wikidata": "Q16997641", "nsi_id": "jasonsdeli-96af40"}},
{"type": "Feature", "id": "cjJc64rGmuTkzgK4VImiKMPYuWs=", "properties": {"ref": "north-hurstbourne-deli", "@spider": "jasonsdeli", "amenity": "restaurant", "cuisine": "sandwich", "addr:full": "4", "addr:city": "Louisville", "addr:state": "Kentucky", "addr:postcode": "40222", "name": "North Hurstbourne Deli", "phone": "502-412-4101", "website": "https://www.jasonsdeli.com/restaurants/north-hurstbourne-deli", "opening_hours": "Mo-Su 10:00-21:00", "brand": "Jason's Deli", "brand:wikidata": "Q16997641", "nsi_id": "jasonsdeli-96af40"}},
{"type": "Feature", "id": "44i1QVmjoQe9t-mkAymsFmlfDI8=", "properties": {"ref": "lexington-deli", "@spider": "jasonsdeli", "amenity": "restaurant", "cuisine": "sandwich", "addr:full": "1", "addr:city": "Lexington", "addr:state": "Kentucky", "addr:postcode": "40503", "name": "Lexington Deli", "phone": "(859) 313-5128", "website": "https://www.jasonsdeli.com/restaurants/lexington-deli", "opening_hours": "Mo-Su 10:00-21:00", "brand": "Jason's Deli", "brand:wikidata": "Q16997641", "nsi_id": "jasonsdeli-96af40"}},
{"type": "Feature", "id": "HO8S-yAQV7fy-pGRhtW88DCWeDU=", "properties": {"ref": "west-wichita-deli", "@spider": "jasonsdeli", "amenity": "restaurant", "cuisine": "sandwich", "addr:full": "7", "addr:city": "Wichita", "addr:state": "Kansas", "addr:postcode": "67205", "name": "West Wichita Deli", "phone": "316-721-4993", "website": "https://www.jasonsdeli.com/restaurants/west-wichita-deli", "opening_hours": "Mo-Su 10:00-22:00", "brand": "Jason's Deli", "brand:wikidata": "Q16997641", "nsi_id": "jasonsdeli-96af40"}},
{"type": "Feature", "id": "bJBkmFRBSx4LzwBzi1PbmzxI4CI=", "properties": {"ref": "east-wichita-deli", "@spider": "jasonsdeli", "amenity": "restaurant", "cuisine": "sandwich", "addr:full": "1", "addr:city": "Wichita", "addr:state": "Kansas", "addr:postcode": "67206", "name": "East Wichita Deli", "phone": "316-636-4447", "website": "https://www.jasonsdeli.com/restaurants/east-wichita-deli", "opening_hours": "Mo-Su 10:00-22:00", "brand": "Jason's Deli", "brand:wikidata": "Q16997641", "nsi_id": "jasonsdeli-96af40"}},
{"type": "Feature", "id": "FU7fgo4pARpcWTv7dDw8uvr58_E=", "properties": {"ref": "topeka-deli", "@spider": "jasonsdeli", "amenity": "restaurant", "cuisine": "sandwich", "addr:full": "6", "addr:city": "Topeka", "addr:state": "Kansas", "addr:postcode": "66604", "name": "Topeka Deli", "phone": "785-478-4144", "website": "https://www.jasonsdeli.com/restaurants/topeka-deli", "opening_hours": "Mo-Su 10:00-21:00", "brand": "Jason's Deli", "brand:wikidata": "Q16997641", "nsi_id": "jasonsdeli-96af40"}},
{"type": "Feature", "id": "NRRpg7-1iHTLQHu41U1FbwOJJNg=", "properties": {"ref": "olathe-deli", "@spider": "jasonsdeli", "amenity": "restaurant", "cuisine": "sandwich", "addr:full": "1", "addr:city": "Olathe", "addr:state": "Kansas", "addr:postcode": "66061", "name": "Olathe Deli", "phone": "913-825-4422", "website": "https://www.jasonsdeli.com/restaurants/olathe-deli", "opening_hours": "Mo-Su 10:00-21:00", "brand": "Jason's Deli", "brand:wikidata": "Q16997641", "nsi_id": "jasonsdeli-96af40"}},
{"type": "Feature", "id": "8lfaq24V6_Tc9I6-NUBCiRn4jbs=", "properties": {"ref": "lawrence-deli", "@spider": "jasonsdeli", "amenity": "restaurant", "cuisine": "sandwich", "addr:full": "3", "addr:city": "Lawrence", "addr:state": "Kansas", "addr:postcode": "66046", "name": "Lawrence Deli", "phone": "785-842-5600", "website": "https://www.jasonsdeli.com/restaurants/lawrence-deli", "opening_hours": "Mo-Su 10:00-21:00", "brand": "Jason's Deli", "brand:wikidata": "Q16997641", "nsi_id": "jasonsdeli-96af40"}},
{"type": "Feature", "id": "Keh2v2a4PQt0EWa9JLjmX-sE-z8=", "properties": {"ref": "west-des-moines-deli", "@spider": "jasonsdeli", "amenity": "restaurant", "cuisine": "sandwich", "addr:full": "3", "addr:city": "West Des Moines", "addr:state": "Iowa", "addr:postcode": "50266", "name": "West Des Moines Deli", "phone": "515-222-9797", "website": "https://www.jasonsdeli.com/restaurants/west-des-moines-deli", "opening_hours": "Mo-Th 10:00-21:00; Fr-Sa 10:00-22:00; Su 10:00-21:00", "brand": "Jason's Deli", "brand:wikidata": "Q16997641", "nsi_id": "jasonsdeli-96af40"}},
{"type": "Feature", "id": "wemBqGDgiKuQTCYqywAQRr-GAK8=", "properties": {"ref": "evansville-deli", "@spider": "jasonsdeli", "amenity": "restaurant", "cuisine": "sandwich", "addr:full": "9", "addr:city": "Evansville", "addr:state": "Indiana", "addr:postcode": "47715", "name": "Evansville Deli", "phone": "812-471-9905", "website": "https://www.jasonsdeli.com/restaurants/evansville-deli", "opening_hours": "Mo-Su 10:00-21:00", "brand": "Jason's Deli", "brand:wikidata": "Q16997641", "nsi_id": "jasonsdeli-96af40"}},
{"type": "Feature", "id": "BVFIvGDAOsaOBUkX5-c65GXllx4=", "properties": {"ref": "rockford-deli", "@spider": "jasonsdeli", "amenity": "restaurant", "cuisine": "sandwich", "addr:full": "5", "addr:city": "Rockford", "addr:state": "Illinois", "addr:postcode": "61108", "name": "South Perryville Road Deli", "phone": "815-397-8606", "website": "https://www.jasonsdeli.com/restaurants/rockford-deli", "opening_hours": "Mo-Su 10:00-22:00", "brand": "Jason's Deli", "brand:wikidata": "Q16997641", "nsi_id": "jasonsdeli-96af40"}},
{"type": "Feature", "id": "yCG2Aigqg8G5lG0g-nuXwwoIUe8=", "properties": {"ref": "oak-lawn-deli", "@spider": "jasonsdeli", "amenity": "restaurant", "cuisine": "sandwich", "addr:full": "6", "addr:city": "Oak Lawn", "addr:state": "Illinois", "addr:postcode": "60453", "name": "Oak Lawn Deli", "phone": "708-233-0368", "website": "https://www.jasonsdeli.com/restaurants/oak-lawn-deli", "opening_hours": "Mo-Su 10:00-21:00", "brand": "Jason's Deli", "brand:wikidata": "Q16997641", "nsi_id": "jasonsdeli-96af40"}},
{"type": "Feature", "id": "Qck2zE9Rp5DCN5GD_rVxhp1uinM=", "properties": {"ref": "oak-brook-deli", "@spider": "jasonsdeli", "amenity": "restaurant", "cuisine": "sandwich", "addr:full": "2", "addr:city": "Oak Brook", "addr:state": "Illinois", "addr:postcode": "60523", "name": "Oak Brook Deli", "phone": "630-928-1497", "website": "https://www.jasonsdeli.com/restaurants/oak-brook-deli", "opening_hours": "Mo-Su 08:00-22:00", "brand": "Jason's Deli", "brand:wikidata": "Q16997641", "nsi_id": "jasonsdeli-96af40"}},
{"type": "Feature", "id": "wiMJ43WldP4LCPzAm6TxApF0zCA=", "properties": {"ref": "norcross-deli", "@spider": "jasonsdeli", "amenity": "restaurant", "cuisine": "sandwich", "addr:full": "5", "addr:city": "Norcross", "addr:state": "Georgia", "addr:postcode": "30092", "name": "Norcross Deli", "phone": "770-368-9440", "website": "https://www.jasonsdeli.com/restaurants/norcross-deli", "opening_hours": "Mo-Su 10:00-22:00", "brand": "Jason's Deli", "brand:wikidata": "Q16997641", "nsi_id": "jasonsdeli-96af40"}},
{"type": "Feature", "id": "WD_05MIRra0nfj7PtncHLqT-T_s=", "properties": {"ref": "duluth-hwy-deli", "@spider": "jasonsdeli", "amenity": "restaurant", "cuisine": "sandwich", "addr:full": "9", "addr:city": "Lawrenceville", "addr:state": "Georgia", "addr:postcode": "30043", "name": "Duluth Hwy Deli", "phone": "770-962-9090", "website": "https://www.jasonsdeli.com/restaurants/duluth-hwy-deli", "opening_hours": "Mo-Su 10:00-22:00", "brand": "Jason's Deli", "brand:wikidata": "Q16997641", "nsi_id": "jasonsdeli-96af40"}},
{"type": "Feature", "id": "5f89_n3bmAwvOzI5HfqyCGmz6kc=", "properties": {"ref": "kennesaw-deli", "@spider": "jasonsdeli", "amenity": "restaurant", "cuisine": "sandwich", "addr:full": "9", "addr:city": "Kennesaw", "addr:state": "Georgia", "addr:postcode": "30144", "name": "Kennesaw Deli", "phone": "678-398-4000", "website": "https://www.jasonsdeli.com/restaurants/kennesaw-deli", "opening_hours": "Mo-Su 10:00-22:00", "brand": "Jason's Deli", "brand:wikidata": "Q16997641", "nsi_id": "jasonsdeli-96af40"}},
{"type": "Feature", "id": "pY_2pYbw6ml-aQPtj10vJqzOM6g=", "properties": {"ref": "douglasville-deli", "@spider": "jasonsdeli", "amenity": "restaurant", "cuisine": "sandwich", "addr:full": "3", "addr:city": "Douglasville", "addr:state": "Georgia", "addr:postcode": "30135", "name": "Douglasville Deli ", "phone": "770-577-5601", "website": "https://www.jasonsdeli.com/restaurants/douglasville-deli", "opening_hours": "Mo-Su 10:00-22:00", "brand": "Jason's Deli", "brand:wikidata": "Q16997641", "nsi_id": "jasonsdeli-96af40"}},
{"type": "Feature", "id": "Y6iuHGpooDI6bZvCpocvXeVwuP8=", "properties": {"ref": "decatur-deli", "@spider": "jasonsdeli", "amenity": "restaurant", "cuisine": "sandwich", "addr:full": "1", "addr:city": "Decatur", "addr:state": "Georgia", "addr:postcode": "30033", "name": "Decatur Deli", "phone": "678-705-3232", "website": "https://www.jasonsdeli.com/restaurants/decatur-deli", "opening_hours": "Mo-Su 10:00-22:00", "brand": "Jason's Deli", "brand:wikidata": "Q16997641", "nsi_id": "jasonsdeli-96af40"}},
{"type": "Feature", "id": "Lg-WCnXsHXiARrCMgby1dqQfNF4=", "properties": {"ref": "columbus-deli", "@spider": "jasonsdeli", "amenity": "restaurant", "cuisine": "sandwich", "addr:full": "5", "addr:city": "Columbus", "addr:state": "Georgia", "addr:postcode": "31909", "name": "Columbus Deli", "phone": "706-494-8857", "website": "https://www.jasonsdeli.com/restaurants/columbus-deli", "opening_hours": "Mo-Su 10:00-22:00", "brand": "Jason's Deli", "brand:wikidata": "Q16997641", "nsi_id": "jasonsdeli-96af40"}},
{"type": "Feature", "id": "utq3rEgSEWGogflcr9bkRwiPxcY=", "properties": {"ref": "augusta-deli", "@spider": "jasonsdeli", "amenity": "restaurant", "cuisine": "sandwich", "addr:full": "2", "addr:city": "Augusta", "addr:state": "Georgia", "addr:postcode": "30909", "name": "Augusta Deli", "phone": "706-738-4997", "website": "https://www.jasonsdeli.com/restaurants/augusta-deli", "opening_hours": "Mo-Su 10:00-22:00", "brand": "Jason's Deli", "brand:wikidata": "Q16997641", "nsi_id": "jasonsdeli-96af40"}},
{"type": "Feature", "id": "cxu4YsqfDXeI-dpio6AMHe4n5ig=", "properties": {"ref": "perimeter-deli", "@spider": "jasonsdeli", "amenity": "restaurant", "cuisine": "sandwich", "addr:full": "4", "addr:city": "Atlanta", "addr:state": "Georgia", "addr:postcode": "30338", "name": "Perimeter Deli", "phone": "770-671-1555", "website": "https://www.jasonsdeli.com/restaurants/perimeter-deli", "opening_hours": "Mo-Su 10:00-22:00", "brand": "Jason's Deli", "brand:wikidata": "Q16997641", "nsi_id": "jasonsdeli-96af40"}},
{"type": "Feature", "id": "Iso_I3osnSi8htnHHkRp-IPR6lU=", "properties": {"ref": "midtown-atlanta-deli", "@spider": "jasonsdeli", "amenity": "restaurant", "cuisine": "sandwich", "addr:full": "2", "addr:city": "Atlanta", "addr:state": "Georgia", "addr:postcode": "30309", "name": "Midtown Atlanta Deli", "phone": "404-853-3760", "website": "https://www.jasonsdeli.com/restaurants/midtown-atlanta-deli", "opening_hours": "Mo-Su 10:00-21:00", "brand": "Jason's Deli", "brand:wikidata": "Q16997641", "nsi_id": "jasonsdeli-96af40"}},
{"type": "Feature", "id": "MEwXql8zdwPUMWkCG3m1B5iU1gM=", "properties": {"ref": "camp-creek-deli", "@spider": "jasonsdeli", "amenity": "restaurant", "cuisine": "sandwich", "addr:full": "3", "addr:city": "Atlanta", "addr:state": "Georgia", "addr:postcode": "30331", "name": "Camp Creek Deli", "phone": "404-344-4844", "website": "https://www.jasonsdeli.com/restaurants/camp-creek-deli", "opening_hours": "Mo-Su 10:00-22:00", "brand": "Jason's Deli", "brand:wikidata": "Q16997641", "nsi_id": "jasonsdeli-96af40"}},
{"type": "Feature", "id": "fNDNs1zenEznk94iLsxVos7wqfU=", "properties": {"ref": "buckhead-deli", "@spider": "jasonsdeli", "amenity": "restaurant", "cuisine": "sandwich", "addr:full": "3", "addr:city": "Atlanta", "addr:state": "Georgia", "addr:postcode": "30305", "name": "Buckhead Deli", "phone": "404-231-3333", "website": "https://www.jasonsdeli.com/restaurants/buckhead-deli", "opening_hours": "Mo-Su 10:00-22:00", "brand": "Jason's Deli", "brand:wikidata": "Q16997641", "nsi_id": "jasonsdeli-96af40"}},
{"type": "Feature", "id": "7eyVnN8Mv7ig3VxyRtW1Rs-nFk4=", "properties": {"ref": "athens-deli", "@spider": "jasonsdeli", "amenity": "restaurant", "cuisine": "sandwich", "addr:full": "1", "addr:city": "Athens", "addr:state": "Georgia", "addr:postcode": "30606", "name": "Athens Deli", "phone": "706-425-4950", "website": "https://www.jasonsdeli.com/restaurants/athens-deli", "opening_hours": "Mo-Su 10:00-22:00", "brand": "Jason's Deli", "brand:wikidata": "Q16997641", "nsi_id": "jasonsdeli-96af40"}},
{"type": "Feature", "id": "q4DB5xcEX0V5BwwJXXFbzLfTmDE=", "properties": {"ref": "northpoint-deli", "@spider": "jasonsdeli", "amenity": "restaurant", "cuisine": "sandwich", "addr:full": "7", "addr:city": "Alpharetta", "addr:state": "Georgia", "addr:postcode": "30022", "name": "Northpoint Deli", "phone": "770-664-5002", "website": "https://www.jasonsdeli.com/restaurants/northpoint-deli", "opening_hours": "Mo-Su 10:00-22:00", "brand": "Jason's Deli", "brand:wikidata": "Q16997641", "nsi_id": "jasonsdeli-96af40"}},
{"type": "Feature", "id": "50nnnS6dyOuxsg4gMnqzksszFNQ=", "properties": {"ref": "tampa-deli", "@spider": "jasonsdeli", "amenity": "restaurant", "cuisine": "sandwich", "addr:full": "2", "addr:city": "Tampa", "addr:state": "Florida", "addr:postcode": "33612", "name": "Tampa Deli", "phone": "813-903-0017", "website": "https://www.jasonsdeli.com/restaurants/tampa-deli", "opening_hours": "Mo-Fr 10:00-21:00; Sa-Su 10:00-20:00", "brand": "Jason's Deli", "brand:wikidata": "Q16997641", "nsi_id": "jasonsdeli-96af40"}},
{"type": "Feature", "id": "WRwp-oHX-KAkjhnD8cT0bVmrKGk=", "properties": {"ref": "tallahassee-deli", "@spider": "jasonsdeli", "amenity": "restaurant", "cuisine": "sandwich", "addr:full": "2", "addr:city": "Tallahassee", "addr:state": "Florida", "addr:postcode": "32301", "name": "Tallahassee Deli", "phone": "850-402-0135", "website": "https://www.jasonsdeli.com/restaurants/tallahassee-deli", "opening_hours": "Mo-Su 08:00-22:00", "brand": "Jason's Deli", "brand:wikidata": "Q16997641", "nsi_id": "jasonsdeli-96af40"}},
{"type": "Feature", "id": "achRqRbr-C5IY5PFKfeDRsteuYk=", "properties": {"ref": "pensacola-deli", "@spider": "jasonsdeli", "amenity": "restaurant", "cuisine": "sandwich", "addr:full": "1", "addr:city": "Pensacola", "addr:state": "Florida", "addr:postcode": "32504", "name": "Pensacola Deli", "phone": "850-477-4709", "website": "https://www.jasonsdeli.com/restaurants/pensacola-deli", "opening_hours": "Mo-Su 10:00-22:00", "brand": "Jason's Deli", "brand:wikidata": "Q16997641", "nsi_id": "jasonsdeli-96af40"}},
{"type": "Feature", "id": "h1NIPXpOjcS9gw9tC7N9_pyqFVE=", "properties": {"ref": "sodo-deli", "@spider": "jasonsdeli", "amenity": "restaurant", "cuisine": "sandwich", "addr:full": "2", "addr:city": "Orlando", "addr:state": "Florida", "addr:postcode": "32806", "name": "SODO Deli", "phone": "407-425-3562", "website": "https://www.jasonsdeli.com/restaurants/sodo-deli", "opening_hours": "Mo-Su 10:00-21:00", "brand": "Jason's Deli", "brand:wikidata": "Q16997641", "nsi_id": "jasonsdeli-96af40"}},
{"type": "Feature", "id": "IekO-CZRcv9J-tGlHLErUAsNXao=", "properties": {"ref": "naples-deli", "@spider": "jasonsdeli", "amenity": "restaurant", "cuisine": "sandwich", "addr:full": "2", "addr:city": "Naples", "addr:state": "Florida", "addr:postcode": "34110", "name": "Naples Deli", "phone": "239-593-9499", "website": "https://www.jasonsdeli.com/restaurants/naples-deli", "opening_hours": "Mo-Su 10:00-21:00", "brand": "Jason's Deli", "brand:wikidata": "Q16997641", "nsi_id": "jasonsdeli-96af40"}},
{"type": "Feature", "id": "pw-eRuEY6nLlKen8X9OK9ep4cRo=", "properties": {"ref": "melbourne-deli", "@spider": "jasonsdeli", "amenity": "restaurant", "cuisine": "sandwich", "addr:full": "1", "addr:city": "Melbourne", "addr:state": "Florida", "addr:postcode": "32904", "name": "Melbourne Deli", "phone": "321-733-6075", "website": "https://www.jasonsdeli.com/restaurants/melbourne-deli", "opening_hours": "Mo-Su 08:00-22:00", "brand": "Jason's Deli", "brand:wikidata": "Q16997641", "nsi_id": "jasonsdeli-96af40"}},
{"type": "Feature", "id": "ponqYt_-c6JRL2EUSO6TtMjZPp8=", "properties": {"ref": "lakeland-deli", "@spider": "jasonsdeli", "amenity": "restaurant", "cuisine": "sandwich", "addr:full": "4", "addr:city": "Lakeland", "addr:state": "Florida", "addr:postcode": "33813", "name": "Lakeland Deli", "phone": "863-937-8730 ", "website": "https://www.jasonsdeli.com/restaurants/lakeland-deli", "opening_hours": "Mo-Su 10:00-22:00", "brand": "Jason's Deli", "brand:wikidata": "Q16997641", "nsi_id": "jasonsdeli-96af40"}},
{"type": "Feature", "id": "8WAwxa4h60nZIvsDdHrL1gTBlNA=", "properties": {"ref": "lake-mary-deli", "@spider": "jasonsdeli", "amenity": "restaurant", "cuisine": "sandwich", "addr:full": "3", "addr:city": "Lake Mary", "addr:state": "Florida", "addr:postcode": "32746", "name": "Lake Mary Deli", "phone": "407-328-7235", "website": "https://www.jasonsdeli.com/restaurants/lake-mary-deli", "opening_hours": "Mo-Su 10:00-22:00", "brand": "Jason's Deli", "brand:wikidata": "Q16997641", "nsi_id": "jasonsdeli-96af40"}},
{"type": "Feature", "id": "FOX3uxXmA6NFNkJJIkb_c3qaMzs=", "properties": {"ref": "jacksonville-deli", "@spider": "jasonsdeli", "amenity": "restaurant", "cuisine": "sandwich", "addr:full": "4", "addr:city": "Jacksonville", "addr:state": "Florida", "addr:postcode": "32216", "name": "Jacksonville Deli", "phone": "904-620-0707", "website": "https://www.jasonsdeli.com/restaurants/jacksonville-deli", "opening_hours": "Mo-Su 10:00-22:00", "brand": "Jason's Deli", "brand:wikidata": "Q16997641", "nsi_id": "jasonsdeli-96af40"}},
{"type": "Feature", "id": "2BgnE5ZKVMxbgH2-xj7sqYpUBM8=", "properties": {"ref": "gulf-coast-landings-deli", "@spider": "jasonsdeli", "amenity": "restaurant", "cuisine": "sandwich", "addr:full": "1", "addr:city": "Fort Myers", "addr:state": "Florida", "addr:postcode": "33913", "name": "Gulf Coast Landings Deli", "phone": "239-466-3354", "website": "https://www.jasonsdeli.com/restaurants/gulf-coast-landings-deli", "opening_hours": "Mo-Th 10:00-21:00; Fr-Sa 10:00-22:00; Su 10:00-21:00", "brand": "Jason's Deli", "brand:wikidata": "Q16997641", "nsi_id": "jasonsdeli-96af40"}},
{"type": "Feature", "id": "Wu8iTXRoj8I8lq5gOH3LdVbm7Wo=", "properties": {"ref": "fort-myers-deli", "@spider": "jasonsdeli", "amenity": "restaurant", "cuisine": "sandwich", "addr:full": "1", "addr:city": "Fort Myers", "addr:state": "Florida", "addr:postcode": "33907", "name": "Fort Myers Deli", "phone": "239-590-9994", "website": "https://www.jasonsdeli.com/restaurants/fort-myers-deli", "opening_hours": "Mo-Th 10:00-21:00; Fr-Sa 10:00-22:00; Su 10:00-21:00", "brand": "Jason's Deli", "brand:wikidata": "Q16997641", "nsi_id": "jasonsdeli-96af40"}},
{"type": "Feature", "id": "qIhWwdcNNKHdOLMnqRsws0iv1sg=", "properties": {"ref": "clearwater-deli", "@spider": "jasonsdeli", "amenity": "restaurant", "cuisine": "sandwich", "addr:full": "2", "addr:city": "Clearwater", "addr:state": "Florida", "addr:postcode": "33763", "name": "Clearwater Deli", "phone": "727-793-0446", "website": "https://www.jasonsdeli.com/restaurants/clearwater-deli", "opening_hours": "Mo-Su 10:00-21:00", "brand": "Jason's Deli", "brand:wikidata": "Q16997641", "nsi_id": "jasonsdeli-96af40"}},
{"type": "Feature", "id": "B8Xhei8vZYzWIpyrVEVVb6-sUKg=", "properties": {"ref": "cape-coral-deli", "@spider": "jasonsdeli", "amenity": "restaurant", "cuisine": "sandwich", "addr:full": "2", "addr:city": "Cape Coral", "addr:state": "Florida", "addr:postcode": "33991", "name": "Cape Coral Deli", "phone": "239-458-8700", "website": "https://www.jasonsdeli.com/restaurants/cape-coral-deli", "opening_hours": "Mo-Th 10:00-21:00; Fr-Sa 10:00-22:00; Su 10:00-21:00", "brand": "Jason's Deli", "brand:wikidata": "Q16997641", "nsi_id": "jasonsdeli-96af40"}},
{"type": "Feature", "id": "hGMTuiD-wVieK2iYGcf8SZ_zGGs=", "properties": {"ref": "altamonte-springs-deli", "@spider": "jasonsdeli", "amenity": "restaurant", "cuisine": "sandwich", "addr:full": "3", "addr:city": "Altamonte Springs", "addr:state": "Florida", "addr:postcode": "32701", "name": "Altamonte Springs Deli", "phone": "407-830-0699", "website": "https://www.jasonsdeli.com/restaurants/altamonte-springs-deli", "opening_hours": "Mo-Su 08:00-22:00", "brand": "Jason's Deli", "brand:wikidata": "Q16997641", "nsi_id": "jasonsdeli-96af40"}},
{"type": "Feature", "id": "HtRdMR9F22ptMx1WUJT4cUzA4vo=", "properties": {"ref": "lakewood-deli", "@spider": "jasonsdeli", "amenity": "restaurant", "cuisine": "sandwich", "addr:full": "2", "addr:city": "Lakewood", "addr:state": "Colorado", "addr:postcode": "80228", "name": "Lakewood Deli", "phone": "303-986-1111", "website": "https://www.jasonsdeli.com/restaurants/lakewood-deli", "opening_hours": "Mo-Su 08:00-21:00", "brand": "Jason's Deli", "brand:wikidata": "Q16997641", "nsi_id": "jasonsdeli-96af40"}},
{"type": "Feature", "id": "jrEGjmWmUWusujtIQweqo2lABCs=", "properties": {"ref": "fort-collins-deli", "@spider": "jasonsdeli", "amenity": "restaurant", "cuisine": "sandwich", "addr:full": "1", "addr:city": "Fort Collins", "addr:state": "Colorado", "addr:postcode": "80525", "name": "Fort Collins Deli", "phone": "970-204-9203", "website": "https://www.jasonsdeli.com/restaurants/fort-collins-deli", "opening_hours": "Mo-Su 08:00-20:00", "brand": "Jason's Deli", "brand:wikidata": "Q16997641", "nsi_id": "jasonsdeli-96af40"}},
{"type": "Feature", "id": "lJQ6d8JimaMsoL7_92-mCWZNV68=", "properties": {"ref": "englewood-deli", "@spider": "jasonsdeli", "amenity": "restaurant", "cuisine": "sandwich", "addr:full": "9", "addr:city": "Englewood", "addr:state": "Colorado", "addr:postcode": "80112", "name": "Englewood Deli", "phone": "303-708-1448", "website": "https://www.jasonsdeli.com/restaurants/englewood-deli", "opening_hours": "Mo-Su 08:00-21:00", "brand": "Jason's Deli", "brand:wikidata": "Q16997641", "nsi_id": "jasonsdeli-96af40"}},
{"type": "Feature", "id": "hLhlqqSPDT-WU-WjSQPHIttfRZo=", "properties": {"ref": "broomfield-deli", "@spider": "jasonsdeli", "amenity": "restaurant", "cuisine": "sandwich", "addr:full": "5", "addr:city": "Broomfield", "addr:state": "Colorado", "addr:postcode": "80021", "name": "Broomfield Deli", "phone": "303-465-2882", "website": "https://www.jasonsdeli.com/restaurants/broomfield-deli", "opening_hours": "Mo-Fr 08:00-20:00; Sa-Su 08:00-15:00", "brand": "Jason's Deli", "brand:wikidata": "Q16997641", "nsi_id": "jasonsdeli-96af40"}},
{"type": "Feature", "id": "tjH5bTJqD829mfNh2kdDt6dVMv8=", "properties": {"ref": "aurora-deli", "@spider": "jasonsdeli", "amenity": "restaurant", "cuisine": "sandwich", "addr:full": "5", "addr:city": "Aurora", "addr:state": "Colorado", "addr:postcode": "80015", "name": "Aurora Deli", "phone": "303-991-2311", "website": "https://www.jasonsdeli.com/restaurants/aurora-deli", "opening_hours": "Mo-Su 08:00-21:00", "brand": "Jason's Deli", "brand:wikidata": "Q16997641", "nsi_id": "jasonsdeli-96af40"}},
{"type": "Feature", "id": "wiX0gd-rOnCg7wGpW0-d0u95gBE=", "properties": {"ref": "west-little-rock-deli", "@spider": "jasonsdeli", "amenity": "restaurant", "cuisine": "sandwich", "addr:full": "3", "addr:city": "Little Rock", "addr:state": "Arkansas", "addr:postcode": "72211", "name": "West Little Rock Deli", "phone": "501-954-8700", "website": "https://www.jasonsdeli.com/restaurants/west-little-rock-deli", "opening_hours": "Mo-Su 10:00-21:00", "brand": "Jason's Deli", "brand:wikidata": "Q16997641", "nsi_id": "jasonsdeli-96af40"}},
{"type": "Feature", "id": "vX0gEJrH7Uf0ApzlhR_TkCTPjG8=", "properties": {"ref": "north-little-rock-deli", "@spider": "jasonsdeli", "amenity": "restaurant", "cuisine": "sandwich", "addr:full": "4", "addr:city": "North Little Rock", "addr:state": "Arkansas", "addr:postcode": "72117", "name": "North Little Rock Deli", "phone": "501-945-7700", "website": "https://www.jasonsdeli.com/restaurants/north-little-rock-deli", "opening_hours": "Mo-Su 10:00-21:00", "brand": "Jason's Deli", "brand:wikidata": "Q16997641", "nsi_id": "jasonsdeli-96af40"}},
{"type": "Feature", "id": "-TA5DrJlX8H0Yv0-g8NF2bObZF0=", "properties": {"ref": "fayetteville-ar-deli", "@spider": "jasonsdeli", "amenity": "restaurant", "cuisine": "sandwich", "addr:full": "7", "addr:city": "Fayetteville", "addr:state": "Arkansas", "addr:postcode": "72703", "name": "Fayetteville Deli", "phone": "479-442-5500", "website": "https://www.jasonsdeli.com/restaurants/fayetteville-ar-deli", "opening_hours": "Mo-Su 10:00-20:00", "brand": "Jason's Deli", "brand:wikidata": "Q16997641", "nsi_id": "jasonsdeli-96af40"}},
{"type": "Feature", "id": "NqGt8ND5miBPiTZ2eO3Graqr3RU=", "properties": {"ref": "east-broadway-deli", "@spider": "jasonsdeli", "amenity": "restaurant", "cuisine": "sandwich", "addr:full": "6", "addr:city": "Tucson", "addr:state": "Arizona", "addr:postcode": "85711", "name": "East Broadway Deli", "phone": "520-790-7000", "website": "https://www.jasonsdeli.com/restaurants/east-broadway-deli", "opening_hours": "Mo-Su 10:00-22:00", "brand": "Jason's Deli", "brand:wikidata": "Q16997641", "nsi_id": "jasonsdeli-96af40"}},
{"type": "Feature", "id": "CVOqC6KrcgRQKFxX9B7BmFszvQ0=", "properties": {"ref": "scottsdale-deli", "@spider": "jasonsdeli", "amenity": "restaurant", "cuisine": "sandwich", "addr:full": "1", "addr:city": "Scottsdale", "addr:state": "Arizona", "addr:postcode": "85260", "name": "Scottsdale Deli", "phone": "480-443-3811", "website": "https://www.jasonsdeli.com/restaurants/scottsdale-deli", "opening_hours": "Mo-Su 10:00-22:00", "brand": "Jason's Deli", "brand:wikidata": "Q16997641", "nsi_id": "jasonsdeli-96af40"}}]}