{"type":"FeatureCollection","features":[{"type": "Feature", "id": "-lcMeUMPY15t00buTyQrffP6gNE=", "properties": {"ref": "99", "@spider": "jbhifi", "shop": "electronics", "addr:street_address": "Claremont Quarter Shopping Centre, Store MM3, Level 2, 9 Bayview Terrace", "addr:city": "Claremont", "addr:state": "WA", "addr:postcode": "6010", "addr:country": "AU", "name": "Claremont Quarter", "phone": "08 9286 9400", "opening_hours": "Mo-We 09:00-17:30; Th 09:00-21:00; Fr 09:00-17:30; Sa 09:00-17:00; Su 11:00-17:00", "brand": "JB Hi-Fi", "brand:wikidata": "Q3310113", "nsi_id": "jbhifi-2d5b11"}, "geometry": {"type": "Point", "coordinates": [115.778196, -31.982853]}},
{"type": "Feature", "id": "NQBTGeQSFioUjwQXeYjTh8GxKjo=", "properties": {"ref": "98", "@spider": "jbhifi", "shop": "electronics", "addr:street_address": "Lakeside Joondalup Shopping City, Store MM4, Level 1, 420 Joondalup Drive", "addr:city": "Joondalup", "addr:state": "WA", "addr:postcode": "6027", "addr:country": "AU", "name": "Lakeside Joondalup", "phone": "08 9404 3400", "opening_hours": "Mo-We 09:00-18:00; Th 09:00-21:00; Fr 09:00-18:00; Sa 09:00-17:00; Su 11:00-17:00", "brand": "JB Hi-Fi", "brand:wikidata": "Q3310113", "nsi_id": "jbhifi-2d5b11"}, "geometry": {"type": "Point", "coordinates": [115.763854, -31.7441]}},
{"type": "Feature", "id": "hs5n3INGWHygnG8gm_iWdClMdUU=", "properties": {"ref": "97", "@spider": "jbhifi", "shop": "electronics", "addr:street_address": "Canberra Outlet Centre, Store T26, , 337 Canberra Avenue", "addr:city": "Fyshwick", "addr:state": "ACT", "addr:postcode": "2609", "addr:country": "AU", "name": "Fyshwick HOME", "phone": "02 6133 7100", "opening_hours": "Mo-Su 10:00-18:00", "brand": "JB Hi-Fi", "brand:wikidata": "Q3310113", "nsi_id": "jbhifi-2d5b11"}, "geometry": {"type": "Point", "coordinates": [149.179766, -35.33835]}},
{"type": "Feature", "id": "c3ZxXskLTuUPcP2kdgtG8agcHng=", "properties": {"ref": "96", "@spider": "jbhifi", "shop": "electronics", "addr:street_address": "23 Exhibition Drive", "addr:city": "Malaga", "addr:state": "WA", "addr:postcode": "6090", "addr:country": "AU", "name": "Malaga", "phone": "08 9205 9400", "opening_hours": "Mo-We 09:00-18:00; Th 09:00-21:00; Fr 09:00-18:00; Sa 09:00-17:00; Su 11:00-17:00", "brand": "JB Hi-Fi", "brand:wikidata": "Q3310113", "nsi_id": "jbhifi-2d5b11"}, "geometry": {"type": "Point", "coordinates": [115.8829, -31.85197]}},
{"type": "Feature", "id": "Eq5iSmi_Rg4QEmGDV-WiKD8tCiU=", "properties": {"ref": "95", "@spider": "jbhifi", "shop": "electronics", "addr:street_address": "Westfield Carousel Shopping Centre, Store MM105, , 1382 Albany Highway", "addr:city": "Cannington", "addr:state": "WA", "addr:postcode": "6107", "addr:country": "AU", "name": "Carousel", "phone": "08 6229 4300", "opening_hours": "Mo-We 09:00-18:00; Th 09:00-21:00; Fr 09:00-18:00; Sa 09:00-17:00; Su 11:00-17:00", "brand": "JB Hi-Fi", "brand:wikidata": "Q3310113", "nsi_id": "jbhifi-2d5b11"}, "geometry": {"type": "Point", "coordinates": [115.938203, -32.017779]}},
{"type": "Feature", "id": "OianL9od2gWJ2pMiglY9NAB2FDs=", "properties": {"ref": "94", "@spider": "jbhifi", "shop": "electronics", "addr:street_address": "Cockburn Gateway Shopping Centre, Store MM3, Ground Level, Beeliar Drive", "addr:city": "Success", "addr:state": "WA", "addr:postcode": "6164", "addr:country": "AU", "name": "Cockburn", "phone": "08 6595 6000", "opening_hours": "Mo-We 09:00-17:30; Th 09:00-21:00; Fr 09:00-17:30; Sa 09:00-17:00; Su 11:00-17:00", "brand": "JB Hi-Fi", "brand:wikidata": "Q3310113", "nsi_id": "jbhifi-2d5b11"}, "geometry": {"type": "Point", "coordinates": [115.855637, -32.130414]}},
{"type": "Feature", "id": "60RzzPvIamV7EUEnW3ULDEjusQU=", "properties": {"ref": "93", "@spider": "jbhifi", "shop": "electronics", "addr:street_address": "Tweed City Shopping Centre, Store 505, , 54 Minjungbal Drive", "addr:city": "Tweed Heads South", "addr:state": "NSW", "addr:postcode": "2486", "addr:country": "AU", "name": "Tweed City", "phone": "07 5508 4300", "opening_hours": "Mo-We 09:00-17:30; Th 09:00-19:00; Fr 09:00-17:30; Sa 09:00-16:30; Su 10:00-15:00", "brand": "JB Hi-Fi", "brand:wikidata": "Q3310113", "nsi_id": "jbhifi-2d5b11"}, "geometry": {"type": "Point", "coordinates": [153.544094, -28.201113]}},
{"type": "Feature", "id": "I_hXTTjntUrg2H2QyoYpzIkQMZQ=", "properties": {"ref": "92", "@spider": "jbhifi", "shop": "electronics", "addr:street_address": "Morayfield Shopping Centre, Store MM4, , 165-171 Morayfield Road", "addr:city": "Morayfield", "addr:state": "QLD", "addr:postcode": "4506", "addr:country": "AU", "name": "Morayfield HOME", "phone": "07 5420 3100", "opening_hours": "Mo-We 09:00-17:30; Th 09:00-21:00; Fr 09:00-17:30; Sa 09:00-17:00; Su 10:00-16:30", "brand": "JB Hi-Fi", "brand:wikidata": "Q3310113", "nsi_id": "jbhifi-2d5b11"}, "geometry": {"type": "Point", "coordinates": [152.950058, -27.102891]}},
{"type": "Feature", "id": "Rt0ksyA-SF8JIVMMqtbR5qw-Dc4=", "properties": {"ref": "91", "@spider": "jbhifi", "shop": "electronics", "addr:street_address": "Cairns Central, Store 1-2, Level 1, Corner McLeod Street & Spence Street", "addr:city": "Cairns", "addr:state": "QLD", "addr:postcode": "4870", "addr:country": "AU", "name": "Cairns Central", "phone": "07 4232 5100", "opening_hours": "Mo-We 09:00-17:30; Th 09:00-21:00; Fr 09:00-17:30; Sa 09:00-17:00; Su 10:00-16:00", "brand": "JB Hi-Fi", "brand:wikidata": "Q3310113", "nsi_id": "jbhifi-2d5b11"}, "geometry": {"type": "Point", "coordinates": [145.774177, -16.926226]}},
{"type": "Feature", "id": "P8rBfIV1ooFhzvfkS8hUUaG4g0s=", "properties": {"ref": "90", "@spider": "jbhifi", "shop": "electronics", "addr:street_address": "Cranbourne Homemaker Centre, Store 23, , Corner South Gippsland Highway & Thompson Road", "addr:city": "Cranbourne", "addr:state": "VIC", "addr:postcode": "3977", "addr:country": "AU", "name": "Cranbourne HOME", "phone": "03 5999 4000", "opening_hours": "Mo-We 09:00-18:00; Th 09:00-19:00; Fr 09:00-21:00; Sa 09:00-17:00; Su 10:00-17:00", "brand": "JB Hi-Fi", "brand:wikidata": "Q3310113", "nsi_id": "jbhifi-2d5b11"}, "geometry": {"type": "Point", "coordinates": [145.279126, -38.083771]}},
{"type": "Feature", "id": "NrZUxgTH3fO3NMIKDHJysjhup8o=", "properties": {"ref": "309", "@spider": "jbhifi", "shop": "electronics", "addr:street_address": "25 Bell Street", "addr:city": "Preston", "addr:state": "VIC", "addr:postcode": "3072", "addr:country": "AU", "name": "Preston HOME", "phone": "03 9208 7300", "opening_hours": "Mo-We 09:00-18:00; Th-Fr 09:00-21:00; Sa 09:00-17:00; Su 10:00-17:00", "brand": "JB Hi-Fi", "brand:wikidata": "Q3310113", "nsi_id": "jbhifi-2d5b11"}, "geometry": {"type": "Point", "coordinates": [145.0241103, -37.748877]}},
{"type": "Feature", "id": "heta3VsPEn6qHD0tPxWDLfUN3y0=", "properties": {"ref": "89", "@spider": "jbhifi", "shop": "electronics", "addr:street_address": "Westfield Plenty Valley Shopping Centre, Store MM6, Level 1, Corner McDonalds Road & Civic Drive", "addr:city": "Mill Park", "addr:state": "VIC", "addr:postcode": "3082", "addr:country": "AU", "name": "Plenty Valley - Westfield", "phone": "03 8432 4200", "opening_hours": "Mo-We 09:00-17:30; Th-Fr 09:00-21:00; Sa 09:00-17:00; Su 10:00-17:00", "brand": "JB Hi-Fi", "brand:wikidata": "Q3310113", "nsi_id": "jbhifi-2d5b11"}, "geometry": {"type": "Point", "coordinates": [145.063986, -37.648564]}},
{"type": "Feature", "id": "uteQuZhR0fwN4n1dCKQj9ZdOTgI=", "properties": {"ref": "88", "@spider": "jbhifi", "shop": "electronics", "addr:street_address": "Westfield Shoppingtown Doncaster, Store 111, Ground Level, 619 Doncaster Road", "addr:city": "Doncaster", "addr:state": "VIC", "addr:postcode": "3108", "addr:country": "AU", "name": "Doncaster", "phone": "03 8832 7400", "opening_hours": "Mo-We 09:00-17:30; Th-Fr 09:00-21:00; Sa 09:00-18:00; Su 10:00-17:00", "brand": "JB Hi-Fi", "brand:wikidata": "Q3310113", "nsi_id": "jbhifi-2d5b11"}, "geometry": {"type": "Point", "coordinates": [145.125875, -37.786216]}},
{"type": "Feature", "id": "nWsHMR4Oj9EzozX8fENVQRpmwLE=", "properties": {"ref": "86", "@spider": "jbhifi", "shop": "electronics", "addr:street_address": "239 Elizabeth Street", "addr:city": "Melbourne", "addr:state": "VIC", "addr:postcode": "3000", "addr:country": "AU", "name": "City - Elizabeth St", "phone": "03 9642 6100", "opening_hours": "Mo-We 09:00-19:00; Th-Fr 09:00-21:00; Sa 09:00-18:00; Su 10:00-18:00", "brand": "JB Hi-Fi", "brand:wikidata": "Q3310113", "nsi_id": "jbhifi-2d5b11"}, "geometry": {"type": "Point", "coordinates": [144.962281, -37.812968]}},
{"type": "Feature", "id": "bdzpaW0-XrI28RsFbGkJ_w6U_8Y=", "properties": {"ref": "85", "@spider": "jbhifi", "shop": "electronics", "addr:street_address": "412-414 George Street", "addr:city": "Sydney", "addr:state": "NSW", "addr:postcode": "2000", "addr:country": "AU", "name": "City - Strand Arcade Pitt St Mall", "phone": "02 9928 7200", "opening_hours": "Mo-We 09:00-18:30; Th 09:00-20:00; Fr 09:00-18:30; Sa 09:00-18:00; Su 10:00-18:00", "brand": "JB Hi-Fi", "brand:wikidata": "Q3310113", "nsi_id": "jbhifi-2d5b11"}, "geometry": {"type": "Point", "coordinates": [151.207627, -33.869417]}},
{"type": "Feature", "id": "3N3BHpZ81H2vniy79T7kXkMW5iQ=", "properties": {"ref": "84", "@spider": "jbhifi", "shop": "electronics", "addr:street_address": "Westfield Parramatta Shopping Centre, Store 5057b, Level 5, 159-175 Church Street", "addr:city": "Parramatta", "addr:state": "NSW", "addr:postcode": "2150", "addr:country": "AU", "name": "Parramatta Westfield", "phone": "02 8633 2600", "opening_hours": "Mo-We 09:00-18:00; Th 09:00-21:00; Fr-Sa 09:00-18:00; Su 10:00-18:00", "brand": "JB Hi-Fi", "brand:wikidata": "Q3310113", "nsi_id": "jbhifi-2d5b11"}, "geometry": {"type": "Point", "coordinates": [151.002119, -33.817705]}},
{"type": "Feature", "id": "8BhsqsX995Bt8uBLpnQxu4p6LGY=", "properties": {"ref": "83", "@spider": "jbhifi", "shop": "electronics", "addr:street_address": "Domain Central, 103 Duckworth St", "addr:city": "Garbutt", "addr:state": "QLD", "addr:postcode": "4814", "addr:country": "AU", "name": "Townsville HOME", "phone": "07 4412 2500", "opening_hours": "Mo-We 09:00-18:00; Th 09:00-20:00; Fr 09:00-18:00; Sa 09:00-17:00; Su 10:00-16:00", "brand": "JB Hi-Fi", "brand:wikidata": "Q3310113", "nsi_id": "jbhifi-2d5b11"}, "geometry": {"type": "Point", "coordinates": [146.757767, -19.275553]}},
{"type": "Feature", "id": "ciYIa5HUt_UbgLODTyGTbfv3sgg=", "properties": {"ref": "82", "@spider": "jbhifi", "shop": "electronics", "addr:street_address": "Westpoint Blacktown Shopping Centre, Store 2006, Level 2, 17 Patrick Street", "addr:city": "Blacktown", "addr:state": "NSW", "addr:postcode": "2148", "addr:country": "AU", "name": "Blacktown HOME", "phone": "02 9421 9000", "opening_hours": "Mo-We 09:00-17:30; Th 09:00-21:00; Fr-Sa 09:00-17:30; Su 10:00-17:00", "brand": "JB Hi-Fi", "brand:wikidata": "Q3310113", "nsi_id": "jbhifi-2d5b11"}, "geometry": {"type": "Point", "coordinates": [150.905183, -33.770105]}},
{"type": "Feature", "id": "FRJw4BluAYAYpUvSOVl_NHVHURQ=", "properties": {"ref": "81", "@spider": "jbhifi", "shop": "electronics", "addr:street_address": "Westfield Kotara Shopping Centre, Store 2020, Level 2, Corner Park Avenue & Northcott Drive", "addr:city": "Kotara", "addr:state": "NSW", "addr:postcode": "2289", "addr:country": "AU", "name": "Kotara - Westfield", "phone": "02 4903 2500", "opening_hours": "Mo-We 09:00-17:30; Th 09:00-21:00; Fr 09:00-17:30; Sa 09:00-17:00; Su 10:00-17:00", "brand": "JB Hi-Fi", "brand:wikidata": "Q3310113", "nsi_id": "jbhifi-2d5b11"}, "geometry": {"type": "Point", "coordinates": [151.712463, -32.940642]}},
{"type": "Feature", "id": "MPHMqRZIeJFlMGSGA2QUb0bFfL0=", "properties": {"ref": "80", "@spider": "jbhifi", "shop": "electronics", "addr:street_address": "Cat and Fiddle Arcade, , Lower Ground, 91 Collins Street", "addr:city": "Hobart", "addr:state": "TAS", "addr:postcode": "7000", "addr:country": "AU", "name": "Hobart", "phone": "03 6208 8600", "opening_hours": "Mo-Fr 09:00-17:30; Sa 09:00-17:00; Su 10:00-16:00", "brand": "JB Hi-Fi", "brand:wikidata": "Q3310113", "nsi_id": "jbhifi-2d5b11"}, "geometry": {"type": "Point", "coordinates": [147.327693, -42.882352]}},
{"type": "Feature", "id": "A8EGJUhuiYtHYNGhhLjVyfkt7n4=", "properties": {"ref": "308", "@spider": "jbhifi", "shop": "electronics", "addr:street_address": "Westfield Knox Shopping Centre, 509 Burwood Highway", "addr:city": "Wantirna South", "addr:state": "VIC", "addr:postcode": "3152", "addr:country": "AU", "name": "Wantirna South - Knox", "phone": "03 8841 7300", "opening_hours": "Mo-We 09:00-18:00; Th-Fr 09:00-21:00; Sa 09:00-18:00; Su 10:00-17:00", "brand": "JB Hi-Fi", "brand:wikidata": "Q3310113", "nsi_id": "jbhifi-2d5b11"}, "geometry": {"type": "Point", "coordinates": [145.24288, -37.871121]}},
{"type": "Feature", "id": "NlAGQFLva1Kg391CTgPyApeGc68=", "properties": {"ref": "79", "@spider": "jbhifi", "shop": "electronics", "addr:street_address": "Rouse Hill Town Centre, Store GR16, Ground Level, Corner of Windsor Road & White Hart Drive", "addr:city": "Rouse Hill", "addr:state": "NSW", "addr:postcode": "2155", "addr:country": "AU", "name": "Rouse Hill", "phone": "02 8886 7300", "opening_hours": "Mo-We 09:00-18:00; Th 09:00-21:00; Fr-Sa 09:00-18:00; Su 10:00-17:00", "brand": "JB Hi-Fi", "brand:wikidata": "Q3310113", "nsi_id": "jbhifi-2d5b11"}, "geometry": {"type": "Point", "coordinates": [150.9267, -33.691317]}},
{"type": "Feature", "id": "WhFeDryqkAkKugOT8T6s8-Tmt9U=", "properties": {"ref": "78", "@spider": "jbhifi", "shop": "electronics", "addr:street_address": "Westfield West Lakes Shopping Centre, Store T173-175, Level 2, 111 West Lakes Boulevard", "addr:city": "West Lakes", "addr:state": "SA", "addr:postcode": "5021", "addr:country": "AU", "name": "West Lakes", "phone": "08 8358 7200", "opening_hours": "Mo-We 09:00-17:30; Th 09:00-21:00; Fr 09:00-17:30; Sa-Su 09:00-17:00", "brand": "JB Hi-Fi", "brand:wikidata": "Q3310113", "nsi_id": "jbhifi-2d5b11"}, "geometry": {"type": "Point", "coordinates": [138.491401, -34.879434]}},
{"type": "Feature", "id": "7eeZwJz9K2tkNx2ryeWLmbJDM_E=", "properties": {"ref": "76", "@spider": "jbhifi", "shop": "electronics", "addr:street_address": "Market Plaza, 255-257 Margaret Street", "addr:city": "Toowoomba", "addr:state": "QLD", "addr:postcode": "4350", "addr:country": "AU", "name": "Toowoomba HOME", "phone": "07 4614 2600", "opening_hours": "Mo-We 09:00-17:30; Th 09:00-21:00; Fr 09:00-17:30; Sa 09:00-17:00; Su 10:00-16:00", "brand": "JB Hi-Fi", "brand:wikidata": "Q3310113", "nsi_id": "jbhifi-2d5b11"}, "geometry": {"type": "Point", "coordinates": [151.952126, -27.560824]}},
{"type": "Feature", "id": "M2of5wF08Wu2KHt42cMSztfAsVU=", "properties": {"ref": "75", "@spider": "jbhifi", "shop": "electronics", "addr:street_address": "Epping Plaza Shopping Centre, Store T242, , 571-583 High Street", "addr:city": "Epping", "addr:state": "VIC", "addr:postcode": "3076", "addr:country": "AU", "name": "Epping Plaza", "phone": "03 8401 8600", "opening_hours": "Mo-We 09:00-17:30; Th-Fr 09:00-21:00; Sa 09:00-17:00; Su 10:00-17:00", "brand": "JB Hi-Fi", "brand:wikidata": "Q3310113", "nsi_id": "jbhifi-2d5b11"}, "geometry": {"type": "Point", "coordinates": [145.016493, -37.651577]}},
{"type": "Feature", "id": "oF1bmr1Yc9mjwXdEOlPU1pfkWVI=", "properties": {"ref": "226", "@spider": "jbhifi", "shop": "electronics", "addr:street_address": "Stockland Glendale Shopping Centre, Store 48, Ground Level, 387 Lake Road", "addr:city": "Glendale", "addr:state": "NSW", "addr:postcode": "2285", "addr:country": "AU", "name": "Glendale", "phone": "02 4041 8200", "opening_hours": "Mo-We 09:00-18:00; Th 09:00-21:00; Fr 09:00-18:00; Sa 09:00-17:00; Su 10:00-17:00", "brand": "JB Hi-Fi", "brand:wikidata": "Q3310113", "nsi_id": "jbhifi-2d5b11"}, "geometry": {"type": "Point", "coordinates": [151.641979, -32.929445]}},
{"type": "Feature", "id": "biSlWGR_3CYHJNDT9G-U3rSwZ8c=", "properties": {"ref": "328", "@spider": "jbhifi", "shop": "electronics", "addr:street_address": "24-26 Mair Street", "addr:city": "Ballarat", "addr:state": "VIC", "addr:postcode": "3350", "addr:country": "AU", "name": "Ballarat", "phone": "03 4313 5000", "opening_hours": "Mo-We 09:00-18:00; Th-Fr 09:00-19:00; Sa 09:00-17:00; Su 10:00-17:00", "brand": "JB Hi-Fi", "brand:wikidata": "Q3310113", "nsi_id": "jbhifi-2d5b11"}, "geometry": {"type": "Point", "coordinates": [143.861627, -37.560311]}},
{"type": "Feature", "id": "IqlHKeyg1sjVplNd3e-1yKUAvnw=", "properties": {"ref": "326", "@spider": "jbhifi", "shop": "electronics", "addr:street_address": "Watergardens Town Centre, Store 144, , 399 Melton Highway", "addr:city": "Taylors Lakes", "addr:state": "VIC", "addr:postcode": "3038", "addr:country": "AU", "name": "Taylors Lakes (Watergardens)", "phone": "03 8361 4200", "opening_hours": "Mo-We 09:00-17:30; Th-Fr 09:00-21:00; Sa 09:00-17:00; Su 10:00-17:00", "brand": "JB Hi-Fi", "brand:wikidata": "Q3310113", "nsi_id": "jbhifi-2d5b11"}, "geometry": {"type": "Point", "coordinates": [144.779962, -37.697178]}},
{"type": "Feature", "id": "QfXwp0vvu_oM-HqUue36oOGuHM8=", "properties": {"ref": "412", "@spider": "jbhifi", "shop": "electronics", "addr:street_address": "RiverLink Shopping Centre, Store MM3, , Corner Pine Street & The Terrace", "addr:city": "Ipswich", "addr:state": "QLD", "addr:postcode": "4305", "addr:country": "AU", "name": "Ipswich", "phone": "07 3437 6200", "opening_hours": "Mo-We 09:00-17:30; Th 09:00-21:00; Fr 09:00-17:30; Sa 09:00-17:00; Su 10:00-17:00", "brand": "JB Hi-Fi", "brand:wikidata": "Q3310113", "nsi_id": "jbhifi-2d5b11"}, "geometry": {"type": "Point", "coordinates": [152.759271, -27.609131]}},
{"type": "Feature", "id": "qD87nU0pjBcsJKiLtxRVPX3qMA8=", "properties": {"ref": "606", "@spider": "jbhifi", "shop": "electronics", "addr:street_address": "4 Clayton Street", "addr:city": "Midland", "addr:state": "WA", "addr:postcode": "6056", "addr:country": "AU", "name": "Midland HOME", "phone": "08 6350 3600", "opening_hours": "Mo-We 09:00-18:00; Th 09:00-21:00; Fr 09:00-18:00; Sa 09:00-17:00; Su 11:00-17:00", "brand": "JB Hi-Fi", "brand:wikidata": "Q3310113", "nsi_id": "jbhifi-2d5b11"}, "geometry": {"type": "Point", "coordinates": [116.010772, -31.895631]}},
{"type": "Feature", "id": "nuDwB51AgmRmP3TT94DncoHMeZ4=", "properties": {"ref": "604", "@spider": "jbhifi", "shop": "electronics", "addr:street_address": "Hometown Melville, Store 4, , 276 Leach Highway", "addr:city": "Myaree", "addr:state": "WA", "addr:postcode": "6154", "addr:country": "AU", "name": "Myaree HOME", "phone": "08 6213 4900", "opening_hours": "Mo-We 09:00-18:00; Th 09:00-21:00; Fr 09:00-18:00; Sa 09:00-17:00; Su 11:00-17:00", "brand": "JB Hi-Fi", "brand:wikidata": "Q3310113", "nsi_id": "jbhifi-2d5b11"}, "geometry": {"type": "Point", "coordinates": [115.825288, -32.04546]}},
{"type": "Feature", "id": "VzD7CdQnfNmw0zWWNDQsRTvMONA=", "properties": {"ref": "327", "@spider": "jbhifi", "shop": "electronics", "addr:street_address": "Essendon Direct Factory Outlet, Store T12A, , 100 Bulla Road", "addr:city": "Essendon Airport", "addr:state": "VIC", "addr:postcode": "3040", "addr:country": "AU", "name": "Essendon HOME", "phone": "03 9374 6000", "opening_hours": "Mo-Su 10:00-18:00", "brand": "JB Hi-Fi", "brand:wikidata": "Q3310113", "nsi_id": "jbhifi-2d5b11"}, "geometry": {"type": "Point", "coordinates": [144.906213, -37.733687]}},
{"type": "Feature", "id": "aiVFA554jLY_d8SF4GzuH5l0WD0=", "properties": {"ref": "222", "@spider": "jbhifi", "shop": "electronics", "addr:street_address": "Warrawong Plaza, JB MM3, Ground Level, 43-65 Cowper Street", "addr:city": "Warrawong", "addr:state": "NSW", "addr:postcode": "2502", "addr:country": "AU", "name": "Warrawong", "phone": "02 4276 6400", "opening_hours": "Mo-We 09:00-17:30; Th 09:00-21:00; Fr 09:00-17:30; Sa 09:00-17:00; Su 10:00-17:00", "brand": "JB Hi-Fi", "brand:wikidata": "Q3310113", "nsi_id": "jbhifi-2d5b11"}, "geometry": {"type": "Point", "coordinates": [150.889767, -34.486759]}},
{"type": "Feature", "id": "6kau8kxBj_Y-DDndJ6Ova_ALAlU=", "properties": {"ref": "411", "@spider": "jbhifi", "shop": "electronics", "addr:street_address": "Westfield Chermside Shopping Centre, Store MM2, Level 2, Level 1, Corner Gympie & Hamilton Roads", "addr:city": "Chermside", "addr:state": "QLD", "addr:postcode": "4032", "addr:country": "AU", "name": "Chermside", "phone": "07 3917 4300", "opening_hours": "Mo-We 09:00-17:30; Th 09:00-21:00; Fr-Sa 09:00-17:30; Su 10:00-17:00", "brand": "JB Hi-Fi", "brand:wikidata": "Q3310113", "nsi_id": "jbhifi-2d5b11"}, "geometry": {"type": "Point", "coordinates": [153.030999, -27.385905]}},
{"type": "Feature", "id": "hHwFHPz1DXzhbh3NW90LpSZDY7s=", "properties": {"ref": "505", "@spider": "jbhifi", "shop": "electronics", "addr:street_address": "Elizabeth Shopping Centre, Store 127, , Corner of Main North Road & Philip Highway", "addr:city": "Elizabeth", "addr:state": "SA", "addr:postcode": "5112", "addr:country": "AU", "name": "Elizabeth", "phone": "08 8283 6400", "opening_hours": "Mo-We 09:00-17:30; Th 09:00-21:00; Fr 09:00-17:30; Sa-Su 09:00-17:00", "brand": "JB Hi-Fi", "brand:wikidata": "Q3310113", "nsi_id": "jbhifi-2d5b11"}, "geometry": {"type": "Point", "coordinates": [138.669663, -34.718263]}},
{"type": "Feature", "id": "HXrPODFi-M8XXQvRib8eYgpvxh8=", "properties": {"ref": "410", "@spider": "jbhifi", "shop": "electronics", "addr:street_address": "Westfield Carindale Shopping Centre, MM12, Level 1, 1151 Creek Road", "addr:city": "Carindale", "addr:state": "QLD", "addr:postcode": "4152", "addr:country": "AU", "name": "Carindale - Westfield", "phone": "07 3917 6200", "opening_hours": "Mo-We 09:00-17:30; Th 09:00-21:00; Fr 09:00-17:30; Sa 09:00-17:00; Su 10:00-17:00", "brand": "JB Hi-Fi", "brand:wikidata": "Q3310113", "nsi_id": "jbhifi-2d5b11"}, "geometry": {"type": "Point", "coordinates": [153.101263, -27.502752]}},
{"type": "Feature", "id": "Xh7uz93kYI6p2mRZ6TMAIslxvrE=", "properties": {"ref": "325", "@spider": "jbhifi", "shop": "electronics", "addr:street_address": "Broadmeadows Town Centre, Store G152, , Coleraine Street", "addr:city": "Broadmeadows", "addr:state": "VIC", "addr:postcode": "3047", "addr:country": "AU", "name": "Broadmeadows", "phone": "03 8301 8600", "opening_hours": "Mo-We 09:00-17:30; Th-Fr 09:00-21:00; Sa 09:00-17:00; Su 10:00-17:00", "brand": "JB Hi-Fi", "brand:wikidata": "Q3310113", "nsi_id": "jbhifi-2d5b11"}, "geometry": {"type": "Point", "coordinates": [144.919456, -37.677589]}},
{"type": "Feature", "id": "yOS-L3ATCSdaLPQyiV2n9pLQBmM=", "properties": {"ref": "319", "@spider": "jbhifi", "shop": "electronics", "addr:street_address": "Market Square Shopping Centre, , Ground Floor, Corner Malop & Moorabool Streets", "addr:city": "Geelong", "addr:state": "VIC", "addr:postcode": "3220", "addr:country": "AU", "name": "Geelong", "phone": "03 5247 7400", "opening_hours": "Mo-Th 09:00-17:30; Fr 09:00-21:00; Sa 09:00-17:00; Su 10:00-17:00", "brand": "JB Hi-Fi", "brand:wikidata": "Q3310113", "nsi_id": "jbhifi-2d5b11"}, "geometry": {"type": "Point", "coordinates": [144.360735, -38.14729]}},
{"type": "Feature", "id": "qnlZx6EbTDyvVI1fps26W7N3-LY=", "properties": {"ref": "504", "@spider": "jbhifi", "shop": "electronics", "addr:street_address": "Colonnades Shopping Centre, Store MM1, Ground Level, Corner Burgess & Beach Roads", "addr:city": "Noarlunga Centre", "addr:state": "SA", "addr:postcode": "5168", "addr:country": "AU", "name": "Colonnades HOME", "phone": "08 8187 5200", "opening_hours": "Mo-We 09:00-17:30; Th 09:00-21:00; Fr 09:00-17:30; Sa-Su 09:00-17:00", "brand": "JB Hi-Fi", "brand:wikidata": "Q3310113", "nsi_id": "jbhifi-2d5b11"}, "geometry": {"type": "Point", "coordinates": [138.493895, -35.138246]}},
{"type": "Feature", "id": "ojOOrivejR308ssOcS7fPlOAzYw=", "properties": {"ref": "221", "@spider": "jbhifi", "shop": "electronics", "addr:street_address": "Westfield Liverpool Shopping Centre, Store 1024, Level 1, Macquarie Street", "addr:city": "Liverpool", "addr:state": "NSW", "addr:postcode": "2170", "addr:country": "AU", "name": "Liverpool", "phone": "02 8785 3700", "opening_hours": "Mo-We 09:00-17:30; Th 09:00-21:00; Fr 09:00-17:30; Sa 09:00-17:00; Su 10:00-17:00", "brand": "JB Hi-Fi", "brand:wikidata": "Q3310113", "nsi_id": "jbhifi-2d5b11"}, "geometry": {"type": "Point", "coordinates": [150.9238, -33.9192]}},
{"type": "Feature", "id": "xvx-OcAzeNl5hDaBo0_T2t25Vig=", "properties": {"ref": "306", "@spider": "jbhifi", "shop": "electronics", "addr:street_address": "Home HQ, 372-394 Whitehorse Road", "addr:city": "Nunawading", "addr:state": "VIC", "addr:postcode": "3131", "addr:country": "AU", "name": "Nunawading", "phone": "03 8877 7200", "opening_hours": "Mo-We 09:00-17:30; Th-Fr 09:00-21:00; Sa 09:00-17:00; Su 10:00-17:00", "brand": "JB Hi-Fi", "brand:wikidata": "Q3310113", "nsi_id": "jbhifi-2d5b11"}, "geometry": {"type": "Point", "coordinates": [145.179777, -37.819446]}},
{"type": "Feature", "id": "JWA7fIcSW9qiZvwdj-c4SsEVqks=", "properties": {"ref": "323", "@spider": "jbhifi", "shop": "electronics", "addr:street_address": "159-163 Rosamond Rd", "addr:city": "Maribyrnong", "addr:state": "VIC", "addr:postcode": "3032", "addr:country": "AU", "name": "Maribyrnong HOME", "phone": "03 9236 4500", "opening_hours": "Mo-We 09:00-18:00; Th-Fr 09:00-21:00; Sa 09:00-17:30; Su 10:00-17:30", "brand": "JB Hi-Fi", "brand:wikidata": "Q3310113", "nsi_id": "jbhifi-2d5b11"}, "geometry": {"type": "Point", "coordinates": [144.885482, -37.773936]}},
{"type": "Feature", "id": "gw3KwYx3wZmekLr0HvqAmkVVD50=", "properties": {"ref": "220", "@spider": "jbhifi", "shop": "electronics", "addr:street_address": "Westfield Mt Druitt Shopping Centre, Store 208, Level 1, Corner Carlisle & Luxford Roads", "addr:city": "Mt Druitt", "addr:state": "NSW", "addr:postcode": "2770", "addr:country": "AU", "name": "Mt Druitt", "phone": "02 8808 3900", "opening_hours": "Mo-We 09:00-17:30; Th 09:00-21:00; Fr 09:00-17:30; Sa 09:00-17:00; Su 10:00-17:00", "brand": "JB Hi-Fi", "brand:wikidata": "Q3310113", "nsi_id": "jbhifi-2d5b11"}, "geometry": {"type": "Point", "coordinates": [150.819154, -33.765734]}},
{"type": "Feature", "id": "HZ_e-O1TCpuVfy7PC-6T_xMSV_I=", "properties": {"ref": "216", "@spider": "jbhifi", "shop": "electronics", "addr:street_address": "Westfield Penrith Shopping Centre, Store MM1, Level 1, 21-55 Station Street", "addr:city": "Penrith", "addr:state": "NSW", "addr:postcode": "2750", "addr:country": "AU", "name": "Penrith Westfield", "phone": "02 4723 3100", "opening_hours": "Mo-We 09:00-17:30; Th 09:00-21:00; Fr-Sa 09:00-17:30; Su 10:00-17:00", "brand": "JB Hi-Fi", "brand:wikidata": "Q3310113", "nsi_id": "jbhifi-2d5b11"}, "geometry": {"type": "Point", "coordinates": [150.695402, -33.751169]}},
{"type": "Feature", "id": "6oV6Q2NnRSR6BWgcpyOF0O_q3C0=", "properties": {"ref": "217", "@spider": "jbhifi", "shop": "electronics", "addr:street_address": "Macarthur Square Shopping Centre, Store L086, Level 2, 200 Gilchrist Drive", "addr:city": "Campbelltown", "addr:state": "NSW", "addr:postcode": "2560", "addr:country": "AU", "name": "Macarthur Square", "phone": "02 4632 2700", "opening_hours": "Mo-We 09:00-17:30; Th 09:00-21:00; Fr-Sa 09:00-17:30; Su 10:00-17:00", "brand": "JB Hi-Fi", "brand:wikidata": "Q3310113", "nsi_id": "jbhifi-2d5b11"}, "geometry": {"type": "Point", "coordinates": [150.796896, -34.073398]}},
{"type": "Feature", "id": "eoiBWGKawsGImwQn50uzT-rwFWo=", "properties": {"ref": "801", "@spider": "jbhifi", "shop": "electronics", "addr:street_address": "Casuarina Square Shopping Centre, Store GDM3, Level 1, 247 Trower Rd (next to Coles)", "addr:city": "Casuarina", "addr:state": "NT", "addr:postcode": "0810", "addr:country": "AU", "name": "Casuarina", "phone": "08 8995 7200", "opening_hours": "Mo-Th 09:00-17:30; Fr 09:00-21:00; Sa 09:00-17:00; Su 10:00-16:00", "brand": "JB Hi-Fi", "brand:wikidata": "Q3310113", "nsi_id": "jbhifi-2d5b11"}, "geometry": {"type": "Point", "coordinates": [130.882767, -12.375134]}},
{"type": "Feature", "id": "R_EIltKJFdTISmpKM9kh0BOS-oI=", "properties": {"ref": "215", "@spider": "jbhifi", "shop": "electronics", "addr:street_address": "Hills Super Centre, Store 21, Level 1, Corner of Showground Road & Victoria Avenue", "addr:city": "Castle Hill", "addr:state": "NSW", "addr:postcode": "2154", "addr:country": "AU", "name": "Castle Hill HOME", "phone": "02 8841 5100", "opening_hours": "Mo-We 09:00-17:30; Th 09:00-21:00; Fr 09:00-17:30; Sa 09:00-18:00; Su 10:00-17:00", "brand": "JB Hi-Fi", "brand:wikidata": "Q3310113", "nsi_id": "jbhifi-2d5b11"}, "geometry": {"type": "Point", "coordinates": [150.976696, -33.726446]}},
{"type": "Feature", "id": "l8KRnZWEiXHPXwASOZ99fVr8RKc=", "properties": {"ref": "321", "@spider": "jbhifi", "shop": "electronics", "addr:street_address": "Westfield Southland Shopping Centre, Store 1140, Ground Level, 1239 Nepean Highway", "addr:city": "Cheltenham", "addr:state": "VIC", "addr:postcode": "3192", "addr:country": "AU", "name": "Southland", "phone": "03 9262 5300", "opening_hours": "Mo-We 09:00-17:30; Th-Fr 09:00-21:00; Sa 09:00-17:00; Su 10:00-17:00", "brand": "JB Hi-Fi", "brand:wikidata": "Q3310113", "nsi_id": "jbhifi-2d5b11"}, "geometry": {"type": "Point", "coordinates": [145.054775, -37.958055]}},
{"type": "Feature", "id": "whe8l6Id-jZZBSHv-CjIjItLYUs=", "properties": {"ref": "219", "@spider": "jbhifi", "shop": "electronics", "addr:street_address": "Westfield Warringah Mall Shopping Centre, Store 191, Level 1, Corner Condamine Street & Old Pittwater Road", "addr:city": "Brookvale", "addr:state": "NSW", "addr:postcode": "2100", "addr:country": "AU", "name": "Warringah Mall", "phone": "02 8976 2600", "opening_hours": "Mo-We 09:00-18:00; Th 09:00-21:00; Fr-Sa 09:00-18:00; Su 10:00-17:00", "brand": "JB Hi-Fi", "brand:wikidata": "Q3310113", "nsi_id": "jbhifi-2d5b11"}, "geometry": {"type": "Point", "coordinates": [151.264701, -33.767803]}},
{"type": "Feature", "id": "DUE88tOzPoF-ihJyz1VJQCkW6rw=", "properties": {"ref": "214", "@spider": "jbhifi", "shop": "electronics", "addr:street_address": "Westfield Chatswood Shopping Centre, Store 500, Level 5, Anderson Street", "addr:city": "Chatswood", "addr:state": "NSW", "addr:postcode": "2067", "addr:country": "AU", "name": "Chatswood Westfield", "phone": "02 8918 7400", "opening_hours": "Mo-We 09:30-18:00; Th 09:30-21:00; Fr 09:30-18:00; Sa 09:00-18:00; Su 10:00-18:00", "brand": "JB Hi-Fi", "brand:wikidata": "Q3310113", "nsi_id": "jbhifi-2d5b11"}, "geometry": {"type": "Point", "coordinates": [151.184235, -33.797159]}},
{"type": "Feature", "id": "QIoFwAbztNQHofpIZsEu9Z-N2K4=", "properties": {"ref": "210", "@spider": "jbhifi", "shop": "electronics", "addr:street_address": "Westfield Miranda Shopping Centre, Store G114-115, Ground Level, 600 The Kingsway", "addr:city": "Miranda", "addr:state": "NSW", "addr:postcode": "2228", "addr:country": "AU", "name": "Miranda", "phone": "02 8522 8600", "opening_hours": "Mo-We 09:30-18:00; Th 09:30-21:00; Fr-Sa 09:30-18:00; Su 10:00-18:00", "brand": "JB Hi-Fi", "brand:wikidata": "Q3310113", "nsi_id": "jbhifi-2d5b11"}, "geometry": {"type": "Point", "coordinates": [151.100153, -34.035012]}},
{"type": "Feature", "id": "Skq-zicxlQNYh5eHfsttiJmuKLI=", "properties": {"ref": "409", "@spider": "jbhifi", "shop": "electronics", "addr:street_address": "Robina Town Centre, Store 4176, Level 3, Corner Robina Town Centre & Laver Drives", "addr:city": "Robina", "addr:state": "QLD", "addr:postcode": "4230", "addr:country": "AU", "name": "Robina Home", "phone": "07 5514 9900", "opening_hours": "Mo-We 09:00-17:30; Th 09:00-21:00; Fr 09:00-17:30; Sa 09:00-17:00; Su 10:00-16:00", "brand": "JB Hi-Fi", "brand:wikidata": "Q3310113", "nsi_id": "jbhifi-2d5b11"}, "geometry": {"type": "Point", "coordinates": [153.378884, -28.073564]}},
{"type": "Feature", "id": "g_t9U5-qNtlP1UqQq7lTEWxlMyA=", "properties": {"ref": "218", "@spider": "jbhifi", "shop": "electronics", "addr:street_address": "Westfield Tuggerah Shopping Centre, Store 2029, Level 2, 50 Wyong Road", "addr:city": "Tuggerah", "addr:state": "NSW", "addr:postcode": "2259", "addr:country": "AU", "name": "Tuggerah", "phone": "02 4356 4600", "opening_hours": "Mo-We 09:00-17:30; Th 09:00-21:00; Fr 09:00-17:30; Sa 09:00-17:00; Su 10:00-17:00", "brand": "JB Hi-Fi", "brand:wikidata": "Q3310113", "nsi_id": "jbhifi-2d5b11"}, "geometry": {"type": "Point", "coordinates": [151.423361, -33.314876]}},
{"type": "Feature", "id": "Sn8P3T5rvjvwb0VoCoJUI7-uVgg=", "properties": {"ref": "408", "@spider": "jbhifi", "shop": "electronics", "addr:street_address": "Hyperdome Central Mall, Tenancy MM06A (opposite Food Court Area), Corner Pacific Highway & Bryants Road", "addr:city": "Loganholme", "addr:state": "QLD", "addr:postcode": "4129", "addr:country": "AU", "name": "Loganholme", "phone": "07 3451 9600", "opening_hours": "Mo-We 09:00-17:30; Th 09:00-21:00; Fr 09:00-17:30; Sa 09:00-17:00; Su 10:00-17:00", "brand": "JB Hi-Fi", "brand:wikidata": "Q3310113", "nsi_id": "jbhifi-2d5b11"}, "geometry": {"type": "Point", "coordinates": [153.173151, -27.664152]}},
{"type": "Feature", "id": "zKWhvkb8bSzeAHHKyCUSokb0U78=", "properties": {"ref": "605", "@spider": "jbhifi", "shop": "electronics", "addr:street_address": "Westfield Whitford City Shopping Centre, Store MM3, Ground Level, Corner Whitfords & Marmion Avenue", "addr:city": "Hillarys", "addr:state": "WA", "addr:postcode": "6025", "addr:country": "AU", "name": "Whitford", "phone": "08 9404 4300", "opening_hours": "Mo-We 09:00-17:30; Th 09:00-21:00; Fr 09:00-17:30; Sa 09:00-17:00; Su 11:00-17:00", "brand": "JB Hi-Fi", "brand:wikidata": "Q3310113", "nsi_id": "jbhifi-2d5b11"}, "geometry": {"type": "Point", "coordinates": [115.751009, -31.796254]}},
{"type": "Feature", "id": "BOuNqznOFxcWgcTQRvQYFn-U6Ec=", "properties": {"ref": "213", "@spider": "jbhifi", "shop": "electronics", "addr:street_address": "Westfield Hornsby Shopping Centre, Store 3014-3015, Level 3, 236 Pacific Highway", "addr:city": "Hornsby", "addr:state": "NSW", "addr:postcode": "2077", "addr:country": "AU", "name": "Hornsby", "phone": "02 9480 2400", "opening_hours": "Mo-We 09:00-18:00; Th 09:00-21:00; Fr-Sa 09:00-18:00; Su 10:00-17:00", "brand": "JB Hi-Fi", "brand:wikidata": "Q3310113", "nsi_id": "jbhifi-2d5b11"}, "geometry": {"type": "Point", "coordinates": [151.099262, -33.704956]}},
{"type": "Feature", "id": "qmWhJmUpfYBQav56lJHC3NsCack=", "properties": {"ref": "208", "@spider": "jbhifi", "shop": "electronics", "addr:street_address": "Macquarie Centre, Store 429, Level 4, Corner Herring & Waterloo Roads", "addr:city": "North Ryde", "addr:state": "NSW", "addr:postcode": "2113", "addr:country": "AU", "name": "Macquarie", "phone": "02 8514 3000", "opening_hours": "Mo-We 09:00-18:00; Th 09:00-21:00; Fr-Sa 09:00-18:00; Su 10:00-18:00", "brand": "JB Hi-Fi", "brand:wikidata": "Q3310113", "nsi_id": "jbhifi-2d5b11"}, "geometry": {"type": "Point", "coordinates": [151.120591, -33.776472]}},
{"type": "Feature", "id": "zMOHKHoMn8i8eBJ1gQKOPkrw9v4=", "properties": {"ref": "318", "@spider": "jbhifi", "shop": "electronics", "addr:street_address": "Village Centre, 206 Bourke Street ", "addr:city": "Melbourne", "addr:state": "VIC", "addr:postcode": "3000", "addr:country": "AU", "name": "City - Bourke Street", "phone": "03 8656 4200", "opening_hours": "Mo-We 09:00-19:00; Th-Fr 09:00-21:00; Sa 09:00-18:00; Su 10:00-18:00", "brand": "JB Hi-Fi", "brand:wikidata": "Q3310113", "nsi_id": "jbhifi-2d5b11"}, "geometry": {"type": "Point", "coordinates": [144.96702, -37.812915]}},
{"type": "Feature", "id": "Maks9VZOfOtq470KLqGvTLKdtxk=", "properties": {"ref": "205", "@spider": "jbhifi", "shop": "electronics", "addr:street_address": "97 Norton Street", "addr:city": "Leichhardt", "addr:state": "NSW", "addr:postcode": "2040", "addr:country": "AU", "name": "Leichhardt", "phone": "02 9508 2200", "opening_hours": "Mo-We 10:00-18:00; Th 10:00-21:00; Fr 10:00-18:00; Sa 09:00-18:00; Su 10:00-18:00", "brand": "JB Hi-Fi", "brand:wikidata": "Q3310113", "nsi_id": "jbhifi-2d5b11"}, "geometry": {"type": "Point", "coordinates": [151.157648, -33.885096]}},
{"type": "Feature", "id": "jM_cUSLR4aiomNRoR9DVdFkTCJo=", "properties": {"ref": "304", "@spider": "jbhifi", "shop": "electronics", "addr:street_address": "459-467 Nepean Highway", "addr:city": "Brighton", "addr:state": "VIC", "addr:postcode": "3186", "addr:country": "AU", "name": "Brighton HOME", "phone": "03 9595 9200", "opening_hours": "Mo-We 09:00-18:00; Th-Fr 09:00-21:00; Sa 09:00-18:00; Su 10:00-17:00", "brand": "JB Hi-Fi", "brand:wikidata": "Q3310113", "nsi_id": "jbhifi-2d5b11"}, "geometry": {"type": "Point", "coordinates": [145.010122, -37.9074]}},
{"type": "Feature", "id": "Ga82Z-RLF2UAQRwGsbn3WSc-Ang=", "properties": {"ref": "212", "@spider": "jbhifi", "shop": "electronics", "addr:street_address": "Westfield Belconnen Shopping Centre, Store 97-98, , Corner Benjamin Way & Emu Bank Road", "addr:city": "Belconnen", "addr:state": "ACT", "addr:postcode": "2617", "addr:country": "AU", "name": "Belconnen - Westfield", "phone": "02 6129 5700", "opening_hours": "Mo-Th 09:00-17:30; Fr 09:00-21:00; Sa 09:00-17:00; Su 10:00-17:00", "brand": "JB Hi-Fi", "brand:wikidata": "Q3310113", "nsi_id": "jbhifi-2d5b11"}, "geometry": {"type": "Point", "coordinates": [149.067779, -35.247056]}},
{"type": "Feature", "id": "HihGxfTxKjKPtdCJgMGAlp2Jskg=", "properties": {"ref": "503", "@spider": "jbhifi", "shop": "electronics", "addr:street_address": "7 Smart Road", "addr:city": "Modbury", "addr:state": "SA", "addr:postcode": "5092", "addr:country": "AU", "name": "Modbury", "phone": "08 8397 5900", "opening_hours": "Mo-We 09:00-18:00; Th 09:00-21:00; Fr 09:00-18:00; Sa-Su 09:00-17:00", "brand": "JB Hi-Fi", "brand:wikidata": "Q3310113", "nsi_id": "jbhifi-2d5b11"}, "geometry": {"type": "Point", "coordinates": [138.683724, -34.833729]}},
{"type": "Feature", "id": "rR508Ce2A_RyoqfDIEObQdWkH5A=", "properties": {"ref": "316", "@spider": "jbhifi", "shop": "electronics", "addr:street_address": "Casey Lifestyle Centre, Store 11, , 430-440 Princes Highway", "addr:city": "Narre Warren", "addr:state": "VIC", "addr:postcode": "3805", "addr:country": "AU", "name": "Narre Warren HOME", "phone": "03 8782 3500", "opening_hours": "Mo-Th 09:00-18:00; Fr 09:00-21:00; Sa 09:00-17:00; Su 10:00-17:00", "brand": "JB Hi-Fi", "brand:wikidata": "Q3310113", "nsi_id": "jbhifi-2d5b11"}, "geometry": {"type": "Point", "coordinates": [145.308003, -38.026224]}},
{"type": "Feature", "id": "XqX3GOQjr1vVa4bkq_cdWO8PkfQ=", "properties": {"ref": "209", "@spider": "jbhifi", "shop": "electronics", "addr:street_address": "The Galeries, Store RLG23, , 500 George Street", "addr:city": "Sydney", "addr:state": "NSW", "addr:postcode": "2000", "addr:country": "AU", "name": "City - Galeries", "phone": "02 9307 1400", "opening_hours": "Mo-We 08:30-19:00; Th 08:30-21:00; Fr 08:30-19:00; Sa-Su 10:00-17:30", "brand": "JB Hi-Fi", "brand:wikidata": "Q3310113", "nsi_id": "jbhifi-2d5b11"}, "geometry": {"type": "Point", "coordinates": [151.206988, -33.872251]}},
{"type": "Feature", "id": "8pYR-_t2urQ8v8V0H_PYiNIg1NY=", "properties": {"ref": "317", "@spider": "jbhifi", "shop": "electronics", "addr:street_address": "Werribee Plaza, Store MM04, , Corner Derrimut & Heaths Roads", "addr:city": "Hoppers Crossing", "addr:state": "VIC", "addr:postcode": "3029", "addr:country": "AU", "name": "Werribee", "phone": "03 8754 4100", "opening_hours": "Mo-We 09:00-17:30; Th-Fr 09:00-21:00; Sa 09:00-17:00; Su 10:00-17:00", "brand": "JB Hi-Fi", "brand:wikidata": "Q3310113", "nsi_id": "jbhifi-2d5b11"}, "geometry": {"type": "Point", "coordinates": [144.681391, -37.875302]}},
{"type": "Feature", "id": "Y92DmxnPmbeJvUtpGFT0gigjkPw=", "properties": {"ref": "211", "@spider": "jbhifi", "shop": "electronics", "addr:street_address": "Canberra Centre, Store FF13, Level 1, Bunda Street", "addr:city": "Canberra", "addr:state": "ACT", "addr:postcode": "2601", "addr:country": "AU", "name": "City - Canberra", "phone": "02 6129 0900", "opening_hours": "Mo-Th 09:00-17:30; Fr 09:00-21:00; Sa 09:00-17:30; Su 10:00-17:00", "brand": "JB Hi-Fi", "brand:wikidata": "Q3310113", "nsi_id": "jbhifi-2d5b11"}, "geometry": {"type": "Point", "coordinates": [149.133251, -35.279034]}},
{"type": "Feature", "id": "m_ALjEztH2zFm2CMZJZ7FWKXr0w=", "properties": {"ref": "207", "@spider": "jbhifi", "shop": "electronics", "addr:street_address": "Westfield Bondi Junction, Store 2026-2028, Level 2, 500 Oxford Street", "addr:city": "Bondi Junction", "addr:state": "NSW", "addr:postcode": "2022", "addr:country": "AU", "name": "Bondi", "phone": "02 9386 8000", "opening_hours": "Mo-We 09:00-18:00; Th 09:00-21:00; Fr-Sa 09:00-18:00; Su 10:00-18:00", "brand": "JB Hi-Fi", "brand:wikidata": "Q3310113", "nsi_id": "jbhifi-2d5b11"}, "geometry": {"type": "Point", "coordinates": [151.250153, -33.891525]}},
{"type": "Feature", "id": "wZjQT-aAv94KS9sXhqS3eADwbAE=", "properties": {"ref": "206", "@spider": "jbhifi", "shop": "electronics", "addr:street_address": "Erina Fair Shopping Centre, Store AXA02, , Terrigal Drive", "addr:city": "Erina", "addr:state": "NSW", "addr:postcode": "2250", "addr:country": "AU", "name": "Erina HOME", "phone": "02 4343 6500", "opening_hours": "Mo-We 09:00-18:00; Th 09:00-21:00; Fr 09:00-18:00; Sa 09:00-17:00; Su 10:00-17:00", "brand": "JB Hi-Fi", "brand:wikidata": "Q3310113", "nsi_id": "jbhifi-2d5b11"}, "geometry": {"type": "Point", "coordinates": [151.3930919, -33.4353585]}},
{"type": "Feature", "id": "L2nd0dGqq1zsJcnLWVmu3-03QPo=", "properties": {"ref": "502", "@spider": "jbhifi", "shop": "electronics", "addr:street_address": "Westfield Marion Shopping Centre, Store 14M, , 297 Diagonal Road", "addr:city": "Oaklands Park", "addr:state": "SA", "addr:postcode": "5046", "addr:country": "AU", "name": "Marion", "phone": "08 8172 3800", "opening_hours": "Mo-We 09:00-17:30; Th 09:00-21:00; Fr 09:00-17:30; Sa-Su 09:00-17:00", "brand": "JB Hi-Fi", "brand:wikidata": "Q3310113", "nsi_id": "jbhifi-2d5b11"}, "geometry": {"type": "Point", "coordinates": [138.544675, -35.013883]}},
{"type": "Feature", "id": "O4bSRe-jAJfRC0WtMUY5wmQ8tn4=", "properties": {"ref": "407", "@spider": "jbhifi", "shop": "electronics", "addr:street_address": "Kawana Shopping World, Store 502A, , 119 Point Cartwright Drive", "addr:city": "Buddina", "addr:state": "QLD", "addr:postcode": "4575", "addr:country": "AU", "name": "Kawana - Sunshine Coast", "phone": "07 5457 4200", "opening_hours": "Mo-We 09:00-17:30; Th 09:00-21:00; Fr-Sa 09:00-17:30; Su 10:00-16:30", "brand": "JB Hi-Fi", "brand:wikidata": "Q3310113", "nsi_id": "jbhifi-2d5b11"}, "geometry": {"type": "Point", "coordinates": [153.130356, -26.703019]}},
{"type": "Feature", "id": "6Wfhn5NLtGVMNmCrgyMoOtr6zoU=", "properties": {"ref": "303", "@spider": "jbhifi", "shop": "electronics", "addr:street_address": "Home Quarter Dandenong, 3/55-67 Frankston-Dandenong Road ", "addr:city": "Dandenong South", "addr:state": "VIC", "addr:postcode": "3175", "addr:country": "AU", "name": "Dandenong HOME", "phone": "03 8788 6600", "opening_hours": "Mo-We 09:00-18:00; Th-Fr 09:00-21:00; Sa 09:00-18:00; Su 10:00-17:00", "brand": "JB Hi-Fi", "brand:wikidata": "Q3310113", "nsi_id": "jbhifi-2d5b11"}, "geometry": {"type": "Point", "coordinates": [145.21797, -38.0057737]}},
{"type": "Feature", "id": "WcBv6cQeCiMu98FraLYrV_6RVWU=", "properties": {"ref": "602", "@spider": "jbhifi", "shop": "electronics", "addr:street_address": "1490 Albany Highway", "addr:city": "Cannington", "addr:state": "WA", "addr:postcode": "6107", "addr:country": "AU", "name": "Cannington Home", "phone": "08 6229 4600", "opening_hours": "Mo-We 09:00-18:00; Th 09:00-21:00; Fr 09:00-18:00; Sa 09:00-17:00; Su 11:00-17:00", "brand": "JB Hi-Fi", "brand:wikidata": "Q3310113", "nsi_id": "jbhifi-2d5b11"}, "geometry": {"type": "Point", "coordinates": [115.946416, -32.026316]}},
{"type": "Feature", "id": "5MWq_Zn05oa4uWdM9dpb-CXT770=", "properties": {"ref": "603", "@spider": "jbhifi", "shop": "electronics", "addr:street_address": "501 Scarborough Beach Road", "addr:city": "Osborne Park", "addr:state": "WA", "addr:postcode": "6017", "addr:country": "AU", "name": "Osborne Park HOME", "phone": "08 9244 5300", "opening_hours": "Mo-We 09:00-18:00; Th 09:00-21:00; Fr 09:00-18:00; Sa 09:00-17:00; Su 11:00-17:00", "brand": "JB Hi-Fi", "brand:wikidata": "Q3310113", "nsi_id": "jbhifi-2d5b11"}, "geometry": {"type": "Point", "coordinates": [115.80473, -31.90517]}},
{"type": "Feature", "id": "OMvQL3e_Xd5IGu373sNi08sOqvM=", "properties": {"ref": "501", "@spider": "jbhifi", "shop": "electronics", "addr:street_address": "50 Rundle Mall Plaza", "addr:city": "Adelaide", "addr:state": "SA", "addr:postcode": "5000", "addr:country": "AU", "name": "City - Adelaide", "phone": "08 8225 4100", "opening_hours": "Mo-Th 09:00-18:00; Fr 09:00-21:00; Sa-Su 09:00-17:00", "brand": "JB Hi-Fi", "brand:wikidata": "Q3310113", "nsi_id": "jbhifi-2d5b11"}, "geometry": {"type": "Point", "coordinates": [138.600357, -34.922813]}},
{"type": "Feature", "id": "TuBu6qj5WFBL8MyAmHF3uOGJwXE=", "properties": {"ref": "315", "@spider": "jbhifi", "shop": "electronics", "addr:street_address": "Eastland Shopping Centre, MM01, 1, 171 -175 Maroondah Hwy", "addr:city": "Ringwood", "addr:state": "VIC", "addr:postcode": "3134", "addr:country": "AU", "name": "Ringwood HOME ", "phone": "03 9210 8500", "opening_hours": "Mo-We 09:00-17:30; Th-Fr 09:00-21:00; Sa 09:00-17:00; Su 10:00-17:00", "brand": "JB Hi-Fi", "brand:wikidata": "Q3310113", "nsi_id": "jbhifi-2d5b11"}, "geometry": {"type": "Point", "coordinates": [145.227832, -37.815214]}},
{"type": "Feature", "id": "O3pfVllaPHgL8NFI3TDTcrog8Eo=", "properties": {"ref": "746", "@spider": "jbhifi", "shop": "electronics", "addr:street_address": " L01 H11 PARKMORE SHOPPING CENTRE, 317 CHELTENHAM ROAD", "addr:city": "KEYSBOROUGH", "addr:state": "VIC", "addr:postcode": "3173", "addr:country": "AU", "name": "Parkmore", "phone": "03 9792 6900", "opening_hours": "Mo-We 09:00-17:30; Th-Fr 09:00-21:00; Sa 09:00-17:00; Su 10:00-17:00", "brand": "JB Hi-Fi", "brand:wikidata": "Q3310113", "nsi_id": "jbhifi-2d5b11"}, "geometry": {"type": "Point", "coordinates": [145.173766459168, -37.9932641904492]}},
{"type": "Feature", "id": "yNrfqcLyx873BkQjD5eX2z0w_04=", "properties": {"ref": "745", "@spider": "jbhifi", "shop": "electronics", "addr:street_address": " CNR WESTERN HWY & CHISHOLM DR", "addr:city": "CAROLINE SPRINGS", "addr:state": "VIC", "addr:postcode": "3023", "addr:country": "AU", "name": "Burnside HOME", "phone": "03 7379 1200", "opening_hours": "Mo-We 09:00-18:00; Th-Fr 09:00-21:00; Sa 09:00-18:00; Su 10:00-17:00", "brand": "JB Hi-Fi", "brand:wikidata": "Q3310113", "nsi_id": "jbhifi-2d5b11"}, "geometry": {"type": "Point", "coordinates": [144.749422460711, -37.7587695301884]}},
{"type": "Feature", "id": "XNrWvRZqlseGg0UOWTRZ-Jibuas=", "properties": {"ref": "744", "@spider": "jbhifi", "shop": "electronics", "addr:street_address": "Shop MJ0220 Karrinyup Shopping Centre, 200 Karrinyup Rd", "addr:city": "Karrinyup", "addr:state": "WA", "addr:postcode": "6018", "addr:country": "AU", "name": "Karrinyup", "phone": "08 9333 7400", "opening_hours": "Mo-We 09:00-17:30; Th 09:00-21:00; Fr 09:00-17:30; Sa 09:00-17:00; Su 11:00-17:00", "brand": "JB Hi-Fi", "brand:wikidata": "Q3310113", "nsi_id": "jbhifi-2d5b11"}, "geometry": {"type": "Point", "coordinates": [115.7813422, -31.875705]}},
{"type": "Feature", "id": "NqfUokA0xfGHLwSi_40Wu0y2PQ4=", "properties": {"ref": "743", "@spider": "jbhifi", "shop": "electronics", "addr:street_address": "Victoria Gardens Shopping Centre, Shop SP056, 620 Victoria St", "addr:city": "RICHMOND", "addr:state": "VIC", "addr:postcode": "3121", "addr:country": "AU", "name": "Victoria Gardens", "phone": "03 94272700", "opening_hours": "Mo-We 09:00-17:30; Th-Fr 09:00-21:00; Sa 09:00-17:00; Su 10:00-17:00", "brand": "JB Hi-Fi", "brand:wikidata": "Q3310113", "nsi_id": "jbhifi-2d5b11"}, "geometry": {"type": "Point", "coordinates": [145.01068, -37.81365]}},
{"type": "Feature", "id": "sMf_kRFP5-W9TMjxDh3qWnFNtAU=", "properties": {"ref": "742", "@spider": "jbhifi", "shop": "electronics", "addr:street_address": "1 JAMES SCHOFIELD DRIVE, SHOP 44 ", "addr:city": "ADELAIDE AIRPORT", "addr:state": "SA", "addr:postcode": "5950", "addr:country": "AU", "name": "Adelaide Domestic Airport", "phone": "0460 435 154", "opening_hours": "Mo-Fr 05:00-20:00; Sa 06:00-17:00; Su 06:00-20:00", "brand": "JB Hi-Fi", "brand:wikidata": "Q3310113", "nsi_id": "jbhifi-2d5b11"}, "geometry": {"type": "Point", "coordinates": [138.5332, -34.9462]}},
{"type": "Feature", "id": "TyYBFsq7MAVDwLYyyXTvkM0j8cY=", "properties": {"ref": "741", "@spider": "jbhifi", "shop": "electronics", "addr:street_address": "Shop R16, Terminal 1 (Qantas), Qantas Domestic Airport, Departure Dr", "addr:city": "MELBOURNE AIRPORT", "addr:state": "VIC", "addr:postcode": "3045", "addr:country": "AU", "name": "Melbourne Domestic Airport", "phone": "0428618099", "opening_hours": "Mo-Fr 06:00-18:00; Sa 08:00-17:00; Su 06:00-18:00", "brand": "JB Hi-Fi", "brand:wikidata": "Q3310113", "nsi_id": "jbhifi-2d5b11"}, "geometry": {"type": "Point", "coordinates": [144.851481, -37.668817]}},
{"type": "Feature", "id": "sX4WBLYwnYRMm3lkO4KdFJAreZE=", "properties": {"ref": "740", "@spider": "jbhifi", "shop": "electronics", "addr:street_address": "1230 Logan Road", "addr:city": "Mt Gravatt", "addr:state": "QLD", "addr:postcode": "4122", "addr:country": "AU", "name": "Mt Gravatt HOME - Homemaker Centre Logan Road", "phone": "07 3320 9300", "opening_hours": "Mo-We 09:00-17:30; Th 09:00-21:00; Fr 09:00-17:30; Sa 09:00-17:00; Su 10:00-17:00", "brand": "JB Hi-Fi", "brand:wikidata": "Q3310113", "nsi_id": "jbhifi-2d5b11"}, "geometry": {"type": "Point", "coordinates": [153.072826, -27.529568]}},
{"type": "Feature", "id": "9b0amApiJEEVtG_HTEzeCVj3Vfg=", "properties": {"ref": "739", "@spider": "jbhifi", "shop": "electronics", "addr:street_address": "Southgate Centre, P12 &13, , 3 Southgate Avenue", "addr:city": "Southbank", "addr:state": "VIC", "addr:postcode": "3006", "addr:country": "AU", "name": "Southgate JB Express", "opening_hours": "Mo-Fr 08:00-17:00; Sa 11:00-16:00", "brand": "JB Hi-Fi", "brand:wikidata": "Q3310113", "nsi_id": "jbhifi-2d5b11"}, "geometry": {"type": "Point", "coordinates": [144.96639, -37.820626]}},
{"type": "Feature", "id": "MdpSZ8m3hjr9vGjxXKEnABZZmWE=", "properties": {"ref": "738", "@spider": "jbhifi", "shop": "electronics", "addr:street_address": "Sunshine Plaza, Shop MM503, , 154-164 Horton Parade", "addr:city": "Maroochydore", "addr:state": "QLD", "addr:postcode": "4558", "addr:country": "AU", "name": "Sunshine Plaza", "phone": "07 5376 5800", "opening_hours": "Mo-We 09:00-17:30; Th 09:00-21:00; Fr-Sa 09:00-17:30; Su 10:00-16:30", "brand": "JB Hi-Fi", "brand:wikidata": "Q3310113", "nsi_id": "jbhifi-2d5b11"}, "geometry": {"type": "Point", "coordinates": [153.087126, -26.654729]}},
{"type": "Feature", "id": "f02jXNmLp79ZLQG8vKEi0dIt-yg=", "properties": {"ref": "737", "@spider": "jbhifi", "shop": "electronics", "addr:street_address": "Warriewood Square, Unit SP004, , 12 Jacksons Rd", "addr:city": "Warriewood", "addr:state": "NSW", "addr:postcode": "2102", "addr:country": "AU", "name": "Warriewood", "phone": "02 9847 1900", "opening_hours": "Mo-We 09:00-17:30; Th 09:00-21:00; Fr 09:00-17:30; Sa 09:00-17:00; Su 10:00-16:00", "brand": "JB Hi-Fi", "brand:wikidata": "Q3310113", "nsi_id": "jbhifi-2d5b11"}, "geometry": {"type": "Point", "coordinates": [151.295663, -33.695572]}},
{"type": "Feature", "id": "eAGjC4HupoClWFnC6JNMNupmT6Q=", "properties": {"ref": "736", "@spider": "jbhifi", "shop": "electronics", "addr:street_address": "Virgin & Jetstar Terminals, 2A-218, Terminal 2 , Sydney Domestic Airport", "addr:city": "Mascot", "addr:state": "NSW", "addr:postcode": "2020", "addr:country": "AU", "name": "Sydney Domestic Airport ", "phone": "0484 666 636", "opening_hours": "Mo-Su 06:00-22:00", "brand": "JB Hi-Fi", "brand:wikidata": "Q3310113", "nsi_id": "jbhifi-2d5b11"}, "geometry": {"type": "Point", "coordinates": [151.179231, -33.934342]}},
{"type": "Feature", "id": "JSxynxld_T_j8qssPvVIsvTYdgM=", "properties": {"ref": "734", "@spider": "jbhifi", "shop": "electronics", "addr:street_address": "Midland Shopping Centre, MM004, , 274 Great Eastern Highway", "addr:city": "Midland ", "addr:state": "WA", "addr:postcode": "6056", "addr:country": "AU", "name": "Midland Gate", "phone": "08 9461 2400", "opening_hours": "Mo-We 09:00-18:00; Th 09:00-21:00; Fr 09:00-18:00; Sa 09:00-17:00; Su 11:00-17:00", "brand": "JB Hi-Fi", "brand:wikidata": "Q3310113", "nsi_id": "jbhifi-2d5b11"}, "geometry": {"type": "Point", "coordinates": [116.010135, -31.889788]}},
{"type": "Feature", "id": "sIXVFFH0kgZpFz9CYTBYwE7UM4s=", "properties": {"ref": "733", "@spider": "jbhifi", "shop": "electronics", "addr:street_address": "Westfield Coomera, Shop MM6, , 103-141 Foxwell Road", "addr:city": "Coomera", "addr:state": "QLD", "addr:postcode": "4209", "addr:country": "AU", "name": "Coomera", "phone": "07 5675 1400", "opening_hours": "Mo-We 09:00-17:30; Th 09:00-21:00; Fr 09:00-17:30; Sa 09:00-17:00; Su 10:00-16:00", "brand": "JB Hi-Fi", "brand:wikidata": "Q3310113", "nsi_id": "jbhifi-2d5b11"}, "geometry": {"type": "Point", "coordinates": [153.315296, -27.854297]}},
{"type": "Feature", "id": "Qv2-Dz30caBT5F2Y2yzAA9I1vws=", "properties": {"ref": "732", "@spider": "jbhifi", "shop": "electronics", "addr:street_address": "Stockland Green Hills, M107, , 1 Molly Morgan Drive", "addr:city": "East Maitland", "addr:state": "NSW", "addr:postcode": "2323", "addr:country": "AU", "name": "Green Hills", "phone": "02 4040 8600", "opening_hours": "Mo-We 09:00-17:30; Th 09:00-21:00; Fr 09:00-17:30; Sa 09:00-17:00; Su 10:00-17:00", "brand": "JB Hi-Fi", "brand:wikidata": "Q3310113", "nsi_id": "jbhifi-2d5b11"}, "geometry": {"type": "Point", "coordinates": [151.591456, -32.763425]}},
{"type": "Feature", "id": "DIuv7rC0Tk-fxRNHaxQW7cGr1vk=", "properties": {"ref": "314", "@spider": "jbhifi", "shop": "electronics", "addr:street_address": "282 Chapel Street", "addr:city": "Prahran", "addr:state": "VIC", "addr:postcode": "3181", "addr:country": "AU", "name": "Prahran", "phone": "03 9514 7500", "opening_hours": "Mo-We 09:00-18:00; Th-Fr 09:00-21:00; Sa 09:00-18:00; Su 10:00-17:00", "brand": "JB Hi-Fi", "brand:wikidata": "Q3310113", "nsi_id": "jbhifi-2d5b11"}, "geometry": {"type": "Point", "coordinates": [144.994039, -37.848713]}},
{"type": "Feature", "id": "OzelTgIRciyFoRL8ktM4xSrAlMM=", "properties": {"ref": "729", "@spider": "jbhifi", "shop": "electronics", "addr:street_address": "Australia Fair Shopping Centre, Shop G100, , 42 Marine Parade", "addr:city": "Southport", "addr:state": "QLD", "addr:postcode": "4215", "addr:country": "AU", "name": "Australia Fair", "phone": "07 5617 3200", "opening_hours": "Mo-We 09:00-17:30; Th 09:00-19:00; Fr 09:00-17:30; Sa 09:00-17:00; Su 10:30-16:00", "brand": "JB Hi-Fi", "brand:wikidata": "Q3310113", "nsi_id": "jbhifi-2d5b11"}, "geometry": {"type": "Point", "coordinates": [153.415725, -27.968598]}},
{"type": "Feature", "id": "i_WWyHtT93K1xSDujOzqgnsPYks=", "properties": {"ref": "728", "@spider": "jbhifi", "shop": "electronics", "addr:street_address": "Lake Haven Shopping Centre, Shop 68, , 43 Lake Haven Drive", "addr:city": "Lake Haven", "addr:state": "NSW", "addr:postcode": "2263", "addr:country": "AU", "name": "Lake Haven", "phone": "02 4394 5300", "opening_hours": "Mo-We 09:00-17:30; Th 09:00-21:00; Fr 09:00-17:30; Sa 09:00-17:00; Su 10:00-17:00", "brand": "JB Hi-Fi", "brand:wikidata": "Q3310113", "nsi_id": "jbhifi-2d5b11"}, "geometry": {"type": "Point", "coordinates": [151.5038, -33.240876]}},
{"type": "Feature", "id": "gMsKaHvd1UWbOYq1-qzrpG9nnBQ=", "properties": {"ref": "727", "@spider": "jbhifi", "shop": "electronics", "addr:street_address": "Bathurst City Centre, Unit MM001, , 210 Howick Street", "addr:city": "Bathurst", "addr:state": "NSW", "addr:postcode": "2795", "addr:country": "AU", "name": "Bathurst", "phone": "02 6330 7500", "opening_hours": "Mo-We 09:00-17:30; Th 09:00-21:00; Fr 09:00-17:30; Sa 09:00-17:00; Su 10:00-16:00", "brand": "JB Hi-Fi", "brand:wikidata": "Q3310113", "nsi_id": "jbhifi-2d5b11"}, "geometry": {"type": "Point", "coordinates": [149.581739, -33.418922]}},
{"type": "Feature", "id": "oljy45OaVwnMmb1JCr1n8Pxm5Yc=", "properties": {"ref": "726", "@spider": "jbhifi", "shop": "electronics", "addr:street_address": "330 Pinjarra Road", "addr:city": "Mandurah", "addr:state": "WA", "addr:postcode": "6210", "addr:country": "AU", "name": "Mandurah Forum", "phone": "08 9555 4200", "opening_hours": "Mo-We 09:00-17:30; Th 09:00-21:00; Fr 09:00-17:30; Sa 09:00-17:00; Su 10:00-17:00", "brand": "JB Hi-Fi", "brand:wikidata": "Q3310113", "nsi_id": "jbhifi-2d5b11"}, "geometry": {"type": "Point", "coordinates": [115.741715, -32.536806]}},
{"type": "Feature", "id": "7nRfQk4tr5F4Sbpgd19TyxGyRc8=", "properties": {"ref": "725", "@spider": "jbhifi", "shop": "electronics", "addr:street_address": "149 West Burleigh Road", "addr:city": "Burleigh Heads", "addr:state": "QLD", "addr:postcode": "4220", "addr:country": "AU", "name": "Burleigh Heads", "phone": "07 5508 1000", "opening_hours": "Mo-We 09:00-17:30; Th 09:00-19:00; Fr 09:00-17:30; Sa 09:00-17:00; Su 10:00-16:00", "brand": "JB Hi-Fi", "brand:wikidata": "Q3310113", "nsi_id": "jbhifi-2d5b11"}, "geometry": {"type": "Point", "coordinates": [153.441093, -28.097615]}},
{"type": "Feature", "id": "LLtyqgufeHcHNoWy-JkPirT1-Is=", "properties": {"ref": "724", "@spider": "jbhifi", "shop": "electronics", "addr:street_address": "Narellan Town Centre, Shop MM05, , 326 Camden Valley Way", "addr:city": "Narellan", "addr:state": "NSW", "addr:postcode": "2567", "addr:country": "AU", "name": "Narellan", "phone": "02 4632 6300", "opening_hours": "Mo-We 09:00-17:30; Th 09:00-21:00; Fr 09:00-17:30; Sa 09:00-17:00; Su 10:00-17:00", "brand": "JB Hi-Fi", "brand:wikidata": "Q3310113", "nsi_id": "jbhifi-2d5b11"}, "geometry": {"type": "Point", "coordinates": [150.7357, -34.0417]}},
{"type": "Feature", "id": "86NaS_8Jd669Q2P1lsYO8SNq-M8=", "properties": {"ref": "723", "@spider": "jbhifi", "shop": "electronics", "addr:street_address": "Melbourne Central, Shop 101B, L01, 211 La Trobe Street", "addr:city": "Melbourne", "addr:state": "VIC", "addr:postcode": "3000", "addr:country": "AU", "name": "Melbourne Central", "phone": "03 9906 3500", "opening_hours": "Mo-We 09:00-19:00; Th-Fr 09:00-21:00; Sa 09:00-19:00; Su 10:00-19:00", "brand": "JB Hi-Fi", "brand:wikidata": "Q3310113", "nsi_id": "jbhifi-2d5b11"}, "geometry": {"type": "Point", "coordinates": [144.963134, -37.81083]}},
{"type": "Feature", "id": "yqUDOKyIvrOgAboAu7HVeSMLkxU=", "properties": {"ref": "721", "@spider": "jbhifi", "shop": "electronics", "addr:street_address": "Westfield North Lakes, Ground Floor, 1 North Lakes Drive", "addr:city": "North Lakes", "addr:state": "QLD", "addr:postcode": "4509", "addr:country": "AU", "name": "North Lakes HOME", "phone": "07 3384 2400", "opening_hours": "Mo-We 09:00-17:30; Th 09:00-21:00; Fr-Sa 09:00-17:30; Su 10:00-17:00", "brand": "JB Hi-Fi", "brand:wikidata": "Q3310113", "nsi_id": "jbhifi-2d5b11"}, "geometry": {"type": "Point", "coordinates": [153.016777, -27.241669]}},
{"type": "Feature", "id": "ch6ZqtcNSYH15LPUL0EKUOmiQ_k=", "properties": {"ref": "405", "@spider": "jbhifi", "shop": "electronics", "addr:street_address": "Corner Gympie Road & Mellor Street", "addr:city": "Kedron", "addr:state": "QLD", "addr:postcode": "4031", "addr:country": "AU", "name": "Kedron HOME", "phone": "07 3917 4500", "opening_hours": "Mo-We 09:00-18:00; Th 09:00-21:00; Fr 09:00-18:00; Sa 09:00-17:30; Su 10:00-17:00", "brand": "JB Hi-Fi", "brand:wikidata": "Q3310113", "nsi_id": "jbhifi-2d5b11"}, "geometry": {"type": "Point", "coordinates": [153.031182, -27.395355]}},
{"type": "Feature", "id": "Av61sc3WNrEW1q-YQFG6O9w63zA=", "properties": {"ref": "719", "@spider": "jbhifi", "shop": "electronics", "addr:street_address": "Unit 2, Building 3,  20 Cheltenham Parade", "addr:city": "Woodville", "addr:state": "SA", "addr:postcode": "5011", "addr:country": "AU", "name": "Adelaide Distribution Centre", "phone": "08 8178 4000", "opening_hours": "Mo-Sa 09:00-17:00; Su 11:00-17:00", "brand": "JB Hi-Fi", "brand:wikidata": "Q3310113", "nsi_id": "jbhifi-2d5b11"}, "geometry": {"type": "Point", "coordinates": [138.529438519037, -34.8739610335488]}},
{"type": "Feature", "id": "NdiVZWSeEzlziO1xRheC0KE9LZQ=", "properties": {"ref": "717", "@spider": "jbhifi", "shop": "electronics", "addr:street_address": "Sydney Business Park, Tenancy 6, Home Hub, , 6 Hollinsworth Road", "addr:city": "Marsden Park", "addr:state": "NSW", "addr:postcode": "2765", "addr:country": "AU", "name": "Marsden Park JB Home", "phone": "02 9854 3000", "opening_hours": "Mo-We 09:00-18:00; Th 09:00-21:00; Fr-Sa 09:00-18:00; Su 10:00-17:00", "brand": "JB Hi-Fi", "brand:wikidata": "Q3310113", "nsi_id": "jbhifi-2d5b11"}, "geometry": {"type": "Point", "coordinates": [150.840167, -33.720417]}},
{"type": "Feature", "id": "OA6FLWfrEEx5wNBoiuBEFpIgcDQ=", "properties": {"ref": "716", "@spider": "jbhifi", "shop": "electronics", "addr:street_address": "Orana Mall Market Place, Mitchell Highway", "addr:city": "Dubbo", "addr:state": "NSW", "addr:postcode": "2830", "addr:country": "AU", "name": "Dubbo HOME", "phone": "02 6881 5000", "opening_hours": "Mo-We 09:00-17:30; Th 09:00-20:00; Fr-Sa 09:00-17:30; Su 10:00-16:00", "brand": "JB Hi-Fi", "brand:wikidata": "Q3310113", "nsi_id": "jbhifi-2d5b11"}, "geometry": {"type": "Point", "coordinates": [148.6291473, -32.2558214]}},
{"type": "Feature", "id": "4vRx3suTrindKYjojfOpJtyOH8w=", "properties": {"ref": "715", "@spider": "jbhifi", "shop": "electronics", "addr:street_address": "140-150 Railway Terrace", "addr:city": "Mile End", "addr:state": "SA", "addr:postcode": "5031", "addr:country": "AU", "name": "Mile End HOME", "phone": "08 8219 5100", "opening_hours": "Mo-We 09:00-17:30; Th 09:00-21:00; Fr 09:00-17:30; Sa-Su 09:00-17:00", "brand": "JB Hi-Fi", "brand:wikidata": "Q3310113", "nsi_id": "jbhifi-2d5b11"}, "geometry": {"type": "Point", "coordinates": [138.575681, -34.935093]}},
{"type": "Feature", "id": "ozLv9nl2SqQcLuyeFEBJGPpX2HM=", "properties": {"ref": "714", "@spider": "jbhifi", "shop": "electronics", "addr:street_address": "Gold Coast Airport, Eastern Ave", "addr:city": "Bilinga", "addr:state": "QLD", "addr:postcode": "4225", "addr:country": "AU", "name": "Gold Coast International Airport", "opening_hours": "Mo-Su 05:00-22:00", "brand": "JB Hi-Fi", "brand:wikidata": "Q3310113", "nsi_id": "jbhifi-2d5b11"}, "geometry": {"type": "Point", "coordinates": [153.5081, -28.1658]}},
{"type": "Feature", "id": "vbbHvuayRKjd3d59hk8_YaVLUQM=", "properties": {"ref": "713", "@spider": "jbhifi", "shop": "electronics", "addr:street_address": "Heinemann Tax & Duty Free, , Terminal 1, Sydney International Airport", "addr:city": "Sydney", "addr:state": "NSW", "addr:postcode": "2020", "addr:country": "AU", "name": "Sydney International Airport", "phone": "0447 382 201", "opening_hours": "Mo-Su 05:00-21:00", "brand": "JB Hi-Fi", "brand:wikidata": "Q3310113", "nsi_id": "jbhifi-2d5b11"}, "geometry": {"type": "Point", "coordinates": [151.174032, -33.942896]}},
{"type": "Feature", "id": "FWeNVTge4QJHXyj9Ig3XUoZ1_Ag=", "properties": {"ref": "712", "@spider": "jbhifi", "shop": "electronics", "addr:street_address": "Lindsay Street", "addr:city": "Invermay", "addr:state": "TAS", "addr:postcode": "7250", "addr:country": "AU", "name": "Launceston HOME", "phone": "03 6325 2400", "opening_hours": "Mo-Th 09:00-17:30; Fr 09:00-21:00; Sa 09:00-17:00; Su 10:00-17:00", "brand": "JB Hi-Fi", "brand:wikidata": "Q3310113", "nsi_id": "jbhifi-2d5b11"}, "geometry": {"type": "Point", "coordinates": [147.12894, -41.4307698]}},
{"type": "Feature", "id": "VEiMjRLMxJ9JNc5QVoG1F3UMD4E=", "properties": {"ref": "711", "@spider": "jbhifi", "shop": "electronics", "addr:street_address": "Harbour Town Shopping Mall, Store A37B, , 147-189 Brisbane Road", "addr:city": "Biggera Waters", "addr:state": "QLD", "addr:postcode": "4216", "addr:country": "AU", "name": "Harbour Town", "phone": "07 5558 3100", "opening_hours": "Mo-We 09:00-17:30; Th 09:00-19:00; Fr-Sa 09:00-17:30; Su 10:00-17:00", "brand": "JB Hi-Fi", "brand:wikidata": "Q3310113", "nsi_id": "jbhifi-2d5b11"}, "geometry": {"type": "Point", "coordinates": [153.389069, -27.932501]}},
{"type": "Feature", "id": "tB_c7K8ioPZAZl_JQZlh0MYwA_I=", "properties": {"ref": "710", "@spider": "jbhifi", "shop": "electronics", "addr:street_address": "15-17 Sundew Rise", "addr:city": "Joondalup", "addr:state": "WA", "addr:postcode": "6027", "addr:country": "AU", "name": "Joondalup HOME", "phone": "08 9233 2800", "opening_hours": "Mo-We 09:00-18:00; Th 09:00-21:00; Fr 09:00-18:00; Sa 09:00-17:00; Su 11:00-17:00", "brand": "JB Hi-Fi", "brand:wikidata": "Q3310113", "nsi_id": "jbhifi-2d5b11"}, "geometry": {"type": "Point", "coordinates": [115.77066, -31.75913]}},
{"type": "Feature", "id": "tDSu6OGwdiryWPKO20aUcaFdMpI=", "properties": {"ref": "313", "@spider": "jbhifi", "shop": "electronics", "addr:street_address": "Chadstone Shopping Centre, M011, Lower Level, 1341 Dandenong Road", "addr:city": "Chadstone", "addr:state": "VIC", "addr:postcode": "3148", "addr:country": "AU", "name": "Chadstone Shopping Centre", "phone": "03 9516 4300", "opening_hours": "Mo-We 09:00-18:00; Th-Sa 09:00-21:00; Su 10:00-19:00", "brand": "JB Hi-Fi", "brand:wikidata": "Q3310113", "nsi_id": "jbhifi-2d5b11"}, "geometry": {"type": "Point", "coordinates": [145.082751, -37.885155]}},
{"type": "Feature", "id": "N6GUz59fVSAqDh5l-G6_IQGJGtA=", "properties": {"ref": "709", "@spider": "jbhifi", "shop": "electronics", "addr:street_address": "Westfield Hurstville Shopping Centre, Store MM1, Level 1, 3-23 Park Road", "addr:city": "Hurstville", "addr:state": "NSW", "addr:postcode": "2220", "addr:country": "AU", "name": "Hurstville HOME", "phone": "02 8568 7100", "opening_hours": "Mo-Tu 09:30-19:00; We 09:30-18:00; Th 09:30-21:00; Fr-Sa 09:30-19:00; Su 10:00-19:00", "brand": "JB Hi-Fi", "brand:wikidata": "Q3310113", "nsi_id": "jbhifi-2d5b11"}, "geometry": {"type": "Point", "coordinates": [151.1023711, -33.9651251]}},
{"type": "Feature", "id": "R44l6flqWw1rZSgXIQg3bzCRWoA=", "properties": {"ref": "708", "@spider": "jbhifi", "shop": "electronics", "addr:street_address": "Orion Springfield Central, Store SMM4, Ground Level, 1 Main Street", "addr:city": "Springfield Central", "addr:state": "QLD", "addr:postcode": "4300", "addr:country": "AU", "name": "Orion Springfield HOME", "phone": "07 3437 5800", "opening_hours": "Mo-We 09:00-17:30; Th 09:00-21:00; Fr 09:00-17:30; Sa 09:00-17:00; Su 10:00-17:00", "brand": "JB Hi-Fi", "brand:wikidata": "Q3310113", "nsi_id": "jbhifi-2d5b11"}, "geometry": {"type": "Point", "coordinates": [152.90130264, -27.676873]}},
{"type": "Feature", "id": "YB7VkH8Osq7bdPNA3ZNUloQhPzc=", "properties": {"ref": "706", "@spider": "jbhifi", "shop": "electronics", "addr:street_address": "Belmont Forum Shopping Centre, Store 132, , 227 Belmont Avenue", "addr:city": "Cloverdale", "addr:state": "WA", "addr:postcode": "6105", "addr:country": "AU", "name": "Belmont HOME", "phone": "08 6278 7400", "opening_hours": "Mo-We 09:00-18:00; Th 09:00-21:00; Fr 09:00-18:00; Sa 09:00-17:00; Su 11:00-17:00", "brand": "JB Hi-Fi", "brand:wikidata": "Q3310113", "nsi_id": "jbhifi-2d5b11"}, "geometry": {"type": "Point", "coordinates": [115.935095, -31.966095]}},
{"type": "Feature", "id": "gMkM2MXMXpYdISvNDNv-RPQP_uE=", "properties": {"ref": "705", "@spider": "jbhifi", "shop": "electronics", "addr:street_address": "Cranbourne Park Shopping Centre, Store MM0006, , 123 High Street", "addr:city": "Cranbourne", "addr:state": "VIC", "addr:postcode": "3977", "addr:country": "AU", "name": "Cranbourne Park HOME", "phone": "03 5990 4900", "opening_hours": "Mo-We 09:00-17:30; Th-Fr 09:00-21:00; Sa 09:00-17:00; Su 10:00-17:00", "brand": "JB Hi-Fi", "brand:wikidata": "Q3310113", "nsi_id": "jbhifi-2d5b11"}, "geometry": {"type": "Point", "coordinates": [145.2833141, -38.1099598]}},
{"type": "Feature", "id": "82eQ0-96DCbrzhQsXBXYI4h7Zn0=", "properties": {"ref": "704", "@spider": "jbhifi", "shop": "electronics", "addr:street_address": "22 Tomah Road", "addr:city": "Welshpool", "addr:state": "WA", "addr:postcode": "6106", "addr:country": "AU", "name": "Perth Distribution Centre", "phone": "08 6350 4100", "opening_hours": "Mo-Su 09:00-17:00", "brand": "JB Hi-Fi", "brand:wikidata": "Q3310113", "nsi_id": "jbhifi-2d5b11"}, "geometry": {"type": "Point", "coordinates": [115.976236, -31.988108]}},
{"type": "Feature", "id": "6l4PgKMrmBO1afu6TZbHPme7l4s=", "properties": {"ref": "703", "@spider": "jbhifi", "shop": "electronics", "addr:street_address": "Pakenham Lifestyle Centre, Store BG10, , 825 Princes Highway", "addr:city": "Pakenham", "addr:state": "VIC", "addr:postcode": "3810", "addr:country": "AU", "name": "Pakenham HOME", "phone": "03 5940 6800", "opening_hours": "Mo-We 09:00-18:00; Th 09:00-19:00; Fr 09:00-20:00; Sa 09:00-17:00; Su 10:00-17:00", "brand": "JB Hi-Fi", "brand:wikidata": "Q3310113", "nsi_id": "jbhifi-2d5b11"}, "geometry": {"type": "Point", "coordinates": [145.453471, -38.059917]}},
{"type": "Feature", "id": "S-_JW-4X1VcP4iCn3M3v68Zx5ws=", "properties": {"ref": "702", "@spider": "jbhifi", "shop": "electronics", "addr:street_address": "Wetherill Park Shopping Centre, MM01, , 516-538 Polding Street", "addr:city": "Wetherill Park", "addr:state": "NSW", "addr:postcode": "2164", "addr:country": "AU", "name": "Wetherill Park", "phone": "02 8785 2700", "opening_hours": "Mo-We 09:00-17:30; Th 09:00-21:00; Fr-Sa 09:00-17:30; Su 10:00-16:30", "brand": "JB Hi-Fi", "brand:wikidata": "Q3310113", "nsi_id": "jbhifi-2d5b11"}, "geometry": {"type": "Point", "coordinates": [150.89985, -33.85738]}},
{"type": "Feature", "id": "nz8iH-ZVb0xtxDQcHgNpZIVDlWE=", "properties": {"ref": "701", "@spider": "jbhifi", "shop": "electronics", "addr:street_address": "6 Newton Street", "addr:city": "Broadmeadows", "addr:state": "NSW", "addr:postcode": "2292", "addr:country": "AU", "name": "Newcastle Distribution Centre", "phone": "02 4903 2100", "opening_hours": "Mo-Su 09:00-16:00", "brand": "JB Hi-Fi", "brand:wikidata": "Q3310113", "nsi_id": "jbhifi-2d5b11"}, "geometry": {"type": "Point", "coordinates": [151.725151, -32.924176]}},
{"type": "Feature", "id": "183fvxin9HXRP25aBI_Hs3elsAI=", "properties": {"ref": "302", "@spider": "jbhifi", "shop": "electronics", "addr:street_address": "The Well Shopping Centre, Store 2, Level 2, 793 Burke Road", "addr:city": "Camberwell", "addr:state": "VIC", "addr:postcode": "3124", "addr:country": "AU", "name": "Camberwell", "phone": "03 8808 7200", "opening_hours": "Mo-We 09:00-18:00; Th-Fr 09:00-21:00; Sa 09:00-18:00; Su 10:00-17:00", "brand": "JB Hi-Fi", "brand:wikidata": "Q3310113", "nsi_id": "jbhifi-2d5b11"}, "geometry": {"type": "Point", "coordinates": [145.056934, -37.829194]}},
{"type": "Feature", "id": "BtdxEbaQwykjAa75R3iDBzwUipk=", "properties": {"ref": "197", "@spider": "jbhifi", "shop": "electronics", "addr:street_address": "Pacific Fair Shopping Centre, Store 1614, Ground Level, 2-30 Hooker Boulevard", "addr:city": "Broadbeach", "addr:state": "QLD", "addr:postcode": "4218", "addr:country": "AU", "name": "Pacific Fair HOME", "phone": "07 5595 9200", "opening_hours": "Mo-We 09:00-17:30; Th 09:00-21:00; Fr-Sa 09:00-17:30; Su 10:00-16:00", "brand": "JB Hi-Fi", "brand:wikidata": "Q3310113", "nsi_id": "jbhifi-2d5b11"}, "geometry": {"type": "Point", "coordinates": [153.425351, -28.034885]}},
{"type": "Feature", "id": "togsqa_9z9hJGh5tcc670L8rm9Y=", "properties": {"ref": "196", "@spider": "jbhifi", "shop": "electronics", "addr:street_address": "MILLERS ROAD HOMEMAKER CENTRE, C3, , 300-330 Millers Road", "addr:city": "Altona North", "addr:state": "VIC", "addr:postcode": "3025", "addr:country": "AU", "name": "Altona HOME", "phone": "03 9392 2100", "opening_hours": "Mo-We 09:00-18:00; Th-Fr 09:00-19:00; Sa 09:00-17:00; Su 10:00-17:00", "brand": "JB Hi-Fi", "brand:wikidata": "Q3310113", "nsi_id": "jbhifi-2d5b11"}, "geometry": {"type": "Point", "coordinates": [144.845871, -37.84367]}},
{"type": "Feature", "id": "TxyqEGhPy5TNn6xBR4R_TEMRPfc=", "properties": {"ref": "195", "@spider": "jbhifi", "shop": "electronics", "addr:street_address": "JB Indooroopilly Shopping Centre, MM3, , 322 Moggill Road", "addr:city": "Indooroopilly", "addr:state": "QLD", "addr:postcode": "4068", "addr:country": "AU", "name": "Indooroopilly SC", "phone": "07 3859 0700", "opening_hours": "Mo-We 09:00-17:30; Th 09:00-21:00; Fr 09:00-17:30; Sa 09:00-17:00; Su 10:00-17:00", "brand": "JB Hi-Fi", "brand:wikidata": "Q3310113", "nsi_id": "jbhifi-2d5b11"}, "geometry": {"type": "Point", "coordinates": [152.972794, -27.499399]}},
{"type": "Feature", "id": "NuVXPNBvyImTKCCoWEkMc2Db3xI=", "properties": {"ref": "194", "@spider": "jbhifi", "shop": "electronics", "addr:street_address": "Ocean Keys Shopping Centre, Store T119, , 36 Ocean Keys Boulevard", "addr:city": "Clarkson", "addr:state": "WA", "addr:postcode": "6030", "addr:country": "AU", "name": "Ocean Keys", "phone": "0894071300", "opening_hours": "Mo-We 09:00-18:00; Th 09:00-21:00; Fr 09:00-18:00; Sa 09:00-17:00; Su 11:00-17:00", "brand": "JB Hi-Fi", "brand:wikidata": "Q3310113", "nsi_id": "jbhifi-2d5b11"}, "geometry": {"type": "Point", "coordinates": [115.717684, -31.691071]}},
{"type": "Feature", "id": "d02-eurTkpYqvSd8GdVwlBXz7QM=", "properties": {"ref": "193", "@spider": "jbhifi", "shop": "electronics", "addr:street_address": "Homebush Direct Factory Outlet, Store 2-007, , 3-5 Underwood Road", "addr:city": "Homebush", "addr:state": "NSW", "addr:postcode": "2140", "addr:country": "AU", "name": "Homebush HOME", "phone": "02 8575 8300", "opening_hours": "Mo-We 10:00-18:00; Th 10:00-20:00; Fr-Su 10:00-18:00", "brand": "JB Hi-Fi", "brand:wikidata": "Q3310113", "nsi_id": "jbhifi-2d5b11"}, "geometry": {"type": "Point", "coordinates": [151.076292, -33.856074]}},
{"type": "Feature", "id": "B5tZ0_MsK_oLqSeB8ZNPG5f4HIw=", "properties": {"ref": "192", "@spider": "jbhifi", "shop": "electronics", "addr:street_address": "Castle Towers Shopping Centre, Tenancy MM1201, 6-14 Castle Street", "addr:city": "Castle Hill", "addr:state": "NSW", "addr:postcode": "2154", "addr:country": "AU", "name": "Castle Towers", "phone": "02 8853 0100", "opening_hours": "Mo-We 09:00-18:00; Th 09:00-21:00; Fr-Sa 09:00-18:00; Su 10:00-17:00", "brand": "JB Hi-Fi", "brand:wikidata": "Q3310113", "nsi_id": "jbhifi-2d5b11"}, "geometry": {"type": "Point", "coordinates": [151.006528, -33.730208]}},
{"type": "Feature", "id": "9HU28gQ5m4l99ndxjna8L6K4yAQ=", "properties": {"ref": "191", "@spider": "jbhifi", "shop": "electronics", "addr:street_address": "Roselands Shopping Centre, M202, , 24 Roselands Drive", "addr:city": "Roselands", "addr:state": "NSW", "addr:postcode": "2196", "addr:country": "AU", "name": "Roselands", "phone": "02 9784 3800", "opening_hours": "Mo-We 09:00-17:30; Th 09:00-21:00; Fr-Sa 09:00-17:30; Su 10:00-17:00", "brand": "JB Hi-Fi", "brand:wikidata": "Q3310113", "nsi_id": "jbhifi-2d5b11"}, "geometry": {"type": "Point", "coordinates": [151.06899, -33.934873]}},
{"type": "Feature", "id": "yPFo0-5JGSm_j-O-y5L5K-od4ZY=", "properties": {"ref": "190", "@spider": "jbhifi", "shop": "electronics", "addr:street_address": "Woodgrove Shopping Centre, Store MM05, Ground Floor, 533-555 High Street", "addr:city": "Melton West", "addr:state": "VIC", "addr:postcode": "3337", "addr:country": "AU", "name": "Melton", "phone": "03 9971 1300", "opening_hours": "Mo-We 09:00-17:30; Th-Fr 09:00-21:00; Sa 09:00-17:00; Su 10:00-17:00", "brand": "JB Hi-Fi", "brand:wikidata": "Q3310113", "nsi_id": "jbhifi-2d5b11"}, "geometry": {"type": "Point", "coordinates": [144.563927, -37.686306]}},
{"type": "Feature", "id": "B_yh0jnUDOit112Hgz19O7ttIqQ=", "properties": {"ref": "601", "@spider": "jbhifi", "shop": "electronics", "addr:street_address": "Forrest Chase, Tenancy 22, Level 1, 200 Murray Street", "addr:city": "Perth", "addr:state": "WA", "addr:postcode": "6000", "addr:country": "AU", "name": "Forrest Chase", "phone": "08 6318 4300", "opening_hours": "Mo-Th 09:00-18:00; Fr 09:00-21:00; Sa 09:00-17:00; Su 11:00-17:00", "brand": "JB Hi-Fi", "brand:wikidata": "Q3310113", "nsi_id": "jbhifi-2d5b11"}, "geometry": {"type": "Point", "coordinates": [115.859879, -31.952477]}},
{"type": "Feature", "id": "JRoJAMveo_EDhJvsb0p2rFEgSPA=", "properties": {"ref": "189", "@spider": "jbhifi", "shop": "electronics", "addr:street_address": "Craigieburn Central Shopping Centre, , Store E00-02, 330 Craigieburn Road", "addr:city": "Craigieburn", "addr:state": "VIC", "addr:postcode": "3064", "addr:country": "AU", "name": "Craigieburn", "phone": "03 8358 7100", "opening_hours": "Mo-We 09:00-17:30; Th-Fr 09:00-21:00; Sa 09:00-17:00; Su 10:00-17:00", "brand": "JB Hi-Fi", "brand:wikidata": "Q3310113", "nsi_id": "jbhifi-2d5b11"}, "geometry": {"type": "Point", "coordinates": [144.913223, -37.594912]}},
{"type": "Feature", "id": "2-7wpYxsAaoVRSl31xpboXFObuA=", "properties": {"ref": "188", "@spider": "jbhifi", "shop": "electronics", "addr:street_address": "Tenancy 1, 1 Carmen Street", "addr:city": "Truganina", "addr:state": "VIC", "addr:postcode": "3029", "addr:country": "AU", "name": "Melbourne Distribution Centre", "phone": "03 9554 7400", "opening_hours": "Mo-Su 09:00-17:00", "brand": "JB Hi-Fi", "brand:wikidata": "Q3310113", "nsi_id": "jbhifi-2d5b11"}, "geometry": {"type": "Point", "coordinates": [144.74317, -37.80216]}},
{"type": "Feature", "id": "S9QGgK5C8aqLKD1IVprN39OWawA=", "properties": {"ref": "186", "@spider": "jbhifi", "shop": "electronics", "addr:street_address": "Eastlands Shopping Centre, Store G005, Ground Floor, 26 Bligh Street", "addr:city": "Rosny Park", "addr:state": "TAS", "addr:postcode": "7018", "addr:country": "AU", "name": "Rosny Park", "phone": "03 6282 3000", "opening_hours": "Mo-Th 09:00-17:30; Fr 09:00-20:00; Sa 09:00-17:00; Su 10:00-16:00", "brand": "JB Hi-Fi", "brand:wikidata": "Q3310113", "nsi_id": "jbhifi-2d5b11"}, "geometry": {"type": "Point", "coordinates": [147.368945, -42.866037]}},
{"type": "Feature", "id": "GLPYCrgTqDPz7b_B9M6NmgUPuuA=", "properties": {"ref": "184", "@spider": "jbhifi", "shop": "electronics", "addr:street_address": "Building 6, Lot 23 & 24, Hollisworth Road", "addr:city": "Marsden Park", "addr:state": "NSW", "addr:postcode": "2765", "addr:country": "AU", "name": "Sydney Distribution Centre", "phone": "02 8868 8300", "opening_hours": "Mo-Su 09:00-17:00", "brand": "JB Hi-Fi", "brand:wikidata": "Q3310113", "nsi_id": "jbhifi-2d5b11"}, "geometry": {"type": "Point", "coordinates": [150.833327, -33.724339]}},
{"type": "Feature", "id": "pQj9WTpLYZzruaARZEZ06cE9O4Y=", "properties": {"ref": "183", "@spider": "jbhifi", "shop": "electronics", "addr:street_address": "Barkly Square Shopping Centre, Shop MM1, 90-106 Sydney Road", "addr:city": "Brunswick", "addr:state": "VIC", "addr:postcode": "3056", "addr:country": "AU", "name": "Brunswick", "phone": "03 8388 5700", "opening_hours": "Mo-We 09:00-18:00; Th-Fr 09:00-21:00; Sa 09:00-17:00; Su 10:00-17:00", "brand": "JB Hi-Fi", "brand:wikidata": "Q3310113", "nsi_id": "jbhifi-2d5b11"}, "geometry": {"type": "Point", "coordinates": [144.961025, -37.775596]}},
{"type": "Feature", "id": "FHXYQ_b9W2DhHixq3pJ96idfqH4=", "properties": {"ref": "182", "@spider": "jbhifi", "shop": "electronics", "addr:street_address": "30-44 Ironbark Close", "addr:city": "Berrinba", "addr:state": "QLD", "addr:postcode": "4117", "addr:country": "AU", "name": "Brisbane Distribution Centre", "phone": "07 2803 4600", "opening_hours": "Mo-Su 09:00-17:00", "brand": "JB Hi-Fi", "brand:wikidata": "Q3310113", "nsi_id": "jbhifi-2d5b11"}, "geometry": {"type": "Point", "coordinates": [153.095768, -27.647345]}},
{"type": "Feature", "id": "05v7wH14r5qcHUha2pH7Lrk39EM=", "properties": {"ref": "181", "@spider": "jbhifi", "shop": "electronics", "addr:street_address": "99 Mount Street", "addr:city": "North Sydney", "addr:state": "NSW", "addr:postcode": "2060", "addr:country": "AU", "name": "North Sydney", "phone": "02 8918 6700", "opening_hours": "Mo-We 09:00-18:00; Th 09:00-20:00; Fr 09:00-18:00; Sa 10:00-17:00; Su 11:00-17:00", "brand": "JB Hi-Fi", "brand:wikidata": "Q3310113", "nsi_id": "jbhifi-2d5b11"}, "geometry": {"type": "Point", "coordinates": [151.208589, -33.838928]}},
{"type": "Feature", "id": "3CSgMy1O4sKjvYzS3PfU2T_ka4s=", "properties": {"ref": "180", "@spider": "jbhifi", "shop": "electronics", "addr:street_address": "Chatswood Chase, Store L221, Level 2, 345 Victoria Avenue", "addr:city": "Chatswood", "addr:state": "NSW", "addr:postcode": "2067", "addr:country": "AU", "name": "Chatswood Chase", "phone": "02 8918 7900", "opening_hours": "Mo-We 09:30-18:00; Th 09:30-21:00; Fr 09:30-18:00; Sa 09:00-18:00; Su 10:00-17:00", "brand": "JB Hi-Fi", "brand:wikidata": "Q3310113", "nsi_id": "jbhifi-2d5b11"}, "geometry": {"type": "Point", "coordinates": [151.185522, -33.794841]}},
{"type": "Feature", "id": "plPe-kn4fjtYcMHle6oTzzrMigg=", "properties": {"ref": "403", "@spider": "jbhifi", "shop": "electronics", "addr:street_address": "53-57 Upton Street", "addr:city": "Bundall", "addr:state": "QLD", "addr:postcode": "4217", "addr:country": "AU", "name": "Bundall HOME", "phone": "07 5595 9300", "opening_hours": "Mo-We 09:00-17:30; Th 09:00-18:00; Fr 09:00-17:30; Sa 09:00-17:00; Su 10:00-16:00", "brand": "JB Hi-Fi", "brand:wikidata": "Q3310113", "nsi_id": "jbhifi-2d5b11"}, "geometry": {"type": "Point", "coordinates": [153.410824, -28.00577]}},
{"type": "Feature", "id": "qbZTaYqXnHwvty5IImLJe4FEAHI=", "properties": {"ref": "179", "@spider": "jbhifi", "shop": "electronics", "addr:street_address": "Centrepoint Tamworth, Store 18, Ground Level, 374 Peel St", "addr:city": "Tamworth", "addr:state": "NSW", "addr:postcode": "2340", "addr:country": "AU", "name": "Tamworth", "phone": "02 5776 5300", "opening_hours": "Mo-We 09:00-17:30; Th 09:00-19:30; Fr 09:00-17:30; Sa 09:00-17:00; Su 10:00-16:00", "brand": "JB Hi-Fi", "brand:wikidata": "Q3310113", "nsi_id": "jbhifi-2d5b11"}, "geometry": {"type": "Point", "coordinates": [150.930613, -31.090943]}},
{"type": "Feature", "id": "yUgks9Jl8VCaroY8JRuSP136AxA=", "properties": {"ref": "178", "@spider": "jbhifi", "shop": "electronics", "addr:street_address": "The Broadway Shopping Centre, Store 207, Level 2, 1 Bay Street", "addr:city": "Broadway", "addr:state": "NSW", "addr:postcode": "2007", "addr:country": "AU", "name": "Broadway", "phone": "02 9212 8500", "opening_hours": "Mo-We 09:30-19:00; Th 09:30-21:00; Fr 09:30-19:00; Sa 09:00-18:30; Su 10:00-18:30", "brand": "JB Hi-Fi", "brand:wikidata": "Q3310113", "nsi_id": "jbhifi-2d5b11"}, "geometry": {"type": "Point", "coordinates": [151.194448, -33.88367]}},
{"type": "Feature", "id": "4WrKigAcbu44wI2qZ1nSxeb0B6c=", "properties": {"ref": "177", "@spider": "jbhifi", "shop": "electronics", "addr:street_address": "South.Point Tuggeranong, Store MM0003A, Lower Level, 210 Anketell Street", "addr:city": "Tuggeranong", "addr:state": "ACT", "addr:postcode": "2900", "addr:country": "AU", "name": "Tuggeranong HOME", "phone": "02 6121 4000", "opening_hours": "Mo-Th 09:00-17:30; Fr 09:00-21:00; Sa 09:00-17:00; Su 10:00-17:00", "brand": "JB Hi-Fi", "brand:wikidata": "Q3310113", "nsi_id": "jbhifi-2d5b11"}, "geometry": {"type": "Point", "coordinates": [149.066534, -35.414586]}},
{"type": "Feature", "id": "9luCph2LCuhtJ2nwHqib3geuF_g=", "properties": {"ref": "176", "@spider": "jbhifi", "shop": "electronics", "addr:street_address": "Park Beach Plaza, Store 85, , 253 Pacific Highway", "addr:city": "Coffs Harbour", "addr:state": "NSW", "addr:postcode": "2450", "addr:country": "AU", "name": "Coffs Harbour", "phone": "02 6691 6000", "opening_hours": "Mo-We 09:00-17:30; Th 09:00-19:30; Fr 09:00-17:30; Sa 09:00-17:00; Su 10:00-16:00", "brand": "JB Hi-Fi", "brand:wikidata": "Q3310113", "nsi_id": "jbhifi-2d5b11"}, "geometry": {"type": "Point", "coordinates": [153.131529, -30.282744]}},
{"type": "Feature", "id": "pTuHXUGRZRJJqN7yVeDLEfYCVvc=", "properties": {"ref": "175", "@spider": "jbhifi", "shop": "electronics", "addr:street_address": "798 Vanderlin Drive", "addr:city": "Berrimah", "addr:state": "NT", "addr:postcode": "0828", "addr:country": "AU", "name": "Berrimah HOME", "phone": "08 8995 6700", "opening_hours": "Mo-We 09:00-18:00; Th-Fr 09:00-19:00; Sa 09:00-17:00; Su 10:00-16:00", "brand": "JB Hi-Fi", "brand:wikidata": "Q3310113", "nsi_id": "jbhifi-2d5b11"}, "geometry": {"type": "Point", "coordinates": [130.923331, -12.431747]}},
{"type": "Feature", "id": "CxWrOjr0WgHJCbwqqiOjAjsYfhE=", "properties": {"ref": "174", "@spider": "jbhifi", "shop": "electronics", "addr:street_address": "Centro The Glen, M102, Lower Level, 235 Springvale Road", "addr:city": "Glen Waverley", "addr:state": "VIC", "addr:postcode": "3150", "addr:country": "AU", "name": "The Glen", "phone": "03 9894 9100", "opening_hours": "Mo-We 09:00-17:30; Th-Fr 09:00-21:00; Sa 09:00-17:00; Su 10:00-17:00", "brand": "JB Hi-Fi", "brand:wikidata": "Q3310113", "nsi_id": "jbhifi-2d5b11"}, "geometry": {"type": "Point", "coordinates": [145.165999, -37.87709]}},
{"type": "Feature", "id": "7582Cns_rn16P4b9AIfa3c_ZPq4=", "properties": {"ref": "173", "@spider": "jbhifi", "shop": "electronics", "addr:street_address": "Westfield Fountain Gate Shopping Centre, Store 2069-2070, , 352 Princes Highway", "addr:city": "Fountain Gate", "addr:state": "VIC", "addr:postcode": "3805", "addr:country": "AU", "name": "Fountain Gate", "phone": "03 8782 3600", "opening_hours": "Mo-We 09:00-17:30; Th-Fr 09:00-21:00; Sa 09:00-17:00; Su 10:00-17:00", "brand": "JB Hi-Fi", "brand:wikidata": "Q3310113", "nsi_id": "jbhifi-2d5b11"}, "geometry": {"type": "Point", "coordinates": [145.304325, -38.017276]}},
{"type": "Feature", "id": "5BlsRpHGAFm2mj0nFoXvU_gk-Hg=", "properties": {"ref": "172", "@spider": "jbhifi", "shop": "electronics", "addr:street_address": "2118 Ipswich Road", "addr:city": "Oxley", "addr:state": "QLD", "addr:postcode": "4075", "addr:country": "AU", "name": "Oxley HOME", "phone": "07 3725 2400", "opening_hours": "Mo-We 09:00-17:30; Th 09:00-21:00; Fr 09:00-17:30; Sa 09:00-17:00; Su 10:00-17:00", "brand": "JB Hi-Fi", "brand:wikidata": "Q3310113", "nsi_id": "jbhifi-2d5b11"}, "geometry": {"type": "Point", "coordinates": [152.98264, -27.566303]}},
{"type": "Feature", "id": "lYn__w0E6ZQVgbolgL7pcH0IUvo=", "properties": {"ref": "171", "@spider": "jbhifi", "shop": "electronics", "addr:street_address": "Sugarland Shoppingtown, Store 307B, , 115-119 Takalvan Street", "addr:city": "Bundaberg", "addr:state": "QLD", "addr:postcode": "4670", "addr:country": "AU", "name": "Bundaberg", "phone": "07 4158 9800", "opening_hours": "Mo-We 09:00-17:30; Th 09:00-21:00; Fr 09:00-17:30; Sa 09:00-17:00; Su 10:00-16:00", "brand": "JB Hi-Fi", "brand:wikidata": "Q3310113", "nsi_id": "jbhifi-2d5b11"}, "geometry": {"type": "Point", "coordinates": [152.318472, -24.887237]}},
{"type": "Feature", "id": "6kXCJSH7HTRgFV-A2r_Mjihnae4=", "properties": {"ref": "170", "@spider": "jbhifi", "shop": "electronics", "addr:street_address": "Armadale Shopping City, Shop MM02, Level 1, Jull Street", "addr:city": "Armadale", "addr:state": "WA", "addr:postcode": "6112", "addr:country": "AU", "name": "Armadale", "phone": "08 9391 7800", "opening_hours": "Mo-We 09:00-17:30; Th 09:00-21:00; Fr 09:00-17:30; Sa 09:00-17:00; Su 11:00-17:00", "brand": "JB Hi-Fi", "brand:wikidata": "Q3310113", "nsi_id": "jbhifi-2d5b11"}, "geometry": {"type": "Point", "coordinates": [116.015077, -32.15289]}},
{"type": "Feature", "id": "iSWm3_4QhEreyPhLcZQClGyQtwk=", "properties": {"ref": "312", "@spider": "jbhifi", "shop": "electronics", "addr:street_address": "32 McMahons Road", "addr:city": "Frankston", "addr:state": "VIC", "addr:postcode": "3199", "addr:country": "AU", "name": "Frankston HOME", "phone": "03 8781 8100", "opening_hours": "Mo-We 09:00-18:00; Th-Fr 09:00-21:00; Sa 09:00-17:00; Su 10:00-17:00", "brand": "JB Hi-Fi", "brand:wikidata": "Q3310113", "nsi_id": "jbhifi-2d5b11"}, "geometry": {"type": "Point", "coordinates": [145.135531, -38.148193]}},
{"type": "Feature", "id": "dme-Rj2AdKfHpu2hs1cFeTPOEvE=", "properties": {"ref": "169", "@spider": "jbhifi", "shop": "electronics", "addr:street_address": "Corner Short & Hayward Streets", "addr:city": "Port Macquarie", "addr:state": "NSW", "addr:postcode": "2444", "addr:country": "AU", "name": "Port Macquarie", "phone": "02 5525 2600", "opening_hours": "Mo-We 09:00-17:30; Th 09:00-19:30; Fr 09:00-17:30; Sa 09:00-17:00; Su 10:00-16:00", "brand": "JB Hi-Fi", "brand:wikidata": "Q3310113", "nsi_id": "jbhifi-2d5b11"}, "geometry": {"type": "Point", "coordinates": [152.907157, -31.433314]}},
{"type": "Feature", "id": "ubThT_snHhkt-3DPk9JRJkGNMUY=", "properties": {"ref": "168", "@spider": "jbhifi", "shop": "electronics", "addr:street_address": "Stockland Hervey Bay Shopping Centre, Central Avenue", "addr:city": "Urraween", "addr:state": "QLD", "addr:postcode": "4655", "addr:country": "AU", "name": "Hervey Bay", "phone": "07 4197 3200", "opening_hours": "Mo-We 09:00-17:30; Th 09:00-21:00; Fr 09:00-17:30; Sa 09:00-17:00; Su 10:00-16:00", "brand": "JB Hi-Fi", "brand:wikidata": "Q3310113", "nsi_id": "jbhifi-2d5b11"}, "geometry": {"type": "Point", "coordinates": [152.834989, -25.289738]}},
{"type": "Feature", "id": "FdLpS6iTDP4BQ4fjGcgrgLLVgjs=", "properties": {"ref": "167", "@spider": "jbhifi", "shop": "electronics", "addr:street_address": "Chrinside Park Homemaker Centre, Store 7, , 272-282 Maroondah Highway", "addr:city": "Chirnside Park", "addr:state": "VIC", "addr:postcode": "3116", "addr:country": "AU", "name": "Chirnside Park HOME", "phone": "03 9753 7100", "opening_hours": "Mo-We 09:00-18:00; Th-Fr 09:00-21:00; Sa 09:00-17:00; Su 10:00-17:00", "brand": "JB Hi-Fi", "brand:wikidata": "Q3310113", "nsi_id": "jbhifi-2d5b11"}, "geometry": {"type": "Point", "coordinates": [145.303717, -37.766576]}},
{"type": "Feature", "id": "gdfcA6FyI8ik4sdcC_rR479WpkM=", "properties": {"ref": "166", "@spider": "jbhifi", "shop": "electronics", "addr:street_address": "Stockland Shellharbour, Store 2025-2027, , Lake Entrance Road", "addr:city": "Shellharbour", "addr:state": "NSW", "addr:postcode": "2529", "addr:country": "AU", "name": "Shellharbour HOME", "phone": "02 4260 4500", "opening_hours": "Mo-We 09:00-17:30; Th 09:00-21:00; Fr 09:00-17:30; Sa 09:00-17:00; Su 10:00-17:00", "brand": "JB Hi-Fi", "brand:wikidata": "Q3310113", "nsi_id": "jbhifi-2d5b11"}, "geometry": {"type": "Point", "coordinates": [150.841041, -34.562379]}},
{"type": "Feature", "id": "_Hao9TVKvNdtx6tHUb1VKDLkmMo=", "properties": {"ref": "165", "@spider": "jbhifi", "shop": "electronics", "addr:street_address": "Geelong Homemaker Centre, Store 1, , 236-261 Colac Road", "addr:city": "Waurn Ponds", "addr:state": "VIC", "addr:postcode": "3216", "addr:country": "AU", "name": "Waurn Ponds", "phone": "03 5224 5000", "opening_hours": "Mo-Th 09:00-18:00; Fr 09:00-19:00; Sa 09:00-17:00; Su 10:00-17:00", "brand": "JB Hi-Fi", "brand:wikidata": "Q3310113", "nsi_id": "jbhifi-2d5b11"}, "geometry": {"type": "Point", "coordinates": [144.306719, -38.202355]}},
{"type": "Feature", "id": "Gd_k8tvBL_nDyEFODHLaJJv3AMI=", "properties": {"ref": "164", "@spider": "jbhifi", "shop": "electronics", "addr:street_address": "Westfield Mt Gravatt, Store 1107, Level 1, Corner Logan & Kessels Road", "addr:city": "Mt Gravatt", "addr:state": "QLD", "addr:postcode": "4122", "addr:country": "AU", "name": "Mt Gravatt - Westfield", "phone": "07 3552 2100", "opening_hours": "Mo-We 09:00-17:30; Th 09:00-21:00; Fr 09:00-17:30; Sa 09:00-17:00; Su 10:00-17:00", "brand": "JB Hi-Fi", "brand:wikidata": "Q3310113", "nsi_id": "jbhifi-2d5b11"}, "geometry": {"type": "Point", "coordinates": [153.081129, -27.559989]}},
{"type": "Feature", "id": "acph1aV1jIspZcGk0XoCmxRVioI=", "properties": {"ref": "163", "@spider": "jbhifi", "shop": "electronics", "addr:street_address": "Springvale Homemaker Centre, Store 29, Level 1, 917 Princes Highway", "addr:city": "Springvale", "addr:state": "VIC", "addr:postcode": "3171", "addr:country": "AU", "name": "Springvale", "phone": "03 8546 6100", "opening_hours": "Mo-We 10:00-18:00; Th-Fr 10:00-21:00; Sa-Su 10:00-18:00", "brand": "JB Hi-Fi", "brand:wikidata": "Q3310113", "nsi_id": "jbhifi-2d5b11"}, "geometry": {"type": "Point", "coordinates": [145.143848, -37.927454]}},
{"type": "Feature", "id": "Fs1FUYZcWCwH6_VPLdVXv9y6rM4=", "properties": {"ref": "162", "@spider": "jbhifi", "shop": "electronics", "addr:street_address": "Caneland Shopping Centre, Store T2543, , Corner Mangrove Road & Victoria Street", "addr:city": "Mackay", "addr:state": "QLD", "addr:postcode": "4740", "addr:country": "AU", "name": "Mackay", "phone": "07 4967 1900", "opening_hours": "Mo-We 09:00-17:30; Th 09:00-21:00; Fr 09:00-17:30; Sa 09:00-17:00; Su 10:00-16:00", "brand": "JB Hi-Fi", "brand:wikidata": "Q3310113", "nsi_id": "jbhifi-2d5b11"}, "geometry": {"type": "Point", "coordinates": [149.187207, -21.141416]}},
{"type": "Feature", "id": "kjtA54LBVesCjFl3xLc-zYi1CQU=", "properties": {"ref": "161", "@spider": "jbhifi", "shop": "electronics", "addr:street_address": "Thomastown Homemaker Centre, Cnr Dalton and Settlement Rds", "addr:city": "Thomastown", "addr:state": "VIC", "addr:postcode": "3074", "addr:country": "AU", "name": "Thomastown", "phone": "03 9403 7000", "opening_hours": "Mo-We 09:00-18:00; Th-Fr 09:00-21:00; Sa 09:00-17:00; Su 10:00-17:00", "brand": "JB Hi-Fi", "brand:wikidata": "Q3310113", "nsi_id": "jbhifi-2d5b11"}, "geometry": {"type": "Point", "coordinates": [145.026655, -37.688949]}},
{"type": "Feature", "id": "euBTXswla95TTGOUnF-8Vhgr2xI=", "properties": {"ref": "160", "@spider": "jbhifi", "shop": "electronics", "addr:street_address": "Centro Bankstown Shopping Centre, Store MM002, Level 2, 12/41 North Terrace", "addr:city": "Bankstown", "addr:state": "NSW", "addr:postcode": "2200", "addr:country": "AU", "name": "Bankstown HOME", "phone": "02 8709 4500", "opening_hours": "Mo-We 09:00-17:30; Th 09:00-21:00; Fr 09:00-17:30; Sa 09:00-17:00; Su 10:00-17:00", "brand": "JB Hi-Fi", "brand:wikidata": "Q3310113", "nsi_id": "jbhifi-2d5b11"}, "geometry": {"type": "Point", "coordinates": [151.039373590954, -33.9153100701262]}},
{"type": "Feature", "id": "Wor8FabRApVwyDb7VG-7Hw9rjMU=", "properties": {"ref": "203", "@spider": "jbhifi", "shop": "electronics", "addr:street_address": "Westfield Woden Shopping Centre, Store LG20B, Lower Ground 2 Level, 222 Keltie Street", "addr:city": "Phillip", "addr:state": "ACT", "addr:postcode": "2606", "addr:country": "AU", "name": "Woden - Westfield", "phone": "02 6132 4700", "opening_hours": "Mo-Th 09:00-17:30; Fr 09:00-21:00; Sa 09:00-17:00; Su 10:00-17:00", "brand": "JB Hi-Fi", "brand:wikidata": "Q3310113", "nsi_id": "jbhifi-2d5b11"}, "geometry": {"type": "Point", "coordinates": [149.085562, -35.346924]}},
{"type": "Feature", "id": "0XM3Nj7Mci9FvLINJD1LIIX1w1s=", "properties": {"ref": "159", "@spider": "jbhifi", "shop": "electronics", "addr:street_address": "63-65 Hotham Street", "addr:city": "Traralgon", "addr:state": "VIC", "addr:postcode": "3844", "addr:country": "AU", "name": "Traralgon", "phone": "03 5172 3400", "opening_hours": "Mo-Fr 09:00-18:00; Sa 09:00-17:00; Su 10:00-17:00", "brand": "JB Hi-Fi", "brand:wikidata": "Q3310113", "nsi_id": "jbhifi-2d5b11"}, "geometry": {"type": "Point", "coordinates": [146.536966, -38.197687]}},
{"type": "Feature", "id": "oMOMWR7_cvxVXjE-7lmxRCq5wvg=", "properties": {"ref": "158", "@spider": "jbhifi", "shop": "electronics", "addr:street_address": "Penrith Homemaker Centre, Store 28, , Corner Mulgoa Road & Wolseley Street", "addr:city": "Jamisontown", "addr:state": "NSW", "addr:postcode": "2750", "addr:country": "AU", "name": "Jamisontown", "phone": "02 4723 3200", "opening_hours": "Mo-We 09:00-17:30; Th 09:00-21:00; Fr-Sa 09:00-17:30; Su 10:00-17:00", "brand": "JB Hi-Fi", "brand:wikidata": "Q3310113", "nsi_id": "jbhifi-2d5b11"}, "geometry": {"type": "Point", "coordinates": [150.67101, -33.770229]}},
{"type": "Feature", "id": "pZGOOG7CA0kJlxRuMLxczWgj2cQ=", "properties": {"ref": "157", "@spider": "jbhifi", "shop": "electronics", "addr:street_address": "Caringbah Homemaker Centre, Store L13/14, , 220 Taren Point Rd", "addr:city": "Caringbah", "addr:state": "NSW", "addr:postcode": "2229", "addr:country": "AU", "name": "Caringbah", "phone": "02 8522 8000", "opening_hours": "Mo-We 09:00-17:30; Th 09:00-21:00; Fr-Sa 09:00-17:30; Su 10:00-17:00", "brand": "JB Hi-Fi", "brand:wikidata": "Q3310113", "nsi_id": "jbhifi-2d5b11"}, "geometry": {"type": "Point", "coordinates": [151.12002, -34.029292]}},
{"type": "Feature", "id": "kKP_9H0XX8ewHk_tAdvYvuWdjpM=", "properties": {"ref": "156", "@spider": "jbhifi", "shop": "electronics", "addr:street_address": "283 Old Geelong Road", "addr:city": "Hoppers Crossing", "addr:state": "VIC", "addr:postcode": "3029", "addr:country": "AU", "name": "Hoppers Crossing", "phone": "03 8754 4200", "opening_hours": "Mo-We 10:00-18:00; Th 10:00-19:00; Fr 10:00-18:00; Sa 09:00-18:00; Su 10:00-18:00", "brand": "JB Hi-Fi", "brand:wikidata": "Q3310113", "nsi_id": "jbhifi-2d5b11"}, "geometry": {"type": "Point", "coordinates": [144.718453, -37.874734]}},
{"type": "Feature", "id": "HMr6pQ0BSiGKJR1Y0cwIzYaU-ZY=", "properties": {"ref": "155", "@spider": "jbhifi", "shop": "electronics", "addr:street_address": "Greensborough Plaza, , Level 2, 25 Main Street", "addr:city": "Greensborough", "addr:state": "VIC", "addr:postcode": "3088", "addr:country": "AU", "name": "Greensborough HOME", "phone": "03 8405 4200", "opening_hours": "Mo-We 09:00-17:30; Th-Fr 09:00-21:00; Sa 09:00-17:00; Su 10:00-17:00", "brand": "JB Hi-Fi", "brand:wikidata": "Q3310113", "nsi_id": "jbhifi-2d5b11"}, "geometry": {"type": "Point", "coordinates": [145.102788, -37.702511]}},
{"type": "Feature", "id": "k-0BKymNYOEJyctIqEC1FPaGUdU=", "properties": {"ref": "154", "@spider": "jbhifi", "shop": "electronics", "addr:street_address": "Westfield Airport West Shopping Centre, Store MM1, Level 1, 29-35 Louis Street", "addr:city": "Airport West", "addr:state": "VIC", "addr:postcode": "3042", "addr:country": "AU", "name": "Airport West", "phone": "03 8340 7800", "opening_hours": "Mo-We 09:00-17:30; Th-Fr 09:00-21:00; Sa 09:00-17:00; Su 10:00-17:00", "brand": "JB Hi-Fi", "brand:wikidata": "Q3310113", "nsi_id": "jbhifi-2d5b11"}, "geometry": {"type": "Point", "coordinates": [144.88688, -37.713532]}},
{"type": "Feature", "id": "u6BvCSKWNYU6BEGDsj_vI04vV7A=", "properties": {"ref": "153", "@spider": "jbhifi", "shop": "electronics", "addr:street_address": "UNIT MM01, LEVEL 1, Bayside Shopping Centre, 23 BEACH STREET", "addr:city": "Frankston", "addr:state": "VIC", "addr:postcode": "3199", "addr:country": "AU", "name": "Frankston - Bayside", "phone": "03 8773 2400", "opening_hours": "Mo-We 09:00-17:30; Th-Fr 09:00-21:00; Sa 09:00-17:00; Su 10:00-17:00", "brand": "JB Hi-Fi", "brand:wikidata": "Q3310113", "nsi_id": "jbhifi-2d5b11"}, "geometry": {"type": "Point", "coordinates": [145.125056, -38.140911]}},
{"type": "Feature", "id": "51PP8vZBeFJr72Ddny4sTMCHAuY=", "properties": {"ref": "152", "@spider": "jbhifi", "shop": "electronics", "addr:street_address": "Mildura Central Shopping Centre, Store MM4, , Corner 15th Street & Deakin Avenue", "addr:city": "Mildura", "addr:state": "VIC", "addr:postcode": "3500", "addr:country": "AU", "name": "Mildura", "phone": "03 5055 4300", "opening_hours": "Mo-Th 09:00-17:30; Fr 09:00-21:00; Sa 09:00-17:00; Su 10:00-17:00", "brand": "JB Hi-Fi", "brand:wikidata": "Q3310113", "nsi_id": "jbhifi-2d5b11"}, "geometry": {"type": "Point", "coordinates": [142.13886, -34.20489]}},
{"type": "Feature", "id": "3v8bsjW2W8ZXMgoXfTEJ5ktLdPg=", "properties": {"ref": "151", "@spider": "jbhifi", "shop": "electronics", "addr:street_address": "Stockland Merrylands, Store M202, Level 2, McFarlane Street", "addr:city": "Merrylands", "addr:state": "NSW", "addr:postcode": "2160", "addr:country": "AU", "name": "Merrylands", "phone": "02 8841 4700", "opening_hours": "Mo-We 09:00-17:30; Th 09:00-21:00; Fr-Sa 09:00-17:30; Su 10:00-16:30", "brand": "JB Hi-Fi", "brand:wikidata": "Q3310113", "nsi_id": "jbhifi-2d5b11"}, "geometry": {"type": "Point", "coordinates": [150.989485, -33.834276]}},
{"type": "Feature", "id": "KEgdrY961Hsz1pz5J1Y7iH3thCI=", "properties": {"ref": "150", "@spider": "jbhifi", "shop": "electronics", "addr:street_address": "Westfield Sydney Shopping Centre, Store 6010, Level 6, Corner Pitt & Market Streets", "addr:city": "Sydney", "addr:state": "NSW", "addr:postcode": "2000", "addr:country": "AU", "name": "City - Westfield Sydney", "phone": "02 9928 7000", "opening_hours": "Mo-We 09:30-19:00; Th 09:30-21:00; Fr-Sa 09:30-19:00; Su 10:00-19:00", "brand": "JB Hi-Fi", "brand:wikidata": "Q3310113", "nsi_id": "jbhifi-2d5b11"}, "geometry": {"type": "Point", "coordinates": [151.208401, -33.869667]}},
{"type": "Feature", "id": "90pMkXQuCIUpH1DHfD200sgSgXM=", "properties": {"ref": "402", "@spider": "jbhifi", "shop": "electronics", "addr:street_address": "54 Redland Bay Road", "addr:city": "Capalaba", "addr:state": "QLD", "addr:postcode": "4157", "addr:country": "AU", "name": "Capalaba", "phone": "07 3259 7900", "opening_hours": "Mo-We 09:00-17:30; Th 09:00-21:00; Fr 09:00-17:30; Sa 09:00-17:00; Su 10:00-17:00", "brand": "JB Hi-Fi", "brand:wikidata": "Q3310113", "nsi_id": "jbhifi-2d5b11"}, "geometry": {"type": "Point", "coordinates": [153.193252, -27.524963]}},
{"type": "Feature", "id": "tBwns06ZR0k3sNJe17nkp--B1a4=", "properties": {"ref": "149", "@spider": "jbhifi", "shop": "electronics", "addr:street_address": "Munno Para Homemaker Centre, Store E3, , Main North Road", "addr:city": "Smithfield", "addr:state": "SA", "addr:postcode": "5114", "addr:country": "AU", "name": "Munno Para", "phone": "08 8256 7000", "opening_hours": "Mo-We 09:00-17:30; Th 09:00-21:00; Fr 09:00-17:30; Sa-Su 09:00-17:00", "brand": "JB Hi-Fi", "brand:wikidata": "Q3310113", "nsi_id": "jbhifi-2d5b11"}, "geometry": {"type": "Point", "coordinates": [138.689121, -34.68841]}},
{"type": "Feature", "id": "7nbNA6BL97VCVWyy0DOJSBRKy9Q=", "properties": {"ref": "148", "@spider": "jbhifi", "shop": "electronics", "addr:street_address": "Garden City Shopping Centre, Store 500, , 125 Riseley Street", "addr:city": "Booragoon", "addr:state": "WA", "addr:postcode": "6154", "addr:country": "AU", "name": "Booragoon", "phone": "08 6217 3100", "opening_hours": "Mo-We 09:00-17:30; Th 09:00-21:00; Fr 09:00-17:30; Sa 09:00-17:00; Su 11:00-17:00", "brand": "JB Hi-Fi", "brand:wikidata": "Q3310113", "nsi_id": "jbhifi-2d5b11"}, "geometry": {"type": "Point", "coordinates": [115.837058, -32.034947]}},
{"type": "Feature", "id": "Nu-JXNnXdMIj69PYqm8MrIUMAF4=", "properties": {"ref": "147", "@spider": "jbhifi", "shop": "electronics", "addr:street_address": "Forest Hill Chase Shopping Centre, Store 225, Level 2, 270 Canterbury Road", "addr:city": "Forest Hill", "addr:state": "VIC", "addr:postcode": "3131", "addr:country": "AU", "name": "Forest Hill", "phone": "03 9814 8300", "opening_hours": "Mo-We 09:00-17:30; Th-Fr 09:00-21:00; Sa 09:00-17:00; Su 10:00-17:00", "brand": "JB Hi-Fi", "brand:wikidata": "Q3310113", "nsi_id": "jbhifi-2d5b11"}, "geometry": {"type": "Point", "coordinates": [145.164585, -37.833988]}},
{"type": "Feature", "id": "-WWn76a91DOCxBWJh9jBMIZ-r7s=", "properties": {"ref": "146", "@spider": "jbhifi", "shop": "electronics", "addr:street_address": "Sunshine Homemaker Centre, Store 8, , 100 Maroochydore Road", "addr:city": "Maroochydore", "addr:state": "QLD", "addr:postcode": "4558", "addr:country": "AU", "name": "Maroochydore HOME", "phone": "07 5373 3000", "opening_hours": "Mo-We 09:00-17:30; Th 09:00-19:00; Fr-Sa 09:00-17:30; Su 10:00-16:30", "brand": "JB Hi-Fi", "brand:wikidata": "Q3310113", "nsi_id": "jbhifi-2d5b11"}, "geometry": {"type": "Point", "coordinates": [153.078103, -26.653114]}},
{"type": "Feature", "id": "uVnaRsN5u7uaDfA0G16-CmYRWns=", "properties": {"ref": "145", "@spider": "jbhifi", "shop": "electronics", "addr:street_address": "Chadstone Homemaker Centre, 3B/695 Warrigal Road", "addr:city": "Chadstone", "addr:state": "VIC", "addr:postcode": "3148", "addr:country": "AU", "name": "Chadstone Home Superstore", "phone": "03 9516 4700", "opening_hours": "Mo-We 09:00-18:00; Th-Fr 09:00-21:00; Sa 09:00-18:00; Su 10:00-17:00", "brand": "JB Hi-Fi", "brand:wikidata": "Q3310113", "nsi_id": "jbhifi-2d5b11"}, "geometry": {"type": "Point", "coordinates": [145.090949, -37.879202]}},
{"type": "Feature", "id": "Nzn9ZJHTkjcTMfx_9yYd_mxs6e4=", "properties": {"ref": "144", "@spider": "jbhifi", "shop": "electronics", "addr:street_address": "The Homemaker Centre, Store 68, , 42 Strickland Street", "addr:city": "Bunbury", "addr:state": "WA", "addr:postcode": "6230", "addr:country": "AU", "name": "Bunbury HOME", "phone": "08 9722 9600", "opening_hours": "Mo-We 09:00-18:00; Th 09:00-21:00; Fr 09:00-18:00; Sa 09:00-17:00; Su 10:00-17:00", "brand": "JB Hi-Fi", "brand:wikidata": "Q3310113", "nsi_id": "jbhifi-2d5b11"}, "geometry": {"type": "Point", "coordinates": [115.646234, -33.334998]}},
{"type": "Feature", "id": "JO4AyIFZW5oPy-F-HcHU0pTUdSk=", "properties": {"ref": "143", "@spider": "jbhifi", "shop": "electronics", "addr:street_address": "Sunshine Marketplace Shopping Centre, Store MM1/T2, Ground Level, 80 Harvester Road", "addr:city": "Sunshine", "addr:state": "VIC", "addr:postcode": "3020", "addr:country": "AU", "name": "Sunshine", "phone": "03 9267 8100", "opening_hours": "Mo-We 09:00-17:30; Th-Fr 09:00-21:00; Sa 09:00-17:00; Su 10:00-17:00", "brand": "JB Hi-Fi", "brand:wikidata": "Q3310113", "nsi_id": "jbhifi-2d5b11"}, "geometry": {"type": "Point", "coordinates": [144.832468, -37.781461]}},
{"type": "Feature", "id": "pypk73dm0j6hV8OvMjbUqBFXg_w=", "properties": {"ref": "142", "@spider": "jbhifi", "shop": "electronics", "addr:street_address": "Charlestown Square, Store 1053, Level 1, Pearson Street", "addr:city": "Charlestown", "addr:state": "NSW", "addr:postcode": "2290", "addr:country": "AU", "name": "Charlestown", "phone": "02 4918 4600", "opening_hours": "Mo-We 09:00-17:30; Th 09:00-21:00; Fr 09:00-17:30; Sa 09:00-17:00; Su 10:00-17:00", "brand": "JB Hi-Fi", "brand:wikidata": "Q3310113", "nsi_id": "jbhifi-2d5b11"}, "geometry": {"type": "Point", "coordinates": [151.69482, -32.963973]}},
{"type": "Feature", "id": "E3GQbp1ch_4pIREVGw7JoXk23aY=", "properties": {"ref": "141", "@spider": "jbhifi", "shop": "electronics", "addr:street_address": "16 Lakes Road", "addr:city": "Greenfields", "addr:state": "WA", "addr:postcode": "6210", "addr:country": "AU", "name": "Mandurah HOME", "phone": "08 9531 9000", "opening_hours": "Mo-We 09:00-18:00; Th 09:00-21:00; Fr 09:00-18:00; Sa 09:00-17:00; Su 10:00-17:00", "brand": "JB Hi-Fi", "brand:wikidata": "Q3310113", "nsi_id": "jbhifi-2d5b11"}, "geometry": {"type": "Point", "coordinates": [115.758199, -32.538822]}},
{"type": "Feature", "id": "wlU7VLcS0vybiHitiqN1sK1HSDQ=", "properties": {"ref": "140", "@spider": "jbhifi", "shop": "electronics", "addr:street_address": "171 Dandenong Road", "addr:city": "Mt Ommaney", "addr:state": "QLD", "addr:postcode": "4074", "addr:country": "AU", "name": "Mt Ommaney", "phone": "07 3026 5300", "opening_hours": "Mo-We 09:00-17:30; Th 09:00-21:00; Fr 09:00-17:30; Sa 09:00-17:00; Su 10:00-17:00", "brand": "JB Hi-Fi", "brand:wikidata": "Q3310113", "nsi_id": "jbhifi-2d5b11"}, "geometry": {"type": "Point", "coordinates": [152.938525, -27.54941]}},
{"type": "Feature", "id": "Ii0zsyjpQh6IgshVRWux_8yH8z8=", "properties": {"ref": "401", "@spider": "jbhifi", "shop": "electronics", "addr:street_address": "Queen Adelaide Building, Tennancy 1B & 1C, , 88-112 Queen St", "addr:city": "Brisbane", "addr:state": "QLD", "addr:postcode": "4000", "addr:country": "AU", "name": "City- Brisbane Queen Adelaide Building", "phone": "07 3037 6000", "opening_hours": "Mo-Th 09:00-18:00; Fr 09:00-20:00; Sa 09:00-17:00; Su 10:00-16:00", "brand": "JB Hi-Fi", "brand:wikidata": "Q3310113", "nsi_id": "jbhifi-2d5b11"}, "geometry": {"type": "Point", "coordinates": [153.024248, -27.470063]}},
{"type": "Feature", "id": "DTvtt7Sj3NklzgiFsEDbiTdcd7c=", "properties": {"ref": "139", "@spider": "jbhifi", "shop": "electronics", "addr:street_address": "Village Square, 18 Commerce Drive", "addr:city": "Browns Plains", "addr:state": "QLD", "addr:postcode": "4118", "addr:country": "AU", "name": "Browns Plains HOME", "phone": "07 3386 8200", "opening_hours": "Mo-We 09:00-17:30; Th 09:00-21:00; Fr 09:00-17:30; Sa 09:00-17:00; Su 10:00-16:00", "brand": "JB Hi-Fi", "brand:wikidata": "Q3310113", "nsi_id": "jbhifi-2d5b11"}, "geometry": {"type": "Point", "coordinates": [153.044914, -27.664503]}},
{"type": "Feature", "id": "kiejrFGq05qC8q_ASkOLa2B4tRA=", "properties": {"ref": "138", "@spider": "jbhifi", "shop": "electronics", "addr:street_address": "Stockland Cairns, Store 53-54, , 537 Mulgrave Road", "addr:city": "Earlville", "addr:state": "QLD", "addr:postcode": "4870", "addr:country": "AU", "name": "Cairns - Stockland", "phone": "07 4038 4500", "opening_hours": "Mo-We 09:00-17:30; Th 09:00-21:00; Fr 09:00-17:30; Sa 09:00-17:00; Su 10:00-16:00", "brand": "JB Hi-Fi", "brand:wikidata": "Q3310113", "nsi_id": "jbhifi-2d5b11"}, "geometry": {"type": "Point", "coordinates": [145.73905, -16.943268]}},
{"type": "Feature", "id": "uuTsYovGRzxf2Ug7DkL4QcaPkZ0=", "properties": {"ref": "137", "@spider": "jbhifi", "shop": "electronics", "addr:street_address": "Melrose Plaza, Store 2, , 1031-1037 South Road", "addr:city": "Melrose Park", "addr:state": "SA", "addr:postcode": "5039", "addr:country": "AU", "name": "Melrose Park HOME", "phone": "08 8172 4700", "opening_hours": "Mo-We 09:00-17:30; Th 09:00-21:00; Fr 09:00-17:30; Sa-Su 09:00-17:00", "brand": "JB Hi-Fi", "brand:wikidata": "Q3310113", "nsi_id": "jbhifi-2d5b11"}, "geometry": {"type": "Point", "coordinates": [138.574439, -34.985998]}},
{"type": "Feature", "id": "kHgl6w-1nVFbzZjq_xU3SJQWc3c=", "properties": {"ref": "136", "@spider": "jbhifi", "shop": "electronics", "addr:street_address": "75 Morgan Street", "addr:city": "Wagga Wagga", "addr:state": "NSW", "addr:postcode": "2650", "addr:country": "AU", "name": "Wagga Wagga", "phone": "02 6932 8700", "opening_hours": "Mo-We 09:00-17:30; Th 09:00-19:30; Fr 09:00-17:30; Sa 09:00-17:00; Su 10:00-17:00", "brand": "JB Hi-Fi", "brand:wikidata": "Q3310113", "nsi_id": "jbhifi-2d5b11"}, "geometry": {"type": "Point", "coordinates": [147.370434, -35.115872]}},
{"type": "Feature", "id": "QRpTe_PV_zhWzXCHVJh-Xfqtruk=", "properties": {"ref": "135", "@spider": "jbhifi", "shop": "electronics", "addr:street_address": "Northland Shopping Centre, Store K-23, , 2-50 Murray Road", "addr:city": "East Preston", "addr:state": "VIC", "addr:postcode": "3072", "addr:country": "AU", "name": "Northland Shopping Centre", "phone": "03 8470 5300", "opening_hours": "Mo-We 09:00-17:30; Th-Fr 09:00-21:00; Sa 09:00-17:00; Su 10:00-17:00", "brand": "JB Hi-Fi", "brand:wikidata": "Q3310113", "nsi_id": "jbhifi-2d5b11"}, "geometry": {"type": "Point", "coordinates": [145.029983, -37.740904]}},
{"type": "Feature", "id": "bJnpC6EJEictUVeI9rveQcAbmuc=", "properties": {"ref": "134", "@spider": "jbhifi", "shop": "electronics", "addr:street_address": "339-355 Hargreaves Street", "addr:city": "Bendigo", "addr:state": "VIC", "addr:postcode": "3550", "addr:country": "AU", "name": "Bendigo", "phone": "03 5446 5000", "opening_hours": "Mo-Th 09:00-17:30; Fr 09:00-20:00; Sa 09:00-17:00; Su 10:00-17:00", "brand": "JB Hi-Fi", "brand:wikidata": "Q3310113", "nsi_id": "jbhifi-2d5b11"}, "geometry": {"type": "Point", "coordinates": [144.279032, -36.761188]}},
{"type": "Feature", "id": "BAS0qqsYY-jq96QWU2gvTDqFDi4=", "properties": {"ref": "133", "@spider": "jbhifi", "shop": "electronics", "addr:street_address": "MacArthur Central Shopping Centre, TL1- T1, Level 1, 255 Queen Street", "addr:city": "Brisbane", "addr:state": "QLD", "addr:postcode": "4000", "addr:country": "AU", "name": "City- Brisbane Queen St, MacArthur Central", "phone": "07 3316 5400", "opening_hours": "Mo-Th 09:00-17:30; Fr 09:00-20:00; Sa 09:00-17:00; Su 10:00-16:00", "brand": "JB Hi-Fi", "brand:wikidata": "Q3310113", "nsi_id": "jbhifi-2d5b11"}, "geometry": {"type": "Point", "coordinates": [153.027306, -27.468007]}},
{"type": "Feature", "id": "J7v5vmioTbKsHF16zkwjseQJMps=", "properties": {"ref": "132", "@spider": "jbhifi", "shop": "electronics", "addr:street_address": "Belrose Supa Centre, Store 1.01, Level 1, 4-6 Niangala Close", "addr:city": "Belrose", "addr:state": "NSW", "addr:postcode": "2085", "addr:country": "AU", "name": "Belrose Supa Centa", "phone": "02 9450 4000", "opening_hours": "Mo-We 09:00-17:30; Th 09:00-20:00; Fr 09:00-17:30; Sa 09:00-17:00; Su 10:00-17:00", "brand": "JB Hi-Fi", "brand:wikidata": "Q3310113", "nsi_id": "jbhifi-2d5b11"}, "geometry": {"type": "Point", "coordinates": [151.212945, -33.703992]}},
{"type": "Feature", "id": "KQoPVIq9wnlck6dsBCPjZjMHXlU=", "properties": {"ref": "131", "@spider": "jbhifi", "shop": "electronics", "addr:street_address": "Home HQ Homemaker Centre, Store UG4, Upper Ground Floor, 1 Frederick Street", "addr:city": "Artarmon", "addr:state": "NSW", "addr:postcode": "2064", "addr:country": "AU", "name": "Artarmon", "phone": "02 8423 7900", "opening_hours": "Mo-We 09:00-17:30; Th 09:00-21:00; Fr 09:00-17:30; Sa 09:00-17:00; Su 10:00-17:00", "brand": "JB Hi-Fi", "brand:wikidata": "Q3310113", "nsi_id": "jbhifi-2d5b11"}, "geometry": {"type": "Point", "coordinates": [151.188869, -33.817556]}},
{"type": "Feature", "id": "X3dGBoyGWwdmVlGTr-t3yvK7hDI=", "properties": {"ref": "130", "@spider": "jbhifi", "shop": "electronics", "addr:street_address": "Wollongong Central Shopping Centre, Store W201, Level 3, Cnr of Crown St & Keira St", "addr:city": "Wollongong", "addr:state": "NSW", "addr:postcode": "2500", "addr:country": "AU", "name": "Wollongong Central HOME", "phone": "02 4239 6000", "opening_hours": "Mo-We 09:00-17:30; Th 09:00-21:00; Fr 09:00-17:30; Sa 09:00-17:00; Su 10:00-17:00", "brand": "JB Hi-Fi", "brand:wikidata": "Q3310113", "nsi_id": "jbhifi-2d5b11"}, "geometry": {"type": "Point", "coordinates": [150.893698, -34.424824]}},
{"type": "Feature", "id": "nnUY_n94VxTarg_H7eOy71qNWIQ=", "properties": {"ref": "311", "@spider": "jbhifi", "shop": "electronics", "addr:street_address": "Highpoint Shopping Centre, , Level 1, 120-200 Rosamond Road", "addr:city": "Maribyrnong", "addr:state": "VIC", "addr:postcode": "3032", "addr:country": "AU", "name": "Highpoint", "phone": "03 9236 4300", "opening_hours": "Mo-We 10:00-18:00; Th-Fr 10:00-21:00; Sa 09:00-18:00; Su 10:00-17:00", "brand": "JB Hi-Fi", "brand:wikidata": "Q3310113", "nsi_id": "jbhifi-2d5b11"}, "geometry": {"type": "Point", "coordinates": [144.892601, -37.769503]}},
{"type": "Feature", "id": "H4bbEzTqaXf_yn0L30dSl3YXe8Q=", "properties": {"ref": "129", "@spider": "jbhifi", "shop": "electronics", "addr:street_address": "195 Albert Street", "addr:city": "Brisbane", "addr:state": "QLD", "addr:postcode": "4000", "addr:country": "AU", "name": "City- Brisbane Albert St", "phone": "07 3900 6300", "opening_hours": "Mo-Th 09:00-18:00; Fr 09:00-21:00; Sa 09:00-17:00; Su 10:00-16:00", "brand": "JB Hi-Fi", "brand:wikidata": "Q3310113", "nsi_id": "jbhifi-2d5b11"}, "geometry": {"type": "Point", "coordinates": [153.025568, -27.469976]}},
{"type": "Feature", "id": "Ft4-fQp5xM9GgzfRjbkhOXzPdQY=", "properties": {"ref": "128", "@spider": "jbhifi", "shop": "electronics", "addr:street_address": "Top Ryde Shopping Centre, Store 29, Lower Ground 1 Level, Corner Devlin Street & Blaxland Road", "addr:city": "Ryde", "addr:state": "NSW", "addr:postcode": "2112", "addr:country": "AU", "name": "Top Ryde", "phone": "02 9813 2700", "opening_hours": "Mo-We 09:00-18:00; Th 09:00-21:00; Fr-Sa 09:00-18:00; Su 10:00-17:00", "brand": "JB Hi-Fi", "brand:wikidata": "Q3310113", "nsi_id": "jbhifi-2d5b11"}, "geometry": {"type": "Point", "coordinates": [151.106129, -33.812386]}},
{"type": "Feature", "id": "F_TeJHvSewXi2OtzoKoJJEj397k=", "properties": {"ref": "127", "@spider": "jbhifi", "shop": "electronics", "addr:street_address": "World Square Shopping Centre, Store 9.42, Lower Ground Level, 644 George Street", "addr:city": "Sydney", "addr:state": "NSW", "addr:postcode": "2000", "addr:country": "AU", "name": "City - World Square", "phone": "02 9307 0600", "opening_hours": "Mo-We 10:00-20:00; Th-Fr 10:00-21:00; Sa 10:00-19:00; Su 11:00-18:00", "brand": "JB Hi-Fi", "brand:wikidata": "Q3310113", "nsi_id": "jbhifi-2d5b11"}, "geometry": {"type": "Point", "coordinates": [151.206486, -33.876223]}},
{"type": "Feature", "id": "M-spOrqvAjgS8gp8-VE9ZB0ciIA=", "properties": {"ref": "126", "@spider": "jbhifi", "shop": "electronics", "addr:street_address": "Willows Shopping Centre, Store 117, , 13 Hervey Range Road", "addr:city": "Thuringowa", "addr:state": "QLD", "addr:postcode": "4817", "addr:country": "AU", "name": "Willows Shoppingtown", "phone": "07 4758 3000", "opening_hours": "Mo-We 09:00-17:30; Th 09:00-21:00; Fr 09:00-17:30; Sa 09:00-17:00; Su 10:00-16:00", "brand": "JB Hi-Fi", "brand:wikidata": "Q3310113", "nsi_id": "jbhifi-2d5b11"}, "geometry": {"type": "Point", "coordinates": [146.726456, -19.316265]}},
{"type": "Feature", "id": "lgQVL1qt2PYaxDnestr05awz1wU=", "properties": {"ref": "125", "@spider": "jbhifi", "shop": "electronics", "addr:street_address": "Moore Park Supa Centa, Store 9, Level 1, 2A Todman Avenue", "addr:city": "Kensington", "addr:state": "NSW", "addr:postcode": "2033", "addr:country": "AU", "name": "Moore Park HOME", "phone": "02 9305 2700", "opening_hours": "Mo-We 09:00-18:00; Th 09:00-21:00; Fr-Sa 09:00-18:00; Su 10:00-17:30", "brand": "JB Hi-Fi", "brand:wikidata": "Q3310113", "nsi_id": "jbhifi-2d5b11"}, "geometry": {"type": "Point", "coordinates": [151.215301, -33.902724]}},
{"type": "Feature", "id": "IByKoUgvR1Moyt2NJVpqlVxiJhY=", "properties": {"ref": "124", "@spider": "jbhifi", "shop": "electronics", "addr:street_address": "South Wharf Direct Factory Outlet, Store 1.12, Level 1, 4-9 South Wharf Road", "addr:city": "South Wharf", "addr:state": "VIC", "addr:postcode": "3006", "addr:country": "AU", "name": "South Wharf DFO HOME", "phone": "03 9230 7000", "opening_hours": "Mo-Th 10:00-18:00; Fr 10:00-21:00; Sa-Su 10:00-18:00", "brand": "JB Hi-Fi", "brand:wikidata": "Q3310113", "nsi_id": "jbhifi-2d5b11"}, "geometry": {"type": "Point", "coordinates": [144.950443, -37.82438]}},
{"type": "Feature", "id": "wigHjWaz8rIxoNXP8mwW1Pmq5VU=", "properties": {"ref": "123", "@spider": "jbhifi", "shop": "electronics", "addr:street_address": "413-451 Wyndham Street", "addr:city": "Shepparton", "addr:state": "VIC", "addr:postcode": "3630", "addr:country": "AU", "name": "Shepparton", "phone": "03 5825 6800", "opening_hours": "Mo-We 09:00-17:30; Th 09:00-18:00; Fr 09:00-20:00; Sa 09:00-17:00; Su 10:00-17:00", "brand": "JB Hi-Fi", "brand:wikidata": "Q3310113", "nsi_id": "jbhifi-2d5b11"}, "geometry": {"type": "Point", "coordinates": [145.399075, -36.38403]}},
{"type": "Feature", "id": "O4YvF5ehyf8k3DIq9fX2d068NtE=", "properties": {"ref": "121", "@spider": "jbhifi", "shop": "electronics", "addr:street_address": "Enex Perth Shopping Centre, P131-133, Level 3, 100 St Georges Terrace", "addr:city": "Perth", "addr:state": "WA", "addr:postcode": "6000", "addr:country": "AU", "name": "Enex Perth", "phone": "08 6332 5600", "opening_hours": "Mo-Th 09:00-18:00; Fr 09:00-21:00; Sa 09:00-17:00; Su 11:00-17:00", "brand": "JB Hi-Fi", "brand:wikidata": "Q3310113", "nsi_id": "jbhifi-2d5b11"}, "geometry": {"type": "Point", "coordinates": [115.8576783, -31.9545733]}},
{"type": "Feature", "id": "BjpMPfAiYgfD1ET9QL6f06kz5i0=", "properties": {"ref": "120", "@spider": "jbhifi", "shop": "electronics", "addr:street_address": "Stockland Rockhampton Shopping Centre, Store MM4, Ground Level, 158-331 Yaamba Road", "addr:city": "North Rockhampton", "addr:state": "QLD", "addr:postcode": "4701", "addr:country": "AU", "name": "Rockhampton Stockland", "phone": "07 4936 5300", "opening_hours": "Mo-We 09:00-17:30; Th 09:00-21:00; Fr 09:00-17:30; Sa 09:00-17:00; Su 10:00-16:00", "brand": "JB Hi-Fi", "brand:wikidata": "Q3310113", "nsi_id": "jbhifi-2d5b11"}, "geometry": {"type": "Point", "coordinates": [150.5121101, -23.3148812]}},
{"type": "Feature", "id": "ngiulqx0zfMXAc4JLeFQ0lbaBVs=", "properties": {"ref": "119", "@spider": "jbhifi", "shop": "electronics", "addr:street_address": "Westfield Eastgardens Shopping Centre, Store 2-5, Level 1, 152 Bunnerong Road", "addr:city": "Eastgardens", "addr:state": "NSW", "addr:postcode": "2036", "addr:country": "AU", "name": "Eastgardens", "phone": "02 9305 4100", "opening_hours": "Mo-We 09:00-17:30; Th 09:00-21:00; Fr 09:00-17:30; Sa 09:00-17:00; Su 10:00-17:00", "brand": "JB Hi-Fi", "brand:wikidata": "Q3310113", "nsi_id": "jbhifi-2d5b11"}, "geometry": {"type": "Point", "coordinates": [151.224256, -33.944812]}},
{"type": "Feature", "id": "0csaPDCHw46rBz3O-sX6yR2Bd4E=", "properties": {"ref": "118", "@spider": "jbhifi", "shop": "electronics", "addr:street_address": "The Mates Centre, , Basement Level, 569 Dean St", "addr:city": "Albury", "addr:state": "NSW", "addr:postcode": "2640", "addr:country": "AU", "name": "Albury - Mates Centre", "phone": "02 6058 8700", "opening_hours": "Mo 09:00-17:30; Tu 09:00-17:00; We 09:00-17:30; Th 09:00-21:00; Fr 09:00-19:00; Sa 09:00-17:00; Su 10:00-17:00", "brand": "JB Hi-Fi", "brand:wikidata": "Q3310113", "nsi_id": "jbhifi-2d5b11"}, "geometry": {"type": "Point", "coordinates": [146.915972, -36.081313]}},
{"type": "Feature", "id": "aB5UznL0LrinDkBIIAFH8Jz_gYg=", "properties": {"ref": "117", "@spider": "jbhifi", "shop": "electronics", "addr:street_address": "Gepps Cross Homemaker Centre, Store 40A, , 750 Main North Road", "addr:city": "Gepps Cross", "addr:state": "SA", "addr:postcode": "5094", "addr:country": "AU", "name": "Gepps Cross HOME", "phone": "08 8114 5300", "opening_hours": "Mo-We 09:00-17:30; Th 09:00-21:00; Fr 09:00-17:30; Sa-Su 09:00-17:00", "brand": "JB Hi-Fi", "brand:wikidata": "Q3310113", "nsi_id": "jbhifi-2d5b11"}, "geometry": {"type": "Point", "coordinates": [138.607844, -34.837554]}},
{"type": "Feature", "id": "j5CO0ckczaKV95PlzIA6U1KeNrk=", "properties": {"ref": "112", "@spider": "jbhifi", "shop": "electronics", "addr:street_address": "Homeworld Helensvale, Store 3, , Corner Hope Island Rd & Siganto Drive", "addr:city": "Helensvale", "addr:state": "QLD", "addr:postcode": "4212", "addr:country": "AU", "name": "Helensvale HOME", "phone": "07 5519 5600", "opening_hours": "Mo-We 09:00-17:30; Th 09:00-20:00; Fr 09:00-17:30; Sa 09:00-17:00; Su 10:00-16:00", "brand": "JB Hi-Fi", "brand:wikidata": "Q3310113", "nsi_id": "jbhifi-2d5b11"}, "geometry": {"type": "Point", "coordinates": [153.316832, -27.885583]}},
{"type": "Feature", "id": "biLJtFRaNrJcrWkCVEKCPLWwkAg=", "properties": {"ref": "104", "@spider": "jbhifi", "shop": "electronics", "addr:street_address": "Carseldine Homemakers Centre, Store 1.1, , 1925 Gympie Road", "addr:city": "Carseldine", "addr:state": "QLD", "addr:postcode": "4034", "addr:country": "AU", "name": "Carseldine HOME", "phone": "07 3261 0000", "opening_hours": "Mo-We 09:00-17:30; Th 09:00-21:00; Fr 09:00-17:30; Sa 09:00-17:00; Su 09:30-17:00", "brand": "JB Hi-Fi", "brand:wikidata": "Q3310113", "nsi_id": "jbhifi-2d5b11"}, "geometry": {"type": "Point", "coordinates": [153.008725, -27.33299]}},
{"type": "Feature", "id": "pRzWdw_O16KSBFma4UJpWpvdut4=", "properties": {"ref": "100", "@spider": "jbhifi", "shop": "electronics", "addr:street_address": "1 Council Avenue", "addr:city": "Rockingham", "addr:state": "WA", "addr:postcode": "6168", "addr:country": "AU", "name": "Rockingham City", "phone": "08 9599 2200", "opening_hours": "Mo-We 09:00-17:30; Th 09:00-21:00; Fr 09:00-17:30; Sa 09:00-17:00; Su 11:00-17:00", "brand": "JB Hi-Fi", "brand:wikidata": "Q3310113", "nsi_id": "jbhifi-2d5b11"}, "geometry": {"type": "Point", "coordinates": [115.74503, -32.28976]}},
{"type": "Feature", "id": "6Ls2YxhBLoi3KUhIvhsN_3eO5tc=", "properties": {"ref": "202", "@spider": "jbhifi", "shop": "electronics", "addr:street_address": "Kotara Homemaker Centre, Store 5-7, Building D, 30 Northcott Drive", "addr:city": "Kotara", "addr:state": "NSW", "addr:postcode": "2289", "addr:country": "AU", "name": "Kotara Homemaker Centre", "phone": "02 4903 2800", "opening_hours": "Mo-We 09:00-18:00; Th 09:00-21:00; Fr 09:00-18:00; Sa 09:00-17:00; Su 10:00-17:00", "brand": "JB Hi-Fi", "brand:wikidata": "Q3310113", "nsi_id": "jbhifi-2d5b11"}, "geometry": {"type": "Point", "coordinates": [151.711973, -32.938321]}}]}