{"type":"FeatureCollection","features":[{"type": "Feature", "id": "AW6elpwTiOvbyYdn-OasJ3Xi-SU=", "properties": {"ref": "14073-emerald-coast-pkwy", "@spider": "jim_n_nicks", "addr:full": "1052 East John Sims Pkwy", "addr:city": "Niceville", "addr:state": "FL", "addr:postcode": "32578", "addr:country": "US", "name": "Niceville", "phone": "850-729-7200", "website": "https://www.jimnnicks.com/locations/fl/niceville/14073-emerald-coast-pkwy", "brand": "Jim 'N Nick's"}},
{"type": "Feature", "id": "6SJe-tqz2E5EOX7JgydicfoUFZM=", "properties": {"ref": "523-sam-ridley-pkwy-w", "@spider": "jim_n_nicks", "addr:full": "523 Sam Ridley Pkwy W", "addr:city": "Smyrna", "addr:state": "TN", "addr:postcode": "37167", "addr:country": "US", "name": "Smyrna", "phone": "615-220-8508", "website": "https://www.jimnnicks.com/locations/tn/smyrna/523-sam-ridley-pkwy-w", "brand": "Jim 'N Nick's"}},
{"type": "Feature", "id": "7K6B6hgAXGmOb5lBgvQCzQJkpVw=", "properties": {"ref": "7004-charlotte-pike", "@spider": "jim_n_nicks", "addr:full": "7004 Charlotte Pike", "addr:city": "Nashville", "addr:state": "TN", "addr:postcode": "37209", "addr:country": "US", "name": "Nashville / Charlotte Pike", "phone": "615-352-5777", "website": "https://www.jimnnicks.com/locations/tn/nashville/7004-charlotte-pike", "brand": "Jim 'N Nick's"}},
{"type": "Feature", "id": "1V2dv6zvrX1eC3Tmvsyz1xaExLU=", "properties": {"ref": "436-north-thompson-ln", "@spider": "jim_n_nicks", "addr:full": "436 North Thompson Ln", "addr:city": "Murfreesboro", "addr:state": "TN", "addr:postcode": "37129", "addr:country": "US", "name": "Murfreesboro", "phone": "615-893-1001", "website": "https://www.jimnnicks.com/locations/tn/murfreesboro/436-north-thompson-ln", "brand": "Jim 'N Nick's"}},
{"type": "Feature", "id": "li-txP2QYqN9w601MvnAhEdS_m4=", "properties": {"ref": "3068-mallory-lane", "@spider": "jim_n_nicks", "addr:full": "3068 Mallory Lane", "addr:city": "Franklin", "addr:state": "TN", "addr:postcode": "37067", "addr:country": "US", "name": "Franklin / Cool Springs", "phone": "615-771-3939", "website": "https://www.jimnnicks.com/locations/tn/franklin/3068-mallory-lane", "brand": "Jim 'N Nick's"}},
{"type": "Feature", "id": "EaEF0d7xvguORva_ObrdXjbkPF4=", "properties": {"ref": "2359-n-germantown-pkwy", "@spider": "jim_n_nicks", "addr:full": "2359 N. Germantown Pkwy", "addr:city": "Cordova", "addr:state": "TN", "addr:postcode": "38016", "addr:country": "US", "name": "Cordova / Memphis", "phone": "901-388-0998", "website": "https://www.jimnnicks.com/locations/tn/cordova/2359-n-germantown-pkwy", "brand": "Jim 'N Nick's"}},
{"type": "Feature", "id": "bvFIJ1RyC0DWTQKPAmCDxIbF9lw=", "properties": {"ref": "2040-hamilton-place-blvd", "@spider": "jim_n_nicks", "addr:full": "2040 Hamilton Place BLVD, Ste 150", "addr:city": "Chattanooga", "addr:state": "TN", "addr:postcode": "37421", "addr:country": "US", "name": "Chattanooga", "phone": "423-498-6969", "website": "https://www.jimnnicks.com/locations/tn/chattanooga/2040-hamilton-place-blvd", "brand": "Jim 'N Nick's"}},
{"type": "Feature", "id": "eKZhWMRdx2qDD7qH60yQwhbtuBA=", "properties": {"ref": "4964-center-pointe-dr", "@spider": "jim_n_nicks", "addr:full": "4964 Center Pointe Dr.", "addr:city": "North Charleston", "addr:state": "SC", "addr:postcode": "29406", "addr:country": "US", "name": "North Charleston", "phone": "843-747-3800", "website": "https://www.jimnnicks.com/locations/sc/north-charleston/4964-center-pointe-dr", "brand": "Jim 'N Nick's"}},
{"type": "Feature", "id": "i7kTW6tuNs6lIc08JnsjoeMjWvI=", "properties": {"ref": "2453-lengers-way", "@spider": "jim_n_nicks", "addr:full": "2453 Lengers Way", "addr:city": "Indian Land", "addr:state": "SC", "addr:postcode": "29707", "addr:country": "US", "name": "Indian Land / Charlotte", "phone": "704-900-0411", "website": "https://www.jimnnicks.com/locations/sc/indian-land/2453-lengers-way", "brand": "Jim 'N Nick's"}},
{"type": "Feature", "id": "QKgQG6L_dc7ceNkRNSN6n6Vt9eI=", "properties": {"ref": "872-fording-island-rd", "@spider": "jim_n_nicks", "addr:full": "872 Fording Island Rd", "addr:city": "Bluffton", "addr:state": "SC", "addr:postcode": "29910", "addr:country": "US", "name": "Bluffton", "phone": "843-706-9741", "website": "https://www.jimnnicks.com/locations/sc/bluffton/872-fording-island-rd", "brand": "Jim 'N Nick's"}},
{"type": "Feature", "id": "TaOIKvf-dWo-0x_Os31LkTiGh9s=", "properties": {"ref": "7791-gateway-ln-nw", "@spider": "jim_n_nicks", "addr:full": "7791 Gateway Ln. NW", "addr:city": "Concord", "addr:state": "NC", "addr:postcode": "28027", "addr:country": "US", "name": "Concord", "phone": "704-453-2791", "website": "https://www.jimnnicks.com/locations/nc/concord/7791-gateway-ln-nw", "brand": "Jim 'N Nick's"}},
{"type": "Feature", "id": "_k0UwIEJSuGA-UzOaapLKmbANt0=", "properties": {"ref": "13840-steele-creek-rd", "@spider": "jim_n_nicks", "addr:full": "13840 Steele Creek Rd", "addr:city": "Charlotte", "addr:state": "NC", "addr:postcode": "28278", "addr:country": "US", "name": "Charlotte", "phone": "704-930-2290", "website": "https://www.jimnnicks.com/locations/nc/charlotte/13840-steele-creek-rd", "brand": "Jim 'N Nick's"}},
{"type": "Feature", "id": "gAS2BF2tEM_NqjYNxurHzEBqmTs=", "properties": {"ref": "205-fischer-crossings-blvd", "@spider": "jim_n_nicks", "addr:full": "205 Fischer Crossings Blvd ", "addr:city": "Sharpsburg", "addr:state": "GA", "addr:postcode": "30277", "addr:country": "US", "name": "Sharpsburg", "phone": "470-402-2600", "website": "https://www.jimnnicks.com/locations/ga/sharpsburg/205-fischer-crossings-blvd", "brand": "Jim 'N Nick's"}},
{"type": "Feature", "id": "oTdD2hQHRp3Qmz0ouCN-etQQY-E=", "properties": {"ref": "1103-old-peachtree-rd-nw", "@spider": "jim_n_nicks", "addr:full": "1103 Old Peachtree Rd NW", "addr:city": "Suwanee", "addr:state": "GA", "addr:postcode": "30024", "addr:country": "US", "name": "Suwanee", "phone": "770-255-1717", "website": "https://www.jimnnicks.com/locations/ga/suwanee/1103-old-peachtree-rd-nw", "brand": "Jim 'N Nick's"}},
{"type": "Feature", "id": "apobsUNqbvo-V6QigQlCdWESO1I=", "properties": {"ref": "4574-south-cobb-dr", "@spider": "jim_n_nicks", "addr:full": "4574 South Cobb Dr", "addr:city": "Smyrna", "addr:state": "GA", "addr:postcode": "30080", "addr:country": "US", "name": "Smyrna / South Cobb", "phone": "678-556-0011", "website": "https://www.jimnnicks.com/locations/ga/south-cobb/4574-south-cobb-dr", "brand": "Jim 'N Nick's"}},
{"type": "Feature", "id": "kNwfJV3E0uFzPs6BaGw0d3ONjs4=", "properties": {"ref": "147-traders-way", "@spider": "jim_n_nicks", "addr:full": "147 Traders Way", "addr:city": "Pooler", "addr:state": "GA", "addr:postcode": "31322", "addr:country": "US", "name": "Pooler", "phone": "912-330-4130", "website": "https://www.jimnnicks.com/locations/ga/pooler/147-traders-way", "brand": "Jim 'N Nick's"}},
{"type": "Feature", "id": "D4XLd_5NnYQPmvBp2rVQUypsxYQ=", "properties": {"ref": "5150-windward-parkway", "@spider": "jim_n_nicks", "addr:full": "5150 Windward Parkway", "addr:city": "Alpharetta", "addr:state": "GA", "addr:postcode": "30004", "addr:country": "US", "name": "Alpharetta / Milton - Coming Soon", "website": "https://www.jimnnicks.com/locations/ga/alpharetta/5150-windward-parkway", "brand": "Jim 'N Nick's"}},
{"type": "Feature", "id": "W0EMoa-fjhV9iEB0sc0fIhOHwFU=", "properties": {"ref": "50-oxford-exchange-boulevard", "@spider": "jim_n_nicks", "addr:full": "50 Oxford Exchange Boulevard", "addr:city": "Oxford", "addr:state": "AL", "addr:postcode": "36203", "addr:country": "US", "name": "Oxford", "phone": "256-745-9300", "website": "https://www.jimnnicks.com/locations/al/oxford/50-oxford-exchange-boulevard", "brand": "Jim 'N Nick's"}},
{"type": "Feature", "id": "_iGoKN28awH8ValdA8ZqIp5d8pk=", "properties": {"ref": "305-21st-ave", "@spider": "jim_n_nicks", "addr:full": "305 21st Ave", "addr:city": "Tuscaloosa", "addr:state": "AL", "addr:postcode": "35401", "addr:country": "US", "name": "Tuscaloosa", "phone": "205-469-2060", "website": "https://www.jimnnicks.com/locations/al/tuscaloosa/305-21st-ave", "brand": "Jim 'N Nick's"}},
{"type": "Feature", "id": "tS6Wx0rnPoeM5P1H5HuppQoYka8=", "properties": {"ref": "1660-gadsden-hwy", "@spider": "jim_n_nicks", "addr:full": "1660 Gadsden Hwy", "addr:city": "Trussville", "addr:state": "AL", "addr:postcode": "35235", "addr:country": "US", "name": "Trussville", "phone": "205-661-3100", "website": "https://www.jimnnicks.com/locations/al/trussville/1660-gadsden-hwy", "brand": "Jim 'N Nick's"}},
{"type": "Feature", "id": "b-WaXIEDjtE3MjUa1qwlD3jrQEM=", "properties": {"ref": "2250-cobbs-ford-rd", "@spider": "jim_n_nicks", "addr:full": "2250 Cobb's Ford Rd", "addr:city": "Prattville", "addr:state": "AL", "addr:postcode": "36066", "addr:country": "US", "name": "Prattville", "phone": "334-290-1000", "website": "https://www.jimnnicks.com/locations/al/prattville/2250-cobbs-ford-rd", "brand": "Jim 'N Nick's"}},
{"type": "Feature", "id": "jY3X2PRjmpAZZkOk28_Mxi5NtbA=", "properties": {"ref": "6415-atlanta-hwy", "@spider": "jim_n_nicks", "addr:full": "6415 Atlanta Hwy", "addr:city": "Montgomery", "addr:state": "AL", "addr:postcode": "36117", "addr:country": "US", "name": "Montgomery", "phone": "334-213-0046", "website": "https://www.jimnnicks.com/locations/al/montgomery/6415-atlanta-hwy", "brand": "Jim 'N Nick's"}},
{"type": "Feature", "id": "GN90JwYcsUSIuqxqwp-mAa3AO1o=", "properties": {"ref": "1804-hwy-78-east", "@spider": "jim_n_nicks", "addr:full": "1804 Hwy 78 East", "addr:city": "Jasper", "addr:state": "AL", "addr:postcode": "35501", "addr:country": "US", "name": "Jasper", "phone": "205-221-2271", "website": "https://www.jimnnicks.com/locations/al/jasper/1804-hwy-78-east", "brand": "Jim 'N Nick's"}},
{"type": "Feature", "id": "4nTZmC_DpxBUIkVfBnEbqM1_POo=", "properties": {"ref": "4935-university-drive-nw", "@spider": "jim_n_nicks", "addr:full": "4935 University Drive NW", "addr:city": "Huntsville", "addr:state": "AL", "addr:postcode": "35816", "addr:country": "US", "name": "Huntsville", "phone": "256-963-9656", "website": "https://www.jimnnicks.com/locations/al/huntsville/4935-university-drive-nw", "brand": "Jim 'N Nick's"}},
{"type": "Feature", "id": "MW0v5CZa5OIUShvi9PPMQGuOzME=", "properties": {"ref": "220-oxmoor-road", "@spider": "jim_n_nicks", "addr:full": "220 Oxmoor Road", "addr:city": "Homewood", "addr:state": "AL", "addr:postcode": "35209", "addr:country": "US", "name": "Homewood", "phone": "205-942-3336", "website": "https://www.jimnnicks.com/locations/al/homewood/220-oxmoor-road", "brand": "Jim 'N Nick's"}},
{"type": "Feature", "id": "uh5NI-U6q-OnCBumCHKTImPSRQs=", "properties": {"ref": "915-odum-road", "@spider": "jim_n_nicks", "addr:full": "915 Odum Road", "addr:city": "Gardendale", "addr:state": "AL", "addr:postcode": "35071", "addr:country": "US", "name": "Gardendale", "phone": "205-608-3315", "website": "https://www.jimnnicks.com/locations/al/gardendale/915-odum-road", "brand": "Jim 'N Nick's"}},
{"type": "Feature", "id": "GVDuxtV6mX6mOgFuN03NsWu5-WE=", "properties": {"ref": "2500-mckenzie-street", "@spider": "jim_n_nicks", "addr:full": "2500 South McKenzie Street", "addr:city": "Foley", "addr:state": "AL", "addr:postcode": "36535", "addr:country": "US", "name": "Foley - Coming Soon", "website": "https://www.jimnnicks.com/locations/al/foley/2500-mckenzie-street", "brand": "Jim 'N Nick's"}},
{"type": "Feature", "id": "myA58pAYM_6gnbFwso5mr5inQBw=", "properties": {"ref": "1851-cherokee-ave-sw", "@spider": "jim_n_nicks", "addr:full": "1851 Cherokee Ave SW", "addr:city": "Cullman", "addr:state": "AL", "addr:postcode": "35055", "addr:country": "US", "name": "Cullman", "phone": "256-727-5421", "website": "https://www.jimnnicks.com/locations/al/cullman/1851-cherokee-ave-sw", "brand": "Jim 'N Nick's"}},
{"type": "Feature", "id": "x1Lls6RbLVAcvmXSTCvKSdmjwO4=", "properties": {"ref": "1908-11th-ave-s", "@spider": "jim_n_nicks", "addr:full": "1908 11th Ave S", "addr:city": "Birmingham", "addr:state": "AL", "addr:postcode": "35205", "addr:country": "US", "name": "Birmingham / 5 Points", "phone": "205-320-1060", "website": "https://www.jimnnicks.com/locations/al/birmingham/1908-11th-ave-s", "brand": "Jim 'N Nick's"}},
{"type": "Feature", "id": "sStECpwvboq4Kr0cR8usmJI5_3E=", "properties": {"ref": "1920-s-college-st", "@spider": "jim_n_nicks", "addr:full": "1920 S. College St", "addr:city": "Auburn", "addr:state": "AL", "addr:postcode": "36832", "addr:country": "US", "name": "Auburn", "phone": "334-246-5197", "website": "https://www.jimnnicks.com/locations/al/auburn/1920-s-college-st", "brand": "Jim 'N Nick's"}},
{"type": "Feature", "id": "36DVslZIuIL--jefBVj6oTNx7ec=", "properties": {"ref": "295-alabaster-blvd", "@spider": "jim_n_nicks", "addr:full": "295 Alabaster Blvd.", "addr:city": "Alabaster", "addr:state": "AL", "addr:postcode": "35007", "addr:country": "US", "name": "Alabaster", "phone": "205-605-0170", "website": "https://www.jimnnicks.com/locations/al/alabaster/295-alabaster-blvd", "brand": "Jim 'N Nick's"}},
{"type": "Feature", "id": "xpjcG6cNrQmJ0hewklBsS8yjQ4w=", "properties": {"ref": "1480-hwy-20-west", "@spider": "jim_n_nicks", "addr:full": "1480 HWY 20 West", "addr:city": "McDonough", "addr:state": "GA", "addr:postcode": "30253", "addr:country": "US", "name": "McDonough", "phone": "678-619-5098", "website": "https://www.jimnnicks.com/locations/ga/mcdonough/1480-hwy-20-west", "brand": "Jim 'N Nick's"}},
{"type": "Feature", "id": "GhVo94qkbpSK4Yat-XiVbQagoN4=", "properties": {"ref": "3420-sandy-plains-road-ne", "@spider": "jim_n_nicks", "addr:full": "3420 Sandy Plains Road NE Suite 100", "addr:city": "Marietta", "addr:state": "GA", "addr:postcode": "30066", "addr:country": "US", "name": "Marietta / East Cobb", "phone": "470-412-5445", "website": "https://www.jimnnicks.com/locations/ga/marietta/3420-sandy-plains-road-ne", "brand": "Jim 'N Nick's"}},
{"type": "Feature", "id": "CtGyNp5MU7EBw3eMRULT55StQLs=", "properties": {"ref": "1190-scenic-highway", "@spider": "jim_n_nicks", "addr:full": "1190 Scenic Highway", "addr:city": "Lawrenceville", "addr:state": "GA", "addr:postcode": "30045", "addr:country": "US", "name": "Lawrenceville / Snellville", "phone": "678-353-0111", "website": "https://www.jimnnicks.com/locations/ga/lawrenceville/1190-scenic-highway", "brand": "Jim 'N Nick's"}},
{"type": "Feature", "id": "TZ2rMF_3b_Zfo97OXjfWPghpr4M=", "properties": {"ref": "5153-jimmy-lee-smith-pkwy", "@spider": "jim_n_nicks", "addr:full": "5153 Jimmy Lee Smith Pkwy", "addr:city": "Hiram", "addr:state": "GA", "addr:postcode": "30141", "addr:country": "US", "name": "Hiram", "phone": "770-439-2662", "website": "https://www.jimnnicks.com/locations/ga/hiram/5153-jimmy-lee-smith-pkwy", "brand": "Jim 'N Nick's"}},
{"type": "Feature", "id": "cFJSKHVhKWPfjuy-GKaKNy1JXbo=", "properties": {"ref": "3130-ronald-reagan-blvd", "@spider": "jim_n_nicks", "addr:full": "3130 Ronald Reagan Blvd", "addr:city": "Cumming", "addr:state": "GA", "addr:postcode": "30041", "addr:country": "US", "name": "Cumming / Forsyth", "phone": "678-845-1565", "website": "https://www.jimnnicks.com/locations/ga/cumming/3130-ronald-reagan-blvd", "brand": "Jim 'N Nick's"}},
{"type": "Feature", "id": "cesdcqiZKq6_2OVrhpZG4o8BLas=", "properties": {"ref": "2275-georgia-highway-20", "@spider": "jim_n_nicks", "addr:full": "2275 Georgia Highway 20", "addr:city": "Conyers", "addr:state": "GA", "addr:postcode": "30013", "addr:country": "US", "name": "Conyers", "phone": "770-785-4453", "website": "https://www.jimnnicks.com/locations/ga/conyers/2275-georgia-highway-20", "brand": "Jim 'N Nick's"}},
{"type": "Feature", "id": "djNseVnXNMEWy-uyzUHFKbKJpKo=", "properties": {"ref": "3329-cobb-parkway-nw", "@spider": "jim_n_nicks", "addr:full": "3329 Cobb Parkway, NW", "addr:city": "Acworth", "addr:state": "GA", "addr:postcode": "30101", "addr:country": "US", "name": "Acworth", "phone": "678-223-0012", "website": "https://www.jimnnicks.com/locations/ga/acworth/3329-cobb-parkway-nw", "brand": "Jim 'N Nick's"}},
{"type": "Feature", "id": "6YTw9Ef52qj0KfMzN_ARCur9XXU=", "properties": {"ref": "1810-montgomery-hwy", "@spider": "jim_n_nicks", "addr:full": "1810 Montgomery Hwy.", "addr:city": "Hoover", "addr:state": "AL", "addr:postcode": "35244", "addr:country": "US", "name": "Hoover / Riverchase", "phone": "205-733-1300", "website": "https://www.jimnnicks.com/locations/al/hoover/1810-montgomery-hwy/", "brand": "Jim 'N Nick's"}},
{"type": "Feature", "id": "0b1GPy4aeDIfjWww3ldR7_xVf60=", "properties": {"ref": "2831-greystone-commercial-blvd", "@spider": "jim_n_nicks", "addr:full": "2831 Greystone Commercial Blvd", "addr:city": "Birmingham", "addr:state": "AL", "addr:postcode": "35242", "addr:country": "US", "name": "Birmingham / Greystone", "phone": "205-991-1306", "website": "https://www.jimnnicks.com/locations/al/hoover/2831-greystone-commercial-blvd/", "brand": "Jim 'N Nick's"}}]}