{"type":"FeatureCollection","features":[{"type": "Feature", "id": "1M4pRLBu22Kfxn1w73DQJ2TFoo8=", "properties": {"ref": "L2NvbnRlbnQvZGFtL2psbC1jb20vbW9kZWxzL2xvY2F0aW9ucy9lbi9jbGV2ZWxhbmQ", "@spider": "jll", "office": "estate_agent", "addr:full": "127 Public Square", "addr:city": "Cleveland", "addr:state": "Ohio", "addr:postcode": "44114", "name": "Cleveland", "phone": "+1 216 861 7171", "website": "https://www.us.jll.com/en/locations/midwest/cleveland", "brand": "JLL", "brand:wikidata": "Q1703389", "nsi_id": "jll-08bb13"}, "geometry": {"type": "Point", "coordinates": [-81.693921, 41.500596]}},
{"type": "Feature", "id": "FkknMx4iypiXlDlmpmCfuG5b-4o=", "properties": {"ref": "L2NvbnRlbnQvZGFtL2psbC1jb20vbW9kZWxzL2xvY2F0aW9ucy9lbi9zaGVueWFuZw", "@spider": "jll", "office": "estate_agent", "addr:full": "3/F, No.416 Qingnian Main Street, Heping District,  Shenyang, Liaoning 110004", "addr:city": "China", "addr:state": "Asia Pacific", "addr:country": "CN", "name": "Shenyang ", "phone": "+86 24 3105 4699", "website": "https://www.joneslanglasalle.com.cn/en/locations/shenyang", "brand": "JLL", "brand:wikidata": "Q1703389", "nsi_id": "jll-08bb13"}, "geometry": {"type": "Point", "coordinates": [123.43991072563296, 41.75139409592132]}},
{"type": "Feature", "id": "TsCOEt7-Bc-I2mjOtk2L-jik8kg=", "properties": {"ref": "L2NvbnRlbnQvZGFtL2psbC1jb20vbW9kZWxzL2xvY2F0aW9ucy9lbi9sb3MtYW5nZWxlcy0tLWRvd250b3du", "@spider": "jll", "office": "estate_agent", "addr:full": "515 South Flower Street", "addr:city": "Los Angeles", "addr:state": "California", "addr:postcode": "90071", "name": "Los Angeles | Downtown", "phone": "+1 213 239 6000", "website": "https://www.us.jll.com/en/locations/west/los-angeles", "brand": "JLL", "brand:wikidata": "Q1703389", "nsi_id": "jll-08bb13"}, "geometry": {"type": "Point", "coordinates": [-118.25661, 34.05134]}},
{"type": "Feature", "id": "cUy70PXRRSMjRuqObPD6FgLg9eI=", "properties": {"ref": "L2NvbnRlbnQvZGFtL2psbC1jb20vbW9kZWxzL2xvY2F0aW9ucy9lbi9oYXJyaXNidXJnLS0tbWVjaGFuaWNzYnVyZw", "@spider": "jll", "office": "estate_agent", "addr:full": "4999 Louise Drive ", "addr:city": "Mechanicsburg", "addr:state": "Pennsylvania", "addr:postcode": "17055", "name": "Harrisburg / Mechanicsburg", "phone": "+1 717 791 2200", "website": "https://www.us.jll.com/en/locations/northeast/philadelphia", "brand": "JLL", "brand:wikidata": "Q1703389", "nsi_id": "jll-08bb13"}, "geometry": {"type": "Point", "coordinates": [-76.9590606689453, 40.2122917175292]}},
{"type": "Feature", "id": "kGKAYRdCNB-oBTwdu0EWgHMHwa8=", "properties": {"ref": "L2NvbnRlbnQvZGFtL2psbC1jb20vbW9kZWxzL2xvY2F0aW9ucy9lbi9sb3MtYW5nZWxlcy0tLWJyZW50d29vZA", "@spider": "jll", "office": "estate_agent", "addr:full": "11620 Wilshire Boulevard", "addr:city": "Los Angeles", "addr:state": "California", "addr:postcode": "90025", "name": "Los Angeles | Brentwood", "phone": "+1 310 473 4424", "website": "https://www.us.jll.com/en/locations/west/los-angeles", "brand": "JLL", "brand:wikidata": "Q1703389", "nsi_id": "jll-08bb13"}, "geometry": {"type": "Point", "coordinates": [-118.46666, 34.0448]}},
{"type": "Feature", "id": "xm4F6tE3dJO-g-puJui8j8CeWgs=", "properties": {"ref": "L2NvbnRlbnQvZGFtL2psbC1jb20vbW9kZWxzL2xvY2F0aW9ucy9lbi9ub3Jmb2xr", "@spider": "jll", "office": "estate_agent", "addr:full": "101 West Main Street", "addr:city": "Norfolk", "addr:state": "Virginia", "addr:postcode": "23510", "name": "Norfolk", "phone": "+1 757 965 3006", "website": "https://www.us.jll.com/en/locations/mid-atlantic/virginia", "brand": "JLL", "brand:wikidata": "Q1703389", "nsi_id": "jll-08bb13"}, "geometry": {"type": "Point", "coordinates": [-76.29363, 36.84668]}},
{"type": "Feature", "id": "6w-0juBOGpj6lU1BVhiXmS7IfJ4=", "properties": {"ref": "L2NvbnRlbnQvZGFtL2psbC1jb20vbW9kZWxzL2xvY2F0aW9ucy9lbi9iaXJtaW5naGFt", "@spider": "jll", "office": "estate_agent", "addr:full": "850 Shades Creek Parkway", "addr:city": "Birmingham", "addr:state": "Alabama", "addr:postcode": "35209", "name": "Birmingham", "phone": "+1 205 610 8681", "website": "https://www.us.jll.com/en/locations/southeast", "brand": "JLL", "brand:wikidata": "Q1703389", "nsi_id": "jll-08bb13"}, "geometry": {"type": "Point", "coordinates": [-86.765032, 33.476208]}},
{"type": "Feature", "id": "9k8AQCEdOeo6b0mnOi71MF9znUQ=", "properties": {"ref": "L2NvbnRlbnQvZGFtL2psbC1jb20vbW9kZWxzL2xvY2F0aW9ucy9lbi9zdGFtZm9yZA", "@spider": "jll", "office": "estate_agent", "addr:full": "1 Station Place", "addr:city": "Stamford", "addr:state": "Connecticut", "addr:postcode": "06902", "name": "Stamford", "phone": "+1 203 705 2220", "website": "https://www.us.jll.com/en/locations/northeast", "brand": "JLL", "brand:wikidata": "Q1703389", "nsi_id": "jll-08bb13"}, "geometry": {"type": "Point", "coordinates": [-73.54784, 41.04276]}},
{"type": "Feature", "id": "NfaKPifXqSOEGd5cRD6eJJstCQg=", "properties": {"ref": "L2NvbnRlbnQvZGFtL2psbC1jb20vbW9kZWxzL2xvY2F0aW9ucy9lbi9qbGwtbXVtYmFp", "@spider": "jll", "office": "estate_agent", "addr:full": "ONE BKC, Tower A - 1502", "addr:city": "Mumbai", "addr:state": "India", "addr:postcode": "400051", "addr:country": "IN", "name": "Mumbai", "phone": "+91 22 7149 5900", "website": "https://www.jll.co.in/en/locations/mumbai", "brand": "JLL", "brand:wikidata": "Q1703389", "nsi_id": "jll-08bb13"}, "geometry": {"type": "Point", "coordinates": [72.865176, 19.060413]}},
{"type": "Feature", "id": "PicVtHGbUGDkx3tr1OngVLOrS3s=", "properties": {"ref": "L2NvbnRlbnQvZGFtL2psbC1jb20vbW9kZWxzL2xvY2F0aW9ucy9lbi9ub3J0aC15b3Jr", "@spider": "jll", "office": "estate_agent", "addr:full": "235 Yorkland Boulevard, Suite 500", "addr:city": "Toronto", "addr:state": "Canada", "addr:postcode": "M2J 4Y8", "addr:country": "CA", "name": "Toronto", "phone": "+1 647 728 0457", "website": "https://www.jll.ca/en/locations/Toronto", "brand": "JLL", "brand:wikidata": "Q1703389", "nsi_id": "jll-08bb13"}, "geometry": {"type": "Point", "coordinates": [-79.337507, 43.771996]}},
{"type": "Feature", "id": "HkniVByd6B4kwGGyYyOBkFzXAWI=", "properties": {"ref": "L2NvbnRlbnQvZGFtL2psbC1jb20vbW9kZWxzL2xvY2F0aW9ucy9lbi9va2xhaG9tYS1jaXR5", "@spider": "jll", "office": "estate_agent", "addr:full": "2200 NW 50th", "addr:city": "United States", "addr:state": "Americas", "addr:postcode": "73112", "name": "Oklahoma City", "phone": "+1 405 832 2800", "website": "https://www.us.jll.com/en/locations/south", "brand": "JLL", "brand:wikidata": "Q1703389", "nsi_id": "jll-08bb13"}, "geometry": {"type": "Point", "coordinates": [-97.55097, 35.52174]}},
{"type": "Feature", "id": "QDv0VAFip_jIWLNpD9C5zD03ac8=", "properties": {"ref": "L2NvbnRlbnQvZGFtL2psbC1jb20vbW9kZWxzL2xvY2F0aW9ucy9lbi9udXJlbWJlcmc", "@spider": "jll", "office": "estate_agent", "addr:full": "Jones Lang LaSalle SE", "addr:city": "Germany", "addr:state": "EMEA", "addr:postcode": "90443 N\u00fcrnberg", "addr:country": "DE", "name": "Nuremberg ", "phone": "+49 911 633 297 0", "website": "https://www.jll.de/en/cities/nuremberg", "brand": "JLL", "brand:wikidata": "Q1703389", "nsi_id": "jll-08bb13"}, "geometry": {"type": "Point", "coordinates": [11.0677689, 49.4432836]}},
{"type": "Feature", "id": "dQnLIuwRtF-MtZ6bmdVBQ8Oj6Sw=", "properties": {"ref": "L2NvbnRlbnQvZGFtL2psbC1jb20vbW9kZWxzL2xvY2F0aW9ucy9lbi9uZXcteW9yay1jaXR5LS0tbWFkaXNvbi1hdmVudWU", "@spider": "jll", "office": "estate_agent", "addr:full": "330 Madison Avenue", "addr:city": "New York City", "addr:state": "New York", "addr:postcode": "10017", "name": "New York City | Madison Avenue", "phone": "+1 212 812 5700", "website": "https://www.us.jll.com/en/locations/northeast/new-york", "brand": "JLL", "brand:wikidata": "Q1703389", "nsi_id": "jll-08bb13"}, "geometry": {"type": "Point", "coordinates": [-73.97943, 40.75333]}},
{"type": "Feature", "id": "qyJ7gZwjOhc2Qd5BDxDne_1HKoU=", "properties": {"ref": "L2NvbnRlbnQvZGFtL2psbC1jb20vbW9kZWxzL2xvY2F0aW9ucy9lbi9ob3VzdG9uLTIwMC1wYXJrLXBsYWNl", "@spider": "jll", "office": "estate_agent", "addr:full": "4200 Westheimer", "addr:city": "Houston", "addr:state": "Texas", "addr:postcode": "77027", "name": "Houston | 200 Park Place", "phone": "+1 713 888 4000", "website": "https://www.us.jll.com/en/locations/south/houston", "brand": "JLL", "brand:wikidata": "Q1703389", "nsi_id": "jll-08bb13"}, "geometry": {"type": "Point", "coordinates": [-95.44941, 29.74258]}},
{"type": "Feature", "id": "tvp2lceKO29L8Invd7_1LfcKr58=", "properties": {"ref": "L2NvbnRlbnQvZGFtL2psbC1jb20vbW9kZWxzL2xvY2F0aW9ucy9lbi9qbGwtY2hlbm5haQ", "@spider": "jll", "office": "estate_agent", "addr:full": "Level 8 Tower II TVH Beliciaa Towers", "addr:city": "Chennai", "addr:state": "India", "addr:postcode": "600 028", "addr:country": "IN", "name": "Chennai", "phone": "+91 44 4299 3000", "website": "https://www.jll.co.in/en/locations/chennai", "brand": "JLL", "brand:wikidata": "Q1703389", "nsi_id": "jll-08bb13"}, "geometry": {"type": "Point", "coordinates": [80.2748, 13.018865]}},
{"type": "Feature", "id": "kzZ-SvPqQknZN-w4dO1794URato=", "properties": {"ref": "L2NvbnRlbnQvZGFtL2psbC1jb20vbW9kZWxzL2xvY2F0aW9ucy9lbi9ndWFuZ3pob3U", "@spider": "jll", "office": "estate_agent", "addr:full": "Room 2801-03,Guangzhou CTF Finance Centre", "addr:city": "China", "addr:state": "Asia Pacific", "addr:country": "CN", "name": "Guangzhou ", "phone": "+86 20 2338 8088", "website": "https://www.joneslanglasalle.com.cn/en/locations/guangzhou", "brand": "JLL", "brand:wikidata": "Q1703389", "nsi_id": "jll-08bb13"}, "geometry": {"type": "Point", "coordinates": [113.326831, 23.11851]}},
{"type": "Feature", "id": "ObC4DS0V2PIYqagP8EGhR4Hq3jA=", "properties": {"ref": "L2NvbnRlbnQvZGFtL2psbC1jb20vbW9kZWxzL2xvY2F0aW9ucy9lbi90aWFuamlu", "@spider": "jll", "office": "estate_agent", "addr:full": "Unit 3408, The Exchange Tower 2", "addr:city": "China", "addr:state": "Asia Pacific", "addr:country": "CN", "name": "Tianjin ", "phone": "+86 22 5901 1999", "website": "https://www.joneslanglasalle.com.cn/en/locations/tianjin", "brand": "JLL", "brand:wikidata": "Q1703389", "nsi_id": "jll-08bb13"}, "geometry": {"type": "Point", "coordinates": [117.196763, 39.11714]}},
{"type": "Feature", "id": "NJRfT0sPhFGh3gys-55Y8XwcxiU=", "properties": {"ref": "L2NvbnRlbnQvZGFtL2psbC1jb20vbW9kZWxzL2xvY2F0aW9ucy9lbi9iZWlqaW5n", "@spider": "jll", "office": "estate_agent", "addr:full": "8/F, China Life Finance Centre, No.23 Zhenzhi Rd, ", "addr:city": "China", "addr:state": "Asia Pacific", "addr:country": "CN", "name": "Beijing ", "phone": "+86 10 5922 1300", "website": "https://www.joneslanglasalle.com.cn/en/locations/beijing", "brand": "JLL", "brand:wikidata": "Q1703389", "nsi_id": "jll-08bb13"}, "geometry": {"type": "Point", "coordinates": [116.4696529120603, 39.9152545587586]}},
{"type": "Feature", "id": "aY1IdPqhrdsgZCwWRZjS-h6QCYM=", "properties": {"ref": "L2NvbnRlbnQvZGFtL2psbC1jb20vbW9kZWxzL2xvY2F0aW9ucy9lbi9ib2lzZQ", "@spider": "jll", "office": "estate_agent", "addr:full": "950 W Bannock St.", "addr:city": "Boise", "addr:state": "Idaho", "addr:postcode": "83702", "name": "Boise", "phone": "+1 208 982 2427", "website": "https://www.us.jll.com/en/locations/west", "brand": "JLL", "brand:wikidata": "Q1703389", "nsi_id": "jll-08bb13"}, "geometry": {"type": "Point", "coordinates": [-116.20415, 43.618426]}},
{"type": "Feature", "id": "SLDQEMuSm4nz8c55wbIs9LUhxVQ=", "properties": {"ref": "L2NvbnRlbnQvZGFtL2psbC1jb20vbW9kZWxzL2xvY2F0aW9ucy9lbi9ob25vbHVsdQ", "@spider": "jll", "office": "estate_agent", "addr:full": "1585 Kapiolani Boulevard", "addr:city": "Honolulu", "addr:state": "Hawaii", "addr:postcode": "96814", "name": "Honolulu", "phone": "+1 808 203 5700", "website": "https://www.us.jll.com/en/locations/west", "brand": "JLL", "brand:wikidata": "Q1703389", "nsi_id": "jll-08bb13"}, "geometry": {"type": "Point", "coordinates": [-157.840309, 21.291568]}},
{"type": "Feature", "id": "VyTNM2NLp_f5Obx1_YqD8hINt8U=", "properties": {"ref": "L2NvbnRlbnQvZGFtL2psbC1jb20vbW9kZWxzL2xvY2F0aW9ucy9lbi9oYXJ0Zm9yZA", "@spider": "jll", "office": "estate_agent", "addr:full": "90 State House Square", "addr:city": "Hartford", "addr:state": "Connecticut", "addr:postcode": "06103", "name": "Hartford", "phone": "+1  860 241 0100", "website": "https://www.us.jll.com/en/locations/northeast", "brand": "JLL", "brand:wikidata": "Q1703389", "nsi_id": "jll-08bb13"}, "geometry": {"type": "Point", "coordinates": [-72.672314, 41.767199]}},
{"type": "Feature", "id": "t0qWQHuNrvxRK77hgC0n27CxJ9Y=", "properties": {"ref": "L2NvbnRlbnQvZGFtL2psbC1jb20vbW9kZWxzL2xvY2F0aW9ucy9lbi9xaW5nZGFv", "@spider": "jll", "office": "estate_agent", "addr:full": "Unit 2308, Tower A, COSCO Plaza", "addr:city": "China", "addr:state": "Asia Pacific", "addr:country": "CN", "name": "Qingdao", "phone": "+86 532 8579 5800", "website": "https://www.joneslanglasalle.com.cn/en/locations/qingdao", "brand": "JLL", "brand:wikidata": "Q1703389", "nsi_id": "jll-08bb13"}, "geometry": {"type": "Point", "coordinates": [120.398389, 36.065858]}},
{"type": "Feature", "id": "MusdmqekJ8HS-A044wWNQt9etgo=", "properties": {"ref": "L2NvbnRlbnQvZGFtL2psbC1jb20vbW9kZWxzL2xvY2F0aW9ucy9lbi9tb3JyaXN0b3du", "@spider": "jll", "office": "estate_agent", "addr:full": "1776 On The Green", "addr:city": "New Jersey", "addr:state": "United States", "addr:postcode": "07960", "name": "Morristown", "phone": "+1 973 549 2000", "website": "https://www.us.jll.com/en/locations/northeast/new-jersey", "brand": "JLL", "brand:wikidata": "Q1703389", "nsi_id": "jll-08bb13"}, "geometry": {"type": "Point", "coordinates": [-74.4805756, 40.798069]}},
{"type": "Feature", "id": "lVsTRvX_0slsba-QO5CoZgYUgZw=", "properties": {"ref": "L2NvbnRlbnQvZGFtL2psbC1jb20vbW9kZWxzL2xvY2F0aW9ucy9lbi9idXJiYW5r", "@spider": "jll", "office": "estate_agent", "addr:full": "2233 North Ontario Street", "addr:city": "Los Angeles", "addr:state": "California", "addr:postcode": "91504", "name": "Burbank", "phone": "+1 818 736 4440", "website": "https://www.us.jll.com/en/locations/west/los-angeles", "brand": "JLL", "brand:wikidata": "Q1703389", "nsi_id": "jll-08bb13"}, "geometry": {"type": "Point", "coordinates": [-118.34629, 34.19285]}},
{"type": "Feature", "id": "DlBSSJnzEsN3Sf5PnCsaE9XHCWw=", "properties": {"ref": "L2NvbnRlbnQvZGFtL2psbC1jb20vbW9kZWxzL2xvY2F0aW9ucy9lbi9pcnZpbmU", "@spider": "jll", "office": "estate_agent", "addr:full": "17877 Von Karman Avenue", "addr:city": "Orange County", "addr:state": "California", "addr:postcode": "92614", "name": "Irvine (Orange County)", "phone": "+1 949 885 2900", "website": "https://www.us.jll.com/en/locations/west/orange-county", "brand": "JLL", "brand:wikidata": "Q1703389", "nsi_id": "jll-08bb13"}, "geometry": {"type": "Point", "coordinates": [-117.8372, 33.67828]}},
{"type": "Feature", "id": "QMCv_AJe8oqXcqfadjiUmPqEpVI=", "properties": {"ref": "L2NvbnRlbnQvZGFtL2psbC1jb20vbW9kZWxzL2xvY2F0aW9ucy9lbi9taW5uZWFwb2xpcy0tLXlvdW5nbWFuLWF2ZW51ZQ", "@spider": "jll", "office": "estate_agent", "addr:full": "2177 Youngman Avenue", "addr:city": "Minneapolis", "addr:state": "Minnesota", "addr:postcode": "55116", "name": "St. Paul | Youngman Avenue", "phone": "+1 763 656 4500", "website": "https://www.us.jll.com/en/locations/midwest/minneapolis", "brand": "JLL", "brand:wikidata": "Q1703389", "nsi_id": "jll-08bb13"}, "geometry": {"type": "Point", "coordinates": [-93.15759, 44.90362]}},
{"type": "Feature", "id": "MJtJzcFpiYZmWHSdcbEmtOacbxM=", "properties": {"ref": "L2NvbnRlbnQvZGFtL2psbC1jb20vbW9kZWxzL2xvY2F0aW9ucy9lbi9sZWhpZ2gtdmFsbGV5", "@spider": "jll", "office": "estate_agent", "addr:full": "1495 Valley Center Parkway", "addr:city": "Philadelphia", "addr:state": "Pennsylvania", "addr:postcode": "18017", "name": "Lehigh Valley", "phone": "+1 484 635 3300", "website": "https://www.us.jll.com/en/locations/northeast/philadelphia", "brand": "JLL", "brand:wikidata": "Q1703389", "nsi_id": "jll-08bb13"}, "geometry": {"type": "Point", "coordinates": [-75.40443, 40.65364]}},
{"type": "Feature", "id": "FLiqbVj4tgY_gjHlcgoQgFNpFjQ=", "properties": {"ref": "L2NvbnRlbnQvZGFtL2psbC1jb20vbW9kZWxzL2xvY2F0aW9ucy9lbi9kZXMtbW9pbmVz", "@spider": "jll", "office": "estate_agent", "addr:full": "801 Grand Avenue", "addr:city": "Des Moines", "addr:state": "Iowa", "addr:postcode": "50309", "name": "Des Moines", "phone": "+1 515 218 7010", "website": "https://www.us.jll.com/en/locations/midwest/des-moines", "brand": "JLL", "brand:wikidata": "Q1703389", "nsi_id": "jll-08bb13"}, "geometry": {"type": "Point", "coordinates": [-93.628557, 41.587248]}},
{"type": "Feature", "id": "7XPKvB79LyyTvxMezN_fjp5nk6I=", "properties": {"ref": "L2NvbnRlbnQvZGFtL2psbC1jb20vbW9kZWxzL2xvY2F0aW9ucy9lbi9icm93YXJk", "@spider": "jll", "office": "estate_agent", "addr:full": "401 E Las Olas Blvd", "addr:city": "Fort Lauderdale", "addr:state": "Florida", "addr:postcode": "33301", "name": "Fort Lauderdale", "phone": "+1 954 760 4848", "website": "https://www.us.jll.com/en/locations/southeast/florida", "brand": "JLL", "brand:wikidata": "Q1703389", "nsi_id": "jll-08bb13"}, "geometry": {"type": "Point", "coordinates": [-80.1387, 26.11985]}},
{"type": "Feature", "id": "xiwQAFuE9qj7zlEZJzNtAl2Z-6E=", "properties": {"ref": "L2NvbnRlbnQvZGFtL2psbC1jb20vbW9kZWxzL2xvY2F0aW9ucy9lbi9waXR0c2J1cmdoLW94Zm9yZC1jZW50cmU", "@spider": "jll", "office": "estate_agent", "addr:full": "One Oxford Centre", "addr:city": "Pittsburgh", "addr:state": "Pennsylvania", "addr:postcode": "15219", "name": "Pittsburgh | Oxford Centre", "phone": "+1 412 281 8714", "website": "https://www.us.jll.com/en/locations/midwest/pittsburgh", "brand": "JLL", "brand:wikidata": "Q1703389", "nsi_id": "jll-08bb13"}, "geometry": {"type": "Point", "coordinates": [-79.9987925, 40.4381767]}},
{"type": "Feature", "id": "0ksyiIuGIR1jumesZn9eNq_O9T4=", "properties": {"ref": "L2NvbnRlbnQvZGFtL2psbC1jb20vbW9kZWxzL2xvY2F0aW9ucy9lbi9qbGwtYXVja2xhbmQ", "@spider": "jll", "office": "estate_agent", "addr:full": "Level 16, 188 Quay Street", "addr:city": "Auckland", "addr:state": "New Zealand", "addr:postcode": "1140", "addr:country": "NZ", "name": "Auckland", "phone": "+64 9 366 1666", "website": "https://www.jll.nz/en/locations/auckland-real-estate", "brand": "JLL", "brand:wikidata": "Q1703389", "nsi_id": "jll-08bb13"}, "geometry": {"type": "Point", "coordinates": [174.765379, -36.842902]}},
{"type": "Feature", "id": "QpT7Kp9QZfSvm3zeCW1WzqLf_Zc=", "properties": {"ref": "L2NvbnRlbnQvZGFtL2psbC1jb20vbW9kZWxzL2xvY2F0aW9ucy9lbi9qbGwtZ3VydWdyYW0", "@spider": "jll", "office": "estate_agent", "addr:full": "DLF Cyber Park, Phase III,", "addr:city": "Gurgaon", "addr:state": "India", "addr:postcode": "122008", "addr:country": "IN", "name": "Gurugram", "phone": "0124 4605000", "website": "https://www.jll.co.in/en/locations/delhi-ncr", "brand": "JLL", "brand:wikidata": "Q1703389", "nsi_id": "jll-08bb13"}, "geometry": {"type": "Point", "coordinates": [77.09161498215902, 28.502164797295027]}},
{"type": "Feature", "id": "TYUxr06r2MDxfAfyjlp01kHOHqI=", "properties": {"ref": "L2NvbnRlbnQvZGFtL2psbC1jb20vbW9kZWxzL2xvY2F0aW9ucy9lbi9tb2JpbGU", "@spider": "jll", "office": "estate_agent", "addr:full": "169 Dauphin Street", "addr:city": "Mobile", "addr:state": "Alabama", "addr:postcode": "36602", "name": "Mobile", "phone": "+1 251 341 1600", "website": "https://www.us.jll.com/en/locations/southeast", "brand": "JLL", "brand:wikidata": "Q1703389", "nsi_id": "jll-08bb13"}, "geometry": {"type": "Point", "coordinates": [-88.04264, 30.69138]}},
{"type": "Feature", "id": "nftmHtd-9nVKDAe1WO5xdGXDHw4=", "properties": {"ref": "L2NvbnRlbnQvZGFtL2psbC1jb20vbW9kZWxzL2xvY2F0aW9ucy9lbi9lYXN0LXJ1dGhlcmZvcmQ", "@spider": "jll", "office": "estate_agent", "addr:full": "One Meadowlands Plaza ", "addr:city": "East Rutherford", "addr:state": "New Jersey", "addr:postcode": "07073", "name": "East Rutherford", "phone": "+1 201 528 4400", "website": "https://www.us.jll.com/en/locations/northeast/new-jersey", "brand": "JLL", "brand:wikidata": "Q1703389", "nsi_id": "jll-08bb13"}, "geometry": {"type": "Point", "coordinates": [-74.078779, 40.807039]}},
{"type": "Feature", "id": "q31CE0zW27JufUbInFDk9kPKCUU=", "properties": {"ref": "L2NvbnRlbnQvZGFtL2psbC1jb20vbW9kZWxzL2xvY2F0aW9ucy9lbi9kYWxsYXMtLS1jZW50cmFsLWV4cHJlc3N3YXk", "@spider": "jll", "office": "estate_agent", "addr:full": "1101 Central Expressway", "addr:city": "Dallas", "addr:state": "Texas", "addr:postcode": "75013", "name": "Dallas | Central Expressway", "phone": "+1 888 316 3001", "website": "https://www.us.jll.com/en/locations/south/dallas", "brand": "JLL", "brand:wikidata": "Q1703389", "nsi_id": "jll-08bb13"}, "geometry": {"type": "Point", "coordinates": [-96.68335, 33.07974]}},
{"type": "Feature", "id": "4-QNcXLr8W4l8D0lVtGBRLVVT4c=", "properties": {"ref": "L2NvbnRlbnQvZGFtL2psbC1jb20vbW9kZWxzL2xvY2F0aW9ucy9lbi9vcmxhbmRvLS0tbWFpdGxhbmQ", "@spider": "jll", "office": "estate_agent", "addr:full": "400 S. Orlando Avenue", "addr:city": "Orlando", "addr:state": "Florida", "addr:postcode": "32751", "name": "Orlando | Maitland", "phone": "+1 407 982 8550", "website": "https://www.us.jll.com/en/locations/southeast/florida", "brand": "JLL", "brand:wikidata": "Q1703389", "nsi_id": "jll-08bb13"}, "geometry": {"type": "Point", "coordinates": [-81.36291, 28.62449]}},
{"type": "Feature", "id": "gytX1Xoom_ZFRKNqz2MMjnktG-M=", "properties": {"ref": "L2NvbnRlbnQvZGFtL2psbC1jb20vbW9kZWxzL2xvY2F0aW9ucy9lbi9jaW5jaW5uYXRp", "@spider": "jll", "office": "estate_agent", "addr:full": "312 Walnut Street", "addr:city": "Cincinnati", "addr:state": "Ohio", "addr:postcode": "45202", "name": "Cincinnati", "phone": "+1 513 241 4600", "website": "https://www.us.jll.com/en/locations/midwest/cincinnati", "brand": "JLL", "brand:wikidata": "Q1703389", "nsi_id": "jll-08bb13"}, "geometry": {"type": "Point", "coordinates": [-84.510629, 39.099084]}},
{"type": "Feature", "id": "cg16VxDfJjUMgTbYLWVwYfoD9Z8=", "properties": {"ref": "L2NvbnRlbnQvZGFtL2psbC1jb20vbW9kZWxzL2xvY2F0aW9ucy9lbi90eXNvbnM", "@spider": "jll", "office": "estate_agent", "addr:full": "1800 Tysons Boulevard", "addr:city": "Tysons", "addr:state": "Virginia", "addr:postcode": "22102", "name": "Tysons", "phone": "+1 703 485 8800", "website": "https://www.us.jll.com/en/locations/mid-atlantic/virginia", "brand": "JLL", "brand:wikidata": "Q1703389", "nsi_id": "jll-08bb13"}, "geometry": {"type": "Point", "coordinates": [-77.2223971, 38.9223871]}},
{"type": "Feature", "id": "Sx5vUxCBgKMb-n41wIB3J_WdkB4=", "properties": {"ref": "L2NvbnRlbnQvZGFtL2psbC1jb20vbW9kZWxzL2xvY2F0aW9ucy9lbi9waGlsYWRlbHBoaWEtbWFya2V0LXN0cmVldA", "@spider": "jll", "office": "estate_agent", "addr:full": "1700 Market Street", "addr:city": "Philadelphia", "addr:state": "Pennsylvania", "addr:postcode": "19103", "name": "Philadelphia | Market Street", "phone": "+1 484 532 4200", "website": "https://www.us.jll.com/en/locations/northeast/philadelphia", "brand": "JLL", "brand:wikidata": "Q1703389", "nsi_id": "jll-08bb13"}, "geometry": {"type": "Point", "coordinates": [-75.1690521, 39.9526482]}},
{"type": "Feature", "id": "XnOKcI5nvrNC4VFmlXdg0u5eCdQ=", "properties": {"ref": "L2NvbnRlbnQvZGFtL2psbC1jb20vbW9kZWxzL2xvY2F0aW9ucy9lbi9jaGljYWdvLS0tbydoYXJl", "@spider": "jll", "office": "estate_agent", "addr:full": "8755 West Higgins Road", "addr:city": "Chicago", "addr:state": "Illinois", "addr:postcode": "60631", "name": "Chicago | O'Hare", "phone": "+1 312 782 5800", "website": "https://www.us.jll.com/en/locations/midwest/chicago", "brand": "JLL", "brand:wikidata": "Q1703389", "nsi_id": "jll-08bb13"}, "geometry": {"type": "Point", "coordinates": [-87.8453493, 41.9857488]}},
{"type": "Feature", "id": "ybTPZxU7rn08LeB-5Z8ruvxkQ38=", "properties": {"ref": "L2NvbnRlbnQvZGFtL2psbC1jb20vbW9kZWxzL2xvY2F0aW9ucy9lbi9yb3NldmlsbGU", "@spider": "jll", "office": "estate_agent", "addr:full": "3001 Douglas Boulevard", "addr:city": "California", "addr:state": "United States", "addr:postcode": "95661", "name": "Roseville", "phone": "+1 916 787 2020", "website": "https://www.us.jll.com/en/locations/west/sacramento", "brand": "JLL", "brand:wikidata": "Q1703389", "nsi_id": "jll-08bb13"}, "geometry": {"type": "Point", "coordinates": [-121.23356, 38.7443]}},
{"type": "Feature", "id": "UddYyei9MbLW6ZAs1iFuMcT1lCU=", "properties": {"ref": "L2NvbnRlbnQvZGFtL2psbC1jb20vbW9kZWxzL2xvY2F0aW9ucy9lbi9taWx3YXVrZWU", "@spider": "jll", "office": "estate_agent", "addr:full": "250 East Wisconsin Avenue", "addr:city": "Milwaukee", "addr:state": "Wisconsin", "addr:postcode": "53202", "name": "Milwaukee", "phone": "+1 414 944 2200", "website": "https://www.us.jll.com/en/locations/midwest/milwaukee", "brand": "JLL", "brand:wikidata": "Q1703389", "nsi_id": "jll-08bb13"}, "geometry": {"type": "Point", "coordinates": [-87.908298, 43.039307]}},
{"type": "Feature", "id": "Dujb6h3I0-7FmdLpNN9xiFYAYiY=", "properties": {"ref": "L2NvbnRlbnQvZGFtL2psbC1jb20vbW9kZWxzL2xvY2F0aW9ucy9lbi9pbmRpYW5hcG9saXM", "@spider": "jll", "office": "estate_agent", "addr:full": "8900 Keystone Crossing", "addr:city": "Indianapolis", "addr:state": "Indiana", "addr:postcode": "46240", "name": "Indianapolis", "phone": "+1 317 810 7000", "website": "https://www.us.jll.com/en/locations/midwest/indianapolis", "brand": "JLL", "brand:wikidata": "Q1703389", "nsi_id": "jll-08bb13"}, "geometry": {"type": "Point", "coordinates": [-86.111012, 39.917212]}},
{"type": "Feature", "id": "Z8udx9noqn1ggBckrpLdXgfSyFM=", "properties": {"ref": "L2NvbnRlbnQvZGFtL2psbC1jb20vbW9kZWxzL2xvY2F0aW9ucy9lbi9kZW52ZXI", "@spider": "jll", "office": "estate_agent", "addr:full": "1225 17th Street", "addr:city": "Denver", "addr:state": "Colorado", "addr:postcode": "80202", "name": "Denver", "phone": "+1 303 260 6500", "website": "https://www.us.jll.com/en/locations/west/denver", "brand": "JLL", "brand:wikidata": "Q1703389", "nsi_id": "jll-08bb13"}, "geometry": {"type": "Point", "coordinates": [-104.9949696, 39.7499261]}},
{"type": "Feature", "id": "ijpFfCuycw28X4O_0lBXZ4JquFs=", "properties": {"ref": "L2NvbnRlbnQvZGFtL2psbC1jb20vbW9kZWxzL2xvY2F0aW9ucy9lbi9qbGwtZGVsaGk", "@spider": "jll", "office": "estate_agent", "addr:full": "1110 Ashoka Estate Barakhamba Road ", "addr:city": "Delhi", "addr:state": "India", "addr:postcode": "110001", "addr:country": "IN", "name": "Delhi", "phone": "+91 11 41757099, 46152736", "website": "https://www.jll.co.in/en/locations/delhi-ncr", "brand": "JLL", "brand:wikidata": "Q1703389", "nsi_id": "jll-08bb13"}, "geometry": {"type": "Point", "coordinates": [77.224809, 28.630603]}},
{"type": "Feature", "id": "d-iFVzRhVgenO_28ipGpck9I4zc=", "properties": {"ref": "L2NvbnRlbnQvZGFtL2psbC1jb20vbW9kZWxzL2xvY2F0aW9ucy9lbi9iYWx0aW1vcmUtLS1sYXNhbGxlLWludmVzdG1lbnQtbWFuYWdlbWVudA", "@spider": "jll", "office": "estate_agent", "addr:full": "100 East Pratt Street", "addr:city": "Baltimore", "addr:state": "Maryland", "addr:postcode": "21202", "name": "Baltimore | LaSalle Investment Management", "phone": "+1 410 878 4800", "website": "https://www.us.jll.com/en/locations/mid-atlantic/maryland", "brand": "JLL", "brand:wikidata": "Q1703389", "nsi_id": "jll-08bb13"}, "geometry": {"type": "Point", "coordinates": [-76.62212, 39.29455]}},
{"type": "Feature", "id": "xCd9pm8NErSCmbLeAdWbT3xqm5k=", "properties": {"ref": "L2NvbnRlbnQvZGFtL2psbC1jb20vbW9kZWxzL2xvY2F0aW9ucy9lbi9tb250cmVhbA", "@spider": "jll", "office": "estate_agent", "addr:full": "1 Place Ville Marie, Suite 3838", "addr:city": "Montr\u00e9al", "addr:state": "Canada", "addr:postcode": "H3B 2C6", "addr:country": "CA", "name": "Montreal | Centre Ville", "phone": "+1 514 849 8849", "website": "https://www.jll.ca/en/locations/montreal", "brand": "JLL", "brand:wikidata": "Q1703389", "nsi_id": "jll-08bb13"}, "geometry": {"type": "Point", "coordinates": [-73.5692036, 45.501769]}},
{"type": "Feature", "id": "b-Ndn4frRT61QE9IBaqgkc0r5n8=", "properties": {"ref": "L2NvbnRlbnQvZGFtL2psbC1jb20vbW9kZWxzL2xvY2F0aW9ucy9lbi9qbGwtYmFuZ2Fsb3Jl", "@spider": "jll", "office": "estate_agent", "addr:full": "Level 13 & 14 Prestige Khoday Towers,", "addr:city": "Bangalore", "addr:state": "India", "addr:postcode": "560001", "addr:country": "IN", "name": "Bangalore", "phone": "+91 80 7149 5678", "website": "https://www.jll.co.in/en/locations/bengaluru", "brand": "JLL", "brand:wikidata": "Q1703389", "nsi_id": "jll-08bb13"}, "geometry": {"type": "Point", "coordinates": [77.593948, 12.982525]}},
{"type": "Feature", "id": "Xr3nEVqFtUDrdfg-UbcGeoDJNks=", "properties": {"ref": "L2NvbnRlbnQvZGFtL2psbC1jb20vbW9kZWxzL2xvY2F0aW9ucy9lbi9zaWxpY29uLXZhbGxleQ", "@spider": "jll", "office": "estate_agent", "addr:full": "4085 Campbell Avenue", "addr:city": "Silicon Valley", "addr:state": "California", "addr:postcode": "94025", "name": "Silicon Valley", "phone": "+1 650 480 2200", "website": "https://www.us.jll.com/en/locations/west/san-francisco", "brand": "JLL", "brand:wikidata": "Q1703389", "nsi_id": "jll-08bb13"}, "geometry": {"type": "Point", "coordinates": [122.181225, 37.481638]}},
{"type": "Feature", "id": "v-d_mOUYadWNLile-GRLWqQzo98=", "properties": {"ref": "L2NvbnRlbnQvZGFtL2psbC1jb20vbW9kZWxzL2xvY2F0aW9ucy9lbi9iZXJ3eW4", "@spider": "jll", "office": "estate_agent", "addr:full": "1235 Westlakes Dr ", "addr:city": "Philadelphia", "addr:state": "Pennsylvania", "addr:postcode": "19312", "name": "Berwyn", "phone": "+1 610 249 2255", "website": "https://www.us.jll.com/en/locations/northeast/philadelphia", "brand": "JLL", "brand:wikidata": "Q1703389", "nsi_id": "jll-08bb13"}, "geometry": {"type": "Point", "coordinates": [-75.47156, 40.06361]}},
{"type": "Feature", "id": "bj4gX8GxZ0mXVTZ-y9IMjS_w1rQ=", "properties": {"ref": "L2NvbnRlbnQvZGFtL2psbC1jb20vbW9kZWxzL2xvY2F0aW9ucy9lbi9taWFtaQ", "@spider": "jll", "office": "estate_agent", "addr:full": "200 S. Biscayne Blvd.", "addr:city": "Miami", "addr:state": "Florida", "addr:postcode": "33131", "name": "Miami", "phone": "+1 305-728-3699", "website": "https://www.us.jll.com/en/locations/southeast/florida", "brand": "JLL", "brand:wikidata": "Q1703389", "nsi_id": "jll-08bb13"}, "geometry": {"type": "Point", "coordinates": [-80.187925, 25.772205]}},
{"type": "Feature", "id": "6R96_8lGUM9yH20TzjkipIZRUJo=", "properties": {"ref": "L2NvbnRlbnQvZGFtL2psbC1jb20vbW9kZWxzL2xvY2F0aW9ucy9lbi9jaGFybG90dGUtLS1wYXJrLXJvYWQ", "@spider": "jll", "office": "estate_agent", "addr:full": "4600 Park Road, Suite 350", "addr:city": "Charlotte", "addr:state": "North Carolina", "addr:postcode": "28202", "name": "Charlotte | Healthcare Planning Solutions", "phone": "+1 980-365-8985", "website": "https://www.us.jll.com/en/locations/southeast/carolinas", "brand": "JLL", "brand:wikidata": "Q1703389", "nsi_id": "jll-08bb13"}, "geometry": {"type": "Point", "coordinates": [-80.851302, 35.16827]}},
{"type": "Feature", "id": "MBKprM_nia8BK75yrzSGi2WAk-U=", "properties": {"ref": "L2NvbnRlbnQvZGFtL2psbC1jb20vbW9kZWxzL2xvY2F0aW9ucy9lbi9vdmVybGFuZC1wYXJr", "@spider": "jll", "office": "estate_agent", "addr:full": "7500 College Blvd.", "addr:city": "Kansas City", "addr:state": "Kansas", "addr:postcode": "66210", "name": "Kansas City", "phone": "+1 913 469 4600", "website": "https://www.us.jll.com/en/locations/midwest/kansas-city", "brand": "JLL", "brand:wikidata": "Q1703389", "nsi_id": "jll-08bb13"}, "geometry": {"type": "Point", "coordinates": [-94.673218, 38.929241]}},
{"type": "Feature", "id": "Djg8RyFbJDFAvapFqxQLAb8BFO0=", "properties": {"ref": "L2NvbnRlbnQvZGFtL2psbC1jb20vbW9kZWxzL2xvY2F0aW9ucy9lbi90ZW1wZQ", "@spider": "jll", "office": "estate_agent", "addr:full": "51 W. 3rd Street", "addr:city": "Tempe", "addr:state": "Arizona", "addr:postcode": "85281", "name": "Tempe", "phone": "+1 480 626 6304", "website": "https://www.us.jll.com/en/locations/west/phoenix", "brand": "JLL", "brand:wikidata": "Q1703389", "nsi_id": "jll-08bb13"}, "geometry": {"type": "Point", "coordinates": [-111.94093, 33.42689]}},
{"type": "Feature", "id": "ZsKGwHNPzBuvrl5by4KS4TsLFC4=", "properties": {"ref": "L2NvbnRlbnQvZGFtL2psbC1jb20vbW9kZWxzL2xvY2F0aW9ucy9lbi9ib3N0b24", "@spider": "jll", "office": "estate_agent", "addr:full": "One Post Office Square ", "addr:city": "Boston", "addr:state": "Massachusetts", "addr:postcode": "02109", "name": "Boston", "phone": "+1 617 531 4100", "website": "https://www.us.jll.com/en/locations/northeast/boston", "brand": "JLL", "brand:wikidata": "Q1703389", "nsi_id": "jll-08bb13"}, "geometry": {"type": "Point", "coordinates": [-71.054278, 42.356667]}},
{"type": "Feature", "id": "plNRfz-y08jXEX4Dak6MGO0iaRg=", "properties": {"ref": "L2NvbnRlbnQvZGFtL2psbC1jb20vbW9kZWxzL2xvY2F0aW9ucy9lbi9uYXNodmlsbGU", "@spider": "jll", "office": "estate_agent", "addr:full": "1801 West End Avenue", "addr:city": "Nashville", "addr:state": "Tennessee", "addr:postcode": "37203", "name": "Nashville", "phone": "+1 615 928 5300", "website": "/en/locations/southeast/nashville", "brand": "JLL", "brand:wikidata": "Q1703389", "nsi_id": "jll-08bb13"}, "geometry": {"type": "Point", "coordinates": [-86.796126, 36.152622]}},
{"type": "Feature", "id": "faJNUe4cLBrCLWfs9pokQOv2DOs=", "properties": {"ref": "L2NvbnRlbnQvZGFtL2psbC1jb20vbW9kZWxzL2xvY2F0aW9ucy9lbi9jb2x1bWJ1cy0tLWJpZy1yZWQtcm9vc3Rlci1oZWFkcXVhcnRlcnM", "@spider": "jll", "office": "estate_agent", "addr:full": "121 East Thurman Avenue  ", "addr:city": "Columbus", "addr:state": "Ohio", "addr:postcode": "43206", "name": "Columbus | Big Red Rooster Headquarters", "phone": "+1 312 228 3103", "website": "https://www.us.jll.com/en/locations/midwest/columbus", "brand": "JLL", "brand:wikidata": "Q1703389", "nsi_id": "jll-08bb13"}, "geometry": {"type": "Point", "coordinates": [-82.99321, 39.93952]}},
{"type": "Feature", "id": "HPWf8BU10BisKH31vWtpYGtwQ7I=", "properties": {"ref": "L2NvbnRlbnQvZGFtL2psbC1jb20vbW9kZWxzL2xvY2F0aW9ucy9lbi9kb3VnbGFzLWF2ZW51ZS1hbmQtdmljdG9yeS1wYXJr", "@spider": "jll", "office": "estate_agent", "addr:full": "2401 Cedar Springs\u00ad Road  ", "addr:city": "Dallas", "addr:state": "Texas", "addr:postcode": "75201\u20111407", "name": "Dallas | Cedar Springs Road ", "phone": "+1 214 265 0880", "website": "https://www.us.jll.com/en/locations/south/dallas", "brand": "JLL", "brand:wikidata": "Q1703389", "nsi_id": "jll-08bb13"}, "geometry": {"type": "Point", "coordinates": [-96.71488, 32.9747]}},
{"type": "Feature", "id": "di3czGWu-pd4dk1ubYjsj4FCfPA=", "properties": {"ref": "L2NvbnRlbnQvZGFtL2psbC1jb20vbW9kZWxzL2xvY2F0aW9ucy9lbi9rZW55YQ", "@spider": "jll", "office": "estate_agent", "addr:full": "Sanlam Tower 4thFloor", "addr:city": "Saudi Arabia", "addr:state": "MENA", "addr:postcode": "00800", "name": "Kenya", "phone": "+254 709 324 324", "website": "/en/locations/kenya", "brand": "JLL", "brand:wikidata": "Q1703389", "nsi_id": "jll-08bb13"}, "geometry": {"type": "Point", "coordinates": [36.7997553, -1.265941]}},
{"type": "Feature", "id": "Nw2q2R9pIPhQ7ykDFkgHQbQzlTk=", "properties": {"ref": "L2NvbnRlbnQvZGFtL2psbC1jb20vbW9kZWxzL2xvY2F0aW9ucy9lbi9qbGwtYnJpc2JhbmU", "@spider": "jll", "office": "estate_agent", "addr:full": "Yuggera and Turrbal Country", "addr:city": "Brisbane", "addr:state": "Australia", "addr:postcode": "QLD 4000", "addr:country": "AU", "name": "Brisbane", "phone": "+61 7 3231 1311", "website": "https://www.jll.com.au/en/locations/brisbane-real-estate-market", "brand": "JLL", "brand:wikidata": "Q1703389", "nsi_id": "jll-08bb13"}, "geometry": {"type": "Point", "coordinates": [153.029155, -27.46686]}},
{"type": "Feature", "id": "0R_CSCtzzJqHYikviVYS7btJY4Q=", "properties": {"ref": "L2NvbnRlbnQvZGFtL2psbC1jb20vbW9kZWxzL2xvY2F0aW9ucy9lbi9kYXJ3aW4", "@spider": "jll", "office": "estate_agent", "addr:full": "Larrakia Country", "addr:city": "Darwin", "addr:state": "Australia", "addr:postcode": "NT 0828 ", "addr:country": "AU", "name": "Darwin", "phone": "+61 8 7999 7420", "website": "https://www.jll.com.au/en/locations/darwin-real-estate-market", "brand": "JLL", "brand:wikidata": "Q1703389", "nsi_id": "jll-08bb13"}, "geometry": {"type": "Point", "coordinates": [130.91275, -12.42942]}},
{"type": "Feature", "id": "VOZsy8OJi4gbQg8pUgX_oD-h-dU=", "properties": {"ref": "L2NvbnRlbnQvZGFtL2psbC1jb20vbW9kZWxzL2xvY2F0aW9ucy9lbi9kdWJsaW4tb2hpbw", "@spider": "jll", "office": "estate_agent", "addr:full": "6209 Riverside Drive", "addr:city": "Columbus", "addr:state": "Ohio", "addr:postcode": "43017", "name": "Columbus | Dublin", "phone": "+1 614 437 0284", "website": "https://www.us.jll.com/en/locations/midwest/columbus", "brand": "JLL", "brand:wikidata": "Q1703389", "nsi_id": "jll-08bb13"}, "geometry": {"type": "Point", "coordinates": [-83.10886, 40.093]}},
{"type": "Feature", "id": "asQCOPKF4gt7Q0lMmMce49MEVDo=", "properties": {"ref": "L2NvbnRlbnQvZGFtL2psbC1jb20vbW9kZWxzL2xvY2F0aW9ucy9lbi9waG9lbml4LS1iaWx0bW9yZS1jZW50ZXI", "@spider": "jll", "office": "estate_agent", "addr:full": "2398 E. Camelback Road", "addr:postcode": "85016", "name": "Phoenix | Biltmore Center", "phone": "+1 602 648 8700", "website": "https://www.us.jll.com/en/locations/west/phoenix", "brand": "JLL", "brand:wikidata": "Q1703389", "nsi_id": "jll-08bb13"}, "geometry": {"type": "Point", "coordinates": [-112.0287788, 33.5080601]}},
{"type": "Feature", "id": "kBw1WXoMjE5d3tl6ZlyVv4XUdL8=", "properties": {"ref": "L2NvbnRlbnQvZGFtL2psbC1jb20vbW9kZWxzL2xvY2F0aW9ucy9lbi9vbnRhcmlvLS0taW5sYW5kLWVtcGlyZQ", "@spider": "jll", "office": "estate_agent", "addr:full": "3281 East Guasti Road", "addr:city": "Los Angeles", "addr:state": "California", "addr:postcode": "91761", "name": "Ontario | Inland Empire", "phone": "+1 909 467 6850", "website": "https://www.us.jll.com/en/locations/west/los-angeles", "brand": "JLL", "brand:wikidata": "Q1703389", "nsi_id": "jll-08bb13"}, "geometry": {"type": "Point", "coordinates": [-117.579119, 34.065289]}},
{"type": "Feature", "id": "19z8CmtssA0c4n2VKnl0eCT7Qr8=", "properties": {"ref": "L2NvbnRlbnQvZGFtL2psbC1jb20vbW9kZWxzL2xvY2F0aW9ucy9lbi9yYWxlaWdo", "@spider": "jll", "office": "estate_agent", "addr:full": "4509 Creedmoor Road ", "addr:city": "Raleigh", "addr:state": "North Carolina", "addr:postcode": "27612", "name": "Raleigh", "phone": "+1 919 851 9111 ", "website": "https://www.us.jll.com/en/locations/southeast/raleigh", "brand": "JLL", "brand:wikidata": "Q1703389", "nsi_id": "jll-08bb13"}, "geometry": {"type": "Point", "coordinates": [-78.683262, 35.842444]}},
{"type": "Feature", "id": "zwiB6iOi7be8NcsxdKilti9T8JU=", "properties": {"ref": "L2NvbnRlbnQvZGFtL2psbC1jb20vbW9kZWxzL2xvY2F0aW9ucy9lbi9waGlsYWRlbHBoaWE", "@spider": "jll", "office": "estate_agent", "addr:full": "1650 Arch Street", "addr:city": "Philadelphia", "addr:state": "Pennsylvania", "addr:postcode": "19103", "name": "Philadelphia", "phone": "+1 215 988 5500", "website": "https://www.us.jll.com/en/locations/northeast/philadelphia", "brand": "JLL", "brand:wikidata": "Q1703389", "nsi_id": "jll-08bb13"}, "geometry": {"type": "Point", "coordinates": [-75.17114, 39.9554]}},
{"type": "Feature", "id": "67uf7yBi3zrTHGR--o8_ZAJLihI=", "properties": {"ref": "L2NvbnRlbnQvZGFtL2psbC1jb20vbW9kZWxzL2xvY2F0aW9ucy9lbi9zYW4tZnJhbmNpc2NvLS0tb25lLWZyb250LXN0cmVldA", "@spider": "jll", "office": "estate_agent", "addr:full": "One Front Street", "addr:city": "San Francisco", "addr:state": "California", "addr:postcode": "94111", "name": "San Francisco | One Front Street", "phone": "+1 415 395 4900", "website": "https://www.us.jll.com/en/locations/west/san-francisco", "brand": "JLL", "brand:wikidata": "Q1703389", "nsi_id": "jll-08bb13"}, "geometry": {"type": "Point", "coordinates": [-122.399017, 37.791816]}},
{"type": "Feature", "id": "QruCbgJPwtbBZy1HZu8R3oC0pmM=", "properties": {"ref": "L2NvbnRlbnQvZGFtL2psbC1jb20vbW9kZWxzL2xvY2F0aW9ucy9lbi9zYW4tcmFmYWVs", "@spider": "jll", "office": "estate_agent", "addr:full": "1000 Fourth Street", "addr:city": "San Rafael", "addr:state": "California", "addr:postcode": "94901", "name": "San Rafael", "phone": "+1 415 451 4700", "website": "https://www.us.jll.com/en/locations/west/oakland-and-east-bay", "brand": "JLL", "brand:wikidata": "Q1703389", "nsi_id": "jll-08bb13"}, "geometry": {"type": "Point", "coordinates": [-122.527596, 37.973384]}},
{"type": "Feature", "id": "yfj3Xn4wbocXpXJ72OjsW-GXDIQ=", "properties": {"ref": "L2NvbnRlbnQvZGFtL2psbC1jb20vbW9kZWxzL2xvY2F0aW9ucy9lbi9jaGFybGVzdG9u", "@spider": "jll", "office": "estate_agent", "addr:full": "701 East Bay Street", "addr:city": "United States", "addr:state": "Americas", "addr:postcode": "29403", "name": "JLL Charleston", "phone": "+1 843 805 5105", "website": "https://www.us.jll.com/en/locations/southeast/carolinas", "brand": "JLL", "brand:wikidata": "Q1703389", "nsi_id": "jll-08bb13"}, "geometry": {"type": "Point", "coordinates": [-79.934793, 32.797665]}},
{"type": "Feature", "id": "fPNAwepM1uHcedrMaeV5CMmoTqM=", "properties": {"ref": "L2NvbnRlbnQvZGFtL2psbC1jb20vbW9kZWxzL2xvY2F0aW9ucy9lbi9vcmxhbmRvLS0tc291dGgtb3JhbmdlLWF2ZW51ZQ", "@spider": "jll", "office": "estate_agent", "addr:full": "250 South Orange Avenue", "addr:city": "Orlando", "addr:state": "Florida", "addr:postcode": "32801", "name": "Orlando | South Orange Avenue", "phone": "+1 407 982 8550", "website": "https://www.us.jll.com/en/locations/southeast/florida", "brand": "JLL", "brand:wikidata": "Q1703389", "nsi_id": "jll-08bb13"}, "geometry": {"type": "Point", "coordinates": [-81.379682, 28.539325]}},
{"type": "Feature", "id": "HSZJacuhIpHqKNWln2dj3xm3vG0=", "properties": {"ref": "L2NvbnRlbnQvZGFtL2psbC1jb20vbW9kZWxzL2xvY2F0aW9ucy9lbi9qYWthcnRh", "@spider": "jll", "office": "estate_agent", "addr:full": "Indonesia Stock Exchange Building Tower 2", "addr:city": "Jakarta", "addr:state": "Indonesia", "addr:postcode": "12190", "addr:country": "ID", "name": "JLL Indonesia", "phone": "+62 21 2922 3888", "website": "https://www.jll.co.id/en/locations/jakarta", "brand": "JLL", "brand:wikidata": "Q1703389", "nsi_id": "jll-08bb13"}, "geometry": {"type": "Point", "coordinates": [106.808352, -6.223501]}},
{"type": "Feature", "id": "6mQQLeDRrnZ5Hd9p4sQuX6DvsPs=", "properties": {"ref": "L2NvbnRlbnQvZGFtL2psbC1jb20vbW9kZWxzL2xvY2F0aW9ucy9lbi9jYWxnYXJ5", "@spider": "jll", "office": "estate_agent", "addr:full": "Bankers Hall East", "addr:city": "Calgary", "addr:state": "Canada", "addr:postcode": "T2P 4J8", "addr:country": "CA", "name": "Calgary", "phone": "+1 403 456 2104", "website": "https://www.jll.ca/en/locations/calgary", "brand": "JLL", "brand:wikidata": "Q1703389", "nsi_id": "jll-08bb13"}, "geometry": {"type": "Point", "coordinates": [-114.068543, 51.045264]}},
{"type": "Feature", "id": "_1jog5TPb13lsavX1k6pnpGNOmI=", "properties": {"ref": "L2NvbnRlbnQvZGFtL2psbC1jb20vbW9kZWxzL2xvY2F0aW9ucy9lbi9zaGVuemhlbg", "@spider": "jll", "office": "estate_agent", "addr:full": "19/F, Tower Three, Kerry Plaza", "addr:city": "China", "addr:state": "Asia Pacific", "addr:country": "CN", "name": "Shenzhen", "phone": "+86 755 8826 6608", "website": "https://www.joneslanglasalle.com.cn/en/locations/shenzhen", "brand": "JLL", "brand:wikidata": "Q1703389", "nsi_id": "jll-08bb13"}, "geometry": {"type": "Point", "coordinates": [114.063557, 22.540965]}},
{"type": "Feature", "id": "UruC3eV_1uOLRuVWs0ECX_jmUXc=", "properties": {"ref": "L2NvbnRlbnQvZGFtL2psbC1jb20vbW9kZWxzL2xvY2F0aW9ucy9lbi9jaGVuZ2R1", "@spider": "jll", "office": "estate_agent", "addr:full": "29/F, Tower 1, Chengdu International Finance Square", "addr:city": "China", "addr:state": "Asia Pacific", "addr:country": "CN", "name": "Chengdu", "phone": "+86 28 6680 5000", "website": "https://www.joneslanglasalle.com.cn/en/locations/chengdu", "brand": "JLL", "brand:wikidata": "Q1703389", "nsi_id": "jll-08bb13"}, "geometry": {"type": "Point", "coordinates": [104.0817, 30.656118]}},
{"type": "Feature", "id": "4a-4KhQpRmvbgJ9Hdf6cvRWbHow=", "properties": {"ref": "L2NvbnRlbnQvZGFtL2psbC1jb20vbW9kZWxzL2xvY2F0aW9ucy9lbi9tZW1waGlz", "@spider": "jll", "office": "estate_agent", "addr:full": "6410 Poplar Avenue", "addr:city": "Memphis", "addr:state": "Tennessee", "addr:postcode": "38119", "name": "Memphis", "phone": "+1 901 261 2600", "website": "https://www.us.jll.com/en/locations/southeast", "brand": "JLL", "brand:wikidata": "Q1703389", "nsi_id": "jll-08bb13"}, "geometry": {"type": "Point", "coordinates": [-89.849707, 35.101409]}},
{"type": "Feature", "id": "0P1t2QP7gFeh-bBIwINuTGifex0=", "properties": {"ref": "L2NvbnRlbnQvZGFtL2psbC1jb20vbW9kZWxzL2xvY2F0aW9ucy9lbi94aSdhbg", "@spider": "jll", "office": "estate_agent", "addr:full": "Unit 2202-03, CapitaMall Office", "addr:city": "China", "addr:state": "Asia Pacific", "addr:country": "CN", "name": "Xi'an ", "phone": "+86 29 8932 9800", "website": "https://www.joneslanglasalle.com.cn/en/locations/xian", "brand": "JLL", "brand:wikidata": "Q1703389", "nsi_id": "jll-08bb13"}, "geometry": {"type": "Point", "coordinates": [108.935854, 34.228437]}},
{"type": "Feature", "id": "k6-OChbpcmarexChqAt6W_WvM8g=", "properties": {"ref": "L2NvbnRlbnQvZGFtL2psbC1jb20vbW9kZWxzL2xvY2F0aW9ucy9lbi9zaGFuZ2hhaQ", "@spider": "jll", "office": "estate_agent", "addr:full": "22/F, HKRI Centre One, HKRI Taikoo Hui", "addr:city": "China", "addr:state": "Asia Pacific", "addr:country": "CN", "name": "Shanghai", "phone": "+86 21 6393 3333 ", "website": "https://www.joneslanglasalle.com.cn/en/locations/shanghai", "brand": "JLL", "brand:wikidata": "Q1703389", "nsi_id": "jll-08bb13"}, "geometry": {"type": "Point", "coordinates": [121.464321, 31.228525]}},
{"type": "Feature", "id": "9IzNKkWcY8kCMSY727k2IK4jo7Q=", "properties": {"ref": "L2NvbnRlbnQvZGFtL2psbC1jb20vbW9kZWxzL2xvY2F0aW9ucy9lbi9jaGljYWdvLS0tYW1lcmljYXMtaGVhZHF1YXJ0ZXJz", "@spider": "jll", "office": "estate_agent", "addr:full": "200 East Randolph Drive  ", "addr:city": "Chicago", "addr:state": "Illinois", "addr:postcode": "60601", "name": "Chicago | Americas Headquarters", "phone": "+1 312 782 5800", "website": "https://www.us.jll.com/en/locations/midwest/chicago", "brand": "JLL", "brand:wikidata": "Q1703389", "nsi_id": "jll-08bb13"}, "geometry": {"type": "Point", "coordinates": [-87.62296, 41.88438]}},
{"type": "Feature", "id": "kTZZTIKpxI0W1IuT_idutEraABM=", "properties": {"ref": "L2NvbnRlbnQvZGFtL2psbC1jb20vbW9kZWxzL2xvY2F0aW9ucy9lbi9jaGFybG90dGUtdHJ5b24tc3RyZWV0", "@spider": "jll", "office": "estate_agent", "addr:full": "650 S Tryon Street, Suite 600", "addr:city": "Charlotte", "addr:state": "North Carolina", "addr:postcode": "28202", "name": "Charlotte | Tryon Street", "phone": "+1 704 943 2300", "website": "https://www.us.jll.com/en/locations/southeast/carolinas", "brand": "JLL", "brand:wikidata": "Q1703389", "nsi_id": "jll-08bb13"}, "geometry": {"type": "Point", "coordinates": [-80.8416951, 35.2287943]}},
{"type": "Feature", "id": "VHDeEzI3ZIogzRRDgmVKrwgFg7E=", "properties": {"ref": "L2NvbnRlbnQvZGFtL2psbC1jb20vbW9kZWxzL2xvY2F0aW9ucy9lbi9ncmFuZC1yYXBpZHM", "@spider": "jll", "office": "estate_agent", "addr:full": "15 Ionia Avenue", "addr:city": "Grand Rapids", "addr:state": "Michigan", "addr:postcode": "49503", "name": "Grand Rapids", "phone": "+1 616 649 3552 ", "website": "https://www.us.jll.com/en/locations/midwest/grand-rapids", "brand": "JLL", "brand:wikidata": "Q1703389", "nsi_id": "jll-08bb13"}, "geometry": {"type": "Point", "coordinates": [-85.670549, 42.96263]}},
{"type": "Feature", "id": "RJwqu_KuO_CnLIa7Ut_XC0fGA4Y=", "properties": {"ref": "L2NvbnRlbnQvZGFtL2psbC1jb20vbW9kZWxzL2xvY2F0aW9ucy9lbi9zdC0tbG91aXM", "@spider": "jll", "office": "estate_agent", "addr:full": "211 North Broadway", "addr:city": "St. Louis", "addr:state": "Missouri", "addr:postcode": "63102", "name": "St. Louis", "phone": "+1 314 338 2080", "website": "https://www.us.jll.com/en/locations/midwest/st-louis", "brand": "JLL", "brand:wikidata": "Q1703389", "nsi_id": "jll-08bb13"}, "geometry": {"type": "Point", "coordinates": [-90.189817, 38.627506]}},
{"type": "Feature", "id": "t7thFXaT9LhpA1pSnBY1txHsQ0w=", "properties": {"ref": "L2NvbnRlbnQvZGFtL2psbC1jb20vbW9kZWxzL2xvY2F0aW9ucy9lbi9pc2VsaW4", "@spider": "jll", "office": "estate_agent", "addr:full": "101 Wood Avenue South  ", "addr:city": "Iselin", "addr:state": "New Jersey", "addr:postcode": "08830", "name": "Iselin", "phone": "+1 732 590 3300", "website": "https://www.us.jll.com/en/locations/northeast/new-jersey", "brand": "JLL", "brand:wikidata": "Q1703389", "nsi_id": "jll-08bb13"}, "geometry": {"type": "Point", "coordinates": [-74.3274, 40.562649]}},
{"type": "Feature", "id": "TbqvFHGgX3-mIe34qAsz4KAxAGo=", "properties": {"ref": "L2NvbnRlbnQvZGFtL2psbC1jb20vbW9kZWxzL2xvY2F0aW9ucy9lbi9hdXN0aW4", "@spider": "jll", "office": "estate_agent", "addr:full": "1703 West 5th Street", "addr:city": "Austin", "addr:state": "Texas", "addr:postcode": "78703", "name": "Austin", "phone": "+1 512 225 2700", "website": "https://www.us.jll.com/en/locations/south/austin", "brand": "JLL", "brand:wikidata": "Q1703389", "nsi_id": "jll-08bb13"}, "geometry": {"type": "Point", "coordinates": [-97.765201, 30.274174]}},
{"type": "Feature", "id": "rMqgCTk3B6GpWlKBeP56thV8KOo=", "properties": {"ref": "L2NvbnRlbnQvZGFtL2psbC1jb20vbW9kZWxzL2xvY2F0aW9ucy9lbi9qbGwtbWlhbWktaG90ZWxz", "@spider": "jll", "office": "estate_agent", "addr:full": "2333 Ponce de Leon Boulevard", "addr:city": "Miami", "addr:state": "Florida", "addr:postcode": "33134", "name": "JLL Miami Hotels", "phone": "+1 305 529 6345", "website": "https://www.us.jll.com/en/locations/southeast/florida", "brand": "JLL", "brand:wikidata": "Q1703389", "nsi_id": "jll-08bb13"}, "geometry": {"type": "Point", "coordinates": [-80.25857, 25.75048]}},
{"type": "Feature", "id": "RSLGoPQ7JwdBxOIv3RbDN4UfSl4=", "properties": {"ref": "L2NvbnRlbnQvZGFtL2psbC1jb20vbW9kZWxzL2xvY2F0aW9ucy9lbi90YW1wYQ", "@spider": "jll", "office": "estate_agent", "addr:full": "401 East Jackson Street", "addr:city": "Tampa", "addr:state": "Florida", "addr:postcode": "33602", "name": "Tampa", "phone": "+1 813 830 6535", "website": "https://www.us.jll.com/en/locations/southeast/florida", "brand": "JLL", "brand:wikidata": "Q1703389", "nsi_id": "jll-08bb13"}, "geometry": {"type": "Point", "coordinates": [-82.456189, 27.947026]}},
{"type": "Feature", "id": "5Gw6Oe_LOqPhLaf-ehnYJ2opF0Y=", "properties": {"ref": "L2NvbnRlbnQvZGFtL2psbC1jb20vbW9kZWxzL2xvY2F0aW9ucy9lbi9sb3MtYW5nZWxlcy0tLWxhc2FsbGUtaW52ZXN0bWVudC1tYW5hZ2VtZW50", "@spider": "jll", "office": "estate_agent", "addr:full": "2141 Rosecrans Avenue", "addr:city": "Los Angeles", "addr:state": "California", "addr:postcode": "90245", "name": "South Bay | LaSalle Investment Management", "phone": "+1 424 294 3400", "website": "https://www.us.jll.com/en/locations/west/los-angeles", "brand": "JLL", "brand:wikidata": "Q1703389", "nsi_id": "jll-08bb13"}, "geometry": {"type": "Point", "coordinates": [-118.386848, 33.902031]}},
{"type": "Feature", "id": "m08u0sjpTaluIzIsTUJvstwRXa8=", "properties": {"ref": "L2NvbnRlbnQvZGFtL2psbC1jb20vbW9kZWxzL2xvY2F0aW9ucy9lbi9uZXcteW9yay1jaXR5LS0tbGFzYWxsZS1pbnZlc3RtZW50LW1hbmFnZW1lbnQ", "@spider": "jll", "office": "estate_agent", "addr:full": "330 Madison Avenue", "addr:city": "New York City", "addr:state": "New York", "addr:postcode": "10017", "name": "New York City | LaSalle Investment Management", "phone": "+1 212 812 5700", "website": "https://www.us.jll.com/en/locations/northeast/new-york", "brand": "JLL", "brand:wikidata": "Q1703389", "nsi_id": "jll-08bb13"}, "geometry": {"type": "Point", "coordinates": [-73.97943, 40.75333]}},
{"type": "Feature", "id": "yOV072NuG0ayNrQaWLv-ubF45YM=", "properties": {"ref": "L2NvbnRlbnQvZGFtL2psbC1jb20vbW9kZWxzL2xvY2F0aW9ucy9lbi9hdGxhbnRhLS0tbGFzYWxsZS1pbnZlc3RtZW50LW1hbmFnZW1lbnQ", "@spider": "jll", "office": "estate_agent", "addr:full": "3344 Peachtree Road Ne", "addr:city": "Atlanta", "addr:state": "Georgia", "addr:postcode": "30326", "name": "Atlanta | LaSalle Investment Management", "phone": "+1 404 995 2100", "website": "https://www.us.jll.com/en/locations/southeast/atlanta", "brand": "JLL", "brand:wikidata": "Q1703389", "nsi_id": "jll-08bb13"}, "geometry": {"type": "Point", "coordinates": [-84.368783, 33.847142]}},
{"type": "Feature", "id": "hNJ8z7HDknQGUwWfrFyVl4SZcP8=", "properties": {"ref": "L2NvbnRlbnQvZGFtL2psbC1jb20vbW9kZWxzL2xvY2F0aW9ucy9lbi9jaGljYWdvLW5vcnRoLXJpdmVyc2lkZS1wbGF6YQ", "@spider": "jll", "office": "estate_agent", "addr:full": "150 North Riverside Plaza", "addr:city": "Chicago", "addr:state": "Illinois", "addr:postcode": "60606", "name": "Chicago | North Riverside Plaza", "phone": "+1 312 528 3650", "website": "https://www.us.jll.com/en/locations/midwest/chicago", "brand": "JLL", "brand:wikidata": "Q1703389", "nsi_id": "jll-08bb13"}, "geometry": {"type": "Point", "coordinates": [-87.6388245, 41.8842704]}},
{"type": "Feature", "id": "R2NaJyRCZL5iMZHIgQihWHocoSs=", "properties": {"ref": "L2NvbnRlbnQvZGFtL2psbC1jb20vbW9kZWxzL2xvY2F0aW9ucy9lbi9vcmxhbmRvLXNvdXRoLXBhcmstYXZlbnVl", "@spider": "jll", "office": "estate_agent", "addr:full": "250 South Park Avenue", "addr:city": "Orlando", "addr:state": "Florida", "addr:postcode": "32789", "name": "Orlando | South Park Avenue", "phone": "+1 407 745 3900", "website": "https://www.us.jll.com/en/locations/southeast/florida", "brand": "JLL", "brand:wikidata": "Q1703389", "nsi_id": "jll-08bb13"}, "geometry": {"type": "Point", "coordinates": [-81.3507119, 28.5961966]}},
{"type": "Feature", "id": "9Dp949ImOMG0YE0eRlFaEU3iJSM=", "properties": {"ref": "L2NvbnRlbnQvZGFtL2psbC1jb20vbW9kZWxzL2xvY2F0aW9ucy9lbi9qbGwtbWVsYm91cm5l", "@spider": "jll", "office": "estate_agent", "addr:full": "Wurundjeri Country", "addr:city": "Melbourne", "addr:state": "Australia", "addr:postcode": "VIC 3000", "addr:country": "AU", "name": "Melbourne", "phone": "+61 3 9672 6666", "website": "https://www.jll.com.au/en/locations/melbourne-real-estate-market", "brand": "JLL", "brand:wikidata": "Q1703389", "nsi_id": "jll-08bb13"}, "geometry": {"type": "Point", "coordinates": [144.970669, -37.814903]}},
{"type": "Feature", "id": "FvSZFzISRbcRORXSWPpcf-uWfhI=", "properties": {"ref": "L2NvbnRlbnQvZGFtL2psbC1jb20vbW9kZWxzL2xvY2F0aW9ucy9lbi9qbGwtYWRlbGFpZGU", "@spider": "jll", "office": "estate_agent", "addr:city": "Adelaide", "addr:state": "Australia", "addr:postcode": "SA 5000", "addr:country": "AU", "name": "Adelaide", "phone": "(08) 8233 8888", "website": "https://www.jll.com.au/en/locations/adelaide-real-estate-market", "brand": "JLL", "brand:wikidata": "Q1703389", "nsi_id": "jll-08bb13"}, "geometry": {"type": "Point", "coordinates": [138.60077942619634, -34.924501467815645]}},
{"type": "Feature", "id": "tljkmMFCqpvuSPPfwYYvICopAIk=", "properties": {"ref": "L2NvbnRlbnQvZGFtL2psbC1jb20vbW9kZWxzL2xvY2F0aW9ucy9lbi9wcmluY2V0b24", "@spider": "jll", "office": "estate_agent", "addr:full": "400 Alexander Park Drive", "addr:city": "New Jersey", "addr:state": "United States", "addr:postcode": "08540", "name": "Princeton", "phone": "+1 609 757 5555", "website": "/en/locations/northeast/new-jersey", "brand": "JLL", "brand:wikidata": "Q1703389", "nsi_id": "jll-08bb13"}},
{"type": "Feature", "id": "Bpl8s-TN1Ql2YuOYJO2kq3Q3fsI=", "properties": {"ref": "L2NvbnRlbnQvZGFtL2psbC1jb20vbW9kZWxzL2xvY2F0aW9ucy9lbi9qbGwtYXVja2xhbmQtb2ZmaWNl", "@spider": "jll", "office": "estate_agent", "addr:full": " Level 16, HSBC Tower, ", "addr:city": "Auckland", "addr:state": "New Zealand", "addr:postcode": "1140", "name": "JLL Auckland office", "phone": "+64 9 366 1666", "website": "/en/locations/auckland-real-estate", "brand": "JLL", "brand:wikidata": "Q1703389", "nsi_id": "jll-08bb13"}, "geometry": {"type": "Point", "coordinates": [174.76521, -36.84319]}},
{"type": "Feature", "id": "8bvEUI6U552M-hkFPbMDahwcCcg=", "properties": {"ref": "L2NvbnRlbnQvZGFtL2psbC1jb20vbW9kZWxzL2xvY2F0aW9ucy9lbi9sb3MtYW5nZWxlcy0tLXdlc3QtbG9zLWFuZ2VsZXM", "@spider": "jll", "office": "estate_agent", "addr:full": "2029 Century Park East", "addr:city": "Los Angeles", "addr:state": "California", "addr:postcode": "90067", "name": "Los Angeles | West Los Angeles", "phone": "+1 310 595 3660", "website": "https://www.us.jll.com/en/locations/west/los-angeles", "brand": "JLL", "brand:wikidata": "Q1703389", "nsi_id": "jll-08bb13"}, "geometry": {"type": "Point", "coordinates": [-118.41293, 34.05903]}},
{"type": "Feature", "id": "qp5nh0OySZ72eZGatDuirGVkCpU=", "properties": {"ref": "L2NvbnRlbnQvZGFtL2psbC1jb20vbW9kZWxzL2xvY2F0aW9ucy9lbi9hdGxhbnRhLWJ1Y2toZWFkLXRvd2Vy", "@spider": "jll", "office": "estate_agent", "addr:full": "3399 Peachtree Road, NE", "addr:city": "Atlanta", "addr:state": "Georgia", "addr:postcode": "30326", "name": "Atlanta | Buckhead Tower", "phone": "+1 404 832 8460", "website": "https://www.us.jll.com/en/locations/southeast/atlanta", "brand": "JLL", "brand:wikidata": "Q1703389", "nsi_id": "jll-08bb13"}, "geometry": {"type": "Point", "coordinates": [-84.3595487, 33.8461145]}},
{"type": "Feature", "id": "5zlte3jMuHa6dbtVSezwRoGHs-8=", "properties": {"ref": "L2NvbnRlbnQvZGFtL2psbC1jb20vbW9kZWxzL2xvY2F0aW9ucy9lbi9wYXJzaXBwYW55", "@spider": "jll", "office": "estate_agent", "addr:full": "8 Campus Drive", "addr:city": "Parsippany", "addr:state": "New Jersey", "addr:postcode": "07054", "name": "Parsippany", "phone": "+1 973 829 4800", "website": "https://www.us.jll.com/en/locations/northeast/new-jersey", "brand": "JLL", "brand:wikidata": "Q1703389", "nsi_id": "jll-08bb13"}, "geometry": {"type": "Point", "coordinates": [-74.45327, 40.84368]}},
{"type": "Feature", "id": "qvwP5ecDqaFCNIbWmV-HWuA9M9Y=", "properties": {"ref": "L2NvbnRlbnQvZGFtL2psbC1jb20vbW9kZWxzL2xvY2F0aW9ucy9lbi9zZWF0dGxl", "@spider": "jll", "office": "estate_agent", "addr:full": "601 Union Street", "addr:city": "Seattle", "addr:state": "Washington", "addr:postcode": "98101", "name": "Seattle", "phone": "+1 206 607 1700", "website": "https://www.us.jll.com/en/locations/west/seattle-bellevue", "brand": "JLL", "brand:wikidata": "Q1703389", "nsi_id": "jll-08bb13"}, "geometry": {"type": "Point", "coordinates": [-122.332159, 47.61046]}},
{"type": "Feature", "id": "IAYrvfu46hkFUj5lV3kfzHlYUxo=", "properties": {"ref": "L2NvbnRlbnQvZGFtL2psbC1jb20vbW9kZWxzL2xvY2F0aW9ucy9lbi9jb2x1bWJpYQ", "@spider": "jll", "office": "estate_agent", "addr:full": "10960 Grantchester Way", "addr:city": "Maryland", "addr:state": "United States", "addr:postcode": "21044", "name": "Columbia", "phone": "+1 410 910 7370", "website": "https://www.us.jll.com/en/locations/mid-atlantic/maryland", "brand": "JLL", "brand:wikidata": "Q1703389", "nsi_id": "jll-08bb13"}, "geometry": {"type": "Point", "coordinates": [-76.865924, 39.210655]}},
{"type": "Feature", "id": "php0xxtciPqVQvKrR740NsvnEpw=", "properties": {"ref": "L2NvbnRlbnQvZGFtL2psbC1jb20vbW9kZWxzL2xvY2F0aW9ucy9lbi9taWFtaS1icmlja2VsbC1hdmVudWU", "@spider": "jll", "office": "estate_agent", "addr:full": "1450 Brickell Avenue", "addr:city": "Miami", "addr:state": "Florida", "addr:postcode": "33131", "name": "Miami | Brickell Avenue", "phone": "+1 305 448 1333", "website": "https://www.us.jll.com/en/locations/southeast/florida", "brand": "JLL", "brand:wikidata": "Q1703389", "nsi_id": "jll-08bb13"}, "geometry": {"type": "Point", "coordinates": [80.1931305, 25.758667]}},
{"type": "Feature", "id": "yxG87UsjMQoCaYDO1lRRg4cF_qw=", "properties": {"ref": "L2NvbnRlbnQvZGFtL2psbC1jb20vbW9kZWxzL2xvY2F0aW9ucy9lbi9hbHBoYXJldHRh", "@spider": "jll", "office": "estate_agent", "addr:full": "6365 Halycon Way, Ste 970", "addr:city": "Atlanta", "addr:state": "Georgia", "addr:postcode": "30005", "name": "Atlanta | Alpharetta Office", "phone": "+1 678 226 5240", "website": "https://www.us.jll.com/en/locations/southeast/atlanta", "brand": "JLL", "brand:wikidata": "Q1703389", "nsi_id": "jll-08bb13"}, "geometry": {"type": "Point", "coordinates": [-84.223596, 34.111535]}},
{"type": "Feature", "id": "PiGOgV9PoS_hw2l9N3wOT-5kwb4=", "properties": {"ref": "L2NvbnRlbnQvZGFtL2psbC1jb20vbW9kZWxzL2xvY2F0aW9ucy9lbi9mb3J0LXdvcnRo", "@spider": "jll", "office": "estate_agent", "addr:full": "201 Main Street", "addr:city": "Fort Worth", "addr:state": "Texas", "addr:postcode": "76102", "name": "Dallas | Fort Worth", "phone": "+1 817 334 8100", "website": "https://www.us.jll.com/en/locations/south/fort-worth", "brand": "JLL", "brand:wikidata": "Q1703389", "nsi_id": "jll-08bb13"}, "geometry": {"type": "Point", "coordinates": [-97.33194, 32.75616]}},
{"type": "Feature", "id": "LAh0DZ0S3mcBN7sAwyH7hSjY1ok=", "properties": {"ref": "L2NvbnRlbnQvZGFtL2psbC1jb20vbW9kZWxzL2xvY2F0aW9ucy9lbi9kZXRyb2l0", "@spider": "jll", "office": "estate_agent", "addr:full": "226 East Hudson Avenue", "addr:city": "Detroit", "addr:state": "Michigan", "addr:postcode": "48067", "name": "Detroit", "phone": "+1 248 581 3300", "website": "https://www.us.jll.com/en/locations/midwest/detroit", "brand": "JLL", "brand:wikidata": "Q1703389", "nsi_id": "jll-08bb13"}, "geometry": {"type": "Point", "coordinates": [-83.141762, 42.481312]}},
{"type": "Feature", "id": "Y--TlA1UamsZN-AVZmWxolW_MeA=", "properties": {"ref": "L2NvbnRlbnQvZGFtL2psbC1jb20vbW9kZWxzL2xvY2F0aW9ucy9lbi9yaWNobW9uZA", "@spider": "jll", "office": "estate_agent", "addr:full": "2912 W. Leigh Street", "addr:city": "Richmond", "addr:state": "Virginia", "addr:postcode": "23230", "name": "Richmond", "phone": "+1 804 200 6415", "website": "https://www.us.jll.com/en/locations/mid-atlantic/virginia", "brand": "JLL", "brand:wikidata": "Q1703389", "nsi_id": "jll-08bb13"}, "geometry": {"type": "Point", "coordinates": [-77.469386, 37.566387]}},
{"type": "Feature", "id": "Y15qIULncXRRyvXElSGlJd9NCKk=", "properties": {"ref": "L2NvbnRlbnQvZGFtL2psbC1jb20vbW9kZWxzL2xvY2F0aW9ucy9lbi9qbGwtd2VsbGluZ3Rvbg", "@spider": "jll", "office": "estate_agent", "addr:full": "Generator, 30 Waring Taylor Street", "addr:city": "Wellington", "addr:state": "New Zealand", "addr:postcode": "6143", "addr:country": "NZ", "name": "Wellington", "phone": "+64 4 499 1666", "website": "https://www.jll.nz/en/locations/wellington-real-estate", "brand": "JLL", "brand:wikidata": "Q1703389", "nsi_id": "jll-08bb13"}, "geometry": {"type": "Point", "coordinates": [174.777095, -41.285882]}},
{"type": "Feature", "id": "Lt-rdF2YCvKLs6O1jt3QgGMQwqA=", "properties": {"ref": "L2NvbnRlbnQvZGFtL2psbC1jb20vbW9kZWxzL2xvY2F0aW9ucy9lbi9hbm4tYXJib3I", "@spider": "jll", "office": "estate_agent", "addr:full": "24 Frank Lloyd Wright Drive", "addr:city": "Ann Arbor", "addr:state": "Michigan", "addr:postcode": "48105", "name": "Ann Arbor", "phone": "+1 734 769 3200", "website": "https://www.us.jll.com/en/locations/midwest", "brand": "JLL", "brand:wikidata": "Q1703389", "nsi_id": "jll-08bb13"}, "geometry": {"type": "Point", "coordinates": [-83.682792, 42.317485]}},
{"type": "Feature", "id": "Emvfzbnwg_9PS-yaXl-_2oAa-L8=", "properties": {"ref": "L2NvbnRlbnQvZGFtL2psbC1jb20vbW9kZWxzL2xvY2F0aW9ucy9lbi90b3JvbnRv", "@spider": "jll", "office": "estate_agent", "addr:full": "Bay Adelaide Centre, East Tower", "addr:city": "Toronto", "addr:state": "Canada", "addr:postcode": "M5H 4E3", "addr:country": "CA", "name": "Toronto | Downtown", "phone": "+1 416 304 6000", "website": "https://www.jll.ca/en/locations/Toronto", "brand": "JLL", "brand:wikidata": "Q1703389", "nsi_id": "jll-08bb13"}, "geometry": {"type": "Point", "coordinates": [-79.379722, 43.650511]}},
{"type": "Feature", "id": "JAgMKu2QMYwDEWC9u5mMl30lORA=", "properties": {"ref": "L2NvbnRlbnQvZGFtL2psbC1jb20vbW9kZWxzL2xvY2F0aW9ucy9lbi9lZG1vbnRvbg", "@spider": "jll", "office": "estate_agent", "addr:full": "TD Tower", "addr:city": "Edmonton", "addr:state": "Canada", "addr:postcode": "T5J 2Z1", "addr:country": "CA", "name": "Edmonton", "phone": "+1 780 328 2550", "website": "https://www.jll.ca/en/locations/edmonton", "brand": "JLL", "brand:wikidata": "Q1703389", "nsi_id": "jll-08bb13"}, "geometry": {"type": "Point", "coordinates": [-113.49302, 53.54332]}},
{"type": "Feature", "id": "7WWTzGo92bmIzg29t4rUFyjm6-c=", "properties": {"ref": "L2NvbnRlbnQvZGFtL2psbC1jb20vbW9kZWxzL2xvY2F0aW9ucy9lbi90dWxzYQ", "@spider": "jll", "office": "estate_agent", "addr:full": "1323 East 71st Street", "addr:city": "Tulsa ", "addr:state": "Oklahoma", "addr:postcode": "74136", "name": "Tulsa", "phone": "+1 918 492 4844", "website": "https://www.us.jll.com/en/locations/south", "brand": "JLL", "brand:wikidata": "Q1703389", "nsi_id": "jll-08bb13"}, "geometry": {"type": "Point", "coordinates": [-95.97438, 36.06215]}},
{"type": "Feature", "id": "8_6zTypvmpneoKu5myBlwO3jokc=", "properties": {"ref": "L2NvbnRlbnQvZGFtL2psbC1jb20vbW9kZWxzL2xvY2F0aW9ucy9lbi9iYWx0aW1vcmU", "@spider": "jll", "office": "estate_agent", "addr:full": "500 East Pratt Street", "addr:city": "Baltimore", "addr:state": "Maryland", "addr:postcode": "21202", "name": "Baltimore", "phone": "+1 443 451 2600", "website": "https://www.us.jll.com/en/locations/mid-atlantic/maryland", "brand": "JLL", "brand:wikidata": "Q1703389", "nsi_id": "jll-08bb13"}},
{"type": "Feature", "id": "SjaLqc1_1aCUnEFtXNWNoPufA7g=", "properties": {"ref": "L2NvbnRlbnQvZGFtL2psbC1jb20vbW9kZWxzL2xvY2F0aW9ucy9lbi9wb3J0bGFuZA", "@spider": "jll", "office": "estate_agent", "addr:full": "1120 NW Couch Street", "addr:city": "Portland", "addr:state": "Oregon", "addr:postcode": "97209", "name": "Portland", "phone": "+1 503 972 8000", "website": "https://www.us.jll.com/en/locations/west/portland", "brand": "JLL", "brand:wikidata": "Q1703389", "nsi_id": "jll-08bb13"}, "geometry": {"type": "Point", "coordinates": [-122.682616, 45.523323]}},
{"type": "Feature", "id": "347lyUsQ4Mf325dgtStOdnWc9yo=", "properties": {"ref": "L2NvbnRlbnQvZGFtL2psbC1jb20vbW9kZWxzL2xvY2F0aW9ucy9lbi9kYWxsYXMtLS1yaWNoYXJkc29uLXZhcw", "@spider": "jll", "office": "estate_agent", "addr:full": "700 E. Campbell Road", "addr:city": "Dallas", "addr:state": "Texas", "addr:postcode": "75081", "name": "Dallas | Richardson VAS", "phone": "+1 972 960 1222", "website": "https://www.us.jll.com/en/locations/south/dallas", "brand": "JLL", "brand:wikidata": "Q1703389", "nsi_id": "jll-08bb13"}, "geometry": {"type": "Point", "coordinates": [-96.71488, 32.9747]}},
{"type": "Feature", "id": "qADFqs8ZLvhFKAlqQ93cy6sSTzE=", "properties": {"ref": "L2NvbnRlbnQvZGFtL2psbC1jb20vbW9kZWxzL2xvY2F0aW9ucy9lbi93aWxtaW5ndG9u", "@spider": "jll", "office": "estate_agent", "addr:full": "1007 N Orange Street", "addr:city": "Wilmington", "addr:state": "Delaware", "addr:postcode": "19801", "name": "Wilmington", "phone": "+1 302 356 2858", "website": "https://www.us.jll.com/en/locations/northeast/philadelphia", "brand": "JLL", "brand:wikidata": "Q1703389", "nsi_id": "jll-08bb13"}, "geometry": {"type": "Point", "coordinates": [-75.5487943, 39.7465384]}},
{"type": "Feature", "id": "NV4glho6STgxmhmMuLWhROLpcqM=", "properties": {"ref": "L2NvbnRlbnQvZGFtL2psbC1jb20vbW9kZWxzL2xvY2F0aW9ucy9lbi9tZWx2aWxsZQ", "@spider": "jll", "office": "estate_agent", "addr:full": "225 Broadhollow Road", "addr:city": "Melville", "addr:state": "New York", "addr:postcode": "11747", "name": "Melville", "phone": "631-962-2900", "website": "https://www.us.jll.com/en/locations/northeast/new-york", "brand": "JLL", "brand:wikidata": "Q1703389", "nsi_id": "jll-08bb13"}, "geometry": {"type": "Point", "coordinates": [-73.41495192529703, 40.78543035478083]}},
{"type": "Feature", "id": "isYw36EfW9pnxupJhTfsHTtKpmw=", "properties": {"ref": "L2NvbnRlbnQvZGFtL2psbC1jb20vbW9kZWxzL2xvY2F0aW9ucy9lbi9zYWx0LWxha2UtY2l0eQ", "@spider": "jll", "office": "estate_agent", "addr:full": "111 South Main Street", "addr:city": "Salt Lake City", "addr:state": "Utah", "addr:postcode": "84111", "name": "Salt Lake City", "phone": "+1 801 456 9510", "website": "https://www.us.jll.com/en/locations/west/salt-lake-city", "brand": "JLL", "brand:wikidata": "Q1703389", "nsi_id": "jll-08bb13"}, "geometry": {"type": "Point", "coordinates": [-111.890779, 40.766848]}},
{"type": "Feature", "id": "pTeBTgmiHOkNjJryrUp8xzLqNLA=", "properties": {"ref": "L2NvbnRlbnQvZGFtL2psbC1jb20vbW9kZWxzL2xvY2F0aW9ucy9lbi93ZXN0LXBhbG0tYmVhY2g", "@spider": "jll", "office": "estate_agent", "addr:full": "150 North Clematis Street", "addr:city": "West Palm Beach", "addr:state": "Florida", "addr:postcode": "33401", "name": "West Palm Beach", "phone": "+1 561 514 3809", "website": "/en/locations/southeast/florida", "brand": "JLL", "brand:wikidata": "Q1703389", "nsi_id": "jll-08bb13"}},
{"type": "Feature", "id": "juWGDP_J_NxYKIcVefk4pyxzluA=", "properties": {"ref": "L2NvbnRlbnQvZGFtL2psbC1jb20vbW9kZWxzL2xvY2F0aW9ucy9lbi9kYWxsYXMtLS13ZXN0LWNvbGxlZ2Utc3RyZWV0", "@spider": "jll", "office": "estate_agent", "addr:full": "625 West College Street", "addr:city": "Dallas", "addr:state": "Texas", "addr:postcode": "76051", "name": "Dallas | Grapevine", "phone": "+1 817 310 5800", "website": "https://www.us.jll.com/en/locations/south/dallas", "brand": "JLL", "brand:wikidata": "Q1703389", "nsi_id": "jll-08bb13"}, "geometry": {"type": "Point", "coordinates": [-97.08322, 32.93521]}},
{"type": "Feature", "id": "YulzFKGNBm1S0N_YQr7F-Tv1ev4=", "properties": {"ref": "L2NvbnRlbnQvZGFtL2psbC1jb20vbW9kZWxzL2xvY2F0aW9ucy9lbi9sYXMtdmVnYXMtLS1mZXN0aXZhbC1wbGF6YS1kcml2ZQ", "@spider": "jll", "office": "estate_agent", "addr:full": "1980 Festival Plaza Drive", "addr:city": "Las Vegas", "addr:state": "Nevada", "addr:postcode": "89135", "name": "Las Vegas | Festival Plaza Drive", "phone": "+1 702 360 4907", "website": "https://www.us.jll.com/en/locations/west/las-vegas", "brand": "JLL", "brand:wikidata": "Q1703389", "nsi_id": "jll-08bb13"}, "geometry": {"type": "Point", "coordinates": [-115.333118, 36.150187]}},
{"type": "Feature", "id": "mwsw72EWySLRjBiFnOwZBexucpU=", "properties": {"ref": "L2NvbnRlbnQvZGFtL2psbC1jb20vbW9kZWxzL2xvY2F0aW9ucy9lbi90YW1wYS1lYXN0LWtlbm5lZHktYm91bGV2YXJk", "@spider": "jll", "office": "estate_agent", "addr:full": "101 East Kennedy Boulevard", "addr:city": "Tampa", "addr:state": "Florida", "addr:postcode": "33602", "name": "Tampa | East Kennedy Boulevard", "phone": "+1 813 387 9900", "website": "https://www.us.jll.com/en/locations/southeast/florida", "brand": "JLL", "brand:wikidata": "Q1703389", "nsi_id": "jll-08bb13"}, "geometry": {"type": "Point", "coordinates": [-82.4590988, 27.946785]}},
{"type": "Feature", "id": "Z3W-gneT5OGqpipr9Ql6R5EqWvA=", "properties": {"ref": "L2NvbnRlbnQvZGFtL2psbC1jb20vbW9kZWxzL2xvY2F0aW9ucy9lbi9qbGwtcGVydGg", "@spider": "jll", "office": "estate_agent", "addr:full": "Whadjuk Country", "addr:city": "Perth", "addr:state": "Australia", "addr:postcode": "WA 6000", "addr:country": "AU", "name": "Perth", "phone": "+61 8 9322 5111", "website": "https://www.jll.com.au/en/locations/perth-real-estate-market", "brand": "JLL", "brand:wikidata": "Q1703389", "nsi_id": "jll-08bb13"}, "geometry": {"type": "Point", "coordinates": [115.85567, -31.953667]}},
{"type": "Feature", "id": "fA8zHvUGbPLzwlFaYWnXw3VfUo4=", "properties": {"ref": "L2NvbnRlbnQvZGFtL2psbC1jb20vbW9kZWxzL2xvY2F0aW9ucy9lbi9waG9lbml4", "@spider": "jll", "office": "estate_agent", "addr:full": "4300 East Camelback Road", "addr:city": "Phoenix", "addr:state": "Arizona", "addr:postcode": "85018-2719", "name": "Phoenix", "phone": "+1 602 282 6300", "website": "https://www.us.jll.com/en/locations/west/phoenix", "brand": "JLL", "brand:wikidata": "Q1703389", "nsi_id": "jll-08bb13"}, "geometry": {"type": "Point", "coordinates": [-111.9882789, 33.5105485]}},
{"type": "Feature", "id": "MMTidjbXPoqjNkR71iKVSuleCso=", "properties": {"ref": "L2NvbnRlbnQvZGFtL2psbC1jb20vbW9kZWxzL2xvY2F0aW9ucy9lbi9jaGVycnktaGlsbA", "@spider": "jll", "office": "estate_agent", "addr:full": "220 Lake Drive East", "addr:city": "Cherry Hill", "addr:state": "New Jersey", "addr:postcode": "08002", "name": "Cherry Hill", "phone": "+1 856 324 5300", "website": "https://www.us.jll.com/en/locations/northeast/new-jersey", "brand": "JLL", "brand:wikidata": "Q1703389", "nsi_id": "jll-08bb13"}, "geometry": {"type": "Point", "coordinates": [-75.004486, 39.939178]}},
{"type": "Feature", "id": "iiZxOEy2ItdoXMzoOkPJ4TCzaLI=", "properties": {"ref": "L2NvbnRlbnQvZGFtL2psbC1jb20vbW9kZWxzL2xvY2F0aW9ucy9lbi9zYW4tZGllZ28", "@spider": "jll", "office": "estate_agent", "addr:full": "8910 University Center Lane", "addr:city": "San Diego", "addr:state": "California", "addr:postcode": "92122", "name": "San Diego", "phone": "+1 858 410 1200", "website": "https://www.us.jll.com/en/locations/west/san-diego", "brand": "JLL", "brand:wikidata": "Q1703389", "nsi_id": "jll-08bb13"}, "geometry": {"type": "Point", "coordinates": [-117.225293, 32.8707]}},
{"type": "Feature", "id": "RW8JEw5YrgSLgphYh4cUy_C6tTg=", "properties": {"ref": "L2NvbnRlbnQvZGFtL2psbC1jb20vbW9kZWxzL2xvY2F0aW9ucy9lbi9hdGxhbnRh", "@spider": "jll", "office": "estate_agent", "addr:full": "3344 Peachtree Road Ne", "addr:city": "Atlanta", "addr:state": "Georgia", "addr:postcode": "30326", "name": "Atlanta | Main Office", "phone": "+1 404 995 2100", "website": "https://www.us.jll.com/en/locations/southeast/atlanta", "brand": "JLL", "brand:wikidata": "Q1703389", "nsi_id": "jll-08bb13"}, "geometry": {"type": "Point", "coordinates": [-84.368783, 33.847142]}},
{"type": "Feature", "id": "dtJS6UYNADhJw9UA-BG5jerRg4Y=", "properties": {"ref": "L2NvbnRlbnQvZGFtL2psbC1jb20vbW9kZWxzL2xvY2F0aW9ucy9lbi9ob3VzdG9u", "@spider": "jll", "office": "estate_agent", "addr:full": "2000 West Loop South", "addr:city": "Houston", "addr:state": "Texas", "addr:postcode": "77056", "name": "Houston | West Loop South", "phone": "+1 713 888 4000", "website": "https://www.us.jll.com/en/locations/south/houston", "brand": "JLL", "brand:wikidata": "Q1703389", "nsi_id": "jll-08bb13"}, "geometry": {"type": "Point", "coordinates": [-95.458331, 29.746618]}},
{"type": "Feature", "id": "tVMfasDcfCAoNJelOVYlP2bTKBc=", "properties": {"ref": "L2NvbnRlbnQvZGFtL2psbC1jb20vbW9kZWxzL2xvY2F0aW9ucy9lbi9qbGwtY2hyaXN0Y2h1cmNo", "@spider": "jll", "office": "estate_agent", "addr:full": "Ground Floor, Iwikau Building, 93 Cambridge Terrace", "addr:city": "Christchurch", "addr:state": "New Zealand", "addr:postcode": "8442", "addr:country": "NZ", "name": "Christchurch", "phone": "+64 3 375 6600", "website": "https://www.jll.nz/en/locations/christchurch-real-estate", "brand": "JLL", "brand:wikidata": "Q1703389", "nsi_id": "jll-08bb13"}, "geometry": {"type": "Point", "coordinates": [172.63268431119118, -43.53283520287618]}},
{"type": "Feature", "id": "YBl0gSufsV388qQHsK7j9CBRPGM=", "properties": {"ref": "L2NvbnRlbnQvZGFtL2psbC1jb20vbW9kZWxzL2xvY2F0aW9ucy9lbi93YWxudXQtY3JlZWs", "@spider": "jll", "office": "estate_agent", "addr:full": "1331 North California Boulevard", "addr:city": "Walnut Creek", "addr:state": "California", "addr:postcode": "94596", "name": "Walnut Creek", "phone": "+1 925 944 2140", "website": "https://www.us.jll.com/en/locations/west/oakland-and-east-bay", "brand": "JLL", "brand:wikidata": "Q1703389", "nsi_id": "jll-08bb13"}, "geometry": {"type": "Point", "coordinates": [-122.064252, 37.897717]}},
{"type": "Feature", "id": "ZDZfJ84fMhooc-Sl5yhuFpSmCUk=", "properties": {"ref": "L2NvbnRlbnQvZGFtL2psbC1jb20vbW9kZWxzL2xvY2F0aW9ucy9lbi9zYXZhbm5haC1nYQ", "@spider": "jll", "office": "estate_agent", "addr:full": "347 Abercorn Street", "addr:city": "United States", "addr:state": "Americas", "addr:postcode": "31401", "name": "Savannah, GA", "phone": "+1 912 250 4595", "website": "/en/locations/southeast/atlanta", "brand": "JLL", "brand:wikidata": "Q1703389", "nsi_id": "jll-08bb13"}, "geometry": {"type": "Point", "coordinates": [-81.09220507412178, 32.072301338143724]}},
{"type": "Feature", "id": "H7gcFQv2FWpziX-uDYCTXIcekr8=", "properties": {"ref": "L2NvbnRlbnQvZGFtL2psbC1jb20vbW9kZWxzL2xvY2F0aW9ucy9lbi93YXNoaW5ndG9uLWRjLXBlbm5zeWx2YW5pYS1hdmVudWU", "@spider": "jll", "office": "estate_agent", "addr:full": "2020 K Street, NW Suite 1100", "addr:city": "Washington, DC", "addr:state": "District of Columbia", "addr:postcode": "20006", "name": "Washington, D.C.", "phone": "+ 1 202 719 5000", "website": "https://www.us.jll.com/en/locations/mid-atlantic/washington-dc", "brand": "JLL", "brand:wikidata": "Q1703389", "nsi_id": "jll-08bb13"}, "geometry": {"type": "Point", "coordinates": [-77.0414276, 38.8999023]}},
{"type": "Feature", "id": "CvzxXlDSx1HPl0lHbTTY2kiaQBE=", "properties": {"ref": "L2NvbnRlbnQvZGFtL2psbC1jb20vbW9kZWxzL2xvY2F0aW9ucy9lbi9vbmUtdGFpa29vLXBsYWNl", "@spider": "jll", "office": "estate_agent", "addr:full": "7/F One Taikoo Place", "addr:city": "Hong Kong SAR, China", "addr:state": "Asia Pacific", "name": "Hong Kong | One Taikoo Place", "phone": "+852 2846 5000", "website": "/en/locations/one-taikoo-place", "brand": "JLL", "brand:wikidata": "Q1703389", "nsi_id": "jll-08bb13"}, "geometry": {"type": "Point", "coordinates": [114.212739, 22.28765]}},
{"type": "Feature", "id": "XYTjJ3dmP49cNACPFaIrHOzML9U=", "properties": {"ref": "L2NvbnRlbnQvZGFtL2psbC1jb20vbW9kZWxzL2xvY2F0aW9ucy9lbi9jaGljYWdvLS0tbGFzYWxsZS1pbnZlc3RtZW50LW1hbmFnZW1lbnQ", "@spider": "jll", "office": "estate_agent", "addr:full": "333 West Wacker Drive", "addr:city": "Chicago", "addr:state": "Illinois", "addr:postcode": "60606", "name": "Chicago | LaSalle Investment Management", "phone": "+1 312 897 4000", "website": "https://www.us.jll.com/en/locations/midwest/chicago", "brand": "JLL", "brand:wikidata": "Q1703389", "nsi_id": "jll-08bb13"}, "geometry": {"type": "Point", "coordinates": [-87.631567, 41.886542]}},
{"type": "Feature", "id": "1FeX6Cq9srwwpIm6CIk_faAo4z4=", "properties": {"ref": "L2NvbnRlbnQvZGFtL2psbC1jb20vbW9kZWxzL2xvY2F0aW9ucy9lbi9zYW4tZGllZ28tLS1sYXNhbGxlLWludmVzdG1lbnQtbWFuYWdlbWVudA", "@spider": "jll", "office": "estate_agent", "addr:full": "8910 University Center Lane", "addr:city": "San Diego", "addr:state": "California", "addr:postcode": "92122", "name": "San Diego | LaSalle Investment Management", "phone": "+1 858 410 1200", "website": "https://www.us.jll.com/en/locations/west/san-diego", "brand": "JLL", "brand:wikidata": "Q1703389", "nsi_id": "jll-08bb13"}, "geometry": {"type": "Point", "coordinates": [-117.225293, 32.8707]}},
{"type": "Feature", "id": "Tp-GBPgMNtyrxFReloBQYk5_meA=", "properties": {"ref": "L2NvbnRlbnQvZGFtL2psbC1jb20vbW9kZWxzL2xvY2F0aW9ucy9lbi9hdGxhbnRhLS0tcGVyaW1ldGVyLWNlbnRlci1wYXJrd2F5", "@spider": "jll", "office": "estate_agent", "addr:full": "219 Perimeter Center Parkway", "addr:city": "Atlanta", "addr:state": "Georgia", "addr:postcode": "30346", "name": "Atlanta | Perimeter Center Parkway Office", "phone": "+1 404 537 3117", "website": "https://www.us.jll.com/en/locations/southeast/atlanta", "brand": "JLL", "brand:wikidata": "Q1703389", "nsi_id": "jll-08bb13"}, "geometry": {"type": "Point", "coordinates": [-84.346836, 33.92352]}},
{"type": "Feature", "id": "3loupSOOS61owLVuHGg9obUsprs=", "properties": {"ref": "L2NvbnRlbnQvZGFtL2psbC1jb20vbW9kZWxzL2xvY2F0aW9ucy9lbi9taW5uZWFwb2xpcy0tLXNvdXRoLXNldmVudGgtc3RyZWV0", "@spider": "jll", "office": "estate_agent", "addr:full": "250 Nicollet Mall", "addr:city": "Minneapolis", "addr:state": "Minnesota", "addr:postcode": "55401", "name": "Minneapolis | Nicollet Mall", "phone": "+1 612 217 5150", "website": "https://www.us.jll.com/en/locations/midwest/minneapolis", "brand": "JLL", "brand:wikidata": "Q1703389", "nsi_id": "jll-08bb13"}, "geometry": {"type": "Point", "coordinates": [-93.273533, 44.976983]}},
{"type": "Feature", "id": "zdSDCfPEiNWradkKetVVyBWdZYE=", "properties": {"ref": "L2NvbnRlbnQvZGFtL2psbC1jb20vbW9kZWxzL2xvY2F0aW9ucy9lbi9taXNzaXNzYXVnYQ", "@spider": "jll", "office": "estate_agent", "addr:full": "110 Matheson Blvd. West, Suite 107", "addr:city": "Mississauga", "addr:state": "Canada", "addr:postcode": "L5R 4G7", "addr:country": "CA", "name": "Mississauga", "phone": " +1 905 502 6116", "website": "https://www.jll.ca/en/locations/Toronto", "brand": "JLL", "brand:wikidata": "Q1703389", "nsi_id": "jll-08bb13"}, "geometry": {"type": "Point", "coordinates": [-79.67395, 43.61786]}},
{"type": "Feature", "id": "zMN8uCKWGM9NZXaunF7GGlVkj_A=", "properties": {"ref": "L2NvbnRlbnQvZGFtL2psbC1jb20vbW9kZWxzL2xvY2F0aW9ucy9lbi9yZW5v", "@spider": "jll", "office": "estate_agent", "addr:full": "5470 Kietzke Lane", "addr:city": "Reno", "addr:state": "Nevada", "addr:postcode": "89511", "name": "Reno", "phone": "+1 775 337 2600", "website": "https://www.us.jll.com/en/locations/west", "brand": "JLL", "brand:wikidata": "Q1703389", "nsi_id": "jll-08bb13"}, "geometry": {"type": "Point", "coordinates": [-119.789629, 39.464969]}},
{"type": "Feature", "id": "w21pJ_lJuh8SimKgguMuWP4tq-s=", "properties": {"ref": "L2NvbnRlbnQvZGFtL2psbC1jb20vbW9kZWxzL2xvY2F0aW9ucy9lbi92YW5jb3V2ZXI", "@spider": "jll", "office": "estate_agent", "addr:full": "TELUS Garden", "addr:city": "Vancouver", "addr:state": "Canada", "addr:postcode": "V6B 0M3", "addr:country": "CA", "name": "Vancouver", "phone": "+1 604 998 6001", "website": "https://www.jll.ca/en/locations/vancouver", "brand": "JLL", "brand:wikidata": "Q1703389", "nsi_id": "jll-08bb13"}, "geometry": {"type": "Point", "coordinates": [-123.116936, 49.281258]}},
{"type": "Feature", "id": "ENsrwJLw7GsLCVvBDQzsGYY6EHc=", "properties": {"ref": "L2NvbnRlbnQvZGFtL2psbC1jb20vbW9kZWxzL2xvY2F0aW9ucy9lbi9vdHRhd2E", "@spider": "jll", "office": "estate_agent", "addr:full": "275 Slater Street, Suite 800", "addr:city": "Ottawa", "addr:state": "Canada", "addr:postcode": "K1P 5H9", "addr:country": "CA", "name": "Ottawa", "phone": "+1 613 656 0145", "website": "https://www.jll.ca/en/locations/ottawa", "brand": "JLL", "brand:wikidata": "Q1703389", "nsi_id": "jll-08bb13"}, "geometry": {"type": "Point", "coordinates": [-75.701419, 45.418893]}},
{"type": "Feature", "id": "9aZx2m5Avsb_5QQKbZUOTE_9f3M=", "properties": {"ref": "L2NvbnRlbnQvZGFtL2psbC1jb20vbW9kZWxzL2xvY2F0aW9ucy9lbi9zb3V0aC1iYXk", "@spider": "jll", "office": "estate_agent", "addr:full": "2141 Rosecrans Avenue", "addr:city": "Los Angeles", "addr:state": "California", "addr:postcode": "90245", "name": "South Bay", "phone": "+1 424 294 3400", "website": "https://www.us.jll.com/en/locations/west/los-angeles", "brand": "JLL", "brand:wikidata": "Q1703389", "nsi_id": "jll-08bb13"}, "geometry": {"type": "Point", "coordinates": [-118.386848, 33.902031]}},
{"type": "Feature", "id": "9ISq0V75O1HJed5cazdUqJzfNRA=", "properties": {"ref": "L2NvbnRlbnQvZGFtL2psbC1jb20vbW9kZWxzL2xvY2F0aW9ucy9lbi9zdG9ja3Rvbg", "@spider": "jll", "office": "estate_agent", "addr:full": "3255 W March Ln", "addr:city": "Stockton", "addr:state": "California", "addr:postcode": "95219", "name": "Stockton | Central Valley", "phone": "+1 209 390 1690", "website": "https://www.us.jll.com/en/locations/west/sacramento", "brand": "JLL", "brand:wikidata": "Q1703389", "nsi_id": "jll-08bb13"}},
{"type": "Feature", "id": "U49DFQSgAaug_0O5m-ybX8kcC3s=", "properties": {"ref": "L2NvbnRlbnQvZGFtL2psbC1jb20vbW9kZWxzL2xvY2F0aW9ucy9lbi9iZWxsZXZ1ZQ", "@spider": "jll", "office": "estate_agent", "addr:full": "225 108th Avenue NE", "addr:city": "Washington", "addr:state": "United States", "addr:postcode": "98004", "name": "Bellevue", "phone": "+1 425 974 4000", "website": "https://www.us.jll.com/en/locations/west/seattle-bellevue", "brand": "JLL", "brand:wikidata": "Q1703389", "nsi_id": "jll-08bb13"}, "geometry": {"type": "Point", "coordinates": [-122.196993, 47.61264]}},
{"type": "Feature", "id": "7r69-7NBO2s_SiZQg_P3U4wUGuU=", "properties": {"ref": "L2NvbnRlbnQvZGFtL2psbC1jb20vbW9kZWxzL2xvY2F0aW9ucy9lbi9iZXRoZXNkYQ", "@spider": "jll", "office": "estate_agent", "addr:full": "11810 Grand Park Avenue", "addr:city": "Bethesda", "addr:state": "Maryland", "addr:postcode": "20852", "name": "Bethesda", "phone": "+1 301 287 9950", "website": "https://www.us.jll.com/en/locations/mid-atlantic/maryland", "brand": "JLL", "brand:wikidata": "Q1703389", "nsi_id": "jll-08bb13"}, "geometry": {"type": "Point", "coordinates": [-77.117908, 39.049503]}},
{"type": "Feature", "id": "lT0Xe2qrL_NSt0QOw8pGEeIbols=", "properties": {"ref": "L2NvbnRlbnQvZGFtL2psbC1jb20vbW9kZWxzL2xvY2F0aW9ucy9lbi9zZWF0dGxlLWNhcGl0YWwtbWFya2V0cw", "@spider": "jll", "office": "estate_agent", "addr:full": "601 Union St.", "addr:city": "Seattle", "addr:state": "Washington", "addr:postcode": "98101", "name": "Seattle Capital Markets", "phone": "+1 206 576 0050", "website": "https://www.us.jll.com/en/locations/west/seattle-bellevue", "brand": "JLL", "brand:wikidata": "Q1703389", "nsi_id": "jll-08bb13"}, "geometry": {"type": "Point", "coordinates": [-122.332376, 47.610167]}},
{"type": "Feature", "id": "nX-JhRJF-UBYValLmXSQx5_8I6o=", "properties": {"ref": "L2NvbnRlbnQvZGFtL2psbC1jb20vbW9kZWxzL2xvY2F0aW9ucy9lbi9zYW4tYW50b25pbw", "@spider": "jll", "office": "estate_agent", "addr:full": "9601 McAllister Freeway", "addr:city": "San Antonio", "addr:state": "Texas", "addr:postcode": "78216", "name": "San Antonio", "phone": "+1 210 481 3300", "website": "https://www.us.jll.com/en/locations/south/san-antonio", "brand": "JLL", "brand:wikidata": "Q1703389", "nsi_id": "jll-08bb13"}, "geometry": {"type": "Point", "coordinates": [-98.48478, 29.52892]}},
{"type": "Feature", "id": "qG65BH5wRgLGm7CeZVEM79d2Cmo=", "properties": {"ref": "L2NvbnRlbnQvZGFtL2psbC1jb20vbW9kZWxzL2xvY2F0aW9ucy9lbi9sb3Vpc3ZpbGxl", "@spider": "jll", "office": "estate_agent", "addr:full": "7316 New LaGrange Road  ", "addr:city": "Louisville", "addr:state": "Kentucky", "addr:postcode": "40222", "name": "Louisville", "phone": "+1 502 426 1300 ", "website": "https://www.us.jll.com/en/locations/midwest/louisville", "brand": "JLL", "brand:wikidata": "Q1703389", "nsi_id": "jll-08bb13"}, "geometry": {"type": "Point", "coordinates": [-85.61566, 38.25105]}},
{"type": "Feature", "id": "z4-K9ZsD9y7OkYqp6HNRKHB2xZo=", "properties": {"ref": "L2NvbnRlbnQvZGFtL2psbC1jb20vbW9kZWxzL2xvY2F0aW9ucy9lbi9waXR0c2J1cmdo", "@spider": "jll", "office": "estate_agent", "addr:full": "260 Forbes Avenue", "addr:city": "Pittsburgh", "addr:state": "Pennsylvania", "addr:postcode": "15222", "name": "Pittsburgh", "phone": "+1 412 208 8382", "website": "https://www.us.jll.com/en/locations/midwest/pittsburgh", "brand": "JLL", "brand:wikidata": "Q1703389", "nsi_id": "jll-08bb13"}, "geometry": {"type": "Point", "coordinates": [-80.001486, 40.440214]}},
{"type": "Feature", "id": "bD75DK75DGtCwAjn-qK6IL55DdM=", "properties": {"ref": "L2NvbnRlbnQvZGFtL2psbC1jb20vbW9kZWxzL2xvY2F0aW9ucy9lbi9zYWNyZW1lbnRv", "@spider": "jll", "office": "estate_agent", "addr:full": "500 Capitol Mall", "addr:city": "Sacramento", "addr:state": "California", "addr:postcode": "95814", "name": "Sacramento", "phone": "+1 916 447 6300", "website": "https://www.us.jll.com/en/locations/west/sacramento", "brand": "JLL", "brand:wikidata": "Q1703389", "nsi_id": "jll-08bb13"}, "geometry": {"type": "Point", "coordinates": [-121.501407, 38.578058]}},
{"type": "Feature", "id": "8XO_bVh6u8YgretRaPGL3lfPFdM=", "properties": {"ref": "L2NvbnRlbnQvZGFtL2psbC1jb20vbW9kZWxzL2xvY2F0aW9ucy9lbi9sYXMtdmVnYXMtYm91bGV2YXJk", "@spider": "jll", "office": "estate_agent", "addr:full": "6671 South Las Vegas Boulevard", "addr:postcode": "89119", "name": "Las Vegas | Las Vegas Boulevard", "phone": "+1 702 488 5176", "website": "https://www.us.jll.com/en/locations/west/las-vegas", "brand": "JLL", "brand:wikidata": "Q1703389", "nsi_id": "jll-08bb13"}, "geometry": {"type": "Point", "coordinates": [-115.1761093, 36.0677528]}},
{"type": "Feature", "id": "oaNCS9O-QJC-LsiJfyVpRxRlBxw=", "properties": {"ref": "L2NvbnRlbnQvZGFtL2psbC1jb20vbW9kZWxzL2xvY2F0aW9ucy9lbi9qYWNrc29udmlsbGUtLS1yaXZlcnBsYWNlLWJvdWxldmFyZA", "@spider": "jll", "office": "estate_agent", "addr:full": "1301 Riverplace Boulevard", "addr:city": "Jacksonville", "addr:state": "Florida", "addr:postcode": "32207", "name": "Jacksonville | Riverplace Boulevard", "phone": "+1 904 559 3900", "website": "https://www.us.jll.com/en/locations/southeast/florida", "brand": "JLL", "brand:wikidata": "Q1703389", "nsi_id": "jll-08bb13"}, "geometry": {"type": "Point", "coordinates": [-81.656884, 30.319359]}},
{"type": "Feature", "id": "x-hJFRzqO42aAz6dO7us0zOoLQg=", "properties": {"ref": "L2NvbnRlbnQvZGFtL2psbC1jb20vbW9kZWxzL2xvY2F0aW9ucy9lbi9wdWVydG8tcmljbw", "@spider": "jll", "office": "estate_agent", "addr:full": "27 Gonzalez Giusti Street Tres Rios Building", "addr:city": "San Juan", "addr:state": "Puerto Rico", "addr:postcode": "966", "name": "Puerto Rico", "phone": "1 787 777 5800", "website": "https://www.us.jll.com/en/locations/puerto-rico", "brand": "JLL", "brand:wikidata": "Q1703389", "nsi_id": "jll-08bb13"}, "geometry": {"type": "Point", "coordinates": [-66.10552, 18.40711]}},
{"type": "Feature", "id": "BXgFZnR707nw2S5UI7JkBcy-eEE=", "properties": {"ref": "L2NvbnRlbnQvZGFtL2psbC1jb20vbW9kZWxzL2xvY2F0aW9ucy9lbi9kZWFuc2dhdGUtLS1yZXNpZGVudGlhbA", "@spider": "jll", "office": "estate_agent", "addr:full": "257 Deansgate", "addr:city": "Manchester", "addr:state": "United Kingdom", "addr:postcode": "M3 4AW", "name": "Manchester - Deansgate | Residential", "phone": "+44 (0)161 238 7400", "brand": "JLL", "brand:wikidata": "Q1703389", "nsi_id": "jll-08bb13"}, "geometry": {"type": "Point", "coordinates": [-2.2501295, 53.476964]}},
{"type": "Feature", "id": "VIy1X5hDInbBWmXJEvoV-dDJyT4=", "properties": {"ref": "L2NvbnRlbnQvZGFtL2psbC1jb20vbW9kZWxzL2xvY2F0aW9ucy9lbi9jYXJkaWZm", "@spider": "jll", "office": "estate_agent", "addr:full": "3 Callaghan Square", "addr:city": "Cardiff", "addr:state": "United Kingdom", "addr:postcode": "CF10 5BT", "addr:country": "GB", "name": "Cardiff", "phone": "+44 (0)292 022 7666", "website": "https://www.jll.co.uk/en/cities/cardiff", "brand": "JLL", "brand:wikidata": "Q1703389", "nsi_id": "jll-08bb13"}, "geometry": {"type": "Point", "coordinates": [-3.177821, 51.483589]}},
{"type": "Feature", "id": "c6CIQ7dVrsPMrVzw4W3e9YxQVCA=", "properties": {"ref": "L2NvbnRlbnQvZGFtL2psbC1jb20vbW9kZWxzL2xvY2F0aW9ucy9lbi9nb3RoZW5idXJn", "@spider": "jll", "office": "estate_agent", "addr:full": "Convendum", "addr:city": "Gothenburg", "addr:state": "Sweden", "addr:postcode": "411 36", "addr:country": "SE", "name": "Gothenburg", "phone": "+46 8 453 50 00", "website": "https://www.jllsweden.se/en/cities/gothenburg", "brand": "JLL", "brand:wikidata": "Q1703389", "nsi_id": "jll-08bb13"}, "geometry": {"type": "Point", "coordinates": [11.9749444, 57.7001944]}},
{"type": "Feature", "id": "3okuji14nf9MK5scPwYTVEIkJFg=", "properties": {"ref": "L2NvbnRlbnQvZGFtL2psbC1jb20vbW9kZWxzL2xvY2F0aW9ucy9lbi9yZW5uZXM", "@spider": "jll", "office": "estate_agent", "addr:full": "JLL", "addr:city": "France", "addr:state": "EMEA", "addr:postcode": "35042 Rennes Cedex", "name": "Rennes", "phone": "+33 1 40 55 15 15", "brand": "JLL", "brand:wikidata": "Q1703389", "nsi_id": "jll-08bb13"}, "geometry": {"type": "Point", "coordinates": [-1.6823822, 48.105506]}},
{"type": "Feature", "id": "F3MZ9fEic-9XjaXI9REUw53EPo4=", "properties": {"ref": "L2NvbnRlbnQvZGFtL2psbC1jb20vbW9kZWxzL2xvY2F0aW9ucy9lbi9sb25kb24tLS1oZWF0aHJvdw", "@spider": "jll", "office": "estate_agent", "addr:full": "Jones Lang LaSalle Ltd, 4 Longwalk Rd", "addr:city": "London", "addr:state": "United Kingdom", "addr:postcode": "UB11 1FE", "addr:country": "GB", "name": "London - Heathrow", "phone": "+44 (0)20 8759 4141", "website": "https://www.jll.co.uk/en/cities/london-heathrow", "brand": "JLL", "brand:wikidata": "Q1703389", "nsi_id": "jll-08bb13"}, "geometry": {"type": "Point", "coordinates": [-0.446137, 51.50917]}},
{"type": "Feature", "id": "qnttHpf8dvEjmgIFoND77SgitIU=", "properties": {"ref": "L2NvbnRlbnQvZGFtL2psbC1jb20vbW9kZWxzL2xvY2F0aW9ucy9lbi9sb25kb24tLS1jaGVsc2VhLS0tcmVzaWRlbnRpYWw", "@spider": "jll", "office": "estate_agent", "addr:full": "2 Cale Street", "addr:city": "London", "addr:state": "United Kingdom", "addr:postcode": "SW3 3QU", "name": "London - Chelsea | Residential", "phone": "+44 (0)20 3953 7345", "brand": "JLL", "brand:wikidata": "Q1703389", "nsi_id": "jll-08bb13"}},
{"type": "Feature", "id": "MDy8FXZOb6I34n-5VA5Q9MVzOJo=", "properties": {"ref": "L2NvbnRlbnQvZGFtL2psbC1jb20vbW9kZWxzL2xvY2F0aW9ucy9lbi9nbGFzZ293", "@spider": "jll", "office": "estate_agent", "addr:full": "150 St Vincent Street", "addr:city": "Glasgow", "addr:state": "United Kingdom", "addr:postcode": "G2 5ND", "addr:country": "GB", "name": "Glasgow", "phone": "+44 (0)141 248 6040", "website": "https://www.jll.co.uk/en/cities/glasgow", "brand": "JLL", "brand:wikidata": "Q1703389", "nsi_id": "jll-08bb13"}, "geometry": {"type": "Point", "coordinates": [-4.2593583, 55.8619637]}},
{"type": "Feature", "id": "taUIoAjynkN7z15qdJM_edjE0-8=", "properties": {"ref": "L2NvbnRlbnQvZGFtL2psbC1jb20vbW9kZWxzL2xvY2F0aW9ucy9lbi9kdWJsaW4", "@spider": "jll", "office": "estate_agent", "addr:full": "Styne House ", "addr:city": "Dublin", "addr:state": "Ireland", "addr:postcode": "D02 DY27", "addr:country": "IE", "name": "Dublin", "phone": "+353 1 673 1600 ", "website": "https://www.jll.ie/en/cities/dublin", "brand": "JLL", "brand:wikidata": "Q1703389", "nsi_id": "jll-08bb13"}, "geometry": {"type": "Point", "coordinates": [-6.2643129, 53.3344321]}},
{"type": "Feature", "id": "l_GYJoteyyLZxenBvekOAvvV7hk=", "properties": {"ref": "L2NvbnRlbnQvZGFtL2psbC1jb20vbW9kZWxzL2xvY2F0aW9ucy9lbi9mdWt1b2th", "@spider": "jll", "office": "estate_agent", "addr:full": "Daihakata Bldg, 2-20-1", "addr:city": "Fukuoka", "addr:state": "Japan", "addr:postcode": "812-0011", "name": "Fukuoka Office", "phone": "+81-92-471-6831", "brand": "JLL", "brand:wikidata": "Q1703389", "nsi_id": "jll-08bb13"}, "geometry": {"type": "Point", "coordinates": [130.415655523538, 33.5926336285257]}},
{"type": "Feature", "id": "Pl-8p-Kf2kRgTfrd1g5b4mWydF0=", "properties": {"ref": "L2NvbnRlbnQvZGFtL2psbC1jb20vbW9kZWxzL2xvY2F0aW9ucy9lbi9pbmRpYW5hcG9saXMtbm9ydGgtcGVubnN5bHZhbmlhLXN0cmVldA", "@spider": "jll", "office": "estate_agent", "addr:full": "135 North Pennsylvania Street", "addr:city": "Indianapolis", "addr:state": "Indiana", "addr:postcode": "46204", "name": "Indianapolis | North Pennsylvania Street", "phone": "+1 317 630 3191", "website": "https://www.us.jll.com/en/locations/midwest/indianapolis", "brand": "JLL", "brand:wikidata": "Q1703389", "nsi_id": "jll-08bb13"}, "geometry": {"type": "Point", "coordinates": [-86.1560211, 39.7693634]}},
{"type": "Feature", "id": "i-PHb_k_5aTH4RsvZBU7An7giBA=", "properties": {"ref": "L2NvbnRlbnQvZGFtL2psbC1jb20vbW9kZWxzL2xvY2F0aW9ucy9lbi9jb2x1bWJ1cy0tLWVhc3Qtc3RhdGUtc3RyZWV0", "@spider": "jll", "office": "estate_agent", "addr:full": "375 N. Front Street", "addr:city": "Columbus", "addr:state": "Ohio", "addr:postcode": "43215", "name": "Columbus | Front Street", "phone": "+1 614 460 4444", "website": "https://www.us.jll.com/en/locations/midwest/columbus", "brand": "JLL", "brand:wikidata": "Q1703389", "nsi_id": "jll-08bb13"}, "geometry": {"type": "Point", "coordinates": [-83.00496, 39.96948]}},
{"type": "Feature", "id": "GRXb74d07RqiOZqZKJvwrhBXFRw=", "properties": {"ref": "L2NvbnRlbnQvZGFtL2psbC1jb20vbW9kZWxzL2xvY2F0aW9ucy9lbi9zYW4tZnJhbmNpc2NvLS0tbGFzYWxsZS1pbnZlc3RtZW50LW1hbmFnZW1lbnQ", "@spider": "jll", "office": "estate_agent", "addr:full": "One Front Street", "addr:city": "San Francisco", "addr:state": "California", "addr:postcode": "94111", "name": "San Francisco | LaSalle Investment Management", "phone": "+1 415 395 4900", "website": "https://www.us.jll.com/en/locations/west/san-francisco", "brand": "JLL", "brand:wikidata": "Q1703389", "nsi_id": "jll-08bb13"}, "geometry": {"type": "Point", "coordinates": [-122.399017, 37.791816]}},
{"type": "Feature", "id": "PDBaGVEvyrcaeIE3mzE0_m6SbXA=", "properties": {"ref": "L2NvbnRlbnQvZGFtL2psbC1jb20vbW9kZWxzL2xvY2F0aW9ucy9lbi9qbGwtbGFua2E", "@spider": "jll", "office": "estate_agent", "addr:full": "Unit 3, Level 4 West Tower, ", "addr:city": "Sri Lanka", "addr:state": "Asia Pacific", "addr:postcode": "Colombo 01", "name": "Lanka", "phone": "+94 (0)112 324124/5  +94 772554405", "website": "/en/locations/colombo", "brand": "JLL", "brand:wikidata": "Q1703389", "nsi_id": "jll-08bb13"}, "geometry": {"type": "Point", "coordinates": [79.8414722, 6.9328]}},
{"type": "Feature", "id": "fgyi3WeonLCN0SqUJ-fMzexE6EA=", "properties": {"ref": "L2NvbnRlbnQvZGFtL2psbC1jb20vbW9kZWxzL2xvY2F0aW9ucy9lbi9qbGwtY2FuYmVycmE", "@spider": "jll", "office": "estate_agent", "addr:full": "Ngunnawal Country", "addr:city": "Canberra", "addr:state": "Australia", "addr:postcode": "ACT 2600", "addr:country": "AU", "name": "Canberra", "phone": "+61 2 6274 9888", "website": "https://www.jll.com.au/en/locations/canberra-real-estate-market", "brand": "JLL", "brand:wikidata": "Q1703389", "nsi_id": "jll-08bb13"}, "geometry": {"type": "Point", "coordinates": [149.125706, -35.277937]}},
{"type": "Feature", "id": "YhbrKnwHAhslYYuv5jvTJSEA6KI=", "properties": {"ref": "L2NvbnRlbnQvZGFtL2psbC1jb20vbW9kZWxzL2xvY2F0aW9ucy9lbi9qbGwtcHVuZQ", "@spider": "jll", "office": "estate_agent", "addr:full": "6th Floor, Amar Avinash Corporate Plaza", "addr:city": "Pune", "addr:state": "India", "addr:postcode": "411 001", "name": "Pune", "phone": "+91 20 71495600", "brand": "JLL", "brand:wikidata": "Q1703389", "nsi_id": "jll-08bb13"}, "geometry": {"type": "Point", "coordinates": [73.8768685, 18.5291894]}},
{"type": "Feature", "id": "HAMKeaS9hzvfkd3yTRWs8r4rZJ4=", "properties": {"ref": "L2NvbnRlbnQvZGFtL2psbC1jb20vbW9kZWxzL2xvY2F0aW9ucy9lbi9nZGFuc2s", "@spider": "jll", "office": "estate_agent", "addr:full": "OPERA Office", "addr:city": "Gda\u0144sk", "addr:state": "Poland", "addr:postcode": "80-219", "addr:country": "PL", "name": "Gda\u0144sk", "phone": "+48 602 116 816", "website": "https://www.jll.pl/en/cities/tri-city", "brand": "JLL", "brand:wikidata": "Q1703389", "nsi_id": "jll-08bb13"}},
{"type": "Feature", "id": "hdvDFBncjo2Um7TgL_SQEc9Zv2E=", "properties": {"ref": "L2NvbnRlbnQvZGFtL2psbC1jb20vbW9kZWxzL2xvY2F0aW9ucy9lbi9qZWRkYWg", "@spider": "jll", "office": "estate_agent", "addr:full": "Jameel Square, Level 8, Suite 801", "addr:city": "Jeddah", "addr:state": "Saudi Arabia", "addr:postcode": "8909 - 23326", "name": "Jeddah", "phone": "+966 12 660 2555 ", "website": "https://www.jll-mena.com/en/cities/jeddah", "brand": "JLL", "brand:wikidata": "Q1703389", "nsi_id": "jll-08bb13"}, "geometry": {"type": "Point", "coordinates": [39.153159, 21.549331]}},
{"type": "Feature", "id": "n3vjrBKl5Kb5GfD2w_AVgT6W8Iw=", "properties": {"ref": "L2NvbnRlbnQvZGFtL2psbC1jb20vbW9kZWxzL2xvY2F0aW9ucy9lbi90b2t5bw", "@spider": "jll", "office": "estate_agent", "addr:full": "Seitoh Kaikan, 5-7", "addr:city": "Tokyo", "addr:state": "Japan", "addr:postcode": "102-0075", "name": "Sanbancho Office", "phone": "+81-3-5210-8400", "brand": "JLL", "brand:wikidata": "Q1703389", "nsi_id": "jll-08bb13"}, "geometry": {"type": "Point", "coordinates": [139.743220991995, 35.6896206366318]}},
{"type": "Feature", "id": "nNn4bFAzrLpM09pU4SjnmtaSBEo=", "properties": {"ref": "L2NvbnRlbnQvZGFtL2psbC1jb20vbW9kZWxzL2xvY2F0aW9ucy9lbi9tdW5pY2g", "@spider": "jll", "office": "estate_agent", "addr:full": "Jones Lang LaSalle SE", "addr:city": "Munich", "addr:state": "Germany", "addr:postcode": "80539 Munich", "addr:country": "DE", "name": "Munich", "phone": "+49 (0) 89 290088 0", "website": "https://www.jll.de/en/cities/munich", "brand": "JLL", "brand:wikidata": "Q1703389", "nsi_id": "jll-08bb13"}, "geometry": {"type": "Point", "coordinates": [11.5771956, 48.1456065]}},
{"type": "Feature", "id": "wpgGm6YscvZ547T68ZQRtgQKc80=", "properties": {"ref": "L2NvbnRlbnQvZGFtL2psbC1jb20vbW9kZWxzL2xvY2F0aW9ucy9lbi96dXJpY2g", "@spider": "jll", "office": "estate_agent", "addr:full": "Prime Tower", "addr:city": "Zurich", "addr:state": "Switzerland", "addr:postcode": "8005", "addr:country": "CH", "name": "Zurich", "phone": "+41 (0) 44 215 75 00 ", "website": "https://www.jll.ch/en/city/zurich", "brand": "JLL", "brand:wikidata": "Q1703389", "nsi_id": "jll-08bb13"}, "geometry": {"type": "Point", "coordinates": [8.517278, 47.386191]}},
{"type": "Feature", "id": "3dDmiJ08y0my1ntMR8SnsdN814Q=", "properties": {"ref": "L2NvbnRlbnQvZGFtL2psbC1jb20vbW9kZWxzL2xvY2F0aW9ucy9lbi9sYXNhbGxlLWludmVzdG1lbnQtbWFuYWdlbWVudA", "@spider": "jll", "office": "estate_agent", "addr:full": "88 Market Street", "addr:city": "Singapore", "addr:state": "Asia Pacific", "addr:postcode": "048948", "name": "LaSalle Investment Management", "phone": "+65 6494 3598", "brand": "JLL", "brand:wikidata": "Q1703389", "nsi_id": "jll-08bb13"}},
{"type": "Feature", "id": "LhkszcZyruBYk6lsUAJa_5FmUuA=", "properties": {"ref": "L2NvbnRlbnQvZGFtL2psbC1jb20vbW9kZWxzL2xvY2F0aW9ucy9lbi9qbGwtcHJvcGVydHktc2VydmljZXMtKG1hbGF5c2lhKS1zZG4tYmhk", "@spider": "jll", "office": "estate_agent", "addr:full": "Unit 7.2, Level 7, Menara 1 Sentrum", "addr:city": "Malaysia", "addr:state": "Asia Pacific", "name": "JLL Property Services (Malaysia) Sdn Bhd", "phone": "+603-22 600 700", "brand": "JLL", "brand:wikidata": "Q1703389", "nsi_id": "jll-08bb13"}, "geometry": {"type": "Point", "coordinates": [101.687972, 3.133468]}},
{"type": "Feature", "id": "NXFIhj6sHs0qmbSfRSU0TcM39nQ=", "properties": {"ref": "L2NvbnRlbnQvZGFtL2psbC1jb20vbW9kZWxzL2xvY2F0aW9ucy9lbi9sb25kb24tc291dGgtZWFzdC0tLXJlc2lkZW50aWFs", "@spider": "jll", "office": "estate_agent", "addr:full": "8 Montpelier Vale", "addr:city": "London", "addr:state": "United Kingdom", "addr:postcode": "SE3 0TA", "name": "London South East | Residential", "phone": "+44 (0)20 8852 8383", "brand": "JLL", "brand:wikidata": "Q1703389", "nsi_id": "jll-08bb13"}, "geometry": {"type": "Point", "coordinates": [-0.0086563, 51.4665416]}},
{"type": "Feature", "id": "-BMRkJY0zLU0-ZbNDbyFNjeiZMY=", "properties": {"ref": "L2NvbnRlbnQvZGFtL2psbC1jb20vbW9kZWxzL2xvY2F0aW9ucy9lbi9tb3VudC1lZGVuLWJvd2xzLWNsdWI", "@spider": "jll", "office": "estate_agent", "addr:full": "17 Stokes Road, Mount Eden", "addr:city": "Auckland", "addr:state": "New Zealand", "addr:postcode": "1349", "name": "Mount Eden Bowls club", "phone": "+64 9 366 1666", "brand": "JLL", "brand:wikidata": "Q1703389", "nsi_id": "jll-08bb13"}, "geometry": {"type": "Point", "coordinates": [174.7648679, -36.8823714]}},
{"type": "Feature", "id": "ZiBivKB4MHFtXvgcegVSobg5LoE=", "properties": {"ref": "L2NvbnRlbnQvZGFtL2psbC1jb20vbW9kZWxzL2xvY2F0aW9ucy9lbi9sb25kb24tLS1rZW5zaW5ndG9uLS0tcmVzaWRlbnRpYWw", "@spider": "jll", "office": "estate_agent", "addr:full": "387 Kensington High Street", "addr:city": "London", "addr:state": "United Kingdom", "addr:postcode": "W14 8QA", "name": "London - Kensington | Residential", "phone": "+44 (0)20 7087 5696", "brand": "JLL", "brand:wikidata": "Q1703389", "nsi_id": "jll-08bb13"}, "geometry": {"type": "Point", "coordinates": [-0.206584, 51.496219]}},
{"type": "Feature", "id": "RLHACtYMq7v2bKIo29tv6XnfT90=", "properties": {"ref": "L2NvbnRlbnQvZGFtL2psbC1jb20vbW9kZWxzL2xvY2F0aW9ucy9lbi9idWNoYXJlc3Q", "@spider": "jll", "office": "estate_agent", "addr:full": "Victoria Center", "addr:city": "Bucharest", "addr:state": "Romania", "addr:postcode": "10072", "addr:country": "RO", "name": "Bucharest", "phone": "+40 21 302 3400 ", "website": "https://www.jll.ro/en/cities/bucharest", "brand": "JLL", "brand:wikidata": "Q1703389", "nsi_id": "jll-08bb13"}, "geometry": {"type": "Point", "coordinates": [26.0858898, 44.4499598]}},
{"type": "Feature", "id": "5f4XXbjTbBfGy01_fo4ExrL8d3w=", "properties": {"ref": "L2NvbnRlbnQvZGFtL2psbC1jb20vbW9kZWxzL2xvY2F0aW9ucy9lbi9tYWthdGktY2l0eQ", "@spider": "jll", "office": "estate_agent", "addr:full": "19th floor, NEX Tower ", "addr:city": "Philippines", "addr:state": "Asia Pacific", "name": "Philippines | Makati City", "phone": "+632 902 0888", "brand": "JLL", "brand:wikidata": "Q1703389", "nsi_id": "jll-08bb13"}, "geometry": {"type": "Point", "coordinates": [121.023415, 14.556586]}},
{"type": "Feature", "id": "i5os2uycIhGSwG55Tak8XZTqpA4=", "properties": {"ref": "L2NvbnRlbnQvZGFtL2psbC1jb20vbW9kZWxzL2xvY2F0aW9ucy9lbi9lZ3lwdA", "@spider": "jll", "office": "estate_agent", "addr:full": "Star Capital 2, 14th Floor, Suite 141", "addr:city": "Cairo", "addr:state": "Egypt", "name": "Egypt", "phone": "+20 2 2480 1946 ", "website": "https://www.jll-mena.com/en/cities/cairo", "brand": "JLL", "brand:wikidata": "Q1703389", "nsi_id": "jll-08bb13"}, "geometry": {"type": "Point", "coordinates": [31.3450423, 30.073903]}},
{"type": "Feature", "id": "-PLREjelERzC9fc0lQxBur4kv_M=", "properties": {"ref": "L2NvbnRlbnQvZGFtL2psbC1jb20vbW9kZWxzL2xvY2F0aW9ucy9lbi9wYXJpcy3igJMtbGEtYm_DqXRpZQ", "@spider": "jll", "office": "estate_agent", "addr:full": "JLL", "addr:city": "France", "addr:state": "EMEA", "addr:postcode": "75008 Paris", "name": "Paris \u2013 La Bo\u00e9tie", "phone": "+33 1 40 55 15 15", "brand": "JLL", "brand:wikidata": "Q1703389", "nsi_id": "jll-08bb13"}, "geometry": {"type": "Point", "coordinates": [2.3140862, 48.87369]}},
{"type": "Feature", "id": "vsnvNBpY1aaWI7yhI-ch0_1DjoI=", "properties": {"ref": "L2NvbnRlbnQvZGFtL2psbC1jb20vbW9kZWxzL2xvY2F0aW9ucy9lbi9CdWRhcGVzdA", "@spider": "jll", "office": "estate_agent", "addr:full": "Szabads\u00e1g t\u00e9r 14. ", "addr:city": "Budapest", "addr:state": "Hungary", "addr:postcode": "1054", "addr:country": "HU", "name": "Budapest", "phone": "+36 1 489 0202 ", "website": "https://www.jll.hu/en/city/budapest", "brand": "JLL", "brand:wikidata": "Q1703389", "nsi_id": "jll-08bb13"}, "geometry": {"type": "Point", "coordinates": [19.0484268, 47.5039728]}},
{"type": "Feature", "id": "DKUIv6kR9HEaRfntea3R-iI710M=", "properties": {"ref": "L2NvbnRlbnQvZGFtL2psbC1jb20vbW9kZWxzL2xvY2F0aW9ucy9lbi9qbGwtcGhpbGlwcGluZXM", "@spider": "jll", "office": "estate_agent", "addr:full": "5th Floor, BDO Equitable Tower", "name": "Philippines", "phone": "+632 902 0888", "brand": "JLL", "brand:wikidata": "Q1703389", "nsi_id": "jll-08bb13"}, "geometry": {"type": "Point", "coordinates": [121.0216383, 14.557946]}},
{"type": "Feature", "id": "OQRkUxF04pkgeKIxj4KQ_-SWx0o=", "properties": {"ref": "L2NvbnRlbnQvZGFtL2psbC1jb20vbW9kZWxzL2xvY2F0aW9ucy9lbi9oYW5nemhvdQ", "@spider": "jll", "office": "estate_agent", "addr:full": "Unit 802, T2, Raffles City Hangzhou", "addr:city": "China", "addr:state": "Asia Pacific", "name": "Hangzhou ", "phone": "+86 571 8196 5988 ", "brand": "JLL", "brand:wikidata": "Q1703389", "nsi_id": "jll-08bb13"}, "geometry": {"type": "Point", "coordinates": [120.21311, 30.249011]}},
{"type": "Feature", "id": "cW8-ejn1uWo916x3DQuPBGdSoSA=", "properties": {"ref": "L2NvbnRlbnQvZGFtL2psbC1jb20vbW9kZWxzL2xvY2F0aW9ucy9lbi9jaG9uZ3Fpbmc", "@spider": "jll", "office": "estate_agent", "addr:full": "45/F, Chongqing World Financial Center", "addr:city": "China", "addr:state": "Asia Pacific", "name": "Chongqing ", "phone": "+86 23 6370 8588", "brand": "JLL", "brand:wikidata": "Q1703389", "nsi_id": "jll-08bb13"}, "geometry": {"type": "Point", "coordinates": [106.577787, 29.55932]}},
{"type": "Feature", "id": "ebTvo8JXxRNZUFNwk26CZ-lFMz0=", "properties": {"ref": "L2NvbnRlbnQvZGFtL2psbC1jb20vbW9kZWxzL2xvY2F0aW9ucy9lbi9qbGwta29sa2F0YQ", "@spider": "jll", "office": "estate_agent", "addr:full": "Level 2", "addr:city": "Kolkata", "addr:state": "India", "addr:postcode": "700 016", "name": "Kolkata", "phone": "+91 33 7149 5678", "brand": "JLL", "brand:wikidata": "Q1703389", "nsi_id": "jll-08bb13"}, "geometry": {"type": "Point", "coordinates": [88.353562, 22.544345]}},
{"type": "Feature", "id": "kFC1yW_1SWTLKCJs4aQkmGGVCrk=", "properties": {"ref": "L2NvbnRlbnQvZGFtL2psbC1jb20vbW9kZWxzL2xvY2F0aW9ucy9lbi9yaW8tZGUtamFuZWlybw", "@spider": "jll", "office": "estate_agent", "addr:full": "Av. Almirante Barroso, 81, 31\u00ba andar", "addr:city": "Rio de Janeiro", "addr:state": "Brazil", "addr:postcode": "20031-004 ", "name": "Rio de Janeiro", "phone": "55 21 2277 2700", "brand": "JLL", "brand:wikidata": "Q1703389", "nsi_id": "jll-08bb13"}, "geometry": {"type": "Point", "coordinates": [-43.17571, -22.90742]}},
{"type": "Feature", "id": "tIcS1YOPr4F50cikH1fzf8n5tEw=", "properties": {"ref": "L2NvbnRlbnQvZGFtL2psbC1jb20vbW9kZWxzL2xvY2F0aW9ucy9lbi9sb25kb24tLS1jaXR5", "@spider": "jll", "office": "estate_agent", "addr:full": "The Walbrook Building", "addr:city": "London", "addr:state": "United Kingdom", "addr:postcode": "EC4N 8AF", "addr:country": "GB", "name": "London - City", "phone": "+44 (0)20 7248 6040", "website": "https://www.jll.co.uk/en/cities/london-city", "brand": "JLL", "brand:wikidata": "Q1703389", "nsi_id": "jll-08bb13"}, "geometry": {"type": "Point", "coordinates": [-0.0922645, 51.5121658]}},
{"type": "Feature", "id": "6gUB7A_SIVbw1Zzd14SJXiGV-yw=", "properties": {"ref": "L2NvbnRlbnQvZGFtL2psbC1jb20vbW9kZWxzL2xvY2F0aW9ucy9lbi9jYW5hcnktd2hhcmYtLS1yZXNpZGVudGlhbA", "@spider": "jll", "office": "estate_agent", "addr:full": "11 Westferry Circus", "addr:city": "London", "addr:state": "United Kingdom", "addr:postcode": "E14 4HE", "name": "London Canary Wharf | Residential", "phone": "+44 (0)20 7715 9700", "brand": "JLL", "brand:wikidata": "Q1703389", "nsi_id": "jll-08bb13"}, "geometry": {"type": "Point", "coordinates": [-0.0283973, 51.5066279]}},
{"type": "Feature", "id": "RtwU4Bp0fC9LxOBZp6vfXi4zY_4=", "properties": {"ref": "L2NvbnRlbnQvZGFtL2psbC1jb20vbW9kZWxzL2xvY2F0aW9ucy9lbi9saWxsZQ", "@spider": "jll", "office": "estate_agent", "addr:full": "JLL", "addr:city": "Lille", "addr:state": "France", "addr:postcode": "59000", "name": "Lille", "phone": "+33 3 20 17 93 10", "brand": "JLL", "brand:wikidata": "Q1703389", "nsi_id": "jll-08bb13"}, "geometry": {"type": "Point", "coordinates": [3.0728805, 50.623144]}},
{"type": "Feature", "id": "JLnaWbBZuV4JtnmkUtPz4jFMFZA=", "properties": {"ref": "L2NvbnRlbnQvZGFtL2psbC1jb20vbW9kZWxzL2xvY2F0aW9ucy9lbi90aGUtcXVhbnR1bS10ZXJtaW5hbA", "@spider": "jll", "office": "estate_agent", "addr:full": "1 Eddy Ave, Haymarket NSW 2000, Australia", "name": "The Quantum Terminal", "brand": "JLL", "brand:wikidata": "Q1703389", "nsi_id": "jll-08bb13"}, "geometry": {"type": "Point", "coordinates": [151.20729961266687, -33.88245992226112]}},
{"type": "Feature", "id": "qaYKKVUbmmfSaYQWppPiC7ohIdI=", "properties": {"ref": "L2NvbnRlbnQvZGFtL2psbC1jb20vbW9kZWxzL2xvY2F0aW9ucy9lbi9nZW5lcmF0b3ItZ3JpZGFrbA", "@spider": "jll", "office": "estate_agent", "addr:full": "12 Madden Street", "name": "Generator @ GridAKL", "phone": "+64 9 366 1666", "brand": "JLL", "brand:wikidata": "Q1703389", "nsi_id": "jll-08bb13"}, "geometry": {"type": "Point", "coordinates": [174.7544628, -36.8421395]}},
{"type": "Feature", "id": "ArSnGQifrN__ApEyqcPWTCppyqQ=", "properties": {"ref": "L2NvbnRlbnQvZGFtL2psbC1jb20vbW9kZWxzL2xvY2F0aW9ucy9lbi9tYXJzZWlsbGU", "@spider": "jll", "office": "estate_agent", "addr:full": "JLL ", "addr:city": "Marseille", "addr:state": "France", "addr:postcode": "13002", "name": "Marseille", "phone": "+33 4 95 09 13 13", "brand": "JLL", "brand:wikidata": "Q1703389", "nsi_id": "jll-08bb13"}, "geometry": {"type": "Point", "coordinates": [5.3700811, 43.297957]}},
{"type": "Feature", "id": "7VuuZKtS5nnY0g2WcXiBK9kIEWg=", "properties": {"ref": "L2NvbnRlbnQvZGFtL2psbC1jb20vbW9kZWxzL2xvY2F0aW9ucy9lbi9iYXJjZWxvbmE", "@spider": "jll", "office": "estate_agent", "addr:full": "JLL Barcelona, Passeig de Gr\u00e0cia, ", "addr:city": "Barcelona", "addr:state": "Spain", "addr:postcode": "8007", "name": "Barcelona", "phone": "+34 93 318 53 53 ", "brand": "JLL", "brand:wikidata": "Q1703389", "nsi_id": "jll-08bb13"}, "geometry": {"type": "Point", "coordinates": [2.1662363, 41.388864]}},
{"type": "Feature", "id": "gWRzIhgXPUQxla1GAJG_2vL2OQ0=", "properties": {"ref": "L2NvbnRlbnQvZGFtL2psbC1jb20vbW9kZWxzL2xvY2F0aW9ucy9lbi9qbGwta2luZydzLXJk", "@spider": "jll", "office": "estate_agent", "addr:full": "17/F Dorset House", "addr:city": "Hong Kong SAR, China", "addr:state": "Asia Pacific", "name": "Hong Kong | Dorset House", "phone": "+852 2846 5000", "brand": "JLL", "brand:wikidata": "Q1703389", "nsi_id": "jll-08bb13"}, "geometry": {"type": "Point", "coordinates": [114.211811, 22.287149]}},
{"type": "Feature", "id": "HlO5Gl3kzB4a7KL6Am0k6My1i3A=", "properties": {"ref": "L2NvbnRlbnQvZGFtL2psbC1jb20vbW9kZWxzL2xvY2F0aW9ucy9lbi90YWlwZWk", "@spider": "jll", "office": "estate_agent", "addr:full": "20/F-1, Taipei 101 Tower", "addr:city": "Taiwan, China", "addr:state": "Asia Pacific", "name": "Taipei", "phone": "+886 2 8758 9898", "brand": "JLL", "brand:wikidata": "Q1703389", "nsi_id": "jll-08bb13"}, "geometry": {"type": "Point", "coordinates": [121.5751, 25.036818]}},
{"type": "Feature", "id": "KMZVhmgFy2bOssGUcUgTuc-jvfk=", "properties": {"ref": "L2NvbnRlbnQvZGFtL2psbC1jb20vbW9kZWxzL2xvY2F0aW9ucy9lbi9jemVjaC1yZXB1YmxpYw", "@spider": "jll", "office": "estate_agent", "addr:full": "Myslbek Building", "addr:city": "Prague", "addr:state": "Czech Republic", "addr:postcode": "110 00 ", "name": "Prague", "phone": "+420 2 2423 4809 ", "brand": "JLL", "brand:wikidata": "Q1703389", "nsi_id": "jll-08bb13"}, "geometry": {"type": "Point", "coordinates": [14.4226738, 50.0862197]}},
{"type": "Feature", "id": "QA4KeLH_hOgr6g29EazWiYUevPY=", "properties": {"ref": "L2NvbnRlbnQvZGFtL2psbC1jb20vbW9kZWxzL2xvY2F0aW9ucy9lbi9qbGwtbm9ydGgtc3lkbmV5", "@spider": "jll", "office": "estate_agent", "addr:full": "Cammeraygal Country", "addr:city": "North Sydney", "addr:state": "Australia", "addr:postcode": "NSW 2060", "name": "North Sydney", "phone": "+61 2 9936 5888", "brand": "JLL", "brand:wikidata": "Q1703389", "nsi_id": "jll-08bb13"}, "geometry": {"type": "Point", "coordinates": [151.206698, -33.8378507]}},
{"type": "Feature", "id": "eMLHIzLAo0EdEhf3VATM6Cgkl3w=", "properties": {"ref": "L2NvbnRlbnQvZGFtL2psbC1jb20vbW9kZWxzL2xvY2F0aW9ucy9lbi9saXNib24tLS1oZWFkcXVhcnRlcnM", "@spider": "jll", "office": "estate_agent", "addr:full": "Edif\u00edcio Heron Castilho", "addr:city": "Lisbon", "addr:state": "Portugal", "addr:postcode": "1250-050", "name": "Lisbon | Headquarters", "phone": "+351 21 358 32 22", "brand": "JLL", "brand:wikidata": "Q1703389", "nsi_id": "jll-08bb13"}, "geometry": {"type": "Point", "coordinates": [-9.1516033, 38.7233209]}},
{"type": "Feature", "id": "za46PBXRY6fQgOlQ6cZCRtw8gmE=", "properties": {"ref": "L2NvbnRlbnQvZGFtL2psbC1jb20vbW9kZWxzL2xvY2F0aW9ucy9lbi9wYXJpcy0tLWxlLXBsZXNzaXM", "@spider": "jll", "office": "estate_agent", "addr:full": "JLL", "addr:city": "France", "addr:state": "EMEA", "addr:postcode": "92357 Le Plessis-Robinson", "name": "Paris - Le Plessis", "phone": "+33 1 40 55 15 15", "brand": "JLL", "brand:wikidata": "Q1703389", "nsi_id": "jll-08bb13"}, "geometry": {"type": "Point", "coordinates": [2.2368895, 48.77408]}},
{"type": "Feature", "id": "HzpRDNk_dRkNo8RFX6O-eIcfFhA=", "properties": {"ref": "L2NvbnRlbnQvZGFtL2psbC1jb20vbW9kZWxzL2xvY2F0aW9ucy9lbi9rcmFrb3c", "@spider": "jll", "office": "estate_agent", "addr:full": "ul. \u015aw. Tomasza 34 ", "addr:city": "Krak\u00f3w", "addr:state": "Poland", "addr:postcode": "31-027", "addr:country": "PL", "name": "Krak\u00f3w", "phone": "+48 12 294 94 30 ", "website": "https://www.jll.pl/en/cities/krakow", "brand": "JLL", "brand:wikidata": "Q1703389", "nsi_id": "jll-08bb13"}},
{"type": "Feature", "id": "lBpuw1gizPt-vtNy53PKW6ZuNME=", "properties": {"ref": "L2NvbnRlbnQvZGFtL2psbC1jb20vbW9kZWxzL2xvY2F0aW9ucy9lbi9sb25kb24tLS1zdHJhdGZvcmQtLS1yZXNpZGVudGlhbA", "@spider": "jll", "office": "estate_agent", "addr:full": "Unex Tower", "addr:city": "London", "addr:state": "United Kingdom", "addr:postcode": "E15 1DA", "name": "London - Stratford | Residential", "phone": "+44 (0)20 8104 1110", "brand": "JLL", "brand:wikidata": "Q1703389", "nsi_id": "jll-08bb13"}, "geometry": {"type": "Point", "coordinates": [-0.001354, 51.540256]}},
{"type": "Feature", "id": "xQsVu01umvAuRNiPsFO9x48wb3s=", "properties": {"ref": "L2NvbnRlbnQvZGFtL2psbC1jb20vbW9kZWxzL2xvY2F0aW9ucy9lbi9oYW5vdmVy", "@spider": "jll", "office": "estate_agent", "addr:full": "Jones Lang LaSalle SE ", "addr:city": "Hanover", "addr:state": "Germany", "addr:postcode": "30159 Hanover", "addr:country": "DE", "name": "Hanover", "phone": "+49 (0) 511 12370 0", "website": "https://www.jll.de/en/cities/hanover", "brand": "JLL", "brand:wikidata": "Q1703389", "nsi_id": "jll-08bb13"}, "geometry": {"type": "Point", "coordinates": [9.7342514, 52.3749095]}},
{"type": "Feature", "id": "HXQZzOtAs-Dpp6I6NqZC2X0dxYc=", "properties": {"ref": "L2NvbnRlbnQvZGFtL2psbC1jb20vbW9kZWxzL2xvY2F0aW9ucy9lbi9qbGwta29jaGk", "@spider": "jll", "office": "estate_agent", "addr:full": "2nd Floor, Chiramel Chambers", "addr:city": "Kochi", "addr:state": "India", "addr:postcode": "682015", "name": "Kochi", "phone": "+0484-4301701", "brand": "JLL", "brand:wikidata": "Q1703389", "nsi_id": "jll-08bb13"}, "geometry": {"type": "Point", "coordinates": [76.290091, 9.957682]}},
{"type": "Feature", "id": "2I2VTbTxILZYsHGUwqbRHOpR7sw=", "properties": {"ref": "L2NvbnRlbnQvZGFtL2psbC1jb20vbW9kZWxzL2xvY2F0aW9ucy9lbi9iaXJtaW5naGFtLTE", "@spider": "jll", "office": "estate_agent", "addr:full": "45 Church Street", "addr:city": "Birmingham", "addr:state": "United Kingdom", "addr:postcode": "B3 2RT", "addr:country": "GB", "name": "Birmingham", "phone": "+44 (0)121 643 6440", "website": "https://www.jll.co.uk/en/cities/birmingham", "brand": "JLL", "brand:wikidata": "Q1703389", "nsi_id": "jll-08bb13"}, "geometry": {"type": "Point", "coordinates": [-1.9011641, 52.4828306]}},
{"type": "Feature", "id": "7sE6Xr8icLnyxQx3T1deHjJiyV8=", "properties": {"ref": "L2NvbnRlbnQvZGFtL2psbC1jb20vbW9kZWxzL2xvY2F0aW9ucy9lbi9icmlzdG9s", "@spider": "jll", "office": "estate_agent", "addr:full": "31 Great George Street", "addr:city": "Bristol", "addr:state": "United Kingdom", "addr:postcode": "BS1 5QD", "addr:country": "GB", "name": "Bristol", "phone": "+44 (0)117 927 6691", "website": "https://www.jll.co.uk/en/cities/bristol", "brand": "JLL", "brand:wikidata": "Q1703389", "nsi_id": "jll-08bb13"}, "geometry": {"type": "Point", "coordinates": [-2.605169, 51.453015]}},
{"type": "Feature", "id": "EOi0IBrNqr-lO1m13wzdySbwxuU=", "properties": {"ref": "L2NvbnRlbnQvZGFtL2psbC1jb20vbW9kZWxzL2xvY2F0aW9ucy9lbi9icnVzc2Vscw", "@spider": "jll", "office": "estate_agent", "addr:full": "Avenue Marnixlaan 23, B1", "addr:city": "Brussels", "addr:state": "Belgium", "addr:postcode": "B - 1000", "addr:country": "BE", "name": "Brussels", "phone": "+32 (0)2 550 25 25 ", "website": "https://www.jll.be/en/cities/brussels", "brand": "JLL", "brand:wikidata": "Q1703389", "nsi_id": "jll-08bb13"}, "geometry": {"type": "Point", "coordinates": [4.3648059, 50.8395316]}},
{"type": "Feature", "id": "bl5g-wncBrPQE96FQ9A4Q8c73Xw=", "properties": {"ref": "L2NvbnRlbnQvZGFtL2psbC1jb20vbW9kZWxzL2xvY2F0aW9ucy9lbi9hcmdlbnRpbmE", "@spider": "jll", "office": "estate_agent", "addr:full": "Carlos Pellegrini 719, 7th floor", "addr:city": "Buenos Aires", "addr:state": "Argentina", "addr:postcode": "C1009ABO", "name": "Argentina", "phone": "+54 11 3984 8600", "brand": "JLL", "brand:wikidata": "Q1703389", "nsi_id": "jll-08bb13"}, "geometry": {"type": "Point", "coordinates": [-58.381048, -34.599877]}},
{"type": "Feature", "id": "AP25mXG_1NaGG5ih7yIyV6Rm32s=", "properties": {"ref": "L2NvbnRlbnQvZGFtL2psbC1jb20vbW9kZWxzL2xvY2F0aW9ucy9lbi9pbnRlci1jb250aW5lbnRhbC13ZWxsaW5ndG9u", "@spider": "jll", "office": "estate_agent", "addr:full": "2 Grey Street, Wellington Central, ", "addr:city": "Wellington", "addr:state": "New Zealand", "addr:postcode": "6011", "name": "InterContinental Wellington, an IHG Hotel", "phone": "+6444722722", "brand": "JLL", "brand:wikidata": "Q1703389", "nsi_id": "jll-08bb13"}, "geometry": {"type": "Point", "coordinates": [174.77705471720017, -41.28448626493876]}},
{"type": "Feature", "id": "3xrGLzbNv4ErIu-CLsMmnEC-G5Y=", "properties": {"ref": "L2NvbnRlbnQvZGFtL2psbC1jb20vbW9kZWxzL2xvY2F0aW9ucy9lbi9sYXNhbGxlLWludmVzdG1lbnQtbWFuYWdlbWVudC1zZWN1cml0aWVzLWhrLWx0ZA", "@spider": "jll", "office": "estate_agent", "addr:full": "Suite 3009, 30/F, AIA Central,", "addr:city": "Hong Kong SAR, China", "addr:state": "Asia Pacific", "name": "LaSalle Investment Management Securities HK Ltd", "phone": "+852 3182 5333", "brand": "JLL", "brand:wikidata": "Q1703389", "nsi_id": "jll-08bb13"}, "geometry": {"type": "Point", "coordinates": [114.1593035, 22.281398]}},
{"type": "Feature", "id": "vZy0CCUaI0A32fNpXgOkTskBGek=", "properties": {"ref": "L2NvbnRlbnQvZGFtL2psbC1jb20vbW9kZWxzL2xvY2F0aW9ucy9lbi9tZXhpY28tY2l0eS0tLW1vbnRlcy11cmFsZXM", "@spider": "jll", "office": "estate_agent", "addr:full": "Montes Urales 715, Floor 2, Col. Lomas de Chapultepec, Del. Miguel Hidalgo", "addr:city": "Mexico City", "addr:state": "Mexico", "addr:postcode": "11000", "name": "Mexico City | Montes Urales", "phone": "52 55 5980 0939", "brand": "JLL", "brand:wikidata": "Q1703389", "nsi_id": "jll-08bb13"}, "geometry": {"type": "Point", "coordinates": [-99.204449, 19.424695]}},
{"type": "Feature", "id": "-0iz2j_ttdc1-V0zCSwBjZGR-Po=", "properties": {"ref": "L2NvbnRlbnQvZGFtL2psbC1jb20vbW9kZWxzL2xvY2F0aW9ucy9lbi9iZXJsaW4", "@spider": "jll", "office": "estate_agent", "addr:full": "Jones Lang LaSalle SE\u200b", "addr:city": "Berlin", "addr:state": "Germany", "addr:postcode": "10557 Berlin", "addr:country": "DE", "name": "Berlin", "phone": "+49 30 203980 0", "website": "https://www.jll.de/en/cities/berlin", "brand": "JLL", "brand:wikidata": "Q1703389", "nsi_id": "jll-08bb13"}, "geometry": {"type": "Point", "coordinates": [13.3658258, 52.5228096]}},
{"type": "Feature", "id": "T6GaJXiXQb3zDPY7offYLRnop9M=", "properties": {"ref": "L2NvbnRlbnQvZGFtL2psbC1jb20vbW9kZWxzL2xvY2F0aW9ucy9lbi9hbnR3ZXJw", "@spider": "jll", "office": "estate_agent", "addr:full": "Jan Van Gentstraat 1 Box 402", "addr:city": "Antwerp", "addr:state": "Belgium", "addr:postcode": "B - 2000", "addr:country": "BE", "name": "Antwerp", "phone": "+32 3 232 39 30", "website": "https://www.jll.be/en/cities/antwerp", "brand": "JLL", "brand:wikidata": "Q1703389", "nsi_id": "jll-08bb13"}, "geometry": {"type": "Point", "coordinates": [4.387674, 51.206175]}},
{"type": "Feature", "id": "5V40MOB7Se_yd9-XCoBwiM4HoCc=", "properties": {"ref": "L2NvbnRlbnQvZGFtL2psbC1jb20vbW9kZWxzL2xvY2F0aW9ucy9lbi9wb3J0dWdhbA", "@spider": "jll", "office": "estate_agent", "addr:full": "Avenida Valbom, 11 ", "addr:city": "Portugal", "addr:state": "EMEA", "addr:postcode": "2750-508", "name": "Cascais", "phone": "+351 21 910 5600 ", "brand": "JLL", "brand:wikidata": "Q1703389", "nsi_id": "jll-08bb13"}, "geometry": {"type": "Point", "coordinates": [-9.4195757, 38.699599]}},
{"type": "Feature", "id": "cMScYroGPLXI9bQhL7XhPojcnPo=", "properties": {"ref": "L2NvbnRlbnQvZGFtL2psbC1jb20vbW9kZWxzL2xvY2F0aW9ucy9lbi9tYWplc3RpYy1jZW50cmU", "@spider": "jll", "office": "estate_agent", "addr:full": "Level 28, 88/100 Willis Street", "name": "Majestic Centre", "phone": "+64 4 499 1666", "brand": "JLL", "brand:wikidata": "Q1703389", "nsi_id": "jll-08bb13"}, "geometry": {"type": "Point", "coordinates": [174.7749367, -41.2885803]}},
{"type": "Feature", "id": "qHEaHUCzdsvVpicSmr8d8wpXuwg=", "properties": {"ref": "L2NvbnRlbnQvZGFtL2psbC1jb20vbW9kZWxzL2xvY2F0aW9ucy9lbi9xdWVyw6l0YXJv", "@spider": "jll", "office": "estate_agent", "addr:full": "Quer\u00e9taro Business Park II, Av. Antea 1088, Torre II, Oficina 101, Col. Jurica", "addr:city": "Mexico", "addr:state": "Americas", "addr:postcode": "76100", "name": "Queretaro", "phone": "52  55 5980 8757", "brand": "JLL", "brand:wikidata": "Q1703389", "nsi_id": "jll-08bb13"}, "geometry": {"type": "Point", "coordinates": [-100.360906, 20.57527]}},
{"type": "Feature", "id": "fftKsfnZXigSqMQRIMqXifdP8Z0=", "properties": {"ref": "L2NvbnRlbnQvZGFtL2psbC1jb20vbW9kZWxzL2xvY2F0aW9ucy9lbi9jaGlsZQ", "@spider": "jll", "office": "estate_agent", "addr:full": "Avenida Andr\u00e9s Bello 2457 Costanera Center Tower 2, 17th floor", "addr:city": "Santiago", "addr:state": "Chile", "addr:postcode": "7500000", "name": "Chile", "phone": "+56 2 2374 0070", "brand": "JLL", "brand:wikidata": "Q1703389", "nsi_id": "jll-08bb13"}, "geometry": {"type": "Point", "coordinates": [-70.60677, -33.416911]}},
{"type": "Feature", "id": "uHXvloOdNbh1x0kbVPiCVNK5BPA=", "properties": {"ref": "L2NvbnRlbnQvZGFtL2psbC1jb20vbW9kZWxzL2xvY2F0aW9ucy9lbi9qbGwtaHlkZXJhYmFk", "@spider": "jll", "office": "estate_agent", "addr:full": "Level 9, Octave, Salarpuria Sattva Knowledge City,", "addr:city": "Hyderabad", "addr:state": "India", "addr:postcode": "500081", "name": "Hyderabad", "phone": "+91 40 71495678", "brand": "JLL", "brand:wikidata": "Q1703389", "nsi_id": "jll-08bb13"}},
{"type": "Feature", "id": "fPnaWb6sIDaKA86sRXpo5KphSgQ=", "properties": {"ref": "L2NvbnRlbnQvZGFtL2psbC1jb20vbW9kZWxzL2xvY2F0aW9ucy9lbi9qb2hhbm5lc2J1cmc", "@spider": "jll", "office": "estate_agent", "addr:full": "Ground Floor, 6 Parks Blvd", "addr:city": "South Africa", "addr:state": "Africa", "addr:postcode": "2196", "addr:country": "ZA", "name": "Johannesburg", "phone": "+27 11 507 2200 ", "website": "https://www.jll.co.za/en/cities/johannesburg", "brand": "JLL", "brand:wikidata": "Q1703389", "nsi_id": "jll-08bb13"}, "geometry": {"type": "Point", "coordinates": [28.041955, -26.143712]}},
{"type": "Feature", "id": "LHrEqo5OAU0zYDnynPSJqHLaB80=", "properties": {"ref": "L2NvbnRlbnQvZGFtL2psbC1jb20vbW9kZWxzL2xvY2F0aW9ucy9lbi9qbGwtaG8tY2hpLW1pbmgtY2l0eQ", "@spider": "jll", "office": "estate_agent", "addr:full": "26/F Saigon Trade Center", "addr:city": "Ho Chi Minh City", "addr:state": "Vietnam", "name": "JLL Ho Chi Minh City", "phone": "+848 3911 9399", "brand": "JLL", "brand:wikidata": "Q1703389", "nsi_id": "jll-08bb13"}, "geometry": {"type": "Point", "coordinates": [106.703486, 10.78458]}},
{"type": "Feature", "id": "CxqMeyLz7bBzSD4-Ady4PbQB59s=", "properties": {"ref": "L2NvbnRlbnQvZGFtL2psbC1jb20vbW9kZWxzL2xvY2F0aW9ucy9lbi9tZXhpY28tY2l0eS0tLW1vbnRlLXBlbHZvdXg", "@spider": "jll", "office": "estate_agent", "addr:full": "Monte Pelvoux 111, Floor 5, Col. Lomas de Chapultepec, Del. Miguel Hidalgo", "addr:city": "Mexico City", "addr:state": "Mexico", "name": "Mexico City | Monte Pelvoux", "phone": "52 55 5980 8003", "brand": "JLL", "brand:wikidata": "Q1703389", "nsi_id": "jll-08bb13"}, "geometry": {"type": "Point", "coordinates": [-99.203767, 19.426556]}},
{"type": "Feature", "id": "LDh7u6BATR_pMuLpD6fhT-8Q6rg=", "properties": {"ref": "L2NvbnRlbnQvZGFtL2psbC1jb20vbW9kZWxzL2xvY2F0aW9ucy9lbi9zb3V0aC1hZnJpY2E", "@spider": "jll", "office": "estate_agent", "addr:full": "Cnr Craddock & Biermann Road ", "addr:city": "South Africa", "addr:state": "Africa", "addr:postcode": "2196", "name": "South Africa", "phone": "+27 11 507 2200 ", "brand": "JLL", "brand:wikidata": "Q1703389", "nsi_id": "jll-08bb13"}, "geometry": {"type": "Point", "coordinates": [28.041894, -26.143453]}},
{"type": "Feature", "id": "A2YaR4rn4jQ4prndciNNR3WJJvc=", "properties": {"ref": "L2NvbnRlbnQvZGFtL2psbC1jb20vbW9kZWxzL2xvY2F0aW9ucy9lbi9ub3J3aWNo", "@spider": "jll", "office": "estate_agent", "addr:full": "Austin House", "addr:city": "Norwich", "addr:state": "United Kingdom", "addr:postcode": "NR3 1YF", "addr:country": "GB", "name": "Norwich", "phone": "+44 (0)160 377 4400", "website": "https://www.jll.co.uk/en/cities/norwich", "brand": "JLL", "brand:wikidata": "Q1703389", "nsi_id": "jll-08bb13"}, "geometry": {"type": "Point", "coordinates": [1.2922092, 52.6349987]}},
{"type": "Feature", "id": "DeakXGCy9QY0bAJ4sks3wUOdObg=", "properties": {"ref": "L2NvbnRlbnQvZGFtL2psbC1jb20vbW9kZWxzL2xvY2F0aW9ucy9lbi9tb3JvY2Nv", "@spider": "jll", "office": "estate_agent", "addr:full": "13 rue Ibnou Toufail \u2013 Quartier Palmiers", "addr:city": "Morocco", "addr:state": "Africa", "addr:postcode": "20340", "name": "Morocco", "phone": "+212 520 44 77 00 ", "website": "https://www.jll-mena.com/en/cities/casablanca", "brand": "JLL", "brand:wikidata": "Q1703389", "nsi_id": "jll-08bb13"}, "geometry": {"type": "Point", "coordinates": [-7.625665, 33.583114]}},
{"type": "Feature", "id": "ulwIDD1egjXOmKpNi_D3pcv1px8=", "properties": {"ref": "L2NvbnRlbnQvZGFtL2psbC1jb20vbW9kZWxzL2xvY2F0aW9ucy9lbi9hdXJhbmdhYmFk", "@spider": "jll", "office": "estate_agent", "addr:full": "Level 3, Golden IT Park, Plot No E-26/27,", "addr:city": "India", "addr:state": "Asia Pacific", "addr:postcode": "431210", "name": "Aurangabad", "phone": "0240-6674800", "brand": "JLL", "brand:wikidata": "Q1703389", "nsi_id": "jll-08bb13"}, "geometry": {"type": "Point", "coordinates": [75.376403, 19.877219]}},
{"type": "Feature", "id": "V5P7edm5sAKtjnMxZ3OEtOYCHjI=", "properties": {"ref": "L2NvbnRlbnQvZGFtL2psbC1jb20vbW9kZWxzL2xvY2F0aW9ucy9lbi9tYWRyaWQ", "@spider": "jll", "office": "estate_agent", "addr:full": "Paseo de la Castellana", "addr:city": "Madrid", "addr:state": "Spain", "addr:postcode": "28046", "name": "Madrid", "phone": "+34 91 789 11 00 ", "brand": "JLL", "brand:wikidata": "Q1703389", "nsi_id": "jll-08bb13"}, "geometry": {"type": "Point", "coordinates": [-3.69245, 40.447549]}},
{"type": "Feature", "id": "xg5LA_lWmPblbxLU4FMTfKxxqqc=", "properties": {"ref": "L2NvbnRlbnQvZGFtL2psbC1jb20vbW9kZWxzL2xvY2F0aW9ucy9lbi9sdXhlbWJvdXJn", "@spider": "jll", "office": "estate_agent", "addr:full": "Bertrange Atrium Business Park", "addr:city": "Luxembourg", "addr:state": "Luxembourg", "addr:postcode": "8070", "addr:country": "LU", "name": "Luxembourg", "phone": "+352 26 86 891", "website": "https://www.jll.lu/en/city/luxembourg", "brand": "JLL", "brand:wikidata": "Q1703389", "nsi_id": "jll-08bb13"}, "geometry": {"type": "Point", "coordinates": [6.078088, 49.608748]}},
{"type": "Feature", "id": "ZiauTX5PzEpPRHr08M0l2h3TjBQ=", "properties": {"ref": "L2NvbnRlbnQvZGFtL2psbC1jb20vbW9kZWxzL2xvY2F0aW9ucy9lbi9zbG92YWtpYQ", "@spider": "jll", "office": "estate_agent", "addr:full": "Blumental Offices II", "addr:city": "Bratislava", "addr:state": "Slovakia", "addr:postcode": "811 07", "addr:country": "SK", "name": "Bratislava", "phone": "+421 (0) 2 59 20 99 11", "website": "https://www.jll.sk/en/cities/bratislava", "brand": "JLL", "brand:wikidata": "Q1703389", "nsi_id": "jll-08bb13"}, "geometry": {"type": "Point", "coordinates": [17.119213, 48.156231]}},
{"type": "Feature", "id": "PymwsqNLQxK7aShHrEfSv9mU3LQ=", "properties": {"ref": "L2NvbnRlbnQvZGFtL2psbC1jb20vbW9kZWxzL2xvY2F0aW9ucy9lbi9mcmFua2Z1cnQ", "@spider": "jll", "office": "estate_agent", "addr:full": "Jones Lang LaSalle SE", "addr:city": "Frankfurt", "addr:state": "Germany", "addr:postcode": "60325 Frankfurt", "addr:country": "DE", "name": "Frankfurt", "phone": "+49 (0) 69 2003 0", "website": "https://www.jll.de/en/cities/frankfurt", "brand": "JLL", "brand:wikidata": "Q1703389", "nsi_id": "jll-08bb13"}, "geometry": {"type": "Point", "coordinates": [8.663744, 50.117592]}},
{"type": "Feature", "id": "YRLXpCiJEiyXac6j0e_fej_N9jc=", "properties": {"ref": "L2NvbnRlbnQvZGFtL2psbC1jb20vbW9kZWxzL2xvY2F0aW9ucy9lbi93cm9jbGF3", "@spider": "jll", "office": "estate_agent", "addr:full": "ul. Sucha 3, Spaces (2nd floor)", "addr:city": "Wroc\u0142aw", "addr:state": "Poland", "addr:postcode": "50-086", "addr:country": "PL", "name": "Wroc\u0142aw", "phone": "+48 71 757 14 09 ", "website": "https://www.jll.pl/en/cities/wroclaw", "brand": "JLL", "brand:wikidata": "Q1703389", "nsi_id": "jll-08bb13"}},
{"type": "Feature", "id": "VjtybBGWBRbh7g4zk3qMkuUkjhw=", "properties": {"ref": "L2NvbnRlbnQvZGFtL2psbC1jb20vbW9kZWxzL2xvY2F0aW9ucy9lbi9tw6lyaWRh", "@spider": "jll", "office": "estate_agent", "addr:city": "Mexico", "addr:state": "Americas", "name": "Merida", "phone": "999 292 1800", "brand": "JLL", "brand:wikidata": "Q1703389", "nsi_id": "jll-08bb13"}},
{"type": "Feature", "id": "HHLYo0ad6vUGHK76-qFwMyeSing=", "properties": {"ref": "L2NvbnRlbnQvZGFtL2psbC1jb20vbW9kZWxzL2xvY2F0aW9ucy9lbi9qbGwtc3lkbmV5", "@spider": "jll", "office": "estate_agent", "addr:full": "Gadigal Country", "addr:city": "Sydney", "addr:state": "Australia", "addr:postcode": "NSW 2000", "name": "Sydney", "phone": "+61 2 9220 8500", "brand": "JLL", "brand:wikidata": "Q1703389", "nsi_id": "jll-08bb13"}, "geometry": {"type": "Point", "coordinates": [151.20751638304796, -33.869649800000005]}},
{"type": "Feature", "id": "E4Vnnxwr-WZnv-i58xSMCPGHAiI=", "properties": {"ref": "L2NvbnRlbnQvZGFtL2psbC1jb20vbW9kZWxzL2xvY2F0aW9ucy9lbi9qbGwtY29pbWJhdG9yZQ", "@spider": "jll", "office": "estate_agent", "addr:full": "3rd floor, #1045, Avinashi road", "addr:city": "Coimbatore", "addr:state": "India", "addr:postcode": "641 018", "name": "Coimbatore", "phone": "+91 422 400 5175", "brand": "JLL", "brand:wikidata": "Q1703389", "nsi_id": "jll-08bb13"}, "geometry": {"type": "Point", "coordinates": [76.97718641298027, 11.006707321790188]}},
{"type": "Feature", "id": "AnXICEVTC4m2JqtPNuFGS2B0UF8=", "properties": {"ref": "L2NvbnRlbnQvZGFtL2psbC1jb20vbW9kZWxzL2xvY2F0aW9ucy9lbi9yaGVpbi1ydWhy", "@spider": "jll", "office": "estate_agent", "addr:full": "Jones Lang LaSalle SE", "addr:city": "Germany", "addr:state": "EMEA", "addr:postcode": "45138 Essen", "addr:country": "DE", "name": "Metropolitan region Rhine-Ruhr", "phone": "+49 (0) 201 170036 0", "website": "https://www.jll.de/en/cities/rhine-ruhr", "brand": "JLL", "brand:wikidata": "Q1703389", "nsi_id": "jll-08bb13"}, "geometry": {"type": "Point", "coordinates": [7.033519, 51.443915]}},
{"type": "Feature", "id": "YEuznunFQEq-Zq14qm_-fPn0kXA=", "properties": {"ref": "L2NvbnRlbnQvZGFtL2psbC1jb20vbW9kZWxzL2xvY2F0aW9ucy9lbi9hbC1raG9iYXI", "@spider": "jll", "office": "estate_agent", "addr:full": "Level 21, Al Khobar Gate Tower", "addr:city": "Al Khobar", "addr:state": "Saudi Arabia", "addr:postcode": "31952", "name": "Al Khobar", "phone": "+966 1 3 3308 401 ", "website": "https://www.jll-mena.com/en/cities/al-khobar", "brand": "JLL", "brand:wikidata": "Q1703389", "nsi_id": "jll-08bb13"}, "geometry": {"type": "Point", "coordinates": [50.2091479, 26.307995]}},
{"type": "Feature", "id": "Bg_Fj_m2DWxNKAeg0CpWBz4h0q8=", "properties": {"ref": "L2NvbnRlbnQvZGFtL2psbC1jb20vbW9kZWxzL2xvY2F0aW9ucy9lbi9qbGwtbWFjYXU", "@spider": "jll", "office": "estate_agent", "addr:full": "Unit H, 16/F, Finance and IT Center of Macau", "addr:city": "Macau SAR, China", "addr:state": "Asia Pacific", "name": "Macau", "phone": "+853 2871 8822", "brand": "JLL", "brand:wikidata": "Q1703389", "nsi_id": "jll-08bb13"}, "geometry": {"type": "Point", "coordinates": [113.542167, 22.189361]}},
{"type": "Feature", "id": "dj9C0SnqIlJJZhmYrbUgCpOh95A=", "properties": {"ref": "L2NvbnRlbnQvZGFtL2psbC1jb20vbW9kZWxzL2xvY2F0aW9ucy9lbi9wZXJ1", "@spider": "jll", "office": "estate_agent", "addr:full": "Avenida Juan de Arona 151, Suite 701A", "addr:city": "Lima", "addr:state": "Peru", "addr:postcode": "15046", "name": "Peru", "phone": "+51 1 717 9080", "brand": "JLL", "brand:wikidata": "Q1703389", "nsi_id": "jll-08bb13"}, "geometry": {"type": "Point", "coordinates": [-77.032064, -12.096555]}},
{"type": "Feature", "id": "FphobB-y1tGR1BDqQq0ZfqzE_jI=", "properties": {"ref": "L2NvbnRlbnQvZGFtL2psbC1jb20vbW9kZWxzL2xvY2F0aW9ucy9lbi9zYWludC1sYXVyZW50", "@spider": "jll", "office": "estate_agent", "addr:full": "7405 Rte Transcanadienne, Suite 360", "addr:city": "Montr\u00e9al", "addr:state": "Canada", "addr:postcode": "H4T 1Z2", "addr:country": "CA", "name": "Montreal | Saint-Laurent", "phone": "+1 514 849 8849", "website": "https://www.jll.ca/fr/emplacement/montreal", "brand": "JLL", "brand:wikidata": "Q1703389", "nsi_id": "jll-08bb13"}, "geometry": {"type": "Point", "coordinates": [-73.707809, 45.48978]}},
{"type": "Feature", "id": "qpkrVRqBcZfVsYgDolDm20bhTCk=", "properties": {"ref": "L2NvbnRlbnQvZGFtL2psbC1jb20vbW9kZWxzL2xvY2F0aW9ucy9lbi9sYXNhbGxlLWludmVzdG1lbnQtbWFuYWdlbWVudC0z", "@spider": "jll", "office": "estate_agent", "addr:full": "Suite 3008, 30/F, AIA Central,", "addr:city": "Hong Kong SAR, China", "addr:state": "Asia Pacific", "name": "LaSalle Investment Management", "phone": "+852 3182 5300", "brand": "JLL", "brand:wikidata": "Q1703389", "nsi_id": "jll-08bb13"}, "geometry": {"type": "Point", "coordinates": [114.1593035, 22.281398]}},
{"type": "Feature", "id": "Cw1RufMnYPTkm3iLFh-PbvJUOQY=", "properties": {"ref": "L2NvbnRlbnQvZGFtL2psbC1jb20vbW9kZWxzL2xvY2F0aW9ucy9lbi9sYXNhbGxlLWludmVzdG1lbnQtbWFuYWdlbWVudC02", "@spider": "jll", "office": "estate_agent", "addr:full": "1 Curzon Street", "addr:city": "London", "addr:state": "United Kingdom", "addr:postcode": "W1J 5HD", "name": "LaSalle Investment Management", "phone": "+44 20 7852 4200", "brand": "JLL", "brand:wikidata": "Q1703389", "nsi_id": "jll-08bb13"}, "geometry": {"type": "Point", "coordinates": [-0.1477593, 51.5077315]}},
{"type": "Feature", "id": "l_vIpzCWPZYNhmvpUjZz2UlF58s=", "properties": {"ref": "L2NvbnRlbnQvZGFtL2psbC1jb20vbW9kZWxzL2xvY2F0aW9ucy9lbi9sYXNhbGxlLWludmVzdG1lbnQtbWFuYWdlbWVudC0tLXRva3lv", "@spider": "jll", "office": "estate_agent", "addr:full": "Pacific Century Place 14th floor, 1-11-1", "addr:city": "Tokyo", "addr:state": "Japan", "addr:postcode": "100-6214", "name": "LaSalle Investment Management Tokyo", "phone": "+81-3-4213-0600", "brand": "JLL", "brand:wikidata": "Q1703389", "nsi_id": "jll-08bb13"}, "geometry": {"type": "Point", "coordinates": [139.7669527, 35.6780328]}},
{"type": "Feature", "id": "I07q0E3eDi7IQvcQ-0qd6vLBQ_Y=", "properties": {"ref": "L2NvbnRlbnQvZGFtL2psbC1jb20vbW9kZWxzL2xvY2F0aW9ucy9lbi9kdWJhaQ", "@spider": "jll", "office": "estate_agent", "addr:full": "EMAAR Square, Building 1 Office 403", "addr:city": "Dubai", "addr:state": "United Arab Emirates", "addr:postcode": "PO Box 214029", "name": "Dubai", "phone": "+971 4 426 6999 ", "website": "https://www.jll-mena.com/en/cities/dubai", "brand": "JLL", "brand:wikidata": "Q1703389", "nsi_id": "jll-08bb13"}, "geometry": {"type": "Point", "coordinates": [55.272192, 25.201597]}},
{"type": "Feature", "id": "HAqB3vG-w-fgQpOjJtUscxJ6Onw=", "properties": {"ref": "L2NvbnRlbnQvZGFtL2psbC1jb20vbW9kZWxzL2xvY2F0aW9ucy9lbi9nZW5ldmE", "@spider": "jll", "office": "estate_agent", "addr:full": "Rue Vallin 2", "addr:city": "Geneva", "addr:state": "Switzerland", "addr:postcode": "1201", "addr:country": "CH", "name": "Geneva", "phone": "+41 (22) 839 73 73 ", "website": "https://www.jll.ch/en/city/geneva", "brand": "JLL", "brand:wikidata": "Q1703389", "nsi_id": "jll-08bb13"}, "geometry": {"type": "Point", "coordinates": [6.142377, 46.206186]}},
{"type": "Feature", "id": "kM85AMPOE_zvVZjxi52lwhdb7Mk=", "properties": {"ref": "L2NvbnRlbnQvZGFtL2psbC1jb20vbW9kZWxzL2xvY2F0aW9ucy9lbi9yb21l", "@spider": "jll", "office": "estate_agent", "addr:full": "Via Bissolati 20", "addr:city": "Rome", "addr:state": "Italy", "addr:postcode": "00187", "addr:country": "IT", "name": "Roma", "phone": "+39 06 4200671 ", "website": "https://www.jll.it/it/citta/servizi-immobiliari-a-roma", "brand": "JLL", "brand:wikidata": "Q1703389", "nsi_id": "jll-08bb13"}, "geometry": {"type": "Point", "coordinates": [12.491478, 41.905521]}},
{"type": "Feature", "id": "wnCGICBkZPAK2GqM80J-X52Al4A=", "properties": {"ref": "L2NvbnRlbnQvZGFtL2psbC1jb20vbW9kZWxzL2xvY2F0aW9ucy9lbi9qbGzCoHllb25nZGV1bmdwby1ndQ", "@spider": "jll", "office": "estate_agent", "addr:full": "32F One IFC", "addr:city": "Korea", "addr:state": "Asia Pacific", "addr:postcode": "Seoul 07326", "name": "JLL Korea", "phone": "+82 2 3704 8888", "brand": "JLL", "brand:wikidata": "Q1703389", "nsi_id": "jll-08bb13"}, "geometry": {"type": "Point", "coordinates": [126.926266, 37.525855]}},
{"type": "Feature", "id": "3tHB25NJKDS_sK3PAcuq6rrP7rQ=", "properties": {"ref": "L2NvbnRlbnQvZGFtL2psbC1jb20vbW9kZWxzL2xvY2F0aW9ucy9lbi90aWp1YW5h", "@spider": "jll", "office": "estate_agent", "addr:full": "Blvd. Agua Caliente 10611, Edificio Centura, Suite 506", "addr:city": "Tijuana", "addr:state": "Mexico", "addr:postcode": "10611", "name": "Tijuana", "phone": "52 664 681 8585", "brand": "JLL", "brand:wikidata": "Q1703389", "nsi_id": "jll-08bb13"}, "geometry": {"type": "Point", "coordinates": [-116.995407, 32.49807]}},
{"type": "Feature", "id": "ilI0psDmRJPqRJ0JIm6XbytGiE0=", "properties": {"ref": "L2NvbnRlbnQvZGFtL2psbC1jb20vbW9kZWxzL2xvY2F0aW9ucy9lbi9jb2x1bWJpYS0x", "@spider": "jll", "office": "estate_agent", "addr:full": "Calle 82 N 9 - 65", "addr:city": "Bogata", "addr:state": "Colombia", "addr:postcode": "110221", "name": "Colombia", "phone": "57 1 744 1410", "brand": "JLL", "brand:wikidata": "Q1703389", "nsi_id": "jll-08bb13"}, "geometry": {"type": "Point", "coordinates": [-74.0511845, 4.665731]}},
{"type": "Feature", "id": "y2fsPBN7T1n6OCed1bqX__43QCI=", "properties": {"ref": "L2NvbnRlbnQvZGFtL2psbC1jb20vbW9kZWxzL2xvY2F0aW9ucy9lbi9hYnUtZGhhYmk", "@spider": "jll", "office": "estate_agent", "addr:full": "Office No. 3, 7th Floor, Towers at the Trade Centre (East Tower)", "addr:city": "Abu Dhabi", "addr:state": "United Arab Emirates", "addr:postcode": "PO Box 36788", "name": "Abu Dhabi", "phone": "+971 2 443 7772 ", "website": "https://www.jll-mena.com/en/cities/abu-dhabi", "brand": "JLL", "brand:wikidata": "Q1703389", "nsi_id": "jll-08bb13"}, "geometry": {"type": "Point", "coordinates": [54.383311, 24.495766]}},
{"type": "Feature", "id": "0T3MJSVgHarS-Im3wsqUx6bBNv0=", "properties": {"ref": "L2NvbnRlbnQvZGFtL2psbC1jb20vbW9kZWxzL2xvY2F0aW9ucy9lbi9wYXJpcy0tLXNhaW50LS0tZGVuaXM", "@spider": "jll", "office": "estate_agent", "addr:full": "JLL", "addr:city": "France", "addr:state": "EMEA", "addr:postcode": "93210 Saint-Denis", "name": "Paris - Saint Denis", "phone": "+33 1 40 55 15 15", "brand": "JLL", "brand:wikidata": "Q1703389", "nsi_id": "jll-08bb13"}, "geometry": {"type": "Point", "coordinates": [2.3643149, 48.92333]}},
{"type": "Feature", "id": "jBpUXwqaqGpeW6cZu6CyAu_tag4=", "properties": {"ref": "L2NvbnRlbnQvZGFtL2psbC1jb20vbW9kZWxzL2xvY2F0aW9ucy9lbi9zdG9ja2hvbG0", "@spider": "jll", "office": "estate_agent", "addr:full": "Birger Jarlsgatan 25, 4th floor", "addr:city": "Stockholm", "addr:state": "Sweden", "addr:postcode": "111 81", "addr:country": "SE", "name": "Stockholm", "phone": "+46 8 453 50 00 ", "website": "https://www.jllsweden.se/en/cities/stockholm", "brand": "JLL", "brand:wikidata": "Q1703389", "nsi_id": "jll-08bb13"}, "geometry": {"type": "Point", "coordinates": [18.0706953, 59.3369255]}},
{"type": "Feature", "id": "OWjtK1jmoDTe89RINhTRBK9OF-Q=", "properties": {"ref": "L2NvbnRlbnQvZGFtL2psbC1jb20vbW9kZWxzL2xvY2F0aW9ucy9lbi9uYW5qaW5n", "@spider": "jll", "office": "estate_agent", "addr:full": "Room 2201, Deji Plaza Office Tower", "addr:city": "China", "addr:state": "Asia Pacific", "name": "Nanjing ", "phone": "+86 25 8966 0660", "brand": "JLL", "brand:wikidata": "Q1703389", "nsi_id": "jll-08bb13"}, "geometry": {"type": "Point", "coordinates": [118.784648, 32.04264]}},
{"type": "Feature", "id": "smPSQFZeIsjsnPGhvONpd3swmYc=", "properties": {"ref": "L2NvbnRlbnQvZGFtL2psbC1jb20vbW9kZWxzL2xvY2F0aW9ucy9lbi9qbGwtZ29sZC1jb2FzdA", "@spider": "jll", "office": "estate_agent", "addr:full": "Yugambeh Country", "addr:city": "Gold Coast", "addr:state": "Australia", "addr:postcode": "QLD 4215", "name": "Gold Coast", "phone": "+61 7 5558 6401", "brand": "JLL", "brand:wikidata": "Q1703389", "nsi_id": "jll-08bb13"}, "geometry": {"type": "Point", "coordinates": [153.414824, -27.965071]}},
{"type": "Feature", "id": "cC4Cg-gEI3CDjjPIBt-EGUL73Vs=", "properties": {"ref": "L2NvbnRlbnQvZGFtL2psbC1jb20vbW9kZWxzL2xvY2F0aW9ucy9lbi9qbGwtbG9uZG9uLS0td2VzdC1lbmQ", "@spider": "jll", "office": "estate_agent", "addr:full": "30 Warwick Street", "addr:city": "London", "addr:state": "United Kingdom", "addr:postcode": "W1B 5NH", "addr:country": "GB", "name": "London - West End", "phone": "+44 (0)20 7493 4933", "website": "https://www.jll.co.uk/en/cities/london-west-end", "brand": "JLL", "brand:wikidata": "Q1703389", "nsi_id": "jll-08bb13"}, "geometry": {"type": "Point", "coordinates": [-0.1408428, 51.511486]}},
{"type": "Feature", "id": "L6FT4s3LmaH6tyicK55-SF8gGBo=", "properties": {"ref": "L2NvbnRlbnQvZGFtL2psbC1jb20vbW9kZWxzL2xvY2F0aW9ucy9lbi9zYW4tZnJhbmNpc2NvLS0tamxsLXNwYXJr", "@spider": "jll", "office": "estate_agent", "addr:full": "4 Embarcadero Center", "addr:city": "San Francisco", "addr:state": "California", "addr:postcode": "94111", "name": "JLL Spark", "phone": "+1 415 490 3444", "website": "https://www.us.jll.com/en/jll-spark", "brand": "JLL", "brand:wikidata": "Q1703389", "nsi_id": "jll-08bb13"}, "geometry": {"type": "Point", "coordinates": [-122.396102, 37.79541]}},
{"type": "Feature", "id": "TMmOagUpDwLZdMk9JGxmwMF4chQ=", "properties": {"ref": "L2NvbnRlbnQvZGFtL2psbC1jb20vbW9kZWxzL2xvY2F0aW9ucy9lbi9sYXNhbGxlLWludmVzdG1lbnQtbWFuYWdlbWVudC0x", "@spider": "jll", "office": "estate_agent", "addr:full": "Gadigal Country", "addr:city": "Sydney", "addr:state": "Australia", "addr:postcode": "NSW 2000", "name": "LaSalle Investment Management", "phone": "+61 2 9284 7926", "brand": "JLL", "brand:wikidata": "Q1703389", "nsi_id": "jll-08bb13"}, "geometry": {"type": "Point", "coordinates": [151.207992, -33.862298]}},
{"type": "Feature", "id": "LyzEHq4ffcHRUQsiafu5D6_cFRM=", "properties": {"ref": "L2NvbnRlbnQvZGFtL2psbC1jb20vbW9kZWxzL2xvY2F0aW9ucy9lbi9sYXNhbGxlLXJlaXQtYWR2aXNvcnMtdG9reW8", "@spider": "jll", "office": "estate_agent", "addr:full": "Pacific Century Place 14th floor, 1-11-1", "addr:city": "Tokyo", "addr:state": "Japan", "addr:postcode": "100-6214", "name": "LaSalle REIT Advisors", "phone": "+81-3-6367-5600", "brand": "JLL", "brand:wikidata": "Q1703389", "nsi_id": "jll-08bb13"}, "geometry": {"type": "Point", "coordinates": [139.76695512883518, 35.67821517466913]}},
{"type": "Feature", "id": "UjN9Mh_a3QpCl_wxZPizuQnYIHw=", "properties": {"ref": "L2NvbnRlbnQvZGFtL2psbC1jb20vbW9kZWxzL2xvY2F0aW9ucy9lbi9zYW4tZGllZ28tbGEtam9sbGEtdmlsbGFnZS1kcml2ZQ", "@spider": "jll", "office": "estate_agent", "addr:full": "4350 La Jolla Village Drive", "addr:postcode": "92122", "name": "San Diego | La Jolla Village Drive", "phone": "+1 858 552 7690", "brand": "JLL", "brand:wikidata": "Q1703389", "nsi_id": "jll-08bb13"}, "geometry": {"type": "Point", "coordinates": [-117.2125397, 32.8740654]}},
{"type": "Feature", "id": "Zo5Lcb2bJgfYdvjYR7SewD2jYec=", "properties": {"ref": "L2NvbnRlbnQvZGFtL2psbC1jb20vbW9kZWxzL2xvY2F0aW9ucy9lbi90aGUtdmljdG9yaWEtcGFyay1wYXZpbGlvbg", "@spider": "jll", "office": "estate_agent", "addr:full": "203-271 Victoria Street West,", "addr:postcode": "1010", "name": "The Victoria Park Pavilion", "phone": "+64 9 366 1666", "brand": "JLL", "brand:wikidata": "Q1703389", "nsi_id": "jll-08bb13"}, "geometry": {"type": "Point", "coordinates": [174.754242373, -36.84694126]}},
{"type": "Feature", "id": "hIxloRY3PwlOoEIeX57kEWZUJbo=", "properties": {"ref": "L2NvbnRlbnQvZGFtL2psbC1jb20vbW9kZWxzL2xvY2F0aW9ucy9lbi9rb3JlYS1sYXNhbGxlLWludmVzdG1lbnQtbWFuYWdlbWVudA", "@spider": "jll", "office": "estate_agent", "addr:full": "16F Two IFC", "addr:city": "Korea", "addr:state": "Asia Pacific", "addr:postcode": "Seoul 07326", "name": "LaSalle Investment Management", "phone": "+82 2 6137 6137", "brand": "JLL", "brand:wikidata": "Q1703389", "nsi_id": "jll-08bb13"}, "geometry": {"type": "Point", "coordinates": [126.92492, 37.525105]}},
{"type": "Feature", "id": "Qe174IOpg0NxRFfoAujqaMIpFeQ=", "properties": {"ref": "L2NvbnRlbnQvZGFtL2psbC1jb20vbW9kZWxzL2xvY2F0aW9ucy9lbi9qbGwtKHRoYWlsYW5kKS1sdGQsLWJhbmdrb2s", "@spider": "jll", "office": "estate_agent", "addr:full": "10/F, The PARQ, 88 Ratchadaphisek Road, Khlong Toei,", "addr:city": "Bangkok", "addr:state": "Thailand", "addr:postcode": "10110", "name": "JLL Thailand", "phone": "+66(0)2 624 6400", "brand": "JLL", "brand:wikidata": "Q1703389", "nsi_id": "jll-08bb13"}, "geometry": {"type": "Point", "coordinates": [100.5580609998701, 13.721446248026576]}},
{"type": "Feature", "id": "T5sDKWh83CJnQ3WUAR8BU_8_Ekg=", "properties": {"ref": "L2NvbnRlbnQvZGFtL2psbC1jb20vbW9kZWxzL2xvY2F0aW9ucy9lbi9leGV0ZXI", "@spider": "jll", "office": "estate_agent", "addr:full": "Ground Floor, The Senate", "addr:city": "Exeter", "addr:state": "United Kingdom", "addr:postcode": "EX1 1UG", "addr:country": "GB", "name": "Exeter", "phone": "+44 (0)139 242 3696", "website": "https://www.jll.co.uk/en/cities/exeter", "brand": "JLL", "brand:wikidata": "Q1703389", "nsi_id": "jll-08bb13"}, "geometry": {"type": "Point", "coordinates": [-3.5245263, 50.7221189]}},
{"type": "Feature", "id": "4J6fUHvmx7YANfEc40doTgFOEJ4=", "properties": {"ref": "L2NvbnRlbnQvZGFtL2psbC1jb20vbW9kZWxzL2xvY2F0aW9ucy9lbi9jb2xvZ25l", "@spider": "jll", "office": "estate_agent", "addr:full": "Jones Lang LaSalle SE ", "addr:city": "Cologne", "addr:state": "Germany", "addr:postcode": "50667 Cologne", "addr:country": "DE", "name": "Cologne", "phone": "+49 (0) 221 2775 0", "website": "https://www.jll.de/en/cities/cologne", "brand": "JLL", "brand:wikidata": "Q1703389", "nsi_id": "jll-08bb13"}, "geometry": {"type": "Point", "coordinates": [6.9473841, 50.9366995]}},
{"type": "Feature", "id": "MjQ8ZJZYpni-8-q_nLKJ6LdLdGo=", "properties": {"ref": "L2NvbnRlbnQvZGFtL2psbC1jb20vbW9kZWxzL2xvY2F0aW9ucy9lbi9tYW5jaGVzdGVy", "@spider": "jll", "office": "estate_agent", "addr:full": "Landmark", "addr:city": "United Kingdom", "addr:state": "EMEA", "addr:postcode": "M1 4PB", "addr:country": "GB", "name": "Manchester", "phone": "+44 (0)161 828 6440", "website": "https://www.jll.co.uk/en/cities/manchester", "brand": "JLL", "brand:wikidata": "Q1703389", "nsi_id": "jll-08bb13"}, "geometry": {"type": "Point", "coordinates": [-2.24219, 53.47578]}},
{"type": "Feature", "id": "kxRBFZmacAHOpZxetYGPP1IrAOY=", "properties": {"ref": "L2NvbnRlbnQvZGFtL2psbC1jb20vbW9kZWxzL2xvY2F0aW9ucy9lbi9vc2FrYQ", "@spider": "jll", "office": "estate_agent", "addr:full": "Nissay Yodoyabashi East, 3-3-13", "addr:city": "Osaka", "addr:state": "Japan", "addr:postcode": "541-0042", "name": "Kansai Office", "phone": "+81-6 4706 1050", "brand": "JLL", "brand:wikidata": "Q1703389", "nsi_id": "jll-08bb13"}, "geometry": {"type": "Point", "coordinates": [135.502227544784, 34.6904803010946]}},
{"type": "Feature", "id": "dYYuS7QuklXwPE0DfsDtIzQzi7c=", "properties": {"ref": "L2NvbnRlbnQvZGFtL2psbC1jb20vbW9kZWxzL2xvY2F0aW9ucy9lbi9jb3N0YS1yaWNh", "@spider": "jll", "office": "estate_agent", "addr:full": "Ultra Park 1, Edificio 1B", "addr:city": "San Jos\u00e9", "addr:state": "Costa Rica", "addr:postcode": "40104", "name": "Costa Rica", "phone": "+506 2293 9069", "brand": "JLL", "brand:wikidata": "Q1703389", "nsi_id": "jll-08bb13"}, "geometry": {"type": "Point", "coordinates": [-84.152925, 9.987406]}},
{"type": "Feature", "id": "IoszyzEv4Ld3kdrId1GivB-e92c=", "properties": {"ref": "L2NvbnRlbnQvZGFtL2psbC1jb20vbW9kZWxzL2xvY2F0aW9ucy9lbi9qbGwtaGFub2k", "@spider": "jll", "office": "estate_agent", "addr:full": "Unit 902, 9/F, Sun Red River Building", "addr:city": "Hanoi", "addr:state": "Vietnam", "name": "JLL Hanoi", "phone": "+844 3944 0133", "brand": "JLL", "brand:wikidata": "Q1703389", "nsi_id": "jll-08bb13"}, "geometry": {"type": "Point", "coordinates": [105.856476, 21.020797]}},
{"type": "Feature", "id": "JFs9MhfTOh3XAh5qIPuY5BRrdls=", "properties": {"ref": "L2NvbnRlbnQvZGFtL2psbC1jb20vbW9kZWxzL2xvY2F0aW9ucy9lbi9saXNib24", "@spider": "jll", "office": "estate_agent", "addr:full": "Rua Castilho, 39 ", "addr:city": "Lisbon", "addr:state": "Portugal", "addr:postcode": "1250-068", "name": "Lisbon", "phone": "+351 800 18 08 85", "brand": "JLL", "brand:wikidata": "Q1703389", "nsi_id": "jll-08bb13"}, "geometry": {"type": "Point", "coordinates": [-9.1519603, 38.722927]}},
{"type": "Feature", "id": "RmUoYS4AExyS5DUOUeRrOaQqFA4=", "properties": {"ref": "L2NvbnRlbnQvZGFtL2psbC1jb20vbW9kZWxzL2xvY2F0aW9ucy9lbi9ub3R0aW5naGFt", "@spider": "jll", "office": "estate_agent", "addr:full": "East West Building", "addr:city": "Nottingham", "addr:state": "United Kingdom", "addr:postcode": "NG1 5FS", "addr:country": "GB", "name": "Nottingham", "phone": "+44 (0)115 908 2120", "website": "https://www.jll.co.uk/en/cities/nottingham", "brand": "JLL", "brand:wikidata": "Q1703389", "nsi_id": "jll-08bb13"}, "geometry": {"type": "Point", "coordinates": [-1.154953, 52.954571]}},
{"type": "Feature", "id": "adCnnHpEhfFT8p3wSk3BP-cSwJY=", "properties": {"ref": "L2NvbnRlbnQvZGFtL2psbC1jb20vbW9kZWxzL2xvY2F0aW9ucy9lbi93YXJzYXctc3BpcmU", "@spider": "jll", "office": "estate_agent", "addr:full": "Plac Europejski 1 ", "addr:city": "Warszawa", "addr:state": "Poland", "addr:postcode": "00-844", "addr:country": "PL", "name": "Warszawa", "phone": "+48 22 167 0000 ", "website": "https://www.jll.pl/en/cities/warsaw", "brand": "JLL", "brand:wikidata": "Q1703389", "nsi_id": "jll-08bb13"}},
{"type": "Feature", "id": "BH0KRnG1h1tlkzHdN-Z6u5suyJQ=", "properties": {"ref": "L2NvbnRlbnQvZGFtL2psbC1jb20vbW9kZWxzL2xvY2F0aW9ucy9lbi9taW50ZXJlbGxpc29ucnVkZHdhdHRz", "@spider": "jll", "office": "estate_agent", "addr:full": "PwC Tower level 22", "addr:postcode": "1010", "name": "MinterEllisonRuddWatts", "phone": "+64 09-353 9700", "brand": "JLL", "brand:wikidata": "Q1703389", "nsi_id": "jll-08bb13"}, "geometry": {"type": "Point", "coordinates": [174.76576155973908, -36.84370119303422]}},
{"type": "Feature", "id": "Q4yfhSKJ1DBQCAq_aQPfw8Wxv4c=", "properties": {"ref": "L2NvbnRlbnQvZGFtL2psbC1jb20vbW9kZWxzL2xvY2F0aW9ucy9lbi9sb2R6", "@spider": "jll", "office": "estate_agent", "addr:full": " ul. Gda\u0144ska 130", "addr:city": "Lodz", "addr:state": "Poland", "addr:postcode": "90-520", "addr:country": "PL", "name": "\u0141\u00f3d\u017a", "phone": "+48 602 756 456", "website": "https://www.jll.pl/en/cities/lodz", "brand": "JLL", "brand:wikidata": "Q1703389", "nsi_id": "jll-08bb13"}},
{"type": "Feature", "id": "3xpY4y7oAgyTRGnW3d1tp38iqaQ=", "properties": {"ref": "L2NvbnRlbnQvZGFtL2psbC1jb20vbW9kZWxzL2xvY2F0aW9ucy9lbi90YWl3YW4tKGdyZWF0ZXItY2hpbmEp", "@spider": "jll", "office": "estate_agent", "addr:full": "20F-1 Taipei 101 Tower, No. 7", "addr:city": "China", "addr:state": "Asia Pacific", "name": "Taiwan", "phone": "+886 2 8758 9898", "brand": "JLL", "brand:wikidata": "Q1703389", "nsi_id": "jll-08bb13"}, "geometry": {"type": "Point", "coordinates": [121.542394, 25.034017]}},
{"type": "Feature", "id": "4OkB9HWkwlK9Nu5V4UM8UkiFPLw=", "properties": {"ref": "L2NvbnRlbnQvZGFtL2psbC1jb20vbW9kZWxzL2xvY2F0aW9ucy9lbi9tYWNhdS0oZ3JlYXRlci1jaGluYSk", "@spider": "jll", "office": "estate_agent", "addr:full": "Unit H, 16/F, Finance and IT Center of Macau", "addr:city": "China", "addr:state": "Asia Pacific", "name": "Macau", "phone": "+853 2871 8822", "brand": "JLL", "brand:wikidata": "Q1703389", "nsi_id": "jll-08bb13"}, "geometry": {"type": "Point", "coordinates": [113.553767, 22.192466]}},
{"type": "Feature", "id": "l46qvS1fAIviICaTtUqGCuwwQjo=", "properties": {"ref": "L2NvbnRlbnQvZGFtL2psbC1jb20vbW9kZWxzL2xvY2F0aW9ucy9lbi9sb25kb24tLS1jYW5hcnktd2hhcmY", "@spider": "jll", "office": "estate_agent", "addr:full": "20 Water Street", "addr:city": "London", "addr:state": "United Kingdom", "addr:postcode": "E14 9QA", "addr:country": "GB", "name": "London - JLL Canary Wharf", "phone": "+44 (0)20 3147 6040", "website": "https://www.jll.co.uk/en/cities/london-canary-wharf", "brand": "JLL", "brand:wikidata": "Q1703389", "nsi_id": "jll-08bb13"}, "geometry": {"type": "Point", "coordinates": [-0.020827, 51.511022]}},
{"type": "Feature", "id": "i01Jcn01iH-Anz7lrE5bhdQptGM=", "properties": {"ref": "L2NvbnRlbnQvZGFtL2psbC1jb20vbW9kZWxzL2xvY2F0aW9ucy9lbi9zb3V0aHdlc3Rlcm4tb250YXJpbw", "@spider": "jll", "office": "estate_agent", "addr:full": "290 King Street East", "addr:city": "Southwestern Ontario", "addr:state": "Canada", "addr:postcode": "N2G 2L2", "name": "Southwestern Ontario", "phone": " +1 519 279 1183", "website": "https://hello.jll.com/southwesternontario", "brand": "JLL", "brand:wikidata": "Q1703389", "nsi_id": "jll-08bb13"}, "geometry": {"type": "Point", "coordinates": [-80.484316, 43.447714]}},
{"type": "Feature", "id": "yIYIJ4rUKKbxIc_DdEJ4zoJEL-o=", "properties": {"ref": "L2NvbnRlbnQvZGFtL2psbC1jb20vbW9kZWxzL2xvY2F0aW9ucy9lbi9sb25kb24tLS1uaW5lLWVsbXMtLS1yZXNpZGVudGlhbA", "@spider": "jll", "office": "estate_agent", "addr:full": "Unit C1", "addr:city": "London", "addr:state": "United Kingdom", "addr:postcode": "SW11 8DG", "name": "London - Nine Elms | Residential ", "phone": "+44 (0)20 3892 8649", "brand": "JLL", "brand:wikidata": "Q1703389", "nsi_id": "jll-08bb13"}},
{"type": "Feature", "id": "j_Q_SyHkfFho-xEOSdCETj3mSjw=", "properties": {"ref": "L2NvbnRlbnQvZGFtL2psbC1jb20vbW9kZWxzL2xvY2F0aW9ucy9lbi9sYXNhbGxlLWludmVzdG1lbnQtbWFuYWdlbWVudC03", "@spider": "jll", "office": "estate_agent", "addr:full": "Simon Carmiggeltstraat 12", "name": "LaSalle Investment Management", "phone": "+31 20 530 8888 ", "brand": "JLL", "brand:wikidata": "Q1703389", "nsi_id": "jll-08bb13"}, "geometry": {"type": "Point", "coordinates": [4.9037995, 52.3762808]}},
{"type": "Feature", "id": "fAmbr20ssdyz2vggjHKxVb-vacw=", "properties": {"ref": "L2NvbnRlbnQvZGFtL2psbC1jb20vbW9kZWxzL2xvY2F0aW9ucy9lbi9seW9u", "@spider": "jll", "office": "estate_agent", "addr:full": "JLL", "addr:city": "France", "addr:state": "EMEA", "addr:postcode": "69002 Lyon", "name": "Lyon", "phone": "+33 4 78 89 26 26", "brand": "JLL", "brand:wikidata": "Q1703389", "nsi_id": "jll-08bb13"}, "geometry": {"type": "Point", "coordinates": [4.8158081, 45.739728]}},
{"type": "Feature", "id": "t3ySO4v_DKoicwlDt-RzlrzVFtk=", "properties": {"ref": "L2NvbnRlbnQvZGFtL2psbC1jb20vbW9kZWxzL2xvY2F0aW9ucy9lbi9qbGwta293bG9vbg", "@spider": "jll", "office": "estate_agent", "addr:full": "Suite 2213 Prudential Tower, ", "addr:city": "Hong Kong SAR, China", "addr:state": "Asia Pacific", "name": "Hong Kong | The Gateway", "phone": "+852 2926 3700", "brand": "JLL", "brand:wikidata": "Q1703389", "nsi_id": "jll-08bb13"}, "geometry": {"type": "Point", "coordinates": [114.167802, 22.298678]}},
{"type": "Feature", "id": "R8RqOQ9lczu2FyYbOyBx0OcBgPw=", "properties": {"ref": "L2NvbnRlbnQvZGFtL2psbC1jb20vbW9kZWxzL2xvY2F0aW9ucy9lbi9yaGVpbi1uZWNrYXI", "@spider": "jll", "office": "estate_agent", "addr:full": "Jones Lang LaSalle SE\u200b", "addr:city": "Germany", "addr:state": "EMEA", "addr:postcode": "68161 Mannheim", "addr:country": "DE", "name": "Metropolitan region Rhine-Neckar", "phone": "+49 621 3 999 8 - 330", "website": "https://www.jll.de/en/cities/rhine-neckar", "brand": "JLL", "brand:wikidata": "Q1703389", "nsi_id": "jll-08bb13"}, "geometry": {"type": "Point", "coordinates": [8.4694631, 49.4820607]}},
{"type": "Feature", "id": "ai2vMXC5gayLY6I6frtSz7quar0=", "properties": {"ref": "L2NvbnRlbnQvZGFtL2psbC1jb20vbW9kZWxzL2xvY2F0aW9ucy9lbi9oYW1idXJn", "@spider": "jll", "office": "estate_agent", "addr:full": "Jones Lang LaSalle SE", "addr:city": "Hamburg", "addr:state": "Germany", "addr:postcode": "20459\u200b Hamburg", "addr:country": "DE", "name": "Hamburg", "phone": "+49 (0) 40 350011 0", "website": "https://www.jll.de/en/cities/hamburg", "brand": "JLL", "brand:wikidata": "Q1703389", "nsi_id": "jll-08bb13"}, "geometry": {"type": "Point", "coordinates": [9.9816776, 53.5501052]}},
{"type": "Feature", "id": "m1iP8f-QoF_R4Q5thNsXpeIWfJY=", "properties": {"ref": "L2NvbnRlbnQvZGFtL2psbC1jb20vbW9kZWxzL2xvY2F0aW9ucy9lbi9qbGwtbWlsbC12YWxsZXk", "@spider": "jll", "office": "estate_agent", "addr:full": "655 Redwood Highway", "addr:city": "California", "addr:state": "United States", "addr:postcode": "94941", "name": "JLL Mill Valley", "phone": "+1 415 388 4460", "brand": "JLL", "brand:wikidata": "Q1703389", "nsi_id": "jll-08bb13"}},
{"type": "Feature", "id": "1zuSr3jdnD4opn3m8GNv6BvjljY=", "properties": {"ref": "L2NvbnRlbnQvZGFtL2psbC1jb20vbW9kZWxzL2xvY2F0aW9ucy9lbi9sb25kb24tLS1rbmlnaHRzYnJpZGdlLS0tcmVzaWRlbnRpYWw", "@spider": "jll", "office": "estate_agent", "addr:full": "174 Brompton Road", "addr:city": "London", "addr:state": "United Kingdom", "addr:postcode": "SW3 1HP", "name": "London - Knightsbridge | Residential", "phone": "+44 (0)20 3757 6465", "brand": "JLL", "brand:wikidata": "Q1703389", "nsi_id": "jll-08bb13"}},
{"type": "Feature", "id": "kvBH7AYmOlb2z6WyyHS46h9jmM4=", "properties": {"ref": "L2NvbnRlbnQvZGFtL2psbC1jb20vbW9kZWxzL2xvY2F0aW9ucy9lbi9sb25kb24tY2l0eS0tLXJlc2lkZW50aWFs", "@spider": "jll", "office": "estate_agent", "addr:full": "The Walbrook Building", "addr:city": "London", "addr:state": "United Kingdom", "addr:postcode": "EC4N 8AF", "name": "London City | Residential", "phone": "+44 (0)20 7337 4000", "brand": "JLL", "brand:wikidata": "Q1703389", "nsi_id": "jll-08bb13"}, "geometry": {"type": "Point", "coordinates": [-0.0901463, 51.5135844]}},
{"type": "Feature", "id": "8tukk27nyommHyuH__mlSUJIavU=", "properties": {"ref": "L2NvbnRlbnQvZGFtL2psbC1jb20vbW9kZWxzL2xvY2F0aW9ucy9lbi9sZWVkcw", "@spider": "jll", "office": "estate_agent", "addr:full": "City Point", "addr:city": "Leeds", "addr:state": "United Kingdom", "addr:postcode": "LS1 2HL", "addr:country": "GB", "name": "Leeds", "phone": "+44 (0)113 244 6440", "website": "https://www.jll.co.uk/en/cities/leeds", "brand": "JLL", "brand:wikidata": "Q1703389", "nsi_id": "jll-08bb13"}, "geometry": {"type": "Point", "coordinates": [-1.5504467, 53.7976569]}},
{"type": "Feature", "id": "PQ5cEgwZ686Q8VHcQZOkwZukeGY=", "properties": {"ref": "L2NvbnRlbnQvZGFtL2psbC1jb20vbW9kZWxzL2xvY2F0aW9ucy9lbi9sZWlwemln", "@spider": "jll", "office": "estate_agent", "addr:full": "Jones Lang LaSalle SE ", "addr:city": "Leipzig", "addr:state": "Germany", "addr:postcode": "04109 Leipzig", "addr:country": "DE", "name": "Leipzig", "phone": "+49 (0) 341 22633 0", "website": "https://www.jll.de/en/cities/leipzig", "brand": "JLL", "brand:wikidata": "Q1703389", "nsi_id": "jll-08bb13"}, "geometry": {"type": "Point", "coordinates": [12.3721958, 51.3395813]}},
{"type": "Feature", "id": "cOUaOk3VyYHjyB7H4rY4RTjQVR4=", "properties": {"ref": "L2NvbnRlbnQvZGFtL2psbC1jb20vbW9kZWxzL2xvY2F0aW9ucy9lbi9qbGwtYWhtZWRhYmFk", "@spider": "jll", "office": "estate_agent", "addr:full": "1101 Pinnacle Business Park Corporate Road", "addr:city": "Ahmedabad", "addr:state": "India", "addr:postcode": "380015", "name": "Ahmedabad", "phone": "+91 079 71495678", "brand": "JLL", "brand:wikidata": "Q1703389", "nsi_id": "jll-08bb13"}, "geometry": {"type": "Point", "coordinates": [72.505462, 23.007119]}},
{"type": "Feature", "id": "RbShDLEU4ZB_o7nKMrjUCpcMe54=", "properties": {"ref": "L2NvbnRlbnQvZGFtL2psbC1jb20vbW9kZWxzL2xvY2F0aW9ucy9lbi9lZGluYnVyZ2g", "@spider": "jll", "office": "estate_agent", "addr:full": "7 Exchange Crescent", "addr:city": "Edinburgh", "addr:state": "United Kingdom", "addr:postcode": "EH3 8LL", "addr:country": "GB", "name": "Edinburgh", "phone": "+44 (0)131 225 8344", "website": "https://www.jll.co.uk/en/cities/edinburgh", "brand": "JLL", "brand:wikidata": "Q1703389", "nsi_id": "jll-08bb13"}, "geometry": {"type": "Point", "coordinates": [-3.2087914, 55.9472673]}},
{"type": "Feature", "id": "MJD-_1fkmwhItE7t_4fmwbOuS-0=", "properties": {"ref": "L2NvbnRlbnQvZGFtL2psbC1jb20vbW9kZWxzL2xvY2F0aW9ucy9lbi9zdHV0dGdhcnQ", "@spider": "jll", "office": "estate_agent", "addr:full": "Kleiner Schlossplatz 13", "addr:city": "Stuttgart", "addr:state": "Germany", "addr:postcode": "70173", "addr:country": "DE", "name": "Stuttgart", "phone": "+49 (0) 711 900370 0", "website": "https://www.jll.de/en/cities/stuttgart", "brand": "JLL", "brand:wikidata": "Q1703389", "nsi_id": "jll-08bb13"}, "geometry": {"type": "Point", "coordinates": [9.1754387, 48.7783177]}},
{"type": "Feature", "id": "GztiPUefwmK2dcTFTfWLXPwuLSU=", "properties": {"ref": "L2NvbnRlbnQvZGFtL2psbC1jb20vbW9kZWxzL2xvY2F0aW9ucy9lbi9sb3MtY2Fib3M", "@spider": "jll", "office": "estate_agent", "addr:full": "Paseo del Malec\u00f3n 3, Paseo Cabos Bahia Palmas, Campo de Golf SJC", "addr:city": "Mexico", "addr:state": "Americas", "addr:postcode": "23405", "name": "Los Cabos", "phone": "624 1528937", "brand": "JLL", "brand:wikidata": "Q1703389", "nsi_id": "jll-08bb13"}, "geometry": {"type": "Point", "coordinates": [-109.697993, 23.04615]}},
{"type": "Feature", "id": "o4bIncPSo_Xv8vwizct8stoZEOc=", "properties": {"ref": "L2NvbnRlbnQvZGFtL2psbC1jb20vbW9kZWxzL2xvY2F0aW9ucy9lbi9ndWFkYWxhamFyYQ", "@spider": "jll", "office": "estate_agent", "addr:full": "Av. Mariano Otero 3000, edificio C PB, Col. Ciudad del Sol", "addr:city": "Guadalajara", "addr:state": "Mexico", "addr:postcode": "45050", "name": "Guadalajara", "phone": "52 33 5980 8000", "brand": "JLL", "brand:wikidata": "Q1703389", "nsi_id": "jll-08bb13"}, "geometry": {"type": "Point", "coordinates": [-103.4117829746032, 20.643679205387937]}},
{"type": "Feature", "id": "chpXlnj0R17GgyTgGIAenq-3Gi0=", "properties": {"ref": "L2NvbnRlbnQvZGFtL2psbC1jb20vbW9kZWxzL2xvY2F0aW9ucy9lbi93dWhhbg", "@spider": "jll", "office": "estate_agent", "addr:full": "Unit 3908-09, Heartland 66, 688 Jinghan Avenue,", "addr:city": "China", "addr:state": "Asia Pacific", "name": "Wuhan ", "phone": "+86 27 59592100", "brand": "JLL", "brand:wikidata": "Q1703389", "nsi_id": "jll-08bb13"}, "geometry": {"type": "Point", "coordinates": [114.2720593, 30.578856]}},
{"type": "Feature", "id": "8rR71wy_avDYobyWapHDrKlo5mY=", "properties": {"ref": "L2NvbnRlbnQvZGFtL2psbC1jb20vbW9kZWxzL2xvY2F0aW9ucy9lbi9qbGwtc2luZ2Fwb3Jl", "@spider": "jll", "office": "estate_agent", "addr:full": "88 Market Street", "addr:city": "Singapore", "addr:state": "Asia Pacific", "addr:postcode": "048948", "name": "JLL Singapore CBD", "phone": "+65 6220 3888", "brand": "JLL", "brand:wikidata": "Q1703389", "nsi_id": "jll-08bb13"}},
{"type": "Feature", "id": "maUeUMvMR0ZRSKXVe0wGHDlNSts=", "properties": {"ref": "L2NvbnRlbnQvZGFtL2psbC1jb20vbW9kZWxzL2xvY2F0aW9ucy9lbi9taW50ZXItZWxsaXNvbi1ydWRkd2F0dHM", "@spider": "jll", "office": "estate_agent", "addr:full": "PwC Tower level 22, 15", "addr:city": "Auckland", "addr:state": "New Zealand", "addr:postcode": "1010", "name": "Minter Ellison RuddWatts", "brand": "JLL", "brand:wikidata": "Q1703389", "nsi_id": "jll-08bb13"}, "geometry": {"type": "Point", "coordinates": [174.76564766930895, -36.84397565781855]}},
{"type": "Feature", "id": "H3f7Dk-GyP1PM9vomBoqQY1dj_s=", "properties": {"ref": "L2NvbnRlbnQvZGFtL2psbC1jb20vbW9kZWxzL2xvY2F0aW9ucy9lbi9qbGwtcGFyYW1hdHRh", "@spider": "jll", "office": "estate_agent", "addr:full": "Darg Country", "addr:city": "Parramatta", "addr:state": "Australia", "addr:postcode": "NSW 2150", "name": "Parramatta", "phone": "+61 2 9806 2800", "brand": "JLL", "brand:wikidata": "Q1703389", "nsi_id": "jll-08bb13"}, "geometry": {"type": "Point", "coordinates": [151.007066, -33.813372]}},
{"type": "Feature", "id": "uslrsR1HPRR0SAyRkkLSF4rtjjo=", "properties": {"ref": "L2NvbnRlbnQvZGFtL2psbC1jb20vbW9kZWxzL2xvY2F0aW9ucy9lbi9jYXBlLXRvd24", "@spider": "jll", "office": "estate_agent", "addr:full": "Office 30, 1 Sand Hill Road", "addr:city": "South Africa", "addr:state": "Africa", "addr:postcode": "8001", "name": "Cape Town", "phone": "+27 11 507 2200", "brand": "JLL", "brand:wikidata": "Q1703389", "nsi_id": "jll-08bb13"}, "geometry": {"type": "Point", "coordinates": [18.4185716, -33.9122323]}},
{"type": "Feature", "id": "IrGxiiOYVGBqy-AY6HD1HI3am40=", "properties": {"ref": "L2NvbnRlbnQvZGFtL2psbC1jb20vbW9kZWxzL2xvY2F0aW9ucy9lbi9zaW5nYXBvcmUtcGF5YS1sZWJhcg", "@spider": "jll", "office": "estate_agent", "addr:full": "1 Paya Lebar Link", "addr:city": "Singapore", "addr:state": "Asia Pacific", "addr:postcode": "408533", "name": "JLL Singapore Paya Lebar", "phone": "+65 6220 3888", "brand": "JLL", "brand:wikidata": "Q1703389", "nsi_id": "jll-08bb13"}, "geometry": {"type": "Point", "coordinates": [103.8942, 1.3175]}},
{"type": "Feature", "id": "3YVosz3IhDipT64IxAPys_sADeE=", "properties": {"ref": "L2NvbnRlbnQvZGFtL2psbC1jb20vbW9kZWxzL2xvY2F0aW9ucy9lbi9taWxhbg", "@spider": "jll", "office": "estate_agent", "addr:full": "Via Agnello 8", "addr:city": "Milan", "addr:state": "Italy", "addr:postcode": "20121", "addr:country": "IT", "name": "Milano", "phone": "+39 02 85 86 861 ", "website": "https://www.jll.it/it/citta/servizi-immobiliari-a-milano", "brand": "JLL", "brand:wikidata": "Q1703389", "nsi_id": "jll-08bb13"}, "geometry": {"type": "Point", "coordinates": [9.1927551, 45.4654467]}},
{"type": "Feature", "id": "4h0fvMqVuEaPYyaBYnmLPKa9sYY=", "properties": {"ref": "L2NvbnRlbnQvZGFtL2psbC1jb20vbW9kZWxzL2xvY2F0aW9ucy9lbi9uYW11cg", "@spider": "jll", "office": "estate_agent", "addr:city": "Namur", "addr:state": "Belgium", "addr:country": "BE", "name": "Wallonia", "phone": "+32 (0)4 222 33 88", "website": "https://www.jll.be/en/cities/namur", "brand": "JLL", "brand:wikidata": "Q1703389", "nsi_id": "jll-08bb13"}},
{"type": "Feature", "id": "0dHl5FBegxPpOUeOus-WGigZnxI=", "properties": {"ref": "L2NvbnRlbnQvZGFtL2psbC1jb20vbW9kZWxzL2xvY2F0aW9ucy9lbi9oZWxzaW5raQ", "@spider": "jll", "office": "estate_agent", "addr:full": "JLL Finland", "addr:city": "Helsinki", "addr:state": "Finland", "addr:postcode": "FI-00100", "name": "Helsinki", "phone": "+358 207 619 960", "brand": "JLL", "brand:wikidata": "Q1703389", "nsi_id": "jll-08bb13"}, "geometry": {"type": "Point", "coordinates": [24.9409333, 60.1693005]}},
{"type": "Feature", "id": "oG9sn7nT_xYtdOZIdw0dNnDnCk8=", "properties": {"ref": "L2NvbnRlbnQvZGFtL2psbC1jb20vbW9kZWxzL2xvY2F0aW9ucy9lbi90w6l0cmlz", "@spider": "jll", "office": "estate_agent", "addr:full": "Coeur D\u00e9fense", "addr:city": "France", "addr:state": "EMEA", "addr:postcode": "92932 Paris, La D\u00e9fense Cedex", "name": "La D\u00e9fense | T\u00e9tris", "phone": "+33 1 40 55 15 15", "brand": "JLL", "brand:wikidata": "Q1703389", "nsi_id": "jll-08bb13"}, "geometry": {"type": "Point", "coordinates": [2.24481, 48.89542]}},
{"type": "Feature", "id": "m9zZdzvUn3Iay3D6ic1rtO9E41I=", "properties": {"ref": "L2NvbnRlbnQvZGFtL2psbC1jb20vbW9kZWxzL2xvY2F0aW9ucy9lbi9zYW8tcGFvbG8", "@spider": "jll", "office": "estate_agent", "addr:full": "Av. Presidente Juscelino Kubitschek, 1.909, Torre Norte - 4\u00ba andar", "addr:city": "S\u00e3o Paulo", "addr:state": "Brazil", "addr:postcode": "04543-907", "name": "S\u00e3o Paulo", "phone": "55 11 3043 6900", "brand": "JLL", "brand:wikidata": "Q1703389", "nsi_id": "jll-08bb13"}, "geometry": {"type": "Point", "coordinates": [-46.67115, -23.58552]}},
{"type": "Feature", "id": "bM8-n_gfeBg-Gs6ZMhLT8B5FUd0=", "properties": {"ref": "L2NvbnRlbnQvZGFtL2psbC1jb20vbW9kZWxzL2xvY2F0aW9ucy9lbi9kdXNzZWxkb3Jm", "@spider": "jll", "office": "estate_agent", "addr:full": "Jones Lang LaSalle SE\u200b ", "addr:city": "Dusseldorf", "addr:state": "Germany", "addr:postcode": "40211 D\u00fcsseldorf", "addr:country": "DE", "name": "Dusseldorf", "phone": "+49 (0) 211 13006 0", "website": "https://www.jll.de/en/cities/dusseldorf", "brand": "JLL", "brand:wikidata": "Q1703389", "nsi_id": "jll-08bb13"}, "geometry": {"type": "Point", "coordinates": [6.7801117, 51.2278989]}},
{"type": "Feature", "id": "vOxLoFwYcA4LRSnioRSjsBh7LSE=", "properties": {"ref": "L2NvbnRlbnQvZGFtL2psbC1jb20vbW9kZWxzL2xvY2F0aW9ucy9lbi9wb3J0bw", "@spider": "jll", "office": "estate_agent", "addr:full": "Rua Mouzinho da Silveira, 324", "addr:city": "Porto", "addr:state": "Portugal", "addr:postcode": "4050-418", "name": "Porto", "phone": "+351 800 180 692", "brand": "JLL", "brand:wikidata": "Q1703389", "nsi_id": "jll-08bb13"}, "geometry": {"type": "Point", "coordinates": [-8.6113066, 41.1447225]}},
{"type": "Feature", "id": "aftrRdo6FLgaioK0bHtLrNahgkM=", "properties": {"ref": "L2NvbnRlbnQvZGFtL2psbC1jb20vbW9kZWxzL2xvY2F0aW9ucy9lbi9maW5zYnVyeS1wYXJrLS0tcmVzaWRlbnRpYWw", "@spider": "jll", "office": "estate_agent", "addr:full": "Unit B, Parkway Apartments", "addr:city": "London", "addr:state": "United Kingdom", "addr:postcode": "N4 2BL", "name": "Finsbury Park | Residential", "phone": "+44 (0)20 7870 6667", "brand": "JLL", "brand:wikidata": "Q1703389", "nsi_id": "jll-08bb13"}, "geometry": {"type": "Point", "coordinates": [-0.0906336, 51.5707439]}},
{"type": "Feature", "id": "exzbmiZDHT7Xo7liQ-A8YUfy6jc=", "properties": {"ref": "L2NvbnRlbnQvZGFtL2psbC1jb20vbW9kZWxzL2xvY2F0aW9ucy9lbi90b2t5by1oZWFkLW9mZmljZQ", "@spider": "jll", "office": "estate_agent", "addr:full": "Prudential Tower, 2-13-10", "addr:city": "Tokyo", "addr:state": "Japan", "addr:postcode": "100-0014", "name": "Tokyo Head Office", "phone": "+81-3-5501-9200", "brand": "JLL", "brand:wikidata": "Q1703389", "nsi_id": "jll-08bb13"}, "geometry": {"type": "Point", "coordinates": [139.738544672727, 35.6761224683955]}},
{"type": "Feature", "id": "xzIcns-rqhMD1SpSd-p65ErNYOc=", "properties": {"ref": "L2NvbnRlbnQvZGFtL2psbC1jb20vbW9kZWxzL2xvY2F0aW9ucy9lbi9ncmVlbndpY2gtLS1yZXNpZGVudGlhbA", "@spider": "jll", "office": "estate_agent", "addr:full": "22 College Approach", "addr:city": "London", "addr:state": "United Kingdom", "addr:postcode": "SE10 9HY", "name": "Greenwich | Residential", "phone": "+44 (0)20 8858 9986", "brand": "JLL", "brand:wikidata": "Q1703389", "nsi_id": "jll-08bb13"}, "geometry": {"type": "Point", "coordinates": [-0.0121553, 51.4819267]}},
{"type": "Feature", "id": "Uy5dOaVw414IPPOSjwGpimyGrUs=", "properties": {"ref": "L2NvbnRlbnQvZGFtL2psbC1jb20vbW9kZWxzL2xvY2F0aW9ucy9lbi9iZXJ0cmFuZ2U", "@spider": "jll", "office": "estate_agent", "addr:full": "Atrium Business Park", "addr:city": "Bertrange", "addr:state": "Luxembourg", "addr:postcode": "L-8070", "addr:country": "LU", "name": "Bertrange", "phone": "+352 46 45 40 ", "website": "https://www.jll.lu/en/city/bertrange", "brand": "JLL", "brand:wikidata": "Q1703389", "nsi_id": "jll-08bb13"}, "geometry": {"type": "Point", "coordinates": [6.0779427, 49.6084853]}},
{"type": "Feature", "id": "pckfIYtqNKPei7VA-eAjfjUyWZk=", "properties": {"ref": "L2NvbnRlbnQvZGFtL2psbC1jb20vbW9kZWxzL2xvY2F0aW9ucy9lbi9tb250ZXJyZXk", "@spider": "jll", "office": "estate_agent", "addr:full": "Ricardo Margain 335, Torre Equus - Tower I,  Monterrey, ", "addr:city": "Monterrey", "addr:state": "Mexico", "addr:postcode": "66268", "name": "Monterrey", "phone": "52 81 8153 6900", "brand": "JLL", "brand:wikidata": "Q1703389", "nsi_id": "jll-08bb13"}, "geometry": {"type": "Point", "coordinates": [-100.352622, 25.657014]}},
{"type": "Feature", "id": "4PcpcjnDAmZstDqHQlSM46SY8dA=", "properties": {"ref": "L2NvbnRlbnQvZGFtL2psbC1jb20vbW9kZWxzL2xvY2F0aW9ucy9lbi9ib3JkZWF1eA", "@spider": "jll", "office": "estate_agent", "addr:full": "12 place de la Bourse", "addr:city": "Bordeaux", "addr:state": "France", "addr:postcode": "33000", "name": "Bordeaux", "phone": "+33 (0)5 17 06 80 13", "brand": "JLL", "brand:wikidata": "Q1703389", "nsi_id": "jll-08bb13"}, "geometry": {"type": "Point", "coordinates": [-0.5728593825561523, 44.84161229999999]}},
{"type": "Feature", "id": "G9hzZAjahjN9x7DrmW3OaA0IpZc=", "properties": {"ref": "L2NvbnRlbnQvZGFtL2psbC1jb20vbW9kZWxzL2xvY2F0aW9ucy9lbi9yYWFuYW5hLWlzcmFlbA", "@spider": "jll", "office": "estate_agent", "addr:full": "HaSheizaf 4, Ra'anana. ", "addr:city": "Ra\u2019anana", "addr:state": "Israel", "name": "Ra\u2019anana", "phone": "+972(0)73-3822796", "brand": "JLL", "brand:wikidata": "Q1703389", "nsi_id": "jll-08bb13"}, "geometry": {"type": "Point", "coordinates": [34.885307, 32.192131]}},
{"type": "Feature", "id": "I5zY5rcl5q9sUbq3NAcY8XLGlEo=", "properties": {"ref": "L2NvbnRlbnQvZGFtL2psbC1jb20vbW9kZWxzL2xvY2F0aW9ucy9lbi9wYXJrLWh5YXR0", "@spider": "jll", "office": "estate_agent", "addr:full": "99 Halsey Street", "name": "Waka Room, Park Hyatt", "phone": "+6493661234", "brand": "JLL", "brand:wikidata": "Q1703389", "nsi_id": "jll-08bb13"}, "geometry": {"type": "Point", "coordinates": [174.75812610554283, -36.841984279760375]}},
{"type": "Feature", "id": "kV6o20xV4lPXtJcaZKjcFyS2ynA=", "properties": {"ref": "L2NvbnRlbnQvZGFtL2psbC1jb20vbW9kZWxzL2xvY2F0aW9ucy9lbi9lbGVwaGFudC1hbmQtY2FzdGxlLS0tcmVzaWRlbnRpYWw", "@spider": "jll", "office": "estate_agent", "addr:full": "Elephant and Castle", "name": "Elephant and Castle | Residential", "phone": "+44 (0)20 3957 7355", "brand": "JLL", "brand:wikidata": "Q1703389", "nsi_id": "jll-08bb13"}},
{"type": "Feature", "id": "R97OugdaZiP1pMjA0D_3wOAtR3g=", "properties": {"ref": "L2NvbnRlbnQvZGFtL2psbC1jb20vbW9kZWxzL2xvY2F0aW9ucy9lbi9wYXJpcy1sYXNhbGxlLWludmVzdG1lbnQtbWFuYWdlbWVudA", "@spider": "jll", "office": "estate_agent", "addr:full": "112 Avenue Kl\u00e9ber ", "addr:city": "France", "addr:state": "EMEA", "addr:postcode": "75784 Paris", "name": "Paris | LaSalle Investment Management", "phone": "+33 1 56 43 46 46", "brand": "JLL", "brand:wikidata": "Q1703389", "nsi_id": "jll-08bb13"}, "geometry": {"type": "Point", "coordinates": [2.305648, 48.87331]}},
{"type": "Feature", "id": "Z2XVPE5ZT-RNTVguNF9DuWRrDvE=", "properties": {"ref": "L2NvbnRlbnQvZGFtL2psbC1jb20vbW9kZWxzL2xvY2F0aW9ucy9lbi9ob25nLWtvbmctKGdyZWF0ZXItY2hpbmEp", "@spider": "jll", "office": "estate_agent", "addr:full": "7/F, One Taikoo Place", "addr:city": "China", "addr:state": "Asia Pacific", "name": "Hong Kong", "phone": "+852 2846 5000", "brand": "JLL", "brand:wikidata": "Q1703389", "nsi_id": "jll-08bb13"}, "geometry": {"type": "Point", "coordinates": [114.224169, 22.291005]}},
{"type": "Feature", "id": "GotwzZmtvQYlA1gA5d6u7rMkYrA=", "properties": {"ref": "L2NvbnRlbnQvZGFtL2psbC1jb20vbW9kZWxzL2xvY2F0aW9ucy9lbi9tb250YS1iZWFjaC12b2xsZXktY2x1Yg", "@spider": "jll", "office": "estate_agent", "name": "Monta Beach Volley Club", "phone": "+48510270501", "brand": "JLL", "brand:wikidata": "Q1703389", "nsi_id": "jll-08bb13"}, "geometry": {"type": "Point", "coordinates": [21.0437362, 52.2254467]}},
{"type": "Feature", "id": "ytrk_PW4jSRGsaYdllUZvuRq0xc=", "properties": {"ref": "L2NvbnRlbnQvZGFtL2psbC1jb20vbW9kZWxzL2xvY2F0aW9ucy9lbi9yZXRyby1zcG9ydC1hbmQtd2VsbG5lc3MtbHRk", "@spider": "jll", "office": "estate_agent", "addr:full": "Nev\u00e4dzov\u00e1 6", "name": "Retro Sport and Wellness Ltd.", "brand": "JLL", "brand:wikidata": "Q1703389", "nsi_id": "jll-08bb13"}, "geometry": {"type": "Point", "coordinates": [17.157920328835676, 48.15222138798074]}},
{"type": "Feature", "id": "AY0aHbYmKJnLKsEAa_7nn_DSLIY=", "properties": {"ref": "L2NvbnRlbnQvZGFtL2psbC1jb20vbW9kZWxzL2xvY2F0aW9ucy9lbi9sYXNhbGxlLWludmVzdG1lbnQtbWFuYWdlbWVudC0y", "@spider": "jll", "office": "estate_agent", "addr:full": "Unit1\uff0c49/F, One Museum Place", "addr:city": "China", "addr:state": "Asia Pacific", "name": "LaSalle Investment Management | China", "phone": "+86 21 2250 6000", "brand": "JLL", "brand:wikidata": "Q1703389", "nsi_id": "jll-08bb13"}, "geometry": {"type": "Point", "coordinates": [121.46836, 31.242557]}}]}