{"type":"FeatureCollection","features":[{"type": "Feature", "id": "Uj90DW_nkBIobeOnz3TC3aSRKZM=", "properties": {"ref": "569", "@spider": "johnsoncleaners_gb", "shop": "dry_cleaning", "addr:street_address": "3 St John Street", "addr:city": "Bromsgrove", "addr:postcode": "B61 8RR", "addr:country": "GB", "name": "Bromsgrove, Waitrose", "website": "https://www.johnsoncleaners.com/branch/bromsgrove-waitrose", "brand": "Johnson Cleaners", "brand:wikidata": "Q6268527", "nsi_id": "johnsons-a4fd49"}, "geometry": {"type": "Point", "coordinates": [-2.064469, 52.333045]}},
{"type": "Feature", "id": "P4IqaxkZYZD4mFp1xGZiJz_QECo=", "properties": {"ref": "563", "@spider": "johnsoncleaners_gb", "shop": "dry_cleaning", "addr:street_address": "45 Masons Hill", "addr:city": "Bromley", "addr:state": "Kent", "addr:postcode": "BR2 9HD", "addr:country": "GB", "name": "Bromley South, Waitrose", "phone": "020 8460 7752", "website": "https://www.johnsoncleaners.com/branch/bromley-south-waitrose", "brand": "Johnson Cleaners", "brand:wikidata": "Q6268527", "nsi_id": "johnsons-a4fd49"}, "geometry": {"type": "Point", "coordinates": [0.018077901, 51.3990097]}},
{"type": "Feature", "id": "Q5lGtz8ik2U-1r6yKJlLPRyitzk=", "properties": {"ref": "543", "@spider": "johnsoncleaners_gb", "shop": "dry_cleaning", "addr:street_address": "East Street, Bedminster", "addr:city": "Bristol", "addr:state": "Avon", "addr:postcode": "BS3 4JY", "addr:country": "GB", "name": "Bristol, Asda", "phone": "01179 667858", "website": "https://www.johnsoncleaners.com/branch/bristol-asda", "brand": "Johnson Cleaners", "brand:wikidata": "Q6268527", "nsi_id": "johnsons-a4fd49"}, "geometry": {"type": "Point", "coordinates": [-2.595117092, 51.44375992]}},
{"type": "Feature", "id": "mUZ4Y717zt8NZScsqFiJQUDBve0=", "properties": {"ref": "500", "@spider": "johnsoncleaners_gb", "shop": "dry_cleaning", "addr:street_address": "Brent Cross Shopping Centre, Hendon Way", "addr:city": "Brent Cross", "addr:state": "London", "addr:postcode": "NW4 3FQ", "addr:country": "GB", "name": "Brent Cross, Waitrose", "phone": "0208 2039711", "website": "https://www.johnsoncleaners.com/branch/brent-cross-waitrose", "brand": "Johnson Cleaners", "brand:wikidata": "Q6268527", "nsi_id": "johnsons-a4fd49"}, "geometry": {"type": "Point", "coordinates": [-0.224522993, 51.5761795]}},
{"type": "Feature", "id": "7sKUGkRZY9p_8zfgGPYZ7QM0VfM=", "properties": {"ref": "467", "@spider": "johnsoncleaners_gb", "shop": "dry_cleaning", "addr:street_address": "Bond Way", "addr:city": "Bracknell", "addr:state": "Berkshire", "addr:postcode": "RG12 1RQ", "addr:country": "GB", "name": "Bracknell, Waitrose", "phone": "01344 862374", "website": "https://www.johnsoncleaners.com/branch/bracknell-waitrose", "brand": "Johnson Cleaners", "brand:wikidata": "Q6268527", "nsi_id": "johnsons-a4fd49"}, "geometry": {"type": "Point", "coordinates": [-0.752988875, 51.41796875]}},
{"type": "Feature", "id": "USJtnGm53KLNtbxrjtcVGXazGBs=", "properties": {"ref": "431", "@spider": "johnsoncleaners_gb", "shop": "dry_cleaning", "addr:street_address": "Burnden Park Retail Park, Manchester Road", "addr:city": "Bolton", "addr:postcode": "BL3 2NE", "addr:country": "GB", "name": "Bolton, Burnden Park Drive", "phone": "01204 532801", "website": "https://www.johnsoncleaners.com/branch/bolton-burnden-park-drive", "brand": "Johnson Cleaners", "brand:wikidata": "Q6268527", "nsi_id": "johnsons-a4fd49"}, "geometry": {"type": "Point", "coordinates": [-2.415714979, 53.56930161]}},
{"type": "Feature", "id": "Qwgr7GQ5XN3YQ8jGz2am1pq0u48=", "properties": {"ref": "427", "@spider": "johnsoncleaners_gb", "shop": "dry_cleaning", "addr:street_address": "Boldon Colliery", "addr:city": "Boldon", "addr:state": "Tyne & Wear", "addr:postcode": "NE35 9AR", "addr:country": "GB", "name": "Boldon Colliery, Asda", "phone": "0191 536 5442", "website": "https://www.johnsoncleaners.com/branch/boldon-colliery-asda-1", "brand": "Johnson Cleaners", "brand:wikidata": "Q6268527", "nsi_id": "johnsons-a4fd49"}, "geometry": {"type": "Point", "coordinates": [-1.460986018, 54.94842911]}},
{"type": "Feature", "id": "r34OzM99xCqXESL7W1-ubXWZypk=", "properties": {"ref": "415", "@spider": "johnsoncleaners_gb", "shop": "dry_cleaning", "addr:street_address": "Bluewater Shopping Centre", "addr:city": "Greenhithe", "addr:state": "Kent", "addr:postcode": "DA9 9SA", "addr:country": "GB", "name": "Bluewater, Waitrose", "phone": "01322 624123", "website": "https://www.johnsoncleaners.com/branch/bluewater-waitrose", "brand": "Johnson Cleaners", "brand:wikidata": "Q6268527", "nsi_id": "johnsons-a4fd49"}, "geometry": {"type": "Point", "coordinates": [0.271539986, 51.44053268]}},
{"type": "Feature", "id": "AJh0Lv_CQ8Wt-2fsogDmUtuYO5o=", "properties": {"ref": "383", "@spider": "johnsoncleaners_gb", "shop": "dry_cleaning", "addr:street_address": "Lancaster Way", "addr:city": "Bishops Stortford", "addr:postcode": "CM23 4DA", "addr:country": "GB", "name": "Bishops Stortford, Tesco", "phone": "01279 508811", "website": "https://www.johnsoncleaners.com/branch/bishops-stortford-tesco-1", "brand": "Johnson Cleaners", "brand:wikidata": "Q6268527", "nsi_id": "johnsons-a4fd49"}, "geometry": {"type": "Point", "coordinates": [0.136275202, 51.87488174]}},
{"type": "Feature", "id": "CdUzI7N446BlYUMzv_Ky2GfRY-Q=", "properties": {"ref": "361", "@spider": "johnsoncleaners_gb", "shop": "dry_cleaning", "addr:street_address": "474 Borough Road", "addr:city": "Birkenhead", "addr:state": "Merseyside", "addr:postcode": "CH42 9NA", "addr:country": "GB", "name": "Birkenhead (Drive In)", "phone": "0151 652 1140", "website": "https://www.johnsoncleaners.com/branch/birkenhead-drive-in", "brand": "Johnson Cleaners", "brand:wikidata": "Q6268527", "nsi_id": "johnsons-a4fd49"}, "geometry": {"type": "Point", "coordinates": [-3.033346891, 53.38029099]}},
{"type": "Feature", "id": "q1xzLveirEKkiguepcFZqMw02g4=", "properties": {"ref": "341", "@spider": "johnsoncleaners_gb", "shop": "dry_cleaning", "addr:street_address": "168 Main Rd, Westerham Rd", "addr:city": "Briggin Hill", "addr:state": "Kent", "addr:postcode": "TN16 3BB", "addr:country": "GB", "name": "Biggin Hill, Waitrose", "phone": "01959 575079", "website": "https://www.johnsoncleaners.com/branch/biggin-hill-waitrose", "brand": "Johnson Cleaners", "brand:wikidata": "Q6268527", "nsi_id": "johnsons-a4fd49"}, "geometry": {"type": "Point", "coordinates": [0.038489301, 51.30834961]}},
{"type": "Feature", "id": "8neCpFw0nqx8cKfwVMDo83lDBhA=", "properties": {"ref": "333", "@spider": "johnsoncleaners_gb", "shop": "dry_cleaning", "addr:street_address": "14 Western Road", "addr:city": "Bexhill On Sea", "addr:state": "East Sussex", "addr:postcode": "TN40 1DX", "addr:country": "GB", "name": "Bexhill on sea", "phone": "01424 215654", "website": "https://www.johnsoncleaners.com/branch/bexhill-on-sea", "brand": "Johnson Cleaners", "brand:wikidata": "Q6268527", "nsi_id": "johnsons-a4fd49"}, "geometry": {"type": "Point", "coordinates": [0.472211093, 50.84041977]}},
{"type": "Feature", "id": "ovh4jBwmy0B1utU3bApbYPHyAjs=", "properties": {"ref": "322", "@spider": "johnsoncleaners_gb", "shop": "dry_cleaning", "addr:street_address": "St Johns Well Lane", "addr:city": "Berkhamsted", "addr:state": "Hertfordshire", "addr:postcode": "HP4 1HS", "addr:country": "GB", "name": "Berkhamsted, Waitrose", "phone": "01442 877505", "website": "https://www.johnsoncleaners.com/branch/berkhamsted-waitrose", "brand": "Johnson Cleaners", "brand:wikidata": "Q6268527", "nsi_id": "johnsons-a4fd49"}, "geometry": {"type": "Point", "coordinates": [-0.566946983, 51.76197815]}},
{"type": "Feature", "id": "kfp7iO0885pru9sM8g7jRYtxrVQ=", "properties": {"ref": "320", "@spider": "johnsoncleaners_gb", "shop": "dry_cleaning", "addr:street_address": "311 High Street", "addr:city": "Berkhamsted", "addr:postcode": "HP4 1AL", "addr:country": "GB", "name": "Berkhamsted", "phone": "01442 863465", "website": "https://www.johnsoncleaners.com/branch/berkhamsted", "brand": "Johnson Cleaners", "brand:wikidata": "Q6268527", "nsi_id": "johnsons-a4fd49"}, "geometry": {"type": "Point", "coordinates": [-0.571587086, 51.76264191]}},
{"type": "Feature", "id": "4ZoTvwCt5BClf9dHoRyAPIX6cDU=", "properties": {"ref": "300", "@spider": "johnsoncleaners_gb", "shop": "dry_cleaning", "addr:street_address": "Goldington Road", "addr:city": "Bedford", "addr:postcode": "MK41 0UE", "addr:country": "GB", "name": "Bedford, Waitrose", "website": "https://www.johnsoncleaners.com/branch/bedford-waitrose", "brand": "Johnson Cleaners", "brand:wikidata": "Q6268527", "nsi_id": "johnsons-a4fd49"}, "geometry": {"type": "Point", "coordinates": [-1.575749, 51.65021]}},
{"type": "Feature", "id": "jLy99j1xls2xQzud3rbllwIhZr8=", "properties": {"ref": "295", "@spider": "johnsoncleaners_gb", "shop": "dry_cleaning", "addr:street_address": "Riverfield Drive", "addr:city": "Bedford", "addr:state": "Bedfordshire", "addr:postcode": "MK41 0SF", "addr:country": "GB", "name": "Bedford, Tesco", "phone": "01234 213013", "website": "https://www.johnsoncleaners.com/branch/bedford-tesco", "brand": "Johnson Cleaners", "brand:wikidata": "Q6268527", "nsi_id": "johnsons-a4fd49"}, "geometry": {"type": "Point", "coordinates": [-0.424388289, 52.14189148]}},
{"type": "Feature", "id": "rO_t2hnh683i0ZoYwcuCSrc5sSo=", "properties": {"ref": "4598", "@spider": "johnsoncleaners_gb", "shop": "dry_cleaning", "addr:street_address": "Foss Islands Road", "addr:city": "York", "addr:postcode": "YO31 7UL", "addr:country": "GB", "name": "York, Waitrose", "phone": "01904 653 563", "website": "https://www.johnsoncleaners.com/branch/york-waitrose", "brand": "Johnson Cleaners", "brand:wikidata": "Q6268527", "nsi_id": "johnsons-a4fd49"}, "geometry": {"type": "Point", "coordinates": [-1.070605993, 53.9569397]}},
{"type": "Feature", "id": "F5KGfEwGI91mBBs4auXI9sfpAzM=", "properties": {"ref": "4591", "@spider": "johnsoncleaners_gb", "shop": "dry_cleaning", "addr:street_address": "1A Bishopthorpe Road", "addr:city": "York", "addr:state": "North Yorkshire", "addr:postcode": "YO23 1NA", "addr:country": "GB", "name": "York, Bishopthorpe Rd", "phone": "01904 652800", "website": "https://www.johnsoncleaners.com/branch/york-bishopthorpe-rd", "brand": "Johnson Cleaners", "brand:wikidata": "Q6268527", "nsi_id": "johnsons-a4fd49"}, "geometry": {"type": "Point", "coordinates": [-1.085057974, 53.95172119]}},
{"type": "Feature", "id": "uWSNwdNuNrbiGbokr5gZVklR6cs=", "properties": {"ref": "4577", "@spider": "johnsoncleaners_gb", "shop": "dry_cleaning", "addr:street_address": "Tresham Crescent", "addr:city": "Yately", "addr:state": "Hampshire", "addr:postcode": "GU46 6FR", "addr:country": "GB", "name": "Yateley, Waitrose", "phone": "01252 861888", "website": "https://www.johnsoncleaners.com/branch/yateley-waitrose", "brand": "Johnson Cleaners", "brand:wikidata": "Q6268527", "nsi_id": "johnsons-a4fd49"}, "geometry": {"type": "Point", "coordinates": [-0.846358001, 51.33898926]}},
{"type": "Feature", "id": "73E0peUxg2hKq-QDPZAZmdishL0=", "properties": {"ref": "4569", "@spider": "johnsoncleaners_gb", "shop": "dry_cleaning", "addr:street_address": "Norwich Road", "addr:city": "Wymondham", "addr:state": "Norfolk", "addr:postcode": "NR18 0SH", "addr:country": "GB", "name": "Wymondham, Waitrose", "phone": "01953 607772", "website": "https://www.johnsoncleaners.com/branch/wymondham-waitrose", "brand": "Johnson Cleaners", "brand:wikidata": "Q6268527", "nsi_id": "johnsons-a4fd49"}, "geometry": {"type": "Point", "coordinates": [1.123710036, 52.57521057]}},
{"type": "Feature", "id": "v5ucGyIDyL_d4b3g0pAPrs9s3X0=", "properties": {"ref": "4567", "@spider": "johnsoncleaners_gb", "shop": "dry_cleaning", "addr:street_address": "Plas Coch Road", "addr:city": "Wrexham", "addr:postcode": "LL11 2BW", "addr:country": "GB", "name": "Wrexham, Sainsbury's", "phone": "01978 290921", "website": "https://www.johnsoncleaners.com/branch/wrexham-sainsburys", "brand": "Johnson Cleaners", "brand:wikidata": "Q6268527", "nsi_id": "johnsons-a4fd49"}, "geometry": {"type": "Point", "coordinates": [-3.00830102, 53.05712891]}},
{"type": "Feature", "id": "AdAh8At6_kZQaaDdnQMddGZkASQ=", "properties": {"ref": "4559", "@spider": "johnsoncleaners_gb", "shop": "dry_cleaning", "addr:street_address": "High Street", "addr:city": "Worthing", "addr:state": "Sussex", "addr:postcode": "BN11 1LL", "addr:country": "GB", "name": "Worthing, Waitrose", "phone": "01903 230222", "website": "https://www.johnsoncleaners.com/branch/worthing-waitrose", "brand": "Johnson Cleaners", "brand:wikidata": "Q6268527", "nsi_id": "johnsons-a4fd49"}, "geometry": {"type": "Point", "coordinates": [-0.367995709, 50.81351089]}},
{"type": "Feature", "id": "AYNnOjCeKLL4zvri_JpN-UNjDZw=", "properties": {"ref": "4553", "@spider": "johnsoncleaners_gb", "shop": "dry_cleaning", "addr:street_address": "North Worle Shopping Centre, Worle", "addr:city": "Avon", "addr:postcode": "BS22 6BT", "addr:country": "GB", "name": "Worle", "phone": "01934 511180", "website": "https://www.johnsoncleaners.com/branch/worle", "brand": "Johnson Cleaners", "brand:wikidata": "Q6268527", "nsi_id": "johnsons-a4fd49"}, "geometry": {"type": "Point", "coordinates": [-2.911266088, 51.36273956]}},
{"type": "Feature", "id": "IpDAwxIIMKimIcMYoJcQtMA8jpo=", "properties": {"ref": "4543", "@spider": "johnsoncleaners_gb", "shop": "dry_cleaning", "addr:street_address": "223 London Road", "addr:city": "Worcester", "addr:state": "Worcestershire", "addr:postcode": "WR5 2JG", "addr:country": "GB", "name": "Worcester, Waitrose", "phone": "01905 352071", "website": "https://www.johnsoncleaners.com/branch/worcester-waitrose", "brand": "Johnson Cleaners", "brand:wikidata": "Q6268527", "nsi_id": "johnsons-a4fd49"}, "geometry": {"type": "Point", "coordinates": [-2.195374966, 52.18255997]}},
{"type": "Feature", "id": "qOL4O7YREEhAQHWWTn4s2bqCxck=", "properties": {"ref": "4530", "@spider": "johnsoncleaners_gb", "shop": "dry_cleaning", "addr:street_address": "Newport Pagnell Road", "addr:city": "Wootton", "addr:state": "Northamptonshire", "addr:postcode": "NN4 6HP", "addr:country": "GB", "name": "Wootton, Waitrose", "phone": "01604 708448", "website": "https://www.johnsoncleaners.com/branch/wootton-waitrose", "brand": "Johnson Cleaners", "brand:wikidata": "Q6268527", "nsi_id": "johnsons-a4fd49"}, "geometry": {"type": "Point", "coordinates": [-0.892678022, 52.21001053]}},
{"type": "Feature", "id": "zLTVQYofVfbqFM7Fm90FFNxy5wE=", "properties": {"ref": "4524", "@spider": "johnsoncleaners_gb", "shop": "dry_cleaning", "addr:street_address": "James Road, Woolton", "addr:city": "Liverpool", "addr:state": "Merseyside", "addr:postcode": "L25 5QA", "addr:country": "GB", "name": "Woolton, Sainsbury's", "phone": "0151 428 5291", "website": "https://www.johnsoncleaners.com/branch/woolton-sainsburys", "brand": "Johnson Cleaners", "brand:wikidata": "Q6268527", "nsi_id": "johnsons-a4fd49"}, "geometry": {"type": "Point", "coordinates": [-2.864518881, 53.37491989]}},
{"type": "Feature", "id": "6Aw45qD1xYoU8RDmICDbJ_EDC10=", "properties": {"ref": "4523", "@spider": "johnsoncleaners_gb", "shop": "dry_cleaning", "addr:street_address": "108 Crockhamwell Rd, Woodley", "addr:city": "Reading", "addr:state": "Berkshire", "addr:postcode": "RG5 3JW", "addr:country": "GB", "name": "Woodley, Waitrose", "phone": "01189 690438", "website": "https://www.johnsoncleaners.com/branch/woodley-waitrose", "brand": "Johnson Cleaners", "brand:wikidata": "Q6268527", "nsi_id": "johnsons-a4fd49"}, "geometry": {"type": "Point", "coordinates": [-0.906011403, 51.45135117]}},
{"type": "Feature", "id": "BSDMByWoijJ7yhaqbfk1FfvRo6E=", "properties": {"ref": "4508", "@spider": "johnsoncleaners_gb", "shop": "dry_cleaning", "addr:street_address": "Rectory Road", "addr:city": "Wokingham", "addr:postcode": "RG40 1BB", "addr:country": "GB", "name": "Wokingham, Waitrose", "phone": "0118 9771699", "website": "https://www.johnsoncleaners.com/branch/wokingham-waitrose", "brand": "Johnson Cleaners", "brand:wikidata": "Q6268527", "nsi_id": "johnsons-a4fd49"}, "geometry": {"type": "Point", "coordinates": [-0.833588004, 51.41166687]}},
{"type": "Feature", "id": "DGBPd482zA0Hq7NOsZSA4we5bCA=", "properties": {"ref": "4496", "@spider": "johnsoncleaners_gb", "shop": "dry_cleaning", "addr:street_address": "25 Woolgate Centre, Market Square", "addr:city": "Witney", "addr:state": "Oxfordshire", "addr:postcode": "OX28 6AR", "addr:country": "GB", "name": "Witney, Waitrose", "phone": "01993 778411", "website": "https://www.johnsoncleaners.com/branch/witney-waitrose", "brand": "Johnson Cleaners", "brand:wikidata": "Q6268527", "nsi_id": "johnsons-a4fd49"}, "geometry": {"type": "Point", "coordinates": [-1.483448029, 51.78481674]}},
{"type": "Feature", "id": "6Xan6opvYTH-EjNwq3BMF44i6ik=", "properties": {"ref": "4467", "@spider": "johnsoncleaners_gb", "shop": "dry_cleaning", "addr:street_address": "Unit N, Nickel Close, St Martin Trading Park", "addr:city": "Winchester", "addr:postcode": "SO23 7RJ", "addr:country": "GB", "name": "Winchester Drive In", "phone": "01962 843324", "website": "https://www.johnsoncleaners.com/branch/winchester-drive-in", "brand": "Johnson Cleaners", "brand:wikidata": "Q6268527", "nsi_id": "johnsons-a4fd49"}, "geometry": {"type": "Point", "coordinates": [-1.30311299999994, 51.0666071]}},
{"type": "Feature", "id": "iIdXAG1WtSy6finIX5P9rFQvemw=", "properties": {"ref": "4461", "@spider": "johnsoncleaners_gb", "shop": "dry_cleaning", "addr:street_address": "Church Street", "addr:city": "Wilmslow", "addr:state": "Cheshire", "addr:postcode": "SK9 1AY", "addr:country": "GB", "name": "Wilmslow, Waitrose", "phone": "01625 538831", "website": "https://www.johnsoncleaners.com/branch/wilmslow-waitrose", "brand": "Johnson Cleaners", "brand:wikidata": "Q6268527", "nsi_id": "johnsons-a4fd49"}, "geometry": {"type": "Point", "coordinates": [-2.229191065, 53.32891083]}},
{"type": "Feature", "id": "TaxtvM7H1Kv7AkzHkFcMkXMnL70=", "properties": {"ref": "4458", "@spider": "johnsoncleaners_gb", "shop": "dry_cleaning", "addr:street_address": "43 Alderley Road", "addr:city": "Wilmslow", "addr:state": "Cheshire", "addr:postcode": "SK9 1NZ", "addr:country": "GB", "name": "Wilmslow", "phone": "01625 525151", "website": "https://www.johnsoncleaners.com/branch/wilmslow", "brand": "Johnson Cleaners", "brand:wikidata": "Q6268527", "nsi_id": "johnsons-a4fd49"}, "geometry": {"type": "Point", "coordinates": [-2.233956099, 53.32445908]}},
{"type": "Feature", "id": "_MlGERPDX2CfWS_fIbrYpZPfqZw=", "properties": {"ref": "4457", "@spider": "johnsoncleaners_gb", "shop": "dry_cleaning", "addr:street_address": "Beverley Rd", "addr:city": "Willerby", "addr:state": "Yorkshire", "addr:postcode": "HU10 6EB", "addr:country": "GB", "name": "Willerby, Waitrose", "phone": "01482 655266", "website": "https://www.johnsoncleaners.com/branch/willerby-waitrose", "brand": "Johnson Cleaners", "brand:wikidata": "Q6268527", "nsi_id": "johnsons-a4fd49"}, "geometry": {"type": "Point", "coordinates": [-0.446872205, 53.75503159]}},
{"type": "Feature", "id": "8e-9tmP2LBZd-PnjmkKE8xXX1Uk=", "properties": {"ref": "4424", "@spider": "johnsoncleaners_gb", "shop": "dry_cleaning", "addr:street_address": "White Rose Shopping Centre", "addr:city": "Leeds", "addr:postcode": "LS11 8LS", "addr:country": "GB", "name": "White Rose Shopping Centre, Sainsbury's", "phone": "0113 276 0002", "website": "https://www.johnsoncleaners.com/branch/white-rose-shopping-centre-sainsburys", "brand": "Johnson Cleaners", "brand:wikidata": "Q6268527", "nsi_id": "johnsons-a4fd49"}, "geometry": {"type": "Point", "coordinates": [-1.573582, 53.75624]}},
{"type": "Feature", "id": "j0AvmwjlvM_DznuEo0fptNVMxoI=", "properties": {"ref": "4421", "@spider": "johnsoncleaners_gb", "shop": "dry_cleaning", "addr:street_address": "1305 High Road", "addr:city": "Whetstone", "addr:state": "London", "addr:postcode": "N20 9HX", "addr:country": "GB", "name": "Whetstone, Waitrose", "phone": "020 8446 0323", "website": "https://www.johnsoncleaners.com/branch/whetstone-waitrose", "brand": "Johnson Cleaners", "brand:wikidata": "Q6268527", "nsi_id": "johnsons-a4fd49"}, "geometry": {"type": "Point", "coordinates": [-0.175570995, 51.63127899]}},
{"type": "Feature", "id": "4IK8Ea39jMl9rzXy5gsZCjSd9yQ=", "properties": {"ref": "4411", "@spider": "johnsoncleaners_gb", "shop": "dry_cleaning", "addr:street_address": "30 Market Place", "addr:city": "Wetherby", "addr:state": "West Yorkshire", "addr:postcode": "LS22 6NE", "addr:country": "GB", "name": "Wetherby", "phone": "01937 584293", "website": "https://www.johnsoncleaners.com/branch/wetherby", "brand": "Johnson Cleaners", "brand:wikidata": "Q6268527", "nsi_id": "johnsons-a4fd49"}, "geometry": {"type": "Point", "coordinates": [-1.386438012, 53.92821884]}},
{"type": "Feature", "id": "Q-Gu4swH7sRfspq-eRdY6REskf0=", "properties": {"ref": "4410", "@spider": "johnsoncleaners_gb", "shop": "dry_cleaning", "addr:street_address": "2 Phillips Rd", "addr:city": "Weston Super Mare", "addr:state": "Somerset", "addr:postcode": "BS23 3UZ", "addr:country": "GB", "name": "Weston Super Mare, Waitrose", "phone": "01934 416800", "website": "https://www.johnsoncleaners.com/branch/weston-super-mare-waitrose", "brand": "Johnson Cleaners", "brand:wikidata": "Q6268527", "nsi_id": "johnsons-a4fd49"}, "geometry": {"type": "Point", "coordinates": [-2.958194017, 51.34149933]}},
{"type": "Feature", "id": "rdos1Byvv8UHHtLVyaQyRQLe7dU=", "properties": {"ref": "4401", "@spider": "johnsoncleaners_gb", "shop": "dry_cleaning", "addr:street_address": "The Arcade, Westfield", "addr:city": "Stratford City", "addr:state": "London", "addr:postcode": "E20 1EH", "addr:country": "GB", "name": "Westfield Stratford, Waitrose", "phone": "0208 5343986", "website": "https://www.johnsoncleaners.com/branch/westfield-stratford-waitrose", "brand": "Johnson Cleaners", "brand:wikidata": "Q6268527", "nsi_id": "johnsons-a4fd49"}, "geometry": {"type": "Point", "coordinates": [-0.0063473, 51.5443356]}},
{"type": "Feature", "id": "NVfmLybI6cOyBtO0zrVt5okhwIc=", "properties": {"ref": "4394", "@spider": "johnsoncleaners_gb", "shop": "dry_cleaning", "addr:street_address": "Alexandria Road", "addr:city": "West Ealing", "addr:state": "London", "addr:postcode": "W13 0NL", "addr:country": "GB", "name": "West Ealing, Waitrose", "phone": "0208 5790991", "website": "https://www.johnsoncleaners.com/branch/west-ealing-waitrose", "brand": "Johnson Cleaners", "brand:wikidata": "Q6268527", "nsi_id": "johnsons-a4fd49"}, "geometry": {"type": "Point", "coordinates": [-0.322117209, 51.51251984]}},
{"type": "Feature", "id": "gw_E3Yiu1aag5tnrLluDeH_tB1U=", "properties": {"ref": "4390", "@spider": "johnsoncleaners_gb", "shop": "dry_cleaning", "addr:street_address": "60 Station Approach", "addr:city": "West Byfleet", "addr:postcode": "KT14 6NE", "addr:country": "GB", "name": "West Byfleet, Waitrose", "phone": "01932 351 028", "website": "https://www.johnsoncleaners.com/branch/west-byfleet-waitrose", "brand": "Johnson Cleaners", "brand:wikidata": "Q6268527", "nsi_id": "johnsons-a4fd49"}, "geometry": {"type": "Point", "coordinates": [-0.506035686, 51.33863068]}},
{"type": "Feature", "id": "rBGqytPc04U1c8xQFzPk5nAHsvU=", "properties": {"ref": "4372", "@spider": "johnsoncleaners_gb", "shop": "dry_cleaning", "addr:street_address": "43 Fretherne Road", "addr:city": "Welwyn Garden City", "addr:state": "Hertfordshire", "addr:postcode": "AL8 6NY", "addr:country": "GB", "name": "Welwyn Garden City", "phone": "01707 338772", "website": "https://www.johnsoncleaners.com/branch/welwyn-garden-city-1", "brand": "Johnson Cleaners", "brand:wikidata": "Q6268527", "nsi_id": "johnsons-a4fd49"}, "geometry": {"type": "Point", "coordinates": [-0.205740005, 51.80064011]}},
{"type": "Feature", "id": "BPSdWnzRwdtVg5Mmubu9mZ3kohU=", "properties": {"ref": "4369", "@spider": "johnsoncleaners_gb", "shop": "dry_cleaning", "addr:street_address": "Whiting Way", "addr:city": "Wells", "addr:postcode": "BA5 2PJ", "addr:country": "GB", "name": "Wells, Waitrose", "phone": "01749 672570", "website": "https://www.johnsoncleaners.com/branch/wells-waitrose", "brand": "Johnson Cleaners", "brand:wikidata": "Q6268527", "nsi_id": "johnsons-a4fd49"}, "geometry": {"type": "Point", "coordinates": [-2.650158882, 51.20975113]}},
{"type": "Feature", "id": "z1M7L4S2wcctkNhWb0AgK-FDyZ0=", "properties": {"ref": "4368", "@spider": "johnsoncleaners_gb", "shop": "dry_cleaning", "addr:street_address": "34-46 High Street", "addr:city": "Wellington", "addr:state": "Somerset", "addr:postcode": "TA21 8RD", "addr:country": "GB", "name": "Wellington, Waitrose", "phone": "01823 663577", "website": "https://www.johnsoncleaners.com/branch/wellington-waitrose", "brand": "Johnson Cleaners", "brand:wikidata": "Q6268527", "nsi_id": "johnsons-a4fd49"}, "geometry": {"type": "Point", "coordinates": [-3.22555995, 50.97985077]}},
{"type": "Feature", "id": "VHZeluAP6PCzcaGVLFoW117Nsqs=", "properties": {"ref": "4605", "@spider": "johnsoncleaners_gb", "shop": "dry_cleaning", "addr:street_address": "1 Swan Street", "addr:city": "Warwick", "addr:postcode": "CV34 4BJ", "addr:country": "GB", "name": "Warwick", "phone": "01926 497185", "website": "https://www.johnsoncleaners.com/branch/warwick-1", "brand": "Johnson Cleaners", "brand:wikidata": "Q6268527", "nsi_id": "johnsons-a4fd49"}, "geometry": {"type": "Point", "coordinates": [-1.58929069999999, 52.2810879]}},
{"type": "Feature", "id": "oBwQd1Ep9IOYODGoj6F7TPX9dks=", "properties": {"ref": "4321", "@spider": "johnsoncleaners_gb", "shop": "dry_cleaning", "addr:street_address": "2 Oliver Street", "addr:city": "Warrington", "addr:state": "Cheshire", "addr:postcode": "WA2 7FY", "addr:country": "GB", "name": "Warrington Drive-in", "phone": "01925 414292", "website": "https://www.johnsoncleaners.com/branch/warrington-drive-in", "brand": "Johnson Cleaners", "brand:wikidata": "Q6268527", "nsi_id": "johnsons-a4fd49"}, "geometry": {"type": "Point", "coordinates": [-2.592479944, 53.39554977]}},
{"type": "Feature", "id": "bflQIMJzQiIMTGOIdKFkmwV9HRg=", "properties": {"ref": "4317", "@spider": "johnsoncleaners_gb", "shop": "dry_cleaning", "addr:street_address": "17, Wallingford Street", "addr:city": "Wantage", "addr:postcode": "OX12 8BD", "addr:country": "GB", "name": "Wantage, Waitrose", "phone": "01235 772313", "website": "https://www.johnsoncleaners.com/branch/wantage-waitrose", "brand": "Johnson Cleaners", "brand:wikidata": "Q6268527", "nsi_id": "johnsons-a4fd49"}, "geometry": {"type": "Point", "coordinates": [-1.424919009, 51.58884048]}},
{"type": "Feature", "id": "h85EAtRDZvN5ZKOQBgiqU3WKwNY=", "properties": {"ref": "4316", "@spider": "johnsoncleaners_gb", "shop": "dry_cleaning", "addr:street_address": "66/67 Southside Shopping Centre, High Street", "addr:city": "Wandsworth", "addr:state": "London", "addr:postcode": "SW18 4TG", "addr:country": "GB", "name": "Wandsworth, Waitrose", "phone": "020 88704933", "website": "https://www.johnsoncleaners.com/branch/wandsworth-waitrose", "brand": "Johnson Cleaners", "brand:wikidata": "Q6268527", "nsi_id": "johnsons-a4fd49"}, "geometry": {"type": "Point", "coordinates": [-0.194453999, 51.45536041]}},
{"type": "Feature", "id": "_EzS6CzNO1T_3jNAitjhFmOW4hc=", "properties": {"ref": "4312", "@spider": "johnsoncleaners_gb", "shop": "dry_cleaning", "addr:street_address": "Capital Centre, Walton-Le-Dale", "addr:city": "Preston", "addr:state": "Lancashire", "addr:postcode": "PR5 4AW", "addr:country": "GB", "name": "Walton-Le-Dale, Waitrose", "phone": "01772 886066", "website": "https://www.johnsoncleaners.com/branch/walton-le-dale-waitrose", "brand": "Johnson Cleaners", "brand:wikidata": "Q6268527", "nsi_id": "johnsons-a4fd49"}, "geometry": {"type": "Point", "coordinates": [-2.677694082, 53.74882126]}},
{"type": "Feature", "id": "7xA56DhXuUXVf2iIIkDRbEyFe2I=", "properties": {"ref": "4289", "@spider": "johnsoncleaners_gb", "shop": "dry_cleaning", "addr:street_address": "1 Martins Street", "addr:city": "Wallingford", "addr:postcode": "OX10 0EF", "addr:country": "GB", "name": "Wallingford, Waitrose", "phone": "01491 832030", "website": "https://www.johnsoncleaners.com/branch/wallingford-waitrose", "brand": "Johnson Cleaners", "brand:wikidata": "Q6268527", "nsi_id": "johnsons-a4fd49"}, "geometry": {"type": "Point", "coordinates": [-1.125247002, 51.60071945]}},
{"type": "Feature", "id": "jmG8V_XU4PP62WlRI8iIDrABxFM=", "properties": {"ref": "4279", "@spider": "johnsoncleaners_gb", "shop": "dry_cleaning", "addr:street_address": "Asdale Road", "addr:city": "Wakefield", "addr:postcode": "WF2 7EQ", "addr:country": "GB", "name": "Wakefield, Asda Asdale Road", "phone": "01924 255473", "website": "https://www.johnsoncleaners.com/branch/wakefield-asda-asdale-road", "brand": "Johnson Cleaners", "brand:wikidata": "Q6268527", "nsi_id": "johnsons-a4fd49"}, "geometry": {"type": "Point", "coordinates": [-1.509379029, 53.65203857]}},
{"type": "Feature", "id": "aaTGOZURvDcyAXPFyPGcQ5bxrvc=", "properties": {"ref": "4265", "@spider": "johnsoncleaners_gb", "shop": "dry_cleaning", "addr:street_address": "Trinity Road", "addr:city": "Uttoxeter", "addr:state": "Staffordshire", "addr:postcode": "ST14 8AQ", "addr:country": "GB", "name": "Uttoxeter, Waitrose", "phone": "01889 565765", "website": "https://www.johnsoncleaners.com/branch/uttoxeter-waitrose", "brand": "Johnson Cleaners", "brand:wikidata": "Q6268527", "nsi_id": "johnsons-a4fd49"}, "geometry": {"type": "Point", "coordinates": [-1.863083005, 52.89638901]}},
{"type": "Feature", "id": "Rrp-ue1s9IUhIRomsjxdG2ku7p4=", "properties": {"ref": "4255", "@spider": "johnsoncleaners_gb", "shop": "dry_cleaning", "addr:street_address": "218 St Marys Lane", "addr:city": "Upminster", "addr:state": "Essex", "addr:postcode": "RM14 3BT", "addr:country": "GB", "name": "Upminster, Waitrose", "phone": "01708 224 444", "website": "https://www.johnsoncleaners.com/branch/upminster-waitrose", "brand": "Johnson Cleaners", "brand:wikidata": "Q6268527", "nsi_id": "johnsons-a4fd49"}, "geometry": {"type": "Point", "coordinates": [0.252052009, 51.55617905]}},
{"type": "Feature", "id": "X4fZIfQ77bSn5ejOYpQkG4_4lyU=", "properties": {"ref": "4253", "@spider": "johnsoncleaners_gb", "shop": "dry_cleaning", "addr:street_address": "London Road", "addr:city": "Twyford", "addr:state": "Berkshire", "addr:postcode": "RG10 9EH", "addr:country": "GB", "name": "Twyford, Waitrose", "phone": "0118 9344646", "website": "https://www.johnsoncleaners.com/branch/twyford-waitrose", "brand": "Johnson Cleaners", "brand:wikidata": "Q6268527", "nsi_id": "johnsons-a4fd49"}, "geometry": {"type": "Point", "coordinates": [-0.866358995, 51.47787857]}},
{"type": "Feature", "id": "6Ray03hsP-Wm1Jcyw9abze7-QaA=", "properties": {"ref": "4251", "@spider": "johnsoncleaners_gb", "shop": "dry_cleaning", "addr:street_address": "50 London Road", "addr:city": "Twickenham", "addr:postcode": "TW1 3RJ", "addr:country": "GB", "name": "Twickenham, Waitrose", "phone": "0208 8914421", "website": "https://www.johnsoncleaners.com/branch/twickenham-waitrose", "brand": "Johnson Cleaners", "brand:wikidata": "Q6268527", "nsi_id": "johnsons-a4fd49"}, "geometry": {"type": "Point", "coordinates": [-0.328815997, 51.44829941]}},
{"type": "Feature", "id": "Yf4DXEg0L72qMmbVEqTHVZRd6KQ=", "properties": {"ref": "4242", "@spider": "johnsoncleaners_gb", "shop": "dry_cleaning", "addr:street_address": "35 Mount Pleasant", "addr:city": "Tunbridge Wells", "addr:state": "Kent", "addr:postcode": "TN1 1PT", "addr:country": "GB", "name": "Tunbridge Wells", "phone": "01892 522967", "website": "https://www.johnsoncleaners.com/branch/tunbridge-wells-2", "brand": "Johnson Cleaners", "brand:wikidata": "Q6268527", "nsi_id": "johnsons-a4fd49"}, "geometry": {"type": "Point", "coordinates": [0.263221, 51.131417]}},
{"type": "Feature", "id": "S6bJe_vp6Y306LWAHs7JroLTwhM=", "properties": {"ref": "4238", "@spider": "johnsoncleaners_gb", "shop": "dry_cleaning", "addr:street_address": "33 River Street", "addr:city": "Truro", "addr:state": "Cornwall", "addr:postcode": "TR1 2SJ", "addr:country": "GB", "name": "Truro", "phone": "01872 277639", "website": "https://www.johnsoncleaners.com/branch/truro-1", "brand": "Johnson Cleaners", "brand:wikidata": "Q6268527", "nsi_id": "johnsons-a4fd49"}, "geometry": {"type": "Point", "coordinates": [-5.053662777, 50.26350021]}},
{"type": "Feature", "id": "Fdhc2lLqdof-3ZKGQANSGw_cLt8=", "properties": {"ref": "4217", "@spider": "johnsoncleaners_gb", "shop": "dry_cleaning", "addr:street_address": "Sovereign Way", "addr:city": "Tonbridge", "addr:state": "Kent", "addr:postcode": "TN9 1RG", "addr:country": "GB", "name": "Tonbridge, Waitrose", "phone": "01732 358964", "website": "https://www.johnsoncleaners.com/branch/tonbridge-waitrose", "brand": "Johnson Cleaners", "brand:wikidata": "Q6268527", "nsi_id": "johnsons-a4fd49"}, "geometry": {"type": "Point", "coordinates": [0.278471887, 51.19252014]}},
{"type": "Feature", "id": "ue2r6W6dJe6n1noqYxitVayccrI=", "properties": {"ref": "4211", "@spider": "johnsoncleaners_gb", "shop": "dry_cleaning", "addr:street_address": "30 Fore Street", "addr:city": "Tiverton", "addr:state": "Devon", "addr:postcode": "EX16 6LD", "addr:country": "GB", "name": "Tiverton", "phone": "01884 252226", "website": "https://www.johnsoncleaners.com/branch/tiverton-1", "brand": "Johnson Cleaners", "brand:wikidata": "Q6268527", "nsi_id": "johnsons-a4fd49"}, "geometry": {"type": "Point", "coordinates": [-3.487112999, 50.90293121]}},
{"type": "Feature", "id": "HV65dDi0pdAokjpI0xnuQDcnj1Q=", "properties": {"ref": "4200", "@spider": "johnsoncleaners_gb", "shop": "dry_cleaning", "addr:street_address": "The Old Three Elms Petrol Station, Merthyr Road", "addr:city": "Whitchurch", "addr:postcode": "CF14 1DX", "addr:country": "GB", "name": "Three Elms, Whitchurch", "phone": "02920 625486", "website": "https://www.johnsoncleaners.com/branch/three-elms-whitchurch", "brand": "Johnson Cleaners", "brand:wikidata": "Q6268527", "nsi_id": "johnsons-a4fd49"}, "geometry": {"type": "Point", "coordinates": [-3.20854497, 51.50971985]}},
{"type": "Feature", "id": "vsHTv78V4uIsSDydCuNbkd756bY=", "properties": {"ref": "4188", "@spider": "johnsoncleaners_gb", "shop": "dry_cleaning", "addr:street_address": "17 Thayer Street", "addr:city": "London", "addr:postcode": "W1U 3JX", "addr:country": "GB", "name": "Thayer Street", "phone": "0207 486 8289", "website": "https://www.johnsoncleaners.com/branch/thayer-street", "brand": "Johnson Cleaners", "brand:wikidata": "Q6268527", "nsi_id": "johnsons-a4fd49"}, "geometry": {"type": "Point", "coordinates": [-0.1515548, 51.5172366]}},
{"type": "Feature", "id": "bJPrHE-L-B941DOuU1G_-RGGNFg=", "properties": {"ref": "4187", "@spider": "johnsoncleaners_gb", "shop": "dry_cleaning", "addr:street_address": "48-53 The Broadway", "addr:city": "Thatcham", "addr:state": "Berkshire", "addr:postcode": "RG19 3HN", "addr:country": "GB", "name": "Thatcham, Waitrose", "phone": "01635 868113", "website": "https://www.johnsoncleaners.com/branch/thatcham-waitrose", "brand": "Johnson Cleaners", "brand:wikidata": "Q6268527", "nsi_id": "johnsons-a4fd49"}, "geometry": {"type": "Point", "coordinates": [-1.256785989, 51.402771]}},
{"type": "Feature", "id": "qgxwKbOjHd0WHHFnvUsPuTQZmXg=", "properties": {"ref": "4184", "@spider": "johnsoncleaners_gb", "shop": "dry_cleaning", "addr:street_address": "20a Cornmarket", "addr:city": "Thame", "addr:state": "Oxfordshire", "addr:postcode": "OX9 2BL", "addr:country": "GB", "name": "Thame", "phone": "01844 214443", "website": "https://www.johnsoncleaners.com/branch/thame", "brand": "Johnson Cleaners", "brand:wikidata": "Q6268527", "nsi_id": "johnsons-a4fd49"}, "geometry": {"type": "Point", "coordinates": [-0.978055418, 51.74708176]}},
{"type": "Feature", "id": "R_mCXNRb0D3pkiB0xONxQi61wcE=", "properties": {"ref": "4180", "@spider": "johnsoncleaners_gb", "shop": "dry_cleaning", "addr:street_address": "7 Upper Green, Tettenhall", "addr:city": "Wolverhampton", "addr:state": "West Midlands", "addr:postcode": "WV6 8QQ", "addr:country": "GB", "name": "Tettenhall", "phone": "01902 754801", "website": "https://www.johnsoncleaners.com/branch/tettenhall-1", "brand": "Johnson Cleaners", "brand:wikidata": "Q6268527", "nsi_id": "johnsons-a4fd49"}, "geometry": {"type": "Point", "coordinates": [-2.168735027, 52.59809113]}},
{"type": "Feature", "id": "FbWFMMlZ8RSzCgw6_9SmSfP0c7c=", "properties": {"ref": "4177", "@spider": "johnsoncleaners_gb", "shop": "dry_cleaning", "addr:street_address": "10 Sayers Lane", "addr:city": "Tenterden", "addr:state": "Kent", "addr:postcode": "TN30 6BW", "addr:country": "GB", "name": "Tenterden, Waitrose", "phone": "01580 765 168", "website": "https://www.johnsoncleaners.com/branch/tenterden-waitrose", "brand": "Johnson Cleaners", "brand:wikidata": "Q6268527", "nsi_id": "johnsons-a4fd49"}, "geometry": {"type": "Point", "coordinates": [0.68858403, 51.06835938]}},
{"type": "Feature", "id": "3osYRQeO8HRlzMX7HWcRZPhOI0s=", "properties": {"ref": "4166", "@spider": "johnsoncleaners_gb", "shop": "dry_cleaning", "addr:street_address": "Kingsway, Team Valley Trading Estate", "addr:city": "Gateshead", "addr:state": "Tyne and Wear", "addr:postcode": "NE11 0HB", "addr:country": "GB", "name": "Team Valley (Drive In)", "phone": "0191 482 8936", "website": "https://www.johnsoncleaners.com/branch/team-valley-drive-in", "brand": "Johnson Cleaners", "brand:wikidata": "Q6268527", "nsi_id": "johnsons-a4fd49"}, "geometry": {"type": "Point", "coordinates": [-1.618137956, 54.93220139]}},
{"type": "Feature", "id": "0_RJhfg0cqPLqb2DF9MHlR0IOzc=", "properties": {"ref": "4159", "@spider": "johnsoncleaners_gb", "shop": "dry_cleaning", "addr:street_address": "Unit 3 Belvedere Retail Park, Station Road", "addr:city": "Taunton", "addr:state": "Somerset", "addr:postcode": "TA1 1NQ", "addr:country": "GB", "name": "Taunton Station Rd", "phone": "01823 276424", "website": "https://www.johnsoncleaners.com/branch/taunton-station-rd", "brand": "Johnson Cleaners", "brand:wikidata": "Q6268527", "nsi_id": "johnsons-a4fd49"}, "geometry": {"type": "Point", "coordinates": [-3.104481936, 51.02043915]}},
{"type": "Feature", "id": "qIHe3zJlISTM34hKaWQzsyNcupA=", "properties": {"ref": "4136", "@spider": "johnsoncleaners_gb", "shop": "dry_cleaning", "addr:street_address": "Mill Lane, Middle Wichelstowe", "addr:city": "Swindon", "addr:postcode": "SN1 7BX", "addr:country": "GB", "name": "Swindon, Waitrose", "phone": "01793 874273", "website": "https://www.johnsoncleaners.com/branch/swindon-waitrose", "brand": "Johnson Cleaners", "brand:wikidata": "Q6268527", "nsi_id": "johnsons-a4fd49"}, "geometry": {"type": "Point", "coordinates": [-1.788094997, 51.54874039]}},
{"type": "Feature", "id": "IndZCpWQG8jZhU1PJw14L8nN2g0=", "properties": {"ref": "4604", "@spider": "johnsoncleaners_gb", "shop": "dry_cleaning", "addr:street_address": "Unit 12 West Swindon Centre, Tewksebury Way", "addr:city": "Swindon", "addr:postcode": "SN5 7DL", "addr:country": "GB", "name": "Swindon", "phone": "01793 887837", "website": "https://www.johnsoncleaners.com/branch/swindon-2", "brand": "Johnson Cleaners", "brand:wikidata": "Q6268527", "nsi_id": "johnsons-a4fd49"}, "geometry": {"type": "Point", "coordinates": [-1.8287577, 51.5591398]}},
{"type": "Feature", "id": "_Uz4tixJLdDCkllqrXdNDnlXSXo=", "properties": {"ref": "4110", "@spider": "johnsoncleaners_gb", "shop": "dry_cleaning", "addr:street_address": "Castle Acre Road", "addr:city": "Swaffham", "addr:state": "Norfolk", "addr:postcode": "PE37 7HT", "addr:country": "GB", "name": "Swaffham, Waitrose", "phone": "01760 336307", "website": "https://www.johnsoncleaners.com/branch/swaffham-waitrose", "brand": "Johnson Cleaners", "brand:wikidata": "Q6268527", "nsi_id": "johnsons-a4fd49"}, "geometry": {"type": "Point", "coordinates": [0.684047997, 52.65570831]}},
{"type": "Feature", "id": "pEcGMhOVxdEZX3YsprpBPCLgSRU=", "properties": {"ref": "4097", "@spider": "johnsoncleaners_gb", "shop": "dry_cleaning", "addr:street_address": "Victoria Road", "addr:city": "Sutton Coldfield", "addr:state": "West Midlands", "addr:postcode": "B72 1SY", "addr:country": "GB", "name": "Sutton Coldfield, Victoria Rd", "phone": "0121 354 8590", "website": "https://www.johnsoncleaners.com/branch/sutton-coldfield-victoria-rd", "brand": "Johnson Cleaners", "brand:wikidata": "Q6268527", "nsi_id": "johnsons-a4fd49"}, "geometry": {"type": "Point", "coordinates": [-1.821851015, 52.56246948]}},
{"type": "Feature", "id": "X9Itn6qTKGAEN5BbuAXqxZtgayQ=", "properties": {"ref": "4090", "@spider": "johnsoncleaners_gb", "shop": "dry_cleaning", "addr:street_address": "15a Claremont Road", "addr:city": "Surbiton", "addr:state": "Surrey", "addr:postcode": "KT6 4QR", "addr:country": "GB", "name": "Surbiton, Waitrose", "phone": "020 8399 4020", "website": "https://www.johnsoncleaners.com/branch/surbiton-waitrose", "brand": "Johnson Cleaners", "brand:wikidata": "Q6268527", "nsi_id": "johnsons-a4fd49"}, "geometry": {"type": "Point", "coordinates": [-0.305129707, 51.39389038]}},
{"type": "Feature", "id": "0AQfxqGi1L9k49RUyGHHpGjZR7M=", "properties": {"ref": "4088", "@spider": "johnsoncleaners_gb", "shop": "dry_cleaning", "addr:street_address": "London Road", "addr:city": "Sunningdale", "addr:postcode": "SL5 0HD", "addr:country": "GB", "name": "Sunningdale, Waitrose", "phone": "01344 872770", "website": "https://www.johnsoncleaners.com/branch/sunningdale-waitrose", "brand": "Johnson Cleaners", "brand:wikidata": "Q6268527", "nsi_id": "johnsons-a4fd49"}, "geometry": {"type": "Point", "coordinates": [-0.633220017, 51.39141083]}},
{"type": "Feature", "id": "hNdFsRG6eL57Hv-r-wlwgPSLgnc=", "properties": {"ref": "4078", "@spider": "johnsoncleaners_gb", "shop": "dry_cleaning", "addr:street_address": "Station Road", "addr:city": "Sudbury", "addr:state": "Suffolk", "addr:postcode": "CO10 2SS", "addr:country": "GB", "name": "Sudbury, Waitrose", "phone": "01787 880373", "website": "https://www.johnsoncleaners.com/branch/sudbury-waitrose", "brand": "Johnson Cleaners", "brand:wikidata": "Q6268527", "nsi_id": "johnsons-a4fd49"}, "geometry": {"type": "Point", "coordinates": [0.731616974, 52.03688049]}},
{"type": "Feature", "id": "73RdvWjjlGLEWRZY9BXo3yhoe6A=", "properties": {"ref": "4074", "@spider": "johnsoncleaners_gb", "shop": "dry_cleaning", "addr:street_address": "31 Market Hill", "addr:city": "Sudbury", "addr:state": "Suffolk", "addr:postcode": "CO10 2EN", "addr:country": "GB", "name": "Sudbury", "phone": "01787 372485", "website": "https://www.johnsoncleaners.com/branch/sudbury-1", "brand": "Johnson Cleaners", "brand:wikidata": "Q6268527", "nsi_id": "johnsons-a4fd49"}, "geometry": {"type": "Point", "coordinates": [0.730678022, 52.03821945]}},
{"type": "Feature", "id": "MVmQIfHC7LIXcZHrcS-KmqLQNoU=", "properties": {"ref": "4072", "@spider": "johnsoncleaners_gb", "shop": "dry_cleaning", "addr:street_address": "London Road", "addr:city": "Stroud", "addr:state": "Gloucestershire", "addr:postcode": "GL5 2AP", "addr:country": "GB", "name": "Stroud, Waitrose", "phone": "01453 757 067", "website": "https://www.johnsoncleaners.com/branch/stroud-waitrose", "brand": "Johnson Cleaners", "brand:wikidata": "Q6268527", "nsi_id": "johnsons-a4fd49"}, "geometry": {"type": "Point", "coordinates": [-2.201915979, 51.7273407]}},
{"type": "Feature", "id": "_8CR1OUO6__0Mgi1kSWp5JpU8To=", "properties": {"ref": "4050", "@spider": "johnsoncleaners_gb", "shop": "dry_cleaning", "addr:street_address": "The Rosebird Centre, Shipton Rd", "addr:city": "Stratford upon Avon", "addr:postcode": "CV37 8LU", "addr:country": "GB", "name": "Stratford upon Avon, Waitrose", "phone": "01789 263465", "website": "https://www.johnsoncleaners.com/branch/stratford-upon-avon-waitrose", "brand": "Johnson Cleaners", "brand:wikidata": "Q6268527", "nsi_id": "johnsons-a4fd49"}, "geometry": {"type": "Point", "coordinates": [-1.700580955, 52.17834854]}},
{"type": "Feature", "id": "mLr8VrFrbFLd3N78_etcgOgsGpg=", "properties": {"ref": "4044", "@spider": "johnsoncleaners_gb", "shop": "dry_cleaning", "addr:street_address": "Straiton Mains", "addr:city": "Loanhead", "addr:state": "Midlothian", "addr:postcode": "EH20 9PW", "addr:country": "GB", "name": "Straiton, Sainsbury's", "phone": "0131 4482802", "website": "https://www.johnsoncleaners.com/branch/straiton-sainsburys", "brand": "Johnson Cleaners", "brand:wikidata": "Q6268527", "nsi_id": "johnsons-a4fd49"}, "geometry": {"type": "Point", "coordinates": [-3.164851904, 55.8827095]}},
{"type": "Feature", "id": "OlYtuz1k1pW_6uV7UDBikXdKR34=", "properties": {"ref": "4035", "@spider": "johnsoncleaners_gb", "shop": "dry_cleaning", "addr:street_address": "Ryemarket", "addr:city": "Stourbridge", "addr:state": "West Midlands", "addr:postcode": "DY8 1HJ", "addr:country": "GB", "name": "Stourbridge, Waitrose", "phone": "01384 378209", "website": "https://www.johnsoncleaners.com/branch/stourbridge-waitrose", "brand": "Johnson Cleaners", "brand:wikidata": "Q6268527", "nsi_id": "johnsons-a4fd49"}, "geometry": {"type": "Point", "coordinates": [-2.146322012, 52.4559288]}},
{"type": "Feature", "id": "3S9pQdR323HBZqC1ylLwgOTQwtE=", "properties": {"ref": "4030", "@spider": "johnsoncleaners_gb", "shop": "dry_cleaning", "addr:street_address": "81 High Street, Amblecote", "addr:city": "Stourbridge", "addr:postcode": "DY8 4LY", "addr:country": "GB", "name": "Stourbridge Drive In", "phone": "01384 390853", "website": "https://www.johnsoncleaners.com/branch/stourbridge-drive-in", "brand": "Johnson Cleaners", "brand:wikidata": "Q6268527", "nsi_id": "johnsons-a4fd49"}, "geometry": {"type": "Point", "coordinates": [-2.149401903, 52.46134949]}},
{"type": "Feature", "id": "W4DmmAI55s1Gv0xwjiEjLxsYbO0=", "properties": {"ref": "4039", "@spider": "johnsoncleaners_gb", "shop": "dry_cleaning", "addr:street_address": "4-6 Ipswich Street", "addr:city": "Stowmarket", "addr:postcode": "IP14 1AQ", "addr:country": "GB", "name": "Stowmarket", "phone": "01449 774570", "website": "https://www.johnsoncleaners.com/branch/stowmarket-1", "brand": "Johnson Cleaners", "brand:wikidata": "Q6268527", "nsi_id": "johnsons-a4fd49"}, "geometry": {"type": "Point", "coordinates": [0.995767012, 52.18729334]}},
{"type": "Feature", "id": "EkrPm3h8m5hsbFF-5XU_X2_RPtg=", "properties": {"ref": "4007", "@spider": "johnsoncleaners_gb", "shop": "dry_cleaning", "addr:street_address": "Burghmuir Retail Park, Burghmuir Road", "addr:city": "Stirling", "addr:postcode": "FK7 7NZ", "addr:country": "GB", "name": "Stirling, Waitrose", "phone": "01786 464021", "website": "https://www.johnsoncleaners.com/branch/stirling-waitrose", "brand": "Johnson Cleaners", "brand:wikidata": "Q6268527", "nsi_id": "johnsons-a4fd49"}, "geometry": {"type": "Point", "coordinates": [-3.932877064, 56.11357117]}},
{"type": "Feature", "id": "l82uE9Z6U4K1dAAQ73ymiepbdCU=", "properties": {"ref": "4612", "@spider": "johnsoncleaners_gb", "shop": "dry_cleaning", "addr:street_address": "68 High Street", "addr:city": "Stamford", "addr:postcode": "PE9 2AW", "addr:country": "GB", "name": "Stamford", "phone": "01780 753 685", "website": "https://www.johnsoncleaners.com/branch/stamford-1", "brand": "Johnson Cleaners", "brand:wikidata": "Q6268527", "nsi_id": "johnsons-a4fd49"}, "geometry": {"type": "Point", "coordinates": [-0.479473293, 52.65201055]}},
{"type": "Feature", "id": "hA1ULBjGMSJdPVYfbH8i-bVyWNk=", "properties": {"ref": "3974", "@spider": "johnsoncleaners_gb", "shop": "dry_cleaning", "addr:street_address": "Lichfield Road", "addr:city": "Stafford", "addr:postcode": "ST17 4JZ", "addr:country": "GB", "name": "Stafford Drive In", "phone": "01785 243676", "website": "https://www.johnsoncleaners.com/branch/stafford-drive-in", "brand": "Johnson Cleaners", "brand:wikidata": "Q6268527", "nsi_id": "johnsons-a4fd49"}, "geometry": {"type": "Point", "coordinates": [-2.112947, 52.803227]}},
{"type": "Feature", "id": "-hg5SJ0L9VtZIkKnEFP2fB2gQi0=", "properties": {"ref": "3970", "@spider": "johnsoncleaners_gb", "shop": "dry_cleaning", "addr:street_address": "Priory Lane", "addr:city": "St Neots", "addr:state": "Cambridgeshire", "addr:postcode": "PE19 2BH", "addr:country": "GB", "name": "St Neots, Waitrose", "phone": "01480 473372", "website": "https://www.johnsoncleaners.com/branch/st-neots-waitrose", "brand": "Johnson Cleaners", "brand:wikidata": "Q6268527", "nsi_id": "johnsons-a4fd49"}, "geometry": {"type": "Point", "coordinates": [-0.271938205, 52.22864151]}},
{"type": "Feature", "id": "ntCDUUyIhdP8Wco2siV9Z5-mN04=", "properties": {"ref": "3964", "@spider": "johnsoncleaners_gb", "shop": "dry_cleaning", "addr:street_address": "Thomas More Street", "addr:city": "St Katharines Dock", "addr:state": "London", "addr:postcode": "E1W 1YY", "addr:country": "GB", "name": "St Katharines Dock, Waitrose", "phone": "0207 7021640", "website": "https://www.johnsoncleaners.com/branch/st-katharines-dock-waitrose", "brand": "Johnson Cleaners", "brand:wikidata": "Q6268527", "nsi_id": "johnsons-a4fd49"}, "geometry": {"type": "Point", "coordinates": [-0.067970999, 51.50698853]}},
{"type": "Feature", "id": "-fO4AStkJ7vQ2qs78HvF6ISSMas=", "properties": {"ref": "3949", "@spider": "johnsoncleaners_gb", "shop": "dry_cleaning", "addr:street_address": "Unit 2  The Cattle Market, Pentewan Road", "addr:city": "St Austell", "addr:state": "Cornwall", "addr:postcode": "PL25  5BU", "addr:country": "GB", "name": "St Austell", "phone": "01726 879203", "website": "https://www.johnsoncleaners.com/branch/st-austell-1", "brand": "Johnson Cleaners", "brand:wikidata": "Q6268527", "nsi_id": "johnsons-a4fd49"}, "geometry": {"type": "Point", "coordinates": [-4.792891979, 50.33283997]}},
{"type": "Feature", "id": "BaWmpGOYiQH5buYTTPZtPrB9Cqw=", "properties": {"ref": "3945", "@spider": "johnsoncleaners_gb", "shop": "dry_cleaning", "addr:street_address": "153 South Street", "addr:city": "St Andrews", "addr:state": "Fife", "addr:postcode": "KY16 9UP", "addr:country": "GB", "name": "St Andrews", "phone": "01334 474524", "website": "https://www.johnsoncleaners.com/branch/st-andrews-1", "brand": "Johnson Cleaners", "brand:wikidata": "Q6268527", "nsi_id": "johnsons-a4fd49"}, "geometry": {"type": "Point", "coordinates": [-2.798070908, 56.33945847]}},
{"type": "Feature", "id": "iY3jm2AkUWcuiqF6qCW3tTZz5hA=", "properties": {"ref": "3943", "@spider": "johnsoncleaners_gb", "shop": "dry_cleaning", "addr:street_address": "1 Ermine Close, Mayne Avenue", "addr:city": "St Albans", "addr:state": "Hertfordshire", "addr:postcode": "AL3 4JZ", "addr:country": "GB", "name": "St Albans, Waitrose", "phone": "01727 831117", "website": "https://www.johnsoncleaners.com/branch/st-albans-waitrose", "brand": "Johnson Cleaners", "brand:wikidata": "Q6268527", "nsi_id": "johnsons-a4fd49"}, "geometry": {"type": "Point", "coordinates": [-0.364056587, 51.74623871]}},
{"type": "Feature", "id": "hE-5w5a3q0lnPvA9HoJ5PRWG5vs=", "properties": {"ref": "3942", "@spider": "johnsoncleaners_gb", "shop": "dry_cleaning", "addr:street_address": "Everard Close", "addr:city": "St Albans", "addr:state": "Hertfordshire", "addr:postcode": "AL1 2QU", "addr:country": "GB", "name": "St Albans, Sainsbury's", "phone": "01727 834401", "website": "https://www.johnsoncleaners.com/branch/st-albans-sainsburys", "brand": "Johnson Cleaners", "brand:wikidata": "Q6268527", "nsi_id": "johnsons-a4fd49"}, "geometry": {"type": "Point", "coordinates": [-0.342307299, 51.74391174]}},
{"type": "Feature", "id": "yi8aFGzpvU42S4lCZQ9mLMK0deU=", "properties": {"ref": "3928", "@spider": "johnsoncleaners_gb", "shop": "dry_cleaning", "addr:street_address": "Marmion Road, Southsea", "addr:city": "Portsmouth", "addr:state": "Hampshire", "addr:postcode": "PO5 2EJ", "addr:country": "GB", "name": "Southsea, Waitrose", "phone": "023 92873584", "website": "https://www.johnsoncleaners.com/branch/southsea-waitrose", "brand": "Johnson Cleaners", "brand:wikidata": "Q6268527", "nsi_id": "johnsons-a4fd49"}, "geometry": {"type": "Point", "coordinates": [-1.086984038, 50.78590012]}},
{"type": "Feature", "id": "5ckOGA2_JHYfax7JQyL2FFiu5bY=", "properties": {"ref": "3916", "@spider": "johnsoncleaners_gb", "shop": "dry_cleaning", "addr:street_address": "Fossetts Way, Eastern Avenue", "addr:city": "Southend-on-Sea", "addr:state": "Essex", "addr:postcode": "SS2 4DQ", "addr:country": "GB", "name": "Southend, Waitrose", "phone": "01702 603403", "website": "https://www.johnsoncleaners.com/branch/southend-waitrose", "brand": "Johnson Cleaners", "brand:wikidata": "Q6268527", "nsi_id": "johnsons-a4fd49"}, "geometry": {"type": "Point", "coordinates": [0.724546015, 51.55587006]}},
{"type": "Feature", "id": "7vn6pZ0I6YeQrcMyDTnFQcMwhWw=", "properties": {"ref": "3911", "@spider": "johnsoncleaners_gb", "shop": "dry_cleaning", "addr:street_address": "121/131 Portswood", "addr:city": "Southampton", "addr:state": "Hampshire", "addr:postcode": "SO17 2FX", "addr:country": "GB", "name": "Southampton, Waitrose", "phone": "023 80679890", "website": "https://www.johnsoncleaners.com/branch/southampton-waitrose", "brand": "Johnson Cleaners", "brand:wikidata": "Q6268527", "nsi_id": "johnsons-a4fd49"}, "geometry": {"type": "Point", "coordinates": [-1.395022035, 50.92380905]}},
{"type": "Feature", "id": "uY5fpeZLrzR71lQFNrTppJJGEg4=", "properties": {"ref": "3900", "@spider": "johnsoncleaners_gb", "shop": "dry_cleaning", "addr:street_address": "92-96 High Road", "addr:city": "South Woodford", "addr:state": "London", "addr:postcode": "E18 2NA", "addr:country": "GB", "name": "South Woodford, Waitrose", "phone": "020 89890022", "website": "https://www.johnsoncleaners.com/branch/south-woodford-waitrose", "brand": "Johnson Cleaners", "brand:wikidata": "Q6268527", "nsi_id": "johnsons-a4fd49"}, "geometry": {"type": "Point", "coordinates": [0.022449, 51.59527969]}},
{"type": "Feature", "id": "GpbngjPz9YRBD6uszQhr-T9PQw8=", "properties": {"ref": "3891", "@spider": "johnsoncleaners_gb", "shop": "dry_cleaning", "addr:street_address": "140 Northolt Road", "addr:city": "South Harrow", "addr:state": "Middlesex", "addr:postcode": "HA2 0EG", "addr:country": "GB", "name": "South Harrow, Waitrose", "phone": "020 8423 1955", "website": "https://www.johnsoncleaners.com/branch/south-harrow-waitrose", "brand": "Johnson Cleaners", "brand:wikidata": "Q6268527", "nsi_id": "johnsons-a4fd49"}, "geometry": {"type": "Point", "coordinates": [-0.352147013, 51.56766891]}},
{"type": "Feature", "id": "hC47FDj2TPb6FXW4qOCz4FLK4os=", "properties": {"ref": "3890", "@spider": "johnsoncleaners_gb", "shop": "dry_cleaning", "addr:street_address": "Homer Road", "addr:city": "Solihull", "addr:state": "West Midlands", "addr:postcode": "B91 3QG", "addr:country": "GB", "name": "Solihull, Waitrose", "phone": "0121 704 0455", "website": "https://www.johnsoncleaners.com/branch/solihull-waitrose", "brand": "Johnson Cleaners", "brand:wikidata": "Q6268527", "nsi_id": "johnsons-a4fd49"}, "geometry": {"type": "Point", "coordinates": [-1.783776999, 52.41368866]}},
{"type": "Feature", "id": "6cBweY3kGdC4PJ94JMpp2Wd5zng=", "properties": {"ref": "3882", "@spider": "johnsoncleaners_gb", "shop": "dry_cleaning", "addr:street_address": "267 Fleet Road", "addr:city": "Fleet", "addr:postcode": "GU51 3BN", "addr:country": "GB", "name": "Solent Dry Cleaners", "phone": "01252 615508", "website": "https://www.johnsoncleaners.com/branch/solent-dry-cleaners", "brand": "Johnson Cleaners", "brand:wikidata": "Q6268527", "nsi_id": "johnsons-a4fd49"}, "geometry": {"type": "Point", "coordinates": [-0.842954, 51.280227]}},
{"type": "Feature", "id": "W3EQ-PsCxOIgF2CefKwC93MUpGE=", "properties": {"ref": "3874", "@spider": "johnsoncleaners_gb", "shop": "dry_cleaning", "addr:street_address": "53 Sloane Avenue", "addr:city": "London", "addr:postcode": "SW3 3DH", "addr:country": "GB", "name": "Sloane Avenue", "phone": "0207 5899797", "website": "https://www.johnsoncleaners.com/branch/sloane-avenue", "brand": "Johnson Cleaners", "brand:wikidata": "Q6268527", "nsi_id": "johnsons-a4fd49"}, "geometry": {"type": "Point", "coordinates": [-0.165379003, 51.49195099]}},
{"type": "Feature", "id": "FX7_Zv-oJ9FGW97U8D6azJm9LC0=", "properties": {"ref": "3872", "@spider": "johnsoncleaners_gb", "shop": "dry_cleaning", "addr:street_address": "Boston Road", "addr:city": "Sleaford", "addr:state": "Lincolnshire", "addr:postcode": "NG34 7HD", "addr:country": "GB", "name": "Sleaford", "phone": "01529 304106", "website": "https://www.johnsoncleaners.com/branch/sleaford-1", "brand": "Johnson Cleaners", "brand:wikidata": "Q6268527", "nsi_id": "johnsons-a4fd49"}, "geometry": {"type": "Point", "coordinates": [-0.406464994, 52.99768829]}},
{"type": "Feature", "id": "uDa_01bClrI5myrleIaWsvegg-U=", "properties": {"ref": "3855", "@spider": "johnsoncleaners_gb", "shop": "dry_cleaning", "addr:street_address": "Stowford Rise", "addr:city": "Sidmouth", "addr:state": "Devon", "addr:postcode": "EX10 9GA", "addr:country": "GB", "name": "Sidmouth, Waitrose", "phone": "01395 519 416", "website": "https://www.johnsoncleaners.com/branch/sidmouth-waitrose", "brand": "Johnson Cleaners", "brand:wikidata": "Q6268527", "nsi_id": "johnsons-a4fd49"}, "geometry": {"type": "Point", "coordinates": [-3.237972021, 50.67876816]}},
{"type": "Feature", "id": "qvFvC6hbudLHVX7hmxnlPDb_-W4=", "properties": {"ref": "3852", "@spider": "johnsoncleaners_gb", "shop": "dry_cleaning", "addr:street_address": "11 High Street", "addr:city": "Sidmouth", "addr:state": "Devon", "addr:postcode": "EX10 8LN", "addr:country": "GB", "name": "Sidmouth", "phone": "01395 514178", "website": "https://www.johnsoncleaners.com/branch/sidmouth", "brand": "Johnson Cleaners", "brand:wikidata": "Q6268527", "nsi_id": "johnsons-a4fd49"}, "geometry": {"type": "Point", "coordinates": [-3.237767935, 50.68035126]}},
{"type": "Feature", "id": "gHSI9Kt9jmLbvTMZIGnVlFDGjWg=", "properties": {"ref": "3827", "@spider": "johnsoncleaners_gb", "shop": "dry_cleaning", "addr:street_address": "London Road, Earley", "addr:city": "Reading", "addr:postcode": "RG6 1BB", "addr:country": "GB", "name": "Shepherds Hill", "phone": "01189 667861", "website": "https://www.johnsoncleaners.com/branch/shepherds-hill", "brand": "Johnson Cleaners", "brand:wikidata": "Q6268527", "nsi_id": "johnsons-a4fd49"}, "geometry": {"type": "Point", "coordinates": [-0.920903683, 51.45949173]}},
{"type": "Feature", "id": "ar3yLbb1mcLyFf0k9_rgxZiAN5A=", "properties": {"ref": "3821", "@spider": "johnsoncleaners_gb", "shop": "dry_cleaning", "addr:street_address": "1-3 Ecclesall Road", "addr:city": "Sheffield", "addr:state": "South Yorkshire", "addr:postcode": "S11 8HY", "addr:country": "GB", "name": "Sheffield, Waitrose", "phone": "01142 722027", "website": "https://www.johnsoncleaners.com/branch/sheffield-waitrose", "brand": "Johnson Cleaners", "brand:wikidata": "Q6268527", "nsi_id": "johnsons-a4fd49"}, "geometry": {"type": "Point", "coordinates": [-1.478219032, 53.37258911]}},
{"type": "Feature", "id": "UgRFR7p_XCvsuYJvLbcilZp-8U8=", "properties": {"ref": "3800", "@spider": "johnsoncleaners_gb", "shop": "dry_cleaning", "addr:street_address": "83 Slaid Hill, Wikeridge Lane", "addr:city": "Leeds", "addr:state": "West Yorkshire", "addr:postcode": "LS17 8TX", "addr:country": "GB", "name": "Shadwell", "phone": "0113 266 8246", "website": "https://www.johnsoncleaners.com/branch/shadwell", "brand": "Johnson Cleaners", "brand:wikidata": "Q6268527", "nsi_id": "johnsons-a4fd49"}, "geometry": {"type": "Point", "coordinates": [-1.50109899, 53.85720062]}},
{"type": "Feature", "id": "pWy2WilOCMcA1wUxM9BePS_pp10=", "properties": {"ref": "3799", "@spider": "johnsoncleaners_gb", "shop": "dry_cleaning", "addr:street_address": "58 High Street", "addr:city": "Sevenoaks", "addr:state": "Kent", "addr:postcode": "TN13 1JR", "addr:country": "GB", "name": "Sevenoaks, Waitrose", "phone": "01732 450180", "website": "https://www.johnsoncleaners.com/branch/sevenoaks-waitrose", "brand": "Johnson Cleaners", "brand:wikidata": "Q6268527", "nsi_id": "johnsons-a4fd49"}, "geometry": {"type": "Point", "coordinates": [0.193377107, 51.26953125]}},
{"type": "Feature", "id": "HxSkajbjYL8VYlYwn2fXnuqkHX4=", "properties": {"ref": "3769", "@spider": "johnsoncleaners_gb", "shop": "dry_cleaning", "addr:street_address": "59 Station Road, Sandiacre", "addr:city": "Nottingham", "addr:state": "Nottinghamshire", "addr:postcode": "NG10 5AG", "addr:country": "GB", "name": "Sandiacre", "phone": "0115 949 7770", "website": "https://www.johnsoncleaners.com/branch/sandiacre", "brand": "Johnson Cleaners", "brand:wikidata": "Q6268527", "nsi_id": "johnsons-a4fd49"}, "geometry": {"type": "Point", "coordinates": [-1.284850955, 52.92250061]}},
{"type": "Feature", "id": "wDtRWWHdm42-o77c6i4kwJEIhGI=", "properties": {"ref": "3765", "@spider": "johnsoncleaners_gb", "shop": "dry_cleaning", "addr:street_address": "87 Limpsfield Rd South", "addr:city": "Sanderstead", "addr:state": "Surrey", "addr:postcode": "CR2 9LE", "addr:country": "GB", "name": "Sanderstead, Waitrose", "phone": "020 8916 0757", "website": "https://www.johnsoncleaners.com/branch/sanderstead-waitrose", "brand": "Johnson Cleaners", "brand:wikidata": "Q6268527", "nsi_id": "johnsons-a4fd49"}, "geometry": {"type": "Point", "coordinates": [-0.0752514, 51.33189011]}},
{"type": "Feature", "id": "NlobWg7z_96lg5-ZLSpabGUJBa8=", "properties": {"ref": "3764", "@spider": "johnsoncleaners_gb", "shop": "dry_cleaning", "addr:street_address": "Flat Lane", "addr:city": "Sandbach", "addr:state": "Cheshire", "addr:postcode": "CW11 4BE", "addr:country": "GB", "name": "Sandbach, Waitrose", "phone": "01270 766777", "website": "https://www.johnsoncleaners.com/branch/sandbach-waitrose", "brand": "Johnson Cleaners", "brand:wikidata": "Q6268527", "nsi_id": "johnsons-a4fd49"}, "geometry": {"type": "Point", "coordinates": [-2.3642374, 53.1426569]}},
{"type": "Feature", "id": "fCJtgAp_FjzhL0BJ8L-us0yK-w0=", "properties": {"ref": "3763", "@spider": "johnsoncleaners_gb", "shop": "dry_cleaning", "addr:street_address": "17 Congleton Road", "addr:city": "Sandbach", "addr:postcode": "CW11 1HG", "addr:country": "GB", "name": "Sandbach (Drive In)", "phone": "01270 768163", "website": "https://www.johnsoncleaners.com/branch/sandbach-drive-in", "brand": "Johnson Cleaners", "brand:wikidata": "Q6268527", "nsi_id": "johnsons-a4fd49"}, "geometry": {"type": "Point", "coordinates": [-2.361377954, 53.14628983]}},
{"type": "Feature", "id": "oTnVb0V-hcXs8Bqv2Uc94Ps9Hws=", "properties": {"ref": "3759", "@spider": "johnsoncleaners_gb", "shop": "dry_cleaning", "addr:street_address": "Churchill Way West", "addr:city": "Salisbury", "addr:state": "Wiltshire", "addr:postcode": "SP2 7TS", "addr:country": "GB", "name": "Salisbury, Waitrose", "phone": "01722 330534", "website": "https://www.johnsoncleaners.com/branch/salisbury-waitrose", "brand": "Johnson Cleaners", "brand:wikidata": "Q6268527", "nsi_id": "johnsons-a4fd49"}, "geometry": {"type": "Point", "coordinates": [-1.801423947, 51.0762176]}},
{"type": "Feature", "id": "eQ4e4eeFSaf7QPO2INtcb0JDYC4=", "properties": {"ref": "3736", "@spider": "johnsoncleaners_gb", "shop": "dry_cleaning", "addr:street_address": "Hill Street", "addr:city": "Saffron Walden", "addr:postcode": "CB10 1EH", "addr:country": "GB", "name": "Saffron Walden, Waitrose", "phone": "01799 525724", "website": "https://www.johnsoncleaners.com/branch/saffron-walden-waitrose", "brand": "Johnson Cleaners", "brand:wikidata": "Q6268527", "nsi_id": "johnsons-a4fd49"}, "geometry": {"type": "Point", "coordinates": [0.241850004, 52.02305984]}},
{"type": "Feature", "id": "gNluHap8PrmthJtaLZKmKRrJinE=", "properties": {"ref": "3729", "@spider": "johnsoncleaners_gb", "shop": "dry_cleaning", "addr:street_address": "Broadmark Lane", "addr:city": "Rustington", "addr:postcode": "BN16 2NE", "addr:country": "GB", "name": "Rustington, Waitrose", "phone": "01273 203902", "website": "https://www.johnsoncleaners.com/branch/rustington-waitrose", "brand": "Johnson Cleaners", "brand:wikidata": "Q6268527", "nsi_id": "johnsons-a4fd49"}, "geometry": {"type": "Point", "coordinates": [-0.504887998, 50.81013107]}},
{"type": "Feature", "id": "iT-mlcVzAt5VBHTCwZHQtAdpTzQ=", "properties": {"ref": "3726", "@spider": "johnsoncleaners_gb", "shop": "dry_cleaning", "addr:street_address": "Crown Park", "addr:city": "Rushden", "addr:postcode": "NN10 6AR", "addr:country": "GB", "name": "Rushden, Waitrose", "phone": "01933350844", "website": "https://www.johnsoncleaners.com/branch/rushden-waitrose-1", "brand": "Johnson Cleaners", "brand:wikidata": "Q6268527", "nsi_id": "johnsons-a4fd49"}, "geometry": {"type": "Point", "coordinates": [-0.619756577804958, 52.2994538064973]}},
{"type": "Feature", "id": "ayJn6SIU40AeykPcOx7Yps2Ekho=", "properties": {"ref": "3718", "@spider": "johnsoncleaners_gb", "shop": "dry_cleaning", "addr:street_address": "9 Kingsend", "addr:city": "Ruislip", "addr:state": "Middlesex", "addr:postcode": "HA4 7DS", "addr:country": "GB", "name": "Ruislip, Waitrose", "phone": "01895 631544", "website": "https://www.johnsoncleaners.com/branch/ruislip-waitrose", "brand": "Johnson Cleaners", "brand:wikidata": "Q6268527", "nsi_id": "johnsons-a4fd49"}, "geometry": {"type": "Point", "coordinates": [-0.423022985, 51.57136917]}},
{"type": "Feature", "id": "eQLcvmqOuQrPxpsdTPsCuU3VG7M=", "properties": {"ref": "4619", "@spider": "johnsoncleaners_gb", "shop": "dry_cleaning", "addr:street_address": "30 High Street", "addr:city": "Royston", "addr:postcode": "SG8 9AG", "addr:country": "GB", "name": "Royston", "phone": "01763 257337", "website": "https://www.johnsoncleaners.com/branch/royston", "brand": "Johnson Cleaners", "brand:wikidata": "Q6268527", "nsi_id": "johnsons-a4fd49"}, "geometry": {"type": "Point", "coordinates": [-0.023536, 52.047492]}},
{"type": "Feature", "id": "BTX9dkYzPKX2x75p7oDzaC8jrt4=", "properties": {"ref": "3688", "@spider": "johnsoncleaners_gb", "shop": "dry_cleaning", "addr:street_address": "32 Alma Road", "addr:city": "Romsey", "addr:state": "Hampshire", "addr:postcode": "SO51 8AS", "addr:country": "GB", "name": "Romsey, Waitrose", "phone": "01794 523617", "website": "https://www.johnsoncleaners.com/branch/romsey-waitrose", "brand": "Johnson Cleaners", "brand:wikidata": "Q6268527", "nsi_id": "johnsons-a4fd49"}, "geometry": {"type": "Point", "coordinates": [-1.496675014, 50.99013138]}},
{"type": "Feature", "id": "rMYBNyEOLm0N9sC_CEYOHA5PjJw=", "properties": {"ref": "3673", "@spider": "johnsoncleaners_gb", "shop": "dry_cleaning", "addr:street_address": "176 High Street", "addr:city": "Rochester", "addr:state": "Kent", "addr:postcode": "ME1 1EX", "addr:country": "GB", "name": "Rochester", "phone": "01634 844728", "website": "https://www.johnsoncleaners.com/branch/rochester", "brand": "Johnson Cleaners", "brand:wikidata": "Q6268527", "nsi_id": "johnsons-a4fd49"}, "geometry": {"type": "Point", "coordinates": [0.506580472, 51.38647079]}},
{"type": "Feature", "id": "uXTD1KA0pVduCP7dzV2U9e3tGO0=", "properties": {"ref": "3667", "@spider": "johnsoncleaners_gb", "shop": "dry_cleaning", "addr:street_address": "Manchester Road, Sudden", "addr:city": "Rochdale", "addr:postcode": "OL11 3EN", "addr:country": "GB", "name": "Rochdale (Drive In)", "phone": "01706 633625", "website": "https://www.johnsoncleaners.com/branch/rochdale-drive-in", "brand": "Johnson Cleaners", "brand:wikidata": "Q6268527", "nsi_id": "johnsons-a4fd49"}, "geometry": {"type": "Point", "coordinates": [-2.178986073, 53.60000992]}},
{"type": "Feature", "id": "vLrxT-XqnHfvaclRIPbDEyWR9Qs=", "properties": {"ref": "3658", "@spider": "johnsoncleaners_gb", "shop": "dry_cleaning", "addr:street_address": "19 Market Place North", "addr:city": "Ripon", "addr:state": "North Yorkshire", "addr:postcode": "HG4 1BW", "addr:country": "GB", "name": "Ripon", "phone": "01765 690351", "website": "https://www.johnsoncleaners.com/branch/ripon", "brand": "Johnson Cleaners", "brand:wikidata": "Q6268527", "nsi_id": "johnsons-a4fd49"}, "geometry": {"type": "Point", "coordinates": [-1.523555994, 54.13687897]}},
{"type": "Feature", "id": "xxdZehzA5MDCSeVcdLto_WsaaMs=", "properties": {"ref": "3655", "@spider": "johnsoncleaners_gb", "shop": "dry_cleaning", "addr:street_address": "The Furlong", "addr:city": "Ringwood", "addr:state": "Hampshire", "addr:postcode": "BH24 1AT", "addr:country": "GB", "name": "Ringwood, Waitrose", "phone": "01425 477729", "website": "https://www.johnsoncleaners.com/branch/ringwood-waitrose", "brand": "Johnson Cleaners", "brand:wikidata": "Q6268527", "nsi_id": "johnsons-a4fd49"}, "geometry": {"type": "Point", "coordinates": [-1.792783022, 50.84761047]}},
{"type": "Feature", "id": "EVgcrYX0Lsn-Wk9hcL_oSauCPKE=", "properties": {"ref": "3654", "@spider": "johnsoncleaners_gb", "shop": "dry_cleaning", "addr:street_address": "Homestead Road", "addr:city": "Rickmansworth", "addr:state": "Hertfordshire", "addr:postcode": "WD3 1FX", "addr:country": "GB", "name": "Rickmansworth, Waitrose", "phone": "01923 718595", "website": "https://www.johnsoncleaners.com/branch/rickmansworth-waitrose", "brand": "Johnson Cleaners", "brand:wikidata": "Q6268527", "nsi_id": "johnsons-a4fd49"}, "geometry": {"type": "Point", "coordinates": [-0.471258014, 51.64096832]}},
{"type": "Feature", "id": "DSuw9Oksq-mXQVPSqjMqyUpeZuk=", "properties": {"ref": "3653", "@spider": "johnsoncleaners_gb", "shop": "dry_cleaning", "addr:street_address": "4-10 Sheen Road", "addr:city": "Richmond", "addr:state": "Surrey", "addr:postcode": "TW9 1AE", "addr:country": "GB", "name": "Richmond, Waitrose", "phone": "020 89486288", "website": "https://www.johnsoncleaners.com/branch/richmond-waitrose", "brand": "Johnson Cleaners", "brand:wikidata": "Q6268527", "nsi_id": "johnsons-a4fd49"}, "geometry": {"type": "Point", "coordinates": [-0.301425993, 51.46234894]}},
{"type": "Feature", "id": "lbVstIOUznXF0wAksHPhcWtJI8o=", "properties": {"ref": "3648", "@spider": "johnsoncleaners_gb", "shop": "dry_cleaning", "addr:street_address": "2/3 Trinity Church Square", "addr:city": "Richmond", "addr:state": "North Yorkshire", "addr:postcode": "DL10 4HY", "addr:country": "GB", "name": "Richmond", "phone": "01748 850980", "website": "https://www.johnsoncleaners.com/branch/richmond-1", "brand": "Johnson Cleaners", "brand:wikidata": "Q6268527", "nsi_id": "johnsons-a4fd49"}, "geometry": {"type": "Point", "coordinates": [-1.737059951, 54.4030304]}},
{"type": "Feature", "id": "nHylcA3wUGPDfSqJvo0BYCg-8mg=", "properties": {"ref": "3619", "@spider": "johnsoncleaners_gb", "shop": "dry_cleaning", "addr:street_address": "980 Oxford Road", "addr:city": "Reading", "addr:state": "Berkshire", "addr:postcode": "RG30 6WR", "addr:country": "GB", "name": "Reading, Waitrose", "phone": "0118 9422444", "website": "https://www.johnsoncleaners.com/branch/reading-waitrose", "brand": "Johnson Cleaners", "brand:wikidata": "Q6268527", "nsi_id": "johnsons-a4fd49"}, "geometry": {"type": "Point", "coordinates": [-1.019140959, 51.46572876]}},
{"type": "Feature", "id": "1XBGXF_4BRnulxd3oam1kePbKp8=", "properties": {"ref": "3603", "@spider": "johnsoncleaners_gb", "shop": "dry_cleaning", "addr:street_address": "Coombe Lane", "addr:city": "Raynes Park", "addr:state": "London", "addr:postcode": "SW20 0BS", "addr:country": "GB", "name": "Raynes Park, Waitrose", "phone": "020 8944 8035", "website": "https://www.johnsoncleaners.com/branch/raynes-park-waitrose", "brand": "Johnson Cleaners", "brand:wikidata": "Q6268527", "nsi_id": "johnsons-a4fd49"}, "geometry": {"type": "Point", "coordinates": [-0.2328005, 51.4095019]}},
{"type": "Feature", "id": "V0OELtg9mZowsFZGIsRURBvDuZQ=", "properties": {"ref": "3593", "@spider": "johnsoncleaners_gb", "shop": "dry_cleaning", "addr:street_address": "163a Radcliffe New Road, Radcliffe", "addr:city": "Manchester", "addr:postcode": "M45 7RG", "addr:country": "GB", "name": "Radcliffe", "phone": "0161 796 8966", "website": "https://www.johnsoncleaners.com/branch/radcliffe", "brand": "Johnson Cleaners", "brand:wikidata": "Q6268527", "nsi_id": "johnsons-a4fd49"}, "geometry": {"type": "Point", "coordinates": [-2.303261995, 53.55484009]}},
{"type": "Feature", "id": "OhsA1fG-jnvD5bQzTgAME85_Nzc=", "properties": {"ref": "3584", "@spider": "johnsoncleaners_gb", "shop": "dry_cleaning", "addr:street_address": "Putney Exchange, High Street", "addr:city": "Putney", "addr:state": "London", "addr:postcode": "SW15 1TW", "addr:country": "GB", "name": "Putney, Waitrose", "phone": "020 82466848", "website": "https://www.johnsoncleaners.com/branch/putney-waitrose", "brand": "Johnson Cleaners", "brand:wikidata": "Q6268527", "nsi_id": "johnsons-a4fd49"}, "geometry": {"type": "Point", "coordinates": [-0.2162866, 51.46390915]}},
{"type": "Feature", "id": "UZ9tHY05dYTzO0GTr9N-_vsnqeI=", "properties": {"ref": "3558", "@spider": "johnsoncleaners_gb", "shop": "dry_cleaning", "addr:street_address": "2A Dickens Lane, Poynton", "addr:city": "Stockport", "addr:state": "Cheshire", "addr:postcode": "SK12 1NL", "addr:country": "GB", "name": "Poynton (Drive In)", "phone": "01625 859458", "website": "https://www.johnsoncleaners.com/branch/poynton-drive-in", "brand": "Johnson Cleaners", "brand:wikidata": "Q6268527", "nsi_id": "johnsons-a4fd49"}, "geometry": {"type": "Point", "coordinates": [-2.12263298, 53.34516907]}},
{"type": "Feature", "id": "3yta1OdL_sI1k3FzMClKHrs1ksw=", "properties": {"ref": "3557", "@spider": "johnsoncleaners_gb", "shop": "dry_cleaning", "addr:street_address": "Queen Mother Square", "addr:city": "Poundbury", "addr:postcode": "DT1 3BW", "addr:country": "GB", "name": "Poundbury, Waitrose", "phone": "01305 250938", "website": "https://www.johnsoncleaners.com/branch/poundbury-waitrose", "brand": "Johnson Cleaners", "brand:wikidata": "Q6268527", "nsi_id": "johnsons-a4fd49"}, "geometry": {"type": "Point", "coordinates": [-2.466723, 50.715309]}},
{"type": "Feature", "id": "WDU7xLHgfoEnFRbcuPHenAotoTk=", "properties": {"ref": "3542", "@spider": "johnsoncleaners_gb", "shop": "dry_cleaning", "addr:street_address": "Muirend Road, Portlethen", "addr:city": "Aberdeen", "addr:postcode": "AB12 4XP", "addr:country": "GB", "name": "Portlethen, Asda", "phone": "01224 782301", "website": "https://www.johnsoncleaners.com/branch/portlethen-asda", "brand": "Johnson Cleaners", "brand:wikidata": "Q6268527", "nsi_id": "johnsons-a4fd49"}, "geometry": {"type": "Point", "coordinates": [-2.140146, 57.063061]}},
{"type": "Feature", "id": "XlS5vrO3FF1xGzNL09pCGtki6Vg=", "properties": {"ref": "3541", "@spider": "johnsoncleaners_gb", "shop": "dry_cleaning", "addr:street_address": "5 The Precinct, Portishead", "addr:city": "Bristol", "addr:state": "Avon", "addr:postcode": "BS20 6AH", "addr:country": "GB", "name": "Portishead", "phone": "01275 844692", "website": "https://www.johnsoncleaners.com/branch/portishead", "brand": "Johnson Cleaners", "brand:wikidata": "Q6268527", "nsi_id": "johnsons-a4fd49"}, "geometry": {"type": "Point", "coordinates": [-2.768074036, 51.48434067]}},
{"type": "Feature", "id": "1SoPjQ40HPCfHL0JGBmE9Xm4pDQ=", "properties": {"ref": "3516", "@spider": "johnsoncleaners_gb", "shop": "dry_cleaning", "addr:street_address": "Croecadarn Close, Pontprennau", "addr:city": "Cardiff", "addr:postcode": "CF23 8AN", "addr:country": "GB", "name": "Pontprennau, Waitrose", "phone": "029 2073 5545", "website": "https://www.johnsoncleaners.com/branch/pontprennau-waitrose", "brand": "Johnson Cleaners", "brand:wikidata": "Q6268527", "nsi_id": "johnsons-a4fd49"}, "geometry": {"type": "Point", "coordinates": [-3.138087988, 51.53026962]}},
{"type": "Feature", "id": "65k9msecHSuvhfQujvZ87eC7vtk=", "properties": {"ref": "2683", "@spider": "johnsoncleaners_gb", "shop": "dry_cleaning", "addr:street_address": "2 Mayors Walk", "addr:city": "Peterborough", "addr:state": "Cambridgeshire", "addr:postcode": "PE1 2AD", "addr:country": "GB", "name": "Peterborough, Waitrose", "phone": "01733 554945", "website": "https://www.johnsoncleaners.com/branch/peterborough-waitrose", "brand": "Johnson Cleaners", "brand:wikidata": "Q6268527", "nsi_id": "johnsons-a4fd49"}, "geometry": {"type": "Point", "coordinates": [-0.245894194, 52.57392883]}},
{"type": "Feature", "id": "Xne8I2aQUPMK0lqil0Q5knYIcbc=", "properties": {"ref": "2668", "@spider": "johnsoncleaners_gb", "shop": "dry_cleaning", "addr:street_address": "19 South Methven Street", "addr:city": "Perth", "addr:state": "Perthshire", "addr:postcode": "PH1 5PE", "addr:country": "GB", "name": "Perth, South Methven Street", "phone": "01738 441 790", "website": "https://www.johnsoncleaners.com/branch/perth-south-methven-street", "brand": "Johnson Cleaners", "brand:wikidata": "Q6268527", "nsi_id": "johnsons-a4fd49"}, "geometry": {"type": "Point", "coordinates": [-3.434798956, 56.39707947]}},
{"type": "Feature", "id": "IcmZvxjUm5pSU3xGy1Q4im9OPMU=", "properties": {"ref": "2649", "@spider": "johnsoncleaners_gb", "shop": "dry_cleaning", "addr:street_address": "3 Glebe Street", "addr:city": "Penarth", "addr:state": "South Glamorgan", "addr:postcode": "CF64 1EB", "addr:country": "GB", "name": "Penarth", "phone": "02920 709481", "website": "https://www.johnsoncleaners.com/branch/penarth", "brand": "Johnson Cleaners", "brand:wikidata": "Q6268527", "nsi_id": "johnsons-a4fd49"}, "geometry": {"type": "Point", "coordinates": [-3.17484808, 51.43943024]}},
{"type": "Feature", "id": "jiSnfkBAi6ud0SPBd4HDoKSV_fA=", "properties": {"ref": "2640", "@spider": "johnsoncleaners_gb", "shop": "dry_cleaning", "addr:street_address": "311-313 Ashley Road", "addr:city": "Poole", "addr:state": "Dorset", "addr:postcode": "BH14 0AP", "addr:country": "GB", "name": "Parkstone, Waitrose", "phone": "01202 718051", "website": "https://www.johnsoncleaners.com/branch/parkstone-waitrose", "brand": "Johnson Cleaners", "brand:wikidata": "Q6268527", "nsi_id": "johnsons-a4fd49"}, "geometry": {"type": "Point", "coordinates": [-1.939381003, 50.72879028]}},
{"type": "Feature", "id": "trnESzekKhs-uPzxmz4-BQfp1Ns=", "properties": {"ref": "2624", "@spider": "johnsoncleaners_gb", "shop": "dry_cleaning", "addr:street_address": "Unit 5 1/7, Commercial Road, Paddock Wood", "addr:city": "Tonbridge", "addr:postcode": "TN12 6EN", "addr:country": "GB", "name": "Paddock Wood", "phone": "01892 837349", "website": "https://www.johnsoncleaners.com/branch/paddock-wood", "brand": "Johnson Cleaners", "brand:wikidata": "Q6268527", "nsi_id": "johnsons-a4fd49"}, "geometry": {"type": "Point", "coordinates": [0.389248, 51.181463]}},
{"type": "Feature", "id": "upfHY_FyJvNJUHTghnsxPMagz1U=", "properties": {"ref": "2619", "@spider": "johnsoncleaners_gb", "shop": "dry_cleaning", "addr:street_address": "61 Woodstock Road", "addr:city": "Oxford", "addr:state": "Oxfordshire", "addr:postcode": "OX2 6HJ", "addr:country": "GB", "name": "Oxford, Woodstock Rd", "phone": "01865 552560", "website": "https://www.johnsoncleaners.com/branch/oxford-woodstock-rd", "brand": "Johnson Cleaners", "brand:wikidata": "Q6268527", "nsi_id": "johnsons-a4fd49"}, "geometry": {"type": "Point", "coordinates": [-1.263406038, 51.76219177]}},
{"type": "Feature", "id": "x0xgEqUN-G4U5OF2Anl7tZm49v4=", "properties": {"ref": "2618", "@spider": "johnsoncleaners_gb", "shop": "dry_cleaning", "addr:street_address": "Botley Road", "addr:city": "Oxford", "addr:postcode": "OX2 0HH", "addr:country": "GB", "name": "Oxford, Waitrose", "phone": "01865 202043", "website": "https://www.johnsoncleaners.com/branch/oxford-waitrose", "brand": "Johnson Cleaners", "brand:wikidata": "Q6268527", "nsi_id": "johnsons-a4fd49"}, "geometry": {"type": "Point", "coordinates": [-1.279495955, 51.75268173]}},
{"type": "Feature", "id": "a3v3SVImq5tWzf5RfD_HsJFNrOY=", "properties": {"ref": "2608", "@spider": "johnsoncleaners_gb", "shop": "dry_cleaning", "addr:street_address": "66 East Road", "addr:city": "Oundle", "addr:state": "Northamptonshire", "addr:postcode": "PE8 8BZ", "addr:country": "GB", "name": "Oundle, Waitrose", "phone": "01832 274696", "website": "https://www.johnsoncleaners.com/branch/oundle-waitrose", "brand": "Johnson Cleaners", "brand:wikidata": "Q6268527", "nsi_id": "johnsons-a4fd49"}, "geometry": {"type": "Point", "coordinates": [-0.465797991, 52.48445129]}},
{"type": "Feature", "id": "hopd_rqljLonuVIt3TEHgQDqwuM=", "properties": {"ref": "2584", "@spider": "johnsoncleaners_gb", "shop": "dry_cleaning", "addr:street_address": "School Way", "addr:city": "Okehampton", "addr:state": "Devon", "addr:postcode": "EX20 1WL", "addr:country": "GB", "name": "Okehampton, Waitrose", "phone": "01837 659008", "website": "https://www.johnsoncleaners.com/branch/okehampton-waitrose", "brand": "Johnson Cleaners", "brand:wikidata": "Q6268527", "nsi_id": "johnsons-a4fd49"}, "geometry": {"type": "Point", "coordinates": [-4.0040703, 50.7404552]}},
{"type": "Feature", "id": "xFV1fpT43QU4q0oIGmtEcwThhvY=", "properties": {"ref": "2575", "@spider": "johnsoncleaners_gb", "shop": "dry_cleaning", "addr:street_address": "152 Harborough Road", "addr:city": "Oadby", "addr:state": "Leicestershire", "addr:postcode": "LE2 4LD", "addr:country": "GB", "name": "Oadby (Drive In)", "phone": "01162 713792", "website": "https://www.johnsoncleaners.com/branch/oadby-drive-in", "brand": "Johnson Cleaners", "brand:wikidata": "Q6268527", "nsi_id": "johnsons-a4fd49"}, "geometry": {"type": "Point", "coordinates": [-1.0748804, 52.597084]}},
{"type": "Feature", "id": "uuw2pEAEOdwX3eORyqEap5dQElY=", "properties": {"ref": "2556", "@spider": "johnsoncleaners_gb", "shop": "dry_cleaning", "addr:street_address": "Eaton Centre, Church Lane", "addr:city": "Norwich", "addr:postcode": "NR4 6NU", "addr:country": "GB", "name": "Norwich, Waitrose", "phone": "01603 458114", "website": "https://www.johnsoncleaners.com/branch/norwich-waitrose", "brand": "Johnson Cleaners", "brand:wikidata": "Q6268527", "nsi_id": "johnsons-a4fd49"}, "geometry": {"type": "Point", "coordinates": [1.251289368, 52.60791779]}},
{"type": "Feature", "id": "MWJvSM6ukmzSn-foFW9jVFZ-aXU=", "properties": {"ref": "2552", "@spider": "johnsoncleaners_gb", "shop": "dry_cleaning", "addr:street_address": "Blue Boar Lane, Sprowston", "addr:city": "Norwich", "addr:postcode": "NR7 8AB", "addr:country": "GB", "name": "Norwich, Tesco", "phone": "01603 789270", "website": "https://www.johnsoncleaners.com/branch/norwich-tesco-1", "brand": "Johnson Cleaners", "brand:wikidata": "Q6268527", "nsi_id": "johnsons-a4fd49"}, "geometry": {"type": "Point", "coordinates": [1.330734968, 52.66067886]}},
{"type": "Feature", "id": "3V4WTQVMYFyQEiibZdqfDfntpuc=", "properties": {"ref": "4615", "@spider": "johnsoncleaners_gb", "shop": "dry_cleaning", "addr:street_address": "37 London Street", "addr:city": "Norwich", "addr:postcode": "NR2 1HU", "addr:country": "GB", "name": "Norwich", "phone": "01603 617306", "website": "https://www.johnsoncleaners.com/branch/norwich-2", "brand": "Johnson Cleaners", "brand:wikidata": "Q6268527", "nsi_id": "johnsons-a4fd49"}, "geometry": {"type": "Point", "coordinates": [1.29507, 52.629449]}},
{"type": "Feature", "id": "38jg8NYrLQusf3V_1GyU_n1iwBk=", "properties": {"ref": "2538", "@spider": "johnsoncleaners_gb", "shop": "dry_cleaning", "addr:street_address": "45 Norton High Street, Norton", "addr:city": "Stockton On Tees", "addr:state": "Cleveland", "addr:postcode": "TS20 1AH", "addr:country": "GB", "name": "Norton", "phone": "0164 255 7953", "website": "https://www.johnsoncleaners.com/branch/norton", "brand": "Johnson Cleaners", "brand:wikidata": "Q6268527", "nsi_id": "johnsons-a4fd49"}, "geometry": {"type": "Point", "coordinates": [-1.310394049, 54.58691025]}},
{"type": "Feature", "id": "B6q6jt4AlKytPF5BgSc-X7f4-oQ=", "properties": {"ref": "2537", "@spider": "johnsoncleaners_gb", "shop": "dry_cleaning", "addr:street_address": "52 Green Lane", "addr:city": "Northwood", "addr:state": "Middlesex", "addr:postcode": "HA6 2XW", "addr:country": "GB", "name": "Northwood, Waitrose", "phone": "01923 820515", "website": "https://www.johnsoncleaners.com/branch/northwood-waitrose", "brand": "Johnson Cleaners", "brand:wikidata": "Q6268527", "nsi_id": "johnsons-a4fd49"}, "geometry": {"type": "Point", "coordinates": [-0.423316985, 51.61124039]}},
{"type": "Feature", "id": "hHPTTNQN2M7vhvcxd-eQtxZo_6M=", "properties": {"ref": "2534", "@spider": "johnsoncleaners_gb", "shop": "dry_cleaning", "addr:street_address": "22 London Road", "addr:city": "Northwich", "addr:state": "Cheshire", "addr:postcode": "CW9 5HD", "addr:country": "GB", "name": "Northwich, Waitrose", "phone": "01606 333122", "website": "https://www.johnsoncleaners.com/branch/northwich-waitrose", "brand": "Johnson Cleaners", "brand:wikidata": "Q6268527", "nsi_id": "johnsons-a4fd49"}, "geometry": {"type": "Point", "coordinates": [-2.514202118, 53.25899887]}},
{"type": "Feature", "id": "Vjq2YtgFTfusOv4jG6qUpbFp_I0=", "properties": {"ref": "2514", "@spider": "johnsoncleaners_gb", "shop": "dry_cleaning", "addr:street_address": "Cromer Road", "addr:city": "North Walsham", "addr:state": "Norfolk", "addr:postcode": "NR28 0NB", "addr:country": "GB", "name": "North Walsham, Waitrose", "phone": "01692 503109", "website": "https://www.johnsoncleaners.com/branch/north-walsham-waitrose", "brand": "Johnson Cleaners", "brand:wikidata": "Q6268527", "nsi_id": "johnsons-a4fd49"}, "geometry": {"type": "Point", "coordinates": [1.368695021, 52.82648087]}},
{"type": "Feature", "id": "BoNSyJkc8sobIievzwXUVkhs9bc=", "properties": {"ref": "2496", "@spider": "johnsoncleaners_gb", "shop": "dry_cleaning", "addr:street_address": "2 Greenlaw Place", "addr:city": "Newton Mearns", "addr:state": "East Renfrewshire", "addr:postcode": "G77 6GW", "addr:country": "GB", "name": "Newton Mearns, Waitrose", "phone": "0141 6163144", "website": "https://www.johnsoncleaners.com/branch/newton-mearns-waitrose", "brand": "Johnson Cleaners", "brand:wikidata": "Q6268527", "nsi_id": "johnsons-a4fd49"}, "geometry": {"type": "Point", "coordinates": [-4.336904049, 55.77560043]}},
{"type": "Feature", "id": "8pODDs9r-N3vEdDYTOckrPFKKuE=", "properties": {"ref": "2486", "@spider": "johnsoncleaners_gb", "shop": "dry_cleaning", "addr:street_address": "4 Queen Street", "addr:city": "Newton Abbot", "addr:state": "Devon", "addr:postcode": "TQ12 2EF", "addr:country": "GB", "name": "Newton Abbot", "phone": "01626 352839", "website": "https://www.johnsoncleaners.com/branch/newton-abbot-1", "brand": "Johnson Cleaners", "brand:wikidata": "Q6268527", "nsi_id": "johnsons-a4fd49"}, "geometry": {"type": "Point", "coordinates": [-3.609102011, 50.53046036]}},
{"type": "Feature", "id": "w6LMgEXXuyKWx_VsNTghvmIgNVM=", "properties": {"ref": "2484", "@spider": "johnsoncleaners_gb", "shop": "dry_cleaning", "addr:street_address": "Audley Road", "addr:city": "Newport", "addr:state": "Shropshire", "addr:postcode": "TF10 7DS", "addr:country": "GB", "name": "Newport, Waitrose", "phone": "01952 811360", "website": "https://www.johnsoncleaners.com/branch/newport-waitrose", "brand": "Johnson Cleaners", "brand:wikidata": "Q6268527", "nsi_id": "johnsons-a4fd49"}, "geometry": {"type": "Point", "coordinates": [-2.367455006, 52.76543045]}},
{"type": "Feature", "id": "np-0S6IepMcf9EP7WWkPxP3pPtw=", "properties": {"ref": "2473", "@spider": "johnsoncleaners_gb", "shop": "dry_cleaning", "addr:street_address": "Unit 4A, 156/160 Cardiff Road", "addr:city": "Newport", "addr:state": "South Wales", "addr:postcode": "NP20 3AE", "addr:country": "GB", "name": "Newport Drive In", "phone": "01633 266430", "website": "https://www.johnsoncleaners.com/branch/newport-drive-in", "brand": "Johnson Cleaners", "brand:wikidata": "Q6268527", "nsi_id": "johnsons-a4fd49"}, "geometry": {"type": "Point", "coordinates": [-3.011853933, 51.57328033]}},
{"type": "Feature", "id": "9Sh552Cg3cOwVGZpmYZKEvDG0YA=", "properties": {"ref": "2470", "@spider": "johnsoncleaners_gb", "shop": "dry_cleaning", "addr:street_address": "Fred Archer Way", "addr:city": "Newmarket", "addr:state": "Suffolk", "addr:postcode": "CB8 8NY", "addr:country": "GB", "name": "Newmarket, Waitrose", "phone": "01638 561728", "website": "https://www.johnsoncleaners.com/branch/newmarket-waitrose", "brand": "Johnson Cleaners", "brand:wikidata": "Q6268527", "nsi_id": "johnsons-a4fd49"}, "geometry": {"type": "Point", "coordinates": [0.408013999, 52.24694061]}},
{"type": "Feature", "id": "TCL2dzwS6yEJPHpZafEEmCkgaz8=", "properties": {"ref": "2456", "@spider": "johnsoncleaners_gb", "shop": "dry_cleaning", "addr:street_address": "Brunswick Street", "addr:city": "Newcastle under Lyme", "addr:state": "Staffordshire", "addr:postcode": "ST5 1HF", "addr:country": "GB", "name": "Newcastle u Lyme, (Drive In)", "phone": "01782 740403", "website": "https://www.johnsoncleaners.com/branch/newcastle-u-lyme-drive-in", "brand": "Johnson Cleaners", "brand:wikidata": "Q6268527", "nsi_id": "johnsons-a4fd49"}, "geometry": {"type": "Point", "coordinates": [-2.222388983, 53.01274109]}},
{"type": "Feature", "id": "sy5k7p-pnULCjF8H4P2iZihQTkc=", "properties": {"ref": "2452", "@spider": "johnsoncleaners_gb", "shop": "dry_cleaning", "addr:street_address": "Oxford Road", "addr:city": "Newbury", "addr:state": "Berkshire", "addr:postcode": "RG14 1NB", "addr:country": "GB", "name": "Newbury, Waitrose", "phone": "01635 552061", "website": "https://www.johnsoncleaners.com/branch/newbury-waitrose", "brand": "Johnson Cleaners", "brand:wikidata": "Q6268527", "nsi_id": "johnsons-a4fd49"}, "geometry": {"type": "Point", "coordinates": [-1.329292059, 51.4070816]}},
{"type": "Feature", "id": "h0Y9e2z7SO3SDW4ll-04AZfqArY=", "properties": {"ref": "2446", "@spider": "johnsoncleaners_gb", "shop": "dry_cleaning", "addr:street_address": "15 Wharf Road", "addr:city": "Newbury", "addr:postcode": "RG14  5QP", "addr:country": "GB", "name": "Newbury", "phone": "01635 49102", "website": "https://www.johnsoncleaners.com/branch/newbury-2", "brand": "Johnson Cleaners", "brand:wikidata": "Q6268527", "nsi_id": "johnsons-a4fd49"}, "geometry": {"type": "Point", "coordinates": [-1.321650028, 51.40048981]}},
{"type": "Feature", "id": "4CJDrz3QuCVzqr4Aefnsiyjirak=", "properties": {"ref": "2442", "@spider": "johnsoncleaners_gb", "shop": "dry_cleaning", "addr:street_address": "Ossington Way", "addr:city": "Newark", "addr:state": "Nottinghamshire", "addr:postcode": "NG24 1FF", "addr:country": "GB", "name": "Newark, Waitrose", "phone": "01636 640404", "website": "https://www.johnsoncleaners.com/branch/newark-waitrose", "brand": "Johnson Cleaners", "brand:wikidata": "Q6268527", "nsi_id": "johnsons-a4fd49"}, "geometry": {"type": "Point", "coordinates": [-0.81251061, 53.07997131]}},
{"type": "Feature", "id": "ZJjO9Af9KOqxcMq_Hd4ZQs8Jrxw=", "properties": {"ref": "2409", "@spider": "johnsoncleaners_gb", "shop": "dry_cleaning", "addr:street_address": "39 Westfield Road, Murrayfield", "addr:city": "Edinburgh", "addr:state": "Midlothian", "addr:postcode": "EH11 2QW", "addr:country": "GB", "name": "Murrayfield, Sainsbury's", "phone": "0131 3472875", "website": "https://www.johnsoncleaners.com/branch/murrayfield-sainsburys", "brand": "Johnson Cleaners", "brand:wikidata": "Q6268527", "nsi_id": "johnsons-a4fd49"}, "geometry": {"type": "Point", "coordinates": [-3.241209984, 55.93881989]}},
{"type": "Feature", "id": "y9XIkZGlBpHC2e9M5wnRakw1_-0=", "properties": {"ref": "2408", "@spider": "johnsoncleaners_gb", "shop": "dry_cleaning", "addr:street_address": "Granite Way", "addr:city": "Loughborough", "addr:state": "Leicestershire", "addr:postcode": "LE12 7TZ", "addr:country": "GB", "name": "Mountsorrel, Waitrose", "phone": "01509 415304", "website": "https://www.johnsoncleaners.com/branch/mountsorrel-waitrose", "brand": "Johnson Cleaners", "brand:wikidata": "Q6268527", "nsi_id": "johnsons-a4fd49"}, "geometry": {"type": "Point", "coordinates": [-1.151939034, 52.73559952]}},
{"type": "Feature", "id": "ISd1_VL7ot2hXJjsb34PaRYzkfA=", "properties": {"ref": "2389", "@spider": "johnsoncleaners_gb", "shop": "dry_cleaning", "addr:street_address": "110-114 Monnow St", "addr:city": "Monmouth", "addr:state": "Monmouthshire", "addr:postcode": "NP25 2EQ", "addr:country": "GB", "name": "Monmouth, Waitrose", "phone": "01600 772552", "website": "https://www.johnsoncleaners.com/branch/monmouth-waitrose", "brand": "Johnson Cleaners", "brand:wikidata": "Q6268527", "nsi_id": "johnsons-a4fd49"}, "geometry": {"type": "Point", "coordinates": [-2.75307703, 51.79898834]}},
{"type": "Feature", "id": "OLzKGnEFhf9Wd5TReiSWOUDISIY=", "properties": {"ref": "2364", "@spider": "johnsoncleaners_gb", "shop": "dry_cleaning", "addr:street_address": "Unit 1 Cambridge Road", "addr:city": "Milton", "addr:state": "Cambridgeshire", "addr:postcode": "CB24 6AY", "addr:country": "GB", "name": "Milton", "phone": "01223 420306", "website": "https://www.johnsoncleaners.com/branch/milton", "brand": "Johnson Cleaners", "brand:wikidata": "Q6268527", "nsi_id": "johnsons-a4fd49"}, "geometry": {"type": "Point", "coordinates": [0.154265106, 52.23936844]}},
{"type": "Feature", "id": "fBrj5Ilcul4vHf4e9e08hHiSNSA=", "properties": {"ref": "2363", "@spider": "johnsoncleaners_gb", "shop": "dry_cleaning", "addr:street_address": "Burnbrae, Glasgow Road", "addr:city": "Milngavie", "addr:state": "Glasgow", "addr:postcode": "G62 6JP", "addr:country": "GB", "name": "Milngavie, Waitrose", "phone": "0141 9563306", "website": "https://www.johnsoncleaners.com/branch/milngavie-waitrose", "brand": "Johnson Cleaners", "brand:wikidata": "Q6268527", "nsi_id": "johnsons-a4fd49"}, "geometry": {"type": "Point", "coordinates": [-4.316064835, 55.93270111]}},
{"type": "Feature", "id": "NcKusomHi5JCFc5adqSGR9GNi8E=", "properties": {"ref": "2357", "@spider": "johnsoncleaners_gb", "shop": "dry_cleaning", "addr:street_address": "2 Langstone Way", "addr:city": "Mill Hill", "addr:state": "London", "addr:postcode": "NW7 1GU", "addr:country": "GB", "name": "Mill Hill, Waitrose", "phone": "0208 371 8248", "website": "https://www.johnsoncleaners.com/branch/mill-hill-waitrose", "brand": "Johnson Cleaners", "brand:wikidata": "Q6268527", "nsi_id": "johnsons-a4fd49"}, "geometry": {"type": "Point", "coordinates": [-0.209002, 51.607233]}},
{"type": "Feature", "id": "PbTULZ8hugvKVvnmCS4nz_qZUS4=", "properties": {"ref": "2330", "@spider": "johnsoncleaners_gb", "shop": "dry_cleaning", "addr:street_address": "Green Road, Meanwood", "addr:city": "Leeds", "addr:state": "Yorkshire", "addr:postcode": "LS6 4RJ", "addr:country": "GB", "name": "Meanwood, Waitrose", "phone": "01132 200966", "website": "https://www.johnsoncleaners.com/branch/meanwood-waitrose", "brand": "Johnson Cleaners", "brand:wikidata": "Q6268527", "nsi_id": "johnsons-a4fd49"}, "geometry": {"type": "Point", "coordinates": [-1.567675948, 53.82849121]}},
{"type": "Feature", "id": "Zk60num67_ZYDEZeKFQHYOMVaPI=", "properties": {"ref": "2319", "@spider": "johnsoncleaners_gb", "shop": "dry_cleaning", "addr:street_address": "17 High St", "addr:city": "Marlborough", "addr:state": "Wiltshire", "addr:postcode": "SN8 1AA", "addr:country": "GB", "name": "Marlborough, Waitrose", "phone": "01672 513337", "website": "https://www.johnsoncleaners.com/branch/marlborough-waitrose", "brand": "Johnson Cleaners", "brand:wikidata": "Q6268527", "nsi_id": "johnsons-a4fd49"}, "geometry": {"type": "Point", "coordinates": [-1.731101036, 51.4204483]}},
{"type": "Feature", "id": "cJtR6TIPydfaznXfyGr6jGqij3Q=", "properties": {"ref": "4611", "@spider": "johnsoncleaners_gb", "shop": "dry_cleaning", "addr:street_address": "38 High Street", "addr:city": "Marlborough", "addr:state": "England", "addr:postcode": "SN8 1LW", "addr:country": "GB", "name": "Marlborough", "phone": "01672 515179", "website": "https://www.johnsoncleaners.com/branch/marlborough-1", "brand": "Johnson Cleaners", "brand:wikidata": "Q6268527", "nsi_id": "johnsons-a4fd49"}, "geometry": {"type": "Point", "coordinates": [-1.7326979, 51.4193196]}},
{"type": "Feature", "id": "1c_V2pV-wrKX6xRM862EqxiSzTw=", "properties": {"ref": "2290", "@spider": "johnsoncleaners_gb", "shop": "dry_cleaning", "addr:street_address": "24 High Street", "addr:city": "Manchester", "addr:state": "Lancashire", "addr:postcode": "M4 1QB", "addr:country": "GB", "name": "Manchester, High Street", "phone": "0161 832 7105", "website": "https://www.johnsoncleaners.com/branch/manchester-high-street", "brand": "Johnson Cleaners", "brand:wikidata": "Q6268527", "nsi_id": "johnsons-a4fd49"}, "geometry": {"type": "Point", "coordinates": [-2.238714933, 53.48283005]}},
{"type": "Feature", "id": "gdHmn9UVt9rdOXLVNrSAUVY93MA=", "properties": {"ref": "2285", "@spider": "johnsoncleaners_gb", "shop": "dry_cleaning", "addr:street_address": "Albert Square", "addr:city": "Manchester", "addr:state": "Lancashire", "addr:postcode": "M2 4JW", "addr:country": "GB", "name": "Manchester, Cross St", "phone": "0161 832 2138", "website": "https://www.johnsoncleaners.com/branch/manchester-cross-st", "brand": "Johnson Cleaners", "brand:wikidata": "Q6268527", "nsi_id": "johnsons-a4fd49"}, "geometry": {"type": "Point", "coordinates": [-2.244884968, 53.48020935]}},
{"type": "Feature", "id": "wfXybhbFKZPoG-RCwr88JgEAjtI=", "properties": {"ref": "2280", "@spider": "johnsoncleaners_gb", "shop": "dry_cleaning", "addr:street_address": "23 Market Place", "addr:city": "Malton", "addr:state": "North Yorkshire", "addr:postcode": "YO17 7LP", "addr:country": "GB", "name": "Malton", "phone": "01653 693400", "website": "https://www.johnsoncleaners.com/branch/malton", "brand": "Johnson Cleaners", "brand:wikidata": "Q6268527", "nsi_id": "johnsons-a4fd49"}, "geometry": {"type": "Point", "coordinates": [-0.798758686, 54.1352005]}},
{"type": "Feature", "id": "YfxWpso6BNhaigtCQKsw6DX2UG8=", "properties": {"ref": "2279", "@spider": "johnsoncleaners_gb", "shop": "dry_cleaning", "addr:street_address": "Malmesbury-By-Pass", "addr:city": "Malmesbury", "addr:postcode": "SN16 9FS", "addr:country": "GB", "name": "Malmesbury, Waitrose", "phone": "01666 825025", "website": "https://www.johnsoncleaners.com/branch/malmesbury-waitrose", "brand": "Johnson Cleaners", "brand:wikidata": "Q6268527", "nsi_id": "johnsons-a4fd49"}, "geometry": {"type": "Point", "coordinates": [-1.738937974, 51.63896942]}},
{"type": "Feature", "id": "WSj-kp-exJt46F7otF4eqZJ2MAg=", "properties": {"ref": "2266", "@spider": "johnsoncleaners_gb", "shop": "dry_cleaning", "addr:street_address": "48 Moorbridge Road", "addr:city": "Maidenhead", "addr:state": "Berkshire", "addr:postcode": "SL6 8AF", "addr:country": "GB", "name": "Maidenhead, Waitrose", "phone": "01628 777123", "website": "https://www.johnsoncleaners.com/branch/maidenhead-waitrose", "brand": "Johnson Cleaners", "brand:wikidata": "Q6268527", "nsi_id": "johnsons-a4fd49"}, "geometry": {"type": "Point", "coordinates": [-0.714550018, 51.52312851]}},
{"type": "Feature", "id": "BveCXyyjcFqKRZJTVlyUFXejjPc=", "properties": {"ref": "2243", "@spider": "johnsoncleaners_gb", "shop": "dry_cleaning", "addr:street_address": "Stanford Road", "addr:city": "Lymington", "addr:state": "Hampshire", "addr:postcode": "SO41 9GF", "addr:country": "GB", "name": "Lymington, Waitrose", "phone": "01590 671 949", "website": "https://www.johnsoncleaners.com/branch/lymington-waitrose", "brand": "Johnson Cleaners", "brand:wikidata": "Q6268527", "nsi_id": "johnsons-a4fd49"}, "geometry": {"type": "Point", "coordinates": [-1.549607992, 50.75722122]}},
{"type": "Feature", "id": "snEU44ZUqmk3K3bdUWXixkbLYas=", "properties": {"ref": "2241", "@spider": "johnsoncleaners_gb", "shop": "dry_cleaning", "addr:street_address": "Lower Leicester Road", "addr:city": "Lutterworth", "addr:postcode": "LE17 4NF", "addr:country": "GB", "name": "Lutterworth, Waitrose", "website": "https://www.johnsoncleaners.com/branch/lutterworth-waitrose", "brand": "Johnson Cleaners", "brand:wikidata": "Q6268527", "nsi_id": "johnsons-a4fd49"}, "geometry": {"type": "Point", "coordinates": [-1.20086, 52.458101]}},
{"type": "Feature", "id": "Da_QY6BYv6mXIkpwFjgwydbAhfg=", "properties": {"ref": "2210", "@spider": "johnsoncleaners_gb", "shop": "dry_cleaning", "addr:street_address": "26 The Rushes", "addr:city": "Loughborough", "addr:postcode": "LE11 5BG", "addr:country": "GB", "name": "Loughborough", "phone": "01509 238 261", "website": "https://www.johnsoncleaners.com/branch/loughborough-1", "brand": "Johnson Cleaners", "brand:wikidata": "Q6268527", "nsi_id": "johnsons-a4fd49"}, "geometry": {"type": "Point", "coordinates": [-1.210140944, 52.77402878]}},
{"type": "Feature", "id": "kHgrmi9r5G2i-XuFP5rK5F5_g4s=", "properties": {"ref": "2172", "@spider": "johnsoncleaners_gb", "shop": "dry_cleaning", "addr:street_address": "Centre Way, Locks Heath", "addr:city": "Southampton", "addr:state": "Hampshire", "addr:postcode": "SO31 6DX", "addr:country": "GB", "name": "Locks Heath, Waitrose", "phone": "01489 578696", "website": "https://www.johnsoncleaners.com/branch/locks-heath-waitrose", "brand": "Johnson Cleaners", "brand:wikidata": "Q6268527", "nsi_id": "johnsons-a4fd49"}, "geometry": {"type": "Point", "coordinates": [-1.275460005, 50.86378098]}},
{"type": "Feature", "id": "tE-q5LrB1T3Ialcop1TFmJibh1Y=", "properties": {"ref": "2134", "@spider": "johnsoncleaners_gb", "shop": "dry_cleaning", "addr:street_address": "225/285 Burton Road, Littleover", "addr:city": "Derby", "addr:postcode": "DE23 6AG", "addr:country": "GB", "name": "Littleover (Drive In)", "phone": "01332 207319", "website": "https://www.johnsoncleaners.com/branch/littleover-drive-in", "brand": "Johnson Cleaners", "brand:wikidata": "Q6268527", "nsi_id": "johnsons-a4fd49"}, "geometry": {"type": "Point", "coordinates": [-1.491621017, 52.91057968]}},
{"type": "Feature", "id": "7b3JzA7NVRr1s-fnqx0b_r6sb30=", "properties": {"ref": "2116", "@spider": "johnsoncleaners_gb", "shop": "dry_cleaning", "addr:street_address": "Searsby Road", "addr:city": "Lincoln", "addr:postcode": "LN2 4DS", "addr:country": "GB", "name": "Lincoln, Waitrose", "phone": "01522 535496", "website": "https://www.johnsoncleaners.com/branch/lincoln-waitrose", "brand": "Johnson Cleaners", "brand:wikidata": "Q6268527", "nsi_id": "johnsons-a4fd49"}, "geometry": {"type": "Point", "coordinates": [-0.521033, 53.251255]}},
{"type": "Feature", "id": "JyB9T-mdRKd-2gaHeA5z4EIccLY=", "properties": {"ref": "2112", "@spider": "johnsoncleaners_gb", "shop": "dry_cleaning", "addr:street_address": "Tritton Road", "addr:city": "Lincoln", "addr:postcode": "LN6 7QL", "addr:country": "GB", "name": "Lincoln, Morrisons", "phone": "01522 787358", "website": "https://www.johnsoncleaners.com/branch/lincoln-morrisons-1", "brand": "Johnson Cleaners", "brand:wikidata": "Q6268527", "nsi_id": "johnsons-a4fd49"}, "geometry": {"type": "Point", "coordinates": [-0.570138991, 53.2117691]}},
{"type": "Feature", "id": "WaVWLODMJMely7Jj9lBhdsdfzZo=", "properties": {"ref": "2102", "@spider": "johnsoncleaners_gb", "shop": "dry_cleaning", "addr:street_address": "Stonneyland Drive", "addr:city": "Lichfield", "addr:postcode": "WS13 6RX", "addr:country": "GB", "name": "Lichfield, Waitrose", "website": "https://www.johnsoncleaners.com/branch/lichfield-waitrose", "brand": "Johnson Cleaners", "brand:wikidata": "Q6268527", "nsi_id": "johnsons-a4fd49"}, "geometry": {"type": "Point", "coordinates": [-1.843361, 52.674777]}},
{"type": "Feature", "id": "0jslbR_UhBL3mqDim1H9u0k9z-8=", "properties": {"ref": "2000", "@spider": "johnsoncleaners_gb", "shop": "dry_cleaning", "addr:street_address": "Ovangle Road", "addr:city": "Lancaster", "addr:state": "Lancashire", "addr:postcode": "LA1 5JR", "addr:country": "GB", "name": "Lancaster, Asda", "phone": "01524 840058", "website": "https://www.johnsoncleaners.com/branch/lancaster-asda", "brand": "Johnson Cleaners", "brand:wikidata": "Q6268527", "nsi_id": "johnsons-a4fd49"}, "geometry": {"type": "Point", "coordinates": [-2.82840991, 54.05688095]}},
{"type": "Feature", "id": "jscXpKS-wv1inVnXBgBig8GjweY=", "properties": {"ref": "1987", "@spider": "johnsoncleaners_gb", "shop": "dry_cleaning", "addr:street_address": "33 Princess Street", "addr:city": "Knutsford", "addr:state": "Cheshire", "addr:postcode": "WA16 6BW", "addr:country": "GB", "name": "Knutsford", "phone": "01565 632915", "website": "https://www.johnsoncleaners.com/branch/knutsford", "brand": "Johnson Cleaners", "brand:wikidata": "Q6268527", "nsi_id": "johnsons-a4fd49"}, "geometry": {"type": "Point", "coordinates": [-2.37531805, 53.30464935]}},
{"type": "Feature", "id": "xR9gm9_k5pI--ZQfBznOyHCjFSU=", "properties": {"ref": "1975", "@spider": "johnsoncleaners_gb", "shop": "dry_cleaning", "addr:street_address": "Carberry Road", "addr:city": "Kirkcaldy", "addr:state": "Fife", "addr:postcode": "KY1 3NU", "addr:country": "GB", "name": "Kirkcaldy, Carberry Road Asda", "phone": "01592 655041", "website": "https://www.johnsoncleaners.com/branch/kirkcaldy-carberry-road-asda", "brand": "Johnson Cleaners", "brand:wikidata": "Q6268527", "nsi_id": "johnsons-a4fd49"}, "geometry": {"type": "Point", "coordinates": [-3.150770903, 56.13972855]}},
{"type": "Feature", "id": "FaxsYnX8gQaZH8igso9LGVbbZn0=", "properties": {"ref": "1958", "@spider": "johnsoncleaners_gb", "shop": "dry_cleaning", "addr:street_address": "The Kingsthorpe Shopping Centre, Harborough Rd", "addr:city": "Kingsthorpe", "addr:state": "Northamptonshire", "addr:postcode": "NN2 7BD", "addr:country": "GB", "name": "Kingsthorpe, Waitrose", "phone": "01604 791434", "website": "https://www.johnsoncleaners.com/branch/kingsthorpe-waitrose", "brand": "Johnson Cleaners", "brand:wikidata": "Q6268527", "nsi_id": "johnsons-a4fd49"}, "geometry": {"type": "Point", "coordinates": [-0.901284277, 52.26216888]}},
{"type": "Feature", "id": "34GLfHKSKHkCG5HFHfgXL9N-W1E=", "properties": {"ref": "1943", "@spider": "johnsoncleaners_gb", "shop": "dry_cleaning", "addr:street_address": "1 Wharf Road", "addr:city": "London", "addr:postcode": "N1C 4BZ", "addr:country": "GB", "name": "Kings Cross, Waitrose", "phone": "02073 725 330", "website": "https://www.johnsoncleaners.com/branch/kings-cross-waitrose", "brand": "Johnson Cleaners", "brand:wikidata": "Q6268527", "nsi_id": "johnsons-a4fd49"}, "geometry": {"type": "Point", "coordinates": [-0.0966729, 51.5322913]}},
{"type": "Feature", "id": "0Va2UpSupM2HKKtGvNPGl0IS5BE=", "properties": {"ref": "1923", "@spider": "johnsoncleaners_gb", "shop": "dry_cleaning", "addr:street_address": "Broadmead Lane", "addr:city": "Keynsham", "addr:postcode": "BS31 1ST", "addr:country": "GB", "name": "Keynsham, Waitrose", "phone": "01179 866633", "website": "https://www.johnsoncleaners.com/branch/keynsham-waitrose", "brand": "Johnson Cleaners", "brand:wikidata": "Q6268527", "nsi_id": "johnsons-a4fd49"}, "geometry": {"type": "Point", "coordinates": [-2.483871937, 51.41751099]}},
{"type": "Feature", "id": "PVHfOl40pYiBeQXWDNOe3h-iQJc=", "properties": {"ref": "1914", "@spider": "johnsoncleaners_gb", "shop": "dry_cleaning", "addr:street_address": "51 Bertie Road", "addr:city": "Kenilworth", "addr:state": "Warwickshire", "addr:postcode": "CV8 1JP", "addr:country": "GB", "name": "Kenilworth, Waitrose", "phone": "01926 858461", "website": "https://www.johnsoncleaners.com/branch/kenilworth-waitrose", "brand": "Johnson Cleaners", "brand:wikidata": "Q6268527", "nsi_id": "johnsons-a4fd49"}, "geometry": {"type": "Point", "coordinates": [-1.576014996, 52.34196091]}},
{"type": "Feature", "id": "_WCIs_7Lc1oLQmgg28TvhxzSrm0=", "properties": {"ref": "1913", "@spider": "johnsoncleaners_gb", "shop": "dry_cleaning", "addr:street_address": "7 Warwick Road", "addr:city": "Kenilworth", "addr:state": "Warwickshire", "addr:postcode": "CV8 1HD", "addr:country": "GB", "name": "Kenilworth", "phone": "01926 864416", "website": "https://www.johnsoncleaners.com/branch/kenilworth-1", "brand": "Johnson Cleaners", "brand:wikidata": "Q6268527", "nsi_id": "johnsons-a4fd49"}, "geometry": {"type": "Point", "coordinates": [-1.578744054, 52.34244919]}},
{"type": "Feature", "id": "v3rNZGh94ZROITUTMil47OmEp3g=", "properties": {"ref": "1911", "@spider": "johnsoncleaners_gb", "shop": "dry_cleaning", "addr:street_address": "Stroud", "addr:city": "Gloucester", "addr:postcode": "GL5 1AA", "addr:country": "GB", "name": "Kendrick Street (Stroud)", "phone": "01453 764283", "website": "https://www.johnsoncleaners.com/branch/kendrick-street-stroud", "brand": "Johnson Cleaners", "brand:wikidata": "Q6268527", "nsi_id": "johnsons-a4fd49"}, "geometry": {"type": "Point", "coordinates": [-2.216707945, 51.74483109]}},
{"type": "Feature", "id": "SU8ow8ltXgwswyf3IjD7LxrvOJg=", "properties": {"ref": "1899", "@spider": "johnsoncleaners_gb", "shop": "dry_cleaning", "addr:street_address": "199 Finchley Rd", "addr:city": "South Hampstead", "addr:state": "London", "addr:postcode": "NW3 6NN", "addr:country": "GB", "name": "John Barnes, Waitrose", "phone": "020 7624 0453", "website": "https://www.johnsoncleaners.com/branch/john-barnes-waitrose", "brand": "Johnson Cleaners", "brand:wikidata": "Q6268527", "nsi_id": "johnsons-a4fd49"}, "geometry": {"type": "Point", "coordinates": [-0.179654002, 51.54618835]}},
{"type": "Feature", "id": "ENptTubK5Rj7s5U-yolhk-HXQ1Y=", "properties": {"ref": "1896", "@spider": "johnsoncleaners_gb", "shop": "dry_cleaning", "addr:street_address": "Jesmond", "addr:city": "Newcastle Upon Tyne", "addr:state": "Tyne and Wear", "addr:postcode": "NE2 2DJ", "addr:country": "GB", "name": "Jesmond", "phone": "0191 281 1527", "website": "https://www.johnsoncleaners.com/branch/jesmond", "brand": "Johnson Cleaners", "brand:wikidata": "Q6268527", "nsi_id": "johnsons-a4fd49"}, "geometry": {"type": "Point", "coordinates": [-1.604681015, 54.99246979]}},
{"type": "Feature", "id": "e-owq6O8PDdCuDBKx2UXj4NqSC4=", "properties": {"ref": "1884", "@spider": "johnsoncleaners_gb", "shop": "dry_cleaning", "addr:street_address": "Futura Park, Crane Boulevard", "addr:city": "Ipswich", "addr:state": "Suffolk", "addr:postcode": "IP39 SQ", "addr:country": "GB", "name": "Ipswich, Waitrose", "phone": "01473 712424", "website": "https://www.johnsoncleaners.com/branch/ipswich-waitrose", "brand": "Johnson Cleaners", "brand:wikidata": "Q6268527", "nsi_id": "johnsons-a4fd49"}, "geometry": {"type": "Point", "coordinates": [1.204481959, 52.03445053]}},
{"type": "Feature", "id": "NcVwDUrhNFEHyCY4N8ems16tfHo=", "properties": {"ref": "1872", "@spider": "johnsoncleaners_gb", "shop": "dry_cleaning", "addr:street_address": "190/192 Felixstowe Road", "addr:city": "Ipswich", "addr:postcode": "IP3 9AE", "addr:country": "GB", "name": "Ipswich", "phone": "01473 712424", "website": "https://www.johnsoncleaners.com/branch/ipswich-1", "brand": "Johnson Cleaners", "brand:wikidata": "Q6268527", "nsi_id": "johnsons-a4fd49"}, "geometry": {"type": "Point", "coordinates": [1.181662, 52.047678]}},
{"type": "Feature", "id": "Lb4c-HY4B8xTREoaPhMW4KUo8ak=", "properties": {"ref": "4613", "@spider": "johnsoncleaners_gb", "shop": "dry_cleaning", "addr:street_address": "41 Brook Street", "addr:city": "Ilkley", "addr:postcode": "LS29 8AA", "addr:country": "GB", "name": "Ilkley", "phone": "01943 603417", "website": "https://www.johnsoncleaners.com/branch/ilkley-1", "brand": "Johnson Cleaners", "brand:wikidata": "Q6268527", "nsi_id": "johnsons-a4fd49"}, "geometry": {"type": "Point", "coordinates": [-1.823792, 53.925224]}},
{"type": "Feature", "id": "NnuZS7x-PQpHN90ls4rEPB4jBv4=", "properties": {"ref": "1827", "@spider": "johnsoncleaners_gb", "shop": "dry_cleaning", "addr:street_address": "66 Clough Road", "addr:city": "Hull", "addr:state": "East Yorkshire", "addr:postcode": "HU5 1SR", "addr:country": "GB", "name": "Hull, Clough Rd (Drive In)", "phone": "01482 470750", "website": "https://www.johnsoncleaners.com/branch/hull-clough-rd-drive-in", "brand": "Johnson Cleaners", "brand:wikidata": "Q6268527", "nsi_id": "johnsons-a4fd49"}, "geometry": {"type": "Point", "coordinates": [-0.348373592, 53.76807022]}},
{"type": "Feature", "id": "e4LjGFh9EeB4uI7aaVh3EgUzb2o=", "properties": {"ref": "1817", "@spider": "johnsoncleaners_gb", "shop": "dry_cleaning", "addr:street_address": "Southgate", "addr:city": "Huddersfield", "addr:state": "Huddersfield", "addr:postcode": "HD1 6QR", "addr:country": "GB", "name": "Huddersfield, Sainsbury's", "phone": "01484 432212", "website": "https://www.johnsoncleaners.com/branch/huddersfield-sainsburys", "brand": "Johnson Cleaners", "brand:wikidata": "Q6268527", "nsi_id": "johnsons-a4fd49"}, "geometry": {"type": "Point", "coordinates": [-1.775697947, 53.64680099]}},
{"type": "Feature", "id": "ND8EaxZEuSe9lp-KMaev0khgsP4=", "properties": {"ref": "1800", "@spider": "johnsoncleaners_gb", "shop": "dry_cleaning", "addr:street_address": "Nevill Road", "addr:city": "Hove", "addr:state": "East Sussex", "addr:postcode": "BN3 7BZ", "addr:country": "GB", "name": "Hove, Waitrose", "phone": "01273 329901", "website": "https://www.johnsoncleaners.com/branch/hove-waitrose", "brand": "Johnson Cleaners", "brand:wikidata": "Q6268527", "nsi_id": "johnsons-a4fd49"}, "geometry": {"type": "Point", "coordinates": [-0.178760305, 50.84534073]}},
{"type": "Feature", "id": "iaAQPHBz2wWrWFkGyUgleLVZNLQ=", "properties": {"ref": "1794", "@spider": "johnsoncleaners_gb", "shop": "dry_cleaning", "addr:street_address": "96 Blatchington Road", "addr:city": "Hove", "addr:state": "Sussex", "addr:postcode": "BN3 3YF", "addr:country": "GB", "name": "Hove, Blatchington Rd", "phone": "01273 739981", "website": "https://www.johnsoncleaners.com/branch/hove-blatchington-rd", "brand": "Johnson Cleaners", "brand:wikidata": "Q6268527", "nsi_id": "johnsons-a4fd49"}, "geometry": {"type": "Point", "coordinates": [-0.1727404, 50.8309288]}},
{"type": "Feature", "id": "MLgF_5eaZCkt2Y0ZPK_OinqbkZw=", "properties": {"ref": "1782", "@spider": "johnsoncleaners_gb", "shop": "dry_cleaning", "addr:street_address": "Albion Way", "addr:city": "Horsham", "addr:postcode": "RH12 1AJ", "addr:country": "GB", "name": "Horsham, Waitrose", "phone": "01403 275313", "website": "https://www.johnsoncleaners.com/branch/horsham-waitrose", "brand": "Johnson Cleaners", "brand:wikidata": "Q6268527", "nsi_id": "johnsons-a4fd49"}, "geometry": {"type": "Point", "coordinates": [-0.335483998, 51.06206131]}},
{"type": "Feature", "id": "m2uZX7Tq0qWCLpWAj3gZOdJSqSw=", "properties": {"ref": "1771", "@spider": "johnsoncleaners_gb", "shop": "dry_cleaning", "addr:street_address": "26 Victoria Road", "addr:city": "Horley", "addr:state": "Surrey", "addr:postcode": "RH6 7PZ", "addr:country": "GB", "name": "Horley, Waitrose", "phone": "01293 820002", "website": "https://www.johnsoncleaners.com/branch/horley-waitrose", "brand": "Johnson Cleaners", "brand:wikidata": "Q6268527", "nsi_id": "johnsons-a4fd49"}, "geometry": {"type": "Point", "coordinates": [-0.161864802, 51.16999054]}},
{"type": "Feature", "id": "zPmLekfjhcpMtH9GKKHXAL54pCs=", "properties": {"ref": "1758", "@spider": "johnsoncleaners_gb", "shop": "dry_cleaning", "addr:street_address": "The Lairage Bedford Road", "addr:city": "Hitchin", "addr:state": "Hertfordshire", "addr:postcode": "SG5 1HF", "addr:country": "GB", "name": "Hitchin, Waitrose", "phone": "01462 423 399", "website": "https://www.johnsoncleaners.com/branch/hitchin-waitrose", "brand": "Johnson Cleaners", "brand:wikidata": "Q6268527", "nsi_id": "johnsons-a4fd49"}, "geometry": {"type": "Point", "coordinates": [-0.283030003, 51.95046997]}},
{"type": "Feature", "id": "M-7xVQJxVTasZ8OO9-m8x7MWc2I=", "properties": {"ref": "1748", "@spider": "johnsoncleaners_gb", "shop": "dry_cleaning", "addr:street_address": "Rugby Road", "addr:city": "Hinckley", "addr:state": "Leicestershire", "addr:postcode": "LE10 2ND", "addr:country": "GB", "name": "Hinckley, (Drive In)", "phone": "01455 634060", "website": "https://www.johnsoncleaners.com/branch/hinckley-drive-in", "brand": "Johnson Cleaners", "brand:wikidata": "Q6268527", "nsi_id": "johnsons-a4fd49"}, "geometry": {"type": "Point", "coordinates": [-1.371672034, 52.53036118]}},
{"type": "Feature", "id": "FBV29FLkxfNj2VKzU05aTmeooDQ=", "properties": {"ref": "1742", "@spider": "johnsoncleaners_gb", "shop": "dry_cleaning", "addr:street_address": "Marlow Hill", "addr:city": "High Wycombe", "addr:postcode": "HP11 1TJ", "addr:country": "GB", "name": "High Wycombe, Waitrose", "phone": "01494 441652", "website": "https://www.johnsoncleaners.com/branch/high-wycombe-waitrose", "brand": "Johnson Cleaners", "brand:wikidata": "Q6268527", "nsi_id": "johnsons-a4fd49"}, "geometry": {"type": "Point", "coordinates": [-0.760428011, 51.61502838]}},
{"type": "Feature", "id": "qFU-xqgtBQSw5jg64N2BVs0-0y0=", "properties": {"ref": "1732", "@spider": "johnsoncleaners_gb", "shop": "dry_cleaning", "addr:street_address": "Wentworth Park", "addr:city": "Hexham", "addr:state": "Northumberland", "addr:postcode": "NE46 3PJ", "addr:country": "GB", "name": "Hexham, Waitrose", "phone": "01434 600394", "website": "https://www.johnsoncleaners.com/branch/hexham-waitrose", "brand": "Johnson Cleaners", "brand:wikidata": "Q6268527", "nsi_id": "johnsons-a4fd49"}, "geometry": {"type": "Point", "coordinates": [-2.098932981, 54.97275162]}},
{"type": "Feature", "id": "ke4o3WSzkbCUqjXqwAJM--cSTbk=", "properties": {"ref": "1721", "@spider": "johnsoncleaners_gb", "shop": "dry_cleaning", "addr:street_address": "10 Auctioneers Walk, The Old Market", "addr:city": "Hereford", "addr:state": "Herefordshire", "addr:postcode": "HR4 9HT", "addr:country": "GB", "name": "Hereford, Waitrose", "phone": "01432 343840", "website": "https://www.johnsoncleaners.com/branch/hereford-waitrose", "brand": "Johnson Cleaners", "brand:wikidata": "Q6268527", "nsi_id": "johnsons-a4fd49"}, "geometry": {"type": "Point", "coordinates": [-2.837379932, 52.13594055]}},
{"type": "Feature", "id": "1X_VisK-SnYt-F459tFxw6E14EY=", "properties": {"ref": "1708", "@spider": "johnsoncleaners_gb", "shop": "dry_cleaning", "addr:street_address": "93 Henleaze Road, Portishead", "addr:city": "Bristol", "addr:state": "Avon", "addr:postcode": "BS9 4JP", "addr:country": "GB", "name": "Henleaze", "phone": "01179 628206", "website": "https://www.johnsoncleaners.com/branch/henleaze-1", "brand": "Johnson Cleaners", "brand:wikidata": "Q6268527", "nsi_id": "johnsons-a4fd49"}, "geometry": {"type": "Point", "coordinates": [-2.6110243, 51.4858679]}},
{"type": "Feature", "id": "CXVn4JVwaOHnjO2JXpMEngCzBEI=", "properties": {"ref": "1700", "@spider": "johnsoncleaners_gb", "shop": "dry_cleaning", "addr:street_address": "Apsley Mills Retail Park", "addr:city": "Hemel Hempstead", "addr:state": "Hertfordshire", "addr:postcode": "HP3 9QW", "addr:country": "GB", "name": "Hemel Hempstead, Sainsbury's", "phone": "01442 251108", "website": "https://www.johnsoncleaners.com/branch/hemel-hempstead-sainsburys", "brand": "Johnson Cleaners", "brand:wikidata": "Q6268527", "nsi_id": "johnsons-a4fd49"}, "geometry": {"type": "Point", "coordinates": [-0.465557396, 51.7363205]}},
{"type": "Feature", "id": "lBFYLnXDPugoqOxM_-I2ZLaQuts=", "properties": {"ref": "1670", "@spider": "johnsoncleaners_gb", "shop": "dry_cleaning", "addr:street_address": "The Village", "addr:city": "Haxby", "addr:state": "North Yorkshire", "addr:postcode": "YO32 3SA", "addr:country": "GB", "name": "Haxby", "phone": "01904 765510", "website": "https://www.johnsoncleaners.com/branch/haxby", "brand": "Johnson Cleaners", "brand:wikidata": "Q6268527", "nsi_id": "johnsons-a4fd49"}, "geometry": {"type": "Point", "coordinates": [-1.073400021, 54.01597977]}},
{"type": "Feature", "id": "S5YaiDKhpfBSkcM6w1Fj1vwynaE=", "properties": {"ref": "4610", "@spider": "johnsoncleaners_gb", "shop": "dry_cleaning", "addr:street_address": "50a Headingley Lane", "addr:city": "Leeds", "addr:postcode": "LS6 2BW", "addr:country": "GB", "name": "Headingley, Headingley Lane", "website": "https://www.johnsoncleaners.com/branch/headingley-headingley-lane", "brand": "Johnson Cleaners", "brand:wikidata": "Q6268527", "nsi_id": "johnsons-a4fd49"}, "geometry": {"type": "Point", "coordinates": [-1.56752266626366, 53.8172175816393]}},
{"type": "Feature", "id": "CMsMvkEL9ZEOIJ6xBOG8btff1t8=", "properties": {"ref": "1669", "@spider": "johnsoncleaners_gb", "shop": "dry_cleaning", "addr:street_address": "Rye Road, Hawkhurst", "addr:city": "Cranbrook", "addr:state": "Kent", "addr:postcode": "TN18 4JB", "addr:country": "GB", "name": "Hawkhurst, Waitrose", "phone": "01580 752843", "website": "https://www.johnsoncleaners.com/branch/hawkhurst-waitrose", "brand": "Johnson Cleaners", "brand:wikidata": "Q6268527", "nsi_id": "johnsons-a4fd49"}, "geometry": {"type": "Point", "coordinates": [0.526323497, 51.04499817]}},
{"type": "Feature", "id": "gYzvjIUOzLThJzBkWN7Y6d5jfGU=", "properties": {"ref": "1642", "@spider": "johnsoncleaners_gb", "shop": "dry_cleaning", "addr:street_address": "11-15 West Street", "addr:city": "Haslemere", "addr:state": "Surrey", "addr:postcode": "GU27 2AB", "addr:country": "GB", "name": "Haslemere, Waitrose", "phone": "01428 644722", "website": "https://www.johnsoncleaners.com/branch/haslemere-waitrose", "brand": "Johnson Cleaners", "brand:wikidata": "Q6268527", "nsi_id": "johnsons-a4fd49"}, "geometry": {"type": "Point", "coordinates": [-0.710760176, 51.088871]}},
{"type": "Feature", "id": "G3ZansyPQte2iMsw3LdpCiDosGY=", "properties": {"ref": "1635", "@spider": "johnsoncleaners_gb", "shop": "dry_cleaning", "addr:street_address": "350 High Road", "addr:city": "Harrow Weald", "addr:state": "Middlesex", "addr:postcode": "HA3 6HF", "addr:country": "GB", "name": "Harrow Weald, Waitrose", "phone": "020 88613911", "website": "https://www.johnsoncleaners.com/branch/harrow-weald-waitrose", "brand": "Johnson Cleaners", "brand:wikidata": "Q6268527", "nsi_id": "johnsons-a4fd49"}, "geometry": {"type": "Point", "coordinates": [-0.339590997, 51.60535049]}},
{"type": "Feature", "id": "VeW0uG59z0sjdChKPhIEcAhkQmw=", "properties": {"ref": "1633", "@spider": "johnsoncleaners_gb", "shop": "dry_cleaning", "addr:street_address": "92 Station Parade", "addr:city": "Harrogate", "addr:state": "North Yorkshire", "addr:postcode": "HG1 1HD", "addr:country": "GB", "name": "Harrogate, Waitrose", "phone": "01423 501333", "website": "https://www.johnsoncleaners.com/branch/harrogate-waitrose", "brand": "Johnson Cleaners", "brand:wikidata": "Q6268527", "nsi_id": "johnsons-a4fd49"}, "geometry": {"type": "Point", "coordinates": [-1.536422014, 53.9900589]}},
{"type": "Feature", "id": "9t5ElCPkNzVOY8045a0pj9H7MK0=", "properties": {"ref": "1630", "@spider": "johnsoncleaners_gb", "shop": "dry_cleaning", "addr:street_address": "28 Leeds Road", "addr:city": "Harrogate", "addr:state": "North Yorkshire", "addr:postcode": "HG2 8AA", "addr:country": "GB", "name": "Harrogate, Leeds Rd (Drive In)", "phone": "01423 503390", "website": "https://www.johnsoncleaners.com/branch/harrogate-leeds-rd-drive-in", "brand": "Johnson Cleaners", "brand:wikidata": "Q6268527", "nsi_id": "johnsons-a4fd49"}, "geometry": {"type": "Point", "coordinates": [-1.537188053, 53.98315811]}},
{"type": "Feature", "id": "PTPmnDP0OewG4rNPLsmQVqiGpv0=", "properties": {"ref": "1621", "@spider": "johnsoncleaners_gb", "shop": "dry_cleaning", "addr:street_address": "2 Church Green", "addr:city": "Harpenden", "addr:state": "Hertfordshire", "addr:postcode": "AL5 2TN", "addr:country": "GB", "name": "Harpenden", "phone": "01582 715321", "website": "https://www.johnsoncleaners.com/branch/harpenden-1", "brand": "Johnson Cleaners", "brand:wikidata": "Q6268527", "nsi_id": "johnsons-a4fd49"}, "geometry": {"type": "Point", "coordinates": [-0.357070893, 51.81604004]}},
{"type": "Feature", "id": "_RTGSjIp9skON1sixABufrq0Aq0=", "properties": {"ref": "1608", "@spider": "johnsoncleaners_gb", "shop": "dry_cleaning", "addr:street_address": "Harborne", "addr:city": "Birmingham", "addr:state": "West Midlands", "addr:postcode": "B17 9QE", "addr:country": "GB", "name": "Harborne", "phone": "0121 4271456", "website": "https://www.johnsoncleaners.com/branch/harborne", "brand": "Johnson Cleaners", "brand:wikidata": "Q6268527", "nsi_id": "johnsons-a4fd49"}, "geometry": {"type": "Point", "coordinates": [-1.949756026, 52.45870972]}},
{"type": "Feature", "id": "Pa0afzxlkd212AWgriP-0oIvXag=", "properties": {"ref": "1589", "@spider": "johnsoncleaners_gb", "shop": "dry_cleaning", "addr:street_address": "1332 Stratford Rd", "addr:city": "Hall Green", "addr:state": "Birmingham", "addr:postcode": "B28 9EF", "addr:country": "GB", "name": "Hall Green, Waitrose", "phone": "01217 784253", "website": "https://www.johnsoncleaners.com/branch/hall-green-waitrose", "brand": "Johnson Cleaners", "brand:wikidata": "Q6268527", "nsi_id": "johnsons-a4fd49"}, "geometry": {"type": "Point", "coordinates": [-1.841724992, 52.42823029]}},
{"type": "Feature", "id": "rsdATq3oh2b-7CJPaHlhDcuuxtQ=", "properties": {"ref": "1577", "@spider": "johnsoncleaners_gb", "shop": "dry_cleaning", "addr:street_address": "Vicarage Field", "addr:city": "Hailsham", "addr:state": "East Sussex", "addr:postcode": "BN27 1BE", "addr:country": "GB", "name": "Hailsham, Waitrose", "phone": "01323 846708", "website": "https://www.johnsoncleaners.com/branch/hailsham-waitrose", "brand": "Johnson Cleaners", "brand:wikidata": "Q6268527", "nsi_id": "johnsons-a4fd49"}, "geometry": {"type": "Point", "coordinates": [0.25954771, 50.86380005]}},
{"type": "Feature", "id": "QY9fPLHudyEDKxzOU-KkwD9887I=", "properties": {"ref": "1570", "@spider": "johnsoncleaners_gb", "shop": "dry_cleaning", "addr:street_address": "42 High Street", "addr:city": "Haddington", "addr:state": "Midlothian", "addr:postcode": "EH41 3EE", "addr:country": "GB", "name": "Haddington", "phone": "01620 822970", "website": "https://www.johnsoncleaners.com/branch/haddington", "brand": "Johnson Cleaners", "brand:wikidata": "Q6268527", "nsi_id": "johnsons-a4fd49"}, "geometry": {"type": "Point", "coordinates": [-2.777475, 55.955207]}},
{"type": "Feature", "id": "36DYHJ4xE5tH49Ux7zGl07RHkA0=", "properties": {"ref": "1565", "@spider": "johnsoncleaners_gb", "shop": "dry_cleaning", "addr:street_address": "Guisborough", "addr:city": "Cleveland", "addr:postcode": "TS14 6AF", "addr:country": "GB", "name": "Guisborough", "phone": "01287 634555", "website": "https://www.johnsoncleaners.com/branch/guisborough", "brand": "Johnson Cleaners", "brand:wikidata": "Q6268527", "nsi_id": "johnsons-a4fd49"}, "geometry": {"type": "Point", "coordinates": [-1.053468943, 54.53530884]}},
{"type": "Feature", "id": "aElGKFdrPjj9OWaCnVAZfa1w3gc=", "properties": {"ref": "1564", "@spider": "johnsoncleaners_gb", "shop": "dry_cleaning", "addr:street_address": "Haydon Place", "addr:city": "Guildford", "addr:state": "Surrey", "addr:postcode": "GU1 4LL", "addr:country": "GB", "name": "Guildford, Waitrose", "phone": "01483 453 968", "website": "https://www.johnsoncleaners.com/branch/guildford-waitrose", "brand": "Johnson Cleaners", "brand:wikidata": "Q6268527", "nsi_id": "johnsons-a4fd49"}, "geometry": {"type": "Point", "coordinates": [-0.572722971, 51.23727798]}},
{"type": "Feature", "id": "CQLpudzyEIg3htufq94Ly_AAFow=", "properties": {"ref": "1556", "@spider": "johnsoncleaners_gb", "shop": "dry_cleaning", "addr:street_address": "Grovewood Drive North", "addr:city": "Weavering Maidstone", "addr:state": "Kent", "addr:postcode": "ME14 5TQ", "addr:country": "GB", "name": "Grove Green, Maidstone", "phone": "01622 631660", "website": "https://www.johnsoncleaners.com/branch/grove-green-maidstone", "brand": "Johnson Cleaners", "brand:wikidata": "Q6268527", "nsi_id": "johnsons-a4fd49"}, "geometry": {"type": "Point", "coordinates": [0.555931807, 51.27667999]}},
{"type": "Feature", "id": "ZE0dRQru2jlhcu6r2LG0JoigcIs=", "properties": {"ref": "1554", "@spider": "johnsoncleaners_gb", "shop": "dry_cleaning", "addr:street_address": "Corporation Road", "addr:city": "Grimsby", "addr:state": "Lincolnshire", "addr:postcode": "DN31 1UF", "addr:country": "GB", "name": "Grimsby, Sainsbury's", "phone": "01472 359018", "website": "https://www.johnsoncleaners.com/branch/grimsby-sainsburys", "brand": "Johnson Cleaners", "brand:wikidata": "Q6268527", "nsi_id": "johnsons-a4fd49"}, "geometry": {"type": "Point", "coordinates": [-0.085928999, 53.57073975]}},
{"type": "Feature", "id": "vyWDDPs56hasPVgyWN5Am-DjU40=", "properties": {"ref": "1538", "@spider": "johnsoncleaners_gb", "shop": "dry_cleaning", "addr:street_address": "Edith Walk", "addr:city": "Great Malvern", "addr:state": "Worcestershire", "addr:postcode": "WR14 4WR", "addr:country": "GB", "name": "Great Malvern, Waitrose", "phone": "01684 560007", "website": "https://www.johnsoncleaners.com/branch/great-malvern-waitrose", "brand": "Johnson Cleaners", "brand:wikidata": "Q6268527", "nsi_id": "johnsons-a4fd49"}, "geometry": {"type": "Point", "coordinates": [-2.328399897, 52.11259079]}},
{"type": "Feature", "id": "ayrtwJdulo6nv15bDanv08CRVok=", "properties": {"ref": "1524", "@spider": "johnsoncleaners_gb", "shop": "dry_cleaning", "addr:street_address": "London Road", "addr:city": "Grantham", "addr:state": "Lincolnshire", "addr:postcode": "NG31 6HJ", "addr:country": "GB", "name": "Grantham, Sainsbury's", "phone": "01476 592185", "website": "https://www.johnsoncleaners.com/branch/grantham-sainsburys", "brand": "Johnson Cleaners", "brand:wikidata": "Q6268527", "nsi_id": "johnsons-a4fd49"}, "geometry": {"type": "Point", "coordinates": [-0.638436913, 52.90787888]}},
{"type": "Feature", "id": "QVTqADHt7mb7RwuOn7InwDovZNo=", "properties": {"ref": "1505", "@spider": "johnsoncleaners_gb", "shop": "dry_cleaning", "addr:street_address": "Gosforth", "addr:city": "Newcastle Upon Tyne", "addr:state": "Tyne and Wear", "addr:postcode": "NE3 1HB", "addr:country": "GB", "name": "Gosforth", "phone": "0191 285 9778", "website": "https://www.johnsoncleaners.com/branch/gosforth", "brand": "Johnson Cleaners", "brand:wikidata": "Q6268527", "nsi_id": "johnsons-a4fd49"}, "geometry": {"type": "Point", "coordinates": [-1.61993897, 55.00437164]}},
{"type": "Feature", "id": "_SLGFjPw1eJZWTURPjaMqWWONm4=", "properties": {"ref": "1454", "@spider": "johnsoncleaners_gb", "shop": "dry_cleaning", "addr:street_address": "Chantry Fields", "addr:city": "Gillingham", "addr:postcode": "SP8 4UA", "addr:country": "GB", "name": "Gillingham, Waitrose", "phone": "01747 826 200", "website": "https://www.johnsoncleaners.com/branch/gillingham-waitrose", "brand": "Johnson Cleaners", "brand:wikidata": "Q6268527", "nsi_id": "johnsons-a4fd49"}, "geometry": {"type": "Point", "coordinates": [-2.275913954, 51.03582001]}},
{"type": "Feature", "id": "ZgKyZo4QAl8GNRo25uTg8t7zYOA=", "properties": {"ref": "1448", "@spider": "johnsoncleaners_gb", "shop": "dry_cleaning", "addr:street_address": "31-33 Station Road", "addr:city": "Gerrards Cross", "addr:state": "Buckinghamshire", "addr:postcode": "SL9 8ES", "addr:country": "GB", "name": "Gerrards Cross, Waitrose", "phone": "01753 888444", "website": "https://www.johnsoncleaners.com/branch/gerrards-cross-waitrose", "brand": "Johnson Cleaners", "brand:wikidata": "Q6268527", "nsi_id": "johnsons-a4fd49"}, "geometry": {"type": "Point", "coordinates": [-0.550829589, 51.58810043]}},
{"type": "Feature", "id": "Yk9yy_n2JWBNEbDNUG1uyFMkRek=", "properties": {"ref": "1416", "@spider": "johnsoncleaners_gb", "shop": "dry_cleaning", "addr:street_address": "7 Highgate Centre, Belwell Lane", "addr:city": "Sutton Coldfield", "addr:postcode": "B74 4AB", "addr:country": "GB", "name": "Four Oaks, Waitrose", "phone": "0121 3086006", "website": "https://www.johnsoncleaners.com/branch/four-oaks-waitrose", "brand": "Johnson Cleaners", "brand:wikidata": "Q6268527", "nsi_id": "johnsons-a4fd49"}, "geometry": {"type": "Point", "coordinates": [-1.831380963, 52.58763885]}},
{"type": "Feature", "id": "9uGr-BUXkugoideJx5A6hwYYbIc=", "properties": {"ref": "1411", "@spider": "johnsoncleaners_gb", "shop": "dry_cleaning", "addr:street_address": "Three Tuns Lane", "addr:city": "Formby", "addr:state": "Merseyside", "addr:postcode": "L37 4AJ", "addr:country": "GB", "name": "Formby, Waitrose", "phone": "01704 873017", "website": "https://www.johnsoncleaners.com/branch/formby-waitrose", "brand": "Johnson Cleaners", "brand:wikidata": "Q6268527", "nsi_id": "johnsons-a4fd49"}, "geometry": {"type": "Point", "coordinates": [-3.059024096, 53.55546951]}},
{"type": "Feature", "id": "f1hCrgeeTqUfobqY7XEwoBF3IdM=", "properties": {"ref": "1399", "@spider": "johnsoncleaners_gb", "shop": "dry_cleaning", "addr:street_address": "89 Sandgate Road", "addr:city": "Folkestone", "addr:state": "Kent", "addr:postcode": "CT20  2AF", "addr:country": "GB", "name": "Folkestone", "phone": "01303 245367", "website": "https://www.johnsoncleaners.com/branch/folkestone-1", "brand": "Johnson Cleaners", "brand:wikidata": "Q6268527", "nsi_id": "johnsons-a4fd49"}, "geometry": {"type": "Point", "coordinates": [1.177368999, 51.07806015]}},
{"type": "Feature", "id": "b4EDgvdGzJxL4IfKZpuWw-VarlA=", "properties": {"ref": "1394", "@spider": "johnsoncleaners_gb", "shop": "dry_cleaning", "addr:street_address": "2 Steppingley Road", "addr:city": "Flitwick", "addr:state": "Bedfordshire", "addr:postcode": "MK45 1AJ", "addr:country": "GB", "name": "Flitwick", "phone": "01525 715412", "website": "https://www.johnsoncleaners.com/branch/flitwick", "brand": "Johnson Cleaners", "brand:wikidata": "Q6268527", "nsi_id": "johnsons-a4fd49"}, "geometry": {"type": "Point", "coordinates": [-0.4981577, 52.0046248]}},
{"type": "Feature", "id": "adPw_WWys0fGjmySbXk7nStcqq8=", "properties": {"ref": "1392", "@spider": "johnsoncleaners_gb", "shop": "dry_cleaning", "addr:street_address": "Unit A, The Hart Centre", "addr:city": "Fleet", "addr:state": "Hampshire", "addr:postcode": "GU51 3LA", "addr:country": "GB", "name": "Fleet, Waitrose", "phone": "01252 812695", "website": "https://www.johnsoncleaners.com/branch/fleet-waitrose", "brand": "Johnson Cleaners", "brand:wikidata": "Q6268527", "nsi_id": "johnsons-a4fd49"}, "geometry": {"type": "Point", "coordinates": [-0.841723084, 51.28078842]}},
{"type": "Feature", "id": "Lz3BaXIZphIEU5hGZVMPgrQlz9w=", "properties": {"ref": "1382", "@spider": "johnsoncleaners_gb", "shop": "dry_cleaning", "addr:street_address": "273 Ballards Lane", "addr:city": "Finchley", "addr:state": "London", "addr:postcode": "N12 8NR", "addr:country": "GB", "name": "Finchley, Waitrose", "phone": "02083 437303", "website": "https://www.johnsoncleaners.com/branch/finchley-waitrose", "brand": "Johnson Cleaners", "brand:wikidata": "Q6268527", "nsi_id": "johnsons-a4fd49"}, "geometry": {"type": "Point", "coordinates": [-0.1794734, 51.61130905]}},
{"type": "Feature", "id": "kNS9S9HTSSElmJrmaF6uDFFKp2o=", "properties": {"ref": "1358", "@spider": "johnsoncleaners_gb", "shop": "dry_cleaning", "addr:street_address": "116 West Street", "addr:city": "Farnham", "addr:state": "Surrey", "addr:postcode": "GU9 7HH", "addr:country": "GB", "name": "Farnham", "phone": "01252 726232", "website": "https://www.johnsoncleaners.com/branch/farnham-1", "brand": "Johnson Cleaners", "brand:wikidata": "Q6268527", "nsi_id": "johnsons-a4fd49"}, "geometry": {"type": "Point", "coordinates": [-0.800508022, 51.21450043]}},
{"type": "Feature", "id": "FbNQ92kNmVzLo7DPRwmPlMiNH1Q=", "properties": {"ref": "1352", "@spider": "johnsoncleaners_gb", "shop": "dry_cleaning", "addr:street_address": "Unit 1 Henry Blade Way", "addr:city": "Oxford", "addr:postcode": "SN7 7GQ", "addr:country": "GB", "name": "Farindgon, Waitrose", "website": "https://www.johnsoncleaners.com/branch/farindgon-waitrose", "brand": "Johnson Cleaners", "brand:wikidata": "Q6268527", "nsi_id": "johnsons-a4fd49"}, "geometry": {"type": "Point", "coordinates": [-1.575661, 51.650174]}},
{"type": "Feature", "id": "3GZoJglUm5isIAH1AMAh8RfMr5I=", "properties": {"ref": "1343", "@spider": "johnsoncleaners_gb", "shop": "dry_cleaning", "addr:street_address": "Jennings Road, Penryn", "addr:city": "Falmouth", "addr:state": "Cornwall", "addr:postcode": "TR10  9LY", "addr:country": "GB", "name": "Falmouth, Asda", "phone": "01326 373 842", "website": "https://www.johnsoncleaners.com/branch/falmouth-asda", "brand": "Johnson Cleaners", "brand:wikidata": "Q6268527", "nsi_id": "johnsons-a4fd49"}, "geometry": {"type": "Point", "coordinates": [-5.122927189, 50.16384125]}},
{"type": "Feature", "id": "kMrjz3pk_G59SP2R4ly9sXyDH3o=", "properties": {"ref": "1330", "@spider": "johnsoncleaners_gb", "shop": "dry_cleaning", "addr:street_address": "Gladstone Road", "addr:city": "Exeter", "addr:state": "Devon", "addr:postcode": "EX1 2ED", "addr:country": "GB", "name": "Exeter, Waitrose", "phone": "01392 276748", "website": "https://www.johnsoncleaners.com/branch/exeter-waitrose", "brand": "Johnson Cleaners", "brand:wikidata": "Q6268527", "nsi_id": "johnsons-a4fd49"}, "geometry": {"type": "Point", "coordinates": [-3.515279055, 50.72489929]}},
{"type": "Feature", "id": "0VV5Puzsu1LPKtPUGk8cR2sAvek=", "properties": {"ref": "1318", "@spider": "johnsoncleaners_gb", "shop": "dry_cleaning", "addr:street_address": "33 Merstow Green", "addr:city": "Evesham", "addr:postcode": "WR11 4BD", "addr:country": "GB", "name": "Evesham, Waitrose", "website": "https://www.johnsoncleaners.com/branch/evesham-waitrose", "brand": "Johnson Cleaners", "brand:wikidata": "Q6268527", "nsi_id": "johnsons-a4fd49"}, "geometry": {"type": "Point", "coordinates": [-1.950821, 52.092208]}},
{"type": "Feature", "id": "f90tONsclexlCFP09ifCl-xldoE=", "properties": {"ref": "1313", "@spider": "johnsoncleaners_gb", "shop": "dry_cleaning", "addr:street_address": "Abbey Road", "addr:city": "Evesham", "addr:state": "Worcestershire", "addr:postcode": "WR11 4ST", "addr:country": "GB", "name": "Evesham (Drive In)", "phone": "01386 40212", "website": "https://www.johnsoncleaners.com/branch/evesham-drive-in", "brand": "Johnson Cleaners", "brand:wikidata": "Q6268527", "nsi_id": "johnsons-a4fd49"}, "geometry": {"type": "Point", "coordinates": [-1.9505295, 52.0898626]}},
{"type": "Feature", "id": "qXFMvXdcr_ZQHQ_wAUhH1IuYaA0=", "properties": {"ref": "1309", "@spider": "johnsoncleaners_gb", "shop": "dry_cleaning", "addr:street_address": "105 High Street", "addr:city": "Esher", "addr:state": "Surrey", "addr:postcode": "KT10 9QE", "addr:country": "GB", "name": "Esher, Waitrose", "phone": "01372 468826", "website": "https://www.johnsoncleaners.com/branch/esher-waitrose", "brand": "Johnson Cleaners", "brand:wikidata": "Q6268527", "nsi_id": "johnsons-a4fd49"}, "geometry": {"type": "Point", "coordinates": [-0.366962403, 51.36811829]}},
{"type": "Feature", "id": "O00FsT1KBfwF76rbzqjOCsX7z7o=", "properties": {"ref": "1290", "@spider": "johnsoncleaners_gb", "shop": "dry_cleaning", "addr:street_address": "4 Fore Hill", "addr:city": "Ely", "addr:state": "Cambridgeshire", "addr:postcode": "CB7 4AF", "addr:country": "GB", "name": "Ely", "phone": "01353 663325", "website": "https://www.johnsoncleaners.com/branch/ely", "brand": "Johnson Cleaners", "brand:wikidata": "Q6268527", "nsi_id": "johnsons-a4fd49"}, "geometry": {"type": "Point", "coordinates": [0.2665632, 52.3986581]}},
{"type": "Feature", "id": "JGTfsZrKhUPhuyNYguCdLkUBJxM=", "properties": {"ref": "1275", "@spider": "johnsoncleaners_gb", "shop": "dry_cleaning", "addr:street_address": "9-11 St Georges Way, Eldon Square Shopping Centre", "addr:city": "Newcastle upon Tyne", "addr:postcode": "NE1 7JD", "addr:country": "GB", "name": "Eldon Square, Waitrose", "phone": "0191 233 2816", "website": "https://www.johnsoncleaners.com/branch/eldon-square-waitrose", "brand": "Johnson Cleaners", "brand:wikidata": "Q6268527", "nsi_id": "johnsons-a4fd49"}, "geometry": {"type": "Point", "coordinates": [-1.615614057, 54.97515869]}},
{"type": "Feature", "id": "X3vR96TccE7PXysBpiDJXoCnu5o=", "properties": {"ref": "1274", "@spider": "johnsoncleaners_gb", "shop": "dry_cleaning", "addr:street_address": "Church Road", "addr:city": "Egham", "addr:postcode": "TW20 9HZ", "addr:country": "GB", "name": "Egham, Waitrose", "phone": "01784 479833", "website": "https://www.johnsoncleaners.com/branch/egham-waitrose", "brand": "Johnson Cleaners", "brand:wikidata": "Q6268527", "nsi_id": "johnsons-a4fd49"}, "geometry": {"type": "Point", "coordinates": [-0.546775997, 51.43173981]}},
{"type": "Feature", "id": "DULg3QaJ_CQzigNzHCQUR3JTF0M=", "properties": {"ref": "1260", "@spider": "johnsoncleaners_gb", "shop": "dry_cleaning", "addr:street_address": "402 Morningside Road", "addr:city": "Edinburgh", "addr:state": "Midlothian", "addr:postcode": "EH10 5HY", "addr:country": "GB", "name": "Edinburgh, Morningside Rd", "phone": "0131 447 1836", "website": "https://www.johnsoncleaners.com/branch/edinburgh-morningside-rd", "brand": "Johnson Cleaners", "brand:wikidata": "Q6268527", "nsi_id": "johnsons-a4fd49"}, "geometry": {"type": "Point", "coordinates": [-3.2095182, 55.9257122]}},
{"type": "Feature", "id": "7XCmdpyiE7l8-57D83ktPU2u3QU=", "properties": {"ref": "1255", "@spider": "johnsoncleaners_gb", "shop": "dry_cleaning", "addr:street_address": "12 Elm Row", "addr:city": "Edinburgh", "addr:state": "Midlothian", "addr:postcode": "EH7 4AA", "addr:country": "GB", "name": "Edinburgh, Elm Row", "phone": "0131 556 3802", "website": "https://www.johnsoncleaners.com/branch/edinburgh-elm-row", "brand": "Johnson Cleaners", "brand:wikidata": "Q6268527", "nsi_id": "johnsons-a4fd49"}, "geometry": {"type": "Point", "coordinates": [-3.1835018, 55.9585931]}},
{"type": "Feature", "id": "RLUyuHrlXi3SPkFK1aKLeeBTtvo=", "properties": {"ref": "1236", "@spider": "johnsoncleaners_gb", "shop": "dry_cleaning", "addr:street_address": "168-176 Edgware Road", "addr:city": "London", "addr:postcode": "W2 2DX", "addr:country": "GB", "name": "Edgware Road, Waitrose", "phone": "020 772 59750", "website": "https://www.johnsoncleaners.com/branch/edgware-road-waitrose", "brand": "Johnson Cleaners", "brand:wikidata": "Q6268527", "nsi_id": "johnsons-a4fd49"}, "geometry": {"type": "Point", "coordinates": [-0.1659167, 51.5174799]}},
{"type": "Feature", "id": "nWX6Nwenyj53w4dwBvTADX9d7Vs=", "properties": {"ref": "1233", "@spider": "johnsoncleaners_gb", "shop": "dry_cleaning", "addr:street_address": "Mont St Aignan Way", "addr:city": "Edenbridge", "addr:state": "Kent", "addr:postcode": "TN8 5LN", "addr:country": "GB", "name": "Edenbridge, Waitrose", "phone": "01732 867046", "website": "https://www.johnsoncleaners.com/branch/edenbridge-waitrose", "brand": "Johnson Cleaners", "brand:wikidata": "Q6268527", "nsi_id": "johnsons-a4fd49"}, "geometry": {"type": "Point", "coordinates": [0.064283997, 51.1953392]}},
{"type": "Feature", "id": "altxSC_Bl5CuH3PFCVwyl7cVezk=", "properties": {"ref": "1218", "@spider": "johnsoncleaners_gb", "shop": "dry_cleaning", "addr:street_address": "High Street, Old Town", "addr:city": "Eastbourne", "addr:state": "East Sussex", "addr:postcode": "BN21 1HR", "addr:country": "GB", "name": "Eastbourne, Waitrose", "phone": "01323 644505", "website": "https://www.johnsoncleaners.com/branch/eastbourne-waitrose", "brand": "Johnson Cleaners", "brand:wikidata": "Q6268527", "nsi_id": "johnsons-a4fd49"}, "geometry": {"type": "Point", "coordinates": [0.267711014, 50.77278137]}},
{"type": "Feature", "id": "lhmaV4KFZuzg8LQTNYD34_XKjTc=", "properties": {"ref": "1209", "@spider": "johnsoncleaners_gb", "shop": "dry_cleaning", "addr:street_address": "36 Terminus Road", "addr:city": "Eastbourne", "addr:state": "East Sussex", "addr:postcode": "BN21 3LP", "addr:country": "GB", "name": "Eastbourne", "phone": "01323 721687", "website": "https://www.johnsoncleaners.com/branch/eastbourne-1", "brand": "Johnson Cleaners", "brand:wikidata": "Q6268527", "nsi_id": "johnsons-a4fd49"}, "geometry": {"type": "Point", "coordinates": [0.280951113, 50.76900864]}},
{"type": "Feature", "id": "EQMa46o38b78BAzkR19h32lgxJo=", "properties": {"ref": "1207", "@spider": "johnsoncleaners_gb", "shop": "dry_cleaning", "addr:street_address": "292 Upper Richmond Road, East Sheen", "addr:city": "London", "addr:postcode": "SW14 7JG", "addr:country": "GB", "name": "East Sheen, Waitrose", "website": "https://www.johnsoncleaners.com/branch/east-sheen-waitrose", "brand": "Johnson Cleaners", "brand:wikidata": "Q6268527", "nsi_id": "johnsons-a4fd49"}, "geometry": {"type": "Point", "coordinates": [-0.268791, 51.464622]}},
{"type": "Feature", "id": "XdDCi1VsbkHDC8gcu-A_7P4zuqU=", "properties": {"ref": "1198", "@spider": "johnsoncleaners_gb", "shop": "dry_cleaning", "addr:street_address": "West Street", "addr:city": "East Grinstead", "addr:postcode": "RH19 4YZ", "addr:country": "GB", "name": "East Grinstead, Waitrose", "phone": "01342 323724", "website": "https://www.johnsoncleaners.com/branch/east-grinstead-waitrose", "brand": "Johnson Cleaners", "brand:wikidata": "Q6268527", "nsi_id": "johnsons-a4fd49"}, "geometry": {"type": "Point", "coordinates": [-0.0118995, 51.12374115]}},
{"type": "Feature", "id": "ksPJdssKwJCTi6tVH3yRXLxj9-w=", "properties": {"ref": "1182", "@spider": "johnsoncleaners_gb", "shop": "dry_cleaning", "addr:street_address": "56A North Road", "addr:city": "Durham", "addr:state": "Co Durham", "addr:postcode": "DH1 4SF", "addr:country": "GB", "name": "Durham", "phone": "0191 386 4375", "website": "https://www.johnsoncleaners.com/branch/durham-1", "brand": "Johnson Cleaners", "brand:wikidata": "Q6268527", "nsi_id": "johnsons-a4fd49"}, "geometry": {"type": "Point", "coordinates": [-1.581817031, 54.77764893]}},
{"type": "Feature", "id": "4MwzlwrCthbwYvDKqMaKXUKgFc8=", "properties": {"ref": "1142", "@spider": "johnsoncleaners_gb", "shop": "dry_cleaning", "addr:street_address": "Unit 7 Turnstone Road", "addr:city": "Turnstone Road", "addr:postcode": "KY11 8JZ", "addr:country": "GB", "name": "Duloch Park", "phone": "01383 625660", "website": "https://www.johnsoncleaners.com/branch/duloch-park", "brand": "Johnson Cleaners", "brand:wikidata": "Q6268527", "nsi_id": "johnsons-a4fd49"}, "geometry": {"type": "Point", "coordinates": [-3.405580044, 56.06129074]}},
{"type": "Feature", "id": "McG9r9Oa5CslI6NmAQu-052CCYE=", "properties": {"ref": "1133", "@spider": "johnsoncleaners_gb", "shop": "dry_cleaning", "addr:street_address": "5 Drumsheugh Place", "addr:city": "Edinburgh", "addr:postcode": "EH3 7PT", "addr:country": "GB", "name": "Drumsheugh", "phone": "0131 225 8077", "website": "https://www.johnsoncleaners.com/branch/drumsheugh", "brand": "Johnson Cleaners", "brand:wikidata": "Q6268527", "nsi_id": "johnsons-a4fd49"}, "geometry": {"type": "Point", "coordinates": [-3.212042093, 55.95138168]}},
{"type": "Feature", "id": "efW16pCjMFCgoRY1B7irMF8DKTE=", "properties": {"ref": "1130", "@spider": "johnsoncleaners_gb", "shop": "dry_cleaning", "addr:street_address": "Saltway", "addr:city": "Droitwich", "addr:state": "Worcestershire", "addr:postcode": "WR9 8LB", "addr:country": "GB", "name": "Droitwich, Waitrose", "phone": "01905 798397", "website": "https://www.johnsoncleaners.com/branch/droitwich-waitrose", "brand": "Johnson Cleaners", "brand:wikidata": "Q6268527", "nsi_id": "johnsons-a4fd49"}, "geometry": {"type": "Point", "coordinates": [-2.148524046, 52.26955032]}},
{"type": "Feature", "id": "uH1FN1Wsp1Adv6ttuZd-cweO778=", "properties": {"ref": "1120", "@spider": "johnsoncleaners_gb", "shop": "dry_cleaning", "addr:street_address": "48 South Street", "addr:city": "Dorking", "addr:state": "Surrey", "addr:postcode": "RH4 2HQ", "addr:country": "GB", "name": "Dorking, Waitrose", "phone": "01306 881 171", "website": "https://www.johnsoncleaners.com/branch/dorking-waitrose", "brand": "Johnson Cleaners", "brand:wikidata": "Q6268527", "nsi_id": "johnsons-a4fd49"}, "geometry": {"type": "Point", "coordinates": [-0.333870411, 51.23123169]}},
{"type": "Feature", "id": "8OhLjuux1FIbcgsT5uxZLfZBfeY=", "properties": {"ref": "1107", "@spider": "johnsoncleaners_gb", "shop": "dry_cleaning", "addr:street_address": "Bawtry Road", "addr:city": "Doncaster", "addr:state": "South Yorkshire", "addr:postcode": "DN4 5NW", "addr:country": "GB", "name": "Doncaster, Asda Bawtry Road", "phone": "01302 371031", "website": "https://www.johnsoncleaners.com/branch/doncaster-asda-bawtry-road", "brand": "Johnson Cleaners", "brand:wikidata": "Q6268527", "nsi_id": "johnsons-a4fd49"}, "geometry": {"type": "Point", "coordinates": [-1.094457984, 53.51470947]}},
{"type": "Feature", "id": "GJ-ChhhWbBFmNZhS6YvVOmxDJ4k=", "properties": {"ref": "1093", "@spider": "johnsoncleaners_gb", "shop": "dry_cleaning", "addr:street_address": "707-709 Wilmslow Road, Didsbury", "addr:city": "Manchester", "addr:state": "Lancashire", "addr:postcode": "M20 6RE", "addr:country": "GB", "name": "Didsbury", "phone": "0161 445 5881", "website": "https://www.johnsoncleaners.com/branch/didsbury", "brand": "Johnson Cleaners", "brand:wikidata": "Q6268527", "nsi_id": "johnsons-a4fd49"}, "geometry": {"type": "Point", "coordinates": [-2.230906963, 53.41698837]}},
{"type": "Feature", "id": "6XrSwfoFVt_Dt4NRawxhYy_yGck=", "properties": {"ref": "1090", "@spider": "johnsoncleaners_gb", "shop": "dry_cleaning", "addr:street_address": "The Orchard Centre", "addr:city": "Didcot", "addr:state": "Oxfordshire", "addr:postcode": "OX11 7ND", "addr:country": "GB", "name": "Didcot, Sainsbury's", "phone": "01235 817449", "website": "https://www.johnsoncleaners.com/branch/didcot-sainsburys", "brand": "Johnson Cleaners", "brand:wikidata": "Q6268527", "nsi_id": "johnsons-a4fd49"}, "geometry": {"type": "Point", "coordinates": [-1.2386111, 51.6072222]}},
{"type": "Feature", "id": "6yGXwAgUYp4KtMZd2rVIyn8Oxa0=", "properties": {"ref": "1088", "@spider": "johnsoncleaners_gb", "shop": "dry_cleaning", "addr:street_address": "49 High Strett, Hythe", "addr:city": "Southampton", "addr:postcode": "SO45 6AG", "addr:country": "GB", "name": "Dibden, Waitrose", "website": "https://www.johnsoncleaners.com/branch/dibden-waitrose", "brand": "Johnson Cleaners", "brand:wikidata": "Q6268527", "nsi_id": "johnsons-a4fd49"}, "geometry": {"type": "Point", "coordinates": [-1.398226, 50.869605]}},
{"type": "Feature", "id": "AK3SwBOyMfYnB_v1wadMv75Xp3s=", "properties": {"ref": "1081", "@spider": "johnsoncleaners_gb", "shop": "dry_cleaning", "addr:street_address": "38 Monday Street", "addr:city": "Devizes", "addr:state": "Wiltshire", "addr:postcode": "SN10 1DW", "addr:country": "GB", "name": "Devizes", "phone": "01380 723374", "website": "https://www.johnsoncleaners.com/branch/devizes", "brand": "Johnson Cleaners", "brand:wikidata": "Q6268527", "nsi_id": "johnsons-a4fd49"}, "geometry": {"type": "Point", "coordinates": [-1.993201017, 51.35279083]}},
{"type": "Feature", "id": "DF4yVq0cbxxxenJRTQl48ePeoTA=", "properties": {"ref": "1065", "@spider": "johnsoncleaners_gb", "shop": "dry_cleaning", "addr:street_address": "13 Bowen Square", "addr:city": "Daventry", "addr:state": "Northamptonshire", "addr:postcode": "NN11 4DR", "addr:country": "GB", "name": "Daventry, Waitrose", "phone": "01327 705939", "website": "https://www.johnsoncleaners.com/branch/daventry-waitrose", "brand": "Johnson Cleaners", "brand:wikidata": "Q6268527", "nsi_id": "johnsons-a4fd49"}, "geometry": {"type": "Point", "coordinates": [-1.161617994, 52.25727081]}},
{"type": "Feature", "id": "k1xKAdNNGAGxjAmTJvo4gUtoSB8=", "properties": {"ref": "1022", "@spider": "johnsoncleaners_gb", "shop": "dry_cleaning", "addr:street_address": "Croft Road", "addr:city": "Crowborough", "addr:postcode": "TN6 1DL", "addr:country": "GB", "name": "Crowborough, Waitrose", "phone": "01892 662864", "website": "https://www.johnsoncleaners.com/branch/crowborough-waitrose", "brand": "Johnson Cleaners", "brand:wikidata": "Q6268527", "nsi_id": "johnsons-a4fd49"}, "geometry": {"type": "Point", "coordinates": [0.161846995, 51.05833817]}},
{"type": "Feature", "id": "V1uIhlVg92UTOXJwJnR4AgoE7Vw=", "properties": {"ref": "1011", "@spider": "johnsoncleaners_gb", "shop": "dry_cleaning", "addr:street_address": "South St", "addr:city": "Crewkerne", "addr:state": "Somerset", "addr:postcode": "TA18 8DA", "addr:country": "GB", "name": "Crewkerne, Waitrose", "phone": "01460 72470", "website": "https://www.johnsoncleaners.com/branch/crewkerne-waitrose", "brand": "Johnson Cleaners", "brand:wikidata": "Q6268527", "nsi_id": "johnsons-a4fd49"}, "geometry": {"type": "Point", "coordinates": [-2.795305014, 50.88304138]}},
{"type": "Feature", "id": "fC-zmgRoyphGxwZQdQBXgaGOgJs=", "properties": {"ref": "970", "@spider": "johnsoncleaners_gb", "shop": "dry_cleaning", "addr:street_address": "Brade Drive", "addr:city": "Coventry", "addr:postcode": "CV2 2QZ", "addr:country": "GB", "name": "Coventry, Asda Brade Drive", "phone": "02476 621703", "website": "https://www.johnsoncleaners.com/branch/coventry-asda-brade-drive", "brand": "Johnson Cleaners", "brand:wikidata": "Q6268527", "nsi_id": "johnsons-a4fd49"}, "geometry": {"type": "Point", "coordinates": [-1.433349013, 52.42893982]}},
{"type": "Feature", "id": "z2MEbgLw8McF0GCmaocImCYI6LY=", "properties": {"ref": "4608", "@spider": "johnsoncleaners_gb", "shop": "dry_cleaning", "addr:street_address": "19 Cannon Park Centre", "addr:city": "Coventry", "addr:postcode": "CV4 7EH", "addr:country": "GB", "name": "Coventry", "phone": "024764 13444", "website": "https://www.johnsoncleaners.com/branch/coventry-2", "brand": "Johnson Cleaners", "brand:wikidata": "Q6268527", "nsi_id": "johnsons-a4fd49"}, "geometry": {"type": "Point", "coordinates": [-1.555069, 52.386846]}},
{"type": "Feature", "id": "MLRRAYgCsHYoG99p2WSif2RCiVs=", "properties": {"ref": "951", "@spider": "johnsoncleaners_gb", "shop": "dry_cleaning", "addr:street_address": "Phoenix Parkway", "addr:city": "Corby", "addr:state": "Northamptonshire", "addr:postcode": "NN17 5DT", "addr:country": "GB", "name": "Corby, Asda", "phone": "01536 202388", "website": "https://www.johnsoncleaners.com/branch/corby-asda", "brand": "Johnson Cleaners", "brand:wikidata": "Q6268527", "nsi_id": "johnsons-a4fd49"}, "geometry": {"type": "Point", "coordinates": [-0.678713083, 52.5031395]}},
{"type": "Feature", "id": "2iLpuocXumvr9aDAyG-W53KWJ9w=", "properties": {"ref": "944", "@spider": "johnsoncleaners_gb", "shop": "dry_cleaning", "addr:street_address": "1 Barn Road", "addr:city": "Congleton", "addr:state": "Cheshire", "addr:postcode": "CW12  1LJ", "addr:country": "GB", "name": "Congleton Drive-In", "phone": "01260 297572", "website": "https://www.johnsoncleaners.com/branch/congleton-drive-in", "brand": "Johnson Cleaners", "brand:wikidata": "Q6268527", "nsi_id": "johnsons-a4fd49"}, "geometry": {"type": "Point", "coordinates": [-2.217792034, 53.16930008]}},
{"type": "Feature", "id": "iWk39SO3JPuVIQfNBtjX0_3NEh8=", "properties": {"ref": "943", "@spider": "johnsoncleaners_gb", "shop": "dry_cleaning", "addr:street_address": "38 Comley Bank Road", "addr:city": "Edinburgh", "addr:postcode": "EH4 1AW", "addr:country": "GB", "name": "Comley Bank, Waitrose", "phone": "0131 3326312", "website": "https://www.johnsoncleaners.com/branch/comley-bank-waitrose", "brand": "Johnson Cleaners", "brand:wikidata": "Q6268527", "nsi_id": "johnsons-a4fd49"}, "geometry": {"type": "Point", "coordinates": [-3.219403028, 55.95932007]}},
{"type": "Feature", "id": "nArt43RNiIfBvf4DEyj0MdehFD0=", "properties": {"ref": "917", "@spider": "johnsoncleaners_gb", "shop": "dry_cleaning", "addr:street_address": "16 Between Streets", "addr:city": "Cobham", "addr:state": "Surrey", "addr:postcode": "KT11 1AF", "addr:country": "GB", "name": "Cobham, Waitrose", "phone": "01932 865355", "website": "https://www.johnsoncleaners.com/branch/cobham-waitrose", "brand": "Johnson Cleaners", "brand:wikidata": "Q6268527", "nsi_id": "johnsons-a4fd49"}, "geometry": {"type": "Point", "coordinates": [-0.413899988, 51.33016968]}},
{"type": "Feature", "id": "aSUlyfX4ih3J-XNYR4ySqhoU148=", "properties": {"ref": "872", "@spider": "johnsoncleaners_gb", "shop": "dry_cleaning", "addr:street_address": "14 Market Place", "addr:city": "Cirencester", "addr:state": "Gloucestershire", "addr:postcode": "GL7 2NW", "addr:country": "GB", "name": "Cirencester", "phone": "01285 652177", "website": "https://www.johnsoncleaners.com/branch/cirencester-1", "brand": "Johnson Cleaners", "brand:wikidata": "Q6268527", "nsi_id": "johnsons-a4fd49"}, "geometry": {"type": "Point", "coordinates": [-1.967442036, 51.71693039]}},
{"type": "Feature", "id": "6dJDSzHrLL0FL9Fyh4p9vrFlmKA=", "properties": {"ref": "869", "@spider": "johnsoncleaners_gb", "shop": "dry_cleaning", "addr:street_address": "33 Bargates", "addr:city": "Christchurch", "addr:state": "Dorset", "addr:postcode": "BH23 1QD", "addr:country": "GB", "name": "Christchurch, Waitrose", "phone": "01202 496682", "website": "https://www.johnsoncleaners.com/branch/christchurch-waitrose", "brand": "Johnson Cleaners", "brand:wikidata": "Q6268527", "nsi_id": "johnsons-a4fd49"}, "geometry": {"type": "Point", "coordinates": [-1.779296041, 50.73649979]}},
{"type": "Feature", "id": "IQkJrZV2-1vGe0MEbLdGz6y0z_s=", "properties": {"ref": "854", "@spider": "johnsoncleaners_gb", "shop": "dry_cleaning", "addr:street_address": "55 Market Street", "addr:city": "Chorley", "addr:state": "Lancashire", "addr:postcode": "PR7 2SW", "addr:country": "GB", "name": "Chorley", "phone": "01257 266854", "website": "https://www.johnsoncleaners.com/branch/chorley", "brand": "Johnson Cleaners", "brand:wikidata": "Q6268527", "nsi_id": "johnsons-a4fd49"}, "geometry": {"type": "Point", "coordinates": [-2.632172108, 53.65290833]}},
{"type": "Feature", "id": "a2xJX0nyv-_YrajHhIhcTUN9M7A=", "properties": {"ref": "851", "@spider": "johnsoncleaners_gb", "shop": "dry_cleaning", "addr:street_address": "20 Market Street", "addr:city": "Chipping Norton", "addr:state": "Oxfordshire", "addr:postcode": "OX7 5AD", "addr:country": "GB", "name": "Chipping Norton", "phone": "01608 645721", "website": "https://www.johnsoncleaners.com/branch/chipping-norton", "brand": "Johnson Cleaners", "brand:wikidata": "Q6268527", "nsi_id": "johnsons-a4fd49"}, "geometry": {"type": "Point", "coordinates": [-1.5457779, 51.9420143]}},
{"type": "Feature", "id": "HXpLOehLRztJPSrwqtouLDfn4Gc=", "properties": {"ref": "841", "@spider": "johnsoncleaners_gb", "shop": "dry_cleaning", "addr:street_address": "Unit 16, Chineham Shopping Centre", "addr:city": "Basingstoke", "addr:state": "Hampshire", "addr:postcode": "RG24 8BQ", "addr:country": "GB", "name": "Chineham", "phone": "01256 322975", "website": "https://www.johnsoncleaners.com/branch/chineham-1", "brand": "Johnson Cleaners", "brand:wikidata": "Q6268527", "nsi_id": "johnsons-a4fd49"}, "geometry": {"type": "Point", "coordinates": [-1.059206009, 51.28390121]}},
{"type": "Feature", "id": "-qt-Gf_q52MRSt8hMrU3dItP2TA=", "properties": {"ref": "839", "@spider": "johnsoncleaners_gb", "shop": "dry_cleaning", "addr:street_address": "Via Ravenna", "addr:city": "Chichester", "addr:state": "West Sussex", "addr:postcode": "PO19 1RD", "addr:country": "GB", "name": "Chichester, Waitrose", "phone": "01243 537512", "website": "https://www.johnsoncleaners.com/branch/chichester-waitrose", "brand": "Johnson Cleaners", "brand:wikidata": "Q6268527", "nsi_id": "johnsons-a4fd49"}, "geometry": {"type": "Point", "coordinates": [-0.78392899, 50.83232117]}},
{"type": "Feature", "id": "cUFoVGN0gF5t-naOYtphzZHgM_s=", "properties": {"ref": "835", "@spider": "johnsoncleaners_gb", "shop": "dry_cleaning", "addr:street_address": "Westhampnett Road", "addr:city": "Chichester", "addr:postcode": "PO19 7YR", "addr:country": "GB", "name": "Chichester, Sainsbury's", "phone": "01243 774746", "website": "https://www.johnsoncleaners.com/branch/chichester-sainsburys", "brand": "Johnson Cleaners", "brand:wikidata": "Q6268527", "nsi_id": "johnsons-a4fd49"}, "geometry": {"type": "Point", "coordinates": [-0.756524, 50.843377]}},
{"type": "Feature", "id": "XDZp_DngfjijUhLp29rFsNcmugo=", "properties": {"ref": "811", "@spider": "johnsoncleaners_gb", "shop": "dry_cleaning", "addr:street_address": "Central Tyre Development, Sealand Road", "addr:city": "Chester", "addr:postcode": "CH1 4LD", "addr:country": "GB", "name": "Chester Drive In", "phone": "01244 379903", "website": "https://www.johnsoncleaners.com/branch/chester-drive-in", "brand": "Johnson Cleaners", "brand:wikidata": "Q6268527", "nsi_id": "johnsons-a4fd49"}, "geometry": {"type": "Point", "coordinates": [-2.907315969, 53.19527054]}},
{"type": "Feature", "id": "tVgZLuXg1ZDwxPmcdq542NTVpfk=", "properties": {"ref": "803", "@spider": "johnsoncleaners_gb", "shop": "dry_cleaning", "addr:street_address": "23 Wolseley Road, Milehouse", "addr:city": "Plymouth", "addr:state": "Devon", "addr:postcode": "PL2 3AA", "addr:country": "GB", "name": "Chequered Flag", "phone": "01752 561122", "website": "https://www.johnsoncleaners.com/branch/chequered-flag", "brand": "Johnson Cleaners", "brand:wikidata": "Q6268527", "nsi_id": "johnsons-a4fd49"}, "geometry": {"type": "Point", "coordinates": [-4.158174038, 50.38589859]}},
{"type": "Feature", "id": "F8YUzB4GXJ8fU9LHHN09su_dGQg=", "properties": {"ref": "794", "@spider": "johnsoncleaners_gb", "shop": "dry_cleaning", "addr:street_address": "Cheltenham Waitrose, Honeybourne Way", "addr:city": "Cheltenham", "addr:state": "Gloucestershire", "addr:postcode": "GL50 3QW", "addr:country": "GB", "name": "Cheltenham Waitrose", "phone": "01242 234323", "website": "https://www.johnsoncleaners.com/branch/cheltenham-waitrose", "brand": "Johnson Cleaners", "brand:wikidata": "Q6268527", "nsi_id": "johnsons-a4fd49"}, "geometry": {"type": "Point", "coordinates": [-2.083193064, 51.9025116]}},
{"type": "Feature", "id": "r58lRqfYtr96ESazdkBNSgmAPsg=", "properties": {"ref": "766", "@spider": "johnsoncleaners_gb", "shop": "dry_cleaning", "addr:street_address": "Station road", "addr:city": "Cheadle Hulme", "addr:state": "Cheshire", "addr:postcode": "SK8 5AE", "addr:country": "GB", "name": "Cheadle Hulme, Waitrose", "phone": "0161 486 1702", "website": "https://www.johnsoncleaners.com/branch/cheadle-hulme-waitrose", "brand": "Johnson Cleaners", "brand:wikidata": "Q6268527", "nsi_id": "johnsons-a4fd49"}, "geometry": {"type": "Point", "coordinates": [-2.187928915, 53.37546921]}},
{"type": "Feature", "id": "id1wFICNMZRziNOM7ow9HPFRhDw=", "properties": {"ref": "756", "@spider": "johnsoncleaners_gb", "shop": "dry_cleaning", "addr:street_address": "1 Oakmount Road", "addr:city": "Chandlers Ford", "addr:state": "Hampshire", "addr:postcode": "SO53 2LG", "addr:country": "GB", "name": "Chandlers Ford, Waitrose", "phone": "02380 260230", "website": "https://www.johnsoncleaners.com/branch/chandlers-ford-waitrose", "brand": "Johnson Cleaners", "brand:wikidata": "Q6268527", "nsi_id": "johnsons-a4fd49"}, "geometry": {"type": "Point", "coordinates": [-1.373118043, 50.98686981]}},
{"type": "Feature", "id": "T96v-xEKYJwMf1YvGpmbqUm7_cY=", "properties": {"ref": "747", "@spider": "johnsoncleaners_gb", "shop": "dry_cleaning", "addr:street_address": "51 Church Street, Caversham", "addr:city": "Reading", "addr:state": "Berkshire", "addr:postcode": "RG4 8AY", "addr:country": "GB", "name": "Caversham, Waitrose", "phone": "01189 482912", "website": "https://www.johnsoncleaners.com/branch/caversham-waitrose", "brand": "Johnson Cleaners", "brand:wikidata": "Q6268527", "nsi_id": "johnsons-a4fd49"}, "geometry": {"type": "Point", "coordinates": [-0.973366618, 51.46747971]}},
{"type": "Feature", "id": "_3AL8sccacuhuFY1EclOXLpfmHg=", "properties": {"ref": "745", "@spider": "johnsoncleaners_gb", "shop": "dry_cleaning", "addr:street_address": "2 Station Avenue", "addr:city": "Caterham", "addr:state": "Surrey", "addr:postcode": "CR3 6LB", "addr:country": "GB", "name": "Caterham, Waitrose", "phone": "01883 346173", "website": "https://www.johnsoncleaners.com/branch/caterham-waitrose", "brand": "Johnson Cleaners", "brand:wikidata": "Q6268527", "nsi_id": "johnsons-a4fd49"}, "geometry": {"type": "Point", "coordinates": [-0.077885002, 51.28193665]}},
{"type": "Feature", "id": "DouQbmtGZS8XmdMAuAKZ7IzS8j4=", "properties": {"ref": "722", "@spider": "johnsoncleaners_gb", "shop": "dry_cleaning", "addr:street_address": "1 Green Market", "addr:city": "Carlisle", "addr:state": "Cumbria", "addr:postcode": "CA3 8JE", "addr:country": "GB", "name": "Carlisle, Greenmarket", "phone": "01228 531784", "website": "https://www.johnsoncleaners.com/branch/carlisle-greenmarket", "brand": "Johnson Cleaners", "brand:wikidata": "Q6268527", "nsi_id": "johnsons-a4fd49"}, "geometry": {"type": "Point", "coordinates": [-2.936439991, 54.89490128]}},
{"type": "Feature", "id": "YK-TFD8ZDe1jaU9Dl8fGBKssTfo=", "properties": {"ref": "677", "@spider": "johnsoncleaners_gb", "shop": "dry_cleaning", "addr:street_address": "18 Haven Road, Canford Cliffe", "addr:city": "Poole", "addr:state": "Dorset", "addr:postcode": "BH13 7LP", "addr:country": "GB", "name": "Canford Cliffs", "phone": "01202 700236", "website": "https://www.johnsoncleaners.com/branch/canford-cliffs", "brand": "Johnson Cleaners", "brand:wikidata": "Q6268527", "nsi_id": "johnsons-a4fd49"}, "geometry": {"type": "Point", "coordinates": [-1.921522021, 50.70555115]}},
{"type": "Feature", "id": "2sw2CCkDfBCuYP_Cc40rfyVkrLc=", "properties": {"ref": "676", "@spider": "johnsoncleaners_gb", "shop": "dry_cleaning", "addr:street_address": "Canada Square", "addr:city": "Canary Wharf", "addr:state": "London", "addr:postcode": "E14 5EW", "addr:country": "GB", "name": "Canary Wharf, Waitrose", "phone": "02077 190300", "website": "https://www.johnsoncleaners.com/branch/canary-wharf-waitrose", "brand": "Johnson Cleaners", "brand:wikidata": "Q6268527", "nsi_id": "johnsons-a4fd49"}, "geometry": {"type": "Point", "coordinates": [-0.016295001, 51.5046196]}},
{"type": "Feature", "id": "1hvENcS1OypF_4TENeBrDZ-U9uM=", "properties": {"ref": "673", "@spider": "johnsoncleaners_gb", "shop": "dry_cleaning", "addr:street_address": "50 Hauxton Road, Trumpington", "addr:city": "Cambridge", "addr:state": "Cambridgeshire", "addr:postcode": "CB2 9FT", "addr:country": "GB", "name": "Cambridge, Waitrose", "phone": "01223 845777", "website": "https://www.johnsoncleaners.com/branch/cambridge-waitrose", "brand": "Johnson Cleaners", "brand:wikidata": "Q6268527", "nsi_id": "johnsons-a4fd49"}, "geometry": {"type": "Point", "coordinates": [0.109693997, 52.16891098]}},
{"type": "Feature", "id": "OJt_tEutBhxW3y3h-itULU1QNTM=", "properties": {"ref": "639", "@spider": "johnsoncleaners_gb", "shop": "dry_cleaning", "addr:street_address": "373 Byres Road", "addr:city": "Glasgow", "addr:postcode": "G12 8AU", "addr:country": "GB", "name": "Byres Road, Waitrose", "phone": "0141 337 3314", "website": "https://www.johnsoncleaners.com/branch/byres-road-waitrose", "brand": "Johnson Cleaners", "brand:wikidata": "Q6268527", "nsi_id": "johnsons-a4fd49"}, "geometry": {"type": "Point", "coordinates": [-4.291380882, 55.87736893]}},
{"type": "Feature", "id": "jjKUvMVZp2AoshtQ-0AgI1F6mj8=", "properties": {"ref": "626", "@spider": "johnsoncleaners_gb", "shop": "dry_cleaning", "addr:street_address": "Robert Boby Way", "addr:city": "Bury St Edmunds", "addr:state": "Suffolk", "addr:postcode": "IP33 3DH", "addr:country": "GB", "name": "Bury St.Edmunds, Waitrose", "phone": "01284 725222", "website": "https://www.johnsoncleaners.com/branch/bury-st-edmunds-waitrose", "brand": "Johnson Cleaners", "brand:wikidata": "Q6268527", "nsi_id": "johnsons-a4fd49"}, "geometry": {"type": "Point", "coordinates": [0.708263993, 52.24409866]}},
{"type": "Feature", "id": "GHqb2D1CeBmgsTH1NbrfqUweU2k=", "properties": {"ref": "618", "@spider": "johnsoncleaners_gb", "shop": "dry_cleaning", "addr:street_address": "31 Buttermarket", "addr:city": "Bury St Edmunds", "addr:state": "Suffolk", "addr:postcode": "IP33 1DW", "addr:country": "GB", "name": "Bury St Edmunds", "phone": "01284 753816", "website": "https://www.johnsoncleaners.com/branch/bury-st-edmunds", "brand": "Johnson Cleaners", "brand:wikidata": "Q6268527", "nsi_id": "johnsons-a4fd49"}, "geometry": {"type": "Point", "coordinates": [0.71355933, 52.24541855]}},
{"type": "Feature", "id": "BunZQF805A_yRIfMa_CHZNzBfkA=", "properties": {"ref": "609", "@spider": "johnsoncleaners_gb", "shop": "dry_cleaning", "addr:street_address": "Lichfield Street", "addr:city": "Burton on Trent", "addr:state": "Staffordshire", "addr:postcode": "DE14 3RH", "addr:country": "GB", "name": "Burton Drive-Thru", "phone": "01283 563264", "website": "https://www.johnsoncleaners.com/branch/burton-drive-thru", "brand": "Johnson Cleaners", "brand:wikidata": "Q6268527", "nsi_id": "johnsons-a4fd49"}, "geometry": {"type": "Point", "coordinates": [-1.634363055, 52.7990303]}},
{"type": "Feature", "id": "sjtgsyBSVkartdDW-9XMufhCKpk=", "properties": {"ref": "579", "@spider": "johnsoncleaners_gb", "shop": "dry_cleaning", "addr:street_address": "27 Queens Rd", "addr:city": "Buckhurst Hill", "addr:state": "Essex", "addr:postcode": "IG9 5EP", "addr:country": "GB", "name": "Buckhurst Hill, Waitrose", "phone": "020 8506 1331", "website": "https://www.johnsoncleaners.com/branch/buckhurst-hill-waitrose", "brand": "Johnson Cleaners", "brand:wikidata": "Q6268527", "nsi_id": "johnsons-a4fd49"}, "geometry": {"type": "Point", "coordinates": [0.045084398, 51.6253891]}},
{"type": "Feature", "id": "kRcmPOwFwB6Le6BdnyvPR4ig5b0=", "properties": {"ref": "4607", "@spider": "johnsoncleaners_gb", "shop": "dry_cleaning", "addr:street_address": "Welton Rd", "addr:city": "Hull", "addr:postcode": "HU15 1AF", "addr:country": "GB", "name": "Brough, Welton Rd", "phone": "01482 669 460", "website": "https://www.johnsoncleaners.com/branch/brough-welton-rd", "brand": "Johnson Cleaners", "brand:wikidata": "Q6268527", "nsi_id": "johnsons-a4fd49"}, "geometry": {"type": "Point", "coordinates": [-0.571388277936947, 53.7290814801825]}},
{"type": "Feature", "id": "aq-9pOmSvvXRZXnj1dSphzA9Oss=", "properties": {"ref": "281", "@spider": "johnsoncleaners_gb", "shop": "dry_cleaning", "addr:street_address": "1 Southend Rd", "addr:city": "Beckenham", "addr:state": "Kent", "addr:postcode": "BR3 1SD", "addr:country": "GB", "name": "Beckenham, Waitrose", "phone": "020 8663 4898", "website": "https://www.johnsoncleaners.com/branch/beckenham-waitrose", "brand": "Johnson Cleaners", "brand:wikidata": "Q6268527", "nsi_id": "johnsons-a4fd49"}, "geometry": {"type": "Point", "coordinates": [-0.02576828, 51.40882111]}},
{"type": "Feature", "id": "xwRIh-MIaNvCjcTUoJZDfq4sAM4=", "properties": {"ref": "274", "@spider": "johnsoncleaners_gb", "shop": "dry_cleaning", "addr:street_address": "Penn Road", "addr:city": "Beaconsfield", "addr:state": "Buckinghamshire", "addr:postcode": "HP9 2PW", "addr:country": "GB", "name": "Beaconsfield, Waitrose", "phone": "01494 676818", "website": "https://www.johnsoncleaners.com/branch/beaconsfield-waitrose", "brand": "Johnson Cleaners", "brand:wikidata": "Q6268527", "nsi_id": "johnsons-a4fd49"}, "geometry": {"type": "Point", "coordinates": [-0.647756994, 51.61252213]}},
{"type": "Feature", "id": "F6DrVNhk-YnU36yzweNGL5S5St0=", "properties": {"ref": "271", "@spider": "johnsoncleaners_gb", "shop": "dry_cleaning", "addr:street_address": "Porchester Road", "addr:city": "Bayswater", "addr:state": "London", "addr:postcode": "W2 6ES", "addr:country": "GB", "name": "Bayswater, Waitrose", "phone": "020 7243 5714", "website": "https://www.johnsoncleaners.com/branch/bayswater-waitrose", "brand": "Johnson Cleaners", "brand:wikidata": "Q6268527", "nsi_id": "johnsons-a4fd49"}, "geometry": {"type": "Point", "coordinates": [-0.187438995, 51.51684952]}},
{"type": "Feature", "id": "bMXnWSW3anJmSozcoK_KsxRXCOo=", "properties": {"ref": "270", "@spider": "johnsoncleaners_gb", "shop": "dry_cleaning", "addr:street_address": "1 New Union Square", "addr:city": "London", "addr:postcode": "SW11 7DN", "addr:country": "GB", "name": "Battersea (Nine Elms), Waitrose", "phone": "0207 6222459", "website": "https://www.johnsoncleaners.com/branch/battersea-nine-elms-waitrose", "brand": "Johnson Cleaners", "brand:wikidata": "Q6268527", "nsi_id": "johnsons-a4fd49"}, "geometry": {"type": "Point", "coordinates": [-0.094351001, 51.53541946]}},
{"type": "Feature", "id": "pfZzUIru20yU92fpTH0sRqD_0bw=", "properties": {"ref": "262", "@spider": "johnsoncleaners_gb", "shop": "dry_cleaning", "addr:street_address": "The Podium", "addr:city": "Northgate St", "addr:state": "Somerset", "addr:postcode": "BA1 5AL", "addr:country": "GB", "name": "Bath, Waitrose", "phone": "01225 442550", "website": "https://www.johnsoncleaners.com/branch/bath-waitrose", "brand": "Johnson Cleaners", "brand:wikidata": "Q6268527", "nsi_id": "johnsons-a4fd49"}, "geometry": {"type": "Point", "coordinates": [-2.358757019, 51.38327026]}},
{"type": "Feature", "id": "ex0IfX22qrDE38FbV7qQKHZcA5Q=", "properties": {"ref": "209", "@spider": "johnsoncleaners_gb", "shop": "dry_cleaning", "addr:street_address": "16 The Spires Shopping Centre", "addr:city": "Barnet", "addr:state": "Hertfordshire", "addr:postcode": "EN5 5XY", "addr:country": "GB", "name": "Barnet, Waitrose", "phone": "020 8449 1797", "website": "https://www.johnsoncleaners.com/branch/barnet-waitrose", "brand": "Johnson Cleaners", "brand:wikidata": "Q6268527", "nsi_id": "johnsons-a4fd49"}, "geometry": {"type": "Point", "coordinates": [-0.203757405, 51.65589905]}},
{"type": "Feature", "id": "yiXc5bDL7irjX6NDWqkj2KTcp_c=", "properties": {"ref": "190", "@spider": "johnsoncleaners_gb", "shop": "dry_cleaning", "addr:street_address": "The Mall", "addr:city": "Bar Hill", "addr:state": "Cambridgeshire", "addr:postcode": "CB23 8DZ", "addr:country": "GB", "name": "Bar Hill, Tesco Extra", "phone": "01954 782375", "website": "https://www.johnsoncleaners.com/branch/bar-hill-tesco-extra", "brand": "Johnson Cleaners", "brand:wikidata": "Q6268527", "nsi_id": "johnsons-a4fd49"}, "geometry": {"type": "Point", "coordinates": [0.018441601, 52.253479]}},
{"type": "Feature", "id": "YaxGfnCcxZO8vjdL4l043kUKlEM=", "properties": {"ref": "182", "@spider": "johnsoncleaners_gb", "shop": "dry_cleaning", "addr:street_address": "Southam Road", "addr:city": "Banbury", "addr:postcode": "OX16 2FW", "addr:country": "GB", "name": "Banbury, Waitrose", "website": "https://www.johnsoncleaners.com/branch/banbury-waitrose", "brand": "Johnson Cleaners", "brand:wikidata": "Q6268527", "nsi_id": "johnsons-a4fd49"}, "geometry": {"type": "Point", "coordinates": [-1.340531, 52.069141]}},
{"type": "Feature", "id": "q2GTfH0REwypn4QDmRHaOUkYWvw=", "properties": {"ref": "175", "@spider": "johnsoncleaners_gb", "shop": "dry_cleaning", "addr:street_address": "47c Castle Street", "addr:city": "Banbury", "addr:state": "Oxfordshire", "addr:postcode": "OX16 5NU", "addr:country": "GB", "name": "Banbury Drive In", "phone": "01295 271767", "website": "https://www.johnsoncleaners.com/branch/banbury-drive-in", "brand": "Johnson Cleaners", "brand:wikidata": "Q6268527", "nsi_id": "johnsons-a4fd49"}, "geometry": {"type": "Point", "coordinates": [-1.338248968, 52.06367111]}},
{"type": "Feature", "id": "9hj3FjHhVQpAqw4IOxcOkAzV0VU=", "properties": {"ref": "157", "@spider": "johnsoncleaners_gb", "shop": "dry_cleaning", "addr:street_address": "London Road", "addr:city": "Bagshot", "addr:state": "Surrey", "addr:postcode": "GU19 5DG", "addr:country": "GB", "name": "Bagshot, Waitrose", "phone": "01276 472580", "website": "https://www.johnsoncleaners.com/branch/bagshot-waitrose", "brand": "Johnson Cleaners", "brand:wikidata": "Q6268527", "nsi_id": "johnsons-a4fd49"}, "geometry": {"type": "Point", "coordinates": [-0.699413002, 51.35550308]}},
{"type": "Feature", "id": "7PPD4HVMnawbGa6r0KHou5HHCmU=", "properties": {"ref": "147", "@spider": "johnsoncleaners_gb", "shop": "dry_cleaning", "addr:street_address": "Waterside, Exchange Street", "addr:city": "Aylesbury", "addr:state": "Buckinghamshire", "addr:postcode": "HP20 1AL", "addr:country": "GB", "name": "Aylesbury, Waitrose", "phone": "01494 524509", "website": "https://www.johnsoncleaners.com/branch/aylesbury-waitrose", "brand": "Johnson Cleaners", "brand:wikidata": "Q6268527", "nsi_id": "johnsons-a4fd49"}, "geometry": {"type": "Point", "coordinates": [-0.798084974, 51.82051849]}},
{"type": "Feature", "id": "XeTfojsI0753JNhhTeBABm8n-EA=", "properties": {"ref": "133", "@spider": "johnsoncleaners_gb", "shop": "dry_cleaning", "addr:street_address": "Cavendish Street", "addr:city": "Ashton Under Lyne", "addr:state": "Lancashire", "addr:postcode": "OL6 7PE", "addr:country": "GB", "name": "Ashton-Under-Lyne, Asda", "phone": "0161 343 2481", "website": "https://www.johnsoncleaners.com/branch/ashton-under-lyne-asda", "brand": "Johnson Cleaners", "brand:wikidata": "Q6268527", "nsi_id": "johnsons-a4fd49"}, "geometry": {"type": "Point", "coordinates": [-2.095112085, 53.48500061]}},
{"type": "Feature", "id": "p_9z0-NLHsnEh5F1ihvkkji7Pjc=", "properties": {"ref": "126", "@spider": "johnsoncleaners_gb", "shop": "dry_cleaning", "addr:street_address": "Repton Park", "addr:city": "Ashford", "addr:state": "Kent", "addr:postcode": "TN23 3RT", "addr:country": "GB", "name": "Ashford, Waitrose", "phone": "01233 660082", "website": "https://www.johnsoncleaners.com/branch/ashford-waitrose", "brand": "Johnson Cleaners", "brand:wikidata": "Q6268527", "nsi_id": "johnsons-a4fd49"}, "geometry": {"type": "Point", "coordinates": [0.857554972, 51.15557098]}},
{"type": "Feature", "id": "CL3M_crfZSs_GvVzr1Q5B8UAjP8=", "properties": {"ref": "106", "@spider": "johnsoncleaners_gb", "shop": "dry_cleaning", "addr:street_address": "Hermitage Parade, High Street", "addr:city": "Ascot", "addr:state": "Berkshire", "addr:postcode": "SL5 7HE", "addr:country": "GB", "name": "Ascot", "phone": "01344 622873", "website": "https://www.johnsoncleaners.com/branch/ascot", "brand": "Johnson Cleaners", "brand:wikidata": "Q6268527", "nsi_id": "johnsons-a4fd49"}, "geometry": {"type": "Point", "coordinates": [-0.671578228, 51.41019058]}},
{"type": "Feature", "id": "5L4z1Q2DE0-MyzzK7mBgYsq7IJk=", "properties": {"ref": "85", "@spider": "johnsoncleaners_gb", "shop": "dry_cleaning", "addr:street_address": "67 Chantry Way, The Chantry Centre", "addr:city": "Andover", "addr:state": "Hampshire", "addr:postcode": "SP10 1LY", "addr:country": "GB", "name": "Andover, Waitrose", "phone": "01264 355515", "website": "https://www.johnsoncleaners.com/branch/andover-waitrose", "brand": "Johnson Cleaners", "brand:wikidata": "Q6268527", "nsi_id": "johnsons-a4fd49"}, "geometry": {"type": "Point", "coordinates": [-1.481228948, 51.20849991]}},
{"type": "Feature", "id": "Czt_vOhsvNqpCkDmotYFvbPnG_w=", "properties": {"ref": "79", "@spider": "johnsoncleaners_gb", "shop": "dry_cleaning", "addr:street_address": "25 Bedford Street", "addr:city": "Ampthill", "addr:state": "Bedfordshire", "addr:postcode": "MK45 2LU", "addr:country": "GB", "name": "Ampthill, Waitrose", "phone": "01525 402277", "website": "https://www.johnsoncleaners.com/branch/ampthill-waitrose", "brand": "Johnson Cleaners", "brand:wikidata": "Q6268527", "nsi_id": "johnsons-a4fd49"}, "geometry": {"type": "Point", "coordinates": [-0.493412793, 52.03255081]}},
{"type": "Feature", "id": "83TeRfNEeFb4vKY0p2Ebl6m2K1Y=", "properties": {"ref": "75", "@spider": "johnsoncleaners_gb", "shop": "dry_cleaning", "addr:street_address": "33 High Street", "addr:city": "Amesbury", "addr:state": "Wiltshire", "addr:postcode": "SP4 7ET", "addr:country": "GB", "name": "Amesbury", "phone": "01980 623 246", "website": "https://www.johnsoncleaners.com/branch/amesbury", "brand": "Johnson Cleaners", "brand:wikidata": "Q6268527", "nsi_id": "johnsons-a4fd49"}, "geometry": {"type": "Point", "coordinates": [-1.780701041, 51.17301178]}},
{"type": "Feature", "id": "7eOrpo1haTV7M_qQ2nYJsJZVpic=", "properties": {"ref": "64", "@spider": "johnsoncleaners_gb", "shop": "dry_cleaning", "addr:street_address": "Unit 2a Draybank Rd, Broadheath", "addr:city": "Altrincham", "addr:state": "Cheshire", "addr:postcode": "WA14 5ZL", "addr:country": "GB", "name": "Altrincham", "phone": "01619 297 092", "website": "https://www.johnsoncleaners.com/branch/altrincham", "brand": "Johnson Cleaners", "brand:wikidata": "Q6268527", "nsi_id": "johnsons-a4fd49"}, "geometry": {"type": "Point", "coordinates": [-2.364106894, 53.40565872]}},
{"type": "Feature", "id": "OW4pKJV9Zk35ft3CBfhgpRpHUXQ=", "properties": {"ref": "63", "@spider": "johnsoncleaners_gb", "shop": "dry_cleaning", "addr:street_address": "Station Road", "addr:city": "Alton", "addr:state": "Hampshire", "addr:postcode": "GU34 2PZ", "addr:country": "GB", "name": "Alton, Waitrose", "phone": "01420 541063", "website": "https://www.johnsoncleaners.com/branch/alton-waitrose", "brand": "Johnson Cleaners", "brand:wikidata": "Q6268527", "nsi_id": "johnsons-a4fd49"}, "geometry": {"type": "Point", "coordinates": [-0.967972994, 51.15253067]}},
{"type": "Feature", "id": "Gf5dAwgIWeZwb20OKhfL-mOOWLQ=", "properties": {"ref": "59", "@spider": "johnsoncleaners_gb", "shop": "dry_cleaning", "addr:street_address": "8 Market Street", "addr:city": "Alnwick", "addr:state": "Northumberland", "addr:postcode": "NE66 1TL", "addr:country": "GB", "name": "Alnwick", "phone": "0166 560 2307", "website": "https://www.johnsoncleaners.com/branch/alnwick", "brand": "Johnson Cleaners", "brand:wikidata": "Q6268527", "nsi_id": "johnsons-a4fd49"}, "geometry": {"type": "Point", "coordinates": [-1.706500053, 55.41334152]}},
{"type": "Feature", "id": "NNB0iiHVko0T_ez3YiDaX6CUatU=", "properties": {"ref": "44", "@spider": "johnsoncleaners_gb", "shop": "dry_cleaning", "addr:street_address": "The Parade London Rd", "addr:city": "Alderley Edge", "addr:postcode": "SK9 7JX", "addr:country": "GB", "name": "Alderley Edge, Waitrose", "phone": "01625 590 742", "website": "https://www.johnsoncleaners.com/branch/alderley-edge-waitrose", "brand": "Johnson Cleaners", "brand:wikidata": "Q6268527", "nsi_id": "johnsons-a4fd49"}, "geometry": {"type": "Point", "coordinates": [-2.23625493, 53.30237961]}},
{"type": "Feature", "id": "fKSDSK5FRGs6LTILZ1ZKLPULhJw=", "properties": {"ref": "27", "@spider": "johnsoncleaners_gb", "shop": "dry_cleaning", "addr:street_address": "Abbey Close", "addr:city": "Abingdon", "addr:state": "Oxfordshire", "addr:postcode": "OX14 3HL", "addr:country": "GB", "name": "Abingdon, Waitrose", "phone": "01235 535003", "website": "https://www.johnsoncleaners.com/branch/abingdon-waitrose", "brand": "Johnson Cleaners", "brand:wikidata": "Q6268527", "nsi_id": "johnsons-a4fd49"}, "geometry": {"type": "Point", "coordinates": [-1.279690027, 51.67208099]}},
{"type": "Feature", "id": "kQ_bYM8JaAprdejlepY48KPA_oY=", "properties": {"ref": "19", "@spider": "johnsoncleaners_gb", "shop": "dry_cleaning", "addr:street_address": "Merthyr Road, Llanfoist", "addr:city": "Abergavenny", "addr:state": "Gwent", "addr:postcode": "NP7 9LL", "addr:country": "GB", "name": "Abergavenny, Waitrose", "phone": "01873 851184", "website": "https://www.johnsoncleaners.com/branch/abergavenny-waitrose", "brand": "Johnson Cleaners", "brand:wikidata": "Q6268527", "nsi_id": "johnsons-a4fd49"}, "geometry": {"type": "Point", "coordinates": [-3.028266907, 51.81827164]}},
{"type": "Feature", "id": "xVwzJbm49l0OpQCunJZxdiyHJI0=", "properties": {"ref": "16", "@spider": "johnsoncleaners_gb", "shop": "dry_cleaning", "addr:street_address": "478 Union Street", "addr:city": "Aberdeen", "addr:postcode": "AB10 1TS", "addr:country": "GB", "name": "Aberdeen, Union Street", "phone": "01224 625701", "website": "https://www.johnsoncleaners.com/branch/aberdeen-union-street", "brand": "Johnson Cleaners", "brand:wikidata": "Q6268527", "nsi_id": "johnsons-a4fd49"}, "geometry": {"type": "Point", "coordinates": [-2.111522913, 57.14321899]}},
{"type": "Feature", "id": "hIpsigyd0QybvllsnkJLG6wQqP4=", "properties": {"ref": "11", "@spider": "johnsoncleaners_gb", "shop": "dry_cleaning", "addr:street_address": "Berryden Retail Park, Berryden Road", "addr:city": "Aberdeen", "addr:state": "Aberdeenshire", "addr:postcode": "AB25 3SG", "addr:country": "GB", "name": "Aberdeen, Sainsbury's Berryden Road", "phone": "01224 626572", "website": "https://www.johnsoncleaners.com/branch/aberdeen-sainsburys-berryden-road", "brand": "Johnson Cleaners", "brand:wikidata": "Q6268527", "nsi_id": "johnsons-a4fd49"}, "geometry": {"type": "Point", "coordinates": [-2.113979, 57.155003]}}]}