{"type":"FeatureCollection","features":[{"type": "Feature", "id": "pqhH9SvVKX5as0bZSovXkl1MO7Q=", "properties": {"ref": "https://www.juiceland.com/locations/third-shoal/", "@spider": "juiceland", "addr:full": "607 W 3rd Street Suite 115", "addr:city": "Austin", "addr:state": "Texas", "addr:postcode": "78701", "addr:country": "US", "name": "Third + Shoal", "phone": "512-356-9348", "website": "https://www.juiceland.com/locations/third-shoal/", "opening_hours": "Mo-Fr 07:00-21:00; Su 07:00-21:00,08:00-21:00", "brand": "JuiceLand"}, "geometry": {"type": "Point", "coordinates": [-97.750074, 30.266762]}},
{"type": "Feature", "id": "cy6RCaCG0Z2qq6jAcaLG9rXc3No=", "properties": {"ref": "https://www.juiceland.com/locations/southwest-parkway-with-little-city-coffee/", "@spider": "juiceland", "addr:full": "5030 W US 290 Hwy Service Road Bldg 11", "addr:city": "Austin", "addr:state": "TX", "addr:postcode": "78735", "addr:country": "US", "name": "Southwest Parkway + Mopac | Little City Coffee", "phone": "(737) 400-4322", "website": "https://www.juiceland.com/locations/southwest-parkway-with-little-city-coffee/", "opening_hours": "Mo-Fr 07:00-21:00; Su 07:00-21:00,08:00-21:00", "brand": "JuiceLand"}, "geometry": {"type": "Point", "coordinates": [-97.821767, 30.236138]}},
{"type": "Feature", "id": "0NQjCGVCn_uxYWR4sJwii9raJ8g=", "properties": {"ref": "https://www.juiceland.com/locations/round-rock/", "@spider": "juiceland", "addr:full": "2800 S I-35 Frontage Rd", "addr:city": "Round Rock", "addr:state": "TX", "addr:postcode": "78681", "addr:country": "US", "name": "Round Rock", "website": "https://www.juiceland.com/locations/round-rock/", "opening_hours": "Su 08:00-21:00", "brand": "JuiceLand"}, "geometry": {"type": "Point", "coordinates": [-97.676944, 30.481766]}},
{"type": "Feature", "id": "CgCkqwko7HHbFRECSZv1IwW25yQ=", "properties": {"ref": "https://www.juiceland.com/locations/south-first/", "@spider": "juiceland", "addr:full": "2210 South 1st Street #1", "addr:city": "Austin", "addr:state": "Texas", "addr:postcode": "78704", "addr:country": "US", "name": "South First", "phone": "512-383-8399", "website": "https://www.juiceland.com/locations/south-first/", "opening_hours": "Mo-Fr 07:00-21:00; Su 07:00-21:00,08:00-21:00", "brand": "JuiceLand"}, "geometry": {"type": "Point", "coordinates": [-97.758605, 30.243995]}},
{"type": "Feature", "id": "AHzBr4oJCfKdbnKZXkRoB5tjXzg=", "properties": {"ref": "https://www.juiceland.com/locations/saltillo-plaza/", "@spider": "juiceland", "addr:full": "1109 E. 5th Street Suite 110", "addr:city": "Austin", "addr:state": "Texas", "addr:postcode": "78702", "addr:country": "US", "name": "Saltillo Plaza", "phone": "512-579-0521", "website": "https://www.juiceland.com/locations/saltillo-plaza/", "opening_hours": "Mo-Fr 07:00-21:00; Su 07:00-21:00,08:00-21:00", "brand": "JuiceLand"}, "geometry": {"type": "Point", "coordinates": [-97.73165, 30.263221]}},
{"type": "Feature", "id": "96eQeQVBttMMNkmcSMAwNDcTMko=", "properties": {"ref": "https://www.juiceland.com/locations/parmer-mcneil/", "@spider": "juiceland", "addr:full": "6301 West Parmer Lane #104", "addr:city": "Austin", "addr:state": "Texas", "addr:postcode": "78729", "addr:country": "US", "name": "Parmer McNeil", "phone": "512-249-0956", "website": "https://www.juiceland.com/locations/parmer-mcneil/", "opening_hours": "Mo-Fr 07:00-21:00; Su 07:00-21:00,08:00-21:00", "brand": "JuiceLand"}, "geometry": {"type": "Point", "coordinates": [-97.744047, 30.445163]}},
{"type": "Feature", "id": "J9G1cmYf6LrMAtR4Mip2ipoYY2U=", "properties": {"ref": "https://www.juiceland.com/locations/oak-hill/", "@spider": "juiceland", "addr:full": "6705 US-290 Ste 610", "addr:city": "Austin", "addr:state": "Texas", "addr:postcode": "78735", "addr:country": "US", "name": "Oak Hill", "phone": "512-865-7081", "website": "https://www.juiceland.com/locations/oak-hill/", "opening_hours": "Mo-Fr 07:00-21:00; Su 07:00-21:00,08:00-21:00", "brand": "JuiceLand"}, "geometry": {"type": "Point", "coordinates": [-97.866013, 30.233562]}},
{"type": "Feature", "id": "ynX3hFoytPnNd-777VM_LLP2qF8=", "properties": {"ref": "https://www.juiceland.com/locations/mueller/", "@spider": "juiceland", "addr:full": "1801 E 51st Building A, Suite 140", "addr:city": "Austin", "addr:state": "Texas", "addr:postcode": "78723", "addr:country": "US", "name": "Mueller", "phone": "512-494-5899", "website": "https://www.juiceland.com/locations/mueller/", "opening_hours": "Mo-Fr 07:00-21:00; Su 07:00-21:00,08:00-21:00", "brand": "JuiceLand"}, "geometry": {"type": "Point", "coordinates": [-97.699245, 30.301739]}},
{"type": "Feature", "id": "qQyoZ6lMsSoq4JXsbdrIDxxMdC0=", "properties": {"ref": "https://www.juiceland.com/locations/mlk-chicon/", "@spider": "juiceland", "addr:full": "1900-A East Martin Luther King Junior Boulevard", "addr:city": "Austin", "addr:state": "Texas", "addr:postcode": "78722", "addr:country": "US", "name": "MLK & Chicon", "phone": "512-519-9806", "website": "https://www.juiceland.com/locations/mlk-chicon/", "opening_hours": "Mo-Fr 07:00-21:00; Su 07:00-21:00,08:00-21:00", "brand": "JuiceLand"}, "geometry": {"type": "Point", "coordinates": [-97.721048, 30.280123]}},
{"type": "Feature", "id": "Ow-B701AIrXO9rPlMuCZINPaqJk=", "properties": {"ref": "https://www.juiceland.com/locations/juiceland-lakeway/", "@spider": "juiceland", "addr:full": "2422 Ranch Road 620 South A114", "addr:city": "Austin", "addr:state": "Texas", "addr:postcode": "78738", "addr:country": "US", "name": "Lakeway", "phone": "512-284-9044", "website": "https://www.juiceland.com/locations/juiceland-lakeway/", "opening_hours": "Mo-Fr 07:00-20:00; Su 07:00-20:00,08:00-20:00", "brand": "JuiceLand"}, "geometry": {"type": "Point", "coordinates": [-97.96558, 30.32913]}},
{"type": "Feature", "id": "tgahPWS9PfGuPFaQ5dSYnD1N93c=", "properties": {"ref": "https://www.juiceland.com/locations/lake-austin-blvd/", "@spider": "juiceland", "addr:full": "2307 Lake Austin Boulevard", "addr:city": "Austin", "addr:state": "Texas", "addr:postcode": "78703", "addr:country": "US", "name": "Lake Austin Blvd", "phone": "512-628-0782", "website": "https://www.juiceland.com/locations/lake-austin-blvd/", "opening_hours": "Mo-Fr 07:00-21:00; Su 07:00-21:00,08:00-21:00", "brand": "JuiceLand"}, "geometry": {"type": "Point", "coordinates": [-97.772211, 30.277563]}},
{"type": "Feature", "id": "WAcL25dryYzDLggYmNQKntuH5eE=", "properties": {"ref": "https://www.juiceland.com/locations/e-cesar-chavez/", "@spider": "juiceland", "addr:full": "2601 East Cesar Chavez Street", "addr:city": "Austin", "addr:state": "Texas", "addr:postcode": "78702", "addr:country": "US", "name": "E. Cesar Chavez", "phone": "512-351-8439", "website": "https://www.juiceland.com/locations/e-cesar-chavez/", "opening_hours": "Mo-Fr 07:00-21:00; Su 07:00-21:00,08:00-21:00", "brand": "JuiceLand"}, "geometry": {"type": "Point", "coordinates": [-97.715413, 30.253629]}},
{"type": "Feature", "id": "iAj73Vrf439UxBYilDVsMZeOw8E=", "properties": {"ref": "https://www.juiceland.com/locations/29th-guadalupe/", "@spider": "juiceland", "addr:full": "2828 Guadalupe Street", "addr:city": "Austin", "addr:state": "Texas", "addr:postcode": "78705", "addr:country": "US", "name": "29th & Guadalupe", "phone": "512-494-6905", "website": "https://www.juiceland.com/locations/29th-guadalupe/", "opening_hours": "Mo-Fr 07:00-21:00; Su 07:00-21:00,08:00-21:00", "brand": "JuiceLand"}, "geometry": {"type": "Point", "coordinates": [-97.743145, 30.29515]}},
{"type": "Feature", "id": "N0N54_ziFhj0y-r1v3ewDwPteT8=", "properties": {"ref": "https://www.juiceland.com/locations/45th-duval/", "@spider": "juiceland", "addr:full": "4500 Duval Street", "addr:city": "Austin", "addr:state": "Texas", "addr:postcode": "78751", "addr:country": "US", "name": "Hyde Park", "phone": "512-380-9046", "website": "https://www.juiceland.com/locations/45th-duval/", "opening_hours": "Mo-Fr 07:00-21:00; Su 07:00-21:00,08:00-21:00", "brand": "JuiceLand"}, "geometry": {"type": "Point", "coordinates": [-97.724888, 30.307234]}},
{"type": "Feature", "id": "mF5RCaIaglkyI6E6leo3gO3AqS4=", "properties": {"ref": "https://www.juiceland.com/locations/domain-northside/", "@spider": "juiceland", "addr:full": "3120 Palm Way Suite 114", "addr:city": "Austin", "addr:state": "Texas", "addr:postcode": "78758", "addr:country": "US", "name": "Domain Northside", "phone": "512-291-3409", "website": "https://www.juiceland.com/locations/domain-northside/", "opening_hours": "Mo-Fr 07:00-21:00; Su 07:00-21:00,08:00-21:00", "brand": "JuiceLand"}, "geometry": {"type": "Point", "coordinates": [-97.721377, 30.402977]}},
{"type": "Feature", "id": "_AlWK6pqWx55P5LJuMrj6Gs5mOQ=", "properties": {"ref": "https://www.juiceland.com/locations/cedar-park-365-by-whole-foods/", "@spider": "juiceland", "addr:full": "5001 183A Frontage Road", "addr:city": "Cedar Park", "addr:state": "Texas", "addr:postcode": "78613", "addr:country": "US", "name": "Cedar Park 365 by Whole Foods", "phone": "512-986-7822", "website": "https://www.juiceland.com/locations/cedar-park-365-by-whole-foods/", "opening_hours": "Mo-Fr 08:00-21:00; Su 08:00-21:00,08:00-21:00", "brand": "JuiceLand"}, "geometry": {"type": "Point", "coordinates": [-97.818023, 30.533543]}},
{"type": "Feature", "id": "LPCXxL9GA7Jp_YJQyR_VVqxuHRg=", "properties": {"ref": "https://www.juiceland.com/locations/montrose/", "@spider": "juiceland", "addr:full": "1340 Westheimer Road D", "addr:city": "Houston", "addr:state": "Texas", "addr:postcode": "77006", "addr:country": "US", "name": "Montrose", "phone": "832-487-9914", "website": "https://www.juiceland.com/locations/montrose/", "opening_hours": "Mo-Fr 07:00-21:00; Su 07:00-21:00,08:00-21:00", "brand": "JuiceLand"}, "geometry": {"type": "Point", "coordinates": [-95.395852, 29.743538]}},
{"type": "Feature", "id": "RA6DrKNLYSMaaFNj1WY8V3cBV5s=", "properties": {"ref": "https://www.juiceland.com/locations/kirby/", "@spider": "juiceland", "addr:full": "5310 Kirby Drive #101", "addr:city": "Houston", "addr:state": "Texas", "addr:postcode": "77005", "addr:country": "US", "name": "Kirby", "phone": "832-426-4401", "website": "https://www.juiceland.com/locations/kirby/", "opening_hours": "Mo-Fr 07:00-21:00; Su 07:00-21:00,08:00-21:00", "brand": "JuiceLand"}, "geometry": {"type": "Point", "coordinates": [-95.419033, 29.72482]}},
{"type": "Feature", "id": "m_kw2AnUnF0OYzCdPvN3-Rxbczk=", "properties": {"ref": "https://www.juiceland.com/locations/the-heights/", "@spider": "juiceland", "addr:full": "3206 White Oak Drive", "addr:city": "Houston", "addr:state": "Texas", "addr:postcode": "77007", "addr:country": "US", "name": "The Heights", "phone": "832-433-7831", "website": "https://www.juiceland.com/locations/the-heights/", "opening_hours": "Mo-Fr 07:00-21:00; Su 07:00-21:00,08:00-21:00", "brand": "JuiceLand"}, "geometry": {"type": "Point", "coordinates": [-95.39223, 29.781781]}},
{"type": "Feature", "id": "htD9w1mZPUh0oiCdR_8ASy2a-WM=", "properties": {"ref": "https://www.juiceland.com/locations/bellaire/", "@spider": "juiceland", "addr:full": "5103 Bellaire Blvd Ste 135", "addr:city": "Bellaire", "addr:state": "TX", "addr:postcode": "77401", "addr:country": "US", "name": "Bellaire", "phone": "713-364-1059", "website": "https://www.juiceland.com/locations/bellaire/", "opening_hours": "Mo-Fr 07:00-19:00; Su 07:00-19:00,08:00-19:00", "brand": "JuiceLand"}, "geometry": {"type": "Point", "coordinates": [-95.46817, 29.705097]}},
{"type": "Feature", "id": "EBXGe2H0gnAwckjiII39SF-l5MA=", "properties": {"ref": "https://www.juiceland.com/locations/sylvan-30/", "@spider": "juiceland", "addr:full": "1888 Sylvan Avenue F150", "addr:city": "Dallas", "addr:state": "Texas", "addr:postcode": "75208", "addr:country": "US", "name": "Sylvan 30", "phone": "214-760-4828", "website": "https://www.juiceland.com/locations/sylvan-30/", "opening_hours": "Mo-Fr 07:00-21:00; Su 07:00-21:00,08:00-21:00", "brand": "JuiceLand"}, "geometry": {"type": "Point", "coordinates": [-96.835518, 32.769606]}},
{"type": "Feature", "id": "4SgaErd_j-C6KDM_3WgjuISaizM=", "properties": {"ref": "https://www.juiceland.com/locations/mckinney-avenue/", "@spider": "juiceland", "addr:full": "2633 McKinney Avenue", "addr:city": "Dallas", "addr:state": "Texas", "addr:postcode": "75204", "addr:country": "US", "name": "Mckinney Avenue", "phone": "214-466-8586", "website": "https://www.juiceland.com/locations/mckinney-avenue/", "opening_hours": "Mo-Fr 07:00-21:00; Su 07:00-21:00,08:00-21:00", "brand": "JuiceLand"}, "geometry": {"type": "Point", "coordinates": [-96.801819, 32.797464]}},
{"type": "Feature", "id": "73hj3KGSJrda-eppbW_USV5Swgo=", "properties": {"ref": "https://www.juiceland.com/locations/lovers-inwood/", "@spider": "juiceland", "addr:full": "5600 West Lovers Lane #114", "addr:city": "Dallas", "addr:state": "Texas", "addr:postcode": "75209", "addr:country": "US", "name": "Lovers & Inwood", "phone": "469-317-7879", "website": "https://www.juiceland.com/locations/lovers-inwood/", "opening_hours": "Mo-Fr 07:00-21:00; Su 07:00-21:00,08:00-21:00", "brand": "JuiceLand"}, "geometry": {"type": "Point", "coordinates": [-96.81625, 32.850425]}},
{"type": "Feature", "id": "ma6zj6EwVFoOckYFmQRFVmW5s7Y=", "properties": {"ref": "https://www.juiceland.com/locations/frost-tower/", "@spider": "juiceland", "addr:full": "120 E 4th Street", "addr:city": "Austin", "addr:state": "Texas", "addr:postcode": "78701", "addr:country": "US", "name": "Frost Tower", "phone": "737-300-2120", "website": "https://www.juiceland.com/locations/frost-tower/", "opening_hours": "Mo-Fr 07:00-21:00; Su 07:00-21:00,08:00-21:00", "brand": "JuiceLand"}, "geometry": {"type": "Point", "coordinates": [-97.742381, 30.266022]}},
{"type": "Feature", "id": "63HcPjUTy6P-zCU8gW7Yat4NEYI=", "properties": {"ref": "https://www.juiceland.com/locations/austin-bergstrom/", "@spider": "juiceland", "addr:full": "3600 Presidential Blvd Gate 16", "addr:city": "Austin", "addr:state": "Texas", "addr:postcode": "78719", "addr:country": "US", "name": "Austin Bergstrom", "website": "https://www.juiceland.com/locations/austin-bergstrom/", "opening_hours": "Mo-Fr 05:00-13:00; Su 05:00-13:00,05:00-13:00", "brand": "JuiceLand"}, "geometry": {"type": "Point", "coordinates": [-97.667131, 30.204909]}},
{"type": "Feature", "id": "3cWliuHe01DWI7CfzqEs5c22xQs=", "properties": {"ref": "https://www.juiceland.com/locations/whole-foods-lamar/", "@spider": "juiceland", "addr:full": "525 N Lamar Blvd", "addr:city": "Austin", "addr:state": "Texas", "addr:postcode": "78703", "addr:country": "US", "name": "Whole Foods Lamar", "phone": "512-428-4911", "website": "https://www.juiceland.com/locations/whole-foods-lamar/", "opening_hours": "Mo-Fr 07:00-21:00; Su 07:00-21:00,08:00-21:00", "brand": "JuiceLand"}, "geometry": {"type": "Point", "coordinates": [-97.753176, 30.27055]}},
{"type": "Feature", "id": "fnrYq5a54hiTCf5KCM42UAhbYIo=", "properties": {"ref": "https://www.juiceland.com/locations/westgate-blvd/", "@spider": "juiceland", "addr:full": "4526 West Gate Boulevard A", "addr:city": "Austin", "addr:state": "Texas", "addr:postcode": "78745", "addr:country": "US", "name": "Westgate Blvd", "phone": "512-358-0009", "website": "https://www.juiceland.com/locations/westgate-blvd/", "opening_hours": "Mo-Fr 07:00-21:00; Su 07:00-21:00,08:00-21:00", "brand": "JuiceLand"}, "geometry": {"type": "Point", "coordinates": [-97.80091, 30.231191]}},
{"type": "Feature", "id": "hM9yeUH8wRxf2gqVDxqGhH-ennY=", "properties": {"ref": "https://www.juiceland.com/locations/westlake/", "@spider": "juiceland", "addr:full": "701 South Capital of Texas Highway #580", "addr:city": "Austin", "addr:state": "Texas", "addr:postcode": "78746", "addr:country": "US", "name": "Westlake", "phone": "512-243-5719", "website": "https://www.juiceland.com/locations/westlake/", "opening_hours": "Mo-Fr 07:00-20:00; Su 07:00-20:00,08:00-20:00", "brand": "JuiceLand"}, "geometry": {"type": "Point", "coordinates": [-97.825996, 30.292112]}},
{"type": "Feature", "id": "tK328ngrpCeU9xrsnB3UrDrGiyc=", "properties": {"ref": "https://www.juiceland.com/locations/cedar-park/", "@spider": "juiceland", "addr:full": "12226 Ranch Road 620 North", "addr:city": "Austin", "addr:state": "Texas", "addr:postcode": "78750", "addr:country": "US", "name": "Cedar Park", "phone": "512-436-8095", "website": "https://www.juiceland.com/locations/cedar-park/", "opening_hours": "Mo-Fr 07:00-21:00; Su 07:00-21:00,08:00-21:00", "brand": "JuiceLand"}, "geometry": {"type": "Point", "coordinates": [-97.815611, 30.462738]}},
{"type": "Feature", "id": "-BTiSbnocxz0lDxe0FTGyrLCAfM=", "properties": {"ref": "https://www.juiceland.com/locations/brodie-lane/", "@spider": "juiceland", "addr:full": "9901 Brodie Lane", "addr:city": "Austin", "addr:state": "Texas", "addr:postcode": "78748", "addr:country": "US", "name": "Brodie Lane", "phone": "512-373-8731", "website": "https://www.juiceland.com/locations/brodie-lane/", "opening_hours": "Mo-Fr 07:00-21:00; Su 07:00-21:00,08:00-21:00", "brand": "JuiceLand"}, "geometry": {"type": "Point", "coordinates": [-97.847292, 30.184949]}},
{"type": "Feature", "id": "Z73pm5qjsljcoPr3YV7MIZVhSso=", "properties": {"ref": "https://www.juiceland.com/locations/north-burnet/", "@spider": "juiceland", "addr:full": "7329 Burnet Road", "addr:city": "Austin", "addr:state": "Texas", "addr:postcode": "78757", "addr:country": "US", "name": "Burnet Rd", "phone": "512-524-1129", "website": "https://www.juiceland.com/locations/north-burnet/", "opening_hours": "Mo-Fr 07:00-21:00; Su 07:00-21:00,08:00-21:00", "brand": "JuiceLand"}, "geometry": {"type": "Point", "coordinates": [-97.734668, 30.349028]}},
{"type": "Feature", "id": "5aV1zhlagE88RMEY4gjXllltJuM=", "properties": {"ref": "https://www.juiceland.com/locations/barton-springs/", "@spider": "juiceland", "addr:full": "1625 Barton Springs Road", "addr:city": "Austin", "addr:state": "Texas", "addr:postcode": "78704", "addr:country": "US", "name": "Barton Springs", "phone": "512-480-9501", "website": "https://www.juiceland.com/locations/barton-springs/", "opening_hours": "Mo-Fr 07:00-21:00; Su 07:00-21:00,08:00-21:00", "brand": "JuiceLand"}, "geometry": {"type": "Point", "coordinates": [-97.762519, 30.262425]}},
{"type": "Feature", "id": "XNXbDC88jXwPyJHMuDMT87bGEgs=", "properties": {"ref": "https://www.juiceland.com/locations/balcones/", "@spider": "juiceland", "addr:full": "5521 Balcones Drive", "addr:city": "Austin", "addr:state": "Texas", "addr:postcode": "78731", "addr:country": "US", "name": "Balcones", "phone": "512-514-0310", "website": "https://www.juiceland.com/locations/balcones/", "opening_hours": "Mo-Fr 07:00-20:00; Su 07:00-20:00,08:00-20:00", "brand": "JuiceLand"}, "geometry": {"type": "Point", "coordinates": [-97.757299, 30.336545]}},
{"type": "Feature", "id": "D89fxhEUYWlAgJY6YJNmOZZKozI=", "properties": {"ref": "https://www.juiceland.com/locations/arbor-town-square/", "@spider": "juiceland", "addr:full": "10721 Research Boulevard #100", "addr:city": "Austin", "addr:state": "Texas", "addr:postcode": "78759", "addr:country": "US", "name": "Arbor Town Square", "phone": "512-342-1966", "website": "https://www.juiceland.com/locations/arbor-town-square/", "opening_hours": "Mo-Fr 07:00-21:00; Su 07:00-21:00,08:00-21:00", "brand": "JuiceLand"}, "geometry": {"type": "Point", "coordinates": [-97.744863, 30.39901]}}]}