{"type":"FeatureCollection","features":[{"type": "Feature", "id": "R0wEqGgbfP7JRV3OyLban2J7jYU=", "properties": {"ref": "https://www.google.com/maps/place/7631+W+Layton+Ave/42.958742,-88.009131,17z/data=!3m1!4b1!4m2!3m1!1s0x880511d42be5f0f9:0x792aef5f2c5c56f4", "@spider": "kopps", "addr:full": "7631 W. Layton Ave.", "addr:city": "Greenfield", "addr:state": "WI", "addr:postcode": "53220", "phone": "414-282-4312", "website": "https://www.kopps.com/", "opening_hours": "Su 10:30-22:00", "brand": "Kopp's Frozen Custard", "brand:wikidata": "Q6431150"}, "geometry": {"type": "Point", "coordinates": [-88.009131, 42.958742]}},
{"type": "Feature", "id": "AU_J0RbKjrTklu1d2OFTujSeu6g=", "properties": {"ref": "https://www.google.com/maps/place/Kopp's/43.0082178,-88.0783995,12z/data=!4m9!1m6!2m5!1s18880+W.+Bluemound+Rd.+Brookfield,+WI+53045!3m3!1s18880+W.+Bluemound+Rd.+Brookfield,+WI+53045!2s7631+W+Layton+Ave,+Greenfield,+WI+53220!3s0x880511d42be5f0f9:0x792aef5f2c5c56f4!3m1!1s0x880507a268499457:0x871d13d7dfaeb085", "@spider": "kopps", "addr:full": "18880 W. Bluemound Rd.", "addr:city": "Brookfield", "addr:state": "WI", "addr:postcode": "53045", "phone": "262-789-9490", "website": "https://www.kopps.com/", "opening_hours": "Su-Th 10:30-22:00", "brand": "Kopp's Frozen Custard", "brand:wikidata": "Q6431150"}, "geometry": {"type": "Point", "coordinates": [-88.0783995, 43.0082178]}},
{"type": "Feature", "id": "GeuMb7_2z1OywNiHA0BgtusGPic=", "properties": {"ref": "https://www.google.com/maps/place/Kopp's+Frozen+Custard/43.114633,-87.917161,17z/data=!3m1!4b1!4m2!3m1!1s0x88051e8bad324df5:0x50335c38c555518e", "@spider": "kopps", "addr:full": "5373 N. Port Washington Rd.", "addr:city": "Glendale", "addr:state": "WI", "addr:postcode": "53217", "phone": "414-961-3288", "website": "https://www.kopps.com/", "opening_hours": "Su-Th 10:30-22:00", "brand": "Kopp's Frozen Custard", "brand:wikidata": "Q6431150"}, "geometry": {"type": "Point", "coordinates": [-87.917161, 43.114633]}}]}