{"type":"FeatureCollection","features":[{"type": "Feature", "id": "R8i-oCyuzGPdfYUvyrJj5IArPPk=", "properties": {"ref": "545054", "@spider": "korian_fr", "addr:full": "22 Rue de la Vall\u00e9e", "addr:city": "Dinard", "addr:state": "Bretagne", "addr:postcode": "35800", "addr:country": "FR", "name": "Korian Villa La Baln\u00e9aire", "website": "https://www.korian.fr/maison-retraite/ehpad-korian-villa-la-balneaire-dinard-35800", "brand": "Korian", "brand:wikidata": "Q3198944"}, "geometry": {"type": "Point", "coordinates": [-2.0568035, 48.6320355]}},
{"type": "Feature", "id": "LqLBIdrxgombzi2tMboSh_I2bdY=", "properties": {"ref": "534316", "@spider": "korian_fr", "addr:full": "2 All\u00e9e des Jardins de Sainte-Anne", "addr:city": "Saint-Malo", "addr:state": "Bretagne", "addr:postcode": "35400", "addr:country": "FR", "name": "Korian Le Solidor", "website": "https://www.korian.fr/maison-retraite/ehpad-korian-le-solidor-saint-malo-35400", "brand": "Korian", "brand:wikidata": "Q3198944"}, "geometry": {"type": "Point", "coordinates": [-2.0147188, 48.6321626]}},
{"type": "Feature", "id": "yzenkw3NwSrz3eNFbHEITCVb60M=", "properties": {"ref": "539105", "@spider": "korian_fr", "addr:full": "15 Rue Adrien R\u00e9gent", "addr:city": "Sarzeau", "addr:state": "Bretagne", "addr:postcode": "56370", "addr:country": "FR", "name": "Korian Les Deux Mers", "website": "https://www.korian.fr/maison-retraite/ehpad-korian-les-deux-mers-sarzeau-56370", "brand": "Korian", "brand:wikidata": "Q3198944"}, "geometry": {"type": "Point", "coordinates": [-2.7603898, 47.5282191]}},
{"type": "Feature", "id": "34v__zIY5KzR4ZiCJsntp7WTWd8=", "properties": {"ref": "535169", "@spider": "korian_fr", "addr:full": "13 Chemin C\u00e9lestin Anduze", "addr:city": "Bazi\u00e8ge", "addr:state": "Occitanie", "addr:postcode": "31450", "addr:country": "FR", "name": "Korian Villa Lauragais", "website": "https://www.korian.fr/maison-retraite/ehpad-korian-villa-lauragais-baziege-31450", "brand": "Korian", "brand:wikidata": "Q3198944"}, "geometry": {"type": "Point", "coordinates": [1.6109401, 43.4541874]}},
{"type": "Feature", "id": "7VGzJg1O4MQsf5icT2FfTfxfTSI=", "properties": {"ref": "546737", "@spider": "korian_fr", "addr:full": "46 Avenue Enseigne Albertini", "addr:city": "B\u00e9ziers", "addr:state": "Occitanie", "addr:postcode": "34500", "addr:country": "FR", "name": "Korian Lo Solelh", "website": "https://www.korian.fr/maison-retraite/ehpad-korian-lo-solelh-beziers-34500", "brand": "Korian", "brand:wikidata": "Q3198944"}, "geometry": {"type": "Point", "coordinates": [3.2293006, 43.346392]}},
{"type": "Feature", "id": "HEo6Az6VqBosJCo1AYmnSclJKVo=", "properties": {"ref": "540662", "@spider": "korian_fr", "addr:full": "Rue Diderot", "addr:city": "Bram", "addr:state": "Occitanie", "addr:postcode": "11150", "addr:country": "FR", "name": "Korian Frontenac", "website": "https://www.korian.fr/maison-retraite/ehpad-korian-frontenac-bram-11150", "brand": "Korian", "brand:wikidata": "Q3198944"}, "geometry": {"type": "Point", "coordinates": [2.122601, 43.241213]}},
{"type": "Feature", "id": "tDBRo8nApSYvjYWDVh-tHrbPSiM=", "properties": {"ref": "547596", "@spider": "korian_fr", "addr:full": "Le Bourg", "addr:city": "Cahuzac", "addr:state": "Occitanie", "addr:postcode": "81540", "addr:country": "FR", "name": "Korian Maison d'\u00c9milienne", "website": "https://www.korian.fr/maison-retraite/ehpad-korian-maison-d-emilienne-cahuzac-81540", "brand": "Korian", "brand:wikidata": "Q3198944"}, "geometry": {"type": "Point", "coordinates": [1.904558, 44.7109809]}},
{"type": "Feature", "id": "d3PAcBHWsekC6xlKZih_uZUfKbA=", "properties": {"ref": "544001", "@spider": "korian_fr", "addr:full": "4 Boulevard du Commandant Roumens", "addr:city": "Carcassonne", "addr:state": "Occitanie", "addr:postcode": "11000", "addr:country": "FR", "name": "Korian Le Bastion", "website": "https://www.korian.fr/maison-retraite/ehpad-korian-le-bastion-carcassonne-11000", "brand": "Korian", "brand:wikidata": "Q3198944"}, "geometry": {"type": "Point", "coordinates": [2.3551828, 43.2104728]}},
{"type": "Feature", "id": "cy9kIEMXhJTXyX-asu6m7M_IPFw=", "properties": {"ref": "541521", "@spider": "korian_fr", "addr:full": "1 All\u00e9e des M\u00fbriers", "addr:city": "Castelnau-de-L\u00e9vis", "addr:state": "Occitanie", "addr:postcode": "81150", "addr:country": "FR", "name": "Korian Les Bl\u00e9s d'Or", "website": "https://www.korian.fr/maison-retraite/ehpad-korian-les-bles-d-or-castelnau-de-levis-81150", "brand": "Korian", "brand:wikidata": "Q3198944"}, "geometry": {"type": "Point", "coordinates": [2.0779187000001, 43.93836]}},
{"type": "Feature", "id": "GsZzEmn00DYVmNbuYMLHGzZQtE4=", "properties": {"ref": "539243", "@spider": "korian_fr", "addr:full": "3 Rue de l'Armagnac", "addr:city": "Cast\u00e9ra-Verduzan", "addr:state": "Occitanie", "addr:postcode": "32410", "addr:country": "FR", "name": "Korian Villa Cast\u00e9ra", "website": "https://www.korian.fr/maison-retraite/ehpad-korian-villa-castera-castera-verduzan-32410", "brand": "Korian", "brand:wikidata": "Q3198944"}, "geometry": {"type": "Point", "coordinates": [0.4270376, 43.8062957]}},
{"type": "Feature", "id": "evHgYm6ix92Lltj43vocPyVLT6c=", "properties": {"ref": "574670", "@spider": "korian_fr", "addr:full": "9 rue du Cousin\u00e9", "addr:city": "Cazaubon", "addr:state": "Occitanie", "addr:postcode": "32150", "addr:country": "FR", "name": "Korian Le Clos d'Armagnac", "website": "https://www.korian.fr/maison-retraite/ehpad-korian-le-clos-d-armagnac-cazaubon-32150", "brand": "Korian", "brand:wikidata": "Q3198944"}, "geometry": {"type": "Point", "coordinates": [-0.0657348, 43.93574]}},
{"type": "Feature", "id": "aPhu4kedTs767L0eJdnPeTlryoQ=", "properties": {"ref": "540305", "@spider": "korian_fr", "addr:full": "18 Rue des Fauvettes", "addr:city": "Gigean", "addr:state": "Occitanie", "addr:postcode": "34770", "addr:country": "FR", "name": "Korian La Colombe", "website": "https://www.korian.fr/maison-retraite/ehpad-korian-la-colombe-gigean-34770", "brand": "Korian", "brand:wikidata": "Q3198944"}, "geometry": {"type": "Point", "coordinates": [3.7103995, 43.5039523]}},
{"type": "Feature", "id": "i6OCoSODUMI852XvWiPjCN52MEs=", "properties": {"ref": "732511", "@spider": "korian_fr", "addr:full": "230 Chemin de la Ch\u00eaneraie", "addr:city": "Lherm", "addr:state": "Occitanie", "addr:postcode": "31600", "addr:country": "FR", "name": "Korian La Ch\u00eaneraie", "website": "https://www.korian.fr/maison-retraite/ehpad-korian-la-cheneraie-lherm-31600", "brand": "Korian", "brand:wikidata": "Q3198944"}, "geometry": {"type": "Point", "coordinates": [1.2258023, 43.4294841]}},
{"type": "Feature", "id": "IYd5YdRCSJ2LhSL8BfGLbuFpzMM=", "properties": {"ref": "544971", "@spider": "korian_fr", "addr:full": "Place Denfert Rochereau", "addr:city": "Lunel", "addr:state": "Occitanie", "addr:postcode": "34400", "addr:country": "FR", "name": "Korian Les Meuni\u00e8res", "website": "https://www.korian.fr/maison-retraite/ehpad-korian-les-meunieres-lunel-34400", "brand": "Korian", "brand:wikidata": "Q3198944"}, "geometry": {"type": "Point", "coordinates": [4.13812, 43.6756917]}},
{"type": "Feature", "id": "1u7iQx_ttk61veCHIX8M-EzuXlE=", "properties": {"ref": "541676", "@spider": "korian_fr", "addr:full": "14 impasse de roncevaux", "addr:city": "L'Union", "addr:state": "Occitanie", "addr:postcode": "31240", "addr:country": "FR", "name": "Korian Grand Maison", "website": "https://www.korian.fr/maison-retraite/ehpad-korian-grand-maison-l-union-31240", "brand": "Korian", "brand:wikidata": "Q3198944"}, "geometry": {"type": "Point", "coordinates": [1.4795498, 43.6527575]}},
{"type": "Feature", "id": "IEde8acEzktOfd8oAKMm5orSERc=", "properties": {"ref": "543788", "@spider": "korian_fr", "addr:full": "Chemin du Tr\u00e9moul", "addr:city": "Maz\u00e8res", "addr:state": "Occitanie", "addr:postcode": "09270", "addr:country": "FR", "name": "Korian Gaston de Foix", "website": "https://www.korian.fr/maison-retraite/ehpad-korian-gaston-de-foix-mazeres-09270", "brand": "Korian", "brand:wikidata": "Q3198944"}, "geometry": {"type": "Point", "coordinates": [1.6714516, 43.253017]}},
{"type": "Feature", "id": "yp1AvUiRjoCE4YbYsp6VXaYmj5o=", "properties": {"ref": "540703", "@spider": "korian_fr", "addr:full": "662 Avenue de la Pompignane", "addr:city": "Montpellier", "addr:state": "Occitanie", "addr:postcode": "34000", "addr:country": "FR", "name": "Korian La Pompignane", "website": "https://www.korian.fr/maison-retraite/ehpad-korian-la-pompignane-montpellier-34000", "brand": "Korian", "brand:wikidata": "Q3198944"}, "geometry": {"type": "Point", "coordinates": [3.8991922, 43.6116761]}},
{"type": "Feature", "id": "09_pv8qMrZ72y8nBFR5-ZOqiyWk=", "properties": {"ref": "538493", "@spider": "korian_fr", "addr:full": "35 Rue Emile Eudes", "addr:city": "Narbonne", "addr:state": "Occitanie", "addr:postcode": "11100", "addr:country": "FR", "name": "Korian Les Pins Verts", "website": "https://www.korian.fr/maison-retraite/ehpad-korian-les-pins-verts-narbonne-11100", "brand": "Korian", "brand:wikidata": "Q3198944"}, "geometry": {"type": "Point", "coordinates": [2.9835716, 43.1832106]}},
{"type": "Feature", "id": "0m5B_lVdwTbL8RB-TTFMccJmiX8=", "properties": {"ref": "541845", "@spider": "korian_fr", "addr:full": "22 Avenue des Constellations", "addr:city": "Narbonne", "addr:state": "Occitanie", "addr:postcode": "11100", "addr:country": "FR", "name": "Korian le Clos de L\u2019Orchid\u00e9e", "website": "https://www.korian.fr/maison-retraite/ehpad-korian-le-clos-de-lorchidee-narbonne-11000", "brand": "Korian", "brand:wikidata": "Q3198944"}, "geometry": {"type": "Point", "coordinates": [2.9707002, 43.1457319]}},
{"type": "Feature", "id": "8JLWj56euA3vokZCNVzj7BbOJyE=", "properties": {"ref": "535967", "@spider": "korian_fr", "addr:full": "17 Chemin du Puits de Louiset", "addr:city": "N\u00eemes", "addr:state": "Occitanie", "addr:postcode": "30900", "addr:country": "FR", "name": "Korian Mas de Lauze", "website": "https://www.korian.fr/maison-retraite/ehpad-korian-mas-de-lauze-nimes-30900", "brand": "Korian", "brand:wikidata": "Q3198944"}, "geometry": {"type": "Point", "coordinates": [4.3177085, 43.8274764]}},
{"type": "Feature", "id": "Hz_X0awgsQzct3DVnNtMdlDs-qA=", "properties": {"ref": "547097", "@spider": "korian_fr", "addr:full": "18 Cours Lazare Escarguel", "addr:city": "Perpignan", "addr:state": "Occitanie", "addr:postcode": "66000", "addr:country": "FR", "name": "Korian Catalogne", "website": "https://www.korian.fr/maison-retraite/ehpad-korian-catalogne-perpignan-66000", "brand": "Korian", "brand:wikidata": "Q3198944"}, "geometry": {"type": "Point", "coordinates": [2.8868987, 42.6989951]}},
{"type": "Feature", "id": "xwTBhZ5y3KBsCSb0Quftgzq8Fm8=", "properties": {"ref": "545800", "@spider": "korian_fr", "addr:full": "260 Route de Toulouse", "addr:city": "Pin-Balma", "addr:state": "Occitanie", "addr:postcode": "31130", "addr:country": "FR", "name": "Korian La Seillonne", "website": "https://www.korian.fr/maison-retraite/ehpad-korian-la-seillone-pin-balma-31130", "brand": "Korian", "brand:wikidata": "Q3198944"}, "geometry": {"type": "Point", "coordinates": [1.5471854, 43.6259819]}},
{"type": "Feature", "id": "319WSv7iBsOJoco-iApP0VuIGoE=", "properties": {"ref": "637607", "@spider": "korian_fr", "addr:full": "7 Chemin du Louradou", "addr:city": "Rouffiac-Tolosan", "addr:state": "Occitanie", "addr:postcode": "31180", "addr:country": "FR", "name": "Korian La Ch\u00eanaie", "website": "https://www.korian.fr/maison-retraite/ehpad-korian-la-chenaie-rouffiac-tolosan-31180", "brand": "Korian", "brand:wikidata": "Q3198944"}, "geometry": {"type": "Point", "coordinates": [1.5124931, 43.6707426]}},
{"type": "Feature", "id": "zGR-hBVVsb10de7LtWByFxb-bBA=", "properties": {"ref": "537876", "@spider": "korian_fr", "addr:full": "455 Rue du Devois", "addr:city": "Saint-G\u00e9ly-du-Fesc", "addr:state": "Occitanie", "addr:postcode": "34980", "addr:country": "FR", "name": "Korian Les Gardioles", "website": "https://www.korian.fr/maison-retraite/ehpad-korian-les-gardioles-st-gely-du-fesc-34980", "brand": "Korian", "brand:wikidata": "Q3198944"}, "geometry": {"type": "Point", "coordinates": [3.8108589, 43.6917746]}},
{"type": "Feature", "id": "LJmMtY2pt-WjuhPji9WUJ08fgpw=", "properties": {"ref": "537913", "@spider": "korian_fr", "addr:full": "7 Avenue du Grand Vignemale", "addr:city": "Saint-Sulpice-sur-L\u00e8ze", "addr:state": "Occitanie", "addr:postcode": "31410", "addr:country": "FR", "name": "Korian Coteaux de la L\u00e8ze", "website": "https://www.korian.fr/maison-retraite/ehpad-korian-coteaux-de-la-leze-saint-sulpice-sur-leze-31410", "brand": "Korian", "brand:wikidata": "Q3198944"}, "geometry": {"type": "Point", "coordinates": [1.3205906000001, 43.3258227]}},
{"type": "Feature", "id": "m7VEf2_BtQQK2QIDWNnr73EBEPg=", "properties": {"ref": "547853", "@spider": "korian_fr", "addr:full": "32 Boulevard du G\u00e9n de Gaulle", "addr:city": "S\u00e9rignan", "addr:state": "Occitanie", "addr:postcode": "34410", "addr:country": "FR", "name": "Korian Les Tamaris", "website": "https://www.korian.fr/maison-retraite/ehpad-korian-les-tamaris-serignan-34410", "brand": "Korian", "brand:wikidata": "Q3198944"}, "geometry": {"type": "Point", "coordinates": [3.2716046, 43.2712388]}},
{"type": "Feature", "id": "-0lxkRsZQXsAqDbAUUUVn0xosH8=", "properties": {"ref": "548373", "@spider": "korian_fr", "addr:full": "10 Rue Jean Larcher", "addr:city": "Tarbes", "addr:state": "Occitanie", "addr:postcode": "65000", "addr:country": "FR", "name": "Korian Le Carmel", "website": "https://www.korian.fr/maison-retraite/ehpad-korian-le-carmel-tarbes-65000", "brand": "Korian", "brand:wikidata": "Q3198944"}, "geometry": {"type": "Point", "coordinates": [0.075129599999968, 43.2355941]}},
{"type": "Feature", "id": "d7hy84D6lWg-RFyVsBIPK5OmmYo=", "properties": {"ref": "539506", "@spider": "korian_fr", "addr:full": "3 Rue Xavier Darasse", "addr:city": "Toulouse", "addr:state": "Occitanie", "addr:postcode": "31500", "addr:country": "FR", "name": "Korian La C\u00f4te Pav\u00e9e", "website": "https://www.korian.fr/maison-retraite/ehpad-korian-la-cote-pavee-toulouse-31500", "brand": "Korian", "brand:wikidata": "Q3198944"}, "geometry": {"type": "Point", "coordinates": [1.4795435, 43.5908469]}},
{"type": "Feature", "id": "5Zdlg6wBB6sjKPZGB1qOlTIFfpI=", "properties": {"ref": "535127", "@spider": "korian_fr", "addr:full": "4 Rue Philippe le Bel", "addr:city": "Andilly", "addr:state": "\u00cele-de-France", "addr:postcode": "95580", "addr:country": "FR", "name": "Korian Hauts d'Andilly", "website": "https://www.korian.fr/maison-retraite/ehpad-korian-hauts-d-andilly-andilly-95580", "brand": "Korian", "brand:wikidata": "Q3198944"}, "geometry": {"type": "Point", "coordinates": [2.2992786, 49.00381]}},
{"type": "Feature", "id": "tLvAqkTvkDW16DgGXTY43A04_jE=", "properties": {"ref": "535237", "@spider": "korian_fr", "addr:full": "108 Avenue Aristide Briand", "addr:city": "Antony", "addr:state": "\u00cele-de-France", "addr:postcode": "92160", "addr:country": "FR", "name": "Korian Florian Carnot", "website": "https://www.korian.fr/maison-retraite/ehpad-korian-florian-carnot-antony-92160", "brand": "Korian", "brand:wikidata": "Q3198944"}, "geometry": {"type": "Point", "coordinates": [2.3078371, 48.7593006]}},
{"type": "Feature", "id": "ZwY6hG44qrdD9aX8bTpsbuTcbfI=", "properties": {"ref": "535928", "@spider": "korian_fr", "addr:full": "11 Rue Jean Bouin", "addr:city": "Argenteuil", "addr:state": "\u00cele-de-France", "addr:postcode": "95100", "addr:country": "FR", "name": "Korian Le Cottage", "website": "https://www.korian.fr/maison-retraite/ehpad-korian-le-cottage-argenteuil-95100", "brand": "Korian", "brand:wikidata": "Q3198944"}, "geometry": {"type": "Point", "coordinates": [2.2305588, 48.9404635]}},
{"type": "Feature", "id": "3rKuohX4aAyYBy-5GNfWOdXC4N4=", "properties": {"ref": "544746", "@spider": "korian_fr", "addr:full": "2 Rue des Mathurins", "addr:city": "Bagneux", "addr:state": "\u00cele-de-France", "addr:postcode": "92220", "addr:country": "FR", "name": "Korian Les Mathurins", "website": "https://www.korian.fr/maison-retraite/ehpad-korian-les-mathurins-bagneux-92220", "brand": "Korian", "brand:wikidata": "Q3198944"}, "geometry": {"type": "Point", "coordinates": [2.3060675, 48.7938277]}},
{"type": "Feature", "id": "zbzsfu-2nRimbCE0lp_A1rjzW88=", "properties": {"ref": "548160", "@spider": "korian_fr", "addr:full": "5 Rue Ren\u00e9 Char", "addr:city": "Bondy", "addr:state": "\u00cele-de-France", "addr:postcode": "93140", "addr:country": "FR", "name": "Korian Bonisiaca", "website": "https://www.korian.fr/maison-retraite/ehpad-korian-bonisiaca-bondy-93140", "brand": "Korian", "brand:wikidata": "Q3198944"}, "geometry": {"type": "Point", "coordinates": [2.4878425, 48.8902428]}},
{"type": "Feature", "id": "F3zEHL5CwAo05OWfcydGn1jRKPI=", "properties": {"ref": "536620", "@spider": "korian_fr", "addr:full": "1 Rue de la Guyonnerie", "addr:city": "Bures-sur-Yvette", "addr:state": "\u00cele-de-France", "addr:postcode": "91440", "addr:country": "FR", "name": "Korian Coteaux de l'Yvette", "website": "https://www.korian.fr/maison-retraite/ehpad-korian-coteaux-de-l-yvette-bures-sur-yvette-91440", "brand": "Korian", "brand:wikidata": "Q3198944"}, "geometry": {"type": "Point", "coordinates": [2.1649681, 48.7042806]}},
{"type": "Feature", "id": "T2_6Zkk4OTFRGZepJcbVlgk78sA=", "properties": {"ref": "545435", "@spider": "korian_fr", "addr:full": "2 Rue des Airelles", "addr:city": "Cesson", "addr:state": "\u00cele-de-France", "addr:postcode": "77240", "addr:country": "FR", "name": "Korian Parc aux Ch\u00eanes", "website": "https://www.korian.fr/maison-retraite/ehpad-korian-parc-aux-chenes-cesson-77240", "brand": "Korian", "brand:wikidata": "Q3198944"}, "geometry": {"type": "Point", "coordinates": [2.5966421000001, 48.5590641]}},
{"type": "Feature", "id": "jrHT7PtBa_LjuXlBrrMtkyBw2mk=", "properties": {"ref": "537466", "@spider": "korian_fr", "addr:full": "26 Rue du Vivier", "addr:city": "Champcueil", "addr:state": "\u00cele-de-France", "addr:postcode": "91750", "addr:country": "FR", "name": "Korian Jardins de Serena", "website": "https://www.korian.fr/maison-retraite/ehpad-korian-jardins-de-serena-champcueil-91750", "brand": "Korian", "brand:wikidata": "Q3198944"}, "geometry": {"type": "Point", "coordinates": [2.4468621, 48.5184097]}},
{"type": "Feature", "id": "hkFKGRZYKwXqIUHnRD_ojMAUQjk=", "properties": {"ref": "539576", "@spider": "korian_fr", "addr:full": "17 Avenue de la Division Leclerc", "addr:city": "Ch\u00e2tillon", "addr:state": "\u00cele-de-France", "addr:postcode": "92320", "addr:country": "FR", "name": "Korian Castel Voltaire", "website": "https://www.korian.fr/maison-retraite/ehpad-korian-castel-voltaire-chatillon-92320", "brand": "Korian", "brand:wikidata": "Q3198944"}, "geometry": {"type": "Point", "coordinates": [2.2838808, 48.7985778]}},
{"type": "Feature", "id": "w8oQqQvReCgKZzR624JZGPXPy-4=", "properties": {"ref": "534827", "@spider": "korian_fr", "addr:full": "7 Square Claude Debussy", "addr:city": "Chatou", "addr:state": "\u00cele-de-France", "addr:postcode": "78400", "addr:country": "FR", "name": "Korian Mandoline", "website": "https://www.korian.fr/maison-retraite/ehpad-korian-mandoline-chatou-78400", "brand": "Korian", "brand:wikidata": "Q3198944"}, "geometry": {"type": "Point", "coordinates": [2.1489557, 48.8970537]}},
{"type": "Feature", "id": "VEsDGox194Wx5e-USuCEWks-UZ0=", "properties": {"ref": "539896", "@spider": "korian_fr", "addr:full": "Chemin de la Huni\u00e8re ", "addr:city": "Clairefontaines-en-Yvelines", "addr:state": "\u00cele-de-France", "addr:postcode": "78120 ", "addr:country": "FR", "name": "Korian Clairefontaine", "website": "https://www.korian.fr/maison-retraite/ehpad-korian-clairefontaine-clairefontaine-en-yvelines-78120", "brand": "Korian", "brand:wikidata": "Q3198944"}, "geometry": {"type": "Point", "coordinates": [1.9012405999999, 48.6122198]}},
{"type": "Feature", "id": "ri-b2HdSH2iKCDeDCRuG6K9a0qo=", "properties": {"ref": "535307", "@spider": "korian_fr", "addr:full": "104 Avenue Henri Barbusse", "addr:city": "Clamart", "addr:state": "\u00cele-de-France", "addr:postcode": "92140", "addr:country": "FR", "name": "Korian Bel Air", "website": "https://www.korian.fr/maison-retraite/ehpad-korian-bel-air-clamart-92140", "brand": "Korian", "brand:wikidata": "Q3198944"}, "geometry": {"type": "Point", "coordinates": [2.2584383999999, 48.8132087]}},
{"type": "Feature", "id": "P1XWOeFVhUpVZr2ZMIPSWpOnVYg=", "properties": {"ref": "545089", "@spider": "korian_fr", "addr:full": "8 Rue de Mantes", "addr:city": "Colombes", "addr:state": "\u00cele-de-France", "addr:postcode": "92700", "addr:country": "FR", "name": "Korian L'Imp\u00e9rial", "website": "https://www.korian.fr/maison-retraite/ehpad-korian-l-imperial-colombes-92700", "brand": "Korian", "brand:wikidata": "Q3198944"}, "geometry": {"type": "Point", "coordinates": [2.2331295, 48.9092431]}},
{"type": "Feature", "id": "I7xEkTVgsftVliFXHuWmcOsp52A=", "properties": {"ref": "543189", "@spider": "korian_fr", "addr:full": "5-7 Rue du Limonet", "addr:city": "Dampmart", "addr:state": "\u00cele-de-France", "addr:postcode": "77400", "addr:country": "FR", "name": "Korian La D\u00e9tente", "website": "https://www.korian.fr/maison-retraite/ehpad-korian-la-detente-dampmart-77400", "brand": "Korian", "brand:wikidata": "Q3198944"}, "geometry": {"type": "Point", "coordinates": [2.7437747, 48.8889564]}},
{"type": "Feature", "id": "GKthL7YfcSiMDYGZ07A_AJwCBk4=", "properties": {"ref": "545678", "@spider": "korian_fr", "addr:full": "2 Rue Henri Barbusse", "addr:city": "Eaubonne", "addr:state": "\u00cele-de-France", "addr:postcode": "95600", "addr:country": "FR", "name": "Korian La Crois\u00e9e Bleue", "website": "https://www.korian.fr/maison-retraite/ehpad-korian-la-croisee-bleue-eaubonne-95600", "brand": "Korian", "brand:wikidata": "Q3198944"}, "geometry": {"type": "Point", "coordinates": [2.2786207, 48.9921778]}},
{"type": "Feature", "id": "pmuD14KPTr-LoMOi8FD58kSJUYE=", "properties": {"ref": "537555", "@spider": "korian_fr", "addr:full": "35 Rue du Chemin Neuf", "addr:city": "Franconville", "addr:state": "\u00cele-de-France", "addr:postcode": "95130", "addr:country": "FR", "name": "Korian Montfrais", "website": "https://www.korian.fr/maison-retraite/ehpad-korian-montfrais-franconville-95130", "brand": "Korian", "brand:wikidata": "Q3198944"}, "geometry": {"type": "Point", "coordinates": [2.2349143, 48.9802312]}},
{"type": "Feature", "id": "7ttgPB2M7sf9I5bgjd2XzNpvT1o=", "properties": {"ref": "544881", "@spider": "korian_fr", "addr:full": "11 Rue Henri de Toulouse Lautrec", "addr:city": "Guyancourt", "addr:state": "\u00cele-de-France", "addr:postcode": "78280", "addr:country": "FR", "name": "Korian Les Saules", "website": "https://www.korian.fr/maison-retraite/ehpad-korian-les-saules-guyancourt-78280", "brand": "Korian", "brand:wikidata": "Q3198944"}, "geometry": {"type": "Point", "coordinates": [2.0582389, 48.7814804]}},
{"type": "Feature", "id": "rE01LpaVHFP8k9EmzwD4r4Pzjx4=", "properties": {"ref": "542901", "@spider": "korian_fr", "addr:full": "1 Place de l'\u00c9glise", "addr:city": "H\u00e9ricy", "addr:state": "\u00cele-de-France", "addr:postcode": "77850", "addr:country": "FR", "name": "Korian Sainte Genevi\u00e8ve", "website": "https://www.korian.fr/maison-retraite/ehpad-korian-sainte-genevieve-hericy-77850", "brand": "Korian", "brand:wikidata": "Q3198944"}, "geometry": {"type": "Point", "coordinates": [2.7661027, 48.4493586]}},
{"type": "Feature", "id": "_7_dHGQAhrazWppsX-XJWjcsdVA=", "properties": {"ref": "540420", "@spider": "korian_fr", "addr:full": "La B\u00e9gonnerie", "addr:city": "La Fert\u00e9-Gaucher", "addr:state": "\u00cele-de-France", "addr:postcode": "77320", "addr:country": "FR", "name": "Korian Le Bois Cl\u00e9ment", "website": "https://www.korian.fr/maison-retraite/ehpad-korian-le-bois-clement-la-ferte-gaucher-77320", "brand": "Korian", "brand:wikidata": "Q3198944"}, "geometry": {"type": "Point", "coordinates": [3.3019569000001, 48.777138]}},
{"type": "Feature", "id": "jEN1DnakvhRWvQTt9yZIG67Eqcg=", "properties": {"ref": "546534", "@spider": "korian_fr", "addr:full": "40 avenue Caffin", "addr:city": "La Varenne St Hilaire", "addr:state": "\u00cele-de-France", "addr:postcode": "94210", "addr:country": "FR", "name": "Korian Villa Saint-Hilaire", "website": "https://www.korian.fr/maison-retraite/ehpad-korian-villa-st-hilaire-la-varenne-saint-hilaire-94210", "brand": "Korian", "brand:wikidata": "Q3198944"}, "geometry": {"type": "Point", "coordinates": [2.504323, 48.7923732]}},
{"type": "Feature", "id": "nN2rA5zBCr4cwCIID9nh6Quzprg=", "properties": {"ref": "540991", "@spider": "korian_fr", "addr:full": "29, avenue de l'Alma", "addr:city": "La Varenne St Hilaire", "addr:state": "\u00cele-de-France", "addr:postcode": "94210", "addr:country": "FR", "name": "Korian Jardin de Neptune", "website": "https://www.korian.fr/maison-retraite/ehpad-korian-jardin-de-neptune-la-varenne-saint-hilaire-94210", "brand": "Korian", "brand:wikidata": "Q3198944"}, "geometry": {"type": "Point", "coordinates": [2.4957707999999, 48.7856777]}},
{"type": "Feature", "id": "2kK2-vM835gKzrw0YFTYlB74hyU=", "properties": {"ref": "546566", "@spider": "korian_fr", "addr:full": "16 Boulevard Saint-Antoine", "addr:city": "Le-chesnay", "addr:state": "\u00cele-de-France", "addr:postcode": "78150", "addr:country": "FR", "name": "Korian Villa Saint-Antoine", "website": "https://www.korian.fr/maison-retraite/ehpad-korian-villa-saint-antoine-le-chesnay-78150", "brand": "Korian", "brand:wikidata": "Q3198944"}, "geometry": {"type": "Point", "coordinates": [2.1273875, 48.8159762]}},
{"type": "Feature", "id": "loxMYsFdbwP3CQmO14ju5gBFCNY=", "properties": {"ref": "542530", "@spider": "korian_fr", "addr:full": "19 Rue du Bac", "addr:city": "Le Perreux-sur-Marne", "addr:state": "\u00cele-de-France", "addr:postcode": "94170", "addr:country": "FR", "name": "Korian Les Lierres", "website": "https://www.korian.fr/maison-retraite/ehpad-korian-les-lierres-le-perreux-sur-marne-94170", "brand": "Korian", "brand:wikidata": "Q3198944"}, "geometry": {"type": "Point", "coordinates": [2.5095776000001, 48.842394]}},
{"type": "Feature", "id": "ydFs_xXMwIq0yawJAEJHaen6zf4=", "properties": {"ref": "536136", "@spider": "korian_fr", "addr:full": "47 Rue de Lormoy", "addr:city": "Longpont-sur-Orge", "addr:state": "\u00cele-de-France", "addr:postcode": "91310", "addr:country": "FR", "name": "Korian Ch\u00e2teau de Lormoy", "website": "https://www.korian.fr/maison-retraite/ehpad-korian-chateau-de-lormoy-longpont-sur-orge-91310", "brand": "Korian", "brand:wikidata": "Q3198944"}, "geometry": {"type": "Point", "coordinates": [2.2892718000001, 48.6361436]}},
{"type": "Feature", "id": "bTkFTgxtnrhiGa7pRyC2oLGyNDo=", "properties": {"ref": "543472", "@spider": "korian_fr", "addr:full": "19 Chemin du C\u0153ur Volant", "addr:city": "Louveciennes", "addr:state": "\u00cele-de-France", "addr:postcode": "78430", "addr:country": "FR", "name": "Korian Le C\u0153ur Volant", "website": "https://www.korian.fr/maison-retraite/ehpad-korian-le-coeur-volant-louveciennes-78430", "brand": "Korian", "brand:wikidata": "Q3198944"}, "geometry": {"type": "Point", "coordinates": [2.1077733, 48.8662561]}},
{"type": "Feature", "id": "scPSfEFhmzIE1o8sikMZFkLIB_g=", "properties": {"ref": "546663", "@spider": "korian_fr", "addr:full": "5 Avenue Favart", "addr:city": "Maisons-Laffitte", "addr:state": "\u00cele-de-France", "addr:postcode": "78600", "addr:country": "FR", "name": "Korian Villa P\u00e9gase", "website": "https://www.korian.fr/maison-retraite/ehpad-korian-villa-pegase-maisons-laffitte-78600", "brand": "Korian", "brand:wikidata": "Q3198944"}, "geometry": {"type": "Point", "coordinates": [2.1629943, 48.9534351]}},
{"type": "Feature", "id": "_wxSmPZ0bRPBajG9lPMjE1OI8xI=", "properties": {"ref": "534276", "@spider": "korian_fr", "addr:full": "35 Rue de la Fert\u00e9 Alais", "addr:city": "Maisse", "addr:state": "\u00cele-de-France", "addr:postcode": "91720", "addr:country": "FR", "name": "Korian Le G\u00e2tinais", "website": "https://www.korian.fr/maison-retraite/ehpad-korian-le-gatinais-maisse-91720", "brand": "Korian", "brand:wikidata": "Q3198944"}, "geometry": {"type": "Point", "coordinates": [2.375119, 48.3965103]}},
{"type": "Feature", "id": "KV9NoEdOanASsEBbM9-JhZznYcc=", "properties": {"ref": "547257", "@spider": "korian_fr", "addr:full": "1A All\u00e9e du Val d'Essonne", "addr:city": "Maurepas", "addr:state": "\u00cele-de-France", "addr:postcode": "78310", "addr:country": "FR", "name": "Korian Le Val d'Essonne", "website": "https://www.korian.fr/maison-retraite/ehpad-korian-le-val-d-essonne-maurepas-78310", "brand": "Korian", "brand:wikidata": "Q3198944"}, "geometry": {"type": "Point", "coordinates": [1.9467108, 48.7655406]}},
{"type": "Feature", "id": "FVVMGzT31FCKY3OPcipGlak65xs=", "properties": {"ref": "534707", "@spider": "korian_fr", "addr:full": "2 Rue de Cond\u00e9", "addr:city": "Meaux", "addr:state": "\u00cele-de-France", "addr:postcode": "77100", "addr:country": "FR", "name": "Korian Au Fil du Temps", "website": "https://www.korian.fr/maison-retraite/ehpad-korian-au-fil-du-temps-meaux-77100", "brand": "Korian", "brand:wikidata": "Q3198944"}, "geometry": {"type": "Point", "coordinates": [2.8763908, 48.9543773]}},
{"type": "Feature", "id": "tLp8S4YvAiLZBBncLPU89BEUweY=", "properties": {"ref": "548330", "@spider": "korian_fr", "addr:full": "1 Rue des Tybilles", "addr:city": "Meudon", "addr:state": "\u00cele-de-France", "addr:postcode": "92190", "addr:country": "FR", "name": "Korian Les Tybilles", "website": "https://www.korian.fr/maison-retraite/ehpad-korian-les-tybilles-meudon-92190", "brand": "Korian", "brand:wikidata": "Q3198944"}, "geometry": {"type": "Point", "coordinates": [2.2329606000001, 48.8199408]}},
{"type": "Feature", "id": "acdJlXJUeG_S0t_isg2WsU9onr0=", "properties": {"ref": "536095", "@spider": "korian_fr", "addr:full": "8 Rue Ren\u00e9 Cassin", "addr:city": "Montgeron", "addr:state": "\u00cele-de-France", "addr:postcode": "91230", "addr:country": "FR", "name": "Korian Le Flore", "website": "https://www.korian.fr/maison-retraite/ehpad-korian-le-flore-montgeron-91230", "brand": "Korian", "brand:wikidata": "Q3198944"}, "geometry": {"type": "Point", "coordinates": [2.4648253, 48.70065]}},
{"type": "Feature", "id": "hdWBwskzkDfKN3oYfv8U2y_-PVg=", "properties": {"ref": "539940", "@spider": "korian_fr", "addr:full": "2 bis Avenue des IV Pav\u00e9s du Roy", "addr:city": "Montigny-le-Bretonneux", "addr:state": "\u00cele-de-France", "addr:postcode": "78180", "addr:country": "FR", "name": "Korian Ch\u00e2teau de la Couldre", "website": "https://www.korian.fr/maison-retraite/ehpad-korian-chateau-de-la-couldre-montigny-le-bretonneux-78180", "brand": "Korian", "brand:wikidata": "Q3198944"}, "geometry": {"type": "Point", "coordinates": [2.0256959, 48.7714063]}},
{"type": "Feature", "id": "mB4nETiyAXPSiuHjzuhIasE8cBs=", "properties": {"ref": "546329", "@spider": "korian_fr", "addr:full": "9 All\u00e9e du Queyras", "addr:city": "Montigny-le-Bretonneux", "addr:state": "\u00cele-de-France", "addr:postcode": "78180", "addr:country": "FR", "name": "Korian Qui\u00e9ta", "website": "https://www.korian.fr/maison-retraite/ehpad-korian-quieta-montigny-le-bretonneux-78180", "brand": "Korian", "brand:wikidata": "Q3198944"}, "geometry": {"type": "Point", "coordinates": [2.0374644999999, 48.7757103]}},
{"type": "Feature", "id": "tlgvYyy9rL1ZIL3P1P3KZzZrNgg=", "properties": {"ref": "541757", "@spider": "korian_fr", "addr:full": "104 Avenue du Mar\u00e9chal Foch", "addr:city": "Neuilly-Plaisance", "addr:state": "\u00cele-de-France", "addr:postcode": "93360", "addr:country": "FR", "name": "Korian Lauriers de Plaisance", "website": "https://www.korian.fr/maison-retraite/ehpad-korian-lauriers-de-plaisance-neuilly-plaisance-93360", "brand": "Korian", "brand:wikidata": "Q3198944"}, "geometry": {"type": "Point", "coordinates": [2.5137562, 48.8590559]}},
{"type": "Feature", "id": "IHFbs-54agr9GRngtIKsnhRTB_A=", "properties": {"ref": "539173", "@spider": "korian_fr", "addr:full": "20 Rue du Dr Jean Vaquier", "addr:city": "Noisy-le-Grand", "addr:state": "\u00cele-de-France", "addr:postcode": "93160", "addr:country": "FR", "name": "Korian Villa Victoria", "website": "https://www.korian.fr/maison-retraite/ehpad-korian-villa-victoria-noisy-le-grand-93160", "brand": "Korian", "brand:wikidata": "Q3198944"}, "geometry": {"type": "Point", "coordinates": [2.5500795, 48.8467471]}},
{"type": "Feature", "id": "5XXfTi0xcolLCKCVvJujRtO1YlY=", "properties": {"ref": "548766", "@spider": "korian_fr", "addr:full": "64 Rue de la F\u00e9d\u00e9ration", "addr:city": "Paris", "addr:state": "\u00cele-de-France", "addr:postcode": "75015", "addr:country": "FR", "name": "Korian Champ-de-Mars", "website": "https://www.korian.fr/maison-retraite/ehpad-korian-champ-de-mars-paris-75015", "brand": "Korian", "brand:wikidata": "Q3198944"}, "geometry": {"type": "Point", "coordinates": [2.2957421, 48.8532584]}},
{"type": "Feature", "id": "3Js-p90Lx-7FBMzOh_TbERQpObw=", "properties": {"ref": "548423", "@spider": "korian_fr", "addr:full": "5 Rue de l'Indre", "addr:city": "Paris", "addr:state": "\u00cele-de-France", "addr:postcode": "75020", "addr:country": "FR", "name": "Korian Terrasses du XX\u00e8me", "website": "https://www.korian.fr/maison-retraite/ehpad-korian-terrasses-du-xxeme-paris-75020", "brand": "Korian", "brand:wikidata": "Q3198944"}, "geometry": {"type": "Point", "coordinates": [2.4034744, 48.8629233]}},
{"type": "Feature", "id": "czpjpbAWzzRyCsEO2m0Gzpb273I=", "properties": {"ref": "536348", "@spider": "korian_fr", "addr:full": "5 Rue des Cendriers", "addr:city": "Paris", "addr:state": "\u00cele-de-France", "addr:postcode": "75020", "addr:country": "FR", "name": "Korian Les Amandiers", "website": "https://www.korian.fr/maison-retraite/ehpad-korian-les-amandiers-paris-75020", "brand": "Korian", "brand:wikidata": "Q3198944"}, "geometry": {"type": "Point", "coordinates": [2.3856542, 48.8653213]}},
{"type": "Feature", "id": "4uqWBOVJzpSFMNq5Hx7DQaiQgS4=", "properties": {"ref": "546816", "@spider": "korian_fr", "addr:full": "187 bis Avenue du Maine", "addr:city": "Paris", "addr:state": "\u00cele-de-France", "addr:postcode": "75014", "addr:country": "FR", "name": "Korian Jardins d'Al\u00e9sia", "website": "https://www.korian.fr/maison-retraite/ehpad-korian-jardins-d-alesia-paris-75014", "brand": "Korian", "brand:wikidata": "Q3198944"}, "geometry": {"type": "Point", "coordinates": [2.3260498, 48.8306252]}},
{"type": "Feature", "id": "voeV_ANSHAeeuYd9HkLaFgSxqKo=", "properties": {"ref": "539462", "@spider": "korian_fr", "addr:full": "54 Rue des Vinaigriers", "addr:city": "Paris", "addr:state": "\u00cele-de-France", "addr:postcode": "75010", "addr:country": "FR", "name": "Korian Magenta", "website": "https://www.korian.fr/maison-retraite/ehpad-korian-magenta-paris-75010", "brand": "Korian", "brand:wikidata": "Q3198944"}, "geometry": {"type": "Point", "coordinates": [2.3590276, 48.8734082]}},
{"type": "Feature", "id": "MeFZRAJ2XqFKMK19k5UQCJU_ZPs=", "properties": {"ref": "544282", "@spider": "korian_fr", "addr:full": "26 Rue M\u00e9d\u00e9ric", "addr:city": "Paris", "addr:state": "\u00cele-de-France", "addr:postcode": "75017", "addr:country": "FR", "name": "Korian Monceau", "website": "https://www.korian.fr/maison-retraite/ehpad-korian-monceau-paris-75017", "brand": "Korian", "brand:wikidata": "Q3198944"}, "geometry": {"type": "Point", "coordinates": [2.3043716, 48.8810472]}},
{"type": "Feature", "id": "6DCKyBzOO4DiDE5pQsqgQBshhDI=", "properties": {"ref": "541208", "@spider": "korian_fr", "addr:full": "117 Boulevard Brune", "addr:city": "Paris", "addr:state": "\u00cele-de-France", "addr:postcode": "75014", "addr:country": "FR", "name": "Korian Brune", "website": "https://www.korian.fr/maison-retraite/ehpad-korian-brune-paris-75014", "brand": "Korian", "brand:wikidata": "Q3198944"}, "geometry": {"type": "Point", "coordinates": [2.3167036, 48.8254469]}},
{"type": "Feature", "id": "5r4ZjXDFUE_dgsJeNW9LUPf3T38=", "properties": {"ref": "548461", "@spider": "korian_fr", "addr:full": "116 Avenue Daumesnil", "addr:city": "Paris", "addr:state": "\u00cele-de-France", "addr:postcode": "75012", "addr:country": "FR", "name": "Korian Les Arcades", "website": "https://www.korian.fr/maison-retraite/ehpad-korian-les-arcades-paris-75012", "brand": "Korian", "brand:wikidata": "Q3198944"}, "geometry": {"type": "Point", "coordinates": [2.3852111, 48.8423608]}},
{"type": "Feature", "id": "xPcWET5ayk0GBD6gVwt8q_EwqY4=", "properties": {"ref": "540866", "@spider": "korian_fr", "addr:full": "127 Rue d'Avron", "addr:city": "Paris", "addr:state": "\u00cele-de-France", "addr:postcode": "75020", "addr:country": "FR", "name": "Korian Saint-Simon", "website": "https://www.korian.fr/maison-retraite/ehpad-korian-saint-simon-paris-75020", "brand": "Korian", "brand:wikidata": "Q3198944"}, "geometry": {"type": "Point", "coordinates": [2.4085773, 48.8532458]}},
{"type": "Feature", "id": "UQ-duECMQDcmQMu0O-oz8iYvxNw=", "properties": {"ref": "542832", "@spider": "korian_fr", "addr:full": "52 Rue de Villiers", "addr:city": "Poissy", "addr:state": "\u00cele-de-France", "addr:postcode": "78300", "addr:country": "FR", "name": "Korian L'\u00eele de Migneaux ", "website": "https://www.korian.fr/maison-retraite/ehpad-korian-l-ile-de-migneaux-poissy-78300", "brand": "Korian", "brand:wikidata": "Q3198944"}, "geometry": {"type": "Point", "coordinates": [2.031925, 48.9231019]}},
{"type": "Feature", "id": "U-t7mxZneJsYhk_LmRm_cBF9LAc=", "properties": {"ref": "535724", "@spider": "korian_fr", "addr:full": "95 Rue des Pr\u00e9s Saint-Martin", "addr:city": "Pontault-Combault", "addr:state": "\u00cele-de-France", "addr:postcode": "77340", "addr:country": "FR", "name": "Korian Les Roses", "website": "https://www.korian.fr/maison-retraite/ehpad-korian-les-roses-pontault-combault-77340", "brand": "Korian", "brand:wikidata": "Q3198944"}, "geometry": {"type": "Point", "coordinates": [2.6120456, 48.7944902]}},
{"type": "Feature", "id": "Rvkk9Q5TXpKtR3q9mnh2NqpN64A=", "properties": {"ref": "543702", "@spider": "korian_fr", "addr:full": "16 Rue Marcelin Berthelot", "addr:city": "Rosny-Sous-Bois", "addr:state": "\u00cele-de-France", "addr:postcode": "93110", "addr:country": "FR", "name": "Korian Le Tulipier", "website": "https://www.korian.fr/maison-retraite/ehpad-korian-le-tulipier-rosny-sous-bois-93110", "brand": "Korian", "brand:wikidata": "Q3198944"}, "geometry": {"type": "Point", "coordinates": [2.4902837, 48.8643767]}},
{"type": "Feature", "id": "Muqc67HjWXrL1YbL3_Hp_gGnQ7A=", "properties": {"ref": "547975", "@spider": "korian_fr", "addr:full": "29 Boulevard Solf\u00e9rino", "addr:city": "Rueil-Malmaison", "addr:state": "\u00cele-de-France", "addr:postcode": "92500", "addr:country": "FR", "name": "Korian Villa Imp\u00e9ratrice", "website": "https://www.korian.fr/maison-retraite/ehpad-korian-villa-imperatrice-rueil-malmaison-92500", "brand": "Korian", "brand:wikidata": "Q3198944"}, "geometry": {"type": "Point", "coordinates": [2.1837842, 48.8745674]}},
{"type": "Feature", "id": "wAbmv4ZQjJhOJBURnby0i0awxm0=", "properties": {"ref": "534234", "@spider": "korian_fr", "addr:full": "7 Rue des Demoiselles de Saint-Cyr", "addr:city": "Saint-Cyr-l'\u00c9cole", "addr:state": "\u00cele-de-France", "addr:postcode": "78210", "addr:country": "FR", "name": "Korian Parc de L'Abbaye", "website": "https://www.korian.fr/maison-retraite/ehpad-korian-parc-de-abbaye-saint-cyr-l-ecole-78210", "brand": "Korian", "brand:wikidata": "Q3198944"}, "geometry": {"type": "Point", "coordinates": [2.0591223, 48.8037569]}},
{"type": "Feature", "id": "BklXhfb7CPdLKSv3RwqR86R8Aq0=", "properties": {"ref": "534578", "@spider": "korian_fr", "addr:full": "4 ter Rue Henri Dunant", "addr:city": "Saint Germain en Laye", "addr:state": "\u00cele-de-France", "addr:postcode": "78100", "addr:country": "FR", "name": "Korian Parc des Dames", "website": "https://www.korian.fr/maison-retraite/ehpad-korian-parc-des-dames-saint-germain-en-laye-78100", "brand": "Korian", "brand:wikidata": "Q3198944"}, "geometry": {"type": "Point", "coordinates": [2.0735508, 48.9046309]}},
{"type": "Feature", "id": "6lxSywIWyolX3nhNdYqAQHuJfYg=", "properties": {"ref": "545217", "@spider": "korian_fr", "addr:full": "1 bis Rue de Chaintr\u00e9auville", "addr:city": "Saint-Pierre-l\u00e8s-Nemours", "addr:state": "\u00cele-de-France", "addr:postcode": "77140", "addr:country": "FR", "name": "Korian Chaintr\u00e9auville", "website": "https://www.korian.fr/maison-retraite/ehpad-korian-chaintreauville-st-pierre-les-nemours-77140", "brand": "Korian", "brand:wikidata": "Q3198944"}, "geometry": {"type": "Point", "coordinates": [2.6922904, 48.2521423]}},
{"type": "Feature", "id": "GwbCZD1nQS_yaSiZkp6tU86uhwg=", "properties": {"ref": "535045", "@spider": "korian_fr", "addr:full": "206 Avenue de la Division Leclerc", "addr:city": "Sarcelles", "addr:state": "\u00cele-de-France", "addr:postcode": "95200", "addr:country": "FR", "name": "Korian Les Merlettes", "website": "https://www.korian.fr/maison-retraite/ehpad-korian-les-merlettes-sarcelles-95200", "brand": "Korian", "brand:wikidata": "Q3198944"}, "geometry": {"type": "Point", "coordinates": [2.3723583999999, 48.9868687]}},
{"type": "Feature", "id": "dnHWoa28-u4r1iGDHvRBFuWYYRo=", "properties": {"ref": "538856", "@spider": "korian_fr", "addr:full": "99 Rue Houdan", "addr:city": "Sceaux", "addr:state": "\u00cele-de-France", "addr:postcode": "92330", "addr:country": "FR", "name": "Korian Saint-Charles", "website": "https://www.korian.fr/maison-retraite/ehpad-korian-saint-charles-sceaux-92330", "brand": "Korian", "brand:wikidata": "Q3198944"}, "geometry": {"type": "Point", "coordinates": [2.2856739, 48.7785689]}},
{"type": "Feature", "id": "mIrAiSxFUwIb4jP488VCpAhxPJU=", "properties": {"ref": "547775", "@spider": "korian_fr", "addr:full": "33 Avenue L\u00e9on Jouhaux", "addr:city": "Sevran", "addr:state": "\u00cele-de-France", "addr:postcode": "93270", "addr:country": "FR", "name": "Korian Marisol", "website": "https://www.korian.fr/maison-retraite/ehpad-korian-marisol-sevran-93270", "brand": "Korian", "brand:wikidata": "Q3198944"}, "geometry": {"type": "Point", "coordinates": [2.5362997, 48.9392943]}},
{"type": "Feature", "id": "fpzV8-vXg4BTUAw8QKw2_Hm-DcI=", "properties": {"ref": "535349", "@spider": "korian_fr", "addr:full": "36 Rue Carnot", "addr:city": "Suresnes", "addr:state": "\u00cele-de-France", "addr:postcode": "92150", "addr:country": "FR", "name": "Korian Les Sarments", "website": "https://www.korian.fr/maison-retraite/ehpad-korian-les-sarments-suresnes-92150", "brand": "Korian", "brand:wikidata": "Q3198944"}, "geometry": {"type": "Point", "coordinates": [2.2264771, 48.8725514]}},
{"type": "Feature", "id": "50I68a6oXzmtiOf01N4tatPTJnQ=", "properties": {"ref": "536884", "@spider": "korian_fr", "addr:full": "Chemin du Coteret", "addr:city": "Varreddes", "addr:state": "\u00cele-de-France", "addr:postcode": "77910", "addr:country": "FR", "name": "Korian La Magdeleine", "website": "https://www.korian.fr/maison-retraite/ehpad-korian-la-magdeleine-varreddes-77910", "brand": "Korian", "brand:wikidata": "Q3198944"}, "geometry": {"type": "Point", "coordinates": [2.9266299999999, 49.001806]}},
{"type": "Feature", "id": "cqg2k3LLF06mBSioD4jy2OceUGc=", "properties": {"ref": "541292", "@spider": "korian_fr", "addr:full": "1 All\u00e9e des Lauriers", "addr:city": "Vaucresson", "addr:state": "\u00cele-de-France", "addr:postcode": "92420", "addr:country": "FR", "name": "Korian Hauts de Jardy", "website": "https://www.korian.fr/maison-retraite/ehpad-korian-hauts-de-jardy-vaucresson-92420", "brand": "Korian", "brand:wikidata": "Q3198944"}, "geometry": {"type": "Point", "coordinates": [2.1523396, 48.8330292]}},
{"type": "Feature", "id": "GmLNqZM8wbopEJZu_SiRUa6bThg=", "properties": {"ref": "547890", "@spider": "korian_fr", "addr:full": "30\u00a0Bis Avenue de la Station", "addr:city": "Villemomble", "addr:state": "\u00cele-de-France", "addr:postcode": "93250", "addr:country": "FR", "name": "Korian Les C\u00e8dres", "website": "https://www.korian.fr/maison-retraite/ehpad-korian-les-cedres-villemomble-93250", "brand": "Korian", "brand:wikidata": "Q3198944"}, "geometry": {"type": "Point", "coordinates": [2.5220591, 48.8863089]}},
{"type": "Feature", "id": "k2X_OBlbIFbdMy7RSnPjsTDJphg=", "properties": {"ref": "540029", "@spider": "korian_fr", "addr:full": "34 rue du Coteau de la Briante", "addr:city": "Alencon", "addr:state": "Normandie", "addr:postcode": "61000", "addr:country": "FR", "name": "Korian Le Diamant", "website": "https://www.korian.fr/maison-retraite/ehpad-korian-le-diamant-alencon-61000", "brand": "Korian", "brand:wikidata": "Q3198944"}, "geometry": {"type": "Point", "coordinates": [0.0672577, 48.434181]}},
{"type": "Feature", "id": "apMlKenSywAixjqj12dgikdzyIs=", "properties": {"ref": "543883", "@spider": "korian_fr", "addr:full": "125 Avenue du Mar\u00e9chal Juin", "addr:city": "Bois-Guillaume", "addr:state": "Normandie", "addr:postcode": "76230", "addr:country": "FR", "name": "Korian Villa Saint Do", "website": "https://www.korian.fr/maison-retraite/ehpad-korian-villa-saint-do-bois-guillaume-76230", "brand": "Korian", "brand:wikidata": "Q3198944"}, "geometry": {"type": "Point", "coordinates": [1.1169514, 49.4648596]}},
{"type": "Feature", "id": "jbccikFc5Vr9-9UDHafng1_IgzM=", "properties": {"ref": "541715", "@spider": "korian_fr", "addr:full": "175 Rue Neuve de B\u00e9m\u00e9court", "addr:city": "Breteuil", "addr:state": "Normandie", "addr:postcode": "27160", "addr:country": "FR", "name": "Korian Ville en Vert", "website": "https://www.korian.fr/maison-retraite/ehpad-korian-ville-en-vert-breteuil-sur-iton-27160", "brand": "Korian", "brand:wikidata": "Q3198944"}, "geometry": {"type": "Point", "coordinates": [0.9101502, 48.839027]}},
{"type": "Feature", "id": "AO0U_hCah_LsSoyFGXzoP2mNBo4=", "properties": {"ref": "545872", "@spider": "korian_fr", "addr:full": "67 Grande Rue", "addr:city": "Bueil", "addr:state": "Normandie", "addr:postcode": "27730", "addr:country": "FR", "name": "Korian Val aux Fleurs", "website": "https://www.korian.fr/maison-retraite/ehpad-korian-val-aux-fleurs-bueil-27730", "brand": "Korian", "brand:wikidata": "Q3198944"}, "geometry": {"type": "Point", "coordinates": [1.4192514, 48.9367692]}},
{"type": "Feature", "id": "2gzv5qRTpkCoVZMfbfMcc_XpjKw=", "properties": {"ref": "538221", "@spider": "korian_fr", "addr:full": "34 Rue Surcouf", "addr:city": "\u00c9queurdreville-Hainneville", "addr:state": "Normandie", "addr:postcode": "50120", "addr:country": "FR", "name": "Korian La Go\u00e9lette", "website": "https://www.korian.fr/maison-retraite/ehpad-korian-la-goelette-equeurdreville-hainneville-50120", "brand": "Korian", "brand:wikidata": "Q3198944"}, "geometry": {"type": "Point", "coordinates": [-1.6602252, 49.6571017]}},
{"type": "Feature", "id": "nTbsoHs_vHVA-ZsQ_uUzUh8bhZk=", "properties": {"ref": "534137", "@spider": "korian_fr", "addr:full": "21 rue du Champ Rouget", "addr:city": "\u00c9vrecy", "addr:state": "Normandie", "addr:postcode": "14210", "addr:country": "FR", "name": "Korian Les Rives de l'Odon", "website": "https://www.korian.fr/maison-retraite/ehpad-korian-les-rives-de-l-odon-evrecy-14210", "brand": "Korian", "brand:wikidata": "Q3198944"}, "geometry": {"type": "Point", "coordinates": [-0.5107478, 49.0955654]}},
{"type": "Feature", "id": "QPkEeVFXYYdvrr3KPNvg3HRbEiQ=", "properties": {"ref": "542400", "@spider": "korian_fr", "addr:full": "4 Rue des Hauts Vents", "addr:city": "Grainville-sur-odon", "addr:state": "Normandie", "addr:postcode": "14210", "addr:country": "FR", "name": "Korian Reine Mathilde", "website": "https://www.korian.fr/maison-retraite/ehpad-korian-reine-mathilde-grainville-sur-odon-14210", "brand": "Korian", "brand:wikidata": "Q3198944"}, "geometry": {"type": "Point", "coordinates": [-0.5263015, 49.1416052]}},
{"type": "Feature", "id": "g-yHJ4fXwMenMruQBlqJh1kRIVw=", "properties": {"ref": "548503", "@spider": "korian_fr", "addr:full": "29 Rue Louis Brindeau", "addr:city": "Le Havre", "addr:state": "Normandie", "addr:postcode": "76600", "addr:country": "FR", "name": "Korian Porte Oc\u00e9ane", "website": "https://www.korian.fr/maison-retraite/ehpad-korian-porte-oceane-le-havre-76600", "brand": "Korian", "brand:wikidata": "Q3198944"}, "geometry": {"type": "Point", "coordinates": [0.1020221, 49.4914542]}},
{"type": "Feature", "id": "apL718MolOdfklqdBV5uLn9nWnI=", "properties": {"ref": "541896", "@spider": "korian_fr", "addr:full": "4 Rue du Coll\u00e8ge", "addr:city": "Le Teilleul", "addr:state": "Normandie", "addr:postcode": "50640", "addr:country": "FR", "name": "Korian Rive de S\u00e9lune", "website": "https://www.korian.fr/maison-retraite/ehpad-korian-rive-de-selune-le-teilleul-50640", "brand": "Korian", "brand:wikidata": "Q3198944"}, "geometry": {"type": "Point", "coordinates": [-0.8733461, 48.5343844]}},
{"type": "Feature", "id": "5fio3Bbs6SW_R2NznWXiInCYa7w=", "properties": {"ref": "542491", "@spider": "korian_fr", "addr:full": "70 Rue du G\u00e9n\u00e9ral Leclerc", "addr:city": "Lisieux", "addr:state": "Normandie", "addr:postcode": "14100", "addr:country": "FR", "name": "Korian Villa B\u00e9rat", "website": "https://www.korian.fr/maison-retraite/ehpad-korian-villa-berat-lisieux-14100", "brand": "Korian", "brand:wikidata": "Q3198944"}, "geometry": {"type": "Point", "coordinates": [0.223781, 49.1527954]}},
{"type": "Feature", "id": "YlG94Z0apbVF3p3RvkA5rV-ksns=", "properties": {"ref": "542114", "@spider": "korian_fr", "addr:full": "25 Boulevard Georges Clemenceau", "addr:city": "Louviers", "addr:state": "Normandie", "addr:postcode": "27400", "addr:country": "FR", "name": "Korian L'Ermitage", "website": "https://www.korian.fr/maison-retraite/ehpad-korian-l-ermitage-louviers-27400", "brand": "Korian", "brand:wikidata": "Q3198944"}, "geometry": {"type": "Point", "coordinates": [1.1669388, 49.2101562]}},
{"type": "Feature", "id": "yaT03vS3IHbCaaVYvN-fFRxclUs=", "properties": {"ref": "534399", "@spider": "korian_fr", "addr:full": "9 Rue des Verdiers", "addr:city": "Montivilliers", "addr:state": "Normandie", "addr:postcode": "76290", "addr:country": "FR", "name": "Korian Hauts de L'Abbaye", "website": "https://www.korian.fr/maison-retraite/ehpad-korian-hauts-de-l-abbaye-montivilliers-76290", "brand": "Korian", "brand:wikidata": "Q3198944"}, "geometry": {"type": "Point", "coordinates": [0.1800259, 49.5364118]}},
{"type": "Feature", "id": "hnFNITcL5fhlzni5lPJ7nZhnSgw=", "properties": {"ref": "545647", "@spider": "korian_fr", "addr:full": "40 Boulevard Boivin Champeaux", "addr:city": "Ouistreham", "addr:state": "Normandie", "addr:postcode": "14150", "addr:country": "FR", "name": "Korian Thalatta", "website": "https://www.korian.fr/maison-retraite/ehpad-korian-thalatta-ouistreham-14150", "brand": "Korian", "brand:wikidata": "Q3198944"}, "geometry": {"type": "Point", "coordinates": [-0.2515068, 49.2850187]}},
{"type": "Feature", "id": "yGcTZdAgUA4_H9ZpIq2eY2h7D74=", "properties": {"ref": "540106", "@spider": "korian_fr", "addr:full": "17 Rue des Champs", "addr:city": "Perriers-sur-Andelle", "addr:state": "Normandie", "addr:postcode": "27910", "addr:country": "FR", "name": "Korian Jardin de L'Andelle", "website": "https://www.korian.fr/maison-retraite/ehpad-korian-jardin-de-l-andelle-perriers-sur-andelle-27910", "brand": "Korian", "brand:wikidata": "Q3198944"}, "geometry": {"type": "Point", "coordinates": [1.3689714, 49.4162292]}},
{"type": "Feature", "id": "i8nAhvSChepR8_jyiklnJ_jPMIE=", "properties": {"ref": "539373", "@spider": "korian_fr", "addr:full": "121 Avenue des Martyrs de la R\u00e9sistance", "addr:city": "Rouen", "addr:state": "Normandie", "addr:postcode": "76100", "addr:country": "FR", "name": "Korian Le Jardin", "website": "https://www.korian.fr/maison-retraite/ehpad-korian-le-jardin-rouen-76100", "brand": "Korian", "brand:wikidata": "Q3198944"}, "geometry": {"type": "Point", "coordinates": [1.0795495, 49.4208266]}},
{"type": "Feature", "id": "aUO3-GkCu8p4vs1YyXlFKoIvyWg=", "properties": {"ref": "537806", "@spider": "korian_fr", "addr:full": "21 Place de l'Eglise Saint-Sever", "addr:city": "Rouen", "addr:state": "Normandie", "addr:postcode": "76100", "addr:country": "FR", "name": "Korian Les Cent Clochers", "website": "https://www.korian.fr/maison-retraite/ehpad-korian-les-cent-clochers-rouen-76100", "brand": "Korian", "brand:wikidata": "Q3198944"}, "geometry": {"type": "Point", "coordinates": [1.0851046, 49.4301954]}},
{"type": "Feature", "id": "P9WD6YNrUuubtuSLTrnR8SvOQPU=", "properties": {"ref": "539021", "@spider": "korian_fr", "addr:full": "Rue Jean Moulin", "addr:city": "Rugles", "addr:state": "Normandie", "addr:postcode": "27250", "addr:country": "FR", "name": "Korian La Risle", "website": "https://www.korian.fr/maison-retraite/ehpad-korian-la-risle-rugles-27250", "brand": "Korian", "brand:wikidata": "Q3198944"}, "geometry": {"type": "Point", "coordinates": [0.7141128, 48.82054]}},
{"type": "Feature", "id": "xELArirTXu0Oy9BRrGBFFfrblVI=", "properties": {"ref": "542008", "@spider": "korian_fr", "addr:full": "15 Avenue Pierre Mend\u00e8s France", "addr:city": "Vernon", "addr:state": "Normandie", "addr:postcode": "27200", "addr:country": "FR", "name": "Korian Nymph\u00e9as Bleus", "website": "https://www.korian.fr/maison-retraite/ehpad-korian-nympheas-bleus-vernon-27200", "brand": "Korian", "brand:wikidata": "Q3198944"}, "geometry": {"type": "Point", "coordinates": [1.4864458, 49.0912348]}},
{"type": "Feature", "id": "7EzWLaUH16iKk0ktm-rIGHepYmU=", "properties": {"ref": "539852", "@spider": "korian_fr", "addr:full": "19 Boulevard de l'Hippodrome", "addr:city": "Bourg-en-Bresse", "addr:state": "Auvergne-Rh\u00f4ne-Alpes", "addr:postcode": "01000", "addr:country": "FR", "name": "Korian Jardin de Brou", "website": "https://www.korian.fr/maison-retraite/ehpad-korian-jardin-de-brou-bourg-en-bresse-01000", "brand": "Korian", "brand:wikidata": "Q3198944"}, "geometry": {"type": "Point", "coordinates": [5.2371711, 46.1923146]}},
{"type": "Feature", "id": "MgHaask9eivGx_jM0oAQ0OoXMlU=", "properties": {"ref": "536663", "@spider": "korian_fr", "addr:full": "8 Chemin des Horts", "addr:city": "Bourg-Saint-And\u00e9ol", "addr:state": "Auvergne-Rh\u00f4ne-Alpes", "addr:postcode": "07700", "addr:country": "FR", "name": "Korian La Bastide", "website": "https://www.korian.fr/maison-retraite/ehpad-korian-la-bastide-bourg-saint-andeol-07700", "brand": "Korian", "brand:wikidata": "Q3198944"}, "geometry": {"type": "Point", "coordinates": [4.644554, 44.3671866]}},
{"type": "Feature", "id": "fbTDwcDs9bUBnzjF-_LzZYU-7K0=", "properties": {"ref": "544326", "@spider": "korian_fr", "addr:full": "78 Rue du Commandant Michard", "addr:city": "Chamb\u00e9ry", "addr:state": "Auvergne-Rh\u00f4ne-Alpes", "addr:postcode": "73000", "addr:country": "FR", "name": "Korian Fontaine St Martin", "website": "https://www.korian.fr/maison-retraite/ehpad-korian-fontaine-st-martin-chambery-73000", "brand": "Korian", "brand:wikidata": "Q3198944"}, "geometry": {"type": "Point", "coordinates": [5.9297783, 45.5638381]}},
{"type": "Feature", "id": "-riA7GIPXEbgaCOfu-d-hvCrAnU=", "properties": {"ref": "542999", "@spider": "korian_fr", "addr:full": "15 Avenue du Midi", "addr:city": "Charols", "addr:state": "Auvergne-Rh\u00f4ne-Alpes", "addr:postcode": "26450", "addr:country": "FR", "name": "Korian Dr\u00f4me Proven\u00e7ale", "website": "https://www.korian.fr/maison-retraite/ehpad-korian-drome-provencale-charols-26450", "brand": "Korian", "brand:wikidata": "Q3198944"}, "geometry": {"type": "Point", "coordinates": [4.9518922, 44.5912213]}},
{"type": "Feature", "id": "d1qxBLPN8vVlHDdySiO_aDIT6rs=", "properties": {"ref": "536757", "@spider": "korian_fr", "addr:full": "All\u00e9e de Beaulieu", "addr:city": "Clermont-Ferrand", "addr:state": "Auvergne-Rh\u00f4ne-Alpes", "addr:postcode": "63000", "addr:country": "FR", "name": "Korian L'Oradou", "website": "https://www.korian.fr/maison-retraite/ehpad-korian-l-oradou-clermont-ferrand-63000", "brand": "Korian", "brand:wikidata": "Q3198944"}, "geometry": {"type": "Point", "coordinates": [3.1079, 45.768113]}},
{"type": "Feature", "id": "otIb_la0vbJ71J997DlZt7Ide0s=", "properties": {"ref": "539066", "@spider": "korian_fr", "addr:full": "58 Place du Home", "addr:city": "Curtafond", "addr:state": "Auvergne-Rh\u00f4ne-Alpes", "addr:postcode": "01310", "addr:country": "FR", "name": "Korian Home de Cortefredone", "website": "https://www.korian.fr/maison-retraite/ehpad-korian-home-de-cortefredone-curtafond-01310", "brand": "Korian", "brand:wikidata": "Q3198944"}, "geometry": {"type": "Point", "coordinates": [5.0986, 46.270579]}},
{"type": "Feature", "id": "4-QnyHORqcjNEk5bLmd-SmqyV28=", "properties": {"ref": "542228", "@spider": "korian_fr", "addr:full": "Mont\u00e9e de la Ruelle", "addr:city": "Fontaines-Saint-Martin", "addr:state": "Auvergne-Rh\u00f4ne-Alpes", "addr:postcode": "69270", "addr:country": "FR", "name": "Korian La Fontani\u00e8re", "website": "https://www.korian.fr/maison-retraite/ehpad-korian-la-fontaniere-fontaines-saint-martin-69270", "brand": "Korian", "brand:wikidata": "Q3198944"}, "geometry": {"type": "Point", "coordinates": [4.8548585999999, 45.8414664]}},
{"type": "Feature", "id": "AlaTWpUi5GBcqVl5nNG-KiX-iDk=", "properties": {"ref": "548287", "@spider": "korian_fr", "addr:full": "50 Rue de Mortillet", "addr:city": "Grenoble", "addr:state": "Auvergne-Rh\u00f4ne-Alpes", "addr:postcode": "38000", "addr:country": "FR", "name": "Korian L'Isle Verte", "website": "https://www.korian.fr/maison-retraite/ehpad-korian-l-isle-verte-grenoble-38000", "brand": "Korian", "brand:wikidata": "Q3198944"}, "geometry": {"type": "Point", "coordinates": [5.7344301, 45.1980373]}},
{"type": "Feature", "id": "rRqlRWs5dpYHu9I8aiIZ7k0vHPY=", "properties": {"ref": "547335", "@spider": "korian_fr", "addr:full": "Route des Pierres Blanches", "addr:city": "Gr\u00e9zieu-la-Varenne", "addr:state": "Auvergne-Rh\u00f4ne-Alpes", "addr:postcode": "69290", "addr:country": "FR", "name": "Korian Jardins d'Hestia", "website": "https://www.korian.fr/maison-retraite/ehpad-korian-jardins-d-hestia-grezieu-la-varenne-69290", "brand": "Korian", "brand:wikidata": "Q3198944"}, "geometry": {"type": "Point", "coordinates": [4.703259, 45.7510679]}},
{"type": "Feature", "id": "ZkjE0cImNnfybPXipqsrnvXOUaw=", "properties": {"ref": "538449", "@spider": "korian_fr", "addr:full": "290 Mont\u00e9e de la Bastide", "addr:city": "Jardin", "addr:state": "Auvergne-Rh\u00f4ne-Alpes", "addr:postcode": "38200", "addr:country": "FR", "name": "Korian Villa Ortis", "website": "https://www.korian.fr/maison-retraite/ehpad-korian-villa-ortis-jardin-38200", "brand": "Korian", "brand:wikidata": "Q3198944"}, "geometry": {"type": "Point", "coordinates": [4.9081693, 45.5040138]}},
{"type": "Feature", "id": "DAh1CFuJN3QGv_aBksz3oQNuxmY=", "properties": {"ref": "538533", "@spider": "korian_fr", "addr:full": "1 Rue du Diapason", "addr:city": "Lyon", "addr:state": "Auvergne-Rh\u00f4ne-Alpes", "addr:postcode": "69003", "addr:country": "FR", "name": "Korian Les Annabelles", "website": "https://www.korian.fr/maison-retraite/ehpad-korian-les-annabelles-lyon-69003", "brand": "Korian", "brand:wikidata": "Q3198944"}, "geometry": {"type": "Point", "coordinates": [4.8559179, 45.7517914]}},
{"type": "Feature", "id": "kM-phnqAD2v71N_IsPABMobxBLs=", "properties": {"ref": "535561", "@spider": "korian_fr", "addr:full": "29 Route de Vienne", "addr:city": "Lyon", "addr:state": "Auvergne-Rh\u00f4ne-Alpes", "addr:postcode": "69007", "addr:country": "FR", "name": "Korian Les Terrasses de Blandan", "website": "https://www.korian.fr/maison-retraite/ehpad-korian-les-terrasses-de-blandan-lyon-69007", "brand": "Korian", "brand:wikidata": "Q3198944"}, "geometry": {"type": "Point", "coordinates": [4.8506224, 45.7432878]}},
{"type": "Feature", "id": "bykOma7tdbMC3ikxETKJiMnqE24=", "properties": {"ref": "540539", "@spider": "korian_fr", "addr:full": "6 Rue Ravier", "addr:city": "Lyon", "addr:state": "Auvergne-Rh\u00f4ne-Alpes", "addr:postcode": "69007", "addr:country": "FR", "name": "Korian Gerland", "website": "https://www.korian.fr/maison-retraite/ehpad-korian-gerland-lyon-69007", "brand": "Korian", "brand:wikidata": "Q3198944"}, "geometry": {"type": "Point", "coordinates": [4.8393704, 45.7382005]}},
{"type": "Feature", "id": "Jf9QuLyPeYUYgLnJP3u-_dp_KW8=", "properties": {"ref": "545132", "@spider": "korian_fr", "addr:full": "70 Rue d'Ypres", "addr:city": "Lyon", "addr:state": "Auvergne-Rh\u00f4ne-Alpes", "addr:postcode": "69004", "addr:country": "FR", "name": "Korian Le Clos d\u2019Ypres", "website": "https://www.korian.fr/maison-retraite/ehpad-korian-le-clos-d-ypres-lyon-69004", "brand": "Korian", "brand:wikidata": "Q3198944"}, "geometry": {"type": "Point", "coordinates": [4.8174473, 45.7826886]}},
{"type": "Feature", "id": "Bw4k-7HT1tS94GGA9-VEmobdg04=", "properties": {"ref": "534897", "@spider": "korian_fr", "addr:full": "8 Rue Antoine P\u00e9ricaud", "addr:city": "Lyon", "addr:state": "Auvergne-Rh\u00f4ne-Alpes", "addr:postcode": "69008", "addr:country": "FR", "name": "Korian Saison Dor\u00e9e", "website": "https://www.korian.fr/maison-retraite/ehpad-korian-saison-doree-lyon-69008", "brand": "Korian", "brand:wikidata": "Q3198944"}, "geometry": {"type": "Point", "coordinates": [4.8652915, 45.7359137]}},
{"type": "Feature", "id": "STguM7y4qwhkwq4I80AX54VlG4c=", "properties": {"ref": "546859", "@spider": "korian_fr", "addr:full": "22 Grande Rue", "addr:city": "Oullins", "addr:state": "Auvergne-Rh\u00f4ne-Alpes", "addr:postcode": "69600", "addr:country": "FR", "name": "Korian Claude Bernard", "website": "https://www.korian.fr/maison-retraite/ehpad-korian-claude-bernard-oullins-69600", "brand": "Korian", "brand:wikidata": "Q3198944"}, "geometry": {"type": "Point", "coordinates": [4.8088269, 45.720428]}},
{"type": "Feature", "id": "aHUhMQKmtGjeDv_5LxpqvYu19iA=", "properties": {"ref": "543238", "@spider": "korian_fr", "addr:full": "65 Chemin des \u00c9cureuils", "addr:city": "Passy", "addr:state": "Auvergne-Rh\u00f4ne-Alpes", "addr:postcode": "74190", "addr:country": "FR", "name": "Korian Les Myrtilles", "website": "https://www.korian.fr/maison-retraite/ehpad-korian-les-myrtilles-passy-chedde-74190", "brand": "Korian", "brand:wikidata": "Q3198944"}, "geometry": {"type": "Point", "coordinates": [6.7171522, 45.9273449]}},
{"type": "Feature", "id": "jh1GDeKs0DcfeIq_ekTRP15cFTM=", "properties": {"ref": "542073", "@spider": "korian_fr", "addr:full": "Chemin des Presles", "addr:city": "Pollionnay", "addr:state": "Auvergne-Rh\u00f4ne-Alpes", "addr:postcode": "69290", "addr:country": "FR", "name": "Korian Les Aur\u00e9lias", "website": "https://www.korian.fr/maison-retraite/ehpad-korian-les-aurelias-pollionnay-69290", "brand": "Korian", "brand:wikidata": "Q3198944"}, "geometry": {"type": "Point", "coordinates": [4.6578143, 45.76214]}},
{"type": "Feature", "id": "z7n8ziAkoR7sOCiEqhaZ4YGMhVo=", "properties": {"ref": "547521", "@spider": "korian_fr", "addr:full": "13 Avenue Gambetta", "addr:city": "Roanne", "addr:state": "Auvergne-Rh\u00f4ne-Alpes", "addr:postcode": "42300", "addr:country": "FR", "name": "Korian Villa D'Albon", "website": "https://www.korian.fr/maison-retraite/ehpad-korian-villa-d-albon-roanne-42300", "brand": "Korian", "brand:wikidata": "Q3198944"}, "geometry": {"type": "Point", "coordinates": [4.0667726, 46.039261]}},
{"type": "Feature", "id": "zW2h81qFNDaT24eB4eA6zCHjXNQ=", "properties": {"ref": "536502", "@spider": "korian_fr", "addr:full": "26 Rue Molina", "addr:city": "Saint-Etienne", "addr:state": "Auvergne-Rh\u00f4ne-Alpes", "addr:postcode": "42000", "addr:country": "FR", "name": "Korian L'Astr\u00e9e", "website": "https://www.korian.fr/maison-retraite/ehpad-korian-l-astree-saint-etienne-42000", "brand": "Korian", "brand:wikidata": "Q3198944"}, "geometry": {"type": "Point", "coordinates": [4.4005004, 45.4652562]}},
{"type": "Feature", "id": "Ccd6Iz9Gqh26puCeL1ZaS0t2ZR8=", "properties": {"ref": "537042", "@spider": "korian_fr", "addr:full": "1 Avenue de Verdun", "addr:city": "Saint-Etienne", "addr:state": "Auvergne-Rh\u00f4ne-Alpes", "addr:postcode": "42000", "addr:country": "FR", "name": "Korian Bergson", "website": "https://www.korian.fr/maison-retraite/ehpad-korian-bergson-saint-etienne-42000", "brand": "Korian", "brand:wikidata": "Q3198944"}, "geometry": {"type": "Point", "coordinates": [4.3800638, 45.4628431]}},
{"type": "Feature", "id": "TW0NlO7pGNWpR9HleJc7KHAsb94=", "properties": {"ref": "537423", "@spider": "korian_fr", "addr:full": "9 Rue du Treyve", "addr:city": "Saint-Etienne", "addr:state": "Auvergne-Rh\u00f4ne-Alpes", "addr:postcode": "42000", "addr:country": "FR", "name": "Korian Villa Janin", "website": "https://www.korian.fr/maison-retraite/ehpad-korian-villa-janin-saint-etienne-42000", "brand": "Korian", "brand:wikidata": "Q3198944"}, "geometry": {"type": "Point", "coordinates": [4.3896964, 45.4481679]}},
{"type": "Feature", "id": "BzyXgVq_HgmH5fUSmBv3a71GXO0=", "properties": {"ref": "541563", "@spider": "korian_fr", "addr:full": "33 Rue Claudius Thirard", "addr:city": "Saint-Fons", "addr:state": "Auvergne-Rh\u00f4ne-Alpes", "addr:postcode": "69190", "addr:country": "FR", "name": "Korian Hameau de la Source", "website": "https://www.korian.fr/maison-retraite/ehpad-korian-hameau-de-la-source-saint-fons-69190", "brand": "Korian", "brand:wikidata": "Q3198944"}, "geometry": {"type": "Point", "coordinates": [4.8590137, 45.7098539]}},
{"type": "Feature", "id": "p8rRmYCxW-rHT47b1qUtYjBSUlk=", "properties": {"ref": "539418", "@spider": "korian_fr", "addr:full": "10 Avenue Pierre Mend\u00e8s France", "addr:city": "Saint-priest-en-jarez", "addr:state": "Auvergne-Rh\u00f4ne-Alpes", "addr:postcode": "42270", "addr:country": "FR", "name": "Korian La Mounardi\u00e8re", "website": "https://www.korian.fr/maison-retraite/ehpad-korian-la-mounardiere-saint-priest-en-jarez-42270", "brand": "Korian", "brand:wikidata": "Q3198944"}, "geometry": {"type": "Point", "coordinates": [4.3759642, 45.4699904]}},
{"type": "Feature", "id": "riB-suDNKyLcWiYzH7xZ5_audVs=", "properties": {"ref": "544205", "@spider": "korian_fr", "addr:full": "8 Avenue de Thuyset", "addr:city": "Thonon-les-Bains", "addr:state": "Auvergne-Rh\u00f4ne-Alpes", "addr:postcode": "74200", "addr:country": "FR", "name": "Korian L'Esconda", "website": "https://www.korian.fr/maison-retraite/ehpad-korian-l-esconda-thonon-les-bains-74200", "brand": "Korian", "brand:wikidata": "Q3198944"}, "geometry": {"type": "Point", "coordinates": [6.495925, 46.3834702]}},
{"type": "Feature", "id": "hDJSRio7V3cfUKgDdK-EkbTU83U=", "properties": {"ref": "535761", "@spider": "korian_fr", "addr:full": "9 Rue Jules Massenet", "addr:city": "Valence", "addr:state": "Auvergne-Rh\u00f4ne-Alpes", "addr:postcode": "26000", "addr:country": "FR", "name": "Korian Villa Tha\u00efs", "website": "https://www.korian.fr/maison-retraite/ehpad-korian-villa-thais-valence-26000", "brand": "Korian", "brand:wikidata": "Q3198944"}, "geometry": {"type": "Point", "coordinates": [4.9060369, 44.9323857]}},
{"type": "Feature", "id": "bsgSKsCKcjnRyOynbbsJy6JOpUc=", "properties": {"ref": "535085", "@spider": "korian_fr", "addr:full": "145 Chemin du Pelet", "addr:city": "Vernaison", "addr:state": "Auvergne-Rh\u00f4ne-Alpes", "addr:postcode": "69390", "addr:country": "FR", "name": "Korian Saint-Fran\u00e7ois", "website": "https://www.korian.fr/maison-retraite/ehpad-korian-saint-francois-vernaison-69390", "brand": "Korian", "brand:wikidata": "Q3198944"}, "geometry": {"type": "Point", "coordinates": [4.8099888, 45.6523561]}},
{"type": "Feature", "id": "49jIlvGZlp-SHZPer6ieggSVufQ=", "properties": {"ref": "536581", "@spider": "korian_fr", "addr:full": "177 Avenue Gilbert Sardier", "addr:city": "Villars-les-Dombes", "addr:state": "Auvergne-Rh\u00f4ne-Alpes", "addr:postcode": "01330", "addr:country": "FR", "name": "Korian Les Fauvettes", "website": "https://www.korian.fr/maison-retraite/ehpad-korian-les-fauvettes-villars-les-dombes-01330", "brand": "Korian", "brand:wikidata": "Q3198944"}, "geometry": {"type": "Point", "coordinates": [5.0338136, 46.0029097]}},
{"type": "Feature", "id": "SktotDeB_JIuZUpyVJPH2FVgVJo=", "properties": {"ref": "537011", "@spider": "korian_fr", "addr:full": "15 bis route de la Douane", "addr:city": "Angoulins", "addr:state": "Nouvelle-Aquitaine", "addr:postcode": "17690 ", "addr:country": "FR", "name": "Korian Le M\u00f4le d'Angoulins", "website": "https://www.korian.fr/maison-retraite/ehpad-korian-le-mole-d-angoulins-angoulins-sur-mer-17690", "brand": "Korian", "brand:wikidata": "Q3198944"}, "geometry": {"type": "Point", "coordinates": [-1.1166658, 46.1043174]}},
{"type": "Feature", "id": "fLIshu-ZkA5bg6fyR8wFuD-eioA=", "properties": {"ref": "542268", "@spider": "korian_fr", "addr:full": "1 impasse de la Carri\u00e8re", "addr:city": "Ars-en-R\u00e9", "addr:state": "Nouvelle-Aquitaine", "addr:postcode": "17590", "addr:country": "FR", "name": "Korian C\u00f4te Sauvage", "website": "https://www.korian.fr/maison-retraite/ehpad-korian-cote-sauvage-ars-en-re-17590", "brand": "Korian", "brand:wikidata": "Q3198944"}, "geometry": {"type": "Point", "coordinates": [-1.515577, 46.20781]}},
{"type": "Feature", "id": "cMUjnU4J_geTugD6DF4VQlSFteU=", "properties": {"ref": "535882", "@spider": "korian_fr", "addr:full": "7 Route de l'Aurignolle", "addr:city": "Belin-B\u00e9liet", "addr:state": "Nouvelle-Aquitaine", "addr:postcode": "33830", "addr:country": "FR", "name": "Korian Le Chalet", "website": "https://www.korian.fr/maison-retraite/ehpad-korian-le-chalet-belin-beliet-33830", "brand": "Korian", "brand:wikidata": "Q3198944"}, "geometry": {"type": "Point", "coordinates": [-0.72944870000003, 44.4483057]}},
{"type": "Feature", "id": "cJPc4COM5TNWgO1uI719d0O6k9A=", "properties": {"ref": "541803", "@spider": "korian_fr", "addr:full": "1 Rue du Pr\u00e9 des Essarts", "addr:city": "Benon", "addr:state": "Nouvelle-Aquitaine", "addr:postcode": "17170", "addr:country": "FR", "name": "Korian Les Ajoncs", "website": "https://www.korian.fr/maison-retraite/ehpad-korian-les-ajoncs-benon-17170", "brand": "Korian", "brand:wikidata": "Q3198944"}, "geometry": {"type": "Point", "coordinates": [-0.81640440000001, 46.2001607]}},
{"type": "Feature", "id": "r-PXTu6-zsQa06JilMX6OofLkV8=", "properties": {"ref": "543655", "@spider": "korian_fr", "addr:full": "1 Rue Jean Renaud Dandicolle", "addr:city": "Bordeaux", "addr:state": "Nouvelle-Aquitaine", "addr:postcode": "33000", "addr:country": "FR", "name": "Korian Clos S\u00e9r\u00e9na", "website": "https://www.korian.fr/maison-retraite/ehpad-korian-clos-serena-bordeaux-33000", "brand": "Korian", "brand:wikidata": "Q3198944"}, "geometry": {"type": "Point", "coordinates": [-0.58463449999999, 44.8335512]}},
{"type": "Feature", "id": "TZyATKAFw5wuqZLXrgEEvbqzQ8s=", "properties": {"ref": "538321", "@spider": "korian_fr", "addr:full": "74 Cours Saint-Louis", "addr:city": "Bordeaux", "addr:state": "Nouvelle-Aquitaine", "addr:postcode": "33300", "addr:country": "FR", "name": "Korian Villa Louisa", "website": "https://www.korian.fr/maison-retraite/ehpad-korian-villa-louisa-bordeaux-33300", "brand": "Korian", "brand:wikidata": "Q3198944"}, "geometry": {"type": "Point", "coordinates": [-0.56945310000003, 44.858736]}},
{"type": "Feature", "id": "rzbZW3oVWvTmjY_D1oDXa45BwL0=", "properties": {"ref": "636028", "@spider": "korian_fr", "addr:full": "3 Chemin de Chantefontaine", "addr:city": "Cestas", "addr:state": "Nouvelle-Aquitaine", "addr:postcode": "33610", "addr:country": "FR", "name": "Korian Chantefontaine", "website": "https://www.korian.fr/maison-retraite/ehpad-korian-chantefontaine-cestas-33610", "brand": "Korian", "brand:wikidata": "Q3198944"}, "geometry": {"type": "Point", "coordinates": [-0.6791954, 44.7374047]}},
{"type": "Feature", "id": "C0UAIM8e2BmczxmWX1-YGC34UNg=", "properties": {"ref": "546448", "@spider": "korian_fr", "addr:full": "6 Place du Centre", "addr:city": "Chasseneuil-du-Poitou", "addr:state": "Nouvelle-Aquitaine", "addr:postcode": "86360", "addr:country": "FR", "name": "Korian Clairi\u00e8re aux Ch\u00eanes", "website": "https://www.korian.fr/maison-retraite/ehpad-korian-clairiere-aux-chenes-chasseneuil-du-poitou-86360", "brand": "Korian", "brand:wikidata": "Q3198944"}, "geometry": {"type": "Point", "coordinates": [0.37496220000003, 46.6511543]}},
{"type": "Feature", "id": "jQhCM92SHjl_OkOZM9weGL9q6lE=", "properties": {"ref": "546623", "@spider": "korian_fr", "addr:full": "93 Rue de l'Aum\u00f4nerie", "addr:city": "Coulon", "addr:state": "Nouvelle-Aquitaine", "addr:postcode": "79510", "addr:country": "FR", "name": "Korian Home de l'\u00c9baupin", "website": "https://www.korian.fr/maison-retraite/ehpad-korian-home-de-l-ebaupin-coulon-79510", "brand": "Korian", "brand:wikidata": "Q3198944"}, "geometry": {"type": "Point", "coordinates": [-0.58752060000006, 46.3274826]}},
{"type": "Feature", "id": "Fqse2NZBPx0GSihikvdxTiCis7c=", "properties": {"ref": "546260", "@spider": "korian_fr", "addr:full": "9 Rue Bellevue", "addr:city": "Duras", "addr:state": "Nouvelle-Aquitaine", "addr:postcode": "47120", "addr:country": "FR", "name": "Korian Bellevue", "website": "https://www.korian.fr/maison-retraite/ehpad-korian-bellevue-duras-47120", "brand": "Korian", "brand:wikidata": "Q3198944"}, "geometry": {"type": "Point", "coordinates": [0.19065780000005, 44.6751684]}},
{"type": "Feature", "id": "dSGIv_x93ZTlCmGIbJePd4Dj-q0=", "properties": {"ref": "637552", "@spider": "korian_fr", "addr:full": "23 Route de Royan", "addr:city": "\u00c9pargnes", "addr:state": "Nouvelle-Aquitaine", "addr:postcode": "17120", "addr:country": "FR", "name": "Korian Les Jardins d'Epargnes", "website": "https://www.korian.fr/maison-retraite/ehpad-korian-les-jardins-d-epargnes-epargnes-17120", "brand": "Korian", "brand:wikidata": "Q3198944"}, "geometry": {"type": "Point", "coordinates": [-0.8035921, 45.5642007]}},
{"type": "Feature", "id": "xB7Q-82SPVe0bJDyiHu3-sr2tUM=", "properties": {"ref": "538365", "@spider": "korian_fr", "addr:full": "20 Avenue Favard", "addr:city": "Gradignan", "addr:state": "Nouvelle-Aquitaine", "addr:postcode": "33170", "addr:country": "FR", "name": "Korian Villa Gabriel", "website": "https://www.korian.fr/maison-retraite/ehpad-korian-villa-gabriel-gradignan-33170", "brand": "Korian", "brand:wikidata": "Q3198944"}, "geometry": {"type": "Point", "coordinates": [-0.59862420000002, 44.7834589]}},
{"type": "Feature", "id": "z9x-zsE1DaoHLTJ9sS8ZLH7gBdA=", "properties": {"ref": "545750", "@spider": "korian_fr", "addr:full": "42 Rue du Tour de Ville", "addr:city": "Issigeac", "addr:state": "Nouvelle-Aquitaine", "addr:postcode": " 24560 ", "addr:country": "FR", "name": "Korian Yvan Roque", "website": "https://www.korian.fr/maison-retraite/ehpad-korian-yvan-roque-issigeac-24560", "brand": "Korian", "brand:wikidata": "Q3198944"}, "geometry": {"type": "Point", "coordinates": [0.6080009, 44.7287736]}},
{"type": "Feature", "id": "wnYPicnuDClee1Yy7XM3DHYLWb4=", "properties": {"ref": "544111", "@spider": "korian_fr", "addr:full": "31 Rue de la Butte", "addr:city": "Lagord", "addr:state": "Nouvelle-Aquitaine", "addr:postcode": "17140", "addr:country": "FR", "name": "Korian Le Rayon d'Or", "website": "https://www.korian.fr/maison-retraite/ehpad-korian-le-rayon-d-or-lagord-17140", "brand": "Korian", "brand:wikidata": "Q3198944"}, "geometry": {"type": "Point", "coordinates": [-1.1483646, 46.1915225]}},
{"type": "Feature", "id": "L6_JqRSQMPoLLdsHZohwY2GEoCc=", "properties": {"ref": "636610", "@spider": "korian_fr", "addr:full": "3 Rue Guynemer", "addr:city": "La Teste-de-Buch", "addr:state": "Nouvelle-Aquitaine", "addr:postcode": "33260", "addr:country": "FR", "name": "Korian Les Roses du Bassin", "website": "https://www.korian.fr/maison-retraite/ehpad-korian-les-roses-du-bassin-la-teste-de-buch-33260", "brand": "Korian", "brand:wikidata": "Q3198944"}, "geometry": {"type": "Point", "coordinates": [-1.14945, 44.6281366]}},
{"type": "Feature", "id": "Tg648DuV18TVXvE183zq6azJjz0=", "properties": {"ref": "636598", "@spider": "korian_fr", "addr:full": "2 Rue du Dr Cassius", "addr:city": "Layrac", "addr:state": "Nouvelle-Aquitaine", "addr:postcode": "47390", "addr:country": "FR", "name": "Korian Maison Saint Martin", "website": "https://www.korian.fr/maison-retraite/ehpad-korian-saint-martin-layrac-47390", "brand": "Korian", "brand:wikidata": "Q3198944"}, "geometry": {"type": "Point", "coordinates": [0.6589302, 44.1367136]}},
{"type": "Feature", "id": "EsWABuqLHVjXWBlleAvlVQLGBFs=", "properties": {"ref": "548050", "@spider": "korian_fr", "addr:full": "2 rue de la Gruche", "addr:city": "Les Trois-Moutiers", "addr:state": "Nouvelle-Aquitaine", "addr:postcode": "86120", "addr:country": "FR", "name": "Korian Les Trois Chemins", "website": "https://www.korian.fr/maison-retraite/ehpad-korian-les-trois-chemins-les-trois-moutiers-86120", "brand": "Korian", "brand:wikidata": "Q3198944"}, "geometry": {"type": "Point", "coordinates": [0.0186682, 47.0650905]}},
{"type": "Feature", "id": "056k0RmjZ_RSnSW2SJFqOhqkAno=", "properties": {"ref": "546942", "@spider": "korian_fr", "addr:full": "59 Rue Jean de la Fontaine", "addr:city": "Niort", "addr:state": "Nouvelle-Aquitaine", "addr:postcode": "79000", "addr:country": "FR", "name": "Korian La Venise Verte", "website": "https://www.korian.fr/maison-retraite/ehpad-korian-la-venise-verte-niort-79000", "brand": "Korian", "brand:wikidata": "Q3198944"}, "geometry": {"type": "Point", "coordinates": [-0.47639779999997, 46.3201627]}},
{"type": "Feature", "id": "skhV2w0TPRlH2GSV4X6msk3pxeo=", "properties": {"ref": "535610", "@spider": "korian_fr", "addr:full": "1 Rue de la Mairie", "addr:city": "Notre-Dame-de-Sanilhac", "addr:state": "Nouvelle-Aquitaine", "addr:postcode": "24660", "addr:country": "FR", "name": "Korian Villa des C\u00e9brades", "website": "https://www.korian.fr/maison-retraite/ehpad-korian-villa-des-cebrades-notre-dame-de-sanilhac-24660", "brand": "Korian", "brand:wikidata": "Q3198944"}, "geometry": {"type": "Point", "coordinates": [0.72556140000006, 45.1760252]}},
{"type": "Feature", "id": "Lrr5SYwCAhwJz4kqeY_DqOOBjiA=", "properties": {"ref": "535679", "@spider": "korian_fr", "addr:full": "1 Rue Georges Bizet", "addr:city": "Poitiers", "addr:state": "Nouvelle-Aquitaine", "addr:postcode": "86000", "addr:country": "FR", "name": "Korian Agapanthe", "website": "https://www.korian.fr/maison-retraite/ehpad-korian-agapanthe-poitiers-86000", "brand": "Korian", "brand:wikidata": "Q3198944"}, "geometry": {"type": "Point", "coordinates": [0.36410580000006, 46.564043]}},
{"type": "Feature", "id": "CvR9VgRAERiAiELIwPbe1d2MWhs=", "properties": {"ref": "546192", "@spider": "korian_fr", "addr:full": "47 Rue Emile Combes", "addr:city": "Pons", "addr:state": "Nouvelle-Aquitaine", "addr:postcode": "17800", "addr:country": "FR", "name": "Korian Marie d'Albret", "website": "https://www.korian.fr/maison-retraite/ehpad-korian-marie-d-albret-pons-17800", "brand": "Korian", "brand:wikidata": "Q3198944"}, "geometry": {"type": "Point", "coordinates": [-0.54941610000003, 45.5769648]}},
{"type": "Feature", "id": "vyf4IATA4jmirCPGGkNqpOnYPRQ=", "properties": {"ref": "534531", "@spider": "korian_fr", "addr:full": "Lieu-dit La Bichette", "addr:city": "Prayssas", "addr:state": "Nouvelle-Aquitaine", "addr:postcode": "47360", "addr:country": "FR", "name": "Korian Le Hameau", "website": "https://www.korian.fr/maison-retraite/ehpad-korian-le-hameau-prayssas-47360", "brand": "Korian", "brand:wikidata": "Q3198944"}, "geometry": {"type": "Point", "coordinates": [0.50876199999993, 44.288279]}},
{"type": "Feature", "id": "_IFrHwv85lk2l32YpoKavTtApc4=", "properties": {"ref": "537763", "@spider": "korian_fr", "addr:full": "4 Impasse Germain Etourneau", "addr:city": "Rochefort", "addr:state": "Nouvelle-Aquitaine", "addr:postcode": "17300", "addr:country": "FR", "name": "Korian Les B\u00e9gonias", "website": "https://www.korian.fr/maison-retraite/ehpad-korian-les-begonias-rochefort-sur-mer-17300", "brand": "Korian", "brand:wikidata": "Q3198944"}, "geometry": {"type": "Point", "coordinates": [-0.97084930000005, 45.9331556]}},
{"type": "Feature", "id": "DOSEKijvqtZuWRufpuHULimxFho=", "properties": {"ref": "542790", "@spider": "korian_fr", "addr:full": "12 Rue Paul Doumer", "addr:city": "Royan", "addr:state": "Nouvelle-Aquitaine", "addr:postcode": "17200", "addr:country": "FR", "name": "Korian Les Issambres", "website": "https://www.korian.fr/maison-retraite/ehpad-korian-les-issambres-royan-17200", "brand": "Korian", "brand:wikidata": "Q3198944"}, "geometry": {"type": "Point", "coordinates": [-1.0268982, 45.625601]}},
{"type": "Feature", "id": "8HXUFsyoyzK7qec-HqKebC16Cvs=", "properties": {"ref": "536715", "@spider": "korian_fr", "addr:full": "18 All\u00e9e des Fauvettes", "addr:city": "Sainte-Bazeille", "addr:state": "Nouvelle-Aquitaine", "addr:postcode": "47180", "addr:country": "FR", "name": "Korian Fontaine Bazeille", "website": "https://www.korian.fr/maison-retraite/ehpad-korian-fontaine-bazeille-sainte-bazeille-47180", "brand": "Korian", "brand:wikidata": "Q3198944"}, "geometry": {"type": "Point", "coordinates": [0.098317700000052, 44.5331479]}},
{"type": "Feature", "id": "1uSNZvFH3ha9mcEpsMSlyqba-V8=", "properties": {"ref": "537985", "@spider": "korian_fr", "addr:full": "71 Avenue du Mar\u00e9chal Juin", "addr:city": "Saint-Georges-de-Didonne", "addr:state": "Nouvelle-Aquitaine", "addr:postcode": "17110", "addr:country": "FR", "name": "Korian Les Parasols", "website": "https://www.korian.fr/maison-retraite/ehpad-korian-les-parasols-st-georges-de-didonne-17110", "brand": "Korian", "brand:wikidata": "Q3198944"}, "geometry": {"type": "Point", "coordinates": [-0.99008049999998, 45.6155549]}},
{"type": "Feature", "id": "SIsjCkJNZACr9N0ANZeB8oNZFXo=", "properties": {"ref": "634111", "@spider": "korian_fr", "addr:full": "12 rue de la Fontaine", "addr:city": "Saint-Saturnin-du-Bois", "addr:state": "Nouvelle-Aquitaine", "addr:postcode": "17700", "addr:country": "FR", "name": "Korian Bois Long", "website": "https://www.korian.fr/maison-retraite/ehpad-korian-bois-long-saint-saturnin-du-bois-17700", "brand": "Korian", "brand:wikidata": "Q3198944"}, "geometry": {"type": "Point", "coordinates": [-0.6729691, 46.1383903]}},
{"type": "Feature", "id": "OSBu_yaDuFi3x0BVHiyq7nsLKBU=", "properties": {"ref": "636588", "@spider": "korian_fr", "addr:full": "44 bis, Boulevard du 11 Novembre", "addr:city": "Sauveterre-de-Guyenne", "addr:state": "Nouvelle-Aquitaine", "addr:postcode": "33540", "addr:country": "FR", "name": "Korian Entre Deux Mers", "website": "https://www.korian.fr/maison-retraite/ehpad-korian-entre-deux-mers-sauveterre-de-guyenne-33540", "brand": "Korian", "brand:wikidata": "Q3198944"}, "geometry": {"type": "Point", "coordinates": [-0.0891409, 44.692708]}},
{"type": "Feature", "id": "DOETjTASBHc6RUck4ZfeS9DtQs0=", "properties": {"ref": "637449", "@spider": "korian_fr", "addr:full": "14 Chemin de Recoux", "addr:city": "Soyaux", "addr:state": "Nouvelle-Aquitaine", "addr:postcode": "16800", "addr:country": "FR", "name": "Korian La Croix du Mar\u00e9chal", "website": "https://www.korian.fr/maison-retraite/ehpad-korian-la-croix-du-marechal-soyaux-16800", "brand": "Korian", "brand:wikidata": "Q3198944"}, "geometry": {"type": "Point", "coordinates": [0.2114556, 45.6481546]}},
{"type": "Feature", "id": "h-fQfm-K5AHboNuzrS2MJycD4ls=", "properties": {"ref": "546703", "@spider": "korian_fr", "addr:full": "257 Route de Toulouse", "addr:city": "Talence", "addr:state": "Nouvelle-Aquitaine", "addr:postcode": "33400", "addr:country": "FR", "name": "Korian Villa Bontemps", "website": "https://www.korian.fr/maison-retraite/ehpad-korian-villa-bontemps-talence-33400", "brand": "Korian", "brand:wikidata": "Q3198944"}, "geometry": {"type": "Point", "coordinates": [-0.57425169999999, 44.8063552]}},
{"type": "Feature", "id": "y74i7UIGihhnQf-7kiSuXUQLdng=", "properties": {"ref": "547012", "@spider": "korian_fr", "addr:full": "1 Rue de l'Isle", "addr:city": "Tr\u00e9lissac", "addr:state": "Nouvelle-Aquitaine", "addr:postcode": "24750", "addr:country": "FR", "name": "Korian Les Bords de l'Isle", "website": "https://www.korian.fr/maison-retraite/ehpad-korian-les-bords-de-l-isle-trelissac-24750", "brand": "Korian", "brand:wikidata": "Q3198944"}, "geometry": {"type": "Point", "coordinates": [0.73983769999995, 45.1885032]}},
{"type": "Feature", "id": "VavtU3mWZLIaK6wAkDEeiC11fV8=", "properties": {"ref": "629568", "@spider": "korian_fr", "addr:full": "5 Route des Allins", "addr:city": "Trois-Palis", "addr:state": "Nouvelle-Aquitaine", "addr:postcode": "16730", "addr:country": "FR", "name": "Korian Les Alins du Mar\u00e9chal", "website": "https://www.korian.fr/maison-retraite/ehpad-korian-korian-les-alins-du-marechal-trois-palis-16730", "brand": "Korian", "brand:wikidata": "Q3198944"}, "geometry": {"type": "Point", "coordinates": [0.0375558, 45.632246]}},
{"type": "Feature", "id": "K1XW0CxQ8bvxgpN5RXbxPxsSJHs=", "properties": {"ref": "637339", "@spider": "korian_fr", "addr:full": "3 Avenue Jean Moulin", "addr:city": "Vergt", "addr:state": "Nouvelle-Aquitaine", "addr:postcode": "24380", "addr:country": "FR", "name": "Korian Maison du Pays de Vergt", "website": "https://www.korian.fr/maison-retraite/ehpad-korian-maison-du-pays-de-vergt-vergt-24380", "brand": "Korian", "brand:wikidata": "Q3198944"}, "geometry": {"type": "Point", "coordinates": [0.7196056, 45.0254208]}},
{"type": "Feature", "id": "yfl9hyO58LRgCQXmGqNdqB_zIGY=", "properties": {"ref": "540199", "@spider": "korian_fr", "addr:full": "30 Rue Saint-Germain", "addr:city": "Amiens", "addr:state": "Hauts-de-France", "addr:postcode": "80000", "addr:country": "FR", "name": "Korian Samarobriva", "website": "https://www.korian.fr/maison-retraite/ehpad-korian-samarobriva-amiens-80000", "brand": "Korian", "brand:wikidata": "Q3198944"}, "geometry": {"type": "Point", "coordinates": [2.2952993, 49.8964857]}},
{"type": "Feature", "id": "DdQstHwPU-otBFUH0KRMdy2fhGw=", "properties": {"ref": "538937", "@spider": "korian_fr", "addr:full": "1 Route de Roye", "addr:city": "Ercheu", "addr:state": "Hauts-de-France", "addr:postcode": "80400", "addr:country": "FR", "name": "Korian La Rivi\u00e8re Bleue", "website": "https://www.korian.fr/maison-retraite/ehpad-korian-la-riviere-bleue-ercheu-80400", "brand": "Korian", "brand:wikidata": "Q3198944"}, "geometry": {"type": "Point", "coordinates": [2.9350396, 49.7024011]}},
{"type": "Feature", "id": "8mSWqgSqpKtvRkT2ta2YKm6LNP0=", "properties": {"ref": "534489", "@spider": "korian_fr", "addr:full": "151 bis Rue Principale", "addr:city": "Forest-sur-Marque", "addr:state": "Hauts-de-France", "addr:postcode": "59510", "addr:country": "FR", "name": "Korian Bords de la Marque", "website": "https://www.korian.fr/maison-retraite/ehpad-korian-bords-de-la-marque-forest-sur-marque-59510", "brand": "Korian", "brand:wikidata": "Q3198944"}, "geometry": {"type": "Point", "coordinates": [3.1882957, 50.6305048]}},
{"type": "Feature", "id": "aK6k9Si5hhRe5r0rS74ikkTSOv8=", "properties": {"ref": "543045", "@spider": "korian_fr", "addr:full": "35 Rue de Normandie", "addr:city": "Gamaches", "addr:state": "Hauts-de-France", "addr:postcode": "80220", "addr:country": "FR", "name": "Korian Les Trois Rives", "website": "https://www.korian.fr/maison-retraite/ehpad-korian-les-trois-rives-gamaches-80220", "brand": "Korian", "brand:wikidata": "Q3198944"}, "geometry": {"type": "Point", "coordinates": [1.5530295, 49.9848898]}},
{"type": "Feature", "id": "4ieePIFF2TMf_s52lFBY0aZML3o=", "properties": {"ref": "541605", "@spider": "korian_fr", "addr:full": "6-8 avenue de la Lib\u00e9ration  ", "addr:city": "Lamorlaye", "addr:state": "Hauts-de-France", "addr:postcode": "60260", "addr:country": "FR", "name": "Korian Grange des Pr\u00e9s", "website": "https://www.korian.fr/maison-retraite/ehpad-korian-grange-des-pres-lamorlaye-60260", "brand": "Korian", "brand:wikidata": "Q3198944"}, "geometry": {"type": "Point", "coordinates": [2.4432194999999, 49.1478744]}},
{"type": "Feature", "id": "a2wX-9eUq--vwROdhnyeBfhpAvI=", "properties": {"ref": "537725", "@spider": "korian_fr", "addr:full": "124 rue de la 4\u00e8me division d\u2019Infanterie Coloniale", "addr:city": "Lieuvillers", "addr:state": "Hauts-de-France", "addr:postcode": "60130", "addr:country": "FR", "name": "Korian Les Alysses", "website": "https://www.korian.fr/maison-retraite/ehpad-korian-les-alysses-lieuvillers-60130", "brand": "Korian", "brand:wikidata": "Q3198944"}, "geometry": {"type": "Point", "coordinates": [2.491704, 49.4700479]}},
{"type": "Feature", "id": "zDyBt2SrtwFp-9kp6yndMwd2dh4=", "properties": {"ref": "540904", "@spider": "korian_fr", "addr:full": "68 Rue Nationale", "addr:city": "Marcq-en-baroeul", "addr:state": "Hauts-de-France", "addr:postcode": "59700", "addr:country": "FR", "name": "Korian Les Marquises", "website": "https://www.korian.fr/maison-retraite/ehpad-korian-les-marquises-marcq-en-baroeul-59700", "brand": "Korian", "brand:wikidata": "Q3198944"}, "geometry": {"type": "Point", "coordinates": [3.0752722, 50.6649309]}},
{"type": "Feature", "id": "61NZKzKR906T63PTEZcy6mUGEOI=", "properties": {"ref": "539776", "@spider": "korian_fr", "addr:full": "216 Rue de la Fraternit\u00e9", "addr:city": "Marpent", "addr:state": "Hauts-de-France", "addr:postcode": "59164", "addr:country": "FR", "name": "Korian Samara", "website": "https://www.korian.fr/maison-retraite/ehpad-korian-samara-marpent-59164", "brand": "Korian", "brand:wikidata": "Q3198944"}, "geometry": {"type": "Point", "coordinates": [4.081866, 50.293853]}},
{"type": "Feature", "id": "n-FKtVM2mq4C7QzNszblkjls_jA=", "properties": {"ref": "538116", "@spider": "korian_fr", "addr:full": "2 rue de la Croix Blanche", "addr:city": "Monchy Saint Eloi", "addr:state": "Hauts-de-France", "addr:postcode": "60290", "addr:country": "FR", "name": "Korian La Grande Prairie", "website": "https://www.korian.fr/maison-retraite/ehpad-korian-la-grande-prairie-monchy-saint-eloi-60290", "brand": "Korian", "brand:wikidata": "Q3198944"}, "geometry": {"type": "Point", "coordinates": [2.4670334, 49.2994504]}},
{"type": "Feature", "id": "TvGO1z9MOLkJlTSSfQ9CP40xnSs=", "properties": {"ref": "547056", "@spider": "korian_fr", "addr:full": "95 rue du Comte d'Artois", "addr:city": "Neuville-Saint-R\u00e9my", "addr:state": "Hauts-de-France", "addr:postcode": "59554", "addr:country": "FR", "name": "Korian Georges Morchain", "website": "https://www.korian.fr/maison-retraite/ehpad-korian-georges-morchain-neuville-saint-remy-59554", "brand": "Korian", "brand:wikidata": "Q3198944"}, "geometry": {"type": "Point", "coordinates": [3.2210684, 50.1817815]}},
{"type": "Feature", "id": "ZmIcZhHeAwpJvXPvOZ03PMInD4k=", "properties": {"ref": "542574", "@spider": "korian_fr", "addr:full": "7 Grande Rue", "addr:city": "Roubaix", "addr:state": "Hauts-de-France", "addr:postcode": "59100", "addr:country": "FR", "name": "Korian L'Age Bleu", "website": "https://www.korian.fr/maison-retraite/ehpad-korian-l-age-bleu-roubaix-59100", "brand": "Korian", "brand:wikidata": "Q3198944"}, "geometry": {"type": "Point", "coordinates": [3.1755024, 50.692314]}},
{"type": "Feature", "id": "zZ2ECWXVVO46O2GFj72bFyh0Jbg=", "properties": {"ref": "543743", "@spider": "korian_fr", "addr:full": "13 Boulevard Val Pr\u00e9", "addr:city": "Aubagne", "addr:state": "Provence-Alpes-C\u00f4te d'Azur", "addr:postcode": "13400", "addr:country": "FR", "name": "Korian Val Pr\u00e9", "website": "https://www.korian.fr/maison-retraite/ehpad-korian-val-pre-aubagne-13400", "brand": "Korian", "brand:wikidata": "Q3198944"}, "geometry": {"type": "Point", "coordinates": [5.5676811, 43.2990746]}},
{"type": "Feature", "id": "P6hvPsDDGN_OtK0zduUFvc3erx8=", "properties": {"ref": "534932", "@spider": "korian_fr", "addr:full": "Chemin Romain", "addr:city": "Beausoleil", "addr:state": "Provence-Alpes-C\u00f4te d'Azur", "addr:postcode": "06240", "addr:country": "FR", "name": "Fontdivina", "website": "https://www.korian.fr/maison-retraite/ehpad-fontdivina-beausoleil-06240", "brand": "Korian", "brand:wikidata": "Q3198944"}, "geometry": {"type": "Point", "coordinates": [7.42407, 43.75047]}},
{"type": "Feature", "id": "SS-Br3jV2_Ki3MChNdNPteFZOnc=", "properties": {"ref": "536011", "@spider": "korian_fr", "addr:full": "44 Avenue Claude Debussy", "addr:city": "Carnoux-en-Provence", "addr:state": "Provence-Alpes-C\u00f4te d'Azur", "addr:postcode": "13470", "addr:country": "FR", "name": "Korian Claude Debussy", "website": "https://www.korian.fr/maison-retraite/ehpad-korian-claude-debussy-carnoux-en-provence-13470", "brand": "Korian", "brand:wikidata": "Q3198944"}, "geometry": {"type": "Point", "coordinates": [5.5563727, 43.2556632]}},
{"type": "Feature", "id": "sg9tLrL5d6z-Kmc3b8271X9CVJs=", "properties": {"ref": "541449", "@spider": "korian_fr", "addr:full": "Chemin de la Barque", "addr:city": "Espinasses", "addr:state": "Provence-Alpes-C\u00f4te d'Azur", "addr:postcode": "05190", "addr:country": "FR", "name": "Korian Le Mont Soleil", "website": "https://www.korian.fr/maison-retraite/ehpad-korian-le-mont-soleil-espinasses-05190", "brand": "Korian", "brand:wikidata": "Q3198944"}, "geometry": {"type": "Point", "coordinates": [6.2247741, 44.4659218]}},
{"type": "Feature", "id": "7867A6-pDMi5E9lhCOcUbDieUgY=", "properties": {"ref": "534783", "@spider": "korian_fr", "addr:full": "301 Avenue Andrei Sakharov", "addr:city": "Fr\u00e9jus", "addr:state": "Provence-Alpes-C\u00f4te d'Azur", "addr:postcode": "83600", "addr:country": "FR", "name": "Korian Rives d'Esterel", "website": "https://www.korian.fr/maison-retraite/ehpad-korian-rives-d-esterel-frejus-83600", "brand": "Korian", "brand:wikidata": "Q3198944"}, "geometry": {"type": "Point", "coordinates": [6.7401212, 43.4402814]}},
{"type": "Feature", "id": "cPn-hSOs4eOXf9nrtMDCFFe_Bjc=", "properties": {"ref": "5188216", "@spider": "korian_fr", "addr:full": "115 Via Aur\u00e9lia", "addr:city": "Fr\u00e9jus", "addr:state": "Provence-Alpes-C\u00f4te d'Azur", "addr:postcode": "83600", "addr:country": "FR", "name": "Korian Aubier de Cyb\u00e8le", "website": "https://www.korian.fr/maison-retraite/ehpad-korian-aubier-de-cybele-frejus-83600", "brand": "Korian", "brand:wikidata": "Q3198944"}, "geometry": {"type": "Point", "coordinates": [6.7675585, 43.4615796]}},
{"type": "Feature", "id": "1eosc9e7uwz9SNXBQeuL2aoSnnA=", "properties": {"ref": "537378", "@spider": "korian_fr", "addr:full": "Chemin du Puits", "addr:city": "G\u00e9menos", "addr:state": "Provence-Alpes-C\u00f4te d'Azur", "addr:postcode": "13420", "addr:country": "FR", "name": "Korian Mas des Ain\u00e9s", "website": "https://www.korian.fr/maison-retraite/ehpad-korian-mas-des-aines-gemenos-13420", "brand": "Korian", "brand:wikidata": "Q3198944"}, "geometry": {"type": "Point", "coordinates": [5.6206191, 43.2842596]}},
{"type": "Feature", "id": "tvtLID6YmPD4iKnICWXCZx8dALE=", "properties": {"ref": "536176", "@spider": "korian_fr", "addr:full": "Route de Riez", "addr:city": "Gr\u00e9oux-les-Bains", "addr:state": "Provence-Alpes-C\u00f4te d'Azur", "addr:postcode": "04800", "addr:country": "FR", "name": "Korian Le Verdon", "website": "https://www.korian.fr/maison-retraite/ehpad-korian-le-verdon-greoux-les-bains-04800", "brand": "Korian", "brand:wikidata": "Q3198944"}, "geometry": {"type": "Point", "coordinates": [5.9091406, 43.7574757]}},
{"type": "Feature", "id": "EzfPrhqYF5uoXjl3AloZQtkSOFo=", "properties": {"ref": "536287", "@spider": "korian_fr", "addr:full": "770 Avenue Jean Moulin", "addr:city": "Hy\u00e8res", "addr:state": "Provence-Alpes-C\u00f4te d'Azur", "addr:postcode": "83400", "addr:country": "FR", "name": "Korian Villa Eyras", "website": "https://www.korian.fr/maison-retraite/ehpad-korian-villa-eyras-hyeres-83400", "brand": "Korian", "brand:wikidata": "Q3198944"}, "geometry": {"type": "Point", "coordinates": [6.1302703, 43.113205]}},
{"type": "Feature", "id": "vLsKEPKVdNCQA8eblBwieUEFYMQ=", "properties": {"ref": "542309", "@spider": "korian_fr", "addr:full": "33 Rue Eug\u00e9nie", "addr:city": "Hy\u00e8res", "addr:state": "Provence-Alpes-C\u00f4te d'Azur", "addr:postcode": "83400", "addr:country": "FR", "name": "Korian La Louisiane", "website": "https://www.korian.fr/maison-retraite/ehpad-korian-la-louisiane-hyeres-83400", "brand": "Korian", "brand:wikidata": "Q3198944"}, "geometry": {"type": "Point", "coordinates": [6.1129577, 43.1208236]}},
{"type": "Feature", "id": "1zhgXBOHHH14oIxyO9wJb5yJ5ZM=", "properties": {"ref": "541032", "@spider": "korian_fr", "addr:full": "34 Chemin du Moulin", "addr:city": "La Roquebrussanne ", "addr:state": "Provence-Alpes-C\u00f4te d'Azur", "addr:postcode": "83136", "addr:country": "FR", "name": "Korian La Proven\u00e7ale", "website": "https://www.korian.fr/maison-retraite/ehpad-korian-la-provencale-la-roquebrussanne-83136", "brand": "Korian", "brand:wikidata": "Q3198944"}, "geometry": {"type": "Point", "coordinates": [5.9747279, 43.3408072]}},
{"type": "Feature", "id": "ArMPQ5XSTsHxtYdZKwf7JIL4Ijw=", "properties": {"ref": "548247", "@spider": "korian_fr", "addr:full": "264 chemin des Barelles", "addr:city": "La-seyne-sur-mer", "addr:state": "Provence-Alpes-C\u00f4te d'Azur", "addr:postcode": "83500", "addr:country": "FR", "name": "Korian Le Cap Sicie", "website": "https://www.korian.fr/maison-retraite/ehpad-korian-le-cap-sicie-la-seyne-sur-mer-83500", "brand": "Korian", "brand:wikidata": "Q3198944"}, "geometry": {"type": "Point", "coordinates": [5.8529635, 43.0825457]}},
{"type": "Feature", "id": "7Q2dtJ22XrRZ2DysqFyx6njmffo=", "properties": {"ref": "544041", "@spider": "korian_fr", "addr:full": "58 Chemin des Campeli\u00e8res", "addr:city": "Le Cannet", "addr:state": "Provence-Alpes-C\u00f4te d'Azur", "addr:postcode": "06110", "addr:country": "FR", "name": "Korian Les Campeli\u00e8res", "website": "https://www.korian.fr/maison-retraite/ehpad-korian-les-campelieres-le-cannet-06110", "brand": "Korian", "brand:wikidata": "Q3198944"}, "geometry": {"type": "Point", "coordinates": [7.0077517, 43.5801433]}},
{"type": "Feature", "id": "aCWxkkN3LlrYC_gU1t-i-RUvrrI=", "properties": {"ref": "544368", "@spider": "korian_fr", "addr:full": "260 Chemin de la Station", "addr:city": "Le-Puy-Sainte-R\u00e9parade", "addr:state": "Provence-Alpes-C\u00f4te d'Azur", "addr:postcode": "13610 ", "addr:country": "FR", "name": "Korian Les Luberons", "website": "https://www.korian.fr/maison-retraite/ehpad-korian-les-luberons-le-puy-sainte-reparade-13610", "brand": "Korian", "brand:wikidata": "Q3198944"}, "geometry": {"type": "Point", "coordinates": [5.4422629000001, 43.6645911]}},
{"type": "Feature", "id": "ReDSJ4kcVSHo64S8XNzW4HVzEMg=", "properties": {"ref": "545177", "@spider": "korian_fr", "addr:full": "83 Traverse Charles Susini", "addr:city": "Marseille", "addr:state": "Provence-Alpes-C\u00f4te d'Azur", "addr:postcode": "13013", "addr:country": "FR", "name": "Korian Mistral", "website": "https://www.korian.fr/maison-retraite/ehpad-korian-mistral-marseille-13013", "brand": "Korian", "brand:wikidata": "Q3198944"}, "geometry": {"type": "Point", "coordinates": [5.4163829, 43.3375783]}},
{"type": "Feature", "id": "dkhvOk0Q7nUE27p_HPfHguFwpss=", "properties": {"ref": "535436", "@spider": "korian_fr", "addr:full": "3 Rue du Rh\u00f4ne", "addr:city": "Marseille", "addr:state": "Provence-Alpes-C\u00f4te d'Azur", "addr:postcode": "13008", "addr:country": "FR", "name": "Korian P\u00e9rier", "website": "https://www.korian.fr/maison-retraite/ehpad-korian-perier-marseille-13008", "brand": "Korian", "brand:wikidata": "Q3198944"}, "geometry": {"type": "Point", "coordinates": [5.381525, 43.2795335]}},
{"type": "Feature", "id": "0eteI8xF5p_N1aWMotofNH4dCVY=", "properties": {"ref": "548717", "@spider": "korian_fr", "addr:full": "22 Rue Vandel", "addr:city": "Marseille", "addr:state": "Provence-Alpes-C\u00f4te d'Azur", "addr:postcode": "13008", "addr:country": "FR", "name": "Korian Les Parents", "website": "https://www.korian.fr/maison-retraite/ehpad-korian-les-parents-marseille-13008", "brand": "Korian", "brand:wikidata": "Q3198944"}, "geometry": {"type": "Point", "coordinates": [5.3915337, 43.2810619]}},
{"type": "Feature", "id": "zsAO98-f5BDWifZJsXqo-_9Z8h4=", "properties": {"ref": "547643", "@spider": "korian_fr", "addr:full": "40 Traverse de la Baume Loubi\u00e8re", "addr:city": "Marseille", "addr:state": "Provence-Alpes-C\u00f4te d'Azur", "addr:postcode": "13013", "addr:country": "FR", "name": "Korian La Loubi\u00e8re", "website": "https://www.korian.fr/maison-retraite/ehpad-korian-la-loubiere-marseille-13013", "brand": "Korian", "brand:wikidata": "Q3198944"}, "geometry": {"type": "Point", "coordinates": [5.430915, 43.3534214]}},
{"type": "Feature", "id": "MGnt2R30YAvzrnZNWkHAvvTOvcg=", "properties": {"ref": "544623", "@spider": "korian_fr", "addr:full": "1083 Avenue de la Borde", "addr:city": "Mougins", "addr:state": "Provence-Alpes-C\u00f4te d'Azur", "addr:postcode": "6250", "addr:country": "FR", "name": "Korian Parc de Mougins", "website": "https://www.korian.fr/maison-retraite/ehpad-korian-parc-de-mougins-mougins-06250", "brand": "Korian", "brand:wikidata": "Q3198944"}, "geometry": {"type": "Point", "coordinates": [6.9716794999999, 43.5756268]}},
{"type": "Feature", "id": "M1ZqPxM7fFnFsghuoy3w7E9bGlY=", "properties": {"ref": "540825", "@spider": "korian_fr", "addr:full": "886 Avenue de Tournamy", "addr:city": "Mougins", "addr:state": "Provence-Alpes-C\u00f4te d'Azur", "addr:postcode": "06250", "addr:country": "FR", "name": "Korian La Riviera", "website": "https://www.korian.fr/maison-retraite/ehpad-korian-la-riviera-mougins-06250", "brand": "Korian", "brand:wikidata": "Q3198944"}, "geometry": {"type": "Point", "coordinates": [6.9882433, 43.6049065]}},
{"type": "Feature", "id": "mBU_KKweUaCEdEXrhfg0Nekkv8Q=", "properties": {"ref": "534666", "@spider": "korian_fr", "addr:full": "52 Rue Auguste Gal", "addr:city": "Nice", "addr:state": "Provence-Alpes-C\u00f4te d'Azur", "addr:postcode": "06300", "addr:country": "FR", "name": "Korian Sorgentino", "website": "https://www.korian.fr/maison-retraite/ehpad-korian-sorgentino-nice-06300", "brand": "Korian", "brand:wikidata": "Q3198944"}, "geometry": {"type": "Point", "coordinates": [7.2880757, 43.7071802]}},
{"type": "Feature", "id": "uCMZqO3N8rZ2bF0U3CjlDbMICxs=", "properties": {"ref": "548598", "@spider": "korian_fr", "addr:full": "39 Avenue des Baumettes", "addr:city": "Nice", "addr:state": "Provence-Alpes-C\u00f4te d'Azur", "addr:postcode": "06000", "addr:country": "FR", "name": "Korian Ch\u00e2teau des Olli\u00e8res", "website": "https://www.korian.fr/maison-retraite/ehpad-korian-chateau-des-ollieres-nice-06000", "brand": "Korian", "brand:wikidata": "Q3198944"}, "geometry": {"type": "Point", "coordinates": [7.2475577, 43.6948682]}},
{"type": "Feature", "id": "8ixu-tmfdkeL2RrQ7u7j8NrH_As=", "properties": {"ref": "542963", "@spider": "korian_fr", "addr:full": "221 Avenue du Zoo", "addr:city": "Saint-Laurent-du-Var", "addr:state": "Provence-Alpes-C\u00f4te d'Azur", "addr:postcode": "06700", "addr:country": "FR", "name": "Korian Domaine St-Michel", "website": "https://www.korian.fr/maison-retraite/ehpad-korian-domaine-st-michel-saint-laurent-du-var-06700", "brand": "Korian", "brand:wikidata": "Q3198944"}, "geometry": {"type": "Point", "coordinates": [7.1822089, 43.6644863]}},
{"type": "Feature", "id": "eOg394KBdH0qvV0SA4xNGT7DpFU=", "properties": {"ref": "547738", "@spider": "korian_fr", "addr:full": "73 Rue du Plateau Calliste", "addr:city": "Saint-Laurent-du-Var", "addr:state": "Provence-Alpes-C\u00f4te d'Azur", "addr:postcode": "06700", "addr:country": "FR", "name": "Korian Le Grand Mas", "website": "https://www.korian.fr/maison-retraite/ehpad-korian-le-grand-mas-st-laurent-du-var-06700", "brand": "Korian", "brand:wikidata": "Q3198944"}, "geometry": {"type": "Point", "coordinates": [7.1888342, 43.6625187]}},
{"type": "Feature", "id": "vLbDymHwFcRRCIwfU2nBmZHbr6g=", "properties": {"ref": "535804", "@spider": "korian_fr", "addr:full": "Domaine de St Elme - Route du Lazaret", "addr:city": "Saint-Mandrier", "addr:state": "Provence-Alpes-C\u00f4te d'Azur", "addr:postcode": "83430", "addr:country": "FR", "name": "Korian Les Pins Bleus", "website": "https://www.korian.fr/maison-retraite/ehpad-korian-les-pins-bleus-saint-mandrier-83430", "brand": "Korian", "brand:wikidata": "Q3198944"}, "geometry": {"type": "Point", "coordinates": [5.927237, 43.07541]}},
{"type": "Feature", "id": "ReNu5eCC49I85uoS3vYSqzmTJPA=", "properties": {"ref": "546370", "@spider": "korian_fr", "addr:full": "Chemin de Collongue", "addr:city": "Saint-Marc-Jaumegarde", "addr:state": "Provence-Alpes-C\u00f4te d'Azur", "addr:postcode": "13100", "addr:country": "FR", "name": "Korian Domaine de Collongue", "website": "https://www.korian.fr/maison-retraite/ehpad-korian-domaine-de-collongue-st-marc-jaumegarde-13100", "brand": "Korian", "brand:wikidata": "Q3198944"}, "geometry": {"type": "Point", "coordinates": [5.509247, 43.5338335]}},
{"type": "Feature", "id": "RTrBKIrG2JK1a5nO33alWdu79AE=", "properties": {"ref": "534619", "@spider": "korian_fr", "addr:full": "10 Rue Alphonse Daudet", "addr:city": "Saint-Martin-de-Crau", "addr:state": "Provence-Alpes-C\u00f4te d'Azur", "addr:postcode": "13310", "addr:country": "FR", "name": "Korian La Rimandi\u00e8re", "website": "https://www.korian.fr/maison-retraite/ehpad-korian-la-rimandiere-st-martin-de-crau-13310", "brand": "Korian", "brand:wikidata": "Q3198944"}, "geometry": {"type": "Point", "coordinates": [4.8104979, 43.6343286]}},
{"type": "Feature", "id": "KpN4A5v-ZZqBsrxzQ9tzvg59AJs=", "properties": {"ref": "539627", "@spider": "korian_fr", "addr:full": "18 Boulevard Jean Moulin", "addr:city": "Saint-Mitre-les-Remparts", "addr:state": "Provence-Alpes-C\u00f4te d'Azur", "addr:postcode": "13920", "addr:country": "FR", "name": "Korian Les Restanques", "website": "https://www.korian.fr/maison-retraite/ehpad-korian-les-restanques-saint-mitre-les-remparts-13920", "brand": "Korian", "brand:wikidata": "Q3198944"}, "geometry": {"type": "Point", "coordinates": [5.0207627, 43.4506447]}},
{"type": "Feature", "id": "7fEbrJjsruhirj6lHsTiQET_o0Y=", "properties": {"ref": "540153", "@spider": "korian_fr", "addr:full": "25 Avenue Barbazanges", "addr:city": "Sanary-sur-mer", "addr:state": "Provence-Alpes-C\u00f4te d'Azur", "addr:postcode": "83110", "addr:country": "FR", "name": "Korian La Pin\u00e8de", "website": "https://www.korian.fr/maison-retraite/ehpad-korian-la-pinede-sanary-sur-mer-83110", "brand": "Korian", "brand:wikidata": "Q3198944"}, "geometry": {"type": "Point", "coordinates": [5.7812186, 43.1200727]}},
{"type": "Feature", "id": "KQ0qTwWnAzgmUHYOLaIqUTEAHL8=", "properties": {"ref": "548810", "@spider": "korian_fr", "addr:full": "335 Chemin du Rosaire", "addr:city": "Sanary-sur-mer", "addr:state": "Provence-Alpes-C\u00f4te d'Azur", "addr:postcode": "83110", "addr:country": "FR", "name": "R\u00e9sidence Le Rosaire", "website": "https://www.korian.fr/maison-retraite/ehpad-korian-residence-le-rosaire-sanary-sur-mer-83110", "brand": "Korian", "brand:wikidata": "Q3198944"}, "geometry": {"type": "Point", "coordinates": [5.7889221, 43.1186048]}},
{"type": "Feature", "id": "L0Od-42IY55H2enXMEsgU93LJEc=", "properties": {"ref": "540500", "@spider": "korian_fr", "addr:full": "9 Lotissement les Cigales", "addr:city": "Simiane-collongue", "addr:state": "Provence-Alpes-C\u00f4te d'Azur", "addr:postcode": "13109", "addr:country": "FR", "name": "Korian Val des sources", "website": "https://www.korian.fr/maison-retraite/ehpad-korian-val-des-sources-simiane-collongue-13109", "brand": "Korian", "brand:wikidata": "Q3198944"}, "geometry": {"type": "Point", "coordinates": [5.4379486, 43.4305507]}},
{"type": "Feature", "id": "e-O0viYt8LThk8hqqNcy_MTD_8Q=", "properties": {"ref": "543930", "@spider": "korian_fr", "addr:full": "816 Rue David", "addr:city": "Toulon", "addr:state": "Provence-Alpes-C\u00f4te d'Azur", "addr:postcode": "83200", "addr:country": "FR", "name": "Korian Saint-Fran\u00e7ois du Las", "website": "https://www.korian.fr/maison-retraite/ehpad-korian-saint-francois-du-las-toulon-83200", "brand": "Korian", "brand:wikidata": "Q3198944"}, "geometry": {"type": "Point", "coordinates": [5.8853845, 43.1400661]}},
{"type": "Feature", "id": "-VNOnISeMqds2rsCyMEGwfHt_po=", "properties": {"ref": "538699", "@spider": "korian_fr", "addr:full": "158 Route d'Aspremont", "addr:city": "Tourrette-Levens", "addr:state": "Provence-Alpes-C\u00f4te d'Azur", "addr:postcode": "06690", "addr:country": "FR", "name": "Korian Les Cl\u00e9matites", "website": "https://www.korian.fr/maison-retraite/ehpad-korian-les-clematites-tourrette-levens-06690", "brand": "Korian", "brand:wikidata": "Q3198944"}, "geometry": {"type": "Point", "coordinates": [7.2725564, 43.7920884]}},
{"type": "Feature", "id": "2QLPnImCYdEOHihuek5aif3n_ts=", "properties": {"ref": "534444", "@spider": "korian_fr", "addr:full": "RD 10- Quartier des Aliberts", "addr:city": "Vauvenargues", "addr:state": "Provence-Alpes-C\u00f4te d'Azur", "addr:postcode": "13126", "addr:country": "FR", "name": "Korian L'Agora", "website": "https://www.korian.fr/maison-retraite/ehpad-korian-l-agora-vauvenargues-13126", "brand": "Korian", "brand:wikidata": "Q3198944"}, "geometry": {"type": "Point", "coordinates": [5.6142558, 43.5670696]}},
{"type": "Feature", "id": "WrDQrsPTQmNOCjf74D582lgehUI=", "properties": {"ref": "543516", "@spider": "korian_fr", "addr:full": "Rue Hilaire Touche", "addr:city": "Vitrolles", "addr:state": "Provence-Alpes-C\u00f4te d'Azur", "addr:postcode": "13127", "addr:country": "FR", "name": "Korian Les Alpilles", "website": "https://www.korian.fr/maison-retraite/ehpad-korian-les-alpilles-vitrolles-13127", "brand": "Korian", "brand:wikidata": "Q3198944"}, "geometry": {"type": "Point", "coordinates": [5.250586, 43.445742]}},
{"type": "Feature", "id": "DZP5Jh4jx9qGmTz-o-RlKUcCLDM=", "properties": {"ref": "544579", "@spider": "korian_fr", "addr:full": "99 Rue Charlet", "addr:city": "Bourges", "addr:state": "Centre-Val de Loire", "addr:postcode": "18000", "addr:country": "FR", "name": "Korian Villa du Printemps", "website": "https://www.korian.fr/maison-retraite/ehpad-korian-villa-du-printemps-bourges-18000", "brand": "Korian", "brand:wikidata": "Q3198944"}, "geometry": {"type": "Point", "coordinates": [2.4160428, 47.0848453]}},
{"type": "Feature", "id": "ltog3Oc3Ns9iASPqTiQLVijHzXE=", "properties": {"ref": "540581", "@spider": "korian_fr", "addr:full": "9 Mail de la Papoterie", "addr:city": "Chambray-l\u00e8s-Tours", "addr:state": "Centre-Val de Loire", "addr:postcode": "37170", "addr:country": "FR", "name": "Korian Le Petit Castel", "website": "https://www.korian.fr/maison-retraite/ehpad-korian-le-petit-castel-chambray-les-tours-37170", "brand": "Korian", "brand:wikidata": "Q3198944"}, "geometry": {"type": "Point", "coordinates": [0.7363567, 47.3383604]}},
{"type": "Feature", "id": "do14BG-quHluQa6RoruGZADs2ok=", "properties": {"ref": "545391", "@spider": "korian_fr", "addr:full": "6 Mail de la Papoterie", "addr:city": "Chambray-l\u00e8s-Tours", "addr:state": "Centre-Val de Loire", "addr:postcode": "37170", "addr:country": "FR", "name": "Korian Chamtou", "website": "https://www.korian.fr/maison-retraite/ehpad-korian-chamtou-chambray-les-tours-37170", "brand": "Korian", "brand:wikidata": "Q3198944"}, "geometry": {"type": "Point", "coordinates": [0.7353776, 47.3378315]}},
{"type": "Feature", "id": "crw980EhxFRWCgvMqFUp7fertx4=", "properties": {"ref": "547292", "@spider": "korian_fr", "addr:full": "24, avenue du G\u00e9n\u00e9ral Patton", "addr:city": "Chartres", "addr:state": "Centre-Val de Loire", "addr:postcode": "28000 ", "addr:country": "FR", "name": "Korian Villa Evora", "website": "https://www.korian.fr/maison-retraite/ehpad-korian-villa-evora-chartres-28000", "brand": "Korian", "brand:wikidata": "Q3198944"}, "geometry": {"type": "Point", "coordinates": [1.474778, 48.4421165]}},
{"type": "Feature", "id": "M3A1dF_jG_1jayvzzYRW00GPIOU=", "properties": {"ref": "538617", "@spider": "korian_fr", "addr:full": "10 Avenue du G\u00e9n\u00e9ral Leclerc", "addr:city": "Dreux", "addr:state": "Centre-Val de Loire", "addr:postcode": "28100", "addr:country": "FR", "name": "Korian La Roseraie", "website": "https://www.korian.fr/maison-retraite/ehpad-korian-la-roseraie-dreux-28100", "brand": "Korian", "brand:wikidata": "Q3198944"}, "geometry": {"type": "Point", "coordinates": [1.3739692, 48.7389902]}},
{"type": "Feature", "id": "OJ0KO6M-mKVPtZRJKd0x17b5tDQ=", "properties": {"ref": "542183", "@spider": "korian_fr", "addr:full": "3 Rue des Ronci\u00e8res", "addr:city": "Fondettes", "addr:state": "Centre-Val de Loire", "addr:postcode": "37230", "addr:country": "FR", "name": "Korian Clos du M\u00fbrier", "website": "https://www.korian.fr/maison-retraite/ehpad-korian-clos-du-murier-fondettes-37230", "brand": "Korian", "brand:wikidata": "Q3198944"}, "geometry": {"type": "Point", "coordinates": [0.6118216, 47.4035361]}},
{"type": "Feature", "id": "14r0lW2_o23420IYNJn0M7Jl3Ro=", "properties": {"ref": "535840", "@spider": "korian_fr", "addr:full": "19 R\u00e9sidence Croix Saint Simon (acc\u00e8s par la Rue de Montbricon)", "addr:city": "Gien", "addr:state": "Centre-Val de Loire", "addr:postcode": "45500 ", "addr:country": "FR", "name": "Korian Santel", "website": "https://www.korian.fr/maison-retraite/ehpad-korian-santel-gien-45500", "brand": "Korian", "brand:wikidata": "Q3198944"}, "geometry": {"type": "Point", "coordinates": [2.6404012, 47.6900714]}},
{"type": "Feature", "id": "L2yXm7F0B9tukqfn1pjBeu_J-kk=", "properties": {"ref": "537510", "@spider": "korian_fr", "addr:full": "4 rue Descartes (acc\u00e8s rue d\u2019Ingr\u00e9)", "addr:city": "La Chapelle-Saint-Mesmin", "addr:state": "Centre-Val de Loire", "addr:postcode": "45380", "addr:country": "FR", "name": "Korian Reflet de Loire", "website": "https://www.korian.fr/maison-retraite/ehpad-korian-reflet-de-loire-la-chapelle-saint-mesmin-45380", "brand": "Korian", "brand:wikidata": "Q3198944"}, "geometry": {"type": "Point", "coordinates": [1.8393665, 47.8959036]}},
{"type": "Feature", "id": "ZgtnVclgGYOYFNRFDFRfjfp4G0A=", "properties": {"ref": "544703", "@spider": "korian_fr", "addr:full": "RN 20 Sud", "addr:city": "La Ferte Saint-Aubin", "addr:state": "Centre-Val de Loire", "addr:postcode": "45240", "addr:country": "FR", "name": "Korian Ch\u00e2teau des Landes", "website": "https://www.korian.fr/maison-retraite/ehpad-korian-chateau-des-landes-la-ferte-saint-aubin-45240", "brand": "Korian", "brand:wikidata": "Q3198944"}, "geometry": {"type": "Point", "coordinates": [1.975114, 47.674302]}},
{"type": "Feature", "id": "RasI5hX4PGPuP_UvIQeaA8-6zlw=", "properties": {"ref": "548889", "@spider": "korian_fr", "addr:full": "40 Rue de Ligner", "addr:city": "La Riche", "addr:state": "Centre-Val de Loire", "addr:postcode": "37520", "addr:country": "FR", "name": "Korian Le Plessis", "website": "https://www.korian.fr/maison-retraite/ehpad-korian-le-plessis-la-riche-37520", "brand": "Korian", "brand:wikidata": "Q3198944"}, "geometry": {"type": "Point", "coordinates": [0.6616856, 47.3832742]}},
{"type": "Feature", "id": "wvLa6fcWkB2uF3xHFAopbwUaD-Y=", "properties": {"ref": "536974", "@spider": "korian_fr", "addr:full": "8 Rue de la Touche", "addr:city": "Nogent-le-Rotrou", "addr:state": "Centre-Val de Loire", "addr:postcode": "28400", "addr:country": "FR", "name": "Korian Les Temps Bleus", "website": "https://www.korian.fr/maison-retraite/ehpad-korian-les-temps-bleus-nogent-le-rotrou-28400", "brand": "Korian", "brand:wikidata": "Q3198944"}, "geometry": {"type": "Point", "coordinates": [0.813083, 48.3139625]}},
{"type": "Feature", "id": "gMUL4L80fO5NDCcRu_x4HVqslIU=", "properties": {"ref": "538979", "@spider": "korian_fr", "addr:full": "851 Rue de la Vall\u00e9e", "addr:city": "Olivet", "addr:state": "Centre-Val de Loire", "addr:postcode": "45160", "addr:country": "FR", "name": "Korian La Reine Blanche", "website": "https://www.korian.fr/maison-retraite/ehpad-korian-la-reine-blanche-olivet-45160", "brand": "Korian", "brand:wikidata": "Q3198944"}, "geometry": {"type": "Point", "coordinates": [1.8849814, 47.8611642]}},
{"type": "Feature", "id": "acj3Cyei_V2eLjgwhc8JtAr52Zk=", "properties": {"ref": "538808", "@spider": "korian_fr", "addr:full": "61 Rue du Faubourg Madeleine", "addr:city": "Orl\u00e9ans", "addr:state": "Centre-Val de Loire", "addr:postcode": "45000", "addr:country": "FR", "name": "Korian Le Baron", "website": "https://www.korian.fr/maison-retraite/ehpad-korian-le-baron-orleans-45000", "brand": "Korian", "brand:wikidata": "Q3198944"}, "geometry": {"type": "Point", "coordinates": [1.8855624, 47.8989259]}},
{"type": "Feature", "id": "0oBUxVe9UEmNYW7x-7cIlrSBChE=", "properties": {"ref": "539327", "@spider": "korian_fr", "addr:full": "78 Avenue de la R\u00e9publique", "addr:city": "Saint-Amand-Montrond", "addr:state": "Centre-Val de Loire", "addr:postcode": "18200", "addr:country": "FR", "name": "Korian La Vall\u00e9e Bleue", "website": "https://www.korian.fr/maison-retraite/ehpad-korian-la-vallee-bleue-st-amand-montrond-18200", "brand": "Korian", "brand:wikidata": "Q3198944"}, "geometry": {"type": "Point", "coordinates": [2.5108779, 46.7306225]}},
{"type": "Feature", "id": "7s2z7kI9oegn-6AAW5eG_HksLDw=", "properties": {"ref": "546899", "@spider": "korian_fr", "addr:full": "32 Rue des 11 Arpents", "addr:city": "Saint-Avertin", "addr:state": "Centre-Val de Loire", "addr:postcode": "37550", "addr:country": "FR", "name": "Korian Le Ven\u00e7ay", "website": "https://www.korian.fr/maison-retraite/ehpad-korian-le-vencay-st-avertin-37550", "brand": "Korian", "brand:wikidata": "Q3198944"}, "geometry": {"type": "Point", "coordinates": [0.7496223, 47.3624372]}},
{"type": "Feature", "id": "1HDhymQzCW2wQHQ01snYVKwQ51w=", "properties": {"ref": "546108", "@spider": "korian_fr", "addr:full": "108 Rue de la Croix de Perigourd", "addr:city": "Saint-Cyr-sur-Loire", "addr:state": "Centre-Val de Loire", "addr:postcode": "37540", "addr:country": "FR", "name": "Korian Croix P\u00e9rigourd", "website": "https://www.korian.fr/maison-retraite/ehpad-korian-croix-perigourd-st-cyr-sur-loire-37540", "brand": "Korian", "brand:wikidata": "Q3198944"}, "geometry": {"type": "Point", "coordinates": [0.6555396, 47.4174188]}},
{"type": "Feature", "id": "SxvxM5PMh2DKFpkuIW3MqEwx3z4=", "properties": {"ref": "4820401", "@spider": "korian_fr", "addr:full": "2 all\u00e9e Charles Barrier", "addr:city": "Saint-Cyr-sur-Loire", "addr:state": "Centre-Val de Loire", "addr:postcode": "37540", "addr:country": "FR", "name": "Korian Louise Gaillard", "website": "https://www.korian.fr/maison-retraite/ehpad-korian-louise-gaillard-saint-cyr-sur-loire-37540", "brand": "Korian", "brand:wikidata": "Q3198944"}, "geometry": {"type": "Point", "coordinates": [0.6712964, 47.4252091]}},
{"type": "Feature", "id": "9CKb4nR0xeIrh0Z2qAoSYzCjSnA=", "properties": {"ref": "548096", "@spider": "korian_fr", "addr:full": "21 Avenue Andr\u00e9 Amp\u00e8re", "addr:city": "Saint-Cyr-sur-Loire", "addr:state": "Centre-Val de Loire", "addr:postcode": "37540", "addr:country": "FR", "name": "Korian La M\u00e9nardi\u00e8re", "website": "https://www.korian.fr/maison-retraite/ehpad-korian-la-menardiere-st-cyr-sur-loire-37540", "brand": "Korian", "brand:wikidata": "Q3198944"}, "geometry": {"type": "Point", "coordinates": [0.6677562, 47.4232441]}},
{"type": "Feature", "id": "i8PiKBpRkhfBKTtEFMIoqxDWXmg=", "properties": {"ref": "3923074", "@spider": "korian_fr", "addr:full": "8 Avenue Pierre et Marie Curie", "addr:city": "Saint-Jean-de-Braye", "addr:state": "Centre-Val de Loire", "addr:postcode": "45800", "addr:country": "FR", "name": "Korian Le Saintier", "website": "https://www.korian.fr/maison-retraite/ehpad-korian-le-saintier-saint-jean-de-braye-45800", "brand": "Korian", "brand:wikidata": "Q3198944"}, "geometry": {"type": "Point", "coordinates": [1.976963, 47.908436]}},
{"type": "Feature", "id": "JyzlPbUhnTw3-TQBAF0W5KPqg84=", "properties": {"ref": "541365", "@spider": "korian_fr", "addr:full": "42 Rue Blaise Pascal", "addr:city": "Tours", "addr:state": "Centre-Val de Loire", "addr:postcode": "37000", "addr:country": "FR", "name": "Korian Les Amarantes", "website": "https://www.korian.fr/maison-retraite/ehpad-korian-les-amarantes-tours-37000", "brand": "Korian", "brand:wikidata": "Q3198944"}, "geometry": {"type": "Point", "coordinates": [0.6938165, 47.3872099]}},
{"type": "Feature", "id": "L56op_fkxTfFyJr3e5zinw1hAdM=", "properties": {"ref": "538032", "@spider": "korian_fr", "addr:full": "7 Boulevard Preuilly", "addr:city": "Tours", "addr:state": "Centre-Val de Loire", "addr:postcode": "37000", "addr:country": "FR", "name": "Korian Les Dames Blanches", "website": "https://www.korian.fr/maison-retraite/ehpad-korian-les-dames-blanches-tours-37000", "brand": "Korian", "brand:wikidata": "Q3198944"}, "geometry": {"type": "Point", "coordinates": [0.6747025, 47.3943801]}},
{"type": "Feature", "id": "TVnCLgGE_fyjHAKHz8pptFBXfaE=", "properties": {"ref": "545349", "@spider": "korian_fr", "addr:full": "Rue Georges Th\u00e9bault", "addr:city": "Apremont", "addr:state": "Pays de la Loire", "addr:postcode": "85220", "addr:country": "FR", "name": "Korian Le Home du Verger", "website": "https://www.korian.fr/maison-retraite/ehpad-korian-le-home-du-verger-apremont-85220", "brand": "Korian", "brand:wikidata": "Q3198944"}, "geometry": {"type": "Point", "coordinates": [-1.737221, 46.7484791]}},
{"type": "Feature", "id": "7AHcMLzOGwMnhuQQHfJzyKKqwg8=", "properties": {"ref": "545303", "@spider": "korian_fr", "addr:full": "50 Rue Charles de Gaulle", "addr:city": "Bonchamp-l\u00e8s-Laval", "addr:state": "Pays de la Loire", "addr:postcode": "53960", "addr:country": "FR", "name": "Korian Villa du Ch\u00eane d'Or", "website": "https://www.korian.fr/maison-retraite/ehpad-korian-villa-du-chene-d-or-bonchamp-les-laval-53960", "brand": "Korian", "brand:wikidata": "Q3198944"}, "geometry": {"type": "Point", "coordinates": [-0.7078717, 48.0776365]}},
{"type": "Feature", "id": "bz6pcMQ1m_UjGE_o5G64zQFnUyE=", "properties": {"ref": "547171", "@spider": "korian_fr", "addr:full": "8 Avenue Jean Jaur\u00e8s", "addr:city": "Chang\u00e9", "addr:state": "Pays de la Loire", "addr:postcode": "72560", "addr:country": "FR", "name": "Korian Artemis", "website": "https://www.korian.fr/maison-retraite/ehpad-korian-artemis-change-72560", "brand": "Korian", "brand:wikidata": "Q3198944"}, "geometry": {"type": "Point", "coordinates": [0.2826118, 47.9849699]}},
{"type": "Feature", "id": "abQ151aQu9b2XwBw5iG2vsMp1M4=", "properties": {"ref": "536385", "@spider": "korian_fr", "addr:full": "44 Rue du Docteur Ren\u00e9 Laforge", "addr:city": "Fontenay-le-Comte", "addr:state": "Pays de la Loire", "addr:postcode": "85200", "addr:country": "FR", "name": "Korian Les Fils d'Argent", "website": "https://www.korian.fr/maison-retraite/ehpad-korian-les-fils-d-argent-fontenay-le-comte-85200", "brand": "Korian", "brand:wikidata": "Q3198944"}, "geometry": {"type": "Point", "coordinates": [-0.8307658, 46.4668331]}},
{"type": "Feature", "id": "dP2G_oT3abwMetawDVo8WeIUy-Y=", "properties": {"ref": "548552", "@spider": "korian_fr", "addr:full": "11 avenue des Corallines", "addr:city": "La Baule", "addr:state": "Pays de la Loire", "addr:postcode": "44500", "addr:country": "FR", "name": "Korian Les Corallines", "website": "https://www.korian.fr/maison-retraite/ehpad-korian-les-corallines-la-baule-44500", "brand": "Korian", "brand:wikidata": "Q3198944"}, "geometry": {"type": "Point", "coordinates": [-2.3950349, 47.2880972]}},
{"type": "Feature", "id": "ESv4Jd8Om0F2ENflbAt7xOHMFuA=", "properties": {"ref": "541112", "@spider": "korian_fr", "addr:full": "96 Boulevard des Belges", "addr:city": "La Roche-sur-Yon", "addr:state": "Pays de la Loire", "addr:postcode": "85000", "addr:country": "FR", "name": "Korian Le Richelieu", "website": "https://www.korian.fr/maison-retraite/ehpad-korian-le-richelieu-la-roche-sur-yon-85000", "brand": "Korian", "brand:wikidata": "Q3198944"}, "geometry": {"type": "Point", "coordinates": [-1.42267, 46.674799]}},
{"type": "Feature", "id": "hFOy_SwX41hPldKea5nokYqPd7A=", "properties": {"ref": "548842", "@spider": "korian_fr", "addr:full": "19 Place Adrien Tironneau", "addr:city": "Le Mans", "addr:state": "Pays de la Loire", "addr:postcode": "72100", "addr:country": "FR", "name": "Korian Pontlieue", "website": "https://www.korian.fr/maison-retraite/ehpad-korian-pontlieue-le-mans-72000", "brand": "Korian", "brand:wikidata": "Q3198944"}, "geometry": {"type": "Point", "coordinates": [0.2100362, 47.9834837]}},
{"type": "Feature", "id": "gYJfAjYbaK--rlYXciqVFVv-M3k=", "properties": {"ref": "537191", "@spider": "korian_fr", "addr:full": "3 Rue Chanzy", "addr:city": "Le Mans", "addr:state": "Pays de la Loire", "addr:postcode": "72100", "addr:country": "FR", "name": "Korian Boll\u00e9e-Chanzy", "website": "https://www.korian.fr/maison-retraite/ehpad-korian-bollee-chanzy-le-mans-72000", "brand": "Korian", "brand:wikidata": "Q3198944"}, "geometry": {"type": "Point", "coordinates": [0.202643, 48.0037719]}},
{"type": "Feature", "id": "NQpZfDGEDA6gacBAxTWQtX8_tW8=", "properties": {"ref": "537234", "@spider": "korian_fr", "addr:full": "8 Rue de la Paix", "addr:city": "Le Pouliguen", "addr:state": "Pays de la Loire", "addr:postcode": "44510", "addr:country": "FR", "name": "Korian Jardin Atlantique", "website": "https://www.korian.fr/maison-retraite/ehpad-korian-jardin-atlantique-le-pouliguen-44510", "brand": "Korian", "brand:wikidata": "Q3198944"}, "geometry": {"type": "Point", "coordinates": [-2.4372384, 47.2749855]}},
{"type": "Feature", "id": "7uRNAjO8sBCbUfoL9JwDThmqfBM=", "properties": {"ref": "546012", "@spider": "korian_fr", "addr:full": "1 Rue du Chenal", "addr:city": "Les Sables-d'Olonne", "addr:state": "Pays de la Loire", "addr:postcode": "85100", "addr:country": "FR", "name": "Korian Le Bourgenay", "website": "https://www.korian.fr/maison-retraite/ehpad-korian-le-bourgenay-les-sables-d-olonne-85100", "brand": "Korian", "brand:wikidata": "Q3198944"}, "geometry": {"type": "Point", "coordinates": [-1.7791188, 46.4985193]}},
{"type": "Feature", "id": "x08gtFEY0wOQQvPhh78TSjabAMU=", "properties": {"ref": "545258", "@spider": "korian_fr", "addr:full": "Rue des Lauriers", "addr:city": "L'Huisserie", "addr:state": "Pays de la Loire", "addr:postcode": "53970", "addr:country": "FR", "name": "Korian Le Castelli", "website": "https://www.korian.fr/maison-retraite/ehpad-korian-le-castelli-l-huisserie-53970", "brand": "Korian", "brand:wikidata": "Q3198944"}, "geometry": {"type": "Point", "coordinates": [-0.7720282, 48.0249026]}},
{"type": "Feature", "id": "g-jdHh9o_Ms7GK2UXHFIN2EjHgQ=", "properties": {"ref": "536801", "@spider": "korian_fr", "addr:full": "3 Rue du Port Durand", "addr:city": "Nantes", "addr:state": "Pays de la Loire", "addr:postcode": "44300", "addr:country": "FR", "name": "Korian Le Ranzay", "website": "https://www.korian.fr/maison-retraite/ehpad-korian-le-ranzay-nantes-44300", "brand": "Korian", "brand:wikidata": "Q3198944"}, "geometry": {"type": "Point", "coordinates": [-1.5310668, 47.2527959]}},
{"type": "Feature", "id": "ynBeveM_8_rHdWrKGacJ9ruc5HY=", "properties": {"ref": "538179", "@spider": "korian_fr", "addr:full": "35 Rue du Bois Robillard ", "addr:city": "Nantes", "addr:state": "Pays de la Loire", "addr:postcode": "44300 ", "addr:country": "FR", "name": "Korian Bois Robillard", "website": "https://www.korian.fr/maison-retraite/ehpad-korian-bois-robillard-nantes-44300", "brand": "Korian", "brand:wikidata": "Q3198944"}, "geometry": {"type": "Point", "coordinates": [-1.5171088, 47.2369156]}},
{"type": "Feature", "id": "tdkzYCm60OK9kcejgsksns0ASoI=", "properties": {"ref": "537634", "@spider": "korian_fr", "addr:full": "24 Route de Dijon", "addr:city": "Aiserey", "addr:state": "Bourgogne Franche-Comt\u00e9", "addr:postcode": "21110", "addr:country": "FR", "name": "Korian Home de l'Oucherotte", "website": "https://www.korian.fr/maison-retraite/ehpad-korian-home-de-l-oucherotte-aiserey-21110", "brand": "Korian", "brand:wikidata": "Q3198944"}, "geometry": {"type": "Point", "coordinates": [5.1584864, 47.1803132]}},
{"type": "Feature", "id": "hiNsWo4big4TwDIv_DbX1oM25Y8=", "properties": {"ref": "545577", "@spider": "korian_fr", "addr:full": "Rue Maryse Basti\u00e9", "addr:city": "Beaune", "addr:state": "Bourgogne Franche-Comt\u00e9", "addr:postcode": "21200 ", "addr:country": "FR", "name": "Korian Clos des Vignes", "website": "https://www.korian.fr/maison-retraite/ehpad-korian-clos-des-vignes-beaune-21200", "brand": "Korian", "brand:wikidata": "Q3198944"}, "geometry": {"type": "Point", "coordinates": [4.833771, 47.0402192]}},
{"type": "Feature", "id": "yGJBb72Ww_Jf4PnTKlXuetln8H4=", "properties": {"ref": "541409", "@spider": "korian_fr", "addr:full": "7 All\u00e9e de Saint-Jean des Vignes", "addr:city": "Chalon-sur-Sa\u00f4ne", "addr:state": "Bourgogne Franche-Comt\u00e9", "addr:postcode": "71100", "addr:country": "FR", "name": "Korian La Villa Papyri", "website": "https://www.korian.fr/maison-retraite/ehpad-korian-la-villa-papyri-chalon-sur-saone-71100", "brand": "Korian", "brand:wikidata": "Q3198944"}, "geometry": {"type": "Point", "coordinates": [4.8534678999999, 46.7978251]}},
{"type": "Feature", "id": "g5bZ_t8C3hWK2knX6EmZW0ESYSI=", "properties": {"ref": "537336", "@spider": "korian_fr", "addr:full": "6 Impasse Sainte-Croix", "addr:city": "Chalon-sur-Sa\u00f4ne", "addr:state": "Bourgogne Franche-Comt\u00e9", "addr:postcode": "71100", "addr:country": "FR", "name": "Korian Bel'Sa\u00f4ne", "website": "https://www.korian.fr/maison-retraite/ehpad-korian-bel-saone-chalon-sur-saone-71100", "brand": "Korian", "brand:wikidata": "Q3198944"}, "geometry": {"type": "Point", "coordinates": [4.8559203, 46.7868523]}},
{"type": "Feature", "id": "KGZlINXKVi06j1MU_SKuQ4jHje8=", "properties": {"ref": "548642", "@spider": "korian_fr", "addr:full": "15 Rue Jean Giono", "addr:city": "Dijon", "addr:state": "Bourgogne Franche-Comt\u00e9", "addr:postcode": "21000", "addr:country": "FR", "name": "Korian Les Cassissines", "website": "https://www.korian.fr/maison-retraite/ehpad-korian-les-cassissines-dijon-21000", "brand": "Korian", "brand:wikidata": "Q3198944"}, "geometry": {"type": "Point", "coordinates": [5.0511607999999, 47.3534454]}},
{"type": "Feature", "id": "17KmbeB2cE119_sVrgEEvbtAXYg=", "properties": {"ref": "542750", "@spider": "korian_fr", "addr:full": "46 Boulevard Henri Bazin", "addr:city": "Dijon", "addr:state": "Bourgogne Franche-Comt\u00e9", "addr:postcode": "21000", "addr:country": "FR", "name": "Korian Les Grands Crus", "website": "https://www.korian.fr/maison-retraite/ehpad-korian-les-grands-crus-dijon-21000", "brand": "Korian", "brand:wikidata": "Q3198944"}, "geometry": {"type": "Point", "coordinates": [5.0195635, 47.3006429]}},
{"type": "Feature", "id": "8tOC3bnynFXo-kZGM8CNaDE-9fs=", "properties": {"ref": "538276", "@spider": "korian_fr", "addr:full": "7 Avenue Georges Pompidou", "addr:city": "Montb\u00e9liard", "addr:state": "Bourgogne Franche-Comt\u00e9", "addr:postcode": "25200", "addr:country": "FR", "name": "Korian Le Doubs Rivage", "website": "https://www.korian.fr/maison-retraite/ehpad-korian-le-doubs-rivage-montbeliard-25200", "brand": "Korian", "brand:wikidata": "Q3198944"}, "geometry": {"type": "Point", "coordinates": [6.8007024, 47.4979212]}},
{"type": "Feature", "id": "qo74v170rS9wgLtW391iDpeEHpI=", "properties": {"ref": "540377", "@spider": "korian_fr", "addr:full": "2 Rue des Chenevi\u00e8res", "addr:city": "Thise", "addr:state": "Bourgogne Franche-Comt\u00e9", "addr:postcode": "25220", "addr:country": "FR", "name": "R\u00e9sidence Vill'Aliz\u00e9", "website": "https://www.korian.fr/maison-retraite/ehpad-korian-vill-alize-thise-25220", "brand": "Korian", "brand:wikidata": "Q3198944"}, "geometry": {"type": "Point", "coordinates": [6.0781979, 47.280741]}},
{"type": "Feature", "id": "08NhFBffv4nBd3Z2KiOchVPjgy8=", "properties": {"ref": "535396", "@spider": "korian_fr", "addr:full": "17 Avenue du Lac", "addr:city": "Vaivre-et-Montoille", "addr:state": "Bourgogne Franche-Comt\u00e9", "addr:postcode": "70000", "addr:country": "FR", "name": "Korian Le Lac", "website": "https://www.korian.fr/maison-retraite/ehpad-korian-le-lac-vaivre-et-montoille-70000", "brand": "Korian", "brand:wikidata": "Q3198944"}, "geometry": {"type": "Point", "coordinates": [6.1059181000001, 47.6354157]}},
{"type": "Feature", "id": "L_8T6VileFs9-MJb3_iC1r_-Jt4=", "properties": {"ref": "536244", "@spider": "korian_fr", "addr:full": "4 All\u00e9e Copernic", "addr:city": "Amn\u00e9ville", "addr:state": "Grand Est", "addr:postcode": "57360", "addr:country": "FR", "name": "Korian Villa Amarelli", "website": "https://www.korian.fr/maison-retraite/ehpad-korian-villa-amarelli-amneville-les-thermes-57360", "brand": "Korian", "brand:wikidata": "Q3198944"}, "geometry": {"type": "Point", "coordinates": [6.1312314, 49.2507795]}},
{"type": "Feature", "id": "0g_52BjeK_h2P2pv3W13i7awvjs=", "properties": {"ref": "544407", "@spider": "korian_fr", "addr:full": "6 rue de l'H\u00f4pital Militaire", "addr:city": "Ch\u00e2lons-en-Champagne", "addr:state": "Grand Est", "addr:postcode": "51000", "addr:country": "FR", "name": "Korian Les Catalaunes", "website": "https://www.korian.fr/maison-retraite/ehpad-korian-les-catalaunes-chalons-en-champagne-51000", "brand": "Korian", "brand:wikidata": "Q3198944"}, "geometry": {"type": "Point", "coordinates": [4.363073, 48.956682]}},
{"type": "Feature", "id": "y5uAMuudXHtqhquwIbaKTGOrYHs=", "properties": {"ref": "542446", "@spider": "korian_fr", "addr:full": "13 Rue Ponscarme", "addr:city": "\u00c9pinal", "addr:state": "Grand Est", "addr:postcode": "88000", "addr:country": "FR", "name": "Korian Villa Spinale", "website": "https://www.korian.fr/maison-retraite/ehpad-korian-villa-spinale-epinal-88000", "brand": "Korian", "brand:wikidata": "Q3198944"}, "geometry": {"type": "Point", "coordinates": [6.4475416, 48.1624463]}},
{"type": "Feature", "id": "jrV7Z3oCEW_2bniq8V68di8iXh4=", "properties": {"ref": "547406", "@spider": "korian_fr", "addr:full": "24 Rue Victor Hugo", "addr:city": "La-Rivi\u00e8re-de-Corps", "addr:state": "Grand Est", "addr:postcode": "10440", "addr:country": "FR", "name": "Korian Jardins d'Hugo", "website": "https://www.korian.fr/maison-retraite/ehpad-korian-jardins-d-hugo-la-riviere-de-corps-10440", "brand": "Korian", "brand:wikidata": "Q3198944"}, "geometry": {"type": "Point", "coordinates": [4.0281147, 48.2846155]}},
{"type": "Feature", "id": "f-dgu8e7k8DcH1WMrFa-S_OerFI=", "properties": {"ref": "542629", "@spider": "korian_fr", "addr:full": "1 All\u00e9e de la Saulx", "addr:city": "Laxou", "addr:state": "Grand Est", "addr:postcode": "54520", "addr:country": "FR", "name": "Korian La Saulx", "website": "https://www.korian.fr/maison-retraite/ehpad-korian-la-saulx-laxou-54520", "brand": "Korian", "brand:wikidata": "Q3198944"}, "geometry": {"type": "Point", "coordinates": [6.1237088, 48.6978645]}},
{"type": "Feature", "id": "XesL1v4DdEaRvx1zhs4GK5HSIck=", "properties": {"ref": "536457", "@spider": "korian_fr", "addr:full": "8 Rue de la Sa\u00f4ne", "addr:city": "Laxou", "addr:state": "Grand Est", "addr:postcode": "54520", "addr:country": "FR", "name": "Korian Le Gentil\u00e9", "website": "https://www.korian.fr/maison-retraite/ehpad-korian-le-gentile-laxou-54520", "brand": "Korian", "brand:wikidata": "Q3198944"}, "geometry": {"type": "Point", "coordinates": [6.1295388999999, 48.6959649]}},
{"type": "Feature", "id": "OQs4H_vHmVZC3TaD_0GGdcJ94m0=", "properties": {"ref": "534191", "@spider": "korian_fr", "addr:full": "12 Boulevard 21E R\u00e9giment Aviation", "addr:city": "Nancy", "addr:state": "Grand Est", "addr:postcode": "54000", "addr:country": "FR", "name": "Korian Plaisance", "website": "https://www.korian.fr/maison-retraite/ehpad-korian-plaisance-nancy-54000", "brand": "Korian", "brand:wikidata": "Q3198944"}, "geometry": {"type": "Point", "coordinates": [6.1923151, 48.6929932]}},
{"type": "Feature", "id": "29Zm_Xp5yk3y5uylq_du1djX4U0=", "properties": {"ref": "541945", "@spider": "korian_fr", "addr:full": "2 rue des Etoffes", "addr:city": "Pfastatt", "addr:state": "Grand Est", "addr:postcode": "68120", "addr:country": "FR", "name": "Korian La Cotonnade", "website": "https://www.korian.fr/maison-retraite/ehpad-korian-la-cotonnade-pfastatt-68120", "brand": "Korian", "brand:wikidata": "Q3198944"}, "geometry": {"type": "Point", "coordinates": [7.3000696, 47.7612517]}},
{"type": "Feature", "id": "i7bFndNWz199QboPX3c5ZKkdc70=", "properties": {"ref": "542353", "@spider": "korian_fr", "addr:full": "10 Rue C\u00e9r\u00e8s", "addr:city": "Reims", "addr:state": "Grand Est", "addr:postcode": "51100", "addr:country": "FR", "name": "Korian Place Royale", "website": "https://www.korian.fr/maison-retraite/ehpad-korian-place-royale-reims-51100", "brand": "Korian", "brand:wikidata": "Q3198944"}, "geometry": {"type": "Point", "coordinates": [4.0356945, 49.2557287]}},
{"type": "Feature", "id": "cyC6rJ7H0ovKZFZP6tEpDluud0o=", "properties": {"ref": "544473", "@spider": "korian_fr", "addr:full": "2 Rue d'Aix la Chapelle", "addr:city": "Reims", "addr:state": "Grand Est", "addr:postcode": "51100", "addr:country": "FR", "name": "Korian Villa des R\u00e8mes", "website": "https://www.korian.fr/maison-retraite/ehpad-korian-villa-des-remes-reims-51100", "brand": "Korian", "brand:wikidata": "Q3198944"}, "geometry": {"type": "Point", "coordinates": [4.0630461000001, 49.2528932]}},
{"type": "Feature", "id": "px4OSqPkGZQuRBnFAqN3Ib2-uY4=", "properties": {"ref": "543585", "@spider": "korian_fr", "addr:full": "305 Chemin de la Cartonnerie", "addr:city": "Sainte-Marguerite", "addr:state": "Grand Est", "addr:postcode": "88100", "addr:country": "FR", "name": "Korian Maison des Aulnes", "website": "https://www.korian.fr/maison-retraite/ehpad-korian-maison-des-aulnes-sainte-marguerite-88100", "brand": "Korian", "brand:wikidata": "Q3198944"}, "geometry": {"type": "Point", "coordinates": [6.977389, 48.2717955]}},
{"type": "Feature", "id": "9V28OLVj2KAHL5q5Vr1VwrFMi6A=", "properties": {"ref": "540948", "@spider": "korian_fr", "addr:full": "38 Rue du 19 Novembre", "addr:city": "Saverne", "addr:state": "Grand Est", "addr:postcode": "67700", "addr:country": "FR", "name": "Korian Les Rives de La Zorn", "website": "https://www.korian.fr/maison-retraite/ehpad-korian-les-rives-de-la-zorn-saverne-67700", "brand": "Korian", "brand:wikidata": "Q3198944"}, "geometry": {"type": "Point", "coordinates": [7.3533282, 48.7413559]}},
{"type": "Feature", "id": "o7OecIWzy4BliLFs6NfZxaMiOfw=", "properties": {"ref": "536056", "@spider": "korian_fr", "addr:full": "3 Rue de la Baronne d'Oberkirch", "addr:city": "Strasbourg", "addr:state": "Grand Est", "addr:postcode": "67000", "addr:country": "FR", "name": "Korian L'Air du Temps", "website": "https://www.korian.fr/maison-retraite/ehpad-korian-l-air-du-temps-strasbourg-robertsau-67000", "brand": "Korian", "brand:wikidata": "Q3198944"}, "geometry": {"type": "Point", "coordinates": [7.7883068, 48.5998052]}},
{"type": "Feature", "id": "_eau7acNr5i2mQSU1n_pGlOLJJM=", "properties": {"ref": "544923", "@spider": "korian_fr", "addr:full": "24 Avenue de Gubbio", "addr:city": "Thann", "addr:state": "Grand Est", "addr:postcode": "68800", "addr:country": "FR", "name": "Korian Les Trois Sapins", "website": "https://www.korian.fr/maison-retraite/ehpad-korian-les-trois-sapins-thann-68800", "brand": "Korian", "brand:wikidata": "Q3198944"}, "geometry": {"type": "Point", "coordinates": [7.1122253999999, 47.7991284]}},
{"type": "Feature", "id": "pbvTae1AgTXrE5yAJ7hNNthpbFQ=", "properties": {"ref": "547211", "@spider": "korian_fr", "addr:full": "41 Avenue Pasteur", "addr:city": "Troyes", "addr:state": "Grand Est", "addr:postcode": "10000", "addr:country": "FR", "name": "Korian Pastoria", "website": "https://www.korian.fr/maison-retraite/ehpad-korian-pastoria-troyes-10000", "brand": "Korian", "brand:wikidata": "Q3198944"}, "geometry": {"type": "Point", "coordinates": [4.0639808999999, 48.3008516]}},
{"type": "Feature", "id": "hea6zOSwFfl9fpWN33yfVGwnTEg=", "properties": {"ref": "543379", "@spider": "korian_fr", "addr:full": "1 Rue du Charmois", "addr:city": "Vandoeuvre-l\u00e8s-Nancy", "addr:state": "Grand Est", "addr:postcode": "54500", "addr:country": "FR", "name": "Korian Jardins du Charmois", "website": "https://www.korian.fr/maison-retraite/ehpad-korian-jardins-du-charmois-vandoeuvre-les-nancy-54500", "brand": "Korian", "brand:wikidata": "Q3198944"}, "geometry": {"type": "Point", "coordinates": [6.170787, 48.6682817]}},
{"type": "Feature", "id": "0tWZubMphyPGhbU5b51__bjgiL8=", "properties": {"ref": "4177568", "@spider": "korian_fr", "addr:full": "11 boulevard Henri Ziegler", "addr:city": "Blagnac", "addr:state": "Occitanie", "addr:postcode": "31700", "addr:country": "FR", "name": "Clinique de Blagnac", "website": "https://www.korian.fr/clinique-ssr/ssr-korian-blagnac-31700", "brand": "Korian", "brand:wikidata": "Q3198944"}, "geometry": {"type": "Point", "coordinates": [1.3630103, 43.6614198]}},
{"type": "Feature", "id": "azdQG0t7eYeX03jY-uHvPs1Z6TY=", "properties": {"ref": "539550", "@spider": "korian_fr", "addr:full": "Le Bourg", "addr:city": "Cahuzac", "addr:state": "Occitanie", "addr:postcode": "81540", "addr:country": "FR", "name": "Korian Le Ch\u00e2teau", "website": "https://www.korian.fr/clinique-ssr/ssr-korian-le-chateau-cahuzac-81540", "brand": "Korian", "brand:wikidata": "Q3198944"}, "geometry": {"type": "Point", "coordinates": [2.0829446, 43.4685874]}},
{"type": "Feature", "id": "kGg9bBR95Lln6hw1glin7DH99Cs=", "properties": {"ref": "537690", "@spider": "korian_fr", "addr:full": "26 route de Villalier", "addr:city": "Conques sur Orbiel", "addr:state": "Occitanie", "addr:postcode": "11600", "addr:country": "FR", "name": "Korian La Vern\u00e8de", "website": "https://www.korian.fr/clinique-ssr/ssr-korian-la-vernede-conques-sur-orbiel-11600", "brand": "Korian", "brand:wikidata": "Q3198944"}, "geometry": {"type": "Point", "coordinates": [2.433893, 43.23364]}},
{"type": "Feature", "id": "NbD_6TWWMnMRfBy_RoBufYXZ2MA=", "properties": {"ref": "727316", "@spider": "korian_fr", "addr:full": "51 Boulevard Fran\u00e7ois Arago\t\t", "addr:city": "Font-Romeu-Odeillo-Via", "addr:state": "Occitanie", "addr:postcode": "66120", "addr:country": "FR", "name": "Clinique Val Pyr\u00e8ne", "website": "https://www.korian.fr/clinique-ssr/ssr-korian-val-pyrene-font-romeu-66120", "brand": "Korian", "brand:wikidata": "Q3198944"}, "geometry": {"type": "Point", "coordinates": [2.0336906, 42.500162]}},
{"type": "Feature", "id": "TRyGab3Mgrvyv2wiqNFHCeeR8Cs=", "properties": {"ref": "724115", "@spider": "korian_fr", "addr:full": "800 Avenue Joseph Vallot", "addr:city": "Lod\u00e8ve", "addr:state": "Occitanie", "addr:postcode": "34700", "addr:country": "FR", "name": "Clinique du Souffle La Vallonie", "website": "https://www.korian.fr/clinique-ssr/ssr-korian-clinique-du-souffle-la-vallonie-lodeve-34700", "brand": "Korian", "brand:wikidata": "Q3198944"}, "geometry": {"type": "Point", "coordinates": [3.3047176, 43.7321554]}},
{"type": "Feature", "id": "1XciHv_9A82LsN3vgeq3vXr7V10=", "properties": {"ref": "534748", "@spider": "korian_fr", "addr:full": "20 Rue Nicolas Leblanc", "addr:city": "Narbonne", "addr:state": "Occitanie", "addr:postcode": "11100", "addr:country": "FR", "name": "Korian Les 4 Fontaines", "website": "https://www.korian.fr/clinique-ssr/ssr-korian-les-quatre-fontaines-narbonne-11100", "brand": "Korian", "brand:wikidata": "Q3198944"}, "geometry": {"type": "Point", "coordinates": [2.9696789, 43.1592566]}},
{"type": "Feature", "id": "qIMDYPHB9nR-800tGxivVYkYQVM=", "properties": {"ref": "723990", "@spider": "korian_fr", "addr:full": "19 rue des Casteillets", "addr:city": "Oss\u00e9ja", "addr:state": "Occitanie", "addr:postcode": "66340", "addr:country": "FR", "name": "Clinique du Souffle La Solane", "website": "https://www.korian.fr/clinique-ssr/ssr-korian-souffle-la-solane-osseja-66340", "brand": "Korian", "brand:wikidata": "Q3198944"}, "geometry": {"type": "Point", "coordinates": [1.981819, 42.4174138]}},
{"type": "Feature", "id": "bjKZ0EGKpLoJ_5cZwIYOaFSiejM=", "properties": {"ref": "543282", "@spider": "korian_fr", "addr:full": "1 Place H\u00e9l\u00e8ne Boucher", "addr:city": "Quint-Fonsegrives", "addr:state": "Occitanie", "addr:postcode": "31130", "addr:country": "FR", "name": "Korian Val de Saune", "website": "https://www.korian.fr/clinique-ssr/ssr-korian-val-de-saune-quint-fonsegrives-31130", "brand": "Korian", "brand:wikidata": "Q3198944"}, "geometry": {"type": "Point", "coordinates": [1.5203891, 43.5815495]}},
{"type": "Feature", "id": "BQmrNPwemWdcaW3ELbp-Abht2C8=", "properties": {"ref": "623148", "@spider": "korian_fr", "addr:full": "10 Avenue Hubert Curien", "addr:city": "Toulouse", "addr:state": "Occitanie", "addr:postcode": "31100", "addr:country": "FR", "name": "Korian Estela", "website": "https://www.korian.fr/clinique-ssr/ssr-korian-estela-toulouse-31100", "brand": "Korian", "brand:wikidata": "Q3198944"}, "geometry": {"type": "Point", "coordinates": [1.4313173, 43.5567386]}},
{"type": "Feature", "id": "9RQCt-BNaClioj4JCKbIIEhqrO4=", "properties": {"ref": "3182659", "@spider": "korian_fr", "addr:full": "213 rue Michel Carr\u00e9", "addr:city": "Bezons", "addr:state": "\u00cele-de-France", "addr:postcode": "95870", "addr:country": "FR", "name": "Clinique Quai de Bezons", "website": "https://www.korian.fr/clinique-ssr/ssr-korian-quai-de-bezons-95870", "brand": "Korian", "brand:wikidata": "Q3198944"}, "geometry": {"type": "Point", "coordinates": [2.2288262, 48.9278188]}},
{"type": "Feature", "id": "GEYbwi8nfMRr0nhOxy6g65E2iWU=", "properties": {"ref": "547137", "@spider": "korian_fr", "addr:full": "27 Rue de Villeneuve", "addr:city": "Bezons", "addr:state": "\u00cele-de-France", "addr:postcode": "95870", "addr:country": "FR", "name": "Korian Le Pont", "website": "https://www.korian.fr/clinique-ssr/ssr-korian-le-pont-bezons-95870", "brand": "Korian", "brand:wikidata": "Q3198944"}, "geometry": {"type": "Point", "coordinates": [2.2148582, 48.9257862]}},
{"type": "Feature", "id": "314O76VExZ1HvNcBBS_W9e7hbAE=", "properties": {"ref": "544668", "@spider": "korian_fr", "addr:full": "1-3 rue Aim\u00e9 C\u00e9saire", "addr:city": "Guyancourt", "addr:state": "\u00cele-de-France", "addr:postcode": "78280 ", "addr:country": "FR", "name": "Korian Le Grand Parc", "website": "https://www.korian.fr/clinique-ssr/ssr-korian-le-grand-parc-guyancourt-78280", "brand": "Korian", "brand:wikidata": "Q3198944"}, "geometry": {"type": "Point", "coordinates": [2.0716206, 48.774807]}},
{"type": "Feature", "id": "Yw41zc_1E1S3LQnm4guq4pHjRxc=", "properties": {"ref": "543439", "@spider": "korian_fr", "addr:full": "33 Avenue de la Cour de France", "addr:city": "Juvisy-sur-Orge", "addr:state": "\u00cele-de-France", "addr:postcode": "91260", "addr:country": "FR", "name": "Korian L'Observatoire", "website": "https://www.korian.fr/clinique-ssr/ssr-korian-l-observatoire-juvisy-orge-91260", "brand": "Korian", "brand:wikidata": "Q3198944"}, "geometry": {"type": "Point", "coordinates": [2.3704195, 48.6922427]}},
{"type": "Feature", "id": "VE3rkBMi4Vj0WITLErLQQDplVAE=", "properties": {"ref": "4118343", "@spider": "korian_fr", "addr:full": "14-22 rue du Canal", "addr:city": "Le Perreux-sur-Marne", "addr:state": "\u00cele-de-France", "addr:postcode": "94170", "addr:country": "FR", "name": "Clinique Le Perreux-sur-Marne", "website": "https://www.korian.fr/clinique-ssr/ssr-korian-le-perreux-sur-marne-94170", "brand": "Korian", "brand:wikidata": "Q3198944"}, "geometry": {"type": "Point", "coordinates": [2.5124198, 48.8519491]}},
{"type": "Feature", "id": "IjrCevAgT0le9W4i1TSKeen_NnU=", "properties": {"ref": "1824278", "@spider": "korian_fr", "addr:full": "111-119 avenue Aristide Briand", "addr:city": "Livry-Gargan", "addr:state": "\u00cele-de-France", "addr:postcode": "93190", "addr:country": "FR", "name": "Clinique de Gargan", "website": "https://www.korian.fr/clinique-ssr/ssr-korian-gargan-livry-gargan-93190", "brand": "Korian", "brand:wikidata": "Q3198944"}, "geometry": {"type": "Point", "coordinates": [2.52388, 48.913291]}},
{"type": "Feature", "id": "ukv6K52lqBG89H10e9261gl0jZw=", "properties": {"ref": "544814", "@spider": "korian_fr", "addr:full": "3 Chemin du C\u0153ur Volant", "addr:city": "Louveciennes", "addr:state": "\u00cele-de-France", "addr:postcode": "78430", "addr:country": "FR", "name": "Korian Val de Seine", "website": "https://www.korian.fr/clinique-ssr/ssr-korian-val-de-seine-louveciennes-78430", "brand": "Korian", "brand:wikidata": "Q3198944"}, "geometry": {"type": "Point", "coordinates": [2.105748, 48.864794]}},
{"type": "Feature", "id": "d0rtWSulJgk8h6u4Czkzkho42t0=", "properties": {"ref": "834555", "@spider": "korian_fr", "addr:full": "44, rue Alphonse Penaud", "addr:city": "Paris", "addr:state": "\u00cele-de-France", "addr:postcode": "75020", "addr:country": "FR", "name": "Centre ambulatoire de r\u00e9adaptation du XX\u00e8me \t\t", "website": "https://www.korian.fr/clinique-ssr/centre-ambulatoire-de-readaptation-du-20eme-paris-75020", "brand": "Korian", "brand:wikidata": "Q3198944"}, "geometry": {"type": "Point", "coordinates": [2.4060712, 48.8688573]}},
{"type": "Feature", "id": "d-fqRDh_K_16CdYm6yWCpmz0ovw=", "properties": {"ref": "539821", "@spider": "korian_fr", "addr:full": "74/84 Bis Rue Petit", "addr:city": "Paris", "addr:state": "\u00cele-de-France", "addr:postcode": "75019", "addr:country": "FR", "name": "Korian Canal de L'Ourcq", "website": "https://www.korian.fr/clinique-ssr/ssr-korian-canal-de-l-ourcq-paris-75019", "brand": "Korian", "brand:wikidata": "Q3198944"}, "geometry": {"type": "Point", "coordinates": [2.3883186, 48.8855973]}},
{"type": "Feature", "id": "1Q0o6ABvrW4aEbAWV1nYT--DAVw=", "properties": {"ref": "540271", "@spider": "korian_fr", "addr:full": "Rue du Creux de la Borne", "addr:city": "Saclas", "addr:state": "\u00cele-de-France", "addr:postcode": "91690", "addr:country": "FR", "name": "Korian La Marette", "website": "https://www.korian.fr/clinique-ssr/ssr-korian-la-marette-saclas-91690", "brand": "Korian", "brand:wikidata": "Q3198944"}, "geometry": {"type": "Point", "coordinates": [2.1269726, 48.3563944]}},
{"type": "Feature", "id": "m6P_ps38P7r5b17x_vML_v6r43k=", "properties": {"ref": "548015", "@spider": "korian_fr", "addr:full": "20 Avenue Maurice Berteaux", "addr:city": "Sartrouville", "addr:state": "\u00cele-de-France", "addr:postcode": "78500", "addr:country": "FR", "name": "Korian C.3.S", "website": "https://www.korian.fr/clinique-ssr/ssr-korian-c-3-s-sartrouville-78500", "brand": "Korian", "brand:wikidata": "Q3198944"}, "geometry": {"type": "Point", "coordinates": [2.1612408999999, 48.942781]}},
{"type": "Feature", "id": "WytM4u7FXu-HPg1jlBkCSe1yZxI=", "properties": {"ref": "539748", "@spider": "korian_fr", "addr:full": "38 Rue de Broc\u00e9liande", "addr:city": "Caen", "addr:state": "Normandie", "addr:postcode": "14000", "addr:country": "FR", "name": "Korian Broc\u00e9liande", "website": "https://www.korian.fr/clinique-ssr/ssr-korian-broceliande-caen-14000", "brand": "Korian", "brand:wikidata": "Q3198944"}, "geometry": {"type": "Point", "coordinates": [-0.4080797, 49.1816944]}},
{"type": "Feature", "id": "DEbUX4aCYkGkFallqwQAWHatlC4=", "properties": {"ref": "540243", "@spider": "korian_fr", "addr:full": "10 Rue Anton Tchekhov", "addr:city": "Ifs", "addr:state": "Normandie", "addr:postcode": "14123", "addr:country": "FR", "name": "Korian C\u00f4te Normande", "website": "https://www.korian.fr/clinique-ssr/ssr-korian-cote-normande-ifs-14123", "brand": "Korian", "brand:wikidata": "Q3198944"}, "geometry": {"type": "Point", "coordinates": [-0.3576882, 49.1481755]}},
{"type": "Feature", "id": "LbGMKDmuDlBGl4j8j0M1bM7eOws=", "properties": {"ref": "543830", "@spider": "korian_fr", "addr:full": "40 Boulevard Boivin Champeaux", "addr:city": "Ouistreham", "addr:state": "Normandie", "addr:postcode": "14150", "addr:country": "FR", "name": "Korian Thalatta", "website": "https://www.korian.fr/clinique-ssr/ssr-korian-thalatta-ouistreham-14150", "brand": "Korian", "brand:wikidata": "Q3198944"}, "geometry": {"type": "Point", "coordinates": [-0.2515068, 49.2850187]}},
{"type": "Feature", "id": "ZIJSHbbD671-lOuFujiPEeLvZIg=", "properties": {"ref": "547490", "@spider": "korian_fr", "addr:full": "Le Haut Boscq", "addr:city": "Saint-Martin-d'Aubigny", "addr:state": "Normandie", "addr:postcode": "50190", "addr:country": "FR", "name": "Korian William Harvey", "website": "https://www.korian.fr/clinique-ssr/ssr-korian-william-harvey-saint-martin-d-aubigny-50190", "brand": "Korian", "brand:wikidata": "Q3198944"}, "geometry": {"type": "Point", "coordinates": [-1.3302119, 49.1796015]}},
{"type": "Feature", "id": "4ITAVcBe0H7a-_R8ItanmslpDXI=", "properties": {"ref": "547378", "@spider": "korian_fr", "addr:full": "17 Rue Marcel Grillard", "addr:city": "Siouville-Hague", "addr:state": "Normandie", "addr:postcode": "50340", "addr:country": "FR", "name": "Korian L'Estran", "website": "https://www.korian.fr/clinique-ssr/ssr-korian-l-estran-siouville-hague-50340", "brand": "Korian", "brand:wikidata": "Q3198944"}, "geometry": {"type": "Point", "coordinates": [-1.8417143, 49.5711046]}},
{"type": "Feature", "id": "WTtLZcGoPUlHRN0LbGgapG-jxM8=", "properties": {"ref": "732130", "@spider": "korian_fr", "addr:full": "10 promenade du Sierroz ", "addr:city": "Aix-les-Bains", "addr:state": "Auvergne-Rh\u00f4ne-Alpes", "addr:postcode": "73 100", "addr:country": "FR", "name": "Clinique Gustav Zander", "website": "https://www.korian.fr/clinique-ssr/clinique-gustav-zander-aix-les-bains-73100", "brand": "Korian", "brand:wikidata": "Q3198944"}, "geometry": {"type": "Point", "coordinates": [5.8910882, 45.7009047]}},
{"type": "Feature", "id": "2hj1vGjcszRerrUICEA6dTHh5OY=", "properties": {"ref": "536547", "@spider": "korian_fr", "addr:full": "475 Route des Menthonnex", "addr:city": "Argonay", "addr:state": "Auvergne-Rh\u00f4ne-Alpes", "addr:postcode": "74370", "addr:country": "FR", "name": "Korian Le Mont Veyrier", "website": "https://www.korian.fr/clinique-ssr/ssr-korian-le-mont-veyrier-argonay-74370", "brand": "Korian", "brand:wikidata": "Q3198944"}, "geometry": {"type": "Point", "coordinates": [6.1481857, 45.948243]}},
{"type": "Feature", "id": "wmqJZoDVxaQT3GrCXuzcikph5UY=", "properties": {"ref": "541337", "@spider": "korian_fr", "addr:full": "554 Rue L\u00e9opold le Hon", "addr:city": "Bourg-en-Bresse", "addr:state": "Auvergne-Rh\u00f4ne-Alpes", "addr:postcode": "01000", "addr:country": "FR", "name": "Korian Les Arbelles", "website": "https://www.korian.fr/clinique-ssr/ssr-korian-les-arbelles-bourg-en-bresse-01000", "brand": "Korian", "brand:wikidata": "Q3198944"}, "geometry": {"type": "Point", "coordinates": [5.2320349, 46.1943518]}},
{"type": "Feature", "id": "3BbrayqT6NOtcz0Uh8-fWm2Xlpc=", "properties": {"ref": "543091", "@spider": "korian_fr", "addr:full": "12 Route de Beauregard", "addr:city": "Chadrac", "addr:state": "Auvergne-Rh\u00f4ne-Alpes", "addr:postcode": "43770", "addr:country": "FR", "name": "Korian Beauregard", "website": "https://www.korian.fr/clinique-ssr/ssr-korian-beauregard-chadrac-43008", "brand": "Korian", "brand:wikidata": "Q3198944"}, "geometry": {"type": "Point", "coordinates": [3.8966144, 45.0627308]}},
{"type": "Feature", "id": "3xma9Mrb5O6uOKwcnw0K551l8oI=", "properties": {"ref": "535649", "@spider": "korian_fr", "addr:full": "8 Rue de Lorraine", "addr:city": "\u00c9chirolles", "addr:state": "Auvergne-Rh\u00f4ne-Alpes", "addr:postcode": "38130", "addr:country": "FR", "name": "Korian Les Granges", "website": "https://www.korian.fr/clinique-ssr/ssr-korian-les-granges-echirolles-38130", "brand": "Korian", "brand:wikidata": "Q3198944"}, "geometry": {"type": "Point", "coordinates": [5.7286001, 45.1526383]}},
{"type": "Feature", "id": "JxdSxxW9WWgudOHN_yHq-0pN_Cg=", "properties": {"ref": "2714876", "@spider": "korian_fr", "addr:full": "715 route d'Epinay", "addr:city": "Gleiz\u00e9", "addr:state": "Auvergne-Rh\u00f4ne-Alpes", "addr:postcode": "69400", "addr:country": "FR", "name": "Clinique de Gleiz\u00e9", "website": "https://www.korian.fr/clinique-ssr/ssr-korian-gleize-69400", "brand": "Korian", "brand:wikidata": "Q3198944"}, "geometry": {"type": "Point", "coordinates": [4.6956232, 46.0069637]}},
{"type": "Feature", "id": "SWjvBL9pCgxHFBJ4uv9NhKvZYD4=", "properties": {"ref": "537850", "@spider": "korian_fr", "addr:full": "Chemin des Airelles", "addr:city": "Le Chambon-sur-Lignon", "addr:state": "Auvergne-Rh\u00f4ne-Alpes", "addr:postcode": "43400", "addr:country": "FR", "name": "Korian Le Haut Lignon", "website": "https://www.korian.fr/clinique-ssr/ssr-korian-le-haut-lignon-chambon-sur-lignon-43400", "brand": "Korian", "brand:wikidata": "Q3198944"}, "geometry": {"type": "Point", "coordinates": [4.30524, 45.066618]}},
{"type": "Feature", "id": "Kz1qeUOQt-hTYdvvadVGVqKp7T8=", "properties": {"ref": "4801791", "@spider": "korian_fr", "addr:full": "1 chemin Bouthezard", "addr:city": "Le Puy-en-Velay", "addr:state": "Auvergne-Rh\u00f4ne-Alpes", "addr:postcode": "43000", "addr:country": "FR", "name": "Clinique du Velay", "website": "https://www.korian.fr/clinique-ssr/ssr-korian-puy-en-velay-43000", "brand": "Korian", "brand:wikidata": "Q3198944"}, "geometry": {"type": "Point", "coordinates": [3.8803012, 45.0541261]}},
{"type": "Feature", "id": "D5XXCAoAXEYN_yW8kSwCiniJwr8=", "properties": {"ref": "544448", "@spider": "korian_fr", "addr:full": "Ch\u00e2teau de L\u00e9trette", "addr:city": "L\u00e9tra", "addr:state": "Auvergne-Rh\u00f4ne-Alpes", "addr:postcode": "69620", "addr:country": "FR", "name": "Korian Les Bruy\u00e8res", "website": "https://www.korian.fr/clinique-ssr/ssr-korian-les-bruyeres-letra-69620", "brand": "Korian", "brand:wikidata": "Q3198944"}, "geometry": {"type": "Point", "coordinates": [4.5156959999999, 45.965428]}},
{"type": "Feature", "id": "nfhaCOXwNw0Xx9vGoc2dzmC81Fk=", "properties": {"ref": "535520", "@spider": "korian_fr", "addr:full": "111 Avenue Berthelot", "addr:city": "Lyon", "addr:state": "Auvergne-Rh\u00f4ne-Alpes", "addr:postcode": "69007", "addr:country": "FR", "name": "Korian Les Lilas Bleus", "website": "https://www.korian.fr/clinique-ssr/ssr-korian-les-lilas-bleus-lyon-69007", "brand": "Korian", "brand:wikidata": "Q3198944"}, "geometry": {"type": "Point", "coordinates": [4.8472298, 45.7434896]}},
{"type": "Feature", "id": "I0mtVWgIlYqQOG2RDohmiHYm0JE=", "properties": {"ref": "543348", "@spider": "korian_fr", "addr:full": "47 Rue Dunoir", "addr:city": "Lyon", "addr:state": "Auvergne-Rh\u00f4ne-Alpes", "addr:postcode": "69003", "addr:country": "FR", "name": "Korian Bellecombe", "website": "https://www.korian.fr/clinique-ssr/ssr-korian-bellecombe-lyon-69003", "brand": "Korian", "brand:wikidata": "Q3198944"}, "geometry": {"type": "Point", "coordinates": [4.849205, 45.7613348]}},
{"type": "Feature", "id": "Xaej1BRI6tUBo6-AaNIDa0JzNF4=", "properties": {"ref": "543558", "@spider": "korian_fr", "addr:full": "Rue Francis Laur", "addr:city": "Montrond-les-Bains", "addr:state": "Auvergne-Rh\u00f4ne-Alpes", "addr:postcode": "42210", "addr:country": "FR", "name": "Korian Alma Sant\u00e9", "website": "https://www.korian.fr/clinique-ssr/ssr-korian-alma-sante-montrond-les-bains-42210", "brand": "Korian", "brand:wikidata": "Q3198944"}, "geometry": {"type": "Point", "coordinates": [4.238558, 45.639204]}},
{"type": "Feature", "id": "yqPW8lfDdAKXVsS2Mr13JX4ysLo=", "properties": {"ref": "718733", "@spider": "korian_fr", "addr:full": "460 Avenue de Lyon", "addr:city": "Plateau d'Hauteville", "addr:state": "Auvergne-Rh\u00f4ne-Alpes", "addr:postcode": "01110 ", "addr:country": "FR", "name": "Clinique du Souffle Le Pontet", "website": "https://www.korian.fr/clinique-ssr/clinique-du-souffle-le-pontet-plateau-d-hauteville-01110", "brand": "Korian", "brand:wikidata": "Q3198944"}, "geometry": {"type": "Point", "coordinates": [5.5974018, 45.9749357]}},
{"type": "Feature", "id": "wJbSRrHRfomujbIbXdCfEbgHTNs=", "properties": {"ref": "724201", "@spider": "korian_fr", "addr:full": "8 rue des Docteurs Roche", "addr:city": "Riom-\u00e8s-Montagnes", "addr:state": "Auvergne-Rh\u00f4ne-Alpes", "addr:postcode": "15400", "addr:country": "FR", "name": "Clinique du Souffle Les Clarines", "website": "https://www.korian.fr/clinique-ssr/ssr-korian-souffle-les-clarines-riom-es-montagnes-15400", "brand": "Korian", "brand:wikidata": "Q3198944"}, "geometry": {"type": "Point", "coordinates": [2.6671062, 45.2809815]}},
{"type": "Feature", "id": "R7TPYYMdZcKbfBbqVGGFaxQ54HQ=", "properties": {"ref": "546782", "@spider": "korian_fr", "addr:full": "1, chemin des Hauts du Bois", "addr:city": "Sainte-Foy-L\u00e8s-Lyon", "addr:state": "Auvergne-Rh\u00f4ne-Alpes", "addr:postcode": "69110", "addr:country": "FR", "name": "Korian Le Balcon Lyonnais", "website": "https://www.korian.fr/clinique-ssr/ssr-korian-le-balcon-lyonnais-sainte-foy-les-lyon-69110", "brand": "Korian", "brand:wikidata": "Q3198944"}, "geometry": {"type": "Point", "coordinates": [4.7865906, 45.7383278]}},
{"type": "Feature", "id": "Bk3zu5ZnrCJdoZLY9KDqwffr_d8=", "properties": {"ref": "534990", "@spider": "korian_fr", "addr:full": "Impasse du Couderc", "addr:city": "Thueyts", "addr:state": "Auvergne-Rh\u00f4ne-Alpes", "addr:postcode": "07330", "addr:country": "FR", "name": "Korian La Condamine", "website": "https://www.korian.fr/clinique-ssr/ssr-korian-la-condamine-thueyts-07330", "brand": "Korian", "brand:wikidata": "Q3198944"}, "geometry": {"type": "Point", "coordinates": [4.2202213, 44.6739276]}},
{"type": "Feature", "id": "Mo8K6lbLJBOCLODyY-gVUARuVp8=", "properties": {"ref": "541646", "@spider": "korian_fr", "addr:full": "168 Rue des Champs de Gond", "addr:city": "Thyez", "addr:state": "Auvergne-Rh\u00f4ne-Alpes", "addr:postcode": "74300", "addr:country": "FR", "name": "Korian Les Deux Lys", "website": "https://www.korian.fr/clinique-ssr/ssr-korian-les-deux-lys-thyez-74300", "brand": "Korian", "brand:wikidata": "Q3198944"}, "geometry": {"type": "Point", "coordinates": [6.552944, 46.0781125]}},
{"type": "Feature", "id": "wnS5h1dy0sHr0CZRWagUy_aBwAg=", "properties": {"ref": "1811059", "@spider": "korian_fr", "addr:full": "9 Avenue des Ormeaux", "addr:city": "Angoulins", "addr:state": "Nouvelle-Aquitaine", "addr:postcode": "17690", "addr:country": "FR", "name": "Clinique d'Angoulins-sur-Mer ", "website": "https://www.korian.fr/clinique-ssr/ssr-korian-angoulins-sur-mer-17690", "brand": "Korian", "brand:wikidata": "Q3198944"}, "geometry": {"type": "Point", "coordinates": [-1.0965465, 46.1002991]}},
{"type": "Feature", "id": "T2LMPin1LDK8hb6taY0fzqeH0DM=", "properties": {"ref": "537155", "@spider": "korian_fr", "addr:full": "52 Rue St\u00e9h\u00e9lin", "addr:city": "Bordeaux", "addr:state": "Nouvelle-Aquitaine", "addr:postcode": "33200", "addr:country": "FR", "name": "Korian Les Grands Ch\u00eanes", "website": "https://www.korian.fr/clinique-ssr/ssr-korian-les-grands-chenes-bordeaux-33021", "brand": "Korian", "brand:wikidata": "Q3198944"}, "geometry": {"type": "Point", "coordinates": [-0.62335499999995, 44.8543542]}},
{"type": "Feature", "id": "jdVHoayIG9hwXqEVxbK4UAfhIGc=", "properties": {"ref": "534360", "@spider": "korian_fr", "addr:full": "Impasse des Cedres", "addr:city": "Brive-la-Gaillarde", "addr:state": "Nouvelle-Aquitaine", "addr:postcode": "19100", "addr:country": "FR", "name": "Korian Saint-Jean Lez C\u00e8dres", "website": "https://www.korian.fr/clinique-ssr/ssr-korian-saint-jean-les-cedres-brive-la-gaillarde-19100", "brand": "Korian", "brand:wikidata": "Q3198944"}, "geometry": {"type": "Point", "coordinates": [1.5015112, 45.1611247]}},
{"type": "Feature", "id": "yG01vhhlTF3GyXB58LIWiR-mjOI=", "properties": {"ref": "629179", "@spider": "korian_fr", "addr:full": "34 avenue de Navarre", "addr:city": "Cambo-les-Bains", "addr:state": "Nouvelle-Aquitaine", "addr:postcode": "64250", "addr:country": "FR", "name": "Korian Marienia", "website": "https://www.korian.fr/clinique-ssr/ssr-korian-marienia-cambo-les-bains-64250", "brand": "Korian", "brand:wikidata": "Q3198944"}, "geometry": {"type": "Point", "coordinates": [-1.4015381, 43.3494877]}},
{"type": "Feature", "id": "ZJLUR18U3GgXR2fM8w4i5rIbZhU=", "properties": {"ref": "544152", "@spider": "korian_fr", "addr:full": "2 all\u00e9e Saint Romain", "addr:city": "Cenon", "addr:state": "Nouvelle-Aquitaine", "addr:postcode": "33150", "addr:country": "FR", "name": "Korian Les Hauts de Cenon", "website": "https://www.korian.fr/clinique-ssr/ssr-korian-les-hauts-de-cenon-33150", "brand": "Korian", "brand:wikidata": "Q3198944"}, "geometry": {"type": "Point", "coordinates": [-0.5294548, 44.8470633]}},
{"type": "Feature", "id": "4W71HXzEMM3K3CvKM6yL5mf9XzM=", "properties": {"ref": "535018", "@spider": "korian_fr", "addr:full": "9 La vall\u00e9e des Bas Champs", "addr:city": "Civray", "addr:state": "Nouvelle-Aquitaine", "addr:postcode": "86400", "addr:country": "FR", "name": "Korian L'Or\u00e9gon", "website": "https://www.korian.fr/clinique-ssr/ssr-korian-l-oregon-civray-86400", "brand": "Korian", "brand:wikidata": "Q3198944"}, "geometry": {"type": "Point", "coordinates": [0.3040767, 46.1502269]}},
{"type": "Feature", "id": "bjGW05iW3nPzSg8BwoPsW9aQqew=", "properties": {"ref": "539722", "@spider": "korian_fr", "addr:full": "60 route des Landes ", "addr:city": "Damazan", "addr:state": "Nouvelle-Aquitaine", "addr:postcode": "47160", "addr:country": "FR", "name": "Korian La Paloum\u00e8re", "website": "https://www.korian.fr/clinique-ssr/ssr-korian-la-paloumere-caubeyres-47160", "brand": "Korian", "brand:wikidata": "Q3198944"}, "geometry": {"type": "Point", "coordinates": [0.276419, 44.2905]}},
{"type": "Feature", "id": "vAyP7IA0KxfQ3BWlcwFSU_7FQ6g=", "properties": {"ref": "626107", "@spider": "korian_fr", "addr:full": "33 route de Pau", "addr:city": "Gan", "addr:state": "Nouvelle-Aquitaine", "addr:postcode": "64290", "addr:country": "FR", "name": "Korian L'Ossau", "website": "https://www.korian.fr/clinique-ssr/ssr-korian-l-ossau-gan-64290", "brand": "Korian", "brand:wikidata": "Q3198944"}, "geometry": {"type": "Point", "coordinates": [-0.3922726, 43.2539809]}},
{"type": "Feature", "id": "519TghT4MMm_fv8XwKr3vaKZsQ0=", "properties": {"ref": "539216", "@spider": "korian_fr", "addr:full": "Route des Champagn\u00e8res", "addr:city": "Jarnac", "addr:state": "Nouvelle-Aquitaine", "addr:postcode": "16200", "addr:country": "FR", "name": "Korian Le Mas Blanc", "website": "https://www.korian.fr/clinique-ssr/ssr-korian-le-mas-blanc-jarnac-16200", "brand": "Korian", "brand:wikidata": "Q3198944"}, "geometry": {"type": "Point", "coordinates": [-0.17850520000002, 45.6884742]}},
{"type": "Feature", "id": "c1FgxFnTIUmK6wAI6boMLjYnQME=", "properties": {"ref": "546981", "@spider": "korian_fr", "addr:full": "1444 Chemin Ali\u00e9nor d'Aquitaine", "addr:city": "Montfort-en-Chalosse", "addr:state": "Nouvelle-Aquitaine", "addr:postcode": "40380", "addr:country": "FR", "name": "Korian Montpribat", "website": "https://www.korian.fr/clinique-ssr/ssr-korian-montpribat-montfort-en-chalosse-40380", "brand": "Korian", "brand:wikidata": "Q3198944"}, "geometry": {"type": "Point", "coordinates": [-0.85288030000004, 43.701002]}},
{"type": "Feature", "id": "LW0V7sROat7E870J7D-YBpOT4sA=", "properties": {"ref": "833880", "@spider": "korian_fr", "addr:full": "35 rue de Chermignac", "addr:city": "Saintes", "addr:state": "Nouvelle-Aquitaine", "addr:postcode": "17100", "addr:country": "FR", "name": "Clinique Sur Moreau", "website": "https://www.korian.fr/clinique-ssr/ssr-korian-sur-moreau-saintes-17100", "brand": "Korian", "brand:wikidata": "Q3198944"}, "geometry": {"type": "Point", "coordinates": [-0.6503941, 45.7285264]}},
{"type": "Feature", "id": "XeH3tDgWTbMFw5eTIkmlQfBlL1U=", "properties": {"ref": "1089067", "@spider": "korian_fr", "addr:full": "62 All\u00e9e Fran\u00e7ois Morancy", "addr:city": "Saint-Martin-de-Seignanx", "addr:state": "Nouvelle-Aquitaine", "addr:postcode": "40390", "addr:country": "FR", "name": "Clinique Saint Martin de Seignanx", "website": "https://www.korian.fr/clinique-ssr/ssr-korian-saint-martin-de-seignanx-40390", "brand": "Korian", "brand:wikidata": "Q3198944"}, "geometry": {"type": "Point", "coordinates": [-1.4201404, 43.5518059]}},
{"type": "Feature", "id": "ZRXjUGOi4EWzukTexbx6OlEh3wo=", "properties": {"ref": "543153", "@spider": "korian_fr", "addr:full": "368 All\u00e9e de Christus", "addr:city": "Saint-Paul-l\u00e8s-Dax", "addr:state": "Nouvelle-Aquitaine", "addr:postcode": "40990", "addr:country": "FR", "name": "Korian Napol\u00e9on", "website": "https://www.korian.fr/clinique-ssr/ssr-korian-napoleon-saint-paul-les-dax-40990", "brand": "Korian", "brand:wikidata": "Q3198944"}, "geometry": {"type": "Point", "coordinates": [-1.0657596, 43.7299166]}},
{"type": "Feature", "id": "KEKPnoZJTkUAVl0jKhxV9MZhPGg=", "properties": {"ref": "546412", "@spider": "korian_fr", "addr:full": "257 Route de Toulouse", "addr:city": "Talence", "addr:state": "Nouvelle-Aquitaine", "addr:postcode": "33400", "addr:country": "FR", "name": "Korian Les Flots", "website": "https://www.korian.fr/clinique-ssr/ssr-korian-flots-talence-33400", "brand": "Korian", "brand:wikidata": "Q3198944"}, "geometry": {"type": "Point", "coordinates": [-0.57403249999993, 44.8058939]}},
{"type": "Feature", "id": "siYO1HYpOp9kzRR20bVn_Kze2-c=", "properties": {"ref": "545473", "@spider": "korian_fr", "addr:full": "52A Route de Grenoble", "addr:city": "Brian\u00e7on", "addr:state": "Provence-Alpes-C\u00f4te d'Azur", "addr:postcode": "05100", "addr:country": "FR", "name": "Korian Montjoy", "website": "https://www.korian.fr/clinique-ssr/ssr-korian-montjoy-briancon-05100", "brand": "Korian", "brand:wikidata": "Q3198944"}, "geometry": {"type": "Point", "coordinates": [6.6303568, 44.9115951]}},
{"type": "Feature", "id": "Aqb5ibaqHkVe5Rptn9VcNasz3xA=", "properties": {"ref": "713446", "@spider": "korian_fr", "addr:full": "46 Route de Grenoble", "addr:city": "Brian\u00e7on", "addr:state": "Provence-Alpes-C\u00f4te d'Azur", "addr:postcode": "05100", "addr:country": "FR", "name": "Clinique du Souffle Les Acacias", "website": "https://www.korian.fr/clinique-ssr/ssr-korian-clinique-du-souffle-les-acacias-briancon-05100", "brand": "Korian", "brand:wikidata": "Q3198944"}, "geometry": {"type": "Point", "coordinates": [6.6318, 44.908556]}},
{"type": "Feature", "id": "SjW34In6Hx5nnJGxaQcUyxCzmxs=", "properties": {"ref": "545914", "@spider": "korian_fr", "addr:full": "121 Avenue Jean Henri Fabre", "addr:city": "Carpentras", "addr:state": "Provence-Alpes-C\u00f4te d'Azur", "addr:postcode": "84200", "addr:country": "FR", "name": "Korian Mont Ventoux", "website": "https://www.korian.fr/clinique-ssr/ssr-korian-mont-ventoux-carpentras-84200", "brand": "Korian", "brand:wikidata": "Q3198944"}, "geometry": {"type": "Point", "coordinates": [5.0395694, 44.0532372]}},
{"type": "Feature", "id": "fGQatFOAHA2c4dP-FVsVsMkdLVY=", "properties": {"ref": "541173", "@spider": "korian_fr", "addr:full": "8 Chemin Pellangari", "addr:city": "Ceyreste", "addr:state": "Provence-Alpes-C\u00f4te d'Azur", "addr:postcode": "13600", "addr:country": "FR", "name": "Korian Les Palmiers", "website": "https://www.korian.fr/clinique-ssr/ssr-korian-les-palmiers-ceyreste-13600", "brand": "Korian", "brand:wikidata": "Q3198944"}, "geometry": {"type": "Point", "coordinates": [5.6354576, 43.2190672]}},
{"type": "Feature", "id": "oF2vsj0_KWmtwz6PofQx9Z3lJsk=", "properties": {"ref": "545721", "@spider": "korian_fr", "addr:full": "Route de Sclos", "addr:city": "Contes", "addr:state": "Provence-Alpes-C\u00f4te d'Azur", "addr:postcode": "06390", "addr:country": "FR", "name": "Korian Les Hellenides", "website": "https://www.korian.fr/clinique-ssr/ssr-korian-les-hellenides-contes-06390", "brand": "Korian", "brand:wikidata": "Q3198944"}, "geometry": {"type": "Point", "coordinates": [7.3433864, 43.8159473]}},
{"type": "Feature", "id": "MDUNzYkA3wvMoyU8WcXdQx6zmdU=", "properties": {"ref": "548136", "@spider": "korian_fr", "addr:full": "Route de Riez", "addr:city": "Gr\u00e9oux-les-Bains", "addr:state": "Provence-Alpes-C\u00f4te d'Azur", "addr:postcode": "04800", "addr:country": "FR", "name": "Korian Le Verdon", "website": "https://www.korian.fr/clinique-ssr/ssr-korian-le-verdon-greoux-les-bains-04800", "brand": "Korian", "brand:wikidata": "Q3198944"}, "geometry": {"type": "Point", "coordinates": [5.905214, 43.7579863]}},
{"type": "Feature", "id": "l2uEcJEjnknHD2OGwW8PbDeVPX8=", "properties": {"ref": "538582", "@spider": "korian_fr", "addr:full": "517 Chemin de Grand Pr\u00e9", "addr:city": "La Destrousse", "addr:state": "Provence-Alpes-C\u00f4te d'Azur", "addr:postcode": "13112", "addr:country": "FR", "name": "Korian Les Trois Tours", "website": "https://www.korian.fr/clinique-ssr/ssr-korian-les-trois-tours-la-destrousse-13112", "brand": "Korian", "brand:wikidata": "Q3198944"}, "geometry": {"type": "Point", "coordinates": [5.5976562, 43.3807483]}},
{"type": "Feature", "id": "kNZjzFYchZ0OVEIXLI4KOp6VnJk=", "properties": {"ref": "540079", "@spider": "korian_fr", "addr:full": "Avenue du Cours", "addr:city": "Le-Puy-Sainte-R\u00e9parade", "addr:state": "Provence-Alpes-C\u00f4te d'Azur", "addr:postcode": "13610", "addr:country": "FR", "name": "Korian Les Oliviers", "website": "https://www.korian.fr/clinique-ssr/ssr-oliviers-le-puy-sainte-reparade-13610", "brand": "Korian", "brand:wikidata": "Q3198944"}, "geometry": {"type": "Point", "coordinates": [5.4372055, 43.6620704]}},
{"type": "Feature", "id": "TxzcGnU4yOYtK0ItdiIh_FVSudU=", "properties": {"ref": "537599", "@spider": "korian_fr", "addr:full": "21 All\u00e9e des Pins", "addr:city": "Marseille", "addr:state": "Provence-Alpes-C\u00f4te d'Azur", "addr:postcode": "13009", "addr:country": "FR", "name": "Korian Massilia Les Pins", "website": "https://www.korian.fr/clinique-ssr/ssr-korian-massilia-les-pins-marseille-13009", "brand": "Korian", "brand:wikidata": "Q3198944"}, "geometry": {"type": "Point", "coordinates": [5.4189906, 43.2538277]}},
{"type": "Feature", "id": "YNUnTo-kPaHwiGqgE0WzXsIPolo=", "properties": {"ref": "547558", "@spider": "korian_fr", "addr:full": "Boulevard du 19 Mars 1962", "addr:city": "Martigues", "addr:state": "Provence-Alpes-C\u00f4te d'Azur", "addr:postcode": "13500", "addr:country": "FR", "name": "Korian Cap Ferri\u00e8res", "website": "https://www.korian.fr/clinique-ssr/ssr-korian-cap-ferrieres-martigues-13500", "brand": "Korian", "brand:wikidata": "Q3198944"}, "geometry": {"type": "Point", "coordinates": [5.0387287999999, 43.4229712]}},
{"type": "Feature", "id": "Dw9gJV8f47ZXbj2ABUVlGyAO3Mk=", "properties": {"ref": "537081", "@spider": "korian_fr", "addr:full": "190 rue Andr\u00e9 Jean Boudoy", "addr:city": "Montfavet", "addr:state": "Provence-Alpes-C\u00f4te d'Azur", "addr:postcode": "84140", "addr:country": "FR", "name": "Korian Les Cypr\u00e8s", "website": "https://www.korian.fr/clinique-ssr/ssr-korian-les-cypres-montfavet-84140", "brand": "Korian", "brand:wikidata": "Q3198944"}, "geometry": {"type": "Point", "coordinates": [4.8842870999999, 43.924467]}},
{"type": "Feature", "id": "02tmdXDdeDgyGYm3Nu6hFw_XuFM=", "properties": {"ref": "541079", "@spider": "korian_fr", "addr:full": "Avenue Elie Garro", "addr:city": "Peypin", "addr:state": "Provence-Alpes-C\u00f4te d'Azur", "addr:postcode": "13124", "addr:country": "FR", "name": "Korian Valdonne", "website": "https://www.korian.fr/clinique-ssr/ssr-korian-valdonne-peypin-en-provence-13124", "brand": "Korian", "brand:wikidata": "Q3198944"}, "geometry": {"type": "Point", "coordinates": [5.5768766, 43.3932553]}},
{"type": "Feature", "id": "gVHfpp9NuYYPOUd6rlxh15BqV58=", "properties": {"ref": "542671", "@spider": "korian_fr", "addr:full": "1 Avenue Renee de la Comble", "addr:city": "Saint-R\u00e9my-de-Provence", "addr:state": "Provence-Alpes-C\u00f4te d'Azur", "addr:postcode": "13210", "addr:country": "FR", "name": "Korian Glanum", "website": "https://www.korian.fr/clinique-ssr/ssr-korian-glanum-saint-remy-de-provence-13210", "brand": "Korian", "brand:wikidata": "Q3198944"}, "geometry": {"type": "Point", "coordinates": [4.8343439, 43.7986608]}},
{"type": "Feature", "id": "K4k4Y-rP95mYL6SawAqaTjIyxFw=", "properties": {"ref": "543627", "@spider": "korian_fr", "addr:full": "Rue du Cinsault", "addr:city": "Toulon", "addr:state": "Provence-Alpes-C\u00f4te d'Azur", "addr:postcode": "83260", "addr:country": "FR", "name": "Korian Val du Fenouillet", "website": "https://www.korian.fr/clinique-ssr/ssr-korian-val-du-fenouillet-la-crau-83260", "brand": "Korian", "brand:wikidata": "Q3198944"}, "geometry": {"type": "Point", "coordinates": [6.077814, 43.143095]}},
{"type": "Feature", "id": "8d2kir5UWtXdGd-esGl2-Mv2FpU=", "properties": {"ref": "542704", "@spider": "korian_fr", "addr:full": "Route D\u00e9partementale 136 ", "addr:city": "Gasville", "addr:state": "Centre-Val de Loire", "addr:postcode": "28300", "addr:country": "FR", "name": "Korian Parc de Gasville", "website": "https://www.korian.fr/clinique-ssr/ssr-korian-parc-de-gasville-gasville-28300", "brand": "Korian", "brand:wikidata": "Q3198944"}, "geometry": {"type": "Point", "coordinates": [1.4351717, 48.4897994]}},
{"type": "Feature", "id": "QA0_5ptLH1ng-qP1ZoNi41HB3Wc=", "properties": {"ref": "544511", "@spider": "korian_fr", "addr:full": "41 Avenue Fr\u00e9d\u00e9ric Auguste Bartholdi", "addr:city": "Le Mans", "addr:state": "Pays de la Loire", "addr:postcode": "72000", "addr:country": "FR", "name": "Korian Rougemont", "website": "https://www.korian.fr/clinique-ssr/ssr-korian-rougemont-le-mans-72000", "brand": "Korian", "brand:wikidata": "Q3198944"}, "geometry": {"type": "Point", "coordinates": [0.156644, 48.0201999]}},
{"type": "Feature", "id": "MNCOEVBRRN_s5B26EjLG5jNtl_I=", "properties": {"ref": "542155", "@spider": "korian_fr", "addr:full": "Rue des Lombards", "addr:city": "Hurigny", "addr:state": "Bourgogne Franche-Comt\u00e9", "addr:postcode": "71870", "addr:country": "FR", "name": "Korian Le Tinailler", "website": "https://www.korian.fr/clinique-ssr/ssr-korian-le-tinailler-hurigny-71870", "brand": "Korian", "brand:wikidata": "Q3198944"}, "geometry": {"type": "Point", "coordinates": [4.7950211, 46.3510814]}},
{"type": "Feature", "id": "lzGCBN47L5ETkWmplG2pyo8dq1M=", "properties": {"ref": "539147", "@spider": "korian_fr", "addr:full": "10 Rue de l'Abbaye", "addr:city": "Saint-Denis-l\u00e8s-Sens", "addr:state": "Bourgogne Franche-Comt\u00e9", "addr:postcode": "89100", "addr:country": "FR", "name": "Korian Sainte Colombe", "website": "https://www.korian.fr/clinique-ssr/ssr-korian-sainte-colombe-saint-denis-les-sens-89100", "brand": "Korian", "brand:wikidata": "Q3198944"}, "geometry": {"type": "Point", "coordinates": [3.2708138, 48.2160754]}},
{"type": "Feature", "id": "tWy1FFPICRQxbbZuoVBj_oiuyIM=", "properties": {"ref": "537280", "@spider": "korian_fr", "addr:full": "460 Rue Centrale", "addr:city": "Varennes-Saint-Sauveur", "addr:state": "Bourgogne Franche-Comt\u00e9", "addr:postcode": "71480", "addr:country": "FR", "name": "Korian La Bressane", "website": "https://www.korian.fr/clinique-ssr/ssr-korian-la-bressane-varenne-st-sauveur-71480", "brand": "Korian", "brand:wikidata": "Q3198944"}, "geometry": {"type": "Point", "coordinates": [5.2441334, 46.4842409]}},
{"type": "Feature", "id": "inzntQLQa0qZti8dxda1k8xnwDg=", "properties": {"ref": "542868", "@spider": "korian_fr", "addr:full": "3, Avenue Colette et Daniel Petitjean, ZAC d\u2019Echenilly", "addr:city": "Saint-Andr\u00e9-les-Vergers", "addr:state": "Grand Est", "addr:postcode": "10120", "addr:country": "FR", "name": "Korian Les Vergers", "website": "https://www.korian.fr/clinique-ssr/ssr-korian-les-vergers-saint-andre-les-vergers-10120", "brand": "Korian", "brand:wikidata": "Q3198944"}, "geometry": {"type": "Point", "coordinates": [4.0372664, 48.2770276]}},
{"type": "Feature", "id": "3WRAKLLESUhqSJ3xlsMvr00DQQY=", "properties": {"ref": "545981", "@spider": "korian_fr", "addr:full": "46 Avenue Enseigne Albertini", "addr:city": "B\u00e9ziers", "addr:state": "Occitanie", "addr:postcode": "34500", "addr:country": "FR", "name": "Korian Lo Solelh", "website": "https://www.korian.fr/residence-seniors/residence-korian-lo-solelh-beziers-34500", "brand": "Korian", "brand:wikidata": "Q3198944"}, "geometry": {"type": "Point", "coordinates": [3.2293006, 43.346392]}},
{"type": "Feature", "id": "yYcVm7KH-PIZTOPWJ-vz3m7PC_w=", "properties": {"ref": "633911", "@spider": "korian_fr", "addr:full": "7 bis Chemin de Louradou", "addr:city": "Rouffiac-Tolosan", "addr:state": "Occitanie", "addr:postcode": "31180", "addr:country": "FR", "name": "R\u00e9sidence Domaine de Lestang", "website": "https://www.korian.fr/residence-seniors/domaine-de-lestang-rouffiac-tolosan-toulouse-31180", "brand": "Korian", "brand:wikidata": "Q3198944"}, "geometry": {"type": "Point", "coordinates": [1.5124931, 43.6707426]}},
{"type": "Feature", "id": "PhXonVqYwLyRPShr8i8a_bhS_NU=", "properties": {"ref": "632280", "@spider": "korian_fr", "addr:full": "43, rue Roquemaurel", "addr:city": "Toulouse", "addr:state": "Occitanie", "addr:postcode": "31300", "addr:country": "FR", "name": "R\u00e9sidence Les Terrasses d'Ad\u00e9lie", "website": "https://www.korian.fr/residence-seniors/les-terrasses-d-adelie-toulouse-31300", "brand": "Korian", "brand:wikidata": "Q3198944"}, "geometry": {"type": "Point", "coordinates": [1.4142973, 43.5960696]}},
{"type": "Feature", "id": "p2SKnVGrDjumomdZK-nUKaPL9EY=", "properties": {"ref": "544846", "@spider": "korian_fr", "addr:full": "19 Avenue de la Division Leclerc", "addr:city": "Ch\u00e2tillon", "addr:state": "\u00cele-de-France", "addr:postcode": "92320", "addr:country": "FR", "name": "R\u00e9sidence Castel Voltaire", "website": "https://www.korian.fr/residence-seniors/residence-korian-castel-voltaire-chatillon-92320", "brand": "Korian", "brand:wikidata": "Q3198944"}, "geometry": {"type": "Point", "coordinates": [2.2836646, 48.7981307]}},
{"type": "Feature", "id": "3p5yrlIQx3NxLcTNI379TcUKvaA=", "properties": {"ref": "544782", "@spider": "korian_fr", "addr:full": "Rue Jean Moulin", "addr:city": "Rugles", "addr:state": "Normandie", "addr:postcode": "27250", "addr:country": "FR", "name": "Korian La Risle", "website": "https://www.korian.fr/residence-seniors/residence-korian-la-risle-rugles-27250", "brand": "Korian", "brand:wikidata": "Q3198944"}, "geometry": {"type": "Point", "coordinates": [0.71411280000007, 48.82054]}},
{"type": "Feature", "id": "ETbYXUVzRgMl_nhmQ8Xj0oq19yM=", "properties": {"ref": "540348", "@spider": "korian_fr", "addr:full": "15 Route de la Douane", "addr:city": "Angoulins", "addr:state": "Nouvelle-Aquitaine", "addr:postcode": "17690", "addr:country": "FR", "name": "Korian Le M\u00f4le d'Angoulins", "website": "https://www.korian.fr/residence-seniors/residence-korian-le-mole-d-angoulins-angoulins-17690", "brand": "Korian", "brand:wikidata": "Q3198944"}, "geometry": {"type": "Point", "coordinates": [-1.1166658, 46.1043174]}},
{"type": "Feature", "id": "Z8yMPu6XeS3tYp4QbiHbVj5MpFA=", "properties": {"ref": "633731", "@spider": "korian_fr", "addr:full": "16 rue du Massenet", "addr:city": "Juran\u00e7on", "addr:state": "Nouvelle-Aquitaine", "addr:postcode": "64110", "addr:country": "FR", "name": "R\u00e9sidence Henriade", "website": "https://www.korian.fr/residence-seniors/henriade-jurancon-pau-64110", "brand": "Korian", "brand:wikidata": "Q3198944"}, "geometry": {"type": "Point", "coordinates": [-0.3880801, 43.2905899]}},
{"type": "Feature", "id": "1Dbs91HPT_vKGMlmr5rMVHXvWeQ=", "properties": {"ref": "535280", "@spider": "korian_fr", "addr:full": "47 Rue Emile Combes", "addr:city": "Pons", "addr:state": "Nouvelle-Aquitaine", "addr:postcode": "17800", "addr:country": "FR", "name": "Korian Marie d'Albret", "website": "https://www.korian.fr/residence-seniors/residence-korian-marie-d-albret-pons-17800", "brand": "Korian", "brand:wikidata": "Q3198944"}, "geometry": {"type": "Point", "coordinates": [-0.54899069999999, 45.5772631]}},
{"type": "Feature", "id": "95VOaLvn8hI1G2feqzW6uyjBsHo=", "properties": {"ref": "538735", "@spider": "korian_fr", "addr:full": "18 Boulevard Jean Moulin", "addr:city": "Saint-Mitre-les-Remparts", "addr:state": "Provence-Alpes-C\u00f4te d'Azur", "addr:postcode": "13920", "addr:country": "FR", "name": "Korian Les Restanques", "website": "https://www.korian.fr/residence-seniors/residence-korian-les-restanques-saint-mitre-les-remparts-13920", "brand": "Korian", "brand:wikidata": "Q3198944"}, "geometry": {"type": "Point", "coordinates": [5.02053, 43.4511151]}},
{"type": "Feature", "id": "-ElNCJ9qRmFcOnv_bnoTkZcMMmk=", "properties": {"ref": "5172201", "@spider": "korian_fr", "addr:full": "2 all\u00e9e Charles Barrier", "addr:city": "Saint-Cyr-sur-Loire", "addr:state": "Centre-Val de Loire", "addr:postcode": "37540", "addr:country": "FR", "name": "R\u00e9sidence Louise Gaillard", "website": "https://www.korian.fr/residence-seniors/rss-korian-louise-gaillard-saint-cyr-sur-loire-37540", "brand": "Korian", "brand:wikidata": "Q3198944"}, "geometry": {"type": "Point", "coordinates": [0.6712964, 47.4252091]}},
{"type": "Feature", "id": "1azoiVpaj2ZAWn-GqpFYtYheJfw=", "properties": {"ref": "541981", "@spider": "korian_fr", "addr:full": "94 Boulevard des Belges", "addr:city": "La Roche-sur-Yon", "addr:state": "Pays de la Loire", "addr:postcode": "85000", "addr:country": "FR", "name": "Korian Le Cardinal", "website": "https://www.korian.fr/residence-seniors/residence-korian-le-cardinal-la-roche-sur-yon-85000", "brand": "Korian", "brand:wikidata": "Q3198944"}, "geometry": {"type": "Point", "coordinates": [-1.422659, 46.6747417]}},
{"type": "Feature", "id": "5bT1V1d4Ctj81dUtgP8w-1pqbaw=", "properties": {"ref": "546227", "@spider": "korian_fr", "addr:full": "38 Rue du 19 Novembre", "addr:city": "Saverne", "addr:state": "Grand Est", "addr:postcode": "67700", "addr:country": "FR", "name": "Korian Les Rives de La Zorn", "website": "https://www.korian.fr/residence-seniors/residence-korian-les-rives-de-la-zorn-saverne-67700", "brand": "Korian", "brand:wikidata": "Q3198944"}, "geometry": {"type": "Point", "coordinates": [7.3533282, 48.7413559]}},
{"type": "Feature", "id": "6U7OWh8uzWcn5mTQC2bP6fNYBc4=", "properties": {"ref": "546605", "@spider": "korian_fr", "addr:full": "1820 Chemin de la Madeleine", "addr:city": "Carcassonne", "addr:state": "Occitanie", "addr:postcode": "11000 ", "addr:country": "FR", "name": "Korian Pays des Quatre Vents", "website": "https://www.korian.fr/hospitalisation-a-domicile/had-korian-pays-des-quatre-vents-carcassonne-11000", "brand": "Korian", "brand:wikidata": "Q3198944"}, "geometry": {"type": "Point", "coordinates": [2.3910241, 43.2221146]}},
{"type": "Feature", "id": "RRYIozdf5-QzN-vLKHsbf38pcII=", "properties": {"ref": "538161", "@spider": "korian_fr", "addr:full": "10 Rue Anne Veaute", "addr:city": "Castres", "addr:state": "Occitanie", "addr:postcode": "81100", "addr:country": "FR", "name": "Korian Pays d'Ovalie", "website": "https://www.korian.fr/hospitalisation-a-domicile/had-korian-pays-d-ovalie-castres-81100", "brand": "Korian", "brand:wikidata": "Q3198944"}, "geometry": {"type": "Point", "coordinates": [2.244866, 43.6020703]}},
{"type": "Feature", "id": "SRjJ7gqh15iSBE2-66pVzveAp4Y=", "properties": {"ref": "542731", "@spider": "korian_fr", "addr:full": "3, rue Aim\u00e9 C\u00e9saire", "addr:city": "Guyancourt", "addr:state": "\u00cele-de-France", "addr:postcode": "78280", "addr:country": "FR", "name": "Korian Yvelines Sud", "website": "https://www.korian.fr/hospitalisation-a-domicile/had-korian-yvelines-sud-guyancourt-78280", "brand": "Korian", "brand:wikidata": "Q3198944"}, "geometry": {"type": "Point", "coordinates": [2.0712885, 48.7745171]}},
{"type": "Feature", "id": "jj1_VwoAPk0fk1HwpMqR_Fx0Bb4=", "properties": {"ref": "730952", "@spider": "korian_fr", "addr:full": "9 rue Camille Flammarion", "addr:city": "Juvisy-sur-Orge", "addr:state": "\u00cele-de-France", "addr:postcode": "91260", "addr:country": "FR", "name": "HAD Korian Essonne", "website": "https://www.korian.fr/hospitalisation-a-domicile/had-korian-essonne-juvisy-sur-orge-91260", "brand": "Korian", "brand:wikidata": "Q3198944"}, "geometry": {"type": "Point", "coordinates": [2.3735831, 48.69117]}},
{"type": "Feature", "id": "QqMVS6LgjSonK7GawK7QrEuPzoo=", "properties": {"ref": "625361", "@spider": "korian_fr", "addr:full": "5 avenue Louis Bl\u00e9riot", "addr:city": "Clermont-Ferrand", "addr:state": "Auvergne-Rh\u00f4ne-Alpes", "addr:postcode": "63100", "addr:country": "FR", "name": "Korian Hospitalisation \u00e0 Domicile Clermont-Ferrand", "website": "https://www.korian.fr/hospitalisation-a-domicile/had-korian-clermont-ferrand-63100", "brand": "Korian", "brand:wikidata": "Q3198944"}, "geometry": {"type": "Point", "coordinates": [3.1334472, 45.7830856]}},
{"type": "Feature", "id": "HOODHhyQYiTuDHgiilgmkQcqWqQ=", "properties": {"ref": "542945", "@spider": "korian_fr", "addr:full": "27 Rue L\u00e9o M\u00e9rigot", "addr:city": "Vierzon", "addr:state": "Centre-Val de Loire", "addr:postcode": "18100", "addr:country": "FR", "name": "Korian Pays des Trois Provinces", "website": "https://www.korian.fr/hospitalisation-a-domicile/had-korian-pays-des-trois-provinces-vierzon-18100", "brand": "Korian", "brand:wikidata": "Q3198944"}, "geometry": {"type": "Point", "coordinates": [2.0504345, 47.228408]}},
{"type": "Feature", "id": "uXx_WvrwtCz9GUAsru8G68FFXEE=", "properties": {"ref": "536331", "@spider": "korian_fr", "addr:full": "31 Rue Thiers", "addr:city": "\u00c9pinal", "addr:state": "Grand Est", "addr:postcode": "88000", "addr:country": "FR", "name": "Korian Pays des Images", "website": "https://www.korian.fr/hospitalisation-a-domicile/had-korian-pays-des-images-epinal-88000", "brand": "Korian", "brand:wikidata": "Q3198944"}, "geometry": {"type": "Point", "coordinates": [6.4514853000001, 48.1690155]}},
{"type": "Feature", "id": "koOnMhpxUbBPLW4KS8xty5o95oc=", "properties": {"ref": "541155", "@spider": "korian_fr", "addr:full": "1 place Gambetta", "addr:city": "Neufch\u00e2teau", "addr:state": "Grand Est", "addr:postcode": "88300", "addr:country": "FR", "name": "Korian Neufch\u00e2teau", "website": "https://www.korian.fr/hospitalisation-a-domicile/had-korian-neufchateau-88300", "brand": "Korian", "brand:wikidata": "Q3198944"}, "geometry": {"type": "Point", "coordinates": [5.6906988, 48.3583466]}}]}