{"type":"FeatureCollection","features":[{"type": "Feature", "id": "ydi8BZAjTvbphcX-svFUDNBtwaU=", "properties": {"ref": "23749", "@spider": "kum_and_go", "addr:full": "2237 13th Ave S", "addr:city": "Fargo", "addr:state": "ND", "addr:postcode": "58103", "addr:country": "US", "phone": "701-232-0080", "website": "https://www.kumandgo.com/stores/0818/", "brand": "Kum & Go", "brand:wikidata": "Q6443340"}, "geometry": {"type": "Point", "coordinates": [-96.8166553, 46.8620278]}},
{"type": "Feature", "id": "s0GKCfXTwXnG05xyEWVB4ZzqmuE=", "properties": {"ref": "23709", "@spider": "kum_and_go", "addr:full": "1400 N Cliff Ave", "addr:city": "Sioux Falls", "addr:state": "SD", "addr:postcode": "57103", "addr:country": "US", "phone": "605-221-0148", "website": "https://www.kumandgo.com/stores/0631/", "brand": "Kum & Go", "brand:wikidata": "Q6443340"}, "geometry": {"type": "Point", "coordinates": [-96.7105617, 43.562608]}},
{"type": "Feature", "id": "rYrd_4wRBwNEU4HpHF0VQPrd__E=", "properties": {"ref": "23710", "@spider": "kum_and_go", "addr:full": "1400 N Minnesota Ave", "addr:city": "Sioux Falls", "addr:state": "SD", "addr:postcode": "57104", "addr:country": "US", "phone": "605-338-0012", "website": "https://www.kumandgo.com/stores/0633/", "brand": "Kum & Go", "brand:wikidata": "Q6443340"}, "geometry": {"type": "Point", "coordinates": [-96.7305001, 43.564687]}},
{"type": "Feature", "id": "teBv7t6uyi2yYM_BaHOIX55Ctq0=", "properties": {"ref": "23707", "@spider": "kum_and_go", "addr:full": "412 N Sycamore Ave", "addr:city": "Sioux Falls", "addr:state": "SD", "addr:postcode": "57110", "addr:country": "US", "phone": "605-331-7841", "website": "https://www.kumandgo.com/stores/0620/", "brand": "Kum & Go", "brand:wikidata": "Q6443340"}, "geometry": {"type": "Point", "coordinates": [-96.6710792, 43.5507504]}},
{"type": "Feature", "id": "DD9S0ZZZx9RA6pMoBJZhWbqctyA=", "properties": {"ref": "23703", "@spider": "kum_and_go", "addr:full": "501 N Minnesota Ave", "addr:city": "Sioux Falls", "addr:state": "SD", "addr:postcode": "57104", "addr:country": "US", "phone": "605-373-9191", "website": "https://www.kumandgo.com/stores/0611/", "brand": "Kum & Go", "brand:wikidata": "Q6443340"}, "geometry": {"type": "Point", "coordinates": [-96.7317125, 43.5531382]}},
{"type": "Feature", "id": "MrE-HEA449e7MM-hPU0saSY0rZ4=", "properties": {"ref": "23711", "@spider": "kum_and_go", "addr:full": "1005 W. 11th St.", "addr:city": "Sioux Falls", "addr:state": "SD", "addr:postcode": "57104", "addr:country": "US", "phone": "605-332-3630", "website": "https://www.kumandgo.com/stores/0635/", "brand": "Kum & Go", "brand:wikidata": "Q6443340"}, "geometry": {"type": "Point", "coordinates": [-96.740205, 43.5437974]}},
{"type": "Feature", "id": "qOdH09HNeqz_IK0RRikDdIVtdno=", "properties": {"ref": "23706", "@spider": "kum_and_go", "addr:full": "4721 E 26th St", "addr:city": "Sioux Falls", "addr:state": "SD", "addr:postcode": "57110", "addr:country": "US", "phone": "605-371-1947", "website": "https://www.kumandgo.com/stores/0618/", "brand": "Kum & Go", "brand:wikidata": "Q6443340"}, "geometry": {"type": "Point", "coordinates": [-96.6678631, 43.5290576]}},
{"type": "Feature", "id": "esFSAjfJz2lZa0HV2b1uPIpsUKw=", "properties": {"ref": "23496", "@spider": "kum_and_go", "addr:full": "305 N Maine Ave", "addr:city": "Adrian", "addr:state": "MN", "addr:postcode": "56110", "addr:country": "US", "phone": "507-483-2634", "website": "https://www.kumandgo.com/stores/0026/", "brand": "Kum & Go", "brand:wikidata": "Q6443340"}, "geometry": {"type": "Point", "coordinates": [-95.9340362, 43.6409659]}},
{"type": "Feature", "id": "agYgOumMQC2FnXt5n1cFneo_LLg=", "properties": {"ref": "23708", "@spider": "kum_and_go", "addr:full": "7100 W 41st St", "addr:city": "Sioux Falls", "addr:state": "SD", "addr:postcode": "57106", "addr:country": "US", "phone": "605-361-5547", "website": "https://www.kumandgo.com/stores/0625/", "brand": "Kum & Go", "brand:wikidata": "Q6443340"}, "geometry": {"type": "Point", "coordinates": [-96.8116131, 43.5151875]}},
{"type": "Feature", "id": "NKtbNi54JaRWqdr2EY_8UmLLBoQ=", "properties": {"ref": "23705", "@spider": "kum_and_go", "addr:full": "6001 S Western Ave", "addr:city": "Sioux Falls", "addr:state": "SD", "addr:postcode": "57108", "addr:country": "US", "phone": "605-332-7025", "website": "https://www.kumandgo.com/stores/0616/", "brand": "Kum & Go", "brand:wikidata": "Q6443340"}, "geometry": {"type": "Point", "coordinates": [-96.7478938, 43.4900399]}},
{"type": "Feature", "id": "uK6fluMb-JnkQJCXW4lCvW45B8U=", "properties": {"ref": "23515", "@spider": "kum_and_go", "addr:full": "300 18Th St.", "addr:city": "Spirit Lake", "addr:state": "IA", "addr:postcode": "51360", "addr:country": "US", "phone": "712-336-1107", "website": "https://www.kumandgo.com/stores/0117/", "brand": "Kum & Go", "brand:wikidata": "Q6443340"}, "geometry": {"type": "Point", "coordinates": [-95.0944628, 43.4228803]}},
{"type": "Feature", "id": "MSIJKJUh7DG2hz8Yjpj8rUlFkkg=", "properties": {"ref": "23702", "@spider": "kum_and_go", "addr:full": "1001 Sanborn Ave", "addr:city": "Okoboji", "addr:state": "IA", "addr:postcode": "51355", "addr:country": "US", "phone": "712-332-7669", "website": "https://www.kumandgo.com/stores/0608/", "brand": "Kum & Go", "brand:wikidata": "Q6443340"}, "geometry": {"type": "Point", "coordinates": [-95.1291797, 43.3819912]}},
{"type": "Feature", "id": "4jyrh7ovp8KNNJXZ_h947876aHM=", "properties": {"ref": "23544", "@spider": "kum_and_go", "addr:full": "600 MN Highway 4", "addr:city": "Sherburn", "addr:state": "MN", "addr:postcode": "56171", "addr:country": "US", "phone": "507-764-2640", "website": "https://www.kumandgo.com/stores/0187/", "brand": "Kum & Go", "brand:wikidata": "Q6443340"}, "geometry": {"type": "Point", "coordinates": [-94.7324215, 43.6615051]}},
{"type": "Feature", "id": "NvXv3nTbaiXAGO6AiVAZLwOSWMg=", "properties": {"ref": "23890", "@spider": "kum_and_go", "addr:full": "1864 Old Hwy 141", "addr:city": "Sloan", "addr:state": "IA", "addr:postcode": "51055", "addr:country": "US", "phone": "712-428-4877", "website": "https://www.kumandgo.com/stores/4127/", "brand": "Kum & Go", "brand:wikidata": "Q6443340"}, "geometry": {"type": "Point", "coordinates": [-96.2364332, 42.2277731]}},
{"type": "Feature", "id": "dUKgeXO-aduc3TWtXsOdAE3HOrQ=", "properties": {"ref": "23556", "@spider": "kum_and_go", "addr:full": "1925 S Lakeport St", "addr:city": "Sioux City", "addr:state": "IA", "addr:postcode": "51106", "addr:country": "US", "phone": "712-276-3385", "website": "https://www.kumandgo.com/stores/0228/", "brand": "Kum & Go", "brand:wikidata": "Q6443340"}, "geometry": {"type": "Point", "coordinates": [-96.3470366, 42.4708254]}},
{"type": "Feature", "id": "gKUEaK0mbWQcbve5yYVji8Rz6aM=", "properties": {"ref": "23562", "@spider": "kum_and_go", "addr:full": "1005 Gordon Drive", "addr:city": "Sioux City", "addr:state": "IA", "addr:postcode": "51101", "addr:country": "US", "phone": "712-258-0023", "website": "https://www.kumandgo.com/stores/0251/", "brand": "Kum & Go", "brand:wikidata": "Q6443340"}, "geometry": {"type": "Point", "coordinates": [-96.3970676, 42.4900672]}},
{"type": "Feature", "id": "HfdsK262rlh7Wg6W-G6Pcd1rORs=", "properties": {"ref": "23554", "@spider": "kum_and_go", "addr:full": "1373 Pierce Street", "addr:city": "Sioux City", "addr:state": "IA", "addr:postcode": "51105", "addr:country": "US", "phone": "712-258-4226", "website": "https://www.kumandgo.com/stores/0226/", "brand": "Kum & Go", "brand:wikidata": "Q6443340"}, "geometry": {"type": "Point", "coordinates": [-96.4059056, 42.5048303]}},
{"type": "Feature", "id": "4tKsEuzbfjKfBDWbhH4LEeJ3apU=", "properties": {"ref": "23557", "@spider": "kum_and_go", "addr:full": "1821 Hamilton Blvd", "addr:city": "Sioux City", "addr:state": "IA", "addr:postcode": "51103", "addr:country": "US", "phone": "712-255-7600", "website": "https://www.kumandgo.com/stores/0229/", "brand": "Kum & Go", "brand:wikidata": "Q6443340"}, "geometry": {"type": "Point", "coordinates": [-96.4175945, 42.510247]}},
{"type": "Feature", "id": "Ru3tNwSfPBdmzH3hd-vRNhdLXO4=", "properties": {"ref": "23561", "@spider": "kum_and_go", "addr:full": "3808 Dakota AVE", "addr:city": "South Sioux City", "addr:state": "NE", "addr:postcode": "68776", "addr:country": "US", "phone": "402-494-1141", "website": "https://www.kumandgo.com/stores/0250/", "brand": "Kum & Go", "brand:wikidata": "Q6443340"}, "geometry": {"type": "Point", "coordinates": [-96.4134601, 42.4521791]}},
{"type": "Feature", "id": "fu52jYjGjELD9cEuEZoOupMtHYE=", "properties": {"ref": "23683", "@spider": "kum_and_go", "addr:full": "1120 S Commercial Ave", "addr:city": "Eagle Grove", "addr:state": "IA", "addr:postcode": "50533", "addr:country": "US", "phone": "515-448-4151", "website": "https://www.kumandgo.com/stores/0544/", "brand": "Kum & Go", "brand:wikidata": "Q6443340"}, "geometry": {"type": "Point", "coordinates": [-93.9038013, 42.6539825]}},
{"type": "Feature", "id": "GP_wtFkC0LmZCb5NYdFvIR3KyKc=", "properties": {"ref": "23704", "@spider": "kum_and_go", "addr:full": "32562 477th Ave", "addr:city": "Elk Point", "addr:state": "SD", "addr:postcode": "57025", "addr:country": "US", "phone": "605-356-9453", "website": "https://www.kumandgo.com/stores/0615/", "brand": "Kum & Go", "brand:wikidata": "Q6443340"}, "geometry": {"type": "Point", "coordinates": [-96.6643132, 42.6693895]}},
{"type": "Feature", "id": "vn-BsD0pwE0m4ix3JnLobp8TAus=", "properties": {"ref": "23501", "@spider": "kum_and_go", "addr:full": "1709 Antique City Drive", "addr:city": "Walnut", "addr:state": "IA", "addr:postcode": "51577", "addr:country": "US", "phone": "712-356-8735", "website": "https://www.kumandgo.com/stores/0046/", "brand": "Kum & Go", "brand:wikidata": "Q6443340"}, "geometry": {"type": "Point", "coordinates": [-95.221325, 41.494268]}},
{"type": "Feature", "id": "1BGh4DcyvAiMBhgBvAvnM0CaghY=", "properties": {"ref": "23494", "@spider": "kum_and_go", "addr:full": "29356 298th St.", "addr:city": "Neola", "addr:state": "IA", "addr:postcode": "51559", "addr:country": "US", "phone": "712-485-2153", "website": "https://www.kumandgo.com/stores/0023/", "brand": "Kum & Go", "brand:wikidata": "Q6443340"}, "geometry": {"type": "Point", "coordinates": [-95.6128805, 41.4391119]}},
{"type": "Feature", "id": "WspsNI_z_PAsdGR4naCD5m3eiYw=", "properties": {"ref": "23511", "@spider": "kum_and_go", "addr:full": "109 S 5th Street", "addr:city": "Adair", "addr:state": "IA", "addr:postcode": "50002", "addr:country": "US", "phone": "641-742-3857", "website": "https://www.kumandgo.com/stores/0076/", "brand": "Kum & Go", "brand:wikidata": "Q6443340"}, "geometry": {"type": "Point", "coordinates": [-94.6439188, 41.4962659]}},
{"type": "Feature", "id": "mP97cmX3Zq3Nk0BlCSkXr1KXwgA=", "properties": {"ref": "23522", "@spider": "kum_and_go", "addr:full": "1111 IA Highway 175", "addr:city": "Ellsworth", "addr:state": "IA", "addr:postcode": "50075", "addr:country": "US", "phone": "515-836-4839", "website": "https://www.kumandgo.com/stores/0133/", "brand": "Kum & Go", "brand:wikidata": "Q6443340"}, "geometry": {"type": "Point", "coordinates": [-93.5725401, 42.309815]}},
{"type": "Feature", "id": "04uEmKYCVIcGCzw0S0Zvom2yi2o=", "properties": {"ref": "23670", "@spider": "kum_and_go", "addr:full": "629 S Division Street", "addr:city": "Stuart", "addr:state": "IA", "addr:postcode": "50250", "addr:country": "US", "phone": "515-523-1130", "website": "https://www.kumandgo.com/stores/0510/", "brand": "Kum & Go", "brand:wikidata": "Q6443340"}, "geometry": {"type": "Point", "coordinates": [-94.3181497, 41.4964719]}},
{"type": "Feature", "id": "UvH2u-p_dDC0y8r-QOMjIsQ1ONs=", "properties": {"ref": "23845", "@spider": "kum_and_go", "addr:full": "4506 Lincoln Way", "addr:city": "Ames", "addr:state": "IA", "addr:postcode": "50014", "addr:country": "US", "phone": "515-292-9416", "website": "https://www.kumandgo.com/stores/1215/", "brand": "Kum & Go", "brand:wikidata": "Q6443340"}, "geometry": {"type": "Point", "coordinates": [-93.6794182, 42.0222597]}},
{"type": "Feature", "id": "PnAAx6mztNL4dZhO6im680XkJIg=", "properties": {"ref": "23546", "@spider": "kum_and_go", "addr:full": "4510 Mortensen Rd", "addr:city": "Ames", "addr:state": "IA", "addr:postcode": "50014", "addr:country": "US", "phone": "515-292-3432", "website": "https://www.kumandgo.com/stores/0200/", "brand": "Kum & Go", "brand:wikidata": "Q6443340"}, "geometry": {"type": "Point", "coordinates": [-93.6791211, 42.0116623]}},
{"type": "Feature", "id": "kMy-QXuP9ock935GtxJZJAJA0nU=", "properties": {"ref": "23519", "@spider": "kum_and_go", "addr:full": "1554 Broad St", "addr:city": "Story City", "addr:state": "IA", "addr:postcode": "50248", "addr:country": "US", "phone": "515-733-2391", "website": "https://www.kumandgo.com/stores/0124/", "brand": "Kum & Go", "brand:wikidata": "Q6443340"}, "geometry": {"type": "Point", "coordinates": [-93.5758518, 42.187421]}},
{"type": "Feature", "id": "sFcSClL8vjqkajWzyrd5kYDcMQY=", "properties": {"ref": "23551", "@spider": "kum_and_go", "addr:full": "203 Welch Ave", "addr:city": "Ames", "addr:state": "IA", "addr:postcode": "50014", "addr:country": "US", "phone": "515-292-5395", "website": "https://www.kumandgo.com/stores/0216/", "brand": "Kum & Go", "brand:wikidata": "Q6443340"}, "geometry": {"type": "Point", "coordinates": [-93.6503633, 42.0213113]}},
{"type": "Feature", "id": "p9gyFx-sNjK0XkIbXS0pXDvMtLg=", "properties": {"ref": "23897", "@spider": "kum_and_go", "addr:full": "2320 Lincoln Way", "addr:city": "Ames", "addr:state": "IA", "addr:postcode": "50014", "addr:country": "US", "phone": "515-985-2095", "website": "https://www.kumandgo.com/stores/7706/", "brand": "Kum & Go", "brand:wikidata": "Q6443340"}, "geometry": {"type": "Point", "coordinates": [-93.647354, 42.022489]}},
{"type": "Feature", "id": "UM7ZQg1xZMv9ZI5uIuYvIP0pvTM=", "properties": {"ref": "23874", "@spider": "kum_and_go", "addr:full": "409 Nile Kinnick Dr", "addr:city": "Adel", "addr:state": "IA", "addr:postcode": "50003", "addr:country": "US", "phone": "515-993-4236", "website": "https://www.kumandgo.com/stores/2093/", "brand": "Kum & Go", "brand:wikidata": "Q6443340"}, "geometry": {"type": "Point", "coordinates": [-94.01711, 41.6141768]}},
{"type": "Feature", "id": "DDwVkdlt-6DsFGfsryqriN0jh9Y=", "properties": {"ref": "23550", "@spider": "kum_and_go", "addr:full": "111 Duff Ave.", "addr:city": "Ames", "addr:state": "IA", "addr:postcode": "50010", "addr:country": "US", "phone": "515-233-4991", "website": "https://www.kumandgo.com/stores/0214/", "brand": "Kum & Go", "brand:wikidata": "Q6443340"}, "geometry": {"type": "Point", "coordinates": [-93.6108976, 42.0235998]}},
{"type": "Feature", "id": "dat6s-OVHeLcNIoBLSu3Nj2VQwU=", "properties": {"ref": "23552", "@spider": "kum_and_go", "addr:full": "3111 South Duff Avenue", "addr:city": "Ames", "addr:state": "IA", "addr:postcode": "50010", "addr:country": "US", "phone": "515-232-2802", "website": "https://www.kumandgo.com/stores/0217/", "brand": "Kum & Go", "brand:wikidata": "Q6443340"}, "geometry": {"type": "Point", "coordinates": [-93.6106684, 41.9949187]}},
{"type": "Feature", "id": "_RUhvlAk_AMWDXk3HvjEjKUPkeU=", "properties": {"ref": "23843", "@spider": "kum_and_go", "addr:full": "2801 E. 13Th St.", "addr:city": "Ames", "addr:state": "IA", "addr:postcode": "50010", "addr:country": "US", "phone": "515-985-2090", "website": "https://www.kumandgo.com/stores/1113/", "brand": "Kum & Go", "brand:wikidata": "Q6443340"}, "geometry": {"type": "Point", "coordinates": [-93.575694, 42.03513]}},
{"type": "Feature", "id": "cIzsisvxJy1iUnHe09firqPzqKo=", "properties": {"ref": "23555", "@spider": "kum_and_go", "addr:full": "2108 Isaac Newton Dr.", "addr:city": "Ames", "addr:state": "IA", "addr:postcode": "50010", "addr:country": "US", "phone": "515-233-2200", "website": "https://www.kumandgo.com/stores/0227/", "brand": "Kum & Go", "brand:wikidata": "Q6443340"}, "geometry": {"type": "Point", "coordinates": [-93.5860569, 42.0092054]}},
{"type": "Feature", "id": "n1V9xzSFYgr-iCyodvKXFavRQTY=", "properties": {"ref": "23514", "@spider": "kum_and_go", "addr:full": "1203 Guthrie St", "addr:city": "De Soto", "addr:state": "IA", "addr:postcode": "50069", "addr:country": "US", "phone": "515-834-2500", "website": "https://www.kumandgo.com/stores/0095/", "brand": "Kum & Go", "brand:wikidata": "Q6443340"}, "geometry": {"type": "Point", "coordinates": [-94.0116461, 41.5379167]}},
{"type": "Feature", "id": "X0aFWeL0dYszVNa6qLTF_4UvIUk=", "properties": {"ref": "23524", "@spider": "kum_and_go", "addr:full": "303 W Broadway St", "addr:city": "Polk City", "addr:state": "IA", "addr:postcode": "50226", "addr:country": "US", "phone": "515-984-6959", "website": "https://www.kumandgo.com/stores/0135/", "brand": "Kum & Go", "brand:wikidata": "Q6443340"}, "geometry": {"type": "Point", "coordinates": [-93.7138423, 41.7724368]}},
{"type": "Feature", "id": "YgDXwVFPCXhjw-Shz0le5M37qII=", "properties": {"ref": "23844", "@spider": "kum_and_go", "addr:full": "650 W. Hickman Road", "addr:city": "Waukee", "addr:state": "IA", "addr:postcode": "50263", "addr:country": "US", "phone": "515-300-2201", "website": "https://www.kumandgo.com/stores/1202/", "brand": "Kum & Go", "brand:wikidata": "Q6443340"}, "geometry": {"type": "Point", "coordinates": [-93.8864922, 41.6143368]}},
{"type": "Feature", "id": "W474b7-UV9rgNZpMTJXOOkQClmE=", "properties": {"ref": "23586", "@spider": "kum_and_go", "addr:full": "8990 Boyd St", "addr:city": "Omaha", "addr:state": "NE", "addr:postcode": "68134", "addr:country": "US", "phone": "402-827-0935", "website": "https://www.kumandgo.com/stores/0364/", "brand": "Kum & Go", "brand:wikidata": "Q6443340"}, "geometry": {"type": "Point", "coordinates": [-96.05216, 41.298868]}},
{"type": "Feature", "id": "50oJRXwTQZEMISc0prm2i5oacTw=", "properties": {"ref": "23895", "@spider": "kum_and_go", "addr:full": "1180 Capitol Ave", "addr:city": "Omaha", "addr:state": "NE", "addr:postcode": "68102", "addr:country": "US", "phone": "402-609-7588", "website": "https://www.kumandgo.com/stores/7703/", "brand": "Kum & Go", "brand:wikidata": "Q6443340"}, "geometry": {"type": "Point", "coordinates": [-95.931369, 41.260797]}},
{"type": "Feature", "id": "afA8coOc8YgNvOjAtD8PCqf-pHY=", "properties": {"ref": "23558", "@spider": "kum_and_go", "addr:full": "801 E 1st St", "addr:city": "Grimes", "addr:state": "IA", "addr:postcode": "50111", "addr:country": "US", "phone": "515-986-9335", "website": "https://www.kumandgo.com/stores/0237/", "brand": "Kum & Go", "brand:wikidata": "Q6443340"}, "geometry": {"type": "Point", "coordinates": [-93.7843488, 41.6887642]}},
{"type": "Feature", "id": "s_jeCcaxTV6_ScHWDRz7IoakyU8=", "properties": {"ref": "23489", "@spider": "kum_and_go", "addr:full": "4585 156th Street", "addr:city": "Urbandale", "addr:state": "IA", "addr:postcode": "50323", "addr:country": "US", "phone": "515-987-6901", "website": "https://www.kumandgo.com/stores/0157/", "brand": "Kum & Go", "brand:wikidata": "Q6443340"}, "geometry": {"type": "Point", "coordinates": [-93.8329309, 41.6432534]}},
{"type": "Feature", "id": "Lmbroza5KXTBVi0dD5YFWBJCAXw=", "properties": {"ref": "23585", "@spider": "kum_and_go", "addr:full": "1819 N 72nd St", "addr:city": "Omaha", "addr:state": "NE", "addr:postcode": "68114", "addr:country": "US", "phone": "402-827-8112", "website": "https://www.kumandgo.com/stores/0363/", "brand": "Kum & Go", "brand:wikidata": "Q6443340"}, "geometry": {"type": "Point", "coordinates": [-96.023259, 41.27612]}},
{"type": "Feature", "id": "FM_fCreolv74eV8dfdfbjGov0wE=", "properties": {"ref": "23592", "@spider": "kum_and_go", "addr:full": "13149 Fort St", "addr:city": "Omaha", "addr:state": "NE", "addr:postcode": "68164", "addr:country": "US", "phone": "402-493-3462", "website": "https://www.kumandgo.com/stores/0371/", "brand": "Kum & Go", "brand:wikidata": "Q6443340"}, "geometry": {"type": "Point", "coordinates": [-96.118781, 41.306205]}},
{"type": "Feature", "id": "JU9Qlz_Dkz83nBiBIhSYdoNgkHU=", "properties": {"ref": "23510", "@spider": "kum_and_go", "addr:full": "350 SE University Ave", "addr:city": "Waukee", "addr:state": "IA", "addr:postcode": "50263", "addr:country": "US", "phone": "515-987-2659", "website": "https://www.kumandgo.com/stores/0075/", "brand": "Kum & Go", "brand:wikidata": "Q6443340"}, "geometry": {"type": "Point", "coordinates": [-93.8656664, 41.6000297]}},
{"type": "Feature", "id": "21zIo1GshZ_3a12U-ify6TsCDN8=", "properties": {"ref": "23590", "@spider": "kum_and_go", "addr:full": "11111 Emmet St", "addr:city": "Omaha", "addr:state": "NE", "addr:postcode": "68164", "addr:country": "US", "phone": "402-933-3105", "website": "https://www.kumandgo.com/stores/0369/", "brand": "Kum & Go", "brand:wikidata": "Q6443340"}, "geometry": {"type": "Point", "coordinates": [-96.086289, 41.289217]}},
{"type": "Feature", "id": "6fFQvQfTGtLOuilEKMrvpyrV7nU=", "properties": {"ref": "23528", "@spider": "kum_and_go", "addr:full": "1880 SE Princeton Dr", "addr:city": "Grimes", "addr:state": "IA", "addr:postcode": "50111", "addr:country": "US", "phone": "515-986-0394", "website": "https://www.kumandgo.com/stores/0141/", "brand": "Kum & Go", "brand:wikidata": "Q6443340"}, "geometry": {"type": "Point", "coordinates": [-93.7729945, 41.6733521]}},
{"type": "Feature", "id": "5qUw7t4cpmM3AvY32MdHwkr1WSA=", "properties": {"ref": "23885", "@spider": "kum_and_go", "addr:full": "15590 Hickman Rd", "addr:city": "Clive", "addr:state": "IA", "addr:postcode": "50325", "addr:country": "US", "phone": "515-514-1330", "website": "https://www.kumandgo.com/stores/3156/", "brand": "Kum & Go", "brand:wikidata": "Q6443340"}, "geometry": {"type": "Point", "coordinates": [-93.8330547, 41.6144132]}},
{"type": "Feature", "id": "izSpK_82RmK_mlkML9_ExnhpJos=", "properties": {"ref": "23521", "@spider": "kum_and_go", "addr:full": "1706 Hwy 210", "addr:city": "Huxley", "addr:state": "IA", "addr:postcode": "50124", "addr:country": "US", "phone": "515-310-1981", "website": "https://www.kumandgo.com/stores/0131/", "brand": "Kum & Go", "brand:wikidata": "Q6443340"}, "geometry": {"type": "Point", "coordinates": [-93.5672073, 41.877201]}},
{"type": "Feature", "id": "xfoQ2fiePGd8A0fIH9ZeKzHUhO8=", "properties": {"ref": "23506", "@spider": "kum_and_go", "addr:full": "400 Prairie Bluff Dr", "addr:city": "Waukee", "addr:state": "IA", "addr:postcode": "50263", "addr:country": "US", "phone": "515-216-2176", "website": "https://www.kumandgo.com/stores/0059/", "brand": "Kum & Go", "brand:wikidata": "Q6443340"}, "geometry": {"type": "Point", "coordinates": [-93.8801272, 41.5651754]}},
{"type": "Feature", "id": "lzgtkXf5c6CpvcZNG0_URibIQLQ=", "properties": {"ref": "23579", "@spider": "kum_and_go", "addr:full": "12011 Blondo St", "addr:city": "Omaha", "addr:state": "NE", "addr:postcode": "68164", "addr:country": "US", "phone": "402-493-7272", "website": "https://www.kumandgo.com/stores/0348/", "brand": "Kum & Go", "brand:wikidata": "Q6443340"}, "geometry": {"type": "Point", "coordinates": [-96.101188, 41.277175]}},
{"type": "Feature", "id": "dBNv2qdgPVz7IYyVWVJuvKpBlG4=", "properties": {"ref": "23846", "@spider": "kum_and_go", "addr:full": "7152 Pacific Street", "addr:city": "Omaha", "addr:state": "NE", "addr:postcode": "68106-1022", "addr:country": "US", "phone": "402-391-2330", "website": "https://www.kumandgo.com/stores/1372/", "brand": "Kum & Go", "brand:wikidata": "Q6443340"}, "geometry": {"type": "Point", "coordinates": [-96.0235142, 41.2491515]}},
{"type": "Feature", "id": "NSbQ57JOuJBsftdsgR5ZxDw-KbQ=", "properties": {"ref": "23698", "@spider": "kum_and_go", "addr:full": "4860 NW Urbandale Dr", "addr:city": "Urbandale", "addr:state": "IA", "addr:postcode": "50322", "addr:country": "US", "phone": "515-331-2285", "website": "https://www.kumandgo.com/stores/0572/", "brand": "Kum & Go", "brand:wikidata": "Q6443340"}, "geometry": {"type": "Point", "coordinates": [-93.7692236, 41.6458221]}},
{"type": "Feature", "id": "GnqUlC9p9YdQmr2cVbNHKD5G9Tc=", "properties": {"ref": "23516", "@spider": "kum_and_go", "addr:full": "818 Highway 105", "addr:city": "Northwood", "addr:state": "IA", "addr:postcode": "50459", "addr:country": "US", "phone": "641-323-7440", "website": "https://www.kumandgo.com/stores/0119/", "brand": "Kum & Go", "brand:wikidata": "Q6443340"}, "geometry": {"type": "Point", "coordinates": [-93.3560763, 43.4447453]}},
{"type": "Feature", "id": "YBmDVCduqA6d4bjJYwyyp7OpKSc=", "properties": {"ref": "23566", "@spider": "kum_and_go", "addr:full": "2005 US Highway 18 E", "addr:city": "Clear Lake", "addr:state": "IA", "addr:postcode": "50428", "addr:country": "US", "phone": "641-357-5140", "website": "https://www.kumandgo.com/stores/0301/", "brand": "Kum & Go", "brand:wikidata": "Q6443340"}, "geometry": {"type": "Point", "coordinates": [-93.3597139, 43.1447175]}},
{"type": "Feature", "id": "XqYNrkjSpD0FMOJfmquwDw93LH4=", "properties": {"ref": "23567", "@spider": "kum_and_go", "addr:full": "2905 4th Ave South", "addr:city": "Clear Lake", "addr:state": "IA", "addr:postcode": "50428", "addr:country": "US", "phone": "641-357-6041", "website": "https://www.kumandgo.com/stores/0302/", "brand": "Kum & Go", "brand:wikidata": "Q6443340"}, "geometry": {"type": "Point", "coordinates": [-93.3531002, 43.1329583]}},
{"type": "Feature", "id": "KPjPy0mlqx-WVZihSclpgDlxMig=", "properties": {"ref": "23872", "@spider": "kum_and_go", "addr:full": "2359 Edgington Ave", "addr:city": "Eldora", "addr:state": "IA", "addr:postcode": "50627", "addr:country": "US", "phone": "641-858-5111", "website": "https://www.kumandgo.com/stores/1959/", "brand": "Kum & Go", "brand:wikidata": "Q6443340"}, "geometry": {"type": "Point", "coordinates": [-93.1136031, 42.3603746]}},
{"type": "Feature", "id": "ifF4uBT0V-NXWL6QdBo6xpKBD-U=", "properties": {"ref": "23490", "@spider": "kum_and_go", "addr:full": "609 Central Ave W", "addr:city": "Hampton", "addr:state": "IA", "addr:postcode": "50441", "addr:country": "US", "phone": "641-456-5106", "website": "https://www.kumandgo.com/stores/0001/", "brand": "Kum & Go", "brand:wikidata": "Q6443340"}, "geometry": {"type": "Point", "coordinates": [-93.2151251, 42.7421027]}},
{"type": "Feature", "id": "gP1FeLjwSIhaKv-pSo7HW60klYk=", "properties": {"ref": "23553", "@spider": "kum_and_go", "addr:full": "1002 West Street", "addr:city": "Grinnell", "addr:state": "IA", "addr:postcode": "50112", "addr:country": "US", "phone": "641-236-3890", "website": "https://www.kumandgo.com/stores/0222/", "brand": "Kum & Go", "brand:wikidata": "Q6443340"}, "geometry": {"type": "Point", "coordinates": [-92.7268201, 41.7450345]}},
{"type": "Feature", "id": "mrU6NNnJJJHM-uo6sbYaZFYJZ4A=", "properties": {"ref": "23493", "@spider": "kum_and_go", "addr:full": "715 Lang Creek Ave.", "addr:city": "Grinnell", "addr:state": "IA", "addr:postcode": "50112", "addr:country": "US", "phone": "641-236-0399", "website": "https://www.kumandgo.com/stores/0022/", "brand": "Kum & Go", "brand:wikidata": "Q6443340"}, "geometry": {"type": "Point", "coordinates": [-92.7260431, 41.700114]}},
{"type": "Feature", "id": "EOxDX1PayD7b5FP44ebCVUGyNds=", "properties": {"ref": "23499", "@spider": "kum_and_go", "addr:full": "1200 N. Walnut", "addr:city": "Colfax", "addr:state": "IA", "addr:postcode": "50054", "addr:country": "US", "phone": "515-674-4323", "website": "https://www.kumandgo.com/stores/0032/", "brand": "Kum & Go", "brand:wikidata": "Q6443340"}, "geometry": {"type": "Point", "coordinates": [-93.2467346, 41.6866222]}},
{"type": "Feature", "id": "zpb2b82aDl_3778uuKHWx2OlE8k=", "properties": {"ref": "23674", "@spider": "kum_and_go", "addr:full": "2604 16th Ave", "addr:city": "Cedar Rapids", "addr:state": "IA", "addr:postcode": "52404", "addr:country": "US", "phone": "319-362-1398", "website": "https://www.kumandgo.com/stores/0520/", "brand": "Kum & Go", "brand:wikidata": "Q6443340"}, "geometry": {"type": "Point", "coordinates": [-91.7070749, 41.96335]}},
{"type": "Feature", "id": "1KwrCtrGw_CJgQfBuRWfRY-F_6o=", "properties": {"ref": "23669", "@spider": "kum_and_go", "addr:full": "1203 Blairs Ferry Road", "addr:city": "Marion", "addr:state": "IA", "addr:postcode": "52302", "addr:country": "US", "phone": "319-373-3165", "website": "https://www.kumandgo.com/stores/0509/", "brand": "Kum & Go", "brand:wikidata": "Q6443340"}, "geometry": {"type": "Point", "coordinates": [-91.6249666, 42.0321179]}},
{"type": "Feature", "id": "myEl41DilFu9H0J0raoYya5f0S0=", "properties": {"ref": "23672", "@spider": "kum_and_go", "addr:full": "3132 1st Ave NE", "addr:city": "Cedar Rapids", "addr:state": "IA", "addr:postcode": "52402", "addr:country": "US", "phone": "319-365-1294", "website": "https://www.kumandgo.com/stores/0517/", "brand": "Kum & Go", "brand:wikidata": "Q6443340"}, "geometry": {"type": "Point", "coordinates": [-91.6355463, 42.0094959]}},
{"type": "Feature", "id": "C5fciQOUw6W3eRqUvblW4WQItnU=", "properties": {"ref": "23673", "@spider": "kum_and_go", "addr:full": "3603 NE Otter View Circle", "addr:city": "Ankeny", "addr:state": "IA", "addr:postcode": "50021", "addr:country": "US", "phone": "515-964-1043", "website": "https://www.kumandgo.com/stores/0518/", "brand": "Kum & Go", "brand:wikidata": "Q6443340"}, "geometry": {"type": "Point", "coordinates": [-93.571621, 41.761407]}},
{"type": "Feature", "id": "B70RihV5brht3C5iGhQCP-86zAg=", "properties": {"ref": "23671", "@spider": "kum_and_go", "addr:full": "1420 Mt. Vernon RD SE", "addr:city": "Cedar Rapids", "addr:state": "IA", "addr:postcode": "52403", "addr:country": "US", "phone": "319-363-1160", "website": "https://www.kumandgo.com/stores/0514/", "brand": "Kum & Go", "brand:wikidata": "Q6443340"}, "geometry": {"type": "Point", "coordinates": [-91.6511552, 41.9779085]}},
{"type": "Feature", "id": "qzEeQ13OzMLdc0DnETOUOuUk6jI=", "properties": {"ref": "23543", "@spider": "kum_and_go", "addr:full": "3015 Oxbow Court SW", "addr:city": "Bondurant", "addr:state": "IA", "addr:postcode": "50035", "addr:country": "US", "phone": "641-847-7866", "website": "https://www.kumandgo.com/stores/0185/", "brand": "Kum & Go", "brand:wikidata": "Q6443340"}, "geometry": {"type": "Point", "coordinates": [-93.4607681, 41.7019329]}},
{"type": "Feature", "id": "Bu60ma9LQtwyG2JYLT7CsZHQyOc=", "properties": {"ref": "23849", "@spider": "kum_and_go", "addr:full": "2177 M Ave.", "addr:city": "Williamsburg", "addr:state": "IA", "addr:postcode": "52361", "addr:country": "US", "phone": "319-668-1285", "website": "https://www.kumandgo.com/stores/1443/", "brand": "Kum & Go", "brand:wikidata": "Q6443340"}, "geometry": {"type": "Point", "coordinates": [-92.0660615, 41.6927378]}},
{"type": "Feature", "id": "lIZ44b63BTZ3yimDZoXOPwOykvA=", "properties": {"ref": "23666", "@spider": "kum_and_go", "addr:full": "3215 7th Ave", "addr:city": "Marion", "addr:state": "IA", "addr:postcode": "52302", "addr:country": "US", "phone": "319-373-3270", "website": "https://www.kumandgo.com/stores/0503/", "brand": "Kum & Go", "brand:wikidata": "Q6443340"}, "geometry": {"type": "Point", "coordinates": [-91.5770868, 42.0348136]}},
{"type": "Feature", "id": "LDGikh-bVJj-GoNlGWyUEmVY8x8=", "properties": {"ref": "23565", "@spider": "kum_and_go", "addr:full": "1825 N Ankeny Blvd", "addr:city": "Ankeny", "addr:state": "IA", "addr:postcode": "50023", "addr:country": "US", "phone": "515-965-2090", "website": "https://www.kumandgo.com/stores/0292/", "brand": "Kum & Go", "brand:wikidata": "Q6443340"}, "geometry": {"type": "Point", "coordinates": [-93.5996613, 41.7466711]}},
{"type": "Feature", "id": "5Lyul6K__vQD8-Mhpng2KHaV2vE=", "properties": {"ref": "23513", "@spider": "kum_and_go", "addr:full": "1025 E 1St ST", "addr:city": "Ankeny", "addr:state": "IA", "addr:postcode": "50021", "addr:country": "US", "phone": "515-965-6756", "website": "https://www.kumandgo.com/stores/0092/", "brand": "Kum & Go", "brand:wikidata": "Q6443340"}, "geometry": {"type": "Point", "coordinates": [-93.5817042, 41.7312279]}},
{"type": "Feature", "id": "isXGEakyN-RvIUO-yK8sy37kTB8=", "properties": {"ref": "23668", "@spider": "kum_and_go", "addr:full": "30 Four Oaks Drive SW", "addr:city": "Cedar Rapids", "addr:state": "IA", "addr:postcode": "52404", "addr:country": "US", "phone": "319-366-3026", "website": "https://www.kumandgo.com/stores/0508/", "brand": "Kum & Go", "brand:wikidata": "Q6443340"}, "geometry": {"type": "Point", "coordinates": [-91.6575745, 41.9235127]}},
{"type": "Feature", "id": "5Wfzf-EU2q6Ni-bVhJObcT_cyaE=", "properties": {"ref": "23542", "@spider": "kum_and_go", "addr:full": "1430 1st Ave North", "addr:city": "Altoona", "addr:state": "IA", "addr:postcode": "50009", "addr:country": "US", "phone": "515-967-4897", "website": "https://www.kumandgo.com/stores/0184/", "brand": "Kum & Go", "brand:wikidata": "Q6443340"}, "geometry": {"type": "Point", "coordinates": [-93.4651402, 41.6636152]}},
{"type": "Feature", "id": "ave5KvEbN2mp8d41UA5a3QOltI0=", "properties": {"ref": "23701", "@spider": "kum_and_go", "addr:full": "165 SW Magazine Rd", "addr:city": "Ankeny", "addr:state": "IA", "addr:postcode": "50023", "addr:country": "US", "phone": "515-965-2374", "website": "https://www.kumandgo.com/stores/0579/", "brand": "Kum & Go", "brand:wikidata": "Q6443340"}, "geometry": {"type": "Point", "coordinates": [-93.6013624, 41.7169776]}},
{"type": "Feature", "id": "-RZVBr-gJlal4dhVJepXQrmANiE=", "properties": {"ref": "23887", "@spider": "kum_and_go", "addr:full": "1910 SW White Birch Cir", "addr:city": "Ankeny", "addr:state": "IA", "addr:postcode": "50023", "addr:country": "US", "phone": "515-289-0874", "website": "https://www.kumandgo.com/stores/4020/", "brand": "Kum & Go", "brand:wikidata": "Q6443340"}, "geometry": {"type": "Point", "coordinates": [-93.6266881, 41.7025036]}},
{"type": "Feature", "id": "bJxLn9rKmg3ZNzRDE-9oMHJtxeM=", "properties": {"ref": "23678", "@spider": "kum_and_go", "addr:full": "4960 E Broadway Avenue", "addr:city": "Des Moines", "addr:state": "IA", "addr:postcode": "50317", "addr:country": "US", "phone": "515-262-1765", "website": "https://www.kumandgo.com/stores/0535/", "brand": "Kum & Go", "brand:wikidata": "Q6443340"}, "geometry": {"type": "Point", "coordinates": [-93.5153506, 41.6446649]}},
{"type": "Feature", "id": "6_bAakO0f3prCJF2Gntt1T0hslY=", "properties": {"ref": "23495", "@spider": "kum_and_go", "addr:full": "5970 Morning Star Court", "addr:city": "Pleasant Hill", "addr:state": "IA", "addr:postcode": "50327", "addr:country": "US", "phone": "515-264-1934", "website": "https://www.kumandgo.com/stores/0024/", "brand": "Kum & Go", "brand:wikidata": "Q6443340"}, "geometry": {"type": "Point", "coordinates": [-93.4926273, 41.5979217]}},
{"type": "Feature", "id": "QDfTct8yFYpAHq4QNprTRB-tmKg=", "properties": {"ref": "23680", "@spider": "kum_and_go", "addr:full": "5050 NW 2nd Ave.", "addr:city": "Des Moines", "addr:state": "IA", "addr:postcode": "50313", "addr:country": "US", "phone": "515-243-9365", "website": "https://www.kumandgo.com/stores/0539/", "brand": "Kum & Go", "brand:wikidata": "Q6443340"}, "geometry": {"type": "Point", "coordinates": [-93.6206325, 41.6521044]}},
{"type": "Feature", "id": "xB-bHUfxpToGUAZ5NWKXTeXjLyI=", "properties": {"ref": "23696", "@spider": "kum_and_go", "addr:full": "5800 Northglenn Dr", "addr:city": "Johnston", "addr:state": "IA", "addr:postcode": "50131", "addr:country": "US", "phone": "515-276-1730", "website": "https://www.kumandgo.com/stores/0570/", "brand": "Kum & Go", "brand:wikidata": "Q6443340"}, "geometry": {"type": "Point", "coordinates": [-93.6981831, 41.68231]}},
{"type": "Feature", "id": "CCjnaoazts7Jno1U2TcqaXBMyBU=", "properties": {"ref": "23889", "@spider": "kum_and_go", "addr:full": "2110 Guthrie Ave", "addr:city": "Des Moines", "addr:state": "IA", "addr:postcode": "50317", "addr:country": "US", "phone": "515-265-2535", "website": "https://www.kumandgo.com/stores/4110/", "brand": "Kum & Go", "brand:wikidata": "Q6443340"}, "geometry": {"type": "Point", "coordinates": [-93.5785802, 41.6156299]}},
{"type": "Feature", "id": "IjlmLwh0IeilZYFkUgtFDAf8qJM=", "properties": {"ref": "23507", "@spider": "kum_and_go", "addr:full": "6130 NW 86th St", "addr:city": "Johnston", "addr:state": "IA", "addr:postcode": "50131", "addr:country": "US", "phone": "515-334-0519", "website": "https://www.kumandgo.com/stores/0062/", "brand": "Kum & Go", "brand:wikidata": "Q6443340"}, "geometry": {"type": "Point", "coordinates": [-93.7370625, 41.6719763]}},
{"type": "Feature", "id": "3Xha39LftUCToqlRik4e-qh5A0w=", "properties": {"ref": "23520", "@spider": "kum_and_go", "addr:full": "5225 NW 86th St", "addr:city": "Johnston", "addr:state": "IA", "addr:postcode": "50131", "addr:country": "US", "phone": "515-276-6380", "website": "https://www.kumandgo.com/stores/0129/", "brand": "Kum & Go", "brand:wikidata": "Q6443340"}, "geometry": {"type": "Point", "coordinates": [-93.735853, 41.655817]}},
{"type": "Feature", "id": "HOtodja2yUKTPcMNRiBMcnKQOFk=", "properties": {"ref": "23880", "@spider": "kum_and_go", "addr:full": "2211 University Ave", "addr:city": "Des Moines", "addr:state": "IA", "addr:postcode": "50311", "addr:country": "US", "phone": "515-243-2837", "website": "https://www.kumandgo.com/stores/2722/", "brand": "Kum & Go", "brand:wikidata": "Q6443340"}, "geometry": {"type": "Point", "coordinates": [-93.6472098, 41.6008994]}},
{"type": "Feature", "id": "M41R3Lt9EvlCsOLZF-Kr6iSjqIA=", "properties": {"ref": "23679", "@spider": "kum_and_go", "addr:full": "1300 Keosauqua Way", "addr:city": "Des Moines", "addr:state": "IA", "addr:postcode": "50309", "addr:country": "US", "phone": "515-244-1551", "website": "https://www.kumandgo.com/stores/0536/", "brand": "Kum & Go", "brand:wikidata": "Q6443340"}, "geometry": {"type": "Point", "coordinates": [-93.634704, 41.5938404]}},
{"type": "Feature", "id": "EA1q9y3elyTw4UP-ABRqYFIoOgM=", "properties": {"ref": "23893", "@spider": "kum_and_go", "addr:full": "319 7th Street, Suite 101", "addr:city": "Des Moines", "addr:state": "IA", "addr:postcode": "50309", "addr:country": "US", "phone": "515-448-8265", "website": "https://www.kumandgo.com/stores/7701/", "brand": "Kum & Go", "brand:wikidata": "Q6443340"}, "geometry": {"type": "Point", "coordinates": [-93.625604, 41.585701]}},
{"type": "Feature", "id": "bmcUZbL47oQL1M5V0ciAJ3MZ1_c=", "properties": {"ref": "23540", "@spider": "kum_and_go", "addr:full": "6990 Douglas Ave", "addr:city": "Urbandale", "addr:state": "IA", "addr:postcode": "50322", "addr:country": "US", "phone": "515-270-1627", "website": "https://www.kumandgo.com/stores/0170/", "brand": "Kum & Go", "brand:wikidata": "Q6443340"}, "geometry": {"type": "Point", "coordinates": [-93.7116259, 41.6287236]}},
{"type": "Feature", "id": "_1lLmCLvxweHEGbPcbfpUTMD1mQ=", "properties": {"ref": "23739", "@spider": "kum_and_go", "addr:full": "3104 University Ave.", "addr:city": "Des Moines", "addr:state": "IA", "addr:postcode": "50311", "addr:country": "US", "phone": "515-514-1331", "website": "https://www.kumandgo.com/stores/0731/", "brand": "Kum & Go", "brand:wikidata": "Q6443340"}, "geometry": {"type": "Point", "coordinates": [-93.6596503, 41.6001772]}},
{"type": "Feature", "id": "LFkIvgauQ9qVxzELzFoZvVARoJU=", "properties": {"ref": "23525", "@spider": "kum_and_go", "addr:full": "101 Village Dr", "addr:city": "Tiffin", "addr:state": "IA", "addr:postcode": "52340", "addr:country": "US", "phone": "319-545-2290", "website": "https://www.kumandgo.com/stores/0137/", "brand": "Kum & Go", "brand:wikidata": "Q6443340"}, "geometry": {"type": "Point", "coordinates": [-91.6660487, 41.6966521]}},
{"type": "Feature", "id": "oUr20qECR-bCAD4OBgLZ4vIo35o=", "properties": {"ref": "23549", "@spider": "kum_and_go", "addr:full": "3200 SE 14th St", "addr:city": "Des Moines", "addr:state": "IA", "addr:postcode": "50320", "addr:country": "US", "phone": "515-246-9743", "website": "https://www.kumandgo.com/stores/0208/", "brand": "Kum & Go", "brand:wikidata": "Q6443340"}, "geometry": {"type": "Point", "coordinates": [-93.5973471, 41.55508]}},
{"type": "Feature", "id": "EfRnZniUMMZJ73KdFhLDKoPqFY4=", "properties": {"ref": "23888", "@spider": "kum_and_go", "addr:full": "7229 University Avenue", "addr:city": "Windsor Heights", "addr:state": "IA", "addr:postcode": "50324-1331", "addr:country": "US", "phone": "515-279-0568", "website": "https://www.kumandgo.com/stores/4098/", "brand": "Kum & Go", "brand:wikidata": "Q6443340"}, "geometry": {"type": "Point", "coordinates": [-93.7176488, 41.6006376]}},
{"type": "Feature", "id": "EEWWQfSgqfNrJlvQIZiTcgi21x4=", "properties": {"ref": "23548", "@spider": "kum_and_go", "addr:full": "1725 NW 86th St", "addr:city": "Clive", "addr:state": "IA", "addr:postcode": "50325", "addr:country": "US", "phone": "515-223-5367", "website": "https://www.kumandgo.com/stores/0206/", "brand": "Kum & Go", "brand:wikidata": "Q6443340"}, "geometry": {"type": "Point", "coordinates": [-93.7357337, 41.6072167]}},
{"type": "Feature", "id": "5DVvA_-ZDPIigD-nxELpm9wBRBc=", "properties": {"ref": "23545", "@spider": "kum_and_go", "addr:full": "4001 SW 9th St", "addr:city": "Des Moines", "addr:state": "IA", "addr:postcode": "50315", "addr:country": "US", "phone": "515-284-5740", "website": "https://www.kumandgo.com/stores/0194/", "brand": "Kum & Go", "brand:wikidata": "Q6443340"}, "geometry": {"type": "Point", "coordinates": [-93.6252236, 41.5478343]}},
{"type": "Feature", "id": "79N6uLVZzFCOSj9LG0k7iB6vRRs=", "properties": {"ref": "23492", "@spider": "kum_and_go", "addr:full": "1293 8th Street", "addr:city": "West Des Moines", "addr:state": "IA", "addr:postcode": "50265", "addr:country": "US", "phone": "515-223-5419", "website": "https://www.kumandgo.com/stores/0008/", "brand": "Kum & Go", "brand:wikidata": "Q6443340"}, "geometry": {"type": "Point", "coordinates": [-93.7128114, 41.5907469]}},
{"type": "Feature", "id": "DNleUUs-7GUYwFTvwcPaWv4RDWc=", "properties": {"ref": "23518", "@spider": "kum_and_go", "addr:full": "12041 Douglas Pkwy", "addr:city": "Urbandale", "addr:state": "IA", "addr:postcode": "50323", "addr:country": "US", "phone": "515-278-0308", "website": "https://www.kumandgo.com/stores/0121/", "brand": "Kum & Go", "brand:wikidata": "Q6443340"}, "geometry": {"type": "Point", "coordinates": [-93.7833562, 41.629951]}},
{"type": "Feature", "id": "FUMOASM_xSE7sjOPnXADMGd-ISU=", "properties": {"ref": "23699", "@spider": "kum_and_go", "addr:full": "5830 SE 14th St", "addr:city": "Des Moines", "addr:state": "IA", "addr:postcode": "50320", "addr:country": "US", "phone": "515-287-9795", "website": "https://www.kumandgo.com/stores/0573/", "brand": "Kum & Go", "brand:wikidata": "Q6443340"}, "geometry": {"type": "Point", "coordinates": [-93.5973669, 41.5332699]}},
{"type": "Feature", "id": "PiE0wt-zmx_j05goNboXxb4Bpko=", "properties": {"ref": "23667", "@spider": "kum_and_go", "addr:full": "610 Heartland Way", "addr:city": "North Liberty", "addr:state": "IA", "addr:postcode": "52317", "addr:country": "US", "phone": "319-626-2412", "website": "https://www.kumandgo.com/stores/0507/", "brand": "Kum & Go", "brand:wikidata": "Q6443340"}, "geometry": {"type": "Point", "coordinates": [-91.6106153, 41.6993308]}},
{"type": "Feature", "id": "tA4fMT4a1esjrQ0ucQsYW3JS278=", "properties": {"ref": "23676", "@spider": "kum_and_go", "addr:full": "2600 Holiday Road", "addr:city": "Coralville", "addr:state": "IA", "addr:postcode": "52241", "addr:country": "US", "phone": "319-337-3136", "website": "https://www.kumandgo.com/stores/0524/", "brand": "Kum & Go", "brand:wikidata": "Q6443340"}, "geometry": {"type": "Point", "coordinates": [-91.6073015, 41.6999372]}},
{"type": "Feature", "id": "aYHIBLR0yXi6k8nOlaEJ3f--9IQ=", "properties": {"ref": "23682", "@spider": "kum_and_go", "addr:full": "11989 Hickman Road", "addr:city": "Urbandale", "addr:state": "IA", "addr:postcode": "50323", "addr:country": "US", "phone": "515-331-6591", "website": "https://www.kumandgo.com/stores/0542/", "brand": "Kum & Go", "brand:wikidata": "Q6443340"}, "geometry": {"type": "Point", "coordinates": [-93.7823041, 41.6155269]}},
{"type": "Feature", "id": "IIlllziwHbiMfRV5ejZEguirLnc=", "properties": {"ref": "23517", "@spider": "kum_and_go", "addr:full": "6304 SW 9th St.", "addr:city": "Des Moines", "addr:state": "IA", "addr:postcode": "50315", "addr:country": "US", "phone": "515-953-5209", "website": "https://www.kumandgo.com/stores/0120/", "brand": "Kum & Go", "brand:wikidata": "Q6443340"}, "geometry": {"type": "Point", "coordinates": [-93.6261735, 41.5272208]}},
{"type": "Feature", "id": "cf66GL5maRrAt9k6AQ276XMdcoY=", "properties": {"ref": "23508", "@spider": "kum_and_go", "addr:full": "5308 University Ave", "addr:city": "West Des Moines", "addr:state": "IA", "addr:postcode": "50266", "addr:country": "US", "phone": "515-457-9028", "website": "https://www.kumandgo.com/stores/0066/", "brand": "Kum & Go", "brand:wikidata": "Q6443340"}, "geometry": {"type": "Point", "coordinates": [-93.7788897, 41.6001058]}},
{"type": "Feature", "id": "CKPQjsZ2RP0GCVjechf3K2ZasBk=", "properties": {"ref": "23873", "@spider": "kum_and_go", "addr:full": "5969 Ashworth Rd", "addr:city": "West Des Moines", "addr:state": "IA", "addr:postcode": "50266", "addr:country": "US", "phone": "515-226-1322", "website": "https://www.kumandgo.com/stores/2091/", "brand": "Kum & Go", "brand:wikidata": "Q6443340"}, "geometry": {"type": "Point", "coordinates": [-93.789528, 41.5851075]}},
{"type": "Feature", "id": "RxYhqoD8CKt0VN0mPnnLPDd8u0o=", "properties": {"ref": "23842", "@spider": "kum_and_go", "addr:full": "220 50th St.", "addr:city": "West Des Moines", "addr:state": "IA", "addr:postcode": "50265", "addr:country": "US", "phone": "515-223-9313", "website": "https://www.kumandgo.com/stores/1097/", "brand": "Kum & Go", "brand:wikidata": "Q6443340"}, "geometry": {"type": "Point", "coordinates": [-93.7716052, 41.5720894]}},
{"type": "Feature", "id": "jpFA8NsNLgpC9lKRUPYO9y3HmyQ=", "properties": {"ref": "23884", "@spider": "kum_and_go", "addr:full": "7265 Vista Dr", "addr:city": "West Des Moines", "addr:state": "IA", "addr:postcode": "50266", "addr:country": "US", "phone": "515-223-8400", "website": "https://www.kumandgo.com/stores/3035/", "brand": "Kum & Go", "brand:wikidata": "Q6443340"}, "geometry": {"type": "Point", "coordinates": [-93.8078396, 41.5894181]}},
{"type": "Feature", "id": "SzELKruAS0DdB3eA6B3O8ENksdI=", "properties": {"ref": "23547", "@spider": "kum_and_go", "addr:full": "822 1st Ave", "addr:city": "Coralville", "addr:state": "IA", "addr:postcode": "52241", "addr:country": "US", "phone": "319-351-3771", "website": "https://www.kumandgo.com/stores/0201/", "brand": "Kum & Go", "brand:wikidata": "Q6443340"}, "geometry": {"type": "Point", "coordinates": [-91.5664267, 41.681392]}},
{"type": "Feature", "id": "3o_a5b1jleXG25EHd0pxgNiGIjI=", "properties": {"ref": "23675", "@spider": "kum_and_go", "addr:full": "205 2nd Street", "addr:city": "Coralville", "addr:state": "IA", "addr:postcode": "52241", "addr:country": "US", "phone": "319-338-1343", "website": "https://www.kumandgo.com/stores/0521/", "brand": "Kum & Go", "brand:wikidata": "Q6443340"}, "geometry": {"type": "Point", "coordinates": [-91.5676025, 41.6699146]}},
{"type": "Feature", "id": "N6-auqXH7g_Oa-pvQGcwUxzbabE=", "properties": {"ref": "23502", "@spider": "kum_and_go", "addr:full": "745 S 51st Street Suite No. 200", "addr:city": "West Des Moines", "addr:state": "IA", "addr:postcode": "50265", "addr:country": "US", "phone": "515-225-0607", "website": "https://www.kumandgo.com/stores/0050/", "brand": "Kum & Go", "brand:wikidata": "Q6443340"}, "geometry": {"type": "Point", "coordinates": [-93.7737885, 41.5584207]}},
{"type": "Feature", "id": "t2mDHfm60vxaYbst8k39a4a_ZmQ=", "properties": {"ref": "23677", "@spider": "kum_and_go", "addr:full": "5901 Mills Civic Parkway, BLDG 2000", "addr:city": "West Des Moines", "addr:state": "IA", "addr:postcode": "50266", "addr:country": "US", "phone": "515-267-6499", "website": "https://www.kumandgo.com/stores/0532/", "brand": "Kum & Go", "brand:wikidata": "Q6443340"}, "geometry": {"type": "Point", "coordinates": [-93.7879611, 41.5602683]}},
{"type": "Feature", "id": "5RomAOu232KffWdgjAtYo3qzmqE=", "properties": {"ref": "23509", "@spider": "kum_and_go", "addr:full": "141 South Jordan Creek Parkway", "addr:city": "West Des Moines", "addr:state": "IA", "addr:postcode": "50266", "addr:country": "US", "phone": "515-221-3536", "website": "https://www.kumandgo.com/stores/0074/", "brand": "Kum & Go", "brand:wikidata": "Q6443340"}, "geometry": {"type": "Point", "coordinates": [-93.8101635, 41.5676656]}},
{"type": "Feature", "id": "dvN3vz6m8klUUPHyAIJrhfdq-rY=", "properties": {"ref": "23497", "@spider": "kum_and_go", "addr:full": "2991 Sunset Dr", "addr:city": "Norwalk", "addr:state": "IA", "addr:postcode": "50211", "addr:country": "US", "phone": "515-287-2953", "website": "https://www.kumandgo.com/stores/0028/", "brand": "Kum & Go", "brand:wikidata": "Q6443340"}, "geometry": {"type": "Point", "coordinates": [-93.6749188, 41.4967114]}},
{"type": "Feature", "id": "z9W8a9mWf2DfUmOIsrl3P2MPCr8=", "properties": {"ref": "23505", "@spider": "kum_and_go", "addr:full": "955 Mormon Trek Blvd", "addr:city": "Iowa City", "addr:state": "IA", "addr:postcode": "52246-4410", "addr:country": "US", "phone": "319-337-6013", "website": "https://www.kumandgo.com/stores/0053/", "brand": "Kum & Go", "brand:wikidata": "Q6443340"}, "geometry": {"type": "Point", "coordinates": [-91.5744289, 41.6500599]}},
{"type": "Feature", "id": "y06Rj2axrFU-Iy83caXdJgk_NOE=", "properties": {"ref": "23681", "@spider": "kum_and_go", "addr:full": "3105 Grand Prairie Parkway", "addr:city": "Waukee", "addr:state": "IA", "addr:postcode": "50263", "addr:country": "US", "phone": "515-987-0556", "website": "https://www.kumandgo.com/stores/0540/", "brand": "Kum & Go", "brand:wikidata": "Q6443340"}, "geometry": {"type": "Point", "coordinates": [-93.8529651, 41.5743841]}},
{"type": "Feature", "id": "5Ocuf9V5zfcTA1wLpq_LdpC1R0g=", "properties": {"ref": "23504", "@spider": "kum_and_go", "addr:full": "25 W Burlington St", "addr:city": "Iowa City", "addr:state": "IA", "addr:postcode": "52240-3812", "addr:country": "US", "phone": "319-351-1585", "website": "https://www.kumandgo.com/stores/0052/", "brand": "Kum & Go", "brand:wikidata": "Q6443340"}, "geometry": {"type": "Point", "coordinates": [-91.537092, 41.6576104]}},
{"type": "Feature", "id": "vvL-JjFaJ3J18zXOOjz1HRXuhw4=", "properties": {"ref": "23628", "@spider": "kum_and_go", "addr:full": "731 South Riverside Drive", "addr:city": "Iowa City", "addr:state": "IA", "addr:postcode": "52246", "addr:country": "US", "phone": "319-358-2415", "website": "https://www.kumandgo.com/stores/0422/", "brand": "Kum & Go", "brand:wikidata": "Q6443340"}, "geometry": {"type": "Point", "coordinates": [-91.5405733, 41.6506322]}},
{"type": "Feature", "id": "t8m42bHPO1xFie9Uy1nGMq7CAxs=", "properties": {"ref": "23503", "@spider": "kum_and_go", "addr:full": "323 E Burlington St", "addr:city": "Iowa City", "addr:state": "IA", "addr:postcode": "52240-1606", "addr:country": "US", "phone": "319-351-6455", "website": "https://www.kumandgo.com/stores/0051/", "brand": "Kum & Go", "brand:wikidata": "Q6443340"}, "geometry": {"type": "Point", "coordinates": [-91.5306221, 41.6576575]}},
{"type": "Feature", "id": "LDnLAu_vI4acswFxtuejQ7qY_Ro=", "properties": {"ref": "23559", "@spider": "kum_and_go", "addr:full": "530 North Avenue", "addr:city": "Norwalk", "addr:state": "IA", "addr:postcode": "50211", "addr:country": "US", "phone": "515-981-0617", "website": "https://www.kumandgo.com/stores/0240/", "brand": "Kum & Go", "brand:wikidata": "Q6443340"}, "geometry": {"type": "Point", "coordinates": [-93.6821325, 41.4751645]}},
{"type": "Feature", "id": "KZ7IbQd1LZ7TEi1lgJUUtWEeAds=", "properties": {"ref": "26336", "@spider": "kum_and_go", "addr:full": "1310 S Gilbert Street", "addr:city": "Iowa City", "addr:state": "IA", "addr:postcode": "52240", "addr:country": "US", "phone": "(319)-379-2670", "website": "https://www.kumandgo.com/stores/3504/", "brand": "Kum & Go", "brand:wikidata": "Q6443340"}, "geometry": {"type": "Point", "coordinates": [-91.531723, 41.646152]}},
{"type": "Feature", "id": "I2GMjbT-n1ITAgBqTLjkXx_UARc=", "properties": {"ref": "23886", "@spider": "kum_and_go", "addr:full": "2303 Muscatine Ave", "addr:city": "Iowa City", "addr:state": "IA", "addr:postcode": "52240", "addr:country": "US", "phone": "319-337-4936", "website": "https://www.kumandgo.com/stores/3502/", "brand": "Kum & Go", "brand:wikidata": "Q6443340"}, "geometry": {"type": "Point", "coordinates": [-91.5016805, 41.6493633]}},
{"type": "Feature", "id": "_UtWAgAfsVcYSqaLPdh5RedFqgo=", "properties": {"ref": "23563", "@spider": "kum_and_go", "addr:full": "620 S Downey St", "addr:city": "West Branch", "addr:state": "IA", "addr:postcode": "52358", "addr:country": "US", "phone": "319-643-5050", "website": "https://www.kumandgo.com/stores/0254/", "brand": "Kum & Go", "brand:wikidata": "Q6443340"}, "geometry": {"type": "Point", "coordinates": [-91.3474144, 41.6616174]}},
{"type": "Feature", "id": "elOtia4Qu7NuLEpMN3_x7OXbTt0=", "properties": {"ref": "23512", "@spider": "kum_and_go", "addr:full": "1178 Enterprise Dr", "addr:city": "Riverside", "addr:state": "IA", "addr:postcode": "52327", "addr:country": "US", "phone": "319-648-2400", "website": "https://www.kumandgo.com/stores/0080/", "brand": "Kum & Go", "brand:wikidata": "Q6443340"}, "geometry": {"type": "Point", "coordinates": [-91.5538576, 41.4873843]}},
{"type": "Feature", "id": "6Do8Q8foD4J-pkZkVJ30b5g7BlI=", "properties": {"ref": "23841", "@spider": "kum_and_go", "addr:full": "101 E Highway 92", "addr:city": "Bevington", "addr:state": "IA", "addr:postcode": "50033", "addr:country": "US", "phone": "515-468-4100", "website": "https://www.kumandgo.com/stores/1056/", "brand": "Kum & Go", "brand:wikidata": "Q6443340"}, "geometry": {"type": "Point", "coordinates": [-93.7898373, 41.3611144]}},
{"type": "Feature", "id": "UmBckPNBqTgjbj5VOz2blptKZWw=", "properties": {"ref": "23819", "@spider": "kum_and_go", "addr:full": "3 Curtiss St", "addr:city": "Evansville", "addr:state": "WY", "addr:postcode": "82636", "addr:country": "US", "phone": "307-237-9323", "website": "https://www.kumandgo.com/stores/0958/", "brand": "Kum & Go", "brand:wikidata": "Q6443340"}, "geometry": {"type": "Point", "coordinates": [-106.2705105, 42.8576779]}},
{"type": "Feature", "id": "n4YRbTj593-kUJG_XGivJO06_hs=", "properties": {"ref": "23817", "@spider": "kum_and_go", "addr:full": "1455 S McKinley St", "addr:city": "Casper", "addr:state": "WY", "addr:postcode": "82601", "addr:country": "US", "phone": "307-237-5735", "website": "https://www.kumandgo.com/stores/0954/", "brand": "Kum & Go", "brand:wikidata": "Q6443340"}, "geometry": {"type": "Point", "coordinates": [-106.3119358, 42.8355717]}},
{"type": "Feature", "id": "ujKo0We3eytX5RswyCADZXWgYws=", "properties": {"ref": "23824", "@spider": "kum_and_go", "addr:full": "569 N 3rd St", "addr:city": "Laramie", "addr:state": "WY", "addr:postcode": "82072", "addr:country": "US", "phone": "307-742-2198", "website": "https://www.kumandgo.com/stores/0964/", "brand": "Kum & Go", "brand:wikidata": "Q6443340"}, "geometry": {"type": "Point", "coordinates": [-105.592392, 41.3173456]}},
{"type": "Feature", "id": "Lk8iZoONa1RTWWt-lFkDixfKHak=", "properties": {"ref": "23815", "@spider": "kum_and_go", "addr:full": "3354 E Lincolnway", "addr:city": "Cheyenne", "addr:state": "WY", "addr:postcode": "82001", "addr:country": "US", "phone": "307-635-9346", "website": "https://www.kumandgo.com/stores/0952/", "brand": "Kum & Go", "brand:wikidata": "Q6443340"}, "geometry": {"type": "Point", "coordinates": [-104.7693366, 41.139461]}},
{"type": "Feature", "id": "I8TazmLOJBXW4FqCpMJlGv8X2jU=", "properties": {"ref": "23871", "@spider": "kum_and_go", "addr:full": "4505 Ridge Rd.", "addr:city": "Cheyenne", "addr:state": "WY", "addr:postcode": "82001", "addr:country": "US", "phone": "307-634-5657", "website": "https://www.kumandgo.com/stores/1957/", "brand": "Kum & Go", "brand:wikidata": "Q6443340"}, "geometry": {"type": "Point", "coordinates": [-104.7679553, 41.1597536]}},
{"type": "Feature", "id": "ApmaDwwReNzg5RorxkBeRtBBwcM=", "properties": {"ref": "23568", "@spider": "kum_and_go", "addr:full": "3033 8th Avenue", "addr:city": "Evans", "addr:state": "CO", "addr:postcode": "80620", "addr:country": "US", "phone": "970-352-9268", "website": "https://www.kumandgo.com/stores/0305/", "brand": "Kum & Go", "brand:wikidata": "Q6443340"}, "geometry": {"type": "Point", "coordinates": [-104.6917173, 40.3851399]}},
{"type": "Feature", "id": "tqq50nHp7n1FpXJcU21yT5Sh19I=", "properties": {"ref": "23806", "@spider": "kum_and_go", "addr:full": "8150 6th St", "addr:city": "Wellington", "addr:state": "CO", "addr:postcode": "80549", "addr:country": "US", "phone": "970-568-3173", "website": "https://www.kumandgo.com/stores/0934/", "brand": "Kum & Go", "brand:wikidata": "Q6443340"}, "geometry": {"type": "Point", "coordinates": [-104.9999047, 40.7032659]}},
{"type": "Feature", "id": "Z4ERO_l2XLLTPOf-Nl-8WCApMg0=", "properties": {"ref": "23793", "@spider": "kum_and_go", "addr:full": "366 71st Ave", "addr:city": "Greeley", "addr:state": "CO", "addr:postcode": "80634", "addr:country": "US", "phone": "970-353-1110", "website": "https://www.kumandgo.com/stores/0910/", "brand": "Kum & Go", "brand:wikidata": "Q6443340"}, "geometry": {"type": "Point", "coordinates": [-104.7927076, 40.4295498]}},
{"type": "Feature", "id": "EqERErKzk_YakOMllnqTcubyv0Q=", "properties": {"ref": "23804", "@spider": "kum_and_go", "addr:full": "2901 37th St", "addr:city": "Evans", "addr:state": "CO", "addr:postcode": "80620", "addr:country": "US", "phone": "970-330-3206", "website": "https://www.kumandgo.com/stores/0931/", "brand": "Kum & Go", "brand:wikidata": "Q6443340"}, "geometry": {"type": "Point", "coordinates": [-104.7258899, 40.378451]}},
{"type": "Feature", "id": "_m09LWI_uWjXVCxDOtWFQOELY5o=", "properties": {"ref": "23796", "@spider": "kum_and_go", "addr:full": "7027 20th St", "addr:city": "Greeley", "addr:state": "CO", "addr:postcode": "80634", "addr:country": "US", "phone": "970-330-8552", "website": "https://www.kumandgo.com/stores/0914/", "brand": "Kum & Go", "brand:wikidata": "Q6443340"}, "geometry": {"type": "Point", "coordinates": [-104.7935181, 40.4069316]}},
{"type": "Feature", "id": "q8Nc-bSbwNrZgkfmlMZwnTPTdbs=", "properties": {"ref": "23812", "@spider": "kum_and_go", "addr:full": "6503 29th Street", "addr:city": "Greeley", "addr:state": "CO", "addr:postcode": "80634", "addr:country": "US", "phone": "970-330-0313", "website": "https://www.kumandgo.com/stores/0942/", "brand": "Kum & Go", "brand:wikidata": "Q6443340"}, "geometry": {"type": "Point", "coordinates": [-104.7850946, 40.391068]}},
{"type": "Feature", "id": "atSARPfHB-Z8cR1s0ae7hvyniZo=", "properties": {"ref": "23814", "@spider": "kum_and_go", "addr:full": "375 E Main Street", "addr:city": "Windsor", "addr:state": "CO", "addr:postcode": "80550", "addr:country": "US", "phone": "970-686-1050", "website": "https://www.kumandgo.com/stores/0949/", "brand": "Kum & Go", "brand:wikidata": "Q6443340"}, "geometry": {"type": "Point", "coordinates": [-104.8947557, 40.4797307]}},
{"type": "Feature", "id": "lAKrXGTi9phFFuNwaOxw6s5jPqw=", "properties": {"ref": "23839", "@spider": "kum_and_go", "addr:full": "4330 Clydesdale Pkwy", "addr:city": "Loveland", "addr:state": "CO", "addr:postcode": "80538", "addr:country": "US", "phone": "970-461-4645", "website": "https://www.kumandgo.com/stores/0994/", "brand": "Kum & Go", "brand:wikidata": "Q6443340"}, "geometry": {"type": "Point", "coordinates": [-104.9873999, 40.436545]}},
{"type": "Feature", "id": "2nerv9RkUvLjesHkTECeCb5SRrY=", "properties": {"ref": "23805", "@spider": "kum_and_go", "addr:full": "115 Knobcone Dr", "addr:city": "Loveland", "addr:state": "CO", "addr:postcode": "80538", "addr:country": "US", "phone": "970-669-2889", "website": "https://www.kumandgo.com/stores/0933/", "brand": "Kum & Go", "brand:wikidata": "Q6443340"}, "geometry": {"type": "Point", "coordinates": [-105.076885, 40.4386188]}},
{"type": "Feature", "id": "beZAqcFC8F4Tc5wereZTgMpXJvc=", "properties": {"ref": "23840", "@spider": "kum_and_go", "addr:full": "1600 E Eisenhower Blvd", "addr:city": "Loveland", "addr:state": "CO", "addr:postcode": "80537", "addr:country": "US", "phone": "970-612-0112", "website": "https://www.kumandgo.com/stores/0995/", "brand": "Kum & Go", "brand:wikidata": "Q6443340"}, "geometry": {"type": "Point", "coordinates": [-105.0544629, 40.4070699]}},
{"type": "Feature", "id": "iQ9sNEg0teCqn_x7CvCV_YABiFU=", "properties": {"ref": "23795", "@spider": "kum_and_go", "addr:full": "13799 Pacific Cir", "addr:city": "Longmont", "addr:state": "CO", "addr:postcode": "80542", "addr:country": "US", "phone": "970-535-4601", "website": "https://www.kumandgo.com/stores/0913/", "brand": "Kum & Go", "brand:wikidata": "Q6443340"}, "geometry": {"type": "Point", "coordinates": [-104.9753481, 40.2038027]}},
{"type": "Feature", "id": "dQ8-0DvCErTzjcmun0CxZzR8HQw=", "properties": {"ref": "23810", "@spider": "kum_and_go", "addr:full": "5112 East Bromley Lane", "addr:city": "Brighton", "addr:state": "CO", "addr:postcode": "80603", "addr:country": "US", "phone": "303-654-3483", "website": "https://www.kumandgo.com/stores/0939/", "brand": "Kum & Go", "brand:wikidata": "Q6443340"}, "geometry": {"type": "Point", "coordinates": [-104.7488125, 39.9715713]}},
{"type": "Feature", "id": "GdPEutHaAvbnaKGsTnChx8BSLGk=", "properties": {"ref": "23830", "@spider": "kum_and_go", "addr:full": "127 Laura Way", "addr:city": "Dacono", "addr:state": "CO", "addr:postcode": "80514", "addr:country": "US", "phone": "303-833-3935", "website": "https://www.kumandgo.com/stores/0973/", "brand": "Kum & Go", "brand:wikidata": "Q6443340"}, "geometry": {"type": "Point", "coordinates": [-104.9744353, 40.0871135]}},
{"type": "Feature", "id": "5wWXihjAL_wO3KSRGuoBNyPYJuM=", "properties": {"ref": "23803", "@spider": "kum_and_go", "addr:full": "2150 E Bridge St", "addr:city": "Brighton", "addr:state": "CO", "addr:postcode": "80601", "addr:country": "US", "phone": "720-685-3161", "website": "https://www.kumandgo.com/stores/0930/", "brand": "Kum & Go", "brand:wikidata": "Q6443340"}, "geometry": {"type": "Point", "coordinates": [-104.7954657, 39.9864939]}},
{"type": "Feature", "id": "jOB1wcOlPBD8-U4h2bJ6psYq1KQ=", "properties": {"ref": "23811", "@spider": "kum_and_go", "addr:full": "70 W Bridge St", "addr:city": "Brighton", "addr:state": "CO", "addr:postcode": "80601", "addr:country": "US", "phone": "303-659-9546", "website": "https://www.kumandgo.com/stores/0940/", "brand": "Kum & Go", "brand:wikidata": "Q6443340"}, "geometry": {"type": "Point", "coordinates": [-104.8252153, 39.986604]}},
{"type": "Feature", "id": "6t6P_Kq1HayCKR8EnPFvAwdLsEE=", "properties": {"ref": "23571", "@spider": "kum_and_go", "addr:full": "2999 Bonanza Dr", "addr:city": "Erie", "addr:state": "CO", "addr:postcode": "80516", "addr:country": "US", "phone": "720-974-1604", "website": "https://www.kumandgo.com/stores/0316/", "brand": "Kum & Go", "brand:wikidata": "Q6443340"}, "geometry": {"type": "Point", "coordinates": [-105.0363502, 40.0011812]}},
{"type": "Feature", "id": "VF5Aj_O63lvNgtrIOnCQBffsFYo=", "properties": {"ref": "23570", "@spider": "kum_and_go", "addr:full": "5480 E. 120th Ave.", "addr:city": "Thornton", "addr:state": "CO", "addr:postcode": "80241", "addr:country": "US", "phone": "720-557-8373", "website": "https://www.kumandgo.com/stores/0313/", "brand": "Kum & Go", "brand:wikidata": "Q6443340"}, "geometry": {"type": "Point", "coordinates": [-104.9233718, 39.9134715]}},
{"type": "Feature", "id": "fXpp5560bqWMZonf4DMWJt2UQf0=", "properties": {"ref": "23573", "@spider": "kum_and_go", "addr:full": "250 E 136th Avenue", "addr:city": "Thornton", "addr:state": "CO", "addr:postcode": "80241", "addr:country": "US", "phone": "303-942-1543", "website": "https://www.kumandgo.com/stores/0320/", "brand": "Kum & Go", "brand:wikidata": "Q6443340"}, "geometry": {"type": "Point", "coordinates": [-104.9832898, 39.9425411]}},
{"type": "Feature", "id": "JZt2Hi7iG9FlgvPJJ3-T_1wURrM=", "properties": {"ref": "23574", "@spider": "kum_and_go", "addr:full": "237 E 120th Ave", "addr:city": "Thornton", "addr:state": "CO", "addr:postcode": "80233", "addr:country": "US", "phone": "303-452-2667", "website": "https://www.kumandgo.com/stores/0321/", "brand": "Kum & Go", "brand:wikidata": "Q6443340"}, "geometry": {"type": "Point", "coordinates": [-104.9870326, 39.9144102]}},
{"type": "Feature", "id": "98QaS4fXKa8H7N4U0fvB8Y2T4pY=", "properties": {"ref": "23577", "@spider": "kum_and_go", "addr:full": "4720 N. Tower Road", "addr:city": "Denver", "addr:state": "CO", "addr:postcode": "80249", "addr:country": "US", "phone": "303-373-4957", "website": "https://www.kumandgo.com/stores/0332/", "brand": "Kum & Go", "brand:wikidata": "Q6443340"}, "geometry": {"type": "Point", "coordinates": [-104.7714309, 39.7821998]}},
{"type": "Feature", "id": "Eet6zoCLzIt9oSuxAqj6OQ21a9E=", "properties": {"ref": "23578", "@spider": "kum_and_go", "addr:full": "16351 Green Valley Ranch Blvd", "addr:city": "Denver", "addr:state": "CO", "addr:postcode": "80239", "addr:country": "US", "phone": "303-375-4218", "website": "https://www.kumandgo.com/stores/0335/", "brand": "Kum & Go", "brand:wikidata": "Q6443340"}, "geometry": {"type": "Point", "coordinates": [-104.797429, 39.7841765]}},
{"type": "Feature", "id": "PwwDBpRSQWbSMkF-awSPR2a1VWs=", "properties": {"ref": "23569", "@spider": "kum_and_go", "addr:full": "7450 Federal Blvd", "addr:city": "Westminster", "addr:state": "CO", "addr:postcode": "80030", "addr:country": "US", "phone": "303-487-5730", "website": "https://www.kumandgo.com/stores/0308/", "brand": "Kum & Go", "brand:wikidata": "Q6443340"}, "geometry": {"type": "Point", "coordinates": [-105.0243729, 39.8319352]}},
{"type": "Feature", "id": "rV2hNTmHWDwSxRAfLURAr9DCHMA=", "properties": {"ref": "23879", "@spider": "kum_and_go", "addr:full": "7995 Sheridan Blvd", "addr:city": "Arvada", "addr:state": "CO", "addr:postcode": "80003", "addr:country": "US", "phone": "720-696-9676", "website": "https://www.kumandgo.com/stores/2315/", "brand": "Kum & Go", "brand:wikidata": "Q6443340"}, "geometry": {"type": "Point", "coordinates": [-105.0538693, 39.8413127]}},
{"type": "Feature", "id": "EIN8P23XZcq7Peg4M6zq52Ao3FI=", "properties": {"ref": "23876", "@spider": "kum_and_go", "addr:full": "14725 West 84th Place", "addr:city": "Arvada", "addr:state": "CO", "addr:postcode": "80005", "addr:country": "US", "phone": "719-895-1130", "website": "https://www.kumandgo.com/stores/2306/", "brand": "Kum & Go", "brand:wikidata": "Q6443340"}, "geometry": {"type": "Point", "coordinates": [-105.160906, 39.8490343]}},
{"type": "Feature", "id": "q_o0t8xW7bDMJ8jh9K334MdKTUw=", "properties": {"ref": "23896", "@spider": "kum_and_go", "addr:full": "1250 East 17th Avenue", "addr:city": "Denver", "addr:state": "CO", "addr:postcode": "80218", "addr:country": "US", "phone": "720-446-5990", "website": "https://www.kumandgo.com/stores/7705/", "brand": "Kum & Go", "brand:wikidata": "Q6443340"}, "geometry": {"type": "Point", "coordinates": [-104.971525, 39.7432619]}},
{"type": "Feature", "id": "tCS_vAy5tKAs1Rn--DjcLyXMnvU=", "properties": {"ref": "23894", "@spider": "kum_and_go", "addr:full": "1610 Little Raven St Suite 102", "addr:city": "Denver", "addr:state": "CO", "addr:postcode": "80202", "addr:country": "US", "phone": "720-502-0244", "website": "https://www.kumandgo.com/stores/7702/", "brand": "Kum & Go", "brand:wikidata": "Q6443340"}, "geometry": {"type": "Point", "coordinates": [-105.0042869, 39.7549458]}},
{"type": "Feature", "id": "bOsrIj8fClRH13Ib9gjhNGe7eEM=", "properties": {"ref": "23878", "@spider": "kum_and_go", "addr:full": "2700 S Havana St", "addr:city": "Aurora", "addr:state": "CO", "addr:postcode": "80014", "addr:country": "US", "phone": "720-492-1410", "website": "https://www.kumandgo.com/stores/2312/", "brand": "Kum & Go", "brand:wikidata": "Q6443340"}, "geometry": {"type": "Point", "coordinates": [-104.8655743, 39.6671352]}},
{"type": "Feature", "id": "Hv1TzAb5VmeNnAGACK6E4U-P9I0=", "properties": {"ref": "23875", "@spider": "kum_and_go", "addr:full": "3253 S. Parker Road", "addr:city": "Denver", "addr:state": "CO", "addr:postcode": "80014", "addr:country": "US", "phone": "720-647-5228", "website": "https://www.kumandgo.com/stores/2303/", "brand": "Kum & Go", "brand:wikidata": "Q6443340"}, "geometry": {"type": "Point", "coordinates": [-104.8499995, 39.6588509]}},
{"type": "Feature", "id": "Vc9bkzCPCNWnMN6V3wNWayCIFsg=", "properties": {"ref": "23582", "@spider": "kum_and_go", "addr:full": "10025 South 168th Ave", "addr:city": "Omaha", "addr:state": "NE", "addr:postcode": "68136", "addr:country": "US", "phone": "402-891-2651", "website": "https://www.kumandgo.com/stores/0360/", "brand": "Kum & Go", "brand:wikidata": "Q6443340"}, "geometry": {"type": "Point", "coordinates": [-96.1782629, 41.1599065]}},
{"type": "Feature", "id": "oyt3VJMdMJZqqN7u9ZGBMPo2NiY=", "properties": {"ref": "23591", "@spider": "kum_and_go", "addr:full": "11205 Wickersham Blvd", "addr:city": "Gretna", "addr:state": "NE", "addr:postcode": "68028", "addr:country": "US", "phone": "402-891-0900", "website": "https://www.kumandgo.com/stores/0370/", "brand": "Kum & Go", "brand:wikidata": "Q6443340"}, "geometry": {"type": "Point", "coordinates": [-96.1620198, 41.1461311]}},
{"type": "Feature", "id": "NEnxfYAByAPoL9zT5sHDX66-Muo=", "properties": {"ref": "23588", "@spider": "kum_and_go", "addr:full": "18908 Q Street", "addr:city": "Omaha", "addr:state": "NE", "addr:postcode": "68135", "addr:country": "US", "phone": "402-861-1841", "website": "https://www.kumandgo.com/stores/0367/", "brand": "Kum & Go", "brand:wikidata": "Q6443340"}, "geometry": {"type": "Point", "coordinates": [-96.211923, 41.205687]}},
{"type": "Feature", "id": "n88wj6dRmp0U_6-wwY-VPxG81yg=", "properties": {"ref": "23595", "@spider": "kum_and_go", "addr:full": "2627 S HWS Cleveland Blvd", "addr:city": "Omaha", "addr:state": "NE", "addr:postcode": "68130", "addr:country": "US", "phone": "402-289-3190", "website": "https://www.kumandgo.com/stores/0376/", "brand": "Kum & Go", "brand:wikidata": "Q6443340"}, "geometry": {"type": "Point", "coordinates": [-96.2244628, 41.2413345]}},
{"type": "Feature", "id": "1TmEIHZHcwGeebsBwjy0qOyIx_g=", "properties": {"ref": "23583", "@spider": "kum_and_go", "addr:full": "1010 S 189th St", "addr:city": "Omaha", "addr:state": "NE", "addr:postcode": "68022", "addr:country": "US", "phone": "402-289-2357", "website": "https://www.kumandgo.com/stores/0361/", "brand": "Kum & Go", "brand:wikidata": "Q6443340"}, "geometry": {"type": "Point", "coordinates": [-96.212752, 41.248971]}},
{"type": "Feature", "id": "Gptbxr9qFlYbKyZGrnVjTcx25PE=", "properties": {"ref": "23596", "@spider": "kum_and_go", "addr:full": "14353 Q Street", "addr:city": "Omaha", "addr:state": "NE", "addr:postcode": "68137", "addr:country": "US", "phone": "402-827-7231", "website": "https://www.kumandgo.com/stores/0378/", "brand": "Kum & Go", "brand:wikidata": "Q6443340"}, "geometry": {"type": "Point", "coordinates": [-96.137649, 41.205059]}},
{"type": "Feature", "id": "5qcWPrYndLcMC-Aqz1KuLkPkvVU=", "properties": {"ref": "26338", "@spider": "kum_and_go", "addr:full": "17925 Burt St,", "addr:city": "Omaha", "addr:state": "NE", "addr:postcode": "68118", "addr:country": "US", "phone": "(531)-541-6750", "website": "https://www.kumandgo.com/stores/0330/", "brand": "Kum & Go", "brand:wikidata": "Q6443340"}, "geometry": {"type": "Point", "coordinates": [-96.19593, 41.265457]}},
{"type": "Feature", "id": "cUT24VRSsmDn4-Q4pCTQBGvWI6g=", "properties": {"ref": "23594", "@spider": "kum_and_go", "addr:full": "10764 Virginia Plz", "addr:city": "Papillion", "addr:state": "NE", "addr:postcode": "68046", "addr:country": "US", "phone": "402-331-0228", "website": "https://www.kumandgo.com/stores/0374/", "brand": "Kum & Go", "brand:wikidata": "Q6443340"}, "geometry": {"type": "Point", "coordinates": [-96.080662, 41.175632]}},
{"type": "Feature", "id": "XNN0j2NwJ8LNMY_57EXfInzGf-o=", "properties": {"ref": "23581", "@spider": "kum_and_go", "addr:full": "1010 S 154th St", "addr:city": "Omaha", "addr:state": "NE", "addr:postcode": "68154", "addr:country": "US", "phone": "402-330-3678", "website": "https://www.kumandgo.com/stores/0352/", "brand": "Kum & Go", "brand:wikidata": "Q6443340"}, "geometry": {"type": "Point", "coordinates": [-96.155391, 41.248924]}},
{"type": "Feature", "id": "ptMm2qwpWw3B5IIsgjBCv4P6D04=", "properties": {"ref": "23589", "@spider": "kum_and_go", "addr:full": "4041 N 168th St", "addr:city": "Omaha", "addr:state": "NE", "addr:postcode": "68116", "addr:country": "US", "phone": "402-289-2219", "website": "https://www.kumandgo.com/stores/0368/", "brand": "Kum & Go", "brand:wikidata": "Q6443340"}, "geometry": {"type": "Point", "coordinates": [-96.17704, 41.29495]}},
{"type": "Feature", "id": "_D6Pv7lL80KM3k6C6wRNqWwEtvc=", "properties": {"ref": "23587", "@spider": "kum_and_go", "addr:full": "4443 S 84th St", "addr:city": "Omaha", "addr:state": "NE", "addr:postcode": "68127", "addr:country": "US", "phone": "402-898-8912", "website": "https://www.kumandgo.com/stores/0366/", "brand": "Kum & Go", "brand:wikidata": "Q6443340"}, "geometry": {"type": "Point", "coordinates": [-96.0426077, 41.2158298]}},
{"type": "Feature", "id": "no2O1Cea988J24tf3lUlJ7RaRtM=", "properties": {"ref": "23593", "@spider": "kum_and_go", "addr:full": "13905 Williamsburg Dr", "addr:city": "Bellevue", "addr:state": "NE", "addr:postcode": "68123", "addr:country": "US", "phone": "402-291-0302", "website": "https://www.kumandgo.com/stores/0373/", "brand": "Kum & Go", "brand:wikidata": "Q6443340"}, "geometry": {"type": "Point", "coordinates": [-95.934201, 41.10429]}},
{"type": "Feature", "id": "XcRopJOyt5GKYAjU3_7OS7DRzec=", "properties": {"ref": "23740", "@spider": "kum_and_go", "addr:full": "1102 S US Highway 169", "addr:city": "Smithville", "addr:state": "MO", "addr:postcode": "64089", "addr:country": "US", "phone": "816-532-4450", "website": "https://www.kumandgo.com/stores/0778/", "brand": "Kum & Go", "brand:wikidata": "Q6443340"}, "geometry": {"type": "Point", "coordinates": [-94.583986, 39.3694039]}},
{"type": "Feature", "id": "rYcmOs3zs0KiROt-SrofsqN7_dI=", "properties": {"ref": "23741", "@spider": "kum_and_go", "addr:full": "3807 Miller Street", "addr:city": "Bethany", "addr:state": "MO", "addr:postcode": "64424", "addr:country": "US", "phone": "660-425-2100", "website": "https://www.kumandgo.com/stores/0779/", "brand": "Kum & Go", "brand:wikidata": "Q6443340"}, "geometry": {"type": "Point", "coordinates": [-94.0154349, 40.2657146]}},
{"type": "Feature", "id": "6pTaepep9Y5k2RJKpAWbsrDPcZQ=", "properties": {"ref": "23797", "@spider": "kum_and_go", "addr:full": "317 E Main St", "addr:city": "Rangely", "addr:state": "CO", "addr:postcode": "81648", "addr:country": "US", "phone": "970-675-2858", "website": "https://www.kumandgo.com/stores/0919/", "brand": "Kum & Go", "brand:wikidata": "Q6443340"}, "geometry": {"type": "Point", "coordinates": [-108.8006577, 40.0872399]}},
{"type": "Feature", "id": "X_s3w0zI68XDpnxmODroQc665rI=", "properties": {"ref": "23827", "@spider": "kum_and_go", "addr:full": "2004 Dewar Dr", "addr:city": "Rock Springs", "addr:state": "WY", "addr:postcode": "82901", "addr:country": "US", "phone": "307-362-7711", "website": "https://www.kumandgo.com/stores/0968/", "brand": "Kum & Go", "brand:wikidata": "Q6443340"}, "geometry": {"type": "Point", "coordinates": [-109.2476095, 41.5758578]}},
{"type": "Feature", "id": "zY9p1V_uTXyfzDVmJSZDcZ2-fQk=", "properties": {"ref": "23828", "@spider": "kum_and_go", "addr:full": "1540 9th St", "addr:city": "Rock Springs", "addr:state": "WY", "addr:postcode": "82901", "addr:country": "US", "phone": "307-382-1097", "website": "https://www.kumandgo.com/stores/0969/", "brand": "Kum & Go", "brand:wikidata": "Q6443340"}, "geometry": {"type": "Point", "coordinates": [-109.2049144, 41.5976532]}},
{"type": "Feature", "id": "XxlUNhGYOYRbUjwBsMluB1CX21U=", "properties": {"ref": "23833", "@spider": "kum_and_go", "addr:full": "3910 Foothill Blvd", "addr:city": "Rock Springs", "addr:state": "WY", "addr:postcode": "82901", "addr:country": "US", "phone": "307-382-2476", "website": "https://www.kumandgo.com/stores/0979/", "brand": "Kum & Go", "brand:wikidata": "Q6443340"}, "geometry": {"type": "Point", "coordinates": [-109.251911, 41.5916838]}},
{"type": "Feature", "id": "IDySepend0Lb8auQNF1CxPi-L2c=", "properties": {"ref": "23826", "@spider": "kum_and_go", "addr:full": "1806 Elk St", "addr:city": "Rock Springs", "addr:state": "WY", "addr:postcode": "82901", "addr:country": "US", "phone": "307-362-7525", "website": "https://www.kumandgo.com/stores/0967/", "brand": "Kum & Go", "brand:wikidata": "Q6443340"}, "geometry": {"type": "Point", "coordinates": [-109.2316739, 41.6176829]}},
{"type": "Feature", "id": "WnDI1TTAaM4WtmJlaUo_BYD2KCo=", "properties": {"ref": "23788", "@spider": "kum_and_go", "addr:full": "1302 W Victory Way", "addr:city": "Craig", "addr:state": "CO", "addr:postcode": "81625", "addr:country": "US", "phone": "970-824-2568", "website": "https://www.kumandgo.com/stores/0902/", "brand": "Kum & Go", "brand:wikidata": "Q6443340"}, "geometry": {"type": "Point", "coordinates": [-107.5634134, 40.5138007]}},
{"type": "Feature", "id": "tfMZYD_A0NzYpggMEs6Euv_6XcA=", "properties": {"ref": "23787", "@spider": "kum_and_go", "addr:full": "895 Yampa Ave", "addr:city": "Craig", "addr:state": "CO", "addr:postcode": "81625", "addr:country": "US", "phone": "970-824-7325", "website": "https://www.kumandgo.com/stores/0901/", "brand": "Kum & Go", "brand:wikidata": "Q6443340"}, "geometry": {"type": "Point", "coordinates": [-107.5469557, 40.5208441]}},
{"type": "Feature", "id": "_ZwyrfEWrlQlGQDv8WLG3KVBFTk=", "properties": {"ref": "23869", "@spider": "kum_and_go", "addr:full": "700 Victory Way East", "addr:city": "Craig", "addr:state": "CO", "addr:postcode": "81625", "addr:country": "US", "phone": "970-824-0377", "website": "https://www.kumandgo.com/stores/1903/", "brand": "Kum & Go", "brand:wikidata": "Q6443340"}, "geometry": {"type": "Point", "coordinates": [-107.5385423, 40.5138302]}},
{"type": "Feature", "id": "9ikG-7wnMREPVCvGL_59z-5ZClg=", "properties": {"ref": "23870", "@spider": "kum_and_go", "addr:full": "230 West Jefferson Avenue", "addr:city": "Hayden", "addr:state": "CO", "addr:postcode": "81639", "addr:country": "US", "phone": "970-276-7246", "website": "https://www.kumandgo.com/stores/1904/", "brand": "Kum & Go", "brand:wikidata": "Q6443340"}, "geometry": {"type": "Point", "coordinates": [-107.2593667, 40.4950924]}},
{"type": "Feature", "id": "vw69DWOZeANPQ_TpeFeD28mBa3Q=", "properties": {"ref": "23891", "@spider": "kum_and_go", "addr:full": "705 Taughenbaugh Blvd", "addr:city": "Rifle", "addr:state": "CO", "addr:postcode": "81650", "addr:country": "US", "phone": "970-625-5062", "website": "https://www.kumandgo.com/stores/4923/", "brand": "Kum & Go", "brand:wikidata": "Q6443340"}, "geometry": {"type": "Point", "coordinates": [-107.7775007, 39.5222049]}},
{"type": "Feature", "id": "-QzlZ6a6mWLNjUduyC8sIkJkzQc=", "properties": {"ref": "23799", "@spider": "kum_and_go", "addr:full": "120 E 1st St", "addr:city": "Rifle", "addr:state": "CO", "addr:postcode": "81650", "addr:country": "US", "phone": "970-625-5185", "website": "https://www.kumandgo.com/stores/0921/", "brand": "Kum & Go", "brand:wikidata": "Q6443340"}, "geometry": {"type": "Point", "coordinates": [-107.7825228, 39.5300672]}},
{"type": "Feature", "id": "6di6kzVAsdDa0bYqpnSyprZ7Qus=", "properties": {"ref": "23790", "@spider": "kum_and_go", "addr:full": "10 Stone Quarry Rd", "addr:city": "Battlement Mesa", "addr:state": "CO", "addr:postcode": "81635", "addr:country": "US", "phone": "970-285-5637", "website": "https://www.kumandgo.com/stores/0906/", "brand": "Kum & Go", "brand:wikidata": "Q6443340"}, "geometry": {"type": "Point", "coordinates": [-108.029904, 39.4410257]}},
{"type": "Feature", "id": "QIsK2uJqBO3xMv3Kvuad-5LfaYw=", "properties": {"ref": "23800", "@spider": "kum_and_go", "addr:full": "120 E 26th St", "addr:city": "Rifle", "addr:state": "CO", "addr:postcode": "81650", "addr:country": "US", "phone": "970-625-2274", "website": "https://www.kumandgo.com/stores/0922/", "brand": "Kum & Go", "brand:wikidata": "Q6443340"}, "geometry": {"type": "Point", "coordinates": [-107.7767605, 39.5530132]}},
{"type": "Feature", "id": "xaKgCi_aF6fzDtvWAoAwCn4QcRg=", "properties": {"ref": "23789", "@spider": "kum_and_go", "addr:full": "905 Main St", "addr:city": "Silt", "addr:state": "CO", "addr:postcode": "81652", "addr:country": "US", "phone": "970-876-0683", "website": "https://www.kumandgo.com/stores/0905/", "brand": "Kum & Go", "brand:wikidata": "Q6443340"}, "geometry": {"type": "Point", "coordinates": [-107.6531628, 39.5467158]}},
{"type": "Feature", "id": "gIzevWBawhZ1h5w2XpI9uctCyHE=", "properties": {"ref": "23808", "@spider": "kum_and_go", "addr:full": "4530 Old US Highway 6", "addr:city": "De Beque", "addr:state": "CO", "addr:postcode": "81630", "addr:country": "US", "phone": "970-283-8635", "website": "https://www.kumandgo.com/stores/0937/", "brand": "Kum & Go", "brand:wikidata": "Q6443340"}, "geometry": {"type": "Point", "coordinates": [-108.2073096, 39.3264849]}},
{"type": "Feature", "id": "qLtORoU08Xmj0cC6NlID6SyQgbI=", "properties": {"ref": "23801", "@spider": "kum_and_go", "addr:full": "801 Castle Valley Blvd", "addr:city": "New Castle", "addr:state": "CO", "addr:postcode": "81647", "addr:country": "US", "phone": "970-984-9618", "website": "https://www.kumandgo.com/stores/0927/", "brand": "Kum & Go", "brand:wikidata": "Q6443340"}, "geometry": {"type": "Point", "coordinates": [-107.5163081, 39.5683253]}},
{"type": "Feature", "id": "klyTTAy4JpPXaREBFfnlUpmvREo=", "properties": {"ref": "23883", "@spider": "kum_and_go", "addr:full": "2510 Gilstrap Ct", "addr:city": "Glenwood Springs", "addr:state": "CO", "addr:postcode": "81601", "addr:country": "US", "phone": "970-947-1469", "website": "https://www.kumandgo.com/stores/2926/", "brand": "Kum & Go", "brand:wikidata": "Q6443340"}, "geometry": {"type": "Point", "coordinates": [-107.3619902, 39.5597946]}},
{"type": "Feature", "id": "GuyBUDCxICgdbdft_-DAmvTHX08=", "properties": {"ref": "23892", "@spider": "kum_and_go", "addr:full": "105 6th St", "addr:city": "Glenwood Springs", "addr:state": "CO", "addr:postcode": "81601", "addr:country": "US", "phone": "970-945-7628", "website": "https://www.kumandgo.com/stores/4951/", "brand": "Kum & Go", "brand:wikidata": "Q6443340"}, "geometry": {"type": "Point", "coordinates": [-107.3265859, 39.5504586]}},
{"type": "Feature", "id": "msryisdh6PflTQSNekji548B4KU=", "properties": {"ref": "23807", "@spider": "kum_and_go", "addr:full": "103 Oakridge Dr", "addr:city": "Gypsum", "addr:state": "CO", "addr:postcode": "81637", "addr:country": "US", "phone": "970-524-1833", "website": "https://www.kumandgo.com/stores/0935/", "brand": "Kum & Go", "brand:wikidata": "Q6443340"}, "geometry": {"type": "Point", "coordinates": [-106.9469577, 39.6457659]}},
{"type": "Feature", "id": "Phmhhc2pYjsWa43Da0T_5HN9N6o=", "properties": {"ref": "23832", "@spider": "kum_and_go", "addr:full": "18 Market St", "addr:city": "Eagle", "addr:state": "CO", "addr:postcode": "81631", "addr:country": "US", "phone": "970-328-0806", "website": "https://www.kumandgo.com/stores/0978/", "brand": "Kum & Go", "brand:wikidata": "Q6443340"}, "geometry": {"type": "Point", "coordinates": [-106.8282314, 39.6611907]}},
{"type": "Feature", "id": "dNhgUBWxGTtt8meET-6X5TiOsDI=", "properties": {"ref": "23792", "@spider": "kum_and_go", "addr:full": "605 Park Ave", "addr:city": "Kremmling", "addr:state": "CO", "addr:postcode": "80459", "addr:country": "US", "phone": "970-724-1105", "website": "https://www.kumandgo.com/stores/0909/", "brand": "Kum & Go", "brand:wikidata": "Q6443340"}, "geometry": {"type": "Point", "coordinates": [-106.3877738, 40.0592574]}},
{"type": "Feature", "id": "O8o1nAkaIiECx9dvDMkpKexBdng=", "properties": {"ref": "23813", "@spider": "kum_and_go", "addr:full": "55 Lusher Ct", "addr:city": "Frisco", "addr:state": "CO", "addr:postcode": "80443", "addr:country": "US", "phone": "970-668-9475", "website": "https://www.kumandgo.com/stores/0948/", "brand": "Kum & Go", "brand:wikidata": "Q6443340"}, "geometry": {"type": "Point", "coordinates": [-106.0961676, 39.5915139]}},
{"type": "Feature", "id": "3-IJKNHzszkFG4bX68z0O-vYS34=", "properties": {"ref": "23791", "@spider": "kum_and_go", "addr:full": "101 Ruby Ranch Rd", "addr:city": "Silverthorne", "addr:state": "CO", "addr:postcode": "80498", "addr:country": "US", "phone": "970-468-0888", "website": "https://www.kumandgo.com/stores/0907/", "brand": "Kum & Go", "brand:wikidata": "Q6443340"}, "geometry": {"type": "Point", "coordinates": [-106.0794032, 39.6459901]}},
{"type": "Feature", "id": "64ZlNbf2vL9bzC_PHj5sKKvBo_o=", "properties": {"ref": "23802", "@spider": "kum_and_go", "addr:full": "80 Anglers Dr", "addr:city": "Steamboat Springs", "addr:state": "CO", "addr:postcode": "80477", "addr:country": "US", "phone": "970-871-0753", "website": "https://www.kumandgo.com/stores/0928/", "brand": "Kum & Go", "brand:wikidata": "Q6443340"}, "geometry": {"type": "Point", "coordinates": [-106.8271021, 40.4683828]}},
{"type": "Feature", "id": "zHaC0f5Hy5oA6ExiVgzq72vrVuI=", "properties": {"ref": "23798", "@spider": "kum_and_go", "addr:full": "2032 Curve Plz", "addr:city": "Steamboat Springs", "addr:state": "CO", "addr:postcode": "80477", "addr:country": "US", "phone": "970-871-3324", "website": "https://www.kumandgo.com/stores/0920/", "brand": "Kum & Go", "brand:wikidata": "Q6443340"}, "geometry": {"type": "Point", "coordinates": [-106.8574331, 40.502052]}},
{"type": "Feature", "id": "rr8fuFCy4HF0IrmXfFJfY62nCXo=", "properties": {"ref": "23829", "@spider": "kum_and_go", "addr:full": "312 S 1st St", "addr:city": "Saratoga", "addr:state": "WY", "addr:postcode": "82331", "addr:country": "US", "phone": "307-326-5346", "website": "https://www.kumandgo.com/stores/0970/", "brand": "Kum & Go", "brand:wikidata": "Q6443340"}, "geometry": {"type": "Point", "coordinates": [-106.8079745, 41.452381]}},
{"type": "Feature", "id": "jNmXxdYnNHJAjCmXZErVMTtAM1s=", "properties": {"ref": "23809", "@spider": "kum_and_go", "addr:full": "308 Agate Ave", "addr:city": "Granby", "addr:state": "CO", "addr:postcode": "80446", "addr:country": "US", "phone": "970-887-3031", "website": "https://www.kumandgo.com/stores/0938/", "brand": "Kum & Go", "brand:wikidata": "Q6443340"}, "geometry": {"type": "Point", "coordinates": [-105.9470152, 40.0858956]}},
{"type": "Feature", "id": "RzUbhHlPvQj3C994UM7vvidsuWg=", "properties": {"ref": "23825", "@spider": "kum_and_go", "addr:full": "1115 N Higley Blvd", "addr:city": "Rawlins", "addr:state": "WY", "addr:postcode": "82301", "addr:country": "US", "phone": "307-328-1688", "website": "https://www.kumandgo.com/stores/0966/", "brand": "Kum & Go", "brand:wikidata": "Q6443340"}, "geometry": {"type": "Point", "coordinates": [-107.216034, 41.798495]}},
{"type": "Feature", "id": "dhQ9XEwocfTxgyGdx9mQUFynBcM=", "properties": {"ref": "23831", "@spider": "kum_and_go", "addr:full": "1319 Miner St", "addr:city": "Idaho Springs", "addr:state": "CO", "addr:postcode": "80452", "addr:country": "US", "phone": "303-567-2385", "website": "https://www.kumandgo.com/stores/0975/", "brand": "Kum & Go", "brand:wikidata": "Q6443340"}, "geometry": {"type": "Point", "coordinates": [-105.5190689, 39.7416979]}},
{"type": "Feature", "id": "rdSFsSmAgMRVij_eNx5B-A3uzsA=", "properties": {"ref": "23794", "@spider": "kum_and_go", "addr:full": "30393 Kings Valley Dr", "addr:city": "Conifer", "addr:state": "CO", "addr:postcode": "80433", "addr:country": "US", "phone": "303-816-0558", "website": "https://www.kumandgo.com/stores/0912/", "brand": "Kum & Go", "brand:wikidata": "Q6443340"}, "geometry": {"type": "Point", "coordinates": [-105.3478343, 39.4917502]}},
{"type": "Feature", "id": "dleK1V_V2bYtUba_HyY-LsSNI9w=", "properties": {"ref": "23575", "@spider": "kum_and_go", "addr:full": "11505 W Belleview Avenue", "addr:city": "Littleton", "addr:state": "CO", "addr:postcode": "80127", "addr:country": "US", "phone": "303-904-9338", "website": "https://www.kumandgo.com/stores/0325/", "brand": "Kum & Go", "brand:wikidata": "Q6443340"}, "geometry": {"type": "Point", "coordinates": [-105.1282254, 39.6247581]}},
{"type": "Feature", "id": "cPQJdpPqduDnGckuUvl0rBZubNk=", "properties": {"ref": "23713", "@spider": "kum_and_go", "addr:full": "17970 Knoll Wood DR", "addr:city": "Monument", "addr:state": "CO", "addr:postcode": "80132", "addr:country": "US", "phone": "719-487-2696", "website": "https://www.kumandgo.com/stores/0650/", "brand": "Kum & Go", "brand:wikidata": "Q6443340"}, "geometry": {"type": "Point", "coordinates": [-104.8522401, 39.0925435]}},
{"type": "Feature", "id": "0vxSQUsjILA6Dg7TSxS2V0k_NIk=", "properties": {"ref": "23572", "@spider": "kum_and_go", "addr:full": "18465 W. Colfax Avenue", "addr:city": "Golden", "addr:state": "CO", "addr:postcode": "80401", "addr:country": "US", "phone": "303-279-9059", "website": "https://www.kumandgo.com/stores/0319/", "brand": "Kum & Go", "brand:wikidata": "Q6443340"}, "geometry": {"type": "Point", "coordinates": [-105.2047175, 39.7024467]}},
{"type": "Feature", "id": "CRKQNTZlkPxcBYcXW0P89WI-YTw=", "properties": {"ref": "23576", "@spider": "kum_and_go", "addr:full": "450 S. Santa Fe Drive", "addr:city": "Denver", "addr:state": "CO", "addr:postcode": "80223", "addr:country": "US", "phone": "720-712-2066", "website": "https://www.kumandgo.com/stores/0329/", "brand": "Kum & Go", "brand:wikidata": "Q6443340"}, "geometry": {"type": "Point", "coordinates": [-104.9954313, 39.7086953]}},
{"type": "Feature", "id": "yalIJdZjldeFeIfDxNZL9L6eLBM=", "properties": {"ref": "23877", "@spider": "kum_and_go", "addr:full": "3432 Clear Creek Drive", "addr:city": "Wheat Ridge", "addr:state": "CO", "addr:postcode": "80401", "addr:country": "US", "phone": "720-619-9265", "website": "https://www.kumandgo.com/stores/2310/", "brand": "Kum & Go", "brand:wikidata": "Q6443340"}, "geometry": {"type": "Point", "coordinates": [-105.1449744, 39.7620876]}},
{"type": "Feature", "id": "nTioGieo0-w-VFPRpr_LPOz-OdM=", "properties": {"ref": "23719", "@spider": "kum_and_go", "addr:full": "1206 Interquest Pkwy", "addr:city": "Colorado Springs", "addr:state": "CO", "addr:postcode": "80921", "addr:country": "US", "phone": "719-219-0697", "website": "https://www.kumandgo.com/stores/0665/", "brand": "Kum & Go", "brand:wikidata": "Q6443340"}, "geometry": {"type": "Point", "coordinates": [-104.8070355, 38.9916479]}},
{"type": "Feature", "id": "fEJ-HT9OOLg5pG790dX_gg1iDqw=", "properties": {"ref": "26343", "@spider": "kum_and_go", "addr:full": "1808 Democracy Pt", "addr:city": "Colorado Springs", "addr:state": "CO", "addr:postcode": "80908", "addr:country": "US", "phone": "(719)-653-0990", "website": "https://www.kumandgo.com/stores/0649/", "brand": "Kum & Go", "brand:wikidata": "Q6443340"}, "geometry": {"type": "Point", "coordinates": [-104.79734, 38.988831]}},
{"type": "Feature", "id": "67tIR4AbYjXzRTv__yaibuugO7w=", "properties": {"ref": "23728", "@spider": "kum_and_go", "addr:full": "2422 Research Parkway", "addr:city": "Colorado Springs", "addr:state": "CO", "addr:postcode": "80920", "addr:country": "US", "phone": "719-559-2275", "website": "https://www.kumandgo.com/stores/0684/", "brand": "Kum & Go", "brand:wikidata": "Q6443340"}, "geometry": {"type": "Point", "coordinates": [-104.7840005, 38.9609795]}},
{"type": "Feature", "id": "-j6CsIJcoWJPGWypq94i9sdT7gk=", "properties": {"ref": "23733", "@spider": "kum_and_go", "addr:full": "1450 Garden of the Gods Rd", "addr:city": "Colorado Springs", "addr:state": "CO", "addr:postcode": "80907", "addr:country": "US", "phone": "719-559-4785", "website": "https://www.kumandgo.com/stores/0690/", "brand": "Kum & Go", "brand:wikidata": "Q6443340"}, "geometry": {"type": "Point", "coordinates": [-104.854319, 38.897334]}},
{"type": "Feature", "id": "ZpqZiaodFEvBnmd3TRs0plU2eKI=", "properties": {"ref": "23716", "@spider": "kum_and_go", "addr:full": "9665 Prominent Point", "addr:city": "Colorado Springs", "addr:state": "CO", "addr:postcode": "80924", "addr:country": "US", "phone": "719-282-7673", "website": "https://www.kumandgo.com/stores/0659/", "brand": "Kum & Go", "brand:wikidata": "Q6443340"}, "geometry": {"type": "Point", "coordinates": [-104.7414837, 38.9705486]}},
{"type": "Feature", "id": "EXYWOoFDmUlpCxWhgJG4BkGLm-4=", "properties": {"ref": "23714", "@spider": "kum_and_go", "addr:full": "2190 Vickers Drive", "addr:city": "Colorado Springs", "addr:state": "CO", "addr:postcode": "80918", "addr:country": "US", "phone": "719-219-0324", "website": "https://www.kumandgo.com/stores/0657/", "brand": "Kum & Go", "brand:wikidata": "Q6443340"}, "geometry": {"type": "Point", "coordinates": [-104.7876474, 38.9158143]}},
{"type": "Feature", "id": "Qc4RRIeQd0-tYtdiWSF9lyDDEiw=", "properties": {"ref": "23721", "@spider": "kum_and_go", "addr:full": "3091 N Chestnut ST", "addr:city": "Colorado Springs", "addr:state": "CO", "addr:postcode": "80907", "addr:country": "US", "phone": "719-424-4580", "website": "https://www.kumandgo.com/stores/0668/", "brand": "Kum & Go", "brand:wikidata": "Q6443340"}, "geometry": {"type": "Point", "coordinates": [-104.8368887, 38.876869]}},
{"type": "Feature", "id": "l2FfC3JXmmmOC84zOYY6AR3s500=", "properties": {"ref": "23712", "@spider": "kum_and_go", "addr:full": "3802 North Nevada Avenue", "addr:city": "Colorado Springs", "addr:state": "CO", "addr:postcode": "80907", "addr:country": "US", "phone": "720-734-2004", "website": "https://www.kumandgo.com/stores/0643/", "brand": "Kum & Go", "brand:wikidata": "Q6443340"}, "geometry": {"type": "Point", "coordinates": [-104.8197325, 38.8863398]}},
{"type": "Feature", "id": "494GnTb0NbfDi5NXguWXvVp93GY=", "properties": {"ref": "23725", "@spider": "kum_and_go", "addr:full": "620 East Fillmore Street", "addr:city": "Colorado Springs", "addr:state": "CO", "addr:postcode": "80907", "addr:country": "US", "phone": "719-219-0726", "website": "https://www.kumandgo.com/stores/0673/", "brand": "Kum & Go", "brand:wikidata": "Q6443340"}, "geometry": {"type": "Point", "coordinates": [-104.8133914, 38.8746723]}},
{"type": "Feature", "id": "j-ziU24v5fGhwiELbFU8echwpqM=", "properties": {"ref": "23720", "@spider": "kum_and_go", "addr:full": "7375 Duryea Rd", "addr:city": "Colorado Springs", "addr:state": "CO", "addr:postcode": "80923", "addr:country": "US", "phone": "719-445-5041", "website": "https://www.kumandgo.com/stores/0667/", "brand": "Kum & Go", "brand:wikidata": "Q6443340"}, "geometry": {"type": "Point", "coordinates": [-104.7283278, 38.9396385]}},
{"type": "Feature", "id": "0XJcs-ts0RLXXfQVtvfkifFisRk=", "properties": {"ref": "23729", "@spider": "kum_and_go", "addr:full": "6615 Dalby Drive", "addr:city": "Colorado Springs", "addr:state": "CO", "addr:postcode": "80923", "addr:country": "US", "phone": "719-559-1780", "website": "https://www.kumandgo.com/stores/0685/", "brand": "Kum & Go", "brand:wikidata": "Q6443340"}, "geometry": {"type": "Point", "coordinates": [-104.7212256, 38.9267956]}},
{"type": "Feature", "id": "ttg-UrrffMkL9DmGJ2s1ou4Wyvw=", "properties": {"ref": "23732", "@spider": "kum_and_go", "addr:full": "4512 Austin Bluffs Parkway", "addr:city": "Colorado Springs", "addr:state": "CO", "addr:postcode": "80918", "addr:country": "US", "phone": "719-266-1687", "website": "https://www.kumandgo.com/stores/0689/", "brand": "Kum & Go", "brand:wikidata": "Q6443340"}, "geometry": {"type": "Point", "coordinates": [-104.7474163, 38.8982273]}},
{"type": "Feature", "id": "zms46Dh1ROCSTEJ5Lxg_89dmkZo=", "properties": {"ref": "23730", "@spider": "kum_and_go", "addr:full": "2410 N Academy Blvd", "addr:city": "Colorado Springs", "addr:state": "CO", "addr:postcode": "80916", "addr:country": "US", "phone": "719-559-1580", "website": "https://www.kumandgo.com/stores/0686/", "brand": "Kum & Go", "brand:wikidata": "Q6443340"}, "geometry": {"type": "Point", "coordinates": [-104.7577455, 38.8672711]}},
{"type": "Feature", "id": "NY7ES7LhxKS-NNHetvCEatc4QWE=", "properties": {"ref": "23715", "@spider": "kum_and_go", "addr:full": "6125 Barnes Rd", "addr:city": "Colorado Springs", "addr:state": "CO", "addr:postcode": "80922", "addr:country": "US", "phone": "719-219-0685", "website": "https://www.kumandgo.com/stores/0658/", "brand": "Kum & Go", "brand:wikidata": "Q6443340"}, "geometry": {"type": "Point", "coordinates": [-104.7137463, 38.8944773]}},
{"type": "Feature", "id": "zxeIQnEKrTimXylMpENlzH-6HzE=", "properties": {"ref": "23726", "@spider": "kum_and_go", "addr:full": "1021 S Neveda Ave.", "addr:city": "Colorado Springs", "addr:state": "CO", "addr:postcode": "80903", "addr:country": "US", "phone": "719-362-8082", "website": "https://www.kumandgo.com/stores/0674/", "brand": "Kum & Go", "brand:wikidata": "Q6443340"}, "geometry": {"type": "Point", "coordinates": [-104.8220919, 38.8187482]}},
{"type": "Feature", "id": "5UtFRJfO5iQeEJFhPgDumobLdFE=", "properties": {"ref": "23718", "@spider": "kum_and_go", "addr:full": "5771 N Carefree Cir", "addr:city": "Colorado Springs", "addr:state": "CO", "addr:postcode": "80917", "addr:country": "US", "phone": "719-219-0223", "website": "https://www.kumandgo.com/stores/0663/", "brand": "Kum & Go", "brand:wikidata": "Q6443340"}, "geometry": {"type": "Point", "coordinates": [-104.7210243, 38.8846596]}},
{"type": "Feature", "id": "iQgkJAXPotM2t62VyXINVIaFqjc=", "properties": {"ref": "23722", "@spider": "kum_and_go", "addr:full": "6735 N Carefree Cir", "addr:city": "Colorado Springs", "addr:state": "CO", "addr:postcode": "80922", "addr:country": "US", "phone": "719-434-3869", "website": "https://www.kumandgo.com/stores/0669/", "brand": "Kum & Go", "brand:wikidata": "Q6443340"}, "geometry": {"type": "Point", "coordinates": [-104.7028112, 38.8858539]}},
{"type": "Feature", "id": "0uzS4hsJUJO7-U15YpFhwGJyBr4=", "properties": {"ref": "23727", "@spider": "kum_and_go", "addr:full": "2588 Airport Road", "addr:city": "Colorado Springs", "addr:state": "CO", "addr:postcode": "80910", "addr:country": "US", "phone": "719-434-4749", "website": "https://www.kumandgo.com/stores/0676/", "brand": "Kum & Go", "brand:wikidata": "Q6443340"}, "geometry": {"type": "Point", "coordinates": [-104.7809008, 38.8257633]}},
{"type": "Feature", "id": "k8ukEMJOiO0ZjYh9w7r5zU_HPxE=", "properties": {"ref": "23731", "@spider": "kum_and_go", "addr:full": "525 Wooten Road", "addr:city": "Colorado Springs", "addr:state": "CO", "addr:postcode": "80915", "addr:country": "US", "phone": "719-559-3480", "website": "https://www.kumandgo.com/stores/0687/", "brand": "Kum & Go", "brand:wikidata": "Q6443340"}, "geometry": {"type": "Point", "coordinates": [-104.7380115, 38.8406764]}},
{"type": "Feature", "id": "BpV3enlJUZ_rId918mD5PfpdL0A=", "properties": {"ref": "23734", "@spider": "kum_and_go", "addr:full": "441 Flyway Pt", "addr:city": "Colorado Springs", "addr:state": "CO", "addr:postcode": "80916", "addr:country": "US", "phone": "719-257-4530", "website": "https://www.kumandgo.com/stores/0693/", "brand": "Kum & Go", "brand:wikidata": "Q6443340"}, "geometry": {"type": "Point", "coordinates": [-104.7273759, 38.8263721]}},
{"type": "Feature", "id": "3wUz9gwJZ8tjB8pKgG17U3LmfPs=", "properties": {"ref": "23717", "@spider": "kum_and_go", "addr:full": "3525 Spectrum Air Way", "addr:city": "Colorado Springs", "addr:state": "CO", "addr:postcode": "80911", "addr:country": "US", "phone": "720-262-7570", "website": "https://www.kumandgo.com/stores/0661/", "brand": "Kum & Go", "brand:wikidata": "Q6443340"}, "geometry": {"type": "Point", "coordinates": [-104.6899581, 38.8416899]}},
{"type": "Feature", "id": "KkJDk6J1QaKksYWY2KZ3KG93R1w=", "properties": {"ref": "23724", "@spider": "kum_and_go", "addr:full": "3025 Hancock Expy", "addr:city": "Colorado Springs", "addr:state": "CO", "addr:postcode": "80907", "addr:country": "US", "phone": "719-473-8296", "website": "https://www.kumandgo.com/stores/0672/", "brand": "Kum & Go", "brand:wikidata": "Q6443340"}, "geometry": {"type": "Point", "coordinates": [-104.7548969, 38.7897825]}},
{"type": "Feature", "id": "jg4z40jG3x1EwHvZl1lQy15ZkPs=", "properties": {"ref": "23723", "@spider": "kum_and_go", "addr:full": "8050 Fountain Mesa Rd", "addr:city": "Fountain", "addr:state": "CO", "addr:postcode": "80817", "addr:country": "US", "phone": "719-382-9018", "website": "https://www.kumandgo.com/stores/0670/", "brand": "Kum & Go", "brand:wikidata": "Q6443340"}, "geometry": {"type": "Point", "coordinates": [-104.7023328, 38.7153337]}},
{"type": "Feature", "id": "fWsjnHZdctJpTk1ly3awi9tHTWI=", "properties": {"ref": "23776", "@spider": "kum_and_go", "addr:full": "1890 N Perkins Rd", "addr:city": "Stillwater", "addr:state": "OK", "addr:postcode": "74075", "addr:country": "US", "phone": "405-707-0471", "website": "https://www.kumandgo.com/stores/0878/", "brand": "Kum & Go", "brand:wikidata": "Q6443340"}, "geometry": {"type": "Point", "coordinates": [-97.0523649, 36.1401292]}},
{"type": "Feature", "id": "4cZkSHImB8jRg932UeDlqU5SBno=", "properties": {"ref": "23755", "@spider": "kum_and_go", "addr:full": "2001 E Main St", "addr:city": "Cushing", "addr:state": "OK", "addr:postcode": "74023", "addr:country": "US", "phone": "918-225-4407", "website": "https://www.kumandgo.com/stores/0842/", "brand": "Kum & Go", "brand:wikidata": "Q6443340"}, "geometry": {"type": "Point", "coordinates": [-96.739949, 35.9853623]}},
{"type": "Feature", "id": "KoUIYhUU94YbnQ5lnKtdNMO19qE=", "properties": {"ref": "23778", "@spider": "kum_and_go", "addr:full": "Cimarron Turnpike, Exit 36", "addr:city": "Lone Chimney", "addr:state": "OK", "addr:postcode": "74075", "addr:country": "US", "phone": "918-454-2808", "website": "https://www.kumandgo.com/stores/0880/", "brand": "Kum & Go", "brand:wikidata": "Q6443340"}, "geometry": {"type": "Point", "coordinates": [-96.7954269, 36.2247266]}},
{"type": "Feature", "id": "aO6jHbJUKpYEIOIpu57wq6yiZ70=", "properties": {"ref": "23834", "@spider": "kum_and_go", "addr:full": "510 S Main St", "addr:city": "Bristow", "addr:state": "OK", "addr:postcode": "74010", "addr:country": "US", "phone": "918-367-6404", "website": "https://www.kumandgo.com/stores/0981/", "brand": "Kum & Go", "brand:wikidata": "Q6443340"}, "geometry": {"type": "Point", "coordinates": [-96.3913495, 35.8286259]}},
{"type": "Feature", "id": "GogfagPS3Z7-G2h5AodMr37h2PE=", "properties": {"ref": "23765", "@spider": "kum_and_go", "addr:full": "801 N 9th ST", "addr:city": "Sapulpa", "addr:state": "OK", "addr:postcode": "74066", "addr:country": "US", "phone": "918-227-7874", "website": "https://www.kumandgo.com/stores/0863/", "brand": "Kum & Go", "brand:wikidata": "Q6443340"}, "geometry": {"type": "Point", "coordinates": [-96.1111222, 36.0084525]}},
{"type": "Feature", "id": "lsBUlfVx8oSueHiJudJ-eaCbR8s=", "properties": {"ref": "23764", "@spider": "kum_and_go", "addr:full": "230 S Adams Rd", "addr:city": "Sand Springs", "addr:state": "OK", "addr:postcode": "74063", "addr:country": "US", "phone": "918-246-2864", "website": "https://www.kumandgo.com/stores/0862/", "brand": "Kum & Go", "brand:wikidata": "Q6443340"}, "geometry": {"type": "Point", "coordinates": [-96.1019536, 36.1344102]}},
{"type": "Feature", "id": "aZaDJ2P0TRGPjabIRtUFefuFkMg=", "properties": {"ref": "23763", "@spider": "kum_and_go", "addr:full": "2101 E Main St", "addr:city": "Pawhuska", "addr:state": "OK", "addr:postcode": "74056", "addr:country": "US", "phone": "918-287-2539", "website": "https://www.kumandgo.com/stores/0860/", "brand": "Kum & Go", "brand:wikidata": "Q6443340"}, "geometry": {"type": "Point", "coordinates": [-96.3147985, 36.6694601]}},
{"type": "Feature", "id": "40fxzVE9qVuR3k89AnWGV_iwf5A=", "properties": {"ref": "26327", "@spider": "kum_and_go", "addr:full": "30 E. 151st Street S.", "addr:city": "Glenpool", "addr:state": "OK", "addr:postcode": "74033", "addr:country": "US", "phone": "(918)-509-4814", "website": "https://www.kumandgo.com/stores/0812/", "brand": "Kum & Go", "brand:wikidata": "Q6443340"}, "geometry": {"type": "Point", "coordinates": [-96.007294, 35.943554]}},
{"type": "Feature", "id": "POylfo0CgjMNSNuiK4sS7j6nBMA=", "properties": {"ref": "23784", "@spider": "kum_and_go", "addr:full": "1111 W 81st St S", "addr:city": "Tulsa", "addr:state": "OK", "addr:postcode": "74132", "addr:country": "US", "phone": "918-445-6387", "website": "https://www.kumandgo.com/stores/0887/", "brand": "Kum & Go", "brand:wikidata": "Q6443340"}, "geometry": {"type": "Point", "coordinates": [-96.0049079, 36.0470115]}},
{"type": "Feature", "id": "RSGz_Rb9jCxM24mTm6XLq3nUbUQ=", "properties": {"ref": "23766", "@spider": "kum_and_go", "addr:full": "951 W Rogers Blvd", "addr:city": "Skiatook", "addr:state": "OK", "addr:postcode": "74070-1015", "addr:country": "US", "phone": "918-396-0565", "website": "https://www.kumandgo.com/stores/0864/", "brand": "Kum & Go", "brand:wikidata": "Q6443340"}, "geometry": {"type": "Point", "coordinates": [-96.0162733, 36.3682401]}},
{"type": "Feature", "id": "0StGiyjC3e9u62R4FLVhz0Nigo4=", "properties": {"ref": "23758", "@spider": "kum_and_go", "addr:full": "13704 E 106th St N", "addr:city": "Owasso", "addr:state": "OK", "addr:postcode": "74055", "addr:country": "US", "phone": "918-272-8661", "website": "https://www.kumandgo.com/stores/0847/", "brand": "Kum & Go", "brand:wikidata": "Q6443340"}, "geometry": {"type": "Point", "coordinates": [-95.8183669, 36.3068294]}},
{"type": "Feature", "id": "lJDTsoY71qicuVROxjQvFf_L8ZQ=", "properties": {"ref": "23783", "@spider": "kum_and_go", "addr:full": "10603 E 86th St N", "addr:city": "Owasso", "addr:state": "OK", "addr:postcode": "74055", "addr:country": "US", "phone": "918-376-2546", "website": "https://www.kumandgo.com/stores/0886/", "brand": "Kum & Go", "brand:wikidata": "Q6443340"}, "geometry": {"type": "Point", "coordinates": [-95.8542191, 36.2789111]}},
{"type": "Feature", "id": "lE7AvqBGkucbIlRAsin0E_dEVFI=", "properties": {"ref": "23774", "@spider": "kum_and_go", "addr:full": "14505 E 86th St N", "addr:city": "Owasso", "addr:state": "OK", "addr:postcode": "74055", "addr:country": "US", "phone": "918-274-8006", "website": "https://www.kumandgo.com/stores/0876/", "brand": "Kum & Go", "brand:wikidata": "Q6443340"}, "geometry": {"type": "Point", "coordinates": [-95.8116933, 36.2789569]}},
{"type": "Feature", "id": "sA8NXtffuADxJdMFHe63Do_Gi6Y=", "properties": {"ref": "23867", "@spider": "kum_and_go", "addr:full": "502 E. 2nd Ave.", "addr:city": "Owasso", "addr:state": "OK", "addr:postcode": "74055", "addr:country": "US", "phone": "918-255-0054", "website": "https://www.kumandgo.com/stores/1858/", "brand": "Kum & Go", "brand:wikidata": "Q6443340"}, "geometry": {"type": "Point", "coordinates": [-95.8510329, 36.2636083]}},
{"type": "Feature", "id": "qj_jPKkbRcQVi9OME0QEFpSxL4Q=", "properties": {"ref": "23835", "@spider": "kum_and_go", "addr:full": "15139 S OK Highway 72", "addr:city": "Coweta", "addr:state": "OK", "addr:postcode": "74429", "addr:country": "US", "phone": "918-486-4711", "website": "https://www.kumandgo.com/stores/0982/", "brand": "Kum & Go", "brand:wikidata": "Q6443340"}, "geometry": {"type": "Point", "coordinates": [-95.6506747, 35.951769]}},
{"type": "Feature", "id": "XnZ8Q_Zs1MOeGl_ACl1oH8RHbIU=", "properties": {"ref": "23757", "@spider": "kum_and_go", "addr:full": "701 S HWY 82", "addr:city": "Locust Grove", "addr:state": "OK", "addr:postcode": "74352", "addr:country": "US", "phone": "918-479-2210", "website": "https://www.kumandgo.com/stores/0846/", "brand": "Kum & Go", "brand:wikidata": "Q6443340"}, "geometry": {"type": "Point", "coordinates": [-95.1596611, 36.190279]}},
{"type": "Feature", "id": "pHkGNSfqQZEOZNeYXGuJuYe0CmE=", "properties": {"ref": "23865", "@spider": "kum_and_go", "addr:full": "24055 E. Highway 51", "addr:city": "Broken Arrow", "addr:state": "OK", "addr:postcode": "74014", "addr:country": "US", "phone": "918-251-0081", "website": "https://www.kumandgo.com/stores/1837/", "brand": "Kum & Go", "brand:wikidata": "Q6443340"}, "geometry": {"type": "Point", "coordinates": [-95.7088008, 36.0197459]}},
{"type": "Feature", "id": "xt8muIX2Z5ZDmpjXcgSkM-39HfU=", "properties": {"ref": "26341", "@spider": "kum_and_go", "addr:full": "901 S Mill Rd", "addr:city": "Pryor", "addr:state": "OK", "addr:postcode": "74361", "addr:country": "US", "phone": "(918)-509-4804", "website": "https://www.kumandgo.com/stores/3861/", "brand": "Kum & Go", "brand:wikidata": "Q6443340"}, "geometry": {"type": "Point", "coordinates": [-95.323784, 36.292622]}},
{"type": "Feature", "id": "2MPyeatPmI4-olmJoeJC6lEQcjg=", "properties": {"ref": "23781", "@spider": "kum_and_go", "addr:full": "3621 S Elm St", "addr:city": "Broken Arrow", "addr:state": "OK", "addr:postcode": "74011", "addr:country": "US", "phone": "918-258-5219", "website": "https://www.kumandgo.com/stores/0884/", "brand": "Kum & Go", "brand:wikidata": "Q6443340"}, "geometry": {"type": "Point", "coordinates": [-95.7968587, 36.0169136]}},
{"type": "Feature", "id": "080_Sg-D6Ck8PH20PCCOP4ZhdRI=", "properties": {"ref": "23752", "@spider": "kum_and_go", "addr:full": "1000 E Kenosha St", "addr:city": "Broken Arrow", "addr:state": "OK", "addr:postcode": "74012", "addr:country": "US", "phone": "918-258-3544", "website": "https://www.kumandgo.com/stores/0838/", "brand": "Kum & Go", "brand:wikidata": "Q6443340"}, "geometry": {"type": "Point", "coordinates": [-95.7789954, 36.0614493]}},
{"type": "Feature", "id": "GCmpvgfuWTrtJepvU-gSgEt00kQ=", "properties": {"ref": "23775", "@spider": "kum_and_go", "addr:full": "1050 E Albany St", "addr:city": "Broken Arrow", "addr:state": "OK", "addr:postcode": "74012", "addr:country": "US", "phone": "918-355-0341", "website": "https://www.kumandgo.com/stores/0877/", "brand": "Kum & Go", "brand:wikidata": "Q6443340"}, "geometry": {"type": "Point", "coordinates": [-95.7788719, 36.0760608]}},
{"type": "Feature", "id": "TWgzDijEQZ91P32kPbnjuBmE3LI=", "properties": {"ref": "23753", "@spider": "kum_and_go", "addr:full": "2100 W New Orleans St", "addr:city": "Broken Arrow", "addr:state": "OK", "addr:postcode": "74011", "addr:country": "US", "phone": "918-455-9184", "website": "https://www.kumandgo.com/stores/0839/", "brand": "Kum & Go", "brand:wikidata": "Q6443340"}, "geometry": {"type": "Point", "coordinates": [-95.8146593, 36.0178851]}},
{"type": "Feature", "id": "D03Hyin0ayj2yJ0BW7Gt_H2W9nU=", "properties": {"ref": "23768", "@spider": "kum_and_go", "addr:full": "14495 E 51st St S", "addr:city": "Tulsa", "addr:state": "OK", "addr:postcode": "74134", "addr:country": "US", "phone": "918-355-8407", "website": "https://www.kumandgo.com/stores/0866/", "brand": "Kum & Go", "brand:wikidata": "Q6443340"}, "geometry": {"type": "Point", "coordinates": [-95.8157921, 36.0902547]}},
{"type": "Feature", "id": "gr3xKSCkfBPJTZz-FOoYyfwvMz0=", "properties": {"ref": "23777", "@spider": "kum_and_go", "addr:full": "8001 S Garnett Rd", "addr:city": "Broken Arrow", "addr:state": "OK", "addr:postcode": "74012", "addr:country": "US", "phone": "918-294-1805", "website": "https://www.kumandgo.com/stores/0879/", "brand": "Kum & Go", "brand:wikidata": "Q6443340"}, "geometry": {"type": "Point", "coordinates": [-95.8503856, 36.0468543]}},
{"type": "Feature", "id": "huFnHdeZKZpl4LDLUGUA5Mv7tYc=", "properties": {"ref": "23770", "@spider": "kum_and_go", "addr:full": "10021 S Mingo Road", "addr:city": "Tulsa", "addr:state": "OK", "addr:postcode": "74133", "addr:country": "US", "phone": "918-249-2738", "website": "https://www.kumandgo.com/stores/0872/", "brand": "Kum & Go", "brand:wikidata": "Q6443340"}, "geometry": {"type": "Point", "coordinates": [-95.8680712, 36.0179972]}},
{"type": "Feature", "id": "qQZT6MQe3RJlImn33ixmBBKA19A=", "properties": {"ref": "23769", "@spider": "kum_and_go", "addr:full": "11296 E 71st St", "addr:city": "Tulsa", "addr:state": "OK", "addr:postcode": "74133", "addr:country": "US", "phone": "918-254-8101", "website": "https://www.kumandgo.com/stores/0867/", "brand": "Kum & Go", "brand:wikidata": "Q6443340"}, "geometry": {"type": "Point", "coordinates": [-95.8514161, 36.0605644]}},
{"type": "Feature", "id": "73trEjr65VrqN_sm-i0u_-hMiUc=", "properties": {"ref": "23864", "@spider": "kum_and_go", "addr:full": "13124 S Memorial Dr", "addr:city": "Bixby", "addr:state": "OK", "addr:postcode": "74008", "addr:country": "US", "phone": "918-364-0925", "website": "https://www.kumandgo.com/stores/1835/", "brand": "Kum & Go", "brand:wikidata": "Q6443340"}, "geometry": {"type": "Point", "coordinates": [-95.8871231, 35.9728305]}},
{"type": "Feature", "id": "U-EBmT-e7wLvDrmjUOlq9P0FEr0=", "properties": {"ref": "23754", "@spider": "kum_and_go", "addr:full": "1035 E Will Rogers Blvd", "addr:city": "Claremore", "addr:state": "OK", "addr:postcode": "74017", "addr:country": "US", "phone": "918-341-4779", "website": "https://www.kumandgo.com/stores/0841/", "brand": "Kum & Go", "brand:wikidata": "Q6443340"}, "geometry": {"type": "Point", "coordinates": [-95.5973022, 36.3070738]}},
{"type": "Feature", "id": "Z5wnMPR_FJWtrruMINYf58C9OW4=", "properties": {"ref": "23751", "@spider": "kum_and_go", "addr:full": "11115 S Memorial", "addr:city": "Bixby", "addr:state": "OK", "addr:postcode": "74008", "addr:country": "US", "phone": "918-364-3480", "website": "https://www.kumandgo.com/stores/0834/", "brand": "Kum & Go", "brand:wikidata": "Q6443340"}, "geometry": {"type": "Point", "coordinates": [-95.8860508, 36.0023751]}},
{"type": "Feature", "id": "QUgTNicM3ErtST93raSNK3rxAMw=", "properties": {"ref": "23868", "@spider": "kum_and_go", "addr:full": "9610 E. 61st Street", "addr:city": "Tulsa", "addr:state": "OK", "addr:postcode": "74133", "addr:country": "US", "phone": "918-461-0304", "website": "https://www.kumandgo.com/stores/1871/", "brand": "Kum & Go", "brand:wikidata": "Q6443340"}, "geometry": {"type": "Point", "coordinates": [-95.8692015, 36.0750186]}},
{"type": "Feature", "id": "XftkuuwhvpCN-kMVcQCiiUtnUyE=", "properties": {"ref": "23866", "@spider": "kum_and_go", "addr:full": "1100 N Lynn Riggs Blvd", "addr:city": "Claremore", "addr:state": "OK", "addr:postcode": "74017", "addr:country": "US", "phone": "918-342-2265", "website": "https://www.kumandgo.com/stores/1840/", "brand": "Kum & Go", "brand:wikidata": "Q6443340"}, "geometry": {"type": "Point", "coordinates": [-95.6094935, 36.3221625]}},
{"type": "Feature", "id": "30rTRiofzfRC74vaV-ctgb8osZU=", "properties": {"ref": "23750", "@spider": "kum_and_go", "addr:full": "1302 W Will Rogers Blvd", "addr:city": "Claremore", "addr:state": "OK", "addr:postcode": "74017", "addr:country": "US", "phone": "918-341-3728", "website": "https://www.kumandgo.com/stores/0820/", "brand": "Kum & Go", "brand:wikidata": "Q6443340"}, "geometry": {"type": "Point", "coordinates": [-95.6256193, 36.3169691]}},
{"type": "Feature", "id": "4gs7qZl8gIK57elZQSE0MtL9Vr4=", "properties": {"ref": "23772", "@spider": "kum_and_go", "addr:full": "10010 S Riverside Pkwy", "addr:city": "Tulsa", "addr:state": "OK", "addr:postcode": "74137", "addr:country": "US", "phone": "918-298-1278", "website": "https://www.kumandgo.com/stores/0874/", "brand": "Kum & Go", "brand:wikidata": "Q6443340"}, "geometry": {"type": "Point", "coordinates": [-95.9497232, 36.0182557]}},
{"type": "Feature", "id": "87UUw2de2vIM8FkIHM7ReCrBXKI=", "properties": {"ref": "23782", "@spider": "kum_and_go", "addr:full": "4728 S Yale Ave", "addr:city": "Tulsa", "addr:state": "OK", "addr:postcode": "74135", "addr:country": "US", "phone": "918-960-5042", "website": "https://www.kumandgo.com/stores/0885/", "brand": "Kum & Go", "brand:wikidata": "Q6443340"}, "geometry": {"type": "Point", "coordinates": [-95.9233003, 36.0935952]}},
{"type": "Feature", "id": "ykGfq0f_mkGnSKOhTnWmnHTgslA=", "properties": {"ref": "23780", "@spider": "kum_and_go", "addr:full": "2109 S Sheridan", "addr:city": "Tulsa", "addr:state": "OK", "addr:postcode": "74129", "addr:country": "US", "phone": "918-836-2493", "website": "https://www.kumandgo.com/stores/0883/", "brand": "Kum & Go", "brand:wikidata": "Q6443340"}, "geometry": {"type": "Point", "coordinates": [-95.9038715, 36.1329729]}},
{"type": "Feature", "id": "4AlqPVYsMAzDi4dmLlpkwNLMkXc=", "properties": {"ref": "23756", "@spider": "kum_and_go", "addr:full": "11030 S Elm St", "addr:city": "Jenks", "addr:state": "OK", "addr:postcode": "74037", "addr:country": "US", "phone": "918-296-0361", "website": "https://www.kumandgo.com/stores/0844/", "brand": "Kum & Go", "brand:wikidata": "Q6443340"}, "geometry": {"type": "Point", "coordinates": [-95.9766071, 36.0033236]}},
{"type": "Feature", "id": "FCmrTYBnFGnmSBl66kTogdrqhwI=", "properties": {"ref": "23773", "@spider": "kum_and_go", "addr:full": "510 S Elm St", "addr:city": "Jenks", "addr:state": "OK", "addr:postcode": "74037", "addr:country": "US", "phone": "918-299-3653", "website": "https://www.kumandgo.com/stores/0875/", "brand": "Kum & Go", "brand:wikidata": "Q6443340"}, "geometry": {"type": "Point", "coordinates": [-95.976793, 36.0179909]}},
{"type": "Feature", "id": "-1VG3G9wJZgL5XO0BTJAsXhXzWA=", "properties": {"ref": "23771", "@spider": "kum_and_go", "addr:full": "3939 S Peoria Ave", "addr:city": "Tulsa", "addr:state": "OK", "addr:postcode": "74105-3130", "addr:country": "US", "phone": "918-743-1811", "website": "https://www.kumandgo.com/stores/0873/", "brand": "Kum & Go", "brand:wikidata": "Q6443340"}, "geometry": {"type": "Point", "coordinates": [-95.975368, 36.1045615]}},
{"type": "Feature", "id": "xSFCgdzwA89n5t7i_4G8v8yiHkw=", "properties": {"ref": "23779", "@spider": "kum_and_go", "addr:full": "2502 N Harvard Ave", "addr:city": "Tulsa", "addr:state": "OK", "addr:postcode": "74115", "addr:country": "US", "phone": "918-835-5348", "website": "https://www.kumandgo.com/stores/0881/", "brand": "Kum & Go", "brand:wikidata": "Q6443340"}, "geometry": {"type": "Point", "coordinates": [-95.9410948, 36.1910849]}},
{"type": "Feature", "id": "ewyJLOVyWPfWzEa0BREaSRviY84=", "properties": {"ref": "23785", "@spider": "kum_and_go", "addr:full": "767 East Will Rogers Pkwy", "addr:city": "Vinita", "addr:state": "OK", "addr:postcode": "74301", "addr:country": "US", "phone": "918-323-0802", "website": "https://www.kumandgo.com/stores/0890/", "brand": "Kum & Go", "brand:wikidata": "Q6443340"}, "geometry": {"type": "Point", "coordinates": [-95.1474421, 36.6228787]}},
{"type": "Feature", "id": "dLYI2V2FWID_3BDjwndEC_bfiEw=", "properties": {"ref": "23786", "@spider": "kum_and_go", "addr:full": "767 East Will Rogers Pkwy", "addr:city": "Vinita", "addr:state": "OK", "addr:postcode": "74301", "addr:country": "US", "phone": "918-323-0715", "website": "https://www.kumandgo.com/stores/0891/", "brand": "Kum & Go", "brand:wikidata": "Q6443340"}, "geometry": {"type": "Point", "coordinates": [-95.1474421, 36.6228787]}},
{"type": "Feature", "id": "dTx6UpyamwmyHOnvmbdaQcSvK-A=", "properties": {"ref": "23598", "@spider": "kum_and_go", "addr:full": "2112 Dodson Ave", "addr:city": "Fort Smith", "addr:state": "AR", "addr:postcode": "72901", "addr:country": "US", "phone": "479-785-5255", "website": "https://www.kumandgo.com/stores/0380/", "brand": "Kum & Go", "brand:wikidata": "Q6443340"}, "geometry": {"type": "Point", "coordinates": [-94.4101741, 35.3719185]}},
{"type": "Feature", "id": "LqkiRC_e1xntT6fGKSSnQMk0EQM=", "properties": {"ref": "23629", "@spider": "kum_and_go", "addr:full": "90 E Main ST", "addr:city": "Farmington", "addr:state": "AR", "addr:postcode": "72730", "addr:country": "US", "phone": "479-267-8000", "website": "https://www.kumandgo.com/stores/0423/", "brand": "Kum & Go", "brand:wikidata": "Q6443340"}, "geometry": {"type": "Point", "coordinates": [-94.2364795, 36.0429394]}},
{"type": "Feature", "id": "7eqG03qFCmmIK1H1ASD73htnawA=", "properties": {"ref": "23603", "@spider": "kum_and_go", "addr:full": "2720 Alma Hwy", "addr:city": "Van Buren", "addr:state": "AR", "addr:postcode": "72956", "addr:country": "US", "phone": "479-474-5042", "website": "https://www.kumandgo.com/stores/0385/", "brand": "Kum & Go", "brand:wikidata": "Q6443340"}, "geometry": {"type": "Point", "coordinates": [-94.329383, 35.4410252]}},
{"type": "Feature", "id": "k7Z5PgaPd61JRcpeIWbVSCgErVE=", "properties": {"ref": "23624", "@spider": "kum_and_go", "addr:full": "729 M.L.K. Jr. Blvd.", "addr:city": "Fayetteville", "addr:state": "AR", "addr:postcode": "72701", "addr:country": "US", "phone": "479-695-1323", "website": "https://www.kumandgo.com/stores/0413/", "brand": "Kum & Go", "brand:wikidata": "Q6443340"}, "geometry": {"type": "Point", "coordinates": [-94.1707741, 36.0560311]}},
{"type": "Feature", "id": "o8fA2DlEzLV9LzeEZFsGDqIOJq8=", "properties": {"ref": "23622", "@spider": "kum_and_go", "addr:full": "2388 North College Ave", "addr:city": "Fayetteville", "addr:state": "AR", "addr:postcode": "72703", "addr:country": "US", "phone": "479-251-1558", "website": "https://www.kumandgo.com/stores/0409/", "brand": "Kum & Go", "brand:wikidata": "Q6443340"}, "geometry": {"type": "Point", "coordinates": [-94.1522962, 36.094661]}},
{"type": "Feature", "id": "9jg-Np5QdGmrryUwUnxUbSO9N6E=", "properties": {"ref": "23615", "@spider": "kum_and_go", "addr:full": "4231 Elm Springs Rd", "addr:city": "Springdale", "addr:state": "AR", "addr:postcode": "72762", "addr:country": "US", "phone": "479-756-6745", "website": "https://www.kumandgo.com/stores/0400/", "brand": "Kum & Go", "brand:wikidata": "Q6443340"}, "geometry": {"type": "Point", "coordinates": [-94.1786719, 36.1932615]}},
{"type": "Feature", "id": "_fLG-gOl6NSB5OxZZA08xLAli3o=", "properties": {"ref": "23623", "@spider": "kum_and_go", "addr:full": "3610 SW Regional Airport Blvd", "addr:city": "Bentonville", "addr:state": "AR", "addr:postcode": "72712", "addr:country": "US", "phone": "479-254-3759", "website": "https://www.kumandgo.com/stores/0412/", "brand": "Kum & Go", "brand:wikidata": "Q6443340"}, "geometry": {"type": "Point", "coordinates": [-94.2534044, 36.3365834]}},
{"type": "Feature", "id": "fjKksfbaN0TDUIHT-uB64-ocR50=", "properties": {"ref": "23602", "@spider": "kum_and_go", "addr:full": "2351 W Sunset", "addr:city": "Springdale", "addr:state": "AR", "addr:postcode": "72762", "addr:country": "US", "phone": "479-725-2422", "website": "https://www.kumandgo.com/stores/0384/", "brand": "Kum & Go", "brand:wikidata": "Q6443340"}, "geometry": {"type": "Point", "coordinates": [-94.1563352, 36.1743843]}},
{"type": "Feature", "id": "DVJWSWgKCxWB27rC3w9RolDPXNM=", "properties": {"ref": "23627", "@spider": "kum_and_go", "addr:full": "500 S Thompson ST", "addr:city": "Springdale", "addr:state": "AR", "addr:postcode": "72764", "addr:country": "US", "phone": "479-751-0043", "website": "https://www.kumandgo.com/stores/0417/", "brand": "Kum & Go", "brand:wikidata": "Q6443340"}, "geometry": {"type": "Point", "coordinates": [-94.1393815, 36.1810677]}},
{"type": "Feature", "id": "LnoHZG8FhFBb9lk1y317Fz_pSyA=", "properties": {"ref": "26833", "@spider": "kum_and_go", "addr:full": "5120 W Pleasant Grove Rd", "addr:city": "Rogers", "addr:postcode": "AR", "addr:country": "US", "phone": "(479)-396-5490", "website": "https://www.kumandgo.com/stores/2420/", "brand": "Kum & Go", "brand:wikidata": "Q6443340"}, "geometry": {"type": "Point", "coordinates": [-94.18835, 36.287888]}},
{"type": "Feature", "id": "_VHajHjD7vW-VcySVNWHem47Cb4=", "properties": {"ref": "23601", "@spider": "kum_and_go", "addr:full": "1010 N Thompson St", "addr:city": "Springdale", "addr:state": "AR", "addr:postcode": "72764", "addr:country": "US", "phone": "479-756-0910", "website": "https://www.kumandgo.com/stores/0383/", "brand": "Kum & Go", "brand:wikidata": "Q6443340"}, "geometry": {"type": "Point", "coordinates": [-94.1391016, 36.1952608]}},
{"type": "Feature", "id": "M4NLFRlkDK2p3S5pTIVfsQU02UE=", "properties": {"ref": "23625", "@spider": "kum_and_go", "addr:full": "1220 E Robinson Ave", "addr:city": "Springdale", "addr:state": "AR", "addr:postcode": "72764", "addr:country": "US", "phone": "479-725-0060", "website": "https://www.kumandgo.com/stores/0414/", "brand": "Kum & Go", "brand:wikidata": "Q6443340"}, "geometry": {"type": "Point", "coordinates": [-94.1189164, 36.1675431]}},
{"type": "Feature", "id": "OmaJL6zaWBhmbrYZ0R2hade7kKU=", "properties": {"ref": "23617", "@spider": "kum_and_go", "addr:full": "816 W Monroe Ave", "addr:city": "Lowell", "addr:state": "AR", "addr:postcode": "72745", "addr:country": "US", "phone": "479-750-2132", "website": "https://www.kumandgo.com/stores/0402/", "brand": "Kum & Go", "brand:wikidata": "Q6443340"}, "geometry": {"type": "Point", "coordinates": [-94.1543156, 36.2548482]}},
{"type": "Feature", "id": "S4_a3n5tHqFuNC6esdgTYydFbl8=", "properties": {"ref": "23630", "@spider": "kum_and_go", "addr:full": "4451 N. Thompson", "addr:city": "Springdale", "addr:state": "AR", "addr:postcode": "72764", "addr:country": "US", "phone": "870-899-4153", "website": "https://www.kumandgo.com/stores/0426/", "brand": "Kum & Go", "brand:wikidata": "Q6443340"}, "geometry": {"type": "Point", "coordinates": [-94.1368103, 36.2243673]}},
{"type": "Feature", "id": "Gxlfpm2OJhC9Fpu5r8v0TXzjoZk=", "properties": {"ref": "23620", "@spider": "kum_and_go", "addr:full": "500 N Old Missouri Rd", "addr:city": "Springdale", "addr:state": "AR", "addr:postcode": "72764", "addr:country": "US", "phone": "479-750-4213", "website": "https://www.kumandgo.com/stores/0406/", "brand": "Kum & Go", "brand:wikidata": "Q6443340"}, "geometry": {"type": "Point", "coordinates": [-94.1166785, 36.188623]}},
{"type": "Feature", "id": "g0ymO5B-GUEPmqGGIt8MfN24tc4=", "properties": {"ref": "23600", "@spider": "kum_and_go", "addr:full": "104 N Bloomington ST", "addr:city": "Lowell", "addr:state": "AR", "addr:postcode": "72745", "addr:country": "US", "phone": "479-770-0245", "website": "https://www.kumandgo.com/stores/0382/", "brand": "Kum & Go", "brand:wikidata": "Q6443340"}, "geometry": {"type": "Point", "coordinates": [-94.1374425, 36.2547123]}},
{"type": "Feature", "id": "lnSv6cJZziq0VHiawh0w09fMZj0=", "properties": {"ref": "23619", "@spider": "kum_and_go", "addr:full": "2710 Moberly Ln", "addr:city": "Bentonville", "addr:state": "AR", "addr:postcode": "72712", "addr:country": "US", "phone": "479-464-0849", "website": "https://www.kumandgo.com/stores/0405/", "brand": "Kum & Go", "brand:wikidata": "Q6443340"}, "geometry": {"type": "Point", "coordinates": [-94.1844968, 36.3426012]}},
{"type": "Feature", "id": "YS1lFSeKyuZn1PGlizZ--3luzP4=", "properties": {"ref": "23626", "@spider": "kum_and_go", "addr:full": "800 SE J ST", "addr:city": "Bentonville", "addr:state": "AR", "addr:postcode": "72712", "addr:country": "US", "phone": "479-254-1032", "website": "https://www.kumandgo.com/stores/0416/", "brand": "Kum & Go", "brand:wikidata": "Q6443340"}, "geometry": {"type": "Point", "coordinates": [-94.1973426, 36.3634861]}},
{"type": "Feature", "id": "DtJWtHk4Kyf6EPTYoLfxFu-156c=", "properties": {"ref": "23614", "@spider": "kum_and_go", "addr:full": "978 W Pleasant Grove Rd", "addr:city": "Lowell", "addr:state": "AR", "addr:postcode": "72745", "addr:country": "US", "phone": "479-303-2016", "website": "https://www.kumandgo.com/stores/0399/", "brand": "Kum & Go", "brand:wikidata": "Q6443340"}, "geometry": {"type": "Point", "coordinates": [-94.1311145, 36.2822351]}},
{"type": "Feature", "id": "q5oBMA2CBRWCehgOsYGmM5f10VM=", "properties": {"ref": "23616", "@spider": "kum_and_go", "addr:full": "1701 W New Hope Rd", "addr:city": "Rogers", "addr:state": "AR", "addr:postcode": "72758", "addr:country": "US", "phone": "479-246-9220", "website": "https://www.kumandgo.com/stores/0401/", "brand": "Kum & Go", "brand:wikidata": "Q6443340"}, "geometry": {"type": "Point", "coordinates": [-94.1437193, 36.3125123]}},
{"type": "Feature", "id": "2zxeQdAJ_YxPoR8QlTia34UxCTI=", "properties": {"ref": "23621", "@spider": "kum_and_go", "addr:full": "2811 E Central Ave", "addr:city": "Bentonville", "addr:state": "AR", "addr:postcode": "72712", "addr:country": "US", "phone": "479-254-0683", "website": "https://www.kumandgo.com/stores/0408/", "brand": "Kum & Go", "brand:wikidata": "Q6443340"}, "geometry": {"type": "Point", "coordinates": [-94.1779751, 36.3803818]}},
{"type": "Feature", "id": "o0t-6idNJqKI8S2NaEV918FzQ9c=", "properties": {"ref": "23618", "@spider": "kum_and_go", "addr:full": "2400 W Hudson Rd", "addr:city": "Rogers", "addr:state": "AR", "addr:postcode": "72756", "addr:country": "US", "phone": "479-986-9403", "website": "https://www.kumandgo.com/stores/0403/", "brand": "Kum & Go", "brand:wikidata": "Q6443340"}, "geometry": {"type": "Point", "coordinates": [-94.1524961, 36.3555443]}},
{"type": "Feature", "id": "TQbpXn_WhQHAR6JalCIocDQRF4M=", "properties": {"ref": "23631", "@spider": "kum_and_go", "addr:full": "200 W. Hudson Rd.", "addr:city": "Rogers", "addr:state": "AR", "addr:postcode": "72756", "addr:country": "US", "phone": "479-335-3301", "website": "https://www.kumandgo.com/stores/0429/", "brand": "Kum & Go", "brand:wikidata": "Q6443340"}, "geometry": {"type": "Point", "coordinates": [-94.1166985, 36.3544773]}},
{"type": "Feature", "id": "Szd2fiHsG1nBmuI5nOeoDI_ujec=", "properties": {"ref": "23640", "@spider": "kum_and_go", "addr:full": "15679 Kodiak Rd", "addr:city": "Neosho", "addr:state": "MO", "addr:postcode": "64850", "addr:country": "US", "phone": "417-455-2154", "website": "https://www.kumandgo.com/stores/0449/", "brand": "Kum & Go", "brand:wikidata": "Q6443340"}, "geometry": {"type": "Point", "coordinates": [-94.4095889, 36.8410961]}},
{"type": "Feature", "id": "7v80hbE1uRx29lm8DHA4-2IPDNE=", "properties": {"ref": "23660", "@spider": "kum_and_go", "addr:full": "16140 MO Highway 59", "addr:city": "Neosho", "addr:state": "MO", "addr:postcode": "64850", "addr:country": "US", "phone": "417-451-7262", "website": "https://www.kumandgo.com/stores/0493/", "brand": "Kum & Go", "brand:wikidata": "Q6443340"}, "geometry": {"type": "Point", "coordinates": [-94.3946628, 36.8362549]}},
{"type": "Feature", "id": "vPO5s77S9V4ZQOuBa-ppwBYYq98=", "properties": {"ref": "23736", "@spider": "kum_and_go", "addr:full": "5002 S. Main St.", "addr:city": "Joplin", "addr:state": "MO", "addr:postcode": "64804", "addr:country": "US", "phone": "417-624-4789", "website": "https://www.kumandgo.com/stores/0702/", "brand": "Kum & Go", "brand:wikidata": "Q6443340"}, "geometry": {"type": "Point", "coordinates": [-94.5155565, 37.033314]}},
{"type": "Feature", "id": "sj9gOqLuxMxDSDVHCE_l8meGz48=", "properties": {"ref": "23642", "@spider": "kum_and_go", "addr:full": "3434 S. Rangeline Road", "addr:city": "Joplin", "addr:state": "MO", "addr:postcode": "64804", "addr:country": "US", "phone": "417-625-1724", "website": "https://www.kumandgo.com/stores/0454/", "brand": "Kum & Go", "brand:wikidata": "Q6443340"}, "geometry": {"type": "Point", "coordinates": [-94.4788293, 37.0513368]}},
{"type": "Feature", "id": "cnNJgxNolrm8gkUz9ZPyEdQ8fCM=", "properties": {"ref": "23539", "@spider": "kum_and_go", "addr:full": "2202 Military Road", "addr:city": "Benton", "addr:state": "AR", "addr:postcode": "72015", "addr:country": "US", "phone": "501-778-4952", "website": "https://www.kumandgo.com/stores/0166/", "brand": "Kum & Go", "brand:wikidata": "Q6443340"}, "geometry": {"type": "Point", "coordinates": [-92.5680317, 34.5848663]}},
{"type": "Feature", "id": "Jc_ArgYqDpntqAlvhV7h5f9G920=", "properties": {"ref": "23532", "@spider": "kum_and_go", "addr:full": "1709 N Reynolds Rd", "addr:city": "Bryant", "addr:state": "AR", "addr:postcode": "72022", "addr:country": "US", "phone": "501-847-6333", "website": "https://www.kumandgo.com/stores/0147/", "brand": "Kum & Go", "brand:wikidata": "Q6443340"}, "geometry": {"type": "Point", "coordinates": [-92.49471, 34.610168]}},
{"type": "Feature", "id": "I0efERyZAx-GvIkAJ63ee73EQjw=", "properties": {"ref": "23633", "@spider": "kum_and_go", "addr:full": "3303 W Broadway St", "addr:city": "Bolivar", "addr:state": "MO", "addr:postcode": "65613", "addr:country": "US", "phone": "417-777-7858", "website": "https://www.kumandgo.com/stores/0432/", "brand": "Kum & Go", "brand:wikidata": "Q6443340"}, "geometry": {"type": "Point", "coordinates": [-93.4493613, 37.6131991]}},
{"type": "Feature", "id": "Qq3pTjCCoDAJKSHcwWm5YLcqp8g=", "properties": {"ref": "23634", "@spider": "kum_and_go", "addr:full": "2565 S Springfield Ave", "addr:city": "Bolivar", "addr:state": "MO", "addr:postcode": "65613", "addr:country": "US", "phone": "417-777-5359", "website": "https://www.kumandgo.com/stores/0433/", "brand": "Kum & Go", "brand:wikidata": "Q6443340"}, "geometry": {"type": "Point", "coordinates": [-93.402153, 37.5903182]}},
{"type": "Feature", "id": "Jp_QFq1wVX3uO_c1kOvAtg1rsGg=", "properties": {"ref": "23498", "@spider": "kum_and_go", "addr:full": "2577 High Street", "addr:city": "Sarcoxie", "addr:state": "MO", "addr:postcode": "64862", "addr:country": "US", "phone": "417-548-9124", "website": "https://www.kumandgo.com/stores/0029/", "brand": "Kum & Go", "brand:wikidata": "Q6443340"}, "geometry": {"type": "Point", "coordinates": [-94.1058101, 37.0769565]}},
{"type": "Feature", "id": "TQlA4X72CTA6omadBxiZi8XEoAA=", "properties": {"ref": "23697", "@spider": "kum_and_go", "addr:full": "900 E Mt. Vernon Blvd", "addr:city": "Mount Vernon", "addr:state": "MO", "addr:postcode": "65712", "addr:country": "US", "phone": "417-461-0762", "website": "https://www.kumandgo.com/stores/0571/", "brand": "Kum & Go", "brand:wikidata": "Q6443340"}, "geometry": {"type": "Point", "coordinates": [-93.8088129, 37.0947476]}},
{"type": "Feature", "id": "RSw_WLa2NLhWI-hzgaMH51oHlnE=", "properties": {"ref": "23691", "@spider": "kum_and_go", "addr:full": "3449 W Kearney St", "addr:city": "Springfield", "addr:state": "MO", "addr:postcode": "65803", "addr:country": "US", "phone": "417-865-6903", "website": "https://www.kumandgo.com/stores/0562/", "brand": "Kum & Go", "brand:wikidata": "Q6443340"}, "geometry": {"type": "Point", "coordinates": [-93.3457986, 37.2420588]}},
{"type": "Feature", "id": "HOWD8jB3gUHB8SNCEQj6CqNzF4w=", "properties": {"ref": "23851", "@spider": "kum_and_go", "addr:full": "638 E US Highway 60", "addr:city": "Republic", "addr:state": "MO", "addr:postcode": "65738", "addr:country": "US", "phone": "417-732-2209", "website": "https://www.kumandgo.com/stores/1458/", "brand": "Kum & Go", "brand:wikidata": "Q6443340"}, "geometry": {"type": "Point", "coordinates": [-93.4694571, 37.1192505]}},
{"type": "Feature", "id": "8_2lJForLOKwntSbl2ZyKXnd9Xo=", "properties": {"ref": "23663", "@spider": "kum_and_go", "addr:full": "3049 East US HWY 60", "addr:city": "Republic", "addr:state": "MO", "addr:postcode": "65738", "addr:country": "US", "phone": "417-865-1296", "website": "https://www.kumandgo.com/stores/0497/", "brand": "Kum & Go", "brand:wikidata": "Q6443340"}, "geometry": {"type": "Point", "coordinates": [-93.4299373, 37.1459951]}},
{"type": "Feature", "id": "ZwQCysEjASwdmW0afN60iJUjcYg=", "properties": {"ref": "23853", "@spider": "kum_and_go", "addr:full": "3434 W. Chestnut Expressway", "addr:city": "Springfield", "addr:state": "MO", "addr:postcode": "65802", "addr:country": "US", "phone": "417-873-9064", "website": "https://www.kumandgo.com/stores/1463/", "brand": "Kum & Go", "brand:wikidata": "Q6443340"}, "geometry": {"type": "Point", "coordinates": [-93.347648, 37.2115979]}},
{"type": "Feature", "id": "gRB1PbrS9SUmstIB6P3BIpfvivM=", "properties": {"ref": "23693", "@spider": "kum_and_go", "addr:full": "1701 W Smith Ave", "addr:city": "Springfield", "addr:state": "MO", "addr:postcode": "65803", "addr:country": "US", "phone": "417-833-2790", "website": "https://www.kumandgo.com/stores/0566/", "brand": "Kum & Go", "brand:wikidata": "Q6443340"}, "geometry": {"type": "Point", "coordinates": [-93.3114982, 37.2533533]}},
{"type": "Feature", "id": "dlGkIXQHszBEJsVcFI_jawZJkyw=", "properties": {"ref": "23657", "@spider": "kum_and_go", "addr:full": "1704 W Norton Rd", "addr:city": "Springfield", "addr:state": "MO", "addr:postcode": "65803", "addr:country": "US", "phone": "417-833-8075", "website": "https://www.kumandgo.com/stores/0488/", "brand": "Kum & Go", "brand:wikidata": "Q6443340"}, "geometry": {"type": "Point", "coordinates": [-93.3112342, 37.2524455]}},
{"type": "Feature", "id": "srLXDfEEJ3VTXYXJkRekX2q7NwA=", "properties": {"ref": "23658", "@spider": "kum_and_go", "addr:full": "4020 W Battlefield St", "addr:city": "Springfield", "addr:state": "MO", "addr:postcode": "65807", "addr:country": "US", "phone": "417-887-8754", "website": "https://www.kumandgo.com/stores/0489/", "brand": "Kum & Go", "brand:wikidata": "Q6443340"}, "geometry": {"type": "Point", "coordinates": [-93.3624798, 37.1602617]}},
{"type": "Feature", "id": "NZHvaZqxDSvBYbx2b07gc_QlD98=", "properties": {"ref": "23689", "@spider": "kum_and_go", "addr:full": "215 S Kansas Expwy", "addr:city": "Springfield", "addr:state": "MO", "addr:postcode": "65806", "addr:country": "US", "phone": "417-866-3049", "website": "https://www.kumandgo.com/stores/0560/", "brand": "Kum & Go", "brand:wikidata": "Q6443340"}, "geometry": {"type": "Point", "coordinates": [-93.3128075, 37.2082028]}},
{"type": "Feature", "id": "AcBMdtVxOm_-Q5Q2sKnrj4UhtzY=", "properties": {"ref": "23687", "@spider": "kum_and_go", "addr:full": "1700 E Valley Water Mill Rd", "addr:city": "Springfield", "addr:state": "MO", "addr:postcode": "65803", "addr:country": "US", "phone": "417-833-9681", "website": "https://www.kumandgo.com/stores/0557/", "brand": "Kum & Go", "brand:wikidata": "Q6443340"}, "geometry": {"type": "Point", "coordinates": [-93.2641777, 37.2618913]}},
{"type": "Feature", "id": "eOjpFPd06F7CtwnsZ_RtVNe4R-4=", "properties": {"ref": "23861", "@spider": "kum_and_go", "addr:full": "2650 W Sunshine St", "addr:city": "Springfield", "addr:state": "MO", "addr:postcode": "65807", "addr:country": "US", "phone": "417-889-0565", "website": "https://www.kumandgo.com/stores/1485/", "brand": "Kum & Go", "brand:wikidata": "Q6443340"}, "geometry": {"type": "Point", "coordinates": [-93.3307659, 37.182268]}},
{"type": "Feature", "id": "GgvdA9jnV1A8Q-qmH5H_AB0osqo=", "properties": {"ref": "23659", "@spider": "kum_and_go", "addr:full": "870 E US Highway 60", "addr:city": "Monett", "addr:state": "MO", "addr:postcode": "65708", "addr:country": "US", "phone": "417-235-8880", "website": "https://www.kumandgo.com/stores/0492/", "brand": "Kum & Go", "brand:wikidata": "Q6443340"}, "geometry": {"type": "Point", "coordinates": [-93.9057315, 36.9146427]}},
{"type": "Feature", "id": "PZSbw9RRWpuFaJkasLv1EQvtojw=", "properties": {"ref": "23650", "@spider": "kum_and_go", "addr:full": "1505 N National", "addr:city": "Springfield", "addr:state": "MO", "addr:postcode": "65803", "addr:country": "US", "phone": "417-862-0387", "website": "https://www.kumandgo.com/stores/0472/", "brand": "Kum & Go", "brand:wikidata": "Q6443340"}, "geometry": {"type": "Point", "coordinates": [-93.2758386, 37.2263829]}},
{"type": "Feature", "id": "2aF7BN0V_ppdpbzUy0l-20_1ve4=", "properties": {"ref": "23855", "@spider": "kum_and_go", "addr:full": "1810 E Kearney St", "addr:city": "Springfield", "addr:state": "MO", "addr:postcode": "65803", "addr:country": "US", "phone": "417-866-1080", "website": "https://www.kumandgo.com/stores/1470/", "brand": "Kum & Go", "brand:wikidata": "Q6443340"}, "geometry": {"type": "Point", "coordinates": [-93.2600913, 37.2396173]}},
{"type": "Feature", "id": "Fg2cZ5bKcfNI9Kuaa1kxwOrk9Cs=", "properties": {"ref": "23860", "@spider": "kum_and_go", "addr:full": "1211 W. Sunshine St.", "addr:city": "Springfield", "addr:state": "MO", "addr:postcode": "65807", "addr:country": "US", "phone": "417-869-4861", "website": "https://www.kumandgo.com/stores/1484/", "brand": "Kum & Go", "brand:wikidata": "Q6443340"}, "geometry": {"type": "Point", "coordinates": [-93.3083435, 37.1826852]}},
{"type": "Feature", "id": "26Xjah3YUCbRnWoObOEqN13Cg80=", "properties": {"ref": "23648", "@spider": "kum_and_go", "addr:full": "609 E Elm", "addr:city": "Springfield", "addr:state": "MO", "addr:postcode": "65806-2427", "addr:country": "US", "phone": "417-863-1717", "website": "https://www.kumandgo.com/stores/0468/", "brand": "Kum & Go", "brand:wikidata": "Q6443340"}, "geometry": {"type": "Point", "coordinates": [-93.2864227, 37.2055504]}},
{"type": "Feature", "id": "e0ZZc4P5FwTsfcAVwbcgj80uQdY=", "properties": {"ref": "23651", "@spider": "kum_and_go", "addr:full": "620 N National Ave", "addr:city": "Springfield", "addr:state": "MO", "addr:postcode": "65804-0022", "addr:country": "US", "phone": "417-864-4246", "website": "https://www.kumandgo.com/stores/0473/", "brand": "Kum & Go", "brand:wikidata": "Q6443340"}, "geometry": {"type": "Point", "coordinates": [-93.275181, 37.2144692]}},
{"type": "Feature", "id": "IleJyI7LZ_GpQa-IY-qvHmeoaXY=", "properties": {"ref": "23692", "@spider": "kum_and_go", "addr:full": "3015 W Republic Rd", "addr:city": "Springfield", "addr:state": "MO", "addr:postcode": "65807", "addr:country": "US", "phone": "417-883-5750", "website": "https://www.kumandgo.com/stores/0563/", "brand": "Kum & Go", "brand:wikidata": "Q6443340"}, "geometry": {"type": "Point", "coordinates": [-93.3390491, 37.1387773]}},
{"type": "Feature", "id": "8XNzFoTX_eQCFj2BetgQfqIjGbU=", "properties": {"ref": "23685", "@spider": "kum_and_go", "addr:full": "2149 S Campbell Ave", "addr:city": "Springfield", "addr:state": "MO", "addr:postcode": "65807", "addr:country": "US", "phone": "417-882-2263", "website": "https://www.kumandgo.com/stores/0551/", "brand": "Kum & Go", "brand:wikidata": "Q6443340"}, "geometry": {"type": "Point", "coordinates": [-93.2959369, 37.1754421]}},
{"type": "Feature", "id": "xMEZ4Kdhcc39kSk68hUNUbcu4Yk=", "properties": {"ref": "23852", "@spider": "kum_and_go", "addr:full": "1313 W Battlefield Rd", "addr:city": "Springfield", "addr:state": "MO", "addr:postcode": "65807", "addr:country": "US", "phone": "417-886-2672", "website": "https://www.kumandgo.com/stores/1460/", "brand": "Kum & Go", "brand:wikidata": "Q6443340"}, "geometry": {"type": "Point", "coordinates": [-93.309464, 37.1605666]}},
{"type": "Feature", "id": "aBzwd5zF-vgiIYeBJIZPP8sOw4U=", "properties": {"ref": "23847", "@spider": "kum_and_go", "addr:full": "249 W Old Mill Road", "addr:city": "Fair Grove", "addr:state": "MO", "addr:postcode": "65648", "addr:country": "US", "phone": "417-759-9293", "website": "https://www.kumandgo.com/stores/1435/", "brand": "Kum & Go", "brand:wikidata": "Q6443340"}, "geometry": {"type": "Point", "coordinates": [-93.1549555, 37.3841403]}},
{"type": "Feature", "id": "a4gu-TrGHpSw8xPKFFXgFoV4s80=", "properties": {"ref": "23645", "@spider": "kum_and_go", "addr:full": "2704 S. Campbell Ave", "addr:city": "Springfield", "addr:state": "MO", "addr:postcode": "65807", "addr:country": "US", "phone": "417-882-1162", "website": "https://www.kumandgo.com/stores/0464/", "brand": "Kum & Go", "brand:wikidata": "Q6443340"}, "geometry": {"type": "Point", "coordinates": [-93.2947966, 37.1659826]}},
{"type": "Feature", "id": "gOEhL3byT5Xz_nymQvpqBOBrtA8=", "properties": {"ref": "23688", "@spider": "kum_and_go", "addr:full": "959 S Glenstone Ave", "addr:city": "Springfield", "addr:state": "MO", "addr:postcode": "65802", "addr:country": "US", "phone": "417-831-3190", "website": "https://www.kumandgo.com/stores/0558/", "brand": "Kum & Go", "brand:wikidata": "Q6443340"}, "geometry": {"type": "Point", "coordinates": [-93.2624291, 37.1966198]}},
{"type": "Feature", "id": "Dh2XtD5rvg4t2FAlZvqB4bJ-tUk=", "properties": {"ref": "23854", "@spider": "kum_and_go", "addr:full": "2963 E. Division St.", "addr:city": "Springfield", "addr:state": "MO", "addr:postcode": "65803", "addr:country": "US", "phone": "417-866-1424", "website": "https://www.kumandgo.com/stores/1467/", "brand": "Kum & Go", "brand:wikidata": "Q6443340"}, "geometry": {"type": "Point", "coordinates": [-93.234913, 37.2248065]}},
{"type": "Feature", "id": "OPv50ooiJWEpQQ6PQLYALYiJkaY=", "properties": {"ref": "23690", "@spider": "kum_and_go", "addr:full": "3445 E Kearney St", "addr:city": "Springfield", "addr:state": "MO", "addr:postcode": "65803", "addr:country": "US", "phone": "417-865-1069", "website": "https://www.kumandgo.com/stores/0561/", "brand": "Kum & Go", "brand:wikidata": "Q6443340"}, "geometry": {"type": "Point", "coordinates": [-93.223212, 37.2396629]}},
{"type": "Feature", "id": "cWE9FBE1A2S_DdGXlO1Wpyv_Tm0=", "properties": {"ref": "23653", "@spider": "kum_and_go", "addr:full": "777 E Battlefield Road", "addr:city": "Springfield", "addr:state": "MO", "addr:postcode": "65807", "addr:country": "US", "phone": "417-885-3878", "website": "https://www.kumandgo.com/stores/0480/", "brand": "Kum & Go", "brand:wikidata": "Q6443340"}, "geometry": {"type": "Point", "coordinates": [-93.2849289, 37.1600251]}},
{"type": "Feature", "id": "HLmk0199cOAHs-EsX4JBrc3a89U=", "properties": {"ref": "23862", "@spider": "kum_and_go", "addr:full": "2885 E. Chestnut Expy", "addr:city": "Springfield", "addr:state": "MO", "addr:postcode": "65802", "addr:country": "US", "phone": "417-868-0107", "website": "https://www.kumandgo.com/stores/1554/", "brand": "Kum & Go", "brand:wikidata": "Q6443340"}, "geometry": {"type": "Point", "coordinates": [-93.2367587, 37.2102567]}},
{"type": "Feature", "id": "eFS4L3PqN6bKQ_sBqvWKAkLQFt4=", "properties": {"ref": "23652", "@spider": "kum_and_go", "addr:full": "2930 S National Ave", "addr:city": "Springfield", "addr:state": "MO", "addr:postcode": "65804-3634", "addr:country": "US", "phone": "417-883-4730", "website": "https://www.kumandgo.com/stores/0474/", "brand": "Kum & Go", "brand:wikidata": "Q6443340"}, "geometry": {"type": "Point", "coordinates": [-93.2767138, 37.16113]}},
{"type": "Feature", "id": "YHMMc92oWA-2AFL6FQLHNMzf1P8=", "properties": {"ref": "23858", "@spider": "kum_and_go", "addr:full": "510 W Republic Rd", "addr:city": "Springfield", "addr:state": "MO", "addr:postcode": "65807", "addr:country": "US", "phone": "417-889-2701", "website": "https://www.kumandgo.com/stores/1479/", "brand": "Kum & Go", "brand:wikidata": "Q6443340"}, "geometry": {"type": "Point", "coordinates": [-93.297568, 37.1375243]}},
{"type": "Feature", "id": "4_V5FQGL1fgF2GLJ9a2FB8arJOk=", "properties": {"ref": "23856", "@spider": "kum_and_go", "addr:full": "3416 S National Ave", "addr:city": "Springfield", "addr:state": "MO", "addr:postcode": "65807", "addr:country": "US", "phone": "417-889-0592", "website": "https://www.kumandgo.com/stores/1475/", "brand": "Kum & Go", "brand:wikidata": "Q6443340"}, "geometry": {"type": "Point", "coordinates": [-93.2770475, 37.1523918]}},
{"type": "Feature", "id": "nnhItcNk1-JRA9Sb0VZul5NMo2w=", "properties": {"ref": "23654", "@spider": "kum_and_go", "addr:full": "2404 E Sunshine St", "addr:city": "Springfield", "addr:state": "MO", "addr:postcode": "65804-1823", "addr:country": "US", "phone": "417-886-2259", "website": "https://www.kumandgo.com/stores/0483/", "brand": "Kum & Go", "brand:wikidata": "Q6443340"}, "geometry": {"type": "Point", "coordinates": [-93.2493953, 37.1807777]}},
{"type": "Feature", "id": "YBG5q8Hfw8d1qZmXfDzlN7qWsBw=", "properties": {"ref": "23694", "@spider": "kum_and_go", "addr:full": "2904 E Sunshine St", "addr:city": "Springfield", "addr:state": "MO", "addr:postcode": "65804", "addr:country": "US", "phone": "417-881-1028", "website": "https://www.kumandgo.com/stores/0567/", "brand": "Kum & Go", "brand:wikidata": "Q6443340"}, "geometry": {"type": "Point", "coordinates": [-93.2368961, 37.1800955]}},
{"type": "Feature", "id": "I6UIF-bgkY0uWmD9JNYYXIr6aY4=", "properties": {"ref": "23646", "@spider": "kum_and_go", "addr:full": "5343 S Campbell Ave", "addr:city": "Springfield", "addr:state": "MO", "addr:postcode": "65810", "addr:country": "US", "phone": "417-885-0027", "website": "https://www.kumandgo.com/stores/0465/", "brand": "Kum & Go", "brand:wikidata": "Q6443340"}, "geometry": {"type": "Point", "coordinates": [-93.2975096, 37.1168433]}},
{"type": "Feature", "id": "T1KO8ODl5jVjFIBDwtg99UgCcO4=", "properties": {"ref": "23859", "@spider": "kum_and_go", "addr:full": "3623 E. Sunshine Street", "addr:city": "Springfield", "addr:state": "MO", "addr:postcode": "65809", "addr:country": "US", "phone": "417-823-9302", "website": "https://www.kumandgo.com/stores/1481/", "brand": "Kum & Go", "brand:wikidata": "Q6443340"}, "geometry": {"type": "Point", "coordinates": [-93.2203853, 37.1804812]}},
{"type": "Feature", "id": "R-XUpt_9UCu42u5pg_JLpmdGqw8=", "properties": {"ref": "23857", "@spider": "kum_and_go", "addr:full": "2161 E Republic Court", "addr:city": "Springfield", "addr:state": "MO", "addr:postcode": "65804", "addr:country": "US", "phone": "417-823-2525", "website": "https://www.kumandgo.com/stores/1476/", "brand": "Kum & Go", "brand:wikidata": "Q6443340"}, "geometry": {"type": "Point", "coordinates": [-93.2537661, 37.1410996]}},
{"type": "Feature", "id": "H0ewkQX2jNfN54PnVIoAENqG9ho=", "properties": {"ref": "23684", "@spider": "kum_and_go", "addr:full": "3264 E Battlefield St", "addr:city": "Springfield", "addr:state": "MO", "addr:postcode": "65804", "addr:country": "US", "phone": "417-886-4251", "website": "https://www.kumandgo.com/stores/0550/", "brand": "Kum & Go", "brand:wikidata": "Q6443340"}, "geometry": {"type": "Point", "coordinates": [-93.2289051, 37.1577961]}},
{"type": "Feature", "id": "-TCL0xcDW4SABedIGvyw4psykHg=", "properties": {"ref": "23661", "@spider": "kum_and_go", "addr:full": "402 Massey Blvd", "addr:city": "Nixa", "addr:state": "MO", "addr:postcode": "65714", "addr:country": "US", "phone": "417-725-7900", "website": "https://www.kumandgo.com/stores/0494/", "brand": "Kum & Go", "brand:wikidata": "Q6443340"}, "geometry": {"type": "Point", "coordinates": [-93.3019583, 37.0379794]}},
{"type": "Feature", "id": "BPedUJGlNDW6lHx6xb13Qeop_oE=", "properties": {"ref": "23662", "@spider": "kum_and_go", "addr:full": "102 Ridgecrest Ave", "addr:city": "Nixa", "addr:state": "MO", "addr:postcode": "65714", "addr:country": "US", "phone": "417-725-4364", "website": "https://www.kumandgo.com/stores/0495/", "brand": "Kum & Go", "brand:wikidata": "Q6443340"}, "geometry": {"type": "Point", "coordinates": [-93.2832189, 37.0425746]}},
{"type": "Feature", "id": "VV4AClAvkd-vXRydfTIQGcdz3_Q=", "properties": {"ref": "23735", "@spider": "kum_and_go", "addr:full": "5552 N 21st St", "addr:city": "Ozark", "addr:state": "MO", "addr:postcode": "65721", "addr:country": "US", "phone": "417-485-4948", "website": "https://www.kumandgo.com/stores/0700/", "brand": "Kum & Go", "brand:wikidata": "Q6443340"}, "geometry": {"type": "Point", "coordinates": [-93.2301701, 37.0720179]}},
{"type": "Feature", "id": "-QuC1BzM3H1IwnRKOMczU2GGBLI=", "properties": {"ref": "23664", "@spider": "kum_and_go", "addr:full": "4996 S State Highway 125", "addr:city": "Rogersville", "addr:state": "MO", "addr:postcode": "65742", "addr:country": "US", "phone": "417-753-2103", "website": "https://www.kumandgo.com/stores/0498/", "brand": "Kum & Go", "brand:wikidata": "Q6443340"}, "geometry": {"type": "Point", "coordinates": [-93.1188524, 37.1196535]}},
{"type": "Feature", "id": "S0tEEOlJRzvmgAH5JR547ciHmFU=", "properties": {"ref": "23737", "@spider": "kum_and_go", "addr:full": "901 W. Jackson St.", "addr:city": "Ozark", "addr:state": "MO", "addr:postcode": "65721", "addr:country": "US", "phone": "417-485-4667", "website": "https://www.kumandgo.com/stores/0706/", "brand": "Kum & Go", "brand:wikidata": "Q6443340"}, "geometry": {"type": "Point", "coordinates": [-93.2113961, 37.0260808]}},
{"type": "Feature", "id": "fbc68CsuDu5VgytrjO6auS14HyQ=", "properties": {"ref": "23738", "@spider": "kum_and_go", "addr:full": "305 W South St", "addr:city": "Ozark", "addr:state": "MO", "addr:postcode": "65721", "addr:country": "US", "phone": "417-485-3808", "website": "https://www.kumandgo.com/stores/0718/", "brand": "Kum & Go", "brand:wikidata": "Q6443340"}, "geometry": {"type": "Point", "coordinates": [-93.2062634, 37.0046291]}},
{"type": "Feature", "id": "aQrpyzwjoPOkBkMbV3kFmoR3CSs=", "properties": {"ref": "23850", "@spider": "kum_and_go", "addr:full": "501 Cowan Dr", "addr:city": "Lebanon", "addr:state": "MO", "addr:postcode": "65536", "addr:country": "US", "phone": "417-532-1078", "website": "https://www.kumandgo.com/stores/1455/", "brand": "Kum & Go", "brand:wikidata": "Q6443340"}, "geometry": {"type": "Point", "coordinates": [-92.6378603, 37.6817213]}},
{"type": "Feature", "id": "8613XL71MlRARFvpR-tPIKIa18U=", "properties": {"ref": "23637", "@spider": "kum_and_go", "addr:full": "195 Gage Dr", "addr:city": "Hollister", "addr:state": "MO", "addr:postcode": "65672", "addr:country": "US", "phone": "417-334-7824", "website": "https://www.kumandgo.com/stores/0441/", "brand": "Kum & Go", "brand:wikidata": "Q6443340"}, "geometry": {"type": "Point", "coordinates": [-93.2343239, 36.610016]}},
{"type": "Feature", "id": "8MektyTTYrCc8uCl1aVP6VrvZGU=", "properties": {"ref": "23863", "@spider": "kum_and_go", "addr:full": "1395 GW Lane", "addr:city": "Waynesville", "addr:state": "MO", "addr:postcode": "65583", "addr:country": "US", "phone": "573-774-3539", "website": "https://www.kumandgo.com/stores/1568/", "brand": "Kum & Go", "brand:wikidata": "Q6443340"}, "geometry": {"type": "Point", "coordinates": [-92.2221867, 37.807897]}},
{"type": "Feature", "id": "BgN9JY-h-aN4VD8C4KNjiJxD2yw=", "properties": {"ref": "23816", "@spider": "kum_and_go", "addr:full": "109 N Main St", "addr:city": "Buffalo", "addr:state": "WY", "addr:postcode": "82834", "addr:country": "US", "phone": "307-684-2736", "website": "https://www.kumandgo.com/stores/0953/", "brand": "Kum & Go", "brand:wikidata": "Q6443340"}, "geometry": {"type": "Point", "coordinates": [-106.6985338, 44.3489292]}},
{"type": "Feature", "id": "doBGbV_UrRANRWcZYSqajjcKK1I=", "properties": {"ref": "23822", "@spider": "kum_and_go", "addr:full": "310 Skyline Dr", "addr:city": "Gillette", "addr:state": "WY", "addr:postcode": "82718", "addr:country": "US", "phone": "307-686-3703", "website": "https://www.kumandgo.com/stores/0961/", "brand": "Kum & Go", "brand:wikidata": "Q6443340"}, "geometry": {"type": "Point", "coordinates": [-105.53182, 44.2914666]}},
{"type": "Feature", "id": "IZamZ4eTysKk-C_LNvXP7RpaJeY=", "properties": {"ref": "23820", "@spider": "kum_and_go", "addr:full": "719 N Hwy 14 16", "addr:city": "Gillette", "addr:state": "WY", "addr:postcode": "82716", "addr:country": "US", "phone": "307-686-8097", "website": "https://www.kumandgo.com/stores/0959/", "brand": "Kum & Go", "brand:wikidata": "Q6443340"}, "geometry": {"type": "Point", "coordinates": [-105.5301211, 44.3006403]}},
{"type": "Feature", "id": "UqIn4hvkwhsjWPvvjL8DXRtoIcA=", "properties": {"ref": "23821", "@spider": "kum_and_go", "addr:full": "1504 US Highway 14-16", "addr:city": "Gillette", "addr:state": "WY", "addr:postcode": "82716", "addr:country": "US", "phone": "307-686-2365", "website": "https://www.kumandgo.com/stores/0960/", "brand": "Kum & Go", "brand:wikidata": "Q6443340"}, "geometry": {"type": "Point", "coordinates": [-105.4782745, 44.291071]}},
{"type": "Feature", "id": "ZXxYSqDXycE44yQeYrbGJlMHlLU=", "properties": {"ref": "23742", "@spider": "kum_and_go", "addr:full": "411 1st Ave SW", "addr:city": "Bowman", "addr:state": "ND", "addr:postcode": "58623", "addr:country": "US", "phone": "701-523-5309", "website": "https://www.kumandgo.com/stores/0801/", "brand": "Kum & Go", "brand:wikidata": "Q6443340"}, "geometry": {"type": "Point", "coordinates": [-103.3962753, 46.1780207]}},
{"type": "Feature", "id": "040Fm13luR4qHkBK49lNym6Ypl0=", "properties": {"ref": "23746", "@spider": "kum_and_go", "addr:full": "211 1st Ave W", "addr:city": "Plentywood", "addr:state": "MT", "addr:postcode": "59254", "addr:country": "US", "phone": "406-765-2847", "website": "https://www.kumandgo.com/stores/0808/", "brand": "Kum & Go", "brand:wikidata": "Q6443340"}, "geometry": {"type": "Point", "coordinates": [-104.5563756, 48.7738795]}},
{"type": "Feature", "id": "Fb6GmnkmvPTq4GAwQQr0P99LzAU=", "properties": {"ref": "23745", "@spider": "kum_and_go", "addr:full": "1301 Bison Drive", "addr:city": "Williston", "addr:state": "ND", "addr:postcode": "58801", "addr:country": "US", "phone": "701-572-3373", "website": "https://www.kumandgo.com/stores/0806/", "brand": "Kum & Go", "brand:wikidata": "Q6443340"}, "geometry": {"type": "Point", "coordinates": [-103.6441759, 48.1609713]}},
{"type": "Feature", "id": "to7wd1w1fI-S5pkKJgGzywpjqs8=", "properties": {"ref": "23744", "@spider": "kum_and_go", "addr:full": "910 11th Street East", "addr:city": "Williston", "addr:state": "ND", "addr:postcode": "58801", "addr:country": "US", "phone": "701-572-5147", "website": "https://www.kumandgo.com/stores/0805/", "brand": "Kum & Go", "brand:wikidata": "Q6443340"}, "geometry": {"type": "Point", "coordinates": [-103.6070749, 48.1537203]}},
{"type": "Feature", "id": "bD1ZRHKc5tFLgPXV5CpSCLC3cdg=", "properties": {"ref": "23743", "@spider": "kum_and_go", "addr:full": "124 Main St S", "addr:city": "Watford City", "addr:state": "ND", "addr:postcode": "58854", "addr:country": "US", "phone": "701-842-4119", "website": "https://www.kumandgo.com/stores/0804/", "brand": "Kum & Go", "brand:wikidata": "Q6443340"}, "geometry": {"type": "Point", "coordinates": [-103.2826794, 47.7993078]}},
{"type": "Feature", "id": "8J7HBowoGWrzHToknGGOphX04Uw=", "properties": {"ref": "23882", "@spider": "kum_and_go", "addr:full": "518 2nd St NE", "addr:city": "Tioga", "addr:state": "ND", "addr:postcode": "58852", "addr:country": "US", "phone": "701-664-2993", "website": "https://www.kumandgo.com/stores/2812/", "brand": "Kum & Go", "brand:wikidata": "Q6443340"}, "geometry": {"type": "Point", "coordinates": [-102.929968, 48.3957774]}},
{"type": "Feature", "id": "O2Z9oCyJU7vB6_0dxP7ZLONek5M=", "properties": {"ref": "23748", "@spider": "kum_and_go", "addr:full": "2626 E Burdick Expy", "addr:city": "Minot", "addr:state": "ND", "addr:postcode": "58701", "addr:country": "US", "phone": "701-839-6020", "website": "https://www.kumandgo.com/stores/0816/", "brand": "Kum & Go", "brand:wikidata": "Q6443340"}, "geometry": {"type": "Point", "coordinates": [-101.2534026, 48.228772]}},
{"type": "Feature", "id": "LBh9K9MA2q7joQQ5AKeWSSqrKjA=", "properties": {"ref": "23881", "@spider": "kum_and_go", "addr:full": "308 Adams Ave", "addr:city": "Hettinger", "addr:state": "ND", "addr:postcode": "58639", "addr:country": "US", "phone": "701-567-2711", "website": "https://www.kumandgo.com/stores/2811/", "brand": "Kum & Go", "brand:wikidata": "Q6443340"}, "geometry": {"type": "Point", "coordinates": [-102.6389658, 46.001426]}},
{"type": "Feature", "id": "J1wzYzRI_j59YV-th2uvfQOuGUA=", "properties": {"ref": "23747", "@spider": "kum_and_go", "addr:full": "207 E Rosser Ave", "addr:city": "Bismarck", "addr:state": "ND", "addr:postcode": "58501", "addr:country": "US", "phone": "701-255-3738", "website": "https://www.kumandgo.com/stores/0813/", "brand": "Kum & Go", "brand:wikidata": "Q6443340"}, "geometry": {"type": "Point", "coordinates": [-100.7886035, 46.8082457]}},
{"type": "Feature", "id": "DzuPvPE2zjaDwdall0HLVO_Bmts=", "properties": {"ref": "23541", "@spider": "kum_and_go", "addr:full": "1775 Old Morrilton HWY", "addr:city": "Conway", "addr:state": "AR", "addr:postcode": "72032", "addr:country": "US", "phone": "501-504-2242", "website": "https://www.kumandgo.com/stores/0171/", "brand": "Kum & Go", "brand:wikidata": "Q6443340"}, "geometry": {"type": "Point", "coordinates": [-92.44763, 35.112951]}},
{"type": "Feature", "id": "KSNiG6OCS6bG2vYbW83Sslnof34=", "properties": {"ref": "23538", "@spider": "kum_and_go", "addr:full": "4095 Prince St.", "addr:city": "Conway", "addr:state": "AR", "addr:postcode": "72034", "addr:country": "US", "phone": "501-932-3141", "website": "https://www.kumandgo.com/stores/0159/", "brand": "Kum & Go", "brand:wikidata": "Q6443340"}, "geometry": {"type": "Point", "coordinates": [-92.497363, 35.089059]}},
{"type": "Feature", "id": "wProx5nggraAymagu-dpReQtcnI=", "properties": {"ref": "23537", "@spider": "kum_and_go", "addr:full": "2050 Dave Ward Dr.", "addr:city": "Conway", "addr:state": "AR", "addr:postcode": "72034", "addr:country": "US", "phone": "501-932-0114", "website": "https://www.kumandgo.com/stores/0158/", "brand": "Kum & Go", "brand:wikidata": "Q6443340"}, "geometry": {"type": "Point", "coordinates": [-92.453825, 35.070693]}},
{"type": "Feature", "id": "3PvRyCwsWgBT_JcAL7K2PO6kfKg=", "properties": {"ref": "23536", "@spider": "kum_and_go", "addr:full": "21510 Hwy 365 N", "addr:city": "Maumelle", "addr:state": "AR", "addr:postcode": "72113", "addr:country": "US", "phone": "501-851-2536", "website": "https://www.kumandgo.com/stores/0155/", "brand": "Kum & Go", "brand:wikidata": "Q6443340"}, "geometry": {"type": "Point", "coordinates": [-92.3920077, 34.8843218]}},
{"type": "Feature", "id": "WuXN0j3yEULIlIYw-O5axe1nSiY=", "properties": {"ref": "23529", "@spider": "kum_and_go", "addr:full": "1303 South Pine St.", "addr:city": "Cabot", "addr:state": "AR", "addr:postcode": "72023", "addr:country": "US", "phone": "501-941-3017", "website": "https://www.kumandgo.com/stores/0143/", "brand": "Kum & Go", "brand:wikidata": "Q6443340"}, "geometry": {"type": "Point", "coordinates": [-92.008038, 34.952393]}},
{"type": "Feature", "id": "KW8CewIhcJVz6vSLlEvljvGyyTw=", "properties": {"ref": "23535", "@spider": "kum_and_go", "addr:full": "8801 Maumelle Blvd", "addr:city": "North Little Rock", "addr:state": "AR", "addr:postcode": "72113", "addr:country": "US", "phone": "501-975-4130", "website": "https://www.kumandgo.com/stores/0153/", "brand": "Kum & Go", "brand:wikidata": "Q6443340"}, "geometry": {"type": "Point", "coordinates": [-92.360445, 34.813164]}},
{"type": "Feature", "id": "IMDqE5lEojoJTeqW8TZzd2kn-uE=", "properties": {"ref": "23526", "@spider": "kum_and_go", "addr:full": "1501 West Main St", "addr:city": "Jacksonville", "addr:state": "AR", "addr:postcode": "72076", "addr:country": "US", "phone": "501-982-0071", "website": "https://www.kumandgo.com/stores/0138/", "brand": "Kum & Go", "brand:wikidata": "Q6443340"}, "geometry": {"type": "Point", "coordinates": [-92.1262221, 34.8672938]}},
{"type": "Feature", "id": "MAmy9VVoXQHHJOezUDdfUUhZpzs=", "properties": {"ref": "23533", "@spider": "kum_and_go", "addr:full": "3400 E Kiehl Ave", "addr:city": "Sherwood", "addr:state": "AR", "addr:postcode": "72120", "addr:country": "US", "phone": "501-992-1500", "website": "https://www.kumandgo.com/stores/0150/", "brand": "Kum & Go", "brand:wikidata": "Q6443340"}, "geometry": {"type": "Point", "coordinates": [-92.197168, 34.831882]}},
{"type": "Feature", "id": "N91jyqAP3CNnnAp_mDOVh4NigDk=", "properties": {"ref": "23527", "@spider": "kum_and_go", "addr:full": "15617 Chenal Parkway", "addr:city": "Little Rock", "addr:state": "AR", "addr:postcode": "72211", "addr:country": "US", "phone": "501-224-1182", "website": "https://www.kumandgo.com/stores/0139/", "brand": "Kum & Go", "brand:wikidata": "Q6443340"}, "geometry": {"type": "Point", "coordinates": [-92.4432067, 34.7559486]}},
{"type": "Feature", "id": "1ObQ2rcUmaSgVrm3RVMM7ecK4h8=", "properties": {"ref": "23530", "@spider": "kum_and_go", "addr:full": "5216 JFK Blvd", "addr:city": "North Little Rock", "addr:state": "AR", "addr:postcode": "72116", "addr:country": "US", "phone": "501-975-1603", "website": "https://www.kumandgo.com/stores/0144/", "brand": "Kum & Go", "brand:wikidata": "Q6443340"}, "geometry": {"type": "Point", "coordinates": [-92.253347, 34.802833]}},
{"type": "Feature", "id": "FdzswdqseG5oPy8VzstD31kt4QU=", "properties": {"ref": "23534", "@spider": "kum_and_go", "addr:full": "3220 Springhill Dr.", "addr:city": "North Little Rock", "addr:state": "AR", "addr:postcode": "72117", "addr:country": "US", "phone": "501-945-4495", "website": "https://www.kumandgo.com/stores/0152/", "brand": "Kum & Go", "brand:wikidata": "Q6443340"}, "geometry": {"type": "Point", "coordinates": [-92.2175563, 34.7840389]}},
{"type": "Feature", "id": "vD9YF6NJYaDvspiII7kQDOIBNZ8=", "properties": {"ref": "23531", "@spider": "kum_and_go", "addr:full": "7620 Baseline Rd", "addr:city": "Little Rock", "addr:state": "AR", "addr:postcode": "72209", "addr:country": "US", "phone": "501-907-7513", "website": "https://www.kumandgo.com/stores/0146/", "brand": "Kum & Go", "brand:wikidata": "Q6443340"}, "geometry": {"type": "Point", "coordinates": [-92.362276, 34.670072]}},
{"type": "Feature", "id": "YpaMZknvwqgTGjwplUWGgRZ1qDs=", "properties": {"ref": "23597", "@spider": "kum_and_go", "addr:full": "3430 US Highway 63", "addr:city": "Black Rock", "addr:state": "AR", "addr:postcode": "72415", "addr:country": "US", "phone": "870-878-6107", "website": "https://www.kumandgo.com/stores/0379/", "brand": "Kum & Go", "brand:wikidata": "Q6443340"}, "geometry": {"type": "Point", "coordinates": [-91.0989809, 36.1040876]}},
{"type": "Feature", "id": "eDgzWIOe-gViI26r6IJN4nRi8EM=", "properties": {"ref": "23700", "@spider": "kum_and_go", "addr:full": "130 Old Route 66", "addr:city": "St Robert", "addr:state": "MO", "addr:postcode": "65584", "addr:country": "US", "phone": "573-336-0293", "website": "https://www.kumandgo.com/stores/0578/", "brand": "Kum & Go", "brand:wikidata": "Q6443340"}, "geometry": {"type": "Point", "coordinates": [-92.1438544, 37.8222823]}},
{"type": "Feature", "id": "fbA4_fMU1ayXqn-vnFDCZLxfmwc=", "properties": {"ref": "23606", "@spider": "kum_and_go", "addr:full": "801 N Holman St", "addr:city": "Brookland", "addr:state": "AR", "addr:postcode": "72417", "addr:country": "US", "phone": "870-972-5851", "website": "https://www.kumandgo.com/stores/0388/", "brand": "Kum & Go", "brand:wikidata": "Q6443340"}, "geometry": {"type": "Point", "coordinates": [-90.5776554, 35.9099085]}},
{"type": "Feature", "id": "mHXKdmIWTejYnivrw87Qvlhb3xU=", "properties": {"ref": "23580", "@spider": "kum_and_go", "addr:full": "3400 Linwood Dr.", "addr:city": "Paragould", "addr:state": "AR", "addr:postcode": "72450", "addr:country": "US", "phone": "870-215-0943", "website": "https://www.kumandgo.com/stores/0349/", "brand": "Kum & Go", "brand:wikidata": "Q6443340"}, "geometry": {"type": "Point", "coordinates": [-90.5265208, 36.0200453]}},
{"type": "Feature", "id": "LtQgYHQfedZOVoD0AU-DDGDf6eE=", "properties": {"ref": "23610", "@spider": "kum_and_go", "addr:full": "2625 W. Kings Highway", "addr:city": "Paragould", "addr:state": "AR", "addr:postcode": "72450", "addr:country": "US", "phone": "870-240-0073", "website": "https://www.kumandgo.com/stores/0394/", "brand": "Kum & Go", "brand:wikidata": "Q6443340"}, "geometry": {"type": "Point", "coordinates": [-90.5206135, 36.0601827]}},
{"type": "Feature", "id": "2uhSQP8S5YsFt0NHWX4KbU-sx78=", "properties": {"ref": "23613", "@spider": "kum_and_go", "addr:full": "4609 W Kings Highway", "addr:city": "Paragould", "addr:state": "AR", "addr:postcode": "72450", "addr:country": "US", "phone": "870-215-0133", "website": "https://www.kumandgo.com/stores/0398/", "brand": "Kum & Go", "brand:wikidata": "Q6443340"}, "geometry": {"type": "Point", "coordinates": [-90.5205581, 36.0605016]}},
{"type": "Feature", "id": "xGgs3_9GtkVXxZzBHfLsMDLlExE=", "properties": {"ref": "23609", "@spider": "kum_and_go", "addr:full": "4810 E Highland Dr", "addr:city": "Jonesboro", "addr:state": "AR", "addr:postcode": "72401", "addr:country": "US", "phone": "870-972-6952", "website": "https://www.kumandgo.com/stores/0391/", "brand": "Kum & Go", "brand:wikidata": "Q6443340"}, "geometry": {"type": "Point", "coordinates": [-90.6384445, 35.8215782]}},
{"type": "Feature", "id": "P53mrWQWqXWbJJDJIj9n6yU5Uqs=", "properties": {"ref": "23611", "@spider": "kum_and_go", "addr:full": "2607 Red Wolf Blvd", "addr:city": "Jonesboro", "addr:state": "AR", "addr:postcode": "72401", "addr:country": "US", "phone": "870-972-6325", "website": "https://www.kumandgo.com/stores/0395/", "brand": "Kum & Go", "brand:wikidata": "Q6443340"}, "geometry": {"type": "Point", "coordinates": [-90.6696938, 35.8123985]}},
{"type": "Feature", "id": "SVkqYgZo6zoTNRXvp8hFC3obMBA=", "properties": {"ref": "23612", "@spider": "kum_and_go", "addr:full": "3105 Stadium Blvd", "addr:city": "Jonesboro", "addr:state": "AR", "addr:postcode": "72404", "addr:country": "US", "phone": "870-268-7502", "website": "https://www.kumandgo.com/stores/0397/", "brand": "Kum & Go", "brand:wikidata": "Q6443340"}, "geometry": {"type": "Point", "coordinates": [-90.669379, 35.8089279]}},
{"type": "Feature", "id": "rL1uPTYVpx9LAycr2i_pcV_6mRA=", "properties": {"ref": "23584", "@spider": "kum_and_go", "addr:full": "2214 E Johnson Ave.", "addr:city": "Jonesboro", "addr:state": "AR", "addr:postcode": "72401", "addr:country": "US", "phone": "870-934-8420", "website": "https://www.kumandgo.com/stores/0362/", "brand": "Kum & Go", "brand:wikidata": "Q6443340"}, "geometry": {"type": "Point", "coordinates": [-90.6775641, 35.8476077]}},
{"type": "Feature", "id": "cjpNzNMVLwpmzEBZMTNUJAPo4uc=", "properties": {"ref": "23607", "@spider": "kum_and_go", "addr:full": "2028 N Church St", "addr:city": "Jonesboro", "addr:state": "AR", "addr:postcode": "72401", "addr:country": "US", "phone": "870-972-6953", "website": "https://www.kumandgo.com/stores/0389/", "brand": "Kum & Go", "brand:wikidata": "Q6443340"}, "geometry": {"type": "Point", "coordinates": [-90.7026755, 35.8637472]}},
{"type": "Feature", "id": "-m-yTzJzqxEh4LUvTAH5c-0d5Rk=", "properties": {"ref": "23608", "@spider": "kum_and_go", "addr:full": "680 Southwest Drive", "addr:city": "Jonesboro", "addr:state": "AR", "addr:postcode": "72401", "addr:country": "US", "phone": "870-972-8882", "website": "https://www.kumandgo.com/stores/0390/", "brand": "Kum & Go", "brand:wikidata": "Q6443340"}, "geometry": {"type": "Point", "coordinates": [-90.7139394, 35.8144655]}},
{"type": "Feature", "id": "iY2N1nN37A1qOmg0FckNfmiN1io=", "properties": {"ref": "23604", "@spider": "kum_and_go", "addr:full": "200 US Highway 63", "addr:city": "Bono", "addr:state": "AR", "addr:postcode": "72416", "addr:country": "US", "phone": "870-972-6958", "website": "https://www.kumandgo.com/stores/0386/", "brand": "Kum & Go", "brand:wikidata": "Q6443340"}, "geometry": {"type": "Point", "coordinates": [-90.7927072, 35.8923863]}},
{"type": "Feature", "id": "pP8tez6QWmSj58Ou0fhBfJmsoYE=", "properties": {"ref": "23605", "@spider": "kum_and_go", "addr:full": "10144 US Highway 63", "addr:city": "Bono", "addr:state": "AR", "addr:postcode": "72416", "addr:country": "US", "phone": "870-932-5073", "website": "https://www.kumandgo.com/stores/0387/", "brand": "Kum & Go", "brand:wikidata": "Q6443340"}, "geometry": {"type": "Point", "coordinates": [-90.7962291, 35.8957239]}},
{"type": "Feature", "id": "zm6w6VS1clwe4s2oNZ16rKugPYk=", "properties": {"ref": "23500", "@spider": "kum_and_go", "addr:full": "1453 County Highway G76", "addr:city": "New Virginia", "addr:state": "IA", "addr:postcode": "50210", "addr:country": "US", "phone": "641-449-3490", "website": "https://www.kumandgo.com/stores/0043/", "brand": "Kum & Go", "brand:wikidata": "Q6443340"}, "geometry": {"type": "Point", "coordinates": [-93.780716, 41.1774261]}},
{"type": "Feature", "id": "IxC4E4mHJRmLtXXgx2QkNNNCyMw=", "properties": {"ref": "23491", "@spider": "kum_and_go", "addr:full": "2091 E Main St", "addr:city": "Lamoni", "addr:state": "IA", "addr:postcode": "50140", "addr:country": "US", "phone": "641-784-7400", "website": "https://www.kumandgo.com/stores/0004/", "brand": "Kum & Go", "brand:wikidata": "Q6443340"}, "geometry": {"type": "Point", "coordinates": [-93.8966059, 40.6229367]}},
{"type": "Feature", "id": "mRvl9EVSvWXI-pVgw7gLKkJMteM=", "properties": {"ref": "23560", "@spider": "kum_and_go", "addr:full": "111 E Jefferson St.", "addr:city": "Winterset", "addr:state": "IA", "addr:postcode": "50273", "addr:country": "US", "phone": "515-462-5840", "website": "https://www.kumandgo.com/stores/0246/", "brand": "Kum & Go", "brand:wikidata": "Q6443340"}, "geometry": {"type": "Point", "coordinates": [-94.0127627, 41.3360989]}},
{"type": "Feature", "id": "orkW-on8zjAzpBCXAAQr5VyXyus=", "properties": {"ref": "23523", "@spider": "kum_and_go", "addr:full": "1601 W. Burlington Ave", "addr:city": "Fairfield", "addr:state": "IA", "addr:postcode": "52556", "addr:country": "US", "phone": "641-472-8337", "website": "https://www.kumandgo.com/stores/0134/", "brand": "Kum & Go", "brand:wikidata": "Q6443340"}, "geometry": {"type": "Point", "coordinates": [-91.9817303, 41.0069886]}},
{"type": "Feature", "id": "7J7hrN46dxD-GohsLdjgKiKighk=", "properties": {"ref": "23848", "@spider": "kum_and_go", "addr:full": "416 Cedar St", "addr:city": "Muscatine", "addr:state": "IA", "addr:postcode": "52761", "addr:country": "US", "phone": "563-263-2806", "website": "https://www.kumandgo.com/stores/1436/", "brand": "Kum & Go", "brand:wikidata": "Q6443340"}, "geometry": {"type": "Point", "coordinates": [-91.0456819, 41.4241789]}},
{"type": "Feature", "id": "XTi19tUn6vISSdowEpDsEoNjuw0=", "properties": {"ref": "23636", "@spider": "kum_and_go", "addr:full": "1429 Park Ave", "addr:city": "Muscatine", "addr:state": "IA", "addr:postcode": "52761", "addr:country": "US", "phone": "563-263-0234", "website": "https://www.kumandgo.com/stores/0438/", "brand": "Kum & Go", "brand:wikidata": "Q6443340"}, "geometry": {"type": "Point", "coordinates": [-91.0300414, 41.4415054]}},
{"type": "Feature", "id": "1JQZPFw5ON5VFOkBIdg6RPRtKSQ=", "properties": {"ref": "23564", "@spider": "kum_and_go", "addr:full": "2050 IA Highway 38", "addr:city": "Tipton", "addr:state": "IA", "addr:postcode": "52772", "addr:country": "US", "phone": "563-946-2140", "website": "https://www.kumandgo.com/stores/0267/", "brand": "Kum & Go", "brand:wikidata": "Q6443340"}, "geometry": {"type": "Point", "coordinates": [-91.1152175, 41.6478557]}}]}