{"type":"FeatureCollection","features":[{"type": "Feature", "id": "aRfMGBVAMpsDZYo_39awXFMfjEw=", "properties": {"ref": "https://uk.kutchenhaus.com/store-finder/kh-croydon", "@spider": "kutchenhaus_gb", "addr:full": "4-5 Purley Way Crescent, Croydon, CR0 3JS, United Kingdom", "addr:postcode": "CR0 3JS", "addr:country": "GB", "name": "Croydon", "phone": "0203 827 0746", "website": "https://uk.kutchenhaus.com/store-finder/kh-croydon", "brand": "Kutchenhaus"}, "geometry": {"type": "Point", "coordinates": [-0.12080124841572039, 51.385102079473185]}},
{"type": "Feature", "id": "XIy1jIwNjxw40UCch9Z18tS5sg4=", "properties": {"ref": "https://uk.kutchenhaus.com/store-finder/kh-eltham", "@spider": "kutchenhaus_gb", "addr:full": "1 St Mary's Place, Eltham, London, SE9 1BL, United Kingdom", "addr:postcode": "SE9 1BL", "addr:country": "GB", "name": "Eltham", "phone": "0208 850 9166", "website": "https://uk.kutchenhaus.com/store-finder/kh-eltham", "brand": "Kutchenhaus"}, "geometry": {"type": "Point", "coordinates": [0.05709, 51.45069]}},
{"type": "Feature", "id": "YGy8Q4YmF-gCwbe1m5qC_8X-C60=", "properties": {"ref": "https://uk.kutchenhaus.com/store-finder/kh-basingstoke", "@spider": "kutchenhaus_gb", "addr:full": "Unit 2A, Champion House, Wella Road, Basingstoke, RG22 4AG, United Kingdom", "addr:postcode": "RG22 4AG", "addr:country": "GB", "name": "Basingstoke", "phone": "01256 678809", "website": "https://uk.kutchenhaus.com/store-finder/kh-basingstoke", "brand": "Kutchenhaus"}, "geometry": {"type": "Point", "coordinates": [-1.10245, 51.25347]}},
{"type": "Feature", "id": "vJWcsDLrIWmB-3x-M5b1kQavFS8=", "properties": {"ref": "https://uk.kutchenhaus.com/store-finder/laurencekirk", "@spider": "kutchenhaus_gb", "addr:full": "34a High St., Laurencekirk, Aberdeen, AB30 1AB, United Kingdom", "addr:postcode": "AB30 1AB", "addr:country": "GB", "name": "Laurencekirk", "phone": "01561 377421", "website": "https://uk.kutchenhaus.com/store-finder/laurencekirk", "brand": "Kutchenhaus"}, "geometry": {"type": "Point", "coordinates": [-2.46473, 56.83417]}},
{"type": "Feature", "id": "DObalVxf9ANfJXN4lNxvmJJxHgI=", "properties": {"ref": "https://uk.kutchenhaus.com/store-finder/swansea", "@spider": "kutchenhaus_gb", "addr:full": "Unit 2a Parc Tawe retail park, Parc Tawe, Swansea, SA1 2AL, United Kingdom", "addr:postcode": "SA1 2AL", "addr:country": "GB", "name": "Swansea", "phone": "01792 974 789", "website": "https://uk.kutchenhaus.com/store-finder/swansea", "brand": "Kutchenhaus"}, "geometry": {"type": "Point", "coordinates": [-3.94116, 51.62187]}},
{"type": "Feature", "id": "3wE1Pt71kcdL8BdEwuftXDyPca8=", "properties": {"ref": "https://uk.kutchenhaus.com/store-finder/stamford", "@spider": "kutchenhaus_gb", "addr:full": "19 High Street St Martins, Stamford, PE9 2LF, United Kingdom", "addr:postcode": "PE9 2LF", "addr:country": "GB", "name": "Stamford", "phone": "01780 769440", "website": "https://uk.kutchenhaus.com/store-finder/stamford", "brand": "Kutchenhaus"}, "geometry": {"type": "Point", "coordinates": [-0.47773, 52.6494]}},
{"type": "Feature", "id": "iyboREY9IRZ2ey0V30P6QQSDkBw=", "properties": {"ref": "https://uk.kutchenhaus.com/store-finder/sutton-birmingham", "@spider": "kutchenhaus_gb", "addr:full": "24 Chester Road, Sutton Coldfield, Birmingham, B73 5DA, United Kingdom", "addr:postcode": "B73 5DA", "addr:country": "GB", "name": "Sutton Birmingham", "phone": "0121 366 9679", "website": "https://uk.kutchenhaus.com/store-finder/sutton-birmingham", "brand": "Kutchenhaus"}, "geometry": {"type": "Point", "coordinates": [-1.85867, 52.54743]}},
{"type": "Feature", "id": "l8oGm1rUpiy65PD4cycDz6rS5uw=", "properties": {"ref": "https://uk.kutchenhaus.com/store-finder/shoreham-by-sea", "@spider": "kutchenhaus_gb", "addr:full": "63/65 High Street, Shoreham-By-Sea, BN43 5DE, United Kingdom", "addr:postcode": "BN43 5DE", "addr:country": "GB", "name": "Shoreham-by-Sea", "phone": "01273 887766", "website": "https://uk.kutchenhaus.com/store-finder/shoreham-by-sea", "brand": "Kutchenhaus"}, "geometry": {"type": "Point", "coordinates": [-0.27751, 50.83214]}},
{"type": "Feature", "id": "9TYo-OtBF7NZ2DZxSBGykCaaltA=", "properties": {"ref": "https://uk.kutchenhaus.com/store-finder/balham", "@spider": "kutchenhaus_gb", "addr:full": "50 Balham High Road, Balham, SW12 9AQ, United Kingdom", "addr:postcode": "SW12 9AQ", "addr:country": "GB", "name": "Balham", "phone": "0208 675 8670", "website": "https://uk.kutchenhaus.com/store-finder/balham", "brand": "Kutchenhaus"}, "geometry": {"type": "Point", "coordinates": [-0.14945, 51.44718]}},
{"type": "Feature", "id": "e2c9kItcqHC3xr3hunXi_B5Sozo=", "properties": {"ref": "https://uk.kutchenhaus.com/store-finder/newport", "@spider": "kutchenhaus_gb", "addr:full": "Unit 3, Kingsway Centre, Newport, NP20 1EB, United Kingdom", "addr:postcode": "NP20 1EB", "addr:country": "GB", "name": "Newport, Wales", "phone": "01633 481919", "website": "https://uk.kutchenhaus.com/store-finder/newport", "brand": "Kutchenhaus"}, "geometry": {"type": "Point", "coordinates": [-2.9932, 51.58518]}},
{"type": "Feature", "id": "lCyv3tGZ8lIWEqfSSZwM5XapEXI=", "properties": {"ref": "https://uk.kutchenhaus.com/store-finder/bournemouth", "@spider": "kutchenhaus_gb", "addr:full": "65 Seamoor Road, Westbourne, bournemouth, BH4 9AE, United Kingdom", "addr:postcode": "BH4 9AE", "addr:country": "GB", "name": "Bournemouth", "phone": "01202022160", "website": "https://uk.kutchenhaus.com/store-finder/bournemouth", "brand": "Kutchenhaus"}, "geometry": {"type": "Point", "coordinates": [-1.90408, 50.72282]}},
{"type": "Feature", "id": "9BvAGGxfblWTiQYwkAd8PNbfdeg=", "properties": {"ref": "https://uk.kutchenhaus.com/store-finder/mansfield", "@spider": "kutchenhaus_gb", "addr:full": "2 Chesterfield Road North, Mansfield, NG19 7HH, United Kingdom", "addr:postcode": "NG19 7HH", "addr:country": "GB", "name": "Mansfield", "phone": "01623 428 606", "website": "https://uk.kutchenhaus.com/store-finder/mansfield", "brand": "Kutchenhaus"}, "geometry": {"type": "Point", "coordinates": [-1.21652, 53.15701]}},
{"type": "Feature", "id": "FdQ45MTm_AZ9MA1nbFIhVNUMAvk=", "properties": {"ref": "https://uk.kutchenhaus.com/store-finder/harrogate", "@spider": "kutchenhaus_gb", "addr:full": "10 Royal Parade, Harrogate, HG1 2SZ, United Kingdom", "addr:postcode": "HG1 2SZ", "addr:country": "GB", "name": "Harrogate", "phone": "01423 313 830", "website": "https://uk.kutchenhaus.com/store-finder/harrogate", "brand": "Kutchenhaus"}, "geometry": {"type": "Point", "coordinates": [-1.54884, 53.99327]}},
{"type": "Feature", "id": "p0NGbCWXEqPqtqTr89Tyel3332E=", "properties": {"ref": "https://uk.kutchenhaus.com/store-finder/petersfield", "@spider": "kutchenhaus_gb", "addr:full": "33 The High Street, Petersfield, GU32 3JR, United Kingdom", "addr:postcode": "GU32 3JR", "addr:country": "GB", "name": "Petersfield", "phone": "01730 231200", "website": "https://uk.kutchenhaus.com/store-finder/petersfield", "brand": "Kutchenhaus"}, "geometry": {"type": "Point", "coordinates": [-0.93746, 51.00387]}},
{"type": "Feature", "id": "F6nPqFf7klHmFQGp5dQhtdG0gxU=", "properties": {"ref": "https://uk.kutchenhaus.com/store-finder/rainham-kent", "@spider": "kutchenhaus_gb", "addr:full": "29-31 High Street, Rainham, ME8 7HX, United Kingdom", "addr:postcode": "ME8 7HX", "addr:country": "GB", "name": "Rainham, Kent", "phone": "01634 553 552", "website": "https://uk.kutchenhaus.com/store-finder/rainham-kent", "brand": "Kutchenhaus"}, "geometry": {"type": "Point", "coordinates": [0.60534, 51.36449]}},
{"type": "Feature", "id": "Dsp3d0Obx-jMy45xAa0xgliTwf4=", "properties": {"ref": "https://uk.kutchenhaus.com/store-finder/kh-ruislip", "@spider": "kutchenhaus_gb", "addr:full": "68 Park Way, Ruislip, HA4 8NR, United Kingdom", "addr:postcode": "HA4 8NR", "addr:country": "GB", "name": "Ruislip", "phone": "01895 903 027", "website": "https://uk.kutchenhaus.com/store-finder/kh-ruislip", "brand": "Kutchenhaus"}, "geometry": {"type": "Point", "coordinates": [-0.41302, 51.57441]}},
{"type": "Feature", "id": "9aweJefOJdhkSCFL9pMq6bix3y0=", "properties": {"ref": "https://uk.kutchenhaus.com/store-finder/kh-isle-of-wight", "@spider": "kutchenhaus_gb", "addr:full": "Unit 4B Coppings Bridge Leisure Park, Isle Of Wight, PO30 2TA, United Kingdom", "addr:postcode": "PO30 2TA", "addr:country": "GB", "name": "Isle of Wight", "phone": "01983433104", "website": "https://uk.kutchenhaus.com/store-finder/kh-isle-of-wight", "brand": "Kutchenhaus"}, "geometry": {"type": "Point", "coordinates": [-1.2892, 50.69897]}},
{"type": "Feature", "id": "rXQQ1uDdRvAroDcLfoBjiSVD-78=", "properties": {"ref": "https://uk.kutchenhaus.com/store-finder/kh-wrexham", "@spider": "kutchenhaus_gb", "addr:full": "Unit 4, Eagles Meadow, Saint Georges Crescent, Wrexham, LL13 8DB, United Kingdom", "addr:postcode": "LL13 8DB", "addr:country": "GB", "name": "Wrexham", "phone": "01978 800747", "website": "https://uk.kutchenhaus.com/store-finder/kh-wrexham", "brand": "Kutchenhaus"}, "geometry": {"type": "Point", "coordinates": [-2.9892053, 53.0454581]}},
{"type": "Feature", "id": "bsFn_7GhYAu1UfAZaJ33wgQRFqM=", "properties": {"ref": "https://uk.kutchenhaus.com/store-finder/kh-wirral", "@spider": "kutchenhaus_gb", "addr:full": "Unit 2 Eastham Point, New Chester Road, Wirrall, CH62 8HJ, United Kingdom", "addr:postcode": "CH62 8HJ", "addr:country": "GB", "name": "Wirral", "phone": "0151 834 0987", "website": "https://uk.kutchenhaus.com/store-finder/kh-wirral", "brand": "Kutchenhaus"}, "geometry": {"type": "Point", "coordinates": [-2.96574, 53.31949]}},
{"type": "Feature", "id": "8N5MQLqIMVtysZLp6jNPAZF_BXQ=", "properties": {"ref": "https://uk.kutchenhaus.com/store-finder/kh-stafford", "@spider": "kutchenhaus_gb", "addr:full": "2 Hunters Row, Gaolgate Street, Stafford, ST16 2AD, United Kingdom", "addr:postcode": "ST16 2AD", "addr:country": "GB", "name": "Stafford", "phone": "01785 562651", "website": "https://uk.kutchenhaus.com/store-finder/kh-stafford", "brand": "Kutchenhaus"}, "geometry": {"type": "Point", "coordinates": [-2.1194, 52.8088]}},
{"type": "Feature", "id": "t_9DeCpr1zEEePnrla8ySukCfMU=", "properties": {"ref": "https://uk.kutchenhaus.com/store-finder/kh-bexley-heath", "@spider": "kutchenhaus_gb", "addr:full": "221 Broadway, Bexley Heath, DA6 7EJ, United Kingdom", "addr:postcode": "DA6 7EJ", "addr:country": "GB", "name": "Bexleyheath", "phone": "020 3654 9802", "website": "https://uk.kutchenhaus.com/store-finder/kh-bexley-heath", "brand": "Kutchenhaus"}, "geometry": {"type": "Point", "coordinates": [0.13945, 51.45727]}},
{"type": "Feature", "id": "gUP9whoQura3heB_Nn5B9H7bJFU=", "properties": {"ref": "https://uk.kutchenhaus.com/store-finder/kh-sheffield-greenhill", "@spider": "kutchenhaus_gb", "addr:full": "208 Bocking Lane,, Sheffield, S8 7BP, United Kingdom", "addr:postcode": "S8 7BP", "addr:country": "GB", "name": "Sheffield - Greenhill", "phone": "01143 080 390", "website": "https://uk.kutchenhaus.com/store-finder/kh-sheffield-greenhill", "brand": "Kutchenhaus"}, "geometry": {"type": "Point", "coordinates": [-1.4882747, 53.3274244]}},
{"type": "Feature", "id": "ozAB72A9gR9EQV8HaesUtksV4RE=", "properties": {"ref": "https://uk.kutchenhaus.com/store-finder/kh-sevenoaks", "@spider": "kutchenhaus_gb", "addr:full": "118a London Road, Sevenoaks, TN13 1BA, United Kingdom", "addr:postcode": "TN13 1BA", "addr:country": "GB", "name": "Sevenoaks", "phone": "01732 649 052", "website": "https://uk.kutchenhaus.com/store-finder/kh-sevenoaks", "brand": "Kutchenhaus"}, "geometry": {"type": "Point", "coordinates": [0.18848, 51.27479]}},
{"type": "Feature", "id": "j1nFG6-0wkNOG9pzItlaVASHrHQ=", "properties": {"ref": "https://uk.kutchenhaus.com/store-finder/kh-stevenage", "@spider": "kutchenhaus_gb", "addr:full": "Ground Floor - Unit 7, Arlington Court, Arlington Business Park, SG1 2FS", "addr:postcode": "SG1 2FS", "addr:country": "GB", "name": "Stevenage", "phone": "01438 579 166", "website": "https://uk.kutchenhaus.com/store-finder/kh-stevenage", "brand": "Kutchenhaus"}, "geometry": {"type": "Point", "coordinates": [-0.20583, 51.88942]}},
{"type": "Feature", "id": "OppePn0GkAxOOB7d83Ey3m_L_Gc=", "properties": {"ref": "https://uk.kutchenhaus.com/store-finder/kh-newark", "@spider": "kutchenhaus_gb", "addr:full": "Unit 7, Robin Hood Walk, Newark on Trent, NG24 1XH, United Kingdom", "addr:postcode": "NG24 1XH", "addr:country": "GB", "name": "Newark", "phone": "01636 924 415", "website": "https://uk.kutchenhaus.com/store-finder/kh-newark", "brand": "Kutchenhaus"}, "geometry": {"type": "Point", "coordinates": [-0.8111715, 53.0745819]}},
{"type": "Feature", "id": "rDJsrG9m1keJnqb8AH7S8DLpF_o=", "properties": {"ref": "https://uk.kutchenhaus.com/store-finder/kh-westbury", "@spider": "kutchenhaus_gb", "addr:full": "29-35 Edward Street, Westbury, BA13 3BQ, United Kingdom", "addr:postcode": "BA13 3BQ", "addr:country": "GB", "name": "Westbury", "phone": "01373 470 333", "website": "https://uk.kutchenhaus.com/store-finder/kh-westbury", "brand": "Kutchenhaus"}, "geometry": {"type": "Point", "coordinates": [-2.1829715, 51.2597565]}},
{"type": "Feature", "id": "O-22nGNfjZVMSoesnG5IfT3p-W4=", "properties": {"ref": "https://uk.kutchenhaus.com/store-finder/kh-leeds", "@spider": "kutchenhaus_gb", "addr:full": "615 Roundhay Road, Roundhay, Leeds, LS8 4AR, United Kingdom", "addr:postcode": "LS8 4AR", "addr:country": "GB", "name": "Leeds", "phone": "0113 300 8251", "website": "https://uk.kutchenhaus.com/store-finder/kh-leeds", "brand": "Kutchenhaus"}, "geometry": {"type": "Point", "coordinates": [-1.50809, 53.82509]}},
{"type": "Feature", "id": "n-vCkBEv_yFWfjkmywBtDNPa1PA=", "properties": {"ref": "https://uk.kutchenhaus.com/store-finder/kh-cockfosters", "@spider": "kutchenhaus_gb", "addr:full": "10 - 11 Heddon Court Parade, Cockfosters, EN4 0DB, United Kingdom", "addr:postcode": "EN4 0DB", "addr:country": "GB", "name": "Cockfosters", "phone": "0203 597 3377", "website": "https://uk.kutchenhaus.com/store-finder/kh-cockfosters", "brand": "Kutchenhaus"}, "geometry": {"type": "Point", "coordinates": [-0.14772, 51.64787]}},
{"type": "Feature", "id": "K2W17_YtjlDfirG4nVHVWizIOu4=", "properties": {"ref": "https://uk.kutchenhaus.com/store-finder/kh-northallerton", "@spider": "kutchenhaus_gb", "addr:full": "3 Treadmills, Crosby Road, Northallerton, DL6 1AU, United Kingdom", "addr:postcode": "DL6 1AU", "addr:country": "GB", "name": "Northallerton", "phone": "01609 7864 69", "website": "https://uk.kutchenhaus.com/store-finder/kh-northallerton", "brand": "Kutchenhaus"}, "geometry": {"type": "Point", "coordinates": [-1.43133, 54.33832]}},
{"type": "Feature", "id": "QbQ6hI3ROANWmxrloHV-dXhwbSE=", "properties": {"ref": "https://uk.kutchenhaus.com/store-finder/kh-hythe", "@spider": "kutchenhaus_gb", "addr:full": "63 High Street, Hythe, CT21 5AJ, United Kingdom", "addr:postcode": "CT21 5AJ", "addr:country": "GB", "name": "Hythe", "phone": "01303 487 930", "website": "https://uk.kutchenhaus.com/store-finder/kh-hythe", "brand": "Kutchenhaus"}, "geometry": {"type": "Point", "coordinates": [1.0838992, 51.0715807]}},
{"type": "Feature", "id": "oFfTOBw5jBjTNSJxNMz1GTfW0-Y=", "properties": {"ref": "https://uk.kutchenhaus.com/store-finder/kh-potters-bar", "@spider": "kutchenhaus_gb", "addr:full": "8 High Street, Potters Bar, London, EN6 5AF, United Kingdom", "addr:postcode": "EN6 5AF", "addr:country": "GB", "name": "Potters Bar", "phone": "01707 850 016", "website": "https://uk.kutchenhaus.com/store-finder/kh-potters-bar", "brand": "Kutchenhaus"}, "geometry": {"type": "Point", "coordinates": [-0.17874, 51.69274]}},
{"type": "Feature", "id": "LWdIa-erDxxCR5nCLEzHShetvnA=", "properties": {"ref": "https://uk.kutchenhaus.com/store-finder/kh-southport", "@spider": "kutchenhaus_gb", "addr:full": "49 Hoghton Street, Southport, PR9 0PG, United Kingdom", "addr:postcode": "PR9 0PG", "addr:country": "GB", "name": "Southport", "phone": "01704 332211", "website": "https://uk.kutchenhaus.com/store-finder/kh-southport", "brand": "Kutchenhaus"}, "geometry": {"type": "Point", "coordinates": [-3.0000548, 53.6494092]}},
{"type": "Feature", "id": "myb9MooB0ZdK_ewMFqZgwbWBqgM=", "properties": {"ref": "https://uk.kutchenhaus.com/store-finder/kh-epping", "@spider": "kutchenhaus_gb", "addr:full": "169 High Road, Epping, CM16 4BL, United Kingdom", "addr:postcode": "CM16 4BL", "addr:country": "GB", "name": "Epping", "phone": "01992 259 940", "website": "https://uk.kutchenhaus.com/store-finder/kh-epping", "brand": "Kutchenhaus"}, "geometry": {"type": "Point", "coordinates": [0.11464, 51.70134]}},
{"type": "Feature", "id": "lgJGth4zPtzzxjUfxNm8LSpU3-g=", "properties": {"ref": "https://uk.kutchenhaus.com/store-finder/kh-worcester", "@spider": "kutchenhaus_gb", "addr:full": "10a College Road, Worcester, WR1 2LU, United Kingdom", "addr:postcode": "WR1 2LU", "addr:country": "GB", "name": "Worcester", "phone": "01905 954674", "website": "https://uk.kutchenhaus.com/store-finder/kh-worcester", "brand": "Kutchenhaus"}, "geometry": {"type": "Point", "coordinates": [-2.219352, 52.189218]}},
{"type": "Feature", "id": "MouS3YUO166W8Woyut4e7sGZf1g=", "properties": {"ref": "https://uk.kutchenhaus.com/store-finder/kh-west-byfleet", "@spider": "kutchenhaus_gb", "addr:full": "41B Station Approach, West Byfleet, KT14 6NE, United Kingdom", "addr:postcode": "KT14 6NE", "addr:country": "GB", "name": "West Byfleet", "phone": "01932 340 884 ", "website": "https://uk.kutchenhaus.com/store-finder/kh-west-byfleet", "brand": "Kutchenhaus"}, "geometry": {"type": "Point", "coordinates": [-0.5044759, 51.3393784]}},
{"type": "Feature", "id": "5Hj3r6Al5X87sfLnLytT6VLCyfc=", "properties": {"ref": "https://uk.kutchenhaus.com/store-finder/wilmslow", "@spider": "kutchenhaus_gb", "addr:full": "1 - 2 Wilmslow Green, Wareham Street, Wilmslow, SK9 1BT, United Kingdom", "addr:postcode": "SK9 1BT", "addr:country": "GB", "name": "Wilmslow", "phone": "01625 687 033", "website": "https://uk.kutchenhaus.com/store-finder/wilmslow", "brand": "Kutchenhaus"}, "geometry": {"type": "Point", "coordinates": [-2.2286, 53.32739]}},
{"type": "Feature", "id": "HUOIotKzv-i27kV1aKzemXNdQt0=", "properties": {"ref": "https://uk.kutchenhaus.com/store-finder/york", "@spider": "kutchenhaus_gb", "addr:full": "Unit 3, Foss Island Retail Park, York, YO31 7UL, United Kingdom", "addr:postcode": "YO31 7UL", "addr:country": "GB", "name": "York", "phone": "01904 464 080", "website": "https://uk.kutchenhaus.com/store-finder/york", "brand": "Kutchenhaus"}, "geometry": {"type": "Point", "coordinates": [-1.07006, 53.95921]}},
{"type": "Feature", "id": "XLxclQSky4dHoLwHmw6SYA6haqk=", "properties": {"ref": "https://uk.kutchenhaus.com/store-finder/tunbridge-wells", "@spider": "kutchenhaus_gb", "addr:full": "First Floor, 319 St Johns Rd, Southborough, Tunbridge-Wells, TN4 9XE, United Kingdom", "addr:postcode": "TN4 9XE", "addr:country": "GB", "name": "Tunbridge Wells", "phone": "01892 289070", "website": "https://uk.kutchenhaus.com/store-finder/tunbridge-wells", "brand": "Kutchenhaus"}, "geometry": {"type": "Point", "coordinates": [0.26073, 51.15259]}},
{"type": "Feature", "id": "KQ3na8MIuUnGkGpVTVqIIy0AhHI=", "properties": {"ref": "https://uk.kutchenhaus.com/store-finder/warrington", "@spider": "kutchenhaus_gb", "addr:full": "25 London Road, Warrington, WA4 6SG, United Kingdom", "addr:postcode": "WA4 6SG", "addr:country": "GB", "name": "Warrington", "phone": "01925 450 572", "website": "https://uk.kutchenhaus.com/store-finder/warrington", "brand": "Kutchenhaus"}, "geometry": {"type": "Point", "coordinates": [-2.58158, 53.3723]}},
{"type": "Feature", "id": "0lCb-QP-UDj7jhT_Jd91VrvLT94=", "properties": {"ref": "https://uk.kutchenhaus.com/store-finder/taunton", "@spider": "kutchenhaus_gb", "addr:full": "Unit 3 Orchard Shopping Centre, Taunton, TA1 3TP, United Kingdom", "addr:postcode": "TA1 3TP", "addr:country": "GB", "name": "Taunton", "phone": "01823 339 820", "website": "https://uk.kutchenhaus.com/store-finder/taunton", "brand": "Kutchenhaus"}, "geometry": {"type": "Point", "coordinates": [-3.10174, 51.01383]}},
{"type": "Feature", "id": "xUa3qVPCB91EEbdD4WHPT2wIkYc=", "properties": {"ref": "https://uk.kutchenhaus.com/store-finder/walsall", "@spider": "kutchenhaus_gb", "addr:full": "Unit 8 - 9, Hampstead Business Park, Day Street, Walsall, WS2 8EJ, United Kingdom", "addr:postcode": "WS2 8EJ", "addr:country": "GB", "name": "Walsall", "phone": "01922 687 385", "website": "https://uk.kutchenhaus.com/store-finder/walsall", "brand": "Kutchenhaus"}, "geometry": {"type": "Point", "coordinates": [-1.98402, 52.58916]}},
{"type": "Feature", "id": "TN6vYaPGh7A85J5U6BxyugVNZAs=", "properties": {"ref": "https://uk.kutchenhaus.com/store-finder/stockport", "@spider": "kutchenhaus_gb", "addr:full": "Unit G2, Mansion House, Wellington Road South, Stockport, SK1 3UA, United Kingdom", "addr:postcode": "SK1 3UA", "addr:country": "GB", "name": "Stockport", "phone": "0161 477 1714", "website": "https://uk.kutchenhaus.com/store-finder/stockport", "brand": "Kutchenhaus"}, "geometry": {"type": "Point", "coordinates": [-2.15698, 53.40188]}},
{"type": "Feature", "id": "C2gwJSrBrW-wPyfeJCQkf0j3gXQ=", "properties": {"ref": "https://uk.kutchenhaus.com/store-finder/southend-on-sea", "@spider": "kutchenhaus_gb", "addr:full": "313 London Road, Southend-on-Sea, SS0 7BX, United Kingdom", "addr:postcode": "SS0 7BX", "addr:country": "GB", "name": "Southend-on-Sea", "phone": "01702 345 302", "website": "https://uk.kutchenhaus.com/store-finder/southend-on-sea", "brand": "Kutchenhaus"}, "geometry": {"type": "Point", "coordinates": [0.69733, 51.54163]}},
{"type": "Feature", "id": "niLFHxaz3EtF2qBFI4LmtzWx-Cs=", "properties": {"ref": "https://uk.kutchenhaus.com/store-finder/shrewsbury", "@spider": "kutchenhaus_gb", "addr:full": "Unit B, Vanguard Way, Plot 7, Vanguard Trade Park, Shrewsbury, Shropshire, SY1 3TG, United Kingdom", "addr:postcode": "SY1 3TG", "addr:country": "GB", "name": "Shrewsbury", "phone": "01743 466 372", "website": "https://uk.kutchenhaus.com/store-finder/shrewsbury", "brand": "Kutchenhaus"}, "geometry": {"type": "Point", "coordinates": [-2.72847, 52.74205]}},
{"type": "Feature", "id": "7fPKwcygB6colBeUUwIspg8A_JA=", "properties": {"ref": "https://uk.kutchenhaus.com/store-finder/romsey", "@spider": "kutchenhaus_gb", "addr:full": "11 Church Street, Romsey, SO51 8BT, United Kingdom", "addr:postcode": "SO51 8BT", "addr:country": "GB", "name": "Romsey", "phone": "01794 521 419", "website": "https://uk.kutchenhaus.com/store-finder/romsey", "brand": "Kutchenhaus"}, "geometry": {"type": "Point", "coordinates": [-1.49994, 50.98972]}},
{"type": "Feature", "id": "AYGynT2sM3rwhUlDNtlLKFprr_0=", "properties": {"ref": "https://uk.kutchenhaus.com/store-finder/sheffield", "@spider": "kutchenhaus_gb", "addr:full": "734 - 736 Attercliffe Road, Sheffield, S9 3RQ, United Kingdom", "addr:postcode": "S9 3RQ", "addr:country": "GB", "name": "Sheffield - Attercliffe", "phone": "0114 2560 888", "website": "https://uk.kutchenhaus.com/store-finder/sheffield", "brand": "Kutchenhaus"}, "geometry": {"type": "Point", "coordinates": [-1.43065, 53.39494]}},
{"type": "Feature", "id": "oSISQQ3PfIB275jurskxPxool7Y=", "properties": {"ref": "https://uk.kutchenhaus.com/store-finder/preston", "@spider": "kutchenhaus_gb", "addr:full": "81 Fishergate, Preston, PR1 2UH, United Kingdom", "addr:postcode": "PR1 2UH", "addr:country": "GB", "name": "Preston (Currently closed, please visit Southport)", "phone": "01772 930 911", "website": "https://uk.kutchenhaus.com/store-finder/preston", "brand": "Kutchenhaus"}, "geometry": {"type": "Point", "coordinates": [-2.70648, 53.75765]}},
{"type": "Feature", "id": "bXQmeaDGgCj-EvWGbhOx6-J9VH8=", "properties": {"ref": "https://uk.kutchenhaus.com/store-finder/orpington", "@spider": "kutchenhaus_gb", "addr:full": "Unit 38A The Walnuts, Orpington, BR6 0TW, United Kingdom", "addr:postcode": "BR6 0TW", "addr:country": "GB", "name": "Orpington", "phone": "01689 770195", "website": "https://uk.kutchenhaus.com/store-finder/orpington", "brand": "Kutchenhaus"}, "geometry": {"type": "Point", "coordinates": [0.10185, 51.37748]}},
{"type": "Feature", "id": "8PDnvjoFR-OhkfXdW5mrdeQSzLc=", "properties": {"ref": "https://uk.kutchenhaus.com/store-finder/high-wycombe", "@spider": "kutchenhaus_gb", "addr:full": "46 - 48 Oxford Street, High Wycombe, HP11 2XG, United Kingdom", "addr:postcode": "HP11 2XG", "addr:country": "GB", "name": "High Wycombe", "phone": "01494 980185", "website": "https://uk.kutchenhaus.com/store-finder/high-wycombe", "brand": "Kutchenhaus"}, "geometry": {"type": "Point", "coordinates": [-0.75351, 51.63116]}},
{"type": "Feature", "id": "7XNLV1mr009MmOiOEExJi8JXheE=", "properties": {"ref": "https://uk.kutchenhaus.com/store-finder/huddersfield", "@spider": "kutchenhaus_gb", "addr:full": "59 Huddersfield Road, Holmfirth, HD9 3JP, United Kingdom", "addr:postcode": "HD9 3JP", "addr:country": "GB", "name": "Huddersfield", "phone": "01484 680 626", "website": "https://uk.kutchenhaus.com/store-finder/huddersfield", "brand": "Kutchenhaus"}, "geometry": {"type": "Point", "coordinates": [-1.7876, 53.57032]}},
{"type": "Feature", "id": "02j3qAg2VenEcT_aO9fCGStGPMg=", "properties": {"ref": "https://uk.kutchenhaus.com/store-finder/farnborough", "@spider": "kutchenhaus_gb", "addr:full": "70 Kingsmead, The Meads Shopping Centre, Farnborough, GU14 7SL, United Kingdom", "addr:postcode": "GU14 7SL", "addr:country": "GB", "name": "Farnborough", "phone": "01252 239051", "website": "https://uk.kutchenhaus.com/store-finder/farnborough", "brand": "Kutchenhaus"}, "geometry": {"type": "Point", "coordinates": [-0.75496, 51.29162]}},
{"type": "Feature", "id": "jhCLoGFGJ-uPvMaljlHSwdlgu7o=", "properties": {"ref": "https://uk.kutchenhaus.com/store-finder/exeter", "@spider": "kutchenhaus_gb", "addr:full": "Alphinbrook Road Unit 7, Marsh Barton Trading Estate, Exeter, EX2 8QR, United Kingdom", "addr:postcode": "EX2 8QR", "addr:country": "GB", "name": "Exeter", "phone": "01392 409 968", "website": "https://uk.kutchenhaus.com/store-finder/exeter", "brand": "Kutchenhaus"}, "geometry": {"type": "Point", "coordinates": [-3.52884, 50.70326]}},
{"type": "Feature", "id": "qMYcKqlX1LrFEcqY1le8WAXqZMM=", "properties": {"ref": "https://uk.kutchenhaus.com/store-finder/chester", "@spider": "kutchenhaus_gb", "addr:full": "157 - 167 Unit 2 Foregate Street, Chester, CH1 1HF, United Kingdom", "addr:postcode": "CH1 1HF", "addr:country": "GB", "name": "Chester", "phone": "01244 295 011", "website": "https://uk.kutchenhaus.com/store-finder/chester", "brand": "Kutchenhaus"}, "geometry": {"type": "Point", "coordinates": [-2.88108, 53.19245]}},
{"type": "Feature", "id": "6WdX4YEnuZTXiimxduSwSFR-IXQ=", "properties": {"ref": "https://uk.kutchenhaus.com/store-finder/chichester", "@spider": "kutchenhaus_gb", "addr:full": "5 - 7 Ambassadors House, Crane Street, Chichester, PO19 1LL, United Kingdom", "addr:postcode": "PO19 1LL", "addr:country": "GB", "name": "Chichester", "phone": "01243 780087", "website": "https://uk.kutchenhaus.com/store-finder/chichester", "brand": "Kutchenhaus"}, "geometry": {"type": "Point", "coordinates": [-0.77975, 50.83814]}},
{"type": "Feature", "id": "X-jitKYMSZBbc6O_Kw4TqzigIrI=", "properties": {"ref": "https://uk.kutchenhaus.com/store-finder/brentwood", "@spider": "kutchenhaus_gb", "addr:full": "Unit 6, The Baytree Centre, Brentwood, Essex, CM14 4BX, United Kingdom", "addr:postcode": "CM14 4BX", "addr:country": "GB", "name": "Brentwood", "phone": "0127 7204 447", "website": "https://uk.kutchenhaus.com/store-finder/brentwood", "brand": "Kutchenhaus"}, "geometry": {"type": "Point", "coordinates": [0.30221, 51.61959]}},
{"type": "Feature", "id": "GjFSmo1bJb7h6xqbA7_jtIkOJrY=", "properties": {"ref": "https://uk.kutchenhaus.com/store-finder/cardiff", "@spider": "kutchenhaus_gb", "addr:full": "Unit 10d Queens Arcade, Cardiff, CF10 2BY, United Kingdom", "addr:postcode": "CF10 2BY", "addr:country": "GB", "name": "Cardiff", "phone": "0292 023 5562", "website": "https://uk.kutchenhaus.com/store-finder/cardiff", "brand": "Kutchenhaus"}, "geometry": {"type": "Point", "coordinates": [-3.17742, 51.48145]}},
{"type": "Feature", "id": "LM_1pm20NqzDD2BWQGb_Aaha5q8=", "properties": {"ref": "https://uk.kutchenhaus.com/store-finder/bristol", "@spider": "kutchenhaus_gb", "addr:full": "Unit 11, Clifton Down Shopping Centre, Whiteladies Road, Clifton, Bristol, BS8 2NN, United Kingdom", "addr:postcode": "BS8 2NN", "addr:country": "GB", "name": "Bristol", "phone": "0117 213 0680", "website": "https://uk.kutchenhaus.com/store-finder/bristol", "brand": "Kutchenhaus"}, "geometry": {"type": "Point", "coordinates": [-2.61076, 51.46414]}},
{"type": "Feature", "id": "aAKHzMsYsN82BYe4-xm13rYl6s4=", "properties": {"ref": "https://uk.kutchenhaus.com/store-finder/bury", "@spider": "kutchenhaus_gb", "addr:full": "60 Rochdale Road, Bury, BL9 7AY, United Kingdom", "addr:postcode": "BL9 7AY", "addr:country": "GB", "name": "Bury", "phone": "0161 711 0650", "website": "https://uk.kutchenhaus.com/store-finder/bury", "brand": "Kutchenhaus"}, "geometry": {"type": "Point", "coordinates": [-2.28813, 53.59329]}},
{"type": "Feature", "id": "0lomIsDB8kiUHjtyIr0YOFnjFwQ=", "properties": {"ref": "https://uk.kutchenhaus.com/store-finder/bath", "@spider": "kutchenhaus_gb", "addr:full": "5 Saracen Street, Bath, BA1 5BR, United Kingdom", "addr:postcode": "BA1 5BR", "addr:country": "GB", "name": "Bath", "phone": "01225 634 025", "website": "https://uk.kutchenhaus.com/store-finder/bath", "brand": "Kutchenhaus"}, "geometry": {"type": "Point", "coordinates": [-2.35999, 51.38466]}},
{"type": "Feature", "id": "JZX8FxW-15ZBIGoGNoI8rwjpIoU=", "properties": {"ref": "https://uk.kutchenhaus.com/store-finder/ashford", "@spider": "kutchenhaus_gb", "addr:full": "Pluto House Units 2-3 Station Road, Ashford, TN23 1PP, United Kingdom", "addr:postcode": "TN23 1PP", "addr:country": "GB", "name": "Ashford", "phone": "01233 877979", "website": "https://uk.kutchenhaus.com/store-finder/ashford", "brand": "Kutchenhaus"}, "geometry": {"type": "Point", "coordinates": [0.87571, 51.14866]}},
{"type": "Feature", "id": "9gFOKrqqAMwmB6DEcq4pUUHDDlU=", "properties": {"ref": "https://uk.kutchenhaus.com/store-finder/altrincham", "@spider": "kutchenhaus_gb", "addr:full": "31-33 Stamford New Rd, Altrincham, WA14 1EB, United Kingdom", "addr:postcode": "WA14 1EB", "addr:country": "GB", "name": "Altrincham", "phone": "0161 327 1513", "website": "https://uk.kutchenhaus.com/store-finder/altrincham", "brand": "Kutchenhaus"}, "geometry": {"type": "Point", "coordinates": [-2.3497, 53.38622]}},
{"type": "Feature", "id": "GYDl6-qGnALBVKiOu6-o0VZDPWU=", "properties": {"ref": "https://uk.kutchenhaus.com/store-finder/aberdeen", "@spider": "kutchenhaus_gb", "addr:full": "321 Holburn Street, Aberdeen, AB10 7FP, United Kingdom", "addr:postcode": "AB10 7FP", "addr:country": "GB", "name": "Aberdeen", "phone": "01224 591 458", "website": "https://uk.kutchenhaus.com/store-finder/aberdeen", "brand": "Kutchenhaus"}, "geometry": {"type": "Point", "coordinates": [-2.1147, 57.1355]}}]}