{"type":"FeatureCollection","features":[{"type": "Feature", "id": "Asjas8Xsp_3W5Dfjhm7OCDZh70I=", "properties": {"ref": "Progress Brewing", "@spider": "labreweries", "website": "https://labeerhop.com/breweries/progress-brewing/", "opening_hours": "Monday 3\u20137PM Tuesday Closed Wednesday Closed Thursday 3\u20139PM Friday 3\u201311PM Saturday 3\u201310PM Sunday 12\u20138PM"}},
{"type": "Feature", "id": "-3Ujh5l5vX62yoI2HQ2PFy_ZqUs=", "properties": {"ref": "Homage Brewing", "@spider": "labreweries", "website": "https://labeerhop.com/breweries/homage-brewing/", "opening_hours": "Mon-Tues: Closed Wed-Fri: 3pm-11pm Sat: 1pm-11pm Sun: 1pm-8pm"}},
{"type": "Feature", "id": "fxFhVH63w1lMEtSU8A3YzCMWM88=", "properties": {"ref": "Three Weavers Brewing", "@spider": "labreweries", "website": "https://labeerhop.com/breweries/three-weavers-brewing-co/", "opening_hours": "Tuesday 3\u201310PM Wednesday 3\u201310PM Thursday 3\u201310PM Friday 12PM\u201312AM Saturday 12PM\u201312AM Sunday 12\u201310PM"}},
{"type": "Feature", "id": "G1UoZ0AAHYQ2vJ5mm4a1GgVCKN8=", "properties": {"ref": "Brouwerij West", "@spider": "labreweries", "website": "https://labeerhop.com/breweries/brouwerij-west/", "opening_hours": "Wednesday: 4\u20139PM Thursday: 4\u20139PM Friday: 12\u201310PM Saturday: 12\u201310PM Sunday: 12\u20138PM"}},
{"type": "Feature", "id": "1GwE0R7_MstoIpkylmz0JFxENRw=", "properties": {"ref": "Arts District Brewery", "@spider": "labreweries", "website": "https://labeerhop.com/breweries/arts-district-brewery/", "opening_hours": "MON - THURS: 4PM - 12AM FRI: 4PM - 2AM SAT: 12PM - 2AM SUN: 12PM - 12AM"}},
{"type": "Feature", "id": "63qOx2dSw30Sn0yJ1yFGTthVGKw=", "properties": {"ref": "El Segundo Brewing", "@spider": "labreweries", "website": "https://labeerhop.com/breweries/el-segundo-brewing/", "opening_hours": "Monday 5\u20139PM Tuesday 5\u20139PM Wednesday 5\u20139PM Thursday 5\u201310PM Friday 4\u201311PM Saturday 12\u201311PM Sunday 12\u20137PM"}},
{"type": "Feature", "id": "Yld5j7rdygNxOCjOuDhhFcwz-H4=", "properties": {"ref": "Highland Park Brewery", "@spider": "labreweries", "website": "https://labeerhop.com/breweries/highland-park-brewery/", "opening_hours": "Monday 5PM\u20132AM Tuesday 5PM\u20132AM Wednesday 5PM\u20132AM Thursday 5PM\u20132AM Friday 12PM\u20132AM Saturday 12PM\u20132AM Sunday 12PM\u20132AM"}},
{"type": "Feature", "id": "G-eRg3YHXOZuFDeeG4eY3Tn47VI=", "properties": {"ref": "Sanctum Brewing", "@spider": "labreweries", "website": "https://labeerhop.com/breweries/sanctum-brewing/", "opening_hours": "Wednesday 4\u20139:30PM Thursday 4\u20139:30PM Friday 4\u20139:30PM Saturday 2\u20139:30PM Sunday 1\u20137PM"}},
{"type": "Feature", "id": "5ORG6zhLFfQpKO7VSip5dg6KjgU=", "properties": {"ref": "Claremont Craft Ales", "@spider": "labreweries", "website": "https://labeerhop.com/breweries/claremont-craft-ales/", "opening_hours": "Wednesday 4\u20139PM Thursday 4\u201310PM Friday 3\u201310PM Saturday 1\u201310PM Sunday 1\u20137PM"}},
{"type": "Feature", "id": "YL3rpD4X9ZQC15f7pp5x52bnRz0=", "properties": {"ref": "Wolf Creek Brewery", "@spider": "labreweries", "website": "https://labeerhop.com/breweries/wolf-creek-brewery/", "opening_hours": "Tuesday 4\u20139PM Wednesday 4\u20139PM Thursday 4\u20139PM Friday 3\u201310PM Saturday 12\u201310PM Sunday 12\u20136PM"}},
{"type": "Feature", "id": "fuWKGV3QqnwC52em8MKdGRHUBts=", "properties": {"ref": "Bravery Brewing", "@spider": "labreweries", "website": "https://labeerhop.com/breweries/bravery-brewing/", "opening_hours": "Monday 4\u201310PM Tuesday 4\u201310PM Wednesday 4\u201310PM Thursday 4\u201310PM Friday 4\u201311PM Saturday 12\u201311PM Sunday 12\u20137PM"}},
{"type": "Feature", "id": "aDa6R6aSIYrcOB-aQaPfOQcyI0A=", "properties": {"ref": "Kinetic Brewing", "@spider": "labreweries", "website": "https://labeerhop.com/breweries/kinetic-brewing/", "opening_hours": "Monday 11:30AM\u201310PM Tuesday 11:30AM\u201310PM Wednesday 11:30AM\u201310PM Thursday 11:30AM\u201311PM Friday 11:30AM\u201312AM Saturday 11:30AM\u201312AM Sunday 11:30AM\u20139PM"}},
{"type": "Feature", "id": "iFHcPfvC0S5AxZ7kefzcCN19D2w=", "properties": {"ref": "Institution Ales", "@spider": "labreweries", "website": "https://labeerhop.com/breweries/institution-ales/", "opening_hours": "Monday 11AM\u201311PM Tuesday 11AM\u201311PM Wednesday 11AM\u201311PM Thursday 11AM\u201311PM Friday 11AM\u201311PM Saturday 11AM\u201311PM Sunday 11AM\u20139PM"}},
{"type": "Feature", "id": "slgmF05eQyO2P9DyDOetoYPpSik=", "properties": {"ref": "Enegren Brewing", "@spider": "labreweries", "website": "https://labeerhop.com/breweries/enegren-brewing/", "opening_hours": "Wednesday 4\u20139PM Thursday 4\u20139PM Friday 4\u20139PM Saturday 11AM\u20138PM Sunday 12\u20135PM"}},
{"type": "Feature", "id": "vr7Q8gKHocay86dgatfkAQmo7Qw=", "properties": {"ref": "Red Car Brewery", "@spider": "labreweries", "website": "https://labeerhop.com/breweries/red-car-brewery/", "opening_hours": "Monday 11:30AM\u20139:30PM Tuesday 11:30AM\u20139:30PM Wednesday 11:30AM\u20139:30PM Thursday 11:30AM\u20139:30PM Friday 11:30AM\u201311PM Saturday 12\u201311PM Sunday 12\u20138:30PM"}},
{"type": "Feature", "id": "fik3Wb9SMUodi5-nDY6OTSeyuRM=", "properties": {"ref": "The Dudes Brewing Co.", "@spider": "labreweries", "website": "https://labeerhop.com/breweries/the-dudes-brewing-co/", "opening_hours": "Thursday 3\u201310PM Friday 3\u201310PM Saturday 12\u201310PM Sunday 12\u201310PM"}},
{"type": "Feature", "id": "gM7WlLWvWpoeVhVjifq_FZfujXY=", "properties": {"ref": "Homebound Beer Company", "@spider": "labreweries", "website": "https://labeerhop.com/breweries/homebound/", "opening_hours": "Monday 4PM\u201312AM Tuesday 4PM\u201312AM Wednesday 4PM\u201312AM Thursday 4PM\u201312AM Friday 4PM\u20132AM Saturday 12PM\u20132AM Sunday 12PM\u201312AM"}},
{"type": "Feature", "id": "00Cl4xzE_z-d9cjSZq-UCBBLfwA=", "properties": {"ref": "Eureka Brewing Company", "@spider": "labreweries", "website": "https://labeerhop.com/breweries/eureka/", "opening_hours": "M-F 4p-8p Sat &amp; Sun 12p-7p"}},
{"type": "Feature", "id": "lXskNPLdRPO6SYxZm1agL-lieso=", "properties": {"ref": "Upshift Brewing", "@spider": "labreweries", "website": "https://labeerhop.com/breweries/upshift-brewing/", "opening_hours": "Monday Closed Tuesday Closed Wednesday 4\u20139PM Thursday 4\u20139PM Friday 4\u201311PM Saturday 12\u201311PM Sunday 12\u20138PM"}},
{"type": "Feature", "id": "6HWUMV4bvbjrcPajS4er1AnYp_s=", "properties": {"ref": "Ogopogo Brewing", "@spider": "labreweries", "website": "https://labeerhop.com/breweries/ogopogo/", "opening_hours": "M \u2013 CLOSED T \u2013 CLOSED W \u2013 4-10 TH \u2013 4-10 F \u2013 4-10 SA \u2013 11-10 SU \u2013 11-8"}},
{"type": "Feature", "id": "LcRZFV70kIeSPmSF5OGE3lFl3cA=", "properties": {"ref": "101 Cider House", "@spider": "labreweries", "website": "https://labeerhop.com/breweries/101-cider-house/", "opening_hours": "By Appointment Only"}},
{"type": "Feature", "id": "fvJFRcQ_MnAzJEW8yTS7AdYDo5Y=", "properties": {"ref": "Transplants Brewing Company", "@spider": "labreweries", "website": "https://labeerhop.com/breweries/transplantsbrewing/", "opening_hours": "Monday 3-12AM Wednesday 3-12AM Thursday 3-12AM Friday 12pm-1AM Saturday 12PM\u20131AM Sunday 12\u201312AM"}},
{"type": "Feature", "id": "TPT_VTJYfbt5H-EamoR1uQc2xd4=", "properties": {"ref": "Angeleno Wine Company", "@spider": "labreweries", "website": "https://labeerhop.com/breweries/angeleno-wine-company/", "opening_hours": "Monday Closed Tuesday Closed Wednesday Closed Thursday Closed Friday Closed Saturday 12\u20138PM Sunday 12\u20136PM"}},
{"type": "Feature", "id": "1Ao6QpBqyBTqoZbR9XTwvREkygc=", "properties": {"ref": "Sage Vegan Bistro & Brewery", "@spider": "labreweries", "website": "https://labeerhop.com/breweries/sage-vegan-bistro-brewery/", "opening_hours": "Monday 8AM\u201312AM Tuesday 8AM\u201312AM Wednesday 8AM\u201312AM Thursday 8AM\u201312AM Friday 8AM\u20131AM Saturday 8AM\u20131AM Sunday 8AM\u201312AM"}},
{"type": "Feature", "id": "Wr5t_hMeJmtivY91W2enp1fFJmY=", "properties": {"ref": "8one8 Brewing", "@spider": "labreweries", "website": "https://labeerhop.com/breweries/8one8-brewing/", "opening_hours": "Monday 5\u201310PM Tuesday 5\u201310PM Wednesday 5\u201310PM Thursday 5PM\u201312AM Friday 5PM\u201312AM Saturday 12PM\u201312AM Sunday 11:55AM\u201310PM"}},
{"type": "Feature", "id": "vx3PLfSmoJn8iCCP9V8-leS4A68=", "properties": {"ref": "Frogtown Brewery", "@spider": "labreweries", "website": "https://labeerhop.com/breweries/frogtown-brewery/", "opening_hours": "Monday Closed Tuesday Closed Wednesday 5pm - 10pm Thursday 5pm - 10pm Friday 12pm - 10pm Saturday 12pm - 10pm Sunday 12pm - 8pm"}},
{"type": "Feature", "id": "9459cvaEqtbDsTma9asSy27vIrc=", "properties": {"ref": "Hand-Brewed Beer", "@spider": "labreweries", "website": "https://labeerhop.com/breweries/hand-brewed-beer/", "opening_hours": "Thurs: 5pm - 10pm Fri: 5pm - 10pm Sat: 12pm - 8pm Sun: 12pm - 6pm"}},
{"type": "Feature", "id": "xbGxoXVVqSy8clWwH6zwb_aRI_U=", "properties": {"ref": "Macleod Brewing Co.", "@spider": "labreweries", "website": "https://labeerhop.com/breweries/macleod-brewing-co/", "opening_hours": "Monday 5\u201310PM Tuesday 5\u201310PM Wednesday 5\u201310PM Thursday 5\u201310PM Friday 5\u201310PM Saturday 12\u201310PM Sunday 12\u201310PM"}},
{"type": "Feature", "id": "5dky06XEECnAgWD_KrjcIM5b5rA=", "properties": {"ref": "Tortugo Brewing", "@spider": "labreweries", "website": "https://labeerhop.com/breweries/tortugo-brewing/", "opening_hours": "Thursday 4PM\u201312AM Friday 12PM\u201312AM Saturday 12PM\u201312AM Sunday 12\u20136PM"}},
{"type": "Feature", "id": "mZLzPdGQKGp5BVonh23koKo-uR4=", "properties": {"ref": "Cellador Ales", "@spider": "labreweries", "website": "https://labeerhop.com/breweries/cellador-ales/", "opening_hours": "N/A"}},
{"type": "Feature", "id": "RWD3TkOx8Egr0AX8NlINM75qZ0E=", "properties": {"ref": "Trustworthy Brewing Co.", "@spider": "labreweries", "website": "https://labeerhop.com/breweries/verdugo-west-brewing/", "opening_hours": "Monday Closed Tuesday Closed Wednesday 4\u201310PM Thursday 4\u201310PM Friday 12\u201310PM Saturday 12\u201310PM Sunday 12\u20138PM"}},
{"type": "Feature", "id": "LP_GuUzN-yfr_icVFAOwv4x_f9c=", "properties": {"ref": "Belmont Brewing", "@spider": "labreweries", "website": "https://labeerhop.com/breweries/belmont-brewing/", "opening_hours": "Monday 11:30AM\u201311PM Tuesday 11:30AM\u201311PM Wednesday 11:30AM\u201311PM Thursday 11:30AM\u201311PM Friday 11:30AM\u201311:30PM Saturday 10AM\u201310PM Sunday 10AM\u201310PM"}},
{"type": "Feature", "id": "Ox-SAbp7frFONn59e59OpEMal8g=", "properties": {"ref": "Santa Monica Brew Works", "@spider": "labreweries", "website": "https://labeerhop.com/breweries/santa-monica-brew-works/", "opening_hours": "Mon 6:00 pm - 11:00 pm Tue 6:00 pm - 11:00 pm Wed 6:00 pm - 11:00 pm Thu 6:00 pm - 11:00 pm Fri 6:00 pm - 12:00 am Sat 12:00 pm - 12:00 am Sun 12:00 pm - 8:00 pm"}},
{"type": "Feature", "id": "2vjZBtOQc8j5YmqxB2564G6RljY=", "properties": {"ref": "Ambitious Ales", "@spider": "labreweries", "website": "https://labeerhop.com/breweries/ambitious-ales/", "opening_hours": "Monday Closed Tuesday Closed Wednesday Closed Thursday 3\u20139PM Friday 3\u201310PM Saturday 12\u201310PM Sunday 12\u20138PM"}},
{"type": "Feature", "id": "eYKR8Q9BBP6kOXNVM--uYId38T0=", "properties": {"ref": "Steady Brew Beer Co.", "@spider": "labreweries", "website": "https://labeerhop.com/breweries/steady-brew-beer-co/", "opening_hours": "Monday 12\u20139PM Tuesday 12\u20139PM Wednesday 12\u20139PM Thursday 12\u20139PM Friday 11AM\u201311PM Saturday 11AM\u201311PM Sunday 12\u20139PM"}},
{"type": "Feature", "id": "HD9zklL7_VEz6CVgtVeN3NQYHqA=", "properties": {"ref": "Pacific Plate Brewing Co.", "@spider": "labreweries", "website": "https://labeerhop.com/breweries/pacific-plate/", "opening_hours": "Monday 4\u201310PM Tuesday 4\u201310PM Wednesday 4\u201310PM Thursday 4\u201310PM Friday 4\u201310PM Saturday 12\u201310PM Sunday 12\u201310PM"}},
{"type": "Feature", "id": "VzNlDOGbEZkODHJRh2pTuORJwas=", "properties": {"ref": "Angry Horse Brewing", "@spider": "labreweries", "website": "https://labeerhop.com/breweries/angry-horse-brewing/", "opening_hours": "Monday Closed Tuesday Closed Wednesday 4\u201310PM Thursday 4\u201310PM Friday 4\u201312AM Saturday 12\u201312AM Sunday 12\u201310PM"}},
{"type": "Feature", "id": "90ilT9LYB0I0FGW7T3Nq4zIG4Eo=", "properties": {"ref": "Pocock Brewing", "@spider": "labreweries", "website": "https://labeerhop.com/breweries/pocock-brewing/", "opening_hours": "Monday Closed Tuesday 3-9PM Wednesday 3\u20139PM Thursday 3\u20139PM Friday 3\u201310PM Saturday 12\u201310PM Sunday 12\u20136PM"}},
{"type": "Feature", "id": "6cSX5wHcvbpvTh_WvpxA2BA0uoQ=", "properties": {"ref": "14 Cannons Brewery & Showroom", "@spider": "labreweries", "website": "https://labeerhop.com/breweries/14-cannons/", "opening_hours": "Monday 5\u201310PM Tuesday 5\u201310PM Wednesday 5\u201310PM Thursday 5\u201310PM Friday 4:30\u201311PM Saturday 12\u201311PM Sunday 12\u20137:30PM"}},
{"type": "Feature", "id": "koXS2MowipLGVlt7f9xwTBf_L2I=", "properties": {"ref": "Common Space", "@spider": "labreweries", "website": "https://labeerhop.com/breweries/common-space/", "opening_hours": "Monday 3\u201310PM Tuesday 3\u201310PM Wednesday 3\u201310PM Thursday 3\u201310PM Friday 12PM\u201312AM Saturday 12PM\u201312AM Sunday 12\u201310PM"}},
{"type": "Feature", "id": "f9KcKAJfHnTngKdlM9I4xgH44jw=", "properties": {"ref": "Arrow Lodge Brewing", "@spider": "labreweries", "website": "https://labeerhop.com/breweries/arrow-lodge-brewing/", "opening_hours": "Thursday: 5:00pm\u201310:00pm Friday: 4:00pm\u201312:00pm Saturday: 11:00am\u201312:00am Sunday: 11:00am\u201310:00pm"}},
{"type": "Feature", "id": "umiehyDsOaG9ov6MIL62sGvCjmI=", "properties": {"ref": "Strand Brewing Co.", "@spider": "labreweries", "website": "https://labeerhop.com/breweries/strand-brewing-co/", "opening_hours": "Wednesday 4\u20139PM Thursday 4\u20139PM Friday 4\u20139PM Saturday 12\u20139PM Sunday 12\u20138PM"}},
{"type": "Feature", "id": "YmSBr-rcIDvNV5juREv9VSLPCn0=", "properties": {"ref": "Phantom Carriage", "@spider": "labreweries", "website": "https://labeerhop.com/breweries/phantom-carriage/", "opening_hours": "Monday 3\u201310PM Tuesday 11:30AM\u201310PM Wednesday 11:30AM\u201310PM Thursday 11:30AM\u201310PM Friday 11:30AM\u201312AM Saturday 12PM\u201312AM Sunday 11AM\u20136PM"}},
{"type": "Feature", "id": "jVQ1pWrPUGr8NsehcQCswkArBww=", "properties": {"ref": "Monkish Brewing", "@spider": "labreweries", "website": "https://labeerhop.com/breweries/monkish-brewing/", "opening_hours": "Tuesday 4\u20139PM Wednesday 4\u20139PM Thursday 4\u20139PM Friday 2\u201310PM Saturday 12\u201310PM Sunday 1\u20138PM"}},
{"type": "Feature", "id": "HwZmFB8nQCnT8lIyJEjpna17pI4=", "properties": {"ref": "Absolution Brewing Co.", "@spider": "labreweries", "website": "https://labeerhop.com/breweries/absolution-brewing-co/", "opening_hours": "Wednesday 3\u20139PM Thursday 3\u20139PM Friday 11AM\u201310PM Saturday 11AM\u201310PM Sunday 12\u20136PM"}},
{"type": "Feature", "id": "0VwCk96uw9y75oJqQ7CLL9DMX3Y=", "properties": {"ref": "Beachwood BBQ & Brewing", "@spider": "labreweries", "website": "https://labeerhop.com/breweries/beachwood-bbq-brewing/", "opening_hours": "Tuesday 11:30AM\u201312AM Wednesday 11:30AM\u201312AM Thursday 11:30AM\u201312AM Friday 11:30AM\u201312AM Saturday 11:30AM\u201312AM Sunday 11:30AM\u201312AM"}},
{"type": "Feature", "id": "d-Im0LCO-FLh2G5vj4EZ2XJ3Gbo=", "properties": {"ref": "Beachwood Blendery", "@spider": "labreweries", "website": "https://labeerhop.com/breweries/beachwood-blendery/", "opening_hours": "Wednesday: 4-10pm Thursday: 4-10pm Friday: 4-11pm Saturday: 12-11pm Sunday: 12-7pm"}},
{"type": "Feature", "id": "MJUATJKVwpJy0q0bOHaS2QuyLzI=", "properties": {"ref": "Brewyard Beer Company", "@spider": "labreweries", "website": "https://labeerhop.com/breweries/brewyard-beer-company/", "opening_hours": "Wednesday 4:30\u201310PM Thursday 4:30\u201310PM Friday 4:30\u201310PM Saturday 1\u201310PM Sunday 1\u20136PM"}},
{"type": "Feature", "id": "_vCoC9DCJn7nLF5v0uRo8rOmOoA=", "properties": {"ref": "Mumford Brewing", "@spider": "labreweries", "website": "https://labeerhop.com/breweries/mumford-brewing/", "opening_hours": "Thursday 4\u20139PM Friday 4\u20139PM Saturday 12\u20139PM Sunday 12\u20136PM"}},
{"type": "Feature", "id": "usDO28PjeoJZqUUMQOmh7mZp95M=", "properties": {"ref": "Angel City Brewery", "@spider": "labreweries", "website": "https://labeerhop.com/breweries/angel-city-brewery/", "opening_hours": "Monday 4PM\u201312AM Tuesday 4PM\u201312AM Wednesday 4PM\u201312AM Thursday 4PM\u201312AM Friday 4PM\u20131AM Saturday 12PM\u20131AM Sunday 12PM\u201312AM"}},
{"type": "Feature", "id": "JD2RdIc6TFwrr1iRTwoyNHfkRpw=", "properties": {"ref": "Alosta Brewing Co.", "@spider": "labreweries", "website": "https://labeerhop.com/breweries/alosta-brewing-co/", "opening_hours": "Wednesday 4\u20139PM Thursday 4\u201310PM Friday 4\u201310PM Saturday 2\u201310PM Sunday 1\u20136PM"}},
{"type": "Feature", "id": "k70c6tbV8pTxZBTd-z0D2UBLLe0=", "properties": {"ref": "HopSaint", "@spider": "labreweries", "website": "https://labeerhop.com/breweries/hopsaint/", "opening_hours": "Monday 12\u20139:30PM Tuesday 12\u20139:30PM Wednesday 12\u20139:30PM Thursday 12\u20139:30PM Friday 12\u20139:30PM Saturday 12\u20139:30PM Sunday 12\u20139:30PM"}},
{"type": "Feature", "id": "RpdxuYfsjBLUn9reNFj8-31q8go=", "properties": {"ref": "Ten Mile Brewing Company", "@spider": "labreweries", "website": "https://labeerhop.com/breweries/ten-mile/", "opening_hours": "Monday Closed Tuesday Closed Wednesday 4\u20139PM Thursday 4\u20139PM Friday 3\u201311PM Saturday 12\u201311PM Sunday 1\u20138PM"}},
{"type": "Feature", "id": "3PiaJOSrPph1Jew_GUDUWIXkeAw=", "properties": {"ref": "Long Beach Beer Lab", "@spider": "labreweries", "website": "https://labeerhop.com/breweries/long-beach-beer-lab/", "opening_hours": "Monday 12\u201310PM Tuesday Closed Wednesday 5\u201310PM Thursday 12\u201310PM Friday 12PM\u201312AM Saturday 12PM\u201312AM Sunday 12\u201310PM"}},
{"type": "Feature", "id": "wsFr-tqW_jbLSc8QL6X1QtVRvaU=", "properties": {"ref": "Lincoln Beer Company", "@spider": "labreweries", "website": "https://labeerhop.com/breweries/lincoln-beer-company/", "opening_hours": "Monday 5-10pm Tuesday 5-10pm Wednesday 5-10pm Thursday 5-10pm Friday 5-10pm Saturday 12-10pm Sunday 12-8pm"}},
{"type": "Feature", "id": "LPDfnHg6tNGrZcrj2JB71vUBp-E=", "properties": {"ref": "Golden Road Brewing", "@spider": "labreweries", "website": "https://labeerhop.com/breweries/golden-road-brewing/", "opening_hours": "Monday 11AM\u201312AM Tuesday 11AM\u201312AM Wednesday 11AM\u201312AM Thursday 11AM\u201312AM Friday 11AM\u201312AM Saturday 10AM\u20132AM Sunday 10AM\u201312AM"}},
{"type": "Feature", "id": "o6t-Wqqz0In6sFMGXUqeMHm05yE=", "properties": {"ref": "Scholb Premium Ales", "@spider": "labreweries", "website": "https://labeerhop.com/breweries/scholb-premium-ales/", "opening_hours": "Thursday 4\u20139PM Friday 4\u20139PM Saturday 1\u20139PM Sunday 12\u20136PM"}},
{"type": "Feature", "id": "o5vcn6kpMevu_WukBuNj5j7CfUU=", "properties": {"ref": "Boomtown Brewery", "@spider": "labreweries", "website": "https://labeerhop.com/breweries/boomtown-brewery/", "opening_hours": "Monday 4pm-11pm Tuesday 4pm-11pm Wednesday 4pm-11pm Thursday 3pm-12am Friday 3pm-2am Saturday 12pm-2am Sunday 12pm-12am"}},
{"type": "Feature", "id": "d3KA2tTRaPbiwlqNeVPmwRn7v0g=", "properties": {"ref": "Firestone Walker Venice", "@spider": "labreweries", "website": "https://labeerhop.com/breweries/firestone-walker-venice/", "opening_hours": "Sunday - Thursday 11am - 11pm Friday - Saturday 11am - 12am"}},
{"type": "Feature", "id": "oyDZInbmFY5kl56VY2UrwTA4v_0=", "properties": {"ref": "King Harbor Brewing Company", "@spider": "labreweries", "website": "https://labeerhop.com/breweries/king-harbor/", "opening_hours": "Wednesday 4\u201310PM Thursday 4\u201310PM Friday 4\u201310PM Saturday 12\u20139PM Sunday 12\u20136PM"}},
{"type": "Feature", "id": "L8ZZJqT6xug8haNTrAN8AdpH184=", "properties": {"ref": "King Harbor Waterfront Tasting Room", "@spider": "labreweries", "website": "https://labeerhop.com/breweries/king-harbor-waterfront-tasting-room/", "opening_hours": "Monday 3\u20138PM Tuesday 3\u20138PM Wednesday 3\u20138PM Thursday 3\u201310PM Friday 12PM\u201312AM Saturday 12PM\u201312AM Sunday 12\u20138PM"}},
{"type": "Feature", "id": "Rrf6m8FYoZDy5y0AlPjwGiC1oSA=", "properties": {"ref": "Mt. Lowe Brewing", "@spider": "labreweries", "website": "https://labeerhop.com/breweries/mt-lowe-brewing/", "opening_hours": "Monday 3\u201310PM Tuesday 3\u201310PM Wednesday 3\u201310PM Thursday 3\u201310PM Friday 3PM\u201312AM Saturday 12PM\u201312AM Sunday 12\u201310PM"}},
{"type": "Feature", "id": "j5ULtWY2u8SugML_b3uFOc0paEM=", "properties": {"ref": "Eagle Rock Brewery", "@spider": "labreweries", "website": "https://labeerhop.com/breweries/eagle-rock-brewery/", "opening_hours": "Monday Closed Tuesday 4\u201310PM Wednesday 4\u201310PM Thursday 4\u201310PM Friday 4\u201310PM Saturday 12\u201310PM Sunday 12\u20138PM"}},
{"type": "Feature", "id": "H091FJEabaS1GFL86dRrSRaR64I=", "properties": {"ref": "Smog City Brewing", "@spider": "labreweries", "website": "https://labeerhop.com/breweries/smog-city-brewing-co/", "opening_hours": "Tuesday 3\u201310PM Wednesday 3\u201310PM Thursday 3\u201310PM Friday 12\u201310PM Saturday 12\u201310PM Sunday 12\u20138PM"}},
{"type": "Feature", "id": "-KKPSPYBzD8S2oUZzfeZtpSDcy8=", "properties": {"ref": "Twisted Oak Tavern and Brewery", "@spider": "labreweries", "website": "https://labeerhop.com/breweries/twistedoak/", "opening_hours": "Monday 11:30AM\u201310PM Tuesday 11:30AM\u201310PM Wednesday 11:30AM\u201310PM Thursday 11:30AM\u201311PM Friday 11:30AM\u20131AM Saturday 11AM\u20131AM Sunday 11AM\u201310PM"}},
{"type": "Feature", "id": "sxBsGpyfb559oAXXnhUdfwO5KQY=", "properties": {"ref": "Yorkshire Square Brewery", "@spider": "labreweries", "website": "https://labeerhop.com/breweries/yorkshire-square-brewery/", "opening_hours": "Monday Closed Tuesday Closed Wednesday 4\u201311PM Thursday 4\u201311PM Friday 4\u201311PM Saturday 12\u201311PM Sunday 12\u201311PM"}},
{"type": "Feature", "id": "18M5Qcm_t-yysfCVYy6_4zzEpFQ=", "properties": {"ref": "Lucky Luke Brewing", "@spider": "labreweries", "website": "https://labeerhop.com/breweries/lucky-luke-brewing/", "opening_hours": "Monday 4-10pm Tuesday 4-10pm Wednesday 4-10pm Thursday 4-10pm Friday 2-Midnight Saturday 12-Midnight Sunday 12-8pm"}},
{"type": "Feature", "id": "SzGdYAa6RRiLOZgxmXuJ4kHbvsw=", "properties": {"ref": "San Fernando Brewing", "@spider": "labreweries", "website": "https://labeerhop.com/breweries/san-fernando-brewing/", "opening_hours": "Thursday 12\u201310PM Friday 12\u201310PM Saturday 12\u201310PM Sunday 12\u20137PM"}},
{"type": "Feature", "id": "UxpYCdPFBbbTRh5tTUPSYsBUWJY=", "properties": {"ref": "Five Threads Brewing", "@spider": "labreweries", "website": "https://labeerhop.com/breweries/five-threads-brewing/", "opening_hours": "Monday 4\u20139PM Tuesday 3:30\u201310PM Wednesday 3:30\u201311PM Thursday 3:30\u201310PM Friday 3:30PM\u201312AM Saturday 1PM\u201312AM Sunday 1\u20137PM"}},
{"type": "Feature", "id": "ySMmNQ-ts66uyExEKqezjHzOg6I=", "properties": {"ref": "Westlake Brewing & Libation", "@spider": "labreweries", "website": "https://labeerhop.com/breweries/westlake-brewing-libation/", "opening_hours": "Monday Closed Tuesday Closed Wednesday 3\u201310PM Thursday 3\u201310PM Friday 3PM\u20131AM Saturday 12PM\u201312AM Sunday 12AM\u20137PM"}},
{"type": "Feature", "id": "67TQXCuDDyU546-W8BwB9m5R3G0=", "properties": {"ref": "Los Angeles Ale Works", "@spider": "labreweries", "website": "https://labeerhop.com/breweries/los-angeles-ale-works/", "opening_hours": "Monday Closed Tuesday Closed Wednesday 3\u201310PM Thursday 3\u201310PM Friday 3\u201311PM Saturday 12\u201311PM Sunday 12\u20138PM"}},
{"type": "Feature", "id": "AQHBrxv60D440P3qMNZOcqpfiMs=", "properties": {"ref": "Old Stump Brewing Co.", "@spider": "labreweries", "website": "https://labeerhop.com/breweries/old-stump-brewing-co/", "opening_hours": "Monday 3\u201310PM Tuesday Closed Wednesday 3\u201310PM Thursday 3\u201310PM Friday 3\u201311:30PM Saturday 12\u201311:30PM Sunday 12\u20138PM"}},
{"type": "Feature", "id": "GXAlXJ7PaWWiO9-btEAVpeguCsM=", "properties": {"ref": "La Verne Brewing Co.", "@spider": "labreweries", "website": "https://labeerhop.com/breweries/1056/", "opening_hours": "Monday Closed Tuesday 3\u20139:30PM Wednesday 3\u20139:30PM Thursday 3\u20139:30PM Friday 3\u201310PM Saturday 2\u201310PM Sunday 12\u20136PM"}},
{"type": "Feature", "id": "EbUBz3cXN9Eq7JIU9mTX9YZXJnQ=", "properties": {"ref": "Stone Brewing Co.", "@spider": "labreweries", "website": "https://labeerhop.com/breweries/stone-brewing-co/", "opening_hours": "Monday 11AM\u20139PM Tuesday 11AM\u20139PM Wednesday 11AM\u20139PM Thursday 11AM\u20139PM Friday 11AM\u201310PM Saturday 11AM\u201310PM Sunday 11AM\u20139PM"}},
{"type": "Feature", "id": "UcPqhYtTTSUZ12gGJbzZHDRTfOk=", "properties": {"ref": "Ballast Point Long Beach", "@spider": "labreweries", "website": "https://labeerhop.com/breweries/ballast-point-long-beach/", "opening_hours": "Mon-Sun: 11:00am\u201311:00pm"}},
{"type": "Feature", "id": "4KT0ZE4POd7jfBgVVsZ7h_hmF60=", "properties": {"ref": "Ohana Brewing", "@spider": "labreweries", "website": "https://labeerhop.com/breweries/ohana-brewing/", "opening_hours": "Monday 4\u20139PM Tuesday 4\u20139PM Wednesday 4\u20139PM Thursday 4\u20139PM Friday 11AM\u201310PM Saturday 11AM\u201310PM Sunday 11AM\u20135PM"}},
{"type": "Feature", "id": "e2fbPRVeOQAkS5V66UmENDOaFBU=", "properties": {"ref": "Craftsman Brewing Co.", "@spider": "labreweries", "website": "https://labeerhop.com/breweries/craftsman-brewing-co/", "opening_hours": "Never Open"}}]}