{"type":"FeatureCollection","features":[{"type": "Feature", "id": "yCP6xHzZVAr6SkUrA3Hwz79l-44=", "properties": {"ref": "Campbellsville", "@spider": "lees_famous_recipe", "amenity": "fast_food", "cuisine": "chicken", "takeaway": "yes", "addr:full": "501 East Broadway Street", "addr:city": "Campbellsville", "addr:state": "Kentucky", "addr:postcode": "42718", "addr:country": "US", "name": "Lee's Famous Recipe Chicken", "phone": "2704653542", "opening_hours": "Su 10:00-21:30; Mo 10:00-21:30; Tu 10:00-21:30; We 10:00-22:00; Th 10:00-22:00; Fr 10:00-22:00; Sa 10:00-22:00", "brand": "Lee's Famous Recipe Chicken", "brand:wikidata": "Q6512810", "nsi_id": "leesfamousrecipechicken-d2abf0"}, "geometry": {"type": "Point", "coordinates": [-85.340778, 37.343579]}},
{"type": "Feature", "id": "MmaHPwk-htZGBTstpzCv-SbAOl8=", "properties": {"ref": "Berea on Paint Lick Road", "@spider": "lees_famous_recipe", "amenity": "fast_food", "cuisine": "chicken", "takeaway": "yes", "addr:full": "339 Paint Lick Road", "addr:city": "Berea", "addr:state": "Kentucky", "addr:postcode": "40403", "addr:country": "US", "name": "Lee's Famous Recipe Chicken", "phone": "8599864522", "opening_hours": "Su 10:30-21:00; Mo 10:30-22:00; Tu 10:30-22:00; We 10:30-22:00; Th 10:30-22:00; Fr 10:30-22:00; Sa 10:30-22:00", "brand": "Lee's Famous Recipe Chicken", "brand:wikidata": "Q6512810", "nsi_id": "leesfamousrecipechicken-d2abf0"}, "geometry": {"type": "Point", "coordinates": [-84.31893, 37.568219]}},
{"type": "Feature", "id": "3jlIAgaBW9Adid5a_AXqIa2XVlM=", "properties": {"ref": "Bellevue", "@spider": "lees_famous_recipe", "amenity": "fast_food", "cuisine": "chicken", "takeaway": "yes", "addr:full": "33 Donner Meyer Drive", "addr:city": "Bellevue", "addr:state": "Kentucky", "addr:postcode": "41073", "addr:country": "US", "name": "Lee's Famous Recipe Chicken", "phone": "8594313310", "opening_hours": "Su 11:00-21:00; Mo 11:00-21:00; Tu 11:00-21:00; We 11:00-21:00; Th 11:00-21:00; Fr 11:00-21:00; Sa 11:00-21:00", "brand": "Lee's Famous Recipe Chicken", "brand:wikidata": "Q6512810", "nsi_id": "leesfamousrecipechicken-d2abf0"}, "geometry": {"type": "Point", "coordinates": [-84.482397, 39.098063]}},
{"type": "Feature", "id": "6-BGv06I5jr9d1sVp2oqHKNSVzQ=", "properties": {"ref": "Bardstown", "@spider": "lees_famous_recipe", "amenity": "fast_food", "cuisine": "chicken", "takeaway": "yes", "addr:full": "108 West John Rowan Blvd.", "addr:city": "Bardstown", "addr:state": "Kentucky", "addr:postcode": "40004", "addr:country": "US", "name": "Lee's Famous Recipe Chicken", "phone": "5023480296", "opening_hours": "Su 10:00-21:30; Mo 10:00-21:30; Tu 10:00-21:30; We 10:00-22:00; Th 10:00-22:00; Fr 10:00-22:00; Sa 10:00-22:00", "brand": "Lee's Famous Recipe Chicken", "brand:wikidata": "Q6512810", "nsi_id": "leesfamousrecipechicken-d2abf0"}, "geometry": {"type": "Point", "coordinates": [-85.466167, 37.826766]}},
{"type": "Feature", "id": "tlEoHoGDb2LlNcBt7MXWykZ94Fw=", "properties": {"ref": "Albany", "@spider": "lees_famous_recipe", "amenity": "fast_food", "cuisine": "chicken", "takeaway": "yes", "addr:full": "706 Tennessee Road", "addr:city": "Albany", "addr:state": "Kentucky", "addr:postcode": "42602", "addr:country": "US", "name": "Lee's Famous Recipe Chicken", "phone": "6063878639", "opening_hours": "Su 10:00-21:00; Mo 10:00-21:00; Tu 10:00-21:00; We 10:00-21:00; Th 10:00-21:00; Fr 10:00-21:00; Sa 10:00-21:00", "brand": "Lee's Famous Recipe Chicken", "brand:wikidata": "Q6512810", "nsi_id": "leesfamousrecipechicken-d2abf0"}, "geometry": {"type": "Point", "coordinates": [-85.129977, 36.683374]}},
{"type": "Feature", "id": "3hRvvqUejmpsd7S3hp3Uz0Gg_tM=", "properties": {"ref": "Richmond on National", "@spider": "lees_famous_recipe", "amenity": "fast_food", "cuisine": "chicken", "takeaway": "yes", "addr:full": "2410 National Road West", "addr:city": "Richmond", "addr:state": "Indiana", "addr:postcode": "47374", "addr:country": "US", "name": "Lee's Famous Recipe Chicken", "phone": "7659662043", "opening_hours": "Su 10:30-21:00; Mo 10:30-21:00; Tu 10:30-21:00; We 10:30-21:00; Th 10:30-21:00; Fr 10:00-21:00; Sa 10:00-21:00", "brand": "Lee's Famous Recipe Chicken", "brand:wikidata": "Q6512810", "nsi_id": "leesfamousrecipechicken-d2abf0"}, "geometry": {"type": "Point", "coordinates": [-84.934187, 39.824251]}},
{"type": "Feature", "id": "BRJNirjNZKEC9x30-NuSHsgXp9Q=", "properties": {"ref": "Richmond on Main", "@spider": "lees_famous_recipe", "amenity": "fast_food", "cuisine": "chicken", "takeaway": "yes", "addr:full": "1801 East Main Street", "addr:city": "Richmond", "addr:state": "Indiana", "addr:postcode": "47374", "addr:country": "US", "name": "Lee's Famous Recipe Chicken", "phone": "7659624913", "opening_hours": "Su 10:30-21:00; Mo 10:30-21:00; Tu 10:30-21:00; We 10:30-21:00; Th 10:30-21:00; Fr 10:00-21:00; Sa 10:00-21:00", "brand": "Lee's Famous Recipe Chicken", "brand:wikidata": "Q6512810", "nsi_id": "leesfamousrecipechicken-d2abf0"}, "geometry": {"type": "Point", "coordinates": [-84.877636, 39.829382]}},
{"type": "Feature", "id": "xYG1sddlgC15ZisGpAuIg16cC1s=", "properties": {"ref": "New Castle", "@spider": "lees_famous_recipe", "amenity": "fast_food", "cuisine": "chicken", "takeaway": "yes", "addr:full": "341 Trojan Lane", "addr:city": "New Castle", "addr:state": "Indiana", "addr:postcode": "47362", "addr:country": "US", "name": "Lee's Famous Recipe Chicken", "phone": "7655296278", "opening_hours": "Su 10:00-21:00; Mo 10:00-21:00; Tu 10:00-21:00; We 10:00-21:00; Th 10:00-21:00; Fr 10:00-21:00; Sa 10:00-21:00", "brand": "Lee's Famous Recipe Chicken", "brand:wikidata": "Q6512810", "nsi_id": "leesfamousrecipechicken-d2abf0"}, "geometry": {"type": "Point", "coordinates": [-85.384062, 39.909552]}},
{"type": "Feature", "id": "vaQYfSWHqESqBAzQbdk6yFVTc-Y=", "properties": {"ref": "New Albany", "@spider": "lees_famous_recipe", "amenity": "fast_food", "cuisine": "chicken", "takeaway": "yes", "addr:full": "728 Rolling Creek Drive", "addr:city": "New Albany", "addr:state": "Indiana", "addr:postcode": "47150", "addr:country": "US", "name": "Lee's Famous Recipe Chicken", "phone": "8129442001", "opening_hours": "Su 10:30-22:00; Mo 10:30-22:00; Tu 10:30-22:00; We 10:30-22:00; Th 10:30-22:00; Fr 10:30-22:00; Sa 10:30-22:00", "brand": "Lee's Famous Recipe Chicken", "brand:wikidata": "Q6512810", "nsi_id": "leesfamousrecipechicken-d2abf0"}, "geometry": {"type": "Point", "coordinates": [-85.819768, 38.325564]}},
{"type": "Feature", "id": "M6cEqIfTSUflnBGOKmPK43UF_RI=", "properties": {"ref": "Muncie", "@spider": "lees_famous_recipe", "amenity": "fast_food", "cuisine": "chicken", "takeaway": "yes", "addr:full": "2710 N. Wheeling Avenue", "addr:city": "Muncie", "addr:state": "Indiana", "addr:postcode": "47303", "addr:country": "US", "name": "Lee's Famous Recipe Chicken", "phone": "7658969075", "opening_hours": "Su 10:30-21:00; Mo 10:30-21:00; Tu 10:30-21:00; We 10:30-21:00; Th 10:30-21:00; Fr 10:00-21:00; Sa 10:00-21:00", "brand": "Lee's Famous Recipe Chicken", "brand:wikidata": "Q6512810", "nsi_id": "leesfamousrecipechicken-d2abf0"}, "geometry": {"type": "Point", "coordinates": [-85.400331, 40.215856]}},
{"type": "Feature", "id": "00O1d1yIPgP2zMOgL8CuL_3lW_8=", "properties": {"ref": "Ft. Wayne on Stellhorn", "@spider": "lees_famous_recipe", "amenity": "fast_food", "cuisine": "chicken", "takeaway": "yes", "addr:full": "6316 Stellhorn Road", "addr:city": "Ft. Wayne", "addr:state": "Indiana", "addr:postcode": "46815", "addr:country": "US", "name": "Lee's Famous Recipe Chicken", "phone": "2604852597", "opening_hours": "Su 11:00-20:00; Mo 11:00-20:00; Tu 11:00-20:00; We 11:00-20:00; Th 11:00-20:00; Fr 11:00-20:00; Sa 11:00-20:00;", "brand": "Lee's Famous Recipe Chicken", "brand:wikidata": "Q6512810", "nsi_id": "leesfamousrecipechicken-d2abf0"}, "geometry": {"type": "Point", "coordinates": [-85.061043, 41.120047]}},
{"type": "Feature", "id": "JauWiOeDiOYhUfEFQ3erogwgRWg=", "properties": {"ref": "Ft. Wayne on State", "@spider": "lees_famous_recipe", "amenity": "fast_food", "cuisine": "chicken", "takeaway": "yes", "addr:full": "404 West State Street", "addr:city": "Ft. Wayne", "addr:state": "Indiana", "addr:postcode": "46808", "addr:country": "US", "name": "Lee's Famous Recipe Chicken", "phone": "2604830972", "opening_hours": "Su 11:00-20:00; Mo 11:00-20:00; Tu 11:00-20:00; We 11:00-20:00; Th 11:00-20:00; Fr 11:00-20:00; Sa 11:00-20:00;", "brand": "Lee's Famous Recipe Chicken", "brand:wikidata": "Q6512810", "nsi_id": "leesfamousrecipechicken-d2abf0"}, "geometry": {"type": "Point", "coordinates": [-85.146879, 41.096432]}},
{"type": "Feature", "id": "cKH33RSzEYiosPQBxOgYa5-I7xY=", "properties": {"ref": "Ft. Wayne on Rudisill", "@spider": "lees_famous_recipe", "amenity": "fast_food", "cuisine": "chicken", "takeaway": "yes", "addr:full": "220 East Rudisill Blvd", "addr:city": "Ft. Wayne", "addr:state": "Indiana", "addr:postcode": "46806", "addr:country": "US", "name": "Lee's Famous Recipe Chicken", "phone": "2607444522", "opening_hours": "Su 11:00-20:00; Mo 11:00-20:00; Tu 11:00-20:00; We 11:00-20:00; Th 11:00-20:00; Fr 11:00-20:00; Sa 11:00-20:00;", "brand": "Lee's Famous Recipe Chicken", "brand:wikidata": "Q6512810", "nsi_id": "leesfamousrecipechicken-d2abf0"}, "geometry": {"type": "Point", "coordinates": [-85.133722, 41.049813]}},
{"type": "Feature", "id": "CHzePNHPNuqbrxskOXMax39Myks=", "properties": {"ref": "Ft. Wayne on Dupont", "@spider": "lees_famous_recipe", "amenity": "fast_food", "cuisine": "chicken", "takeaway": "yes", "addr:full": "1830 W. Dupont Road", "addr:city": "Ft. Wayne", "addr:state": "Indiana", "addr:postcode": "46818", "addr:country": "US", "name": "Lee's Famous Recipe Chicken", "phone": "2607396258", "opening_hours": "Su 11:00-20:00; Mo 11:00-20:00; Tu 11:00-20:00; We 11:00-20:00; Th 11:00-20:00; Fr 11:00-20:00; Sa 11:00-20:00;", "brand": "Lee's Famous Recipe Chicken", "brand:wikidata": "Q6512810", "nsi_id": "leesfamousrecipechicken-d2abf0"}, "geometry": {"type": "Point", "coordinates": [-85.168366, 41.177668]}},
{"type": "Feature", "id": "ZORzQOBzDQplNraMyDgV_aBRfH8=", "properties": {"ref": "Corydon", "@spider": "lees_famous_recipe", "amenity": "fast_food", "cuisine": "chicken", "takeaway": "yes", "addr:full": "2350 Landmark Ave", "addr:city": "Corydon", "addr:state": "Indiana", "addr:postcode": "47112", "addr:country": "US", "name": "Lee's Famous Recipe Chicken", "phone": "8127383400", "opening_hours": "Su 10:30-21:00; Mo 10:30-21:00; Tu 10:30-21:00; We 10:30-21:00; Th 10:30-21:00; Fr 10:30-21:00; Sa 10:30-21:00", "brand": "Lee's Famous Recipe Chicken", "brand:wikidata": "Q6512810", "nsi_id": "leesfamousrecipechicken-d2abf0"}, "geometry": {"type": "Point", "coordinates": [-86.126503, 38.235287]}},
{"type": "Feature", "id": "a8CPfDewjra-dA2mIawOW2tJwNk=", "properties": {"ref": "Connersville", "@spider": "lees_famous_recipe", "amenity": "fast_food", "cuisine": "chicken", "takeaway": "yes", "addr:full": "1012 Grand Avenue", "addr:city": "Connersville", "addr:state": "Indiana", "addr:postcode": "47331", "addr:country": "US", "name": "Lee's Famous Recipe Chicken", "phone": "7658250378", "opening_hours": "Su 10:30-21:00; Mo 10:30-21:00; Tu 10:30-21:00; We 10:30-21:00; Th 10:30-21:00; Fr 10:00-21:00; Sa 10:00-21:00", "brand": "Lee's Famous Recipe Chicken", "brand:wikidata": "Q6512810", "nsi_id": "leesfamousrecipechicken-d2abf0"}, "geometry": {"type": "Point", "coordinates": [-85.13622, 39.647044]}},
{"type": "Feature", "id": "7fZF8HyNclYNJM7y_z_Q2CWgS9I=", "properties": {"ref": "Nanaimo", "@spider": "lees_famous_recipe", "amenity": "fast_food", "cuisine": "chicken", "takeaway": "yes", "addr:full": "101520 5th Street", "addr:city": "Nanaimo", "addr:state": "BC", "addr:postcode": "V9R 1P2", "addr:country": "CA", "name": "Lee's Famous Recipe Chicken", "phone": "2507484424", "brand": "Lee's Famous Recipe Chicken", "brand:wikidata": "Q6512810", "nsi_id": "leesfamousrecipechicken-d2abf0"}, "geometry": {"type": "Point", "coordinates": [-123.954602, 49.155138]}},
{"type": "Feature", "id": "VU677Cih4e19nwPuCBIhEXt2cEI=", "properties": {"ref": "Duncan", "@spider": "lees_famous_recipe", "amenity": "fast_food", "cuisine": "chicken", "takeaway": "yes", "addr:full": "160 Trunk Road", "addr:city": "Duncan", "addr:state": "BC", "addr:postcode": "V9L 3R8", "addr:country": "CA", "name": "Lee's Famous Recipe Chicken", "phone": "2507484424", "brand": "Lee's Famous Recipe Chicken", "brand:wikidata": "Q6512810", "nsi_id": "leesfamousrecipechicken-d2abf0"}, "geometry": {"type": "Point", "coordinates": [-123.704123, 48.77683]}},
{"type": "Feature", "id": "-LlA462Ol7r96t1tJXknx1k1QSA=", "properties": {"ref": "Campbell River", "@spider": "lees_famous_recipe", "amenity": "fast_food", "cuisine": "chicken", "takeaway": "yes", "addr:full": "135 Brant Drive", "addr:city": "Campbell River", "addr:state": "BC", "addr:postcode": "V9H 1V8", "addr:country": "CA", "name": "Lee's Famous Recipe Chicken", "brand": "Lee's Famous Recipe Chicken", "brand:wikidata": "Q6512810", "nsi_id": "leesfamousrecipechicken-d2abf0"}, "geometry": {"type": "Point", "coordinates": [-125.28541, 50.014568]}},
{"type": "Feature", "id": "yra3zp42UwWCu7cLdRqvpq4K1DY=", "properties": {"ref": "Wausau", "@spider": "lees_famous_recipe", "amenity": "fast_food", "cuisine": "chicken", "takeaway": "yes", "addr:full": "2412 Grand Avenue", "addr:city": "Wausau", "addr:state": "Wisconsin", "addr:postcode": "54403", "addr:country": "US", "name": "Lee's Famous Recipe Chicken", "phone": "7158457206", "opening_hours": "Su 11:00-20:00; Mo 11:00-20:30; Tu 11:00-20:30; We 11:00-20:30; Th 11:00-20:30; Fr 11:00-21:00; Sa 11:00-16:00", "brand": "Lee's Famous Recipe Chicken", "brand:wikidata": "Q6512810", "nsi_id": "leesfamousrecipechicken-d2abf0"}, "geometry": {"type": "Point", "coordinates": [-89.615724, 44.932038]}},
{"type": "Feature", "id": "cNVqPFQUmAKyRg_XTw7QGyAAlck=", "properties": {"ref": "Richmond", "@spider": "lees_famous_recipe", "amenity": "fast_food", "cuisine": "chicken", "takeaway": "yes", "addr:full": "2200 West Broad Street", "addr:city": "Richmond", "addr:state": "Virginia", "addr:postcode": "23220", "addr:country": "US", "name": "Lee's Famous Recipe Chicken", "phone": "8043551059", "opening_hours": "Su 11:00-21:00; Mo 10:00-21:00; Tu 10:00-21:00; We 10:00-21:00; Th 10:00-21:00; Fr 10:00-21:00; Sa 10:30-21:00", "brand": "Lee's Famous Recipe Chicken", "brand:wikidata": "Q6512810", "nsi_id": "leesfamousrecipechicken-d2abf0"}, "geometry": {"type": "Point", "coordinates": [-77.462304, 37.558337]}},
{"type": "Feature", "id": "WemioeOCe7aanif7cwdjuR9n9Lg=", "properties": {"ref": "Oneida", "@spider": "lees_famous_recipe", "amenity": "fast_food", "cuisine": "chicken", "takeaway": "yes", "addr:full": "19570 Alberta Street", "addr:city": "Oneida", "addr:state": "Tennessee", "addr:postcode": "37841", "addr:country": "US", "name": "Lee's Famous Recipe Chicken", "phone": "4235695227", "opening_hours": "Su 7:00-20:30; Mo 6:00-20:30; Tu 6:00-20:30; We 6:00-20:30; Th 6:00-20:30; Fr 6:00-20:30; Sa 6:00-20:30", "brand": "Lee's Famous Recipe Chicken", "brand:wikidata": "Q6512810", "nsi_id": "leesfamousrecipechicken-d2abf0"}, "geometry": {"type": "Point", "coordinates": [-84.487359, 36.533514]}},
{"type": "Feature", "id": "QQnTdAPINM214SUBTl102TC2sRg=", "properties": {"ref": "Milan", "@spider": "lees_famous_recipe", "amenity": "fast_food", "cuisine": "chicken", "takeaway": "yes", "addr:full": "3099 Sout First Street", "addr:city": "Milan", "addr:state": "Tennessee", "addr:postcode": "38358", "addr:country": "US", "name": "Lee's Famous Recipe Chicken", "phone": "7316863226", "opening_hours": "Su 10:00-21:00; Mo 10:00-21:00; Tu 10:00-21:00; We 10:00-21:00; Th 10:00-21:00; Fr 10:00-21:00; Sa 10:00-21:00", "brand": "Lee's Famous Recipe Chicken", "brand:wikidata": "Q6512810", "nsi_id": "leesfamousrecipechicken-d2abf0"}, "geometry": {"type": "Point", "coordinates": [-88.753201, 35.914646]}},
{"type": "Feature", "id": "cKuEMqZ4-Lp8lp57v2is3Eli-as=", "properties": {"ref": "Alcoa", "@spider": "lees_famous_recipe", "amenity": "fast_food", "cuisine": "chicken", "takeaway": "yes", "addr:full": "523 Louisville Road", "addr:city": "Alcoa", "addr:state": "Tennessee", "addr:postcode": "37701", "addr:country": "US", "name": "Lee's Famous Recipe Chicken", "phone": "8659843880", "opening_hours": "Su 10:00-21:00; Mo 10:30-21:00; Tu 10:30-21:00; We 10:30-21:00; Th 10:30-21:00; Fr 10:30-21:00; Sa 10:00-21:00", "brand": "Lee's Famous Recipe Chicken", "brand:wikidata": "Q6512810", "nsi_id": "leesfamousrecipechicken-d2abf0"}, "geometry": {"type": "Point", "coordinates": [-83.983966, 35.769902]}},
{"type": "Feature", "id": "tvaWWcP32rRwOQqjPimRigL1Gyk=", "properties": {"ref": "Rock Hill", "@spider": "lees_famous_recipe", "amenity": "fast_food", "cuisine": "chicken", "takeaway": "yes", "addr:full": "738 Cherry Road", "addr:city": "Rock Hill", "addr:state": "South Carolina", "addr:postcode": "29730", "addr:country": "US", "name": "Lee's Famous Recipe Chicken", "phone": "8033665337", "opening_hours": "Su 11:00-21:00; Mo 11:00-21:00; Tu 11:00-21:00; We 11:00-21:00; Th 11:00-21:00; Fr 11:00-21:00; Sa 11:00-21:00", "brand": "Lee's Famous Recipe Chicken", "brand:wikidata": "Q6512810", "nsi_id": "leesfamousrecipechicken-d2abf0"}, "geometry": {"type": "Point", "coordinates": [-81.027027, 34.94441]}},
{"type": "Feature", "id": "32fN043pg9N7xQvfInlB9wkuHVQ=", "properties": {"ref": "Xenia", "@spider": "lees_famous_recipe", "amenity": "fast_food", "cuisine": "chicken", "takeaway": "yes", "addr:full": "550 West Main Street", "addr:city": "Xenia", "addr:state": "Ohio", "addr:postcode": "45385", "addr:country": "US", "name": "Lee's Famous Recipe Chicken", "phone": "9373762299", "opening_hours": "Su 10:30-22:00; Mo 10:30-22:00; Tu 10:30-22:00; We 10:30-22:00; Th 10:30-22:00; Fr 10:30-22:00; Sa 10:30-22:00", "brand": "Lee's Famous Recipe Chicken", "brand:wikidata": "Q6512810", "nsi_id": "leesfamousrecipechicken-d2abf0"}, "geometry": {"type": "Point", "coordinates": [-83.939294, 39.684294]}},
{"type": "Feature", "id": "Lgg1CycAhJmgOxSsx4M0Y4SDc58=", "properties": {"ref": "Wapakoneta", "@spider": "lees_famous_recipe", "amenity": "fast_food", "cuisine": "chicken", "takeaway": "yes", "addr:full": "311 West Harrison Street", "addr:city": "Wapakoneta", "addr:state": "Ohio", "addr:postcode": "45895", "addr:country": "US", "name": "Lee's Famous Recipe Chicken", "phone": "4197384910", "opening_hours": "Su 10:30-20:30; Mo 10:30-21:00; Tu 10:30-21:00; We 10:30-21:00; Th 10:30-21:00; Fr 10:30-21:00; Sa 10:30-21:00", "brand": "Lee's Famous Recipe Chicken", "brand:wikidata": "Q6512810", "nsi_id": "leesfamousrecipechicken-d2abf0"}, "geometry": {"type": "Point", "coordinates": [-84.197224, 40.571945]}},
{"type": "Feature", "id": "BS_jIgGcsDLdjA1JvLtpc6ih3NY=", "properties": {"ref": "Trotwood", "@spider": "lees_famous_recipe", "amenity": "fast_food", "cuisine": "chicken", "takeaway": "yes", "addr:full": "885 East Main Street", "addr:city": "Trotwood", "addr:state": "Ohio", "addr:postcode": "45426", "addr:country": "US", "name": "Lee's Famous Recipe Chicken", "phone": "9378372505", "opening_hours": "Su 10:30-22:00; Mo 10:30-22:00; Tu 10:30-22:00; We 10:30-22:00; Th 10:30-22:00; Fr 10:30-22:00; Sa 10:30-22:00;", "brand": "Lee's Famous Recipe Chicken", "brand:wikidata": "Q6512810", "nsi_id": "leesfamousrecipechicken-d2abf0"}, "geometry": {"type": "Point", "coordinates": [-84.294217, 39.797838]}},
{"type": "Feature", "id": "tuWwo8Vj5wrUSlPWy39x3Epjols=", "properties": {"ref": "Trenton", "@spider": "lees_famous_recipe", "amenity": "fast_food", "cuisine": "chicken", "takeaway": "yes", "addr:full": "815 W State Street", "addr:city": "Trenton", "addr:state": "Ohio", "addr:postcode": "45067", "addr:country": "US", "name": "Lee's Famous Recipe Chicken", "phone": "5139885118", "opening_hours": "Su 10:30-21:00; Mo 10:30-21:00; Tu 10:30-21:00; We 10:30-21:00; Th 10:30-21:00; Fr 10:30-21:00; Sa 10:30-21:00;", "brand": "Lee's Famous Recipe Chicken", "brand:wikidata": "Q6512810", "nsi_id": "leesfamousrecipechicken-d2abf0"}, "geometry": {"type": "Point", "coordinates": [-84.471414, 39.480358]}},
{"type": "Feature", "id": "n66eeb9mUCy-jiFx4vcWhGe1Ur0=", "properties": {"ref": "Tiffin", "@spider": "lees_famous_recipe", "amenity": "fast_food", "cuisine": "chicken", "takeaway": "yes", "addr:full": "115 North Washington Street", "addr:city": "Tiffin", "addr:state": "Ohio", "addr:postcode": "44883", "addr:country": "US", "name": "Lee's Famous Recipe Chicken", "phone": "4194484676", "opening_hours": "Su 10:30-21:00; Mo 10:30-21:00; Tu 10:30-21:00; We 10:30-21:00; Th 10:30-21:00; Fr 10:30-21:00; Sa 10:30-21:00", "brand": "Lee's Famous Recipe Chicken", "brand:wikidata": "Q6512810", "nsi_id": "leesfamousrecipechicken-d2abf0"}, "geometry": {"type": "Point", "coordinates": [-83.177928, 41.121101]}},
{"type": "Feature", "id": "Zr1SpFpD5f2_-ItXjyYC_pV9aOw=", "properties": {"ref": "St. Mary's", "@spider": "lees_famous_recipe", "amenity": "fast_food", "cuisine": "chicken", "takeaway": "yes", "addr:full": "1456 Celina Road", "addr:city": "St. Mary's", "addr:state": "Ohio", "addr:postcode": "45885", "addr:country": "US", "name": "Lee's Famous Recipe Chicken", "phone": "4193948449", "opening_hours": "Su 10:30-19:30; Mo 10:30-19:30;  We 10:30-19:30; Th 10:30-19:30; Fr 10:30-20:00; Sa 10:30-20:00", "brand": "Lee's Famous Recipe Chicken", "brand:wikidata": "Q6512810", "nsi_id": "leesfamousrecipechicken-d2abf0"}, "geometry": {"type": "Point", "coordinates": [-84.405454, 40.544736]}},
{"type": "Feature", "id": "bfsXsThq4hZrJ1dLELesnwf8UsQ=", "properties": {"ref": "Springfield on Limestone", "@spider": "lees_famous_recipe", "amenity": "fast_food", "cuisine": "chicken", "takeaway": "yes", "addr:full": "1902 South Limestone", "addr:city": "Springfield", "addr:state": "Ohio", "addr:postcode": "45505", "addr:country": "US", "name": "Lee's Famous Recipe Chicken", "phone": "9373228091", "opening_hours": "Su 10:30-21:00; Mo 10:30-21:00; Tu 10:30-21:00; We 10:30-21:00; Th 10:30-21:00; Fr 10:30-21:00; Sa 10:30-21:00;", "brand": "Lee's Famous Recipe Chicken", "brand:wikidata": "Q6512810", "nsi_id": "leesfamousrecipechicken-d2abf0"}, "geometry": {"type": "Point", "coordinates": [-83.810576, 39.900635]}},
{"type": "Feature", "id": "stiN75a5migNHyTeNPMiNnzuGTk=", "properties": {"ref": "Springfield on East Home", "@spider": "lees_famous_recipe", "amenity": "fast_food", "cuisine": "chicken", "takeaway": "yes", "addr:full": "301 East Home Road", "addr:city": "Springfield", "addr:state": "Ohio", "addr:postcode": "45503", "addr:country": "US", "name": "Lee's Famous Recipe Chicken", "phone": "9373994834", "opening_hours": "Su 10:30-21:00; Mo 10:30-21:00; Tu 10:30-21:00; We 10:30-21:00; Th 10:30-21:00; Fr 10:30-21:00; Sa 10:30-21:00;", "brand": "Lee's Famous Recipe Chicken", "brand:wikidata": "Q6512810", "nsi_id": "leesfamousrecipechicken-d2abf0"}, "geometry": {"type": "Point", "coordinates": [-83.801753, 39.952818]}},
{"type": "Feature", "id": "ZzGEAl03TQtBr2ZDOYodiAoTYKY=", "properties": {"ref": "Springfield on Columbia", "@spider": "lees_famous_recipe", "amenity": "fast_food", "cuisine": "chicken", "takeaway": "yes", "addr:full": "410 West Columbia", "addr:city": "Springfield", "addr:state": "Ohio", "addr:postcode": "45504", "addr:country": "US", "name": "Lee's Famous Recipe Chicken", "phone": "9373241938", "opening_hours": "Su 10:30-21:00; Mo 10:30-21:00; Tu 10:30-21:00; We 10:30-21:00; Th 10:30-21:00; Fr 10:30-21:00; Sa 10:30-21:00;", "brand": "Lee's Famous Recipe Chicken", "brand:wikidata": "Q6512810", "nsi_id": "leesfamousrecipechicken-d2abf0"}, "geometry": {"type": "Point", "coordinates": [-83.817995, 39.926737]}},
{"type": "Feature", "id": "w6UwqqgxJmyfIFeJW5wL4v5bjkM=", "properties": {"ref": "Sidney", "@spider": "lees_famous_recipe", "amenity": "fast_food", "cuisine": "chicken", "takeaway": "yes", "addr:full": "1230 Wapakoneta Road", "addr:city": "Sidney", "addr:state": "Ohio", "addr:postcode": "45365", "addr:country": "US", "name": "Lee's Famous Recipe Chicken", "phone": "9374981544", "opening_hours": "Su 10:30-21:00; Mo 10:30-21:00; Tu 10:30-21:00; We 10:30-21:00; Th 10:30-21:00; Fr 10:30-21:00; Sa 10:30-21:00;", "brand": "Lee's Famous Recipe Chicken", "brand:wikidata": "Q6512810", "nsi_id": "leesfamousrecipechicken-d2abf0"}, "geometry": {"type": "Point", "coordinates": [-84.158107, 40.299954]}},
{"type": "Feature", "id": "RxxI5vXPuZxIJyt70g6kSr6HZXE=", "properties": {"ref": "Sandusky", "@spider": "lees_famous_recipe", "amenity": "fast_food", "cuisine": "chicken", "takeaway": "yes", "addr:full": "4205 Milan Road", "addr:city": "Sandusky", "addr:state": "Ohio", "addr:postcode": "44870", "addr:country": "US", "name": "Lee's Famous Recipe Chicken", "phone": "4196270021", "opening_hours": "Su 11:30-20:00; Mo 11:30-20:00; Tu 11:30-20:00; We 11:30-20:00; Th 11:30-20:00; Fr 11:30-21:00; Sa 11:30-21:00", "brand": "Lee's Famous Recipe Chicken", "brand:wikidata": "Q6512810", "nsi_id": "leesfamousrecipechicken-d2abf0"}, "geometry": {"type": "Point", "coordinates": [-82.674142, 41.41746]}},
{"type": "Feature", "id": "i4VssQ_8NP7GPSU_GSE2BDFKmd4=", "properties": {"ref": "Piqua", "@spider": "lees_famous_recipe", "amenity": "fast_food", "cuisine": "chicken", "takeaway": "yes", "addr:full": "102 South Sunset", "addr:city": "Piqua", "addr:state": "Ohio", "addr:postcode": "45356", "addr:country": "US", "name": "Lee's Famous Recipe Chicken", "phone": "9377781220", "opening_hours": "Su 10:30-21:00; Mo 10:30-21:00; Tu 10:30-21:00; We 10:30-21:00; Th 10:30-21:00; Fr 10:30-21:00; Sa 10:30-21:00;", "brand": "Lee's Famous Recipe Chicken", "brand:wikidata": "Q6512810", "nsi_id": "leesfamousrecipechicken-d2abf0"}, "geometry": {"type": "Point", "coordinates": [-84.26825, 40.141781]}},
{"type": "Feature", "id": "Q0HPOmPBFlP2lHjkPxeoOLQlcfU=", "properties": {"ref": "Newark on Main", "@spider": "lees_famous_recipe", "amenity": "fast_food", "cuisine": "chicken", "takeaway": "yes", "addr:full": "1005 West Main Street", "addr:city": "Newark", "addr:state": "Ohio", "addr:postcode": "43055", "addr:country": "US", "name": "Lee's Famous Recipe Chicken", "phone": "7403444178", "opening_hours": "Su 10:30-21:00; Mo 10:30-21:00; Tu 10:30-21:00; We 10:30-21:00; Th 10:30-21:00; Fr 10:30-21:00; Sa 10:30-21:00", "brand": "Lee's Famous Recipe Chicken", "brand:wikidata": "Q6512810", "nsi_id": "leesfamousrecipechicken-d2abf0"}, "geometry": {"type": "Point", "coordinates": [-82.439829, 40.048998]}},
{"type": "Feature", "id": "rEfQpDylS9DLbxqEc2i_Khu69-g=", "properties": {"ref": "Newark on 21st Street", "@spider": "lees_famous_recipe", "amenity": "fast_food", "cuisine": "chicken", "takeaway": "yes", "addr:full": "1635 North 21st Street", "addr:city": "Newark", "addr:state": "Ohio", "addr:postcode": "43055", "addr:country": "US", "name": "Lee's Famous Recipe Chicken", "phone": "7403661424", "opening_hours": "Su 10:30-21:00; Mo 10:30-21:00; Tu 10:30-21:00; We 10:30-21:00; Th 10:30-21:00; Fr 10:30-21:00; Sa 10:30-21:00", "brand": "Lee's Famous Recipe Chicken", "brand:wikidata": "Q6512810", "nsi_id": "leesfamousrecipechicken-d2abf0"}, "geometry": {"type": "Point", "coordinates": [-82.427392, 40.092651]}},
{"type": "Feature", "id": "9jw2FwSs6rI35j-PkzyCsVXDAfc=", "properties": {"ref": "New Philadelphia", "@spider": "lees_famous_recipe", "amenity": "fast_food", "cuisine": "chicken", "takeaway": "yes", "addr:full": "119 Commercial Ave SW", "addr:city": "New Philadelphia", "addr:state": "Ohio", "addr:postcode": "44663", "addr:country": "US", "name": "Lee's Famous Recipe Chicken", "phone": "3303391848", "opening_hours": "Su 11:00-20:00; Mo 11:00-21:00; Tu 11:00-21:00; We 11:00-21:00; Th 11:00-21:00; Fr 11:00-21:00; Sa 11:00-21:00", "brand": "Lee's Famous Recipe Chicken", "brand:wikidata": "Q6512810", "nsi_id": "leesfamousrecipechicken-d2abf0"}, "geometry": {"type": "Point", "coordinates": [-81.449521, 40.478888]}},
{"type": "Feature", "id": "IaQjnqKCYpAa2Tt_HLSPytIBh2E=", "properties": {"ref": "New Carlisle", "@spider": "lees_famous_recipe", "amenity": "fast_food", "cuisine": "chicken", "takeaway": "yes", "addr:full": "303 North Main Street", "addr:city": "New Carlisle", "addr:state": "Ohio", "addr:postcode": "45344", "addr:country": "US", "name": "Lee's Famous Recipe Chicken", "phone": "9378453303", "opening_hours": "Su 10:30-21:00; Mo 10:30-21:00; Tu 10:30-21:00; We 10:30-21:00; Th 10:30-21:00; Fr 10:30-21:00; Sa 10:30-21:00;", "brand": "Lee's Famous Recipe Chicken", "brand:wikidata": "Q6512810", "nsi_id": "leesfamousrecipechicken-d2abf0"}, "geometry": {"type": "Point", "coordinates": [-84.024814, 39.939406]}},
{"type": "Feature", "id": "JIvKHYsZjB2ymTS9NXj1fiX38f0=", "properties": {"ref": "Mt. Orab", "@spider": "lees_famous_recipe", "amenity": "fast_food", "cuisine": "chicken", "takeaway": "yes", "addr:full": "103 Glover Drive", "addr:city": "Mt. Orab", "addr:state": "Ohio", "addr:postcode": "45154", "addr:country": "US", "name": "Lee's Famous Recipe Chicken", "phone": "9374440114", "opening_hours": "Su 11:00-20:30; Mo 10:30-20:30; Tu 10:30-20:30; We 10:30-20:30; Th 10:30-20:30; Fr 10:30-20:30; Sa 10:30-20:30", "brand": "Lee's Famous Recipe Chicken", "brand:wikidata": "Q6512810", "nsi_id": "leesfamousrecipechicken-d2abf0"}, "geometry": {"type": "Point", "coordinates": [-83.920728, 39.044586]}},
{"type": "Feature", "id": "c7fDP5z4zTWDPS4I8vH4nLyRT9o=", "properties": {"ref": "Middletown on Verity", "@spider": "lees_famous_recipe", "amenity": "fast_food", "cuisine": "chicken", "takeaway": "yes", "addr:full": "2011 N Verity Parkway", "addr:city": "Middletown", "addr:state": "Ohio", "addr:postcode": "45042", "addr:country": "US", "name": "Lee's Famous Recipe Chicken", "phone": "5134232999", "opening_hours": "Su 10:30-21:00; Mo 10:30-21:00; Tu 10:30-21:00; We 10:30-21:00; Th 10:30-21:00; Fr 10:30-21:00; Sa 10:30-21:00;", "brand": "Lee's Famous Recipe Chicken", "brand:wikidata": "Q6512810", "nsi_id": "leesfamousrecipechicken-d2abf0"}, "geometry": {"type": "Point", "coordinates": [-84.38992, 39.526594]}},
{"type": "Feature", "id": "qsINasVvwInfQgbA6nMXliTK1hk=", "properties": {"ref": "Middletown on Breiel", "@spider": "lees_famous_recipe", "amenity": "fast_food", "cuisine": "chicken", "takeaway": "yes", "addr:full": "604 S. Breiel Blvd.", "addr:city": "Middletown", "addr:state": "Ohio", "addr:postcode": "45044", "addr:country": "US", "name": "Lee's Famous Recipe Chicken", "phone": "5134240264", "opening_hours": "Su 10:30-21:00; Mo 10:30-21:00; Tu 10:30-21:00; We 10:30-21:00; Th 10:30-21:00; Fr 10:30-21:00; Sa 10:30-21:00;", "brand": "Lee's Famous Recipe Chicken", "brand:wikidata": "Q6512810", "nsi_id": "leesfamousrecipechicken-d2abf0"}, "geometry": {"type": "Point", "coordinates": [-84.355695, 39.504603]}},
{"type": "Feature", "id": "8-kSejn-bon9G6DCnV9m3QIBKgA=", "properties": {"ref": "Miamisburg", "@spider": "lees_famous_recipe", "amenity": "fast_food", "cuisine": "chicken", "takeaway": "yes", "addr:full": "201 North Main Street", "addr:city": "Miamisburg", "addr:state": "Ohio", "addr:postcode": "45342", "addr:country": "US", "name": "Lee's Famous Recipe Chicken", "phone": "9378669877", "opening_hours": "Su 10:30-22:00; Mo 10:30-22:00; Tu 10:30-22:00; We 10:30-22:00; Th 10:30-22:00; Fr 10:30-22:00; Sa 10:30-22:00", "brand": "Lee's Famous Recipe Chicken", "brand:wikidata": "Q6512810", "nsi_id": "leesfamousrecipechicken-d2abf0"}, "geometry": {"type": "Point", "coordinates": [-84.288624, 39.64473]}},
{"type": "Feature", "id": "UtfK4j9RRH5aUzivsoM7DAsLF-0=", "properties": {"ref": "Marion", "@spider": "lees_famous_recipe", "amenity": "fast_food", "cuisine": "chicken", "takeaway": "yes", "addr:full": "571 East Center Street", "addr:city": "Marion", "addr:state": "Ohio", "addr:postcode": "43302", "addr:country": "US", "name": "Lee's Famous Recipe Chicken", "phone": "7403873277", "opening_hours": "Su 10:30-21:00; Mo 10:30-21:00; Tu 10:30-21:00; We 10:30-21:00; Th 10:30-21:00; Fr 10:30-21:00; Sa 10:30-21:00", "brand": "Lee's Famous Recipe Chicken", "brand:wikidata": "Q6512810", "nsi_id": "leesfamousrecipechicken-d2abf0"}, "geometry": {"type": "Point", "coordinates": [-83.116038, 40.58886]}},
{"type": "Feature", "id": "eDLl7BEX1oteH7Ph84aMGw5-u8U=", "properties": {"ref": "Lima on Bellefontaine", "@spider": "lees_famous_recipe", "amenity": "fast_food", "cuisine": "chicken", "takeaway": "yes", "addr:full": "959 Bellefontaine Avenue", "addr:city": "Lima", "addr:state": "Ohio", "addr:postcode": "45804", "addr:country": "US", "name": "Lee's Famous Recipe Chicken", "phone": "4192289562", "opening_hours": "Su 10:30-21:00; Mo 10:30-21:00; Tu 10:30-21:00; We 10:30-21:00; Th 10:30-21:00; Fr 10:30-21:00; Sa 10:30-21:00;", "brand": "Lee's Famous Recipe Chicken", "brand:wikidata": "Q6512810", "nsi_id": "leesfamousrecipechicken-d2abf0"}, "geometry": {"type": "Point", "coordinates": [-84.088591, 40.736512]}},
{"type": "Feature", "id": "ANvG7EExwT3OIH_ZN6ZVrjaeqG4=", "properties": {"ref": "Lima on Allentown", "@spider": "lees_famous_recipe", "amenity": "fast_food", "cuisine": "chicken", "takeaway": "yes", "addr:full": "1425 Allentown Road", "addr:city": "Lima", "addr:state": "Ohio", "addr:postcode": "45805", "addr:country": "US", "name": "Lee's Famous Recipe Chicken", "phone": "4192242966", "opening_hours": "Su 10:30-21:00; Mo 10:30-21:00; Tu 10:30-21:00; We 10:30-21:00; Th 10:30-21:00; Fr 10:30-21:00; Sa 10:30-21:00;", "brand": "Lee's Famous Recipe Chicken", "brand:wikidata": "Q6512810", "nsi_id": "leesfamousrecipechicken-d2abf0"}, "geometry": {"type": "Point", "coordinates": [-84.132105, 40.744244]}},
{"type": "Feature", "id": "IAjZQkGy2PeY9I6D6Qy6v5djfyU=", "properties": {"ref": "Kettering", "@spider": "lees_famous_recipe", "amenity": "fast_food", "cuisine": "chicken", "takeaway": "yes", "addr:full": "4030 Wilmington Pike", "addr:city": "Kettering", "addr:state": "Ohio", "addr:postcode": "45429", "addr:country": "US", "name": "Lee's Famous Recipe Chicken", "phone": "9372990609", "opening_hours": "Su 10:30-22:00; Mo 10:30-22:00; Tu 10:30-22:00; We 10:30-22:00; Th 10:30-22:00; Fr 10:30-22:00; Sa 10:30-22:00", "brand": "Lee's Famous Recipe Chicken", "brand:wikidata": "Q6512810", "nsi_id": "leesfamousrecipechicken-d2abf0"}, "geometry": {"type": "Point", "coordinates": [-84.131275, 39.688312]}},
{"type": "Feature", "id": "MVsBsWXnjmj-xhtkFQeonNzkeoY=", "properties": {"ref": "Huber Heights", "@spider": "lees_famous_recipe", "amenity": "fast_food", "cuisine": "chicken", "takeaway": "yes", "addr:full": "6315 Chambersburg Road", "addr:city": "Huber Heights", "addr:state": "Ohio", "addr:postcode": "45424", "addr:country": "US", "name": "Lee's Famous Recipe Chicken", "phone": "9372337320", "opening_hours": "Su 10:30-22:00; Mo 10:30-22:00; Tu 10:30-22:00; We 10:30-22:00; Th 10:30-22:00; Fr 10:30-22:00; Sa 10:30-22:00", "brand": "Lee's Famous Recipe Chicken", "brand:wikidata": "Q6512810", "nsi_id": "leesfamousrecipechicken-d2abf0"}, "geometry": {"type": "Point", "coordinates": [-84.115228, 39.847264]}},
{"type": "Feature", "id": "kjN5M5UxY6tPP3johs6SyyilKsA=", "properties": {"ref": "Fremont", "@spider": "lees_famous_recipe", "amenity": "fast_food", "cuisine": "chicken", "takeaway": "yes", "addr:full": "322 East State Street", "addr:city": "Fremont", "addr:state": "Ohio", "addr:postcode": "43420", "addr:country": "US", "name": "Lee's Famous Recipe Chicken", "phone": "4193349610", "opening_hours": "Su 10:00-20:00; Mo 10:00-20:00; Tu 10:00-20:00; We 10:00-20:00; Th 10:00-20:00; Fr 10:00-21:00; Sa 10:00-21:00", "brand": "Lee's Famous Recipe Chicken", "brand:wikidata": "Q6512810", "nsi_id": "leesfamousrecipechicken-d2abf0"}, "geometry": {"type": "Point", "coordinates": [-83.107838, 41.346277]}},
{"type": "Feature", "id": "oPsEh0A3zRdWarPRh8YyXpjgldg=", "properties": {"ref": "Franklin", "@spider": "lees_famous_recipe", "amenity": "fast_food", "cuisine": "chicken", "takeaway": "yes", "addr:full": "1031 East Second Street", "addr:city": "Franklin", "addr:state": "Ohio", "addr:postcode": "45005", "addr:country": "US", "name": "Lee's Famous Recipe Chicken", "phone": "9377466331", "opening_hours": "Su 10:30-22:00; Mo 10:30-22:00; Tu 10:30-22:00; We 10:30-22:00; Th 10:30-22:00; Fr 10:30-22:00; Sa 10:30-22:00;", "brand": "Lee's Famous Recipe Chicken", "brand:wikidata": "Q6512810", "nsi_id": "leesfamousrecipechicken-d2abf0"}, "geometry": {"type": "Point", "coordinates": [-84.284328, 39.564366]}},
{"type": "Feature", "id": "pV9mtbN7WeysCmb6pZLX3dukpz8=", "properties": {"ref": "Findlay", "@spider": "lees_famous_recipe", "amenity": "fast_food", "cuisine": "chicken", "takeaway": "yes", "addr:full": "427 Tiffin Avenue", "addr:city": "Findlay", "addr:state": "Ohio", "addr:postcode": "45840", "addr:country": "US", "name": "Lee's Famous Recipe Chicken", "phone": "4194223770", "opening_hours": "Su 10:30-21:00; Mo 10:30-21:00; Tu 10:30-21:00; We 10:30-21:00; Th 10:30-22:00; Fr 10:30-22:00; Sa 10:30-22:00", "brand": "Lee's Famous Recipe Chicken", "brand:wikidata": "Q6512810", "nsi_id": "leesfamousrecipechicken-d2abf0"}, "geometry": {"type": "Point", "coordinates": [-83.643177, 41.044283]}},
{"type": "Feature", "id": "USKXlO4G3qL_n75GdoqdUjTfZtY=", "properties": {"ref": "Englewood", "@spider": "lees_famous_recipe", "amenity": "fast_food", "cuisine": "chicken", "takeaway": "yes", "addr:full": "527 South Main Street", "addr:city": "Englewood", "addr:state": "Ohio", "addr:postcode": "45322", "addr:country": "US", "name": "Lee's Famous Recipe Chicken", "phone": "9378367905", "opening_hours": "Su 10:30-22:00; Mo 10:30-22:00; Tu 10:30-22:00; We 10:30-22:00; Th 10:30-22:00; Fr 10:30-22:00; Sa 10:30-22:00", "brand": "Lee's Famous Recipe Chicken", "brand:wikidata": "Q6512810", "nsi_id": "leesfamousrecipechicken-d2abf0"}, "geometry": {"type": "Point", "coordinates": [-84.296643, 39.870854]}},
{"type": "Feature", "id": "0zOiHNIVPp7U_TGJSHN84AAPjqo=", "properties": {"ref": "Delphos", "@spider": "lees_famous_recipe", "amenity": "fast_food", "cuisine": "chicken", "takeaway": "yes", "addr:full": "239 W 5th Street", "addr:city": "Delphos", "addr:state": "Ohio", "addr:postcode": "45833", "addr:country": "US", "name": "Lee's Famous Recipe Chicken", "phone": "4196923333", "opening_hours": "Su 10:30-20:30; Mo 10:30-21:00; Tu 10:30-21:00; We 10:30-21:00; Th 10:30-21:00; Fr 10:30-21:00; Sa 10:30-21:00", "brand": "Lee's Famous Recipe Chicken", "brand:wikidata": "Q6512810", "nsi_id": "leesfamousrecipechicken-d2abf0"}, "geometry": {"type": "Point", "coordinates": [-84.342312, 40.846808]}},
{"type": "Feature", "id": "vAy6x6GpCDEqZMYSwR8vtD3KwEk=", "properties": {"ref": "Dayton on Troy", "@spider": "lees_famous_recipe", "amenity": "fast_food", "cuisine": "chicken", "takeaway": "yes", "addr:full": "1415 Troy Street", "addr:city": "Dayton", "addr:state": "Ohio", "addr:postcode": "45404", "addr:country": "US", "name": "Lee's Famous Recipe Chicken", "phone": "9372230705", "opening_hours": "Su 10:30-22:00; Mo 10:30-22:00; Tu 10:30-22:00; We 10:30-22:00; Th 10:30-22:00; Fr 10:30-22:00; Sa 10:30-22:00;", "brand": "Lee's Famous Recipe Chicken", "brand:wikidata": "Q6512810", "nsi_id": "leesfamousrecipechicken-d2abf0"}, "geometry": {"type": "Point", "coordinates": [-84.171448, 39.786527]}},
{"type": "Feature", "id": "GP3pETbmMs_8v_uaiFV_7bA8fEA=", "properties": {"ref": "Dayton on Main", "@spider": "lees_famous_recipe", "amenity": "fast_food", "cuisine": "chicken", "takeaway": "yes", "addr:full": "4140 North Main", "addr:city": "Dayton", "addr:state": "Ohio", "addr:postcode": "45405", "addr:country": "US", "name": "Lee's Famous Recipe Chicken", "phone": "9372789767", "opening_hours": "Su 10:30-22:00; Mo 10:30-22:00; Tu 10:30-22:00; We 10:30-22:00; Th 10:30-22:00; Fr 10:30-22:00; Sa 10:30-22:00;", "brand": "Lee's Famous Recipe Chicken", "brand:wikidata": "Q6512810", "nsi_id": "leesfamousrecipechicken-d2abf0"}, "geometry": {"type": "Point", "coordinates": [-84.220188, 39.803477]}},
{"type": "Feature", "id": "9Jdg0DyA-3SOlfwds3kIzsPwrQ8=", "properties": {"ref": "Dayton on Linden", "@spider": "lees_famous_recipe", "amenity": "fast_food", "cuisine": "chicken", "takeaway": "yes", "addr:full": "3225 Linden Ave", "addr:city": "Dayton", "addr:state": "Ohio", "addr:postcode": "45410", "addr:country": "US", "name": "Lee's Famous Recipe Chicken", "phone": "9372525005", "opening_hours": "Su 10:30-22:00; Mo 10:30-22:30; Tu 10:30-22:30; We 10:30-22:30; Th 10:30-22:30; Fr 10:30-23:00; Sa 10:30-23:00;", "brand": "Lee's Famous Recipe Chicken", "brand:wikidata": "Q6512810", "nsi_id": "leesfamousrecipechicken-d2abf0"}, "geometry": {"type": "Point", "coordinates": [-84.136103, 39.748068]}},
{"type": "Feature", "id": "UHxX8cvZ6KaMnKYnq-8CfY0CQ_o=", "properties": {"ref": "Dayton on Far Hills", "@spider": "lees_famous_recipe", "amenity": "fast_food", "cuisine": "chicken", "takeaway": "yes", "addr:full": "5940 Far Hills Avenue", "addr:city": "Dayton", "addr:state": "Ohio", "addr:postcode": "45429", "addr:country": "US", "name": "Lee's Famous Recipe Chicken", "phone": "9374392788", "opening_hours": "Su 10:00-22:00; Mo 10:00-22:00; Tu 10:00-22:00; We 10:00-22:00; Th 10:00-22:00; Fr 10:00-22:00; Sa 10:00-22:00", "brand": "Lee's Famous Recipe Chicken", "brand:wikidata": "Q6512810", "nsi_id": "leesfamousrecipechicken-d2abf0"}, "geometry": {"type": "Point", "coordinates": [-84.157291, 39.659975]}},
{"type": "Feature", "id": "NskB1E-2ZMV4qkGYOddMa--axzg=", "properties": {"ref": "Dayton on Dixie", "@spider": "lees_famous_recipe", "amenity": "fast_food", "cuisine": "chicken", "takeaway": "yes", "addr:full": "6056 North Dixie Drive", "addr:city": "Dayton", "addr:state": "Ohio", "addr:postcode": "45414", "addr:country": "US", "name": "Lee's Famous Recipe Chicken", "phone": "9378902291", "opening_hours": "Su 10:30-22:00; Mo 10:30-22:00; Tu 10:30-22:00; We 10:30-22:00; Th 10:30-22:00; Fr 10:30-22:00; Sa 10:30-22:00;", "brand": "Lee's Famous Recipe Chicken", "brand:wikidata": "Q6512810", "nsi_id": "leesfamousrecipechicken-d2abf0"}, "geometry": {"type": "Point", "coordinates": [-84.197798, 39.824752]}},
{"type": "Feature", "id": "MBmOOLj7AbL8Ph3S-6K2v9JT4aM=", "properties": {"ref": "Cincinnati on Vine", "@spider": "lees_famous_recipe", "amenity": "fast_food", "cuisine": "chicken", "takeaway": "yes", "addr:full": "8319 Vine Street", "addr:city": "Cincinnati", "addr:state": "Ohio", "addr:postcode": "45216", "addr:country": "US", "name": "Lee's Famous Recipe Chicken", "phone": "5138212999", "opening_hours": "Su 11:00-21:00; Mo 11:00-21:00; Tu 11:00-21:00; We 11:00-21:00; Th 11:00-21:00; Fr 11:00-21:00; Sa 11:00-21:00", "brand": "Lee's Famous Recipe Chicken", "brand:wikidata": "Q6512810", "nsi_id": "leesfamousrecipechicken-d2abf0"}, "geometry": {"type": "Point", "coordinates": [-84.474428, 39.213198]}},
{"type": "Feature", "id": "bNPZbRdYYb2VK9456GGeTsNiBg8=", "properties": {"ref": "Cincinnati on Mont. Rd", "@spider": "lees_famous_recipe", "amenity": "fast_food", "cuisine": "chicken", "takeaway": "yes", "addr:full": "5030 Montgomery Road", "addr:city": "Cincinnati", "addr:state": "Ohio", "addr:postcode": "45212", "addr:country": "US", "name": "Lee's Famous Recipe Chicken", "phone": "5133512224", "opening_hours": "Su 11:00-21:00; Mo 11:00-21:00; Tu 11:00-21:00; We 11:00-21:00; Th 11:00-21:00; Fr 11:00-21:00; Sa 11:00-21:00", "brand": "Lee's Famous Recipe Chicken", "brand:wikidata": "Q6512810", "nsi_id": "leesfamousrecipechicken-d2abf0"}, "geometry": {"type": "Point", "coordinates": [-84.452913, 39.1671]}},
{"type": "Feature", "id": "ZSyp0PKVRIT4irDctYzycMRIDN4=", "properties": {"ref": "Cincinnati on Glenway", "@spider": "lees_famous_recipe", "amenity": "fast_food", "cuisine": "chicken", "takeaway": "yes", "addr:full": "5251 Glenway Avenue", "addr:city": "Cincinnati", "addr:state": "Ohio", "addr:postcode": "45238", "addr:country": "US", "name": "Lee's Famous Recipe Chicken", "phone": "5139211386", "opening_hours": "Su 11:00-21:00; Mo 11:00-21:00; Tu 11:00-21:00; We 11:00-21:00; Th 11:00-21:00; Fr 11:00-21:00; Sa 11:00-21:00", "brand": "Lee's Famous Recipe Chicken", "brand:wikidata": "Q6512810", "nsi_id": "leesfamousrecipechicken-d2abf0"}, "geometry": {"type": "Point", "coordinates": [-84.603969, 39.125015]}},
{"type": "Feature", "id": "aXNo1xmRZ00VX6Fw4B-RCcpS35U=", "properties": {"ref": "Brookville", "@spider": "lees_famous_recipe", "amenity": "fast_food", "cuisine": "chicken", "takeaway": "yes", "addr:full": "620 Arlington Road", "addr:city": "Brookville", "addr:state": "Ohio", "addr:postcode": "45309", "addr:country": "US", "name": "Lee's Famous Recipe Chicken", "phone": "9377701426", "opening_hours": "Su 10:30-22:00; Mo 10:30-22:00; Tu 10:30-22:00; We 10:30-22:00; Th 10:30-22:00; Fr 10:30-22:00; Sa 10:30-22:00", "brand": "Lee's Famous Recipe Chicken", "brand:wikidata": "Q6512810", "nsi_id": "leesfamousrecipechicken-d2abf0"}, "geometry": {"type": "Point", "coordinates": [-84.424379, 39.841972]}},
{"type": "Feature", "id": "3JuTpzBjwGg0iQtOi4mkpQdu5p0=", "properties": {"ref": "Bellefontaine", "@spider": "lees_famous_recipe", "amenity": "fast_food", "cuisine": "chicken", "takeaway": "yes", "addr:full": "101 Stockyard Road", "addr:city": "Bellefontaine", "addr:state": "Ohio", "addr:postcode": "43311", "addr:country": "US", "name": "Lee's Famous Recipe Chicken", "phone": "9375920100", "opening_hours": "Su 10:30-21:00; Mo 10:30-21:00; Tu 10:30-21:00; We 10:30-21:00; Th 10:30-21:00; Fr 10:30-21:00; Sa 10:30-21:00;", "brand": "Lee's Famous Recipe Chicken", "brand:wikidata": "Q6512810", "nsi_id": "leesfamousrecipechicken-d2abf0"}, "geometry": {"type": "Point", "coordinates": [-83.756577, 40.381187]}},
{"type": "Feature", "id": "VjBbIK4kD7Q0bvmZzz5OUZ7oOVg=", "properties": {"ref": "Amelia", "@spider": "lees_famous_recipe", "amenity": "fast_food", "cuisine": "chicken", "takeaway": "yes", "addr:full": "1179 West Ohio Pike", "addr:city": "Amelia", "addr:state": "Ohio", "addr:postcode": "45102", "addr:country": "US", "name": "Lee's Famous Recipe Chicken", "phone": "5137535339", "opening_hours": "Su 11:00-21:00; Mo 11:00-21:00; Tu 11:00-21:00; We 11:00-21:00; Th 11:00-21:00; Fr 11:00-21:00; Sa 11:00-21:00", "brand": "Lee's Famous Recipe Chicken", "brand:wikidata": "Q6512810", "nsi_id": "leesfamousrecipechicken-d2abf0"}, "geometry": {"type": "Point", "coordinates": [-84.249136, 39.048863]}},
{"type": "Feature", "id": "jJyGMTAx2YE8QTfPYAium4lQX_E=", "properties": {"ref": "University City", "@spider": "lees_famous_recipe", "amenity": "fast_food", "cuisine": "chicken", "takeaway": "yes", "addr:full": "6221 Vernon Avenue", "addr:city": "University City", "addr:state": "Missouri", "addr:postcode": "63130", "addr:country": "US", "name": "Lee's Famous Recipe Chicken", "phone": "3147216131", "opening_hours": "Su 10:00-23:00; Mo 10:00-23:00; Tu 10:00-23:00; We 10:00-23:00; Th 10:00-23:00; Fr 10:00-12:00; Sa 10:00-12:00;", "brand": "Lee's Famous Recipe Chicken", "brand:wikidata": "Q6512810", "nsi_id": "leesfamousrecipechicken-d2abf0"}, "geometry": {"type": "Point", "coordinates": [-90.299334, 38.65876]}},
{"type": "Feature", "id": "OQIuyO6JAEvI2v2qZhl6IayZ3XU=", "properties": {"ref": "St. Peters", "@spider": "lees_famous_recipe", "amenity": "fast_food", "cuisine": "chicken", "takeaway": "yes", "addr:full": "690 Starwood Drive", "addr:city": "St. Peters", "addr:state": "Missouri", "addr:postcode": "63376", "addr:country": "US", "name": "Lee's Famous Recipe Chicken", "phone": "6363979229", "opening_hours": "Su 10:30-22:00; Mo 10:30-22:00; Tu 10:30-22:00; We 10:30-22:00; Th 10:30-22:00; Fr 10:30-22:00; Sa 10:30-22:00;", "brand": "Lee's Famous Recipe Chicken", "brand:wikidata": "Q6512810", "nsi_id": "leesfamousrecipechicken-d2abf0"}, "geometry": {"type": "Point", "coordinates": [-90.628167, 38.789069]}},
{"type": "Feature", "id": "bAYj-hwSYnL0dG8h5iO077c6YXs=", "properties": {"ref": "St. Louis on Natural Bridge", "@spider": "lees_famous_recipe", "amenity": "fast_food", "cuisine": "chicken", "takeaway": "yes", "addr:full": "5023 Natural Bridge", "addr:city": "St. Louis", "addr:state": "Missouri", "addr:postcode": "63115", "addr:country": "US", "name": "Lee's Famous Recipe Chicken", "phone": "3143814048", "opening_hours": "Su 10:00-12:00; Mo 10:00-12:00; Tu 10:00-12:00; We 10:00-12:00; Th 10:00-12:00; Fr 10:00-1:00; Sa 10:00-1:00;", "brand": "Lee's Famous Recipe Chicken", "brand:wikidata": "Q6512810", "nsi_id": "leesfamousrecipechicken-d2abf0"}, "geometry": {"type": "Point", "coordinates": [-90.252504, 38.677064]}},
{"type": "Feature", "id": "A4cya8qSXCwomnoGRgOMqtwWnhI=", "properties": {"ref": "St. Louis on Kingshighway", "@spider": "lees_famous_recipe", "amenity": "fast_food", "cuisine": "chicken", "takeaway": "yes", "addr:full": "3449 South Kingshighway", "addr:city": "St. Louis", "addr:state": "Missouri", "addr:postcode": "63139", "addr:country": "US", "name": "Lee's Famous Recipe Chicken", "phone": "3144817802", "opening_hours": "Su 10:30-22:00; Mo 10:30-22:00; Tu 10:30-22:00; We 10:30-22:00; Th 10:30-22:00; Fr 10:30-23:00; Sa 10:30-23:00;", "brand": "Lee's Famous Recipe Chicken", "brand:wikidata": "Q6512810", "nsi_id": "leesfamousrecipechicken-d2abf0"}, "geometry": {"type": "Point", "coordinates": [-90.27136, 38.596124]}},
{"type": "Feature", "id": "cbxawgg-w5jsRP2PwFvd0hgEAew=", "properties": {"ref": "St. Louis on Jefferson", "@spider": "lees_famous_recipe", "amenity": "fast_food", "cuisine": "chicken", "takeaway": "yes", "addr:full": "2629 South Jefferson", "addr:city": "St. Louis", "addr:state": "Missouri", "addr:postcode": "63118", "addr:country": "US", "name": "Lee's Famous Recipe Chicken", "phone": "3147719546", "opening_hours": "Su 10:00-23:00; Mo 10:00-23:00; Tu 10:00-23:00; We 10:00-23:00; Th 10:00-23:00; Fr 10:00-23:00; Sa 10:00-23:00;", "brand": "Lee's Famous Recipe Chicken", "brand:wikidata": "Q6512810", "nsi_id": "leesfamousrecipechicken-d2abf0"}, "geometry": {"type": "Point", "coordinates": [-90.223481, 38.6043]}},
{"type": "Feature", "id": "SjBg_rttqc6ev8CwDCl7OtieuIo=", "properties": {"ref": "St. Louis on Florissant", "@spider": "lees_famous_recipe", "amenity": "fast_food", "cuisine": "chicken", "takeaway": "yes", "addr:full": "6210 West Florissant", "addr:city": "St. Louis", "addr:state": "Missouri", "addr:postcode": "63136", "addr:country": "US", "name": "Lee's Famous Recipe Chicken", "phone": "3143899655", "opening_hours": "Su 10:30-22:00; Mo 10:30-22:00; Tu 10:30-22:00; We 10:30-22:00; Th 10:30-22:00; Fr 10:30-23:00; Sa 10:30-23:00;", "brand": "Lee's Famous Recipe Chicken", "brand:wikidata": "Q6512810", "nsi_id": "leesfamousrecipechicken-d2abf0"}, "geometry": {"type": "Point", "coordinates": [-90.254852, 38.712363]}},
{"type": "Feature", "id": "9jkvmeX89I30J5GizpblzH7j_ac=", "properties": {"ref": "St. Charles", "@spider": "lees_famous_recipe", "amenity": "fast_food", "cuisine": "chicken", "takeaway": "yes", "addr:full": "1012 South Fifth Street", "addr:city": "St. Charles", "addr:state": "Missouri", "addr:postcode": "63301", "addr:country": "US", "name": "Lee's Famous Recipe Chicken", "phone": "6369499966", "opening_hours": "Su 10:30-22:00; Mo 10:30-22:00; Tu 10:30-22:00; We 10:30-22:00; Th 10:30-22:00; Fr 10:30-23:00; Sa 10:30-23:00;", "brand": "Lee's Famous Recipe Chicken", "brand:wikidata": "Q6512810", "nsi_id": "leesfamousrecipechicken-d2abf0"}, "geometry": {"type": "Point", "coordinates": [-90.489599, 38.775109]}},
{"type": "Feature", "id": "sVW3TlNFklLCzFNVX8WCiHcfas4=", "properties": {"ref": "St. Ann", "@spider": "lees_famous_recipe", "amenity": "fast_food", "cuisine": "chicken", "takeaway": "yes", "addr:full": "10645 St. Charles Rock Road", "addr:city": "St. Ann", "addr:state": "Missouri", "addr:postcode": "63074", "addr:country": "US", "name": "Lee's Famous Recipe Chicken", "phone": "3144235010", "opening_hours": "Su 10:30-22:30; Mo 10:30-22:30; Tu 10:30-22:30; We 10:30-22:30; Th 10:30-22:30; Fr 10:30-23:00; Sa 10:30-23:00;", "brand": "Lee's Famous Recipe Chicken", "brand:wikidata": "Q6512810", "nsi_id": "leesfamousrecipechicken-d2abf0"}, "geometry": {"type": "Point", "coordinates": [-90.388539, 38.732214]}},
{"type": "Feature", "id": "yprwAyKDxIVbWfeOaW7iyRHSAJs=", "properties": {"ref": "Rolla", "@spider": "lees_famous_recipe", "amenity": "fast_food", "cuisine": "chicken", "takeaway": "yes", "addr:full": "1902 North Bishop Street", "addr:city": "Rolla", "addr:state": "Missouri", "addr:postcode": "65401", "addr:country": "US", "name": "Lee's Famous Recipe Chicken", "phone": "5733649330", "opening_hours": "Su 10:00-21:00; Mo 10:00-21:00; Tu 10:00-21:00; We 10:00-21:00; Th 10:00-21:00; Fr 10:00-21:00; Sa 10:00-21:00", "brand": "Lee's Famous Recipe Chicken", "brand:wikidata": "Q6512810", "nsi_id": "leesfamousrecipechicken-d2abf0"}, "geometry": {"type": "Point", "coordinates": [-91.766925, 37.959853]}},
{"type": "Feature", "id": "uS7xov6INVTTFfEkFMBz5JJEoVg=", "properties": {"ref": "Normandy", "@spider": "lees_famous_recipe", "amenity": "fast_food", "cuisine": "chicken", "takeaway": "yes", "addr:full": "7232 Natural Bridge", "addr:city": "Normandy", "addr:state": "Missouri", "addr:postcode": "63121", "addr:country": "US", "name": "Lee's Famous Recipe Chicken", "phone": "3143817704", "opening_hours": "Su 10:00-22:00; Mo 10:00-22:00; Tu 10:00-22:00; We 10:00-22:00; Th 10:00-22:00; Fr 10:00-23:00; Sa 10:00-23:00;", "brand": "Lee's Famous Recipe Chicken", "brand:wikidata": "Q6512810", "nsi_id": "leesfamousrecipechicken-d2abf0"}, "geometry": {"type": "Point", "coordinates": [-90.294039, 38.702125]}},
{"type": "Feature", "id": "dq5S9JhDJ8d_-_BQW9IHwwWx2zI=", "properties": {"ref": "Jefferson City", "@spider": "lees_famous_recipe", "amenity": "fast_food", "cuisine": "chicken", "takeaway": "yes", "addr:full": "1550 Missouri Blvd", "addr:city": "Jefferson City", "addr:state": "Missouri", "addr:postcode": "65109", "addr:country": "US", "name": "Lee's Famous Recipe Chicken", "phone": "5736351603", "opening_hours": "Su 10:00-21:00; Mo 10:00-21:00; Tu 10:00-21:00; We 10:00-21:00; Th 10:00-21:00; Fr 10:00-21:00; Sa 10:00-21:00;", "brand": "Lee's Famous Recipe Chicken", "brand:wikidata": "Q6512810", "nsi_id": "leesfamousrecipechicken-d2abf0"}, "geometry": {"type": "Point", "coordinates": [-92.196514, 38.580644]}},
{"type": "Feature", "id": "F2TPJ1NgTI43CVXiAxne42j-fNg=", "properties": {"ref": "Florissant", "@spider": "lees_famous_recipe", "amenity": "fast_food", "cuisine": "chicken", "takeaway": "yes", "addr:full": "2825 North Highway 67", "addr:city": "Florissant", "addr:state": "Missouri", "addr:postcode": "63033", "addr:country": "US", "name": "Lee's Famous Recipe Chicken", "phone": "3148390204", "opening_hours": "Su 10:30-22:00; Mo 10:30-22:00; Tu 10:30-22:00; We 10:30-22:00; Th 10:30-22:00; Fr 10:30-22:00; Sa 10:30-22:00;", "brand": "Lee's Famous Recipe Chicken", "brand:wikidata": "Q6512810", "nsi_id": "leesfamousrecipechicken-d2abf0"}, "geometry": {"type": "Point", "coordinates": [-90.302216, 38.807912]}},
{"type": "Feature", "id": "sghEoVtKMjeoc0ZsxHqxXcsSLp4=", "properties": {"ref": "Ellisville", "@spider": "lees_famous_recipe", "amenity": "fast_food", "cuisine": "chicken", "takeaway": "yes", "addr:full": "15602 Manchester Road", "addr:city": "Ellisville", "addr:state": "Missouri", "addr:postcode": "63021", "addr:country": "US", "name": "Lee's Famous Recipe Chicken", "phone": "6362271718", "opening_hours": "Su 10:30-22:00; Mo 10:30-22:00; Tu 10:30-22:00; We 10:30-22:00; Th 10:30-22:00; Fr 10:30-22:00; Sa 10:30-22:00;", "brand": "Lee's Famous Recipe Chicken", "brand:wikidata": "Q6512810", "nsi_id": "leesfamousrecipechicken-d2abf0"}, "geometry": {"type": "Point", "coordinates": [-90.572388, 38.592317]}},
{"type": "Feature", "id": "gkEzuyB8-GyU4GtybisKvjmARKE=", "properties": {"ref": "Dellwood", "@spider": "lees_famous_recipe", "amenity": "fast_food", "cuisine": "chicken", "takeaway": "yes", "addr:full": "10090 West Florissant", "addr:city": "Dellwood", "addr:state": "Missouri", "addr:postcode": "63136", "addr:country": "US", "name": "Lee's Famous Recipe Chicken", "phone": "3143882300", "opening_hours": "Su 10:00-23:00; Mo 10:00-23:00; Tu 10:00-23:00; We 10:00-23:00; Th 10:00-23:00; Fr 10:00-23:00; Sa 10:00-23:00;", "brand": "Lee's Famous Recipe Chicken", "brand:wikidata": "Q6512810", "nsi_id": "leesfamousrecipechicken-d2abf0"}, "geometry": {"type": "Point", "coordinates": [-90.279314, 38.750669]}},
{"type": "Feature", "id": "Tf3-h2RlyFIAeT3hlzsugGCWfKg=", "properties": {"ref": "Columbia", "@spider": "lees_famous_recipe", "amenity": "fast_food", "cuisine": "chicken", "takeaway": "yes", "addr:full": "2316 Paris Road", "addr:city": "Columbia", "addr:state": "Missouri", "addr:postcode": "65202", "addr:country": "US", "name": "Lee's Famous Recipe Chicken", "phone": "5734745337", "opening_hours": "Su 10:00-21:00; Mo 10:00-21:00; Tu 10:00-21:00; We 10:00-21:00; Th 10:00-21:00; Fr 10:00-21:00; Sa 10:00-21:00;", "brand": "Lee's Famous Recipe Chicken", "brand:wikidata": "Q6512810", "nsi_id": "leesfamousrecipechicken-d2abf0"}, "geometry": {"type": "Point", "coordinates": [-92.302043, 38.972619]}},
{"type": "Feature", "id": "-LB5VWklm29PJqCUvwAj07dNQLw=", "properties": {"ref": "Arnold", "@spider": "lees_famous_recipe", "amenity": "fast_food", "cuisine": "chicken", "takeaway": "yes", "addr:full": "820 Jeffco Boulevard", "addr:city": "Arnold", "addr:state": "Missouri", "addr:postcode": "63010", "addr:country": "US", "name": "Lee's Famous Recipe Chicken", "phone": "6362821232", "opening_hours": "Su 10:30-22:00; Mo 10:30-22:00; Tu 10:30-22:00; We 10:30-22:00; Th 10:30-22:00; Fr 10:30-22:00; Sa 10:30-22:00;", "brand": "Lee's Famous Recipe Chicken", "brand:wikidata": "Q6512810", "nsi_id": "leesfamousrecipechicken-d2abf0"}, "geometry": {"type": "Point", "coordinates": [-90.370166, 38.44752]}},
{"type": "Feature", "id": "zIb9hZwdiY0CQFF_u10DwgfXAZg=", "properties": {"ref": "Plymouth", "@spider": "lees_famous_recipe", "amenity": "fast_food", "cuisine": "chicken", "takeaway": "yes", "addr:full": "1122 West Ann Arbor Road", "addr:city": "Plymouth", "addr:state": "Michigan", "addr:postcode": "48170", "addr:country": "US", "name": "Lee's Famous Recipe Chicken", "phone": "7344536767", "opening_hours": "Su 8:00-21:00; Mo 8:00-21:00; Tu 8:00-21:00; We 8:00-21:00; Th 8:00-21:00; Fr 8:00-21:00; Sa 8:00-21:00", "brand": "Lee's Famous Recipe Chicken", "brand:wikidata": "Q6512810", "nsi_id": "leesfamousrecipechicken-d2abf0"}, "geometry": {"type": "Point", "coordinates": [-83.473578, 42.358899]}},
{"type": "Feature", "id": "S_3FTV2fRxAQU6mkT008RJgcvx8=", "properties": {"ref": "North Muskegon", "@spider": "lees_famous_recipe", "amenity": "fast_food", "cuisine": "chicken", "takeaway": "yes", "addr:full": "200 North Causeway", "addr:city": "North Muskegon", "addr:state": "Michigan", "addr:postcode": "49445", "addr:country": "US", "name": "Lee's Famous Recipe Chicken", "phone": "2317449592", "opening_hours": "Su 11:00-21:00; Mo 11:00-21:00; Tu 11:00-21:00; We 11:00-21:00; Th 11:00-21:00; Fr 11:00-21:00; Sa 11:00-21:00;", "brand": "Lee's Famous Recipe Chicken", "brand:wikidata": "Q6512810", "nsi_id": "leesfamousrecipechicken-d2abf0"}, "geometry": {"type": "Point", "coordinates": [-86.249082, 43.265773]}},
{"type": "Feature", "id": "ua6YkHm4ChFHcwUWwUVmEqS-el8=", "properties": {"ref": "Muskegon on Sherman", "@spider": "lees_famous_recipe", "amenity": "fast_food", "cuisine": "chicken", "takeaway": "yes", "addr:full": "856 West Sherman Blvd.", "addr:city": "Muskegon", "addr:state": "Michigan", "addr:postcode": "49441", "addr:country": "US", "name": "Lee's Famous Recipe Chicken", "phone": "2317557333", "opening_hours": "Su 11:00-21:00; Mo 11:00-21:00; Tu 11:00-21:00; We 11:00-21:00; Th 11:00-21:00; Fr 11:00-21:00; Sa 11:00-21:00;", "brand": "Lee's Famous Recipe Chicken", "brand:wikidata": "Q6512810", "nsi_id": "leesfamousrecipechicken-d2abf0"}, "geometry": {"type": "Point", "coordinates": [-86.2645, 43.205726]}},
{"type": "Feature", "id": "rqssg1JlvNfHcMaHhv-DIaLXKMA=", "properties": {"ref": "Muskegon on East Apple", "@spider": "lees_famous_recipe", "amenity": "fast_food", "cuisine": "chicken", "takeaway": "yes", "addr:full": "1317 East Apple Ave", "addr:city": "Muskegon", "addr:state": "Michigan", "addr:postcode": "49442", "addr:country": "US", "name": "Lee's Famous Recipe Chicken", "phone": "2317773020", "opening_hours": "Su 11:00-21:00; Mo 11:00-21:00; Tu 11:00-21:00; We 11:00-21:00; Th 11:00-21:00; Fr 11:00-21:00; Sa 11:00-21:00;", "brand": "Lee's Famous Recipe Chicken", "brand:wikidata": "Q6512810", "nsi_id": "leesfamousrecipechicken-d2abf0"}, "geometry": {"type": "Point", "coordinates": [-86.211332, 43.233761]}},
{"type": "Feature", "id": "OeBtBBPQIFUxprczzmCOUks4luA=", "properties": {"ref": "Kalamazoo on Westnedge", "@spider": "lees_famous_recipe", "amenity": "fast_food", "cuisine": "chicken", "takeaway": "yes", "addr:full": "4441 South Westnedge Ave.", "addr:city": "Kalamazoo", "addr:state": "Michigan", "addr:postcode": "49008", "addr:country": "US", "name": "Lee's Famous Recipe Chicken", "phone": "2693452151", "opening_hours": "Su 10:30-22:00; Mo 10:30-22:00; Tu 10:30-22:00; We 10:30-22:00; Th 10:30-22:00; Fr 10:30-22:00; Sa 10:30-22:00;", "brand": "Lee's Famous Recipe Chicken", "brand:wikidata": "Q6512810", "nsi_id": "leesfamousrecipechicken-d2abf0"}, "geometry": {"type": "Point", "coordinates": [-85.58923, 42.245402]}},
{"type": "Feature", "id": "-a8dXQKaO1HEUKHhq_6n9vWop_E=", "properties": {"ref": "Kalamazoo on Riverview", "@spider": "lees_famous_recipe", "amenity": "fast_food", "cuisine": "chicken", "takeaway": "yes", "addr:full": "820 Riverview Drive", "addr:city": "Kalamazoo", "addr:state": "Michigan", "addr:postcode": "49001", "addr:country": "US", "name": "Lee's Famous Recipe Chicken", "phone": "2693812898", "opening_hours": "Su 10:30-22:00; Mo 10:30-22:00; Tu 10:30-22:00; We 10:30-22:00; Th 10:30-22:00; Fr 10:30-22:00; Sa 10:30-22:00;", "brand": "Lee's Famous Recipe Chicken", "brand:wikidata": "Q6512810", "nsi_id": "leesfamousrecipechicken-d2abf0"}, "geometry": {"type": "Point", "coordinates": [-85.568707, 42.299644]}},
{"type": "Feature", "id": "egFFsMnkL_B3le0QJ3gURIuFogk=", "properties": {"ref": "Whitesburg", "@spider": "lees_famous_recipe", "amenity": "fast_food", "cuisine": "chicken", "takeaway": "yes", "addr:full": "789 Jenkins Road", "addr:city": "Whitesburg", "addr:state": "Kentucky", "addr:postcode": "41858", "addr:country": "US", "name": "Lee's Famous Recipe Chicken", "phone": "6066334305", "opening_hours": "Su 10:00-21:00; Mo 10:00-21:00; Tu 10:00-21:00; We 10:00-21:00; Th 10:00-21:00; Fr 10:00-22:00; Sa 10:00-22:00", "brand": "Lee's Famous Recipe Chicken", "brand:wikidata": "Q6512810", "nsi_id": "leesfamousrecipechicken-d2abf0"}, "geometry": {"type": "Point", "coordinates": [-82.795346, 37.117798]}},
{"type": "Feature", "id": "WQpKP6qXxNIjyQTRL5pivGs-rNM=", "properties": {"ref": "Stanford", "@spider": "lees_famous_recipe", "amenity": "fast_food", "cuisine": "chicken", "takeaway": "yes", "addr:full": "127 Lincoln Trl", "addr:city": "Stanford", "addr:state": "Kentucky", "addr:postcode": "40484", "addr:country": "US", "name": "Lee's Famous Recipe Chicken", "phone": "6063659490", "opening_hours": "Su 10:30-21:00; Mo 10:30-21:00; Tu 10:30-21:00; We 10:30-21:00; Th 10:30-21:00; Fr 10:30-22:00; Sa 10:30-22:00", "brand": "Lee's Famous Recipe Chicken", "brand:wikidata": "Q6512810", "nsi_id": "leesfamousrecipechicken-d2abf0"}, "geometry": {"type": "Point", "coordinates": [-84.655494, 37.541829]}},
{"type": "Feature", "id": "mA0NZHyps1skf07hrM22_TG-lf0=", "properties": {"ref": "Salyersville", "@spider": "lees_famous_recipe", "amenity": "fast_food", "cuisine": "chicken", "takeaway": "yes", "addr:full": "114 East Mountain Parkway", "addr:city": "Salyersville", "addr:state": "Kentucky", "addr:postcode": "41465", "addr:country": "US", "name": "Lee's Famous Recipe Chicken", "phone": "6063493626", "opening_hours": "Su 10:00-22:00; Mo 10:00-22:00; Tu 10:00-22:00; We 10:00-22:00; Th 10:00-22:00; Fr 10:00-22:00; Sa 10:00-22:00", "brand": "Lee's Famous Recipe Chicken", "brand:wikidata": "Q6512810", "nsi_id": "leesfamousrecipechicken-d2abf0"}, "geometry": {"type": "Point", "coordinates": [-83.044513, 37.739581]}},
{"type": "Feature", "id": "0BS9jDBcPaGqsaff4zqFH80tTww=", "properties": {"ref": "Radcliff", "@spider": "lees_famous_recipe", "amenity": "fast_food", "cuisine": "chicken", "takeaway": "yes", "addr:full": "178 South Dixie Blvd", "addr:city": "Radcliff", "addr:state": "Kentucky", "addr:postcode": "40160", "addr:country": "US", "name": "Lee's Famous Recipe Chicken", "phone": "2703519966", "opening_hours": "Su 10:00-22:00; Mo 10:00-22:00; Tu 10:00-22:00; We 10:00-22:00; Th 10:00-22:00; Fr 10:00-22:00; Sa 10:00-22:00;", "brand": "Lee's Famous Recipe Chicken", "brand:wikidata": "Q6512810", "nsi_id": "leesfamousrecipechicken-d2abf0"}, "geometry": {"type": "Point", "coordinates": [-85.936872, 37.839145]}},
{"type": "Feature", "id": "xhH9hvHYa8ayhSlCtBcOUXt-dqI=", "properties": {"ref": "Owensboro on Carter", "@spider": "lees_famous_recipe", "amenity": "fast_food", "cuisine": "chicken", "takeaway": "yes", "addr:full": "1800 Carter Road", "addr:city": "Owensboro", "addr:state": "Kentucky", "addr:postcode": "42301", "addr:country": "US", "name": "Lee's Famous Recipe Chicken", "phone": "2706830584", "opening_hours": "Su 10:30-21:00; Mo 10:30-21:00; Tu 10:30-21:00; We 10:30-21:00; Th 10:30-21:00; Fr 10:30-21:30; Sa 10:30-21:30", "brand": "Lee's Famous Recipe Chicken", "brand:wikidata": "Q6512810", "nsi_id": "leesfamousrecipechicken-d2abf0"}, "geometry": {"type": "Point", "coordinates": [-87.145985, 37.756247]}},
{"type": "Feature", "id": "zZPbT-8y0KNiKfdV88CRIpuGK-s=", "properties": {"ref": "Owensboro on Burlew", "@spider": "lees_famous_recipe", "amenity": "fast_food", "cuisine": "chicken", "takeaway": "yes", "addr:full": "1001 Burlew Blvd.", "addr:city": "Owensboro", "addr:state": "Kentucky", "addr:postcode": "42303", "addr:country": "US", "name": "Lee's Famous Recipe Chicken", "phone": "2706854542", "opening_hours": "Su 10:30-21:00; Mo 10:30-21:00; Tu 10:30-21:00; We 10:30-21:00; Th 10:30-21:00; Fr 10:30-21:30; Sa 10:30-21:30", "brand": "Lee's Famous Recipe Chicken", "brand:wikidata": "Q6512810", "nsi_id": "leesfamousrecipechicken-d2abf0"}, "geometry": {"type": "Point", "coordinates": [-87.093424, 37.742258]}},
{"type": "Feature", "id": "kpsHBMTPoxAqnPwFVf1yK8JXz5Y=", "properties": {"ref": "Mt. Sterling", "@spider": "lees_famous_recipe", "amenity": "fast_food", "cuisine": "chicken", "takeaway": "yes", "addr:full": "205 Evans Ave", "addr:city": "Mt. Sterling", "addr:state": "Kentucky", "addr:postcode": "40353", "addr:country": "US", "name": "Lee's Famous Recipe Chicken", "phone": "8594984483", "opening_hours": "Su 10:30-21:00; Mo 10:30-21:00; Tu 10:30-21:00; We 10:30-21:00; Th 10:30-21:00; Fr 10:30-21:00; Sa 10:30-21:00;", "brand": "Lee's Famous Recipe Chicken", "brand:wikidata": "Q6512810", "nsi_id": "leesfamousrecipechicken-d2abf0"}, "geometry": {"type": "Point", "coordinates": [-83.951576, 38.075697]}},
{"type": "Feature", "id": "ralnwsR0cCRnKh40Fwg4fwl0fhA=", "properties": {"ref": "Morehead", "@spider": "lees_famous_recipe", "amenity": "fast_food", "cuisine": "chicken", "takeaway": "yes", "addr:full": "411 Fraley Drive", "addr:city": "Morehead", "addr:state": "Kentucky", "addr:postcode": "40351", "addr:country": "US", "name": "Lee's Famous Recipe Chicken", "phone": "6067843314", "opening_hours": "Su 10:30-21:30; Mo 10:30-21:30; Tu 10:30-21:30; We 10:30-21:30; Th 10:30-21:30; Fr 10:30-22:00; Sa 10:30-22:00", "brand": "Lee's Famous Recipe Chicken", "brand:wikidata": "Q6512810", "nsi_id": "leesfamousrecipechicken-d2abf0"}, "geometry": {"type": "Point", "coordinates": [-83.47611, 38.189695]}},
{"type": "Feature", "id": "pfQYhBc9h9sHsjffVk9ajVg-G_I=", "properties": {"ref": "Middlesboro", "@spider": "lees_famous_recipe", "amenity": "fast_food", "cuisine": "chicken", "takeaway": "yes", "addr:full": "720 North 12th Street", "addr:city": "Middlesboro", "addr:state": "Kentucky", "addr:postcode": "40965", "addr:country": "US", "name": "Lee's Famous Recipe Chicken", "phone": "6062488773", "opening_hours": "Su 10:00-21:00; Mo 10:00-21:00; Tu 10:00-21:00; We 10:00-21:00; Th 10:00-21:00; Fr 10:00-21:00; Sa 10:00-21:00", "brand": "Lee's Famous Recipe Chicken", "brand:wikidata": "Q6512810", "nsi_id": "leesfamousrecipechicken-d2abf0"}, "geometry": {"type": "Point", "coordinates": [-83.703064, 36.612576]}},
{"type": "Feature", "id": "fO12-Konf0eOrts0KZ3yi9HyDWA=", "properties": {"ref": "Maysville", "@spider": "lees_famous_recipe", "amenity": "fast_food", "cuisine": "chicken", "takeaway": "yes", "addr:full": "1400 Route 68", "addr:city": "Maysville", "addr:state": "Kentucky", "addr:postcode": "41056", "addr:country": "US", "name": "Lee's Famous Recipe Chicken", "phone": "6065645986", "opening_hours": "Su 11:00-21:00; Mo 11:00-21:00; Tu 11:00-21:00; We 11:00-21:00; Th 11:00-21:00; Fr 11:00-21:00; Sa 11:00-21:00", "brand": "Lee's Famous Recipe Chicken", "brand:wikidata": "Q6512810", "nsi_id": "leesfamousrecipechicken-d2abf0"}, "geometry": {"type": "Point", "coordinates": [-83.795512, 38.631329]}},
{"type": "Feature", "id": "UVOxKPHbcuGKtrJmhFHR2mwio6Y=", "properties": {"ref": "Louisville on Poplar Level", "@spider": "lees_famous_recipe", "amenity": "fast_food", "cuisine": "chicken", "takeaway": "yes", "addr:full": "5059 Poplar Level Road", "addr:city": "Louisville", "addr:state": "Kentucky", "addr:postcode": "40219", "addr:country": "US", "name": "Lee's Famous Recipe Chicken", "phone": "5029646869", "opening_hours": "Su 10:30-21:00; Mo 10:30-21:00; Tu 10:30-21:00; We 10:30-21:00; Th 10:30-21:00; Fr 10:30-21:00; Sa 10:30-21:00;", "brand": "Lee's Famous Recipe Chicken", "brand:wikidata": "Q6512810", "nsi_id": "leesfamousrecipechicken-d2abf0"}, "geometry": {"type": "Point", "coordinates": [-85.678061, 38.162943]}},
{"type": "Feature", "id": "FkX6pHv2V4wBKt5EZH4qTNkDpVM=", "properties": {"ref": "Louisville on Old Third Street", "@spider": "lees_famous_recipe", "amenity": "fast_food", "cuisine": "chicken", "takeaway": "yes", "addr:full": "9813 Old Third Street", "addr:city": "Louisville", "addr:state": "Kentucky", "addr:postcode": "40272", "addr:country": "US", "name": "Lee's Famous Recipe Chicken", "phone": "5029333538", "opening_hours": "Su 10:30-20:00; Mo 10:30-21:00; Tu 10:30-21:00; We 10:30-21:00; Th 10:30-21:00; Fr 10:30-21:00; Sa 10:30-21:00", "brand": "Lee's Famous Recipe Chicken", "brand:wikidata": "Q6512810", "nsi_id": "leesfamousrecipechicken-d2abf0"}, "geometry": {"type": "Point", "coordinates": [-85.655153, 38.57588]}},
{"type": "Feature", "id": "mNVW1bHWndLq3-EsjZ2ZjPlJxr0=", "properties": {"ref": "Louisville on Brownsboro", "@spider": "lees_famous_recipe", "amenity": "fast_food", "cuisine": "chicken", "takeaway": "yes", "addr:full": "2925 Brownsboro Road", "addr:city": "Louisville", "addr:state": "Kentucky", "addr:postcode": "40206", "addr:country": "US", "name": "Lee's Famous Recipe Chicken", "phone": "5028964694", "opening_hours": "Su 10:30-21:00; Mo 10:30-21:00; Tu 10:30-21:00; We 10:30-21:00; Th 10:30-21:00; Fr 10:30-21:00; Sa 10:30-21:00", "brand": "Lee's Famous Recipe Chicken", "brand:wikidata": "Q6512810", "nsi_id": "leesfamousrecipechicken-d2abf0"}, "geometry": {"type": "Point", "coordinates": [-85.687116, 38.260431]}},
{"type": "Feature", "id": "z8OYpfDX8lSnx9nGH7lO1AadSIw=", "properties": {"ref": "Liberty", "@spider": "lees_famous_recipe", "amenity": "fast_food", "cuisine": "chicken", "takeaway": "yes", "addr:full": "410 N. Wallace Wilkinson Blvd.", "addr:city": "Liberty", "addr:state": "Kentucky", "addr:postcode": "42539", "addr:country": "US", "name": "Lee's Famous Recipe Chicken", "phone": "6067875399", "opening_hours": "Su 10:30-21:00; Mo 10:30-21:00; Tu 10:30-21:00; We 10:30-21:00; Th 10:30-21:00; Fr 10:30-21:00; Sa 10:30-21:00", "brand": "Lee's Famous Recipe Chicken", "brand:wikidata": "Q6512810", "nsi_id": "leesfamousrecipechicken-d2abf0"}, "geometry": {"type": "Point", "coordinates": [-84.927626, 37.3196]}},
{"type": "Feature", "id": "K8ik8WSUMyVDKyyq18HCO_EFtIc=", "properties": {"ref": "Lexington", "@spider": "lees_famous_recipe", "amenity": "fast_food", "cuisine": "chicken", "takeaway": "yes", "addr:full": "3014 Richmond Road", "addr:city": "Lexington", "addr:state": "Kentucky", "addr:postcode": "40509", "addr:country": "US", "name": "Lee's Famous Recipe Chicken", "phone": "8593689002", "opening_hours": "Su 10:00-20:00; Mo 10:00-20:00; Tu 10:00-20:00; We 10:00-20:00; Th 10:00-20:00; Fr 10:00-20:00; Sa 10:00-20:00", "brand": "Lee's Famous Recipe Chicken", "brand:wikidata": "Q6512810", "nsi_id": "leesfamousrecipechicken-d2abf0"}, "geometry": {"type": "Point", "coordinates": [-84.451253, 38.004649]}},
{"type": "Feature", "id": "qCdZdEhrtP2pEyVaeEMfcJOgd58=", "properties": {"ref": "Lebanon", "@spider": "lees_famous_recipe", "amenity": "fast_food", "cuisine": "chicken", "takeaway": "yes", "addr:full": "740 W Main Street", "addr:city": "Lebanon", "addr:state": "Kentucky", "addr:postcode": "40033", "addr:country": "US", "name": "Lee's Famous Recipe Chicken", "phone": "2706926120", "opening_hours": "Su 10:00-21:30; Mo 10:00-21:30; Tu 10:00-21:30; We 10:00-21:30; Th 10:00-21:30; Fr 10:00-21:30; Sa 10:00-21:30", "brand": "Lee's Famous Recipe Chicken", "brand:wikidata": "Q6512810", "nsi_id": "leesfamousrecipechicken-d2abf0"}, "geometry": {"type": "Point", "coordinates": [-85.269525, 37.560762]}},
{"type": "Feature", "id": "1I4AHP_T57kisPxbUJ-R5dxQsv8=", "properties": {"ref": "Lawrenceburg", "@spider": "lees_famous_recipe", "amenity": "fast_food", "cuisine": "chicken", "takeaway": "yes", "addr:full": "101 West Park Shopping Center", "addr:city": "Lawrenceburg", "addr:state": "Kentucky", "addr:postcode": "40342", "addr:country": "US", "name": "Lee's Famous Recipe Chicken", "phone": "5028390005", "opening_hours": "Su 10:30-21:00; Mo 10:30-22:00; Tu 10:30-22:00; We 10:30-22:00; Th 10:30-22:00; Fr 10:30-22:00; Sa 10:30-22:00;", "brand": "Lee's Famous Recipe Chicken", "brand:wikidata": "Q6512810", "nsi_id": "leesfamousrecipechicken-d2abf0"}, "geometry": {"type": "Point", "coordinates": [-84.896617, 38.037297]}},
{"type": "Feature", "id": "8El0zUI4FvYv0QKHqvGT4j6VXQg=", "properties": {"ref": "Latonia", "@spider": "lees_famous_recipe", "amenity": "fast_food", "cuisine": "chicken", "takeaway": "yes", "addr:full": "3719 Winston Avenue", "addr:city": "Latonia", "addr:state": "Kentucky", "addr:postcode": "41015", "addr:country": "US", "name": "Lee's Famous Recipe Chicken", "phone": "8595818599", "opening_hours": "Su 11:00-21:00; Mo 11:00-21:00; Tu 11:00-21:00; We 11:00-21:00; Th 11:00-21:00; Fr 11:00-21:00; Sa 11:00-21:00", "brand": "Lee's Famous Recipe Chicken", "brand:wikidata": "Q6512810", "nsi_id": "leesfamousrecipechicken-d2abf0"}, "geometry": {"type": "Point", "coordinates": [-84.504039, 39.046762]}},
{"type": "Feature", "id": "o7qJdz9bXGjb5QfdUQUA3QA46Ac=", "properties": {"ref": "Lancaster", "@spider": "lees_famous_recipe", "amenity": "fast_food", "cuisine": "chicken", "takeaway": "yes", "addr:full": "830 Stanford Road", "addr:city": "Lancaster", "addr:state": "Kentucky", "addr:postcode": "40444", "addr:country": "US", "name": "Lee's Famous Recipe Chicken", "phone": "8597922240", "opening_hours": "Su 11:00-21:00; Mo 11:00-21:00; Tu 11:00-21:00; We 11:00-21:00; Th 11:00-21:00; Fr 11:00-21:00; Sa 11:00-21:00", "brand": "Lee's Famous Recipe Chicken", "brand:wikidata": "Q6512810", "nsi_id": "leesfamousrecipechicken-d2abf0"}, "geometry": {"type": "Point", "coordinates": [-84.589516, 37.602241]}},
{"type": "Feature", "id": "t8yNzRbBmhX15bQBuhhDWXuR94c=", "properties": {"ref": "Jamestown", "@spider": "lees_famous_recipe", "amenity": "fast_food", "cuisine": "chicken", "takeaway": "yes", "addr:full": "674 North Main", "addr:city": "Jamestown", "addr:state": "Kentucky", "addr:postcode": "42629", "addr:country": "US", "name": "Lee's Famous Recipe Chicken", "phone": "2703434800", "opening_hours": "Su 10:00-21:00; Mo 10:00-21:00; Tu 10:00-21:00; We 10:00-21:00; Th 10:00-21:00; Fr 10:00-22:00; Sa 10:00-22:00", "brand": "Lee's Famous Recipe Chicken", "brand:wikidata": "Q6512810", "nsi_id": "leesfamousrecipechicken-d2abf0"}, "geometry": {"type": "Point", "coordinates": [-85.071925, 36.995605]}},
{"type": "Feature", "id": "l8rxTK4Dzj9mwn8kgrfz8RtSPRE=", "properties": {"ref": "Hodgenville", "@spider": "lees_famous_recipe", "amenity": "fast_food", "cuisine": "chicken", "takeaway": "yes", "addr:full": "803 South Lincoln Blvd", "addr:city": "Hodgenville", "addr:state": "Kentucky", "addr:postcode": "42748", "addr:country": "US", "name": "Lee's Famous Recipe Chicken", "phone": "2703589288", "opening_hours": "Su 10:00-21:00; Mo 10:00-21:00; Tu 10:00-21:00; We 10:00-21:00; Th 10:00-21:00; Fr 10:00-21:00; Sa 10:00-21:00;", "brand": "Lee's Famous Recipe Chicken", "brand:wikidata": "Q6512810", "nsi_id": "leesfamousrecipechicken-d2abf0"}, "geometry": {"type": "Point", "coordinates": [-85.734096, 37.557246]}},
{"type": "Feature", "id": "Dettzp__A9QDrFk-dOpkRSbrWP4=", "properties": {"ref": "Hazard", "@spider": "lees_famous_recipe", "amenity": "fast_food", "cuisine": "chicken", "takeaway": "yes", "addr:full": "1079 Morton Blvd.", "addr:city": "Hazard", "addr:state": "Kentucky", "addr:postcode": "41701", "addr:country": "US", "name": "Lee's Famous Recipe Chicken", "phone": "6064351456", "opening_hours": "Su 5:30-21:00; Mo 5:30-21:00; Tu 5:30-21:00; We 5:30-21:00; Th 5:30-21:00; Fr 5:30-22:00; Sa 5:30-22:00", "brand": "Lee's Famous Recipe Chicken", "brand:wikidata": "Q6512810", "nsi_id": "leesfamousrecipechicken-d2abf0"}, "geometry": {"type": "Point", "coordinates": [-83.223994, 37.282914]}},
{"type": "Feature", "id": "1hwvcuhoyOyBzXctDuixTYQQBrg=", "properties": {"ref": "Harrodsburg", "@spider": "lees_famous_recipe", "amenity": "fast_food", "cuisine": "chicken", "takeaway": "yes", "addr:full": "313 S. College Street", "addr:city": "Harrodsburg", "addr:state": "Kentucky", "addr:postcode": "40330", "addr:country": "US", "name": "Lee's Famous Recipe Chicken", "phone": "8597347535", "opening_hours": "Su 10:00-21:30; Mo 10:00-21:30; Tu 10:00-21:30; We 10:00-21:30; Th 10:00-21:30; Fr 10:00-22:00; Sa 10:00-22:00", "brand": "Lee's Famous Recipe Chicken", "brand:wikidata": "Q6512810", "nsi_id": "leesfamousrecipechicken-d2abf0"}, "geometry": {"type": "Point", "coordinates": [-84.845681, 37.759771]}},
{"type": "Feature", "id": "stw_2lMGfBTyRYRIw1FDUxmj4hk=", "properties": {"ref": "Greensburg", "@spider": "lees_famous_recipe", "amenity": "fast_food", "cuisine": "chicken", "takeaway": "yes", "addr:full": "214 South Main Street", "addr:city": "Greensburg", "addr:state": "Kentucky", "addr:postcode": "42743", "addr:country": "US", "name": "Lee's Famous Recipe Chicken", "phone": "2709323060", "opening_hours": "Su 9:30-20:30; Mo 9:30-21:00; Tu 9:30-21:00; We 9:30-21:00; Th 9:30-21:00; Fr 9:30-21:00; Sa 9:30-21:00", "brand": "Lee's Famous Recipe Chicken", "brand:wikidata": "Q6512810", "nsi_id": "leesfamousrecipechicken-d2abf0"}, "geometry": {"type": "Point", "coordinates": [-85.502896, 37.257884]}},
{"type": "Feature", "id": "Axpg-bpYo1m4mrwhIuJmqRbZiAQ=", "properties": {"ref": "Florence", "@spider": "lees_famous_recipe", "amenity": "fast_food", "cuisine": "chicken", "takeaway": "yes", "addr:full": "6805 Burlington Pike", "addr:city": "Florence", "addr:state": "Kentucky", "addr:postcode": "41042", "addr:country": "US", "name": "Lee's Famous Recipe Chicken", "phone": "8593715555", "opening_hours": "Su 11:00-21:00; Mo 11:00-21:00; Tu 11:00-21:00; We 11:00-21:00; Th 11:00-21:00; Fr 11:00-21:00; Sa 11:00-21:00", "brand": "Lee's Famous Recipe Chicken", "brand:wikidata": "Q6512810", "nsi_id": "leesfamousrecipechicken-d2abf0"}, "geometry": {"type": "Point", "coordinates": [-84.628142, 39.010479]}},
{"type": "Feature", "id": "1bsfIX_o9yNMOS2CW1b0BRtxtpE=", "properties": {"ref": "Falmouth", "@spider": "lees_famous_recipe", "amenity": "fast_food", "cuisine": "chicken", "takeaway": "yes", "addr:full": "1210 Ridgeway Avenue", "addr:city": "Falmouth", "addr:state": "Kentucky", "addr:postcode": "41040", "addr:country": "US", "name": "Lee's Famous Recipe Chicken", "phone": "8596542800", "opening_hours": "Su 10:00-22:00; Mo 10:00-22:00; Tu 10:00-22:00; We 10:00-22:00; Th 10:00-22:00; Fr 10:00-22:00; Sa 10:00-22:00", "brand": "Lee's Famous Recipe Chicken", "brand:wikidata": "Q6512810", "nsi_id": "leesfamousrecipechicken-d2abf0"}, "geometry": {"type": "Point", "coordinates": [-84.344158, 38.678903]}},
{"type": "Feature", "id": "ZMNxYlYRaGpOKXt75hXsDyWsGGI=", "properties": {"ref": "Danville", "@spider": "lees_famous_recipe", "amenity": "fast_food", "cuisine": "chicken", "takeaway": "yes", "addr:full": "610 South Fourth Street", "addr:city": "Danville", "addr:state": "Kentucky", "addr:postcode": "40422", "addr:country": "US", "name": "Lee's Famous Recipe Chicken", "phone": "8592368777", "opening_hours": "Su 10:00-21:30; Mo 10:00-21:30; Tu 10:00-21:30; We 10:00-21:30; Th 10:00-21:30; Fr 10:00-22:00; Sa 10:00-22:00", "brand": "Lee's Famous Recipe Chicken", "brand:wikidata": "Q6512810", "nsi_id": "leesfamousrecipechicken-d2abf0"}, "geometry": {"type": "Point", "coordinates": [-84.774552, 37.635283]}},
{"type": "Feature", "id": "W1jvITkXJ2VPj4KXuZjZubEm6NE=", "properties": {"ref": "Cynthiana", "@spider": "lees_famous_recipe", "amenity": "fast_food", "cuisine": "chicken", "takeaway": "yes", "addr:full": "762 US Highway 27 South", "addr:city": "Cynthiana", "addr:state": "Kentucky", "addr:postcode": "41031", "addr:country": "US", "name": "Lee's Famous Recipe Chicken", "phone": "8592341067", "opening_hours": "Su 10:30-22:00; Mo 10:30-22:00; Tu 10:30-22:00; We 10:30-22:00; Th 10:30-22:00; Fr 10:30-22:00; Sa 10:30-22:00;", "brand": "Lee's Famous Recipe Chicken", "brand:wikidata": "Q6512810", "nsi_id": "leesfamousrecipechicken-d2abf0"}, "geometry": {"type": "Point", "coordinates": [-84.308766, 38.38089]}},
{"type": "Feature", "id": "KAYfAOQjLlM9Opbe1pz8oWniT00=", "properties": {"ref": "Covington", "@spider": "lees_famous_recipe", "amenity": "fast_food", "cuisine": "chicken", "takeaway": "yes", "addr:full": "602 Scott Street", "addr:city": "Covington", "addr:state": "Kentucky", "addr:postcode": "41011", "addr:country": "US", "name": "Lee's Famous Recipe Chicken", "phone": "8594912491", "opening_hours": "Su 11:00-21:00; Mo 11:00-21:00; Tu 11:00-21:00; We 11:00-21:00; Th 11:00-21:00; Fr 11:00-21:00; Sa 11:00-21:00", "brand": "Lee's Famous Recipe Chicken", "brand:wikidata": "Q6512810", "nsi_id": "leesfamousrecipechicken-d2abf0"}, "geometry": {"type": "Point", "coordinates": [-84.508318, 39.084827]}},
{"type": "Feature", "id": "feydQ5IguYl-DSk5YYcPtRRFev8=", "properties": {"ref": "Corbin", "@spider": "lees_famous_recipe", "amenity": "fast_food", "cuisine": "chicken", "takeaway": "yes", "addr:full": "1420 Master Street", "addr:city": "Corbin", "addr:state": "Kentucky", "addr:postcode": "40701", "addr:country": "US", "name": "Lee's Famous Recipe Chicken", "phone": "6065284612", "opening_hours": "Su 10:00-21:00; Mo 10:00-22:00; Tu 10:00-22:00; We 10:00-22:00; Th 10:00-22:00; Fr 10:00-22:00; Sa 10:00-22:00", "brand": "Lee's Famous Recipe Chicken", "brand:wikidata": "Q6512810", "nsi_id": "leesfamousrecipechicken-d2abf0"}, "geometry": {"type": "Point", "coordinates": [-84.073939, 36.958271]}},
{"type": "Feature", "id": "yO8nU5xjLlpRSntLs69IvYlGqQs=", "properties": {"ref": "Anderson", "@spider": "lees_famous_recipe", "amenity": "fast_food", "cuisine": "chicken", "takeaway": "yes", "addr:full": "20 East 29th Street", "addr:city": "Anderson", "addr:state": "Indiana", "addr:postcode": "46016", "addr:country": "US", "name": "Lee's Famous Recipe Chicken", "phone": "7656490888", "opening_hours": "Su 10:00-22:00; Mo 10:00-22:00; Tu 10:00-22:00; We 10:00-22:00; Th 10:00-22:00; Fr 10:00-22:00; Sa 10:00-22:00", "brand": "Lee's Famous Recipe Chicken", "brand:wikidata": "Q6512810", "nsi_id": "leesfamousrecipechicken-d2abf0"}, "geometry": {"type": "Point", "coordinates": [-85.678227, 40.087526]}},
{"type": "Feature", "id": "_-VyJHfq01JQUmVdDLpbLqhApUk=", "properties": {"ref": "Granite City", "@spider": "lees_famous_recipe", "amenity": "fast_food", "cuisine": "chicken", "takeaway": "yes", "addr:full": "3516 Nameoki Road", "addr:city": "Granite City", "addr:state": "Illinois", "addr:postcode": "62040", "addr:country": "US", "name": "Lee's Famous Recipe Chicken", "phone": "6184518863", "opening_hours": "Su 10:30-22:00; Mo 10:30-22:00; Tu 10:30-22:00; We 10:30-22:00; Th 10:30-22:00; Fr 10:30-22:30; Sa 10:30-22:30;", "brand": "Lee's Famous Recipe Chicken", "brand:wikidata": "Q6512810", "nsi_id": "leesfamousrecipechicken-d2abf0"}, "geometry": {"type": "Point", "coordinates": [-90.122849, 38.72634]}},
{"type": "Feature", "id": "6rKiyGrS8Mwp2PUWQEGJw3WF4I4=", "properties": {"ref": "Belleville", "@spider": "lees_famous_recipe", "amenity": "fast_food", "cuisine": "chicken", "takeaway": "yes", "addr:full": "1652 Carlyle Ave", "addr:city": "Belleville", "addr:state": "Illinois", "addr:postcode": "62221", "addr:country": "US", "name": "Lee's Famous Recipe Chicken", "phone": "6182572410", "opening_hours": "Su 10:00-22:00; Mo 10:00-22:00; Tu 10:00-22:00; We 10:00-22:00; Th 10:00-22:00; Fr 10:00-22:00; Sa 10:00-22:00;", "brand": "Lee's Famous Recipe Chicken", "brand:wikidata": "Q6512810", "nsi_id": "leesfamousrecipechicken-d2abf0"}, "geometry": {"type": "Point", "coordinates": [-89.934517, 38.519071]}},
{"type": "Feature", "id": "oq08P6fOXOBBlK4zJwPB1FUwE7M=", "properties": {"ref": "Sanford", "@spider": "lees_famous_recipe", "amenity": "fast_food", "cuisine": "chicken", "takeaway": "yes", "addr:full": "1905 South French Avenue", "addr:city": "Sanford", "addr:state": "Florida", "addr:postcode": "32771", "addr:country": "US", "name": "Lee's Famous Recipe Chicken", "phone": "4073233650", "opening_hours": "Su 10:30-21:00; Mo 10:30-21:00; Tu 10:30-21:00; We 10:30-21:00; Th 10:30-21:00; Fr 10:30-22:00; Sa 10:30-21:00;", "brand": "Lee's Famous Recipe Chicken", "brand:wikidata": "Q6512810", "nsi_id": "leesfamousrecipechicken-d2abf0"}, "geometry": {"type": "Point", "coordinates": [-81.272771, 28.794781]}},
{"type": "Feature", "id": "NULCkhUVDkYfOYp9Kdpc0ikgCrM=", "properties": {"ref": "Ocala on State Road", "@spider": "lees_famous_recipe", "amenity": "fast_food", "cuisine": "chicken", "takeaway": "yes", "addr:full": "9548 SW State Road 200", "addr:city": "Ocala", "addr:state": "Florida", "addr:postcode": "34481", "addr:country": "US", "name": "Lee's Famous Recipe Chicken", "phone": "3522365337", "opening_hours": "Su 10:30-22:00; Mo 10:30-22:00; Tu 10:30-22:00; We 10:30-22:00; Th 10:30-22:00; Fr 10:30-22:00; Sa 10:30-22:00;", "brand": "Lee's Famous Recipe Chicken", "brand:wikidata": "Q6512810", "nsi_id": "leesfamousrecipechicken-d2abf0"}, "geometry": {"type": "Point", "coordinates": [-82.277629, 29.058451]}},
{"type": "Feature", "id": "G3HWRSaqcwDIJL1_5tLqWwmRBT0=", "properties": {"ref": "Ocala on Silver Springs", "@spider": "lees_famous_recipe", "amenity": "fast_food", "cuisine": "chicken", "takeaway": "yes", "addr:full": "2303 East Silver Springs Blvd", "addr:city": "Ocala", "addr:state": "Florida", "addr:postcode": "34470", "addr:country": "US", "name": "Lee's Famous Recipe Chicken", "phone": "3527327981", "opening_hours": "Su 10:30-22:00; Mo 10:30-22:00; Tu 10:30-22:00; We 10:30-22:00; Th 10:30-22:00; Fr 10:30-22:00; Sa 10:30-22:00;", "brand": "Lee's Famous Recipe Chicken", "brand:wikidata": "Q6512810", "nsi_id": "leesfamousrecipechicken-d2abf0"}, "geometry": {"type": "Point", "coordinates": [-82.105975, 29.187278]}},
{"type": "Feature", "id": "L7hQtp1uB8NrgU8u7fZJ2Z1MPqQ=", "properties": {"ref": "Jasper", "@spider": "lees_famous_recipe", "amenity": "fast_food", "cuisine": "chicken", "takeaway": "yes", "addr:full": "511 Hwy 78 West", "addr:city": "Jasper", "addr:state": "Alabama", "addr:postcode": "35501", "addr:country": "US", "name": "Lee's Famous Recipe Chicken", "phone": "2052217913", "opening_hours": "Su 9:30-21:30; Mo 9:30-21:30; Tu 9:30-21:30; We 9:30-21:30; Th 9:30-21:30; Fr 9:30-22:00; Sa 9:30-22:00;", "brand": "Lee's Famous Recipe Chicken", "brand:wikidata": "Q6512810", "nsi_id": "leesfamousrecipechicken-d2abf0"}, "geometry": {"type": "Point", "coordinates": [-87.289866, 33.848361]}}]}