{"type":"FeatureCollection","features":[{"type": "Feature", "id": "II6Jc90g4NEN1jtOB-zdxjL7Erk=", "properties": {"ref": "102", "@spider": "lidl_ie", "shop": "supermarket", "addr:full": "Dublin Road, Clane, Kildare, W91 H019, Ireland", "addr:street_address": "Dublin Road", "addr:city": "Clane", "addr:state": "Kildare", "addr:postcode": "W91 H019", "addr:country": "IE", "name": "Clane", "opening_hours": "Mo-Sa 08:00-22:00; Su 09:00-22:00", "brand": "Lidl", "brand:wikidata": "Q151954", "nsi_id": "lidl-5866c3"}, "geometry": {"type": "Point", "coordinates": [-6.67904, 53.29756]}},
{"type": "Feature", "id": "7FlfcZMZ3jndOEL2E_Bq9Tzk4hs=", "properties": {"ref": "103", "@spider": "lidl_ie", "shop": "supermarket", "addr:full": "Tramore Road, Waterford, Waterford, X91 KT29, Ireland", "addr:street_address": "Tramore Road", "addr:city": "Waterford", "addr:state": "Waterford", "addr:postcode": "X91 KT29", "addr:country": "IE", "name": "Waterford", "opening_hours": "Mo-Sa 08:00-22:00; Su 09:00-21:00", "brand": "Lidl", "brand:wikidata": "Q151954", "nsi_id": "lidl-5866c3"}, "geometry": {"type": "Point", "coordinates": [-7.11956, 52.24832]}},
{"type": "Feature", "id": "mqimoBjAXvLOOBgNm-aS7u7rx1E=", "properties": {"ref": "104", "@spider": "lidl_ie", "shop": "supermarket", "addr:full": "Santry Omni Centre, Dublin, Dublin, D09 E165, Ireland", "addr:street_address": "Santry Omni Centre", "addr:city": "Dublin", "addr:state": "Dublin", "addr:postcode": "D09 E165", "addr:country": "IE", "name": "Santry Omni", "opening_hours": "Mo-Sa 08:00-22:00; Su 09:00-21:00", "brand": "Lidl", "brand:wikidata": "Q151954", "nsi_id": "lidl-5866c3"}, "geometry": {"type": "Point", "coordinates": [-6.24832, 53.39326]}},
{"type": "Feature", "id": "ZpoCE1v6OLavgcVKizZEjPRbfvs=", "properties": {"ref": "105", "@spider": "lidl_ie", "shop": "supermarket", "addr:full": "Tiknock, Cobh, Cork, P24 RX97, Ireland", "addr:street_address": "Tiknock", "addr:city": "Cobh", "addr:state": "Cork", "addr:postcode": "P24 RX97", "addr:country": "IE", "name": "Cobh", "opening_hours": "Mo-Sa 08:00-22:00; Su 09:00-21:00", "brand": "Lidl", "brand:wikidata": "Q151954", "nsi_id": "lidl-5866c3"}, "geometry": {"type": "Point", "coordinates": [-8.29647, 51.86232]}},
{"type": "Feature", "id": "jkURKqrN7YnhIkvC2mehtvEdGE4=", "properties": {"ref": "115", "@spider": "lidl_ie", "shop": "supermarket", "addr:full": "White Mill Industrial Estate, Wexford, Wexford, Y35 VN81, Ireland", "addr:street_address": "White Mill Industrial Estate", "addr:city": "Wexford", "addr:state": "Wexford", "addr:postcode": "Y35 VN81", "addr:country": "IE", "name": "Wexford", "opening_hours": "Mo-Sa 08:00-22:00; Su 09:00-21:00", "brand": "Lidl", "brand:wikidata": "Q151954", "nsi_id": "lidl-5866c3"}, "geometry": {"type": "Point", "coordinates": [-6.48051, 52.32952]}},
{"type": "Feature", "id": "reSz4QmPEypCEGSKxJZd4VxQLnE=", "properties": {"ref": "116", "@spider": "lidl_ie", "shop": "supermarket", "addr:full": "Thomas Street Dublin 8, Dublin, Dublin, D08 Y76R, Ireland", "addr:street_address": "Thomas Street Dublin 8", "addr:city": "Dublin", "addr:state": "Dublin", "addr:postcode": "D08 Y76R", "addr:country": "IE", "name": "Thomas Street", "opening_hours": "Mo-Sa 08:00-22:00; Su 09:00-21:00", "brand": "Lidl", "brand:wikidata": "Q151954", "nsi_id": "lidl-5866c3"}, "geometry": {"type": "Point", "coordinates": [-6.28026, 53.34322]}},
{"type": "Feature", "id": "opr6wSUgYvCeTBBqB94VLUQRKHI=", "properties": {"ref": "118", "@spider": "lidl_ie", "shop": "supermarket", "addr:full": "Ballyhooly Road, Cork, Cork, T23 P270, Ireland", "addr:street_address": "Ballyhooly Road", "addr:city": "Cork", "addr:state": "Cork", "addr:postcode": "T23 P270", "addr:country": "IE", "name": "Cork - Ballyvolane", "opening_hours": "Mo-Sa 08:00-22:00; Su 09:00-21:00", "brand": "Lidl", "brand:wikidata": "Q151954", "nsi_id": "lidl-5866c3"}, "geometry": {"type": "Point", "coordinates": [-8.44693, 51.91761]}},
{"type": "Feature", "id": "iM9Let3DTaccLxne4A16WU-LepU=", "properties": {"ref": "119", "@spider": "lidl_ie", "shop": "supermarket", "addr:full": "Slaney Road, Dublin, Dublin, D11 H397, Ireland", "addr:street_address": "Slaney Road", "addr:city": "Dublin", "addr:state": "Dublin", "addr:postcode": "D11 H397", "addr:country": "IE", "name": "Glasnevin", "opening_hours": "Mo-Sa 08:00-22:00; Su 09:00-21:00", "brand": "Lidl", "brand:wikidata": "Q151954", "nsi_id": "lidl-5866c3"}, "geometry": {"type": "Point", "coordinates": [-6.28563, 53.3729]}},
{"type": "Feature", "id": "4PyNgc_huU40nELqDd_9WuM_hsM=", "properties": {"ref": "120", "@spider": "lidl_ie", "shop": "supermarket", "addr:full": "48-52 Cork Street Dublin 8, Dublin, Dublin, D08 K4AT, Ireland", "addr:street_address": "48-52 Cork Street Dublin 8", "addr:city": "Dublin", "addr:state": "Dublin", "addr:postcode": "D08 K4AT", "addr:country": "IE", "name": "Cork Street", "opening_hours": "Mo-Sa 08:00-22:00; Su 09:00-21:00", "brand": "Lidl", "brand:wikidata": "Q151954", "nsi_id": "lidl-5866c3"}, "geometry": {"type": "Point", "coordinates": [-6.2871, 53.33668]}},
{"type": "Feature", "id": "ob8iaT36ijym_cNTlkAxDmEJhhU=", "properties": {"ref": "124", "@spider": "lidl_ie", "shop": "supermarket", "addr:full": "Whitestown Way Dublin 24, Dublin, Dublin, D24 K223, Ireland", "addr:street_address": "Whitestown Way Dublin 24", "addr:city": "Dublin", "addr:state": "Dublin", "addr:postcode": "D24 K223", "addr:country": "IE", "name": "Whitestown Way", "opening_hours": "Mo-Sa 08:00-22:00", "brand": "Lidl", "brand:wikidata": "Q151954", "nsi_id": "lidl-5866c3"}, "geometry": {"type": "Point", "coordinates": [-6.37554, 53.28357]}},
{"type": "Feature", "id": "7SOApvdue3UN7CIjkTcy0-b9xYc=", "properties": {"ref": "128", "@spider": "lidl_ie", "shop": "supermarket", "addr:full": "Ballycarnane, Tramore, Waterford, X91 Y028, Ireland", "addr:street_address": "Ballycarnane", "addr:city": "Tramore", "addr:state": "Waterford", "addr:postcode": "X91 Y028", "addr:country": "IE", "name": "Tramore", "opening_hours": "Mo-Sa 08:00-22:00; Su 09:00-21:00", "brand": "Lidl", "brand:wikidata": "Q151954", "nsi_id": "lidl-5866c3"}, "geometry": {"type": "Point", "coordinates": [-7.16175, 52.16384]}},
{"type": "Feature", "id": "cUrkPsTsB7X6gfVXh1DPiKRjHYA=", "properties": {"ref": "129", "@spider": "lidl_ie", "shop": "supermarket", "addr:full": "Bradley's Row, Templemore, Tipperary, E41 DH59, Ireland", "addr:street_address": "Bradley's Row", "addr:city": "Templemore", "addr:state": "Tipperary", "addr:postcode": "E41 DH59", "addr:country": "IE", "name": "Templemore", "opening_hours": "Mo-Sa 08:00-22:00", "brand": "Lidl", "brand:wikidata": "Q151954", "nsi_id": "lidl-5866c3"}, "geometry": {"type": "Point", "coordinates": [-7.82982, 52.79424]}},
{"type": "Feature", "id": "Q8yabAkz8VGlzWlRcn7ovRGvy8M=", "properties": {"ref": "130", "@spider": "lidl_ie", "shop": "supermarket", "addr:full": "Main Street, Sallins, Kildare, W91 AE10, Ireland", "addr:street_address": "Main Street", "addr:city": "Sallins", "addr:state": "Kildare", "addr:postcode": "W91 AE10", "addr:country": "IE", "name": "Sallins", "opening_hours": "Mo-Sa 08:00-22:00; Su 09:00-21:00", "brand": "Lidl", "brand:wikidata": "Q151954", "nsi_id": "lidl-5866c3"}, "geometry": {"type": "Point", "coordinates": [-6.66643, 53.25083]}},
{"type": "Feature", "id": "Wi_3kcmLWmVtzZvdWWi16EezZ5s=", "properties": {"ref": "131", "@spider": "lidl_ie", "shop": "supermarket", "addr:full": "Innismore, Ballincollig, Cork, P31 D256, Ireland", "addr:street_address": "Innismore", "addr:city": "Ballincollig", "addr:state": "Cork", "addr:postcode": "P31 D256", "addr:country": "IE", "name": "Ballincollig", "opening_hours": "Mo-Sa 08:00-21:00; Su 09:00-21:00", "brand": "Lidl", "brand:wikidata": "Q151954", "nsi_id": "lidl-5866c3"}, "geometry": {"type": "Point", "coordinates": [-8.60991, 51.8869]}},
{"type": "Feature", "id": "k3xeAKR7M6RygZDEOsJZ4P-iwuU=", "properties": {"ref": "136", "@spider": "lidl_ie", "shop": "supermarket", "addr:full": "Rathmines Road Dublin 6, Dublin, Dublin, D06 R7W2, Ireland", "addr:street_address": "Rathmines Road Dublin 6", "addr:city": "Dublin", "addr:state": "Dublin", "addr:postcode": "D06 R7W2", "addr:country": "IE", "name": "Rathmines", "opening_hours": "Mo-Sa 08:00-22:00; Su 09:00-21:00", "brand": "Lidl", "brand:wikidata": "Q151954", "nsi_id": "lidl-5866c3"}, "geometry": {"type": "Point", "coordinates": [-6.26536, 53.32583]}},
{"type": "Feature", "id": "wP6aJxCAg56r9mtVKuZDWq5Cco8=", "properties": {"ref": "137", "@spider": "lidl_ie", "shop": "supermarket", "addr:full": "Carnmore Road, Dungloe, Donegal, F94 VY76, Ireland", "addr:street_address": "Carnmore Road", "addr:city": "Dungloe", "addr:state": "Donegal", "addr:postcode": "F94 VY76", "addr:country": "IE", "name": "Dungloe", "opening_hours": "Mo-Sa 08:00-21:00; Su 09:00-21:00", "brand": "Lidl", "brand:wikidata": "Q151954", "nsi_id": "lidl-5866c3"}, "geometry": {"type": "Point", "coordinates": [-8.34998, 54.95076]}},
{"type": "Feature", "id": "a2RHkV1sAzn-U0K2Ab0EXeMsDME=", "properties": {"ref": "138", "@spider": "lidl_ie", "shop": "supermarket", "addr:full": "Dublin Road, Limerick, Limerick, V94 K8X9, Ireland", "addr:street_address": "Dublin Road", "addr:city": "Limerick", "addr:state": "Limerick", "addr:postcode": "V94 K8X9", "addr:country": "IE", "name": "Limerick", "opening_hours": "Mo-Sa 08:00-22:00; Su 09:00-21:00", "brand": "Lidl", "brand:wikidata": "Q151954", "nsi_id": "lidl-5866c3"}, "geometry": {"type": "Point", "coordinates": [-8.55165, 52.66795]}},
{"type": "Feature", "id": "xapDAV8dZOHhpKWqwLlavdKCDWc=", "properties": {"ref": "140", "@spider": "lidl_ie", "shop": "supermarket", "addr:full": "Galway Road, Clifden, Galway, H71 XA32, Ireland", "addr:street_address": "Galway Road", "addr:city": "Clifden", "addr:state": "Galway", "addr:postcode": "H71 XA32", "addr:country": "IE", "name": "Clifden", "opening_hours": "Mo-Sa 08:00-22:00; Su 09:00-21:00", "brand": "Lidl", "brand:wikidata": "Q151954", "nsi_id": "lidl-5866c3"}, "geometry": {"type": "Point", "coordinates": [-10.01363, 53.48819]}},
{"type": "Feature", "id": "GaovOZ7iLkEauyTP9LSeXQHKRak=", "properties": {"ref": "143", "@spider": "lidl_ie", "shop": "supermarket", "addr:full": "Ennis Road, Limerick, Limerick, V94 N6D8, Ireland", "addr:street_address": "Ennis Road", "addr:city": "Limerick", "addr:state": "Limerick", "addr:postcode": "V94 N6D8", "addr:country": "IE", "name": "Limerick - Caherdavin", "opening_hours": "Mo-Sa 08:00-22:00; Su 09:00-21:00", "brand": "Lidl", "brand:wikidata": "Q151954", "nsi_id": "lidl-5866c3"}, "geometry": {"type": "Point", "coordinates": [-8.65944, 52.67123]}},
{"type": "Feature", "id": "QjPzRMjLOr-2eVs3GDgGH5Wj80E=", "properties": {"ref": "144", "@spider": "lidl_ie", "shop": "supermarket", "addr:full": "Fonthill Road, Dublin, Dublin, D22 H6E8, Ireland", "addr:street_address": "Fonthill Road", "addr:city": "Dublin", "addr:state": "Dublin", "addr:postcode": "D22 H6E8", "addr:country": "IE", "name": "Fonthill", "opening_hours": "Mo-Sa 08:00-22:00; Su 09:00-21:00", "brand": "Lidl", "brand:wikidata": "Q151954", "nsi_id": "lidl-5866c3"}, "geometry": {"type": "Point", "coordinates": [-6.40736, 53.3485]}},
{"type": "Feature", "id": "2GXe-LaU7xUq5pWk5wsdh2uaJxw=", "properties": {"ref": "145", "@spider": "lidl_ie", "shop": "supermarket", "addr:full": "Barrack's Lane, Kinsale, Cork, P17 DD35, Ireland", "addr:street_address": "Barrack's Lane", "addr:city": "Kinsale", "addr:state": "Cork", "addr:postcode": "P17 DD35", "addr:country": "IE", "name": "Kinsale", "opening_hours": "Mo-Sa 08:00-22:00; Su 09:00-21:00", "brand": "Lidl", "brand:wikidata": "Q151954", "nsi_id": "lidl-5866c3"}, "geometry": {"type": "Point", "coordinates": [-8.51726, 51.70798]}},
{"type": "Feature", "id": "bd-Af1RkGj6_IuB7pspEqJuQ8zA=", "properties": {"ref": "147", "@spider": "lidl_ie", "shop": "supermarket", "addr:full": "Limerick Road, Oranmore, Galway, H91 R9PR, Ireland", "addr:street_address": "Limerick Road", "addr:city": "Oranmore", "addr:state": "Galway", "addr:postcode": "H91 R9PR", "addr:country": "IE", "name": "Oranmore", "opening_hours": "Mo-Sa 08:00-22:00; Su 09:00-21:00", "brand": "Lidl", "brand:wikidata": "Q151954", "nsi_id": "lidl-5866c3"}, "geometry": {"type": "Point", "coordinates": [-8.92655, 53.26426]}},
{"type": "Feature", "id": "EATxXcz1Ej4CZ7_DARypxC9IkpM=", "properties": {"ref": "148", "@spider": "lidl_ie", "shop": "supermarket", "addr:full": "The Green, Tullow, Carlow, R93 AX25, Ireland", "addr:street_address": "The Green", "addr:city": "Tullow", "addr:state": "Carlow", "addr:postcode": "R93 AX25", "addr:country": "IE", "name": "Tullow", "opening_hours": "Mo-Sa 08:00-22:00; Su 09:00-21:00", "brand": "Lidl", "brand:wikidata": "Q151954", "nsi_id": "lidl-5866c3"}, "geometry": {"type": "Point", "coordinates": [-6.73997, 52.80075]}},
{"type": "Feature", "id": "lL1fYkxi2HZaYczIOaouslDnJKY=", "properties": {"ref": "150", "@spider": "lidl_ie", "shop": "supermarket", "addr:full": "Forquar, Millford, Donegal, H91 R9PR, Ireland", "addr:street_address": "Forquar", "addr:city": "Millford", "addr:state": "Donegal", "addr:postcode": "H91 R9PR", "addr:country": "IE", "name": "Millford", "opening_hours": "Mo-Sa 08:00-21:00; Su 09:00-21:00", "brand": "Lidl", "brand:wikidata": "Q151954", "nsi_id": "lidl-5866c3"}, "geometry": {"type": "Point", "coordinates": [-7.68584, 55.08142]}},
{"type": "Feature", "id": "DEgGT-6TUcgWEc44l9ogzG1risU=", "properties": {"ref": "151", "@spider": "lidl_ie", "shop": "supermarket", "addr:full": "The Demesne, Westport, Mayo, F28 RX52, Ireland", "addr:street_address": "The Demesne", "addr:city": "Westport", "addr:state": "Mayo", "addr:postcode": "F28 RX52", "addr:country": "IE", "name": "Westport", "opening_hours": "Mo-Sa 08:00-22:00; Su 09:00-21:00", "brand": "Lidl", "brand:wikidata": "Q151954", "nsi_id": "lidl-5866c3"}, "geometry": {"type": "Point", "coordinates": [-9.524, 53.80236]}},
{"type": "Feature", "id": "49xQeGbhU8VVaHTyo7_jyWptTrE=", "properties": {"ref": "153", "@spider": "lidl_ie", "shop": "supermarket", "addr:full": "Johnswell Road, Kilkenny, Kilkenny, R95 A329, Ireland", "addr:street_address": "Johnswell Road", "addr:city": "Kilkenny", "addr:state": "Kilkenny", "addr:postcode": "R95 A329", "addr:country": "IE", "name": "Kilkenny Johnswell Road", "opening_hours": "Mo-Sa 08:00-22:00; Su 09:00-21:00", "brand": "Lidl", "brand:wikidata": "Q151954", "nsi_id": "lidl-5866c3"}, "geometry": {"type": "Point", "coordinates": [-7.23394, 52.66342]}},
{"type": "Feature", "id": "F-pleyL01Dy1Ya8ilZxgwZ_arj4=", "properties": {"ref": "154", "@spider": "lidl_ie", "shop": "supermarket", "addr:full": "Main Street Dundrum, Dublin, Dublin, D14 K3T7, Ireland", "addr:street_address": "Main Street Dundrum", "addr:city": "Dublin", "addr:state": "Dublin", "addr:postcode": "D14 K3T7", "addr:country": "IE", "name": "Dundrum", "opening_hours": "Mo-Sa 08:00-22:00; Su 09:00-21:00", "brand": "Lidl", "brand:wikidata": "Q151954", "nsi_id": "lidl-5866c3"}, "geometry": {"type": "Point", "coordinates": [-6.24557, 53.29069]}},
{"type": "Feature", "id": "wtUJmp6FSnlGZ2-JsxZ0S5Nx7TM=", "properties": {"ref": "158", "@spider": "lidl_ie", "shop": "supermarket", "addr:full": "Rathbeale Road, Swords, Dublin, K67 WK33, Ireland", "addr:street_address": "Rathbeale Road", "addr:city": "Swords", "addr:state": "Dublin", "addr:postcode": "K67 WK33", "addr:country": "IE", "name": "Swords Rathbeale Road", "opening_hours": "Mo-Sa 08:00-22:00", "brand": "Lidl", "brand:wikidata": "Q151954", "nsi_id": "lidl-5866c3"}, "geometry": {"type": "Point", "coordinates": [-6.22892, 53.46154]}},
{"type": "Feature", "id": "ULxLARRAVtWbd1w6bsW4DKiTc-o=", "properties": {"ref": "159", "@spider": "lidl_ie", "shop": "supermarket", "addr:full": "Donegal Road, Ballybofey, Donegal, F93 PE02, Ireland", "addr:street_address": "Donegal Road", "addr:city": "Ballybofey", "addr:state": "Donegal", "addr:postcode": "F93 PE02", "addr:country": "IE", "name": "Ballybofey", "opening_hours": "Mo-Sa 08:00-21:00; Su 09:00-21:00", "brand": "Lidl", "brand:wikidata": "Q151954", "nsi_id": "lidl-5866c3"}, "geometry": {"type": "Point", "coordinates": [-7.78509, 54.79801]}},
{"type": "Feature", "id": "4yStJBjgN7svlOSEbOeuozBMwzw=", "properties": {"ref": "160", "@spider": "lidl_ie", "shop": "supermarket", "addr:full": "Industrial Yarns Dublin Road, Bray, Wicklow, A98 F3A8, Ireland", "addr:street_address": "Industrial Yarns Dublin Road", "addr:city": "Bray", "addr:state": "Wicklow", "addr:postcode": "A98 F3A8", "addr:country": "IE", "name": "Bray", "opening_hours": "Mo-Sa 08:00-22:00; Su 09:00-21:00", "brand": "Lidl", "brand:wikidata": "Q151954", "nsi_id": "lidl-5866c3"}, "geometry": {"type": "Point", "coordinates": [-6.11414, 53.20975]}},
{"type": "Feature", "id": "O-fJRC_owSIMaGFc0FcyOMbh_n4=", "properties": {"ref": "161", "@spider": "lidl_ie", "shop": "supermarket", "addr:full": "Maynooth Road, Celbridge, Kildare, W23 X972, Ireland", "addr:street_address": "Maynooth Road", "addr:city": "Celbridge", "addr:state": "Kildare", "addr:postcode": "W23 X972", "addr:country": "IE", "name": "Celbridge", "opening_hours": "Mo-Sa 08:00-22:00; Su 09:00-21:00", "brand": "Lidl", "brand:wikidata": "Q151954", "nsi_id": "lidl-5866c3"}, "geometry": {"type": "Point", "coordinates": [-6.54119, 53.34536]}},
{"type": "Feature", "id": "oXLKcDeYrtkhdUG4kzu7nk2yk1U=", "properties": {"ref": "164", "@spider": "lidl_ie", "shop": "supermarket", "addr:full": "Nutgrove Avenue, Dublin 14, Dublin, D14 VF97, Ireland", "addr:street_address": "Nutgrove Avenue", "addr:city": "Dublin 14", "addr:state": "Dublin", "addr:postcode": "D14 VF97", "addr:country": "IE", "name": "Nutgrove", "opening_hours": "Mo-Sa 08:00-22:00; Su 09:00-21:00", "brand": "Lidl", "brand:wikidata": "Q151954", "nsi_id": "lidl-5866c3"}, "geometry": {"type": "Point", "coordinates": [-6.26338, 53.29146]}},
{"type": "Feature", "id": "YdzQwo25EQoPeqJH-RmXn3s_yNo=", "properties": {"ref": "165", "@spider": "lidl_ie", "shop": "supermarket", "addr:full": "Clonmel Road, Carrick-on-Suir, Tipperary, E32 KD27, Ireland", "addr:street_address": "Clonmel Road", "addr:city": "Carrick-on-Suir", "addr:state": "Tipperary", "addr:postcode": "E32 KD27", "addr:country": "IE", "name": "Carrick-on-Suir", "opening_hours": "Mo-Sa 08:00-22:00; Su 09:00-21:00", "brand": "Lidl", "brand:wikidata": "Q151954", "nsi_id": "lidl-5866c3"}, "geometry": {"type": "Point", "coordinates": [-7.42398, 52.34901]}},
{"type": "Feature", "id": "AKeXSjimGCRITmhkrcMpMECh-N4=", "properties": {"ref": "166", "@spider": "lidl_ie", "shop": "supermarket", "addr:full": "Stillorgan Plaza Stillorgan, Dublin, Dublin, A94 T6K0, Ireland", "addr:street_address": "Stillorgan Plaza Stillorgan", "addr:city": "Dublin", "addr:state": "Dublin", "addr:postcode": "A94 T6K0", "addr:country": "IE", "name": "Stillorgan", "opening_hours": "Mo-Sa 08:00-22:00; Su 09:00-21:00", "brand": "Lidl", "brand:wikidata": "Q151954", "nsi_id": "lidl-5866c3"}, "geometry": {"type": "Point", "coordinates": [-6.19839, 53.28857]}},
{"type": "Feature", "id": "KzGxwmCpcw2KmN1LoxOREo37CeY=", "properties": {"ref": "167", "@spider": "lidl_ie", "shop": "supermarket", "addr:full": "Railway Road Co. Kerry, Kenmare, Kerry, V93 EY05, Ireland", "addr:street_address": "Railway Road Co. Kerry", "addr:city": "Kenmare", "addr:state": "Kerry", "addr:postcode": "V93 EY05", "addr:country": "IE", "name": "Kenmare", "opening_hours": "Mo-Sa 08:00-22:00; Su 09:00-21:00", "brand": "Lidl", "brand:wikidata": "Q151954", "nsi_id": "lidl-5866c3"}, "geometry": {"type": "Point", "coordinates": [-9.57956, 51.88506]}},
{"type": "Feature", "id": "crSkJX9JcE_29YEGcndtgw79_Eg=", "properties": {"ref": "168", "@spider": "lidl_ie", "shop": "supermarket", "addr:full": "Youghals Co Cork, Clonakilty, Cork, P85 KX88, Ireland", "addr:street_address": "Youghals Co Cork", "addr:city": "Clonakilty", "addr:state": "Cork", "addr:postcode": "P85 KX88", "addr:country": "IE", "name": "Clonakilty", "opening_hours": "Mo-Sa 08:00-22:00", "brand": "Lidl", "brand:wikidata": "Q151954", "nsi_id": "lidl-5866c3"}, "geometry": {"type": "Point", "coordinates": [-8.88675, 51.62055]}},
{"type": "Feature", "id": "oNcsXJ5_Ttcx9hMKX1z16tEaqjQ=", "properties": {"ref": "169", "@spider": "lidl_ie", "shop": "supermarket", "addr:full": "Ranelagh Road, Dublin, Dublin, D06 VP02, Ireland", "addr:street_address": "Ranelagh Road", "addr:city": "Dublin", "addr:state": "Dublin", "addr:postcode": "D06 VP02", "addr:country": "IE", "name": "Ranelagh", "opening_hours": "Mo-Sa 08:00-22:00; Su 09:00-21:00", "brand": "Lidl", "brand:wikidata": "Q151954", "nsi_id": "lidl-5866c3"}, "geometry": {"type": "Point", "coordinates": [-6.25448, 53.32536]}},
{"type": "Feature", "id": "mfjPN4QEG5PP7yxJf2FIWCSBU_o=", "properties": {"ref": "170", "@spider": "lidl_ie", "shop": "supermarket", "addr:full": "Doughiska, Galway, Galway, H91 Y57F, Ireland", "addr:street_address": "Doughiska", "addr:city": "Galway", "addr:state": "Galway", "addr:postcode": "H91 Y57F", "addr:country": "IE", "name": "Galway - Doughiska", "opening_hours": "Mo-Sa 08:00-22:00; Su 09:00-21:00", "brand": "Lidl", "brand:wikidata": "Q151954", "nsi_id": "lidl-5866c3"}, "geometry": {"type": "Point", "coordinates": [-8.9802, 53.28443]}},
{"type": "Feature", "id": "QnZbEbJvxau1rZgH2CuOyMiwZY0=", "properties": {"ref": "171", "@spider": "lidl_ie", "shop": "supermarket", "addr:full": "Butterly Business Park, Dublin, Dublin, D05 X6E4, Ireland", "addr:street_address": "Butterly Business Park", "addr:city": "Dublin", "addr:state": "Dublin", "addr:postcode": "D05 X6E4", "addr:country": "IE", "name": "Artane", "opening_hours": "Mo-Sa 08:00-22:00; Su 09:00-21:00", "brand": "Lidl", "brand:wikidata": "Q151954", "nsi_id": "lidl-5866c3"}, "geometry": {"type": "Point", "coordinates": [-6.21426, 53.38506]}},
{"type": "Feature", "id": "UoMHe6UqivbavNjpUcsf5DtFHlU=", "properties": {"ref": "172", "@spider": "lidl_ie", "shop": "supermarket", "addr:full": "18 Rathfarnham Road Dubin 6W, Terenure, Dublin, D6W WC60, Ireland", "addr:street_address": "18 Rathfarnham Road Dubin 6W", "addr:city": "Terenure", "addr:state": "Dublin", "addr:postcode": "D6W WC60", "addr:country": "IE", "name": "Terenure", "opening_hours": "Mo-Sa 08:00-22:00", "brand": "Lidl", "brand:wikidata": "Q151954", "nsi_id": "lidl-5866c3"}, "geometry": {"type": "Point", "coordinates": [-6.28326, 53.30913]}},
{"type": "Feature", "id": "6Non3ZeMKyPgBohCQ3X4_mKTbv8=", "properties": {"ref": "173", "@spider": "lidl_ie", "shop": "supermarket", "addr:full": "Oldcourt Road, Ballycullen, Dublin, D24 W252, Ireland", "addr:street_address": "Oldcourt Road", "addr:city": "Ballycullen", "addr:state": "Dublin", "addr:postcode": "D24 W252", "addr:country": "IE", "name": "Ballycullen", "opening_hours": "Mo-Sa 08:00-22:00; Su 09:00-21:00", "brand": "Lidl", "brand:wikidata": "Q151954", "nsi_id": "lidl-5866c3"}, "geometry": {"type": "Point", "coordinates": [-6.33557, 53.26944]}},
{"type": "Feature", "id": "xjJTDaui3zQ7JqeOVqxBUI5R34s=", "properties": {"ref": "174", "@spider": "lidl_ie", "shop": "supermarket", "addr:full": "Harbour Street, Kilcock, Kildare, W23 NTC1, Ireland", "addr:street_address": "Harbour Street", "addr:city": "Kilcock", "addr:state": "Kildare", "addr:postcode": "W23 NTC1", "addr:country": "IE", "name": "Kilcock", "opening_hours": "Mo-Sa 08:00-21:00; Su 09:00-21:00", "brand": "Lidl", "brand:wikidata": "Q151954", "nsi_id": "lidl-5866c3"}, "geometry": {"type": "Point", "coordinates": [-6.66485, 53.3985]}},
{"type": "Feature", "id": "oOmL70WaFH2vEH8iglto1hcrYgo=", "properties": {"ref": "178", "@spider": "lidl_ie", "shop": "supermarket", "addr:full": "The Cornmarket Centre Unit 5, Cork, Cork, T12 K2XT, Ireland", "addr:street_address": "The Cornmarket Centre Unit 5", "addr:city": "Cork", "addr:state": "Cork", "addr:postcode": "T12 K2XT", "addr:country": "IE", "name": "Cork - Cornmarket", "opening_hours": "Mo-Sa 07:30-22:00; Su 09:00-21:00", "brand": "Lidl", "brand:wikidata": "Q151954", "nsi_id": "lidl-5866c3"}, "geometry": {"type": "Point", "coordinates": [-8.47656, 51.89956]}},
{"type": "Feature", "id": "Ysw5IepQAWnH2IfI-eSlFWfpLc4=", "properties": {"ref": "179", "@spider": "lidl_ie", "shop": "supermarket", "addr:full": "Port Road, Letterkenny, Donegal, F92P024, Ireland", "addr:street_address": "Port Road", "addr:city": "Letterkenny", "addr:state": "Donegal", "addr:postcode": "F92P024", "addr:country": "IE", "name": "Donegal - Port Road", "opening_hours": "Mo-Sa 08:00-21:00; Su 09:00-21:00", "brand": "Lidl", "brand:wikidata": "Q151954", "nsi_id": "lidl-5866c3"}, "geometry": {"type": "Point", "coordinates": [-7.71789, 54.94971]}},
{"type": "Feature", "id": "hI0DHLFhzp3xkp6ym34BJ-Rd09k=", "properties": {"ref": "180", "@spider": "lidl_ie", "shop": "supermarket", "addr:full": "St Margaret's Road, Dublin, Dublin, D11 C6C6, Ireland", "addr:street_address": "St Margaret's Road", "addr:city": "Dublin", "addr:state": "Dublin", "addr:postcode": "D11 C6C6", "addr:country": "IE", "name": "Finglas", "opening_hours": "Mo-Sa 08:00-22:00; Su 09:00-21:00", "brand": "Lidl", "brand:wikidata": "Q151954", "nsi_id": "lidl-5866c3"}, "geometry": {"type": "Point", "coordinates": [-6.30439, 53.39744]}},
{"type": "Feature", "id": "GCKNV6xorvDOh9mQFvNkGVK2LUk=", "properties": {"ref": "181", "@spider": "lidl_ie", "shop": "supermarket", "addr:full": "East Wall Road, East Wall, Dublin, D03 DK29, Ireland", "addr:street_address": "East Wall Road", "addr:city": "East Wall", "addr:state": "Dublin", "addr:postcode": "D03 DK29", "addr:country": "IE", "name": "East Wall", "opening_hours": "Mo-Sa 08:00-22:00; Su 09:00-21:00", "brand": "Lidl", "brand:wikidata": "Q151954", "nsi_id": "lidl-5866c3"}, "geometry": {"type": "Point", "coordinates": [-6.23341, 53.35622]}},
{"type": "Feature", "id": "L1UO03SeSHSk4J8AnHQmSblD04Q=", "properties": {"ref": "182", "@spider": "lidl_ie", "shop": "supermarket", "addr:full": "Old Belgard Road, Tallaght, Dublin, D24 V2VW, Ireland", "addr:street_address": "Old Belgard Road", "addr:city": "Tallaght", "addr:state": "Dublin", "addr:postcode": "D24 V2VW", "addr:country": "IE", "name": "Tallaght - Belgard", "opening_hours": "Mo-Sa 08:00-22:00; Su 09:00-21:00", "brand": "Lidl", "brand:wikidata": "Q151954", "nsi_id": "lidl-5866c3"}, "geometry": {"type": "Point", "coordinates": [-6.37856, 53.30214]}},
{"type": "Feature", "id": "tYgEwXZDatk8eJ1-LN051icWdb8=", "properties": {"ref": "184", "@spider": "lidl_ie", "shop": "supermarket", "addr:full": "Patrick Street, Mullingar, Westmeath, N91 C7NH, Ireland", "addr:street_address": "Patrick Street", "addr:city": "Mullingar", "addr:state": "Westmeath", "addr:postcode": "N91 C7NH", "addr:country": "IE", "name": "Mullingar-Patrick Street", "opening_hours": "Mo-Sa 08:00-22:00; Su 09:00-21:00", "brand": "Lidl", "brand:wikidata": "Q151954", "nsi_id": "lidl-5866c3"}, "geometry": {"type": "Point", "coordinates": [-7.3607, 53.52074]}},
{"type": "Feature", "id": "IJlV31UvG5vtHJXoHk8Jyosy7aA=", "properties": {"ref": "185", "@spider": "lidl_ie", "shop": "supermarket", "addr:full": "Bohernasup, Ballina, Mayo, F26 TX04, Ireland", "addr:street_address": "Bohernasup", "addr:city": "Ballina", "addr:state": "Mayo", "addr:postcode": "F26 TX04", "addr:country": "IE", "name": "Ballina-Bohernasup", "opening_hours": "Mo-Sa 08:00-22:00; Su 09:00-21:00", "brand": "Lidl", "brand:wikidata": "Q151954", "nsi_id": "lidl-5866c3"}, "geometry": {"type": "Point", "coordinates": [-9.15325, 54.11722]}},
{"type": "Feature", "id": "aXfjoMzSGdhiZUNbtjcTVf2CFs4=", "properties": {"ref": "186", "@spider": "lidl_ie", "shop": "supermarket", "addr:full": "Dublin Road Miltonsfields, Swords, Dublin, K67 E6A2, Ireland", "addr:street_address": "Dublin Road Miltonsfields", "addr:city": "Swords", "addr:state": "Dublin", "addr:postcode": "K67 E6A2", "addr:country": "IE", "name": "Swords - Dublin Road", "opening_hours": "Mo-Sa 08:00-22:00; Su 09:00-21:00", "brand": "Lidl", "brand:wikidata": "Q151954", "nsi_id": "lidl-5866c3"}, "geometry": {"type": "Point", "coordinates": [-6.22576, 53.45109]}},
{"type": "Feature", "id": "DY7paLLUYKWPVnFfsGn-r3uppAM=", "properties": {"ref": "187", "@spider": "lidl_ie", "shop": "supermarket", "addr:full": "Sallynoggin Road, Dublin, Dublin, A96 V2Y6, Ireland", "addr:street_address": "Sallynoggin Road", "addr:city": "Dublin", "addr:state": "Dublin", "addr:postcode": "A96 V2Y6", "addr:country": "IE", "name": "Glenageary", "opening_hours": "Mo-Sa 08:00-22:00; Su 09:00-21:00", "brand": "Lidl", "brand:wikidata": "Q151954", "nsi_id": "lidl-5866c3"}, "geometry": {"type": "Point", "coordinates": [-6.13757, 53.27916]}},
{"type": "Feature", "id": "cLx0Wc944_vOE_TZEbQawRs14JU=", "properties": {"ref": "189", "@spider": "lidl_ie", "shop": "supermarket", "addr:full": "Castleknock Road, Castleknock, CorK, D15 X24W, Ireland", "addr:street_address": "Castleknock Road", "addr:city": "Castleknock", "addr:state": "CorK", "addr:postcode": "D15 X24W", "addr:country": "IE", "name": "Castleknock", "brand": "Lidl", "brand:wikidata": "Q151954", "nsi_id": "lidl-5866c3"}, "geometry": {"type": "Point", "coordinates": [-6.36209, 53.37329]}},
{"type": "Feature", "id": "vmiDdTiNIf0u3vBkHOQDOhGRKaM=", "properties": {"ref": "190", "@spider": "lidl_ie", "shop": "supermarket", "addr:full": "Riverstown, Cork, CorK, K67 WK33, Ireland", "addr:street_address": "Riverstown", "addr:city": "Cork", "addr:state": "CorK", "addr:postcode": "K67 WK33", "addr:country": "IE", "name": "Cork - Glanmire", "brand": "Lidl", "brand:wikidata": "Q151954", "nsi_id": "lidl-5866c3"}, "geometry": {"type": "Point", "coordinates": [-8.38934, 51.92756]}},
{"type": "Feature", "id": "7tVN0Ju9zaTqqB9961zCNuY0QFU=", "properties": {"ref": "191", "@spider": "lidl_ie", "shop": "supermarket", "addr:full": "Leinster Street, Athy, Kildare, R14 VN24, Ireland", "addr:street_address": "Leinster Street", "addr:city": "Athy", "addr:state": "Kildare", "addr:postcode": "R14 VN24", "addr:country": "IE", "name": "Athy-Leinster Street", "opening_hours": "Mo-Sa 08:00-22:00; Su 09:00-21:00", "brand": "Lidl", "brand:wikidata": "Q151954", "nsi_id": "lidl-5866c3"}, "geometry": {"type": "Point", "coordinates": [-6.9779, 52.99301]}},
{"type": "Feature", "id": "M-RGo43iQKpvaq9KMcVAvuoCpdo=", "properties": {"ref": "192", "@spider": "lidl_ie", "shop": "supermarket", "addr:full": "71 Aungier Street, Dublin 2, D02 YD68, Ireland", "addr:street_address": "71 Aungier Street", "addr:state": "Dublin 2", "addr:postcode": "D02 YD68", "addr:country": "IE", "name": "Dublin - Aungier Street", "brand": "Lidl", "brand:wikidata": "Q151954", "nsi_id": "lidl-5866c3"}, "geometry": {"type": "Point", "coordinates": [-6.26584, 53.34083]}},
{"type": "Feature", "id": "nYUNRW5ibmOOgKifrXNFteOgHHQ=", "properties": {"ref": "193", "@spider": "lidl_ie", "shop": "supermarket", "addr:full": "Arklow Street, Gorey, Wexford, Y25 PK20, Ireland", "addr:street_address": "Arklow Street", "addr:city": "Gorey", "addr:state": "Wexford", "addr:postcode": "Y25 PK20", "addr:country": "IE", "name": "Gorey-Arklow Street", "opening_hours": "Mo-Sa 08:00-22:00; Su 09:00-21:00", "brand": "Lidl", "brand:wikidata": "Q151954", "nsi_id": "lidl-5866c3"}, "geometry": {"type": "Point", "coordinates": [-6.28786, 52.67841]}},
{"type": "Feature", "id": "q3WA6MjgwFR-dPIGiXtYOgDsC8w=", "properties": {"ref": "194", "@spider": "lidl_ie", "shop": "supermarket", "addr:full": "Old Cabra Road, Dublin, Dublin, D07 AX94, Ireland", "addr:street_address": "Old Cabra Road", "addr:city": "Dublin", "addr:state": "Dublin", "addr:postcode": "D07 AX94", "addr:country": "IE", "name": "Cabra", "opening_hours": "Mo-Sa 08:00-22:00; Su 09:00-21:00", "brand": "Lidl", "brand:wikidata": "Q151954", "nsi_id": "lidl-5866c3"}, "geometry": {"type": "Point", "coordinates": [-6.28826, 53.35799]}},
{"type": "Feature", "id": "I9Uf9dUrBmv8CzoZfEwYr7YuLqI=", "properties": {"ref": "195", "@spider": "lidl_ie", "shop": "supermarket", "addr:full": "Strand Road, Portmarnock, Dublin, D13 APK0, Ireland", "addr:street_address": "Strand Road", "addr:city": "Portmarnock", "addr:state": "Dublin", "addr:postcode": "D13 APK0", "addr:country": "IE", "name": "Portmarnock", "opening_hours": "Mo-Sa 08:00-22:00; Su 09:00-21:00", "brand": "Lidl", "brand:wikidata": "Q151954", "nsi_id": "lidl-5866c3"}, "geometry": {"type": "Point", "coordinates": [-6.1385, 53.4211]}},
{"type": "Feature", "id": "dWfgmFtKyk27sLUyj5O_qNNCFSE=", "properties": {"ref": "196", "@spider": "lidl_ie", "shop": "supermarket", "addr:full": "Davis Road, Clonmel, Tipperary, E91 YH98, Ireland", "addr:street_address": "Davis Road", "addr:city": "Clonmel", "addr:state": "Tipperary", "addr:postcode": "E91 YH98", "addr:country": "IE", "name": "Clonmel-Davis Road", "opening_hours": "Mo-Sa 08:00-22:00; Su 09:00-21:00", "brand": "Lidl", "brand:wikidata": "Q151954", "nsi_id": "lidl-5866c3"}, "geometry": {"type": "Point", "coordinates": [-7.68387, 52.35699]}},
{"type": "Feature", "id": "JpuNXOHvB8VzD-cK74TYx7PIwEU=", "properties": {"ref": "197", "@spider": "lidl_ie", "shop": "supermarket", "addr:full": "Bishopstown Road, Wilton, Cork, Co. Cork, Ireland", "addr:street_address": "Bishopstown Road", "addr:city": "Wilton", "addr:state": "Cork", "addr:postcode": "Co. Cork", "addr:country": "IE", "name": "Wilton", "opening_hours": "Mo-Sa 08:00-22:00; Su 09:00-21:00", "brand": "Lidl", "brand:wikidata": "Q151954", "nsi_id": "lidl-5866c3"}, "geometry": {"type": "Point", "coordinates": [-8.51233, 51.8812]}},
{"type": "Feature", "id": "She0MjmoSBqbqoLtQsp-KRC0HpI=", "properties": {"ref": "198", "@spider": "lidl_ie", "shop": "supermarket", "addr:full": "Edward Street, Tralee, Kerry, V92 DXH1, Ireland", "addr:street_address": "Edward Street", "addr:city": "Tralee", "addr:state": "Kerry", "addr:postcode": "V92 DXH1", "addr:country": "IE", "name": "Tralee-Edward Street", "opening_hours": "Mo-Sa 08:00-22:00; Su 09:00-21:00", "brand": "Lidl", "brand:wikidata": "Q151954", "nsi_id": "lidl-5866c3"}, "geometry": {"type": "Point", "coordinates": [-9.70041, 52.27005]}},
{"type": "Feature", "id": "GwGXZtsLhmuGWR7mnhLGcA6hucA=", "properties": {"ref": "199", "@spider": "lidl_ie", "shop": "supermarket", "addr:full": "Ballyjamesduff Road, Virginia, Cavan, A82 R6W4, Ireland", "addr:street_address": "Ballyjamesduff Road", "addr:city": "Virginia", "addr:state": "Cavan", "addr:postcode": "A82 R6W4", "addr:country": "IE", "name": "Virginia", "opening_hours": "Mo-Sa 08:00-22:00; Su 09:00-21:00", "brand": "Lidl", "brand:wikidata": "Q151954", "nsi_id": "lidl-5866c3"}, "geometry": {"type": "Point", "coordinates": [-7.08646, 53.83452]}},
{"type": "Feature", "id": "6rv6bRTawxXWQwMR_ymHgq-Roac=", "properties": {"ref": "202", "@spider": "lidl_ie", "shop": "supermarket", "addr:full": "Fair Green, Macroom, Cork, P12 A273, Ireland", "addr:street_address": "Fair Green", "addr:city": "Macroom", "addr:state": "Cork", "addr:postcode": "P12 A273", "addr:country": "IE", "name": "Macroom-Fair Green", "brand": "Lidl", "brand:wikidata": "Q151954", "nsi_id": "lidl-5866c3"}, "geometry": {"type": "Point", "coordinates": [-8.95499, 51.90603]}},
{"type": "Feature", "id": "q1lEdXpvR6d6MmgieTRc4h_W364=", "properties": {"ref": "203", "@spider": "lidl_ie", "shop": "supermarket", "addr:full": "Finisklin, Sligo, Sligo, F91 P523, Ireland", "addr:street_address": "Finisklin", "addr:city": "Sligo", "addr:state": "Sligo", "addr:postcode": "F91 P523", "addr:country": "IE", "name": "Sligo - Finisklin Road", "opening_hours": "Mo-Sa 08:00-22:00; Su 09:00-21:00", "brand": "Lidl", "brand:wikidata": "Q151954", "nsi_id": "lidl-5866c3"}, "geometry": {"type": "Point", "coordinates": [-8.48203, 54.27423]}},
{"type": "Feature", "id": "AjjjjQaEM4honTgdkmmAgbY1TuY=", "properties": {"ref": "204", "@spider": "lidl_ie", "shop": "supermarket", "addr:full": "Glengariff Road, Bantry, Cork, P75 R282, Ireland", "addr:street_address": "Glengariff Road", "addr:city": "Bantry", "addr:state": "Cork", "addr:postcode": "P75 R282", "addr:country": "IE", "name": "Bantry", "opening_hours": "Mo-Sa 08:00-21:00; Su 09:00-21:00", "brand": "Lidl", "brand:wikidata": "Q151954", "nsi_id": "lidl-5866c3"}, "geometry": {"type": "Point", "coordinates": [-9.4447, 51.6892]}},
{"type": "Feature", "id": "XeRhPM7Lr7mj_D5qqDFd3vV_qao=", "properties": {"ref": "205", "@spider": "lidl_ie", "shop": "supermarket", "addr:full": "Childers Road, Limerick, Limerick, V94 T2H2, Ireland", "addr:street_address": "Childers Road", "addr:city": "Limerick", "addr:state": "Limerick", "addr:postcode": "V94 T2H2", "addr:country": "IE", "name": "Childers Road", "brand": "Lidl", "brand:wikidata": "Q151954", "nsi_id": "lidl-5866c3"}, "geometry": {"type": "Point", "coordinates": [-8.63526, 52.6488]}},
{"type": "Feature", "id": "j8q1DQwx03_vztNooz9Xz9Ctbj8=", "properties": {"ref": "206", "@spider": "lidl_ie", "shop": "supermarket", "addr:full": "Main Street Tallaght Dublin 24, Tallaght, Dublin, D24 N5XV, Ireland", "addr:street_address": "Main Street Tallaght Dublin 24", "addr:city": "Tallaght", "addr:state": "Dublin", "addr:postcode": "D24 N5XV", "addr:country": "IE", "name": "Tallaght", "brand": "Lidl", "brand:wikidata": "Q151954", "nsi_id": "lidl-5866c3"}, "geometry": {"type": "Point", "coordinates": [-6.35435, 53.28832]}},
{"type": "Feature", "id": "XP67livxMGGWdqVNHrGhjrDHDOc=", "properties": {"ref": "207", "@spider": "lidl_ie", "shop": "supermarket", "addr:full": "Martyr's Road, Nenagh, Tipperary, E45 TP86, Ireland", "addr:street_address": "Martyr's Road", "addr:city": "Nenagh", "addr:state": "Tipperary", "addr:postcode": "E45 TP86", "addr:country": "IE", "name": "Nenagh", "brand": "Lidl", "brand:wikidata": "Q151954", "nsi_id": "lidl-5866c3"}, "geometry": {"type": "Point", "coordinates": [-8.19474, 52.86405]}},
{"type": "Feature", "id": "Kn_xxeRFx8UjrGv7fMB1qYq96nM=", "properties": {"ref": "208", "@spider": "lidl_ie", "shop": "supermarket", "addr:full": "Shanganagh Road, Dublin, Dublin, D18 AW22, Ireland", "addr:street_address": "Shanganagh Road", "addr:city": "Dublin", "addr:state": "Dublin", "addr:postcode": "D18 AW22", "addr:country": "IE", "name": "Shankill", "brand": "Lidl", "brand:wikidata": "Q151954", "nsi_id": "lidl-5866c3"}, "geometry": {"type": "Point", "coordinates": [-6.12162, 53.23416]}},
{"type": "Feature", "id": "mSuXBNOjQkgTUQSj1UnEFm2gQkQ=", "properties": {"ref": "209", "@spider": "lidl_ie", "shop": "supermarket", "addr:full": "Drumcondra Road Upper, Drumcondra, Dublin, Dublin 9, Ireland", "addr:street_address": "Drumcondra Road Upper", "addr:city": "Drumcondra", "addr:state": "Dublin", "addr:postcode": "Dublin 9", "addr:country": "IE", "name": "Drumcondra", "brand": "Lidl", "brand:wikidata": "Q151954", "nsi_id": "lidl-5866c3"}, "geometry": {"type": "Point", "coordinates": [-6.25269, 53.37266]}},
{"type": "Feature", "id": "18-LsCTneAOgrzYJ7oMQ7dC5uFg=", "properties": {"ref": "210", "@spider": "lidl_ie", "shop": "supermarket", "addr:full": "Mount Agnes Road, Cork - Churchfield, Cork, T23 HD53, Ireland", "addr:street_address": "Mount Agnes Road", "addr:city": "Cork - Churchfield", "addr:state": "Cork", "addr:postcode": "T23 HD53", "addr:country": "IE", "name": "Cork - Churchfield", "opening_hours": "Mo-Sa 08:00-22:00; Su 09:00-21:00", "brand": "Lidl", "brand:wikidata": "Q151954", "nsi_id": "lidl-5866c3"}, "geometry": {"type": "Point", "coordinates": [-8.49002, 51.91151]}},
{"type": "Feature", "id": "GLwj0kAbbsVN05eci8Jw3SchM6g=", "properties": {"ref": "211", "@spider": "lidl_ie", "shop": "supermarket", "addr:full": "Grangegorman, Dublin 7, Dublin, D07 WFP6, Ireland", "addr:street_address": "Grangegorman", "addr:city": "Dublin 7", "addr:state": "Dublin", "addr:postcode": "D07 WFP6", "addr:country": "IE", "name": "Grangegorman", "opening_hours": "Mo-Sa 08:00-22:00; Su 09:00-21:00", "brand": "Lidl", "brand:wikidata": "Q151954", "nsi_id": "lidl-5866c3"}, "geometry": {"type": "Point", "coordinates": [-6.27894, 53.35062]}},
{"type": "Feature", "id": "8DQY3an6nseffcfP6qrVTJt_lj8=", "properties": {"ref": "212", "toilets": "yes", "toilets:access": "customers", "@spider": "lidl_ie", "shop": "supermarket", "addr:full": "Banteer Road, Kanturk, P51 NX40, Ireland", "addr:street_address": "Banteer Road", "addr:state": "Kanturk", "addr:postcode": "P51 NX40", "addr:country": "IE", "name": "Kanturk", "brand": "Lidl", "brand:wikidata": "Q151954", "nsi_id": "lidl-5866c3"}, "geometry": {"type": "Point", "coordinates": [-8.90318, 52.17185]}},
{"type": "Feature", "id": "RmZFYbu69s9Fxb4CQOj5RJmawVo=", "properties": {"ref": "214", "@spider": "lidl_ie", "shop": "supermarket", "addr:full": "Dublin Road, Edenderry, Offaly, R45 AK24, Ireland", "addr:street_address": "Dublin Road", "addr:city": "Edenderry", "addr:state": "Offaly", "addr:postcode": "R45 AK24", "addr:country": "IE", "name": "Edenderry", "opening_hours": "Mo-Sa 08:00-21:00; Su 09:00-21:00", "brand": "Lidl", "brand:wikidata": "Q151954", "nsi_id": "lidl-5866c3"}, "geometry": {"type": "Point", "coordinates": [-7.04237, 53.34521]}},
{"type": "Feature", "id": "a7mHi_0TNXX_03RZxkUAvuAaThY=", "properties": {"ref": "215", "@spider": "lidl_ie", "shop": "supermarket", "addr:full": "Cranmore Road, Sligo, Ireland", "addr:street_address": "Cranmore Road", "addr:state": "Sligo", "addr:country": "IE", "opening_hours": "Mo-Sa 08:00-22:00; Su 09:00-21:00", "brand": "Lidl", "brand:wikidata": "Q151954", "nsi_id": "lidl-5866c3"}, "geometry": {"type": "Point", "coordinates": [-8.46015, 54.26752]}},
{"type": "Feature", "id": "2dYewg6FCNiVzkw6cmneonOBt-4=", "properties": {"ref": "216", "@spider": "lidl_ie", "shop": "supermarket", "addr:full": "Cork Road, Mitchelstown, P67 D718, Ireland", "addr:street_address": "Cork Road", "addr:state": "Mitchelstown", "addr:postcode": "P67 D718", "addr:country": "IE", "opening_hours": "Mo-Sa 08:00-22:00; Su 09:00-21:00", "brand": "Lidl", "brand:wikidata": "Q151954", "nsi_id": "lidl-5866c3"}, "geometry": {"type": "Point", "coordinates": [-8.27082, 52.26138]}},
{"type": "Feature", "id": "kU_nI2LRdNcx6diwFvjkIgmkEcA=", "properties": {"ref": "217", "@spider": "lidl_ie", "shop": "supermarket", "addr:full": "Donore Road, Drogheda, Louth, A92 HF25, Ireland", "addr:street_address": "Donore Road", "addr:city": "Drogheda", "addr:state": "Louth", "addr:postcode": "A92 HF25", "addr:country": "IE", "name": "Drogheda - Donore Road", "opening_hours": "Mo-Sa 08:00-22:00; Su 09:00-21:00", "brand": "Lidl", "brand:wikidata": "Q151954", "nsi_id": "lidl-5866c3"}, "geometry": {"type": "Point", "coordinates": [-6.36981, 53.70618]}},
{"type": "Feature", "id": "E2fN82Lpc4PGCLj6RohrxiXd5Gc=", "properties": {"ref": "218", "@spider": "lidl_ie", "shop": "supermarket", "addr:full": "M1 Retail Park, Drogheda, Louth, A92 YX97, Ireland", "addr:street_address": "M1 Retail Park", "addr:city": "Drogheda", "addr:state": "Louth", "addr:postcode": "A92 YX97", "addr:country": "IE", "name": "Drogheda M1 Retail Park", "opening_hours": "Mo-Sa 08:00-22:00; Su 09:00-21:00", "brand": "Lidl", "brand:wikidata": "Q151954", "nsi_id": "lidl-5866c3"}, "geometry": {"type": "Point", "coordinates": [-6.38636, 53.72637]}},
{"type": "Feature", "id": "fp8pk46QCkjaYkl077Yhj1sPN3w=", "properties": {"ref": "220", "@spider": "lidl_ie", "shop": "supermarket", "addr:full": "Tullamore Road, Birr, Offaly, R42 YN52, Ireland", "addr:street_address": "Tullamore Road", "addr:city": "Birr", "addr:state": "Offaly", "addr:postcode": "R42 YN52", "addr:country": "IE", "name": "Birr", "opening_hours": "Mo-Sa 08:00-22:00; Su 09:00-21:00", "brand": "Lidl", "brand:wikidata": "Q151954", "nsi_id": "lidl-5866c3"}, "geometry": {"type": "Point", "coordinates": [-7.90589, 53.1048]}},
{"type": "Feature", "id": "ICOd4QitrODACiRjsL26TSUjnTA=", "properties": {"ref": "221", "@spider": "lidl_ie", "shop": "supermarket", "addr:full": "Main Street, Dunshaughlin, Meath, A85 C840, Ireland", "addr:street_address": "Main Street", "addr:city": "Dunshaughlin", "addr:state": "Meath", "addr:postcode": "A85 C840", "addr:country": "IE", "name": "Dunshaughlin", "opening_hours": "Mo-Sa 08:00-22:00; Su 09:00-21:00", "brand": "Lidl", "brand:wikidata": "Q151954", "nsi_id": "lidl-5866c3"}, "geometry": {"type": "Point", "coordinates": [-6.53991, 53.51313]}},
{"type": "Feature", "id": "RqZl9f8CO2088dXfmJ6UMYCDM9c=", "properties": {"ref": "222", "@spider": "lidl_ie", "shop": "supermarket", "addr:full": "Fortunestown Lane, Dublin, Dublin, D24 XR74, Ireland", "addr:street_address": "Fortunestown Lane", "addr:city": "Dublin", "addr:state": "Dublin", "addr:postcode": "D24 XR74", "addr:country": "IE", "name": "Fortunestown", "opening_hours": "Mo-Sa 08:00-22:00; Su 09:00-21:00", "brand": "Lidl", "brand:wikidata": "Q151954", "nsi_id": "lidl-5866c3"}, "geometry": {"type": "Point", "coordinates": [-6.41802, 53.28527]}},
{"type": "Feature", "id": "wvrJbvJxoakVRfLL-4090axjO0Q=", "properties": {"ref": "224", "toilets": "yes", "toilets:access": "customers", "@spider": "lidl_ie", "shop": "supermarket", "addr:full": "Ballbofey Road, Drumlonagher, Donegal, F94 FW18, Ireland", "addr:street_address": "Ballbofey Road, Drumlonagher", "addr:state": "Donegal", "addr:postcode": "F94 FW18", "addr:country": "IE", "name": "Donegal", "brand": "Lidl", "brand:wikidata": "Q151954", "nsi_id": "lidl-5866c3"}, "geometry": {"type": "Point", "coordinates": [-8.08814, 54.65851]}},
{"type": "Feature", "id": "SilxkEJtsuzstavM7jK7-poTCpw=", "properties": {"ref": "225", "toilets": "yes", "toilets:access": "customers", "@spider": "lidl_ie", "shop": "supermarket", "addr:full": "Balcurris Road, Ballymun, Dublin 9, D11 WRN8, Ireland", "addr:street_address": "Balcurris Road", "addr:city": "Ballymun", "addr:state": "Dublin 9", "addr:postcode": "D11 WRN8", "addr:country": "IE", "name": "Ballymun", "brand": "Lidl", "brand:wikidata": "Q151954", "nsi_id": "lidl-5866c3"}, "geometry": {"type": "Point", "coordinates": [-6.26596, 53.39775]}},
{"type": "Feature", "id": "EGwprFKqM-SVJQx4xjDlQ8qXz64=", "properties": {"ref": "226", "@spider": "lidl_ie", "shop": "supermarket", "addr:full": "Church Road Tanyard & Carrolls, Tullamore, Offaly, R35 YA38, Ireland", "addr:street_address": "Church Road Tanyard & Carrolls", "addr:city": "Tullamore", "addr:state": "Offaly", "addr:postcode": "R35 YA38", "addr:country": "IE", "name": "Tullamore", "opening_hours": "Mo-Sa 08:00-22:00; Su 09:00-21:00", "brand": "Lidl", "brand:wikidata": "Q151954", "nsi_id": "lidl-5866c3"}, "geometry": {"type": "Point", "coordinates": [-7.48785, 53.27338]}},
{"type": "Feature", "id": "Xp119eO11FCUWbdK418O3MwYBds=", "properties": {"ref": "229", "@spider": "lidl_ie", "shop": "supermarket", "addr:full": "Galway Road, Tuam, Galway, H54 F799, Ireland", "addr:street_address": "Galway Road", "addr:city": "Tuam", "addr:state": "Galway", "addr:postcode": "H54 F799", "addr:country": "IE", "name": "Tuam", "brand": "Lidl", "brand:wikidata": "Q151954", "nsi_id": "lidl-5866c3"}, "geometry": {"type": "Point", "coordinates": [-8.87346, 53.50795]}},
{"type": "Feature", "id": "kzVflIyP3Zc1_uzsEt-p1OEdoqk=", "properties": {"ref": "230", "@spider": "lidl_ie", "shop": "supermarket", "addr:full": "Knock Road, Castlerea, Roscommon, F45 EW84, Ireland", "addr:street_address": "Knock Road", "addr:city": "Castlerea", "addr:state": "Roscommon", "addr:postcode": "F45 EW84", "addr:country": "IE", "name": "Castlerea", "opening_hours": "Mo-Sa 08:00-22:00; Su 09:00-21:01", "brand": "Lidl", "brand:wikidata": "Q151954", "nsi_id": "lidl-5866c3"}, "geometry": {"type": "Point", "coordinates": [-8.4984, 53.76909]}},
{"type": "Feature", "id": "A0PklbnCwIi-J4hJeT-WBkhtj0M=", "properties": {"ref": "231", "@spider": "lidl_ie", "shop": "supermarket", "addr:full": "Mill Road, Youghal, Cork, P36 X015, Ireland", "addr:street_address": "Mill Road", "addr:city": "Youghal", "addr:state": "Cork", "addr:postcode": "P36 X015", "addr:country": "IE", "name": "Youghal", "opening_hours": "Mo-Sa 07:00-22:00; Su 08:00-22:00", "brand": "Lidl", "brand:wikidata": "Q151954", "nsi_id": "lidl-5866c3"}, "geometry": {"type": "Point", "coordinates": [-7.85683, 51.9582]}},
{"type": "Feature", "id": "aiHkz1iucSEzVByuKlhqctqU3IY=", "properties": {"ref": "232", "@spider": "lidl_ie", "shop": "supermarket", "addr:full": "Unit C2 - 3 Gullivers Retail Park, Dublin, Dublin, D09 C424, Ireland", "addr:street_address": "Unit C2 - 3 Gullivers Retail Park", "addr:city": "Dublin", "addr:state": "Dublin", "addr:postcode": "D09 C424", "addr:country": "IE", "name": "Gullivers Retail Park", "opening_hours": "Mo-Fr 07:00-22:00; Su 09:00-21:00", "brand": "Lidl", "brand:wikidata": "Q151954", "nsi_id": "lidl-5866c3"}, "geometry": {"type": "Point", "coordinates": [-6.26133, 53.40546]}},
{"type": "Feature", "id": "PpN8-wVXMN_qeyeby7jEq_DZsOk=", "properties": {"ref": "233", "@spider": "lidl_ie", "shop": "supermarket", "addr:full": "Dublin Rd, Kildare, Kildare, R51 AV63, Ireland", "addr:street_address": "Dublin Rd", "addr:city": "Kildare", "addr:state": "Kildare", "addr:postcode": "R51 AV63", "addr:country": "IE", "name": "Kildare - Dublin Rd", "opening_hours": "Mo-Sa 08:00-22:00; Su 09:00-21:01", "brand": "Lidl", "brand:wikidata": "Q151954", "nsi_id": "lidl-5866c3"}, "geometry": {"type": "Point", "coordinates": [-6.9038, 53.15516]}},
{"type": "Feature", "id": "F9oAPEYoJu2p1JMsgmJuDZufTw8=", "properties": {"ref": "234", "@spider": "lidl_ie", "shop": "supermarket", "addr:full": "Courthouse Road, Fermoy, Cork, P61 HK22, Ireland", "addr:street_address": "Courthouse Road", "addr:city": "Fermoy", "addr:state": "Cork", "addr:postcode": "P61 HK22", "addr:country": "IE", "name": "Fermoy - Courthouse Road", "opening_hours": "Mo-Sa 08:00-22:00; Su 09:00-21:01", "brand": "Lidl", "brand:wikidata": "Q151954", "nsi_id": "lidl-5866c3"}, "geometry": {"type": "Point", "coordinates": [-8.26628, 52.13892]}},
{"type": "Feature", "id": "uzBixSCn5jk2GhCjAd8dIpYKv8k=", "properties": {"ref": "235", "@spider": "lidl_ie", "shop": "supermarket", "addr:full": "Western Distributor Road, Galway, H91H0XH, Ireland", "addr:street_address": "Western Distributor Road", "addr:state": "Galway", "addr:postcode": "H91H0XH", "addr:country": "IE", "opening_hours": "Mo-Sa 08:00-22:00; Su 09:00-21:00", "brand": "Lidl", "brand:wikidata": "Q151954", "nsi_id": "lidl-5866c3"}, "geometry": {"type": "Point", "coordinates": [-9.10016, 53.2707]}},
{"type": "Feature", "id": "bf_PHrDCYJJckUPWghKzFPaWQ_I=", "properties": {"ref": "236", "@spider": "lidl_ie", "shop": "supermarket", "addr:full": "Kilcolman Road, Claremorris, Ireland", "addr:street_address": "Kilcolman Road", "addr:state": "Claremorris", "addr:country": "IE", "opening_hours": "Mo-Sa 08:00-22:00; Su 09:00-21:00", "brand": "Lidl", "brand:wikidata": "Q151954", "nsi_id": "lidl-5866c3"}, "geometry": {"type": "Point", "coordinates": [-8.99158, 53.72395]}},
{"type": "Feature", "id": "0hs-qx1SV9nXLatZOa7YuVUMkLE=", "properties": {"ref": "238", "@spider": "lidl_ie", "shop": "supermarket", "addr:full": "Slievenamon Road, Thurles, Co. Tipperary, E41 W524, Ireland", "addr:street_address": "Slievenamon Road", "addr:city": "Thurles", "addr:state": "Co. Tipperary", "addr:postcode": "E41 W524", "addr:country": "IE", "name": "Thurles", "brand": "Lidl", "brand:wikidata": "Q151954", "nsi_id": "lidl-5866c3"}, "geometry": {"type": "Point", "coordinates": [-7.81203, 52.67433]}},
{"type": "Feature", "id": "ANf186GPOirMlHgHPTVEc8QFO5c=", "properties": {"ref": "239", "@spider": "lidl_ie", "shop": "supermarket", "addr:full": "Clonsilla Link Road, Dublin 15, Clonsilla, D15 T0HE, Ireland", "addr:street_address": "Clonsilla Link Road", "addr:city": "Dublin 15", "addr:state": "Clonsilla", "addr:postcode": "D15 T0HE", "addr:country": "IE", "name": "Clonsilla", "brand": "Lidl", "brand:wikidata": "Q151954", "nsi_id": "lidl-5866c3"}, "geometry": {"type": "Point", "coordinates": [-6.41936, 53.38443]}},
{"type": "Feature", "id": "1v2lLrDi4gH0F7Pl2WktjH1qtfM=", "properties": {"ref": "240", "@spider": "lidl_ie", "shop": "supermarket", "addr:full": "Royal Oak Rd, Muine Bheag, Carlow, Bagenalstown, R21 Y292, Ireland", "addr:street_address": "Royal Oak Rd, Muine Bheag", "addr:city": "Carlow", "addr:state": "Bagenalstown", "addr:postcode": "R21 Y292", "addr:country": "IE", "name": "Bagenalstown", "brand": "Lidl", "brand:wikidata": "Q151954", "nsi_id": "lidl-5866c3"}, "geometry": {"type": "Point", "coordinates": [-6.96503, 52.70044]}},
{"type": "Feature", "id": "we3RYxP2j2YGsIO3aNZftPNrM6Q=", "properties": {"ref": "242", "@spider": "lidl_ie", "shop": "supermarket", "addr:full": "Unit 5 & 6, Wellpark Retail Park, Wellpark Road, Galway, H91 N2P3, Ireland", "addr:street_address": "Unit 5 & 6, Wellpark Retail Park, Wellpark Road", "addr:state": "Galway", "addr:postcode": "H91 N2P3", "addr:country": "IE", "name": "Wellpark", "opening_hours": "Mo-Sa 08:00-22:00; Su 09:00-21:00", "brand": "Lidl", "brand:wikidata": "Q151954", "nsi_id": "lidl-5866c3"}, "geometry": {"type": "Point", "coordinates": [-9.03022, 53.28169]}},
{"type": "Feature", "id": "C3LZwrl1mkR7z-etHgdy6ouil5g=", "properties": {"ref": "243", "@spider": "lidl_ie", "shop": "supermarket", "addr:full": "Corbally Road, Limerick, V94 3Y16, Ireland", "addr:street_address": "Corbally Road", "addr:state": "Limerick", "addr:postcode": "V94 3Y16", "addr:country": "IE", "brand": "Lidl", "brand:wikidata": "Q151954", "nsi_id": "lidl-5866c3"}, "geometry": {"type": "Point", "coordinates": [-8.60545, 52.68661]}},
{"type": "Feature", "id": "TOToCScIUZ-CCh8Y25qX2qIGwLc=", "properties": {"ref": "250", "toilets": "yes", "toilets:access": "customers", "@spider": "lidl_ie", "shop": "supermarket", "addr:full": "Shackleton Drive, Adamstown, Lucan, K78 K7W1, Ireland", "addr:street_address": "Shackleton Drive, Adamstown", "addr:state": "Lucan", "addr:postcode": "K78 K7W1", "addr:country": "IE", "name": "Shackleton", "brand": "Lidl", "brand:wikidata": "Q151954", "nsi_id": "lidl-5866c3"}, "geometry": {"type": "Point", "coordinates": [-6.47367, 53.34621]}},
{"type": "Feature", "id": "PMgV379kPjJIZTxpaOeELEZwG2E=", "properties": {"ref": "251", "@spider": "lidl_ie", "shop": "supermarket", "addr:full": "Limerick Road, Charleville, Ireland", "addr:street_address": "Limerick Road", "addr:state": "Charleville", "addr:country": "IE", "opening_hours": "Mo-Sa 08:00-22:00; Su 08:00-21:00", "brand": "Lidl", "brand:wikidata": "Q151954", "nsi_id": "lidl-5866c3"}, "geometry": {"type": "Point", "coordinates": [-8.68195, 52.36245]}},
{"type": "Feature", "id": "8qbd91f7HjQEY2CcqgOuQzB8uyw=", "properties": {"ref": "254", "@spider": "lidl_ie", "shop": "supermarket", "addr:full": "Station Road, Lusk, K45 RX92, Ireland", "addr:street_address": "Station Road", "addr:state": "Lusk", "addr:postcode": "K45 RX92", "addr:country": "IE", "opening_hours": "Mo-Sa 08:00-22:00; Su 09:00-21:00", "brand": "Lidl", "brand:wikidata": "Q151954", "nsi_id": "lidl-5866c3"}, "geometry": {"type": "Point", "coordinates": [-6.15898, 53.52433]}},
{"type": "Feature", "id": "woB6OjJhGK4w8jgAt8WZRHfcTwI=", "properties": {"ref": "255", "@spider": "lidl_ie", "shop": "supermarket", "addr:full": "Kiltealy Road, Wexford, Enniscorthy, Y21 V208, Ireland", "addr:street_address": "Kiltealy Road", "addr:city": "Wexford", "addr:state": "Enniscorthy", "addr:postcode": "Y21 V208", "addr:country": "IE", "name": "Enniscorthy", "opening_hours": "Mo-Sa 08:00-22:00; Su 09:00-21:00", "brand": "Lidl", "brand:wikidata": "Q151954", "nsi_id": "lidl-5866c3"}, "geometry": {"type": "Point", "coordinates": [-6.58144, 52.50683]}},
{"type": "Feature", "id": "1-4QCLzGcpmrNQ5bznXlVlWorO0=", "properties": {"ref": "258", "@spider": "lidl_ie", "shop": "supermarket", "addr:full": "Boghall Road, Bray, A98 C971, Ireland", "addr:street_address": "Boghall Road", "addr:state": "Bray", "addr:postcode": "A98 C971", "addr:country": "IE", "brand": "Lidl", "brand:wikidata": "Q151954", "nsi_id": "lidl-5866c3"}, "geometry": {"type": "Point", "coordinates": [-6.12352, 53.18953]}},
{"type": "Feature", "id": "r7H1vbNNL1E3ZTmdxOKyqT6KCog=", "properties": {"ref": "259", "@spider": "lidl_ie", "shop": "supermarket", "addr:full": "Talbot St, Dublin, Dublin 1, Ireland", "addr:street_address": "Talbot St", "addr:state": "Dublin", "addr:postcode": "Dublin 1", "addr:country": "IE", "opening_hours": "Mo-Sa 07:00-22:00; Su 09:00-21:00", "brand": "Lidl", "brand:wikidata": "Q151954", "nsi_id": "lidl-5866c3"}, "geometry": {"type": "Point", "coordinates": [-6.25645, 53.35033]}},
{"type": "Feature", "id": "sDQSOUafsz1v0U8GfmC8RahtQ38=", "properties": {"ref": "260", "@spider": "lidl_ie", "shop": "supermarket", "addr:full": "Park Road, Mallow, Ireland", "addr:street_address": "Park Road", "addr:state": "Mallow", "addr:country": "IE", "opening_hours": "Mo-Sa 08:00-22:00; Su 09:00-21:00", "brand": "Lidl", "brand:wikidata": "Q151954", "nsi_id": "lidl-5866c3"}, "geometry": {"type": "Point", "coordinates": [-8.65052, 52.1372]}},
{"type": "Feature", "id": "js6fIMGQcID9OHX8oiDwXs2IXLU=", "properties": {"ref": "262", "@spider": "lidl_ie", "shop": "supermarket", "addr:full": "Bank Place, Tipperary, E34 V583, Ireland", "addr:street_address": "Bank Place", "addr:state": "Tipperary", "addr:postcode": "E34 V583", "addr:country": "IE", "opening_hours": "Mo-Sa 08:00-22:00; Su 09:00-21:00", "brand": "Lidl", "brand:wikidata": "Q151954", "nsi_id": "lidl-5866c3"}, "geometry": {"type": "Point", "coordinates": [-8.1573, 52.4743]}},
{"type": "Feature", "id": "nfgAFE2FPD1p8JdN4WJBKM39DiE=", "properties": {"ref": "264", "@spider": "lidl_ie", "shop": "supermarket", "addr:full": "Dublin Road, Ardee, Ireland", "addr:street_address": "Dublin Road", "addr:state": "Ardee", "addr:country": "IE", "opening_hours": "Mo-Sa 08:00-22:00; Su 09:00-21:00", "brand": "Lidl", "brand:wikidata": "Q151954", "nsi_id": "lidl-5866c3"}, "geometry": {"type": "Point", "coordinates": [-6.53812, 53.84433]}},
{"type": "Feature", "id": "mCQJHjTHdpt3QpVrgnmHaoomm0s=", "properties": {"ref": "266", "@spider": "lidl_ie", "shop": "supermarket", "addr:full": "Blakestown Way, Blakestown, Ireland", "addr:street_address": "Blakestown Way", "addr:state": "Blakestown", "addr:country": "IE", "opening_hours": "Mo-Sa 08:00-22:00; Su 09:00-21:00", "brand": "Lidl", "brand:wikidata": "Q151954", "nsi_id": "lidl-5866c3"}, "geometry": {"type": "Point", "coordinates": [-6.40045, 53.39629]}},
{"type": "Feature", "id": "1VVKErFVArhO2TKjM0cRl0CFfxY=", "properties": {"ref": "271", "@spider": "lidl_ie", "shop": "supermarket", "addr:full": "Rathnew Road, Wicklow, A67 P983, Ireland", "addr:street_address": "Rathnew Road", "addr:state": "Wicklow", "addr:postcode": "A67 P983", "addr:country": "IE", "opening_hours": "Mo-Sa 08:00-22:00; Su 09:00-21:00", "brand": "Lidl", "brand:wikidata": "Q151954", "nsi_id": "lidl-5866c3"}, "geometry": {"type": "Point", "coordinates": [-6.05477, 52.98636]}},
{"type": "Feature", "id": "FAxUsd2AGh7gk55K4oJ-EKvCA8s=", "properties": {"ref": "275", "@spider": "lidl_ie", "shop": "supermarket", "addr:full": "JAMES FINTAN LALOR AVENUE, Portlaoise, R32 VP95, Ireland", "addr:street_address": "JAMES FINTAN LALOR AVENUE", "addr:state": "Portlaoise", "addr:postcode": "R32 VP95", "addr:country": "IE", "opening_hours": "Mo-Sa 08:00-22:00; Su 09:00-21:00", "brand": "Lidl", "brand:wikidata": "Q151954", "nsi_id": "lidl-5866c3"}, "geometry": {"type": "Point", "coordinates": [-7.29927, 53.03209]}},
{"type": "Feature", "id": "SCx3WPoeu_MUoisEgrJojpVqxuE=", "properties": {"ref": "279", "@spider": "lidl_ie", "shop": "supermarket", "addr:full": "Blacklion, Greystones, A63 C780, Ireland", "addr:street_address": "Blacklion", "addr:state": "Greystones", "addr:postcode": "A63 C780", "addr:country": "IE", "opening_hours": "Mo-Sa 08:00-22:00; Su 09:00-21:00", "brand": "Lidl", "brand:wikidata": "Q151954", "nsi_id": "lidl-5866c3"}, "geometry": {"type": "Point", "coordinates": [-6.08347, 53.15208]}},
{"type": "Feature", "id": "oy0alUwqF8N4dlWr9u9x9zyhFic=", "properties": {"ref": "507", "@spider": "lidl_ie", "shop": "supermarket", "addr:full": "John B. Keane Road, Listowel, Kerry, V31 NY64, Ireland", "addr:street_address": "John B. Keane Road", "addr:city": "Listowel", "addr:state": "Kerry", "addr:postcode": "V31 NY64", "addr:country": "IE", "name": "Listowel", "opening_hours": "Mo-Sa 08:00-22:00; Su 09:00-21:00", "brand": "Lidl", "brand:wikidata": "Q151954", "nsi_id": "lidl-5866c3"}, "geometry": {"type": "Point", "coordinates": [-9.48273, 52.44992]}},
{"type": "Feature", "id": "XcI-s1dO4G_ynG090rVsdGt8uzY=", "properties": {"ref": "509", "@spider": "lidl_ie", "shop": "supermarket", "addr:full": "Castle Street, Ashbourne, Meath, A84 H732, Ireland", "addr:street_address": "Castle Street", "addr:city": "Ashbourne", "addr:state": "Meath", "addr:postcode": "A84 H732", "addr:country": "IE", "name": "Ashbourne", "opening_hours": "Mo-Sa 08:00-22:00; Su 09:00-21:00", "brand": "Lidl", "brand:wikidata": "Q151954", "nsi_id": "lidl-5866c3"}, "geometry": {"type": "Point", "coordinates": [-6.40323, 53.51099]}},
{"type": "Feature", "id": "VFn9Iuya3BRCMvpryEcmPEJAPfw=", "properties": {"ref": "511", "@spider": "lidl_ie", "shop": "supermarket", "addr:full": "Station Road, Leixlip, Kildare, W23 HE29, Ireland", "addr:street_address": "Station Road", "addr:city": "Leixlip", "addr:state": "Kildare", "addr:postcode": "W23 HE29", "addr:country": "IE", "name": "Leixlip", "opening_hours": "Mo-Sa 08:00-22:00; Su 09:00-21:00", "brand": "Lidl", "brand:wikidata": "Q151954", "nsi_id": "lidl-5866c3"}, "geometry": {"type": "Point", "coordinates": [-6.5157, 53.3716]}},
{"type": "Feature", "id": "7yyGi93nTL59TkpBRHzaL5-55gM=", "properties": {"ref": "513", "@spider": "lidl_ie", "shop": "supermarket", "addr:full": "Boyle Road, Carrick on Shannon, Roscommon, N41 W634, Ireland", "addr:street_address": "Boyle Road", "addr:city": "Carrick on Shannon", "addr:state": "Roscommon", "addr:postcode": "N41 W634", "addr:country": "IE", "name": "Carrick on Shannon", "opening_hours": "Mo-Sa 08:00-22:00; Su 09:00-21:00", "brand": "Lidl", "brand:wikidata": "Q151954", "nsi_id": "lidl-5866c3"}, "geometry": {"type": "Point", "coordinates": [-8.10521, 53.94121]}},
{"type": "Feature", "id": "iiz3YFYUl-c0PGJeecJJ3DUTS-0=", "properties": {"ref": "519", "@spider": "lidl_ie", "shop": "supermarket", "addr:full": "Walkinstown Avenue Dublin 12, Dublin, Dublin, D12 W954, Ireland", "addr:street_address": "Walkinstown Avenue Dublin 12", "addr:city": "Dublin", "addr:state": "Dublin", "addr:postcode": "D12 W954", "addr:country": "IE", "name": "Walkinstown", "opening_hours": "Mo-Sa 08:00-22:00; Su 09:00-21:00", "brand": "Lidl", "brand:wikidata": "Q151954", "nsi_id": "lidl-5866c3"}, "geometry": {"type": "Point", "coordinates": [-6.3403, 53.32216]}},
{"type": "Feature", "id": "aNnoa9cZjXnNyThogYRY49yhoZ8=", "properties": {"ref": "520", "@spider": "lidl_ie", "shop": "supermarket", "addr:full": "Ballyfermot Road, Dublin, Dublin, D10 XY26, Ireland", "addr:street_address": "Ballyfermot Road", "addr:city": "Dublin", "addr:state": "Dublin", "addr:postcode": "D10 XY26", "addr:country": "IE", "name": "Ballyfermot", "opening_hours": "Mo-Sa 08:00-22:00; Su 09:00-21:00", "brand": "Lidl", "brand:wikidata": "Q151954", "nsi_id": "lidl-5866c3"}, "geometry": {"type": "Point", "coordinates": [-6.37111, 53.34448]}},
{"type": "Feature", "id": "IHMPuLQ7wdHq7tvKkgpbPb8lc1A=", "properties": {"ref": "521", "@spider": "lidl_ie", "shop": "supermarket", "addr:full": "Canal Road, Portarlington, Laois, R32 Yh70, Ireland", "addr:street_address": "Canal Road", "addr:city": "Portarlington", "addr:state": "Laois", "addr:postcode": "R32 Yh70", "addr:country": "IE", "name": "Portarlington", "opening_hours": "Mo-Sa 08:00-22:00; Su 09:00-21:00", "brand": "Lidl", "brand:wikidata": "Q151954", "nsi_id": "lidl-5866c3"}, "geometry": {"type": "Point", "coordinates": [-7.18003, 53.14966]}},
{"type": "Feature", "id": "ohUYxHSzvw1SMs2Nkfli4x7o3XU=", "properties": {"ref": "522", "@spider": "lidl_ie", "shop": "supermarket", "addr:full": "Monaghan Road, Castleblayney, Monaghan, A75 EK44, Ireland", "addr:street_address": "Monaghan Road", "addr:city": "Castleblayney", "addr:state": "Monaghan", "addr:postcode": "A75 EK44", "addr:country": "IE", "name": "Castleblayney", "opening_hours": "Mo-Sa 08:00-21:00; Su 09:00-21:00", "brand": "Lidl", "brand:wikidata": "Q151954", "nsi_id": "lidl-5866c3"}, "geometry": {"type": "Point", "coordinates": [-6.74261, 54.12291]}},
{"type": "Feature", "id": "-8uydhy46woh_5kHaUrJFNPTOWM=", "properties": {"ref": "523", "@spider": "lidl_ie", "shop": "supermarket", "addr:full": "Tullow Road, Carlow, Carlow, R93 XA49, Ireland", "addr:street_address": "Tullow Road", "addr:city": "Carlow", "addr:state": "Carlow", "addr:postcode": "R93 XA49", "addr:country": "IE", "name": "Carlow", "opening_hours": "Mo-Sa 08:00-22:00; Su 09:00-21:00", "brand": "Lidl", "brand:wikidata": "Q151954", "nsi_id": "lidl-5866c3"}, "geometry": {"type": "Point", "coordinates": [-6.91109, 52.83327]}},
{"type": "Feature", "id": "i4qlz9-n5wI5_JUAKSusoACWRis=", "properties": {"ref": "524", "@spider": "lidl_ie", "shop": "supermarket", "addr:full": "Spa Road, Dingle, Kerry, V92 W421, Ireland", "addr:street_address": "Spa Road", "addr:city": "Dingle", "addr:state": "Kerry", "addr:postcode": "V92 W421", "addr:country": "IE", "name": "Dingle", "opening_hours": "Mo-Sa 07:00-22:00; Su 08:00-21:00", "brand": "Lidl", "brand:wikidata": "Q151954", "nsi_id": "lidl-5866c3"}, "geometry": {"type": "Point", "coordinates": [-10.26435, 52.1419]}},
{"type": "Feature", "id": "RG7fY1yBs1zsPmhF1vdeHTkwGgQ=", "properties": {"ref": "531", "@spider": "lidl_ie", "shop": "supermarket", "addr:full": "Main Street, Clonee, Meath, D15 X409, Ireland", "addr:street_address": "Main Street", "addr:city": "Clonee", "addr:state": "Meath", "addr:postcode": "D15 X409", "addr:country": "IE", "name": "Clonee", "opening_hours": "Mo-Sa 08:00-22:00; Su 09:00-21:00", "brand": "Lidl", "brand:wikidata": "Q151954", "nsi_id": "lidl-5866c3"}, "geometry": {"type": "Point", "coordinates": [-6.44276, 53.41047]}},
{"type": "Feature", "id": "H-NA8x0KfDlLI8jAiKgpCtb5gTo=", "properties": {"ref": "533", "@spider": "lidl_ie", "shop": "supermarket", "addr:full": "Athgarvan Road, Newbridge, Kildare, W12 EK76, Ireland", "addr:street_address": "Athgarvan Road", "addr:city": "Newbridge", "addr:state": "Kildare", "addr:postcode": "W12 EK76", "addr:country": "IE", "name": "Newbridge", "opening_hours": "Mo-Sa 08:00-22:00; Su 09:00-21:00", "brand": "Lidl", "brand:wikidata": "Q151954", "nsi_id": "lidl-5866c3"}, "geometry": {"type": "Point", "coordinates": [-6.79983, 53.17608]}},
{"type": "Feature", "id": "foj8H1MlsZPRlWU5jcwerdmFyW0=", "properties": {"ref": "535", "@spider": "lidl_ie", "shop": "supermarket", "addr:full": "Logan Street, Thomastown, Kilkenny, R95 AY70, Ireland", "addr:street_address": "Logan Street", "addr:city": "Thomastown", "addr:state": "Kilkenny", "addr:postcode": "R95 AY70", "addr:country": "IE", "name": "Thomastown", "opening_hours": "Mo-Sa 08:00-22:00; Su 09:00-22:00", "brand": "Lidl", "brand:wikidata": "Q151954", "nsi_id": "lidl-5866c3"}, "geometry": {"type": "Point", "coordinates": [-7.13825, 52.53266]}},
{"type": "Feature", "id": "dcMSFFTBhV_2qRvjAvTiJx6EyJs=", "properties": {"ref": "538", "@spider": "lidl_ie", "shop": "supermarket", "addr:full": "Ardee Road, Carrickmacross, Monaghan, A81 FD70, Ireland", "addr:street_address": "Ardee Road", "addr:city": "Carrickmacross", "addr:state": "Monaghan", "addr:postcode": "A81 FD70", "addr:country": "IE", "name": "Carrickmacross", "opening_hours": "Mo-Sa 08:00-22:00; Su 09:00-21:00", "brand": "Lidl", "brand:wikidata": "Q151954", "nsi_id": "lidl-5866c3"}, "geometry": {"type": "Point", "coordinates": [-6.71436, 53.96815]}},
{"type": "Feature", "id": "5DGRqbQb6WtekNAWI57pK0EdVcQ=", "properties": {"ref": "540", "@spider": "lidl_ie", "shop": "supermarket", "addr:full": "Avenue Road, Dundalk, Louth, A91 XN36, Ireland", "addr:street_address": "Avenue Road", "addr:city": "Dundalk", "addr:state": "Louth", "addr:postcode": "A91 XN36", "addr:country": "IE", "name": "Dundalk Avenue Road", "opening_hours": "Mo-Sa 08:00-22:00; Su 09:00-21:00", "brand": "Lidl", "brand:wikidata": "Q151954", "nsi_id": "lidl-5866c3"}, "geometry": {"type": "Point", "coordinates": [-6.4033, 53.9975]}},
{"type": "Feature", "id": "zil1UyOr_icC3z8XVWDpTmUrHGM=", "properties": {"ref": "541", "@spider": "lidl_ie", "shop": "supermarket", "addr:full": "Ring Road, Dungarvan, Waterford, X35 RF76, Ireland", "addr:street_address": "Ring Road", "addr:city": "Dungarvan", "addr:state": "Waterford", "addr:postcode": "X35 RF76", "addr:country": "IE", "name": "Dungarvan", "opening_hours": "Mo-Sa 08:00-22:00; Su 09:00-21:00", "brand": "Lidl", "brand:wikidata": "Q151954", "nsi_id": "lidl-5866c3"}, "geometry": {"type": "Point", "coordinates": [-7.62859, 52.09269]}},
{"type": "Feature", "id": "7Xz7gEFoyGTttTnCMGrxkiYQ0bA=", "properties": {"ref": "542", "@spider": "lidl_ie", "shop": "supermarket", "addr:full": "St. Helena's Terrace, Dundalk, Louth, A91 WK40, Ireland", "addr:street_address": "St. Helena's Terrace", "addr:city": "Dundalk", "addr:state": "Louth", "addr:postcode": "A91 WK40", "addr:country": "IE", "name": "Dundalk St. Helena's Terrace", "opening_hours": "Mo-Sa 08:00-22:00; Su 09:00-21:00", "brand": "Lidl", "brand:wikidata": "Q151954", "nsi_id": "lidl-5866c3"}, "geometry": {"type": "Point", "coordinates": [-6.39261, 54.00895]}},
{"type": "Feature", "id": "5u9y_MuUnCWzdC_Hvml-jJprJOo=", "properties": {"ref": "544", "@spider": "lidl_ie", "shop": "supermarket", "addr:full": "Springfield Road, Castlebar, Mayo, F23 C432, Ireland", "addr:street_address": "Springfield Road", "addr:city": "Castlebar", "addr:state": "Mayo", "addr:postcode": "F23 C432", "addr:country": "IE", "name": "Castlebar", "opening_hours": "Mo-Sa 08:00-22:00; Su 09:00-21:00", "brand": "Lidl", "brand:wikidata": "Q151954", "nsi_id": "lidl-5866c3"}, "geometry": {"type": "Point", "coordinates": [-9.28862, 53.85697]}},
{"type": "Feature", "id": "wUooxuUey-JLdyJxUVjRrj39tQA=", "properties": {"ref": "548", "@spider": "lidl_ie", "shop": "supermarket", "addr:full": "O' Mahony Avenue, Bandon, Cork, P72 CF50, Ireland", "addr:street_address": "O' Mahony Avenue", "addr:city": "Bandon", "addr:state": "Cork", "addr:postcode": "P72 CF50", "addr:country": "IE", "name": "Bandon", "opening_hours": "Mo-Sa 08:00-22:00; Su 09:00-21:00", "brand": "Lidl", "brand:wikidata": "Q151954", "nsi_id": "lidl-5866c3"}, "geometry": {"type": "Point", "coordinates": [-8.74446, 51.74458]}},
{"type": "Feature", "id": "sdparPaMei4S0gxTApT6v40-wtw=", "properties": {"ref": "556", "@spider": "lidl_ie", "shop": "supermarket", "addr:full": "Crowe Street, Gort, Galway, H91 PA97, Ireland", "addr:street_address": "Crowe Street", "addr:city": "Gort", "addr:state": "Galway", "addr:postcode": "H91 PA97", "addr:country": "IE", "name": "Gort", "opening_hours": "Mo-Sa 08:00-22:00; Su 09:00-21:00", "brand": "Lidl", "brand:wikidata": "Q151954", "nsi_id": "lidl-5866c3"}, "geometry": {"type": "Point", "coordinates": [-8.81897, 53.06953]}},
{"type": "Feature", "id": "9pBKrbwwiHHgq5obaGIyHOsuksM=", "properties": {"ref": "557", "@spider": "lidl_ie", "shop": "supermarket", "addr:full": "Pottery Road, Dun Laoghaire, Dublin, A96 H395, Ireland", "addr:street_address": "Pottery Road", "addr:city": "Dun Laoghaire", "addr:state": "Dublin", "addr:postcode": "A96 H395", "addr:country": "IE", "name": "Pottery Road", "opening_hours": "Mo-Sa 08:00-22:00; Su 09:00-21:00", "brand": "Lidl", "brand:wikidata": "Q151954", "nsi_id": "lidl-5866c3"}, "geometry": {"type": "Point", "coordinates": [-6.15722, 53.27596]}},
{"type": "Feature", "id": "ML766gltag6KGbEZuDI9ihnqO5g=", "properties": {"ref": "558", "@spider": "lidl_ie", "shop": "supermarket", "addr:full": "Greenhills Road, Dublin, Dublin, D12 KW14, Ireland", "addr:street_address": "Greenhills Road", "addr:city": "Dublin", "addr:state": "Dublin", "addr:postcode": "D12 KW14", "addr:country": "IE", "name": "Greenhills Road", "opening_hours": "Mo-Sa 08:00-22:00; Su 09:00-21:00", "brand": "Lidl", "brand:wikidata": "Q151954", "nsi_id": "lidl-5866c3"}, "geometry": {"type": "Point", "coordinates": [-6.34293, 53.31104]}},
{"type": "Feature", "id": "IxT8MeSq_qSElMVlO77B8dVWcrg=", "properties": {"ref": "584", "@spider": "lidl_ie", "shop": "supermarket", "addr:full": "New Nangor Road, Dublin, Dublin, D22 Y588, Ireland", "addr:street_address": "New Nangor Road", "addr:city": "Dublin", "addr:state": "Dublin", "addr:postcode": "D22 Y588", "addr:country": "IE", "name": "Clondalkin", "opening_hours": "Mo-Sa 08:00-22:00; Su 09:00-21:00", "brand": "Lidl", "brand:wikidata": "Q151954", "nsi_id": "lidl-5866c3"}, "geometry": {"type": "Point", "coordinates": [-6.39123, 53.3284]}},
{"type": "Feature", "id": "ZLVnyaNi5hx2nii7b23bqH2rJto=", "properties": {"ref": "587", "@spider": "lidl_ie", "shop": "supermarket", "addr:full": "Newhall, Naas, Kildare, W91 TY82, Ireland", "addr:street_address": "Newhall", "addr:city": "Naas", "addr:state": "Kildare", "addr:postcode": "W91 TY82", "addr:country": "IE", "name": "Naas", "opening_hours": "Mo-Sa 08:00-22:00; Su 09:00-21:00", "brand": "Lidl", "brand:wikidata": "Q151954", "nsi_id": "lidl-5866c3"}, "geometry": {"type": "Point", "coordinates": [-6.69974, 53.21078]}},
{"type": "Feature", "id": "7wu4I5X0DLgokBejFxVKVp1Nyb8=", "properties": {"ref": "588", "@spider": "lidl_ie", "shop": "supermarket", "addr:full": "Lanesborough Road, Roscommon, Roscommon, F42 P588, Ireland", "addr:street_address": "Lanesborough Road", "addr:city": "Roscommon", "addr:state": "Roscommon", "addr:postcode": "F42 P588", "addr:country": "IE", "name": "Roscommon", "opening_hours": "Mo-Sa 08:00-22:00; Su 09:00-21:00", "brand": "Lidl", "brand:wikidata": "Q151954", "nsi_id": "lidl-5866c3"}, "geometry": {"type": "Point", "coordinates": [-8.18055, 53.63351]}},
{"type": "Feature", "id": "ox90ppNM5uOC9remKb59kB2QT-Q=", "properties": {"ref": "592", "@spider": "lidl_ie", "shop": "supermarket", "addr:full": "Station Road, Bundoran, Donegal, F94 V586, Ireland", "addr:street_address": "Station Road", "addr:city": "Bundoran", "addr:state": "Donegal", "addr:postcode": "F94 V586", "addr:country": "IE", "name": "Bundoran", "opening_hours": "Mo-Sa 08:00-21:00; Su 09:00-21:00", "brand": "Lidl", "brand:wikidata": "Q151954", "nsi_id": "lidl-5866c3"}, "geometry": {"type": "Point", "coordinates": [-8.27482, 54.47764]}},
{"type": "Feature", "id": "dlUJMU7DVxpKn9na1c7wL6hHJZY=", "properties": {"ref": "900", "@spider": "lidl_ie", "shop": "supermarket", "addr:full": "Dublin Road, Longford, Longford, N39 AX72, Ireland", "addr:street_address": "Dublin Road", "addr:city": "Longford", "addr:state": "Longford", "addr:postcode": "N39 AX72", "addr:country": "IE", "name": "Longford", "opening_hours": "Mo-Sa 08:00-22:00; Su 09:00-21:00", "brand": "Lidl", "brand:wikidata": "Q151954", "nsi_id": "lidl-5866c3"}, "geometry": {"type": "Point", "coordinates": [-7.79199, 53.7259]}},
{"type": "Feature", "id": "xDSAIuZ3Bd9H5Y7X7rJnm1jaNc8=", "properties": {"ref": "901", "@spider": "lidl_ie", "shop": "supermarket", "addr:full": "Trim Road, Navan, Meath, C15 Y009, Ireland", "addr:street_address": "Trim Road", "addr:city": "Navan", "addr:state": "Meath", "addr:postcode": "C15 Y009", "addr:country": "IE", "name": "Navan", "opening_hours": "Mo-Sa 08:00-22:00; Su 09:00-21:00", "brand": "Lidl", "brand:wikidata": "Q151954", "nsi_id": "lidl-5866c3"}, "geometry": {"type": "Point", "coordinates": [-6.68739, 53.6435]}},
{"type": "Feature", "id": "-8FiTF-W5vQyjWAaDncvShWHvyA=", "properties": {"ref": "904", "@spider": "lidl_ie", "shop": "supermarket", "addr:full": "Pearse Road, Letterkenny, Donegal, F92HD98, Ireland", "addr:street_address": "Pearse Road", "addr:city": "Letterkenny", "addr:state": "Donegal", "addr:postcode": "F92HD98", "addr:country": "IE", "name": "Letterkenny", "opening_hours": "Mo-Sa 08:00-22:00; Su 09:00-21:00", "brand": "Lidl", "brand:wikidata": "Q151954", "nsi_id": "lidl-5866c3"}, "geometry": {"type": "Point", "coordinates": [-7.73536, 54.9455]}},
{"type": "Feature", "id": "UTQ87swZDULzJwXSivnIhkswOZU=", "properties": {"ref": "905", "@spider": "lidl_ie", "shop": "supermarket", "addr:full": "Dublin Road, Mullingar, Westmeath, N91 C7NH, Ireland", "addr:street_address": "Dublin Road", "addr:city": "Mullingar", "addr:state": "Westmeath", "addr:postcode": "N91 C7NH", "addr:country": "IE", "name": "Mullingar", "opening_hours": "Mo-Sa 08:00-22:00; Su 09:00-21:00", "brand": "Lidl", "brand:wikidata": "Q151954", "nsi_id": "lidl-5866c3"}, "geometry": {"type": "Point", "coordinates": [-7.28881, 53.51968]}},
{"type": "Feature", "id": "PlGFQ5bc8Qgix09goJUJZZFh2zs=", "properties": {"ref": "907", "@spider": "lidl_ie", "shop": "supermarket", "addr:full": "Dublin Road, Athlone, Westmeath, N37 NN92, Ireland", "addr:street_address": "Dublin Road", "addr:city": "Athlone", "addr:state": "Westmeath", "addr:postcode": "N37 NN92", "addr:country": "IE", "name": "Athlone", "opening_hours": "Mo-Sa 08:00-22:00; Su 09:00-21:00", "brand": "Lidl", "brand:wikidata": "Q151954", "nsi_id": "lidl-5866c3"}, "geometry": {"type": "Point", "coordinates": [-7.89695, 53.41318]}},
{"type": "Feature", "id": "f3MHe8vc75syCJkYeMAjjo_wYuk=", "properties": {"ref": "908", "@spider": "lidl_ie", "shop": "supermarket", "addr:full": "Limerick Road, Killarney, Kerry, V93 VP63, Ireland", "addr:street_address": "Limerick Road", "addr:city": "Killarney", "addr:state": "Kerry", "addr:postcode": "V93 VP63", "addr:country": "IE", "name": "Killarney", "opening_hours": "Mo-Sa 08:00-22:00; Su 09:00-21:00", "brand": "Lidl", "brand:wikidata": "Q151954", "nsi_id": "lidl-5866c3"}, "geometry": {"type": "Point", "coordinates": [-9.51856, 52.06892]}},
{"type": "Feature", "id": "8vVUnKt_J3PzIFGPfFVLC7XwR3w=", "properties": {"ref": "909", "@spider": "lidl_ie", "shop": "supermarket", "addr:full": "Wexford Road, Arklow, Wicklow, Y14 HY80, Ireland", "addr:street_address": "Wexford Road", "addr:city": "Arklow", "addr:state": "Wicklow", "addr:postcode": "Y14 HY80", "addr:country": "IE", "name": "Arklow", "opening_hours": "Mo-Sa 08:00-22:00; Su 09:00-21:00", "brand": "Lidl", "brand:wikidata": "Q151954", "nsi_id": "lidl-5866c3"}, "geometry": {"type": "Point", "coordinates": [-6.16275, 52.79535]}},
{"type": "Feature", "id": "rfOF5H2653m4AY29FLKdRdNGRLw=", "properties": {"ref": "911", "@spider": "lidl_ie", "shop": "supermarket", "addr:full": "Creighan Athlone Road, Cavan, Cavan, H12 HK15, Ireland", "addr:street_address": "Creighan Athlone Road", "addr:city": "Cavan", "addr:state": "Cavan", "addr:postcode": "H12 HK15", "addr:country": "IE", "name": "Cavan", "opening_hours": "Mo-Sa 08:00-22:00; Su 09:00-21:00", "brand": "Lidl", "brand:wikidata": "Q151954", "nsi_id": "lidl-5866c3"}, "geometry": {"type": "Point", "coordinates": [-7.35356, 53.97631]}},
{"type": "Feature", "id": "NZ_fbP3tlgdjPaOsvkgAYhgU6uY=", "properties": {"ref": "912", "@spider": "lidl_ie", "shop": "supermarket", "addr:full": "Marine Point, Ballinasloe, Galway, H53 DW61, Ireland", "addr:street_address": "Marine Point", "addr:city": "Ballinasloe", "addr:state": "Galway", "addr:postcode": "H53 DW61", "addr:country": "IE", "name": "Ballinasloe", "opening_hours": "Mo-Sa 08:00-21:00; Su 09:00-21:00", "brand": "Lidl", "brand:wikidata": "Q151954", "nsi_id": "lidl-5866c3"}, "geometry": {"type": "Point", "coordinates": [-8.21985, 53.32748]}},
{"type": "Feature", "id": "JA3SNSlx1X2ZtyNhJ8Lqy_OQuKk=", "properties": {"ref": "914", "@spider": "lidl_ie", "shop": "supermarket", "addr:full": "Birr Road, Roscrea, Tipperary, E53 VR70, Ireland", "addr:street_address": "Birr Road", "addr:city": "Roscrea", "addr:state": "Tipperary", "addr:postcode": "E53 VR70", "addr:country": "IE", "name": "Roscrea", "opening_hours": "Mo-Sa 08:00-22:00; Su 09:00-21:00", "brand": "Lidl", "brand:wikidata": "Q151954", "nsi_id": "lidl-5866c3"}, "geometry": {"type": "Point", "coordinates": [-7.80133, 52.95873]}},
{"type": "Feature", "id": "zjyGId90gOlB0GFWyzjT9Cv_yFU=", "properties": {"ref": "915", "@spider": "lidl_ie", "shop": "supermarket", "addr:full": "Unit 66 Shannon Town Centre, Shannon, Clare, V14 FR64, Ireland", "addr:street_address": "Unit 66 Shannon Town Centre", "addr:city": "Shannon", "addr:state": "Clare", "addr:postcode": "V14 FR64", "addr:country": "IE", "name": "Shannon", "opening_hours": "Mo-Sa 08:00-22:00; Su 09:00-21:00", "brand": "Lidl", "brand:wikidata": "Q151954", "nsi_id": "lidl-5866c3"}, "geometry": {"type": "Point", "coordinates": [-8.88117, 52.7109]}},
{"type": "Feature", "id": "DxtZPMVOpnGe0SsHmkDekB01K28=", "properties": {"ref": "922", "@spider": "lidl_ie", "shop": "supermarket", "addr:full": "The Quay, New Ross, Wexford, Y34 KC64, Ireland", "addr:street_address": "The Quay", "addr:city": "New Ross", "addr:state": "Wexford", "addr:postcode": "Y34 KC64", "addr:country": "IE", "name": "New Ross", "opening_hours": "Mo-Sa 08:00-21:00; Su 09:00-21:00", "brand": "Lidl", "brand:wikidata": "Q151954", "nsi_id": "lidl-5866c3"}, "geometry": {"type": "Point", "coordinates": [-6.94934, 52.39201]}},
{"type": "Feature", "id": "moItUn8Oga3snSpiByfw3NKkO08=", "properties": {"ref": "924", "@spider": "lidl_ie", "shop": "supermarket", "addr:full": "Dunmore Road, Waterford, Waterford, X91 FY51, Ireland", "addr:street_address": "Dunmore Road", "addr:city": "Waterford", "addr:state": "Waterford", "addr:postcode": "X91 FY51", "addr:country": "IE", "name": "Waterford", "opening_hours": "Mo-Sa 08:00-22:00; Su 09:00-21:00", "brand": "Lidl", "brand:wikidata": "Q151954", "nsi_id": "lidl-5866c3"}, "geometry": {"type": "Point", "coordinates": [-7.08316, 52.24697]}},
{"type": "Feature", "id": "WMWHMtg47EQoG62Wk0yaY43AKBs=", "properties": {"ref": "926", "@spider": "lidl_ie", "shop": "supermarket", "addr:full": "Park Road, Mallow, Cork, P51 P280, Ireland", "addr:street_address": "Park Road", "addr:city": "Mallow", "addr:state": "Cork", "addr:postcode": "P51 P280", "addr:country": "IE", "name": "Mallow", "opening_hours": "Mo-Sa 08:00-22:00; Su 09:00-21:00", "brand": "Lidl", "brand:wikidata": "Q151954", "nsi_id": "lidl-5866c3"}, "geometry": {"type": "Point", "coordinates": [-8.64231, 52.13469]}},
{"type": "Feature", "id": "MK_AosEqOYXQtsi_KwZ2bYuAbDQ=", "properties": {"ref": "928", "@spider": "lidl_ie", "shop": "supermarket", "addr:full": "Clashduv Road, Cork, Cork, T12 EE71, Ireland", "addr:street_address": "Clashduv Road", "addr:city": "Cork", "addr:state": "Cork", "addr:postcode": "T12 EE71", "addr:country": "IE", "name": "Cork - Togher", "opening_hours": "Mo-Sa 08:00-22:00; Su 09:00-21:00", "brand": "Lidl", "brand:wikidata": "Q151954", "nsi_id": "lidl-5866c3"}, "geometry": {"type": "Point", "coordinates": [-8.49183, 51.88151]}},
{"type": "Feature", "id": "JE7ijaWXQv6EzSFTDuqKQy9YbnE=", "properties": {"ref": "935", "@spider": "lidl_ie", "shop": "supermarket", "addr:full": "Riverside Way, Midleton, Cork, P25 YC63, Ireland", "addr:street_address": "Riverside Way", "addr:city": "Midleton", "addr:state": "Cork", "addr:postcode": "P25 YC63", "addr:country": "IE", "name": "Midleton", "opening_hours": "Mo-Sa 08:00-22:00; Su 09:00-21:00", "brand": "Lidl", "brand:wikidata": "Q151954", "nsi_id": "lidl-5866c3"}, "geometry": {"type": "Point", "coordinates": [-8.17565, 51.91401]}},
{"type": "Feature", "id": "bihQ3bcpQMcCUAcHOvm5Vz9KC7M=", "properties": {"ref": "936", "@spider": "lidl_ie", "shop": "supermarket", "addr:full": "Headford Road, Galway, Galway, H91 RX58, Ireland", "addr:street_address": "Headford Road", "addr:city": "Galway", "addr:state": "Galway", "addr:postcode": "H91 RX58", "addr:country": "IE", "name": "Galway-Headford", "opening_hours": "Mo-Sa 08:00-22:00; Su 09:00-21:00", "brand": "Lidl", "brand:wikidata": "Q151954", "nsi_id": "lidl-5866c3"}, "geometry": {"type": "Point", "coordinates": [-9.05011, 53.27861]}},
{"type": "Feature", "id": "Ehij2p7repR3kOlfKcOBBZGyvao=", "properties": {"ref": "938", "@spider": "lidl_ie", "shop": "supermarket", "addr:full": "Ardaravan Square, Buncrana, Donegal, F93 N672, Ireland", "addr:street_address": "Ardaravan Square", "addr:city": "Buncrana", "addr:state": "Donegal", "addr:postcode": "F93 N672", "addr:country": "IE", "name": "Buncrana", "opening_hours": "Mo-Sa 08:00-21:00; Su 09:00-21:00", "brand": "Lidl", "brand:wikidata": "Q151954", "nsi_id": "lidl-5866c3"}, "geometry": {"type": "Point", "coordinates": [-7.45098, 55.13279]}},
{"type": "Feature", "id": "ROJpjRYX0MOueHkrZWdJcTpo4TI=", "properties": {"ref": "940", "@spider": "lidl_ie", "shop": "supermarket", "addr:full": "Bury Street, Ballina, Mayo, F26 K597, Ireland", "addr:street_address": "Bury Street", "addr:city": "Ballina", "addr:state": "Mayo", "addr:postcode": "F26 K597", "addr:country": "IE", "name": "Ballina", "opening_hours": "Mo-Sa 08:00-22:00; Su 09:00-21:00", "brand": "Lidl", "brand:wikidata": "Q151954", "nsi_id": "lidl-5866c3"}, "geometry": {"type": "Point", "coordinates": [-9.15817, 54.11273]}},
{"type": "Feature", "id": "64IrTYrgre3hrwQyYZ3u-xQyKxg=", "properties": {"ref": "941", "@spider": "lidl_ie", "shop": "supermarket", "addr:full": "New Street, Tullamore, Offaly, R35 YD72, Ireland", "addr:street_address": "New Street", "addr:city": "Tullamore", "addr:state": "Offaly", "addr:postcode": "R35 YD72", "addr:country": "IE", "name": "Tullamore", "opening_hours": "Mo-Sa 08:00-21:00; Su 09:00-21:00", "brand": "Lidl", "brand:wikidata": "Q151954", "nsi_id": "lidl-5866c3"}, "geometry": {"type": "Point", "coordinates": [-7.49898, 53.27362]}},
{"type": "Feature", "id": "HOLNiitRfR3bL-JuD8fXJqdity8=", "properties": {"ref": "942", "@spider": "lidl_ie", "shop": "supermarket", "addr:full": "Grange Road, Baldoyle, Dublin, D13 K8K0, Ireland", "addr:street_address": "Grange Road", "addr:city": "Baldoyle", "addr:state": "Dublin", "addr:postcode": "D13 K8K0", "addr:country": "IE", "name": "Baldoyle", "opening_hours": "Mo-Sa 08:00-22:00; Su 09:00-21:00", "brand": "Lidl", "brand:wikidata": "Q151954", "nsi_id": "lidl-5866c3"}, "geometry": {"type": "Point", "coordinates": [-6.13775, 53.39703]}},
{"type": "Feature", "id": "_3h2XekJYQhFiDooCjnGZUa_B5s=", "properties": {"ref": "943", "@spider": "lidl_ie", "shop": "supermarket", "addr:full": "Gort Road, Ennis, Clare, V95 KV05, Ireland", "addr:street_address": "Gort Road", "addr:city": "Ennis", "addr:state": "Clare", "addr:postcode": "V95 KV05", "addr:country": "IE", "name": "Ennis", "opening_hours": "Mo-Sa 08:00-22:00; Su 09:00-21:00", "brand": "Lidl", "brand:wikidata": "Q151954", "nsi_id": "lidl-5866c3"}, "geometry": {"type": "Point", "coordinates": [-8.98057, 52.86498]}},
{"type": "Feature", "id": "eZJqD0kf6xksS2DeXWpUAPza0Eo=", "properties": {"ref": "946", "@spider": "lidl_ie", "shop": "supermarket", "addr:full": "Parnell/Moore Street, Dublin 1, Dublin, D01 H308, Ireland", "addr:street_address": "Parnell/Moore Street", "addr:city": "Dublin 1", "addr:state": "Dublin", "addr:postcode": "D01 H308", "addr:country": "IE", "name": "Moore Street", "opening_hours": "Mo-Sa 08:00-22:00; Su 09:00-21:00", "brand": "Lidl", "brand:wikidata": "Q151954", "nsi_id": "lidl-5866c3"}, "geometry": {"type": "Point", "coordinates": [-6.26329, 53.35133]}},
{"type": "Feature", "id": "QVv1o0PjqqbgjtGBAhX2ZAf4BrQ=", "properties": {"ref": "948", "@spider": "lidl_ie", "shop": "supermarket", "addr:full": "Castlemaine Road, Tralee, Kerry, V92 X710, Ireland", "addr:street_address": "Castlemaine Road", "addr:city": "Tralee", "addr:state": "Kerry", "addr:postcode": "V92 X710", "addr:country": "IE", "name": "Tralee", "opening_hours": "Mo-Sa 08:00-22:00; Su 09:00-21:00", "brand": "Lidl", "brand:wikidata": "Q151954", "nsi_id": "lidl-5866c3"}, "geometry": {"type": "Point", "coordinates": [-9.69156, 52.25899]}},
{"type": "Feature", "id": "GtBjrYCHMD1NUpYLPcblRL2kDQU=", "properties": {"ref": "949", "@spider": "lidl_ie", "shop": "supermarket", "addr:full": "Outer Ring Road, Ballyowen, Dublin, K78 A9P2, Ireland", "addr:street_address": "Outer Ring Road", "addr:city": "Ballyowen", "addr:state": "Dublin", "addr:postcode": "K78 A9P2", "addr:country": "IE", "name": "Dublin - Ballyowen", "opening_hours": "Mo-Sa 08:00-22:00; Su 09:00-21:00", "brand": "Lidl", "brand:wikidata": "Q151954", "nsi_id": "lidl-5866c3"}, "geometry": {"type": "Point", "coordinates": [-6.42332, 53.34784]}},
{"type": "Feature", "id": "GKqppuCzwt8-2WXbFBEzJjCaeGU=", "properties": {"ref": "955", "@spider": "lidl_ie", "shop": "supermarket", "addr:full": "West End Retail Park Unit 2A, Dublin, Dublin, D15 AH67, Ireland", "addr:street_address": "West End Retail Park Unit 2A", "addr:city": "Dublin", "addr:state": "Dublin", "addr:postcode": "D15 AH67", "addr:country": "IE", "name": "Blanchardstown", "opening_hours": "Mo-Sa 08:00-22:00; Su 09:00-21:00", "brand": "Lidl", "brand:wikidata": "Q151954", "nsi_id": "lidl-5866c3"}, "geometry": {"type": "Point", "coordinates": [-6.38845, 53.38979]}},
{"type": "Feature", "id": "jlWH_TDpTquMJSqJRQ3BVbbC4Qs=", "properties": {"ref": "958", "@spider": "lidl_ie", "shop": "supermarket", "addr:full": "Tralee Road, Castleisland, Kerry, V92 TX92, Ireland", "addr:street_address": "Tralee Road", "addr:city": "Castleisland", "addr:state": "Kerry", "addr:postcode": "V92 TX92", "addr:country": "IE", "name": "Castleisland", "opening_hours": "Mo-Sa 08:00-22:00; Su 09:00-21:00", "brand": "Lidl", "brand:wikidata": "Q151954", "nsi_id": "lidl-5866c3"}, "geometry": {"type": "Point", "coordinates": [-9.46706, 52.23139]}},
{"type": "Feature", "id": "Yva0X19DXRBN4jq60N-ix2NE8Js=", "properties": {"ref": "962", "@spider": "lidl_ie", "shop": "supermarket", "addr:full": "North Road, Monaghan, Monaghan, H18 C927, Ireland", "addr:street_address": "North Road", "addr:city": "Monaghan", "addr:state": "Monaghan", "addr:postcode": "H18 C927", "addr:country": "IE", "name": "Monaghan", "opening_hours": "Mo-Sa 08:00-22:00; Su 09:00-21:00", "brand": "Lidl", "brand:wikidata": "Q151954", "nsi_id": "lidl-5866c3"}, "geometry": {"type": "Point", "coordinates": [-6.96708, 54.25224]}},
{"type": "Feature", "id": "9tBHrOGDRIn4VR6k2F4jlLaU5Wk=", "properties": {"ref": "965", "@spider": "lidl_ie", "shop": "supermarket", "addr:full": "Sheehans Road, Newcastlewest, Limerick, V42 NY64, Ireland", "addr:street_address": "Sheehans Road", "addr:city": "Newcastlewest", "addr:state": "Limerick", "addr:postcode": "V42 NY64", "addr:country": "IE", "name": "Newcastlewest", "opening_hours": "Mo-Sa 08:00-22:00; Su 09:00-21:00", "brand": "Lidl", "brand:wikidata": "Q151954", "nsi_id": "lidl-5866c3"}, "geometry": {"type": "Point", "coordinates": [-9.05363, 52.44977]}},
{"type": "Feature", "id": "x-nAIMVz8N6lWMuyTraXkdi3Ge4=", "properties": {"ref": "966", "@spider": "lidl_ie", "shop": "supermarket", "addr:full": "Clonkeen Road / Kill Lane, Deansgrange, Dublin, A94 C103, Ireland", "addr:street_address": "Clonkeen Road / Kill Lane", "addr:city": "Deansgrange", "addr:state": "Dublin", "addr:postcode": "A94 C103", "addr:country": "IE", "name": "Deansgrange", "opening_hours": "Mo-Sa 08:00-22:00; Su 09:00-21:00", "brand": "Lidl", "brand:wikidata": "Q151954", "nsi_id": "lidl-5866c3"}, "geometry": {"type": "Point", "coordinates": [-6.16385, 53.27769]}},
{"type": "Feature", "id": "JJ0ARgOVuaYaYHf5PKus2NeODMg=", "properties": {"ref": "967", "@spider": "lidl_ie", "shop": "supermarket", "addr:full": "Straffan Road, Maynooth, Kildare, W23 FV34, Ireland", "addr:street_address": "Straffan Road", "addr:city": "Maynooth", "addr:state": "Kildare", "addr:postcode": "W23 FV34", "addr:country": "IE", "name": "Maynooth", "opening_hours": "Mo-Sa 08:00-22:00; Su 09:00-21:00", "brand": "Lidl", "brand:wikidata": "Q151954", "nsi_id": "lidl-5866c3"}, "geometry": {"type": "Point", "coordinates": [-6.58972, 53.3694]}},
{"type": "Feature", "id": "0LiwT8mAsrTgTMbbfpKsBeRakhI=", "properties": {"ref": "968", "@spider": "lidl_ie", "shop": "supermarket", "addr:full": "Baltimore Road, Skibbereen, Cork, P81 AV80, Ireland", "addr:street_address": "Baltimore Road", "addr:city": "Skibbereen", "addr:state": "Cork", "addr:postcode": "P81 AV80", "addr:country": "IE", "name": "Skibbereen", "opening_hours": "Mo-Sa 08:00-22:00; Su 09:00-21:00", "brand": "Lidl", "brand:wikidata": "Q151954", "nsi_id": "lidl-5866c3"}, "geometry": {"type": "Point", "coordinates": [-9.2664, 51.54439]}},
{"type": "Feature", "id": "U0QtcXkyIMDX9uFlaZ2BCIuCIi4=", "properties": {"ref": "969", "@spider": "lidl_ie", "shop": "supermarket", "addr:full": "Cahir Road, Cashel, Tipperary, E25 KC78, Ireland", "addr:street_address": "Cahir Road", "addr:city": "Cashel", "addr:state": "Tipperary", "addr:postcode": "E25 KC78", "addr:country": "IE", "name": "Cashel", "opening_hours": "Mo-Sa 08:00-22:00; Su 09:00-21:00", "brand": "Lidl", "brand:wikidata": "Q151954", "nsi_id": "lidl-5866c3"}, "geometry": {"type": "Point", "coordinates": [-7.89069, 52.50936]}},
{"type": "Feature", "id": "L3xdPvxVgNwdX-MTJ-bneTOxc2E=", "properties": {"ref": "971", "@spider": "lidl_ie", "shop": "supermarket", "addr:full": "Strand Road, Carrigaline, Cork, P43 D603, Ireland", "addr:street_address": "Strand Road", "addr:city": "Carrigaline", "addr:state": "Cork", "addr:postcode": "P43 D603", "addr:country": "IE", "name": "Carrigaline", "opening_hours": "Mo-Sa 08:00-22:00; Su 09:00-21:00", "brand": "Lidl", "brand:wikidata": "Q151954", "nsi_id": "lidl-5866c3"}, "geometry": {"type": "Point", "coordinates": [-8.38897, 51.81331]}},
{"type": "Feature", "id": "ft3n-prK0aJK8zMwT_ALMKnG91w=", "properties": {"ref": "973", "@spider": "lidl_ie", "shop": "supermarket", "addr:full": "Athboy Road, Trim, Meath, C15 AD89, Ireland", "addr:street_address": "Athboy Road", "addr:city": "Trim", "addr:state": "Meath", "addr:postcode": "C15 AD89", "addr:country": "IE", "name": "Trim", "opening_hours": "Mo-Sa 08:00-22:00; Su 09:00-21:00", "brand": "Lidl", "brand:wikidata": "Q151954", "nsi_id": "lidl-5866c3"}, "geometry": {"type": "Point", "coordinates": [-6.79231, 53.56183]}},
{"type": "Feature", "id": "HK6x4RGLdn3WrB_blg7IzeKa23A=", "properties": {"ref": "974", "@spider": "lidl_ie", "shop": "supermarket", "addr:full": "Grange Road, Dublin, Dublin, D16 PH21, Ireland", "addr:street_address": "Grange Road", "addr:city": "Dublin", "addr:state": "Dublin", "addr:postcode": "D16 PH21", "addr:country": "IE", "name": "Rathfarnham", "opening_hours": "Mo-Sa 08:00-22:00; Su 09:00-21:00", "brand": "Lidl", "brand:wikidata": "Q151954", "nsi_id": "lidl-5866c3"}, "geometry": {"type": "Point", "coordinates": [-6.26575, 53.27745]}},
{"type": "Feature", "id": "bYl9gHYg8Qf4GXC0sF7DvOOrVJI=", "properties": {"ref": "976", "@spider": "lidl_ie", "shop": "supermarket", "addr:full": "Old Market Green, Balbriggan, Dublin, K32 EF83, Ireland", "addr:street_address": "Old Market Green", "addr:city": "Balbriggan", "addr:state": "Dublin", "addr:postcode": "K32 EF83", "addr:country": "IE", "name": "Balbriggan", "opening_hours": "Mo-Sa 08:00-22:00; Su 09:00-21:00", "brand": "Lidl", "brand:wikidata": "Q151954", "nsi_id": "lidl-5866c3"}, "geometry": {"type": "Point", "coordinates": [-6.18003, 53.60616]}},
{"type": "Feature", "id": "3YbjlpzRP89UCHt9Jk8XZhijD-U=", "properties": {"ref": "977", "@spider": "lidl_ie", "shop": "supermarket", "addr:full": "Coolock Retail Park, Dublin, Dublin, D17 T275, Ireland", "addr:street_address": "Coolock Retail Park", "addr:city": "Dublin", "addr:state": "Dublin", "addr:postcode": "D17 T275", "addr:country": "IE", "name": "Coolock", "opening_hours": "Mo-Sa 08:00-22:00; Su 09:00-21:00", "brand": "Lidl", "brand:wikidata": "Q151954", "nsi_id": "lidl-5866c3"}, "geometry": {"type": "Point", "coordinates": [-6.18979, 53.39522]}}]}