{"type":"FeatureCollection","features":[{"type": "Feature", "id": "w6GN4Vq_RIqSKnbclv-vJNGf4N4=", "properties": {"ref": "1001", "@spider": "lidl_us", "shop": "supermarket", "addr:full": "1311 Mall Dr", "addr:city": "North Chesterfield", "addr:state": "VA", "addr:postcode": "23235", "addr:country": "US", "name": "N Chesterfield VA - Mall Dr", "phone": "844.747.5435", "brand": "Lidl", "brand:wikidata": "Q151954", "nsi_id": "lidl-5866c3"}, "geometry": {"type": "Point", "coordinates": [-77.606834, 37.512142]}},
{"type": "Feature", "id": "hj3-OmfDih36-4037ZLZ2Z2Jdbw=", "properties": {"ref": "1003", "@spider": "lidl_us", "shop": "supermarket", "addr:full": "11880 Jefferson Avenue", "addr:city": "Newport News", "addr:state": "VA", "addr:postcode": "23606", "addr:country": "US", "name": "Newport News VA - Jefferson Ave", "phone": "844.747.5435", "brand": "Lidl", "brand:wikidata": "Q151954", "nsi_id": "lidl-5866c3"}, "geometry": {"type": "Point", "coordinates": [-76.48392, 37.090706]}},
{"type": "Feature", "id": "sAlNIqRrl3AcCWH9t1YGWczrlto=", "properties": {"ref": "1006", "@spider": "lidl_us", "shop": "supermarket", "addr:full": "1001 Community Dr", "addr:city": "Suffolk", "addr:state": "VA", "addr:postcode": "23435", "addr:country": "US", "name": "Suffolk VA - Harbour View Blvd", "phone": "844.747.5435", "brand": "Lidl", "brand:wikidata": "Q151954", "nsi_id": "lidl-5866c3"}, "geometry": {"type": "Point", "coordinates": [-76.43859, 36.875088]}},
{"type": "Feature", "id": "BB4fc05isVCDz1NEqosEYg5ofQc=", "properties": {"ref": "1009", "@spider": "lidl_us", "shop": "supermarket", "addr:full": "1800 E Fire Tower Rd", "addr:city": "Greenville", "addr:state": "NC", "addr:postcode": "27858", "addr:country": "US", "name": "Greenville NC - E Fire Tower Rd.", "phone": "844.747.5435", "brand": "Lidl", "brand:wikidata": "Q151954", "nsi_id": "lidl-5866c3"}, "geometry": {"type": "Point", "coordinates": [-77.3587, 35.564632]}},
{"type": "Feature", "id": "N5LPms-Vs8km7wBW--wGxegi4rM=", "properties": {"ref": "1010", "@spider": "lidl_us", "shop": "supermarket", "addr:full": "3315 Sides Branch Rd", "addr:city": "Winston Salem", "addr:state": "NC", "addr:postcode": "27127", "addr:country": "US", "name": "Winston Salem NC - Sides Branch Rd", "phone": "844.747.5435", "brand": "Lidl", "brand:wikidata": "Q151954", "nsi_id": "lidl-5866c3"}, "geometry": {"type": "Point", "coordinates": [-80.26134, 36.031605]}},
{"type": "Feature", "id": "zJhpjLBjcCVSQKDCHVm0KFhq8_U=", "properties": {"ref": "1015", "@spider": "lidl_us", "shop": "supermarket", "addr:full": "9990 Charlotte Hwy", "addr:city": "Indian Land", "addr:state": "SC", "addr:postcode": "29707", "addr:country": "US", "name": "Indian Land SC - Charlotte Hwy", "phone": "844.747.5435", "brand": "Lidl", "brand:wikidata": "Q151954", "nsi_id": "lidl-5866c3"}, "geometry": {"type": "Point", "coordinates": [-80.85271, 35.010246]}},
{"type": "Feature", "id": "HAyzfBFRcGuadeUi_jkEAoHxRBk=", "properties": {"ref": "1016", "@spider": "lidl_us", "shop": "supermarket", "addr:full": "1147 Randolph St", "addr:city": "Thomasville", "addr:state": "NC", "addr:postcode": "27360", "addr:country": "US", "name": "Thomasville NC - Randolph St", "phone": "844.747.5435", "brand": "Lidl", "brand:wikidata": "Q151954", "nsi_id": "lidl-5866c3"}, "geometry": {"type": "Point", "coordinates": [-80.07226, 35.857048]}},
{"type": "Feature", "id": "6nYExegGRD6ROsYDTwMECZgNAa0=", "properties": {"ref": "1017", "@spider": "lidl_us", "shop": "supermarket", "addr:full": "1260 Herrons Ferry Rd", "addr:city": "Rock Hill", "addr:state": "SC", "addr:postcode": "29730", "addr:country": "US", "name": "Rock Hill SC - Herrons Ferry Rd", "phone": "844.747.5435", "brand": "Lidl", "brand:wikidata": "Q151954", "nsi_id": "lidl-5866c3"}, "geometry": {"type": "Point", "coordinates": [-80.98097, 34.97869]}},
{"type": "Feature", "id": "XTLYwJkdXQEzESNdQGvp4p3SGjM=", "properties": {"ref": "1018", "@spider": "lidl_us", "shop": "supermarket", "addr:full": "9318 Monroe Rd", "addr:city": "Charlotte", "addr:state": "NC", "addr:postcode": "28270", "addr:country": "US", "name": "Charlotte NC - Monroe Rd", "phone": "844.747.5435", "brand": "Lidl", "brand:wikidata": "Q151954", "nsi_id": "lidl-5866c3"}, "geometry": {"type": "Point", "coordinates": [-80.74206, 35.144577]}},
{"type": "Feature", "id": "oSgxKfs0c2BZaqnUzcrSiBxN_ug=", "properties": {"ref": "1019", "@spider": "lidl_us", "shop": "supermarket", "addr:full": "5110 S Laburnum Ave", "addr:city": "Richmond", "addr:state": "VA", "addr:postcode": "23231", "addr:country": "US", "name": "Richmond VA - S Laburnum Ave", "phone": "844.747.5435", "brand": "Lidl", "brand:wikidata": "Q151954", "nsi_id": "lidl-5866c3"}, "geometry": {"type": "Point", "coordinates": [-77.34987, 37.516]}},
{"type": "Feature", "id": "DmlTiIC_WcceK8xjvS2xPSiJLl4=", "properties": {"ref": "1023", "@spider": "lidl_us", "shop": "supermarket", "addr:full": "621 S Philadelphia Blvd", "addr:city": "Aberdeen", "addr:state": "MD", "addr:postcode": "21001", "addr:country": "US", "name": "Aberdeen MD - Philadelphia Blvd", "phone": "844.747.5435", "brand": "Lidl", "brand:wikidata": "Q151954", "nsi_id": "lidl-5866c3"}, "geometry": {"type": "Point", "coordinates": [-76.17168, 39.498722]}},
{"type": "Feature", "id": "DHa9LoWIjnKJuVrxClbxpewW0Lg=", "properties": {"ref": "1028", "@spider": "lidl_us", "shop": "supermarket", "addr:full": "13401 Annapolis Rd", "addr:city": "Bowie", "addr:state": "MD", "addr:postcode": "20720", "addr:country": "US", "name": "Bowie MD - Annapolis Rd", "phone": "844.747.5435", "brand": "Lidl", "brand:wikidata": "Q151954", "nsi_id": "lidl-5866c3"}, "geometry": {"type": "Point", "coordinates": [-76.77333, 38.97187]}},
{"type": "Feature", "id": "_rZTAD_M67OtHBElR_BcvnNVTeI=", "properties": {"ref": "1031", "@spider": "lidl_us", "shop": "supermarket", "addr:full": "2070 Tacketts Village Sq", "addr:city": "Woodbridge", "addr:state": "VA", "addr:postcode": "22192", "addr:country": "US", "name": "Woodbridge VA - Tacketts Village Sq", "phone": "844.747.5435", "brand": "Lidl", "brand:wikidata": "Q151954", "nsi_id": "lidl-5866c3"}, "geometry": {"type": "Point", "coordinates": [-77.27727, 38.67468]}},
{"type": "Feature", "id": "yi2pb6umeWgwCpyYdtu72RFhxy4=", "properties": {"ref": "1033", "@spider": "lidl_us", "shop": "supermarket", "addr:full": "1120 S Main St", "addr:city": "Wake Forest", "addr:state": "NC", "addr:postcode": "27587", "addr:country": "US", "name": "Wake Forest NC - S Main St", "phone": "844.747.5435", "brand": "Lidl", "brand:wikidata": "Q151954", "nsi_id": "lidl-5866c3"}, "geometry": {"type": "Point", "coordinates": [-78.51788, 35.96607]}},
{"type": "Feature", "id": "d6DISIhTa1fgM6yuK-71jKp6I3M=", "properties": {"ref": "1035", "@spider": "lidl_us", "shop": "supermarket", "addr:full": "2290 E Butler Street", "addr:city": "Philadelphia", "addr:state": "PA", "addr:postcode": "19137", "addr:country": "US", "name": "Philadelphia PA - E Butler Street", "phone": "844.747.5435", "brand": "Lidl", "brand:wikidata": "Q151954", "nsi_id": "lidl-5866c3"}, "geometry": {"type": "Point", "coordinates": [-75.09291, 39.996674]}},
{"type": "Feature", "id": "45AUU4xmeywpVIfI01u9UgF6QJU=", "properties": {"ref": "1038", "@spider": "lidl_us", "shop": "supermarket", "addr:full": "5455 Plank Rd", "addr:city": "Fredericksburg", "addr:state": "VA", "addr:postcode": "22407", "addr:country": "US", "name": "Fredericksburg VA - Plank and Gordon Rd", "phone": "844.747.5435", "brand": "Lidl", "brand:wikidata": "Q151954", "nsi_id": "lidl-5866c3"}, "geometry": {"type": "Point", "coordinates": [-77.56046, 38.29108]}},
{"type": "Feature", "id": "w0rmM79fDKCPKcbhMLA2zCEoaIY=", "properties": {"ref": "1039", "@spider": "lidl_us", "shop": "supermarket", "addr:full": "1175 Warrenton Road", "addr:city": "Fredericksburg", "addr:state": "VA", "addr:postcode": "22406", "addr:country": "US", "name": "Fredericksburg VA - Warrenton Road", "phone": "844.747.5435", "brand": "Lidl", "brand:wikidata": "Q151954", "nsi_id": "lidl-5866c3"}, "geometry": {"type": "Point", "coordinates": [-77.52505, 38.36976]}},
{"type": "Feature", "id": "YJXWJChHYN0FjJGccLtUoiUnA28=", "properties": {"ref": "1040", "@spider": "lidl_us", "shop": "supermarket", "addr:full": "951 E. Hudson Blvd", "addr:city": "Gastonia", "addr:state": "NC", "addr:postcode": "28054", "addr:country": "US", "name": "Gastonia NC - E Hudson Blvd", "phone": "844.747.5435", "brand": "Lidl", "brand:wikidata": "Q151954", "nsi_id": "lidl-5866c3"}, "geometry": {"type": "Point", "coordinates": [-81.171646, 35.232388]}},
{"type": "Feature", "id": "neZf_5DGTc5wjIyiyNXCxd5LRFA=", "properties": {"ref": "1042", "@spider": "lidl_us", "shop": "supermarket", "addr:full": "8180 Warren H. Abernathy Hwy", "addr:city": "Spartanburg", "addr:state": "SC", "addr:postcode": "29301", "addr:country": "US", "name": "Spartanburg SC - Warren H. Abernathy Hwy", "phone": "844.747.5435", "brand": "Lidl", "brand:wikidata": "Q151954", "nsi_id": "lidl-5866c3"}, "geometry": {"type": "Point", "coordinates": [-82.00474, 34.9354]}},
{"type": "Feature", "id": "z3mRSXQajp0kl7Gvkx786h8I-XQ=", "properties": {"ref": "1044", "@spider": "lidl_us", "shop": "supermarket", "addr:full": "615 West Mallard Creek Church Road", "addr:city": "Charlotte", "addr:state": "NC", "addr:postcode": "28262", "addr:country": "US", "name": "Charlotte NC - Charlotte - University", "phone": "844.747.5435", "brand": "Lidl", "brand:wikidata": "Q151954", "nsi_id": "lidl-5866c3"}, "geometry": {"type": "Point", "coordinates": [-80.740944, 35.3312]}},
{"type": "Feature", "id": "qdTT83It7FpexuIugNgXDSVTqn0=", "properties": {"ref": "1045", "@spider": "lidl_us", "shop": "supermarket", "addr:full": "4308 Wake Forest Road", "addr:city": "Raleigh", "addr:state": "NC", "addr:postcode": "27609", "addr:country": "US", "name": "Raleigh NC - Wake Forest Rd", "phone": "844.747.5435", "brand": "Lidl", "brand:wikidata": "Q151954", "nsi_id": "lidl-5866c3"}, "geometry": {"type": "Point", "coordinates": [-78.611626, 35.839794]}},
{"type": "Feature", "id": "cgECU17kbMwX8yi1lSzYFXgeegU=", "properties": {"ref": "1050", "@spider": "lidl_us", "shop": "supermarket", "addr:full": "2000 W Mercury Blvd", "addr:city": "Hampton", "addr:state": "VA", "addr:postcode": "23666", "addr:country": "US", "name": "Hampton VA - W Mercury Blvd", "phone": "844.747.5435", "brand": "Lidl", "brand:wikidata": "Q151954", "nsi_id": "lidl-5866c3"}, "geometry": {"type": "Point", "coordinates": [-76.39881, 37.04048]}},
{"type": "Feature", "id": "cdcSsxYVf5rpadZk-OBjOhsc-T4=", "properties": {"ref": "1052", "@spider": "lidl_us", "shop": "supermarket", "addr:full": "1096 Alexander Dr", "addr:city": "Augusta", "addr:state": "GA", "addr:postcode": "30909", "addr:country": "US", "name": "Augusta GA - Alexander Dr", "phone": "844.747.5435", "brand": "Lidl", "brand:wikidata": "Q151954", "nsi_id": "lidl-5866c3"}, "geometry": {"type": "Point", "coordinates": [-82.02745, 33.511276]}},
{"type": "Feature", "id": "iutldoLYwZRJMjENDDXmpBienN4=", "properties": {"ref": "1053", "@spider": "lidl_us", "shop": "supermarket", "addr:full": "15169 Brandy Rd", "addr:city": "Culpeper", "addr:state": "VA", "addr:postcode": "22701", "addr:country": "US", "name": "Culpeper VA - Brandy Rd", "phone": "844.747.5435", "brand": "Lidl", "brand:wikidata": "Q151954", "nsi_id": "lidl-5866c3"}, "geometry": {"type": "Point", "coordinates": [-77.97255, 38.4837]}},
{"type": "Feature", "id": "xcTtPKsKf7uKQ6yD9KPq7bp_DGM=", "properties": {"ref": "1056", "@spider": "lidl_us", "shop": "supermarket", "addr:full": "417 E. Martintown Rd", "addr:city": "North Augusta", "addr:state": "SC", "addr:postcode": "29841", "addr:country": "US", "name": "North Augusta SC - E Martintown Rd", "phone": "844.747.5435", "brand": "Lidl", "brand:wikidata": "Q151954", "nsi_id": "lidl-5866c3"}, "geometry": {"type": "Point", "coordinates": [-81.95875, 33.4963]}},
{"type": "Feature", "id": "bpDh7I_2DTWL5UoAqn6siEJsU9I=", "properties": {"ref": "1057", "@spider": "lidl_us", "shop": "supermarket", "addr:full": "6196 Providence Rd", "addr:city": "Virginia Beach", "addr:state": "VA", "addr:postcode": "23464", "addr:country": "US", "name": "Virginia Beach VA - Providence Rd", "phone": "844.747.5435", "brand": "Lidl", "brand:wikidata": "Q151954", "nsi_id": "lidl-5866c3"}, "geometry": {"type": "Point", "coordinates": [-76.20762, 36.812107]}},
{"type": "Feature", "id": "FFxvVxfMKY0HSGdN45J2ZancpSA=", "properties": {"ref": "1058", "@spider": "lidl_us", "shop": "supermarket", "addr:full": "3209 NC 87 South", "addr:city": "Sanford", "addr:state": "NC", "addr:postcode": "27332", "addr:country": "US", "name": "Sanford NC - NC 87 South", "phone": "844.747.5435", "brand": "Lidl", "brand:wikidata": "Q151954", "nsi_id": "lidl-5866c3"}, "geometry": {"type": "Point", "coordinates": [-79.129234, 35.44746]}},
{"type": "Feature", "id": "tqYAySQyjwuE4byE_4SL53ALb8M=", "properties": {"ref": "1059", "@spider": "lidl_us", "shop": "supermarket", "addr:full": "16601 Dumfries Rd", "addr:city": "Dumfries", "addr:state": "VA", "addr:postcode": "22025", "addr:country": "US", "name": "Dumfries VA - Dumfries Rd", "phone": "844.747.5435", "brand": "Lidl", "brand:wikidata": "Q151954", "nsi_id": "lidl-5866c3"}, "geometry": {"type": "Point", "coordinates": [-77.334305, 38.595257]}},
{"type": "Feature", "id": "NhVSapDoXYVc_KSG3yuV52uWL7M=", "properties": {"ref": "1060", "@spider": "lidl_us", "shop": "supermarket", "addr:full": "11701 Iron Bridge Rd", "addr:city": "Chester", "addr:state": "VA", "addr:postcode": "23831", "addr:country": "US", "name": "Chester VA - Iron Bridge Rd", "phone": "844.747.5435", "brand": "Lidl", "brand:wikidata": "Q151954", "nsi_id": "lidl-5866c3"}, "geometry": {"type": "Point", "coordinates": [-77.49257, 37.353527]}},
{"type": "Feature", "id": "1ggMa2nwqOZzsY_efe5K1k814ac=", "properties": {"ref": "1063", "@spider": "lidl_us", "shop": "supermarket", "addr:full": "4033 Portsmouth Blvd", "addr:city": "Chesapeake", "addr:state": "VA", "addr:postcode": "23321", "addr:country": "US", "name": "Chesapeake VA - Portsmouth Blvd", "phone": "844.747.5435", "brand": "Lidl", "brand:wikidata": "Q151954", "nsi_id": "lidl-5866c3"}, "geometry": {"type": "Point", "coordinates": [-76.40804, 36.82449]}},
{"type": "Feature", "id": "POnWzCXH2yYspEMM8Ex3BVbK_G8=", "properties": {"ref": "1064", "@spider": "lidl_us", "shop": "supermarket", "addr:full": "2037 Wade Hampton Blvd", "addr:city": "Greenville", "addr:state": "SC", "addr:postcode": "29615", "addr:country": "US", "name": "Greenville SC - Wade Hampton Blvd Lidl", "phone": "844.747.5435", "brand": "Lidl", "brand:wikidata": "Q151954", "nsi_id": "lidl-5866c3"}, "geometry": {"type": "Point", "coordinates": [-82.355225, 34.884586]}},
{"type": "Feature", "id": "OrSEUBgJMtaQY2Uf5xMxS6YCOwc=", "properties": {"ref": "1074", "@spider": "lidl_us", "shop": "supermarket", "addr:full": "3521 Raleigh Road Parkway W", "addr:city": "Wilson", "addr:state": "NC", "addr:postcode": "27896", "addr:country": "US", "name": "Wilson NC - Raleigh Rd", "phone": "844.747.5435", "brand": "Lidl", "brand:wikidata": "Q151954", "nsi_id": "lidl-5866c3"}, "geometry": {"type": "Point", "coordinates": [-77.96349, 35.74481]}},
{"type": "Feature", "id": "69EiGbHpXeJHaX1dQf8gkG1YgS0=", "properties": {"ref": "1080", "@spider": "lidl_us", "shop": "supermarket", "addr:full": "1451 Eastwood Rd", "addr:city": "Wilmington", "addr:state": "NC", "addr:postcode": "28403", "addr:country": "US", "name": "Wilmington NC - Eastwood Rd", "phone": "844.747.5435", "brand": "Lidl", "brand:wikidata": "Q151954", "nsi_id": "lidl-5866c3"}, "geometry": {"type": "Point", "coordinates": [-77.83645, 34.23189]}},
{"type": "Feature", "id": "VSnVI1qzpMgu9lvOGUaJIC5a7eM=", "properties": {"ref": "1081", "@spider": "lidl_us", "shop": "supermarket", "addr:full": "980 S Richland Ave", "addr:city": "York", "addr:state": "PA", "addr:postcode": "17403", "addr:country": "US", "name": "York PA - S Richland Ave", "phone": "844.747.5435", "brand": "Lidl", "brand:wikidata": "Q151954", "nsi_id": "lidl-5866c3"}, "geometry": {"type": "Point", "coordinates": [-76.74086, 39.94426]}},
{"type": "Feature", "id": "R_G4UmsvDrlP3PcSg1paQ_nObNE=", "properties": {"ref": "1088", "@spider": "lidl_us", "shop": "supermarket", "addr:full": "2200 E Main St", "addr:city": "Spartanburg", "addr:state": "SC", "addr:postcode": "29307", "addr:country": "US", "name": "Spartanburg SC - E Main St", "phone": "844.747.5435", "brand": "Lidl", "brand:wikidata": "Q151954", "nsi_id": "lidl-5866c3"}, "geometry": {"type": "Point", "coordinates": [-81.88271, 34.973488]}},
{"type": "Feature", "id": "CGrHe0FfJeGDA2GZ8e3Uaw47eGI=", "properties": {"ref": "1089", "@spider": "lidl_us", "shop": "supermarket", "addr:full": "5038 US 70 Hwy", "addr:city": "Morehead City", "addr:state": "NC", "addr:postcode": "28557", "addr:country": "US", "name": "Morehead City NC - US 70 Hwy", "phone": "844.747.5435", "brand": "Lidl", "brand:wikidata": "Q151954", "nsi_id": "lidl-5866c3"}, "geometry": {"type": "Point", "coordinates": [-76.796, 34.73679]}},
{"type": "Feature", "id": "oBSdzRw2yFmYlhwPPDMQnEI0Tug=", "properties": {"ref": "1091", "@spider": "lidl_us", "shop": "supermarket", "addr:full": "1801 Mt Holly Rd", "addr:city": "Burlington", "addr:state": "NJ", "addr:postcode": "08016", "addr:country": "US", "name": "Burlington NJ - Mt Holly Rd", "phone": "844.747.5435", "brand": "Lidl", "brand:wikidata": "Q151954", "nsi_id": "lidl-5866c3"}, "geometry": {"type": "Point", "coordinates": [-74.84513, 40.05546]}},
{"type": "Feature", "id": "ZJlM9X7HpqDkg87KYz25cGrtfZM=", "properties": {"ref": "1092", "@spider": "lidl_us", "shop": "supermarket", "addr:full": "1401 Summit Parkway", "addr:city": "Columbia", "addr:state": "SC", "addr:postcode": "29229", "addr:country": "US", "name": "Columbia SC - Summit Parkway", "phone": "844.747.5435", "brand": "Lidl", "brand:wikidata": "Q151954", "nsi_id": "lidl-5866c3"}, "geometry": {"type": "Point", "coordinates": [-80.910706, 34.15736]}},
{"type": "Feature", "id": "ufB3tsZit6zfNY66VW5x1_vXlr8=", "properties": {"ref": "1093", "@spider": "lidl_us", "shop": "supermarket", "addr:full": "3461 Promenande Pl", "addr:city": "Waldorf", "addr:state": "MD", "addr:postcode": "20603", "addr:country": "US", "name": "Waldorf MD - Promenande Pl", "phone": "844.747.5435", "brand": "Lidl", "brand:wikidata": "Q151954", "nsi_id": "lidl-5866c3"}, "geometry": {"type": "Point", "coordinates": [-76.93281, 38.617332]}},
{"type": "Feature", "id": "Zt2okecdyeAofffRafk0UsXhd9Q=", "properties": {"ref": "1094", "@spider": "lidl_us", "shop": "supermarket", "addr:full": "1107 W Landis Ave", "addr:city": "Vineland", "addr:state": "NJ", "addr:postcode": "08360", "addr:country": "US", "name": "Vineland NJ - West Landis Ave", "phone": "844.747.5435", "brand": "Lidl", "brand:wikidata": "Q151954", "nsi_id": "lidl-5866c3"}, "geometry": {"type": "Point", "coordinates": [-75.04782, 39.48676]}},
{"type": "Feature", "id": "uFhkRrs38OjTjiDeV468WfqVwHk=", "properties": {"ref": "1096", "@spider": "lidl_us", "shop": "supermarket", "addr:full": "1120 S 25th St", "addr:city": "Easton", "addr:state": "PA", "addr:postcode": "18042", "addr:country": "US", "name": "Easton PA - S 25th St", "phone": "844.747.5435", "brand": "Lidl", "brand:wikidata": "Q151954", "nsi_id": "lidl-5866c3"}, "geometry": {"type": "Point", "coordinates": [-75.24603, 40.675137]}},
{"type": "Feature", "id": "8hhDds-B9VhHvYUi6B2fQpyIMvY=", "properties": {"ref": "1097", "@spider": "lidl_us", "shop": "supermarket", "addr:full": "14600 E Independence Blvd", "addr:city": "Indian Trail", "addr:state": "NC", "addr:postcode": "28079", "addr:country": "US", "name": "Indian Trail NC - E Independence Blvd", "phone": "844.747.5435", "brand": "Lidl", "brand:wikidata": "Q151954", "nsi_id": "lidl-5866c3"}, "geometry": {"type": "Point", "coordinates": [-80.652954, 35.076447]}},
{"type": "Feature", "id": "w0nSR8lYTeaLNXvqz8gsAYJDfGk=", "properties": {"ref": "1099", "@spider": "lidl_us", "shop": "supermarket", "addr:full": "2510 North Rd", "addr:city": "Orangeburg", "addr:state": "SC", "addr:postcode": "29118", "addr:country": "US", "name": "Orangeburg SC - North Rd", "phone": "844.747.5435", "brand": "Lidl", "brand:wikidata": "Q151954", "nsi_id": "lidl-5866c3"}, "geometry": {"type": "Point", "coordinates": [-80.884544, 33.524345]}},
{"type": "Feature", "id": "drbzBE2gKmu0_1R_FyzbOJqEAFk=", "properties": {"ref": "1103", "@spider": "lidl_us", "shop": "supermarket", "addr:full": "6440 N Military Hwy", "addr:city": "Norfolk", "addr:state": "VA", "addr:postcode": "23518", "addr:country": "US", "name": "Norfolk VA - N Military Hwy", "phone": "844.747.5435", "brand": "Lidl", "brand:wikidata": "Q151954", "nsi_id": "lidl-5866c3"}, "geometry": {"type": "Point", "coordinates": [-76.22627, 36.900394]}},
{"type": "Feature", "id": "Quxd-fHxgHrZsyBNqKElLqMtO7g=", "properties": {"ref": "1105", "@spider": "lidl_us", "shop": "supermarket", "addr:full": "1209 Edison Rd.", "addr:city": "Virginia Beach", "addr:state": "VA", "addr:postcode": "23454", "addr:country": "US", "name": "Virginia Beach VA - Edison Rd", "phone": "844.747.5435", "brand": "Lidl", "brand:wikidata": "Q151954", "nsi_id": "lidl-5866c3"}, "geometry": {"type": "Point", "coordinates": [-76.00255, 36.77901]}},
{"type": "Feature", "id": "rZQuZdbFZ5HRRVAJjvQZbdJzlv4=", "properties": {"ref": "1106", "@spider": "lidl_us", "shop": "supermarket", "addr:full": "12151 W Broad St", "addr:city": "Richmond", "addr:state": "VA", "addr:postcode": "23233", "addr:country": "US", "name": "Richmond VA - 12151 W Broad St", "phone": "844.747.5435", "brand": "Lidl", "brand:wikidata": "Q151954", "nsi_id": "lidl-5866c3"}, "geometry": {"type": "Point", "coordinates": [-77.6353, 37.659668]}},
{"type": "Feature", "id": "mAzKmnwFLkGA1e_2sFz156JrS3I=", "properties": {"ref": "1107", "@spider": "lidl_us", "shop": "supermarket", "addr:full": "2445 Fairlawn Dr", "addr:city": "Winston Salem", "addr:state": "NC", "addr:postcode": "27106", "addr:country": "US", "name": "Winston Salem NC - Fairlawn Dr", "phone": "844.747.5435", "brand": "Lidl", "brand:wikidata": "Q151954", "nsi_id": "lidl-5866c3"}, "geometry": {"type": "Point", "coordinates": [-80.29195, 36.143185]}},
{"type": "Feature", "id": "BJOFTyvGD8Xd9XQX_QQiO0gDcL4=", "properties": {"ref": "1108", "@spider": "lidl_us", "shop": "supermarket", "addr:full": "7200 Marlboro Pike", "addr:city": "District Heights", "addr:state": "MD", "addr:postcode": "20747", "addr:country": "US", "name": "District Heights MD - Marlboro Pike", "phone": "844.747.5435", "brand": "Lidl", "brand:wikidata": "Q151954", "nsi_id": "lidl-5866c3"}, "geometry": {"type": "Point", "coordinates": [-76.88266, 38.850773]}},
{"type": "Feature", "id": "LSGkAr8fJi1yXrZVGl5d6ITZvzE=", "properties": {"ref": "1110", "@spider": "lidl_us", "shop": "supermarket", "addr:full": "1105 N. Harrison Ave", "addr:city": "Cary", "addr:state": "NC", "addr:postcode": "27513", "addr:country": "US", "name": "Cary NC - N. Harrison Ave", "phone": "844.747.5435", "brand": "Lidl", "brand:wikidata": "Q151954", "nsi_id": "lidl-5866c3"}, "geometry": {"type": "Point", "coordinates": [-78.783035, 35.805904]}},
{"type": "Feature", "id": "Bm-OLrWyZe_Hrfc8rs4aGS0Wy_U=", "properties": {"ref": "1116", "@spider": "lidl_us", "shop": "supermarket", "addr:full": "435 Saint James Avenue", "addr:city": "Goose Creek", "addr:state": "SC", "addr:postcode": "29445", "addr:country": "US", "name": "Goose Creek SC - Saint James Ave", "phone": "844.747.5435", "brand": "Lidl", "brand:wikidata": "Q151954", "nsi_id": "lidl-5866c3"}, "geometry": {"type": "Point", "coordinates": [-80.05649, 33.02594]}},
{"type": "Feature", "id": "rnqJKtOn2LLXKkMqEmw0dlp-G1U=", "properties": {"ref": "1117", "@spider": "lidl_us", "shop": "supermarket", "addr:full": "9101 Hermitage Rd", "addr:city": "Henrico", "addr:state": "VA", "addr:postcode": "23228", "addr:country": "US", "name": "Henrico VA - Hermitage Rd", "phone": "844.747.5435", "brand": "Lidl", "brand:wikidata": "Q151954", "nsi_id": "lidl-5866c3"}, "geometry": {"type": "Point", "coordinates": [-77.504074, 37.62693]}},
{"type": "Feature", "id": "GEIj2gBDXcF6PXUFuDOJGVR8CZw=", "properties": {"ref": "1119", "@spider": "lidl_us", "shop": "supermarket", "addr:full": "2375 Route 22", "addr:city": "Union", "addr:state": "NJ", "addr:postcode": "07083", "addr:country": "US", "name": "Union NJ - Route 22", "phone": "844.747.5435", "brand": "Lidl", "brand:wikidata": "Q151954", "nsi_id": "lidl-5866c3"}, "geometry": {"type": "Point", "coordinates": [-74.29421, 40.69125]}},
{"type": "Feature", "id": "UWX0TZRmK-9NeQWcxnRMwwHJrbw=", "properties": {"ref": "1120", "@spider": "lidl_us", "shop": "supermarket", "addr:full": "5215 Sunset Blvd", "addr:city": "Lexington", "addr:state": "SC", "addr:postcode": "29072", "addr:country": "US", "name": "Lexington SC - Sunset Blvd", "phone": "844.747.5435", "brand": "Lidl", "brand:wikidata": "Q151954", "nsi_id": "lidl-5866c3"}, "geometry": {"type": "Point", "coordinates": [-81.20178, 34.005096]}},
{"type": "Feature", "id": "WA-YbjGLrf6iLCfYOgMH8BqrhFo=", "properties": {"ref": "1126", "@spider": "lidl_us", "shop": "supermarket", "addr:full": "425 Bypass 72 NW", "addr:city": "Greenwood", "addr:state": "SC", "addr:postcode": "29649", "addr:country": "US", "name": "Greenwood SC - 72 Bypass NW", "phone": "844.747.5435", "brand": "Lidl", "brand:wikidata": "Q151954", "nsi_id": "lidl-5866c3"}, "geometry": {"type": "Point", "coordinates": [-82.18084, 34.2099]}},
{"type": "Feature", "id": "YGdqgKlrSVmAQFWZvoal8g_zrB8=", "properties": {"ref": "1129", "@spider": "lidl_us", "shop": "supermarket", "addr:full": "359 Auto Park Dr", "addr:city": "Middletown", "addr:state": "DE", "addr:postcode": "19709", "addr:country": "US", "name": "Middletown DE - Auto Park Dr", "phone": "844.747.5435", "brand": "Lidl", "brand:wikidata": "Q151954", "nsi_id": "lidl-5866c3"}, "geometry": {"type": "Point", "coordinates": [-75.730736, 39.44514]}},
{"type": "Feature", "id": "X8la_ccLxbA_DlRLU-0lvLYjQAo=", "properties": {"ref": "1132", "@spider": "lidl_us", "shop": "supermarket", "addr:full": "11782 Sudley Manor Dr", "addr:city": "Manassas", "addr:state": "VA", "addr:postcode": "20109", "addr:country": "US", "name": "Manassas VA - Sudley Manor Dr", "phone": "844.747.5435", "brand": "Lidl", "brand:wikidata": "Q151954", "nsi_id": "lidl-5866c3"}, "geometry": {"type": "Point", "coordinates": [-77.52096, 38.78497]}},
{"type": "Feature", "id": "A1GspLJl8-vv9JPjuza8w-Elves=", "properties": {"ref": "1133", "@spider": "lidl_us", "shop": "supermarket", "addr:full": "7500 Mission Dr", "addr:city": "Lanham", "addr:state": "MD", "addr:postcode": "20706", "addr:country": "US", "name": "Lanham MD - Mission Dr", "phone": "844.747.5435", "brand": "Lidl", "brand:wikidata": "Q151954", "nsi_id": "lidl-5866c3"}, "geometry": {"type": "Point", "coordinates": [-76.823265, 38.991497]}},
{"type": "Feature", "id": "w_ZuYZSI14C4OjlgzbPjb8txTa0=", "properties": {"ref": "1134", "@spider": "lidl_us", "shop": "supermarket", "addr:full": "2973 Route 35", "addr:city": "Hazlet", "addr:state": "NJ", "addr:postcode": "07730", "addr:country": "US", "name": "Hazlet NJ - NJSH 35", "phone": "844.747.5435", "brand": "Lidl", "brand:wikidata": "Q151954", "nsi_id": "lidl-5866c3"}, "geometry": {"type": "Point", "coordinates": [-74.17676, 40.41809]}},
{"type": "Feature", "id": "xt0FVLKcUj0MQCmBfpAdtkYs568=", "properties": {"ref": "1136", "@spider": "lidl_us", "shop": "supermarket", "addr:full": "5696 W Gate City Blvd", "addr:city": "Greensboro", "addr:state": "NC", "addr:postcode": "27407", "addr:country": "US", "name": "Greensboro NC - W Gate City Blvd", "phone": "844.747.5435", "brand": "Lidl", "brand:wikidata": "Q151954", "nsi_id": "lidl-5866c3"}, "geometry": {"type": "Point", "coordinates": [-79.89463, 36.017838]}},
{"type": "Feature", "id": "FCObOjmpZLGzGG09Z7osH91gO6I=", "properties": {"ref": "1138", "@spider": "lidl_us", "shop": "supermarket", "addr:full": "1831  E Ridge Pike", "addr:city": "Royersford", "addr:state": "PA", "addr:postcode": "19468", "addr:country": "US", "name": "Royersford PA - Ridge Pike", "phone": "844.747.5435", "brand": "Lidl", "brand:wikidata": "Q151954", "nsi_id": "lidl-5866c3"}, "geometry": {"type": "Point", "coordinates": [-75.496506, 40.214073]}},
{"type": "Feature", "id": "bN1G0mUQ9f1bVRdXYgpAGTL2Kz8=", "properties": {"ref": "1140", "@spider": "lidl_us", "shop": "supermarket", "addr:full": "3248 Holland Rd", "addr:city": "Virginia Beach", "addr:state": "VA", "addr:postcode": "23453", "addr:country": "US", "name": "Virginia Beach VA - Holland Rd", "phone": "844.747.5435", "brand": "Lidl", "brand:wikidata": "Q151954", "nsi_id": "lidl-5866c3"}, "geometry": {"type": "Point", "coordinates": [-76.083626, 36.797924]}},
{"type": "Feature", "id": "ODOvot-nuY56iAeSLdprJK5IuE8=", "properties": {"ref": "1141", "@spider": "lidl_us", "shop": "supermarket", "addr:full": "1866 Woodruff Road", "addr:city": "Greenville", "addr:state": "SC", "addr:postcode": "29607", "addr:country": "US", "name": "Greenville SC - Woodruff Rd", "phone": "844.747.5435", "brand": "Lidl", "brand:wikidata": "Q151954", "nsi_id": "lidl-5866c3"}, "geometry": {"type": "Point", "coordinates": [-82.265785, 34.819748]}},
{"type": "Feature", "id": "EMY2k7E8QpxBtOVnRaVsu0wnM10=", "properties": {"ref": "1157", "@spider": "lidl_us", "shop": "supermarket", "addr:full": "4115 Buffaloe Road", "addr:city": "Raleigh", "addr:state": "NC", "addr:postcode": "27616", "addr:country": "US", "name": "Raleigh NC - Buffaloe Road", "phone": "844.747.5435", "brand": "Lidl", "brand:wikidata": "Q151954", "nsi_id": "lidl-5866c3"}, "geometry": {"type": "Point", "coordinates": [-78.56913, 35.831455]}},
{"type": "Feature", "id": "y_kcypxgAs7wxT4InT3nUj_NZbk=", "properties": {"ref": "1159", "@spider": "lidl_us", "shop": "supermarket", "addr:full": "8601 Baltimore Avenue", "addr:city": "College Park", "addr:state": "MD", "addr:postcode": "20740", "addr:country": "US", "name": "College Park MD - Baltimore Avenue", "phone": "844.747.5435", "brand": "Lidl", "brand:wikidata": "Q151954", "nsi_id": "lidl-5866c3"}, "geometry": {"type": "Point", "coordinates": [-76.93173, 38.996243]}},
{"type": "Feature", "id": "HyiOvGDIcuFT7DWjSGRKyqBTewU=", "properties": {"ref": "1161", "@spider": "lidl_us", "shop": "supermarket", "addr:full": "4520 Margaret Wallace Rd", "addr:city": "Matthews", "addr:state": "NC", "addr:postcode": "28105", "addr:country": "US", "name": "Matthews NC - Margaret Wallace Rd", "phone": "844.747.5435", "brand": "Lidl", "brand:wikidata": "Q151954", "nsi_id": "lidl-5866c3"}, "geometry": {"type": "Point", "coordinates": [-80.708, 35.171597]}},
{"type": "Feature", "id": "eBsoFxbLbV7PES8945fLc-AJLB0=", "properties": {"ref": "1162", "@spider": "lidl_us", "shop": "supermarket", "addr:full": "400 Route 38", "addr:city": "Cherry Hill", "addr:state": "NJ", "addr:postcode": "08110", "addr:country": "US", "name": "Cherry Hill NJ - Route 38", "phone": "844.747.5435", "brand": "Lidl", "brand:wikidata": "Q151954", "nsi_id": "lidl-5866c3"}, "geometry": {"type": "Point", "coordinates": [-75.04984, 39.936123]}},
{"type": "Feature", "id": "KxlGu94_yn39DYJaCQKH6MSmtcU=", "properties": {"ref": "1163", "@spider": "lidl_us", "shop": "supermarket", "addr:full": "8930 Christenbury Pkwy", "addr:city": "Concord", "addr:state": "NC", "addr:postcode": "28027", "addr:country": "US", "name": "Concord NC - Christenbury Pkwy", "phone": "844.747.5435", "brand": "Lidl", "brand:wikidata": "Q151954", "nsi_id": "lidl-5866c3"}, "geometry": {"type": "Point", "coordinates": [-80.73169, 35.37639]}},
{"type": "Feature", "id": "GaSD7tZJkZqrIzyAi6TXlj5mlLY=", "properties": {"ref": "1166", "@spider": "lidl_us", "shop": "supermarket", "addr:full": "150 N DuPont Hwy", "addr:city": "Dover", "addr:state": "DE", "addr:postcode": "19901", "addr:country": "US", "name": "Dover DE - N DuPont Hwy", "phone": "844.747.5435", "brand": "Lidl", "brand:wikidata": "Q151954", "nsi_id": "lidl-5866c3"}, "geometry": {"type": "Point", "coordinates": [-75.51696, 39.166973]}},
{"type": "Feature", "id": "mcaTJBUlGG-Y_5htBdcr92Qjeo4=", "properties": {"ref": "1170", "@spider": "lidl_us", "shop": "supermarket", "addr:full": "4844 Floyd Rd SW", "addr:city": "Mableton", "addr:state": "GA", "addr:postcode": "30126", "addr:country": "US", "name": "Mableton GA - Floyd Rd SW", "phone": "844.747.5435", "brand": "Lidl", "brand:wikidata": "Q151954", "nsi_id": "lidl-5866c3"}, "geometry": {"type": "Point", "coordinates": [-84.57664, 33.83697]}},
{"type": "Feature", "id": "O7_pI8a5bSyda22a48ClEdVNbYE=", "properties": {"ref": "1176", "@spider": "lidl_us", "shop": "supermarket", "addr:full": "514 US 9", "addr:city": "Lacey", "addr:state": "NJ", "addr:postcode": "08734", "addr:country": "US", "name": "Lacey NJ - US 9", "phone": "844.747.5435", "brand": "Lidl", "brand:wikidata": "Q151954", "nsi_id": "lidl-5866c3"}, "geometry": {"type": "Point", "coordinates": [-74.179375, 39.856625]}},
{"type": "Feature", "id": "0JqXnrfBRYZ25ju02qyJvI3TbP4=", "properties": {"ref": "1177", "@spider": "lidl_us", "shop": "supermarket", "addr:full": "136 NJSH 35", "addr:city": "Eatontown", "addr:state": "NJ", "addr:postcode": "07724", "addr:country": "US", "name": "Eatontown NJ - NJSH 35", "phone": "844.747.5435", "brand": "Lidl", "brand:wikidata": "Q151954", "nsi_id": "lidl-5866c3"}, "geometry": {"type": "Point", "coordinates": [-74.0545, 40.295864]}},
{"type": "Feature", "id": "OTssHmnw15vrmeZc4NEFBUt-wF4=", "properties": {"ref": "1186", "@spider": "lidl_us", "shop": "supermarket", "addr:full": "8155 Tara Blvd", "addr:city": "Jonesboro", "addr:state": "GA", "addr:postcode": "30236", "addr:country": "US", "name": "Jonesboro GA - Tara Blvd", "phone": "844.747.5435", "brand": "Lidl", "brand:wikidata": "Q151954", "nsi_id": "lidl-5866c3"}, "geometry": {"type": "Point", "coordinates": [-84.363655, 33.530273]}},
{"type": "Feature", "id": "-ewcbbT1dZwgM8IAyET0EeoYFbI=", "properties": {"ref": "1193", "@spider": "lidl_us", "shop": "supermarket", "addr:full": "2205 W Palmetto St", "addr:city": "Florence", "addr:state": "SC", "addr:postcode": "29501", "addr:country": "US", "name": "Florence SC - W Palmetto", "phone": "844.747.5435", "brand": "Lidl", "brand:wikidata": "Q151954", "nsi_id": "lidl-5866c3"}, "geometry": {"type": "Point", "coordinates": [-79.81352, 34.18586]}},
{"type": "Feature", "id": "H44AJ7JfyUQ59AS6HWne74PhwdA=", "properties": {"ref": "1199", "@spider": "lidl_us", "shop": "supermarket", "addr:full": "4700 W Broad St", "addr:city": "Richmond", "addr:state": "VA", "addr:postcode": "23230", "addr:country": "US", "name": "Richmond VA - 4700 W Broad St", "phone": "844.747.5435", "brand": "Lidl", "brand:wikidata": "Q151954", "nsi_id": "lidl-5866c3"}, "geometry": {"type": "Point", "coordinates": [-77.49092, 37.57987]}},
{"type": "Feature", "id": "bHyEUkwtUfAFEugtlCUjjenNcag=", "properties": {"ref": "1203", "@spider": "lidl_us", "shop": "supermarket", "addr:full": "420 MacDade Blvd", "addr:city": "Folsom", "addr:state": "PA", "addr:postcode": "19033", "addr:country": "US", "name": "Folsom PA - MacDade Blvd", "phone": "844.747.5435", "brand": "Lidl", "brand:wikidata": "Q151954", "nsi_id": "lidl-5866c3"}, "geometry": {"type": "Point", "coordinates": [-75.326164, 39.888824]}},
{"type": "Feature", "id": "YP_0EER0j7q-ueYgD9QHcokAWxQ=", "properties": {"ref": "1208", "@spider": "lidl_us", "shop": "supermarket", "addr:full": "3520 Sugarloaf Parkway", "addr:city": "Lawrenceville", "addr:state": "GA", "addr:postcode": "30044", "addr:country": "US", "name": "Lawrenceville GA -Sugarloaf Parkway", "phone": "844.747.5435", "brand": "Lidl", "brand:wikidata": "Q151954", "nsi_id": "lidl-5866c3"}, "geometry": {"type": "Point", "coordinates": [-84.02162, 33.925987]}},
{"type": "Feature", "id": "-n5gv2612NI-7htx5otqHeRyZ0s=", "properties": {"ref": "1215", "@spider": "lidl_us", "shop": "supermarket", "addr:full": "21285 Coopers Hawk Drive", "addr:city": "Ashburn", "addr:state": "VA", "addr:postcode": "20148", "addr:country": "US", "name": "Ashburn VA - Broadlands Blvd", "phone": "844.747.5435", "brand": "Lidl", "brand:wikidata": "Q151954", "nsi_id": "lidl-5866c3"}, "geometry": {"type": "Point", "coordinates": [-77.48449, 39.06635]}},
{"type": "Feature", "id": "qy8QisnJUPu0RgRLxTajpOBlXCI=", "properties": {"ref": "1229", "@spider": "lidl_us", "shop": "supermarket", "addr:full": "6801 Commerce Street", "addr:city": "Springfield", "addr:state": "VA", "addr:postcode": "22150", "addr:country": "US", "name": "Springfield VA - Commerce Street", "phone": "844.747.5435", "brand": "Lidl", "brand:wikidata": "Q151954", "nsi_id": "lidl-5866c3"}, "geometry": {"type": "Point", "coordinates": [-77.18416, 38.782265]}},
{"type": "Feature", "id": "FAe7NxEMT4cWuy_LoTXsM9-RA4w=", "properties": {"ref": "1243", "@spider": "lidl_us", "shop": "supermarket", "addr:full": "9795 Liberia Ave", "addr:city": "Manassas", "addr:state": "VA", "addr:postcode": "20110", "addr:country": "US", "name": "Manassas VA - Liberia Ave", "phone": "844.747.5435", "brand": "Lidl", "brand:wikidata": "Q151954", "nsi_id": "lidl-5866c3"}, "geometry": {"type": "Point", "coordinates": [-77.45049, 38.7429]}},
{"type": "Feature", "id": "cNunrG8Sx7CVn2chYPu-aM8vnk0=", "properties": {"ref": "1246", "@spider": "lidl_us", "shop": "supermarket", "addr:full": "2613 Ridge Pike", "addr:city": "Trooper", "addr:state": "PA", "addr:postcode": "19403", "addr:country": "US", "name": "Trooper PA - Ridge Pike", "phone": "844.747.5435", "brand": "Lidl", "brand:wikidata": "Q151954", "nsi_id": "lidl-5866c3"}, "geometry": {"type": "Point", "coordinates": [-75.3907, 40.14304]}},
{"type": "Feature", "id": "QjP-pfT00s70vX9yX8EbjzFBnhI=", "properties": {"ref": "1247", "@spider": "lidl_us", "shop": "supermarket", "addr:full": "2985 Peachtree Pkwy", "addr:city": "Suwanee", "addr:state": "GA", "addr:postcode": "30024", "addr:country": "US", "name": "Suwanee GA - Peachtree Parkway", "phone": "844.747.5435", "brand": "Lidl", "brand:wikidata": "Q151954", "nsi_id": "lidl-5866c3"}, "geometry": {"type": "Point", "coordinates": [-84.16799, 34.090015]}},
{"type": "Feature", "id": "h_RBYQ4RhDNJ6zqME_O_2UgyEms=", "properties": {"ref": "1248", "@spider": "lidl_us", "shop": "supermarket", "addr:full": "2641 Powder Springs Rd SW", "addr:city": "Marietta", "addr:state": "GA", "addr:postcode": "30064", "addr:country": "US", "name": "Marietta GA - Powder Springs Rd SW", "phone": "844.747.5435", "brand": "Lidl", "brand:wikidata": "Q151954", "nsi_id": "lidl-5866c3"}, "geometry": {"type": "Point", "coordinates": [-84.63015, 33.867943]}},
{"type": "Feature", "id": "TTEBC9S0CkTDlFYBSVaE-z-v7LI=", "properties": {"ref": "1250", "@spider": "lidl_us", "shop": "supermarket", "addr:full": "9175 Roosevelt Blvd", "addr:city": "Philadelphia", "addr:state": "PA", "addr:postcode": "19114", "addr:country": "US", "name": "Philadelphia PA -Roosevelt Blvd", "phone": "844.747.5435", "brand": "Lidl", "brand:wikidata": "Q151954", "nsi_id": "lidl-5866c3"}, "geometry": {"type": "Point", "coordinates": [-75.0324, 40.076675]}},
{"type": "Feature", "id": "zNvk3mH0cZSAQrc4zDy6Hl3GmU4=", "properties": {"ref": "1262", "@spider": "lidl_us", "shop": "supermarket", "addr:full": "3821 Stone Mountain Highway", "addr:city": "Snellville", "addr:state": "GA", "addr:postcode": "30039", "addr:country": "US", "name": "Snellville GA - Stone Mountain Highway", "phone": "844.747.5435", "brand": "Lidl", "brand:wikidata": "Q151954", "nsi_id": "lidl-5866c3"}, "geometry": {"type": "Point", "coordinates": [-84.06395, 33.840572]}},
{"type": "Feature", "id": "TS-i66ZGLPBnSNWA6Mz7F-uriL8=", "properties": {"ref": "1285", "@spider": "lidl_us", "shop": "supermarket", "addr:full": "733 Dual Highway", "addr:city": "Hagerstown", "addr:state": "MD", "addr:postcode": "21740", "addr:country": "US", "name": "Hagerstown MD - Dual Highway", "phone": "844.747.5435", "brand": "Lidl", "brand:wikidata": "Q151954", "nsi_id": "lidl-5866c3"}, "geometry": {"type": "Point", "coordinates": [-77.706566, 39.635628]}},
{"type": "Feature", "id": "Y_dj4iJthlbBHWOn2X5CEIAdlxQ=", "properties": {"ref": "1290", "@spider": "lidl_us", "shop": "supermarket", "addr:full": "6038 Covington Highway", "addr:city": "Decatur", "addr:state": "GA", "addr:postcode": "30035", "addr:country": "US", "name": "Decatur GA - Stonecrest", "phone": "844.747.5435", "brand": "Lidl", "brand:wikidata": "Q151954", "nsi_id": "lidl-5866c3"}, "geometry": {"type": "Point", "coordinates": [-84.1716, 33.72369]}},
{"type": "Feature", "id": "74M_UMwIF4L-7k5yiMuxs0_bCZ8=", "properties": {"ref": "1299", "@spider": "lidl_us", "shop": "supermarket", "addr:full": "1030 Independence Blvd", "addr:city": "Virginia Beach", "addr:state": "VA", "addr:postcode": "23455", "addr:country": "US", "name": "Virginia Beach VA - Independence Blvd", "phone": "844.747.5435", "brand": "Lidl", "brand:wikidata": "Q151954", "nsi_id": "lidl-5866c3"}, "geometry": {"type": "Point", "coordinates": [-76.13411, 36.87313]}},
{"type": "Feature", "id": "nMIWsqdg6lVFC-1Ozta8IB4vE8Q=", "properties": {"ref": "1342", "@spider": "lidl_us", "shop": "supermarket", "addr:full": "601 Highway 130", "addr:city": "Cinnaminson", "addr:state": "NJ", "addr:postcode": "08077", "addr:country": "US", "name": "Cinnaminson NJ - Route 130", "phone": "844.747.5435", "brand": "Lidl", "brand:wikidata": "Q151954", "nsi_id": "lidl-5866c3"}, "geometry": {"type": "Point", "coordinates": [-74.99945, 39.993668]}},
{"type": "Feature", "id": "fKXGLVDIz9ivmEjGOjs5GNArl-g=", "properties": {"ref": "1352", "@spider": "lidl_us", "shop": "supermarket", "addr:full": "2001 Columbia Ave", "addr:city": "Lancaster", "addr:state": "PA", "addr:postcode": "17603", "addr:country": "US", "name": "Lancaster PA - Columbia Ave", "phone": "844.747.5435", "brand": "Lidl", "brand:wikidata": "Q151954", "nsi_id": "lidl-5866c3"}, "geometry": {"type": "Point", "coordinates": [-76.35899, 40.039127]}},
{"type": "Feature", "id": "nmwS1fDNoGGPCVcPihMYBjT8oSc=", "properties": {"ref": "1372", "@spider": "lidl_us", "shop": "supermarket", "addr:full": "283 Platinum Ave", "addr:city": "Staten Island", "addr:state": "NY", "addr:postcode": "10314", "addr:country": "US", "name": "Staten Island NY - Platinum", "phone": "844.747.5435", "brand": "Lidl", "brand:wikidata": "Q151954", "nsi_id": "lidl-5866c3"}, "geometry": {"type": "Point", "coordinates": [-74.16823, 40.57901]}},
{"type": "Feature", "id": "STBjG_U4tlw_xIzOSg5D7UQ1BhE=", "properties": {"ref": "1394", "@spider": "lidl_us", "shop": "supermarket", "addr:full": "44175  Ashbrook Marketplace Plaza", "addr:city": "Ashburn", "addr:state": "VA", "addr:postcode": "20147", "addr:country": "US", "name": "Ashburn VA - Ashbrook Marketplace", "phone": "844.747.5435", "brand": "Lidl", "brand:wikidata": "Q151954", "nsi_id": "lidl-5866c3"}, "geometry": {"type": "Point", "coordinates": [-77.47347, 39.060333]}},
{"type": "Feature", "id": "LfuyJTA1iy5XxjJpAwqi9WScWwQ=", "properties": {"ref": "1409", "@spider": "lidl_us", "shop": "supermarket", "addr:full": "19225 Montgomery Village Avenue", "addr:city": "Montgomery Village", "addr:state": "MD", "addr:postcode": "20886", "addr:country": "US", "name": "Montgomery Village MD - Montgomery Village Ave", "phone": "844.747.5435", "brand": "Lidl", "brand:wikidata": "Q151954", "nsi_id": "lidl-5866c3"}, "geometry": {"type": "Point", "coordinates": [-77.20334, 39.17165]}},
{"type": "Feature", "id": "wzHaIz3_mF9bddi12VRMMzHSR-w=", "properties": {"ref": "1410", "@spider": "lidl_us", "shop": "supermarket", "addr:full": "80 New Bridge Road", "addr:city": "Bergenfield", "addr:state": "NJ", "addr:postcode": "07621", "addr:country": "US", "name": "Bergenfield NJ - New Bridge Road", "phone": "844.747.5435", "brand": "Lidl", "brand:wikidata": "Q151954", "nsi_id": "lidl-5866c3"}, "geometry": {"type": "Point", "coordinates": [-74.00107, 40.913216]}},
{"type": "Feature", "id": "Z8VlAlvVm3DCa3eC0UzZuzy6E90=", "properties": {"ref": "1411", "@spider": "lidl_us", "shop": "supermarket", "addr:full": "1150 Welsh Road", "addr:city": "Lansdale", "addr:state": "PA", "addr:postcode": "19446", "addr:country": "US", "name": "Lansdale PA - Welsh Road", "phone": "844.747.5435", "brand": "Lidl", "brand:wikidata": "Q151954", "nsi_id": "lidl-5866c3"}, "geometry": {"type": "Point", "coordinates": [-75.298805, 40.249485]}},
{"type": "Feature", "id": "jO2n34SqQJibhHqP4WVyBx9lD7w=", "properties": {"ref": "1412", "@spider": "lidl_us", "shop": "supermarket", "addr:full": "Suite R70 3500 Oleander Dr", "addr:city": "Wilmington", "addr:state": "NC", "addr:postcode": "28403", "addr:country": "US", "name": "Wilmington NC - Oleander Dr and Fordham Rd", "phone": "844.747.5435", "brand": "Lidl", "brand:wikidata": "Q151954", "nsi_id": "lidl-5866c3"}, "geometry": {"type": "Point", "coordinates": [-77.90166, 34.214718]}},
{"type": "Feature", "id": "wRi0ZbS_FZ7qPH-ifeuUm6PWfhQ=", "properties": {"ref": "1413", "@spider": "lidl_us", "shop": "supermarket", "addr:full": "6026 Baltimore National Pike", "addr:city": "Catonsville", "addr:state": "MD", "addr:postcode": "21228", "addr:country": "US", "name": "Catonsville MD - Baltimore National Pike", "phone": "844.747.5435", "brand": "Lidl", "brand:wikidata": "Q151954", "nsi_id": "lidl-5866c3"}, "geometry": {"type": "Point", "coordinates": [-76.7448, 39.28494]}},
{"type": "Feature", "id": "ZvgB1JLE9qTdJaDphugGdEY9-7o=", "properties": {"ref": "1414", "@spider": "lidl_us", "shop": "supermarket", "addr:full": "4250 U.S. 9", "addr:city": "Howell", "addr:state": "NJ", "addr:postcode": "07731", "addr:country": "US", "name": "Howell NJ - U.S. 9", "phone": "844.747.5435", "brand": "Lidl", "brand:wikidata": "Q151954", "nsi_id": "lidl-5866c3"}, "geometry": {"type": "Point", "coordinates": [-74.22755, 40.148724]}},
{"type": "Feature", "id": "MO99SVmDcB_x_8BkwfE-CBeMlDs=", "properties": {"ref": "1415", "@spider": "lidl_us", "shop": "supermarket", "addr:full": "6421 Bells Ferry Rd", "addr:city": "Woodstock", "addr:state": "GA", "addr:postcode": "30189", "addr:country": "US", "name": "Woodstock GA - Bells Ferry Rd", "phone": "844.747.5435", "brand": "Lidl", "brand:wikidata": "Q151954", "nsi_id": "lidl-5866c3"}, "geometry": {"type": "Point", "coordinates": [-84.58177, 34.11146]}},
{"type": "Feature", "id": "A7tch7jx5aFSrnfoPN7zFoeqv5Q=", "properties": {"ref": "1416", "@spider": "lidl_us", "shop": "supermarket", "addr:full": "670 Grand Central Station", "addr:city": "Apex", "addr:state": "NC", "addr:postcode": "27502", "addr:country": "US", "name": "Apex NC - Apex Peakway", "phone": "844.747.5435", "brand": "Lidl", "brand:wikidata": "Q151954", "nsi_id": "lidl-5866c3"}, "geometry": {"type": "Point", "coordinates": [-78.842705, 35.73852]}},
{"type": "Feature", "id": "eApqQaYXrMK_wnMtqtUlz1e9MTg=", "properties": {"ref": "1417", "@spider": "lidl_us", "shop": "supermarket", "addr:full": "11225 S Tryon St", "addr:city": "Charlotte", "addr:state": "NC", "addr:postcode": "28273", "addr:country": "US", "name": "Steele Creek NC - S Tryon St", "phone": "844.747.5435", "brand": "Lidl", "brand:wikidata": "Q151954", "nsi_id": "lidl-5866c3"}, "geometry": {"type": "Point", "coordinates": [-80.962326, 35.11512]}},
{"type": "Feature", "id": "cmycD6HAr47-WOz9ESv2nlAKKds=", "properties": {"ref": "1418", "@spider": "lidl_us", "shop": "supermarket", "addr:full": "3010 S Church St", "addr:city": "Burlington", "addr:state": "NC", "addr:postcode": "27215", "addr:country": "US", "name": "Burlington - S Church St", "phone": "844.747.5435", "brand": "Lidl", "brand:wikidata": "Q151954", "nsi_id": "lidl-5866c3"}, "geometry": {"type": "Point", "coordinates": [-79.49146, 36.080505]}},
{"type": "Feature", "id": "449qYnLlr_QlyqhTjSMvVJrEvoM=", "properties": {"ref": "1419", "@spider": "lidl_us", "shop": "supermarket", "addr:full": "8667 Belair Road", "addr:city": "Nottingham", "addr:state": "MD", "addr:postcode": "21236", "addr:country": "US", "name": "Perry Hall MD - Belair Road", "phone": "844.747.5435", "brand": "Lidl", "brand:wikidata": "Q151954", "nsi_id": "lidl-5866c3"}, "geometry": {"type": "Point", "coordinates": [-76.48941, 39.39095]}},
{"type": "Feature", "id": "TnXlxJ1cRJTKy-ThOT2q9dYoXbM=", "properties": {"ref": "1420", "@spider": "lidl_us", "shop": "supermarket", "addr:full": "690 Holcomb Bridge Road", "addr:city": "Roswell", "addr:state": "GA", "addr:postcode": "30076", "addr:country": "US", "name": "Roswell GA - Holcomb Bridge Rd", "phone": "844.747.5435", "brand": "Lidl", "brand:wikidata": "Q151954", "nsi_id": "lidl-5866c3"}, "geometry": {"type": "Point", "coordinates": [-84.33979, 34.03332]}},
{"type": "Feature", "id": "zgV_uFzqfTRHnhYM9KR9PKUUZa0=", "properties": {"ref": "1423", "@spider": "lidl_us", "shop": "supermarket", "addr:full": "789 St. George Ave", "addr:city": "Woodbridge", "addr:state": "NJ", "addr:postcode": "07095", "addr:country": "US", "name": "Woodbridge NJ - St. George Ave", "phone": "844.747.5435", "brand": "Lidl", "brand:wikidata": "Q151954", "nsi_id": "lidl-5866c3"}, "geometry": {"type": "Point", "coordinates": [-74.28889, 40.566795]}},
{"type": "Feature", "id": "mzRe6pWqEAzRndKtJt_8CFJpcMI=", "properties": {"ref": "1425", "@spider": "lidl_us", "shop": "supermarket", "addr:full": "2770 Hooper Ave", "addr:city": "Brick", "addr:state": "NJ", "addr:postcode": "08723", "addr:country": "US", "name": "Brick NJ - Hooper Ave", "phone": "844.747.5435", "brand": "Lidl", "brand:wikidata": "Q151954", "nsi_id": "lidl-5866c3"}, "geometry": {"type": "Point", "coordinates": [-74.135796, 40.056606]}},
{"type": "Feature", "id": "2tKPVRslj61nVF6WcYJYK6J9gRA=", "properties": {"ref": "1426", "@spider": "lidl_us", "shop": "supermarket", "addr:full": "1912 Skibo Rd", "addr:city": "Fayetteville", "addr:state": "NC", "addr:postcode": "28314", "addr:country": "US", "name": "Fayetteville NC - Skibo Rd", "phone": "844.747.5435", "brand": "Lidl", "brand:wikidata": "Q151954", "nsi_id": "lidl-5866c3"}, "geometry": {"type": "Point", "coordinates": [-78.965965, 35.07008]}},
{"type": "Feature", "id": "f8gXzXd86GAJmS-2vrb2aqewxSo=", "properties": {"ref": "1428", "@spider": "lidl_us", "shop": "supermarket", "addr:full": "2330 Peachtree Industrial Boulevard", "addr:city": "Duluth", "addr:state": "GA", "addr:postcode": "30097", "addr:country": "US", "name": "Duluth GA - Peachtree Industrial Blvd", "phone": "844.747.5435", "brand": "Lidl", "brand:wikidata": "Q151954", "nsi_id": "lidl-5866c3"}, "geometry": {"type": "Point", "coordinates": [-84.13822, 34.022808]}},
{"type": "Feature", "id": "IZvlW43IufCKZeSxzSbK1dow9Yc=", "properties": {"ref": "1429", "@spider": "lidl_us", "shop": "supermarket", "addr:full": "2497 Brunswick Ave", "addr:city": "Lawrenceville", "addr:state": "NJ", "addr:postcode": "08648", "addr:country": "US", "name": "Lawrenceville NJ - Brunswick Ave", "phone": "844.747.5435", "brand": "Lidl", "brand:wikidata": "Q151954", "nsi_id": "lidl-5866c3"}, "geometry": {"type": "Point", "coordinates": [-74.726456, 40.258526]}},
{"type": "Feature", "id": "l9qvm0ewmN_1Z02KnUUk7sxn3KI=", "properties": {"ref": "1430", "@spider": "lidl_us", "shop": "supermarket", "addr:full": "670 Whitlock Ave SW", "addr:city": "Marietta", "addr:state": "GA", "addr:postcode": "30064", "addr:country": "US", "name": "Marietta GA - 670 Whitlock Ave SW", "phone": "844.747.5435", "brand": "Lidl", "brand:wikidata": "Q151954", "nsi_id": "lidl-5866c3"}, "geometry": {"type": "Point", "coordinates": [-84.571915, 33.952084]}},
{"type": "Feature", "id": "wFEojjLtVx4D3otUiBWt-YhCebs=", "properties": {"ref": "1431", "@spider": "lidl_us", "shop": "supermarket", "addr:full": "779 Delsea Dr", "addr:city": "Glassboro", "addr:state": "NJ", "addr:postcode": "08028", "addr:country": "US", "name": "Glassboro NJ - Delsea Dr.", "phone": "844.747.5435", "brand": "Lidl", "brand:wikidata": "Q151954", "nsi_id": "lidl-5866c3"}, "geometry": {"type": "Point", "coordinates": [-75.11543, 39.721924]}},
{"type": "Feature", "id": "zrw_I4iyzgX6EQHUcZY49hox9W8=", "properties": {"ref": "1432", "@spider": "lidl_us", "shop": "supermarket", "addr:full": "2741 NC-55", "addr:city": "Cary", "addr:state": "NC", "addr:postcode": "27519", "addr:country": "US", "name": "Cary NC - NC-55", "phone": "844.747.5435", "brand": "Lidl", "brand:wikidata": "Q151954", "nsi_id": "lidl-5866c3"}, "geometry": {"type": "Point", "coordinates": [-78.87106, 35.78569]}},
{"type": "Feature", "id": "oTcysfjXOgKTW1Lr4MNL_qRsKfM=", "properties": {"ref": "1433", "@spider": "lidl_us", "shop": "supermarket", "addr:full": "10 South Ave", "addr:city": "Garwood", "addr:state": "NJ", "addr:postcode": "07027", "addr:country": "US", "name": "Garwood - South Ave", "phone": "844.747.5435", "brand": "Lidl", "brand:wikidata": "Q151954", "nsi_id": "lidl-5866c3"}, "geometry": {"type": "Point", "coordinates": [-74.31535, 40.65292]}},
{"type": "Feature", "id": "vj3WBnp5ZTZoKSIKQlzlE-8jveg=", "properties": {"ref": "1434", "@spider": "lidl_us", "shop": "supermarket", "addr:full": "500 Milltown Road", "addr:city": "North Brunswick", "addr:state": "NJ", "addr:postcode": "08902", "addr:country": "US", "name": "North Brunswick NJ - Milltown Road", "phone": "844.747.5435", "brand": "Lidl", "brand:wikidata": "Q151954", "nsi_id": "lidl-5866c3"}, "geometry": {"type": "Point", "coordinates": [-74.45097, 40.464603]}},
{"type": "Feature", "id": "l-dloD7YFjVRYrEkIidPPgJNgLA=", "properties": {"ref": "1435", "@spider": "lidl_us", "shop": "supermarket", "addr:full": "11179 Lee Highway", "addr:city": "Fairfax", "addr:state": "VA", "addr:postcode": "22030", "addr:country": "US", "name": "Fairfax VA - Lee Highway", "phone": "844.747.5435", "brand": "Lidl", "brand:wikidata": "Q151954", "nsi_id": "lidl-5866c3"}, "geometry": {"type": "Point", "coordinates": [-77.33203, 38.850063]}},
{"type": "Feature", "id": "h63IVxmFuZR4Fb68qodjYn7NWNU=", "properties": {"ref": "1436", "@spider": "lidl_us", "shop": "supermarket", "addr:full": "2224 Town Center Drive SE", "addr:city": "Washington", "addr:state": "DC", "addr:postcode": "20020", "addr:country": "US", "name": "Washington DC - Skyland Town Center", "phone": "844.747.5435", "brand": "Lidl", "brand:wikidata": "Q151954", "nsi_id": "lidl-5866c3"}, "geometry": {"type": "Point", "coordinates": [-76.96738, 38.861256]}},
{"type": "Feature", "id": "gKb0DG9UFsE4vomC1EcIZt2XQho=", "properties": {"ref": "1437", "@spider": "lidl_us", "shop": "supermarket", "addr:full": "7700 Ritchie Hwy", "addr:city": "Glen Burnie", "addr:state": "MD", "addr:postcode": "21061", "addr:country": "US", "name": "Glen Burnie MD - Harundale Plaza", "phone": "844.747.5435", "brand": "Lidl", "brand:wikidata": "Q151954", "nsi_id": "lidl-5866c3"}, "geometry": {"type": "Point", "coordinates": [-76.6129, 39.151527]}},
{"type": "Feature", "id": "YxoF-VW-jdbxCeGI7M8oBxLCLjE=", "properties": {"ref": "1439", "@spider": "lidl_us", "shop": "supermarket", "addr:full": "5270 Peachtree Pkwy NW", "addr:city": "Peachtree Corners", "addr:state": "GA", "addr:postcode": "30092", "addr:country": "US", "name": "Peachtree Corners GA - Peachtree Pkwy NW", "phone": "844.747.5435", "brand": "Lidl", "brand:wikidata": "Q151954", "nsi_id": "lidl-5866c3"}, "geometry": {"type": "Point", "coordinates": [-84.21764, 33.977608]}},
{"type": "Feature", "id": "q2rtpD65xoJQkUOJXLBSQmRmeNI=", "properties": {"ref": "1440", "@spider": "lidl_us", "shop": "supermarket", "addr:full": "58 Broadway", "addr:city": "Elmwood Park", "addr:state": "NJ", "addr:postcode": "07407", "addr:country": "US", "name": "Elmwood Park NJ - Broadway", "phone": "844.747.5435", "brand": "Lidl", "brand:wikidata": "Q151954", "nsi_id": "lidl-5866c3"}, "geometry": {"type": "Point", "coordinates": [-74.126, 40.91813]}},
{"type": "Feature", "id": "eVEIlegnhWKTQ9QqOJ0cZn-3wbY=", "properties": {"ref": "1442", "@spider": "lidl_us", "shop": "supermarket", "addr:full": "3564 Penn Avenue", "addr:city": "Sinking Spring", "addr:state": "PA", "addr:postcode": "19608", "addr:country": "US", "name": "Sinking Spring PA - Penn Avenue", "phone": "844.747.5435", "brand": "Lidl", "brand:wikidata": "Q151954", "nsi_id": "lidl-5866c3"}, "geometry": {"type": "Point", "coordinates": [-76.0118, 40.325504]}},
{"type": "Feature", "id": "3XiJZrlOWr9Yj0mX2cKDQkAhtIE=", "properties": {"ref": "1443", "@spider": "lidl_us", "shop": "supermarket", "addr:full": "20 Goldsborough Drive", "addr:city": "Bayonne", "addr:state": "NJ", "addr:postcode": "07002", "addr:country": "US", "name": "Bayonne NJ - Harbor View Marketplace", "phone": "844.747.5435", "brand": "Lidl", "brand:wikidata": "Q151954", "nsi_id": "lidl-5866c3"}, "geometry": {"type": "Point", "coordinates": [-74.10705, 40.670704]}},
{"type": "Feature", "id": "B8aWHzjH8Xknto_vJ_DHeb4qYlY=", "properties": {"ref": "1444", "@spider": "lidl_us", "shop": "supermarket", "addr:full": "2480 Briarcliff Road NE", "addr:city": "Atlanta", "addr:state": "GA", "addr:postcode": "30329", "addr:country": "US", "name": "Atlanta GA - Briarcliff Road NE", "phone": "844.747.5435", "brand": "Lidl", "brand:wikidata": "Q151954", "nsi_id": "lidl-5866c3"}, "geometry": {"type": "Point", "coordinates": [-84.3319, 33.827103]}},
{"type": "Feature", "id": "SvEG51qrBHvkCAhcY98B2Azu2mA=", "properties": {"ref": "1445", "@spider": "lidl_us", "shop": "supermarket", "addr:full": "1205 Johnson Ferry Rd", "addr:city": "Marietta", "addr:state": "GA", "addr:postcode": "30068", "addr:country": "US", "name": "East Cobb GA - Johnson Ferry Rd", "phone": "844.747.5435", "brand": "Lidl", "brand:wikidata": "Q151954", "nsi_id": "lidl-5866c3"}, "geometry": {"type": "Point", "coordinates": [-84.41758, 33.978203]}},
{"type": "Feature", "id": "oQtiRH9udgj87Uqpmv0QYNkA3YQ=", "properties": {"ref": "1446", "@spider": "lidl_us", "shop": "supermarket", "addr:full": "6548 Little River Turnpike", "addr:city": "Alexandria", "addr:state": "VA", "addr:postcode": "22312", "addr:country": "US", "name": "Alexandria VA - Pinecrest Plaza", "phone": "844.747.5435", "brand": "Lidl", "brand:wikidata": "Q151954", "nsi_id": "lidl-5866c3"}, "geometry": {"type": "Point", "coordinates": [-77.16129, 38.823242]}},
{"type": "Feature", "id": "3nchpa5cJdp6CD4R4Ph9iArbQc8=", "properties": {"ref": "1448", "@spider": "lidl_us", "shop": "supermarket", "addr:full": "199 Kinderkamack Rd", "addr:city": "Park Ridge", "addr:state": "NJ", "addr:postcode": "07656", "addr:country": "US", "name": "Park Ridge NJ - 199 Kinderkamack Rd", "phone": "844.747.5435", "brand": "Lidl", "brand:wikidata": "Q151954", "nsi_id": "lidl-5866c3"}, "geometry": {"type": "Point", "coordinates": [-74.030716, 41.03672]}},
{"type": "Feature", "id": "nscoRgvxsFLuDE-agg-a-IOZ9e4=", "properties": {"ref": "1449", "@spider": "lidl_us", "shop": "supermarket", "addr:full": "4100 Park Ave", "addr:city": "Weehawken", "addr:state": "NJ", "addr:postcode": "07086", "addr:country": "US", "name": "Weehawken NJ - Park Ave", "phone": "844.747.5435", "brand": "Lidl", "brand:wikidata": "Q151954", "nsi_id": "lidl-5866c3"}, "geometry": {"type": "Point", "coordinates": [-74.020996, 40.773983]}},
{"type": "Feature", "id": "vmH1pakwcYxTBWuoUYM-WcvMUmY=", "properties": {"ref": "1450", "@spider": "lidl_us", "shop": "supermarket", "addr:full": "10300 Little Patuxent Parkway", "addr:city": "Columbia", "addr:state": "MD", "addr:postcode": "21044", "addr:country": "US", "name": "Columbia MD - Columbia Mall", "phone": "844.747.5435", "brand": "Lidl", "brand:wikidata": "Q151954", "nsi_id": "lidl-5866c3"}, "geometry": {"type": "Point", "coordinates": [-76.86565, 39.2115]}},
{"type": "Feature", "id": "T-axVge3PrtxO39CXVBznW5dfXo=", "properties": {"ref": "1453", "@spider": "lidl_us", "shop": "supermarket", "addr:full": "1855 Memorial Dr SE", "addr:city": "Atlanta", "addr:state": "GA", "addr:postcode": "30317", "addr:country": "US", "name": "Atlanta GA - Memorial Dr SE", "phone": "844.747.5435", "brand": "Lidl", "brand:wikidata": "Q151954", "nsi_id": "lidl-5866c3"}, "geometry": {"type": "Point", "coordinates": [-84.328896, 33.747425]}},
{"type": "Feature", "id": "MVD0vZzrpwjqaoBCa7ibjjHh8tQ=", "properties": {"ref": "1455", "@spider": "lidl_us", "shop": "supermarket", "addr:full": "8849 Dorchester Road", "addr:city": "North Charleston", "addr:state": "SC", "addr:postcode": "29420", "addr:country": "US", "name": "North Charleston SC - Cedar Grove", "phone": "844.747.5435", "brand": "Lidl", "brand:wikidata": "Q151954", "nsi_id": "lidl-5866c3"}, "geometry": {"type": "Point", "coordinates": [-80.12079, 32.9223]}},
{"type": "Feature", "id": "GLourHbGncnt_x2wk-gw7WMOX-c=", "properties": {"ref": "1457", "@spider": "lidl_us", "shop": "supermarket", "addr:full": "2480 Mount Vernon Rd", "addr:city": "Dunwoody", "addr:state": "GA", "addr:postcode": "30338", "addr:country": "US", "name": "Dunwoody GA - Mount Vernon Rd", "phone": "844.747.5435", "brand": "Lidl", "brand:wikidata": "Q151954", "nsi_id": "lidl-5866c3"}, "geometry": {"type": "Point", "coordinates": [-84.301384, 33.95825]}},
{"type": "Feature", "id": "XnYsX1jwCray0gM5Lvt0CbraGhk=", "properties": {"ref": "1459", "@spider": "lidl_us", "shop": "supermarket", "addr:full": "1504 Havenwood Road", "addr:city": "Baltimore", "addr:state": "MD", "addr:postcode": "21218", "addr:country": "US", "name": "Baltimore MD - Northwood Commons", "phone": "844.747.5435", "brand": "Lidl", "brand:wikidata": "Q151954", "nsi_id": "lidl-5866c3"}, "geometry": {"type": "Point", "coordinates": [-76.59097, 39.3412]}},
{"type": "Feature", "id": "C9xlAJHoHIBiSu9KR7OZcD9thlU=", "properties": {"ref": "1461", "@spider": "lidl_us", "shop": "supermarket", "addr:full": "15 E Padonia Road", "addr:city": "Timonium", "addr:state": "MD", "addr:postcode": "21093", "addr:country": "US", "name": "Timonium MD - Padonia Road", "phone": "844.747.5435", "brand": "Lidl", "brand:wikidata": "Q151954", "nsi_id": "lidl-5866c3"}, "geometry": {"type": "Point", "coordinates": [-76.61969, 39.43705]}},
{"type": "Feature", "id": "v84n3udG19hIpbqGyufoY3Z5dB0=", "properties": {"ref": "1463", "@spider": "lidl_us", "shop": "supermarket", "addr:full": "3121 Fire Road", "addr:city": "Egg Harbor Township", "addr:state": "NJ", "addr:postcode": "08234", "addr:country": "US", "name": "Egg Harbor Township NJ - Fire Rd", "phone": "844.747.5435", "brand": "Lidl", "brand:wikidata": "Q151954", "nsi_id": "lidl-5866c3"}, "geometry": {"type": "Point", "coordinates": [-74.5625, 39.39288]}},
{"type": "Feature", "id": "atGaqI17gQDwD9YlImfCICstlzc=", "properties": {"ref": "1467", "@spider": "lidl_us", "shop": "supermarket", "addr:full": "63 Wanaque Avenue", "addr:city": "Pompton Lakes", "addr:state": "NJ", "addr:postcode": "07442", "addr:country": "US", "name": "Pompton Lakes NJ - Wanaque Ave", "phone": "844.747.5435", "brand": "Lidl", "brand:wikidata": "Q151954", "nsi_id": "lidl-5866c3"}, "geometry": {"type": "Point", "coordinates": [-74.29174, 41.004536]}},
{"type": "Feature", "id": "FLmWd4xpUCaGQ_57Ar9kn4ZcgpM=", "properties": {"ref": "1469", "@spider": "lidl_us", "shop": "supermarket", "addr:full": "2901 Gallows Road", "addr:city": "Falls Church", "addr:state": "VA", "addr:postcode": "22042", "addr:country": "US", "name": "Falls Church VA - Merrifield", "phone": "844.747.5435", "brand": "Lidl", "brand:wikidata": "Q151954", "nsi_id": "lidl-5866c3"}, "geometry": {"type": "Point", "coordinates": [-77.22644, 38.87353]}},
{"type": "Feature", "id": "Ao9LhphAiODO5bH18zNphHZOP0c=", "properties": {"ref": "1471", "@spider": "lidl_us", "shop": "supermarket", "addr:full": "11991 Reisterstown Road", "addr:city": "Reisterstown", "addr:state": "MD", "addr:postcode": "21136", "addr:country": "US", "name": "Reisterstown MD - Reisterstown Shopping Center", "phone": "844.747.5435", "brand": "Lidl", "brand:wikidata": "Q151954", "nsi_id": "lidl-5866c3"}, "geometry": {"type": "Point", "coordinates": [-76.81591, 39.449043]}},
{"type": "Feature", "id": "pFAMp16s6Z4QIsiXvGrsqPMaQ78=", "properties": {"ref": "1473", "@spider": "lidl_us", "shop": "supermarket", "addr:full": "2475 Jericho Turnpike", "addr:city": "New Hyde Park", "addr:state": "NY", "addr:postcode": "11040", "addr:country": "US", "name": "Garden City Park - Jericho Turnpike", "phone": "844.747.5435", "brand": "Lidl", "brand:wikidata": "Q151954", "nsi_id": "lidl-5866c3"}, "geometry": {"type": "Point", "coordinates": [-73.65743, 40.743626]}},
{"type": "Feature", "id": "CkmHVCa1UMIG84NhtE0LqTfPH9o=", "properties": {"ref": "1477", "@spider": "lidl_us", "shop": "supermarket", "addr:full": "1945 Braselton Hwy", "addr:city": "Buford", "addr:state": "GA", "addr:postcode": "30519", "addr:country": "US", "name": "Buford GA - Braselton Hwy", "phone": "844.747.5435", "brand": "Lidl", "brand:wikidata": "Q151954", "nsi_id": "lidl-5866c3"}, "geometry": {"type": "Point", "coordinates": [-83.953575, 34.03599]}},
{"type": "Feature", "id": "6cODnT1X_83WQYs9ChiC-xhqAHs=", "properties": {"ref": "1478", "@spider": "lidl_us", "shop": "supermarket", "addr:full": "47100 Community Plaza #175", "addr:city": "Sterling", "addr:state": "VA", "addr:postcode": "20164", "addr:country": "US", "name": "Sterling VA - Leesburg Pike", "phone": "844.747.5435", "brand": "Lidl", "brand:wikidata": "Q151954", "nsi_id": "lidl-5866c3"}, "geometry": {"type": "Point", "coordinates": [-77.37586, 39.01583]}},
{"type": "Feature", "id": "U7Lwfc8hh9yTtO-tT81EnaI2QnE=", "properties": {"ref": "1482", "@spider": "lidl_us", "shop": "supermarket", "addr:full": "414 Main Street", "addr:city": "Belleville", "addr:state": "NJ", "addr:postcode": "07109", "addr:country": "US", "name": "Belleville NJ - Main St", "phone": "844.747.5435", "brand": "Lidl", "brand:wikidata": "Q151954", "nsi_id": "lidl-5866c3"}, "geometry": {"type": "Point", "coordinates": [-74.14028, 40.802097]}},
{"type": "Feature", "id": "Tf6--0nbXiFsnhpTWDkTTL0AcYU=", "properties": {"ref": "1484", "@spider": "lidl_us", "shop": "supermarket", "addr:full": "104 Bartlett Avenue Suite 100", "addr:city": "Exton", "addr:state": "PA", "addr:postcode": "19341", "addr:country": "US", "name": "Exton PA  - Bartlett Ave", "phone": "844.747.5435", "brand": "Lidl", "brand:wikidata": "Q151954", "nsi_id": "lidl-5866c3"}, "geometry": {"type": "Point", "coordinates": [-75.62656, 40.021454]}},
{"type": "Feature", "id": "FlMaLHV2w0erj-cyJmQ0ReGD-ho=", "properties": {"ref": "1488", "@spider": "lidl_us", "shop": "supermarket", "addr:full": "1003 W Patrick Street", "addr:city": "Frederick", "addr:state": "MD", "addr:postcode": "21702", "addr:country": "US", "name": "Frederick MD - W Patrick St", "phone": "844.747.5435", "brand": "Lidl", "brand:wikidata": "Q151954", "nsi_id": "lidl-5866c3"}, "geometry": {"type": "Point", "coordinates": [-77.44099, 39.41844]}},
{"type": "Feature", "id": "o2S38hxx2vD7cD8s0jrLxJkksPo=", "properties": {"ref": "1497", "@spider": "lidl_us", "shop": "supermarket", "addr:full": "11200 Carmel Blvd", "addr:city": "Charlotte", "addr:state": "NC", "addr:postcode": "28226", "addr:country": "US", "name": "Charlotte NC - Carmel Commons", "phone": "844.747.5435", "brand": "Lidl", "brand:wikidata": "Q151954", "nsi_id": "lidl-5866c3"}, "geometry": {"type": "Point", "coordinates": [-80.852585, 35.083187]}},
{"type": "Feature", "id": "ytYcxJqXqS4uuXahFwDYG-mbrKA=", "properties": {"ref": "1499", "@spider": "lidl_us", "shop": "supermarket", "addr:full": "1151 Old Country Road", "addr:city": "Riverhead", "addr:state": "NY", "addr:postcode": "11901", "addr:country": "US", "name": "Riverhead NY - Old Country Rd", "phone": "844.747.5435", "brand": "Lidl", "brand:wikidata": "Q151954", "nsi_id": "lidl-5866c3"}, "geometry": {"type": "Point", "coordinates": [-72.673096, 40.933548]}},
{"type": "Feature", "id": "uvBMQKq2cWiWs-SQ7IEzeIHti3o=", "properties": {"ref": "1500", "@spider": "lidl_us", "shop": "supermarket", "addr:full": "750 Twentyninth Place Court", "addr:city": "Charlottesville", "addr:state": "VA", "addr:postcode": "22901", "addr:country": "US", "name": "Charlottesville VA - Seminole Trail", "phone": "844.747.5435", "brand": "Lidl", "brand:wikidata": "Q151954", "nsi_id": "lidl-5866c3"}, "geometry": {"type": "Point", "coordinates": [-78.47943, 38.077686]}},
{"type": "Feature", "id": "uCahOSIH351x4wkXbmytqj1PNE4=", "properties": {"ref": "1506", "@spider": "lidl_us", "shop": "supermarket", "addr:full": "713 Baltimore Avenue", "addr:city": "Clifton Heights", "addr:state": "PA", "addr:postcode": "19018", "addr:country": "US", "name": "Clifton Heights PA - E Baltimore Ave", "phone": "844.747.5435", "brand": "Lidl", "brand:wikidata": "Q151954", "nsi_id": "lidl-5866c3"}, "geometry": {"type": "Point", "coordinates": [-75.30444, 39.92676]}},
{"type": "Feature", "id": "2XKNaG9N2CPtty11nhcdstjjZ8s=", "properties": {"ref": "1516", "@spider": "lidl_us", "shop": "supermarket", "addr:full": "125 W. Dekalb Pike", "addr:city": "King Of Prussia", "addr:state": "PA", "addr:postcode": "19406", "addr:country": "US", "name": "King of Prussia PA - W Dekalb Pike", "phone": "844.747.5435", "brand": "Lidl", "brand:wikidata": "Q151954", "nsi_id": "lidl-5866c3"}, "geometry": {"type": "Point", "coordinates": [-75.363525, 40.094353]}},
{"type": "Feature", "id": "3g8xWeHRLbpXhb8RIkbqikjxrfw=", "properties": {"ref": "1523", "@spider": "lidl_us", "shop": "supermarket", "addr:full": "1330 Chain Bridge Road", "addr:city": "McLean", "addr:state": "VA", "addr:postcode": "22101", "addr:country": "US", "name": "McLean VA - Chain Bridge Rd", "phone": "844.747.5435", "brand": "Lidl", "brand:wikidata": "Q151954", "nsi_id": "lidl-5866c3"}, "geometry": {"type": "Point", "coordinates": [-77.17579, 38.93966]}},
{"type": "Feature", "id": "IdG5jQe_nulGh9N6kGB-ZWZpd68=", "properties": {"ref": "1531", "@spider": "lidl_us", "shop": "supermarket", "addr:full": "210 E Jericho Turnpike", "addr:city": "Commack", "addr:state": "NY", "addr:postcode": "11725", "addr:country": "US", "name": "Commack NY - E Jericho Tpke", "phone": "844.747.5435", "brand": "Lidl", "brand:wikidata": "Q151954", "nsi_id": "lidl-5866c3"}, "geometry": {"type": "Point", "coordinates": [-73.26577, 40.846397]}},
{"type": "Feature", "id": "fwrnW9qdEgq4qUviHDNkE-To_Jo=", "properties": {"ref": "3500", "@spider": "lidl_us", "shop": "supermarket", "addr:full": "3500 S. Clark St.", "addr:city": "Arlington", "addr:state": "VA", "addr:postcode": "22202", "addr:country": "US", "name": "Arlington VA - S. Clark St. | EXPRESS STORE", "phone": "844.747.5435", "brand": "Lidl", "brand:wikidata": "Q151954", "nsi_id": "lidl-5866c3"}, "geometry": {"type": "Point", "coordinates": [-77.0522, 38.8438]}},
{"type": "Feature", "id": "eVOSk3-H8HQcqH8B8LU63lNzZWw=", "properties": {"ref": "8001", "@spider": "lidl_us", "shop": "supermarket", "addr:full": "155 Islip Avenue", "addr:city": "Islip", "addr:state": "NY", "addr:postcode": "11751", "addr:country": "US", "name": "Islip NY - Islip Ave", "phone": "844.747.5435", "brand": "Lidl", "brand:wikidata": "Q151954", "nsi_id": "lidl-5866c3"}, "geometry": {"type": "Point", "coordinates": [-73.20765, 40.735764]}},
{"type": "Feature", "id": "ByOTeVrJHrNbRUc2CzuRyNjcGBM=", "properties": {"ref": "8002", "@spider": "lidl_us", "shop": "supermarket", "addr:full": "492 Atlantic Avenue", "addr:city": "East Rockaway", "addr:state": "NY", "addr:postcode": "11518", "addr:country": "US", "name": "East Rockaway NY - Atlantic Ave", "phone": "844.747.5435", "brand": "Lidl", "brand:wikidata": "Q151954", "nsi_id": "lidl-5866c3"}, "geometry": {"type": "Point", "coordinates": [-73.66544, 40.64199]}},
{"type": "Feature", "id": "wZbqhdvJlh1Ze295aW-nqDHEZMc=", "properties": {"ref": "8003", "@spider": "lidl_us", "shop": "supermarket", "addr:full": "711 E Jericho Turnpike", "addr:city": "Huntington Station", "addr:state": "NY", "addr:postcode": "11746", "addr:country": "US", "name": "Huntington Station NY - E Jericho Turnpike", "phone": "844.747.5435", "brand": "Lidl", "brand:wikidata": "Q151954", "nsi_id": "lidl-5866c3"}, "geometry": {"type": "Point", "coordinates": [-73.38376, 40.83463]}},
{"type": "Feature", "id": "iWwS5I5zfI8jLgPwRLYBL382Dp4=", "properties": {"ref": "8004", "@spider": "lidl_us", "shop": "supermarket", "addr:full": "271 Jericho Turnpike", "addr:city": "Syosset", "addr:state": "NY", "addr:postcode": "11791", "addr:country": "US", "name": "Syosset NY - Jericho Tpke", "phone": "844.747.5435", "brand": "Lidl", "brand:wikidata": "Q151954", "nsi_id": "lidl-5866c3"}, "geometry": {"type": "Point", "coordinates": [-73.50517, 40.81148]}},
{"type": "Feature", "id": "r-uhbYKUva8iT8R1DCXd8bZIxPU=", "properties": {"ref": "8006", "@spider": "lidl_us", "shop": "supermarket", "addr:full": "1686 Merrick Road", "addr:city": "Merrick", "addr:state": "NY", "addr:postcode": "11566", "addr:country": "US", "name": "Merrick NY - 1686 Merrick Road", "phone": "844.747.5435", "brand": "Lidl", "brand:wikidata": "Q151954", "nsi_id": "lidl-5866c3"}, "geometry": {"type": "Point", "coordinates": [-73.55979, 40.65362]}},
{"type": "Feature", "id": "DWrrBBwNLj-EQZ8NKBj_bjKqhF8=", "properties": {"ref": "8007", "@spider": "lidl_us", "shop": "supermarket", "addr:full": "725 Sunrise Hwy", "addr:city": "West Babylon", "addr:state": "NY", "addr:postcode": "11704", "addr:country": "US", "name": "West Babylon NY - Sunrise Hwy", "phone": "844.747.5435", "brand": "Lidl", "brand:wikidata": "Q151954", "nsi_id": "lidl-5866c3"}, "geometry": {"type": "Point", "coordinates": [-73.34192, 40.713825]}},
{"type": "Feature", "id": "vTzuhUN3Lxkg1fG6X5xAm0BM7fY=", "properties": {"ref": "8008", "@spider": "lidl_us", "shop": "supermarket", "addr:full": "531 Montauk Highway", "addr:city": "West Babylon", "addr:state": "NY", "addr:postcode": "11704", "addr:country": "US", "name": "West Babylon NY - Montauk Hwy", "phone": "844.747.5435", "brand": "Lidl", "brand:wikidata": "Q151954", "nsi_id": "lidl-5866c3"}, "geometry": {"type": "Point", "coordinates": [-73.34597, 40.68571]}},
{"type": "Feature", "id": "rmBUKyOzR3KqhBg5o7XgJoYFxZQ=", "properties": {"ref": "8009", "@spider": "lidl_us", "shop": "supermarket", "addr:full": "5601 Merrick Rd", "addr:city": "Massapequa", "addr:state": "NY", "addr:postcode": "11758", "addr:country": "US", "name": "Massapequa NY - Merrick Road", "phone": "844.747.5435", "brand": "Lidl", "brand:wikidata": "Q151954", "nsi_id": "lidl-5866c3"}, "geometry": {"type": "Point", "coordinates": [-73.43042, 40.66946]}},
{"type": "Feature", "id": "vXUmU7e9Dqm_TcRQcdwKTcgqngI=", "properties": {"ref": "8011", "@spider": "lidl_us", "shop": "supermarket", "addr:full": "2187 Frederick Douglass Boulevard", "addr:city": "Harlem", "addr:state": "NY", "addr:postcode": "10026", "addr:country": "US", "name": "Harlem NY - Frederick Douglass Blvd", "phone": "844.747.5435", "brand": "Lidl", "brand:wikidata": "Q151954", "nsi_id": "lidl-5866c3"}, "geometry": {"type": "Point", "coordinates": [-73.956, 40.80356]}},
{"type": "Feature", "id": "16J-lODNSQuzuCfRkizMTRGb1JQ=", "properties": {"ref": "8012", "@spider": "lidl_us", "shop": "supermarket", "addr:full": "4560 Sunrise Hwy", "addr:city": "Oakdale", "addr:state": "NY", "addr:postcode": "11769", "addr:country": "US", "name": "Oakdale NY - Sunrise Hwy", "phone": "844.747.5435", "brand": "Lidl", "brand:wikidata": "Q151954", "nsi_id": "lidl-5866c3"}, "geometry": {"type": "Point", "coordinates": [-73.11698, 40.752438]}},
{"type": "Feature", "id": "r-3j2JUFQ1DUuwOzmDwbLQ8KLro=", "properties": {"ref": "8013", "@spider": "lidl_us", "shop": "supermarket", "addr:full": "655 Montauk Hwy", "addr:city": "East Patchogue", "addr:state": "NY", "addr:postcode": "11772", "addr:country": "US", "name": "East Patchogue NY - Montauk Hwy", "phone": "844.747.5435", "brand": "Lidl", "brand:wikidata": "Q151954", "nsi_id": "lidl-5866c3"}, "geometry": {"type": "Point", "coordinates": [-72.98977, 40.76886]}},
{"type": "Feature", "id": "MMdtZby_7JngbnOzsnl7tkH1-eM=", "properties": {"ref": "8014", "@spider": "lidl_us", "shop": "supermarket", "addr:full": "560 Larkfield Rd", "addr:city": "East Northport", "addr:state": "NY", "addr:postcode": "11731", "addr:country": "US", "name": "East Northport NY - Larkfield Rd", "phone": "844.747.5435", "brand": "Lidl", "brand:wikidata": "Q151954", "nsi_id": "lidl-5866c3"}, "geometry": {"type": "Point", "coordinates": [-73.31972, 40.858395]}},
{"type": "Feature", "id": "9mJe36M007m-MjqszFOnpzt7zXM=", "properties": {"ref": "8015", "@spider": "lidl_us", "shop": "supermarket", "addr:full": "19-30 37th St", "addr:city": "Astoria", "addr:state": "NY", "addr:postcode": "11105", "addr:country": "US", "name": "Astoria NY - 37th St", "phone": "844.747.5435", "brand": "Lidl", "brand:wikidata": "Q151954", "nsi_id": "lidl-5866c3"}, "geometry": {"type": "Point", "coordinates": [-73.90647, 40.774567]}},
{"type": "Feature", "id": "cFInNAAmwPLMjsMqZCYYSmPpJy8=", "properties": {"ref": "8017", "@spider": "lidl_us", "shop": "supermarket", "addr:full": "1980 Hempstead Tpke", "addr:city": "East Meadow", "addr:state": "NY", "addr:postcode": "11554", "addr:country": "US", "name": "East Meadow NY - Hempstead Tpke", "phone": "844.747.5435", "brand": "Lidl", "brand:wikidata": "Q151954", "nsi_id": "lidl-5866c3"}, "geometry": {"type": "Point", "coordinates": [-73.56297, 40.724148]}},
{"type": "Feature", "id": "FKbkwSh6mZsEjKohJEz6cdMukIo=", "properties": {"ref": "8018", "@spider": "lidl_us", "shop": "supermarket", "addr:full": "70 Sunset Avenue", "addr:city": "Westhampton Beach", "addr:state": "NY", "addr:postcode": "11978", "addr:country": "US", "name": "Westhampton Beach NY - Sunset Ave", "phone": "844.747.5435", "brand": "Lidl", "brand:wikidata": "Q151954", "nsi_id": "lidl-5866c3"}, "geometry": {"type": "Point", "coordinates": [-72.64461, 40.814964]}},
{"type": "Feature", "id": "fb8FTjdNPO23eiaVgGMEb-2MdIw=", "properties": {"ref": "8019", "@spider": "lidl_us", "shop": "supermarket", "addr:full": "2900 Middle Country Rd", "addr:city": "Lake Grove", "addr:state": "NY", "addr:postcode": "11755", "addr:country": "US", "name": "Lake Grove NY - Middle Country Rd", "phone": "844.747.5435", "brand": "Lidl", "brand:wikidata": "Q151954", "nsi_id": "lidl-5866c3"}, "geometry": {"type": "Point", "coordinates": [-73.11538, 40.859497]}},
{"type": "Feature", "id": "vm80fzfoyTm2RbChDX9m8IU6tdk=", "properties": {"ref": "8020", "@spider": "lidl_us", "shop": "supermarket", "addr:full": "812 Montauk Hwy", "addr:city": "Center Moriches", "addr:state": "NY", "addr:postcode": "11934", "addr:country": "US", "name": "Center Moriches NY - Montauk Hwy", "phone": "844.747.5435", "brand": "Lidl", "brand:wikidata": "Q151954", "nsi_id": "lidl-5866c3"}, "geometry": {"type": "Point", "coordinates": [-72.8102, 40.802418]}},
{"type": "Feature", "id": "sqAbXnky5iqJ3pSktbqiqWzvoS0=", "properties": {"ref": "8021", "@spider": "lidl_us", "shop": "supermarket", "addr:full": "1054 Old Country Road", "addr:city": "Plainview", "addr:state": "NY", "addr:postcode": "11803", "addr:country": "US", "name": "Plainview  NY - Old Country Road", "phone": "844.747.5435", "brand": "Lidl", "brand:wikidata": "Q151954", "nsi_id": "lidl-5866c3"}, "geometry": {"type": "Point", "coordinates": [-73.47141, 40.776024]}},
{"type": "Feature", "id": "0vN2yVbOSQGbM-54lsTDkeZBLQ0=", "properties": {"ref": "8023", "@spider": "lidl_us", "shop": "supermarket", "addr:full": "696 Dogwood Ave", "addr:city": "Franklin Square", "addr:state": "NY", "addr:postcode": "11010", "addr:country": "US", "name": "Franklin Square NY - Dogwood Ave", "phone": "844.747.5435", "brand": "Lidl", "brand:wikidata": "Q151954", "nsi_id": "lidl-5866c3"}, "geometry": {"type": "Point", "coordinates": [-73.66783, 40.688614]}},
{"type": "Feature", "id": "ERYMW0vdeUevNx1spA9_JNF4F7g=", "properties": {"ref": "8024", "@spider": "lidl_us", "shop": "supermarket", "addr:full": "501 Northwest Dr", "addr:city": "Farmingdale", "addr:state": "NY", "addr:postcode": "11735", "addr:country": "US", "name": "Farmingdale NY - Northwest Dr", "phone": "844.747.5435", "brand": "Lidl", "brand:wikidata": "Q151954", "nsi_id": "lidl-5866c3"}, "geometry": {"type": "Point", "coordinates": [-73.4586, 40.719067]}},
{"type": "Feature", "id": "XPT1XkNp5DkKsMpN6FSMbY8oy6o=", "properties": {"ref": "8025", "@spider": "lidl_us", "shop": "supermarket", "addr:full": "211 Middle Country Rd", "addr:city": "Selden", "addr:state": "NY", "addr:postcode": "11784", "addr:country": "US", "name": "Selden NY - Middle Country Rd", "phone": "844.747.5435", "brand": "Lidl", "brand:wikidata": "Q151954", "nsi_id": "lidl-5866c3"}, "geometry": {"type": "Point", "coordinates": [-73.02152, 40.867966]}},
{"type": "Feature", "id": "b6EWapa89aIPSSI7vxg3jZb6mhk=", "properties": {"ref": "8026", "@spider": "lidl_us", "shop": "supermarket", "addr:full": "800 Montauk Highway", "addr:city": "Shirley", "addr:state": "NY", "addr:postcode": "11967", "addr:country": "US", "name": "Shirley NY - Montauk Hwy", "phone": "844.747.5435", "brand": "Lidl", "brand:wikidata": "Q151954", "nsi_id": "lidl-5866c3"}, "geometry": {"type": "Point", "coordinates": [-72.8706, 40.800766]}},
{"type": "Feature", "id": "VxcbXN2-JaQMo6FUXp5qpOnS_rY=", "properties": {"ref": "8030", "@spider": "lidl_us", "shop": "supermarket", "addr:full": "6881 New Hampshire Ave", "addr:city": "Takoma Park", "addr:state": "MD", "addr:postcode": "20912", "addr:country": "US", "name": "Takoma Park MD - New Hampshire Ave", "phone": "844.747.5435", "brand": "Lidl", "brand:wikidata": "Q151954", "nsi_id": "lidl-5866c3"}, "geometry": {"type": "Point", "coordinates": [-76.99546, 38.974224]}},
{"type": "Feature", "id": "feMAB_PUeJNwYzU3j8eFvr08P9Q=", "properties": {"ref": "8031", "@spider": "lidl_us", "shop": "supermarket", "addr:full": "9274A Old Keene Mill Road Burke", "addr:city": "Burke", "addr:state": "VA", "addr:postcode": "22015", "addr:country": "US", "name": "Burke VA - Old Keene Mill Road", "phone": "844.747.5435", "brand": "Lidl", "brand:wikidata": "Q151954", "nsi_id": "lidl-5866c3"}, "geometry": {"type": "Point", "coordinates": [-77.266556, 38.776077]}},
{"type": "Feature", "id": "TcD5YJXFqdCtGOv-sGPmHPRol2c=", "properties": {"ref": "8032", "@spider": "lidl_us", "shop": "supermarket", "addr:full": "6111 Livingston Road", "addr:city": "Oxon Hill", "addr:state": "MD", "addr:postcode": "20745", "addr:country": "US", "name": "Oxon Hill MD - Livingston Road", "phone": "844.747.5435", "brand": "Lidl", "brand:wikidata": "Q151954", "nsi_id": "lidl-5866c3"}, "geometry": {"type": "Point", "coordinates": [-76.9914, 38.803417]}},
{"type": "Feature", "id": "vZs88NLlQS7KJmw9BGF-CtU8mN8=", "properties": {"ref": "8034", "@spider": "lidl_us", "shop": "supermarket", "addr:full": "2371 Solomons Island Rd", "addr:city": "Annapolis", "addr:state": "MD", "addr:postcode": "21401", "addr:country": "US", "name": "Annapolis MD - Solomons Island Rd", "phone": "844.747.5435", "brand": "Lidl", "brand:wikidata": "Q151954", "nsi_id": "lidl-5866c3"}, "geometry": {"type": "Point", "coordinates": [-76.53793, 38.97992]}},
{"type": "Feature", "id": "Y9h5ijM5oWkyvcV6UL-mVGEOHxQ=", "properties": {"ref": "8035", "@spider": "lidl_us", "shop": "supermarket", "addr:full": "2201 Unit A Randolph Rd", "addr:city": "Wheaton", "addr:state": "MD", "addr:postcode": "20902", "addr:country": "US", "name": "Wheaton MD - Randolph Rd", "phone": "844.747.5435", "brand": "Lidl", "brand:wikidata": "Q151954", "nsi_id": "lidl-5866c3"}, "geometry": {"type": "Point", "coordinates": [-77.046715, 39.059727]}},
{"type": "Feature", "id": "pMFeg4xiJpaotwp7BeSXAtipx1s=", "properties": {"ref": "8036", "@spider": "lidl_us", "shop": "supermarket", "addr:full": "5722 Ritchie Hwy", "addr:city": "Brooklyn", "addr:state": "MD", "addr:postcode": "21225", "addr:country": "US", "name": "Brooklyn Park MD - Ritchie Hwy", "phone": "844.747.5435", "brand": "Lidl", "brand:wikidata": "Q151954", "nsi_id": "lidl-5866c3"}, "geometry": {"type": "Point", "coordinates": [-76.61428, 39.217464]}}]}