{"type":"FeatureCollection","features":[{"type": "Feature", "id": "oKdHwRKXjCvoMZmFNQaVr-IraxM=", "properties": {"ref": "400", "@spider": "lidl_ni", "shop": "supermarket", "addr:full": "14 Andersonstown Road, Belfast, Belfast, BT11 9AJ, United Kingdom", "addr:street_address": "14 Andersonstown Road", "addr:city": "Belfast", "addr:postcode": "BT11 9AJ", "addr:country": "NI", "name": "Belfast - 14 Andersonstown Road", "opening_hours": "Mo-Sa 08:00-21:00; Su 13:00-18:00", "brand": "Lidl", "brand:wikidata": "Q151954", "nsi_id": "lidl-5866c3"}, "geometry": {"type": "Point", "coordinates": [-5.97788, 54.57895]}},
{"type": "Feature", "id": "coEe3tRw7Qwh9MvkNG4AfHDtDus=", "properties": {"ref": "401", "@spider": "lidl_ni", "shop": "supermarket", "addr:full": "Connswater Link, Belfast, Belfast, BT5 5DL, United Kingdom", "addr:street_address": "Connswater Link", "addr:city": "Belfast", "addr:postcode": "BT5 5DL", "addr:country": "NI", "name": "Belfast - Connswater Link", "opening_hours": "Mo-Sa 08:00-21:00; Su 13:00-18:00", "brand": "Lidl", "brand:wikidata": "Q151954", "nsi_id": "lidl-5866c3"}, "geometry": {"type": "Point", "coordinates": [-5.89264, 54.59598]}},
{"type": "Feature", "id": "1hxlFw-JCqydDJDev9HNtTb6_ps=", "properties": {"ref": "402", "@spider": "lidl_ni", "shop": "supermarket", "addr:full": "Newry Road 2a, Banbridge, Banbridge, BT32 3HF, United Kingdom", "addr:street_address": "Newry Road 2a", "addr:city": "Banbridge", "addr:postcode": "BT32 3HF", "addr:country": "NI", "name": "Banbridge - Newry Road", "opening_hours": "Mo-Sa 08:00-21:00; Su 13:00-18:00", "brand": "Lidl", "brand:wikidata": "Q151954", "nsi_id": "lidl-5866c3"}, "geometry": {"type": "Point", "coordinates": [-6.27138, 54.34513]}},
{"type": "Feature", "id": "e730Aor6CnxOBsze6hvbtqnrluA=", "properties": {"ref": "403", "@spider": "lidl_ni", "shop": "supermarket", "addr:full": "Pinehurst Retail Park, Lurgan, Lurgan, BT66 6AZ, United Kingdom", "addr:street_address": "Pinehurst Retail Park", "addr:city": "Lurgan", "addr:postcode": "BT66 6AZ", "addr:country": "NI", "name": "Kitchen Hill - Lurgan", "opening_hours": "Mo-Sa 08:00-21:00; Su 13:00-18:00", "brand": "Lidl", "brand:wikidata": "Q151954", "nsi_id": "lidl-5866c3"}, "geometry": {"type": "Point", "coordinates": [-6.33527, 54.46064]}},
{"type": "Feature", "id": "tt5LzujTigRuZdI4mDbFGqjF3Ck=", "properties": {"ref": "406", "@spider": "lidl_ni", "shop": "supermarket", "addr:full": "Castledawson Road, Magherafelt, Magherafelt, BT456PA, United Kingdom", "addr:street_address": "Castledawson Road", "addr:city": "Magherafelt", "addr:postcode": "BT456PA", "addr:country": "NI", "name": "Magherafelt", "opening_hours": "Mo-Sa 08:00-21:00; Su 13:00-18:00", "brand": "Lidl", "brand:wikidata": "Q151954", "nsi_id": "lidl-5866c3"}, "geometry": {"type": "Point", "coordinates": [-6.59808, 54.76042]}},
{"type": "Feature", "id": "qrtaWTQI7OsNos2LCqMV30eqxzo=", "properties": {"ref": "407", "@spider": "lidl_ni", "shop": "supermarket", "addr:full": "Springtown road 7-11, Derry, BT48 OLY, United Kingdom", "addr:street_address": "Springtown road 7-11", "addr:city": "Derry", "addr:postcode": "BT48 OLY", "addr:country": "NI", "name": "Derry - Springtown Road", "brand": "Lidl", "brand:wikidata": "Q151954", "nsi_id": "lidl-5866c3"}, "geometry": {"type": "Point", "coordinates": [-7.32885, 55.01769]}},
{"type": "Feature", "id": "z3p7At1SlfpRGOBJLMqHJ0BGTPo=", "properties": {"ref": "408", "@spider": "lidl_ni", "shop": "supermarket", "addr:full": "Meetinghouse Street, Ballymoney, Ballymoney, BT53 6JN, United Kingdom", "addr:street_address": "Meetinghouse Street", "addr:city": "Ballymoney", "addr:postcode": "BT53 6JN", "addr:country": "NI", "name": "Ballymoney", "opening_hours": "Mo-Sa 08:00-21:00; Su 13:00-18:00", "brand": "Lidl", "brand:wikidata": "Q151954", "nsi_id": "lidl-5866c3"}, "geometry": {"type": "Point", "coordinates": [-6.51366, 55.06837]}},
{"type": "Feature", "id": "YZSURFXtN7IXGOnORwJ-3fGlgJo=", "properties": {"ref": "411", "@spider": "lidl_ni", "shop": "supermarket", "addr:full": "Ballymena Road, Antrim, Antrim, BT41 4LL, United Kingdom", "addr:street_address": "Ballymena Road", "addr:city": "Antrim", "addr:postcode": "BT41 4LL", "addr:country": "NI", "name": "Antrim", "brand": "Lidl", "brand:wikidata": "Q151954", "nsi_id": "lidl-5866c3"}, "geometry": {"type": "Point", "coordinates": [-6.22795, 54.72762]}},
{"type": "Feature", "id": "9Qz4wXqXmDUFFZyLHJR8_aFx4ck=", "properties": {"ref": "412", "@spider": "lidl_ni", "shop": "supermarket", "addr:full": "Castlebawn Retail Park Unit 8, Newtownards, BT23 8NN, United Kingdom", "addr:street_address": "Castlebawn Retail Park Unit 8", "addr:city": "Newtownards", "addr:postcode": "BT23 8NN", "addr:country": "NI", "name": "Newtownards", "opening_hours": "Mo-Sa 08:00-21:00; Su 13:00-18:00", "brand": "Lidl", "brand:wikidata": "Q151954", "nsi_id": "lidl-5866c3"}, "geometry": {"type": "Point", "coordinates": [-5.69372, 54.58641]}},
{"type": "Feature", "id": "AghOko3gpr0_T7hKIjW2XteB4P8=", "properties": {"ref": "413", "@spider": "lidl_ni", "shop": "supermarket", "addr:full": "Castlereagh Rd, Belfast, BT6 9NS, United Kingdom", "addr:street_address": "Castlereagh Rd", "addr:city": "Belfast", "addr:postcode": "BT6 9NS", "addr:country": "NI", "opening_hours": "Mo-Sa 08:00-21:00; Su 13:00-18:00", "brand": "Lidl", "brand:wikidata": "Q151954", "nsi_id": "lidl-5866c3"}, "geometry": {"type": "Point", "coordinates": [-5.87792, 54.57916]}},
{"type": "Feature", "id": "UU-Oq6WQBgXXe0AtKN87OYlt6rg=", "properties": {"ref": "414", "@spider": "lidl_ni", "shop": "supermarket", "addr:full": "83 Main Street / Connell Street, Limavady, Limavady, BT49 0EP, United Kingdom", "addr:street_address": "83 Main Street / Connell Street", "addr:city": "Limavady", "addr:postcode": "BT49 0EP", "addr:country": "NI", "name": "Limavady", "opening_hours": "Mo-Sa 08:00-21:00; Su 13:00-18:00", "brand": "Lidl", "brand:wikidata": "Q151954", "nsi_id": "lidl-5866c3"}, "geometry": {"type": "Point", "coordinates": [-6.94935, 55.05202]}},
{"type": "Feature", "id": "1U8XrI8Lz8u9cyHQIci7EIkeXkc=", "properties": {"ref": "415", "@spider": "lidl_ni", "shop": "supermarket", "addr:full": "Unit A, Holywood Exchange Retail Park, 306 Airport Road West, Belfast, BT3 9EJ, United Kingdom", "addr:street_address": "Unit A, Holywood Exchange Retail Park, 306 Airport Road West", "addr:city": "Belfast", "addr:postcode": "BT3 9EJ", "addr:country": "NI", "name": "Holywood Exchange", "opening_hours": "Mo-Sa 08:00-21:00; Su 13:00-18:00", "brand": "Lidl", "brand:wikidata": "Q151954", "nsi_id": "lidl-5866c3"}, "geometry": {"type": "Point", "coordinates": [-5.86145, 54.62295]}},
{"type": "Feature", "id": "VVMZcYQr2FfUGjIbXOhpjHj1YU0=", "properties": {"ref": "416", "@spider": "lidl_ni", "shop": "supermarket", "addr:full": "Dunlady Road, Dundonald, Dundonald, BT16 1TT, United Kingdom", "addr:street_address": "Dunlady Road", "addr:city": "Dundonald", "addr:postcode": "BT16 1TT", "addr:country": "NI", "name": "Dundonald", "opening_hours": "Mo-Sa 08:00-21:00; Su 13:00-18:00", "brand": "Lidl", "brand:wikidata": "Q151954", "nsi_id": "lidl-5866c3"}, "geometry": {"type": "Point", "coordinates": [-5.79916, 54.59547]}},
{"type": "Feature", "id": "ygYV2FFY98xTwFQq6Rn_c7OJ2ys=", "properties": {"ref": "417", "@spider": "lidl_ni", "shop": "supermarket", "addr:full": "Unit 1A, High Street Mall, High Street, Portadown, BT62 1HX, Armagh, Portadown, BT62 1HX, United Kingdom", "addr:street_address": "Unit 1A, High Street Mall, High Street, Portadown, BT62 1HX", "addr:city": "Portadown", "addr:postcode": "BT62 1HX", "addr:country": "NI", "name": "Lidl Portadown", "opening_hours": "Mo-Sa 08:00-21:00; Su 13:00-18:00", "brand": "Lidl", "brand:wikidata": "Q151954", "nsi_id": "lidl-5866c3"}, "geometry": {"type": "Point", "coordinates": [-6.44356, 54.4247]}},
{"type": "Feature", "id": "eJwu6CC3v4MER0pq63es84QwBZQ=", "properties": {"ref": "418", "@spider": "lidl_ni", "shop": "supermarket", "addr:full": "Buttercrane Quay Unit 1 - 3, Newry, BT35 8HJ, United Kingdom", "addr:street_address": "Buttercrane Quay Unit 1 - 3", "addr:city": "Newry", "addr:postcode": "BT35 8HJ", "addr:country": "NI", "opening_hours": "Mo-Sa 08:00-21:00; Su 13:00-18:00", "brand": "Lidl", "brand:wikidata": "Q151954", "nsi_id": "lidl-5866c3"}, "geometry": {"type": "Point", "coordinates": [-6.34255, 54.1721]}},
{"type": "Feature", "id": "GbgHkZei-XsDCEK5Zs6MMN-ltic=", "properties": {"ref": "420", "@spider": "lidl_ni", "shop": "supermarket", "addr:full": "Crumlin Road, Belfast, BT14 7EE, United Kingdom", "addr:street_address": "Crumlin Road", "addr:city": "Belfast", "addr:postcode": "BT14 7EE", "addr:country": "NI", "name": "Crumlin Road", "opening_hours": "Mo-Sa 08:00-21:00; Su 13:00-18:00", "brand": "Lidl", "brand:wikidata": "Q151954", "nsi_id": "lidl-5866c3"}, "geometry": {"type": "Point", "coordinates": [-5.9556, 54.61153]}},
{"type": "Feature", "id": "7FZyvmCL6ldogj6uJwr5Xc6ItTo=", "properties": {"ref": "422", "@spider": "lidl_ni", "shop": "supermarket", "addr:full": "James Street 15, Omagh, BT78 1QX, United Kingdom", "addr:street_address": "James Street 15", "addr:city": "Omagh", "addr:postcode": "BT78 1QX", "addr:country": "NI", "opening_hours": "Mo-Sa 08:00-21:00; Su 13:00-18:00", "brand": "Lidl", "brand:wikidata": "Q151954", "nsi_id": "lidl-5866c3"}, "geometry": {"type": "Point", "coordinates": [-7.30822, 54.59791]}},
{"type": "Feature", "id": "bOODv0p66BCL7uuD4T5fjQCEV9I=", "properties": {"ref": "424", "@spider": "lidl_ni", "shop": "supermarket", "addr:full": "176-202 Shore Road, Belfast, BT15 3QA, United Kingdom", "addr:street_address": "176-202 Shore Road", "addr:city": "Belfast", "addr:postcode": "BT15 3QA", "addr:country": "NI", "opening_hours": "Mo-Sa 08:00-21:00; Su 13:00-18:00", "brand": "Lidl", "brand:wikidata": "Q151954", "nsi_id": "lidl-5866c3"}, "geometry": {"type": "Point", "coordinates": [-5.9238, 54.62701]}},
{"type": "Feature", "id": "HN7MLAv_TlBfU_L2sAPe3hNunf0=", "properties": {"ref": "528", "@spider": "lidl_ni", "shop": "supermarket", "addr:full": "Unit 1 Station Square Retail Park, Cookstown, Cookstown, BT80 8PA, United Kingdom", "addr:street_address": "Unit 1 Station Square Retail Park", "addr:city": "Cookstown", "addr:postcode": "BT80 8PA", "addr:country": "NI", "name": "Cookstown", "opening_hours": "Mo-Sa 08:00-21:00; Su 13:00-18:00", "brand": "Lidl", "brand:wikidata": "Q151954", "nsi_id": "lidl-5866c3"}, "geometry": {"type": "Point", "coordinates": [-6.74005, 54.64662]}},
{"type": "Feature", "id": "pkE_XeQxvh9L2SmdXcJ4ikrQY6w=", "properties": {"ref": "563", "@spider": "lidl_ni", "shop": "supermarket", "addr:full": "55 Glenmanus Road, Portrush, Portrush, BT56 8HN, United Kingdom", "addr:street_address": "55 Glenmanus Road", "addr:city": "Portrush", "addr:postcode": "BT56 8HN", "addr:country": "NI", "name": "Portrush", "opening_hours": "Mo-Sa 08:00-21:00; Su 13:00-18:00", "brand": "Lidl", "brand:wikidata": "Q151954", "nsi_id": "lidl-5866c3"}, "geometry": {"type": "Point", "coordinates": [-6.65707, 55.19266]}},
{"type": "Feature", "id": "2KPTR-InaepUigNH2Q5HqT_8SBU=", "properties": {"ref": "564", "@spider": "lidl_ni", "shop": "supermarket", "addr:full": "44 Ballynure Road, Ballyclare, Ballyclare, BT39 9AG, United Kingdom", "addr:street_address": "44 Ballynure Road", "addr:city": "Ballyclare", "addr:postcode": "BT39 9AG", "addr:country": "NI", "name": "Ballyclare", "brand": "Lidl", "brand:wikidata": "Q151954", "nsi_id": "lidl-5866c3"}, "geometry": {"type": "Point", "coordinates": [-5.99251, 54.75212]}},
{"type": "Feature", "id": "9LsCzqrMgdSLfthi-XqK8iQYpKc=", "properties": {"ref": "566", "@spider": "lidl_ni", "shop": "supermarket", "addr:full": "2 Glenmount Road, Newtownabbey, Newtownabbey, BT36 7DN, United Kingdom", "addr:street_address": "2 Glenmount Road", "addr:city": "Newtownabbey", "addr:postcode": "BT36 7DN", "addr:country": "NI", "name": "Newtownabbey", "brand": "Lidl", "brand:wikidata": "Q151954", "nsi_id": "lidl-5866c3"}, "geometry": {"type": "Point", "coordinates": [-5.92168, 54.65846]}},
{"type": "Feature", "id": "PHcUeaUrrJwgMZQBez7GgY7P9Gc=", "properties": {"ref": "567", "@spider": "lidl_ni", "shop": "supermarket", "addr:full": "Bentrim Road, Lisburn, Lisburn, BT28, United Kingdom", "addr:street_address": "Bentrim Road", "addr:city": "Lisburn", "addr:postcode": "BT28", "addr:country": "NI", "name": "Lisburn", "opening_hours": "Mo-Sa 08:00-21:00; Su 13:00-18:00", "brand": "Lidl", "brand:wikidata": "Q151954", "nsi_id": "lidl-5866c3"}, "geometry": {"type": "Point", "coordinates": [-6.05631, 54.51594]}},
{"type": "Feature", "id": "XVag4RRailya-3e8_FxfSBTPRRI=", "properties": {"ref": "650", "@spider": "lidl_ni", "shop": "supermarket", "addr:full": "Main St/ Harmony Road, Ballynahinch, Ballynahinch, BT24 8DW, United Kingdom", "addr:street_address": "Main St/ Harmony Road", "addr:city": "Ballynahinch", "addr:postcode": "BT24 8DW", "addr:country": "NI", "name": "Ballynahinch", "opening_hours": "Mo-Sa 08:00-21:00; Su 13:00-18:00", "brand": "Lidl", "brand:wikidata": "Q151954", "nsi_id": "lidl-5866c3"}, "geometry": {"type": "Point", "coordinates": [-5.89313, 54.40305]}},
{"type": "Feature", "id": "8I8K2Lzl5KzJnHHR9FszMaM_R6I=", "properties": {"ref": "660", "@spider": "lidl_ni", "shop": "supermarket", "addr:full": "Market Street, Downpatrick, Downpatrick, BT30 6LZ, United Kingdom", "addr:street_address": "Market Street", "addr:city": "Downpatrick", "addr:postcode": "BT30 6LZ", "addr:country": "NI", "name": "Downpatrick", "opening_hours": "Mo-Sa 08:00-21:00; Su 13:00-18:00", "brand": "Lidl", "brand:wikidata": "Q151954", "nsi_id": "lidl-5866c3"}, "geometry": {"type": "Point", "coordinates": [-5.71842, 54.32632]}},
{"type": "Feature", "id": "5WGKO5e204XSRyKqEpWePOYmBV4=", "properties": {"ref": "661", "@spider": "lidl_ni", "shop": "supermarket", "addr:full": "100 - 116 Stewartstown Road, Belfast, Belfast, BT11 9JQ, United Kingdom", "addr:street_address": "100 - 116 Stewartstown Road", "addr:city": "Belfast", "addr:postcode": "BT11 9JQ", "addr:country": "NI", "name": "Belfast - Stewartstown Rd", "opening_hours": "Mo-Sa 08:00-21:00; Su 13:00-18:00", "brand": "Lidl", "brand:wikidata": "Q151954", "nsi_id": "lidl-5866c3"}, "geometry": {"type": "Point", "coordinates": [-6.00864, 54.56819]}},
{"type": "Feature", "id": "1IIw0wDbO7wKmUga7McGqsY8sEQ=", "properties": {"ref": "678", "@spider": "lidl_ni", "shop": "supermarket", "addr:full": "45 Moira Road, Lisburn, Lisburn, BT28 1RH, United Kingdom", "addr:street_address": "45 Moira Road", "addr:city": "Lisburn", "addr:postcode": "BT28 1RH", "addr:country": "NI", "name": "Lisburn - Moira Road", "opening_hours": "Mo-Sa 08:00-21:00; Su 13:00-18:00", "brand": "Lidl", "brand:wikidata": "Q151954", "nsi_id": "lidl-5866c3"}, "geometry": {"type": "Point", "coordinates": [-6.06476, 54.50835]}},
{"type": "Feature", "id": "aGrtWQlf_0I0YWFypLypuNYU5fc=", "properties": {"ref": "980", "@spider": "lidl_ni", "shop": "supermarket", "addr:full": "Bradley Way, Strabane, Strabane, BT82 9PU, United Kingdom", "addr:street_address": "Bradley Way", "addr:city": "Strabane", "addr:postcode": "BT82 9PU", "addr:country": "NI", "name": "Strabane", "brand": "Lidl", "brand:wikidata": "Q151954", "nsi_id": "lidl-5866c3"}, "geometry": {"type": "Point", "coordinates": [-7.47024, 54.82564]}},
{"type": "Feature", "id": "2q_sKOhLrSz6VxXkjuAABD7-K8A=", "properties": {"ref": "981", "@spider": "lidl_ni", "shop": "supermarket", "addr:full": "Castle Demense Link/Larne Road Link, Ballymena, Ballymena, BT44 0BD, United Kingdom", "addr:street_address": "Castle Demense Link/Larne Road Link", "addr:city": "Ballymena", "addr:postcode": "BT44 0BD", "addr:country": "NI", "name": "Ballymena", "opening_hours": "Mo-Sa 08:00-21:00; Su 13:00-18:00", "brand": "Lidl", "brand:wikidata": "Q151954", "nsi_id": "lidl-5866c3"}, "geometry": {"type": "Point", "coordinates": [-6.2719, 54.86228]}},
{"type": "Feature", "id": "wNqtIsP0gQYmRvejU5IxAJ3gdmg=", "properties": {"ref": "982", "@spider": "lidl_ni", "shop": "supermarket", "addr:full": "Market Yard, Dungannon, Dungannon, BT70 1ES, United Kingdom", "addr:street_address": "Market Yard", "addr:city": "Dungannon", "addr:postcode": "BT70 1ES", "addr:country": "NI", "name": "Dungannon", "opening_hours": "Mo-Sa 08:00-21:00; Su 13:00-18:00", "brand": "Lidl", "brand:wikidata": "Q151954", "nsi_id": "lidl-5866c3"}, "geometry": {"type": "Point", "coordinates": [-6.77294, 54.50253]}},
{"type": "Feature", "id": "TJc3U-VfVIPkbD1T3z99YsTOJyM=", "properties": {"ref": "983", "@spider": "lidl_ni", "shop": "supermarket", "addr:full": "2 Railway Street, Newcastle, Newcastle, BT33 0AL, United Kingdom", "addr:street_address": "2 Railway Street", "addr:city": "Newcastle", "addr:postcode": "BT33 0AL", "addr:country": "NI", "name": "Newcastle", "opening_hours": "Mo-Sa 08:00-21:00; Su 13:00-18:00", "brand": "Lidl", "brand:wikidata": "Q151954", "nsi_id": "lidl-5866c3"}, "geometry": {"type": "Point", "coordinates": [-5.88761, 54.21513]}},
{"type": "Feature", "id": "K5lOpZJH_vF-D5bhVNhcrbpdakw=", "properties": {"ref": "986", "@spider": "lidl_ni", "shop": "supermarket", "addr:full": "63 Circular Road, Larne, Larne, BT40 1JS, United Kingdom", "addr:street_address": "63 Circular Road", "addr:city": "Larne", "addr:postcode": "BT40 1JS", "addr:country": "NI", "name": "Larne", "opening_hours": "Mo-Sa 08:00-21:00; Su 13:00-18:00", "brand": "Lidl", "brand:wikidata": "Q151954", "nsi_id": "lidl-5866c3"}, "geometry": {"type": "Point", "coordinates": [-5.81767, 54.85039]}},
{"type": "Feature", "id": "fHYCnSqMcdCnwskyHvnoqz9RetE=", "properties": {"ref": "987", "@spider": "lidl_ni", "shop": "supermarket", "addr:full": "Moy Road, Armagh, Armagh, BT61 8DB, United Kingdom", "addr:street_address": "Moy Road", "addr:city": "Armagh", "addr:postcode": "BT61 8DB", "addr:country": "NI", "name": "Armagh", "opening_hours": "Mo-Sa 08:00-21:00; Su 13:00-18:00", "brand": "Lidl", "brand:wikidata": "Q151954", "nsi_id": "lidl-5866c3"}, "geometry": {"type": "Point", "coordinates": [-6.66051, 54.35646]}},
{"type": "Feature", "id": "pv0K7X9QSbZO819PmeOOuTBq5JY=", "properties": {"ref": "988", "@spider": "lidl_ni", "shop": "supermarket", "addr:full": "U.1 Railway J. Park Holyhill Link, Enniskillen, Enniskillen, BT74 6GG, United Kingdom", "addr:street_address": "U.1 Railway J. Park Holyhill Link", "addr:city": "Enniskillen", "addr:postcode": "BT74 6GG", "addr:country": "NI", "name": "Enniskillen", "opening_hours": "Mo-Sa 08:00-21:00; Su 13:00-18:00", "brand": "Lidl", "brand:wikidata": "Q151954", "nsi_id": "lidl-5866c3"}, "geometry": {"type": "Point", "coordinates": [-7.62943, 54.34511]}},
{"type": "Feature", "id": "T0EelldWAboUp6v6Id2hPiuqEiI=", "properties": {"ref": "989", "@spider": "lidl_ni", "shop": "supermarket", "addr:full": "97 Bloomfield Road, Bangor, Bangor, BT20 4XA, United Kingdom", "addr:street_address": "97 Bloomfield Road", "addr:city": "Bangor", "addr:postcode": "BT20 4XA", "addr:country": "NI", "name": "Bangor", "opening_hours": "Mo-Sa 08:00-21:00; Su 13:00-18:00", "brand": "Lidl", "brand:wikidata": "Q151954", "nsi_id": "lidl-5866c3"}, "geometry": {"type": "Point", "coordinates": [-5.66023, 54.64907]}},
{"type": "Feature", "id": "fyNOtxkmx9kTBlb18DWbexVU8jM=", "properties": {"ref": "990", "@spider": "lidl_ni", "shop": "supermarket", "addr:full": "Northway, Craigavon, Craigavon, BT64 3AG, United Kingdom", "addr:street_address": "Northway", "addr:city": "Craigavon", "addr:postcode": "BT64 3AG", "addr:country": "NI", "name": "Craigavon", "opening_hours": "Mo-Sa 08:00-21:00; Su 13:00-18:00", "brand": "Lidl", "brand:wikidata": "Q151954", "nsi_id": "lidl-5866c3"}, "geometry": {"type": "Point", "coordinates": [-6.40067, 54.45057]}},
{"type": "Feature", "id": "YGjMUA-rYOWBidYLXlUzt7vWrqk=", "properties": {"ref": "991", "@spider": "lidl_ni", "shop": "supermarket", "addr:full": "Main Street, Lisnaskea, Lisnaskea, BT92 0JB, United Kingdom", "addr:street_address": "Main Street", "addr:city": "Lisnaskea", "addr:postcode": "BT92 0JB", "addr:country": "NI", "name": "Lisnaskea", "opening_hours": "Mo-Sa 08:00-21:00; Su 13:00-18:00", "brand": "Lidl", "brand:wikidata": "Q151954", "nsi_id": "lidl-5866c3"}, "geometry": {"type": "Point", "coordinates": [-7.45187, 54.25928]}},
{"type": "Feature", "id": "1Xq6oylvVxeJxisJ_SwWEHVmKfQ=", "properties": {"ref": "993", "@spider": "lidl_ni", "shop": "supermarket", "addr:full": "Riverside Park North Regional Park, Coleraine, Coleraine, BT51 3AW, United Kingdom", "addr:street_address": "Riverside Park North Regional Park", "addr:city": "Coleraine", "addr:postcode": "BT51 3AW", "addr:country": "NI", "name": "Coleraine - Riverside", "opening_hours": "Mo-Sa 08:00-21:00; Su 13:00-18:00", "brand": "Lidl", "brand:wikidata": "Q151954", "nsi_id": "lidl-5866c3"}, "geometry": {"type": "Point", "coordinates": [-6.67698, 55.12026]}},
{"type": "Feature", "id": "P3pMHrAvodz2o2IJo-t13ls6aQk=", "properties": {"ref": "996", "@spider": "lidl_ni", "shop": "supermarket", "addr:full": "75D Belfast Road, Carrickfergus, Carrickfergus, BT38 8BY, United Kingdom", "addr:street_address": "75D Belfast Road", "addr:city": "Carrickfergus", "addr:postcode": "BT38 8BY", "addr:country": "NI", "name": "Carrickfergus", "opening_hours": "Mo-Sa 08:00-21:00; Su 13:00-18:00", "brand": "Lidl", "brand:wikidata": "Q151954", "nsi_id": "lidl-5866c3"}, "geometry": {"type": "Point", "coordinates": [-5.82652, 54.71115]}},
{"type": "Feature", "id": "AFbobzz9TpVnbRpFXpaEH-mwj5g=", "properties": {"ref": "997", "@spider": "lidl_ni", "shop": "supermarket", "addr:full": "5A Damolly R/P Armagh Road, Newry, Newry, BT35 6PR, United Kingdom", "addr:street_address": "5A Damolly R/P Armagh Road", "addr:city": "Newry", "addr:postcode": "BT35 6PR", "addr:country": "NI", "name": "Newry Damolly", "opening_hours": "Mo-Sa 08:00-21:00; Su 13:00-18:00", "brand": "Lidl", "brand:wikidata": "Q151954", "nsi_id": "lidl-5866c3"}, "geometry": {"type": "Point", "coordinates": [-6.35053, 54.1923]}},
{"type": "Feature", "id": "ZHpMBpp4o9XGk0TMfNLMidz7uI0=", "properties": {"ref": "998", "@spider": "lidl_ni", "shop": "supermarket", "addr:full": "Hi Park Centre High Street, Belfast, Belfast, BT1 2JZ, United Kingdom", "addr:street_address": "Hi Park Centre High Street", "addr:city": "Belfast", "addr:postcode": "BT1 2JZ", "addr:country": "NI", "name": "Belfast - Hi Park Centre High Street", "opening_hours": "Mo-Sa 08:00-21:00; Su 13:00-18:00", "brand": "Lidl", "brand:wikidata": "Q151954", "nsi_id": "lidl-5866c3"}, "geometry": {"type": "Point", "coordinates": [-5.92602, 54.60016]}}]}