{"type":"FeatureCollection","features":[{"type": "Feature", "id": "3PuSAZPX_W8Tcp7WTUfFBbDXO9o=", "properties": {"ref": "48.8285210.11375", "@spider": "lidl_de", "shop": "supermarket", "addr:street_address": "Ulmer Str. 150", "addr:city": "Aalen", "addr:postcode": "73431", "addr:country": "DE", "name": "Lidl", "opening_hours": "Mo-Sa 07:00-21:00", "brand": "Lidl", "brand:wikidata": "Q151954", "nsi_id": "lidl-5866c3"}, "geometry": {"type": "Point", "coordinates": [10.11375, 48.82852]}},
{"type": "Feature", "id": "svdqvhyYa4U5nfnG2FogVfJaGXw=", "properties": {"ref": "52.5198113.28035", "@spider": "lidl_de", "shop": "supermarket", "addr:street_address": "F\u00fcrstenbrunner Weg 14-18", "addr:city": "Berlin-Charlottenburg-Wilmersdorf", "addr:postcode": "14059", "addr:country": "DE", "name": "Lidl", "opening_hours": "Mo-Sa 07:00-22:00", "brand": "Lidl", "brand:wikidata": "Q151954", "nsi_id": "lidl-5866c3"}, "geometry": {"type": "Point", "coordinates": [13.28035, 52.51981]}},
{"type": "Feature", "id": "YUFYpCH13OFqZ10POJQOjMCBcZE=", "properties": {"ref": "52.4310313.54801", "@spider": "lidl_de", "shop": "supermarket", "addr:street_address": "Adlergestell 291", "addr:city": "Berlin-Treptow-K\u00f6penick", "addr:postcode": "12489", "addr:country": "DE", "name": "Lidl", "opening_hours": "Mo-Sa 07:00-21:00", "brand": "Lidl", "brand:wikidata": "Q151954", "nsi_id": "lidl-5866c3"}, "geometry": {"type": "Point", "coordinates": [13.54801, 52.43103]}},
{"type": "Feature", "id": "PdB_LXRBiJNHvqndiFN8cHdbYU0=", "properties": {"ref": "52.4900213.60576", "@spider": "lidl_de", "shop": "supermarket", "addr:street_address": "Rastatter Stra\u00dfe 3", "addr:city": "Berlin-Marzahn-Hellersdorf", "addr:postcode": "12623", "addr:country": "DE", "name": "Lidl", "opening_hours": "Mo-Sa 07:00-21:00", "brand": "Lidl", "brand:wikidata": "Q151954", "nsi_id": "lidl-5866c3"}, "geometry": {"type": "Point", "coordinates": [13.60576, 52.49002]}},
{"type": "Feature", "id": "p7avOcENoKzbip0lJIsjLxrU_U4=", "properties": {"ref": "52.5617313.36486", "@spider": "lidl_de", "shop": "supermarket", "addr:street_address": "Markstr. 40-42", "addr:city": "Berlin-Reinickendorf", "addr:postcode": "13409", "addr:country": "DE", "name": "Lidl", "opening_hours": "Mo-Sa 07:00-21:00", "brand": "Lidl", "brand:wikidata": "Q151954", "nsi_id": "lidl-5866c3"}, "geometry": {"type": "Point", "coordinates": [13.36486, 52.56173]}},
{"type": "Feature", "id": "WAkhVhggGp5iw1I-tnShPwjI-Ms=", "properties": {"ref": "52.5465313.46882", "@spider": "lidl_de", "shop": "supermarket", "addr:street_address": "Indira-Ghandi-Str. 101", "addr:city": "Berlin-Lichtenberg", "addr:postcode": "13053", "addr:country": "DE", "name": "Lidl", "opening_hours": "Mo-Sa 07:00-21:00", "brand": "Lidl", "brand:wikidata": "Q151954", "nsi_id": "lidl-5866c3"}, "geometry": {"type": "Point", "coordinates": [13.46882, 52.54653]}},
{"type": "Feature", "id": "0iEjloB8ujb2yusTVSYaP-UvGGY=", "properties": {"ref": "52.4294713.25993", "@spider": "lidl_de", "shop": "supermarket", "addr:street_address": "M\u00fchlenstr. 2", "addr:city": "Berlin-Steglitz-Zehlendorf", "addr:postcode": "14167", "addr:country": "DE", "name": "Lidl", "opening_hours": "Mo-Sa 07:00-21:00", "brand": "Lidl", "brand:wikidata": "Q151954", "nsi_id": "lidl-5866c3"}, "geometry": {"type": "Point", "coordinates": [13.25993, 52.42947]}},
{"type": "Feature", "id": "h7bhMgFyVDnfzQtV5oAZfg7YF2s=", "properties": {"ref": "52.5463713.14335", "@spider": "lidl_de", "shop": "supermarket", "addr:street_address": "Seegefelder Weg 391", "addr:city": "Berlin-Spandau", "addr:postcode": "13591", "addr:country": "DE", "name": "Lidl", "opening_hours": "Mo-Sa 07:00-21:00", "brand": "Lidl", "brand:wikidata": "Q151954", "nsi_id": "lidl-5866c3"}, "geometry": {"type": "Point", "coordinates": [13.14335, 52.54637]}},
{"type": "Feature", "id": "cPHDkLWd-PXIjteF9l5-hZskzkQ=", "properties": {"ref": "52.4810613.43864", "@spider": "lidl_de", "shop": "supermarket", "addr:street_address": "Donaustr.96", "addr:city": "Berlin-Neuk\u00f6lln", "addr:postcode": "12043", "addr:country": "DE", "name": "Lidl", "opening_hours": "Mo-Sa 07:00-22:00", "brand": "Lidl", "brand:wikidata": "Q151954", "nsi_id": "lidl-5866c3"}, "geometry": {"type": "Point", "coordinates": [13.43864, 52.48106]}},
{"type": "Feature", "id": "4GISu3G21OjRAzCxddwjIUbpSTE=", "properties": {"ref": "52.5243113.3795", "@spider": "lidl_de", "shop": "supermarket", "addr:street_address": "Luisenstr. 52", "addr:city": "Berlin-Mitte", "addr:postcode": "10117", "addr:country": "DE", "name": "Lidl", "opening_hours": "Mo-Sa 07:00-21:00", "brand": "Lidl", "brand:wikidata": "Q151954", "nsi_id": "lidl-5866c3"}, "geometry": {"type": "Point", "coordinates": [13.3795, 52.52431]}},
{"type": "Feature", "id": "W5r77ZzYv6V1GBAMJj_Pgv75qg0=", "properties": {"ref": "49.79889.94589", "@spider": "lidl_de", "shop": "supermarket", "addr:street_address": "Schweinfurter Str. 8", "addr:city": "W\u00fcrzburg", "addr:postcode": "97080", "addr:country": "DE", "name": "Lidl", "opening_hours": "Mo-Sa 07:00-20:00", "brand": "Lidl", "brand:wikidata": "Q151954", "nsi_id": "lidl-5866c3"}, "geometry": {"type": "Point", "coordinates": [9.94589, 49.7988]}},
{"type": "Feature", "id": "Xu-oa5E7BlIpFwF_DLo0MuYuvSs=", "properties": {"ref": "49.6930212.13645", "@spider": "lidl_de", "shop": "supermarket", "addr:street_address": "Professor-Zintl-Str. 11", "addr:city": "Weiden", "addr:postcode": "92637", "addr:country": "DE", "name": "Lidl", "opening_hours": "Mo-Sa 07:00-20:00", "brand": "Lidl", "brand:wikidata": "Q151954", "nsi_id": "lidl-5866c3"}, "geometry": {"type": "Point", "coordinates": [12.13645, 49.69302]}},
{"type": "Feature", "id": "cvLmaYqe4--gr24iPMqhx0AmJN0=", "properties": {"ref": "50.0478810.2105", "@spider": "lidl_de", "shop": "supermarket", "addr:street_address": "Niederwerrner Str. 93", "addr:city": "Schweinfurt", "addr:postcode": "97421", "addr:country": "DE", "name": "Lidl", "opening_hours": "Mo-Sa 07:00-20:00", "brand": "Lidl", "brand:wikidata": "Q151954", "nsi_id": "lidl-5866c3"}, "geometry": {"type": "Point", "coordinates": [10.2105, 50.04788]}},
{"type": "Feature", "id": "5C92zVBZiOYsOC5HVcnU6FbI0VA=", "properties": {"ref": "47.8558212.10882", "@spider": "lidl_de", "shop": "supermarket", "addr:street_address": "Pichlmayrstra\u00dfe 13", "addr:city": "Rosenheim", "addr:postcode": "83024", "addr:country": "DE", "name": "Lidl", "opening_hours": "Mo-Sa 07:00-20:00", "brand": "Lidl", "brand:wikidata": "Q151954", "nsi_id": "lidl-5866c3"}, "geometry": {"type": "Point", "coordinates": [12.10882, 47.85582]}},
{"type": "Feature", "id": "lBgxQNG0nHeHaOeE_fXT_K7c7bE=", "properties": {"ref": "48.988512.1427", "@spider": "lidl_de", "shop": "supermarket", "addr:street_address": "Friedrich-Viehbacher-Allee 9", "addr:city": "Regensburg", "addr:postcode": "93055", "addr:country": "DE", "name": "Lidl", "opening_hours": "Mo-Sa 07:00-20:00", "brand": "Lidl", "brand:wikidata": "Q151954", "nsi_id": "lidl-5866c3"}, "geometry": {"type": "Point", "coordinates": [12.1427, 48.9885]}},
{"type": "Feature", "id": "qTWb4cblTg6b2pAY05dOytPw7w8=", "properties": {"ref": "49.4338911.12613", "@spider": "lidl_de", "shop": "supermarket", "addr:street_address": "Kallm\u00fcnzer Str. 16", "addr:city": "N\u00fcrnberg", "addr:postcode": "90478", "addr:country": "DE", "name": "Lidl", "opening_hours": "Mo-Sa 07:00-20:00", "brand": "Lidl", "brand:wikidata": "Q151954", "nsi_id": "lidl-5866c3"}, "geometry": {"type": "Point", "coordinates": [11.12613, 49.43389]}},
{"type": "Feature", "id": "mZZFmz3Py3ax_41M8EY4y2eAHH4=", "properties": {"ref": "50.9808711.31463", "@spider": "lidl_de", "shop": "supermarket", "addr:street_address": "Erfurter Str. 49a", "addr:city": "Weimar", "addr:postcode": "99425", "addr:country": "DE", "name": "Lidl", "opening_hours": "Mo-Fr 07:00-21:00; Sa 07:00-20:00", "brand": "Lidl", "brand:wikidata": "Q151954", "nsi_id": "lidl-5866c3"}, "geometry": {"type": "Point", "coordinates": [11.31463, 50.98087]}},
{"type": "Feature", "id": "sb7p-ix1ZHbw9jJJY2ofTGJ_Fbg=", "properties": {"ref": "50.9459810.71718", "@spider": "lidl_de", "shop": "supermarket", "addr:street_address": "Sch\u00f6ne Allee 14", "addr:city": "Gotha", "addr:postcode": "99867", "addr:country": "DE", "name": "Lidl", "opening_hours": "Mo-Fr 07:00-21:00; Sa 07:00-20:00", "brand": "Lidl", "brand:wikidata": "Q151954", "nsi_id": "lidl-5866c3"}, "geometry": {"type": "Point", "coordinates": [10.71718, 50.94598]}},
{"type": "Feature", "id": "K47tzc12Op-UxoN7ZEPtz99_zNo=", "properties": {"ref": "50.8928712.08467", "@spider": "lidl_de", "shop": "supermarket", "addr:street_address": "Stra\u00dfe des Bergmanns 10", "addr:city": "Gera", "addr:postcode": "07545", "addr:country": "DE", "name": "Lidl", "opening_hours": "Mo-Fr 07:00-21:00; Sa 07:00-20:00", "brand": "Lidl", "brand:wikidata": "Q151954", "nsi_id": "lidl-5866c3"}, "geometry": {"type": "Point", "coordinates": [12.08467, 50.89287]}},
{"type": "Feature", "id": "oGJ9jmxkPcRw6uSxzzJ7KoBE5Bs=", "properties": {"ref": "51.0033411.00165", "@spider": "lidl_de", "shop": "supermarket", "addr:street_address": "Grenzweg 10", "addr:city": "Erfurt", "addr:postcode": "99091", "addr:country": "DE", "name": "Lidl", "opening_hours": "Mo-Fr 07:00-21:00; Sa 07:00-20:00", "brand": "Lidl", "brand:wikidata": "Q151954", "nsi_id": "lidl-5866c3"}, "geometry": {"type": "Point", "coordinates": [11.00165, 51.00334]}},
{"type": "Feature", "id": "oGevAMJrn3zPqddu71gbOgtjj7g=", "properties": {"ref": "50.9804110.32286", "@spider": "lidl_de", "shop": "supermarket", "addr:street_address": "Clemdastr. 5", "addr:city": "Eisenach", "addr:postcode": "99817", "addr:country": "DE", "name": "Lidl", "opening_hours": "Mo-Fr 07:00-21:00; Sa 07:00-20:00", "brand": "Lidl", "brand:wikidata": "Q151954", "nsi_id": "lidl-5866c3"}, "geometry": {"type": "Point", "coordinates": [10.32286, 50.98041]}},
{"type": "Feature", "id": "Alygc2NlzQojbqjBaFl7M8_B7Zs=", "properties": {"ref": "54.068869.94104", "@spider": "lidl_de", "shop": "supermarket", "addr:street_address": "Wasbeker Str. 335", "addr:city": "Neum\u00fcnster", "addr:postcode": "24537", "addr:country": "DE", "name": "Lidl", "opening_hours": "Mo-Sa 07:00-21:00", "brand": "Lidl", "brand:wikidata": "Q151954", "nsi_id": "lidl-5866c3"}, "geometry": {"type": "Point", "coordinates": [9.94104, 54.06886]}},
{"type": "Feature", "id": "M5fC_e9gZiVs66jZ6B7fyHhhKYQ=", "properties": {"ref": "53.8635810.65362", "@spider": "lidl_de", "shop": "supermarket", "addr:street_address": "Ziegelstr. 113-119", "addr:city": "L\u00fcbeck", "addr:postcode": "23556", "addr:country": "DE", "name": "Lidl", "opening_hours": "Mo-Sa 07:00-21:00", "brand": "Lidl", "brand:wikidata": "Q151954", "nsi_id": "lidl-5866c3"}, "geometry": {"type": "Point", "coordinates": [10.65362, 53.86358]}},
{"type": "Feature", "id": "NMAVpg5muEV3y7db6PUc2gvHP98=", "properties": {"ref": "54.297910.16974", "@spider": "lidl_de", "shop": "supermarket", "addr:street_address": "Preetzer Str. 306", "addr:city": "Kiel", "addr:postcode": "24147", "addr:country": "DE", "name": "Lidl", "opening_hours": "Mo-Sa 07:00-21:00", "brand": "Lidl", "brand:wikidata": "Q151954", "nsi_id": "lidl-5866c3"}, "geometry": {"type": "Point", "coordinates": [10.16974, 54.2979]}},
{"type": "Feature", "id": "s4mrRlMZ4uzwHHTWWwti5-qk_Nc=", "properties": {"ref": "54.797389.42683", "@spider": "lidl_de", "shop": "supermarket", "addr:street_address": "Neustadt 23", "addr:city": "Flensburg", "addr:postcode": "24939", "addr:country": "DE", "name": "Lidl", "opening_hours": "Mo-Sa 07:00-21:00", "brand": "Lidl", "brand:wikidata": "Q151954", "nsi_id": "lidl-5866c3"}, "geometry": {"type": "Point", "coordinates": [9.42683, 54.79738]}},
{"type": "Feature", "id": "ms5VEZhWw3KAAMcbdg7Xc6S5gU8=", "properties": {"ref": "53.760459.65959", "@spider": "lidl_de", "shop": "supermarket", "addr:street_address": "An der Ost-West Br\u00fccke 1", "addr:city": "Elmshorn", "addr:postcode": "25335", "addr:country": "DE", "name": "Lidl", "opening_hours": "Mo-Sa 07:00-21:00", "brand": "Lidl", "brand:wikidata": "Q151954", "nsi_id": "lidl-5866c3"}, "geometry": {"type": "Point", "coordinates": [9.65959, 53.76045]}},
{"type": "Feature", "id": "P4PVApE6XocilRK5JYo4_Y32gbo=", "properties": {"ref": "52.5975911.83906", "@spider": "lidl_de", "shop": "supermarket", "addr:street_address": "Erich-Weinert-Str. 23", "addr:city": "Stendal", "addr:postcode": "39576", "addr:country": "DE", "name": "Lidl", "opening_hours": "Mo-Fr 07:00-21:00; Sa 07:00-20:00", "brand": "Lidl", "brand:wikidata": "Q151954", "nsi_id": "lidl-5866c3"}, "geometry": {"type": "Point", "coordinates": [11.83906, 52.59759]}},
{"type": "Feature", "id": "mLd0mQ4QnD_siNtYmkEyRsWVofk=", "properties": {"ref": "52.1473111.65413", "@spider": "lidl_de", "shop": "supermarket", "addr:street_address": "Rog\u00e4tzer Str. 25", "addr:city": "Magdeburg", "addr:postcode": "39106", "addr:country": "DE", "name": "Lidl", "opening_hours": "Mo-Fr 07:00-21:00; Sa 07:00-20:00", "brand": "Lidl", "brand:wikidata": "Q151954", "nsi_id": "lidl-5866c3"}, "geometry": {"type": "Point", "coordinates": [11.65413, 52.14731]}},
{"type": "Feature", "id": "5MFvFesHGdwyzEuTiQLGEV-ZVW8=", "properties": {"ref": "51.8212812.19031", "@spider": "lidl_de", "shop": "supermarket", "addr:street_address": "K\u00f6thener Str. 70 a", "addr:city": "Dessau", "addr:postcode": "06847", "addr:country": "DE", "name": "Lidl", "opening_hours": "Mo-Sa 07:00-20:00", "brand": "Lidl", "brand:wikidata": "Q151954", "nsi_id": "lidl-5866c3"}, "geometry": {"type": "Point", "coordinates": [12.19031, 51.82128]}},
{"type": "Feature", "id": "4JxODw1IQCMvMfj2kV1lgR2y8w4=", "properties": {"ref": "50.7194312.46715", "@spider": "lidl_de", "shop": "supermarket", "addr:street_address": "Marienthaler Str. 53", "addr:city": "Zwickau", "addr:postcode": "08060", "addr:country": "DE", "name": "Lidl", "opening_hours": "Mo-Sa 07:00-21:00", "brand": "Lidl", "brand:wikidata": "Q151954", "nsi_id": "lidl-5866c3"}, "geometry": {"type": "Point", "coordinates": [12.46715, 50.71943]}},
{"type": "Feature", "id": "XpUxTNO9a4ZlCkN1zvIgIyuxmBE=", "properties": {"ref": "51.3041313.26848", "@spider": "lidl_de", "shop": "supermarket", "addr:street_address": "Lange Str. 46", "addr:city": "Riesa", "addr:postcode": "01587", "addr:country": "DE", "name": "Lidl", "opening_hours": "Mo-Sa 07:00-21:00", "brand": "Lidl", "brand:wikidata": "Q151954", "nsi_id": "lidl-5866c3"}, "geometry": {"type": "Point", "coordinates": [13.26848, 51.30413]}},
{"type": "Feature", "id": "RRielZ-At3Wz7Lo5RrJzfEgDPwc=", "properties": {"ref": "50.9681913.93264", "@spider": "lidl_de", "shop": "supermarket", "addr:street_address": "Rudolf-Renner-Str. 10", "addr:city": "Pirna", "addr:postcode": "01796", "addr:country": "DE", "name": "Lidl", "opening_hours": "Mo-Sa 07:00-21:00", "brand": "Lidl", "brand:wikidata": "Q151954", "nsi_id": "lidl-5866c3"}, "geometry": {"type": "Point", "coordinates": [13.93264, 50.96819]}},
{"type": "Feature", "id": "E1jr-lHeQTnfrUhse9a6j6wLDHI=", "properties": {"ref": "51.1617113.47583", "@spider": "lidl_de", "shop": "supermarket", "addr:street_address": "Poststr. 11", "addr:city": "Mei\u00dfen", "addr:postcode": "01662", "addr:country": "DE", "name": "Lidl", "opening_hours": "Mo-Sa 07:00-21:00", "brand": "Lidl", "brand:wikidata": "Q151954", "nsi_id": "lidl-5866c3"}, "geometry": {"type": "Point", "coordinates": [13.47583, 51.16171]}},
{"type": "Feature", "id": "XMbPPRyQeEiOEKn0T3sTnotyJtI=", "properties": {"ref": "51.3600112.38237", "@spider": "lidl_de", "shop": "supermarket", "addr:street_address": "Theresienstr. 5", "addr:city": "Leipzig", "addr:postcode": "04129", "addr:country": "DE", "name": "Lidl", "opening_hours": "Mo-Sa 07:00-21:00", "brand": "Lidl", "brand:wikidata": "Q151954", "nsi_id": "lidl-5866c3"}, "geometry": {"type": "Point", "coordinates": [12.38237, 51.36001]}},
{"type": "Feature", "id": "peUkLZg6bospHB6KkncdvQp-2Oo=", "properties": {"ref": "51.0618113.84434", "@spider": "lidl_de", "shop": "supermarket", "addr:street_address": "Bautzner Landstr. 112-114", "addr:city": "Dresden", "addr:postcode": "01324", "addr:country": "DE", "name": "Lidl", "opening_hours": "Mo-Sa 07:00-21:00", "brand": "Lidl", "brand:wikidata": "Q151954", "nsi_id": "lidl-5866c3"}, "geometry": {"type": "Point", "coordinates": [13.84434, 51.06181]}},
{"type": "Feature", "id": "IucSNGSOPD6LVmwgxU1JrxnBx88=", "properties": {"ref": "50.8172312.91602", "@spider": "lidl_de", "shop": "supermarket", "addr:street_address": "Wilhelm-Raabe-Str. 52", "addr:city": "Chemnitz", "addr:postcode": "09120", "addr:country": "DE", "name": "Lidl", "opening_hours": "Mo-Sa 07:00-21:00", "brand": "Lidl", "brand:wikidata": "Q151954", "nsi_id": "lidl-5866c3"}, "geometry": {"type": "Point", "coordinates": [12.91602, 50.81723]}},
{"type": "Feature", "id": "Nop5-Sw9MtRX9N2xCdrY7Kp3IbQ=", "properties": {"ref": "49.230746.82865", "@spider": "lidl_de", "shop": "supermarket", "addr:street_address": "Am Hammergraben 7", "addr:city": "V\u00f6lklingen", "addr:postcode": "66333", "addr:country": "DE", "name": "Lidl", "opening_hours": "Mo-Sa 07:00-20:00", "brand": "Lidl", "brand:wikidata": "Q151954", "nsi_id": "lidl-5866c3"}, "geometry": {"type": "Point", "coordinates": [6.82865, 49.23074]}},
{"type": "Feature", "id": "5EFrkghLql_cDDuxCZEGC68_l7E=", "properties": {"ref": "49.5098711.74619", "@spider": "lidl_de", "shop": "supermarket", "addr:street_address": "Karolinenstr. 26", "addr:city": "Sulzbach", "addr:postcode": "92237", "addr:country": "DE", "name": "Lidl", "opening_hours": "Mo-Sa 07:00-20:00", "brand": "Lidl", "brand:wikidata": "Q151954", "nsi_id": "lidl-5866c3"}, "geometry": {"type": "Point", "coordinates": [11.74619, 49.50987]}},
{"type": "Feature", "id": "V2warF7QlwwHsEBNLj2d7RUFVQI=", "properties": {"ref": "49.272067.12976", "@spider": "lidl_de", "shop": "supermarket", "addr:street_address": "Oststr. 70", "addr:city": "St.", "addr:postcode": "66386", "addr:country": "DE", "name": "Lidl", "opening_hours": "Mo-Sa 07:00-20:00", "brand": "Lidl", "brand:wikidata": "Q151954", "nsi_id": "lidl-5866c3"}, "geometry": {"type": "Point", "coordinates": [7.12976, 49.27206]}},
{"type": "Feature", "id": "8NC_AlnZiN8KA6SMdIRbZQG10Bc=", "properties": {"ref": "49.328546.75812", "@spider": "lidl_de", "shop": "supermarket", "addr:street_address": "Am Kirchenbach 44", "addr:city": "Saarlouis", "addr:postcode": "66740", "addr:country": "DE", "name": "Lidl", "opening_hours": "Mo-Sa 07:00-20:00", "brand": "Lidl", "brand:wikidata": "Q151954", "nsi_id": "lidl-5866c3"}, "geometry": {"type": "Point", "coordinates": [6.75812, 49.32854]}},
{"type": "Feature", "id": "Aw1tNWfqTnDIYb8JKa4ZL4URfcA=", "properties": {"ref": "49.271787.02137", "@spider": "lidl_de", "shop": "supermarket", "addr:street_address": "Sulzbachtalstr. 86-90", "addr:city": "Saarbr\u00fccken", "addr:postcode": "66125", "addr:country": "DE", "name": "Lidl", "opening_hours": "Mo-Sa 07:00-20:00", "brand": "Lidl", "brand:wikidata": "Q151954", "nsi_id": "lidl-5866c3"}, "geometry": {"type": "Point", "coordinates": [7.02137, 49.27178]}},
{"type": "Feature", "id": "0q1AGim541cPjMl8MSqV58UwOOs=", "properties": {"ref": "49.231347.35403", "@spider": "lidl_de", "shop": "supermarket", "addr:street_address": "Etzelweg 219", "addr:city": "Zweibr\u00fccken", "addr:postcode": "66482", "addr:country": "DE", "name": "Lidl", "opening_hours": "Mo-Sa 07:00-21:00", "brand": "Lidl", "brand:wikidata": "Q151954", "nsi_id": "lidl-5866c3"}, "geometry": {"type": "Point", "coordinates": [7.35403, 49.23134]}},
{"type": "Feature", "id": "h8KTsPwqEz4xqf1Wip7fLIIOcAo=", "properties": {"ref": "49.649778.34042", "@spider": "lidl_de", "shop": "supermarket", "addr:street_address": "Dr.-Carl-Sonnenschein-Str. 1", "addr:city": "Worms", "addr:postcode": "67550", "addr:country": "DE", "name": "Lidl", "opening_hours": "Mo-Sa 07:00-22:00", "brand": "Lidl", "brand:wikidata": "Q151954", "nsi_id": "lidl-5866c3"}, "geometry": {"type": "Point", "coordinates": [8.34042, 49.64977]}},
{"type": "Feature", "id": "3qFVo05hNuHEatDJB8TAH9zbABI=", "properties": {"ref": "49.741556.63322", "@spider": "lidl_de", "shop": "supermarket", "addr:street_address": "Matthiasstr. 7-9", "addr:city": "Trier", "addr:postcode": "54290", "addr:country": "DE", "name": "Lidl", "opening_hours": "Mo-Sa 07:00-21:00", "brand": "Lidl", "brand:wikidata": "Q151954", "nsi_id": "lidl-5866c3"}, "geometry": {"type": "Point", "coordinates": [6.63322, 49.74155]}},
{"type": "Feature", "id": "lr8afoAn3FsnH5OvihKf85aw5os=", "properties": {"ref": "49.213627.59819", "@spider": "lidl_de", "shop": "supermarket", "addr:street_address": "Zweibr\u00fccker Str. 116", "addr:city": "Pirmasens", "addr:postcode": "66953", "addr:country": "DE", "name": "Lidl", "opening_hours": "Mo-Sa 07:00-21:00", "brand": "Lidl", "brand:wikidata": "Q151954", "nsi_id": "lidl-5866c3"}, "geometry": {"type": "Point", "coordinates": [7.59819, 49.21362]}},
{"type": "Feature", "id": "q6wlGTrYPVOOQ53KXt1QUD0MxRw=", "properties": {"ref": "49.331498.20264", "@spider": "lidl_de", "shop": "supermarket", "addr:street_address": "Ha\u00dflocher Str. 55", "addr:city": "Neustadt", "addr:postcode": "67435", "addr:country": "DE", "name": "Lidl", "opening_hours": "Mo-Sa 07:00-21:00", "brand": "Lidl", "brand:wikidata": "Q151954", "nsi_id": "lidl-5866c3"}, "geometry": {"type": "Point", "coordinates": [8.20264, 49.33149]}},
{"type": "Feature", "id": "DCIOVUUdnMWX9KETL30eQr6iJmw=", "properties": {"ref": "50.442737.55458", "@spider": "lidl_de", "shop": "supermarket", "addr:street_address": "Sayner Str. 60", "addr:city": "Neuwied", "addr:postcode": "56566", "addr:country": "DE", "name": "Lidl", "opening_hours": "Mo-Sa 07:00-21:00", "brand": "Lidl", "brand:wikidata": "Q151954", "nsi_id": "lidl-5866c3"}, "geometry": {"type": "Point", "coordinates": [7.55458, 50.44273]}},
{"type": "Feature", "id": "JJZjTZYEu8Md1yBbQf2me3kDM_c=", "properties": {"ref": "50.003018.2673", "@spider": "lidl_de", "shop": "supermarket", "addr:street_address": "Gro\u00dfe Bleiche 41-45", "addr:city": "Mainz", "addr:postcode": "55116", "addr:country": "DE", "name": "Lidl", "opening_hours": "Mo-Sa 07:00-21:00", "brand": "Lidl", "brand:wikidata": "Q151954", "nsi_id": "lidl-5866c3"}, "geometry": {"type": "Point", "coordinates": [8.2673, 50.00301]}},
{"type": "Feature", "id": "b62YupkhX_qJEiuIEUaTdU-7r-g=", "properties": {"ref": "49.487098.41551", "@spider": "lidl_de", "shop": "supermarket", "addr:street_address": "Industriestr. 10", "addr:city": "Ludwigshafen", "addr:postcode": "67063", "addr:country": "DE", "name": "Lidl", "opening_hours": "Mo-Sa 07:00-22:00", "brand": "Lidl", "brand:wikidata": "Q151954", "nsi_id": "lidl-5866c3"}, "geometry": {"type": "Point", "coordinates": [8.41551, 49.48709]}},
{"type": "Feature", "id": "A-nL_gTbgz0hJ5e8ATKMz2ptjlQ=", "properties": {"ref": "50.358067.61082", "@spider": "lidl_de", "shop": "supermarket", "addr:street_address": "Im Teichert 115", "addr:city": "Koblenz", "addr:postcode": "56076", "addr:country": "DE", "name": "Lidl", "opening_hours": "Mo-Sa 07:00-21:00", "brand": "Lidl", "brand:wikidata": "Q151954", "nsi_id": "lidl-5866c3"}, "geometry": {"type": "Point", "coordinates": [7.61082, 50.35806]}},
{"type": "Feature", "id": "UieqA_8nJU8pb8QqLgAVuouWOC0=", "properties": {"ref": "49.446847.79472", "@spider": "lidl_de", "shop": "supermarket", "addr:street_address": "Mennonitenstr. 21", "addr:city": "Kaiserslautern", "addr:postcode": "67657", "addr:country": "DE", "name": "Lidl", "opening_hours": "Mo-Sa 07:00-21:00", "brand": "Lidl", "brand:wikidata": "Q151954", "nsi_id": "lidl-5866c3"}, "geometry": {"type": "Point", "coordinates": [7.79472, 49.44684]}},
{"type": "Feature", "id": "R0TVO_9O5JIRcDv-WAw4th5m9SY=", "properties": {"ref": "51.274067.20805", "@spider": "lidl_de", "shop": "supermarket", "addr:street_address": "Rauer Werth 4", "addr:city": "Wuppertal", "addr:postcode": "42275", "addr:country": "DE", "name": "Lidl", "opening_hours": "Mo-Sa 07:00-21:00", "brand": "Lidl", "brand:wikidata": "Q151954", "nsi_id": "lidl-5866c3"}, "geometry": {"type": "Point", "coordinates": [7.20805, 51.27406]}},
{"type": "Feature", "id": "zeMou39pz_B1O5eCi8Egv5CA1Ms=", "properties": {"ref": "51.67346.60852", "@spider": "lidl_de", "shop": "supermarket", "addr:street_address": "Reeser Landstr. 66", "addr:city": "Wesel", "addr:postcode": "46483", "addr:country": "DE", "name": "Lidl", "opening_hours": "Mo-Sa 07:00-21:00", "brand": "Lidl", "brand:wikidata": "Q151954", "nsi_id": "lidl-5866c3"}, "geometry": {"type": "Point", "coordinates": [6.60852, 51.6734]}},
{"type": "Feature", "id": "S19mdgFThaapvGr6DWz2a4IgqdU=", "properties": {"ref": "51.488798.26933", "@spider": "lidl_de", "shop": "supermarket", "addr:street_address": "M\u00f6hnestr. 142", "addr:city": "Warstein", "addr:postcode": "59581", "addr:country": "DE", "name": "Lidl", "opening_hours": "Mo-Sa 07:00-20:00", "brand": "Lidl", "brand:wikidata": "Q151954", "nsi_id": "lidl-5866c3"}, "geometry": {"type": "Point", "coordinates": [8.26933, 51.48879]}},
{"type": "Feature", "id": "81yZe8GhDq-lKUZA-_mAkvg4oaw=", "properties": {"ref": "51.62786.64431", "@spider": "lidl_de", "shop": "supermarket", "addr:street_address": "Poststr. 6a", "addr:city": "Voerde", "addr:postcode": "46562", "addr:country": "DE", "name": "Lidl", "opening_hours": "Mo-Sa 07:00-21:00", "brand": "Lidl", "brand:wikidata": "Q151954", "nsi_id": "lidl-5866c3"}, "geometry": {"type": "Point", "coordinates": [6.64431, 51.6278]}},
{"type": "Feature", "id": "9XiKy-n1gmDVfUl3QnAYwOCtwLo=", "properties": {"ref": "51.25976.33641", "@spider": "lidl_de", "shop": "supermarket", "addr:street_address": "Heiligenstr. 1", "addr:city": "Viersen", "addr:postcode": "41751", "addr:country": "DE", "name": "Lidl", "opening_hours": "Mo-Sa 07:00-21:00", "brand": "Lidl", "brand:wikidata": "Q151954", "nsi_id": "lidl-5866c3"}, "geometry": {"type": "Point", "coordinates": [6.33641, 51.2597]}},
{"type": "Feature", "id": "Q17U397tuxNeivOrXWQHPlnnlTk=", "properties": {"ref": "51.359837.124", "@spider": "lidl_de", "shop": "supermarket", "addr:street_address": "Bonsfelder Str. 1", "addr:city": "Velbert", "addr:postcode": "42555", "addr:country": "DE", "name": "Lidl", "opening_hours": "Mo-Sa 07:00-21:00", "brand": "Lidl", "brand:wikidata": "Q151954", "nsi_id": "lidl-5866c3"}, "geometry": {"type": "Point", "coordinates": [7.124, 51.35983]}},
{"type": "Feature", "id": "SL9WsJhWTbYmTxx1LZ7bInlfdLI=", "properties": {"ref": "51.557767.68279", "@spider": "lidl_de", "shop": "supermarket", "addr:street_address": "Kamener Str. 37-39", "addr:city": "Unna", "addr:postcode": "59425", "addr:country": "DE", "name": "Lidl", "opening_hours": "Mo-Sa 07:00-21:00", "brand": "Lidl", "brand:wikidata": "Q151954", "nsi_id": "lidl-5866c3"}, "geometry": {"type": "Point", "coordinates": [7.68279, 51.55776]}},
{"type": "Feature", "id": "oSgc_v4zkWATVC9x4Q-XCf2DFOw=", "properties": {"ref": "50.810467.12731", "@spider": "lidl_de", "shop": "supermarket", "addr:street_address": "Im Zehntfeld 68", "addr:city": "Troisdorf", "addr:postcode": "53844", "addr:country": "DE", "name": "Lidl", "opening_hours": "Mo-Sa 07:00-21:00", "brand": "Lidl", "brand:wikidata": "Q151954", "nsi_id": "lidl-5866c3"}, "geometry": {"type": "Point", "coordinates": [7.12731, 50.81046]}},
{"type": "Feature", "id": "K4donNBeiu88CO8JyuxJ3JLhs9I=", "properties": {"ref": "50.766386.21844", "@spider": "lidl_de", "shop": "supermarket", "addr:street_address": "Ardennenstr. 5", "addr:city": "Stolberg", "addr:postcode": "52223", "addr:country": "DE", "name": "Lidl", "opening_hours": "Mo-Sa 07:00-21:00", "brand": "Lidl", "brand:wikidata": "Q151954", "nsi_id": "lidl-5866c3"}, "geometry": {"type": "Point", "coordinates": [6.21844, 50.76638]}},
{"type": "Feature", "id": "JGHqPGUsi-80NczCIsr2d_HA4Bg=", "properties": {"ref": "52.118227.39608", "@spider": "lidl_de", "shop": "supermarket", "addr:street_address": "Altenberger Str. 5", "addr:city": "Steinfurt", "addr:postcode": "48565", "addr:country": "DE", "name": "Lidl", "opening_hours": "Mo-Sa 07:00-21:00", "brand": "Lidl", "brand:wikidata": "Q151954", "nsi_id": "lidl-5866c3"}, "geometry": {"type": "Point", "coordinates": [7.39608, 52.11822]}},
{"type": "Feature", "id": "T6bakn0P_b1YkqztmO0prlwL790=", "properties": {"ref": "51.15957.07495", "@spider": "lidl_de", "shop": "supermarket", "addr:street_address": "Gr\u00fcnewalder Str. 85", "addr:city": "Solingen", "addr:postcode": "42657", "addr:country": "DE", "name": "Lidl", "opening_hours": "Mo-Sa 07:00-22:00", "brand": "Lidl", "brand:wikidata": "Q151954", "nsi_id": "lidl-5866c3"}, "geometry": {"type": "Point", "coordinates": [7.07495, 51.1595]}},
{"type": "Feature", "id": "x_aA7fJqi3byTMZYwxD7LQ7qMn8=", "properties": {"ref": "50.84237.98776", "@spider": "lidl_de", "shop": "supermarket", "addr:street_address": "Eiserfelder Str. 342", "addr:city": "Siegen", "addr:postcode": "57080", "addr:country": "DE", "name": "Lidl", "opening_hours": "Mo-Sa 07:00-21:00", "brand": "Lidl", "brand:wikidata": "Q151954", "nsi_id": "lidl-5866c3"}, "geometry": {"type": "Point", "coordinates": [7.98776, 50.8423]}},
{"type": "Feature", "id": "j8diK3RnsPJQyeaZ2BZOfBgoZHg=", "properties": {"ref": "51.446477.58164", "@spider": "lidl_de", "shop": "supermarket", "addr:street_address": "Sch\u00fctzenstr. 34a", "addr:city": "Schwerte", "addr:postcode": "58239", "addr:country": "DE", "name": "Lidl", "opening_hours": "Mo-Sa 07:00-21:00", "brand": "Lidl", "brand:wikidata": "Q151954", "nsi_id": "lidl-5866c3"}, "geometry": {"type": "Point", "coordinates": [7.58164, 51.44647]}},
{"type": "Feature", "id": "sY2n55i75JW_SGf9-j45zwxSzGA=", "properties": {"ref": "51.288737.30326", "@spider": "lidl_de", "shop": "supermarket", "addr:street_address": "Oelkinghauser Str. 3", "addr:city": "Schwelm", "addr:postcode": "58332", "addr:country": "DE", "name": "Lidl", "opening_hours": "Mo-Sa 07:00-21:00", "brand": "Lidl", "brand:wikidata": "Q151954", "nsi_id": "lidl-5866c3"}, "geometry": {"type": "Point", "coordinates": [7.30326, 51.28873]}},
{"type": "Feature", "id": "sTAw75HEACGQsd1a8rrTvug4QNM=", "properties": {"ref": "51.18428.31777", "@spider": "lidl_de", "shop": "supermarket", "addr:street_address": "Wehrscheid 22", "addr:city": "Schmallenberg", "addr:postcode": "57392", "addr:country": "DE", "name": "Lidl", "opening_hours": "Mo-Sa 07:00-21:00", "brand": "Lidl", "brand:wikidata": "Q151954", "nsi_id": "lidl-5866c3"}, "geometry": {"type": "Point", "coordinates": [8.31777, 51.1842]}},
{"type": "Feature", "id": "wDc3NHrH4mw0--FVmS4oGbzJoMU=", "properties": {"ref": "52.226167.48862", "@spider": "lidl_de", "shop": "supermarket", "addr:street_address": "Dechant-R\u00f6mer-Str. 19", "addr:city": "Rheine", "addr:postcode": "48432", "addr:country": "DE", "name": "Lidl", "opening_hours": "Mo-Sa 07:00-21:00", "brand": "Lidl", "brand:wikidata": "Q151954", "nsi_id": "lidl-5866c3"}, "geometry": {"type": "Point", "coordinates": [7.48862, 52.22616]}},
{"type": "Feature", "id": "AI6chw_2rVb4kaa-_ib7yJZ56CI=", "properties": {"ref": "51.183337.25527", "@spider": "lidl_de", "shop": "supermarket", "addr:street_address": "Franz-Vogt-Str. 1", "addr:city": "Remscheid", "addr:postcode": "42897", "addr:country": "DE", "name": "Lidl", "opening_hours": "Mo-Sa 07:00-21:00", "brand": "Lidl", "brand:wikidata": "Q151954", "nsi_id": "lidl-5866c3"}, "geometry": {"type": "Point", "coordinates": [7.25527, 51.18333]}},
{"type": "Feature", "id": "secLmH-IfKedJYpDZ-UrpIIb-Os=", "properties": {"ref": "51.608757.27208", "@spider": "lidl_de", "shop": "supermarket", "addr:street_address": "Sachsenstr. 101 b", "addr:city": "Recklinghausen", "addr:postcode": "45665", "addr:country": "DE", "name": "Lidl", "opening_hours": "Mo-Sa 07:00-21:00", "brand": "Lidl", "brand:wikidata": "Q151954", "nsi_id": "lidl-5866c3"}, "geometry": {"type": "Point", "coordinates": [7.27208, 51.60875]}},
{"type": "Feature", "id": "cDRdoAEEWTj5mU7VfrhR2FU6oBE=", "properties": {"ref": "51.230497.87179", "@spider": "lidl_de", "shop": "supermarket", "addr:street_address": "Breddestr. 1b", "addr:city": "Plettenberg", "addr:postcode": "58840", "addr:country": "DE", "name": "Lidl", "opening_hours": "Mo-Sa 07:00-21:00", "brand": "Lidl", "brand:wikidata": "Q151954", "nsi_id": "lidl-5866c3"}, "geometry": {"type": "Point", "coordinates": [7.87179, 51.23049]}},
{"type": "Feature", "id": "ktjfVIjTzWRq4RBxGsf02QW833k=", "properties": {"ref": "51.730418.69186", "@spider": "lidl_de", "shop": "supermarket", "addr:street_address": "Me\u00dfdornstr. 3", "addr:city": "Paderborn", "addr:postcode": "33106", "addr:country": "DE", "name": "Lidl", "opening_hours": "Mo-Sa 07:00-21:00", "brand": "Lidl", "brand:wikidata": "Q151954", "nsi_id": "lidl-5866c3"}, "geometry": {"type": "Point", "coordinates": [8.69186, 51.73041]}},
{"type": "Feature", "id": "hhSrghJK4l94f1K1F0pLZ-xi8C0=", "properties": {"ref": "50.964027.32263", "@spider": "lidl_de", "shop": "supermarket", "addr:street_address": "Steinhauser Auel 1", "addr:city": "Overath", "addr:postcode": "51491", "addr:country": "DE", "name": "Lidl", "opening_hours": "Mo-Sa 07:00-21:00", "brand": "Lidl", "brand:wikidata": "Q151954", "nsi_id": "lidl-5866c3"}, "geometry": {"type": "Point", "coordinates": [7.32263, 50.96402]}},
{"type": "Feature", "id": "nIx3XVBqDRfACWIaxiZX5RKGK7o=", "properties": {"ref": "51.64157.24845", "@spider": "lidl_de", "shop": "supermarket", "addr:street_address": "An der Feuerwache 1", "addr:city": "Oer-Erkenschwick", "addr:postcode": "45739", "addr:country": "DE", "name": "Lidl", "opening_hours": "Mo-Sa 07:00-21:00", "brand": "Lidl", "brand:wikidata": "Q151954", "nsi_id": "lidl-5866c3"}, "geometry": {"type": "Point", "coordinates": [7.24845, 51.6415]}},
{"type": "Feature", "id": "98mSaa7n81-ilkRVCtkNmrtu7Zg=", "properties": {"ref": "51.519866.82936", "@spider": "lidl_de", "shop": "supermarket", "addr:street_address": "Weierstr. 87", "addr:city": "Oberhausen", "addr:postcode": "46149", "addr:country": "DE", "name": "Lidl", "opening_hours": "Mo-Sa 07:00-21:00", "brand": "Lidl", "brand:wikidata": "Q151954", "nsi_id": "lidl-5866c3"}, "geometry": {"type": "Point", "coordinates": [6.82936, 51.51986]}},
{"type": "Feature", "id": "cfkXjQhPt4g1rJtt_pLD6dfkkVk=", "properties": {"ref": "50.83057.03086", "@spider": "lidl_de", "shop": "supermarket", "addr:street_address": "Porzer Stra\u00dfe 75", "addr:city": "Niederkassel", "addr:postcode": "53859", "addr:country": "DE", "name": "Lidl", "opening_hours": "Mo-Sa 07:00-21:00", "brand": "Lidl", "brand:wikidata": "Q151954", "nsi_id": "lidl-5866c3"}, "geometry": {"type": "Point", "coordinates": [7.03086, 50.8305]}},
{"type": "Feature", "id": "WGyHAnDKgnQ-rZJNhYAPs6gRdZc=", "properties": {"ref": "51.147796.70359", "@spider": "lidl_de", "shop": "supermarket", "addr:street_address": "Am Hummelbach 40", "addr:city": "Neuss", "addr:postcode": "41469", "addr:country": "DE", "name": "Lidl", "opening_hours": "Mo-Sa 07:00-21:00", "brand": "Lidl", "brand:wikidata": "Q151954", "nsi_id": "lidl-5866c3"}, "geometry": {"type": "Point", "coordinates": [6.70359, 51.14779]}},
{"type": "Feature", "id": "I1dhaFp7aEjhfGWaBgZNEfU9hQg=", "properties": {"ref": "50.836537.33043", "@spider": "lidl_de", "shop": "supermarket", "addr:street_address": "Zum Kisseltal 2", "addr:city": "Neunkirchen", "addr:postcode": "53819", "addr:country": "DE", "name": "Lidl", "opening_hours": "Mo-Sa 07:00-21:00", "brand": "Lidl", "brand:wikidata": "Q151954", "nsi_id": "lidl-5866c3"}, "geometry": {"type": "Point", "coordinates": [7.33043, 50.83653]}},
{"type": "Feature", "id": "wrGe8mZnr29JyqlT1-GIxxxPViU=", "properties": {"ref": "51.326246.19919", "@spider": "lidl_de", "shop": "supermarket", "addr:street_address": "Poststr. 67-73", "addr:city": "Nettetal", "addr:postcode": "41334", "addr:country": "DE", "name": "Lidl", "opening_hours": "Mo-Sa 07:00-21:00", "brand": "Lidl", "brand:wikidata": "Q151954", "nsi_id": "lidl-5866c3"}, "geometry": {"type": "Point", "coordinates": [6.19919, 51.32624]}},
{"type": "Feature", "id": "Oq3X1gGpIy-Q1-SYoLegqhjF0jM=", "properties": {"ref": "51.966757.57843", "@spider": "lidl_de", "shop": "supermarket", "addr:street_address": "Arnheimweg 9", "addr:city": "M\u00fcnster", "addr:postcode": "48149", "addr:country": "DE", "name": "Lidl", "opening_hours": "Mo-Sa 07:00-21:00", "brand": "Lidl", "brand:wikidata": "Q151954", "nsi_id": "lidl-5866c3"}, "geometry": {"type": "Point", "coordinates": [7.57843, 51.96675]}},
{"type": "Feature", "id": "XOBpUMDKHV6XNeEItqq9x2dfhWA=", "properties": {"ref": "51.427856.89869", "@spider": "lidl_de", "shop": "supermarket", "addr:street_address": "Essener Str. 44", "addr:city": "M\u00fclheim", "addr:postcode": "45470", "addr:country": "DE", "name": "Lidl", "opening_hours": "Mo-Sa 07:00-21:00", "brand": "Lidl", "brand:wikidata": "Q151954", "nsi_id": "lidl-5866c3"}, "geometry": {"type": "Point", "coordinates": [6.89869, 51.42785]}},
{"type": "Feature", "id": "mMdWDj4YgRwCoNZY_BCvJTUTIoI=", "properties": {"ref": "51.458646.88308", "@spider": "lidl_de", "shop": "supermarket", "addr:street_address": "Heifeskamp 18", "addr:city": "M\u00fclheim", "addr:postcode": "45475", "addr:country": "DE", "name": "Lidl", "opening_hours": "Mo-Sa 07:00-21:00", "brand": "Lidl", "brand:wikidata": "Q151954", "nsi_id": "lidl-5866c3"}, "geometry": {"type": "Point", "coordinates": [6.88308, 51.45864]}},
{"type": "Feature", "id": "taqr_W7q22NRI-8HBXzwjGOzHf4=", "properties": {"ref": "51.203556.45939", "@spider": "lidl_de", "shop": "supermarket", "addr:street_address": "Neusser Str. 57", "addr:city": "M\u00f6nchengladbach", "addr:postcode": "41065", "addr:country": "DE", "name": "Lidl", "opening_hours": "Mo-Sa 07:00-21:00", "brand": "Lidl", "brand:wikidata": "Q151954", "nsi_id": "lidl-5866c3"}, "geometry": {"type": "Point", "coordinates": [6.45939, 51.20355]}},
{"type": "Feature", "id": "GIdS-nW-t2ahSC95Fbj5F5lU8mY=", "properties": {"ref": "51.442646.66185", "@spider": "lidl_de", "shop": "supermarket", "addr:street_address": "R\u00f6merstr. 446", "addr:city": "Moers", "addr:postcode": "47441", "addr:country": "DE", "name": "Lidl", "opening_hours": "Mo-Sa 07:00-21:00", "brand": "Lidl", "brand:wikidata": "Q151954", "nsi_id": "lidl-5866c3"}, "geometry": {"type": "Point", "coordinates": [6.66185, 51.44264]}},
{"type": "Feature", "id": "Jg8Gai4jquPGQrfrC_obY4aeZl0=", "properties": {"ref": "52.274538.88847", "@spider": "lidl_de", "shop": "supermarket", "addr:street_address": "Schwabenring 6", "addr:city": "Minden", "addr:postcode": "32427", "addr:country": "DE", "name": "Lidl", "opening_hours": "Mo-Sa 07:00-21:00", "brand": "Lidl", "brand:wikidata": "Q151954", "nsi_id": "lidl-5866c3"}, "geometry": {"type": "Point", "coordinates": [8.88847, 52.27453]}},
{"type": "Feature", "id": "9Lotvl5yrd6eXf-HFrNfiMwmZu4=", "properties": {"ref": "51.360588.29648", "@spider": "lidl_de", "shop": "supermarket", "addr:street_address": "Im schwarzen Bruch 46", "addr:city": "Meschede", "addr:postcode": "59872", "addr:country": "DE", "name": "Lidl", "opening_hours": "Mo-Sa 07:00-21:00", "brand": "Lidl", "brand:wikidata": "Q151954", "nsi_id": "lidl-5866c3"}, "geometry": {"type": "Point", "coordinates": [8.29648, 51.36058]}},
{"type": "Feature", "id": "k93TLuS6Ys2HNwY4xGwbVM3fO14=", "properties": {"ref": "51.450797.75781", "@spider": "lidl_de", "shop": "supermarket", "addr:street_address": "Holzener Dorfstr. 8", "addr:city": "Menden", "addr:postcode": "58708", "addr:country": "DE", "name": "Lidl", "opening_hours": "Mo-Sa 07:00-21:00", "brand": "Lidl", "brand:wikidata": "Q151954", "nsi_id": "lidl-5866c3"}, "geometry": {"type": "Point", "coordinates": [7.75781, 51.45079]}},
{"type": "Feature", "id": "nEGN1Q0aEcbp6mxqZipLu3Chd4I=", "properties": {"ref": "51.112327.63844", "@spider": "lidl_de", "shop": "supermarket", "addr:street_address": "Am B\u00fccking 2", "addr:city": "Meinerzhagen", "addr:postcode": "58540", "addr:country": "DE", "name": "Lidl", "opening_hours": "Mo-Sa 07:00-21:00", "brand": "Lidl", "brand:wikidata": "Q151954", "nsi_id": "lidl-5866c3"}, "geometry": {"type": "Point", "coordinates": [7.63844, 51.11232]}},
{"type": "Feature", "id": "aFQgSHkMV4u8n3VPxIk5fWBYXKA=", "properties": {"ref": "51.667387.09257", "@spider": "lidl_de", "shop": "supermarket", "addr:street_address": "D\u00fcmmer Weg 201", "addr:city": "Marl", "addr:postcode": "45772", "addr:country": "DE", "name": "Lidl", "opening_hours": "Mo-Sa 07:00-21:00", "brand": "Lidl", "brand:wikidata": "Q151954", "nsi_id": "lidl-5866c3"}, "geometry": {"type": "Point", "coordinates": [7.09257, 51.66738]}},
{"type": "Feature", "id": "eoF4L0apg9EQlmyTqc5mxIcI3e4=", "properties": {"ref": "51.628577.48984", "@spider": "lidl_de", "shop": "supermarket", "addr:street_address": "Alstedder Str. 169-171", "addr:city": "L\u00fcnen", "addr:postcode": "44534", "addr:country": "DE", "name": "Lidl", "opening_hours": "Mo-Sa 08:00-21:00", "brand": "Lidl", "brand:wikidata": "Q151954", "nsi_id": "lidl-5866c3"}, "geometry": {"type": "Point", "coordinates": [7.48984, 51.62857]}},
{"type": "Feature", "id": "t4ktdsl-_r5rgJBk3sez3RYFfew=", "properties": {"ref": "51.687038.34307", "@spider": "lidl_de", "shop": "supermarket", "addr:street_address": "Wiedenbr\u00fccker Stra\u00dfe 78", "addr:city": "Lippstadt", "addr:postcode": "59555", "addr:country": "DE", "name": "Lidl", "opening_hours": "Mo-Sa 07:00-21:00", "brand": "Lidl", "brand:wikidata": "Q151954", "nsi_id": "lidl-5866c3"}, "geometry": {"type": "Point", "coordinates": [8.34307, 51.68703]}},
{"type": "Feature", "id": "CGCYlrc42EE5iiGSN9JywsVPoNA=", "properties": {"ref": "51.043776.99237", "@spider": "lidl_de", "shop": "supermarket", "addr:street_address": "Hardenbergstr. 80", "addr:city": "Leverkusen", "addr:postcode": "51373", "addr:country": "DE", "name": "Lidl", "opening_hours": "Mo-Sa 07:00-21:00", "brand": "Lidl", "brand:wikidata": "Q151954", "nsi_id": "lidl-5866c3"}, "geometry": {"type": "Point", "coordinates": [6.99237, 51.04377]}},
{"type": "Feature", "id": "dWCITHDZP0CPTND5IHCaXhT7P4M=", "properties": {"ref": "50.936516.94843", "@spider": "lidl_de", "shop": "supermarket", "addr:street_address": "Neumarkt 8-10", "addr:city": "K\u00f6ln", "addr:postcode": "50667", "addr:country": "DE", "name": "Lidl", "opening_hours": "Mo-Sa 07:00-21:00", "brand": "Lidl", "brand:wikidata": "Q151954", "nsi_id": "lidl-5866c3"}, "geometry": {"type": "Point", "coordinates": [6.94843, 50.93651]}},
{"type": "Feature", "id": "nkssf15JOBn-amO0iisRFztXn3Y=", "properties": {"ref": "51.322946.54899", "@spider": "lidl_de", "shop": "supermarket", "addr:street_address": "Nauenweg 78-80", "addr:city": "Krefeld", "addr:postcode": "47804", "addr:country": "DE", "name": "Lidl", "opening_hours": "Mo-Sa 07:00-21:00", "brand": "Lidl", "brand:wikidata": "Q151954", "nsi_id": "lidl-5866c3"}, "geometry": {"type": "Point", "coordinates": [6.54899, 51.32294]}},
{"type": "Feature", "id": "8xHCnyBR6_7JP6ojiXspAZ6LKTk=", "properties": {"ref": "50.845036.78371", "@spider": "lidl_de", "shop": "supermarket", "addr:street_address": "Heerstr. 507", "addr:city": "Kerpen", "addr:postcode": "50169", "addr:country": "DE", "name": "Lidl", "opening_hours": "Mo-Sa 07:00-21:00", "brand": "Lidl", "brand:wikidata": "Q151954", "nsi_id": "lidl-5866c3"}, "geometry": {"type": "Point", "coordinates": [6.78371, 50.84503]}},
{"type": "Feature", "id": "GAQxF8cUUn9Ums0dBFUoy5ehZqs=", "properties": {"ref": "51.374137.72973", "@spider": "lidl_de", "shop": "supermarket", "addr:street_address": "Westfalenstr. 81", "addr:city": "Iserlohn", "addr:postcode": "58636", "addr:country": "DE", "name": "Lidl", "opening_hours": "Mo-Sa 07:00-21:00", "brand": "Lidl", "brand:wikidata": "Q151954", "nsi_id": "lidl-5866c3"}, "geometry": {"type": "Point", "coordinates": [7.72973, 51.37413]}},
{"type": "Feature", "id": "SKsLAl6N1QAiProKgGKtoytR3qY=", "properties": {"ref": "52.288927.72712", "@spider": "lidl_de", "shop": "supermarket", "addr:street_address": "Osnabr\u00fccker Stra\u00dfe 97", "addr:city": "Ibbenb\u00fcren", "addr:postcode": "49477", "addr:country": "DE", "name": "Lidl", "opening_hours": "Mo-Sa 07:00-21:00", "brand": "Lidl", "brand:wikidata": "Q151954", "nsi_id": "lidl-5866c3"}, "geometry": {"type": "Point", "coordinates": [7.72712, 52.28892]}},
{"type": "Feature", "id": "jfutBpcu0gKpLUB0BEyHZ4xzGbc=", "properties": {"ref": "50.874966.89029", "@spider": "lidl_de", "shop": "supermarket", "addr:street_address": "K\u00f6lnstr. 110", "addr:city": "H\u00fcrth", "addr:postcode": "50354", "addr:country": "DE", "name": "Lidl", "opening_hours": "Mo-Sa 07:00-21:00", "brand": "Lidl", "brand:wikidata": "Q151954", "nsi_id": "lidl-5866c3"}, "geometry": {"type": "Point", "coordinates": [6.89029, 50.87496]}},
{"type": "Feature", "id": "qqyYqUnwZs58EAMCj8Sn-9NQ_-k=", "properties": {"ref": "51.164726.91945", "@spider": "lidl_de", "shop": "supermarket", "addr:street_address": "D\u00fcsseldorfer Str. 59", "addr:city": "Hilden", "addr:postcode": "40721", "addr:country": "DE", "name": "Lidl", "opening_hours": "Mo-Sa 07:00-22:00", "brand": "Lidl", "brand:wikidata": "Q151954", "nsi_id": "lidl-5866c3"}, "geometry": {"type": "Point", "coordinates": [6.91945, 51.16472]}},
{"type": "Feature", "id": "J0fvPPfsIjSJXU7wxcoiLHFtuh8=", "properties": {"ref": "50.832816.08435", "@spider": "lidl_de", "shop": "supermarket", "addr:street_address": "Alte Bahn 9", "addr:city": "Herzogenrath", "addr:postcode": "52134", "addr:country": "DE", "name": "Lidl", "opening_hours": "Mo-Sa 07:00-21:00", "brand": "Lidl", "brand:wikidata": "Q151954", "nsi_id": "lidl-5866c3"}, "geometry": {"type": "Point", "coordinates": [6.08435, 50.83281]}},
{"type": "Feature", "id": "VFubjYb2buvDZNsXc6aXxeNx41A=", "properties": {"ref": "51.602577.15671", "@spider": "lidl_de", "shop": "supermarket", "addr:street_address": "Kaiserstr. 223", "addr:city": "Herten", "addr:postcode": "45701", "addr:country": "DE", "name": "Lidl", "opening_hours": "Mo-Sa 07:00-21:00", "brand": "Lidl", "brand:wikidata": "Q151954", "nsi_id": "lidl-5866c3"}, "geometry": {"type": "Point", "coordinates": [7.15671, 51.60257]}},
{"type": "Feature", "id": "KTjJ_Yir6gP_HPjti0o0rPAFueo=", "properties": {"ref": "51.549487.21956", "@spider": "lidl_de", "shop": "supermarket", "addr:street_address": "Roonstr. 14", "addr:city": "Herne", "addr:postcode": "44629", "addr:country": "DE", "name": "Lidl", "opening_hours": "Mo-Sa 07:00-21:00", "brand": "Lidl", "brand:wikidata": "Q151954", "nsi_id": "lidl-5866c3"}, "geometry": {"type": "Point", "coordinates": [7.21956, 51.54948]}},
{"type": "Feature", "id": "PyNo2pDLnfESX-FO4gjhU8fYTv8=", "properties": {"ref": "52.124878.68349", "@spider": "lidl_de", "shop": "supermarket", "addr:street_address": "Mindener Str. 69", "addr:city": "Herford", "addr:postcode": "32049", "addr:country": "DE", "name": "Lidl", "opening_hours": "Mo-Sa 07:00-21:00", "brand": "Lidl", "brand:wikidata": "Q151954", "nsi_id": "lidl-5866c3"}, "geometry": {"type": "Point", "coordinates": [8.68349, 52.12487]}},
{"type": "Feature", "id": "GDVTOk5S1ptFNUB4hkIWETJnAF4=", "properties": {"ref": "50.773197.30165", "@spider": "lidl_de", "shop": "supermarket", "addr:street_address": "Emil-Langen-Str. 2", "addr:city": "Hennef", "addr:postcode": "53773", "addr:country": "DE", "name": "Lidl", "opening_hours": "Mo-Sa 07:00-21:00", "brand": "Lidl", "brand:wikidata": "Q151954", "nsi_id": "lidl-5866c3"}, "geometry": {"type": "Point", "coordinates": [7.30165, 50.77319]}},
{"type": "Feature", "id": "WiYRxPZnoqMfJgRGMAs6KHBNSJk=", "properties": {"ref": "51.066536.0994", "@spider": "lidl_de", "shop": "supermarket", "addr:street_address": "Unterbrucher Str. 1", "addr:city": "Heinsberg", "addr:postcode": "52525", "addr:country": "DE", "name": "Lidl", "opening_hours": "Mo-Sa 07:00-21:00", "brand": "Lidl", "brand:wikidata": "Q151954", "nsi_id": "lidl-5866c3"}, "geometry": {"type": "Point", "coordinates": [6.0994, 51.06653]}},
{"type": "Feature", "id": "QEUWlHgRV2UU61PQtjxU3luLQUs=", "properties": {"ref": "51.39887.17214", "@spider": "lidl_de", "shop": "supermarket", "addr:street_address": "Kreisstr. 43a", "addr:city": "Hattingen", "addr:postcode": "45525", "addr:country": "DE", "name": "Lidl", "opening_hours": "Mo-Sa 07:00-21:00", "brand": "Lidl", "brand:wikidata": "Q151954", "nsi_id": "lidl-5866c3"}, "geometry": {"type": "Point", "coordinates": [7.17214, 51.3988]}},
{"type": "Feature", "id": "BpZ1J4ori4f1czhc-eGlTG8xEAs=", "properties": {"ref": "51.695137.75951", "@spider": "lidl_de", "shop": "supermarket", "addr:street_address": "Friedrich-Ebert-Str. 14", "addr:city": "Hamm", "addr:postcode": "59075", "addr:country": "DE", "name": "Lidl", "opening_hours": "Mo-Sa 07:00-21:00", "brand": "Lidl", "brand:wikidata": "Q151954", "nsi_id": "lidl-5866c3"}, "geometry": {"type": "Point", "coordinates": [7.75951, 51.69513]}},
{"type": "Feature", "id": "Xp91itdLXeJY_G1CfwXsxOkU6GY=", "properties": {"ref": "51.377447.46166", "@spider": "lidl_de", "shop": "supermarket", "addr:street_address": "Alexanderstr. 16", "addr:city": "Hagen", "addr:postcode": "58097", "addr:country": "DE", "name": "Lidl", "opening_hours": "Mo-Sa 07:00-21:00", "brand": "Lidl", "brand:wikidata": "Q151954", "nsi_id": "lidl-5866c3"}, "geometry": {"type": "Point", "coordinates": [7.46166, 51.37744]}},
{"type": "Feature", "id": "-X6kltmopm-Mg4IMpl_aOJ5PO0o=", "properties": {"ref": "51.905028.34583", "@spider": "lidl_de", "shop": "supermarket", "addr:street_address": "Auf dem Stempel 10", "addr:city": "G\u00fctersloh", "addr:postcode": "33334", "addr:country": "DE", "name": "Lidl", "opening_hours": "Mo-Sa 07:00-21:00", "brand": "Lidl", "brand:wikidata": "Q151954", "nsi_id": "lidl-5866c3"}, "geometry": {"type": "Point", "coordinates": [8.34583, 51.90502]}},
{"type": "Feature", "id": "MZ5KcDj2Wo1EirM9OJd-zxD8Zls=", "properties": {"ref": "51.021347.57316", "@spider": "lidl_de", "shop": "supermarket", "addr:street_address": "Industriestr. 2", "addr:city": "Gummersbach", "addr:postcode": "51643", "addr:country": "DE", "name": "Lidl", "opening_hours": "Mo-Sa 07:00-21:00", "brand": "Lidl", "brand:wikidata": "Q151954", "nsi_id": "lidl-5866c3"}, "geometry": {"type": "Point", "coordinates": [7.57316, 51.02134]}},
{"type": "Feature", "id": "5933w4vifFvec91NT5x7IoI53N0=", "properties": {"ref": "52.186997.03158", "@spider": "lidl_de", "shop": "supermarket", "addr:street_address": "Gronauer Str. 120", "addr:city": "Gronau", "addr:postcode": "48599", "addr:country": "DE", "name": "Lidl", "opening_hours": "Mo-Sa 07:00-21:00", "brand": "Lidl", "brand:wikidata": "Q151954", "nsi_id": "lidl-5866c3"}, "geometry": {"type": "Point", "coordinates": [7.03158, 52.18699]}},
{"type": "Feature", "id": "IYToOUKz7G3aRJz3lFU-myCr9LI=", "properties": {"ref": "51.089426.5762", "@spider": "lidl_de", "shop": "supermarket", "addr:street_address": "Am Hammerwerk 31", "addr:city": "Grevenbroich", "addr:postcode": "41515", "addr:country": "DE", "name": "Lidl", "opening_hours": "Mo-Sa 07:00-21:00", "brand": "Lidl", "brand:wikidata": "Q151954", "nsi_id": "lidl-5866c3"}, "geometry": {"type": "Point", "coordinates": [6.5762, 51.08942]}},
{"type": "Feature", "id": "ZsB9BfcnJ1OMhUdoBmZqstgEuRA=", "properties": {"ref": "52.097167.61157", "@spider": "lidl_de", "shop": "supermarket", "addr:street_address": "Saerbecker Str. 10-12", "addr:city": "Greven", "addr:postcode": "48268", "addr:country": "DE", "name": "Lidl", "opening_hours": "Mo-Sa 07:00-21:00", "brand": "Lidl", "brand:wikidata": "Q151954", "nsi_id": "lidl-5866c3"}, "geometry": {"type": "Point", "coordinates": [7.61157, 52.09716]}},
{"type": "Feature", "id": "6AicH-ti83UKt9qqYbVF6pk1UKs=", "properties": {"ref": "51.68666.15912", "@spider": "lidl_de", "shop": "supermarket", "addr:street_address": "Klever Str. 30", "addr:city": "Goch", "addr:postcode": "47574", "addr:country": "DE", "name": "Lidl", "opening_hours": "Mo-Sa 07:00-21:00", "brand": "Lidl", "brand:wikidata": "Q151954", "nsi_id": "lidl-5866c3"}, "geometry": {"type": "Point", "coordinates": [6.15912, 51.6866]}},
{"type": "Feature", "id": "A-dal99mA54-J2otHiD8QyRp5bY=", "properties": {"ref": "51.551677.00281", "@spider": "lidl_de", "shop": "supermarket", "addr:street_address": "Ro\u00dfheidestra\u00dfe 6", "addr:city": "Gladbeck", "addr:postcode": "45968", "addr:country": "DE", "name": "Lidl", "opening_hours": "Mo-Sa 07:00-21:00", "brand": "Lidl", "brand:wikidata": "Q151954", "nsi_id": "lidl-5866c3"}, "geometry": {"type": "Point", "coordinates": [7.00281, 51.55167]}},
{"type": "Feature", "id": "VXsFZYEK8yzEYVmZN3nS6_oIUwI=", "properties": {"ref": "51.539247.11118", "@spider": "lidl_de", "shop": "supermarket", "addr:street_address": "Grimbergstr. 2", "addr:city": "Gelsenkirchen", "addr:postcode": "45889", "addr:country": "DE", "name": "Lidl", "opening_hours": "Mo-Sa 07:00-21:00", "brand": "Lidl", "brand:wikidata": "Q151954", "nsi_id": "lidl-5866c3"}, "geometry": {"type": "Point", "coordinates": [7.11118, 51.53924]}},
{"type": "Feature", "id": "U5N6TkkvSbBwEnXUeQkK-WKCNLY=", "properties": {"ref": "51.522346.30151", "@spider": "lidl_de", "shop": "supermarket", "addr:street_address": "Gerhard-Hauptmann-Str. 38-40", "addr:city": "Geldern", "addr:postcode": "47608", "addr:country": "DE", "name": "Lidl", "opening_hours": "Mo-Sa 07:00-21:00", "brand": "Lidl", "brand:wikidata": "Q151954", "nsi_id": "lidl-5866c3"}, "geometry": {"type": "Point", "coordinates": [6.30151, 51.52234]}},
{"type": "Feature", "id": "HIRTdpGqWtG16UQ3GiYoxw-onnY=", "properties": {"ref": "51.479646.99248", "@spider": "lidl_de", "shop": "supermarket", "addr:street_address": "H\u00f6velstr. 175", "addr:city": "Essen", "addr:postcode": "45326", "addr:country": "DE", "name": "Lidl", "opening_hours": "Mo-Sa 07:00-21:00", "brand": "Lidl", "brand:wikidata": "Q151954", "nsi_id": "lidl-5866c3"}, "geometry": {"type": "Point", "coordinates": [6.99248, 51.47964]}},
{"type": "Feature", "id": "wBp1fIXsAApHkIaw2IdUWOBk4AI=", "properties": {"ref": "51.323636.77016", "@spider": "lidl_de", "shop": "supermarket", "addr:street_address": "Pfarrer-Holl-Weg 21", "addr:city": "D\u00fcsseldorf", "addr:postcode": "40489", "addr:country": "DE", "name": "Lidl", "opening_hours": "Mo-Sa 07:00-21:00", "brand": "Lidl", "brand:wikidata": "Q151954", "nsi_id": "lidl-5866c3"}, "geometry": {"type": "Point", "coordinates": [6.77016, 51.32363]}},
{"type": "Feature", "id": "JSd_r1a1a9aPnmeZffbNdKypwk0=", "properties": {"ref": "51.866297.37251", "@spider": "lidl_de", "shop": "supermarket", "addr:street_address": "Gewerbestr. 1", "addr:city": "D\u00fclmen", "addr:postcode": "48249", "addr:country": "DE", "name": "Lidl", "opening_hours": "Mo-Sa 07:00-21:00", "brand": "Lidl", "brand:wikidata": "Q151954", "nsi_id": "lidl-5866c3"}, "geometry": {"type": "Point", "coordinates": [7.37251, 51.86629]}},
{"type": "Feature", "id": "W9iNoAKjTpC-zVLcHV7jS0gIv9I=", "properties": {"ref": "51.529136.75459", "@spider": "lidl_de", "shop": "supermarket", "addr:street_address": "Holtener Str. 203", "addr:city": "Duisburg", "addr:postcode": "47179", "addr:country": "DE", "name": "Lidl", "opening_hours": "Mo-Sa 07:00-21:00", "brand": "Lidl", "brand:wikidata": "Q151954", "nsi_id": "lidl-5866c3"}, "geometry": {"type": "Point", "coordinates": [6.75459, 51.52913]}},
{"type": "Feature", "id": "IEGYTUPlBn24qQ5gyENdUXjAgbs=", "properties": {"ref": "51.550767.37596", "@spider": "lidl_de", "shop": "supermarket", "addr:street_address": "Bodelschwingher Str. 144", "addr:city": "Dortmund", "addr:postcode": "44357", "addr:country": "DE", "name": "Lidl", "opening_hours": "Mo-Sa 07:00-21:00", "brand": "Lidl", "brand:wikidata": "Q151954", "nsi_id": "lidl-5866c3"}, "geometry": {"type": "Point", "coordinates": [7.37596, 51.55076]}},
{"type": "Feature", "id": "DmPRW0EdzcytZkjkYF_xBucJ3lk=", "properties": {"ref": "51.098066.84562", "@spider": "lidl_de", "shop": "supermarket", "addr:street_address": "Walhovener Str. 30", "addr:city": "Dormagen", "addr:postcode": "41539", "addr:country": "DE", "name": "Lidl", "opening_hours": "Mo-Sa 07:00-21:00", "brand": "Lidl", "brand:wikidata": "Q151954", "nsi_id": "lidl-5866c3"}, "geometry": {"type": "Point", "coordinates": [6.84562, 51.09806]}},
{"type": "Feature", "id": "woT3G4lEX_5aTpgiqjql8fc0PH8=", "properties": {"ref": "51.572486.72946", "@spider": "lidl_de", "shop": "supermarket", "addr:street_address": "Hedwigstr. 18", "addr:city": "Dinslaken", "addr:postcode": "46537", "addr:country": "DE", "name": "Lidl", "opening_hours": "Mo-Sa 07:00-21:00", "brand": "Lidl", "brand:wikidata": "Q151954", "nsi_id": "lidl-5866c3"}, "geometry": {"type": "Point", "coordinates": [6.72946, 51.57248]}},
{"type": "Feature", "id": "-S5A4sAZazhkn5AZZSdScnkAMOY=", "properties": {"ref": "51.947378.89797", "@spider": "lidl_de", "shop": "supermarket", "addr:street_address": "Anne-Frank-Str. 7", "addr:city": "Detmold", "addr:postcode": "32756", "addr:country": "DE", "name": "Lidl", "opening_hours": "Mo-Sa 07:00-21:00", "brand": "Lidl", "brand:wikidata": "Q151954", "nsi_id": "lidl-5866c3"}, "geometry": {"type": "Point", "coordinates": [8.89797, 51.94737]}},
{"type": "Feature", "id": "N_WWlgM44RUq63PykkeVzmoOMVQ=", "properties": {"ref": "51.551717.29417", "@spider": "lidl_de", "shop": "supermarket", "addr:street_address": "Westring 206", "addr:city": "Castrop-Rauxel", "addr:postcode": "44579", "addr:country": "DE", "name": "Lidl", "opening_hours": "Mo-Sa 07:00-21:00", "brand": "Lidl", "brand:wikidata": "Q151954", "nsi_id": "lidl-5866c3"}, "geometry": {"type": "Point", "coordinates": [7.29417, 51.55171]}},
{"type": "Feature", "id": "HVpbPhPwdrnaKkN9KS-2jJTNFfk=", "properties": {"ref": "52.193798.58778", "@spider": "lidl_de", "shop": "supermarket", "addr:street_address": "Herforder Str. 13", "addr:city": "B\u00fcnde", "addr:postcode": "32257", "addr:country": "DE", "name": "Lidl", "opening_hours": "Mo-Sa 07:00-21:00", "brand": "Lidl", "brand:wikidata": "Q151954", "nsi_id": "lidl-5866c3"}, "geometry": {"type": "Point", "coordinates": [8.58778, 52.19379]}},
{"type": "Feature", "id": "oeX7zPZfixfSQc38GoQAirf9IrE=", "properties": {"ref": "50.806566.89934", "@spider": "lidl_de", "shop": "supermarket", "addr:street_address": "Steingasse 4", "addr:city": "Br\u00fchl", "addr:postcode": "50321", "addr:country": "DE", "name": "Lidl", "opening_hours": "Mo-Sa 07:00-21:00", "brand": "Lidl", "brand:wikidata": "Q151954", "nsi_id": "lidl-5866c3"}, "geometry": {"type": "Point", "coordinates": [6.89934, 50.80656]}},
{"type": "Feature", "id": "5Xb_fMo7ktm7b6FQq7vM8ZY04xE=", "properties": {"ref": "50.768437.04489", "@spider": "lidl_de", "shop": "supermarket", "addr:street_address": "Havelstr. 4", "addr:city": "Bornheim", "addr:postcode": "53332", "addr:country": "DE", "name": "Lidl", "opening_hours": "Mo-Sa 07:00-21:00", "brand": "Lidl", "brand:wikidata": "Q151954", "nsi_id": "lidl-5866c3"}, "geometry": {"type": "Point", "coordinates": [7.04489, 50.76843]}},
{"type": "Feature", "id": "F39G6sLf1syJqxzq_kQ3tOsmmUw=", "properties": {"ref": "50.749197.16086", "@spider": "lidl_de", "shop": "supermarket", "addr:street_address": "Reinold-Hagen-Str. 15", "addr:city": "Bonn", "addr:postcode": "53229", "addr:country": "DE", "name": "Lidl", "opening_hours": "Mo-Sa 07:00-21:00", "brand": "Lidl", "brand:wikidata": "Q151954", "nsi_id": "lidl-5866c3"}, "geometry": {"type": "Point", "coordinates": [7.16086, 50.74919]}},
{"type": "Feature", "id": "6hp7z05lqUWyiEuCRQCYm-jBNRk=", "properties": {"ref": "51.516067.25713", "@spider": "lidl_de", "shop": "supermarket", "addr:street_address": "Wiescherstra\u00dfe 6", "addr:city": "Bochum", "addr:postcode": "44805", "addr:country": "DE", "name": "Lidl", "opening_hours": "Mo-Sa 07:00-21:00", "brand": "Lidl", "brand:wikidata": "Q151954", "nsi_id": "lidl-5866c3"}, "geometry": {"type": "Point", "coordinates": [7.25713, 51.51606]}},
{"type": "Feature", "id": "HnYLFyZ0o6EVNvnrrcP0BmDG_T8=", "properties": {"ref": "52.000868.57482", "@spider": "lidl_de", "shop": "supermarket", "addr:street_address": "Detmolder Stra\u00dfe 345", "addr:city": "Bielefeld", "addr:postcode": "33605", "addr:country": "DE", "name": "Lidl", "opening_hours": "Mo-Sa 07:00-21:00", "brand": "Lidl", "brand:wikidata": "Q151954", "nsi_id": "lidl-5866c3"}, "geometry": {"type": "Point", "coordinates": [8.57482, 52.00086]}},
{"type": "Feature", "id": "bcfvMEyIFa5w7dJdZghEO0EBDI4=", "properties": {"ref": "51.62097.6376", "@spider": "lidl_de", "shop": "supermarket", "addr:street_address": "Parkstr. 23", "addr:city": "Bergkamen", "addr:postcode": "59192", "addr:country": "DE", "name": "Lidl", "opening_hours": "Mo-Sa 07:00-21:00", "brand": "Lidl", "brand:wikidata": "Q151954", "nsi_id": "lidl-5866c3"}, "geometry": {"type": "Point", "coordinates": [7.6376, 51.6209]}},
{"type": "Feature", "id": "g7Vtjj20N3WAU7lvJ2IYwx59xqM=", "properties": {"ref": "50.993087.14675", "@spider": "lidl_de", "shop": "supermarket", "addr:street_address": "Hauptstr. 393", "addr:city": "Bergisch", "addr:postcode": "51465", "addr:country": "DE", "name": "Lidl", "opening_hours": "Mo-Sa 07:00-21:00", "brand": "Lidl", "brand:wikidata": "Q151954", "nsi_id": "lidl-5866c3"}, "geometry": {"type": "Point", "coordinates": [7.14675, 50.99308]}},
{"type": "Feature", "id": "mtXsXvxcTGFp9f-RN6VER7VLKdE=", "properties": {"ref": "50.980186.68169", "@spider": "lidl_de", "shop": "supermarket", "addr:street_address": "Peter-Achnitz-Str. 6", "addr:city": "Bergheim", "addr:postcode": "50129", "addr:country": "DE", "name": "Lidl", "opening_hours": "Mo-Sa 07:00-21:00", "brand": "Lidl", "brand:wikidata": "Q151954", "nsi_id": "lidl-5866c3"}, "geometry": {"type": "Point", "coordinates": [6.68169, 50.98018]}},
{"type": "Feature", "id": "gFySq0HhE4fhUjVIRUyDxijzO9M=", "properties": {"ref": "51.756778.04529", "@spider": "lidl_de", "shop": "supermarket", "addr:street_address": "Sternstr. 9", "addr:city": "Beckum", "addr:postcode": "59269", "addr:country": "DE", "name": "Lidl", "opening_hours": "Mo-Sa 07:00-21:00", "brand": "Lidl", "brand:wikidata": "Q151954", "nsi_id": "lidl-5866c3"}, "geometry": {"type": "Point", "coordinates": [8.04529, 51.75677]}},
{"type": "Feature", "id": "TFmXZ3WL0BVQ8cMf43-vwb82dKY=", "properties": {"ref": "52.216748.80386", "@spider": "lidl_de", "shop": "supermarket", "addr:street_address": "Dingelkamp 2", "addr:city": "Bad", "addr:postcode": "32549", "addr:country": "DE", "name": "Lidl", "opening_hours": "Mo-Sa 07:00-21:00", "brand": "Lidl", "brand:wikidata": "Q151954", "nsi_id": "lidl-5866c3"}, "geometry": {"type": "Point", "coordinates": [8.80386, 52.21674]}},
{"type": "Feature", "id": "yctGnIJEiiK0MV8l4pzFczC_qFA=", "properties": {"ref": "51.428867.99424", "@spider": "lidl_de", "shop": "supermarket", "addr:street_address": "Heinrich-L\u00fcbke-Str. 3", "addr:city": "Arnsberg", "addr:postcode": "59759", "addr:country": "DE", "name": "Lidl", "opening_hours": "Mo-Sa 07:00-21:00", "brand": "Lidl", "brand:wikidata": "Q151954", "nsi_id": "lidl-5866c3"}, "geometry": {"type": "Point", "coordinates": [7.99424, 51.42886]}},
{"type": "Feature", "id": "N-Lv9fa5xKENw6J6CxXaxgBaVMc=", "properties": {"ref": "50.858186.20403", "@spider": "lidl_de", "shop": "supermarket", "addr:street_address": "Eschweiler Str. 1b", "addr:city": "Alsdorf", "addr:postcode": "52477", "addr:country": "DE", "name": "Lidl", "opening_hours": "Mo-Sa 07:00-21:00", "brand": "Lidl", "brand:wikidata": "Q151954", "nsi_id": "lidl-5866c3"}, "geometry": {"type": "Point", "coordinates": [6.20403, 50.85818]}},
{"type": "Feature", "id": "RXJWlZ3aUCEcKimA_ev-vbN-Jb0=", "properties": {"ref": "50.753466.15589", "@spider": "lidl_de", "shop": "supermarket", "addr:street_address": "Trierer Stra\u00dfe 665", "addr:city": "Aachen", "addr:postcode": "52078", "addr:country": "DE", "name": "Lidl", "opening_hours": "Mo-Sa 07:00-21:00", "brand": "Lidl", "brand:wikidata": "Q151954", "nsi_id": "lidl-5866c3"}, "geometry": {"type": "Point", "coordinates": [6.15589, 50.75346]}},
{"type": "Feature", "id": "WJ0Ql3s7Ry37adEmDvkzcA4X0W4=", "properties": {"ref": "52.157410.50946", "@spider": "lidl_de", "shop": "supermarket", "addr:street_address": "Adersheimer Str. 62", "addr:city": "Wolfenb\u00fcttel", "addr:postcode": "38304", "addr:country": "DE", "name": "Lidl", "opening_hours": "Mo-Sa 07:00-21:00", "brand": "Lidl", "brand:wikidata": "Q151954", "nsi_id": "lidl-5866c3"}, "geometry": {"type": "Point", "coordinates": [10.50946, 52.1574]}},
{"type": "Feature", "id": "RUMYNzX7GNO81U3UA2lEp_S8dts=", "properties": {"ref": "53.527618.10847", "@spider": "lidl_de", "shop": "supermarket", "addr:street_address": "Mitscherlichstr. 60-62", "addr:city": "Wilhelmshaven", "addr:postcode": "26382", "addr:country": "DE", "name": "Lidl", "opening_hours": "Mo-Sa 07:00-21:00", "brand": "Lidl", "brand:wikidata": "Q151954", "nsi_id": "lidl-5866c3"}, "geometry": {"type": "Point", "coordinates": [8.10847, 53.52761]}},
{"type": "Feature", "id": "GdmZYUAUcBlyayAGXYYmrYNTlb0=", "properties": {"ref": "53.589219.48683", "@spider": "lidl_de", "shop": "supermarket", "addr:street_address": "Harburger Str. 99", "addr:city": "Stade", "addr:postcode": "21680", "addr:country": "DE", "name": "Lidl", "opening_hours": "Mo-Sa 07:00-21:00", "brand": "Lidl", "brand:wikidata": "Q151954", "nsi_id": "lidl-5866c3"}, "geometry": {"type": "Point", "coordinates": [9.48683, 53.58921]}},
{"type": "Feature", "id": "lABPgDUewTvB2z55jVZVP2Ln00Q=", "properties": {"ref": "52.0508510.37289", "@spider": "lidl_de", "shop": "supermarket", "addr:street_address": "An der Erzbahn 4", "addr:city": "Salzgitter", "addr:postcode": "38259", "addr:country": "DE", "name": "Lidl", "opening_hours": "Mo-Sa 07:00-21:00", "brand": "Lidl", "brand:wikidata": "Q151954", "nsi_id": "lidl-5866c3"}, "geometry": {"type": "Point", "coordinates": [10.37289, 52.05085]}},
{"type": "Feature", "id": "j0b6SktcL7HjjYdCfqElKfoiNyk=", "properties": {"ref": "52.3080910.24906", "@spider": "lidl_de", "shop": "supermarket", "addr:street_address": "Braunschweiger Str. 120", "addr:city": "Peine", "addr:postcode": "31226", "addr:country": "DE", "name": "Lidl", "opening_hours": "Mo-Sa 07:00-21:00", "brand": "Lidl", "brand:wikidata": "Q151954", "nsi_id": "lidl-5866c3"}, "geometry": {"type": "Point", "coordinates": [10.24906, 52.30809]}},
{"type": "Feature", "id": "LFTepyzSE-tc97vDSF7Xxj7O7Ps=", "properties": {"ref": "53.072487.43948", "@spider": "lidl_de", "shop": "supermarket", "addr:street_address": "Bolwinsweg 3-5", "addr:city": "Papenburg", "addr:postcode": "26871", "addr:country": "DE", "name": "Lidl", "opening_hours": "Mo-Sa 07:00-21:00", "brand": "Lidl", "brand:wikidata": "Q151954", "nsi_id": "lidl-5866c3"}, "geometry": {"type": "Point", "coordinates": [7.43948, 53.07248]}},
{"type": "Feature", "id": "761tGZNTYhoy4uH69jQ3aka7y0A=", "properties": {"ref": "52.299368.06082", "@spider": "lidl_de", "shop": "supermarket", "addr:street_address": "M\u00f6nkedieckstr. 11-13", "addr:city": "Osnabr\u00fcck", "addr:postcode": "49088", "addr:country": "DE", "name": "Lidl", "opening_hours": "Mo-Sa 07:00-21:00", "brand": "Lidl", "brand:wikidata": "Q151954", "nsi_id": "lidl-5866c3"}, "geometry": {"type": "Point", "coordinates": [8.06082, 52.29936]}},
{"type": "Feature", "id": "RuuvBMcRQ2hfL-B-MD1r68U9ySo=", "properties": {"ref": "53.177078.18915", "@spider": "lidl_de", "shop": "supermarket", "addr:street_address": "Alexanderstr. 444", "addr:city": "Oldenburg", "addr:postcode": "26127", "addr:country": "DE", "name": "Lidl", "opening_hours": "Mo-Sa 07:00-21:00", "brand": "Lidl", "brand:wikidata": "Q151954", "nsi_id": "lidl-5866c3"}, "geometry": {"type": "Point", "coordinates": [8.18915, 53.17707]}},
{"type": "Feature", "id": "WbFytJU4QyCcaIznqOPuWPf7dZQ=", "properties": {"ref": "52.41427.04452", "@spider": "lidl_de", "shop": "supermarket", "addr:street_address": "Borkener Hof 6", "addr:city": "Nordhorn", "addr:postcode": "48527", "addr:country": "DE", "name": "Lidl", "opening_hours": "Mo-Sa 08:00-20:00", "brand": "Lidl", "brand:wikidata": "Q151954", "nsi_id": "lidl-5866c3"}, "geometry": {"type": "Point", "coordinates": [7.04452, 52.4142]}},
{"type": "Feature", "id": "NRqxrF7NKi0gTkNPYB73bmLWT_o=", "properties": {"ref": "53.60317.18403", "@spider": "lidl_de", "shop": "supermarket", "addr:street_address": "Gewerbestr. 14", "addr:city": "Norden", "addr:postcode": "26506", "addr:country": "DE", "name": "Lidl", "opening_hours": "Mo-Sa 07:00-21:00", "brand": "Lidl", "brand:wikidata": "Q151954", "nsi_id": "lidl-5866c3"}, "geometry": {"type": "Point", "coordinates": [7.18403, 53.6031]}},
{"type": "Feature", "id": "YhD1Pf3BHaEEQsxhj8IHDLr70x0=", "properties": {"ref": "53.039419.70833", "@spider": "lidl_de", "shop": "supermarket", "addr:street_address": "Delmser Dorfstr. 7", "addr:city": "Neuenkirchen", "addr:postcode": "29643", "addr:country": "DE", "name": "Lidl", "opening_hours": "Mo-Sa 08:00-20:00", "brand": "Lidl", "brand:wikidata": "Q151954", "nsi_id": "lidl-5866c3"}, "geometry": {"type": "Point", "coordinates": [9.70833, 53.03941]}},
{"type": "Feature", "id": "ec41u-xJAIwuyb2ZQPyIluTOB7g=", "properties": {"ref": "52.69627.26682", "@spider": "lidl_de", "shop": "supermarket", "addr:street_address": "Versener Str. 48", "addr:city": "Meppen", "addr:postcode": "49716", "addr:country": "DE", "name": "Lidl", "opening_hours": "Mo-Sa 07:00-21:00", "brand": "Lidl", "brand:wikidata": "Q151954", "nsi_id": "lidl-5866c3"}, "geometry": {"type": "Point", "coordinates": [7.26682, 52.6962]}},
{"type": "Feature", "id": "YLRqTDEMVdogIpRIBAYs0mZLnQI=", "properties": {"ref": "52.209018.33202", "@spider": "lidl_de", "shop": "supermarket", "addr:street_address": "Oldendorfer Str. 44", "addr:city": "Melle", "addr:postcode": "49324", "addr:country": "DE", "name": "Lidl", "opening_hours": "Mo-Sa 07:00-21:00", "brand": "Lidl", "brand:wikidata": "Q151954", "nsi_id": "lidl-5866c3"}, "geometry": {"type": "Point", "coordinates": [8.33202, 52.20901]}},
{"type": "Feature", "id": "Hr7Y6cHz99LYbWqcmA8x0fHJHGM=", "properties": {"ref": "52.516637.34556", "@spider": "lidl_de", "shop": "supermarket", "addr:street_address": "Am Laxtener Esch 1", "addr:city": "Lingen", "addr:postcode": "49811", "addr:country": "DE", "name": "Lidl", "opening_hours": "Mo-Sa 07:00-21:00", "brand": "Lidl", "brand:wikidata": "Q151954", "nsi_id": "lidl-5866c3"}, "geometry": {"type": "Point", "coordinates": [7.34556, 52.51663]}},
{"type": "Feature", "id": "ihYhEijxhc30hUg-Unw9GWNMrwY=", "properties": {"ref": "53.245267.45733", "@spider": "lidl_de", "shop": "supermarket", "addr:street_address": "Heisfelderstr. 219", "addr:city": "Leer", "addr:postcode": "26789", "addr:country": "DE", "name": "Lidl", "opening_hours": "Mo-Sa 07:00-21:00", "brand": "Lidl", "brand:wikidata": "Q151954", "nsi_id": "lidl-5866c3"}, "geometry": {"type": "Point", "coordinates": [7.45733, 53.24526]}},
{"type": "Feature", "id": "asXVO2oTbh1H_tS0Roit621V9RU=", "properties": {"ref": "52.155849.96925", "@spider": "lidl_de", "shop": "supermarket", "addr:street_address": "Frankenstra\u00dfe 2c", "addr:city": "Hildesheim", "addr:postcode": "31135", "addr:country": "DE", "name": "Lidl", "opening_hours": "Mo-Sa 07:00-21:00", "brand": "Lidl", "brand:wikidata": "Q151954", "nsi_id": "lidl-5866c3"}, "geometry": {"type": "Point", "coordinates": [9.96925, 52.15584]}},
{"type": "Feature", "id": "89iDhPTZxHEebDJsIexW9IocZtE=", "properties": {"ref": "52.377369.66125", "@spider": "lidl_de", "shop": "supermarket", "addr:street_address": "Gartenstr. 30", "addr:city": "Hannover", "addr:postcode": "30453", "addr:country": "DE", "name": "Lidl", "opening_hours": "Mo-Sa 07:00-21:00", "brand": "Lidl", "brand:wikidata": "Q151954", "nsi_id": "lidl-5866c3"}, "geometry": {"type": "Point", "coordinates": [9.66125, 52.37736]}},
{"type": "Feature", "id": "CFm7ON-ny9467q0BybgkCHPPz-Y=", "properties": {"ref": "52.098659.36177", "@spider": "lidl_de", "shop": "supermarket", "addr:street_address": "Ohsener Str. 11", "addr:city": "Hameln", "addr:postcode": "31789", "addr:country": "DE", "name": "Lidl", "opening_hours": "Mo-Sa 07:00-21:00", "brand": "Lidl", "brand:wikidata": "Q151954", "nsi_id": "lidl-5866c3"}, "geometry": {"type": "Point", "coordinates": [9.36177, 52.09865]}},
{"type": "Feature", "id": "XDl3NHEVG3S9AKgKPh_ydoF9YRM=", "properties": {"ref": "51.540059.89472", "@spider": "lidl_de", "shop": "supermarket", "addr:street_address": "Industriestr. 4a", "addr:city": "G\u00f6ttingen", "addr:postcode": "37079", "addr:country": "DE", "name": "Lidl", "opening_hours": "Mo-Sa 07:00-21:00", "brand": "Lidl", "brand:wikidata": "Q151954", "nsi_id": "lidl-5866c3"}, "geometry": {"type": "Point", "coordinates": [9.89472, 51.54005]}},
{"type": "Feature", "id": "NH7GznSjzRuWzXqZ19fWjbmRPso=", "properties": {"ref": "51.924510.42442", "@spider": "lidl_de", "shop": "supermarket", "addr:street_address": "Bornhardtstr. 15", "addr:city": "Goslar", "addr:postcode": "38644", "addr:country": "DE", "name": "Lidl", "opening_hours": "Mo-Sa 07:00-21:00", "brand": "Lidl", "brand:wikidata": "Q151954", "nsi_id": "lidl-5866c3"}, "geometry": {"type": "Point", "coordinates": [10.42442, 51.9245]}},
{"type": "Feature", "id": "Cy3vqInbO5AfUjYXvBsEw-DOKnQ=", "properties": {"ref": "52.204158.04724", "@spider": "lidl_de", "shop": "supermarket", "addr:street_address": "Kl\u00f6cknerstr. 27", "addr:city": "Georgsmarienh\u00fctte", "addr:postcode": "49124", "addr:country": "DE", "name": "Lidl", "opening_hours": "Mo-Sa 07:00-21:00", "brand": "Lidl", "brand:wikidata": "Q151954", "nsi_id": "lidl-5866c3"}, "geometry": {"type": "Point", "coordinates": [8.04724, 52.20415]}},
{"type": "Feature", "id": "nAqJEJHayr9rkcXtwY35SGx7XdM=", "properties": {"ref": "53.345457.22701", "@spider": "lidl_de", "shop": "supermarket", "addr:street_address": "Ulmenstr. 3-5", "addr:city": "Emden", "addr:postcode": "26725", "addr:country": "DE", "name": "Lidl", "opening_hours": "Mo-Sa 07:00-21:00", "brand": "Lidl", "brand:wikidata": "Q151954", "nsi_id": "lidl-5866c3"}, "geometry": {"type": "Point", "coordinates": [7.22701, 53.34545]}},
{"type": "Feature", "id": "S2xKL7Zxj9JpuiWTsK-w0yt0sq0=", "properties": {"ref": "53.869858.69991", "@spider": "lidl_de", "shop": "supermarket", "addr:street_address": "Gr\u00fcner Weg 2-5", "addr:city": "Cuxhaven", "addr:postcode": "27472", "addr:country": "DE", "name": "Lidl", "opening_hours": "Mo-Sa 07:00-21:00", "brand": "Lidl", "brand:wikidata": "Q151954", "nsi_id": "lidl-5866c3"}, "geometry": {"type": "Point", "coordinates": [8.69991, 53.86985]}},
{"type": "Feature", "id": "dWfm3_kXZYYxr2wgHEOnJT_YIQc=", "properties": {"ref": "53.464389.69276", "@spider": "lidl_de", "shop": "supermarket", "addr:street_address": "Bei der Fischtreppe 2", "addr:city": "Buxtehude", "addr:postcode": "21614", "addr:country": "DE", "name": "Lidl", "opening_hours": "Mo-Sa 08:00-21:00", "brand": "Lidl", "brand:wikidata": "Q151954", "nsi_id": "lidl-5866c3"}, "geometry": {"type": "Point", "coordinates": [9.69276, 53.46438]}},
{"type": "Feature", "id": "UQAUBqAyha8t_-oF02LXA4ZqWKE=", "properties": {"ref": "53.314259.87902", "@spider": "lidl_de", "shop": "supermarket", "addr:street_address": "Soltauer Str. 93", "addr:city": "Buchholz", "addr:postcode": "21244", "addr:country": "DE", "name": "Lidl", "opening_hours": "Mo-Sa 07:00-21:00", "brand": "Lidl", "brand:wikidata": "Q151954", "nsi_id": "lidl-5866c3"}, "geometry": {"type": "Point", "coordinates": [9.87902, 53.31425]}},
{"type": "Feature", "id": "2EtYAKyAxnoZQXeOPd5IT6kHlHk=", "properties": {"ref": "53.012519.02806", "@spider": "lidl_de", "shop": "supermarket", "addr:street_address": "Bremer Str. 9", "addr:city": "Achim", "addr:postcode": "28832", "addr:country": "DE", "name": "Lidl", "opening_hours": "Mo-Sa 07:00-21:00", "brand": "Lidl", "brand:wikidata": "Q151954", "nsi_id": "lidl-5866c3"}, "geometry": {"type": "Point", "coordinates": [9.02806, 53.01251]}},
{"type": "Feature", "id": "kql28rZhyjp-yHS4imIFg-PYD1o=", "properties": {"ref": "53.8963611.42751", "@spider": "lidl_de", "shop": "supermarket", "addr:street_address": "L\u00fcbsche Str. 203", "addr:city": "Wismar", "addr:postcode": "23966", "addr:country": "DE", "name": "Lidl", "opening_hours": "Mo-Sa 07:00-21:00", "brand": "Lidl", "brand:wikidata": "Q151954", "nsi_id": "lidl-5866c3"}, "geometry": {"type": "Point", "coordinates": [11.42751, 53.89636]}},
{"type": "Feature", "id": "WxBfYyJHZbjJLMqDcjwBhzlDvbs=", "properties": {"ref": "54.3276713.06448", "@spider": "lidl_de", "shop": "supermarket", "addr:street_address": "Heinrich-von-Stephan-Str. 6", "addr:city": "Stralsund", "addr:postcode": "18435", "addr:country": "DE", "name": "Lidl", "opening_hours": "Mo-Sa 07:00-21:00", "brand": "Lidl", "brand:wikidata": "Q151954", "nsi_id": "lidl-5866c3"}, "geometry": {"type": "Point", "coordinates": [13.06448, 54.32767]}},
{"type": "Feature", "id": "2TkypBNlJDBxa2BufeAH7g3rppk=", "properties": {"ref": "53.6034511.44187", "@spider": "lidl_de", "shop": "supermarket", "addr:street_address": "An der Crivitzer Chaussee 16", "addr:city": "Schwerin", "addr:postcode": "19061", "addr:country": "DE", "name": "Lidl", "opening_hours": "Mo-Sa 07:00-21:00", "brand": "Lidl", "brand:wikidata": "Q151954", "nsi_id": "lidl-5866c3"}, "geometry": {"type": "Point", "coordinates": [11.44187, 53.60345]}},
{"type": "Feature", "id": "8hVrgkewnV6ZDAROXaDtnVwkfLs=", "properties": {"ref": "54.0792212.15971", "@spider": "lidl_de", "shop": "supermarket", "addr:street_address": "Neubrandenburger Str. 10-11", "addr:city": "Rostock", "addr:postcode": "18055", "addr:country": "DE", "name": "Lidl", "opening_hours": "Mo-Sa 07:00-21:00", "brand": "Lidl", "brand:wikidata": "Q151954", "nsi_id": "lidl-5866c3"}, "geometry": {"type": "Point", "coordinates": [12.15971, 54.07922]}},
{"type": "Feature", "id": "xcBRA4Ni0vVGVOtRTPLeMUdjBgE=", "properties": {"ref": "53.5690413.27127", "@spider": "lidl_de", "shop": "supermarket", "addr:street_address": "Demminer Str. 49", "addr:city": "Neubrandenburg", "addr:postcode": "17034", "addr:country": "DE", "name": "Lidl", "opening_hours": "Mo-Sa 07:00-20:00", "brand": "Lidl", "brand:wikidata": "Q151954", "nsi_id": "lidl-5866c3"}, "geometry": {"type": "Point", "coordinates": [13.27127, 53.56904]}},
{"type": "Feature", "id": "R1cB1hJ2KJILjkZgHzpuPqUTaww=", "properties": {"ref": "54.0807513.42981", "@spider": "lidl_de", "shop": "supermarket", "addr:street_address": "Hasenwinkel 36", "addr:city": "Greifswald", "addr:postcode": "17491", "addr:country": "DE", "name": "Lidl", "opening_hours": "Mo-Sa 07:00-21:00", "brand": "Lidl", "brand:wikidata": "Q151954", "nsi_id": "lidl-5866c3"}, "geometry": {"type": "Point", "coordinates": [13.42981, 54.08075]}},
{"type": "Feature", "id": "RwEW8_m60u7wCFWMiTBZT_cSR0M=", "properties": {"ref": "50.045898.22078", "@spider": "lidl_de", "shop": "supermarket", "addr:street_address": "Friedrich-Bergius-Str. 1", "addr:city": "Wiesbaden", "addr:postcode": "65203", "addr:country": "DE", "name": "Lidl", "opening_hours": "Mo-Sa 07:00-22:00", "brand": "Lidl", "brand:wikidata": "Q151954", "nsi_id": "lidl-5866c3"}, "geometry": {"type": "Point", "coordinates": [8.22078, 50.04589]}},
{"type": "Feature", "id": "HoWyUgV80a53EDoIzPBPMjAzzOQ=", "properties": {"ref": "50.141198.15658", "@spider": "lidl_de", "shop": "supermarket", "addr:street_address": "Gottfried-Keller-Str. 13", "addr:city": "Taunusstein", "addr:postcode": "65232", "addr:country": "DE", "name": "Lidl", "opening_hours": "Mo-Sa 07:00-21:00", "brand": "Lidl", "brand:wikidata": "Q151954", "nsi_id": "lidl-5866c3"}, "geometry": {"type": "Point", "coordinates": [8.15658, 50.14119]}},
{"type": "Feature", "id": "NH5-rWEXlNxZxVFwBCOrW15U-pM=", "properties": {"ref": "50.043078.88249", "@spider": "lidl_de", "shop": "supermarket", "addr:street_address": "Alfred-Delp-Str. 46", "addr:city": "Rodgau", "addr:postcode": "63110", "addr:country": "DE", "name": "Lidl", "opening_hours": "Mo-Sa 07:00-21:00", "brand": "Lidl", "brand:wikidata": "Q151954", "nsi_id": "lidl-5866c3"}, "geometry": {"type": "Point", "coordinates": [8.88249, 50.04307]}},
{"type": "Feature", "id": "6ZhkwoEs6wA3pC0LRRip9wEXupM=", "properties": {"ref": "50.121188.86612", "@spider": "lidl_de", "shop": "supermarket", "addr:street_address": "Hegelstr. 6", "addr:city": "M\u00fchlheim", "addr:postcode": "63165", "addr:country": "DE", "name": "Lidl", "opening_hours": "Mo-Sa 07:00-21:00", "brand": "Lidl", "brand:wikidata": "Q151954", "nsi_id": "lidl-5866c3"}, "geometry": {"type": "Point", "coordinates": [8.86612, 50.12118]}},
{"type": "Feature", "id": "C7fv5AVlmRiSgw8zOooUMGrBdIM=", "properties": {"ref": "50.786218.76714", "@spider": "lidl_de", "shop": "supermarket", "addr:street_address": "Marburger Str. 90", "addr:city": "Marburg", "addr:postcode": "35043", "addr:country": "DE", "name": "Lidl", "opening_hours": "Mo-Sa 07:00-22:00", "brand": "Lidl", "brand:wikidata": "Q151954", "nsi_id": "lidl-5866c3"}, "geometry": {"type": "Point", "coordinates": [8.76714, 50.78621]}},
{"type": "Feature", "id": "mxeAcVRGRZ4qdHYXEZJGirqCkdA=", "properties": {"ref": "50.148598.81041", "@spider": "lidl_de", "shop": "supermarket", "addr:street_address": "D\u00f6rnigheimer Weg 5a", "addr:city": "Maintal", "addr:postcode": "63477", "addr:country": "DE", "name": "Lidl", "opening_hours": "Mo-Sa 08:00-21:00", "brand": "Lidl", "brand:wikidata": "Q151954", "nsi_id": "lidl-5866c3"}, "geometry": {"type": "Point", "coordinates": [8.81041, 50.14859]}},
{"type": "Feature", "id": "JzLSgHGNSHzxOhOF_2v_vThexm0=", "properties": {"ref": "50.375838.05287", "@spider": "lidl_de", "shop": "supermarket", "addr:street_address": "Industriestr. 32", "addr:city": "Limburg", "addr:postcode": "65549", "addr:country": "DE", "name": "Lidl", "opening_hours": "Mo-Sa 07:00-22:00", "brand": "Lidl", "brand:wikidata": "Q151954", "nsi_id": "lidl-5866c3"}, "geometry": {"type": "Point", "coordinates": [8.05287, 50.37583]}},
{"type": "Feature", "id": "cwIBLb0LjUpYWIoALzwoWrd-frw=", "properties": {"ref": "51.301739.5309", "@spider": "lidl_de", "shop": "supermarket", "addr:street_address": "Ochsh\u00e4user Str. 6", "addr:city": "Kassel", "addr:postcode": "34123", "addr:country": "DE", "name": "Lidl", "opening_hours": "Mo-Sa 07:00-21:00", "brand": "Lidl", "brand:wikidata": "Q151954", "nsi_id": "lidl-5866c3"}, "geometry": {"type": "Point", "coordinates": [9.5309, 51.30173]}},
{"type": "Feature", "id": "rD-Z6M6GG1YEu3-Xa-TGkzCBjWQ=", "properties": {"ref": "50.669198.30811", "@spider": "lidl_de", "shop": "supermarket", "addr:street_address": "Gewerbepark Untere Au 11", "addr:city": "Herborn", "addr:postcode": "35745", "addr:country": "DE", "name": "Lidl", "opening_hours": "Mo-Sa 07:00-21:00", "brand": "Lidl", "brand:wikidata": "Q151954", "nsi_id": "lidl-5866c3"}, "geometry": {"type": "Point", "coordinates": [8.30811, 50.66919]}},
{"type": "Feature", "id": "eLFbxkNhjJa1JWZ3_tP-gy6svhE=", "properties": {"ref": "50.095918.95082", "@spider": "lidl_de", "shop": "supermarket", "addr:street_address": "Brown Boveri Str. 25", "addr:city": "Hanau", "addr:postcode": "63457", "addr:country": "DE", "name": "Lidl", "opening_hours": "Mo-Sa 07:00-21:00", "brand": "Lidl", "brand:wikidata": "Q151954", "nsi_id": "lidl-5866c3"}, "geometry": {"type": "Point", "coordinates": [8.95082, 50.09591]}},
{"type": "Feature", "id": "oFe1nj5b8haGIGvbMDXg7ObrC1U=", "properties": {"ref": "50.574289.67507", "@spider": "lidl_de", "shop": "supermarket", "addr:street_address": "Niesiger Str. 163", "addr:city": "Fulda", "addr:postcode": "36039", "addr:country": "DE", "name": "Lidl", "opening_hours": "Mo-Sa 07:00-21:00", "brand": "Lidl", "brand:wikidata": "Q151954", "nsi_id": "lidl-5866c3"}, "geometry": {"type": "Point", "coordinates": [9.67507, 50.57428]}},
{"type": "Feature", "id": "Y-9J_1l6tQQ69Si0Aq1l5zpzQz0=", "properties": {"ref": "50.143388.74678", "@spider": "lidl_de", "shop": "supermarket", "addr:street_address": "R\u00f6ntgenstr. 16", "addr:city": "Frankfurt", "addr:postcode": "60388", "addr:country": "DE", "name": "Lidl", "opening_hours": "Mo-Sa 07:00-21:00", "brand": "Lidl", "brand:wikidata": "Q151954", "nsi_id": "lidl-5866c3"}, "geometry": {"type": "Point", "coordinates": [8.74678, 50.14338]}},
{"type": "Feature", "id": "jQvg8bkzp-kj1WXxO5zH5NCUyvU=", "properties": {"ref": "50.003768.70341", "@spider": "lidl_de", "shop": "supermarket", "addr:street_address": "Industriestr. 8", "addr:city": "Dreieich", "addr:postcode": "63303", "addr:country": "DE", "name": "Lidl", "opening_hours": "Mo-Sa 07:00-21:00", "brand": "Lidl", "brand:wikidata": "Q151954", "nsi_id": "lidl-5866c3"}, "geometry": {"type": "Point", "coordinates": [8.70341, 50.00376]}},
{"type": "Feature", "id": "E0zKdngkIwZcWYS3ql-aEWSDja0=", "properties": {"ref": "49.886058.63472", "@spider": "lidl_de", "shop": "supermarket", "addr:street_address": "Gr\u00e4fenh\u00e4user Str. 44", "addr:city": "Darmstadt", "addr:postcode": "64293", "addr:country": "DE", "name": "Lidl", "opening_hours": "Mo-Sa 07:00-21:00", "brand": "Lidl", "brand:wikidata": "Q151954", "nsi_id": "lidl-5866c3"}, "geometry": {"type": "Point", "coordinates": [8.63472, 49.88605]}},
{"type": "Feature", "id": "tOmBSqQ2gDDvqQuJi-yErlQOZj4=", "properties": {"ref": "49.698918.62174", "@spider": "lidl_de", "shop": "supermarket", "addr:street_address": "Darmst\u00e4dter Str. 160", "addr:city": "Bensheim", "addr:postcode": "64625", "addr:country": "DE", "name": "Lidl", "opening_hours": "Mo-Sa 07:00-21:00", "brand": "Lidl", "brand:wikidata": "Q151954", "nsi_id": "lidl-5866c3"}, "geometry": {"type": "Point", "coordinates": [8.62174, 49.69891]}},
{"type": "Feature", "id": "-wimpgcLPQRCxOMEcGVf6jjOf1o=", "properties": {"ref": "53.4862810.18228", "@spider": "lidl_de", "shop": "supermarket", "addr:street_address": "Rahel-Varnhagen-Weg 26", "addr:city": "Hamburg", "addr:postcode": "21035", "addr:country": "DE", "name": "Lidl", "opening_hours": "Mo-Sa 07:00-21:00", "brand": "Lidl", "brand:wikidata": "Q151954", "nsi_id": "lidl-5866c3"}, "geometry": {"type": "Point", "coordinates": [10.18228, 53.48628]}},
{"type": "Feature", "id": "nUG6IBfkjXyv_813hM5fQwbCmCA=", "properties": {"ref": "53.530838.63337", "@spider": "lidl_de", "shop": "supermarket", "addr:street_address": "Schiffdorfer Chaussee 225", "addr:city": "Bremerhaven", "addr:postcode": "27574", "addr:country": "DE", "name": "Lidl", "opening_hours": "Mo-Sa 07:00-21:00", "brand": "Lidl", "brand:wikidata": "Q151954", "nsi_id": "lidl-5866c3"}, "geometry": {"type": "Point", "coordinates": [8.63337, 53.53083]}},
{"type": "Feature", "id": "tqje-aSQOhI5py1Z658XPvmQpaA=", "properties": {"ref": "53.039178.91091", "@spider": "lidl_de", "shop": "supermarket", "addr:street_address": "Arberger Heerstr. 35", "addr:city": "Bremen", "addr:postcode": "28307", "addr:country": "DE", "name": "Lidl", "opening_hours": "Mo-Sa 07:00-21:00", "brand": "Lidl", "brand:wikidata": "Q151954", "nsi_id": "lidl-5866c3"}, "geometry": {"type": "Point", "coordinates": [8.91091, 53.03917]}},
{"type": "Feature", "id": "-yYZod0aJXKj_I2HjZh80_jl93s=", "properties": {"ref": "52.6861113.44134", "@spider": "lidl_de", "shop": "supermarket", "addr:street_address": "Hauptstr. 63", "addr:city": "Wandlitz", "addr:postcode": "16348", "addr:country": "DE", "name": "Lidl", "opening_hours": "Mo-Sa 07:00-20:00", "brand": "Lidl", "brand:wikidata": "Q151954", "nsi_id": "lidl-5866c3"}, "geometry": {"type": "Point", "coordinates": [13.44134, 52.68611]}},
{"type": "Feature", "id": "5GbMU8tZQBM6qP9UxA-NKN3aBdY=", "properties": {"ref": "52.3803613.13074", "@spider": "lidl_de", "shop": "supermarket", "addr:street_address": "Gro\u00dfbeerenstr. 265", "addr:city": "Potsdam", "addr:postcode": "14480", "addr:country": "DE", "name": "Lidl", "opening_hours": "Mo-Sa 07:00-21:00", "brand": "Lidl", "brand:wikidata": "Q151954", "nsi_id": "lidl-5866c3"}, "geometry": {"type": "Point", "coordinates": [13.13074, 52.38036]}},
{"type": "Feature", "id": "_xPhpBJ1hE6Jc4oA5tFU0RKFLAk=", "properties": {"ref": "52.3344814.52803", "@spider": "lidl_de", "shop": "supermarket", "addr:street_address": "Weinbergweg 36", "addr:city": "Frankfurt/Oder", "addr:postcode": "15232", "addr:country": "DE", "name": "Lidl", "opening_hours": "Mo-Sa 07:00-20:00", "brand": "Lidl", "brand:wikidata": "Q151954", "nsi_id": "lidl-5866c3"}, "geometry": {"type": "Point", "coordinates": [14.52803, 52.33448]}},
{"type": "Feature", "id": "Kq-FLoUg2kouanbDVofUhloPO20=", "properties": {"ref": "51.7726114.32687", "@spider": "lidl_de", "shop": "supermarket", "addr:street_address": "Sielower Landstr. 21", "addr:city": "Cottbus", "addr:postcode": "03044", "addr:country": "DE", "name": "Lidl", "opening_hours": "Mo-Sa 07:00-21:00", "brand": "Lidl", "brand:wikidata": "Q151954", "nsi_id": "lidl-5866c3"}, "geometry": {"type": "Point", "coordinates": [14.32687, 51.77261]}},
{"type": "Feature", "id": "2bbUJKFKCWPft3QSO2kM45Z8teU=", "properties": {"ref": "52.4137412.52375", "@spider": "lidl_de", "shop": "supermarket", "addr:street_address": "Friedrich-Franz-Str. 4", "addr:city": "Brandenburg", "addr:postcode": "14770", "addr:country": "DE", "name": "Lidl", "opening_hours": "Mo-Sa 07:00-20:00", "brand": "Lidl", "brand:wikidata": "Q151954", "nsi_id": "lidl-5866c3"}, "geometry": {"type": "Point", "coordinates": [12.52375, 52.41374]}},
{"type": "Feature", "id": "16yL-47dlkqXyc2u2zvOZE-15tQ=", "properties": {"ref": "52.485213.37286", "@spider": "lidl_de", "shop": "supermarket", "addr:street_address": "Dudenstr. 90", "addr:city": "Berlin-Friedrichshain-Kreuzberg", "addr:postcode": "10965", "addr:country": "DE", "name": "Lidl", "opening_hours": "Mo-Sa 07:00-22:00", "brand": "Lidl", "brand:wikidata": "Q151954", "nsi_id": "lidl-5866c3"}, "geometry": {"type": "Point", "coordinates": [13.37286, 52.4852]}},
{"type": "Feature", "id": "K5s-3CRN221J-Yy08kHblfkHgO0=", "properties": {"ref": "52.5362913.42294", "@spider": "lidl_de", "shop": "supermarket", "addr:street_address": "Prenzlauer Allee 44", "addr:city": "Berlin-Pankow", "addr:postcode": "10405", "addr:country": "DE", "name": "Lidl", "opening_hours": "Mo-Sa 07:00-22:00", "brand": "Lidl", "brand:wikidata": "Q151954", "nsi_id": "lidl-5866c3"}, "geometry": {"type": "Point", "coordinates": [13.42294, 52.53629]}},
{"type": "Feature", "id": "cWx3e5xW-Q1XCH_37pUaQ8366vQ=", "properties": {"ref": "52.4769713.3418", "@spider": "lidl_de", "shop": "supermarket", "addr:street_address": "Hauptstra\u00dfe 65", "addr:city": "Berlin-Tempelhof-Sch\u00f6neberg", "addr:postcode": "12159", "addr:country": "DE", "name": "Lidl", "opening_hours": "Mo-Sa 07:00-22:00", "brand": "Lidl", "brand:wikidata": "Q151954", "nsi_id": "lidl-5866c3"}, "geometry": {"type": "Point", "coordinates": [13.3418, 52.47697]}},
{"type": "Feature", "id": "mc1Xu1dLt5odvKfEzkU-1FitjaQ=", "properties": {"ref": "49.2989311.46", "@spider": "lidl_de", "shop": "supermarket", "addr:street_address": "Blomenhofstr. 1a", "addr:city": "Neumarkt", "addr:postcode": "92318", "addr:country": "DE", "name": "Lidl", "opening_hours": "Mo-Sa 07:00-20:00", "brand": "Lidl", "brand:wikidata": "Q151954", "nsi_id": "lidl-5866c3"}, "geometry": {"type": "Point", "coordinates": [11.46, 49.29893]}},
{"type": "Feature", "id": "jJ5fKC-FD5n2YSpuB2R8gAQttYU=", "properties": {"ref": "48.3770710.00654", "@spider": "lidl_de", "shop": "supermarket", "addr:street_address": "Wegenerstr. 5", "addr:city": "Neu-Ulm", "addr:postcode": "89231", "addr:country": "DE", "name": "Lidl", "opening_hours": "Mo-Sa 07:00-20:00", "brand": "Lidl", "brand:wikidata": "Q151954", "nsi_id": "lidl-5866c3"}, "geometry": {"type": "Point", "coordinates": [10.00654, 48.37707]}},
{"type": "Feature", "id": "SllaXbe-VUFLTYAmA1OTChvctn0=", "properties": {"ref": "48.1941611.46449", "@spider": "lidl_de", "shop": "supermarket", "addr:street_address": "Georg Reism\u00fcller Str. 28", "addr:city": "M\u00fcnchen", "addr:postcode": "80999", "addr:country": "DE", "name": "Lidl", "opening_hours": "Mo-Sa 07:00-20:00", "brand": "Lidl", "brand:wikidata": "Q151954", "nsi_id": "lidl-5866c3"}, "geometry": {"type": "Point", "coordinates": [11.46449, 48.19416]}},
{"type": "Feature", "id": "eiLj6u4Vdrl7z2cWPcl5wuPJNSI=", "properties": {"ref": "48.000210.17226", "@spider": "lidl_de", "shop": "supermarket", "addr:street_address": "Goldhoferstr. 3", "addr:city": "Memmingen", "addr:postcode": "87700", "addr:country": "DE", "name": "Lidl", "opening_hours": "Mo-Sa 07:00-20:00", "brand": "Lidl", "brand:wikidata": "Q151954", "nsi_id": "lidl-5866c3"}, "geometry": {"type": "Point", "coordinates": [10.17226, 48.0002]}},
{"type": "Feature", "id": "06nYLcF50aCDmOfFN_knyxRMeC8=", "properties": {"ref": "47.7180110.29709", "@spider": "lidl_de", "shop": "supermarket", "addr:street_address": "Lindauer Str. 106", "addr:city": "Kempten", "addr:postcode": "87439", "addr:country": "DE", "name": "Lidl", "opening_hours": "Mo-Sa 07:00-20:00", "brand": "Lidl", "brand:wikidata": "Q151954", "nsi_id": "lidl-5866c3"}, "geometry": {"type": "Point", "coordinates": [10.29709, 47.71801]}},
{"type": "Feature", "id": "p4zphdjDCgpfza8j8tVorR3J2Zs=", "properties": {"ref": "48.7701211.39515", "@spider": "lidl_de", "shop": "supermarket", "addr:street_address": "Permoserstra\u00dfe 81", "addr:city": "Ingolstadt", "addr:postcode": "85057", "addr:country": "DE", "name": "Lidl", "opening_hours": "Mo-Sa 07:00-20:00", "brand": "Lidl", "brand:wikidata": "Q151954", "nsi_id": "lidl-5866c3"}, "geometry": {"type": "Point", "coordinates": [11.39515, 48.77012]}},
{"type": "Feature", "id": "UxDfyLZA7mtqieTwrLakWoKVAio=", "properties": {"ref": "48.4456610.28319", "@spider": "lidl_de", "shop": "supermarket", "addr:street_address": "Geschwister-Scholl-Str. 2", "addr:city": "G\u00fcnzburg", "addr:postcode": "89312", "addr:country": "DE", "name": "Lidl", "opening_hours": "Mo-Sa 07:00-20:00", "brand": "Lidl", "brand:wikidata": "Q151954", "nsi_id": "lidl-5866c3"}, "geometry": {"type": "Point", "coordinates": [10.28319, 48.44566]}},
{"type": "Feature", "id": "Ea3TLPILgrgdr4gFwLI2G7zqhzY=", "properties": {"ref": "49.4753910.98985", "@spider": "lidl_de", "shop": "supermarket", "addr:street_address": "Schwabacher Stra\u00dfe 5", "addr:city": "F\u00fcrth", "addr:postcode": "90762", "addr:country": "DE", "name": "Lidl", "opening_hours": "Mo-Sa 07:00-20:00", "brand": "Lidl", "brand:wikidata": "Q151954", "nsi_id": "lidl-5866c3"}, "geometry": {"type": "Point", "coordinates": [10.98985, 49.47539]}},
{"type": "Feature", "id": "_R8lpjo6j_nozjBnhh6FjUcRok8=", "properties": {"ref": "48.4119211.74074", "@spider": "lidl_de", "shop": "supermarket", "addr:street_address": "Karwendelring 3", "addr:city": "Freising", "addr:postcode": "85354", "addr:country": "DE", "name": "Lidl", "opening_hours": "Mo-Sa 07:00-20:00", "brand": "Lidl", "brand:wikidata": "Q151954", "nsi_id": "lidl-5866c3"}, "geometry": {"type": "Point", "coordinates": [11.74074, 48.41192]}},
{"type": "Feature", "id": "4ST6OLRre25NtrFzS3BAF2v87xQ=", "properties": {"ref": "49.5875510.97656", "@spider": "lidl_de", "shop": "supermarket", "addr:street_address": "Neum\u00fchle 4", "addr:city": "Erlangen", "addr:postcode": "91056", "addr:country": "DE", "name": "Lidl", "opening_hours": "Mo-Sa 07:00-20:00", "brand": "Lidl", "brand:wikidata": "Q151954", "nsi_id": "lidl-5866c3"}, "geometry": {"type": "Point", "coordinates": [10.97656, 49.58755]}},
{"type": "Feature", "id": "F9TK09a_hGyo5AEY6Wl_4uqZJ6g=", "properties": {"ref": "48.2612711.47262", "@spider": "lidl_de", "shop": "supermarket", "addr:street_address": "Keplerstr. 4", "addr:city": "Dachau", "addr:postcode": "85221", "addr:country": "DE", "name": "Lidl", "opening_hours": "Mo-Sa 07:00-20:00", "brand": "Lidl", "brand:wikidata": "Q151954", "nsi_id": "lidl-5866c3"}, "geometry": {"type": "Point", "coordinates": [11.47262, 48.26127]}},
{"type": "Feature", "id": "5OMB3JTuhz5CkK5OmILmAWQmWaw=", "properties": {"ref": "50.267510.96186", "@spider": "lidl_de", "shop": "supermarket", "addr:street_address": "Kanonenweg 15a", "addr:city": "Coburg", "addr:postcode": "96450", "addr:country": "DE", "name": "Lidl", "opening_hours": "Mo-Sa 07:00-20:00", "brand": "Lidl", "brand:wikidata": "Q151954", "nsi_id": "lidl-5866c3"}, "geometry": {"type": "Point", "coordinates": [10.96186, 50.2675]}},
{"type": "Feature", "id": "5MaDR4N_BqFi-FdU_uEmsfAnYHo=", "properties": {"ref": "49.9349511.54984", "@spider": "lidl_de", "shop": "supermarket", "addr:street_address": "Adolf-W\u00e4chter-Str. 1", "addr:city": "Bayreuth", "addr:postcode": "95447", "addr:country": "DE", "name": "Lidl", "opening_hours": "Mo-Sa 07:00-20:00", "brand": "Lidl", "brand:wikidata": "Q151954", "nsi_id": "lidl-5866c3"}, "geometry": {"type": "Point", "coordinates": [11.54984, 49.93495]}},
{"type": "Feature", "id": "J2p5peD4lOEEcIQEFG-YwRQm4Dc=", "properties": {"ref": "49.9085910.90136", "@spider": "lidl_de", "shop": "supermarket", "addr:street_address": "Villachstr. 2", "addr:city": "Bamberg", "addr:postcode": "96052", "addr:country": "DE", "name": "Lidl", "opening_hours": "Mo-Sa 07:00-20:00", "brand": "Lidl", "brand:wikidata": "Q151954", "nsi_id": "lidl-5866c3"}, "geometry": {"type": "Point", "coordinates": [10.90136, 49.90859]}},
{"type": "Feature", "id": "0nFXdUjPB-5mIPAgMmWc3JNzPiI=", "properties": {"ref": "48.3766510.93099", "@spider": "lidl_de", "shop": "supermarket", "addr:street_address": "Donaustra\u00dfe", "addr:city": "Augsburg", "addr:postcode": "86165", "addr:country": "DE", "name": "Lidl", "opening_hours": "Mo-Sa 07:00-20:00", "brand": "Lidl", "brand:wikidata": "Q151954", "nsi_id": "lidl-5866c3"}, "geometry": {"type": "Point", "coordinates": [10.93099, 48.37665]}},
{"type": "Feature", "id": "u3O_Niix1xtEq5H9MXj4h_Mt_Rw=", "properties": {"ref": "49.4451111.84305", "@spider": "lidl_de", "shop": "supermarket", "addr:street_address": "Infanteriestra\u00dfe 3", "addr:city": "Amberg", "addr:postcode": "92224", "addr:country": "DE", "name": "Lidl", "opening_hours": "Mo-Sa 07:00-20:00", "brand": "Lidl", "brand:wikidata": "Q151954", "nsi_id": "lidl-5866c3"}, "geometry": {"type": "Point", "coordinates": [11.84305, 49.44511]}},
{"type": "Feature", "id": "dP8VvaKVAzp7KlRW41jqbFQSS3E=", "properties": {"ref": "48.063898.5425", "@spider": "lidl_de", "shop": "supermarket", "addr:street_address": "Sch\u00fctzenstr. 42", "addr:city": "Villingen-Schwenningen", "addr:postcode": "78056", "addr:country": "DE", "name": "Lidl", "opening_hours": "Mo-Sa 07:00-21:00", "brand": "Lidl", "brand:wikidata": "Q151954", "nsi_id": "lidl-5866c3"}, "geometry": {"type": "Point", "coordinates": [8.5425, 48.06389]}},
{"type": "Feature", "id": "JQZltWdef4BoHanxIIxmYRce7BM=", "properties": {"ref": "48.4299710.01855", "@spider": "lidl_de", "shop": "supermarket", "addr:street_address": "Haslacher Weg 24", "addr:city": "Ulm", "addr:postcode": "89075", "addr:country": "DE", "name": "Lidl", "opening_hours": "Mo-Sa 07:00-21:00", "brand": "Lidl", "brand:wikidata": "Q151954", "nsi_id": "lidl-5866c3"}, "geometry": {"type": "Point", "coordinates": [10.01855, 48.42997]}},
{"type": "Feature", "id": "AIlw4_kXNhHooUjWf76_v546VeU=", "properties": {"ref": "48.818319.21312", "@spider": "lidl_de", "shop": "supermarket", "addr:street_address": "Bottroper Str. 8a", "addr:city": "Stuttgart", "addr:postcode": "70376", "addr:country": "DE", "name": "Lidl", "opening_hours": "Mo-Sa 07:00-22:00", "brand": "Lidl", "brand:wikidata": "Q151954", "nsi_id": "lidl-5866c3"}, "geometry": {"type": "Point", "coordinates": [9.21312, 48.81831]}},
{"type": "Feature", "id": "WK2LEgFA-frQ6mkMQqZC8A3AZD4=", "properties": {"ref": "49.24748.87646", "@spider": "lidl_de", "shop": "supermarket", "addr:street_address": "Steinsbergstr. 5", "addr:city": "Sinsheim", "addr:postcode": "74889", "addr:country": "DE", "name": "Lidl", "opening_hours": "Mo-Sa 07:00-21:00", "brand": "Lidl", "brand:wikidata": "Q151954", "nsi_id": "lidl-5866c3"}, "geometry": {"type": "Point", "coordinates": [8.87646, 49.2474]}},
{"type": "Feature", "id": "6oX-iyx_Tq80n5DvjKnsTkHJaK4=", "properties": {"ref": "48.71569.00218", "@spider": "lidl_de", "shop": "supermarket", "addr:street_address": "Leonberger Str. 25", "addr:city": "Sindelfingen", "addr:postcode": "71063", "addr:country": "DE", "name": "Lidl", "opening_hours": "Mo-Sa 07:00-21:00", "brand": "Lidl", "brand:wikidata": "Q151954", "nsi_id": "lidl-5866c3"}, "geometry": {"type": "Point", "coordinates": [9.00218, 48.7156]}},
{"type": "Feature", "id": "cxBDL0YaL2GSV0Kj_APovuIYq3I=", "properties": {"ref": "49.105419.70958", "@spider": "lidl_de", "shop": "supermarket", "addr:street_address": "Steinbei\u00dfweg 2", "addr:city": "Schw\u00e4bisch", "addr:postcode": "74523", "addr:country": "DE", "name": "Lidl", "opening_hours": "Mo-Sa 07:00-22:00", "brand": "Lidl", "brand:wikidata": "Q151954", "nsi_id": "lidl-5866c3"}, "geometry": {"type": "Point", "coordinates": [9.70958, 49.10541]}},
{"type": "Feature", "id": "glJ6qfXnG4T_GUwiRVmR10UFHnY=", "properties": {"ref": "48.500549.17512", "@spider": "lidl_de", "shop": "supermarket", "addr:street_address": "Wannweilerstr. 23", "addr:city": "Reutlingen", "addr:postcode": "72770", "addr:country": "DE", "name": "Lidl", "opening_hours": "Mo-Sa 07:00-21:00", "brand": "Lidl", "brand:wikidata": "Q151954", "nsi_id": "lidl-5866c3"}, "geometry": {"type": "Point", "coordinates": [9.17512, 48.50054]}},
{"type": "Feature", "id": "UNPtxRakHPcvls63KgRh3PTRY68=", "properties": {"ref": "48.899448.66707", "@spider": "lidl_de", "shop": "supermarket", "addr:street_address": "Rastatter Str. 5", "addr:city": "Pforzheim", "addr:postcode": "75179", "addr:country": "DE", "name": "Lidl", "opening_hours": "Mo-Sa 07:00-21:00", "brand": "Lidl", "brand:wikidata": "Q151954", "nsi_id": "lidl-5866c3"}, "geometry": {"type": "Point", "coordinates": [8.66707, 48.89944]}},
{"type": "Feature", "id": "vpJCMpPFvR1_ccEbgbEAilYHSyo=", "properties": {"ref": "49.203549.23102", "@spider": "lidl_de", "shop": "supermarket", "addr:street_address": "Kochendorfer Str. 44", "addr:city": "Neckarsulm", "addr:postcode": "74172", "addr:country": "DE", "name": "Lidl", "opening_hours": "Mo-Sa 07:00-22:00", "brand": "Lidl", "brand:wikidata": "Q151954", "nsi_id": "lidl-5866c3"}, "geometry": {"type": "Point", "coordinates": [9.23102, 49.20354]}},
{"type": "Feature", "id": "91m__LkTcGexBGUaVPR2wSd39Ho=", "properties": {"ref": "49.508148.5287", "@spider": "lidl_de", "shop": "supermarket", "addr:street_address": "Koblenzer Str. 23", "addr:city": "Mannheim", "addr:postcode": "68309", "addr:country": "DE", "name": "Lidl", "opening_hours": "Mo-Sa 07:00-22:00", "brand": "Lidl", "brand:wikidata": "Q151954", "nsi_id": "lidl-5866c3"}, "geometry": {"type": "Point", "coordinates": [8.5287, 49.50814]}},
{"type": "Feature", "id": "UGhMjpLSR2wcGKUWin0NjkvlkiE=", "properties": {"ref": "48.905979.17882", "@spider": "lidl_de", "shop": "supermarket", "addr:street_address": "Reuteallee 23", "addr:city": "Ludwigsburg", "addr:postcode": "71634", "addr:country": "DE", "name": "Lidl", "opening_hours": "Mo-Sa 07:00-22:00", "brand": "Lidl", "brand:wikidata": "Q151954", "nsi_id": "lidl-5866c3"}, "geometry": {"type": "Point", "coordinates": [9.17882, 48.90597]}},
{"type": "Feature", "id": "wAaZhcpLxYVLJ0QIqjlu1hbe7f0=", "properties": {"ref": "48.695679.16792", "@spider": "lidl_de", "shop": "supermarket", "addr:street_address": "Heilbronner Str. 2", "addr:city": "Leinfelden-Echterdingen", "addr:postcode": "70771", "addr:country": "DE", "name": "Lidl", "opening_hours": "Mo-Sa 07:00-21:00", "brand": "Lidl", "brand:wikidata": "Q151954", "nsi_id": "lidl-5866c3"}, "geometry": {"type": "Point", "coordinates": [9.16792, 48.69567]}},
{"type": "Feature", "id": "XsgjvoNipW1jiWoYo3rPFk7AbJU=", "properties": {"ref": "48.345917.84298", "@spider": "lidl_de", "shop": "supermarket", "addr:street_address": "Offenburger Str. 24", "addr:city": "Lahr", "addr:postcode": "77933", "addr:country": "DE", "name": "Lidl", "opening_hours": "Mo-Sa 07:00-21:00", "brand": "Lidl", "brand:wikidata": "Q151954", "nsi_id": "lidl-5866c3"}, "geometry": {"type": "Point", "coordinates": [7.84298, 48.34591]}},
{"type": "Feature", "id": "BVH3QCBo0_swNIOilHNHUMbA0G0=", "properties": {"ref": "48.86799.19882", "@spider": "lidl_de", "shop": "supermarket", "addr:street_address": "Leibnizstr. 3", "addr:city": "Kornwestheim", "addr:postcode": "70806", "addr:country": "DE", "name": "Lidl", "opening_hours": "Mo-Sa 07:00-21:00", "brand": "Lidl", "brand:wikidata": "Q151954", "nsi_id": "lidl-5866c3"}, "geometry": {"type": "Point", "coordinates": [9.19882, 48.8679]}},
{"type": "Feature", "id": "SrKS9RvetWuiFTZLftMdE_jcbEk=", "properties": {"ref": "47.674819.16459", "@spider": "lidl_de", "shop": "supermarket", "addr:street_address": "Max-Stromeyer-Str. 15", "addr:city": "Konstanz", "addr:postcode": "78467", "addr:country": "DE", "name": "Lidl", "opening_hours": "Mo-Sa 07:00-21:00", "brand": "Lidl", "brand:wikidata": "Q151954", "nsi_id": "lidl-5866c3"}, "geometry": {"type": "Point", "coordinates": [9.16459, 47.67481]}},
{"type": "Feature", "id": "Cz4oZG-NA2s42-1RCtXfS_pIn8Q=", "properties": {"ref": "48.513587.82027", "@spider": "lidl_de", "shop": "supermarket", "addr:street_address": "R\u00f6merstr. 90", "addr:city": "Kehl", "addr:postcode": "77694", "addr:country": "DE", "name": "Lidl", "opening_hours": "Mo-Sa 07:00-21:00", "brand": "Lidl", "brand:wikidata": "Q151954", "nsi_id": "lidl-5866c3"}, "geometry": {"type": "Point", "coordinates": [7.82027, 48.51358]}},
{"type": "Feature", "id": "KE_JsN2_hVtbz5cHPIoDm39qa10=", "properties": {"ref": "49.005128.50072", "@spider": "lidl_de", "shop": "supermarket", "addr:street_address": "Eisenbahnstr. 8", "addr:city": "Karlsruhe", "addr:postcode": "76229", "addr:country": "DE", "name": "Lidl", "opening_hours": "Mo-Sa 07:00-21:00", "brand": "Lidl", "brand:wikidata": "Q151954", "nsi_id": "lidl-5866c3"}, "geometry": {"type": "Point", "coordinates": [8.50072, 49.00512]}},
{"type": "Feature", "id": "H7dkDDcYpMz0WfRB27JBd3h-FVc=", "properties": {"ref": "49.152459.2232", "@spider": "lidl_de", "shop": "supermarket", "addr:street_address": "Neckarsulmer Stra\u00dfe 24", "addr:city": "Heilbronn", "addr:postcode": "74076", "addr:country": "DE", "name": "Lidl", "opening_hours": "Mo-Sa 07:00-22:00", "brand": "Lidl", "brand:wikidata": "Q151954", "nsi_id": "lidl-5866c3"}, "geometry": {"type": "Point", "coordinates": [9.2232, 49.15245]}},
{"type": "Feature", "id": "B7HSOxV648A2R_xphwSlaX9iuJA=", "properties": {"ref": "48.7017810.16405", "@spider": "lidl_de", "shop": "supermarket", "addr:street_address": "In den Seewiesen 66", "addr:city": "Heidenheim", "addr:postcode": "89520", "addr:country": "DE", "name": "Lidl", "opening_hours": "Mo-Sa 07:00-21:00", "brand": "Lidl", "brand:wikidata": "Q151954", "nsi_id": "lidl-5866c3"}, "geometry": {"type": "Point", "coordinates": [10.16405, 48.70178]}},
{"type": "Feature", "id": "rfB9QCK_YF16EvHPY1-qf0kDQGc=", "properties": {"ref": "49.437348.67919", "@spider": "lidl_de", "shop": "supermarket", "addr:street_address": "Fritz-Frey-Str. 21", "addr:city": "Heidelberg", "addr:postcode": "69121", "addr:country": "DE", "name": "Lidl", "opening_hours": "Mo-Sa 07:00-21:00", "brand": "Lidl", "brand:wikidata": "Q151954", "nsi_id": "lidl-5866c3"}, "geometry": {"type": "Point", "coordinates": [8.67919, 49.43734]}},
{"type": "Feature", "id": "EbQflcSVk7RSknyF30Z9SPV56FE=", "properties": {"ref": "48.710629.62076", "@spider": "lidl_de", "shop": "supermarket", "addr:street_address": "Stuttgarter Str. 130", "addr:city": "G\u00f6ppingen", "addr:postcode": "73035", "addr:country": "DE", "name": "Lidl", "opening_hours": "Mo-Sa 07:00-21:00", "brand": "Lidl", "brand:wikidata": "Q151954", "nsi_id": "lidl-5866c3"}, "geometry": {"type": "Point", "coordinates": [9.62076, 48.71062]}},
{"type": "Feature", "id": "I5gwlv8HlTBaLLAWw5YfuXE1Rd0=", "properties": {"ref": "47.736428.7719", "@spider": "lidl_de", "shop": "supermarket", "addr:street_address": "Hauptstr. 5", "addr:city": "Gottmadingen", "addr:postcode": "78244", "addr:country": "DE", "name": "Lidl", "opening_hours": "Mo-Sa 07:00-21:00", "brand": "Lidl", "brand:wikidata": "Q151954", "nsi_id": "lidl-5866c3"}, "geometry": {"type": "Point", "coordinates": [8.7719, 47.73642]}},
{"type": "Feature", "id": "HhZRxbMX_oCMd2jejhrvyiF-ZJ8=", "properties": {"ref": "47.991087.81593", "@spider": "lidl_de", "shop": "supermarket", "addr:street_address": "Carl-Kistner-Str. 2", "addr:city": "Freiburg", "addr:postcode": "79115", "addr:country": "DE", "name": "Lidl", "opening_hours": "Mo-Sa 07:00-21:00", "brand": "Lidl", "brand:wikidata": "Q151954", "nsi_id": "lidl-5866c3"}, "geometry": {"type": "Point", "coordinates": [7.81593, 47.99108]}},
{"type": "Feature", "id": "Dq3lvkVYvGSqp7KdjGpBq7tRA64=", "properties": {"ref": "47.869158.09603", "@spider": "lidl_de", "shop": "supermarket", "addr:street_address": "Ignaz-Gfell-Platz 3", "addr:city": "Feldberg", "addr:postcode": "79868", "addr:country": "DE", "name": "Lidl", "opening_hours": "Mo-Sa 07:00-21:00", "brand": "Lidl", "brand:wikidata": "Q151954", "nsi_id": "lidl-5866c3"}, "geometry": {"type": "Point", "coordinates": [8.09603, 47.86915]}},
{"type": "Feature", "id": "Uu-3lg-7vD_Nyn9ZaQUnekIvR8E=", "properties": {"ref": "48.753999.2747", "@spider": "lidl_de", "shop": "supermarket", "addr:street_address": "Obert\u00fcrkheimer Str. 82", "addr:city": "Esslingen", "addr:postcode": "73733", "addr:country": "DE", "name": "Lidl", "opening_hours": "Mo-Sa 07:00-21:00", "brand": "Lidl", "brand:wikidata": "Q151954", "nsi_id": "lidl-5866c3"}, "geometry": {"type": "Point", "coordinates": [9.2747, 48.75399]}},
{"type": "Feature", "id": "LfUWZOgCOIS9lpcQM-dNrrFZJzQ=", "properties": {"ref": "48.117649.80499", "@spider": "lidl_de", "shop": "supermarket", "addr:street_address": "Hubertus-Liebrecht-Str. 40", "addr:city": "Biberach", "addr:postcode": "88400", "addr:country": "DE", "name": "Lidl", "opening_hours": "Mo-Sa 07:00-21:00", "brand": "Lidl", "brand:wikidata": "Q151954", "nsi_id": "lidl-5866c3"}, "geometry": {"type": "Point", "coordinates": [9.80499, 48.11764]}}]}