{"type":"FeatureCollection","features":[{"type": "Feature", "id": "-5Z8wBW0WcIfsDWWKzsSgHUptRA=", "properties": {"ref": "Vestavia Hills", "@spider": "lifetimefitness", "leisure": "fitness_centre", "addr:full": "3051 Healthy Way", "addr:city": "Vestavia", "addr:state": "Alabama", "addr:postcode": "35243", "name": "Vestavia Hills", "phone": "(205) 547-3100", "website": "https://www.lifetime.life/life-time-locations/al-vestavia-hills.html", "brand": "Lifetime", "brand:wikidata": "Q6545004", "nsi_id": "lifetime-9a38b2"}, "geometry": {"type": "Point", "coordinates": [-86.73461, 33.43125]}},
{"type": "Feature", "id": "dDUyuAasqymQug67IhnY7ATLsVk=", "properties": {"ref": "Overland Park", "@spider": "lifetimefitness", "leisure": "fitness_centre", "addr:full": "6800 W 138th St", "addr:city": "Overland Park", "addr:state": "Kansas", "addr:postcode": "66223", "name": "Overland Park", "phone": "(913) 239-9000", "website": "https://www.lifetime.life/life-time-locations/ks-overland-park.html", "brand": "Lifetime", "brand:wikidata": "Q6545004", "nsi_id": "lifetime-9a38b2"}, "geometry": {"type": "Point", "coordinates": [-94.664152, 38.8788089]}},
{"type": "Feature", "id": "z1q2Y5691PwiUA3BfkkTST7gQRY=", "properties": {"ref": "Lenexa", "@spider": "lifetimefitness", "leisure": "fitness_centre", "addr:full": "16851 W 90th St", "addr:city": "Lenexa", "addr:state": "Kansas", "addr:postcode": "66219", "name": "Lenexa", "phone": "(913) 888-2211", "website": "https://www.lifetime.life/life-time-locations/ks-lenexa.html", "brand": "Lifetime", "brand:wikidata": "Q6545004", "nsi_id": "lifetime-9a38b2"}, "geometry": {"type": "Point", "coordinates": [-94.78148, 38.964492]}},
{"type": "Feature", "id": "hgJok5iGNfD6Myt7mxrsI1i_VKk=", "properties": {"ref": "Des Moines", "@spider": "lifetimefitness", "leisure": "fitness_centre", "addr:full": "11911 Hickman Rd", "addr:city": "Urbandale", "addr:state": "Iowa", "addr:postcode": "50323", "name": "Des Moines", "phone": "(515) 362-3500", "website": "https://www.lifetime.life/life-time-locations/ia-urbandale-des-moines.html", "brand": "Lifetime", "brand:wikidata": "Q6545004", "nsi_id": "lifetime-9a38b2"}, "geometry": {"type": "Point", "coordinates": [-93.781749, 41.617008]}},
{"type": "Feature", "id": "Z4NiDLfBeOxwIPLPU4cV203bqgI=", "properties": {"ref": "Fishers", "@spider": "lifetimefitness", "leisure": "fitness_centre", "addr:full": "11691 Fishers Corner Blvd", "addr:city": "Fishers", "addr:state": "Indiana", "addr:postcode": "46038", "name": "Fishers", "phone": "(317) 579-9555", "website": "https://www.lifetime.life/life-time-locations/in-indianapolis-fishers.html", "brand": "Lifetime", "brand:wikidata": "Q6545004", "nsi_id": "lifetime-9a38b2"}, "geometry": {"type": "Point", "coordinates": [-86.007, 39.961]}},
{"type": "Feature", "id": "mC60uuV0y3K8YxHYwgEoNEyyhXs=", "properties": {"ref": "Warrenville", "@spider": "lifetimefitness", "leisure": "fitness_centre", "addr:full": "28141 Diehl Rd", "addr:city": "Warrenville", "addr:state": "Illinois", "addr:postcode": "60555", "name": "Warrenville", "phone": "(630) 393-2600", "website": "https://www.lifetime.life/life-time-locations/il-warrenville.html", "brand": "Lifetime", "brand:wikidata": "Q6545004", "nsi_id": "lifetime-9a38b2"}, "geometry": {"type": "Point", "coordinates": [-88.1669806, 41.800359]}},
{"type": "Feature", "id": "mddD6Ce-p1op4phY6UszzUrIStQ=", "properties": {"ref": "Castle Creek", "@spider": "lifetimefitness", "leisure": "fitness_centre", "addr:full": "8705 Castle Creek Parkway East Dr", "addr:city": "Indianapolis", "addr:state": "Indiana", "addr:postcode": "46250", "name": "Castle Creek", "phone": "(317) 595-9700", "website": "https://www.lifetime.life/life-time-locations/in-indianapolis-castle-creek.html", "brand": "Lifetime", "brand:wikidata": "Q6545004", "nsi_id": "lifetime-9a38b2"}, "geometry": {"type": "Point", "coordinates": [-86.066944, 39.914224]}},
{"type": "Feature", "id": "kiREQh7IYuZGcOZz8P78Jr5OFPo=", "properties": {"ref": "Vernon Hills", "@spider": "lifetimefitness", "leisure": "fitness_centre", "addr:full": "680 Woodlands Pkwy", "addr:city": "Vernon Hills", "addr:state": "Illinois", "addr:postcode": "60061", "name": "Vernon Hills", "phone": "(847) 995-0670", "website": "https://www.lifetime.life/life-time-locations/il-vernon-hills.html", "brand": "Lifetime", "brand:wikidata": "Q6545004", "nsi_id": "lifetime-9a38b2"}, "geometry": {"type": "Point", "coordinates": [-87.9355367, 42.2126409]}},
{"type": "Feature", "id": "Fn8erPglV-xfVPBJjCKEynVub7w=", "properties": {"ref": "Schaumburg", "@spider": "lifetimefitness", "leisure": "fitness_centre", "addr:full": "900 E Higgins Rd", "addr:city": "Schaumburg", "addr:state": "Illinois", "addr:postcode": "60173", "name": "Schaumburg", "phone": "(847) 517-7171", "website": "https://www.lifetime.life/life-time-locations/il-schaumburg.html", "brand": "Lifetime", "brand:wikidata": "Q6545004", "nsi_id": "lifetime-9a38b2"}, "geometry": {"type": "Point", "coordinates": [-88.056599, 42.041731]}},
{"type": "Feature", "id": "tcchdgp9NLlyAJzQSq3JeX4WIuY=", "properties": {"ref": "River North at One Chicago", "@spider": "lifetimefitness", "leisure": "fitness_centre", "addr:full": "15 W Chicago Ave", "addr:city": "Chicago", "addr:state": "Illinois", "addr:postcode": "60654", "name": "River North at One Chicago", "phone": "872-345-8500", "website": "https://www.lifetime.life/life-time-locations/il-river-north-one-chicago.html", "brand": "Lifetime", "brand:wikidata": "Q6545004", "nsi_id": "lifetime-9a38b2"}, "geometry": {"type": "Point", "coordinates": [-87.6305415, 41.8964957]}},
{"type": "Feature", "id": "f8DNqoNt6jl788F8jmm2RxqKEBU=", "properties": {"ref": "Romeoville", "@spider": "lifetimefitness", "leisure": "fitness_centre", "addr:full": "1220 Lakeview Dr", "addr:city": "Romeoville", "addr:state": "Illinois", "addr:postcode": "60446", "name": "Romeoville", "phone": "(630) 759-9995", "website": "https://www.lifetime.life/life-time-locations/il-romeoville.html", "brand": "Lifetime", "brand:wikidata": "Q6545004", "nsi_id": "lifetime-9a38b2"}, "geometry": {"type": "Point", "coordinates": [-88.1196075, 41.6597866]}},
{"type": "Feature", "id": "tf-Vvqu9ODZFVZhR88PCuxwgTQ8=", "properties": {"ref": "Orland Park", "@spider": "lifetimefitness", "leisure": "fitness_centre", "addr:full": "16333 S La Grange Rd", "addr:city": "Orland Park", "addr:state": "Illinois", "addr:postcode": "60467", "name": "Orland Park", "phone": "(708) 364-0300", "website": "https://www.lifetime.life/life-time-locations/il-orland-park.html", "brand": "Lifetime", "brand:wikidata": "Q6545004", "nsi_id": "lifetime-9a38b2"}, "geometry": {"type": "Point", "coordinates": [-87.8524109, 41.5919397]}},
{"type": "Feature", "id": "hfv6xidyEECiaoh6DfWDFauavqs=", "properties": {"ref": "Old Orchard", "@spider": "lifetimefitness", "leisure": "fitness_centre", "addr:full": "5330 Old Orchard Rd", "addr:city": "Skokie", "addr:state": "Illinois", "addr:postcode": "60077", "name": "Old Orchard", "phone": "(847) 470-8600", "website": "https://www.lifetime.life/life-time-locations/il-skokie-old-orchard.html", "brand": "Lifetime", "brand:wikidata": "Q6545004", "nsi_id": "lifetime-9a38b2"}, "geometry": {"type": "Point", "coordinates": [-87.7589777, 42.0626218]}},
{"type": "Feature", "id": "4qWhGC3Nc9L_nHax9KtnjJw5U-M=", "properties": {"ref": "Northbrook", "@spider": "lifetimefitness", "leisure": "fitness_centre", "addr:full": "1100 Skokie Blvd", "addr:city": "Northbrook", "addr:state": "Illinois", "addr:postcode": "60062", "name": "Northbrook", "phone": "847-780-5100", "website": "https://www.lifetime.life/life-time-locations/il-northbrook.html", "brand": "Lifetime", "brand:wikidata": "Q6545004", "nsi_id": "lifetime-9a38b2"}, "geometry": {"type": "Point", "coordinates": [-87.786455, 42.12983]}},
{"type": "Feature", "id": "YpFef42yE9qj_RDKmzxUqydWSuc=", "properties": {"ref": "Lake Zurich", "@spider": "lifetimefitness", "leisure": "fitness_centre", "addr:full": "400 North Rand Road", "addr:city": "Lake Zurich", "addr:state": "Illinois", "addr:postcode": "60047", "name": "Lake Zurich", "phone": "847-719-9200", "website": "https://www.lifetime.life/life-time-locations/il-lake-zurich.html", "brand": "Lifetime", "brand:wikidata": "Q6545004", "nsi_id": "lifetime-9a38b2"}, "geometry": {"type": "Point", "coordinates": [-88.1130974, 42.2037091]}},
{"type": "Feature", "id": "ab2jF4LkUtwJXFJT7DPnLZ4JG5Y=", "properties": {"ref": "Woodbridge", "@spider": "lifetimefitness", "leisure": "fitness_centre", "addr:full": "7405 Weston Rd", "addr:city": "Vaughan", "addr:state": "Ontario", "addr:postcode": "L4L 0H3", "name": "Woodbridge", "phone": "(289) 290-6600", "website": "https://www.lifetime.life/life-time-locations/on-woodbridge.html", "brand": "Lifetime", "brand:wikidata": "Q6545004", "nsi_id": "lifetime-9a38b2"}, "geometry": {"type": "Point", "coordinates": [-79.5445452, 43.7764576]}},
{"type": "Feature", "id": "5k13GAVCdceL76TDMF6C40Eesgo=", "properties": {"ref": "Mississauga", "@spider": "lifetimefitness", "leisure": "fitness_centre", "addr:full": "3055 Pepper Mill Ct", "addr:city": "Mississauga", "addr:state": "Ontario", "addr:postcode": "L5L 4X5", "name": "Mississauga", "phone": "(905) 363-0200", "website": "https://www.lifetime.life/life-time-locations/on-mississauga.html", "brand": "Lifetime", "brand:wikidata": "Q6545004", "nsi_id": "lifetime-9a38b2"}, "geometry": {"type": "Point", "coordinates": [-79.711339, 43.538339]}},
{"type": "Feature", "id": "yJKshA6LXUevFigps3WW74UcrcU=", "properties": {"ref": "Ajax", "@spider": "lifetimefitness", "leisure": "fitness_centre", "addr:full": "100 Beck Crescent", "addr:city": "Ajax", "addr:state": "Ontario", "addr:postcode": "L1Z 1C9", "name": "Ajax", "phone": "905-619-0211", "website": "https://www.lifetime.life/life-time-locations/on-ajax.html", "brand": "Lifetime", "brand:wikidata": "Q6545004", "nsi_id": "lifetime-9a38b2"}, "geometry": {"type": "Point", "coordinates": [-79.007893, 43.8590293]}},
{"type": "Feature", "id": "qoKVNJgLjpdxYnxAF_E5PG7Xhi8=", "properties": {"ref": "Bellevue", "@spider": "lifetimefitness", "leisure": "fitness_centre", "addr:full": "11111 NE 8th St", "addr:city": "Bellevue", "addr:state": "Washington", "addr:postcode": "98004", "name": "Bellevue", "phone": "206-712-7900", "website": "https://www.lifetime.life/life-time-locations/wa-bellevue.html", "brand": "Lifetime", "brand:wikidata": "Q6545004", "nsi_id": "lifetime-9a38b2"}, "geometry": {"type": "Point", "coordinates": [-122.192579, 47.616484]}},
{"type": "Feature", "id": "tS_nWQvTQqjciPXIELtxXGWlyiE=", "properties": {"ref": "Brookfield", "@spider": "lifetimefitness", "leisure": "fitness_centre", "addr:full": "17585 Golf Pkwy", "addr:city": "Brookfield", "addr:state": "Wisconsin", "addr:postcode": "53045", "name": "Brookfield", "phone": "262-899-7100", "website": "https://www.lifetime.life/life-time-locations/wi-brookfield.html", "brand": "Lifetime", "brand:wikidata": "Q6545004", "nsi_id": "lifetime-9a38b2"}, "geometry": {"type": "Point", "coordinates": [-88.100578, 43.031417]}},
{"type": "Feature", "id": "MFLtxlLm_YInKFcn9w4Vwp8SJeY=", "properties": {"ref": "Oakbrook", "@spider": "lifetimefitness", "leisure": "fitness_centre", "addr:full": "2000 Oakbrook Center", "addr:city": "Oak Brook", "addr:state": "Illinois", "addr:postcode": "60523", "name": "Oakbrook", "phone": "630-203-5400", "website": "https://www.lifetime.life/life-time-locations/il-oakbrook.html", "brand": "Lifetime", "brand:wikidata": "Q6545004", "nsi_id": "lifetime-9a38b2"}, "geometry": {"type": "Point", "coordinates": [-87.9541523, 41.8537482]}},
{"type": "Feature", "id": "BwAnc9OO4JRKWyznz3X2b6KXuuU=", "properties": {"ref": "Reston", "@spider": "lifetimefitness", "leisure": "fitness_centre", "addr:full": "1757 Business Center Dr", "addr:city": "Reston", "addr:state": "Virginia", "addr:postcode": "20190", "name": "Reston", "phone": "(571) 512-3500", "website": "https://www.lifetime.life/life-time-locations/va-reston.html", "brand": "Lifetime", "brand:wikidata": "Q6545004", "nsi_id": "lifetime-9a38b2"}, "geometry": {"type": "Point", "coordinates": [-77.3293191, 38.9504526]}},
{"type": "Feature", "id": "knhnpt_PzMs0erGheubUf74zP2E=", "properties": {"ref": "Gainesville", "@spider": "lifetimefitness", "leisure": "fitness_centre", "addr:full": "7801 Limestone Drive", "addr:city": "Gainesville", "addr:state": "Virginia", "addr:postcode": "20155", "name": "Gainesville", "phone": "703-743-6100", "website": "https://www.lifetime.life/life-time-locations/va-gainesville.html", "brand": "Lifetime", "brand:wikidata": "Q6545004", "nsi_id": "lifetime-9a38b2"}, "geometry": {"type": "Point", "coordinates": [-77.59706, 38.787945]}},
{"type": "Feature", "id": "fx0R0iPJBMKxBAk0bdMyUimqEoE=", "properties": {"ref": "Fairfax", "@spider": "lifetimefitness", "leisure": "fitness_centre", "addr:full": "9602 Main St", "addr:city": "Fairfax", "addr:state": "Virginia", "addr:postcode": "22031", "name": "Fairfax", "phone": "(703) 323-8700", "website": "https://www.lifetime.life/life-time-locations/va-fairfax.html", "brand": "Lifetime", "brand:wikidata": "Q6545004", "nsi_id": "lifetime-9a38b2"}, "geometry": {"type": "Point", "coordinates": [-77.27295, 38.84483]}},
{"type": "Feature", "id": "SyEPA2kZ8YsMQrt5t4kfjP3Kiss=", "properties": {"ref": "Centreville", "@spider": "lifetimefitness", "leisure": "fitness_centre", "addr:full": "5900 Trinity Pkwy", "addr:city": "Centreville", "addr:state": "Virginia", "addr:postcode": "20120", "name": "Centreville", "phone": "(703) 266-6200", "website": "https://www.lifetime.life/life-time-locations/va-centreville.html", "brand": "Lifetime", "brand:wikidata": "Q6545004", "nsi_id": "lifetime-9a38b2"}, "geometry": {"type": "Point", "coordinates": [-77.4414642, 38.8403856]}},
{"type": "Feature", "id": "NUsB33XqlFk-gUxrU-F8oJ5Ykkc=", "properties": {"ref": "Ashburn-Sterling", "@spider": "lifetimefitness", "leisure": "fitness_centre", "addr:full": "44610 Prentice Dr", "addr:city": "Sterling", "addr:state": "Virginia", "addr:postcode": "20166", "name": "Ashburn-Sterling", "phone": "703-433-0256", "website": "https://www.lifetime.life/life-time-locations/va-ashburn-sterling.html", "brand": "Lifetime", "brand:wikidata": "Q6545004", "nsi_id": "lifetime-9a38b2"}, "geometry": {"type": "Point", "coordinates": [-77.45793, 39.002043]}},
{"type": "Feature", "id": "Aj0O6OWLzKFpjZ0qHLWlrya0ngs=", "properties": {"ref": "South Jordan", "@spider": "lifetimefitness", "leisure": "fitness_centre", "addr:full": "10996 S River Front Pkwy", "addr:city": "South Jordan", "addr:state": "Utah", "addr:postcode": "84095", "name": "South Jordan", "phone": "(801) 302-0909", "website": "https://www.lifetime.life/life-time-locations/ut-south-jordan.html", "brand": "Lifetime", "brand:wikidata": "Q6545004", "nsi_id": "lifetime-9a38b2"}, "geometry": {"type": "Point", "coordinates": [-111.916764, 40.5516956]}},
{"type": "Feature", "id": "NKiMbeUO5ER02CGM9lyzXDPYlxA=", "properties": {"ref": "Sugar Land", "@spider": "lifetimefitness", "leisure": "fitness_centre", "addr:full": "1331 Highway 6", "addr:city": "Sugar Land", "addr:state": "Texas", "addr:postcode": "77478", "name": "Sugar Land", "phone": "(281) 340-3100", "website": "https://www.lifetime.life/life-time-locations/tx-sugar-land.html", "brand": "Lifetime", "brand:wikidata": "Q6545004", "nsi_id": "lifetime-9a38b2"}, "geometry": {"type": "Point", "coordinates": [-95.632502, 29.605104]}},
{"type": "Feature", "id": "zqfFAPm_na0FMd0P2qH189sejcs=", "properties": {"ref": "San Antonio at the Rim", "@spider": "lifetimefitness", "leisure": "fitness_centre", "addr:full": "5639 Worth Pkwy", "addr:city": "San Antonio", "addr:state": "Texas", "addr:postcode": "78257", "name": "San Antonio at the Rim", "phone": "(210) 222-1984", "website": "https://www.lifetime.life/life-time-locations/tx-san-antonio-at-the-rim.html", "brand": "Lifetime", "brand:wikidata": "Q6545004", "nsi_id": "lifetime-9a38b2"}, "geometry": {"type": "Point", "coordinates": [-98.6003309, 29.6128895]}},
{"type": "Feature", "id": "hSQVR8iUELPlXLxTIgAs_loTaLQ=", "properties": {"ref": "San Antonio 281", "@spider": "lifetimefitness", "leisure": "fitness_centre", "addr:full": "18510 US Highway 281 N", "addr:city": "San Antonio", "addr:state": "Texas", "addr:postcode": "78259", "name": "San Antonio 281", "phone": "(210) 545-5000", "website": "https://www.lifetime.life/life-time-locations/tx-san-antonio-281.html", "brand": "Lifetime", "brand:wikidata": "Q6545004", "nsi_id": "lifetime-9a38b2"}, "geometry": {"type": "Point", "coordinates": [-98.4559487, 29.6358233]}},
{"type": "Feature", "id": "XNmyuksJWNZBQMP8S5V9j9zeB3A=", "properties": {"ref": "Plano Tennis", "@spider": "lifetimefitness", "leisure": "fitness_centre", "addr:full": "7090 Preston Rd", "addr:city": "Plano", "addr:state": "Texas", "addr:postcode": "75024", "name": "Plano Tennis", "phone": "(469) 353-6000", "website": "https://www.lifetime.life/life-time-locations/tx-plano-tennis.html", "brand": "Lifetime", "brand:wikidata": "Q6545004", "nsi_id": "lifetime-9a38b2"}, "geometry": {"type": "Point", "coordinates": [-96.7955202, 33.071413]}},
{"type": "Feature", "id": "lWMWCStzn-l49-m0s0vKwqR_Yoc=", "properties": {"ref": "Plano", "@spider": "lifetimefitness", "leisure": "fitness_centre", "addr:full": "7100 Preston Rd", "addr:city": "Plano", "addr:state": "Texas", "addr:postcode": "75024", "name": "Plano", "phone": "(214) 227-0700", "website": "https://www.lifetime.life/life-time-locations/tx-plano.html", "brand": "Lifetime", "brand:wikidata": "Q6545004", "nsi_id": "lifetime-9a38b2"}, "geometry": {"type": "Point", "coordinates": [-96.7955202, 33.071413]}},
{"type": "Feature", "id": "A_NdJuif9yP8YKT6grSHW_hJKR0=", "properties": {"ref": "McKinney at Craig Ranch", "@spider": "lifetimefitness", "leisure": "fitness_centre", "addr:full": "7910 Collin McKinney Parkway", "addr:city": "McKinney", "addr:state": "Texas", "addr:postcode": "75070", "name": "McKinney at Craig Ranch", "phone": "469-748-3100", "website": "https://www.lifetime.life/life-time-locations/tx-mckinney-craig-ranch.html", "brand": "Lifetime", "brand:wikidata": "Q6545004", "nsi_id": "lifetime-9a38b2"}, "geometry": {"type": "Point", "coordinates": [-96.7196466, 33.1422566]}},
{"type": "Feature", "id": "LP6yNrmmf8NRROaFNREYfpOcFdY=", "properties": {"ref": "Mansfield", "@spider": "lifetimefitness", "leisure": "fitness_centre", "addr:full": "1551 E Debbie Ln", "addr:city": "Mansfield", "addr:state": "Texas", "addr:postcode": "76063", "name": "Mansfield", "phone": "(682) 518-7766", "website": "https://www.lifetime.life/life-time-locations/tx-mansfield.html", "brand": "Lifetime", "brand:wikidata": "Q6545004", "nsi_id": "lifetime-9a38b2"}, "geometry": {"type": "Point", "coordinates": [-97.1155491, 32.6064994]}},
{"type": "Feature", "id": "veGoQ1Fqpt0v_tCm2B1W89evSk0=", "properties": {"ref": "Lake Houston", "@spider": "lifetimefitness", "leisure": "fitness_centre", "addr:full": "13600 Will Clayton Pkwy", "addr:city": "Humble", "addr:state": "Texas", "addr:postcode": "77346", "name": "Lake Houston", "phone": "(281) 812-4100", "website": "https://www.lifetime.life/life-time-locations/tx-humble-lake-houston.html", "brand": "Lifetime", "brand:wikidata": "Q6545004", "nsi_id": "lifetime-9a38b2"}, "geometry": {"type": "Point", "coordinates": [-95.1682489, 29.9820856]}},
{"type": "Feature", "id": "UKpQcLQxVBkvtYs8obOjB6Yw3P0=", "properties": {"ref": "Kingwood", "@spider": "lifetimefitness", "leisure": "fitness_centre", "addr:full": "20515 W Lake Houston Pkwy", "addr:city": "Humble", "addr:state": "Texas", "addr:postcode": "77346", "name": "Kingwood", "phone": "(832) 445-3900", "website": "https://www.lifetime.life/life-time-locations/tx-humble-kingwood.html", "brand": "Lifetime", "brand:wikidata": "Q6545004", "nsi_id": "lifetime-9a38b2"}, "geometry": {"type": "Point", "coordinates": [-95.177279, 30.009491]}},
{"type": "Feature", "id": "a1pBzqRJItuWWMIVNs3_U06H1Tc=", "properties": {"ref": "Greenway", "@spider": "lifetimefitness", "leisure": "fitness_centre", "addr:full": "1 Healthy Way", "addr:city": "Houston", "addr:state": "Texas", "addr:postcode": "77046", "name": "Greenway", "phone": "281-916-7300", "website": "https://www.lifetime.life/life-time-locations/tx-greenway-houston.html", "brand": "Lifetime", "brand:wikidata": "Q6545004", "nsi_id": "lifetime-9a38b2"}, "geometry": {"type": "Point", "coordinates": [-95.43545647541028, 29.731854570214516]}},
{"type": "Feature", "id": "DLoGW4oGQRT5KL23kE6a2wOrM1c=", "properties": {"ref": "GreenStreet", "@spider": "lifetimefitness", "leisure": "fitness_centre", "addr:full": "1201 Main Street, Suites 110 & 210", "addr:city": "Houston", "addr:state": "Texas", "addr:postcode": "77002", "name": "GreenStreet", "phone": "713-258-2600", "website": "https://www.lifetime.life/life-time-locations/tx-greenstreet-houston.html", "brand": "Lifetime", "brand:wikidata": "Q6545004", "nsi_id": "lifetime-9a38b2"}, "geometry": {"type": "Point", "coordinates": [-95.3675272, 29.7542178]}},
{"type": "Feature", "id": "ZRxyXE49otOFfYVTJiSS4aYr_XE=", "properties": {"ref": "Garland", "@spider": "lifetimefitness", "leisure": "fitness_centre", "addr:full": "5602 Naaman Forest Blvd", "addr:city": "Garland", "addr:state": "Texas", "addr:postcode": "75044", "name": "Garland", "phone": "(972) 496-5000", "website": "https://www.lifetime.life/life-time-locations/tx-garland.html", "brand": "Lifetime", "brand:wikidata": "Q6545004", "nsi_id": "lifetime-9a38b2"}, "geometry": {"type": "Point", "coordinates": [-96.647909, 32.962045]}},
{"type": "Feature", "id": "vfqfQ1cVSOIiITx7GHUCE59cVLg=", "properties": {"ref": "Galleria Tennis (Houston)", "@spider": "lifetimefitness", "leisure": "fitness_centre", "addr:full": "5015 Westheimer Rd Ste 4020", "addr:city": "Houston", "addr:state": "Texas", "addr:postcode": "77056", "name": "Galleria Tennis (Houston)", "phone": "281-707-7800", "website": "https://www.lifetime.life/life-time-locations/tx-galleria-tennis-houston.html", "brand": "Lifetime", "brand:wikidata": "Q6545004", "nsi_id": "lifetime-9a38b2"}, "geometry": {"type": "Point", "coordinates": [-95.4635009, 29.739212]}},
{"type": "Feature", "id": "Ch0b3j-_agVhKePrnlouWXFLtdw=", "properties": {"ref": "Frisco", "@spider": "lifetimefitness", "leisure": "fitness_centre", "addr:full": "4900 Throne Hall Way", "addr:city": "Frisco", "addr:state": "Texas", "addr:postcode": "75034", "name": "Frisco", "phone": "469-476-3900", "website": "https://www.lifetime.life/life-time-locations/tx-frisco.html", "brand": "Lifetime", "brand:wikidata": "Q6545004", "nsi_id": "lifetime-9a38b2"}, "geometry": {"type": "Point", "coordinates": [-96.8482799, 33.159098]}},
{"type": "Feature", "id": "IrxbRzmbLjtaPBbA5UfsXpz0ADI=", "properties": {"ref": "Fort Worth-Alliance", "@spider": "lifetimefitness", "leisure": "fitness_centre", "addr:full": "10761 Founders Way", "addr:city": "Fort Worth", "addr:state": "Texas", "addr:postcode": "76177", "name": "Fort Worth-Alliance", "phone": "469-540-7100", "website": "https://www.lifetime.life/life-time-locations/tx-fort-worth-alliance.html", "brand": "Lifetime", "brand:wikidata": "Q6545004", "nsi_id": "lifetime-9a38b2"}, "geometry": {"type": "Point", "coordinates": [-97.314113, 32.930233]}},
{"type": "Feature", "id": "us3YMGtKhPXv5yS2K6oayNmiAvs=", "properties": {"ref": "Flower Mound", "@spider": "lifetimefitness", "leisure": "fitness_centre", "addr:full": "3100 Churchill Dr", "addr:city": "Flower Mound", "addr:state": "Texas", "addr:postcode": "75022", "name": "Flower Mound", "phone": "(972) 355-5000", "website": "https://www.lifetime.life/life-time-locations/tx-flower-mound.html", "brand": "Lifetime", "brand:wikidata": "Q6545004", "nsi_id": "lifetime-9a38b2"}, "geometry": {"type": "Point", "coordinates": [-97.0753961, 33.0353984]}},
{"type": "Feature", "id": "t7vhbc-WD3a7M2u0isec92GjXlA=", "properties": {"ref": "Dallas - Highland Park", "@spider": "lifetimefitness", "leisure": "fitness_centre", "addr:full": "5910 N Central Expy", "addr:city": "Dallas", "addr:state": "Texas", "addr:postcode": "75206", "name": "Dallas - Highland Park", "phone": "(214) 624-5800", "website": "https://www.lifetime.life/life-time-locations/tx-dallas-highland-park.html", "brand": "Lifetime", "brand:wikidata": "Q6545004", "nsi_id": "lifetime-9a38b2"}, "geometry": {"type": "Point", "coordinates": [-96.775418, 32.838762]}},
{"type": "Feature", "id": "Er9o8nMZE1YbnhpVxfLEUXlJK48=", "properties": {"ref": "Dallas - Addison", "@spider": "lifetimefitness", "leisure": "fitness_centre", "addr:full": "3419 Trinity Mills Rd", "addr:city": "Dallas", "addr:state": "Texas", "addr:postcode": "75287", "name": "Dallas - Addison", "phone": "(972) 307-2200", "website": "https://www.lifetime.life/life-time-locations/tx-dallas-addison.html", "brand": "Lifetime", "brand:wikidata": "Q6545004", "nsi_id": "lifetime-9a38b2"}, "geometry": {"type": "Point", "coordinates": [-96.851659, 32.988256]}},
{"type": "Feature", "id": "JTG5wOGPlTDuU7I-gZcoeEqSueQ=", "properties": {"ref": "Cypress", "@spider": "lifetimefitness", "leisure": "fitness_centre", "addr:full": "9922 Fry Rd", "addr:city": "Cypress", "addr:state": "Texas", "addr:postcode": "77433", "name": "Cypress", "phone": "832-745-4100", "website": "https://www.lifetime.life/life-time-locations/tx-cypress.html", "brand": "Lifetime", "brand:wikidata": "Q6545004", "nsi_id": "lifetime-9a38b2"}, "geometry": {"type": "Point", "coordinates": [-95.727728, 29.929911]}},
{"type": "Feature", "id": "F9FuQIHHBkEd4zS3arGbHh2tk44=", "properties": {"ref": "Colleyville", "@spider": "lifetimefitness", "leisure": "fitness_centre", "addr:full": "1221 Church St", "addr:city": "Colleyville", "addr:state": "Texas", "addr:postcode": "76034", "name": "Colleyville", "phone": "(817) 581-4000", "website": "https://www.lifetime.life/life-time-locations/tx-colleyville.html", "brand": "Lifetime", "brand:wikidata": "Q6545004", "nsi_id": "lifetime-9a38b2"}, "geometry": {"type": "Point", "coordinates": [-97.149014, 32.886868]}},
{"type": "Feature", "id": "7DcJxc18m6FD7Bttkn-MaZDNSJs=", "properties": {"ref": "City Centre Houston", "@spider": "lifetimefitness", "leisure": "fitness_centre", "addr:full": "815 Town & Country Blvd", "addr:city": "Houston", "addr:state": "Texas", "addr:postcode": "77024", "name": "City Centre Houston", "phone": "(713) 464-1200", "website": "https://www.lifetime.life/life-time-locations/tx-houston-city-centre-houston.html", "brand": "Lifetime", "brand:wikidata": "Q6545004", "nsi_id": "lifetime-9a38b2"}, "geometry": {"type": "Point", "coordinates": [-95.559882, 29.780969]}},
{"type": "Feature", "id": "0x6pLjoVLqVqdPxTR09_8Xpf8Zw=", "properties": {"ref": "Cinco Ranch", "@spider": "lifetimefitness", "leisure": "fitness_centre", "addr:full": "23211 Cinco Ranch Blvd", "addr:city": "Katy", "addr:state": "Texas", "addr:postcode": "77494", "name": "Cinco Ranch", "phone": "(281) 644-5300", "website": "https://www.lifetime.life/life-time-locations/tx-katy-cinco-ranch.html", "brand": "Lifetime", "brand:wikidata": "Q6545004", "nsi_id": "lifetime-9a38b2"}, "geometry": {"type": "Point", "coordinates": [-95.770536, 29.742435]}},
{"type": "Feature", "id": "kBQFBXynQe_PKV014XYbIlrjlG8=", "properties": {"ref": "Champions", "@spider": "lifetimefitness", "leisure": "fitness_centre", "addr:full": "7717 Willow Chase Blvd", "addr:city": "Houston", "addr:state": "Texas", "addr:postcode": "77070", "name": "Champions", "phone": "(281) 469-9300", "website": "https://www.lifetime.life/life-time-locations/tx-houston-champions.html", "brand": "Lifetime", "brand:wikidata": "Q6545004", "nsi_id": "lifetime-9a38b2"}, "geometry": {"type": "Point", "coordinates": [-95.5456449, 29.966087]}},
{"type": "Feature", "id": "9eyO5qQ_8lJ6zH6L6oWAmrd8wWQ=", "properties": {"ref": "Baybrook", "@spider": "lifetimefitness", "leisure": "fitness_centre", "addr:full": "19250 Gulfbrook Dr", "addr:city": "Friendswood", "addr:state": "Texas", "addr:postcode": "77546", "name": "Baybrook", "phone": "346-600-7800", "website": "https://www.lifetime.life/life-time-locations/tx-friendswood-baybrook.html", "brand": "Lifetime", "brand:wikidata": "Q6545004", "nsi_id": "lifetime-9a38b2"}, "geometry": {"type": "Point", "coordinates": [-95.153053, 29.546478]}},
{"type": "Feature", "id": "HU2FogLf1AxAkr-nZveeQfS_nMM=", "properties": {"ref": "Austin - South", "@spider": "lifetimefitness", "leisure": "fitness_centre", "addr:full": "7101 S Mopac Expy", "addr:city": "Austin", "addr:state": "Texas", "addr:postcode": "78749", "name": "Austin - South", "phone": "512-358-8171", "website": "https://www.lifetime.life/life-time-locations/tx-austin-south.html", "brand": "Lifetime", "brand:wikidata": "Q6545004", "nsi_id": "lifetime-9a38b2"}, "geometry": {"type": "Point", "coordinates": [-97.855836, 30.217545]}},
{"type": "Feature", "id": "bXADOETcQMoKzGk6XGdWQs1cshU=", "properties": {"ref": "Austin - North", "@spider": "lifetimefitness", "leisure": "fitness_centre", "addr:full": "13725 Ranch Rd 620 N", "addr:city": "Austin", "addr:state": "Texas", "addr:postcode": "78717", "name": "Austin - North", "phone": "512-219-0909", "website": "https://www.lifetime.life/life-time-locations/tx-austin-north.html", "brand": "Lifetime", "brand:wikidata": "Q6545004", "nsi_id": "lifetime-9a38b2"}, "geometry": {"type": "Point", "coordinates": [-97.7740567, 30.4725421]}},
{"type": "Feature", "id": "JaVFjxkLlXSXcDEdWAFlQWkyE6k=", "properties": {"ref": "Austin - Downtown", "@spider": "lifetimefitness", "leisure": "fitness_centre", "addr:full": "907 W 5th St", "addr:city": "Austin", "addr:state": "Texas", "addr:postcode": "78703", "name": "Austin - Downtown", "phone": "737-218-7200", "website": "https://www.lifetime.life/life-time-locations/tx-austin-downtown.html", "brand": "Lifetime", "brand:wikidata": "Q6545004", "nsi_id": "lifetime-9a38b2"}, "geometry": {"type": "Point", "coordinates": [-97.753328, 30.269684]}},
{"type": "Feature", "id": "K1OAvr3NbxMQea0vSUr00kLhgBA=", "properties": {"ref": "Austin - Arboretum", "@spider": "lifetimefitness", "leisure": "fitness_centre", "addr:full": "4210 W Braker Ln", "addr:city": "Austin", "addr:state": "Texas", "addr:postcode": "78759", "name": "Austin - Arboretum", "phone": "737-218-7300", "website": "https://www.lifetime.life/life-time-locations/tx-austin-arboretum.html", "brand": "Lifetime", "brand:wikidata": "Q6545004", "nsi_id": "lifetime-9a38b2"}, "geometry": {"type": "Point", "coordinates": [-97.739474, 30.400271]}},
{"type": "Feature", "id": "Z52SkzdHIycwUItJr0729k9LHsM=", "properties": {"ref": "Allen", "@spider": "lifetimefitness", "leisure": "fitness_centre", "addr:full": "971 TX-121", "addr:city": "Allen", "addr:state": "Texas", "addr:postcode": "75013", "name": "Allen", "phone": "214-383-3500", "website": "https://www.lifetime.life/life-time-locations/tx-allen.html", "brand": "Lifetime", "brand:wikidata": "Q6545004", "nsi_id": "lifetime-9a38b2"}, "geometry": {"type": "Point", "coordinates": [-96.679322, 33.1413749]}},
{"type": "Feature", "id": "-pUWxH5YFomKtwW9uRoRnpHIC5s=", "properties": {"ref": "Franklin", "@spider": "lifetimefitness", "leisure": "fitness_centre", "addr:full": "5020 Carothers Pkwy", "addr:city": "Franklin", "addr:state": "Tennessee", "addr:postcode": "37067", "name": "Franklin", "phone": "615-685-7000", "website": "https://www.lifetime.life/life-time-locations/tn-franklin.html", "brand": "Lifetime", "brand:wikidata": "Q6545004", "nsi_id": "lifetime-9a38b2"}, "geometry": {"type": "Point", "coordinates": [-86.816161, 35.923637]}},
{"type": "Feature", "id": "_NDSANXC8M15RPvwglx6Mi5q2BE=", "properties": {"ref": "Collierville", "@spider": "lifetimefitness", "leisure": "fitness_centre", "addr:full": "3470 S Houston Levee Rd", "addr:city": "Collierville", "addr:state": "Tennessee", "addr:postcode": "38139", "name": "Collierville", "phone": "(901) 853-9393", "website": "https://www.lifetime.life/life-time-locations/tn-collierville.html", "brand": "Lifetime", "brand:wikidata": "Q6545004", "nsi_id": "lifetime-9a38b2"}, "geometry": {"type": "Point", "coordinates": [-89.730691, 35.054445]}},
{"type": "Feature", "id": "ruXg4noD7QFk5wh0wibKcq5Kf7Q=", "properties": {"ref": "King of Prussia", "@spider": "lifetimefitness", "leisure": "fitness_centre", "addr:full": "700 E Swedesford Rd", "addr:city": "Wayne", "addr:state": "Pennsylvania", "addr:postcode": "19087", "name": "King of Prussia", "phone": "484-254-7000", "website": "https://www.lifetime.life/life-time-locations/pa-wayne-king-of-prussia.html", "brand": "Lifetime", "brand:wikidata": "Q6545004", "nsi_id": "lifetime-9a38b2"}, "geometry": {"type": "Point", "coordinates": [-75.404682, 40.082178]}},
{"type": "Feature", "id": "7Aj99EfpGYiyrW8dSUrnAV89SRk=", "properties": {"ref": "Fort Washington", "@spider": "lifetimefitness", "leisure": "fitness_centre", "addr:full": "375 Commerce Dr", "addr:city": "Fort Washington", "addr:state": "Pennsylvania", "addr:postcode": "19034", "name": "Fort Washington", "phone": "267-462-7700", "website": "https://www.lifetime.life/life-time-locations/pa-fort-washington.html", "brand": "Lifetime", "brand:wikidata": "Q6545004", "nsi_id": "lifetime-9a38b2"}, "geometry": {"type": "Point", "coordinates": [-75.196294, 40.135854]}},
{"type": "Feature", "id": "4Eav-tD_DpSUksF5Nkvd2s1eE4k=", "properties": {"ref": "Ardmore", "@spider": "lifetimefitness", "leisure": "fitness_centre", "addr:full": "40 E Montgomery Ave", "addr:city": "Ardmore", "addr:state": "Pennsylvania", "addr:postcode": "19003", "name": "Ardmore", "phone": "484-393-7100", "website": "https://www.lifetime.life/life-time-locations/pa-ardmore.html", "brand": "Lifetime", "brand:wikidata": "Q6545004", "nsi_id": "lifetime-9a38b2"}, "geometry": {"type": "Point", "coordinates": [-75.2886219, 40.0091298]}},
{"type": "Feature", "id": "0rC9aGHA-q--OXzaJcFXEJzml8k=", "properties": {"ref": "South Tulsa", "@spider": "lifetimefitness", "leisure": "fitness_centre", "addr:full": "10642 S Memorial Dr", "addr:city": "Tulsa", "addr:state": "Oklahoma", "addr:postcode": "74133", "name": "South Tulsa", "phone": "(918) 364-8500", "website": "https://www.lifetime.life/life-time-locations/ok-south-tulsa.html", "brand": "Lifetime", "brand:wikidata": "Q6545004", "nsi_id": "lifetime-9a38b2"}, "geometry": {"type": "Point", "coordinates": [-95.8863858, 36.0086046]}},
{"type": "Feature", "id": "ACP0G3b4fgz2xmKre3wE91i59Ro=", "properties": {"ref": "Oklahoma City", "@spider": "lifetimefitness", "leisure": "fitness_centre", "addr:full": "2563 West Memorial Road", "addr:city": "Oklahoma City", "addr:state": "Oklahoma", "addr:postcode": "73134", "name": "Oklahoma City", "phone": "405-832-5200", "website": "https://www.lifetime.life/life-time-locations/ok-oklahoma-city.html", "brand": "Lifetime", "brand:wikidata": "Q6545004", "nsi_id": "lifetime-9a38b2"}, "geometry": {"type": "Point", "coordinates": [-97.560641, 35.610415]}},
{"type": "Feature", "id": "UX7F107ClDXqLh-g-T-GXmRISU8=", "properties": {"ref": "Upper Arlington", "@spider": "lifetimefitness", "leisure": "fitness_centre", "addr:full": "1860 Henderson Rd", "addr:city": "Columbus", "addr:state": "Ohio", "addr:postcode": "43220", "name": "Upper Arlington", "phone": "(614) 326-1500", "website": "https://www.lifetime.life/life-time-locations/oh-columbus-upper-arlington.html", "brand": "Lifetime", "brand:wikidata": "Q6545004", "nsi_id": "lifetime-9a38b2"}, "geometry": {"type": "Point", "coordinates": [-83.069, 40.055]}},
{"type": "Feature", "id": "kach81H9GkvX_B4kcndd0W1ba4Y=", "properties": {"ref": "Easton", "@spider": "lifetimefitness", "leisure": "fitness_centre", "addr:full": "3900 Easton Station", "addr:city": "Columbus", "addr:state": "Ohio", "addr:postcode": "43219", "name": "Easton", "phone": "(614) 428-6000", "website": "https://www.lifetime.life/life-time-locations/oh-columbus-easton.html", "brand": "Lifetime", "brand:wikidata": "Q6545004", "nsi_id": "lifetime-9a38b2"}, "geometry": {"type": "Point", "coordinates": [-82.917079, 40.050042]}},
{"type": "Feature", "id": "6Hq6sfBETs-n_ppr9Cmt4QaxX50=", "properties": {"ref": "Dublin", "@spider": "lifetimefitness", "leisure": "fitness_centre", "addr:full": "3825 Hard Rd", "addr:city": "Dublin", "addr:state": "Ohio", "addr:postcode": "43016", "name": "Dublin", "phone": "(614) 764-1144", "website": "https://www.lifetime.life/life-time-locations/oh-dublin.html", "brand": "Lifetime", "brand:wikidata": "Q6545004", "nsi_id": "lifetime-9a38b2"}, "geometry": {"type": "Point", "coordinates": [-83.093025, 40.117231]}},
{"type": "Feature", "id": "K_vVDB_AX3p9Wxq4yd8WfS94iDo=", "properties": {"ref": "Pickerington", "@spider": "lifetimefitness", "leisure": "fitness_centre", "addr:full": "1520 Stonecreek Dr S", "addr:city": "Pickerington", "addr:state": "Ohio", "addr:postcode": "43147", "name": "Pickerington", "phone": "(614) 759-8593", "website": "https://www.lifetime.life/life-time-locations/oh-pickerington.html", "brand": "Lifetime", "brand:wikidata": "Q6545004", "nsi_id": "lifetime-9a38b2"}, "geometry": {"type": "Point", "coordinates": [-82.783, 39.916]}},
{"type": "Feature", "id": "gKvy6SSksH7VtZi48-1I-qx9YmA=", "properties": {"ref": "Deerfield Township", "@spider": "lifetimefitness", "leisure": "fitness_centre", "addr:full": "8310 Wilkens Blvd", "addr:city": "Mason", "addr:state": "Ohio", "addr:postcode": "45040", "name": "Deerfield Township", "phone": "(513) 234-0660", "website": "https://www.lifetime.life/life-time-locations/oh-mason-deerfield-township.html", "brand": "Lifetime", "brand:wikidata": "Q6545004", "nsi_id": "lifetime-9a38b2"}, "geometry": {"type": "Point", "coordinates": [-84.317486, 39.318167]}},
{"type": "Feature", "id": "Ayqb_db_9-ilxq2pepV7KFv6xQc=", "properties": {"ref": "Beachwood", "@spider": "lifetimefitness", "leisure": "fitness_centre", "addr:full": "3850 Richmond Rd", "addr:city": "Beachwood", "addr:state": "Ohio", "addr:postcode": "44122", "name": "Beachwood", "phone": "(216) 292-6844", "website": "https://www.lifetime.life/life-time-locations/oh-beachwood.html", "brand": "Lifetime", "brand:wikidata": "Q6545004", "nsi_id": "lifetime-9a38b2"}, "geometry": {"type": "Point", "coordinates": [-81.4979324, 41.4550974]}},
{"type": "Feature", "id": "2jOzfiQOEuIjQV9Dk1eetzuoIDc=", "properties": {"ref": "Raleigh", "@spider": "lifetimefitness", "leisure": "fitness_centre", "addr:full": "8515 Falls of Neuse Rd", "addr:city": "Raleigh", "addr:state": "North Carolina", "addr:postcode": "27615", "name": "Raleigh", "phone": "(919) 582-7000", "website": "https://www.lifetime.life/life-time-locations/nc-raleigh.html", "brand": "Lifetime", "brand:wikidata": "Q6545004", "nsi_id": "lifetime-9a38b2"}, "geometry": {"type": "Point", "coordinates": [-78.6165547, 35.8960729]}},
{"type": "Feature", "id": "FOilOsKFskt0HlRfs1ZNa1hCStY=", "properties": {"ref": "Charlotte", "@spider": "lifetimefitness", "leisure": "fitness_centre", "addr:full": "11220 Golf Links Dr", "addr:city": "Charlotte", "addr:state": "North Carolina", "addr:postcode": "28277", "name": "Charlotte", "phone": "704-901-7100", "website": "https://www.lifetime.life/life-time-locations/nc-charlotte.html", "brand": "Lifetime", "brand:wikidata": "Q6545004", "nsi_id": "lifetime-9a38b2"}, "geometry": {"type": "Point", "coordinates": [-80.771798, 35.054274]}},
{"type": "Feature", "id": "EjQSwJdYvyPXIJPzlP1bB0aYDvQ=", "properties": {"ref": "Cary", "@spider": "lifetimefitness", "leisure": "fitness_centre", "addr:full": "1700 Regency Pkwy", "addr:city": "Cary", "addr:state": "North Carolina", "addr:postcode": "27518", "name": "Cary", "phone": "(919) 467-7779", "website": "https://www.lifetime.life/life-time-locations/nc-cary.html", "brand": "Lifetime", "brand:wikidata": "Q6545004", "nsi_id": "lifetime-9a38b2"}, "geometry": {"type": "Point", "coordinates": [-78.789546, 35.733572]}},
{"type": "Feature", "id": "cyZMykHlUaTmnDrHyQnLiosb87c=", "properties": {"ref": "Apex", "@spider": "lifetimefitness", "leisure": "fitness_centre", "addr:full": "1040 Vision Dr", "addr:city": "Apex", "addr:state": "North Carolina", "addr:postcode": "27523", "name": "Apex", "phone": "919-387-3095", "website": "https://www.lifetime.life/life-time-locations/nc-apex.html", "brand": "Lifetime", "brand:wikidata": "Q6545004", "nsi_id": "lifetime-9a38b2"}, "geometry": {"type": "Point", "coordinates": [-78.87826, 35.74982]}},
{"type": "Feature", "id": "B3dBxCDVhdd3K0Eo7hTV1qUHM1Y=", "properties": {"ref": "Westchester", "@spider": "lifetimefitness", "leisure": "fitness_centre", "addr:full": "1 Westchester Park Dr", "addr:city": "West Harrison", "addr:state": "New York", "addr:postcode": "10604", "name": "Westchester", "phone": "(914) 290-5100", "website": "https://www.lifetime.life/life-time-locations/ny-harrison-westchester.html", "brand": "Lifetime", "brand:wikidata": "Q6545004", "nsi_id": "lifetime-9a38b2"}, "geometry": {"type": "Point", "coordinates": [-73.72226, 41.02282]}},
{"type": "Feature", "id": "S3eplY8liqmBVN8yaRFF7tOzClI=", "properties": {"ref": "Syosset", "@spider": "lifetimefitness", "leisure": "fitness_centre", "addr:full": "350 Robbins Ln", "addr:city": "Syosset", "addr:state": "New York", "addr:postcode": "11791", "name": "Syosset", "phone": "(516) 822-1777", "website": "https://www.lifetime.life/life-time-locations/ny-syosset.html", "brand": "Lifetime", "brand:wikidata": "Q6545004", "nsi_id": "lifetime-9a38b2"}, "geometry": {"type": "Point", "coordinates": [-73.5149976, 40.7973583]}},
{"type": "Feature", "id": "82f6E1hEbbTKk0OkwkrFeEfhJOY=", "properties": {"ref": "Studio Battery Park", "@spider": "lifetimefitness", "leisure": "fitness_centre", "addr:full": "1 West Street", "addr:city": "New York", "addr:state": "New York", "addr:postcode": "10004", "name": "Studio Battery Park", "phone": "212-419-7300", "website": "https://www.lifetime.life/life-time-locations/ny-studio-battery-park.html", "brand": "Lifetime", "brand:wikidata": "Q6545004", "nsi_id": "lifetime-9a38b2"}, "geometry": {"type": "Point", "coordinates": [-74.0183122, 40.705242]}},
{"type": "Feature", "id": "GuNfFyuO1q0lttGshd32brWsMIA=", "properties": {"ref": "Sky (Manhattan)", "@spider": "lifetimefitness", "leisure": "fitness_centre", "addr:full": "605 West 42nd Street", "addr:city": "New York", "addr:state": "New York", "addr:postcode": "10036", "name": "Sky (Manhattan)", "phone": "(212) 564-1300", "website": "https://www.lifetime.life/life-time-locations/ny-sky-manhattan.html", "brand": "Lifetime", "brand:wikidata": "Q6545004", "nsi_id": "lifetime-9a38b2"}, "geometry": {"type": "Point", "coordinates": [-73.9989473, 40.7611264]}},
{"type": "Feature", "id": "4Chq5qdRieo2-2rKkQFqlk-6Km0=", "properties": {"ref": "One Wall Street", "@spider": "lifetimefitness", "leisure": "fitness_centre", "addr:full": "29 New Street", "addr:city": "New York", "addr:state": "New York", "addr:postcode": "10005", "name": "One Wall Street", "phone": "212-671-7100", "website": "https://www.lifetime.life/life-time-locations/ny-manhattan-one-wall-street.html", "brand": "Lifetime", "brand:wikidata": "Q6545004", "nsi_id": "lifetime-9a38b2"}, "geometry": {"type": "Point", "coordinates": [-74.0094947, 40.7023861]}},
{"type": "Feature", "id": "ujrCHG1wWw4N-pcmdrmtHs4embM=", "properties": {"ref": "NoHo", "@spider": "lifetimefitness", "leisure": "fitness_centre", "addr:full": "62 Cooper Sq", "addr:city": "New York", "addr:state": "New York", "addr:postcode": "10003", "name": "NoHo", "phone": "917-438-0300", "website": "https://www.lifetime.life/life-time-locations/ny-noho.html", "brand": "Lifetime", "brand:wikidata": "Q6545004", "nsi_id": "lifetime-9a38b2"}, "geometry": {"type": "Point", "coordinates": [-73.9934329, 40.7291914]}},
{"type": "Feature", "id": "xuhOvg8JVe7mObU8ZXkYAPyp0Lg=", "properties": {"ref": "Midtown", "@spider": "lifetimefitness", "leisure": "fitness_centre", "addr:full": "128 W 57th Street", "addr:city": "New York", "addr:state": "New York", "addr:postcode": "10019", "name": "Midtown", "phone": "212-547-4800", "website": "https://www.lifetime.life/life-time-locations/ny-midtown.html", "brand": "Lifetime", "brand:wikidata": "Q6545004", "nsi_id": "lifetime-9a38b2"}, "geometry": {"type": "Point", "coordinates": [-73.980692, 40.7637515]}},
{"type": "Feature", "id": "jzFXxcZOre1DnSzvnBpBuz-KAmo=", "properties": {"ref": "Garden City", "@spider": "lifetimefitness", "leisure": "fitness_centre", "addr:full": "750 Zeckendorf Blvd", "addr:city": "Garden City", "addr:state": "New York", "addr:postcode": "11530", "name": "Garden City", "phone": "(516) 580-7100", "website": "https://www.lifetime.life/life-time-locations/ny-garden-city.html", "brand": "Lifetime", "brand:wikidata": "Q6545004", "nsi_id": "lifetime-9a38b2"}, "geometry": {"type": "Point", "coordinates": [-73.604751, 40.739486]}},
{"type": "Feature", "id": "iU9z2-38gTa00KAeTPSRb68XrpM=", "properties": {"ref": "Dumbo", "@spider": "lifetimefitness", "leisure": "fitness_centre", "addr:full": "168 Front Street", "addr:city": "Brooklyn", "addr:state": "New York", "addr:postcode": "11201", "name": "Dumbo", "phone": "718-233-8100", "website": "https://www.lifetime.life/life-time-locations/ny-dumbo.html", "brand": "Lifetime", "brand:wikidata": "Q6545004", "nsi_id": "lifetime-9a38b2"}, "geometry": {"type": "Point", "coordinates": [-73.9887933, 40.7020078]}},
{"type": "Feature", "id": "reNnZqR3p-u4XeX7A5DR5xAZ79c=", "properties": {"ref": "Chappaqua", "@spider": "lifetimefitness", "leisure": "fitness_centre", "addr:full": "1 The Crossing", "addr:city": "Chappaqua", "addr:state": "New York", "addr:postcode": "10514", "name": "Chappaqua", "phone": "914-296-6000", "website": "https://www.lifetime.life/life-time-locations/ny-chappaqua.html", "brand": "Lifetime", "brand:wikidata": "Q6545004", "nsi_id": "lifetime-9a38b2"}, "geometry": {"type": "Point", "coordinates": [-73.751535, 41.179155]}},
{"type": "Feature", "id": "cvHok4Wxm6fqIhwgFhTx58IeTjE=", "properties": {"ref": "Brooklyn Tower", "@spider": "lifetimefitness", "leisure": "fitness_centre", "addr:full": "9 Dekalb Ave", "addr:city": "Brooklyn", "addr:state": "New York", "addr:postcode": "11201", "name": "Brooklyn Tower", "phone": "866-770-1546", "website": "https://www.lifetime.life/life-time-locations/ny-brooklyn-tower.html", "brand": "Lifetime", "brand:wikidata": "Q6545004", "nsi_id": "lifetime-9a38b2"}, "geometry": {"type": "Point", "coordinates": [-73.984723, 40.6903851]}},
{"type": "Feature", "id": "KW7DBBEn01yegtCO9FVT_t1ZDMQ=", "properties": {"ref": "23rd Street", "@spider": "lifetimefitness", "leisure": "fitness_centre", "addr:full": "60 W 23rd Street", "addr:city": "New York", "addr:state": "New York", "addr:postcode": "10010", "name": "23rd Street", "phone": "212-381-8900", "website": "https://www.lifetime.life/life-time-locations/ny-23rd-street.html", "brand": "Lifetime", "brand:wikidata": "Q6545004", "nsi_id": "lifetime-9a38b2"}, "geometry": {"type": "Point", "coordinates": [-73.9945577, 40.7423809]}},
{"type": "Feature", "id": "uZAC130SVUbGr0zn8HH8B8myXLs=", "properties": {"ref": "The Shops at Riverside", "@spider": "lifetimefitness", "leisure": "fitness_centre", "addr:full": "390 Hackensack Avenue, Lower Level, Suite #010", "addr:city": "Hackensack", "addr:state": "New Jersey", "addr:postcode": "07601", "name": "The Shops at Riverside", "phone": "551-287-3400", "website": "https://www.lifetime.life/life-time-locations/nj-riverside.html", "brand": "Lifetime", "brand:wikidata": "Q6545004", "nsi_id": "lifetime-9a38b2"}, "geometry": {"type": "Point", "coordinates": [-74.0331287, 40.907768]}},
{"type": "Feature", "id": "QSxQk33zPAs3GiASeXupDFjOW2E=", "properties": {"ref": "Princeton", "@spider": "lifetimefitness", "leisure": "fitness_centre", "addr:full": "7 Forrestal Rd S", "addr:city": "Plainsboro", "addr:state": "New Jersey", "addr:postcode": "08536", "name": "Princeton", "phone": "609-608-7100", "website": "https://www.lifetime.life/life-time-locations/nj-princeton.html", "brand": "Lifetime", "brand:wikidata": "Q6545004", "nsi_id": "lifetime-9a38b2"}, "geometry": {"type": "Point", "coordinates": [-74.617513, 40.342403]}},
{"type": "Feature", "id": "uk3LnWMx6ymCRNaaaiYOYt6Gnec=", "properties": {"ref": "Mount Laurel", "@spider": "lifetimefitness", "leisure": "fitness_centre", "addr:full": "3939 Church Rd", "addr:city": "Mount Laurel", "addr:state": "New Jersey", "addr:postcode": "08054", "name": "Mount Laurel", "phone": "(856) 813-3100", "website": "https://www.lifetime.life/life-time-locations/nj-mount-laurel.html", "brand": "Lifetime", "brand:wikidata": "Q6545004", "nsi_id": "lifetime-9a38b2"}, "geometry": {"type": "Point", "coordinates": [-74.9642481, 39.9267345]}},
{"type": "Feature", "id": "wzL2V8-bqiiWG8KA2x_eXBiWbt0=", "properties": {"ref": "Florham Park", "@spider": "lifetimefitness", "leisure": "fitness_centre", "addr:full": "14 Fernwood Rd", "addr:city": "Florham Park", "addr:state": "New Jersey", "addr:postcode": "07932", "name": "Florham Park", "phone": "(908) 598-1212", "website": "https://www.lifetime.life/life-time-locations/nj-florham-park.html", "brand": "Lifetime", "brand:wikidata": "Q6545004", "nsi_id": "lifetime-9a38b2"}, "geometry": {"type": "Point", "coordinates": [-74.3716401, 40.7856314]}},
{"type": "Feature", "id": "piMisYIHWoLmmtJV3tcWUPvNIco=", "properties": {"ref": "Bridgewater", "@spider": "lifetimefitness", "leisure": "fitness_centre", "addr:full": "145 Commons Way", "addr:city": "Bridgewater", "addr:state": "New Jersey", "addr:postcode": "08807", "name": "Bridgewater", "phone": "908-800-5100", "website": "https://www.lifetime.life/life-time-locations/nj-bridgewater.html", "brand": "Lifetime", "brand:wikidata": "Q6545004", "nsi_id": "lifetime-9a38b2"}, "geometry": {"type": "Point", "coordinates": [-74.627262, 40.588883]}},
{"type": "Feature", "id": "6eCK87pV6GS05S6BxqNFhFslZQc=", "properties": {"ref": "Berkeley Heights", "@spider": "lifetimefitness", "leisure": "fitness_centre", "addr:full": "25 Connell Dr", "addr:city": "Berkeley Heights", "addr:state": "New Jersey", "addr:postcode": "07922", "name": "Berkeley Heights", "phone": "(908) 665-5911", "website": "https://www.lifetime.life/life-time-locations/nj-berkeley-heights.html", "brand": "Lifetime", "brand:wikidata": "Q6545004", "nsi_id": "lifetime-9a38b2"}, "geometry": {"type": "Point", "coordinates": [-74.4091484, 40.6663961]}},
{"type": "Feature", "id": "Q_fOLmtUS3u7GZ8V0mEtrif7Gs4=", "properties": {"ref": "Bergen County", "@spider": "lifetimefitness", "leisure": "fitness_centre", "addr:full": "10 Van Riper Rd", "addr:city": "Montvale", "addr:state": "New Jersey", "addr:postcode": "07645", "name": "Bergen County", "phone": "(201) 746-4700", "website": "https://www.lifetime.life/life-time-locations/nj-montvale-bergen-county.html", "brand": "Lifetime", "brand:wikidata": "Q6545004", "nsi_id": "lifetime-9a38b2"}, "geometry": {"type": "Point", "coordinates": [-74.0657374, 41.0435155]}},
{"type": "Feature", "id": "sSjjU0lKW8fW18x1WmKQmCn9dtI=", "properties": {"ref": "Summerlin", "@spider": "lifetimefitness", "leisure": "fitness_centre", "addr:full": "10721 W Charleston Blvd", "addr:city": "Las Vegas", "addr:state": "Nevada", "addr:postcode": "89135", "name": "Summerlin", "phone": "(702) 228-2611", "website": "https://www.lifetime.life/life-time-locations/nv-las-vegas-summerlin.html", "brand": "Lifetime", "brand:wikidata": "Q6545004", "nsi_id": "lifetime-9a38b2"}, "geometry": {"type": "Point", "coordinates": [-115.327746, 36.157884]}},
{"type": "Feature", "id": "kzSdHd6QJFVB8j8XeEPvdvltSys=", "properties": {"ref": "Green Valley", "@spider": "lifetimefitness", "leisure": "fitness_centre", "addr:full": "121 Carnegie St", "addr:city": "Henderson", "addr:state": "Nevada", "addr:postcode": "89052", "name": "Green Valley", "phone": "(702) 802-7300", "website": "https://www.lifetime.life/life-time-locations/nv-henderson-green-valley.html", "brand": "Lifetime", "brand:wikidata": "Q6545004", "nsi_id": "lifetime-9a38b2"}, "geometry": {"type": "Point", "coordinates": [-115.09311, 36.02167]}},
{"type": "Feature", "id": "jkcKYWGJd1KD9NrIqOfAxBlk-sI=", "properties": {"ref": "Omaha", "@spider": "lifetimefitness", "leisure": "fitness_centre", "addr:full": "17007 Elm Plaza", "addr:city": "Omaha", "addr:state": "Nebraska", "addr:postcode": "68130", "name": "Omaha", "phone": "(402) 334-3000", "website": "https://www.lifetime.life/life-time-locations/ne-omaha.html", "brand": "Lifetime", "brand:wikidata": "Q6545004", "nsi_id": "lifetime-9a38b2"}, "geometry": {"type": "Point", "coordinates": [-96.180162, 41.230813]}},
{"type": "Feature", "id": "NunG0jHZU5hkrh_vZ4DwGepeGSE=", "properties": {"ref": "West County-Chesterfield", "@spider": "lifetimefitness", "leisure": "fitness_centre", "addr:full": "3058 Clarkson Rd", "addr:city": "Chesterfield", "addr:state": "Missouri", "addr:postcode": "63017", "name": "West County-Chesterfield", "phone": "(636) 227-0200", "website": "https://www.lifetime.life/life-time-locations/mo-west-county-chesterfield.html", "brand": "Lifetime", "brand:wikidata": "Q6545004", "nsi_id": "lifetime-9a38b2"}, "geometry": {"type": "Point", "coordinates": [-90.583877, 38.607464]}},
{"type": "Feature", "id": "kurMx1JJLv-SrvuxjjIpbYcrlB0=", "properties": {"ref": "Frontenac", "@spider": "lifetimefitness", "leisure": "fitness_centre", "addr:full": "2051 South Lindbergh Blvd", "addr:city": "St. Louis", "addr:state": "Missouri", "addr:postcode": "63131", "name": "Frontenac", "phone": "314-888-0806", "website": "https://www.lifetime.life/life-time-locations/mo-frontenac.html", "brand": "Lifetime", "brand:wikidata": "Q6545004", "nsi_id": "lifetime-9a38b2"}, "geometry": {"type": "Point", "coordinates": [-90.406037, 38.626535]}},
{"type": "Feature", "id": "-2I2ygTOxqulT_fabp_4_mH1q5A=", "properties": {"ref": "Woodbury", "@spider": "lifetimefitness", "leisure": "fitness_centre", "addr:full": "675 Commons Dr", "addr:city": "Woodbury", "addr:state": "Minnesota", "addr:postcode": "55125", "name": "Woodbury", "phone": "(651) 730-6000", "website": "https://www.lifetime.life/life-time-locations/mn-woodbury.html", "brand": "Lifetime", "brand:wikidata": "Q6545004", "nsi_id": "lifetime-9a38b2"}, "geometry": {"type": "Point", "coordinates": [-92.930981, 44.939443]}},
{"type": "Feature", "id": "DOQKM8oXDltSSyHGUeUkFsJNBEg=", "properties": {"ref": "White Bear Lake", "@spider": "lifetimefitness", "leisure": "fitness_centre", "addr:full": "4800 White Bear Pkwy", "addr:city": "White Bear Lake", "addr:state": "Minnesota", "addr:postcode": "55110", "name": "White Bear Lake", "phone": "(651) 426-1308", "website": "https://www.lifetime.life/life-time-locations/mn-white-bear-lake.html", "brand": "Lifetime", "brand:wikidata": "Q6545004", "nsi_id": "lifetime-9a38b2"}, "geometry": {"type": "Point", "coordinates": [-93.047332, 45.083855]}},
{"type": "Feature", "id": "bAydzRS0l72xze0_zlVXtSBlgQY=", "properties": {"ref": "St. Louis Park", "@spider": "lifetimefitness", "leisure": "fitness_centre", "addr:full": "5525 Cedar Lake Rd S", "addr:city": "St Louis Park", "addr:state": "Minnesota", "addr:postcode": "55416", "name": "St. Louis Park", "phone": "952-541-7100", "website": "https://www.lifetime.life/life-time-locations/mn-st-louis-park.html", "brand": "Lifetime", "brand:wikidata": "Q6545004", "nsi_id": "lifetime-9a38b2"}, "geometry": {"type": "Point", "coordinates": [-93.3496909, 44.9630884]}},
{"type": "Feature", "id": "IvSdeenrQ83prnO9zNm22324ekE=", "properties": {"ref": "Target Center (Minneapolis)", "@spider": "lifetimefitness", "leisure": "fitness_centre", "addr:full": "600 1st Ave N", "addr:city": "Minneapolis", "addr:state": "Minnesota", "addr:postcode": "55403", "name": "Target Center (Minneapolis)", "phone": "(612) 486-3600", "website": "https://www.lifetime.life/life-time-locations/mn-minneapolis-target-center.html", "brand": "Lifetime", "brand:wikidata": "Q6545004", "nsi_id": "lifetime-9a38b2"}, "geometry": {"type": "Point", "coordinates": [-93.276159, 44.979548]}},
{"type": "Feature", "id": "A7LBjFcuhIW8ZmGYE4hfHv9iH5c=", "properties": {"ref": "Savage", "@spider": "lifetimefitness", "leisure": "fitness_centre", "addr:full": "6544 Loftus Ln W", "addr:city": "Savage", "addr:state": "Minnesota", "addr:postcode": "55378", "name": "Savage", "phone": "(952) 226-1222", "website": "https://www.lifetime.life/life-time-locations/mn-savage.html", "brand": "Lifetime", "brand:wikidata": "Q6545004", "nsi_id": "lifetime-9a38b2"}, "geometry": {"type": "Point", "coordinates": [-93.361533, 44.749786]}},
{"type": "Feature", "id": "dqKt8_88axA31r2aloIlgRotiXE=", "properties": {"ref": "Plymouth", "@spider": "lifetimefitness", "leisure": "fitness_centre", "addr:full": "3600 Plymouth Blvd", "addr:city": "Plymouth", "addr:state": "Minnesota", "addr:postcode": "55446", "name": "Plymouth", "phone": "(763) 509-0909", "website": "https://www.lifetime.life/life-time-locations/mn-plymouth.html", "brand": "Lifetime", "brand:wikidata": "Q6545004", "nsi_id": "lifetime-9a38b2"}, "geometry": {"type": "Point", "coordinates": [-93.475666, 45.022322]}},
{"type": "Feature", "id": "8YLKdmRbhlcS0I4emfumVE7FZzw=", "properties": {"ref": "Oakdale Village Tennis", "@spider": "lifetimefitness", "leisure": "fitness_centre", "addr:full": "1201 Ford Rd", "addr:city": "Minnetonka", "addr:state": "Minnesota", "addr:postcode": "55305", "name": "Oakdale Village Tennis", "phone": "(952) 593-3900", "website": "https://www.lifetime.life/life-time-locations/mn-minnetonka-oakdale-village-tennis.html", "brand": "Lifetime", "brand:wikidata": "Q6545004", "nsi_id": "lifetime-9a38b2"}, "geometry": {"type": "Point", "coordinates": [-93.40525, 44.97192]}},
{"type": "Feature", "id": "ej7HE84iGE7u_vocNLshbAXMAmA=", "properties": {"ref": "New Hope", "@spider": "lifetimefitness", "leisure": "fitness_centre", "addr:full": "4239 Winnetka Ave N", "addr:city": "New Hope", "addr:state": "Minnesota", "addr:postcode": "55428", "name": "New Hope", "phone": "(763) 971-0404", "website": "https://www.lifetime.life/life-time-locations/mn-new-hope.html", "brand": "Lifetime", "brand:wikidata": "Q6545004", "nsi_id": "lifetime-9a38b2"}, "geometry": {"type": "Point", "coordinates": [-93.3803517, 45.033572]}},
{"type": "Feature", "id": "ZMqxmuOONbrzwv4a6IXGaIAzbxs=", "properties": {"ref": "Minnetonka", "@spider": "lifetimefitness", "leisure": "fitness_centre", "addr:full": "3310 County Road 101 S", "addr:city": "Minnetonka", "addr:state": "Minnesota", "addr:postcode": "55391", "name": "Minnetonka", "phone": "(952) 476-1717", "website": "https://www.lifetime.life/life-time-locations/mn-minnetonka.html", "brand": "Lifetime", "brand:wikidata": "Q6545004", "nsi_id": "lifetime-9a38b2"}, "geometry": {"type": "Point", "coordinates": [-93.5022714, 44.9433983]}},
{"type": "Feature", "id": "F0an7tqg2uJhY1dSdYlLyS0nrkA=", "properties": {"ref": "Maple Grove", "@spider": "lifetimefitness", "leisure": "fitness_centre", "addr:full": "12601 82nd Ave N", "addr:city": "Maple Grove", "addr:state": "Minnesota", "addr:postcode": "55369", "name": "Maple Grove", "phone": "(763) 420-8282", "website": "https://www.lifetime.life/life-time-locations/mn-maple-grove.html", "brand": "Lifetime", "brand:wikidata": "Q6545004", "nsi_id": "lifetime-9a38b2"}, "geometry": {"type": "Point", "coordinates": [-93.440983, 45.103371]}},
{"type": "Feature", "id": "ku-UE7WPpeUuWI9IbCRX4e3HC9U=", "properties": {"ref": "Lakeville", "@spider": "lifetimefitness", "leisure": "fitness_centre", "addr:full": "18425 Dodd Blvd", "addr:city": "Lakeville", "addr:state": "Minnesota", "addr:postcode": "55044", "name": "Lakeville", "phone": "(952) 985-8800", "website": "https://www.lifetime.life/life-time-locations/mn-lakeville.html", "brand": "Lifetime", "brand:wikidata": "Q6545004", "nsi_id": "lifetime-9a38b2"}, "geometry": {"type": "Point", "coordinates": [-93.2500005, 44.6828614]}},
{"type": "Feature", "id": "vZ62W8RNEPVqRdCoH7_3dEVfD4M=", "properties": {"ref": "Highland Park", "@spider": "lifetimefitness", "leisure": "fitness_centre", "addr:full": "2145 Ford Pkwy", "addr:city": "Saint Paul", "addr:state": "Minnesota", "addr:postcode": "55116", "name": "Highland Park", "phone": "(651) 698-5000", "website": "https://www.lifetime.life/life-time-locations/mn-st-paul-highland-park.html", "brand": "Lifetime", "brand:wikidata": "Q6545004", "nsi_id": "lifetime-9a38b2"}, "geometry": {"type": "Point", "coordinates": [-93.190078, 44.918128]}},
{"type": "Feature", "id": "j-axNoJiJ0c7jZGK5u5UaPNFj38=", "properties": {"ref": "Fridley", "@spider": "lifetimefitness", "leisure": "fitness_centre", "addr:full": "1200 Moore Lake Dr E", "addr:city": "Fridley", "addr:state": "Minnesota", "addr:postcode": "55432", "name": "Fridley", "phone": "(763) 656-1500", "website": "https://www.lifetime.life/life-time-locations/mn-fridley.html", "brand": "Lifetime", "brand:wikidata": "Q6545004", "nsi_id": "lifetime-9a38b2"}, "geometry": {"type": "Point", "coordinates": [-93.23969, 45.079915]}},
{"type": "Feature", "id": "DbSebDV_5oEsEwVPotmJmwcyc4k=", "properties": {"ref": "Edina at Southdale", "@spider": "lifetimefitness", "leisure": "fitness_centre", "addr:full": "250 Southdale Center", "addr:city": "Edina", "addr:state": "Minnesota", "addr:postcode": "55435", "name": "Edina at Southdale", "phone": "952-257-7100", "website": "https://www.lifetime.life/life-time-locations/mn-edina-southdale.html", "brand": "Lifetime", "brand:wikidata": "Q6545004", "nsi_id": "lifetime-9a38b2"}, "geometry": {"type": "Point", "coordinates": [-93.3247802, 44.8806577]}},
{"type": "Feature", "id": "teAZG28Kbu-QDaBZHVbcHTAegXE=", "properties": {"ref": "Eden Prairie Athletic", "@spider": "lifetimefitness", "leisure": "fitness_centre", "addr:full": "755 Prairie Center Dr", "addr:city": "Eden Prairie", "addr:state": "Minnesota", "addr:postcode": "55344", "name": "Eden Prairie Athletic", "phone": "(952) 829-8400", "website": "https://www.lifetime.life/life-time-locations/mn-eden-prairie-athletic.html", "brand": "Lifetime", "brand:wikidata": "Q6545004", "nsi_id": "lifetime-9a38b2"}, "geometry": {"type": "Point", "coordinates": [-93.436261, 44.856245]}},
{"type": "Feature", "id": "-mRznByfyB6Rl0VlIB2IxJWFlXU=", "properties": {"ref": "Eagan", "@spider": "lifetimefitness", "leisure": "fitness_centre", "addr:full": "1565 Thomas Center Dr", "addr:city": "Eagan", "addr:state": "Minnesota", "addr:postcode": "55122", "name": "Eagan", "phone": "(651) 688-3000", "website": "https://www.lifetime.life/life-time-locations/mn-eagan.html", "brand": "Lifetime", "brand:wikidata": "Q6545004", "nsi_id": "lifetime-9a38b2"}, "geometry": {"type": "Point", "coordinates": [-93.179407, 44.792354]}},
{"type": "Feature", "id": "EbWFEg0mwospQGCjz8Ax7xTU1Ws=", "properties": {"ref": "Crosstown (Eden Prairie)", "@spider": "lifetimefitness", "leisure": "fitness_centre", "addr:full": "6233 Baker Rd", "addr:city": "Eden Prairie", "addr:state": "Minnesota", "addr:postcode": "55346", "name": "Crosstown (Eden Prairie)", "phone": "(952) 943-4600", "website": "https://www.lifetime.life/life-time-locations/mn-eden-prairie-crosstown.html", "brand": "Lifetime", "brand:wikidata": "Q6545004", "nsi_id": "lifetime-9a38b2"}, "geometry": {"type": "Point", "coordinates": [-93.445774, 44.889732]}},
{"type": "Feature", "id": "SH3VtJ9BxhFT6D19ZhjI3ZCuBRs=", "properties": {"ref": "Coon Rapids", "@spider": "lifetimefitness", "leisure": "fitness_centre", "addr:full": "2100 Northdale Blvd NW", "addr:city": "Coon Rapids", "addr:state": "Minnesota", "addr:postcode": "55433", "name": "Coon Rapids", "phone": "(763) 767-9000", "website": "https://www.lifetime.life/life-time-locations/mn-coon-rapids.html", "brand": "Lifetime", "brand:wikidata": "Q6545004", "nsi_id": "lifetime-9a38b2"}, "geometry": {"type": "Point", "coordinates": [-93.320631, 45.180749]}},
{"type": "Feature", "id": "O3d5Y1OuoS-WxxH_QC9hyw9-enA=", "properties": {"ref": "Chanhassen", "@spider": "lifetimefitness", "leisure": "fitness_centre", "addr:full": "2901 Corporate Pl", "addr:city": "Chanhassen", "addr:state": "Minnesota", "addr:postcode": "55317", "name": "Chanhassen", "phone": "952-380-0303", "website": "https://www.lifetime.life/life-time-locations/mn-chanhassen.html", "brand": "Lifetime", "brand:wikidata": "Q6545004", "nsi_id": "lifetime-9a38b2"}, "geometry": {"type": "Point", "coordinates": [-93.594677, 44.861402]}},
{"type": "Feature", "id": "FDB3exelSq7K9eA8ySeLsBm3fQE=", "properties": {"ref": "Champlin", "@spider": "lifetimefitness", "leisure": "fitness_centre", "addr:full": "11989 Champlin Dr", "addr:city": "Champlin", "addr:state": "Minnesota", "addr:postcode": "55316", "name": "Champlin", "phone": "(763) 576-3000", "website": "https://www.lifetime.life/life-time-locations/mn-champlin.html", "brand": "Lifetime", "brand:wikidata": "Q6545004", "nsi_id": "lifetime-9a38b2"}, "geometry": {"type": "Point", "coordinates": [-93.393775, 45.1729879]}},
{"type": "Feature", "id": "C239SXl6GxE5868wCxRn8wzxbwk=", "properties": {"ref": "Bloomington South", "@spider": "lifetimefitness", "leisure": "fitness_centre", "addr:full": "1001 W 98th St", "addr:city": "Bloomington", "addr:state": "Minnesota", "addr:postcode": "55431", "name": "Bloomington South", "phone": "(952) 830-7900", "website": "https://www.lifetime.life/life-time-locations/mn-bloomington-south.html", "brand": "Lifetime", "brand:wikidata": "Q6545004", "nsi_id": "lifetime-9a38b2"}, "geometry": {"type": "Point", "coordinates": [-93.2933865, 44.8262006]}},
{"type": "Feature", "id": "7wBVzy-3z451GBYJAVb9PnKhcl4=", "properties": {"ref": "Bloomington North", "@spider": "lifetimefitness", "leisure": "fitness_centre", "addr:full": "5250 W 84th St", "addr:city": "Bloomington", "addr:state": "Minnesota", "addr:postcode": "55437", "name": "Bloomington North", "phone": "(952) 835-2222", "website": "https://www.lifetime.life/life-time-locations/mn-bloomington-north.html", "brand": "Lifetime", "brand:wikidata": "Q6545004", "nsi_id": "lifetime-9a38b2"}, "geometry": {"type": "Point", "coordinates": [-93.3488622, 44.8517759]}},
{"type": "Feature", "id": "QUxhGeYxjZTmmQB_CCVCJrfrhTw=", "properties": {"ref": "Apple Valley", "@spider": "lifetimefitness", "leisure": "fitness_centre", "addr:full": "5995 149th St W", "addr:city": "Apple Valley", "addr:state": "Minnesota", "addr:postcode": "55124", "name": "Apple Valley", "phone": "952-431-9000", "website": "https://www.lifetime.life/life-time-locations/mn-apple-valley.html", "brand": "Lifetime", "brand:wikidata": "Q6545004", "nsi_id": "lifetime-9a38b2"}, "geometry": {"type": "Point", "coordinates": [-93.186076, 44.733945]}},
{"type": "Feature", "id": "7CgpjkYiIUH9xacDPxSIer8o8cY=", "properties": {"ref": "Troy", "@spider": "lifetimefitness", "leisure": "fitness_centre", "addr:full": "4700 Investment Dr", "addr:city": "Troy", "addr:state": "Michigan", "addr:postcode": "48098", "name": "Troy", "phone": "(248) 267-1000", "website": "https://www.lifetime.life/life-time-locations/mi-troy.html", "brand": "Lifetime", "brand:wikidata": "Q6545004", "nsi_id": "lifetime-9a38b2"}, "geometry": {"type": "Point", "coordinates": [-83.172542, 42.589075]}},
{"type": "Feature", "id": "KSBRZskk8B3GcTV8iaz4LYb3nqs=", "properties": {"ref": "Shelby Township", "@spider": "lifetimefitness", "leisure": "fitness_centre", "addr:full": "14843 Lakeside Blvd N", "addr:city": "Shelby Township", "addr:state": "Michigan", "addr:postcode": "48315", "name": "Shelby Township", "phone": "(586) 532-1300", "website": "https://www.lifetime.life/life-time-locations/mi-shelby-township.html", "brand": "Lifetime", "brand:wikidata": "Q6545004", "nsi_id": "lifetime-9a38b2"}, "geometry": {"type": "Point", "coordinates": [-82.9745092, 42.6314383]}},
{"type": "Feature", "id": "_ycHEhh4x8W2jFAN9Go758jhC88=", "properties": {"ref": "Rochester Hills", "@spider": "lifetimefitness", "leisure": "fitness_centre", "addr:full": "200 W Avon Rd", "addr:city": "Rochester Hills", "addr:state": "Michigan", "addr:postcode": "48307", "name": "Rochester Hills", "phone": "(248) 601-9400", "website": "https://www.lifetime.life/life-time-locations/mi-rochester-hills.html", "brand": "Lifetime", "brand:wikidata": "Q6545004", "nsi_id": "lifetime-9a38b2"}, "geometry": {"type": "Point", "coordinates": [-83.136895, 42.668601]}},
{"type": "Feature", "id": "WtBBntVOJHk_5Ga22HrOgSgXNso=", "properties": {"ref": "Novi", "@spider": "lifetimefitness", "leisure": "fitness_centre", "addr:full": "40000 High Pointe Blvd", "addr:city": "Novi", "addr:state": "Michigan", "addr:postcode": "48375", "name": "Novi", "phone": "(248) 735-0100", "website": "https://www.lifetime.life/life-time-locations/mi-novi.html", "brand": "Lifetime", "brand:wikidata": "Q6545004", "nsi_id": "lifetime-9a38b2"}, "geometry": {"type": "Point", "coordinates": [-83.4376769, 42.448633]}},
{"type": "Feature", "id": "IkgZj4CHS9DRrnqAm3vJqPth3kI=", "properties": {"ref": "Commerce Township", "@spider": "lifetimefitness", "leisure": "fitness_centre", "addr:full": "2901 Commerce Crossing", "addr:city": "Commerce Township", "addr:state": "Michigan", "addr:postcode": "48390", "name": "Commerce Township", "phone": "(248) 960-0955", "website": "https://www.lifetime.life/life-time-locations/mi-commerce-township-west-bloomfield.html", "brand": "Lifetime", "brand:wikidata": "Q6545004", "nsi_id": "lifetime-9a38b2"}, "geometry": {"type": "Point", "coordinates": [-83.446586, 42.536109]}},
{"type": "Feature", "id": "LsiLG6_Xcs1f52XBYFx-WjxMEfo=", "properties": {"ref": "Canton Township", "@spider": "lifetimefitness", "leisure": "fitness_centre", "addr:full": "1700 N Haggerty Rd", "addr:city": "Canton", "addr:state": "Michigan", "addr:postcode": "48187", "name": "Canton Township", "phone": "(734) 394-2800", "website": "https://www.lifetime.life/life-time-locations/mi-canton-township.html", "brand": "Lifetime", "brand:wikidata": "Q6545004", "nsi_id": "lifetime-9a38b2"}, "geometry": {"type": "Point", "coordinates": [-83.445652, 42.318821]}},
{"type": "Feature", "id": "EQdI9ynzs-fOl57C4VqfdvnmW8I=", "properties": {"ref": "Bloomfield Township", "@spider": "lifetimefitness", "leisure": "fitness_centre", "addr:full": "4106 Telegraph Rd", "addr:city": "Bloomfield Hills", "addr:state": "Michigan", "addr:postcode": "48302", "name": "Bloomfield Township", "phone": "(248) 282-4300", "website": "https://www.lifetime.life/life-time-locations/mi-bloomfield-township.html", "brand": "Lifetime", "brand:wikidata": "Q6545004", "nsi_id": "lifetime-9a38b2"}, "geometry": {"type": "Point", "coordinates": [-83.2811273, 42.5796666]}},
{"type": "Feature", "id": "mqQLETT4bXJd6kh4xX1Rhuwoulc=", "properties": {"ref": "Westwood", "@spider": "lifetimefitness", "leisure": "fitness_centre", "addr:full": "44 Harvard St", "addr:city": "Westwood", "addr:state": "Massachusetts", "addr:postcode": "02090", "name": "Westwood", "phone": "(781) 381-7100", "website": "https://www.lifetime.life/life-time-locations/ma-westwood.html", "brand": "Lifetime", "brand:wikidata": "Q6545004", "nsi_id": "lifetime-9a38b2"}, "geometry": {"type": "Point", "coordinates": [-71.1555981, 42.20209]}},
{"type": "Feature", "id": "VEtYrM4GzMPyoLExKDqA3zMCnR4=", "properties": {"ref": "Wellington Station", "@spider": "lifetimefitness", "leisure": "fitness_centre", "addr:full": "70 Station Landing", "addr:city": "Medford", "addr:state": "Massachusetts", "addr:postcode": "02155", "name": "Wellington Station", "phone": "866-770-1546", "website": "https://www.lifetime.life/life-time-locations/ma-wellington-station.html", "brand": "Lifetime", "brand:wikidata": "Q6545004", "nsi_id": "lifetime-9a38b2"}, "geometry": {"type": "Point", "coordinates": [-71.08013828, 42.4031705]}},
{"type": "Feature", "id": "5Vcp4teKgqljfLmpcdEvybGBdJ0=", "properties": {"ref": "Northshore", "@spider": "lifetimefitness", "leisure": "fitness_centre", "addr:full": "210 Andover Street, Suite #LL11", "addr:city": "Peabody", "addr:state": "Massachusetts", "addr:postcode": "01960", "name": "Northshore", "phone": "978-817-3700", "website": "https://www.lifetime.life/life-time-locations/ma-northshore.html", "brand": "Lifetime", "brand:wikidata": "Q6545004", "nsi_id": "lifetime-9a38b2"}, "geometry": {"type": "Point", "coordinates": [-70.9440643, 42.54162]}},
{"type": "Feature", "id": "QZZnRHf5VuhAOCz4H8arnGXhaJQ=", "properties": {"ref": "Chestnut Hill", "@spider": "lifetimefitness", "leisure": "fitness_centre", "addr:full": "300 Boylston St.", "addr:city": "Chestnut Hill", "addr:state": "Massachusetts", "addr:postcode": "02467", "name": "Chestnut Hill", "phone": "781-797-2000", "website": "https://www.lifetime.life/life-time-locations/ma-newton-chestnut-hill.html", "brand": "Lifetime", "brand:wikidata": "Q6545004", "nsi_id": "lifetime-9a38b2"}, "geometry": {"type": "Point", "coordinates": [-71.180095, 42.31868]}},
{"type": "Feature", "id": "GsrRJ5-TobXcaGDrjcD2XGfY_Mo=", "properties": {"ref": "MetroWest-Boston", "@spider": "lifetimefitness", "leisure": "fitness_centre", "addr:full": "490 Old Connecticut Path", "addr:city": "Framingham", "addr:state": "Massachusetts", "addr:postcode": "01701", "name": "MetroWest-Boston", "phone": "(774) 777-2100", "website": "https://www.lifetime.life/life-time-locations/ma-framingham-metrowest-boston.html", "brand": "Lifetime", "brand:wikidata": "Q6545004", "nsi_id": "lifetime-9a38b2"}, "geometry": {"type": "Point", "coordinates": [-71.3927528, 42.3121184]}},
{"type": "Feature", "id": "etkX9saZ_5S-DqPC-_qO8tCpXm0=", "properties": {"ref": "Burlington", "@spider": "lifetimefitness", "leisure": "fitness_centre", "addr:full": "186 Middlesex Tpke", "addr:city": "Burlington", "addr:state": "Massachusetts", "addr:postcode": "01803", "name": "Burlington", "phone": "617-761-7100", "website": "https://www.lifetime.life/life-time-locations/ma-burlington.html", "brand": "Lifetime", "brand:wikidata": "Q6545004", "nsi_id": "lifetime-9a38b2"}, "geometry": {"type": "Point", "coordinates": [-71.226181, 42.492698]}},
{"type": "Feature", "id": "Tz150YhjQZ4MBlpFLvI4huI3PQw=", "properties": {"ref": "Rockville", "@spider": "lifetimefitness", "leisure": "fitness_centre", "addr:full": "1151 Seven Locks Rd", "addr:city": "Rockville", "addr:state": "Maryland", "addr:postcode": "20854", "name": "Rockville", "phone": "(240) 314-7022", "website": "https://www.lifetime.life/life-time-locations/md-rockville.html", "brand": "Lifetime", "brand:wikidata": "Q6545004", "nsi_id": "lifetime-9a38b2"}, "geometry": {"type": "Point", "coordinates": [-77.157573, 39.062574]}},
{"type": "Feature", "id": "iHL1IcHKsQkY9vOODCKAQXezyzo=", "properties": {"ref": "Gaithersburg", "@spider": "lifetimefitness", "leisure": "fitness_centre", "addr:full": "10121 Washingtonian Blvd", "addr:city": "Gaithersburg", "addr:state": "Maryland", "addr:postcode": "20878", "name": "Gaithersburg", "phone": "301-569-5100", "website": "https://www.lifetime.life/life-time-locations/md-gaithersburg.html", "brand": "Lifetime", "brand:wikidata": "Q6545004", "nsi_id": "lifetime-9a38b2"}, "geometry": {"type": "Point", "coordinates": [-77.20676, 39.118337]}},
{"type": "Feature", "id": "D56ze0rxbKPdZautbPhoj3C2O-I=", "properties": {"ref": "Columbia", "@spider": "lifetimefitness", "leisure": "fitness_centre", "addr:full": "7220 Lee Deforest Dr", "addr:city": "Columbia", "addr:state": "Maryland", "addr:postcode": "21046", "name": "Columbia", "phone": "(410) 953-0022", "website": "https://www.lifetime.life/life-time-locations/md-columbia.html", "brand": "Lifetime", "brand:wikidata": "Q6545004", "nsi_id": "lifetime-9a38b2"}, "geometry": {"type": "Point", "coordinates": [-76.820605, 39.174664]}},
{"type": "Feature", "id": "dnU08m8gnCbJkpLMFuOKIUoomUg=", "properties": {"ref": "Life Time Winter Park (Eden Prairie)", "@spider": "lifetimefitness", "leisure": "fitness_centre", "addr:full": "9520 Viking Dr", "addr:city": "Eden Prairie", "addr:state": "Minnesota", "addr:postcode": "55344", "name": "Life Time Winter Park (Eden Prairie)", "phone": "952-207-7200", "website": "https://www.lifetime.life/life-time-locations/mn-sport-winter-park.html", "brand": "Lifetime", "brand:wikidata": "Q6545004", "nsi_id": "lifetime-9a38b2"}, "geometry": {"type": "Point", "coordinates": [-93.401879, 44.8611542]}},
{"type": "Feature", "id": "ESl2LcAj0N8EaQNZmnrsBfbxKK0=", "properties": {"ref": "Annapolis", "@spider": "lifetimefitness", "leisure": "fitness_centre", "addr:full": "1910 Towne Centre Blvd #103", "addr:city": "Annapolis", "addr:state": "Maryland", "addr:postcode": "21401", "name": "Annapolis", "phone": "410-919-4100", "website": "https://www.lifetime.life/life-time-locations/md-annapolis.html", "brand": "Lifetime", "brand:wikidata": "Q6545004", "nsi_id": "lifetime-9a38b2"}, "geometry": {"type": "Point", "coordinates": [-76.53928397, 38.98084224]}},
{"type": "Feature", "id": "kGgehBwDVv-GZxcLiG4yIuiUa0U=", "properties": {"ref": "Burr Ridge", "@spider": "lifetimefitness", "leisure": "fitness_centre", "addr:full": "601 Burr Ridge Pkwy", "addr:city": "Burr Ridge", "addr:state": "Illinois", "addr:postcode": "60527", "name": "Burr Ridge", "phone": "(630) 230-0011", "website": "https://www.lifetime.life/life-time-locations/il-burr-ridge.html", "brand": "Lifetime", "brand:wikidata": "Q6545004", "nsi_id": "lifetime-9a38b2"}, "geometry": {"type": "Point", "coordinates": [-87.913948, 41.753]}},
{"type": "Feature", "id": "eIZWZPzB5mo02SCcCGWMhRA-OxE=", "properties": {"ref": "Bloomingdale", "@spider": "lifetimefitness", "leisure": "fitness_centre", "addr:full": "455 Scott Dr", "addr:city": "Bloomingdale", "addr:state": "Illinois", "addr:postcode": "60108", "name": "Bloomingdale", "phone": "(630) 582-4100", "website": "https://www.lifetime.life/life-time-locations/il-bloomingdale.html", "brand": "Lifetime", "brand:wikidata": "Q6545004", "nsi_id": "lifetime-9a38b2"}, "geometry": {"type": "Point", "coordinates": [-88.1205287, 41.9436708]}},
{"type": "Feature", "id": "Q8uBEzIsyrFkS-bDOb4zz3i4WVY=", "properties": {"ref": "Algonquin", "@spider": "lifetimefitness", "leisure": "fitness_centre", "addr:full": "451 Rolls Rd", "addr:city": "Algonquin", "addr:state": "Illinois", "addr:postcode": "60102", "name": "Algonquin", "phone": "847-458-6200", "website": "https://www.lifetime.life/life-time-locations/il-algonquin.html", "brand": "Lifetime", "brand:wikidata": "Q6545004", "nsi_id": "lifetime-9a38b2"}, "geometry": {"type": "Point", "coordinates": [-88.331931, 42.170694]}},
{"type": "Feature", "id": "KSq97AMdEXX8hkgmY13Qip6ECag=", "properties": {"ref": "Woodstock", "@spider": "lifetimefitness", "leisure": "fitness_centre", "addr:full": "14200 Hwy 92", "addr:city": "Woodstock", "addr:state": "Georgia", "addr:postcode": "30188", "name": "Woodstock", "phone": "(770) 926-7544", "website": "https://www.lifetime.life/life-time-locations/ga-woodstock.html", "brand": "Lifetime", "brand:wikidata": "Q6545004", "nsi_id": "lifetime-9a38b2"}, "geometry": {"type": "Point", "coordinates": [-84.4545974, 34.0805967]}},
{"type": "Feature", "id": "t0PDWvXbRYgWBxIviHMsR0aQEl0=", "properties": {"ref": "Sugarloaf", "@spider": "lifetimefitness", "leisure": "fitness_centre", "addr:full": "1823 N Brown Rd", "addr:city": "Lawrenceville", "addr:state": "Georgia", "addr:postcode": "30043", "name": "Sugarloaf", "phone": "(678) 226-2099", "website": "https://www.lifetime.life/life-time-locations/ga-lawrenceville-sugarloaf.html", "brand": "Lifetime", "brand:wikidata": "Q6545004", "nsi_id": "lifetime-9a38b2"}, "geometry": {"type": "Point", "coordinates": [-84.0791586, 33.9889859]}},
{"type": "Feature", "id": "BXXSEYpQKPFG2wHwfAb_5NdrWxQ=", "properties": {"ref": "Sandy Springs", "@spider": "lifetimefitness", "leisure": "fitness_centre", "addr:full": "5600 Roswell Road Building I", "addr:city": "Sandy Springs", "addr:state": "Georgia", "addr:postcode": "30342", "name": "Sandy Springs", "phone": "(404) 257-0900", "website": "https://www.lifetime.life/life-time-locations/ga-sandy-springs.html", "brand": "Lifetime", "brand:wikidata": "Q6545004", "nsi_id": "lifetime-9a38b2"}, "geometry": {"type": "Point", "coordinates": [-84.378776, 33.9075567]}},
{"type": "Feature", "id": "llh9LPofKhBUO2bgYSI_KnP-hDg=", "properties": {"ref": "Peachtree Corners", "@spider": "lifetimefitness", "leisure": "fitness_centre", "addr:full": "6350 Courtside Dr NW", "addr:city": "Peachtree Corners", "addr:state": "Georgia", "addr:postcode": "30092", "name": "Peachtree Corners", "phone": "(770) 449-6060", "website": "https://www.lifetime.life/life-time-locations/ga-peachtree-corners.html", "brand": "Lifetime", "brand:wikidata": "Q6545004", "nsi_id": "lifetime-9a38b2"}, "geometry": {"type": "Point", "coordinates": [-84.2432097, 33.9629193]}},
{"type": "Feature", "id": "BHTQQqNNTYB4id7UdSTr6YO1buc=", "properties": {"ref": "Johns Creek", "@spider": "lifetimefitness", "leisure": "fitness_centre", "addr:full": "11555 Johns Creek Pkwy", "addr:city": "Johns Creek", "addr:state": "Georgia", "addr:postcode": "30097", "name": "Johns Creek", "phone": "(770) 495-7800", "website": "https://www.lifetime.life/life-time-locations/ga-johns-creek.html", "brand": "Lifetime", "brand:wikidata": "Q6545004", "nsi_id": "lifetime-9a38b2"}, "geometry": {"type": "Point", "coordinates": [-84.14879, 34.0309376]}},
{"type": "Feature", "id": "vHec4x6vDFRMd7lM3JanNEzYV5k=", "properties": {"ref": "Buckhead at Phipps Plaza", "@spider": "lifetimefitness", "leisure": "fitness_centre", "addr:full": "3500 Peachtree Rd NE", "addr:city": "Atlanta", "addr:state": "Georgia", "addr:postcode": "30326", "name": "Buckhead at Phipps Plaza", "phone": "404-965-7500", "website": "https://www.lifetime.life/life-time-locations/ga-buckhead.html", "brand": "Lifetime", "brand:wikidata": "Q6545004", "nsi_id": "lifetime-9a38b2"}, "geometry": {"type": "Point", "coordinates": [-84.3644443, 33.8528035]}},
{"type": "Feature", "id": "-MhnN5aWmpsApeIGq4eJvyyVfe8=", "properties": {"ref": "Alpharetta", "@spider": "lifetimefitness", "leisure": "fitness_centre", "addr:full": "855 North Point Pkwy", "addr:city": "Alpharetta", "addr:state": "Georgia", "addr:postcode": "30005", "name": "Alpharetta", "phone": "770-664-9696", "website": "https://www.lifetime.life/life-time-locations/ga-alpharetta.html", "brand": "Lifetime", "brand:wikidata": "Q6545004", "nsi_id": "lifetime-9a38b2"}, "geometry": {"type": "Point", "coordinates": [-84.2909639, 34.0467132]}},
{"type": "Feature", "id": "6M7NDkbrGva51GApmNuYxVejIwI=", "properties": {"ref": "Tampa", "@spider": "lifetimefitness", "leisure": "fitness_centre", "addr:full": "2223 N Westshore Blvd #1002", "addr:city": "Tampa", "addr:state": "Florida", "addr:postcode": "33607", "name": "Tampa", "phone": "813-513-7000", "website": "https://www.lifetime.life/life-time-locations/fl-tampa.html", "brand": "Lifetime", "brand:wikidata": "Q6545004", "nsi_id": "lifetime-9a38b2"}, "geometry": {"type": "Point", "coordinates": [-82.520724, 27.963716]}},
{"type": "Feature", "id": "HQ-glhka_V1XAXTFDSO6er83tVU=", "properties": {"ref": "Palm Beach Gardens", "@spider": "lifetimefitness", "leisure": "fitness_centre", "addr:full": "11825 Lake Victoria Gardens Ave", "addr:city": "Palm Beach Gardens", "addr:state": "Florida", "addr:postcode": "33410", "name": "Palm Beach Gardens", "phone": "561-352-2700", "website": "https://www.lifetime.life/life-time-locations/fl-palm-beach-gardens.html", "brand": "Lifetime", "brand:wikidata": "Q6545004", "nsi_id": "lifetime-9a38b2"}, "geometry": {"type": "Point", "coordinates": [-80.0960556, 26.8477626]}},
{"type": "Feature", "id": "1dEmbAqKrS1sbrfAcB8ONmTT7sA=", "properties": {"ref": "Miami at The Falls", "@spider": "lifetimefitness", "leisure": "fitness_centre", "addr:full": "8778 SW 136th Street", "addr:city": "Miami", "addr:state": "Florida", "addr:postcode": "33176", "name": "Miami at The Falls", "phone": "866-770-1546", "website": "https://www.lifetime.life/life-time-locations/fl-miami.html", "brand": "Lifetime", "brand:wikidata": "Q6545004", "nsi_id": "lifetime-9a38b2"}, "geometry": {"type": "Point", "coordinates": [-80.3382871, 25.6454919]}},
{"type": "Feature", "id": "bWRv2DByMDWsobLCp1Ybabeoq1o=", "properties": {"ref": "Coral Gables", "@spider": "lifetimefitness", "leisure": "fitness_centre", "addr:full": "237 S Dixie Hwy", "addr:city": "Coral Gables", "addr:state": "Florida", "addr:postcode": "33133", "name": "Coral Gables", "phone": "786-437-4388", "website": "https://www.lifetime.life/life-time-locations/fl-coral-gables.html", "brand": "Lifetime", "brand:wikidata": "Q6545004", "nsi_id": "lifetime-9a38b2"}, "geometry": {"type": "Point", "coordinates": [-80.2608703, 25.7290648]}},
{"type": "Feature", "id": "vBr1E7fxU-dYQ7KFj3HWz45fLF0=", "properties": {"ref": "Boca Raton", "@spider": "lifetimefitness", "leisure": "fitness_centre", "addr:full": "1499 Yamato Road", "addr:city": "Boca Raton", "addr:state": "Florida", "addr:postcode": "33431", "name": "Boca Raton", "phone": "(561) 208-5900", "website": "https://www.lifetime.life/life-time-locations/fl-boca-raton.html", "brand": "Lifetime", "brand:wikidata": "Q6545004", "nsi_id": "lifetime-9a38b2"}, "geometry": {"type": "Point", "coordinates": [-80.1138365, 26.394095]}},
{"type": "Feature", "id": "GpoVVBixAyHrSvXSmy9xn5kqLBs=", "properties": {"ref": "Westminster", "@spider": "lifetimefitness", "leisure": "fitness_centre", "addr:full": "397 W 148th Ave", "addr:city": "Westminster", "addr:state": "Colorado", "addr:postcode": "80023", "name": "Westminster", "phone": "(303) 429-8000", "website": "https://www.lifetime.life/life-time-locations/co-westminster.html", "brand": "Lifetime", "brand:wikidata": "Q6545004", "nsi_id": "lifetime-9a38b2"}, "geometry": {"type": "Point", "coordinates": [-104.9912592, 39.9657745]}},
{"type": "Feature", "id": "d07m2uUQr-Ps26gemOtF64oDcaU=", "properties": {"ref": "Parker-Aurora", "@spider": "lifetimefitness", "leisure": "fitness_centre", "addr:full": "9250 Crown Crest Blvd", "addr:city": "Parker", "addr:state": "Colorado", "addr:postcode": "80138", "name": "Parker-Aurora", "phone": "(720) 842-0800", "website": "https://www.lifetime.life/life-time-locations/co-parker-aurora.html", "brand": "Lifetime", "brand:wikidata": "Q6545004", "nsi_id": "lifetime-9a38b2"}, "geometry": {"type": "Point", "coordinates": [-104.77026, 39.552062]}},
{"type": "Feature", "id": "hKwXJp3_sT2-ch5kXwAgUCfWHNw=", "properties": {"ref": "Flatirons", "@spider": "lifetimefitness", "leisure": "fitness_centre", "addr:full": "300 Summit Blvd", "addr:city": "Broomfield", "addr:state": "Colorado", "addr:postcode": "80021", "name": "Flatirons", "phone": "720-531-8000", "website": "https://www.lifetime.life/life-time-locations/co-broomfield-flatirons.html", "brand": "Lifetime", "brand:wikidata": "Q6545004", "nsi_id": "lifetime-9a38b2"}, "geometry": {"type": "Point", "coordinates": [-105.1420667, 39.9258857]}},
{"type": "Feature", "id": "10mT2_acjb4CBbJxPb3TLDqlDu4=", "properties": {"ref": "Colorado Springs", "@spider": "lifetimefitness", "leisure": "fitness_centre", "addr:full": "4410 Royal Pine Dr", "addr:city": "Colorado Springs", "addr:state": "Colorado", "addr:postcode": "80920", "name": "Colorado Springs", "phone": "(719) 266-9900", "website": "https://www.lifetime.life/life-time-locations/co-colorado-springs.html", "brand": "Lifetime", "brand:wikidata": "Q6545004", "nsi_id": "lifetime-9a38b2"}, "geometry": {"type": "Point", "coordinates": [-104.746004, 38.968558]}},
{"type": "Feature", "id": "1B3o9CBy3uC_U8OnlCOfBGG8Z8Y=", "properties": {"ref": "Cherry Creek", "@spider": "lifetimefitness", "leisure": "fitness_centre", "addr:full": "500 S. Cherry St", "addr:city": "Denver", "addr:state": "Colorado", "addr:postcode": "80246", "name": "Cherry Creek", "phone": "720-572-8600", "website": "https://www.lifetime.life/life-time-locations/co-cherry-creek.html", "brand": "Lifetime", "brand:wikidata": "Q6545004", "nsi_id": "lifetime-9a38b2"}, "geometry": {"type": "Point", "coordinates": [-104.9347473, 39.7069037]}},
{"type": "Feature", "id": "0ao1PYDX1CpkjkxATmTw3U_O9xo=", "properties": {"ref": "Centennial Tennis", "@spider": "lifetimefitness", "leisure": "fitness_centre", "addr:full": "5100 E Dry Creek Rd", "addr:city": "Centennial", "addr:state": "Colorado", "addr:postcode": "80122", "name": "Centennial Tennis", "phone": "(720) 482-5700", "website": "https://www.lifetime.life/life-time-locations/co-centennial-tennis.html", "brand": "Lifetime", "brand:wikidata": "Q6545004", "nsi_id": "lifetime-9a38b2"}, "geometry": {"type": "Point", "coordinates": [-104.928851, 39.577892]}},
{"type": "Feature", "id": "NVEe3XjHA5r5PpyqYCVX-qStItk=", "properties": {"ref": "Centennial", "@spider": "lifetimefitness", "leisure": "fitness_centre", "addr:full": "5000 E Dry Creek Rd", "addr:city": "Centennial", "addr:state": "Colorado", "addr:postcode": "80122", "name": "Centennial", "phone": "(720) 489-1400", "website": "https://www.lifetime.life/life-time-locations/co-centennial.html", "brand": "Lifetime", "brand:wikidata": "Q6545004", "nsi_id": "lifetime-9a38b2"}, "geometry": {"type": "Point", "coordinates": [-104.928851, 39.577892]}},
{"type": "Feature", "id": "FORoS3OihM0uxcJwHls4rPofozg=", "properties": {"ref": "Rancho San Clemente", "@spider": "lifetimefitness", "leisure": "fitness_centre", "addr:full": "111 Avenida Vista Montana", "addr:city": "San Clemente", "addr:state": "California", "addr:postcode": "92672", "name": "Rancho San Clemente", "phone": "949-392-7100", "website": "https://www.lifetime.life/life-time-locations/ca-rancho-san-clemente.html", "brand": "Lifetime", "brand:wikidata": "Q6545004", "nsi_id": "lifetime-9a38b2"}, "geometry": {"type": "Point", "coordinates": [-117.607008, 33.442258]}},
{"type": "Feature", "id": "_HUGdWVi2XPpVy6ni0wiCINust0=", "properties": {"ref": "Roseville", "@spider": "lifetimefitness", "leisure": "fitness_centre", "addr:full": "1435 E Roseville Pkwy", "addr:city": "Roseville", "addr:state": "California", "addr:postcode": "95661", "name": "Roseville", "phone": "(916) 472-2000", "website": "https://www.lifetime.life/life-time-locations/ca-roseville.html", "brand": "Lifetime", "brand:wikidata": "Q6545004", "nsi_id": "lifetime-9a38b2"}, "geometry": {"type": "Point", "coordinates": [-121.245207, 38.761643]}},
{"type": "Feature", "id": "K4BG2pFy9Ci-R9Z6zLrBf_vXy2M=", "properties": {"ref": "Lakeshore-Irvine", "@spider": "lifetimefitness", "leisure": "fitness_centre", "addr:full": "18191 Von Karman Avenue, Suite 250", "addr:city": "Irvine", "addr:state": "California", "addr:postcode": "92612", "name": "Lakeshore-Irvine", "phone": "949-739-6300", "website": "https://www.lifetime.life/life-time-locations/ca-lakeshore.html", "brand": "Lifetime", "brand:wikidata": "Q6545004", "nsi_id": "lifetime-9a38b2"}, "geometry": {"type": "Point", "coordinates": [-117.8520391, 33.67972896]}},
{"type": "Feature", "id": "T7crJgoGOUCd88Hnw_KNN7_lx7o=", "properties": {"ref": "Laguna Niguel", "@spider": "lifetimefitness", "leisure": "fitness_centre", "addr:full": "25600 Rancho Niguel Rd", "addr:city": "Laguna Niguel", "addr:state": "California", "addr:postcode": "92677", "name": "Laguna Niguel", "phone": "(949) 238-2700", "website": "https://www.lifetime.life/life-time-locations/ca-laguna-niguel.html", "brand": "Lifetime", "brand:wikidata": "Q6545004", "nsi_id": "lifetime-9a38b2"}, "geometry": {"type": "Point", "coordinates": [-117.6843207, 33.5563382]}},
{"type": "Feature", "id": "v8cIPP-lJOQFH2flcQj4_xrhm30=", "properties": {"ref": "La Jolla", "@spider": "lifetimefitness", "leisure": "fitness_centre", "addr:full": "1055 Wall Street", "addr:city": "La Jolla", "addr:state": "California", "addr:postcode": "92037", "name": "La Jolla", "phone": "(858) 410-7100", "website": "https://www.lifetime.life/life-time-locations/ca-la-jolla.html", "brand": "Lifetime", "brand:wikidata": "Q6545004", "nsi_id": "lifetime-9a38b2"}, "geometry": {"type": "Point", "coordinates": [-117.27351, 32.84652]}},
{"type": "Feature", "id": "H2IpKaZafbTI9Zwmce1CFzShVZI=", "properties": {"ref": "Folsom", "@spider": "lifetimefitness", "leisure": "fitness_centre", "addr:full": "110 Healthy Way", "addr:city": "Folsom", "addr:state": "California", "addr:postcode": "95630", "name": "Folsom", "phone": "916-597-9100", "website": "https://www.lifetime.life/life-time-locations/ca-folsom.html", "brand": "Lifetime", "brand:wikidata": "Q6545004", "nsi_id": "lifetime-9a38b2"}, "geometry": {"type": "Point", "coordinates": [-121.1072359, 38.6456036]}},
{"type": "Feature", "id": "hPjiwtphqMt1-dFedSrBUxiRtmg=", "properties": {"ref": "Tempe", "@spider": "lifetimefitness", "leisure": "fitness_centre", "addr:full": "1616 W Ruby Dr", "addr:city": "Tempe", "addr:state": "Arizona", "addr:postcode": "85284", "name": "Tempe", "phone": "480-705-8855", "website": "https://www.lifetime.life/life-time-locations/az-tempe.html", "brand": "Lifetime", "brand:wikidata": "Q6545004", "nsi_id": "lifetime-9a38b2"}, "geometry": {"type": "Point", "coordinates": [-111.964878, 33.341038]}},
{"type": "Feature", "id": "OWZXXzKaa1uI35UU2H5C35jw7Lc=", "properties": {"ref": "Scottsdale Fashion Square", "@spider": "lifetimefitness", "leisure": "fitness_centre", "addr:full": "7014 E Camelback Rd #2113", "addr:city": "Scottsdale", "addr:state": "Arizona", "addr:postcode": "85251", "name": "Scottsdale Fashion Square", "phone": "480-791-0635", "website": "https://www.lifetime.life/life-time-locations/az-scottsdale-fashion-square.html", "brand": "Lifetime", "brand:wikidata": "Q6545004", "nsi_id": "lifetime-9a38b2"}, "geometry": {"type": "Point", "coordinates": [-111.9319215, 33.50562389]}},
{"type": "Feature", "id": "fh5N0T6Mog6LFgYiqOCBtnlv-SM=", "properties": {"ref": "Palm Valley", "@spider": "lifetimefitness", "leisure": "fitness_centre", "addr:full": "14540 W McDowell Rd", "addr:city": "Goodyear", "addr:state": "Arizona", "addr:postcode": "85395", "name": "Palm Valley", "phone": "(623) 536-9595", "website": "https://www.lifetime.life/life-time-locations/az-goodyear-palm-valley.html", "brand": "Lifetime", "brand:wikidata": "Q6545004", "nsi_id": "lifetime-9a38b2"}, "geometry": {"type": "Point", "coordinates": [-112.371661, 33.465445]}},
{"type": "Feature", "id": "VYavOUieM_zYEr3jS0EbF60rgks=", "properties": {"ref": "North Scottsdale", "@spider": "lifetimefitness", "leisure": "fitness_centre", "addr:full": "6850 E Chauncey Ln", "addr:city": "Phoenix", "addr:state": "Arizona", "addr:postcode": "85054", "name": "North Scottsdale", "phone": "(480) 538-9009", "website": "https://www.lifetime.life/life-time-locations/az-phoenix-north-scottsdale.html", "brand": "Lifetime", "brand:wikidata": "Q6545004", "nsi_id": "lifetime-9a38b2"}, "geometry": {"type": "Point", "coordinates": [-111.932952, 33.652509]}},
{"type": "Feature", "id": "g6mrNzoEyCJw_BuS42WrA7aF9vc=", "properties": {"ref": "Happy Valley-Peoria", "@spider": "lifetimefitness", "leisure": "fitness_centre", "addr:full": "24700 North 67th Ave", "addr:city": "Peoria", "addr:state": "Arizona", "addr:postcode": "85383", "name": "Happy Valley-Peoria", "phone": "623-259-3400", "website": "https://www.lifetime.life/life-time-locations/az-happy-valley-peoria.html", "brand": "Lifetime", "brand:wikidata": "Q6545004", "nsi_id": "lifetime-9a38b2"}, "geometry": {"type": "Point", "coordinates": [-112.2106746, 33.709152]}},
{"type": "Feature", "id": "rrpu9SlaHbgnZuWBnnwtFkZD4P4=", "properties": {"ref": "Gilbert", "@spider": "lifetimefitness", "leisure": "fitness_centre", "addr:full": "381 East Warner Rd", "addr:city": "Gilbert", "addr:state": "Arizona", "addr:postcode": "85296", "name": "Gilbert", "phone": "(480) 892-5020", "website": "https://www.lifetime.life/life-time-locations/az-gilbert.html", "brand": "Lifetime", "brand:wikidata": "Q6545004", "nsi_id": "lifetime-9a38b2"}, "geometry": {"type": "Point", "coordinates": [-111.782805, 33.334281]}},
{"type": "Feature", "id": "8jZ1OJaBDWtQnBOPBmEyuYYUQ04=", "properties": {"ref": "Biltmore", "@spider": "lifetimefitness", "leisure": "fitness_centre", "addr:full": "2580 E. Camelback Rd", "addr:city": "Phoenix", "addr:state": "Arizona", "addr:postcode": "85016", "name": "Biltmore", "phone": "623-244-3200", "website": "https://www.lifetime.life/life-time-locations/az-biltmore.html", "brand": "Lifetime", "brand:wikidata": "Q6545004", "nsi_id": "lifetime-9a38b2"}, "geometry": {"type": "Point", "coordinates": [-112.025858, 33.510586]}}]}