{"type":"FeatureCollection","features":[{"type": "Feature", "id": "gpkFRXtAxbaHdcfMRWBx6TU83u8=", "properties": {"ref": "1508", "@spider": "lincolnshire_cooperative", "operator": "East of England Co-operative Society", "operator:wikidata": "Q5329759", "shop": "supermarket", "addr:street_address": "Churchill Drive, Hawtonville Estate, Newark", "addr:city": "Boston", "addr:postcode": "NG24 4ND", "addr:country": "GB", "name": "Churchill Drive Food Store", "phone": "01636 703 796", "website": "https://www.lincolnshire.coop/branches/food-stores/churchill-drive-food-store", "opening_hours": "Mo-Su 07:00-21:00", "image": "https://s3-eu-west-1.amazonaws.com/lincolnshire-coop/images/store/Churchill-Drive-Food-Store_190219_113235.jpg", "brand": "Lincolnshire Co-operative", "brand:wikidata": "Q5329759", "nsi_id": "eastofenglandcoop-a8278b"}, "geometry": {"type": "Point", "coordinates": [-0.816402, 53.062102]}},
{"type": "Feature", "id": "K5uPxlaYvrAbEUnfOd0BqXQFW30=", "properties": {"ref": "1507", "@spider": "lincolnshire_cooperative", "operator": "East of England Co-operative Society", "operator:wikidata": "Q5329759", "shop": "supermarket", "addr:street_address": "The Parade, Cherry Willingham, Lincoln", "addr:city": "Boston", "addr:postcode": "LN3 4JL", "addr:country": "GB", "name": "Cherry Willingham Food Store", "phone": "01522 751 021", "website": "https://www.lincolnshire.coop/branches/food-stores/cherry-willingham-food-store", "opening_hours": "Mo-Su 07:00-22:00", "image": "https://s3-eu-west-1.amazonaws.com/lincolnshire-coop/images/store/Cherry-Willingham-Food-Store.JPG", "brand": "Lincolnshire Co-operative", "brand:wikidata": "Q5329759", "nsi_id": "eastofenglandcoop-a8278b"}, "geometry": {"type": "Point", "coordinates": [-0.455005, 53.242122]}},
{"type": "Feature", "id": "qwxyel6-rE-o7QEZXRgGoEwx0l8=", "properties": {"ref": "1506", "@spider": "lincolnshire_cooperative", "operator": "East of England Co-operative Society", "operator:wikidata": "Q5329759", "shop": "supermarket", "addr:street_address": "The Green, Chapel St Leonards, Lincolnshire", "addr:city": "Boston", "addr:postcode": "PE24 5TG", "addr:country": "GB", "name": "Chapel St Leonards Food Store", "phone": "01754 873 349", "website": "https://www.lincolnshire.coop/branches/food-stores/chapel-st-leonards-food-store", "opening_hours": "Mo-Sa 08:00-20:00; Su 10:00-16:00", "image": "https://s3-eu-west-1.amazonaws.com/lincolnshire-coop/images/store/Chapel-St-Leonards_190219_113202.jpg", "brand": "Lincolnshire Co-operative", "brand:wikidata": "Q5329759", "nsi_id": "eastofenglandcoop-a8278b"}, "geometry": {"type": "Point", "coordinates": [0.338171, 53.224472]}},
{"type": "Feature", "id": "JKPMUewDzOv2EbQXMvblydiVtZE=", "properties": {"ref": "1505", "@spider": "lincolnshire_cooperative", "operator": "East of England Co-operative Society", "operator:wikidata": "Q5329759", "shop": "supermarket", "addr:street_address": "6-8 Alexander Walk, Carlton Centre, Outer Circle Road, Lincoln", "addr:city": "Boston", "addr:postcode": "LN2 4FN", "addr:country": "GB", "name": "Carlton Centre Food Store", "phone": "01522 536 830", "website": "https://www.lincolnshire.coop/branches/food-stores/carlton-centre-food-store", "opening_hours": "Mo-Su 07:00-22:00", "image": "https://s3-eu-west-1.amazonaws.com/lincolnshire-coop/images/store/Carlton-Centre-Food-Store.JPG", "brand": "Lincolnshire Co-operative", "brand:wikidata": "Q5329759", "nsi_id": "eastofenglandcoop-a8278b"}, "geometry": {"type": "Point", "coordinates": [-0.507019, 53.24157]}},
{"type": "Feature", "id": "LwD-RvK6hFPjHKQcIK3LxrUN9Rs=", "properties": {"ref": "1504", "@spider": "lincolnshire_cooperative", "operator": "East of England Co-operative Society", "operator:wikidata": "Q5329759", "shop": "supermarket", "addr:street_address": "Winning Post, Carholme Road, Lincoln", "addr:city": "Boston", "addr:postcode": "LN1 1RU", "addr:country": "GB", "name": "Winning Post Food Store", "phone": "01522 510 253", "website": "https://www.lincolnshire.coop/branches/food-stores/winning-post-food-store", "opening_hours": "Mo-Su 06:00-23:00", "image": "https://s3-eu-west-1.amazonaws.com/lincolnshire-coop/images/store/Winning-post.JPG", "brand": "Lincolnshire Co-operative", "brand:wikidata": "Q5329759", "nsi_id": "eastofenglandcoop-a8278b"}, "geometry": {"type": "Point", "coordinates": [-0.557504, 53.233516]}},
{"type": "Feature", "id": "DWy5jAorZNdT1Z6hmxsTyX-zGes=", "properties": {"ref": "1503", "@spider": "lincolnshire_cooperative", "operator": "East of England Co-operative Society", "operator:wikidata": "Q5329759", "shop": "supermarket", "addr:street_address": "5 Cambridge Road, Grimsby, North East Lincolnshire", "addr:city": "Boston", "addr:postcode": "DN34 5EL", "addr:country": "GB", "name": "Cambridge Road Food Store", "phone": "01472 277 212", "website": "https://www.lincolnshire.coop/branches/food-stores/cambridge-road-food-store", "opening_hours": "Mo-Su 07:00-22:00", "image": "https://s3-eu-west-1.amazonaws.com/lincolnshire-coop/images/store/Cambridge-Road-Food-Store-and-Post-Office.JPG", "brand": "Lincolnshire Co-operative", "brand:wikidata": "Q5329759", "nsi_id": "eastofenglandcoop-a8278b"}, "geometry": {"type": "Point", "coordinates": [-0.108051, 53.556991]}},
{"type": "Feature", "id": "glRcWg14EszDfWO5hHomRVzQ5lQ=", "properties": {"ref": "1502", "@spider": "lincolnshire_cooperative", "operator": "East of England Co-operative Society", "operator:wikidata": "Q5329759", "shop": "supermarket", "addr:street_address": "16 High Street, Caistor, Lincolnshire", "addr:city": "Boston", "addr:postcode": "LN7 6QF", "addr:country": "GB", "name": "Caistor Food Store", "phone": "01472 851 169", "website": "https://www.lincolnshire.coop/branches/food-stores/caistor-food-store", "opening_hours": "Mo-Sa 07:00-22:00; Su 10:00-16:00", "image": "https://s3-eu-west-1.amazonaws.com/lincolnshire-coop/images/store/Caistor-Food-Store-2.jpg", "brand": "Lincolnshire Co-operative", "brand:wikidata": "Q5329759", "nsi_id": "eastofenglandcoop-a8278b"}, "geometry": {"type": "Point", "coordinates": [-0.315786, 53.497691]}},
{"type": "Feature", "id": "q_m9d0irbsI2J5eWZIEmrd-C3ls=", "properties": {"ref": "1501", "@spider": "lincolnshire_cooperative", "operator": "East of England Co-operative Society", "operator:wikidata": "Q5329759", "shop": "supermarket", "addr:street_address": "95-97 Burton Road, Lincoln", "addr:city": "Boston", "addr:postcode": "LN1 3LL", "addr:country": "GB", "name": "Burton Road Food Store", "phone": "01522 520 463", "website": "https://www.lincolnshire.coop/branches/food-stores/burton-road-food-store", "opening_hours": "Mo-Su 06:00-22:00", "image": "https://s3-eu-west-1.amazonaws.com/lincolnshire-coop/images/store/Burton-road_190219_113012.jpg", "brand": "Lincolnshire Co-operative", "brand:wikidata": "Q5329759", "nsi_id": "eastofenglandcoop-a8278b"}, "geometry": {"type": "Point", "coordinates": [-0.544583, 53.238903]}},
{"type": "Feature", "id": "kPJnnc5YVZIX_ekTCG0W_gwAbXo=", "properties": {"ref": "1500", "@spider": "lincolnshire_cooperative", "operator": "East of England Co-operative Society", "operator:wikidata": "Q5329759", "shop": "supermarket", "addr:street_address": "69 High Street,Burgh le Marsh,Lincolnshire", "addr:city": "Boston", "addr:postcode": "PE24 5JZ", "addr:country": "GB", "name": "Burgh Le Marsh Food Store", "phone": "01754 810 449", "website": "https://www.lincolnshire.coop/branches/food-stores/burgh-le-marsh-food-store", "opening_hours": "Mo-Su 07:00-22:00", "image": "https://s3-eu-west-1.amazonaws.com/lincolnshire-coop/images/store/Burgh-le-marsh.jpg", "brand": "Lincolnshire Co-operative", "brand:wikidata": "Q5329759", "nsi_id": "eastofenglandcoop-a8278b"}, "geometry": {"type": "Point", "coordinates": [0.2474, 53.161176]}},
{"type": "Feature", "id": "a-HHARpzyPX3ttd8yMhV9L9iMPQ=", "properties": {"ref": "1499", "@spider": "lincolnshire_cooperative", "operator": "East of England Co-operative Society", "operator:wikidata": "Q5329759", "shop": "supermarket", "addr:street_address": "Renfrew Road, Brant Road, Lincoln", "addr:city": "Boston", "addr:postcode": "LN5 9TR", "addr:country": "GB", "name": "Brant Road Food Store", "phone": "01522 722 386", "website": "https://www.lincolnshire.coop/branches/food-stores/brant-road-food-store", "opening_hours": "Mo-Su 07:00-22:00", "image": "https://s3-eu-west-1.amazonaws.com/lincolnshire-coop/images/store/Brant-road.jpg", "brand": "Lincolnshire Co-operative", "brand:wikidata": "Q5329759", "nsi_id": "eastofenglandcoop-a8278b"}, "geometry": {"type": "Point", "coordinates": [-0.5569, 53.191242]}},
{"type": "Feature", "id": "We1h_mLKuULDKLcxbTZvehgPHBM=", "properties": {"ref": "1498", "@spider": "lincolnshire_cooperative", "operator": "East of England Co-operative Society", "operator:wikidata": "Q5329759", "shop": "supermarket", "addr:street_address": "Station Road, Branston, Lincolnshire", "addr:city": "Boston", "addr:postcode": "LN4 1LH", "addr:country": "GB", "name": "Branston Food Store", "phone": "01522 791 674", "website": "https://www.lincolnshire.coop/branches/food-stores/branston-food-store", "opening_hours": "Mo-Sa 07:00-22:00; Su 10:00-16:00", "image": "https://s3-eu-west-1.amazonaws.com/lincolnshire-coop/images/store/Branston-Food-store.JPG", "brand": "Lincolnshire Co-operative", "brand:wikidata": "Q5329759", "nsi_id": "eastofenglandcoop-a8278b"}, "geometry": {"type": "Point", "coordinates": [-0.468453, 53.194004]}},
{"type": "Feature", "id": "wd_J720hejJzRV4yEXz26W3ox3A=", "properties": {"ref": "1497", "@spider": "lincolnshire_cooperative", "operator": "East of England Co-operative Society", "operator:wikidata": "Q5329759", "shop": "supermarket", "addr:street_address": "8-10 Grantham Road, Bracebridge Heath, Lincoln", "addr:city": "Boston", "addr:postcode": "LN4 2LD", "addr:country": "GB", "name": "Bracebridge Heath Food Store", "phone": "01522 523 774", "website": "https://www.lincolnshire.coop/branches/food-stores/bracebridge-heath-food-store", "opening_hours": "Mo-Su 07:00-22:00", "image": "https://s3-eu-west-1.amazonaws.com/lincolnshire-coop/images/store/Bracebridge-Heath-PO-pharmacy-and-food-store.jpg", "brand": "Lincolnshire Co-operative", "brand:wikidata": "Q5329759", "nsi_id": "eastofenglandcoop-a8278b"}, "geometry": {"type": "Point", "coordinates": [-0.535072, 53.195938]}},
{"type": "Feature", "id": "0WlaXS0sQUFmiUotSIpCib4KlNQ=", "properties": {"ref": "1496", "@spider": "lincolnshire_cooperative", "operator": "East of England Co-operative Society", "operator:wikidata": "Q5329759", "shop": "supermarket", "addr:street_address": "108 Bowbridge Road, Newark, Nottinghamshire", "addr:city": "Boston", "addr:postcode": "NG24 4BZ", "addr:country": "GB", "name": "Bowbridge Road Food Store", "phone": "01636 704080", "website": "https://www.lincolnshire.coop/branches/food-stores/bowbridge-road-food-store", "opening_hours": "Mo-Su 07:00-22:00", "image": "https://s3-eu-west-1.amazonaws.com/lincolnshire-coop/images/store/Bowbridge-Road-Food-Store-Newark-36.jpg", "brand": "Lincolnshire Co-operative", "brand:wikidata": "Q5329759", "nsi_id": "eastofenglandcoop-a8278b"}, "geometry": {"type": "Point", "coordinates": [-0.805587, 53.0688]}},
{"type": "Feature", "id": "0jo6DZHs0-JZw6ECr2udirKBWxA=", "properties": {"ref": "1495", "@spider": "lincolnshire_cooperative", "operator": "East of England Co-operative Society", "operator:wikidata": "Q5329759", "shop": "supermarket", "addr:street_address": "Birchwood Centre, Jasmin Road, Lincoln", "addr:city": "Boston", "addr:postcode": "LN6 0PY", "addr:country": "GB", "name": "Birchwood Centre Food Store", "phone": "01522 686 668", "website": "https://www.lincolnshire.coop/branches/food-stores/birchwood-centre-food-store", "opening_hours": "Mo-Sa 07:00-22:00; Su 10:00-16:00", "image": "https://s3-eu-west-1.amazonaws.com/lincolnshire-coop/images/store/Birchwood-Food-Store.JPG", "brand": "Lincolnshire Co-operative", "brand:wikidata": "Q5329759", "nsi_id": "eastofenglandcoop-a8278b"}, "geometry": {"type": "Point", "coordinates": [-0.604203, 53.214998]}},
{"type": "Feature", "id": "_Yam44pbuWdxKJ3rZ9ZFz5grLMA=", "properties": {"ref": "1510", "@spider": "lincolnshire_cooperative", "operator": "East of England Co-operative Society", "operator:wikidata": "Q5329759", "shop": "supermarket", "addr:street_address": "High Street, Collingham, Newark", "addr:city": "Boston", "addr:postcode": "NG23 7LB", "addr:country": "GB", "name": "Collingham Food Store", "phone": "01636 892 279", "website": "https://www.lincolnshire.coop/branches/food-stores/collingham-food-store", "opening_hours": "Mo-Sa 07:00-22:00; Su 10:00-16:00", "image": "https://s3-eu-west-1.amazonaws.com/lincolnshire-coop/images/store/Collingham.jpg", "brand": "Lincolnshire Co-operative", "brand:wikidata": "Q5329759", "nsi_id": "eastofenglandcoop-a8278b"}, "geometry": {"type": "Point", "coordinates": [-0.759102, 53.146173]}},
{"type": "Feature", "id": "K4azaEwoJfE7CuMsym1u2YmiXmE=", "properties": {"ref": "1493", "@spider": "lincolnshire_cooperative", "operator": "East of England Co-operative Society", "operator:wikidata": "Q5329759", "shop": "supermarket", "addr:street_address": "144 Barnbygate, Newark, Nottinghamshire", "addr:city": "Boston", "addr:postcode": "NG24 1RQ", "addr:country": "GB", "name": "Barnbygate Food Store", "phone": "01636 701 101", "website": "https://www.lincolnshire.coop/branches/food-stores/barnbygate-food-store", "opening_hours": "Mo-Su 07:00-21:00", "image": "https://s3-eu-west-1.amazonaws.com/lincolnshire-coop/images/store/Barnbygate-Food-Store.jpg", "brand": "Lincolnshire Co-operative", "brand:wikidata": "Q5329759", "nsi_id": "eastofenglandcoop-a8278b"}, "geometry": {"type": "Point", "coordinates": [-0.800082, 53.073616]}},
{"type": "Feature", "id": "g3jqzsP0uwS_okhGMmskrHvDLKo=", "properties": {"ref": "1492", "@spider": "lincolnshire_cooperative", "operator": "East of England Co-operative Society", "operator:wikidata": "Q5329759", "shop": "supermarket", "addr:street_address": "Wragby Road, Bardney, Lincolnshire", "addr:city": "Boston", "addr:postcode": "LN3 5XE", "addr:country": "GB", "name": "Bardney Food Store", "phone": "01526 398 207", "website": "https://www.lincolnshire.coop/branches/food-stores/bardney-food-store", "opening_hours": "Mo-Su 07:00-22:00", "image": "https://s3-eu-west-1.amazonaws.com/lincolnshire-coop/images/store/Bardney-food-store.jpg", "brand": "Lincolnshire Co-operative", "brand:wikidata": "Q5329759", "nsi_id": "eastofenglandcoop-a8278b"}, "geometry": {"type": "Point", "coordinates": [-0.323482, 53.211735]}},
{"type": "Feature", "id": "P7bSm9_WdtjNZo8W-54G8JjVoR0=", "properties": {"ref": "1491", "@spider": "lincolnshire_cooperative", "operator": "East of England Co-operative Society", "operator:wikidata": "Q5329759", "shop": "supermarket", "addr:street_address": "52-60 Argyle Street, Boston, Lincolnshire", "addr:city": "Boston", "addr:postcode": "PE21 8PH", "addr:country": "GB", "name": "Argyle Street Food Store", "phone": "01205 353 621", "website": "https://www.lincolnshire.coop/branches/food-stores/argyle-street-food-store", "opening_hours": "Mo-Su 07:00-22:00", "image": "https://www.lincolnshire.coop/images/skin/logo.png", "brand": "Lincolnshire Co-operative", "brand:wikidata": "Q5329759", "nsi_id": "eastofenglandcoop-a8278b"}, "geometry": {"type": "Point", "coordinates": [-0.038825, 52.981041]}},
{"type": "Feature", "id": "RJ0nNXVibmd07bHI4Qed1M8vCfI=", "properties": {"ref": "1490", "@spider": "lincolnshire_cooperative", "operator": "East of England Co-operative Society", "operator:wikidata": "Q5329759", "shop": "supermarket", "addr:street_address": "Church Street, Alford, Lincolnshire", "addr:city": "Boston", "addr:postcode": "LN13 9EG", "addr:country": "GB", "name": "Alford Food Store", "phone": "01507 462 405", "website": "https://www.lincolnshire.coop/branches/food-stores/alford-food-store", "opening_hours": "Mo-Sa 07:00-22:00; Su 10:00-16:00", "image": "https://s3-eu-west-1.amazonaws.com/lincolnshire-coop/images/store/Alford-Food-Store.jpg", "brand": "Lincolnshire Co-operative", "brand:wikidata": "Q5329759", "nsi_id": "eastofenglandcoop-a8278b"}, "geometry": {"type": "Point", "coordinates": [0.181648, 53.26196]}},
{"type": "Feature", "id": "H-krizToLMDelRh4BVXnbhMY2hI=", "properties": {"ref": "1489", "@spider": "lincolnshire_cooperative", "operator": "East of England Co-operative Society", "operator:wikidata": "Q5329759", "shop": "supermarket", "addr:street_address": "Albert Street, Newark, Nottinghamshire", "addr:city": "Boston", "addr:postcode": "NG24 4BQ", "addr:country": "GB", "name": "Albert Street Food Store", "phone": "01636 677 550", "website": "https://www.lincolnshire.coop/branches/food-stores/albert-street-food-store", "opening_hours": "Mo-Su 07:00-22:00", "image": "https://s3-eu-west-1.amazonaws.com/lincolnshire-coop/images/store/Albert-Street-Food-Store-Newark.JPG", "brand": "Lincolnshire Co-operative", "brand:wikidata": "Q5329759", "nsi_id": "eastofenglandcoop-a8278b"}, "geometry": {"type": "Point", "coordinates": [-0.813132, 53.07216]}},
{"type": "Feature", "id": "LoezZVIRcfRZSX1s9hdBBWZ-3fw=", "properties": {"ref": "1488", "@spider": "lincolnshire_cooperative", "operator": "East of England Co-operative Society", "operator:wikidata": "Q5329759", "shop": "supermarket", "addr:street_address": "Birchwood Centre, Birchwood Avenue, Lincoln", "addr:city": "Boston", "addr:postcode": "LN6 0PY", "addr:country": "GB", "name": "Lincoln Florist", "phone": "01522 686 500", "website": "https://www.lincolnshire.coop/branches/florist/florists-lincoln", "opening_hours": "Mo-Sa 09:00-16:00; Su 00:00-24:00", "image": "https://s3-eu-west-1.amazonaws.com/lincolnshire-coop/images/store/Florist-external.jpg", "brand": "Lincolnshire Co-operative", "brand:wikidata": "Q5329759", "nsi_id": "eastofenglandcoop-a8278b"}, "geometry": {"type": "Point", "coordinates": [-0.604756, 53.214596]}},
{"type": "Feature", "id": "EL5lovpT--NnXvDhFkGfQ8aZUhQ=", "properties": {"ref": "1487", "@spider": "lincolnshire_cooperative", "operator": "East of England Co-operative Society", "operator:wikidata": "Q5329759", "shop": "supermarket", "addr:street_address": "Carholme Road, Lincoln", "addr:city": "Boston", "addr:postcode": "LN1 1RU", "addr:country": "GB", "name": "Winning Post Food Store and Filling Station", "phone": "01522 510 253", "website": "https://www.lincolnshire.coop/branches/filling-stations/winning-post-filling-station", "opening_hours": "Mo-Su 06:00-23:00", "image": "https://s3-eu-west-1.amazonaws.com/lincolnshire-coop/images/store/Winning-post.JPG", "brand": "Lincolnshire Co-operative", "brand:wikidata": "Q5329759", "nsi_id": "eastofenglandcoop-a8278b"}, "geometry": {"type": "Point", "coordinates": [-0.55756, 53.233545]}},
{"type": "Feature", "id": "qz0Rrl1kuv3cpT9b81HnkeVLYvM=", "properties": {"ref": "1486", "@spider": "lincolnshire_cooperative", "operator": "East of England Co-operative Society", "operator:wikidata": "Q5329759", "shop": "supermarket", "addr:street_address": "Main Road, Whaplode, Spalding, Lincolnshire", "addr:city": "Boston", "addr:postcode": "PE12 6TJ", "addr:country": "GB", "name": "Whaplode Food Store and Filling Station", "phone": "01406 370 468", "website": "https://www.lincolnshire.coop/branches/filling-stations/whaplode-food-store-and-filling-station", "opening_hours": "Mo-Su 07:00-22:00", "image": "https://s3-eu-west-1.amazonaws.com/lincolnshire-coop/images/store/Whaplode-food-store-and-filling-station-website.jpg", "brand": "Lincolnshire Co-operative", "brand:wikidata": "Q5329759", "nsi_id": "eastofenglandcoop-a8278b"}, "geometry": {"type": "Point", "coordinates": [-0.032724, 52.799935]}},
{"type": "Feature", "id": "gsUs8F72LMNDyvAt0G2ThNkotbY=", "properties": {"ref": "1485", "@spider": "lincolnshire_cooperative", "operator": "East of England Co-operative Society", "operator:wikidata": "Q5329759", "shop": "supermarket", "addr:street_address": "The Chase, West Street, Long Sutton, Lincolnshire", "addr:city": "Boston", "addr:postcode": "PE12 9BN", "addr:country": "GB", "name": "The Chase Filling Station", "phone": "01406 363 969", "website": "https://www.lincolnshire.coop/branches/filling-stations/the-chase-filling-station", "opening_hours": "Mo-Sa 07:00-20:00; Su 10:00-16:00", "image": "https://s3-eu-west-1.amazonaws.com/lincolnshire-coop/images/store/The-Chase-Filling-Station.jpg", "brand": "Lincolnshire Co-operative", "brand:wikidata": "Q5329759", "nsi_id": "eastofenglandcoop-a8278b"}, "geometry": {"type": "Point", "coordinates": [0.120524, 52.783288]}},
{"type": "Feature", "id": "xEbhGN7CPSHEJGZIeASvFyegQzg=", "properties": {"ref": "1484", "@spider": "lincolnshire_cooperative", "operator": "East of England Co-operative Society", "operator:wikidata": "Q5329759", "shop": "supermarket", "addr:street_address": "Springfields Roundabout, Holbeach Road, Spalding", "addr:city": "Boston", "addr:postcode": "PE12 6JP", "addr:country": "GB", "name": "Springfields Filling Station", "phone": "01775 711 418", "website": "https://www.lincolnshire.coop/branches/filling-stations/springfields-filling-station", "opening_hours": "Mo-Su 06:00-22:00", "image": "https://s3-eu-west-1.amazonaws.com/lincolnshire-coop/images/store/Springfields-Filling-Station-2.jpg", "brand": "Lincolnshire Co-operative", "brand:wikidata": "Q5329759", "nsi_id": "eastofenglandcoop-a8278b"}, "geometry": {"type": "Point", "coordinates": [-0.123141, 52.798462]}},
{"type": "Feature", "id": "2bhF2eEDnymFeeh93LsZ8vX0R5k=", "properties": {"ref": "1483", "@spider": "lincolnshire_cooperative", "operator": "East of England Co-operative Society", "operator:wikidata": "Q5329759", "shop": "supermarket", "addr:street_address": "43 Riseholme Road, Lincoln", "addr:city": "Boston", "addr:postcode": "LN1 3SN", "addr:country": "GB", "name": "Riseholme Road Food Store and Filling Station", "phone": "01522 539 600", "website": "https://www.lincolnshire.coop/branches/filling-stations/riseholme-road-food-store-and-filling-station", "opening_hours": "Mo-Su 07:00-22:00", "image": "https://s3-eu-west-1.amazonaws.com/lincolnshire-coop/images/store/Riseholme-road.jpg", "brand": "Lincolnshire Co-operative", "brand:wikidata": "Q5329759", "nsi_id": "eastofenglandcoop-a8278b"}, "geometry": {"type": "Point", "coordinates": [-0.537678, 53.248045]}},
{"type": "Feature", "id": "GcOtpaykxlBRLNed7TeQc76PvmQ=", "properties": {"ref": "1481", "@spider": "lincolnshire_cooperative", "operator": "East of England Co-operative Society", "operator:wikidata": "Q5329759", "shop": "supermarket", "addr:street_address": "Gibbet Nook, Tumby Road, Coningsby, Lincolnshire", "addr:city": "Boston", "addr:postcode": "LN4 4RQ", "addr:country": "GB", "name": "Gibbet Nook Food Store and Filling Station", "phone": "01526 342 298", "website": "https://www.lincolnshire.coop/branches/filling-stations/gibbet-nook-food-store-and-filling-station", "opening_hours": "Mo-Su 06:30-22:00", "image": "https://s3-eu-west-1.amazonaws.com/lincolnshire-coop/images/store/Gibbet-Nook-Food-Store-and-Filling-Station-60.jpg", "brand": "Lincolnshire Co-operative", "brand:wikidata": "Q5329759", "nsi_id": "eastofenglandcoop-a8278b"}, "geometry": {"type": "Point", "coordinates": [-0.156931, 53.11297]}},
{"type": "Feature", "id": "fJdEK2_5_IweoBWmTNftK0rHCMA=", "properties": {"ref": "1480", "@spider": "lincolnshire_cooperative", "operator": "East of England Co-operative Society", "operator:wikidata": "Q5329759", "shop": "supermarket", "addr:street_address": "14-16 Eastwood Road, Boston, Lincolnshire", "addr:city": "Boston", "addr:postcode": "PE21 0PH", "addr:country": "GB", "name": "Eastwood Road. Food Store and Filling Station", "phone": "01205 362 813", "website": "https://www.lincolnshire.coop/branches/filling-stations/eastwood-road-filling-station", "opening_hours": "Mo-Su 06:00-22:00", "image": "https://s3-eu-west-1.amazonaws.com/lincolnshire-coop/images/store/Eastwood.jpg", "brand": "Lincolnshire Co-operative", "brand:wikidata": "Q5329759", "nsi_id": "eastofenglandcoop-a8278b"}, "geometry": {"type": "Point", "coordinates": [-0.002329, 52.976663]}},
{"type": "Feature", "id": "bXpIF0I_Vbd3fX2PxU5sQqbnqpk=", "properties": {"ref": "1478", "@spider": "lincolnshire_cooperative", "operator": "East of England Co-operative Society", "operator:wikidata": "Q5329759", "shop": "supermarket", "addr:street_address": "West Street, Market Place, Long Sutton", "addr:city": "Boston", "addr:postcode": "PE12 9BN", "addr:country": "GB", "name": "The Spire Coffee Shop", "phone": "01406 363 207", "website": "https://www.lincolnshire.coop/branches/coffee/the-spire-coffee-shop", "image": "https://s3-eu-west-1.amazonaws.com/lincolnshire-coop/images/store/Long-Sutton-Coffee-shop-2.jpg", "brand": "Lincolnshire Co-operative", "brand:wikidata": "Q5329759", "nsi_id": "eastofenglandcoop-a8278b"}, "geometry": {"type": "Point", "coordinates": [0.12154, 52.783838]}},
{"type": "Feature", "id": "DRcNobUg6waupOJ-Xwo6urvv3Ec=", "properties": {"ref": "1494", "@spider": "lincolnshire_cooperative", "operator": "East of England Co-operative Society", "operator:wikidata": "Q5329759", "shop": "supermarket", "addr:street_address": "Church Street, Billinghay, Lincolnshire", "addr:city": "Boston", "addr:postcode": "LN4 4HN", "addr:country": "GB", "name": "Billinghay Food Store", "phone": "01526 860 256", "website": "https://www.lincolnshire.coop/branches/food-stores/billinghay-food-store", "opening_hours": "Mo-Su 07:00-22:00", "image": "https://s3-eu-west-1.amazonaws.com/lincolnshire-coop/images/store/Billinghay-Food-Store-3.JPG", "brand": "Lincolnshire Co-operative", "brand:wikidata": "Q5329759", "nsi_id": "eastofenglandcoop-a8278b"}, "geometry": {"type": "Point", "coordinates": [-0.276034, 53.079509]}},
{"type": "Feature", "id": "8X-xy30d8n2wbJA5hNFOpTtD4kQ=", "properties": {"ref": "1541", "@spider": "lincolnshire_cooperative", "operator": "East of England Co-operative Society", "operator:wikidata": "Q5329759", "shop": "supermarket", "addr:street_address": "Queen Elizabeth Road, Ermine Estate, Lincoln", "addr:city": "Boston", "addr:postcode": "LN1 3PA", "addr:country": "GB", "name": "Queen Elizabeth Road Food Store", "phone": "01522 524 901", "website": "https://www.lincolnshire.coop/branches/food-stores/queen-elizabeth-road-food-store", "opening_hours": "Mo-Su 07:00-22:00", "image": "https://s3-eu-west-1.amazonaws.com/lincolnshire-coop/images/store/Queen-Elizabeth-road-2.jpg", "brand": "Lincolnshire Co-operative", "brand:wikidata": "Q5329759", "nsi_id": "eastofenglandcoop-a8278b"}, "geometry": {"type": "Point", "coordinates": [-0.545988, 53.25208]}},
{"type": "Feature", "id": "tEJ9nQbQzXIWXbu1ku2SgZcqZM8=", "properties": {"ref": "1540", "@spider": "lincolnshire_cooperative", "operator": "East of England Co-operative Society", "operator:wikidata": "Q5329759", "shop": "supermarket", "addr:street_address": "Parklands, Boultham Park Road, Lincoln", "addr:city": "Boston", "addr:postcode": "LN6 7ST", "addr:country": "GB", "name": "Parklands Food Store", "phone": "01522 692 343", "website": "https://www.lincolnshire.coop/branches/food-stores/parklands-food-store", "opening_hours": "Mo-Su 07:00-22:00", "image": "https://s3-eu-west-1.amazonaws.com/lincolnshire-coop/images/store/Parklands-Food-Store.jpg", "brand": "Lincolnshire Co-operative", "brand:wikidata": "Q5329759", "nsi_id": "eastofenglandcoop-a8278b"}, "geometry": {"type": "Point", "coordinates": [-0.561964, 53.210499]}},
{"type": "Feature", "id": "_MEsOzSX88DvwDVSaZDy0mm2Cic=", "properties": {"ref": "1539", "@spider": "lincolnshire_cooperative", "operator": "East of England Co-operative Society", "operator:wikidata": "Q5329759", "shop": "supermarket", "addr:street_address": "Meadow Way, Old Leake, Boston, Lincolnshire", "addr:city": "Boston", "addr:postcode": "PE22 9JT", "addr:country": "GB", "name": "Old Leake Food Store", "phone": "01205 870873", "website": "https://www.lincolnshire.coop/branches/food-stores/old-leake-food-store", "opening_hours": "Mo-Su 07:00-22:00", "image": "https://s3-eu-west-1.amazonaws.com/lincolnshire-coop/images/store/Press-Old-Leake-Food-Store-and-Post-Office.jpg", "brand": "Lincolnshire Co-operative", "brand:wikidata": "Q5329759", "nsi_id": "eastofenglandcoop-a8278b"}, "geometry": {"type": "Point", "coordinates": [0.100191, 53.02913]}},
{"type": "Feature", "id": "WrK82ADeenpiiiZ5nxjgwk5T_mQ=", "properties": {"ref": "1537", "@spider": "lincolnshire_cooperative", "operator": "East of England Co-operative Society", "operator:wikidata": "Q5329759", "shop": "supermarket", "addr:street_address": "259-261 Lincoln Road, North Hykeham, Lincoln", "addr:city": "Boston", "addr:postcode": "LN6 8NH", "addr:country": "GB", "name": "Hykeham Green Food Store", "phone": "01522 681 840", "website": "https://www.lincolnshire.coop/branches/food-stores/hykeham-green-food-store", "opening_hours": "Mo-Su 07:00-22:00", "image": "https://s3-eu-west-1.amazonaws.com/lincolnshire-coop/images/store/Hykeham-Food-Store-Pharmacy-and-Post-Office.jpg", "brand": "Lincolnshire Co-operative", "brand:wikidata": "Q5329759", "nsi_id": "eastofenglandcoop-a8278b"}, "geometry": {"type": "Point", "coordinates": [-0.58785, 53.182941]}},
{"type": "Feature", "id": "sL7Krq9yzKxV_Y60eBpYxqB7Ymo=", "properties": {"ref": "1536", "@spider": "lincolnshire_cooperative", "operator": "East of England Co-operative Society", "operator:wikidata": "Q5329759", "shop": "supermarket", "addr:street_address": "Newbridge Hill, Louth, Lincolnshire", "addr:city": "Boston", "addr:postcode": "LN11 0JT", "addr:country": "GB", "name": "Newbridge Hill Food Store", "phone": "01507 603 442", "website": "https://www.lincolnshire.coop/branches/food-stores/newbridge-hill-food-store", "opening_hours": "Mo-Su 07:00-22:00", "image": "https://s3-eu-west-1.amazonaws.com/lincolnshire-coop/images/store/Newbridge-Hill-Food-Store-4.jpg", "brand": "Lincolnshire Co-operative", "brand:wikidata": "Q5329759", "nsi_id": "eastofenglandcoop-a8278b"}, "geometry": {"type": "Point", "coordinates": [0.001245, 53.372651]}},
{"type": "Feature", "id": "5Y3oGuMbJPPhGFdL4jts9PpjWck=", "properties": {"ref": "1535", "@spider": "lincolnshire_cooperative", "operator": "East of England Co-operative Society", "operator:wikidata": "Q5329759", "shop": "supermarket", "addr:street_address": "19 The Green, Nettleham, Lincoln", "addr:city": "Boston", "addr:postcode": "LN2 2NR", "addr:country": "GB", "name": "Nettleham Food Store", "phone": "01522 751 826", "website": "https://www.lincolnshire.coop/branches/food-stores/nettleham-food-store", "opening_hours": "Mo-Su 07:00-22:00", "image": "https://s3-eu-west-1.amazonaws.com/lincolnshire-coop/images/store/Nettleham-Food-Store.jpg", "brand": "Lincolnshire Co-operative", "brand:wikidata": "Q5329759", "nsi_id": "eastofenglandcoop-a8278b"}, "geometry": {"type": "Point", "coordinates": [-0.488442, 53.265745]}},
{"type": "Feature", "id": "CBgSRfydc8x19JuwS_lG-J9V2B0=", "properties": {"ref": "1534", "@spider": "lincolnshire_cooperative", "operator": "East of England Co-operative Society", "operator:wikidata": "Q5329759", "shop": "supermarket", "addr:street_address": "40 High Street, Navenby, Lincoln", "addr:city": "Boston", "addr:postcode": "LN5 0DZ", "addr:country": "GB", "name": "Navenby Food Store", "phone": "01522 811 659", "website": "https://www.lincolnshire.coop/branches/food-stores/navenby-food-store", "opening_hours": "Mo-Su 07:00-22:00", "image": "https://s3-eu-west-1.amazonaws.com/lincolnshire-coop/images/store/Navenby-Food-Store.JPG", "brand": "Lincolnshire Co-operative", "brand:wikidata": "Q5329759", "nsi_id": "eastofenglandcoop-a8278b"}, "geometry": {"type": "Point", "coordinates": [-0.524641, 53.107176]}},
{"type": "Feature", "id": "4xFbvTwgPePJ1TPQ_ol0OmKRn54=", "properties": {"ref": "1533", "@spider": "lincolnshire_cooperative", "operator": "East of England Co-operative Society", "operator:wikidata": "Q5329759", "shop": "supermarket", "addr:street_address": "Front Street, Morton, Gainsborough", "addr:city": "Boston", "addr:postcode": "DN21 3AA", "addr:country": "GB", "name": "Morton Food Store", "phone": "01427 612 824", "website": "https://www.lincolnshire.coop/branches/food-stores/morton-food-store", "opening_hours": "Mo-Su 07:00-22:00", "image": "https://s3-eu-west-1.amazonaws.com/lincolnshire-coop/images/store/Morton.JPG", "brand": "Lincolnshire Co-operative", "brand:wikidata": "Q5329759", "nsi_id": "eastofenglandcoop-a8278b"}, "geometry": {"type": "Point", "coordinates": [-0.784607, 53.414207]}},
{"type": "Feature", "id": "8Omk6_MdNTOlBdZ3Y3ShJ_rm2fg=", "properties": {"ref": "1532", "@spider": "lincolnshire_cooperative", "operator": "East of England Co-operative Society", "operator:wikidata": "Q5329759", "shop": "supermarket", "addr:street_address": "189 Monks Road, Lincoln", "addr:city": "Boston", "addr:postcode": "LN2 5JP", "addr:country": "GB", "name": "Monks Road Food Store", "phone": "01522 568 608", "website": "https://www.lincolnshire.coop/branches/food-stores/monks-road-food-store", "opening_hours": "Mo-Su 07:00-22:00", "image": "https://s3-eu-west-1.amazonaws.com/lincolnshire-coop/images/store/Monks-Road.JPG", "brand": "Lincolnshire Co-operative", "brand:wikidata": "Q5329759", "nsi_id": "eastofenglandcoop-a8278b"}, "geometry": {"type": "Point", "coordinates": [-0.523916, 53.230693]}},
{"type": "Feature", "id": "d6OqLFsDAOFKIKlc_C4aIj-6N6Q=", "properties": {"ref": "1531", "@spider": "lincolnshire_cooperative", "operator": "East of England Co-operative Society", "operator:wikidata": "Q5329759", "shop": "supermarket", "addr:street_address": "31 High Street, Misterton, Doncaster", "addr:city": "Boston", "addr:postcode": "DN10 4BU", "addr:country": "GB", "name": "Misterton Food Store", "phone": "01427 890 316", "website": "https://www.lincolnshire.coop/branches/food-stores/misterton-food-store", "opening_hours": "Mo-Su 07:00-22:00", "image": "https://s3-eu-west-1.amazonaws.com/lincolnshire-coop/images/store/Misterton-1.jpg", "brand": "Lincolnshire Co-operative", "brand:wikidata": "Q5329759", "nsi_id": "eastofenglandcoop-a8278b"}, "geometry": {"type": "Point", "coordinates": [-0.844709, 53.443077]}},
{"type": "Feature", "id": "LS2qQGZUmqrROQixCJU6tYQtVuw=", "properties": {"ref": "1530", "@spider": "lincolnshire_cooperative", "operator": "East of England Co-operative Society", "operator:wikidata": "Q5329759", "shop": "supermarket", "addr:street_address": "26 High Street, Metheringham, Lincoln", "addr:city": "Boston", "addr:postcode": "LN4 3EA", "addr:country": "GB", "name": "Metheringham Food Store", "phone": "01526 320 251", "website": "https://www.lincolnshire.coop/branches/food-stores/metheringham-food-store", "opening_hours": "Mo-Sa 07:00-22:00; Su 10:00-16:00", "image": "https://s3-eu-west-1.amazonaws.com/lincolnshire-coop/images/store/Metheringham.jpg", "brand": "Lincolnshire Co-operative", "brand:wikidata": "Q5329759", "nsi_id": "eastofenglandcoop-a8278b"}, "geometry": {"type": "Point", "coordinates": [-0.403873, 53.13977]}},
{"type": "Feature", "id": "DHIkm_PbW90uMVGz52DyfMT5qZ4=", "properties": {"ref": "1529", "@spider": "lincolnshire_cooperative", "operator": "East of England Co-operative Society", "operator:wikidata": "Q5329759", "shop": "supermarket", "addr:street_address": "33 High Street, Messingham, Scunthorpe", "addr:city": "Boston", "addr:postcode": "DN17 3TR", "addr:country": "GB", "name": "Messingham Food Store", "phone": "01724 764 022", "website": "https://www.lincolnshire.coop/branches/food-stores/messingham-food-store", "opening_hours": "Mo-Su 06:00-22:00", "image": "https://s3-eu-west-1.amazonaws.com/lincolnshire-coop/images/store/Messingham-Food-Store-and-Post-Office.jpg", "brand": "Lincolnshire Co-operative", "brand:wikidata": "Q5329759", "nsi_id": "eastofenglandcoop-a8278b"}, "geometry": {"type": "Point", "coordinates": [-0.653942, 53.529421]}},
{"type": "Feature", "id": "hbb4NFvLTS_62aTb8DKbC6M-0z4=", "properties": {"ref": "1528", "@spider": "lincolnshire_cooperative", "operator": "East of England Co-operative Society", "operator:wikidata": "Q5329759", "shop": "supermarket", "addr:street_address": "John Street, Market Rasen, Lincolnshire", "addr:city": "Boston", "addr:postcode": "LN8 3HH", "addr:country": "GB", "name": "Market Rasen Food Store", "phone": "01673 843 309", "website": "https://www.lincolnshire.coop/branches/food-stores/market-rasen-food-store", "opening_hours": "Mo-Sa 07:00-22:00; Su 10:00-16:00", "image": "https://s3-eu-west-1.amazonaws.com/lincolnshire-coop/images/store/Market-Rasen-Store-1.jpg", "brand": "Lincolnshire Co-operative", "brand:wikidata": "Q5329759", "nsi_id": "eastofenglandcoop-a8278b"}, "geometry": {"type": "Point", "coordinates": [-0.338322, 53.387156]}},
{"type": "Feature", "id": "9LbpkslYiMHcf7NmMxsxNMkdUhI=", "properties": {"ref": "1527", "@spider": "lincolnshire_cooperative", "operator": "East of England Co-operative Society", "operator:wikidata": "Q5329759", "shop": "supermarket", "addr:street_address": "West Street, Market Place, Long Sutton", "addr:city": "Boston", "addr:postcode": "PE12 9BN", "addr:country": "GB", "name": "Long Sutton Food Store", "phone": "01406 363 207", "website": "https://www.lincolnshire.coop/branches/food-stores/long-sutton-food-store", "opening_hours": "Mo-Sa 07:00-22:00; Su 10:00-16:00", "image": "https://s3-eu-west-1.amazonaws.com/lincolnshire-coop/images/store/Long-Sutton-editesd.jpg", "brand": "Lincolnshire Co-operative", "brand:wikidata": "Q5329759", "nsi_id": "eastofenglandcoop-a8278b"}, "geometry": {"type": "Point", "coordinates": [0.121557, 52.78384]}},
{"type": "Feature", "id": "eWKyL1x6xd_rqzDSuWd9JlqsHxY=", "properties": {"ref": "1526", "@spider": "lincolnshire_cooperative", "operator": "East of England Co-operative Society", "operator:wikidata": "Q5329759", "shop": "supermarket", "addr:street_address": "27 Main Road, Long Bennington, Lincolnshire", "addr:city": "Boston", "addr:postcode": "NG23 5DJ", "addr:country": "GB", "name": "Long Bennington Food Store", "phone": "01400 283389", "website": "https://www.lincolnshire.coop/branches/food-stores/long-bennington-food-store", "opening_hours": "Mo-Su 07:00-22:00", "image": "https://s3-eu-west-1.amazonaws.com/lincolnshire-coop/images/store/Long-Bennington.jpg", "brand": "Lincolnshire Co-operative", "brand:wikidata": "Q5329759", "nsi_id": "eastofenglandcoop-a8278b"}, "geometry": {"type": "Point", "coordinates": [-0.758915, 52.99386]}},
{"type": "Feature", "id": "QJ9AAw40VoB2c9FMzllX2MAI2K4=", "properties": {"ref": "1511", "@spider": "lincolnshire_cooperative", "operator": "East of England Co-operative Society", "operator:wikidata": "Q5329759", "shop": "supermarket", "addr:street_address": "Silver Street, Coningsby, Lincolnshire", "addr:city": "Boston", "addr:postcode": "LN4 4SG", "addr:country": "GB", "name": "Coningsby Food Store", "phone": "01526 345 196", "website": "https://www.lincolnshire.coop/branches/food-stores/coningsby-food-store", "opening_hours": "Mo-Sa 07:00-22:00; Su 10:00-16:00", "image": "https://s3-eu-west-1.amazonaws.com/lincolnshire-coop/images/store/Coningsby-food-store1.JPG", "brand": "Lincolnshire Co-operative", "brand:wikidata": "Q5329759", "nsi_id": "eastofenglandcoop-a8278b"}, "geometry": {"type": "Point", "coordinates": [-0.173446, 53.103836]}},
{"type": "Feature", "id": "Mcay4c342D7JQNMj-XCJCiWMjxA=", "properties": {"ref": "1512", "@spider": "lincolnshire_cooperative", "operator": "East of England Co-operative Society", "operator:wikidata": "Q5329759", "shop": "supermarket", "addr:street_address": "17 Coniston Avenue, Grimsby", "addr:city": "Boston", "addr:postcode": "DN33 3EE", "addr:country": "GB", "name": "Coniston Avenue Food Store", "phone": "01472 822 603", "website": "https://www.lincolnshire.coop/branches/food-stores/coniston-avenue-food-store", "opening_hours": "Mo-Su 07:00-22:00", "image": "https://s3-eu-west-1.amazonaws.com/lincolnshire-coop/images/store/Coniston-Avenue-Food-Store-and-Post-Office-6.jpg", "brand": "Lincolnshire Co-operative", "brand:wikidata": "Q5329759", "nsi_id": "eastofenglandcoop-a8278b"}, "geometry": {"type": "Point", "coordinates": [-0.100379, 53.529169]}},
{"type": "Feature", "id": "gr_SPuMGqe9Vwx23_Wa51j84ZFY=", "properties": {"ref": "1514", "@spider": "lincolnshire_cooperative", "operator": "East of England Co-operative Society", "operator:wikidata": "Q5329759", "shop": "supermarket", "addr:street_address": "8-12 West Street, Crowland, Peterborough", "addr:city": "Boston", "addr:postcode": "PE6 0ED", "addr:country": "GB", "name": "Crowland Food Store", "phone": "01733 210 020", "website": "https://www.lincolnshire.coop/branches/food-stores/crowland-food-store", "opening_hours": "Mo-Su 07:00-22:00", "image": "https://s3-eu-west-1.amazonaws.com/lincolnshire-coop/images/store/Crowland-Food-Store.jpg", "brand": "Lincolnshire Co-operative", "brand:wikidata": "Q5329759", "nsi_id": "eastofenglandcoop-a8278b"}, "geometry": {"type": "Point", "coordinates": [-0.168902, 52.675574]}},
{"type": "Feature", "id": "d26OUMPKuOSfiP5nFsqQpIdzZWI=", "properties": {"ref": "1515", "@spider": "lincolnshire_cooperative", "operator": "East of England Co-operative Society", "operator:wikidata": "Q5329759", "shop": "supermarket", "addr:street_address": "2-4 Johnson&#039;s Lane, Crowle", "addr:city": "Boston", "addr:postcode": "DN17 4LA", "addr:country": "GB", "name": "Crowle Food Store", "phone": "01724 712 710", "website": "https://www.lincolnshire.coop/branches/food-stores/crowle-food-store", "opening_hours": "Mo-Su 07:00-22:00", "image": "https://s3-eu-west-1.amazonaws.com/lincolnshire-coop/images/store/Crowle.jpg", "brand": "Lincolnshire Co-operative", "brand:wikidata": "Q5329759", "nsi_id": "eastofenglandcoop-a8278b"}, "geometry": {"type": "Point", "coordinates": [-0.833683, 53.606237]}},
{"type": "Feature", "id": "VFpfQTycNh1yeGrO4dfMlBZzmlw=", "properties": {"ref": "1516", "@spider": "lincolnshire_cooperative", "operator": "East of England Co-operative Society", "operator:wikidata": "Q5329759", "shop": "supermarket", "addr:street_address": "1 Market Rasen Road, Dunholme, Lincoln", "addr:city": "Boston", "addr:postcode": "LN2 3QR", "addr:country": "GB", "name": "Dunholme Food Store", "phone": "01673 862937", "website": "https://www.lincolnshire.coop/branches/food-stores/dunholme-food-store", "opening_hours": "Mo-Su 07:00-22:00", "image": "https://s3-eu-west-1.amazonaws.com/lincolnshire-coop/images/store/Dunholme-Food-Store-edited.jpg", "brand": "Lincolnshire Co-operative", "brand:wikidata": "Q5329759", "nsi_id": "eastofenglandcoop-a8278b"}, "geometry": {"type": "Point", "coordinates": [-0.464185, 53.300933]}},
{"type": "Feature", "id": "-0XCi5z42F1cYYo0KxTRUBB6Q2U=", "properties": {"ref": "1517", "@spider": "lincolnshire_cooperative", "operator": "East of England Co-operative Society", "operator:wikidata": "Q5329759", "shop": "supermarket", "addr:street_address": "Eastwood Road, Boston, Lincolnshire", "addr:city": "Boston", "addr:postcode": "PE21 0PH", "addr:country": "GB", "name": "Eastwood Road Food Store", "phone": "01205 362 813", "website": "https://www.lincolnshire.coop/branches/food-stores/eastwood-road-food-store", "opening_hours": "Mo-Su 07:00-22:00", "image": "https://s3-eu-west-1.amazonaws.com/lincolnshire-coop/images/store/Eastwood.jpg", "brand": "Lincolnshire Co-operative", "brand:wikidata": "Q5329759", "nsi_id": "eastofenglandcoop-a8278b"}, "geometry": {"type": "Point", "coordinates": [-0.002356, 52.976665]}},
{"type": "Feature", "id": "Le_XL2aj40moCNxikh3p9eQe0Js=", "properties": {"ref": "1518", "@spider": "lincolnshire_cooperative", "operator": "East of England Co-operative Society", "operator:wikidata": "Q5329759", "shop": "supermarket", "addr:street_address": "54 High Street, Gosberton, Spalding", "addr:city": "Boston", "addr:postcode": "PE11 4NG", "addr:country": "GB", "name": "Gosberton Food Store", "phone": "01775 840 201", "website": "https://www.lincolnshire.coop/branches/food-stores/gosberton-food-store", "opening_hours": "Mo-Su 07:00-22:00", "image": "https://s3-eu-west-1.amazonaws.com/lincolnshire-coop/images/store/Gosberton-food-and-post-office_190219_113542.JPG", "brand": "Lincolnshire Co-operative", "brand:wikidata": "Q5329759", "nsi_id": "eastofenglandcoop-a8278b"}, "geometry": {"type": "Point", "coordinates": [-0.160583, 52.868505]}},
{"type": "Feature", "id": "QlhGwI6kCX-Iqt2BnqUQnDJ553s=", "properties": {"ref": "1519", "@spider": "lincolnshire_cooperative", "operator": "East of England Co-operative Society", "operator:wikidata": "Q5329759", "shop": "supermarket", "addr:street_address": "20 High Street, Haxey, Doncaster", "addr:city": "Boston", "addr:postcode": "DN9 2HH", "addr:country": "GB", "name": "Haxey Food Store", "phone": "01427 752 121", "website": "https://www.lincolnshire.coop/branches/food-stores/haxey-food-store", "opening_hours": "Mo-Su 07:00-22:00", "image": "https://s3-eu-west-1.amazonaws.com/lincolnshire-coop/images/store/Haxey-Food-Store.jpg", "brand": "Lincolnshire Co-operative", "brand:wikidata": "Q5329759", "nsi_id": "eastofenglandcoop-a8278b"}, "geometry": {"type": "Point", "coordinates": [-0.841847, 53.489646]}},
{"type": "Feature", "id": "SISv130aheivY6akdTVoTcBTfME=", "properties": {"ref": "1520", "@spider": "lincolnshire_cooperative", "operator": "East of England Co-operative Society", "operator:wikidata": "Q5329759", "shop": "supermarket", "addr:street_address": "1 High Street, Heckington, Sleaford", "addr:city": "Boston", "addr:postcode": "NG34 9RA", "addr:country": "GB", "name": "Heckington Food Store", "phone": "01529 460 368", "website": "https://www.lincolnshire.coop/branches/food-stores/heckington-food-store", "opening_hours": "Mo-Su 07:00-22:00", "image": "https://s3-eu-west-1.amazonaws.com/lincolnshire-coop/images/store/Heckington-food-and-post-office.JPG", "brand": "Lincolnshire Co-operative", "brand:wikidata": "Q5329759", "nsi_id": "eastofenglandcoop-a8278b"}, "geometry": {"type": "Point", "coordinates": [-0.296305, 52.980291]}},
{"type": "Feature", "id": "MK9dbuInX_l1s6jnQ1OWJ65W538=", "properties": {"ref": "1521", "@spider": "lincolnshire_cooperative", "operator": "East of England Co-operative Society", "operator:wikidata": "Q5329759", "shop": "supermarket", "addr:street_address": "5 Fleet Street, Holbeach, Spalding", "addr:city": "Boston", "addr:postcode": "PE12 7AX", "addr:country": "GB", "name": "Holbeach Food Store", "phone": "01406 424391", "website": "https://www.lincolnshire.coop/branches/food-stores/holbeach-food-store", "opening_hours": "Mo-Su 07:00-22:00", "image": "https://s3-eu-west-1.amazonaws.com/lincolnshire-coop/images/store/Holbeach.jpg", "brand": "Lincolnshire Co-operative", "brand:wikidata": "Q5329759", "nsi_id": "eastofenglandcoop-a8278b"}, "geometry": {"type": "Point", "coordinates": [0.018561, 52.803497]}},
{"type": "Feature", "id": "AxS-62kAzZXntc0B3u54ZQ4-_eU=", "properties": {"ref": "1522", "@spider": "lincolnshire_cooperative", "operator": "East of England Co-operative Society", "operator:wikidata": "Q5329759", "shop": "supermarket", "addr:street_address": "3 Pinfold Lane, Holton le Clay, Grimsby", "addr:city": "Boston", "addr:postcode": "DN36 5DL", "addr:country": "GB", "name": "Holton le Clay (Pinfold Lane) Food Store", "phone": "01472 822 817", "website": "https://www.lincolnshire.coop/branches/food-stores/holton-le-clay-pinfold-lane-food-store", "opening_hours": "Mo-Su 07:00-22:00", "image": "https://s3-eu-west-1.amazonaws.com/lincolnshire-coop/images/store/Holton-Le-Clay-food-and-post-office.JPG", "brand": "Lincolnshire Co-operative", "brand:wikidata": "Q5329759", "nsi_id": "eastofenglandcoop-a8278b"}, "geometry": {"type": "Point", "coordinates": [-0.058759, 53.505198]}},
{"type": "Feature", "id": "F2Ltr7UDC1qCw3-5tuVdxty7qwI=", "properties": {"ref": "1523", "@spider": "lincolnshire_cooperative", "operator": "East of England Co-operative Society", "operator:wikidata": "Q5329759", "shop": "supermarket", "addr:street_address": "7 High Street, Horncastle, Lincolnshire", "addr:city": "Boston", "addr:postcode": "LN9 5HP", "addr:country": "GB", "name": "Horncastle Food Store", "phone": "01507 525 727", "website": "https://www.lincolnshire.coop/branches/food-stores/horncastle-food-store", "opening_hours": "Mo-Su 06:00-22:00", "image": "https://s3-eu-west-1.amazonaws.com/lincolnshire-coop/images/store/Horncastle-Food-Store.jpg", "brand": "Lincolnshire Co-operative", "brand:wikidata": "Q5329759", "nsi_id": "eastofenglandcoop-a8278b"}, "geometry": {"type": "Point", "coordinates": [-0.115315, 53.208678]}},
{"type": "Feature", "id": "2EQwwDoaKGUynExBRjL5XK4r8ek=", "properties": {"ref": "1524", "@spider": "lincolnshire_cooperative", "operator": "East of England Co-operative Society", "operator:wikidata": "Q5329759", "shop": "supermarket", "addr:street_address": "Plantation Hill, Kilton, Worksop", "addr:city": "Boston", "addr:postcode": "S81 0DU", "addr:country": "GB", "name": "Kilton Food Store", "phone": "01909 506476", "website": "https://www.lincolnshire.coop/branches/food-stores/kilton-food-store", "opening_hours": "Mo-Su 07:00-22:00", "image": "https://s3-eu-west-1.amazonaws.com/lincolnshire-coop/images/store/Kilton-Food-Store-2.jpg", "brand": "Lincolnshire Co-operative", "brand:wikidata": "Q5329759", "nsi_id": "eastofenglandcoop-a8278b"}, "geometry": {"type": "Point", "coordinates": [-1.101825, 53.311176]}},
{"type": "Feature", "id": "lcpukArIaYqUK5iM1KgAQ9X50XE=", "properties": {"ref": "1525", "@spider": "lincolnshire_cooperative", "operator": "East of England Co-operative Society", "operator:wikidata": "Q5329759", "shop": "supermarket", "addr:street_address": "5 High Street, Kirton in Lindsey, Gainsborough", "addr:city": "Boston", "addr:postcode": "DN21 4LU", "addr:country": "GB", "name": "Kirton In Lindsey Food Store", "phone": "01652 648 229", "website": "https://www.lincolnshire.coop/branches/food-stores/kirton-in-lindsey-food-store", "opening_hours": "Mo-Su 07:00-22:00", "image": "https://s3-eu-west-1.amazonaws.com/lincolnshire-coop/images/store/Kirton-Lindsey-Food-Store-4.jpg", "brand": "Lincolnshire Co-operative", "brand:wikidata": "Q5329759", "nsi_id": "eastofenglandcoop-a8278b"}, "geometry": {"type": "Point", "coordinates": [-0.588074, 53.476435]}},
{"type": "Feature", "id": "eqzrh_43zyR-SmGj7aQCspIUa8w=", "properties": {"ref": "1596", "@spider": "lincolnshire_cooperative", "operator": "East of England Co-operative Society", "operator:wikidata": "Q5329759", "shop": "supermarket", "addr:street_address": "111 Burton Road, Lincoln", "addr:city": "Boston", "addr:postcode": "LN1 3LL", "addr:country": "GB", "name": "Burton Road Pharmacy", "phone": "01522 525 651", "website": "https://www.lincolnshire.coop/branches/pharmacies/burton-road-pharmacy", "opening_hours": "Mo-Fr 09:00-18:30; Sa 09:00-13:00; Su 00:00-24:00", "image": "https://s3-eu-west-1.amazonaws.com/lincolnshire-coop/images/store/Burton-road.jpg", "brand": "Lincolnshire Co-operative", "brand:wikidata": "Q5329759", "nsi_id": "eastofenglandcoop-a8278b"}, "geometry": {"type": "Point", "coordinates": [-0.544521, 53.23883]}},
{"type": "Feature", "id": "wHEYKKJQ58K8ETIk9Y9fSRHMfXE=", "properties": {"ref": "1604", "@spider": "lincolnshire_cooperative", "operator": "East of England Co-operative Society", "operator:wikidata": "Q5329759", "shop": "supermarket", "addr:street_address": "1A &amp; 5 The Forum, Newark Road, Lincoln", "addr:city": "Boston", "addr:postcode": "LN6 8HW", "addr:country": "GB", "name": "Forum Pharmacy", "phone": "01522 681 930", "website": "https://www.lincolnshire.coop/branches/pharmacies/forum-pharmacy", "opening_hours": "Mo-Fr 09:00-18:00; Sa 09:00-17:00; Su 00:00-24:00", "image": "https://s3-eu-west-1.amazonaws.com/lincolnshire-coop/images/store/Forum-Pharmacy-edited.jpg", "brand": "Lincolnshire Co-operative", "brand:wikidata": "Q5329759", "nsi_id": "eastofenglandcoop-a8278b"}, "geometry": {"type": "Point", "coordinates": [-0.580054, 53.194659]}},
{"type": "Feature", "id": "qskbJtXqKozZWAyOrKE77JAC1r0=", "properties": {"ref": "1603", "@spider": "lincolnshire_cooperative", "operator": "East of England Co-operative Society", "operator:wikidata": "Q5329759", "shop": "supermarket", "addr:street_address": "7 High Street, Eastfield, Scarborough", "addr:city": "Boston", "addr:postcode": "YO11 3LL", "addr:country": "GB", "name": "Eastfield Pharmacy", "phone": "01723 582 247", "website": "https://www.lincolnshire.coop/branches/pharmacies/eastfield-pharmacy", "opening_hours": "Mo-Fr 09:00-18:00; Sa 09:00-13:00; Su 00:00-24:00", "image": "https://s3-eu-west-1.amazonaws.com/lincolnshire-coop/images/store/Eastfield.JPG", "brand": "Lincolnshire Co-operative", "brand:wikidata": "Q5329759", "nsi_id": "eastofenglandcoop-a8278b"}, "geometry": {"type": "Point", "coordinates": [-0.397087, 54.238762]}},
{"type": "Feature", "id": "0uuNYZ-piIr1XPze5KSlwSF4aRM=", "properties": {"ref": "1602", "@spider": "lincolnshire_cooperative", "operator": "East of England Co-operative Society", "operator:wikidata": "Q5329759", "shop": "supermarket", "addr:street_address": "27 Market Place, Donington, Lincolnshire", "addr:city": "Boston", "addr:postcode": "PE11 4ST", "addr:country": "GB", "name": "Donington Pharmacy", "phone": "01775 820 343", "website": "https://www.lincolnshire.coop/branches/pharmacies/donington-pharmacy", "opening_hours": "Mo-Fr 09:00-17:30; Sa 09:00-12:30; Su 00:00-24:00", "image": "https://s3-eu-west-1.amazonaws.com/lincolnshire-coop/images/store/Donington-Pharmacy.jpg", "brand": "Lincolnshire Co-operative", "brand:wikidata": "Q5329759", "nsi_id": "eastofenglandcoop-a8278b"}, "geometry": {"type": "Point", "coordinates": [-0.204927, 52.905216]}},
{"type": "Feature", "id": "-Em2IXr9jlPCPdLe6tjHCG9m87A=", "properties": {"ref": "1600", "@spider": "lincolnshire_cooperative", "operator": "East of England Co-operative Society", "operator:wikidata": "Q5329759", "shop": "supermarket", "addr:street_address": "121 Grimsby Road, Cleethorpes, North Lincolnshire", "addr:city": "Boston", "addr:postcode": "DN35 7DG", "addr:country": "GB", "name": "Cleethorpes Pharmacy", "phone": "01472 343 155", "website": "https://www.lincolnshire.coop/branches/pharmacies/cleethorpes-pharmacy", "opening_hours": "Mo-Fr 09:00-18:00; Sa 09:00-12:30; Su 00:00-24:00", "image": "https://s3-eu-west-1.amazonaws.com/lincolnshire-coop/images/store/Cleethorpes-Pharmacy.JPG", "brand": "Lincolnshire Co-operative", "brand:wikidata": "Q5329759", "nsi_id": "eastofenglandcoop-a8278b"}, "geometry": {"type": "Point", "coordinates": [-0.050823, 53.569924]}},
{"type": "Feature", "id": "fDcaHqGq1od5LHSZvoN1knxJAsY=", "properties": {"ref": "1598", "@spider": "lincolnshire_cooperative", "operator": "East of England Co-operative Society", "operator:wikidata": "Q5329759", "shop": "supermarket", "addr:street_address": "Unit 9, The Parade, Cherry Willingham, Lincoln", "addr:city": "Boston", "addr:postcode": "LN3 4JL", "addr:country": "GB", "name": "Cherry Willingham Pharmacy", "phone": "01522 595 989", "website": "https://www.lincolnshire.coop/branches/pharmacies/cherry-willingham-pharmacy", "opening_hours": "Mo-Fr 08:45-18:00; Sa 08:45-13:00; Su 00:00-24:00", "image": "https://s3-eu-west-1.amazonaws.com/lincolnshire-coop/images/store/Cherry-Willingham-Pharmacy.JPG", "brand": "Lincolnshire Co-operative", "brand:wikidata": "Q5329759", "nsi_id": "eastofenglandcoop-a8278b"}, "geometry": {"type": "Point", "coordinates": [-0.454917, 53.242042]}},
{"type": "Feature", "id": "RTC2FEZ4vxQFHkr7Wl06i5uZEXs=", "properties": {"ref": "1597", "@spider": "lincolnshire_cooperative", "operator": "East of England Co-operative Society", "operator:wikidata": "Q5329759", "shop": "supermarket", "addr:street_address": "Cabourne Avenue, Lincoln", "addr:city": "Boston", "addr:postcode": "LN2 2HP", "addr:country": "GB", "name": "Cabourne Avenue Pharmacy", "phone": "01522 521 400", "website": "https://www.lincolnshire.coop/branches/pharmacies/cabourne-avenue-pharmacy", "opening_hours": "Mo-Fr 08:30-18:30; Sa 09:00-12:00; Su 00:00-24:00", "image": "https://s3-eu-west-1.amazonaws.com/lincolnshire-coop/images/store/Cabourne-avenue.jpg", "brand": "Lincolnshire Co-operative", "brand:wikidata": "Q5329759", "nsi_id": "eastofenglandcoop-a8278b"}, "geometry": {"type": "Point", "coordinates": [-0.523921, 53.247819]}},
{"type": "Feature", "id": "TV609WzZNTxubXb9rkbaTISFXec=", "properties": {"ref": "1595", "@spider": "lincolnshire_cooperative", "operator": "East of England Co-operative Society", "operator:wikidata": "Q5329759", "shop": "supermarket", "addr:street_address": "Unit 10, Lowfields Centre, Brant Road, Lincoln", "addr:city": "Boston", "addr:postcode": "LN5 9TR", "addr:country": "GB", "name": "Brant Road Pharmacy", "phone": "01522 722 971", "website": "https://www.lincolnshire.coop/branches/pharmacies/brant-road-pharmacy", "opening_hours": "Mo-Fr 09:00-18:00; Sa 09:00-12:00; Su 00:00-24:00", "image": "https://s3-eu-west-1.amazonaws.com/lincolnshire-coop/images/store/Brant-road-pharmacy.jpg", "brand": "Lincolnshire Co-operative", "brand:wikidata": "Q5329759", "nsi_id": "eastofenglandcoop-a8278b"}, "geometry": {"type": "Point", "coordinates": [-0.556878, 53.191268]}},
{"type": "Feature", "id": "cFkt-uUmftWhDQrMug3Mp2EsP1w=", "properties": {"ref": "1594", "@spider": "lincolnshire_cooperative", "operator": "East of England Co-operative Society", "operator:wikidata": "Q5329759", "shop": "supermarket", "addr:street_address": "Station Road, Branston, Lincoln", "addr:city": "Boston", "addr:postcode": "LN4 1LH", "addr:country": "GB", "name": "Branston Pharmacy", "phone": "01522 791 955", "website": "https://www.lincolnshire.coop/branches/pharmacies/branston-pharmacy", "opening_hours": "Mo-Fr 09:00-18:00; Sa 09:00-13:00; Su 00:00-24:00", "image": "https://s3-eu-west-1.amazonaws.com/lincolnshire-coop/images/store/Branston-pharmacy.JPG", "brand": "Lincolnshire Co-operative", "brand:wikidata": "Q5329759", "nsi_id": "eastofenglandcoop-a8278b"}, "geometry": {"type": "Point", "coordinates": [-0.468434, 53.194025]}},
{"type": "Feature", "id": "4ztUJT0-ZtB7Af2U1IxP4ujZMUU=", "properties": {"ref": "1593", "@spider": "lincolnshire_cooperative", "operator": "East of England Co-operative Society", "operator:wikidata": "Q5329759", "shop": "supermarket", "addr:street_address": "8-10 Grantham Road, Bracebridge Heath, Lincoln", "addr:city": "Boston", "addr:postcode": "LN4 2LD", "addr:country": "GB", "name": "Bracebridge Heath Pharmacy", "phone": "01522 535 650", "website": "https://www.lincolnshire.coop/branches/pharmacies/bracebridge-heath-pharmacy", "opening_hours": "Mo-Fr 09:00-18:00; Sa 09:00-12:30; Su 00:00-24:00", "image": "https://s3-eu-west-1.amazonaws.com/lincolnshire-coop/images/store/Bracebridge-Heath-PO-pharmacy-and-food-store.jpg", "brand": "Lincolnshire Co-operative", "brand:wikidata": "Q5329759", "nsi_id": "eastofenglandcoop-a8278b"}, "geometry": {"type": "Point", "coordinates": [-0.535037, 53.195963]}},
{"type": "Feature", "id": "gucRB95b9FUSwdez2gURbTh2uxc=", "properties": {"ref": "1592", "@spider": "lincolnshire_cooperative", "operator": "East of England Co-operative Society", "operator:wikidata": "Q5329759", "shop": "supermarket", "addr:street_address": "8 Liquorpond Street, Boston, Lincolnshire", "addr:city": "Boston", "addr:postcode": "PE21 8UF", "addr:country": "GB", "name": "Liquorpond Pharmacy", "phone": "01205 350 111", "website": "https://www.lincolnshire.coop/branches/pharmacies/boston-pharmacy", "opening_hours": "Mo-Fr 09:00-18:30; Sa-Su 00:00-24:00", "image": "https://s3-eu-west-1.amazonaws.com/lincolnshire-coop/images/store/Boston.jpg", "brand": "Lincolnshire Co-operative", "brand:wikidata": "Q5329759", "nsi_id": "eastofenglandcoop-a8278b"}, "geometry": {"type": "Point", "coordinates": [-0.025676, 52.973622]}},
{"type": "Feature", "id": "q5E7yOWxxrPR_P93QFuC8_JE6kY=", "properties": {"ref": "1591", "@spider": "lincolnshire_cooperative", "operator": "East of England Co-operative Society", "operator:wikidata": "Q5329759", "shop": "supermarket", "addr:street_address": "90 Jasmin Road, Birchwood, Lincoln", "addr:city": "Boston", "addr:postcode": "LN6 0QQ", "addr:country": "GB", "name": "Birchwood Pharmacy", "phone": "01522 695 455", "website": "https://www.lincolnshire.coop/branches/pharmacies/birchwood-pharmacy", "opening_hours": "Mo-Fr 08:45-18:00; Sa 09:00-12:00; Su 00:00-24:00", "image": "https://s3-eu-west-1.amazonaws.com/lincolnshire-coop/images/store/Birchwood-Pharmacy.JPG", "brand": "Lincolnshire Co-operative", "brand:wikidata": "Q5329759", "nsi_id": "eastofenglandcoop-a8278b"}, "geometry": {"type": "Point", "coordinates": [-0.604549, 53.215528]}},
{"type": "Feature", "id": "eehaeXi32ZHXf3WmXUt6O7OT35o=", "properties": {"ref": "1590", "@spider": "lincolnshire_cooperative", "operator": "East of England Co-operative Society", "operator:wikidata": "Q5329759", "shop": "supermarket", "addr:street_address": "176 Winchester Road", "addr:city": "Boston", "addr:postcode": "Grantham NG31 8RX", "addr:country": "GB", "name": "Barrowby Gate Pharmacy, Grantham", "phone": "01476 592 020", "website": "https://www.lincolnshire.coop/branches/pharmacies/barrowbygate-pharmacy-grantham", "opening_hours": "Mo-Fr 09:00-18:00; Sa 09:00-12:00; Su 00:00-24:00", "image": "https://s3-eu-west-1.amazonaws.com/lincolnshire-coop/images/store/Barrowbygate-Pharmacy.jpg", "brand": "Lincolnshire Co-operative", "brand:wikidata": "Q5329759", "nsi_id": "eastofenglandcoop-a8278b"}, "geometry": {"type": "Point", "coordinates": [-0.665881, 52.914241]}},
{"type": "Feature", "id": "CeFP6W5WES_AIkkPWsGeug73cY8=", "properties": {"ref": "1606", "@spider": "lincolnshire_cooperative", "operator": "East of England Co-operative Society", "operator:wikidata": "Q5329759", "shop": "supermarket", "addr:street_address": "29-31 High Street, Horncastle, Lincolnshire", "addr:city": "Boston", "addr:postcode": "LN9 5HP", "addr:country": "GB", "name": "Horncastle Pharmacy", "phone": "01507 522 318", "website": "https://www.lincolnshire.coop/branches/pharmacies/horncastle-pharmacy", "opening_hours": "Mo-Fr 08:45-17:30; Sa 08:45-16:00; Su 00:00-24:00", "image": "https://s3-eu-west-1.amazonaws.com/lincolnshire-coop/images/store/Horncastle-Pharmacy-2.jpg", "brand": "Lincolnshire Co-operative", "brand:wikidata": "Q5329759", "nsi_id": "eastofenglandcoop-a8278b"}, "geometry": {"type": "Point", "coordinates": [-0.116432, 53.208481]}},
{"type": "Feature", "id": "c9CsG-KYgPFQ0CZQTH_kDpehu5s=", "properties": {"ref": "1605", "@spider": "lincolnshire_cooperative", "operator": "East of England Co-operative Society", "operator:wikidata": "Q5329759", "shop": "supermarket", "addr:street_address": "5 Fleet Street, Holbeach, Lincolnshire", "addr:city": "Boston", "addr:postcode": "PE12 7AX", "addr:country": "GB", "name": "Holbeach Pharmacy", "phone": "01406 425 536", "website": "https://www.lincolnshire.coop/branches/pharmacies/holbeach-pharmacy", "opening_hours": "Mo-Fr 09:00-17:30; Sa 09:00-13:00; Su 00:00-24:00", "image": "https://s3-eu-west-1.amazonaws.com/lincolnshire-coop/images/store/Holbeach-Pharmacy.JPG", "brand": "Lincolnshire Co-operative", "brand:wikidata": "Q5329759", "nsi_id": "eastofenglandcoop-a8278b"}, "geometry": {"type": "Point", "coordinates": [0.01869, 52.803883]}},
{"type": "Feature", "id": "YPg3UTWPVKcACWKe8EFG1bXnE6o=", "properties": {"ref": "1588", "@spider": "lincolnshire_cooperative", "operator": "East of England Co-operative Society", "operator:wikidata": "Q5329759", "shop": "supermarket", "addr:street_address": "Trusthorpe Road, Sutton on Sea, Lincolnshire", "addr:city": "Boston", "addr:postcode": "LN12 2LL", "addr:country": "GB", "name": "Sutton On Sea Funeral Home", "phone": "01507 441 271", "website": "https://www.lincolnshire.coop/branches/funeral-homes/sutton-on-sea-funeral-service", "opening_hours": "Mo-Fr 09:00-17:00; Sa-Su 00:00-24:00", "image": "https://s3-eu-west-1.amazonaws.com/lincolnshire-coop/images/store/Sutton-on-Sea-Funeral-Home_web.jpg", "brand": "Lincolnshire Co-operative", "brand:wikidata": "Q5329759", "nsi_id": "eastofenglandcoop-a8278b"}, "geometry": {"type": "Point", "coordinates": [0.277354, 53.318909]}},
{"type": "Feature", "id": "7v1P04CHXdCd5bADHfCJtyqN78k=", "properties": {"ref": "1621", "@spider": "lincolnshire_cooperative", "operator": "East of England Co-operative Society", "operator:wikidata": "Q5329759", "shop": "supermarket", "addr:street_address": "107 High Street, Saxilby, Lincoln", "addr:city": "Boston", "addr:postcode": "LN1 2HG", "addr:country": "GB", "name": "Saxilby Pharmacy", "phone": "01522 702 283", "website": "https://www.lincolnshire.coop/branches/pharmacies/saxilby-pharmacy", "opening_hours": "Mo-Fr 09:00-18:00; Sa 09:00-12:00; Su 00:00-24:00", "image": "https://s3-eu-west-1.amazonaws.com/lincolnshire-coop/images/store/Saxilby-pharmacy.jpg", "brand": "Lincolnshire Co-operative", "brand:wikidata": "Q5329759", "nsi_id": "eastofenglandcoop-a8278b"}, "geometry": {"type": "Point", "coordinates": [-0.664556, 53.270617]}},
{"type": "Feature", "id": "Ifcz37FWwof3fmo5Oxfzk6zBLb8=", "properties": {"ref": "1620", "@spider": "lincolnshire_cooperative", "operator": "East of England Co-operative Society", "operator:wikidata": "Q5329759", "shop": "supermarket", "addr:street_address": "High Street, Ruskington, Sleaford", "addr:city": "Boston", "addr:postcode": "NG34 9DY", "addr:country": "GB", "name": "Ruskington Pharmacy", "phone": "01526 834 748", "website": "https://www.lincolnshire.coop/branches/pharmacies/ruskington-pharmacy", "opening_hours": "Mo-Fr 08:45-18:15; Sa 09:00-12:00; Su 00:00-24:00", "image": "https://s3-eu-west-1.amazonaws.com/lincolnshire-coop/images/store/Ruskington.jpg", "brand": "Lincolnshire Co-operative", "brand:wikidata": "Q5329759", "nsi_id": "eastofenglandcoop-a8278b"}, "geometry": {"type": "Point", "coordinates": [-0.384552, 53.046331]}},
{"type": "Feature", "id": "sl12s3lQxmndDWdpC0vOL3sIlCc=", "properties": {"ref": "1619", "@spider": "lincolnshire_cooperative", "operator": "East of England Co-operative Society", "operator:wikidata": "Q5329759", "shop": "supermarket", "addr:street_address": "8 Tawney Street, Boston, Lincolnshire", "addr:city": "Boston", "addr:postcode": "PE21 6PA", "addr:country": "GB", "name": "Parkside Pharmacy", "phone": "01205 310 996", "website": "https://www.lincolnshire.coop/branches/pharmacies/parkside-pharmacy", "opening_hours": "Mo-Fr 08:45-18:15; Sa 09:00-12:30; Su 00:00-24:00", "image": "https://s3-eu-west-1.amazonaws.com/lincolnshire-coop/images/store/Parkside.jpg", "brand": "Lincolnshire Co-operative", "brand:wikidata": "Q5329759", "nsi_id": "eastofenglandcoop-a8278b"}, "geometry": {"type": "Point", "coordinates": [-0.021526, 52.981582]}},
{"type": "Feature", "id": "H_LetyOBG_lPZ9c5DUGRHHnObIs=", "properties": {"ref": "1618", "@spider": "lincolnshire_cooperative", "operator": "East of England Co-operative Society", "operator:wikidata": "Q5329759", "shop": "supermarket", "addr:street_address": "34 Newland, Lincoln", "addr:city": "Boston", "addr:postcode": "LN1 1XP", "addr:country": "GB", "name": "Newland Pharmacy", "phone": "01522 525 966", "website": "https://www.lincolnshire.coop/branches/pharmacies/newland-pharmacy", "opening_hours": "Mo-Fr 08:30-18:30; Sa-Su 00:00-24:00", "image": "https://s3-eu-west-1.amazonaws.com/lincolnshire-coop/images/store/Newland-Pharmacy.JPG", "brand": "Lincolnshire Co-operative", "brand:wikidata": "Q5329759", "nsi_id": "eastofenglandcoop-a8278b"}, "geometry": {"type": "Point", "coordinates": [-0.544564, 53.229996]}},
{"type": "Feature", "id": "aOztzEANMBfRSEyf5haseaS3xGI=", "properties": {"ref": "1617", "@spider": "lincolnshire_cooperative", "operator": "East of England Co-operative Society", "operator:wikidata": "Q5329759", "shop": "supermarket", "addr:street_address": "448 Scalby Road, Newby, Scarborough", "addr:city": "Boston", "addr:postcode": "YO12 6EE", "addr:country": "GB", "name": "Newby Pharmacy", "phone": "01723 362 071", "website": "https://www.lincolnshire.coop/branches/pharmacies/newby-pharmacy", "opening_hours": "Mo-Fr 09:00-17:30; Sa 09:00-12:30; Su 00:00-24:00", "image": "https://s3-eu-west-1.amazonaws.com/lincolnshire-coop/images/store/Newby-Pharmacy.jpg", "brand": "Lincolnshire Co-operative", "brand:wikidata": "Q5329759", "nsi_id": "eastofenglandcoop-a8278b"}, "geometry": {"type": "Point", "coordinates": [-0.441595, 54.295974]}},
{"type": "Feature", "id": "iElOjXaspSpmKlcZZfSuGLsMp0o=", "properties": {"ref": "1616", "@spider": "lincolnshire_cooperative", "operator": "East of England Co-operative Society", "operator:wikidata": "Q5329759", "shop": "supermarket", "addr:street_address": "6 Church Street, Nettleham, Lincoln", "addr:city": "Boston", "addr:postcode": "LN2 2PD", "addr:country": "GB", "name": "Nettleham Pharmacy", "phone": "01522 751 702", "website": "https://www.lincolnshire.coop/branches/pharmacies/nettleham-pharmacy", "opening_hours": "Mo-Fr 09:00-18:00; Sa 09:00-12:00; Su 00:00-24:00", "image": "https://s3-eu-west-1.amazonaws.com/lincolnshire-coop/images/store/Nettleham-pharmacy.jpg", "brand": "Lincolnshire Co-operative", "brand:wikidata": "Q5329759", "nsi_id": "eastofenglandcoop-a8278b"}, "geometry": {"type": "Point", "coordinates": [-0.489692, 53.265726]}},
{"type": "Feature", "id": "MoPmlkW0I2KAznGBwGv1kgXiTZ8=", "properties": {"ref": "1589", "@spider": "lincolnshire_cooperative", "operator": "East of England Co-operative Society", "operator:wikidata": "Q5329759", "shop": "supermarket", "addr:street_address": "10-12 Aberdeen Walk, Scarborough", "addr:city": "Boston", "addr:postcode": "YO11 1XP", "addr:country": "GB", "name": "Aberdeen Walk Pharmacy", "phone": "01723 361 903", "website": "https://www.lincolnshire.coop/branches/pharmacies/aberdeen-walk-pharmacy", "opening_hours": "Mo-Sa 09:00-17:30; Su 00:00-24:00", "image": "https://s3-eu-west-1.amazonaws.com/lincolnshire-coop/images/store/Aberdeen-Walk.jpg", "brand": "Lincolnshire Co-operative", "brand:wikidata": "Q5329759", "nsi_id": "eastofenglandcoop-a8278b"}, "geometry": {"type": "Point", "coordinates": [-0.402487, 54.282113]}},
{"type": "Feature", "id": "EN1jqgV4iSOJUBX3-pJ8dk1tbZM=", "properties": {"ref": "1614", "@spider": "lincolnshire_cooperative", "operator": "East of England Co-operative Society", "operator:wikidata": "Q5329759", "shop": "supermarket", "addr:street_address": "Pighill Lane, Off Woodhall Way, Molescroft, Beverley", "addr:city": "Boston", "addr:postcode": "HU17 7JY", "addr:country": "GB", "name": "Molescroft Pharmacy", "phone": "01482 886 294", "website": "https://www.lincolnshire.coop/branches/pharmacies/molescroft-pharmacy", "opening_hours": "Mo-Fr 09:00-18:00; Sa-Su 00:00-24:00", "image": "https://s3-eu-west-1.amazonaws.com/lincolnshire-coop/images/store/Molesecroft-Pharmacy.jpg", "brand": "Lincolnshire Co-operative", "brand:wikidata": "Q5329759", "nsi_id": "eastofenglandcoop-a8278b"}, "geometry": {"type": "Point", "coordinates": [-0.439198, 53.857591]}},
{"type": "Feature", "id": "ZL8OAOHfKsRAybfEcc2m9VujspE=", "properties": {"ref": "1613", "@spider": "lincolnshire_cooperative", "operator": "East of England Co-operative Society", "operator:wikidata": "Q5329759", "shop": "supermarket", "addr:street_address": "34 High Street, Metheringham, Lincoln", "addr:city": "Boston", "addr:postcode": "LN4 3EA", "addr:country": "GB", "name": "Metheringham Pharmacy", "phone": "01526 323 511", "website": "https://www.lincolnshire.coop/branches/pharmacies/metheringham-pharmacy", "opening_hours": "Mo-Fr 08:45-18:00; Sa 09:00-12:00; Su 00:00-24:00", "image": "https://s3-eu-west-1.amazonaws.com/lincolnshire-coop/images/store/Metheringham-Pharmacy.JPG", "brand": "Lincolnshire Co-operative", "brand:wikidata": "Q5329759", "nsi_id": "eastofenglandcoop-a8278b"}, "geometry": {"type": "Point", "coordinates": [-0.40379, 53.139863]}},
{"type": "Feature", "id": "4fTyYLmkRJwIxftVH_-tqU0e1PM=", "properties": {"ref": "1612", "@spider": "lincolnshire_cooperative", "operator": "East of England Co-operative Society", "operator:wikidata": "Q5329759", "shop": "supermarket", "addr:street_address": "15 Market Street, Gainsborough, Lincolnshire", "addr:city": "Boston", "addr:postcode": "DN21 2BL", "addr:country": "GB", "name": "Market Street Pharmacy", "phone": "01427 613 393", "website": "https://www.lincolnshire.coop/branches/pharmacies/market-street-pharmacy", "opening_hours": "Mo-Fr 09:00-18:00; Sa 09:00-12:30; Su 00:00-24:00", "image": "https://s3-eu-west-1.amazonaws.com/lincolnshire-coop/images/store/Market-Street-Pharmacy.JPG", "brand": "Lincolnshire Co-operative", "brand:wikidata": "Q5329759", "nsi_id": "eastofenglandcoop-a8278b"}, "geometry": {"type": "Point", "coordinates": [-0.77482, 53.399883]}},
{"type": "Feature", "id": "xV5RrPtxyL4-5w2VSR8upKJuetY=", "properties": {"ref": "1611", "@spider": "lincolnshire_cooperative", "operator": "East of England Co-operative Society", "operator:wikidata": "Q5329759", "shop": "supermarket", "addr:street_address": "52 Eastgate, Louth, Lincolnshire", "addr:city": "Boston", "addr:postcode": "LN11 9PG", "addr:country": "GB", "name": "Louth Pharmacy", "phone": "01507 603 130", "website": "https://www.lincolnshire.coop/branches/pharmacies/louth-pharmacy", "opening_hours": "Mo-Fr 09:00-17:30; Sa 09:00-17:00; Su 00:00-24:00", "image": "https://s3-eu-west-1.amazonaws.com/lincolnshire-coop/images/store/Louth-Pharmacy-Refit-Outside.JPG", "brand": "Lincolnshire Co-operative", "brand:wikidata": "Q5329759", "nsi_id": "eastofenglandcoop-a8278b"}, "geometry": {"type": "Point", "coordinates": [-0.004139, 53.366827]}},
{"type": "Feature", "id": "PMzQSguW9Onvfq6VSRbtTNrnV44=", "properties": {"ref": "1610", "@spider": "lincolnshire_cooperative", "operator": "East of England Co-operative Society", "operator:wikidata": "Q5329759", "shop": "supermarket", "addr:street_address": "Boston Road, Kirton, Boston, Lincolnshire", "addr:city": "Boston", "addr:postcode": "PE20 1DS", "addr:country": "GB", "name": "Kirton Pharmacy", "phone": "01205 722 268", "website": "https://www.lincolnshire.coop/branches/pharmacies/kirton-pharmacy", "opening_hours": "Mo-Fr 09:00-18:00; Sa 09:00-12:00; Su 00:00-24:00", "image": "https://s3-eu-west-1.amazonaws.com/lincolnshire-coop/images/store/Kirton.jpg", "brand": "Lincolnshire Co-operative", "brand:wikidata": "Q5329759", "nsi_id": "eastofenglandcoop-a8278b"}, "geometry": {"type": "Point", "coordinates": [-0.059083, 52.933869]}},
{"type": "Feature", "id": "DUk8CB01i25Jl5zOxCXPA29K-dQ=", "properties": {"ref": "1609", "@spider": "lincolnshire_cooperative", "operator": "East of England Co-operative Society", "operator:wikidata": "Q5329759", "shop": "supermarket", "addr:street_address": "259-261 Lincoln Road, North Hykeham, Lincoln", "addr:city": "Boston", "addr:postcode": "LN6 8NH", "addr:country": "GB", "name": "Hykeham Village Pharmacy", "phone": "01522 683 211", "website": "https://www.lincolnshire.coop/branches/pharmacies/hykeham-village-pharmacy", "opening_hours": "Mo-Fr 09:00-18:00; Sa 09:00-12:00; Su 00:00-24:00", "image": "https://s3-eu-west-1.amazonaws.com/lincolnshire-coop/images/store/North-Hykeham-Pharmacy-2.jpg", "brand": "Lincolnshire Co-operative", "brand:wikidata": "Q5329759", "nsi_id": "eastofenglandcoop-a8278b"}, "geometry": {"type": "Point", "coordinates": [-0.587823, 53.182945]}},
{"type": "Feature", "id": "f4nFpcV_EVu-tgXhyA4DhXXoLyk=", "properties": {"ref": "1608", "@spider": "lincolnshire_cooperative", "operator": "East of England Co-operative Society", "operator:wikidata": "Q5329759", "shop": "supermarket", "addr:street_address": "8 Valentine Road, Hunstanton, Norfolk", "addr:city": "Boston", "addr:postcode": "PE36 5DN", "addr:country": "GB", "name": "Hunstanton Pharmacy", "phone": "01485 532 829", "website": "https://www.lincolnshire.coop/branches/pharmacies/hunstanton-pharmacy", "opening_hours": "Mo-Fr 08:30-18:00; Sa-Su 00:00-24:00", "image": "https://s3-eu-west-1.amazonaws.com/lincolnshire-coop/images/store/Hunstanton-pharmacy.jpg", "brand": "Lincolnshire Co-operative", "brand:wikidata": "Q5329759", "nsi_id": "eastofenglandcoop-a8278b"}, "geometry": {"type": "Point", "coordinates": [0.492598, 52.93971]}},
{"type": "Feature", "id": "Pjg7JhAaGTrvpwS5y4shZIK0sh4=", "properties": {"ref": "1607", "@spider": "lincolnshire_cooperative", "operator": "East of England Co-operative Society", "operator:wikidata": "Q5329759", "shop": "supermarket", "addr:street_address": "19 North Point Shopping Centre, Good Hart Road, Bransholme, Hull", "addr:city": "Boston", "addr:postcode": "HU7 4EE", "addr:country": "GB", "name": "Hull Pharmacy", "phone": "01482 825 008", "website": "https://www.lincolnshire.coop/branches/pharmacies/hull-pharmacy", "opening_hours": "Mo-Sa 09:00-17:30; Su 00:00-24:00", "image": "https://s3-eu-west-1.amazonaws.com/lincolnshire-coop/images/store/Bransholme-Pharmacy-new-location-Hull-edited.jpg", "brand": "Lincolnshire Co-operative", "brand:wikidata": "Q5329759", "nsi_id": "eastofenglandcoop-a8278b"}, "geometry": {"type": "Point", "coordinates": [-0.320558, 53.786884]}},
{"type": "Feature", "id": "KJ0H_iKil5kM2R-xQugwz7r8Y5g=", "properties": {"ref": "1615", "@spider": "lincolnshire_cooperative", "operator": "East of England Co-operative Society", "operator:wikidata": "Q5329759", "shop": "supermarket", "addr:street_address": "121 Monks Road, Lincoln", "addr:city": "Boston", "addr:postcode": "LN2 5HT", "addr:country": "GB", "name": "Monks Road Pharmacy", "phone": "01522 528 146", "website": "https://www.lincolnshire.coop/branches/pharmacies/monks-road-pharmacy", "opening_hours": "Mo-Fr 09:00-18:00; Sa 09:00-12:00; Su 00:00-24:00", "image": "https://s3-eu-west-1.amazonaws.com/lincolnshire-coop/images/store/Monks-Road-pharmacy.jpg", "brand": "Lincolnshire Co-operative", "brand:wikidata": "Q5329759", "nsi_id": "eastofenglandcoop-a8278b"}, "geometry": {"type": "Point", "coordinates": [-0.528914, 53.23054]}},
{"type": "Feature", "id": "BA_NPS-5fCspvzqlMosYry5aagM=", "properties": {"ref": "1587", "@spider": "lincolnshire_cooperative", "operator": "East of England Co-operative Society", "operator:wikidata": "Q5329759", "shop": "supermarket", "addr:street_address": "15 The Terrace, Spilsby, Lincolnshire", "addr:city": "Boston", "addr:postcode": "PE23 5JR", "addr:country": "GB", "name": "Spilsby Funeral Home", "phone": "01790 752 334", "website": "https://www.lincolnshire.coop/branches/funeral-homes/spilsby-funeral-service", "opening_hours": "Mo-Fr 10:00-15:00; Sa-Su 00:00-24:00", "image": "https://s3-eu-west-1.amazonaws.com/lincolnshire-coop/images/store/Spilsby-funeral-exterior-2021.jpg", "brand": "Lincolnshire Co-operative", "brand:wikidata": "Q5329759", "nsi_id": "eastofenglandcoop-a8278b"}, "geometry": {"type": "Point", "coordinates": [0.096228, 53.173572]}},
{"type": "Feature", "id": "VgB4nhv31ua3pw7KwU-CLFa9p1M=", "properties": {"ref": "1586", "@spider": "lincolnshire_cooperative", "operator": "East of England Co-operative Society", "operator:wikidata": "Q5329759", "shop": "supermarket", "addr:street_address": "St John&#039;s Road, Spalding, Lincolnshire", "addr:city": "Boston", "addr:postcode": "PE11 1JD", "addr:country": "GB", "name": "Spalding Funeral Home", "phone": "01775 723 199", "website": "https://www.lincolnshire.coop/branches/funeral-homes/spalding-funeral-service", "opening_hours": "Mo-Fr 09:00-17:00; Sa-Su 00:00-24:00", "image": "https://s3-eu-west-1.amazonaws.com/lincolnshire-coop/images/store/Spalding-Funeral-Home.jpg", "brand": "Lincolnshire Co-operative", "brand:wikidata": "Q5329759", "nsi_id": "eastofenglandcoop-a8278b"}, "geometry": {"type": "Point", "coordinates": [-0.162941, 52.782931]}},
{"type": "Feature", "id": "LbIgIOLW96VBwXa5PdOmrz7LyLo=", "properties": {"ref": "1585", "@spider": "lincolnshire_cooperative", "operator": "East of England Co-operative Society", "operator:wikidata": "Q5329759", "shop": "supermarket", "addr:street_address": "Duke Street, Sleaford, Lincolnshire", "addr:city": "Boston", "addr:postcode": "NG34 7DX", "addr:country": "GB", "name": "Sleaford Funeral Home", "phone": "01529 306 311", "website": "https://www.lincolnshire.coop/branches/funeral-homes/sleaford-funeral-service", "opening_hours": "Mo-Fr 09:00-17:00; Sa-Su 00:00-24:00", "image": "https://s3-eu-west-1.amazonaws.com/lincolnshire-coop/images/store/Sleaford-Funeral-Home-2022.jpeg", "brand": "Lincolnshire Co-operative", "brand:wikidata": "Q5329759", "nsi_id": "eastofenglandcoop-a8278b"}, "geometry": {"type": "Point", "coordinates": [-0.406917, 53.00109]}},
{"type": "Feature", "id": "mT4gdBDTOgApnKkSKETT42yyycM=", "properties": {"ref": "1584", "@spider": "lincolnshire_cooperative", "operator": "East of England Co-operative Society", "operator:wikidata": "Q5329759", "shop": "supermarket", "addr:street_address": "18 Moorgate, Retford", "addr:city": "Boston", "addr:postcode": "Nottinghamshire DN22 6RH", "addr:country": "GB", "name": "Retford Funeral Home", "phone": "01777 701 601", "website": "https://www.lincolnshire.coop/branches/funeral-homes/retford-funeral-service", "opening_hours": "Mo-Fr 10:00-15:00; Sa-Su 00:00-24:00", "image": "https://s3-eu-west-1.amazonaws.com/lincolnshire-coop/images/store/Retford-funeral-home_web.jpg", "brand": "Lincolnshire Co-operative", "brand:wikidata": "Q5329759", "nsi_id": "eastofenglandcoop-a8278b"}, "geometry": {"type": "Point", "coordinates": [-0.939592, 53.325684]}},
{"type": "Feature", "id": "U_VmKd2TD1eh1sPNUJIeyuiRSP0=", "properties": {"ref": "1583", "@spider": "lincolnshire_cooperative", "operator": "East of England Co-operative Society", "operator:wikidata": "Q5329759", "shop": "supermarket", "addr:street_address": "Roseleigh House, Beacon Hill Road, Newark", "addr:city": "Boston", "addr:postcode": "NG24 1NT", "addr:country": "GB", "name": "Newark Funeral Home", "phone": "01636 703 808", "website": "https://www.lincolnshire.coop/branches/funeral-homes/newark-funeral-service", "opening_hours": "Mo-Fr 09:00-17:00; Sa-Su 00:00-24:00", "image": "https://s3-eu-west-1.amazonaws.com/lincolnshire-coop/images/store/Newark-funeral-home_web.jpg", "brand": "Lincolnshire Co-operative", "brand:wikidata": "Q5329759", "nsi_id": "eastofenglandcoop-a8278b"}, "geometry": {"type": "Point", "coordinates": [-0.799762, 53.076063]}},
{"type": "Feature", "id": "WYsYL0E0Af1Rs3sZNIgutxlm9FA=", "properties": {"ref": "1582", "@spider": "lincolnshire_cooperative", "operator": "East of England Co-operative Society", "operator:wikidata": "Q5329759", "shop": "supermarket", "addr:street_address": "Clifton House, High Street, Mablethorpe, Lincolnshire", "addr:city": "Boston", "addr:postcode": "LN12 1AU", "addr:country": "GB", "name": "Mablethorpe Funeral Home", "phone": "01507 473 440", "website": "https://www.lincolnshire.coop/branches/funeral-homes/mablethorpe-funeral-service", "opening_hours": "Mo-Fr 10:00-15:00; Sa-Su 00:00-24:00", "image": "https://s3-eu-west-1.amazonaws.com/lincolnshire-coop/images/store/Mablethorpe-funeral-home-2021.jpg", "brand": "Lincolnshire Co-operative", "brand:wikidata": "Q5329759", "nsi_id": "eastofenglandcoop-a8278b"}, "geometry": {"type": "Point", "coordinates": [0.258642, 53.3407]}},
{"type": "Feature", "id": "GPnA04AfDnKpFq67AHt0R1CmJmY=", "properties": {"ref": "1581", "@spider": "lincolnshire_cooperative", "operator": "East of England Co-operative Society", "operator:wikidata": "Q5329759", "shop": "supermarket", "addr:street_address": "134 Eastgate, Louth, Lincolnshire", "addr:city": "Boston", "addr:postcode": "LN11 9AA", "addr:country": "GB", "name": "Louth Funeral Home", "phone": "01507 603 519", "website": "https://www.lincolnshire.coop/branches/funeral-homes/louth-funeral-service", "opening_hours": "Mo-Fr 09:00-17:00; Sa-Su 00:00-24:00", "image": "https://s3-eu-west-1.amazonaws.com/lincolnshire-coop/images/store/Louth-Funeral-Home_web-2022.jpg", "brand": "Lincolnshire Co-operative", "brand:wikidata": "Q5329759", "nsi_id": "eastofenglandcoop-a8278b"}, "geometry": {"type": "Point", "coordinates": [-0.000938, 53.367279]}},
{"type": "Feature", "id": "P3XHFyuKW_FSPB29H_jN68J9pto=", "properties": {"ref": "1580", "@spider": "lincolnshire_cooperative", "operator": "East of England Co-operative Society", "operator:wikidata": "Q5329759", "shop": "supermarket", "addr:street_address": "West Street, Long Sutton, Lincolnshire", "addr:city": "Boston", "addr:postcode": "PE12 9BN", "addr:country": "GB", "name": "Long Sutton Funeral Home", "phone": "01406 363 648", "website": "https://www.lincolnshire.coop/branches/funeral-homes/long-sutton-funeral-service", "opening_hours": "Mo-Fr 10:00-15:00; Sa-Su 00:00-24:00", "image": "https://s3-eu-west-1.amazonaws.com/lincolnshire-coop/images/store/Long-Sutton-funeral-home.jpg", "brand": "Lincolnshire Co-operative", "brand:wikidata": "Q5329759", "nsi_id": "eastofenglandcoop-a8278b"}, "geometry": {"type": "Point", "coordinates": [0.119937, 52.784058]}},
{"type": "Feature", "id": "JzUuajqLPX-3nH88v3VVVsNemkU=", "properties": {"ref": "1579", "@spider": "lincolnshire_cooperative", "operator": "East of England Co-operative Society", "operator:wikidata": "Q5329759", "shop": "supermarket", "addr:street_address": "Tritton Road, Lincoln", "addr:city": "Boston", "addr:postcode": "LN6 7QY", "addr:country": "GB", "name": "Lincoln Funeral Home (Tritton Road)", "phone": "01522 534 971", "website": "https://www.lincolnshire.coop/branches/funeral-homes/lincoln-funeral-service-tritton-road", "opening_hours": "Mo-Sa 09:00-17:00; Su 00:00-24:00", "image": "https://s3-eu-west-1.amazonaws.com/lincolnshire-coop/images/store/Tritton-Road-Funeral-Home-2022.jpeg", "brand": "Lincolnshire Co-operative", "brand:wikidata": "Q5329759", "nsi_id": "eastofenglandcoop-a8278b"}, "geometry": {"type": "Point", "coordinates": [-0.570036, 53.212879]}},
{"type": "Feature", "id": "lKqyZZPGE2V0h7f2P0PgMugd648=", "properties": {"ref": "1578", "@spider": "lincolnshire_cooperative", "operator": "East of England Co-operative Society", "operator:wikidata": "Q5329759", "shop": "supermarket", "addr:street_address": "11 Proctors Road, Lincoln", "addr:city": "Boston", "addr:postcode": "LN2 4LA", "addr:country": "GB", "name": "Lincoln Funeral Home (Proctors Road)", "phone": "01522 535 800", "website": "https://www.lincolnshire.coop/branches/funeral-homes/lincoln-funeral-service-proctors-road", "opening_hours": "Mo-Fr 09:00-17:00; Sa-Su 00:00-24:00", "image": "https://s3-eu-west-1.amazonaws.com/lincolnshire-coop/images/store/Proctos-Road-Funeral-Home-2022.jpeg", "brand": "Lincolnshire Co-operative", "brand:wikidata": "Q5329759", "nsi_id": "eastofenglandcoop-a8278b"}, "geometry": {"type": "Point", "coordinates": [-0.509476, 53.238572]}},
{"type": "Feature", "id": "Bd0uTXmdyyIaGZZuQxcE3OvS0KA=", "properties": {"ref": "1577", "@spider": "lincolnshire_cooperative", "operator": "East of England Co-operative Society", "operator:wikidata": "Q5329759", "shop": "supermarket", "addr:street_address": "2 Market Place, Horncastle, Lincolnshire", "addr:city": "Boston", "addr:postcode": "LN9 5HD", "addr:country": "GB", "name": "Horncastle Funeral Home", "phone": "01507 523 385", "website": "https://www.lincolnshire.coop/branches/funeral-homes/horncastle-funeral-service", "opening_hours": "Mo-Fr 09:00-17:00; Sa-Su 00:00-24:00", "image": "https://s3-eu-west-1.amazonaws.com/lincolnshire-coop/images/store/Horncastle-Funeral-Home-2022.jpeg", "brand": "Lincolnshire Co-operative", "brand:wikidata": "Q5329759", "nsi_id": "eastofenglandcoop-a8278b"}, "geometry": {"type": "Point", "coordinates": [-0.117313, 53.208642]}},
{"type": "Feature", "id": "CvqxXbqwd_dMekEVC3zU67pconI=", "properties": {"ref": "1576", "@spider": "lincolnshire_cooperative", "operator": "East of England Co-operative Society", "operator:wikidata": "Q5329759", "shop": "supermarket", "addr:street_address": "2-8 Church Street, Holbeach, Lincolnshire", "addr:city": "Boston", "addr:postcode": "PE12 7LL", "addr:country": "GB", "name": "Holbeach Funeral Home", "phone": "01406 422 333", "website": "https://www.lincolnshire.coop/branches/funeral-homes/holbeach-funeral-service", "opening_hours": "Mo-Fr 10:00-15:00; Sa-Su 00:00-24:00", "image": "https://s3-eu-west-1.amazonaws.com/lincolnshire-coop/images/store/Holbeach-funeral-home.jpg", "brand": "Lincolnshire Co-operative", "brand:wikidata": "Q5329759", "nsi_id": "eastofenglandcoop-a8278b"}, "geometry": {"type": "Point", "coordinates": [0.013618, 52.80378]}},
{"type": "Feature", "id": "VMborQZjaSlg5y2AKDlsRz26XNs=", "properties": {"ref": "1575", "@spider": "lincolnshire_cooperative", "operator": "East of England Co-operative Society", "operator:wikidata": "Q5329759", "shop": "supermarket", "addr:street_address": "246 Corporation Road, Grimsby", "addr:city": "Boston", "addr:postcode": "DN31 2QB", "addr:country": "GB", "name": "Grimsby Funeral Home", "phone": "01472 242 444", "website": "https://www.lincolnshire.coop/branches/funeral-homes/grimsby-funeral-service", "opening_hours": "Mo-Fr 10:00-15:00; Sa-Su 00:00-24:00", "image": "https://s3-eu-west-1.amazonaws.com/lincolnshire-coop/images/store/Grimsby-funeral-home_web.jpg", "brand": "Lincolnshire Co-operative", "brand:wikidata": "Q5329759", "nsi_id": "eastofenglandcoop-a8278b"}, "geometry": {"type": "Point", "coordinates": [-0.096871, 53.571625]}},
{"type": "Feature", "id": "1IrnRHyd5txIVKPNSyh_YI1qsxg=", "properties": {"ref": "1574", "@spider": "lincolnshire_cooperative", "operator": "East of England Co-operative Society", "operator:wikidata": "Q5329759", "shop": "supermarket", "addr:street_address": "North Street, Gainsborough, Lincolnshire", "addr:city": "Boston", "addr:postcode": "DN21 2HS", "addr:country": "GB", "name": "Gainsborough Funeral Home", "phone": "01427 612 131", "website": "https://www.lincolnshire.coop/branches/funeral-homes/gainsborough-funeral-service", "opening_hours": "Mo-Fr 09:00-17:00; Sa-Su 00:00-24:00", "image": "https://s3-eu-west-1.amazonaws.com/lincolnshire-coop/images/store/Gainsborough-funeral-home_web.jpg", "brand": "Lincolnshire Co-operative", "brand:wikidata": "Q5329759", "nsi_id": "eastofenglandcoop-a8278b"}, "geometry": {"type": "Point", "coordinates": [-0.774477, 53.401137]}},
{"type": "Feature", "id": "FFV74Gy9Uu2qfVTZCf49usb7G_s=", "properties": {"ref": "1573", "@spider": "lincolnshire_cooperative", "operator": "East of England Co-operative Society", "operator:wikidata": "Q5329759", "shop": "supermarket", "addr:street_address": "22 Grantham Road, Bracebridge Heath, Lincoln", "addr:city": "Boston", "addr:postcode": "LN4 2LD", "addr:country": "GB", "name": "Bracebridge Heath Funeral Arrangement Office", "phone": "01522 529 406", "website": "https://www.lincolnshire.coop/branches/funeral-homes/bracebridge-heath-funeral-arrangement-office", "opening_hours": "Mo-Fr 09:30-16:30; Sa-Su 00:00-24:00", "image": "https://s3-eu-west-1.amazonaws.com/lincolnshire-coop/images/store/Bracebridge-Heath.jpg", "brand": "Lincolnshire Co-operative", "brand:wikidata": "Q5329759", "nsi_id": "eastofenglandcoop-a8278b"}, "geometry": {"type": "Point", "coordinates": [-0.535229, 53.195684]}},
{"type": "Feature", "id": "EBSkQM4YgbzW_UmCfjWR3ZYNzao=", "properties": {"ref": "1572", "@spider": "lincolnshire_cooperative", "operator": "East of England Co-operative Society", "operator:wikidata": "Q5329759", "shop": "supermarket", "addr:street_address": "5 South Square, Boston, Lincolnshire", "addr:city": "Boston", "addr:postcode": "PE21 6HX", "addr:country": "GB", "name": "Boston Funeral Home", "phone": "01205 362 512", "website": "https://www.lincolnshire.coop/branches/funeral-homes/boston-funeral-service", "opening_hours": "Mo-Fr 09:00-17:00; Sa-Su 00:00-24:00", "image": "https://s3-eu-west-1.amazonaws.com/lincolnshire-coop/images/store/Boston-funeral-home.jpg", "brand": "Lincolnshire Co-operative", "brand:wikidata": "Q5329759", "nsi_id": "eastofenglandcoop-a8278b"}, "geometry": {"type": "Point", "coordinates": [-0.022804, 52.975099]}},
{"type": "Feature", "id": "T8dKRhp54jpG0r51fEUyaZh2U8g=", "properties": {"ref": "1571", "@spider": "lincolnshire_cooperative", "operator": "East of England Co-operative Society", "operator:wikidata": "Q5329759", "shop": "supermarket", "addr:street_address": "39 South Street, Alford, Lincolnshire", "addr:city": "Boston", "addr:postcode": "LN13 9AJ", "addr:country": "GB", "name": "Alford Funeral Home", "phone": "01507 463 444", "website": "https://www.lincolnshire.coop/branches/funeral-homes/alford-funeral-service", "opening_hours": "Mo-Fr 10:00-15:00; Sa-Su 00:00-24:00", "image": "https://s3-eu-west-1.amazonaws.com/lincolnshire-coop/images/store/Alford-Funeral-Home_web2.jpg", "brand": "Lincolnshire Co-operative", "brand:wikidata": "Q5329759", "nsi_id": "eastofenglandcoop-a8278b"}, "geometry": {"type": "Point", "coordinates": [0.180353, 53.258784]}},
{"type": "Feature", "id": "Ie9rRSC3uiOy277wBwBNH5c2-5M=", "properties": {"ref": "1570", "@spider": "lincolnshire_cooperative", "operator": "East of England Co-operative Society", "operator:wikidata": "Q5329759", "shop": "supermarket", "addr:street_address": "1 Clover Way, Wygate Park, Spalding", "addr:city": "Boston", "addr:postcode": "PE11 3GD", "addr:country": "GB", "name": "Wygate Park Food Store", "phone": "01775 714 231", "website": "https://www.lincolnshire.coop/branches/food-stores/wygate-park-food-store", "opening_hours": "Mo-Su 07:30-21:00", "image": "https://s3-eu-west-1.amazonaws.com/lincolnshire-coop/images/store/Wygate-Park-Food-Store-2.jpg", "brand": "Lincolnshire Co-operative", "brand:wikidata": "Q5329759", "nsi_id": "eastofenglandcoop-a8278b"}, "geometry": {"type": "Point", "coordinates": [-0.163636, 52.79608]}},
{"type": "Feature", "id": "mCiPfOaMiQCD3uyCPYBLrX2Mu4Q=", "properties": {"ref": "1569", "@spider": "lincolnshire_cooperative", "operator": "East of England Co-operative Society", "operator:wikidata": "Q5329759", "shop": "supermarket", "addr:street_address": "338 St Nicholas Drive, Grimsby", "addr:city": "Boston", "addr:postcode": "DN37 9SF", "addr:country": "GB", "name": "Wybers Wood Food Store", "phone": "01472 883 019", "website": "https://www.lincolnshire.coop/branches/food-stores/wybers-wood-food-store", "opening_hours": "Mo-Su 07:00-22:00", "image": "https://s3-eu-west-1.amazonaws.com/lincolnshire-coop/images/store/Wybers-Wood-Food-Store-1.jpg", "brand": "Lincolnshire Co-operative", "brand:wikidata": "Q5329759", "nsi_id": "eastofenglandcoop-a8278b"}, "geometry": {"type": "Point", "coordinates": [-0.13823, 53.564741]}},
{"type": "Feature", "id": "I1UJaNevkQA2-gKsomdN0VJUqUc=", "properties": {"ref": "1568", "@spider": "lincolnshire_cooperative", "operator": "East of England Co-operative Society", "operator:wikidata": "Q5329759", "shop": "supermarket", "addr:street_address": "Lincoln Road, A158, Wragby", "addr:city": "Boston", "addr:postcode": "LN8 5ND", "addr:country": "GB", "name": "Wragby Food Store", "phone": "01673 858 221", "website": "https://www.lincolnshire.coop/branches/food-stores/wragby-food-store", "opening_hours": "Mo-Su 07:00-22:00", "image": "https://s3-eu-west-1.amazonaws.com/lincolnshire-coop/images/store/Wragby-Food-Store-19.jpg", "brand": "Lincolnshire Co-operative", "brand:wikidata": "Q5329759", "nsi_id": "eastofenglandcoop-a8278b"}, "geometry": {"type": "Point", "coordinates": [-0.30425, 53.287139]}},
{"type": "Feature", "id": "xV3rdSQL4UZBsvgnbrZ7Wsii5KI=", "properties": {"ref": "1567", "@spider": "lincolnshire_cooperative", "operator": "East of England Co-operative Society", "operator:wikidata": "Q5329759", "shop": "supermarket", "addr:street_address": "Woodville Road, Boston, Lincolnshire", "addr:city": "Boston", "addr:postcode": "PE21 8BB", "addr:country": "GB", "name": "Woodville Road Food Store", "phone": "01205 361 670", "website": "https://www.lincolnshire.coop/branches/food-stores/woodville-road-food-store", "opening_hours": "Mo-Su 07:00-22:00", "image": "https://s3-eu-west-1.amazonaws.com/lincolnshire-coop/images/store/Woodville-Road-Food-Store-29.jpg", "brand": "Lincolnshire Co-operative", "brand:wikidata": "Q5329759", "nsi_id": "eastofenglandcoop-a8278b"}, "geometry": {"type": "Point", "coordinates": [-0.03888, 52.973942]}},
{"type": "Feature", "id": "cXWt-TFvu9hAIMGprV6pPCblbdM=", "properties": {"ref": "1566", "@spider": "lincolnshire_cooperative", "operator": "East of England Co-operative Society", "operator:wikidata": "Q5329759", "shop": "supermarket", "addr:street_address": "3/4 Clarence Road, Woodhall Spa, Lincolnshire", "addr:city": "Boston", "addr:postcode": "LN10 6TZ", "addr:country": "GB", "name": "Woodhall Spa Food Store", "phone": "01526 352 189", "website": "https://www.lincolnshire.coop/branches/food-stores/woodhall-spa-food-store", "opening_hours": "Mo-Su 07:00-22:00", "image": "https://s3-eu-west-1.amazonaws.com/lincolnshire-coop/images/store/Woodhall-Spa-Food-Store-1.JPG", "brand": "Lincolnshire Co-operative", "brand:wikidata": "Q5329759", "nsi_id": "eastofenglandcoop-a8278b"}, "geometry": {"type": "Point", "coordinates": [-0.21539, 53.151988]}},
{"type": "Feature", "id": "wNTIp6TCDznayY8d41Z6D1xZjhI=", "properties": {"ref": "1565", "@spider": "lincolnshire_cooperative", "operator": "East of England Co-operative Society", "operator:wikidata": "Q5329759", "shop": "supermarket", "addr:street_address": "Woodhall Drive, Ermine Estate, Lincoln", "addr:city": "Boston", "addr:postcode": "LN2 2AD", "addr:country": "GB", "name": "Woodhall Drive Food Store", "phone": "01522 522 725", "website": "https://www.lincolnshire.coop/branches/food-stores/woodhall-drive-food-store", "opening_hours": "Mo-Su 06:00-22:00", "image": "https://s3-eu-west-1.amazonaws.com/lincolnshire-coop/images/store/Woodhall-Drive.jpg", "brand": "Lincolnshire Co-operative", "brand:wikidata": "Q5329759", "nsi_id": "eastofenglandcoop-a8278b"}, "geometry": {"type": "Point", "coordinates": [-0.531912, 53.251531]}},
{"type": "Feature", "id": "OtbHiTWBcxOHT5eocXw0D5rF-SQ=", "properties": {"ref": "1564", "@spider": "lincolnshire_cooperative", "operator": "East of England Co-operative Society", "operator:wikidata": "Q5329759", "shop": "supermarket", "addr:street_address": "Muntjac Way, Witham St Hughs, Lincoln", "addr:city": "Boston", "addr:postcode": "LN6 9WF", "addr:country": "GB", "name": "Witham St Hughs Food Store", "phone": "01522 868 493", "website": "https://www.lincolnshire.coop/branches/food-stores/witham-st-hughs-food-store", "opening_hours": "Mo-Su 07:00-22:00", "image": "https://s3-eu-west-1.amazonaws.com/lincolnshire-coop/images/store/Witham-St-Hughes-Food-Store.jpg", "brand": "Lincolnshire Co-operative", "brand:wikidata": "Q5329759", "nsi_id": "eastofenglandcoop-a8278b"}, "geometry": {"type": "Point", "coordinates": [-0.665169, 53.149733]}},
{"type": "Feature", "id": "8t1EW4-aCiXVG_UI2N9CZsSuS2M=", "properties": {"ref": "1563", "@spider": "lincolnshire_cooperative", "operator": "East of England Co-operative Society", "operator:wikidata": "Q5329759", "shop": "supermarket", "addr:street_address": "6 Wingate Parade, Willows Estate, Grimsby", "addr:city": "Boston", "addr:postcode": "DN37 9DR", "addr:country": "GB", "name": "Willows Food Store", "phone": "01472 887 101", "website": "https://www.lincolnshire.coop/branches/food-stores/willows-food-store", "opening_hours": "Mo-Su 07:00-21:00", "image": "https://s3-eu-west-1.amazonaws.com/lincolnshire-coop/images/store/The-Willows-Food-Store-and-Post-Office.JPG", "brand": "Lincolnshire Co-operative", "brand:wikidata": "Q5329759", "nsi_id": "eastofenglandcoop-a8278b"}, "geometry": {"type": "Point", "coordinates": [-0.128595, 53.570013]}},
{"type": "Feature", "id": "VSP9rvhFGjoXZtYgM9ym_RQogoI=", "properties": {"ref": "1562", "@spider": "lincolnshire_cooperative", "operator": "East of England Co-operative Society", "operator:wikidata": "Q5329759", "shop": "supermarket", "addr:street_address": "91-95 Willoughby Road, The Riddings, Scunthorpe, North Lincolnshire", "addr:city": "Boston", "addr:postcode": "DN17 2DJ", "addr:country": "GB", "name": "Willoughby Road Food Store", "phone": "01724 279 637", "website": "https://www.lincolnshire.coop/branches/food-stores/willoughby-road-food-store", "opening_hours": "Mo-Su 07:00-22:00", "image": "https://s3-eu-west-1.amazonaws.com/lincolnshire-coop/images/store/Willoughby-Road-Food-Store.jpg", "brand": "Lincolnshire Co-operative", "brand:wikidata": "Q5329759", "nsi_id": "eastofenglandcoop-a8278b"}, "geometry": {"type": "Point", "coordinates": [-0.665055, 53.561963]}},
{"type": "Feature", "id": "SyvFrYTtnl_6ieP6hXcJ3Dn-jE8=", "properties": {"ref": "1560", "@spider": "lincolnshire_cooperative", "operator": "East of England Co-operative Society", "operator:wikidata": "Q5329759", "shop": "supermarket", "addr:street_address": "1 Ryland Road, Welton, Lincoln", "addr:city": "Boston", "addr:postcode": "LN2 3LU", "addr:country": "GB", "name": "Welton Food Store", "phone": "01673 860 221", "website": "https://www.lincolnshire.coop/branches/food-stores/welton-food-store", "opening_hours": "Mo-Sa 07:00-22:00; Su 10:00-16:00", "image": "https://s3-eu-west-1.amazonaws.com/lincolnshire-coop/images/store/Welton-Pharmacy.jpg", "brand": "Lincolnshire Co-operative", "brand:wikidata": "Q5329759", "nsi_id": "eastofenglandcoop-a8278b"}, "geometry": {"type": "Point", "coordinates": [-0.484136, 53.306431]}},
{"type": "Feature", "id": "xPHbw0Pmn-7AOLQ_n4-ePL80RMg=", "properties": {"ref": "1559", "@spider": "lincolnshire_cooperative", "operator": "East of England Co-operative Society", "operator:wikidata": "Q5329759", "shop": "supermarket", "addr:street_address": "The Precinct, Park Lane, Washingborough", "addr:city": "Boston", "addr:postcode": "LN4 1DQ", "addr:country": "GB", "name": "Washingborough Food Store", "phone": "01522 791379", "website": "https://www.lincolnshire.coop/branches/food-stores/washingborough-food-store", "opening_hours": "Mo-Su 07:00-22:00", "image": "https://s3-eu-west-1.amazonaws.com/lincolnshire-coop/images/store/Washingborough_190215_155355.jpg", "brand": "Lincolnshire Co-operative", "brand:wikidata": "Q5329759", "nsi_id": "eastofenglandcoop-a8278b"}, "geometry": {"type": "Point", "coordinates": [-0.469145, 53.220617]}},
{"type": "Feature", "id": "prboiGLUvMdNRWispLTpK_4NZUE=", "properties": {"ref": "1558", "@spider": "lincolnshire_cooperative", "operator": "East of England Co-operative Society", "operator:wikidata": "Q5329759", "shop": "supermarket", "addr:street_address": "79-83 High Street, Waltham, Grimsby", "addr:city": "Boston", "addr:postcode": "DN37 0LT", "addr:country": "GB", "name": "Waltham Food Store", "phone": "01472 823 147", "website": "https://www.lincolnshire.coop/branches/food-stores/waltham-food-store", "opening_hours": "Mo-Su 07:00-22:00", "image": "https://s3-eu-west-1.amazonaws.com/lincolnshire-coop/images/store/Waltham-Food-Store.JPG", "brand": "Lincolnshire Co-operative", "brand:wikidata": "Q5329759", "nsi_id": "eastofenglandcoop-a8278b"}, "geometry": {"type": "Point", "coordinates": [-0.100068, 53.517006]}},
{"type": "Feature", "id": "2fvc_E_bsZoB44K39NoLDjYUhck=", "properties": {"ref": "1557", "@spider": "lincolnshire_cooperative", "operator": "East of England Co-operative Society", "operator:wikidata": "Q5329759", "shop": "supermarket", "addr:street_address": "The Bridge, Lincoln Road, Newark", "addr:city": "Boston", "addr:postcode": "NG24 2DQ", "addr:country": "GB", "name": "The Bridge Food Store", "phone": "01636 706 799", "website": "https://www.lincolnshire.coop/branches/food-stores/the-bridge-food-store", "opening_hours": "Mo-Su 07:00-22:00", "image": "https://s3-eu-west-1.amazonaws.com/lincolnshire-coop/images/store/The-Bridge-Food-Store-Newark.JPG", "brand": "Lincolnshire Co-operative", "brand:wikidata": "Q5329759", "nsi_id": "eastofenglandcoop-a8278b"}, "geometry": {"type": "Point", "coordinates": [-0.795845, 53.087168]}},
{"type": "Feature", "id": "CLKjDYMu_ip68WafH89xOm0sqd4=", "properties": {"ref": "1556", "@spider": "lincolnshire_cooperative", "operator": "East of England Co-operative Society", "operator:wikidata": "Q5329759", "shop": "supermarket", "addr:street_address": "15 High Street, Lincoln", "addr:city": "Boston", "addr:postcode": "LN5 8BS", "addr:country": "GB", "name": "Tealby Street Food Store", "phone": "01522 521 300", "website": "https://www.lincolnshire.coop/branches/food-stores/tealby-street-food-store", "opening_hours": "Mo-Su 07:00-22:00", "image": "https://s3-eu-west-1.amazonaws.com/lincolnshire-coop/images/store/Tealby-Street.JPG", "brand": "Lincolnshire Co-operative", "brand:wikidata": "Q5329759", "nsi_id": "eastofenglandcoop-a8278b"}, "geometry": {"type": "Point", "coordinates": [-0.546087, 53.215923]}},
{"type": "Feature", "id": "YSkU-iT_e5qncM2RuKsFMO9DqU0=", "properties": {"ref": "1555", "@spider": "lincolnshire_cooperative", "operator": "East of England Co-operative Society", "operator:wikidata": "Q5329759", "shop": "supermarket", "addr:street_address": "Market Place", "addr:city": "Boston", "addr:postcode": "Tattershall LN4 4LJ", "addr:country": "GB", "name": "Tattershall Food Store", "phone": "01526 345 625", "website": "https://www.lincolnshire.coop/branches/food-stores/tattershall-food-store", "opening_hours": "Mo-Sa 07:00-22:00; Su 10:00-16:00", "image": "https://s3-eu-west-1.amazonaws.com/lincolnshire-coop/images/store/Tattershall-external-large-21.jpg", "brand": "Lincolnshire Co-operative", "brand:wikidata": "Q5329759", "nsi_id": "eastofenglandcoop-a8278b"}, "geometry": {"type": "Point", "coordinates": [-0.190315, 53.104732]}},
{"type": "Feature", "id": "yuHfPcaOwiSxNjUPCctRajmil-M=", "properties": {"ref": "1554", "@spider": "lincolnshire_cooperative", "operator": "East of England Co-operative Society", "operator:wikidata": "Q5329759", "shop": "supermarket", "addr:street_address": "239 Skellingthorpe Road, Swanpool, Lincoln", "addr:city": "Boston", "addr:postcode": "LN6 0ET", "addr:country": "GB", "name": "Swanpool Food Store", "phone": "01522 683 500", "website": "https://www.lincolnshire.coop/branches/food-stores/swanpool-food-store", "opening_hours": "Mo-Su 06:00-22:00", "image": "https://s3-eu-west-1.amazonaws.com/lincolnshire-coop/images/store/Swanpool.jpg", "brand": "Lincolnshire Co-operative", "brand:wikidata": "Q5329759", "nsi_id": "eastofenglandcoop-a8278b"}, "geometry": {"type": "Point", "coordinates": [-0.578752, 53.213965]}},
{"type": "Feature", "id": "lzQ3kWgtURnsCrGEfn29bTh7fv4=", "properties": {"ref": "1553", "@spider": "lincolnshire_cooperative", "operator": "East of England Co-operative Society", "operator:wikidata": "Q5329759", "shop": "supermarket", "addr:street_address": "61 High Street, Sutton on Trent, Nottinghamshire", "addr:city": "Boston", "addr:postcode": "NG23 6QA", "addr:country": "GB", "name": "Sutton On Trent Food Store", "phone": "01636 821 935", "website": "https://www.lincolnshire.coop/branches/food-stores/sutton-on-trent-food-store", "opening_hours": "Mo-Su 07:00-22:00", "image": "https://s3-eu-west-1.amazonaws.com/lincolnshire-coop/images/store/Sutton-on-trent.jpg", "brand": "Lincolnshire Co-operative", "brand:wikidata": "Q5329759", "nsi_id": "eastofenglandcoop-a8278b"}, "geometry": {"type": "Point", "coordinates": [-0.810451, 53.184516]}},
{"type": "Feature", "id": "btif7NrUACbrNYTQf24Dd6OkZ3E=", "properties": {"ref": "1552", "@spider": "lincolnshire_cooperative", "operator": "East of England Co-operative Society", "operator:wikidata": "Q5329759", "shop": "supermarket", "addr:street_address": "31-33 Bridge Road, Sutton Bridge, Lincolnshire", "addr:city": "Boston", "addr:postcode": "PE12 9UA", "addr:country": "GB", "name": "Sutton Bridge Food Store", "phone": "01406 359 172", "website": "https://www.lincolnshire.coop/branches/food-stores/sutton-bridge-food-store", "opening_hours": "Mo-Su 07:00-22:00", "image": "https://s3-eu-west-1.amazonaws.com/lincolnshire-coop/images/store/Sutton-Bridge-Food-Store.jpg", "brand": "Lincolnshire Co-operative", "brand:wikidata": "Q5329759", "nsi_id": "eastofenglandcoop-a8278b"}, "geometry": {"type": "Point", "coordinates": [0.191256, 52.76804]}},
{"type": "Feature", "id": "zLm1u1hnJ1KjWSnN-UJteNrzdHs=", "properties": {"ref": "1551", "@spider": "lincolnshire_cooperative", "operator": "East of England Co-operative Society", "operator:wikidata": "Q5329759", "shop": "supermarket", "addr:street_address": "Post Office Lane, Spilsby, Lincolnshire", "addr:city": "Boston", "addr:postcode": "PE23 5LH", "addr:country": "GB", "name": "Spilsby Food Store", "phone": "01790 754 739", "website": "https://www.lincolnshire.coop/branches/food-stores/spilsby-food-store", "opening_hours": "Mo-Su 07:00-22:00", "image": "https://s3-eu-west-1.amazonaws.com/lincolnshire-coop/images/store/Spilsby.jpg", "brand": "Lincolnshire Co-operative", "brand:wikidata": "Q5329759", "nsi_id": "eastofenglandcoop-a8278b"}, "geometry": {"type": "Point", "coordinates": [0.099159, 53.174136]}},
{"type": "Feature", "id": "TqIQCmekI9s3G_4JwFiRMsA9tYs=", "properties": {"ref": "1550", "@spider": "lincolnshire_cooperative", "operator": "East of England Co-operative Society", "operator:wikidata": "Q5329759", "shop": "supermarket", "addr:street_address": "Lincoln Road, Sleaford, Lincolnshire", "addr:city": "Boston", "addr:postcode": "NG34 8AB", "addr:country": "GB", "name": "Lincoln Road Food Store", "phone": "01529 306 899", "website": "https://www.lincolnshire.coop/branches/food-stores/sleaford-food-store", "opening_hours": "Mo-Su 07:00-22:00", "image": "https://s3-eu-west-1.amazonaws.com/lincolnshire-coop/images/store/Sleaford-Food-Store-60.JPG", "brand": "Lincolnshire Co-operative", "brand:wikidata": "Q5329759", "nsi_id": "eastofenglandcoop-a8278b"}, "geometry": {"type": "Point", "coordinates": [-0.417168, 53.007175]}},
{"type": "Feature", "id": "Fns6iU4IQ8miJfFnQSzSszOEX8k=", "properties": {"ref": "1549", "@spider": "lincolnshire_cooperative", "operator": "East of England Co-operative Society", "operator:wikidata": "Q5329759", "shop": "supermarket", "addr:street_address": "Skirbeck Road,Boston,Lincolnshire", "addr:city": "Boston", "addr:postcode": "PE21 6JF", "addr:country": "GB", "name": "Skirbeck Road Food Store", "phone": "01205 311 844", "website": "https://www.lincolnshire.coop/branches/food-stores/skirbeck-road-food-store", "opening_hours": "Mo-Su 07:00-22:00", "image": "https://s3-eu-west-1.amazonaws.com/lincolnshire-coop/images/store/Skirbeck-Road.jpg", "brand": "Lincolnshire Co-operative", "brand:wikidata": "Q5329759", "nsi_id": "eastofenglandcoop-a8278b"}, "geometry": {"type": "Point", "coordinates": [-0.018092, 52.97161]}},
{"type": "Feature", "id": "ESQ6eIYISLweFNF5FuzyGOnh7FM=", "properties": {"ref": "1548", "@spider": "lincolnshire_cooperative", "operator": "East of England Co-operative Society", "operator:wikidata": "Q5329759", "shop": "supermarket", "addr:street_address": "2 Jerusalem Road, Skellingthorpe, Lincoln", "addr:city": "Boston", "addr:postcode": "LN6 5UL", "addr:country": "GB", "name": "Skellingthorpe Food Store", "phone": "01522 682 695", "website": "https://www.lincolnshire.coop/branches/food-stores/skellingthorpe-food-store", "opening_hours": "Mo-Su 07:00-22:00", "image": "https://s3-eu-west-1.amazonaws.com/lincolnshire-coop/images/store/Skellingthorpe.JPG", "brand": "Lincolnshire Co-operative", "brand:wikidata": "Q5329759", "nsi_id": "eastofenglandcoop-a8278b"}, "geometry": {"type": "Point", "coordinates": [-0.619252, 53.235705]}},
{"type": "Feature", "id": "IwF3apNctR4d-mHsFCFB7U3B2A8=", "properties": {"ref": "1547", "@spider": "lincolnshire_cooperative", "operator": "East of England Co-operative Society", "operator:wikidata": "Q5329759", "shop": "supermarket", "addr:street_address": "High Street,Scotter,Lincolnshire", "addr:city": "Boston", "addr:postcode": "DN21 3RX", "addr:country": "GB", "name": "Scotter Food Store", "phone": "01724 764 482", "website": "https://www.lincolnshire.coop/branches/food-stores/scotter-food-store", "opening_hours": "Mo-Su 07:00-22:00", "image": "https://s3-eu-west-1.amazonaws.com/lincolnshire-coop/images/store/Scotter-Food-Store-and-Post-Office-2.jpg", "brand": "Lincolnshire Co-operative", "brand:wikidata": "Q5329759", "nsi_id": "eastofenglandcoop-a8278b"}, "geometry": {"type": "Point", "coordinates": [-0.666067, 53.496809]}},
{"type": "Feature", "id": "evUczWO6zvj7saIm5v41x8U49oo=", "properties": {"ref": "1546", "@spider": "lincolnshire_cooperative", "operator": "East of England Co-operative Society", "operator:wikidata": "Q5329759", "shop": "supermarket", "addr:street_address": "107 High Street, Saxilby, Lincolnshire", "addr:city": "Boston", "addr:postcode": "LN1 2HG", "addr:country": "GB", "name": "Saxilby Food Store", "phone": "01522 702 230", "website": "https://www.lincolnshire.coop/branches/food-stores/saxilby-food-store", "opening_hours": "Mo-Sa 07:00-22:00; Su 10:00-16:00", "image": "https://s3-eu-west-1.amazonaws.com/lincolnshire-coop/images/store/Saxilby-Food-Store-and-Post-Office.JPG", "brand": "Lincolnshire Co-operative", "brand:wikidata": "Q5329759", "nsi_id": "eastofenglandcoop-a8278b"}, "geometry": {"type": "Point", "coordinates": [-0.663947, 53.270611]}},
{"type": "Feature", "id": "0dcJJBSjB-wxGc5kWUp9X9JbJJE=", "properties": {"ref": "1545", "@spider": "lincolnshire_cooperative", "operator": "East of England Co-operative Society", "operator:wikidata": "Q5329759", "shop": "supermarket", "addr:street_address": "High Street, Ruskington, Sleaford", "addr:city": "Boston", "addr:postcode": "NG34 9DY", "addr:country": "GB", "name": "Ruskington Food Store", "phone": "01526 832 381", "website": "https://www.lincolnshire.coop/branches/food-stores/ruskington-food-store", "opening_hours": "Mo-Sa 07:00-22:00; Su 10:00-16:00", "image": "https://s3-eu-west-1.amazonaws.com/lincolnshire-coop/images/store/Ruskington.jpg", "brand": "Lincolnshire Co-operative", "brand:wikidata": "Q5329759", "nsi_id": "eastofenglandcoop-a8278b"}, "geometry": {"type": "Point", "coordinates": [-0.384608, 53.046238]}},
{"type": "Feature", "id": "2EFaFP5dANq0bPzY_2qfxwEjUmc=", "properties": {"ref": "1544", "@spider": "lincolnshire_cooperative", "operator": "East of England Co-operative Society", "operator:wikidata": "Q5329759", "shop": "supermarket", "addr:street_address": "136-140 Roman Bank, Skegness, Lincolnshire", "addr:city": "Boston", "addr:postcode": "PE25 1SE", "addr:country": "GB", "name": "Roman Bank Food Store", "phone": "01754 769 370", "website": "https://www.lincolnshire.coop/branches/food-stores/roman-bank-food-store", "opening_hours": "Mo-Su 08:00-22:00", "image": "https://s3-eu-west-1.amazonaws.com/lincolnshire-coop/images/store/Roman-Bank-Food-Store.JPG", "brand": "Lincolnshire Co-operative", "brand:wikidata": "Q5329759", "nsi_id": "eastofenglandcoop-a8278b"}, "geometry": {"type": "Point", "coordinates": [0.341513, 53.151981]}},
{"type": "Feature", "id": "AyIuVDPky_xDOmXtVvalGwwo0Vw=", "properties": {"ref": "1543", "@spider": "lincolnshire_cooperative", "operator": "East of England Co-operative Society", "operator:wikidata": "Q5329759", "shop": "supermarket", "addr:street_address": "43 Riseholme Road, Lincoln", "addr:city": "Boston", "addr:postcode": "LN1 3SN", "addr:country": "GB", "name": "Riseholme Road Food Store", "phone": "01522 539600", "website": "https://www.lincolnshire.coop/branches/food-stores/riseholme-road-food-store", "opening_hours": "Mo-Su 07:00-22:00", "image": "https://s3-eu-west-1.amazonaws.com/lincolnshire-coop/images/store/Riseholme-road.jpg", "brand": "Lincolnshire Co-operative", "brand:wikidata": "Q5329759", "nsi_id": "eastofenglandcoop-a8278b"}, "geometry": {"type": "Point", "coordinates": [-0.537732, 53.248032]}},
{"type": "Feature", "id": "0sB7cb-l0fkSOQOH6wlfCMVGzD8=", "properties": {"ref": "1690", "@spider": "lincolnshire_cooperative", "operator": "East of England Co-operative Society", "operator:wikidata": "Q5329759", "shop": "supermarket", "addr:street_address": "Tritton Road, Moorland Way, Lincoln", "addr:city": "Boston", "addr:postcode": "LN6 7TN", "addr:country": "GB", "name": "Moorland Centre Travel", "phone": "01522 501 999", "website": "https://www.lincolnshire.coop/branches/travel-branches/moorland-centre-travel", "opening_hours": "Mo-Tu 09:00-17:00; We 09:45-17:00; Th-Sa 09:00-17:00; Su 10:00-16:00", "image": "https://s3-eu-west-1.amazonaws.com/lincolnshire-coop/images/store/Tritton-Road-outside-12.jpg", "brand": "Lincolnshire Co-operative", "brand:wikidata": "Q5329759", "nsi_id": "eastofenglandcoop-a8278b"}, "geometry": {"type": "Point", "coordinates": [-0.581995, 53.2031]}},
{"type": "Feature", "id": "b1GrNnA2GWR3sqYT-3dYhmJiON8=", "properties": {"ref": "1689", "@spider": "lincolnshire_cooperative", "operator": "East of England Co-operative Society", "operator:wikidata": "Q5329759", "shop": "supermarket", "addr:street_address": "17 Hall Place, Spalding", "addr:city": "Boston", "addr:postcode": "Lincolnshire PE11 1SA", "addr:country": "GB", "name": "Spalding travel branch", "phone": "01775 760 454", "website": "https://www.lincolnshire.coop/branches/travel-branches/lincolnshire-co-operative-travel-spalding", "opening_hours": "Mo-Tu 09:00-17:00; We 09:45-17:00; Th-Sa 09:00-17:00; Su 00:00-24:00", "image": "https://s3-eu-west-1.amazonaws.com/lincolnshire-coop/images/store/Spalding-travel-Resized-for-web.jpg", "brand": "Lincolnshire Co-operative", "brand:wikidata": "Q5329759", "nsi_id": "eastofenglandcoop-a8278b"}, "geometry": {"type": "Point", "coordinates": [-0.153, 52.787565]}},
{"type": "Feature", "id": "F5WnEqwHtJYX-QFrP27YNi_bvy0=", "properties": {"ref": "1688", "@spider": "lincolnshire_cooperative", "operator": "East of England Co-operative Society", "operator:wikidata": "Q5329759", "shop": "supermarket", "addr:street_address": "63 Southgate, Sleaford", "addr:city": "Boston", "addr:postcode": "NG34 7SY", "addr:country": "GB", "name": "Sleaford travel branch", "phone": "01529 416 320", "website": "https://www.lincolnshire.coop/branches/travel-branches/lincolnshire-co-operative-travel-sleaford", "opening_hours": "Mo-Tu 09:00-17:00; We 09:45-17:00; Th-Sa 09:00-17:00; Su 00:00-24:00", "image": "https://s3-eu-west-1.amazonaws.com/lincolnshire-coop/images/store/Sleaford-Travel-branch-10.jpg", "brand": "Lincolnshire Co-operative", "brand:wikidata": "Q5329759", "nsi_id": "eastofenglandcoop-a8278b"}, "geometry": {"type": "Point", "coordinates": [-0.409037, 52.997153]}},
{"type": "Feature", "id": "tRmOCoAsk3C9mDF02PwATkQnV8Y=", "properties": {"ref": "1687", "@spider": "lincolnshire_cooperative", "operator": "East of England Co-operative Society", "operator:wikidata": "Q5329759", "shop": "supermarket", "addr:street_address": "24 Middle Gate, Newark", "addr:city": "Boston", "addr:postcode": "NG24 1AL", "addr:country": "GB", "name": "Newark travel branch", "phone": "01636 676 716", "website": "https://www.lincolnshire.coop/branches/travel-branches/lincolnshire-co-operative-travel-newark", "opening_hours": "Mo-Tu 09:00-17:00; We 09:45-17:00; Th-Sa 09:00-17:00; Su 00:00-24:00", "image": "https://s3-eu-west-1.amazonaws.com/lincolnshire-coop/images/store/Newark.JPG", "brand": "Lincolnshire Co-operative", "brand:wikidata": "Q5329759", "nsi_id": "eastofenglandcoop-a8278b"}, "geometry": {"type": "Point", "coordinates": [-0.810621, 53.076939]}},
{"type": "Feature", "id": "BfiLTxAKgUhKJU5WGmIrua95cm4=", "properties": {"ref": "1686", "@spider": "lincolnshire_cooperative", "operator": "East of England Co-operative Society", "operator:wikidata": "Q5329759", "shop": "supermarket", "addr:street_address": "4 Market Place, Market Rasen", "addr:city": "Boston", "addr:postcode": "Lincolnshire LN8 3HJ", "addr:country": "GB", "name": "Market Rasen travel branch", "phone": "01673 840 050", "website": "https://www.lincolnshire.coop/branches/travel-branches/lincolnshire-co-operative-travel-market-rasen", "opening_hours": "Mo-Tu 09:00-17:00; We 09:45-17:00; Th-Sa 09:00-17:00; Su 00:00-24:00", "image": "https://s3-eu-west-1.amazonaws.com/lincolnshire-coop/images/store/Market-Rasen-Travel-Branch.jpg", "brand": "Lincolnshire Co-operative", "brand:wikidata": "Q5329759", "nsi_id": "eastofenglandcoop-a8278b"}, "geometry": {"type": "Point", "coordinates": [-0.337745, 53.387568]}},
{"type": "Feature", "id": "K07JNHUdGsXk_TcJH44cq00uNdg=", "properties": {"ref": "1685", "@spider": "lincolnshire_cooperative", "operator": "East of England Co-operative Society", "operator:wikidata": "Q5329759", "shop": "supermarket", "addr:street_address": "25 Market Place", "addr:city": "Boston", "addr:postcode": "Louth LN11 9PD", "addr:country": "GB", "name": "Louth travel branch", "phone": "01507 351 000", "website": "https://www.lincolnshire.coop/branches/travel-branches/lincolnshire-co-operative-travel-louth", "opening_hours": "Mo-Tu 09:00-17:00; We 09:45-17:00; Th-Sa 09:00-17:00; Su 00:00-24:00", "image": "https://s3-eu-west-1.amazonaws.com/lincolnshire-coop/images/store/Louth-travel.jpg", "brand": "Lincolnshire Co-operative", "brand:wikidata": "Q5329759", "nsi_id": "eastofenglandcoop-a8278b"}, "geometry": {"type": "Point", "coordinates": [-0.004327, 53.366669]}},
{"type": "Feature", "id": "LdJJT6ESwyCtPP4vdy6OKbs4HQo=", "properties": {"ref": "1684", "@spider": "lincolnshire_cooperative", "operator": "East of England Co-operative Society", "operator:wikidata": "Q5329759", "shop": "supermarket", "addr:street_address": "19 High Street, Long Sutton, Spalding, Lincolnshire", "addr:city": "Boston", "addr:postcode": "PE12 9DB", "addr:country": "GB", "name": "Long Sutton travel branch", "phone": "01406 366 449", "website": "https://www.lincolnshire.coop/branches/travel-branches/lincolnshire-co-operative-travel-long-sutton", "opening_hours": "Mo-Tu 09:00-17:00; We 09:45-14:00; Th-Sa 09:00-17:00; Su 00:00-24:00", "image": "https://s3-eu-west-1.amazonaws.com/lincolnshire-coop/images/store/Long-Sutton-Travel.jpg", "brand": "Lincolnshire Co-operative", "brand:wikidata": "Q5329759", "nsi_id": "eastofenglandcoop-a8278b"}, "geometry": {"type": "Point", "coordinates": [0.122444, 52.785356]}},
{"type": "Feature", "id": "DzVuZqEyLiuiPFi4n7IXj4pNfS4=", "properties": {"ref": "1682", "@spider": "lincolnshire_cooperative", "operator": "East of England Co-operative Society", "operator:wikidata": "Q5329759", "shop": "supermarket", "addr:street_address": "33 Victoria Street, Grimsby", "addr:city": "Boston", "addr:postcode": "DN31 1DL", "addr:country": "GB", "name": "Grimsby travel branch", "phone": "01472 256500", "website": "https://www.lincolnshire.coop/branches/travel-branches/lincolnshire-co-operative-travel-grimsby", "opening_hours": "Mo-Tu 09:00-17:00; We 09:45-17:00; Th-Sa 09:00-17:00; Su 00:00-24:00", "image": "https://s3-eu-west-1.amazonaws.com/lincolnshire-coop/images/store/Grimsby-travel-exterior-for-web.jpg", "brand": "Lincolnshire Co-operative", "brand:wikidata": "Q5329759", "nsi_id": "eastofenglandcoop-a8278b"}, "geometry": {"type": "Point", "coordinates": [-0.086211, 53.565413]}},
{"type": "Feature", "id": "1xBzA0O3qRurKnBR5riNfsPzaew=", "properties": {"ref": "1680", "@spider": "lincolnshire_cooperative", "operator": "East of England Co-operative Society", "operator:wikidata": "Q5329759", "shop": "supermarket", "addr:street_address": "3-5 Market Street, Gainsborough", "addr:city": "Boston", "addr:postcode": "DN21 2BL", "addr:country": "GB", "name": "Gainsborough travel branch", "phone": "01427 615 648", "website": "https://www.lincolnshire.coop/branches/travel-branches/lincolnshire-co-operative-travel-gainsborough", "opening_hours": "Mo-Tu 09:00-17:00; We 09:45-17:00; Th-Sa 09:00-17:00; Su 00:00-24:00", "image": "https://s3-eu-west-1.amazonaws.com/lincolnshire-coop/images/store/Gainsborough-Travel-branch-outside-2.jpg", "brand": "Lincolnshire Co-operative", "brand:wikidata": "Q5329759", "nsi_id": "eastofenglandcoop-a8278b"}, "geometry": {"type": "Point", "coordinates": [-0.77541, 53.399918]}},
{"type": "Feature", "id": "lNJcikHtqHJhvbld1hoB1KtOdDw=", "properties": {"ref": "1679", "@spider": "lincolnshire_cooperative", "operator": "East of England Co-operative Society", "operator:wikidata": "Q5329759", "shop": "supermarket", "addr:street_address": "3 Alexander Walk, Carlton Centre, Outer Circle Road, Lincoln", "addr:city": "Boston", "addr:postcode": "LN2 4FJ", "addr:country": "GB", "name": "Carlton Centre travel branch", "phone": "01522 780 940", "website": "https://www.lincolnshire.coop/branches/travel-branches/lincolnshire-co-operative-travel-carlton-centre-lincoln", "opening_hours": "Mo-Tu 09:00-17:00; We 09:45-17:00; Th-Sa 09:00-17:00; Su 00:00-24:00", "image": "https://s3-eu-west-1.amazonaws.com/lincolnshire-coop/images/store/Carlton-Centre-Travel-2.jpg", "brand": "Lincolnshire Co-operative", "brand:wikidata": "Q5329759", "nsi_id": "eastofenglandcoop-a8278b"}, "geometry": {"type": "Point", "coordinates": [-0.507493, 53.241608]}},
{"type": "Feature", "id": "d1lY-1qRE8xyifQbBFx7qq55X6I=", "properties": {"ref": "1678", "@spider": "lincolnshire_cooperative", "operator": "East of England Co-operative Society", "operator:wikidata": "Q5329759", "shop": "supermarket", "addr:street_address": "Downtown Home Superstore Boston, Wyberton Chain Bridge, Boston", "addr:city": "Boston", "addr:postcode": "PE21 7NL", "addr:country": "GB", "name": "Boston travel branch", "phone": "01205 312 560", "website": "https://www.lincolnshire.coop/branches/travel-branches/lincolnshire-co-operative-travel-boston", "opening_hours": "Mo-Tu 09:00-17:00; We 09:45-17:00; Th-Sa 09:00-17:00; Su 00:00-24:00", "image": "https://s3-eu-west-1.amazonaws.com/lincolnshire-coop/images/store/Boston-travel-branch-relocation-December-2020-exterior.jpg", "brand": "Lincolnshire Co-operative", "brand:wikidata": "Q5329759", "nsi_id": "eastofenglandcoop-a8278b"}, "geometry": {"type": "Point", "coordinates": [-0.05867, 52.97096]}},
{"type": "Feature", "id": "KO45CrESavJdQDAmJabkd08VXTw=", "properties": {"ref": "1636", "@spider": "lincolnshire_cooperative", "operator": "East of England Co-operative Society", "operator:wikidata": "Q5329759", "shop": "supermarket", "addr:street_address": "226 Rookery Lane, Lincoln", "addr:city": "Boston", "addr:postcode": "LN6 7PH", "addr:country": "GB", "name": "Rookery Lane Pharmacy", "phone": "01522 682 200", "website": "https://www.lincolnshire.coop/branches/pharmacies/rookery-lane-pharmacy", "opening_hours": "Mo-Fr 09:00-18:00; Sa 09:00-12:30; Su 00:00-24:00", "image": "https://s3-eu-west-1.amazonaws.com/lincolnshire-coop/images/store/Rookery-Lane-Pharmacy-edited.jpg", "brand": "Lincolnshire Co-operative", "brand:wikidata": "Q5329759", "nsi_id": "eastofenglandcoop-a8278b"}, "geometry": {"type": "Point", "coordinates": [-0.562165, 53.209966]}},
{"type": "Feature", "id": "1BHKtvkId8NPF5YXngTLWUaKPnI=", "properties": {"ref": "1635", "@spider": "lincolnshire_cooperative", "operator": "East of England Co-operative Society", "operator:wikidata": "Q5329759", "shop": "supermarket", "addr:street_address": "324 St Nicholas Drive, Wybers Wood, Grimsby", "addr:city": "Boston", "addr:postcode": "DN37 9SF", "addr:country": "GB", "name": "Wybers Wood Pharmacy", "phone": "01472 886 885", "website": "https://www.lincolnshire.coop/branches/pharmacies/wybers-wood-pharmacy", "opening_hours": "Mo-Fr 09:00-18:00; Sa 09:00-12:30; Su 00:00-24:00", "image": "https://s3-eu-west-1.amazonaws.com/lincolnshire-coop/images/store/Wybers-Wood-Pharmacy-4.jpg", "brand": "Lincolnshire Co-operative", "brand:wikidata": "Q5329759", "nsi_id": "eastofenglandcoop-a8278b"}, "geometry": {"type": "Point", "coordinates": [-0.138601, 53.564748]}},
{"type": "Feature", "id": "iLeMpS7Z7csfZ-3cwzFSgI5bHuI=", "properties": {"ref": "1634", "@spider": "lincolnshire_cooperative", "operator": "East of England Co-operative Society", "operator:wikidata": "Q5329759", "shop": "supermarket", "addr:street_address": "Muntjac Way, Witham St Hughs, Lincoln", "addr:city": "Boston", "addr:postcode": "LN6 9WF", "addr:country": "GB", "name": "Witham St Hughs Pharmacy", "phone": "01522 869 632", "website": "https://www.lincolnshire.coop/branches/pharmacies/witham-st-hughs-pharmacy", "opening_hours": "Mo-Fr 09:00-18:00; Sa 09:00-12:00; Su 00:00-24:00", "image": "https://s3-eu-west-1.amazonaws.com/lincolnshire-coop/images/store/Witham-St-Hughes-Food-Store.jpg", "brand": "Lincolnshire Co-operative", "brand:wikidata": "Q5329759", "nsi_id": "eastofenglandcoop-a8278b"}, "geometry": {"type": "Point", "coordinates": [-0.66519, 53.149731]}},
{"type": "Feature", "id": "w4aLX-llmWiSwMlmHi8-8-afcSc=", "properties": {"ref": "1633", "@spider": "lincolnshire_cooperative", "operator": "East of England Co-operative Society", "operator:wikidata": "Q5329759", "shop": "supermarket", "addr:street_address": "4-6 Lichfield Avenue, Scunthorpe", "addr:city": "Boston", "addr:postcode": "DN17 1QL", "addr:country": "GB", "name": "Westcliffe Pharmacy", "phone": "01724 844 477", "website": "https://www.lincolnshire.coop/branches/pharmacies/westcliffe-pharmacy", "opening_hours": "Mo-Fr 09:00-18:00; Sa 09:00-12:30; Su 00:00-24:00", "image": "https://s3-eu-west-1.amazonaws.com/lincolnshire-coop/images/store/Westcliff-Pharmacy-opening-day-20.JPG", "brand": "Lincolnshire Co-operative", "brand:wikidata": "Q5329759", "nsi_id": "eastofenglandcoop-a8278b"}, "geometry": {"type": "Point", "coordinates": [-0.677642, 53.571096]}},
{"type": "Feature", "id": "YVRwSEArpOQLpwr2teKH-HfbDSQ=", "properties": {"ref": "1631", "@spider": "lincolnshire_cooperative", "operator": "East of England Co-operative Society", "operator:wikidata": "Q5329759", "shop": "supermarket", "addr:street_address": "1 Ryland Road, Welton, Lincoln", "addr:city": "Boston", "addr:postcode": "LN2 3LU", "addr:country": "GB", "name": "Welton Pharmacy", "phone": "01673 862 557", "website": "https://www.lincolnshire.coop/branches/pharmacies/welton-pharmacy", "opening_hours": "Mo-Fr 08:45-18:30; Sa 09:00-12:30; Su 00:00-24:00", "image": "https://s3-eu-west-1.amazonaws.com/lincolnshire-coop/images/store/Welton-Pharmacy.jpg", "brand": "Lincolnshire Co-operative", "brand:wikidata": "Q5329759", "nsi_id": "eastofenglandcoop-a8278b"}, "geometry": {"type": "Point", "coordinates": [-0.484252, 53.306414]}},
{"type": "Feature", "id": "bu0ALe8rrhXbMx1osum8XOeNmLU=", "properties": {"ref": "1630", "@spider": "lincolnshire_cooperative", "operator": "East of England Co-operative Society", "operator:wikidata": "Q5329759", "shop": "supermarket", "addr:street_address": "2 The Precinct, Park Lane, Washingborough, Lincolnshire", "addr:city": "Boston", "addr:postcode": "LN4 1DQ", "addr:country": "GB", "name": "Washingborough Pharmacy", "phone": "01522 794 040", "website": "https://www.lincolnshire.coop/branches/pharmacies/washingborough-pharmacy", "opening_hours": "Mo-Fr 09:00-18:00; Sa 09:00-12:30; Su 00:00-24:00", "image": "https://s3-eu-west-1.amazonaws.com/lincolnshire-coop/images/store/Washingborough-Pharmacy.jpg", "brand": "Lincolnshire Co-operative", "brand:wikidata": "Q5329759", "nsi_id": "eastofenglandcoop-a8278b"}, "geometry": {"type": "Point", "coordinates": [-0.468734, 53.220638]}},
{"type": "Feature", "id": "6m2bWIEj5j8_ez5hUB3m02HEs0M=", "properties": {"ref": "1629", "@spider": "lincolnshire_cooperative", "operator": "East of England Co-operative Society", "operator:wikidata": "Q5329759", "shop": "supermarket", "addr:street_address": "Bar Lane, Waddington, Lincoln", "addr:city": "Boston", "addr:postcode": "LN5 9SA", "addr:country": "GB", "name": "Waddington Pharmacy", "phone": "01522 723 906", "website": "https://www.lincolnshire.coop/branches/pharmacies/waddington-pharmacy", "opening_hours": "Mo-Fr 09:00-18:00; Sa 09:00-12:30; Su 00:00-24:00", "image": "https://s3-eu-west-1.amazonaws.com/lincolnshire-coop/images/store/Waddington-Pharmacy-correct-image.jpg", "brand": "Lincolnshire Co-operative", "brand:wikidata": "Q5329759", "nsi_id": "eastofenglandcoop-a8278b"}, "geometry": {"type": "Point", "coordinates": [-0.540038, 53.166392]}},
{"type": "Feature", "id": "lZ272rSfYRKJnNqWZY3g9ave4PU=", "properties": {"ref": "1628", "@spider": "lincolnshire_cooperative", "operator": "East of England Co-operative Society", "operator:wikidata": "Q5329759", "shop": "supermarket", "addr:street_address": "Vanessa Drive, Gainsborough, Lincolnshire", "addr:city": "Boston", "addr:postcode": "DN21 2UJ", "addr:country": "GB", "name": "Vanessa Drive Pharmacy", "phone": "01427 613 431", "website": "https://www.lincolnshire.coop/branches/pharmacies/vanessa-drive-pharmacy", "opening_hours": "Mo-Fr 08:45-18:15; Sa-Su 00:00-24:00", "image": "https://s3-eu-west-1.amazonaws.com/lincolnshire-coop/images/store/Vanessa-Drive-Pharmacy.JPG", "brand": "Lincolnshire Co-operative", "brand:wikidata": "Q5329759", "nsi_id": "eastofenglandcoop-a8278b"}, "geometry": {"type": "Point", "coordinates": [-0.780423, 53.410605]}},
{"type": "Feature", "id": "37JM6ZrCDs-Ege566mDMI-vlNZw=", "properties": {"ref": "1627", "@spider": "lincolnshire_cooperative", "operator": "East of England Co-operative Society", "operator:wikidata": "Q5329759", "shop": "supermarket", "addr:street_address": "Beckside, Maltongate, Thornton-Le-Dale, Pickering, North Yorkshire", "addr:city": "Boston", "addr:postcode": "Y018 7RJ", "addr:country": "GB", "name": "Thornton-Le-Dale Pharmacy", "phone": "01751 476 968", "website": "https://www.lincolnshire.coop/branches/pharmacies/thornton-le-dale-pharmacy", "opening_hours": "Mo 09:00-18:00; Tu-We 09:00-17:00; Th 00:00-24:00; Fr 09:00-18:00; Sa-Su 00:00-24:00", "image": "https://s3-eu-west-1.amazonaws.com/lincolnshire-coop/images/store/Thorton-Le-Dale.jpg", "brand": "Lincolnshire Co-operative", "brand:wikidata": "Q5329759", "nsi_id": "eastofenglandcoop-a8278b"}, "geometry": {"type": "Point", "coordinates": [-0.721987, 54.235494]}},
{"type": "Feature", "id": "SMnvFGnZyYFYko8ytpivDQ87euY=", "properties": {"ref": "1626", "@spider": "lincolnshire_cooperative", "operator": "East of England Co-operative Society", "operator:wikidata": "Q5329759", "shop": "supermarket", "addr:street_address": "High Street, Swineshead, Boston, Lincolnshire", "addr:city": "Boston", "addr:postcode": "PE20 3LH", "addr:country": "GB", "name": "Swineshead Pharmacy", "phone": "01205 820 304", "website": "https://www.lincolnshire.coop/branches/pharmacies/swineshead-pharmacy", "opening_hours": "Mo-Fr 09:00-18:00; Sa 09:00-12:00; Su 00:00-24:00", "image": "https://s3-eu-west-1.amazonaws.com/lincolnshire-coop/images/store/Swineshead-Food-Store-and-pharmacy-34.jpg", "brand": "Lincolnshire Co-operative", "brand:wikidata": "Q5329759", "nsi_id": "eastofenglandcoop-a8278b"}, "geometry": {"type": "Point", "coordinates": [-0.160102, 52.946043]}},
{"type": "Feature", "id": "Aui6TyMU8_JgR7tKfFECk3Wv6SE=", "properties": {"ref": "1624", "@spider": "lincolnshire_cooperative", "operator": "East of England Co-operative Society", "operator:wikidata": "Q5329759", "shop": "supermarket", "addr:street_address": "18 High Street, Lincoln", "addr:city": "Boston", "addr:postcode": "LN5 8BE", "addr:country": "GB", "name": "St Botolph&#039;s Pharmacy", "phone": "01522 520 746", "website": "https://www.lincolnshire.coop/branches/pharmacies/st-botolphs-pharmacy", "opening_hours": "Mo-Fr 09:00-18:00; Sa 09:00-12:00; Su 00:00-24:00", "image": "https://s3-eu-west-1.amazonaws.com/lincolnshire-coop/images/store/St-Botolphs-Pharmacy-3.jpg", "brand": "Lincolnshire Co-operative", "brand:wikidata": "Q5329759", "nsi_id": "eastofenglandcoop-a8278b"}, "geometry": {"type": "Point", "coordinates": [-0.546062, 53.216005]}},
{"type": "Feature", "id": "WNqbkZzndtDQG1m_v44IIBPt3dc=", "properties": {"ref": "1623", "@spider": "lincolnshire_cooperative", "operator": "East of England Co-operative Society", "operator:wikidata": "Q5329759", "shop": "supermarket", "addr:street_address": "7 High Street, Spilsby, Lincolnshire", "addr:city": "Boston", "addr:postcode": "PE23 5JJ", "addr:country": "GB", "name": "Spilsby Pharmacy", "phone": "01790 752 246", "website": "https://www.lincolnshire.coop/branches/pharmacies/spilsby-pharmacy", "opening_hours": "Mo-Fr 09:00-18:00; Sa 09:00-12:00; Su 00:00-24:00", "image": "https://s3-eu-west-1.amazonaws.com/lincolnshire-coop/images/store/Spilsby-pharmacy.jpg", "brand": "Lincolnshire Co-operative", "brand:wikidata": "Q5329759", "nsi_id": "eastofenglandcoop-a8278b"}, "geometry": {"type": "Point", "coordinates": [0.095686, 53.174067]}},
{"type": "Feature", "id": "VGfjwvY_A4ccCkOuLd_a15yK53s=", "properties": {"ref": "1622", "@spider": "lincolnshire_cooperative", "operator": "East of England Co-operative Society", "operator:wikidata": "Q5329759", "shop": "supermarket", "addr:street_address": "2 Jerusalem Road, Skellingthorpe, Lincoln", "addr:city": "Boston", "addr:postcode": "LN6 5UL", "addr:country": "GB", "name": "Skellingthorpe Pharmacy", "phone": "01522 690 039", "website": "https://www.lincolnshire.coop/branches/pharmacies/skellingthorpe-pharmacy", "opening_hours": "Mo-Fr 09:00-18:00; Sa 09:00-12:00; Su 00:00-24:00", "image": "https://s3-eu-west-1.amazonaws.com/lincolnshire-coop/images/store/Skellingthorpe.JPG", "brand": "Lincolnshire Co-operative", "brand:wikidata": "Q5329759", "nsi_id": "eastofenglandcoop-a8278b"}, "geometry": {"type": "Point", "coordinates": [-0.619268, 53.235705]}},
{"type": "Feature", "id": "Npy2qyTo4dHY1l-TaBqwDl_sZSY=", "properties": {"ref": "1681", "@spider": "lincolnshire_cooperative", "operator": "East of England Co-operative Society", "operator:wikidata": "Q5329759", "shop": "supermarket", "addr:street_address": "57 High Street, Grantham", "addr:city": "Boston", "addr:postcode": "NG31 6NN", "addr:country": "GB", "name": "Grantham travel branch", "phone": "01476 561 616", "website": "https://www.lincolnshire.coop/branches/travel-branches/lincolnshire-co-operative-travel-grantham", "opening_hours": "Mo-Tu 09:00-17:00; We 09:45-17:00; Th-Sa 09:00-17:00; Su 00:00-24:00", "image": "https://s3-eu-west-1.amazonaws.com/lincolnshire-coop/images/store/Grantham-Travel-exterior-2.jpg", "brand": "Lincolnshire Co-operative", "brand:wikidata": "Q5329759", "nsi_id": "eastofenglandcoop-a8278b"}, "geometry": {"type": "Point", "coordinates": [-0.642452, 52.912243]}},
{"type": "Feature", "id": "jm_1BUDIsV0_BGJxtTAE7l91zVI=", "properties": {"ref": "1820", "@spider": "lincolnshire_cooperative", "operator": "East of England Co-operative Society", "operator:wikidata": "Q5329759", "shop": "supermarket", "addr:street_address": "Heapham Road, Gainsborough", "addr:city": "Boston", "addr:postcode": "DN21 1SH", "addr:country": "GB", "name": "Heapham Road Food Store", "phone": "01427 678 231", "website": "https://www.lincolnshire.coop/branches/food-stores/heapham-road-food-store", "opening_hours": "Mo-Su 07:00-22:00", "image": "https://s3-eu-west-1.amazonaws.com/lincolnshire-coop/images/store/Heapham-Road-Food-Store-outside-view.jpg", "brand": "Lincolnshire Co-operative", "brand:wikidata": "Q5329759", "nsi_id": "eastofenglandcoop-a8278b"}, "geometry": {"type": "Point", "coordinates": [-0.763529, 53.399328]}},
{"type": "Feature", "id": "48BiPUzUBwWXRs_Z9tnxk1-sSKs=", "properties": {"ref": "2795", "@spider": "lincolnshire_cooperative", "operator": "East of England Co-operative Society", "operator:wikidata": "Q5329759", "shop": "supermarket", "addr:street_address": "3 High St, Heckington", "addr:city": "Boston", "addr:postcode": "NG34 9RA", "addr:country": "GB", "name": "Heckington Pharmacy", "phone": "01529 460248", "website": "https://www.lincolnshire.coop/branches/pharmacies/heckington-pharmacy", "opening_hours": "Mo-Fr 09:00-18:00; Sa 09:00-13:00; Su 00:00-24:00", "image": "https://s3-eu-west-1.amazonaws.com/lincolnshire-coop/images/store/Heckington-Pharmacy-29.jpg", "brand": "Lincolnshire Co-operative", "brand:wikidata": "Q5329759", "nsi_id": "eastofenglandcoop-a8278b"}, "geometry": {"type": "Point", "coordinates": [-0.298173, 52.980271]}},
{"type": "Feature", "id": "Ptm9sUyciHsXM83Ovs_5bg9sAqo=", "properties": {"ref": "5938", "@spider": "lincolnshire_cooperative", "operator": "East of England Co-operative Society", "operator:wikidata": "Q5329759", "shop": "supermarket", "addr:street_address": "Howe Lane, Goxhill, North Lincolnshire", "addr:city": "Boston", "addr:postcode": "DN19 7HS", "addr:country": "GB", "name": "Goxhill Food Store", "phone": "01469 533 802", "website": "https://www.lincolnshire.coop/branches/food-stores/goxhill-food-store", "opening_hours": "Mo-Su 07:00-22:00", "image": "https://s3-eu-west-1.amazonaws.com/lincolnshire-coop/images/store/Goxhill-Food-Store.JPG", "brand": "Lincolnshire Co-operative", "brand:wikidata": "Q5329759", "nsi_id": "eastofenglandcoop-a8278b"}, "geometry": {"type": "Point", "coordinates": [-0.336618, 53.676831]}},
{"type": "Feature", "id": "uDcHSjM8VRbRdDy5V5v9kN6RcsI=", "properties": {"ref": "13326", "@spider": "lincolnshire_cooperative", "operator": "East of England Co-operative Society", "operator:wikidata": "Q5329759", "shop": "supermarket", "addr:street_address": "2 Bourne Road, Morton, Bourne, Lincolnshire", "addr:city": "Boston", "addr:postcode": "PE10 0RG", "addr:country": "GB", "name": "Morton Bourne Food Store", "phone": "01778 571931", "website": "https://www.lincolnshire.coop/branches/food-stores/morton-bourne-food-store", "opening_hours": "Mo-Su 07:00-22:00", "image": "https://s3-eu-west-1.amazonaws.com/lincolnshire-coop/images/store/Food-store-in-Morton-nr-Bourne-74.jpg", "brand": "Lincolnshire Co-operative", "brand:wikidata": "Q5329759", "nsi_id": "eastofenglandcoop-a8278b"}, "geometry": {"type": "Point", "coordinates": [-0.380297, 52.802205]}},
{"type": "Feature", "id": "jg3ZOYUDuOr8z7BDlVNzL7OYDsc=", "properties": {"ref": "7386", "@spider": "lincolnshire_cooperative", "operator": "East of England Co-operative Society", "operator:wikidata": "Q5329759", "shop": "supermarket", "addr:street_address": "36 High Street, Coningsby, Lincolnshire", "addr:city": "Boston", "addr:postcode": "LN4 4RA", "addr:country": "GB", "name": "Coningsby Funeral Home", "phone": "01526 345 999", "website": "https://www.lincolnshire.coop/branches/funeral-homes/coningsby-funeral-home", "opening_hours": "Mo-Fr 10:00-15:00; Sa-Su 00:00-24:00", "image": "https://s3-eu-west-1.amazonaws.com/lincolnshire-coop/images/store/Coningsby-Funeral-Home-2022.jpeg", "brand": "Lincolnshire Co-operative", "brand:wikidata": "Q5329759", "nsi_id": "eastofenglandcoop-a8278b"}, "geometry": {"type": "Point", "coordinates": [-0.173957, 53.106041]}},
{"type": "Feature", "id": "2yuyfn07kgXP8UNHhAx1a4TbLnA=", "properties": {"ref": "8360", "@spider": "lincolnshire_cooperative", "operator": "East of England Co-operative Society", "operator:wikidata": "Q5329759", "shop": "supermarket", "addr:street_address": "1 King Street, Market Rasen", "addr:city": "Boston", "addr:postcode": "LN8 3BB", "addr:country": "GB", "name": "Market Rasen Funeral Home", "phone": "01673 842 788", "website": "https://www.lincolnshire.coop/branches/funeral-homes/market-rasen-funeral-home", "opening_hours": "Mo-Fr 10:00-15:00; Sa-Su 00:00-24:00", "image": "https://s3-eu-west-1.amazonaws.com/lincolnshire-coop/images/store/Marken-Rasen-funeral-home_web.jpg", "brand": "Lincolnshire Co-operative", "brand:wikidata": "Q5329759", "nsi_id": "eastofenglandcoop-a8278b"}, "geometry": {"type": "Point", "coordinates": [-0.33836, 53.38778]}},
{"type": "Feature", "id": "93AJlxRzl95Fhl-Qf3ZLadgUv1I=", "properties": {"ref": "10950", "@spider": "lincolnshire_cooperative", "operator": "East of England Co-operative Society", "operator:wikidata": "Q5329759", "shop": "supermarket", "addr:street_address": "12 Market Square, Retford", "addr:city": "Boston", "addr:postcode": "DN22 6DB", "addr:country": "GB", "name": "Retford travel branch", "phone": "01777 705 738", "website": "https://www.lincolnshire.coop/branches/travel-branches/retford-travel", "opening_hours": "Mo-Tu 09:00-17:00; We 09:45-17:00; Th-Sa 09:00-17:00; Su 00:00-24:00", "image": "https://s3-eu-west-1.amazonaws.com/lincolnshire-coop/images/store/Retford-travel-signs-6.jpg", "brand": "Lincolnshire Co-operative", "brand:wikidata": "Q5329759", "nsi_id": "eastofenglandcoop-a8278b"}, "geometry": {"type": "Point", "coordinates": [-0.942469, 53.3224]}},
{"type": "Feature", "id": "DQJFkMYp7ago-zhRYtwsXXUm-qg=", "properties": {"ref": "14527", "@spider": "lincolnshire_cooperative", "operator": "East of England Co-operative Society", "operator:wikidata": "Q5329759", "shop": "supermarket", "addr:street_address": "High Street, Swineshead, Lincolnshire", "addr:city": "Boston", "addr:postcode": "PE20 3LH", "addr:country": "GB", "name": "Swineshead Food Store", "phone": "01205 821767", "website": "https://www.lincolnshire.coop/branches/food-stores/swineshead-food-store", "opening_hours": "Mo-Su 07:00-22:00", "image": "https://s3-eu-west-1.amazonaws.com/lincolnshire-coop/images/store/Swineshead-Food-Store-and-pharmacy-34.jpg", "brand": "Lincolnshire Co-operative", "brand:wikidata": "Q5329759", "nsi_id": "eastofenglandcoop-a8278b"}, "geometry": {"type": "Point", "coordinates": [-0.161523, 52.948537]}},
{"type": "Feature", "id": "MGhPq_1vd99v66ppyAqPtPhTm4A=", "properties": {"ref": "16989", "@spider": "lincolnshire_cooperative", "operator": "East of England Co-operative Society", "operator:wikidata": "Q5329759", "shop": "supermarket", "addr:street_address": "55/57 Oswald Road, Scunthorpe, North Lincolnshire", "addr:city": "Boston", "addr:postcode": "DN15 7PE", "addr:country": "GB", "name": "Scunthorpe Funeral Home", "phone": "01724 890 000", "website": "https://www.lincolnshire.coop/branches/funeral-homes/scunthorpe-funeral-home", "opening_hours": "Mo-Fr 10:00-15:00; Sa-Su 00:00-24:00", "image": "https://s3-eu-west-1.amazonaws.com/lincolnshire-coop/images/store/Scunthorpe-funeral-home_web.jpg", "brand": "Lincolnshire Co-operative", "brand:wikidata": "Q5329759", "nsi_id": "eastofenglandcoop-a8278b"}, "geometry": {"type": "Point", "coordinates": [-0.65414, 53.587692]}},
{"type": "Feature", "id": "93lv0IuywtwD-ckK4FbyxSZGxC0=", "properties": {"ref": "18500", "@spider": "lincolnshire_cooperative", "operator": "East of England Co-operative Society", "operator:wikidata": "Q5329759", "shop": "supermarket", "addr:street_address": "451 Newark Road, North Hykeham, Lincoln, Lincolnshire", "addr:city": "Boston", "addr:postcode": "LN6 9NG", "addr:country": "GB", "name": "Newark Road Hykeham Food Store", "phone": "01522 692789", "website": "https://www.lincolnshire.coop/branches/food-stores/newark-road-hykeham-food-store", "opening_hours": "Mo-Su 07:00-22:00", "image": "https://s3-eu-west-1.amazonaws.com/lincolnshire-coop/images/store/Newark-road-food-store-website.jpg", "brand": "Lincolnshire Co-operative", "brand:wikidata": "Q5329759", "nsi_id": "eastofenglandcoop-a8278b"}, "geometry": {"type": "Point", "coordinates": [-0.609805, 53.182533]}},
{"type": "Feature", "id": "1KgBM-Iofi3eLuSYPsSxkgo0QTs=", "properties": {"ref": "18546", "@spider": "lincolnshire_cooperative", "operator": "East of England Co-operative Society", "operator:wikidata": "Q5329759", "shop": "supermarket", "addr:street_address": "451 Newark Road, North Hykeham, Lincoln, Lincolnshire", "addr:city": "Boston", "addr:postcode": "LN6 9NG", "addr:country": "GB", "name": "Newark Road Hykeham Pharmacy", "phone": "01522 686242", "website": "https://www.lincolnshire.coop/branches/pharmacies/newark-road-hykeham-pharmacy", "opening_hours": "Mo-Fr 09:00-18:00; Sa 09:00-12:00; Su 00:00-24:00", "image": "https://s3-eu-west-1.amazonaws.com/lincolnshire-coop/images/store/Newark-Road-Food-Store-and-Pharmacy.jpg", "brand": "Lincolnshire Co-operative", "brand:wikidata": "Q5329759", "nsi_id": "eastofenglandcoop-a8278b"}, "geometry": {"type": "Point", "coordinates": [-0.609663, 53.182478]}},
{"type": "Feature", "id": "SAzNQbBY-auxNEt0oNQQ7qia-Bs=", "properties": {"ref": "18839", "@spider": "lincolnshire_cooperative", "operator": "East of England Co-operative Society", "operator:wikidata": "Q5329759", "shop": "supermarket", "addr:street_address": "West Street, Scawby, Brigg, North Lincs", "addr:city": "Boston", "addr:postcode": "DN20 9AS", "addr:country": "GB", "name": "Scawby Food Store", "phone": "01652 655871", "website": "https://www.lincolnshire.coop/branches/food-stores/scawby-food-store", "opening_hours": "Mo-Su 07:00-22:00", "image": "https://s3-eu-west-1.amazonaws.com/lincolnshire-coop/images/store/Scawby-food-store-website.jpg", "brand": "Lincolnshire Co-operative", "brand:wikidata": "Q5329759", "nsi_id": "eastofenglandcoop-a8278b"}, "geometry": {"type": "Point", "coordinates": [-0.539617, 53.534967]}},
{"type": "Feature", "id": "bupJQo0W7JNCOFIdUq__yxCahdk=", "properties": {"ref": "21423", "@spider": "lincolnshire_cooperative", "operator": "East of England Co-operative Society", "operator:wikidata": "Q5329759", "shop": "supermarket", "addr:street_address": "18-20 Sincil Street, Block A, Lincoln", "addr:city": "Boston", "addr:postcode": "LN5 7ET", "addr:country": "GB", "name": "Sincil Street Food Store", "phone": "01522 523375", "website": "https://www.lincolnshire.coop/branches/food-stores/sincil-street-food-store", "opening_hours": "Mo-Su 06:00-23:00", "image": "https://s3-eu-west-1.amazonaws.com/lincolnshire-coop/images/store/Sincil-Street-at-night.JPEG", "brand": "Lincolnshire Co-operative", "brand:wikidata": "Q5329759", "nsi_id": "eastofenglandcoop-a8278b"}, "geometry": {"type": "Point", "coordinates": [-0.53865, 53.226769]}},
{"type": "Feature", "id": "HM0P-cMQCluklSy9pnuV9I6ywVc=", "properties": {"ref": "24268", "@spider": "lincolnshire_cooperative", "operator": "East of England Co-operative Society", "operator:wikidata": "Q5329759", "shop": "supermarket", "addr:street_address": "1 Marton Road, Sturton by Stow, Lincoln, Lincolnshire", "addr:city": "Boston", "addr:postcode": "LN1 2AQ", "addr:country": "GB", "name": "Sturton by Stow Food Store", "phone": "01522 716 413", "website": "https://www.lincolnshire.coop/branches/food-stores/sturton-by-stow-food-store", "opening_hours": "Mo-Su 07:00-22:00", "image": "https://s3-eu-west-1.amazonaws.com/lincolnshire-coop/images/store/Sturton-by-stow-food-store-website.jpg", "brand": "Lincolnshire Co-operative", "brand:wikidata": "Q5329759", "nsi_id": "eastofenglandcoop-a8278b"}, "geometry": {"type": "Point", "coordinates": [-0.664946, 53.312531]}},
{"type": "Feature", "id": "dy_nnIaTzpLaS42V0yUDHFQBr_s=", "properties": {"ref": "25453", "@spider": "lincolnshire_cooperative", "operator": "East of England Co-operative Society", "operator:wikidata": "Q5329759", "shop": "supermarket", "addr:street_address": "43 Redwood Drive, Waddington, Lincoln", "addr:city": "Boston", "addr:postcode": "LN5 9BN", "addr:country": "GB", "name": "Redwood Drive Chiropody", "phone": "01522 723 874", "website": "https://www.lincolnshire.coop/branches/pharmacies/redwood-drive-chiropody", "image": "https://s3-eu-west-1.amazonaws.com/lincolnshire-coop/images/store/Brant-Road-Chirpody-exterior.jpg", "brand": "Lincolnshire Co-operative", "brand:wikidata": "Q5329759", "nsi_id": "eastofenglandcoop-a8278b"}, "geometry": {"type": "Point", "coordinates": [-0.557315, 53.181658]}},
{"type": "Feature", "id": "ZsKRjctqweh0ZIssf2-V8nRQ5H4=", "properties": {"ref": "26150", "@spider": "lincolnshire_cooperative", "operator": "East of England Co-operative Society", "operator:wikidata": "Q5329759", "shop": "supermarket", "addr:street_address": "451 Newark Road, North Hykeham, Lincoln, Lincolnshire", "addr:city": "Boston", "addr:postcode": "LN6 9NG", "addr:country": "GB", "name": "Newark Road Hykeham Podiatry", "phone": "01522 723874", "website": "https://www.lincolnshire.coop/branches/pharmacies/newark-road-hykeham-podiatry", "image": "https://s3-eu-west-1.amazonaws.com/lincolnshire-coop/images/store/Newark-Road-Food-Store-and-Pharmacy.jpg", "brand": "Lincolnshire Co-operative", "brand:wikidata": "Q5329759", "nsi_id": "eastofenglandcoop-a8278b"}, "geometry": {"type": "Point", "coordinates": [-0.60962, 53.182477]}},
{"type": "Feature", "id": "3Dv-qgjS-O_CZg22LPSCpFpUuiQ=", "properties": {"ref": "26154", "@spider": "lincolnshire_cooperative", "operator": "East of England Co-operative Society", "operator:wikidata": "Q5329759", "shop": "supermarket", "addr:street_address": "15 Market Street, Gainsborough, Lincolnshire", "addr:city": "Boston", "addr:postcode": "DN21 2BL", "addr:country": "GB", "name": "Market Street Podiatry, Gainsborough", "phone": "01427 613 393", "website": "https://www.lincolnshire.coop/branches/pharmacies/market-street-podiatry-gainsborough", "image": "https://s3-eu-west-1.amazonaws.com/lincolnshire-coop/images/store/Market-Street-Pharmacy.JPG", "brand": "Lincolnshire Co-operative", "brand:wikidata": "Q5329759", "nsi_id": "eastofenglandcoop-a8278b"}, "geometry": {"type": "Point", "coordinates": [-0.774833, 53.3999]}},
{"type": "Feature", "id": "m0AszohmPu5eEglPYFxaMHoVVRo=", "properties": {"ref": "26701", "@spider": "lincolnshire_cooperative", "operator": "East of England Co-operative Society", "operator:wikidata": "Q5329759", "shop": "supermarket", "addr:street_address": "Arlington Gardens, Springfield Road, Grantham", "addr:city": "Boston", "addr:postcode": "NG31 7GQ", "addr:country": "GB", "name": "Springfield Road Food Store", "phone": "01476 849 391", "website": "https://www.lincolnshire.coop/branches/food-stores/springfield-road", "opening_hours": "Mo-Su 07:00-22:00", "image": "https://s3-eu-west-1.amazonaws.com/lincolnshire-coop/images/store/Springfield-Road-Food-Store_web.jpg", "brand": "Lincolnshire Co-operative", "brand:wikidata": "Q5329759", "nsi_id": "eastofenglandcoop-a8278b"}, "geometry": {"type": "Point", "coordinates": [-0.64795, 52.90283]}},
{"type": "Feature", "id": "PKD2LypIOjkFjaGzAF9Y6oaEJt4=", "properties": {"ref": "28317", "@spider": "lincolnshire_cooperative", "operator": "East of England Co-operative Society", "operator:wikidata": "Q5329759", "shop": "supermarket", "addr:street_address": "LCL Unit 1 Cavendish Way, Clipstone Village, Mansfield", "addr:city": "Boston", "addr:postcode": "NG21 9FB", "addr:country": "GB", "name": "Clipstone Food Store", "phone": "01623855796", "website": "https://www.lincolnshire.coop/branches/food-stores/clipstone-food-store", "opening_hours": "Mo-Su 07:00-22:00", "image": "https://s3-eu-west-1.amazonaws.com/lincolnshire-coop/images/store/Clipstone-food-store-website.jpg", "brand": "Lincolnshire Co-operative", "brand:wikidata": "Q5329759", "nsi_id": "eastofenglandcoop-a8278b"}, "geometry": {"type": "Point", "coordinates": [-1.11787, 53.170447]}},
{"type": "Feature", "id": "I0lX2Gp73gE0ZzZuk3aR93o62vU=", "properties": {"ref": "28539", "@spider": "lincolnshire_cooperative", "operator": "East of England Co-operative Society", "operator:wikidata": "Q5329759", "shop": "supermarket", "addr:street_address": "15 Sincil Street, Lincoln", "addr:city": "Boston", "addr:postcode": "LN5 7ET", "addr:country": "GB", "name": "Sincil Street Pharmacy", "phone": "01522 512 828", "website": "https://www.lincolnshire.coop/branches/pharmacies/sincil-street-pharmacy", "opening_hours": "Mo-Sa 08:30-17:30; Su 00:00-24:00", "image": "https://s3-eu-west-1.amazonaws.com/lincolnshire-coop/images/store/WEB-Sincil-Street-Pharmacy-externals-small.jpg", "brand": "Lincolnshire Co-operative", "brand:wikidata": "Q5329759", "nsi_id": "eastofenglandcoop-a8278b"}, "geometry": {"type": "Point", "coordinates": [-0.538891, 53.227051]}},
{"type": "Feature", "id": "QB9m9_g0iXOlNgzLSo3nSpUGGYU=", "properties": {"ref": "36250", "@spider": "lincolnshire_cooperative", "operator": "East of England Co-operative Society", "operator:wikidata": "Q5329759", "shop": "supermarket", "addr:street_address": "West End, Whittlesey, Peterborough, Cambridgeshire", "addr:city": "Boston", "addr:postcode": "PE7 1HT", "addr:country": "GB", "name": "Whittlesey Food Store", "phone": "01733 808704", "website": "https://www.lincolnshire.coop/branches/food-stores/whittlesey-food-store", "opening_hours": "Mo-Su 07:00-22:00", "image": "https://s3-eu-west-1.amazonaws.com/lincolnshire-coop/images/store/Whittlesey-exterior-2.jpg", "brand": "Lincolnshire Co-operative", "brand:wikidata": "Q5329759", "nsi_id": "eastofenglandcoop-a8278b"}, "geometry": {"type": "Point", "coordinates": [-0.134073, 52.559352]}},
{"type": "Feature", "id": "2RXczkbQ6_dcxxh2HlnWtU92C18=", "properties": {"ref": "38487", "@spider": "lincolnshire_cooperative", "operator": "East of England Co-operative Society", "operator:wikidata": "Q5329759", "shop": "supermarket", "addr:street_address": "South Street, Keelby, Grimsby", "addr:city": "Boston", "addr:postcode": "DN41 8HE", "addr:country": "GB", "name": "Keelby Food Store", "phone": "01472897887", "website": "https://www.lincolnshire.coop/branches/food-stores/keelby-food-store", "opening_hours": "Mo-Su 07:00-22:00", "image": "https://www.lincolnshire.coop/images/skin/logo.png", "brand": "Lincolnshire Co-operative", "brand:wikidata": "Q5329759", "nsi_id": "eastofenglandcoop-a8278b"}, "geometry": {"type": "Point", "coordinates": [-0.242096, 53.576439]}},
{"type": "Feature", "id": "98mNzEIXllM1EKpEfTjSZJ0T9yY=", "properties": {"ref": "320520", "@spider": "lincolnshire_cooperative", "operator": "East of England Co-operative Society", "operator:wikidata": "Q5329759", "shop": "supermarket", "addr:street_address": "132 Hallcroft Road, Retford, Nottinghamshire", "addr:city": "Boston", "addr:postcode": "DN22 7PY", "addr:country": "GB", "name": "Retford Food Store", "phone": "01777 854644", "website": "https://www.lincolnshire.coop/branches/food-stores/retford-food-store", "opening_hours": "Mo-Su 07:00-22:00", "image": "https://s3-eu-west-1.amazonaws.com/lincolnshire-coop/images/store/Retford-Food-Store-Exterior_web.jpg", "brand": "Lincolnshire Co-operative", "brand:wikidata": "Q5329759", "nsi_id": "eastofenglandcoop-a8278b"}, "geometry": {"type": "Point", "coordinates": [-0.951631, 53.331294]}},
{"type": "Feature", "id": "kZ5LUjXgMKdgGUuOaybQVL1WJRo=", "properties": {"ref": "329920", "@spider": "lincolnshire_cooperative", "operator": "East of England Co-operative Society", "operator:wikidata": "Q5329759", "shop": "supermarket", "addr:street_address": "Victoria Road, Barnetby Le Wold, North Lincolnshire", "addr:city": "Boston", "addr:postcode": "DN38 6HP", "addr:country": "GB", "name": "Barnetby Food Store", "phone": "01652228015", "website": "https://www.lincolnshire.coop/branches/food-stores/barnetby-food-store", "opening_hours": "Mo-Su 07:00-22:00", "image": "https://s3-eu-west-1.amazonaws.com/lincolnshire-coop/images/store/Barnetby-store.jpg", "brand": "Lincolnshire Co-operative", "brand:wikidata": "Q5329759", "nsi_id": "eastofenglandcoop-a8278b"}, "geometry": {"type": "Point", "coordinates": [-0.407663, 53.575493]}}]}