{"type":"FeatureCollection","features":[{"type": "Feature", "id": "xznGcSHmteG7i14-C0cW6aLYIN0=", "properties": {"ref": "vista", "@spider": "livingspaces", "addr:full": "1900 University Dr", "addr:city": "Vista", "addr:state": "CA", "addr:postcode": "92083", "addr:country": "US", "name": "Vista", "phone": "877-266-7300", "website": "https://www.livingspaces.com/stores/vista", "brand": "Living Spaces", "brand:wikidata": "Q63626177"}, "geometry": {"type": "Point", "coordinates": [-117.2206444, 33.172651]}},
{"type": "Feature", "id": "VHSyS3rlQ8aAPJhS6I2CI1YnF88=", "properties": {"ref": "mission-valley", "@spider": "livingspaces", "addr:full": "8730 Rio San Diego Dr", "addr:city": "San Diego", "addr:state": "CA", "addr:postcode": "92108", "addr:country": "US", "name": "Mission Valley", "phone": "877-266-7300", "website": "https://www.livingspaces.com/stores/mission-valley", "brand": "Living Spaces", "brand:wikidata": "Q63626177"}, "geometry": {"type": "Point", "coordinates": [-117.1446811, 32.776464]}},
{"type": "Feature", "id": "P_CjfYc0IMRfBSiNRGLvTKW58DQ=", "properties": {"ref": "rialto-dc", "@spider": "livingspaces", "addr:full": "3994 S Riverside Ave", "addr:city": "Rialto", "addr:state": "CA", "addr:postcode": "92324", "addr:country": "US", "name": "Rialto Distribution Center", "phone": "877-266-7300", "website": "https://www.livingspaces.com/stores/rialto-dc", "brand": "Living Spaces", "brand:wikidata": "Q63626177"}, "geometry": {"type": "Point", "coordinates": [-117.5314101, 34.1043722]}},
{"type": "Feature", "id": "BBpZcsv9o868xvwzS48MdMNZ9bo=", "properties": {"ref": "van-nuys", "@spider": "livingspaces", "addr:full": "14400 Arminta St", "addr:city": "Panorama City", "addr:state": "CA", "addr:postcode": "91402", "addr:country": "US", "name": "Van Nuys at \"The Plant\"", "phone": "877-266-7300", "website": "https://www.livingspaces.com/stores/van-nuys", "brand": "Living Spaces", "brand:wikidata": "Q63626177"}, "geometry": {"type": "Point", "coordinates": [-118.4495656, 34.2125338]}},
{"type": "Feature", "id": "uM0mPSh1cx3yx6zNpwbTT1vFoIw=", "properties": {"ref": "redondo-beach", "@spider": "livingspaces", "addr:full": "1519 Hawthorne Blvd", "addr:city": "Redondo Beach", "addr:state": "CA", "addr:postcode": "90278", "addr:country": "US", "name": "Redondo Beach", "phone": "877-266-7300", "website": "https://www.livingspaces.com/stores/redondo-beach", "brand": "Living Spaces", "brand:wikidata": "Q63626177"}, "geometry": {"type": "Point", "coordinates": [-118.3577758, 33.8681398]}},
{"type": "Feature", "id": "HBlfVS_KTbqCn1FvB16S77G9UdQ=", "properties": {"ref": "rancho-cucamonga", "@spider": "livingspaces", "addr:full": "12649 Foothill Blvd", "addr:city": "Rancho Cucamonga", "addr:state": "CA", "addr:postcode": "91739", "addr:country": "US", "name": "Rancho Cucamonga", "phone": "877-266-7300", "website": "https://www.livingspaces.com/stores/rancho-cucamonga", "brand": "Living Spaces", "brand:wikidata": "Q63626177"}, "geometry": {"type": "Point", "coordinates": [-117.5313316, 34.1042672]}},
{"type": "Feature", "id": "KISVutDsNWwYe3YvYnBf3_UX-PE=", "properties": {"ref": "monrovia", "@spider": "livingspaces", "addr:full": "407 W Huntington Dr", "addr:city": "Monrovia", "addr:state": "CA", "addr:postcode": "91016", "addr:country": "US", "name": "Monrovia", "phone": "877-266-7300", "website": "https://www.livingspaces.com/stores/monrovia", "brand": "Living Spaces", "brand:wikidata": "Q63626177"}, "geometry": {"type": "Point", "coordinates": [-118.0094319, 34.140975]}},
{"type": "Feature", "id": "AsxX30HsUG9hohqCPSR0uPTpusY=", "properties": {"ref": "mid-city-los-angeles", "@spider": "livingspaces", "addr:full": "4801 Venice Blvd", "addr:city": "Mid City Los Angeles", "addr:state": "CA", "addr:postcode": "90019", "addr:country": "US", "name": "Mid City Los Angeles", "phone": "877-266-7300", "website": "https://www.livingspaces.com/stores/mid-city-los-angeles", "brand": "Living Spaces", "brand:wikidata": "Q63626177"}, "geometry": {"type": "Point", "coordinates": [-118.3432878, 34.0475034]}},
{"type": "Feature", "id": "okYwdqBLqONDKVdwLFfqGehUOng=", "properties": {"ref": "menifee", "@spider": "livingspaces", "addr:full": "30251 Antelope Rd", "addr:city": "Menifee", "addr:state": "CA", "addr:postcode": "92584", "addr:country": "US", "name": "Menifee", "phone": "877-266-7300", "website": "https://www.livingspaces.com/stores/menifee", "brand": "Living Spaces", "brand:wikidata": "Q63626177"}, "geometry": {"type": "Point", "coordinates": [-117.171673, 33.6816967]}},
{"type": "Feature", "id": "j7Ce9trJpbkLQN4NOi0v_61zjPA=", "properties": {"ref": "la-mirada", "@spider": "livingspaces", "addr:full": "14501 Artesia Blvd", "addr:city": "La Mirada", "addr:state": "CA", "addr:postcode": "90638", "addr:country": "US", "name": "La Mirada", "phone": "877-266-7300", "website": "https://www.livingspaces.com/stores/la-mirada", "brand": "Living Spaces", "brand:wikidata": "Q63626177"}, "geometry": {"type": "Point", "coordinates": [-118.02196500000002, 33.8744831]}},
{"type": "Feature", "id": "74pZtN3PIR7ji-AXxOHvz0g_DhA=", "properties": {"ref": "irvine", "@spider": "livingspaces", "addr:full": "101 Technology Dr", "addr:city": "Irvine", "addr:state": "CA", "addr:postcode": "92618", "addr:country": "US", "name": "Irvine", "phone": "877-266-7300", "website": "https://www.livingspaces.com/stores/irvine", "brand": "Living Spaces", "brand:wikidata": "Q63626177"}, "geometry": {"type": "Point", "coordinates": [-117.7451577, 33.6596622]}},
{"type": "Feature", "id": "mMqO8e0YmOSGdGuYMqvCDbCgOQA=", "properties": {"ref": "huntington-beach", "@spider": "livingspaces", "addr:full": "6912 Edinger Ave", "addr:city": "Huntington Beach", "addr:state": "CA", "addr:postcode": "92647", "addr:country": "US", "name": "Huntington Beach", "phone": "877-266-7300", "website": "https://www.livingspaces.com/stores/huntington-beach", "brand": "Living Spaces", "brand:wikidata": "Q63626177"}, "geometry": {"type": "Point", "coordinates": [-118.0100143, 33.730058]}},
{"type": "Feature", "id": "bXaJ0gnW8BgkVQsPhzzbLLR4JLo=", "properties": {"ref": "san-antonio", "@spider": "livingspaces", "addr:full": "4239 N Loop 1604 w.", "addr:city": "San Antonio", "addr:state": "TX", "addr:postcode": "78249", "addr:country": "US", "name": "San Antonio", "phone": "877-266-7300", "website": "https://www.livingspaces.com/stores/san-antonio", "brand": "Living Spaces", "brand:wikidata": "Q63626177"}, "geometry": {"type": "Point", "coordinates": [-98.4205546, 29.6012341]}},
{"type": "Feature", "id": "3Y6cacOOxpDh4-656mDKr7LdoKE=", "properties": {"ref": "pflugerville", "@spider": "livingspaces", "addr:full": "19024 N Heatherwilde Blvd", "addr:city": "Pflugerville", "addr:state": "TX", "addr:postcode": "78660", "addr:country": "US", "name": "Pflugerville", "phone": "877-266-7300", "website": "https://www.livingspaces.com/stores/pflugerville", "brand": "Living Spaces", "brand:wikidata": "Q63626177"}, "geometry": {"type": "Point", "coordinates": [-97.6175556, 30.4812526]}},
{"type": "Feature", "id": "Qv0k2JPNS-2Bzs2maMzssMf6Wnc=", "properties": {"ref": "scottsdale", "@spider": "livingspaces", "addr:full": "16275 N Scottsdale Rd", "addr:city": "Scottsdale", "addr:state": "CA", "addr:postcode": "85260", "addr:country": "US", "name": "Scottsdale", "phone": "877-266-7300", "website": "https://www.livingspaces.com/stores/scottsdale", "brand": "Living Spaces", "brand:wikidata": "Q63626177"}, "geometry": {"type": "Point", "coordinates": [-111.919487, 33.6350822]}},
{"type": "Feature", "id": "wofb8rJHsszZg_H4xdZPmHsITPo=", "properties": {"ref": "phoenix", "@spider": "livingspaces", "addr:full": "6600 W Latham St", "addr:city": "Phoenix", "addr:state": "AZ", "addr:postcode": "85043", "addr:country": "US", "name": "Phoenix", "phone": "877-266-7300", "website": "https://www.livingspaces.com/stores/phoenix", "brand": "Living Spaces", "brand:wikidata": "Q63626177"}, "geometry": {"type": "Point", "coordinates": [-112.2015146, 33.46129]}},
{"type": "Feature", "id": "T5vVl5vx69FODTuX8zKMyP1fq3U=", "properties": {"ref": "glendale", "@spider": "livingspaces", "addr:full": "6767 W Bell Rd", "addr:city": "Glendale", "addr:state": "AZ", "addr:postcode": "85308", "addr:country": "US", "name": "Glendale", "phone": "877-266-7300", "website": "https://www.livingspaces.com/stores/glendale", "brand": "Living Spaces", "brand:wikidata": "Q63626177"}, "geometry": {"type": "Point", "coordinates": [-112.2063351, 33.6358142]}},
{"type": "Feature", "id": "y9fK3N9OwtCUEjR3gCavieyOT5g=", "properties": {"ref": "gilbert", "@spider": "livingspaces", "addr:full": "2300 SanTan Village Parkway", "addr:city": "Gilbert", "addr:state": "AZ", "addr:postcode": "85295", "addr:country": "US", "name": "Gilbert", "phone": "877-266-7300", "website": "https://www.livingspaces.com/stores/gilbert", "brand": "Living Spaces", "brand:wikidata": "Q63626177"}, "geometry": {"type": "Point", "coordinates": [-111.74903759, 33.3087518]}},
{"type": "Feature", "id": "NoUA6w92tlZ1wjI_RWrc5g8KBiI=", "properties": {"ref": "san-leandro", "@spider": "livingspaces", "addr:full": "250 Floresta Blvd", "addr:city": "San Leandro", "addr:state": "CA", "addr:postcode": "94578", "addr:country": "US", "name": "San Leandro", "phone": "877-266-7300", "website": "https://www.livingspaces.com/stores/san-leandro", "brand": "Living Spaces", "brand:wikidata": "Q63626177"}, "geometry": {"type": "Point", "coordinates": [-122.1437889, 37.7001952]}},
{"type": "Feature", "id": "_O6WDwpx4uehKrMDmYAHcvzyKmA=", "properties": {"ref": "roseville", "@spider": "livingspaces", "addr:full": "1851 Freedom Way", "addr:city": "Roseville", "addr:state": "CA", "addr:postcode": "95678", "addr:country": "US", "name": "Roseville", "phone": "877-266-7300", "website": "https://www.livingspaces.com/stores/roseville", "brand": "Living Spaces", "brand:wikidata": "Q63626177"}, "geometry": {"type": "Point", "coordinates": [-121.2973, 38.7918]}},
{"type": "Feature", "id": "8WKd3dd1fF68MGmRunu_7SIIdf4=", "properties": {"ref": "millbrae", "@spider": "livingspaces", "addr:full": "855 Broadway", "addr:city": "Millbrae", "addr:state": "CA", "addr:postcode": "94030", "addr:country": "US", "name": "Millbrae", "phone": "877-266-7300", "website": "https://www.livingspaces.com/stores/millbrae", "brand": "Living Spaces", "brand:wikidata": "Q63626177"}, "geometry": {"type": "Point", "coordinates": [-122.396334, 37.603876]}},
{"type": "Feature", "id": "J3PgG-bKg4r5NZimDZvSOLvw8tM=", "properties": {"ref": "fremont-dc", "@spider": "livingspaces", "addr:full": "41088 Boyce Rd", "addr:city": "Fremont", "addr:state": "CA", "addr:postcode": "94538", "addr:country": "US", "name": "Fremont Distribution Center", "phone": "877-266-7300", "website": "https://www.livingspaces.com/stores/fremont-dc", "brand": "Living Spaces", "brand:wikidata": "Q63626177"}, "geometry": {"type": "Point", "coordinates": [-121.9928278, 37.5114507]}},
{"type": "Feature", "id": "PYvxJ3d_Hxjyg0NvdzVJFmZoHQA=", "properties": {"ref": "fremont", "@spider": "livingspaces", "addr:full": "49088 Fremont Blvd", "addr:city": "Fremont", "addr:state": "CA", "addr:postcode": "94537", "addr:country": "US", "name": "Fremont", "phone": "877-266-7300", "website": "https://www.livingspaces.com/stores/fremont", "brand": "Living Spaces", "brand:wikidata": "Q63626177"}, "geometry": {"type": "Point", "coordinates": [-121.9275579, 37.4567352]}},
{"type": "Feature", "id": "eKfbdpGAKUHzpTmTRJLVqZpTWhk=", "properties": {"ref": "summerlin", "@spider": "livingspaces", "addr:full": "700 S Rampart Blvd", "addr:city": "Las Vegas", "addr:state": "NV", "addr:postcode": "89145", "addr:country": "US", "name": "Summerlin", "phone": "877-266-7300", "website": "https://www.livingspaces.com/stores/summerlin", "brand": "Living Spaces", "brand:wikidata": "Q63626177"}, "geometry": {"type": "Point", "coordinates": [-115.2893047, 36.162944]}}]}