{"type":"FeatureCollection","features":[{"type": "Feature", "id": "nFMVU0O_0N9GgASxvR4Yt2wu9_g=", "properties": {"ref": "Loews Philadelphia Hotel", "@spider": "loews", "addr:full": "1200 Market Street", "addr:city": "Philadelphia", "addr:state": "Pennsylvania", "addr:postcode": "19107", "addr:country": "US", "name": "Loews Philadelphia Hotel", "phone": "215-627-1200", "brand": "Loews Hotels", "brand:wikidata": "Q6666622"}, "geometry": {"type": "Point", "coordinates": [-75.160204, 39.951743]}},
{"type": "Feature", "id": "NWyYvgcOjHC5YHnCyqUzaE1BH_s=", "properties": {"ref": "Loews New Orleans Hotel", "@spider": "loews", "addr:full": "300 Poydras Street", "addr:city": "New Orleans", "addr:state": "Louisiana", "addr:postcode": "70130", "addr:country": "US", "name": "Loews New Orleans Hotel", "phone": "504-595-3300", "brand": "Loews Hotels", "brand:wikidata": "Q6666622"}, "geometry": {"type": "Point", "coordinates": [-90.066191, 29.948267]}},
{"type": "Feature", "id": "NORDpWhlOnucN4t1obqjdbHg3QM=", "properties": {"ref": "Loews Minneapolis Hotel", "@spider": "loews", "addr:full": "601 1st Avenue North", "addr:city": "Minneapolis", "addr:state": "Minnesota", "addr:postcode": "55403", "addr:country": "US", "name": "Loews Minneapolis Hotel", "phone": "612-677-1100", "brand": "Loews Hotels", "brand:wikidata": "Q6666622"}, "geometry": {"type": "Point", "coordinates": [-93.274856, 44.978818]}},
{"type": "Feature", "id": "2mdOkC4i-kQJFJT2TFef0ja2wIw=", "properties": {"ref": "Loews Miami Beach Hotel", "@spider": "loews", "addr:full": "1601 Collins Avenue", "addr:city": "Miami Beach", "addr:state": "Florida", "addr:postcode": "33139", "addr:country": "US", "name": "Loews Miami Beach Hotel", "phone": "305-604-1601", "brand": "Loews Hotels", "brand:wikidata": "Q6666622"}, "geometry": {"type": "Point", "coordinates": [-80.129216, 25.789474]}},
{"type": "Feature", "id": "4bw3N3eQ3wCT-pdzuY_SX6ixt7g=", "properties": {"ref": "Loews Kansas City Hotel", "@spider": "loews", "addr:full": "1515 Wyandotte Street", "addr:city": "Kansas City", "addr:state": "Missouri", "addr:postcode": "64108", "addr:country": "US", "name": "Loews Kansas City Hotel", "phone": "816-897-7070", "brand": "Loews Hotels", "brand:wikidata": "Q6666622"}, "geometry": {"type": "Point", "coordinates": [-94.585446, 39.095355]}},
{"type": "Feature", "id": "yWxOB9ft2dz5hr1slSZzrjFv5eU=", "properties": {"ref": "Loews Hollywood Hotel", "@spider": "loews", "addr:full": "1755 N Highland Ave", "addr:city": "Hollywood", "addr:state": "California", "addr:postcode": "90028", "addr:country": "US", "name": "Loews Hollywood Hotel", "phone": "323-856-1200", "brand": "Loews Hotels", "brand:wikidata": "Q6666622"}, "geometry": {"type": "Point", "coordinates": [-118.339168, 34.102931]}},
{"type": "Feature", "id": "QHLzeDSH8mjB_LjE8EmZ7AT8n2E=", "properties": {"ref": "Loews Coronado Bay Resort", "@spider": "loews", "addr:full": "4000 Coronado Bay Road", "addr:city": "Coronado", "addr:state": "California", "addr:postcode": "92118", "addr:country": "US", "name": "Loews Coronado Bay Resort", "phone": "619-424-4000", "brand": "Loews Hotels", "brand:wikidata": "Q6666622"}, "geometry": {"type": "Point", "coordinates": [-117.133977, 32.631703]}},
{"type": "Feature", "id": "R0nysMnkDGrt_pU5vfR0h6B1eaY=", "properties": {"ref": "Loews Coral Gables Hotel", "@spider": "loews", "addr:full": "2950 Coconut Grove Drive", "addr:city": "Coral Gables", "addr:state": "Florida", "addr:postcode": "33134", "addr:country": "US", "name": "Loews Coral Gables Hotel", "phone": "786-772-7600", "brand": "Loews Hotels", "brand:wikidata": "Q6666622"}, "geometry": {"type": "Point", "coordinates": [-80.257702, 25.74545]}},
{"type": "Feature", "id": "g-JXHdMOeMbxJA-ZTxBfAIcfN5I=", "properties": {"ref": "Loews Chicago O'Hare Hotel", "@spider": "loews", "addr:full": "5300 N. River Road", "addr:city": "Rosemont", "addr:state": "Illinois", "addr:postcode": "60018", "addr:country": "US", "name": "Loews Chicago O'Hare Hotel", "phone": "847-544-5300", "brand": "Loews Hotels", "brand:wikidata": "Q6666622"}, "geometry": {"type": "Point", "coordinates": [-87.863033, 41.974378]}},
{"type": "Feature", "id": "MO5nRcywMhCN6jkRCbirV6VZOS4=", "properties": {"ref": "Loews Chicago Hotel", "@spider": "loews", "addr:full": "455 North Park Drive", "addr:city": "Chicago", "addr:state": "Illinois", "addr:postcode": "60611", "addr:country": "US", "name": "Loews Chicago Hotel", "phone": "312-840-6600", "brand": "Loews Hotels", "brand:wikidata": "Q6666622"}, "geometry": {"type": "Point", "coordinates": [-87.618851, 41.889933]}},
{"type": "Feature", "id": "INqJ8EmhyuEW1RZKP7OhncxE0EM=", "properties": {"ref": "Loews Atlanta Hotel", "@spider": "loews", "addr:full": "1065 Peachtree Street NE", "addr:city": "Atlanta", "addr:state": "Georgia", "addr:postcode": "30309", "addr:country": "US", "name": "Loews Atlanta Hotel", "phone": "404-745-5000", "brand": "Loews Hotels", "brand:wikidata": "Q6666622"}, "geometry": {"type": "Point", "coordinates": [-84.383188, 33.783366]}},
{"type": "Feature", "id": "gfnNOofDg-V5JlPdAJIvvlQGXfU=", "properties": {"ref": "Loews Arlington Hotel", "@spider": "loews", "addr:full": "888 Nolan Ryan Expressway", "addr:city": "Arlington", "addr:state": "Texas", "addr:postcode": "76011", "addr:country": "US", "name": "Loews Arlington Hotel", "phone": "+1 800-235-6397", "brand": "Loews Hotels", "brand:wikidata": "Q6666622"}, "geometry": {"type": "Point", "coordinates": [-97.084204, 32.749722]}},
{"type": "Feature", "id": "hU9FuLaidM9uNtiBDenTsOC3j38=", "properties": {"ref": "Live! by Loews - St. Louis Missouri", "@spider": "loews", "addr:full": "Ballpark Village - 799 Clark Avenue", "addr:city": "St. Louis", "addr:state": "Missouri", "addr:postcode": "63102", "addr:country": "US", "name": "Live! by Loews - St. Louis Missouri", "phone": "314-597-9700", "brand": "Loews Hotels", "brand:wikidata": "Q6666622"}, "geometry": {"type": "Point", "coordinates": [-90.191913, 38.623905]}},
{"type": "Feature", "id": "P9hs9bzuQkoJc2HW2r7SbBvhb2o=", "properties": {"ref": "Live! by Loews - Arlington Texas", "@spider": "loews", "addr:full": "1600 E Randol Mill Road", "addr:city": "Arlington", "addr:state": "Texas", "addr:postcode": "76011", "addr:country": "US", "name": "Live! by Loews - Arlington Texas", "phone": "682-277-4900", "brand": "Loews Hotels", "brand:wikidata": "Q6666622"}, "geometry": {"type": "Point", "coordinates": [-97.087419, 32.750127]}},
{"type": "Feature", "id": "xS1Ponu4-IGpQc7ou5TeYm_9MSo=", "properties": {"ref": "Universal's Endless Summer Resort - Dockside Inn & Suites", "@spider": "loews", "addr:full": "7125 Universal Blvd", "addr:city": "Orlando", "addr:state": "FL", "addr:postcode": "32819", "addr:country": "US", "name": "Universal's Endless Summer Resort - Dockside Inn & Suites", "phone": "(407)503-8000", "brand": "Loews Hotels", "brand:wikidata": "Q6666622"}},
{"type": "Feature", "id": "j3KqsTir5C8419pvDxViWOyuH0g=", "properties": {"ref": "Universal's Endless Summer Resort - Surfside Inn & Suites", "@spider": "loews", "addr:full": "7000 Universal Blvd", "addr:city": "Orlando", "addr:state": "FL", "addr:postcode": "32819", "addr:country": "US", "name": "Universal's Endless Summer Resort - Surfside Inn & Suites", "phone": "(407)503-7000", "brand": "Loews Hotels", "brand:wikidata": "Q6666622"}},
{"type": "Feature", "id": "enx3o-fL9Umekdw5YYRGDWFOuBM=", "properties": {"ref": "Universal's Aventura Resort", "@spider": "loews", "addr:full": "6725 Adventure Way", "addr:city": "Orlando", "addr:state": "FL", "addr:postcode": "32819", "addr:country": "US", "name": "Universal's Aventura Resort", "phone": "(407)503-6000", "brand": "Loews Hotels", "brand:wikidata": "Q6666622"}},
{"type": "Feature", "id": "4mVeV6kQkB9KfC-L5NM4YnYU_7k=", "properties": {"ref": "Universal's Cabana Bay Beach Resort", "@spider": "loews", "addr:full": "6550 Adventure Way", "addr:city": "Orlando", "addr:state": "FL", "addr:postcode": "32819", "addr:country": "US", "name": "Universal's Cabana Bay Beach Resort", "phone": "(407)503-4000", "brand": "Loews Hotels", "brand:wikidata": "Q6666622"}},
{"type": "Feature", "id": "5Z4mvf5b_J_VQkrevX2d8COsr1Y=", "properties": {"ref": "Loews Sapphire Falls Resort at Universal Orlando", "@spider": "loews", "addr:full": "6601 Adventure Way", "addr:city": "Orlando", "addr:state": "FL", "addr:postcode": "32819", "addr:country": "US", "name": "Loews Sapphire Falls Resort at Universal Orlando", "phone": "1 (888)430-4999", "brand": "Loews Hotels", "brand:wikidata": "Q6666622"}},
{"type": "Feature", "id": "tofoarQF6L8RAzW__IB-vLRiwzQ=", "properties": {"ref": "Loews Royal Pacific Resort at Universal Orlando", "@spider": "loews", "addr:full": "6300 Hollywood Way", "addr:city": "Orlando", "addr:state": "FL", "addr:postcode": "32819", "addr:country": "US", "name": "Loews Royal Pacific Resort at Universal Orlando", "phone": "(407)503-3000", "brand": "Loews Hotels", "brand:wikidata": "Q6666622"}},
{"type": "Feature", "id": "NyOSTDGlspQycg0O_xro21_cIO8=", "properties": {"ref": "Hard Rock Hotel at Universal Orlando Resort", "@spider": "loews", "addr:full": "5800 Universal Boulevard", "addr:city": "Orlando", "addr:state": "FL", "addr:postcode": "32819", "addr:country": "US", "name": "Hard Rock Hotel at Universal Orlando Resort", "phone": "(407)503-2000", "brand": "Loews Hotels", "brand:wikidata": "Q6666622"}},
{"type": "Feature", "id": "4Ncy66mZeBo60-8a8fE6NYccOyE=", "properties": {"ref": "Loews Portofino Bay Hotel at Universal Orlando", "@spider": "loews", "addr:full": "5601 Universal Boulevard", "addr:city": "Orlando", "addr:state": "FL", "addr:postcode": "32819", "addr:country": "US", "name": "Loews Portofino Bay Hotel at Universal Orlando", "phone": "(407)503-1000", "brand": "Loews Hotels", "brand:wikidata": "Q6666622"}},
{"type": "Feature", "id": "DdXsqL77FsltWIMLSwo5PORcuZE=", "properties": {"ref": "Loews Ventana Canyon Resort", "@spider": "loews", "addr:full": "7000 N. Resort Drive", "addr:city": "Tucson", "addr:state": "Arizona", "addr:postcode": "85750", "addr:country": "US", "name": "Loews Ventana Canyon Resort", "phone": "520-299-2020", "brand": "Loews Hotels", "brand:wikidata": "Q6666622"}, "geometry": {"type": "Point", "coordinates": [-110.85078, 32.327842]}},
{"type": "Feature", "id": "EOVs6jDCnpwJZPBwzNXbVdObYYk=", "properties": {"ref": "Loews Vanderbilt Hotel", "@spider": "loews", "addr:full": "2100 West End Avenue", "addr:city": "Nashville", "addr:state": "Tennessee", "addr:postcode": "37203", "addr:country": "US", "name": "Loews Vanderbilt Hotel", "phone": "615-320-1700", "brand": "Loews Hotels", "brand:wikidata": "Q6666622"}, "geometry": {"type": "Point", "coordinates": [-86.802246, 36.150658]}},
{"type": "Feature", "id": "2U5iCmK1RtbZTOwdQIF-ectf7ok=", "properties": {"ref": "Loews Santa Monica Beach Hotel", "@spider": "loews", "addr:full": "1700 Ocean Avenue", "addr:city": "Santa Monica", "addr:state": "California", "addr:postcode": "90401", "addr:country": "US", "name": "Loews Santa Monica Beach Hotel", "phone": "310-458-6700", "brand": "Loews Hotels", "brand:wikidata": "Q6666622"}, "geometry": {"type": "Point", "coordinates": [-118.49301, 34.009357]}},
{"type": "Feature", "id": "JW6SLQFlijZxo3shEVRhNqku2kI=", "properties": {"ref": "Loews Regency New York", "@spider": "loews", "addr:full": "540 Park Avenue & 61st Street", "addr:city": "New York City", "addr:state": "New York", "addr:postcode": "10065", "addr:country": "US", "name": "Loews Regency New York", "phone": "212-759-4100", "brand": "Loews Hotels", "brand:wikidata": "Q6666622"}, "geometry": {"type": "Point", "coordinates": [-73.969153, 40.764518]}},
{"type": "Feature", "id": "vPITConm6SdzLES-Hn105j-WzRg=", "properties": {"ref": "Bisha Hotel Toronto", "@spider": "loews", "addr:full": "80 Blue Jays Way", "addr:city": "Toronto", "addr:state": "ON", "addr:postcode": "M5V 2G3", "addr:country": "CA", "name": "Bisha Hotel Toronto", "phone": "(416) 551-2800", "brand": "Loews Hotels", "brand:wikidata": "Q6666622"}, "geometry": {"type": "Point", "coordinates": [-79.3924496, 43.6453007]}}]}