{"type":"FeatureCollection","features":[{"type": "Feature", "id": "iEgBcat752nnougfnav4JrNIrI4=", "properties": {"ref": "ut_lehi_3700-n-cabela-s-blvd", "@spider": "loft", "clothes": "women", "shop": "clothes", "addr:full": "3700 N Cabela's Blvd", "addr:city": "Lehi", "addr:state": "Utah", "addr:postcode": "84043", "addr:country": "US", "name": "Traverse Mountain", "phone": "(801) 901-1291", "website": "https://stores.loft.com/outlet/us/ut/lehi/3700-n-cabela-s-blvd.html", "opening_hours": "Mo-Sa 10:00-20:00; Su 11:00-18:00", "brand": "LOFT Outlet", "brand:wikidata": "Q62075137", "nsi_id": "loft-0dc75b"}, "geometry": {"type": "Point", "coordinates": [-111.8844392, 40.4353734]}},
{"type": "Feature", "id": "kNYAmpg6FudoMDF383GTKJEO990=", "properties": {"ref": "wv_morgantown_414-suncrest-town-center-dr", "@spider": "loft", "clothes": "women", "shop": "clothes", "addr:full": "414 Suncrest Town Center Dr", "addr:city": "Morgantown", "addr:state": "West Virginia", "addr:postcode": "26505", "addr:country": "US", "name": "Suncrest Town Center", "phone": "(304) 296-0012", "website": "https://stores.loft.com/outlet/us/wv/morgantown/414-suncrest-town-center-dr.html", "opening_hours": "Mo-Sa 10:00-20:00; Su 12:00-18:00", "brand": "LOFT Outlet", "brand:wikidata": "Q62075137", "nsi_id": "loft-0dc75b"}, "geometry": {"type": "Point", "coordinates": [-79.943338, 39.652398]}},
{"type": "Feature", "id": "WiMKtcJzNeV_3lJrm2xXD4g0AII=", "properties": {"ref": "sc_bluffton_1414-fording-island-rd", "@spider": "loft", "clothes": "women", "shop": "clothes", "addr:full": "1414 Fording Island Rd", "addr:city": "Bluffton", "addr:state": "South Carolina", "addr:postcode": "29910", "addr:country": "US", "name": "Hilton Head", "phone": "(843) 837-1914", "website": "https://stores.loft.com/outlet/us/sc/bluffton/1414-fording-island-rd.html", "opening_hours": "Mo-Sa 10:00-21:00; Su 10:00-19:00", "brand": "LOFT Outlet", "brand:wikidata": "Q62075137", "nsi_id": "loft-0dc75b"}, "geometry": {"type": "Point", "coordinates": [-80.82084, 32.239851]}},
{"type": "Feature", "id": "tIaf0k8AqF7rpMzL5V4nOGQIn04=", "properties": {"ref": "pa_washington_2200-tanger-blvd", "@spider": "loft", "clothes": "women", "shop": "clothes", "addr:full": "2200 Tanger Blvd", "addr:city": "Washington", "addr:state": "Pennsylvania", "addr:postcode": "15301", "addr:country": "US", "name": "Pittsburgh", "phone": "(724) 223-0891", "website": "https://stores.loft.com/outlet/us/pa/washington/2200-tanger-blvd.html", "opening_hours": "Mo-Sa 10:00-21:00; Su 11:00-19:00", "brand": "LOFT Outlet", "brand:wikidata": "Q62075137", "nsi_id": "loft-0dc75b"}, "geometry": {"type": "Point", "coordinates": [-80.211851, 40.217091]}},
{"type": "Feature", "id": "aC-TzYQBqwMYwVAWogc_IzteicI=", "properties": {"ref": "or_woodburn_1001-arney-road", "@spider": "loft", "clothes": "women", "shop": "clothes", "addr:full": "1001 Arney Road", "addr:city": "Woodburn", "addr:state": "Oregon", "addr:postcode": "97071", "addr:country": "US", "name": "Woodburn", "phone": "(503) 981-1575", "website": "https://stores.loft.com/outlet/us/or/woodburn/1001-arney-road.html", "opening_hours": "Mo-Sa 10:00-20:00; Su 12:00-18:00", "brand": "LOFT Outlet", "brand:wikidata": "Q62075137", "nsi_id": "loft-0dc75b"}, "geometry": {"type": "Point", "coordinates": [-122.878408, 45.155816]}},
{"type": "Feature", "id": "lVWAMDFuwuuFPJOGM9PLniViXQs=", "properties": {"ref": "sc_north-charleston_4840-tanger-outlet-blvd", "@spider": "loft", "clothes": "women", "shop": "clothes", "addr:full": "4840 Tanger Outlet Blvd", "addr:city": "North Charleston", "addr:state": "South Carolina", "addr:postcode": "29418", "addr:country": "US", "name": "Charleston", "phone": "(843) 308-9971", "website": "https://stores.loft.com/outlet/us/sc/north-charleston/4840-tanger-outlet-blvd.html", "opening_hours": "Mo-Sa 10:00-21:00; Su 10:00-19:00", "brand": "LOFT Outlet", "brand:wikidata": "Q62075137", "nsi_id": "loft-0dc75b"}, "geometry": {"type": "Point", "coordinates": [-80.0188243, 32.8744518]}},
{"type": "Feature", "id": "-LsxHvAq78IqLPZPO7VB03jXYMk=", "properties": {"ref": "or_troutdale_450-nw-257th-way", "@spider": "loft", "clothes": "women", "shop": "clothes", "addr:full": "450 NW 257th Way", "addr:city": "Troutdale", "addr:state": "Oregon", "addr:postcode": "97060", "addr:country": "US", "name": "Columbia Gorge", "phone": "(503) 660-1151", "website": "https://stores.loft.com/outlet/us/or/troutdale/450-nw-257th-way.html", "opening_hours": "Mo-Sa 10:00-20:00; Su 10:00-18:00", "brand": "LOFT Outlet", "brand:wikidata": "Q62075137", "nsi_id": "loft-0dc75b"}, "geometry": {"type": "Point", "coordinates": [-122.3885399, 45.5442347]}},
{"type": "Feature", "id": "Jk4u2tySfd1p3YHO1Zx39-vYcUQ=", "properties": {"ref": "pa_pottstown_18-lightcap-rd", "@spider": "loft", "clothes": "women", "shop": "clothes", "addr:full": "18 Lightcap Rd", "addr:city": "Pottstown", "addr:state": "Pennsylvania", "addr:postcode": "19464", "addr:country": "US", "name": "Philadelphia Premium", "phone": "(610) 705-0750", "website": "https://stores.loft.com/outlet/us/pa/pottstown/18-lightcap-rd.html", "opening_hours": "Mo-Sa 10:00-21:00; Su 10:00-19:00", "brand": "LOFT Outlet", "brand:wikidata": "Q62075137", "nsi_id": "loft-0dc75b"}, "geometry": {"type": "Point", "coordinates": [-75.573136, 40.236629]}},
{"type": "Feature", "id": "D4A0A7uPXezJIH5yx1uVEBHiYa0=", "properties": {"ref": "pa_philadelphia_1625-chestnut-street", "@spider": "loft", "clothes": "women", "shop": "clothes", "addr:full": "1625 Chestnut Street", "addr:city": "Philadelphia", "addr:state": "Pennsylvania", "addr:postcode": "19103", "addr:country": "US", "name": "Liberty Village", "phone": "(215) 557-9181", "website": "https://stores.loft.com/outlet/us/pa/philadelphia/1625-chestnut-street.html", "opening_hours": "Mo-Sa 09:30-19:00; Su 12:00-18:00", "brand": "LOFT Outlet", "brand:wikidata": "Q62075137", "nsi_id": "loft-0dc75b"}, "geometry": {"type": "Point", "coordinates": [-75.1685339, 39.9515628]}},
{"type": "Feature", "id": "tM9lXE_XVP3NSQaSphYf2t6Mrqg=", "properties": {"ref": "pa_lancaster_35-south-willowdale-dr", "@spider": "loft", "clothes": "women", "shop": "clothes", "addr:full": "35 South Willowdale Dr", "addr:city": "Lancaster", "addr:state": "Pennsylvania", "addr:postcode": "17602", "addr:country": "US", "name": "Rockvale", "phone": "(717) 299-3919", "website": "https://stores.loft.com/outlet/us/pa/lancaster/35-south-willowdale-dr.html", "opening_hours": "Mo-Sa 10:00-20:00; Su 11:00-18:00", "brand": "LOFT Outlet", "brand:wikidata": "Q62075137", "nsi_id": "loft-0dc75b"}, "geometry": {"type": "Point", "coordinates": [-76.201251000166, 40.02175178420996]}},
{"type": "Feature", "id": "5DspvOqJR2IBsW2xs-_7PNpD-8A=", "properties": {"ref": "pa_grove-city_1911-leesburg-grove-city-rd", "@spider": "loft", "clothes": "women", "shop": "clothes", "addr:full": "1911 Leesburg Grove City Rd", "addr:city": "Grove City", "addr:state": "Pennsylvania", "addr:postcode": "16127", "addr:country": "US", "name": "Grove City", "phone": "(724) 748-3329", "website": "https://stores.loft.com/outlet/us/pa/grove-city/1911-leesburg-grove-city-rd.html", "opening_hours": "Mo-Th 10:00-20:00; Fr-Sa 10:00-21:00; Su 11:00-19:00", "brand": "LOFT Outlet", "brand:wikidata": "Q62075137", "nsi_id": "loft-0dc75b"}, "geometry": {"type": "Point", "coordinates": [-80.158108, 41.141809]}},
{"type": "Feature", "id": "rbPPzUfovWTyHc9fWjChIklm9zs=", "properties": {"ref": "va_williamsburg_5715-e081--richmond-road", "@spider": "loft", "clothes": "women", "shop": "clothes", "addr:full": "5715-E081 Richmond Road", "addr:city": "Williamsburg", "addr:state": "Virginia", "addr:postcode": "23188", "addr:country": "US", "name": "Williamsburg", "phone": "(757) 564-1790", "website": "https://stores.loft.com/outlet/us/va/williamsburg/5715-e081--richmond-road.html", "opening_hours": "Mo-Th 11:00-20:00; Fr-Sa 10:00-21:00; Su 11:00-19:00", "brand": "LOFT Outlet", "brand:wikidata": "Q62075137", "nsi_id": "loft-0dc75b"}, "geometry": {"type": "Point", "coordinates": [-76.73848003149033, 37.32188857334803]}},
{"type": "Feature", "id": "lHIOzaMqpHuVho5Z0p5aZkuMEhc=", "properties": {"ref": "pa_tannersville_1000-premium-outlets-drive", "@spider": "loft", "clothes": "women", "shop": "clothes", "addr:full": "1000 Premium Outlets Drive", "addr:city": "Tannersville", "addr:state": "Pennsylvania", "addr:postcode": "18372", "addr:country": "US", "name": "Tannersville Crossings", "phone": "(570) 620-3094", "website": "https://stores.loft.com/outlet/us/pa/tannersville/1000-premium-outlets-drive.html", "opening_hours": "Mo-Sa 10:00-21:00; Su 10:00-19:00", "brand": "LOFT Outlet", "brand:wikidata": "Q62075137", "nsi_id": "loft-0dc75b"}, "geometry": {"type": "Point", "coordinates": [-75.312296, 41.046526]}},
{"type": "Feature", "id": "wtdwbBpuU8U3sx3IE0z9ZvMoAag=", "properties": {"ref": "tx_waco_2428-west-loop-340", "@spider": "loft", "clothes": "women", "shop": "clothes", "addr:full": "2428 West Loop 340", "addr:city": "Waco", "addr:state": "Texas", "addr:postcode": "76711", "addr:country": "US", "name": "Central Texas Marketplace", "phone": "(254) 662-0148", "website": "https://stores.loft.com/outlet/us/tx/waco/2428-west-loop-340.html", "opening_hours": "Mo-Sa 10:00-20:00; Su 12:00-18:00", "brand": "LOFT Outlet", "brand:wikidata": "Q62075137", "nsi_id": "loft-0dc75b"}, "geometry": {"type": "Point", "coordinates": [-97.1593428, 31.4985824]}},
{"type": "Feature", "id": "2QMr8TS7e1gmoGcbTa1suHnfw7w=", "properties": {"ref": "tx_texas-city_5885-gulf-freeway", "@spider": "loft", "clothes": "women", "shop": "clothes", "addr:full": "5885 Gulf Freeway", "addr:city": "Texas City", "addr:state": "Texas", "addr:postcode": "77591", "addr:country": "US", "name": "Texas City", "phone": "(281) 337-6965", "website": "https://stores.loft.com/outlet/us/tx/texas-city/5885-gulf-freeway.html", "opening_hours": "Mo-Sa 10:00-21:00", "brand": "LOFT Outlet", "brand:wikidata": "Q62075137", "nsi_id": "loft-0dc75b"}, "geometry": {"type": "Point", "coordinates": [-95.0587402, 29.4242995]}},
{"type": "Feature", "id": "gIvl9npro3BrLTFzIfCisPvSqfY=", "properties": {"ref": "pa_hershey_46-outlet-square", "@spider": "loft", "clothes": "women", "shop": "clothes", "addr:full": "46 Outlet Square", "addr:city": "Hershey", "addr:state": "Pennsylvania", "addr:postcode": "17033", "addr:country": "US", "name": "Hershey", "phone": "(717) 534-2691", "website": "https://stores.loft.com/outlet/us/pa/hershey/46-outlet-square.html", "opening_hours": "Mo-Sa 10:00-21:00; Su 10:00-19:00", "brand": "LOFT Outlet", "brand:wikidata": "Q62075137", "nsi_id": "loft-0dc75b"}, "geometry": {"type": "Point", "coordinates": [-76.64858020676327, 40.29383066657064]}},
{"type": "Feature", "id": "u6HmC59XkpKYRuwU5RiRwiMVdoQ=", "properties": {"ref": "tx_san-marcos_4015-interstate-35-south", "@spider": "loft", "clothes": "women", "shop": "clothes", "addr:full": "4015 Interstate 35 South", "addr:city": "San Marcos", "addr:state": "Texas", "addr:postcode": "78666", "addr:country": "US", "name": "San Marcos", "phone": "(512) 392-3855", "website": "https://stores.loft.com/outlet/us/tx/san-marcos/4015-interstate-35-south.html", "opening_hours": "Mo-Th 10:00-20:00; Fr-Sa 10:00-21:00; Su 10:00-19:00", "brand": "LOFT Outlet", "brand:wikidata": "Q62075137", "nsi_id": "loft-0dc75b"}, "geometry": {"type": "Point", "coordinates": [-97.984146, 29.8253319]}},
{"type": "Feature", "id": "tcCEGZlROVFwX4hsyQoTOaGCNNw=", "properties": {"ref": "wa_tulalip_10600-quil-ceda-blvd", "@spider": "loft", "clothes": "women", "shop": "clothes", "addr:full": "10600 Quil Ceda Blvd", "addr:city": "Tulalip", "addr:state": "Washington", "addr:postcode": "98271", "addr:country": "US", "name": "Seattle Premium", "phone": "(360) 716-3500", "website": "https://stores.loft.com/outlet/us/wa/tulalip/10600-quil-ceda-blvd.html", "opening_hours": "Mo-Th 11:00-19:00; Fr-Sa 10:00-20:00; Su 11:00-19:00", "brand": "LOFT Outlet", "brand:wikidata": "Q62075137", "nsi_id": "loft-0dc75b"}, "geometry": {"type": "Point", "coordinates": [-122.187699, 48.094895]}},
{"type": "Feature", "id": "PXQB-o7s0SVBu44IFuYenYRZgpA=", "properties": {"ref": "va_norfolk_1600-premium-outlet-blvd", "@spider": "loft", "clothes": "women", "shop": "clothes", "addr:full": "1600 Premium Outlet Blvd", "addr:city": "Norfolk", "addr:state": "Virginia", "addr:postcode": "23502", "addr:country": "US", "name": "Norfolk Premium", "phone": "(757) 459-2032", "website": "https://stores.loft.com/outlet/us/va/norfolk/1600-premium-outlet-blvd.html", "opening_hours": "Mo-Th 11:00-20:00; Fr-Sa 10:00-21:00; Su 11:00-19:00", "brand": "LOFT Outlet", "brand:wikidata": "Q62075137", "nsi_id": "loft-0dc75b"}, "geometry": {"type": "Point", "coordinates": [-76.2007166, 36.8814046]}},
{"type": "Feature", "id": "KKwyXJLIQwpAkZ7CThtZl66TWf0=", "properties": {"ref": "wa_auburn_1101-outlet-collection-way", "@spider": "loft", "clothes": "women", "shop": "clothes", "addr:full": "1101 Outlet Collection Way", "addr:city": "Auburn", "addr:state": "Washington", "addr:postcode": "98001", "addr:country": "US", "name": "Seattle Collections", "phone": "(253) 833-7213", "website": "https://stores.loft.com/outlet/us/wa/auburn/1101-outlet-collection-way.html", "opening_hours": "Mo-Th 11:00-20:00; Fr-Sa 10:00-20:00; Su 11:00-19:00", "brand": "LOFT Outlet", "brand:wikidata": "Q62075137", "nsi_id": "loft-0dc75b"}, "geometry": {"type": "Point", "coordinates": [-122.2444667, 47.2984231]}},
{"type": "Feature", "id": "rB2rLqyehQHSRjCG-Cn9z97chkk=", "properties": {"ref": "tx_round-rock_4401-north-ih-35", "@spider": "loft", "clothes": "women", "shop": "clothes", "addr:full": "4401 North IH-35", "addr:city": "Round Rock", "addr:state": "Texas", "addr:postcode": "78664", "addr:country": "US", "name": "Round Rock", "phone": "(512) 863-4549", "website": "https://stores.loft.com/outlet/us/tx/round-rock/4401-north-ih-35.html", "opening_hours": "Mo-Sa 10:00-21:00; Su 11:00-19:00", "brand": "LOFT Outlet", "brand:wikidata": "Q62075137", "nsi_id": "loft-0dc75b"}, "geometry": {"type": "Point", "coordinates": [-97.6903586089611, 30.56500624293156]}},
{"type": "Feature", "id": "ScT8diGfX9L5i_UCAPDYnvKNJa4=", "properties": {"ref": "tx_mercedes_5001-east-expressway-83", "@spider": "loft", "clothes": "women", "shop": "clothes", "addr:full": "5001 East Expressway 83", "addr:city": "Mercedes", "addr:state": "Texas", "addr:postcode": "78570", "addr:country": "US", "name": "Rio Grande Valley", "phone": "(956) 514-1513", "website": "https://stores.loft.com/outlet/us/tx/mercedes/5001-east-expressway-83.html", "opening_hours": "Mo-Sa 10:00-21:00; Su 11:00-19:00", "brand": "LOFT Outlet", "brand:wikidata": "Q62075137", "nsi_id": "loft-0dc75b"}, "geometry": {"type": "Point", "coordinates": [-97.8875322, 26.1640284]}},
{"type": "Feature", "id": "daUI904zme4ticMgBdspIt_ab_k=", "properties": {"ref": "tx_grapevine_3000-grapevine-mills-pkwy", "@spider": "loft", "clothes": "women", "shop": "clothes", "addr:full": "3000 Grapevine Mills Pkwy", "addr:city": "Grapevine", "addr:state": "Texas", "addr:postcode": "76051", "addr:country": "US", "name": "Grapevine Mills", "phone": "(972) 355-8860", "website": "https://stores.loft.com/outlet/us/tx/grapevine/3000-grapevine-mills-pkwy.html", "opening_hours": "Mo-Sa 10:00-21:00; Su 11:00-19:00", "brand": "LOFT Outlet", "brand:wikidata": "Q62075137", "nsi_id": "loft-0dc75b"}, "geometry": {"type": "Point", "coordinates": [-97.04331, 32.964197]}},
{"type": "Feature", "id": "Jq9irKoxIIDxjWsVuVzEhOtkLWU=", "properties": {"ref": "tx_allen_820-west-stacy-road", "@spider": "loft", "clothes": "women", "shop": "clothes", "addr:full": "820 West Stacy Road", "addr:city": "Allen", "addr:state": "Texas", "addr:postcode": "75013", "addr:country": "US", "name": "Allen Premium", "phone": "(972) 678-4571", "website": "https://stores.loft.com/outlet/us/tx/allen/820-west-stacy-road.html", "opening_hours": "Mo-Sa 10:00-21:00; Su 11:00-18:00", "brand": "LOFT Outlet", "brand:wikidata": "Q62075137", "nsi_id": "loft-0dc75b"}, "geometry": {"type": "Point", "coordinates": [-96.6627892, 33.1311222]}},
{"type": "Feature", "id": "2Rt2ZTnZt3cpXkeTQIdm23TSHN0=", "properties": {"ref": "wi_wisconsin-dells_210-n-gasser-road", "@spider": "loft", "clothes": "women", "shop": "clothes", "addr:full": "210 N Gasser Road", "addr:city": "Wisconsin Dells", "addr:state": "Wisconsin", "addr:postcode": "53965", "addr:country": "US", "name": "Wisconsin Dells", "phone": "(608) 253-1676", "website": "https://stores.loft.com/outlet/us/wi/wisconsin-dells/210-n-gasser-road.html", "opening_hours": "Mo-Sa 10:00-20:00; Su 10:00-19:00", "brand": "LOFT Outlet", "brand:wikidata": "Q62075137", "nsi_id": "loft-0dc75b"}, "geometry": {"type": "Point", "coordinates": [-89.785841, 43.57223356723853]}},
{"type": "Feature", "id": "aZE4yz0cDmddnEjfzP-jgIs3Am0=", "properties": {"ref": "sc_myrtle-beach_4635-factory-stores-boulevard", "@spider": "loft", "clothes": "women", "shop": "clothes", "addr:full": "4635 Factory Stores Boulevard", "addr:city": "Myrtle Beach", "addr:state": "South Carolina", "addr:postcode": "29579", "addr:country": "US", "name": "Myrtle Beach (Highway 501)", "phone": "(843) 903-2735", "website": "https://stores.loft.com/outlet/us/sc/myrtle-beach/4635-factory-stores-boulevard.html", "opening_hours": "Mo-Sa 10:00-21:00; Su 10:00-19:00", "brand": "LOFT Outlet", "brand:wikidata": "Q62075137", "nsi_id": "loft-0dc75b"}, "geometry": {"type": "Point", "coordinates": [-78.959305, 33.751264]}},
{"type": "Feature", "id": "tqX-V4YgDhl0uvPRzDiOklxKk_Q=", "properties": {"ref": "tx_fort-worth_15853-north-freeway", "@spider": "loft", "clothes": "women", "shop": "clothes", "addr:full": "15853 North Freeway", "addr:city": "Fort Worth", "addr:state": "Texas", "addr:postcode": "76177", "addr:country": "US", "name": "Fort Worth", "phone": "(682) 831-0310", "website": "https://stores.loft.com/outlet/us/tx/fort-worth/15853-north-freeway.html", "opening_hours": "Mo-Sa 10:00-21:00; Su 10:00-19:00", "brand": "LOFT Outlet", "brand:wikidata": "Q62075137", "nsi_id": "loft-0dc75b"}, "geometry": {"type": "Point", "coordinates": [-97.28145166110355, 33.0217618703121]}},
{"type": "Feature", "id": "Vx658507OoH-sfdYAJTrvV7Lr2M=", "properties": {"ref": "tx_katy_5000-katy-mills-circle", "@spider": "loft", "clothes": "women", "shop": "clothes", "addr:full": "5000 Katy Mills Circle", "addr:city": "Katy", "addr:state": "Texas", "addr:postcode": "77494", "addr:country": "US", "name": "Katy Mills", "phone": "(281) 644-2600", "website": "https://stores.loft.com/outlet/us/tx/katy/5000-katy-mills-circle.html", "opening_hours": "Mo-Sa 10:00-21:00; Su 11:00-18:00", "brand": "LOFT Outlet", "brand:wikidata": "Q62075137", "nsi_id": "loft-0dc75b"}, "geometry": {"type": "Point", "coordinates": [-95.80930976455689, 29.775870878986776]}},
{"type": "Feature", "id": "U6i-k-tcUH_ZidoyCXx-boi0rLI=", "properties": {"ref": "va_leesburg_241-ft-evans-road-ne", "@spider": "loft", "clothes": "women", "shop": "clothes", "addr:full": "241 Ft Evans Road NE", "addr:city": "Leesburg", "addr:state": "Virginia", "addr:postcode": "20176", "addr:country": "US", "name": "Leesburg", "phone": "(703) 779-2067", "website": "https://stores.loft.com/outlet/us/va/leesburg/241-ft-evans-road-ne.html", "opening_hours": "Mo-Sa 10:00-21:00; Su 10:00-19:00", "brand": "LOFT Outlet", "brand:wikidata": "Q62075137", "nsi_id": "loft-0dc75b"}, "geometry": {"type": "Point", "coordinates": [-77.5378642, 39.1066562]}},
{"type": "Feature", "id": "TNZZt82KMSeWnlwqYrUF9HlMBOg=", "properties": {"ref": "tx_cypress_29300-hempstead-road", "@spider": "loft", "clothes": "women", "shop": "clothes", "addr:full": "29300 Hempstead Road", "addr:city": "Cypress", "addr:state": "Texas", "addr:postcode": "77433", "addr:country": "US", "name": "Houston Premium", "phone": "(281) 758-3451", "website": "https://stores.loft.com/outlet/us/tx/cypress/29300-hempstead-road.html", "opening_hours": "Mo-Th 10:00-20:00; Fr-Sa 10:00-21:00; Su 11:00-19:00", "brand": "LOFT Outlet", "brand:wikidata": "Q62075137", "nsi_id": "loft-0dc75b"}, "geometry": {"type": "Point", "coordinates": [-95.7555823, 29.9959519]}},
{"type": "Feature", "id": "70ZXZok3VOpfZoSUW5qp7zxZZeo=", "properties": {"ref": "sc_myrtle-beach_10823-kings-rd", "@spider": "loft", "clothes": "women", "shop": "clothes", "addr:full": "10823 Kings Rd", "addr:city": "Myrtle Beach", "addr:state": "South Carolina", "addr:postcode": "29572", "addr:country": "US", "name": "Myrtle Beach (Highway 17)", "phone": "(843) 839-1853", "website": "https://stores.loft.com/outlet/us/sc/myrtle-beach/10823-kings-rd.html", "opening_hours": "Mo-Sa 10:00-21:00; Su 10:00-19:00", "brand": "LOFT Outlet", "brand:wikidata": "Q62075137", "nsi_id": "loft-0dc75b"}, "geometry": {"type": "Point", "coordinates": [-78.772926, 33.784012]}},
{"type": "Feature", "id": "iP92ms-ovoVVjLq37q1eP5hAs5k=", "properties": {"ref": "wi_johnson-creek_595-w-linmar-lane", "@spider": "loft", "clothes": "women", "shop": "clothes", "addr:full": "595 W Linmar Lane", "addr:city": "Johnson Creek", "addr:state": "Wisconsin", "addr:postcode": "53038", "addr:country": "US", "name": "Johnson Creek", "phone": "(920) 699-5990", "website": "https://stores.loft.com/outlet/us/wi/johnson-creek/595-w-linmar-lane.html", "opening_hours": "Mo-Th 10:00-19:00; Fr-Sa 10:00-20:00; Su 11:00-18:00", "brand": "LOFT Outlet", "brand:wikidata": "Q62075137", "nsi_id": "loft-0dc75b"}, "geometry": {"type": "Point", "coordinates": [-88.763516, 43.0877768]}},
{"type": "Feature", "id": "8bsfT_ombq0u64t-U-T33hCQFi4=", "properties": {"ref": "tn_nashville_207-opry-mills-circle", "@spider": "loft", "clothes": "women", "shop": "clothes", "addr:full": "207 Opry Mills Circle", "addr:city": "Nashville", "addr:state": "Tennessee", "addr:postcode": "37214", "addr:country": "US", "name": "Opry Mills", "phone": "(615) 514-3755", "website": "https://stores.loft.com/outlet/us/tn/nashville/207-opry-mills-circle.html", "opening_hours": "Mo-Sa 10:00-20:00; Su 11:00-18:00", "brand": "LOFT Outlet", "brand:wikidata": "Q62075137", "nsi_id": "loft-0dc75b"}, "geometry": {"type": "Point", "coordinates": [-86.691739, 36.203722]}},
{"type": "Feature", "id": "mRH9kLTlwhxcNpGwoXDi0PI_6f4=", "properties": {"ref": "tn_murfreesboro_2615-medical-center-parkway", "@spider": "loft", "clothes": "women", "shop": "clothes", "addr:full": "2615 Medical Center Parkway", "addr:city": "Murfreesboro", "addr:state": "Tennessee", "addr:postcode": "37129", "addr:country": "US", "name": "Avenue at Murfreesboro", "phone": "(615) 907-9797", "website": "https://stores.loft.com/outlet/us/tn/murfreesboro/2615-medical-center-parkway.html", "opening_hours": "Mo-Th 10:00-19:00; Fr-Sa 10:00-20:00; Su 12:00-18:00", "brand": "LOFT Outlet", "brand:wikidata": "Q62075137", "nsi_id": "loft-0dc75b"}, "geometry": {"type": "Point", "coordinates": [-86.4451373, 35.8576388]}},
{"type": "Feature", "id": "iIV2HXJroJKkaIPVu2iatE0m-vg=", "properties": {"ref": "wi_pleasant-prairie_11211-120th-ave", "@spider": "loft", "clothes": "women", "shop": "clothes", "addr:full": "11211 120th Ave", "addr:city": "Pleasant Prairie", "addr:state": "Wisconsin", "addr:postcode": "53158", "addr:country": "US", "name": "Pleasant Prairie", "phone": "(262) 857-4043", "website": "https://stores.loft.com/outlet/us/wi/pleasant-prairie/11211-120th-ave.html", "opening_hours": "Mo-Fr 10:00-19:00; Sa 10:00-20:00; Su 11:00-18:00", "brand": "LOFT Outlet", "brand:wikidata": "Q62075137", "nsi_id": "loft-0dc75b"}, "geometry": {"type": "Point", "coordinates": [-87.9505564, 42.5160109]}},
{"type": "Feature", "id": "SzUBz6r3ot9qhDThWJZlBvtXWpk=", "properties": {"ref": "tn_bristol_546-pinnacle-parkway", "@spider": "loft", "clothes": "women", "shop": "clothes", "addr:full": "546 Pinnacle Parkway", "addr:city": "Bristol", "addr:state": "Tennessee", "addr:postcode": "37620", "addr:country": "US", "name": "Shops at Pinnacle", "phone": "(423) 652-0605", "website": "https://stores.loft.com/outlet/us/tn/bristol/546-pinnacle-parkway.html", "opening_hours": "Mo-Sa 10:00-21:00; Su 12:00-18:00", "brand": "LOFT Outlet", "brand:wikidata": "Q62075137", "nsi_id": "loft-0dc75b"}, "geometry": {"type": "Point", "coordinates": [-82.256971, 36.595164]}},
{"type": "Feature", "id": "pAG3QZJLZRBoQo5Da8cDWhTuA8k=", "properties": {"ref": "tn_sevierville_1645-parkway-960", "@spider": "loft", "clothes": "women", "shop": "clothes", "addr:full": "1645 Parkway 960", "addr:city": "Sevierville", "addr:state": "Tennessee", "addr:postcode": "37862", "addr:country": "US", "name": "Sevierville", "phone": "(865) 428-1855", "website": "https://stores.loft.com/outlet/us/tn/sevierville/1645-parkway-960.html", "opening_hours": "Mo-Sa 10:00-21:00; Su 10:00-19:00", "brand": "LOFT Outlet", "brand:wikidata": "Q62075137", "nsi_id": "loft-0dc75b"}, "geometry": {"type": "Point", "coordinates": [-83.56944432638932, 35.831355777915434]}},
{"type": "Feature", "id": "Z--p-bBgtg0ulDI6xlYbrL_rid4=", "properties": {"ref": "wv_charleston_3000-charleston-town-center", "@spider": "loft", "clothes": "women", "shop": "clothes", "addr:full": "3000 Charleston Town Center", "addr:city": "Charleston", "addr:state": "West Virginia", "addr:postcode": "25389", "addr:country": "US", "name": "Charleston Town Center", "phone": "(304) 342-4760", "website": "https://stores.loft.com/outlet/us/wv/charleston/3000-charleston-town-center.html", "opening_hours": "Mo-We 11:00-19:00; Th-Sa 11:00-20:00; Su 12:30-18:00", "brand": "LOFT Outlet", "brand:wikidata": "Q62075137", "nsi_id": "loft-0dc75b"}, "geometry": {"type": "Point", "coordinates": [-81.6379946, 38.3543039]}},
{"type": "Feature", "id": "4yp7CvgaLBGoVG80jhbVGoau6No=", "properties": {"ref": "ne_gretna_21317-nebraska-crossing-drive", "@spider": "loft", "clothes": "women", "shop": "clothes", "addr:full": "21317 Nebraska Crossing Drive", "addr:city": "Gretna", "addr:state": "Nebraska", "addr:postcode": "68028", "addr:country": "US", "name": "Nebraska Crossings", "phone": "(402) 332-5453", "website": "https://stores.loft.com/outlet/us/ne/gretna/21317-nebraska-crossing-drive.html", "opening_hours": "Mo-Sa 10:00-20:00; Su 11:00-18:00", "brand": "LOFT Outlet", "brand:wikidata": "Q62075137", "nsi_id": "loft-0dc75b"}, "geometry": {"type": "Point", "coordinates": [-96.24921709299088, 41.098647546670286]}},
{"type": "Feature", "id": "n9vH_M25O20jxvykihEyJMgLw-8=", "properties": {"ref": "mn_eagan_3965-eagan-outlets-parkway", "@spider": "loft", "clothes": "women", "shop": "clothes", "addr:full": "3965 Eagan Outlets Parkway", "addr:city": "Eagan", "addr:state": "Minnesota", "addr:postcode": "55122", "addr:country": "US", "name": "Eagan", "phone": "(651) 686-0773", "website": "https://stores.loft.com/outlet/us/mn/eagan/3965-eagan-outlets-parkway.html", "opening_hours": "Mo-Th 10:00-20:00; Fr-Sa 10:00-21:00; Su 11:00-19:00", "brand": "LOFT Outlet", "brand:wikidata": "Q62075137", "nsi_id": "loft-0dc75b"}, "geometry": {"type": "Point", "coordinates": [-93.21524246041263, 44.81540166217082]}},
{"type": "Feature", "id": "JA9ysQaQ_1dDK--Jqt72xw3Io5U=", "properties": {"ref": "la_gonzales_2410-tanger-blvd", "@spider": "loft", "clothes": "women", "shop": "clothes", "addr:full": "2410 Tanger Blvd", "addr:city": "Gonzales", "addr:state": "Louisiana", "addr:postcode": "70737", "addr:country": "US", "name": "Gonzales", "phone": "(225) 644-7104", "website": "https://stores.loft.com/outlet/us/la/gonzales/2410-tanger-blvd.html", "opening_hours": "Mo-Sa 10:00-21:00; Su 10:00-19:00", "brand": "LOFT Outlet", "brand:wikidata": "Q62075137", "nsi_id": "loft-0dc75b"}, "geometry": {"type": "Point", "coordinates": [-90.95182223270967, 30.21279563737439]}},
{"type": "Feature", "id": "l-NZcOC9EdHV4jDXd2UmfGZxp7Y=", "properties": {"ref": "ky_simpsonville_1155-buckcreek-road", "@spider": "loft", "clothes": "women", "shop": "clothes", "addr:full": "1155 Buckcreek Road", "addr:city": "Simpsonville", "addr:state": "Kentucky", "addr:postcode": "40067", "addr:country": "US", "name": "Bluegrass", "phone": "(502) 722-5652", "website": "https://stores.loft.com/outlet/us/ky/simpsonville/1155-buckcreek-road.html", "opening_hours": "Mo-Sa 10:00-21:00; Su 11:00-19:00", "brand": "LOFT Outlet", "brand:wikidata": "Q62075137", "nsi_id": "loft-0dc75b"}, "geometry": {"type": "Point", "coordinates": [-85.35213343799114, 38.206037800561305]}},
{"type": "Feature", "id": "jGJGEopW6eja1qTGtdxEOBe39A0=", "properties": {"ref": "ks_kansas-city_1803-village-west-pkwy", "@spider": "loft", "clothes": "women", "shop": "clothes", "addr:full": "1803 Village West Pkwy", "addr:city": "Kansas City", "addr:state": "Kansas", "addr:postcode": "66111", "addr:country": "US", "name": "Kansas City", "phone": "(913) 299-1174", "website": "https://stores.loft.com/outlet/us/ks/kansas-city/1803-village-west-pkwy.html", "opening_hours": "Mo-Sa 11:00-18:00; Su 12:00-18:00", "brand": "LOFT Outlet", "brand:wikidata": "Q62075137", "nsi_id": "loft-0dc75b"}, "geometry": {"type": "Point", "coordinates": [-94.825283, 39.125661]}},
{"type": "Feature", "id": "iTL3TM1gUVlDTm4uiIboWKVSENM=", "properties": {"ref": "ia_altoona_739-bass-pro-drive-nw", "@spider": "loft", "clothes": "women", "shop": "clothes", "addr:full": "739 Bass Pro Drive NW", "addr:city": "Altoona", "addr:state": "Iowa", "addr:postcode": "50009", "addr:country": "US", "name": "Des Moines", "phone": "(515) 957-0796", "website": "https://stores.loft.com/outlet/us/ia/altoona/739-bass-pro-drive-nw.html", "opening_hours": "Mo-Th 10:00-19:00; Fr-Sa 10:00-20:00; Su 11:00-18:00", "brand": "LOFT Outlet", "brand:wikidata": "Q62075137", "nsi_id": "loft-0dc75b"}, "geometry": {"type": "Point", "coordinates": [-93.513028, 41.656651]}},
{"type": "Feature", "id": "VwnpniawY4sEpZkFW9OdKjP-xqw=", "properties": {"ref": "de_rehoboth-beach_4561-state-route-1", "@spider": "loft", "clothes": "women", "shop": "clothes", "addr:full": "4561 State Route 1", "addr:city": "Rehoboth Beach", "addr:state": "Delaware", "addr:postcode": "19971", "addr:country": "US", "name": "Rehoboth Beach", "phone": "(302) 645-8350", "website": "https://stores.loft.com/outlet/us/de/rehoboth-beach/4561-state-route-1.html", "opening_hours": "Mo-We 11:00-18:00; Th-Sa 11:00-19:00; Su 12:00-18:00", "brand": "LOFT Outlet", "brand:wikidata": "Q62075137", "nsi_id": "loft-0dc75b"}, "geometry": {"type": "Point", "coordinates": [-75.140021, 38.7336094]}},
{"type": "Feature", "id": "AMrOVle6ESxvrf5UIWWWygmc_wE=", "properties": {"ref": "nj_tinton-falls_one-premium-outlets-blvd", "@spider": "loft", "clothes": "women", "shop": "clothes", "addr:full": "One Premium Outlets Blvd", "addr:city": "Tinton Falls", "addr:state": "New Jersey", "addr:postcode": "07753", "addr:country": "US", "name": "Jersey Shore", "phone": "(732) 493-2396", "website": "https://stores.loft.com/outlet/us/nj/tinton-falls/one-premium-outlets-blvd.html", "opening_hours": "Mo-Sa 10:00-21:00; Su 10:00-19:00", "brand": "LOFT Outlet", "brand:wikidata": "Q62075137", "nsi_id": "loft-0dc75b"}, "geometry": {"type": "Point", "coordinates": [-74.09480564296246, 40.22285006935089]}},
{"type": "Feature", "id": "Svz17zDZBzeGsdW_4YctIBmgJPc=", "properties": {"ref": "ny_riverhead_918-tanger-mall-dr", "@spider": "loft", "clothes": "women", "shop": "clothes", "addr:full": "918 Tanger Mall Dr", "addr:city": "Riverhead", "addr:state": "New York", "addr:postcode": "11901", "addr:country": "US", "name": "Riverhead", "phone": "(631) 369-2207", "website": "https://stores.loft.com/outlet/us/ny/riverhead/918-tanger-mall-dr.html", "opening_hours": "Mo-Sa 10:00-21:00; Su 10:00-19:00", "brand": "LOFT Outlet", "brand:wikidata": "Q62075137", "nsi_id": "loft-0dc75b"}, "geometry": {"type": "Point", "coordinates": [-72.712983, 40.918915]}},
{"type": "Feature", "id": "Fq-S8Qi8hyyHf-_ftMvKNElgZPM=", "properties": {"ref": "nj_woodbridge_250-woodbridge-center-dr-", "@spider": "loft", "clothes": "women", "shop": "clothes", "addr:full": "250 Woodbridge Center Dr.", "addr:city": "Woodbridge", "addr:state": "New Jersey", "addr:postcode": "07095", "addr:country": "US", "name": "Woodbridge Center", "phone": "(732) 634-5455", "website": "https://stores.loft.com/outlet/us/nj/woodbridge/250-woodbridge-center-dr-.html", "opening_hours": "Mo-Th 11:00-20:00; Fr-Sa 10:00-21:00; Su 11:00-18:00", "brand": "LOFT Outlet", "brand:wikidata": "Q62075137", "nsi_id": "loft-0dc75b"}, "geometry": {"type": "Point", "coordinates": [-74.2987202, 40.5569591]}},
{"type": "Feature", "id": "pPHFKJQchPZdfxUEHTjq4CjE86k=", "properties": {"ref": "oh_sunbury_400-south-wilson-road", "@spider": "loft", "clothes": "women", "shop": "clothes", "addr:full": "400 South Wilson Road", "addr:city": "Sunbury", "addr:state": "Ohio", "addr:postcode": "43074", "addr:country": "US", "name": "Columbus", "phone": "(740) 965-6961", "website": "https://stores.loft.com/outlet/us/oh/sunbury/400-south-wilson-road.html", "opening_hours": "Mo-Sa 10:00-21:00; Su 10:00-19:00", "brand": "LOFT Outlet", "brand:wikidata": "Q62075137", "nsi_id": "loft-0dc75b"}, "geometry": {"type": "Point", "coordinates": [-82.92494699999997, 40.25999506307925]}},
{"type": "Feature", "id": "D2pAukyU1F8Y74c3wt3WbeydswA=", "properties": {"ref": "oh_monroe_400-premium-outlets-drive", "@spider": "loft", "clothes": "women", "shop": "clothes", "addr:full": "400 Premium Outlets Drive", "addr:city": "Monroe", "addr:state": "Ohio", "addr:postcode": "45050", "addr:country": "US", "name": "Cincinnati Premium", "phone": "(513) 360-0108", "website": "https://stores.loft.com/outlet/us/oh/monroe/400-premium-outlets-drive.html", "opening_hours": "Mo-Th 10:00-19:00; Fr-Sa 10:00-20:00; Su 12:00-18:00", "brand": "LOFT Outlet", "brand:wikidata": "Q62075137", "nsi_id": "loft-0dc75b"}, "geometry": {"type": "Point", "coordinates": [-84.3384549, 39.433041]}},
{"type": "Feature", "id": "GfmW4tRcWSId6fj5wo1apwWfEjM=", "properties": {"ref": "nj_livingston_112-eisenhower-parkway", "@spider": "loft", "clothes": "women", "shop": "clothes", "addr:full": "112 Eisenhower Parkway", "addr:city": "Livingston", "addr:state": "New Jersey", "addr:postcode": "07039", "addr:country": "US", "name": "Livingston Mall", "phone": "(973) 994-0801", "website": "https://stores.loft.com/outlet/us/nj/livingston/112-eisenhower-parkway.html", "opening_hours": "Mo-Th 11:00-20:00; Fr-Sa 10:00-21:00; Su 12:00-18:00", "brand": "LOFT Outlet", "brand:wikidata": "Q62075137", "nsi_id": "loft-0dc75b"}, "geometry": {"type": "Point", "coordinates": [-74.3537211, 40.7763589]}},
{"type": "Feature", "id": "IdYO9WSeQmMgH-nEf1VYD7dC2S8=", "properties": {"ref": "ny_waterloo_655-route-318", "@spider": "loft", "clothes": "women", "shop": "clothes", "addr:full": "655 Route 318", "addr:city": "Waterloo", "addr:state": "New York", "addr:postcode": "13165", "addr:country": "US", "name": "Waterloo", "phone": "(315) 539-0930", "website": "https://stores.loft.com/outlet/us/ny/waterloo/655-route-318.html", "opening_hours": "Mo-Sa 10:00-20:00; Su 10:00-18:00", "brand": "LOFT Outlet", "brand:wikidata": "Q62075137", "nsi_id": "loft-0dc75b"}, "geometry": {"type": "Point", "coordinates": [-76.924343, 42.956621]}},
{"type": "Feature", "id": "DFAt8ThB1VmtpE1Los5hFbp3fOs=", "properties": {"ref": "oh_jeffersonville_8160-factory-shops-blvd", "@spider": "loft", "clothes": "women", "shop": "clothes", "addr:full": "8160 Factory Shops Blvd", "addr:city": "Jeffersonville", "addr:state": "Ohio", "addr:postcode": "43128", "addr:country": "US", "name": "Jeffersonville", "phone": "(740) 948-9201", "website": "https://stores.loft.com/outlet/us/oh/jeffersonville/8160-factory-shops-blvd.html", "opening_hours": "Mo-Sa 11:00-19:00; Su 12:00-18:00", "brand": "LOFT Outlet", "brand:wikidata": "Q62075137", "nsi_id": "loft-0dc75b"}, "geometry": {"type": "Point", "coordinates": [-83.60273569822311, 39.61927482292792]}},
{"type": "Feature", "id": "WDxFep5ZNYJRmQ0IjTWzRqsM5_Y=", "properties": {"ref": "oh_aurora_549-s-chillicothe-rd", "@spider": "loft", "clothes": "women", "shop": "clothes", "addr:full": "549 S Chillicothe Rd", "addr:city": "Aurora", "addr:state": "Ohio", "addr:postcode": "44202", "addr:country": "US", "name": "Aurora Farms", "phone": "(330) 995-0386", "website": "https://stores.loft.com/outlet/us/oh/aurora/549-s-chillicothe-rd.html", "opening_hours": "Mo-Sa 10:00-20:00; Su 11:00-18:00", "brand": "LOFT Outlet", "brand:wikidata": "Q62075137", "nsi_id": "loft-0dc75b"}, "geometry": {"type": "Point", "coordinates": [-81.33891642093658, 41.301628082467865]}},
{"type": "Feature", "id": "Ko2fJapTw1e64Ab_6SxilD7DMqk=", "properties": {"ref": "nj_jackson_537-monmouth-rd", "@spider": "loft", "clothes": "women", "shop": "clothes", "addr:full": "537 Monmouth Rd", "addr:city": "Jackson", "addr:state": "New Jersey", "addr:postcode": "08527", "addr:country": "US", "name": "Jackson", "phone": "(732) 833-4515", "website": "https://stores.loft.com/outlet/us/nj/jackson/537-monmouth-rd.html", "opening_hours": "Mo-Th 11:00-19:00; Fr-Sa 10:00-20:00; Su 11:00-19:00", "brand": "LOFT Outlet", "brand:wikidata": "Q62075137", "nsi_id": "loft-0dc75b"}, "geometry": {"type": "Point", "coordinates": [-74.4181278347969, 40.16030207700733]}},
{"type": "Feature", "id": "UvD84S0GTncRCCyWFUTSVClv1bY=", "properties": {"ref": "nj_elizabeth_651-kapkowski-rd", "@spider": "loft", "clothes": "women", "shop": "clothes", "addr:full": "651 Kapkowski Rd", "addr:city": "Elizabeth", "addr:state": "New Jersey", "addr:postcode": "07201", "addr:country": "US", "name": "Mills at Jersey Gardens", "phone": "(908) 355-2391", "website": "https://stores.loft.com/outlet/us/nj/elizabeth/651-kapkowski-rd.html", "opening_hours": "Mo-Sa 10:00-21:00; Su 11:00-19:00", "brand": "LOFT Outlet", "brand:wikidata": "Q62075137", "nsi_id": "loft-0dc75b"}, "geometry": {"type": "Point", "coordinates": [-74.1724631865082, 40.66015855505588]}},
{"type": "Feature", "id": "nUlNNpQzVKLo7NXGGWJekdeL0VU=", "properties": {"ref": "nh_tilton_120-laconia-road", "@spider": "loft", "clothes": "women", "shop": "clothes", "addr:full": "120 Laconia Road", "addr:city": "Tilton", "addr:state": "New Hampshire", "addr:postcode": "03276", "addr:country": "US", "name": "Tilton", "phone": "(603) 286-3150", "website": "https://stores.loft.com/outlet/us/nh/tilton/120-laconia-road.html", "opening_hours": "Mo-Sa 10:00-21:00; Su 10:00-19:00", "brand": "LOFT Outlet", "brand:wikidata": "Q62075137", "nsi_id": "loft-0dc75b"}, "geometry": {"type": "Point", "coordinates": [-71.563593, 43.460036]}},
{"type": "Feature", "id": "IoWJ3hy5a9mlV-oAYjaLgrAvpuM=", "properties": {"ref": "ms_pearl_200-bass-pro-drive", "@spider": "loft", "clothes": "women", "shop": "clothes", "addr:full": "200 Bass Pro Drive", "addr:city": "Pearl", "addr:state": "Mississippi", "addr:postcode": "39208", "addr:country": "US", "name": "Pearl", "phone": "(601) 932-4435", "website": "https://stores.loft.com/outlet/us/ms/pearl/200-bass-pro-drive.html", "opening_hours": "Mo-Sa 10:00-21:00; Su 12:00-19:00", "brand": "LOFT Outlet", "brand:wikidata": "Q62075137", "nsi_id": "loft-0dc75b"}, "geometry": {"type": "Point", "coordinates": [-90.1526695, 32.2739568]}},
{"type": "Feature", "id": "lWIMdVx7F7MMeBZBgyFfHXU-nR4=", "properties": {"ref": "mo_chesterfield_18533-outlet-boulevard", "@spider": "loft", "clothes": "women", "shop": "clothes", "addr:full": "18533 Outlet Boulevard", "addr:city": "Chesterfield", "addr:state": "Missouri", "addr:postcode": "63005", "addr:country": "US", "name": "St. Louis Premium", "phone": "(636) 778-2280", "website": "https://stores.loft.com/outlet/us/mo/chesterfield/18533-outlet-boulevard.html", "opening_hours": "Mo-Th 10:00-19:00; Fr-Sa 10:00-20:00; Su 11:00-18:00", "brand": "LOFT Outlet", "brand:wikidata": "Q62075137", "nsi_id": "loft-0dc75b"}, "geometry": {"type": "Point", "coordinates": [-90.6608479, 38.677724]}},
{"type": "Feature", "id": "k2ZfP4iTMHnyZ09KZtYxwNOnDrk=", "properties": {"ref": "nh_north-conway_1699-white-mountain-highway", "@spider": "loft", "clothes": "women", "shop": "clothes", "addr:full": "1699 White Mountain Highway", "addr:city": "North Conway", "addr:state": "New Hampshire", "addr:postcode": "03860", "addr:country": "US", "name": "Settlers Green", "phone": "(603) 356-0195", "website": "https://stores.loft.com/outlet/us/nh/north-conway/1699-white-mountain-highway.html", "opening_hours": "Mo-Fr 10:00-18:00; Sa 08:00-20:00; Su 10:00-18:00", "brand": "LOFT Outlet", "brand:wikidata": "Q62075137", "nsi_id": "loft-0dc75b"}, "geometry": {"type": "Point", "coordinates": [-71.1169354, 44.0262172]}},
{"type": "Feature", "id": "Ej5eszvJFwpiwKFI9r_r_NRa0Vg=", "properties": {"ref": "ms_southaven_5205-airways-blvd-", "@spider": "loft", "clothes": "women", "shop": "clothes", "addr:full": "5205 Airways Blvd.", "addr:city": "Southaven", "addr:state": "Mississippi", "addr:postcode": "38671", "addr:country": "US", "name": "Memphis", "phone": "(662) 349-5553", "website": "https://stores.loft.com/outlet/us/ms/southaven/5205-airways-blvd-.html", "opening_hours": "Mo-Sa 10:00-21:00; Su 10:00-19:00", "brand": "LOFT Outlet", "brand:wikidata": "Q62075137", "nsi_id": "loft-0dc75b"}, "geometry": {"type": "Point", "coordinates": [-89.99156713485718, 34.93616803749994]}},
{"type": "Feature", "id": "USHNY6BG0PIok_9x0vTMrdY8uqI=", "properties": {"ref": "md_queenstown_402a-outlet-center-drive", "@spider": "loft", "clothes": "women", "shop": "clothes", "addr:full": "402A Outlet Center Drive", "addr:city": "Queenstown", "addr:state": "Maryland", "addr:postcode": "21658", "addr:country": "US", "name": "Queenstown", "phone": "(410) 827-0633", "website": "https://stores.loft.com/outlet/us/md/queenstown/402a-outlet-center-drive.html", "opening_hours": "Mo-Sa 10:00-20:00; Su 11:00-19:00", "brand": "LOFT Outlet", "brand:wikidata": "Q62075137", "nsi_id": "loft-0dc75b"}, "geometry": {"type": "Point", "coordinates": [-76.1585609040909, 38.98272339801499]}},
{"type": "Feature", "id": "WWkSDrw4elOHvGzu511E9AP9RiI=", "properties": {"ref": "ma_lee_17-premium-outlets-boulevard", "@spider": "loft", "clothes": "women", "shop": "clothes", "addr:full": "17 Premium Outlets Boulevard", "addr:city": "Lee", "addr:state": "Massachusetts", "addr:postcode": "01238", "addr:country": "US", "name": "Lee", "phone": "(413) 243-1487", "website": "https://stores.loft.com/outlet/us/ma/lee/17-premium-outlets-boulevard.html", "opening_hours": "Mo-Th 10:00-18:00; Fr-Sa 10:00-20:00; Su 10:00-18:00", "brand": "LOFT Outlet", "brand:wikidata": "Q62075137", "nsi_id": "loft-0dc75b"}, "geometry": {"type": "Point", "coordinates": [-73.23428392410278, 42.29481016195446]}},
{"type": "Feature", "id": "LPemQ3_a3Auwzw_NiTtCPNuG_gg=", "properties": {"ref": "ma_wrentham_1-premium-outlet-blvd", "@spider": "loft", "clothes": "women", "shop": "clothes", "addr:full": "1 Premium Outlet Blvd", "addr:city": "Wrentham", "addr:state": "Massachusetts", "addr:postcode": "02093", "addr:country": "US", "name": "Wrentham", "phone": "(508) 384-0246", "website": "https://stores.loft.com/outlet/us/ma/wrentham/1-premium-outlet-blvd.html", "opening_hours": "Mo-Sa 10:00-21:00; Su 10:00-18:00", "brand": "LOFT Outlet", "brand:wikidata": "Q62075137", "nsi_id": "loft-0dc75b"}, "geometry": {"type": "Point", "coordinates": [-71.35399854458228, 42.03997858199283]}},
{"type": "Feature", "id": "H3kmGWetBqGmEjCQ5xeCD8-GIms=", "properties": {"ref": "fl_west-palm-beach_1781-palm-beach-lakes-blvd", "@spider": "loft", "clothes": "women", "shop": "clothes", "addr:full": "1781 Palm Beach Lakes Blvd", "addr:city": "West Palm Beach", "addr:state": "Florida", "addr:postcode": "33401", "addr:country": "US", "name": "Palm Beach", "phone": "(561) 688-9861", "website": "https://stores.loft.com/outlet/us/fl/west-palm-beach/1781-palm-beach-lakes-blvd.html", "opening_hours": "Mo-Th 11:00-20:00; Fr-Sa 10:00-21:00; Su 11:00-19:00", "brand": "LOFT Outlet", "brand:wikidata": "Q62075137", "nsi_id": "loft-0dc75b"}, "geometry": {"type": "Point", "coordinates": [-80.08746474981308, 26.72530484513083]}},
{"type": "Feature", "id": "dLL_XUvseKt8lYHGhsZButs11_8=", "properties": {"ref": "fl_tallahassee_1500-appalachee-parkway", "@spider": "loft", "clothes": "women", "shop": "clothes", "addr:full": "1500 Appalachee Parkway", "addr:city": "Tallahassee", "addr:state": "Florida", "addr:postcode": "32301", "addr:country": "US", "name": "Governer's Square", "phone": "(850) 877-4414", "website": "https://stores.loft.com/outlet/us/fl/tallahassee/1500-appalachee-parkway.html", "opening_hours": "Mo-Sa 11:00-20:00; Su 12:00-18:00", "brand": "LOFT Outlet", "brand:wikidata": "Q62075137", "nsi_id": "loft-0dc75b"}, "geometry": {"type": "Point", "coordinates": [-84.25341808465578, 30.437242999059883]}},
{"type": "Feature", "id": "atZc2SzXYIHgD2rCoOjsSVXLH0A=", "properties": {"ref": "mo_osage-beach_4540-highway-54", "@spider": "loft", "clothes": "women", "shop": "clothes", "addr:full": "4540 Highway 54", "addr:city": "Osage Beach", "addr:state": "Missouri", "addr:postcode": "65065", "addr:country": "US", "name": "Osage Beach", "phone": "(573) 348-2206", "website": "https://stores.loft.com/outlet/us/mo/osage-beach/4540-highway-54.html", "opening_hours": "Mo-Th 10:00-18:00; Fr-Sa 10:00-19:00; Su 12:00-18:00", "brand": "LOFT Outlet", "brand:wikidata": "Q62075137", "nsi_id": "loft-0dc75b"}, "geometry": {"type": "Point", "coordinates": [-92.625397, 38.1454716]}},
{"type": "Feature", "id": "Ok35AVeZIVQlz8AQIBaQ9UdBhgQ=", "properties": {"ref": "mo_branson_300-tanger-blvd", "@spider": "loft", "clothes": "women", "shop": "clothes", "addr:full": "300 Tanger Blvd", "addr:city": "Branson", "addr:state": "Missouri", "addr:postcode": "65616", "addr:country": "US", "name": "Branson", "phone": "(417) 334-4934", "website": "https://stores.loft.com/outlet/us/mo/branson/300-tanger-blvd.html", "opening_hours": "Mo-Sa 10:00-21:00; Su 10:00-19:00", "brand": "LOFT Outlet", "brand:wikidata": "Q62075137", "nsi_id": "loft-0dc75b"}, "geometry": {"type": "Point", "coordinates": [-93.266134, 36.6437575]}},
{"type": "Feature", "id": "PVKd6PF-oIRr2bA9XVk9JDuJx-E=", "properties": {"ref": "md_oxon-hill_6800-oxon-hill-rd", "@spider": "loft", "clothes": "women", "shop": "clothes", "addr:full": "6800 Oxon Hill Rd", "addr:city": "Oxon Hill", "addr:state": "Maryland", "addr:postcode": "20745", "addr:country": "US", "name": "National Harbor", "phone": "(301) 567-9802", "website": "https://stores.loft.com/outlet/us/md/oxon-hill/6800-oxon-hill-rd.html", "opening_hours": "Mo-Sa 10:00-21:00; Su 10:00-19:00", "brand": "LOFT Outlet", "brand:wikidata": "Q62075137", "nsi_id": "loft-0dc75b"}, "geometry": {"type": "Point", "coordinates": [-77.00146257877346, 38.79484710180883]}},
{"type": "Feature", "id": "15uO8PQ9wr1pBgjhbxUL9MYCc-s=", "properties": {"ref": "ma_somerville_601-assembly-row", "@spider": "loft", "clothes": "women", "shop": "clothes", "addr:full": "601 Assembly Row", "addr:city": "Somerville", "addr:state": "Massachusetts", "addr:postcode": "02145", "addr:country": "US", "name": "Assembly Row", "phone": "(617) 625-0398", "website": "https://stores.loft.com/outlet/us/ma/somerville/601-assembly-row.html", "opening_hours": "Mo-Sa 10:00-20:00; Su 11:00-18:00", "brand": "LOFT Outlet", "brand:wikidata": "Q62075137", "nsi_id": "loft-0dc75b"}, "geometry": {"type": "Point", "coordinates": [-71.079105, 42.3953532]}},
{"type": "Feature", "id": "89N4weIv61Lj9PD8riiiWvnJqEc=", "properties": {"ref": "fl_oviedo_1257-oviedo-mall-blvd", "@spider": "loft", "clothes": "women", "shop": "clothes", "addr:full": "1257 Oviedo Mall Blvd", "addr:city": "Oviedo", "addr:state": "Florida", "addr:postcode": "32765", "addr:country": "US", "name": "Oviedo", "phone": "(321) 348-3314", "website": "https://stores.loft.com/outlet/us/fl/oviedo/1257-oviedo-mall-blvd.html", "opening_hours": "Mo-Th 10:00-20:00; Fr-Sa 10:00-21:00; Su 12:00-18:00", "brand": "LOFT Outlet", "brand:wikidata": "Q62075137", "nsi_id": "loft-0dc75b"}, "geometry": {"type": "Point", "coordinates": [-81.235004, 28.663322]}},
{"type": "Feature", "id": "1tjjSKRXEO8PTraFhz0doMAdyig=", "properties": {"ref": "ga_woodstock_915-ridge-walk-parkway", "@spider": "loft", "clothes": "women", "shop": "clothes", "addr:full": "915 Ridge Walk Parkway", "addr:city": "Woodstock", "addr:state": "Georgia", "addr:postcode": "30188", "addr:country": "US", "name": "Shoppes at Atlanta", "phone": "(678) 445-9760", "website": "https://stores.loft.com/outlet/us/ga/woodstock/915-ridge-walk-parkway.html", "opening_hours": "Mo-Sa 10:00-21:00; Su 11:00-19:00", "brand": "LOFT Outlet", "brand:wikidata": "Q62075137", "nsi_id": "loft-0dc75b"}, "geometry": {"type": "Point", "coordinates": [-84.52697448468825, 34.11927726030983]}},
{"type": "Feature", "id": "65VEPF8JnrTQLLyZuM76mTJApUg=", "properties": {"ref": "co_thornton_13801-grant-street", "@spider": "loft", "clothes": "women", "shop": "clothes", "addr:full": "13801 Grant Street", "addr:city": "Thornton", "addr:state": "Colorado", "addr:postcode": "80023", "addr:country": "US", "name": "Denver Premium", "phone": "(303) 920-0302", "website": "https://stores.loft.com/outlet/us/co/thornton/13801-grant-street.html", "opening_hours": "Mo-Sa 10:00-20:00; Su 11:00-19:00", "brand": "LOFT Outlet", "brand:wikidata": "Q62075137", "nsi_id": "loft-0dc75b"}, "geometry": {"type": "Point", "coordinates": [-104.9851876, 39.9464241]}},
{"type": "Feature", "id": "0cRHPPITuRGbrAmqUqFxj6Zak8A=", "properties": {"ref": "ga_dawsonville_800-hwy-400-south", "@spider": "loft", "clothes": "women", "shop": "clothes", "addr:full": "800 Hwy 400 South", "addr:city": "Dawsonville", "addr:state": "Georgia", "addr:postcode": "30534", "addr:country": "US", "name": "Georgia Premium", "phone": "(706) 216-2438", "website": "https://stores.loft.com/outlet/us/ga/dawsonville/800-hwy-400-south.html", "opening_hours": "Mo-Th 10:00-20:00; Fr-Sa 10:00-21:00; Su 12:00-18:00", "brand": "LOFT Outlet", "brand:wikidata": "Q62075137", "nsi_id": "loft-0dc75b"}, "geometry": {"type": "Point", "coordinates": [-84.0488779, 34.3577096]}},
{"type": "Feature", "id": "nYlST48aPgQhVRtJEa0VNh13Iac=", "properties": {"ref": "fl_vero-beach_1785-94th-drive", "@spider": "loft", "clothes": "women", "shop": "clothes", "addr:full": "1785 94th Drive", "addr:city": "Vero Beach", "addr:state": "Florida", "addr:postcode": "32966", "addr:country": "US", "name": "Vero Beach", "phone": "(772) 569-4949", "website": "https://stores.loft.com/outlet/us/fl/vero-beach/1785-94th-drive.html", "opening_hours": "Mo-Sa 11:00-19:00; Su 11:00-18:00", "brand": "LOFT Outlet", "brand:wikidata": "Q62075137", "nsi_id": "loft-0dc75b"}, "geometry": {"type": "Point", "coordinates": [-80.52282080054283, 27.636320111605396]}},
{"type": "Feature", "id": "yavj5h2EdgIipmRbO_lhlMAsbR0=", "properties": {"ref": "fl_miramar-beach_10406-emerald-coast-pkwy", "@spider": "loft", "clothes": "women", "shop": "clothes", "addr:full": "10406 Emerald Coast Pkwy", "addr:city": "Miramar Beach", "addr:state": "Florida", "addr:postcode": "32550", "addr:country": "US", "name": "Silver Sands", "phone": "(850) 269-0201", "website": "https://stores.loft.com/outlet/us/fl/miramar-beach/10406-emerald-coast-pkwy.html", "opening_hours": "Mo-Th 10:00-19:00; Fr-Sa 10:00-20:00; Su 10:00-18:00", "brand": "LOFT Outlet", "brand:wikidata": "Q62075137", "nsi_id": "loft-0dc75b"}, "geometry": {"type": "Point", "coordinates": [-86.34747236967087, 30.3782144060674]}},
{"type": "Feature", "id": "ZBV5-yFPhhvr6LHQ64NKyNSW7Rg=", "properties": {"ref": "co_castle-rock_5050-factory-shops-blvd", "@spider": "loft", "clothes": "women", "shop": "clothes", "addr:full": "5050 Factory Shops Blvd", "addr:city": "Castle Rock", "addr:state": "Colorado", "addr:postcode": "80108", "addr:country": "US", "name": "Castle Rock", "phone": "(303) 660-0225", "website": "https://stores.loft.com/outlet/us/co/castle-rock/5050-factory-shops-blvd.html", "opening_hours": "Mo-Sa 10:00-20:00; Su 11:00-18:00", "brand": "LOFT Outlet", "brand:wikidata": "Q62075137", "nsi_id": "loft-0dc75b"}, "geometry": {"type": "Point", "coordinates": [-104.87355306744576, 39.41476497078773]}},
{"type": "Feature", "id": "IvfqubbRNwI-GrO_w6zBMmE0Pyg=", "properties": {"ref": "fl_miami_11401-nw-12th-st", "@spider": "loft", "clothes": "women", "shop": "clothes", "addr:full": "11401 NW 12th St", "addr:city": "Miami", "addr:state": "Florida", "addr:postcode": "33172", "addr:country": "US", "name": "Dolphin Mall", "phone": "(305) 715-7174", "website": "https://stores.loft.com/outlet/us/fl/miami/11401-nw-12th-st.html", "opening_hours": "Mo-Fr 10:00-21:00; Sa 10:00-17:00; Su 10:00-21:00", "brand": "LOFT Outlet", "brand:wikidata": "Q62075137", "nsi_id": "loft-0dc75b"}, "geometry": {"type": "Point", "coordinates": [-80.381126, 25.788319]}},
{"type": "Feature", "id": "Kg6AYdZCrRrr9Lxho-uaOklqPp0=", "properties": {"ref": "ga_locust-grove_1000-tanger-dr", "@spider": "loft", "clothes": "women", "shop": "clothes", "addr:full": "1000 Tanger Dr", "addr:city": "Locust Grove", "addr:state": "Georgia", "addr:postcode": "30248", "addr:country": "US", "name": "Locust Grove", "phone": "(770) 898-5188", "website": "https://stores.loft.com/outlet/us/ga/locust-grove/1000-tanger-dr.html", "opening_hours": "Mo-Sa 10:00-21:00; Su 10:00-19:00", "brand": "LOFT Outlet", "brand:wikidata": "Q62075137", "nsi_id": "loft-0dc75b"}, "geometry": {"type": "Point", "coordinates": [-84.12199495337296, 33.34846672169096]}},
{"type": "Feature", "id": "_ECyfHWjWsiPdnJaF-jhNCPcUuk=", "properties": {"ref": "ga_pooler_200-tanger-outlet-blvd", "@spider": "loft", "clothes": "women", "shop": "clothes", "addr:full": "200 Tanger Outlet Blvd", "addr:city": "Pooler", "addr:state": "Georgia", "addr:postcode": "31322", "addr:country": "US", "name": "Savannah", "phone": "(912) 450-0290", "website": "https://stores.loft.com/outlet/us/ga/pooler/200-tanger-outlet-blvd.html", "opening_hours": "Mo-Sa 10:00-21:00; Su 10:00-19:00", "brand": "LOFT Outlet", "brand:wikidata": "Q62075137", "nsi_id": "loft-0dc75b"}, "geometry": {"type": "Point", "coordinates": [-81.243632, 32.134229]}},
{"type": "Feature", "id": "tHawqGt7L_fJFQbWYoo-7kt0PkQ=", "properties": {"ref": "ga_commerce_800-steven-b-tanger-boulevard", "@spider": "loft", "clothes": "women", "shop": "clothes", "addr:full": "800 Steven B Tanger Boulevard", "addr:city": "Commerce", "addr:state": "Georgia", "addr:postcode": "30529", "addr:country": "US", "name": "Commerce", "phone": "(706) 336-0071", "website": "https://stores.loft.com/outlet/us/ga/commerce/800-steven-b-tanger-boulevard.html", "opening_hours": "Mo-Sa 10:00-21:00; Su 11:00-19:00", "brand": "LOFT Outlet", "brand:wikidata": "Q62075137", "nsi_id": "loft-0dc75b"}, "geometry": {"type": "Point", "coordinates": [-83.471974, 34.251181]}},
{"type": "Feature", "id": "IM6kRDPW7qekNPF3SUb4yEdo_ZY=", "properties": {"ref": "ga_calhoun_455-belwood-rd-se", "@spider": "loft", "clothes": "women", "shop": "clothes", "addr:full": "455 Belwood Rd SE", "addr:city": "Calhoun", "addr:state": "Georgia", "addr:postcode": "30701", "addr:country": "US", "name": "Calhoun", "phone": "(706) 624-2853", "website": "https://stores.loft.com/outlet/us/ga/calhoun/455-belwood-rd-se.html", "opening_hours": "Mo-Sa 10:00-20:00; Su 11:00-19:00", "brand": "LOFT Outlet", "brand:wikidata": "Q62075137", "nsi_id": "loft-0dc75b"}, "geometry": {"type": "Point", "coordinates": [-84.91858229046557, 34.463611867927796]}},
{"type": "Feature", "id": "05WcUrAkVSPtBO_D-6KPus2uAsA=", "properties": {"ref": "fl_ellenton_5707-factory-shops-blvd", "@spider": "loft", "clothes": "women", "shop": "clothes", "addr:full": "5707 Factory Shops Blvd", "addr:city": "Ellenton", "addr:state": "Florida", "addr:postcode": "34222", "addr:country": "US", "name": "Ellenton", "phone": "(941) 722-8391", "website": "https://stores.loft.com/outlet/us/fl/ellenton/5707-factory-shops-blvd.html", "opening_hours": "Mo-Sa 10:00-20:00; Su 11:00-18:00", "brand": "LOFT Outlet", "brand:wikidata": "Q62075137", "nsi_id": "loft-0dc75b"}, "geometry": {"type": "Point", "coordinates": [-82.506427, 27.532788]}},
{"type": "Feature", "id": "puiK18SHDnzZ8fDz043cGnhoPIo=", "properties": {"ref": "fl_lutz_2312-grand-cypress-drive", "@spider": "loft", "clothes": "women", "shop": "clothes", "addr:full": "2312 Grand Cypress Drive", "addr:city": "Lutz", "addr:state": "Florida", "addr:postcode": "33559", "addr:country": "US", "name": "Tampa Premium", "phone": "(813) 949-2464", "website": "https://stores.loft.com/outlet/us/fl/lutz/2312-grand-cypress-drive.html", "opening_hours": "Mo-Th 10:00-20:00; Fr-Sa 10:00-21:00; Su 11:00-18:00", "brand": "LOFT Outlet", "brand:wikidata": "Q62075137", "nsi_id": "loft-0dc75b"}, "geometry": {"type": "Point", "coordinates": [-82.3909682, 28.1896578]}},
{"type": "Feature", "id": "NjZe0jRn7nzw8X7TBLjWJpKNIcE=", "properties": {"ref": "ct_ledyard_455-trolley-line-blvd", "@spider": "loft", "clothes": "women", "shop": "clothes", "addr:full": "455 Trolley Line Blvd", "addr:city": "Ledyard", "addr:state": "Connecticut", "addr:postcode": "06338", "addr:country": "US", "name": "Foxwoods", "phone": "(860) 213-5017", "website": "https://stores.loft.com/outlet/us/ct/ledyard/455-trolley-line-blvd.html", "opening_hours": "Mo-Sa 10:00-21:00; Su 10:00-19:00", "brand": "LOFT Outlet", "brand:wikidata": "Q62075137", "nsi_id": "loft-0dc75b"}, "geometry": {"type": "Point", "coordinates": [-72.335057, 41.3831593]}},
{"type": "Feature", "id": "QC9sQ5MuLcFhxtSBvFrPotmLGiY=", "properties": {"ref": "ct_westbrook_314-flat-rock-pl", "@spider": "loft", "clothes": "women", "shop": "clothes", "addr:full": "314 Flat Rock Pl", "addr:city": "Westbrook", "addr:state": "Connecticut", "addr:postcode": "06498", "addr:country": "US", "name": "Westbrook", "phone": "(860) 399-0049", "website": "https://stores.loft.com/outlet/us/ct/westbrook/314-flat-rock-pl.html", "opening_hours": "Mo-Sa 10:00-19:00; Su 10:00-18:00", "brand": "LOFT Outlet", "brand:wikidata": "Q62075137", "nsi_id": "loft-0dc75b"}, "geometry": {"type": "Point", "coordinates": [-72.4282024, 41.2888721]}},
{"type": "Feature", "id": "iWJTw2F-9ZhyvU43s1Ob20T73Mw=", "properties": {"ref": "in_edinburgh_11911-n-executive-drive", "@spider": "loft", "clothes": "women", "shop": "clothes", "addr:full": "11911 N Executive Drive", "addr:city": "Edinburgh", "addr:state": "Indiana", "addr:postcode": "46124", "addr:country": "US", "name": "Edinburgh", "phone": "(812) 526-2274", "website": "https://stores.loft.com/outlet/us/in/edinburgh/11911-n-executive-drive.html", "opening_hours": "Mo-Th 10:00-19:00; Fr-Sa 10:00-20:00; Su 11:00-19:00", "brand": "LOFT Outlet", "brand:wikidata": "Q62075137", "nsi_id": "loft-0dc75b"}, "geometry": {"type": "Point", "coordinates": [-85.961957, 39.310455]}},
{"type": "Feature", "id": "lDtE_b-UgwwO2P-IzOnIoWgpuec=", "properties": {"ref": "fl_estero_10801-corkscrew-road", "@spider": "loft", "clothes": "women", "shop": "clothes", "addr:full": "10801 Corkscrew Road", "addr:city": "Estero", "addr:state": "Florida", "addr:postcode": "33928", "addr:country": "US", "name": "Miromar", "phone": "(239) 495-3185", "website": "https://stores.loft.com/outlet/us/fl/estero/10801-corkscrew-road.html", "opening_hours": "Mo-Th 10:00-19:00; Fr-Sa 10:00-20:00; Su 11:00-18:00", "brand": "LOFT Outlet", "brand:wikidata": "Q62075137", "nsi_id": "loft-0dc75b"}, "geometry": {"type": "Point", "coordinates": [-81.77684, 26.4352732]}},
{"type": "Feature", "id": "x7T1DOAA7Ej4e7nzCwUPPdVPF7M=", "properties": {"ref": "me_kittery_283-us-route-1", "@spider": "loft", "clothes": "women", "shop": "clothes", "addr:full": "283 US Route 1", "addr:city": "Kittery", "addr:state": "Maine", "addr:postcode": "03904", "addr:country": "US", "name": "Kittery", "phone": "(207) 451-9199", "website": "https://stores.loft.com/outlet/us/me/kittery/283-us-route-1.html", "opening_hours": "Mo-Th 10:00-18:00; Fr-Sa 10:00-19:00; Su 10:00-18:00", "brand": "LOFT Outlet", "brand:wikidata": "Q62075137", "nsi_id": "loft-0dc75b"}, "geometry": {"type": "Point", "coordinates": [-70.73737961063671, 43.11099504878697]}},
{"type": "Feature", "id": "hOrRnGiBP6bdqowyWqxYVGU2X2Y=", "properties": {"ref": "il_chicago_51-east-randolph-street", "@spider": "loft", "clothes": "women", "shop": "clothes", "addr:full": "51 East Randolph Street", "addr:city": "Chicago", "addr:state": "Illinois", "addr:postcode": "60601", "addr:country": "US", "name": "Shops at Millenium", "phone": "(312) 269-0301", "website": "https://stores.loft.com/outlet/us/il/chicago/51-east-randolph-street.html", "opening_hours": "Mo-Sa 10:00-18:00; Su 12:00-18:00", "brand": "LOFT Outlet", "brand:wikidata": "Q62075137", "nsi_id": "loft-0dc75b"}, "geometry": {"type": "Point", "coordinates": [-87.6259781495537, 41.88430571225684]}},
{"type": "Feature", "id": "jy1Df5oiZtK-876Cz0I_B8VIOkA=", "properties": {"ref": "me_freeport_42-main-street", "@spider": "loft", "clothes": "women", "shop": "clothes", "addr:full": "42 Main Street", "addr:city": "Freeport", "addr:state": "Maine", "addr:postcode": "04032", "addr:country": "US", "name": "Freeport", "phone": "(207) 865-1046", "website": "https://stores.loft.com/outlet/us/me/freeport/42-main-street.html", "opening_hours": "Mo-Sa 11:00-18:00; Su 12:00-17:00", "brand": "LOFT Outlet", "brand:wikidata": "Q62075137", "nsi_id": "loft-0dc75b"}, "geometry": {"type": "Point", "coordinates": [-70.10453639384849, 43.85596200876274]}},
{"type": "Feature", "id": "C5mDt4sa36d5QOXsBdJ8knD7jNg=", "properties": {"ref": "in_evansville_6501-e--lloyd-expressway", "@spider": "loft", "clothes": "women", "shop": "clothes", "addr:full": "6501 E. Lloyd Expressway", "addr:city": "Evansville", "addr:state": "Indiana", "addr:postcode": "47715", "addr:country": "US", "name": "Evansville Pavilion", "phone": "(812) 402-3000", "website": "https://stores.loft.com/outlet/us/in/evansville/6501-e--lloyd-expressway.html", "opening_hours": "Mo-Sa 10:00-19:00; Su 11:00-18:00", "brand": "LOFT Outlet", "brand:wikidata": "Q62075137", "nsi_id": "loft-0dc75b"}, "geometry": {"type": "Point", "coordinates": [-87.4716409, 37.9735543]}},
{"type": "Feature", "id": "CBV11WwXVJ1OsYBvZG_w7tjaArw=", "properties": {"ref": "mi_howell_1475-n-burkhart-rd", "@spider": "loft", "clothes": "women", "shop": "clothes", "addr:full": "1475 N Burkhart Rd", "addr:city": "Howell", "addr:state": "Michigan", "addr:postcode": "48855", "addr:country": "US", "name": "Howell", "phone": "(517) 540-6393", "website": "https://stores.loft.com/outlet/us/mi/howell/1475-n-burkhart-rd.html", "opening_hours": "Mo-Sa 10:00-21:00; Su 10:00-19:00", "brand": "LOFT Outlet", "brand:wikidata": "Q62075137", "nsi_id": "loft-0dc75b"}, "geometry": {"type": "Point", "coordinates": [-83.99474, 42.619782]}},
{"type": "Feature", "id": "zCTcMCvKCytTcO59oWlICCHm0lQ=", "properties": {"ref": "in_michigan-city_601-wabash-st", "@spider": "loft", "clothes": "women", "shop": "clothes", "addr:full": "601 Wabash St", "addr:city": "Michigan City", "addr:state": "Indiana", "addr:postcode": "46360", "addr:country": "US", "name": "Lighthouse Place Michigan City", "phone": "(219) 879-2957", "website": "https://stores.loft.com/outlet/us/in/michigan-city/601-wabash-st.html", "opening_hours": "Mo-Sa 10:00-20:00; Su 10:00-18:00", "brand": "LOFT Outlet", "brand:wikidata": "Q62075137", "nsi_id": "loft-0dc75b"}, "geometry": {"type": "Point", "coordinates": [-86.9069919, 41.7144371]}},
{"type": "Feature", "id": "JH5jLg4RLgZj3S3Bw4apqQPCmCU=", "properties": {"ref": "il_aurora_1650-premium-outlet-blvd", "@spider": "loft", "clothes": "women", "shop": "clothes", "addr:full": "1650 Premium Outlet Blvd", "addr:city": "Aurora", "addr:state": "Illinois", "addr:postcode": "60502", "addr:country": "US", "name": "Chicago Premium", "phone": "(630) 585-6486", "website": "https://stores.loft.com/outlet/us/il/aurora/1650-premium-outlet-blvd.html", "opening_hours": "Mo-Th 10:00-20:00; Fr-Sa 10:00-21:00; Su 11:00-18:00", "brand": "LOFT Outlet", "brand:wikidata": "Q62075137", "nsi_id": "loft-0dc75b"}, "geometry": {"type": "Point", "coordinates": [-88.275458, 41.799978]}},
{"type": "Feature", "id": "CEtwLFBo-wH0x5zEPW6yspej8i8=", "properties": {"ref": "il_norridge_4104-harlem-ave", "@spider": "loft", "clothes": "women", "shop": "clothes", "addr:full": "4104 Harlem Ave", "addr:city": "Norridge", "addr:state": "Illinois", "addr:postcode": "60706", "addr:country": "US", "name": "Harlem Irving Plaza", "phone": "(708) 456-0786", "website": "https://stores.loft.com/outlet/us/il/norridge/4104-harlem-ave.html", "opening_hours": "Mo-Sa 10:00-21:00; Su 11:00-18:00", "brand": "LOFT Outlet", "brand:wikidata": "Q62075137", "nsi_id": "loft-0dc75b"}, "geometry": {"type": "Point", "coordinates": [-87.808566, 41.955315]}},
{"type": "Feature", "id": "KuCPQC-5aUPr3KfBif8ptiCxUkA=", "properties": {"ref": "mi_auburn-hills_4004-baldwin-road", "@spider": "loft", "clothes": "women", "shop": "clothes", "addr:full": "4004 Baldwin Road", "addr:city": "Auburn Hills", "addr:state": "Michigan", "addr:postcode": "48326", "addr:country": "US", "name": "Great Lakes Crossing", "phone": "(248) 335-0887", "website": "https://stores.loft.com/outlet/us/mi/auburn-hills/4004-baldwin-road.html", "opening_hours": "Mo-Sa 10:00-21:00; Su 11:00-18:00", "brand": "LOFT Outlet", "brand:wikidata": "Q62075137", "nsi_id": "loft-0dc75b"}, "geometry": {"type": "Point", "coordinates": [-83.3026053, 42.7022499]}},
{"type": "Feature", "id": "YptYVfeN9kAt5wQZe-IJWLIk3ZQ=", "properties": {"ref": "fl_orlando_4953-international-dr", "@spider": "loft", "clothes": "women", "shop": "clothes", "addr:full": "4953 International Dr", "addr:city": "Orlando", "addr:state": "Florida", "addr:postcode": "32819", "addr:country": "US", "name": "Orlando Prime", "phone": "(407) 345-8071", "website": "https://stores.loft.com/outlet/us/fl/orlando/4953-international-dr.html", "opening_hours": "Mo-Su 10:00-21:00", "brand": "LOFT Outlet", "brand:wikidata": "Q62075137", "nsi_id": "loft-0dc75b"}, "geometry": {"type": "Point", "coordinates": [-81.453284, 28.473857]}},
{"type": "Feature", "id": "-wX29svA2pv9_4S9V3h5hPPETgY=", "properties": {"ref": "md_hanover_7000-arundel-mills-cir", "@spider": "loft", "clothes": "women", "shop": "clothes", "addr:full": "7000 Arundel Mills Cir", "addr:city": "Hanover", "addr:state": "Maryland", "addr:postcode": "21076", "addr:country": "US", "name": "Arundel Mills", "phone": "(443) 755-1540", "website": "https://stores.loft.com/outlet/us/md/hanover/7000-arundel-mills-cir.html", "opening_hours": "Mo-Th 10:00-21:00; Fr-Sa 10:00-21:30; Su 11:00-19:00", "brand": "LOFT Outlet", "brand:wikidata": "Q62075137", "nsi_id": "loft-0dc75b"}, "geometry": {"type": "Point", "coordinates": [-76.72453254461288, 39.15714345923531]}},
{"type": "Feature", "id": "XEqm2ZAEriUI1oGmBlCxWAukOgg=", "properties": {"ref": "mi_byron-center_350-84th-st-sw", "@spider": "loft", "clothes": "women", "shop": "clothes", "addr:full": "350 84th St SW", "addr:city": "Byron Center", "addr:state": "Michigan", "addr:postcode": "49315", "addr:country": "US", "name": "Grand Rapids", "phone": "(616) 583-0509", "website": "https://stores.loft.com/outlet/us/mi/byron-center/350-84th-st-sw.html", "opening_hours": "Mo-Sa 10:00-21:00; Su 10:00-19:00", "brand": "LOFT Outlet", "brand:wikidata": "Q62075137", "nsi_id": "loft-0dc75b"}, "geometry": {"type": "Point", "coordinates": [-85.67196957300894, 42.809467436208]}},
{"type": "Feature", "id": "n5teqLVDzNpudcriiH6bp2EW0tQ=", "properties": {"ref": "nh_merrimack_80-premium-outlets-blvd", "@spider": "loft", "clothes": "women", "shop": "clothes", "addr:full": "80 Premium Outlets Blvd", "addr:city": "Merrimack", "addr:state": "New Hampshire", "addr:postcode": "03054", "addr:country": "US", "name": "Merrimack", "phone": "(603) 424-7097", "website": "https://stores.loft.com/outlet/us/nh/merrimack/80-premium-outlets-blvd.html", "opening_hours": "Mo-Sa 10:00-21:00; Su 10:00-18:00", "brand": "LOFT Outlet", "brand:wikidata": "Q62075137", "nsi_id": "loft-0dc75b"}, "geometry": {"type": "Point", "coordinates": [-71.50028673740087, 42.82556922370245]}},
{"type": "Feature", "id": "1CfhVzD4UGhlNaXCP7YQgEK__d0=", "properties": {"ref": "mi_birch-run_12240-south-beyer-rd", "@spider": "loft", "clothes": "women", "shop": "clothes", "addr:full": "12240 South Beyer Rd", "addr:city": "Birch Run", "addr:state": "Michigan", "addr:postcode": "48415", "addr:country": "US", "name": "Birch Run", "phone": "(989) 624-4007", "website": "https://stores.loft.com/outlet/us/mi/birch-run/12240-south-beyer-rd.html", "opening_hours": "Mo-Th 10:00-19:00; Fr-Sa 10:00-21:00; Su 12:00-18:00", "brand": "LOFT Outlet", "brand:wikidata": "Q62075137", "nsi_id": "loft-0dc75b"}, "geometry": {"type": "Point", "coordinates": [-83.77904190674587, 43.24809046295883]}},
{"type": "Feature", "id": "hLY0XqdKKEarYGMdqWU5lRRXOuM=", "properties": {"ref": "md_hagerstown_495-premium-outlets-boulevard", "@spider": "loft", "clothes": "women", "shop": "clothes", "addr:full": "495 Premium Outlets Boulevard", "addr:city": "Hagerstown", "addr:state": "Maryland", "addr:postcode": "21740", "addr:country": "US", "name": "Hagerstown", "phone": "(301) 733-2460", "website": "https://stores.loft.com/outlet/us/md/hagerstown/495-premium-outlets-boulevard.html", "opening_hours": "Mo-Fr 11:00-19:00; Sa 10:00-19:00; Su 11:00-18:30", "brand": "LOFT Outlet", "brand:wikidata": "Q62075137", "nsi_id": "loft-0dc75b"}, "geometry": {"type": "Point", "coordinates": [-77.7331418465576, 39.60789748445319]}},
{"type": "Feature", "id": "PXPPa_6bD9R_JU_VjWx-kDLfnhk=", "properties": {"ref": "md_clarksburg_22705-clarksburg-road", "@spider": "loft", "clothes": "women", "shop": "clothes", "addr:full": "22705 Clarksburg Road", "addr:city": "Clarksburg", "addr:state": "Maryland", "addr:postcode": "20871", "addr:country": "US", "name": "Clarksburg", "phone": "(240) 686-4102", "website": "https://stores.loft.com/outlet/us/md/clarksburg/22705-clarksburg-road.html", "opening_hours": "Mo-Sa 10:00-21:00; Su 10:00-19:00", "brand": "LOFT Outlet", "brand:wikidata": "Q62075137", "nsi_id": "loft-0dc75b"}, "geometry": {"type": "Point", "coordinates": [-77.28599835187197, 39.228682680715984]}},
{"type": "Feature", "id": "20NCl90bn3_Xtm_p875wSLJ_Ir0=", "properties": {"ref": "fl_orlando_15825-state-road-535", "@spider": "loft", "clothes": "women", "shop": "clothes", "addr:full": "15825 State Road 535", "addr:city": "Orlando", "addr:state": "Florida", "addr:postcode": "32821", "addr:country": "US", "name": "Lake Buena Vista", "phone": "(407) 238-4792", "website": "https://stores.loft.com/outlet/us/fl/orlando/15825-state-road-535.html", "opening_hours": "Mo-Su 10:00-19:00", "brand": "LOFT Outlet", "brand:wikidata": "Q62075137", "nsi_id": "loft-0dc75b"}, "geometry": {"type": "Point", "coordinates": [-81.48879, 28.348455]}},
{"type": "Feature", "id": "K4D4BIo20tf9Wig5G_o30W1eXYU=", "properties": {"ref": "nv_sparks_1310-scheels-drive", "@spider": "loft", "clothes": "women", "shop": "clothes", "addr:full": "1310 Scheels Drive", "addr:city": "Sparks", "addr:state": "Nevada", "addr:postcode": "89434", "addr:country": "US", "name": "Sparks Marina", "phone": "(775) 358-1378", "website": "https://stores.loft.com/outlet/us/nv/sparks/1310-scheels-drive.html", "opening_hours": "Mo-Sa 10:00-21:00; Su 11:00-18:00", "brand": "LOFT Outlet", "brand:wikidata": "Q62075137", "nsi_id": "loft-0dc75b"}, "geometry": {"type": "Point", "coordinates": [-119.72084999084473, 39.53132013922996]}},
{"type": "Feature", "id": "nWyIccVmbxOaQX5OgjCSoXpqSNU=", "properties": {"ref": "fl_orlando_15825-ocoee-apopka-rd", "@spider": "loft", "clothes": "women", "shop": "clothes", "addr:full": "15825 Ocoee Apopka Rd", "addr:city": "Orlando", "addr:state": "Florida", "addr:postcode": "32821", "addr:country": "US", "name": "Orlando Premium", "phone": "(407) 238-4504", "website": "https://stores.loft.com/outlet/us/fl/orlando/15825-ocoee-apopka-rd.html", "opening_hours": "Mo-Su 10:00-21:00", "brand": "LOFT Outlet", "brand:wikidata": "Q62075137", "nsi_id": "loft-0dc75b"}, "geometry": {"type": "Point", "coordinates": [-81.4904051, 28.3880064]}},
{"type": "Feature", "id": "4PCByuzf2VpSYmwXM2c6g_-fMSs=", "properties": {"ref": "nj_blackwood_100-premium-outlets-drive", "@spider": "loft", "clothes": "women", "shop": "clothes", "addr:full": "100 Premium Outlets Drive", "addr:city": "Blackwood", "addr:state": "New Jersey", "addr:postcode": "08012", "addr:country": "US", "name": "Gloucester", "phone": "(856) 221-8713", "website": "https://stores.loft.com/outlet/us/nj/blackwood/100-premium-outlets-drive.html", "opening_hours": "Mo-Sa 10:00-20:00; Su 11:00-19:00", "brand": "LOFT Outlet", "brand:wikidata": "Q62075137", "nsi_id": "loft-0dc75b"}, "geometry": {"type": "Point", "coordinates": [-75.052881, 39.785608]}},
{"type": "Feature", "id": "lAno1R7yy0gBFQuA1X6Qxu-4cdQ=", "properties": {"ref": "nc_smithfield_1025-outlet-center-drive", "@spider": "loft", "clothes": "women", "shop": "clothes", "addr:full": "1025 Outlet Center Drive", "addr:city": "Smithfield", "addr:state": "North Carolina", "addr:postcode": "27577", "addr:country": "US", "name": "Carolina Premium", "phone": "(919) 209-0230", "website": "https://stores.loft.com/outlet/us/nc/smithfield/1025-outlet-center-drive.html", "opening_hours": "Mo-Th 11:00-20:00; Fr-Sa 10:00-21:00; Su 11:00-19:00", "brand": "LOFT Outlet", "brand:wikidata": "Q62075137", "nsi_id": "loft-0dc75b"}, "geometry": {"type": "Point", "coordinates": [-78.312802, 35.510654]}},
{"type": "Feature", "id": "6-EmotdgB2mX0A3M8j0ZIHTWETg=", "properties": {"ref": "nc_charlotte_5512-new-fashion-way", "@spider": "loft", "clothes": "women", "shop": "clothes", "addr:full": "5512 New Fashion Way", "addr:city": "Charlotte", "addr:state": "North Carolina", "addr:postcode": "28278", "addr:country": "US", "name": "Charlotte", "phone": "(704) 583-5694", "website": "https://stores.loft.com/outlet/us/nc/charlotte/5512-new-fashion-way.html", "opening_hours": "Mo-Th 10:00-20:00; Fr-Sa 10:00-21:00; Su 12:00-18:00", "brand": "LOFT Outlet", "brand:wikidata": "Q62075137", "nsi_id": "loft-0dc75b"}, "geometry": {"type": "Point", "coordinates": [-80.97001969825214, 35.16956945176072]}},
{"type": "Feature", "id": "5jFvIzyiNn2mzRgACI7MNOClQuM=", "properties": {"ref": "nc_concord_8111-concord-mills-blvd", "@spider": "loft", "clothes": "women", "shop": "clothes", "addr:full": "8111 Concord Mills Blvd", "addr:city": "Concord", "addr:state": "North Carolina", "addr:postcode": "28027", "addr:country": "US", "name": "Concord Mills", "phone": "(704) 979-6616", "website": "https://stores.loft.com/outlet/us/nc/concord/8111-concord-mills-blvd.html", "opening_hours": "Mo-Th 11:00-20:00; Fr-Sa 10:00-21:00; Su 12:00-18:00", "brand": "LOFT Outlet", "brand:wikidata": "Q62075137", "nsi_id": "loft-0dc75b"}, "geometry": {"type": "Point", "coordinates": [-80.722581, 35.369544]}},
{"type": "Feature", "id": "ya8i87pTNa_eWXId76wtr0PhEok=", "properties": {"ref": "ny_niagara-falls_1810-military-road", "@spider": "loft", "clothes": "women", "shop": "clothes", "addr:full": "1810 Military Road", "addr:city": "Niagara Falls", "addr:state": "New York", "addr:postcode": "14304", "addr:country": "US", "name": "Niagara Falls", "phone": "(716) 297-6759", "website": "https://stores.loft.com/outlet/us/ny/niagara-falls/1810-military-road.html", "opening_hours": "Mo-Th 10:00-19:00; Fr-Sa 10:00-20:00; Su 11:00-18:00", "brand": "LOFT Outlet", "brand:wikidata": "Q62075137", "nsi_id": "loft-0dc75b"}, "geometry": {"type": "Point", "coordinates": [-78.978971, 43.097369]}},
{"type": "Feature", "id": "pfomnz72unm4yOo9P0uyWvTQgIE=", "properties": {"ref": "ny_lake-george_1415-state-route-9", "@spider": "loft", "clothes": "women", "shop": "clothes", "addr:full": "1415 State Route 9", "addr:city": "Lake George", "addr:state": "New York", "addr:postcode": "12845", "addr:country": "US", "name": "Lake George", "phone": "(518) 798-2052", "website": "https://stores.loft.com/outlet/us/ny/lake-george/1415-state-route-9.html", "opening_hours": "Mo-Th 10:00-18:00; Fr-Sa 10:00-19:00; Su 10:00-18:00", "brand": "LOFT Outlet", "brand:wikidata": "Q62075137", "nsi_id": "loft-0dc75b"}, "geometry": {"type": "Point", "coordinates": [-73.70164126377364, 43.36416522340814]}},
{"type": "Feature", "id": "Qs81dzH68Wxup00yka-pnHR8i50=", "properties": {"ref": "nv_las-vegas_7400-las-vegas-blvd-south", "@spider": "loft", "clothes": "women", "shop": "clothes", "addr:full": "7400 Las Vegas Blvd South", "addr:city": "Las Vegas", "addr:state": "Nevada", "addr:postcode": "89123", "addr:country": "US", "name": "Las Vegas Premium South", "phone": "(702) 437-0300", "website": "https://stores.loft.com/outlet/us/nv/las-vegas/7400-las-vegas-blvd-south.html", "opening_hours": "Mo-Th 10:00-20:00; Fr-Sa 10:00-21:00; Su 11:00-19:00", "brand": "LOFT Outlet", "brand:wikidata": "Q62075137", "nsi_id": "loft-0dc75b"}, "geometry": {"type": "Point", "coordinates": [-115.16961, 36.053045]}},
{"type": "Feature", "id": "N4D8sgbao3jmxobOXh6cSlu0K5M=", "properties": {"ref": "ny_forest-hills_70-31-austin-st", "@spider": "loft", "clothes": "women", "shop": "clothes", "addr:full": "70-31 Austin St", "addr:city": "Forest Hills", "addr:state": "New York", "addr:postcode": "11375", "addr:country": "US", "name": "Austin Street", "phone": "(718) 275-6873", "website": "https://stores.loft.com/outlet/us/ny/forest-hills/70-31-austin-st.html", "opening_hours": "Mo-Sa 10:00-20:00; Su 11:00-18:00", "brand": "LOFT Outlet", "brand:wikidata": "Q62075137", "nsi_id": "loft-0dc75b"}, "geometry": {"type": "Point", "coordinates": [-73.84597733619557, 40.720887483690134]}},
{"type": "Feature", "id": "cIWzqUm1exoeQEM4X2SIQve5rTw=", "properties": {"ref": "nc_nags-head_7100-south-croatan-highway", "@spider": "loft", "clothes": "women", "shop": "clothes", "addr:full": "7100 South Croatan Highway", "addr:city": "Nags Head", "addr:state": "North Carolina", "addr:postcode": "27959", "addr:country": "US", "name": "Nags Head", "phone": "(252) 255-0941", "website": "https://stores.loft.com/outlet/us/nc/nags-head/7100-south-croatan-highway.html", "opening_hours": "Mo-Sa 10:00-19:00; Su 11:00-18:00", "brand": "LOFT Outlet", "brand:wikidata": "Q62075137", "nsi_id": "loft-0dc75b"}, "geometry": {"type": "Point", "coordinates": [-75.6023462, 35.9125079]}},
{"type": "Feature", "id": "EazPIFvdu0O90W1G7X_xvH-Cw3g=", "properties": {"ref": "nc_mebane_4000-arrowhead-blvd", "@spider": "loft", "clothes": "women", "shop": "clothes", "addr:full": "4000 Arrowhead Blvd", "addr:city": "Mebane", "addr:state": "North Carolina", "addr:postcode": "27302", "addr:country": "US", "name": "Mebane", "phone": "(919) 304-1571", "website": "https://stores.loft.com/outlet/us/nc/mebane/4000-arrowhead-blvd.html", "opening_hours": "Mo-Sa 10:00-21:00; Su 10:00-19:00", "brand": "LOFT Outlet", "brand:wikidata": "Q62075137", "nsi_id": "loft-0dc75b"}, "geometry": {"type": "Point", "coordinates": [-79.26599733531475, 36.07463740882973]}},
{"type": "Feature", "id": "7F7A1aVdT-fFpy51SiD5VhuOkTM=", "properties": {"ref": "nj_atlantic-city_116-n-michigan-avenue", "@spider": "loft", "clothes": "women", "shop": "clothes", "addr:full": "116 N Michigan Avenue", "addr:city": "Atlantic City", "addr:state": "New Jersey", "addr:postcode": "08401", "addr:country": "US", "name": "Atlantic City", "phone": "(609) 348-0131", "website": "https://stores.loft.com/outlet/us/nj/atlantic-city/116-n-michigan-avenue.html", "opening_hours": "Mo-Sa 10:00-20:00; Su 10:00-19:00", "brand": "LOFT Outlet", "brand:wikidata": "Q62075137", "nsi_id": "loft-0dc75b"}, "geometry": {"type": "Point", "coordinates": [-74.43773235581966, 39.36108335364893]}},
{"type": "Feature", "id": "RyDOlMcWcW0_WUHBgAA2N7tPtRs=", "properties": {"ref": "ny_deer-park_1454-the-arches-circle", "@spider": "loft", "clothes": "women", "shop": "clothes", "addr:full": "1454 The Arches Circle", "addr:city": "Deer Park", "addr:state": "New York", "addr:postcode": "11729", "addr:country": "US", "name": "Deer Park", "phone": "(631) 586-0193", "website": "https://stores.loft.com/outlet/us/ny/deer-park/1454-the-arches-circle.html", "opening_hours": "Mo-Th 10:00-20:00; Fr-Sa 10:00-21:00; Su 10:00-20:00", "brand": "LOFT Outlet", "brand:wikidata": "Q62075137", "nsi_id": "loft-0dc75b"}, "geometry": {"type": "Point", "coordinates": [-73.30568701028824, 40.764745034799304]}},
{"type": "Feature", "id": "0aqnoboVHkrMddW2gTVEbzi5CN0=", "properties": {"ref": "ny_central-valley_280-red-apple-court", "@spider": "loft", "clothes": "women", "shop": "clothes", "addr:full": "280 Red Apple Court", "addr:city": "Central Valley", "addr:state": "New York", "addr:postcode": "10917", "addr:country": "US", "name": "Woodbury Common", "phone": "(845) 928-9152", "website": "https://stores.loft.com/outlet/us/ny/central-valley/280-red-apple-court.html", "opening_hours": "Mo-Su 10:00-21:00", "brand": "LOFT Outlet", "brand:wikidata": "Q62075137", "nsi_id": "loft-0dc75b"}, "geometry": {"type": "Point", "coordinates": [-74.1254478, 41.3165895]}},
{"type": "Feature", "id": "C1KKynw2NxIA-WmqzcO--hTsKY0=", "properties": {"ref": "al_leeds_6200-grand-river-blvd-east", "@spider": "loft", "clothes": "women", "shop": "clothes", "addr:full": "6200 Grand River Blvd East", "addr:city": "Leeds", "addr:state": "Alabama", "addr:postcode": "35094", "addr:country": "US", "name": "Grand River", "phone": "(205) 699-1107", "website": "https://stores.loft.com/outlet/us/al/leeds/6200-grand-river-blvd-east.html", "opening_hours": "Mo-Sa 11:00-19:00; Su 12:00-18:00", "brand": "LOFT Outlet", "brand:wikidata": "Q62075137", "nsi_id": "loft-0dc75b"}, "geometry": {"type": "Point", "coordinates": [-86.5969771, 33.5498703]}},
{"type": "Feature", "id": "wjhnrpMmpIFQblLCDX7ZuB7Kx-8=", "properties": {"ref": "al_foley_2601-south-mckenzie-st", "@spider": "loft", "clothes": "women", "shop": "clothes", "addr:full": "2601 South McKenzie St", "addr:city": "Foley", "addr:state": "Alabama", "addr:postcode": "36535", "addr:country": "US", "name": "Foley", "phone": "(251) 943-7080", "website": "https://stores.loft.com/outlet/us/al/foley/2601-south-mckenzie-st.html", "opening_hours": "Mo-Sa 10:00-21:00; Su 10:00-19:00", "brand": "LOFT Outlet", "brand:wikidata": "Q62075137", "nsi_id": "loft-0dc75b"}, "geometry": {"type": "Point", "coordinates": [-87.679941, 30.375101]}},
{"type": "Feature", "id": "xDwgdJEd63uy9OdGj6o6nn2E-yU=", "properties": {"ref": "ca_vacaville_121-nut-tree-rd", "@spider": "loft", "clothes": "women", "shop": "clothes", "addr:full": "121 Nut Tree Rd", "addr:city": "Vacaville", "addr:state": "California", "addr:postcode": "95687", "addr:country": "US", "name": "Vacaville", "phone": "(707) 446-8468", "website": "https://stores.loft.com/outlet/us/ca/vacaville/121-nut-tree-rd.html", "opening_hours": "Mo-Sa 10:00-21:00; Su 11:00-19:00", "brand": "LOFT Outlet", "brand:wikidata": "Q62075137", "nsi_id": "loft-0dc75b"}, "geometry": {"type": "Point", "coordinates": [-121.9586187778441, 38.365876500692515]}},
{"type": "Feature", "id": "mugsVHl27Wp0JYHAlOyH3zbnISo=", "properties": {"ref": "ca_san-clemente_101-west-avenida-vista-hermosa", "@spider": "loft", "clothes": "women", "shop": "clothes", "addr:full": "101 West Avenida Vista Hermosa", "addr:city": "San Clemente", "addr:state": "California", "addr:postcode": "92672", "addr:country": "US", "name": "Plaza San Clemente", "phone": "(949) 940-0054", "website": "https://stores.loft.com/outlet/us/ca/san-clemente/101-west-avenida-vista-hermosa.html", "opening_hours": "Mo-Su 10:00-20:00", "brand": "LOFT Outlet", "brand:wikidata": "Q62075137", "nsi_id": "loft-0dc75b"}, "geometry": {"type": "Point", "coordinates": [-117.62741, 33.4404337]}},
{"type": "Feature", "id": "39OMj0JJZrV70MBxUQ-s1LUiaGg=", "properties": {"ref": "ca_livermore_3674-livermore-outlets-way", "@spider": "loft", "clothes": "women", "shop": "clothes", "addr:full": "3674 Livermore Outlets Way", "addr:city": "Livermore", "addr:state": "California", "addr:postcode": "94551", "addr:country": "US", "name": "San Francisco Premium", "phone": "(925) 373-0181", "website": "https://stores.loft.com/outlet/us/ca/livermore/3674-livermore-outlets-way.html", "opening_hours": "Mo-Th 10:00-19:00; Fr-Sa 10:00-20:00; Su 10:00-19:00", "brand": "LOFT Outlet", "brand:wikidata": "Q62075137", "nsi_id": "loft-0dc75b"}, "geometry": {"type": "Point", "coordinates": [-121.84543395414948, 37.69864530377944]}},
{"type": "Feature", "id": "JAHzr8F0uk8KIAZNgyEc967ATm8=", "properties": {"ref": "ca_gilroy_8375-arroyo-circle", "@spider": "loft", "clothes": "women", "shop": "clothes", "addr:full": "8375 Arroyo Circle", "addr:city": "Gilroy", "addr:state": "California", "addr:postcode": "95020", "addr:country": "US", "name": "Gilroy", "phone": "(408) 846-5359", "website": "https://stores.loft.com/outlet/us/ca/gilroy/8375-arroyo-circle.html", "opening_hours": "Mo-Sa 10:00-21:00; Su 12:00-18:00", "brand": "LOFT Outlet", "brand:wikidata": "Q62075137", "nsi_id": "loft-0dc75b"}, "geometry": {"type": "Point", "coordinates": [-121.56279253052132, 37.02190418587628]}},
{"type": "Feature", "id": "UX5gzvFuYHze26CBf9UH0S429mI=", "properties": {"ref": "ca_cabazon_48650-seminole-drive", "@spider": "loft", "clothes": "women", "shop": "clothes", "addr:full": "48650 Seminole Drive", "addr:city": "Cabazon", "addr:state": "California", "addr:postcode": "92230", "addr:country": "US", "name": "Desert Hills", "phone": "(951) 922-0678", "website": "https://stores.loft.com/outlet/us/ca/cabazon/48650-seminole-drive.html", "opening_hours": "Mo-Sa 10:00-21:00; Su 10:00-20:00", "brand": "LOFT Outlet", "brand:wikidata": "Q62075137", "nsi_id": "loft-0dc75b"}, "geometry": {"type": "Point", "coordinates": [-116.8138148624268, 33.92783204704196]}},
{"type": "Feature", "id": "gr0MN6E4gyK1wgn-FJoKU6IdJZc=", "properties": {"ref": "ca_commerce_100-citadel-drive", "@spider": "loft", "clothes": "women", "shop": "clothes", "addr:full": "100 Citadel Drive", "addr:city": "Commerce", "addr:state": "California", "addr:postcode": "90040", "addr:country": "US", "name": "Citadel", "phone": "(323) 837-9803", "website": "https://stores.loft.com/outlet/us/ca/commerce/100-citadel-drive.html", "opening_hours": "Mo-Fr 10:00-21:00; Sa 09:00-22:00; Su 10:00-21:00", "brand": "LOFT Outlet", "brand:wikidata": "Q62075137", "nsi_id": "loft-0dc75b"}, "geometry": {"type": "Point", "coordinates": [-118.15284022453693, 34.005944446992956]}},
{"type": "Feature", "id": "Y3f-ZFQiwasFx-Pfdbeood6eTJk=", "properties": {"ref": "ca_camarillo_500-w-ventura-blvd-ste-1510", "@spider": "loft", "clothes": "women", "shop": "clothes", "addr:full": "500 W Ventura Blvd Ste 1510", "addr:city": "Camarillo", "addr:state": "California", "addr:postcode": "93010", "addr:country": "US", "name": "Camarillo", "phone": "(805) 482-0464", "website": "https://stores.loft.com/outlet/us/ca/camarillo/500-w-ventura-blvd-ste-1510.html", "opening_hours": "Mo-Th 10:00-19:00; Fr-Sa 10:00-20:00; Su 11:00-19:00", "brand": "LOFT Outlet", "brand:wikidata": "Q62075137", "nsi_id": "loft-0dc75b"}, "geometry": {"type": "Point", "coordinates": [-119.06876972883606, 34.214945999999976]}},
{"type": "Feature", "id": "y_nputTum-ldj2DDknwzzP2lM2g=", "properties": {"ref": "ca_folsom_13000-folsom-blvd", "@spider": "loft", "clothes": "women", "shop": "clothes", "addr:full": "13000 Folsom Blvd", "addr:city": "Folsom", "addr:state": "California", "addr:postcode": "95630", "addr:country": "US", "name": "Folsom", "phone": "(916) 351-9143", "website": "https://stores.loft.com/outlet/us/ca/folsom/13000-folsom-blvd.html", "opening_hours": "Mo-Th 11:00-19:00; Fr-Sa 10:00-20:00; Su 11:00-19:00", "brand": "LOFT Outlet", "brand:wikidata": "Q62075137", "nsi_id": "loft-0dc75b"}, "geometry": {"type": "Point", "coordinates": [-121.186537, 38.64314]}},
{"type": "Feature", "id": "SPdAAvPDTdRXCRez-yZurFscmrw=", "properties": {"ref": "ca_orange_20-city-blvd-west", "@spider": "loft", "clothes": "women", "shop": "clothes", "addr:full": "20 City Blvd West", "addr:city": "Orange", "addr:state": "California", "addr:postcode": "92868", "addr:country": "US", "name": "at Orange", "phone": "(714) 935-0180", "website": "https://stores.loft.com/outlet/us/ca/orange/20-city-blvd-west.html", "opening_hours": "Mo-Sa 10:00-21:00; Su 11:00-20:00", "brand": "LOFT Outlet", "brand:wikidata": "Q62075137", "nsi_id": "loft-0dc75b"}, "geometry": {"type": "Point", "coordinates": [-117.89259562963866, 33.782946014800906]}}]}