{"type":"FeatureCollection","features":[{"type": "Feature", "id": "iPytkfj97qJ64KT5KxGPXdTNj4Y=", "properties": {"ref": "\u9e97\u4eac\u68e7\u9580\u5e02(\u5373\u5c07\u958b\u5e55)", "@spider": "louisa_coffee", "amenity": "cafe", "brand:en": "Louisa Coffee", "brand:zh": "\u8def\u6613\u838e\u5496\u5561", "cuisine": "coffee_shop", "name:en": "Louisa Coffee", "name:zh": "\u8def\u6613\u838e\u5496\u5561", "takeaway": "yes", "addr:full": "\u65b0\u5317\u5e02 \u6cf0\u5c71\u5340 \u65b0\u5317\u5927\u9053\u4e03\u6bb536\u865f", "name": "\u9e97\u4eac\u68e7\u9580\u5e02(\u5373\u5c07\u958b\u5e55)", "brand": "Louisa Coffee", "brand:wikidata": "Q67933328", "nsi_id": "louisacoffee-7d270d"}},
{"type": "Feature", "id": "8VoeR4YbcRtwk66u9Rsf96hwGXE=", "properties": {"ref": "\u79d1\u6280\u5927\u6a13\u9580\u5e02(\u5373\u5c07\u958b\u5e55)", "@spider": "louisa_coffee", "amenity": "cafe", "brand:en": "Louisa Coffee", "brand:zh": "\u8def\u6613\u838e\u5496\u5561", "cuisine": "coffee_shop", "name:en": "Louisa Coffee", "name:zh": "\u8def\u6613\u838e\u5496\u5561", "takeaway": "yes", "addr:full": "\u53f0\u5317\u5e02 \u5927\u5b89\u5340 \u548c\u5e73\u6771\u8def\u4e8c\u6bb5255\u865f", "name": "\u79d1\u6280\u5927\u6a13\u9580\u5e02(\u5373\u5c07\u958b\u5e55)", "brand": "Louisa Coffee", "brand:wikidata": "Q67933328", "nsi_id": "louisacoffee-7d270d"}},
{"type": "Feature", "id": "oPAUcyOaNw9sI60u1uYe1TeyZk4=", "properties": {"ref": "\u65b0\u7af9\u5152\u7ae5\u99ac\u5055\u91ab\u9662\u9580\u5e02", "@spider": "louisa_coffee", "amenity": "cafe", "brand:en": "Louisa Coffee", "brand:zh": "\u8def\u6613\u838e\u5496\u5561", "cuisine": "coffee_shop", "name:en": "Louisa Coffee", "name:zh": "\u8def\u6613\u838e\u5496\u5561", "takeaway": "yes", "addr:full": "\u65b0\u7af9\u5e02 \u6771\u5340 \u5efa\u529f\u4e8c\u8def28\u865f1F", "name": "\u65b0\u7af9\u5152\u7ae5\u99ac\u5055\u91ab\u9662\u9580\u5e02", "brand": "Louisa Coffee", "brand:wikidata": "Q67933328", "nsi_id": "louisacoffee-7d270d"}},
{"type": "Feature", "id": "OUO361yfBZUDL_qVHlikdAfViZg=", "properties": {"ref": "\u677e\u5c71\u9ad8\u4e2d\u9580\u5e02", "@spider": "louisa_coffee", "amenity": "cafe", "brand:en": "Louisa Coffee", "brand:zh": "\u8def\u6613\u838e\u5496\u5561", "cuisine": "coffee_shop", "name:en": "Louisa Coffee", "name:zh": "\u8def\u6613\u838e\u5496\u5561", "takeaway": "yes", "addr:full": "\u53f0\u5317\u5e02 \u4fe1\u7fa9\u5340 \u57fa\u9686\u8def\u4e00\u6bb5188-1\u865f1\u6a13", "name": "\u677e\u5c71\u9ad8\u4e2d\u9580\u5e02", "brand": "Louisa Coffee", "brand:wikidata": "Q67933328", "nsi_id": "louisacoffee-7d270d"}},
{"type": "Feature", "id": "XLiIFlzrXLhiblbaguL3zilR68Y=", "properties": {"ref": "\u65b0\u5e97\u8015\u8398\u9580\u5e02", "@spider": "louisa_coffee", "amenity": "cafe", "brand:en": "Louisa Coffee", "brand:zh": "\u8def\u6613\u838e\u5496\u5561", "cuisine": "coffee_shop", "name:en": "Louisa Coffee", "name:zh": "\u8def\u6613\u838e\u5496\u5561", "takeaway": "yes", "addr:full": "\u65b0\u5317\u5e02 \u65b0\u5e97\u5340 \u4e2d\u6b63\u8def368\u865f1-2F", "name": "\u65b0\u5e97\u8015\u8398\u9580\u5e02", "brand": "Louisa Coffee", "brand:wikidata": "Q67933328", "nsi_id": "louisacoffee-7d270d"}},
{"type": "Feature", "id": "hF9o7kPCDtbrdGGaLdPrjY42baY=", "properties": {"ref": "\u69ae\u5fb7\u5c71\u897f\u9580\u5e02", "@spider": "louisa_coffee", "amenity": "cafe", "brand:en": "Louisa Coffee", "brand:zh": "\u8def\u6613\u838e\u5496\u5561", "cuisine": "coffee_shop", "name:en": "Louisa Coffee", "name:zh": "\u8def\u6613\u838e\u5496\u5561", "takeaway": "yes", "addr:full": "\u53f0\u4e2d\u5e02  \u5317\u5c6f\u5340\u69ae\u5fb7\u8def263\u865f", "name": "\u69ae\u5fb7\u5c71\u897f\u9580\u5e02", "brand": "Louisa Coffee", "brand:wikidata": "Q67933328", "nsi_id": "louisacoffee-7d270d"}},
{"type": "Feature", "id": "yW4x4bqwBJ3ifp4LsC4iypVltYI=", "properties": {"ref": "\u83ef\u57ce\u793e\u5340\u9580\u5e02", "@spider": "louisa_coffee", "amenity": "cafe", "brand:en": "Louisa Coffee", "brand:zh": "\u8def\u6613\u838e\u5496\u5561", "cuisine": "coffee_shop", "name:en": "Louisa Coffee", "name:zh": "\u8def\u6613\u838e\u5496\u5561", "takeaway": "yes", "addr:full": "\u65b0\u5317\u5e02  \u65b0\u5e97\u5340\u4e2d\u6b63\u8def696\u865f1\u6a13", "name": "\u83ef\u57ce\u793e\u5340\u9580\u5e02", "brand": "Louisa Coffee", "brand:wikidata": "Q67933328", "nsi_id": "louisacoffee-7d270d"}},
{"type": "Feature", "id": "G3JrOYv3LznwvFJHeZwqEPFuS3w=", "properties": {"ref": "\u9ad8\u96c4\u5927\u793e\u9580\u5e02", "@spider": "louisa_coffee", "amenity": "cafe", "brand:en": "Louisa Coffee", "brand:zh": "\u8def\u6613\u838e\u5496\u5561", "cuisine": "coffee_shop", "name:en": "Louisa Coffee", "name:zh": "\u8def\u6613\u838e\u5496\u5561", "takeaway": "yes", "addr:full": "\u9ad8\u96c4\u5e02  \u5927\u793e\u5340\u5927\u793e\u8def42\u865f", "name": "\u9ad8\u96c4\u5927\u793e\u9580\u5e02", "brand": "Louisa Coffee", "brand:wikidata": "Q67933328", "nsi_id": "louisacoffee-7d270d"}},
{"type": "Feature", "id": "0APPr7-LH-wg13Xpe2krwq0043Q=", "properties": {"ref": "\u6c11\u6b0a\u897f\u9580\u5e02", "@spider": "louisa_coffee", "amenity": "cafe", "brand:en": "Louisa Coffee", "brand:zh": "\u8def\u6613\u838e\u5496\u5561", "cuisine": "coffee_shop", "name:en": "Louisa Coffee", "name:zh": "\u8def\u6613\u838e\u5496\u5561", "takeaway": "yes", "addr:full": "\u53f0\u5317\u5e02 \u4e2d\u5c71\u5340 \u6c11\u6b0a\u897f\u8def3\u865f\u30015\u865f", "name": "\u6c11\u6b0a\u897f\u9580\u5e02", "brand": "Louisa Coffee", "brand:wikidata": "Q67933328", "nsi_id": "louisacoffee-7d270d"}, "geometry": {"type": "Point", "coordinates": [121.5199315, 25.0630045]}},
{"type": "Feature", "id": "Msmh0Iy4RRrRbRyiXP2p1J8MHw8=", "properties": {"ref": "\u7b2c\u4e09\u6ce2\u5496\u5561 \u68e7\u8cb3\u5eab\u9580\u5e02", "@spider": "louisa_coffee", "amenity": "cafe", "brand:en": "Louisa Coffee", "brand:zh": "\u8def\u6613\u838e\u5496\u5561", "cuisine": "coffee_shop", "name:en": "Louisa Coffee", "name:zh": "\u8def\u6613\u838e\u5496\u5561", "takeaway": "yes", "addr:full": "\u9ad8\u96c4\u5e02 \u9f13\u5c71\u5340 \u84ec\u840a\u8def17\u865f\u6ac3\u865f2108", "name": "\u7b2c\u4e09\u6ce2\u5496\u5561 \u68e7\u8cb3\u5eab\u9580\u5e02", "brand": "Louisa Coffee", "brand:wikidata": "Q67933328", "nsi_id": "louisacoffee-7d270d"}, "geometry": {"type": "Point", "coordinates": [120.2770099, 22.6190001]}}]}