{"type":"FeatureCollection","features":[{"type": "Feature", "id": "_u_k0cmehnm0Vf4ww-ZYtUMGpLU=", "properties": {"ref": "store-175", "@spider": "lowes-foods", "shop": "supermarket", "addr:full": "9441 NC Highway 127", "addr:city": "Hickory", "addr:state": "NC", "addr:postcode": "28601", "addr:country": "US", "name": "Lowes Foods of Bethlehem", "phone": "828-495-1105", "website": "https://www.lowesfoods.com/store-locator/store-175", "opening_hours": "Mo-Su 07:00-23:00", "brand": "Lowes Foods", "brand:wikidata": "Q6693991", "nsi_id": "lowesfoods-dde59d"}, "geometry": {"type": "Point", "coordinates": [-81.3069, 35.8131]}},
{"type": "Feature", "id": "x9OGFD3oHgtfczBxlPNMIf-42b8=", "properties": {"ref": "store-171", "@spider": "lowes-foods", "shop": "supermarket", "addr:full": "177 Lowes Foods Drive", "addr:city": "Lewisville", "addr:state": "NC", "addr:postcode": "27023", "addr:country": "US", "name": "Lowes Foods of Lewisville", "phone": "336-945-5307", "website": "https://www.lowesfoods.com/store-locator/store-171", "opening_hours": "Mo-Su 07:00-22:00", "brand": "Lowes Foods", "brand:wikidata": "Q6693991", "nsi_id": "lowesfoods-dde59d"}, "geometry": {"type": "Point", "coordinates": [-80.4138, 36.1003]}},
{"type": "Feature", "id": "bTne-NHFAdcwSifefJunUgxrc34=", "properties": {"ref": "store-169", "@spider": "lowes-foods", "shop": "supermarket", "addr:full": "11711 US 70 Hwy Business West", "addr:city": "Clayton", "addr:state": "NC", "addr:postcode": "27520", "addr:country": "US", "name": "Lowes Foods of Clayton", "phone": "919-550-6740", "website": "https://www.lowesfoods.com/store-locator/store-169", "opening_hours": "Mo-Su 06:00-00:00", "brand": "Lowes Foods", "brand:wikidata": "Q6693991", "nsi_id": "lowesfoods-dde59d"}, "geometry": {"type": "Point", "coordinates": [-78.477988, 35.65512]}},
{"type": "Feature", "id": "QqU3wGH_-BVh6YiRFxY5_moZkJQ=", "properties": {"ref": "store-167", "@spider": "lowes-foods", "shop": "supermarket", "addr:full": "11312 Highway 15 501 N.", "addr:city": "Chapel Hill", "addr:state": "Hill,", "addr:postcode": "NC", "addr:country": "US", "name": "Lowes Foods of Chapel Hill", "phone": "919-969-1464", "website": "https://www.lowesfoods.com/store-locator/store-167", "opening_hours": "Mo-Su 06:00-00:00", "brand": "Lowes Foods", "brand:wikidata": "Q6693991", "nsi_id": "lowesfoods-dde59d"}, "geometry": {"type": "Point", "coordinates": [-79.087404, 35.844263]}},
{"type": "Feature", "id": "W70UXCwJGeJYa2JyjZvYcH5BPik=", "properties": {"ref": "store-165", "@spider": "lowes-foods", "shop": "supermarket", "addr:full": "2890 Reynolda Road", "addr:city": "Winston-Salem", "addr:state": "NC", "addr:postcode": "27106", "addr:country": "US", "name": "Lowes Foods of Reynolda", "phone": "336-725-7759", "website": "https://www.lowesfoods.com/store-locator/store-165", "opening_hours": "Mo-Su 07:00-22:00", "brand": "Lowes Foods", "brand:wikidata": "Q6693991", "nsi_id": "lowesfoods-dde59d"}, "geometry": {"type": "Point", "coordinates": [-80.3002, 36.1443]}},
{"type": "Feature", "id": "mmrMhwarOMHC6B_A2N0EN-SGvsw=", "properties": {"ref": "store-164", "@spider": "lowes-foods", "shop": "supermarket", "addr:full": "948 South State Street", "addr:city": "Yadkinville", "addr:state": "NC", "addr:postcode": "27055", "addr:country": "US", "name": "Lowes Foods of Yadkinville", "phone": "336-679-2677", "website": "https://www.lowesfoods.com/store-locator/store-164", "opening_hours": "Mo-Su 07:00-21:00", "brand": "Lowes Foods", "brand:wikidata": "Q6693991", "nsi_id": "lowesfoods-dde59d"}, "geometry": {"type": "Point", "coordinates": [-80.660721, 36.117574]}},
{"type": "Feature", "id": "01ekvH7pPzaWo8NrANfw8zeIMVg=", "properties": {"ref": "store-162", "@spider": "lowes-foods", "shop": "supermarket", "addr:full": "6430 Tryon Road", "addr:city": "Cary", "addr:state": "NC", "addr:postcode": "27513", "addr:country": "US", "name": "Lowes Foods of Cary Tryon", "phone": "919-859-9335", "website": "https://www.lowesfoods.com/store-locator/store-162", "opening_hours": "Mo-Su 06:00-00:00", "brand": "Lowes Foods", "brand:wikidata": "Q6693991", "nsi_id": "lowesfoods-dde59d"}, "geometry": {"type": "Point", "coordinates": [-78.7614, 35.7451]}},
{"type": "Feature", "id": "QbdlBeUXt6Q8m8bvqpnE4LqUZWE=", "properties": {"ref": "store-161", "@spider": "lowes-foods", "shop": "supermarket", "addr:full": "2501 Lewisville-Clemmons Road", "addr:city": "Clemmons", "addr:state": "NC", "addr:postcode": "27012", "addr:country": "US", "name": "Lowes Foods of Clemmons", "phone": "336-766-1608", "website": "https://www.lowesfoods.com/store-locator/store-161", "opening_hours": "Mo-Su 07:00-23:00", "brand": "Lowes Foods", "brand:wikidata": "Q6693991", "nsi_id": "lowesfoods-dde59d"}, "geometry": {"type": "Point", "coordinates": [-80.38085, 36.028655]}},
{"type": "Feature", "id": "fhFaWRifgmRfVXa2B3A5lWz5qR4=", "properties": {"ref": "store-160", "@spider": "lowes-foods", "shop": "supermarket", "addr:full": "266 Central Park Avenue", "addr:city": "Pinehurst", "addr:state": "NC", "addr:postcode": "28374", "addr:country": "US", "name": "Lowes Foods of Pinehurst", "phone": "910-235-0150", "website": "https://www.lowesfoods.com/store-locator/store-160", "opening_hours": "Mo-Su 07:00-23:00", "brand": "Lowes Foods", "brand:wikidata": "Q6693991", "nsi_id": "lowesfoods-dde59d"}, "geometry": {"type": "Point", "coordinates": [-79.479943, 35.205215]}},
{"type": "Feature", "id": "r0sIXRAGeA5RH2DfD6A7IW3hihY=", "properties": {"ref": "store-159", "@spider": "lowes-foods", "shop": "supermarket", "addr:full": "1537 Freeway Drive", "addr:city": "Reidsville", "addr:state": "NC", "addr:postcode": "27320", "addr:country": "US", "name": "Lowes Foods of Reidsville", "phone": "336-616-1322", "website": "https://www.lowesfoods.com/store-locator/store-159", "opening_hours": "Mo-Su 07:00-22:00", "brand": "Lowes Foods", "brand:wikidata": "Q6693991", "nsi_id": "lowesfoods-dde59d"}, "geometry": {"type": "Point", "coordinates": [-79.6809, 36.366]}},
{"type": "Feature", "id": "mUKKOWeU8gPqwaflCvduWYd6ZtI=", "properties": {"ref": "store-158", "@spider": "lowes-foods", "shop": "supermarket", "addr:full": "4000 NC Highway 105 S", "addr:city": "Banner Elk", "addr:state": "Elk,", "addr:postcode": "NC", "addr:country": "US", "name": "Lowes Foods of Banner Elk", "phone": "828-898-9565", "website": "https://www.lowesfoods.com/store-locator/store-158", "opening_hours": "Mo-Su 07:00-22:00", "brand": "Lowes Foods", "brand:wikidata": "Q6693991", "nsi_id": "lowesfoods-dde59d"}, "geometry": {"type": "Point", "coordinates": [-81.8388, 36.1191]}},
{"type": "Feature", "id": "L8KaO6kCGhzComOAk4TaTIkM8tY=", "properties": {"ref": "store-157", "@spider": "lowes-foods", "shop": "supermarket", "addr:full": "818 Spring Lane", "addr:city": "Sanford", "addr:state": "NC", "addr:postcode": "27330", "addr:country": "US", "name": "Lowes Foods of Sanford", "phone": "919-708-5950", "website": "https://www.lowesfoods.com/store-locator/store-157", "opening_hours": "Mo-Su 07:00-22:00", "brand": "Lowes Foods", "brand:wikidata": "Q6693991", "nsi_id": "lowesfoods-dde59d"}, "geometry": {"type": "Point", "coordinates": [-79.193715, 35.488509]}},
{"type": "Feature", "id": "EbPFFgbbuDBFiPVWYlw9Cn4zogs=", "properties": {"ref": "store-155", "@spider": "lowes-foods", "shop": "supermarket", "addr:full": "6310 Old Oak Ridge Road, Suite G", "addr:city": "Greensboro", "addr:state": "NC", "addr:postcode": "27410", "addr:country": "US", "name": "Lowes Foods at Cardinal", "phone": "336-668-2118", "website": "https://www.lowesfoods.com/store-locator/store-155", "opening_hours": "Mo-Su 07:00-22:00", "brand": "Lowes Foods", "brand:wikidata": "Q6693991", "nsi_id": "lowesfoods-dde59d"}, "geometry": {"type": "Point", "coordinates": [-79.933, 36.1255]}},
{"type": "Feature", "id": "Bk2qmWbrcedFYvTAHn6Jyr8nwh4=", "properties": {"ref": "store-151", "@spider": "lowes-foods", "shop": "supermarket", "addr:full": "737 West Dixie Drive", "addr:city": "Asheboro", "addr:state": "NC", "addr:postcode": "27203", "addr:country": "US", "name": "Lowes Foods of Asheboro", "phone": "336-629-2775", "website": "https://www.lowesfoods.com/store-locator/store-151", "opening_hours": "Mo-Su 07:00-23:00", "brand": "Lowes Foods", "brand:wikidata": "Q6693991", "nsi_id": "lowesfoods-dde59d"}, "geometry": {"type": "Point", "coordinates": [-79.8263, 35.6858]}},
{"type": "Feature", "id": "jOB0uTYW4t5wTW24Lie4BnJIMqE=", "properties": {"ref": "store-149", "@spider": "lowes-foods", "shop": "supermarket", "addr:full": "3372 Robinhood Road", "addr:city": "Winston-Salem", "addr:state": "NC", "addr:postcode": "27106", "addr:country": "US", "name": "Lowes Foods of Robinhood", "phone": "336-659-4943", "website": "https://www.lowesfoods.com/store-locator/store-149", "opening_hours": "Mo-Su 07:00-23:00", "brand": "Lowes Foods", "brand:wikidata": "Q6693991", "nsi_id": "lowesfoods-dde59d"}, "geometry": {"type": "Point", "coordinates": [-80.3127, 36.1159]}},
{"type": "Feature", "id": "e7A8pdhWk85fezTiMyDsaKSPoYA=", "properties": {"ref": "store-145", "@spider": "lowes-foods", "shop": "supermarket", "addr:full": "301 S Main Street, Suite D", "addr:city": "Stuart", "addr:state": "VA", "addr:postcode": "24171", "addr:country": "US", "name": "Lowes Foods of Stuart", "phone": "276-694-5656", "website": "https://www.lowesfoods.com/store-locator/store-145", "brand": "Lowes Foods", "brand:wikidata": "Q6693991", "nsi_id": "lowesfoods-dde59d"}, "geometry": {"type": "Point", "coordinates": [-80.2696, 36.6363]}},
{"type": "Feature", "id": "iBLXQoey7dzyMV0-3vBQJx_VsvM=", "properties": {"ref": "store-280", "@spider": "lowes-foods", "shop": "supermarket", "addr:full": "14021 Boren Street", "addr:city": "Huntersville", "addr:state": "NC", "addr:postcode": "28078", "addr:country": "US", "name": "Lowes Foods of Huntersville", "phone": "(704) 282-8944", "website": "https://www.lowesfoods.com/store-locator/store-280", "opening_hours": "Mo-Su 06:00-22:00", "brand": "Lowes Foods", "brand:wikidata": "Q6693991", "nsi_id": "lowesfoods-dde59d"}, "geometry": {"type": "Point", "coordinates": [-80.86663, 35.40433]}},
{"type": "Feature", "id": "hGQ3gyYowjLMTlBvBjz82v_IeRM=", "properties": {"ref": "store-279", "@spider": "lowes-foods", "shop": "supermarket", "addr:full": "1000 Tanner Ford Blvd", "addr:city": "Hanahan", "addr:state": "SC", "addr:postcode": "29410", "addr:country": "US", "name": "Lowes Foods of Hanahan", "phone": "(843) 553-4077", "website": "https://www.lowesfoods.com/store-locator/store-279", "opening_hours": "Mo-Su 06:00-23:00", "brand": "Lowes Foods", "brand:wikidata": "Q6693991", "nsi_id": "lowesfoods-dde59d"}, "geometry": {"type": "Point", "coordinates": [-79.998268, 32.934139]}},
{"type": "Feature", "id": "S2ylE2BaZ5KTyF-Pb1i24VjtHik=", "properties": {"ref": "store-278", "@spider": "lowes-foods", "shop": "supermarket", "addr:full": "3125 Bees Ferry Road", "addr:city": "Charleston", "addr:state": "SC", "addr:postcode": "29414", "addr:country": "US", "name": "Lowes Foods of West Ashley", "phone": "843-766-3360", "website": "https://www.lowesfoods.com/store-locator/store-278", "opening_hours": "Mo-Su 06:00-23:00", "brand": "Lowes Foods", "brand:wikidata": "Q6693991", "nsi_id": "lowesfoods-dde59d"}, "geometry": {"type": "Point", "coordinates": [-80.060738, 32.840069]}},
{"type": "Feature", "id": "9lJ8ZHsogG7DZLjU8wB3rlYpJkU=", "properties": {"ref": "store-277", "@spider": "lowes-foods", "shop": "supermarket", "addr:full": "1419 Chapin Road", "addr:city": "Chapin", "addr:state": "SC", "addr:postcode": "29036", "addr:country": "US", "name": "Lowes Foods of Chapin", "phone": "803-945-9235", "website": "https://www.lowesfoods.com/store-locator/store-277", "opening_hours": "Mo-Su 07:00-22:00", "brand": "Lowes Foods", "brand:wikidata": "Q6693991", "nsi_id": "lowesfoods-dde59d"}, "geometry": {"type": "Point", "coordinates": [-81.35743, 34.166271]}},
{"type": "Feature", "id": "V7kX7POM31fSL4xbemBqbDIZ7O4=", "properties": {"ref": "store-276", "@spider": "lowes-foods", "shop": "supermarket", "addr:full": "120 Forum Drive", "addr:city": "Columbia", "addr:state": "SC", "addr:postcode": "29229", "addr:country": "US", "name": "Lowes Foods of Sandhill", "phone": "803-699-8332", "website": "https://www.lowesfoods.com/store-locator/store-276", "opening_hours": "Mo-Su 06:00-22:00", "brand": "Lowes Foods", "brand:wikidata": "Q6693991", "nsi_id": "lowesfoods-dde59d"}, "geometry": {"type": "Point", "coordinates": [-80.88073, 34.13434]}},
{"type": "Feature", "id": "gx8LBlHg35T6lFx2ihd9OTVo2D8=", "properties": {"ref": "store-275", "@spider": "lowes-foods", "shop": "supermarket", "addr:full": "3619 Pelham Road", "addr:city": "Greenville", "addr:state": "SC", "addr:postcode": "29615", "addr:country": "US", "name": "Lowes Foods of Pelham Road", "phone": "864-288-4162", "website": "https://www.lowesfoods.com/store-locator/store-275", "opening_hours": "Mo-Su 06:00-22:00", "brand": "Lowes Foods", "brand:wikidata": "Q6693991", "nsi_id": "lowesfoods-dde59d"}, "geometry": {"type": "Point", "coordinates": [-82.26813, 34.86051]}},
{"type": "Feature", "id": "zWiYHSzy9j14PNDzlaMOB0nm43E=", "properties": {"ref": "store-273", "@spider": "lowes-foods", "shop": "supermarket", "addr:full": "5011 Southport Crossing Way", "addr:city": "Southport", "addr:state": "NC", "addr:postcode": "28461", "addr:country": "US", "name": "Lowes Foods of Southport", "phone": "910-363-8044", "website": "https://www.lowesfoods.com/store-locator/store-273", "opening_hours": "Mo-Su 06:00-23:00", "brand": "Lowes Foods", "brand:wikidata": "Q6693991", "nsi_id": "lowesfoods-dde59d"}, "geometry": {"type": "Point", "coordinates": [-78.0501, 33.9549]}},
{"type": "Feature", "id": "eoJ8r_T7w7NXNUToC1K7On7HWMA=", "properties": {"ref": "store-272", "@spider": "lowes-foods", "shop": "supermarket", "addr:full": "4711 Forest Drive", "addr:city": "Columbia", "addr:state": "SC", "addr:postcode": "29206", "addr:country": "US", "name": "Lowes Foods of Forest Acres", "phone": "803-638-4611", "website": "https://www.lowesfoods.com/store-locator/store-272", "opening_hours": "Mo-Su 07:00-22:00", "brand": "Lowes Foods", "brand:wikidata": "Q6693991", "nsi_id": "lowesfoods-dde59d"}, "geometry": {"type": "Point", "coordinates": [-80.968549, 34.020922]}},
{"type": "Feature", "id": "5ajQ3v08qBLn6BpXsBfDcOhuwKQ=", "properties": {"ref": "store-270", "@spider": "lowes-foods", "shop": "supermarket", "addr:full": "10048 Dorchester Road", "addr:city": "Summerville", "addr:state": "SC", "addr:postcode": "29485", "addr:country": "US", "name": "Lowes Foods of Summerville", "phone": "843-285-8967", "website": "https://www.lowesfoods.com/store-locator/store-270", "opening_hours": "Mo-Su 06:00-23:00", "brand": "Lowes Foods", "brand:wikidata": "Q6693991", "nsi_id": "lowesfoods-dde59d"}, "geometry": {"type": "Point", "coordinates": [-80.164337, 32.953692]}},
{"type": "Feature", "id": "YWpGedPVyzAIJvFrB2UWbedkvuw=", "properties": {"ref": "store-268", "@spider": "lowes-foods", "shop": "supermarket", "addr:full": "2440 Augusta Highway", "addr:city": "Lexington", "addr:state": "SC", "addr:postcode": "29072", "addr:country": "US", "name": "Lowes Foods of Augusta Highway", "phone": "803-785-6510", "website": "https://www.lowesfoods.com/store-locator/store-268", "opening_hours": "Mo-Su 06:00-23:00", "brand": "Lowes Foods", "brand:wikidata": "Q6693991", "nsi_id": "lowesfoods-dde59d"}, "geometry": {"type": "Point", "coordinates": [-81.306705, 33.979502]}},
{"type": "Feature", "id": "VkLw6h4278FlwT0--sJK8OBOBrM=", "properties": {"ref": "store-267", "@spider": "lowes-foods", "shop": "supermarket", "addr:full": "5222 Sunset Boulevard", "addr:city": "Lexington", "addr:state": "SC", "addr:postcode": "29072", "addr:country": "US", "name": "Lowes Foods of Sunset", "phone": "803-785-5590", "website": "https://www.lowesfoods.com/store-locator/store-267", "opening_hours": "Mo-Su 06:00-23:00", "brand": "Lowes Foods", "brand:wikidata": "Q6693991", "nsi_id": "lowesfoods-dde59d"}, "geometry": {"type": "Point", "coordinates": [-81.203328, 34.004777]}},
{"type": "Feature", "id": "eqVkmH6ZSCTWpmqdvEY6KWFp1Hc=", "properties": {"ref": "store-266", "@spider": "lowes-foods", "shop": "supermarket", "addr:full": "240 Market View Drive", "addr:city": "Kernersville", "addr:state": "NC", "addr:postcode": "27285", "addr:country": "US", "name": "Lowes Foods of Kernersville", "phone": "336-992-1860", "website": "https://www.lowesfoods.com/store-locator/store-266", "opening_hours": "Mo-Su 07:00-23:00", "brand": "Lowes Foods", "brand:wikidata": "Q6693991", "nsi_id": "lowesfoods-dde59d"}, "geometry": {"type": "Point", "coordinates": [-80.087365, 36.11292]}},
{"type": "Feature", "id": "Esan1X9uYgkyl4l_E6r--8xy-HU=", "properties": {"ref": "store-265", "@spider": "lowes-foods", "shop": "supermarket", "addr:full": "2110 SC Highway 41", "addr:city": "Mount Pleasant", "addr:state": "Pleasant,", "addr:postcode": "SC", "addr:country": "US", "name": "Lowes Foods of Mount Pleasant", "phone": "843-216-0860", "website": "https://www.lowesfoods.com/store-locator/store-265", "opening_hours": "Mo-Su 06:00-23:00", "brand": "Lowes Foods", "brand:wikidata": "Q6693991", "nsi_id": "lowesfoods-dde59d"}, "geometry": {"type": "Point", "coordinates": [-79.82134, 32.900513]}},
{"type": "Feature", "id": "wPbewheh0YoqBrbP2ipEq6HWAnE=", "properties": {"ref": "store-264", "@spider": "lowes-foods", "shop": "supermarket", "addr:full": "2815 Woodruff Rd", "addr:city": "Simpsonville", "addr:state": "SC", "addr:postcode": "29681", "addr:country": "US", "name": "Lowes Foods of Five Forks", "phone": "864-234-6842", "website": "https://www.lowesfoods.com/store-locator/store-264", "opening_hours": "Mo-Su 06:00-23:00", "brand": "Lowes Foods", "brand:wikidata": "Q6693991", "nsi_id": "lowesfoods-dde59d"}, "geometry": {"type": "Point", "coordinates": [-82.224202, 34.811573]}},
{"type": "Feature", "id": "eOiN7qfxXoqsyEOczW3vmTvcQiU=", "properties": {"ref": "store-263", "@spider": "lowes-foods", "shop": "supermarket", "addr:full": "850 East Suber Road, Suite 200", "addr:city": "Greer", "addr:state": "SC", "addr:postcode": "29650", "addr:country": "US", "name": "Lowes Foods of Greer", "phone": "864-848-9666", "website": "https://www.lowesfoods.com/store-locator/store-263", "opening_hours": "Mo-Su 06:00-23:00", "brand": "Lowes Foods", "brand:wikidata": "Q6693991", "nsi_id": "lowesfoods-dde59d"}, "geometry": {"type": "Point", "coordinates": [-82.252231, 34.894573]}},
{"type": "Feature", "id": "GFXlN2pr67-i2_nT2sb36ngE-uU=", "properties": {"ref": "store-262", "@spider": "lowes-foods", "shop": "supermarket", "addr:full": "687 Mills Park Drive", "addr:city": "Cary", "addr:state": "NC", "addr:postcode": "27519", "addr:country": "US", "name": "Lowes Foods at Cary Mills Park", "phone": "919-297-2995", "website": "https://www.lowesfoods.com/store-locator/store-262", "opening_hours": "Mo-Su 06:00-00:00", "brand": "Lowes Foods", "brand:wikidata": "Q6693991", "nsi_id": "lowesfoods-dde59d"}, "geometry": {"type": "Point", "coordinates": [-78.90143, 35.81285]}},
{"type": "Feature", "id": "oJcysjhQgzRqr-YI6TTXKnsKbqk=", "properties": {"ref": "store-261", "@spider": "lowes-foods", "shop": "supermarket", "addr:full": "1740 Old Morganton Road", "addr:city": "Southern Pines", "addr:state": "Pines,", "addr:postcode": "NC", "addr:country": "US", "name": "Lowes Foods of Southern Pines", "phone": "910-246-2235", "website": "https://www.lowesfoods.com/store-locator/store-261", "opening_hours": "Mo-Su 07:00-23:00", "brand": "Lowes Foods", "brand:wikidata": "Q6693991", "nsi_id": "lowesfoods-dde59d"}, "geometry": {"type": "Point", "coordinates": [-79.422779, 35.175145]}},
{"type": "Feature", "id": "LQornkOCI3MW2e0c0yLdNkWxFSc=", "properties": {"ref": "store-260", "@spider": "lowes-foods", "shop": "supermarket", "addr:full": "2421 Gum Branch Road, Unit 200", "addr:city": "Jacksonville", "addr:state": "NC", "addr:postcode": "28540", "addr:country": "US", "name": "Lowes Foods of Jacksonville", "phone": "910-939-4358", "website": "https://www.lowesfoods.com/store-locator/store-260", "opening_hours": "Mo-Su 06:00-23:00", "brand": "Lowes Foods", "brand:wikidata": "Q6693991", "nsi_id": "lowesfoods-dde59d"}, "geometry": {"type": "Point", "coordinates": [-77.407467, 34.770251]}},
{"type": "Feature", "id": "BtStTjlhMolsFyB7sZpyEddg73M=", "properties": {"ref": "store-259", "@spider": "lowes-foods", "shop": "supermarket", "addr:full": "9160 Ocean Highway", "addr:city": "Pawleys Island", "addr:state": "Island,", "addr:postcode": "SC", "addr:country": "US", "name": "Lowes Foods of Pawleys Island", "phone": "843-235-3007", "website": "https://www.lowesfoods.com/store-locator/store-259", "opening_hours": "Mo-Su 07:00-22:00", "brand": "Lowes Foods", "brand:wikidata": "Q6693991", "nsi_id": "lowesfoods-dde59d"}, "geometry": {"type": "Point", "coordinates": [-79.145154, 33.43064]}},
{"type": "Feature", "id": "OotW86IFlA_4VfSae6wZ9ygXWOE=", "properties": {"ref": "store-254", "@spider": "lowes-foods", "shop": "supermarket", "addr:full": "3010-A N Center Street", "addr:city": "Hickory", "addr:state": "NC", "addr:postcode": "28601", "addr:country": "US", "name": "Lowes Foods of Belle Hollow", "phone": "828-322-2888", "website": "https://www.lowesfoods.com/store-locator/store-254", "opening_hours": "Mo-Su 06:00-23:00", "brand": "Lowes Foods", "brand:wikidata": "Q6693991", "nsi_id": "lowesfoods-dde59d"}, "geometry": {"type": "Point", "coordinates": [-81.327324, 35.776879]}},
{"type": "Feature", "id": "aGgFTuqsCDiHFxqMTnuKl5agyJE=", "properties": {"ref": "store-250", "@spider": "lowes-foods", "shop": "supermarket", "addr:full": "1826 W US Highway 421 Suite C", "addr:city": "Wilkesboro", "addr:state": "NC", "addr:postcode": "28697", "addr:country": "US", "name": "Lowes Foods of Wilkesboro", "phone": "336-903-0350", "website": "https://www.lowesfoods.com/store-locator/store-250", "opening_hours": "Mo-Su 07:00-23:00", "brand": "Lowes Foods", "brand:wikidata": "Q6693991", "nsi_id": "lowesfoods-dde59d"}, "geometry": {"type": "Point", "coordinates": [-81.1924, 36.1505]}},
{"type": "Feature", "id": "k5ZUB9AlQfVEAu4As3Ua67ZboGQ=", "properties": {"ref": "store-245", "@spider": "lowes-foods", "shop": "supermarket", "addr:full": "260 14th Avenue NE", "addr:city": "Hickory", "addr:state": "NC", "addr:country": "US", "name": "Lowes Foods of Viewmont", "phone": "828-256-0104", "website": "https://www.lowesfoods.com/store-locator/store-245", "opening_hours": "Mo-Su 06:00-00:00", "brand": "Lowes Foods", "brand:wikidata": "Q6693991", "nsi_id": "lowesfoods-dde59d"}, "geometry": {"type": "Point", "coordinates": [-81.333514, 35.751179]}},
{"type": "Feature", "id": "4MtU0jTmLEQv-4VDLhFefYbctP8=", "properties": {"ref": "store-243", "@spider": "lowes-foods", "shop": "supermarket", "addr:full": "5820F North Church Street", "addr:city": "Greensboro", "addr:state": "NC", "addr:postcode": "27455", "addr:country": "US", "name": "Lowes Foods of North Church", "phone": "336-644-7774", "website": "https://www.lowesfoods.com/store-locator/store-243", "opening_hours": "Mo-Su 07:00-22:00", "brand": "Lowes Foods", "brand:wikidata": "Q6693991", "nsi_id": "lowesfoods-dde59d"}, "geometry": {"type": "Point", "coordinates": [-79.78736, 36.218029]}},
{"type": "Feature", "id": "D4gCzB82bj_1iZbF53fpfNXrrvo=", "properties": {"ref": "store-242", "@spider": "lowes-foods", "shop": "supermarket", "addr:full": "17230 US Hwy 17", "addr:city": "Hampstead", "addr:state": "NC", "addr:postcode": "28443", "addr:country": "US", "name": "Lowes Foods of Hampstead", "phone": "910-270-6300", "website": "https://www.lowesfoods.com/store-locator/store-242", "opening_hours": "Mo-Su 06:00-23:00", "brand": "Lowes Foods", "brand:wikidata": "Q6693991", "nsi_id": "lowesfoods-dde59d"}, "geometry": {"type": "Point", "coordinates": [-77.719431, 34.358211]}},
{"type": "Feature", "id": "kWJBzpu3cnQJi7NM4QAb1Q9MZkc=", "properties": {"ref": "store-240", "@spider": "lowes-foods", "shop": "supermarket", "addr:full": "215 Fresh Drive", "addr:city": "Myrtle Beach", "addr:state": "Beach,", "addr:postcode": "SC", "addr:country": "US", "name": "Lowes Foods of Carolina Forest", "phone": "843-236-6555", "website": "https://www.lowesfoods.com/store-locator/store-240", "opening_hours": "Mo-Su 06:00-23:00", "brand": "Lowes Foods", "brand:wikidata": "Q6693991", "nsi_id": "lowesfoods-dde59d"}, "geometry": {"type": "Point", "coordinates": [-78.866472, 33.769658]}},
{"type": "Feature", "id": "NgbX1EzkocE6u9nsSPY_9qIIBlI=", "properties": {"ref": "store-239", "@spider": "lowes-foods", "shop": "supermarket", "addr:full": "932 Gateway Commons Circle", "addr:city": "Wake Forest", "addr:state": "Forest,", "addr:postcode": "NC", "addr:country": "US", "name": "Lowes Foods of Wake Forest Gateway", "phone": "919-554-0537", "website": "https://www.lowesfoods.com/store-locator/store-239", "opening_hours": "Mo-Su 06:00-00:00", "brand": "Lowes Foods", "brand:wikidata": "Q6693991", "nsi_id": "lowesfoods-dde59d"}, "geometry": {"type": "Point", "coordinates": [-78.49489, 35.967413]}},
{"type": "Feature", "id": "_61m6iWMf5gp7I8sk1xR94k3EPw=", "properties": {"ref": "store-237", "@spider": "lowes-foods", "shop": "supermarket", "addr:full": "1152 East Cutlar Crossing", "addr:city": "Leland", "addr:state": "NC", "addr:country": "US", "name": "Lowes Foods of Leland", "phone": "910-371-5544", "website": "https://www.lowesfoods.com/store-locator/store-237", "opening_hours": "Mo-Su 06:00-23:00", "brand": "Lowes Foods", "brand:wikidata": "Q6693991", "nsi_id": "lowesfoods-dde59d"}, "geometry": {"type": "Point", "coordinates": [-78.047905, 34.20174]}},
{"type": "Feature", "id": "EFxafYS-L7M74zOx4RiMFnsd2zs=", "properties": {"ref": "store-236", "@spider": "lowes-foods", "shop": "supermarket", "addr:full": "1020 Mebane Oaks Road", "addr:city": "Mebane", "addr:state": "NC", "addr:postcode": "27302", "addr:country": "US", "name": "Lowes Foods of Mebane", "phone": "919-563-0503", "website": "https://www.lowesfoods.com/store-locator/store-236", "opening_hours": "Mo-Su 07:00-23:00", "brand": "Lowes Foods", "brand:wikidata": "Q6693991", "nsi_id": "lowesfoods-dde59d"}, "geometry": {"type": "Point", "coordinates": [-79.275327, 36.074181]}},
{"type": "Feature", "id": "AX2FMjR5lnvYiovHgQALLRAnJLg=", "properties": {"ref": "store-235", "@spider": "lowes-foods", "shop": "supermarket", "addr:full": "2829 Midway Road SE, Oak Island", "addr:city": "Bolivia", "addr:state": "NC", "addr:postcode": "28422", "addr:country": "US", "name": "Lowes Foods of Oak Island", "phone": "910-253-6788", "website": "https://www.lowesfoods.com/store-locator/store-235", "opening_hours": "Mo-Su 06:00-23:00", "brand": "Lowes Foods", "brand:wikidata": "Q6693991", "nsi_id": "lowesfoods-dde59d"}, "geometry": {"type": "Point", "coordinates": [-78.130475, 33.972014]}},
{"type": "Feature", "id": "1k4Sxd-jmVkwev4b7tIUF0NS7qU=", "properties": {"ref": "store-233", "@spider": "lowes-foods", "shop": "supermarket", "addr:full": "11903 Hwy 707", "addr:city": "Murrells Inlet", "addr:state": "Inlet,", "addr:postcode": "SC", "addr:country": "US", "name": "Lowes Foods of Murrells Inlet", "phone": "843-651-1665", "website": "https://www.lowesfoods.com/store-locator/store-233", "opening_hours": "Mo-Su 06:00-23:00", "brand": "Lowes Foods", "brand:wikidata": "Q6693991", "nsi_id": "lowesfoods-dde59d"}, "geometry": {"type": "Point", "coordinates": [-79.052296, 33.586917]}},
{"type": "Feature", "id": "MC88VboyVMLY_SdZ_PXhhkpQJYE=", "properties": {"ref": "store-232", "@spider": "lowes-foods", "shop": "supermarket", "addr:full": "1399 S. Commons Drive", "addr:city": "Myrtle Beach", "addr:state": "Beach,", "addr:postcode": "SC", "addr:country": "US", "name": "Lowes Foods of Surfside", "phone": "843-650-0601", "website": "https://www.lowesfoods.com/store-locator/store-232", "opening_hours": "Mo-Su 06:00-23:00", "brand": "Lowes Foods", "brand:wikidata": "Q6693991", "nsi_id": "lowesfoods-dde59d"}, "geometry": {"type": "Point", "coordinates": [-78.987107, 33.650842]}},
{"type": "Feature", "id": "qM_q1cAgBDCbbavsqO_Ztvu-r54=", "properties": {"ref": "store-230", "@spider": "lowes-foods", "shop": "supermarket", "addr:full": "6278 Beach Drive, Unit 5", "addr:city": "Ocean Isle Beach", "addr:state": "Isle", "addr:postcode": "Beach,", "addr:country": "US", "name": "Lowes Foods of Ocean Isle Beach", "phone": "910-579-9311", "website": "https://www.lowesfoods.com/store-locator/store-230", "opening_hours": "Mo-Su 07:00-23:00", "brand": "Lowes Foods", "brand:wikidata": "Q6693991", "nsi_id": "lowesfoods-dde59d"}, "geometry": {"type": "Point", "coordinates": [-78.441943, 33.904287]}},
{"type": "Feature", "id": "mtm5wavnIVkF2sR0eB_TjQWjqVM=", "properties": {"ref": "store-228", "@spider": "lowes-foods", "shop": "supermarket", "addr:full": "1191 University Drive", "addr:city": "Burlington", "addr:state": "NC", "addr:postcode": "27215", "addr:country": "US", "name": "Lowes Foods of Burlington", "phone": "336-584-8091", "website": "https://www.lowesfoods.com/store-locator/store-228", "opening_hours": "Mo-Su 07:00-23:00", "brand": "Lowes Foods", "brand:wikidata": "Q6693991", "nsi_id": "lowesfoods-dde59d"}, "geometry": {"type": "Point", "coordinates": [-79.527492, 36.080134]}},
{"type": "Feature", "id": "-HLwxrd9c_ROy0-wu8swjp5VOTc=", "properties": {"ref": "store-241", "@spider": "lowes-foods", "shop": "supermarket", "addr:full": "125 Center Square Drive", "addr:city": "Mooresville ", "addr:state": ",", "addr:postcode": "NC", "addr:country": "US", "name": "Lowes Foods of Mooresville", "phone": "704-660-9594", "website": "https://www.lowesfoods.com/store-locator/store-241", "opening_hours": "Mo-Su 06:00-22:00", "brand": "Lowes Foods", "brand:wikidata": "Q6693991", "nsi_id": "lowesfoods-dde59d"}, "geometry": {"type": "Point", "coordinates": [-80.872384, 35.587591]}},
{"type": "Feature", "id": "0_qXOSuOlvpLzM0n9rJR3xE__XA=", "properties": {"ref": "store-226", "@spider": "lowes-foods", "shop": "supermarket", "addr:full": "8440 Louisburg Road, Suite 110, Rolesville", "addr:city": "Raleigh", "addr:state": "NC", "addr:postcode": "27616", "addr:country": "US", "name": "Lowes Foods of Rolesville", "phone": "919-266-1031", "website": "https://www.lowesfoods.com/store-locator/store-226", "brand": "Lowes Foods", "brand:wikidata": "Q6693991", "nsi_id": "lowesfoods-dde59d"}, "geometry": {"type": "Point", "coordinates": [-78.50957, 35.893531]}},
{"type": "Feature", "id": "TVN7vnEjUXIFs_brDvqJiRz2Kw4=", "properties": {"ref": "store-227", "@spider": "lowes-foods", "shop": "supermarket", "addr:full": "7281 NC Hwy 42 West", "addr:city": "Raleigh", "addr:state": "NC", "addr:postcode": "27603", "addr:country": "US", "name": "Lowes Foods of Highway 42", "phone": "919-329-6692", "website": "https://www.lowesfoods.com/store-locator/store-227", "opening_hours": "Mo-Su 06:00-00:00", "brand": "Lowes Foods", "brand:wikidata": "Q6693991", "nsi_id": "lowesfoods-dde59d"}, "geometry": {"type": "Point", "coordinates": [-78.599517, 35.592727]}},
{"type": "Feature", "id": "BluoWECRF19DPm3paIOwKBpyp3E=", "properties": {"ref": "store-223", "@spider": "lowes-foods", "shop": "supermarket", "addr:full": "111 Pavilion Drive, Suite #10", "addr:city": "Little River", "addr:state": "River,", "addr:postcode": "SC", "addr:country": "US", "name": "Lowes Foods of Little River", "phone": "843-280-7101", "website": "https://www.lowesfoods.com/store-locator/store-223", "opening_hours": "Mo-Su 06:00-22:00", "brand": "Lowes Foods", "brand:wikidata": "Q6693991", "nsi_id": "lowesfoods-dde59d"}, "geometry": {"type": "Point", "coordinates": [-78.591491, 33.891288]}},
{"type": "Feature", "id": "J-pgFISd9kFEFQrTLEBy0TMqQWE=", "properties": {"ref": "store-222", "@spider": "lowes-foods", "shop": "supermarket", "addr:full": "715 Independence Boulevard", "addr:city": "Mt. Airy", "addr:state": "Airy,", "addr:postcode": "NC", "addr:country": "US", "name": "Lowes Foods of Mt. Airy", "phone": "336-719-6578", "website": "https://www.lowesfoods.com/store-locator/store-222", "opening_hours": "Mo-Su 07:00-23:00", "brand": "Lowes Foods", "brand:wikidata": "Q6693991", "nsi_id": "lowesfoods-dde59d"}, "geometry": {"type": "Point", "coordinates": [-80.620419, 36.498533]}},
{"type": "Feature", "id": "Xvi5vjkHuHiFLEOJIWcWY1CWNJQ=", "properties": {"ref": "store-218", "@spider": "lowes-foods", "shop": "supermarket", "addr:full": "8201 Rowlock Way", "addr:city": "Raleigh", "addr:state": "NC", "addr:postcode": "27612", "addr:country": "US", "name": "Lowes Foods of Cornerstone Commons", "phone": "919-792-0304", "website": "https://www.lowesfoods.com/store-locator/store-218", "opening_hours": "Mo-Su 07:00-23:00", "brand": "Lowes Foods", "brand:wikidata": "Q6693991", "nsi_id": "lowesfoods-dde59d"}, "geometry": {"type": "Point", "coordinates": [-78.737967, 35.885023]}},
{"type": "Feature", "id": "ME2C7ZxQ2L05I7prSOyC8ptw04c=", "properties": {"ref": "store-216", "@spider": "lowes-foods", "shop": "supermarket", "addr:full": "2631 NC Hwy 127 South", "addr:city": "Hickory", "addr:state": "NC", "addr:postcode": "28602", "addr:country": "US", "name": "Lowes Foods of Mountain View", "phone": "828-294-1555", "website": "https://www.lowesfoods.com/store-locator/store-216", "opening_hours": "Mo-Su 07:00-23:00", "brand": "Lowes Foods", "brand:wikidata": "Q6693991", "nsi_id": "lowesfoods-dde59d"}, "geometry": {"type": "Point", "coordinates": [-81.358594, 35.691117]}},
{"type": "Feature", "id": "6MghP_bhVnoNDUXuKinaeDOS68Y=", "properties": {"ref": "store-215", "@spider": "lowes-foods", "shop": "supermarket", "addr:full": "341 South College Road", "addr:city": "Wilmington", "addr:state": "NC", "addr:postcode": "28403", "addr:country": "US", "name": "Lowes Foods of University Commons", "phone": "910-796-9616", "website": "https://www.lowesfoods.com/store-locator/store-215", "opening_hours": "Mo-Su 07:00-23:00", "brand": "Lowes Foods", "brand:wikidata": "Q6693991", "nsi_id": "lowesfoods-dde59d"}, "geometry": {"type": "Point", "coordinates": [-77.871223, 34.235557]}},
{"type": "Feature", "id": "VGqaRCwXkyuqWpKKUDts6JXw6W8=", "properties": {"ref": "store-214", "@spider": "lowes-foods", "shop": "supermarket", "addr:full": "2900 Arendell Street, Unit #2", "addr:city": "Morehead City", "addr:state": "City,", "addr:postcode": "NC", "addr:country": "US", "name": "Lowes Foods of Morehead City", "phone": "252-726-2651", "website": "https://www.lowesfoods.com/store-locator/store-214", "opening_hours": "Mo-Su 06:00-23:00", "brand": "Lowes Foods", "brand:wikidata": "Q6693991", "nsi_id": "lowesfoods-dde59d"}, "geometry": {"type": "Point", "coordinates": [-76.74389, 34.723931]}},
{"type": "Feature", "id": "gBhrAF2UAEHmwzcvWiTPwxNPYDo=", "properties": {"ref": "store-210", "@spider": "lowes-foods", "shop": "supermarket", "addr:full": "4445 School House Commons", "addr:city": "Harrisburg", "addr:state": "NC", "addr:postcode": "28075", "addr:country": "US", "name": "Lowes Foods of Harrisburg", "phone": "704-455-6222", "website": "https://www.lowesfoods.com/store-locator/store-210", "opening_hours": "Mo-Su 06:00-23:00", "brand": "Lowes Foods", "brand:wikidata": "Q6693991", "nsi_id": "lowesfoods-dde59d"}, "geometry": {"type": "Point", "coordinates": [-80.649396, 35.321186]}},
{"type": "Feature", "id": "tT1A3cc1SjAx9FjVEd50OBOrcX0=", "properties": {"ref": "store-207", "@spider": "lowes-foods", "shop": "supermarket", "addr:full": "112 Bass Lake Road", "addr:city": "Holly Springs", "addr:state": "Springs,", "addr:postcode": "NC", "addr:country": "US", "name": "Lowes Foods of Holly Springs", "phone": "919-577-6971", "website": "https://www.lowesfoods.com/store-locator/store-207", "opening_hours": "Mo-Su 07:00-23:00", "brand": "Lowes Foods", "brand:wikidata": "Q6693991", "nsi_id": "lowesfoods-dde59d"}, "geometry": {"type": "Point", "coordinates": [-78.8253, 35.6544]}},
{"type": "Feature", "id": "mz4p3i9MfH-cwmvas_o0JZR1C6Y=", "properties": {"ref": "store-206", "@spider": "lowes-foods", "shop": "supermarket", "addr:full": "5034 Peters Creek Parkway", "addr:city": "Winston-Salem", "addr:state": "NC", "addr:postcode": "27127", "addr:country": "US", "name": "Lowes Foods of Peters Creek", "phone": "336-788-5600", "website": "https://www.lowesfoods.com/store-locator/store-206", "opening_hours": "Mo-Su 07:00-23:00", "brand": "Lowes Foods", "brand:wikidata": "Q6693991", "nsi_id": "lowesfoods-dde59d"}, "geometry": {"type": "Point", "coordinates": [-80.2624, 36.0056]}},
{"type": "Feature", "id": "qHW3FS1nPf0xNd9Hz0Pwc6jbo_c=", "properties": {"ref": "store-205", "@spider": "lowes-foods", "shop": "supermarket", "addr:full": "Hwy 801 North, Suite 258", "addr:city": "Bermuda Run", "addr:state": "Run,", "addr:postcode": "NC", "addr:country": "US", "name": "Lowes Foods of Bermuda Run", "phone": "336-940-4103", "website": "https://www.lowesfoods.com/store-locator/store-205", "opening_hours": "Mo-Su 07:00-22:00", "brand": "Lowes Foods", "brand:wikidata": "Q6693991", "nsi_id": "lowesfoods-dde59d"}, "geometry": {"type": "Point", "coordinates": [-80.443203, 36.0091]}},
{"type": "Feature", "id": "pclXvaOjmJc1mV5kju3Bjf_gHZs=", "properties": {"ref": "store-203", "@spider": "lowes-foods", "shop": "supermarket", "addr:full": "2205 Oak Ridge Road, Suite B", "addr:city": "Oak Ridge", "addr:state": "Ridge,", "addr:postcode": "NC", "addr:country": "US", "name": "Lowes Foods of Oak Ridge", "phone": "336-644-0554", "website": "https://www.lowesfoods.com/store-locator/store-203", "opening_hours": "Mo-Su 07:00-23:00", "brand": "Lowes Foods", "brand:wikidata": "Q6693991", "nsi_id": "lowesfoods-dde59d"}, "geometry": {"type": "Point", "coordinates": [-79.990624, 36.172988]}},
{"type": "Feature", "id": "Pr8R2JlRQK6HMhN36C57UcW9S_k=", "properties": {"ref": "store-199", "@spider": "lowes-foods", "shop": "supermarket", "addr:full": "5309 Carolina Beach Road", "addr:city": "Wilmington", "addr:state": "NC", "addr:postcode": "28412", "addr:country": "US", "name": "Lowes Foods of Monkey Junction", "phone": "910-790-5335", "website": "https://www.lowesfoods.com/store-locator/store-199", "opening_hours": "Mo-Su 07:00-23:00", "brand": "Lowes Foods", "brand:wikidata": "Q6693991", "nsi_id": "lowesfoods-dde59d"}, "geometry": {"type": "Point", "coordinates": [-77.8944, 34.1396]}},
{"type": "Feature", "id": "XZ48hhNHKG94f97C5E-Sc_d7D_U=", "properties": {"ref": "store-224", "@spider": "lowes-foods", "shop": "supermarket", "addr:full": "8100 Brier Creek Parkway", "addr:city": "Raleigh", "addr:state": "NC", "addr:postcode": "27617", "addr:country": "US", "name": "Lowes Foods of Brier Creek", "phone": "919-293-0294", "website": "https://www.lowesfoods.com/store-locator/store-224", "opening_hours": "Mo-Su 06:00-00:00", "brand": "Lowes Foods", "brand:wikidata": "Q6693991", "nsi_id": "lowesfoods-dde59d"}, "geometry": {"type": "Point", "coordinates": [-78.782589, 35.912063]}},
{"type": "Feature", "id": "fm_Y_kqbVVEpozAkHh_MW9cPewQ=", "properties": {"ref": "store-191", "@spider": "lowes-foods", "shop": "supermarket", "addr:full": "9600 Strickland Road", "addr:city": "Raleigh", "addr:state": "NC", "addr:postcode": "27615", "addr:country": "US", "name": "Lowes Foods of Strickland Road", "phone": "919-847-5661", "website": "https://www.lowesfoods.com/store-locator/store-191", "opening_hours": "Mo-Su 06:00-00:00", "brand": "Lowes Foods", "brand:wikidata": "Q6693991", "nsi_id": "lowesfoods-dde59d"}, "geometry": {"type": "Point", "coordinates": [-78.653763, 35.901974]}},
{"type": "Feature", "id": "G3OLnmoF_RoodWik-BJnmX7dleQ=", "properties": {"ref": "store-190", "@spider": "lowes-foods", "shop": "supermarket", "addr:full": "930 High House Road", "addr:city": "Cary", "addr:state": "NC", "addr:postcode": "27513", "addr:country": "US", "name": "Lowes Foods of Cary High House", "phone": "919-467-4441", "website": "https://www.lowesfoods.com/store-locator/store-190", "opening_hours": "Mo-Su 06:00-00:00", "brand": "Lowes Foods", "brand:wikidata": "Q6693991", "nsi_id": "lowesfoods-dde59d"}, "geometry": {"type": "Point", "coordinates": [-78.8267, 35.788792]}},
{"type": "Feature", "id": "xNWl_4CSZ3H8CouTdmSW4pyp4uU=", "properties": {"ref": "store-189", "@spider": "lowes-foods", "shop": "supermarket", "addr:full": "3001 Widewaters Parkway", "addr:city": "Knightdale", "addr:state": "NC", "addr:postcode": "27545", "addr:country": "US", "name": "Lowes Foods of Knightdale", "phone": "919-217-9184", "website": "https://www.lowesfoods.com/store-locator/store-189", "opening_hours": "Mo-Su 06:00-00:00", "brand": "Lowes Foods", "brand:wikidata": "Q6693991", "nsi_id": "lowesfoods-dde59d"}, "geometry": {"type": "Point", "coordinates": [-78.496501, 35.797465]}},
{"type": "Feature", "id": "1QG1HqsoA0P-J_EQXVRYHUGsLV4=", "properties": {"ref": "store-188", "@spider": "lowes-foods", "shop": "supermarket", "addr:full": "1236 Guilford College Road", "addr:city": "Jamestown", "addr:state": "NC", "addr:postcode": "27282", "addr:country": "US", "name": "Lowes Foods of Jamestown", "phone": "336-856-7202", "website": "https://www.lowesfoods.com/store-locator/store-188", "opening_hours": "Mo-Su 07:00-23:00", "brand": "Lowes Foods", "brand:wikidata": "Q6693991", "nsi_id": "lowesfoods-dde59d"}, "geometry": {"type": "Point", "coordinates": [-79.920377, 36.040189]}},
{"type": "Feature", "id": "-JHLQRrKIacXIJ1ZI_g5_MNvk4E=", "properties": {"ref": "store-198", "@spider": "lowes-foods", "shop": "supermarket", "addr:full": "2316 North College Road", "addr:city": "Wilmington", "addr:state": "NC", "addr:postcode": "28405", "addr:country": "US", "name": "Lowes Foods of Murrayville", "phone": "910-392-7230", "website": "https://www.lowesfoods.com/store-locator/store-198", "opening_hours": "Mo-Su 06:00-23:00", "brand": "Lowes Foods", "brand:wikidata": "Q6693991", "nsi_id": "lowesfoods-dde59d"}, "geometry": {"type": "Point", "coordinates": [-77.8711, 34.2899]}},
{"type": "Feature", "id": "fhytT3WdNx88tP6JKN4FrMY0yhw=", "properties": {"ref": "store-186", "@spider": "lowes-foods", "shop": "supermarket", "addr:full": "805 Pine Grove Drive", "addr:city": "Wilmington", "addr:state": "NC", "addr:postcode": "28403", "addr:country": "US", "name": "Lowes Foods of Pine Grove", "phone": "910-796-8330", "website": "https://www.lowesfoods.com/store-locator/store-186", "opening_hours": "Mo-Su 07:00-23:00", "brand": "Lowes Foods", "brand:wikidata": "Q6693991", "nsi_id": "lowesfoods-dde59d"}, "geometry": {"type": "Point", "coordinates": [-77.869628, 34.199746]}},
{"type": "Feature", "id": "2Wt0aGQ0ITZSEGMQ-HQeYprC28Y=", "properties": {"ref": "store-185", "@spider": "lowes-foods", "shop": "supermarket", "addr:full": "1845 Aversboro Road", "addr:city": "Garner", "addr:state": "NC", "addr:postcode": "27529", "addr:country": "US", "name": "Lowes Foods of Garner", "phone": "919-779-9907", "website": "https://www.lowesfoods.com/store-locator/store-185", "opening_hours": "Mo-Su 06:00-00:00", "brand": "Lowes Foods", "brand:wikidata": "Q6693991", "nsi_id": "lowesfoods-dde59d"}, "geometry": {"type": "Point", "coordinates": [-78.6174, 35.6866]}},
{"type": "Feature", "id": "bVH2QTwQIW8mGeOv2654r0K2Hyc=", "properties": {"ref": "store-184", "@spider": "lowes-foods", "shop": "supermarket", "addr:full": "5400 Apex Peakway", "addr:city": "Apex", "addr:state": "NC", "addr:postcode": "27502", "addr:country": "US", "name": "Lowes Foods of Apex", "phone": "919-363-5376", "website": "https://www.lowesfoods.com/store-locator/store-184", "opening_hours": "Mo-Su 06:00-00:00", "brand": "Lowes Foods", "brand:wikidata": "Q6693991", "nsi_id": "lowesfoods-dde59d"}, "geometry": {"type": "Point", "coordinates": [-78.8647, 35.7366]}},
{"type": "Feature", "id": "0pDjZyPlMnnqTXOwYLki7rIWH_k=", "properties": {"ref": "store-182", "@spider": "lowes-foods", "shop": "supermarket", "addr:full": "5180 Reidsville Road", "addr:city": "Walkertown", "addr:state": "NC", "addr:postcode": "27051", "addr:country": "US", "name": "Lowes Foods of Walkertown", "phone": "336-595-7448", "website": "https://www.lowesfoods.com/store-locator/store-182", "opening_hours": "Mo-Su 07:00-22:00", "brand": "Lowes Foods", "brand:wikidata": "Q6693991", "nsi_id": "lowesfoods-dde59d"}, "geometry": {"type": "Point", "coordinates": [-80.136673, 36.162585]}},
{"type": "Feature", "id": "ykGTEadVnDK2Aa9GBSve-X3HIe4=", "properties": {"ref": "store-181", "@spider": "lowes-foods", "shop": "supermarket", "addr:full": "321 WB McLean Drive", "addr:city": "Cape Carteret", "addr:state": "Carteret,", "addr:postcode": "NC", "addr:country": "US", "name": "Lowes Foods of Cape Carteret", "phone": "252-393-1602", "website": "https://www.lowesfoods.com/store-locator/store-181", "opening_hours": "Mo-Su 06:00-23:00", "brand": "Lowes Foods", "brand:wikidata": "Q6693991", "nsi_id": "lowesfoods-dde59d"}, "geometry": {"type": "Point", "coordinates": [-77.0648, 34.6906]}},
{"type": "Feature", "id": "ojXaYo7CDBGF3_DwqrPNwWWhi_w=", "properties": {"ref": "store-179", "@spider": "lowes-foods", "shop": "supermarket", "addr:full": "1581 New Garden Road", "addr:city": "Greensboro", "addr:state": "NC", "addr:postcode": "27410", "addr:country": "US", "name": "Lowes Foods of New Garden", "phone": "336-852-1770", "website": "https://www.lowesfoods.com/store-locator/store-179", "opening_hours": "Mo-Su 07:00-23:00", "brand": "Lowes Foods", "brand:wikidata": "Q6693991", "nsi_id": "lowesfoods-dde59d"}, "geometry": {"type": "Point", "coordinates": [-79.8795, 36.1137]}},
{"type": "Feature", "id": "wZQcyJQ-g0fIoPk5dPqdFR6P_5U=", "properties": {"ref": "store-177", "@spider": "lowes-foods", "shop": "supermarket", "addr:full": "267 New Market Centre", "addr:city": "Boone", "addr:state": "NC", "addr:postcode": "28607", "addr:country": "US", "name": "Lowes Foods of Boone", "phone": "828-265-2084", "website": "https://www.lowesfoods.com/store-locator/store-177", "opening_hours": "Mo-Su 07:00-22:00", "brand": "Lowes Foods", "brand:wikidata": "Q6693991", "nsi_id": "lowesfoods-dde59d"}, "geometry": {"type": "Point", "coordinates": [-81.6646, 36.2199]}},
{"type": "Feature", "id": "wDNWmMNYI6ir3TFEWi3ibshc9pQ=", "properties": {"ref": "store-123", "@spider": "lowes-foods", "shop": "supermarket", "addr:full": "10106 S Main Street, Suite A", "addr:city": "Archdale", "addr:state": "NC", "addr:postcode": "27263", "addr:country": "US", "name": "Lowes Foods of Archdale", "phone": "336-861-6342", "website": "https://www.lowesfoods.com/store-locator/store-123", "opening_hours": "Mo-Su 07:00-22:00", "brand": "Lowes Foods", "brand:wikidata": "Q6693991", "nsi_id": "lowesfoods-dde59d"}, "geometry": {"type": "Point", "coordinates": [-79.9509, 35.9019]}},
{"type": "Feature", "id": "8k51AemFvURy8eqX_l5ctfx72SA=", "properties": {"ref": "store-187", "@spider": "lowes-foods", "shop": "supermarket", "addr:full": "12524 Capital Boulevard", "addr:city": "Wake Forest", "addr:state": "Forest,", "addr:postcode": "NC", "addr:country": "US", "name": "Lowes Foods of Wake Forest Capital Boulevard", "phone": "919-562-5020", "website": "https://www.lowesfoods.com/store-locator/store-187", "opening_hours": "Mo-Su 07:00-00:00", "brand": "Lowes Foods", "brand:wikidata": "Q6693991", "nsi_id": "lowesfoods-dde59d"}, "geometry": {"type": "Point", "coordinates": [-78.5363, 35.9826]}},
{"type": "Feature", "id": "r-K0nDVWx19NOLmE8jfxHD-Al-Y=", "properties": {"ref": "store-121", "@spider": "lowes-foods", "shop": "supermarket", "addr:full": "614-G South Main Street", "addr:city": "King", "addr:state": "NC", "addr:postcode": "27021", "addr:country": "US", "name": "Lowes Foods of King", "phone": "336-983-0125", "website": "https://www.lowesfoods.com/store-locator/store-121", "opening_hours": "Mo-Su 07:00-22:00", "brand": "Lowes Foods", "brand:wikidata": "Q6693991", "nsi_id": "lowesfoods-dde59d"}, "geometry": {"type": "Point", "coordinates": [-80.3607, 36.268]}},
{"type": "Feature", "id": "QeWJahpnwe4VJTEJbAw7BmY0PXw=", "properties": {"ref": "store-66", "@spider": "lowes-foods", "shop": "supermarket", "addr:full": "17525 S. Highway 109", "addr:city": "Denton", "addr:state": "NC", "addr:postcode": "27239", "addr:country": "US", "name": "Lowes Foods of Denton", "phone": "336-859-2410", "website": "https://www.lowesfoods.com/store-locator/store-66", "opening_hours": "Mo-Su 07:00-22:00", "brand": "Lowes Foods", "brand:wikidata": "Q6693991", "nsi_id": "lowesfoods-dde59d"}, "geometry": {"type": "Point", "coordinates": [-80.1057, 35.6372]}}]}