{"type":"FeatureCollection","features":[{"type": "Feature", "id": "REtBNBd6gN8ajn5ulU2eOmVOhDw=", "properties": {"ref": "26", "@spider": "lundsandbyerlys", "addr:street_address": "7050 Valley Creek Plaza", "addr:city": "Woodbury", "addr:state": "MN", "addr:postcode": "55125", "addr:country": "US", "name": "Woodbury", "phone": "651-999-1200", "website": "https://lundsandbyerlys.com/our-stores/locations/woodbury/", "opening_hours": "Mo-Su 06:00-24:00", "brand": "Lunds & Byerlys", "brand:wikidata": "Q19903424"}, "geometry": {"type": "Point", "coordinates": [-92.963387, 44.925797]}},
{"type": "Feature", "id": "WpwEwwgcJeVIv5Io4k5MbTpAKds=", "properties": {"ref": "29", "@spider": "lundsandbyerlys", "addr:street_address": "4630 Centerville Road", "addr:city": "White Bear Lake", "addr:state": "MN", "addr:postcode": "55110", "addr:country": "US", "name": "White Bear Lake", "phone": "651-653-0000", "website": "https://lundsandbyerlys.com/our-stores/locations/whitebearlake/", "brand": "Lunds & Byerlys", "brand:wikidata": "Q19903424"}, "geometry": {"type": "Point", "coordinates": [-93.056084, 45.081573]}},
{"type": "Feature", "id": "QHt-FrKcwU1Vh_FWhK-ynuxZqD0=", "properties": {"ref": "14", "@spider": "lundsandbyerlys", "addr:street_address": "115 East 10th Street", "addr:city": "St. Paul", "addr:state": "MN", "addr:postcode": "55101", "addr:country": "US", "name": "Downtown St. Paul", "phone": "651-999-1600", "website": "https://lundsandbyerlys.com/our-stores/locations/downtown-st-paul/", "opening_hours": "Mo-Su 06:00-24:00", "brand": "Lunds & Byerlys", "brand:wikidata": "Q19903424"}, "geometry": {"type": "Point", "coordinates": [-93.094795, 44.951279]}},
{"type": "Feature", "id": "V-KGsiFJcVRBHI57XIAF98eP60I=", "properties": {"ref": "22", "@spider": "lundsandbyerlys", "addr:street_address": "1299 Promenade Place", "addr:city": "Eagan", "addr:state": "MN", "addr:postcode": "55121", "addr:country": "US", "name": "Eagan", "phone": "651-686-9669", "website": "https://lundsandbyerlys.com/our-stores/locations/eagan/", "opening_hours": "Mo-Su 06:00-24:00", "brand": "Lunds & Byerlys", "brand:wikidata": "Q19903424"}, "geometry": {"type": "Point", "coordinates": [-93.158241, 44.836296]}},
{"type": "Feature", "id": "vGYL47RF4pCD8Sgtiw2tzzLeGf0=", "properties": {"ref": "18", "@spider": "lundsandbyerlys", "addr:street_address": "1601 West County Road C", "addr:city": "Roseville", "addr:state": "MN", "addr:postcode": "55113", "addr:country": "US", "name": "Roseville", "phone": "651-633-6949", "website": "https://lundsandbyerlys.com/our-stores/locations/roseville/", "opening_hours": "Mo-Su 06:00-24:00", "brand": "Lunds & Byerlys", "brand:wikidata": "Q19903424"}, "geometry": {"type": "Point", "coordinates": [-93.170425, 45.021873]}},
{"type": "Feature", "id": "0nvs8Ok3r20N1ezcVLeYCAE-gd4=", "properties": {"ref": "9", "@spider": "lundsandbyerlys", "addr:street_address": "2170 Ford Parkway", "addr:city": "St. Paul", "addr:state": "MN", "addr:postcode": "55116", "addr:country": "US", "name": "Highland Bridge", "phone": "651-698-5845", "website": "https://lundsandbyerlys.com/our-stores/locations/highland-bridge/", "opening_hours": "Mo-Su 06:00-24:00", "brand": "Lunds & Byerlys", "brand:wikidata": "Q19903424"}, "geometry": {"type": "Point", "coordinates": [-93.19075, 44.916809]}},
{"type": "Feature", "id": "45SUCBy0MOXwaAZLty9n_YqFBec=", "properties": {"ref": "30", "@spider": "lundsandbyerlys", "addr:street_address": "4725 Cedar Avenue", "addr:city": "Minneapolis", "addr:state": "MN", "addr:postcode": "55407", "addr:country": "US", "name": "Nokomis", "phone": "612-729-4000", "website": "https://lundsandbyerlys.com/our-stores/locations/nokomis/", "brand": "Lunds & Byerlys", "brand:wikidata": "Q19903424"}, "geometry": {"type": "Point", "coordinates": [-93.247253, 44.916988]}},
{"type": "Feature", "id": "sMYqlNbv-y-lGb_lVftaC4aFBsw=", "properties": {"ref": "1", "@spider": "lundsandbyerlys", "addr:street_address": "25 University Ave SE", "addr:city": "Minneapolis", "addr:state": "MN", "addr:postcode": "55414", "addr:country": "US", "name": "Northeast Minneapolis", "phone": "612-548-3820", "website": "https://lundsandbyerlys.com/our-stores/locations/northeast-minneapolis/", "opening_hours": "Mo-Su 06:00-24:00", "brand": "Lunds & Byerlys", "brand:wikidata": "Q19903424"}, "geometry": {"type": "Point", "coordinates": [-93.255173, 44.987476]}},
{"type": "Feature", "id": "Yaxi3nNmYSF9JuJ8kpwI8prR22o=", "properties": {"ref": "10", "@spider": "lundsandbyerlys", "addr:street_address": "1201 Hennepin Ave", "addr:city": "Minneapolis", "addr:state": "MN", "addr:postcode": "55403", "addr:country": "US", "name": "Downtown Minneapolis", "phone": "612-379-5040", "website": "https://lundsandbyerlys.com/our-stores/locations/downtown-minneapolis/", "opening_hours": "Mo-Su 06:00-24:00", "brand": "Lunds & Byerlys", "brand:wikidata": "Q19903424"}, "geometry": {"type": "Point", "coordinates": [-93.28064, 44.974377]}},
{"type": "Feature", "id": "3I93JI-fzr4jFcngdgMKurFVYZg=", "properties": {"ref": "24", "@spider": "lundsandbyerlys", "addr:street_address": "401 E. County Road 42", "addr:city": "Burnsville", "addr:state": "MN", "addr:postcode": "55306", "addr:country": "US", "name": "Burnsville", "phone": "952-892-5600", "website": "https://lundsandbyerlys.com/our-stores/locations/burnsville/", "opening_hours": "Mo-Su 06:00-24:00", "brand": "Lunds & Byerlys", "brand:wikidata": "Q19903424"}, "geometry": {"type": "Point", "coordinates": [-93.270042, 44.738804]}},
{"type": "Feature", "id": "lnoGsuG8Ryp4qCSOpUs7VlWh9_Q=", "properties": {"ref": "2", "@spider": "lundsandbyerlys", "addr:street_address": "1450 W Lake St", "addr:city": "Minneapolis", "addr:state": "MN", "addr:postcode": "55408", "addr:country": "US", "name": "Uptown Minneapolis", "phone": "612-825-2440", "website": "https://lundsandbyerlys.com/our-stores/locations/uptown-minneapolis/", "opening_hours": "Mo-Su 06:00-24:00", "brand": "Lunds & Byerlys", "brand:wikidata": "Q19903424"}, "geometry": {"type": "Point", "coordinates": [-93.300125, 44.948837]}},
{"type": "Feature", "id": "aH03m26RE-Hd3bxCWuux9essolo=", "properties": {"ref": "6", "@spider": "lundsandbyerlys", "addr:street_address": "6228 Penn Ave South", "addr:city": "Richfield", "addr:state": "MN", "addr:postcode": "55423", "addr:country": "US", "name": "Richfield", "phone": "612-861-1881", "website": "https://lundsandbyerlys.com/our-stores/locations/richfield/", "opening_hours": "Mo-Su 06:00-24:00", "brand": "Lunds & Byerlys", "brand:wikidata": "Q19903424"}, "geometry": {"type": "Point", "coordinates": [-93.308594, 44.876316]}},
{"type": "Feature", "id": "oIlPn59m4EFj-G-U8xgKWNZUN8s=", "properties": {"ref": "21", "@spider": "lundsandbyerlys", "addr:street_address": "7171 France Avenue South", "addr:city": "Edina", "addr:state": "MN", "addr:postcode": "55435", "addr:country": "US", "name": "France Avenue Edina", "phone": "952-831-3601", "website": "https://lundsandbyerlys.com/our-stores/locations/france-avenue-edina/", "opening_hours": "Mo-Su 06:00-24:00", "brand": "Lunds & Byerlys", "brand:wikidata": "Q19903424"}, "geometry": {"type": "Point", "coordinates": [-93.327423, 44.873146]}},
{"type": "Feature", "id": "sScVkgiHTDiTmUDHxWnBOfoNlms=", "properties": {"ref": "8", "@spider": "lundsandbyerlys", "addr:street_address": "3945 West 50th Street", "addr:city": "Edina", "addr:state": "MN", "addr:postcode": "55424", "addr:country": "US", "name": "50th Street Edina", "phone": "952-926-6833", "website": "https://lundsandbyerlys.com/our-stores/locations/50th-street-edina/", "opening_hours": "Mo-Su 06:00-24:00", "brand": "Lunds & Byerlys", "brand:wikidata": "Q19903424"}, "geometry": {"type": "Point", "coordinates": [-93.330956, 44.912506]}},
{"type": "Feature", "id": "0zJF0rCw-ZtUisAL9qqWBxsvtuI=", "properties": {"ref": "16", "@spider": "lundsandbyerlys", "addr:street_address": "3777 Park Center Boulevard", "addr:city": "St. Louis Park", "addr:state": "MN", "addr:postcode": "55416", "addr:country": "US", "name": "St. Louis Park", "phone": "952-929-2100", "website": "https://lundsandbyerlys.com/our-stores/locations/st-louis-park/", "opening_hours": "Mo-Su 06:00-24:00", "brand": "Lunds & Byerlys", "brand:wikidata": "Q19903424"}, "geometry": {"type": "Point", "coordinates": [-93.347031, 44.935055]}},
{"type": "Feature", "id": "-NvzLSPWw7IhY1MrpdPtHmDhBHo=", "properties": {"ref": "3", "@spider": "lundsandbyerlys", "addr:street_address": "5725 Duluth Street", "addr:city": "Golden Valley", "addr:state": "MN", "addr:postcode": "55422", "addr:country": "US", "name": "Golden Valley", "phone": "763-544-8846", "website": "https://lundsandbyerlys.com/our-stores/locations/golden-valley/", "opening_hours": "Mo-Su 06:00-24:00", "brand": "Lunds & Byerlys", "brand:wikidata": "Q19903424"}, "geometry": {"type": "Point", "coordinates": [-93.352631, 44.998577]}},
{"type": "Feature", "id": "wWUI94GErruqZ-ii73ylmpSblzg=", "properties": {"ref": "7", "@spider": "lundsandbyerlys", "addr:street_address": "5159 West 98th Street", "addr:city": "Bloomington", "addr:state": "MN", "addr:postcode": "55437", "addr:country": "US", "name": "Bloomington", "phone": "952-896-0092", "website": "https://lundsandbyerlys.com/our-stores/locations/bloomington/", "opening_hours": "Mo-Su 06:00-24:00", "brand": "Lunds & Byerlys", "brand:wikidata": "Q19903424"}, "geometry": {"type": "Point", "coordinates": [-93.347, 44.825352]}},
{"type": "Feature", "id": "qpzTIEy_JhfCLU7Nn0ih38BUNak=", "properties": {"ref": "11", "@spider": "lundsandbyerlys", "addr:street_address": "11400 Highway 7", "addr:city": "Minnetonka", "addr:state": "MN", "addr:postcode": "55305", "addr:country": "US", "name": "Hwy 7 Minnetonka", "phone": "952-935-0198", "website": "https://lundsandbyerlys.com/our-stores/locations/hwy-7-minnetonka/", "opening_hours": "Mo-Su 06:00-24:00", "brand": "Lunds & Byerlys", "brand:wikidata": "Q19903424"}, "geometry": {"type": "Point", "coordinates": [-93.424721, 44.933899]}},
{"type": "Feature", "id": "p1souLXU7BFAHuwFgROHm207OUE=", "properties": {"ref": "20", "@spider": "lundsandbyerlys", "addr:street_address": "12880 Elm Creek Boulevard", "addr:city": "Maple Grove", "addr:state": "MN", "addr:postcode": "55369", "addr:country": "US", "name": "Maple Grove", "phone": "763-416-1611", "website": "https://lundsandbyerlys.com/our-stores/locations/maple-grove/", "opening_hours": "Mo-Su 06:00-24:00", "brand": "Lunds & Byerlys", "brand:wikidata": "Q19903424"}, "geometry": {"type": "Point", "coordinates": [-93.444229, 45.096577]}},
{"type": "Feature", "id": "QlUY1H61WW_PewOukDbEaHXD6cA=", "properties": {"ref": "5", "@spider": "lundsandbyerlys", "addr:street_address": "16731 Highway 13", "addr:city": "Prior Lake", "addr:state": "MN", "addr:postcode": "55372", "addr:country": "US", "name": "Prior Lake", "phone": "952-440-3900", "website": "https://lundsandbyerlys.com/our-stores/locations/prior-lake/", "opening_hours": "Mo-Su 06:00-24:00", "brand": "Lunds & Byerlys", "brand:wikidata": "Q19903424"}, "geometry": {"type": "Point", "coordinates": [-93.428734, 44.706768]}},
{"type": "Feature", "id": "QJ9YYs2NohceqdYTfiyQeapBN9A=", "properties": {"ref": "19", "@spider": "lundsandbyerlys", "addr:street_address": "13081 Ridgedale Drive", "addr:city": "Minnetonka", "addr:state": "MN", "addr:postcode": "55305", "addr:country": "US", "name": "Ridgedale", "phone": "952-541-1414", "website": "https://lundsandbyerlys.com/our-stores/locations/ridgedale/", "opening_hours": "Mo-Su 06:00-24:00", "brand": "Lunds & Byerlys", "brand:wikidata": "Q19903424"}, "geometry": {"type": "Point", "coordinates": [-93.448921, 44.970673]}},
{"type": "Feature", "id": "0Cc35iVJAwD9RMEz8RCu4YishJM=", "properties": {"ref": "25", "@spider": "lundsandbyerlys", "addr:street_address": "970 Prairie Center Drive", "addr:city": "Eden Prairie", "addr:state": "MN", "addr:postcode": "55344", "addr:country": "US", "name": "Eden Prairie", "phone": "952-525-8000", "website": "https://lundsandbyerlys.com/our-stores/locations/eden-prairie/", "opening_hours": "Mo-Su 06:00-24:00", "brand": "Lunds & Byerlys", "brand:wikidata": "Q19903424"}, "geometry": {"type": "Point", "coordinates": [-93.443359, 44.865314]}},
{"type": "Feature", "id": "MfLhpQGxV-VFdgT2xnIyZQ2vv0Q=", "properties": {"ref": "27", "@spider": "lundsandbyerlys", "addr:street_address": "14400 Excelsior Blvd", "addr:city": "Minnetonka", "addr:state": "MN", "addr:postcode": "55345", "addr:country": "US", "name": "Glen Lake Minnetonka", "phone": "952-512-7700", "website": "https://lundsandbyerlys.com/our-stores/locations/glen-lake-minnetonka/", "opening_hours": "Mo-Su 06:00-24:00", "brand": "Lunds & Byerlys", "brand:wikidata": "Q19903424"}, "geometry": {"type": "Point", "coordinates": [-93.463707, 44.906586]}},
{"type": "Feature", "id": "nRzo7vlpbbRM16c-DKK5LnQfLmA=", "properties": {"ref": "13", "@spider": "lundsandbyerlys", "addr:street_address": "3455 Vicksburg Lane", "addr:city": "Plymouth", "addr:state": "MN", "addr:postcode": "55447", "addr:country": "US", "name": "Plymouth", "phone": "763-268-1624", "website": "https://lundsandbyerlys.com/our-stores/locations/plymouth/", "opening_hours": "Mo-Su 06:00-24:00", "brand": "Lunds & Byerlys", "brand:wikidata": "Q19903424"}, "geometry": {"type": "Point", "coordinates": [-93.484962, 45.019745]}},
{"type": "Feature", "id": "r0Z5j_PV4Nk8rZdGyICLAAeaMsg=", "properties": {"ref": "15", "@spider": "lundsandbyerlys", "addr:street_address": "1151 Wayzata Boulevard East", "addr:city": "Wayzata", "addr:state": "MN", "addr:postcode": "55391", "addr:country": "US", "name": "Wayzata", "phone": "952-476-2222", "website": "https://lundsandbyerlys.com/our-stores/locations/wayzata/", "opening_hours": "Mo-Su 06:00-24:00", "brand": "Lunds & Byerlys", "brand:wikidata": "Q19903424"}, "geometry": {"type": "Point", "coordinates": [-93.499901, 44.971184]}},
{"type": "Feature", "id": "8HF5MESTYb-wpjmnI42gtXOHGi8=", "properties": {"ref": "23", "@spider": "lundsandbyerlys", "addr:street_address": "800 West 78th Street", "addr:city": "Chanhassen", "addr:state": "MN", "addr:postcode": "55317", "addr:country": "US", "name": "Chanhassen", "phone": "952-474-1298", "website": "https://lundsandbyerlys.com/our-stores/locations/chanhassen/", "opening_hours": "Mo-Su 06:00-24:00", "brand": "Lunds & Byerlys", "brand:wikidata": "Q19903424"}, "geometry": {"type": "Point", "coordinates": [-93.542007, 44.863281]}},
{"type": "Feature", "id": "lVvfsFpBWdW4Tpyr6gUEccOlpus=", "properties": {"ref": "12", "@spider": "lundsandbyerlys", "addr:street_address": "3333 Shoreline Drive", "addr:city": "Wayzata", "addr:state": "MN", "addr:postcode": "55391", "addr:country": "US", "name": "Navarre", "phone": "952-471-8473", "website": "https://lundsandbyerlys.com/our-stores/locations/navarre/", "opening_hours": "Mo-Su 06:00-24:00", "brand": "Lunds & Byerlys", "brand:wikidata": "Q19903424"}, "geometry": {"type": "Point", "coordinates": [-93.608627, 44.934002]}},
{"type": "Feature", "id": "p_8oe5__keQlOWoFs7CVjhmOPgg=", "properties": {"ref": "17", "@spider": "lundsandbyerlys", "addr:street_address": "2510 West Division Street", "addr:city": "St. Cloud", "addr:state": "MN", "addr:postcode": "56301", "addr:country": "US", "name": "St. Cloud", "phone": "320-252-4112", "website": "https://lundsandbyerlys.com/our-stores/locations/st-cloud/", "opening_hours": "Mo-Su 06:00-23:00", "brand": "Lunds & Byerlys", "brand:wikidata": "Q19903424"}, "geometry": {"type": "Point", "coordinates": [-94.188187, 45.55312]}}]}