{"type":"FeatureCollection","features":[{"type": "Feature", "id": "ZmJIEcrcsOmhIujojAW53cfBVbU=", "properties": {"ref": "006", "@spider": "lush", "shop": "cosmetics", "addr:full": "701 W Georgia Street", "addr:city": "Vancouver", "addr:state": "BC", "addr:postcode": "V7Y 1G5", "addr:country": "CA", "name": "Pacific Centre", "phone": "604-563-9355", "brand": "Lush", "brand:wikidata": "Q1585448", "nsi_id": "lush-a08666"}, "geometry": {"type": "Point", "coordinates": [-123.11821, 49.28289]}},
{"type": "Feature", "id": "xwWXSmXcbCQSxpxBpRlVBSHMoTw=", "properties": {"ref": "013", "@spider": "lush", "shop": "cosmetics", "addr:full": "1020 Robson Street", "addr:city": "Vancouver", "addr:state": "BC", "addr:postcode": "V6E 4A9", "addr:country": "CA", "name": "Robson", "phone": "604-687-5874", "brand": "Lush", "brand:wikidata": "Q1585448", "nsi_id": "lush-a08666"}, "geometry": {"type": "Point", "coordinates": [-123.123233, 49.283558]}},
{"type": "Feature", "id": "LTXoDjoVjrJLZTo86AaTAfV8rOc=", "properties": {"ref": "017", "@spider": "lush", "shop": "cosmetics", "addr:full": "4700 Kingsway", "addr:city": "Burnaby", "addr:state": "BC", "addr:postcode": "V5H 4M2", "addr:country": "CA", "name": "Metrotown", "phone": "604-437-5874", "brand": "Lush", "brand:wikidata": "Q1585448", "nsi_id": "lush-a08666"}, "geometry": {"type": "Point", "coordinates": [-122.999851, 49.228452]}},
{"type": "Feature", "id": "4VgzyF0I1r5lOfubGx3zmJnnVLQ=", "properties": {"ref": "008", "@spider": "lush", "shop": "cosmetics", "addr:full": "760 Main Street", "addr:city": "West Vancouver", "addr:state": "BC", "addr:postcode": "V7T 0A5", "addr:country": "CA", "name": "Park Royal", "phone": "604-921-8034", "brand": "Lush", "brand:wikidata": "Q1585448", "nsi_id": "lush-a08666"}, "geometry": {"type": "Point", "coordinates": [-123.14298, 49.32574]}},
{"type": "Feature", "id": "429kEkhRtAw2Zz-CocpAGiLHGRw=", "properties": {"ref": "015", "@spider": "lush", "shop": "cosmetics", "addr:full": "2248 West 4th Avenue", "addr:city": "Vancouver", "addr:state": "BC", "addr:postcode": "V6K 1N8", "addr:country": "CA", "name": "West 4th Ave", "phone": "604-733-5874", "brand": "Lush", "brand:wikidata": "Q1585448", "nsi_id": "lush-a08666"}, "geometry": {"type": "Point", "coordinates": [-123.156298, 49.268169]}},
{"type": "Feature", "id": "sf-_d9iUN609CiEr22GpbYmQOV0=", "properties": {"ref": "016", "@spider": "lush", "shop": "cosmetics", "addr:full": "2929 Barnet Highway", "addr:city": "Coquitlam", "addr:state": "BC", "addr:postcode": "V3B 5R5", "addr:country": "CA", "name": "Coquitlam Centre", "phone": "604-945-5874", "brand": "Lush", "brand:wikidata": "Q1585448", "nsi_id": "lush-a08666"}, "geometry": {"type": "Point", "coordinates": [-122.799372, 49.276894]}},
{"type": "Feature", "id": "nbmOcHVasyM2irz-E4NxZxiMt0o=", "properties": {"ref": "004", "@spider": "lush", "shop": "cosmetics", "addr:full": "10355 152 Street", "addr:city": "Surrey", "addr:state": "BC", "addr:postcode": "V3R 7C1", "addr:country": "CA", "name": "Guildford Town Centre", "phone": "236-668-5649", "brand": "Lush", "brand:wikidata": "Q1585448", "nsi_id": "lush-a08666"}, "geometry": {"type": "Point", "coordinates": [-122.80387, 49.19084]}},
{"type": "Feature", "id": "WNAcfKL81vCB9UEHLIjbAzJ_cdQ=", "properties": {"ref": "018", "@spider": "lush", "shop": "cosmetics", "addr:full": "6631 Island Highway", "addr:city": "Nanaimo", "addr:state": "BC", "addr:postcode": "V9T 4T7", "addr:country": "CA", "name": "Woodgrove", "phone": "250-390-1774", "brand": "Lush", "brand:wikidata": "Q1585448", "nsi_id": "lush-a08666"}, "geometry": {"type": "Point", "coordinates": [-124.05071, 49.236738]}},
{"type": "Feature", "id": "m_TPT7GbIMX-ZCKABCrGSNNMVBs=", "properties": {"ref": "030", "@spider": "lush", "shop": "cosmetics", "addr:full": "3147 Douglas Street", "addr:city": "Victoria", "addr:state": "BC", "addr:postcode": "V8Z 6E3", "addr:country": "CA", "name": "Mayfair Mall", "phone": "1-250-370-5874", "brand": "Lush", "brand:wikidata": "Q1585448", "nsi_id": "lush-a08666"}, "geometry": {"type": "Point", "coordinates": [-123.371233, 48.446005]}},
{"type": "Feature", "id": "Jxql5xRc367OyAdpsDM34-cq85g=", "properties": {"ref": "026", "@spider": "lush", "shop": "cosmetics", "addr:full": "1020 Government Street", "addr:city": "Victoria", "addr:state": "BC", "addr:postcode": "V8W 1X7", "addr:country": "CA", "name": "Victoria", "phone": "250-213-2306", "brand": "Lush", "brand:wikidata": "Q1585448", "nsi_id": "lush-a08666"}, "geometry": {"type": "Point", "coordinates": [-123.36818, 48.424719]}},
{"type": "Feature", "id": "kY-NSSImyKWSU2abqgFUUYI5JsE=", "properties": {"ref": "027", "@spider": "lush", "shop": "cosmetics", "addr:full": "2271 Harvey Avenue", "addr:city": "Kelowna", "addr:state": "BC", "addr:postcode": "V1Y 6H2", "addr:country": "CA", "name": "Kelowna", "phone": "250-860-5874", "brand": "Lush", "brand:wikidata": "Q1585448", "nsi_id": "lush-a08666"}, "geometry": {"type": "Point", "coordinates": [-119.489594, 49.883565]}},
{"type": "Feature", "id": "1sStE36wrPKTk8Pq5dn0JQer1UQ=", "properties": {"ref": "022", "@spider": "lush", "shop": "cosmetics", "addr:full": "3625 Shaganappi Trail N.W.", "addr:city": "Calgary", "addr:state": "AB", "addr:postcode": "T3A 0E2", "addr:country": "CA", "name": "Market Mall", "phone": "403-288-5870", "brand": "Lush", "brand:wikidata": "Q1585448", "nsi_id": "lush-a08666"}, "geometry": {"type": "Point", "coordinates": [-114.152481, 51.083836]}},
{"type": "Feature", "id": "mLuAueyzVLPpbrtwUKwU3rwY5Rk=", "properties": {"ref": "021", "@spider": "lush", "shop": "cosmetics", "addr:full": "6455 MacLeod Tr. SW", "addr:city": "Calgary", "addr:state": "AB", "addr:postcode": "T2H 0K8", "addr:country": "CA", "name": "Chinook", "phone": "403-252-9415", "brand": "Lush", "brand:wikidata": "Q1585448", "nsi_id": "lush-a08666"}, "geometry": {"type": "Point", "coordinates": [-114.067132, 51.010361]}},
{"type": "Feature", "id": "xD8guILaBiyhTki08QkJPHj1zXU=", "properties": {"ref": "025", "@spider": "lush", "shop": "cosmetics", "addr:full": "261055 Crossiron Blvd", "addr:city": "Rocky View County", "addr:state": "AB", "addr:postcode": "T4A 0G3", "addr:country": "CA", "name": "Cross Iron Mills", "phone": "403-730-1620", "brand": "Lush", "brand:wikidata": "Q1585448", "nsi_id": "lush-a08666"}, "geometry": {"type": "Point", "coordinates": [-113.992564, 51.203181]}},
{"type": "Feature", "id": "zG-_ezyBXp95DA5Q4R9bem151dc=", "properties": {"ref": "033", "@spider": "lush", "shop": "cosmetics", "addr:full": "8882 170 St NW", "addr:city": "Edmonton", "addr:state": "AB", "addr:postcode": "T5T 4M2", "addr:country": "CA", "name": "West Edmonton Mall", "phone": "780-444-1789", "brand": "Lush", "brand:wikidata": "Q1585448", "nsi_id": "lush-a08666"}, "geometry": {"type": "Point", "coordinates": [-113.615458, 53.524603]}},
{"type": "Feature", "id": "QKsvIU2pvmIgbDpOh75gPEd0XC4=", "properties": {"ref": "035", "@spider": "lush", "shop": "cosmetics", "addr:full": "109 Kingsway NW", "addr:city": "Edmonton", "addr:state": "AB", "addr:postcode": "T5G 3A6", "addr:country": "CA", "name": "Kingsway Garden", "phone": "780-474-1758", "brand": "Lush", "brand:wikidata": "Q1585448", "nsi_id": "lush-a08666"}, "geometry": {"type": "Point", "coordinates": [-113.50749, 53.56028]}},
{"type": "Feature", "id": "85mqUEy4Pa7xy61YeOiSk2K9Orw=", "properties": {"ref": "042", "@spider": "lush", "shop": "cosmetics", "addr:full": "201 1st Avenue South", "addr:city": "Saskatoon", "addr:state": "SK", "addr:postcode": "S7K 1J5", "addr:country": "CA", "name": "Midtown", "phone": "306-979-7203", "brand": "Lush", "brand:wikidata": "Q1585448", "nsi_id": "lush-a08666"}, "geometry": {"type": "Point", "coordinates": [-106.666625, 52.126741]}},
{"type": "Feature", "id": "dgUT2Ssv_jZYi3hJvBPXWfrkR6w=", "properties": {"ref": "043", "@spider": "lush", "shop": "cosmetics", "addr:full": "2102 11th Avenue", "addr:city": "Regina", "addr:state": "SK", "addr:postcode": "S4P 3Y6", "addr:country": "CA", "name": "Cornwall Centre", "phone": "306-559-2025", "brand": "Lush", "brand:wikidata": "Q1585448", "nsi_id": "lush-a08666"}, "geometry": {"type": "Point", "coordinates": [-104.6109, 50.4518]}},
{"type": "Feature", "id": "ZS2BI9gkxquGEVFqSdtK09V32sU=", "properties": {"ref": "041", "@spider": "lush", "shop": "cosmetics", "addr:full": "1485 Portage Avenue", "addr:city": "Winnipeg", "addr:state": "MB", "addr:postcode": "R3G 0W4", "addr:country": "CA", "name": "Polo Park", "phone": "204-421-1361", "brand": "Lush", "brand:wikidata": "Q1585448", "nsi_id": "lush-a08666"}, "geometry": {"type": "Point", "coordinates": [-97.201266, 49.88135]}},
{"type": "Feature", "id": "eawnFNvIMcOmqUQHkMt0QjttuRU=", "properties": {"ref": "040", "@spider": "lush", "shop": "cosmetics", "addr:full": "1225 St. Mary's Road", "addr:city": "Winnipeg", "addr:state": "MB", "addr:postcode": "R2M 5E5", "addr:country": "CA", "name": "St. Vital", "phone": "204-256-2627", "brand": "Lush", "brand:wikidata": "Q1585448", "nsi_id": "lush-a08666"}, "geometry": {"type": "Point", "coordinates": [-97.112104, 49.828469]}},
{"type": "Feature", "id": "b1EiB2Q3bbFfdVHqKOSVr5l6sDo=", "properties": {"ref": "068", "@spider": "lush", "shop": "cosmetics", "addr:full": "3100 Howard Aveunue", "addr:city": "Windsor", "addr:state": "ON", "addr:postcode": "N8X 3Y8", "addr:country": "CA", "name": "Windsor", "phone": "519-966-7706", "brand": "Lush", "brand:wikidata": "Q1585448", "nsi_id": "lush-a08666"}, "geometry": {"type": "Point", "coordinates": [-83.004722, 42.273307]}},
{"type": "Feature", "id": "xBKAJ3An6c9EtLkKdSWdWunX4z4=", "properties": {"ref": "071", "@spider": "lush", "shop": "cosmetics", "addr:full": "1680 Richmond Street", "addr:city": "London", "addr:state": "ON", "addr:postcode": "N6G 3Y9", "addr:country": "CA", "name": "Masonville Place", "phone": "519-673-6499", "brand": "Lush", "brand:wikidata": "Q1585448", "nsi_id": "lush-a08666"}, "geometry": {"type": "Point", "coordinates": [-81.27953, 43.0261]}},
{"type": "Feature", "id": "NFzZ7BUZjDf3_AOxahHpkHfFJVI=", "properties": {"ref": "070", "@spider": "lush", "shop": "cosmetics", "addr:full": "1105 Wellington Road South", "addr:city": "London", "addr:state": "ON", "addr:postcode": "N6E 1V4", "addr:country": "CA", "name": "London", "phone": "519-686-8431", "brand": "Lush", "brand:wikidata": "Q1585448", "nsi_id": "lush-a08666"}, "geometry": {"type": "Point", "coordinates": [-81.201489, 42.884845]}},
{"type": "Feature", "id": "_gOjVJV5s5KARSErgQkYtlp4UmY=", "properties": {"ref": "045", "@spider": "lush", "shop": "cosmetics", "addr:full": "2960 Kingsway Drive", "addr:city": "Kitchener", "addr:state": "ON", "addr:postcode": "N2C 1X1", "addr:country": "CA", "name": "Fairview Park Mall", "phone": "519-748-4276", "brand": "Lush", "brand:wikidata": "Q1585448", "nsi_id": "lush-a08666"}, "geometry": {"type": "Point", "coordinates": [-80.44009, 43.42159]}},
{"type": "Feature", "id": "LhAOAyGemNQXjIihhVdGnVS97mE=", "properties": {"ref": "079", "@spider": "lush", "shop": "cosmetics", "addr:full": "435 Stone Road", "addr:city": "Guelph", "addr:state": "ON", "addr:postcode": "N1G 2X6", "addr:country": "CA", "name": "Stone Road", "phone": "519-821-8874", "brand": "Lush", "brand:wikidata": "Q1585448", "nsi_id": "lush-a08666"}, "geometry": {"type": "Point", "coordinates": [-80.241537, 43.514273]}},
{"type": "Feature", "id": "n3hnMSAREFIeRqdZkaNLq-3FpRM=", "properties": {"ref": "076", "@spider": "lush", "shop": "cosmetics", "addr:full": "17600 Yonge Street", "addr:city": "Newmarket", "addr:state": "ON", "addr:postcode": "L3Y 4Z1", "addr:country": "CA", "name": "Upper Canada", "phone": "289-338-0356", "brand": "Lush", "brand:wikidata": "Q1585448", "nsi_id": "lush-a08666"}, "geometry": {"type": "Point", "coordinates": [-79.479962, 44.05286]}},
{"type": "Feature", "id": "JyTqg1DUInf71lp4zYP2N8WFpHE=", "properties": {"ref": "058", "@spider": "lush", "shop": "cosmetics", "addr:full": "100 City Centre Drive", "addr:city": "Mississauga", "addr:state": "ON", "addr:postcode": "L5B 2T4", "addr:country": "CA", "name": "Square One", "phone": "647-449-4233", "brand": "Lush", "brand:wikidata": "Q1585448", "nsi_id": "lush-a08666"}, "geometry": {"type": "Point", "coordinates": [-79.639396, 43.591959]}},
{"type": "Feature", "id": "mVXjCvgcZ_FkDUI6wcCHj0c3VI8=", "properties": {"ref": "048", "@spider": "lush", "shop": "cosmetics", "addr:full": "999 Upper Wentworth St", "addr:city": "Hamilton", "addr:state": "ON", "addr:postcode": "L9A 4X5", "addr:country": "CA", "name": "Lime Ridge Mall", "phone": "905-387-0309", "brand": "Lush", "brand:wikidata": "Q1585448", "nsi_id": "lush-a08666"}, "geometry": {"type": "Point", "coordinates": [-79.86192, 43.21735]}},
{"type": "Feature", "id": "bfiF1QtF8G2fhrqX_1A7HcavH-A=", "properties": {"ref": "061", "@spider": "lush", "shop": "cosmetics", "addr:full": "25 The West Mall", "addr:city": "Etobicoke", "addr:state": "ON", "addr:postcode": "M9C 1B8", "addr:country": "CA", "name": "Sherway Gardens", "phone": "416-695-1730", "brand": "Lush", "brand:wikidata": "Q1585448", "nsi_id": "lush-a08666"}, "geometry": {"type": "Point", "coordinates": [-79.55718, 43.61169]}},
{"type": "Feature", "id": "nYNEG03IGG1Xz_EABKLbrGi-lxo=", "properties": {"ref": "055", "@spider": "lush", "shop": "cosmetics", "addr:full": "3401 Dufferin St", "addr:city": "Toronto", "addr:state": "ON", "addr:postcode": "M6A 2T9", "addr:country": "CA", "name": "Yorkdale Shopping Centre", "phone": "416-782-9683", "brand": "Lush", "brand:wikidata": "Q1585448", "nsi_id": "lush-a08666"}, "geometry": {"type": "Point", "coordinates": [-79.45538, 43.72478]}},
{"type": "Feature", "id": "bF-14xR5qBWWUkT1AoPTSiVW_ks=", "properties": {"ref": "052", "@spider": "lush", "shop": "cosmetics", "addr:full": "1800 Sheppard Ave", "addr:city": "Toronto", "addr:state": "ON", "addr:postcode": "M2J 5A7", "addr:country": "CA", "name": "Fairview Mall", "phone": "416-499-8747", "brand": "Lush", "brand:wikidata": "Q1585448", "nsi_id": "lush-a08666"}, "geometry": {"type": "Point", "coordinates": [-79.34465, 43.77788]}},
{"type": "Feature", "id": "fy-U0xtj2r8xCH9VSyJ84bBofro=", "properties": {"ref": "051", "@spider": "lush", "shop": "cosmetics", "addr:full": "312 Queen Street West", "addr:city": "Toronto", "addr:state": "ON", "addr:postcode": "M5V 2A2", "addr:country": "CA", "name": "Queen Street", "phone": "416-599-5874", "brand": "Lush", "brand:wikidata": "Q1585448", "nsi_id": "lush-a08666"}, "geometry": {"type": "Point", "coordinates": [-79.394003, 43.649237]}},
{"type": "Feature", "id": "0oiAtcQyjfdcO1T71mNMqcUSq4c=", "properties": {"ref": "062", "@spider": "lush", "shop": "cosmetics", "addr:full": "220 Yonge Street ", "addr:city": "Toronto", "addr:state": "ON", "addr:postcode": "M5B 2H1", "addr:country": "CA", "name": "Toronto Eaton Centre", "phone": "416-597-1078", "brand": "Lush", "brand:wikidata": "Q1585448", "nsi_id": "lush-a08666"}, "geometry": {"type": "Point", "coordinates": [-79.380976, 43.656318]}},
{"type": "Feature", "id": "cJ2jkwFgfWxk-EDHGwu5pKgqkYU=", "properties": {"ref": "078", "@spider": "lush", "shop": "cosmetics", "addr:full": "5000 Highway 7 East", "addr:city": "Markham", "addr:state": "ON", "addr:postcode": "L3R 4M9", "addr:country": "CA", "name": "Markville", "phone": "905-474-2874", "brand": "Lush", "brand:wikidata": "Q1585448", "nsi_id": "lush-a08666"}, "geometry": {"type": "Point", "coordinates": [-79.193329, 43.888308]}},
{"type": "Feature", "id": "jB8GQp0wrJ0gq8AoyKM9_Vl0lR0=", "properties": {"ref": "063", "@spider": "lush", "shop": "cosmetics", "addr:full": "1355 Kingston Road", "addr:city": "Pickering", "addr:state": "ON", "addr:postcode": "L1V 1B8", "addr:country": "CA", "name": "Pickering", "phone": "905-831-7266", "brand": "Lush", "brand:wikidata": "Q1585448", "nsi_id": "lush-a08666"}, "geometry": {"type": "Point", "coordinates": [-79.088443, 43.837224]}},
{"type": "Feature", "id": "Ildhv9E_rMis-ssz4B4fYeUMpLg=", "properties": {"ref": "053", "@spider": "lush", "shop": "cosmetics", "addr:full": "419 King St W", "addr:city": "Oshawa", "addr:state": "ON", "addr:postcode": "L1J 2K5", "addr:country": "CA", "name": "Oshawa Centre", "phone": "289-979-8145", "brand": "Lush", "brand:wikidata": "Q1585448", "nsi_id": "lush-a08666"}, "geometry": {"type": "Point", "coordinates": [-78.8801, 43.8907]}},
{"type": "Feature", "id": "4nEKgbiZg7rF7xMimYvS6eGPfcM=", "properties": {"ref": "075", "@spider": "lush", "shop": "cosmetics", "addr:full": "945 Gardiner Road", "addr:city": "Kingston", "addr:state": "ON", "addr:postcode": "K7M 7H4", "addr:country": "CA", "name": "Cataraqui", "phone": "613-384-5874", "brand": "Lush", "brand:wikidata": "Q1585448", "nsi_id": "lush-a08666"}, "geometry": {"type": "Point", "coordinates": [-76.571887, 44.256304]}},
{"type": "Feature", "id": "jE_QBaOSoKovN-3uaenrSQolrXY=", "properties": {"ref": "064", "@spider": "lush", "shop": "cosmetics", "addr:full": "50 Rideau Street", "addr:city": "Ottawa", "addr:state": "ON", "addr:postcode": "K1N 9J7", "addr:country": "CA", "name": "Rideau Centre", "phone": "613-238-7144", "brand": "Lush", "brand:wikidata": "Q1585448", "nsi_id": "lush-a08666"}, "geometry": {"type": "Point", "coordinates": [-75.69257, 45.42558]}},
{"type": "Feature", "id": "pDcSLch7Hpa1DEx1qrVrqfWCmsU=", "properties": {"ref": "066", "@spider": "lush", "shop": "cosmetics", "addr:full": "1200 St. Laurent Boulevard", "addr:city": "Ottawa", "addr:state": "ON", "addr:postcode": "K1K 3B0", "addr:country": "CA", "name": "St. Laurent", "phone": "613-564-5874", "brand": "Lush", "brand:wikidata": "Q1585448", "nsi_id": "lush-a08666"}, "geometry": {"type": "Point", "coordinates": [-75.63706, 45.4236]}},
{"type": "Feature", "id": "FHD01ubSUygIEhk27z3QbbPYEZY=", "properties": {"ref": "080", "@spider": "lush", "shop": "cosmetics", "addr:full": "401 Boulevard Labelle", "addr:city": "Rosemere", "addr:state": "QC", "addr:postcode": "J7A 3T2", "addr:country": "CA", "name": "Place Rosem\u00e8re", "phone": "450-420-3874", "brand": "Lush", "brand:wikidata": "Q1585448", "nsi_id": "lush-a08666"}, "geometry": {"type": "Point", "coordinates": [-73.815649, 45.632312]}},
{"type": "Feature", "id": "ORD7qgA-leK0Q673lHLsg2_84Y4=", "properties": {"ref": "082", "@spider": "lush", "shop": "cosmetics", "addr:full": "3003 Boul. Le Carrefour", "addr:city": "Carrefour Laval", "addr:state": "QC", "addr:postcode": "H7T 1C7", "addr:country": "CA", "name": "Carrefour Laval", "phone": "514-627-9626", "brand": "Lush", "brand:wikidata": "Q1585448", "nsi_id": "lush-a08666"}, "geometry": {"type": "Point", "coordinates": [-73.74818, 45.569368]}},
{"type": "Feature", "id": "GnktyE5djWBnzGhxza4yKsJLKNk=", "properties": {"ref": "086", "@spider": "lush", "shop": "cosmetics", "addr:full": "6801 Trans Canada Hwy", "addr:city": "Pointe-claire", "addr:state": "QC", "addr:postcode": "H9R 5J2", "addr:country": "CA", "name": "Fairview Pointe-Claire", "phone": "514-630-5874", "brand": "Lush", "brand:wikidata": "Q1585448", "nsi_id": "lush-a08666"}, "geometry": {"type": "Point", "coordinates": [-73.806047, 45.473758]}},
{"type": "Feature", "id": "dt12tKM-sI-WiPuwzdx9fuqN9Ms=", "properties": {"ref": "085", "@spider": "lush", "shop": "cosmetics", "addr:full": "7999 Bl. Les Galeries d'Anjou", "addr:city": "Anjou", "addr:state": "QC", "addr:postcode": "H1M 1W9", "addr:country": "CA", "name": "Galeries d'Anjou", "phone": "514-355-3874", "brand": "Lush", "brand:wikidata": "Q1585448", "nsi_id": "lush-a08666"}, "geometry": {"type": "Point", "coordinates": [-73.568845, 45.599204]}},
{"type": "Feature", "id": "XDywEGttgupIk0X04xZxAlrjXD0=", "properties": {"ref": "090", "@spider": "lush", "shop": "cosmetics", "addr:full": "705 Rue Sainte-Catherine Ouest", "addr:city": "Montreal", "addr:state": "QC", "addr:postcode": "H3B 5G5", "addr:country": "CA", "name": "Centre Eaton de Montr\u00e9al", "phone": "514-285-4973", "brand": "Lush", "brand:wikidata": "Q1585448", "nsi_id": "lush-a08666"}, "geometry": {"type": "Point", "coordinates": [-73.572888, 45.503286]}},
{"type": "Feature", "id": "alMpIvnClx3_Aebgpe5QFdRSU-A=", "properties": {"ref": "088", "@spider": "lush", "shop": "cosmetics", "addr:full": "5401 Boul. Des Galeries", "addr:city": "Quebec", "addr:state": "QC", "addr:postcode": "G2K 1N4", "addr:country": "CA", "name": "Galeries de la Capitale", "phone": "418-907-2962", "brand": "Lush", "brand:wikidata": "Q1585448", "nsi_id": "lush-a08666"}, "geometry": {"type": "Point", "coordinates": [-71.295541, 46.831292]}},
{"type": "Feature", "id": "gXuR8SNBDwo0pOh3bjSjVpJxYH0=", "properties": {"ref": "089", "@spider": "lush", "shop": "cosmetics", "addr:full": "2700 Boul. Laurier", "addr:city": "Ste-Foy", "addr:state": "QC", "addr:postcode": "G1V 4J9", "addr:country": "CA", "name": "Laurier Qu\u00e9bec", "phone": "418-659-7276", "brand": "Lush", "brand:wikidata": "Q1585448", "nsi_id": "lush-a08666"}, "geometry": {"type": "Point", "coordinates": [-71.283886, 46.769611]}},
{"type": "Feature", "id": "jr7h4jMamSxWH-UIgewt-oB12fY=", "properties": {"ref": "093", "@spider": "lush", "shop": "cosmetics", "addr:full": "7001 Mumford Road", "addr:city": "Halifax", "addr:state": "NS", "addr:postcode": "B3L 2H8", "addr:country": "CA", "name": "Halifax", "phone": "902-454-2007", "brand": "Lush", "brand:wikidata": "Q1585448", "nsi_id": "lush-a08666"}, "geometry": {"type": "Point", "coordinates": [-63.620517, 44.648238]}},
{"type": "Feature", "id": "wWYJkfXfEHIGDhAxg6IJKb2ohmc=", "properties": {"ref": "091", "@spider": "lush", "shop": "cosmetics", "addr:full": "21 MicMac Blvd", "addr:city": "Dartmouth", "addr:state": "NS", "addr:postcode": "B3A 4N3", "addr:country": "CA", "name": "Mic Mac Mall", "phone": "902-401-9805", "brand": "Lush", "brand:wikidata": "Q1585448", "nsi_id": "lush-a08666"}, "geometry": {"type": "Point", "coordinates": [-63.557796, 44.68449]}},
{"type": "Feature", "id": "a20_JDjQMtVSpMdlDTCvfsOmMPo=", "properties": {"ref": "092", "@spider": "lush", "shop": "cosmetics", "addr:full": "48 Kenmount Road", "addr:city": "St. John's", "addr:state": "NL", "addr:postcode": "A1B 3P8", "addr:country": "CA", "name": "Avalon Mall", "phone": "(709)753-9120", "brand": "Lush", "brand:wikidata": "Q1585448", "nsi_id": "lush-a08666"}, "geometry": {"type": "Point", "coordinates": [-52.754158, 47.56121]}},
{"type": "Feature", "id": "Rr0yVdW_l0cXdz3XrQU44qm24GQ=", "properties": {"ref": "456", "@spider": "lush", "shop": "cosmetics", "addr:full": "1012 West 6th Street", "addr:city": "Austin", "addr:state": "TX", "addr:postcode": "78703", "addr:country": "US", "name": "Austin", "phone": "512-524-4459", "brand": "Lush", "brand:wikidata": "Q1585448", "nsi_id": "lush-a08666"}, "geometry": {"type": "Point", "coordinates": [-97.754374, 30.271834]}},
{"type": "Feature", "id": "qFFSX7mZ1RnOsMkngdrpgY79v-Q=", "properties": {"ref": "493", "@spider": "lush", "shop": "cosmetics", "addr:full": "3211 Palm Way ", "addr:city": "Austin", "addr:state": "TX", "addr:postcode": "78758", "addr:country": "US", "name": "The Domain", "phone": "512-873-7784", "brand": "Lush", "brand:wikidata": "Q1585448", "nsi_id": "lush-a08666"}, "geometry": {"type": "Point", "coordinates": [-97.72522, 30.39976]}},
{"type": "Feature", "id": "Sm5ypun2YXArFQNbnhBvYdu-1j4=", "properties": {"ref": "469", "@spider": "lush", "shop": "cosmetics", "addr:full": "7400 San Pedro", "addr:city": "San Antonio", "addr:state": "TX", "addr:postcode": "78216", "addr:country": "US", "name": "North Star", "phone": "210-348-5484", "brand": "Lush", "brand:wikidata": "Q1585448", "nsi_id": "lush-a08666"}, "geometry": {"type": "Point", "coordinates": [-98.49727, 29.51734]}},
{"type": "Feature", "id": "w8Yl7bMf-jU6lBeopoNqwbtvV5A=", "properties": {"ref": "496", "@spider": "lush", "shop": "cosmetics", "addr:full": "15900 La Cantera Parkway", "addr:city": "San Antonio", "addr:state": "TX", "addr:postcode": "78256", "addr:country": "US", "name": "The Shops at La Cantera", "phone": "210-877-9854", "brand": "Lush", "brand:wikidata": "Q1585448", "nsi_id": "lush-a08666"}, "geometry": {"type": "Point", "coordinates": [-98.61512, 29.59438]}},
{"type": "Feature", "id": "xeG6tvwv8sJLGVBgWogijDW961M=", "properties": {"ref": "488", "@spider": "lush", "shop": "cosmetics", "addr:full": "1596 Willowbrook Mall", "addr:city": "Houston", "addr:state": "TX", "addr:postcode": "77070", "addr:country": "US", "name": "Willowbrook Mall", "phone": "281-469-1979", "brand": "Lush", "brand:wikidata": "Q1585448", "nsi_id": "lush-a08666"}, "geometry": {"type": "Point", "coordinates": [-95.5377, 29.9573]}},
{"type": "Feature", "id": "1OLB4EjFKL6_NZx-cVSFGDXBuXI=", "properties": {"ref": "470", "@spider": "lush", "shop": "cosmetics", "addr:full": "16535 Southwest Fwy", "addr:city": "Sugar Land", "addr:state": "TX", "addr:postcode": "77479", "addr:country": "US", "name": "First Colony Mall", "phone": "281-565-6436", "brand": "Lush", "brand:wikidata": "Q1585448", "nsi_id": "lush-a08666"}, "geometry": {"type": "Point", "coordinates": [-95.62493, 29.59119]}},
{"type": "Feature", "id": "seMpxVXnj1jO7bXgxfROUncGxhM=", "properties": {"ref": "491", "@spider": "lush", "shop": "cosmetics", "addr:full": "303 Memorial City Way", "addr:city": "Houston", "addr:state": "TX", "addr:postcode": "77024", "addr:country": "US", "name": "Memorial City Mall", "phone": "713-932-0408", "brand": "Lush", "brand:wikidata": "Q1585448", "nsi_id": "lush-a08666"}, "geometry": {"type": "Point", "coordinates": [-95.53886, 29.78184]}},
{"type": "Feature", "id": "LH1LsamR7cSBI0_oofKHRUQgzWo=", "properties": {"ref": "468", "@spider": "lush", "shop": "cosmetics", "addr:full": "9595 Six Pines Drive", "addr:city": "Woodlands", "addr:state": "TX", "addr:postcode": "77380", "addr:country": "US", "name": "Market Street", "phone": "281-465-4603", "brand": "Lush", "brand:wikidata": "Q1585448", "nsi_id": "lush-a08666"}, "geometry": {"type": "Point", "coordinates": [-95.46141, 30.1643]}},
{"type": "Feature", "id": "9KrR9QLlpND97jGW_45MIhcLbGw=", "properties": {"ref": "457", "@spider": "lush", "shop": "cosmetics", "addr:full": "5085 Westeimer", "addr:city": "Houston", "addr:state": "TX", "addr:postcode": "77056", "addr:country": "US", "name": "The Galleria", "phone": "713 552 1658", "brand": "Lush", "brand:wikidata": "Q1585448", "nsi_id": "lush-a08666"}, "geometry": {"type": "Point", "coordinates": [-95.464309, 29.737974]}},
{"type": "Feature", "id": "Uemt1QFO2HZCPcWGFkJzIo9JzKk=", "properties": {"ref": "453", "@spider": "lush", "shop": "cosmetics", "addr:full": "3966 Westheimer Rd", "addr:city": "Houston", "addr:state": "TX", "addr:postcode": "77027", "addr:country": "US", "name": "Highland Village", "phone": "713-552-0465", "brand": "Lush", "brand:wikidata": "Q1585448", "nsi_id": "lush-a08666"}, "geometry": {"type": "Point", "coordinates": [-95.44724, 29.74092]}},
{"type": "Feature", "id": "Gtbd4D3VF8f4anIoGPgf5GNRF_c=", "properties": {"ref": "460", "@spider": "lush", "shop": "cosmetics", "addr:full": "700 Baybrook Mall", "addr:city": "Friendswood", "addr:state": "TX", "addr:postcode": "77546", "addr:country": "US", "name": "Baybrook", "phone": "281-990-0843", "brand": "Lush", "brand:wikidata": "Q1585448", "nsi_id": "lush-a08666"}, "geometry": {"type": "Point", "coordinates": [-95.195355, 29.513916]}},
{"type": "Feature", "id": "ZCBqIMzFf9mZJskvKs5EY_9dkIM=", "properties": {"ref": "394", "@spider": "lush", "shop": "cosmetics", "addr:full": "5488 S Padre Island Dr", "addr:city": "Corpus Christi", "addr:state": "TX", "addr:postcode": "78411", "addr:country": "US", "name": "La Palmera", "phone": "361-980-3957", "brand": "Lush", "brand:wikidata": "Q1585448", "nsi_id": "lush-a08666"}, "geometry": {"type": "Point", "coordinates": [-97.371675, 27.710161]}},
{"type": "Feature", "id": "Pya-lTo3mJwUsQLI9b1RBNG4Smc=", "properties": {"ref": "390", "@spider": "lush", "shop": "cosmetics", "addr:full": "1431 Main Street", "addr:city": "Southlake", "addr:state": "TX", "addr:postcode": "76092", "addr:country": "US", "name": "Southlake Town Square", "phone": "(817) 329-6087", "brand": "Lush", "brand:wikidata": "Q1585448", "nsi_id": "lush-a08666"}, "geometry": {"type": "Point", "coordinates": [-97.129761, 32.942574]}},
{"type": "Feature", "id": "20J2LyIySH-ykefGflwDIH_P4V8=", "properties": {"ref": "461", "@spider": "lush", "shop": "cosmetics", "addr:full": "8687 N. Central Express Way", "addr:city": "Dallas", "addr:state": "TX", "addr:postcode": "75225", "addr:country": "US", "name": "NorthPark Center", "phone": "214-987-1461", "brand": "Lush", "brand:wikidata": "Q1585448", "nsi_id": "lush-a08666"}, "geometry": {"type": "Point", "coordinates": [-96.770719, 32.868831]}},
{"type": "Feature", "id": "zuyxPVqhHulaW9GH8Ql1ErgP3-M=", "properties": {"ref": "459", "@spider": "lush", "shop": "cosmetics", "addr:full": "13350 Dallas Parkway", "addr:city": "Dallas", "addr:state": "TX", "addr:postcode": "75240", "addr:country": "US", "name": "Dallas Galleria", "phone": "469-453-5248", "brand": "Lush", "brand:wikidata": "Q1585448", "nsi_id": "lush-a08666"}, "geometry": {"type": "Point", "coordinates": [-96.789557, 32.931219]}},
{"type": "Feature", "id": "qNTS_bESXXOdfwnI7RJaH1OGu6o=", "properties": {"ref": "464", "@spider": "lush", "shop": "cosmetics", "addr:full": "6121 West Park Blvd.", "addr:city": "Plano", "addr:state": "TX", "addr:postcode": "75093", "addr:country": "US", "name": "Willow Bend", "phone": "972-202-4573", "brand": "Lush", "brand:wikidata": "Q1585448", "nsi_id": "lush-a08666"}, "geometry": {"type": "Point", "coordinates": [-96.833, 33.03095]}},
{"type": "Feature", "id": "g59uKb337l3mejou9XuNV-6MLRg=", "properties": {"ref": "391", "@spider": "lush", "shop": "cosmetics", "addr:full": "2601 Preston Rd", "addr:city": "Frisco", "addr:state": "TX", "addr:postcode": "75034", "addr:country": "US", "name": "Stonebriar Center", "phone": "469-294-8723", "brand": "Lush", "brand:wikidata": "Q1585448", "nsi_id": "lush-a08666"}, "geometry": {"type": "Point", "coordinates": [-96.811256, 33.099012]}},
{"type": "Feature", "id": "S4sHB57Ofd1xzSDF2ngNdQQLQCg=", "properties": {"ref": "392", "@spider": "lush", "shop": "cosmetics", "addr:full": "2200 S 10th St", "addr:city": "Mcallen", "addr:state": "TX", "addr:postcode": "78503", "addr:country": "US", "name": "La Plaza Mall", "phone": "956-877-2494", "brand": "Lush", "brand:wikidata": "Q1585448", "nsi_id": "lush-a08666"}, "geometry": {"type": "Point", "coordinates": [-98.235864, 26.185087]}},
{"type": "Feature", "id": "yzY6bewkzP3pRwdYNZibg9thlOk=", "properties": {"ref": "632", "@spider": "lush", "shop": "cosmetics", "addr:full": "1901 Northwest Expressway", "addr:city": "Oklahoma City", "addr:state": "OK", "addr:postcode": "73118", "addr:country": "US", "name": "Penn Square Mall", "phone": "405-840-7861", "brand": "Lush", "brand:wikidata": "Q1585448", "nsi_id": "lush-a08666"}, "geometry": {"type": "Point", "coordinates": [-97.543965, 35.524741]}},
{"type": "Feature", "id": "J8DNgV2bcueL7MUSeVaFLTZdibs=", "properties": {"ref": "634", "@spider": "lush", "shop": "cosmetics", "addr:full": "6401 Bluebonnet Boulevard", "addr:city": "Baton Rouge", "addr:state": "LA", "addr:postcode": "70836", "addr:country": "US", "name": "Mall of Louisiana", "phone": "225-767-7002", "brand": "Lush", "brand:wikidata": "Q1585448", "nsi_id": "lush-a08666"}, "geometry": {"type": "Point", "coordinates": [-91.083761, 30.386633]}},
{"type": "Feature", "id": "XCFYhKsF5JPjo42uuyQDiO-Ttyc=", "properties": {"ref": "701", "@spider": "lush", "shop": "cosmetics", "addr:full": "7021 South Memorial Drive", "addr:city": "Tulsa", "addr:state": "OK", "addr:postcode": "74133", "addr:country": "US", "name": "Woodland Hills Mall", "phone": "918-461-9629", "brand": "Lush", "brand:wikidata": "Q1585448", "nsi_id": "lush-a08666"}, "geometry": {"type": "Point", "coordinates": [-95.88127, 36.0631]}},
{"type": "Feature", "id": "atDZL5udnblIl5dgoH9uE-DHTzM=", "properties": {"ref": "703", "@spider": "lush", "shop": "cosmetics", "addr:full": "17711 Chenal Pkwy", "addr:city": "Little Rock", "addr:state": "AR", "addr:postcode": "72223", "addr:country": "US", "name": "Promenade at Chenal", "phone": "501-821-8049", "brand": "Lush", "brand:wikidata": "Q1585448", "nsi_id": "lush-a08666"}, "geometry": {"type": "Point", "coordinates": [-92.458677, 34.767016]}},
{"type": "Feature", "id": "tcdA1GmRimZqdAaAzqNAcH_KZTw=", "properties": {"ref": "709", "@spider": "lush", "shop": "cosmetics", "addr:full": "3129 Magazine Street ", "addr:city": "New Orleans", "addr:state": "LA", "addr:postcode": "70115", "addr:country": "US", "name": "Magazine Street", "phone": "504-899-4089", "brand": "Lush", "brand:wikidata": "Q1585448", "nsi_id": "lush-a08666"}, "geometry": {"type": "Point", "coordinates": [-90.08631, 29.92431]}},
{"type": "Feature", "id": "-B6QqRHGDj_c-hWu_PPtD9ybVto=", "properties": {"ref": "711", "@spider": "lush", "shop": "cosmetics", "addr:full": "532 Royal Street", "addr:city": "New Orleans", "addr:state": "LA", "addr:postcode": "70130-2114", "addr:country": "US", "name": "Royal Street", "phone": "504-529-5704", "brand": "Lush", "brand:wikidata": "Q1585448", "nsi_id": "lush-a08666"}, "geometry": {"type": "Point", "coordinates": [-90.06556, 29.95697]}},
{"type": "Feature", "id": "K7EpHZEUhmAoMKit2ArVUi64b9Y=", "properties": {"ref": "393", "@spider": "lush", "shop": "cosmetics", "addr:full": "8401 Gateway Blvd W", "addr:city": "El Paso", "addr:state": "TX", "addr:postcode": "79925", "addr:country": "US", "name": "Cielo Vista Mall", "phone": "915-615-4454", "brand": "Lush", "brand:wikidata": "Q1585448", "nsi_id": "lush-a08666"}, "geometry": {"type": "Point", "coordinates": [-106.378766, 31.775656]}},
{"type": "Feature", "id": "6wYvqEAUh3Bu7FC-BXFeKvDPjbw=", "properties": {"ref": "475", "@spider": "lush", "shop": "cosmetics", "addr:full": "2240 Q Street Northeast", "addr:city": "Albuquerque", "addr:state": "NM", "addr:postcode": "87110", "addr:country": "US", "name": "ABQ Uptown", "phone": "505-888-8804", "brand": "Lush", "brand:wikidata": "Q1585448", "nsi_id": "lush-a08666"}, "geometry": {"type": "Point", "coordinates": [-106.566892, 35.102911]}},
{"type": "Feature", "id": "J8kA_Bf1YHvz31Qw7SbcA-5ObRQ=", "properties": {"ref": "480", "@spider": "lush", "shop": "cosmetics", "addr:full": "11237 W 95th Street", "addr:city": "Overland Park", "addr:state": "KS", "addr:postcode": "66214", "addr:country": "US", "name": "Oak Park", "phone": "913-599-3960", "brand": "Lush", "brand:wikidata": "Q1585448", "nsi_id": "lush-a08666"}, "geometry": {"type": "Point", "coordinates": [-94.717638, 38.956414]}},
{"type": "Feature", "id": "-Ti3bjUG6phAhUOFWLGYQ9ukZqI=", "properties": {"ref": "789", "@spider": "lush", "shop": "cosmetics", "addr:full": "4127 Legendary Drive", "addr:city": "Destin", "addr:state": "FL", "addr:postcode": "32541", "addr:country": "US", "name": "Destin Commons", "phone": "850-650-2434", "brand": "Lush", "brand:wikidata": "Q1585448", "nsi_id": "lush-a08666"}, "geometry": {"type": "Point", "coordinates": [-86.426157, 30.391229]}},
{"type": "Feature", "id": "X7q9Pn2ZS8G0G-YEqrQ_-sQr05s=", "properties": {"ref": "742", "@spider": "lush", "shop": "cosmetics", "addr:full": "220 Summit Boulevard", "addr:city": "Birmingham", "addr:state": "AL", "addr:postcode": "35243", "addr:country": "US", "name": "Summit at Birmingham", "phone": "205-977-4088", "brand": "Lush", "brand:wikidata": "Q1585448", "nsi_id": "lush-a08666"}, "geometry": {"type": "Point", "coordinates": [-86.73202, 33.44715]}},
{"type": "Feature", "id": "nv6xsMMp4t2K5ixJhYRrk5vWNcw=", "properties": {"ref": "702", "@spider": "lush", "shop": "cosmetics", "addr:full": "80 West County Center", "addr:city": "Des Peres", "addr:state": "MO", "addr:postcode": "63131", "addr:country": "US", "name": "West County Mall", "phone": "314-984-5029", "brand": "Lush", "brand:wikidata": "Q1585448", "nsi_id": "lush-a08666"}, "geometry": {"type": "Point", "coordinates": [-90.44908, 38.59883]}},
{"type": "Feature", "id": "zI6N5VmVsohlKg_nZFsR0kvB4A8=", "properties": {"ref": "741", "@spider": "lush", "shop": "cosmetics", "addr:full": "335 The Bridge Street", "addr:city": "Hunstville", "addr:state": "AL", "addr:postcode": "35806", "addr:country": "US", "name": "Bridge Street Town Center", "phone": "256-203-5027", "brand": "Lush", "brand:wikidata": "Q1585448", "nsi_id": "lush-a08666"}, "geometry": {"type": "Point", "coordinates": [-86.673968, 34.716862]}},
{"type": "Feature", "id": "qY3SSwQLSQurtCBuDeZShpgqjHQ=", "properties": {"ref": "604", "@spider": "lush", "shop": "cosmetics", "addr:full": "1074 St. Louis Galleria", "addr:city": "St. Louis", "addr:state": "MO", "addr:postcode": "63117", "addr:country": "US", "name": "St. Louis", "phone": "314-862-2832", "brand": "Lush", "brand:wikidata": "Q1585448", "nsi_id": "lush-a08666"}, "geometry": {"type": "Point", "coordinates": [-90.348862, 38.637934]}},
{"type": "Feature", "id": "Vj0J9CK3PzFumXmo4wENN02bzAc=", "properties": {"ref": "626", "@spider": "lush", "shop": "cosmetics", "addr:full": "2126 Abbott Martin Rd", "addr:city": "Nashville", "addr:state": "TN", "addr:postcode": "37215", "addr:country": "US", "name": "The Mall at Green Hill", "phone": "615-292-9915", "brand": "Lush", "brand:wikidata": "Q1585448", "nsi_id": "lush-a08666"}, "geometry": {"type": "Point", "coordinates": [-86.81615, 36.10673]}},
{"type": "Feature", "id": "JW2jsJRR9-a0Y-uYPX2BZJu_ozA=", "properties": {"ref": "452", "@spider": "lush", "shop": "cosmetics", "addr:full": "8405 Park Meadows Center Drive", "addr:city": "Lone Tree", "addr:state": "CO", "addr:postcode": "80124", "addr:country": "US", "name": "Park Meadows", "phone": "303-799-1699", "brand": "Lush", "brand:wikidata": "Q1585448", "nsi_id": "lush-a08666"}, "geometry": {"type": "Point", "coordinates": [-104.875712, 39.561408]}},
{"type": "Feature", "id": "_-mVw11dHkbnCJrYU_RklwZ-P3g=", "properties": {"ref": "740", "@spider": "lush", "shop": "cosmetics", "addr:full": "17305 Davenport St", "addr:city": "Omaha", "addr:state": "NE", "addr:postcode": "68118", "addr:country": "US", "name": "Village Pointe", "phone": "402-550-8098", "brand": "Lush", "brand:wikidata": "Q1585448", "nsi_id": "lush-a08666"}, "geometry": {"type": "Point", "coordinates": [-96.18494, 41.26068]}},
{"type": "Feature", "id": "Io3DDO_fyeoFp3XqmowXTZR-1rk=", "properties": {"ref": "455", "@spider": "lush", "shop": "cosmetics", "addr:full": "3000 East First Ave.", "addr:city": "Denver", "addr:state": "CO", "addr:postcode": "80206", "addr:country": "US", "name": "Cherry Creek", "phone": "303-388-5691", "brand": "Lush", "brand:wikidata": "Q1585448", "nsi_id": "lush-a08666"}, "geometry": {"type": "Point", "coordinates": [-104.952908, 39.717483]}},
{"type": "Feature", "id": "2A3iVnqdMCh1Sf9WqjWZXF025fI=", "properties": {"ref": "443", "@spider": "lush", "shop": "cosmetics", "addr:full": "2905 East Skyline Drive", "addr:city": "Tucson", "addr:state": "AZ", "addr:postcode": "85718", "addr:country": "US", "name": "La Encantada", "phone": "520-529-7270", "brand": "Lush", "brand:wikidata": "Q1585448", "nsi_id": "lush-a08666"}, "geometry": {"type": "Point", "coordinates": [-110.92948, 32.32309]}},
{"type": "Feature", "id": "AxSyx6_05qNn9Y4LF8YhOWpOcxQ=", "properties": {"ref": "351", "@spider": "lush", "shop": "cosmetics", "addr:full": "1215 Pearl Street", "addr:city": "Boulder", "addr:state": "CO", "addr:postcode": "80302", "addr:country": "US", "name": "Boulder", "phone": "303-442-0439", "brand": "Lush", "brand:wikidata": "Q1585448", "nsi_id": "lush-a08666"}, "geometry": {"type": "Point", "coordinates": [-105.279676, 40.018453]}},
{"type": "Feature", "id": "y4sZKoGQ34YQNKR706_a8SRDl0g=", "properties": {"ref": "716", "@spider": "lush", "shop": "cosmetics", "addr:full": "101 Jordan Creek Parkway", "addr:city": "West Des Moines", "addr:state": "IA", "addr:postcode": "50266", "addr:country": "US", "name": "Jordan Creek", "phone": "515-225-1175", "brand": "Lush", "brand:wikidata": "Q1585448", "nsi_id": "lush-a08666"}, "geometry": {"type": "Point", "coordinates": [-93.80445, 41.56875]}},
{"type": "Feature", "id": "1OkSuf7tcqgk_JLKh_YJogspNFA=", "properties": {"ref": "705", "@spider": "lush", "shop": "cosmetics", "addr:full": "3393 Peachtree Rd NE", "addr:city": "Atlanta", "addr:state": "GA", "addr:postcode": "30326", "addr:country": "US", "name": "Lenox Square", "phone": "404-869-8459", "brand": "Lush", "brand:wikidata": "Q1585448", "nsi_id": "lush-a08666"}, "geometry": {"type": "Point", "coordinates": [-84.362142, 33.846292]}},
{"type": "Feature", "id": "NpxC3nHJ3bsKgjxPZQTgOOA7A8U=", "properties": {"ref": "669", "@spider": "lush", "shop": "cosmetics", "addr:full": "4400 Ashford Dunwoody Road", "addr:city": "Atlanta", "addr:state": "GA", "addr:postcode": "30346", "addr:country": "US", "name": "Perimeter", "phone": "770-391-3621", "brand": "Lush", "brand:wikidata": "Q1585448", "nsi_id": "lush-a08666"}, "geometry": {"type": "Point", "coordinates": [-84.335799, 33.925798]}},
{"type": "Feature", "id": "SaJ4aQN5tjwO2ZNxPImqjk-2iiE=", "properties": {"ref": "343", "@spider": "lush", "shop": "cosmetics", "addr:full": "2162 E Williams Field Rd", "addr:city": "Gilbert", "addr:state": "AZ", "addr:postcode": "85295", "addr:country": "US", "name": "SanTan Village", "phone": "602-610-7135", "brand": "Lush", "brand:wikidata": "Q1585448", "nsi_id": "lush-a08666"}, "geometry": {"type": "Point", "coordinates": [-111.742421, 33.311668]}},
{"type": "Feature", "id": "mXXEWSj9LBthEvurobEboLA5GxY=", "properties": {"ref": "675", "@spider": "lush", "shop": "cosmetics", "addr:full": "3333 Buford Dr", "addr:city": "Buford", "addr:state": "GA", "addr:postcode": "30519", "addr:country": "US", "name": "Mall of Georgia", "phone": "770-831-5889", "brand": "Lush", "brand:wikidata": "Q1585448", "nsi_id": "lush-a08666"}, "geometry": {"type": "Point", "coordinates": [-83.98795, 34.06705]}},
{"type": "Feature", "id": "h1JqmGBPP-0H3GGq1TnrwD_nfzw=", "properties": {"ref": "445", "@spider": "lush", "shop": "cosmetics", "addr:full": "3111 West Chandler Blvd", "addr:city": "Chandler", "addr:state": "AZ", "addr:postcode": "85226", "addr:country": "US", "name": "Chandler", "phone": "480-857-2344", "brand": "Lush", "brand:wikidata": "Q1585448", "nsi_id": "lush-a08666"}, "geometry": {"type": "Point", "coordinates": [-111.90261, 33.30523]}},
{"type": "Feature", "id": "m1w7W1tKq96a-jPt_D50tnzp2As=", "properties": {"ref": "446", "@spider": "lush", "shop": "cosmetics", "addr:full": "7014 E Camelback Rd", "addr:city": "Scottsdale", "addr:state": "AZ", "addr:postcode": "85251", "addr:country": "US", "name": "Scottsdale", "phone": "480-941-4789", "brand": "Lush", "brand:wikidata": "Q1585448", "nsi_id": "lush-a08666"}, "geometry": {"type": "Point", "coordinates": [-111.929514, 33.502284]}},
{"type": "Feature", "id": "MBIW4hdEdffQTKFGyhS4hk0-PSQ=", "properties": {"ref": "492", "@spider": "lush", "shop": "cosmetics", "addr:full": "7700 W Arrowhead Towne Center", "addr:city": "Glendale", "addr:state": "AZ", "addr:postcode": "85308", "addr:country": "US", "name": "Arrowhead Towne Center", "phone": "623-334-6825", "brand": "Lush", "brand:wikidata": "Q1585448", "nsi_id": "lush-a08666"}, "geometry": {"type": "Point", "coordinates": [-112.22591, 33.63965]}},
{"type": "Feature", "id": "mHj1cI9XqI-K4h8KOmR8wDBqn1w=", "properties": {"ref": "704", "@spider": "lush", "shop": "cosmetics", "addr:full": "7900 Shelbyville Rd", "addr:city": "Louisville", "addr:state": "KY", "addr:postcode": "40222", "addr:country": "US", "name": "Oxmoor", "phone": "502-423-0329", "brand": "Lush", "brand:wikidata": "Q1585448", "nsi_id": "lush-a08666"}, "geometry": {"type": "Point", "coordinates": [-85.610364, 38.246559]}},
{"type": "Feature", "id": "M7-0sgGvyo2pWIo9Y021DZm8cOM=", "properties": {"ref": "718", "@spider": "lush", "shop": "cosmetics", "addr:full": "4100 Nicholasville Road", "addr:city": "Lexington", "addr:state": "KY", "addr:postcode": "40503", "addr:country": "US", "name": "Summit at Fritz Farm", "phone": "859-286-9720", "brand": "Lush", "brand:wikidata": "Q1585448", "nsi_id": "lush-a08666"}, "geometry": {"type": "Point", "coordinates": [-84.52652, 37.976984]}},
{"type": "Feature", "id": "Fen-U0h8rmZNOfSBuHvDOOED2N0=", "properties": {"ref": "665", "@spider": "lush", "shop": "cosmetics", "addr:full": "2223 N Westshore Blvd", "addr:city": "Tampa", "addr:state": "FL", "addr:postcode": "33607", "addr:country": "US", "name": "Tampa - International", "phone": "813-804-4265", "brand": "Lush", "brand:wikidata": "Q1585448", "nsi_id": "lush-a08666"}, "geometry": {"type": "Point", "coordinates": [-82.513172, 27.961286]}},
{"type": "Feature", "id": "61ZT17e8FK7mpAwtD3CaFaoXbsk=", "properties": {"ref": "764", "@spider": "lush", "shop": "cosmetics", "addr:full": "8702 Keystone Crossing Blvd", "addr:city": "Indianapolis", "addr:state": "IN", "addr:postcode": "46240", "addr:country": "US", "name": "The Fashion Mall at Keystone", "phone": "317-818-0916", "brand": "Lush", "brand:wikidata": "Q1585448", "nsi_id": "lush-a08666"}, "geometry": {"type": "Point", "coordinates": [-86.10706, 39.91649]}},
{"type": "Feature", "id": "IQGZXSWce1hmHQP4AXOC1X_TFJk=", "properties": {"ref": "790", "@spider": "lush", "shop": "cosmetics", "addr:full": "140 University Town Center Drive", "addr:city": "Sarasota", "addr:state": "FL", "addr:postcode": "34243", "addr:country": "US", "name": "UTC Sarasota", "phone": "941-893-1075", "brand": "Lush", "brand:wikidata": "Q1585448", "nsi_id": "lush-a08666"}, "geometry": {"type": "Point", "coordinates": [-82.45309, 27.38456]}},
{"type": "Feature", "id": "ch7q3zFah2dO32BMHlQCh9pXA3E=", "properties": {"ref": "674", "@spider": "lush", "shop": "cosmetics", "addr:full": "459 Brandon Town Center", "addr:city": "Brandon", "addr:state": "FL", "addr:postcode": "33511", "addr:country": "US", "name": "Brandon", "phone": "813-661-8101", "brand": "Lush", "brand:wikidata": "Q1585448", "nsi_id": "lush-a08666"}, "geometry": {"type": "Point", "coordinates": [-82.290915, 27.90826]}},
{"type": "Feature", "id": "FJ-us5EzTBQ4-JfKeXwaAL9Nvr0=", "properties": {"ref": "722", "@spider": "lush", "shop": "cosmetics", "addr:full": "700 Haywood Rd", "addr:city": "Greenville", "addr:state": "SC", "addr:postcode": "29607", "addr:country": "US", "name": "Haywood Mall", "phone": "864-900-6128", "brand": "Lush", "brand:wikidata": "Q1585448", "nsi_id": "lush-a08666"}, "geometry": {"type": "Point", "coordinates": [-82.332008, 34.850035]}},
{"type": "Feature", "id": "82VuIF8XhFMY2fmn-n_-iR45TwQ=", "properties": {"ref": "728", "@spider": "lush", "shop": "cosmetics", "addr:full": "119 Main Street", "addr:city": "Naperville", "addr:state": "IL", "addr:postcode": "60540", "addr:country": "US", "name": "Naperville", "phone": "630-637-9016", "brand": "Lush", "brand:wikidata": "Q1585448", "nsi_id": "lush-a08666"}, "geometry": {"type": "Point", "coordinates": [-88.149719, 41.773761]}},
{"type": "Feature", "id": "8_RoYX6Ga0aTh8OI2CB8t6XYTlE=", "properties": {"ref": "724", "@spider": "lush", "shop": "cosmetics", "addr:full": "124 Orland Square Dr", "addr:city": "Orland Park", "addr:state": "IL", "addr:postcode": "60462", "addr:country": "US", "name": "Orland Square", "phone": "708-873-1083", "brand": "Lush", "brand:wikidata": "Q1585448", "nsi_id": "lush-a08666"}, "geometry": {"type": "Point", "coordinates": [-87.84731, 41.62035]}},
{"type": "Feature", "id": "Tf-Bz5N3bY8FtUKvlXcu5Hjyj40=", "properties": {"ref": "788", "@spider": "lush", "shop": "cosmetics", "addr:full": "10300 Southside Blvd", "addr:city": "Jacksonville", "addr:state": "FL", "addr:postcode": "32256", "addr:country": "US", "name": "The Avenues", "phone": "904-519-7934", "brand": "Lush", "brand:wikidata": "Q1585448", "nsi_id": "lush-a08666"}, "geometry": {"type": "Point", "coordinates": [-81.55353, 30.1827]}},
{"type": "Feature", "id": "_ceueG3dDLYViq1U1DoskeWkWL0=", "properties": {"ref": "787", "@spider": "lush", "shop": "cosmetics", "addr:full": "4791 River City Drive", "addr:city": "Jacksonville", "addr:state": "FL", "addr:postcode": "32246", "addr:country": "US", "name": "St. Johns Town Center", "phone": "904-642-3071", "brand": "Lush", "brand:wikidata": "Q1585448", "nsi_id": "lush-a08666"}, "geometry": {"type": "Point", "coordinates": [-81.52532, 30.2542]}},
{"type": "Feature", "id": "RtT0U5lNTuW2dYRI2wIP3E6wsHg=", "properties": {"ref": "726", "@spider": "lush", "shop": "cosmetics", "addr:full": "51 Oakbrook Center Drive", "addr:city": "Oak Brook", "addr:state": "IL", "addr:postcode": "60523", "addr:country": "US", "name": "Oakbrook Center", "phone": "630-928-0389", "brand": "Lush", "brand:wikidata": "Q1585448", "nsi_id": "lush-a08666"}, "geometry": {"type": "Point", "coordinates": [-87.954491, 41.848138]}},
{"type": "Feature", "id": "MtHnvZ3RwndrhgiRDvjlSVt2v7o=", "properties": {"ref": "638", "@spider": "lush", "shop": "cosmetics", "addr:full": "5 Woodfield Mall", "addr:city": "Schaumburg", "addr:state": "IL", "addr:postcode": "60173-5012", "addr:country": "US", "name": "Woodfield", "phone": "847-413-1459", "brand": "Lush", "brand:wikidata": "Q1585448", "nsi_id": "lush-a08666"}, "geometry": {"type": "Point", "coordinates": [-88.046089, 42.046764]}},
{"type": "Feature", "id": "jN77dpoS4m3vVmttFZGzImDpiSo=", "properties": {"ref": "737", "@spider": "lush", "shop": "cosmetics", "addr:full": "7875 Montgomery Rd", "addr:city": "Cincinnati", "addr:state": "OH", "addr:postcode": "45236", "addr:country": "US", "name": "Kenwood", "phone": "513-791-0046", "brand": "Lush", "brand:wikidata": "Q1585448", "nsi_id": "lush-a08666"}, "geometry": {"type": "Point", "coordinates": [-84.37702, 39.2025]}},
{"type": "Feature", "id": "lB7CSuZBC5f8ORpvWDkARFbLXFY=", "properties": {"ref": "655", "@spider": "lush", "shop": "cosmetics", "addr:full": "1727 North Damen Ave", "addr:city": "Chicago", "addr:state": "IL", "addr:postcode": "60647", "addr:country": "US", "name": "Bucktown", "phone": "773-227-3946", "brand": "Lush", "brand:wikidata": "Q1585448", "nsi_id": "lush-a08666"}, "geometry": {"type": "Point", "coordinates": [-87.677412, 41.913138]}},
{"type": "Feature", "id": "t5hlMlT8R7RN5VoEHuW8cD_cps0=", "properties": {"ref": "743", "@spider": "lush", "shop": "cosmetics", "addr:full": "746 N. Michigan Ave ", "addr:city": "Chicago", "addr:state": "IL", "addr:postcode": "60611", "addr:country": "US", "name": "Michigan Avenue", "phone": "312-951-0246", "brand": "Lush", "brand:wikidata": "Q1585448", "nsi_id": "lush-a08666"}, "geometry": {"type": "Point", "coordinates": [-87.624363, 41.896354]}},
{"type": "Feature", "id": "ax6uVahOpIwxduhrYTcKI0rBNxk=", "properties": {"ref": "641", "@spider": "lush", "shop": "cosmetics", "addr:full": "859 West Armitage Avenue", "addr:city": "Chicago", "addr:state": "IL", "addr:postcode": "60614", "addr:country": "US", "name": "Armitage", "phone": "773-281-5874", "brand": "Lush", "brand:wikidata": "Q1585448", "nsi_id": "lush-a08666"}, "geometry": {"type": "Point", "coordinates": [-87.650731, 41.917912]}},
{"type": "Feature", "id": "MJ1cISs5AqiVuNMtTK5CZF8f9Fc=", "properties": {"ref": "727", "@spider": "lush", "shop": "cosmetics", "addr:full": "3430 North Southport", "addr:city": "Chicago", "addr:state": "IL", "addr:postcode": "60657", "addr:country": "US", "name": "Southport", "phone": "773-525-7945", "brand": "Lush", "brand:wikidata": "Q1585448", "nsi_id": "lush-a08666"}, "geometry": {"type": "Point", "coordinates": [-87.6642, 41.94436]}},
{"type": "Feature", "id": "szEr4NELAlv7kkA37urxpzTxzps=", "properties": {"ref": "714", "@spider": "lush", "shop": "cosmetics", "addr:full": "7525 Bales Street", "addr:city": "Liberty Township", "addr:state": "OH", "addr:postcode": "45069", "addr:country": "US", "name": "Liberty Center", "phone": "513-755-3256", "brand": "Lush", "brand:wikidata": "Q1585448", "nsi_id": "lush-a08666"}, "geometry": {"type": "Point", "coordinates": [-84.374795, 39.372195]}},
{"type": "Feature", "id": "mAZu4Q-iQbhKI7ngWlUrECM8ULU=", "properties": {"ref": "681", "@spider": "lush", "shop": "cosmetics", "addr:full": "4999 Old Orchard Center", "addr:city": "Skokie", "addr:state": "IL", "addr:postcode": "60077", "addr:country": "US", "name": "Old Orchard", "phone": "847-673-4691", "brand": "Lush", "brand:wikidata": "Q1585448", "nsi_id": "lush-a08666"}, "geometry": {"type": "Point", "coordinates": [-87.749061, 42.060762]}},
{"type": "Feature", "id": "tqcXgpyWxzlVSI7Xk1GgIPL4K2g=", "properties": {"ref": "786", "@spider": "lush", "shop": "cosmetics", "addr:full": "4200 Conroy Rd", "addr:city": "Orlando", "addr:state": "FL", "addr:postcode": "32829", "addr:country": "US", "name": "Mall at Millenia", "phone": "407-351-5559", "brand": "Lush", "brand:wikidata": "Q1585448", "nsi_id": "lush-a08666"}, "geometry": {"type": "Point", "coordinates": [-81.431518, 28.485834]}},
{"type": "Feature", "id": "6ElMXOkt7qjDgnPdOKYMTwUIGQ8=", "properties": {"ref": "663", "@spider": "lush", "shop": "cosmetics", "addr:full": "8001 South Orange Blossom Trail", "addr:city": "Orlando", "addr:state": "FL", "addr:postcode": "32809", "addr:country": "US", "name": "Florida Mall", "phone": "407-850-9704", "brand": "Lush", "brand:wikidata": "Q1585448", "nsi_id": "lush-a08666"}, "geometry": {"type": "Point", "coordinates": [-81.400923, 28.449566]}},
{"type": "Feature", "id": "6iag8ELNaBz1itsp07VYvozZp5c=", "properties": {"ref": "710", "@spider": "lush", "shop": "cosmetics", "addr:full": "702 N Midvale Blvd.", "addr:city": "Madison", "addr:state": "WI", "addr:postcode": "53705", "addr:country": "US", "name": "Hilldale Shopping Center", "phone": "608-231-2564", "brand": "Lush", "brand:wikidata": "Q1585448", "nsi_id": "lush-a08666"}, "geometry": {"type": "Point", "coordinates": [-89.45303, 43.07335]}},
{"type": "Feature", "id": "zDaIUxUpYWyF2Xs7fhKqu_5J05I=", "properties": {"ref": "623", "@spider": "lush", "shop": "cosmetics", "addr:full": "2500 N. Mayfair Road", "addr:city": "Wauwatosa", "addr:state": "WI", "addr:postcode": "53226", "addr:country": "US", "name": "Mayfair Mall", "phone": "414-257-1838", "brand": "Lush", "brand:wikidata": "Q1585448", "nsi_id": "lush-a08666"}, "geometry": {"type": "Point", "coordinates": [-88.04437, 43.06395]}},
{"type": "Feature", "id": "7Umb2Qzol7ZpdHWhjGrsVEIYEQ8=", "properties": {"ref": "608", "@spider": "lush", "shop": "cosmetics", "addr:full": "186 North Garden", "addr:city": "Bloomington", "addr:state": "MN", "addr:postcode": "55425", "addr:country": "US", "name": "Mall of America", "phone": "952-854-9631", "brand": "Lush", "brand:wikidata": "Q1585448", "nsi_id": "lush-a08666"}, "geometry": {"type": "Point", "coordinates": [-93.333855, 44.872141]}},
{"type": "Feature", "id": "B44r5Ta0EWz0HMwOBOs5eNZaawA=", "properties": {"ref": "694", "@spider": "lush", "shop": "cosmetics", "addr:full": "4400 Sharon Rd", "addr:city": "Charlotte", "addr:state": "NC", "addr:postcode": "28211", "addr:country": "US", "name": "South Park Mall", "phone": "704-366-5368", "brand": "Lush", "brand:wikidata": "Q1585448", "nsi_id": "lush-a08666"}, "geometry": {"type": "Point", "coordinates": [-80.83176, 35.15394]}},
{"type": "Feature", "id": "D5EriEJ_9lWKCRLPrEIHiz7EO1I=", "properties": {"ref": "707", "@spider": "lush", "shop": "cosmetics", "addr:full": "3915 W 50th Street", "addr:city": "Edina", "addr:state": "MN", "addr:postcode": "55424", "addr:country": "US", "name": "50th and France", "phone": "952-922-8063", "brand": "Lush", "brand:wikidata": "Q1585448", "nsi_id": "lush-a08666"}, "geometry": {"type": "Point", "coordinates": [-93.32982, 44.91246]}},
{"type": "Feature", "id": "yxldW9N0sKv4_GWd2bwN3ENp42Y=", "properties": {"ref": "706", "@spider": "lush", "shop": "cosmetics", "addr:full": "12401 Wayzata Blvd ", "addr:city": "Minnetonka", "addr:state": "MN", "addr:postcode": "55305", "addr:country": "US", "name": "Ridgedale Center", "phone": "952-544-0699", "brand": "Lush", "brand:wikidata": "Q1585448", "nsi_id": "lush-a08666"}, "geometry": {"type": "Point", "coordinates": [-93.43935, 44.96753]}},
{"type": "Feature", "id": "wDkJqusiBrZFJadT9xjLG0Q7LjI=", "properties": {"ref": "708", "@spider": "lush", "shop": "cosmetics", "addr:full": "1595 Highway 36 W", "addr:city": "Roseville", "addr:state": "MN", "addr:postcode": "55113", "addr:country": "US", "name": "Rosedale Shopping Center", "phone": "651-633-9249", "brand": "Lush", "brand:wikidata": "Q1585448", "nsi_id": "lush-a08666"}, "geometry": {"type": "Point", "coordinates": [-93.17264, 45.01292]}},
{"type": "Feature", "id": "BszrNidCOO0KoIpZ9n4HaJyBilI=", "properties": {"ref": "442", "@spider": "lush", "shop": "cosmetics", "addr:full": "6191 South State Street", "addr:city": "Murray", "addr:state": "UT", "addr:postcode": "84107", "addr:country": "US", "name": "Fashion Place", "phone": "801-262-5042", "brand": "Lush", "brand:wikidata": "Q1585448", "nsi_id": "lush-a08666"}, "geometry": {"type": "Point", "coordinates": [-111.884251, 40.635922]}},
{"type": "Feature", "id": "rRbKCr_13-ZGACPwXhqE3MOu_Yg=", "properties": {"ref": "721", "@spider": "lush", "shop": "cosmetics", "addr:full": "1340 Theatre Drive", "addr:city": "Mount Pleasant", "addr:state": "SC", "addr:postcode": "29464", "addr:country": "US", "name": "Mount Pleasant Towne Centre", "phone": "843-881-6409", "brand": "Lush", "brand:wikidata": "Q1585448", "nsi_id": "lush-a08666"}, "geometry": {"type": "Point", "coordinates": [-79.8302, 32.829]}},
{"type": "Feature", "id": "-qyieCqC5YBemkNMeJZG09JhDLg=", "properties": {"ref": "441", "@spider": "lush", "shop": "cosmetics", "addr:full": "51 South Main St", "addr:city": "Salt Lake City", "addr:state": "UT", "addr:postcode": "84111", "addr:country": "US", "name": "City Creek", "phone": "801-521-4651", "brand": "Lush", "brand:wikidata": "Q1585448", "nsi_id": "lush-a08666"}, "geometry": {"type": "Point", "coordinates": [-111.888145, 40.765744]}},
{"type": "Feature", "id": "UshdS-PnvNIsl_1MXSUyvVnyPWQ=", "properties": {"ref": "617", "@spider": "lush", "shop": "cosmetics", "addr:full": "3988 Easton Station", "addr:city": "Columbus", "addr:state": "OH", "addr:postcode": "43219", "addr:country": "US", "name": "Easton Town Center", "phone": "614-337-2466", "brand": "Lush", "brand:wikidata": "Q1585448", "nsi_id": "lush-a08666"}, "geometry": {"type": "Point", "coordinates": [-82.91539, 40.04338]}},
{"type": "Feature", "id": "IcNU3UBvvZlI4aiHZ4xPRBDVaMU=", "properties": {"ref": "713", "@spider": "lush", "shop": "cosmetics", "addr:full": "1500 Polaris Parkway", "addr:city": "Columbus", "addr:state": "OH", "addr:postcode": "43240", "addr:country": "US", "name": "Polaris Fashion Place", "phone": "614-846-6353", "brand": "Lush", "brand:wikidata": "Q1585448", "nsi_id": "lush-a08666"}, "geometry": {"type": "Point", "coordinates": [-82.98234, 40.14409]}},
{"type": "Feature", "id": "cxzvQRp_qGxAB2l5_x-tPiIWQvY=", "properties": {"ref": "499", "@spider": "lush", "shop": "cosmetics", "addr:full": "2260 Village Walk Drive", "addr:city": "Henderson", "addr:state": "NV", "addr:postcode": "89052", "addr:country": "US", "name": "The District at Green Valley Ranch", "phone": "702-564-1205", "brand": "Lush", "brand:wikidata": "Q1585448", "nsi_id": "lush-a08666"}, "geometry": {"type": "Point", "coordinates": [-115.086378, 36.021865]}},
{"type": "Feature", "id": "wMV7l6SuMBQ_ODJzW6gP9moAxsA=", "properties": {"ref": "448", "@spider": "lush", "shop": "cosmetics", "addr:full": "3930 South Las Vegas Blvd", "addr:city": "Las Vegas", "addr:state": "NV", "addr:postcode": "89119", "addr:country": "US", "name": "Mandalay Bay", "phone": "702-227-5874", "brand": "Lush", "brand:wikidata": "Q1585448", "nsi_id": "lush-a08666"}, "geometry": {"type": "Point", "coordinates": [-115.176269, 36.093642]}},
{"type": "Feature", "id": "buy_JdNf6n9itifknOKpnJ8IsGk=", "properties": {"ref": "476", "@spider": "lush", "shop": "cosmetics", "addr:full": "3663 S Las Vegas Blvd", "addr:city": "Las Vegas", "addr:state": "NV", "addr:postcode": "89109", "addr:country": "US", "name": "Miracle Mile", "phone": "702-734-0310", "brand": "Lush", "brand:wikidata": "Q1585448", "nsi_id": "lush-a08666"}, "geometry": {"type": "Point", "coordinates": [-115.17219, 36.11077]}},
{"type": "Feature", "id": "VypDM7sB6LLTFobSNN42zca4nyQ=", "properties": {"ref": "449", "@spider": "lush", "shop": "cosmetics", "addr:full": "3200 S. Las Vegas Blvd", "addr:city": "Las Vegas", "addr:state": "NV", "addr:postcode": "89109", "addr:country": "US", "name": "Fashion Show Mall", "phone": "702-734-0028", "brand": "Lush", "brand:wikidata": "Q1585448", "nsi_id": "lush-a08666"}, "geometry": {"type": "Point", "coordinates": [-115.16803, 36.12761]}},
{"type": "Feature", "id": "S2AzOB9sGTbGol3EuPumJ_f6GTI=", "properties": {"ref": "487", "@spider": "lush", "shop": "cosmetics", "addr:full": "3500 S Las Vegas Blvd S06", "addr:city": "Las Vegas", "addr:state": "NV", "addr:postcode": "89109", "addr:country": "US", "name": "Forum Shops at Caesars", "phone": "702-734-0113", "brand": "Lush", "brand:wikidata": "Q1585448", "nsi_id": "lush-a08666"}, "geometry": {"type": "Point", "coordinates": [-115.17595, 36.11889]}},
{"type": "Feature", "id": "yeg94gJ5bZYSCNpk8y6p_ZCgNu0=", "properties": {"ref": "474", "@spider": "lush", "shop": "cosmetics", "addr:full": "180 N West Promontory", "addr:city": "Farmington", "addr:state": "UT", "addr:postcode": "84025", "addr:country": "US", "name": "Station Park", "phone": "801-451-5452", "brand": "Lush", "brand:wikidata": "Q1585448", "nsi_id": "lush-a08666"}, "geometry": {"type": "Point", "coordinates": [-111.9075, 40.9833]}},
{"type": "Feature", "id": "gz4UtUXdjGKWMvv3rW0AVwL0OJo=", "properties": {"ref": "486", "@spider": "lush", "shop": "cosmetics", "addr:full": "2120 Festival Plaza Drive", "addr:city": "Las Vegas", "addr:state": "NV", "addr:postcode": "89135", "addr:country": "US", "name": "Downtown Summerlin", "phone": "702-869-1118", "brand": "Lush", "brand:wikidata": "Q1585448", "nsi_id": "lush-a08666"}, "geometry": {"type": "Point", "coordinates": [-115.33342, 36.1486]}},
{"type": "Feature", "id": "cu7EfMIh8mB3JP1r0PRUxggBt0w=", "properties": {"ref": "717", "@spider": "lush", "shop": "cosmetics", "addr:full": "4301 West Wisconsin Ave", "addr:city": "Appleton", "addr:state": "WI", "addr:postcode": "54913", "addr:country": "US", "name": "Fox River Mall", "phone": "920-221-7860", "brand": "Lush", "brand:wikidata": "Q1585448", "nsi_id": "lush-a08666"}, "geometry": {"type": "Point", "coordinates": [-88.469832, 44.269319]}},
{"type": "Feature", "id": "l84OPbTBEHR5JH3zdEHyogsshPo=", "properties": {"ref": "785", "@spider": "lush", "shop": "cosmetics", "addr:full": "10300 W. Forest Hill Blvd", "addr:city": "Wellington", "addr:state": "FL", "addr:postcode": "33414", "addr:country": "US", "name": "Wellington Green", "phone": "561-422-6131", "brand": "Lush", "brand:wikidata": "Q1585448", "nsi_id": "lush-a08666"}, "geometry": {"type": "Point", "coordinates": [-80.20835, 26.64623]}},
{"type": "Feature", "id": "MYRWdV9lJWTin_yrs2_pZTGCxAY=", "properties": {"ref": "783", "@spider": "lush", "shop": "cosmetics", "addr:full": "3101 PGA Boulevard", "addr:city": "Palm Beach Gardens", "addr:state": "FL", "addr:postcode": "33410", "addr:country": "US", "name": "Gardens of Palm Beach", "phone": "561-627-4348", "brand": "Lush", "brand:wikidata": "Q1585448", "nsi_id": "lush-a08666"}, "geometry": {"type": "Point", "coordinates": [-80.08531, 26.84688]}},
{"type": "Feature", "id": "5AbO7fZ0Im6dcJ3HHH9aKTB-UDo=", "properties": {"ref": "744", "@spider": "lush", "shop": "cosmetics", "addr:full": "3195 28th St. SE", "addr:city": "Grand Rapids", "addr:state": "MI", "addr:postcode": "49512", "addr:country": "US", "name": "Woodland Mall", "phone": "616-974-0455", "brand": "Lush", "brand:wikidata": "Q1585448", "nsi_id": "lush-a08666"}, "geometry": {"type": "Point", "coordinates": [-85.587902, 42.91628]}},
{"type": "Feature", "id": "XOHNkmPt7MZ4Sndn-BW-sq8sqCE=", "properties": {"ref": "682", "@spider": "lush", "shop": "cosmetics", "addr:full": "6000 Glades Road", "addr:city": "Boca Raton", "addr:state": "FL", "addr:postcode": "33431", "addr:country": "US", "name": "Town Center at Boca Raton", "phone": "561-620-2842", "brand": "Lush", "brand:wikidata": "Q1585448", "nsi_id": "lush-a08666"}, "geometry": {"type": "Point", "coordinates": [-80.13274, 26.3648]}},
{"type": "Feature", "id": "HdlQuLWfOG7gG3DnJPXXW16Wpzg=", "properties": {"ref": "695", "@spider": "lush", "shop": "cosmetics", "addr:full": "7535 Dadeland Mall", "addr:city": "Miami", "addr:state": "FL", "addr:postcode": "33156", "addr:country": "US", "name": "Dadeland Mall", "phone": "305-662-4194", "brand": "Lush", "brand:wikidata": "Q1585448", "nsi_id": "lush-a08666"}, "geometry": {"type": "Point", "coordinates": [-80.31288, 25.68891]}},
{"type": "Feature", "id": "m_He01PKXsa4kWzB7K4aqu2RG6g=", "properties": {"ref": "664", "@spider": "lush", "shop": "cosmetics", "addr:full": "19501 Biscayne Blvd", "addr:city": "Aventura", "addr:state": "FL", "addr:postcode": "33180", "addr:country": "US", "name": "Aventura", "phone": "305-933-1259", "brand": "Lush", "brand:wikidata": "Q1585448", "nsi_id": "lush-a08666"}, "geometry": {"type": "Point", "coordinates": [-80.148826, 25.957659]}},
{"type": "Feature", "id": "KWU_E5YtNw-kw-cEtk8mij1ek0w=", "properties": {"ref": "747", "@spider": "lush", "shop": "cosmetics", "addr:full": "662 Briarwood Circle", "addr:city": "Ann Arbor", "addr:state": "MI", "addr:postcode": "48108", "addr:country": "US", "name": "Briarwood", "phone": "734-761-6285", "brand": "Lush", "brand:wikidata": "Q1585448", "nsi_id": "lush-a08666"}, "geometry": {"type": "Point", "coordinates": [-83.73054, 42.21292]}},
{"type": "Feature", "id": "WzSKFZuASfesuudQGPgnTMdAIZU=", "properties": {"ref": "429", "@spider": "lush", "shop": "cosmetics", "addr:full": "200 East Via Rancho Parkway", "addr:city": "Escondido", "addr:state": "CA", "addr:postcode": "92025", "addr:country": "US", "name": "North County", "phone": "760-746-0293", "brand": "Lush", "brand:wikidata": "Q1585448", "nsi_id": "lush-a08666"}, "geometry": {"type": "Point", "coordinates": [-117.06489, 33.0681]}},
{"type": "Feature", "id": "lEy67NG_C89-ERmng0sHZONFYD8=", "properties": {"ref": "426", "@spider": "lush", "shop": "cosmetics", "addr:full": "7007 Friars Rd ", "addr:city": "San Diego", "addr:state": "CA", "addr:postcode": "92108", "addr:country": "US", "name": "Fashion Valley", "phone": "619-688-3040", "brand": "Lush", "brand:wikidata": "Q1585448", "nsi_id": "lush-a08666"}, "geometry": {"type": "Point", "coordinates": [-117.165648, 32.767446]}},
{"type": "Feature", "id": "5qGfp7N0TfcWr1788iXLOEBibvo=", "properties": {"ref": "434", "@spider": "lush", "shop": "cosmetics", "addr:full": "4545 La Jolla Village Drive", "addr:city": "San Diego", "addr:state": "CA", "addr:postcode": "92122", "addr:country": "US", "name": "University Town Center", "phone": "858-552-9082", "brand": "Lush", "brand:wikidata": "Q1585448", "nsi_id": "lush-a08666"}, "geometry": {"type": "Point", "coordinates": [-117.21251, 32.8698]}},
{"type": "Feature", "id": "GFyitO-XOO27IWDbrDY6CCoJEfc=", "properties": {"ref": "444", "@spider": "lush", "shop": "cosmetics", "addr:full": "40770 Winchester Rd", "addr:city": "Temecula", "addr:state": "CA", "addr:postcode": "92591", "addr:country": "US", "name": "Promenade Temecula", "phone": "951-296-5346", "brand": "Lush", "brand:wikidata": "Q1585448", "nsi_id": "lush-a08666"}, "geometry": {"type": "Point", "coordinates": [-117.154179, 33.525431]}},
{"type": "Feature", "id": "K8jb9yrUBLAnS0jdbvHvz4Kx2Os=", "properties": {"ref": "639", "@spider": "lush", "shop": "cosmetics", "addr:full": "27808 Novi Rd", "addr:city": "Novi", "addr:state": "MI", "addr:postcode": "48377", "addr:country": "US", "name": "12 Oaks", "phone": "248-349-7495", "brand": "Lush", "brand:wikidata": "Q1585448", "nsi_id": "lush-a08666"}, "geometry": {"type": "Point", "coordinates": [-83.473846, 42.492779]}},
{"type": "Feature", "id": "yeRmpRGs962uYSojnyDSZvcys4U=", "properties": {"ref": "780", "@spider": "lush", "shop": "cosmetics", "addr:full": "8030 Renaissance Pkwy", "addr:city": "Durham", "addr:state": "NC", "addr:postcode": "27713", "addr:country": "US", "name": "The Streets at Southpoint", "phone": "919-224-1253", "brand": "Lush", "brand:wikidata": "Q1585448", "nsi_id": "lush-a08666"}, "geometry": {"type": "Point", "coordinates": [-78.68747, 35.68188]}},
{"type": "Feature", "id": "NdPwjBCG0AwsH2nNmBWQVS0va-s=", "properties": {"ref": "680", "@spider": "lush", "shop": "cosmetics", "addr:full": "4325 Glenwood Ave", "addr:city": "Raleigh", "addr:state": "NC", "addr:postcode": "27612", "addr:country": "US", "name": "Crabtree", "phone": "919-787-1620", "brand": "Lush", "brand:wikidata": "Q1585448", "nsi_id": "lush-a08666"}, "geometry": {"type": "Point", "coordinates": [-78.690926, 35.847407]}},
{"type": "Feature", "id": "1GZFsZsPSCdU4EDVWtdntfOpSVI=", "properties": {"ref": "607", "@spider": "lush", "shop": "cosmetics", "addr:full": "2800 West Big Beaver Road", "addr:city": "Troy", "addr:state": "MI", "addr:postcode": "48084", "addr:country": "US", "name": "Somerset", "phone": "248-649-5340", "brand": "Lush", "brand:wikidata": "Q1585448", "nsi_id": "lush-a08666"}, "geometry": {"type": "Point", "coordinates": [-83.180978, 42.558657]}},
{"type": "Feature", "id": "Bvz_V_fGwsnZ7L7DWrxudX5szfo=", "properties": {"ref": "712", "@spider": "lush", "shop": "cosmetics", "addr:full": "239 Main Street", "addr:city": "Westlake", "addr:state": "OH", "addr:postcode": "44145", "addr:country": "US", "name": "Crocker Park", "phone": "440-250-0738", "brand": "Lush", "brand:wikidata": "Q1585448", "nsi_id": "lush-a08666"}, "geometry": {"type": "Point", "coordinates": [-81.95193, 41.45879]}},
{"type": "Feature", "id": "NKkUbeWw5PGy6Z5WoMzgHon59qk=", "properties": {"ref": "745", "@spider": "lush", "shop": "cosmetics", "addr:full": "17370 Hall Road", "addr:city": "Clinton Township", "addr:state": "MI", "addr:postcode": "48038", "addr:country": "US", "name": "Partridge Creek", "phone": "586-228-1594", "brand": "Lush", "brand:wikidata": "Q1585448", "nsi_id": "lush-a08666"}, "geometry": {"type": "Point", "coordinates": [-82.94635, 42.62606]}},
{"type": "Feature", "id": "b7x3vq4nfaovKSJLBwgYa62HONA=", "properties": {"ref": "479", "@spider": "lush", "shop": "cosmetics", "addr:full": "12517 South Main Street", "addr:city": "Rancho Cucamonga", "addr:state": "CA", "addr:postcode": "91739", "addr:country": "US", "name": "Victoria Gardens", "phone": "909-899-0594", "brand": "Lush", "brand:wikidata": "Q1585448", "nsi_id": "lush-a08666"}, "geometry": {"type": "Point", "coordinates": [-117.53242, 34.1123]}},
{"type": "Feature", "id": "XYii0s63hA_ZLx1BUPvPjppKDQM=", "properties": {"ref": "484", "@spider": "lush", "shop": "cosmetics", "addr:full": "555 The Shops at Mission Viejo", "addr:city": "Mission Viejo", "addr:state": "CA", "addr:postcode": "92691", "addr:country": "US", "name": "The Shops at Mission Viejo", "phone": "949-364-1916", "brand": "Lush", "brand:wikidata": "Q1585448", "nsi_id": "lush-a08666"}, "geometry": {"type": "Point", "coordinates": [-117.66846, 33.55886]}},
{"type": "Feature", "id": "I2Ckb0R-_KpPzKnqJMsYlW3j7Fs=", "properties": {"ref": "438", "@spider": "lush", "shop": "cosmetics", "addr:full": "Space # 818, 670 Spectrum Center Dr", "addr:city": "Irvine", "addr:state": "CA", "addr:postcode": "92618", "addr:country": "US", "name": "Irvine Spectrum", "phone": "949-932-0729", "brand": "Lush", "brand:wikidata": "Q1585448", "nsi_id": "lush-a08666"}, "geometry": {"type": "Point", "coordinates": [-117.7441, 33.6509]}},
{"type": "Feature", "id": "5v7EHq3PeX3ZX2kKTMXLVQVNang=", "properties": {"ref": "715", "@spider": "lush", "shop": "cosmetics", "addr:full": "26300 Cedar Road", "addr:city": "Beachwood", "addr:state": "OH", "addr:postcode": "44122-1108", "addr:country": "US", "name": "Beachwood", "phone": "216-292-1061", "brand": "Lush", "brand:wikidata": "Q1585448", "nsi_id": "lush-a08666"}, "geometry": {"type": "Point", "coordinates": [-81.493642, 41.501193]}},
{"type": "Feature", "id": "CxZaakIzNZeZk5mHVEH0EVhuqmA=", "properties": {"ref": "413", "@spider": "lush", "shop": "cosmetics", "addr:full": "249 Newport Center Dr", "addr:city": "Newport Beach", "addr:state": "CA", "addr:postcode": "92660", "addr:country": "US", "name": "Fashion Island", "phone": "949-759-1756", "brand": "Lush", "brand:wikidata": "Q1585448", "nsi_id": "lush-a08666"}, "geometry": {"type": "Point", "coordinates": [-117.875163, 33.61272]}},
{"type": "Feature", "id": "CzqfCLh80f-scoo3AltYW4dXGDs=", "properties": {"ref": "477", "@spider": "lush", "shop": "cosmetics", "addr:full": "2009 Brea Mall", "addr:city": "Brea", "addr:state": "CA", "addr:postcode": "92821", "addr:country": "US", "name": "Brea Mall", "phone": "714-672-1236", "brand": "Lush", "brand:wikidata": "Q1585448", "nsi_id": "lush-a08666"}, "geometry": {"type": "Point", "coordinates": [-117.88749, 33.91534]}},
{"type": "Feature", "id": "xXGf9-ZYKhGzkiteVEc_KaRSAQ8=", "properties": {"ref": "498", "@spider": "lush", "shop": "cosmetics", "addr:full": "21034 Pacific Coast Highway ", "addr:city": "Huntington Beach", "addr:state": "CA", "addr:postcode": "92648", "addr:country": "US", "name": "Pacific City", "phone": "714-848-0007", "brand": "Lush", "brand:wikidata": "Q1585448", "nsi_id": "lush-a08666"}, "geometry": {"type": "Point", "coordinates": [-117.997897, 33.655017]}},
{"type": "Feature", "id": "P2It3SFxLsfA-0HLdUmP8X_XTRM=", "properties": {"ref": "427", "@spider": "lush", "shop": "cosmetics", "addr:full": "400 S. Baldwin Avenue", "addr:city": "Arcadia", "addr:state": "CA", "addr:postcode": "91007", "addr:country": "US", "name": "Santa Anita", "phone": "626-821-0917", "brand": "Lush", "brand:wikidata": "Q1585448", "nsi_id": "lush-a08666"}, "geometry": {"type": "Point", "coordinates": [-118.05158, 34.1328]}},
{"type": "Feature", "id": "JhTzpO92BlWptL8P7toXrre5AhM=", "properties": {"ref": "321", "@spider": "lush", "shop": "cosmetics", "addr:full": "180 Los Cerritos Center", "addr:city": "Cerritos", "addr:state": "CA", "addr:postcode": "90703", "addr:country": "US", "name": "Los Cerritos Center", "phone": "562-376-3990", "brand": "Lush", "brand:wikidata": "Q1585448", "nsi_id": "lush-a08666"}, "geometry": {"type": "Point", "coordinates": [-118.093426, 33.861749]}},
{"type": "Feature", "id": "Y66jDwlzvE1LYKiovWkFM5lADzU=", "properties": {"ref": "729", "@spider": "lush", "shop": "cosmetics", "addr:full": "301 South Hills Village", "addr:city": "Pittsburgh", "addr:state": "PA", "addr:postcode": "15241", "addr:country": "US", "name": "South Hills Village", "phone": "412-833-4204", "brand": "Lush", "brand:wikidata": "Q1585448", "nsi_id": "lush-a08666"}, "geometry": {"type": "Point", "coordinates": [-80.05319, 40.3394]}},
{"type": "Feature", "id": "9ssTJoDRVQnuWshBvM_cpQCqbN8=", "properties": {"ref": "730", "@spider": "lush", "shop": "cosmetics", "addr:full": "1000 Ross Park Mall Dr", "addr:city": "Pittsburgh", "addr:state": "PA", "addr:postcode": "15237", "addr:country": "US", "name": "Ross Park", "phone": "412-366-8096", "brand": "Lush", "brand:wikidata": "Q1585448", "nsi_id": "lush-a08666"}, "geometry": {"type": "Point", "coordinates": [-80.01996, 40.55691]}},
{"type": "Feature", "id": "v2n0LZKVkCuLSm9ZtVwlreF31Wo=", "properties": {"ref": "422", "@spider": "lush", "shop": "cosmetics", "addr:full": "1117 Galleria Way", "addr:city": "Glendale", "addr:state": "CA", "addr:postcode": "91210", "addr:country": "US", "name": "Glendale", "phone": "818-637-7831", "brand": "Lush", "brand:wikidata": "Q1585448", "nsi_id": "lush-a08666"}, "geometry": {"type": "Point", "coordinates": [-118.2567, 34.1445]}},
{"type": "Feature", "id": "yD_L0HqzAUp1-yhEdaw5hB8x9gM=", "properties": {"ref": "495", "@spider": "lush", "shop": "cosmetics", "addr:full": "21540 Hawthorne Blvd", "addr:city": "Torrance", "addr:state": "CA", "addr:postcode": "90503", "addr:country": "US", "name": "Del Amo Fashion Center", "phone": "310-542-9859", "brand": "Lush", "brand:wikidata": "Q1585448", "nsi_id": "lush-a08666"}, "geometry": {"type": "Point", "coordinates": [-118.3514, 33.82581]}},
{"type": "Feature", "id": "oz7u07PrLuuoYOpb6sC5LvAz4j0=", "properties": {"ref": "322", "@spider": "lush", "shop": "cosmetics", "addr:full": "6000 Sepulveda Blvd", "addr:city": "Culver City", "addr:state": "CA", "addr:postcode": "90230", "addr:country": "US", "name": "Culver City", "phone": "310-313-2926", "brand": "Lush", "brand:wikidata": "Q1585448", "nsi_id": "lush-a08666"}, "geometry": {"type": "Point", "coordinates": [-118.393519, 33.986139]}},
{"type": "Feature", "id": "kV0Bv7rWHcnDPP14Z33xIKHYptk=", "properties": {"ref": "416", "@spider": "lush", "shop": "cosmetics", "addr:full": "10250 Santa Monica Blvd", "addr:city": "Los Angeles", "addr:state": "CA", "addr:postcode": "90067", "addr:country": "US", "name": "Century City", "phone": "310-286-0329", "brand": "Lush", "brand:wikidata": "Q1585448", "nsi_id": "lush-a08666"}, "geometry": {"type": "Point", "coordinates": [-118.419068, 34.058764]}},
{"type": "Feature", "id": "QaMr6vVz74Dq-ruARI0IESYc-4o=", "properties": {"ref": "432", "@spider": "lush", "shop": "cosmetics", "addr:full": "14006 Riverside Drive", "addr:city": "Sherman Oaks", "addr:state": "CA", "addr:postcode": "91423", "addr:country": "US", "name": "Sherman Oaks", "phone": "818-995-8661", "brand": "Lush", "brand:wikidata": "Q1585448", "nsi_id": "lush-a08666"}, "geometry": {"type": "Point", "coordinates": [-118.43678, 34.15651]}},
{"type": "Feature", "id": "1IZCzV2BX-dRtCMbPAetFYHpDzY=", "properties": {"ref": "425", "@spider": "lush", "shop": "cosmetics", "addr:full": "24201 West Valencia Blvd", "addr:city": "Valencia", "addr:state": "CA", "addr:postcode": "91355", "addr:country": "US", "name": "Valencia", "phone": "661-799-7180", "brand": "Lush", "brand:wikidata": "Q1585448", "nsi_id": "lush-a08666"}, "geometry": {"type": "Point", "coordinates": [-118.55754, 34.41318]}},
{"type": "Feature", "id": "Wotc7OaWBGAsHuLSN-1I6T2Dvdg=", "properties": {"ref": "414", "@spider": "lush", "shop": "cosmetics", "addr:full": "6600 Topanga Canyon Blvd", "addr:city": "Canoga Park", "addr:state": "CA", "addr:postcode": "91303", "addr:country": "US", "name": "Topanga", "phone": "818-703-7562", "brand": "Lush", "brand:wikidata": "Q1585448", "nsi_id": "lush-a08666"}, "geometry": {"type": "Point", "coordinates": [-118.604941, 34.190465]}},
{"type": "Feature", "id": "fLaWB0Dt0w5WHacDqtC5nMiqFOc=", "properties": {"ref": "771", "@spider": "lush", "shop": "cosmetics", "addr:full": "11800 W Broad St", "addr:city": "Richmond", "addr:state": "VA", "addr:postcode": "23233", "addr:country": "US", "name": "Short Pump", "phone": "804-360-1326", "brand": "Lush", "brand:wikidata": "Q1585448", "nsi_id": "lush-a08666"}, "geometry": {"type": "Point", "coordinates": [-77.61917, 37.65623]}},
{"type": "Feature", "id": "56IotDxLZdCzOI-WSKqpDxxWb5M=", "properties": {"ref": "430", "@spider": "lush", "shop": "cosmetics", "addr:full": "412 West Hillcrest Drive", "addr:city": "Thousand Oaks", "addr:state": "CA", "addr:postcode": "91360", "addr:country": "US", "name": "The Oaks", "phone": "805-379-4048", "brand": "Lush", "brand:wikidata": "Q1585448", "nsi_id": "lush-a08666"}, "geometry": {"type": "Point", "coordinates": [-118.88633, 34.18602]}},
{"type": "Feature", "id": "IMTBJjcvpv-Sr2STt2L5QZgV-OI=", "properties": {"ref": "310", "@spider": "lush", "shop": "cosmetics", "addr:full": "2701 Ming Ave.", "addr:city": "Bakersfield", "addr:state": "CA", "addr:postcode": "93304", "addr:country": "US", "name": "Valley Plaza", "brand": "Lush", "brand:wikidata": "Q1585448", "nsi_id": "lush-a08666"}, "geometry": {"type": "Point", "coordinates": [-119.0236, 35.3396]}},
{"type": "Feature", "id": "8HgQYvCKLQ6i6KjtG4Bg_g6O9IU=", "properties": {"ref": "601", "@spider": "lush", "shop": "cosmetics", "addr:full": "1961 Chain Bridge Road", "addr:city": "Mclean", "addr:state": "VA", "addr:postcode": "22102", "addr:country": "US", "name": "Tysons", "phone": "703-442-0598", "brand": "Lush", "brand:wikidata": "Q1585448", "nsi_id": "lush-a08666"}, "geometry": {"type": "Point", "coordinates": [-77.22578, 38.919328]}},
{"type": "Feature", "id": "-aOA9-wQrQ7cwh6ULSgDPXaso64=", "properties": {"ref": "424", "@spider": "lush", "shop": "cosmetics", "addr:full": "613 Paseo Nuevo", "addr:city": "Santa Barbara", "addr:state": "CA", "addr:postcode": "93101", "addr:country": "US", "name": "Paseo Nuevo", "brand": "Lush", "brand:wikidata": "Q1585448", "nsi_id": "lush-a08666"}, "geometry": {"type": "Point", "coordinates": [-119.69819, 34.42083]}},
{"type": "Feature", "id": "lnOTTpQOorCDZN2z8SbLErlGUNs=", "properties": {"ref": "770", "@spider": "lush", "shop": "cosmetics", "addr:full": "300 Monticello Avenue", "addr:city": "Norfolk", "addr:state": "VA", "addr:postcode": "23510", "addr:country": "US", "name": "MacArthur Center", "phone": "757-622-1485", "brand": "Lush", "brand:wikidata": "Q1585448", "nsi_id": "lush-a08666"}, "geometry": {"type": "Point", "coordinates": [-76.28946, 36.84954]}},
{"type": "Feature", "id": "cyWOzHlJDS-blmbbzwKgxdO-msI=", "properties": {"ref": "672", "@spider": "lush", "shop": "cosmetics", "addr:full": "7101 Democracy Boulevard", "addr:city": "Bethesda", "addr:state": "MD", "addr:postcode": "20817", "addr:country": "US", "name": "Montgomery", "phone": "301-365-7444", "brand": "Lush", "brand:wikidata": "Q1585448", "nsi_id": "lush-a08666"}, "geometry": {"type": "Point", "coordinates": [-77.148461, 39.022386]}},
{"type": "Feature", "id": "0uBFrMciQJxsh3S1Gdb1X2h3Mwg=", "properties": {"ref": "627", "@spider": "lush", "shop": "cosmetics", "addr:full": "1100 South Hayes St", "addr:city": "Arlington", "addr:state": "VA", "addr:postcode": "22202", "addr:country": "US", "name": "Fashion Centre at Pentagon City", "phone": "703-415-9869", "brand": "Lush", "brand:wikidata": "Q1585448", "nsi_id": "lush-a08666"}, "geometry": {"type": "Point", "coordinates": [-77.059767, 38.864828]}},
{"type": "Feature", "id": "5QmuZU7eUEhUwIwYdR7_JBLUxYg=", "properties": {"ref": "631", "@spider": "lush", "shop": "cosmetics", "addr:full": "3066 M Street N.W.", "addr:city": "Washington", "addr:state": "DC", "addr:postcode": "20007", "addr:country": "US", "name": "Georgetown", "phone": "202-333-6950", "brand": "Lush", "brand:wikidata": "Q1585448", "nsi_id": "lush-a08666"}, "geometry": {"type": "Point", "coordinates": [-77.060842, 38.905069]}},
{"type": "Feature", "id": "PL_Wd_gtaE3k4C4Qu9sCC1cOc-o=", "properties": {"ref": "630", "@spider": "lush", "shop": "cosmetics", "addr:full": "10300 Little Patuxent Parkway", "addr:city": "Columbia", "addr:state": "MD", "addr:postcode": "21044", "addr:country": "US", "name": "Columbia", "phone": "410-730-1364", "brand": "Lush", "brand:wikidata": "Q1585448", "nsi_id": "lush-a08666"}, "geometry": {"type": "Point", "coordinates": [-76.873082, 39.214511]}},
{"type": "Feature", "id": "Wf3tcX6BX9fZdO_QPsPcC_N8HCs=", "properties": {"ref": "437", "@spider": "lush", "shop": "cosmetics", "addr:full": "645 E Shaw Ave", "addr:city": "Fresno", "addr:state": "CA", "addr:postcode": "93710", "addr:country": "US", "name": "Fresno Fashion Fair", "phone": "559-230-1693", "brand": "Lush", "brand:wikidata": "Q1585448", "nsi_id": "lush-a08666"}, "geometry": {"type": "Point", "coordinates": [-119.77601, 36.80659]}},
{"type": "Feature", "id": "7UfnyYlYh_BvLEkIlaGAYE-MQv4=", "properties": {"ref": "628", "@spider": "lush", "shop": "cosmetics", "addr:full": "2002 Annapolis Mall", "addr:city": "Annapolis", "addr:state": "MD", "addr:postcode": "21401", "addr:country": "US", "name": "Annapolis", "phone": "410-897-5967", "brand": "Lush", "brand:wikidata": "Q1585448", "nsi_id": "lush-a08666"}, "geometry": {"type": "Point", "coordinates": [-76.560383, 38.985112]}},
{"type": "Feature", "id": "S01zEtR-_plPmbiJA7nrj6_NLZo=", "properties": {"ref": "779", "@spider": "lush", "shop": "cosmetics", "addr:full": "1001 Aliceanna Street", "addr:city": "Baltimore", "addr:state": "MD", "addr:postcode": "21202", "addr:country": "US", "name": "Harbor East", "phone": "410-528-7260", "brand": "Lush", "brand:wikidata": "Q1585448", "nsi_id": "lush-a08666"}, "geometry": {"type": "Point", "coordinates": [-76.60002, 39.28309]}},
{"type": "Feature", "id": "dDnBCfsSQ7R40TsbxKtdWUn0e7E=", "properties": {"ref": "629", "@spider": "lush", "shop": "cosmetics", "addr:full": "825 Dulaney Valley Road", "addr:city": "Towson", "addr:state": "MD", "addr:postcode": "21204", "addr:country": "US", "name": "Towson", "phone": "410-828-1313", "brand": "Lush", "brand:wikidata": "Q1585448", "nsi_id": "lush-a08666"}, "geometry": {"type": "Point", "coordinates": [-76.629719, 39.401803]}},
{"type": "Feature", "id": "0eUcPLxYFVJ3yJVp4SkfSnAu9XE=", "properties": {"ref": "689", "@spider": "lush", "shop": "cosmetics", "addr:full": "104 Walden Galleria", "addr:city": "Cheektowaga", "addr:state": "NY", "addr:postcode": "14225", "addr:country": "US", "name": "Walden Galleria", "phone": "716-683-0391", "brand": "Lush", "brand:wikidata": "Q1585448", "nsi_id": "lush-a08666"}, "geometry": {"type": "Point", "coordinates": [-78.878369, 42.886447]}},
{"type": "Feature", "id": "UG8iQ1quhgNuu4a9CljD-W11O5I=", "properties": {"ref": "485", "@spider": "lush", "shop": "cosmetics", "addr:full": "1070 Court Street", "addr:city": "San Luis Obispo", "addr:state": "CA", "addr:postcode": "93401", "addr:country": "US", "name": "San Luis Obispo", "phone": "805-543-2723", "brand": "Lush", "brand:wikidata": "Q1585448", "nsi_id": "lush-a08666"}, "geometry": {"type": "Point", "coordinates": [-120.66155, 35.28115]}},
{"type": "Feature", "id": "bCscV1JdCGy2LpePzDFvczvj2bw=", "properties": {"ref": "490", "@spider": "lush", "shop": "cosmetics", "addr:full": "3597 E. Monarch Sky Lane", "addr:city": "Meridian", "addr:state": "ID", "addr:postcode": "83646", "addr:country": "US", "name": "Meridian Village", "phone": "208-855-4815", "brand": "Lush", "brand:wikidata": "Q1585448", "nsi_id": "lush-a08666"}, "geometry": {"type": "Point", "coordinates": [-116.34924, 43.62105]}},
{"type": "Feature", "id": "SqoMETl57rK8zYhmZH2S7YV5WT8=", "properties": {"ref": "731", "@spider": "lush", "shop": "cosmetics", "addr:full": "142 Park City Center", "addr:city": "Lancaster", "addr:state": "PA", "addr:postcode": "17601", "addr:country": "US", "name": "Park City Center", "phone": "717-293-2717", "brand": "Lush", "brand:wikidata": "Q1585448", "nsi_id": "lush-a08666"}, "geometry": {"type": "Point", "coordinates": [-76.33949, 40.06701]}},
{"type": "Feature", "id": "d_d7JKxNYg7F9QkzBkK0EmE9tTQ=", "properties": {"ref": "309", "@spider": "lush", "shop": "cosmetics", "addr:full": "13945 S. Virginia St.", "addr:city": "Reno", "addr:state": "NV", "addr:postcode": "89511", "addr:country": "US", "name": "Summit at Reno", "brand": "Lush", "brand:wikidata": "Q1585448", "nsi_id": "lush-a08666"}, "geometry": {"type": "Point", "coordinates": [-119.8071, 39.3905]}},
{"type": "Feature", "id": "6KdgvaURYiROuzUn1wzVDJBS_9k=", "properties": {"ref": "673", "@spider": "lush", "shop": "cosmetics", "addr:full": "429 Stanton Christiana Mall Road", "addr:city": "Newark", "addr:state": "DE", "addr:postcode": "19702", "addr:country": "US", "name": "Christiana", "phone": "302-738-5874", "brand": "Lush", "brand:wikidata": "Q1585448", "nsi_id": "lush-a08666"}, "geometry": {"type": "Point", "coordinates": [-75.748778, 39.620378]}},
{"type": "Feature", "id": "JGHSsxVTdnT5j-4YKB5uDb0OAlA=", "properties": {"ref": "687", "@spider": "lush", "shop": "cosmetics", "addr:full": "516 Eastview Mall", "addr:city": "Victor", "addr:state": "NY", "addr:postcode": "14564", "addr:country": "US", "name": "Eastview Mall", "phone": "585-425-0439", "brand": "Lush", "brand:wikidata": "Q1585448", "nsi_id": "lush-a08666"}, "geometry": {"type": "Point", "coordinates": [-77.446998, 43.031661]}},
{"type": "Feature", "id": "wcHhs15S060SpAg_AyJ_oabJtR4=", "properties": {"ref": "620", "@spider": "lush", "shop": "cosmetics", "addr:full": "160 North Gulph Road", "addr:city": "King Of Prussia", "addr:state": "PA", "addr:postcode": "19406", "addr:country": "US", "name": "King of Prussia", "phone": "610-337-2781", "brand": "Lush", "brand:wikidata": "Q1585448", "nsi_id": "lush-a08666"}, "geometry": {"type": "Point", "coordinates": [-75.391663, 40.085639]}},
{"type": "Feature", "id": "gSJYLj5imMNa5aeAYEXDKhMwL_s=", "properties": {"ref": "621", "@spider": "lush", "shop": "cosmetics", "addr:full": "1525 Walnut Street", "addr:city": "Philadelphia", "addr:state": "PA", "addr:postcode": "19102", "addr:country": "US", "name": "Walnut Street", "phone": "215-546-5874", "brand": "Lush", "brand:wikidata": "Q1585448", "nsi_id": "lush-a08666"}, "geometry": {"type": "Point", "coordinates": [-75.16705, 39.94986]}},
{"type": "Feature", "id": "xUJ5fuCoXAEi7AjrH1-c_Q9UBrU=", "properties": {"ref": "733", "@spider": "lush", "shop": "cosmetics", "addr:full": "250 Lehigh Valley Mall", "addr:city": "Whitehall", "addr:state": "PA", "addr:postcode": "18052", "addr:country": "US", "name": "Lehigh Valley Mall", "phone": "610-231-2028", "brand": "Lush", "brand:wikidata": "Q1585448", "nsi_id": "lush-a08666"}, "geometry": {"type": "Point", "coordinates": [-75.480144, 40.631289]}},
{"type": "Feature", "id": "wabXdeeYqoLr2OjDdkaCI0JHP_E=", "properties": {"ref": "676", "@spider": "lush", "shop": "cosmetics", "addr:full": "2000 NJ-38", "addr:city": "Cherry Hill", "addr:state": "NJ", "addr:postcode": "08002", "addr:country": "US", "name": "Cherry Hill", "phone": "856-665-5322", "brand": "Lush", "brand:wikidata": "Q1585448", "nsi_id": "lush-a08666"}, "geometry": {"type": "Point", "coordinates": [-75.025012, 39.941035]}},
{"type": "Feature", "id": "OVWA_Z9xe4k1TfD7udPX1Cgo6fI=", "properties": {"ref": "732", "@spider": "lush", "shop": "cosmetics", "addr:full": "2500 W Moreland Road", "addr:city": "Willow Grove", "addr:state": "PA", "addr:postcode": "19090", "addr:country": "US", "name": "Willow Grove Park Mall", "phone": "267-715-0218", "brand": "Lush", "brand:wikidata": "Q1585448", "nsi_id": "lush-a08666"}, "geometry": {"type": "Point", "coordinates": [-75.123615, 40.140389]}},
{"type": "Feature", "id": "7OIvgdz21_okQ8ux2rIllHBCk78=", "properties": {"ref": "320", "@spider": "lush", "shop": "cosmetics", "addr:full": "440 Del Monte Center", "addr:city": "Monterey", "addr:state": "CA", "addr:postcode": "93940", "addr:country": "US", "name": "Del Monte Shopping Center", "phone": "831-656-9579", "brand": "Lush", "brand:wikidata": "Q1585448", "nsi_id": "lush-a08666"}, "geometry": {"type": "Point", "coordinates": [-121.897434, 36.584246]}},
{"type": "Feature", "id": "sUsaVDKg38oZENKescKxfFaSF1s=", "properties": {"ref": "419", "@spider": "lush", "shop": "cosmetics", "addr:full": "Ocean Ave & Monte Verde", "addr:city": "Carmel", "addr:state": "CA", "addr:postcode": "93921", "addr:country": "US", "name": "Carmel", "phone": "831-708-6914", "brand": "Lush", "brand:wikidata": "Q1585448", "nsi_id": "lush-a08666"}, "geometry": {"type": "Point", "coordinates": [-121.923529, 36.555012]}},
{"type": "Feature", "id": "mWUEyEm_WZoN_Lmc18tVhooL3rw=", "properties": {"ref": "423", "@spider": "lush", "shop": "cosmetics", "addr:full": "1151 Galleria Blvd", "addr:city": "Roseville", "addr:state": "CA", "addr:postcode": "95678", "addr:country": "US", "name": "Roseville", "phone": "916-786-5874", "brand": "Lush", "brand:wikidata": "Q1585448", "nsi_id": "lush-a08666"}, "geometry": {"type": "Point", "coordinates": [-121.296967, 38.766741]}},
{"type": "Feature", "id": "1gMZX5pulDzKcYVw3d3elsYS8a8=", "properties": {"ref": "478", "@spider": "lush", "shop": "cosmetics", "addr:full": "1689 Arden Fair Way", "addr:city": "Sacramento", "addr:state": "CA", "addr:postcode": "95815", "addr:country": "US", "name": "Arden Fair", "phone": "916-927-2970", "brand": "Lush", "brand:wikidata": "Q1585448", "nsi_id": "lush-a08666"}, "geometry": {"type": "Point", "coordinates": [-121.43479, 38.54956]}},
{"type": "Feature", "id": "OMXJlaIa86RCnNJQ_9cb9Db-YZ4=", "properties": {"ref": "417", "@spider": "lush", "shop": "cosmetics", "addr:full": "925 Blossom Hill Rd", "addr:city": "San Jose", "addr:state": "CA", "addr:postcode": "95123", "addr:country": "US", "name": "Oakridge Mall", "phone": "408-229-2530", "brand": "Lush", "brand:wikidata": "Q1585448", "nsi_id": "lush-a08666"}, "geometry": {"type": "Point", "coordinates": [-121.86129, 37.25247]}},
{"type": "Feature", "id": "Nqka7YgWi-Ecqry5k2E_TGng0AU=", "properties": {"ref": "421", "@spider": "lush", "shop": "cosmetics", "addr:full": "2855 Stevens Creek Blvd", "addr:city": "Santa Clara", "addr:state": "CA", "addr:postcode": "95050", "addr:country": "US", "name": "Valley Fair", "phone": "408-247-5874", "brand": "Lush", "brand:wikidata": "Q1585448", "nsi_id": "lush-a08666"}, "geometry": {"type": "Point", "coordinates": [-121.942508, 37.325095]}},
{"type": "Feature", "id": "yPYC0klhPm7nxnMnO3K3VR78Wpk=", "properties": {"ref": "736", "@spider": "lush", "shop": "cosmetics", "addr:full": "150 Quaker Bridge Rd", "addr:city": "Lawrenceville", "addr:state": "NJ", "addr:postcode": "08648", "addr:country": "US", "name": "Quaker Bridge", "phone": "609-750-7166", "brand": "Lush", "brand:wikidata": "Q1585448", "nsi_id": "lush-a08666"}, "geometry": {"type": "Point", "coordinates": [-74.66958, 40.27588]}},
{"type": "Feature", "id": "NoDG9YCdFjW-O0FlK0ZABPFg05k=", "properties": {"ref": "428", "@spider": "lush", "shop": "cosmetics", "addr:full": "1416 Stoneridge Mall Road", "addr:city": "Pleasanton", "addr:state": "CA", "addr:postcode": "94588", "addr:country": "US", "name": "Stoneridge Shopping Center", "phone": "925-224-9828", "brand": "Lush", "brand:wikidata": "Q1585448", "nsi_id": "lush-a08666"}, "geometry": {"type": "Point", "coordinates": [-121.93143, 37.69395]}},
{"type": "Feature", "id": "hmrGi7M_blGBvtHUxdfqJoy7C7c=", "properties": {"ref": "725", "@spider": "lush", "shop": "cosmetics", "addr:full": "400 Commons Way", "addr:city": "Bridgewater", "addr:state": "NJ", "addr:postcode": "08807", "addr:country": "US", "name": "Bridgewater Commons", "phone": "908-685-5950", "brand": "Lush", "brand:wikidata": "Q1585448", "nsi_id": "lush-a08666"}, "geometry": {"type": "Point", "coordinates": [-74.61821, 40.58646]}},
{"type": "Feature", "id": "5RUW2WU8FQhtzvOe64IjtnkKUPw=", "properties": {"ref": "482", "@spider": "lush", "shop": "cosmetics", "addr:full": "180 El Camino Real", "addr:city": "Palo Alto", "addr:state": "CA", "addr:postcode": "94304", "addr:country": "US", "name": "Stanford Shopping Center", "phone": "650-321-2479", "brand": "Lush", "brand:wikidata": "Q1585448", "nsi_id": "lush-a08666"}, "geometry": {"type": "Point", "coordinates": [-122.17145, 37.44303]}},
{"type": "Feature", "id": "pMIc9oqRkmyOisjRQheo8Y_K9Sg=", "properties": {"ref": "765", "@spider": "lush", "shop": "cosmetics", "addr:full": "9090 Destiny USA Drive", "addr:city": "Syracuse", "addr:state": "NY", "addr:postcode": "13204", "addr:country": "US", "name": "Destiny USA", "phone": "315-422-1895", "brand": "Lush", "brand:wikidata": "Q1585448", "nsi_id": "lush-a08666"}, "geometry": {"type": "Point", "coordinates": [-76.1728, 43.06914]}},
{"type": "Feature", "id": "JNSZbJwaWZ5S3cGvGBXNFuyozGw=", "properties": {"ref": "489", "@spider": "lush", "shop": "cosmetics", "addr:full": "134 Broadway Lane", "addr:city": "Walnut Creek", "addr:state": "CA", "addr:postcode": "94596", "addr:country": "US", "name": "Broadway Plaza", "phone": "925-939-3896", "brand": "Lush", "brand:wikidata": "Q1585448", "nsi_id": "lush-a08666"}, "geometry": {"type": "Point", "coordinates": [-122.05867, 37.89633]}},
{"type": "Feature", "id": "PkYS1pFYz8tQ3P0M3rQhR1iG9N4=", "properties": {"ref": "685", "@spider": "lush", "shop": "cosmetics", "addr:full": "3710 Route 9", "addr:city": "Freehold", "addr:state": "NJ", "addr:postcode": "07728", "addr:country": "US", "name": "Freehold Raceway Mall", "phone": "732-845-4716", "brand": "Lush", "brand:wikidata": "Q1585448", "nsi_id": "lush-a08666"}, "geometry": {"type": "Point", "coordinates": [-74.3001, 40.25538]}},
{"type": "Feature", "id": "EOCYl7UGPqavUJNQVCHR_gBWKOs=", "properties": {"ref": "440", "@spider": "lush", "shop": "cosmetics", "addr:full": "60 31st Ave", "addr:city": "San Mateo", "addr:state": "CA", "addr:postcode": "94403", "addr:country": "US", "name": "Hillsdale", "phone": "650-638-1687", "brand": "Lush", "brand:wikidata": "Q1585448", "nsi_id": "lush-a08666"}, "geometry": {"type": "Point", "coordinates": [-122.30195, 37.53846]}},
{"type": "Feature", "id": "68splo9UwfjrUpJV8B2LDsOjiYI=", "properties": {"ref": "735", "@spider": "lush", "shop": "cosmetics", "addr:full": "301 Mt Hope Ave", "addr:city": "Rockaway", "addr:state": "NJ", "addr:postcode": "07866", "addr:country": "US", "name": "Rockaway Townsquare", "phone": "973-328-8347", "brand": "Lush", "brand:wikidata": "Q1585448", "nsi_id": "lush-a08666"}, "geometry": {"type": "Point", "coordinates": [-74.55201, 40.90353]}},
{"type": "Feature", "id": "t83v-S3je4RIK_sqPCYOnDLyBy0=", "properties": {"ref": "501", "@spider": "lush", "shop": "cosmetics", "addr:full": "Unit 1620, 55 Parsonage Rd", "addr:city": "Edison", "addr:state": "NJ", "addr:postcode": "08837", "addr:country": "US", "name": "Menlo Park Mall", "phone": "732-205-1639", "brand": "Lush", "brand:wikidata": "Q1585448", "nsi_id": "lush-a08666"}, "geometry": {"type": "Point", "coordinates": [-74.335521, 40.551099]}},
{"type": "Feature", "id": "T_Sg77oY7-GGRxtRjbO_TfDA4bE=", "properties": {"ref": "418", "@spider": "lush", "shop": "cosmetics", "addr:full": "5665 Bay Street", "addr:city": "Emeryville", "addr:state": "CA", "addr:postcode": "94608", "addr:country": "US", "name": "Bay Street", "phone": "510-428-2994", "brand": "Lush", "brand:wikidata": "Q1585448", "nsi_id": "lush-a08666"}, "geometry": {"type": "Point", "coordinates": [-122.282402, 37.837959]}},
{"type": "Feature", "id": "TGo3zePER5vQruIiB_mOwQeqDkI=", "properties": {"ref": "699", "@spider": "lush", "shop": "cosmetics", "addr:full": "1200 Morris Tpke", "addr:city": "Short Hills", "addr:state": "NJ", "addr:postcode": "07078", "addr:country": "US", "name": "The Mall at Short Hills", "phone": "973-376-0637", "brand": "Lush", "brand:wikidata": "Q1585448", "nsi_id": "lush-a08666"}, "geometry": {"type": "Point", "coordinates": [-74.36337, 40.74119]}},
{"type": "Feature", "id": "4A0MbgXKX_iKZW6drdhofiMXQsM=", "properties": {"ref": "494", "@spider": "lush", "shop": "cosmetics", "addr:full": "65 Jefferson Street ", "addr:city": "San Francisco", "addr:state": "CA", "addr:postcode": "94133", "addr:country": "US", "name": "Fisherman's Wharf", "phone": "415-398-2743", "brand": "Lush", "brand:wikidata": "Q1585448", "nsi_id": "lush-a08666"}, "geometry": {"type": "Point", "coordinates": [-122.41335, 37.80832]}},
{"type": "Feature", "id": "3XmaOgStOgtPB4q4pOEU807bVwQ=", "properties": {"ref": "439", "@spider": "lush", "shop": "cosmetics", "addr:full": "3251 20th Ave", "addr:city": "San Francisco", "addr:state": "CA", "addr:postcode": "94132", "addr:country": "US", "name": "Stonestown Galleria", "phone": "415-753-3810", "brand": "Lush", "brand:wikidata": "Q1585448", "nsi_id": "lush-a08666"}, "geometry": {"type": "Point", "coordinates": [-122.47638, 37.72791]}},
{"type": "Feature", "id": "Y51zU5-2PM2DrGYyurGXjzfHVh0=", "properties": {"ref": "755", "@spider": "lush", "shop": "cosmetics", "addr:full": "2655 Richmond Ave", "addr:city": "Staten Island", "addr:state": "NY", "addr:postcode": "10314", "addr:country": "US", "name": "Staten Island Mall", "phone": "929-314-9402", "brand": "Lush", "brand:wikidata": "Q1585448", "nsi_id": "lush-a08666"}, "geometry": {"type": "Point", "coordinates": [-74.1607, 40.6]}},
{"type": "Feature", "id": "PmRX_YRU1Ze-01w4JHfeSUcCzco=", "properties": {"ref": "777", "@spider": "lush", "shop": "cosmetics", "addr:full": "1400 Willowbrook Mall", "addr:city": "Wayne", "addr:state": "NJ", "addr:postcode": "07470", "addr:country": "US", "name": "Willowbrook", "phone": "973-812-3920", "brand": "Lush", "brand:wikidata": "Q1585448", "nsi_id": "lush-a08666"}, "geometry": {"type": "Point", "coordinates": [-74.2615, 40.89008]}},
{"type": "Feature", "id": "lCZzAsfRri4wy7saFSXJBdMb0Sg=", "properties": {"ref": "692", "@spider": "lush", "shop": "cosmetics", "addr:full": "30 Mall Dr West", "addr:city": "Jersey City", "addr:state": "NJ", "addr:postcode": "07310", "addr:country": "US", "name": "Newport Centre", "phone": "201-459-6026", "brand": "Lush", "brand:wikidata": "Q1585448", "nsi_id": "lush-a08666"}, "geometry": {"type": "Point", "coordinates": [-74.038331, 40.728034]}},
{"type": "Feature", "id": "_Tc5usvyWilxKLKtb2QGchcqMgo=", "properties": {"ref": "748", "@spider": "lush", "shop": "cosmetics", "addr:full": "1 American Dream Way", "addr:city": "East Rutherford", "addr:state": "NJ", "addr:postcode": "07073", "addr:country": "US", "name": "American Dream", "phone": "201-355-5208", "brand": "Lush", "brand:wikidata": "Q1585448", "nsi_id": "lush-a08666"}, "geometry": {"type": "Point", "coordinates": [-74.070521, 40.809613]}},
{"type": "Feature", "id": "pkO31Hpn_cKZqBa3PGXMOovC4F0=", "properties": {"ref": "657", "@spider": "lush", "shop": "cosmetics", "addr:full": "28 East 14th Street", "addr:city": "New York", "addr:state": "NY", "addr:postcode": "10003-3115", "addr:country": "US", "name": "Union Square", "phone": "646-230-8498", "brand": "Lush", "brand:wikidata": "Q1585448", "nsi_id": "lush-a08666"}, "geometry": {"type": "Point", "coordinates": [-73.99241, 40.73518]}},
{"type": "Feature", "id": "nt44Sk6ulvTK8Kmv9vE5tVOiKkc=", "properties": {"ref": "690", "@spider": "lush", "shop": "cosmetics", "addr:full": "One Garden State Plaza", "addr:city": "Paramus", "addr:state": "NJ", "addr:postcode": "07652", "addr:country": "US", "name": "Garden State", "phone": "201-843-3600", "brand": "Lush", "brand:wikidata": "Q1585448", "nsi_id": "lush-a08666"}, "geometry": {"type": "Point", "coordinates": [-74.076363, 40.918116]}},
{"type": "Feature", "id": "KLBkB-mAmGkGdJhk_gV_7m6wrg0=", "properties": {"ref": "762", "@spider": "lush", "shop": "cosmetics", "addr:full": "44 W 34th Street", "addr:city": "New York", "addr:state": "NY", "addr:postcode": "10001", "addr:country": "US", "name": "Herald Square", "brand": "Lush", "brand:wikidata": "Q1585448", "nsi_id": "lush-a08666"}, "geometry": {"type": "Point", "coordinates": [-73.98712, 40.74921]}},
{"type": "Feature", "id": "56kzH-yoQOPYtA91wH7UxXxfdy0=", "properties": {"ref": "763", "@spider": "lush", "shop": "cosmetics", "addr:full": "1000 S Eighth Avenue", "addr:city": "New York", "addr:state": "NY", "addr:postcode": "10019", "addr:country": "US", "name": "Columbus Circle Station", "phone": "212-247-2090", "brand": "Lush", "brand:wikidata": "Q1585448", "nsi_id": "lush-a08666"}, "geometry": {"type": "Point", "coordinates": [-73.98237, 40.76804]}},
{"type": "Feature", "id": "jGtuUJwxXgz-ZtziZJ07O-T-vDg=", "properties": {"ref": "656", "@spider": "lush", "shop": "cosmetics", "addr:full": "2177 Broadway", "addr:city": "New York", "addr:state": "NY", "addr:postcode": "10024-6603", "addr:country": "US", "name": "Upper West Side", "phone": "212-799-0235", "brand": "Lush", "brand:wikidata": "Q1585448", "nsi_id": "lush-a08666"}, "geometry": {"type": "Point", "coordinates": [-73.98116, 40.782425]}},
{"type": "Feature", "id": "57oIUXjFcrQBugBGl6SdpEuGSkI=", "properties": {"ref": "750", "@spider": "lush", "shop": "cosmetics", "addr:full": "783 Lexington Avenue", "addr:city": "New York", "addr:state": "NY", "addr:postcode": "10065", "addr:country": "US", "name": "Lexington", "phone": "212-207-8151", "brand": "Lush", "brand:wikidata": "Q1585448", "nsi_id": "lush-a08666"}, "geometry": {"type": "Point", "coordinates": [-73.96694, 40.76349]}},
{"type": "Feature", "id": "p10Ga3YhbVzGqXRET3xHEQ50e3w=", "properties": {"ref": "752", "@spider": "lush", "shop": "cosmetics", "addr:full": "206A East 86th Street", "addr:city": "New York", "addr:state": "NY", "addr:postcode": "10128", "addr:country": "US", "name": "East 86th", "phone": "212-249-5194", "brand": "Lush", "brand:wikidata": "Q1585448", "nsi_id": "lush-a08666"}, "geometry": {"type": "Point", "coordinates": [-73.95344, 40.77858]}},
{"type": "Feature", "id": "joa7oI5udKpIlQ1SCpdL-A45x20=", "properties": {"ref": "751", "@spider": "lush", "shop": "cosmetics", "addr:full": "2113 Fashion Drive", "addr:city": "Nanuet", "addr:state": "NY", "addr:postcode": "10954", "addr:country": "US", "name": "The Shops at Nanuet", "phone": "845-623-3043", "brand": "Lush", "brand:wikidata": "Q1585448", "nsi_id": "lush-a08666"}, "geometry": {"type": "Point", "coordinates": [-74.01347, 41.08871]}},
{"type": "Feature", "id": "pDgxhQMwSExeG9knDJLLvyOc9_o=", "properties": {"ref": "481", "@spider": "lush", "shop": "cosmetics", "addr:full": "1071 Santa Rosa Plaza", "addr:city": "Santa Rosa", "addr:state": "CA", "addr:postcode": "95401", "addr:country": "US", "name": "Santa Rosa", "phone": "707-528-3317", "brand": "Lush", "brand:wikidata": "Q1585448", "nsi_id": "lush-a08666"}, "geometry": {"type": "Point", "coordinates": [-122.71845, 38.4405]}},
{"type": "Feature", "id": "SXaIbrWNclCK7TS2Wk7-rWVW3dE=", "properties": {"ref": "693", "@spider": "lush", "shop": "cosmetics", "addr:full": "125 Westchester Ave", "addr:city": "White Plains", "addr:state": "NY", "addr:postcode": "10601", "addr:country": "US", "name": "The Westchester", "phone": "914-328-3083", "brand": "Lush", "brand:wikidata": "Q1585448", "nsi_id": "lush-a08666"}, "geometry": {"type": "Point", "coordinates": [-73.761352, 41.029684]}},
{"type": "Feature", "id": "_v0SsplULUECod9181QgxkMBMD0=", "properties": {"ref": "691", "@spider": "lush", "shop": "cosmetics", "addr:full": "630 Old Country Road", "addr:city": "Garden City", "addr:state": "NY", "addr:postcode": "11530", "addr:country": "US", "name": "Roosevelt Field", "phone": "516-746-1718", "brand": "Lush", "brand:wikidata": "Q1585448", "nsi_id": "lush-a08666"}, "geometry": {"type": "Point", "coordinates": [-73.613576, 40.739971]}},
{"type": "Feature", "id": "xSs1xzmc5tTq-lMKu9TKnZQti0U=", "properties": {"ref": "754", "@spider": "lush", "shop": "cosmetics", "addr:full": "160 Walt Whitman Road", "addr:city": "Huntington Station", "addr:state": "NY", "addr:postcode": "11746", "addr:country": "US", "name": "Walt Whitman", "phone": "631-385-1891", "brand": "Lush", "brand:wikidata": "Q1585448", "nsi_id": "lush-a08666"}, "geometry": {"type": "Point", "coordinates": [-73.41214, 40.82542]}},
{"type": "Feature", "id": "iS_Fk47iMWb84UIrFkXJSbvgdmY=", "properties": {"ref": "700", "@spider": "lush", "shop": "cosmetics", "addr:full": "1150 - 100 N Water St", "addr:city": "Norwalk", "addr:state": "CT", "addr:postcode": "06854", "addr:country": "US", "name": "The SoNo Collection", "phone": "475-283-9323", "brand": "Lush", "brand:wikidata": "Q1585448", "nsi_id": "lush-a08666"}, "geometry": {"type": "Point", "coordinates": [-73.418469, 41.105367]}},
{"type": "Feature", "id": "agMIXqeQYXoA0cXIFtNYkslNXoU=", "properties": {"ref": "649", "@spider": "lush", "shop": "cosmetics", "addr:full": "7 Backus Ave", "addr:city": "Danbury", "addr:state": "CT", "addr:postcode": "06810", "addr:country": "US", "name": "Danbury", "phone": "203-744-5874", "brand": "Lush", "brand:wikidata": "Q1585448", "nsi_id": "lush-a08666"}, "geometry": {"type": "Point", "coordinates": [-73.47551, 41.380148]}},
{"type": "Feature", "id": "3Psygsr2IVxwbuAgszKRQvRG9VQ=", "properties": {"ref": "772", "@spider": "lush", "shop": "cosmetics", "addr:full": "313 Smith Haven Mall", "addr:city": "Lake Grove", "addr:state": "NY", "addr:postcode": "11755", "addr:country": "US", "name": "Smith Haven Mall", "phone": "631-265-0268", "brand": "Lush", "brand:wikidata": "Q1585448", "nsi_id": "lush-a08666"}, "geometry": {"type": "Point", "coordinates": [-73.12983, 40.86449]}},
{"type": "Feature", "id": "RyXHJBWLBML3Pl9_oiLOjRLIdQs=", "properties": {"ref": "696", "@spider": "lush", "shop": "cosmetics", "addr:full": "5065 Main Street", "addr:city": "Trumbull", "addr:state": "CT", "addr:postcode": "06611", "addr:country": "US", "name": "Trumbull", "brand": "Lush", "brand:wikidata": "Q1585448", "nsi_id": "lush-a08666"}, "geometry": {"type": "Point", "coordinates": [-73.22477, 41.23109]}},
{"type": "Feature", "id": "2VC6-En3UOOwcDNz_bkkdIXlLA4=", "properties": {"ref": "769", "@spider": "lush", "shop": "cosmetics", "addr:full": "1 Crossgates Mall Road", "addr:city": "Albany", "addr:state": "NY", "addr:postcode": "12203", "addr:country": "US", "name": "Crossgates Mall", "phone": "518-456-0570", "brand": "Lush", "brand:wikidata": "Q1585448", "nsi_id": "lush-a08666"}, "geometry": {"type": "Point", "coordinates": [-73.85239, 42.68804]}},
{"type": "Feature", "id": "gMFy9ZAwEOAZd4WgC_SfP-EgGQk=", "properties": {"ref": "412", "@spider": "lush", "shop": "cosmetics", "addr:full": "875 W Main Ave", "addr:city": "Spokane", "addr:state": "WA", "addr:postcode": "99201", "addr:country": "US", "name": "River Park Square", "phone": "509-624-4201", "brand": "Lush", "brand:wikidata": "Q1585448", "nsi_id": "lush-a08666"}, "geometry": {"type": "Point", "coordinates": [-117.423517, 47.659723]}},
{"type": "Feature", "id": "4uyRTImXrVQRnWilX8N2ok4ZQi4=", "properties": {"ref": "698", "@spider": "lush", "shop": "cosmetics", "addr:full": "404 Westfarms Mall", "addr:city": "Farmington", "addr:state": "CT", "addr:postcode": "06032", "addr:country": "US", "name": "Westfarms Mall", "phone": "860-521-3436", "brand": "Lush", "brand:wikidata": "Q1585448", "nsi_id": "lush-a08666"}, "geometry": {"type": "Point", "coordinates": [-72.76197, 41.72255]}},
{"type": "Feature", "id": "xsTi4bklDCjD_Zl0cXLOaoV8Mqs=", "properties": {"ref": "308", "@spider": "lush", "shop": "cosmetics", "addr:full": "450 SW Powerhouse Drive", "addr:city": "Bend", "addr:state": "OR", "addr:postcode": "97702", "addr:country": "US", "name": "Old Mill District", "phone": "541-382-2850", "brand": "Lush", "brand:wikidata": "Q1585448", "nsi_id": "lush-a08666"}, "geometry": {"type": "Point", "coordinates": [-121.315097, 44.046618]}},
{"type": "Feature", "id": "oRZyrPNS4lbFIr357myISO6dYk8=", "properties": {"ref": "648", "@spider": "lush", "shop": "cosmetics", "addr:full": "1 Mohegan Sun Boulevard", "addr:city": "Uncasville", "addr:state": "CT", "addr:postcode": "06382", "addr:country": "US", "name": "Mohegan Sun", "phone": "860-862-4220", "brand": "Lush", "brand:wikidata": "Q1585448", "nsi_id": "lush-a08666"}, "geometry": {"type": "Point", "coordinates": [-72.106068, 41.460194]}},
{"type": "Feature", "id": "-ioFljtrN0XvNm_CT_WijP4h_Mc=", "properties": {"ref": "670", "@spider": "lush", "shop": "cosmetics", "addr:full": "132 Providence Place", "addr:city": "Providence", "addr:state": "RI", "addr:postcode": "02903", "addr:country": "US", "name": "Providence", "phone": "401-270-3808", "brand": "Lush", "brand:wikidata": "Q1585448", "nsi_id": "lush-a08666"}, "geometry": {"type": "Point", "coordinates": [-71.425887, 41.828967]}},
{"type": "Feature", "id": "MnWn6DAxlpmodVrsH6ZQEzf8U-k=", "properties": {"ref": "612", "@spider": "lush", "shop": "cosmetics", "addr:full": "1245 Worcester Street", "addr:city": "Natick", "addr:state": "MA", "addr:postcode": "01760", "addr:country": "US", "name": "Natick", "phone": "508-647-1621", "brand": "Lush", "brand:wikidata": "Q1585448", "nsi_id": "lush-a08666"}, "geometry": {"type": "Point", "coordinates": [-71.359382, 42.301239]}},
{"type": "Feature", "id": "q66yJZb9eVnBChWP4lRb5CskOrU=", "properties": {"ref": "782", "@spider": "lush", "shop": "cosmetics", "addr:full": "310 Daniel Webster Hwy", "addr:city": "Nashua", "addr:state": "NH", "addr:postcode": "03060", "addr:country": "US", "name": "Pheasant Lane", "phone": "603-888-1521", "brand": "Lush", "brand:wikidata": "Q1585448", "nsi_id": "lush-a08666"}, "geometry": {"type": "Point", "coordinates": [-71.4374, 42.70228]}},
{"type": "Feature", "id": "2fESAAcXDpIJEjaX1PvFNR5D3OI=", "properties": {"ref": "773", "@spider": "lush", "shop": "cosmetics", "addr:full": "199 Boylston Street", "addr:city": "Chestnut Hill", "addr:state": "MA", "addr:postcode": "02467", "addr:country": "US", "name": "Mall at Chestnut Hill", "phone": "617-244-2957", "brand": "Lush", "brand:wikidata": "Q1585448", "nsi_id": "lush-a08666"}, "geometry": {"type": "Point", "coordinates": [-71.17634, 42.32136]}},
{"type": "Feature", "id": "kvg4CGkbff5fXE9kEKlAwXKK2dY=", "properties": {"ref": "609", "@spider": "lush", "shop": "cosmetics", "addr:full": "75 Middlesex Turnpike", "addr:city": "Burlington", "addr:state": "MA", "addr:postcode": "01803", "addr:country": "US", "name": "Burlington", "phone": "781-505-9898", "brand": "Lush", "brand:wikidata": "Q1585448", "nsi_id": "lush-a08666"}, "geometry": {"type": "Point", "coordinates": [-71.204262, 42.500572]}},
{"type": "Feature", "id": "n45NKTW_c0tHCYD_TId0VAIei4U=", "properties": {"ref": "775", "@spider": "lush", "shop": "cosmetics", "addr:full": "250 Granite Street", "addr:city": "Braintree", "addr:state": "MA", "addr:postcode": "02184", "addr:country": "US", "name": "South Shore Plaza", "phone": "781-843-0251", "brand": "Lush", "brand:wikidata": "Q1585448", "nsi_id": "lush-a08666"}, "geometry": {"type": "Point", "coordinates": [-71.02277, 42.21997]}},
{"type": "Feature", "id": "1DHVlatYrC_qVQM3TDUXyCIQk4M=", "properties": {"ref": "774", "@spider": "lush", "shop": "cosmetics", "addr:full": "144 Newbury Street", "addr:city": "Boston", "addr:state": "MA", "addr:postcode": "02116", "addr:country": "US", "name": "Newbury Street", "phone": "617-262-0354", "brand": "Lush", "brand:wikidata": "Q1585448", "nsi_id": "lush-a08666"}, "geometry": {"type": "Point", "coordinates": [-71.077382, 42.350719]}},
{"type": "Feature", "id": "HXR6cLLwq_5l_KT2T0bYT5mz9vw=", "properties": {"ref": "678", "@spider": "lush", "shop": "cosmetics", "addr:full": "99 Rockingham Park Blvd", "addr:city": "Salem", "addr:state": "NH", "addr:postcode": "03079", "addr:country": "US", "name": "Rockingham", "phone": "603-890-3455", "brand": "Lush", "brand:wikidata": "Q1585448", "nsi_id": "lush-a08666"}, "geometry": {"type": "Point", "coordinates": [-71.2294, 42.782]}},
{"type": "Feature", "id": "f4zmtzwxea4jTaDuqhwijgui95A=", "properties": {"ref": "407", "@spider": "lush", "shop": "cosmetics", "addr:full": "12000 SE 82nd Ave", "addr:city": "Happy Valley", "addr:state": "OR", "addr:postcode": "97086", "addr:country": "US", "name": "Clackamas Town Center", "phone": "503-653-3421", "brand": "Lush", "brand:wikidata": "Q1585448", "nsi_id": "lush-a08666"}, "geometry": {"type": "Point", "coordinates": [-122.57332, 45.43602]}},
{"type": "Feature", "id": "E6e9eMliMHy0T0C5RmCGjwgDxg0=", "properties": {"ref": "776", "@spider": "lush", "shop": "cosmetics", "addr:full": "620 Market Street", "addr:city": "Lynnfield", "addr:state": "MA", "addr:postcode": "01940", "addr:country": "US", "name": "Market Street Lynnfield", "phone": "781-334-4016", "brand": "Lush", "brand:wikidata": "Q1585448", "nsi_id": "lush-a08666"}, "geometry": {"type": "Point", "coordinates": [-71.034174, 42.516066]}},
{"type": "Feature", "id": "mqQBf1odVqu7XpdAbvxijhPJjL8=", "properties": {"ref": "610", "@spider": "lush", "shop": "cosmetics", "addr:full": "210 Andover Street", "addr:city": "Peabody", "addr:state": "MA", "addr:postcode": "01960", "addr:country": "US", "name": "Northshore", "phone": "978-531-1199", "brand": "Lush", "brand:wikidata": "Q1585448", "nsi_id": "lush-a08666"}, "geometry": {"type": "Point", "coordinates": [-70.966568, 42.535793]}},
{"type": "Feature", "id": "_MrC65p1gmiZdegl7XC-rgQDzhk=", "properties": {"ref": "307", "@spider": "lush", "shop": "cosmetics", "addr:full": "7349 SW Bridgeport Rd", "addr:city": "Tigard", "addr:state": "OR", "addr:postcode": "97224", "addr:country": "US", "name": "Bridgeport Village", "phone": "503-431-2342", "brand": "Lush", "brand:wikidata": "Q1585448", "nsi_id": "lush-a08666"}, "geometry": {"type": "Point", "coordinates": [-122.753784, 45.394449]}},
{"type": "Feature", "id": "ammgZVqyY3hUjZR6pbfhgbwhn48=", "properties": {"ref": "408", "@spider": "lush", "shop": "cosmetics", "addr:full": "708 NW 23rd Ave", "addr:city": "Portland", "addr:state": "OR", "addr:postcode": "97210", "addr:country": "US", "name": "Portland", "phone": "503-228-5874", "brand": "Lush", "brand:wikidata": "Q1585448", "nsi_id": "lush-a08666"}, "geometry": {"type": "Point", "coordinates": [-122.698565, 45.528611]}},
{"type": "Feature", "id": "x5aBuDJjaPAAUBSwwiQBZjXpAqY=", "properties": {"ref": "409", "@spider": "lush", "shop": "cosmetics", "addr:full": "9585 SW Washington Square Rd", "addr:city": "Tigard", "addr:state": "OR", "addr:postcode": "97223", "addr:country": "US", "name": "Washington Square", "phone": "503-624-9942", "brand": "Lush", "brand:wikidata": "Q1585448", "nsi_id": "lush-a08666"}, "geometry": {"type": "Point", "coordinates": [-122.778664, 45.450185]}},
{"type": "Feature", "id": "V-0PMoGtAGJjB7yXPMTGsDSdTh0=", "properties": {"ref": "404", "@spider": "lush", "shop": "cosmetics", "addr:full": "4502 S Steele Street", "addr:city": "Tacoma", "addr:state": "WA", "addr:postcode": "98409", "addr:country": "US", "name": "Tacoma Mall", "phone": "253-474-0121", "brand": "Lush", "brand:wikidata": "Q1585448", "nsi_id": "lush-a08666"}, "geometry": {"type": "Point", "coordinates": [-122.46589, 47.21227]}},
{"type": "Feature", "id": "isyssJDU3AjrNm1TXO3b9vDEgcA=", "properties": {"ref": "406", "@spider": "lush", "shop": "cosmetics", "addr:full": "2800 Southcenter", "addr:city": "Tukwila", "addr:state": "WA", "addr:postcode": "98188", "addr:country": "US", "name": "Southcenter", "phone": "206-241-0189", "brand": "Lush", "brand:wikidata": "Q1585448", "nsi_id": "lush-a08666"}, "geometry": {"type": "Point", "coordinates": [-122.261073, 47.458571]}},
{"type": "Feature", "id": "zs0fnoOwuh9yirSghA9s1xO8-LU=", "properties": {"ref": "697", "@spider": "lush", "shop": "cosmetics", "addr:full": "364 Maine Mall Road", "addr:city": "South Portland", "addr:state": "ME", "addr:postcode": "04106", "addr:country": "US", "name": "Maine Mall", "phone": "207-761-0472", "brand": "Lush", "brand:wikidata": "Q1585448", "nsi_id": "lush-a08666"}, "geometry": {"type": "Point", "coordinates": [-70.33679, 43.63421]}},
{"type": "Feature", "id": "QaJI6nKl3WbEYIomo2al4EYmG1c=", "properties": {"ref": "403", "@spider": "lush", "shop": "cosmetics", "addr:full": "140 Bellevue Square Mall", "addr:city": "Bellevue", "addr:state": "WA", "addr:postcode": "98004", "addr:country": "US", "name": "Bellevue", "phone": "425-454-2758", "brand": "Lush", "brand:wikidata": "Q1585448", "nsi_id": "lush-a08666"}, "geometry": {"type": "Point", "coordinates": [-122.201702, 47.615362]}},
{"type": "Feature", "id": "SQ9Z7MgaNOQ9U7GZcJB0nZqOotU=", "properties": {"ref": "405", "@spider": "lush", "shop": "cosmetics", "addr:full": "400 Pine Street", "addr:city": "Seattle", "addr:state": "WA", "addr:postcode": "98101", "addr:country": "US", "name": "Westlake", "brand": "Lush", "brand:wikidata": "Q1585448", "nsi_id": "lush-a08666"}, "geometry": {"type": "Point", "coordinates": [-122.332568, 47.611072]}},
{"type": "Feature", "id": "P7S4WgvXLOk3_nxTPjFMv-XNuoM=", "properties": {"ref": "402", "@spider": "lush", "shop": "cosmetics", "addr:full": "3000 184th Street SW", "addr:city": "Lynnwood", "addr:state": "WA", "addr:postcode": "98037", "addr:country": "US", "name": "Alderwood", "phone": "425-640-3451", "brand": "Lush", "brand:wikidata": "Q1585448", "nsi_id": "lush-a08666"}, "geometry": {"type": "Point", "coordinates": [-122.272587, 47.829943]}},
{"type": "Feature", "id": "vyxQQROgbdzNmM4Ge94LSJyPLkQ=", "properties": {"ref": "799", "@spider": "lush", "shop": "cosmetics", "addr:full": "1000 Mall of San Juan Blvd.", "addr:city": "San Juan", "addr:state": "PR", "addr:postcode": "00924", "addr:country": "US", "name": "The Mall of San Juan", "phone": "787-332-0470", "brand": "Lush", "brand:wikidata": "Q1585448", "nsi_id": "lush-a08666"}, "geometry": {"type": "Point", "coordinates": [-66.02742, 18.40188]}},
{"type": "Feature", "id": "6n-IRtqcc58WMGve8FnfLtd-fhI=", "properties": {"ref": "401", "@spider": "lush", "shop": "cosmetics", "addr:full": "320 W 5th Avenue", "addr:city": "Anchorage", "addr:state": "AK", "addr:postcode": "99501", "addr:country": "US", "name": "Anchorage 5th Avenue Mall", "phone": "907-274-0139", "brand": "Lush", "brand:wikidata": "Q1585448", "nsi_id": "lush-a08666"}, "geometry": {"type": "Point", "coordinates": [-149.88851, 61.21708]}}]}