{"type":"FeatureCollection","features":[{"type": "Feature", "id": "VZjPM9o_r6qsw0ImzImd6_oXTxY=", "properties": {"ref": "webster", "@spider": "main_event", "addr:full": "1125 Magnolia Avenue", "addr:city": "Webster", "addr:state": "TX", "addr:postcode": "77598", "addr:country": "US", "name": "MAIN EVENT WEBSTER", "phone": "+12813324500", "website": "https://www.mainevent.com/locations/texas/webster/", "opening_hours": "Mo 11:00-01:00; Tu-Th 11:00-24:00; Fr 11:00-02:00; Sa 09:00-02:00; Su 11:00-24:00", "brand": "Main Event Entertainment", "brand:wikidata": "Q56062981"}, "geometry": {"type": "Point", "coordinates": [-95.1228346907294, 29.52384379477461]}},
{"type": "Feature", "id": "cBQa_E-VKaYFatSNPaLRy3ZbHFc=", "properties": {"ref": "lewisville", "@spider": "main_event", "addr:full": "2070 South Stemmons Freeway", "addr:city": "Lewisville", "addr:state": "TX", "addr:postcode": "75067", "addr:country": "US", "name": "MAIN EVENT LEWISVILLE", "phone": "+19724597770", "website": "https://www.mainevent.com/locations/texas/lewisville/", "opening_hours": "Mo 11:00-01:00; Tu-Th 11:00-24:00; Fr 11:00-02:00; Sa 09:00-02:00; Su 11:00-24:00", "brand": "Main Event Entertainment", "brand:wikidata": "Q56062981"}, "geometry": {"type": "Point", "coordinates": [-96.97607884889493, 33.013351994173256]}},
{"type": "Feature", "id": "xPMC3OtO8Z_z80aatUcNv2kqVFQ=", "properties": {"ref": "baton-rouge", "@spider": "main_event", "addr:full": "6401 Bluebonnet Boulevard Suite #660", "addr:city": "Baton Rouge", "addr:state": "LA", "addr:postcode": "70836", "addr:country": "US", "name": "MAIN EVENT BATON ROUGE", "phone": "+12255083050", "website": "https://www.mainevent.com/locations/louisiana/baton-rouge/", "opening_hours": "Mo 11:00-01:00; Tu-Th 11:00-24:00; Fr 11:00-02:00; Sa 09:00-02:00; Su 11:00-24:00", "brand": "Main Event Entertainment", "brand:wikidata": "Q56062981"}, "geometry": {"type": "Point", "coordinates": [-91.086308, 30.3877475]}},
{"type": "Feature", "id": "lVPJt4B-5q6gMoZzx7IENjeVbVk=", "properties": {"ref": "frisco", "@spider": "main_event", "addr:full": "9375 Dallas Parkway", "addr:city": "Frisco", "addr:state": "TX", "addr:postcode": "75034", "addr:country": "US", "name": "MAIN EVENT FRISCO", "phone": "+14693627227", "website": "https://www.mainevent.com/locations/texas/frisco/", "opening_hours": "Mo 11:00-01:00; Tu-Th 11:00-24:00; Fr 11:00-02:00; Sa 09:00-02:00; Su 11:00-24:00", "brand": "Main Event Entertainment", "brand:wikidata": "Q56062981"}, "geometry": {"type": "Point", "coordinates": [-96.84256141346947, 33.155304020790226]}},
{"type": "Feature", "id": "cj_TxbBZTSEVDXyO9lWD_e4DTGc=", "properties": {"ref": "memphis", "@spider": "main_event", "addr:full": "7219 Appling Farms Parkway", "addr:city": "Memphis", "addr:state": "TN", "addr:postcode": "38133", "addr:country": "US", "name": "MAIN EVENT MEMPHIS", "phone": "+19013725000", "website": "https://www.mainevent.com/locations/tennessee/memphis/", "opening_hours": "Mo 11:00-01:00; Tu-Th 11:00-24:00; Fr 11:00-02:00; Sa 09:00-02:00; Su 11:00-24:00", "brand": "Main Event Entertainment", "brand:wikidata": "Q56062981"}, "geometry": {"type": "Point", "coordinates": [-89.8222579186754, 35.18291394493401]}},
{"type": "Feature", "id": "t_hULl76YPeCy3EyTPPHAZgasP0=", "properties": {"ref": "humble", "@spider": "main_event", "addr:full": "20945 Spring Creek Crossing", "addr:city": "Humble", "addr:state": "TX", "addr:postcode": "77338", "addr:country": "US", "name": "MAIN EVENT HUMBLE", "phone": "+12819095000", "website": "https://www.mainevent.com/locations/texas/humble/", "opening_hours": "Mo 11:00-01:00; Tu-Th 11:00-24:00; Fr 11:00-02:00; Sa 09:00-02:00; Su 11:00-24:00", "brand": "Main Event Entertainment", "brand:wikidata": "Q56062981"}, "geometry": {"type": "Point", "coordinates": [-95.2661514, 30.0234622]}},
{"type": "Feature", "id": "1Gr5b7OCjDYCzzLyvKg21_L2Ne0=", "properties": {"ref": "plano", "@spider": "main_event", "addr:full": "3941 Central Expressway", "addr:city": "Plano", "addr:state": "TX", "addr:postcode": "75023", "addr:country": "US", "name": "MAIN EVENT PLANO", "phone": "+19728818181", "website": "https://www.mainevent.com/locations/texas/plano/", "opening_hours": "Mo 11:00-01:00; Tu-Th 11:00-24:00; Fr 11:00-02:00; Sa 09:00-02:00; Su 11:00-24:00", "brand": "Main Event Entertainment", "brand:wikidata": "Q56062981"}, "geometry": {"type": "Point", "coordinates": [-96.70048852055714, 33.04886026423957]}},
{"type": "Feature", "id": "sBaBwcPM9N7yTnhnOh1f5RJsXWE=", "properties": {"ref": "brownsville", "@spider": "main_event", "addr:full": "Sunrise Mall, 2320 North Expressway", "addr:city": "Brownsville", "addr:state": "TX", "addr:postcode": "78521", "addr:country": "US", "name": "MAIN EVENT BROWNSVILLE", "phone": "+19566905151", "website": "https://www.mainevent.com/locations/texas/brownsville/", "opening_hours": "Mo 11:00-01:00; Tu-Th 11:00-24:00; Fr 11:00-02:00; Sa 09:00-02:00; Su 11:00-24:00", "brand": "Main Event Entertainment", "brand:wikidata": "Q56062981"}, "geometry": {"type": "Point", "coordinates": [-97.5031213, 25.9515497]}},
{"type": "Feature", "id": "5fDNyylUImNg5NzQRKlmDH9rSGA=", "properties": {"ref": "laredo", "@spider": "main_event", "addr:full": "5300 San Dario Avenue, D1A", "addr:city": "Laredo", "addr:state": "TX", "addr:postcode": "78041", "addr:country": "US", "name": "MAIN EVENT LAREDO", "phone": "+19567222695", "website": "https://www.mainevent.com/locations/texas/laredo/", "opening_hours": "Mo 11:00-01:00; Tu-Th 11:00-24:00; Fr 11:00-02:00; Sa 09:00-02:00; Su 11:00-24:00", "brand": "Main Event Entertainment", "brand:wikidata": "Q56062981"}, "geometry": {"type": "Point", "coordinates": [-99.50149399636462, 27.552180679292192]}},
{"type": "Feature", "id": "c9tO8xk1fj41MW5Y1YA16Duqmm4=", "properties": {"ref": "huntsville", "@spider": "main_event", "addr:full": "6884 Governors W. NW", "addr:city": "Huntsville", "addr:state": "AL", "addr:postcode": "35806", "addr:country": "US", "name": "MAIN EVENT HUNTSVILLE", "phone": "+12563678333", "website": "https://www.mainevent.com/locations/alabama/huntsville/", "opening_hours": "Mo 11:00-01:00; Tu-Th 11:00-24:00; Fr 11:00-02:00; Sa 09:00-02:00; Su 11:00-24:00", "brand": "Main Event Entertainment", "brand:wikidata": "Q56062981"}, "geometry": {"type": "Point", "coordinates": [-86.67637843955502, 34.71628894182311]}},
{"type": "Feature", "id": "NcqWCKhR32-iqGw1Udc9tcmaxEo=", "properties": {"ref": "waco", "@spider": "main_event", "addr:full": "2420 Creekview Dr.", "addr:city": "Waco", "addr:state": "TX", "addr:postcode": "76711", "addr:country": "US", "name": "MAIN EVENT WACO", "phone": "+12542565600", "website": "https://www.mainevent.com/locations/texas/waco/", "opening_hours": "Mo 11:00-01:00; Tu-Th 11:00-24:00; Fr 11:00-02:00; Sa 09:00-02:00; Su 11:00-24:00", "brand": "Main Event Entertainment", "brand:wikidata": "Q56062981"}, "geometry": {"type": "Point", "coordinates": [-97.147377, 31.5052852]}},
{"type": "Feature", "id": "8DO5sO9C5YYRApHQAuaDNEwINaY=", "properties": {"ref": "tomball", "@spider": "main_event", "addr:full": "24620 Tomball Parkway", "addr:city": "Tomball", "addr:state": "TX", "addr:postcode": "77375", "addr:country": "US", "name": "MAIN EVENT TOMBALL", "phone": "+12816985559", "website": "https://www.mainevent.com/locations/texas/tomball/", "opening_hours": "Mo 11:00-01:00; Tu-Th 11:00-24:00; Fr 11:00-02:00; Sa 09:00-02:00; Su 11:00-24:00", "brand": "Main Event Entertainment", "brand:wikidata": "Q56062981"}, "geometry": {"type": "Point", "coordinates": [-95.6058529, 30.0401531]}},
{"type": "Feature", "id": "-Le8MZ1r4yLlDh0GJhCT-yCiXFc=", "properties": {"ref": "grand-prairie", "@spider": "main_event", "addr:full": "3106 S. Highway 161", "addr:city": "Grand Prairie", "addr:state": "TX", "addr:postcode": "75052", "addr:country": "US", "name": "MAIN EVENT GRAND PRAIRIE", "phone": "+19726412695", "website": "https://www.mainevent.com/locations/texas/grand-prairie/", "opening_hours": "Mo 11:00-01:00; Tu-Th 11:00-24:00; Fr 11:00-02:00; Sa 09:00-02:00; Su 11:00-24:00", "brand": "Main Event Entertainment", "brand:wikidata": "Q56062981"}, "geometry": {"type": "Point", "coordinates": [-97.0280022, 32.6978014]}},
{"type": "Feature", "id": "mHKKcjf_tBdJv4_1WnPH8UxoXvk=", "properties": {"ref": "lubbock", "@spider": "main_event", "addr:full": "6010 Marsha Sharp Freeway", "addr:city": "Lubbock", "addr:state": "TX", "addr:postcode": "79407", "addr:country": "US", "name": "MAIN EVENT LUBBOCK", "phone": "+18067923333", "website": "https://www.mainevent.com/locations/texas/lubbock/", "opening_hours": "Mo 11:00-01:00; Tu-Th 11:00-24:00; Fr 11:00-02:00; Sa 09:00-02:00; Su 11:00-24:00", "brand": "Main Event Entertainment", "brand:wikidata": "Q56062981"}, "geometry": {"type": "Point", "coordinates": [-101.94694791668712, 33.551698995347614]}},
{"type": "Feature", "id": "8v_w4vcxOgHra-y4GwPByXRGLWU=", "properties": {"ref": "pharr", "@spider": "main_event", "addr:full": "500 North Jackson Rd Suite C", "addr:city": "Pharr", "addr:state": "TX", "addr:postcode": "78577", "addr:country": "US", "name": "MAIN EVENT PHARR", "phone": "+19567877100", "website": "https://www.mainevent.com/locations/texas/pharr/", "opening_hours": "Mo 11:00-01:00; Tu-Th 11:00-24:00; Fr 11:00-02:00; Sa 09:00-02:00; Su 11:00-24:00", "brand": "Main Event Entertainment", "brand:wikidata": "Q56062981"}, "geometry": {"type": "Point", "coordinates": [-98.20186728161468, 26.20240302861284]}},
{"type": "Feature", "id": "Kcbm498WtMQ1kK0Q7QDb19BM8DQ=", "properties": {"ref": "newark", "@spider": "main_event", "addr:full": "2900 Fashion Center Blvd", "addr:city": "Newark", "addr:state": "DE", "addr:postcode": "19702", "addr:country": "US", "name": "MAIN EVENT Wilmington", "phone": "+13027229466", "website": "https://www.mainevent.com/locations/delaware/newark/", "opening_hours": "Mo 11:00-01:00; Tu-Th 11:00-24:00; Fr 11:00-01:30; Sa 09:00-01:30; Su 11:00-24:00", "brand": "Main Event Entertainment", "brand:wikidata": "Q56062981"}, "geometry": {"type": "Point", "coordinates": [-75.64565154232787, 39.670549741717295]}},
{"type": "Feature", "id": "5QGVibMQvbL6tTH20ywLYYJAlnQ=", "properties": {"ref": "columbia", "@spider": "main_event", "addr:full": "10300 Little Patuxent Parkway Suite 2520", "addr:city": "Columbia", "addr:state": "MD", "addr:postcode": "21044", "addr:country": "US", "name": "MAIN EVENT COLUMBIA", "phone": "+14109959009", "website": "https://www.mainevent.com/locations/maryland/columbia/", "opening_hours": "Mo 11:00-01:00; Tu-Th 11:00-24:00; Fr 11:00-02:00; Sa 09:00-02:00; Su 11:00-24:00", "brand": "Main Event Entertainment", "brand:wikidata": "Q56062981"}, "geometry": {"type": "Point", "coordinates": [-76.8630056011684, 39.21664569647957]}},
{"type": "Feature", "id": "OoYYfq9TIPIxKoZYbQkw7bhlxG8=", "properties": {"ref": "suwanee", "@spider": "main_event", "addr:full": "471 Northolt Parkway", "addr:city": "Suwanee", "addr:state": "GA", "addr:postcode": "30024", "addr:country": "US", "name": "MAIN EVENT SUWANEE", "phone": "+17709457111", "website": "https://www.mainevent.com/locations/georgia/suwanee/", "opening_hours": "Mo 11:00-01:00; Tu-Th 11:00-24:00; Fr 11:00-02:00; Sa 09:00-02:00; Su 11:00-24:00", "brand": "Main Event Entertainment", "brand:wikidata": "Q56062981"}, "geometry": {"type": "Point", "coordinates": [-84.05394163157376, 34.034071771622706]}},
{"type": "Feature", "id": "VIWxmQBPecZUs5sstu1W_59uOdA=", "properties": {"ref": "louisville", "@spider": "main_event", "addr:full": "12500 Sycamore Station Place", "addr:city": "Louisville", "addr:state": "KY", "addr:postcode": "40299", "addr:country": "US", "name": "MAIN EVENT LOUISVILLE", "phone": "+15022405555", "website": "https://www.mainevent.com/locations/kentucky/louisville/", "opening_hours": "Mo 11:00-01:00; Tu-Th 11:00-24:00; Fr 11:00-02:00; Sa 09:00-02:00; Su 11:00-24:00", "brand": "Main Event Entertainment", "brand:wikidata": "Q56062981"}, "geometry": {"type": "Point", "coordinates": [-85.529255, 38.2225296]}},
{"type": "Feature", "id": "97FODp98I9Qa4M4CyESMTgnY3c0=", "properties": {"ref": "lexington", "@spider": "main_event", "addr:full": "240 Canary Road", "addr:city": "Lexington", "addr:state": "KY", "addr:postcode": "40503", "addr:country": "US", "name": "Main Event Lexington", "phone": "+18594742300", "website": "https://www.mainevent.com/locations/kentucky/lexington/", "opening_hours": "Mo 11:00-01:00; Tu-Th 11:00-24:00; Fr 11:00-02:00; Sa 09:00-02:00; Su 11:00-24:00", "brand": "Main Event Entertainment", "brand:wikidata": "Q56062981"}, "geometry": {"type": "Point", "coordinates": [-84.52017678630126, 37.99417064471673]}},
{"type": "Feature", "id": "Zoad7vk5k45G4ReKwLr4hpNXoJc=", "properties": {"ref": "avon", "@spider": "main_event", "addr:full": "35605 Chester Rd", "addr:city": "Avon", "addr:state": "OH", "addr:postcode": "44011", "addr:country": "US", "name": "MAIN EVENT Avon", "phone": "+14403980611", "website": "https://www.mainevent.com/locations/ohio/avon/", "opening_hours": "Mo 11:00-01:00; Tu-Th 11:00-24:00; Fr 11:00-02:00; Sa 09:00-02:00; Su 11:00-24:00", "brand": "Main Event Entertainment", "brand:wikidata": "Q56062981"}, "geometry": {"type": "Point", "coordinates": [-82.0110111, 41.4656556]}},
{"type": "Feature", "id": "0foaxSUktHVXGR5H64DMggqr0Bs=", "properties": {"ref": "alpharetta", "@spider": "main_event", "addr:full": "10700 Davis Drive", "addr:city": "Alpharetta", "addr:state": "GA", "addr:postcode": "30009", "addr:country": "US", "name": "MAIN EVENT ALPHARETTA", "phone": "+17705219100", "website": "https://www.mainevent.com/locations/georgia/alpharetta/", "opening_hours": "Mo 11:00-01:00; Tu-Th 11:00-24:00; Fr 11:00-02:00; Sa 09:00-02:00; Su 11:00-24:00", "brand": "Main Event Entertainment", "brand:wikidata": "Q56062981"}, "geometry": {"type": "Point", "coordinates": [-84.3139572, 34.0431022]}},
{"type": "Feature", "id": "yrMQZgMeZhKT0CjcbNxXgr1b9wY=", "properties": {"ref": "wesley-chapel", "@spider": "main_event", "addr:full": "2839 Creek Grass Way", "addr:city": "Lutz", "addr:state": "FL", "addr:postcode": "33559", "addr:country": "US", "name": "MAIN EVENT WESLEY CHAPEL", "phone": "+18139092695", "website": "https://www.mainevent.com/locations/florida/wesley-chapel/", "opening_hours": "Mo 11:00-01:00; Tu-Th 11:00-24:00; Fr 11:00-02:00; Sa 09:00-02:00; Su 11:00-24:00", "brand": "Main Event Entertainment", "brand:wikidata": "Q56062981"}, "geometry": {"type": "Point", "coordinates": [-82.391342, 28.193325]}},
{"type": "Feature", "id": "2bzSzHyqbW9KZBMfpb4Xi2785qg=", "properties": {"ref": "jacksonville", "@spider": "main_event", "addr:full": "10370 Phillips Hwy", "addr:city": "Jacksonville", "addr:state": "FL", "addr:postcode": "32256", "addr:country": "US", "name": "MAIN EVENT JACKSONVILLE", "phone": "+19042607500", "website": "https://www.mainevent.com/locations/florida/jacksonville/", "opening_hours": "Mo 11:00-01:00; Tu-Th 11:00-24:00; Fr 11:00-02:00; Sa 09:00-02:00; Su 11:00-24:00", "brand": "Main Event Entertainment", "brand:wikidata": "Q56062981"}, "geometry": {"type": "Point", "coordinates": [-81.555066, 30.1802127]}},
{"type": "Feature", "id": "zfBaAOAiKrQ2Sg9wAAsdrvUgCGc=", "properties": {"ref": "knoxville", "@spider": "main_event", "addr:full": "9081 Kingston Pike", "addr:city": "Knoxville", "addr:state": "TN", "addr:postcode": "37923", "addr:country": "US", "name": "MAIN EVENT KNOXVILLE", "phone": "+18653515000", "website": "https://www.mainevent.com/locations/tennessee/knoxville/", "opening_hours": "Mo 11:00-01:00; Tu-Th 11:00-24:00; Fr 11:00-02:00; Sa 09:00-02:00; Su 11:00-24:00", "brand": "Main Event Entertainment", "brand:wikidata": "Q56062981"}, "geometry": {"type": "Point", "coordinates": [-84.08533035221649, 35.914357655404366]}},
{"type": "Feature", "id": "hvxyn_XvQoV5EcshbxSzOXPVkZY=", "properties": {"ref": "atlanta", "@spider": "main_event", "addr:full": "3101 Cobb Parkway SE Suite 104", "addr:city": "Atlanta", "addr:state": "GA", "addr:postcode": "30339", "addr:country": "US", "name": "MAIN EVENT PARKWAY POINTE", "phone": "+17709550717", "website": "https://www.mainevent.com/locations/georgia/atlanta/", "opening_hours": "Mo 11:00-01:00; Tu-Th 11:00-24:00; Fr 11:00-02:00; Sa 09:00-02:00; Su 11:00-24:00", "brand": "Main Event Entertainment", "brand:wikidata": "Q56062981"}, "geometry": {"type": "Point", "coordinates": [-84.45616905519398, 33.87924808982888]}},
{"type": "Feature", "id": "wldi_OX-82vQECaF1d7cLlNCkFE=", "properties": {"ref": "west-chester", "@spider": "main_event", "addr:full": "9477 Oxford Way", "addr:city": "West Chester", "addr:state": "OH", "addr:postcode": "45069", "addr:country": "US", "name": "MAIN EVENT WEST CHESTER", "phone": "+15137771700", "website": "https://www.mainevent.com/locations/ohio/west-chester/", "opening_hours": "Mo 11:00-01:00; Tu-Th 11:00-24:00; Fr 11:00-02:00; Sa 09:00-02:00; Su 11:00-24:00", "brand": "Main Event Entertainment", "brand:wikidata": "Q56062981"}, "geometry": {"type": "Point", "coordinates": [-84.4242775, 39.3177235]}},
{"type": "Feature", "id": "9922-bDFImcaKc69UA5adQxD0vM=", "properties": {"ref": "chesterfield", "@spider": "main_event", "addr:full": "17027 North Outer 40 Rd.", "addr:city": "Chesterfield", "addr:state": "MO", "addr:postcode": "63005", "addr:country": "US", "name": "Main Event Chesterfield", "phone": "+16365369999", "website": "https://www.mainevent.com/locations/missouri/chesterfield/", "opening_hours": "Mo-Fr 11:00-24:00; Sa 09:00-24:00; Su 11:00-24:00", "brand": "Main Event Entertainment", "brand:wikidata": "Q56062981"}, "geometry": {"type": "Point", "coordinates": [-90.5837707, 38.6696367]}},
{"type": "Feature", "id": "t6BJtw9aTKdGL5QMIxhTebBo8U8=", "properties": {"ref": "hoffman-estates", "@spider": "main_event", "addr:full": "2575 Pratum Ave", "addr:city": "Hoffman Estates", "addr:state": "IL", "addr:postcode": "60192", "addr:country": "US", "name": "MAIN EVENT HOFFMAN ESTATES", "phone": "+18476451111", "website": "https://www.mainevent.com/locations/illinois/hoffman-estates/", "opening_hours": "Mo-Th 11:00-24:00; Fr 11:00-01:00; Sa 09:00-01:00; Su 11:00-24:00", "brand": "Main Event Entertainment", "brand:wikidata": "Q56062981"}, "geometry": {"type": "Point", "coordinates": [-88.2090759, 42.0707778]}},
{"type": "Feature", "id": "XzLJjr1M0-aXPvN6YBiZJQJpwy0=", "properties": {"ref": "warrenville", "@spider": "main_event", "addr:full": "28248 Diehl Road", "addr:city": "Warrenville", "addr:state": "IL", "addr:postcode": "60555", "addr:country": "US", "name": "MAIN EVENT WARRENVILLE", "phone": "+16303939400", "website": "https://www.mainevent.com/locations/illinois/warrenville/", "opening_hours": "Mo-Th 11:00-24:00; Fr 11:00-01:00; Sa 09:00-01:00; Su 11:00-24:00", "brand": "Main Event Entertainment", "brand:wikidata": "Q56062981"}, "geometry": {"type": "Point", "coordinates": [-88.17062345837104, 41.8046559798343]}},
{"type": "Feature", "id": "sRHBmpgjO8S5tweNDEJSMr2CSdg=", "properties": {"ref": "independence", "@spider": "main_event", "addr:full": "4600 South Cochise Court", "addr:city": "Independence", "addr:state": "MO", "addr:postcode": "64055", "addr:country": "US", "name": "MAIN EVENT INDEPENDENCE", "phone": "+18163501000", "website": "https://www.mainevent.com/locations/missouri/independence/", "opening_hours": "Mo 11:00-01:00; Tu-Th 11:00-24:00; Fr 11:00-01:30; Sa 09:00-01:30; Su 11:00-24:00", "brand": "Main Event Entertainment", "brand:wikidata": "Q56062981"}, "geometry": {"type": "Point", "coordinates": [-94.3632888, 39.0364151]}},
{"type": "Feature", "id": "RUlH1Z8vWEfdwWlTYU0B0px_c9k=", "properties": {"ref": "austin", "@spider": "main_event", "addr:full": "13301 North US Hwy 183", "addr:city": "Austin", "addr:state": "TX", "addr:postcode": "78750", "addr:country": "US", "name": "MAIN EVENT AUSTIN", "phone": "+15124010000", "website": "https://www.mainevent.com/locations/texas/austin/", "opening_hours": "Mo 11:00-01:00; Tu-Th 11:00-24:00; Fr 11:00-02:00; Sa 09:00-02:00; Su 11:00-24:00", "brand": "Main Event Entertainment", "brand:wikidata": "Q56062981"}, "geometry": {"type": "Point", "coordinates": [-97.7847581, 30.4451569]}},
{"type": "Feature", "id": "Ndje7WmllPufbo_j-XzsiWaNcjs=", "properties": {"ref": "olathe", "@spider": "main_event", "addr:full": "11950 S Kansas City Road", "addr:city": "Olathe", "addr:state": "KS", "addr:postcode": "66061", "addr:country": "US", "name": "MAIN EVENT OLATHE", "phone": "+19137684444", "website": "https://www.mainevent.com/locations/kansas/olathe/", "opening_hours": "Mo 11:00-01:00; Tu-Th 11:00-24:00; Fr 11:00-02:00; Sa 09:00-02:00; Su 11:00-24:00", "brand": "Main Event Entertainment", "brand:wikidata": "Q56062981"}, "geometry": {"type": "Point", "coordinates": [-94.7758178, 38.9117063]}},
{"type": "Feature", "id": "_07WH1iMcfBFxDIhyKmfp36IlC4=", "properties": {"ref": "san-antonio-north", "@spider": "main_event", "addr:full": "1911 North Loop 1604 East", "addr:city": "San Antonio", "addr:state": "TX", "addr:postcode": "78232", "addr:country": "US", "name": "MAIN EVENT SAN ANTONIO", "phone": "+12103055999", "website": "https://www.mainevent.com/locations/texas/san-antonio-north/", "opening_hours": "Mo 11:00-01:00; Tu-Th 11:00-24:00; Fr 11:00-02:00; Sa 09:00-02:00; Su 11:00-24:00", "brand": "Main Event Entertainment", "brand:wikidata": "Q56062981"}, "geometry": {"type": "Point", "coordinates": [-98.46144846632569, 29.60914752273355]}},
{"type": "Feature", "id": "QpV2FPIy6MCN86cANBEHWMaQWb4=", "properties": {"ref": "fort-worth", "@spider": "main_event", "addr:full": "4801 City Lake Blvd East", "addr:city": "Fort Worth", "addr:state": "TX", "addr:postcode": "76132", "addr:country": "US", "name": "MAIN EVENT FORT WORTH", "phone": "+18172925555", "website": "https://www.mainevent.com/locations/texas/fort-worth/", "opening_hours": "Mo 11:00-01:00; Tu-Th 11:00-24:00; Fr 11:00-02:00; Sa 09:00-02:00; Su 11:00-24:00", "brand": "Main Event Entertainment", "brand:wikidata": "Q56062981"}, "geometry": {"type": "Point", "coordinates": [-97.4080326, 32.6801962]}},
{"type": "Feature", "id": "Lr24571_xe93uFw89xeyER9T_nw=", "properties": {"ref": "fort-worth-north", "@spider": "main_event", "addr:full": "2601 Presidio Vista Dr", "addr:city": "Fort Worth", "addr:state": "TX", "addr:postcode": "76177", "addr:country": "US", "name": "MAIN EVENT FORT WORTH NORTH", "phone": "+18173060000", "website": "https://www.mainevent.com/locations/texas/fort-worth-north/", "opening_hours": "Mo 11:00-01:00; Tu-Th 11:00-24:00; Fr 11:00-02:00; Sa 09:00-02:00; Su 11:00-24:00", "brand": "Main Event Entertainment", "brand:wikidata": "Q56062981"}, "geometry": {"type": "Point", "coordinates": [-97.32156122804082, 32.90524915435477]}},
{"type": "Feature", "id": "XHnGo0UlEbUN28M_MZNekl1EDqM=", "properties": {"ref": "shenandoah", "@spider": "main_event", "addr:full": "19441 I-45 South", "addr:city": "Shenandoah", "addr:state": "TX", "addr:postcode": "77385", "addr:country": "US", "name": "MAIN EVENT SHENANDOAH", "phone": "+12813555511", "website": "https://www.mainevent.com/locations/texas/shenandoah/", "opening_hours": "Mo 11:00-01:00; Tu-Th 11:00-24:00; Fr 11:00-02:00; Sa 09:00-02:00; Su 11:00-24:00", "brand": "Main Event Entertainment", "brand:wikidata": "Q56062981"}, "geometry": {"type": "Point", "coordinates": [-95.44855507605746, 30.17396842359599]}},
{"type": "Feature", "id": "rewZYNbNqjMfPJNPO515HfueFg0=", "properties": {"ref": "tulsa", "@spider": "main_event", "addr:full": "7830 South Santa Fe Avenue West", "addr:city": "Tulsa", "addr:state": "OK", "addr:postcode": "74132", "addr:country": "US", "name": "MAIN EVENT TULSA", "phone": "+19184471200", "website": "https://www.mainevent.com/locations/oklahoma/tulsa/", "opening_hours": "Mo 11:00-01:00; Tu-Th 11:00-24:00; Fr 11:00-02:00; Sa 09:00-02:00; Su 11:00-24:00", "brand": "Main Event Entertainment", "brand:wikidata": "Q56062981"}, "geometry": {"type": "Point", "coordinates": [-96.0084228, 36.0497894]}},
{"type": "Feature", "id": "wgN5RdofJS5DTQXXCyWJMkax3WA=", "properties": {"ref": "san-antonio-west", "@spider": "main_event", "addr:full": "8514 State Hwy 151", "addr:city": "San Antonio", "addr:state": "TX", "addr:postcode": "78245", "addr:country": "US", "name": "MAIN EVENT SAN ANTONIO (WEST)", "phone": "+12105218000", "website": "https://www.mainevent.com/locations/texas/san-antonio-west/", "opening_hours": "Mo 11:00-01:00; Tu-Th 11:00-24:00; Fr 11:00-02:00; Sa 09:00-02:00; Su 11:00-24:00", "brand": "Main Event Entertainment", "brand:wikidata": "Q56062981"}, "geometry": {"type": "Point", "coordinates": [-98.65506350324279, 29.435039164001157]}},
{"type": "Feature", "id": "9eSMx1HrNq9QrMog3C6sqsTwAGE=", "properties": {"ref": "grapevine", "@spider": "main_event", "addr:full": "407 W State Hwy 114", "addr:city": "Grapevine", "addr:state": "TX", "addr:postcode": "76051", "addr:country": "US", "name": "MAIN EVENT GRAPEVINE", "phone": "+18174161111", "website": "https://www.mainevent.com/locations/texas/grapevine/", "opening_hours": "Mo 11:00-01:00; Tu-Th 11:00-24:00; Fr 11:00-02:00; Sa 09:00-02:00; Su 11:00-24:00", "brand": "Main Event Entertainment", "brand:wikidata": "Q56062981"}, "geometry": {"type": "Point", "coordinates": [-97.08168827726485, 32.91989211935596]}},
{"type": "Feature", "id": "07wrJK8ufjXweZtFZCMECUPxiFs=", "properties": {"ref": "oklahoma-city", "@spider": "main_event", "addr:full": "1441 West Memorial Road", "addr:city": "Oklahoma City", "addr:state": "OK", "addr:postcode": "73114", "addr:country": "US", "name": "MAIN EVENT OKLAHOMA CITY", "phone": "+14057514900", "website": "https://www.mainevent.com/locations/oklahoma/oklahoma-city/", "opening_hours": "Mo 11:00-01:00; Tu-Th 11:00-24:00; Fr 11:00-02:00; Sa 09:00-02:00; Su 11:00-24:00", "brand": "Main Event Entertainment", "brand:wikidata": "Q56062981"}, "geometry": {"type": "Point", "coordinates": [-97.53815838161472, 35.61020706309745]}},
{"type": "Feature", "id": "eft0okvXAhjO8MQRuEr6ohBi1zo=", "properties": {"ref": "katy", "@spider": "main_event", "addr:full": "24401 Katy Freeway", "addr:city": "Katy", "addr:state": "TX", "addr:postcode": "77494", "addr:country": "US", "name": "MAIN EVENT KATY", "phone": "+12813944800", "website": "https://www.mainevent.com/locations/texas/katy/", "opening_hours": "Mo 11:00-01:00; Tu-Th 11:00-24:00; Fr 11:00-02:00; Sa 09:00-02:00; Su 11:00-24:00", "brand": "Main Event Entertainment", "brand:wikidata": "Q56062981"}, "geometry": {"type": "Point", "coordinates": [-95.79221635374165, 29.78330769096146]}},
{"type": "Feature", "id": "iwZBObMvjym3tJ5cipKEf6OMjJg=", "properties": {"ref": "orlando", "@spider": "main_event", "addr:full": "9101 International Drive Suite 1032", "addr:city": "Orlando", "addr:state": "FL", "addr:postcode": "32819", "addr:country": "US", "name": "MAIN EVENT ORLANDO", "phone": "+14073523300", "website": "https://www.mainevent.com/locations/florida/orlando/", "opening_hours": "Mo-Fr 12:00-24:00; Sa 10:00-24:00; Su 11:00-24:00", "brand": "Main Event Entertainment", "brand:wikidata": "Q56062981"}, "geometry": {"type": "Point", "coordinates": [-81.46974217790984, 28.432157847891265]}},
{"type": "Feature", "id": "jpl-xRiqVFQNL4fRgZWnNpP-W_I=", "properties": {"ref": "tempe", "@spider": "main_event", "addr:full": "8545 South Emerald Drive", "addr:city": "Tempe", "addr:state": "AZ", "addr:postcode": "85284", "addr:country": "US", "name": "MAIN EVENT TEMPE", "phone": "+14807531200", "website": "https://www.mainevent.com/locations/arizona/tempe/", "opening_hours": "Mo 11:00-01:00; Tu-Th 11:00-24:00; Fr 11:00-02:00; Sa 09:00-02:00; Su 11:00-24:00", "brand": "Main Event Entertainment", "brand:wikidata": "Q56062981"}, "geometry": {"type": "Point", "coordinates": [-111.9674066, 33.3372511]}},
{"type": "Feature", "id": "6DovRg0012BeBHteOMp__n9ov9o=", "properties": {"ref": "avondale", "@spider": "main_event", "addr:full": "10315 W McDowell Rd", "addr:city": "Avondale", "addr:state": "AZ", "addr:postcode": "85392", "addr:country": "US", "name": "MAIN EVENT AVONDALE", "phone": "+16239365300", "website": "https://www.mainevent.com/locations/arizona/avondale/", "opening_hours": "Mo 11:00-01:00; Tu-Th 11:00-24:00; Fr 11:00-02:00; Sa 09:00-02:00; Su 11:00-24:00", "brand": "Main Event Entertainment", "brand:wikidata": "Q56062981"}, "geometry": {"type": "Point", "coordinates": [-112.2822341, 33.4631462]}},
{"type": "Feature", "id": "XVxRRiOUa7SotRoevsK36_C-b6A=", "properties": {"ref": "gilbert", "@spider": "main_event", "addr:full": "1735 S Santan Village Parkway", "addr:city": "Gilbert", "addr:state": "AZ", "addr:postcode": "85295", "addr:country": "US", "name": "MAIN EVENT GILBERT", "phone": "+14804622200", "website": "https://www.mainevent.com/locations/arizona/gilbert/", "opening_hours": "Mo 11:00-01:00; Tu-Th 11:00-24:00; Fr 11:00-02:00; Sa 09:00-02:00; Su 11:00-24:00", "brand": "Main Event Entertainment", "brand:wikidata": "Q56062981"}, "geometry": {"type": "Point", "coordinates": [-111.74067152513123, 33.318367794546674]}},
{"type": "Feature", "id": "Jx_luHKEDGFUT0C-1JvPGmaZ360=", "properties": {"ref": "highlands-ranch", "@spider": "main_event", "addr:full": "64 Centennial Blvd", "addr:city": "Highlands Ranch", "addr:state": "CO", "addr:postcode": "80129", "addr:country": "US", "name": "MAIN EVENT HIGHLANDS RANCH", "phone": "+13032093877", "website": "https://www.mainevent.com/locations/colorado/highlands-ranch/", "opening_hours": "Mo 11:00-01:00; Tu-Th 11:00-24:00; Fr 11:00-02:00; Sa 09:00-02:00; Su 11:00-24:00", "brand": "Main Event Entertainment", "brand:wikidata": "Q56062981"}, "geometry": {"type": "Point", "coordinates": [-104.9889766, 39.5611391]}},
{"type": "Feature", "id": "gPTNjRo3ZrgdkHZH5dIdMa8STOY=", "properties": {"ref": "albuquerque", "@spider": "main_event", "addr:full": "4040 Pan American Freeway NE", "addr:city": "Albuquerque", "addr:state": "NM", "addr:postcode": "87107", "addr:country": "US", "name": "MAIN EVENT ALBUQUERQUE", "phone": "+15058844928", "website": "https://www.mainevent.com/locations/new-mexico/albuquerque/", "opening_hours": "Mo 11:00-01:00; Tu-Th 11:00-24:00; Fr 11:00-02:00; Sa 09:00-02:00; Su 11:00-24:00", "brand": "Main Event Entertainment", "brand:wikidata": "Q56062981"}, "geometry": {"type": "Point", "coordinates": [-106.6160521793771, 35.12737397142819]}},
{"type": "Feature", "id": "0OaFhS5PXXsj1jM63gLwtTGnPBA=", "properties": {"ref": "kansas-city-north", "@spider": "main_event", "addr:full": "8081 NW Roanridge Rd", "addr:city": "Kansas City", "addr:state": "MO", "addr:postcode": "64151", "addr:country": "US", "name": "MAIN EVENT KANSAS CITY(NORTH)", "phone": "+18162812020", "website": "https://www.mainevent.com/locations/missouri/kansas-city-north/", "opening_hours": "Mo-Th 11:00-24:00; Fr 11:00-01:30; Sa 10:00-01:30; Su 11:00-24:00", "brand": "Main Event Entertainment", "brand:wikidata": "Q56062981"}, "geometry": {"type": "Point", "coordinates": [-94.65498796874357, 39.2417979107512]}},
{"type": "Feature", "id": "hsLNiNDMMgpw1FmqoCX_mP8LnR4=", "properties": {"ref": "tucson", "@spider": "main_event", "addr:full": "4700 S. Landing Way", "addr:city": "Tucson", "addr:state": "AZ", "addr:postcode": "85714", "addr:country": "US", "name": "Main Event Tucson", "phone": "+15205033301", "website": "https://www.mainevent.com/locations/arizona/tucson/", "opening_hours": "Mo 11:00-01:00; Tu-Th 11:00-24:00; Fr-Sa 11:00-02:00; Su 11:00-24:00", "brand": "Main Event Entertainment", "brand:wikidata": "Q56062981"}, "geometry": {"type": "Point", "coordinates": [-110.987715, 32.166072]}}]}