{"type":"FeatureCollection","features":[{"type": "Feature", "id": "31gBHOEbYkZ1fP776oSRbWPSh-4=", "properties": {"ref": "8040-providence-rd", "@spider": "manhattanbagels", "amenity": "fast_food", "cuisine": "bagel", "takeaway": "yes", "addr:full": "8040 Providence Rd Ste 200", "addr:city": "Charlotte", "addr:state": "North Carolina", "addr:postcode": "28277", "addr:country": "US", "name": "Manhattan Bagel The Arboretum", "phone": "(704) 541-0833", "website": "https://locations.manhattanbagel.com/us/nc/charlotte/8040-providence-rd", "opening_hours": "Mo-Fr 06:00-03:00; Sa-Su 07:00-02:00", "brand": "Manhattan Bagel", "brand:wikidata": "Q64517333", "nsi_id": "manhattanbagel-4d2ff4"}, "geometry": {"type": "Point", "coordinates": [-80.7788431, 35.0969583]}},
{"type": "Feature", "id": "Rvpfaf-0Lby770bI8bEzcCGWcBA=", "properties": {"ref": "4610-n-university-dr", "@spider": "manhattanbagels", "amenity": "fast_food", "cuisine": "bagel", "takeaway": "yes", "addr:full": "4610 N University Dr", "addr:city": "Coral Springs", "addr:state": "Florida", "addr:postcode": "33067", "addr:country": "US", "name": "Manhattan Bagel Coral Springs", "phone": "(954) 340-3233", "website": "https://locations.manhattanbagel.com/us/fl/coral-springs/4610-n-university-dr", "opening_hours": "Mo-Su 06:00-02:00", "brand": "Manhattan Bagel", "brand:wikidata": "Q64517333", "nsi_id": "manhattanbagel-4d2ff4"}, "geometry": {"type": "Point", "coordinates": [-80.25203838944441, 26.287523338258424]}},
{"type": "Feature", "id": "ByPVV_niQwX1BpqeqaXSKr23-sY=", "properties": {"ref": "1437-richmond-rd", "@spider": "manhattanbagels", "amenity": "fast_food", "cuisine": "bagel", "takeaway": "yes", "addr:full": "1437 Richmond Rd", "addr:city": "Williamsburg", "addr:state": "Virginia", "addr:postcode": "23185", "addr:country": "US", "name": "Manhattan Bagel Williamsburg", "phone": "(757) 259-9221", "website": "https://locations.manhattanbagel.com/us/va/williamsburg/1437-richmond-rd", "opening_hours": "Mo-Su 06:30-02:00", "brand": "Manhattan Bagel", "brand:wikidata": "Q64517333", "nsi_id": "manhattanbagel-4d2ff4"}, "geometry": {"type": "Point", "coordinates": [-76.72186844050884, 37.28909002247063]}},
{"type": "Feature", "id": "IJNkJXJz7ZXDRhP-j-zF5JK5HWU=", "properties": {"ref": "310-maple-ave-w", "@spider": "manhattanbagels", "amenity": "fast_food", "cuisine": "bagel", "takeaway": "yes", "addr:full": "310 Maple Ave W", "addr:city": "Vienna", "addr:state": "Virginia", "addr:postcode": "22180", "addr:country": "US", "name": "Manhattan Bagel Vienna", "phone": "(703) 938-8100", "website": "https://locations.manhattanbagel.com/us/va/vienna/310-maple-ave-w", "opening_hours": "Mo-Su 07:00-02:00", "brand": "Manhattan Bagel", "brand:wikidata": "Q64517333", "nsi_id": "manhattanbagel-4d2ff4"}, "geometry": {"type": "Point", "coordinates": [-77.26947158575058, 38.89760452137206]}},
{"type": "Feature", "id": "yTDydypzd9wo3mIWrMRwZCawJhc=", "properties": {"ref": "5710-union-mill-rd", "@spider": "manhattanbagels", "amenity": "fast_food", "cuisine": "bagel", "takeaway": "yes", "addr:full": "5710 Union Mill Rd", "addr:city": "Clifton", "addr:state": "Virginia", "addr:postcode": "20124", "addr:country": "US", "name": "Manhattan Bagel Clifton", "phone": "(703) 830-4992", "website": "https://locations.manhattanbagel.com/us/va/clifton/5710-union-mill-rd", "opening_hours": "Mo-Su 06:00-03:00", "brand": "Manhattan Bagel", "brand:wikidata": "Q64517333", "nsi_id": "manhattanbagel-4d2ff4"}, "geometry": {"type": "Point", "coordinates": [-77.414710521698, 38.833577689407875]}},
{"type": "Feature", "id": "EZNaEJIQiTCyEe58kMFPMrzWA8A=", "properties": {"ref": "200-york-rd", "@spider": "manhattanbagels", "amenity": "fast_food", "cuisine": "bagel", "takeaway": "yes", "addr:full": "200 York Rd", "addr:city": "Willow Grove", "addr:state": "Pennsylvania", "addr:postcode": "19090", "addr:country": "US", "name": "Manhattan Bagel Willow Grove", "phone": "(215) 658-0144", "website": "https://locations.manhattanbagel.com/us/pa/willow-grove/200-york-rd", "opening_hours": "Mo-Su 07:00-02:00", "brand": "Manhattan Bagel", "brand:wikidata": "Q64517333", "nsi_id": "manhattanbagel-4d2ff4"}, "geometry": {"type": "Point", "coordinates": [-75.11629611253744, 40.1450535092953]}},
{"type": "Feature", "id": "h8GYtWIDcbJ2jDdgblEFH7rCKSc=", "properties": {"ref": "1661-easton-rd", "@spider": "manhattanbagels", "amenity": "fast_food", "cuisine": "bagel", "takeaway": "yes", "addr:full": "1661 Easton Rd Ste B6", "addr:city": "Warrington", "addr:state": "Pennsylvania", "addr:postcode": "18976", "addr:country": "US", "name": "Manhattan Bagel Warrington", "phone": "(215) 491-3333", "website": "https://locations.manhattanbagel.com/us/pa/warrington/1661-easton-rd", "opening_hours": "Mo-Su 07:00-02:00", "brand": "Manhattan Bagel", "brand:wikidata": "Q64517333", "nsi_id": "manhattanbagel-4d2ff4"}, "geometry": {"type": "Point", "coordinates": [-75.12862698280338, 40.268193881651584]}},
{"type": "Feature", "id": "TYtaXUZLsYpNIwOHpTNHpyuLoZ8=", "properties": {"ref": "722-2nd-street-pike", "@spider": "manhattanbagels", "amenity": "fast_food", "cuisine": "bagel", "takeaway": "yes", "addr:full": "722 2nd Street Pike", "addr:city": "Richboro", "addr:state": "Pennsylvania", "addr:postcode": "18954", "addr:country": "US", "name": "Manhattan Bagel Richboro", "phone": "(215) 942-2244", "website": "https://locations.manhattanbagel.com/us/pa/richboro/722-2nd-street-pike", "opening_hours": "Mo-Su 07:00-02:00", "brand": "Manhattan Bagel", "brand:wikidata": "Q64517333", "nsi_id": "manhattanbagel-4d2ff4"}, "geometry": {"type": "Point", "coordinates": [-75.01577727039148, 40.20838034888812]}},
{"type": "Feature", "id": "6iJvL8GiHEIIKtWYKhB-tXkEzBA=", "properties": {"ref": "1210-bethlehem-pike", "@spider": "manhattanbagels", "amenity": "fast_food", "cuisine": "bagel", "takeaway": "yes", "addr:full": "1210 Bethlehem Pike Ste B6", "addr:city": "North Wales", "addr:state": "Pennsylvania", "addr:postcode": "19454", "addr:country": "US", "name": "Manhattan Bagel North Wales", "phone": "(215) 619-0155", "website": "https://locations.manhattanbagel.com/us/pa/north-wales/1210-bethlehem-pike", "opening_hours": "Mo-Su 07:00-02:00", "brand": "Manhattan Bagel", "brand:wikidata": "Q64517333", "nsi_id": "manhattanbagel-4d2ff4"}, "geometry": {"type": "Point", "coordinates": [-75.22679775953293, 40.209122415942616]}},
{"type": "Feature", "id": "y_oqg4ahAymP1q8SxOX_6BYBaO0=", "properties": {"ref": "3530-w-chester-pike", "@spider": "manhattanbagels", "amenity": "fast_food", "cuisine": "bagel", "takeaway": "yes", "addr:full": "3530 W Chester Pike", "addr:city": "Newtown Square", "addr:state": "Pennsylvania", "addr:postcode": "19073", "addr:country": "US", "name": "Manhattan Bagel Newtown Square", "phone": "(610) 359-6223", "website": "https://locations.manhattanbagel.com/us/pa/newtown-square/3530-w-chester-pike", "opening_hours": "Mo-Fr 06:00-03:00; Sa-Su 07:00-02:00", "brand": "Manhattan Bagel", "brand:wikidata": "Q64517333", "nsi_id": "manhattanbagel-4d2ff4"}, "geometry": {"type": "Point", "coordinates": [-75.3961841, 39.9850436]}},
{"type": "Feature", "id": "3Cho-Lsl3iOTH-4OJg_-HRs5Oe0=", "properties": {"ref": "856-montgomery-ave", "@spider": "manhattanbagels", "amenity": "fast_food", "cuisine": "bagel", "takeaway": "yes", "addr:full": "856 Montgomery Ave", "addr:city": "Narberth", "addr:state": "Pennsylvania", "addr:postcode": "19072", "addr:country": "US", "name": "Manhattan Bagel Narberth", "phone": "(610) 668-0400", "website": "https://locations.manhattanbagel.com/us/pa/narberth/856-montgomery-ave", "opening_hours": "Mo-Sa 06:30-02:30; Su 07:00-02:30", "brand": "Manhattan Bagel", "brand:wikidata": "Q64517333", "nsi_id": "manhattanbagel-4d2ff4"}, "geometry": {"type": "Point", "coordinates": [-75.25984056674594, 40.011040253136755]}},
{"type": "Feature", "id": "FKEw168_Ul5_vQX3fV1rUBN8NWY=", "properties": {"ref": "502-e-baltimore-pike", "@spider": "manhattanbagels", "amenity": "fast_food", "cuisine": "bagel", "takeaway": "yes", "addr:full": "502 E Baltimore Pike", "addr:city": "Media", "addr:state": "Pennsylvania", "addr:postcode": "19063", "addr:country": "US", "name": "Manhattan Bagel Media", "phone": "(610) 891-7790", "website": "https://locations.manhattanbagel.com/us/pa/media/502-e-baltimore-pike", "opening_hours": "Mo-Fr 06:00-02:00; Sa-Su 07:00-02:00", "brand": "Manhattan Bagel", "brand:wikidata": "Q64517333", "nsi_id": "manhattanbagel-4d2ff4"}, "geometry": {"type": "Point", "coordinates": [-75.3800881, 39.915263]}},
{"type": "Feature", "id": "1zx8dRPZezyzicnkG_S-4Y3WQEg=", "properties": {"ref": "401-s-broad-street", "@spider": "manhattanbagels", "amenity": "fast_food", "cuisine": "bagel", "takeaway": "yes", "addr:full": "401 S Broad Street Ste B6", "addr:city": "Lansdale", "addr:state": "Pennsylvania", "addr:postcode": "19446", "addr:country": "US", "name": "Manhattan Bagel Lansdale", "phone": "(215) 647-9990", "website": "https://locations.manhattanbagel.com/us/pa/lansdale/401-s-broad-street", "opening_hours": "Mo-Th 06:00-02:00; Fr-Su 06:00-03:00", "brand": "Manhattan Bagel", "brand:wikidata": "Q64517333", "nsi_id": "manhattanbagel-4d2ff4"}, "geometry": {"type": "Point", "coordinates": [-75.28826666877268, 40.236420013493095]}},
{"type": "Feature", "id": "edB9biy6fgIrsMz3kLFGfmb6R2w=", "properties": {"ref": "108-n-flowers-mill-rd", "@spider": "manhattanbagels", "amenity": "fast_food", "cuisine": "bagel", "takeaway": "yes", "addr:full": "108 N Flowers Mill Rd", "addr:city": "Langhorne", "addr:state": "Pennsylvania", "addr:postcode": "19047", "addr:country": "US", "name": "Manhattan Bagel Langhorne", "phone": "(215) 702-0528", "website": "https://locations.manhattanbagel.com/us/pa/langhorne/108-n-flowers-mill-rd", "opening_hours": "Mo-Fr 06:00-03:00; Sa-Su 07:00-03:00", "brand": "Manhattan Bagel", "brand:wikidata": "Q64517333", "nsi_id": "manhattanbagel-4d2ff4"}, "geometry": {"type": "Point", "coordinates": [-74.90599857672112, 40.181958901588885]}},
{"type": "Feature", "id": "ras8O-Ydvie6kScwBijnultqJWU=", "properties": {"ref": "321-route-15", "@spider": "manhattanbagels", "amenity": "fast_food", "cuisine": "bagel", "takeaway": "yes", "addr:full": "321 Route 15", "addr:city": "Wharton", "addr:state": "New Jersey", "addr:postcode": "07885", "addr:country": "US", "name": "Manhattan Bagel Wharton", "phone": "(973) 328-2619", "website": "https://locations.manhattanbagel.com/us/nj/wharton/321-route-15", "opening_hours": "Mo-Su 06:00-02:30", "brand": "Manhattan Bagel", "brand:wikidata": "Q64517333", "nsi_id": "manhattanbagel-4d2ff4"}, "geometry": {"type": "Point", "coordinates": [-74.56945940852165, 40.90620200290712]}},
{"type": "Feature", "id": "JxUemfvYdWpRBApVtZvrB8YZ76E=", "properties": {"ref": "210-south-ave-w", "@spider": "manhattanbagels", "amenity": "fast_food", "cuisine": "bagel", "takeaway": "yes", "addr:full": "210 South Ave W", "addr:city": "Westfield", "addr:state": "New Jersey", "addr:postcode": "07090", "addr:country": "US", "name": "Manhattan Bagel Westfield", "phone": "(908) 654-0525", "website": "https://locations.manhattanbagel.com/us/nj/westfield/210-south-ave-w", "opening_hours": "Mo-Su 06:00-03:00", "brand": "Manhattan Bagel", "brand:wikidata": "Q64517333", "nsi_id": "manhattanbagel-4d2ff4"}, "geometry": {"type": "Point", "coordinates": [-74.34454008936876, 40.64957365849734]}},
{"type": "Feature", "id": "4s_t457cfp5Jpr00BTdbaCkXGAA=", "properties": {"ref": "581-northfield-ave", "@spider": "manhattanbagels", "amenity": "fast_food", "cuisine": "bagel", "takeaway": "yes", "addr:full": "581 Northfield Ave", "addr:city": "West Orange", "addr:state": "New Jersey", "addr:postcode": "07052", "addr:country": "US", "name": "Manhattan Bagel West Orange", "phone": "(973) 669-0160", "website": "https://locations.manhattanbagel.com/us/nj/west-orange/581-northfield-ave", "opening_hours": "Mo-Su 06:00-03:00", "brand": "Manhattan Bagel", "brand:wikidata": "Q64517333", "nsi_id": "manhattanbagel-4d2ff4"}, "geometry": {"type": "Point", "coordinates": [-74.28234779038837, 40.77001758981662]}},
{"type": "Feature", "id": "Ez6QRHHxPoQyxw8-ecmmpmLsa6M=", "properties": {"ref": "400-w-main-st", "@spider": "manhattanbagels", "amenity": "fast_food", "cuisine": "bagel", "takeaway": "yes", "addr:full": "400 W Main St Concord Plaza", "addr:city": "Middletown", "addr:state": "Delaware", "addr:postcode": "19709", "addr:country": "US", "name": "Manhattan Bagel Middletown", "phone": "(302) 378-8404", "website": "https://locations.manhattanbagel.com/us/de/middletown/400-w-main-st", "opening_hours": "Mo-Su 06:00-02:00", "brand": "Manhattan Bagel", "brand:wikidata": "Q64517333", "nsi_id": "manhattanbagel-4d2ff4"}, "geometry": {"type": "Point", "coordinates": [-75.72360954721267, 39.4489831362364]}},
{"type": "Feature", "id": "aqWHQnLy5iI10DMmJLuVuBtpwFk=", "properties": {"ref": "764-bloomfield-ave", "@spider": "manhattanbagels", "amenity": "fast_food", "cuisine": "bagel", "takeaway": "yes", "addr:full": "764 Bloomfield Ave", "addr:city": "West Caldwell", "addr:state": "New Jersey", "addr:postcode": "07006", "addr:country": "US", "name": "Manhattan Bagel West Caldwell", "phone": "(973) 808-5193", "website": "https://locations.manhattanbagel.com/us/nj/west-caldwell/764-bloomfield-ave", "opening_hours": "Mo-Su 06:00-02:00", "brand": "Manhattan Bagel", "brand:wikidata": "Q64517333", "nsi_id": "manhattanbagel-4d2ff4"}, "geometry": {"type": "Point", "coordinates": [-74.29503931779095, 40.84895878538837]}},
{"type": "Feature", "id": "lVd-T6x_yAV4l5vEfmu0FIFFTOQ=", "properties": {"ref": "163-hamburg-turnpike", "@spider": "manhattanbagels", "amenity": "fast_food", "cuisine": "bagel", "takeaway": "yes", "addr:full": "163 Hamburg Turnpike", "addr:city": "Wayne", "addr:state": "New Jersey", "addr:postcode": "07470", "addr:country": "US", "name": "Manhattan Bagel Wayne", "phone": "(973) 925-4000", "website": "https://locations.manhattanbagel.com/us/nj/wayne/163-hamburg-turnpike", "opening_hours": "Mo-Su 06:00-03:00", "brand": "Manhattan Bagel", "brand:wikidata": "Q64517333", "nsi_id": "manhattanbagel-4d2ff4"}, "geometry": {"type": "Point", "coordinates": [-74.2044147849083, 40.944271367918695]}},
{"type": "Feature", "id": "GDYCFxv7xVSRCHSZg1Y0K7kBYd8=", "properties": {"ref": "1933-route-35", "@spider": "manhattanbagels", "amenity": "fast_food", "cuisine": "bagel", "takeaway": "yes", "addr:full": "1933 Route 35", "addr:city": "Wall Township", "addr:state": "New Jersey", "addr:postcode": "07719", "addr:country": "US", "name": "Manhattan Bagel Wall", "phone": "(732) 974-3988", "website": "https://locations.manhattanbagel.com/us/nj/wall-township/1933-route-35", "opening_hours": "Mo-Su 06:00-02:00", "brand": "Manhattan Bagel", "brand:wikidata": "Q64517333", "nsi_id": "manhattanbagel-4d2ff4"}, "geometry": {"type": "Point", "coordinates": [-74.0573856, 40.1543947]}},
{"type": "Feature", "id": "Fc_d6WHqutMgglrmT9wl1e4Ptco=", "properties": {"ref": "1350-galloping-hill-rd", "@spider": "manhattanbagels", "amenity": "fast_food", "cuisine": "bagel", "takeaway": "yes", "addr:full": "1350 Galloping Hill Rd", "addr:city": "Union", "addr:state": "New Jersey", "addr:postcode": "07083", "addr:country": "US", "name": "Manhattan Bagel Union", "phone": "(908) 687-4900", "website": "https://locations.manhattanbagel.com/us/nj/union/1350-galloping-hill-rd", "opening_hours": "Mo-Su 06:00-03:00", "brand": "Manhattan Bagel", "brand:wikidata": "Q64517333", "nsi_id": "manhattanbagel-4d2ff4"}, "geometry": {"type": "Point", "coordinates": [-74.2684954404831, 40.67744344849241]}},
{"type": "Feature", "id": "TeDtFiHDmYqVFHnDsLHochFkeWE=", "properties": {"ref": "650-union-blvd", "@spider": "manhattanbagels", "amenity": "fast_food", "cuisine": "bagel", "takeaway": "yes", "addr:full": "650 Union Blvd", "addr:city": "Totowa", "addr:state": "New Jersey", "addr:postcode": "07512", "addr:country": "US", "name": "Manhattan Bagel Totowa", "phone": "(973) 785-2275", "website": "https://locations.manhattanbagel.com/us/nj/totowa/650-union-blvd", "opening_hours": "Mo-Sa 05:30-03:00; Su 06:00-03:00", "brand": "Manhattan Bagel", "brand:wikidata": "Q64517333", "nsi_id": "manhattanbagel-4d2ff4"}, "geometry": {"type": "Point", "coordinates": [-74.22139719128609, 40.89724841433122]}},
{"type": "Feature", "id": "IqwGDCpiUS9jzOhFyp-q0kr7XoA=", "properties": {"ref": "6001-ridge-ave", "@spider": "manhattanbagels", "amenity": "fast_food", "cuisine": "bagel", "takeaway": "yes", "addr:full": "6001 Ridge Ave", "addr:city": "Philadelphia", "addr:state": "Pennsylvania", "addr:postcode": "19128", "addr:country": "US", "name": "Manhattan Bagel Roxborough", "phone": "(215) 508-3633", "website": "https://locations.manhattanbagel.com/us/pa/philadelphia/6001-ridge-ave", "opening_hours": "Mo-Fr 06:00-02:00; Sa-Su 07:00-02:00", "brand": "Manhattan Bagel", "brand:wikidata": "Q64517333", "nsi_id": "manhattanbagel-4d2ff4"}, "geometry": {"type": "Point", "coordinates": [-75.21278724074364, 40.0319191924726]}},
{"type": "Feature", "id": "oYLiR_NYvApTMsl-nIRDTfpVD64=", "properties": {"ref": "13032-bustleton-ave", "@spider": "manhattanbagels", "amenity": "fast_food", "cuisine": "bagel", "takeaway": "yes", "addr:full": "13032 Bustleton Ave", "addr:city": "Philadelphia", "addr:state": "Pennsylvania", "addr:postcode": "19116", "addr:country": "US", "name": "Manhattan Bagel Trevose/Bustleton Ave", "phone": "(215) 677-6066", "website": "https://locations.manhattanbagel.com/us/pa/philadelphia/13032-bustleton-ave", "opening_hours": "Mo-Su 05:30-02:00", "brand": "Manhattan Bagel", "brand:wikidata": "Q64517333", "nsi_id": "manhattanbagel-4d2ff4"}, "geometry": {"type": "Point", "coordinates": [-75.01553624868393, 40.12461284614196]}},
{"type": "Feature", "id": "8rOBC1CSakgg1fQJAM9pHh2cEWo=", "properties": {"ref": "125-s-18th-st", "@spider": "manhattanbagels", "amenity": "fast_food", "cuisine": "bagel", "takeaway": "yes", "addr:full": "125 S 18th St", "addr:city": "Philadelphia", "addr:state": "Pennsylvania", "addr:postcode": "19103", "addr:country": "US", "name": "Manhattan Bagel Phila. - Center City", "phone": "(215) 564-4340", "website": "https://locations.manhattanbagel.com/us/pa/philadelphia/125-s-18th-st", "opening_hours": "Mo-Fr 06:00-03:00; Sa-Su 07:00-03:00", "brand": "Manhattan Bagel", "brand:wikidata": "Q64517333", "nsi_id": "manhattanbagel-4d2ff4"}, "geometry": {"type": "Point", "coordinates": [-75.17030507326126, 39.95080411908646]}},
{"type": "Feature", "id": "-tt3hBU2OsBQ2Ih4ZlonvkE8aUE=", "properties": {"ref": "25-union-pl", "@spider": "manhattanbagels", "amenity": "fast_food", "cuisine": "bagel", "takeaway": "yes", "addr:full": "25 Union Pl", "addr:city": "Summit", "addr:state": "New Jersey", "addr:postcode": "07901", "addr:country": "US", "name": "Manhattan Bagel Summit", "phone": "(908) 516-2641", "website": "https://locations.manhattanbagel.com/us/nj/summit/25-union-pl", "opening_hours": "Mo-Fr 05:30-02:30; Sa-Su 06:00-02:30", "brand": "Manhattan Bagel", "brand:wikidata": "Q64517333", "nsi_id": "manhattanbagel-4d2ff4"}, "geometry": {"type": "Point", "coordinates": [-74.35696370442201, 40.71707695579719]}},
{"type": "Feature", "id": "OCf9phiExVGlZVyC28vIeDxCWTk=", "properties": {"ref": "100-summerhill-rd", "@spider": "manhattanbagels", "amenity": "fast_food", "cuisine": "bagel", "takeaway": "yes", "addr:full": "100 Summerhill Rd", "addr:city": "Spotswood", "addr:state": "New Jersey", "addr:postcode": "08884", "addr:country": "US", "name": "Manhattan Bagel Spotswood", "phone": "(732) 251-8857", "website": "https://locations.manhattanbagel.com/us/nj/spotswood/100-summerhill-rd", "opening_hours": "Mo-Su 06:00-02:00", "brand": "Manhattan Bagel", "brand:wikidata": "Q64517333", "nsi_id": "manhattanbagel-4d2ff4"}, "geometry": {"type": "Point", "coordinates": [-74.3851635, 40.3973719]}},
{"type": "Feature", "id": "zQQAWymgouqiFKUkRDc8972jH-I=", "properties": {"ref": "881-main-st", "@spider": "manhattanbagels", "amenity": "fast_food", "cuisine": "bagel", "takeaway": "yes", "addr:full": "881 Main St", "addr:city": "Sayreville", "addr:state": "New Jersey", "addr:postcode": "08872", "addr:country": "US", "name": "Manhattan Bagel Sayreville", "phone": "(732) 525-0696", "website": "https://locations.manhattanbagel.com/us/nj/sayreville/881-main-st", "opening_hours": "Mo-Su 06:00-02:00", "brand": "Manhattan Bagel", "brand:wikidata": "Q64517333", "nsi_id": "manhattanbagel-4d2ff4"}, "geometry": {"type": "Point", "coordinates": [-74.31866012513638, 40.47624282868943]}},
{"type": "Feature", "id": "t4J1OA0BfAIZ2u7PWt1CwG-kKUk=", "properties": {"ref": "29-eisenhower-pkwy", "@spider": "manhattanbagels", "amenity": "fast_food", "cuisine": "bagel", "takeaway": "yes", "addr:full": "29 Eisenhower Pkwy", "addr:city": "Roseland", "addr:state": "New Jersey", "addr:postcode": "07068", "addr:country": "US", "name": "Manhattan Bagel Eagle Rock Commons", "phone": "(973) 226-4440", "website": "https://locations.manhattanbagel.com/us/nj/roseland/29-eisenhower-pkwy", "opening_hours": "Mo-Su 06:00-02:30", "brand": "Manhattan Bagel", "brand:wikidata": "Q64517333", "nsi_id": "manhattanbagel-4d2ff4"}, "geometry": {"type": "Point", "coordinates": [-74.32777494192129, 40.82195510636311]}},
{"type": "Feature", "id": "Jw9KiMIAcgumnqgJIDzxbgDMIdE=", "properties": {"ref": "500-memorial-pkwy", "@spider": "manhattanbagels", "amenity": "fast_food", "cuisine": "bagel", "takeaway": "yes", "addr:full": "500 Memorial Pkwy Ste B6", "addr:city": "Phillipsburg", "addr:state": "New Jersey", "addr:postcode": "08865", "addr:country": "US", "name": "Manhattan Bagel Phillipsburg", "phone": "(908) 454-5623", "website": "https://locations.manhattanbagel.com/us/nj/phillipsburg/500-memorial-pkwy", "opening_hours": "Mo-Sa 05:00-02:00; Su 05:30-02:00", "brand": "Manhattan Bagel", "brand:wikidata": "Q64517333", "nsi_id": "manhattanbagel-4d2ff4"}, "geometry": {"type": "Point", "coordinates": [-75.18587797880173, 40.695924309785035]}},
{"type": "Feature", "id": "_ewgIhaVmzfKL0LoBpe0fmWTzpc=", "properties": {"ref": "807-deal-ave", "@spider": "manhattanbagels", "amenity": "fast_food", "cuisine": "bagel", "takeaway": "yes", "addr:full": "807 Deal Ave.", "addr:city": "Ocean", "addr:state": "New Jersey", "addr:postcode": "07712", "addr:country": "US", "name": "Manhattan Bagel ", "phone": "(732) 493-0693", "website": "https://locations.manhattanbagel.com/us/nj/ocean/807-deal-ave", "opening_hours": "Mo-Fr 05:00-10:00; Sa 05:00-08:00; Su 05:00-10:00", "brand": "Manhattan Bagel", "brand:wikidata": "Q64517333", "nsi_id": "manhattanbagel-4d2ff4"}, "geometry": {"type": "Point", "coordinates": [-74.041217, 40.251934]}},
{"type": "Feature", "id": "hArf6NNf0VwO6n2KSLvh6AiqSkA=", "properties": {"ref": "3505-silverside-road", "@spider": "manhattanbagels", "amenity": "fast_food", "cuisine": "bagel", "takeaway": "yes", "addr:full": "3505 Silverside Road Concord Plaza", "addr:city": "Wilmington", "addr:state": "Delaware", "addr:postcode": "19810", "addr:country": "US", "name": "Manhattan Bagel Wilmington", "phone": "(302) 543-7498", "website": "https://locations.manhattanbagel.com/us/de/wilmington/3505-silverside-road", "opening_hours": "Mo-Fr 06:00-03:00; Sa 06:00-02:00", "brand": "Manhattan Bagel", "brand:wikidata": "Q64517333", "nsi_id": "manhattanbagel-4d2ff4"}, "geometry": {"type": "Point", "coordinates": [-75.5433494, 39.8104301]}},
{"type": "Feature", "id": "hy39pyYjAfCwbya9rNLlgb-O508=", "properties": {"ref": "3209b-concord-pike", "@spider": "manhattanbagels", "amenity": "fast_food", "cuisine": "bagel", "takeaway": "yes", "addr:full": "3209B Concord Pike Concord Plaza", "addr:city": "Wilmington", "addr:state": "Delaware", "addr:postcode": "19803", "addr:country": "US", "name": "Manhattan Bagel Wilmington DE", "phone": "(302) 477-0700", "website": "https://locations.manhattanbagel.com/us/de/wilmington/3209b-concord-pike", "opening_hours": "Mo-Su 06:00-12:00", "brand": "Manhattan Bagel", "brand:wikidata": "Q64517333", "nsi_id": "manhattanbagel-4d2ff4"}, "geometry": {"type": "Point", "coordinates": [-75.54760470986366, 39.80078422473933]}},
{"type": "Feature", "id": "hnpeDzn5o22gmSK_-TTZrrFWS50=", "properties": {"ref": "1205-tilton-rd", "@spider": "manhattanbagels", "amenity": "fast_food", "cuisine": "bagel", "takeaway": "yes", "addr:full": "1205 Tilton Rd", "addr:city": "Northfield", "addr:state": "New Jersey", "addr:postcode": "08225", "addr:country": "US", "name": "Manhattan Bagel Northfield", "phone": "(609) 646-3604", "website": "https://locations.manhattanbagel.com/us/nj/northfield/1205-tilton-rd", "opening_hours": "Mo-Sa 06:00-03:00; Su 06:00-02:00", "brand": "Manhattan Bagel", "brand:wikidata": "Q64517333", "nsi_id": "manhattanbagel-4d2ff4"}, "geometry": {"type": "Point", "coordinates": [-74.55444633045772, 39.37373858722239]}},
{"type": "Feature", "id": "jP3lcLQobiZ5YO70kVML4-c1do4=", "properties": {"ref": "13-w-camden-ave", "@spider": "manhattanbagels", "amenity": "fast_food", "cuisine": "bagel", "takeaway": "yes", "addr:full": "13 W Camden Ave", "addr:city": "Moorestown", "addr:state": "New Jersey", "addr:postcode": "08057", "addr:country": "US", "name": "Manhattan Bagel Moorestown", "phone": "(856) 802-1083", "website": "https://locations.manhattanbagel.com/us/nj/moorestown/13-w-camden-ave", "opening_hours": "Mo-Fr 06:00-02:00; Sa-Su 07:00-02:00", "brand": "Manhattan Bagel", "brand:wikidata": "Q64517333", "nsi_id": "manhattanbagel-4d2ff4"}, "geometry": {"type": "Point", "coordinates": [-74.980367, 39.957878]}},
{"type": "Feature", "id": "KXRpbGllJ1bd2SQrTlcSO4d_kj0=", "properties": {"ref": "2300-wrangleboro-rd", "@spider": "manhattanbagels", "amenity": "fast_food", "cuisine": "bagel", "takeaway": "yes", "addr:full": "2300 Wrangleboro Rd", "addr:city": "Mays Landing", "addr:state": "New Jersey", "addr:postcode": "08330", "addr:country": "US", "name": "Manhattan Bagel Mays Landing", "phone": "(609) 484-1366", "website": "https://locations.manhattanbagel.com/us/nj/mays-landing/2300-wrangleboro-rd", "opening_hours": "Mo-Su 07:00-06:00", "brand": "Manhattan Bagel", "brand:wikidata": "Q64517333", "nsi_id": "manhattanbagel-4d2ff4"}, "geometry": {"type": "Point", "coordinates": [-74.6333273, 39.4516997]}},
{"type": "Feature", "id": "G2Llud_s26oEhRe2SLYtrSkXRLA=", "properties": {"ref": "297-route-72-w", "@spider": "manhattanbagels", "amenity": "fast_food", "cuisine": "bagel", "takeaway": "yes", "addr:full": "297 Route 72 W", "addr:city": "Manahawkin", "addr:state": "New Jersey", "addr:postcode": "08050", "addr:country": "US", "name": "Manhattan Bagel Lowes Shopping Center", "phone": "(609) 978-1788", "website": "https://locations.manhattanbagel.com/us/nj/manahawkin/297-route-72-w", "opening_hours": "Tu-Su 07:00-02:00", "brand": "Manhattan Bagel", "brand:wikidata": "Q64517333", "nsi_id": "manhattanbagel-4d2ff4"}, "geometry": {"type": "Point", "coordinates": [-74.270279109478, 39.69706456711317]}},
{"type": "Feature", "id": "TeV36ySGF5IiED8E52Du8z0Qzsg=", "properties": {"ref": "2495-us-highway-1", "@spider": "manhattanbagels", "amenity": "fast_food", "cuisine": "bagel", "takeaway": "yes", "addr:full": "2495 US Highway 1", "addr:city": "Lawrenceville", "addr:state": "New Jersey", "addr:postcode": "08648", "addr:country": "US", "name": "Manhattan Bagel Lawrenceville", "phone": "(609) 406-9800", "website": "https://locations.manhattanbagel.com/us/nj/lawrenceville/2495-us-highway-1", "opening_hours": "Mo-Fr 06:00-02:00; Sa-Su 07:00-02:00", "brand": "Manhattan Bagel", "brand:wikidata": "Q64517333", "nsi_id": "manhattanbagel-4d2ff4"}, "geometry": {"type": "Point", "coordinates": [-74.72895562698363, 40.258861468812604]}},
{"type": "Feature", "id": "IDLgwEGIBWij-zmHpIyC1srH89g=", "properties": {"ref": "562-park-ave", "@spider": "manhattanbagels", "amenity": "fast_food", "cuisine": "bagel", "takeaway": "yes", "addr:full": "562 Park Ave", "addr:city": "Freehold", "addr:state": "New Jersey", "addr:postcode": "07728", "addr:country": "US", "name": "Manhattan Bagel Freehold", "phone": "(732) 294-9500", "website": "https://locations.manhattanbagel.com/us/nj/freehold/562-park-ave", "opening_hours": "Mo-Su 06:00-02:00", "brand": "Manhattan Bagel", "brand:wikidata": "Q64517333", "nsi_id": "manhattanbagel-4d2ff4"}, "geometry": {"type": "Point", "coordinates": [-74.27162021398544, 40.24941854784276]}},
{"type": "Feature", "id": "XgEpDcrZ7SCa7a_rfUJxnUIRBLs=", "properties": {"ref": "336-lacey-rd", "@spider": "manhattanbagels", "amenity": "fast_food", "cuisine": "bagel", "takeaway": "yes", "addr:full": "336 Lacey Rd", "addr:city": "Forked River", "addr:state": "New Jersey", "addr:postcode": "08731", "addr:country": "US", "name": "Manhattan Bagel Forked River", "phone": "(609) 242-1616", "website": "https://locations.manhattanbagel.com/us/nj/forked-river/336-lacey-rd", "opening_hours": "Mo-Su 05:30-02:30", "brand": "Manhattan Bagel", "brand:wikidata": "Q64517333", "nsi_id": "manhattanbagel-4d2ff4"}, "geometry": {"type": "Point", "coordinates": [-74.19607579708094, 39.847718580319736]}},
{"type": "Feature", "id": "ExsFTa_i8_57xfyTQKRHCIW-oqI=", "properties": {"ref": "435-hollywood-ave", "@spider": "manhattanbagels", "amenity": "fast_food", "cuisine": "bagel", "takeaway": "yes", "addr:full": "435 Hollywood Ave", "addr:city": "Fairfield", "addr:state": "New Jersey", "addr:postcode": "07004", "addr:country": "US", "name": "Manhattan Bagel Fairfield", "phone": "(973) 227-2228", "website": "https://locations.manhattanbagel.com/us/nj/fairfield/435-hollywood-ave", "opening_hours": "Mo-Su 05:00-02:30", "brand": "Manhattan Bagel", "brand:wikidata": "Q64517333", "nsi_id": "manhattanbagel-4d2ff4"}, "geometry": {"type": "Point", "coordinates": [-74.289691, 40.8807718]}},
{"type": "Feature", "id": "_bGf7cEPFQDnzuQzJCywsvtQ03M=", "properties": {"ref": "860-fischer-blvd", "@spider": "manhattanbagels", "amenity": "fast_food", "cuisine": "bagel", "takeaway": "yes", "addr:full": "860 Fischer Blvd", "addr:city": "Toms River", "addr:state": "New Jersey", "addr:postcode": "08753", "addr:country": "US", "name": "Manhattan Bagel Toms River-Fischer Blvd", "phone": "(732) 929-3998", "website": "https://locations.manhattanbagel.com/us/nj/toms-river/860-fischer-blvd", "opening_hours": "Mo-Fr 06:00-03:00; Sa-Su 06:00-02:00", "brand": "Manhattan Bagel", "brand:wikidata": "Q64517333", "nsi_id": "manhattanbagel-4d2ff4"}, "geometry": {"type": "Point", "coordinates": [-74.13683992394249, 39.972059499788934]}},
{"type": "Feature", "id": "YfMbFuFYTVX3bWcsoaqV19bEHZU=", "properties": {"ref": "1822a-hooper-ave", "@spider": "manhattanbagels", "amenity": "fast_food", "cuisine": "bagel", "takeaway": "yes", "addr:full": "1822A Hooper Ave", "addr:city": "Toms River", "addr:state": "New Jersey", "addr:postcode": "08753", "addr:country": "US", "name": "Manhattan Bagel Silverton", "phone": "(732) 864-0200", "website": "https://locations.manhattanbagel.com/us/nj/toms-river/1822a-hooper-ave", "opening_hours": "Mo-Fr 06:00-03:00; Sa-Su 06:00-02:00", "brand": "Manhattan Bagel", "brand:wikidata": "Q64517333", "nsi_id": "manhattanbagel-4d2ff4"}, "geometry": {"type": "Point", "coordinates": [-74.1476089, 40.0107691]}},
{"type": "Feature", "id": "hDIn0TjPpWw_WCKiTg7tjhL9xRM=", "properties": {"ref": "14-route-37-e", "@spider": "manhattanbagels", "amenity": "fast_food", "cuisine": "bagel", "takeaway": "yes", "addr:full": "14 Route 37 E", "addr:city": "Toms River", "addr:state": "New Jersey", "addr:postcode": "08753", "addr:country": "US", "name": "Manhattan Bagel Toms River - RT 37", "phone": "(732) 240-0177", "website": "https://locations.manhattanbagel.com/us/nj/toms-river/14-route-37-e", "opening_hours": "Mo-Su 06:00-02:00", "brand": "Manhattan Bagel", "brand:wikidata": "Q64517333", "nsi_id": "manhattanbagel-4d2ff4"}, "geometry": {"type": "Point", "coordinates": [-74.19890150427818, 39.96418848193625]}},
{"type": "Feature", "id": "ZUSE1EAbsRoSHkC2Ze3nWmI8C8w=", "properties": {"ref": "14-w-palisade-ave", "@spider": "manhattanbagels", "amenity": "fast_food", "cuisine": "bagel", "takeaway": "yes", "addr:full": "14 W Palisade Ave", "addr:city": "Englewood", "addr:state": "New Jersey", "addr:postcode": "07631", "addr:country": "US", "name": "Manhattan Bagel Englewood", "phone": "(201) 816-0008", "website": "https://locations.manhattanbagel.com/us/nj/englewood/14-w-palisade-ave", "opening_hours": "Mo-Su 07:00-08:00", "brand": "Manhattan Bagel", "brand:wikidata": "Q64517333", "nsi_id": "manhattanbagel-4d2ff4"}, "geometry": {"type": "Point", "coordinates": [-73.97593847949787, 40.89432829232447]}},
{"type": "Feature", "id": "eqvA36NBEvg4slMpXqrhJZfH72Q=", "properties": {"ref": "445-market-st", "@spider": "manhattanbagels", "amenity": "fast_food", "cuisine": "bagel", "takeaway": "yes", "addr:full": "445 Market St", "addr:city": "Elmwood Park", "addr:state": "New Jersey", "addr:postcode": "07407", "addr:country": "US", "name": "Manhattan Bagel Elmwood Park", "phone": "(201) 475-1115", "website": "https://locations.manhattanbagel.com/us/nj/elmwood-park/445-market-st", "opening_hours": "Mo-Su 06:00-02:00", "brand": "Manhattan Bagel", "brand:wikidata": "Q64517333", "nsi_id": "manhattanbagel-4d2ff4"}, "geometry": {"type": "Point", "coordinates": [-74.1113807, 40.899295]}},
{"type": "Feature", "id": "pufe_M7PVygszoIfii7rjDgC6KA=", "properties": {"ref": "1199-amboy-ave", "@spider": "manhattanbagels", "amenity": "fast_food", "cuisine": "bagel", "takeaway": "yes", "addr:full": "1199 Amboy Ave", "addr:city": "Edison", "addr:state": "New Jersey", "addr:postcode": "08837", "addr:country": "US", "name": "Manhattan Bagel Edison", "phone": "(732) 549-9010", "website": "https://locations.manhattanbagel.com/us/nj/edison/1199-amboy-ave", "opening_hours": "Mo-Fr 06:00-03:00; Sa-Su 06:00-02:00", "brand": "Manhattan Bagel", "brand:wikidata": "Q64517333", "nsi_id": "manhattanbagel-4d2ff4"}, "geometry": {"type": "Point", "coordinates": [-74.346282184124, 40.53572252966922]}},
{"type": "Feature", "id": "HMXSjlCZ3f8q0cVRYAwlpy2lDDo=", "properties": {"ref": "190-barclay-farm", "@spider": "manhattanbagels", "amenity": "fast_food", "cuisine": "bagel", "takeaway": "yes", "addr:full": "190 Barclay Farm", "addr:city": "Cherry Hill", "addr:state": "New Jersey", "addr:postcode": "08034", "addr:country": "US", "name": "Manhattan Bagel Cherry Hill", "phone": "(856) 795-4944", "website": "https://locations.manhattanbagel.com/us/nj/cherry-hill/190-barclay-farm", "opening_hours": "Mo-Sa 06:00-03:00; Su 07:00-02:00", "brand": "Manhattan Bagel", "brand:wikidata": "Q64517333", "nsi_id": "manhattanbagel-4d2ff4"}, "geometry": {"type": "Point", "coordinates": [-74.994559, 39.910294]}},
{"type": "Feature", "id": "umnrdwGsCH4Paf2KlHBM-kEwaiM=", "properties": {"ref": "702-route-70", "@spider": "manhattanbagels", "amenity": "fast_food", "cuisine": "bagel", "takeaway": "yes", "addr:full": "702 Route 70", "addr:city": "Brick", "addr:state": "New Jersey", "addr:postcode": "08723", "addr:country": "US", "name": "Manhattan Bagel Brick (Rt. 70)", "phone": "(732) 477-7443", "website": "https://locations.manhattanbagel.com/us/nj/brick/702-route-70", "opening_hours": "Mo-Su 06:00-04:00", "brand": "Manhattan Bagel", "brand:wikidata": "Q64517333", "nsi_id": "manhattanbagel-4d2ff4"}, "geometry": {"type": "Point", "coordinates": [-74.14328648708766, 40.06244612448361]}},
{"type": "Feature", "id": "NVAJsduI23Dsdhkk-tzy4eAY4Fk=", "properties": {"ref": "333-atlantic-city-blvd", "@spider": "manhattanbagels", "amenity": "fast_food", "cuisine": "bagel", "takeaway": "yes", "addr:full": "333 Atlantic City Blvd", "addr:city": "Bayville", "addr:state": "New Jersey", "addr:postcode": "08721", "addr:country": "US", "name": "Manhattan Bagel Bayville", "phone": "(732) 237-0055", "website": "https://locations.manhattanbagel.com/us/nj/bayville/333-atlantic-city-blvd", "opening_hours": "Mo-Su 06:00-02:00", "brand": "Manhattan Bagel", "brand:wikidata": "Q64517333", "nsi_id": "manhattanbagel-4d2ff4"}, "geometry": {"type": "Point", "coordinates": [-74.1615, 39.920698]}},
{"type": "Feature", "id": "90S_-XrU6756JtmJNyqyVlQ1Rqo=", "properties": {"ref": "709-broadway", "@spider": "manhattanbagels", "amenity": "fast_food", "cuisine": "bagel", "takeaway": "yes", "addr:full": "709 Broadway", "addr:city": "Bayonne", "addr:state": "New Jersey", "addr:postcode": "07002", "addr:country": "US", "name": "Manhattan Bagel Bayonne", "phone": "(201) 354-9100", "website": "https://locations.manhattanbagel.com/us/nj/bayonne/709-broadway", "opening_hours": "Mo-Su 05:00-02:00", "brand": "Manhattan Bagel", "brand:wikidata": "Q64517333", "nsi_id": "manhattanbagel-4d2ff4"}, "geometry": {"type": "Point", "coordinates": [-74.1121433583794, 40.67147080727416]}},
{"type": "Feature", "id": "jSjeQyYi_dRJfrie3D8O2pU4dIg=", "properties": {"ref": "1345-w-chester-pike", "@spider": "manhattanbagels", "amenity": "fast_food", "cuisine": "bagel", "takeaway": "yes", "addr:full": "1345 W Chester Pike", "addr:city": "Havertown", "addr:state": "Pennsylvania", "addr:postcode": "19083", "addr:country": "US", "name": "Manhattan Bagel Havertown", "phone": "(610) 789-9230", "website": "https://locations.manhattanbagel.com/us/pa/havertown/1345-w-chester-pike", "opening_hours": "Mo-Fr 06:00-03:00; Sa-Su 07:00-03:00", "brand": "Manhattan Bagel", "brand:wikidata": "Q64517333", "nsi_id": "manhattanbagel-4d2ff4"}, "geometry": {"type": "Point", "coordinates": [-75.32216922453688, 39.97425411093178]}},
{"type": "Feature", "id": "4DEnMMu2XxIUMF7Pm9hD5mca8Nw=", "properties": {"ref": "477-e-county-line-rd", "@spider": "manhattanbagels", "amenity": "fast_food", "cuisine": "bagel", "takeaway": "yes", "addr:full": "477 E County Line Rd", "addr:city": "Hatboro", "addr:state": "Pennsylvania", "addr:postcode": "19040", "addr:country": "US", "name": "Manhattan Bagel Hatboro", "phone": "(215) 773-8232", "website": "https://locations.manhattanbagel.com/us/pa/hatboro/477-e-county-line-rd", "opening_hours": "Mo-Fr 05:30-02:00; Sa 06:00-02:00; Su 07:00-02:00", "brand": "Manhattan Bagel", "brand:wikidata": "Q64517333", "nsi_id": "manhattanbagel-4d2ff4"}, "geometry": {"type": "Point", "coordinates": [-75.08120074868208, 40.177735943969665]}},
{"type": "Feature", "id": "79yZQdX2OI8_pXT4y80KeWeNkyM=", "properties": {"ref": "4-s-macdade-blvd", "@spider": "manhattanbagels", "amenity": "fast_food", "cuisine": "bagel", "takeaway": "yes", "addr:full": "4 S Macdade Blvd", "addr:city": "Glenolden", "addr:state": "Pennsylvania", "addr:postcode": "19036", "addr:country": "US", "name": "Manhattan Bagel Glendolen", "phone": "(610) 237-0586", "website": "https://locations.manhattanbagel.com/us/pa/glenolden/4-s-macdade-blvd", "opening_hours": "Mo-Sa 06:00-02:00; Su 07:00-02:00", "brand": "Manhattan Bagel", "brand:wikidata": "Q64517333", "nsi_id": "manhattanbagel-4d2ff4"}, "geometry": {"type": "Point", "coordinates": [-75.29278010129929, 39.90512131992228]}},
{"type": "Feature", "id": "d2Hu76mGKSxqFkV_iPt2Gj0SxA8=", "properties": {"ref": "313-e-street-rd", "@spider": "manhattanbagels", "amenity": "fast_food", "cuisine": "bagel", "takeaway": "yes", "addr:full": "313 E Street Rd", "addr:city": "Feasterville Trevose", "addr:state": "Pennsylvania", "addr:postcode": "19053", "addr:country": "US", "name": "Manhattan Bagel Feasterville", "phone": "(215) 942-9505", "website": "https://locations.manhattanbagel.com/us/pa/feasterville-trevose/313-e-street-rd", "opening_hours": "Mo-Fr 05:30-02:00; Sa-Su 06:00-02:00", "brand": "Manhattan Bagel", "brand:wikidata": "Q64517333", "nsi_id": "manhattanbagel-4d2ff4"}, "geometry": {"type": "Point", "coordinates": [-74.99456137418741, 40.14552918185073]}},
{"type": "Feature", "id": "aogsWER97s3iqNgDjK66NtYfhXY=", "properties": {"ref": "1456-ferry-rd", "@spider": "manhattanbagels", "amenity": "fast_food", "cuisine": "bagel", "takeaway": "yes", "addr:full": "1456 Ferry Rd Ste B6", "addr:city": "Doylestown", "addr:state": "Pennsylvania", "addr:postcode": "18901", "addr:country": "US", "name": "Manhattan Bagel Doylestown", "phone": "(215) 348-1669", "website": "https://locations.manhattanbagel.com/us/pa/doylestown/1456-ferry-rd", "opening_hours": "Mo-Su 07:00-02:00", "brand": "Manhattan Bagel", "brand:wikidata": "Q64517333", "nsi_id": "manhattanbagel-4d2ff4"}, "geometry": {"type": "Point", "coordinates": [-75.15227928757668, 40.34148753886073]}},
{"type": "Feature", "id": "wv_fdaNd1inA3sVlHId35-0fHlM=", "properties": {"ref": "500-chesterbrook-blvd", "@spider": "manhattanbagels", "amenity": "fast_food", "cuisine": "bagel", "takeaway": "yes", "addr:full": "500 Chesterbrook Blvd", "addr:city": "Chesterbrook", "addr:state": "Pennsylvania", "addr:postcode": "19087", "addr:country": "US", "name": "Manhattan Bagel Chesterbrook", "phone": "(610) 251-0600", "website": "https://locations.manhattanbagel.com/us/pa/chesterbrook/500-chesterbrook-blvd", "opening_hours": "Mo-Su 07:00-01:00", "brand": "Manhattan Bagel", "brand:wikidata": "Q64517333", "nsi_id": "manhattanbagel-4d2ff4"}, "geometry": {"type": "Point", "coordinates": [-75.4563074, 40.073965]}},
{"type": "Feature", "id": "GwzvP7ahQKomLSFFA3wJZ9XeEy8=", "properties": {"ref": "487-east-uwchlan-ave", "@spider": "manhattanbagels", "amenity": "fast_food", "cuisine": "bagel", "takeaway": "yes", "addr:full": "487 East Uwchlan Ave", "addr:city": "Chester Springs", "addr:state": "Pennsylvania", "addr:postcode": "19425", "addr:country": "US", "name": "Manhattan Bagel Chester Springs", "phone": "(484) 874-2133", "website": "https://locations.manhattanbagel.com/us/pa/chester-springs/487-east-uwchlan-ave", "opening_hours": "Mo-Fr 06:00-02:00; Sa-Su 07:00-02:00", "brand": "Manhattan Bagel", "brand:wikidata": "Q64517333", "nsi_id": "manhattanbagel-4d2ff4"}, "geometry": {"type": "Point", "coordinates": [-75.64878358895487, 40.067171527416484]}},
{"type": "Feature", "id": "bRhYKwLfSuzqgEpMyhAXhhbX4CM=", "properties": {"ref": "5-e-butler-ave", "@spider": "manhattanbagels", "amenity": "fast_food", "cuisine": "bagel", "takeaway": "yes", "addr:full": "5 E Butler Ave Ste B6", "addr:city": "Chalfont", "addr:state": "Pennsylvania", "addr:postcode": "18914", "addr:country": "US", "name": "Manhattan Bagel Chalfont", "phone": "(215) 997-8100", "website": "https://locations.manhattanbagel.com/us/pa/chalfont/5-e-butler-ave", "opening_hours": "Mo-Su 06:00-02:00", "brand": "Manhattan Bagel", "brand:wikidata": "Q64517333", "nsi_id": "manhattanbagel-4d2ff4"}, "geometry": {"type": "Point", "coordinates": [-75.20777821540827, 40.28610201466019]}},
{"type": "Feature", "id": "uUUrbodbeQTGBLN1Ykz2LrOaLtU=", "properties": {"ref": "3058-w-tilghman-st", "@spider": "manhattanbagels", "amenity": "fast_food", "cuisine": "bagel", "takeaway": "yes", "addr:full": "3058 W Tilghman St", "addr:city": "Allentown", "addr:state": "Pennsylvania", "addr:postcode": "18104", "addr:country": "US", "name": "Manhattan Bagel Allentown", "phone": "(610) 433-8555", "website": "https://locations.manhattanbagel.com/us/pa/allentown/3058-w-tilghman-st", "opening_hours": "Mo-Su 06:00-02:00", "brand": "Manhattan Bagel", "brand:wikidata": "Q64517333", "nsi_id": "manhattanbagel-4d2ff4"}, "geometry": {"type": "Point", "coordinates": [-75.5245442, 40.5968154]}}]}