{"type":"FeatureCollection","features":[{"type": "Feature", "id": "mVlLIR2qLO_8-PWE7RLndQaUTdg=", "properties": {"ref": "https://www.matalan.co.uk/stores/sunderland", "@spider": "matalan_gb", "shop": "clothes", "addr:street_address": "Pallions Retail Park", "addr:city": "Sunderland", "addr:postcode": "SR4 6TY", "addr:country": "GB", "name": "Matalan", "phone": "0333 0044444", "website": "https://www.matalan.co.uk/stores/sunderland", "contact:twitter": "@Matalan", "image": "https://matalan-assets.imgix.net/assets/matalan-logo-responsive-0f1c895c6ec9b0b427bf3614e1d03352e41e2e501608cabb0d042b5d22282259.svg", "brand": "Matalan", "brand:wikidata": "Q12061509", "nsi_id": "matalan-1132a1"}, "geometry": {"type": "Point", "coordinates": [-1.417365, 54.913823]}},
{"type": "Feature", "id": "eFblgJHXgU7Za4QLpjQ3nPzhiVg=", "properties": {"ref": "https://www.matalan.co.uk/stores/swansea", "@spider": "matalan_gb", "shop": "clothes", "addr:street_address": "Foundry Road, Morriston", "addr:city": "Swansea", "addr:postcode": "SA6 8DU", "addr:country": "GB", "name": "Matalan", "phone": "0333 0044444", "website": "https://www.matalan.co.uk/stores/swansea", "contact:twitter": "@Matalan", "image": "https://matalan-assets.imgix.net/assets/matalan-logo-responsive-0f1c895c6ec9b0b427bf3614e1d03352e41e2e501608cabb0d042b5d22282259.svg", "brand": "Matalan", "brand:wikidata": "Q12061509", "nsi_id": "matalan-1132a1"}, "geometry": {"type": "Point", "coordinates": [-3.920203, 51.665497]}},
{"type": "Feature", "id": "vB7lFIZIGcGWLG-wu-F9it9KWNM=", "properties": {"ref": "https://www.matalan.co.uk/stores/swansea-carmarthen-road", "@spider": "matalan_gb", "shop": "clothes", "addr:street_address": "Carmarthen Road", "addr:city": "Swansea", "addr:postcode": "SA5 8LJ", "addr:country": "GB", "name": "Matalan", "phone": "0333 0044444", "website": "https://www.matalan.co.uk/stores/swansea-carmarthen-road", "contact:twitter": "@Matalan", "image": "https://matalan-assets.imgix.net/assets/matalan-logo-responsive-0f1c895c6ec9b0b427bf3614e1d03352e41e2e501608cabb0d042b5d22282259.svg", "brand": "Matalan", "brand:wikidata": "Q12061509", "nsi_id": "matalan-1132a1"}, "geometry": {"type": "Point", "coordinates": [-3.961749, 51.635635]}},
{"type": "Feature", "id": "mpl5hpOS9GBkGurgK7RuKnCLPQM=", "properties": {"ref": "https://www.matalan.co.uk/stores/swindon", "@spider": "matalan_gb", "shop": "clothes", "addr:street_address": "Greenbridge Retail Park", "addr:city": "Swindon", "addr:postcode": "SN3 3SG", "addr:country": "GB", "name": "Matalan", "phone": "0333 0044444", "website": "https://www.matalan.co.uk/stores/swindon", "contact:twitter": "@Matalan", "image": "https://matalan-assets.imgix.net/assets/matalan-logo-responsive-0f1c895c6ec9b0b427bf3614e1d03352e41e2e501608cabb0d042b5d22282259.svg", "brand": "Matalan", "brand:wikidata": "Q12061509", "nsi_id": "matalan-1132a1"}, "geometry": {"type": "Point", "coordinates": [-1.754209, 51.572666]}},
{"type": "Feature", "id": "ckbUWzgdFltI28tbPdzqAWLXkR4=", "properties": {"ref": "https://www.matalan.co.uk/stores/swinton", "@spider": "matalan_gb", "shop": "clothes", "addr:street_address": "Westover Street", "addr:city": "Manchester", "addr:postcode": "M27 6GF", "addr:country": "GB", "name": "Matalan", "phone": "0333 0044444", "website": "https://www.matalan.co.uk/stores/swinton", "contact:twitter": "@Matalan", "image": "https://matalan-assets.imgix.net/assets/matalan-logo-responsive-0f1c895c6ec9b0b427bf3614e1d03352e41e2e501608cabb0d042b5d22282259.svg", "brand": "Matalan", "brand:wikidata": "Q12061509", "nsi_id": "matalan-1132a1"}, "geometry": {"type": "Point", "coordinates": [-2.338926, 53.514339]}},
{"type": "Feature", "id": "3rS_LHW8xrYVWwhM8dprtL0FoFg=", "properties": {"ref": "https://www.matalan.co.uk/stores/tamworth", "@spider": "matalan_gb", "shop": "clothes", "addr:street_address": "Unit 6 Ventura Shop Cntr", "addr:city": "Tamworth", "addr:postcode": "B78 3HB", "addr:country": "GB", "name": "Matalan", "phone": "0333 0044444", "website": "https://www.matalan.co.uk/stores/tamworth", "contact:twitter": "@Matalan", "image": "https://matalan-assets.imgix.net/assets/matalan-logo-responsive-0f1c895c6ec9b0b427bf3614e1d03352e41e2e501608cabb0d042b5d22282259.svg", "brand": "Matalan", "brand:wikidata": "Q12061509", "nsi_id": "matalan-1132a1"}, "geometry": {"type": "Point", "coordinates": [-1.702758, 52.626732]}},
{"type": "Feature", "id": "JmVhu416Wo-MJo2-jlsyhDgjBJU=", "properties": {"ref": "https://www.matalan.co.uk/stores/taunton", "@spider": "matalan_gb", "shop": "clothes", "addr:street_address": "Bindon Road", "addr:city": "Taunton", "addr:postcode": "TA2 6AA", "addr:country": "GB", "name": "Matalan", "phone": "0333 0044444", "website": "https://www.matalan.co.uk/stores/taunton", "contact:twitter": "@Matalan", "image": "https://matalan-assets.imgix.net/assets/matalan-logo-responsive-0f1c895c6ec9b0b427bf3614e1d03352e41e2e501608cabb0d042b5d22282259.svg", "brand": "Matalan", "brand:wikidata": "Q12061509", "nsi_id": "matalan-1132a1"}, "geometry": {"type": "Point", "coordinates": [-3.122037, 51.025553]}},
{"type": "Feature", "id": "qRcq8aMWOQZi0swjAIxbUVHNetg=", "properties": {"ref": "https://www.matalan.co.uk/stores/telford", "@spider": "matalan_gb", "shop": "clothes", "addr:street_address": "Unit J", "addr:city": "Telford", "addr:postcode": "TF1 2DE", "addr:country": "GB", "name": "Matalan", "phone": "0333 0044444", "website": "https://www.matalan.co.uk/stores/telford", "contact:twitter": "@Matalan", "image": "https://matalan-assets.imgix.net/assets/matalan-logo-responsive-0f1c895c6ec9b0b427bf3614e1d03352e41e2e501608cabb0d042b5d22282259.svg", "brand": "Matalan", "brand:wikidata": "Q12061509", "nsi_id": "matalan-1132a1"}, "geometry": {"type": "Point", "coordinates": [-2.491271, 52.691506]}},
{"type": "Feature", "id": "hNYszoQV9VBC7GD3QLzekzj1AQY=", "properties": {"ref": "https://www.matalan.co.uk/stores/thanet", "@spider": "matalan_gb", "shop": "clothes", "addr:street_address": "East Kent Retail Park", "addr:city": "Thanet", "addr:postcode": "CT10 2RQ", "addr:country": "GB", "name": "Matalan", "phone": "0333 0044444", "website": "https://www.matalan.co.uk/stores/thanet", "contact:twitter": "@Matalan", "image": "https://matalan-assets.imgix.net/assets/matalan-logo-responsive-0f1c895c6ec9b0b427bf3614e1d03352e41e2e501608cabb0d042b5d22282259.svg", "brand": "Matalan", "brand:wikidata": "Q12061509", "nsi_id": "matalan-1132a1"}, "geometry": {"type": "Point", "coordinates": [1.397606, 51.360652]}},
{"type": "Feature", "id": "e25ShjqdLaY4KChCM4xclaRQsdk=", "properties": {"ref": "https://www.matalan.co.uk/stores/trowbridge", "@spider": "matalan_gb", "shop": "clothes", "addr:street_address": "Unit 1a Spitfire", "addr:city": "Trowbridge", "addr:postcode": "BA14 0RQ", "addr:country": "GB", "name": "Matalan", "phone": "0333 0044444", "website": "https://www.matalan.co.uk/stores/trowbridge", "contact:twitter": "@Matalan", "image": "https://matalan-assets.imgix.net/assets/matalan-logo-responsive-0f1c895c6ec9b0b427bf3614e1d03352e41e2e501608cabb0d042b5d22282259.svg", "brand": "Matalan", "brand:wikidata": "Q12061509", "nsi_id": "matalan-1132a1"}, "geometry": {"type": "Point", "coordinates": [-2.209108, 51.302995]}},
{"type": "Feature", "id": "AedQlJwB2Ulu8LsTMMp2HET1nME=", "properties": {"ref": "https://www.matalan.co.uk/stores/truro", "@spider": "matalan_gb", "shop": "clothes", "addr:street_address": "Leverton Place Ret Pk", "addr:city": "Truro", "addr:postcode": "TR4 8GA", "addr:country": "GB", "name": "Matalan", "phone": "0333 0044444", "website": "https://www.matalan.co.uk/stores/truro", "contact:twitter": "@Matalan", "image": "https://matalan-assets.imgix.net/assets/matalan-logo-responsive-0f1c895c6ec9b0b427bf3614e1d03352e41e2e501608cabb0d042b5d22282259.svg", "brand": "Matalan", "brand:wikidata": "Q12061509", "nsi_id": "matalan-1132a1"}, "geometry": {"type": "Point", "coordinates": [-5.124494, 50.26403]}},
{"type": "Feature", "id": "bJnaEEhhMiXKcc5-Gpy2rP9z0dw=", "properties": {"ref": "https://www.matalan.co.uk/stores/tunstall", "@spider": "matalan_gb", "shop": "clothes", "addr:street_address": "Woodland Street", "addr:city": "Stoke-on-Trent", "addr:postcode": "ST6 6AN", "addr:country": "GB", "name": "Matalan", "phone": "0333 0044444", "website": "https://www.matalan.co.uk/stores/tunstall", "contact:twitter": "@Matalan", "image": "https://matalan-assets.imgix.net/assets/matalan-logo-responsive-0f1c895c6ec9b0b427bf3614e1d03352e41e2e501608cabb0d042b5d22282259.svg", "brand": "Matalan", "brand:wikidata": "Q12061509", "nsi_id": "matalan-1132a1"}, "geometry": {"type": "Point", "coordinates": [-2.207634, 53.056935]}},
{"type": "Feature", "id": "1awhNJPhURNJVnXLH7aqjtPwANA=", "properties": {"ref": "https://www.matalan.co.uk/stores/wakefield", "@spider": "matalan_gb", "shop": "clothes", "addr:street_address": "Ings Road Retail Park", "addr:city": "Wakefield", "addr:postcode": "WF1 1RN", "addr:country": "GB", "name": "Matalan", "phone": "0333 0044444", "website": "https://www.matalan.co.uk/stores/wakefield", "contact:twitter": "@Matalan", "image": "https://matalan-assets.imgix.net/assets/matalan-logo-responsive-0f1c895c6ec9b0b427bf3614e1d03352e41e2e501608cabb0d042b5d22282259.svg", "brand": "Matalan", "brand:wikidata": "Q12061509", "nsi_id": "matalan-1132a1"}, "geometry": {"type": "Point", "coordinates": [-1.497443, 53.677859]}},
{"type": "Feature", "id": "HifRjiNQAmSG1jHeORiGxGPChHI=", "properties": {"ref": "https://www.matalan.co.uk/stores/walsall-north", "@spider": "matalan_gb", "shop": "clothes", "addr:street_address": "Walsall Retail Park", "addr:city": "Walsall", "addr:postcode": "WS2 8XA", "addr:country": "GB", "name": "Matalan", "phone": "0333 0044444", "website": "https://www.matalan.co.uk/stores/walsall-north", "contact:twitter": "@Matalan", "image": "https://matalan-assets.imgix.net/assets/matalan-logo-responsive-0f1c895c6ec9b0b427bf3614e1d03352e41e2e501608cabb0d042b5d22282259.svg", "brand": "Matalan", "brand:wikidata": "Q12061509", "nsi_id": "matalan-1132a1"}, "geometry": {"type": "Point", "coordinates": [-2.001167, 52.596264]}},
{"type": "Feature", "id": "u41Sdk_nQ8zYLZ1Ioi1bv-bTy6Q=", "properties": {"ref": "https://www.matalan.co.uk/stores/walsall-south", "@spider": "matalan_gb", "shop": "clothes", "addr:street_address": "Broadwalk Retail Park", "addr:city": "Walsall", "addr:postcode": "WS1 4SB", "addr:country": "GB", "name": "Matalan", "phone": "0333 0044444", "website": "https://www.matalan.co.uk/stores/walsall-south", "contact:twitter": "@Matalan", "image": "https://matalan-assets.imgix.net/assets/matalan-logo-responsive-0f1c895c6ec9b0b427bf3614e1d03352e41e2e501608cabb0d042b5d22282259.svg", "brand": "Matalan", "brand:wikidata": "Q12061509", "nsi_id": "matalan-1132a1"}, "geometry": {"type": "Point", "coordinates": [-1.991946, 52.566544]}},
{"type": "Feature", "id": "sy7uGDgA_hR6ZTRRXqUgL15HRMA=", "properties": {"ref": "https://www.matalan.co.uk/stores/warrington", "@spider": "matalan_gb", "shop": "clothes", "addr:street_address": "Winwick Road", "addr:city": "Warrington", "addr:postcode": "WA2 8NU", "addr:country": "GB", "name": "Matalan", "phone": "0333 0044444", "website": "https://www.matalan.co.uk/stores/warrington", "contact:twitter": "@Matalan", "image": "https://matalan-assets.imgix.net/assets/matalan-logo-responsive-0f1c895c6ec9b0b427bf3614e1d03352e41e2e501608cabb0d042b5d22282259.svg", "brand": "Matalan", "brand:wikidata": "Q12061509", "nsi_id": "matalan-1132a1"}, "geometry": {"type": "Point", "coordinates": [-2.59433, 53.399276]}},
{"type": "Feature", "id": "3ygUjIM51sdrhiV8fij9pybpV6M=", "properties": {"ref": "https://www.matalan.co.uk/stores/east-kilbride", "@spider": "matalan_gb", "shop": "clothes", "addr:street_address": "Unit 11", "addr:city": "East Kilbride", "addr:postcode": "G74 1LL", "addr:country": "GB", "name": "Matalan", "phone": "0333 0044444", "website": "https://www.matalan.co.uk/stores/east-kilbride", "contact:twitter": "@Matalan", "image": "https://matalan-assets.imgix.net/assets/matalan-logo-responsive-0f1c895c6ec9b0b427bf3614e1d03352e41e2e501608cabb0d042b5d22282259.svg", "brand": "Matalan", "brand:wikidata": "Q12061509", "nsi_id": "matalan-1132a1"}, "geometry": {"type": "Point", "coordinates": [-4.177793, 55.760071]}},
{"type": "Feature", "id": "QZipNBmJHzbML2oM_ySBWPmjp0M=", "properties": {"ref": "https://www.matalan.co.uk/stores/corby-dc", "@spider": "matalan_gb", "shop": "clothes", "addr:street_address": "Staff Only Service", "addr:city": "Staff ID Required", "addr:postcode": "NN17 5XN", "addr:country": "GB", "name": "Matalan", "phone": "0333 0044444", "website": "https://www.matalan.co.uk/stores/corby-dc", "contact:twitter": "@Matalan", "image": "https://matalan-assets.imgix.net/assets/matalan-logo-responsive-0f1c895c6ec9b0b427bf3614e1d03352e41e2e501608cabb0d042b5d22282259.svg", "brand": "Matalan", "brand:wikidata": "Q12061509", "nsi_id": "matalan-1132a1"}, "geometry": {"type": "Point", "coordinates": [-0.668062, 52.500575]}},
{"type": "Feature", "id": "x-C_Ey6P31k_i9hfe3pRkRez62M=", "properties": {"ref": "https://www.matalan.co.uk/stores/llanelli", "@spider": "matalan_gb", "shop": "clothes", "addr:street_address": "Unit 7B", "addr:city": "Llanelli", "addr:postcode": "SA14 9UY", "addr:country": "GB", "name": "Matalan", "phone": "0333 004 4444", "website": "https://www.matalan.co.uk/stores/llanelli", "contact:twitter": "@Matalan", "image": "https://matalan-assets.imgix.net/assets/matalan-logo-responsive-0f1c895c6ec9b0b427bf3614e1d03352e41e2e501608cabb0d042b5d22282259.svg", "brand": "Matalan", "brand:wikidata": "Q12061509", "nsi_id": "matalan-1132a1"}, "geometry": {"type": "Point", "coordinates": [-4.1389, 51.6763]}},
{"type": "Feature", "id": "grLcfqYXmnJ-wxDJ1SSH-yyjA-U=", "properties": {"ref": "https://www.matalan.co.uk/stores/cheshire-oaks", "@spider": "matalan_gb", "shop": "clothes", "addr:street_address": "Unit 4a", "addr:city": "Ellesmere Port", "addr:postcode": "CH65 9HD", "addr:country": "GB", "name": "Matalan", "phone": "0333 0044444", "website": "https://www.matalan.co.uk/stores/cheshire-oaks", "contact:twitter": "@Matalan", "image": "https://matalan-assets.imgix.net/assets/matalan-logo-responsive-0f1c895c6ec9b0b427bf3614e1d03352e41e2e501608cabb0d042b5d22282259.svg", "brand": "Matalan", "brand:wikidata": "Q12061509", "nsi_id": "matalan-1132a1"}, "geometry": {"type": "Point", "coordinates": [-2.884491, 53.264845]}},
{"type": "Feature", "id": "oTCGueBH-8DIUovzpOZGX7JT0go=", "properties": {"ref": "https://www.matalan.co.uk/stores/cheltenham", "@spider": "matalan_gb", "shop": "clothes", "addr:street_address": "Gallagher Retail Park", "addr:city": "Cheltenham", "addr:postcode": "GL51 9RR", "addr:country": "GB", "name": "Matalan", "phone": "3330044444", "website": "https://www.matalan.co.uk/stores/cheltenham", "contact:twitter": "@Matalan", "image": "https://matalan-assets.imgix.net/assets/matalan-logo-responsive-0f1c895c6ec9b0b427bf3614e1d03352e41e2e501608cabb0d042b5d22282259.svg", "brand": "Matalan", "brand:wikidata": "Q12061509", "nsi_id": "matalan-1132a1"}, "geometry": {"type": "Point", "coordinates": [-2.10434, 51.918099]}},
{"type": "Feature", "id": "NudRGrYYd8dy9ZWNoKBgHjyqyFY=", "properties": {"ref": "https://www.matalan.co.uk/stores/hermes-sanya-conv-store-ltd-gu12-5ln", "@spider": "matalan_gb", "shop": "clothes", "addr:street_address": "Sanya Conv Store Ltd", "addr:city": "Ash Vale", "addr:postcode": "GU12 5LN", "addr:country": "GB", "name": "Matalan", "phone": "01252 324894", "website": "https://www.matalan.co.uk/stores/hermes-sanya-conv-store-ltd-gu12-5ln", "contact:twitter": "@Matalan", "image": "https://matalan-assets.imgix.net/assets/matalan-logo-responsive-0f1c895c6ec9b0b427bf3614e1d03352e41e2e501608cabb0d042b5d22282259.svg", "brand": "Matalan", "brand:wikidata": "Q12061509", "nsi_id": "matalan-1132a1"}, "geometry": {"type": "Point", "coordinates": [-0.722054, 51.271501]}},
{"type": "Feature", "id": "fLxQUyF7vSJ6BFZy7yXoUZaLLRo=", "properties": {"ref": "https://www.matalan.co.uk/stores/preston-st-georges", "@spider": "matalan_gb", "shop": "clothes", "addr:street_address": "43-69 Friargate Walk", "addr:city": "Preston", "addr:postcode": "PR1 2NQ", "addr:country": "GB", "name": "Matalan", "phone": "0333 0044444", "website": "https://www.matalan.co.uk/stores/preston-st-georges", "contact:twitter": "@Matalan", "image": "https://matalan-assets.imgix.net/assets/matalan-logo-responsive-0f1c895c6ec9b0b427bf3614e1d03352e41e2e501608cabb0d042b5d22282259.svg", "brand": "Matalan", "brand:wikidata": "Q12061509", "nsi_id": "matalan-1132a1"}, "geometry": {"type": "Point", "coordinates": [-2.703055, 53.758486]}},
{"type": "Feature", "id": "GY23YJ2Dr_tAqgpKB7XSD8_aBIY=", "properties": {"ref": "https://www.matalan.co.uk/stores/cumbernauld", "@spider": "matalan_gb", "shop": "clothes", "addr:street_address": "7-9 St Maurice&#39;s Gate", "addr:city": "Cumbernauld", "addr:postcode": "G68 9FW", "addr:country": "GB", "name": "Matalan", "website": "https://www.matalan.co.uk/stores/cumbernauld", "contact:twitter": "@Matalan", "image": "https://matalan-assets.imgix.net/assets/matalan-logo-responsive-0f1c895c6ec9b0b427bf3614e1d03352e41e2e501608cabb0d042b5d22282259.svg", "brand": "Matalan", "brand:wikidata": "Q12061509", "nsi_id": "matalan-1132a1"}, "geometry": {"type": "Point", "coordinates": [-4.0455, 55.935673]}},
{"type": "Feature", "id": "StTrp6p96IfGVsiDSCiNUbsMP2w=", "properties": {"ref": "https://www.matalan.co.uk/stores/leicester-haymarket", "@spider": "matalan_gb", "shop": "clothes", "addr:street_address": "Haymarket Shopping Centre", "addr:city": "Leicester", "addr:postcode": "LE1 3PH", "addr:country": "GB", "name": "Matalan", "phone": "3330044444", "website": "https://www.matalan.co.uk/stores/leicester-haymarket", "contact:twitter": "@Matalan", "image": "https://matalan-assets.imgix.net/assets/matalan-logo-responsive-0f1c895c6ec9b0b427bf3614e1d03352e41e2e501608cabb0d042b5d22282259.svg", "brand": "Matalan", "brand:wikidata": "Q12061509", "nsi_id": "matalan-1132a1"}, "geometry": {"type": "Point", "coordinates": [-1.131532, 52.636174]}},
{"type": "Feature", "id": "0Ar8J5BmVhkKnA0HHOVJeRh0mYE=", "properties": {"ref": "https://www.matalan.co.uk/stores/wolverhampton", "@spider": "matalan_gb", "shop": "clothes", "addr:street_address": "The Mander Shopping Centre", "addr:city": "Wolverhampton", "addr:postcode": "WV1 3NH", "addr:country": "GB", "name": "Matalan", "phone": "3330044444", "website": "https://www.matalan.co.uk/stores/wolverhampton", "contact:twitter": "@Matalan", "image": "https://matalan-assets.imgix.net/assets/matalan-logo-responsive-0f1c895c6ec9b0b427bf3614e1d03352e41e2e501608cabb0d042b5d22282259.svg", "brand": "Matalan", "brand:wikidata": "Q12061509", "nsi_id": "matalan-1132a1"}, "geometry": {"type": "Point", "coordinates": [-2.13042, 52.58472]}},
{"type": "Feature", "id": "tb09ngeQjC_rItmFK6gAVune3dE=", "properties": {"ref": "https://www.matalan.co.uk/stores/bracknell", "@spider": "matalan_gb", "shop": "clothes", "addr:street_address": "32 Braccan Walk", "addr:city": "Reading", "addr:postcode": "RG12 1BE", "addr:country": "GB", "name": "Matalan", "phone": "0333 0044444", "website": "https://www.matalan.co.uk/stores/bracknell", "contact:twitter": "@Matalan", "image": "https://matalan-assets.imgix.net/assets/matalan-logo-responsive-0f1c895c6ec9b0b427bf3614e1d03352e41e2e501608cabb0d042b5d22282259.svg", "brand": "Matalan", "brand:wikidata": "Q12061509", "nsi_id": "matalan-1132a1"}, "geometry": {"type": "Point", "coordinates": [-0.749589, 51.414867]}},
{"type": "Feature", "id": "Pt2SG8ICEVQRBW4FP3B_U7yFswY=", "properties": {"ref": "https://www.matalan.co.uk/stores/leeds-city-centre", "@spider": "matalan_gb", "shop": "clothes", "addr:street_address": "The Headrow", "addr:city": "Leeds", "addr:postcode": "LS1 6JD", "addr:country": "GB", "name": "Matalan", "phone": "0333 0044444", "website": "https://www.matalan.co.uk/stores/leeds-city-centre", "contact:twitter": "@Matalan", "image": "https://matalan-assets.imgix.net/assets/matalan-logo-responsive-0f1c895c6ec9b0b427bf3614e1d03352e41e2e501608cabb0d042b5d22282259.svg", "brand": "Matalan", "brand:wikidata": "Q12061509", "nsi_id": "matalan-1132a1"}, "geometry": {"type": "Point", "coordinates": [-1.543645, 53.799214]}},
{"type": "Feature", "id": "UyIGWuiP7F7B6TZPr0Fxvm7gh5g=", "properties": {"ref": "https://www.matalan.co.uk/stores/aberdeen", "@spider": "matalan_gb", "shop": "clothes", "addr:street_address": "Unit 1", "addr:city": "Aberdeen", "addr:postcode": "AB25 3SQ", "addr:country": "GB", "name": "Matalan", "phone": "0333 004 4444", "website": "https://www.matalan.co.uk/stores/aberdeen", "contact:twitter": "@Matalan", "image": "https://matalan-assets.imgix.net/assets/matalan-logo-responsive-0f1c895c6ec9b0b427bf3614e1d03352e41e2e501608cabb0d042b5d22282259.svg", "brand": "Matalan", "brand:wikidata": "Q12061509", "nsi_id": "matalan-1132a1"}, "geometry": {"type": "Point", "coordinates": [-2.11494, 57.156923]}},
{"type": "Feature", "id": "RTtnN2IIaUHhbcchWrnTkRj1KTU=", "properties": {"ref": "https://www.matalan.co.uk/stores/exeter-clearance", "@spider": "matalan_gb", "shop": "clothes", "addr:street_address": "Haven Banks", "addr:city": "Exeter", "addr:postcode": "EX2 8BY", "addr:country": "GB", "name": "Matalan", "phone": "0333 0044444", "website": "https://www.matalan.co.uk/stores/exeter-clearance", "contact:twitter": "@Matalan", "image": "https://matalan-assets.imgix.net/assets/matalan-logo-responsive-0f1c895c6ec9b0b427bf3614e1d03352e41e2e501608cabb0d042b5d22282259.svg", "brand": "Matalan", "brand:wikidata": "Q12061509", "nsi_id": "matalan-1132a1"}, "geometry": {"type": "Point", "coordinates": [-3.531508, 50.716049]}},
{"type": "Feature", "id": "xYGxbcZtSh7yMj26zsrBN6kOx18=", "properties": {"ref": "https://www.matalan.co.uk/stores/belfast", "@spider": "matalan_gb", "shop": "clothes", "addr:street_address": "Unit 70", "addr:city": "Belfast", "addr:postcode": "BT1 1DD", "addr:country": "GB", "name": "Matalan", "phone": "0333 0044444", "website": "https://www.matalan.co.uk/stores/belfast", "contact:twitter": "@Matalan", "image": "https://matalan-assets.imgix.net/assets/matalan-logo-responsive-0f1c895c6ec9b0b427bf3614e1d03352e41e2e501608cabb0d042b5d22282259.svg", "brand": "Matalan", "brand:wikidata": "Q12061509", "nsi_id": "matalan-1132a1"}, "geometry": {"type": "Point", "coordinates": [-5.934026, 54.600936]}},
{"type": "Feature", "id": "y61cK1UhYzCYcJgp7QySIL-kF_Y=", "properties": {"ref": "https://www.matalan.co.uk/stores/livingston", "@spider": "matalan_gb", "shop": "clothes", "addr:street_address": "Unit 2 Retail Park South", "addr:city": "Livingston", "addr:postcode": "EH54 6GH", "addr:country": "GB", "name": "Matalan", "phone": "0333 0044444", "website": "https://www.matalan.co.uk/stores/livingston", "contact:twitter": "@Matalan", "image": "https://matalan-assets.imgix.net/assets/matalan-logo-responsive-0f1c895c6ec9b0b427bf3614e1d03352e41e2e501608cabb0d042b5d22282259.svg", "brand": "Matalan", "brand:wikidata": "Q12061509", "nsi_id": "matalan-1132a1"}, "geometry": {"type": "Point", "coordinates": [-3.526968, 55.876232]}},
{"type": "Feature", "id": "YQwgLojdoKHU4J9ZIX2m1TJ-I9M=", "properties": {"ref": "https://www.matalan.co.uk/stores/aberystwyth", "@spider": "matalan_gb", "shop": "clothes", "addr:street_address": "Units 1 2 3", "addr:city": "Aberystwyth", "addr:postcode": "SY23 1PG", "addr:country": "GB", "name": "Matalan", "phone": "0333 0044444", "website": "https://www.matalan.co.uk/stores/aberystwyth", "contact:twitter": "@Matalan", "image": "https://matalan-assets.imgix.net/assets/matalan-logo-responsive-0f1c895c6ec9b0b427bf3614e1d03352e41e2e501608cabb0d042b5d22282259.svg", "brand": "Matalan", "brand:wikidata": "Q12061509", "nsi_id": "matalan-1132a1"}, "geometry": {"type": "Point", "coordinates": [-4.081494, 52.412431]}},
{"type": "Feature", "id": "1ZzC6PT3HPzuTfIfuqLPTE9UODA=", "properties": {"ref": "https://www.matalan.co.uk/stores/accrington", "@spider": "matalan_gb", "shop": "clothes", "addr:street_address": "Fountain Retail Park", "addr:city": "Accrington", "addr:postcode": "BB5 4AA", "addr:country": "GB", "name": "Matalan", "phone": "0333 0044444", "website": "https://www.matalan.co.uk/stores/accrington", "contact:twitter": "@Matalan", "image": "https://matalan-assets.imgix.net/assets/matalan-logo-responsive-0f1c895c6ec9b0b427bf3614e1d03352e41e2e501608cabb0d042b5d22282259.svg", "brand": "Matalan", "brand:wikidata": "Q12061509", "nsi_id": "matalan-1132a1"}, "geometry": {"type": "Point", "coordinates": [-2.375753, 53.755319]}},
{"type": "Feature", "id": "OSCXb5C4uHgvKdoASPetEAyJc1A=", "properties": {"ref": "https://www.matalan.co.uk/stores/altrincham", "@spider": "matalan_gb", "shop": "clothes", "addr:street_address": "Brookway Retail park", "addr:city": "Baguley", "addr:postcode": "M23 9BL", "addr:country": "GB", "name": "Matalan", "phone": "0333 0044444", "website": "https://www.matalan.co.uk/stores/altrincham", "contact:twitter": "@Matalan", "image": "https://matalan-assets.imgix.net/assets/matalan-logo-responsive-0f1c895c6ec9b0b427bf3614e1d03352e41e2e501608cabb0d042b5d22282259.svg", "brand": "Matalan", "brand:wikidata": "Q12061509", "nsi_id": "matalan-1132a1"}, "geometry": {"type": "Point", "coordinates": [-2.298638, 53.402434]}},
{"type": "Feature", "id": "WFMnURgwxq-_eijZU7xMf7E07Gw=", "properties": {"ref": "https://www.matalan.co.uk/stores/ashford", "@spider": "matalan_gb", "shop": "clothes", "addr:street_address": "Brookfield Rd", "addr:city": "Ashford", "addr:postcode": "TN23 4YW", "addr:country": "GB", "name": "Matalan", "phone": "0333 0044444", "website": "https://www.matalan.co.uk/stores/ashford", "contact:twitter": "@Matalan", "image": "https://matalan-assets.imgix.net/assets/matalan-logo-responsive-0f1c895c6ec9b0b427bf3614e1d03352e41e2e501608cabb0d042b5d22282259.svg", "brand": "Matalan", "brand:wikidata": "Q12061509", "nsi_id": "matalan-1132a1"}, "geometry": {"type": "Point", "coordinates": [0.849053, 51.146247]}},
{"type": "Feature", "id": "YGGrtih8i-6xWD9zupIbV159EeU=", "properties": {"ref": "https://www.matalan.co.uk/stores/ayr", "@spider": "matalan_gb", "shop": "clothes", "addr:street_address": "Unit 1, Beresford Terrace", "addr:city": "Ayr", "addr:postcode": "KA7 2HH", "addr:country": "GB", "name": "Matalan", "phone": "0333 0044444", "website": "https://www.matalan.co.uk/stores/ayr", "contact:twitter": "@Matalan", "image": "https://matalan-assets.imgix.net/assets/matalan-logo-responsive-0f1c895c6ec9b0b427bf3614e1d03352e41e2e501608cabb0d042b5d22282259.svg", "brand": "Matalan", "brand:wikidata": "Q12061509", "nsi_id": "matalan-1132a1"}, "geometry": {"type": "Point", "coordinates": [-4.628407, 55.457212]}},
{"type": "Feature", "id": "8ZebvYd6urF28bM8WmgnT9ByuZ8=", "properties": {"ref": "https://www.matalan.co.uk/stores/bangor", "@spider": "matalan_gb", "shop": "clothes", "addr:street_address": "St Davids Retail Park", "addr:city": "Bangor", "addr:postcode": "LL57 4TJ", "addr:country": "GB", "name": "Matalan", "phone": "0333 0044444", "website": "https://www.matalan.co.uk/stores/bangor", "contact:twitter": "@Matalan", "image": "https://matalan-assets.imgix.net/assets/matalan-logo-responsive-0f1c895c6ec9b0b427bf3614e1d03352e41e2e501608cabb0d042b5d22282259.svg", "brand": "Matalan", "brand:wikidata": "Q12061509", "nsi_id": "matalan-1132a1"}, "geometry": {"type": "Point", "coordinates": [-4.142266, 53.216723]}},
{"type": "Feature", "id": "JJyYrl6zv09CiNRvoo0Z851-kSg=", "properties": {"ref": "https://www.matalan.co.uk/stores/barrow", "@spider": "matalan_gb", "shop": "clothes", "addr:street_address": "Walney Road", "addr:city": "Barrow-in-Furness", "addr:postcode": "LA14 5UN", "addr:country": "GB", "name": "Matalan", "phone": "0333 0044444", "website": "https://www.matalan.co.uk/stores/barrow", "contact:twitter": "@Matalan", "image": "https://matalan-assets.imgix.net/assets/matalan-logo-responsive-0f1c895c6ec9b0b427bf3614e1d03352e41e2e501608cabb0d042b5d22282259.svg", "brand": "Matalan", "brand:wikidata": "Q12061509", "nsi_id": "matalan-1132a1"}, "geometry": {"type": "Point", "coordinates": [-3.236311, 54.121021]}},
{"type": "Feature", "id": "GWXcjWfB9mvsQeBU6c9jttqcssc=", "properties": {"ref": "https://www.matalan.co.uk/stores/basildon", "@spider": "matalan_gb", "shop": "clothes", "addr:street_address": "Cricketers Retail Park", "addr:city": "Basildon", "addr:postcode": "SS13 1SA", "addr:country": "GB", "name": "Matalan", "phone": "0333 0044444", "website": "https://www.matalan.co.uk/stores/basildon", "contact:twitter": "@Matalan", "image": "https://matalan-assets.imgix.net/assets/matalan-logo-responsive-0f1c895c6ec9b0b427bf3614e1d03352e41e2e501608cabb0d042b5d22282259.svg", "brand": "Matalan", "brand:wikidata": "Q12061509", "nsi_id": "matalan-1132a1"}, "geometry": {"type": "Point", "coordinates": [0.503541, 51.591314]}},
{"type": "Feature", "id": "h0hSWC4MInnhyaY_fVnMwDrThF4=", "properties": {"ref": "https://www.matalan.co.uk/stores/basingstoke", "@spider": "matalan_gb", "shop": "clothes", "addr:street_address": "Chineham Shopping Centre", "addr:city": "Basingstoke", "addr:postcode": "RG24 8BQ", "addr:country": "GB", "name": "Matalan", "phone": "0333 0044444", "website": "https://www.matalan.co.uk/stores/basingstoke", "contact:twitter": "@Matalan", "image": "https://matalan-assets.imgix.net/assets/matalan-logo-responsive-0f1c895c6ec9b0b427bf3614e1d03352e41e2e501608cabb0d042b5d22282259.svg", "brand": "Matalan", "brand:wikidata": "Q12061509", "nsi_id": "matalan-1132a1"}, "geometry": {"type": "Point", "coordinates": [-1.061402, 51.284091]}},
{"type": "Feature", "id": "ryKvy4IQ7Ud2xD0M0JM21PpRRX0=", "properties": {"ref": "https://www.matalan.co.uk/stores/beckton", "@spider": "matalan_gb", "shop": "clothes", "addr:street_address": "Unit 8 Becton Retail Park", "addr:city": "Beckton", "addr:postcode": "E6 6LA", "addr:country": "GB", "name": "Matalan", "phone": "0333 0044444", "website": "https://www.matalan.co.uk/stores/beckton", "contact:twitter": "@Matalan", "image": "https://matalan-assets.imgix.net/assets/matalan-logo-responsive-0f1c895c6ec9b0b427bf3614e1d03352e41e2e501608cabb0d042b5d22282259.svg", "brand": "Matalan", "brand:wikidata": "Q12061509", "nsi_id": "matalan-1132a1"}, "geometry": {"type": "Point", "coordinates": [0.062209, 51.517806]}},
{"type": "Feature", "id": "ICiqlbiC2O7-Xk_iTVVOJoJglwU=", "properties": {"ref": "https://www.matalan.co.uk/stores/bedford", "@spider": "matalan_gb", "shop": "clothes", "addr:street_address": "Unit L Interchange Ret Pk", "addr:city": "Bedford", "addr:postcode": "MK42 7AZ", "addr:country": "GB", "name": "Matalan", "phone": "0333 0044444", "website": "https://www.matalan.co.uk/stores/bedford", "contact:twitter": "@Matalan", "image": "https://matalan-assets.imgix.net/assets/matalan-logo-responsive-0f1c895c6ec9b0b427bf3614e1d03352e41e2e501608cabb0d042b5d22282259.svg", "brand": "Matalan", "brand:wikidata": "Q12061509", "nsi_id": "matalan-1132a1"}, "geometry": {"type": "Point", "coordinates": [-0.486761, 52.107991]}},
{"type": "Feature", "id": "U7vlQjIonWPoy2NeJzOe_Y-c3Yk=", "properties": {"ref": "https://www.matalan.co.uk/stores/biggleswade", "@spider": "matalan_gb", "shop": "clothes", "addr:street_address": "A1 Retail Park", "addr:city": "Biggleswade", "addr:postcode": "SG18 8NE", "addr:country": "GB", "name": "Matalan", "phone": "0333 0044444", "website": "https://www.matalan.co.uk/stores/biggleswade", "contact:twitter": "@Matalan", "image": "https://matalan-assets.imgix.net/assets/matalan-logo-responsive-0f1c895c6ec9b0b427bf3614e1d03352e41e2e501608cabb0d042b5d22282259.svg", "brand": "Matalan", "brand:wikidata": "Q12061509", "nsi_id": "matalan-1132a1"}, "geometry": {"type": "Point", "coordinates": [-0.254608, 52.084599]}},
{"type": "Feature", "id": "mcTwRfaThwtHmug1kRFNDSD-6u4=", "properties": {"ref": "https://www.matalan.co.uk/stores/bilston", "@spider": "matalan_gb", "shop": "clothes", "addr:street_address": "Spring Vale Retail Park", "addr:city": "Bilston", "addr:postcode": "WV14 0QL", "addr:country": "GB", "name": "Matalan", "phone": "0333 0044444", "website": "https://www.matalan.co.uk/stores/bilston", "contact:twitter": "@Matalan", "image": "https://matalan-assets.imgix.net/assets/matalan-logo-responsive-0f1c895c6ec9b0b427bf3614e1d03352e41e2e501608cabb0d042b5d22282259.svg", "brand": "Matalan", "brand:wikidata": "Q12061509", "nsi_id": "matalan-1132a1"}, "geometry": {"type": "Point", "coordinates": [-2.08769, 52.56046]}},
{"type": "Feature", "id": "HK-DcwJqE5wegU6HfTOPJKKN1q4=", "properties": {"ref": "https://www.matalan.co.uk/stores/birkenhead", "@spider": "matalan_gb", "shop": "clothes", "addr:street_address": "Units 3 The Rock Ret Pk", "addr:city": "Birkenhead", "addr:postcode": "CH41 9DF", "addr:country": "GB", "name": "Matalan", "phone": "0333 0044444", "website": "https://www.matalan.co.uk/stores/birkenhead", "contact:twitter": "@Matalan", "image": "https://matalan-assets.imgix.net/assets/matalan-logo-responsive-0f1c895c6ec9b0b427bf3614e1d03352e41e2e501608cabb0d042b5d22282259.svg", "brand": "Matalan", "brand:wikidata": "Q12061509", "nsi_id": "matalan-1132a1"}, "geometry": {"type": "Point", "coordinates": [-3.016385, 53.386413]}},
{"type": "Feature", "id": "8R92jEbvYpaZrAz6eNPAj714fn4=", "properties": {"ref": "https://www.matalan.co.uk/stores/birmingham", "@spider": "matalan_gb", "shop": "clothes", "addr:street_address": "Dartmouth Circus", "addr:city": "Birmingham", "addr:postcode": "B6 4LD", "addr:country": "GB", "name": "Matalan", "phone": "0333 0044444", "website": "https://www.matalan.co.uk/stores/birmingham", "contact:twitter": "@Matalan", "image": "https://matalan-assets.imgix.net/assets/matalan-logo-responsive-0f1c895c6ec9b0b427bf3614e1d03352e41e2e501608cabb0d042b5d22282259.svg", "brand": "Matalan", "brand:wikidata": "Q12061509", "nsi_id": "matalan-1132a1"}, "geometry": {"type": "Point", "coordinates": [-1.89169, 52.491834]}},
{"type": "Feature", "id": "rW26jor6mkVCDDdUCMIcktZAzSU=", "properties": {"ref": "https://www.matalan.co.uk/stores/bishopbriggs", "@spider": "matalan_gb", "shop": "clothes", "addr:street_address": "Unit 4", "addr:city": "Glasgow", "addr:postcode": "G64 2TS", "addr:country": "GB", "name": "Matalan", "phone": "0333 0044444", "website": "https://www.matalan.co.uk/stores/bishopbriggs", "contact:twitter": "@Matalan", "image": "https://matalan-assets.imgix.net/assets/matalan-logo-responsive-0f1c895c6ec9b0b427bf3614e1d03352e41e2e501608cabb0d042b5d22282259.svg", "brand": "Matalan", "brand:wikidata": "Q12061509", "nsi_id": "matalan-1132a1"}, "geometry": {"type": "Point", "coordinates": [-4.207274, 55.921858]}},
{"type": "Feature", "id": "-8BZKN9BJOEcK4wYsrQCYpeTfog=", "properties": {"ref": "https://www.matalan.co.uk/stores/blackburn", "@spider": "matalan_gb", "shop": "clothes", "addr:street_address": "Lower Audley Street", "addr:city": "Blackburn", "addr:postcode": "BB1 1DG", "addr:country": "GB", "name": "Matalan", "phone": "0333 0044444", "website": "https://www.matalan.co.uk/stores/blackburn", "contact:twitter": "@Matalan", "image": "https://matalan-assets.imgix.net/assets/matalan-logo-responsive-0f1c895c6ec9b0b427bf3614e1d03352e41e2e501608cabb0d042b5d22282259.svg", "brand": "Matalan", "brand:wikidata": "Q12061509", "nsi_id": "matalan-1132a1"}, "geometry": {"type": "Point", "coordinates": [-2.479791, 53.743835]}},
{"type": "Feature", "id": "L1mMIHuA4nTUkZMNKCVNIlHpbvY=", "properties": {"ref": "https://www.matalan.co.uk/stores/blackpool", "@spider": "matalan_gb", "shop": "clothes", "addr:street_address": "Clifton Retail Park", "addr:city": "Blackpool", "addr:postcode": "FY4 4UJ", "addr:country": "GB", "name": "Matalan", "phone": "0333 0044444", "website": "https://www.matalan.co.uk/stores/blackpool", "contact:twitter": "@Matalan", "image": "https://matalan-assets.imgix.net/assets/matalan-logo-responsive-0f1c895c6ec9b0b427bf3614e1d03352e41e2e501608cabb0d042b5d22282259.svg", "brand": "Matalan", "brand:wikidata": "Q12061509", "nsi_id": "matalan-1132a1"}, "geometry": {"type": "Point", "coordinates": [-2.990523, 53.794545]}},
{"type": "Feature", "id": "4HWFhF7iB9BROWhMs126mh48rjU=", "properties": {"ref": "https://www.matalan.co.uk/stores/blythswood-clearance", "@spider": "matalan_gb", "shop": "clothes", "addr:street_address": "Blythswood Retail Park", "addr:city": "Blythswood", "addr:postcode": "PA4 9EN", "addr:country": "GB", "name": "Matalan", "phone": "0333 0044444", "website": "https://www.matalan.co.uk/stores/blythswood-clearance", "contact:twitter": "@Matalan", "image": "https://matalan-assets.imgix.net/assets/matalan-logo-responsive-0f1c895c6ec9b0b427bf3614e1d03352e41e2e501608cabb0d042b5d22282259.svg", "brand": "Matalan", "brand:wikidata": "Q12061509", "nsi_id": "matalan-1132a1"}, "geometry": {"type": "Point", "coordinates": [-4.402478, 55.881206]}},
{"type": "Feature", "id": "DWoWKNx6R8EmWa3IjLkmqGtuNk0=", "properties": {"ref": "https://www.matalan.co.uk/stores/bognor-regis", "@spider": "matalan_gb", "shop": "clothes", "addr:street_address": "Unit 1Bognor Regis Ret Pk", "addr:city": "Bognor Regis", "addr:postcode": "PO22 9TR", "addr:country": "GB", "name": "Matalan", "phone": "0333 0044444", "website": "https://www.matalan.co.uk/stores/bognor-regis", "contact:twitter": "@Matalan", "image": "https://matalan-assets.imgix.net/assets/matalan-logo-responsive-0f1c895c6ec9b0b427bf3614e1d03352e41e2e501608cabb0d042b5d22282259.svg", "brand": "Matalan", "brand:wikidata": "Q12061509", "nsi_id": "matalan-1132a1"}, "geometry": {"type": "Point", "coordinates": [-0.668445, 50.803098]}},
{"type": "Feature", "id": "68CTWk01NcYHW94SzzKJ9l6w3NA=", "properties": {"ref": "https://www.matalan.co.uk/stores/bolton", "@spider": "matalan_gb", "shop": "clothes", "addr:street_address": "Tonge Moor Road", "addr:city": "Bolton", "addr:postcode": "BL2 2DJ", "addr:country": "GB", "name": "Matalan", "phone": "0333 0044444", "website": "https://www.matalan.co.uk/stores/bolton", "contact:twitter": "@Matalan", "image": "https://matalan-assets.imgix.net/assets/matalan-logo-responsive-0f1c895c6ec9b0b427bf3614e1d03352e41e2e501608cabb0d042b5d22282259.svg", "brand": "Matalan", "brand:wikidata": "Q12061509", "nsi_id": "matalan-1132a1"}, "geometry": {"type": "Point", "coordinates": [-2.415651, 53.585419]}},
{"type": "Feature", "id": "A2MRTRPISwWCx16PKQFJKHEdigY=", "properties": {"ref": "https://www.matalan.co.uk/stores/boston", "@spider": "matalan_gb", "shop": "clothes", "addr:street_address": "John Adams Way", "addr:city": "Boston", "addr:postcode": "PE21 6TY", "addr:country": "GB", "name": "Matalan", "phone": "0333 0044444", "website": "https://www.matalan.co.uk/stores/boston", "contact:twitter": "@Matalan", "image": "https://matalan-assets.imgix.net/assets/matalan-logo-responsive-0f1c895c6ec9b0b427bf3614e1d03352e41e2e501608cabb0d042b5d22282259.svg", "brand": "Matalan", "brand:wikidata": "Q12061509", "nsi_id": "matalan-1132a1"}, "geometry": {"type": "Point", "coordinates": [-0.01946, 52.977648]}},
{"type": "Feature", "id": "xyQR4FSW8rUPsrj3OyXwRW6Xz4c=", "properties": {"ref": "https://www.matalan.co.uk/stores/boucher-road", "@spider": "matalan_gb", "shop": "clothes", "addr:street_address": "49-51 Boucher Retail Park", "addr:city": "Belfast", "addr:postcode": "BT12 6HU", "addr:country": "GB", "name": "Matalan", "phone": "0333 0044444", "website": "https://www.matalan.co.uk/stores/boucher-road", "contact:twitter": "@Matalan", "image": "https://matalan-assets.imgix.net/assets/matalan-logo-responsive-0f1c895c6ec9b0b427bf3614e1d03352e41e2e501608cabb0d042b5d22282259.svg", "brand": "Matalan", "brand:wikidata": "Q12061509", "nsi_id": "matalan-1132a1"}, "geometry": {"type": "Point", "coordinates": [-5.966683, 54.579214]}},
{"type": "Feature", "id": "PNnfJrOpiXKanje3aHFUOl1FUQA=", "properties": {"ref": "https://www.matalan.co.uk/stores/bradford-greengates", "@spider": "matalan_gb", "shop": "clothes", "addr:street_address": "760 Harrogate Road", "addr:city": "Bradford", "addr:postcode": "BD10 0QS", "addr:country": "GB", "name": "Matalan", "phone": "0333 0044444", "website": "https://www.matalan.co.uk/stores/bradford-greengates", "contact:twitter": "@Matalan", "image": "https://matalan-assets.imgix.net/assets/matalan-logo-responsive-0f1c895c6ec9b0b427bf3614e1d03352e41e2e501608cabb0d042b5d22282259.svg", "brand": "Matalan", "brand:wikidata": "Q12061509", "nsi_id": "matalan-1132a1"}, "geometry": {"type": "Point", "coordinates": [-1.711984, 53.83059]}},
{"type": "Feature", "id": "_QZtGvVjap4Bd86CYYD49YZKNVk=", "properties": {"ref": "https://www.matalan.co.uk/stores/bradford-mayo", "@spider": "matalan_gb", "shop": "clothes", "addr:street_address": "Mayo Avenue", "addr:city": "Bradford", "addr:postcode": "BD5 8HP", "addr:country": "GB", "name": "Matalan", "phone": "0333 0044444", "website": "https://www.matalan.co.uk/stores/bradford-mayo", "contact:twitter": "@Matalan", "image": "https://matalan-assets.imgix.net/assets/matalan-logo-responsive-0f1c895c6ec9b0b427bf3614e1d03352e41e2e501608cabb0d042b5d22282259.svg", "brand": "Matalan", "brand:wikidata": "Q12061509", "nsi_id": "matalan-1132a1"}, "geometry": {"type": "Point", "coordinates": [-1.759678, 53.771049]}},
{"type": "Feature", "id": "jFgGBjlzGI9qoG-I-EFlmdDKcRw=", "properties": {"ref": "https://www.matalan.co.uk/stores/bridgwater", "@spider": "matalan_gb", "shop": "clothes", "addr:street_address": "Bristol Road", "addr:city": "Somerset", "addr:postcode": "TA6 4BH", "addr:country": "GB", "name": "Matalan", "phone": "0333 0044444", "website": "https://www.matalan.co.uk/stores/bridgwater", "contact:twitter": "@Matalan", "image": "https://matalan-assets.imgix.net/assets/matalan-logo-responsive-0f1c895c6ec9b0b427bf3614e1d03352e41e2e501608cabb0d042b5d22282259.svg", "brand": "Matalan", "brand:wikidata": "Q12061509", "nsi_id": "matalan-1132a1"}, "geometry": {"type": "Point", "coordinates": [-2.992941, 51.138518]}},
{"type": "Feature", "id": "B7J6MyiswJb6EYo03pCD_MsGd0o=", "properties": {"ref": "https://www.matalan.co.uk/stores/brighton", "@spider": "matalan_gb", "shop": "clothes", "addr:street_address": "Unit Carden Avenue", "addr:city": "Brighton", "addr:postcode": "BN1 8NA", "addr:country": "GB", "name": "Matalan", "phone": "0333 0044444", "website": "https://www.matalan.co.uk/stores/brighton", "contact:twitter": "@Matalan", "image": "https://matalan-assets.imgix.net/assets/matalan-logo-responsive-0f1c895c6ec9b0b427bf3614e1d03352e41e2e501608cabb0d042b5d22282259.svg", "brand": "Matalan", "brand:wikidata": "Q12061509", "nsi_id": "matalan-1132a1"}, "geometry": {"type": "Point", "coordinates": [-0.129068, 50.866357]}},
{"type": "Feature", "id": "QdUklRmrIWPEZ2aIGOK1iT497nU=", "properties": {"ref": "https://www.matalan.co.uk/stores/bristol-brislington", "@spider": "matalan_gb", "shop": "clothes", "addr:street_address": "Unit 1 Brislington Ret Pk", "addr:city": "Brislington", "addr:postcode": "BS4 5NG", "addr:country": "GB", "name": "Matalan", "phone": "0333 0044444", "website": "https://www.matalan.co.uk/stores/bristol-brislington", "contact:twitter": "@Matalan", "image": "https://matalan-assets.imgix.net/assets/matalan-logo-responsive-0f1c895c6ec9b0b427bf3614e1d03352e41e2e501608cabb0d042b5d22282259.svg", "brand": "Matalan", "brand:wikidata": "Q12061509", "nsi_id": "matalan-1132a1"}, "geometry": {"type": "Point", "coordinates": [-2.544644, 51.429871]}},
{"type": "Feature", "id": "qBshvZ-NGNq7F1y-XGpJEsoQaJY=", "properties": {"ref": "https://www.matalan.co.uk/stores/bristol-filton", "@spider": "matalan_gb", "shop": "clothes", "addr:street_address": "Unit 1 Abbey Ret Pk", "addr:city": "Bristol Filton", "addr:postcode": "BS34 7JL", "addr:country": "GB", "name": "Matalan", "phone": "0333 0044444", "website": "https://www.matalan.co.uk/stores/bristol-filton", "contact:twitter": "@Matalan", "image": "https://matalan-assets.imgix.net/assets/matalan-logo-responsive-0f1c895c6ec9b0b427bf3614e1d03352e41e2e501608cabb0d042b5d22282259.svg", "brand": "Matalan", "brand:wikidata": "Q12061509", "nsi_id": "matalan-1132a1"}, "geometry": {"type": "Point", "coordinates": [-2.559218, 51.50628]}},
{"type": "Feature", "id": "COF0mBh-4l6q94ZGL2mmoqGBqpE=", "properties": {"ref": "https://www.matalan.co.uk/stores/bromborough", "@spider": "matalan_gb", "shop": "clothes", "addr:street_address": "Bromborough Village Road", "addr:city": "Bromborough", "addr:postcode": "CH62 7ES", "addr:country": "GB", "name": "Matalan", "phone": "0333 0044444", "website": "https://www.matalan.co.uk/stores/bromborough", "contact:twitter": "@Matalan", "image": "https://matalan-assets.imgix.net/assets/matalan-logo-responsive-0f1c895c6ec9b0b427bf3614e1d03352e41e2e501608cabb0d042b5d22282259.svg", "brand": "Matalan", "brand:wikidata": "Q12061509", "nsi_id": "matalan-1132a1"}, "geometry": {"type": "Point", "coordinates": [-2.977453, 53.333986]}},
{"type": "Feature", "id": "Z6WyurmI_l9aap6HqV_l1NcKW18=", "properties": {"ref": "https://www.matalan.co.uk/stores/burton-relocate", "@spider": "matalan_gb", "shop": "clothes", "addr:street_address": "Middleway Park", "addr:city": "Burton", "addr:postcode": "DE14 1NA", "addr:country": "GB", "name": "Matalan", "phone": "0333 0044444", "website": "https://www.matalan.co.uk/stores/burton-relocate", "contact:twitter": "@Matalan", "image": "https://matalan-assets.imgix.net/assets/matalan-logo-responsive-0f1c895c6ec9b0b427bf3614e1d03352e41e2e501608cabb0d042b5d22282259.svg", "brand": "Matalan", "brand:wikidata": "Q12061509", "nsi_id": "matalan-1132a1"}, "geometry": {"type": "Point", "coordinates": [-1.631659, 52.805777]}},
{"type": "Feature", "id": "DFT_r5DUXFQ3Ia0dts9JeS8WQDo=", "properties": {"ref": "https://www.matalan.co.uk/stores/bury", "@spider": "matalan_gb", "shop": "clothes", "addr:street_address": "Foundry Street", "addr:city": "Bury", "addr:postcode": "BL9 7AZ", "addr:country": "GB", "name": "Matalan", "phone": "0333 0044444", "website": "https://www.matalan.co.uk/stores/bury", "contact:twitter": "@Matalan", "image": "https://matalan-assets.imgix.net/assets/matalan-logo-responsive-0f1c895c6ec9b0b427bf3614e1d03352e41e2e501608cabb0d042b5d22282259.svg", "brand": "Matalan", "brand:wikidata": "Q12061509", "nsi_id": "matalan-1132a1"}, "geometry": {"type": "Point", "coordinates": [-2.289462, 53.592784]}},
{"type": "Feature", "id": "CrE61SnwevT2BISgN-cRjA1c1XI=", "properties": {"ref": "https://www.matalan.co.uk/stores/bury-st-edmunds", "@spider": "matalan_gb", "shop": "clothes", "addr:street_address": "Easlea Road", "addr:city": "Bury St.Edmunds", "addr:postcode": "IP32 7BY", "addr:country": "GB", "name": "Matalan", "phone": "0333 0044444", "website": "https://www.matalan.co.uk/stores/bury-st-edmunds", "contact:twitter": "@Matalan", "image": "https://matalan-assets.imgix.net/assets/matalan-logo-responsive-0f1c895c6ec9b0b427bf3614e1d03352e41e2e501608cabb0d042b5d22282259.svg", "brand": "Matalan", "brand:wikidata": "Q12061509", "nsi_id": "matalan-1132a1"}, "geometry": {"type": "Point", "coordinates": [0.747715, 52.241167]}},
{"type": "Feature", "id": "L8SopVhmG8BTURnS1uoLaGw-HKI=", "properties": {"ref": "https://www.matalan.co.uk/stores/camberley", "@spider": "matalan_gb", "shop": "clothes", "addr:street_address": "Park Farm Ind Est", "addr:city": "Camberley", "addr:postcode": "GU16 7PN", "addr:country": "GB", "name": "Matalan", "phone": "0333 0044444", "website": "https://www.matalan.co.uk/stores/camberley", "contact:twitter": "@Matalan", "image": "https://matalan-assets.imgix.net/assets/matalan-logo-responsive-0f1c895c6ec9b0b427bf3614e1d03352e41e2e501608cabb0d042b5d22282259.svg", "brand": "Matalan", "brand:wikidata": "Q12061509", "nsi_id": "matalan-1132a1"}, "geometry": {"type": "Point", "coordinates": [-0.749188, 51.318222]}},
{"type": "Feature", "id": "OzbPw6c3FPvZegWQIXyfgEmHrjA=", "properties": {"ref": "https://www.matalan.co.uk/stores/canterbury", "@spider": "matalan_gb", "shop": "clothes", "addr:street_address": "Stour Retail Park", "addr:city": "Canterbury", "addr:postcode": "CT1 1AD", "addr:country": "GB", "name": "Matalan", "phone": "0333 0044444", "website": "https://www.matalan.co.uk/stores/canterbury", "contact:twitter": "@Matalan", "image": "https://matalan-assets.imgix.net/assets/matalan-logo-responsive-0f1c895c6ec9b0b427bf3614e1d03352e41e2e501608cabb0d042b5d22282259.svg", "brand": "Matalan", "brand:wikidata": "Q12061509", "nsi_id": "matalan-1132a1"}, "geometry": {"type": "Point", "coordinates": [1.105642, 51.292686]}},
{"type": "Feature", "id": "hyfZa-Cq0KgV_w85WM-RHEp-OEI=", "properties": {"ref": "https://www.matalan.co.uk/stores/cardiff", "@spider": "matalan_gb", "shop": "clothes", "addr:street_address": "The Avenue Retail Park", "addr:city": "Cardiff", "addr:postcode": "CF23 9AE", "addr:country": "GB", "name": "Matalan", "phone": "0333 0044444", "website": "https://www.matalan.co.uk/stores/cardiff", "contact:twitter": "@Matalan", "image": "https://matalan-assets.imgix.net/assets/matalan-logo-responsive-0f1c895c6ec9b0b427bf3614e1d03352e41e2e501608cabb0d042b5d22282259.svg", "brand": "Matalan", "brand:wikidata": "Q12061509", "nsi_id": "matalan-1132a1"}, "geometry": {"type": "Point", "coordinates": [-3.139477, 51.499384]}},
{"type": "Feature", "id": "sJ9f2R_SXEv78wQOULS1wAuqB-c=", "properties": {"ref": "https://www.matalan.co.uk/stores/cardiff-city-centre", "@spider": "matalan_gb", "shop": "clothes", "addr:street_address": "43-45 Queen Street", "addr:city": "Cardiff", "addr:postcode": "CF10 2AS", "addr:country": "GB", "name": "Matalan", "phone": "0333 0044444", "website": "https://www.matalan.co.uk/stores/cardiff-city-centre", "contact:twitter": "@Matalan", "image": "https://matalan-assets.imgix.net/assets/matalan-logo-responsive-0f1c895c6ec9b0b427bf3614e1d03352e41e2e501608cabb0d042b5d22282259.svg", "brand": "Matalan", "brand:wikidata": "Q12061509", "nsi_id": "matalan-1132a1"}, "geometry": {"type": "Point", "coordinates": [-3.177103, 51.482367]}},
{"type": "Feature", "id": "oaA3oFLG8XpXa9F3y41vc5IDfwA=", "properties": {"ref": "https://www.matalan.co.uk/stores/carlisle", "@spider": "matalan_gb", "shop": "clothes", "addr:street_address": "Station Business Ret Pk", "addr:city": "Carlisle", "addr:postcode": "CA2 5AF", "addr:country": "GB", "name": "Matalan", "phone": "0333 0044444", "website": "https://www.matalan.co.uk/stores/carlisle", "contact:twitter": "@Matalan", "image": "https://matalan-assets.imgix.net/assets/matalan-logo-responsive-0f1c895c6ec9b0b427bf3614e1d03352e41e2e501608cabb0d042b5d22282259.svg", "brand": "Matalan", "brand:wikidata": "Q12061509", "nsi_id": "matalan-1132a1"}, "geometry": {"type": "Point", "coordinates": [-2.934726, 54.889235]}},
{"type": "Feature", "id": "eg3-lqiBT3FOinBuN6OlM3jZwr0=", "properties": {"ref": "https://www.matalan.co.uk/stores/carmarthen", "@spider": "matalan_gb", "shop": "clothes", "addr:street_address": "Unit 1 Pensarn Ret Pk", "addr:city": "Carmarthen", "addr:postcode": "SA31 2BG", "addr:country": "GB", "name": "Matalan", "phone": "0333 0044444", "website": "https://www.matalan.co.uk/stores/carmarthen", "contact:twitter": "@Matalan", "image": "https://matalan-assets.imgix.net/assets/matalan-logo-responsive-0f1c895c6ec9b0b427bf3614e1d03352e41e2e501608cabb0d042b5d22282259.svg", "brand": "Matalan", "brand:wikidata": "Q12061509", "nsi_id": "matalan-1132a1"}, "geometry": {"type": "Point", "coordinates": [-4.308806, 51.848999]}},
{"type": "Feature", "id": "uhvzmWPKynB_Xo6hkTkwOb2_Oqo=", "properties": {"ref": "https://www.matalan.co.uk/stores/charlton", "@spider": "matalan_gb", "shop": "clothes", "addr:street_address": "Greenwich Shopping Park", "addr:city": "Charlton, Greenwich", "addr:postcode": "SE7 7SR", "addr:country": "GB", "name": "Matalan", "phone": "0333 0044444", "website": "https://www.matalan.co.uk/stores/charlton", "contact:twitter": "@Matalan", "image": "https://matalan-assets.imgix.net/assets/matalan-logo-responsive-0f1c895c6ec9b0b427bf3614e1d03352e41e2e501608cabb0d042b5d22282259.svg", "brand": "Matalan", "brand:wikidata": "Q12061509", "nsi_id": "matalan-1132a1"}, "geometry": {"type": "Point", "coordinates": [0.02455, 51.488861]}},
{"type": "Feature", "id": "tSlB3pOlrHDqFSiBZkH7j-6yc-4=", "properties": {"ref": "https://www.matalan.co.uk/stores/chelmsford", "@spider": "matalan_gb", "shop": "clothes", "addr:street_address": "Unit 4 Riverside Ret Pk", "addr:city": "Chelmsford", "addr:postcode": "CM1 1AN", "addr:country": "GB", "name": "Matalan", "phone": "0333 0044444", "website": "https://www.matalan.co.uk/stores/chelmsford", "contact:twitter": "@Matalan", "image": "https://matalan-assets.imgix.net/assets/matalan-logo-responsive-0f1c895c6ec9b0b427bf3614e1d03352e41e2e501608cabb0d042b5d22282259.svg", "brand": "Matalan", "brand:wikidata": "Q12061509", "nsi_id": "matalan-1132a1"}, "geometry": {"type": "Point", "coordinates": [0.47933, 51.738168]}},
{"type": "Feature", "id": "ZsxRFTj0vitTYBhCtWrqeecFooI=", "properties": {"ref": "https://www.matalan.co.uk/stores/chester", "@spider": "matalan_gb", "shop": "clothes", "addr:street_address": "Stadium Way, Chester", "addr:city": "Chester", "addr:postcode": "CH1 4PZ", "addr:country": "GB", "name": "Matalan", "phone": "0333 0044444", "website": "https://www.matalan.co.uk/stores/chester", "contact:twitter": "@Matalan", "image": "https://matalan-assets.imgix.net/assets/matalan-logo-responsive-0f1c895c6ec9b0b427bf3614e1d03352e41e2e501608cabb0d042b5d22282259.svg", "brand": "Matalan", "brand:wikidata": "Q12061509", "nsi_id": "matalan-1132a1"}, "geometry": {"type": "Point", "coordinates": [-2.907006, 53.196689]}},
{"type": "Feature", "id": "xkjS6BHcPOVp-WCVtHfW97-eLbI=", "properties": {"ref": "https://www.matalan.co.uk/stores/chesterfield", "@spider": "matalan_gb", "shop": "clothes", "addr:street_address": "Chatsworth Road", "addr:city": "Chesterfield", "addr:postcode": "S40 2AQ", "addr:country": "GB", "name": "Matalan", "phone": "0333 0044444", "website": "https://www.matalan.co.uk/stores/chesterfield", "contact:twitter": "@Matalan", "image": "https://matalan-assets.imgix.net/assets/matalan-logo-responsive-0f1c895c6ec9b0b427bf3614e1d03352e41e2e501608cabb0d042b5d22282259.svg", "brand": "Matalan", "brand:wikidata": "Q12061509", "nsi_id": "matalan-1132a1"}, "geometry": {"type": "Point", "coordinates": [-1.438462, 53.235689]}},
{"type": "Feature", "id": "BCFwJovK3Q8V6T0MDi9LImTR0D4=", "properties": {"ref": "https://www.matalan.co.uk/stores/christchurch", "@spider": "matalan_gb", "shop": "clothes", "addr:street_address": "Unit 6", "addr:city": "Dorset", "addr:postcode": "BH23 3RU", "addr:country": "GB", "name": "Matalan", "phone": "0333 0044444", "website": "https://www.matalan.co.uk/stores/christchurch", "contact:twitter": "@Matalan", "image": "https://matalan-assets.imgix.net/assets/matalan-logo-responsive-0f1c895c6ec9b0b427bf3614e1d03352e41e2e501608cabb0d042b5d22282259.svg", "brand": "Matalan", "brand:wikidata": "Q12061509", "nsi_id": "matalan-1132a1"}, "geometry": {"type": "Point", "coordinates": [-1.742708, 50.739072]}},
{"type": "Feature", "id": "b_4H_V2U40Y0QaZGtM940lqDeP0=", "properties": {"ref": "https://www.matalan.co.uk/stores/clydebank", "@spider": "matalan_gb", "shop": "clothes", "addr:street_address": "77 Livingstone St", "addr:city": "Clydebank", "addr:postcode": "G81 2XA", "addr:country": "GB", "name": "Matalan", "phone": "0333 0044444", "website": "https://www.matalan.co.uk/stores/clydebank", "contact:twitter": "@Matalan", "image": "https://matalan-assets.imgix.net/assets/matalan-logo-responsive-0f1c895c6ec9b0b427bf3614e1d03352e41e2e501608cabb0d042b5d22282259.svg", "brand": "Matalan", "brand:wikidata": "Q12061509", "nsi_id": "matalan-1132a1"}, "geometry": {"type": "Point", "coordinates": [-4.394516, 55.903553]}},
{"type": "Feature", "id": "RH7qWm3yy_BmQbEnl6IJ2U5j68g=", "properties": {"ref": "https://www.matalan.co.uk/stores/coatbridge", "@spider": "matalan_gb", "shop": "clothes", "addr:street_address": "Unit 2 Faraday Ret Pk", "addr:city": "Coatbridge", "addr:postcode": "ML5 3SQ", "addr:country": "GB", "name": "Matalan", "phone": "0333 0044444", "website": "https://www.matalan.co.uk/stores/coatbridge", "contact:twitter": "@Matalan", "image": "https://matalan-assets.imgix.net/assets/matalan-logo-responsive-0f1c895c6ec9b0b427bf3614e1d03352e41e2e501608cabb0d042b5d22282259.svg", "brand": "Matalan", "brand:wikidata": "Q12061509", "nsi_id": "matalan-1132a1"}, "geometry": {"type": "Point", "coordinates": [-4.022326, 55.857817]}},
{"type": "Feature", "id": "0Rn2E5yAq98nvik1MuPKKg6S_xA=", "properties": {"ref": "https://www.matalan.co.uk/stores/colchester", "@spider": "matalan_gb", "shop": "clothes", "addr:street_address": "Unit D-E Sheepen Rl Pk", "addr:city": "Colchester", "addr:postcode": "CO3 3GT", "addr:country": "GB", "name": "Matalan", "phone": "0333 0044444", "website": "https://www.matalan.co.uk/stores/colchester", "contact:twitter": "@Matalan", "image": "https://matalan-assets.imgix.net/assets/matalan-logo-responsive-0f1c895c6ec9b0b427bf3614e1d03352e41e2e501608cabb0d042b5d22282259.svg", "brand": "Matalan", "brand:wikidata": "Q12061509", "nsi_id": "matalan-1132a1"}, "geometry": {"type": "Point", "coordinates": [0.891759, 51.892658]}},
{"type": "Feature", "id": "i-LJB5F7s7RASHfM8GzOpDdJZKA=", "properties": {"ref": "https://www.matalan.co.uk/stores/colindale", "@spider": "matalan_gb", "shop": "clothes", "addr:street_address": "Collindale Retail Park", "addr:city": "Colindale", "addr:postcode": "NW9 6TD", "addr:country": "GB", "name": "Matalan", "phone": "0333 0044444", "website": "https://www.matalan.co.uk/stores/colindale", "contact:twitter": "@Matalan", "image": "https://matalan-assets.imgix.net/assets/matalan-logo-responsive-0f1c895c6ec9b0b427bf3614e1d03352e41e2e501608cabb0d042b5d22282259.svg", "brand": "Matalan", "brand:wikidata": "Q12061509", "nsi_id": "matalan-1132a1"}, "geometry": {"type": "Point", "coordinates": [-0.25629, 51.590083]}},
{"type": "Feature", "id": "aPUwkiFx34xVlFKijS1PsZgZlBo=", "properties": {"ref": "https://www.matalan.co.uk/stores/colne", "@spider": "matalan_gb", "shop": "clothes", "addr:street_address": "North Valley Retail Park", "addr:city": "Colne", "addr:postcode": "BB8 9HH", "addr:country": "GB", "name": "Matalan", "phone": "0333 0044444", "website": "https://www.matalan.co.uk/stores/colne", "contact:twitter": "@Matalan", "image": "https://matalan-assets.imgix.net/assets/matalan-logo-responsive-0f1c895c6ec9b0b427bf3614e1d03352e41e2e501608cabb0d042b5d22282259.svg", "brand": "Matalan", "brand:wikidata": "Q12061509", "nsi_id": "matalan-1132a1"}, "geometry": {"type": "Point", "coordinates": [-2.168774, 53.860128]}},
{"type": "Feature", "id": "sAZDSiqYs2ydhuaFZmdR41mKU4A=", "properties": {"ref": "https://www.matalan.co.uk/stores/consett", "@spider": "matalan_gb", "shop": "clothes", "addr:street_address": "Hermiston Retail Park", "addr:city": "Consett", "addr:postcode": "DH8 5SB", "addr:country": "GB", "name": "Matalan", "phone": "0333 0044444", "website": "https://www.matalan.co.uk/stores/consett", "contact:twitter": "@Matalan", "image": "https://matalan-assets.imgix.net/assets/matalan-logo-responsive-0f1c895c6ec9b0b427bf3614e1d03352e41e2e501608cabb0d042b5d22282259.svg", "brand": "Matalan", "brand:wikidata": "Q12061509", "nsi_id": "matalan-1132a1"}, "geometry": {"type": "Point", "coordinates": [-1.835897, 54.848885]}},
{"type": "Feature", "id": "u9svo6jcQ5vJshcUEf5k10oUdTk=", "properties": {"ref": "https://www.matalan.co.uk/stores/corby", "@spider": "matalan_gb", "shop": "clothes", "addr:street_address": "Unit 1 Pheonix Ret Pk", "addr:city": "Corby", "addr:postcode": "NN17 5DT", "addr:country": "GB", "name": "Matalan", "phone": "0333 0044444", "website": "https://www.matalan.co.uk/stores/corby", "contact:twitter": "@Matalan", "image": "https://matalan-assets.imgix.net/assets/matalan-logo-responsive-0f1c895c6ec9b0b427bf3614e1d03352e41e2e501608cabb0d042b5d22282259.svg", "brand": "Matalan", "brand:wikidata": "Q12061509", "nsi_id": "matalan-1132a1"}, "geometry": {"type": "Point", "coordinates": [-0.682204, 52.495417]}},
{"type": "Feature", "id": "W6KO_cxrFlM17BQGLk_XcyoDC9g=", "properties": {"ref": "https://www.matalan.co.uk/stores/cortonwood", "@spider": "matalan_gb", "shop": "clothes", "addr:street_address": "Unit 5 Cortonwood Ret Pk", "addr:city": "Barnsley", "addr:postcode": "S73 0UF", "addr:country": "GB", "name": "Matalan", "phone": "0333 0044444", "website": "https://www.matalan.co.uk/stores/cortonwood", "contact:twitter": "@Matalan", "image": "https://matalan-assets.imgix.net/assets/matalan-logo-responsive-0f1c895c6ec9b0b427bf3614e1d03352e41e2e501608cabb0d042b5d22282259.svg", "brand": "Matalan", "brand:wikidata": "Q12061509", "nsi_id": "matalan-1132a1"}, "geometry": {"type": "Point", "coordinates": [-1.388469, 53.507116]}},
{"type": "Feature", "id": "9MwNViRyQbA3X7OvN3ZF6DHiVgI=", "properties": {"ref": "https://www.matalan.co.uk/stores/coventry-north", "@spider": "matalan_gb", "shop": "clothes", "addr:street_address": "Gallagher Ret Pk", "addr:city": "Coventry", "addr:postcode": "CV6 5QQ", "addr:country": "GB", "name": "Matalan", "phone": "0333 0044444", "website": "https://www.matalan.co.uk/stores/coventry-north", "contact:twitter": "@Matalan", "image": "https://matalan-assets.imgix.net/assets/matalan-logo-responsive-0f1c895c6ec9b0b427bf3614e1d03352e41e2e501608cabb0d042b5d22282259.svg", "brand": "Matalan", "brand:wikidata": "Q12061509", "nsi_id": "matalan-1132a1"}, "geometry": {"type": "Point", "coordinates": [-1.492102, 52.430805]}},
{"type": "Feature", "id": "WBLOiS1i42O4xWQCJcPNX8iINrQ=", "properties": {"ref": "https://www.matalan.co.uk/stores/coventry-south", "@spider": "matalan_gb", "shop": "clothes", "addr:street_address": "Wheler Road", "addr:city": "Coventry", "addr:postcode": "CV3 4LA", "addr:country": "GB", "name": "Matalan", "phone": "0333 0044444", "website": "https://www.matalan.co.uk/stores/coventry-south", "contact:twitter": "@Matalan", "image": "https://matalan-assets.imgix.net/assets/matalan-logo-responsive-0f1c895c6ec9b0b427bf3614e1d03352e41e2e501608cabb0d042b5d22282259.svg", "brand": "Matalan", "brand:wikidata": "Q12061509", "nsi_id": "matalan-1132a1"}, "geometry": {"type": "Point", "coordinates": [-1.481319, 52.392268]}},
{"type": "Feature", "id": "HkzHVo8ktGadSGeKDWrvwhLCrv8=", "properties": {"ref": "https://www.matalan.co.uk/stores/craigavon", "@spider": "matalan_gb", "shop": "clothes", "addr:street_address": "Rushmere Retail Park", "addr:city": "Craigavon", "addr:postcode": "BT64 1AA", "addr:country": "GB", "name": "Matalan", "phone": "0333 0044444", "website": "https://www.matalan.co.uk/stores/craigavon", "contact:twitter": "@Matalan", "image": "https://matalan-assets.imgix.net/assets/matalan-logo-responsive-0f1c895c6ec9b0b427bf3614e1d03352e41e2e501608cabb0d042b5d22282259.svg", "brand": "Matalan", "brand:wikidata": "Q12061509", "nsi_id": "matalan-1132a1"}, "geometry": {"type": "Point", "coordinates": [-6.393139, 54.451843]}},
{"type": "Feature", "id": "Wk7Ggv4lbd2UNXYJ2D_YXPWcHWE=", "properties": {"ref": "https://www.matalan.co.uk/stores/crawley", "@spider": "matalan_gb", "shop": "clothes", "addr:street_address": "Unit 1a", "addr:city": "Crawley", "addr:postcode": "RH10 8JD", "addr:country": "GB", "name": "Matalan", "phone": "0333 0044444", "website": "https://www.matalan.co.uk/stores/crawley", "contact:twitter": "@Matalan", "image": "https://matalan-assets.imgix.net/assets/matalan-logo-responsive-0f1c895c6ec9b0b427bf3614e1d03352e41e2e501608cabb0d042b5d22282259.svg", "brand": "Matalan", "brand:wikidata": "Q12061509", "nsi_id": "matalan-1132a1"}, "geometry": {"type": "Point", "coordinates": [-0.18964, 51.12196]}},
{"type": "Feature", "id": "ROlzljakgKe9GqebVNzuwSzz0Fk=", "properties": {"ref": "https://www.matalan.co.uk/stores/cricklewood", "@spider": "matalan_gb", "shop": "clothes", "addr:street_address": "Edgware Road", "addr:city": "Cricklewood", "addr:postcode": "NW2 6PH", "addr:country": "GB", "name": "Matalan", "phone": "0333 0044444", "website": "https://www.matalan.co.uk/stores/cricklewood", "contact:twitter": "@Matalan", "image": "https://matalan-assets.imgix.net/assets/matalan-logo-responsive-0f1c895c6ec9b0b427bf3614e1d03352e41e2e501608cabb0d042b5d22282259.svg", "brand": "Matalan", "brand:wikidata": "Q12061509", "nsi_id": "matalan-1132a1"}, "geometry": {"type": "Point", "coordinates": [-0.219932, 51.560802]}},
{"type": "Feature", "id": "6T3bzF1HHUawZ1GKF8L34cvYKYo=", "properties": {"ref": "https://www.matalan.co.uk/stores/croydon", "@spider": "matalan_gb", "shop": "clothes", "addr:street_address": "66 Purley Way", "addr:city": "Croydon", "addr:postcode": "CR0 3JP", "addr:country": "GB", "name": "Matalan", "phone": "0333 0044444", "website": "https://www.matalan.co.uk/stores/croydon", "contact:twitter": "@Matalan", "image": "https://matalan-assets.imgix.net/assets/matalan-logo-responsive-0f1c895c6ec9b0b427bf3614e1d03352e41e2e501608cabb0d042b5d22282259.svg", "brand": "Matalan", "brand:wikidata": "Q12061509", "nsi_id": "matalan-1132a1"}, "geometry": {"type": "Point", "coordinates": [-0.121023, 51.383201]}},
{"type": "Feature", "id": "3R9CXG68iH56sUXEUO6N4_RRCBs=", "properties": {"ref": "https://www.matalan.co.uk/stores/cwmbran", "@spider": "matalan_gb", "shop": "clothes", "addr:street_address": "Unit 1, Llewelyn Walk", "addr:city": "Cwmbran", "addr:postcode": "NP44 1YN", "addr:country": "GB", "name": "Matalan", "phone": "0333 0044444", "website": "https://www.matalan.co.uk/stores/cwmbran", "contact:twitter": "@Matalan", "image": "https://matalan-assets.imgix.net/assets/matalan-logo-responsive-0f1c895c6ec9b0b427bf3614e1d03352e41e2e501608cabb0d042b5d22282259.svg", "brand": "Matalan", "brand:wikidata": "Q12061509", "nsi_id": "matalan-1132a1"}, "geometry": {"type": "Point", "coordinates": [-3.023876, 51.652297]}},
{"type": "Feature", "id": "99rM-ZYzSnNVVoqS7Pja7uXAauY=", "properties": {"ref": "https://www.matalan.co.uk/stores/dalston", "@spider": "matalan_gb", "shop": "clothes", "addr:street_address": "Kingsland Shopping Centre", "addr:city": "Dalston", "addr:postcode": "E8 2LX", "addr:country": "GB", "name": "Matalan", "phone": "0333 0044444", "website": "https://www.matalan.co.uk/stores/dalston", "contact:twitter": "@Matalan", "image": "https://matalan-assets.imgix.net/assets/matalan-logo-responsive-0f1c895c6ec9b0b427bf3614e1d03352e41e2e501608cabb0d042b5d22282259.svg", "brand": "Matalan", "brand:wikidata": "Q12061509", "nsi_id": "matalan-1132a1"}, "geometry": {"type": "Point", "coordinates": [-0.075516, 51.547746]}},
{"type": "Feature", "id": "lWKRGy9RQNtbFExjzDNZ1gc3cTw=", "properties": {"ref": "https://www.matalan.co.uk/stores/darlington", "@spider": "matalan_gb", "shop": "clothes", "addr:street_address": "Neasham Retail Centre", "addr:city": "Darlington", "addr:postcode": "Dl1 4PF", "addr:country": "GB", "name": "Matalan", "phone": "0333 0044444", "website": "https://www.matalan.co.uk/stores/darlington", "contact:twitter": "@Matalan", "image": "https://matalan-assets.imgix.net/assets/matalan-logo-responsive-0f1c895c6ec9b0b427bf3614e1d03352e41e2e501608cabb0d042b5d22282259.svg", "brand": "Matalan", "brand:wikidata": "Q12061509", "nsi_id": "matalan-1132a1"}, "geometry": {"type": "Point", "coordinates": [-1.543935, 54.519956]}},
{"type": "Feature", "id": "JinDFyQbzfsXbtVBtDX3svxxW1Q=", "properties": {"ref": "https://www.matalan.co.uk/stores/darnley", "@spider": "matalan_gb", "shop": "clothes", "addr:street_address": "589 Nitshill Road", "addr:city": "Glasgow", "addr:postcode": "G53 7RZ", "addr:country": "GB", "name": "Matalan", "phone": "0333 0044444", "website": "https://www.matalan.co.uk/stores/darnley", "contact:twitter": "@Matalan", "image": "https://matalan-assets.imgix.net/assets/matalan-logo-responsive-0f1c895c6ec9b0b427bf3614e1d03352e41e2e501608cabb0d042b5d22282259.svg", "brand": "Matalan", "brand:wikidata": "Q12061509", "nsi_id": "matalan-1132a1"}, "geometry": {"type": "Point", "coordinates": [-4.353642, 55.811211]}},
{"type": "Feature", "id": "2j6OycjmOKdDFF6WbcWq35Ld6UM=", "properties": {"ref": "https://www.matalan.co.uk/stores/dartford", "@spider": "matalan_gb", "shop": "clothes", "addr:street_address": "Unit 6   10 Prospect Plc", "addr:city": "Dartford", "addr:postcode": "DA1 1DY", "addr:country": "GB", "name": "Matalan", "phone": "0333 0044444", "website": "https://www.matalan.co.uk/stores/dartford", "contact:twitter": "@Matalan", "image": "https://matalan-assets.imgix.net/assets/matalan-logo-responsive-0f1c895c6ec9b0b427bf3614e1d03352e41e2e501608cabb0d042b5d22282259.svg", "brand": "Matalan", "brand:wikidata": "Q12061509", "nsi_id": "matalan-1132a1"}, "geometry": {"type": "Point", "coordinates": [0.215464, 51.44742]}},
{"type": "Feature", "id": "asG23U7WGDRC5_bFO44noMgNia0=", "properties": {"ref": "https://www.matalan.co.uk/stores/derby", "@spider": "matalan_gb", "shop": "clothes", "addr:street_address": "Bradshaw Retail Park", "addr:city": "Derby", "addr:postcode": "DE1 2QB", "addr:country": "GB", "name": "Matalan", "phone": "0333 0044444", "website": "https://www.matalan.co.uk/stores/derby", "contact:twitter": "@Matalan", "image": "https://matalan-assets.imgix.net/assets/matalan-logo-responsive-0f1c895c6ec9b0b427bf3614e1d03352e41e2e501608cabb0d042b5d22282259.svg", "brand": "Matalan", "brand:wikidata": "Q12061509", "nsi_id": "matalan-1132a1"}, "geometry": {"type": "Point", "coordinates": [-1.472463, 52.91722]}},
{"type": "Feature", "id": "jCcjmhhrbNBCNlOcPQwg0Ue7jZE=", "properties": {"ref": "https://www.matalan.co.uk/stores/dewsbury", "@spider": "matalan_gb", "shop": "clothes", "addr:street_address": "The Rishworth Centre", "addr:city": "Dewsbury", "addr:postcode": "WF12 8EQ", "addr:country": "GB", "name": "Matalan", "phone": "0333 0044444", "website": "https://www.matalan.co.uk/stores/dewsbury", "contact:twitter": "@Matalan", "image": "https://matalan-assets.imgix.net/assets/matalan-logo-responsive-0f1c895c6ec9b0b427bf3614e1d03352e41e2e501608cabb0d042b5d22282259.svg", "brand": "Matalan", "brand:wikidata": "Q12061509", "nsi_id": "matalan-1132a1"}, "geometry": {"type": "Point", "coordinates": [-1.626175, 53.690305]}},
{"type": "Feature", "id": "GSfzklLf2Eo_U8cnWmWXCN_HkQ0=", "properties": {"ref": "https://www.matalan.co.uk/stores/doncaster", "@spider": "matalan_gb", "shop": "clothes", "addr:street_address": "Wheatley Retail Park", "addr:city": "Doncaster", "addr:postcode": "DN2 4PE", "addr:country": "GB", "name": "Matalan", "phone": "0333 0044444", "website": "https://www.matalan.co.uk/stores/doncaster", "contact:twitter": "@Matalan", "image": "https://matalan-assets.imgix.net/assets/matalan-logo-responsive-0f1c895c6ec9b0b427bf3614e1d03352e41e2e501608cabb0d042b5d22282259.svg", "brand": "Matalan", "brand:wikidata": "Q12061509", "nsi_id": "matalan-1132a1"}, "geometry": {"type": "Point", "coordinates": [-1.103896, 53.541985]}},
{"type": "Feature", "id": "5x6XJXcaSPCI-s4JS0ibPkLdsfg=", "properties": {"ref": "https://www.matalan.co.uk/stores/dumfries", "@spider": "matalan_gb", "shop": "clothes", "addr:street_address": "Unit 1, The Peel Centre", "addr:city": "Dumfries", "addr:postcode": "DG1 3PF", "addr:country": "GB", "name": "Matalan", "phone": "0333 0044444", "website": "https://www.matalan.co.uk/stores/dumfries", "contact:twitter": "@Matalan", "image": "https://matalan-assets.imgix.net/assets/matalan-logo-responsive-0f1c895c6ec9b0b427bf3614e1d03352e41e2e501608cabb0d042b5d22282259.svg", "brand": "Matalan", "brand:wikidata": "Q12061509", "nsi_id": "matalan-1132a1"}, "geometry": {"type": "Point", "coordinates": [-3.584752, 55.074164]}},
{"type": "Feature", "id": "CrnK5TmIV67ytYmn-qqiBJkhtME=", "properties": {"ref": "https://www.matalan.co.uk/stores/dundee", "@spider": "matalan_gb", "shop": "clothes", "addr:street_address": "Unit 1 Gallagher Ret Pk", "addr:city": "Dundee", "addr:postcode": "DD1 3JS", "addr:country": "GB", "name": "Matalan", "phone": "0333 0044444", "website": "https://www.matalan.co.uk/stores/dundee", "contact:twitter": "@Matalan", "image": "https://matalan-assets.imgix.net/assets/matalan-logo-responsive-0f1c895c6ec9b0b427bf3614e1d03352e41e2e501608cabb0d042b5d22282259.svg", "brand": "Matalan", "brand:wikidata": "Q12061509", "nsi_id": "matalan-1132a1"}, "geometry": {"type": "Point", "coordinates": [-2.960681, 56.464013]}},
{"type": "Feature", "id": "6bD0x71zNWpKFF7sVPJsi4tSeec=", "properties": {"ref": "https://www.matalan.co.uk/stores/dunfermline", "@spider": "matalan_gb", "shop": "clothes", "addr:street_address": "Unit 2-3, Carnegie Drive", "addr:city": "Dunfermline", "addr:postcode": "KY12 7AU", "addr:country": "GB", "name": "Matalan", "phone": "0333 0044444", "website": "https://www.matalan.co.uk/stores/dunfermline", "contact:twitter": "@Matalan", "image": "https://matalan-assets.imgix.net/assets/matalan-logo-responsive-0f1c895c6ec9b0b427bf3614e1d03352e41e2e501608cabb0d042b5d22282259.svg", "brand": "Matalan", "brand:wikidata": "Q12061509", "nsi_id": "matalan-1132a1"}, "geometry": {"type": "Point", "coordinates": [-3.456822, 56.072954]}},
{"type": "Feature", "id": "9LICaRuv9A8JZ3dpeXmogn0gnnE=", "properties": {"ref": "https://www.matalan.co.uk/stores/durham", "@spider": "matalan_gb", "shop": "clothes", "addr:street_address": "Dragonville Lane", "addr:city": "Durham", "addr:postcode": "DH1 2WP", "addr:country": "GB", "name": "Matalan", "phone": "0333 0044444", "website": "https://www.matalan.co.uk/stores/durham", "contact:twitter": "@Matalan", "image": "https://matalan-assets.imgix.net/assets/matalan-logo-responsive-0f1c895c6ec9b0b427bf3614e1d03352e41e2e501608cabb0d042b5d22282259.svg", "brand": "Matalan", "brand:wikidata": "Q12061509", "nsi_id": "matalan-1132a1"}, "geometry": {"type": "Point", "coordinates": [-1.541177, 54.776328]}},
{"type": "Feature", "id": "OeQSAaEyJeq5YzpRs9BFo5VfxEM=", "properties": {"ref": "https://www.matalan.co.uk/stores/eastbourne", "@spider": "matalan_gb", "shop": "clothes", "addr:street_address": "Unit 4The Crumbles Ret Pk", "addr:city": "Eastbourne", "addr:postcode": "BN23 6JH", "addr:country": "GB", "name": "Matalan", "phone": "0333 0044444", "website": "https://www.matalan.co.uk/stores/eastbourne", "contact:twitter": "@Matalan", "image": "https://matalan-assets.imgix.net/assets/matalan-logo-responsive-0f1c895c6ec9b0b427bf3614e1d03352e41e2e501608cabb0d042b5d22282259.svg", "brand": "Matalan", "brand:wikidata": "Q12061509", "nsi_id": "matalan-1132a1"}, "geometry": {"type": "Point", "coordinates": [0.32361, 50.794996]}},
{"type": "Feature", "id": "bEBYKYBWk9lXSfd-twHs3WJfPVs=", "properties": {"ref": "https://www.matalan.co.uk/stores/eastleigh", "@spider": "matalan_gb", "shop": "clothes", "addr:street_address": "Unit 4 Channon Ret Pk", "addr:city": "Eastleigh", "addr:postcode": "SO50 9NA", "addr:country": "GB", "name": "Matalan", "phone": "0333 0044444", "website": "https://www.matalan.co.uk/stores/eastleigh", "contact:twitter": "@Matalan", "image": "https://matalan-assets.imgix.net/assets/matalan-logo-responsive-0f1c895c6ec9b0b427bf3614e1d03352e41e2e501608cabb0d042b5d22282259.svg", "brand": "Matalan", "brand:wikidata": "Q12061509", "nsi_id": "matalan-1132a1"}, "geometry": {"type": "Point", "coordinates": [-1.367975, 50.972823]}},
{"type": "Feature", "id": "BXqdg-_4O2-Qrh_K08qxlIMniD8=", "properties": {"ref": "https://www.matalan.co.uk/stores/edinburgh-leith", "@spider": "matalan_gb", "shop": "clothes", "addr:street_address": "Seafield Way", "addr:city": "Edinburgh", "addr:postcode": "EH15 1TB", "addr:country": "GB", "name": "Matalan", "phone": "0333 0044444", "website": "https://www.matalan.co.uk/stores/edinburgh-leith", "contact:twitter": "@Matalan", "image": "https://matalan-assets.imgix.net/assets/matalan-logo-responsive-0f1c895c6ec9b0b427bf3614e1d03352e41e2e501608cabb0d042b5d22282259.svg", "brand": "Matalan", "brand:wikidata": "Q12061509", "nsi_id": "matalan-1132a1"}, "geometry": {"type": "Point", "coordinates": [-3.135061, 55.967273]}},
{"type": "Feature", "id": "QPDhk9xTMeCJUisaPtFRv6POtg8=", "properties": {"ref": "https://www.matalan.co.uk/stores/edinburgh-straiton", "@spider": "matalan_gb", "shop": "clothes", "addr:street_address": "Straiton Retail Pa", "addr:city": "Edinburgh", "addr:postcode": "EH20 9QY", "addr:country": "GB", "name": "Matalan", "phone": "0333 0044444", "website": "https://www.matalan.co.uk/stores/edinburgh-straiton", "contact:twitter": "@Matalan", "image": "https://matalan-assets.imgix.net/assets/matalan-logo-responsive-0f1c895c6ec9b0b427bf3614e1d03352e41e2e501608cabb0d042b5d22282259.svg", "brand": "Matalan", "brand:wikidata": "Q12061509", "nsi_id": "matalan-1132a1"}, "geometry": {"type": "Point", "coordinates": [-3.168751, 55.886662]}},
{"type": "Feature", "id": "i3CLWtuGtSjJBFar1Z8n8f1KPA4=", "properties": {"ref": "https://www.matalan.co.uk/stores/edmonton", "@spider": "matalan_gb", "shop": "clothes", "addr:street_address": "Edmonton Metro", "addr:city": "Edmonton", "addr:postcode": "N9 0EJ", "addr:country": "GB", "name": "Matalan", "phone": "0333 0044444", "website": "https://www.matalan.co.uk/stores/edmonton", "contact:twitter": "@Matalan", "image": "https://matalan-assets.imgix.net/assets/matalan-logo-responsive-0f1c895c6ec9b0b427bf3614e1d03352e41e2e501608cabb0d042b5d22282259.svg", "brand": "Matalan", "brand:wikidata": "Q12061509", "nsi_id": "matalan-1132a1"}, "geometry": {"type": "Point", "coordinates": [-0.05683, 51.625063]}},
{"type": "Feature", "id": "CCe1dW4mDl38KGPBqg-51IFAdRs=", "properties": {"ref": "https://www.matalan.co.uk/stores/elgin", "@spider": "matalan_gb", "shop": "clothes", "addr:street_address": "Edgar Road Retail Park", "addr:city": "Elgin", "addr:postcode": "IV30 6YQ", "addr:country": "GB", "name": "Matalan", "phone": "0333 0044444", "website": "https://www.matalan.co.uk/stores/elgin", "contact:twitter": "@Matalan", "image": "https://matalan-assets.imgix.net/assets/matalan-logo-responsive-0f1c895c6ec9b0b427bf3614e1d03352e41e2e501608cabb0d042b5d22282259.svg", "brand": "Matalan", "brand:wikidata": "Q12061509", "nsi_id": "matalan-1132a1"}, "geometry": {"type": "Point", "coordinates": [-3.315604, 57.63994]}},
{"type": "Feature", "id": "KqAMwZclA-v8ipzdNklonls9mWw=", "properties": {"ref": "https://www.matalan.co.uk/stores/enfield", "@spider": "matalan_gb", "shop": "clothes", "addr:street_address": "The Brand Centre", "addr:city": "Enfield", "addr:postcode": "EN3 7NJ", "addr:country": "GB", "name": "Matalan", "phone": "0333 0044444", "website": "https://www.matalan.co.uk/stores/enfield", "contact:twitter": "@Matalan", "image": "https://matalan-assets.imgix.net/assets/matalan-logo-responsive-0f1c895c6ec9b0b427bf3614e1d03352e41e2e501608cabb0d042b5d22282259.svg", "brand": "Matalan", "brand:wikidata": "Q12061509", "nsi_id": "matalan-1132a1"}, "geometry": {"type": "Point", "coordinates": [-0.028818, 51.654783]}},
{"type": "Feature", "id": "EJTdnYomHr0j8zIccH3X9hOC-7w=", "properties": {"ref": "https://www.matalan.co.uk/stores/erith", "@spider": "matalan_gb", "shop": "clothes", "addr:street_address": "3 Pier Road", "addr:city": "Erith", "addr:postcode": "DA8 1RG", "addr:country": "GB", "name": "Matalan", "phone": "0333 0044444", "website": "https://www.matalan.co.uk/stores/erith", "contact:twitter": "@Matalan", "image": "https://matalan-assets.imgix.net/assets/matalan-logo-responsive-0f1c895c6ec9b0b427bf3614e1d03352e41e2e501608cabb0d042b5d22282259.svg", "brand": "Matalan", "brand:wikidata": "Q12061509", "nsi_id": "matalan-1132a1"}, "geometry": {"type": "Point", "coordinates": [0.181832, 51.480534]}},
{"type": "Feature", "id": "e4YxfBRtm0fS4qiS98BXlkDm8WU=", "properties": {"ref": "https://www.matalan.co.uk/stores/exeter", "@spider": "matalan_gb", "shop": "clothes", "addr:street_address": "Unit 7", "addr:city": "Exeter", "addr:postcode": "EX2 8LH", "addr:country": "GB", "name": "Matalan", "phone": "0333 0044444", "website": "https://www.matalan.co.uk/stores/exeter", "contact:twitter": "@Matalan", "image": "https://matalan-assets.imgix.net/assets/matalan-logo-responsive-0f1c895c6ec9b0b427bf3614e1d03352e41e2e501608cabb0d042b5d22282259.svg", "brand": "Matalan", "brand:wikidata": "Q12061509", "nsi_id": "matalan-1132a1"}, "geometry": {"type": "Point", "coordinates": [-3.535955, 50.709603]}},
{"type": "Feature", "id": "qcfxYPQN7QMIf5DCtc8MQbuUm18=", "properties": {"ref": "https://www.matalan.co.uk/stores/falkirk", "@spider": "matalan_gb", "shop": "clothes", "addr:street_address": "Carron Road", "addr:city": "Falkirk", "addr:postcode": "FK2 7RR", "addr:country": "GB", "name": "Matalan", "phone": "0333 0044444", "website": "https://www.matalan.co.uk/stores/falkirk", "contact:twitter": "@Matalan", "image": "https://matalan-assets.imgix.net/assets/matalan-logo-responsive-0f1c895c6ec9b0b427bf3614e1d03352e41e2e501608cabb0d042b5d22282259.svg", "brand": "Matalan", "brand:wikidata": "Q12061509", "nsi_id": "matalan-1132a1"}, "geometry": {"type": "Point", "coordinates": [-3.790819, 56.015431]}},
{"type": "Feature", "id": "MPnAx1dMVeb5C02N-gCU5hLb2uU=", "properties": {"ref": "https://www.matalan.co.uk/stores/fareham", "@spider": "matalan_gb", "shop": "clothes", "addr:street_address": "Collingwood Retail Park", "addr:city": "Fareham", "addr:postcode": "PO14 1AN", "addr:country": "GB", "name": "Matalan", "phone": "0333 0044444", "website": "https://www.matalan.co.uk/stores/fareham", "contact:twitter": "@Matalan", "image": "https://matalan-assets.imgix.net/assets/matalan-logo-responsive-0f1c895c6ec9b0b427bf3614e1d03352e41e2e501608cabb0d042b5d22282259.svg", "brand": "Matalan", "brand:wikidata": "Q12061509", "nsi_id": "matalan-1132a1"}, "geometry": {"type": "Point", "coordinates": [-1.185171, 50.836986]}},
{"type": "Feature", "id": "FUB_w0pa4Ng2Gxz5TmHuC8muYpg=", "properties": {"ref": "https://www.matalan.co.uk/stores/feltham", "@spider": "matalan_gb", "shop": "clothes", "addr:street_address": "Unit 1, The Centre", "addr:city": "Feltham", "addr:postcode": "TW13 4AU", "addr:country": "GB", "name": "Matalan", "phone": "0333 0044444", "website": "https://www.matalan.co.uk/stores/feltham", "contact:twitter": "@Matalan", "image": "https://matalan-assets.imgix.net/assets/matalan-logo-responsive-0f1c895c6ec9b0b427bf3614e1d03352e41e2e501608cabb0d042b5d22282259.svg", "brand": "Matalan", "brand:wikidata": "Q12061509", "nsi_id": "matalan-1132a1"}, "geometry": {"type": "Point", "coordinates": [-0.409874, 51.446193]}},
{"type": "Feature", "id": "P1F2abC0bJXAqvdjddo-dqWSCj4=", "properties": {"ref": "https://www.matalan.co.uk/stores/galashiels", "@spider": "matalan_gb", "shop": "clothes", "addr:street_address": "Comely Bank Mill Ret Pk", "addr:city": "Galashiels", "addr:postcode": "TD1 1PY", "addr:country": "GB", "name": "Matalan", "phone": "0333 0044444", "website": "https://www.matalan.co.uk/stores/galashiels", "contact:twitter": "@Matalan", "image": "https://matalan-assets.imgix.net/assets/matalan-logo-responsive-0f1c895c6ec9b0b427bf3614e1d03352e41e2e501608cabb0d042b5d22282259.svg", "brand": "Matalan", "brand:wikidata": "Q12061509", "nsi_id": "matalan-1132a1"}, "geometry": {"type": "Point", "coordinates": [-2.82012, 55.622399]}},
{"type": "Feature", "id": "z8zmTFtFgbguXIC9idNaVFa1GxM=", "properties": {"ref": "https://www.matalan.co.uk/stores/gateshead-central", "@spider": "matalan_gb", "shop": "clothes", "addr:street_address": "137 High Street", "addr:city": "Gateshead", "addr:postcode": "NE8 1EJ", "addr:country": "GB", "name": "Matalan", "phone": "0333 0044444", "website": "https://www.matalan.co.uk/stores/gateshead-central", "contact:twitter": "@Matalan", "image": "https://matalan-assets.imgix.net/assets/matalan-logo-responsive-0f1c895c6ec9b0b427bf3614e1d03352e41e2e501608cabb0d042b5d22282259.svg", "brand": "Matalan", "brand:wikidata": "Q12061509", "nsi_id": "matalan-1132a1"}, "geometry": {"type": "Point", "coordinates": [-1.600026, 54.958387]}},
{"type": "Feature", "id": "Y08WIjlPQ3efaWTjDrRrji6eRsg=", "properties": {"ref": "https://www.matalan.co.uk/stores/glasgow-city", "@spider": "matalan_gb", "shop": "clothes", "addr:street_address": "Jamaica St", "addr:city": "Glasgow", "addr:postcode": "G1 4NN", "addr:country": "GB", "name": "Matalan", "phone": "0333 0044444", "website": "https://www.matalan.co.uk/stores/glasgow-city", "contact:twitter": "@Matalan", "image": "https://matalan-assets.imgix.net/assets/matalan-logo-responsive-0f1c895c6ec9b0b427bf3614e1d03352e41e2e501608cabb0d042b5d22282259.svg", "brand": "Matalan", "brand:wikidata": "Q12061509", "nsi_id": "matalan-1132a1"}, "geometry": {"type": "Point", "coordinates": [-4.2572, 55.85736]}},
{"type": "Feature", "id": "V3gmmNrgU9Dz05E_WxLBXTHx9dw=", "properties": {"ref": "https://www.matalan.co.uk/stores/glasgow-london-road", "@spider": "matalan_gb", "shop": "clothes", "addr:street_address": "2121 London Road", "addr:city": "Glasgow", "addr:postcode": "G32 8XQ", "addr:country": "GB", "name": "Matalan", "phone": "0333 0044444", "website": "https://www.matalan.co.uk/stores/glasgow-london-road", "contact:twitter": "@Matalan", "image": "https://matalan-assets.imgix.net/assets/matalan-logo-responsive-0f1c895c6ec9b0b427bf3614e1d03352e41e2e501608cabb0d042b5d22282259.svg", "brand": "Matalan", "brand:wikidata": "Q12061509", "nsi_id": "matalan-1132a1"}, "geometry": {"type": "Point", "coordinates": [-4.257051, 55.856988]}},
{"type": "Feature", "id": "4uetrXhHJMwu9d76vcup2ub6knQ=", "properties": {"ref": "https://www.matalan.co.uk/stores/glenrothes", "@spider": "matalan_gb", "shop": "clothes", "addr:street_address": "Saltire Retail Park", "addr:city": "Glenrothes", "addr:postcode": "KY6 2AJ", "addr:country": "GB", "name": "Matalan", "phone": "0333 0044444", "website": "https://www.matalan.co.uk/stores/glenrothes", "contact:twitter": "@Matalan", "image": "https://matalan-assets.imgix.net/assets/matalan-logo-responsive-0f1c895c6ec9b0b427bf3614e1d03352e41e2e501608cabb0d042b5d22282259.svg", "brand": "Matalan", "brand:wikidata": "Q12061509", "nsi_id": "matalan-1132a1"}, "geometry": {"type": "Point", "coordinates": [-3.186776, 56.188026]}},
{"type": "Feature", "id": "s13_YFOJHG_Ck7Xoy7Tl8Cc-SBE=", "properties": {"ref": "https://www.matalan.co.uk/stores/gloucester", "@spider": "matalan_gb", "shop": "clothes", "addr:street_address": "Unit 2 The Olympus Centre", "addr:city": "Gloucester", "addr:postcode": "GL2 4NF", "addr:country": "GB", "name": "Matalan", "phone": "0333 0044444", "website": "https://www.matalan.co.uk/stores/gloucester", "contact:twitter": "@Matalan", "image": "https://matalan-assets.imgix.net/assets/matalan-logo-responsive-0f1c895c6ec9b0b427bf3614e1d03352e41e2e501608cabb0d042b5d22282259.svg", "brand": "Matalan", "brand:wikidata": "Q12061509", "nsi_id": "matalan-1132a1"}, "geometry": {"type": "Point", "coordinates": [-2.274998, 51.826918]}},
{"type": "Feature", "id": "IFDOhDutZOe5keJW86kZi98TWjw=", "properties": {"ref": "https://www.matalan.co.uk/stores/grantham", "@spider": "matalan_gb", "shop": "clothes", "addr:street_address": "Dysart Retail Park", "addr:city": "Grantham", "addr:postcode": "NG31 7NP", "addr:country": "GB", "name": "Matalan", "phone": "0333 0044444", "website": "https://www.matalan.co.uk/stores/grantham", "contact:twitter": "@Matalan", "image": "https://matalan-assets.imgix.net/assets/matalan-logo-responsive-0f1c895c6ec9b0b427bf3614e1d03352e41e2e501608cabb0d042b5d22282259.svg", "brand": "Matalan", "brand:wikidata": "Q12061509", "nsi_id": "matalan-1132a1"}, "geometry": {"type": "Point", "coordinates": [-0.648715, 52.910547]}},
{"type": "Feature", "id": "XV_YrJbPnG0_eQ0WQGXZY6wszUg=", "properties": {"ref": "https://www.matalan.co.uk/stores/great-yarmouth", "@spider": "matalan_gb", "shop": "clothes", "addr:street_address": "Southtown Road", "addr:city": "Great Yarmouth", "addr:postcode": "NR31 0JB", "addr:country": "GB", "name": "Matalan", "phone": "0333 0044444", "website": "https://www.matalan.co.uk/stores/great-yarmouth", "contact:twitter": "@Matalan", "image": "https://matalan-assets.imgix.net/assets/matalan-logo-responsive-0f1c895c6ec9b0b427bf3614e1d03352e41e2e501608cabb0d042b5d22282259.svg", "brand": "Matalan", "brand:wikidata": "Q12061509", "nsi_id": "matalan-1132a1"}, "geometry": {"type": "Point", "coordinates": [1.721183, 52.605886]}},
{"type": "Feature", "id": "tPhbeGkDqv4UD1ZLVibUx0bwRVE=", "properties": {"ref": "https://www.matalan.co.uk/stores/grimsby", "@spider": "matalan_gb", "shop": "clothes", "addr:street_address": "Alexandra Retail Park", "addr:city": "Grimsby", "addr:postcode": "DN31 1SG", "addr:country": "GB", "name": "Matalan", "phone": "0333 0044444", "website": "https://www.matalan.co.uk/stores/grimsby", "contact:twitter": "@Matalan", "image": "https://matalan-assets.imgix.net/assets/matalan-logo-responsive-0f1c895c6ec9b0b427bf3614e1d03352e41e2e501608cabb0d042b5d22282259.svg", "brand": "Matalan", "brand:wikidata": "Q12061509", "nsi_id": "matalan-1132a1"}, "geometry": {"type": "Point", "coordinates": [-0.084552, 53.571172]}},
{"type": "Feature", "id": "-Nq0HCAYeRI2L3LPxweBMnIeqDM=", "properties": {"ref": "https://www.matalan.co.uk/stores/halifax", "@spider": "matalan_gb", "shop": "clothes", "addr:street_address": "Berry Lane", "addr:city": "Halifax", "addr:postcode": "HX1 1RD", "addr:country": "GB", "name": "Matalan", "phone": "0333 0044444", "website": "https://www.matalan.co.uk/stores/halifax", "contact:twitter": "@Matalan", "image": "https://matalan-assets.imgix.net/assets/matalan-logo-responsive-0f1c895c6ec9b0b427bf3614e1d03352e41e2e501608cabb0d042b5d22282259.svg", "brand": "Matalan", "brand:wikidata": "Q12061509", "nsi_id": "matalan-1132a1"}, "geometry": {"type": "Point", "coordinates": [-1.852792, 53.72316]}},
{"type": "Feature", "id": "2MPlNH2ZVIL-x2I2q4Uf43DHYdw=", "properties": {"ref": "https://www.matalan.co.uk/stores/harlow", "@spider": "matalan_gb", "shop": "clothes", "addr:street_address": "15-18 The Water Gardens", "addr:city": "Harlow", "addr:postcode": "CM20 1AR", "addr:country": "GB", "name": "Matalan", "phone": "0333 0044444", "website": "https://www.matalan.co.uk/stores/harlow", "contact:twitter": "@Matalan", "image": "https://matalan-assets.imgix.net/assets/matalan-logo-responsive-0f1c895c6ec9b0b427bf3614e1d03352e41e2e501608cabb0d042b5d22282259.svg", "brand": "Matalan", "brand:wikidata": "Q12061509", "nsi_id": "matalan-1132a1"}, "geometry": {"type": "Point", "coordinates": [0.092348, 51.766256]}},
{"type": "Feature", "id": "EPzZz8ioFzboaJyXLTyrb1GjMEs=", "properties": {"ref": "https://www.matalan.co.uk/stores/hartlepool", "@spider": "matalan_gb", "shop": "clothes", "addr:street_address": "Unit 1 Anchor Retail Park", "addr:city": "Hartlepool", "addr:postcode": "TS24 0XR", "addr:country": "GB", "name": "Matalan", "phone": "0333 0044444", "website": "https://www.matalan.co.uk/stores/hartlepool", "contact:twitter": "@Matalan", "image": "https://matalan-assets.imgix.net/assets/matalan-logo-responsive-0f1c895c6ec9b0b427bf3614e1d03352e41e2e501608cabb0d042b5d22282259.svg", "brand": "Matalan", "brand:wikidata": "Q12061509", "nsi_id": "matalan-1132a1"}, "geometry": {"type": "Point", "coordinates": [-1.210399, 54.690564]}},
{"type": "Feature", "id": "pph8UwH-espwIbAiMNQd6ErWEvk=", "properties": {"ref": "https://www.matalan.co.uk/stores/hayes", "@spider": "matalan_gb", "shop": "clothes", "addr:street_address": "Pump Lane", "addr:city": "Hayes", "addr:postcode": "UB3 3NB", "addr:country": "GB", "name": "Matalan", "phone": "0333 0044444", "website": "https://www.matalan.co.uk/stores/hayes", "contact:twitter": "@Matalan", "image": "https://matalan-assets.imgix.net/assets/matalan-logo-responsive-0f1c895c6ec9b0b427bf3614e1d03352e41e2e501608cabb0d042b5d22282259.svg", "brand": "Matalan", "brand:wikidata": "Q12061509", "nsi_id": "matalan-1132a1"}, "geometry": {"type": "Point", "coordinates": [-0.413253, 51.505718]}},
{"type": "Feature", "id": "nFf7_gs9hi5nCKzM2J5a9vsEmmo=", "properties": {"ref": "https://www.matalan.co.uk/stores/hertford", "@spider": "matalan_gb", "shop": "clothes", "addr:street_address": "Unit 2 Madford Ret Pk", "addr:city": "Hertford", "addr:postcode": "SG13 7RQ", "addr:country": "GB", "name": "Matalan", "phone": "0333 0044444", "website": "https://www.matalan.co.uk/stores/hertford", "contact:twitter": "@Matalan", "image": "https://matalan-assets.imgix.net/assets/matalan-logo-responsive-0f1c895c6ec9b0b427bf3614e1d03352e41e2e501608cabb0d042b5d22282259.svg", "brand": "Matalan", "brand:wikidata": "Q12061509", "nsi_id": "matalan-1132a1"}, "geometry": {"type": "Point", "coordinates": [-0.06923, 51.79748]}},
{"type": "Feature", "id": "nLcCY848_wQ_7FwCDbLi98jMOCk=", "properties": {"ref": "https://www.matalan.co.uk/stores/high-wycombe", "@spider": "matalan_gb", "shop": "clothes", "addr:street_address": "Unit 2, BellField Road", "addr:city": "Buckinghamshire", "addr:postcode": "HP13 5HN", "addr:country": "GB", "name": "Matalan", "phone": "0333 0044444", "website": "https://www.matalan.co.uk/stores/high-wycombe", "contact:twitter": "@Matalan", "image": "https://matalan-assets.imgix.net/assets/matalan-logo-responsive-0f1c895c6ec9b0b427bf3614e1d03352e41e2e501608cabb0d042b5d22282259.svg", "brand": "Matalan", "brand:wikidata": "Q12061509", "nsi_id": "matalan-1132a1"}, "geometry": {"type": "Point", "coordinates": [-0.755962, 51.632965]}},
{"type": "Feature", "id": "7siPPd86MoHvNRAjY9jYW_-gk_4=", "properties": {"ref": "https://www.matalan.co.uk/stores/huddersfield", "@spider": "matalan_gb", "shop": "clothes", "addr:street_address": "Ringway Industrial Estate", "addr:city": "Huddersfield", "addr:postcode": "HD1 5DG", "addr:country": "GB", "name": "Matalan", "phone": "0333 0044444", "website": "https://www.matalan.co.uk/stores/huddersfield", "contact:twitter": "@Matalan", "image": "https://matalan-assets.imgix.net/assets/matalan-logo-responsive-0f1c895c6ec9b0b427bf3614e1d03352e41e2e501608cabb0d042b5d22282259.svg", "brand": "Matalan", "brand:wikidata": "Q12061509", "nsi_id": "matalan-1132a1"}, "geometry": {"type": "Point", "coordinates": [-1.783618, 53.653264]}},
{"type": "Feature", "id": "pUq5CNU9UuZNj6C_y_3GOnD69Fg=", "properties": {"ref": "https://www.matalan.co.uk/stores/hull-city", "@spider": "matalan_gb", "shop": "clothes", "addr:street_address": "The Mount Retail Park", "addr:city": "Hull City", "addr:postcode": "HU9 2BN", "addr:country": "GB", "name": "Matalan", "phone": "0333 0044444", "website": "https://www.matalan.co.uk/stores/hull-city", "contact:twitter": "@Matalan", "image": "https://matalan-assets.imgix.net/assets/matalan-logo-responsive-0f1c895c6ec9b0b427bf3614e1d03352e41e2e501608cabb0d042b5d22282259.svg", "brand": "Matalan", "brand:wikidata": "Q12061509", "nsi_id": "matalan-1132a1"}, "geometry": {"type": "Point", "coordinates": [-0.314468, 53.751705]}},
{"type": "Feature", "id": "SfLP46trNxb07dFeGzpSGXaYI9s=", "properties": {"ref": "https://www.matalan.co.uk/stores/hull-kingswood", "@spider": "matalan_gb", "shop": "clothes", "addr:street_address": "Kingswood Retail Park", "addr:city": "Hull", "addr:postcode": "HU7 3DA", "addr:country": "GB", "name": "Matalan", "phone": "0333 0044444", "website": "https://www.matalan.co.uk/stores/hull-kingswood", "contact:twitter": "@Matalan", "image": "https://matalan-assets.imgix.net/assets/matalan-logo-responsive-0f1c895c6ec9b0b427bf3614e1d03352e41e2e501608cabb0d042b5d22282259.svg", "brand": "Matalan", "brand:wikidata": "Q12061509", "nsi_id": "matalan-1132a1"}, "geometry": {"type": "Point", "coordinates": [-0.346494, 53.795115]}},
{"type": "Feature", "id": "W8YjRutARudH6-p0iXMjFqUp0a0=", "properties": {"ref": "https://www.matalan.co.uk/stores/hunts-cross", "@spider": "matalan_gb", "shop": "clothes", "addr:street_address": "Unit G  The Triumph Cntr", "addr:city": "Liverpool", "addr:postcode": "L24 9GB", "addr:country": "GB", "name": "Matalan", "phone": "0333 0044444", "website": "https://www.matalan.co.uk/stores/hunts-cross", "contact:twitter": "@Matalan", "image": "https://matalan-assets.imgix.net/assets/matalan-logo-responsive-0f1c895c6ec9b0b427bf3614e1d03352e41e2e501608cabb0d042b5d22282259.svg", "brand": "Matalan", "brand:wikidata": "Q12061509", "nsi_id": "matalan-1132a1"}, "geometry": {"type": "Point", "coordinates": [-2.870657, 53.357912]}},
{"type": "Feature", "id": "s2HRB3nJH30ReZ0NhNhL2uKrsgU=", "properties": {"ref": "https://www.matalan.co.uk/stores/inverness", "@spider": "matalan_gb", "shop": "clothes", "addr:street_address": "Unit 1 Inshes Retail Park", "addr:city": "Inverness", "addr:postcode": "IV2 3TW", "addr:country": "GB", "name": "Matalan", "phone": "0333 0044444", "website": "https://www.matalan.co.uk/stores/inverness", "contact:twitter": "@Matalan", "image": "https://matalan-assets.imgix.net/assets/matalan-logo-responsive-0f1c895c6ec9b0b427bf3614e1d03352e41e2e501608cabb0d042b5d22282259.svg", "brand": "Matalan", "brand:wikidata": "Q12061509", "nsi_id": "matalan-1132a1"}, "geometry": {"type": "Point", "coordinates": [-4.190809, 57.468508]}},
{"type": "Feature", "id": "zqgEm_45UW0Ze1EuDdEVp8NZOxc=", "properties": {"ref": "https://www.matalan.co.uk/stores/ipswich", "@spider": "matalan_gb", "shop": "clothes", "addr:street_address": "Unit 4 Orwell Retail Park", "addr:city": "Ipswich", "addr:postcode": "IP2 0AQ", "addr:country": "GB", "name": "Matalan", "phone": "0333 0044444", "website": "https://www.matalan.co.uk/stores/ipswich", "contact:twitter": "@Matalan", "image": "https://matalan-assets.imgix.net/assets/matalan-logo-responsive-0f1c895c6ec9b0b427bf3614e1d03352e41e2e501608cabb0d042b5d22282259.svg", "brand": "Matalan", "brand:wikidata": "Q12061509", "nsi_id": "matalan-1132a1"}, "geometry": {"type": "Point", "coordinates": [1.134952, 52.055088]}},
{"type": "Feature", "id": "GT-3GvkkKrAxddZ5op7DUd2ZTRk=", "properties": {"ref": "https://www.matalan.co.uk/stores/isle-of-wight", "@spider": "matalan_gb", "shop": "clothes", "addr:street_address": "Furrlongs", "addr:city": "Isle of Wight", "addr:postcode": "PO30 2AB", "addr:country": "GB", "name": "Matalan", "phone": "0333 0044444", "website": "https://www.matalan.co.uk/stores/isle-of-wight", "contact:twitter": "@Matalan", "image": "https://matalan-assets.imgix.net/assets/matalan-logo-responsive-0f1c895c6ec9b0b427bf3614e1d03352e41e2e501608cabb0d042b5d22282259.svg", "brand": "Matalan", "brand:wikidata": "Q12061509", "nsi_id": "matalan-1132a1"}, "geometry": {"type": "Point", "coordinates": [-1.289915, 50.696607]}},
{"type": "Feature", "id": "dYqV5S41ps5hWQKSZVDGGhUjKlE=", "properties": {"ref": "https://www.matalan.co.uk/stores/kendal", "@spider": "matalan_gb", "shop": "clothes", "addr:street_address": "Unit 7", "addr:city": "Kendal", "addr:postcode": "LA9 6DU", "addr:country": "GB", "name": "Matalan", "phone": "0333 0044444", "website": "https://www.matalan.co.uk/stores/kendal", "contact:twitter": "@Matalan", "image": "https://matalan-assets.imgix.net/assets/matalan-logo-responsive-0f1c895c6ec9b0b427bf3614e1d03352e41e2e501608cabb0d042b5d22282259.svg", "brand": "Matalan", "brand:wikidata": "Q12061509", "nsi_id": "matalan-1132a1"}, "geometry": {"type": "Point", "coordinates": [-2.734036, 54.341736]}},
{"type": "Feature", "id": "MYUjY0aK1FItPyXe1jr7PFMcCM4=", "properties": {"ref": "https://www.matalan.co.uk/stores/kidderminster", "@spider": "matalan_gb", "shop": "clothes", "addr:street_address": "Former Homebase", "addr:city": "Kidderminster", "addr:postcode": "DY11 6TQ", "addr:country": "GB", "name": "Matalan", "phone": "0333 0044444", "website": "https://www.matalan.co.uk/stores/kidderminster", "contact:twitter": "@Matalan", "image": "https://matalan-assets.imgix.net/assets/matalan-logo-responsive-0f1c895c6ec9b0b427bf3614e1d03352e41e2e501608cabb0d042b5d22282259.svg", "brand": "Matalan", "brand:wikidata": "Q12061509", "nsi_id": "matalan-1132a1"}, "geometry": {"type": "Point", "coordinates": [-2.253945, 52.388415]}},
{"type": "Feature", "id": "221F6Pq32ekiUiMgFaYLbsaUQSU=", "properties": {"ref": "https://www.matalan.co.uk/stores/killingworth", "@spider": "matalan_gb", "shop": "clothes", "addr:street_address": "The Killingworth Centre", "addr:city": "Newcastle Upon Tyne", "addr:postcode": "NE12 6YT", "addr:country": "GB", "name": "Matalan", "phone": "0333 0044444", "website": "https://www.matalan.co.uk/stores/killingworth", "contact:twitter": "@Matalan", "image": "https://matalan-assets.imgix.net/assets/matalan-logo-responsive-0f1c895c6ec9b0b427bf3614e1d03352e41e2e501608cabb0d042b5d22282259.svg", "brand": "Matalan", "brand:wikidata": "Q12061509", "nsi_id": "matalan-1132a1"}, "geometry": {"type": "Point", "coordinates": [-1.567669, 55.03528]}},
{"type": "Feature", "id": "isyUDfaBY_wE4IAZicrfeB0kMuo=", "properties": {"ref": "https://www.matalan.co.uk/stores/kilmarnock", "@spider": "matalan_gb", "shop": "clothes", "addr:street_address": "Loreny Industrial Estate", "addr:city": "Kilmarnock", "addr:postcode": "KA1 5LB", "addr:country": "GB", "name": "Matalan", "phone": "0333 0044444", "website": "https://www.matalan.co.uk/stores/kilmarnock", "contact:twitter": "@Matalan", "image": "https://matalan-assets.imgix.net/assets/matalan-logo-responsive-0f1c895c6ec9b0b427bf3614e1d03352e41e2e501608cabb0d042b5d22282259.svg", "brand": "Matalan", "brand:wikidata": "Q12061509", "nsi_id": "matalan-1132a1"}, "geometry": {"type": "Point", "coordinates": [-4.507143, 55.585652]}},
{"type": "Feature", "id": "X1yhtOwj7Vpj4WoJkhRSdFp7tIc=", "properties": {"ref": "https://www.matalan.co.uk/stores/kings-lynn", "@spider": "matalan_gb", "shop": "clothes", "addr:street_address": "Blackfriars Road", "addr:city": "Kings Lynn", "addr:postcode": "PE30 1RX", "addr:country": "GB", "name": "Matalan", "phone": "0333 0044444", "website": "https://www.matalan.co.uk/stores/kings-lynn", "contact:twitter": "@Matalan", "image": "https://matalan-assets.imgix.net/assets/matalan-logo-responsive-0f1c895c6ec9b0b427bf3614e1d03352e41e2e501608cabb0d042b5d22282259.svg", "brand": "Matalan", "brand:wikidata": "Q12061509", "nsi_id": "matalan-1132a1"}, "geometry": {"type": "Point", "coordinates": [0.404718, 52.753958]}},
{"type": "Feature", "id": "hES2l_9M8JqcutmHP0LylyspeFM=", "properties": {"ref": "https://www.matalan.co.uk/stores/kingston", "@spider": "matalan_gb", "shop": "clothes", "addr:street_address": "205-217 Kingston Road", "addr:city": "New Malden", "addr:postcode": "KT3 3SY", "addr:country": "GB", "name": "Matalan", "phone": "0333 0044444", "website": "https://www.matalan.co.uk/stores/kingston", "contact:twitter": "@Matalan", "image": "https://matalan-assets.imgix.net/assets/matalan-logo-responsive-0f1c895c6ec9b0b427bf3614e1d03352e41e2e501608cabb0d042b5d22282259.svg", "brand": "Matalan", "brand:wikidata": "Q12061509", "nsi_id": "matalan-1132a1"}, "geometry": {"type": "Point", "coordinates": [-0.27304, 51.403995]}},
{"type": "Feature", "id": "xPX4MVCgMSUjXb_Oel1VD80cqAw=", "properties": {"ref": "https://www.matalan.co.uk/stores/knaresborough", "@spider": "matalan_gb", "shop": "clothes", "addr:street_address": "St James Retail Park", "addr:city": "Knaresborough", "addr:postcode": "HG5 8PZ", "addr:country": "GB", "name": "Matalan", "phone": "0333 0044444", "website": "https://www.matalan.co.uk/stores/knaresborough", "contact:twitter": "@Matalan", "image": "https://matalan-assets.imgix.net/assets/matalan-logo-responsive-0f1c895c6ec9b0b427bf3614e1d03352e41e2e501608cabb0d042b5d22282259.svg", "brand": "Matalan", "brand:wikidata": "Q12061509", "nsi_id": "matalan-1132a1"}, "geometry": {"type": "Point", "coordinates": [-1.443609, 53.999102]}},
{"type": "Feature", "id": "JLZJdWcM7sAvgHopTb1zHqSQ9SQ=", "properties": {"ref": "https://www.matalan.co.uk/stores/lancaster", "@spider": "matalan_gb", "shop": "clothes", "addr:street_address": "SunnyCliffe Retail Park", "addr:city": "Lancaster", "addr:postcode": "LA3 3FE", "addr:country": "GB", "name": "Matalan", "phone": "0333 0044444", "website": "https://www.matalan.co.uk/stores/lancaster", "contact:twitter": "@Matalan", "image": "https://matalan-assets.imgix.net/assets/matalan-logo-responsive-0f1c895c6ec9b0b427bf3614e1d03352e41e2e501608cabb0d042b5d22282259.svg", "brand": "Matalan", "brand:wikidata": "Q12061509", "nsi_id": "matalan-1132a1"}, "geometry": {"type": "Point", "coordinates": [-2.842778, 54.054905]}},
{"type": "Feature", "id": "rYIZt8wgrqdszpcLX_5p3yNcAIU=", "properties": {"ref": "https://www.matalan.co.uk/stores/leeds-halton", "@spider": "matalan_gb", "shop": "clothes", "addr:street_address": "Halton District Centre", "addr:city": "Leeds", "addr:postcode": "LS15 7JR", "addr:country": "GB", "name": "Matalan", "phone": "0333 0044444", "website": "https://www.matalan.co.uk/stores/leeds-halton", "contact:twitter": "@Matalan", "image": "https://matalan-assets.imgix.net/assets/matalan-logo-responsive-0f1c895c6ec9b0b427bf3614e1d03352e41e2e501608cabb0d042b5d22282259.svg", "brand": "Matalan", "brand:wikidata": "Q12061509", "nsi_id": "matalan-1132a1"}, "geometry": {"type": "Point", "coordinates": [-1.4698, 53.796631]}},
{"type": "Feature", "id": "vJSwpUPmCidaeOQhPR4t_ruLa24=", "properties": {"ref": "https://www.matalan.co.uk/stores/leeds-kirkstall", "@spider": "matalan_gb", "shop": "clothes", "addr:street_address": "Kirkstall Valley Ret Park", "addr:city": "Leeds", "addr:postcode": "LS5 3RP", "addr:country": "GB", "name": "Matalan", "phone": "0333 0044444", "website": "https://www.matalan.co.uk/stores/leeds-kirkstall", "contact:twitter": "@Matalan", "image": "https://matalan-assets.imgix.net/assets/matalan-logo-responsive-0f1c895c6ec9b0b427bf3614e1d03352e41e2e501608cabb0d042b5d22282259.svg", "brand": "Matalan", "brand:wikidata": "Q12061509", "nsi_id": "matalan-1132a1"}, "geometry": {"type": "Point", "coordinates": [-1.602498, 53.814558]}},
{"type": "Feature", "id": "NJEIm7U5y_M8IppYSW48LkgBDjE=", "properties": {"ref": "https://www.matalan.co.uk/stores/leeds-wortley", "@spider": "matalan_gb", "shop": "clothes", "addr:street_address": "Lower Wortley Road", "addr:city": "Leeds", "addr:postcode": "LS12 4SL", "addr:country": "GB", "name": "Matalan", "phone": "0333 0044444", "website": "https://www.matalan.co.uk/stores/leeds-wortley", "contact:twitter": "@Matalan", "image": "https://matalan-assets.imgix.net/assets/matalan-logo-responsive-0f1c895c6ec9b0b427bf3614e1d03352e41e2e501608cabb0d042b5d22282259.svg", "brand": "Matalan", "brand:wikidata": "Q12061509", "nsi_id": "matalan-1132a1"}, "geometry": {"type": "Point", "coordinates": [-1.599527, 53.78406]}},
{"type": "Feature", "id": "mdVNC29Lg-wrX44uDGa9bFFa8uk=", "properties": {"ref": "https://www.matalan.co.uk/stores/leicester", "@spider": "matalan_gb", "shop": "clothes", "addr:street_address": "100 Churchgate", "addr:city": "Leicester", "addr:postcode": "LE1 4AL", "addr:country": "GB", "name": "Matalan", "phone": "0333 0044444", "website": "https://www.matalan.co.uk/stores/leicester", "contact:twitter": "@Matalan", "image": "https://matalan-assets.imgix.net/assets/matalan-logo-responsive-0f1c895c6ec9b0b427bf3614e1d03352e41e2e501608cabb0d042b5d22282259.svg", "brand": "Matalan", "brand:wikidata": "Q12061509", "nsi_id": "matalan-1132a1"}, "geometry": {"type": "Point", "coordinates": [-1.135158, 52.638513]}},
{"type": "Feature", "id": "zp4ABbDaGDpc2OaYf_0wrEOlcmY=", "properties": {"ref": "https://www.matalan.co.uk/stores/leicester-beaumont-leys", "@spider": "matalan_gb", "shop": "clothes", "addr:street_address": "94 Beaumont Way", "addr:city": "Leicester", "addr:postcode": "LE4 1DS", "addr:country": "GB", "name": "Matalan", "phone": "0333 0044444", "website": "https://www.matalan.co.uk/stores/leicester-beaumont-leys", "contact:twitter": "@Matalan", "image": "https://matalan-assets.imgix.net/assets/matalan-logo-responsive-0f1c895c6ec9b0b427bf3614e1d03352e41e2e501608cabb0d042b5d22282259.svg", "brand": "Matalan", "brand:wikidata": "Q12061509", "nsi_id": "matalan-1132a1"}, "geometry": {"type": "Point", "coordinates": [-1.165672, 52.664338]}},
{"type": "Feature", "id": "B2j9XVRTmybFrhyAaThs4dkc2UQ=", "properties": {"ref": "https://www.matalan.co.uk/stores/lewisham", "@spider": "matalan_gb", "shop": "clothes", "addr:street_address": "Thurston Road", "addr:city": "Lewisham", "addr:postcode": "SE13 7SN", "addr:country": "GB", "name": "Matalan", "phone": "0333 0044444", "website": "https://www.matalan.co.uk/stores/lewisham", "contact:twitter": "@Matalan", "image": "https://matalan-assets.imgix.net/assets/matalan-logo-responsive-0f1c895c6ec9b0b427bf3614e1d03352e41e2e501608cabb0d042b5d22282259.svg", "brand": "Matalan", "brand:wikidata": "Q12061509", "nsi_id": "matalan-1132a1"}, "geometry": {"type": "Point", "coordinates": [-0.014622, 51.465274]}},
{"type": "Feature", "id": "5cFC0g25Af1RTPY64eP8ultNVEo=", "properties": {"ref": "https://www.matalan.co.uk/stores/leytonstone", "@spider": "matalan_gb", "shop": "clothes", "addr:street_address": "829-837 High Road", "addr:city": "Leytonstone", "addr:postcode": "E11 1HH", "addr:country": "GB", "name": "Matalan", "phone": "0333 0044444", "website": "https://www.matalan.co.uk/stores/leytonstone", "contact:twitter": "@Matalan", "image": "https://matalan-assets.imgix.net/assets/matalan-logo-responsive-0f1c895c6ec9b0b427bf3614e1d03352e41e2e501608cabb0d042b5d22282259.svg", "brand": "Matalan", "brand:wikidata": "Q12061509", "nsi_id": "matalan-1132a1"}, "geometry": {"type": "Point", "coordinates": [0.011481, 51.568843]}},
{"type": "Feature", "id": "CKR0N7mSZ-Kbw_ZcFjzSiVZb0sA=", "properties": {"ref": "https://www.matalan.co.uk/stores/lincoln", "@spider": "matalan_gb", "shop": "clothes", "addr:street_address": "Lindis Ret Pk", "addr:city": "Lincoln", "addr:postcode": "LN6 7QY", "addr:country": "GB", "name": "Matalan", "phone": "0333 0044444", "website": "https://www.matalan.co.uk/stores/lincoln", "contact:twitter": "@Matalan", "image": "https://matalan-assets.imgix.net/assets/matalan-logo-responsive-0f1c895c6ec9b0b427bf3614e1d03352e41e2e501608cabb0d042b5d22282259.svg", "brand": "Matalan", "brand:wikidata": "Q12061509", "nsi_id": "matalan-1132a1"}, "geometry": {"type": "Point", "coordinates": [-0.580913, 53.204029]}},
{"type": "Feature", "id": "NddbpZxf2tRIdPw8LCJG-tCU6Pc=", "properties": {"ref": "https://www.matalan.co.uk/stores/linwood", "@spider": "matalan_gb", "shop": "clothes", "addr:street_address": "Phoenix Retail Park", "addr:city": "Linwood", "addr:postcode": "PA1 2AB", "addr:country": "GB", "name": "Matalan", "phone": "0333 0044444", "website": "https://www.matalan.co.uk/stores/linwood", "contact:twitter": "@Matalan", "image": "https://matalan-assets.imgix.net/assets/matalan-logo-responsive-0f1c895c6ec9b0b427bf3614e1d03352e41e2e501608cabb0d042b5d22282259.svg", "brand": "Matalan", "brand:wikidata": "Q12061509", "nsi_id": "matalan-1132a1"}, "geometry": {"type": "Point", "coordinates": [-4.466608, 55.844484]}},
{"type": "Feature", "id": "CWpJpaTNaJ7CofYdQ1U5HMzmCvk=", "properties": {"ref": "https://www.matalan.co.uk/stores/liverpool", "@spider": "matalan_gb", "shop": "clothes", "addr:street_address": "Wavertree Retail Park", "addr:city": "Liverpool", "addr:postcode": "L7 5LZ", "addr:country": "GB", "name": "Matalan", "phone": "0333 0044444", "website": "https://www.matalan.co.uk/stores/liverpool", "contact:twitter": "@Matalan", "image": "https://matalan-assets.imgix.net/assets/matalan-logo-responsive-0f1c895c6ec9b0b427bf3614e1d03352e41e2e501608cabb0d042b5d22282259.svg", "brand": "Matalan", "brand:wikidata": "Q12061509", "nsi_id": "matalan-1132a1"}, "geometry": {"type": "Point", "coordinates": [-2.944984, 53.403309]}},
{"type": "Feature", "id": "XbOBQhf0Dci6DtmsNH6PBHGNW7o=", "properties": {"ref": "https://www.matalan.co.uk/stores/liverpool-city-centre", "@spider": "matalan_gb", "shop": "clothes", "addr:street_address": "Unit 5 Williamson Square", "addr:city": "Liverpool", "addr:postcode": "L1 1EJ", "addr:country": "GB", "name": "Matalan", "phone": "0333 0044444", "website": "https://www.matalan.co.uk/stores/liverpool-city-centre", "contact:twitter": "@Matalan", "image": "https://matalan-assets.imgix.net/assets/matalan-logo-responsive-0f1c895c6ec9b0b427bf3614e1d03352e41e2e501608cabb0d042b5d22282259.svg", "brand": "Matalan", "brand:wikidata": "Q12061509", "nsi_id": "matalan-1132a1"}, "geometry": {"type": "Point", "coordinates": [-2.983159, 53.406163]}},
{"type": "Feature", "id": "9BtiTjxzt0zmQm6djDGx_AJwVK0=", "properties": {"ref": "https://www.matalan.co.uk/stores/llantrisant", "@spider": "matalan_gb", "shop": "clothes", "addr:street_address": "Unit 8", "addr:city": "Pontyclun", "addr:postcode": "CF72 8RP", "addr:country": "GB", "name": "Matalan", "phone": "0333 0044444", "website": "https://www.matalan.co.uk/stores/llantrisant", "contact:twitter": "@Matalan", "image": "https://matalan-assets.imgix.net/assets/matalan-logo-responsive-0f1c895c6ec9b0b427bf3614e1d03352e41e2e501608cabb0d042b5d22282259.svg", "brand": "Matalan", "brand:wikidata": "Q12061509", "nsi_id": "matalan-1132a1"}, "geometry": {"type": "Point", "coordinates": [-3.375235, 51.532433]}},
{"type": "Feature", "id": "QhVmiwGtq0JE00dMnJ9b1yDcBQ4=", "properties": {"ref": "https://www.matalan.co.uk/stores/londonderry", "@spider": "matalan_gb", "shop": "clothes", "addr:street_address": "Lisnagelvin Retail Park", "addr:city": "Londonderry", "addr:postcode": "BT47 2NQ", "addr:country": "GB", "name": "Matalan", "phone": "0333 0044444", "website": "https://www.matalan.co.uk/stores/londonderry", "contact:twitter": "@Matalan", "image": "https://matalan-assets.imgix.net/assets/matalan-logo-responsive-0f1c895c6ec9b0b427bf3614e1d03352e41e2e501608cabb0d042b5d22282259.svg", "brand": "Matalan", "brand:wikidata": "Q12061509", "nsi_id": "matalan-1132a1"}, "geometry": {"type": "Point", "coordinates": [-7.299406, 54.988762]}},
{"type": "Feature", "id": "IwP-yidhz184Eu4EtAQypuVvKY8=", "properties": {"ref": "https://www.matalan.co.uk/stores/longton", "@spider": "matalan_gb", "shop": "clothes", "addr:street_address": "Heathcote Rd", "addr:city": "Stoke-on-Trent", "addr:postcode": "ST3 2JR", "addr:country": "GB", "name": "Matalan", "phone": "0333 0044444", "website": "https://www.matalan.co.uk/stores/longton", "contact:twitter": "@Matalan", "image": "https://matalan-assets.imgix.net/assets/matalan-logo-responsive-0f1c895c6ec9b0b427bf3614e1d03352e41e2e501608cabb0d042b5d22282259.svg", "brand": "Matalan", "brand:wikidata": "Q12061509", "nsi_id": "matalan-1132a1"}, "geometry": {"type": "Point", "coordinates": [-2.138003, 52.987884]}},
{"type": "Feature", "id": "3PDawyZGAcjkXIFw8qDraOMvIhs=", "properties": {"ref": "https://www.matalan.co.uk/stores/luton", "@spider": "matalan_gb", "shop": "clothes", "addr:street_address": "Castle Street", "addr:city": "Luton", "addr:postcode": "LU1 3AG", "addr:country": "GB", "name": "Matalan", "phone": "0333 0044444", "website": "https://www.matalan.co.uk/stores/luton", "contact:twitter": "@Matalan", "image": "https://matalan-assets.imgix.net/assets/matalan-logo-responsive-0f1c895c6ec9b0b427bf3614e1d03352e41e2e501608cabb0d042b5d22282259.svg", "brand": "Matalan", "brand:wikidata": "Q12061509", "nsi_id": "matalan-1132a1"}, "geometry": {"type": "Point", "coordinates": [-0.416147, 51.875164]}},
{"type": "Feature", "id": "jTSsRd_T0lpdW-9YufiQGg3FaRo=", "properties": {"ref": "https://www.matalan.co.uk/stores/macclesfield", "@spider": "matalan_gb", "shop": "clothes", "addr:street_address": "Unit 8 Lyme Green Ret Pk", "addr:city": "Macclesfield", "addr:postcode": "SK11 0TB", "addr:country": "GB", "name": "Matalan", "phone": "0333 0044444", "website": "https://www.matalan.co.uk/stores/macclesfield", "contact:twitter": "@Matalan", "image": "https://matalan-assets.imgix.net/assets/matalan-logo-responsive-0f1c895c6ec9b0b427bf3614e1d03352e41e2e501608cabb0d042b5d22282259.svg", "brand": "Matalan", "brand:wikidata": "Q12061509", "nsi_id": "matalan-1132a1"}, "geometry": {"type": "Point", "coordinates": [-2.129325, 53.237645]}},
{"type": "Feature", "id": "fEgEhenGD7ixMoeYGcTC9AEcewM=", "properties": {"ref": "https://www.matalan.co.uk/stores/maidstone", "@spider": "matalan_gb", "shop": "clothes", "addr:street_address": "Matalan Unit A The Mall Maidstone", "addr:city": "Maidstone", "addr:postcode": "ME14 1BS", "addr:country": "GB", "name": "Matalan", "phone": "0333 0044444", "website": "https://www.matalan.co.uk/stores/maidstone", "contact:twitter": "@Matalan", "image": "https://matalan-assets.imgix.net/assets/matalan-logo-responsive-0f1c895c6ec9b0b427bf3614e1d03352e41e2e501608cabb0d042b5d22282259.svg", "brand": "Matalan", "brand:wikidata": "Q12061509", "nsi_id": "matalan-1132a1"}, "geometry": {"type": "Point", "coordinates": [0.524107, 51.273448]}},
{"type": "Feature", "id": "3E5QfFg62WT_TGHmdtAcKOCf52A=", "properties": {"ref": "https://www.matalan.co.uk/stores/malvern", "@spider": "matalan_gb", "shop": "clothes", "addr:street_address": "Unit 10 Malvern Ret Pk", "addr:city": "Malvern", "addr:postcode": "WR14 1JQ", "addr:country": "GB", "name": "Matalan", "phone": "0333 0044444", "website": "https://www.matalan.co.uk/stores/malvern", "contact:twitter": "@Matalan", "image": "https://matalan-assets.imgix.net/assets/matalan-logo-responsive-0f1c895c6ec9b0b427bf3614e1d03352e41e2e501608cabb0d042b5d22282259.svg", "brand": "Matalan", "brand:wikidata": "Q12061509", "nsi_id": "matalan-1132a1"}, "geometry": {"type": "Point", "coordinates": [-2.304006, 52.130605]}},
{"type": "Feature", "id": "BTpcSn6Kzp6fzv0hAJxqwZ_fkd4=", "properties": {"ref": "https://www.matalan.co.uk/stores/mansfield", "@spider": "matalan_gb", "shop": "clothes", "addr:street_address": "The Broad Centre", "addr:city": "Nottingham", "addr:postcode": "NG17 5FH", "addr:country": "GB", "name": "Matalan", "phone": "0333 0044444", "website": "https://www.matalan.co.uk/stores/mansfield", "contact:twitter": "@Matalan", "image": "https://matalan-assets.imgix.net/assets/matalan-logo-responsive-0f1c895c6ec9b0b427bf3614e1d03352e41e2e501608cabb0d042b5d22282259.svg", "brand": "Matalan", "brand:wikidata": "Q12061509", "nsi_id": "matalan-1132a1"}, "geometry": {"type": "Point", "coordinates": [-1.257196, 53.123172]}},
{"type": "Feature", "id": "BN6n1TxosE6DDStwCQ6BndaC2xg=", "properties": {"ref": "https://www.matalan.co.uk/stores/merry-hill", "@spider": "matalan_gb", "shop": "clothes", "addr:street_address": "Unit 6 Merry Hill Ret Pk", "addr:city": "Dudley", "addr:postcode": "DY5 1SY", "addr:country": "GB", "name": "Matalan", "phone": "0333 0044444", "website": "https://www.matalan.co.uk/stores/merry-hill", "contact:twitter": "@Matalan", "image": "https://matalan-assets.imgix.net/assets/matalan-logo-responsive-0f1c895c6ec9b0b427bf3614e1d03352e41e2e501608cabb0d042b5d22282259.svg", "brand": "Matalan", "brand:wikidata": "Q12061509", "nsi_id": "matalan-1132a1"}, "geometry": {"type": "Point", "coordinates": [-2.110009, 52.47892]}},
{"type": "Feature", "id": "oqoyIKQtMiJiPFIUpGBbz9L5mGE=", "properties": {"ref": "https://www.matalan.co.uk/stores/merthyr-tydfil", "@spider": "matalan_gb", "shop": "clothes", "addr:street_address": "Matalan Merthyr Tydfil Retail Park", "addr:city": "Merthyr Tydfil", "addr:postcode": "CF48 1HY", "addr:country": "GB", "name": "Matalan", "phone": "0333 0044444", "website": "https://www.matalan.co.uk/stores/merthyr-tydfil", "contact:twitter": "@Matalan", "image": "https://matalan-assets.imgix.net/assets/matalan-logo-responsive-0f1c895c6ec9b0b427bf3614e1d03352e41e2e501608cabb0d042b5d22282259.svg", "brand": "Matalan", "brand:wikidata": "Q12061509", "nsi_id": "matalan-1132a1"}, "geometry": {"type": "Point", "coordinates": [-3.393101, 51.749735]}},
{"type": "Feature", "id": "E0v62ETygGRDOAsVwTXR3gw6zgk=", "properties": {"ref": "https://www.matalan.co.uk/stores/middlesbrough", "@spider": "matalan_gb", "shop": "clothes", "addr:street_address": "Cleveland Retail Park", "addr:city": "Middlesbrough", "addr:postcode": "TS6 6UX", "addr:country": "GB", "name": "Matalan", "phone": "0333 0044444", "website": "https://www.matalan.co.uk/stores/middlesbrough", "contact:twitter": "@Matalan", "image": "https://matalan-assets.imgix.net/assets/matalan-logo-responsive-0f1c895c6ec9b0b427bf3614e1d03352e41e2e501608cabb0d042b5d22282259.svg", "brand": "Matalan", "brand:wikidata": "Q12061509", "nsi_id": "matalan-1132a1"}, "geometry": {"type": "Point", "coordinates": [-1.180223, 54.570224]}},
{"type": "Feature", "id": "On90a6dvloa1ZjgCqYgiqG-EGI4=", "properties": {"ref": "https://www.matalan.co.uk/stores/milton-bletchley", "@spider": "matalan_gb", "shop": "clothes", "addr:street_address": "103 Watling Street", "addr:city": "Milton Keynes", "addr:postcode": "MK1 1HS", "addr:country": "GB", "name": "Matalan", "phone": "0333 0044444", "website": "https://www.matalan.co.uk/stores/milton-bletchley", "contact:twitter": "@Matalan", "image": "https://matalan-assets.imgix.net/assets/matalan-logo-responsive-0f1c895c6ec9b0b427bf3614e1d03352e41e2e501608cabb0d042b5d22282259.svg", "brand": "Matalan", "brand:wikidata": "Q12061509", "nsi_id": "matalan-1132a1"}, "geometry": {"type": "Point", "coordinates": [-0.722599, 52.001123]}},
{"type": "Feature", "id": "asuP-k7ksVdw6fkguLrJxPlqX98=", "properties": {"ref": "https://www.matalan.co.uk/stores/newbury", "@spider": "matalan_gb", "shop": "clothes", "addr:street_address": "Unit 6", "addr:city": "Newbury", "addr:postcode": "RG14 7HU", "addr:country": "GB", "name": "Matalan", "phone": "0333 0044444", "website": "https://www.matalan.co.uk/stores/newbury", "contact:twitter": "@Matalan", "image": "https://matalan-assets.imgix.net/assets/matalan-logo-responsive-0f1c895c6ec9b0b427bf3614e1d03352e41e2e501608cabb0d042b5d22282259.svg", "brand": "Matalan", "brand:wikidata": "Q12061509", "nsi_id": "matalan-1132a1"}, "geometry": {"type": "Point", "coordinates": [-1.318416, 51.385511]}},
{"type": "Feature", "id": "bD9BxaEXnA3BMkFr8UUDlBt9UUc=", "properties": {"ref": "https://www.matalan.co.uk/stores/newcastle", "@spider": "matalan_gb", "shop": "clothes", "addr:street_address": "Unit 1 Belvedere Ret Pk", "addr:city": "Newcastle Upon Tyne", "addr:postcode": "NE3 2PA", "addr:country": "GB", "name": "Matalan", "phone": "0333 0044444", "website": "https://www.matalan.co.uk/stores/newcastle", "contact:twitter": "@Matalan", "image": "https://matalan-assets.imgix.net/assets/matalan-logo-responsive-0f1c895c6ec9b0b427bf3614e1d03352e41e2e501608cabb0d042b5d22282259.svg", "brand": "Matalan", "brand:wikidata": "Q12061509", "nsi_id": "matalan-1132a1"}, "geometry": {"type": "Point", "coordinates": [-1.66659, 55.011997]}},
{"type": "Feature", "id": "v0HqgocqjwhQJWCPn5WjHCjX3G0=", "properties": {"ref": "https://www.matalan.co.uk/stores/newport-clearance", "@spider": "matalan_gb", "shop": "clothes", "addr:street_address": "7 Stiles Avenue", "addr:city": "Newport", "addr:postcode": "NP19 4TX", "addr:country": "GB", "name": "Matalan", "phone": "0333 0044444", "website": "https://www.matalan.co.uk/stores/newport-clearance", "contact:twitter": "@Matalan", "image": "https://matalan-assets.imgix.net/assets/matalan-logo-responsive-0f1c895c6ec9b0b427bf3614e1d03352e41e2e501608cabb0d042b5d22282259.svg", "brand": "Matalan", "brand:wikidata": "Q12061509", "nsi_id": "matalan-1132a1"}, "geometry": {"type": "Point", "coordinates": [-2.947391, 51.575345]}},
{"type": "Feature", "id": "7UGKrAPHuZy5e-LonzO4eUvCKCE=", "properties": {"ref": "https://www.matalan.co.uk/stores/newton-abbot", "@spider": "matalan_gb", "shop": "clothes", "addr:street_address": "Newton Abbott", "addr:city": "Newton Abbot", "addr:postcode": "TQ12 3SB", "addr:country": "GB", "name": "Matalan", "phone": "0333 0044444", "website": "https://www.matalan.co.uk/stores/newton-abbot", "contact:twitter": "@Matalan", "image": "https://matalan-assets.imgix.net/assets/matalan-logo-responsive-0f1c895c6ec9b0b427bf3614e1d03352e41e2e501608cabb0d042b5d22282259.svg", "brand": "Matalan", "brand:wikidata": "Q12061509", "nsi_id": "matalan-1132a1"}, "geometry": {"type": "Point", "coordinates": [-3.594965, 50.542175]}},
{"type": "Feature", "id": "YSgFLUj1vEJvK-jeu01ti1k1qa0=", "properties": {"ref": "https://www.matalan.co.uk/stores/newtownabbey", "@spider": "matalan_gb", "shop": "clothes", "addr:street_address": "Unit 1Newtownabbey Ret Pk", "addr:city": "Newtownabbey", "addr:postcode": "BT37 9UF", "addr:country": "GB", "name": "Matalan", "phone": "0333 0044444", "website": "https://www.matalan.co.uk/stores/newtownabbey", "contact:twitter": "@Matalan", "image": "https://matalan-assets.imgix.net/assets/matalan-logo-responsive-0f1c895c6ec9b0b427bf3614e1d03352e41e2e501608cabb0d042b5d22282259.svg", "brand": "Matalan", "brand:wikidata": "Q12061509", "nsi_id": "matalan-1132a1"}, "geometry": {"type": "Point", "coordinates": [-5.916715, 54.653992]}},
{"type": "Feature", "id": "Bo8bk46csbsYhQNEhSkYhPWeYNU=", "properties": {"ref": "https://www.matalan.co.uk/stores/newtownards", "@spider": "matalan_gb", "shop": "clothes", "addr:street_address": "Castlebawn Shop Cntr", "addr:city": "Newtownards", "addr:postcode": "BT23 8NN", "addr:country": "GB", "name": "Matalan", "phone": "0333 0044444", "website": "https://www.matalan.co.uk/stores/newtownards", "contact:twitter": "@Matalan", "image": "https://matalan-assets.imgix.net/assets/matalan-logo-responsive-0f1c895c6ec9b0b427bf3614e1d03352e41e2e501608cabb0d042b5d22282259.svg", "brand": "Matalan", "brand:wikidata": "Q12061509", "nsi_id": "matalan-1132a1"}, "geometry": {"type": "Point", "coordinates": [-5.691155, 54.58766]}},
{"type": "Feature", "id": "ApbPNjaulst1Y9L4RHpLIleJhQQ=", "properties": {"ref": "https://www.matalan.co.uk/stores/northampton", "@spider": "matalan_gb", "shop": "clothes", "addr:street_address": "Unit 1", "addr:city": "Northampton", "addr:postcode": "NN5 5BE", "addr:country": "GB", "name": "Matalan", "phone": "0333 0044444", "website": "https://www.matalan.co.uk/stores/northampton", "contact:twitter": "@Matalan", "image": "https://matalan-assets.imgix.net/assets/matalan-logo-responsive-0f1c895c6ec9b0b427bf3614e1d03352e41e2e501608cabb0d042b5d22282259.svg", "brand": "Matalan", "brand:wikidata": "Q12061509", "nsi_id": "matalan-1132a1"}, "geometry": {"type": "Point", "coordinates": [-0.929039, 52.239105]}},
{"type": "Feature", "id": "G9IwWu5hWs0-uNbWOCaJOeHbWs0=", "properties": {"ref": "https://www.matalan.co.uk/stores/northwich", "@spider": "matalan_gb", "shop": "clothes", "addr:street_address": "Leicester Street", "addr:city": "Northwich", "addr:postcode": "CW9 5LG", "addr:country": "GB", "name": "Matalan", "phone": "0333 0044444", "website": "https://www.matalan.co.uk/stores/northwich", "contact:twitter": "@Matalan", "image": "https://matalan-assets.imgix.net/assets/matalan-logo-responsive-0f1c895c6ec9b0b427bf3614e1d03352e41e2e501608cabb0d042b5d22282259.svg", "brand": "Matalan", "brand:wikidata": "Q12061509", "nsi_id": "matalan-1132a1"}, "geometry": {"type": "Point", "coordinates": [-2.507365, 53.263738]}},
{"type": "Feature", "id": "QS36ctmc6xbAJacVnrL1pXTVe04=", "properties": {"ref": "https://www.matalan.co.uk/stores/norwich", "@spider": "matalan_gb", "shop": "clothes", "addr:street_address": "Unit 6a Riverside Ret Pk", "addr:city": "Norwich", "addr:postcode": "NR1 1WU", "addr:country": "GB", "name": "Matalan", "phone": "0333 0044444", "website": "https://www.matalan.co.uk/stores/norwich", "contact:twitter": "@Matalan", "image": "https://matalan-assets.imgix.net/assets/matalan-logo-responsive-0f1c895c6ec9b0b427bf3614e1d03352e41e2e501608cabb0d042b5d22282259.svg", "brand": "Matalan", "brand:wikidata": "Q12061509", "nsi_id": "matalan-1132a1"}, "geometry": {"type": "Point", "coordinates": [1.307077, 52.624113]}},
{"type": "Feature", "id": "0eHZu3i-6urojGC0kjoPV4B7QG0=", "properties": {"ref": "https://www.matalan.co.uk/stores/nottingham-bulwell", "@spider": "matalan_gb", "shop": "clothes", "addr:street_address": "Unit 6 Springfield Rt Pk", "addr:city": "Nottingham", "addr:postcode": "NG6 8AJ", "addr:country": "GB", "name": "Matalan", "phone": "0333 0044444", "website": "https://www.matalan.co.uk/stores/nottingham-bulwell", "contact:twitter": "@Matalan", "image": "https://matalan-assets.imgix.net/assets/matalan-logo-responsive-0f1c895c6ec9b0b427bf3614e1d03352e41e2e501608cabb0d042b5d22282259.svg", "brand": "Matalan", "brand:wikidata": "Q12061509", "nsi_id": "matalan-1132a1"}, "geometry": {"type": "Point", "coordinates": [-1.191182, 53.006503]}},
{"type": "Feature", "id": "2cZWJmDngE0ac2vdK-h3r-SCzn8=", "properties": {"ref": "https://www.matalan.co.uk/stores/nottingham-chil", "@spider": "matalan_gb", "shop": "clothes", "addr:street_address": "East West Link Road", "addr:city": "Nottingham", "addr:postcode": "NG9 6DS", "addr:country": "GB", "name": "Matalan", "phone": "0333 0044444", "website": "https://www.matalan.co.uk/stores/nottingham-chil", "contact:twitter": "@Matalan", "image": "https://matalan-assets.imgix.net/assets/matalan-logo-responsive-0f1c895c6ec9b0b427bf3614e1d03352e41e2e501608cabb0d042b5d22282259.svg", "brand": "Matalan", "brand:wikidata": "Q12061509", "nsi_id": "matalan-1132a1"}, "geometry": {"type": "Point", "coordinates": [-1.243777, 52.903155]}},
{"type": "Feature", "id": "TKKQ8x2edyJbXWKhU7Lek3tRPs0=", "properties": {"ref": "https://www.matalan.co.uk/stores/oldbury", "@spider": "matalan_gb", "shop": "clothes", "addr:street_address": "Portway Road", "addr:city": "Oldbury", "addr:postcode": "B69 2BZ", "addr:country": "GB", "name": "Matalan", "phone": "0333 0044444", "website": "https://www.matalan.co.uk/stores/oldbury", "contact:twitter": "@Matalan", "image": "https://matalan-assets.imgix.net/assets/matalan-logo-responsive-0f1c895c6ec9b0b427bf3614e1d03352e41e2e501608cabb0d042b5d22282259.svg", "brand": "Matalan", "brand:wikidata": "Q12061509", "nsi_id": "matalan-1132a1"}, "geometry": {"type": "Point", "coordinates": [-2.020326, 52.500711]}},
{"type": "Feature", "id": "-c0Ca3WFFLyKDVtUhtfYDT9Ua0g=", "properties": {"ref": "https://www.matalan.co.uk/stores/oldham", "@spider": "matalan_gb", "shop": "clothes", "addr:street_address": "Unit 2", "addr:city": "Oldham", "addr:postcode": "OL4 1SA", "addr:country": "GB", "name": "Matalan", "phone": "0333 0044444", "website": "https://www.matalan.co.uk/stores/oldham", "contact:twitter": "@Matalan", "image": "https://matalan-assets.imgix.net/assets/matalan-logo-responsive-0f1c895c6ec9b0b427bf3614e1d03352e41e2e501608cabb0d042b5d22282259.svg", "brand": "Matalan", "brand:wikidata": "Q12061509", "nsi_id": "matalan-1132a1"}, "geometry": {"type": "Point", "coordinates": [-2.108236, 53.537149]}},
{"type": "Feature", "id": "PrHFuWMTo0JwY9E3HjdULTeQCf4=", "properties": {"ref": "https://www.matalan.co.uk/stores/openshaw", "@spider": "matalan_gb", "shop": "clothes", "addr:street_address": "Ashton Old Road", "addr:city": "Manchester", "addr:postcode": "M11 2NN", "addr:country": "GB", "name": "Matalan", "phone": "0333 0044444", "website": "https://www.matalan.co.uk/stores/openshaw", "contact:twitter": "@Matalan", "image": "https://matalan-assets.imgix.net/assets/matalan-logo-responsive-0f1c895c6ec9b0b427bf3614e1d03352e41e2e501608cabb0d042b5d22282259.svg", "brand": "Matalan", "brand:wikidata": "Q12061509", "nsi_id": "matalan-1132a1"}, "geometry": {"type": "Point", "coordinates": [-2.175378, 53.473821]}},
{"type": "Feature", "id": "9sEvgV1-4TDcUtyz0FcfveFqLdw=", "properties": {"ref": "https://www.matalan.co.uk/stores/oxford-street", "@spider": "matalan_gb", "shop": "clothes", "addr:street_address": "149-151 Oxford St", "addr:city": "London", "addr:postcode": "W1D 2JF", "addr:country": "GB", "name": "Matalan", "phone": "0333 0044444", "website": "https://www.matalan.co.uk/stores/oxford-street", "contact:twitter": "@Matalan", "image": "https://matalan-assets.imgix.net/assets/matalan-logo-responsive-0f1c895c6ec9b0b427bf3614e1d03352e41e2e501608cabb0d042b5d22282259.svg", "brand": "Matalan", "brand:wikidata": "Q12061509", "nsi_id": "matalan-1132a1"}, "geometry": {"type": "Point", "coordinates": [-0.137072, 51.515631]}},
{"type": "Feature", "id": "Au4o1pyYxkSQHwB3nMqQHLPLmBw=", "properties": {"ref": "https://www.matalan.co.uk/stores/perth", "@spider": "matalan_gb", "shop": "clothes", "addr:street_address": "Victoria Street", "addr:city": "Perth", "addr:postcode": "PH2 8JT", "addr:country": "GB", "name": "Matalan", "phone": "0333 0044444", "website": "https://www.matalan.co.uk/stores/perth", "contact:twitter": "@Matalan", "image": "https://matalan-assets.imgix.net/assets/matalan-logo-responsive-0f1c895c6ec9b0b427bf3614e1d03352e41e2e501608cabb0d042b5d22282259.svg", "brand": "Matalan", "brand:wikidata": "Q12061509", "nsi_id": "matalan-1132a1"}, "geometry": {"type": "Point", "coordinates": [-3.430782, 56.393336]}},
{"type": "Feature", "id": "6g6ctjfcWh6NnnATyE-xkxDHeLA=", "properties": {"ref": "https://www.matalan.co.uk/stores/peterborough", "@spider": "matalan_gb", "shop": "clothes", "addr:street_address": "Unit 2 Maskew Avenue", "addr:city": "Peterborough", "addr:postcode": "PE1 2HS", "addr:country": "GB", "name": "Matalan", "phone": "0333 0044444", "website": "https://www.matalan.co.uk/stores/peterborough", "contact:twitter": "@Matalan", "image": "https://matalan-assets.imgix.net/assets/matalan-logo-responsive-0f1c895c6ec9b0b427bf3614e1d03352e41e2e501608cabb0d042b5d22282259.svg", "brand": "Matalan", "brand:wikidata": "Q12061509", "nsi_id": "matalan-1132a1"}, "geometry": {"type": "Point", "coordinates": [-0.258603, 52.592513]}},
{"type": "Feature", "id": "O78XlzDSVuZ15y_ULwwUYaCQYR4=", "properties": {"ref": "https://www.matalan.co.uk/stores/plymouth", "@spider": "matalan_gb", "shop": "clothes", "addr:street_address": "Transit Way", "addr:city": "Plymouth", "addr:postcode": "PL5 3TW", "addr:country": "GB", "name": "Matalan", "phone": "0333 0044444", "website": "https://www.matalan.co.uk/stores/plymouth", "contact:twitter": "@Matalan", "image": "https://matalan-assets.imgix.net/assets/matalan-logo-responsive-0f1c895c6ec9b0b427bf3614e1d03352e41e2e501608cabb0d042b5d22282259.svg", "brand": "Matalan", "brand:wikidata": "Q12061509", "nsi_id": "matalan-1132a1"}, "geometry": {"type": "Point", "coordinates": [-4.15157, 50.410666]}},
{"type": "Feature", "id": "36NJvk-Ok7UtfNiTajIXEZaUW_Y=", "properties": {"ref": "https://www.matalan.co.uk/stores/poole", "@spider": "matalan_gb", "shop": "clothes", "addr:street_address": "Units 2-3 Turbary Ret Pk", "addr:city": "Poole", "addr:postcode": "BH11 8LL", "addr:country": "GB", "name": "Matalan", "phone": "0333 0044444", "website": "https://www.matalan.co.uk/stores/poole", "contact:twitter": "@Matalan", "image": "https://matalan-assets.imgix.net/assets/matalan-logo-responsive-0f1c895c6ec9b0b427bf3614e1d03352e41e2e501608cabb0d042b5d22282259.svg", "brand": "Matalan", "brand:wikidata": "Q12061509", "nsi_id": "matalan-1132a1"}, "geometry": {"type": "Point", "coordinates": [-1.92761, 50.756576]}},
{"type": "Feature", "id": "6m_q3bRrCKsx-KO466m2hl-g3jY=", "properties": {"ref": "https://www.matalan.co.uk/stores/portlethen", "@spider": "matalan_gb", "shop": "clothes", "addr:street_address": "Unit 2, 2 Muirend Court", "addr:city": "Portlethen", "addr:postcode": "AB12 4XP", "addr:country": "GB", "name": "Matalan", "phone": "0333 0044444", "website": "https://www.matalan.co.uk/stores/portlethen", "contact:twitter": "@Matalan", "image": "https://matalan-assets.imgix.net/assets/matalan-logo-responsive-0f1c895c6ec9b0b427bf3614e1d03352e41e2e501608cabb0d042b5d22282259.svg", "brand": "Matalan", "brand:wikidata": "Q12061509", "nsi_id": "matalan-1132a1"}, "geometry": {"type": "Point", "coordinates": [-2.136849, 57.063614]}},
{"type": "Feature", "id": "ik51PU6l3erupBLIOr7saGAQVFA=", "properties": {"ref": "https://www.matalan.co.uk/stores/portsmouth", "@spider": "matalan_gb", "shop": "clothes", "addr:street_address": "Station Street", "addr:city": "Portsmouth", "addr:postcode": "PO1 1BE", "addr:country": "GB", "name": "Matalan", "phone": "0333 0044444", "website": "https://www.matalan.co.uk/stores/portsmouth", "contact:twitter": "@Matalan", "image": "https://matalan-assets.imgix.net/assets/matalan-logo-responsive-0f1c895c6ec9b0b427bf3614e1d03352e41e2e501608cabb0d042b5d22282259.svg", "brand": "Matalan", "brand:wikidata": "Q12061509", "nsi_id": "matalan-1132a1"}, "geometry": {"type": "Point", "coordinates": [-1.089123, 50.79879]}},
{"type": "Feature", "id": "7INx2mDl8NTDf2dO0YHTHHhyeL8=", "properties": {"ref": "https://www.matalan.co.uk/stores/preston", "@spider": "matalan_gb", "shop": "clothes", "addr:street_address": "Holme Road", "addr:city": "Preston", "addr:postcode": "PR5 6BP", "addr:country": "GB", "name": "Matalan", "phone": "0333 0044444", "website": "https://www.matalan.co.uk/stores/preston", "contact:twitter": "@Matalan", "image": "https://matalan-assets.imgix.net/assets/matalan-logo-responsive-0f1c895c6ec9b0b427bf3614e1d03352e41e2e501608cabb0d042b5d22282259.svg", "brand": "Matalan", "brand:wikidata": "Q12061509", "nsi_id": "matalan-1132a1"}, "geometry": {"type": "Point", "coordinates": [-2.671655, 53.724579]}},
{"type": "Feature", "id": "fBazpB840z0KoAq7XdbmnfLHobs=", "properties": {"ref": "https://www.matalan.co.uk/stores/reading", "@spider": "matalan_gb", "shop": "clothes", "addr:street_address": "Rose Kiln Lane", "addr:city": "Reading", "addr:postcode": "RG2 0SN", "addr:country": "GB", "name": "Matalan", "phone": "0333 0044444", "website": "https://www.matalan.co.uk/stores/reading", "contact:twitter": "@Matalan", "image": "https://matalan-assets.imgix.net/assets/matalan-logo-responsive-0f1c895c6ec9b0b427bf3614e1d03352e41e2e501608cabb0d042b5d22282259.svg", "brand": "Matalan", "brand:wikidata": "Q12061509", "nsi_id": "matalan-1132a1"}, "geometry": {"type": "Point", "coordinates": [-0.976497, 51.444398]}},
{"type": "Feature", "id": "7RWcGt5KH23BmMw3ncDche5HVRc=", "properties": {"ref": "https://www.matalan.co.uk/stores/redditch", "@spider": "matalan_gb", "shop": "clothes", "addr:street_address": "Jinnah Road, Tunnel Drive", "addr:city": "Redditch", "addr:postcode": "B98 7ER", "addr:country": "GB", "name": "Matalan", "phone": "0333 0044444", "website": "https://www.matalan.co.uk/stores/redditch", "contact:twitter": "@Matalan", "image": "https://matalan-assets.imgix.net/assets/matalan-logo-responsive-0f1c895c6ec9b0b427bf3614e1d03352e41e2e501608cabb0d042b5d22282259.svg", "brand": "Matalan", "brand:wikidata": "Q12061509", "nsi_id": "matalan-1132a1"}, "geometry": {"type": "Point", "coordinates": [-1.935536, 52.299845]}},
{"type": "Feature", "id": "1Lv37d4f5Yxk9xLvSPVLBOz8WCg=", "properties": {"ref": "https://www.matalan.co.uk/stores/rhyl", "@spider": "matalan_gb", "shop": "clothes", "addr:street_address": "Greenfield Place", "addr:city": "Rhyl", "addr:postcode": "LL18 2BP", "addr:country": "GB", "name": "Matalan", "phone": "0333 0044444", "website": "https://www.matalan.co.uk/stores/rhyl", "contact:twitter": "@Matalan", "image": "https://matalan-assets.imgix.net/assets/matalan-logo-responsive-0f1c895c6ec9b0b427bf3614e1d03352e41e2e501608cabb0d042b5d22282259.svg", "brand": "Matalan", "brand:wikidata": "Q12061509", "nsi_id": "matalan-1132a1"}, "geometry": {"type": "Point", "coordinates": [-3.48564, 53.318738]}},
{"type": "Feature", "id": "Gp6bYfh9xItLdO2AgUZ1P-B__gY=", "properties": {"ref": "https://www.matalan.co.uk/stores/rochdale", "@spider": "matalan_gb", "shop": "clothes", "addr:street_address": "Central Retail Park", "addr:city": "Rochdale", "addr:postcode": "OL11 1DZ", "addr:country": "GB", "name": "Matalan", "phone": "0333 0044444", "website": "https://www.matalan.co.uk/stores/rochdale", "contact:twitter": "@Matalan", "image": "https://matalan-assets.imgix.net/assets/matalan-logo-responsive-0f1c895c6ec9b0b427bf3614e1d03352e41e2e501608cabb0d042b5d22282259.svg", "brand": "Matalan", "brand:wikidata": "Q12061509", "nsi_id": "matalan-1132a1"}, "geometry": {"type": "Point", "coordinates": [-2.151551, 53.613014]}},
{"type": "Feature", "id": "XyrHVDqQu6g-2v2SJTgB_pUniYQ=", "properties": {"ref": "https://www.matalan.co.uk/stores/romford", "@spider": "matalan_gb", "shop": "clothes", "addr:street_address": "117 North Street", "addr:city": "Greater London", "addr:postcode": "RM1 1ES", "addr:country": "GB", "name": "Matalan", "phone": "0333 0044444", "website": "https://www.matalan.co.uk/stores/romford", "contact:twitter": "@Matalan", "image": "https://matalan-assets.imgix.net/assets/matalan-logo-responsive-0f1c895c6ec9b0b427bf3614e1d03352e41e2e501608cabb0d042b5d22282259.svg", "brand": "Matalan", "brand:wikidata": "Q12061509", "nsi_id": "matalan-1132a1"}, "geometry": {"type": "Point", "coordinates": [0.176738, 51.581831]}},
{"type": "Feature", "id": "BU1kSYrTXFRHU-HnI3sFi26NFQY=", "properties": {"ref": "https://www.matalan.co.uk/stores/rotherham", "@spider": "matalan_gb", "shop": "clothes", "addr:street_address": "Unit 14", "addr:city": "Rotherham", "addr:postcode": "S60 1TG", "addr:country": "GB", "name": "Matalan", "phone": "0333 0044444", "website": "https://www.matalan.co.uk/stores/rotherham", "contact:twitter": "@Matalan", "image": "https://matalan-assets.imgix.net/assets/matalan-logo-responsive-0f1c895c6ec9b0b427bf3614e1d03352e41e2e501608cabb0d042b5d22282259.svg", "brand": "Matalan", "brand:wikidata": "Q12061509", "nsi_id": "matalan-1132a1"}, "geometry": {"type": "Point", "coordinates": [-1.345501, 53.444162]}},
{"type": "Feature", "id": "GSwB1zGNpP6L4hfjnLg6y51hnRc=", "properties": {"ref": "https://www.matalan.co.uk/stores/rugby", "@spider": "matalan_gb", "shop": "clothes", "addr:street_address": "Unit L2", "addr:city": "Rugby", "addr:postcode": "CV21 1RW", "addr:country": "GB", "name": "Matalan", "phone": "0333 0044444", "website": "https://www.matalan.co.uk/stores/rugby", "contact:twitter": "@Matalan", "image": "https://matalan-assets.imgix.net/assets/matalan-logo-responsive-0f1c895c6ec9b0b427bf3614e1d03352e41e2e501608cabb0d042b5d22282259.svg", "brand": "Matalan", "brand:wikidata": "Q12061509", "nsi_id": "matalan-1132a1"}, "geometry": {"type": "Point", "coordinates": [-1.259182, 52.385227]}},
{"type": "Feature", "id": "DQTj47uF2aNGaS4iyUFCyLsqFAw=", "properties": {"ref": "https://www.matalan.co.uk/stores/salisbury", "@spider": "matalan_gb", "shop": "clothes", "addr:street_address": "Southampton Road", "addr:city": "Salisbury", "addr:postcode": "SP1 2LE", "addr:country": "GB", "name": "Matalan", "phone": "0333 0044444", "website": "https://www.matalan.co.uk/stores/salisbury", "contact:twitter": "@Matalan", "image": "https://matalan-assets.imgix.net/assets/matalan-logo-responsive-0f1c895c6ec9b0b427bf3614e1d03352e41e2e501608cabb0d042b5d22282259.svg", "brand": "Matalan", "brand:wikidata": "Q12061509", "nsi_id": "matalan-1132a1"}, "geometry": {"type": "Point", "coordinates": [-1.780121, 51.062669]}},
{"type": "Feature", "id": "dxSOHwQ9-zzv7ljKqCq1vVBRmcM=", "properties": {"ref": "https://www.matalan.co.uk/stores/scarborough", "@spider": "matalan_gb", "shop": "clothes", "addr:street_address": "18-46 St Thomas St", "addr:city": "Scarborough", "addr:postcode": "YO11 1DY", "addr:country": "GB", "name": "Matalan", "phone": "0333 0044444", "website": "https://www.matalan.co.uk/stores/scarborough", "contact:twitter": "@Matalan", "image": "https://matalan-assets.imgix.net/assets/matalan-logo-responsive-0f1c895c6ec9b0b427bf3614e1d03352e41e2e501608cabb0d042b5d22282259.svg", "brand": "Matalan", "brand:wikidata": "Q12061509", "nsi_id": "matalan-1132a1"}, "geometry": {"type": "Point", "coordinates": [-0.399875, 54.283525]}},
{"type": "Feature", "id": "9-Q2C21yARh5RWQtpxbg4clr5WM=", "properties": {"ref": "https://www.matalan.co.uk/stores/scunthorpe", "@spider": "matalan_gb", "shop": "clothes", "addr:street_address": "Unit 3", "addr:city": "Scunthorpe", "addr:postcode": "DN15 8NN", "addr:country": "GB", "name": "Matalan", "phone": "0333 0044444", "website": "https://www.matalan.co.uk/stores/scunthorpe", "contact:twitter": "@Matalan", "image": "https://matalan-assets.imgix.net/assets/matalan-logo-responsive-0f1c895c6ec9b0b427bf3614e1d03352e41e2e501608cabb0d042b5d22282259.svg", "brand": "Matalan", "brand:wikidata": "Q12061509", "nsi_id": "matalan-1132a1"}, "geometry": {"type": "Point", "coordinates": [-0.677838, 53.60823]}},
{"type": "Feature", "id": "0kNckaIwkj55qs9QFL6yFRhLSC4=", "properties": {"ref": "https://www.matalan.co.uk/stores/sefton", "@spider": "matalan_gb", "shop": "clothes", "addr:street_address": "Switch Island Leisure  Pk", "addr:city": "Sefton", "addr:postcode": "L30 6TQ", "addr:country": "GB", "name": "Matalan", "phone": "0333 0044444", "website": "https://www.matalan.co.uk/stores/sefton", "contact:twitter": "@Matalan", "image": "https://matalan-assets.imgix.net/assets/matalan-logo-responsive-0f1c895c6ec9b0b427bf3614e1d03352e41e2e501608cabb0d042b5d22282259.svg", "brand": "Matalan", "brand:wikidata": "Q12061509", "nsi_id": "matalan-1132a1"}, "geometry": {"type": "Point", "coordinates": [-2.963348, 53.485411]}},
{"type": "Feature", "id": "ZB5C53wyBlasehPPfFHnES7Zu9c=", "properties": {"ref": "https://www.matalan.co.uk/stores/sheffield", "@spider": "matalan_gb", "shop": "clothes", "addr:street_address": "Unit 1 Heeley Ind Pk", "addr:city": "Sheffield", "addr:postcode": "S8 0RG", "addr:country": "GB", "name": "Matalan", "phone": "0333 0044444", "website": "https://www.matalan.co.uk/stores/sheffield", "contact:twitter": "@Matalan", "image": "https://matalan-assets.imgix.net/assets/matalan-logo-responsive-0f1c895c6ec9b0b427bf3614e1d03352e41e2e501608cabb0d042b5d22282259.svg", "brand": "Matalan", "brand:wikidata": "Q12061509", "nsi_id": "matalan-1132a1"}, "geometry": {"type": "Point", "coordinates": [-1.47753, 53.356072]}},
{"type": "Feature", "id": "5AUJ-REf6j3hNu0r4THXXNvy0zw=", "properties": {"ref": "https://www.matalan.co.uk/stores/sheffield-parkway", "@spider": "matalan_gb", "shop": "clothes", "addr:street_address": "Unit 2 Cricket Inn Road", "addr:city": "Sheffield", "addr:postcode": "S2 5AU", "addr:country": "GB", "name": "Matalan", "phone": "0333 0044444", "website": "https://www.matalan.co.uk/stores/sheffield-parkway", "contact:twitter": "@Matalan", "image": "https://matalan-assets.imgix.net/assets/matalan-logo-responsive-0f1c895c6ec9b0b427bf3614e1d03352e41e2e501608cabb0d042b5d22282259.svg", "brand": "Matalan", "brand:wikidata": "Q12061509", "nsi_id": "matalan-1132a1"}, "geometry": {"type": "Point", "coordinates": [-1.443382, 53.384188]}},
{"type": "Feature", "id": "yTjiP2ZaGX1Vp56aH_Z1AXsrruE=", "properties": {"ref": "https://www.matalan.co.uk/stores/shrewsbury", "@spider": "matalan_gb", "shop": "clothes", "addr:street_address": "Harlescott Retail Park", "addr:city": "Shrewsbury", "addr:postcode": "SY1 3AZ", "addr:country": "GB", "name": "Matalan", "phone": "0333 0044444", "website": "https://www.matalan.co.uk/stores/shrewsbury", "contact:twitter": "@Matalan", "image": "https://matalan-assets.imgix.net/assets/matalan-logo-responsive-0f1c895c6ec9b0b427bf3614e1d03352e41e2e501608cabb0d042b5d22282259.svg", "brand": "Matalan", "brand:wikidata": "Q12061509", "nsi_id": "matalan-1132a1"}, "geometry": {"type": "Point", "coordinates": [-2.730722, 52.737582]}},
{"type": "Feature", "id": "XuuaCMI8Ha9U24GDJMsYEODpFmQ=", "properties": {"ref": "https://www.matalan.co.uk/stores/slough", "@spider": "matalan_gb", "shop": "clothes", "addr:street_address": "217 Bath Road", "addr:city": "Slough", "addr:postcode": "SL1 4AA", "addr:country": "GB", "name": "Matalan", "phone": "0333 0044444", "website": "https://www.matalan.co.uk/stores/slough", "contact:twitter": "@Matalan", "image": "https://matalan-assets.imgix.net/assets/matalan-logo-responsive-0f1c895c6ec9b0b427bf3614e1d03352e41e2e501608cabb0d042b5d22282259.svg", "brand": "Matalan", "brand:wikidata": "Q12061509", "nsi_id": "matalan-1132a1"}, "geometry": {"type": "Point", "coordinates": [-0.623201, 51.515284]}},
{"type": "Feature", "id": "0AK9BLqCG1S8nvx8XPVbiOptAhA=", "properties": {"ref": "https://www.matalan.co.uk/stores/smethwick", "@spider": "matalan_gb", "shop": "clothes", "addr:street_address": "Windmill Retail Centre", "addr:city": "Smethwick", "addr:postcode": "B66 3ER", "addr:country": "GB", "name": "Matalan", "phone": "0333 0044444", "website": "https://www.matalan.co.uk/stores/smethwick", "contact:twitter": "@Matalan", "image": "https://matalan-assets.imgix.net/assets/matalan-logo-responsive-0f1c895c6ec9b0b427bf3614e1d03352e41e2e501608cabb0d042b5d22282259.svg", "brand": "Matalan", "brand:wikidata": "Q12061509", "nsi_id": "matalan-1132a1"}, "geometry": {"type": "Point", "coordinates": [-1.961669, 52.48779]}},
{"type": "Feature", "id": "7VLvpc1U-Nb6Xcss-S3WkrrK6uE=", "properties": {"ref": "https://www.matalan.co.uk/stores/southall", "@spider": "matalan_gb", "shop": "clothes", "addr:street_address": "Great Western Retail Park", "addr:city": "Southall", "addr:postcode": "UB2 4SD", "addr:country": "GB", "name": "Matalan", "phone": "0333 0044444", "website": "https://www.matalan.co.uk/stores/southall", "contact:twitter": "@Matalan", "image": "https://matalan-assets.imgix.net/assets/matalan-logo-responsive-0f1c895c6ec9b0b427bf3614e1d03352e41e2e501608cabb0d042b5d22282259.svg", "brand": "Matalan", "brand:wikidata": "Q12061509", "nsi_id": "matalan-1132a1"}, "geometry": {"type": "Point", "coordinates": [-0.359409, 51.506384]}},
{"type": "Feature", "id": "NaUCOTS5fof5WTwWxzl6Nf3uQ9Y=", "properties": {"ref": "https://www.matalan.co.uk/stores/southampton", "@spider": "matalan_gb", "shop": "clothes", "addr:street_address": "West Quay Retail Park", "addr:city": "Southampton", "addr:postcode": "SO15 1BA", "addr:country": "GB", "name": "Matalan", "phone": "0333 0044444", "website": "https://www.matalan.co.uk/stores/southampton", "contact:twitter": "@Matalan", "image": "https://matalan-assets.imgix.net/assets/matalan-logo-responsive-0f1c895c6ec9b0b427bf3614e1d03352e41e2e501608cabb0d042b5d22282259.svg", "brand": "Matalan", "brand:wikidata": "Q12061509", "nsi_id": "matalan-1132a1"}, "geometry": {"type": "Point", "coordinates": [-1.410053, 50.90421]}},
{"type": "Feature", "id": "emy96sSv_Om55f4jzO6YHPa9K3I=", "properties": {"ref": "https://www.matalan.co.uk/stores/southend", "@spider": "matalan_gb", "shop": "clothes", "addr:street_address": "The Greyhound Retail Park", "addr:city": "Southend", "addr:postcode": "SS2 5PY", "addr:country": "GB", "name": "Matalan", "phone": "0333 0044444", "website": "https://www.matalan.co.uk/stores/southend", "contact:twitter": "@Matalan", "image": "https://matalan-assets.imgix.net/assets/matalan-logo-responsive-0f1c895c6ec9b0b427bf3614e1d03352e41e2e501608cabb0d042b5d22282259.svg", "brand": "Matalan", "brand:wikidata": "Q12061509", "nsi_id": "matalan-1132a1"}, "geometry": {"type": "Point", "coordinates": [0.717471, 51.545289]}},
{"type": "Feature", "id": "HU3PEdJlRMKcoS8hIdkb4gX0M9Q=", "properties": {"ref": "https://www.matalan.co.uk/stores/southport", "@spider": "matalan_gb", "shop": "clothes", "addr:street_address": "Ocean Plaza, Marine Drive", "addr:city": "Southport", "addr:postcode": "PR8 1RY", "addr:country": "GB", "name": "Matalan", "phone": "0333 0044444", "website": "https://www.matalan.co.uk/stores/southport", "contact:twitter": "@Matalan", "image": "https://matalan-assets.imgix.net/assets/matalan-logo-responsive-0f1c895c6ec9b0b427bf3614e1d03352e41e2e501608cabb0d042b5d22282259.svg", "brand": "Matalan", "brand:wikidata": "Q12061509", "nsi_id": "matalan-1132a1"}, "geometry": {"type": "Point", "coordinates": [-3.011739, 53.653291]}},
{"type": "Feature", "id": "1CukVsQGXncPZdAO_pbDC0vwaIo=", "properties": {"ref": "https://www.matalan.co.uk/stores/head-office-dc", "@spider": "matalan_gb", "shop": "clothes", "addr:street_address": "Staff Only Service", "addr:city": "Staff ID Required", "addr:postcode": "L33 7TQ", "addr:country": "GB", "name": "Matalan", "phone": "0333 0044444", "website": "https://www.matalan.co.uk/stores/head-office-dc", "contact:twitter": "@Matalan", "image": "https://matalan-assets.imgix.net/assets/matalan-logo-responsive-0f1c895c6ec9b0b427bf3614e1d03352e41e2e501608cabb0d042b5d22282259.svg", "brand": "Matalan", "brand:wikidata": "Q12061509", "nsi_id": "matalan-1132a1"}, "geometry": {"type": "Point", "coordinates": [-2.847776, 53.478725]}},
{"type": "Feature", "id": "EXuiJQv88nnQh8LL5yVcRR6JxQE=", "properties": {"ref": "https://www.matalan.co.uk/stores/head-office", "@spider": "matalan_gb", "shop": "clothes", "addr:street_address": "Staff Only Service", "addr:city": "Staff ID Required", "addr:postcode": "L33 7SZ", "addr:country": "GB", "name": "Matalan", "phone": "0333 0044444", "website": "https://www.matalan.co.uk/stores/head-office", "contact:twitter": "@Matalan", "image": "https://matalan-assets.imgix.net/assets/matalan-logo-responsive-0f1c895c6ec9b0b427bf3614e1d03352e41e2e501608cabb0d042b5d22282259.svg", "brand": "Matalan", "brand:wikidata": "Q12061509", "nsi_id": "matalan-1132a1"}, "geometry": {"type": "Point", "coordinates": [-2.847776, 53.478725]}},
{"type": "Feature", "id": "x37YNLAcoTvJWOXE4rjBD06K-Wo=", "properties": {"ref": "https://www.matalan.co.uk/stores/stafford", "@spider": "matalan_gb", "shop": "clothes", "addr:street_address": "5-6  Queensville Ret Pk", "addr:city": "Stafford", "addr:postcode": "ST17 4SU", "addr:country": "GB", "name": "Matalan", "phone": "0333 0044444", "website": "https://www.matalan.co.uk/stores/stafford", "contact:twitter": "@Matalan", "image": "https://matalan-assets.imgix.net/assets/matalan-logo-responsive-0f1c895c6ec9b0b427bf3614e1d03352e41e2e501608cabb0d042b5d22282259.svg", "brand": "Matalan", "brand:wikidata": "Q12061509", "nsi_id": "matalan-1132a1"}, "geometry": {"type": "Point", "coordinates": [-2.101187, 52.796025]}},
{"type": "Feature", "id": "XmxRwIsEVSq2HupDIZ46n-DPcqY=", "properties": {"ref": "https://www.matalan.co.uk/stores/staines", "@spider": "matalan_gb", "shop": "clothes", "addr:street_address": "Unit 21", "addr:city": "Staines", "addr:postcode": "TW18 4QB", "addr:country": "GB", "name": "Matalan", "phone": "0333 0044444", "website": "https://www.matalan.co.uk/stores/staines", "contact:twitter": "@Matalan", "image": "https://matalan-assets.imgix.net/assets/matalan-logo-responsive-0f1c895c6ec9b0b427bf3614e1d03352e41e2e501608cabb0d042b5d22282259.svg", "brand": "Matalan", "brand:wikidata": "Q12061509", "nsi_id": "matalan-1132a1"}, "geometry": {"type": "Point", "coordinates": [-0.508816, 51.432473]}},
{"type": "Feature", "id": "dgVUcnsbZAmNZlNc5Q93H4dTOfQ=", "properties": {"ref": "https://www.matalan.co.uk/stores/st-albans", "@spider": "matalan_gb", "shop": "clothes", "addr:street_address": "Unit 1 St Albans Ret Pk", "addr:city": "St Albans", "addr:postcode": "AL1 2RJ", "addr:country": "GB", "name": "Matalan", "phone": "0333 0044444", "website": "https://www.matalan.co.uk/stores/st-albans", "contact:twitter": "@Matalan", "image": "https://matalan-assets.imgix.net/assets/matalan-logo-responsive-0f1c895c6ec9b0b427bf3614e1d03352e41e2e501608cabb0d042b5d22282259.svg", "brand": "Matalan", "brand:wikidata": "Q12061509", "nsi_id": "matalan-1132a1"}, "geometry": {"type": "Point", "coordinates": [-0.341327, 51.74282]}},
{"type": "Feature", "id": "aKI1b2xgGTuAhTVXE3lvKzYmtSg=", "properties": {"ref": "https://www.matalan.co.uk/stores/stechford", "@spider": "matalan_gb", "shop": "clothes", "addr:street_address": "Unit 2 Flaxley Parkway", "addr:city": "Birmingham", "addr:postcode": "B33 9AN", "addr:country": "GB", "name": "Matalan", "phone": "0333 0044444", "website": "https://www.matalan.co.uk/stores/stechford", "contact:twitter": "@Matalan", "image": "https://matalan-assets.imgix.net/assets/matalan-logo-responsive-0f1c895c6ec9b0b427bf3614e1d03352e41e2e501608cabb0d042b5d22282259.svg", "brand": "Matalan", "brand:wikidata": "Q12061509", "nsi_id": "matalan-1132a1"}, "geometry": {"type": "Point", "coordinates": [-1.808922, 52.486949]}},
{"type": "Feature", "id": "yzcT8lTv0uqvIdVRpXS1vViqADQ=", "properties": {"ref": "https://www.matalan.co.uk/stores/st-helens", "@spider": "matalan_gb", "shop": "clothes", "addr:street_address": "2 Watts Clift Way", "addr:city": "St Helens", "addr:postcode": "WA9 1JL", "addr:country": "GB", "name": "Matalan", "phone": "0333 0044444", "website": "https://www.matalan.co.uk/stores/st-helens", "contact:twitter": "@Matalan", "image": "https://matalan-assets.imgix.net/assets/matalan-logo-responsive-0f1c895c6ec9b0b427bf3614e1d03352e41e2e501608cabb0d042b5d22282259.svg", "brand": "Matalan", "brand:wikidata": "Q12061509", "nsi_id": "matalan-1132a1"}, "geometry": {"type": "Point", "coordinates": [-2.728738, 53.450421]}},
{"type": "Feature", "id": "8XEwRsXjGkv0y_Dap9Dadk-CaGM=", "properties": {"ref": "https://www.matalan.co.uk/stores/stockport", "@spider": "matalan_gb", "shop": "clothes", "addr:street_address": "Millgate", "addr:city": "Stockport", "addr:postcode": "SK1 2LX", "addr:country": "GB", "name": "Matalan", "phone": "0333 0044444", "website": "https://www.matalan.co.uk/stores/stockport", "contact:twitter": "@Matalan", "image": "https://matalan-assets.imgix.net/assets/matalan-logo-responsive-0f1c895c6ec9b0b427bf3614e1d03352e41e2e501608cabb0d042b5d22282259.svg", "brand": "Matalan", "brand:wikidata": "Q12061509", "nsi_id": "matalan-1132a1"}, "geometry": {"type": "Point", "coordinates": [-2.154292, 53.412065]}},
{"type": "Feature", "id": "Uv6-aY4Ng0dmYmzjSbDLirsIFeI=", "properties": {"ref": "https://www.matalan.co.uk/stores/stockton", "@spider": "matalan_gb", "shop": "clothes", "addr:street_address": "Bridge Road Retail Park", "addr:city": "Stockton-on-Tees", "addr:postcode": "TS18 3AY", "addr:country": "GB", "name": "Matalan", "phone": "0333 0044444", "website": "https://www.matalan.co.uk/stores/stockton", "contact:twitter": "@Matalan", "image": "https://matalan-assets.imgix.net/assets/matalan-logo-responsive-0f1c895c6ec9b0b427bf3614e1d03352e41e2e501608cabb0d042b5d22282259.svg", "brand": "Matalan", "brand:wikidata": "Q12061509", "nsi_id": "matalan-1132a1"}, "geometry": {"type": "Point", "coordinates": [-1.312678, 54.558284]}},
{"type": "Feature", "id": "xnoVlwrd0fe18WbI2J05p5009Ug=", "properties": {"ref": "https://www.matalan.co.uk/stores/stoke", "@spider": "matalan_gb", "shop": "clothes", "addr:street_address": "Wolstanton Retail Park", "addr:city": "Stoke-on-Trent", "addr:postcode": "ST5 0AY", "addr:country": "GB", "name": "Matalan", "phone": "0333 0044444", "website": "https://www.matalan.co.uk/stores/stoke", "contact:twitter": "@Matalan", "image": "https://matalan-assets.imgix.net/assets/matalan-logo-responsive-0f1c895c6ec9b0b427bf3614e1d03352e41e2e501608cabb0d042b5d22282259.svg", "brand": "Matalan", "brand:wikidata": "Q12061509", "nsi_id": "matalan-1132a1"}, "geometry": {"type": "Point", "coordinates": [-2.208382, 53.02952]}},
{"type": "Feature", "id": "ie9XBLHezDmjPpmqiMSVNsBdPM0=", "properties": {"ref": "https://www.matalan.co.uk/stores/stratford", "@spider": "matalan_gb", "shop": "clothes", "addr:street_address": "Unit E Maybird Centre", "addr:city": "Stratford-Upon-Avon", "addr:postcode": "CV37 0HZ", "addr:country": "GB", "name": "Matalan", "phone": "0333 0044444", "website": "https://www.matalan.co.uk/stores/stratford", "contact:twitter": "@Matalan", "image": "https://matalan-assets.imgix.net/assets/matalan-logo-responsive-0f1c895c6ec9b0b427bf3614e1d03352e41e2e501608cabb0d042b5d22282259.svg", "brand": "Matalan", "brand:wikidata": "Q12061509", "nsi_id": "matalan-1132a1"}, "geometry": {"type": "Point", "coordinates": [-1.711724, 52.200588]}},
{"type": "Feature", "id": "SBw6jZrx6p1uXEG8lQTD5x1mKC8=", "properties": {"ref": "https://www.matalan.co.uk/stores/strood", "@spider": "matalan_gb", "shop": "clothes", "addr:street_address": "Strood Retail PK", "addr:city": "Strood", "addr:postcode": "ME2 2AD", "addr:country": "GB", "name": "Matalan", "phone": "0333 0044444", "website": "https://www.matalan.co.uk/stores/strood", "contact:twitter": "@Matalan", "image": "https://matalan-assets.imgix.net/assets/matalan-logo-responsive-0f1c895c6ec9b0b427bf3614e1d03352e41e2e501608cabb0d042b5d22282259.svg", "brand": "Matalan", "brand:wikidata": "Q12061509", "nsi_id": "matalan-1132a1"}, "geometry": {"type": "Point", "coordinates": [0.493773, 51.393899]}},
{"type": "Feature", "id": "Y6wq1fv9nLvjfZI5cw02IqyP6GA=", "properties": {"ref": "https://www.matalan.co.uk/stores/washington", "@spider": "matalan_gb", "shop": "clothes", "addr:street_address": "The Galleries Retail Park", "addr:city": "Washington", "addr:postcode": "NE38 7RW", "addr:country": "GB", "name": "Matalan", "phone": "0333 0044444", "website": "https://www.matalan.co.uk/stores/washington", "contact:twitter": "@Matalan", "image": "https://matalan-assets.imgix.net/assets/matalan-logo-responsive-0f1c895c6ec9b0b427bf3614e1d03352e41e2e501608cabb0d042b5d22282259.svg", "brand": "Matalan", "brand:wikidata": "Q12061509", "nsi_id": "matalan-1132a1"}, "geometry": {"type": "Point", "coordinates": [-1.530113, 54.903402]}},
{"type": "Feature", "id": "RB6vZjN60_tWrIksGuKWtJ_j0oA=", "properties": {"ref": "https://www.matalan.co.uk/stores/waterlooville", "@spider": "matalan_gb", "shop": "clothes", "addr:street_address": "Unit 6 Wellinton Ret Pk", "addr:city": "Waterlooville", "addr:postcode": "PO7 7FG", "addr:country": "GB", "name": "Matalan", "phone": "0333 0044444", "website": "https://www.matalan.co.uk/stores/waterlooville", "contact:twitter": "@Matalan", "image": "https://matalan-assets.imgix.net/assets/matalan-logo-responsive-0f1c895c6ec9b0b427bf3614e1d03352e41e2e501608cabb0d042b5d22282259.svg", "brand": "Matalan", "brand:wikidata": "Q12061509", "nsi_id": "matalan-1132a1"}, "geometry": {"type": "Point", "coordinates": [-1.033392, 50.880933]}},
{"type": "Feature", "id": "VU1OCkebGxEHekvbExL-z3Q6UTc=", "properties": {"ref": "https://www.matalan.co.uk/stores/wellingborough", "@spider": "matalan_gb", "shop": "clothes", "addr:street_address": "31-34 Victoria Road", "addr:city": "Wellingborough", "addr:postcode": "NN8 1HH", "addr:country": "GB", "name": "Matalan", "phone": "0333 0044444", "website": "https://www.matalan.co.uk/stores/wellingborough", "contact:twitter": "@Matalan", "image": "https://matalan-assets.imgix.net/assets/matalan-logo-responsive-0f1c895c6ec9b0b427bf3614e1d03352e41e2e501608cabb0d042b5d22282259.svg", "brand": "Matalan", "brand:wikidata": "Q12061509", "nsi_id": "matalan-1132a1"}, "geometry": {"type": "Point", "coordinates": [-0.689647, 52.302267]}},
{"type": "Feature", "id": "uB6yfDfWzwki3lG5f2W0IerQyyA=", "properties": {"ref": "https://www.matalan.co.uk/stores/west-supermare", "@spider": "matalan_gb", "shop": "clothes", "addr:street_address": "Summer Lane, Worle", "addr:city": "Weston Super-Mare", "addr:postcode": "BS24 7AY", "addr:country": "GB", "name": "Matalan", "phone": "0333 0044444", "website": "https://www.matalan.co.uk/stores/west-supermare", "contact:twitter": "@Matalan", "image": "https://matalan-assets.imgix.net/assets/matalan-logo-responsive-0f1c895c6ec9b0b427bf3614e1d03352e41e2e501608cabb0d042b5d22282259.svg", "brand": "Matalan", "brand:wikidata": "Q12061509", "nsi_id": "matalan-1132a1"}, "geometry": {"type": "Point", "coordinates": [-2.914125, 51.352546]}},
{"type": "Feature", "id": "d_UtcRAy_NMHBGJNiXPfcUoai4c=", "properties": {"ref": "https://www.matalan.co.uk/stores/west-thurrock", "@spider": "matalan_gb", "shop": "clothes", "addr:street_address": "Unit 4B The Tunnel Estate", "addr:city": "West Thurrock", "addr:postcode": "RM20 3HH", "addr:country": "GB", "name": "Matalan", "phone": "0333 0044444", "website": "https://www.matalan.co.uk/stores/west-thurrock", "contact:twitter": "@Matalan", "image": "https://matalan-assets.imgix.net/assets/matalan-logo-responsive-0f1c895c6ec9b0b427bf3614e1d03352e41e2e501608cabb0d042b5d22282259.svg", "brand": "Matalan", "brand:wikidata": "Q12061509", "nsi_id": "matalan-1132a1"}, "geometry": {"type": "Point", "coordinates": [0.271979, 51.484475]}},
{"type": "Feature", "id": "rpNIaPfOz67K3OG2GCbLKSg9Je0=", "properties": {"ref": "https://www.matalan.co.uk/stores/weymouth", "@spider": "matalan_gb", "shop": "clothes", "addr:street_address": "Unit 2 Jubilee Ret Pk", "addr:city": "Weymouth", "addr:postcode": "DT4 7BG", "addr:country": "GB", "name": "Matalan", "phone": "0333 0044444", "website": "https://www.matalan.co.uk/stores/weymouth", "contact:twitter": "@Matalan", "image": "https://matalan-assets.imgix.net/assets/matalan-logo-responsive-0f1c895c6ec9b0b427bf3614e1d03352e41e2e501608cabb0d042b5d22282259.svg", "brand": "Matalan", "brand:wikidata": "Q12061509", "nsi_id": "matalan-1132a1"}, "geometry": {"type": "Point", "coordinates": [-2.4581, 50.617182]}},
{"type": "Feature", "id": "QvX76fB4TWnDB28ALITgD_0vP0I=", "properties": {"ref": "https://www.matalan.co.uk/stores/wigan", "@spider": "matalan_gb", "shop": "clothes", "addr:street_address": "35 Loire Drive", "addr:city": "Wigan", "addr:postcode": "WN5 0UH", "addr:country": "GB", "name": "Matalan", "phone": "0333 0044444", "website": "https://www.matalan.co.uk/stores/wigan", "contact:twitter": "@Matalan", "image": "https://matalan-assets.imgix.net/assets/matalan-logo-responsive-0f1c895c6ec9b0b427bf3614e1d03352e41e2e501608cabb0d042b5d22282259.svg", "brand": "Matalan", "brand:wikidata": "Q12061509", "nsi_id": "matalan-1132a1"}, "geometry": {"type": "Point", "coordinates": [-2.651654, 53.543764]}},
{"type": "Feature", "id": "aqPXITcYl9YuhT9VUJf5GGrEfcw=", "properties": {"ref": "https://www.matalan.co.uk/stores/wishaw", "@spider": "matalan_gb", "shop": "clothes", "addr:street_address": "Unit 5 Caledonian Centre", "addr:city": "Wishaw", "addr:postcode": "ML2 7SN", "addr:country": "GB", "name": "Matalan", "phone": "0333 0044444", "website": "https://www.matalan.co.uk/stores/wishaw", "contact:twitter": "@Matalan", "image": "https://matalan-assets.imgix.net/assets/matalan-logo-responsive-0f1c895c6ec9b0b427bf3614e1d03352e41e2e501608cabb0d042b5d22282259.svg", "brand": "Matalan", "brand:wikidata": "Q12061509", "nsi_id": "matalan-1132a1"}, "geometry": {"type": "Point", "coordinates": [-3.947433, 55.775909]}},
{"type": "Feature", "id": "ymD-9F_lNmgIPF4fO5aiDPpe4aY=", "properties": {"ref": "https://www.matalan.co.uk/stores/wood-green-clearance", "@spider": "matalan_gb", "shop": "clothes", "addr:street_address": "Lymington Avenue", "addr:city": "Wood Green", "addr:postcode": "N22 6JA", "addr:country": "GB", "name": "Matalan", "phone": "0333 0044444", "website": "https://www.matalan.co.uk/stores/wood-green-clearance", "contact:twitter": "@Matalan", "image": "https://matalan-assets.imgix.net/assets/matalan-logo-responsive-0f1c895c6ec9b0b427bf3614e1d03352e41e2e501608cabb0d042b5d22282259.svg", "brand": "Matalan", "brand:wikidata": "Q12061509", "nsi_id": "matalan-1132a1"}, "geometry": {"type": "Point", "coordinates": [-0.104977, 51.593117]}},
{"type": "Feature", "id": "fnbvOVl6taSBJy84YpIahKDqOqU=", "properties": {"ref": "https://www.matalan.co.uk/stores/workington", "@spider": "matalan_gb", "shop": "clothes", "addr:street_address": "Plot 12 Derwent House", "addr:city": "Workington", "addr:postcode": "CA14 3YA", "addr:country": "GB", "name": "Matalan", "phone": "0333 0044444", "website": "https://www.matalan.co.uk/stores/workington", "contact:twitter": "@Matalan", "image": "https://matalan-assets.imgix.net/assets/matalan-logo-responsive-0f1c895c6ec9b0b427bf3614e1d03352e41e2e501608cabb0d042b5d22282259.svg", "brand": "Matalan", "brand:wikidata": "Q12061509", "nsi_id": "matalan-1132a1"}, "geometry": {"type": "Point", "coordinates": [-3.561772, 54.636418]}},
{"type": "Feature", "id": "VBXnhgCkerD5cvYJqmnRImaXKK0=", "properties": {"ref": "https://www.matalan.co.uk/stores/worksop", "@spider": "matalan_gb", "shop": "clothes", "addr:street_address": "Eastgate Bridge Street", "addr:city": "Worksop", "addr:postcode": "S80 1RF", "addr:country": "GB", "name": "Matalan", "phone": "0333 0044444", "website": "https://www.matalan.co.uk/stores/worksop", "contact:twitter": "@Matalan", "image": "https://matalan-assets.imgix.net/assets/matalan-logo-responsive-0f1c895c6ec9b0b427bf3614e1d03352e41e2e501608cabb0d042b5d22282259.svg", "brand": "Matalan", "brand:wikidata": "Q12061509", "nsi_id": "matalan-1132a1"}, "geometry": {"type": "Point", "coordinates": [-1.121441, 53.307589]}},
{"type": "Feature", "id": "unvF54j1hZU2pVqx9Ofq8n055BA=", "properties": {"ref": "https://www.matalan.co.uk/stores/wrexham", "@spider": "matalan_gb", "shop": "clothes", "addr:street_address": "Unit 1Mount Street Ret Pk", "addr:city": "Wrexham", "addr:postcode": "LL13 8DW", "addr:country": "GB", "name": "Matalan", "phone": "0333 0044444", "website": "https://www.matalan.co.uk/stores/wrexham", "contact:twitter": "@Matalan", "image": "https://matalan-assets.imgix.net/assets/matalan-logo-responsive-0f1c895c6ec9b0b427bf3614e1d03352e41e2e501608cabb0d042b5d22282259.svg", "brand": "Matalan", "brand:wikidata": "Q12061509", "nsi_id": "matalan-1132a1"}, "geometry": {"type": "Point", "coordinates": [-2.990333, 53.043714]}},
{"type": "Feature", "id": "rk3XlsgdLZ_wjpAobTmIKs153Xw=", "properties": {"ref": "https://www.matalan.co.uk/stores/yeovil", "@spider": "matalan_gb", "shop": "clothes", "addr:street_address": "The Peel Centre", "addr:city": "Yeovil", "addr:postcode": "BA21 5BT", "addr:country": "GB", "name": "Matalan", "phone": "0333 0044444", "website": "https://www.matalan.co.uk/stores/yeovil", "contact:twitter": "@Matalan", "image": "https://matalan-assets.imgix.net/assets/matalan-logo-responsive-0f1c895c6ec9b0b427bf3614e1d03352e41e2e501608cabb0d042b5d22282259.svg", "brand": "Matalan", "brand:wikidata": "Q12061509", "nsi_id": "matalan-1132a1"}, "geometry": {"type": "Point", "coordinates": [-2.605925, 50.940471]}},
{"type": "Feature", "id": "vON9tITS7A4zuGvtbbSQofXw7lc=", "properties": {"ref": "https://www.matalan.co.uk/stores/york", "@spider": "matalan_gb", "shop": "clothes", "addr:street_address": "Units 10  11", "addr:city": "York", "addr:postcode": "YO30 4XZ", "addr:country": "GB", "name": "Matalan", "phone": "0333 0044444", "website": "https://www.matalan.co.uk/stores/york", "contact:twitter": "@Matalan", "image": "https://matalan-assets.imgix.net/assets/matalan-logo-responsive-0f1c895c6ec9b0b427bf3614e1d03352e41e2e501608cabb0d042b5d22282259.svg", "brand": "Matalan", "brand:wikidata": "Q12061509", "nsi_id": "matalan-1132a1"}, "geometry": {"type": "Point", "coordinates": [-1.097897, 53.993983]}}]}