{"type":"FeatureCollection","features":[{"type": "Feature", "id": "8_42zuuIVU3zrRxzfBavjg5CYtU=", "properties": {"ref": "https://www.mcdonalds.co.th/storeLocations/5bd50c0facc28a76f33fe1bd", "@spider": "mcdonalds_th", "addr:full": "No. 1, Room No. 1001 C Lertpanya Rajvithee Road, Phayathai , Bangkok 10400 .", "addr:country": "TH", "name": "CENTER ONE", "website": "https://www.mcdonalds.co.th/storeLocations/5bd50c0facc28a76f33fe1bd", "brand": "McDonald\u2019s", "brand:wikidata": "Q38076"}, "geometry": {"type": "Point", "coordinates": [100.539441, 13.764251]}},
{"type": "Feature", "id": "Gj_QadMVQFPndcZ_Q8Iaf6Suwlo=", "properties": {"ref": "https://www.mcdonalds.co.th/storeLocations/5bd51430acc28a4209293d69", "@spider": "mcdonalds_th", "addr:full": "No. 90 Sukhumvit Road, Pacific Park Sriracha, Chonburi 20110 .", "addr:country": "TH", "name": "PACIFIC PARK SRIRACHA", "website": "https://www.mcdonalds.co.th/storeLocations/5bd51430acc28a4209293d69", "brand": "McDonald\u2019s", "brand:wikidata": "Q38076"}, "geometry": {"type": "Point", "coordinates": [100.930645, 13.167498]}},
{"type": "Feature", "id": "IahzhzHNgKWEU585MP4geUG1fDs=", "properties": {"ref": "https://www.mcdonalds.co.th/storeLocations/5bd5d4adacc28a3cfb04e662", "@spider": "mcdonalds_th", "addr:full": "No. 425 Moo 5 Carrefour shopping center . Srinakarin T.Samrongnuea Road , Muang, Samut Prakan 10270 .", "addr:country": "TH", "name": "BIG C EXTRA SRINAKARIN", "website": "https://www.mcdonalds.co.th/storeLocations/5bd5d4adacc28a3cfb04e662", "brand": "McDonald\u2019s", "brand:wikidata": "Q38076"}, "geometry": {"type": "Point", "coordinates": [100.640884, 13.649094]}},
{"type": "Feature", "id": "SHyj5MD_91Kz7-jncN4Fd66I5X4=", "properties": {"ref": "https://www.mcdonalds.co.th/storeLocations/5bd653b0acc28a72ed3f3932", "@spider": "mcdonalds_th", "addr:full": "No. 197 building, Jungceylon Shopping Center , Room 3131 , G -Thit 200 Pee Road , Patong , Kathu, Phuket 83150.", "addr:country": "TH", "name": "JUNGCEYLON 2 (SAI 3), PATONG PHUKET", "website": "https://www.mcdonalds.co.th/storeLocations/5bd653b0acc28a72ed3f3932", "brand": "McDonald\u2019s", "brand:wikidata": "Q38076"}, "geometry": {"type": "Point", "coordinates": [98.29976, 7.891325]}},
{"type": "Feature", "id": "ecRhVrzGuER-TUKXBEwP9kf222w=", "properties": {"ref": "https://www.mcdonalds.co.th/storeLocations/5bd68299acc28a1e876f2c9b", "@spider": "mcdonalds_th", "addr:full": "No. 1 Building, Room No. A117 Amorini floor 1 and 2, Siam Park Kannayo 10230 .", "addr:country": "TH", "name": "AMORINI, SIAM PARK (DRIVE-THRU)", "website": "https://www.mcdonalds.co.th/storeLocations/5bd68299acc28a1e876f2c9b", "brand": "McDonald\u2019s", "brand:wikidata": "Q38076"}, "geometry": {"type": "Point", "coordinates": [100.687542, 13.814155]}},
{"type": "Feature", "id": "eY1E19WpmQ05gOFO258n_frjmFc=", "properties": {"ref": "https://www.mcdonalds.co.th/storeLocations/5bd68361acc28a1fda451467", "@spider": "mcdonalds_th", "addr:full": "No. 220 of The Platinum Fashion Mall, Room No. B-10 Basement and 1st Floor, Room No. 1-70 Petchburi Road, Bangkok 10400 .", "addr:country": "TH", "name": "PLATINUM NOVOTEL", "website": "https://www.mcdonalds.co.th/storeLocations/5bd68361acc28a1fda451467", "brand": "McDonald\u2019s", "brand:wikidata": "Q38076"}, "geometry": {"type": "Point", "coordinates": [100.540438, 13.74989]}},
{"type": "Feature", "id": "-MZtwnzvSb0csJ-CrkVvaUHuM5Y=", "properties": {"ref": "https://www.mcdonalds.co.th/storeLocations/5bd6857dacc28a033b1d2dc3", "@spider": "mcdonalds_th", "addr:full": "No. 59 /11 Moo 4, Tha palace Nakhon Chai Si district, Nakhon Pathom 73120 .", "addr:country": "TH", "name": "NAKORNCHAISRI, NAKORNPATHOM (DRIVE-THRU)", "website": "https://www.mcdonalds.co.th/storeLocations/5bd6857dacc28a033b1d2dc3", "brand": "McDonald\u2019s", "brand:wikidata": "Q38076"}, "geometry": {"type": "Point", "coordinates": [100.179219, 13.7739]}},
{"type": "Feature", "id": "6TEzs0-Z6bsQJrrzSU8mAl5701E=", "properties": {"ref": "https://www.mcdonalds.co.th/storeLocations/5bd880eaacc28a46600999ad", "@spider": "mcdonalds_th", "addr:full": "No. 1869 /1 Petchkasem Lucksong Bangkae Bangkok 10160 .", "addr:country": "TH", "name": "VICTORIA GARDEN - PETCHKASEM 69 (DRIVE-THRU)", "website": "https://www.mcdonalds.co.th/storeLocations/5bd880eaacc28a46600999ad", "brand": "McDonald\u2019s", "brand:wikidata": "Q38076"}, "geometry": {"type": "Point", "coordinates": [100.376083, 13.707961]}},
{"type": "Feature", "id": "-VYQOodyL4T-LGljq8dkPf2YlrI=", "properties": {"ref": "https://www.mcdonalds.co.th/storeLocations/5bd8844facc28a3fcb2964e2", "@spider": "mcdonalds_th", "addr:full": "No. 207/3 Ratchadapisek Rd., Dingdang Sub-district, Dindang District Bangkok", "addr:country": "TH", "name": "GLAS HAUS RATCHADA 17 (DRIVE-THRU)", "website": "https://www.mcdonalds.co.th/storeLocations/5bd8844facc28a3fcb2964e2", "brand": "McDonald\u2019s", "brand:wikidata": "Q38076"}, "geometry": {"type": "Point", "coordinates": [100.573728, 13.786174]}},
{"type": "Feature", "id": "756x0HdRsfh-tWQsOY2BMgIblFE=", "properties": {"ref": "https://www.mcdonalds.co.th/storeLocations/5bd8853facc28a3b5c1a7770", "@spider": "mcdonalds_th", "addr:full": "110 1st Fl.  Parking Building Faculty of Medicine Chiangmai University Intawarorot Rd. Tambon Sriphoom Amphoe Mueangchiangmai Chiangmai Province", "addr:country": "TH", "name": "SUANDOK HOSPITAL CHIANGMAI", "website": "https://www.mcdonalds.co.th/storeLocations/5bd8853facc28a3b5c1a7770", "brand": "McDonald\u2019s", "brand:wikidata": "Q38076"}, "geometry": {"type": "Point", "coordinates": [98.974235, 18.789672]}},
{"type": "Feature", "id": "n_B4kFyLbA551fHO8xlxo4Vl3XM=", "properties": {"ref": "https://www.mcdonalds.co.th/storeLocations/5bd88c10acc28a65707770e6", "@spider": "mcdonalds_th", "addr:full": "9/7 Bannaiwang Rd. Tambon Pakprek Amphoe Thungsong Nakornsrithammarat Province 80110", "addr:country": "TH", "name": "PTT THUNGSONG (DRIVE-THRU)", "website": "https://www.mcdonalds.co.th/storeLocations/5bd88c10acc28a65707770e6", "brand": "McDonald\u2019s", "brand:wikidata": "Q38076"}, "geometry": {"type": "Point", "coordinates": [99.695924, 8.154954]}},
{"type": "Feature", "id": "oXC78rUfBnuuxY3Nlzl4m_HE_N0=", "properties": {"ref": "https://www.mcdonalds.co.th/storeLocations/5bd8908dacc28a46600999d8", "@spider": "mcdonalds_th", "addr:full": "35/22 Moo 1, Bangkaew, Nakornchaisri, Nakornpathom 73120", "addr:country": "TH", "name": "PTT NAKORNCHAISRI (DRIVE-THRU)", "website": "https://www.mcdonalds.co.th/storeLocations/5bd8908dacc28a46600999d8", "brand": "McDonald\u2019s", "brand:wikidata": "Q38076"}, "geometry": {"type": "Point", "coordinates": [100.165329, 13.80192]}},
{"type": "Feature", "id": "cSzTF7UXr3if5x96KEaKFA9pzdM=", "properties": {"ref": "https://www.mcdonalds.co.th/storeLocations/5bd50acaacc28a76f33fe1b9", "@spider": "mcdonalds_th", "addr:full": "Home Phaholyothin Place Building at 412 Phaholyothin Road , Phayathai, Bangkok 10400 .", "addr:country": "TH", "name": "PHAHOLYOTHIN PLACE", "website": "https://www.mcdonalds.co.th/storeLocations/5bd50acaacc28a76f33fe1b9", "brand": "McDonald\u2019s", "brand:wikidata": "Q38076"}, "geometry": {"type": "Point", "coordinates": [100.546091, 13.783157]}},
{"type": "Feature", "id": "5KyNoT6rk5-dTDDVGKmF9fEzu_Y=", "properties": {"ref": "https://www.mcdonalds.co.th/storeLocations/5bd51067acc28a0c4a79c072", "@spider": "mcdonalds_th", "addr:full": "No. 11 and 13, Ong Sim Foreign Talad Yai, Muang Phuket 83000.", "addr:country": "TH", "name": "PHUKET", "website": "https://www.mcdonalds.co.th/storeLocations/5bd51067acc28a0c4a79c072", "brand": "McDonald\u2019s", "brand:wikidata": "Q38076"}, "geometry": {"type": "Point", "coordinates": [98.394413, 7.877373]}},
{"type": "Feature", "id": "4ZW8qzc94Ofg7h41q3d6DOZYuik=", "properties": {"ref": "https://www.mcdonalds.co.th/storeLocations/5bd51148acc28a0c4a79c076", "@spider": "mcdonalds_th", "addr:full": "No. 554 Sukhumvit Nernphra Mueang Rayong , Rayong 21000 .", "addr:country": "TH", "name": "PASSIONE SHOPPING DESTINATION RAYONG", "website": "https://www.mcdonalds.co.th/storeLocations/5bd51148acc28a0c4a79c076", "brand": "McDonald\u2019s", "brand:wikidata": "Q38076"}, "geometry": {"type": "Point", "coordinates": [101.249056, 12.683379]}},
{"type": "Feature", "id": "BsRxQg6z0zewfBbr9fws1nuw-ec=", "properties": {"ref": "https://www.mcdonalds.co.th/storeLocations/5bd511e8acc28a0c4a79c07a", "@spider": "mcdonalds_th", "addr:full": "No. 79/109-110 Central Plaza Ratchada - Rama 3, 2nd Floor , Room 224, 225 Satupradid . Chongnonsi 10120 .", "addr:country": "TH", "name": "CENTRAL RAMA 3", "website": "https://www.mcdonalds.co.th/storeLocations/5bd511e8acc28a0c4a79c07a", "brand": "McDonald\u2019s", "brand:wikidata": "Q38076"}, "geometry": {"type": "Point", "coordinates": [100.537874, 13.698299]}},
{"type": "Feature", "id": "1tyt4Heh5lmqGplwesYsyBFwMpc=", "properties": {"ref": "https://www.mcdonalds.co.th/storeLocations/5bd51473acc28a6d4e0e5278", "@spider": "mcdonalds_th", "addr:full": "No. 99 , 1st Floor, The Mall Rd , Thonburi Thonburi , Bangkok 10600 .", "addr:country": "TH", "name": "THE  MALL THAPHRA 1", "website": "https://www.mcdonalds.co.th/storeLocations/5bd51473acc28a6d4e0e5278", "brand": "McDonald\u2019s", "brand:wikidata": "Q38076"}, "geometry": {"type": "Point", "coordinates": [100.47997, 13.713579]}},
{"type": "Feature", "id": "ucRUm9yxEjH19sHf3nEnLLhiA0A=", "properties": {"ref": "https://www.mcdonalds.co.th/storeLocations/5bd51503acc28a4209293d6d", "@spider": "mcdonalds_th", "addr:full": "No. 9 among the six distribution centers Lotus. supercenter Srinakarin Srinakarin Bangmuangmai Muang Samut Prakan MON 10270", "addr:country": "TH", "name": "TESCO SRINAKARIN", "website": "https://www.mcdonalds.co.th/storeLocations/5bd51503acc28a4209293d6d", "brand": "McDonald\u2019s", "brand:wikidata": "Q38076"}, "geometry": {"type": "Point", "coordinates": [100.62084, 13.621109]}},
{"type": "Feature", "id": "p3nKL7INlK49ZjmWIiSlQuHAyZI=", "properties": {"ref": "https://www.mcdonalds.co.th/storeLocations/5bd65330acc28a3cfa502ac2", "@spider": "mcdonalds_th", "addr:full": "No. 98/ 3 Moo 4 Carrefour sanitation 5 Rd Sai Mai , Bangkok 10220 .", "addr:country": "TH", "name": "BIG C EXTRA SUKHAPHIBAN 5 (DRIVE-THRU)", "website": "https://www.mcdonalds.co.th/storeLocations/5bd65330acc28a3cfa502ac2", "brand": "McDonald\u2019s", "brand:wikidata": "Q38076"}, "geometry": {"type": "Point", "coordinates": [100.656104, 13.88886]}},
{"type": "Feature", "id": "JVNl8sRF7Cl49FIdhDSEqEKuWyY=", "properties": {"ref": "https://www.mcdonalds.co.th/storeLocations/5bd656e0acc28a61c720512e", "@spider": "mcdonalds_th", "addr:full": "No. 88 UD Town Mall, 1st Floor, Room No. A big gold district, Udon Thani . Province 41000", "addr:country": "TH", "name": "UD TOWN, UDORN THANI (DRIVE-THRU)", "website": "https://www.mcdonalds.co.th/storeLocations/5bd656e0acc28a61c720512e", "brand": "McDonald\u2019s", "brand:wikidata": "Q38076"}, "geometry": {"type": "Point", "coordinates": [102.804163, 17.406232]}},
{"type": "Feature", "id": "V6W4jUR7_k7I6r30NVqyjhpn76k=", "properties": {"ref": "https://www.mcdonalds.co.th/storeLocations/5bd6821dacc28a23a10ac962", "@spider": "mcdonalds_th", "addr:full": "74-75 , 1st Floor, Room No. 144-145 Moo 5 Tambon Chalong, A. Muang , Phuket 83000.", "addr:country": "TH", "name": "CENTRAL FESTIVAL PHUKET", "website": "https://www.mcdonalds.co.th/storeLocations/5bd6821dacc28a23a10ac962", "brand": "McDonald\u2019s", "brand:wikidata": "Q38076"}, "geometry": {"type": "Point", "coordinates": [98.367564, 7.890243]}},
{"type": "Feature", "id": "vY_Bp4WWnGX3TcR0HgMD2CuKGP8=", "properties": {"ref": "https://www.mcdonalds.co.th/storeLocations/5bd87e32acc28a3b5c1a7761", "@spider": "mcdonalds_th", "addr:full": "No. 941/2 Road Chayangkun Road in the city of Ubonratchathani 34000", "addr:country": "TH", "name": "UBON SQUARE (DRIVE-THRU)", "website": "https://www.mcdonalds.co.th/storeLocations/5bd87e32acc28a3b5c1a7761", "brand": "McDonald\u2019s", "brand:wikidata": "Q38076"}, "geometry": {"type": "Point", "coordinates": [104.842394, 15.270565]}},
{"type": "Feature", "id": "KE6NXil6FktculsbK4GbzMg7NlM=", "properties": {"ref": "https://www.mcdonalds.co.th/storeLocations/5bd51016acc28a03b7532dbd", "@spider": "mcdonalds_th", "addr:full": "No. 18 SCB Building, Park Plaza West, G Floor and Basement 1 Ratchadapisek Road , Chatuchak, Bangkok 10900 .", "addr:country": "TH", "name": "SCB PARK", "website": "https://www.mcdonalds.co.th/storeLocations/5bd51016acc28a03b7532dbd", "brand": "McDonald\u2019s", "brand:wikidata": "Q38076"}, "geometry": {"type": "Point", "coordinates": [100.564685, 13.828058]}},
{"type": "Feature", "id": "-pzLWunsIw5uylBLFKZRlu62vBQ=", "properties": {"ref": "https://www.mcdonalds.co.th/storeLocations/5bd51685acc28a0c4a79c07e", "@spider": "mcdonalds_th", "addr:full": "No. 5, 1st Floor, Fortune Tower , Ratchadapisek Road, Din Daeng , Bangkok 10400 .", "addr:country": "TH", "name": "IT MALL FORTUNE TOWN", "website": "https://www.mcdonalds.co.th/storeLocations/5bd51685acc28a0c4a79c07e", "brand": "McDonald\u2019s", "brand:wikidata": "Q38076"}, "geometry": {"type": "Point", "coordinates": [100.565669, 13.759886]}},
{"type": "Feature", "id": "6S47cZZy5UBgTrVa0TiiXVIGEKY=", "properties": {"ref": "https://www.mcdonalds.co.th/storeLocations/5bd5d657acc28a72ec066f72", "@spider": "mcdonalds_th", "addr:full": "69/ 1 Moo 3 gas stations jet 62, T. Ayutthaya , Bang Pa- in, Ayutthaya 13160 Wa .", "addr:country": "TH", "name": "PTT AYUDHAYA (DRIVE-THRU)", "website": "https://www.mcdonalds.co.th/storeLocations/5bd5d657acc28a72ec066f72", "brand": "McDonald\u2019s", "brand:wikidata": "Q38076"}, "geometry": {"type": "Point", "coordinates": [100.612238, 14.266119]}},
{"type": "Feature", "id": "PQXVztqXNDV9hmMEsL7BSCVDOq4=", "properties": {"ref": "https://www.mcdonalds.co.th/storeLocations/5bd64be0acc28a61ab194ef6", "@spider": "mcdonalds_th", "addr:full": "328 Moo 2 Baan Sai Thailand , Ao Nang, Muang , Krabi 81000 .", "addr:country": "TH", "name": "KRABI", "website": "https://www.mcdonalds.co.th/storeLocations/5bd64be0acc28a61ab194ef6", "brand": "McDonald\u2019s", "brand:wikidata": "Q38076"}, "geometry": {"type": "Point", "coordinates": [98.825581, 8.032913]}},
{"type": "Feature", "id": "_rOigI9WQlXoPTh_xKKTwp-xtGQ=", "properties": {"ref": "https://www.mcdonalds.co.th/storeLocations/5bd64fcaacc28a72eb565f3e", "@spider": "mcdonalds_th", "addr:full": "No. 1329/10 Tesco Lotus Express Town in Town Soi Ladprao 94 ( Panjamit) Road, Wang Thong Lang . District, Wang Thong Lang , Bangkok 10230", "addr:country": "TH", "name": "TESCO TOWN IN TOWN", "website": "https://www.mcdonalds.co.th/storeLocations/5bd64fcaacc28a72eb565f3e", "brand": "McDonald\u2019s", "brand:wikidata": "Q38076"}, "geometry": {"type": "Point", "coordinates": [100.610927, 13.774385]}},
{"type": "Feature", "id": "7-UtRr2IQza4cf0KS5f66OG90TM=", "properties": {"ref": "https://www.mcdonalds.co.th/storeLocations/5bd65648acc28a033b1d2dae", "@spider": "mcdonalds_th", "addr:full": "No. 60 International Airport domestic terminal . Area No. D2012-2014 , Moo 3 , Tambon Suthep , Muang, Chiang Mai 50200 .", "addr:country": "TH", "name": "CHIANGMAI AIRPORT", "website": "https://www.mcdonalds.co.th/storeLocations/5bd65648acc28a033b1d2dae", "brand": "McDonald\u2019s", "brand:wikidata": "Q38076"}, "geometry": {"type": "Point", "coordinates": [98.968265, 18.768374]}},
{"type": "Feature", "id": "L6WHvid5qmTKGfKRLblqy3FNINM=", "properties": {"ref": "https://www.mcdonalds.co.th/storeLocations/5bd685d9acc28a23a10ac96e", "@spider": "mcdonalds_th", "addr:full": "No. 119 /1 Csl 2nd Floor , Rama 2 Rd , Bangkok 10150.", "addr:country": "TH", "name": "M-PARK RAMA 2 (DRIVE-THRU)", "website": "https://www.mcdonalds.co.th/storeLocations/5bd685d9acc28a23a10ac96e", "brand": "McDonald\u2019s", "brand:wikidata": "Q38076"}, "geometry": {"type": "Point", "coordinates": [100.441555, 13.663351]}},
{"type": "Feature", "id": "lDLEMA_RzgzitPWBW5OIxr0_tMk=", "properties": {"ref": "https://www.mcdonalds.co.th/storeLocations/5bd8764bacc28a3b59098aaa", "@spider": "mcdonalds_th", "addr:full": "900 Mega Plaza ( Wang Burapha ), Room A101-103, A201-204 and some areas on B1 Mahachai Road Wangburapapirom, bangkok 10200 .", "addr:country": "TH", "name": "MEGA WANGBURAPA", "website": "https://www.mcdonalds.co.th/storeLocations/5bd8764bacc28a3b59098aaa", "brand": "McDonald\u2019s", "brand:wikidata": "Q38076"}, "geometry": {"type": "Point", "coordinates": [100.502605, 13.745305]}},
{"type": "Feature", "id": "AN3G705rUkMr6mNbxGpc1LyJ2Q8=", "properties": {"ref": "https://www.mcdonalds.co.th/storeLocations/5bd877deacc28a3b5a29d721", "@spider": "mcdonalds_th", "addr:full": "87 grand 5 storey buildings 1 and 2 A10-12 Lerdsin Soi 1, Sukhumvit Road, Klongtoey Nua , Wattana, Bangkok 10110 .", "addr:country": "TH", "name": "GRAND FIVE NANA", "website": "https://www.mcdonalds.co.th/storeLocations/5bd877deacc28a3b5a29d721", "brand": "McDonald\u2019s", "brand:wikidata": "Q38076"}, "geometry": {"type": "Point", "coordinates": [100.565286, 13.733366]}},
{"type": "Feature", "id": "W3xp0DMhRtedFp65ZYvng-yESyw=", "properties": {"ref": "https://www.mcdonalds.co.th/storeLocations/5bd87efcacc28a46600999a9", "@spider": "mcdonalds_th", "addr:full": "No. 6/11 Moo 2, Sukhumvit Road, Khlong Talat Pak Kret, Nonthaburi 11120", "addr:country": "TH", "name": "CHIC REPUBLIC RAJCHAPRUEK (DRIVE-THRU)", "website": "https://www.mcdonalds.co.th/storeLocations/5bd87efcacc28a46600999a9", "brand": "McDonald\u2019s", "brand:wikidata": "Q38076"}, "geometry": {"type": "Point", "coordinates": [100.452019, 13.918304]}},
{"type": "Feature", "id": "6gfeShqyB5sWePni5OjxiozjK6o=", "properties": {"ref": "https://www.mcdonalds.co.th/storeLocations/5bd8822bacc28a3b59098aba", "@spider": "mcdonalds_th", "addr:full": "No. 59/1 Moo 5 Tambon Khok Muang Ratchaburi , Ratchaburi 70000 .", "addr:country": "TH", "name": "RAJBURI PETCHKASEM (DRIVE-THRU)", "website": "https://www.mcdonalds.co.th/storeLocations/5bd8822bacc28a3b59098aba", "brand": "McDonald\u2019s", "brand:wikidata": "Q38076"}, "geometry": {"type": "Point", "coordinates": [99.830298, 13.575802]}},
{"type": "Feature", "id": "H9EQHFW4Rv2Slz-mkbBazZ7tL3s=", "properties": {"ref": "https://www.mcdonalds.co.th/storeLocations/5bd883deacc28a46600999b8", "@spider": "mcdonalds_th", "addr:full": "No. 114/894 Moo 5 , Tambon Bang Khu Wat Muang , Pathumthani 12000 .", "addr:country": "TH", "name": "PTT 345 OUTBOUND (DRIVE-THRU)", "website": "https://www.mcdonalds.co.th/storeLocations/5bd883deacc28a46600999b8", "brand": "McDonald\u2019s", "brand:wikidata": "Q38076"}, "geometry": {"type": "Point", "coordinates": [100.487418, 13.955213]}},
{"type": "Feature", "id": "2YKYnrf-bdgDtbfoYcezMSo8iVk=", "properties": {"ref": "https://www.mcdonalds.co.th/storeLocations/5bd888c4acc28a46600999c0", "@spider": "mcdonalds_th", "addr:full": "141 Moo3 Tambon Banwan Amphoe Hangdong Chiangmai Province", "addr:country": "TH", "name": "KAD FARANG CHIANGMAI (DRIVE-THRU)", "website": "https://www.mcdonalds.co.th/storeLocations/5bd888c4acc28a46600999c0", "brand": "McDonald\u2019s", "brand:wikidata": "Q38076"}, "geometry": {"type": "Point", "coordinates": [98.93125, 18.700971]}},
{"type": "Feature", "id": "PoMoU67D_muutISHhSsneNV-oqQ=", "properties": {"ref": "https://www.mcdonalds.co.th/storeLocations/5bd891ecacc28a3b59098ad7", "@spider": "mcdonalds_th", "addr:full": "222 Saimai Road, Saimai, Bangkok 10220", "addr:country": "TH", "name": "AC MARKET SAIMAI", "website": "https://www.mcdonalds.co.th/storeLocations/5bd891ecacc28a3b59098ad7", "brand": "McDonald\u2019s", "brand:wikidata": "Q38076"}, "geometry": {"type": "Point", "coordinates": [100.642808, 13.923106]}},
{"type": "Feature", "id": "rctl_jb0lK0RxNVV9dftVm8a9o8=", "properties": {"ref": "https://www.mcdonalds.co.th/storeLocations/5bd896f4acc28a3b59098ae7", "@spider": "mcdonalds_th", "addr:full": "887/2 Moo 5 Samrong Nuea, Amphoe Mueang Samut Prakan, Samutprakarn Province 10270", "addr:country": "TH", "name": "BANGCHAK SRINAKARIN (DRIVE-THRU)", "website": "https://www.mcdonalds.co.th/storeLocations/5bd896f4acc28a3b59098ae7", "brand": "McDonald\u2019s", "brand:wikidata": "Q38076"}, "geometry": {"type": "Point", "coordinates": [100.640165, 13.650861]}},
{"type": "Feature", "id": "gSSLwjpLFaGP7BkDNvNU2_WggiU=", "properties": {"ref": "https://www.mcdonalds.co.th/storeLocations/5bd89766acc28a6fe077d366", "@spider": "mcdonalds_th", "addr:full": "8 Moo 10 Com Pattaya Building, G Floor, Zone Plaza, Area numberGS07, Pattaya South Road, Nong Prue, Bang Lamung, Chonburi 20150", "addr:country": "TH", "name": "TUKCOM PATTAYA", "website": "https://www.mcdonalds.co.th/storeLocations/5bd89766acc28a6fe077d366", "brand": "McDonald\u2019s", "brand:wikidata": "Q38076"}, "geometry": {"type": "Point", "coordinates": [100.87866, 12.923706]}},
{"type": "Feature", "id": "QxsPLCPjT0hHT7bOb97bOhFlKg0=", "properties": {"ref": "https://www.mcdonalds.co.th/storeLocations/5bd506ebacc28a6d53023d36", "@spider": "mcdonalds_th", "addr:full": "444 MBK Center, Building 1 , Room 1 A and 1 B. 01-1 10-1 A. 13 B. 02 Phayathai Road , Pathumwan , Bangkok 10330 .", "addr:country": "TH", "name": "MAHBOONKRONG", "website": "https://www.mcdonalds.co.th/storeLocations/5bd506ebacc28a6d53023d36", "brand": "McDonald\u2019s", "brand:wikidata": "Q38076"}, "geometry": {"type": "Point", "coordinates": [100.530074, 13.744356]}},
{"type": "Feature", "id": "o2gJzP0tgN1TvdAzGBn8veuCJFU=", "properties": {"ref": "https://www.mcdonalds.co.th/storeLocations/5bd65676acc28a72ee41c6f2", "@spider": "mcdonalds_th", "addr:full": "No. 3/83 Moo 7 Klong 4 Carrefour shopping T.Ladsavay Pathumthani 12150.", "addr:country": "TH", "name": "BIG C EXTRA LUMLUKKA KLONG 4 (DRIVE-THRU)", "website": "https://www.mcdonalds.co.th/storeLocations/5bd65676acc28a72ee41c6f2", "brand": "McDonald\u2019s", "brand:wikidata": "Q38076"}, "geometry": {"type": "Point", "coordinates": [100.664763, 14.004532]}},
{"type": "Feature", "id": "rzuwaCTrOiAeVD4GDF5XfNIBYhg=", "properties": {"ref": "https://www.mcdonalds.co.th/storeLocations/5bd656a7acc28a3cfb04e67a", "@spider": "mcdonalds_th", "addr:full": "No. 37/139 Moo 8 , Room LG-10 , G Bangkrasor Info. Province 11000", "addr:country": "TH", "name": "ESPLANADE RATTANATHIBETH", "website": "https://www.mcdonalds.co.th/storeLocations/5bd656a7acc28a3cfb04e67a", "brand": "McDonald\u2019s", "brand:wikidata": "Q38076"}, "geometry": {"type": "Point", "coordinates": [100.508401, 13.861393]}},
{"type": "Feature", "id": "kP2ppxG6byEk-GkqTQrjGH6c-Zg=", "properties": {"ref": "https://www.mcdonalds.co.th/storeLocations/5bd68395acc28a7a2e1bbf9a", "@spider": "mcdonalds_th", "addr:full": "No. 99/9 Central Plaza Chiang Room No. 136-136T, 137 , 1st Floor, Moo 13 , Tambon Wiang , Muang , Chiang Rai 57000 .", "addr:country": "TH", "name": "CENTRAL CHIANGRAI", "website": "https://www.mcdonalds.co.th/storeLocations/5bd68395acc28a7a2e1bbf9a", "brand": "McDonald\u2019s", "brand:wikidata": "Q38076"}, "geometry": {"type": "Point", "coordinates": [99.834309, 19.888302]}},
{"type": "Feature", "id": "OJBo_Fui4ZDk2H72-Av6rGDu_zU=", "properties": {"ref": "https://www.mcdonalds.co.th/storeLocations/5bd6850eacc28a216a30fa42", "@spider": "mcdonalds_th", "addr:full": "No. 265 on Khao San Rd , Bangkok 10200 .", "addr:country": "TH", "name": "KAOSAN ROAD 1", "website": "https://www.mcdonalds.co.th/storeLocations/5bd6850eacc28a216a30fa42", "brand": "McDonald\u2019s", "brand:wikidata": "Q38076"}, "geometry": {"type": "Point", "coordinates": [100.498198, 13.758592]}},
{"type": "Feature", "id": "5vZrgKWaajTSqVLKtNvatLABvfU=", "properties": {"ref": "https://www.mcdonalds.co.th/storeLocations/5bd87697acc28a46616ab762", "@spider": "mcdonalds_th", "addr:full": "No. 216 Sri Phu number of cars , Hat Yai , Songkhla 90110 .", "addr:country": "TH", "name": "DIANA HADYAI", "website": "https://www.mcdonalds.co.th/storeLocations/5bd87697acc28a46616ab762", "brand": "McDonald\u2019s", "brand:wikidata": "Q38076"}, "geometry": {"type": "Point", "coordinates": [100.47798, 6.998201]}},
{"type": "Feature", "id": "AtzRvQ3Z2HrN8MI32M85xaelsow=", "properties": {"ref": "https://www.mcdonalds.co.th/storeLocations/5bd876d5acc28a3b5c1a7759", "@spider": "mcdonalds_th", "addr:full": "No. 36/713 Moo 6 Tambon Bang Bang Bua Thong, Nonthaburi , Bangkok 11110 .", "addr:country": "TH", "name": "KANCHANAPISEK BANGYAI (DRIVE-THRU)", "website": "https://www.mcdonalds.co.th/storeLocations/5bd876d5acc28a3b5c1a7759", "brand": "McDonald\u2019s", "brand:wikidata": "Q38076"}, "geometry": {"type": "Point", "coordinates": [100.408162, 13.906077]}},
{"type": "Feature", "id": "jIbG9z5-GND82J6Opq1ooEfkV9A=", "properties": {"ref": "https://www.mcdonalds.co.th/storeLocations/5bd8812eacc28a3b5c1a7768", "@spider": "mcdonalds_th", "addr:full": "111 B. Market Park Moo 6 saothonghin Nonthaburi 11140", "addr:country": "TH", "name": "BB BANGYAI MARKET (DRIVE-THRU)", "website": "https://www.mcdonalds.co.th/storeLocations/5bd8812eacc28a3b5c1a7768", "brand": "McDonald\u2019s", "brand:wikidata": "Q38076"}, "geometry": {"type": "Point", "coordinates": [100.409224, 13.876517]}},
{"type": "Feature", "id": "o8sa-P_dtCmWZLomEtzeStnEe-k=", "properties": {"ref": "https://www.mcdonalds.co.th/storeLocations/5bd8849eacc28a46600999bc", "@spider": "mcdonalds_th", "addr:full": "No. 1010/243 Moo 10, Tambon Nakornsawan Tok, Muang Nakornsawan, Nakornsawan Province", "addr:country": "TH", "name": "M-PARK NAKHONSAWAN (DRIVE-THRU)", "website": "https://www.mcdonalds.co.th/storeLocations/5bd8849eacc28a46600999bc", "brand": "McDonald\u2019s", "brand:wikidata": "Q38076"}, "geometry": {"type": "Point", "coordinates": [100.115666, 15.703259]}},
{"type": "Feature", "id": "nS0xxl87cuqPgeT256uoAlUJ7WQ=", "properties": {"ref": "https://www.mcdonalds.co.th/storeLocations/5bd892fcacc28a46616ab78d", "@spider": "mcdonalds_th", "addr:full": "99/9 Moo 9 Nongprue, Banglamung, Chonburi 20150", "addr:country": "TH", "name": "THE BAY PATTAYA", "website": "https://www.mcdonalds.co.th/storeLocations/5bd892fcacc28a46616ab78d", "brand": "McDonald\u2019s", "brand:wikidata": "Q38076"}, "geometry": {"type": "Point", "coordinates": [100.885003, 12.943632]}},
{"type": "Feature", "id": "QuRKI49niWtlN06RGzkvBOYMFtM=", "properties": {"ref": "https://www.mcdonalds.co.th/storeLocations/5bd8937bacc28a64fe1e3716", "@spider": "mcdonalds_th", "addr:full": "18/291 Moo 7 Bangchalong, Bangphli, Samutprakarn 10540", "addr:country": "TH", "name": "ESSO BANGNA-TRAD KM.17 (DRIVE-THRU)", "website": "https://www.mcdonalds.co.th/storeLocations/5bd8937bacc28a64fe1e3716", "brand": "McDonald\u2019s", "brand:wikidata": "Q38076"}, "geometry": {"type": "Point", "coordinates": [100.751293, 13.615978]}},
{"type": "Feature", "id": "jrqN13Ugp0OCX9xKeAz4_09ei9M=", "properties": {"ref": "https://www.mcdonalds.co.th/storeLocations/5bd48592acc28a2a99639112", "@spider": "mcdonalds_th", "addr:full": "No. 97 /11 Big C shopping mall . Supercenter initiative Room No. G floor GCR 101 Ratchadamri Road, Lumpini, Pathumwan, Bangkok 10330", "addr:country": "TH", "name": "BIG C RAJDAMRI", "website": "https://www.mcdonalds.co.th/storeLocations/5bd48592acc28a2a99639112", "brand": "McDonald\u2019s", "brand:wikidata": "Q38076"}, "geometry": {"type": "Point", "coordinates": [100.541112, 13.747338]}},
{"type": "Feature", "id": "mY46KhqCP-A5Q414x_GC8kA1cqA=", "properties": {"ref": "https://www.mcdonalds.co.th/storeLocations/5bd5089facc28a7b2d3f4c36", "@spider": "mcdonalds_th", "addr:full": "No. 700/75 Moo 5 Tesco Lotus Amata Nakorn , Klong Tamru . Mueang Chonburi Province 20000", "addr:country": "TH", "name": "TESCO AMATA NAKORN", "website": "https://www.mcdonalds.co.th/storeLocations/5bd5089facc28a7b2d3f4c36", "brand": "McDonald\u2019s", "brand:wikidata": "Q38076"}, "geometry": {"type": "Point", "coordinates": [101.004221, 13.42585]}},
{"type": "Feature", "id": "JhzFb4mEH-ljToxugzjjpJP7Wxc=", "properties": {"ref": "https://www.mcdonalds.co.th/storeLocations/5bd50fa8acc28a6d4e0e5274", "@spider": "mcdonalds_th", "addr:full": "No. 2 Ploenchit Center Mall, Floor 1 Unit 1-01 Sukhumvit Road , Klong Toey, Bangkok 10110 .", "addr:country": "TH", "name": "PLOENCHIT CENTER", "website": "https://www.mcdonalds.co.th/storeLocations/5bd50fa8acc28a6d4e0e5274", "brand": "McDonald\u2019s", "brand:wikidata": "Q38076"}, "geometry": {"type": "Point", "coordinates": [100.55152, 13.742256]}},
{"type": "Feature", "id": "CUlcyoA-O72Du1i_nxCVc7MRpRI=", "properties": {"ref": "https://www.mcdonalds.co.th/storeLocations/5bd50fdaacc28a4209293d5d", "@spider": "mcdonalds_th", "addr:full": "No. 100/ 1 Sukhumvit Soi 4 ( Nana Tai ), Sukhumvit Road , Klong Toey, Bangkok 10110 .", "addr:country": "TH", "name": "PTT NANA-TAI", "website": "https://www.mcdonalds.co.th/storeLocations/5bd50fdaacc28a4209293d5d", "brand": "McDonald\u2019s", "brand:wikidata": "Q38076"}, "geometry": {"type": "Point", "coordinates": [100.564969, 13.73396]}},
{"type": "Feature", "id": "-4iIT_-LozThNdEW93CX5LcgJ_E=", "properties": {"ref": "https://www.mcdonalds.co.th/storeLocations/5bd514a8acc28a7b2e1eb6b5", "@spider": "mcdonalds_th", "addr:full": "No. 99 , B Floor, The Mall Rd , Thonburi Thonburi , Bangkok 10600 .", "addr:country": "TH", "name": "THE  MALL THAPHRA 2", "website": "https://www.mcdonalds.co.th/storeLocations/5bd514a8acc28a7b2e1eb6b5", "brand": "McDonald\u2019s", "brand:wikidata": "Q38076"}, "geometry": {"type": "Point", "coordinates": [100.478894, 13.713246]}},
{"type": "Feature", "id": "yZjXDEBNuzEq6-2mV9gcLQKCaEI=", "properties": {"ref": "https://www.mcdonalds.co.th/storeLocations/5bd53779acc28a76f33fe1d2", "@spider": "mcdonalds_th", "addr:full": "No. 559 Moo 3, Lotus Supercenter Branch Building , Phaholyothin Rd , Laksi, Bang Khen , Bangkok 10220 .", "addr:country": "TH", "name": "TESCO LAKSI", "website": "https://www.mcdonalds.co.th/storeLocations/5bd53779acc28a76f33fe1d2", "brand": "McDonald\u2019s", "brand:wikidata": "Q38076"}, "geometry": {"type": "Point", "coordinates": [100.599999, 13.879213]}},
{"type": "Feature", "id": "f3zBgdHq8OgNRhSBKe8oGXesl2Q=", "properties": {"ref": "https://www.mcdonalds.co.th/storeLocations/5bd5d9b9acc28a72ed3f3916", "@spider": "mcdonalds_th", "addr:full": "No. 99 Impact Exhibition Center Popular Road , T. Ban , Pak Kret, Nonthaburi 11120 .", "addr:country": "TH", "name": "IMPACT MUANGTHONG THANI", "website": "https://www.mcdonalds.co.th/storeLocations/5bd5d9b9acc28a72ed3f3916", "brand": "McDonald\u2019s", "brand:wikidata": "Q38076"}, "geometry": {"type": "Point", "coordinates": [100.548077, 13.912782]}},
{"type": "Feature", "id": "KgrKQXbwfSpG_15fKCIjP6L5LRs=", "properties": {"ref": "https://www.mcdonalds.co.th/storeLocations/5bd65001acc28a72ed3f3926", "@spider": "mcdonalds_th", "addr:full": "No. 201 / B, 1st Squadron , Yes Bangplee Building , Room B- 204 L BANGSAOTHONG Rd.", "addr:country": "TH", "name": "YES BANGPHLI", "website": "https://www.mcdonalds.co.th/storeLocations/5bd65001acc28a72ed3f3926", "brand": "McDonald\u2019s", "brand:wikidata": "Q38076"}, "geometry": {"type": "Point", "coordinates": [100.794121, 13.585386]}},
{"type": "Feature", "id": "WywlzZ6kSiRefuBA5bZZ1-KT55w=", "properties": {"ref": "https://www.mcdonalds.co.th/storeLocations/5bd657d1acc28a3cfa502ac6", "@spider": "mcdonalds_th", "addr:full": "No. 392/ 60 Moo 9, Tambon Nong Prue , Banglamung, Chonburi 20260 .", "addr:country": "TH", "name": "PATTAYA KLANG (DRIVE-THRU)", "website": "https://www.mcdonalds.co.th/storeLocations/5bd657d1acc28a3cfa502ac6", "brand": "McDonald\u2019s", "brand:wikidata": "Q38076"}, "geometry": {"type": "Point", "coordinates": [100.898415, 12.925654]}},
{"type": "Feature", "id": "nFCliA7QIPFbpsHWOWuyUAvaBjE=", "properties": {"ref": "https://www.mcdonalds.co.th/storeLocations/5bd87ac5acc28a3b5a29d72c", "@spider": "mcdonalds_th", "addr:full": "No. 234/1 Hua Hin . Market Village , Room C101, C102 , 1st Floor , Petchkasem Road, Hua Hin , Prachuap Khiri Khan 77110 .", "addr:country": "TH", "name": "HUA-HIN MARKET VILLAGE", "website": "https://www.mcdonalds.co.th/storeLocations/5bd87ac5acc28a3b5a29d72c", "brand": "McDonald\u2019s", "brand:wikidata": "Q38076"}, "geometry": {"type": "Point", "coordinates": [99.960544, 12.557967]}},
{"type": "Feature", "id": "tDzvconeJvpHFXMJ98d0FnjKkXg=", "properties": {"ref": "https://www.mcdonalds.co.th/storeLocations/5bd885d3acc28a43f95c3b0d", "@spider": "mcdonalds_th", "addr:full": "90 Moo5 Kanchanapisek Rd. tambon Bangkhu Wiang Amphoe Bang Kruai Nonthaburi Province 11130", "addr:country": "TH", "name": "TESCO BANGYAI", "website": "https://www.mcdonalds.co.th/storeLocations/5bd885d3acc28a43f95c3b0d", "brand": "McDonald\u2019s", "brand:wikidata": "Q38076"}, "geometry": {"type": "Point", "coordinates": [100.409814, 13.823869]}},
{"type": "Feature", "id": "uJ8CWFr0M01bD2Gs-QYhiDbH0YI=", "properties": {"ref": "https://www.mcdonalds.co.th/storeLocations/5bd88dc4acc28a3a3f28531e", "@spider": "mcdonalds_th", "addr:full": "54 Ladprao Rd. Kweang jmopol khet Jatujak Bangkok 10900", "addr:country": "TH", "name": "UNION MALL", "website": "https://www.mcdonalds.co.th/storeLocations/5bd88dc4acc28a3a3f28531e", "brand": "McDonald\u2019s", "brand:wikidata": "Q38076"}, "geometry": {"type": "Point", "coordinates": [100.561768, 13.8136741]}},
{"type": "Feature", "id": "EyQTZUO601rVZZclHwHD34uwmIc=", "properties": {"ref": "https://www.mcdonalds.co.th/storeLocations/5bd890e5acc28a3a3f285322", "@spider": "mcdonalds_th", "addr:full": "199/1 Moo 1, Nongnamdaeng, Pakchong, Nakornratchasima 30130", "addr:country": "TH", "name": "BANGCHAK PAKCHONG (DRIVE-THRU)", "website": "https://www.mcdonalds.co.th/storeLocations/5bd890e5acc28a3a3f285322", "brand": "McDonald\u2019s", "brand:wikidata": "Q38076"}, "geometry": {"type": "Point", "coordinates": [101.357604, 14.651367]}},
{"type": "Feature", "id": "QxqOdadnuMGi7nbWQRuIJaDemmA=", "properties": {"ref": "https://www.mcdonalds.co.th/storeLocations/5bd5127eacc28a76f33fe1c5", "@spider": "mcdonalds_th", "addr:full": "No. 99/ 3 Moo 8 Phaholyothin Zeer Rangsit shopping center Kukot LAMLUKKA 12150 .", "addr:country": "TH", "name": "ZEER RANGSIT (DRIVE-THRU)", "website": "https://www.mcdonalds.co.th/storeLocations/5bd5127eacc28a76f33fe1c5", "brand": "McDonald\u2019s", "brand:wikidata": "Q38076"}, "geometry": {"type": "Point", "coordinates": [100.62102, 13.961165]}},
{"type": "Feature", "id": "iTmzLFO4daTJMLDQb89x7j6xT4k=", "properties": {"ref": "https://www.mcdonalds.co.th/storeLocations/5bd512b3acc28a7b2e1eb6b1", "@spider": "mcdonalds_th", "addr:full": "No. 77/1 Ratchadamnoen Klang Road , Bangkok 10200 Bowonniwet .", "addr:country": "TH", "name": "RATCHADAMNOEN", "website": "https://www.mcdonalds.co.th/storeLocations/5bd512b3acc28a7b2e1eb6b1", "brand": "McDonald\u2019s", "brand:wikidata": "Q38076"}, "geometry": {"type": "Point", "coordinates": [100.501638, 13.757199]}},
{"type": "Feature", "id": "NZtcFGbu7zDCexS9_HOJY3Ey5ew=", "properties": {"ref": "https://www.mcdonalds.co.th/storeLocations/5bd51714acc28a6d53023d42", "@spider": "mcdonalds_th", "addr:full": "No. 29 Lee Garden Hotel Democrat Rd , Hat Yai , Songkhla 90110 .", "addr:country": "TH", "name": "LEE GARDENS PLAZA HADYAI", "website": "https://www.mcdonalds.co.th/storeLocations/5bd51714acc28a6d53023d42", "brand": "McDonald\u2019s", "brand:wikidata": "Q38076"}, "geometry": {"type": "Point", "coordinates": [100.47151, 7.005556]}},
{"type": "Feature", "id": "nBa_yl0jFdeZV1IWAotKxdcjAMI=", "properties": {"ref": "https://www.mcdonalds.co.th/storeLocations/5bd5d52bacc28a3cff32a3e6", "@spider": "mcdonalds_th", "addr:full": "No. 172 Tesco Lotus Rama 3, Sukhumvit Rd . Chongnonsi 10120 .", "addr:country": "TH", "name": "TESCO RAMA 3", "website": "https://www.mcdonalds.co.th/storeLocations/5bd5d52bacc28a3cff32a3e6", "brand": "McDonald\u2019s", "brand:wikidata": "Q38076"}, "geometry": {"type": "Point", "coordinates": [100.541242, 13.69636]}},
{"type": "Feature", "id": "cCzkQyrbyP9FzdB-KqVbzc0gWK4=", "properties": {"ref": "https://www.mcdonalds.co.th/storeLocations/5bd650b7acc28a72ed3f392a", "@spider": "mcdonalds_th", "addr:full": "Terminal 1 at 222 Don Mueang Airport , 3rd floor ( the International) Airport Vibhavadi Rangsit Road, Don Muang, Bangkok 10210 .", "addr:country": "TH", "name": "DONMUEANG AIRPORT - INTER AIRSIDE", "website": "https://www.mcdonalds.co.th/storeLocations/5bd650b7acc28a72ed3f392a", "brand": "McDonald\u2019s", "brand:wikidata": "Q38076"}, "geometry": {"type": "Point", "coordinates": [100.603196, 13.920639]}},
{"type": "Feature", "id": "tunaXSiLMRUHXx2kLwxZAIsDWBw=", "properties": {"ref": "https://www.mcdonalds.co.th/storeLocations/5bd652f6acc28a3cff32a3ea", "@spider": "mcdonalds_th", "addr:full": "No. 30/21 Moo 4 Navaminthra City Mall Avenue , Room 101 , 1st Floor well Jorakaebua Bangkok 10230 .", "addr:country": "TH", "name": "NAWAMIN CITY AVENUE (DRIVE-THRU)", "website": "https://www.mcdonalds.co.th/storeLocations/5bd652f6acc28a3cff32a3ea", "brand": "McDonald\u2019s", "brand:wikidata": "Q38076"}, "geometry": {"type": "Point", "coordinates": [100.611022, 13.833535]}},
{"type": "Feature", "id": "Hshkxf-HFuoCcgnCQa_tC0VgV0c=", "properties": {"ref": "https://www.mcdonalds.co.th/storeLocations/5bd83660acc28a30857e2a22", "@spider": "mcdonalds_th", "addr:full": "189 /1, Road Prasertmanukij Kum Kum, Bangkok 10240.", "addr:country": "TH", "name": "PTT KASETNAWAMIN (DRIVE-THRU)", "website": "https://www.mcdonalds.co.th/storeLocations/5bd83660acc28a30857e2a22", "brand": "McDonald\u2019s", "brand:wikidata": "Q38076"}, "geometry": {"type": "Point", "coordinates": [100.630509, 13.822929]}},
{"type": "Feature", "id": "EiTpHhUEXp_ObEHCdb3bDx1qgso=", "properties": {"ref": "https://www.mcdonalds.co.th/storeLocations/5bd83710acc28a27b711e0e2", "@spider": "mcdonalds_th", "addr:full": "Shibuya Building 19 , No. 919 Petchburi Road , Phayathai Road, Bangkok 10400 .", "addr:country": "TH", "name": "SHIBUYA PRATUNAM", "website": "https://www.mcdonalds.co.th/storeLocations/5bd83710acc28a27b711e0e2", "brand": "McDonald\u2019s", "brand:wikidata": "Q38076"}, "geometry": {"type": "Point", "coordinates": [100.540443, 13.75027]}},
{"type": "Feature", "id": "B0-2CuEbm3mqsN9Nv-alFfS9Yak=", "properties": {"ref": "https://www.mcdonalds.co.th/storeLocations/5bd88085acc28a3b59098ab6", "@spider": "mcdonalds_th", "addr:full": "No. 53 Moo 5 , Klong Luang , Pathumthani 12120 .", "addr:country": "TH", "name": "PHAHOLYOTHIN RANGSIT (DRIVE-THRU DUAL LANE)", "website": "https://www.mcdonalds.co.th/storeLocations/5bd88085acc28a3b59098ab6", "brand": "McDonald\u2019s", "brand:wikidata": "Q38076"}, "geometry": {"type": "Point", "coordinates": [100.615862, 14.042036]}},
{"type": "Feature", "id": "1tHtCVJBK1xf0XFEt9NmSAWTALM=", "properties": {"ref": "https://www.mcdonalds.co.th/storeLocations/5bd88692acc28a46616ab772", "@spider": "mcdonalds_th", "addr:full": "272/4 Moo2 Tambon Lampraya Amphoe Mueang Nakornprathom Nakornprathom Province", "addr:country": "TH", "name": "BANGCHAK NAKORNPATHOM INBOUND (DRIVE-THRU)", "website": "https://www.mcdonalds.co.th/storeLocations/5bd88692acc28a46616ab772", "brand": "McDonald\u2019s", "brand:wikidata": "Q38076"}, "geometry": {"type": "Point", "coordinates": [100.022885, 13.804047]}},
{"type": "Feature", "id": "AGUToFCtZS08jaPvsvrzaVYbUnQ=", "properties": {"ref": "https://www.mcdonalds.co.th/storeLocations/5bd8895facc28a43f95c3b11", "@spider": "mcdonalds_th", "addr:full": "555/1 petchkasem Rd. Tambon Cha-am Amphoe Cha-am petchaburi 76120", "addr:country": "TH", "name": "BANGCHAK CHA-AM (DRIVE-THRU)", "website": "https://www.mcdonalds.co.th/storeLocations/5bd8895facc28a43f95c3b11", "brand": "McDonald\u2019s", "brand:wikidata": "Q38076"}, "geometry": {"type": "Point", "coordinates": [99.939403, 12.821094]}},
{"type": "Feature", "id": "95lWGG78ofKXtNmfgq3IFD7nr4Y=", "properties": {"ref": "https://www.mcdonalds.co.th/storeLocations/5bd88b16acc28a5c4f612ed9", "@spider": "mcdonalds_th", "addr:full": "R101 1st Fl. Market Village Suwannabhumi 99/29 moo1 Tambol Rachathewa Amphoe Bangphli Samutprakarn Province 10540", "addr:country": "TH", "name": "MARKET VILLAGE SVB", "website": "https://www.mcdonalds.co.th/storeLocations/5bd88b16acc28a5c4f612ed9", "brand": "McDonald\u2019s", "brand:wikidata": "Q38076"}, "geometry": {"type": "Point", "coordinates": [100.711641, 13.632271]}},
{"type": "Feature", "id": "88q5FPROl5OrCqFtDKNdb3Xy588=", "properties": {"ref": "https://www.mcdonalds.co.th/storeLocations/5bd88b4facc28a3a3f28530e", "@spider": "mcdonalds_th", "addr:full": "248 Moo12 Tambol Aomnoi Amphoekrathumban Samutsakorn Province", "addr:country": "TH", "name": "TULIP SQUARE (DRIVE-THRU)", "website": "https://www.mcdonalds.co.th/storeLocations/5bd88b4facc28a3a3f28530e", "brand": "McDonald\u2019s", "brand:wikidata": "Q38076"}, "geometry": {"type": "Point", "coordinates": [100.322233, 13.7048]}},
{"type": "Feature", "id": "QOTg5w1z8KctaR7_t6s5Yrz10II=", "properties": {"ref": "https://www.mcdonalds.co.th/storeLocations/5bd89118acc28a46616ab785", "@spider": "mcdonalds_th", "addr:full": "1242/2 Mittrapap Road, Naimuang, Muang Nakorn Ratchasima, Nakorn Ratchasima 30000", "addr:country": "TH", "name": "THE MALL KORAT 2", "website": "https://www.mcdonalds.co.th/storeLocations/5bd89118acc28a46616ab785", "brand": "McDonald\u2019s", "brand:wikidata": "Q38076"}, "geometry": {"type": "Point", "coordinates": [102.076114, 14.980149]}},
{"type": "Feature", "id": "cIYZut7LYkx6rg2kVUp7r8TJKIs=", "properties": {"ref": "https://www.mcdonalds.co.th/storeLocations/5bd50965acc28a03b7532db5", "@spider": "mcdonalds_th", "addr:full": "No. 3522 , Ladprao Road, Bangkapi , Bangkok 10240.", "addr:country": "TH", "name": "THE MALL BANGKAPI 1", "website": "https://www.mcdonalds.co.th/storeLocations/5bd50965acc28a03b7532db5", "brand": "McDonald\u2019s", "brand:wikidata": "Q38076"}, "geometry": {"type": "Point", "coordinates": [100.642544, 13.766444]}},
{"type": "Feature", "id": "exvxsNB4sT35jO0rxXEPuBXwjHo=", "properties": {"ref": "https://www.mcdonalds.co.th/storeLocations/5bd512eeacc28a7b2f038d8c", "@spider": "mcdonalds_th", "addr:full": "No. 6 /11 Moo 14 Bangna - Trad , Bang Kaew Bang Phli , Samut Prakan 10540.", "addr:country": "TH", "name": "ESSO BANGNA KM.6.5 (DRIVE-THRU)", "website": "https://www.mcdonalds.co.th/storeLocations/5bd512eeacc28a7b2f038d8c", "brand": "McDonald\u2019s", "brand:wikidata": "Q38076"}, "geometry": {"type": "Point", "coordinates": [100.666247, 13.659353]}},
{"type": "Feature", "id": "Bbig1SyaEQEx0rUmk4rOu5jXIAg=", "properties": {"ref": "https://www.mcdonalds.co.th/storeLocations/5bd513e8acc28a6d53023d3e", "@spider": "mcdonalds_th", "addr:full": "No. 1839 Major Cineplex (Chatuchak ) 1st Floor , Phaholyothin Road , Chatuchak, Bangkok 10900 .", "addr:country": "TH", "name": "MAJOR CINEPLEX RATCHAYOTHIN", "website": "https://www.mcdonalds.co.th/storeLocations/5bd513e8acc28a6d53023d3e", "brand": "McDonald\u2019s", "brand:wikidata": "Q38076"}, "geometry": {"type": "Point", "coordinates": [100.568451, 13.828735]}},
{"type": "Feature", "id": "Gtv1GakIa7ncmhiwKlYgBxZIkCc=", "properties": {"ref": "https://www.mcdonalds.co.th/storeLocations/5bd51817acc28a4d7c217562", "@spider": "mcdonalds_th", "addr:full": "No. 300 Moo 1 Lotus Super Center Chaengwattana Rd , Laksi , Bangkok 10210 .", "addr:country": "TH", "name": "TESCO CHANGWATTANA", "website": "https://www.mcdonalds.co.th/storeLocations/5bd51817acc28a4d7c217562", "brand": "McDonald\u2019s", "brand:wikidata": "Q38076"}, "geometry": {"type": "Point", "coordinates": [100.556021, 13.895327]}},
{"type": "Feature", "id": "RfOsGAvvXbATJ5aL4GBtUd_ch6o=", "properties": {"ref": "https://www.mcdonalds.co.th/storeLocations/5bd53845acc28a6d4e0e527d", "@spider": "mcdonalds_th", "addr:full": "No. 1242/2 , 1st Floor, The Mall Nakhon Nai Muang , Nakhon Ratchasima 30000 .", "addr:country": "TH", "name": "THE MALL KORAT", "website": "https://www.mcdonalds.co.th/storeLocations/5bd53845acc28a6d4e0e527d", "brand": "McDonald\u2019s", "brand:wikidata": "Q38076"}, "geometry": {"type": "Point", "coordinates": [102.075884, 14.98071]}},
{"type": "Feature", "id": "1fJDfvCiZAkStwngBl_ceETkqI4=", "properties": {"ref": "https://www.mcdonalds.co.th/storeLocations/5bd64e54acc28a72ee41c6e6", "@spider": "mcdonalds_th", "addr:full": "No. 5/1 , Bangla Road , Patong , Kathu, Phuket 83150.", "addr:country": "TH", "name": "TWILIGHT OF BANGLA, PHUKET", "website": "https://www.mcdonalds.co.th/storeLocations/5bd64e54acc28a72ee41c6e6", "brand": "McDonald\u2019s", "brand:wikidata": "Q38076"}, "geometry": {"type": "Point", "coordinates": [98.296738, 7.89569]}},
{"type": "Feature", "id": "OXtTgBWgKYm9gqd9pLVAhgAoZkg=", "properties": {"ref": "https://www.mcdonalds.co.th/storeLocations/5bd65293acc28a033b1d2daa", "@spider": "mcdonalds_th", "addr:full": "No. 700/50 Moo 10 , Klong Kum , Bangkok 10230 .", "addr:country": "TH", "name": "MAX VALU NAWAMIN (DRIVE-THRU)", "website": "https://www.mcdonalds.co.th/storeLocations/5bd65293acc28a033b1d2daa", "brand": "McDonald\u2019s", "brand:wikidata": "Q38076"}, "geometry": {"type": "Point", "coordinates": [100.654557, 13.818886]}},
{"type": "Feature", "id": "CasXFbJrrDJxBR7-buyezB3N-p4=", "properties": {"ref": "https://www.mcdonalds.co.th/storeLocations/5bd83ddcacc28a3b5b385102", "@spider": "mcdonalds_th", "addr:full": "No. 2354/9 Soi Ladprao Wang Thong Lang , Bangkok 10310 Pubpla .", "addr:country": "TH", "name": "LADPRAO 116 (DRIVE-THRU)", "website": "https://www.mcdonalds.co.th/storeLocations/5bd83ddcacc28a3b5b385102", "brand": "McDonald\u2019s", "brand:wikidata": "Q38076"}, "geometry": {"type": "Point", "coordinates": [100.620528, 13.779462]}},
{"type": "Feature", "id": "cSf05a0WVhCmhiXbWe78WLbzQGk=", "properties": {"ref": "https://www.mcdonalds.co.th/storeLocations/5bd8776dacc28a3b59098aae", "@spider": "mcdonalds_th", "addr:full": "333/ 3 Moo 2 Tambon Lam Sai Wang Noi , Ayutthaya 13170.", "addr:country": "TH", "name": "PHAHOLYOTHIN WANGNOI AYUDHAYA (DRIVE-THRU)", "website": "https://www.mcdonalds.co.th/storeLocations/5bd8776dacc28a3b59098aae", "brand": "McDonald\u2019s", "brand:wikidata": "Q38076"}, "geometry": {"type": "Point", "coordinates": [100.643048, 14.193462]}},
{"type": "Feature", "id": "rofHcmGec5JOOh3VtncpgkBY7YY=", "properties": {"ref": "https://www.mcdonalds.co.th/storeLocations/5bd88291acc28a3fcb2964de", "@spider": "mcdonalds_th", "addr:full": "No. 289 Mahidol Road, T. Chang Klan , Muang, Chiang Mai 50100 .", "addr:country": "TH", "name": "STAR MAHIDOL CHIANGMAI (DRIVE-THRU)", "website": "https://www.mcdonalds.co.th/storeLocations/5bd88291acc28a3fcb2964de", "brand": "McDonald\u2019s", "brand:wikidata": "Q38076"}, "geometry": {"type": "Point", "coordinates": [98.991559, 18.764935]}},
{"type": "Feature", "id": "O-cF1ryjSgRHekxzqydRFIsaFyk=", "properties": {"ref": "https://www.mcdonalds.co.th/storeLocations/5bd88adfacc28a3b59098acf", "@spider": "mcdonalds_th", "addr:full": "97/1 Malaiman Rd. Tambon Thaphiliang Amphoe Mueangsuphanburi Suphanburi Province 72000", "addr:country": "TH", "name": "PTT SUPHANBURI (DRIVE-THRU)", "website": "https://www.mcdonalds.co.th/storeLocations/5bd88adfacc28a3b59098acf", "brand": "McDonald\u2019s", "brand:wikidata": "Q38076"}, "geometry": {"type": "Point", "coordinates": [100.111453, 14.476018]}},
{"type": "Feature", "id": "Asm23Yno0_QZvo_1Q10aKYboFO4=", "properties": {"ref": "https://www.mcdonalds.co.th/storeLocations/5bd88c65acc28a3a3f285316", "@spider": "mcdonalds_th", "addr:full": "567/84 Moo 10 Tambon Mueangkao Amphoe Mueangkhonkean  Khonkean Province 40000", "addr:country": "TH", "name": "WUFOO KHONKAEN (DRIVE-THRU)", "website": "https://www.mcdonalds.co.th/storeLocations/5bd88c65acc28a3a3f285316", "brand": "McDonald\u2019s", "brand:wikidata": "Q38076"}, "geometry": {"type": "Point", "coordinates": [102.816084, 16.408924]}},
{"type": "Feature", "id": "-a0M0ki9DgdYLTrbbMVn0qUclFc=", "properties": {"ref": "https://www.mcdonalds.co.th/storeLocations/5bd893b9acc28a46600999dc", "@spider": "mcdonalds_th", "addr:full": "99 Moo 1 Banmai, Pakkred, Nonthaburi 11120", "addr:country": "TH", "name": "ROBINSON SRISAMAN (DRIVE-THRU)", "website": "https://www.mcdonalds.co.th/storeLocations/5bd893b9acc28a46600999dc", "brand": "McDonald\u2019s", "brand:wikidata": "Q38076"}, "geometry": {"type": "Point", "coordinates": [100.552886, 13.939463]}},
{"type": "Feature", "id": "_Z3LUg5tGW8gSZIu_0FjQPSs12U=", "properties": {"ref": "https://www.mcdonalds.co.th/storeLocations/5bd507c5acc28a0c4a79c066", "@spider": "mcdonalds_th", "addr:full": "No. 587 , Bangna - Trad Road, Bangna , Bangkok 10260 .", "addr:country": "TH", "name": "CENTRAL PLAZA BANGNA", "website": "https://www.mcdonalds.co.th/storeLocations/5bd507c5acc28a0c4a79c066", "brand": "McDonald\u2019s", "brand:wikidata": "Q38076"}, "geometry": {"type": "Point", "coordinates": [100.634519, 13.66959]}},
{"type": "Feature", "id": "FSn_UPRzp8SXjsZwU4EXdkkKW4g=", "properties": {"ref": "https://www.mcdonalds.co.th/storeLocations/5bd50802acc28a757e665af9", "@spider": "mcdonalds_th", "addr:full": "Room No. 124-125T , 1st Floor , Central Plaza Chonburi No. 55/88-55/89 , 55 /91 Moo 1, Tambon Samet, Muang , Chonburi 20000 .", "addr:country": "TH", "name": "CENTRAL CHONBURI", "website": "https://www.mcdonalds.co.th/storeLocations/5bd50802acc28a757e665af9", "brand": "McDonald\u2019s", "brand:wikidata": "Q38076"}, "geometry": {"type": "Point", "coordinates": [100.969409, 13.336701]}},
{"type": "Feature", "id": "w_DGI9h2FZM7IfHRe9jH7IuzRA4=", "properties": {"ref": "https://www.mcdonalds.co.th/storeLocations/5bd508e2acc28a7b2f038d7c", "@spider": "mcdonalds_th", "addr:full": "No. 275 Moo 1 Petchkasem Rd -Nua, Wattana , Bangkok 10160 .", "addr:country": "TH", "name": "THE MALL BANGKAE 1", "website": "https://www.mcdonalds.co.th/storeLocations/5bd508e2acc28a7b2f038d7c", "brand": "McDonald\u2019s", "brand:wikidata": "Q38076"}, "geometry": {"type": "Point", "coordinates": [100.407254, 13.713718]}},
{"type": "Feature", "id": "sx8s3-6Cgf5WF0iuDO0C6CbsRRw=", "properties": {"ref": "https://www.mcdonalds.co.th/storeLocations/5bd5d458acc28a3cff32a3e2", "@spider": "mcdonalds_th", "addr:full": "No. 69/ 9, Central Road , Muang, Khon Kaen 40000 .", "addr:country": "TH", "name": "FAIRY PLAZA KHONKAEN", "website": "https://www.mcdonalds.co.th/storeLocations/5bd5d458acc28a3cff32a3e2", "brand": "McDonald\u2019s", "brand:wikidata": "Q38076"}, "geometry": {"type": "Point", "coordinates": [102.834585, 16.422908]}},
{"type": "Feature", "id": "-k04Hm4r_TuWgJMrccrwk35HjWk=", "properties": {"ref": "https://www.mcdonalds.co.th/storeLocations/5bd682d3acc28a23a10ac966", "@spider": "mcdonalds_th", "addr:full": "No. 210 Moo 6 Tambon Fa Ham , Muang, Chiang Mai 50000 .", "addr:country": "TH", "name": "MEECHOK CHIANGMAI (DRIVE-THRU)", "website": "https://www.mcdonalds.co.th/storeLocations/5bd682d3acc28a23a10ac966", "brand": "McDonald\u2019s", "brand:wikidata": "Q38076"}, "geometry": {"type": "Point", "coordinates": [99.011612, 18.823731]}},
{"type": "Feature", "id": "ra4h4cP5FgoRXc4TEavV3gIYcBU=", "properties": {"ref": "https://www.mcdonalds.co.th/storeLocations/5bd87736acc28a46600999a2", "@spider": "mcdonalds_th", "addr:full": "No. 8 , Chiang Mai - Lampang , Wat Gate , Muang, Chiang Mai 50000 .", "addr:country": "TH", "name": "STAR AVENUE SUPER HIGHWAY CHIANGMAI (DRIVE-THRU)", "website": "https://www.mcdonalds.co.th/storeLocations/5bd87736acc28a46600999a2", "brand": "McDonald\u2019s", "brand:wikidata": "Q38076"}, "geometry": {"type": "Point", "coordinates": [99.019524, 18.799819]}},
{"type": "Feature", "id": "-e_nIGLBd-4UbEt1o7efOdRS9cc=", "properties": {"ref": "https://www.mcdonalds.co.th/storeLocations/5bd88824acc28a3fcb2964e6", "@spider": "mcdonalds_th", "addr:full": "212/1 Kallaprapruk Rd. Bangwha pasricharoen Bangkok", "addr:country": "TH", "name": "METRO WEST TOWN", "website": "https://www.mcdonalds.co.th/storeLocations/5bd88824acc28a3fcb2964e6", "brand": "McDonald\u2019s", "brand:wikidata": "Q38076"}, "geometry": {"type": "Point", "coordinates": [100.451196, 13.708626]}},
{"type": "Feature", "id": "ko-EYecf00HkKEphzyP2NikvUU4=", "properties": {"ref": "https://www.mcdonalds.co.th/storeLocations/5bd893fcacc28a3b59098adf", "@spider": "mcdonalds_th", "addr:full": "273 Moo 2, Ao Nang, Muang Krabi, Krabi 81000", "addr:country": "TH", "name": "KRABI BEACHFRONT", "website": "https://www.mcdonalds.co.th/storeLocations/5bd893fcacc28a3b59098adf", "brand": "McDonald\u2019s", "brand:wikidata": "Q38076"}, "geometry": {"type": "Point", "coordinates": [98.821642, 8.031785]}},
{"type": "Feature", "id": "hEc1wAkZrC6GqjRXFRpz674XwV0=", "properties": {"ref": "https://www.mcdonalds.co.th/storeLocations/5bd89636acc28a6ed1278262", "@spider": "mcdonalds_th", "addr:full": "2089 Century Building, Room No. 108-109, 1st Floor, Sukhumvit Road, Prakanong Nua, Wattana, Bangkok 10110", "addr:country": "TH", "name": "CENTURY ONNUCH", "website": "https://www.mcdonalds.co.th/storeLocations/5bd89636acc28a6ed1278262", "brand": "McDonald\u2019s", "brand:wikidata": "Q38076"}, "geometry": {"type": "Point", "coordinates": [100.601301, 13.70568]}},
{"type": "Feature", "id": "TtOpZ9qL_p1OeJtfS0pa2spMqrQ=", "properties": {"ref": "https://www.mcdonalds.co.th/storeLocations/5bd8968facc28a700747a9e6", "@spider": "mcdonalds_th", "addr:full": "58/9-10 Moo 7 Ao Nang Krabi 81000", "addr:country": "TH", "name": "PHI PHI ISLAND", "website": "https://www.mcdonalds.co.th/storeLocations/5bd8968facc28a700747a9e6", "brand": "McDonald\u2019s", "brand:wikidata": "Q38076"}, "geometry": {"type": "Point", "coordinates": [98.771028, 7.738662]}},
{"type": "Feature", "id": "INEUOJBOJIPWxYH-PCBdQQSwkZA=", "properties": {"ref": "https://www.mcdonalds.co.th/storeLocations/5bd48dc0acc28a6d51509692", "@spider": "mcdonalds_th", "addr:full": "No. 2601 among the 16 Development Road , Suan Luang, Bangkok 10250.", "addr:country": "TH", "name": "MAX VALU SRINAKARIN (DRIVE-THRU)", "website": "https://www.mcdonalds.co.th/storeLocations/5bd48dc0acc28a6d51509692", "brand": "McDonald\u2019s", "brand:wikidata": "Q38076"}, "geometry": {"type": "Point", "coordinates": [100.641462, 13.735868]}},
{"type": "Feature", "id": "OaB7cVlra6E7fTnaLs3TM_14lJ8=", "properties": {"ref": "https://www.mcdonalds.co.th/storeLocations/5bd50e80acc28a4209293d59", "@spider": "mcdonalds_th", "addr:full": "VI , No. 315 Hospital 6th Cycle Birthday Anniversary Memorial Building , G Floor , Phayathai Road, Ratchathewi , Bangkok 10400 .", "addr:country": "TH", "name": "PRAMONGKUTKLAO HOSPITAL", "website": "https://www.mcdonalds.co.th/storeLocations/5bd50e80acc28a4209293d59", "brand": "McDonald\u2019s", "brand:wikidata": "Q38076"}, "geometry": {"type": "Point", "coordinates": [100.534354, 13.767512]}},
{"type": "Feature", "id": "Y4x1H3HYalqdbGablzANAU5YeYg=", "properties": {"ref": "https://www.mcdonalds.co.th/storeLocations/5bd510aaacc28a76f33fe1c1", "@spider": "mcdonalds_th", "addr:full": "No. 100/ 71 Sathorn Nakorn Tower, 1st Floor, North Sathorn Road, Bangkok 10500 .", "addr:country": "TH", "name": "SATHONNAKORN", "website": "https://www.mcdonalds.co.th/storeLocations/5bd510aaacc28a76f33fe1c1", "brand": "McDonald\u2019s", "brand:wikidata": "Q38076"}, "geometry": {"type": "Point", "coordinates": [100.529984, 13.723267]}},
{"type": "Feature", "id": "jHWsVR9EjgkEOhUF6UW4I0BAX1E=", "properties": {"ref": "https://www.mcdonalds.co.th/storeLocations/5bd516dbacc28a4209293d71", "@spider": "mcdonalds_th", "addr:full": "No. 45/63 motorway Bangkok - Chonburi (new line) , Moo 7 , Tambon Khao Din Bang Pakong, Chachoengsao 24130 .", "addr:country": "TH", "name": "PTT MOTORWAY OUTBOUND", "website": "https://www.mcdonalds.co.th/storeLocations/5bd516dbacc28a4209293d71", "brand": "McDonald\u2019s", "brand:wikidata": "Q38076"}, "geometry": {"type": "Point", "coordinates": [101.009594, 13.539328]}},
{"type": "Feature", "id": "aXo0I2AOnCdltK5IXMsw14ksav0=", "properties": {"ref": "https://www.mcdonalds.co.th/storeLocations/5bd53716acc28a757e665b01", "@spider": "mcdonalds_th", "addr:full": "No. 1710 Lotus Super Center Sukhumvit 50 , Sukhumvit Rd Klongtoey, Bangkok 10250.", "addr:country": "TH", "name": "TESCO SUKHUMVIT 50", "website": "https://www.mcdonalds.co.th/storeLocations/5bd53716acc28a757e665b01", "brand": "McDonald\u2019s", "brand:wikidata": "Q38076"}, "geometry": {"type": "Point", "coordinates": [100.600606, 13.704859]}},
{"type": "Feature", "id": "lFLDIEWA_uJTbcnffl9myxEjJ_M=", "properties": {"ref": "https://www.mcdonalds.co.th/storeLocations/5bd5388bacc28a757e665b05", "@spider": "mcdonalds_th", "addr:full": "No. 2825/20 Esso gas stations , Rama 4, Rama 4 Road, Klong Toey, Bangkok 10110 .", "addr:country": "TH", "name": "ESSO RAMA 4 (DRIVE-THRU)", "website": "https://www.mcdonalds.co.th/storeLocations/5bd5388bacc28a757e665b05", "brand": "McDonald\u2019s", "brand:wikidata": "Q38076"}, "geometry": {"type": "Point", "coordinates": [100.565712, 13.720065]}},
{"type": "Feature", "id": "rnYBYpJkYaKDR0RlGdAdKa2Fwww=", "properties": {"ref": "https://www.mcdonalds.co.th/storeLocations/5bd64b12acc28a61ab194ef2", "@spider": "mcdonalds_th", "addr:full": "No. 3109 Lotus Super Center Bangkapi , Ladprao Road, Bangkapi , Bangkok 10240.", "addr:country": "TH", "name": "TESCO BANGKAPI", "website": "https://www.mcdonalds.co.th/storeLocations/5bd64b12acc28a61ab194ef2", "brand": "McDonald\u2019s", "brand:wikidata": "Q38076"}, "geometry": {"type": "Point", "coordinates": [100.644368, 13.767012]}},
{"type": "Feature", "id": "uR0r4hn9XWw5IlJMkMnfS1-9jIc=", "properties": {"ref": "https://www.mcdonalds.co.th/storeLocations/5bd64e98acc28a61c7205122", "@spider": "mcdonalds_th", "addr:full": "No. 39, 39/1 Patak Road , Patong , Kathu, Phuket 83120 .", "addr:country": "TH", "name": "LA FLORA, PATONG PHUKET", "website": "https://www.mcdonalds.co.th/storeLocations/5bd64e98acc28a61c7205122", "brand": "McDonald\u2019s", "brand:wikidata": "Q38076"}, "geometry": {"type": "Point", "coordinates": [98.295858, 7.896465]}},
{"type": "Feature", "id": "gS-LQuSlZysZhBBj4uaFmF7CNwQ=", "properties": {"ref": "https://www.mcdonalds.co.th/storeLocations/5bd64f1eacc28a72ed3f3922", "@spider": "mcdonalds_th", "addr:full": "No. 323/1-3 Room No. A11-1 , 1st Floor , Sukhumvit 55 ( Thonglor), Sukhumvit Soi 15 , Wattana, Bangkok 10110 .", "addr:country": "TH", "name": "J-AVENUE THONGLOR", "website": "https://www.mcdonalds.co.th/storeLocations/5bd64f1eacc28a72ed3f3922", "brand": "McDonald\u2019s", "brand:wikidata": "Q38076"}, "geometry": {"type": "Point", "coordinates": [100.581596, 13.735266]}},
{"type": "Feature", "id": "6ujYvA4JkpbP8aZDAuiU8dZ97Z4=", "properties": {"ref": "https://www.mcdonalds.co.th/storeLocations/5bd65074acc28a7a2e1bbf8e", "@spider": "mcdonalds_th", "addr:full": "No. 78/23 , Chaengwattana Road , Huay Kwang , Bangkok 10220 .", "addr:country": "TH", "name": "MAX VALU LAKSI (DRIVE-THRU)", "website": "https://www.mcdonalds.co.th/storeLocations/5bd65074acc28a7a2e1bbf8e", "brand": "McDonald\u2019s", "brand:wikidata": "Q38076"}, "geometry": {"type": "Point", "coordinates": [100.590094, 13.879977]}},
{"type": "Feature", "id": "INy7GvZ54YrTlU3thX4-yAMZFig=", "properties": {"ref": "https://www.mcdonalds.co.th/storeLocations/5bd6572facc28a61ab194efa", "@spider": "mcdonalds_th", "addr:full": "Room No. G 26-29, G 71-74, OP-G22 , G 99 Srichan Road , Muang, Khon Kaen 40000 .", "addr:country": "TH", "name": "CENTRAL KHONKAEN", "website": "https://www.mcdonalds.co.th/storeLocations/5bd6572facc28a61ab194efa", "brand": "McDonald\u2019s", "brand:wikidata": "Q38076"}, "geometry": {"type": "Point", "coordinates": [102.82532, 16.432606]}},
{"type": "Feature", "id": "dyzzwyJ2vNWy-JRApWP8wBkwjqQ=", "properties": {"ref": "https://www.mcdonalds.co.th/storeLocations/5bd65882acc28a3cfa502aca", "@spider": "mcdonalds_th", "addr:full": "No. 100/ 1 Moo 10, Tambon Bang Krang Info. Province 11000", "addr:country": "TH", "name": "RAJCHAPRUEK RATTANATHIBET (DRIVE-THRU)", "website": "https://www.mcdonalds.co.th/storeLocations/5bd65882acc28a3cfa502aca", "brand": "McDonald\u2019s", "brand:wikidata": "Q38076"}, "geometry": {"type": "Point", "coordinates": [100.448924, 13.853849]}},
{"type": "Feature", "id": "81BbIor7fmIu-cQnbcMyaAEM5Co=", "properties": {"ref": "https://www.mcdonalds.co.th/storeLocations/5bd6825eacc28a033b1d2dbb", "@spider": "mcdonalds_th", "addr:full": "No. 299/42 Moo 18 , Tambon Pak Chong , Nakhon Ratchasima 30130 .", "addr:country": "TH", "name": "THE MARKET VILLAGE KAOYAI (DRIVE-THRU)", "website": "https://www.mcdonalds.co.th/storeLocations/5bd6825eacc28a033b1d2dbb", "brand": "McDonald\u2019s", "brand:wikidata": "Q38076"}, "geometry": {"type": "Point", "coordinates": [101.391439, 14.660765]}},
{"type": "Feature", "id": "de3fwOjI3cJTTe5wlKZ62qZWdhA=", "properties": {"ref": "https://www.mcdonalds.co.th/storeLocations/5bd83696acc28a2cfb569a86", "@spider": "mcdonalds_th", "addr:full": "Building Central Plaza Grand Rama 9 , Room 726 7th at 9/ 9 Rama 9 Road, Huay Kwang, Bangkok 10310 .", "addr:country": "TH", "name": "CENTRAL RAMA 9", "website": "https://www.mcdonalds.co.th/storeLocations/5bd83696acc28a2cfb569a86", "brand": "McDonald\u2019s", "brand:wikidata": "Q38076"}, "geometry": {"type": "Point", "coordinates": [100.566315, 13.758382]}},
{"type": "Feature", "id": "GyX5oDthYYR43Hq9ur4ENUa8O0I=", "properties": {"ref": "https://www.mcdonalds.co.th/storeLocations/5bd873baacc28a43f95c3af2", "@spider": "mcdonalds_th", "addr:full": "No. 39 rooms 1204.2204 1 and 2 Moo 6 Bangna - Trad , Bang Kaew Bang Phli , Samut Prakan 10540.", "addr:country": "TH", "name": "MEGA BANGNA 1", "website": "https://www.mcdonalds.co.th/storeLocations/5bd873baacc28a43f95c3af2", "brand": "McDonald\u2019s", "brand:wikidata": "Q38076"}, "geometry": {"type": "Point", "coordinates": [100.679955, 13.644194]}},
{"type": "Feature", "id": "v7YU5uZJ3Cd1mCRBMzqba8zAhWQ=", "properties": {"ref": "https://www.mcdonalds.co.th/storeLocations/5bd87fe7acc28a43f95c3b09", "@spider": "mcdonalds_th", "addr:full": "311 Central Plaza Ubon Ratchathani, Room No. 121 1st floor, Moo 7, Chaeramae, Amphoe Mueng, Ubon Ratchathani Ubon Ratchathani Province 34000", "addr:country": "TH", "name": "CENTRAL UBONRAJTHANI", "website": "https://www.mcdonalds.co.th/storeLocations/5bd87fe7acc28a43f95c3b09", "brand": "McDonald\u2019s", "brand:wikidata": "Q38076"}, "geometry": {"type": "Point", "coordinates": [104.822901, 15.239237]}},
{"type": "Feature", "id": "kqOT8kLR86a-OnkBk8btBU-TBB8=", "properties": {"ref": "https://www.mcdonalds.co.th/storeLocations/5bd881c4acc28a45f317c19a", "@spider": "mcdonalds_th", "addr:full": "No. 3888/10 , Moo 3 Rangsit - Pathum Thani , Muang, Klong Luang , Pathumthani 12000 .", "addr:country": "TH", "name": "PTT BANGPOON OUTBOUND (DRIVE-THRU)", "website": "https://www.mcdonalds.co.th/storeLocations/5bd881c4acc28a45f317c19a", "brand": "McDonald\u2019s", "brand:wikidata": "Q38076"}, "geometry": {"type": "Point", "coordinates": [100.587671, 13.986181]}},
{"type": "Feature", "id": "yRnkZsBjYcCxbWy8IYHL4qElVrA=", "properties": {"ref": "https://www.mcdonalds.co.th/storeLocations/5bd88415acc28a3b5c1a776c", "@spider": "mcdonalds_th", "addr:full": "No. 111/14 Moo 10 Tambon Par-dad, Muang Chiangmai, Chaingmai province", "addr:country": "TH", "name": "HANGDONG CHIANGMAI (DRIVE-THRU)", "website": "https://www.mcdonalds.co.th/storeLocations/5bd88415acc28a3b5c1a776c", "brand": "McDonald\u2019s", "brand:wikidata": "Q38076"}, "geometry": {"type": "Point", "coordinates": [98.97223, 18.757987]}},
{"type": "Feature", "id": "TD-5K4cEmL_zV7BhzHIRp7-xR0g=", "properties": {"ref": "https://www.mcdonalds.co.th/storeLocations/5bd88a97acc28a5c4f612ed5", "@spider": "mcdonalds_th", "addr:full": "1142 Kanchanawanitch Rd. Tambon Hatyai Amphoe Hadyai Songkhla Province", "addr:country": "TH", "name": "TESCO HADYAI (DRIVE-THRU)", "website": "https://www.mcdonalds.co.th/storeLocations/5bd88a97acc28a5c4f612ed5", "brand": "McDonald\u2019s", "brand:wikidata": "Q38076"}, "geometry": {"type": "Point", "coordinates": [100.491431, 7.00661]}},
{"type": "Feature", "id": "_JV8YTkhI1PVn2967nMUy6R-oLE=", "properties": {"ref": "https://www.mcdonalds.co.th/storeLocations/5bd88cc4acc28a3a3f28531a", "@spider": "mcdonalds_th", "addr:full": "183/2-4 Moo10 Tambon Nhongprue AmphoeBanglamung Chonburi Province 20150", "addr:country": "TH", "name": "PATTAYA POST OFFICE", "website": "https://www.mcdonalds.co.th/storeLocations/5bd88cc4acc28a3a3f28531a", "brand": "McDonald\u2019s", "brand:wikidata": "Q38076"}, "geometry": {"type": "Point", "coordinates": [100.878386, 12.930429]}},
{"type": "Feature", "id": "ReSIule9ZHhDVZpcKSNl-3MkxHY=", "properties": {"ref": "https://www.mcdonalds.co.th/storeLocations/5bd892c9acc28a65707770f5", "@spider": "mcdonalds_th", "addr:full": "89 Moo 5, Vichit, Muang Phuket, Phuket 83000", "addr:country": "TH", "name": "BUKIS PHUKET (DRIVE-THRU)", "website": "https://www.mcdonalds.co.th/storeLocations/5bd892c9acc28a65707770f5", "brand": "McDonald\u2019s", "brand:wikidata": "Q38076"}, "geometry": {"type": "Point", "coordinates": [98.368351, 7.895009]}},
{"type": "Feature", "id": "KIhovGsdzZgvzJ_RhU9UYg1zJwI=", "properties": {"ref": "https://www.mcdonalds.co.th/storeLocations/5bd89437acc28a64fe1e371a", "@spider": "mcdonalds_th", "addr:full": "88/2 Moo 9 Laharn, Bangbuathong, Nonthaburi 11110", "addr:country": "TH", "name": "1st AVENUE - ZHULIAN (DRIVE-THRU)", "website": "https://www.mcdonalds.co.th/storeLocations/5bd89437acc28a64fe1e371a", "brand": "McDonald\u2019s", "brand:wikidata": "Q38076"}, "geometry": {"type": "Point", "coordinates": [100.405128, 13.955722]}},
{"type": "Feature", "id": "wIQAZJrqI75HmVbGHZk19puKDHM=", "properties": {"ref": "https://www.mcdonalds.co.th/storeLocations/5bd50f0aacc28a7b2f038d80", "@spider": "mcdonalds_th", "addr:full": "No. 106 , Major Cineplex Cinema , G Floor , Room G01 Boromrachachonnanee Bangbhumru 10700 .", "addr:country": "TH", "name": "MAJOR CINEPLEX PINKLAO", "website": "https://www.mcdonalds.co.th/storeLocations/5bd50f0aacc28a7b2f038d80", "brand": "McDonald\u2019s", "brand:wikidata": "Q38076"}, "geometry": {"type": "Point", "coordinates": [100.477892, 13.778646]}},
{"type": "Feature", "id": "8oScUO1rJygZGk4cB2GIIJuM8P8=", "properties": {"ref": "https://www.mcdonalds.co.th/storeLocations/5bd64d82acc28a033b1d2da2", "@spider": "mcdonalds_th", "addr:full": "234/2 , Room B- 101 , 1st Floor , Ratchadapisek Road , Chatuchak, Bangkok .", "addr:country": "TH", "name": "THE AVENUE RATCHAYOTHIN (DRIVE-THRU)", "website": "https://www.mcdonalds.co.th/storeLocations/5bd64d82acc28a033b1d2da2", "brand": "McDonald\u2019s", "brand:wikidata": "Q38076"}, "geometry": {"type": "Point", "coordinates": [100.566447, 13.828211]}},
{"type": "Feature", "id": "UfaJhIVmYqlln3U1cnVXhHY8NyM=", "properties": {"ref": "https://www.mcdonalds.co.th/storeLocations/5bd87467acc28a3b5a29d71d", "@spider": "mcdonalds_th", "addr:full": "No. 39 , 2nd Floor, Room 2348 , Moo 6 Bangna - Trad , Bang Kaew Bang Phli , Samut Prakan 10540.", "addr:country": "TH", "name": "MEGA BANGNA 2", "website": "https://www.mcdonalds.co.th/storeLocations/5bd87467acc28a3b5a29d71d", "brand": "McDonald\u2019s", "brand:wikidata": "Q38076"}, "geometry": {"type": "Point", "coordinates": [100.680234, 13.644402]}},
{"type": "Feature", "id": "N6acN7hmFC-A2OmdpMF8MWOXp6M=", "properties": {"ref": "https://www.mcdonalds.co.th/storeLocations/5bd88a28acc28a3b59098acb", "@spider": "mcdonalds_th", "addr:full": "12/2 Moo3 Tambon Bangsaothong Amphoe Wangnoi Ayuttghaya 13170", "addr:country": "TH", "name": "PTT WANGNOI AYUDHAYA INBOUND (DRIVE-THRU)", "website": "https://www.mcdonalds.co.th/storeLocations/5bd88a28acc28a3b59098acb", "brand": "McDonald\u2019s", "brand:wikidata": "Q38076"}, "geometry": {"type": "Point", "coordinates": [100.643426, 14.193844]}},
{"type": "Feature", "id": "sDRbyowDC3ZvJ-STSq80WRfWHnw=", "properties": {"ref": "https://www.mcdonalds.co.th/storeLocations/5bd88a67acc28a46616ab779", "@spider": "mcdonalds_th", "addr:full": "8/11 Kanchanapisek Rd. Khwaeng Salathamsop Khet Thaweewattana Bkk 10170", "addr:country": "TH", "name": "PASEO PARK (DRIVE-THRU)", "website": "https://www.mcdonalds.co.th/storeLocations/5bd88a67acc28a46616ab779", "brand": "McDonald\u2019s", "brand:wikidata": "Q38076"}, "geometry": {"type": "Point", "coordinates": [100.407714, 13.77407]}},
{"type": "Feature", "id": "CVGzG-A5U_NlU7wKqFdh7uzJdFw=", "properties": {"ref": "https://www.mcdonalds.co.th/storeLocations/5bd88f4cacc28a5c4f612ee9", "@spider": "mcdonalds_th", "addr:full": "444/8 Moo 15, Isan, Muang Buriram, Buriram 31000", "addr:country": "TH", "name": "BURIRAM'S CASTLE (DRIVE-THRU)", "website": "https://www.mcdonalds.co.th/storeLocations/5bd88f4cacc28a5c4f612ee9", "brand": "McDonald\u2019s", "brand:wikidata": "Q38076"}, "geometry": {"type": "Point", "coordinates": [103.090534, 14.966141]}},
{"type": "Feature", "id": "tbKNV5M5XF_KgVzBmSeIH-F1c7U=", "properties": {"ref": "https://www.mcdonalds.co.th/storeLocations/5bd89504acc28a6fe077d362", "@spider": "mcdonalds_th", "addr:full": "162/2 Moo 1 Samo Phlue, Banlad, Petchburi 76150", "addr:country": "TH", "name": "ROBINSON PETCHBURI (DRIVE-THRU)", "website": "https://www.mcdonalds.co.th/storeLocations/5bd89504acc28a6fe077d362", "brand": "McDonald\u2019s", "brand:wikidata": "Q38076"}, "geometry": {"type": "Point", "coordinates": [99.946656, 13.063876]}},
{"type": "Feature", "id": "KHoJYOzSXqcxEkeBJNIreXa7FF0=", "properties": {"ref": "https://www.mcdonalds.co.th/storeLocations/5bd897a3acc28a3b59098aef", "@spider": "mcdonalds_th", "addr:full": "222 International Passenger Terminal Building 1, Don Mueang International Airport, Area number 460, 4L Floor, Vibhavadi Rangsit Road, Snambin, Don Muang, Bangkok 10210", "addr:country": "TH", "name": "DONMAUNG AIRPORT - INTER LANDSIDE", "website": "https://www.mcdonalds.co.th/storeLocations/5bd897a3acc28a3b59098aef", "brand": "McDonald\u2019s", "brand:wikidata": "Q38076"}, "geometry": {"type": "Point", "coordinates": [100.605272, 13.913364]}},
{"type": "Feature", "id": "joVuJQJn8kEfmxA-t1Zk9ohF9XA=", "properties": {"ref": "https://www.mcdonalds.co.th/storeLocations/5bd48ccfacc28a6d8b042506", "@spider": "mcdonalds_th", "addr:full": "No. 259 Sukhumvit Road, Klong Toey, Bangkok 10110 .", "addr:country": "TH", "name": "ROBINSON SUKUMVIT", "website": "https://www.mcdonalds.co.th/storeLocations/5bd48ccfacc28a6d8b042506", "brand": "McDonald\u2019s", "brand:wikidata": "Q38076"}, "geometry": {"type": "Point", "coordinates": [100.559441, 13.738111]}},
{"type": "Feature", "id": "Uo48RDXzEuYgexXBKSEQ8MPruTE=", "properties": {"ref": "https://www.mcdonalds.co.th/storeLocations/5bd50b1eacc28a6d4e0e526c", "@spider": "mcdonalds_th", "addr:full": "No. 181/5 buildings, fuel stations , PTT Field Regiment 1 Vibhavadi Rangsit Road , Phayathai , Bangkok 10400 .", "addr:country": "TH", "name": "PTT VIPHAVADI RANGSIT RAB 1", "website": "https://www.mcdonalds.co.th/storeLocations/5bd50b1eacc28a6d4e0e526c", "brand": "McDonald\u2019s", "brand:wikidata": "Q38076"}, "geometry": {"type": "Point", "coordinates": [100.556078, 13.779498]}},
{"type": "Feature", "id": "-hDmTsGGAX60DUBL4eJdm0Pc1Ek=", "properties": {"ref": "https://www.mcdonalds.co.th/storeLocations/5bd51244acc28a7b2f038d88", "@spider": "mcdonalds_th", "addr:full": "No. 1221 /39 Majorcineplex duplex (Sukhumvit 61 ) , Sukhumvit Road, Klongtoey Nua , Bangkok 10110 watts .", "addr:country": "TH", "name": "MAJOR CINEPLEX SUKHUMVIT 61 (EKAMAI)", "website": "https://www.mcdonalds.co.th/storeLocations/5bd51244acc28a7b2f038d88", "brand": "McDonald\u2019s", "brand:wikidata": "Q38076"}, "geometry": {"type": "Point", "coordinates": [100.583605, 13.721404]}},
{"type": "Feature", "id": "DeQ_3uBcS-xKyyBQqvKyTqJ5rUc=", "properties": {"ref": "https://www.mcdonalds.co.th/storeLocations/5bd5178cacc28a4209293d75", "@spider": "mcdonalds_th", "addr:full": "3300 Lotus Super Center Building, Rama 4, Rama 4 Road, Klong Toey, Bangkok 10110 .", "addr:country": "TH", "name": "TESCO RAMA 4", "website": "https://www.mcdonalds.co.th/storeLocations/5bd5178cacc28a4209293d75", "brand": "McDonald\u2019s", "brand:wikidata": "Q38076"}, "geometry": {"type": "Point", "coordinates": [100.568789, 13.718114]}},
{"type": "Feature", "id": "AZM9pWG2bVY-LP39c5wVMbS8a9g=", "properties": {"ref": "https://www.mcdonalds.co.th/storeLocations/5bd538c3acc28a4209293d79", "@spider": "mcdonalds_th", "addr:full": "No. 202 /1 Moo 2 (Long Beach Shopping Center ) , Bophut, Koh Samui , Surat Thani 84320 .", "addr:country": "TH", "name": "CHAWENG BEACH, KOH SAMUI", "website": "https://www.mcdonalds.co.th/storeLocations/5bd538c3acc28a4209293d79", "brand": "McDonald\u2019s", "brand:wikidata": "Q38076"}, "geometry": {"type": "Point", "coordinates": [100.055832, 9.513005]}},
{"type": "Feature", "id": "Mrld_xF6uXX76fiEcI1P-Fc0-pc=", "properties": {"ref": "https://www.mcdonalds.co.th/storeLocations/5bd64c89acc28a72ed3f391e", "@spider": "mcdonalds_th", "addr:full": "99 SM Mall Esplanade Ratchada G Fl 08 , M 08 , Ratchadapisek Road , Din Daeng, Bangkok.", "addr:country": "TH", "name": "ESPLANADE RATCHADA", "website": "https://www.mcdonalds.co.th/storeLocations/5bd64c89acc28a72ed3f391e", "brand": "McDonald\u2019s", "brand:wikidata": "Q38076"}, "geometry": {"type": "Point", "coordinates": [100.569767, 13.766592]}},
{"type": "Feature", "id": "TsUoklVjPP5NTSibXp6uwsm7ryo=", "properties": {"ref": "https://www.mcdonalds.co.th/storeLocations/5bd650faacc28a3cfb04e672", "@spider": "mcdonalds_th", "addr:full": "Terminal 1 at 222 Don Mueang Airport , 3rd (Coast Domestic) Vibhavadi Rangsit Road , Don Muang Airport , Bangkok 10210 .", "addr:country": "TH", "name": "DONMUEANG AIRPORT - DOMESTIC AIRSIDE", "website": "https://www.mcdonalds.co.th/storeLocations/5bd650faacc28a3cfb04e672", "brand": "McDonald\u2019s", "brand:wikidata": "Q38076"}, "geometry": {"type": "Point", "coordinates": [100.602407, 13.919209]}},
{"type": "Feature", "id": "WQJ4LrHQb9UvN7xlju1noStcf30=", "properties": {"ref": "https://www.mcdonalds.co.th/storeLocations/5bd652c2acc28a72ed3f392e", "@spider": "mcdonalds_th", "addr:full": "5/ 22 Moo 2, Tambon Muang Pathumthani Bungyeetho .", "addr:country": "TH", "name": "M-PARK RANGSIT KLONG 3 (DRIVE-THRU)", "website": "https://www.mcdonalds.co.th/storeLocations/5bd652c2acc28a72ed3f392e", "brand": "McDonald\u2019s", "brand:wikidata": "Q38076"}, "geometry": {"type": "Point", "coordinates": [100.665177, 13.99583]}},
{"type": "Feature", "id": "jHUtd_JKuNlerDHwXwgCA_frXSE=", "properties": {"ref": "https://www.mcdonalds.co.th/storeLocations/5bd681e5acc28a1fd802fcb2", "@spider": "mcdonalds_th", "addr:full": "No. 1024 Supreme Rd Shopping Center , Room L 1-15 and L 1-16 Samsen Road, Dusit, Bangkok 10300 .", "addr:country": "TH", "name": "SUPREME SAMSEN", "website": "https://www.mcdonalds.co.th/storeLocations/5bd681e5acc28a1fd802fcb2", "brand": "McDonald\u2019s", "brand:wikidata": "Q38076"}, "geometry": {"type": "Point", "coordinates": [100.515171, 13.789978]}},
{"type": "Feature", "id": "_dNB1IpbCzSR07PcjY7EaXB0p6o=", "properties": {"ref": "https://www.mcdonalds.co.th/storeLocations/5bd8749cacc28a5c4f612ec2", "@spider": "mcdonalds_th", "addr:full": "No. 888 rooms A101 and A201 , Sukhumvit Road, Bangna , Bangkok 10260 .", "addr:country": "TH", "name": "THE COAST BANGNA", "website": "https://www.mcdonalds.co.th/storeLocations/5bd8749cacc28a5c4f612ec2", "brand": "McDonald\u2019s", "brand:wikidata": "Q38076"}, "geometry": {"type": "Point", "coordinates": [100.605666, 13.672497]}},
{"type": "Feature", "id": "Dbbk8op61biIW2hgGcrY34P7WYM=", "properties": {"ref": "https://www.mcdonalds.co.th/storeLocations/5bd8859dacc28a5c4f612ed1", "@spider": "mcdonalds_th", "addr:full": "99/19,99/20 Moo2 Tambon Bangtoei Amphoe Sampran Nakornpathom Province 73210", "addr:country": "TH", "name": "CENTRAL SALAYA", "website": "https://www.mcdonalds.co.th/storeLocations/5bd8859dacc28a5c4f612ed1", "brand": "McDonald\u2019s", "brand:wikidata": "Q38076"}, "geometry": {"type": "Point", "coordinates": [100.27651, 13.786923]}},
{"type": "Feature", "id": "xH3fPxsOWfbPOvGIs2CfFA7SVoY=", "properties": {"ref": "https://www.mcdonalds.co.th/storeLocations/5bd88d50acc28a46600999c8", "@spider": "mcdonalds_th", "addr:full": "539 Moo6 Tambon Makhamkhoo amphoe Nikompattana Rayong 21108", "addr:country": "TH", "name": "ESSO RAYONG (DRIVE-THRU)", "website": "https://www.mcdonalds.co.th/storeLocations/5bd88d50acc28a46600999c8", "brand": "McDonald\u2019s", "brand:wikidata": "Q38076"}, "geometry": {"type": "Point", "coordinates": [101.128332, 12.831765]}},
{"type": "Feature", "id": "GoXA_TvsRBvK6wXx2nOsIyTlVEI=", "properties": {"ref": "https://www.mcdonalds.co.th/storeLocations/5bd89604acc28a64fe1e3722", "@spider": "mcdonalds_th", "addr:full": "80/8 Porto Go Building, Moo 4, Klongjikh, Bangpa-in Phra Nakhon Si Ayutthaya Province 13160", "addr:country": "TH", "name": "PORTO GO BANGPA-IN (DRIVE-THRU)", "website": "https://www.mcdonalds.co.th/storeLocations/5bd89604acc28a64fe1e3722", "brand": "McDonald\u2019s", "brand:wikidata": "Q38076"}, "geometry": {"type": "Point", "coordinates": [100.608013, 14.201292]}},
{"type": "Feature", "id": "WwcB2xqrpcgAYEQ7hps0GVUp77c=", "properties": {"ref": "https://www.mcdonalds.co.th/storeLocations/5bd5069aacc28a76f33fe1b5", "@spider": "mcdonalds_th", "addr:full": "No. 1522 Charoen Krung Road , Bangrak , Bangkok 10500 .", "addr:country": "TH", "name": "ROBINSON BANGRAK", "website": "https://www.mcdonalds.co.th/storeLocations/5bd5069aacc28a76f33fe1b5", "brand": "McDonald\u2019s", "brand:wikidata": "Q38076"}, "geometry": {"type": "Point", "coordinates": [100.515365, 13.719357]}},
{"type": "Feature", "id": "LU4Y5FNkR78pjcjsyfGx-vgvScg=", "properties": {"ref": "https://www.mcdonalds.co.th/storeLocations/5bd513a6acc28a76f33fe1c9", "@spider": "mcdonalds_th", "addr:full": "No. 1697, Central Plaza Ladprao , Unit No. G 40-46 , G Floor , Phaholyothin Road, Chatuchak , Bangkok 10900 .", "addr:country": "TH", "name": "CENTRAL LADPRAO", "website": "https://www.mcdonalds.co.th/storeLocations/5bd513a6acc28a76f33fe1c9", "brand": "McDonald\u2019s", "brand:wikidata": "Q38076"}, "geometry": {"type": "Point", "coordinates": [100.560543, 13.815706]}},
{"type": "Feature", "id": "cUmFOASKHbxSfDes_8qkit6uLFQ=", "properties": {"ref": "https://www.mcdonalds.co.th/storeLocations/5bd64b46acc28a72ed3f391a", "@spider": "mcdonalds_th", "addr:full": "9/ 9 Moo 5 Big C shopping mall . Supercenter Taladkwan MuangNonthaburi . Nonthaburi 11000 .", "addr:country": "TH", "name": "BIG C TIWANON", "website": "https://www.mcdonalds.co.th/storeLocations/5bd64b46acc28a72ed3f391a", "brand": "McDonald\u2019s", "brand:wikidata": "Q38076"}, "geometry": {"type": "Point", "coordinates": [100.510876, 13.845039]}},
{"type": "Feature", "id": "y-o9ow6l3AXlA6iZlJLMUkhqkh0=", "properties": {"ref": "https://www.mcdonalds.co.th/storeLocations/5bd64b8eacc28a72eb565f32", "@spider": "mcdonalds_th", "addr:full": "No. 160 , Central Plaza Rama 2, Rama 2 Rd , Bangkok 10150.", "addr:country": "TH", "name": "CENTRAL RAMA 2", "website": "https://www.mcdonalds.co.th/storeLocations/5bd64b8eacc28a72eb565f32", "brand": "McDonald\u2019s", "brand:wikidata": "Q38076"}, "geometry": {"type": "Point", "coordinates": [100.437559, 13.66272]}},
{"type": "Feature", "id": "6Dkz4P72Jm4jmsc_NGLsfxsFBAo=", "properties": {"ref": "https://www.mcdonalds.co.th/storeLocations/5bd64c17acc28a7a2e1bbf86", "@spider": "mcdonalds_th", "addr:full": "991 Siam Paragon Building , Room G- 01 , Ground Floor , Rama 1 Road, Pathumwan, Bangkok.", "addr:country": "TH", "name": "SIAM PARAGON 1", "website": "https://www.mcdonalds.co.th/storeLocations/5bd64c17acc28a7a2e1bbf86", "brand": "McDonald\u2019s", "brand:wikidata": "Q38076"}, "geometry": {"type": "Point", "coordinates": [100.535275, 13.745844]}},
{"type": "Feature", "id": "lKEEVPQHFV5Rzz9U8fGAw8ovHfU=", "properties": {"ref": "https://www.mcdonalds.co.th/storeLocations/5bd65768acc28a033b1d2db2", "@spider": "mcdonalds_th", "addr:full": "17/ 1 Kotchasarn Chang Klan , Muang, Chiang Mai 50100 .", "addr:country": "TH", "name": "IMM THAPAE CHIANGMAI", "website": "https://www.mcdonalds.co.th/storeLocations/5bd65768acc28a033b1d2db2", "brand": "McDonald\u2019s", "brand:wikidata": "Q38076"}, "geometry": {"type": "Point", "coordinates": [98.993037, 18.787956]}},
{"type": "Feature", "id": "5RGqBKO1_cw_u8b9rvupewJ8sD4=", "properties": {"ref": "https://www.mcdonalds.co.th/storeLocations/5bd6580cacc28a72eb565f42", "@spider": "mcdonalds_th", "addr:full": "No. 68 /1, Kanchana BangKhae Rd , Bangkok 10160 .", "addr:country": "TH", "name": "KANCHANAPISEK - KALLAPAPRUEK (DRIVE-THRU)", "website": "https://www.mcdonalds.co.th/storeLocations/5bd6580cacc28a72eb565f42", "brand": "McDonald\u2019s", "brand:wikidata": "Q38076"}, "geometry": {"type": "Point", "coordinates": [100.408065, 13.695467]}},
{"type": "Feature", "id": "xZHvEd39ziEyT_hToG7dIKoCs4A=", "properties": {"ref": "https://www.mcdonalds.co.th/storeLocations/5bd65e0bacc28a61ab194efe", "@spider": "mcdonalds_th", "addr:full": "No. 474 Tesco Lotus supermarket branches Thalang Road, Cherng Talay, Thalang, Phuket 83110 .", "addr:country": "TH", "name": "TESCO CHOENGTALAY PHUKET", "website": "https://www.mcdonalds.co.th/storeLocations/5bd65e0bacc28a61ab194efe", "brand": "McDonald\u2019s", "brand:wikidata": "Q38076"}, "geometry": {"type": "Point", "coordinates": [98.301737, 7.986159]}},
{"type": "Feature", "id": "CpuMXpB7llDTXosMagZ4dzyYtzs=", "properties": {"ref": "https://www.mcdonalds.co.th/storeLocations/5bd65e4dacc28a3cfa502ace", "@spider": "mcdonalds_th", "addr:full": "No. 333/99 buildings . Central Festival Pattaya Beach , Unit No. FP015, FP016, FP017, 0103R, 0103R-T , G Moo 9, Tambon Nong Prue, Banglamung . Province 20260", "addr:country": "TH", "name": "CENTRAL FESTIVAL PATTAYA 1", "website": "https://www.mcdonalds.co.th/storeLocations/5bd65e4dacc28a3cfa502ace", "brand": "McDonald\u2019s", "brand:wikidata": "Q38076"}, "geometry": {"type": "Point", "coordinates": [100.884142, 12.938879]}},
{"type": "Feature", "id": "RNbEcTBO7uE7OZsA9UrXzVoV5Ls=", "properties": {"ref": "https://www.mcdonalds.co.th/storeLocations/5bd88188acc28a5c4f612ecd", "@spider": "mcdonalds_th", "addr:full": "No. 12/ 5, Sangchuto Ban Tai Muang, Kanchanaburi 71000 .", "addr:country": "TH", "name": "M-PARK KANCHANABURI (DRIVE-THRU)", "website": "https://www.mcdonalds.co.th/storeLocations/5bd88188acc28a5c4f612ecd", "brand": "McDonald\u2019s", "brand:wikidata": "Q38076"}, "geometry": {"type": "Point", "coordinates": [99.547468, 14.004142]}},
{"type": "Feature", "id": "DA482OVHaChOTt_X8elR4-CIiOU=", "properties": {"ref": "https://www.mcdonalds.co.th/storeLocations/5bd88653acc28a3b5c1a7774", "@spider": "mcdonalds_th", "addr:full": "33 Moo1 Tambon Klongkhiong Amphoe Pakkled Nonthaburi Province", "addr:country": "TH", "name": "PTT 345 INBOUND (DRIVE-THRU)", "website": "https://www.mcdonalds.co.th/storeLocations/5bd88653acc28a3b5c1a7774", "brand": "McDonald\u2019s", "brand:wikidata": "Q38076"}, "geometry": {"type": "Point", "coordinates": [100.473806, 13.953489]}},
{"type": "Feature", "id": "aIkPtq1TEmlvq0vK0CQT3TCDoKk=", "properties": {"ref": "https://www.mcdonalds.co.th/storeLocations/5bd886edacc28a3b5c1a7778", "@spider": "mcdonalds_th", "addr:full": "789 Moo2 1st Fl. Tambon Taibanmai Amphoe Mueang Samutprakarn Province", "addr:country": "TH", "name": "ROBINSON SAMUTPRAKARN", "website": "https://www.mcdonalds.co.th/storeLocations/5bd886edacc28a3b5c1a7778", "brand": "McDonald\u2019s", "brand:wikidata": "Q38076"}, "geometry": {"type": "Point", "coordinates": [100.594742, 13.642976]}},
{"type": "Feature", "id": "IRpwZMZNVBnuLxF-y--iOkNwnsE=", "properties": {"ref": "https://www.mcdonalds.co.th/storeLocations/5bd889b9acc28a46600999c4", "@spider": "mcdonalds_th", "addr:full": "59 praditmanutham Khwaeng Ladprao Khet Ladprao Bangkok 10230", "addr:country": "TH", "name": "TESCO RAMINDRA (DRIVE-THRU)", "website": "https://www.mcdonalds.co.th/storeLocations/5bd889b9acc28a46600999c4", "brand": "McDonald\u2019s", "brand:wikidata": "Q38076"}, "geometry": {"type": "Point", "coordinates": [100.614464, 13.801221]}},
{"type": "Feature", "id": "H5pEV3V7o-iXLtXsv3ujfVHoaJg=", "properties": {"ref": "https://www.mcdonalds.co.th/storeLocations/5bd89038acc28a3fcb2964f6", "@spider": "mcdonalds_th", "addr:full": "2 Moo 1, Tasala, Muang Lopburi, Lopburi 15000", "addr:country": "TH", "name": "BIG C LOPBURI", "website": "https://www.mcdonalds.co.th/storeLocations/5bd89038acc28a3fcb2964f6", "brand": "McDonald\u2019s", "brand:wikidata": "Q38076"}, "geometry": {"type": "Point", "coordinates": [100.671937, 14.793505]}},
{"type": "Feature", "id": "wcp11NUtUqKRcddFlWB1wBUH_q8=", "properties": {"ref": "https://www.mcdonalds.co.th/storeLocations/5bd89591acc28a700747a9e2", "@spider": "mcdonalds_th", "addr:full": "258/5 Moo 10 Bansuan, Muang Chonburi, Chonburi 20000", "addr:country": "TH", "name": "BANGCHAK CHONBURI BYPASS (DRIVE-THRU)", "website": "https://www.mcdonalds.co.th/storeLocations/5bd89591acc28a700747a9e2", "brand": "McDonald\u2019s", "brand:wikidata": "Q38076"}, "geometry": {"type": "Point", "coordinates": [101.015402, 13.362002]}},
{"type": "Feature", "id": "0OFSyceSyetcGDlmCevM196SN0c=", "properties": {"ref": "https://www.mcdonalds.co.th/storeLocations/5bd89730acc28a3b59098aeb", "@spider": "mcdonalds_th", "addr:full": "754 Big C Shopping Center Building Super Center, Nakhon Pathom Branch, Room No. GCR106-107, 1st Floor, Petchakasem Rd. Amphoe Mueang Nakhon Pathom Nakorn Pathom 73000", "addr:country": "TH", "name": "BIG C NAKORNPATHOM", "website": "https://www.mcdonalds.co.th/storeLocations/5bd89730acc28a3b59098aeb", "brand": "McDonald\u2019s", "brand:wikidata": "Q38076"}, "geometry": {"type": "Point", "coordinates": [100.072407, 13.812654]}},
{"type": "Feature", "id": "c8leEFSB6rwI2dzctO9aUvfHRSM=", "properties": {"ref": "https://www.mcdonalds.co.th/storeLocations/5bd51745acc28a7b2d3f4c3a", "@spider": "mcdonalds_th", "addr:full": "3300 Lotus Super Center Building, Rama 4, Rama 4 Road, Klong Toey, Bangkok 10110 .", "addr:country": "TH", "name": "TESCO RAMA 4", "website": "https://www.mcdonalds.co.th/storeLocations/5bd51745acc28a7b2d3f4c3a", "brand": "McDonald\u2019s", "brand:wikidata": "Q38076"}, "geometry": {"type": "Point", "coordinates": [100.568789, 13.718114]}},
{"type": "Feature", "id": "-r9lWxcy7WH62ZScEFr3jxxGJ2Y=", "properties": {"ref": "https://www.mcdonalds.co.th/storeLocations/5bd5d61aacc28a3cfb04e666", "@spider": "mcdonalds_th", "addr:full": "No. 829 Tesco Lotus. Sue branch Prachawad 2 , Bang Sue, Bangkok 10800 .", "addr:country": "TH", "name": "TESCO PRACHACHUEN", "website": "https://www.mcdonalds.co.th/storeLocations/5bd5d61aacc28a3cfb04e666", "brand": "McDonald\u2019s", "brand:wikidata": "Q38076"}, "geometry": {"type": "Point", "coordinates": [100.534388, 13.805895]}},
{"type": "Feature", "id": "SZ5Fu8xBZ44P7QzlW8sicjoHa9o=", "properties": {"ref": "https://www.mcdonalds.co.th/storeLocations/5bd64ad8acc28a3cfb04e66e", "@spider": "mcdonalds_th", "addr:full": "No. 104 Moo 5 Rama 9 Radsada A. Muang , Phuket 83000.", "addr:country": "TH", "name": "TESCO PHUKET", "website": "https://www.mcdonalds.co.th/storeLocations/5bd64ad8acc28a3cfb04e66e", "brand": "McDonald\u2019s", "brand:wikidata": "Q38076"}, "geometry": {"type": "Point", "coordinates": [98.302231, 7.993957]}},
{"type": "Feature", "id": "56Le7LBe2Fnr0GnLe_PVvzp6CN4=", "properties": {"ref": "https://www.mcdonalds.co.th/storeLocations/5bd655c6acc28a7a2e1bbf96", "@spider": "mcdonalds_th", "addr:full": "No. 7/259 Central Plaza Pinklao. Borommaratchachonnani Arun Bangkok 10700", "addr:country": "TH", "name": "CENTRAL PINKLAO", "website": "https://www.mcdonalds.co.th/storeLocations/5bd655c6acc28a7a2e1bbf96", "brand": "McDonald\u2019s", "brand:wikidata": "Q38076"}, "geometry": {"type": "Point", "coordinates": [100.476193, 13.778318]}},
{"type": "Feature", "id": "dxVngSTNHhjOvMOH6KzzmUgdhHQ=", "properties": {"ref": "https://www.mcdonalds.co.th/storeLocations/5bd68463acc28a7a2e1bbf9e", "@spider": "mcdonalds_th", "addr:full": "999/ 4, 1st Floor , Room H F01H05000-F01H09000 Rama 9 Road, Suan Luang, Bangkok 10240.", "addr:country": "TH", "name": "THE NINE RAMA 9", "website": "https://www.mcdonalds.co.th/storeLocations/5bd68463acc28a7a2e1bbf9e", "brand": "McDonald\u2019s", "brand:wikidata": "Q38076"}, "geometry": {"type": "Point", "coordinates": [100.625807, 13.741115]}},
{"type": "Feature", "id": "ZYJnZAgk64BDTZE9lZLCEPRP1AQ=", "properties": {"ref": "https://www.mcdonalds.co.th/storeLocations/5bd835a4acc28a2d3b13bb22", "@spider": "mcdonalds_th", "addr:full": "No. 9/99 , Central Plaza Phitsanulok Room No. 162-165 , 1st Floor, Moo 5 , Muang , Phitsanulok 65000 Plaichumpol .", "addr:country": "TH", "name": "CENTRAL PHITSANULOK", "website": "https://www.mcdonalds.co.th/storeLocations/5bd835a4acc28a2d3b13bb22", "brand": "McDonald\u2019s", "brand:wikidata": "Q38076"}, "geometry": {"type": "Point", "coordinates": [100.23472, 16.840897]}},
{"type": "Feature", "id": "-IzxcGce3fztSuACuPSnwsD9Fq8=", "properties": {"ref": "https://www.mcdonalds.co.th/storeLocations/5bd88bc0acc28a3a3f285312", "@spider": "mcdonalds_th", "addr:full": "889 Rama1 Rd. Kwang Wangmai Khet Pathumwan Bangkok 10330", "addr:country": "TH", "name": "HOLIDAY INN EXPRESS", "website": "https://www.mcdonalds.co.th/storeLocations/5bd88bc0acc28a3a3f285312", "brand": "McDonald\u2019s", "brand:wikidata": "Q38076"}, "geometry": {"type": "Point", "coordinates": [100.527788, 13.746978]}},
{"type": "Feature", "id": "uCWyp5ohthK54WF1z98rBkQ3dZU=", "properties": {"ref": "https://www.mcdonalds.co.th/storeLocations/5bd88e4eacc28a3fcb2964f2", "@spider": "mcdonalds_th", "addr:full": "218/8 Sukhumvit Rd. Tambon Thangkwien Amphoe Klang Rayong 21110", "addr:country": "TH", "name": "KLANG RAYONG (DRIVE-THRU)", "website": "https://www.mcdonalds.co.th/storeLocations/5bd88e4eacc28a3fcb2964f2", "brand": "McDonald\u2019s", "brand:wikidata": "Q38076"}, "geometry": {"type": "Point", "coordinates": [101.66502, 12.7866]}},
{"type": "Feature", "id": "igHaZdQSqZOLRjVAcTcXs0KorP8=", "properties": {"ref": "https://www.mcdonalds.co.th/storeLocations/5bd8985eacc28a3b59098af3", "@spider": "mcdonalds_th", "addr:full": "25/4 Phrayatrang Rd., Tambonwatmai Amphoemueangchantaburi Chantaburi Province", "addr:country": "TH", "name": "TESCO CHANTABURI", "website": "https://www.mcdonalds.co.th/storeLocations/5bd8985eacc28a3b59098af3", "brand": "McDonald\u2019s", "brand:wikidata": "Q38076"}, "geometry": {"type": "Point", "coordinates": [102.101417, 12.615412]}},
{"type": "Feature", "id": "OyAHHv92hb8l6jfIuyvxZsVHTL4=", "properties": {"ref": "https://www.mcdonalds.co.th/storeLocations/5bd50762acc28a7b2d3f4c32", "@spider": "mcdonalds_th", "addr:full": "No. 607 Building, Seacon Bang Room No. 109-110 , 1st Floor, Petchkasem Bang Wa Phasi Charoen Bangkok 10160 .", "addr:country": "TH", "name": "SEACON BANGKAE", "website": "https://www.mcdonalds.co.th/storeLocations/5bd50762acc28a7b2d3f4c32", "brand": "McDonald\u2019s", "brand:wikidata": "Q38076"}, "geometry": {"type": "Point", "coordinates": [100.43481, 13.711949]}},
{"type": "Feature", "id": "vwJNpPqzdh-5PgVPVYMlJBW1N18=", "properties": {"ref": "https://www.mcdonalds.co.th/storeLocations/5bd53802acc28a5f38782cd7", "@spider": "mcdonalds_th", "addr:full": "No. 85/106-112 Moo 1 , Tambon Khao Din Bang Pakong, Chachoengsao 24130 .", "addr:country": "TH", "name": "PTT MOTORWAY INBOUND", "website": "https://www.mcdonalds.co.th/storeLocations/5bd53802acc28a5f38782cd7", "brand": "McDonald\u2019s", "brand:wikidata": "Q38076"}, "geometry": {"type": "Point", "coordinates": [101.008266, 13.539465]}},
{"type": "Feature", "id": "dAtvaT_3MH2t58G496PaewnvzNs=", "properties": {"ref": "https://www.mcdonalds.co.th/storeLocations/5bd5d4e4acc28a3cfd10bca6", "@spider": "mcdonalds_th", "addr:full": "No. 387/7 Moo 6 ( Mini Siam Pattaya ), Sukhumvit Road, Naklua, Banglamung, Chonburi 20150 .", "addr:country": "TH", "name": "MINI SIAM (DRIVE-THRU)", "website": "https://www.mcdonalds.co.th/storeLocations/5bd5d4e4acc28a3cfd10bca6", "brand": "McDonald\u2019s", "brand:wikidata": "Q38076"}, "geometry": {"type": "Point", "coordinates": [100.907953, 12.955206]}},
{"type": "Feature", "id": "bz99cto78xwlD69ID8uDqNrqVfI=", "properties": {"ref": "https://www.mcdonalds.co.th/storeLocations/5bd64eebacc28a72eb565f3a", "@spider": "mcdonalds_th", "addr:full": "No. 318 /9 The Mall, The Paseo , Room E-101 , 1st Floor, E Lat Krabang, Bangkok Soi Lat Krabang, Bangkok Khlong Lat Krabang, Bangkok Road Bangkok 10520 .", "addr:country": "TH", "name": "PASEO LADKRABANG (DRIVE-THRU)", "website": "https://www.mcdonalds.co.th/storeLocations/5bd64eebacc28a72eb565f3a", "brand": "McDonald\u2019s", "brand:wikidata": "Q38076"}, "geometry": {"type": "Point", "coordinates": [100.727497, 13.721825]}},
{"type": "Feature", "id": "mMf_-8HugAxu8jn2pBpbwD0K6Ps=", "properties": {"ref": "https://www.mcdonalds.co.th/storeLocations/5bd6831dacc28a1fd802fcb6", "@spider": "mcdonalds_th", "addr:full": "PTT service station, 54004 Bangkok - Rama 2 (km 35 ) 5/ 14 Moo 3 Kachao . Click! Province 74000", "addr:country": "TH", "name": "PTT RAMA 2 KM 35 (DRIVE-THRU)", "website": "https://www.mcdonalds.co.th/storeLocations/5bd6831dacc28a1fd802fcb6", "brand": "McDonald\u2019s", "brand:wikidata": "Q38076"}, "geometry": {"type": "Point", "coordinates": [100.20994, 13.532543]}},
{"type": "Feature", "id": "vfJYJP_DYKlCh3JWjn2TFCoWzJ8=", "properties": {"ref": "https://www.mcdonalds.co.th/storeLocations/5bd68542acc28a1fd802fcbe", "@spider": "mcdonalds_th", "addr:full": "No. 22, Bangkok Hospital Medical Center . Space at 2-04 on the 2nd floor , Soi 7 Road, Bangkapi, Huay Kwang, Bangkok 10310 .", "addr:country": "TH", "name": "BANGKOK HOSPITAL", "website": "https://www.mcdonalds.co.th/storeLocations/5bd68542acc28a1fd802fcbe", "brand": "McDonald\u2019s", "brand:wikidata": "Q38076"}, "geometry": {"type": "Point", "coordinates": [100.583675, 13.748241]}},
{"type": "Feature", "id": "1NjZ_f3MJeRTio-m-N007mnqhzc=", "properties": {"ref": "https://www.mcdonalds.co.th/storeLocations/5bd8735cacc28a3b5c1a7755", "@spider": "mcdonalds_th", "addr:full": "899 Road Development Khukhwang Tambon Nai Muang Nakhon. Nakhon Si Thammarat 80000", "addr:country": "TH", "name": "IBIZ NAKORNSRITHAMMARAT (DRIVE-THRU)", "website": "https://www.mcdonalds.co.th/storeLocations/5bd8735cacc28a3b5c1a7755", "brand": "McDonald\u2019s", "brand:wikidata": "Q38076"}, "geometry": {"type": "Point", "coordinates": [99.970393, 8.436524]}},
{"type": "Feature", "id": "MpnebBYsqdXXUsnOodE-GoF4Rbw=", "properties": {"ref": "https://www.mcdonalds.co.th/storeLocations/5bd882d3acc28a46616ab766", "@spider": "mcdonalds_th", "addr:full": "Central Festival Hat , Room G- 05 , Ground Floor , No. 1518,1518 / 1,1518 / 2 . Kanchana Supatravanij Road , Hatyai Songkhla 90110 .", "addr:country": "TH", "name": "CENTRAL HADYAI", "website": "https://www.mcdonalds.co.th/storeLocations/5bd882d3acc28a46616ab766", "brand": "McDonald\u2019s", "brand:wikidata": "Q38076"}, "geometry": {"type": "Point", "coordinates": [100.480678, 6.981977]}},
{"type": "Feature", "id": "kvaTrs-pTd-f08QV8O7yv7M1Hj4=", "properties": {"ref": "https://www.mcdonalds.co.th/storeLocations/5bd88b8dacc28a46616ab77d", "@spider": "mcdonalds_th", "addr:full": "689 Sukhumvit Rd. Kweang Klongtonnui Khet Wattana Bangkok 10110", "addr:country": "TH", "name": "EMQUARTIER", "website": "https://www.mcdonalds.co.th/storeLocations/5bd88b8dacc28a46616ab77d", "brand": "McDonald\u2019s", "brand:wikidata": "Q38076"}, "geometry": {"type": "Point", "coordinates": [100.569406, 13.731127]}},
{"type": "Feature", "id": "POfz89aufpvnd0VwQ0QdfH0JIGg=", "properties": {"ref": "https://www.mcdonalds.co.th/storeLocations/5bd88d06acc28a5c4f612ee1", "@spider": "mcdonalds_th", "addr:full": "111/10 Moo1 Tambon Wangmanao Amphoe Pakthor Ratchaburi 70140", "addr:country": "TH", "name": "PTT WANGMANAO (DRIVE-THRU)", "website": "https://www.mcdonalds.co.th/storeLocations/5bd88d06acc28a5c4f612ee1", "brand": "McDonald\u2019s", "brand:wikidata": "Q38076"}, "geometry": {"type": "Point", "coordinates": [99.837738, 13.341979]}},
{"type": "Feature", "id": "oAyKRsxAr5_EHYqtrpqHSwi1hcM=", "properties": {"ref": "https://www.mcdonalds.co.th/storeLocations/5bd88ea7acc28a5c4f612ee5", "@spider": "mcdonalds_th", "addr:full": "34 Moo9 Tambon Bangphliyai Amphoe Bangphli Samutprakarn 10540", "addr:country": "TH", "name": "BIG C BANGPHLI (DRIVE-THRU)", "website": "https://www.mcdonalds.co.th/storeLocations/5bd88ea7acc28a5c4f612ee5", "brand": "McDonald\u2019s", "brand:wikidata": "Q38076"}, "geometry": {"type": "Point", "coordinates": [100.707671, 13.603373]}},
{"type": "Feature", "id": "PVIimTa_qwJNFDubtu004yXowJo=", "properties": {"ref": "https://www.mcdonalds.co.th/storeLocations/5bd897dfacc28a6fe077d36a", "@spider": "mcdonalds_th", "addr:full": "210/35 Moo 9 Nongprue, Banglamung, Chonburi 20150", "addr:country": "TH", "name": "PATTAYA SOI BUAKAO", "website": "https://www.mcdonalds.co.th/storeLocations/5bd897dfacc28a6fe077d36a", "brand": "McDonald\u2019s", "brand:wikidata": "Q38076"}, "geometry": {"type": "Point", "coordinates": [100.885748, 12.93105]}},
{"type": "Feature", "id": "A4rQ0KEm5TAC2cebp9rtW1fCaTI=", "properties": {"ref": "https://www.mcdonalds.co.th/storeLocations/5bd50a3dacc28a6d4e0e5268", "@spider": "mcdonalds_th", "addr:full": "Klao Road No. 35 and 37 . Bangyikhan 10700", "addr:country": "TH", "name": "PATA PINKLAO", "website": "https://www.mcdonalds.co.th/storeLocations/5bd50a3dacc28a6d4e0e5268", "brand": "McDonald\u2019s", "brand:wikidata": "Q38076"}, "geometry": {"type": "Point", "coordinates": [100.48395, 13.771378]}},
{"type": "Feature", "id": "MEZfKBGBbMZ__eVUtFz3g7AxNqw=", "properties": {"ref": "https://www.mcdonalds.co.th/storeLocations/5bd50a85acc28a4209293d55", "@spider": "mcdonalds_th", "addr:full": "No. 55 Building , Room 1090 B, 1st floor Seacon Square Srinakarin Rd Prawet, Bangkok 10260 .", "addr:country": "TH", "name": "SEACON SQUARE 1", "website": "https://www.mcdonalds.co.th/storeLocations/5bd50a85acc28a4209293d55", "brand": "McDonald\u2019s", "brand:wikidata": "Q38076"}, "geometry": {"type": "Point", "coordinates": [100.648005, 13.694485]}},
{"type": "Feature", "id": "y1dCpkw9BYADQGnqPsUlngpgqKQ=", "properties": {"ref": "https://www.mcdonalds.co.th/storeLocations/5bd5110aacc28a757e665afd", "@spider": "mcdonalds_th", "addr:full": "No. 33/3 , mezzanine, building a new hospital , Sukhumvit Soi 3 ( Nana Nua ) Klongtoey Nua, Wattana , Bangkok 10110 .", "addr:country": "TH", "name": "BUMRUNGRAD", "website": "https://www.mcdonalds.co.th/storeLocations/5bd5110aacc28a757e665afd", "brand": "McDonald\u2019s", "brand:wikidata": "Q38076"}, "geometry": {"type": "Point", "coordinates": [100.552433, 13.746889]}},
{"type": "Feature", "id": "_yZy72cUSd0tfMkzcSZrk7xa6J8=", "properties": {"ref": "https://www.mcdonalds.co.th/storeLocations/5bd511afacc28a03b7532dc1", "@spider": "mcdonalds_th", "addr:full": "No. 96 Taweewong Road, Patong , Kathu, Phuket 83120 .", "addr:country": "TH", "name": "PATONG BEACH, PHUKET", "website": "https://www.mcdonalds.co.th/storeLocations/5bd511afacc28a03b7532dc1", "brand": "McDonald\u2019s", "brand:wikidata": "Q38076"}, "geometry": {"type": "Point", "coordinates": [98.293991, 7.891619]}},
{"type": "Feature", "id": "jHYxLtzB6y2m3NqS1nD527DFUZI=", "properties": {"ref": "https://www.mcdonalds.co.th/storeLocations/5bd64d3facc28a72ee41c6e2", "@spider": "mcdonalds_th", "addr:full": "399 /9 The Mall, The Avenue Pattaya , Room C 107 - C 108 Class 1 , Tambon Nong Prue , Banglamung, Chonburi 20260 .", "addr:country": "TH", "name": "THE AVENUE PATTAYA", "website": "https://www.mcdonalds.co.th/storeLocations/5bd64d3facc28a72ee41c6e2", "brand": "McDonald\u2019s", "brand:wikidata": "Q38076"}, "geometry": {"type": "Point", "coordinates": [100.880826, 12.930033]}},
{"type": "Feature", "id": "UqrSce2S271f4dcVZXQTKxtXWqU=", "properties": {"ref": "https://www.mcdonalds.co.th/storeLocations/5bd6560dacc28a61c720512a", "@spider": "mcdonalds_th", "addr:full": "No. 2 Mahidol Road and No. 252-252/1 Wualai Central Plaza Chiang Mai Airport G-180/1-2 Floor , Room No. G Haiya Muang. 50100", "addr:country": "TH", "name": "CENTRAL AIRPORT CHIANGMAI", "website": "https://www.mcdonalds.co.th/storeLocations/5bd6560dacc28a61c720512a", "brand": "McDonald\u2019s", "brand:wikidata": "Q38076"}, "geometry": {"type": "Point", "coordinates": [98.975625, 18.768362]}},
{"type": "Feature", "id": "YJ5QnkPfW8P3DFxqAzEygRRyAy8=", "properties": {"ref": "https://www.mcdonalds.co.th/storeLocations/5bd65b8bacc28a3cff32a3ee", "@spider": "mcdonalds_th", "addr:full": "No. 39 The Circle Building , Room F10 Ratchaphruek Ratchaphruek Road, Bang Ramat, Taling Chan , Bangkok 10170 .", "addr:country": "TH", "name": "THE CIRCLE RAJCHAPRUEK (DRIVE-THRU)", "website": "https://www.mcdonalds.co.th/storeLocations/5bd65b8bacc28a3cff32a3ee", "brand": "McDonald\u2019s", "brand:wikidata": "Q38076"}, "geometry": {"type": "Point", "coordinates": [100.443932, 13.767267]}},
{"type": "Feature", "id": "bRJoN_c--uZa_s4jWNVhrj-L4f8=", "properties": {"ref": "https://www.mcdonalds.co.th/storeLocations/5bd6842bacc28a033b1d2dbf", "@spider": "mcdonalds_th", "addr:full": "No. 439 Moo 2, Phaholyothin Rd Patumthani 16500 .", "addr:country": "TH", "name": "MAJOR RANGSIT", "website": "https://www.mcdonalds.co.th/storeLocations/5bd6842bacc28a033b1d2dbf", "brand": "McDonald\u2019s", "brand:wikidata": "Q38076"}, "geometry": {"type": "Point", "coordinates": [100.61645, 13.986886]}},
{"type": "Feature", "id": "Yo-GbTtyxhoqifzJNHCgVVFXXz4=", "properties": {"ref": "https://www.mcdonalds.co.th/storeLocations/5bd83ba7acc28a3a3f2852f2", "@spider": "mcdonalds_th", "addr:full": "No. 99/123 ports TOSHINO Center , Building C , Moo 4, Tambon Na Muang Samut Sakhon , Samut Sakhon 74000 .", "addr:country": "TH", "name": "PORTO CHINO (DRIVE-THRU)", "website": "https://www.mcdonalds.co.th/storeLocations/5bd83ba7acc28a3a3f2852f2", "brand": "McDonald\u2019s", "brand:wikidata": "Q38076"}, "geometry": {"type": "Point", "coordinates": [100.302536, 13.576915]}},
{"type": "Feature", "id": "3FwKc-dj7GWxFXwYiRZRYlfNATA=", "properties": {"ref": "https://www.mcdonalds.co.th/storeLocations/5bd87dcfacc28a3fcb2964d6", "@spider": "mcdonalds_th", "addr:full": "Building at 319 Central Plaza Chiang Mai Room No. 120-120T 1st Floor Buccaneers - Lampang - Ngao district, Lampang Road , Bangkok 52100 flower garden .", "addr:country": "TH", "name": "CENTRAL LAMPANG", "website": "https://www.mcdonalds.co.th/storeLocations/5bd87dcfacc28a3fcb2964d6", "brand": "McDonald\u2019s", "brand:wikidata": "Q38076"}, "geometry": {"type": "Point", "coordinates": [99.49399, 18.281763]}},
{"type": "Feature", "id": "PzeOdMrkX0cJsa02GDlIzJG6mos=", "properties": {"ref": "https://www.mcdonalds.co.th/storeLocations/5bd87f42acc28a3a3f285300", "@spider": "mcdonalds_th", "addr:full": "No. 7/2 The Paseo Plaza Building 3, Room A1-01 Sanitary Ramkhamhaeng Road, Bangkok 10240 SaphanSung .", "addr:country": "TH", "name": "PASEO SUKHAPHIBAN 3 (DRIVE-THRU)", "website": "https://www.mcdonalds.co.th/storeLocations/5bd87f42acc28a3a3f285300", "brand": "McDonald\u2019s", "brand:wikidata": "Q38076"}, "geometry": {"type": "Point", "coordinates": [100.666587, 13.773737]}},
{"type": "Feature", "id": "7lKajpR-gKUXSBJpnurcKTkgWUg=", "properties": {"ref": "https://www.mcdonalds.co.th/storeLocations/5bd883a4acc28a46616ab76a", "@spider": "mcdonalds_th", "addr:full": "No. 19/11 Moo 7 Tambon Yang Tan, Nakhon Sawan , Thailand 60170 .", "addr:country": "TH", "name": "PTT NAKHONSAWAN (DRIVE-THRU)", "website": "https://www.mcdonalds.co.th/storeLocations/5bd883a4acc28a46616ab76a", "brand": "McDonald\u2019s", "brand:wikidata": "Q38076"}, "geometry": {"type": "Point", "coordinates": [100.124304, 15.576192]}},
{"type": "Feature", "id": "RFyPFYRRLfMRjaTRsjuMXvr9u8o=", "properties": {"ref": "https://www.mcdonalds.co.th/storeLocations/5bd88d94acc28a3b5c1a7780", "@spider": "mcdonalds_th", "addr:full": "88/6 Moo3 Tambon Phudad Amphoe Banpho Chachoengsao", "addr:country": "TH", "name": "ESSO BANPHO 1 OUTBOUND (DRIVE-THRU)", "website": "https://www.mcdonalds.co.th/storeLocations/5bd88d94acc28a3b5c1a7780", "brand": "McDonald\u2019s", "brand:wikidata": "Q38076"}, "geometry": {"type": "Point", "coordinates": [101.012873, 13.59201]}},
{"type": "Feature", "id": "Fwsl4B1b-xz842KoAKJGwvjXJD4=", "properties": {"ref": "https://www.mcdonalds.co.th/storeLocations/5bd89560acc28a6f086044e2", "@spider": "mcdonalds_th", "addr:full": "311,313,315,317,319,321&323 Longhadbangsaen Road, Saensuk, Muang Chonburi, Chonburi 20130", "addr:country": "TH", "name": "BANGSAEN", "website": "https://www.mcdonalds.co.th/storeLocations/5bd89560acc28a6f086044e2", "brand": "McDonald\u2019s", "brand:wikidata": "Q38076"}, "geometry": {"type": "Point", "coordinates": [100.915906, 13.28354]}},
{"type": "Feature", "id": "hEM2z0UpOXvoucjzShkMhQXv0kg=", "properties": {"ref": "https://www.mcdonalds.co.th/storeLocations/5bd50b5aacc28a0c4a79c06e", "@spider": "mcdonalds_th", "addr:full": "No. 161 Moo 2 Soi Phaholyothin (Vibhavadi - Rangsit Campus ) , Pathumthani 12110 Tanyaburi .", "addr:country": "TH", "name": "FUTURE PARK RANGSIT", "website": "https://www.mcdonalds.co.th/storeLocations/5bd50b5aacc28a0c4a79c06e", "brand": "McDonald\u2019s", "brand:wikidata": "Q38076"}, "geometry": {"type": "Point", "coordinates": [100.616611, 13.989436]}},
{"type": "Feature", "id": "iguicG83l4MIQOgCDUmwXUdjUMc=", "properties": {"ref": "https://www.mcdonalds.co.th/storeLocations/5bd50b90acc28a6d53023d3a", "@spider": "mcdonalds_th", "addr:full": "No. 145/26 The Pavilions Shopping Centre, Chiang Mai Chang Klan Road , Tambon Chang Klan, Muang, Chiang Mai 50100 .", "addr:country": "TH", "name": "CHIANGMAI NIGHT BAZAAR", "website": "https://www.mcdonalds.co.th/storeLocations/5bd50b90acc28a6d53023d3a", "brand": "McDonald\u2019s", "brand:wikidata": "Q38076"}, "geometry": {"type": "Point", "coordinates": [99.000473, 18.783661]}},
{"type": "Feature", "id": "JAJ3JkvOMcdfeXFkaeA0pESk5Xc=", "properties": {"ref": "https://www.mcdonalds.co.th/storeLocations/5bd64cbeacc28a72eb565f36", "@spider": "mcdonalds_th", "addr:full": "No. 6/4 Petchkasem Road , Hua Hin , Prachuap Khiri Khan 77110 .", "addr:country": "TH", "name": "BAYANA MALL HUA-HIN", "website": "https://www.mcdonalds.co.th/storeLocations/5bd64cbeacc28a72eb565f36", "brand": "McDonald\u2019s", "brand:wikidata": "Q38076"}, "geometry": {"type": "Point", "coordinates": [99.964814, 12.547348]}},
{"type": "Feature", "id": "gSKclNlr1GEig4xrldFNB9CGBI8=", "properties": {"ref": "https://www.mcdonalds.co.th/storeLocations/5bd64f5aacc28a7a2e1bbf8a", "@spider": "mcdonalds_th", "addr:full": "No. 98/196 , Moo 13 , Room GCR110 Rd. E-mail Province 12120", "addr:country": "TH", "name": "BIG C NAVANAKORN", "website": "https://www.mcdonalds.co.th/storeLocations/5bd64f5aacc28a7a2e1bbf8a", "brand": "McDonald\u2019s", "brand:wikidata": "Q38076"}, "geometry": {"type": "Point", "coordinates": [100.6179, 14.122585]}},
{"type": "Feature", "id": "uBB909jP6oZvz0byzcCzb1lNNTE=", "properties": {"ref": "https://www.mcdonalds.co.th/storeLocations/5bd6579facc28a3cfb04e67e", "@spider": "mcdonalds_th", "addr:full": "101,147,148,149,150 Floor , Room No. 1 , No. 99 Moo 2, Tambon Bang Talat, Amphoe Pak Kret , Nonthaburi 11120 .", "addr:country": "TH", "name": "CENTRAL CHANGWATTANA", "website": "https://www.mcdonalds.co.th/storeLocations/5bd6579facc28a3cfb04e67e", "brand": "McDonald\u2019s", "brand:wikidata": "Q38076"}, "geometry": {"type": "Point", "coordinates": [100.527451, 13.904066]}},
{"type": "Feature", "id": "QSVc1xDrlcPR_gHBaHpb4mrz8YA=", "properties": {"ref": "https://www.mcdonalds.co.th/storeLocations/5bd83e18acc28a2d373f0fc8", "@spider": "mcdonalds_th", "addr:full": "No. 277/3 Central Plaza Udonthani Room No. 116-116T 1st Floor Prachaksinlapakhom sharp Maakaeng MON 41000 .", "addr:country": "TH", "name": "CENTRAL UDORNTHANI", "website": "https://www.mcdonalds.co.th/storeLocations/5bd83e18acc28a2d373f0fc8", "brand": "McDonald\u2019s", "brand:wikidata": "Q38076"}, "geometry": {"type": "Point", "coordinates": [102.803444, 17.404335]}},
{"type": "Feature", "id": "svFxGYUNmN9NeyMZIQAMmFuwJEo=", "properties": {"ref": "https://www.mcdonalds.co.th/storeLocations/5bd88e15acc28a65707770ea", "@spider": "mcdonalds_th", "addr:full": "76/1-7 Nakornsawan Rd. Tambon Talad Amphoe Mueang Mahasakarm Mahasakarm 44000", "addr:country": "TH", "name": "SERM THAI COMPLEX MAHASARAKAM (DRIVE-THRU)", "website": "https://www.mcdonalds.co.th/storeLocations/5bd88e15acc28a65707770ea", "brand": "McDonald\u2019s", "brand:wikidata": "Q38076"}, "geometry": {"type": "Point", "coordinates": [103.276934, 16.201719]}},
{"type": "Feature", "id": "c4qKA8hRaVfxKaOqLBMCLoKtrqo=", "properties": {"ref": "https://www.mcdonalds.co.th/storeLocations/5bd89179acc28a43f95c3b1b", "@spider": "mcdonalds_th", "addr:full": "94 Moo 18 Bangpueng, Muang Prapradaeng, Samutprakarn 10130", "addr:country": "TH", "name": "BIG C SUKSAWAT", "website": "https://www.mcdonalds.co.th/storeLocations/5bd89179acc28a43f95c3b1b", "brand": "McDonald\u2019s", "brand:wikidata": "Q38076"}, "geometry": {"type": "Point", "coordinates": [100.522425, 13.654046]}},
{"type": "Feature", "id": "Xws9yRlTbQxaNHWh5phHlAW0BJM=", "properties": {"ref": "https://www.mcdonalds.co.th/storeLocations/5bd89272acc28a46616ab789", "@spider": "mcdonalds_th", "addr:full": "32, 32/1 Nimmanhaemin Rd., Suthep, Muang Chiangmai, Chiangmai 50200", "addr:country": "TH", "name": "NIMMANHAEMIN ROAD, CHIANGMAI", "website": "https://www.mcdonalds.co.th/storeLocations/5bd89272acc28a46616ab789", "brand": "McDonald\u2019s", "brand:wikidata": "Q38076"}, "geometry": {"type": "Point", "coordinates": [98.96642, 18.797877]}},
{"type": "Feature", "id": "3A2h5FQIHMp4Zj0HhY6WBXSIDEU=", "properties": {"ref": "https://www.mcdonalds.co.th/storeLocations/5be29c865840797d2b64a3d2", "@spider": "mcdonalds_th", "addr:full": "555 THE PALLADIUM Shopping Center Building , Room no.1A 047,1A 048,1A 049,B1 404, B2(555)  1st , B1 ,B2 Floor, Ratchaprarop Rd, Makkasan, Ratchathewi, Bangkok 10400", "addr:country": "TH", "name": "THE PALLADIUM WORLD SHOPPING", "website": "https://www.mcdonalds.co.th/storeLocations/5be29c865840797d2b64a3d2", "brand": "McDonald\u2019s", "brand:wikidata": "Q38076"}, "geometry": {"type": "Point", "coordinates": [100.542205, 13.750199]}},
{"type": "Feature", "id": "MTwaAEwiHl1N_kf-RNNY8Lfro70=", "properties": {"ref": "https://www.mcdonalds.co.th/storeLocations/5f10299658407955c55e9dd6", "@spider": "mcdonalds_th", "addr:full": "Silom Building 64, Silom Rd., Suriyawong, Bangrak, Bangkok 10500", "addr:country": "TH", "name": "SILOM BUILDING 64", "website": "https://www.mcdonalds.co.th/storeLocations/5f10299658407955c55e9dd6", "brand": "McDonald\u2019s", "brand:wikidata": "Q38076"}, "geometry": {"type": "Point", "coordinates": [100.533389, 13.728389]}},
{"type": "Feature", "id": "VoHvdTv5vTSX2G2OBvKkL7Uc5_Q=", "properties": {"ref": "https://www.mcdonalds.co.th/storeLocations/5fdacb7b58407936b522eeb2", "@spider": "mcdonalds_th", "addr:full": "91 \u0e21. 6 \u0e1a\u0e49\u0e32\u0e19\u0e43\u0e2b\u0e21\u0e48 \u0e2d\u0e33\u0e40\u0e20\u0e2d\u0e1b\u0e32\u0e01\u0e40\u0e01\u0e23\u0e47\u0e14 \u0e19\u0e19\u0e17\u0e1a\u0e38\u0e23\u0e35 11120", "addr:country": "TH", "name": "Active Park", "website": "https://www.mcdonalds.co.th/storeLocations/5fdacb7b58407936b522eeb2", "brand": "McDonald\u2019s", "brand:wikidata": "Q38076"}, "geometry": {"type": "Point", "coordinates": [100.5426081, 13.9129563]}},
{"type": "Feature", "id": "gXbrdIg1-iuizI0tqHQL5DatHrs=", "properties": {"ref": "https://www.mcdonalds.co.th/storeLocations/60dbff32584079627d62c162", "@spider": "mcdonalds_th", "addr:full": "99 The Mall Thonburi Shopping Center, B Floor, Ratchadapisek Rd., Bukkalo, Thonburi, Bangkok 10600", "addr:country": "TH", "name": "THE MALL THAPHRA", "website": "https://www.mcdonalds.co.th/storeLocations/60dbff32584079627d62c162", "brand": "McDonald\u2019s", "brand:wikidata": "Q38076"}, "geometry": {"type": "Point", "coordinates": [100.47997, 13.713579]}},
{"type": "Feature", "id": "YKm0qAEhhwRSiLFPsniglHrGtaE=", "properties": {"ref": "https://www.mcdonalds.co.th/storeLocations/6129099d584079290031c782", "@spider": "mcdonalds_th", "addr:full": "Room PCU03LS102, 71/2 Prachautid Rd., Thung Kru, Bangkok 10140", "addr:country": "TH", "name": "MARKET PLACE PRACHAUTID", "website": "https://www.mcdonalds.co.th/storeLocations/6129099d584079290031c782", "brand": "McDonald\u2019s", "brand:wikidata": "Q38076"}, "geometry": {"type": "Point", "coordinates": [100.5012, 13.63981]}},
{"type": "Feature", "id": "rUyOwQC178HamagJXiZkY75_gbk=", "properties": {"ref": "https://www.mcdonalds.co.th/storeLocations/615539465840792b2d7bba82", "@spider": "mcdonalds_th", "addr:full": "No. 241/4 Market Place Building, Krungthep Kreetha, Room No. KTK04LS105, Floor 1, Krungthep Kreetha Road, Huamark Subdistrict, Bangkapi District, Bangkok 10240", "addr:country": "TH", "name": "MARKET PLACE KRUNGTHEP KREETHA", "website": "https://www.mcdonalds.co.th/storeLocations/615539465840792b2d7bba82", "brand": "McDonald\u2019s", "brand:wikidata": "Q38076"}, "geometry": {"type": "Point", "coordinates": [100.6498712, 13.7513339]}},
{"type": "Feature", "id": "yOSgVEV7wWKwhC4HnpU4gtPOgcw=", "properties": {"ref": "https://www.mcdonalds.co.th/storeLocations/62184e8458407931702a77d2", "@spider": "mcdonalds_th", "addr:full": "\u0e1a\u0e32\u0e07\u0e08\u0e32\u0e01 \u0e2a\u0e23\u0e30\u0e1a\u0e38\u0e23\u0e35 510/41 \u0e16.\u0e1e\u0e2b\u0e25\u0e42\u0e22\u0e18\u0e34\u0e19 \u0e15.\u0e1b\u0e32\u0e01\u0e40\u0e1e\u0e23\u0e35\u0e22\u0e27 \u0e2d.\u0e40\u0e21\u0e37\u0e2d\u0e07\u0e2a\u0e23\u0e30\u0e1a\u0e38\u0e23\u0e35 \u0e08.\u0e2a\u0e23\u0e30\u0e1a\u0e38\u0e23\u0e35 18000", "addr:country": "TH", "name": "Bangchak Saraburi", "website": "https://www.mcdonalds.co.th/storeLocations/62184e8458407931702a77d2", "brand": "McDonald\u2019s", "brand:wikidata": "Q38076"}, "geometry": {"type": "Point", "coordinates": [100.910457, 14.539604]}}]}