{"type":"FeatureCollection","features":[{"type": "Feature", "id": "DoA29fAU0q97S7atkd4jAS974ZY=", "properties": {"ref": "1", "@spider": "mcdonalds_be", "addr:street_address": "Grand Place", "addr:city": "Alost", "addr:postcode": "9300", "addr:country": "BE", "name": "AALST (In-Store)", "phone": "053 70 13 00", "website": "https://www.mcdonalds.be/en/restaurants/aalst-in-store", "brand": "McDonald\u2019s", "brand:wikidata": "Q38076"}, "geometry": {"type": "Point", "coordinates": [4.038412, 50.938184]}},
{"type": "Feature", "id": "1BcNhzXxOTbDV-eluw7W239Nh1g=", "properties": {"ref": "2", "@spider": "mcdonalds_be", "addr:street_address": "Antwerpsesteenweg", "addr:city": "Aartselaar", "addr:postcode": "2630", "addr:country": "BE", "name": "AARTSELAAR (Drive)", "phone": "03 877 23 00", "website": "https://www.mcdonalds.be/en/restaurants/aartselaar-drive", "brand": "McDonald\u2019s", "brand:wikidata": "Q38076"}, "geometry": {"type": "Point", "coordinates": [4.378428, 51.142697]}},
{"type": "Feature", "id": "NPNXY8bnqikk8tcyAhtOgtNb1y8=", "properties": {"ref": "3", "@spider": "mcdonalds_be", "addr:street_address": "Avenue du Prog\u00e8s", "addr:city": "Alleur", "addr:postcode": "4432", "addr:country": "BE", "name": "ALLEUR (Drive)", "phone": "04 247 14 28", "website": "https://www.mcdonalds.be/en/restaurants/alleur-drive", "brand": "McDonald\u2019s", "brand:wikidata": "Q38076"}, "geometry": {"type": "Point", "coordinates": [5.529603, 50.671959]}},
{"type": "Feature", "id": "3YVnLyxlJ0wM5PmeQzv-i0jr0G4=", "properties": {"ref": "4", "@spider": "mcdonalds_be", "addr:street_address": "Dr\u00e8ve Olympic", "addr:city": "Anderlecht", "addr:postcode": "1070", "addr:country": "BE", "name": "ANDERLECHT (Cora)", "phone": "02 524 51 22", "website": "https://www.mcdonalds.be/en/restaurants/anderlecht-cora", "brand": "McDonald\u2019s", "brand:wikidata": "Q38076"}, "geometry": {"type": "Point", "coordinates": [4.279952, 50.820105]}},
{"type": "Feature", "id": "v6sTqot64nhHheUocTq9WCvEXXE=", "properties": {"ref": "80", "@spider": "mcdonalds_be", "addr:street_address": "Chauss\u00e9e de Mons", "addr:city": "Anderlues", "addr:postcode": "6150", "addr:country": "BE", "name": "ANDERLUES (Drive)", "phone": "064 33 43 32", "website": "https://www.mcdonalds.be/en/restaurants/anderlues-drive", "brand": "McDonald\u2019s", "brand:wikidata": "Q38076"}, "geometry": {"type": "Point", "coordinates": [4.23719, 50.406613]}},
{"type": "Feature", "id": "wcdtcQV13ryw3nZNo-N04Z5o1Rg=", "properties": {"ref": "111", "@spider": "mcdonalds_be", "addr:street_address": "Rue Jean Jaur\u00e8s", "addr:city": "Ans", "addr:postcode": "4430", "addr:country": "BE", "name": "ANS (Drive)", "phone": "043252985", "website": "https://www.mcdonalds.be/en/restaurants/ans-drive", "brand": "McDonald\u2019s", "brand:wikidata": "Q38076"}, "geometry": {"type": "Point", "coordinates": [5.528681, 50.653891]}},
{"type": "Feature", "id": "EwYKaXV4JYHpqY7ar7cyAhDJsCQ=", "properties": {"ref": "7", "@spider": "mcdonalds_be", "addr:street_address": "Groenplaats", "addr:city": "Anvers Groenplaats", "addr:postcode": "2000", "addr:country": "BE", "name": "ANTWERPEN Groenplaats (In-Store)", "phone": "03 231 29 17", "website": "https://www.mcdonalds.be/en/restaurants/antwerpen-groenplaats-in-store", "brand": "McDonald\u2019s", "brand:wikidata": "Q38076"}, "geometry": {"type": "Point", "coordinates": [4.401145, 51.219871]}},
{"type": "Feature", "id": "hRbW4hgFIbOjGzIP5VFSjrnSGis=", "properties": {"ref": "5", "@spider": "mcdonalds_be", "addr:street_address": "De Keyserlei", "addr:city": "Anvers Keyserlei", "addr:postcode": "2000", "addr:country": "BE", "name": "ANTWERPEN Keyserlei (In-Store)", "phone": "03 233 35 34", "website": "https://www.mcdonalds.be/en/restaurants/antwerpen-keyserlei-in-store", "brand": "McDonald\u2019s", "brand:wikidata": "Q38076"}, "geometry": {"type": "Point", "coordinates": [4.419472, 51.217176]}},
{"type": "Feature", "id": "CV5rNUzHciWeAHz_T1K6ceb0zmM=", "properties": {"ref": "79", "@spider": "mcdonalds_be", "addr:street_address": "Meir", "addr:city": "Anvers Meir", "addr:postcode": "2000", "addr:country": "BE", "name": "ANTWERPEN Meir (In-Store)", "phone": "03 231 16 47", "website": "https://www.mcdonalds.be/en/restaurants/antwerpen-meir-in-store", "brand": "McDonald\u2019s", "brand:wikidata": "Q38076"}, "geometry": {"type": "Point", "coordinates": [4.407458, 51.218003]}},
{"type": "Feature", "id": "9-vA0o9bbR-k-e8jCiXXreVfboQ=", "properties": {"ref": "6", "@spider": "mcdonalds_be", "addr:street_address": "Teniersplaats", "addr:city": "Anvers Teniersplaats", "addr:postcode": "2018", "addr:country": "BE", "name": "ANTWERPEN Teniersplaats (In-Store)", "phone": "03 231 59 55", "website": "https://www.mcdonalds.be/en/restaurants/antwerpen-teniersplaats-in-store", "brand": "McDonald\u2019s", "brand:wikidata": "Q38076"}, "geometry": {"type": "Point", "coordinates": [4.41456, 51.217919]}},
{"type": "Feature", "id": "mhxSByCdrriXN2IhPW-cINEex1M=", "properties": {"ref": "83", "@spider": "mcdonalds_be", "addr:street_address": "Rue de Grass", "addr:city": "Arlon", "addr:postcode": "6700", "addr:country": "BE", "name": "ARLON (Drive)", "phone": "063 57 72 84", "website": "https://www.mcdonalds.be/en/restaurants/arlon-drive", "brand": "McDonald\u2019s", "brand:wikidata": "Q38076"}, "geometry": {"type": "Point", "coordinates": [5.887062, 49.638878]}},
{"type": "Feature", "id": "hPFYv3UusiZguuiQtl7tfi1_Xic=", "properties": {"ref": "95", "@spider": "mcdonalds_be", "addr:street_address": "Route de Flobecq  ", "addr:city": "Ath", "addr:postcode": "7800", "addr:country": "BE", "name": "ATH (Drive)", "phone": "068 65 85 72", "website": "https://www.mcdonalds.be/en/restaurants/ath-drive", "brand": "McDonald\u2019s", "brand:wikidata": "Q38076"}, "geometry": {"type": "Point", "coordinates": [3.774273, 50.638631]}},
{"type": "Feature", "id": "VEFlCiO5z1KEaUNCoLJMOQ5fgV4=", "properties": {"ref": "8", "@spider": "mcdonalds_be", "addr:street_address": "Chauss\u00e9e de Waterloo", "addr:city": "Bruxelles Chauss\u00e9e de Waterloo", "addr:postcode": "1180", "addr:country": "BE", "name": "BASCULE (In-Store)", "phone": "02 344 55 59", "website": "https://www.mcdonalds.be/en/restaurants/bascule-in-store", "brand": "McDonald\u2019s", "brand:wikidata": "Q38076"}, "geometry": {"type": "Point", "coordinates": [4.366926, 50.815332]}},
{"type": "Feature", "id": "jRbHb2vSBLpWoHHHdmVCQAYCioo=", "properties": {"ref": "93", "@spider": "mcdonalds_be", "addr:street_address": "Turnhoutseweg ", "addr:city": "Beerse", "addr:postcode": "2340", "addr:country": "BE", "name": "BEERSE (Drive)", "phone": "014 31 20 33", "website": "https://www.mcdonalds.be/en/restaurants/beerse-drive", "brand": "McDonald\u2019s", "brand:wikidata": "Q38076"}, "geometry": {"type": "Point", "coordinates": [4.867978, 51.312251]}},
{"type": "Feature", "id": "24AoSr_iTRyaqYDN67qJmE_nook=", "properties": {"ref": "94", "@spider": "mcdonalds_be", "addr:street_address": "Zwanenbergstraat", "addr:city": "Beringen", "addr:postcode": "3583", "addr:country": "BE", "name": "BERINGEN (Drive)", "phone": "011 70 78 50", "website": "https://www.mcdonalds.be/en/restaurants/beringen-drive", "brand": "McDonald\u2019s", "brand:wikidata": "Q38076"}, "geometry": {"type": "Point", "coordinates": [5.187944, 51.04256]}},
{"type": "Feature", "id": "Ye2izPjQ50dQumnuo2Mv5vY3Dg8=", "properties": {"ref": "71", "@spider": "mcdonalds_be", "addr:street_address": "Tongersestraat", "addr:city": "Bilzen", "addr:postcode": "3740", "addr:country": "BE", "name": "BILZEN (Drive)", "phone": "089 75 38 04 ", "website": "https://www.mcdonalds.be/en/restaurants/bilzen-drive", "brand": "McDonald\u2019s", "brand:wikidata": "Q38076"}, "geometry": {"type": "Point", "coordinates": [5.500938, 50.860218]}},
{"type": "Feature", "id": "CDMV28iIwOrdG7pRbVTUaP5T2uc=", "properties": {"ref": "103", "@spider": "mcdonalds_be", "addr:street_address": "Route du Condroz", "addr:city": "Boncelles", "addr:postcode": "4100", "addr:country": "BE", "name": "BONCELLES (Drive)", "phone": "04 345 07 38", "website": "https://www.mcdonalds.be/en/restaurants/boncelles-drive", "brand": "McDonald\u2019s", "brand:wikidata": "Q38076"}, "geometry": {"type": "Point", "coordinates": [5.550142, 50.566451]}},
{"type": "Feature", "id": "sm-CMSU-KiMxEFODZCfU15g9D30=", "properties": {"ref": "12", "@spider": "mcdonalds_be", "addr:street_address": "Place de la Bourse", "addr:city": "Bruxelles Place de la Bourse", "addr:postcode": "1000", "addr:country": "BE", "name": "BOURSE (In-Store)", "phone": "02 513 42 13", "website": "https://www.mcdonalds.be/en/restaurants/bourse-in-store", "brand": "McDonald\u2019s", "brand:wikidata": "Q38076"}, "geometry": {"type": "Point", "coordinates": [4.34922, 50.848689]}},
{"type": "Feature", "id": "hjb4KWVEep_zdnc3fBKQF_LcFbc=", "properties": {"ref": "109", "@spider": "mcdonalds_be", "addr:street_address": "Sportlaan", "addr:city": "Bree", "addr:postcode": "3960", "addr:country": "BE", "name": "BREE (Drive)", "phone": "+3289821096", "website": "https://www.mcdonalds.be/en/restaurants/bree-drive", "brand": "McDonald\u2019s", "brand:wikidata": "Q38076"}, "geometry": {"type": "Point", "coordinates": [5.589655, 51.15021]}},
{"type": "Feature", "id": "cs6yApRVCI29dRafKWSWKD6p234=", "properties": {"ref": "76", "@spider": "mcdonalds_be", "addr:street_address": "Steenstraat", "addr:city": "Brugge", "addr:postcode": "8000", "addr:country": "BE", "name": "BRUGGE IS", "phone": "050 34 28 80 ", "website": "https://www.mcdonalds.be/en/restaurants/brugge-is", "brand": "McDonald\u2019s", "brand:wikidata": "Q38076"}, "geometry": {"type": "Point", "coordinates": [3.222846, 51.207395]}},
{"type": "Feature", "id": "hlra9frHP-1qdN_A5gSUoHdLq3M=", "properties": {"ref": "97", "@spider": "mcdonalds_be", "addr:street_address": "Vooruitgangstraat", "addr:city": "Brussel", "addr:postcode": "1030", "addr:country": "BE", "name": "BRUSSEL NOORDSTATION (In-Store)", "phone": "02 648 77 87", "website": "https://www.mcdonalds.be/en/restaurants/brussel-noordstation-in-store", "brand": "McDonald\u2019s", "brand:wikidata": "Q38076"}, "geometry": {"type": "Point", "coordinates": [4.360618, 50.860516]}},
{"type": "Feature", "id": "HdQtEGor02-Zw1muKMsOWDnkbfQ=", "properties": {"ref": "11", "@spider": "mcdonalds_be", "addr:street_address": "Rue Neuve", "addr:city": "Bruxelles Rue Neuve", "addr:postcode": "1000", "addr:country": "BE", "name": "BRUXELLES/BRUSSEL (In-Store)", "phone": "02 219 11 67", "website": "https://www.mcdonalds.be/en/restaurants/bruxelles-brussel-in-store", "brand": "McDonald\u2019s", "brand:wikidata": "Q38076"}, "geometry": {"type": "Point", "coordinates": [4.357399, 50.854381]}},
{"type": "Feature", "id": "Uh-gsHTt6N0uD-IiR2znMga729s=", "properties": {"ref": "13", "@spider": "mcdonalds_be", "addr:street_address": "Pastoor Coplaan", "addr:city": "Burcht", "addr:postcode": "2070", "addr:country": "BE", "name": "BURCHT (Drive)", "phone": "03 773 46 48", "website": "https://www.mcdonalds.be/en/restaurants/burcht-drive", "brand": "McDonald\u2019s", "brand:wikidata": "Q38076"}, "geometry": {"type": "Point", "coordinates": [4.338491, 51.207943]}},
{"type": "Feature", "id": "lyNW4-caPVgAv6n1WaglaLYo7yw=", "properties": {"ref": "74", "@spider": "mcdonalds_be", "addr:street_address": "Grand'Rue", "addr:city": "Charleroi", "addr:postcode": "6000", "addr:country": "BE", "name": "CHARLEROI (Drive)", "phone": "071 41 02 22", "website": "https://www.mcdonalds.be/en/restaurants/charleroi-drive", "brand": "McDonald\u2019s", "brand:wikidata": "Q38076"}, "geometry": {"type": "Point", "coordinates": [4.453062, 50.418128]}},
{"type": "Feature", "id": "DYf1bWxGHUMX4JsQ7Ln_deos6Yw=", "properties": {"ref": "85", "@spider": "mcdonalds_be", "addr:street_address": "Grand Route", "addr:city": "Corbais", "addr:postcode": "1435", "addr:country": "BE", "name": "CORBAIS (Drive)", "phone": "010 65 67 00 ", "website": "https://www.mcdonalds.be/en/restaurants/corbais-drive", "brand": "McDonald\u2019s", "brand:wikidata": "Q38076"}, "geometry": {"type": "Point", "coordinates": [4.649239, 50.640019]}},
{"type": "Feature", "id": "GLExVR4MhFs6N_4h1yugcm3d8Jc=", "properties": {"ref": "90", "@spider": "mcdonalds_be", "addr:street_address": "Rue de Trazegnies", "addr:city": "Courcelles", "addr:postcode": "6180", "addr:country": "BE", "name": "COURCELLES (Drive)", "phone": "071 36 65 00", "website": "https://www.mcdonalds.be/en/restaurants/courcelles-drive", "brand": "McDonald\u2019s", "brand:wikidata": "Q38076"}, "geometry": {"type": "Point", "coordinates": [4.352981, 50.462984]}},
{"type": "Feature", "id": "Sb7vf0HXZEzR3QOK7jLuIo9nzhU=", "properties": {"ref": "88", "@spider": "mcdonalds_be", "addr:street_address": "Chemin du Try-Ch\u00e2lons ", "addr:city": "Couvin", "addr:postcode": "5660", "addr:country": "BE", "name": "COUVIN (Drive)", "phone": "060 34 49 40", "website": "https://www.mcdonalds.be/en/restaurants/couvin-drive", "brand": "McDonald\u2019s", "brand:wikidata": "Q38076"}, "geometry": {"type": "Point", "coordinates": [4.493505, 50.059257]}},
{"type": "Feature", "id": "gIPeUTSCxOgUSektlh6JkoLMqmc=", "properties": {"ref": "106", "@spider": "mcdonalds_be", "addr:street_address": "Gentsesteenweg", "addr:city": "Deinze", "addr:postcode": "9800", "addr:country": "BE", "name": "DEINZE (Drive)", "phone": "09 251 69 96", "website": "https://www.mcdonalds.be/en/restaurants/deinze-drive", "brand": "McDonald\u2019s", "brand:wikidata": "Q38076"}, "geometry": {"type": "Point", "coordinates": [3.543817, 50.980495]}},
{"type": "Feature", "id": "YT3heNBn-IDqq9mD6KaTHyyFKvA=", "properties": {"ref": "15", "@spider": "mcdonalds_be", "addr:street_address": "Mechelse Steenweg", "addr:city": "Dendermonde", "addr:postcode": "9200", "addr:country": "BE", "name": "DENDERMONDE (Drive)", "phone": "052 20 23 23", "website": "https://www.mcdonalds.be/en/restaurants/dendermonde-drive", "brand": "McDonald\u2019s", "brand:wikidata": "Q38076"}, "geometry": {"type": "Point", "coordinates": [4.114897, 51.035179]}},
{"type": "Feature", "id": "N-iylPt2Jx7P9xevH0z5m16xMoM=", "properties": {"ref": "16", "@spider": "mcdonalds_be", "addr:street_address": "Leuvensesteenweg", "addr:city": "Diest", "addr:postcode": "3290", "addr:country": "BE", "name": "DIEST (Drive)", "phone": "013 32 60 92", "website": "https://www.mcdonalds.be/en/restaurants/diest-drive", "brand": "McDonald\u2019s", "brand:wikidata": "Q38076"}, "geometry": {"type": "Point", "coordinates": [5.043604, 50.97652]}},
{"type": "Feature", "id": "OL9cbIS3cSxUfivKM8W3iu1DVUI=", "properties": {"ref": "82", "@spider": "mcdonalds_be", "addr:street_address": "Avenue Lambermont", "addr:city": "Bruxelles", "addr:postcode": "1030", "addr:country": "BE", "name": "DOCKS (Mall)", "phone": "02 215 85 00 ", "website": "https://www.mcdonalds.be/en/restaurants/docks-mall", "brand": "McDonald\u2019s", "brand:wikidata": "Q38076"}, "geometry": {"type": "Point", "coordinates": [4.374294, 50.879616]}},
{"type": "Feature", "id": "_LtSpnqylVFU1UsGitV2IRgvY9U=", "properties": {"ref": "92", "@spider": "mcdonalds_be", "addr:street_address": "Rue de la Grande Veine", "addr:city": "Dour", "addr:postcode": "7370", "addr:country": "BE", "name": "DOUR (drive)", "phone": "065 62 15 51 ", "website": "https://www.mcdonalds.be/en/restaurants/dour-drive", "brand": "McDonald\u2019s", "brand:wikidata": "Q38076"}, "geometry": {"type": "Point", "coordinates": [3.765911, 50.397861]}},
{"type": "Feature", "id": "ti6ioG6RUVySd2zuLaFZ3cR754Y=", "properties": {"ref": "99", "@spider": "mcdonalds_be", "addr:street_address": "Savaanstraat", "addr:city": "Eke", "addr:postcode": "9810", "addr:country": "BE", "name": "EKE (Drive)", "phone": "09 227 93 81", "website": "https://www.mcdonalds.be/en/restaurants/eke-drive", "brand": "McDonald\u2019s", "brand:wikidata": "Q38076"}, "geometry": {"type": "Point", "coordinates": [3.663668, 50.979614]}},
{"type": "Feature", "id": "Lg1tYWLUmitNf9S_uR5SC6M-oc8=", "properties": {"ref": "86", "@spider": "mcdonalds_be", "addr:street_address": "Rue de Merbes", "addr:city": "Erquelinnes", "addr:postcode": "6560", "addr:country": "BE", "name": "ERQUELINNES (Drive)", "phone": "071 41 47 33", "website": "https://www.mcdonalds.be/en/restaurants/erquelinnes-drive", "brand": "McDonald\u2019s", "brand:wikidata": "Q38076"}, "geometry": {"type": "Point", "coordinates": [4.13691, 50.311785]}},
{"type": "Feature", "id": "JKRoD6YPWBzUKA5LC_tfyHSH3Cw=", "properties": {"ref": "17", "@spider": "mcdonalds_be", "addr:street_address": "Herbesthalerstrasse", "addr:city": "Eupen", "addr:postcode": "4700", "addr:country": "BE", "name": "EUPEN (Drive)", "phone": "087 56 03 53", "website": "https://www.mcdonalds.be/en/restaurants/eupen-drive", "brand": "McDonald\u2019s", "brand:wikidata": "Q38076"}, "geometry": {"type": "Point", "coordinates": [6.0168, 50.638726]}},
{"type": "Feature", "id": "N3GLkdQVK2tRbTOfbuSxIUqWibA=", "properties": {"ref": "18", "@spider": "mcdonalds_be", "addr:street_address": "Rue de la Clef", "addr:city": "Fleron", "addr:postcode": "4620", "addr:country": "BE", "name": "FLERON (Drive)", "phone": "043 60 97 47", "website": "https://www.mcdonalds.be/en/restaurants/fleron-drive", "brand": "McDonald\u2019s", "brand:wikidata": "Q38076"}, "geometry": {"type": "Point", "coordinates": [5.695229, 50.617194]}},
{"type": "Feature", "id": "Wgk13dB-Tvx4Bl3SaFMRedbBbtU=", "properties": {"ref": "19", "@spider": "mcdonalds_be", "addr:street_address": "Rue de Maire", "addr:city": "Froyennes", "addr:postcode": "7503", "addr:country": "BE", "name": "FROYENNES (Drive)", "phone": "069 76 80 08", "website": "https://www.mcdonalds.be/en/restaurants/froyennes-drive", "brand": "McDonald\u2019s", "brand:wikidata": "Q38076"}, "geometry": {"type": "Point", "coordinates": [3.368741, 50.625112]}},
{"type": "Feature", "id": "OMJXmhJwh5hXvp2Bhy4TgmTCtiI=", "properties": {"ref": "20", "@spider": "mcdonalds_be", "addr:street_address": "Antwerpseweg", "addr:city": "Geel", "addr:postcode": "2440", "addr:country": "BE", "name": "GEEL (Drive)", "phone": "014 59 24 54", "website": "https://www.mcdonalds.be/en/restaurants/geel-drive", "brand": "McDonald\u2019s", "brand:wikidata": "Q38076"}, "geometry": {"type": "Point", "coordinates": [4.948773, 51.14351]}},
{"type": "Feature", "id": "VDdvaKWxVMY2aRGIo7aepZRZewE=", "properties": {"ref": "84", "@spider": "mcdonalds_be", "addr:street_address": "Hasseltweg", "addr:city": "Genk", "addr:postcode": "3600", "addr:country": "BE", "name": "GENK (Drive)", "phone": "089 50 24 80", "website": "https://www.mcdonalds.be/en/restaurants/genk-drive", "brand": "McDonald\u2019s", "brand:wikidata": "Q38076"}, "geometry": {"type": "Point", "coordinates": [5.470992, 50.963506]}},
{"type": "Feature", "id": "Le4qdIo_3zDlAPfdVfnJd5vDte8=", "properties": {"ref": "21", "@spider": "mcdonalds_be", "addr:street_address": "St. Michielshelling - Korenmarkt", "addr:city": "Gand Korenmarkt", "addr:postcode": "9000", "addr:country": "BE", "name": "GENT (In-Store)", "phone": "09 223 24 20", "website": "https://www.mcdonalds.be/en/restaurants/gent-in-store", "brand": "McDonald\u2019s", "brand:wikidata": "Q38076"}, "geometry": {"type": "Point", "coordinates": [3.721874, 51.05368]}},
{"type": "Feature", "id": "KW2kWYlYmURybu4yEJrwOiYX5VM=", "properties": {"ref": "22", "@spider": "mcdonalds_be", "addr:street_address": "Martelaarslaan", "addr:city": "Gand Martelaarslaan", "addr:postcode": "9000", "addr:country": "BE", "name": "GENT Martelaren ( Drive)", "phone": "09 234 14 67", "website": "https://www.mcdonalds.be/en/restaurants/gent-martelaren-drive", "brand": "McDonald\u2019s", "brand:wikidata": "Q38076"}, "geometry": {"type": "Point", "coordinates": [3.7104, 51.046845]}},
{"type": "Feature", "id": "TWFzPBE5zqzCGAMZgDHJ5I4EUBo=", "properties": {"ref": "23", "@spider": "mcdonalds_be", "addr:street_address": "Rue Tahon", "addr:city": "Gosselies", "addr:postcode": "6041", "addr:country": "BE", "name": "GOSSELIES (Drive)", "phone": "071 35 53 76", "website": "https://www.mcdonalds.be/en/restaurants/gosselies-drive", "brand": "McDonald\u2019s", "brand:wikidata": "Q38076"}, "geometry": {"type": "Point", "coordinates": [4.436511, 50.460362]}},
{"type": "Feature", "id": "58fUsNKDlDcqWJnDFEIeifaq_eY=", "properties": {"ref": "77", "@spider": "mcdonalds_be", "addr:street_address": "Robert Dansaertlaan", "addr:city": "Groot-Bijgaarden", "addr:postcode": "1702", "addr:country": "BE", "name": "GROOT-BIJGAARDEN (DRIVE)", "phone": "02 466 80 01", "website": "https://www.mcdonalds.be/en/restaurants/groot-bijgaarden-drive", "brand": "McDonald\u2019s", "brand:wikidata": "Q38076"}, "geometry": {"type": "Point", "coordinates": [4.27372, 50.866521]}},
{"type": "Feature", "id": "gMvs75iLgP7Ps7q5BQi_KePs_Xs=", "properties": {"ref": "24", "@spider": "mcdonalds_be", "addr:street_address": "De Maeghtlaan", "addr:city": "Halle", "addr:postcode": "1500", "addr:country": "BE", "name": "HALLE (Drive)", "phone": "02 356 99 08", "website": "https://www.mcdonalds.be/en/restaurants/halle-drive", "brand": "McDonald\u2019s", "brand:wikidata": "Q38076"}, "geometry": {"type": "Point", "coordinates": [4.230877, 50.736696]}},
{"type": "Feature", "id": "P56xFJ88riB6QFxZ_3ecQGbblyU=", "properties": {"ref": "91", "@spider": "mcdonalds_be", "addr:street_address": "Rue de Landen", "addr:city": "Hannut", "addr:postcode": "4280", "addr:country": "BE", "name": "HANNUT (Drive)", "phone": "019 63 68 00", "website": "https://www.mcdonalds.be/en/restaurants/hannut-drive", "brand": "McDonald\u2019s", "brand:wikidata": "Q38076"}, "geometry": {"type": "Point", "coordinates": [5.081781, 50.680609]}},
{"type": "Feature", "id": "gbwPjOhq7myzJ1dtujW5R6_rfxo=", "properties": {"ref": "25", "@spider": "mcdonalds_be", "addr:street_address": "Schampbergstraat", "addr:city": "Hasselt", "addr:postcode": "3511", "addr:country": "BE", "name": "HASSELT (Drive)", "phone": "011 87 33 88", "website": "https://www.mcdonalds.be/en/restaurants/hasselt-drive", "brand": "McDonald\u2019s", "brand:wikidata": "Q38076"}, "geometry": {"type": "Point", "coordinates": [5.30187, 50.938777]}},
{"type": "Feature", "id": "vsuh8sAPjFSTXdnzDR9pKI-_O0w=", "properties": {"ref": "105", "@spider": "mcdonalds_be", "addr:street_address": "Koning Albertstraat", "addr:city": "Hasselt", "addr:postcode": "3500", "addr:country": "BE", "name": "HASSELT (In-Store)", "phone": "011432246", "website": "https://www.mcdonalds.be/en/restaurants/opening-soon-hasselt-in-store", "brand": "McDonald\u2019s", "brand:wikidata": "Q38076"}, "geometry": {"type": "Point", "coordinates": [5.336635, 50.927488]}},
{"type": "Feature", "id": "9Up40sw7Lh5pgfVebpXXZ_SNDZ0=", "properties": {"ref": "26", "@spider": "mcdonalds_be", "addr:street_address": "Augustijnenlaan", "addr:city": "Herentals", "addr:postcode": "2200", "addr:country": "BE", "name": "HERENTALS (Drive)", "phone": "014 22 51 91", "website": "https://www.mcdonalds.be/en/restaurants/herentals-drive", "brand": "McDonald\u2019s", "brand:wikidata": "Q38076"}, "geometry": {"type": "Point", "coordinates": [4.84982, 51.177618]}},
{"type": "Feature", "id": "NR9Joa8066F2Lb7ryiygo0E31Lo=", "properties": {"ref": "108", "@spider": "mcdonalds_be", "addr:street_address": "Rue Basse Campagne", "addr:city": "Herstal", "addr:postcode": "4040", "addr:country": "BE", "name": "HERSTAL (Drive)", "phone": "+3243251797", "website": "https://www.mcdonalds.be/en/restaurants/herstal-drive", "brand": "McDonald\u2019s", "brand:wikidata": "Q38076"}, "geometry": {"type": "Point", "coordinates": [5.643996, 50.686679]}},
{"type": "Feature", "id": "muEkznDBPDEhFpvxnowEPTVbI50=", "properties": {"ref": "27", "@spider": "mcdonalds_be", "addr:street_address": "Grote Baan", "addr:city": "Houthalen", "addr:postcode": "3530", "addr:country": "BE", "name": "HOUTHALEN (Drive)", "phone": "011 60 33 74", "website": "https://www.mcdonalds.be/en/restaurants/houthalen-drive", "brand": "McDonald\u2019s", "brand:wikidata": "Q38076"}, "geometry": {"type": "Point", "coordinates": [5.375362, 51.024473]}},
{"type": "Feature", "id": "hO2LD1qvPbI4dUbJPOlJzJpRyzI=", "properties": {"ref": "28", "@spider": "mcdonalds_be", "addr:street_address": "Chauss\u00e9e d'Ixelles", "addr:city": "Bruxelles Chauss\u00e9e d'Ixelles", "addr:postcode": "1050", "addr:country": "BE", "name": "IXELLES (In-Store)", "phone": "02 513 51 93", "website": "https://www.mcdonalds.be/en/restaurants/ixelles-in-store", "brand": "McDonald\u2019s", "brand:wikidata": "Q38076"}, "geometry": {"type": "Point", "coordinates": [4.36195, 50.837371]}},
{"type": "Feature", "id": "dNd4_lrsX8YX1vVBwAkx12XRLYo=", "properties": {"ref": "29", "@spider": "mcdonalds_be", "addr:street_address": "Rue Renkin Sualem", "addr:city": "Jemeppe", "addr:postcode": "4101", "addr:country": "BE", "name": "JEMEPPE (Drive)", "phone": "04 235 79 79", "website": "https://www.mcdonalds.be/en/restaurants/jemeppe-drive", "brand": "McDonald\u2019s", "brand:wikidata": "Q38076"}, "geometry": {"type": "Point", "coordinates": [5.496554, 50.61986]}},
{"type": "Feature", "id": "aGe2ITuAEu4fGZMt4yBHlv0ntvo=", "properties": {"ref": "102", "@spider": "mcdonalds_be", "addr:street_address": "Chauss\u00e9e de Hannut", "addr:city": "Jodoigne", "addr:postcode": "1370", "addr:country": "BE", "name": "JODOIGNE (Drive)", "phone": "010 61 33 09", "website": "https://www.mcdonalds.be/en/restaurants/jodoigne-drive", "brand": "McDonald\u2019s", "brand:wikidata": "Q38076"}, "geometry": {"type": "Point", "coordinates": [4.877815, 50.721581]}},
{"type": "Feature", "id": "FK8JxDYhGibR_PrtUmU0gUODICI=", "properties": {"ref": "30", "@spider": "mcdonalds_be", "addr:street_address": "Mechelsesteenweg", "addr:city": "Kampenhout", "addr:postcode": "1910", "addr:country": "BE", "name": "KAMPENHOUT (Drive)", "phone": "016 60 40 22", "website": "https://www.mcdonalds.be/en/restaurants/kampenhout-drive", "brand": "McDonald\u2019s", "brand:wikidata": "Q38076"}, "geometry": {"type": "Point", "coordinates": [4.586941, 50.959942]}},
{"type": "Feature", "id": "jbLqlrDSCcCJWLy8JshuFnR5zBE=", "properties": {"ref": "31", "@spider": "mcdonalds_be", "addr:street_address": "Nati\u00ebnlaan", "addr:city": "Knokke-Heist", "addr:postcode": "8300", "addr:country": "BE", "name": "KNOKKE-HEIST (Drive)", "phone": "050 62 49 58", "website": "https://www.mcdonalds.be/en/restaurants/knokke-heist-drive", "brand": "McDonald\u2019s", "brand:wikidata": "Q38076"}, "geometry": {"type": "Point", "coordinates": [3.305742, 51.31671]}},
{"type": "Feature", "id": "S8FyTAlNVLQmTDuT21o55HbG06s=", "properties": {"ref": "72", "@spider": "mcdonalds_be", "addr:street_address": "Robert Vandammestraat", "addr:city": "Koksijde", "addr:postcode": "8670", "addr:country": "BE", "name": "KOKSIJDE (Drive)", "phone": "058 51 48 03 ", "website": "https://www.mcdonalds.be/en/restaurants/koksijde-drive", "brand": "McDonald\u2019s", "brand:wikidata": "Q38076"}, "geometry": {"type": "Point", "coordinates": [2.631165, 51.099705]}},
{"type": "Feature", "id": "FBs00xnUHLOCyyt4lsZq2uT54dU=", "properties": {"ref": "32", "@spider": "mcdonalds_be", "addr:street_address": "President Kennedylaan", "addr:city": "Courtrai", "addr:postcode": "8500", "addr:country": "BE", "name": "KORTRIJK (Kinepolis)", "phone": "056 32 69 11", "website": "https://www.mcdonalds.be/en/restaurants/kortrijk-kinepolis", "brand": "McDonald\u2019s", "brand:wikidata": "Q38076"}, "geometry": {"type": "Point", "coordinates": [3.275006, 50.805081]}},
{"type": "Feature", "id": "STb_dQ5TYJpleJ3y8H2ttGdG1ls=", "properties": {"ref": "33", "@spider": "mcdonalds_be", "addr:street_address": "Rue de la Franco Belge", "addr:city": "La Louvi\u00e8re", "addr:postcode": "7100", "addr:country": "BE", "name": "LA LOUVIERE (Drive)", "phone": "064 26 61 71", "website": "https://www.mcdonalds.be/en/restaurants/la-louviere-drive", "brand": "McDonald\u2019s", "brand:wikidata": "Q38076"}, "geometry": {"type": "Point", "coordinates": [4.200434, 50.486288]}},
{"type": "Feature", "id": "8VuF-U8Latk2RVzYMvNtO209sOA=", "properties": {"ref": "101", "@spider": "mcdonalds_be", "addr:street_address": "Tongersesteenweg", "addr:city": "Lanaken", "addr:postcode": "3620", "addr:country": "BE", "name": "LANAKEN (Drive)", "phone": "089 65 00 27", "website": "https://www.mcdonalds.be/en/restaurants/lanaken-drive", "brand": "McDonald\u2019s", "brand:wikidata": "Q38076"}, "geometry": {"type": "Point", "coordinates": [5.635545, 50.882691]}},
{"type": "Feature", "id": "r4OTrqX63K-5-v8h7IvFbL9BWwk=", "properties": {"ref": "34", "@spider": "mcdonalds_be", "addr:street_address": "Kortestraat", "addr:city": "Leuven", "addr:postcode": "3000", "addr:country": "BE", "name": "LEUVEN (In-Store)", "phone": "016 20 07 52", "website": "https://www.mcdonalds.be/en/restaurants/leuven-in-store", "brand": "McDonald\u2019s", "brand:wikidata": "Q38076"}, "geometry": {"type": "Point", "coordinates": [4.700215, 50.878835]}},
{"type": "Feature", "id": "3gGfkK-njxByQZyZ7Rg6_oz4JQ0=", "properties": {"ref": "107", "@spider": "mcdonalds_be", "addr:street_address": "Bondgenotenlaan", "addr:city": "Leuven", "addr:postcode": "3000", "addr:country": "BE", "name": "LEUVEN (In-Store)", "phone": "016140085", "website": "https://www.mcdonalds.be/en/restaurants/leuven-in-store", "brand": "McDonald\u2019s", "brand:wikidata": "Q38076"}, "geometry": {"type": "Point", "coordinates": [4.709645, 50.880125]}},
{"type": "Feature", "id": "IdeDWhRdxl8u-zCbau9CWBslHoI=", "properties": {"ref": "35", "@spider": "mcdonalds_be", "addr:street_address": "Place de la R\u00e9p. Fran\u00e7aise", "addr:city": "Li\u00e8ge", "addr:postcode": "4000", "addr:country": "BE", "name": "LIEGE (In-Store)", "phone": "04 222 33 02", "website": "https://www.mcdonalds.be/en/restaurants/liege-in-store", "brand": "McDonald\u2019s", "brand:wikidata": "Q38076"}, "geometry": {"type": "Point", "coordinates": [5.571933, 50.643125]}},
{"type": "Feature", "id": "qWYj6WmHAcwp2-RBZC0QGcZ5QIc=", "properties": {"ref": "110", "@spider": "mcdonalds_be", "addr:street_address": "Rue des Aulniats", "addr:city": "Lodelinsart", "addr:postcode": "6042", "addr:country": "BE", "name": "LODELINSART Makro (Drive)", "phone": "071183785", "website": "https://www.mcdonalds.be/en/restaurants/lodelinsart-makro-drive", "brand": "McDonald\u2019s", "brand:wikidata": "Q38076"}, "geometry": {"type": "Point", "coordinates": [4.435628, 50.42865]}},
{"type": "Feature", "id": "6afwD4bCzdCiZTrDmXj_Q9lcoU0=", "properties": {"ref": "36", "@spider": "mcdonalds_be", "addr:street_address": "Zelebaan", "addr:city": "Lokeren", "addr:postcode": "9160", "addr:country": "BE", "name": "LOKEREN (Drive)", "phone": "09 349 02 41", "website": "https://www.mcdonalds.be/en/restaurants/lokeren-drive", "brand": "McDonald\u2019s", "brand:wikidata": "Q38076"}, "geometry": {"type": "Point", "coordinates": [4.018581, 51.091195]}},
{"type": "Feature", "id": "WP1usvxEgy0XOlAzmtEuFtQziaU=", "properties": {"ref": "37", "@spider": "mcdonalds_be", "addr:street_address": "Buitensingel", "addr:city": "Lommel", "addr:postcode": "3920", "addr:country": "BE", "name": "LOMMEL (Drive)", "phone": "011 55 29 80", "website": "https://www.mcdonalds.be/en/restaurants/lommel-drive", "brand": "McDonald\u2019s", "brand:wikidata": "Q38076"}, "geometry": {"type": "Point", "coordinates": [5.314466, 51.221752]}},
{"type": "Feature", "id": "lIgDdvnkFvGu1f4HDXLTeM8UCYI=", "properties": {"ref": "38", "@spider": "mcdonalds_be", "addr:street_address": "Layensweg", "addr:city": "Maasmechelen", "addr:postcode": "3630", "addr:country": "BE", "name": "MAASMECHELEN (Drive)", "phone": "089 71 79 70", "website": "https://www.mcdonalds.be/en/restaurants/maasmechelen-drive", "brand": "McDonald\u2019s", "brand:wikidata": "Q38076"}, "geometry": {"type": "Point", "coordinates": [5.701647, 50.984975]}},
{"type": "Feature", "id": "yviW3Au7oTtoPYGgRNE2yM7oQUw=", "properties": {"ref": "98", "@spider": "mcdonalds_be", "addr:street_address": "Kerklaan", "addr:city": "Machelen", "addr:postcode": "1830", "addr:country": "BE", "name": "MACHELEN (Drive)", "phone": "02 267 11 79", "website": "https://www.mcdonalds.be/en/restaurants/machelen-drive", "brand": "McDonald\u2019s", "brand:wikidata": "Q38076"}, "geometry": {"type": "Point", "coordinates": [4.430698, 50.913507]}},
{"type": "Feature", "id": "Re5vyG_8khjrsEfqYMJPj9q6gkc=", "properties": {"ref": "39", "@spider": "mcdonalds_be", "addr:street_address": "Koning Leopold Laan", "addr:city": "Maldegem", "addr:postcode": "9990", "addr:country": "BE", "name": "MALDEGEM (Drive)", "phone": "050 71 99 78", "website": "https://www.mcdonalds.be/en/restaurants/maldegem-drive", "brand": "McDonald\u2019s", "brand:wikidata": "Q38076"}, "geometry": {"type": "Point", "coordinates": [3.451544, 51.203878]}},
{"type": "Feature", "id": "N21L11cFWG2rhJCRbtUErG2gkI4=", "properties": {"ref": "64", "@spider": "mcdonalds_be", "addr:street_address": "Chauss\u00e9e De Li\u00ebge", "addr:city": "Marche-en-Famenne", "addr:postcode": "6900", "addr:country": "BE", "name": "MARCHE-EN FAMENNE (Drive)", "phone": "084 37 76 58", "website": "https://www.mcdonalds.be/en/restaurants/marche-en-famenne-drive", "brand": "McDonald\u2019s", "brand:wikidata": "Q38076"}, "geometry": {"type": "Point", "coordinates": [5.344736, 50.234117]}},
{"type": "Feature", "id": "PfBY0oUEDpMbkYFM7DTibyvLCHI=", "properties": {"ref": "40", "@spider": "mcdonalds_be", "addr:street_address": "Route de Philippeville", "addr:city": "Marcinelle", "addr:postcode": "6001", "addr:country": "BE", "name": "MARCINELLE (Drive)", "phone": "071 47 31 16", "website": "https://www.mcdonalds.be/en/restaurants/marcinelle-drive", "brand": "McDonald\u2019s", "brand:wikidata": "Q38076"}, "geometry": {"type": "Point", "coordinates": [4.453585, 50.397376]}},
{"type": "Feature", "id": "cqY2z8yh-Q-dbTqoN35tW2hLPQo=", "properties": {"ref": "41", "@spider": "mcdonalds_be", "addr:street_address": "Guido Gezellelaan", "addr:city": "Mechelen", "addr:postcode": "2800", "addr:country": "BE", "name": "MECHELEN (Drive)", "phone": "015 33 97 01", "website": "https://www.mcdonalds.be/en/restaurants/mechelen-drive", "brand": "McDonald\u2019s", "brand:wikidata": "Q38076"}, "geometry": {"type": "Point", "coordinates": [4.472301, 51.03361]}},
{"type": "Feature", "id": "WtZr4oeu8ZER9ZCJhXK7GUdcLGo=", "properties": {"ref": "9", "@spider": "mcdonalds_be", "addr:street_address": "Bredabaan", "addr:city": "Merksem Bredabaan", "addr:postcode": "2170", "addr:country": "BE", "name": "MERKSEM BREDABAAN (Drive)", "phone": "03 644 03 34", "website": "https://www.mcdonalds.be/en/restaurants/merksem-bredabaan-drive", "brand": "McDonald\u2019s", "brand:wikidata": "Q38076"}, "geometry": {"type": "Point", "coordinates": [4.462415, 51.265956]}},
{"type": "Feature", "id": "y4rgHR4hmOqAdQtAWHTgKyYdS0M=", "properties": {"ref": "42", "@spider": "mcdonalds_be", "addr:street_address": "Lambrechtshoekenlaan", "addr:city": "Merksem Centre", "addr:postcode": "2170", "addr:country": "BE", "name": "MERKSEM I (Drive)", "phone": "03 644 28 44", "website": "https://www.mcdonalds.be/en/restaurants/merksem-i-drive", "brand": "McDonald\u2019s", "brand:wikidata": "Q38076"}, "geometry": {"type": "Point", "coordinates": [4.429175, 51.244501]}},
{"type": "Feature", "id": "ptMdt8LgNHTfSvs9WlqtjvwiZyw=", "properties": {"ref": "43", "@spider": "mcdonalds_be", "addr:street_address": "Route d'Arlon", "addr:city": "Messancy", "addr:postcode": "6780", "addr:country": "BE", "name": "MESSANCY (Drive)", "phone": "063 38 44 85", "website": "https://www.mcdonalds.be/en/restaurants/messancy-drive", "brand": "McDonald\u2019s", "brand:wikidata": "Q38076"}, "geometry": {"type": "Point", "coordinates": [5.811844, 49.614649]}},
{"type": "Feature", "id": "S7jayP_Jv-u2i-QzCpdxpHxsxF0=", "properties": {"ref": "78", "@spider": "mcdonalds_be", "addr:street_address": "Kruisven", "addr:city": "Mol", "addr:postcode": "2400", "addr:country": "BE", "name": "MOL (Drive)", "phone": "014 32 07 85", "website": "https://www.mcdonalds.be/en/restaurants/mol-drive", "brand": "McDonald\u2019s", "brand:wikidata": "Q38076"}, "geometry": {"type": "Point", "coordinates": [5.124255, 51.178825]}},
{"type": "Feature", "id": "yIOpv60rejqR-hms_LLYHe7pMZg=", "properties": {"ref": "44", "@spider": "mcdonalds_be", "addr:street_address": "Grand Place", "addr:city": "Mons Centre", "addr:postcode": "7000", "addr:country": "BE", "name": "MONS (In-Store)", "phone": "065 33 47 37", "website": "https://www.mcdonalds.be/en/restaurants/mons-in-store", "brand": "McDonald\u2019s", "brand:wikidata": "Q38076"}, "geometry": {"type": "Point", "coordinates": [3.952272, 50.453812]}},
{"type": "Feature", "id": "KvUVFT0wwc1PtuK73RU6rIwskjU=", "properties": {"ref": "81", "@spider": "mcdonalds_be", "addr:street_address": "Centre Commercial Les Grands Pr\u00e9s, Place des Grands Pr\u00e9s", "addr:city": "Mons Grand Pr\u00e8s", "addr:postcode": "7000", "addr:country": "BE", "name": "MONS GRAND PRES (In-Store)", "phone": "065 72 37 88", "website": "https://www.mcdonalds.be/en/restaurants/mons-grand-pres-in-store", "brand": "McDonald\u2019s", "brand:wikidata": "Q38076"}, "geometry": {"type": "Point", "coordinates": [3.934149, 50.456928]}},
{"type": "Feature", "id": "CuvECNvGbl_WjcQWiKY4NMpzAf8=", "properties": {"ref": "45", "@spider": "mcdonalds_be", "addr:street_address": "Rue (Raymond) Beaucarne", "addr:city": "Mouscron", "addr:postcode": "7700", "addr:country": "BE", "name": "MOUSCRON (Drive)", "phone": "056 33 14 52", "website": "https://www.mcdonalds.be/en/restaurants/mouscron-drive", "brand": "McDonald\u2019s", "brand:wikidata": "Q38076"}, "geometry": {"type": "Point", "coordinates": [3.237158, 50.744541]}},
{"type": "Feature", "id": "ZClNGDBKFDZu8BU1ShnnGOw468c=", "properties": {"ref": "46", "@spider": "mcdonalds_be", "addr:street_address": "Avenue de la Gare", "addr:city": "Namur", "addr:postcode": "5000", "addr:country": "BE", "name": "NAMUR (In-Store)", "phone": "081 23 08 72", "website": "https://www.mcdonalds.be/en/restaurants/namur-in-store", "brand": "McDonald\u2019s", "brand:wikidata": "Q38076"}, "geometry": {"type": "Point", "coordinates": [4.86443, 50.468009]}},
{"type": "Feature", "id": "GmKxIRNNAdo7GaNFK-VnNVL1KYM=", "properties": {"ref": "47", "@spider": "mcdonalds_be", "addr:street_address": "Brakelsesteenweg", "addr:city": "Ninove", "addr:postcode": "9400", "addr:country": "BE", "name": "NINOVE  (Drive)", "phone": "054 33 32 81", "website": "https://www.mcdonalds.be/en/restaurants/ninove-drive", "brand": "McDonald\u2019s", "brand:wikidata": "Q38076"}, "geometry": {"type": "Point", "coordinates": [4.006878, 50.83671]}},
{"type": "Feature", "id": "TMDCzc0-dafHdin58tN7C-MVjgk=", "properties": {"ref": "87", "@spider": "mcdonalds_be", "addr:street_address": "Chauss\u00e9e de Namur ", "addr:city": "Nivelles", "addr:postcode": "1400", "addr:country": "BE", "name": "NIVELLES (Drive)", "phone": "067 21 13 80", "website": "https://www.mcdonalds.be/en/restaurants/nivelles-drive", "brand": "McDonald\u2019s", "brand:wikidata": "Q38076"}, "geometry": {"type": "Point", "coordinates": [4.357749, 50.597531]}},
{"type": "Feature", "id": "xz6kiZpnzpXu5nibyXDuAmLIaxk=", "properties": {"ref": "96", "@spider": "mcdonalds_be", "addr:street_address": "Vlaanderenstraat", "addr:city": "Oostende", "addr:postcode": "8400", "addr:country": "BE", "name": "OOSTENDE (In-Store)", "phone": "059 25 17 72", "website": "https://www.mcdonalds.be/en/restaurants/oostende-in-store", "brand": "McDonald\u2019s", "brand:wikidata": "Q38076"}, "geometry": {"type": "Point", "coordinates": [2.916802, 51.232444]}},
{"type": "Feature", "id": "FCHoluwdZQKy3W1kNwHbPC338Nc=", "properties": {"ref": "49", "@spider": "mcdonalds_be", "addr:street_address": "Torhoutsesteenweg", "addr:city": "Oostende Torhoutsesteenweg", "addr:postcode": "8400", "addr:country": "BE", "name": "OOSTENDE II (Drive)", "phone": "059 50 01 09", "website": "https://www.mcdonalds.be/en/restaurants/oostende-ii-drive", "brand": "McDonald\u2019s", "brand:wikidata": "Q38076"}, "geometry": {"type": "Point", "coordinates": [2.904649, 51.206073]}},
{"type": "Feature", "id": "MLk_2li9GbbkHpfCNZMVl_7ITUQ=", "properties": {"ref": "112", "@spider": "mcdonalds_be", "addr:street_address": "Rue des Orchid\u00e9es 1 (Chauss\u00e9e de Tirlemont)", "addr:city": "Gembloux", "addr:postcode": "5030", "addr:country": "BE", "name": "Opening Soon : GEMBLOUX (Drive)", "phone": "02/716 04 80", "website": "https://www.mcdonalds.be/en/restaurants/opening-soon-gembloux-drive", "brand": "McDonald\u2019s", "brand:wikidata": "Q38076"}, "geometry": {"type": "Point", "coordinates": [4.703113, 50.575467]}},
{"type": "Feature", "id": "MiOYOcKOvlyYY8qEm7SMQEumM0g=", "properties": {"ref": "114", "@spider": "mcdonalds_be", "addr:street_address": "Staatsbaan", "addr:city": "Halen", "addr:postcode": "3545", "addr:country": "BE", "name": "OPENING SOON : HALEN (Drive)", "phone": "+3227160480", "website": "https://www.mcdonalds.be/en/restaurants/opening-soon-halen-drive", "brand": "McDonald\u2019s", "brand:wikidata": "Q38076"}, "geometry": {"type": "Point", "coordinates": [5.082884, 50.962227]}},
{"type": "Feature", "id": "zWPgRKnAWJtgul6xm32LZr0q8V0=", "properties": {"ref": "113", "@spider": "mcdonalds_be", "addr:street_address": "Aarschotsesteenweg", "addr:city": "Lier", "addr:postcode": "2500", "addr:country": "BE", "name": "OPENING SOON : LIER (Drive)", "phone": "+3227160480", "website": "https://www.mcdonalds.be/en/restaurants/opening-soon-lier-drive", "brand": "McDonald\u2019s", "brand:wikidata": "Q38076"}, "geometry": {"type": "Point", "coordinates": [4.576321, 51.124009]}},
{"type": "Feature", "id": "nlnmiUdMY51aw5Zetk5Q53aaj7o=", "properties": {"ref": "115", "@spider": "mcdonalds_be", "addr:street_address": "Chauss\u00e9e de Tubize", "addr:city": "Braine-Le-Chateau", "addr:postcode": "1440", "addr:country": "BE", "name": "Opening Soon : WAUTHIER-BRAINE (Drive)", "phone": "+3227160480", "website": "https://www.mcdonalds.be/en/restaurants/opening-soon-wauthier-braine-drive", "brand": "McDonald\u2019s", "brand:wikidata": "Q38076"}, "geometry": {"type": "Point", "coordinates": [4.302768, 50.685332]}},
{"type": "Feature", "id": "pJ-hUVQrO9zChm2klYigKQtMzXI=", "properties": {"ref": "50", "@spider": "mcdonalds_be", "addr:street_address": "Brusselsesteenweg", "addr:city": "Overijse", "addr:postcode": "3090", "addr:country": "BE", "name": "OVERIJSE (Drive)", "phone": "02 688 00 06", "website": "https://www.mcdonalds.be/en/restaurants/overijse-drive", "brand": "McDonald\u2019s", "brand:wikidata": "Q38076"}, "geometry": {"type": "Point", "coordinates": [4.500376, 50.786259]}},
{"type": "Feature", "id": "kaKKSe8CAc6lrMku14fdPrC4A2E=", "properties": {"ref": "51", "@spider": "mcdonalds_be", "addr:street_address": "Eikevlietbaan", "addr:city": "Puurs", "addr:postcode": "2870", "addr:country": "BE", "name": "PUURS (Drive)", "phone": "03 889 77 31", "website": "https://www.mcdonalds.be/en/restaurants/puurs-drive", "brand": "McDonald\u2019s", "brand:wikidata": "Q38076"}, "geometry": {"type": "Point", "coordinates": [4.288168, 51.081915]}},
{"type": "Feature", "id": "aTlFCgCQjiARjV0BSQAahyqtX4U=", "properties": {"ref": "52", "@spider": "mcdonalds_be", "addr:street_address": "Brugsesteenweg", "addr:city": "Roeselare", "addr:postcode": "8800", "addr:country": "BE", "name": "ROESELARE (Drive)", "phone": "051 24 28 45", "website": "https://www.mcdonalds.be/en/restaurants/roeselare-drive", "brand": "McDonald\u2019s", "brand:wikidata": "Q38076"}, "geometry": {"type": "Point", "coordinates": [3.119199, 50.971776]}},
{"type": "Feature", "id": "lXQ-wFIcZd3mB8K4ZBO0PLdazds=", "properties": {"ref": "70", "@spider": "mcdonalds_be", "addr:street_address": "C\u00e9sar Snoecklaan", "addr:city": "Renaix", "addr:postcode": "9600", "addr:country": "BE", "name": "RONSE/RENAIX", "phone": "055 21 65 77", "website": "https://www.mcdonalds.be/en/restaurants/ronse-renaix", "brand": "McDonald\u2019s", "brand:wikidata": "Q38076"}, "geometry": {"type": "Point", "coordinates": [3.585425, 50.747006]}},
{"type": "Feature", "id": "2lDBBQLA_QnHXK4LkPMdWHY2SQs=", "properties": {"ref": "89", "@spider": "mcdonalds_be", "addr:street_address": "Rue Bois Sainte-Marie", "addr:city": "Sambreville", "addr:postcode": "5060", "addr:country": "BE", "name": "SAMBREVILLE (Drive)", "phone": "071 52 08 81", "website": "https://www.mcdonalds.be/en/restaurants/sambreville-drive", "brand": "McDonald\u2019s", "brand:wikidata": "Q38076"}, "geometry": {"type": "Point", "coordinates": [4.644138, 50.448275]}},
{"type": "Feature", "id": "HkIpynTWyZKtxWRG4uWVHnHHd0A=", "properties": {"ref": "53", "@spider": "mcdonalds_be", "addr:street_address": "Heidebaan", "addr:city": "Sint-Niklaas", "addr:postcode": "9100", "addr:country": "BE", "name": "SINT-NIKLAAS (Drive)", "phone": "03 778 00 11", "website": "https://www.mcdonalds.be/en/restaurants/sint-niklaas-drive", "brand": "McDonald\u2019s", "brand:wikidata": "Q38076"}, "geometry": {"type": "Point", "coordinates": [4.190618, 51.177075]}},
{"type": "Feature", "id": "r6MlY1JYspqfjQ9GF2flR7eURbA=", "properties": {"ref": "54", "@spider": "mcdonalds_be", "addr:street_address": "Bergensesteenweg", "addr:city": "Sint-Pieters-Leeuw", "addr:postcode": "1600", "addr:country": "BE", "name": "SINT-PIETERS-LEEUW (Drive)", "phone": "02 376 10 71", "website": "https://www.mcdonalds.be/en/restaurants/sint-pieters-leeuw-drive", "brand": "McDonald\u2019s", "brand:wikidata": "Q38076"}, "geometry": {"type": "Point", "coordinates": [4.28925, 50.804869]}},
{"type": "Feature", "id": "UFiWyZ558E8Ysi6Ynz2c7neBRjw=", "properties": {"ref": "100", "@spider": "mcdonalds_be", "addr:street_address": "Bergensesteenweg", "addr:city": "Sint-Pieters-Leeuw", "addr:postcode": "1600", "addr:country": "BE", "name": "SINT-PIETERS-LEEUW Makro (Drive)", "phone": "+32 2 486 85 53", "website": "https://www.mcdonalds.be/en/restaurants/sint-pieters-leeuw-makro-drive", "brand": "McDonald\u2019s", "brand:wikidata": "Q38076"}, "geometry": {"type": "Point", "coordinates": [4.275834, 50.783603]}},
{"type": "Feature", "id": "Zt5XOH_qbZzBHFjfjzV2WMuXhtc=", "properties": {"ref": "104", "@spider": "mcdonalds_be", "addr:street_address": "Industrielaan", "addr:city": "Sint-Truiden", "addr:postcode": "3800", "addr:country": "BE", "name": "SINT-TRUIDEN (Drive)", "phone": "011351432", "website": "https://www.mcdonalds.be/en/restaurants/sint-truiden-drive", "brand": "McDonald\u2019s", "brand:wikidata": "Q38076"}, "geometry": {"type": "Point", "coordinates": [5.194526, 50.812683]}},
{"type": "Feature", "id": "Q5vB-J5Nuno0G1hQ4aCzMAPxpIk=", "properties": {"ref": "55", "@spider": "mcdonalds_be", "addr:street_address": "Rue de Steenkerque", "addr:city": "Soignies", "addr:postcode": "7060", "addr:country": "BE", "name": "SOIGNIES (Drive)", "phone": "067 34 06 85", "website": "https://www.mcdonalds.be/en/restaurants/soignies-drive", "brand": "McDonald\u2019s", "brand:wikidata": "Q38076"}, "geometry": {"type": "Point", "coordinates": [4.070728, 50.582891]}},
{"type": "Feature", "id": "THxv-rpqJzYafhi3hZLQpaBg2Uk=", "properties": {"ref": "56", "@spider": "mcdonalds_be", "addr:street_address": "Parklaan", "addr:city": "Turnhout", "addr:postcode": "2300", "addr:country": "BE", "name": "TURNHOUT (Drive)", "phone": "014 72 64 91", "website": "https://www.mcdonalds.be/en/restaurants/turnhout-drive", "brand": "McDonald\u2019s", "brand:wikidata": "Q38076"}, "geometry": {"type": "Point", "coordinates": [4.949146, 51.312194]}},
{"type": "Feature", "id": "JxqImAxc9QCQzL_bivPVXh4GX7M=", "properties": {"ref": "73", "@spider": "mcdonalds_be", "addr:street_address": "Rue de la Station", "addr:city": "Verviers", "addr:postcode": "4800", "addr:country": "BE", "name": "VERVIERS (Drive)", "phone": "087 68 16 25", "website": "https://www.mcdonalds.be/en/restaurants/verviers-drive", "brand": "McDonald\u2019s", "brand:wikidata": "Q38076"}, "geometry": {"type": "Point", "coordinates": [5.849397, 50.588926]}},
{"type": "Feature", "id": "5wdiESNMfurx2KZi7xLYtT8ZT8c=", "properties": {"ref": "75", "@spider": "mcdonalds_be", "addr:street_address": "Rue Hyacinthe Docquier", "addr:city": "Waremme", "addr:postcode": "4300", "addr:country": "BE", "name": "WAREMME (Drive)", "phone": "019 32 60 37", "website": "https://www.mcdonalds.be/en/restaurants/waremme-drive", "brand": "McDonald\u2019s", "brand:wikidata": "Q38076"}, "geometry": {"type": "Point", "coordinates": [5.276123, 50.695642]}},
{"type": "Feature", "id": "-EroxJvQbROciNTdu3c5zGvYK_4=", "properties": {"ref": "58", "@spider": "mcdonalds_be", "addr:street_address": "Rue Mouzin", "addr:city": "Wasmuel-Quaregnon", "addr:postcode": "7390", "addr:country": "BE", "name": "WASM\u00dcEL-QUAREGNON (Drive)", "phone": "065 79 42 78", "website": "https://www.mcdonalds.be/en/restaurants/wasmuel-quaregnon-drive", "brand": "McDonald\u2019s", "brand:wikidata": "Q38076"}, "geometry": {"type": "Point", "coordinates": [3.84821, 50.44109]}},
{"type": "Feature", "id": "4i_4z80EPzEbi0MM_CpR6hnUguM=", "properties": {"ref": "59", "@spider": "mcdonalds_be", "addr:street_address": "Chauss\u00e9e de Louvain", "addr:city": "Waterloo", "addr:postcode": "1410", "addr:country": "BE", "name": "WATERLOO  (Drive)", "phone": "02 385 05 48", "website": "https://www.mcdonalds.be/en/restaurants/waterloo-drive", "brand": "McDonald\u2019s", "brand:wikidata": "Q38076"}, "geometry": {"type": "Point", "coordinates": [4.408581, 50.689724]}},
{"type": "Feature", "id": "4ZOcnuZu6wYGhq5TcDmrlBTJKQE=", "properties": {"ref": "60", "@spider": "mcdonalds_be", "addr:street_address": "Brusselsesteenweg", "addr:city": "Wetteren", "addr:postcode": "9230", "addr:country": "BE", "name": "WETTEREN (Drive)", "phone": "09 366 48 95", "website": "https://www.mcdonalds.be/en/restaurants/wetteren-drive", "brand": "McDonald\u2019s", "brand:wikidata": "Q38076"}, "geometry": {"type": "Point", "coordinates": [3.845562, 50.983574]}},
{"type": "Feature", "id": "SdKErI1AAeNjC-JFV1XAR7RbA5s=", "properties": {"ref": "61", "@spider": "mcdonalds_be", "addr:street_address": "Turnhoutsebaan", "addr:city": "Wijnegem", "addr:postcode": "2110", "addr:country": "BE", "name": "WIJNEGEM (Mall)", "phone": "03 353 30 00", "website": "https://www.mcdonalds.be/en/restaurants/wijnegem-mall", "brand": "McDonald\u2019s", "brand:wikidata": "Q38076"}, "geometry": {"type": "Point", "coordinates": [4.50088, 51.222462]}},
{"type": "Feature", "id": "cGxzuoCspSoCSURPJfmm2J-Kt5A=", "properties": {"ref": "62", "@spider": "mcdonalds_be", "addr:street_address": "Waalbrugstraat", "addr:city": "Wondelgem", "addr:postcode": "9032", "addr:country": "BE", "name": "WONDELGEM (Drive)", "phone": "09 258 17 21", "website": "https://www.mcdonalds.be/en/restaurants/wondelgem-drive", "brand": "McDonald\u2019s", "brand:wikidata": "Q38076"}, "geometry": {"type": "Point", "coordinates": [3.713717, 51.101719]}},
{"type": "Feature", "id": "l20CHPvOiiUvkiqgCvAiT4iTeuE=", "properties": {"ref": "63", "@spider": "mcdonalds_be", "addr:street_address": "Kruishoutemsesteenweg", "addr:city": "Zingem", "addr:postcode": "9750", "addr:country": "BE", "name": "ZINGEM (Drive)", "phone": "09 384 78 35", "website": "https://www.mcdonalds.be/en/restaurants/zingem-drive", "brand": "McDonald\u2019s", "brand:wikidata": "Q38076"}, "geometry": {"type": "Point", "coordinates": [3.617614, 50.908867]}}]}