{"type":"FeatureCollection","features":[{"type": "Feature", "id": "DRcrhEmfW5sQ5mOJyixPFgLMdf8=", "properties": {"ref": "https://www.mcdonalds.at/restaurant/rivergate-handelskai-92-a-1200-wien", "@spider": "mcdonalds_at", "addr:country": "AT", "website": "https://www.mcdonalds.at/restaurant/rivergate-handelskai-92-a-1200-wien", "brand": "McDonald\u2019s", "brand:wikidata": "Q38076"}, "geometry": {"type": "Point", "coordinates": [16.3848133, 48.2425002]}},
{"type": "Feature", "id": "yUsfbFHfY0tGCBBkQ11vTXzW9qs=", "properties": {"ref": "https://www.mcdonalds.at/restaurant/pilgrambruecke-1-a-1050-wien", "@spider": "mcdonalds_at", "addr:country": "AT", "website": "https://www.mcdonalds.at/restaurant/pilgrambruecke-1-a-1050-wien", "brand": "McDonald\u2019s", "brand:wikidata": "Q38076"}, "geometry": {"type": "Point", "coordinates": [16.3545907, 48.1927822]}},
{"type": "Feature", "id": "4bWlRzE6dNT5kOCzxrKT9dPx96w=", "properties": {"ref": "https://www.mcdonalds.at/restaurant/arenaplatz-5-a-7210-mattersburg", "@spider": "mcdonalds_at", "addr:country": "AT", "website": "https://www.mcdonalds.at/restaurant/arenaplatz-5-a-7210-mattersburg", "brand": "McDonald\u2019s", "brand:wikidata": "Q38076"}, "geometry": {"type": "Point", "coordinates": [16.4196884, 47.7474514]}},
{"type": "Feature", "id": "M3fKcNX7QtfClFX2V739a_cXxEE=", "properties": {"ref": "https://www.mcdonalds.at/restaurant/raststation-a5-sued-a-2123-wolfpassing-an-der-hochleithen", "@spider": "mcdonalds_at", "addr:country": "AT", "website": "https://www.mcdonalds.at/restaurant/raststation-a5-sued-a-2123-wolfpassing-an-der-hochleithen", "brand": "McDonald\u2019s", "brand:wikidata": "Q38076"}, "geometry": {"type": "Point", "coordinates": [16.5508554, 48.4311534]}},
{"type": "Feature", "id": "7ZsnJFD5uODguEQxVrnh9UWncrA=", "properties": {"ref": "https://www.mcdonalds.at/restaurant/praterstern-bahnhof-nord-a-1020-wien", "@spider": "mcdonalds_at", "addr:country": "AT", "website": "https://www.mcdonalds.at/restaurant/praterstern-bahnhof-nord-a-1020-wien", "brand": "McDonald\u2019s", "brand:wikidata": "Q38076"}, "geometry": {"type": "Point", "coordinates": [16.392127, 48.2187834]}},
{"type": "Feature", "id": "Dqwp3Y30zKNjwIWQqvky1PnR5kI=", "properties": {"ref": "https://www.mcdonalds.at/restaurant/plueddemanngasse-62-a-8020-graz", "@spider": "mcdonalds_at", "addr:country": "AT", "website": "https://www.mcdonalds.at/restaurant/plueddemanngasse-62-a-8020-graz", "brand": "McDonald\u2019s", "brand:wikidata": "Q38076"}, "geometry": {"type": "Point", "coordinates": [15.4646349, 47.0639288]}},
{"type": "Feature", "id": "9xWKdUKYeA_JlAptI-5N93bRH9o=", "properties": {"ref": "https://www.mcdonalds.at/restaurant/hauptbahnhof-europaplatz-4-a-8020-graz", "@spider": "mcdonalds_at", "addr:country": "AT", "website": "https://www.mcdonalds.at/restaurant/hauptbahnhof-europaplatz-4-a-8020-graz", "brand": "McDonald\u2019s", "brand:wikidata": "Q38076"}, "geometry": {"type": "Point", "coordinates": [15.4162709, 47.0727515]}},
{"type": "Feature", "id": "kUtlODtGtAOz3PczTZMGzVRUI6M=", "properties": {"ref": "https://www.mcdonalds.at/restaurant/ennsling-160-a-8967-haus-im-ennstal", "@spider": "mcdonalds_at", "addr:country": "AT", "website": "https://www.mcdonalds.at/restaurant/ennsling-160-a-8967-haus-im-ennstal", "brand": "McDonald\u2019s", "brand:wikidata": "Q38076"}, "geometry": {"type": "Point", "coordinates": [13.7842469, 47.4123866]}},
{"type": "Feature", "id": "l_j8OETYNvtUxvtLRwZA6PXzu6M=", "properties": {"ref": "https://www.mcdonalds.at/restaurant/rosentaler-strasse-129-a-9020-klagenfurt", "@spider": "mcdonalds_at", "addr:country": "AT", "website": "https://www.mcdonalds.at/restaurant/rosentaler-strasse-129-a-9020-klagenfurt", "brand": "McDonald\u2019s", "brand:wikidata": "Q38076"}, "geometry": {"type": "Point", "coordinates": [14.2989323, 46.6069225]}},
{"type": "Feature", "id": "inkn5QKZK31yw_dg7NMHEHT-j4o=", "properties": {"ref": "https://www.mcdonalds.at/restaurant/liesinger-platz-1-a-1230-wien", "@spider": "mcdonalds_at", "addr:country": "AT", "website": "https://www.mcdonalds.at/restaurant/liesinger-platz-1-a-1230-wien", "brand": "McDonald\u2019s", "brand:wikidata": "Q38076"}, "geometry": {"type": "Point", "coordinates": [16.2839805, 48.1351288]}},
{"type": "Feature", "id": "ffB4NPgr4Vh1gChMCwg_jzkdFP0=", "properties": {"ref": "https://www.mcdonalds.at/restaurant/mitschastrasse-37a-a-2130-mistelbach", "@spider": "mcdonalds_at", "addr:country": "AT", "website": "https://www.mcdonalds.at/restaurant/mitschastrasse-37a-a-2130-mistelbach", "brand": "McDonald\u2019s", "brand:wikidata": "Q38076"}, "geometry": {"type": "Point", "coordinates": [16.5769886, 48.5628283]}},
{"type": "Feature", "id": "Ldrbgm_Ppy8r7Ueu5RH10SWDYHg=", "properties": {"ref": "https://www.mcdonalds.at/restaurant/hietzinger-kai-137-a-1130-wien", "@spider": "mcdonalds_at", "addr:country": "AT", "website": "https://www.mcdonalds.at/restaurant/hietzinger-kai-137-a-1130-wien", "brand": "McDonald\u2019s", "brand:wikidata": "Q38076"}, "geometry": {"type": "Point", "coordinates": [16.2791463, 48.1914603]}},
{"type": "Feature", "id": "qCAj4ImWkOs8pRvJ_k_KEs4ipBM=", "properties": {"ref": "https://www.mcdonalds.at/restaurant/leoganger-strasse-16-a-a-5760-saalfelden", "@spider": "mcdonalds_at", "addr:country": "AT", "website": "https://www.mcdonalds.at/restaurant/leoganger-strasse-16-a-a-5760-saalfelden", "brand": "McDonald\u2019s", "brand:wikidata": "Q38076"}, "geometry": {"type": "Point", "coordinates": [12.8439049, 47.4291547]}},
{"type": "Feature", "id": "pqPKR-x_qnkRi6XuJmPrqxUJtD8=", "properties": {"ref": "https://www.mcdonalds.at/restaurant/feldkirchnerstrasse-128-a-9020-klagenfurt", "@spider": "mcdonalds_at", "addr:country": "AT", "website": "https://www.mcdonalds.at/restaurant/feldkirchnerstrasse-128-a-9020-klagenfurt", "brand": "McDonald\u2019s", "brand:wikidata": "Q38076"}, "geometry": {"type": "Point", "coordinates": [14.2919571, 46.6404099]}},
{"type": "Feature", "id": "vLeHHP1DD58IY5GGcbpYYPnam-4=", "properties": {"ref": "https://www.mcdonalds.at/restaurant/teichstrasse-3-a-3442-langenrohr", "@spider": "mcdonalds_at", "addr:country": "AT", "website": "https://www.mcdonalds.at/restaurant/teichstrasse-3-a-3442-langenrohr", "brand": "McDonald\u2019s", "brand:wikidata": "Q38076"}, "geometry": {"type": "Point", "coordinates": [16.0270208, 48.3226998]}},
{"type": "Feature", "id": "GD9R3h3257GnqoAWH3Y2f7ijK5E=", "properties": {"ref": "https://www.mcdonalds.at/restaurant/diepoldsauer-strasse-51-a-6845-hohenems", "@spider": "mcdonalds_at", "addr:country": "AT", "website": "https://www.mcdonalds.at/restaurant/diepoldsauer-strasse-51-a-6845-hohenems", "brand": "McDonald\u2019s", "brand:wikidata": "Q38076"}, "geometry": {"type": "Point", "coordinates": [9.676253, 47.3743902]}},
{"type": "Feature", "id": "MjqaD-7oF-1ITlSQfY_ww4geMCU=", "properties": {"ref": "https://www.mcdonalds.at/restaurant/ginzkeystrasse-60-a-4600-wels", "@spider": "mcdonalds_at", "addr:country": "AT", "website": "https://www.mcdonalds.at/restaurant/ginzkeystrasse-60-a-4600-wels", "brand": "McDonald\u2019s", "brand:wikidata": "Q38076"}, "geometry": {"type": "Point", "coordinates": [14.063109, 48.1795961]}},
{"type": "Feature", "id": "0PbBznPPw8smChkV7y5B3UKBBXM=", "properties": {"ref": "https://www.mcdonalds.at/restaurant/karlsplatz-u-bahnpassage-lokal-nr-1-a-1010-wien", "@spider": "mcdonalds_at", "addr:country": "AT", "website": "https://www.mcdonalds.at/restaurant/karlsplatz-u-bahnpassage-lokal-nr-1-a-1010-wien", "brand": "McDonald\u2019s", "brand:wikidata": "Q38076"}, "geometry": {"type": "Point", "coordinates": [16.3695689, 48.2003822]}},
{"type": "Feature", "id": "2hs24PrHj4i41gKnQhBVZO3yDbw=", "properties": {"ref": "https://www.mcdonalds.at/restaurant/aubauerstrasse-15-a-4810-gmunden", "@spider": "mcdonalds_at", "addr:country": "AT", "website": "https://www.mcdonalds.at/restaurant/aubauerstrasse-15-a-4810-gmunden", "brand": "McDonald\u2019s", "brand:wikidata": "Q38076"}, "geometry": {"type": "Point", "coordinates": [13.785805, 47.931332]}},
{"type": "Feature", "id": "J6rC8f1umyPYMVm4u8JZoi2sq6Y=", "properties": {"ref": "https://www.mcdonalds.at/restaurant/a1-autobahnstation-bergheim-kasern-a-5101-bergheim", "@spider": "mcdonalds_at", "addr:country": "AT", "website": "https://www.mcdonalds.at/restaurant/a1-autobahnstation-bergheim-kasern-a-5101-bergheim", "brand": "McDonald\u2019s", "brand:wikidata": "Q38076"}, "geometry": {"type": "Point", "coordinates": [13.0584952, 47.8354401]}},
{"type": "Feature", "id": "IbOY7m9NHV2yMEB-i_B0d5blTXk=", "properties": {"ref": "https://www.mcdonalds.at/restaurant/eisenfeldstrasse-2a-a-4600-wels", "@spider": "mcdonalds_at", "addr:country": "AT", "website": "https://www.mcdonalds.at/restaurant/eisenfeldstrasse-2a-a-4600-wels", "brand": "McDonald\u2019s", "brand:wikidata": "Q38076"}, "geometry": {"type": "Point", "coordinates": [14.0385802, 48.1660606]}},
{"type": "Feature", "id": "euxY0dw9LAt2ulOcBUhkRB5lCWQ=", "properties": {"ref": "https://www.mcdonalds.at/restaurant/sterneckstrasse-49-a-5020-salzburg", "@spider": "mcdonalds_at", "addr:country": "AT", "website": "https://www.mcdonalds.at/restaurant/sterneckstrasse-49-a-5020-salzburg", "brand": "McDonald\u2019s", "brand:wikidata": "Q38076"}, "geometry": {"type": "Point", "coordinates": [13.0618202, 47.8098892]}},
{"type": "Feature", "id": "iBOOoNOnepelONTpIcs_kaPCxe8=", "properties": {"ref": "https://www.mcdonalds.at/restaurant/hauptstrasse-1-a-6511-zams", "@spider": "mcdonalds_at", "addr:country": "AT", "website": "https://www.mcdonalds.at/restaurant/hauptstrasse-1-a-6511-zams", "brand": "McDonald\u2019s", "brand:wikidata": "Q38076"}, "geometry": {"type": "Point", "coordinates": [10.5816141, 47.1521461]}},
{"type": "Feature", "id": "HErI_tcmI0XBatoGZPNN1eI1Y1I=", "properties": {"ref": "https://www.mcdonalds.at/restaurant/raststation-walserberg-sued-a-5071-walserberg", "@spider": "mcdonalds_at", "addr:country": "AT", "website": "https://www.mcdonalds.at/restaurant/raststation-walserberg-sued-a-5071-walserberg", "brand": "McDonald\u2019s", "brand:wikidata": "Q38076"}, "geometry": {"type": "Point", "coordinates": [12.94677, 47.768874]}},
{"type": "Feature", "id": "w3Q1bNZKxvfG-bs3nnTamrMe_aY=", "properties": {"ref": "https://www.mcdonalds.at/restaurant/industriestrasse-7-a-6134-vomp", "@spider": "mcdonalds_at", "addr:country": "AT", "website": "https://www.mcdonalds.at/restaurant/industriestrasse-7-a-6134-vomp", "brand": "McDonald\u2019s", "brand:wikidata": "Q38076"}, "geometry": {"type": "Point", "coordinates": [11.6989137, 47.3504293]}},
{"type": "Feature", "id": "wgwrWoMepWUvK-sGb7o651Sh7J0=", "properties": {"ref": "https://www.mcdonalds.at/restaurant/suedtiroler-platz-13-forum-1-a-5020-salzburg", "@spider": "mcdonalds_at", "addr:country": "AT", "website": "https://www.mcdonalds.at/restaurant/suedtiroler-platz-13-forum-1-a-5020-salzburg", "brand": "McDonald\u2019s", "brand:wikidata": "Q38076"}, "geometry": {"type": "Point", "coordinates": [13.0449601, 47.8142515]}},
{"type": "Feature", "id": "Tra0ghgke3neYSlNqAJEYQG-R-A=", "properties": {"ref": "https://www.mcdonalds.at/restaurant/innsbrucker-strasse-56-a-6300-woergl", "@spider": "mcdonalds_at", "addr:country": "AT", "website": "https://www.mcdonalds.at/restaurant/innsbrucker-strasse-56-a-6300-woergl", "brand": "McDonald\u2019s", "brand:wikidata": "Q38076"}, "geometry": {"type": "Point", "coordinates": [12.0573664, 47.4821439]}},
{"type": "Feature", "id": "C9FSuKukxTz_kZvngqn_7JlZEtM=", "properties": {"ref": "https://www.mcdonalds.at/restaurant/carl-zuckmayerstrasse-1-a-5020-salzburg", "@spider": "mcdonalds_at", "addr:country": "AT", "website": "https://www.mcdonalds.at/restaurant/carl-zuckmayerstrasse-1-a-5020-salzburg", "brand": "McDonald\u2019s", "brand:wikidata": "Q38076"}, "geometry": {"type": "Point", "coordinates": [13.0571817, 47.8294076]}},
{"type": "Feature", "id": "37cderZ0l5h6WH1MQ-UGtMA7CQ0=", "properties": {"ref": "https://www.mcdonalds.at/restaurant/europabruecke-parkplatz-1-a-6141-schoenberg", "@spider": "mcdonalds_at", "addr:country": "AT", "website": "https://www.mcdonalds.at/restaurant/europabruecke-parkplatz-1-a-6141-schoenberg", "brand": "McDonald\u2019s", "brand:wikidata": "Q38076"}, "geometry": {"type": "Point", "coordinates": [11.3972126, 47.1966562]}},
{"type": "Feature", "id": "H_jIOBZISPHrU5hzPriQ_lmVP3Q=", "properties": {"ref": "https://www.mcdonalds.at/restaurant/passthurnstrasse-13-a-6380-st-johann-tirol", "@spider": "mcdonalds_at", "addr:country": "AT", "website": "https://www.mcdonalds.at/restaurant/passthurnstrasse-13-a-6380-st-johann-tirol", "brand": "McDonald\u2019s", "brand:wikidata": "Q38076"}, "geometry": {"type": "Point", "coordinates": [12.4162992, 47.5190044]}},
{"type": "Feature", "id": "nHvwOHCyVa-6jkjHfdgHAt9SKwg=", "properties": {"ref": "https://www.mcdonalds.at/restaurant/stockerauer-strasse-183-a-2100-korneuburg", "@spider": "mcdonalds_at", "addr:country": "AT", "website": "https://www.mcdonalds.at/restaurant/stockerauer-strasse-183-a-2100-korneuburg", "brand": "McDonald\u2019s", "brand:wikidata": "Q38076"}, "geometry": {"type": "Point", "coordinates": [16.3124117, 48.3589763]}},
{"type": "Feature", "id": "MHo-6Xn9NxibspwEpb-G3NMShjY=", "properties": {"ref": "https://www.mcdonalds.at/restaurant/mariahilfer-guertel-europaplatz-2-ob-1-26-a-1150-wien-westbahnhof", "@spider": "mcdonalds_at", "addr:country": "AT", "website": "https://www.mcdonalds.at/restaurant/mariahilfer-guertel-europaplatz-2-ob-1-26-a-1150-wien-westbahnhof", "brand": "McDonald\u2019s", "brand:wikidata": "Q38076"}, "geometry": {"type": "Point", "coordinates": [16.337702, 48.1967991]}},
{"type": "Feature", "id": "LEpbQv_ilPitRQEk0vcyo-QYYtc=", "properties": {"ref": "https://www.mcdonalds.at/restaurant/schlitters-nr-27e-a-6262-schlitters", "@spider": "mcdonalds_at", "addr:country": "AT", "website": "https://www.mcdonalds.at/restaurant/schlitters-nr-27e-a-6262-schlitters", "brand": "McDonald\u2019s", "brand:wikidata": "Q38076"}, "geometry": {"type": "Point", "coordinates": [11.8335489, 47.3814163]}},
{"type": "Feature", "id": "r--rXrQmTlkEFSN8RCzJiioyX-M=", "properties": {"ref": "https://www.mcdonalds.at/restaurant/kaplanstrasse-3-a-6063-rum", "@spider": "mcdonalds_at", "addr:country": "AT", "website": "https://www.mcdonalds.at/restaurant/kaplanstrasse-3-a-6063-rum", "brand": "McDonald\u2019s", "brand:wikidata": "Q38076"}, "geometry": {"type": "Point", "coordinates": [11.4564247, 47.2774211]}},
{"type": "Feature", "id": "ViaanSHQAOzKGgO5USh0M6cOY28=", "properties": {"ref": "https://www.mcdonalds.at/restaurant/thaliastrasse-17-a-1160-wien", "@spider": "mcdonalds_at", "addr:country": "AT", "website": "https://www.mcdonalds.at/restaurant/thaliastrasse-17-a-1160-wien", "brand": "McDonald\u2019s", "brand:wikidata": "Q38076"}, "geometry": {"type": "Point", "coordinates": [16.3351703, 48.2088582]}},
{"type": "Feature", "id": "e1dzBYJjmt9SjZZaCcfc27_X9HM=", "properties": {"ref": "https://www.mcdonalds.at/restaurant/bahnhofplatz-3-6-a-4020-linz", "@spider": "mcdonalds_at", "addr:country": "AT", "website": "https://www.mcdonalds.at/restaurant/bahnhofplatz-3-6-a-4020-linz", "brand": "McDonald\u2019s", "brand:wikidata": "Q38076"}, "geometry": {"type": "Point", "coordinates": [14.2910435, 48.2904658]}},
{"type": "Feature", "id": "V2wDUWFVno9QJuamsPLK5OqIDo8=", "properties": {"ref": "https://www.mcdonalds.at/restaurant/rosenheimer-strasse-4-a-6332-kufstein", "@spider": "mcdonalds_at", "addr:country": "AT", "website": "https://www.mcdonalds.at/restaurant/rosenheimer-strasse-4-a-6332-kufstein", "brand": "McDonald\u2019s", "brand:wikidata": "Q38076"}, "geometry": {"type": "Point", "coordinates": [12.1766443, 47.5934869]}},
{"type": "Feature", "id": "lCs7GO187t3DHsZ-0iq_TgmX68k=", "properties": {"ref": "https://www.mcdonalds.at/restaurant/margaretenguertel-45-a-1050-wien", "@spider": "mcdonalds_at", "addr:country": "AT", "website": "https://www.mcdonalds.at/restaurant/margaretenguertel-45-a-1050-wien", "brand": "McDonald\u2019s", "brand:wikidata": "Q38076"}, "geometry": {"type": "Point", "coordinates": [16.3511388, 48.1795538]}},
{"type": "Feature", "id": "jP2bbc78QH-GIIVu51RfEOtBIRU=", "properties": {"ref": "https://www.mcdonalds.at/restaurant/franz-reisch-strasse-7-a-6370-kitzbuehel", "@spider": "mcdonalds_at", "addr:country": "AT", "website": "https://www.mcdonalds.at/restaurant/franz-reisch-strasse-7-a-6370-kitzbuehel", "brand": "McDonald\u2019s", "brand:wikidata": "Q38076"}, "geometry": {"type": "Point", "coordinates": [12.3894761, 47.4456619]}},
{"type": "Feature", "id": "HmEsGjO0u5zMMDRlAuW6dDXachI=", "properties": {"ref": "https://www.mcdonalds.at/restaurant/freistaedterstrasse-298-a-4040-linz-dornach", "@spider": "mcdonalds_at", "addr:country": "AT", "website": "https://www.mcdonalds.at/restaurant/freistaedterstrasse-298-a-4040-linz-dornach", "brand": "McDonald\u2019s", "brand:wikidata": "Q38076"}, "geometry": {"type": "Point", "coordinates": [14.3123304, 48.3290998]}},
{"type": "Feature", "id": "1KYjLRbS7xOAfs_N6tDEBFS09R4=", "properties": {"ref": "https://www.mcdonalds.at/restaurant/alpenstrasse-112-a-5020-salzburg", "@spider": "mcdonalds_at", "addr:country": "AT", "website": "https://www.mcdonalds.at/restaurant/alpenstrasse-112-a-5020-salzburg", "brand": "McDonald\u2019s", "brand:wikidata": "Q38076"}, "geometry": {"type": "Point", "coordinates": [13.068321, 47.774896]}},
{"type": "Feature", "id": "dGz4RuFt-WHz4aI8jbxDVl49RCw=", "properties": {"ref": "https://www.mcdonalds.at/restaurant/landstrasse-71-75-a-4020-linz", "@spider": "mcdonalds_at", "addr:country": "AT", "website": "https://www.mcdonalds.at/restaurant/landstrasse-71-75-a-4020-linz", "brand": "McDonald\u2019s", "brand:wikidata": "Q38076"}, "geometry": {"type": "Point", "coordinates": [14.291718, 48.2983501]}},
{"type": "Feature", "id": "QwVyCc9VHxypjWrcOq6v0M66brM=", "properties": {"ref": "https://www.mcdonalds.at/restaurant/landwehrstr-6-s014-huma-ekz-a-1110-wien", "@spider": "mcdonalds_at", "addr:country": "AT", "website": "https://www.mcdonalds.at/restaurant/landwehrstr-6-s014-huma-ekz-a-1110-wien", "brand": "McDonald\u2019s", "brand:wikidata": "Q38076"}, "geometry": {"type": "Point", "coordinates": [16.4718619, 48.1690015]}},
{"type": "Feature", "id": "NIxB9Eh2mIp3OrbHWRT_XqoL-JU=", "properties": {"ref": "https://www.mcdonalds.at/restaurant/zehnerguertel-12-24-ekz-fischapark-a-2700-wr-neustadt", "@spider": "mcdonalds_at", "addr:country": "AT", "website": "https://www.mcdonalds.at/restaurant/zehnerguertel-12-24-ekz-fischapark-a-2700-wr-neustadt", "brand": "McDonald\u2019s", "brand:wikidata": "Q38076"}, "geometry": {"type": "Point", "coordinates": [16.2172222, 47.8191667]}},
{"type": "Feature", "id": "LMbo7c0PC_OCq-hSlSKr3yboIJM=", "properties": {"ref": "https://www.mcdonalds.at/restaurant/albert-schweizer-gasse-6-a-1140-wien", "@spider": "mcdonalds_at", "addr:country": "AT", "website": "https://www.mcdonalds.at/restaurant/albert-schweizer-gasse-6-a-1140-wien", "brand": "McDonald\u2019s", "brand:wikidata": "Q38076"}, "geometry": {"type": "Point", "coordinates": [16.2188354, 48.2081423]}},
{"type": "Feature", "id": "ilSCqpXoB3sC8IkRxr7BK-EElyc=", "properties": {"ref": "https://www.mcdonalds.at/restaurant/brucker-bundesstrasse-6-a-2320-schwechat", "@spider": "mcdonalds_at", "addr:country": "AT", "website": "https://www.mcdonalds.at/restaurant/brucker-bundesstrasse-6-a-2320-schwechat", "brand": "McDonald\u2019s", "brand:wikidata": "Q38076"}, "geometry": {"type": "Point", "coordinates": [16.4923873, 48.1354265]}},
{"type": "Feature", "id": "G_lj6pQvFuWp8A7bVlRLTS8AW5A=", "properties": {"ref": "https://www.mcdonalds.at/restaurant/erlachweg-1-a-5280-braunau", "@spider": "mcdonalds_at", "addr:country": "AT", "website": "https://www.mcdonalds.at/restaurant/erlachweg-1-a-5280-braunau", "brand": "McDonald\u2019s", "brand:wikidata": "Q38076"}, "geometry": {"type": "Point", "coordinates": [13.0447646, 48.2535824]}},
{"type": "Feature", "id": "MpwbOutTMiDuEj8dArzFQ14QYiU=", "properties": {"ref": "https://www.mcdonalds.at/restaurant/prof-ferry-porsche-strasse-4-a-5700-zell-am-see", "@spider": "mcdonalds_at", "addr:country": "AT", "website": "https://www.mcdonalds.at/restaurant/prof-ferry-porsche-strasse-4-a-5700-zell-am-see", "brand": "McDonald\u2019s", "brand:wikidata": "Q38076"}, "geometry": {"type": "Point", "coordinates": [12.795701, 47.2953933]}},
{"type": "Feature", "id": "DbmiyKVc8wPiYTlbQOSvCFN10WI=", "properties": {"ref": "https://www.mcdonalds.at/restaurant/bahnhofplatz-1-top-89-a-3100-st-poelten", "@spider": "mcdonalds_at", "addr:country": "AT", "website": "https://www.mcdonalds.at/restaurant/bahnhofplatz-1-top-89-a-3100-st-poelten", "brand": "McDonald\u2019s", "brand:wikidata": "Q38076"}, "geometry": {"type": "Point", "coordinates": [15.6244147, 48.2079525]}},
{"type": "Feature", "id": "0BoSckpkM__DRJ9kGQ3XntSW9s8=", "properties": {"ref": "https://www.mcdonalds.at/restaurant/museumstrasse-38-a-6020-innsbruck-sillpark", "@spider": "mcdonalds_at", "addr:country": "AT", "website": "https://www.mcdonalds.at/restaurant/museumstrasse-38-a-6020-innsbruck-sillpark", "brand": "McDonald\u2019s", "brand:wikidata": "Q38076"}, "geometry": {"type": "Point", "coordinates": [11.4041399, 47.2661818]}},
{"type": "Feature", "id": "7EcAUoh54vuZhHYgJGXDslpatLc=", "properties": {"ref": "https://www.mcdonalds.at/restaurant/gewerbestrasse-4-a-7111-parndorf-villagio", "@spider": "mcdonalds_at", "addr:country": "AT", "website": "https://www.mcdonalds.at/restaurant/gewerbestrasse-4-a-7111-parndorf-villagio", "brand": "McDonald\u2019s", "brand:wikidata": "Q38076"}, "geometry": {"type": "Point", "coordinates": [16.8495674, 47.9797917]}},
{"type": "Feature", "id": "KSh--YNmoejNI8lS2VzRGaUosls=", "properties": {"ref": "https://www.mcdonalds.at/restaurant/dr-adolf-schaerf-strasse-12-a-3107-st-poelten", "@spider": "mcdonalds_at", "addr:country": "AT", "website": "https://www.mcdonalds.at/restaurant/dr-adolf-schaerf-strasse-12-a-3107-st-poelten", "brand": "McDonald\u2019s", "brand:wikidata": "Q38076"}, "geometry": {"type": "Point", "coordinates": [15.639135, 48.2212502]}},
{"type": "Feature", "id": "ysKkbZHEex-kxvtH1kiS8R8Pxec=", "properties": {"ref": "https://www.mcdonalds.at/restaurant/haidcenter-top-70-ikeaplatz-4-a-4053-haid", "@spider": "mcdonalds_at", "addr:country": "AT", "website": "https://www.mcdonalds.at/restaurant/haidcenter-top-70-ikeaplatz-4-a-4053-haid", "brand": "McDonald\u2019s", "brand:wikidata": "Q38076"}, "geometry": {"type": "Point", "coordinates": [14.2467656, 48.1955355]}},
{"type": "Feature", "id": "8lA2eWBKl-9CZ1Hzy4dZWH0CKrs=", "properties": {"ref": "https://www.mcdonalds.at/restaurant/shoppingcity-seiersberg-3-a-8055-seiersberg-pirka", "@spider": "mcdonalds_at", "addr:country": "AT", "website": "https://www.mcdonalds.at/restaurant/shoppingcity-seiersberg-3-a-8055-seiersberg-pirka", "brand": "McDonald\u2019s", "brand:wikidata": "Q38076"}, "geometry": {"type": "Point", "coordinates": [15.4115128, 47.012276]}},
{"type": "Feature", "id": "PTelmPsBxWUefeGmatI4t5rmTwI=", "properties": {"ref": "https://www.mcdonalds.at/restaurant/mariahilfer-strasse-85-87-a-1060-wien", "@spider": "mcdonalds_at", "addr:country": "AT", "website": "https://www.mcdonalds.at/restaurant/mariahilfer-strasse-85-87-a-1060-wien", "brand": "McDonald\u2019s", "brand:wikidata": "Q38076"}, "geometry": {"type": "Point", "coordinates": [16.3486087, 48.1973279]}},
{"type": "Feature", "id": "bs6kXu9C9Xq4t70eS88Xbd7MwOo=", "properties": {"ref": "https://www.mcdonalds.at/restaurant/europastrasse-148-europark-a-5020-salzburg", "@spider": "mcdonalds_at", "addr:country": "AT", "website": "https://www.mcdonalds.at/restaurant/europastrasse-148-europark-a-5020-salzburg", "brand": "McDonald\u2019s", "brand:wikidata": "Q38076"}, "geometry": {"type": "Point", "coordinates": [13.0077455, 47.8154088]}},
{"type": "Feature", "id": "rFA3oSVJ5jBWPjg3YaRibH_bDVI=", "properties": {"ref": "https://www.mcdonalds.at/restaurant/wagramer-strasse-81-83-top-320donauzentrum-a-1220-wien", "@spider": "mcdonalds_at", "addr:country": "AT", "website": "https://www.mcdonalds.at/restaurant/wagramer-strasse-81-83-top-320donauzentrum-a-1220-wien", "brand": "McDonald\u2019s", "brand:wikidata": "Q38076"}, "geometry": {"type": "Point", "coordinates": [16.4349499, 48.2425496]}},
{"type": "Feature", "id": "u7zGphCV0FsiSbnmkN1z23GTdsU=", "properties": {"ref": "https://www.mcdonalds.at/restaurant/ecke-strasse1-strasse-6-a-2351-wr-neudorf", "@spider": "mcdonalds_at", "addr:country": "AT", "website": "https://www.mcdonalds.at/restaurant/ecke-strasse1-strasse-6-a-2351-wr-neudorf", "brand": "McDonald\u2019s", "brand:wikidata": "Q38076"}, "geometry": {"type": "Point", "coordinates": [16.3260316, 48.0767496]}},
{"type": "Feature", "id": "AU3yKkqLgYdonYXikzJkt5Zv5oY=", "properties": {"ref": "https://www.mcdonalds.at/restaurant/getreidegasse-26-a-5020-salzburg", "@spider": "mcdonalds_at", "addr:country": "AT", "website": "https://www.mcdonalds.at/restaurant/getreidegasse-26-a-5020-salzburg", "brand": "McDonald\u2019s", "brand:wikidata": "Q38076"}, "geometry": {"type": "Point", "coordinates": [13.0420587, 47.8000923]}},
{"type": "Feature", "id": "Ou5f_h1jKp-24PEfoVs8AJYAOOc=", "properties": {"ref": "https://www.mcdonalds.at/restaurant/murpark-ostbahnstrasse-3-a-8041-graz-liebenau", "@spider": "mcdonalds_at", "addr:country": "AT", "website": "https://www.mcdonalds.at/restaurant/murpark-ostbahnstrasse-3-a-8041-graz-liebenau", "brand": "McDonald\u2019s", "brand:wikidata": "Q38076"}, "geometry": {"type": "Point", "coordinates": [15.4629845, 47.0407973]}},
{"type": "Feature", "id": "XXV1ASq2C532i7aOlga9e2Pm1hk=", "properties": {"ref": "https://www.mcdonalds.at/restaurant/europastrasse-10-a-5400-hallein", "@spider": "mcdonalds_at", "addr:country": "AT", "website": "https://www.mcdonalds.at/restaurant/europastrasse-10-a-5400-hallein", "brand": "McDonald\u2019s", "brand:wikidata": "Q38076"}, "geometry": {"type": "Point", "coordinates": [13.1077881, 47.6817773]}},
{"type": "Feature", "id": "sAlQgETUHgu4I5NBNMJZuFIM1Mw=", "properties": {"ref": "https://www.mcdonalds.at/restaurant/scs-food-plaza-eingang-9-a-2334-voesendorf-scs", "@spider": "mcdonalds_at", "addr:country": "AT", "website": "https://www.mcdonalds.at/restaurant/scs-food-plaza-eingang-9-a-2334-voesendorf-scs", "brand": "McDonald\u2019s", "brand:wikidata": "Q38076"}, "geometry": {"type": "Point", "coordinates": [16.3179302, 48.1080284]}},
{"type": "Feature", "id": "EK3IUoVYbV9MfK2rDAQnnqLXReA=", "properties": {"ref": "https://www.mcdonalds.at/restaurant/bluetenstrasse-13-23-a-4040-linz-lentia-city", "@spider": "mcdonalds_at", "addr:country": "AT", "website": "https://www.mcdonalds.at/restaurant/bluetenstrasse-13-23-a-4040-linz-lentia-city", "brand": "McDonald\u2019s", "brand:wikidata": "Q38076"}, "geometry": {"type": "Point", "coordinates": [14.2828223, 48.3147828]}},
{"type": "Feature", "id": "htjxIbd0LDbwQu79iunTxUMQ8Mc=", "properties": {"ref": "https://www.mcdonalds.at/restaurant/kaplanweg-8-a-8160-weiz", "@spider": "mcdonalds_at", "addr:country": "AT", "website": "https://www.mcdonalds.at/restaurant/kaplanweg-8-a-8160-weiz", "brand": "McDonald\u2019s", "brand:wikidata": "Q38076"}, "geometry": {"type": "Point", "coordinates": [15.6384881, 47.2064109]}},
{"type": "Feature", "id": "LsdjAF2n0eexlCuYm8nwvk-vL5w=", "properties": {"ref": "https://www.mcdonalds.at/restaurant/wiener-strasse-116-a-7100-neusiedel-see", "@spider": "mcdonalds_at", "addr:country": "AT", "website": "https://www.mcdonalds.at/restaurant/wiener-strasse-116-a-7100-neusiedel-see", "brand": "McDonald\u2019s", "brand:wikidata": "Q38076"}, "geometry": {"type": "Point", "coordinates": [16.8387696, 47.9722283]}},
{"type": "Feature", "id": "DyXEyzx5ZOyK4EANE1U3VlcNkFE=", "properties": {"ref": "https://www.mcdonalds.at/restaurant/fridolin-schroepfer-platz-1-a-4820-bad-ischl", "@spider": "mcdonalds_at", "addr:country": "AT", "website": "https://www.mcdonalds.at/restaurant/fridolin-schroepfer-platz-1-a-4820-bad-ischl", "brand": "McDonald\u2019s", "brand:wikidata": "Q38076"}, "geometry": {"type": "Point", "coordinates": [13.6207933, 47.7106687]}},
{"type": "Feature", "id": "OaKi3ml7dz7y9lxdkJ-GCCBDuLA=", "properties": {"ref": "https://www.mcdonalds.at/restaurant/ekz-gerasdorf-g3-g3-platz-1-a-2201-gerasdorf", "@spider": "mcdonalds_at", "addr:country": "AT", "website": "https://www.mcdonalds.at/restaurant/ekz-gerasdorf-g3-g3-platz-1-a-2201-gerasdorf", "brand": "McDonald\u2019s", "brand:wikidata": "Q38076"}, "geometry": {"type": "Point", "coordinates": [16.4626151, 48.343052]}},
{"type": "Feature", "id": "1ip85IB9PHDVmE6GweLpiX1UuH4=", "properties": {"ref": "https://www.mcdonalds.at/restaurant/gewerbestrasse-10-a-3382-loosdorf", "@spider": "mcdonalds_at", "addr:country": "AT", "website": "https://www.mcdonalds.at/restaurant/gewerbestrasse-10-a-3382-loosdorf", "brand": "McDonald\u2019s", "brand:wikidata": "Q38076"}, "geometry": {"type": "Point", "coordinates": [15.4095736, 48.189879]}},
{"type": "Feature", "id": "GEWazeqRQHOk7UdjwXyAMvuxJhE=", "properties": {"ref": "https://www.mcdonalds.at/restaurant/handelskai-130-a-1020-wien", "@spider": "mcdonalds_at", "addr:country": "AT", "website": "https://www.mcdonalds.at/restaurant/handelskai-130-a-1020-wien", "brand": "McDonald\u2019s", "brand:wikidata": "Q38076"}, "geometry": {"type": "Point", "coordinates": [16.3947458, 48.2336652]}},
{"type": "Feature", "id": "dObI6x_Er8BFnAfHFd0dIthVgZY=", "properties": {"ref": "https://www.mcdonalds.at/restaurant/haratzmueller-strasse-80-a-4400-steyr", "@spider": "mcdonalds_at", "addr:country": "AT", "website": "https://www.mcdonalds.at/restaurant/haratzmueller-strasse-80-a-4400-steyr", "brand": "McDonald\u2019s", "brand:wikidata": "Q38076"}, "geometry": {"type": "Point", "coordinates": [14.4346488, 48.0426924]}},
{"type": "Feature", "id": "h2pe3DciCrvXv-x50gQNGMpdApg=", "properties": {"ref": "https://www.mcdonalds.at/restaurant/autobahn-a10-raststation-golling-a-5440-golling", "@spider": "mcdonalds_at", "addr:country": "AT", "website": "https://www.mcdonalds.at/restaurant/autobahn-a10-raststation-golling-a-5440-golling", "brand": "McDonald\u2019s", "brand:wikidata": "Q38076"}, "geometry": {"type": "Point", "coordinates": [13.4302578, 47.1961897]}},
{"type": "Feature", "id": "DZDT_s9b--Q3x0nL0HNjJ4D4B8A=", "properties": {"ref": "https://www.mcdonalds.at/restaurant/europastrasse-2-a-8200-gleisdorf", "@spider": "mcdonalds_at", "addr:country": "AT", "website": "https://www.mcdonalds.at/restaurant/europastrasse-2-a-8200-gleisdorf", "brand": "McDonald\u2019s", "brand:wikidata": "Q38076"}, "geometry": {"type": "Point", "coordinates": [15.7033468, 47.1084678]}},
{"type": "Feature", "id": "yDQTMbp0pJnpBTjL5Nm4knt672Q=", "properties": {"ref": "https://www.mcdonalds.at/restaurant/bad-fischau-531-raststation-foehrenberg-a-2721-bad-fischau-brunn", "@spider": "mcdonalds_at", "addr:country": "AT", "website": "https://www.mcdonalds.at/restaurant/bad-fischau-531-raststation-foehrenberg-a-2721-bad-fischau-brunn", "brand": "McDonald\u2019s", "brand:wikidata": "Q38076"}, "geometry": {"type": "Point", "coordinates": [16.1817836, 47.8340105]}},
{"type": "Feature", "id": "DIWkRaOWivmRlK6wDk7SJEv3c8w=", "properties": {"ref": "https://www.mcdonalds.at/restaurant/julius-tandler-platz-3-a-1090-wien", "@spider": "mcdonalds_at", "addr:country": "AT", "website": "https://www.mcdonalds.at/restaurant/julius-tandler-platz-3-a-1090-wien", "brand": "McDonald\u2019s", "brand:wikidata": "Q38076"}, "geometry": {"type": "Point", "coordinates": [16.3606459, 48.226175]}},
{"type": "Feature", "id": "AJ7wrtB4LX8RfM2bTxLLQ2XR3EA=", "properties": {"ref": "https://www.mcdonalds.at/restaurant/igp-19-sued-a-9100-voelkermarkt", "@spider": "mcdonalds_at", "addr:country": "AT", "website": "https://www.mcdonalds.at/restaurant/igp-19-sued-a-9100-voelkermarkt", "brand": "McDonald\u2019s", "brand:wikidata": "Q38076"}, "geometry": {"type": "Point", "coordinates": [14.6138126, 46.6781146]}},
{"type": "Feature", "id": "mBz1LXyi7ZZWcIwvJ6AxEC_EDkQ=", "properties": {"ref": "https://www.mcdonalds.at/restaurant/tiroler-strasse-24-a-9900-lienz-osttirol", "@spider": "mcdonalds_at", "addr:country": "AT", "website": "https://www.mcdonalds.at/restaurant/tiroler-strasse-24-a-9900-lienz-osttirol", "brand": "McDonald\u2019s", "brand:wikidata": "Q38076"}, "geometry": {"type": "Point", "coordinates": [12.7723371, 46.8297183]}},
{"type": "Feature", "id": "OFd4x8_UHeQfqcTGdbpJOP-y0vc=", "properties": {"ref": "https://www.mcdonalds.at/restaurant/wegscheiderstr-1-gpo-i-a-4020-linz", "@spider": "mcdonalds_at", "addr:country": "AT", "website": "https://www.mcdonalds.at/restaurant/wegscheiderstr-1-gpo-i-a-4020-linz", "brand": "McDonald\u2019s", "brand:wikidata": "Q38076"}, "geometry": {"type": "Point", "coordinates": [14.2819206, 48.2542358]}},
{"type": "Feature", "id": "pM04VBFY2POdw7j75wWE1QdKB2k=", "properties": {"ref": "https://www.mcdonalds.at/restaurant/pluskaufstrasse-7-plus-city-a-4061-pasching", "@spider": "mcdonalds_at", "addr:country": "AT", "website": "https://www.mcdonalds.at/restaurant/pluskaufstrasse-7-plus-city-a-4061-pasching", "brand": "McDonald\u2019s", "brand:wikidata": "Q38076"}, "geometry": {"type": "Point", "coordinates": [14.2353479, 48.2433515]}},
{"type": "Feature", "id": "mZIwTcZBDSQOgEbsZ0hHEZpHwxE=", "properties": {"ref": "https://www.mcdonalds.at/restaurant/radingdorf-11-a-4210-unterweitersdorf", "@spider": "mcdonalds_at", "addr:country": "AT", "website": "https://www.mcdonalds.at/restaurant/radingdorf-11-a-4210-unterweitersdorf", "brand": "McDonald\u2019s", "brand:wikidata": "Q38076"}, "geometry": {"type": "Point", "coordinates": [14.4802901, 48.3596983]}},
{"type": "Feature", "id": "kyjtyoEnNICTYTxz5-GKHkJ_Gvc=", "properties": {"ref": "https://www.mcdonalds.at/restaurant/poschacher-strasse-12-a-4310-mauthausen", "@spider": "mcdonalds_at", "addr:country": "AT", "website": "https://www.mcdonalds.at/restaurant/poschacher-strasse-12-a-4310-mauthausen", "brand": "McDonald\u2019s", "brand:wikidata": "Q38076"}, "geometry": {"type": "Point", "coordinates": [14.5268212, 48.2404773]}},
{"type": "Feature", "id": "r-ZQjectIbMLmcT0dODWVEEgKoE=", "properties": {"ref": "https://www.mcdonalds.at/restaurant/nikolaus-august-otto-str-1-wiener-str-128-a-2700-wr-neustadt", "@spider": "mcdonalds_at", "addr:country": "AT", "website": "https://www.mcdonalds.at/restaurant/nikolaus-august-otto-str-1-wiener-str-128-a-2700-wr-neustadt", "brand": "McDonald\u2019s", "brand:wikidata": "Q38076"}, "geometry": {"type": "Point", "coordinates": [16.246929, 47.8437406]}},
{"type": "Feature", "id": "nDMUT-QAfb7sP1WCllm1GoBkcuo=", "properties": {"ref": "https://www.mcdonalds.at/restaurant/mitterweg-1-a-6020-innsbruck", "@spider": "mcdonalds_at", "addr:country": "AT", "website": "https://www.mcdonalds.at/restaurant/mitterweg-1-a-6020-innsbruck", "brand": "McDonald\u2019s", "brand:wikidata": "Q38076"}, "geometry": {"type": "Point", "coordinates": [11.377818, 47.2593569]}},
{"type": "Feature", "id": "mjL3K2-8Tt766SplB-hO91NeZ4U=", "properties": {"ref": "https://www.mcdonalds.at/restaurant/wiener-strasse-131-133-a-2345-brunn-gebirge", "@spider": "mcdonalds_at", "addr:country": "AT", "website": "https://www.mcdonalds.at/restaurant/wiener-strasse-131-133-a-2345-brunn-gebirge", "brand": "McDonald\u2019s", "brand:wikidata": "Q38076"}, "geometry": {"type": "Point", "coordinates": [16.3020401, 48.1127548]}},
{"type": "Feature", "id": "F1vlzPZegIlDVeI9s_BAI_4Uvo8=", "properties": {"ref": "https://www.mcdonalds.at/restaurant/pottendorferstrasse-45-a-2700-wr-neustadt", "@spider": "mcdonalds_at", "addr:country": "AT", "website": "https://www.mcdonalds.at/restaurant/pottendorferstrasse-45-a-2700-wr-neustadt", "brand": "McDonald\u2019s", "brand:wikidata": "Q38076"}, "geometry": {"type": "Point", "coordinates": [16.2532205, 47.8275522]}},
{"type": "Feature", "id": "inrNocJnLP3-5oeS4EEms-RlYaY=", "properties": {"ref": "https://www.mcdonalds.at/restaurant/breitenleerstr-s2-a-1220-wien", "@spider": "mcdonalds_at", "addr:country": "AT", "website": "https://www.mcdonalds.at/restaurant/breitenleerstr-s2-a-1220-wien", "brand": "McDonald\u2019s", "brand:wikidata": "Q38076"}, "geometry": {"type": "Point", "coordinates": [16.5065854, 48.251095]}},
{"type": "Feature", "id": "r-oUkzcQdvwKMWpH9c0s8-dod94=", "properties": {"ref": "https://www.mcdonalds.at/restaurant/wiener-strasse-54-a-8600-bruck-mur", "@spider": "mcdonalds_at", "addr:country": "AT", "website": "https://www.mcdonalds.at/restaurant/wiener-strasse-54-a-8600-bruck-mur", "brand": "McDonald\u2019s", "brand:wikidata": "Q38076"}, "geometry": {"type": "Point", "coordinates": [15.2744667, 47.4208201]}},
{"type": "Feature", "id": "6dmGEZWWSMC_o-qAHx_GGvdak-s=", "properties": {"ref": "https://www.mcdonalds.at/restaurant/innsbrucker-strasse-17-a-6600-reutte", "@spider": "mcdonalds_at", "addr:country": "AT", "website": "https://www.mcdonalds.at/restaurant/innsbrucker-strasse-17-a-6600-reutte", "brand": "McDonald\u2019s", "brand:wikidata": "Q38076"}, "geometry": {"type": "Point", "coordinates": [10.7249153, 47.4825821]}},
{"type": "Feature", "id": "PQahlrVDS57XZm1kQqpQ1yOigU0=", "properties": {"ref": "https://www.mcdonalds.at/restaurant/goldenberg-36-a-4070-eferding", "@spider": "mcdonalds_at", "addr:country": "AT", "website": "https://www.mcdonalds.at/restaurant/goldenberg-36-a-4070-eferding", "brand": "McDonald\u2019s", "brand:wikidata": "Q38076"}, "geometry": {"type": "Point", "coordinates": [14.0386199, 48.2931357]}},
{"type": "Feature", "id": "xgrRjQjnaJdl7fhltI_6_Ei7Ygk=", "properties": {"ref": "https://www.mcdonalds.at/restaurant/grazer-strasse-121-a-7400-oberwart", "@spider": "mcdonalds_at", "addr:country": "AT", "website": "https://www.mcdonalds.at/restaurant/grazer-strasse-121-a-7400-oberwart", "brand": "McDonald\u2019s", "brand:wikidata": "Q38076"}, "geometry": {"type": "Point", "coordinates": [16.1863387, 47.2830973]}},
{"type": "Feature", "id": "bAsC0DxMgd-KfFCof90yoLu23Vc=", "properties": {"ref": "https://www.mcdonalds.at/restaurant/volksfeststrasse-4-a-4150-rohrbach", "@spider": "mcdonalds_at", "addr:country": "AT", "website": "https://www.mcdonalds.at/restaurant/volksfeststrasse-4-a-4150-rohrbach", "brand": "McDonald\u2019s", "brand:wikidata": "Q38076"}, "geometry": {"type": "Point", "coordinates": [13.982507, 48.5666863]}},
{"type": "Feature", "id": "rv3-3belb4gqt9psiORfxlsgVTw=", "properties": {"ref": "https://www.mcdonalds.at/restaurant/kornfeldgasse-12-a-2512-tribuswinkel", "@spider": "mcdonalds_at", "addr:country": "AT", "website": "https://www.mcdonalds.at/restaurant/kornfeldgasse-12-a-2512-tribuswinkel", "brand": "McDonald\u2019s", "brand:wikidata": "Q38076"}, "geometry": {"type": "Point", "coordinates": [16.2752626, 47.9899555]}},
{"type": "Feature", "id": "b075cHhS2tDIruYVoMC36pt45GI=", "properties": {"ref": "https://www.mcdonalds.at/restaurant/werner-simmer-strasse-7-gewerbestr-7-a-5310-mondsee", "@spider": "mcdonalds_at", "addr:country": "AT", "website": "https://www.mcdonalds.at/restaurant/werner-simmer-strasse-7-gewerbestr-7-a-5310-mondsee", "brand": "McDonald\u2019s", "brand:wikidata": "Q38076"}, "geometry": {"type": "Point", "coordinates": [13.3332531, 47.8610717]}},
{"type": "Feature", "id": "IFuaL09vN-T_XCgDEj2OEt3kX9Q=", "properties": {"ref": "https://www.mcdonalds.at/restaurant/taborstrasse-39-a-1020-wien", "@spider": "mcdonalds_at", "addr:country": "AT", "website": "https://www.mcdonalds.at/restaurant/taborstrasse-39-a-1020-wien", "brand": "McDonald\u2019s", "brand:wikidata": "Q38076"}, "geometry": {"type": "Point", "coordinates": [16.3808113, 48.2194593]}},
{"type": "Feature", "id": "HdKOUwzes7DIj23SEsJVcL7OEcM=", "properties": {"ref": "https://www.mcdonalds.at/restaurant/hornerstrasse-101a-a-2000-stockerau", "@spider": "mcdonalds_at", "addr:country": "AT", "website": "https://www.mcdonalds.at/restaurant/hornerstrasse-101a-a-2000-stockerau", "brand": "McDonald\u2019s", "brand:wikidata": "Q38076"}, "geometry": {"type": "Point", "coordinates": [16.1796152, 48.3889302]}},
{"type": "Feature", "id": "MI9TWPWUsYVKecaddsrNKQf1n3M=", "properties": {"ref": "https://www.mcdonalds.at/restaurant/untermarktstrasse-45-a-6410-telfs", "@spider": "mcdonalds_at", "addr:country": "AT", "website": "https://www.mcdonalds.at/restaurant/untermarktstrasse-45-a-6410-telfs", "brand": "McDonald\u2019s", "brand:wikidata": "Q38076"}, "geometry": {"type": "Point", "coordinates": [11.076664, 47.3073946]}},
{"type": "Feature", "id": "KUecfPCFA-EzHj6p4qnVJZH7lk8=", "properties": {"ref": "https://www.mcdonalds.at/restaurant/ossiacherstrasse-4-a-9300-st-veit-glan", "@spider": "mcdonalds_at", "addr:country": "AT", "website": "https://www.mcdonalds.at/restaurant/ossiacherstrasse-4-a-9300-st-veit-glan", "brand": "McDonald\u2019s", "brand:wikidata": "Q38076"}, "geometry": {"type": "Point", "coordinates": [14.3592447, 46.7662281]}},
{"type": "Feature", "id": "dzU_AXUz4LreRX4R55GnuQDJuj4=", "properties": {"ref": "https://www.mcdonalds.at/restaurant/bergland-center-5-a-3254-bergland", "@spider": "mcdonalds_at", "addr:country": "AT", "website": "https://www.mcdonalds.at/restaurant/bergland-center-5-a-3254-bergland", "brand": "McDonald\u2019s", "brand:wikidata": "Q38076"}, "geometry": {"type": "Point", "coordinates": [15.1065178, 48.1610975]}},
{"type": "Feature", "id": "_1fELHboGmQ-s8PD8UZOQAJ6Lis=", "properties": {"ref": "https://www.mcdonalds.at/restaurant/waidhofner-strasse-1-city-center-amstetten-a-3300-amstetten", "@spider": "mcdonalds_at", "addr:country": "AT", "website": "https://www.mcdonalds.at/restaurant/waidhofner-strasse-1-city-center-amstetten-a-3300-amstetten", "brand": "McDonald\u2019s", "brand:wikidata": "Q38076"}, "geometry": {"type": "Point", "coordinates": [14.8692211, 48.1214491]}},
{"type": "Feature", "id": "wy0oNfJLvLkmxTd8oKk2jrE05JM=", "properties": {"ref": "https://www.mcdonalds.at/restaurant/dr-karl-renner-strasse-58-a-4470-enns", "@spider": "mcdonalds_at", "addr:country": "AT", "website": "https://www.mcdonalds.at/restaurant/dr-karl-renner-strasse-58-a-4470-enns", "brand": "McDonald\u2019s", "brand:wikidata": "Q38076"}, "geometry": {"type": "Point", "coordinates": [14.4596653, 48.2162788]}},
{"type": "Feature", "id": "2dp3qkU2ShFHl1xaLJ36171jQik=", "properties": {"ref": "https://www.mcdonalds.at/restaurant/jakominiplatz-18-a-8010-graz", "@spider": "mcdonalds_at", "addr:country": "AT", "website": "https://www.mcdonalds.at/restaurant/jakominiplatz-18-a-8010-graz", "brand": "McDonald\u2019s", "brand:wikidata": "Q38076"}, "geometry": {"type": "Point", "coordinates": [15.4416708, 47.0666277]}},
{"type": "Feature", "id": "vhbvBxiC0TP9GmED3KHCqmJ80h8=", "properties": {"ref": "https://www.mcdonalds.at/restaurant/wiener-strasse-64-a-3400-klosterneuburg", "@spider": "mcdonalds_at", "addr:country": "AT", "website": "https://www.mcdonalds.at/restaurant/wiener-strasse-64-a-3400-klosterneuburg", "brand": "McDonald\u2019s", "brand:wikidata": "Q38076"}, "geometry": {"type": "Point", "coordinates": [16.3307256, 48.3025247]}},
{"type": "Feature", "id": "u3wqOJCHOwJ2LTxYBr0XL_r0ruY=", "properties": {"ref": "https://www.mcdonalds.at/restaurant/eggendorferstrasse-4-a-8230-hartberg", "@spider": "mcdonalds_at", "addr:country": "AT", "website": "https://www.mcdonalds.at/restaurant/eggendorferstrasse-4-a-8230-hartberg", "brand": "McDonald\u2019s", "brand:wikidata": "Q38076"}, "geometry": {"type": "Point", "coordinates": [15.9952753, 47.2836438]}},
{"type": "Feature", "id": "oolSymZA4i2TTSdR-jDPvKdnbeE=", "properties": {"ref": "https://www.mcdonalds.at/restaurant/salzburgerstrasse-224-a-4600-wels-west", "@spider": "mcdonalds_at", "addr:country": "AT", "website": "https://www.mcdonalds.at/restaurant/salzburgerstrasse-224-a-4600-wels-west", "brand": "McDonald\u2019s", "brand:wikidata": "Q38076"}, "geometry": {"type": "Point", "coordinates": [13.9876006, 48.153527]}},
{"type": "Feature", "id": "sdwovOrhAfFjhffB4aWk4n_B5ho=", "properties": {"ref": "https://www.mcdonalds.at/restaurant/lugitschstrasse-13-a-8330-feldbach", "@spider": "mcdonalds_at", "addr:country": "AT", "website": "https://www.mcdonalds.at/restaurant/lugitschstrasse-13-a-8330-feldbach", "brand": "McDonald\u2019s", "brand:wikidata": "Q38076"}, "geometry": {"type": "Point", "coordinates": [15.8828278, 46.9566793]}},
{"type": "Feature", "id": "1us7s3V2A42epb2nn7Ens1okIYw=", "properties": {"ref": "https://www.mcdonalds.at/restaurant/gurktalerstrasse-40-a-9560-feldkirchen-in-kaernten", "@spider": "mcdonalds_at", "addr:country": "AT", "website": "https://www.mcdonalds.at/restaurant/gurktalerstrasse-40-a-9560-feldkirchen-in-kaernten", "brand": "McDonald\u2019s", "brand:wikidata": "Q38076"}, "geometry": {"type": "Point", "coordinates": [14.0955446, 46.7347145]}},
{"type": "Feature", "id": "DLG_4FZpaESTT1Tw_wZ4YhFVFME=", "properties": {"ref": "https://www.mcdonalds.at/restaurant/palfengasse-2-a-5600-st-johann-pongau", "@spider": "mcdonalds_at", "addr:country": "AT", "website": "https://www.mcdonalds.at/restaurant/palfengasse-2-a-5600-st-johann-pongau", "brand": "McDonald\u2019s", "brand:wikidata": "Q38076"}, "geometry": {"type": "Point", "coordinates": [13.1952435, 47.3541354]}},
{"type": "Feature", "id": "x2vRVXw51p8ENFUB8RQ_3nGNjAk=", "properties": {"ref": "https://www.mcdonalds.at/restaurant/a2-richtung-graz-a-2721-bad-fischau", "@spider": "mcdonalds_at", "addr:country": "AT", "website": "https://www.mcdonalds.at/restaurant/a2-richtung-graz-a-2721-bad-fischau", "brand": "McDonald\u2019s", "brand:wikidata": "Q38076"}, "geometry": {"type": "Point", "coordinates": [16.1845434, 47.8283857]}},
{"type": "Feature", "id": "BrbV74VxgdaCJyneRsGj-brNCpU=", "properties": {"ref": "https://www.mcdonalds.at/restaurant/promenade-9-a-4240-freistadt", "@spider": "mcdonalds_at", "addr:country": "AT", "website": "https://www.mcdonalds.at/restaurant/promenade-9-a-4240-freistadt", "brand": "McDonald\u2019s", "brand:wikidata": "Q38076"}, "geometry": {"type": "Point", "coordinates": [14.5010977, 48.5105254]}},
{"type": "Feature", "id": "twhX8JPV8hmWV7Pdktl8laBypys=", "properties": {"ref": "https://www.mcdonalds.at/restaurant/rusterstrasse-147-a-7000-eisenstadt", "@spider": "mcdonalds_at", "addr:country": "AT", "website": "https://www.mcdonalds.at/restaurant/rusterstrasse-147-a-7000-eisenstadt", "brand": "McDonald\u2019s", "brand:wikidata": "Q38076"}, "geometry": {"type": "Point", "coordinates": [16.5314824, 47.8284948]}},
{"type": "Feature", "id": "dqGNi3KvOpza673thblprPmD1Cc=", "properties": {"ref": "https://www.mcdonalds.at/restaurant/salzburger-strasse-62-a-5204-strasswalchen", "@spider": "mcdonalds_at", "addr:country": "AT", "website": "https://www.mcdonalds.at/restaurant/salzburger-strasse-62-a-5204-strasswalchen", "brand": "McDonald\u2019s", "brand:wikidata": "Q38076"}, "geometry": {"type": "Point", "coordinates": [13.2472553, 47.9693442]}},
{"type": "Feature", "id": "jFNsD71az8hqWpS4Q1sidvrWHY4=", "properties": {"ref": "https://www.mcdonalds.at/restaurant/gewerbepark-nord-13-a-8431-gralla", "@spider": "mcdonalds_at", "addr:country": "AT", "website": "https://www.mcdonalds.at/restaurant/gewerbepark-nord-13-a-8431-gralla", "brand": "McDonald\u2019s", "brand:wikidata": "Q38076"}, "geometry": {"type": "Point", "coordinates": [15.5605892, 46.8057497]}},
{"type": "Feature", "id": "KwrP2RiMFzEKFCtVw3WDzdj-yOA=", "properties": {"ref": "https://www.mcdonalds.at/restaurant/bahnhofstrasse-1-a-8582-rosental", "@spider": "mcdonalds_at", "addr:country": "AT", "website": "https://www.mcdonalds.at/restaurant/bahnhofstrasse-1-a-8582-rosental", "brand": "McDonald\u2019s", "brand:wikidata": "Q38076"}, "geometry": {"type": "Point", "coordinates": [15.1261898, 47.0529176]}},
{"type": "Feature", "id": "1Ja9-6-BTegsI8ZaCCpKlLENY6g=", "properties": {"ref": "https://www.mcdonalds.at/restaurant/europastrasse-3-a-2544-leobersdorf", "@spider": "mcdonalds_at", "addr:country": "AT", "website": "https://www.mcdonalds.at/restaurant/europastrasse-3-a-2544-leobersdorf", "brand": "McDonald\u2019s", "brand:wikidata": "Q38076"}, "geometry": {"type": "Point", "coordinates": [16.2072437, 47.9327699]}},
{"type": "Feature", "id": "5T-JhidA6xSiPFwCayfAVqDT3BM=", "properties": {"ref": "https://www.mcdonalds.at/restaurant/grinzinger-allee-3-a-1190-wien", "@spider": "mcdonalds_at", "addr:country": "AT", "website": "https://www.mcdonalds.at/restaurant/grinzinger-allee-3-a-1190-wien", "brand": "McDonald\u2019s", "brand:wikidata": "Q38076"}, "geometry": {"type": "Point", "coordinates": [16.3422301, 48.2463833]}},
{"type": "Feature", "id": "IguTJCwyJk8-nx_NyT49TBPWv7I=", "properties": {"ref": "https://www.mcdonalds.at/restaurant/frauentaler-strasse-78-a-8530-deutschlandsberg", "@spider": "mcdonalds_at", "addr:country": "AT", "website": "https://www.mcdonalds.at/restaurant/frauentaler-strasse-78-a-8530-deutschlandsberg", "brand": "McDonald\u2019s", "brand:wikidata": "Q38076"}, "geometry": {"type": "Point", "coordinates": [15.2285331, 46.8195402]}},
{"type": "Feature", "id": "erPEqdGwxS_WCZi4nIQslLMuZoQ=", "properties": {"ref": "https://www.mcdonalds.at/restaurant/grazer-strasse-19-a-8280-fuerstenfeld", "@spider": "mcdonalds_at", "addr:country": "AT", "website": "https://www.mcdonalds.at/restaurant/grazer-strasse-19-a-8280-fuerstenfeld", "brand": "McDonald\u2019s", "brand:wikidata": "Q38076"}, "geometry": {"type": "Point", "coordinates": [16.067421, 47.0582815]}},
{"type": "Feature", "id": "N0mR0Hsg1Z31qv_gYSAWNleNgjg=", "properties": {"ref": "https://www.mcdonalds.at/restaurant/bruennerstrasse-170-a-1210-wien", "@spider": "mcdonalds_at", "addr:country": "AT", "website": "https://www.mcdonalds.at/restaurant/bruennerstrasse-170-a-1210-wien", "brand": "McDonald\u2019s", "brand:wikidata": "Q38076"}, "geometry": {"type": "Point", "coordinates": [16.4119597, 48.2808225]}},
{"type": "Feature", "id": "omPH8dbG3TlJeTFSnyHbvsoEjDM=", "properties": {"ref": "https://www.mcdonalds.at/restaurant/langgasse-48-a-6460-imst", "@spider": "mcdonalds_at", "addr:country": "AT", "website": "https://www.mcdonalds.at/restaurant/langgasse-48-a-6460-imst", "brand": "McDonald\u2019s", "brand:wikidata": "Q38076"}, "geometry": {"type": "Point", "coordinates": [10.7443723, 47.2309538]}},
{"type": "Feature", "id": "Nd-wGzIuqE1ih4pfVuWAH9kB0f0=", "properties": {"ref": "https://www.mcdonalds.at/restaurant/ludwig-von-hoehnel-gasse-15-a-1100-wien", "@spider": "mcdonalds_at", "addr:country": "AT", "website": "https://www.mcdonalds.at/restaurant/ludwig-von-hoehnel-gasse-15-a-1100-wien", "brand": "McDonald\u2019s", "brand:wikidata": "Q38076"}, "geometry": {"type": "Point", "coordinates": [16.3871225, 48.1593922]}},
{"type": "Feature", "id": "8DgvnbMO4vgtRmTOZ9ChUfv-SwY=", "properties": {"ref": "https://www.mcdonalds.at/restaurant/triesterstr-friedr-schwarzottstr-71-a-2620-neunkirchen", "@spider": "mcdonalds_at", "addr:country": "AT", "website": "https://www.mcdonalds.at/restaurant/triesterstr-friedr-schwarzottstr-71-a-2620-neunkirchen", "brand": "McDonald\u2019s", "brand:wikidata": "Q38076"}, "geometry": {"type": "Point", "coordinates": [16.0714348, 47.7186753]}},
{"type": "Feature", "id": "33bSCrvc8qFw414DvL11CeMRPvI=", "properties": {"ref": "https://www.mcdonalds.at/restaurant/mcdonalds-strasse-1-a-8642-st-lorenzen", "@spider": "mcdonalds_at", "addr:country": "AT", "website": "https://www.mcdonalds.at/restaurant/mcdonalds-strasse-1-a-8642-st-lorenzen", "brand": "McDonald\u2019s", "brand:wikidata": "Q38076"}, "geometry": {"type": "Point", "coordinates": [15.346507, 47.46887]}},
{"type": "Feature", "id": "qVD2XNJXZXglgwHdcyT1Dcbf43M=", "properties": {"ref": "https://www.mcdonalds.at/restaurant/wiener-bundesstrasse-151-a-4050-traun", "@spider": "mcdonalds_at", "addr:country": "AT", "website": "https://www.mcdonalds.at/restaurant/wiener-bundesstrasse-151-a-4050-traun", "brand": "McDonald\u2019s", "brand:wikidata": "Q38076"}, "geometry": {"type": "Point", "coordinates": [14.2337617, 48.2344162]}},
{"type": "Feature", "id": "mSWkoVr5UU768ddMdpDtx480SxY=", "properties": {"ref": "https://www.mcdonalds.at/restaurant/kinostrasse-4-a-5071-wals", "@spider": "mcdonalds_at", "addr:country": "AT", "website": "https://www.mcdonalds.at/restaurant/kinostrasse-4-a-5071-wals", "brand": "McDonald\u2019s", "brand:wikidata": "Q38076"}, "geometry": {"type": "Point", "coordinates": [12.9881056, 47.7930487]}},
{"type": "Feature", "id": "tnDA9-h-5Rv19kfKGL6JFYbrLF4=", "properties": {"ref": "https://www.mcdonalds.at/restaurant/richard-strauss-str-2-ecke-sterngasse-a-1230-wien", "@spider": "mcdonalds_at", "addr:country": "AT", "website": "https://www.mcdonalds.at/restaurant/richard-strauss-str-2-ecke-sterngasse-a-1230-wien", "brand": "McDonald\u2019s", "brand:wikidata": "Q38076"}, "geometry": {"type": "Point", "coordinates": [16.3425269, 48.1482065]}},
{"type": "Feature", "id": "o3fWnCe6hyKJJWWBY42SMm-Quqg=", "properties": {"ref": "https://www.mcdonalds.at/restaurant/am-tivoli-1-a-8700-leoben", "@spider": "mcdonalds_at", "addr:country": "AT", "website": "https://www.mcdonalds.at/restaurant/am-tivoli-1-a-8700-leoben", "brand": "McDonald\u2019s", "brand:wikidata": "Q38076"}, "geometry": {"type": "Point", "coordinates": [15.0889467, 47.3767649]}},
{"type": "Feature", "id": "k7rGgQ5TVDOOH3kVSu5C5Ggy2bk=", "properties": {"ref": "https://www.mcdonalds.at/restaurant/landstrasse-3-taubenmarkt-a-4020-linz", "@spider": "mcdonalds_at", "addr:country": "AT", "website": "https://www.mcdonalds.at/restaurant/landstrasse-3-taubenmarkt-a-4020-linz", "brand": "McDonald\u2019s", "brand:wikidata": "Q38076"}, "geometry": {"type": "Point", "coordinates": [14.2885551, 48.304161]}},
{"type": "Feature", "id": "LLiywmsMc4x_ImtJ4BYwF5QBBMg=", "properties": {"ref": "https://www.mcdonalds.at/restaurant/mariahilferstrasse-22-24-a-1070-wien", "@spider": "mcdonalds_at", "addr:country": "AT", "website": "https://www.mcdonalds.at/restaurant/mariahilferstrasse-22-24-a-1070-wien", "brand": "McDonald\u2019s", "brand:wikidata": "Q38076"}, "geometry": {"type": "Point", "coordinates": [16.3574377, 48.2008346]}},
{"type": "Feature", "id": "z2m6E5Dw-x0abyF00eIV28dbcGo=", "properties": {"ref": "https://www.mcdonalds.at/restaurant/mcdonalds-strasse-1-a-8684-spital-am-semmering", "@spider": "mcdonalds_at", "addr:country": "AT", "website": "https://www.mcdonalds.at/restaurant/mcdonalds-strasse-1-a-8684-spital-am-semmering", "brand": "McDonald\u2019s", "brand:wikidata": "Q38076"}, "geometry": {"type": "Point", "coordinates": [15.7198655, 47.6027501]}},
{"type": "Feature", "id": "N6dftmcX-R4oJL-0kEjpLqvJiAU=", "properties": {"ref": "https://www.mcdonalds.at/restaurant/suedtirolerplatz-eg-top-151-a-1100-wien-hauptbahnhof", "@spider": "mcdonalds_at", "addr:country": "AT", "website": "https://www.mcdonalds.at/restaurant/suedtirolerplatz-eg-top-151-a-1100-wien-hauptbahnhof", "brand": "McDonald\u2019s", "brand:wikidata": "Q38076"}, "geometry": {"type": "Point", "coordinates": [16.3752314, 48.1854714]}},
{"type": "Feature", "id": "lpETn7sFz0WNMZBGutV2i1tJH94=", "properties": {"ref": "https://www.mcdonalds.at/restaurant/roemerstrasse-1-a-5301-eugendorf", "@spider": "mcdonalds_at", "addr:country": "AT", "website": "https://www.mcdonalds.at/restaurant/roemerstrasse-1-a-5301-eugendorf", "brand": "McDonald\u2019s", "brand:wikidata": "Q38076"}, "geometry": {"type": "Point", "coordinates": [13.1251283, 47.8595331]}},
{"type": "Feature", "id": "qEGZ--cg9Lwj8g4d7rG2tcfK23o=", "properties": {"ref": "https://www.mcdonalds.at/restaurant/suedtirolerplatz-shop-2-125-shop-1-132-a-1040-wien", "@spider": "mcdonalds_at", "addr:country": "AT", "website": "https://www.mcdonalds.at/restaurant/suedtirolerplatz-shop-2-125-shop-1-132-a-1040-wien", "brand": "McDonald\u2019s", "brand:wikidata": "Q38076"}, "geometry": {"type": "Point", "coordinates": [16.3729744, 48.2037052]}},
{"type": "Feature", "id": "b75qjKN1N4K_izeLPPoMnK59ESg=", "properties": {"ref": "https://www.mcdonalds.at/restaurant/objekt-115-a-1300-wien-flughafen", "@spider": "mcdonalds_at", "addr:country": "AT", "website": "https://www.mcdonalds.at/restaurant/objekt-115-a-1300-wien-flughafen", "brand": "McDonald\u2019s", "brand:wikidata": "Q38076"}, "geometry": {"type": "Point", "coordinates": [16.5572518, 48.1230128]}},
{"type": "Feature", "id": "8v4QIX5k7El6HHumfP9hTIzgFY8=", "properties": {"ref": "https://www.mcdonalds.at/restaurant/gasometer-a-shopping-mallguglgasse-12-14-top-14-15-a-1110-wien", "@spider": "mcdonalds_at", "addr:country": "AT", "website": "https://www.mcdonalds.at/restaurant/gasometer-a-shopping-mallguglgasse-12-14-top-14-15-a-1110-wien", "brand": "McDonald\u2019s", "brand:wikidata": "Q38076"}, "geometry": {"type": "Point", "coordinates": [16.4180149, 48.1851312]}},
{"type": "Feature", "id": "I_YmaKjmH3PQwmA_I0cc7LSiLx0=", "properties": {"ref": "https://www.mcdonalds.at/restaurant/suedtiroler-platz-5-a-6020-innsbruck-bahnhof", "@spider": "mcdonalds_at", "addr:country": "AT", "website": "https://www.mcdonalds.at/restaurant/suedtiroler-platz-5-a-6020-innsbruck-bahnhof", "brand": "McDonald\u2019s", "brand:wikidata": "Q38076"}, "geometry": {"type": "Point", "coordinates": [11.4005631, 47.2638361]}},
{"type": "Feature", "id": "ZOQMh6uKDaXm1DI7wsFC9pG1pyo=", "properties": {"ref": "https://www.mcdonalds.at/restaurant/simmeringer-hauptstrasse-113-a-1110-wien", "@spider": "mcdonalds_at", "addr:country": "AT", "website": "https://www.mcdonalds.at/restaurant/simmeringer-hauptstrasse-113-a-1110-wien", "brand": "McDonald\u2019s", "brand:wikidata": "Q38076"}, "geometry": {"type": "Point", "coordinates": [16.4170789, 48.1739266]}},
{"type": "Feature", "id": "qt-Mlxu7qS7drHWMvwuT1oNDoqY=", "properties": {"ref": "https://www.mcdonalds.at/restaurant/amraserseestrasse-56b-a-6020-innsbruck", "@spider": "mcdonalds_at", "addr:country": "AT", "website": "https://www.mcdonalds.at/restaurant/amraserseestrasse-56b-a-6020-innsbruck", "brand": "McDonald\u2019s", "brand:wikidata": "Q38076"}, "geometry": {"type": "Point", "coordinates": [11.4298321, 47.2632486]}},
{"type": "Feature", "id": "n1Md2DCiukJQm65ODr__rKxi0zM=", "properties": {"ref": "https://www.mcdonalds.at/restaurant/favoritenstrasse-89-a-1100-wien", "@spider": "mcdonalds_at", "addr:country": "AT", "website": "https://www.mcdonalds.at/restaurant/favoritenstrasse-89-a-1100-wien", "brand": "McDonald\u2019s", "brand:wikidata": "Q38076"}, "geometry": {"type": "Point", "coordinates": [16.3762262, 48.1799002]}},
{"type": "Feature", "id": "uOnzwKmGICK5viYaqwILKCMJHEM=", "properties": {"ref": "https://www.mcdonalds.at/restaurant/geierau-5-a-4680-haag-hausruck", "@spider": "mcdonalds_at", "addr:country": "AT", "website": "https://www.mcdonalds.at/restaurant/geierau-5-a-4680-haag-hausruck", "brand": "McDonald\u2019s", "brand:wikidata": "Q38076"}, "geometry": {"type": "Point", "coordinates": [13.6420951, 48.1994055]}},
{"type": "Feature", "id": "fGTkD8f4MpEnBRNKr10zcPCeJgg=", "properties": {"ref": "https://www.mcdonalds.at/restaurant/favoritenstrasse-130-a-1100-wien", "@spider": "mcdonalds_at", "addr:country": "AT", "website": "https://www.mcdonalds.at/restaurant/favoritenstrasse-130-a-1100-wien", "brand": "McDonald\u2019s", "brand:wikidata": "Q38076"}, "geometry": {"type": "Point", "coordinates": [16.3776818, 48.17494]}},
{"type": "Feature", "id": "R_3hA-ubHjmDblew6AkIEVkIJM8=", "properties": {"ref": "https://www.mcdonalds.at/restaurant/eco-plus-park-2-strasse-1-a-2460-bruck-leitha", "@spider": "mcdonalds_at", "addr:country": "AT", "website": "https://www.mcdonalds.at/restaurant/eco-plus-park-2-strasse-1-a-2460-bruck-leitha", "brand": "McDonald\u2019s", "brand:wikidata": "Q38076"}, "geometry": {"type": "Point", "coordinates": [16.8043849, 48.0335744]}},
{"type": "Feature", "id": "3QjQ0MmFJlOYbyPAfHnxbwcQSgo=", "properties": {"ref": "https://www.mcdonalds.at/restaurant/herzog-friedrich-strasse-35-a-6020-innsbruck", "@spider": "mcdonalds_at", "addr:country": "AT", "website": "https://www.mcdonalds.at/restaurant/herzog-friedrich-strasse-35-a-6020-innsbruck", "brand": "McDonald\u2019s", "brand:wikidata": "Q38076"}, "geometry": {"type": "Point", "coordinates": [11.3937912, 47.2676284]}},
{"type": "Feature", "id": "f0hUMd7RjjbSU8VGWsvrJS671mE=", "properties": {"ref": "https://www.mcdonalds.at/restaurant/wilhelmstrasse-64-a-1120-wien", "@spider": "mcdonalds_at", "addr:country": "AT", "website": "https://www.mcdonalds.at/restaurant/wilhelmstrasse-64-a-1120-wien", "brand": "McDonald\u2019s", "brand:wikidata": "Q38076"}, "geometry": {"type": "Point", "coordinates": [16.3312706, 48.1749313]}},
{"type": "Feature", "id": "S6-B8IiqlhBID89aBbfz9lNHGVo=", "properties": {"ref": "https://www.mcdonalds.at/restaurant/7-haidequerstrasse-2-a-1110-wien", "@spider": "mcdonalds_at", "addr:country": "AT", "website": "https://www.mcdonalds.at/restaurant/7-haidequerstrasse-2-a-1110-wien", "brand": "McDonald\u2019s", "brand:wikidata": "Q38076"}, "geometry": {"type": "Point", "coordinates": [16.443661, 48.1820545]}},
{"type": "Feature", "id": "xorcIL-MlsrXxyW4496MJ2PIQ-M=", "properties": {"ref": "https://www.mcdonalds.at/restaurant/marlen-haushofer-strasse-1-a-4400-steyr", "@spider": "mcdonalds_at", "addr:country": "AT", "website": "https://www.mcdonalds.at/restaurant/marlen-haushofer-strasse-1-a-4400-steyr", "brand": "McDonald\u2019s", "brand:wikidata": "Q38076"}, "geometry": {"type": "Point", "coordinates": [14.4225215, 48.055435]}},
{"type": "Feature", "id": "lppzBo1SUum7ets_PrN-f0YREt0=", "properties": {"ref": "https://www.mcdonalds.at/restaurant/waidhofner-strasse-46-a-3300-amstetten-greinsfurth", "@spider": "mcdonalds_at", "addr:country": "AT", "website": "https://www.mcdonalds.at/restaurant/waidhofner-strasse-46-a-3300-amstetten-greinsfurth", "brand": "McDonald\u2019s", "brand:wikidata": "Q38076"}, "geometry": {"type": "Point", "coordinates": [14.8367189, 48.1084465]}},
{"type": "Feature", "id": "Mxao7TitXTCf3Iw-W7WwUzP3S8A=", "properties": {"ref": "https://www.mcdonalds.at/restaurant/asamerstrasse-1-a-4655-vorchdorf", "@spider": "mcdonalds_at", "addr:country": "AT", "website": "https://www.mcdonalds.at/restaurant/asamerstrasse-1-a-4655-vorchdorf", "brand": "McDonald\u2019s", "brand:wikidata": "Q38076"}, "geometry": {"type": "Point", "coordinates": [13.9223384, 48.0109397]}},
{"type": "Feature", "id": "L3U1HFxFWcTsr0MT8v8pJF46nEw=", "properties": {"ref": "https://www.mcdonalds.at/restaurant/burggasse-138-a-8750-judenburg", "@spider": "mcdonalds_at", "addr:country": "AT", "website": "https://www.mcdonalds.at/restaurant/burggasse-138-a-8750-judenburg", "brand": "McDonald\u2019s", "brand:wikidata": "Q38076"}, "geometry": {"type": "Point", "coordinates": [14.6317499, 47.1721813]}},
{"type": "Feature", "id": "SSxxnxCL8qobBYyeYyJkqcka0dw=", "properties": {"ref": "https://www.mcdonalds.at/restaurant/wiener-strasse-13-a-8720-knittelfeld", "@spider": "mcdonalds_at", "addr:country": "AT", "website": "https://www.mcdonalds.at/restaurant/wiener-strasse-13-a-8720-knittelfeld", "brand": "McDonald\u2019s", "brand:wikidata": "Q38076"}, "geometry": {"type": "Point", "coordinates": [14.8270035, 47.2168024]}},
{"type": "Feature", "id": "orKIdNRvdZAL4wlw7hiAFedNGDQ=", "properties": {"ref": "https://www.mcdonalds.at/restaurant/st-poeltner-strasse-43-a-3040-neulengbach", "@spider": "mcdonalds_at", "addr:country": "AT", "website": "https://www.mcdonalds.at/restaurant/st-poeltner-strasse-43-a-3040-neulengbach", "brand": "McDonald\u2019s", "brand:wikidata": "Q38076"}, "geometry": {"type": "Point", "coordinates": [15.8894693, 48.1952495]}},
{"type": "Feature", "id": "sySoBMlbVwLoS_nYzVBFbex3dYY=", "properties": {"ref": "https://www.mcdonalds.at/restaurant/einkaufszentrum-cyta-giessenweg-2-a-6176-voels", "@spider": "mcdonalds_at", "addr:country": "AT", "website": "https://www.mcdonalds.at/restaurant/einkaufszentrum-cyta-giessenweg-2-a-6176-voels", "brand": "McDonald\u2019s", "brand:wikidata": "Q38076"}, "geometry": {"type": "Point", "coordinates": [11.3231248, 47.2571588]}},
{"type": "Feature", "id": "1B9K5wvZfpMNUufYqZVu3hl8JU4=", "properties": {"ref": "https://www.mcdonalds.at/restaurant/seestadtstrasse-4-a-1220-wien", "@spider": "mcdonalds_at", "addr:country": "AT", "website": "https://www.mcdonalds.at/restaurant/seestadtstrasse-4-a-1220-wien", "brand": "McDonald\u2019s", "brand:wikidata": "Q38076"}, "geometry": {"type": "Point", "coordinates": [16.5050141, 48.2160903]}},
{"type": "Feature", "id": "P6RP0icCjcxJrKlSuqV9kjWQO3U=", "properties": {"ref": "https://www.mcdonalds.at/restaurant/friedrich-thurnerstrasse-18-a-4910-ried-im-innkreis", "@spider": "mcdonalds_at", "addr:country": "AT", "website": "https://www.mcdonalds.at/restaurant/friedrich-thurnerstrasse-18-a-4910-ried-im-innkreis", "brand": "McDonald\u2019s", "brand:wikidata": "Q38076"}, "geometry": {"type": "Point", "coordinates": [13.4831005, 48.2127074]}},
{"type": "Feature", "id": "3B-xH9aLggvN4kLeYlsAUsF1j0E=", "properties": {"ref": "https://www.mcdonalds.at/restaurant/franz-jonas-platz-2-a-1210-wien", "@spider": "mcdonalds_at", "addr:country": "AT", "website": "https://www.mcdonalds.at/restaurant/franz-jonas-platz-2-a-1210-wien", "brand": "McDonald\u2019s", "brand:wikidata": "Q38076"}, "geometry": {"type": "Point", "coordinates": [16.3986139, 48.2566119]}},
{"type": "Feature", "id": "lfajZTmRVeNuno4UrGPRB3ntH10=", "properties": {"ref": "https://www.mcdonalds.at/restaurant/jedletzbergerstrasse-7-a-1110-wien", "@spider": "mcdonalds_at", "addr:country": "AT", "website": "https://www.mcdonalds.at/restaurant/jedletzbergerstrasse-7-a-1110-wien", "brand": "McDonald\u2019s", "brand:wikidata": "Q38076"}, "geometry": {"type": "Point", "coordinates": [16.458123, 48.1702966]}},
{"type": "Feature", "id": "0J_Xtm1P1KjePlazmn7vSkNXBxY=", "properties": {"ref": "https://www.mcdonalds.at/restaurant/hadikgasse-62-a-1140-wien", "@spider": "mcdonalds_at", "addr:country": "AT", "website": "https://www.mcdonalds.at/restaurant/hadikgasse-62-a-1140-wien", "brand": "McDonald\u2019s", "brand:wikidata": "Q38076"}, "geometry": {"type": "Point", "coordinates": [16.3035664, 48.1884721]}},
{"type": "Feature", "id": "9f0rAA5B-qNsLJL5_WfmODnPCuo=", "properties": {"ref": "https://www.mcdonalds.at/restaurant/rautenweg-2-a-1220-wien", "@spider": "mcdonalds_at", "addr:country": "AT", "website": "https://www.mcdonalds.at/restaurant/rautenweg-2-a-1220-wien", "brand": "McDonald\u2019s", "brand:wikidata": "Q38076"}, "geometry": {"type": "Point", "coordinates": [16.4560776, 48.2640518]}},
{"type": "Feature", "id": "h85YkFH1qB8Hp_ySBrZ-N0WrTME=", "properties": {"ref": "https://www.mcdonalds.at/restaurant/landstrasser-hauptstrasse-1b-ez-wien-mitte-a-1030-wien", "@spider": "mcdonalds_at", "addr:country": "AT", "website": "https://www.mcdonalds.at/restaurant/landstrasser-hauptstrasse-1b-ez-wien-mitte-a-1030-wien", "brand": "McDonald\u2019s", "brand:wikidata": "Q38076"}, "geometry": {"type": "Point", "coordinates": [16.3844952, 48.2067483]}},
{"type": "Feature", "id": "B_-8HEvBM0RRH3PeKqDVPPhI3HE=", "properties": {"ref": "https://www.mcdonalds.at/restaurant/wiener-gasse-10-a-9020-klagenfurt", "@spider": "mcdonalds_at", "addr:country": "AT", "website": "https://www.mcdonalds.at/restaurant/wiener-gasse-10-a-9020-klagenfurt", "brand": "McDonald\u2019s", "brand:wikidata": "Q38076"}, "geometry": {"type": "Point", "coordinates": [14.3088164, 46.6263254]}},
{"type": "Feature", "id": "TXFwNBE5NWmkKFF-ebm-3VVYLhs=", "properties": {"ref": "https://www.mcdonalds.at/restaurant/an-der-leopoldauer-strasse-49-a-1210-wien", "@spider": "mcdonalds_at", "addr:country": "AT", "website": "https://www.mcdonalds.at/restaurant/an-der-leopoldauer-strasse-49-a-1210-wien", "brand": "McDonald\u2019s", "brand:wikidata": "Q38076"}, "geometry": {"type": "Point", "coordinates": [16.4111213, 48.2602344]}},
{"type": "Feature", "id": "ph44-UzQWUyO6VfTpJBjZWsN1wg=", "properties": {"ref": "https://www.mcdonalds.at/restaurant/mariazeller-strasse-93-a-3100-st-poelten", "@spider": "mcdonalds_at", "addr:country": "AT", "website": "https://www.mcdonalds.at/restaurant/mariazeller-strasse-93-a-3100-st-poelten", "brand": "McDonald\u2019s", "brand:wikidata": "Q38076"}, "geometry": {"type": "Point", "coordinates": [15.6185307, 48.1888953]}},
{"type": "Feature", "id": "2zbVH957HaKZvv9TglTwKkoseQw=", "properties": {"ref": "https://www.mcdonalds.at/restaurant/j-g-ulmerstrasse-1-a-6850-dornbirn", "@spider": "mcdonalds_at", "addr:country": "AT", "website": "https://www.mcdonalds.at/restaurant/j-g-ulmerstrasse-1-a-6850-dornbirn", "brand": "McDonald\u2019s", "brand:wikidata": "Q38076"}, "geometry": {"type": "Point", "coordinates": [9.7402737, 47.4262422]}},
{"type": "Feature", "id": "ser7iFbPxSYiKYj8WSFVU9mSkSs=", "properties": {"ref": "https://www.mcdonalds.at/restaurant/heiligenstaedterstrasse-68-a-1190-wien", "@spider": "mcdonalds_at", "addr:country": "AT", "website": "https://www.mcdonalds.at/restaurant/heiligenstaedterstrasse-68-a-1190-wien", "brand": "McDonald\u2019s", "brand:wikidata": "Q38076"}, "geometry": {"type": "Point", "coordinates": [16.3617065, 48.242831]}},
{"type": "Feature", "id": "XuH-as7-7GHujIBM6HY1xOHAjdY=", "properties": {"ref": "https://www.mcdonalds.at/restaurant/ausstellungsstrasse-44a-a-1020-wien", "@spider": "mcdonalds_at", "addr:country": "AT", "website": "https://www.mcdonalds.at/restaurant/ausstellungsstrasse-44a-a-1020-wien", "brand": "McDonald\u2019s", "brand:wikidata": "Q38076"}, "geometry": {"type": "Point", "coordinates": [16.4058049, 48.2174422]}},
{"type": "Feature", "id": "Fb4Z-4W06WGzY2Vtx23Kzzn5ujs=", "properties": {"ref": "https://www.mcdonalds.at/restaurant/weiberfelderweg-2-a-8054-graz", "@spider": "mcdonalds_at", "addr:country": "AT", "website": "https://www.mcdonalds.at/restaurant/weiberfelderweg-2-a-8054-graz", "brand": "McDonald\u2019s", "brand:wikidata": "Q38076"}, "geometry": {"type": "Point", "coordinates": [15.4008535, 47.0282877]}},
{"type": "Feature", "id": "-kvcYQynHdcU7KytD5Rxw8d3RGQ=", "properties": {"ref": "https://www.mcdonalds.at/restaurant/villacher-str-113-a-9800-spittal-drau", "@spider": "mcdonalds_at", "addr:country": "AT", "website": "https://www.mcdonalds.at/restaurant/villacher-str-113-a-9800-spittal-drau", "brand": "McDonald\u2019s", "brand:wikidata": "Q38076"}, "geometry": {"type": "Point", "coordinates": [13.5230218, 46.7869934]}},
{"type": "Feature", "id": "FsOHeMYbmQGD7KPudfumTPMpxDc=", "properties": {"ref": "https://www.mcdonalds.at/restaurant/anton-hermann-strasse-1-a-8073-feldkirchen-graz", "@spider": "mcdonalds_at", "addr:country": "AT", "website": "https://www.mcdonalds.at/restaurant/anton-hermann-strasse-1-a-8073-feldkirchen-graz", "brand": "McDonald\u2019s", "brand:wikidata": "Q38076"}, "geometry": {"type": "Point", "coordinates": [15.4398319, 47.0085412]}},
{"type": "Feature", "id": "i6MjgoS8ew2WWnjY_urufJkUm9g=", "properties": {"ref": "https://www.mcdonalds.at/restaurant/saegerstrasse-102-a-6890-lustenau", "@spider": "mcdonalds_at", "addr:country": "AT", "website": "https://www.mcdonalds.at/restaurant/saegerstrasse-102-a-6890-lustenau", "brand": "McDonald\u2019s", "brand:wikidata": "Q38076"}, "geometry": {"type": "Point", "coordinates": [9.6718557, 47.4180869]}},
{"type": "Feature", "id": "wd0OWb8KKaWJEP4KvTpSr3H46kY=", "properties": {"ref": "https://www.mcdonalds.at/restaurant/hauptplatz-8-a-9500-villach", "@spider": "mcdonalds_at", "addr:country": "AT", "website": "https://www.mcdonalds.at/restaurant/hauptplatz-8-a-9500-villach", "brand": "McDonald\u2019s", "brand:wikidata": "Q38076"}, "geometry": {"type": "Point", "coordinates": [13.8468055, 46.6147988]}},
{"type": "Feature", "id": "qlNQ7gPHKBbhDS6SWS-PijXjhXc=", "properties": {"ref": "https://www.mcdonalds.at/restaurant/wiener-strasse-96-102-im-buehl-center-a-3500-krems", "@spider": "mcdonalds_at", "addr:country": "AT", "website": "https://www.mcdonalds.at/restaurant/wiener-strasse-96-102-im-buehl-center-a-3500-krems", "brand": "McDonald\u2019s", "brand:wikidata": "Q38076"}, "geometry": {"type": "Point", "coordinates": [15.6212873, 48.4165236]}},
{"type": "Feature", "id": "ziksQ4jZN3xpS8ervvUx4tw3K60=", "properties": {"ref": "https://www.mcdonalds.at/restaurant/hauptstrasse-3-a-6706-bludenz-buers", "@spider": "mcdonalds_at", "addr:country": "AT", "website": "https://www.mcdonalds.at/restaurant/hauptstrasse-3-a-6706-bludenz-buers", "brand": "McDonald\u2019s", "brand:wikidata": "Q38076"}, "geometry": {"type": "Point", "coordinates": [9.8146109, 47.1515795]}},
{"type": "Feature", "id": "VkAumsP13fWq9HEyDALs7lfT3QQ=", "properties": {"ref": "https://www.mcdonalds.at/restaurant/ekz-passage-22-bundesstrasse-24-a-6830-rankweil", "@spider": "mcdonalds_at", "addr:country": "AT", "website": "https://www.mcdonalds.at/restaurant/ekz-passage-22-bundesstrasse-24-a-6830-rankweil", "brand": "McDonald\u2019s", "brand:wikidata": "Q38076"}, "geometry": {"type": "Point", "coordinates": [9.6159683, 47.2726259]}},
{"type": "Feature", "id": "HPquSoXfNLmqBLHYh001MDlTjVQ=", "properties": {"ref": "https://www.mcdonalds.at/restaurant/kaiser-ebersdorferstrasse-322-a-1110-wien", "@spider": "mcdonalds_at", "addr:country": "AT", "website": "https://www.mcdonalds.at/restaurant/kaiser-ebersdorferstrasse-322-a-1110-wien", "brand": "McDonald\u2019s", "brand:wikidata": "Q38076"}, "geometry": {"type": "Point", "coordinates": [16.4712574, 48.1593414]}},
{"type": "Feature", "id": "ZWy2fTqnhhiGNibrAGMwhM2odfw=", "properties": {"ref": "https://www.mcdonalds.at/restaurant/kopernikusstrasse-8-a-4840-voecklabruck", "@spider": "mcdonalds_at", "addr:country": "AT", "website": "https://www.mcdonalds.at/restaurant/kopernikusstrasse-8-a-4840-voecklabruck", "brand": "McDonald\u2019s", "brand:wikidata": "Q38076"}, "geometry": {"type": "Point", "coordinates": [13.673192, 48.0048253]}},
{"type": "Feature", "id": "0KRlyAHEmhbAjRaNYG0upQp0W30=", "properties": {"ref": "https://www.mcdonalds.at/restaurant/wiener-strasse-335-a-8051-graz", "@spider": "mcdonalds_at", "addr:country": "AT", "website": "https://www.mcdonalds.at/restaurant/wiener-strasse-335-a-8051-graz", "brand": "McDonald\u2019s", "brand:wikidata": "Q38076"}, "geometry": {"type": "Point", "coordinates": [15.4002375, 47.1044034]}},
{"type": "Feature", "id": "0soJRJgJrTa5mKzu62jSCIMQBZo=", "properties": {"ref": "https://www.mcdonalds.at/restaurant/wiener-strasse-4-a-3580-frauenhofen", "@spider": "mcdonalds_at", "addr:country": "AT", "website": "https://www.mcdonalds.at/restaurant/wiener-strasse-4-a-3580-frauenhofen", "brand": "McDonald\u2019s", "brand:wikidata": "Q38076"}, "geometry": {"type": "Point", "coordinates": [15.66168, 48.6646871]}},
{"type": "Feature", "id": "2O55iZUEmw1J7v200OaMPUIRbb0=", "properties": {"ref": "https://www.mcdonalds.at/restaurant/gschmeidlerstrasse-14-18-a-2020-hollabrunn", "@spider": "mcdonalds_at", "addr:country": "AT", "website": "https://www.mcdonalds.at/restaurant/gschmeidlerstrasse-14-18-a-2020-hollabrunn", "brand": "McDonald\u2019s", "brand:wikidata": "Q38076"}, "geometry": {"type": "Point", "coordinates": [16.0740757, 48.5640477]}},
{"type": "Feature", "id": "MfTJb7MM0VTyuNqHBTOMg3zL1uw=", "properties": {"ref": "https://www.mcdonalds.at/restaurant/dammstrasse-b8-a-2232-deutsch-wagram", "@spider": "mcdonalds_at", "addr:country": "AT", "website": "https://www.mcdonalds.at/restaurant/dammstrasse-b8-a-2232-deutsch-wagram", "brand": "McDonald\u2019s", "brand:wikidata": "Q38076"}, "geometry": {"type": "Point", "coordinates": [16.5765652, 48.3034787]}},
{"type": "Feature", "id": "_poHRCZdtOEMeHCHbSct6nXOaMo=", "properties": {"ref": "https://www.mcdonalds.at/restaurant/huetteldorfer-strasse-81b-4-a-1150-wien", "@spider": "mcdonalds_at", "addr:country": "AT", "website": "https://www.mcdonalds.at/restaurant/huetteldorfer-strasse-81b-4-a-1150-wien", "brand": "McDonald\u2019s", "brand:wikidata": "Q38076"}, "geometry": {"type": "Point", "coordinates": [16.3199136, 48.1984169]}},
{"type": "Feature", "id": "WRXBjUDlOS25iY8tIHyuxPYV2Jc=", "properties": {"ref": "https://www.mcdonalds.at/restaurant/breitenfurterstr-245-247-a-1230-wien", "@spider": "mcdonalds_at", "addr:country": "AT", "website": "https://www.mcdonalds.at/restaurant/breitenfurterstr-245-247-a-1230-wien", "brand": "McDonald\u2019s", "brand:wikidata": "Q38076"}, "geometry": {"type": "Point", "coordinates": [16.3017614, 48.1526926]}},
{"type": "Feature", "id": "R7MC2aKSutxTxuzKhfRClXYksSo=", "properties": {"ref": "https://www.mcdonalds.at/restaurant/klagenfurter-strasse-39-a-9400-wolfsberg", "@spider": "mcdonalds_at", "addr:country": "AT", "website": "https://www.mcdonalds.at/restaurant/klagenfurter-strasse-39-a-9400-wolfsberg", "brand": "McDonald\u2019s", "brand:wikidata": "Q38076"}, "geometry": {"type": "Point", "coordinates": [14.8400148, 46.8262042]}},
{"type": "Feature", "id": "6GXSmTyZNCAOBse1NzkHiXitM0U=", "properties": {"ref": "https://www.mcdonalds.at/restaurant/voelkermarkter-strasse-268-a-9020-klagenfurt", "@spider": "mcdonalds_at", "addr:country": "AT", "website": "https://www.mcdonalds.at/restaurant/voelkermarkter-strasse-268-a-9020-klagenfurt", "brand": "McDonald\u2019s", "brand:wikidata": "Q38076"}, "geometry": {"type": "Point", "coordinates": [14.3547822, 46.6292731]}},
{"type": "Feature", "id": "nCE8xK07tNqyPANcBjFWbdXeAAs=", "properties": {"ref": "https://www.mcdonalds.at/restaurant/andre-freyskorn-strasse-2-a-3910-zwettl", "@spider": "mcdonalds_at", "addr:country": "AT", "website": "https://www.mcdonalds.at/restaurant/andre-freyskorn-strasse-2-a-3910-zwettl", "brand": "McDonald\u2019s", "brand:wikidata": "Q38076"}, "geometry": {"type": "Point", "coordinates": [15.1869806, 48.6022206]}},
{"type": "Feature", "id": "nrWCqxls-nHCQ89SNRC0LYlbt5c=", "properties": {"ref": "https://www.mcdonalds.at/restaurant/rheinstrasse-6-a-6971-hard", "@spider": "mcdonalds_at", "addr:country": "AT", "website": "https://www.mcdonalds.at/restaurant/rheinstrasse-6-a-6971-hard", "brand": "McDonald\u2019s", "brand:wikidata": "Q38076"}, "geometry": {"type": "Point", "coordinates": [9.7053652, 47.4908497]}},
{"type": "Feature", "id": "mQUk4--JODDWqvquzyca6HMbkaM=", "properties": {"ref": "https://www.mcdonalds.at/restaurant/maria-gailerstr-35-a-9500-villach", "@spider": "mcdonalds_at", "addr:country": "AT", "website": "https://www.mcdonalds.at/restaurant/maria-gailerstr-35-a-9500-villach", "brand": "McDonald\u2019s", "brand:wikidata": "Q38076"}, "geometry": {"type": "Point", "coordinates": [13.8654547, 46.6052858]}},
{"type": "Feature", "id": "R-HkQnewYigt2ydDonZpDGZDoaU=", "properties": {"ref": "https://www.mcdonalds.at/restaurant/haider-strasse-39-a-4052-ansfelden", "@spider": "mcdonalds_at", "addr:country": "AT", "website": "https://www.mcdonalds.at/restaurant/haider-strasse-39-a-4052-ansfelden", "brand": "McDonald\u2019s", "brand:wikidata": "Q38076"}, "geometry": {"type": "Point", "coordinates": [14.2794299, 48.2113652]}},
{"type": "Feature", "id": "B5HI7RfciXk7pMDJxxIqfDXTYYI=", "properties": {"ref": "https://www.mcdonalds.at/restaurant/singerstrasse-4-a-1010-wien", "@spider": "mcdonalds_at", "addr:country": "AT", "website": "https://www.mcdonalds.at/restaurant/singerstrasse-4-a-1010-wien", "brand": "McDonald\u2019s", "brand:wikidata": "Q38076"}, "geometry": {"type": "Point", "coordinates": [16.3724382, 48.2076529]}},
{"type": "Feature", "id": "MW8WvnUJ5oEHM9uQEpBAmEdTdRs=", "properties": {"ref": "https://www.mcdonalds.at/restaurant/hadikgasse-254-a-1140-wien", "@spider": "mcdonalds_at", "addr:country": "AT", "website": "https://www.mcdonalds.at/restaurant/hadikgasse-254-a-1140-wien", "brand": "McDonald\u2019s", "brand:wikidata": "Q38076"}, "geometry": {"type": "Point", "coordinates": [16.2761452, 48.1928526]}},
{"type": "Feature", "id": "9uub0_QvIQq_Jr2_z1lEzY54GGw=", "properties": {"ref": "https://www.mcdonalds.at/restaurant/shopping-city-sued-a-2334-voesendorf", "@spider": "mcdonalds_at", "addr:country": "AT", "website": "https://www.mcdonalds.at/restaurant/shopping-city-sued-a-2334-voesendorf", "brand": "McDonald\u2019s", "brand:wikidata": "Q38076"}, "geometry": {"type": "Point", "coordinates": [16.3179302, 48.1080284]}},
{"type": "Feature", "id": "sS6SwB0t3Wd9YjSAFrQ7oH2mAPA=", "properties": {"ref": "https://www.mcdonalds.at/restaurant/gesaeusestrasse-1-a-8940-liezen", "@spider": "mcdonalds_at", "addr:country": "AT", "website": "https://www.mcdonalds.at/restaurant/gesaeusestrasse-1-a-8940-liezen", "brand": "McDonald\u2019s", "brand:wikidata": "Q38076"}, "geometry": {"type": "Point", "coordinates": [14.247262, 47.561687]}},
{"type": "Feature", "id": "3RGW6vnPsfoKSSSTs_G2oZSp9DI=", "properties": {"ref": "https://www.mcdonalds.at/restaurant/rotenturmstrasse-29-a-1010-wien", "@spider": "mcdonalds_at", "addr:country": "AT", "website": "https://www.mcdonalds.at/restaurant/rotenturmstrasse-29-a-1010-wien", "brand": "McDonald\u2019s", "brand:wikidata": "Q38076"}, "geometry": {"type": "Point", "coordinates": [16.3758165, 48.2117475]}},
{"type": "Feature", "id": "0J_9OAhNAOPG97ufhLLXvLGV-Eo=", "properties": {"ref": "https://www.mcdonalds.at/restaurant/triesterstrasse-70-a-1100-wien", "@spider": "mcdonalds_at", "addr:country": "AT", "website": "https://www.mcdonalds.at/restaurant/triesterstrasse-70-a-1100-wien", "brand": "McDonald\u2019s", "brand:wikidata": "Q38076"}, "geometry": {"type": "Point", "coordinates": [16.3462976, 48.1652112]}},
{"type": "Feature", "id": "jYUSFkv9Z17tHRvXeFESQ8wyI74=", "properties": {"ref": "https://www.mcdonalds.at/restaurant/conrad-von-hoetzendorfstr-91-a-8010-graz", "@spider": "mcdonalds_at", "addr:country": "AT", "website": "https://www.mcdonalds.at/restaurant/conrad-von-hoetzendorfstr-91-a-8010-graz", "brand": "McDonald\u2019s", "brand:wikidata": "Q38076"}, "geometry": {"type": "Point", "coordinates": [15.4483408, 47.0554359]}},
{"type": "Feature", "id": "VkBmmy1JRmBo0dVvOxVG55nvArw=", "properties": {"ref": "https://www.mcdonalds.at/restaurant/johannesgasse-3-a-1010-wien", "@spider": "mcdonalds_at", "addr:country": "AT", "website": "https://www.mcdonalds.at/restaurant/johannesgasse-3-a-1010-wien", "brand": "McDonald\u2019s", "brand:wikidata": "Q38076"}, "geometry": {"type": "Point", "coordinates": [16.3716623, 48.2052387]}},
{"type": "Feature", "id": "QTO4Qz6dggPNs7irzgUoW-mFmc4=", "properties": {"ref": "https://www.mcdonalds.at/restaurant/schwarzenbergplatz-17-a-1010-wien", "@spider": "mcdonalds_at", "addr:country": "AT", "website": "https://www.mcdonalds.at/restaurant/schwarzenbergplatz-17-a-1010-wien", "brand": "McDonald\u2019s", "brand:wikidata": "Q38076"}, "geometry": {"type": "Point", "coordinates": [16.3739803, 48.2011]}},
{"type": "Feature", "id": "aq0eeNDLRhMfeUBMOZxZBJpyD8Q=", "properties": {"ref": "https://www.mcdonalds.at/restaurant/wagramer-strasse-54-a-1220-wien", "@spider": "mcdonalds_at", "addr:country": "AT", "website": "https://www.mcdonalds.at/restaurant/wagramer-strasse-54-a-1220-wien", "brand": "McDonald\u2019s", "brand:wikidata": "Q38076"}, "geometry": {"type": "Point", "coordinates": [16.4311797, 48.239429]}},
{"type": "Feature", "id": "FpmRFGg3ymajq4xXLzM_WtjLhI8=", "properties": {"ref": "https://www.mcdonalds.at/restaurant/hernalser-guertel-82-a-87-stadtbahnboegen-a-1090-wien", "@spider": "mcdonalds_at", "addr:country": "AT", "website": "https://www.mcdonalds.at/restaurant/hernalser-guertel-82-a-87-stadtbahnboegen-a-1090-wien", "brand": "McDonald\u2019s", "brand:wikidata": "Q38076"}, "geometry": {"type": "Point", "coordinates": [16.3414566, 48.2160804]}},
{"type": "Feature", "id": "WNCFlDgTUNdCn7nq1BBmLO1o1Ic=", "properties": {"ref": "https://www.mcdonalds.at/restaurant/donaustadtstrasse-49-a-1220-wien", "@spider": "mcdonalds_at", "addr:country": "AT", "website": "https://www.mcdonalds.at/restaurant/donaustadtstrasse-49-a-1220-wien", "brand": "McDonald\u2019s", "brand:wikidata": "Q38076"}, "geometry": {"type": "Point", "coordinates": [16.4442001, 48.219957]}},
{"type": "Feature", "id": "G_ovHV4c9A6Lc4Gb97j3uhTB15s=", "properties": {"ref": "https://www.mcdonalds.at/restaurant/universitaetsring-12-a-1010-wien", "@spider": "mcdonalds_at", "addr:country": "AT", "website": "https://www.mcdonalds.at/restaurant/universitaetsring-12-a-1010-wien", "brand": "McDonald\u2019s", "brand:wikidata": "Q38076"}, "geometry": {"type": "Point", "coordinates": [16.3619929, 48.213307]}},
{"type": "Feature", "id": "QplMruGI_mR7wNmgmH1T3YLLNog=", "properties": {"ref": "https://www.mcdonalds.at/restaurant/lauzilgasse-31-a-8020-graz", "@spider": "mcdonalds_at", "addr:country": "AT", "website": "https://www.mcdonalds.at/restaurant/lauzilgasse-31-a-8020-graz", "brand": "McDonald\u2019s", "brand:wikidata": "Q38076"}, "geometry": {"type": "Point", "coordinates": [15.4305198, 47.0455195]}}]}