{"type":"FeatureCollection","features":[{"type": "Feature", "id": "F0MhDQI-IvEuJFp2H3X9nmrwxCQ=", "properties": {"ref": "0", "@spider": "mcdonalds_ma", "amenity": "fast_food", "brand:ar": "\u0645\u0627\u0643\u062f\u0648\u0646\u0627\u0644\u062f\u0632", "brand:en": "McDonald's", "cuisine": "burger", "name:ar": "\u0645\u0627\u0643\u062f\u0648\u0646\u0627\u0644\u062f\u0632", "name:en": "McDonald's", "takeaway": "yes", "addr:full": "Marjane Bouskoura", "addr:country": "MA", "name": "McDonald's Les Myriades Bouskoura", "brand": "McDonald\u2019s", "brand:wikidata": "Q38076", "nsi_id": "mcdonalds-19c993"}, "geometry": {"type": "Point", "coordinates": [-7.63151, 33.4388]}},
{"type": "Feature", "id": "0dJ6US6Q8Q5l7t6QGyYVBU4tb-0=", "properties": {"ref": "1", "@spider": "mcdonalds_ma", "amenity": "fast_food", "brand:ar": "\u0645\u0627\u0643\u062f\u0648\u0646\u0627\u0644\u062f\u0632", "brand:en": "McDonald's", "cuisine": "burger", "name:ar": "\u0645\u0627\u0643\u062f\u0648\u0646\u0627\u0644\u062f\u0632", "name:en": "McDonald's", "takeaway": "yes", "addr:full": "Marjane Meknes", "addr:country": "MA", "name": "McDonald's Marjane Meknes", "brand": "McDonald\u2019s", "brand:wikidata": "Q38076", "nsi_id": "mcdonalds-19c993"}, "geometry": {"type": "Point", "coordinates": [-5.58131, 33.8559]}},
{"type": "Feature", "id": "nBWbxQs8OfhF55PX4a_e2vSVsvc=", "properties": {"ref": "2", "@spider": "mcdonalds_ma", "amenity": "fast_food", "brand:ar": "\u0645\u0627\u0643\u062f\u0648\u0646\u0627\u0644\u062f\u0632", "brand:en": "McDonald's", "cuisine": "burger", "name:ar": "\u0645\u0627\u0643\u062f\u0648\u0646\u0627\u0644\u062f\u0632", "name:en": "McDonald's", "takeaway": "yes", "addr:full": "Aire de repos Larache", "addr:country": "MA", "name": "McDonald's Aire de repos Larache", "brand": "McDonald\u2019s", "brand:wikidata": "Q38076", "nsi_id": "mcdonalds-19c993"}, "geometry": {"type": "Point", "coordinates": [-6.12133, 35.1695]}},
{"type": "Feature", "id": "md_9gaM_b1nhO5TirlD0Lftytvo=", "properties": {"ref": "3", "@spider": "mcdonalds_ma", "amenity": "fast_food", "brand:ar": "\u0645\u0627\u0643\u062f\u0648\u0646\u0627\u0644\u062f\u0632", "brand:en": "McDonald's", "cuisine": "burger", "name:ar": "\u0645\u0627\u0643\u062f\u0648\u0646\u0627\u0644\u062f\u0632", "name:en": "McDonald's", "takeaway": "yes", "addr:full": "Agadir Adrar Kitea", "addr:country": "MA", "name": "McDonald's Agadir Adrar Kitea", "brand": "McDonald\u2019s", "brand:wikidata": "Q38076", "nsi_id": "mcdonalds-19c993"}, "geometry": {"type": "Point", "coordinates": [-9.54599, 30.4133]}},
{"type": "Feature", "id": "lLQu1V_w1jkk6CNWArMDRghLJT4=", "properties": {"ref": "4", "@spider": "mcdonalds_ma", "amenity": "fast_food", "brand:ar": "\u0645\u0627\u0643\u062f\u0648\u0646\u0627\u0644\u062f\u0632", "brand:en": "McDonald's", "cuisine": "burger", "name:ar": "\u0645\u0627\u0643\u062f\u0648\u0646\u0627\u0644\u062f\u0632", "name:en": "McDonald's", "takeaway": "yes", "addr:full": "Oued Law, Casablanca", "addr:country": "MA", "name": "McDonald's Hay Hassani", "brand": "McDonald\u2019s", "brand:wikidata": "Q38076", "nsi_id": "mcdonalds-19c993"}, "geometry": {"type": "Point", "coordinates": [-7.67863, 33.566]}},
{"type": "Feature", "id": "RycYodgvh6TBHRBffWmN-2avMCU=", "properties": {"ref": "5", "@spider": "mcdonalds_ma", "amenity": "fast_food", "brand:ar": "\u0645\u0627\u0643\u062f\u0648\u0646\u0627\u0644\u062f\u0632", "brand:en": "McDonald's", "cuisine": "burger", "name:ar": "\u0645\u0627\u0643\u062f\u0648\u0646\u0627\u0644\u062f\u0632", "name:en": "McDonald's", "takeaway": "yes", "addr:full": "Inara, 125 Avenue 2 Mars", "addr:country": "MA", "name": "McDonald's Inara", "phone": "0666028894", "brand": "McDonald\u2019s", "brand:wikidata": "Q38076", "nsi_id": "mcdonalds-19c993"}, "geometry": {"type": "Point", "coordinates": [-7.60125, 33.5399]}},
{"type": "Feature", "id": "tO8QWdpoW-jZI8Vud7Uwt3iGEQY=", "properties": {"ref": "6", "@spider": "mcdonalds_ma", "amenity": "fast_food", "brand:ar": "\u0645\u0627\u0643\u062f\u0648\u0646\u0627\u0644\u062f\u0632", "brand:en": "McDonald's", "cuisine": "burger", "name:ar": "\u0645\u0627\u0643\u062f\u0648\u0646\u0627\u0644\u062f\u0632", "name:en": "McDonald's", "takeaway": "yes", "addr:full": "autoroute Zenata", "addr:country": "MA", "name": "McDonald's Zenata", "brand": "McDonald\u2019s", "brand:wikidata": "Q38076", "nsi_id": "mcdonalds-19c993"}, "geometry": {"type": "Point", "coordinates": [-7.46261, 33.6298]}},
{"type": "Feature", "id": "HS2z8uOqvFUeOpN2rAz8_qLpTww=", "properties": {"ref": "7", "@spider": "mcdonalds_ma", "amenity": "fast_food", "brand:ar": "\u0645\u0627\u0643\u062f\u0648\u0646\u0627\u0644\u062f\u0632", "brand:en": "McDonald's", "cuisine": "burger", "name:ar": "\u0645\u0627\u0643\u062f\u0648\u0646\u0627\u0644\u062f\u0632", "name:en": "McDonald's", "takeaway": "yes", "addr:full": "Imouzzer rocade sud, 30042 F\u00e8s", "addr:country": "MA", "name": "McDonald's F\u00e9s Marjane Route d'Imouzzer", "brand": "McDonald\u2019s", "brand:wikidata": "Q38076", "nsi_id": "mcdonalds-19c993"}, "geometry": {"type": "Point", "coordinates": [-4.99923, 33.9877]}},
{"type": "Feature", "id": "jfKUw0cZUoiAs8I40xkM5GqB-1c=", "properties": {"ref": "8", "@spider": "mcdonalds_ma", "amenity": "fast_food", "brand:ar": "\u0645\u0627\u0643\u062f\u0648\u0646\u0627\u0644\u062f\u0632", "brand:en": "McDonald's", "cuisine": "burger", "name:ar": "\u0645\u0627\u0643\u062f\u0648\u0646\u0627\u0644\u062f\u0632", "name:en": "McDonald's", "takeaway": "yes", "addr:country": "MA", "name": "McDonald's Aire de repos Berrechid", "brand": "McDonald\u2019s", "brand:wikidata": "Q38076", "nsi_id": "mcdonalds-19c993"}, "geometry": {"type": "Point", "coordinates": [-7.57502, 33.2227]}},
{"type": "Feature", "id": "yzEyRC1lEFzcBsEunwZMkEcwlSY=", "properties": {"ref": "9", "@spider": "mcdonalds_ma", "amenity": "fast_food", "brand:ar": "\u0645\u0627\u0643\u062f\u0648\u0646\u0627\u0644\u062f\u0632", "brand:en": "McDonald's", "cuisine": "burger", "name:ar": "\u0645\u0627\u0643\u062f\u0648\u0646\u0627\u0644\u062f\u0632", "name:en": "McDonald's", "takeaway": "yes", "addr:country": "MA", "name": "McDonald's Dar Bouazza", "brand": "McDonald\u2019s", "brand:wikidata": "Q38076", "nsi_id": "mcdonalds-19c993"}, "geometry": {"type": "Point", "coordinates": [-7.84115, 33.5059]}},
{"type": "Feature", "id": "Q_SCzbKoZTRa1wWBnOyAPkxQeSM=", "properties": {"ref": "10", "@spider": "mcdonalds_ma", "amenity": "fast_food", "brand:ar": "\u0645\u0627\u0643\u062f\u0648\u0646\u0627\u0644\u062f\u0632", "brand:en": "McDonald's", "cuisine": "burger", "name:ar": "\u0645\u0627\u0643\u062f\u0648\u0646\u0627\u0644\u062f\u0632", "name:en": "McDonald's", "takeaway": "yes", "addr:country": "MA", "name": "McDonald's Arribat Center", "brand": "McDonald\u2019s", "brand:wikidata": "Q38076", "nsi_id": "mcdonalds-19c993"}, "geometry": {"type": "Point", "coordinates": [-6.84516, 34.0035]}},
{"type": "Feature", "id": "NkdQ_2Qo_Oz_YhQ5a4ujjVmmX_w=", "properties": {"ref": "11", "@spider": "mcdonalds_ma", "amenity": "fast_food", "brand:ar": "\u0645\u0627\u0643\u062f\u0648\u0646\u0627\u0644\u062f\u0632", "brand:en": "McDonald's", "cuisine": "burger", "name:ar": "\u0645\u0627\u0643\u062f\u0648\u0646\u0627\u0644\u062f\u0632", "name:en": "McDonald's", "takeaway": "yes", "addr:full": "Marjane Marina", "addr:country": "MA", "name": "McDonald's Marina Shopping Center", "brand": "McDonald\u2019s", "brand:wikidata": "Q38076", "nsi_id": "mcdonalds-19c993"}, "geometry": {"type": "Point", "coordinates": [-7.62062, 33.6076]}},
{"type": "Feature", "id": "qRn6OekgR3N6ky3TsdZf8AAyEeQ=", "properties": {"ref": "12", "@spider": "mcdonalds_ma", "amenity": "fast_food", "brand:ar": "\u0645\u0627\u0643\u062f\u0648\u0646\u0627\u0644\u062f\u0632", "brand:en": "McDonald's", "cuisine": "burger", "name:ar": "\u0645\u0627\u0643\u062f\u0648\u0646\u0627\u0644\u062f\u0632", "name:en": "McDonald's", "takeaway": "yes", "addr:full": "Casa Voyageurs, Casablanca", "addr:country": "MA", "name": "McDonald's Gare LGV Casa Voyageurs", "brand": "McDonald\u2019s", "brand:wikidata": "Q38076", "nsi_id": "mcdonalds-19c993"}, "geometry": {"type": "Point", "coordinates": [-7.5899, 33.5903]}},
{"type": "Feature", "id": "zMYysc8rVx-qnskx8dLf33HFbjo=", "properties": {"ref": "13", "@spider": "mcdonalds_ma", "amenity": "fast_food", "brand:ar": "\u0645\u0627\u0643\u062f\u0648\u0646\u0627\u0644\u062f\u0632", "brand:en": "McDonald's", "cuisine": "burger", "name:ar": "\u0645\u0627\u0643\u062f\u0648\u0646\u0627\u0644\u062f\u0632", "name:en": "McDonald's", "takeaway": "yes", "addr:full": "s Drive Gare LGV Rabat Agdal, Avenue Mohamed Triki Gare LGV Agdal, Rabat", "addr:country": "MA", "name": "McDonald's Gare Rabat Agdal", "brand": "McDonald\u2019s", "brand:wikidata": "Q38076", "nsi_id": "mcdonalds-19c993"}, "geometry": {"type": "Point", "coordinates": [-6.8575, 34.0015]}},
{"type": "Feature", "id": "fVrMp--ft8CJV97GZ3CYxfnIkpc=", "properties": {"ref": "14", "@spider": "mcdonalds_ma", "amenity": "fast_food", "brand:ar": "\u0645\u0627\u0643\u062f\u0648\u0646\u0627\u0644\u062f\u0632", "brand:en": "McDonald's", "cuisine": "burger", "name:ar": "\u0645\u0627\u0643\u062f\u0648\u0646\u0627\u0644\u062f\u0632", "name:en": "McDonald's", "takeaway": "yes", "addr:full": "Espagne Gare ferroviaire MADINA TANGER", "addr:country": "MA", "name": "McDonald's Tanger LGV", "brand": "McDonald\u2019s", "brand:wikidata": "Q38076", "nsi_id": "mcdonalds-19c993"}, "geometry": {"type": "Point", "coordinates": [-5.7862, 35.7716]}},
{"type": "Feature", "id": "Wu3Lgph4ordDQCZ2XkrZejIUEKM=", "properties": {"ref": "15", "@spider": "mcdonalds_ma", "amenity": "fast_food", "brand:ar": "\u0645\u0627\u0643\u062f\u0648\u0646\u0627\u0644\u062f\u0632", "brand:en": "McDonald's", "cuisine": "burger", "name:ar": "\u0645\u0627\u0643\u062f\u0648\u0646\u0627\u0644\u062f\u0632", "name:en": "McDonald's", "takeaway": "yes", "addr:full": "Acima, Boulevard Mohammed V, Route de Marrakech, Beni Mellal 23040", "addr:country": "MA", "name": "McDonald's B\u00e9ni Mellal", "brand": "McDonald\u2019s", "brand:wikidata": "Q38076", "nsi_id": "mcdonalds-19c993"}, "geometry": {"type": "Point", "coordinates": [-6.368, 32.3303]}},
{"type": "Feature", "id": "D_mRJ5rA0BaJLbwtAwSeTYYLjns=", "properties": {"ref": "16", "@spider": "mcdonalds_ma", "amenity": "fast_food", "brand:ar": "\u0645\u0627\u0643\u062f\u0648\u0646\u0627\u0644\u062f\u0632", "brand:en": "McDonald's", "cuisine": "burger", "name:ar": "\u0645\u0627\u0643\u062f\u0648\u0646\u0627\u0644\u062f\u0632", "name:en": "McDonald's", "takeaway": "yes", "addr:full": "El Arjate, route de Mekn\u00e8s", "addr:country": "MA", "name": "McDonald's El Arjate", "brand": "McDonald\u2019s", "brand:wikidata": "Q38076", "nsi_id": "mcdonalds-19c993"}, "geometry": {"type": "Point", "coordinates": [-6.6482, 34.0294]}},
{"type": "Feature", "id": "2zDJOo7AQirf_ULNtS1gqAa1tmQ=", "properties": {"ref": "17", "@spider": "mcdonalds_ma", "amenity": "fast_food", "brand:ar": "\u0645\u0627\u0643\u062f\u0648\u0646\u0627\u0644\u062f\u0632", "brand:en": "McDonald's", "cuisine": "burger", "name:ar": "\u0645\u0627\u0643\u062f\u0648\u0646\u0627\u0644\u062f\u0632", "name:en": "McDonald's", "takeaway": "yes", "addr:full": "Avenue Hassan II, Galerie Commerciale Acima Temara", "addr:country": "MA", "name": "McDonald's T\u00e9mara", "brand": "McDonald\u2019s", "brand:wikidata": "Q38076", "nsi_id": "mcdonalds-19c993"}, "geometry": {"type": "Point", "coordinates": [-6.92453, 33.9208]}},
{"type": "Feature", "id": "_jQ80YMqrcpBYsd6VVhhdZi7qRM=", "properties": {"ref": "18", "@spider": "mcdonalds_ma", "amenity": "fast_food", "brand:ar": "\u0645\u0627\u0643\u062f\u0648\u0646\u0627\u0644\u062f\u0632", "brand:en": "McDonald's", "cuisine": "burger", "name:ar": "\u0645\u0627\u0643\u062f\u0648\u0646\u0627\u0644\u062f\u0632", "name:en": "McDonald's", "takeaway": "yes", "addr:full": "Avenue Prince Moulay Abdellah, Tanger, Maroc", "addr:country": "MA", "name": "McDonald's Tanger Porte", "brand": "McDonald\u2019s", "brand:wikidata": "Q38076", "nsi_id": "mcdonalds-19c993"}, "geometry": {"type": "Point", "coordinates": [-5.80967, 35.7794]}},
{"type": "Feature", "id": "KduhTlJTeLzx2pg92TfjXqpeeJw=", "properties": {"ref": "19", "@spider": "mcdonalds_ma", "amenity": "fast_food", "brand:ar": "\u0645\u0627\u0643\u062f\u0648\u0646\u0627\u0644\u062f\u0632", "brand:en": "McDonald's", "cuisine": "burger", "name:ar": "\u0645\u0627\u0643\u062f\u0648\u0646\u0627\u0644\u062f\u0632", "name:en": "McDonald's", "takeaway": "yes", "addr:full": "Centre commercial Tachfine, boulevard Ibn Tachfine", "addr:city": "Casablanca", "addr:country": "MA", "name": "McDonald's Ibn Tachfine", "brand": "McDonald\u2019s", "brand:wikidata": "Q38076", "nsi_id": "mcdonalds-19c993"}, "geometry": {"type": "Point", "coordinates": [-7.59247, 33.5871]}},
{"type": "Feature", "id": "4EzmOM2ALfAqI_LYw0dMpUlKvtw=", "properties": {"ref": "20", "@spider": "mcdonalds_ma", "amenity": "fast_food", "brand:ar": "\u0645\u0627\u0643\u062f\u0648\u0646\u0627\u0644\u062f\u0632", "brand:en": "McDonald's", "cuisine": "burger", "name:ar": "\u0645\u0627\u0643\u062f\u0648\u0646\u0627\u0644\u062f\u0632", "name:en": "McDonald's", "takeaway": "yes", "addr:full": "ADM sens Casa", "addr:city": "Rabat", "addr:country": "MA", "name": "McDonald's ADM - Station Afriquia", "brand": "McDonald\u2019s", "brand:wikidata": "Q38076", "nsi_id": "mcdonalds-19c993"}, "geometry": {"type": "Point", "coordinates": [-7.23354, 33.7774]}},
{"type": "Feature", "id": "j-A9-62lArZwDuOzpb3G7UWLMCI=", "properties": {"ref": "21", "@spider": "mcdonalds_ma", "amenity": "fast_food", "brand:ar": "\u0645\u0627\u0643\u062f\u0648\u0646\u0627\u0644\u062f\u0632", "brand:en": "McDonald's", "cuisine": "burger", "name:ar": "\u0645\u0627\u0643\u062f\u0648\u0646\u0627\u0644\u062f\u0632", "name:en": "McDonald's", "takeaway": "yes", "addr:full": "ADM sens Rabat", "addr:city": "Casa Bouznika", "addr:country": "MA", "name": "McDonald's ADM - Station Shell", "phone": "06 73 74 35 85", "brand": "McDonald\u2019s", "brand:wikidata": "Q38076", "nsi_id": "mcdonalds-19c993"}, "geometry": {"type": "Point", "coordinates": [-7.23309, 33.7795]}},
{"type": "Feature", "id": "lCu69PUEfNp6Trk6DFz-yjfeOXo=", "properties": {"ref": "22", "@spider": "mcdonalds_ma", "amenity": "fast_food", "brand:ar": "\u0645\u0627\u0643\u062f\u0648\u0646\u0627\u0644\u062f\u0632", "brand:en": "McDonald's", "cuisine": "burger", "name:ar": "\u0645\u0627\u0643\u062f\u0648\u0646\u0627\u0644\u062f\u0632", "name:en": "McDonald's", "takeaway": "yes", "addr:full": "Boulevard Moulay Isma\u00efl, Casablanca 20250, Maroc", "addr:country": "MA", "name": "McDonald's A\u00efn Seba\u00e2", "phone": "06 73 82 99 81", "brand": "McDonald\u2019s", "brand:wikidata": "Q38076", "nsi_id": "mcdonalds-19c993"}, "geometry": {"type": "Point", "coordinates": [-7.5493, 33.6036]}},
{"type": "Feature", "id": "YFQIubUU095wqrlRCIAgveKfbhw=", "properties": {"ref": "23", "@spider": "mcdonalds_ma", "amenity": "fast_food", "brand:ar": "\u0645\u0627\u0643\u062f\u0648\u0646\u0627\u0644\u062f\u0632", "brand:en": "McDonald's", "cuisine": "burger", "name:ar": "\u0645\u0627\u0643\u062f\u0648\u0646\u0627\u0644\u062f\u0632", "name:en": "McDonald's", "takeaway": "yes", "addr:full": "Anfaplace Shopping Center", "addr:country": "MA", "name": "McDonald's Anfa Place", "brand": "McDonald\u2019s", "brand:wikidata": "Q38076", "nsi_id": "mcdonalds-19c993"}, "geometry": {"type": "Point", "coordinates": [-7.66466, 33.5982]}},
{"type": "Feature", "id": "YZYYrRRcPooZ_SJq7br24jUnpqg=", "properties": {"ref": "24", "@spider": "mcdonalds_ma", "amenity": "fast_food", "brand:ar": "\u0645\u0627\u0643\u062f\u0648\u0646\u0627\u0644\u062f\u0632", "brand:en": "McDonald's", "cuisine": "burger", "name:ar": "\u0645\u0627\u0643\u062f\u0648\u0646\u0627\u0644\u062f\u0632", "name:en": "McDonald's", "takeaway": "yes", "addr:full": "Avenue des nations unies", "addr:city": "El Jadida", "addr:country": "MA", "name": "McDonald's El Jadida", "phone": "06 77 42 30 81", "brand": "McDonald\u2019s", "brand:wikidata": "Q38076", "nsi_id": "mcdonalds-19c993"}, "geometry": {"type": "Point", "coordinates": [-8.48308, 33.244]}},
{"type": "Feature", "id": "5w1yC5vJFAwErpr1_IoeasYmZUo=", "properties": {"ref": "25", "@spider": "mcdonalds_ma", "amenity": "fast_food", "brand:ar": "\u0645\u0627\u0643\u062f\u0648\u0646\u0627\u0644\u062f\u0632", "brand:en": "McDonald's", "cuisine": "burger", "name:ar": "\u0645\u0627\u0643\u062f\u0648\u0646\u0627\u0644\u062f\u0632", "name:en": "McDonald's", "takeaway": "yes", "addr:full": "Galerie marchande Casa port, Boulevard Zayid ou Hmad", "addr:country": "MA", "name": "McDonald's Casa-Port", "phone": "0522 27 66 14", "brand": "McDonald\u2019s", "brand:wikidata": "Q38076", "nsi_id": "mcdonalds-19c993"}, "geometry": {"type": "Point", "coordinates": [-7.61311, 33.5995]}},
{"type": "Feature", "id": "L4c4BlVWKi4kNGfkICqWJftZq3M=", "properties": {"ref": "26", "@spider": "mcdonalds_ma", "amenity": "fast_food", "brand:ar": "\u0645\u0627\u0643\u062f\u0648\u0646\u0627\u0644\u062f\u0632", "brand:en": "McDonald's", "cuisine": "burger", "name:ar": "\u0645\u0627\u0643\u062f\u0648\u0646\u0627\u0644\u062f\u0632", "name:en": "McDonald's", "takeaway": "yes", "addr:full": "Marjane founty Agadir", "addr:country": "MA", "name": "McDonald's Agadir Marjane", "phone": "0661531006", "brand": "McDonald\u2019s", "brand:wikidata": "Q38076", "nsi_id": "mcdonalds-19c993"}, "geometry": {"type": "Point", "coordinates": [-9.5813, 30.3967]}},
{"type": "Feature", "id": "0HTv7nkF5tVaEhK_BlIiLaYbMgA=", "properties": {"ref": "27", "@spider": "mcdonalds_ma", "amenity": "fast_food", "brand:ar": "\u0645\u0627\u0643\u062f\u0648\u0646\u0627\u0644\u062f\u0632", "brand:en": "McDonald's", "cuisine": "burger", "name:ar": "\u0645\u0627\u0643\u062f\u0648\u0646\u0627\u0644\u062f\u0632", "name:en": "McDonald's", "takeaway": "yes", "addr:full": "Centre commercial Marjane Khouribga", "addr:city": "Avenue Mohammed VI , 25000 Khouribga", "addr:country": "MA", "name": "McDonald's Khouribga", "phone": "06 61 94 71 36", "brand": "McDonald\u2019s", "brand:wikidata": "Q38076", "nsi_id": "mcdonalds-19c993"}, "geometry": {"type": "Point", "coordinates": [-6.90755, 32.8871]}},
{"type": "Feature", "id": "AiYq6UDcyGMG6nMfFGZom6VClwQ=", "properties": {"ref": "28", "@spider": "mcdonalds_ma", "amenity": "fast_food", "brand:ar": "\u0645\u0627\u0643\u062f\u0648\u0646\u0627\u0644\u062f\u0632", "brand:en": "McDonald's", "cuisine": "burger", "name:ar": "\u0645\u0627\u0643\u062f\u0648\u0646\u0627\u0644\u062f\u0632", "name:en": "McDonald's", "takeaway": "yes", "addr:full": "aude H\u00e9rmitage", "addr:country": "MA", "name": "McDonald's L'h\u00e9rmitage", "brand": "McDonald\u2019s", "brand:wikidata": "Q38076", "nsi_id": "mcdonalds-19c993"}, "geometry": {"type": "Point", "coordinates": [-7.61482, 33.5623]}},
{"type": "Feature", "id": "nB-LugamFk3YKY83QUpka5hgMb4=", "properties": {"ref": "29", "@spider": "mcdonalds_ma", "amenity": "fast_food", "brand:ar": "\u0645\u0627\u0643\u062f\u0648\u0646\u0627\u0644\u062f\u0632", "brand:en": "McDonald's", "cuisine": "burger", "name:ar": "\u0645\u0627\u0643\u062f\u0648\u0646\u0627\u0644\u062f\u0632", "name:en": "McDonald's", "takeaway": "yes", "addr:full": "Angle Avenue Ouali Al Had Sidi Mohammed et Avenue de F\u00e8s, Sale bourgreg", "addr:country": "MA", "name": "McDonald's Sal\u00e9 Bouregreg", "phone": "05 37 88 18 30", "brand": "McDonald\u2019s", "brand:wikidata": "Q38076", "nsi_id": "mcdonalds-19c993"}, "geometry": {"type": "Point", "coordinates": [-6.81661, 34.0312]}},
{"type": "Feature", "id": "doDUDmZmzZwGG0eMpDMnOnDuPbs=", "properties": {"ref": "30", "@spider": "mcdonalds_ma", "amenity": "fast_food", "brand:ar": "\u0645\u0627\u0643\u062f\u0648\u0646\u0627\u0644\u062f\u0632", "brand:en": "McDonald's", "cuisine": "burger", "name:ar": "\u0645\u0627\u0643\u062f\u0648\u0646\u0627\u0644\u062f\u0632", "name:en": "McDonald's", "takeaway": "yes", "addr:full": "Amsterdam et avenue 2 Mars", "addr:country": "MA", "name": "McDonald's 2 Mars", "phone": "05 22 85 52 82", "brand": "McDonald\u2019s", "brand:wikidata": "Q38076", "nsi_id": "mcdonalds-19c993"}, "geometry": {"type": "Point", "coordinates": [-7.61544, 33.5759]}},
{"type": "Feature", "id": "kcLZz-HWCpioEFKbvPJLLK2NLKI=", "properties": {"ref": "31", "@spider": "mcdonalds_ma", "amenity": "fast_food", "brand:ar": "\u0645\u0627\u0643\u062f\u0648\u0646\u0627\u0644\u062f\u0632", "brand:en": "McDonald's", "cuisine": "burger", "name:ar": "\u0645\u0627\u0643\u062f\u0648\u0646\u0627\u0644\u062f\u0632", "name:en": "McDonald's", "takeaway": "yes", "addr:full": "mall, L3,036 bd ocean atlantique 20000 Casablanca Anfa", "addr:country": "MA", "name": "McDonald's Morocco Mall", "phone": "05 22 79 69 33", "brand": "McDonald\u2019s", "brand:wikidata": "Q38076", "nsi_id": "mcdonalds-19c993"}, "geometry": {"type": "Point", "coordinates": [-7.70824, 33.5747]}},
{"type": "Feature", "id": "plOqAXNIs1o3SFoZoexZAtr0oBg=", "properties": {"ref": "32", "@spider": "mcdonalds_ma", "amenity": "fast_food", "brand:ar": "\u0645\u0627\u0643\u062f\u0648\u0646\u0627\u0644\u062f\u0632", "brand:en": "McDonald's", "cuisine": "burger", "name:ar": "\u0645\u0627\u0643\u062f\u0648\u0646\u0627\u0644\u062f\u0632", "name:en": "McDonald's", "takeaway": "yes", "addr:full": "Centre Commercial Marjane Route de Rabat", "addr:city": "Mohamm\u00e9dia", "addr:country": "MA", "name": "McDonald's Mohamm\u00e9dia", "phone": "0523 32 91 82", "brand": "McDonald\u2019s", "brand:wikidata": "Q38076", "nsi_id": "mcdonalds-19c993"}, "geometry": {"type": "Point", "coordinates": [-7.35056, 33.7087]}},
{"type": "Feature", "id": "jzsIcoNcM8fSIyYMiI4dWuQ8EkU=", "properties": {"ref": "33", "@spider": "mcdonalds_ma", "amenity": "fast_food", "brand:ar": "\u0645\u0627\u0643\u062f\u0648\u0646\u0627\u0644\u062f\u0632", "brand:en": "McDonald's", "cuisine": "burger", "name:ar": "\u0645\u0627\u0643\u062f\u0648\u0646\u0627\u0644\u062f\u0632", "name:en": "McDonald's", "takeaway": "yes", "addr:full": "For\u00eat mamora entre route de la fourri\u00e8re et route Assaknia \r\nK\u00e9nitra", "addr:country": "MA", "name": "McDonald's K\u00e9nitra", "phone": "0537 39 55 83", "brand": "McDonald\u2019s", "brand:wikidata": "Q38076", "nsi_id": "mcdonalds-19c993"}, "geometry": {"type": "Point", "coordinates": [-6.57274, 34.2503]}},
{"type": "Feature", "id": "wCCSRg99pR2-T-sFuijJCHnSq5k=", "properties": {"ref": "34", "@spider": "mcdonalds_ma", "amenity": "fast_food", "brand:ar": "\u0645\u0627\u0643\u062f\u0648\u0646\u0627\u0644\u062f\u0632", "brand:en": "McDonald's", "cuisine": "burger", "name:ar": "\u0645\u0627\u0643\u062f\u0648\u0646\u0627\u0644\u062f\u0632", "name:en": "McDonald's", "takeaway": "yes", "addr:full": "Corniche Sidi Ali", "addr:city": "Nador", "addr:country": "MA", "name": "McDonald's Nador", "phone": "05 36 32 02 27", "brand": "McDonald\u2019s", "brand:wikidata": "Q38076", "nsi_id": "mcdonalds-19c993"}, "geometry": {"type": "Point", "coordinates": [-2.92635, 35.1863]}},
{"type": "Feature", "id": "LIrxNWggrV4HBdqXalzfuUBRB54=", "properties": {"ref": "35", "@spider": "mcdonalds_ma", "amenity": "fast_food", "brand:ar": "\u0645\u0627\u0643\u062f\u0648\u0646\u0627\u0644\u062f\u0632", "brand:en": "McDonald's", "cuisine": "burger", "name:ar": "\u0645\u0627\u0643\u062f\u0648\u0646\u0627\u0644\u062f\u0632", "name:en": "McDonald's", "takeaway": "yes", "addr:full": "Place du 3 Mars Oued Nachef", "addr:city": "Oujda", "addr:country": "MA", "name": "McDonald's Oujda", "phone": "05 36 51 88 36", "brand": "McDonald\u2019s", "brand:wikidata": "Q38076", "nsi_id": "mcdonalds-19c993"}, "geometry": {"type": "Point", "coordinates": [-1.92787, 34.6769]}},
{"type": "Feature", "id": "5CQcoj4kiTMYO_9MDRN0r6QDyOQ=", "properties": {"ref": "36", "@spider": "mcdonalds_ma", "amenity": "fast_food", "brand:ar": "\u0645\u0627\u0643\u062f\u0648\u0646\u0627\u0644\u062f\u0632", "brand:en": "McDonald's", "cuisine": "burger", "name:ar": "\u0645\u0627\u0643\u062f\u0648\u0646\u0627\u0644\u062f\u0632", "name:en": "McDonald's", "takeaway": "yes", "addr:full": "L1", "addr:city": "Agadir", "addr:country": "MA", "name": "McDonald's Agadir Plage", "phone": "05 28 72 92 01", "brand": "McDonald\u2019s", "brand:wikidata": "Q38076", "nsi_id": "mcdonalds-19c993"}, "geometry": {"type": "Point", "coordinates": [-9.6055, 30.4177]}},
{"type": "Feature", "id": "83557qwyEFZmPMkOp_QQ0mH7cSg=", "properties": {"ref": "37", "@spider": "mcdonalds_ma", "amenity": "fast_food", "brand:ar": "\u0645\u0627\u0643\u062f\u0648\u0646\u0627\u0644\u062f\u0632", "brand:en": "McDonald's", "cuisine": "burger", "name:ar": "\u0645\u0627\u0643\u062f\u0648\u0646\u0627\u0644\u062f\u0632", "name:en": "McDonald's", "takeaway": "yes", "addr:full": "Avenue Mohamed V", "addr:city": "Agadir", "addr:country": "MA", "name": "McDonald's Agadir Drive", "phone": "05 28 82 40 53", "brand": "McDonald\u2019s", "brand:wikidata": "Q38076", "nsi_id": "mcdonalds-19c993"}, "geometry": {"type": "Point", "coordinates": [-9.5952, 30.4124]}},
{"type": "Feature", "id": "R7B9Yptix__sMtFykQHulr2E6Ho=", "properties": {"ref": "38", "@spider": "mcdonalds_ma", "amenity": "fast_food", "brand:ar": "\u0645\u0627\u0643\u062f\u0648\u0646\u0627\u0644\u062f\u0632", "brand:en": "McDonald's", "cuisine": "burger", "name:ar": "\u0645\u0627\u0643\u062f\u0648\u0646\u0627\u0644\u062f\u0632", "name:en": "McDonald's", "takeaway": "yes", "addr:full": "Gare ferroviaire", "addr:city": "Marrakech", "addr:country": "MA", "name": "McDonald's Marrakech Gare", "phone": "05 24 45 88 27", "brand": "McDonald\u2019s", "brand:wikidata": "Q38076", "nsi_id": "mcdonalds-19c993"}, "geometry": {"type": "Point", "coordinates": [-8.01704, 31.6308]}},
{"type": "Feature", "id": "dbf8AboTHYJ27EWvFvIyD9Zw3Iw=", "properties": {"ref": "39", "@spider": "mcdonalds_ma", "amenity": "fast_food", "brand:ar": "\u0645\u0627\u0643\u062f\u0648\u0646\u0627\u0644\u062f\u0632", "brand:en": "McDonald's", "cuisine": "burger", "name:ar": "\u0645\u0627\u0643\u062f\u0648\u0646\u0627\u0644\u062f\u0632", "name:en": "McDonald's", "takeaway": "yes", "addr:full": "Abdelkrim Khattabi", "addr:city": "Marrakech", "addr:country": "MA", "name": "McDonald's Marrakech Marjane", "phone": "05 24 31 11 08", "brand": "McDonald\u2019s", "brand:wikidata": "Q38076", "nsi_id": "mcdonalds-19c993"}, "geometry": {"type": "Point", "coordinates": [-8.01324, 31.668]}},
{"type": "Feature", "id": "n1xf6kqLMxh9h8OnnGIt243ekhQ=", "properties": {"ref": "40", "@spider": "mcdonalds_ma", "amenity": "fast_food", "brand:ar": "\u0645\u0627\u0643\u062f\u0648\u0646\u0627\u0644\u062f\u0632", "brand:en": "McDonald's", "cuisine": "burger", "name:ar": "\u0645\u0627\u0643\u062f\u0648\u0646\u0627\u0644\u062f\u0632", "name:en": "McDonald's", "takeaway": "yes", "addr:full": "Bd Mohammed V , place du 16 Novembre", "addr:city": "Marrakech", "addr:country": "MA", "name": "McDonald's Marrakech Gu\u00e9liz", "phone": "05 24 44 60 19", "brand": "McDonald\u2019s", "brand:wikidata": "Q38076", "nsi_id": "mcdonalds-19c993"}, "geometry": {"type": "Point", "coordinates": [-8.00917, 31.6332]}},
{"type": "Feature", "id": "BofF1-9CwgPEcfJT81sQNK6nDZw=", "properties": {"ref": "41", "@spider": "mcdonalds_ma", "amenity": "fast_food", "brand:ar": "\u0645\u0627\u0643\u062f\u0648\u0646\u0627\u0644\u062f\u0632", "brand:en": "McDonald's", "cuisine": "burger", "name:ar": "\u0645\u0627\u0643\u062f\u0648\u0646\u0627\u0644\u062f\u0632", "name:en": "McDonald's", "takeaway": "yes", "addr:full": "rte de Safi", "addr:city": "Marrakech", "addr:country": "MA", "name": "McDonald's Marrakech Drive", "phone": "05 24 33 08 01", "brand": "McDonald\u2019s", "brand:wikidata": "Q38076", "nsi_id": "mcdonalds-19c993"}, "geometry": {"type": "Point", "coordinates": [-8.01926, 31.6547]}},
{"type": "Feature", "id": "UUV3SIzNb-ggPyncyx8vNdsy_U8=", "properties": {"ref": "42", "@spider": "mcdonalds_ma", "amenity": "fast_food", "brand:ar": "\u0645\u0627\u0643\u062f\u0648\u0646\u0627\u0644\u062f\u0632", "brand:en": "McDonald's", "cuisine": "burger", "name:ar": "\u0645\u0627\u0643\u062f\u0648\u0646\u0627\u0644\u062f\u0632", "name:en": "McDonald's", "takeaway": "yes", "addr:full": "Avenue de la r\u00e9sistance Place de la Fiat", "addr:city": "F\u00e8s", "addr:country": "MA", "name": "McDonald's F\u00e8s", "phone": "05 35 94 00 93", "brand": "McDonald\u2019s", "brand:wikidata": "Q38076", "nsi_id": "mcdonalds-19c993"}, "geometry": {"type": "Point", "coordinates": [-4.99598, 34.0443]}},
{"type": "Feature", "id": "Tz-v0SslDWwkBRaFZXrOBbfl5tY=", "properties": {"ref": "43", "@spider": "mcdonalds_ma", "amenity": "fast_food", "brand:ar": "\u0645\u0627\u0643\u062f\u0648\u0646\u0627\u0644\u062f\u0632", "brand:en": "McDonald's", "cuisine": "burger", "name:ar": "\u0645\u0627\u0643\u062f\u0648\u0646\u0627\u0644\u062f\u0632", "name:en": "McDonald's", "takeaway": "yes", "addr:full": "av des Far", "addr:city": "Mekn\u00e8s", "addr:country": "MA", "name": "McDonald's Mekn\u00e8s", "phone": "05 35 40 42 83", "brand": "McDonald\u2019s", "brand:wikidata": "Q38076", "nsi_id": "mcdonalds-19c993"}, "geometry": {"type": "Point", "coordinates": [-5.5552, 33.8958]}},
{"type": "Feature", "id": "WCnQICm3O21DxMhZzoaLHrS-2Dw=", "properties": {"ref": "44", "@spider": "mcdonalds_ma", "amenity": "fast_food", "brand:ar": "\u0645\u0627\u0643\u062f\u0648\u0646\u0627\u0644\u062f\u0632", "brand:en": "McDonald's", "cuisine": "burger", "name:ar": "\u0645\u0627\u0643\u062f\u0648\u0646\u0627\u0644\u062f\u0632", "name:en": "McDonald's", "takeaway": "yes", "addr:full": "157, \u00e9rac Nord Ouest", "addr:city": "T\u00e9touan", "addr:country": "MA", "name": "McDonald's T\u00e9touan drive", "phone": "05 39 99 35 83", "brand": "McDonald\u2019s", "brand:wikidata": "Q38076", "nsi_id": "mcdonalds-19c993"}, "geometry": {"type": "Point", "coordinates": [-5.33386, 35.5882]}},
{"type": "Feature", "id": "k4q25UYJconjvLjbw7tYHYaEr8s=", "properties": {"ref": "45", "@spider": "mcdonalds_ma", "amenity": "fast_food", "brand:ar": "\u0645\u0627\u0643\u062f\u0648\u0646\u0627\u0644\u062f\u0632", "brand:en": "McDonald's", "cuisine": "burger", "name:ar": "\u0645\u0627\u0643\u062f\u0648\u0646\u0627\u0644\u062f\u0632", "name:en": "McDonald's", "takeaway": "yes", "addr:full": "Bd Mohamed VI route de malabata", "addr:city": "Tanger", "addr:country": "MA", "name": "McDonald's Tanger Malabata", "phone": "05 39 30 11 48", "brand": "McDonald\u2019s", "brand:wikidata": "Q38076", "nsi_id": "mcdonalds-19c993"}, "geometry": {"type": "Point", "coordinates": [-5.76823, 35.7828]}},
{"type": "Feature", "id": "7iP9QY7jiRIC5ayggXunXnjJCH0=", "properties": {"ref": "46", "@spider": "mcdonalds_ma", "amenity": "fast_food", "brand:ar": "\u0645\u0627\u0643\u062f\u0648\u0646\u0627\u0644\u062f\u0632", "brand:en": "McDonald's", "cuisine": "burger", "name:ar": "\u0645\u0627\u0643\u062f\u0648\u0646\u0627\u0644\u062f\u0632", "name:en": "McDonald's", "takeaway": "yes", "addr:full": "Centre Commercial", "addr:city": "Tanger", "addr:country": "MA", "name": "McDonald's Tanger Marjane", "phone": "06 79 89 76 27", "brand": "McDonald\u2019s", "brand:wikidata": "Q38076", "nsi_id": "mcdonalds-19c993"}, "geometry": {"type": "Point", "coordinates": [-5.84543, 35.7479]}},
{"type": "Feature", "id": "e2yGGJ3xUpDmxb0Lcjk7eZbz200=", "properties": {"ref": "47", "@spider": "mcdonalds_ma", "amenity": "fast_food", "brand:ar": "\u0645\u0627\u0643\u062f\u0648\u0646\u0627\u0644\u062f\u0632", "brand:en": "McDonald's", "cuisine": "burger", "name:ar": "\u0645\u0627\u0643\u062f\u0648\u0646\u0627\u0644\u062f\u0632", "name:en": "McDonald's", "takeaway": "yes", "addr:full": "Amir Moulay Abdallah", "addr:city": "Rabat", "addr:country": "MA", "name": "McDonald's Rabat Ville", "phone": "05 37 20 23 09", "brand": "McDonald\u2019s", "brand:wikidata": "Q38076", "nsi_id": "mcdonalds-19c993"}, "geometry": {"type": "Point", "coordinates": [-6.83482, 34.0176]}},
{"type": "Feature", "id": "LOa3MIAZuuWfiZDNF4J46I9csTY=", "properties": {"ref": "48", "@spider": "mcdonalds_ma", "amenity": "fast_food", "brand:ar": "\u0645\u0627\u0643\u062f\u0648\u0646\u0627\u0644\u062f\u0632", "brand:en": "McDonald's", "cuisine": "burger", "name:ar": "\u0645\u0627\u0643\u062f\u0648\u0646\u0627\u0644\u062f\u0632", "name:en": "McDonald's", "takeaway": "yes", "addr:full": "Marjane", "addr:city": "Rabat", "addr:country": "MA", "name": "McDonald's Hay Riad", "phone": "05 37 71 03 17", "brand": "McDonald\u2019s", "brand:wikidata": "Q38076", "nsi_id": "mcdonalds-19c993"}, "geometry": {"type": "Point", "coordinates": [-6.85469, 33.9535]}},
{"type": "Feature", "id": "l_ApmdIN3Bac1X0tPOWh5GSO54w=", "properties": {"ref": "49", "@spider": "mcdonalds_ma", "amenity": "fast_food", "brand:ar": "\u0645\u0627\u0643\u062f\u0648\u0646\u0627\u0644\u062f\u0632", "brand:en": "McDonald's", "cuisine": "burger", "name:ar": "\u0645\u0627\u0643\u062f\u0648\u0646\u0627\u0644\u062f\u0632", "name:en": "McDonald's", "takeaway": "yes", "addr:full": "105, av Al Amir Fal Ould Oumeir", "addr:city": "Rabat", "addr:country": "MA", "name": "McDonald's Rabat Agdal", "phone": "05 37 67 01 71", "brand": "McDonald\u2019s", "brand:wikidata": "Q38076", "nsi_id": "mcdonalds-19c993"}, "geometry": {"type": "Point", "coordinates": [-6.83398, 33.9167]}},
{"type": "Feature", "id": "ilOYAcuQ5rZCyUaSQFntmX7j5Zo=", "properties": {"ref": "50", "@spider": "mcdonalds_ma", "amenity": "fast_food", "brand:ar": "\u0645\u0627\u0643\u062f\u0648\u0646\u0627\u0644\u062f\u0632", "brand:en": "McDonald's", "cuisine": "burger", "name:ar": "\u0645\u0627\u0643\u062f\u0648\u0646\u0627\u0644\u062f\u0632", "name:en": "McDonald's", "takeaway": "yes", "addr:full": "point Mers Sultan", "addr:city": "Casablanca", "addr:country": "MA", "name": "McDonald's Mers Sultan", "phone": "05 22 22 64 59", "brand": "McDonald\u2019s", "brand:wikidata": "Q38076", "nsi_id": "mcdonalds-19c993"}, "geometry": {"type": "Point", "coordinates": [-7.61762, 33.5883]}},
{"type": "Feature", "id": "Kd-2Dl9dtYI4oCW4kVqSNz8TYtc=", "properties": {"ref": "51", "@spider": "mcdonalds_ma", "amenity": "fast_food", "brand:ar": "\u0645\u0627\u0643\u062f\u0648\u0646\u0627\u0644\u062f\u0632", "brand:en": "McDonald's", "cuisine": "burger", "name:ar": "\u0645\u0627\u0643\u062f\u0648\u0646\u0627\u0644\u062f\u0632", "name:en": "McDonald's", "takeaway": "yes", "addr:full": "ElWassia", "addr:city": "Casablanca", "addr:country": "MA", "name": "McDonald's M\u00e2arif", "phone": "05 22 98 13 73", "brand": "McDonald\u2019s", "brand:wikidata": "Q38076", "nsi_id": "mcdonalds-19c993"}, "geometry": {"type": "Point", "coordinates": [-7.63497, 33.586]}},
{"type": "Feature", "id": "2Tm-VNrQjUSg8_WDEFjI58vfYGw=", "properties": {"ref": "52", "@spider": "mcdonalds_ma", "amenity": "fast_food", "brand:ar": "\u0645\u0627\u0643\u062f\u0648\u0646\u0627\u0644\u062f\u0632", "brand:en": "McDonald's", "cuisine": "burger", "name:ar": "\u0645\u0627\u0643\u062f\u0648\u0646\u0627\u0644\u062f\u0632", "name:en": "McDonald's", "takeaway": "yes", "addr:full": "Casablanca", "addr:country": "MA", "name": "McDonald's Californie", "phone": "06 74 91 87 14", "brand": "McDonald\u2019s", "brand:wikidata": "Q38076", "nsi_id": "mcdonalds-19c993"}, "geometry": {"type": "Point", "coordinates": [-7.64063, 33.5446]}},
{"type": "Feature", "id": "XXHRfRfEWfNFy-RjcvS_OKQRnvs=", "properties": {"ref": "53", "@spider": "mcdonalds_ma", "amenity": "fast_food", "brand:ar": "\u0645\u0627\u0643\u062f\u0648\u0646\u0627\u0644\u062f\u0632", "brand:en": "McDonald's", "cuisine": "burger", "name:ar": "\u0645\u0627\u0643\u062f\u0648\u0646\u0627\u0644\u062f\u0632", "name:en": "McDonald's", "takeaway": "yes", "addr:full": "235 Bis, bd Ziraoui", "addr:city": "Casablanca", "addr:country": "MA", "name": "McDonald's Ziraoui", "phone": "05 22 48 68 92", "brand": "McDonald\u2019s", "brand:wikidata": "Q38076", "nsi_id": "mcdonalds-19c993"}, "geometry": {"type": "Point", "coordinates": [-7.63365, 33.5948]}},
{"type": "Feature", "id": "9w9qMMiHYMmd1crMFZvTF3MAvgk=", "properties": {"ref": "54", "@spider": "mcdonalds_ma", "amenity": "fast_food", "brand:ar": "\u0645\u0627\u0643\u062f\u0648\u0646\u0627\u0644\u062f\u0632", "brand:en": "McDonald's", "cuisine": "burger", "name:ar": "\u0645\u0627\u0643\u062f\u0648\u0646\u0627\u0644\u062f\u0632", "name:en": "McDonald's", "takeaway": "yes", "addr:full": "Aba Chouaib Doukkali, Marjane Derb Sultan Casablanca", "addr:country": "MA", "name": "McDonald's Derb Sultan", "phone": "05 22 83 68 57", "brand": "McDonald\u2019s", "brand:wikidata": "Q38076", "nsi_id": "mcdonalds-19c993"}, "geometry": {"type": "Point", "coordinates": [-7.59426, 33.5629]}},
{"type": "Feature", "id": "d2oSFx3ohzPhNjSZTM9nFj6Rd9s=", "properties": {"ref": "55", "@spider": "mcdonalds_ma", "amenity": "fast_food", "brand:ar": "\u0645\u0627\u0643\u062f\u0648\u0646\u0627\u0644\u062f\u0632", "brand:en": "McDonald's", "cuisine": "burger", "name:ar": "\u0645\u0627\u0643\u062f\u0648\u0646\u0627\u0644\u062f\u0632", "name:en": "McDonald's", "takeaway": "yes", "addr:full": "bd de la Corniche", "addr:city": "Casablanca", "addr:country": "MA", "name": "McDonald's Corniche", "phone": "05 22 39 79 39", "brand": "McDonald\u2019s", "brand:wikidata": "Q38076", "nsi_id": "mcdonalds-19c993"}, "geometry": {"type": "Point", "coordinates": [-7.662, 33.6017]}},
{"type": "Feature", "id": "eChuIaGNhXqfCpfV26L2KiiJVWE=", "properties": {"ref": "56", "@spider": "mcdonalds_ma", "amenity": "fast_food", "brand:ar": "\u0645\u0627\u0643\u062f\u0648\u0646\u0627\u0644\u062f\u0632", "brand:en": "McDonald's", "cuisine": "burger", "name:ar": "\u0645\u0627\u0643\u062f\u0648\u0646\u0627\u0644\u062f\u0632", "name:en": "McDonald's", "takeaway": "yes", "addr:full": "bd de la Corniche A\u00efn Diab", "addr:city": "Casablanca", "addr:country": "MA", "name": "McDonald's Ain Diab", "phone": "05 22 79 85 91", "brand": "McDonald\u2019s", "brand:wikidata": "Q38076", "nsi_id": "mcdonalds-19c993"}, "geometry": {"type": "Point", "coordinates": [-7.67791, 33.5961]}},
{"type": "Feature", "id": "20BD5L0wXrp_jI3U34dSwvWqR5s=", "properties": {"ref": "57", "@spider": "mcdonalds_ma", "amenity": "fast_food", "brand:ar": "\u0645\u0627\u0643\u062f\u0648\u0646\u0627\u0644\u062f\u0632", "brand:en": "McDonald's", "cuisine": "burger", "name:ar": "\u0645\u0627\u0643\u062f\u0648\u0646\u0627\u0644\u062f\u0632", "name:en": "McDonald's", "takeaway": "yes", "addr:full": "10, bd Mohammed V", "addr:city": "Casablanca", "addr:country": "MA", "name": "McDonald's Mohammed V", "phone": "05 22 48 25 36", "brand": "McDonald\u2019s", "brand:wikidata": "Q38076", "nsi_id": "mcdonalds-19c993"}, "geometry": {"type": "Point", "coordinates": [-7.61725, 33.5957]}}]}