{"type":"FeatureCollection","features":[{"type": "Feature", "id": "yEv_MvU2UUz1uBqgS1WT9GaIoVo=", "properties": {"ref": "259", "@spider": "mcdonalds_il", "addr:full": "\u05db\u05ea\u05d5\u05d1\u05ea: \u05d9\u05e2\u05e8\u05d9 \u05de\u05d0\u05d9\u05e8 19, \u05ea\u05dc \u05d0\u05d1\u05d9\u05d1-\u05d9\u05e4\u05d5", "addr:country": "IL", "name": "$pop_title", "phone": "054-3360259", "brand": "McDonald\u2019s", "brand:wikidata": "Q38076"}},
{"type": "Feature", "id": "7VGhQTmAPyl3wpKm1hnOyjjCYXo=", "properties": {"ref": "117", "@spider": "mcdonalds_il", "addr:full": "\u05db\u05ea\u05d5\u05d1\u05ea: \u05d1\u05d9\u05ea \u05d7\u05d5\u05dc\u05d9\u05dd \u05e8\u05de\u05d1\"\u05dd-\u05d4\u05e2\u05dc\u05d9\u05d4 \u05d4\u05e9\u05e0\u05d9\u05d9\u05d4 8, \u05d7\u05d9\u05e4\u05d4", "addr:country": "IL", "name": "\u05d0\u05d9\u05ea\u05d5\u05e8 \u05de\u05e1\u05e2\u05d3\u05d4", "phone": "052-9440117", "brand": "McDonald\u2019s", "brand:wikidata": "Q38076"}},
{"type": "Feature", "id": "IBqRESaRkQfHbQG0HbWG8KH7CYM=", "properties": {"ref": "167", "@spider": "mcdonalds_il", "addr:full": "\u05db\u05ea\u05d5\u05d1\u05ea: \u05d8\u05e9\u05e8\u05e0\u05d9\u05d7\u05d5\u05d1\u05e1\u05e7\u05d9 59, \u05db\u05e4\u05e8 \u05e1\u05d1\u05d0", "addr:country": "IL", "name": "$pop_title", "phone": "052-9440167", "brand": "McDonald\u2019s", "brand:wikidata": "Q38076"}},
{"type": "Feature", "id": "wbYJhrlmcDH8zsjSFHil1SKydd4=", "properties": {"ref": "136", "@spider": "mcdonalds_il", "addr:full": "\u05db\u05ea\u05d5\u05d1\u05ea: \u05d1\u05d9\u05ea \u05d7\u05d5\u05dc\u05d9\u05dd \u05d1\u05d9\u05dc\u05d9\u05e0\u05e1\u05d5\u05df-\u05d6'\u05d1\u05d5\u05d8\u05d9\u05e0\u05e1\u05e7\u05d9 39, \u05e4\u05ea\u05d7 \u05ea\u05e7\u05d5\u05d5\u05d4", "addr:country": "IL", "name": "$pop_title", "phone": "052-9440136", "brand": "McDonald\u2019s", "brand:wikidata": "Q38076"}},
{"type": "Feature", "id": "h3khpvB3qdfxWFnXEuGgai6DHIE=", "properties": {"ref": "147", "@spider": "mcdonalds_il", "addr:full": "\u05db\u05ea\u05d5\u05d1\u05ea: \u05de\u05e8\u05db\u05d6 \u05de\u05e1\u05d7\u05e8\u05d9 \u05d0\u05e1\u05e3 \u05e1\u05e0\u05d8\u05e8, \u05d1\u05d0\u05e8 \u05d9\u05e2\u05e7\u05d1", "addr:country": "IL", "name": "\u05d0\u05d9\u05ea\u05d5\u05e8 \u05de\u05e1\u05e2\u05d3\u05d4", "phone": "052-9440147", "brand": "McDonald\u2019s", "brand:wikidata": "Q38076"}},
{"type": "Feature", "id": "oIrKkd5wbCQbTzGNRCGzX_mZOA8=", "properties": {"ref": "95", "@spider": "mcdonalds_il", "addr:full": "\u05db\u05ea\u05d5\u05d1\u05ea: \u05d7\u05d5\u05e6\u05d5\u05ea \u05e8\u05d2\u05d1\u05d4, \u05de\u05d5\u05e9\u05d1 \u05e8\u05d2\u05d1\u05d4", "addr:country": "IL", "name": "\u05d0\u05d9\u05ea\u05d5\u05e8 \u05de\u05e1\u05e2\u05d3\u05d4", "phone": "052-9440095", "brand": "McDonald\u2019s", "brand:wikidata": "Q38076"}},
{"type": "Feature", "id": "6CEbnvhXj1Y2HdGYMyLUGcYq5_I=", "properties": {"ref": "186", "@spider": "mcdonalds_il", "addr:full": "\u05db\u05ea\u05d5\u05d1\u05ea: \u05d0\u05d6\u05d5\u05d4\"\u05ea \u05d4\u05d3\u05e8\u05d5\u05de\u05d9, \u05e7\u05e8\u05d9\u05d9\u05ea \u05e9\u05de\u05d5\u05e0\u05d4", "addr:country": "IL", "name": "$pop_title", "phone": "052-9440186", "brand": "McDonald\u2019s", "brand:wikidata": "Q38076"}},
{"type": "Feature", "id": "tZWQKKe82avcx4hFsISRt_OqyRg=", "properties": {"ref": "283", "@spider": "mcdonalds_il", "addr:full": "\u05db\u05ea\u05d5\u05d1\u05ea: \u05d4\u05d4\u05e1\u05ea\u05d3\u05e8\u05d5\u05ea 248, \u05e7\u05e8\u05d9\u05d9\u05ea \u05d0\u05ea\u05d0", "addr:country": "IL", "name": "\u05d0\u05d9\u05ea\u05d5\u05e8 \u05de\u05e1\u05e2\u05d3\u05d4", "phone": "054-3360283", "brand": "McDonald\u2019s", "brand:wikidata": "Q38076"}},
{"type": "Feature", "id": "cdCYnyHsEz_NU3PnrqAa43UUWrk=", "properties": {"ref": "149", "@spider": "mcdonalds_il", "addr:full": "\u05db\u05ea\u05d5\u05d1\u05ea: \u05d0.\u05ea. \u05d1\u05d0\u05e8 \u05d8\u05d5\u05d1\u05d9\u05d4, \u05d1\u05d0\u05e8 \u05d8\u05d5\u05d1\u05d9\u05d4", "addr:country": "IL", "name": "\u05d0\u05d9\u05ea\u05d5\u05e8 \u05de\u05e1\u05e2\u05d3\u05d4", "phone": "052-9440149", "brand": "McDonald\u2019s", "brand:wikidata": "Q38076"}},
{"type": "Feature", "id": "4pT50WyRKg2wx1W7Ct-kOMPv55g=", "properties": {"ref": "224", "@spider": "mcdonalds_il", "addr:full": "\u05db\u05ea\u05d5\u05d1\u05ea: \u05d9\u05e9\u05e8\u05d0\u05dc \u05d1\u05e8 \u05d9\u05d4\u05d5\u05d3\u05d4 111, \u05d7\u05d9\u05e4\u05d4", "addr:country": "IL", "name": "$pop_title", "phone": "054-3360224", "brand": "McDonald\u2019s", "brand:wikidata": "Q38076"}},
{"type": "Feature", "id": "GqqwbA4fqrukUXGLqtWftYncM5U=", "properties": {"ref": "189", "@spider": "mcdonalds_il", "addr:full": "\u05db\u05ea\u05d5\u05d1\u05ea: \u05ea\u05d3\u05d4\u05e8 1, \u05e4\u05e8\u05d3\u05e1 \u05d7\u05e0\u05d4", "addr:country": "IL", "name": "$pop_title", "phone": "052-9440189", "brand": "McDonald\u2019s", "brand:wikidata": "Q38076"}},
{"type": "Feature", "id": "KIvNCyumviaI_Op5ASu5hqxF688=", "properties": {"ref": "163", "@spider": "mcdonalds_il", "addr:full": "\u05db\u05ea\u05d5\u05d1\u05ea: \u05ea\u05d0\u05d5\u05e4\u05d9\u05e7 \u05d6\u05d0\u05d9\u05d3 53, \u05e0\u05e6\u05e8\u05ea", "addr:country": "IL", "name": "\u05d0\u05d9\u05ea\u05d5\u05e8 \u05de\u05e1\u05e2\u05d3\u05d4", "phone": "052-9440163", "brand": "McDonald\u2019s", "brand:wikidata": "Q38076"}},
{"type": "Feature", "id": "Hijn2bkNEAAaogjotV-kfqGxIT0=", "properties": {"ref": "206", "@spider": "mcdonalds_il", "addr:full": "\u05db\u05ea\u05d5\u05d1\u05ea: \u05d9\u05d4\u05d5\u05d3\u05d4 \u05d4\u05dc\u05d5\u05d9 7, \u05d8\u05d1\u05e8\u05d9\u05d4", "addr:country": "IL", "name": "\u05d0\u05d9\u05ea\u05d5\u05e8 \u05de\u05e1\u05e2\u05d3\u05d4", "phone": "052-9440206", "brand": "McDonald\u2019s", "brand:wikidata": "Q38076"}},
{"type": "Feature", "id": "LdCNpryVmvFp-qjz59SlMAix2n4=", "properties": {"ref": "218", "@spider": "mcdonalds_il", "addr:full": "\u05db\u05ea\u05d5\u05d1\u05ea: \u05d3\u05e8\u05da \u05d4\u05e8\u05db\u05d1\u05ea 1, \u05d0\u05e9\u05d3\u05d5\u05d3", "addr:country": "IL", "name": "$pop_title", "phone": "052-9440218", "brand": "McDonald\u2019s", "brand:wikidata": "Q38076"}},
{"type": "Feature", "id": "m9APTQWZmga57WKItiJyfW9xELk=", "properties": {"ref": "243", "@spider": "mcdonalds_il", "addr:full": "\u05db\u05ea\u05d5\u05d1\u05ea: \u05dc\u05d9\u05d3 \u05d1\u05d9\u05d2 \u05e4\u05d0\u05e9\u05df, \u05d9\u05e8\u05db\u05d0", "addr:country": "IL", "name": "\u05d0\u05d9\u05ea\u05d5\u05e8 \u05de\u05e1\u05e2\u05d3\u05d4", "phone": "054-3360243", "brand": "McDonald\u2019s", "brand:wikidata": "Q38076"}},
{"type": "Feature", "id": "xVchfrb_uBGOWfvNgFmZ-s2kSzY=", "properties": {"ref": "245", "@spider": "mcdonalds_il", "addr:full": "\u05db\u05ea\u05d5\u05d1\u05ea: \u05e9\u05d3\u05e8\u05d5\u05ea \u05e8\u05d1\u05d9\u05df 9, \u05d9\u05e7\u05e0\u05e2\u05dd", "addr:country": "IL", "name": "$pop_title", "phone": "054-3360245", "brand": "McDonald\u2019s", "brand:wikidata": "Q38076"}},
{"type": "Feature", "id": "y26ZtrBP-M18GxCArAVu2yKajmM=", "properties": {"ref": "37", "@spider": "mcdonalds_il", "addr:full": "\u05db\u05ea\u05d5\u05d1\u05ea: \u05e6\u05d5\u05de\u05ea \u05ea\u05de\u05e8\u05d4, \u05ea\u05de\u05e8\u05d4", "addr:country": "IL", "name": "\u05d0\u05d9\u05ea\u05d5\u05e8 \u05de\u05e1\u05e2\u05d3\u05d4", "phone": "052-9440037", "brand": "McDonald\u2019s", "brand:wikidata": "Q38076"}},
{"type": "Feature", "id": "8TRV3sOhsDoqE4KhiMjGIg-CbLI=", "properties": {"ref": "119", "@spider": "mcdonalds_il", "addr:full": "\u05db\u05ea\u05d5\u05d1\u05ea: \u05de\u05e8\u05db\u05d6 \u05e7\u05e0\u05d9\u05d5\u05ea \u05ea\u05dc \u05d7\u05e0\u05df, \u05d1\u05e8 \u05d9\u05d4\u05d5\u05d3\u05d4 174, \u05e0\u05e9\u05e8", "addr:country": "IL", "name": "$pop_title", "phone": "052-9440119", "brand": "McDonald\u2019s", "brand:wikidata": "Q38076"}},
{"type": "Feature", "id": "I2SvL4wiYkqzq4WAkKgi6fcpiqI=", "properties": {"ref": "3", "@spider": "mcdonalds_il", "addr:full": "\u05db\u05ea\u05d5\u05d1\u05ea: \u05dc\u05d5\u05d9\u05e0\u05e1\u05e7\u05d9 108, \u05ea\u05dc \u05d0\u05d1\u05d9\u05d1-\u05d9\u05e4\u05d5", "addr:country": "IL", "name": "$pop_title", "phone": "052-9440003", "brand": "McDonald\u2019s", "brand:wikidata": "Q38076"}},
{"type": "Feature", "id": "h-Uz3X7hgAFdk6KnxpHILt6uT1g=", "properties": {"ref": "268", "@spider": "mcdonalds_il", "addr:full": "\u05db\u05ea\u05d5\u05d1\u05ea: \u05e9\u05e4\u05e8\u05d9\u05e0\u05e6\u05e7 2, \u05e2\u05e4\u05d5\u05dc\u05d4", "addr:country": "IL", "name": "\u05d0\u05d9\u05ea\u05d5\u05e8 \u05de\u05e1\u05e2\u05d3\u05d4", "phone": "054-3360268", "brand": "McDonald\u2019s", "brand:wikidata": "Q38076"}},
{"type": "Feature", "id": "PxwDzraevo-F-PIkVO6Cl64T_pU=", "properties": {"ref": "19", "@spider": "mcdonalds_il", "addr:full": "\u05db\u05ea\u05d5\u05d1\u05ea: \u05e9\u05d3\u05e8\u05d5\u05ea \u05d1\u05e0\u05d9\u05de\u05d9\u05df 7, \u05e0\u05ea\u05e0\u05d9\u05d4", "addr:country": "IL", "name": "$pop_title", "phone": "052-9440019", "brand": "McDonald\u2019s", "brand:wikidata": "Q38076"}},
{"type": "Feature", "id": "asprtVJZhlpishySJvSfqajIkvc=", "properties": {"ref": "180", "@spider": "mcdonalds_il", "addr:full": "\u05db\u05ea\u05d5\u05d1\u05ea: \u05d4\u05d9\u05e8\u05d3\u05df \u05e4\u05d9\u05e0\u05ea \u05d4\u05e9\u05d9\u05dc\u05d5\u05d7, \u05d8\u05d1\u05e8\u05d9\u05d4", "addr:country": "IL", "name": "$pop_title", "phone": "052-9440180", "brand": "McDonald\u2019s", "brand:wikidata": "Q38076"}},
{"type": "Feature", "id": "EDLG934gK9rfuPGi26IJNpNtBN0=", "properties": {"ref": "50", "@spider": "mcdonalds_il", "addr:full": "\u05db\u05ea\u05d5\u05d1\u05ea: \u05e9\u05de\u05e8\u05d9\u05d4\u05d5 \u05dc\u05d5\u05d9\u05df 4, \u05d1\u05d0\u05e8 \u05e9\u05d1\u05e2", "addr:country": "IL", "name": "$pop_title", "phone": "052-9440050", "brand": "McDonald\u2019s", "brand:wikidata": "Q38076"}},
{"type": "Feature", "id": "HSeENT1RbR3mXvLzctbEQJNzvn0=", "properties": {"ref": "237", "@spider": "mcdonalds_il", "addr:full": "\u05db\u05ea\u05d5\u05d1\u05ea: \u05d0\u05e8\u05e0\u05d9\u05d4 \u05d0\u05d5\u05e1\u05d5\u05d5\u05dc\u05d3\u05d5 6, \u05ea\u05dc \u05d0\u05d1\u05d9\u05d1-\u05d9\u05e4\u05d5", "addr:country": "IL", "name": "$pop_title", "phone": "054-3360237", "brand": "McDonald\u2019s", "brand:wikidata": "Q38076"}},
{"type": "Feature", "id": "nEpu7ZzzvWDwc9XaSHKQS86W_ss=", "properties": {"ref": "279", "@spider": "mcdonalds_il", "addr:full": "\u05db\u05ea\u05d5\u05d1\u05ea: \u05d0\u05d9\u05dc\u05d9\u05d0 \u05d0\u05d1\u05d5 \u05de\u05d0\u05d3\u05d9, \u05e9\u05e4\u05e8\u05e2\u05dd", "addr:country": "IL", "name": "\u05d0\u05d9\u05ea\u05d5\u05e8 \u05de\u05e1\u05e2\u05d3\u05d4", "phone": "054-3360279", "brand": "McDonald\u2019s", "brand:wikidata": "Q38076"}},
{"type": "Feature", "id": "vJ1eUZPmQ81fvP2EXl_Izy5owuI=", "properties": {"ref": "273", "@spider": "mcdonalds_il", "addr:full": "\u05db\u05ea\u05d5\u05d1\u05ea: \u05d9\u05d2\u05d0\u05dc \u05d0\u05dc\u05d5\u05df 22, \u05e8\u05d0\u05e9 \u05d4\u05e2\u05d9\u05df", "addr:country": "IL", "name": "\u05d0\u05d9\u05ea\u05d5\u05e8 \u05de\u05e1\u05e2\u05d3\u05d4", "phone": "054-3360273", "brand": "McDonald\u2019s", "brand:wikidata": "Q38076"}},
{"type": "Feature", "id": "DOcdrkay3zRL58HQd41xTxZtLgA=", "properties": {"ref": "55", "@spider": "mcdonalds_il", "addr:full": "\u05db\u05ea\u05d5\u05d1\u05ea: \u05de\u05e8\u05db\u05d6 \u05e7\u05e0\u05d9\u05d5\u05ea \u05d7\u05d5\u05e6\u05d5\u05ea \u05e9\u05e4\u05d9\u05d9\u05dd, \u05e7\u05d9\u05d1\u05d5\u05e5 \u05e9\u05e4\u05d9\u05d9\u05dd", "addr:country": "IL", "name": "\u05d0\u05d9\u05ea\u05d5\u05e8 \u05de\u05e1\u05e2\u05d3\u05d4", "phone": "052-9440055", "brand": "McDonald\u2019s", "brand:wikidata": "Q38076"}},
{"type": "Feature", "id": "JoyKbVai-mwnAg8-uhJhC4ILerA=", "properties": {"ref": "126", "@spider": "mcdonalds_il", "addr:full": "\u05db\u05ea\u05d5\u05d1\u05ea: \u05d0\u05e8\u05d1\u05e2 \u05d4\u05d0\u05d2\u05d5\u05d3\u05d5\u05ea 1, \u05d7\u05d3\u05e8\u05d4", "addr:country": "IL", "name": "$pop_title", "phone": "052-9440126", "brand": "McDonald\u2019s", "brand:wikidata": "Q38076"}},
{"type": "Feature", "id": "putB_CeQcdBi36QTp1UKXs7Lr5g=", "properties": {"ref": "274", "@spider": "mcdonalds_il", "addr:full": "\u05db\u05ea\u05d5\u05d1\u05ea: \u05d3\u05e8\u05da \u05d4\u05e2\u05e6\u05de\u05d0\u05d5\u05ea 41, \u05d7\u05d9\u05e4\u05d4", "addr:country": "IL", "name": "\u05d0\u05d9\u05ea\u05d5\u05e8 \u05de\u05e1\u05e2\u05d3\u05d4", "phone": "054-3360274", "brand": "McDonald\u2019s", "brand:wikidata": "Q38076"}},
{"type": "Feature", "id": "jmBaKODRBrTpwVyydARablJlLLo=", "properties": {"ref": "34", "@spider": "mcdonalds_il", "addr:full": "\u05db\u05ea\u05d5\u05d1\u05ea: \u05e9\u05d3\u05e8\u05d5\u05ea \u05e2\u05de\u05e7 \u05d0\u05d9\u05d9\u05dc\u05d5\u05df 30, \u05e9\u05d5\u05d4\u05dd", "addr:country": "IL", "name": "$pop_title", "phone": "052-9440034", "brand": "McDonald\u2019s", "brand:wikidata": "Q38076"}},
{"type": "Feature", "id": "yoRCVrzcQAH6dKuoDxB8GWZmb-Q=", "properties": {"ref": "51", "@spider": "mcdonalds_il", "addr:full": "\u05db\u05ea\u05d5\u05d1\u05ea: \u05d6\u05dc\u05de\u05df \u05e9\u05d6\u05e8 10 \u05e8\u05de\u05ea \u05e4\u05d5\u05dc\u05d2, \u05e0\u05ea\u05e0\u05d9\u05d4", "addr:country": "IL", "name": "$pop_title", "phone": "052-9440051", "brand": "McDonald\u2019s", "brand:wikidata": "Q38076"}},
{"type": "Feature", "id": "qmS35almLgYAVw9ZsuP_YWmzHqM=", "properties": {"ref": "56", "@spider": "mcdonalds_il", "addr:full": "\u05db\u05ea\u05d5\u05d1\u05ea: \u05e1\u05d5\u05e7\u05d5\u05dc\u05d5\u05d1 81, \u05e8\u05de\u05ea \u05d4\u05e9\u05e8\u05d5\u05df", "addr:country": "IL", "name": "\u05e4\u05d5\u05e4\u05d0\u05e3", "phone": "052-9440056", "brand": "McDonald\u2019s", "brand:wikidata": "Q38076"}},
{"type": "Feature", "id": "pMjEweqlsd6yu6psTfOkZlTCYyU=", "properties": {"ref": "5", "@spider": "mcdonalds_il", "addr:full": "\u05db\u05ea\u05d5\u05d1\u05ea: \u05d0\u05d1\u05d0 \u05d0\u05d7\u05d9\u05de\u05d0\u05d9\u05e8 29, \u05ea\u05dc \u05d0\u05d1\u05d9\u05d1-\u05d9\u05e4\u05d5", "addr:country": "IL", "name": "$pop_title", "phone": "052-9440005", "brand": "McDonald\u2019s", "brand:wikidata": "Q38076"}},
{"type": "Feature", "id": "XGmQjNTbOOETuMPnUlsAfPa4gX0=", "properties": {"ref": "166", "@spider": "mcdonalds_il", "addr:full": "\u05db\u05ea\u05d5\u05d1\u05ea: \u05e9\u05d3\u05e8\u05d5\u05ea \u05e8\u05d5\u05d8\u05e9\u05d9\u05dc\u05d3 33, \u05ea\u05dc \u05d0\u05d1\u05d9\u05d1-\u05d9\u05e4\u05d5", "addr:country": "IL", "name": "$pop_title", "phone": "052-9440166", "brand": "McDonald\u2019s", "brand:wikidata": "Q38076"}},
{"type": "Feature", "id": "IHH4hR6W-cPW5lTaPzUpcGYlx_Q=", "properties": {"ref": "227", "@spider": "mcdonalds_il", "addr:full": "\u05db\u05ea\u05d5\u05d1\u05ea: \u05d4\u05d3\u05d5\u05d2\u05d9\u05ea 16, \u05d9\u05d1\u05e0\u05d4", "addr:country": "IL", "name": "$pop_title", "phone": "054-3360227", "brand": "McDonald\u2019s", "brand:wikidata": "Q38076"}},
{"type": "Feature", "id": "u9o8HCPJxpl967Dwc1pboM8LrgM=", "properties": {"ref": "98", "@spider": "mcdonalds_il", "addr:full": "\u05db\u05ea\u05d5\u05d1\u05ea: \u05d1\u05d6\u05e7 1, \u05e0\u05d5\u05d5\u05d4 \u05d0\u05e4\u05e7, \u05e8\u05d0\u05e9 \u05d4\u05e2\u05d9\u05df", "addr:country": "IL", "name": "$pop_title", "phone": "052-9440098", "brand": "McDonald\u2019s", "brand:wikidata": "Q38076"}},
{"type": "Feature", "id": "SDnwxuYDak1KRIZdca4fuGdLW8A=", "properties": {"ref": "84", "@spider": "mcdonalds_il", "addr:full": "\u05db\u05ea\u05d5\u05d1\u05ea: \u05e9\u05d0\u05dc\u05ea\u05d9\u05d0\u05dc \u05d3\u05d5\u05d3 16, \u05d7\u05d5\u05dc\u05d5\u05df", "addr:country": "IL", "name": "\u05e4\u05d5\u05e4\u05d0\u05e3", "phone": "052-9440084", "brand": "McDonald\u2019s", "brand:wikidata": "Q38076"}},
{"type": "Feature", "id": "kGWfZ_60BSJOgVvTdVP3zL2JWes=", "properties": {"ref": "202", "@spider": "mcdonalds_il", "addr:full": "\u05db\u05ea\u05d5\u05d1\u05ea: \u05de\u05e8\u05db\u05d6 \u05d0\u05dc\u05d5\u05df - \u05d8\u05d5\u05dd \u05dc\u05e0\u05d8\u05d5\u05e1 26, \u05e0\u05ea\u05e0\u05d9\u05d4", "addr:country": "IL", "name": "$pop_title", "phone": "052-9440202", "brand": "McDonald\u2019s", "brand:wikidata": "Q38076"}},
{"type": "Feature", "id": "iOAohQ6oUOy0f8NxuposXR3xQeo=", "properties": {"ref": "78", "@spider": "mcdonalds_il", "addr:full": "\u05db\u05ea\u05d5\u05d1\u05ea: \u05d3\u05e8\u05da \u05e2\u05db\u05d5 192, \u05e7\u05e8\u05d9\u05d9\u05ea \u05d1\u05d9\u05d0\u05dc\u05d9\u05e7", "addr:country": "IL", "name": "$pop_title", "phone": "052-9440078", "brand": "McDonald\u2019s", "brand:wikidata": "Q38076"}},
{"type": "Feature", "id": "Potvtx9t2XLjO_w18dyif1iPWQA=", "properties": {"ref": "158", "@spider": "mcdonalds_il", "addr:full": "\u05db\u05ea\u05d5\u05d1\u05ea: \u05d3\u05e8\u05da \u05e2\u05db\u05d5 192, \u05e7\u05e8\u05d9\u05d9\u05ea \u05d1\u05d9\u05d0\u05dc\u05d9\u05e7", "addr:country": "IL", "name": "$pop_title", "phone": "052-9440158", "brand": "McDonald\u2019s", "brand:wikidata": "Q38076"}},
{"type": "Feature", "id": "cdIexmv7tKwmAuwSVF-WZwPYP68=", "properties": {"ref": "172", "@spider": "mcdonalds_il", "addr:full": "\u05db\u05ea\u05d5\u05d1\u05ea: \u05d4\u05e8\u05e7\u05d5\u05df 2, \u05d0.\u05ea. \u05e0\u05d5\u05d5\u05d4 \u05e0\u05d0\u05de\u05df, \u05d4\u05d5\u05d3 \u05d4\u05e9\u05e8\u05d5\u05df", "addr:country": "IL", "name": "$pop_title", "phone": "052-9440172", "brand": "McDonald\u2019s", "brand:wikidata": "Q38076"}},
{"type": "Feature", "id": "sXRnjwUJelvIQFNhksIDzOsggus=", "properties": {"ref": "52", "@spider": "mcdonalds_il", "addr:full": "\u05db\u05ea\u05d5\u05d1\u05ea: \u05d2\u05d5\u05dc\u05d3\u05d4 \u05de\u05d0\u05d9\u05e8 1, \u05e8\u05d0\u05e9\u05d5\u05df \u05dc\u05e6\u05d9\u05d5\u05df", "addr:country": "IL", "name": "$pop_title", "phone": "052-9440052", "brand": "McDonald\u2019s", "brand:wikidata": "Q38076"}},
{"type": "Feature", "id": "iCEIxJOlG1qoX3bQc1EC3DqJdL0=", "properties": {"ref": "215", "@spider": "mcdonalds_il", "addr:full": "\u05db\u05ea\u05d5\u05d1\u05ea: \u05d3\u05e8\u05da \u05d7\u05d9\u05e4\u05d4 30, \u05e7\u05e8\u05d9\u05d9\u05ea \u05d0\u05ea\u05d0", "addr:country": "IL", "name": "$pop_title", "phone": "052-9440215", "brand": "McDonald\u2019s", "brand:wikidata": "Q38076"}},
{"type": "Feature", "id": "PUkwvmT_aNUihaw9UwToRWGnOCw=", "properties": {"ref": "35", "@spider": "mcdonalds_il", "addr:full": "\u05db\u05ea\u05d5\u05d1\u05ea: \u05d8\u05e9\u05e8\u05e0\u05d9\u05d7\u05d5\u05d1\u05e1\u05e7\u05d9 4, \u05e7\u05e8\u05d9\u05d9\u05ea \u05e9\u05de\u05d5\u05e0\u05d4", "addr:country": "IL", "name": "$pop_title", "phone": "052-9440035", "brand": "McDonald\u2019s", "brand:wikidata": "Q38076"}},
{"type": "Feature", "id": "aNspCqUBqkXyG6ouJOYmhQXhHX0=", "properties": {"ref": "142", "@spider": "mcdonalds_il", "addr:full": "\u05db\u05ea\u05d5\u05d1\u05ea: \u05e9\u05d3\u05e8\u05d5\u05ea \u05e9\u05d1\u05e2\u05ea \u05d4\u05db\u05d5\u05db\u05d1\u05d9\u05dd 8, \u05d4\u05e8\u05e6\u05dc\u05d9\u05d4", "addr:country": "IL", "name": "\u05d0\u05d9\u05ea\u05d5\u05e8 \u05de\u05e1\u05e2\u05d3\u05d4", "phone": "052-9440142", "brand": "McDonald\u2019s", "brand:wikidata": "Q38076"}},
{"type": "Feature", "id": "z4c4yP-xY04260DDbNxQe_F4oIw=", "properties": {"ref": "89", "@spider": "mcdonalds_il", "addr:full": "\u05db\u05ea\u05d5\u05d1\u05ea: \u05d4\u05de\u05dc\u05d0\u05db\u05d4 2, \u05e7\u05e8\u05d9\u05ea \u05d0\u05ea\u05d2\u05e8\u05d9\u05dd, \u05e8\u05e2\u05e0\u05e0\u05d4", "addr:country": "IL", "name": "$pop_title", "phone": "052-9440089", "brand": "McDonald\u2019s", "brand:wikidata": "Q38076"}},
{"type": "Feature", "id": "AGdSXRbF4lqGtZdqSQi6sMcj6II=", "properties": {"ref": "47", "@spider": "mcdonalds_il", "addr:full": "\u05db\u05ea\u05d5\u05d1\u05ea: \u05d0\u05d9\u05d9\u05e0\u05e9\u05d8\u05d9\u05d9\u05df 40 \u05e8\u05de\u05ea \u05d0\u05d1\u05d9\u05d1, \u05ea\u05dc \u05d0\u05d1\u05d9\u05d1-\u05d9\u05e4\u05d5", "addr:country": "IL", "name": "$pop_title", "phone": "052-9440047", "brand": "McDonald\u2019s", "brand:wikidata": "Q38076"}},
{"type": "Feature", "id": "HSTKl99dsOjiUNpcq9vqHfasZws=", "properties": {"ref": "28", "@spider": "mcdonalds_il", "addr:full": "\u05db\u05ea\u05d5\u05d1\u05ea: \u05d1\u05d9\u05dc\"\u05d5 2, \u05e8\u05d7\u05d5\u05d1\u05d5\u05ea", "addr:country": "IL", "name": "$pop_title", "phone": "052-9440028", "brand": "McDonald\u2019s", "brand:wikidata": "Q38076"}},
{"type": "Feature", "id": "8swloA5E8EFu0bLwPaDOLrYwzgA=", "properties": {"ref": "94", "@spider": "mcdonalds_il", "addr:full": "\u05db\u05ea\u05d5\u05d1\u05ea: \u05e9\u05dc\u05de\u05d4 \u05d4\u05de\u05dc\u05da 37, \u05e7\u05e8\u05d9\u05d9\u05ea \u05d0\u05d5\u05e0\u05d5", "addr:country": "IL", "name": "$pop_title", "phone": "052-9440094", "brand": "McDonald\u2019s", "brand:wikidata": "Q38076"}},
{"type": "Feature", "id": "0Y0xI1hp4q09qRb8x0lvTFyN2cE=", "properties": {"ref": "127", "@spider": "mcdonalds_il", "addr:full": "\u05db\u05ea\u05d5\u05d1\u05ea: \u05d1\u05e8\u05dc \u05db\u05e6\u05e0\u05dc\u05e1\u05d5\u05df 14, \u05db\u05e4\u05e8 \u05e1\u05d1\u05d0", "addr:country": "IL", "name": "$pop_title", "phone": "052-9440127", "brand": "McDonald\u2019s", "brand:wikidata": "Q38076"}},
{"type": "Feature", "id": "PRkLIBXlY_bRVFn5svv5bEQhOZI=", "properties": {"ref": "188", "@spider": "mcdonalds_il", "addr:full": "\u05db\u05ea\u05d5\u05d1\u05ea: \u05d1\u05e0\u05d9 \u05d1\u05e8\u05de\u05df 2, \u05e4\u05d5\u05dc\u05d2, \u05e0\u05ea\u05e0\u05d9\u05d4", "addr:country": "IL", "name": "$pop_title", "phone": "052-9440188", "brand": "McDonald\u2019s", "brand:wikidata": "Q38076"}},
{"type": "Feature", "id": "MrXPVWXYcildGH5l-VXzlLhavjY=", "properties": {"ref": "183", "@spider": "mcdonalds_il", "addr:full": "\u05db\u05ea\u05d5\u05d1\u05ea: \u05d4\u05d7\u05e8\u05d5\u05e9\u05ea 2, \u05e2\u05db\u05d5", "addr:country": "IL", "name": "$pop_title", "phone": "052-9440183", "brand": "McDonald\u2019s", "brand:wikidata": "Q38076"}},
{"type": "Feature", "id": "N38-24P7y6DstU90p6DVQtKAyjk=", "properties": {"ref": "156", "@spider": "mcdonalds_il", "addr:full": "\u05db\u05ea\u05d5\u05d1\u05ea: \u05dc\u05d1 \u05d4\u05e2\u05d9\u05e8 2, \u05de\u05d5\u05d3\u05d9\u05e2\u05d9\u05df", "addr:country": "IL", "name": "$pop_title", "phone": "052-9440156", "brand": "McDonald\u2019s", "brand:wikidata": "Q38076"}},
{"type": "Feature", "id": "L2u0R11AfvyxzKXL2s-7VT5OjeM=", "properties": {"ref": "232", "@spider": "mcdonalds_il", "addr:full": "\u05db\u05ea\u05d5\u05d1\u05ea: \u05e9\u05d3\u05e8\u05d5\u05ea \u05e0\u05d9\u05dd 2, \u05e8\u05d0\u05e9\u05d5\u05df \u05dc\u05e6\u05d9\u05d5\u05df", "addr:country": "IL", "name": "$pop_title", "phone": "054-3360232", "brand": "McDonald\u2019s", "brand:wikidata": "Q38076"}},
{"type": "Feature", "id": "bA1mEeEr5pL_DiV7hwmtnmv8ey8=", "properties": {"ref": "251", "@spider": "mcdonalds_il", "addr:full": "\u05db\u05ea\u05d5\u05d1\u05ea: \u05d2\u05d5\u05dc\u05d3\u05d4 \u05de\u05d0\u05d9\u05e8 7, \u05d7\u05d5\u05dc\u05d5\u05df", "addr:country": "IL", "name": "\u05e4\u05d5\u05e4\u05d0\u05e3", "phone": "054-3360251", "brand": "McDonald\u2019s", "brand:wikidata": "Q38076"}},
{"type": "Feature", "id": "_7Ol1ywC6y0yNN176a76i0v8OWY=", "properties": {"ref": "231", "@spider": "mcdonalds_il", "addr:full": "\u05db\u05ea\u05d5\u05d1\u05ea: \u05e6\u05d5\u05de\u05ea \u05d0\u05dc\u05d9 \u05db\u05d4\u05df, \u05d1\u05d0\u05e8 \u05e9\u05d1\u05e2", "addr:country": "IL", "name": "\u05d0\u05d9\u05ea\u05d5\u05e8 \u05de\u05e1\u05e2\u05d3\u05d4", "phone": "054-3360231", "brand": "McDonald\u2019s", "brand:wikidata": "Q38076"}},
{"type": "Feature", "id": "Ov6qB_BrlVgumi4stZXD1KN1bZs=", "properties": {"ref": "281", "@spider": "mcdonalds_il", "addr:full": "\u05db\u05ea\u05d5\u05d1\u05ea: \u05d0\u05e0\u05d8\u05d9\u05d1 8, \u05d0\u05d9\u05dc\u05ea", "addr:country": "IL", "name": "\u05d0\u05d9\u05ea\u05d5\u05e8 \u05de\u05e1\u05e2\u05d3\u05d4", "phone": "054-3360281", "brand": "McDonald\u2019s", "brand:wikidata": "Q38076"}},
{"type": "Feature", "id": "jvTAcAQSpjg35S2CxGKhfXKQZQY=", "properties": {"ref": "178", "@spider": "mcdonalds_il", "addr:full": "\u05db\u05ea\u05d5\u05d1\u05ea: \u05d0\u05d2\u05d5\u05d3\u05ea \u05e1\u05e4\u05d5\u05e8\u05d8 \u05d1\u05d9\u05ea\u05e8 1, \u05d9\u05e8\u05d5\u05e9\u05dc\u05d9\u05dd", "addr:country": "IL", "name": "$pop_title", "phone": "052-9440178", "brand": "McDonald\u2019s", "brand:wikidata": "Q38076"}},
{"type": "Feature", "id": "7DW1gzwSW8mCNBqt0HZ7l9inx-k=", "properties": {"ref": "38", "@spider": "mcdonalds_il", "addr:full": "\u05db\u05ea\u05d5\u05d1\u05ea: \u05d4\u05e4\u05dc\u05de\"\u05d7 1, \u05d0\u05d9\u05dc\u05ea", "addr:country": "IL", "name": "$pop_title", "phone": "052-9440038", "brand": "McDonald\u2019s", "brand:wikidata": "Q38076"}},
{"type": "Feature", "id": "FvPIWxcA2uyAK3HLlafA5HN730E=", "properties": {"ref": "286", "@spider": "mcdonalds_il", "addr:full": "\u05db\u05ea\u05d5\u05d1\u05ea: \u05e9\u05db\u05d8\u05de\u05df 10, \u05d7\u05d3\u05e8\u05d4", "addr:country": "IL", "name": "\u05d0\u05d9\u05ea\u05d5\u05e8 \u05de\u05e1\u05e2\u05d3\u05d4", "phone": "054-3360286", "brand": "McDonald\u2019s", "brand:wikidata": "Q38076"}},
{"type": "Feature", "id": "_KeGZf6y3b8MKmQW9WoyFTWjyZY=", "properties": {"ref": "230", "@spider": "mcdonalds_il", "addr:full": "\u05db\u05ea\u05d5\u05d1\u05ea: \u05d4\u05d7\u05d5\u05e6\u05d1\u05d9\u05dd 10, \u05de\u05d1\u05e9\u05e8\u05ea \u05e6\u05d9\u05d5\u05df", "addr:country": "IL", "name": "\u05d0\u05d9\u05ea\u05d5\u05e8 \u05de\u05e1\u05e2\u05d3\u05d4", "phone": "054-3360207", "brand": "McDonald\u2019s", "brand:wikidata": "Q38076"}},
{"type": "Feature", "id": "RhuuFZULC_ERbCPOcEmjnY9OzA4=", "properties": {"ref": "175", "@spider": "mcdonalds_il", "addr:full": "\u05db\u05ea\u05d5\u05d1\u05ea: \u05e9\u05d3\u05e8\u05d5\u05ea \u05e8\u05d5\u05d8\u05e9\u05d9\u05dc\u05d3 40, \u05d7\u05d3\u05e8\u05d4", "addr:country": "IL", "name": "$pop_title", "phone": "052-9440175", "brand": "McDonald\u2019s", "brand:wikidata": "Q38076"}},
{"type": "Feature", "id": "Z7upmD_sC7VkgS6109eUxo8nYyk=", "properties": {"ref": "120", "@spider": "mcdonalds_il", "addr:full": "\u05db\u05ea\u05d5\u05d1\u05ea: \u05e7\u05e0\u05d9\u05d5\u05df \u05dc\u05d1 \u05d4\u05e2\u05d9\u05e8 - \u05db\u05d9\u05db\u05e8 \u05e4\u05d6 3, \u05e7\u05e8\u05d9\u05ea \u05d2\u05ea", "addr:country": "IL", "name": "$pop_title", "phone": "052-9440120", "brand": "McDonald\u2019s", "brand:wikidata": "Q38076"}},
{"type": "Feature", "id": "YNQo9oy_RjFC-Yl7v-UzUR2DvRk=", "properties": {"ref": "216", "@spider": "mcdonalds_il", "addr:full": "\u05db\u05ea\u05d5\u05d1\u05ea: \u05e8\u05e4\u05e4\u05d5\u05e8\u05d8 3, \u05db\u05e4\u05e8 \u05e1\u05d1\u05d0", "addr:country": "IL", "name": "$pop_title", "phone": "052-9440216", "brand": "McDonald\u2019s", "brand:wikidata": "Q38076"}},
{"type": "Feature", "id": "n6sIFqT9iXQLEhF9eCMNSqMU5lw=", "properties": {"ref": "184", "@spider": "mcdonalds_il", "addr:full": "\u05db\u05ea\u05d5\u05d1\u05ea: \u05d4\u05e2\u05e6\u05de\u05d0\u05d5\u05ea 37, \u05e7\u05e8\u05d9\u05d9\u05ea \u05d0\u05ea\u05d0", "addr:country": "IL", "name": "$pop_title", "phone": "052-9440184", "brand": "McDonald\u2019s", "brand:wikidata": "Q38076"}},
{"type": "Feature", "id": "5U7z8g7qjBIUazseBvOEh_3sHSA=", "properties": {"ref": "252", "@spider": "mcdonalds_il", "addr:full": "\u05db\u05ea\u05d5\u05d1\u05ea: \u05e2\u05d9\u05df \u05d1\u05d5\u05e7\u05e7, \u05d9\u05dd \u05d4\u05de\u05dc\u05d7", "addr:country": "IL", "name": "\u05d0\u05d9\u05ea\u05d5\u05e8 \u05de\u05e1\u05e2\u05d3\u05d4", "phone": "054-3360252", "brand": "McDonald\u2019s", "brand:wikidata": "Q38076"}},
{"type": "Feature", "id": "PRWNiAE2MPLh7pT3W3D4g5sUAEo=", "properties": {"ref": "49", "@spider": "mcdonalds_il", "addr:full": "\u05db\u05ea\u05d5\u05d1\u05ea: \u05d3\u05e8\u05da \u05de\u05e9\u05d4 \u05e4\u05dc\u05d9\u05de\u05df 4, \u05d7\u05d9\u05e4\u05d4", "addr:country": "IL", "name": "$pop_title", "phone": "052-9440049", "brand": "McDonald\u2019s", "brand:wikidata": "Q38076"}},
{"type": "Feature", "id": "g87k7WAZ6cAiTqsXvJ9Ec5YmPuk=", "properties": {"ref": "284", "@spider": "mcdonalds_il", "addr:full": "\u05db\u05ea\u05d5\u05d1\u05ea: \u05d4\u05e8\u05e6\u05dc 60, \u05e0\u05ea\u05e0\u05d9\u05d4", "addr:country": "IL", "name": "\u05d0\u05d9\u05ea\u05d5\u05e8 \u05de\u05e1\u05e2\u05d3\u05d4", "phone": "054-3360284", "brand": "McDonald\u2019s", "brand:wikidata": "Q38076"}},
{"type": "Feature", "id": "WfJGK8yTtL-Oo_AxrqCycVn_OSM=", "properties": {"ref": "53", "@spider": "mcdonalds_il", "addr:full": "\u05db\u05ea\u05d5\u05d1\u05ea: \u05d3\u05e8\u05da \u05de\u05e0\u05d7\u05dd \u05d1\u05d2\u05d9\u05df 132, \u05ea\u05dc \u05d0\u05d1\u05d9\u05d1-\u05d9\u05e4\u05d5", "addr:country": "IL", "name": "$pop_title", "phone": "052-9440053", "brand": "McDonald\u2019s", "brand:wikidata": "Q38076"}},
{"type": "Feature", "id": "3w2uvm2v5nAsEZvi2h1r_gj8SOU=", "properties": {"ref": "40", "@spider": "mcdonalds_il", "addr:full": "\u05db\u05ea\u05d5\u05d1\u05ea: \u05e7\u05e0\u05d9\u05d5\u05df \u05d4\u05e1\u05d9\u05d8\u05d9, \u05e9\u05d3\u05e8\u05d5\u05ea \u05de\u05e0\u05d7\u05dd \u05d1\u05d2\u05d9\u05df, \u05d0\u05e9\u05d3\u05d5\u05d3", "addr:country": "IL", "name": "$pop_title", "phone": "052-9440040", "brand": "McDonald\u2019s", "brand:wikidata": "Q38076"}},
{"type": "Feature", "id": "PBmsdorp6_jZncCiphR4sfjRw6Q=", "properties": {"ref": "2", "@spider": "mcdonalds_il", "addr:full": "\u05db\u05ea\u05d5\u05d1\u05ea: \u05e1\u05d7\u05e8\u05d5\u05d1 \u05d3\u05d5\u05d3 21, \u05e8\u05d0\u05e9\u05d5\u05df \u05dc\u05e6\u05d9\u05d5\u05df", "addr:country": "IL", "name": "$pop_title", "phone": "052-9440002", "brand": "McDonald\u2019s", "brand:wikidata": "Q38076"}},
{"type": "Feature", "id": "lxTjL6sKmM36lXrkiRut0jK5rFo=", "properties": {"ref": "201", "@spider": "mcdonalds_il", "addr:full": "\u05db\u05ea\u05d5\u05d1\u05ea: \u05e1\u05d7\u05e8\u05d5\u05d1 \u05d3\u05d5\u05d3 21, \u05e8\u05d0\u05e9\u05d5\u05df \u05dc\u05e6\u05d9\u05d5\u05df", "addr:country": "IL", "name": "$pop_title", "phone": "052-9440201", "brand": "McDonald\u2019s", "brand:wikidata": "Q38076"}},
{"type": "Feature", "id": "ufc4nPrwKlSYU0lymiAVV3CUbFA=", "properties": {"ref": "157", "@spider": "mcdonalds_il", "addr:full": "\u05db\u05ea\u05d5\u05d1\u05ea: \u05e7\u05e0\u05d9\u05d5\u05df \u05d4\u05d2\u05d1\u05e2\u05d4, \u05e0\u05ea\u05e0\u05d9\u05d4\u05d5 29, \u05d2\u05d1\u05e2\u05ea \u05e9\u05de\u05d5\u05d0\u05dc", "addr:country": "IL", "name": "$pop_title", "phone": "052-9440157", "brand": "McDonald\u2019s", "brand:wikidata": "Q38076"}},
{"type": "Feature", "id": "c01X_E0ZiTzHz2NY0BHixyy5VC4=", "properties": {"ref": "197", "@spider": "mcdonalds_il", "addr:full": "\u05db\u05ea\u05d5\u05d1\u05ea: \u05de\u05d5\u05e8\u05e9\u05ea \u05d9\u05e9\u05e8\u05d0\u05dc 15, \u05e8\u05d0\u05e9\u05d5\u05df \u05dc\u05e6\u05d9\u05d5\u05df", "addr:country": "IL", "name": "$pop_title", "phone": "052-9440197", "brand": "McDonald\u2019s", "brand:wikidata": "Q38076"}},
{"type": "Feature", "id": "W4loAnI1NI0pSuxt1CNjw12Hguk=", "properties": {"ref": "276", "@spider": "mcdonalds_il", "addr:full": "\u05db\u05ea\u05d5\u05d1\u05ea: \u05d4\u05de\u05e2\u05e4\u05d9\u05dc \u05e4\u05d9\u05e0\u05ea \u05d2\u05d5\u05dc\u05d3\u05d4 \u05de\u05d0\u05d9\u05e8, \u05d3\u05d9\u05de\u05d5\u05e0\u05d4", "addr:country": "IL", "name": "\u05d0\u05d9\u05ea\u05d5\u05e8 \u05de\u05e1\u05e2\u05d3\u05d4", "phone": "054-3360276", "brand": "McDonald\u2019s", "brand:wikidata": "Q38076"}},
{"type": "Feature", "id": "uu9JZJmRAGYphbqTQt2-YGNniS8=", "properties": {"ref": "123", "@spider": "mcdonalds_il", "addr:full": "\u05db\u05ea\u05d5\u05d1\u05ea: \u05e9\u05d3\u05e8\u05d5\u05ea \u05d1\u05df \u05d2\u05d5\u05e8\u05d9\u05d5\u05df 21, \u05d0\u05e9\u05e7\u05dc\u05d5\u05df", "addr:country": "IL", "name": "$pop_title", "phone": "052-9440123", "brand": "McDonald\u2019s", "brand:wikidata": "Q38076"}},
{"type": "Feature", "id": "3CG1WU1ZajohSK9nZR7MIDsgvYY=", "properties": {"ref": "135", "@spider": "mcdonalds_il", "addr:full": "\u05db\u05ea\u05d5\u05d1\u05ea: \u05d3\u05e8\u05da \u05d9\u05e6\u05d7\u05e7 \u05e8\u05d1\u05d9\u05df 53, \u05d2\u05d1\u05e2\u05ea\u05d9\u05d9\u05dd", "addr:country": "IL", "name": "$pop_title", "phone": "052-9440135", "brand": "McDonald\u2019s", "brand:wikidata": "Q38076"}},
{"type": "Feature", "id": "cPZMWgxeiJ7o2NyfpdkT9pO3N3A=", "properties": {"ref": "43", "@spider": "mcdonalds_il", "addr:full": "\u05db\u05ea\u05d5\u05d1\u05ea: \u05d9\u05d5\u05e1\u05e4\u05d8\u05dc 92, \u05d1\u05ea \u05d9\u05dd", "addr:country": "IL", "name": "\u05e4\u05d5\u05e4\u05d0\u05e3", "phone": "052-9440043", "brand": "McDonald\u2019s", "brand:wikidata": "Q38076"}},
{"type": "Feature", "id": "aaOT3gfl-z2WXxhGONa0pcg6vU8=", "properties": {"ref": "73", "@spider": "mcdonalds_il", "addr:full": "\u05db\u05ea\u05d5\u05d1\u05ea: \u05d1\u05d9\u05d0\u05dc\u05d9\u05e7 76 \u05e4\u05d9\u05e0\u05ea \u05d6'\u05d1\u05d5\u05d8\u05d9\u05e0\u05e1\u05e7\u05d9, \u05e8\u05de\u05ea \u05d2\u05df", "addr:country": "IL", "name": "\u05d0\u05d9\u05ea\u05d5\u05e8 \u05de\u05e1\u05e2\u05d3\u05d4", "phone": "052-9440073", "brand": "McDonald\u2019s", "brand:wikidata": "Q38076"}},
{"type": "Feature", "id": "MvddTDvVFvuKqAXB0qLqaZM4Mjc=", "properties": {"ref": "1", "@spider": "mcdonalds_il", "addr:full": "\u05db\u05ea\u05d5\u05d1\u05ea: \u05d0\u05d1\u05d0 \u05d4\u05dc\u05dc 301, \u05e8\u05de\u05ea \u05d2\u05df", "addr:country": "IL", "name": "$pop_title", "phone": "052-9440001", "brand": "McDonald\u2019s", "brand:wikidata": "Q38076"}},
{"type": "Feature", "id": "KudQ4jb57kiYEpT7VxZ3IoJ2W4U=", "properties": {"ref": "129", "@spider": "mcdonalds_il", "addr:full": "\u05db\u05ea\u05d5\u05d1\u05ea: \u05d0\u05d1\u05d0 \u05d4\u05dc\u05dc 301, \u05e8\u05de\u05ea \u05d2\u05df", "addr:country": "IL", "name": "\u05d0\u05d9\u05ea\u05d5\u05e8 \u05de\u05e1\u05e2\u05d3\u05d4", "phone": "052-9440129", "brand": "McDonald\u2019s", "brand:wikidata": "Q38076"}},
{"type": "Feature", "id": "913a79Hm7mFfLpwDW8TNlNSMKm8=", "properties": {"ref": "9", "@spider": "mcdonalds_il", "addr:full": "\u05db\u05ea\u05d5\u05d1\u05ea: \u05e7\u05e0\u05d9\u05d5\u05df \u05d0\u05d5\u05e8\u05d5\u05ea - \u05d4\u05e0\u05e9\u05d9\u05d0 1, \u05d0\u05d5\u05e8 \u05e2\u05e7\u05d9\u05d1\u05d0", "addr:country": "IL", "name": "$pop_title", "phone": "052-9440009", "brand": "McDonald\u2019s", "brand:wikidata": "Q38076"}},
{"type": "Feature", "id": "_dAm1p97VAdohW5ohPXQGsOu1oE=", "properties": {"ref": "233", "@spider": "mcdonalds_il", "addr:full": "\u05db\u05ea\u05d5\u05d1\u05ea: \u05d4\u05d7\u05e9\u05de\u05d5\u05e0\u05d0\u05d9\u05dd 94, \u05ea\u05dc \u05d0\u05d1\u05d9\u05d1-\u05d9\u05e4\u05d5", "addr:country": "IL", "name": "$pop_title", "phone": "054-3360233", "brand": "McDonald\u2019s", "brand:wikidata": "Q38076"}},
{"type": "Feature", "id": "4i3N0KTDkahZt_hE8xpmpv9bhFA=", "properties": {"ref": "247", "@spider": "mcdonalds_il", "addr:full": "\u05db\u05ea\u05d5\u05d1\u05ea: \u05d3\u05e8\u05da \u05d0\u05e8\u05e5 2, \u05d7\u05e8\u05d9\u05e9", "addr:country": "IL", "name": "$pop_title", "phone": "054-3360247", "brand": "McDonald\u2019s", "brand:wikidata": "Q38076"}},
{"type": "Feature", "id": "UUpGVZDzaJlKnicOtGrS_5atvz8=", "properties": {"ref": "75", "@spider": "mcdonalds_il", "addr:full": "\u05db\u05ea\u05d5\u05d1\u05ea: \u05e7\u05e0\u05d9\u05d5\u05df M \u05d4\u05d3\u05e8\u05da, \u05d1\u05d9\u05ea \u05d7\u05d9\u05e8\u05d5\u05ea", "addr:country": "IL", "name": "\u05d0\u05d9\u05ea\u05d5\u05e8 \u05de\u05e1\u05e2\u05d3\u05d4", "phone": "052-9440075", "brand": "McDonald\u2019s", "brand:wikidata": "Q38076"}},
{"type": "Feature", "id": "fuzsOa9YF64y8vixkG_RL87bkfg=", "properties": {"ref": "24", "@spider": "mcdonalds_il", "addr:full": "\u05db\u05ea\u05d5\u05d1\u05ea: \u05d4\u05ea\u05de\u05e8 2, \u05d9\u05e7\u05e0\u05e2\u05dd", "addr:country": "IL", "name": "$pop_title", "phone": "052-9440024", "brand": "McDonald\u2019s", "brand:wikidata": "Q38076"}},
{"type": "Feature", "id": "04xYlG66Auu3D36dKabcpQw-3pU=", "properties": {"ref": "226", "@spider": "mcdonalds_il", "addr:full": "\u05db\u05ea\u05d5\u05d1\u05ea: \u05d4\u05e7\u05d9\u05e9\u05d5\u05df 9, \u05d9\u05d1\u05e0\u05d4", "addr:country": "IL", "name": "$pop_title", "phone": "054-3360226", "brand": "McDonald\u2019s", "brand:wikidata": "Q38076"}},
{"type": "Feature", "id": "9hmGNqDn9g--rLPKa5fpjO4UQHM=", "properties": {"ref": "244", "@spider": "mcdonalds_il", "addr:full": "\u05db\u05ea\u05d5\u05d1\u05ea: \u05d4\u05ea\u05e2\u05e9\u05d9\u05d9\u05d4 65, \u05e2\u05e8\u05d3", "addr:country": "IL", "name": "$pop_title", "phone": "054-3360244", "brand": "McDonald\u2019s", "brand:wikidata": "Q38076"}},
{"type": "Feature", "id": "2O1BBaU5wK-WOijhlocTLO8MJZ4=", "properties": {"ref": "234", "@spider": "mcdonalds_il", "addr:full": "\u05db\u05ea\u05d5\u05d1\u05ea: \u05d4\u05e2\u05de\u05dc 7 \u05d0.\u05ea \u05d1\u05d9\u05ea \u05e9\u05d0\u05df, \u05d1\u05d9\u05ea \u05e9\u05d0\u05df", "addr:country": "IL", "name": "$pop_title", "phone": "054-3360234", "brand": "McDonald\u2019s", "brand:wikidata": "Q38076"}},
{"type": "Feature", "id": "IpIRTL1eTj3ehOpwj01-zavAWMk=", "properties": {"ref": "105", "@spider": "mcdonalds_il", "addr:full": "\u05db\u05ea\u05d5\u05d1\u05ea: \u05e6\u05d5\u05de\u05ea \u05e9\u05d5\u05e8\u05e9, \u05e9\u05d5\u05d0\u05d1\u05d4", "addr:country": "IL", "name": "\u05d0\u05d9\u05ea\u05d5\u05e8 \u05de\u05e1\u05e2\u05d3\u05d4", "phone": "052-9440105", "brand": "McDonald\u2019s", "brand:wikidata": "Q38076"}},
{"type": "Feature", "id": "uy1eYejdh5dyUePcpUvseYF0BWM=", "properties": {"ref": "60", "@spider": "mcdonalds_il", "addr:full": "\u05db\u05ea\u05d5\u05d1\u05ea: \u05e6\u05d5\u05de\u05ea \u05e9\u05d5\u05e7\u05ea, \u05ea\u05dc \u05e9\u05d5\u05e7\u05ea", "addr:country": "IL", "name": "\u05d0\u05d9\u05ea\u05d5\u05e8 \u05de\u05e1\u05e2\u05d3\u05d4", "phone": "052-9440060", "brand": "McDonald\u2019s", "brand:wikidata": "Q38076"}},
{"type": "Feature", "id": "-ay5LxPBf2ysXXheE4oT_rygRAQ=", "properties": {"ref": "66", "@spider": "mcdonalds_il", "addr:full": "\u05db\u05ea\u05d5\u05d1\u05ea: \u05ea\u05d7\u05e0\u05ea \u05d3\u05dc\u05e7 \u05e6\u05d5\u05de\u05ea \u05e8\u05d0\u05dd - \u05de\u05e1\u05de\u05d9\u05d4, \u05e7\u05e8\u05d9\u05d9\u05ea \u05de\u05dc\u05d0\u05db\u05d9", "addr:country": "IL", "name": "$pop_title", "phone": "052-9440066", "brand": "McDonald\u2019s", "brand:wikidata": "Q38076"}},
{"type": "Feature", "id": "-HtKz40-F3XnKsgr0xxJRtM1xSo=", "properties": {"ref": "199", "@spider": "mcdonalds_il", "addr:full": "\u05db\u05ea\u05d5\u05d1\u05ea: \u05de\u05ea\u05d7\u05dd \u05de\u05d5\u05dc \u05db\u05e0\u05e8\u05ea, \u05e6\u05d5\u05de\u05ea \u05e6\u05de\u05d7, \u05d8\u05d1\u05e8\u05d9\u05d4", "addr:country": "IL", "name": "\u05d0\u05d9\u05ea\u05d5\u05e8 \u05de\u05e1\u05e2\u05d3\u05d4", "phone": "052-9440199", "brand": "McDonald\u2019s", "brand:wikidata": "Q38076"}},
{"type": "Feature", "id": "6b0_VXe5wOSAShmVIP5fSBdFNG4=", "properties": {"ref": "214", "@spider": "mcdonalds_il", "addr:full": "\u05db\u05ea\u05d5\u05d1\u05ea: \u05db\u05d1\u05d9\u05e9 70, \u05ea\u05d7\u05e0\u05ea \u05d3\u05dc\u05e7, \u05d6\u05db\u05e8\u05d5\u05df \u05d9\u05e2\u05e7\u05d1", "addr:country": "IL", "name": "$pop_title", "phone": "052-9440214", "brand": "McDonald\u2019s", "brand:wikidata": "Q38076"}},
{"type": "Feature", "id": "8YKDwYkOXDVw2l-9TVOpqqFkmhk=", "properties": {"ref": "125", "@spider": "mcdonalds_il", "addr:full": "\u05db\u05ea\u05d5\u05d1\u05ea: \u05e6\u05d5\u05de\u05ea \u05de\u05d2\u05d9\u05d3\u05d5, \u05de\u05d2\u05d9\u05d3\u05d5", "addr:country": "IL", "name": "\u05d0\u05d9\u05ea\u05d5\u05e8 \u05de\u05e1\u05e2\u05d3\u05d4", "phone": "052-9440125", "brand": "McDonald\u2019s", "brand:wikidata": "Q38076"}},
{"type": "Feature", "id": "ieSxTB-cs7D7C_49w6xai2Ocrqk=", "properties": {"ref": "7", "@spider": "mcdonalds_il", "addr:full": "\u05db\u05ea\u05d5\u05d1\u05ea: \u05e6\u05d5\u05de\u05ea \u05d2\u05d5\u05dc\u05e0\u05d9, \u05de\u05d7\u05dc\u05e3 \u05d2\u05d5\u05dc\u05e0\u05d9", "addr:country": "IL", "name": "\u05d0\u05d9\u05ea\u05d5\u05e8 \u05de\u05e1\u05e2\u05d3\u05d4", "phone": "052-9440007", "brand": "McDonald\u2019s", "brand:wikidata": "Q38076"}},
{"type": "Feature", "id": "iKf6LPGXId4rK-HXVm2HvLjei78=", "properties": {"ref": "90", "@spider": "mcdonalds_il", "addr:full": "\u05db\u05ea\u05d5\u05d1\u05ea: \u05e6\u05d5\u05de\u05ea \u05e4\u05e8\u05d3\u05e1\u05d9\u05d4, \u05e9\u05d3\u05e8\u05d5\u05ea \u05d4\u05e0\u05e9\u05d9\u05d0 1, \u05e4\u05e8\u05d3\u05e1\u05d9\u05d4", "addr:country": "IL", "name": "$pop_title", "phone": "052-9440090", "brand": "McDonald\u2019s", "brand:wikidata": "Q38076"}},
{"type": "Feature", "id": "pIR66HrgbXtwp3l67VATxS46Fwk=", "properties": {"ref": "80", "@spider": "mcdonalds_il", "addr:full": "\u05db\u05ea\u05d5\u05d1\u05ea: \u05e8\u05d5\u05d8\u05e9\u05d9\u05dc\u05d3 182, \u05e4\u05ea\u05d7 \u05ea\u05e7\u05d5\u05d5\u05d4", "addr:country": "IL", "name": "$pop_title", "phone": "052-9440080", "brand": "McDonald\u2019s", "brand:wikidata": "Q38076"}},
{"type": "Feature", "id": "nmHmv1ztO3ygrjStaqpRuEHbtsQ=", "properties": {"ref": "263", "@spider": "mcdonalds_il", "addr:full": "\u05db\u05ea\u05d5\u05d1\u05ea: \u05d3\u05d5\u05d3 \u05d3\u05d5\u05ea\u05df 10, \u05e0\u05ea\u05e0\u05d9\u05d4", "addr:country": "IL", "name": "$pop_title", "phone": "054-3360263", "brand": "McDonald\u2019s", "brand:wikidata": "Q38076"}},
{"type": "Feature", "id": "lmFLIvkZvIFNQDu2wza1B24qaME=", "properties": {"ref": "100", "@spider": "mcdonalds_il", "addr:full": "\u05db\u05ea\u05d5\u05d1\u05ea: \u05e7\u05e0\u05d9\u05d5\u05df \u05e4\u05d8\u05e8\u05d4, \u05d9\u05dd \u05d4\u05de\u05dc\u05d7", "addr:country": "IL", "name": "\u05d0\u05d9\u05ea\u05d5\u05e8 \u05de\u05e1\u05e2\u05d3\u05d4", "phone": "052-9440100", "brand": "McDonald\u2019s", "brand:wikidata": "Q38076"}},
{"type": "Feature", "id": "0M52VBK-iCSRIdyRu6tow3lI4Dg=", "properties": {"ref": "62", "@spider": "mcdonalds_il", "addr:full": "\u05db\u05ea\u05d5\u05d1\u05ea: \u05d2\u05df \u05d4\u05e6\u05e4\u05d5\u05df, \u05e7\u05d9\u05d1\u05d5\u05e5 \u05de\u05e2\u05d9\u05d9\u05df \u05d1\u05e8\u05d5\u05da", "addr:country": "IL", "name": "\u05d0\u05d9\u05ea\u05d5\u05e8 \u05de\u05e1\u05e2\u05d3\u05d4", "phone": "052-9440062", "brand": "McDonald\u2019s", "brand:wikidata": "Q38076"}},
{"type": "Feature", "id": "RM9OZuW9dYyg02CK5B57zo5SR2s=", "properties": {"ref": "165", "@spider": "mcdonalds_il", "addr:full": "\u05db\u05ea\u05d5\u05d1\u05ea: \u05ea\u05d7\u05e0\u05ea \u05d3\u05dc\u05e7 \u05d9\u05d5\u05e7\u05dc\u05e8 - \u05d7\u05d8\u05d9\u05d1\u05d4 \u05ea\u05e9\u05e2, \u05e2\u05e4\u05d5\u05dc\u05d4", "addr:country": "IL", "name": "$pop_title", "phone": "052-9440165", "brand": "McDonald\u2019s", "brand:wikidata": "Q38076"}},
{"type": "Feature", "id": "y0EGOJm_IaOAQFxaMP4pWkE1mko=", "properties": {"ref": "250", "@spider": "mcdonalds_il", "addr:full": "\u05db\u05ea\u05d5\u05d1\u05ea: \u05e9\u05d3' \u05d9\u05e6\u05d7\u05e7 \u05e8\u05d1\u05d9\u05df 18, \u05de\u05ea\u05d7\u05dd \u05e2\u05de\u05e7 \u05e1\u05e0\u05d8\u05e8, \u05e2\u05e4\u05d5\u05dc\u05d4", "addr:country": "IL", "name": "$pop_title", "phone": "054-3360250", "brand": "McDonald\u2019s", "brand:wikidata": "Q38076"}},
{"type": "Feature", "id": "vf4QUsIG6jm2BUVfEsmHYxDK13w=", "properties": {"ref": "248", "@spider": "mcdonalds_il", "addr:full": "\u05db\u05ea\u05d5\u05d1\u05ea: \u05e6\u05d5\u05de\u05ea \u05d4\u05db\u05e0\u05d9\u05e1\u05d4 \u05de\u05db\u05d1\u05d9\u05e9 90 \u05dc\u05e7\u05d9\u05d1\u05d5\u05e5 \u05e2\u05de\u05d9\u05e2\u05d3, \u05e2\u05de\u05d9\u05e2\u05d3", "addr:country": "IL", "name": "\u05d0\u05d9\u05ea\u05d5\u05e8 \u05de\u05e1\u05e2\u05d3\u05d4", "phone": "054-3360248", "brand": "McDonald\u2019s", "brand:wikidata": "Q38076"}},
{"type": "Feature", "id": "goTYQusylcXOaL-ETuTrkX_7B7U=", "properties": {"ref": "124", "@spider": "mcdonalds_il", "addr:full": "\u05db\u05ea\u05d5\u05d1\u05ea: \u05de\u05ea\u05d7\u05dd \u05ea\u05d7\u05e0\u05ea \u05d3\u05dc\u05e7, \u05e2\u05d9\u05df \u05d9\u05d4\u05d1", "addr:country": "IL", "name": "\u05d0\u05d9\u05ea\u05d5\u05e8 \u05de\u05e1\u05e2\u05d3\u05d4", "phone": "052-9440124", "brand": "McDonald\u2019s", "brand:wikidata": "Q38076"}},
{"type": "Feature", "id": "F03adM0Z6ZoXcz-LouW7JrC9LaQ=", "properties": {"ref": "217", "@spider": "mcdonalds_il", "addr:full": "\u05db\u05ea\u05d5\u05d1\u05ea: \u05e9\u05d3' \u05d3\u05d5\u05d3 \u05e8\u05d6\u05d9\u05d0\u05dc \u05e4\u05d9\u05e0\u05ea \u05e8\u05d7\u05d5\u05d1 \u05e9\u05de\u05e9\u05d5\u05df, \u05e8\u05de\u05dc\u05d4", "addr:country": "IL", "name": "$pop_title", "phone": "052-9440217", "brand": "McDonald\u2019s", "brand:wikidata": "Q38076"}},
{"type": "Feature", "id": "t25ySUIC2P8qRfVZHB6cmN0R-6c=", "properties": {"ref": "277", "@spider": "mcdonalds_il", "addr:full": "\u05db\u05ea\u05d5\u05d1\u05ea: \u05e7\u05e0\u05d9\u05d5\u05df \u05e2\u05d3 \u05d4\u05dc\u05d5\u05dd, \u05e2\u05d3 \u05d4\u05dc\u05d5\u05dd", "addr:country": "IL", "name": "\u05d0\u05d9\u05ea\u05d5\u05e8 \u05de\u05e1\u05e2\u05d3\u05d4", "phone": "054-3360277", "brand": "McDonald\u2019s", "brand:wikidata": "Q38076"}},
{"type": "Feature", "id": "_zvV88dAgZQmTZs5JY5gHGY9VVQ=", "properties": {"ref": "170", "@spider": "mcdonalds_il", "addr:full": "\u05db\u05ea\u05d5\u05d1\u05ea: \u05ea\u05d7\u05e0\u05ea \u05d3\u05dc\u05e7 \u05e4\u05d6, \u05e2\u05d9\u05df \u05e2\u05d1\u05d3\u05ea", "addr:country": "IL", "name": "\u05d0\u05d9\u05ea\u05d5\u05e8 \u05de\u05e1\u05e2\u05d3\u05d4", "phone": "052-9440170", "brand": "McDonald\u2019s", "brand:wikidata": "Q38076"}},
{"type": "Feature", "id": "NC0-Uz6qhbG4HXN9nfe-piISEIs=", "properties": {"ref": "154", "@spider": "mcdonalds_il", "addr:full": "\u05db\u05ea\u05d5\u05d1\u05ea: \u05e7\u05e0\u05d9\u05d5\u05df \u05e1\u05db\u05e0\u05d9\u05df \u05de\u05d5\u05dc, \u05e1\u05db\u05e0\u05d9\u05df", "addr:country": "IL", "name": "\u05d0\u05d9\u05ea\u05d5\u05e8 \u05de\u05e1\u05e2\u05d3\u05d4", "phone": "052-9440154", "brand": "McDonald\u2019s", "brand:wikidata": "Q38076"}},
{"type": "Feature", "id": "EQV1hY20DV2HA3J_JohBYYw7Uws=", "properties": {"ref": "182", "@spider": "mcdonalds_il", "addr:full": "\u05db\u05ea\u05d5\u05d1\u05ea: \u05d4\u05d4\u05e1\u05ea\u05d3\u05e8\u05d5\u05ea 55, \u05e6\u05d5\u05de\u05ea \u05dc\u05d1 \u05d4\u05de\u05e4\u05e8\u05e5, \u05d7\u05d9\u05e4\u05d4", "addr:country": "IL", "name": "$pop_title", "phone": "052-9440182", "brand": "McDonald\u2019s", "brand:wikidata": "Q38076"}},
{"type": "Feature", "id": "A3r4PAzZ6uuKaPv3089VvEID1Po=", "properties": {"ref": "17", "@spider": "mcdonalds_il", "addr:full": "\u05db\u05ea\u05d5\u05d1\u05ea: \u05d4\u05d4\u05e1\u05ea\u05d3\u05e8\u05d5\u05ea 55, \u05e6\u05d5\u05de\u05ea \u05dc\u05d1 \u05d4\u05de\u05e4\u05e8\u05e5, \u05d7\u05d9\u05e4\u05d4", "addr:country": "IL", "name": "$pop_title", "phone": "052-9440017", "brand": "McDonald\u2019s", "brand:wikidata": "Q38076"}},
{"type": "Feature", "id": "tcviJu5-nb_3ask6knv0vIedDA8=", "properties": {"ref": "210", "@spider": "mcdonalds_il", "addr:full": "\u05db\u05ea\u05d5\u05d1\u05ea: \u05e9\u05d3\u05e8\u05d5\u05ea \u05d9\u05e6\u05d7\u05e7 \u05e8\u05d1\u05d9\u05df 10, \u05d9\u05e8\u05d5\u05e9\u05dc\u05d9\u05dd", "addr:country": "IL", "name": "$pop_title", "phone": "052-9440210", "brand": "McDonald\u2019s", "brand:wikidata": "Q38076"}},
{"type": "Feature", "id": "nblWVfosgizppjc2GHPM2UDm3ks=", "properties": {"ref": "169", "@spider": "mcdonalds_il", "addr:full": "\u05db\u05ea\u05d5\u05d1\u05ea: \u05d9\u05dc\u05d3\u05d9 \u05d8\u05d4\u05e8\u05df 3, \u05e8\u05d0\u05e9\u05d5\u05df \u05dc\u05e6\u05d9\u05d5\u05df", "addr:country": "IL", "name": "$pop_title", "phone": "052-9440169", "brand": "McDonald\u2019s", "brand:wikidata": "Q38076"}},
{"type": "Feature", "id": "GPG5YADntjXv12FCwaGXwNcQxjQ=", "properties": {"ref": "258", "@spider": "mcdonalds_il", "addr:full": "\u05db\u05ea\u05d5\u05d1\u05ea: \u05d4\u05de\u05d7\u05e7\u05e8 3, \u05e0\u05ea\u05e0\u05d9\u05d4", "addr:country": "IL", "name": "$pop_title", "phone": "054-3360258", "brand": "McDonald\u2019s", "brand:wikidata": "Q38076"}},
{"type": "Feature", "id": "kPMDd1OAMjflRmn874fVGraS9Vc=", "properties": {"ref": "278", "@spider": "mcdonalds_il", "addr:full": "\u05db\u05ea\u05d5\u05d1\u05ea: \u05dc\u05d9\u05d0\u05d5\u05e8 \u05d1\u05d5\u05e7\u05e8, \u05d7\u05d3\u05e8\u05d4", "addr:country": "IL", "name": "\u05d0\u05d9\u05ea\u05d5\u05e8 \u05de\u05e1\u05e2\u05d3\u05d4", "phone": "054-3360278", "brand": "McDonald\u2019s", "brand:wikidata": "Q38076"}},
{"type": "Feature", "id": "lZ34g8ZdcvChcNzclY3WLPcaaZ0=", "properties": {"ref": "195", "@spider": "mcdonalds_il", "addr:full": "\u05db\u05ea\u05d5\u05d1\u05ea: \u05d4\u05e2\u05e6\u05de\u05d0\u05d5\u05ea \u05ea\u05d7\u05e0\u05ea \u05d3\u05dc\u05e7 \u05e1\u05d5\u05e0\u05d5\u05dc, \u05db\u05e4\u05e8 \u05d9\u05d5\u05e0\u05d4", "addr:country": "IL", "name": "\u05d0\u05d9\u05ea\u05d5\u05e8 \u05de\u05e1\u05e2\u05d3\u05d4", "phone": "052-9440195", "brand": "McDonald\u2019s", "brand:wikidata": "Q38076"}},
{"type": "Feature", "id": "oWp736l8WgFcuccrMY1uBfVhjqk=", "properties": {"ref": "185", "@spider": "mcdonalds_il", "addr:full": "\u05db\u05ea\u05d5\u05d1\u05ea: \u05d3\u05e8\u05da \u05d4\u05de\u05db\u05d1\u05d9\u05dd 22, \u05e8\u05d0\u05e9\u05d5\u05df \u05dc\u05e6\u05d9\u05d5\u05df", "addr:country": "IL", "name": "$pop_title", "phone": "052-9440185", "brand": "McDonald\u2019s", "brand:wikidata": "Q38076"}},
{"type": "Feature", "id": "KWq8rJrVlytqWcGWmFSgjCRsuGw=", "properties": {"ref": "76", "@spider": "mcdonalds_il", "addr:full": "\u05db\u05ea\u05d5\u05d1\u05ea: \u05d1\u05e8 \u05dc\u05d1 10-12 \u05e0\u05d5\u05d5\u05d4 \u05e1\u05d1\u05d9\u05d5\u05df, \u05d0\u05d5\u05e8 \u05d9\u05d4\u05d5\u05d3\u05d4", "addr:country": "IL", "name": "$pop_title", "phone": "052-9440076", "brand": "McDonald\u2019s", "brand:wikidata": "Q38076"}},
{"type": "Feature", "id": "cBgAxkVuUM0MvcH7TrCoQMllX64=", "properties": {"ref": "255", "@spider": "mcdonalds_il", "addr:full": "\u05db\u05ea\u05d5\u05d1\u05ea: \u05d8\u05e8\u05de\u05d9\u05e0\u05dc 3 \u05d3\u05d9\u05d5\u05d8\u05d9 \u05e4\u05e8\u05d9, \u05e9\u05d3\u05d4 \u05ea\u05e2\u05d5\u05e4\u05d4 \u05d1\u05df \u05d2\u05d5\u05e8\u05d9\u05d5\u05df", "addr:country": "IL", "name": "\u05d0\u05d9\u05ea\u05d5\u05e8 \u05de\u05e1\u05e2\u05d3\u05d4", "phone": "054-3360255", "brand": "McDonald\u2019s", "brand:wikidata": "Q38076"}},
{"type": "Feature", "id": "vejRIaaUzDWrLnAV42e1y7agjnA=", "properties": {"ref": "256", "@spider": "mcdonalds_il", "addr:full": "\u05db\u05ea\u05d5\u05d1\u05ea: \u05d8\u05e8\u05de\u05d9\u05e0\u05dc 3 \u05d0\u05d5\u05dc\u05dd \u05db\u05e0\u05d9\u05e1\u05d4, \u05e9\u05d3\u05d4 \u05ea\u05e2\u05d5\u05e4\u05d4 \u05d1\u05df \u05d2\u05d5\u05e8\u05d9\u05d5\u05df", "addr:country": "IL", "name": "\u05d0\u05d9\u05ea\u05d5\u05e8 \u05de\u05e1\u05e2\u05d3\u05d4", "phone": "054-3360256", "brand": "McDonald\u2019s", "brand:wikidata": "Q38076"}},
{"type": "Feature", "id": "_Crrs5ouaQIhuGqasK0LrEgQS0o=", "properties": {"ref": "254", "@spider": "mcdonalds_il", "addr:full": "\u05db\u05ea\u05d5\u05d1\u05ea: \u05d8\u05e8\u05de\u05d9\u05e0\u05dc 1, \u05e9\u05d3\u05d4 \u05ea\u05e2\u05d5\u05e4\u05d4 \u05d1\u05df \u05d2\u05d5\u05e8\u05d9\u05d5\u05df", "addr:country": "IL", "name": "\u05d0\u05d9\u05ea\u05d5\u05e8 \u05de\u05e1\u05e2\u05d3\u05d4", "phone": "054-3360254", "brand": "McDonald\u2019s", "brand:wikidata": "Q38076"}},
{"type": "Feature", "id": "Xl-dH0_XlVNNLAt-wRkppUHe6VM=", "properties": {"ref": "211", "@spider": "mcdonalds_il", "addr:full": "\u05db\u05ea\u05d5\u05d1\u05ea: \u05e4\u05d0\u05d5\u05dc\u05d5\u05e1 \u05d4\u05e9\u05d9\u05e9\u05d9, \u05e0\u05e6\u05e8\u05ea", "addr:country": "IL", "name": "\u05d0\u05d9\u05ea\u05d5\u05e8 \u05de\u05e1\u05e2\u05d3\u05d4", "phone": "052-9440211", "brand": "McDonald\u2019s", "brand:wikidata": "Q38076"}},
{"type": "Feature", "id": "2cvWHpJTC_vLfEASNjz6GEr3tTA=", "properties": {"ref": "203", "@spider": "mcdonalds_il", "addr:full": "\u05db\u05ea\u05d5\u05d1\u05ea: \u05d4\u05d0\u05e0\u05d2\u05e8 17, \u05e0\u05de\u05dc \u05ea\u05dc \u05d0\u05d1\u05d9\u05d1, \u05ea\u05dc \u05d0\u05d1\u05d9\u05d1-\u05d9\u05e4\u05d5", "addr:country": "IL", "name": "\u05d0\u05d9\u05ea\u05d5\u05e8 \u05de\u05e1\u05e2\u05d3\u05d4", "phone": "052-9440203", "brand": "McDonald\u2019s", "brand:wikidata": "Q38076"}},
{"type": "Feature", "id": "K5fuMwW2YC3T_DhEwZS6GyWgGvM=", "properties": {"ref": "45", "@spider": "mcdonalds_il", "addr:full": "\u05db\u05ea\u05d5\u05d1\u05ea: \u05e9\u05d3\u05e8\u05d5\u05ea \u05de\u05e2\u05dc\u05d4 \u05d9\u05e6\u05d7\u05e7 11, \u05e0\u05d5\u05e3 \u05d4\u05d2\u05dc\u05d9\u05dc (\u05e0\u05e6\u05e8\u05ea \u05e2\u05d9\u05dc\u05d9\u05ea)", "addr:country": "IL", "name": "\u05d0\u05d9\u05ea\u05d5\u05e8 \u05de\u05e1\u05e2\u05d3\u05d4", "phone": "052-9440045", "brand": "McDonald\u2019s", "brand:wikidata": "Q38076"}},
{"type": "Feature", "id": "F7fbChP7hzG5J9A1LpgPQC6D_xw=", "properties": {"ref": "267", "@spider": "mcdonalds_il", "addr:full": "\u05db\u05ea\u05d5\u05d1\u05ea: \u05e9\u05d3\u05e8\u05d5\u05ea \u05d9\u05e8\u05d5\u05e9\u05dc\u05d9\u05dd 3, \u05e7\u05e8\u05d9\u05ea \u05de\u05d5\u05e6\u05e7\u05d9\u05df", "addr:country": "IL", "name": "\u05d0\u05d9\u05ea\u05d5\u05e8 \u05de\u05e1\u05e2\u05d3\u05d4", "phone": "054-3360267", "brand": "McDonald\u2019s", "brand:wikidata": "Q38076"}},
{"type": "Feature", "id": "ub1Pekhk32wMgdEeZnmbSanUKS8=", "properties": {"ref": "61", "@spider": "mcdonalds_il", "addr:full": "\u05db\u05ea\u05d5\u05d1\u05ea: \u05d4\u05d9\u05e6\u05d9\u05e8\u05d4 3, \u05e8\u05de\u05ea \u05d2\u05df", "addr:country": "IL", "name": "\u05d0\u05d9\u05ea\u05d5\u05e8 \u05de\u05e1\u05e2\u05d3\u05d4", "phone": "052-9440061", "brand": "McDonald\u2019s", "brand:wikidata": "Q38076"}},
{"type": "Feature", "id": "OTCB5xLanJ01UzUxexzs1WnH-Dc=", "properties": {"ref": "150", "@spider": "mcdonalds_il", "addr:full": "\u05db\u05ea\u05d5\u05d1\u05ea: \u05d4\u05e8\u05e6\u05dc \u05e4\u05d9\u05e0\u05ea \u05d0\u05d5\u05e4\u05e0\u05d4\u05d9\u05d9\u05de\u05e8, \u05e8\u05d7\u05d5\u05d1\u05d5\u05ea", "addr:country": "IL", "name": "$pop_title", "phone": "052-9440150", "brand": "McDonald\u2019s", "brand:wikidata": "Q38076"}},
{"type": "Feature", "id": "GsdjdCFDJfs3_NAPkvlbCBlcBfk=", "properties": {"ref": "104", "@spider": "mcdonalds_il", "addr:full": "\u05db\u05ea\u05d5\u05d1\u05ea: \u05e7\u05e0\u05d9\u05d5\u05df \u05d5\u05d9\u05e6\u05de\u05df \u05e1\u05d9\u05d8\u05d9 - \u05d5\u05d9\u05e6\u05de\u05df 14, \u05ea\u05dc \u05d0\u05d1\u05d9\u05d1-\u05d9\u05e4\u05d5", "addr:country": "IL", "name": "$pop_title", "phone": "052-9440104", "brand": "McDonald\u2019s", "brand:wikidata": "Q38076"}},
{"type": "Feature", "id": "e2SKGjtZZiOFqIg5uccKrzq3puY=", "properties": {"ref": "146", "@spider": "mcdonalds_il", "addr:full": "\u05db\u05ea\u05d5\u05d1\u05ea: \u05d9\u05e6\u05d7\u05e7 \u05e0\u05e4\u05d7\u05d0 25, \u05d1\u05d0\u05e8 \u05e9\u05d1\u05e2", "addr:country": "IL", "name": "$pop_title", "phone": "052-9440146", "brand": "McDonald\u2019s", "brand:wikidata": "Q38076"}},
{"type": "Feature", "id": "kuNnPh12WwG1CKl8-RqF8rWTqyU=", "properties": {"ref": "266", "@spider": "mcdonalds_il", "addr:full": "\u05db\u05ea\u05d5\u05d1\u05ea: \u05d4\u05e0\u05de\u05dc 9 \u05d0\u05e9\u05e7\u05dc\u05d5\u05df, \u05d0\u05e9\u05e7\u05dc\u05d5\u05df", "addr:country": "IL", "name": "\u05d0\u05d9\u05ea\u05d5\u05e8 \u05de\u05e1\u05e2\u05d3\u05d4", "phone": "054-3360266", "brand": "McDonald\u2019s", "brand:wikidata": "Q38076"}},
{"type": "Feature", "id": "P1sMof5177asJvqvbG7P8nmT4Rw=", "properties": {"ref": "196", "@spider": "mcdonalds_il", "addr:full": "\u05db\u05ea\u05d5\u05d1\u05ea: \u05d1\u05d9\u05dc\"\u05d5 2, \u05e8\u05d7\u05d5\u05d1\u05d5\u05ea", "addr:country": "IL", "name": "$pop_title", "phone": "052-9440196", "brand": "McDonald\u2019s", "brand:wikidata": "Q38076"}},
{"type": "Feature", "id": "EBJKv8mR4stXEZL8oQFOIv6XUeU=", "properties": {"ref": "507", "@spider": "mcdonalds_il", "addr:full": "\u05db\u05ea\u05d5\u05d1\u05ea: \u05e9\u05dc\u05de\u05d4 \u05d4\u05de\u05dc\u05da 37, \u05e7\u05e8\u05d9\u05d9\u05ea \u05d0\u05d5\u05e0\u05d5", "addr:country": "IL", "name": "\u05d0\u05d9\u05ea\u05d5\u05e8 \u05de\u05e1\u05e2\u05d3\u05d4", "phone": "054-7155507", "brand": "McDonald\u2019s", "brand:wikidata": "Q38076"}},
{"type": "Feature", "id": "udv-08sYptj7mEzSBaONlBOKnQ0=", "properties": {"ref": "512", "@spider": "mcdonalds_il", "addr:full": "\u05db\u05ea\u05d5\u05d1\u05ea: \u05d0\u05d2\u05d5\u05d3\u05ea \u05e1\u05e4\u05d5\u05e8\u05d8 \u05d1\u05d9\u05ea\u05e8 1, \u05d9\u05e8\u05d5\u05e9\u05dc\u05d9\u05dd", "addr:country": "IL", "name": "\u05d0\u05d9\u05ea\u05d5\u05e8 \u05de\u05e1\u05e2\u05d3\u05d4", "phone": "054-3360512", "brand": "McDonald\u2019s", "brand:wikidata": "Q38076"}},
{"type": "Feature", "id": "R7bKVoZWLG8IDT16fofUBOhkx5Y=", "properties": {"ref": "505", "@spider": "mcdonalds_il", "addr:full": "\u05db\u05ea\u05d5\u05d1\u05ea: \u05d3\u05e8\u05da \u05de\u05e9\u05d4 \u05e4\u05dc\u05d9\u05de\u05df 4, \u05d7\u05d9\u05e4\u05d4", "addr:country": "IL", "name": "\u05d0\u05d9\u05ea\u05d5\u05e8 \u05de\u05e1\u05e2\u05d3\u05d4", "phone": "054-7155505", "brand": "McDonald\u2019s", "brand:wikidata": "Q38076"}},
{"type": "Feature", "id": "3UPEbBPOITNDGD6L7aFobk16E8Y=", "properties": {"ref": "503", "@spider": "mcdonalds_il", "addr:full": "\u05db\u05ea\u05d5\u05d1\u05ea: \u05d4\u05d7\u05e9\u05de\u05d5\u05e0\u05d0\u05d9\u05dd 94, \u05ea\u05dc \u05d0\u05d1\u05d9\u05d1-\u05d9\u05e4\u05d5", "addr:country": "IL", "name": "\u05d0\u05d9\u05ea\u05d5\u05e8 \u05de\u05e1\u05e2\u05d3\u05d4", "phone": "054-7155503", "brand": "McDonald\u2019s", "brand:wikidata": "Q38076"}},
{"type": "Feature", "id": "Bxh8BDj92YWEqTyBtgRqNZewczY=", "properties": {"ref": "504", "@spider": "mcdonalds_il", "addr:full": "\u05db\u05ea\u05d5\u05d1\u05ea: \u05d9\u05dc\u05d3\u05d9 \u05d8\u05d4\u05e8\u05df 3, \u05e8\u05d0\u05e9\u05d5\u05df \u05dc\u05e6\u05d9\u05d5\u05df", "addr:country": "IL", "name": "\u05d0\u05d9\u05ea\u05d5\u05e8 \u05de\u05e1\u05e2\u05d3\u05d4", "phone": "054-7155504", "brand": "McDonald\u2019s", "brand:wikidata": "Q38076"}},
{"type": "Feature", "id": "IUSFp7foGNpQ25k2futUKT_s8Mk=", "properties": {"ref": "510", "@spider": "mcdonalds_il", "addr:full": "\u05db\u05ea\u05d5\u05d1\u05ea: \u05d4\u05d9\u05e8\u05e7\u05d5\u05df 81, \u05ea\u05dc \u05d0\u05d1\u05d9\u05d1-\u05d9\u05e4\u05d5", "addr:country": "IL", "name": "\u05d0\u05d9\u05ea\u05d5\u05e8 \u05de\u05e1\u05e2\u05d3\u05d4", "phone": "054-7155510", "brand": "McDonald\u2019s", "brand:wikidata": "Q38076"}},
{"type": "Feature", "id": "puQ9JZBWvZtqgT9ThkOIE7tVpv0=", "properties": {"ref": "260", "@spider": "mcdonalds_il", "addr:full": "\u05db\u05ea\u05d5\u05d1\u05ea: \u05e9\u05d3\u05e8\u05d5\u05ea \u05d1\u05df \u05d2\u05d5\u05e8\u05d9\u05d5\u05df 2, \u05de\u05e6\u05e4\u05d4 \u05e8\u05de\u05d5\u05df", "addr:country": "IL", "name": "\u05d0\u05d9\u05ea\u05d5\u05e8 \u05de\u05e1\u05e2\u05d3\u05d4", "phone": "054-3360260", "brand": "McDonald\u2019s", "brand:wikidata": "Q38076"}},
{"type": "Feature", "id": "stXyQWU97F_sD2KtjPs2Lq-TbwI=", "properties": {"ref": "96", "@spider": "mcdonalds_il", "addr:full": "\u05db\u05ea\u05d5\u05d1\u05ea: \u05d0\u05d4\u05e8\u05d5\u05df \u05d1\u05e7\u05e8 8, \u05ea\u05dc \u05d0\u05d1\u05d9\u05d1-\u05d9\u05e4\u05d5", "addr:country": "IL", "name": "$pop_title", "phone": "052-9440096", "brand": "McDonald\u2019s", "brand:wikidata": "Q38076"}},
{"type": "Feature", "id": "rdZzzuzTHQzXFfDpRy0ZzDS-3Jg=", "properties": {"ref": "193", "@spider": "mcdonalds_il", "addr:full": "\u05db\u05ea\u05d5\u05d1\u05ea: \u05d4\u05d3\u05e7\u05dc 47, \u05ea\u05dc \u05de\u05d5\u05e0\u05d3", "addr:country": "IL", "name": "\u05d0\u05d9\u05ea\u05d5\u05e8 \u05de\u05e1\u05e2\u05d3\u05d4", "phone": "052-9440193", "brand": "McDonald\u2019s", "brand:wikidata": "Q38076"}},
{"type": "Feature", "id": "f2RBJCk31MzZNazlSYCs6VUyA9Q=", "properties": {"ref": "235", "@spider": "mcdonalds_il", "addr:full": "\u05db\u05ea\u05d5\u05d1\u05ea: \u05db\u05d1\u05d9\u05e9 4, \u05d0\u05d6\u05d5\u05e8 \u05ea\u05e2\u05e9\u05d9\u05d9\u05d4 \u05de\u05e2\u05e8\u05d1\u05d9, \u05d6\u05db\u05e8\u05d5\u05df \u05d9\u05e2\u05e7\u05d1", "addr:country": "IL", "name": "$pop_title", "phone": "054-3360235", "brand": "McDonald\u2019s", "brand:wikidata": "Q38076"}},
{"type": "Feature", "id": "IqxY3BD3vxmyKdnbaY6BdrnPSAc=", "properties": {"ref": "111", "@spider": "mcdonalds_il", "addr:full": "\u05db\u05ea\u05d5\u05d1\u05ea: \u05d0\u05d7\u05d5\u05d6\u05d4 267, \u05e8\u05e2\u05e0\u05e0\u05d4", "addr:country": "IL", "name": "$pop_title", "phone": "052-9440111", "brand": "McDonald\u2019s", "brand:wikidata": "Q38076"}},
{"type": "Feature", "id": "PsQZh5hzJcexm6UpipFf70TvECw=", "properties": {"ref": "112", "@spider": "mcdonalds_il", "addr:full": "\u05db\u05ea\u05d5\u05d1\u05ea: \u05e8\u05d5\u05d8\u05e9\u05d9\u05dc\u05d3 19, \u05e8\u05d0\u05e9\u05d5\u05df \u05dc\u05e6\u05d9\u05d5\u05df", "addr:country": "IL", "name": "$pop_title", "phone": "052-9440112", "brand": "McDonald\u2019s", "brand:wikidata": "Q38076"}},
{"type": "Feature", "id": "ESaYSzVBs-QnAR-zZOO8rRgytL4=", "properties": {"ref": "209", "@spider": "mcdonalds_il", "addr:full": "\u05db\u05ea\u05d5\u05d1\u05ea: \u05d1\u05df \u05d9\u05d4\u05d5\u05d3\u05d4 7, \u05d9\u05e8\u05d5\u05e9\u05dc\u05d9\u05dd", "addr:country": "IL", "name": "$pop_title", "phone": "052-9440209", "brand": "McDonald\u2019s", "brand:wikidata": "Q38076"}},
{"type": "Feature", "id": "v43diQCKDZZzqJIvKX4OHQIVeJI=", "properties": {"ref": "83", "@spider": "mcdonalds_il", "addr:full": "\u05db\u05ea\u05d5\u05d1\u05ea: \u05e0\u05d7\u05dc\u05ea \u05d9\u05e6\u05d7\u05e7 20, \u05ea\u05dc \u05d0\u05d1\u05d9\u05d1-\u05d9\u05e4\u05d5", "addr:country": "IL", "name": "$pop_title", "phone": "052-9440083", "brand": "McDonald\u2019s", "brand:wikidata": "Q38076"}},
{"type": "Feature", "id": "PLVnMTkS8bigz4LoYWbJ2-4Uotw=", "properties": {"ref": "12", "@spider": "mcdonalds_il", "addr:full": "\u05db\u05ea\u05d5\u05d1\u05ea: \u05d0\u05d1\u05df \u05d2\u05d1\u05d9\u05e8\u05d5\u05dc 30, \u05ea\u05dc \u05d0\u05d1\u05d9\u05d1-\u05d9\u05e4\u05d5", "addr:country": "IL", "name": "$pop_title", "phone": "052-9440012", "brand": "McDonald\u2019s", "brand:wikidata": "Q38076"}},
{"type": "Feature", "id": "hbH50-pOXMl82oApsNDJue9UZlo=", "properties": {"ref": "221", "@spider": "mcdonalds_il", "addr:full": "\u05db\u05ea\u05d5\u05d1\u05ea: \u05de\u05e4\u05e8\u05e5 \u05e9\u05dc\u05de\u05d4 1, \u05d7\u05d5\u05dc\u05d5\u05df", "addr:country": "IL", "name": "\u05e4\u05d5\u05e4\u05d0\u05e3", "phone": "052-9440221", "brand": "McDonald\u2019s", "brand:wikidata": "Q38076"}},
{"type": "Feature", "id": "Ak-IFW-mX_atngS0B2Jsqlq4inY=", "properties": {"ref": "103", "@spider": "mcdonalds_il", "addr:full": "\u05db\u05ea\u05d5\u05d1\u05ea: \u05e9\u05d3\u05e8\u05d5\u05ea \u05e0\u05e9\u05d9\u05d0\u05d9 \u05d9\u05e9\u05e8\u05d0\u05dc \u05d0 100/13, \u05db\u05e8\u05de\u05d9\u05d0\u05dc", "addr:country": "IL", "name": "$pop_title", "phone": "052-9440103", "brand": "McDonald\u2019s", "brand:wikidata": "Q38076"}},
{"type": "Feature", "id": "pOjd2yr_oT3dn0wi8cS5fKng3wo=", "properties": {"ref": "54", "@spider": "mcdonalds_il", "addr:full": "\u05db\u05ea\u05d5\u05d1\u05ea: \u05ea\u05d7\u05e0\u05ea \u05d3\u05dc\u05e7 \u05e1\u05d5\u05e0\u05d5\u05dc - \u05d4\u05d7\u05e8\u05d5\u05e9\u05ea 1, \u05db\u05e8\u05de\u05d9\u05d0\u05dc", "addr:country": "IL", "name": "$pop_title", "phone": "052-9440054", "brand": "McDonald\u2019s", "brand:wikidata": "Q38076"}},
{"type": "Feature", "id": "85KZfp91jgsnwtvaRF3cDx2TPQc=", "properties": {"ref": "222", "@spider": "mcdonalds_il", "addr:full": "\u05db\u05ea\u05d5\u05d1\u05ea: \u05d1\u05d6\u05dc\u05ea 2, \u05de\u05e8\u05db\u05d6 \u05de\u05e1\u05d7\u05e8\u05d9 \"\u05de\u05d5\u05dc \u05ea\u05d1\u05d5\u05e8\", \u05db\u05e4\u05e8 \u05ea\u05d1\u05d5\u05e8", "addr:country": "IL", "name": "\u05d0\u05d9\u05ea\u05d5\u05e8 \u05de\u05e1\u05e2\u05d3\u05d4", "phone": "054-3360222", "brand": "McDonald\u2019s", "brand:wikidata": "Q38076"}},
{"type": "Feature", "id": "rusklAbR-G8UtDk2eKTrMu1klHE=", "properties": {"ref": "162", "@spider": "mcdonalds_il", "addr:full": "\u05db\u05ea\u05d5\u05d1\u05ea: \u05d5\u05d9\u05e6\u05de\u05df 207, \u05db\u05e4\u05e8 \u05e1\u05d1\u05d0", "addr:country": "IL", "name": "$pop_title", "phone": "052-9440162", "brand": "McDonald\u2019s", "brand:wikidata": "Q38076"}},
{"type": "Feature", "id": "_K8rPcE8zostLIanZ6E3cioPybM=", "properties": {"ref": "177", "@spider": "mcdonalds_il", "addr:full": "\u05db\u05ea\u05d5\u05d1\u05ea: \u05d5\u05d9\u05e6\u05de\u05df 207, \u05db\u05e4\u05e8 \u05e1\u05d1\u05d0", "addr:country": "IL", "name": "$pop_title", "phone": "052-9440177", "brand": "McDonald\u2019s", "brand:wikidata": "Q38076"}},
{"type": "Feature", "id": "pVK2OemT3QdrNb6oD2kyjXrKZzA=", "properties": {"ref": "86", "@spider": "mcdonalds_il", "addr:full": "\u05db\u05ea\u05d5\u05d1\u05ea: \u05e6\u05d5\u05de\u05ea \u05e0\u05d9\u05df 1, \u05db\u05e4\u05e8 \u05e0\u05d9\u05df", "addr:country": "IL", "name": "\u05d0\u05d9\u05ea\u05d5\u05e8 \u05de\u05e1\u05e2\u05d3\u05d4", "phone": "052-9440086", "brand": "McDonald\u2019s", "brand:wikidata": "Q38076"}},
{"type": "Feature", "id": "7l-Dtl5iNsIagDRlAqSTdwOOik0=", "properties": {"ref": "190", "@spider": "mcdonalds_il", "addr:full": "\u05db\u05ea\u05d5\u05d1\u05ea: \u05d4\u05e2\u05e6\u05de\u05d0\u05d5\u05ea 65, \u05e4\u05ea\u05d7 \u05ea\u05e7\u05d5\u05d5\u05d4", "addr:country": "IL", "name": "$pop_title", "phone": "052-9440190", "brand": "McDonald\u2019s", "brand:wikidata": "Q38076"}},
{"type": "Feature", "id": "wSqzL7lFcylgTOvPBtQdPnH3DLA=", "properties": {"ref": "164", "@spider": "mcdonalds_il", "addr:full": "\u05db\u05ea\u05d5\u05d1\u05ea: \u05e6\u05d5\u05de\u05ea \u05db\u05d5\u05db\u05d1 \u05d9\u05d0\u05d9\u05e8, \u05db\u05d5\u05db\u05d1 \u05d9\u05d0\u05d9\u05e8", "addr:country": "IL", "name": "$pop_title", "phone": "052-9440164", "brand": "McDonald\u2019s", "brand:wikidata": "Q38076"}},
{"type": "Feature", "id": "DG3SxwicfBE5miS_kMoQHseUtBQ=", "properties": {"ref": "249", "@spider": "mcdonalds_il", "addr:full": "\u05db\u05ea\u05d5\u05d1\u05ea: \u05d4\u05e4\u05d8\u05d9\u05e9 6, \u05e0\u05e1 \u05e6\u05d9\u05d5\u05e0\u05d4", "addr:country": "IL", "name": "\u05d0\u05d9\u05ea\u05d5\u05e8 \u05de\u05e1\u05e2\u05d3\u05d4", "phone": "054-3360249", "brand": "McDonald\u2019s", "brand:wikidata": "Q38076"}},
{"type": "Feature", "id": "UKEElEI2GTsXI-Ry2bbBwALHx4E=", "properties": {"ref": "205", "@spider": "mcdonalds_il", "addr:full": "\u05db\u05ea\u05d5\u05d1\u05ea: \u05de\u05e8\u05db\u05d6 \u05e2\u05d9\u05e0\u05d1, \u05e9\u05d3' \u05d4\u05de\u05dc\u05d0\u05db\u05d5\u05ea 121, \u05de\u05d5\u05d3\u05d9\u05e2\u05d9\u05df", "addr:country": "IL", "name": "$pop_title", "phone": "052-9440205", "brand": "McDonald\u2019s", "brand:wikidata": "Q38076"}},
{"type": "Feature", "id": "7A5GoJkBXuLZUDzcVEJt-mPCIj4=", "properties": {"ref": "194", "@spider": "mcdonalds_il", "addr:full": "\u05db\u05ea\u05d5\u05d1\u05ea: \u05d4\u05de\u05d0\u05d4 \u05d5\u05e2\u05e9\u05e8\u05d9\u05dd 4, \u05e8\u05d0\u05e9\u05d5\u05df \u05dc\u05e6\u05d9\u05d5\u05df", "addr:country": "IL", "name": "$pop_title", "phone": "052-9440194", "brand": "McDonald\u2019s", "brand:wikidata": "Q38076"}},
{"type": "Feature", "id": "K4mjtg7Od4_wL82Iiw0xxOxxZwQ=", "properties": {"ref": "223", "@spider": "mcdonalds_il", "addr:full": "\u05db\u05ea\u05d5\u05d1\u05ea: \u05e0\u05e2\u05de\u05d9 1, \u05d9\u05e8\u05d5\u05e9\u05dc\u05d9\u05dd", "addr:country": "IL", "name": "$pop_title", "phone": "054-3360223", "brand": "McDonald\u2019s", "brand:wikidata": "Q38076"}},
{"type": "Feature", "id": "uA8y_hZBH-1nPV7ro7PnUYfbDdM=", "properties": {"ref": "229", "@spider": "mcdonalds_il", "addr:full": "\u05db\u05ea\u05d5\u05d1\u05ea: \u05d1\u05e8\u05d5\u05da \u05e7\u05d8\u05d9\u05e0\u05e7\u05d0 2, \u05d1\u05d0\u05e8 \u05e9\u05d1\u05e2", "addr:country": "IL", "name": "$pop_title", "phone": "054-3360229", "brand": "McDonald\u2019s", "brand:wikidata": "Q38076"}},
{"type": "Feature", "id": "BInd_iov3EfK9PSam9QqdYL_Voo=", "properties": {"ref": "280", "@spider": "mcdonalds_il", "addr:full": "\u05db\u05ea\u05d5\u05d1\u05ea: \u05e9\u05d5\u05e7 \u05d8\u05d9\u05e8\u05d4, \u05d8\u05d9\u05e8\u05d4", "addr:country": "IL", "name": "\u05d0\u05d9\u05ea\u05d5\u05e8 \u05de\u05e1\u05e2\u05d3\u05d4", "phone": "054-3360280", "brand": "McDonald\u2019s", "brand:wikidata": "Q38076"}},
{"type": "Feature", "id": "s8nyzRTxYidVol96EYUwZoR87UQ=", "properties": {"ref": "26", "@spider": "mcdonalds_il", "addr:full": "\u05db\u05ea\u05d5\u05d1\u05ea: \u05d4\u05d9\u05e8\u05e7\u05d5\u05df 81, \u05ea\u05dc \u05d0\u05d1\u05d9\u05d1-\u05d9\u05e4\u05d5", "addr:country": "IL", "name": "$pop_title", "phone": "052-9440026", "brand": "McDonald\u2019s", "brand:wikidata": "Q38076"}},
{"type": "Feature", "id": "gV_naROWKWZWfe7tRjie6rwu6EI=", "properties": {"ref": "74", "@spider": "mcdonalds_il", "addr:full": "\u05db\u05ea\u05d5\u05d1\u05ea: \u05e9\u05d3\u05e8\u05d5\u05ea \u05d9\u05e8\u05d5\u05e9\u05dc\u05d9\u05dd 15, \u05ea\u05dc \u05d0\u05d1\u05d9\u05d1-\u05d9\u05e4\u05d5", "addr:country": "IL", "name": "$pop_title", "phone": "052-9440074", "brand": "McDonald\u2019s", "brand:wikidata": "Q38076"}},
{"type": "Feature", "id": "0a-aGpitvNPv-DlDwFSFOnSdHJA=", "properties": {"ref": "159", "@spider": "mcdonalds_il", "addr:full": "\u05db\u05ea\u05d5\u05d1\u05ea: \u05de\u05e2\u05dc\u05d4 \u05db\u05de\u05d5\u05df 5, \u05db\u05e8\u05de\u05d9\u05d0\u05dc", "addr:country": "IL", "name": "$pop_title", "phone": "052-9440159", "brand": "McDonald\u2019s", "brand:wikidata": "Q38076"}},
{"type": "Feature", "id": "e7td2_3dI4uPgBsfq95XlhZjTQk=", "properties": {"ref": "10", "@spider": "mcdonalds_il", "addr:full": "\u05db\u05ea\u05d5\u05d1\u05ea: \u05e6\u05d5\u05de\u05ea \u05d5\u05d5\u05dc\u05e7\u05df - \u05d4\u05d7\u05e8\u05d5\u05e9\u05ea 1, \u05d7\u05d9\u05e4\u05d4", "addr:country": "IL", "name": "$pop_title", "phone": "052-9440010", "brand": "McDonald\u2019s", "brand:wikidata": "Q38076"}},
{"type": "Feature", "id": "n3EAjKqwtg6X5BU6NJ2tiQy2WaM=", "properties": {"ref": "107", "@spider": "mcdonalds_il", "addr:full": "\u05db\u05ea\u05d5\u05d1\u05ea: \u05d1\u05d9\u05ea \u05d7\u05d5\u05dc\u05d9\u05dd \u05d5\u05d5\u05dc\u05e4\u05e1\u05d5\u05df-\u05d4\u05dc\u05d5\u05d7\u05de\u05d9\u05dd 62, \u05d7\u05d5\u05dc\u05d5\u05df", "addr:country": "IL", "name": "\u05e4\u05d5\u05e4\u05d0\u05e3", "phone": "052-9440107", "brand": "McDonald\u2019s", "brand:wikidata": "Q38076"}},
{"type": "Feature", "id": "Q_bqE1ZdlnI3ltf0S0qmZvtl9jQ=", "properties": {"ref": "15", "@spider": "mcdonalds_il", "addr:full": "\u05db\u05ea\u05d5\u05d1\u05ea: \u05e9\u05d3\u05e8\u05d5\u05ea \u05d0\u05d1\u05d0 \u05d0\u05d1\u05df 1, \u05d4\u05e8\u05e6\u05dc\u05d9\u05d4 \u05e4\u05d9\u05ea\u05d5\u05d7", "addr:country": "IL", "name": "\u05d0\u05d9\u05ea\u05d5\u05e8 \u05de\u05e1\u05e2\u05d3\u05d4", "phone": "052-9440015", "brand": "McDonald\u2019s", "brand:wikidata": "Q38076"}},
{"type": "Feature", "id": "ehTwoagwtiSTEgKaRhkdR6oWEik=", "properties": {"ref": "122", "@spider": "mcdonalds_il", "addr:full": "\u05db\u05ea\u05d5\u05d1\u05ea: \u05d4\u05e4\u05e8\u05d9\u05d5\u05df 2, \u05e0\u05d5\u05e3 \u05d4\u05d2\u05dc\u05d9\u05dc (\u05e0\u05e6\u05e8\u05ea \u05e2\u05d9\u05dc\u05d9\u05ea)", "addr:country": "IL", "name": "\u05d0\u05d9\u05ea\u05d5\u05e8 \u05de\u05e1\u05e2\u05d3\u05d4", "phone": "052-9440122", "brand": "McDonald\u2019s", "brand:wikidata": "Q38076"}},
{"type": "Feature", "id": "UJvhRe-DIEXvJ9a-zV1T8ylmvuY=", "properties": {"ref": "155", "@spider": "mcdonalds_il", "addr:full": "\u05db\u05ea\u05d5\u05d1\u05ea: \u05d6'\u05d1\u05d5\u05d8\u05d9\u05e0\u05e1\u05e7\u05d9 72-74, \u05e4\u05ea\u05d7 \u05ea\u05e7\u05d5\u05d5\u05d4", "addr:country": "IL", "name": "$pop_title", "phone": "052-9440155", "brand": "McDonald\u2019s", "brand:wikidata": "Q38076"}},
{"type": "Feature", "id": "IH67LoFfGWPdXwm90nMi-qRn738=", "properties": {"ref": "72", "@spider": "mcdonalds_il", "addr:full": "\u05db\u05ea\u05d5\u05d1\u05ea: \u05d6'\u05d1\u05d5\u05d8\u05d9\u05e0\u05e1\u05e7\u05d9 72-74, \u05e4\u05ea\u05d7 \u05ea\u05e7\u05d5\u05d5\u05d4", "addr:country": "IL", "name": "$pop_title", "phone": "052-9440072", "brand": "McDonald\u2019s", "brand:wikidata": "Q38076"}},
{"type": "Feature", "id": "pPKMnq2BK8ej-cLjrXhkZBLYWuo=", "properties": {"ref": "151", "@spider": "mcdonalds_il", "addr:full": "\u05db\u05ea\u05d5\u05d1\u05ea: \u05d4\u05e1\u05d9\u05d1\u05d9\u05dd 2 \u05e4\u05d9\u05e0\u05ea \u05d6'\u05d1\u05d5\u05d8\u05d9\u05e0\u05e1\u05e7\u05d9, \u05e4\u05ea\u05d7 \u05ea\u05e7\u05d5\u05d5\u05d4", "addr:country": "IL", "name": "$pop_title", "phone": "052-9440494", "brand": "McDonald\u2019s", "brand:wikidata": "Q38076"}},
{"type": "Feature", "id": "7Hyce4qBvkMFsdepQmOC15LxP4o=", "properties": {"ref": "145", "@spider": "mcdonalds_il", "addr:full": "\u05db\u05ea\u05d5\u05d1\u05ea: \u05de\u05e8\u05db\u05d6 \u05d4\u05de\u05d5\u05e9\u05d1\u05d4 \u05d3\u05e8\u05da \u05d1\u05df \u05d2\u05d5\u05e8\u05d9\u05d5\u05df 105, \u05d2\u05d3\u05e8\u05d4", "addr:country": "IL", "name": "$pop_title", "phone": "052-9440145", "brand": "McDonald\u2019s", "brand:wikidata": "Q38076"}},
{"type": "Feature", "id": "4sp1Yb5kp9x04RJyM2hlG8zabwk=", "properties": {"ref": "79", "@spider": "mcdonalds_il", "addr:full": "\u05db\u05ea\u05d5\u05d1\u05ea: \u05d4\u05e8\u05e6\u05dc 18-20 \u05e4\u05d9\u05e0\u05ea \u05d1\u05dc\u05e4\u05d5\u05e8, \u05d7\u05d9\u05e4\u05d4", "addr:country": "IL", "name": "$pop_title", "phone": "052-9440079", "brand": "McDonald\u2019s", "brand:wikidata": "Q38076"}},
{"type": "Feature", "id": "M6rhE6qNKj94Z2sk1cgjzbmciiE=", "properties": {"ref": "282", "@spider": "mcdonalds_il", "addr:full": "\u05db\u05ea\u05d5\u05d1\u05ea: \u05ea\u05d5\u05e6\u05e8\u05ea \u05d4\u05d0\u05e8\u05e5 3, \u05e4\u05ea\u05d7 \u05ea\u05e7\u05d5\u05d5\u05d4", "addr:country": "IL", "name": "\u05d0\u05d9\u05ea\u05d5\u05e8 \u05de\u05e1\u05e2\u05d3\u05d4", "phone": "054-3360282", "brand": "McDonald\u2019s", "brand:wikidata": "Q38076"}},
{"type": "Feature", "id": "gPl1PfGUgDOzgW6cM_91XhlF61I=", "properties": {"ref": "59", "@spider": "mcdonalds_il", "addr:full": "\u05db\u05ea\u05d5\u05d1\u05ea: \u05d3\u05dc\u05e7 \u05de\u05e4\u05d2\u05e9 \u05d0\u05d5\u05dc\u05d2\u05d4, \u05d2\u05d1\u05e2\u05ea \u05d0\u05d5\u05dc\u05d2\u05d4, \u05d7\u05d3\u05e8\u05d4", "addr:country": "IL", "name": "$pop_title", "phone": "052-9440059", "brand": "McDonald\u2019s", "brand:wikidata": "Q38076"}},
{"type": "Feature", "id": "_kq8kOW5c6vsNHWAsA4pusbP6h4=", "properties": {"ref": "138", "@spider": "mcdonalds_il", "addr:full": "\u05db\u05ea\u05d5\u05d1\u05ea: \u05e8\u05d7' \u05e8\u05d0\u05e9\u05d9 1, \u05ea\u05d7\u05e0\u05ea \"\u05d3\u05dc\u05e7\", \u05d3\u05d0\u05dc\u05d9\u05ea \u05d0\u05dc \u05db\u05e8\u05de\u05dc", "addr:country": "IL", "name": "\u05d0\u05d9\u05ea\u05d5\u05e8 \u05de\u05e1\u05e2\u05d3\u05d4", "phone": "052-9440138", "brand": "McDonald\u2019s", "brand:wikidata": "Q38076"}},
{"type": "Feature", "id": "e5nBlKef0VwfWaYGDi1EtHnpDnI=", "properties": {"ref": "139", "@spider": "mcdonalds_il", "addr:full": "\u05db\u05ea\u05d5\u05d1\u05ea: \u05e4\u05e8\u05e5 \u05e1\u05e0\u05d8\u05e8 - \u05d0\u05d6\u05d5\u05e8 \u05ea\u05e2\u05e9\u05d9\u05d4 \u05d3\u05e8\u05d5\u05de\u05d9, \u05d3\u05d9\u05de\u05d5\u05e0\u05d4", "addr:country": "IL", "name": "$pop_title", "phone": "052-9440139", "brand": "McDonald\u2019s", "brand:wikidata": "Q38076"}},
{"type": "Feature", "id": "lh4siSbJMECtvUJ0Kd4YJGBTsBU=", "properties": {"ref": "13", "@spider": "mcdonalds_il", "addr:full": "\u05db\u05ea\u05d5\u05d1\u05ea: \u05d3\u05d9\u05d6\u05e0\u05d2\u05d5\u05e3 50, \u05ea\u05dc \u05d0\u05d1\u05d9\u05d1-\u05d9\u05e4\u05d5", "addr:country": "IL", "name": "$pop_title", "phone": "052-9440013", "brand": "McDonald\u2019s", "brand:wikidata": "Q38076"}},
{"type": "Feature", "id": "EvP1jVrWWA4MJphIH5S-hA2e3Kg=", "properties": {"ref": "270", "@spider": "mcdonalds_il", "addr:full": "\u05db\u05ea\u05d5\u05d1\u05ea: \u05d1\u05d9\u05dc\u05d0\u05dc 45, \u05e0\u05e6\u05e8\u05ea", "addr:country": "IL", "name": "\u05d0\u05d9\u05ea\u05d5\u05e8 \u05de\u05e1\u05e2\u05d3\u05d4", "phone": "054-3360270", "brand": "McDonald\u2019s", "brand:wikidata": "Q38076"}},
{"type": "Feature", "id": "KPgdwLXrXih3oRN65sBE96huhmM=", "properties": {"ref": "213", "@spider": "mcdonalds_il", "addr:full": "\u05db\u05ea\u05d5\u05d1\u05ea: \u05d4\u05e8\u05d1 \u05d7\u05d9\u05d9\u05dd \u05d3\u05d5\u05d3 \u05d4\u05dc\u05d5\u05d9 5, \u05e8\u05d0\u05e9\u05d5\u05df \u05dc\u05e6\u05d9\u05d5\u05df", "addr:country": "IL", "name": "$pop_title", "phone": "052-9440213", "brand": "McDonald\u2019s", "brand:wikidata": "Q38076"}},
{"type": "Feature", "id": "QbNUVq8BdqsI9kftS3_8uxJ-t0Y=", "properties": {"ref": "238", "@spider": "mcdonalds_il", "addr:full": "\u05db\u05ea\u05d5\u05d1\u05ea: \u05ea\u05d7\u05e0\u05ea \u05d3\u05dc\u05e7 \u05d3\u05d5\u05e8 \u05d0\u05dc\u05d5\u05df \u05db\u05d1\u05d9\u05e9 89, \u05de\u05e2\u05dc\u05d5\u05ea \u05ea\u05e8\u05e9\u05d9\u05d7\u05d0", "addr:country": "IL", "name": "\u05d0\u05d9\u05ea\u05d5\u05e8 \u05de\u05e1\u05e2\u05d3\u05d4", "phone": "054-3360238", "brand": "McDonald\u2019s", "brand:wikidata": "Q38076"}},
{"type": "Feature", "id": "Q0QgQ_0J1IvwhIJOEz7Cq8dVi3w=", "properties": {"ref": "207", "@spider": "mcdonalds_il", "addr:full": "\u05db\u05ea\u05d5\u05d1\u05ea: \u05de\u05d7\"\u05dc 1, \u05d0\u05e9\u05e7\u05dc\u05d5\u05df", "addr:country": "IL", "name": "$pop_title", "phone": "052-9440207", "brand": "McDonald\u2019s", "brand:wikidata": "Q38076"}},
{"type": "Feature", "id": "1ch-E_Bt4Vhjpgg61ikMRKIcGwM=", "properties": {"ref": "144", "@spider": "mcdonalds_il", "addr:full": "\u05db\u05ea\u05d5\u05d1\u05ea: \u05d3\u05e8\u05da \u05d4\u05e2\u05de\u05e7 41, \u05e0\u05d5\u05e3 \u05d4\u05d2\u05dc\u05d9\u05dc (\u05e0\u05e6\u05e8\u05ea \u05e2\u05d9\u05dc\u05d9\u05ea)", "addr:country": "IL", "name": "\u05d0\u05d9\u05ea\u05d5\u05e8 \u05de\u05e1\u05e2\u05d3\u05d4", "phone": "052-9440144", "brand": "McDonald\u2019s", "brand:wikidata": "Q38076"}},
{"type": "Feature", "id": "Nab21VqWmj6-XwSzzZsu-AN_VAA=", "properties": {"ref": "271", "@spider": "mcdonalds_il", "addr:full": "\u05db\u05ea\u05d5\u05d1\u05ea: \u05d3\u05e8\u05da \u05e9\u05de\u05d7\u05d4 \u05d2\u05d5\u05dc\u05df 54, \u05d7\u05d9\u05e4\u05d4", "addr:country": "IL", "name": "$pop_title", "phone": "052-9440271", "brand": "McDonald\u2019s", "brand:wikidata": "Q38076"}},
{"type": "Feature", "id": "S2ZbERK6rGp96mH8eBQphcWiauo=", "properties": {"ref": "71", "@spider": "mcdonalds_il", "addr:full": "\u05db\u05ea\u05d5\u05d1\u05ea: \u05d3\u05e8\u05da \u05e9\u05de\u05d7\u05d4 \u05d2\u05d5\u05dc\u05df 54, \u05d7\u05d9\u05e4\u05d4", "addr:country": "IL", "name": "$pop_title", "phone": "052-9440071", "brand": "McDonald\u2019s", "brand:wikidata": "Q38076"}},
{"type": "Feature", "id": "W1kmd-kk66MTAbemrGJVTvzHfaE=", "properties": {"ref": "204", "@spider": "mcdonalds_il", "addr:full": "\u05db\u05ea\u05d5\u05d1\u05ea: \u05e9\u05d3\u05e8\u05d5\u05ea \u05d3\u05d5\u05d3 \u05d8\u05d5\u05d1\u05d9\u05d4\u05d5 125, \u05d1\u05d0\u05e8 \u05e9\u05d1\u05e2", "addr:country": "IL", "name": "$pop_title", "phone": "052-9440204", "brand": "McDonald\u2019s", "brand:wikidata": "Q38076"}},
{"type": "Feature", "id": "LABGfwwZOuuDaCzbhWFaMK06f0c=", "properties": {"ref": "29", "@spider": "mcdonalds_il", "addr:full": "\u05db\u05ea\u05d5\u05d1\u05ea: \u05e6\u05d5\u05de\u05ea \u05d2\u05df \u05e9\u05de\u05d5\u05d0\u05dc, \u05d2\u05df \u05e9\u05de\u05d5\u05d0\u05dc", "addr:country": "IL", "name": "\u05d0\u05d9\u05ea\u05d5\u05e8 \u05de\u05e1\u05e2\u05d3\u05d4", "phone": "052-9440029", "brand": "McDonald\u2019s", "brand:wikidata": "Q38076"}},
{"type": "Feature", "id": "fkznvHQy89ZITUlYp0MmS-4qaTU=", "properties": {"ref": "219", "@spider": "mcdonalds_il", "addr:full": "\u05db\u05ea\u05d5\u05d1\u05ea: \u05d4\u05de\u05d2\u05d9\u05e0\u05d9\u05dd 56, \u05d2\u05df \u05d9\u05d1\u05e0\u05d4", "addr:country": "IL", "name": "$pop_title", "phone": "052-9440219", "brand": "McDonald\u2019s", "brand:wikidata": "Q38076"}},
{"type": "Feature", "id": "dpp5EqVLSH_swPWQEztT2DLp4Nc=", "properties": {"ref": "236", "@spider": "mcdonalds_il", "addr:full": "\u05db\u05ea\u05d5\u05d1\u05ea: \u05db\u05e0\u05d9\u05e1\u05d4 \u05d3\u05e8\u05d5\u05de\u05d9\u05ea, \u05d0\u05e9\u05e7\u05dc\u05d5\u05df", "addr:country": "IL", "name": "$pop_title", "phone": "054-3360236", "brand": "McDonald\u2019s", "brand:wikidata": "Q38076"}},
{"type": "Feature", "id": "7kiB1mCpxBlbU5HGs76eIXa0UuU=", "properties": {"ref": "275", "@spider": "mcdonalds_il", "addr:full": "\u05db\u05ea\u05d5\u05d1\u05ea: \u05d3\u05d0\u05d4\u05e8 \u05e2\u05d5\u05de\u05e8 \u05d0\u05dc\u05d6\u05d9\u05d3\u05d0\u05e0\u05d9, \u05d3\u05d9\u05e8 \u05d0\u05dc \u05d0\u05e1\u05d3", "addr:country": "IL", "name": "\u05d0\u05d9\u05ea\u05d5\u05e8 \u05de\u05e1\u05e2\u05d3\u05d4", "phone": "054-3360275", "brand": "McDonald\u2019s", "brand:wikidata": "Q38076"}},
{"type": "Feature", "id": "gSurEpdjx0xikt6lgEtPOvhQi2E=", "properties": {"ref": "240", "@spider": "mcdonalds_il", "addr:full": "\u05db\u05ea\u05d5\u05d1\u05ea: \u05e6\u05d5\u05de\u05ea \u05d1\u05d9\u05ea \u05e7\u05de\u05d4, \u05d1\u05d9\u05ea \u05e7\u05de\u05d4", "addr:country": "IL", "name": "\u05d0\u05d9\u05ea\u05d5\u05e8 \u05de\u05e1\u05e2\u05d3\u05d4", "phone": "054-3360240", "brand": "McDonald\u2019s", "brand:wikidata": "Q38076"}},
{"type": "Feature", "id": "ob0uIVhYCK0gHA2XitO7h09OLfU=", "properties": {"ref": "174", "@spider": "mcdonalds_il", "addr:full": "\u05db\u05ea\u05d5\u05d1\u05ea: \u05e6\u05d5\u05de\u05ea \u05d1\u05d9\u05ea \u05e7\u05de\u05d4, \u05d1\u05d9\u05ea \u05e7\u05de\u05d4", "addr:country": "IL", "name": "\u05d0\u05d9\u05ea\u05d5\u05e8 \u05de\u05e1\u05e2\u05d3\u05d4", "phone": "052-9440174", "brand": "McDonald\u2019s", "brand:wikidata": "Q38076"}},
{"type": "Feature", "id": "SETJojZqTG78kUjK48Wf8WcdHRk=", "properties": {"ref": "131", "@spider": "mcdonalds_il", "addr:full": "\u05db\u05ea\u05d5\u05d1\u05ea: \u05d0\u05d1\u05d9\u05d6\u05d5\u05d4\u05e8 8, \u05d9\u05e8\u05d5\u05e9\u05dc\u05d9\u05dd", "addr:country": "IL", "name": "$pop_title", "phone": "052-9440131", "brand": "McDonald\u2019s", "brand:wikidata": "Q38076"}},
{"type": "Feature", "id": "TMJCoEw7wA3v_M1UrtVrtj1RrcE=", "properties": {"ref": "200", "@spider": "mcdonalds_il", "addr:full": "\u05db\u05ea\u05d5\u05d1\u05ea: \u05e6\u05d5\u05de\u05ea \u05d1\u05d9\u05dc\u05d5, \u05e7\u05e8\u05d9\u05ea \u05e2\u05e7\u05e8\u05d5\u05df, \u05e8\u05d7\u05d5\u05d1\u05d5\u05ea", "addr:country": "IL", "name": "$pop_title", "phone": "052-9440200", "brand": "McDonald\u2019s", "brand:wikidata": "Q38076"}},
{"type": "Feature", "id": "1ioz4SzWk5mOouVWXoof29BWgMk=", "properties": {"ref": "225", "@spider": "mcdonalds_il", "addr:full": "\u05db\u05ea\u05d5\u05d1\u05ea: \u05e8\u05d7' \u05d4\u05d1\u05e0\u05d0\u05d9 \u05e4\u05d9\u05e0\u05ea \u05d9\u05e8\u05d5\u05e9\u05dc\u05d9\u05dd, \u05d7\u05d5\u05dc\u05d5\u05df", "addr:country": "IL", "name": "\u05e4\u05d5\u05e4\u05d0\u05e3", "phone": "054-3360225", "brand": "McDonald\u2019s", "brand:wikidata": "Q38076"}},
{"type": "Feature", "id": "N75D4oZMpwUF0k_dPG0XP2Wc-iw=", "properties": {"ref": "143", "@spider": "mcdonalds_il", "addr:full": "\u05db\u05ea\u05d5\u05d1\u05ea: \u05de\u05e8\u05db\u05d6 \u05d2\u05d9\u05de\u05d9\u05d5\u05df - \u05d1\u05d9\u05ea \u05d7\u05d5\u05dc\u05d9\u05dd \u05ea\u05dc \u05d4\u05e9\u05d5\u05de\u05e8, \u05e7\u05e8\u05d9\u05d9\u05ea \u05d0\u05d5\u05e0\u05d5", "addr:country": "IL", "name": "$pop_title", "phone": "052-9440143", "brand": "McDonald\u2019s", "brand:wikidata": "Q38076"}},
{"type": "Feature", "id": "8hUq97TIoGgJnbFkbzVzA2CFCXA=", "properties": {"ref": "272", "@spider": "mcdonalds_il", "addr:full": "\u05db\u05ea\u05d5\u05d1\u05ea: \u05d0\u05dc\u05d8\u05dc\u05e3 4, \u05d9\u05d4\u05d5\u05d3", "addr:country": "IL", "name": "\u05d0\u05d9\u05ea\u05d5\u05e8 \u05de\u05e1\u05e2\u05d3\u05d4", "phone": "054-3360272", "brand": "McDonald\u2019s", "brand:wikidata": "Q38076"}},
{"type": "Feature", "id": "Sd0ojUxwLhSSx5_Y6x__aX1YFi4=", "properties": {"ref": "257", "@spider": "mcdonalds_il", "addr:full": "\u05db\u05ea\u05d5\u05d1\u05ea: \u05d4\u05de\u05d1\u05e8\u05d2 1, \u05d8\u05d1\u05e8\u05d9\u05d4", "addr:country": "IL", "name": "\u05d0\u05d9\u05ea\u05d5\u05e8 \u05de\u05e1\u05e2\u05d3\u05d4", "phone": "054-3360257", "brand": "McDonald\u2019s", "brand:wikidata": "Q38076"}},
{"type": "Feature", "id": "FILAEkPOcrEVZJTqRhjDz9_Q33E=", "properties": {"ref": "82", "@spider": "mcdonalds_il", "addr:full": "\u05db\u05ea\u05d5\u05d1\u05ea: \u05e7\u05e0\u05d9\u05d5\u05df BIG-Fashion, \u05d9\u05d2\u05d0\u05dc \u05d0\u05dc\u05d5\u05df, \u05d1\u05d9\u05ea \u05e9\u05de\u05e9", "addr:country": "IL", "name": "$pop_title", "phone": "052-9440082", "brand": "McDonald\u2019s", "brand:wikidata": "Q38076"}},
{"type": "Feature", "id": "5nS852_1_tyfNeIBSTc-LuzebNs=", "properties": {"ref": "46", "@spider": "mcdonalds_il", "addr:full": "\u05db\u05ea\u05d5\u05d1\u05ea: \u05d3\u05e8\u05da \u05d7\u05d1\u05e8\u05d5\u05df 21, \u05d1\u05d0\u05e8 \u05e9\u05d1\u05e2", "addr:country": "IL", "name": "$pop_title", "phone": "052-9440046", "brand": "McDonald\u2019s", "brand:wikidata": "Q38076"}},
{"type": "Feature", "id": "DN9oSnxy58PfYsstqoOsK0P1JuI=", "properties": {"ref": "239", "@spider": "mcdonalds_il", "addr:full": "\u05db\u05ea\u05d5\u05d1\u05ea: \u05d4\u05e1\u05ea\u05ea 20, \u05d0\u05d9\u05dc\u05ea", "addr:country": "IL", "name": "$pop_title", "phone": "054-3360239", "brand": "McDonald\u2019s", "brand:wikidata": "Q38076"}},
{"type": "Feature", "id": "iUqDl9hZrUGw7Do9XMN6F2E6GgY=", "properties": {"ref": "262", "@spider": "mcdonalds_il", "addr:full": "\u05db\u05ea\u05d5\u05d1\u05ea: \u05de\u05e8\u05db\u05d6 \u05de\u05e1\u05d7\u05e8\u05d9 \u05d1\u05de\u05d7\u05dc\u05e3 \u05d1\u05d0\u05e7\u05d4 \u05d2'\u05ea, \u05db\u05d1\u05d9\u05e9 6, \u05d1\u05d0\u05e7\u05d4 \u05d0\u05dc \u05d2\u05e8\u05d1\u05d9\u05d4", "addr:country": "IL", "name": "\u05d0\u05d9\u05ea\u05d5\u05e8 \u05de\u05e1\u05e2\u05d3\u05d4", "phone": "054-3360262", "brand": "McDonald\u2019s", "brand:wikidata": "Q38076"}},
{"type": "Feature", "id": "JtFVFdFm6jIUqi2NacjcLt-nWyE=", "properties": {"ref": "220", "@spider": "mcdonalds_il", "addr:full": "\u05db\u05ea\u05d5\u05d1\u05ea: \u05e9\u05d3\u05e8\u05d5\u05ea \u05d1\u05df \u05e6\u05d1\u05d9 1, \u05e0\u05d4\u05e8\u05d9\u05d4", "addr:country": "IL", "name": "$pop_title", "phone": "052-9440220", "brand": "McDonald\u2019s", "brand:wikidata": "Q38076"}},
{"type": "Feature", "id": "zNuhfiuZ8tSDfPBJtNHXZ5u8cRk=", "properties": {"ref": "108", "@spider": "mcdonalds_il", "addr:full": "\u05db\u05ea\u05d5\u05d1\u05ea: \u05e7\u05e0\u05d9\u05d5\u05df \u05d0\u05e8\u05e0\u05d4 - \u05d4\u05e9\u05d5\u05e0\u05d9\u05ea 2, \u05d4\u05e8\u05e6\u05dc\u05d9\u05d4 \u05e4\u05d9\u05ea\u05d5\u05d7", "addr:country": "IL", "name": "$pop_title", "phone": "052-9440108", "brand": "McDonald\u2019s", "brand:wikidata": "Q38076"}},
{"type": "Feature", "id": "2LQsYg_Qm4R7H95P5ke1eQYILIM=", "properties": {"ref": "134", "@spider": "mcdonalds_il", "addr:full": "\u05db\u05ea\u05d5\u05d1\u05ea: \u05de\u05e8\u05db\u05d6 \u05de\u05e1\u05d7\u05e8\u05d9 \u05e2\u05d9\u05df \u05d4\u05de\u05e4\u05e8\u05e5, \u05e7\u05d9\u05d1\u05d5\u05e5 \u05e2\u05d9\u05df \u05d4\u05de\u05e4\u05e8\u05e5", "addr:country": "IL", "name": "\u05d0\u05d9\u05ea\u05d5\u05e8 \u05de\u05e1\u05e2\u05d3\u05d4", "phone": "052-9440134", "brand": "McDonald\u2019s", "brand:wikidata": "Q38076"}},
{"type": "Feature", "id": "edXOC1stkS9uUmCTKTUEcmxerec=", "properties": {"ref": "140", "@spider": "mcdonalds_il", "addr:full": "\u05db\u05ea\u05d5\u05d1\u05ea: \u05e8\u05d0\u05e9\u05d5\u05df \u05dc\u05e6\u05d9\u05d5\u05df 1 \u05e4\u05d9\u05e0\u05ea \u05d2\u05d9\u05e1\u05d9\u05df, \u05e4\u05ea\u05d7 \u05ea\u05e7\u05d5\u05d5\u05d4", "addr:country": "IL", "name": "$pop_title", "phone": "052-9440140", "brand": "McDonald\u2019s", "brand:wikidata": "Q38076"}},
{"type": "Feature", "id": "6NzVtoAuZxCaNM2kJHaOzE_O3DM=", "properties": {"ref": "14", "@spider": "mcdonalds_il", "addr:full": "\u05db\u05ea\u05d5\u05d1\u05ea: \u05e6\u05d5\u05de\u05ea \u05d0\u05dc\u05d5\u05e0\u05d9\u05dd, \u05e7\u05d9\u05d1\u05d5\u05e5 \u05d0\u05dc\u05d5\u05e0\u05d9\u05dd", "addr:country": "IL", "name": "\u05d0\u05d9\u05ea\u05d5\u05e8 \u05de\u05e1\u05e2\u05d3\u05d4", "phone": "052-9440014", "brand": "McDonald\u2019s", "brand:wikidata": "Q38076"}},
{"type": "Feature", "id": "lEaJRaCSS9p04u9clpUOKAUcv4s=", "properties": {"ref": "128", "@spider": "mcdonalds_il", "addr:full": "\u05db\u05ea\u05d5\u05d1\u05ea: \u05e7\u05d9\u05d1\u05d5\u05e5 \u05de\u05e9\u05de\u05e8, \u05de\u05e9\u05de\u05e8 \u05d4\u05e9\u05e8\u05d5\u05df", "addr:country": "IL", "name": "\u05d0\u05d9\u05ea\u05d5\u05e8 \u05de\u05e1\u05e2\u05d3\u05d4", "phone": "052-9440128", "brand": "McDonald\u2019s", "brand:wikidata": "Q38076"}},
{"type": "Feature", "id": "eA16z006Mu6I-C04r2iioTTRd-0=", "properties": {"ref": "212", "@spider": "mcdonalds_il", "addr:full": "\u05db\u05ea\u05d5\u05d1\u05ea: \u05e7\u05d0\u05de\u05e4\u05df 8, \u05d0\u05d9\u05dc\u05ea", "addr:country": "IL", "name": "$pop_title", "phone": "052-9440212", "brand": "McDonald\u2019s", "brand:wikidata": "Q38076"}},
{"type": "Feature", "id": "IN95nxbADHUb4kJznM8tCQ2uUFw=", "properties": {"ref": "173", "@spider": "mcdonalds_il", "addr:full": "\u05db\u05ea\u05d5\u05d1\u05ea: \u05e9\u05d3\u05e8\u05d5\u05ea \u05d0\u05d7\"\u05d9 \u05d0\u05d9\u05dc\u05ea 63, \u05d7\u05d9\u05e4\u05d4", "addr:country": "IL", "name": "$pop_title", "phone": "052-9440173", "brand": "McDonald\u2019s", "brand:wikidata": "Q38076"}},
{"type": "Feature", "id": "36ino4_ZvSNxGi-dquJ2NCkXD8Q=", "properties": {"ref": "228", "@spider": "mcdonalds_il", "addr:full": "\u05db\u05ea\u05d5\u05d1\u05ea: \u05e2\u05ea\u05d9\u05e8 \u05d9\u05d3\u05e2 2, \u05db\u05e4\u05e8 \u05e1\u05d1\u05d0", "addr:country": "IL", "name": "$pop_title", "phone": "054-3360228", "brand": "McDonald\u2019s", "brand:wikidata": "Q38076"}},
{"type": "Feature", "id": "L8nwoT-KvV7zJUODnmIGF7JfL60=", "properties": {"ref": "246", "@spider": "mcdonalds_il", "addr:full": "\u05db\u05ea\u05d5\u05d1\u05ea: \u05e9\u05de\u05d0\u05d9 4, \u05d9\u05e8\u05d5\u05e9\u05dc\u05d9\u05dd", "addr:country": "IL", "name": "$pop_title", "phone": "054-3360246", "brand": "McDonald\u2019s", "brand:wikidata": "Q38076"}},
{"type": "Feature", "id": "ZPBEYJt3td2LavVQHqMIqfPY57A=", "properties": {"ref": "91", "@spider": "mcdonalds_il", "addr:full": "\u05db\u05ea\u05d5\u05d1\u05ea: \u05d1\u05e0\u05d9\u05d9\u05df \u05e9\u05e8\u05ea - \u05d7\u05d9\u05d9\u05dd \u05dc\u05d1\u05e0\u05d5\u05df 55, \u05ea\u05dc \u05d0\u05d1\u05d9\u05d1-\u05d9\u05e4\u05d5", "addr:country": "IL", "name": "$pop_title", "phone": "052-9440091", "brand": "McDonald\u2019s", "brand:wikidata": "Q38076"}},
{"type": "Feature", "id": "tNhW-fEAl6on0DO-Khn2oeUNHvI=", "properties": {"ref": "261", "@spider": "mcdonalds_il", "addr:full": "\u05db\u05ea\u05d5\u05d1\u05ea: \u05e8\u05e4\u05d0\u05dc \u05d0\u05d9\u05ea\u05df 1, \u05e7\u05e8\u05d9\u05d9\u05ea \u05d0\u05d5\u05e0\u05d5", "addr:country": "IL", "name": "$pop_title", "phone": "054-3360261", "brand": "McDonald\u2019s", "brand:wikidata": "Q38076"}},
{"type": "Feature", "id": "gkSIYcqAFDLDM1eR2nw5Io_bRyo=", "properties": {"ref": "242", "@spider": "mcdonalds_il", "addr:full": "\u05db\u05ea\u05d5\u05d1\u05ea: \u05e6\u05d5\u05de\u05ea \u05e2\u05d9\u05df \u05d0\u05d9\u05d1\u05e8\u05d4\u05d9\u05dd, \u05e9\u05db\u05d5\u05e0\u05ea \u05e7\u05d7\u05d0\u05d5\u05e9, \u05d0\u05d5\u05dd \u05d0\u05dc \u05e4\u05d7\u05dd", "addr:country": "IL", "name": "$pop_title", "phone": "054-3360242", "brand": "McDonald\u2019s", "brand:wikidata": "Q38076"}},
{"type": "Feature", "id": "OI2t9SLCCfqaqx9EV0uo652rKpc=", "properties": {"ref": "264", "@spider": "mcdonalds_il", "addr:full": "\u05db\u05ea\u05d5\u05d1\u05ea: \u05e9\u05d3\u05e8\u05d5\u05ea \u05d9\u05e6\u05d7\u05e7 \u05e8\u05d1\u05d9\u05df 5, \u05e0\u05d5\u05d5\u05d4 \u05e8\u05d1\u05d9\u05df, \u05d0\u05d5\u05e8 \u05d9\u05d4\u05d5\u05d3\u05d4", "addr:country": "IL", "name": "$pop_title", "phone": "054-3360264", "brand": "McDonald\u2019s", "brand:wikidata": "Q38076"}},
{"type": "Feature", "id": "wh33VbAGQCDtYT52A-B-FIbWkSE=", "properties": {"ref": "265", "@spider": "mcdonalds_il", "addr:full": "\u05db\u05ea\u05d5\u05d1\u05ea: \u05d1\u05e2\u05dc\u05d9 \u05d4\u05de\u05dc\u05d0\u05db\u05d4 203, \u05e0\u05ea\u05d9\u05d1\u05d5\u05ea", "addr:country": "IL", "name": "$pop_title", "phone": "054-3360265", "brand": "McDonald\u2019s", "brand:wikidata": "Q38076"}},
{"type": "Feature", "id": "d77fVx-iwk48wHQHeepUWgLNl4Y=", "properties": {"ref": "152", "@spider": "mcdonalds_il", "addr:full": "\u05db\u05ea\u05d5\u05d1\u05ea: \u05d6'\u05d1\u05d5\u05d8\u05d9\u05e0\u05e1\u05e7\u05d9 44/45, \u05d0\u05e9\u05d3\u05d5\u05d3", "addr:country": "IL", "name": "$pop_title", "phone": "052-9440152", "brand": "McDonald\u2019s", "brand:wikidata": "Q38076"}},
{"type": "Feature", "id": "fKeHqsrgWoOZ44wXNXk4mkXPKak=", "properties": {"ref": "130", "@spider": "mcdonalds_il", "addr:full": "\u05db\u05ea\u05d5\u05d1\u05ea: \u05d6'\u05d1\u05d5\u05d8\u05d9\u05e0\u05e1\u05e7\u05d9 44/45, \u05d0\u05e9\u05d3\u05d5\u05d3", "addr:country": "IL", "name": "$pop_title", "phone": "052-9440130", "brand": "McDonald\u2019s", "brand:wikidata": "Q38076"}},
{"type": "Feature", "id": "BgRFucbCETQSeSkrRIcaRAR9srI=", "properties": {"ref": "63", "@spider": "mcdonalds_il", "addr:full": "\u05db\u05ea\u05d5\u05d1\u05ea: \u05e9\u05d3\u05e8\u05d5\u05ea \u05d1\u05df \u05d2\u05d5\u05e8\u05d9\u05d5\u05df 6, \u05d7\u05d9\u05e4\u05d4", "addr:country": "IL", "name": "$pop_title", "phone": "052-9440063", "brand": "McDonald\u2019s", "brand:wikidata": "Q38076"}},
{"type": "Feature", "id": "0c5mSYZYVnQShcnAaiEddlYHgss=", "properties": {"ref": "160", "@spider": "mcdonalds_il", "addr:full": "\u05db\u05ea\u05d5\u05d1\u05ea: \u05d2\u05d9\u05d1\u05d5\u05e8\u05d9 \u05d9\u05e9\u05e8\u05d0\u05dc 5 \u05d0', \u05d0.\u05ea. \u05e4\u05d5\u05dc\u05d2, \u05e0\u05ea\u05e0\u05d9\u05d4", "addr:country": "IL", "name": "$pop_title", "phone": "052-9440160", "brand": "McDonald\u2019s", "brand:wikidata": "Q38076"}},
{"type": "Feature", "id": "Sj9DD-0HlcO1QNxh9vf7ZlfXFlU=", "properties": {"ref": "269", "@spider": "mcdonalds_il", "addr:full": "\u05db\u05ea\u05d5\u05d1\u05ea: \u05d4\u05d2\u05d3\u05d5\u05d3 \u05d4\u05e2\u05d1\u05e8\u05d9 6, \u05d0\u05e9\u05d3\u05d5\u05d3", "addr:country": "IL", "name": "\u05d0\u05d9\u05ea\u05d5\u05e8 \u05de\u05e1\u05e2\u05d3\u05d4", "phone": "054-3360269", "brand": "McDonald\u2019s", "brand:wikidata": "Q38076"}},
{"type": "Feature", "id": "zh7pDOUoBLRCebqKvfPhJEyOGO8=", "properties": {"ref": "253", "@spider": "mcdonalds_il", "addr:full": "\u05db\u05ea\u05d5\u05d1\u05ea: \u05d4\u05d7\u05d9\u05d8\u05d4 1, \u05d1\u05d0\u05e8 \u05e9\u05d1\u05e2", "addr:country": "IL", "name": "$pop_title", "phone": "054-3360253", "brand": "McDonald\u2019s", "brand:wikidata": "Q38076"}},
{"type": "Feature", "id": "-OqLxTOkpL20xgZVzOY9adXDNQo=", "properties": {"ref": "99", "@spider": "mcdonalds_il", "addr:full": "\u05db\u05ea\u05d5\u05d1\u05ea: \u05e6\u05d5\u05de\u05ea \u05d2\u05dc\u05d9\u05dc\u05d5\u05ea, \u05e8\u05de\u05ea \u05d4\u05e9\u05e8\u05d5\u05df", "addr:country": "IL", "name": "\u05e4\u05d5\u05e4\u05d0\u05e3", "phone": "052-9440099", "brand": "McDonald\u2019s", "brand:wikidata": "Q38076"}}]}