{"type":"FeatureCollection","features":[{"type": "Feature", "id": "QaePyo-I-E5nB7oEP6cNxqKaxAo=", "properties": {"ref": "https://mcd.lt/location/neris-vilnius/", "@spider": "mcdonalds_baltics", "addr:country": "LT", "name": "Neris, Vilnius - McDonald's", "website": "https://mcd.lt/location/neris-vilnius/", "brand": "McDonald\u2019s", "brand:wikidata": "Q38076"}, "geometry": {"type": "Point", "coordinates": [25.1748542, 54.6679666]}},
{"type": "Feature", "id": "oxkJAEdz222VHIsHuarXo6gd-t8=", "properties": {"ref": "https://mcd.lt/location/siauliai-siauliai/", "@spider": "mcdonalds_baltics", "addr:country": "LT", "name": "\u0160iauliai, \u0160iauliai - McDonald's", "website": "https://mcd.lt/location/siauliai-siauliai/", "brand": "McDonald\u2019s", "brand:wikidata": "Q38076"}},
{"type": "Feature", "id": "73OqPkgCVWoV1Kez3HigcQYXd3c=", "properties": {"ref": "https://mcdonalds.ee/asukohad/parnu/", "@spider": "mcdonalds_baltics", "addr:country": "EE", "name": "P\u00e4rnu, P\u00e4rnu - McDonald's", "website": "https://mcdonalds.ee/asukohad/parnu/", "brand": "McDonald\u2019s", "brand:wikidata": "Q38076"}, "geometry": {"type": "Point", "coordinates": [24.4926217, 58.4073213]}},
{"type": "Feature", "id": "uEapM6AWRqrlZKecJt54GEPv87c=", "properties": {"ref": "https://mcd.lt/location/svajone-vilnius/", "@spider": "mcdonalds_baltics", "addr:country": "LT", "name": "Svajon\u0117, Vilnius - McDonald's", "website": "https://mcd.lt/location/svajone-vilnius/", "brand": "McDonald\u2019s", "brand:wikidata": "Q38076"}, "geometry": {"type": "Point", "coordinates": [25.2782686, 54.6875012]}},
{"type": "Feature", "id": "OrZCGzvswl8r3kVpFUq-2GuNmS0=", "properties": {"ref": "https://mcdonalds.ee/asukohad/mustamae-tallinn/", "@spider": "mcdonalds_baltics", "addr:country": "EE", "name": "Mustam\u00e4e, Tallinn - McDonald's", "website": "https://mcdonalds.ee/asukohad/mustamae-tallinn/", "brand": "McDonald\u2019s", "brand:wikidata": "Q38076"}, "geometry": {"type": "Point", "coordinates": [24.7004812, 59.4059627]}},
{"type": "Feature", "id": "lTrzNb-weLBWisc51qYLo3OauMk=", "properties": {"ref": "https://mcd.lt/location/parkas-vilnius/", "@spider": "mcdonalds_baltics", "addr:country": "LT", "name": "Parkas, Vilnius - McDonald's", "website": "https://mcd.lt/location/parkas-vilnius/", "brand": "McDonald\u2019s", "brand:wikidata": "Q38076"}, "geometry": {"type": "Point", "coordinates": [25.2853804, 54.6714795]}},
{"type": "Feature", "id": "wqZpQdC6Ed2W7MZNBTEx3EiXUeY=", "properties": {"ref": "https://mcdonalds.ee/asukohad/viru-tallinn/", "@spider": "mcdonalds_baltics", "addr:country": "EE", "name": "Viru, Tallinn\u200b - McDonald's", "website": "https://mcdonalds.ee/asukohad/viru-tallinn/", "brand": "McDonald\u2019s", "brand:wikidata": "Q38076"}, "geometry": {"type": "Point", "coordinates": [24.7498776, 59.4364746]}},
{"type": "Feature", "id": "BycfDXxB8ZUT8_v9HRMAo2qt61s=", "properties": {"ref": "https://mcd.lt/location/iki-vilnius/", "@spider": "mcdonalds_baltics", "addr:country": "LT", "name": "Iki, Vilnius - McDonald's", "website": "https://mcd.lt/location/iki-vilnius/", "brand": "McDonald\u2019s", "brand:wikidata": "Q38076"}, "geometry": {"type": "Point", "coordinates": [25.301460027695, 54.719055826046]}},
{"type": "Feature", "id": "eJ8_SNbndjOPgMnB-j_KpG5RVnE=", "properties": {"ref": "https://mcdonalds.ee/asukohad/lounakeskus-tartu/", "@spider": "mcdonalds_baltics", "addr:country": "EE", "name": "L\u00f5unakeskus, Tartu - McDonald's", "website": "https://mcdonalds.ee/asukohad/lounakeskus-tartu/", "brand": "McDonald\u2019s", "brand:wikidata": "Q38076"}, "geometry": {"type": "Point", "coordinates": [26.6759867, 58.3602246]}},
{"type": "Feature", "id": "l1HipqbozLzQswBnm1oazSUIWX8=", "properties": {"ref": "https://mcd.lt/location/ranga-vilnius/", "@spider": "mcdonalds_baltics", "addr:country": "LT", "name": "Ranga, Vilnius - McDonald's", "website": "https://mcd.lt/location/ranga-vilnius/", "brand": "McDonald\u2019s", "brand:wikidata": "Q38076"}, "geometry": {"type": "Point", "coordinates": [25.246905, 54.720028]}},
{"type": "Feature", "id": "OrZw2Yky7TNAxgFu18NL_DBxjU0=", "properties": {"ref": "https://mcdonalds.ee/asukohad/turu-tartu/", "@spider": "mcdonalds_baltics", "addr:country": "EE", "name": "Turu, Tartu - McDonald's", "website": "https://mcdonalds.ee/asukohad/turu-tartu/", "brand": "McDonald\u2019s", "brand:wikidata": "Q38076"}, "geometry": {"type": "Point", "coordinates": [26.7324454, 58.3766753]}},
{"type": "Feature", "id": "2Q2k4pX-pHfRWchKqp9BwwhHFGI=", "properties": {"ref": "https://mcd.lt/location/gama-kaunas/", "@spider": "mcdonalds_baltics", "addr:country": "LT", "name": "Gama, Kaunas - McDonald's", "website": "https://mcd.lt/location/gama-kaunas/", "brand": "McDonald\u2019s", "brand:wikidata": "Q38076"}, "geometry": {"type": "Point", "coordinates": [23.9534438, 54.9203515]}},
{"type": "Feature", "id": "vdkIwTXz7NiGrFI6_m4gxsoZkCI=", "properties": {"ref": "https://mcdonalds.ee/asukohad/sole-tallinn/", "@spider": "mcdonalds_baltics", "addr:country": "EE", "name": "S\u00f5le, Tallinn - McDonald's", "website": "https://mcdonalds.ee/asukohad/sole-tallinn/", "brand": "McDonald\u2019s", "brand:wikidata": "Q38076"}, "geometry": {"type": "Point", "coordinates": [24.7135218, 59.4324106]}},
{"type": "Feature", "id": "bDtNBDNCuZEPe8tSWucsre56eO8=", "properties": {"ref": "https://mcd.lt/location/taika-klaipeda/", "@spider": "mcdonalds_baltics", "addr:country": "LT", "name": "Taika, Klaip\u0117da - McDonald's", "website": "https://mcd.lt/location/taika-klaipeda/", "brand": "McDonald\u2019s", "brand:wikidata": "Q38076"}, "geometry": {"type": "Point", "coordinates": [21.1542928, 55.6920574]}},
{"type": "Feature", "id": "guaARV_NA9TnIcOOn6RxyRGbF0A=", "properties": {"ref": "https://mcdonalds.lv/location/jelgava-brivibas/", "@spider": "mcdonalds_baltics", "addr:country": "LV", "name": "Jelgava, Jelgava - McDonald's", "website": "https://mcdonalds.lv/location/jelgava-brivibas/", "brand": "McDonald\u2019s", "brand:wikidata": "Q38076"}, "geometry": {"type": "Point", "coordinates": [23.74367326498, 56.657264805449]}},
{"type": "Feature", "id": "xD6KvnxwNHFvlauyyy2ndGTCh8o=", "properties": {"ref": "https://mcd.lt/location/akropolis-vilnius/", "@spider": "mcdonalds_baltics", "addr:country": "LT", "name": "Akropolis, Vilnius - McDonald's", "website": "https://mcd.lt/location/akropolis-vilnius/", "brand": "McDonald\u2019s", "brand:wikidata": "Q38076"}, "geometry": {"type": "Point", "coordinates": [25.2639228, 54.7105279]}},
{"type": "Feature", "id": "sZ-1039uduOYHzEvVYk7na9-6fs=", "properties": {"ref": "https://mcdonalds.ee/asukohad/ulemiste-tallinn/", "@spider": "mcdonalds_baltics", "addr:country": "EE", "name": "\u00dclemiste, Tallinn - McDonald's", "website": "https://mcdonalds.ee/asukohad/ulemiste-tallinn/", "brand": "McDonald\u2019s", "brand:wikidata": "Q38076"}, "geometry": {"type": "Point", "coordinates": [24.793867, 59.4219391]}},
{"type": "Feature", "id": "OxrGNWFaytREm0PJc_nERkrKX3g=", "properties": {"ref": "https://mcdonalds.lv/location/luna-riga/", "@spider": "mcdonalds_baltics", "addr:country": "LV", "name": "Luna, R\u012bga - McDonald's", "website": "https://mcdonalds.lv/location/luna-riga/", "brand": "McDonald\u2019s", "brand:wikidata": "Q38076"}, "geometry": {"type": "Point", "coordinates": [24.1114273, 56.9503999]}},
{"type": "Feature", "id": "B6fNIvgfgzRXZIXX3rHvQN_StMA=", "properties": {"ref": "https://mcd.lt/location/dainava-kaunas/", "@spider": "mcdonalds_baltics", "addr:country": "LT", "name": "Dainava, Kaunas - McDonald's", "website": "https://mcd.lt/location/dainava-kaunas/", "brand": "McDonald\u2019s", "brand:wikidata": "Q38076"}, "geometry": {"type": "Point", "coordinates": [23.984846, 54.9112707]}},
{"type": "Feature", "id": "CcfQ0NeI5Bmg8jNJ7JK6MXqrJxU=", "properties": {"ref": "https://mcdonalds.ee/asukohad/narva/", "@spider": "mcdonalds_baltics", "addr:country": "EE", "name": "Narva, Narva - McDonald's", "website": "https://mcdonalds.ee/asukohad/narva/", "brand": "McDonald\u2019s", "brand:wikidata": "Q38076"}, "geometry": {"type": "Point", "coordinates": [28.1772307, 59.3805435]}},
{"type": "Feature", "id": "Z5DhA5LJske5ZaYDe0a4uSrpJyA=", "properties": {"ref": "https://mcdonalds.lv/location/akropole-riga/", "@spider": "mcdonalds_baltics", "addr:country": "LV", "name": "Akropole, R\u012bga - McDonald's", "website": "https://mcdonalds.lv/location/akropole-riga/", "brand": "McDonald\u2019s", "brand:wikidata": "Q38076"}, "geometry": {"type": "Point", "coordinates": [24.174347519875, 56.92442221162]}},
{"type": "Feature", "id": "6JsJXQJjC-RybsOPkvoDgayFqJg=", "properties": {"ref": "https://mcd.lt/location/panorama-vilnius/", "@spider": "mcdonalds_baltics", "addr:country": "LT", "name": "Panorama, Vilnius - McDonald's", "website": "https://mcd.lt/location/panorama-vilnius/", "brand": "McDonald\u2019s", "brand:wikidata": "Q38076"}, "geometry": {"type": "Point", "coordinates": [25.2598126, 54.6994247]}},
{"type": "Feature", "id": "pkkSCEdRzhOcpoOJnPLeBDPjbG0=", "properties": {"ref": "https://mcdonalds.ee/asukohad/lasnamae-tallinn/", "@spider": "mcdonalds_baltics", "addr:country": "EE", "name": "Lasnam\u00e4e, Tallinn - McDonald's", "website": "https://mcdonalds.ee/asukohad/lasnamae-tallinn/", "brand": "McDonald\u2019s", "brand:wikidata": "Q38076"}, "geometry": {"type": "Point", "coordinates": [24.8747029, 59.4423196]}},
{"type": "Feature", "id": "rl_cUcr70CsjLmCJwrC-7-YmlhA=", "properties": {"ref": "https://mcdonalds.lv/location/spice-riga/", "@spider": "mcdonalds_baltics", "addr:country": "LV", "name": "Spice, R\u012bga - McDonald's", "website": "https://mcdonalds.lv/location/spice-riga/", "brand": "McDonald\u2019s", "brand:wikidata": "Q38076"}, "geometry": {"type": "Point", "coordinates": [24.035178422928, 56.929568583542]}},
{"type": "Feature", "id": "3LEHFIvenl2HDSl66nEucThqWAY=", "properties": {"ref": "https://mcd.lt/location/nordika-vilnius/", "@spider": "mcdonalds_baltics", "addr:country": "LT", "name": "Nordika, Vilnius - McDonald's", "website": "https://mcd.lt/location/nordika-vilnius/", "brand": "McDonald\u2019s", "brand:wikidata": "Q38076"}, "geometry": {"type": "Point", "coordinates": [25.2769025, 54.6525706]}},
{"type": "Feature", "id": "4Vvftcqm2SnYkH7HFB-nTpvCgCM=", "properties": {"ref": "https://mcdonalds.lv/location/alfa-riga/", "@spider": "mcdonalds_baltics", "addr:country": "LV", "name": "Alfa, R\u012bga - McDonald's", "website": "https://mcdonalds.lv/location/alfa-riga/", "brand": "McDonald\u2019s", "brand:wikidata": "Q38076"}, "geometry": {"type": "Point", "coordinates": [24.203943014145, 56.983127121608]}},
{"type": "Feature", "id": "3oPejs1E147WLP6kLbQ62EbxVrw=", "properties": {"ref": "https://mcdonalds.ee/asukohad/rocca-al-mare-tallinn/", "@spider": "mcdonalds_baltics", "addr:country": "EE", "name": "Rocca al Mare, Tallinn - McDonald's", "website": "https://mcdonalds.ee/asukohad/rocca-al-mare-tallinn/", "brand": "McDonald\u2019s", "brand:wikidata": "Q38076"}, "geometry": {"type": "Point", "coordinates": [24.654672145844, 59.425849194635]}},
{"type": "Feature", "id": "2GA5pA_IrxCB_4dPfwnIammlgBk=", "properties": {"ref": "https://mcd.lt/location/vingis-vilnius/", "@spider": "mcdonalds_baltics", "addr:country": "LT", "name": "Vingis, Vilnius - McDonald's", "website": "https://mcd.lt/location/vingis-vilnius/", "brand": "McDonald\u2019s", "brand:wikidata": "Q38076"}, "geometry": {"type": "Point", "coordinates": [25.2565567, 54.6763657]}},
{"type": "Feature", "id": "ZTtBVOzKVcGoIxZOw6GFIELNn1A=", "properties": {"ref": "https://mcdonalds.lv/location/underground-riga/", "@spider": "mcdonalds_baltics", "addr:country": "LV", "name": "Underground, R\u012bga - McDonald's", "website": "https://mcdonalds.lv/location/underground-riga/", "brand": "McDonald\u2019s", "brand:wikidata": "Q38076"}, "geometry": {"type": "Point", "coordinates": [24.1850923, 56.9507564]}},
{"type": "Feature", "id": "utV5SPfuTN7EstDIDBSCCbhIAe8=", "properties": {"ref": "https://mcd.lt/location/nemunas-kaunas/", "@spider": "mcdonalds_baltics", "addr:country": "LT", "name": "Nemunas, Kaunas - McDonald's", "website": "https://mcd.lt/location/nemunas-kaunas/", "brand": "McDonald\u2019s", "brand:wikidata": "Q38076"}, "geometry": {"type": "Point", "coordinates": [23.8981908, 54.894527]}},
{"type": "Feature", "id": "uGsRABUeRflZnXxJQOtZGceWEiw=", "properties": {"ref": "https://mcdonalds.lv/location/vienibas-riga/", "@spider": "mcdonalds_baltics", "addr:country": "LV", "name": "Vien\u012bbas, R\u012bga - McDonald's", "website": "https://mcdonalds.lv/location/vienibas-riga/", "brand": "McDonald\u2019s", "brand:wikidata": "Q38076"}, "geometry": {"type": "Point", "coordinates": [24.082760810852, 56.906952041567]}},
{"type": "Feature", "id": "F5IFeGcNZduJuW2V3LfQ8AtM9yQ=", "properties": {"ref": "https://mcd.lt/location/marijampole-marijampole/", "@spider": "mcdonalds_baltics", "addr:country": "LT", "name": "Marijampol\u0117, Marijampol\u0117 - McDonald's", "website": "https://mcd.lt/location/marijampole-marijampole/", "brand": "McDonald\u2019s", "brand:wikidata": "Q38076"}, "geometry": {"type": "Point", "coordinates": [23.3525307, 54.5610478]}},
{"type": "Feature", "id": "Lv4CEH7HdU0RHyHt5ZOptuYO9Ng=", "properties": {"ref": "https://mcdonalds.lv/location/daugava-riga/", "@spider": "mcdonalds_baltics", "addr:country": "LV", "name": "Daugava, R\u012bga - McDonald's", "website": "https://mcdonalds.lv/location/daugava-riga/", "brand": "McDonald\u2019s", "brand:wikidata": "Q38076"}, "geometry": {"type": "Point", "coordinates": [24.162583351135, 56.924018200159]}},
{"type": "Feature", "id": "qnvmJuzktpZww0DH6VGGV6LDu8M=", "properties": {"ref": "https://mcdonalds.lv/location/parking-place-riga/", "@spider": "mcdonalds_baltics", "addr:country": "LV", "name": "Parking Place, R\u012bga - McDonald's", "website": "https://mcdonalds.lv/location/parking-place-riga/", "brand": "McDonald\u2019s", "brand:wikidata": "Q38076"}, "geometry": {"type": "Point", "coordinates": [24.2438018, 56.9885727]}},
{"type": "Feature", "id": "S4mfRp0K7RKRS0yIyoAX4McTdbs=", "properties": {"ref": "https://mcd.lt/location/mega-kaunas/", "@spider": "mcdonalds_baltics", "addr:country": "LT", "name": "Mega, Kaunas - McDonald's", "website": "https://mcd.lt/location/mega-kaunas/", "brand": "McDonald\u2019s", "brand:wikidata": "Q38076"}, "geometry": {"type": "Point", "coordinates": [23.8998908, 54.9388809]}},
{"type": "Feature", "id": "pUHsdI0Oy1lfDoGxXQ5MlN8UF5Q=", "properties": {"ref": "https://mcd.lt/location/pilaite-vilnius/", "@spider": "mcdonalds_baltics", "addr:country": "LT", "name": "Pilait\u0117, Vilnius - McDonald's", "website": "https://mcd.lt/location/pilaite-vilnius/", "brand": "McDonald\u2019s", "brand:wikidata": "Q38076"}, "geometry": {"type": "Point", "coordinates": [25.2124156, 54.6991043]}},
{"type": "Feature", "id": "1uDWSlgGXaE2Wk0gOVjTxJ3QxP8=", "properties": {"ref": "https://mcdonalds.lv/location/jura-riga/", "@spider": "mcdonalds_baltics", "addr:country": "LV", "name": "J\u016bra, R\u012bga - McDonald's", "website": "https://mcdonalds.lv/location/jura-riga/", "brand": "McDonald\u2019s", "brand:wikidata": "Q38076"}, "geometry": {"type": "Point", "coordinates": [24.023237228394, 56.928819212902]}},
{"type": "Feature", "id": "5SYM3N0lEJjwGRvkjbBOQ6Z9YZM=", "properties": {"ref": "https://mcdonalds.lv/location/imanta-riga/", "@spider": "mcdonalds_baltics", "addr:country": "LV", "name": "Imanta, R\u012bga - McDonald's", "website": "https://mcdonalds.lv/location/imanta-riga/", "brand": "McDonald\u2019s", "brand:wikidata": "Q38076"}, "geometry": {"type": "Point", "coordinates": [24.036176204681, 56.959039691099]}},
{"type": "Feature", "id": "vVeK-Y6HLIeEG0DiYtW8Qb3T7m8=", "properties": {"ref": "https://mcdonalds.lv/location/main-station-riga/", "@spider": "mcdonalds_baltics", "addr:country": "LV", "name": "Main Station, R\u012bga - McDonald's", "website": "https://mcdonalds.lv/location/main-station-riga/", "brand": "McDonald\u2019s", "brand:wikidata": "Q38076"}, "geometry": {"type": "Point", "coordinates": [24.1198772192, 56.948480175979]}},
{"type": "Feature", "id": "u2yzoatcJ3TCrDAp_kQRv3IUZ88=", "properties": {"ref": "https://mcdonalds.lv/location/shopping-center-riga/", "@spider": "mcdonalds_baltics", "addr:country": "LV", "name": "Shopping Center, R\u012bga - McDonald's", "website": "https://mcdonalds.lv/location/shopping-center-riga/", "brand": "McDonald\u2019s", "brand:wikidata": "Q38076"}, "geometry": {"type": "Point", "coordinates": [24.198567867279, 56.93098532128]}}]}