{"type":"FeatureCollection","features":[{"type": "Feature", "id": "sPSXEqqBkHS1DtHYH-JA1PxDoXA=", "properties": {"ref": "0", "@spider": "mcdonalds_my", "addr:full": "Lot 5017 McDonald's, Jalan Changkat Jong, 36000, Teluk Intan, Perak, Malaysia", "addr:country": "MY", "name": "McDonald's Teluk Intan DT", "phone": "05-6211912", "website": "https://www.mcdonalds.com.my", "contact:email": "s233@my.mcd.com", "brand": "McDonald\u2019s", "brand:wikidata": "Q38076"}, "geometry": {"type": "Point", "coordinates": [101.027503, 4.017385]}},
{"type": "Feature", "id": "Tv4WiFEV3AuPFN5wjrgoWOuHyyw=", "properties": {"ref": "1", "@spider": "mcdonalds_my", "addr:full": "Lot 24040 Pekan Sungai Besar, Mukim Panchang Bedena, 45300, Sabak Bernam, Selangor, Malaysia", "addr:country": "MY", "name": "McDonald's Sabak Bernam DT", "phone": "03-32243024", "website": "https://www.mcdonalds.com.my", "contact:email": "s344@my.mcd.com", "brand": "McDonald\u2019s", "brand:wikidata": "Q38076"}, "geometry": {"type": "Point", "coordinates": [100.991464, 3.673571]}},
{"type": "Feature", "id": "RUEQe0pRuKsBKG-kIuYVogzorxE=", "properties": {"ref": "2", "@spider": "mcdonalds_my", "addr:full": "Sebahagian Lot No. 126028, Jalan Batu Sinar, Taman Bandar Baru Kampar, 31900, Kampar, Perak, Malaysia", "addr:country": "MY", "name": "McDonald's Kampar DT", "phone": "05-4658626", "website": "https://www.mcdonalds.com.my", "contact:email": "s255@my.mcd.com", "brand": "McDonald\u2019s", "brand:wikidata": "Q38076"}, "geometry": {"type": "Point", "coordinates": [101.144709, 4.326304]}},
{"type": "Feature", "id": "Vv_OsLS4Gzi__7aMSPy9vs5GiBI=", "properties": {"ref": "3", "@spider": "mcdonalds_my", "addr:full": "Plot 531, Bandar Seri Iskandar, Mukim Bota, 32600, Perak Tengah, Perak, Malaysia", "addr:country": "MY", "name": "McDonald's Seri Iskandar DT", "phone": "05-3713275", "website": "https://www.mcdonalds.com.my", "contact:email": "s293@my.mcd.com", "brand": "McDonald\u2019s", "brand:wikidata": "Q38076"}, "geometry": {"type": "Point", "coordinates": [100.969653, 4.357689]}},
{"type": "Feature", "id": "mheMghiG2mx-ba2C-M5Y9qhQShY=", "properties": {"ref": "4", "@spider": "mcdonalds_my", "addr:full": "Lot 114, Jalan Lumut, Setiawangsa, 32010, Sri Manjung, Perak, Malaysia", "addr:country": "MY", "name": "McDonald's Sri Manjung DT", "phone": "05-6887155", "website": "https://www.mcdonalds.com.my", "contact:email": "s211@my.mcd.com", "brand": "McDonald\u2019s", "brand:wikidata": "Q38076"}, "geometry": {"type": "Point", "coordinates": [100.655218, 4.199318]}},
{"type": "Feature", "id": "Mmd9MadL1wEwgpmf93qlKXtMiNQ=", "properties": {"ref": "5", "@spider": "mcdonalds_my", "addr:full": "Sebahagian Lot 13108, Mukim Lumut, Daerah Manjung, 32010, Sri Manjung, Perak, Malaysia", "addr:country": "MY", "name": "McDonald's Sri Manjung 2 DT             ", "phone": "05-6879482", "website": "https://www.mcdonalds.com.my", "contact:email": "s316@my.mcd.com", "brand": "McDonald\u2019s", "brand:wikidata": "Q38076"}, "geometry": {"type": "Point", "coordinates": [100.655221, 4.199325]}},
{"type": "Feature", "id": "61iXj9NWMLQQSN_h3wBa7pO1ei8=", "properties": {"ref": "6", "@spider": "mcdonalds_my", "addr:full": "No. 686, Jalan Pasir Puteh, Pengkalan Pegoh, 31500, Ipoh, Perak, Malaysia", "addr:country": "MY", "name": "McDonald's Pengkalan DT", "phone": "05-3203764", "website": "https://www.mcdonalds.com.my", "contact:email": "s253@my.mcd.com", "brand": "McDonald\u2019s", "brand:wikidata": "Q38076"}, "geometry": {"type": "Point", "coordinates": [101.07017, 4.542201]}},
{"type": "Feature", "id": "oSG5anhq2d-TdBY1NG9pAZniUPs=", "properties": {"ref": "7", "@spider": "mcdonalds_my", "addr:full": "PN684, Mukim Ulu Kinta, Jalan Gopeng, 31350, Ipoh, Perak, Malaysia", "addr:country": "MY", "name": "McDonald's Jalan Gopeng DT ", "phone": "05-3111916", "website": "https://www.mcdonalds.com.my", "contact:email": "s212@my.mcd.com", "brand": "McDonald\u2019s", "brand:wikidata": "Q38076"}, "geometry": {"type": "Point", "coordinates": [101.112687, 4.57256]}},
{"type": "Feature", "id": "VCIRBBPKoMv35yrCQ6Y3BWaWBeI=", "properties": {"ref": "8", "@spider": "mcdonalds_my", "addr:full": "Lot Pt 3275, Mukim Tanah Rata, 39000, Daerah Cameron Highlands, Pahang Darul Makmur. ", "addr:country": "MY", "name": "McDonald's Cameron Highland DT", "phone": "05-4914107", "website": "https://www.mcdonalds.com.my", "contact:email": "s413@my.mcd.com", "brand": "McDonald\u2019s", "brand:wikidata": "Q38076"}, "geometry": {"type": "Point", "coordinates": [101.390626, 4.496029]}},
{"type": "Feature", "id": "yz2DcJL7JXWaTapyVggFMzQpnik=", "properties": {"ref": "9", "@spider": "mcdonalds_my", "addr:full": "Lot 197129, Plot 2, Jalan Medan Ipoh, 1A Medan Ipoh Bistari, 31400, Ipoh, Perak, Malaysia", "addr:country": "MY", "name": "McDonald's Jalan Sultan Azlan Shah DT", "phone": "05-5464573", "website": "https://www.mcdonalds.com.my", "contact:email": "s216@my.mcd.com", "brand": "McDonald\u2019s", "brand:wikidata": "Q38076"}, "geometry": {"type": "Point", "coordinates": [101.116658, 4.621261]}},
{"type": "Feature", "id": "1ym-tbzxOh27gnHdqLvMDgtE224=", "properties": {"ref": "10", "@spider": "mcdonalds_my", "addr:full": "Mukim Hulu Kinta, Daerah Kinta, Jalan Kuala Kangsar, 31400, Ipoh, Perak, Malaysia", "addr:country": "MY", "name": "McDonald's Jalan Kuala Kangsar DT", "phone": "05-5250562", "website": "https://www.mcdonalds.com.my", "contact:email": "s279@my.mcd.com", "brand": "McDonald\u2019s", "brand:wikidata": "Q38076"}, "geometry": {"type": "Point", "coordinates": [101.087556, 4.633787]}},
{"type": "Feature", "id": "xmCYtsohNVhCyAYiXa2GeU9krD0=", "properties": {"ref": "11", "@spider": "mcdonalds_my", "addr:full": "Lot 303521, Sunway City, Mukim Hulu Kinta, Daerah Kinta, 31150 Ulu Kinta, Ipoh, Perak, Malaysia", "addr:country": "MY", "name": "McDonald's Sunway City Ipoh DT", "phone": "05-5452194", "website": "https://www.mcdonalds.com.my", "contact:email": "s248@my.mcd.com", "brand": "McDonald\u2019s", "brand:wikidata": "Q38076"}, "geometry": {"type": "Point", "coordinates": [101.151631, 4.624887]}},
{"type": "Feature", "id": "9m5SUeLsMKqETn-Bq0qCt_Ttj28=", "properties": {"ref": "12", "@spider": "mcdonalds_my", "addr:full": "Lot 82, Jalan Meru Bestari A2, Diatas Sebahagian Zon 5, Bandar Meru Raya, Mukim Hulu Kinta, 30020, Kinta, Perak, Malaysia", "addr:country": "MY", "name": "McDonald's Meru Raya DT", "phone": "05-5262233", "website": "https://www.mcdonalds.com.my", "contact:email": "s310@my.mcd.com", "brand": "McDonald\u2019s", "brand:wikidata": "Q38076"}, "geometry": {"type": "Point", "coordinates": [101.07766, 4.670849]}},
{"type": "Feature", "id": "GEIrPj9PNNRsQYarHZy6WZzpLRQ=", "properties": {"ref": "13", "@spider": "mcdonalds_my", "addr:full": "PT238632, Persiaran Klebang Putra, Taman Klebang Putra, 31200 Chemor, Perak, Malaysia", "addr:country": "MY", "name": "McDonald's Klebang DT", "phone": "05-2913269", "website": "https://www.mcdonalds.com.my", "contact:email": "s289@my.mcd.com", "brand": "McDonald\u2019s", "brand:wikidata": "Q38076"}, "geometry": {"type": "Point", "coordinates": [101.120584, 4.685182]}},
{"type": "Feature", "id": "duqsPOqZx9eBCzAFSJx-j5hovw8=", "properties": {"ref": "14", "@spider": "mcdonalds_my", "addr:full": "Lot 640, Teluk Piah, Mukim Kuala Selangor, 45000, Kuala Selangor, Selangor, Malaysia", "addr:country": "MY", "name": "McDonald's Kuala Selangor DT", "phone": "03-32811285", "website": "https://www.mcdonalds.com.my", "contact:email": "s265@my.mcd.com", "brand": "McDonald\u2019s", "brand:wikidata": "Q38076"}, "geometry": {"type": "Point", "coordinates": [101.258749, 3.330028]}},
{"type": "Feature", "id": "GuT0Z0hIrsoQ3mHQz2-rff-CK74=", "properties": {"ref": "15", "@spider": "mcdonalds_my", "addr:full": "Lot 2492, Jalan Taiping, Mukim Sayong, 33000 Daerah Kuala Kangsar, Perak Darul Ridzuan  ", "addr:country": "MY", "name": "McDonald's Kuala Kangsar DT ", "phone": "05-7762482", "website": "https://www.mcdonalds.com.my", "contact:email": "s404@my.mcd.com", "brand": "McDonald\u2019s", "brand:wikidata": "Q38076"}, "geometry": {"type": "Point", "coordinates": [100.932845, 4.772459]}},
{"type": "Feature", "id": "_zk-JfP-gsxpZjVWPols9hj86dg=", "properties": {"ref": "16", "@spider": "mcdonalds_my", "addr:full": "Lot 10496, No. 1 Jalan Kamunting, Mukim Serendah, 48300 Daerah Hulu Selangor, Selangor", "addr:country": "MY", "name": "McDonald's PSS Bukit Beruntung DT", "phone": "03-60218371", "website": "https://www.mcdonalds.com.my", "contact:email": "s416@my.mcd.com", "brand": "McDonald\u2019s", "brand:wikidata": "Q38076"}, "geometry": {"type": "Point", "coordinates": [101.557582, 3.41297]}},
{"type": "Feature", "id": "lLBC49iC8b0cQCq5jJkwPxxZmaw=", "properties": {"ref": "17", "@spider": "mcdonalds_my", "addr:full": "Sebahagian Lot 1246, Mukim Rawang, Daerah Gombak, 48000, Rawang, Selangor, Malaysia", "addr:country": "MY", "name": "McDonald's Kota Emerald DT", "phone": "03-60915570", "website": "https://www.mcdonalds.com.my", "contact:email": "s300@my.mcd.com", "brand": "McDonald\u2019s", "brand:wikidata": "Q38076"}, "geometry": {"type": "Point", "coordinates": [101.538584, 3.317667]}},
{"type": "Feature", "id": "7q7CFLDVkD1VxH-QSyVMKa5eVzI=", "properties": {"ref": "18", "@spider": "mcdonalds_my", "addr:full": "No. 97 Jalan Besar, Jalan Simpang, 34000, Taiping, Perak, Malaysia", "addr:country": "MY", "name": "McDonald's Simpang DT", "phone": "05-8472324", "website": "https://www.mcdonalds.com.my", "contact:email": "s278@my.mcd.com", "brand": "McDonald\u2019s", "brand:wikidata": "Q38076"}, "geometry": {"type": "Point", "coordinates": [100.707831, 4.822039]}},
{"type": "Feature", "id": "1oG4vA3d2tRnYtCYW1-Ay_Yfo1w=", "properties": {"ref": "19", "@spider": "mcdonalds_my", "addr:full": "Lot PT 678, Jalan Pusat Bandar, 48000, Rawang, Selangor, Malaysia", "addr:country": "MY", "name": "McDonald's Rawang DT", "phone": "03-60901716", "website": "https://www.mcdonalds.com.my", "contact:email": "s188@my.mcd.com", "brand": "McDonald\u2019s", "brand:wikidata": "Q38076"}, "geometry": {"type": "Point", "coordinates": [101.576902, 3.32015]}},
{"type": "Feature", "id": "OnGhzrDCWLoA1AgnHFAvQUzzR_Y=", "properties": {"ref": "20", "@spider": "mcdonalds_my", "addr:full": "Lot 3410 (PT 1238), Jalan Sultan Mansor, Daerah Larut Dan Matang, 34000, Taiping, Perak, Malaysia", "addr:country": "MY", "name": "McDonald's Taiping Lake Garden DT", "phone": "05-8088795", "website": "https://www.mcdonalds.com.my", "contact:email": "s295@my.mcd.com", "brand": "McDonald\u2019s", "brand:wikidata": "Q38076"}, "geometry": {"type": "Point", "coordinates": [100.745349, 4.85431]}},
{"type": "Feature", "id": "OEmsCWNE4TxMs_9kp0y8G-Dplg8=", "properties": {"ref": "21", "@spider": "mcdonalds_my", "addr:full": "Lot 10655, Jalan Utama, Bandar Puncak Alam, 45010, Kuala Selangor, Selangor, Malaysia", "addr:country": "MY", "name": "McDonald's Puncak Alam DT", "phone": "03-33924370", "website": "https://www.mcdonalds.com.my", "contact:email": "s254@my.mcd.com", "brand": "McDonald\u2019s", "brand:wikidata": "Q38076"}, "geometry": {"type": "Point", "coordinates": [101.447869, 3.221722]}},
{"type": "Feature", "id": "SmmypS3c53SkFeHsnL6Zxm4dIg8=", "properties": {"ref": "22", "@spider": "mcdonalds_my", "addr:full": "Lot G-21 and G-22, Ground Floor, Taiping Sentral, No 36, Jalan Istana Larut, 34000, Taiping, Perak, Malaysia", "addr:country": "MY", "name": "McDonald's Taiping Sentral", "phone": "05-8058167", "website": "https://www.mcdonalds.com.my", "contact:email": "s234@my.mcd.com", "brand": "McDonald\u2019s", "brand:wikidata": "Q38076"}, "geometry": {"type": "Point", "coordinates": [100.731111, 4.865729]}},
{"type": "Feature", "id": "xiIHSUdrT-y5k0-DXq4hq3d4J_U=", "properties": {"ref": "23", "@spider": "mcdonalds_my", "addr:full": "Lot 85631, Jalan U17/16, Bukit Amverton Seksyen U17, 40160 Shah Alam, Selangor", "addr:country": "MY", "name": "McDonald's Amverton DT", "website": "https://www.mcdonalds.com.my", "contact:email": "s439@my.mcd.com", "brand": "McDonald\u2019s", "brand:wikidata": "Q38076"}, "geometry": {"type": "Point", "coordinates": [101.5293271, 3.216468]}},
{"type": "Feature", "id": "04osayFm7X4mmYG_t_VzGtPwK_A=", "properties": {"ref": "24", "@spider": "mcdonalds_my", "addr:full": "No. 4, Lot 33428, Jalan BRP 3/3, Bukit Rahman Putra, Seksyen U20, 40160, Shah Alam, Selangor, Malaysia", "addr:country": "MY", "name": "McDonald's Rahman Putra DT", "phone": "03-61417586", "website": "https://www.mcdonalds.com.my", "contact:email": "s223@my.mcd.com", "brand": "McDonald\u2019s", "brand:wikidata": "Q38076"}, "geometry": {"type": "Point", "coordinates": [101.556665, 3.224623]}},
{"type": "Feature", "id": "T4x6suWBRI-BvyPWRsFyZmjK4Go=", "properties": {"ref": "25", "@spider": "mcdonalds_my", "addr:full": "PT 8938, Jalan Sentul/Batu Caves, Mukim Setapak, Sentul, 51100 Kuala Lumpur", "addr:country": "MY", "name": "McDonald's Shell Jalan Sentul DT", "phone": "016-2127692", "website": "https://www.mcdonalds.com.my", "contact:email": "s398@my.mcd.com", "brand": "McDonald\u2019s", "brand:wikidata": "Q38076"}, "geometry": {"type": "Point", "coordinates": [101.41208, 3.12223]}},
{"type": "Feature", "id": "LXH2EckyaP9-NQ5DHvxukL4I1ls=", "properties": {"ref": "26", "@spider": "mcdonalds_my", "addr:full": "Lot No. G/LG1A.00, Lower Ground Floor, Genting Grand Hotel, Genting Highlands Resort, 69000 Genting Highland, Pahang", "addr:country": "MY", "name": "McDonald's Genting Grand", "website": "https://www.mcdonalds.com.my", "contact:email": "s436@my.mcd.com", "brand": "McDonald\u2019s", "brand:wikidata": "Q38076"}, "geometry": {"type": "Point", "coordinates": [101.7925899, 3.43353]}},
{"type": "Feature", "id": "NVRlV7SQVmzBnHt8V4UtWs6XWzE=", "properties": {"ref": "27", "@spider": "mcdonalds_my", "addr:full": "Lot No. 3, Persiaran Elektron, Denai Alam, Section U16, 40160, Shah Alam, Selangor, Malaysia", "addr:country": "MY", "name": "McDonald's Caltex Denai Alam DT", "phone": "03-77342914", "website": "https://www.mcdonalds.com.my", "contact:email": "s346@my.mcd.com", "brand": "McDonald\u2019s", "brand:wikidata": "Q38076"}, "geometry": {"type": "Point", "coordinates": [101.51307, 3.159427]}},
{"type": "Feature", "id": "v-HP240tuj3e-PU5aHdjHpxQDaY=", "properties": {"ref": "28", "@spider": "mcdonalds_my", "addr:full": "PT 42395, Jalan Nova J U5/J, Subang Bestari, Seksyen U5, 40150 Shah Alam, Selangor.", "addr:country": "MY", "name": "McDonald's Subang Bestari DT", "phone": "03-78311205", "website": "https://www.mcdonalds.com.my", "contact:email": "s399@my.mcd.com", "brand": "McDonald\u2019s", "brand:wikidata": "Q38076"}, "geometry": {"type": "Point", "coordinates": [101.545641, 3.176072]}},
{"type": "Feature", "id": "gmLWaTxclpSoczieTR-F7iQnSGM=", "properties": {"ref": "29", "@spider": "mcdonalds_my", "addr:full": "PT 34532, Jalan Setia Alam AR U13/AR, Setia Alam, Section U13, 40170, Shah Alam, Selangor, Malaysia", "addr:country": "MY", "name": "McDonald's Setia Alam DT", "phone": "03-33582970", "website": "https://www.mcdonalds.com.my", "contact:email": "s365@my.mcd.com", "brand": "McDonald\u2019s", "brand:wikidata": "Q38076"}, "geometry": {"type": "Point", "coordinates": [101.466829, 3.127111]}},
{"type": "Feature", "id": "Q0_HeXklzU9Qm7hJyDVdmbRrBKU=", "properties": {"ref": "30", "@spider": "mcdonalds_my", "addr:full": "No.2, Jalan Klang Sentral/KU05, Bukit Raja, Meru, 41050, Klang, Selangor, Malaysia", "addr:country": "MY", "name": "McDonald's Klang Sentral", "phone": "03-33583012", "website": "https://www.mcdonalds.com.my", "contact:email": "s236@my.mcd.com", "brand": "McDonald\u2019s", "brand:wikidata": "Q38076"}, "geometry": {"type": "Point", "coordinates": [101.441132, 3.110278]}},
{"type": "Feature", "id": "e99NflSkTYwlb85457rd3-tRjDE=", "properties": {"ref": "31", "@spider": "mcdonalds_my", "addr:full": "Lot B.44, Selayang Mall Shopping Centre, Jalan SU 9, Taman Selayang Utama, 68100, Selayang, Selangor, Malaysia", "addr:country": "MY", "name": "McDonald's Selayang Mall ", "phone": "03-61201740", "website": "https://www.mcdonalds.com.my", "contact:email": "s057@my.mcd.com", "brand": "McDonald\u2019s", "brand:wikidata": "Q38076"}, "geometry": {"type": "Point", "coordinates": [101.644754, 3.237539]}},
{"type": "Feature", "id": "TvskPmyuiyshM7X0ayZCK3EnBdo=", "properties": {"ref": "32", "@spider": "mcdonalds_my", "addr:full": "Lot 36327, Jalan PJU 10/1, Damansara Damai, 47000, Sungai Buloh, Selangor, Malaysia", "addr:country": "MY", "name": "McDonald's Damansara Damai DT", "phone": "03-61435573", "website": "https://www.mcdonalds.com.my", "contact:email": "s186@my.mcd.com", "brand": "McDonald\u2019s", "brand:wikidata": "Q38076"}, "geometry": {"type": "Point", "coordinates": [101.591349, 3.19494]}},
{"type": "Feature", "id": "U6zc0Y3f0NVhgb5z0VmybmEyJA4=", "properties": {"ref": "33", "@spider": "mcdonalds_my", "addr:full": "Stesyen Minyak Shell, Lot No. PT 1021 & PT 1022, Jalan Aman, Persiaran Perdana, Desa Aman Puri, 52100, Kepong, Selangor, Malaysia", "addr:country": "MY", "name": "McDonald's Desa Aman Puri DT", "phone": "03-62759170", "website": "https://www.mcdonalds.com.my", "contact:email": "s194@my.mcd.com", "brand": "McDonald\u2019s", "brand:wikidata": "Q38076"}, "geometry": {"type": "Point", "coordinates": [101.614484, 3.20839]}},
{"type": "Feature", "id": "v1kK-kFRFxi_hIZFi28PJbqVcmQ=", "properties": {"ref": "34", "@spider": "mcdonalds_my", "addr:full": "Unit No. LG-40, Setia City Mall, No. 7, Persiaran Setia Dagang, Bandar Setia Alam, Seksyen U13, 40170, Shah Alam, Selangor, Malaysia", "addr:country": "MY", "name": "McDonald's Setia City Mall", "phone": "03-33585287 ", "website": "https://www.mcdonalds.com.my", "contact:email": "s287@my.mcd.com", "brand": "McDonald\u2019s", "brand:wikidata": "Q38076"}, "geometry": {"type": "Point", "coordinates": [101.461522, 3.109525]}},
{"type": "Feature", "id": "xfG7G6YAOcRt8RQ_nQP7jZVvmDw=", "properties": {"ref": "35", "@spider": "mcdonalds_my", "addr:full": "Wisma Lim Foo Yong, Lot No. 62, Seksyen 57, Jalan Raja Chulan, 50250 Kuala Lumpur. ", "addr:country": "MY", "name": "McDonald's Wisma Lim Foo Yong ", "phone": "03-21102479", "website": "https://www.mcdonalds.com.my", "contact:email": "S405@my.mcd.com", "brand": "McDonald\u2019s", "brand:wikidata": "Q38076"}, "geometry": {"type": "Point", "coordinates": [101.42334, 3.09032]}},
{"type": "Feature", "id": "ZAYjqH_KDfmFLsUbgnHxKnU3JGU=", "properties": {"ref": "36", "@spider": "mcdonalds_my", "addr:full": "Lot PT21552 & PT21553, Mukim Sungai Buloh, Persiaran Perdana, 52200, Bandar Sri Damansara, Kuala Lumpur, Malaysia", "addr:country": "MY", "name": "McDonald's Bandar Sri Damansara DT", "phone": "03-62741559", "website": "https://www.mcdonalds.com.my", "contact:email": "s169@my.mcd.com", "brand": "McDonald\u2019s", "brand:wikidata": "Q38076"}, "geometry": {"type": "Point", "coordinates": [101.607767, 3.195093]}},
{"type": "Feature", "id": "Bdjws8h17m_3TFZsw7G7L4P1gJo=", "properties": {"ref": "37", "@spider": "mcdonalds_my", "addr:full": "No. 1 & 2 Jalan 54, Desa Jaya, 52100, Kepong, Selangor, Malaysia", "addr:country": "MY", "name": "McDonald's Kepong ", "phone": "03-62614381", "website": "https://www.mcdonalds.com.my", "contact:email": "s017@my.mcd.com", "brand": "McDonald\u2019s", "brand:wikidata": "Q38076"}, "geometry": {"type": "Point", "coordinates": [101.63281, 3.213549]}},
{"type": "Feature", "id": "xaqmgRCHNLiHYw7p5LQxoXHyQ44=", "properties": {"ref": "38", "@spider": "mcdonalds_my", "addr:full": "Lot 25747, Lebuh Raya Selayang, Kepong Lebuh Raya, Lingkaran Tengah 2 (MRR 2), 52100, Kepong, Kuala Lumpur, Malaysia", "addr:country": "MY", "name": "McDonald's Petronas MRR2 Kepong DT", "phone": "03-62596498", "website": "https://www.mcdonalds.com.my", "contact:email": "s251@my.mcd.com", "brand": "McDonald\u2019s", "brand:wikidata": "Q38076"}, "geometry": {"type": "Point", "coordinates": [101.65503, 3.229265]}},
{"type": "Feature", "id": "zAximc3YU7jO893j6aVz_4OkoFU=", "properties": {"ref": "39", "@spider": "mcdonalds_my", "addr:full": "PT 34062, Batu 3.5 Jalan Kapar, 42100 Selangor Darul Ehsan", "addr:country": "MY", "name": "McDonald's BHP Jalan Kapar", "phone": "03-32901226", "website": "https://www.mcdonalds.com.my", "contact:email": "s353@my.mcd.com", "brand": "McDonald\u2019s", "brand:wikidata": "Q38076"}, "geometry": {"type": "Point", "coordinates": [101.410867, 3.071424]}},
{"type": "Feature", "id": "4yai_ak1cz9JxxBZFzivrhEOJ7U=", "properties": {"ref": "40", "@spider": "mcdonalds_my", "addr:full": "Lot B, Jalan Cecawi 6/18A, Kota Damansara, 47810, Petaling Jaya, Selangor, Malaysia", "addr:country": "MY", "name": "McDonald's Kota Damansara DT", "phone": "03-61561180", "website": "https://www.mcdonalds.com.my", "contact:email": "s178@my.mcd.com", "brand": "McDonald\u2019s", "brand:wikidata": "Q38076"}, "geometry": {"type": "Point", "coordinates": [101.574277, 3.160465]}},
{"type": "Feature", "id": "uXOGax1ZlXlkD7wnOFXL6uJqe88=", "properties": {"ref": "41", "@spider": "mcdonalds_my", "addr:full": "Lot 201, No. 17, Jalan Yong Shook Lin, Menara PKNS Petaling Jaya, Seksyen 7, 46050 Selangor Darul Ehsan", "addr:country": "MY", "name": "McDonald's PKNS PJ DT", "phone": "03-79314943", "website": "https://www.mcdonalds.com.my", "contact:email": "s407@my.mcd.com", "brand": "McDonald\u2019s", "brand:wikidata": "Q38076"}, "geometry": {"type": "Point", "coordinates": [101.3834, 3.05596]}},
{"type": "Feature", "id": "Hq82PlMoIocftK72sMT2N0bLBM4=", "properties": {"ref": "42", "@spider": "mcdonalds_my", "addr:full": "Kawasan Rehat Genting-Sempah, KM 38.4 Lebuhraya KL-Karak, Genting Sempah, 28750, Bentong, Pahang, Malaysia", "addr:country": "MY", "name": "McDonald's Genting Sempah DT", "phone": "09-2330833", "website": "https://www.mcdonalds.com.my", "contact:email": "s117@my.mcd.com", "brand": "McDonald\u2019s", "brand:wikidata": "Q38076"}, "geometry": {"type": "Point", "coordinates": [101.790741, 3.351034]}},
{"type": "Feature", "id": "Bzge0k1TwGaNH38WlndBAUZcEY8=", "properties": {"ref": "43", "@spider": "mcdonalds_my", "addr:full": "Lot GF32 & FF31, Waterfront Parkcity, Persiaran Residen, Desapark City, 52200 Kuala Lumpur. ", "addr:country": "MY", "name": "McDonald's Desa Park City DT", "phone": "03-62610971", "website": "https://www.mcdonalds.com.my", "contact:email": "s373@my.mcd.com", "brand": "McDonald\u2019s", "brand:wikidata": "Q38076"}, "geometry": {"type": "Point", "coordinates": [101.62778, 3.1877337]}},
{"type": "Feature", "id": "NKtQOKVtrQbe93wFTzSLH-XER18=", "properties": {"ref": "44", "@spider": "mcdonalds_my", "addr:full": "Lot PT 1, Batu 6 1/2, Jalan Kepong, 52000 Kuala Lumpur", "addr:country": "MY", "name": "McDonald's BHP Jalan Kepong", "phone": "03-62500090", "website": "https://www.mcdonalds.com.my", "contact:email": "s395@my.mcd.com", "brand": "McDonald\u2019s", "brand:wikidata": "Q38076"}, "geometry": {"type": "Point", "coordinates": [101.653579, 3.208163]}},
{"type": "Feature", "id": "YTicwPBHrTBz9_tX7DwJkHemr3I=", "properties": {"ref": "45", "@spider": "mcdonalds_my", "addr:full": "Lot 58043, Jalan Kuching, Mukim Batu 68100, Wlayah Persekutuan Kuala Lumpur", "addr:country": "MY", "name": "McDonald's Shell Jalan Kuching DT", "website": "https://www.mcdonalds.com.my", "contact:email": "s440@my.mcd.com", "brand": "McDonald\u2019s", "brand:wikidata": "Q38076"}, "geometry": {"type": "Point", "coordinates": [101.6721257, 3.223098]}},
{"type": "Feature", "id": "Ai08dOP9Uk2rMvOQanNjHJM8EhA=", "properties": {"ref": "46", "@spider": "mcdonalds_my", "addr:full": "Part of Petronas Station Kota Damansara,  No 30, Jalan Teknologi, Seksyen 2, PJU5, Kota Damansara, 47810 Petaling Jaya, Selangor", "addr:country": "MY", "name": "McDonald's Petronas Kota Damansara DT", "phone": "03-61503517", "website": "https://www.mcdonalds.com.my", "contact:email": "s370@my.mcd.com", "brand": "McDonald\u2019s", "brand:wikidata": "Q38076"}, "geometry": {"type": "Point", "coordinates": [101.579685, 3.14975]}},
{"type": "Feature", "id": "XHH6JvNd9IjUamWPKNypAs2KN0I=", "properties": {"ref": "47", "@spider": "mcdonalds_my", "addr:full": "Lot 52613, Taman Samudera, 53000, Batu Caves, Selangor, Malaysia", "addr:country": "MY", "name": "McDonald's Batu Caves DT", "phone": "03-61850130", "website": "https://www.mcdonalds.com.my", "contact:email": "s315@my.mcd.com", "brand": "McDonald\u2019s", "brand:wikidata": "Q38076"}, "geometry": {"type": "Point", "coordinates": [101.689724, 3.23509]}},
{"type": "Feature", "id": "pubGQihhheo33M6HzRBU00Nin4I=", "properties": {"ref": "48", "@spider": "mcdonalds_my", "addr:full": "No. 1 Jalan SG. 1/6, Taman Sri Gombak, 68100, Batu Caves , Selangor, Malaysia", "addr:country": "MY", "name": "McDonald's Sri Gombak ", "phone": "03-61889587", "website": "https://www.mcdonalds.com.my", "contact:email": "s143@my.mcd.com", "brand": "McDonald\u2019s", "brand:wikidata": "Q38076"}, "geometry": {"type": "Point", "coordinates": [101.6993, 3.23776]}},
{"type": "Feature", "id": "g5vPJKkHmqbE7XuA3MVqh-CRv5Y=", "properties": {"ref": "49", "@spider": "mcdonalds_my", "addr:full": "Lot No GZF-05 & GZF-06, Ground Floor, The Curve, Mutiara Damansara, 47800, Petaling Jaya, Selangor, Malaysia", "addr:country": "MY", "name": "McDonald's The Curve", "phone": "03-76215834", "website": "https://www.mcdonalds.com.my", "contact:email": "s191@my.mcd.com", "brand": "McDonald\u2019s", "brand:wikidata": "Q38076"}, "geometry": {"type": "Point", "coordinates": [101.612382, 3.157567]}},
{"type": "Feature", "id": "yJRfa_yL1W-CmyS2eNB7LGp2JqA=", "properties": {"ref": "50", "@spider": "mcdonalds_my", "addr:full": "Lot 69683, Jalan PJU 7/5, Mutiara Damansara, Mukim Sungai Buloh, Daerah Petaling, 45000, Selangor, Malaysia", "addr:country": "MY", "name": "McDonald's Mutiara Damansara DT", "phone": "03-77242782", "website": "https://www.mcdonalds.com.my", "contact:email": "s266@my.mcd.com", "brand": "McDonald\u2019s", "brand:wikidata": "Q38076"}, "geometry": {"type": "Point", "coordinates": [101.613659, 3.158188]}},
{"type": "Feature", "id": "k6Q5_bU-S4XFIl295IhZ2VPhftE=", "properties": {"ref": "51", "@spider": "mcdonalds_my", "addr:full": "Lot 5946, Jalan Lingkaran Tengah II, Off Lebuhraya Karak, 53300, Gombak, Selangor, Malaysia", "addr:country": "MY", "name": "McDonald's Project Karak", "phone": "03-61876904", "website": "https://www.mcdonalds.com.my", "contact:email": "s175@my.mcd.com", "brand": "McDonald\u2019s", "brand:wikidata": "Q38076"}, "geometry": {"type": "Point", "coordinates": [101.716157, 3.240989]}},
{"type": "Feature", "id": "Ea3TPH8483CQT1SqQnuy5wi3K8Y=", "properties": {"ref": "52", "@spider": "mcdonalds_my", "addr:full": "Lot LG221, Lower Ground Floor Promenade, 1 Utama Shopping Centre, Persiaran Bandar Utama, Bandar Utama, 47800, Petaling Jaya, Selangor, Malaysia", "addr:country": "MY", "name": "McDonald's 1 Utama", "phone": "03-77262361", "website": "https://www.mcdonalds.com.my", "contact:email": "s256@my.mcd.com", "brand": "McDonald\u2019s", "brand:wikidata": "Q38076"}, "geometry": {"type": "Point", "coordinates": [101.615344, 3.150325]}},
{"type": "Feature", "id": "iJWYUkf2VSwCPL-ns6PwGbkK6KU=", "properties": {"ref": "53", "@spider": "mcdonalds_my", "addr:full": "LOT PT 10098, Jalan Sentul Pasar, Mukim Setapak Dalam, Bandaraya Kuala Lumpur 51000 Kuala Lumpur ", "addr:country": "MY", "name": "McDonald's Sentul UOA DT", "phone": "03-27029214", "website": "https://www.mcdonalds.com.my", "contact:email": "s408@my.mcd.com", "brand": "McDonald\u2019s", "brand:wikidata": "Q38076"}, "geometry": {"type": "Point", "coordinates": [101.689976, 3.202057]}},
{"type": "Feature", "id": "XWhrljd1ftGpJHUEgb6Dt8d9maU=", "properties": {"ref": "54", "@spider": "mcdonalds_my", "addr:full": "No. 5, Persiaran Kayangan Seksyen 7 (Fasa 3C), 40000, Shah Alam, Selangor, Malaysia", "addr:country": "MY", "name": "McDonald's Petron Section 7", "phone": "03-55240645", "website": "https://www.mcdonalds.com.my", "contact:email": "s312@my.mcd.com", "brand": "McDonald\u2019s", "brand:wikidata": "Q38076"}, "geometry": {"type": "Point", "coordinates": [101.490766, 3.065698]}},
{"type": "Feature", "id": "xnKOmGdgtWnWoHF3b42LlXbfnaI=", "properties": {"ref": "55", "@spider": "mcdonalds_my", "addr:full": "No. 5 Lebuh Bandar Utama, PJU 6, Bandar Utama, 47800, Petaling Jaya, Selangor, Malaysia", "addr:country": "MY", "name": "McDonald's Bandar Utama DT", "phone": "03-77265099 ", "website": "https://www.mcdonalds.com.my", "contact:email": "s133@my.mcd.com", "brand": "McDonald\u2019s", "brand:wikidata": "Q38076"}, "geometry": {"type": "Point", "coordinates": [101.609558, 3.137382]}},
{"type": "Feature", "id": "UfGsJyM2e5NcPmVeS9uqKKfc9aU=", "properties": {"ref": "56", "@spider": "mcdonalds_my", "addr:full": "No.4, Jalan RU 3/94, Sect 3, 40000, Shah Alam, Selangor, Malaysia", "addr:country": "MY", "name": "McDonald's Section 3 Shah Alam DT", "phone": "03-55139811", "website": "https://www.mcdonalds.com.my", "contact:email": "s162@my.mcd.com", "brand": "McDonald\u2019s", "brand:wikidata": "Q38076"}, "geometry": {"type": "Point", "coordinates": [101.510395, 3.07445]}},
{"type": "Feature", "id": "Jki_Fwlmx61EO9k_Qfoup1R412s=", "properties": {"ref": "57", "@spider": "mcdonalds_my", "addr:full": "No. 1, Block D, Plaza Mont Kiara, Jalan Bukit Kiara, 50480, Bukit Kiara, Kuala Lumpur, Malaysia", "addr:country": "MY", "name": "McDonald's Mont Kiara ", "phone": "03-62033759", "website": "https://www.mcdonalds.com.my", "contact:email": "s139@my.mcd.com", "brand": "McDonald\u2019s", "brand:wikidata": "Q38076"}, "geometry": {"type": "Point", "coordinates": [101.652203, 3.165745]}},
{"type": "Feature", "id": "LtMA_1aJ7e7ufnWJV1Pe_4Ox5wk=", "properties": {"ref": "58", "@spider": "mcdonalds_my", "addr:full": "G-43, Citta Mall, No 1, Jalan PJU 1A/48, PJU 1A, Ara Damansara, 47301, Petaling Jaya, Selangor, Malaysia", "addr:country": "MY", "name": "McDonald's Citta Mall", "phone": "03-78316952", "website": "https://www.mcdonalds.com.my", "contact:email": "s276@my.mcd.com", "brand": "McDonald\u2019s", "brand:wikidata": "Q38076"}, "geometry": {"type": "Point", "coordinates": [101.579786, 3.11277]}},
{"type": "Feature", "id": "PZwbmOEkW2d4jYs9ZoXwnF6_JyY=", "properties": {"ref": "59", "@spider": "mcdonalds_my", "addr:full": "M01 & M02, Kompleks Idaman, No. 40 - 50, Jalan 2/21D, Medan Idaman, Batu 5 1/4, Jalan Gombak, 53000, Kuala Lumpur, Malaysia", "addr:country": "MY", "name": "McDonald's Gombak ", "phone": "03-40316251", "website": "https://www.mcdonalds.com.my", "contact:email": "s104@my.mcd.com", "brand": "McDonald\u2019s", "brand:wikidata": "Q38076"}, "geometry": {"type": "Point", "coordinates": [101.711531, 3.212711]}},
{"type": "Feature", "id": "aLJFSAUfAsBmj_WcsQe9qvsWmc8=", "properties": {"ref": "60", "@spider": "mcdonalds_my", "addr:full": "Lot 15385 Seksyen PJU 1A, KM 15.4 Arah Utara, Lebuh Baru Lembah Kelang, 40150, Petaling Jaya, Selangor, Malaysia", "addr:country": "MY", "name": "McDonald's NKVE DT", "phone": "03-78028664", "website": "https://www.mcdonalds.com.my", "contact:email": "s203@my.mcd.com", "brand": "McDonald\u2019s", "brand:wikidata": "Q38076"}, "geometry": {"type": "Point", "coordinates": [101.59301, 3.119409]}},
{"type": "Feature", "id": "pYZT8orNiEUNsM_H834vyVFqRG8=", "properties": {"ref": "61", "@spider": "mcdonalds_my", "addr:full": "Lot PT 3358, Seksyen 31, Persiaran Raja Muda Musa (KS05), Bandar Klang, Daerah Klang, 41200, Klang, Selangor, Malaysia", "addr:country": "MY", "name": "McDonald's Persiaran Raja Muda Musa DT", "phone": "03-33701539", "website": "https://www.mcdonalds.com.my", "contact:email": "s290@my.mcd.com", "brand": "McDonald\u2019s", "brand:wikidata": "Q38076"}, "geometry": {"type": "Point", "coordinates": [101.423601, 3.026235]}},
{"type": "Feature", "id": "PzYAMUP9Twf9nI94Gv7YKlkZGDg=", "properties": {"ref": "62", "@spider": "mcdonalds_my", "addr:full": "Lot 3644 HS (D) 70344 &, Lot PT 8081 HS (D) 107241, Taman Melati, Mukim Setapak, 53100, Kuala Lumpur, Malaysia", "addr:country": "MY", "name": "McDonald's Petronas Melati DT", "phone": "03-41473107", "website": "https://www.mcdonalds.com.my", "contact:email": "s214@my.mcd.com", "brand": "McDonald\u2019s", "brand:wikidata": "Q38076"}, "geometry": {"type": "Point", "coordinates": [101.728649, 3.225019]}},
{"type": "Feature", "id": "gtCK0U-OJ6L2gNyZeLFeHIZ0_4I=", "properties": {"ref": "63", "@spider": "mcdonalds_my", "addr:full": "G14 & G36, Tingkat Bawah, Kompleks PKNS, 40000, Shah Alam, Selangor, Malaysia", "addr:country": "MY", "name": "McDonald's PKNS Shah Alam", "phone": "03-55192302", "website": "https://www.mcdonalds.com.my", "contact:email": "s047@my.mcd.com", "brand": "McDonald\u2019s", "brand:wikidata": "Q38076"}, "geometry": {"type": "Point", "coordinates": [101.516984, 3.070532]}},
{"type": "Feature", "id": "DQjMCRbxllkHHM8UQ92kDZHqnbs=", "properties": {"ref": "64", "@spider": "mcdonalds_my", "addr:full": "No. 2, 2A & B, Jalan Tun Mohd Fuad 2, Taman Tun Dr Ismail, 60000, Kuala Lumpur, Malaysia", "addr:country": "MY", "name": "McDonald's TTDI (Taman Tun Dr Ismail)", "phone": "603-77221767", "website": "https://www.mcdonalds.com.my", "contact:email": "s305@my.mcd.com", "brand": "McDonald\u2019s", "brand:wikidata": "Q38076"}, "geometry": {"type": "Point", "coordinates": [101.629209, 3.140522]}},
{"type": "Feature", "id": "XVMrPvOp44CpVwhLYVkeaCpMn4c=", "properties": {"ref": "65", "@spider": "mcdonalds_my", "addr:full": "Lot 17-22, Ground Floor, Giant Hypermarket, Lot 2, Shah Alam Stadium, Persiaran Sukan, Seksyen 13, 41400, Shah Alam, Selangor, Malaysia", "addr:country": "MY", "name": "McDonald's Giant Shah Alam", "phone": "03-55110368", "website": "https://www.mcdonalds.com.my", "contact:email": "s161@my.mcd.com", "brand": "McDonald\u2019s", "brand:wikidata": "Q38076"}, "geometry": {"type": "Point", "coordinates": [101.549024, 3.083907]}},
{"type": "Feature", "id": "6JgWhB5toQP44GtdY_g0-7Dz46g=", "properties": {"ref": "66", "@spider": "mcdonalds_my", "addr:full": "No. 1, Jalan 13/55A, Seksyen 13, 40100 Shah Alam, Selangor Darul Ehsan. ", "addr:country": "MY", "name": "McDonald's Shell Section 13 DT", "phone": "03-55690661", "website": "https://www.mcdonalds.com.my", "contact:email": "s375@my.mcd.com", "brand": "McDonald\u2019s", "brand:wikidata": "Q38076"}, "geometry": {"type": "Point", "coordinates": [101.55331, 3.0857043]}},
{"type": "Feature", "id": "YrswWoW3k6r-6q6SWq5jQI4ypKY=", "properties": {"ref": "67", "@spider": "mcdonalds_my", "addr:full": "Part of Lot 201138, Jalan Langkawi, Mukim Setapak, Taman Danau Kota, 53300 Kuala Lumpur.", "addr:country": "MY", "name": "McDonald's Danau Kota DT", "phone": "03-41310897", "website": "https://www.mcdonalds.com.my", "contact:email": "s371@my.mcd.com", "brand": "McDonald\u2019s", "brand:wikidata": "Q38076"}, "geometry": {"type": "Point", "coordinates": [101.71755680000001, 3.2066149]}},
{"type": "Feature", "id": "SdwiCXsoNOEcOAZKzrHri3PbSgs=", "properties": {"ref": "68", "@spider": "mcdonalds_my", "addr:full": "Lot PT 8669, Jalan Lingkaran Tengah II, 53100, Kuala Lumpur, Malaysia", "addr:country": "MY", "name": "McDonald's BHP Taman Melawati DT", "phone": "03-41622318", "website": "https://www.mcdonalds.com.my", "contact:email": "s328@my.mcd.com", "brand": "McDonald\u2019s", "brand:wikidata": "Q38076"}, "geometry": {"type": "Point", "coordinates": [101.735889, 3.220217]}},
{"type": "Feature", "id": "Ad8pEn0W1L7se5Q6prapain_Qfc=", "properties": {"ref": "69", "@spider": "mcdonalds_my", "addr:full": "Lot PT 3630, Jalan SS 6/12, Kelana Jaya, 47301 Petaling Jaya, Selangor", "addr:country": "MY", "name": "McDonald's Shell SS6", "phone": "03-78028854", "website": "https://www.mcdonalds.com.my", "contact:email": "S380@my.mcd.com", "brand": "McDonald\u2019s", "brand:wikidata": "Q38076"}, "geometry": {"type": "Point", "coordinates": [101.5975, 3.105129]}},
{"type": "Feature", "id": "Uph_aPkXV6WZz6MMJmHlRz5U7ng=", "properties": {"ref": "70", "@spider": "mcdonalds_my", "addr:full": "No. 56 Jalan SS 2/61, 47300, Petaling Jaya, Selangor, Malaysia", "addr:country": "MY", "name": "McDonald's SS 2 ", "phone": "03-78731026", "website": "https://www.mcdonalds.com.my", "contact:email": "s016@my.mcd.com", "brand": "McDonald\u2019s", "brand:wikidata": "Q38076"}, "geometry": {"type": "Point", "coordinates": [101.620423, 3.118274]}},
{"type": "Feature", "id": "86-QBKUIXedXfPC2Eps07JBfFlI=", "properties": {"ref": "71", "@spider": "mcdonalds_my", "addr:full": "Lot 8, Section 85, Jalan Pahang, 53000, Setapak, Kuala Lumpur, Malaysia", "addr:country": "MY", "name": "McDonald's Titiwangsa DT", "phone": "03-40232602", "website": "https://www.mcdonalds.com.my", "contact:email": "s020@my.mcd.com", "brand": "McDonald\u2019s", "brand:wikidata": "Q38076"}, "geometry": {"type": "Point", "coordinates": [101.700383, 3.179551]}},
{"type": "Feature", "id": "VqWKQuZ6_o3HXIHsTcGZSHiQ1C8=", "properties": {"ref": "72", "@spider": "mcdonalds_my", "addr:full": "No. 2, Jalan Sri Sarawak 18, Taman Sri Andalas, 41200, Klang, Selangor, Malaysia", "addr:country": "MY", "name": "McDonald's Taman Sri Andalas", "phone": "03-33247937", "website": "https://www.mcdonalds.com.my", "contact:email": "s160@my.mcd.com", "brand": "McDonald\u2019s", "brand:wikidata": "Q38076"}, "geometry": {"type": "Point", "coordinates": [101.442557, 3.016452]}},
{"type": "Feature", "id": "vYGzk3e4eHtYdWFUOmMv_wiBi3Q=", "properties": {"ref": "73", "@spider": "mcdonalds_my", "addr:full": "Lot 1, Persiaran Batu Nilam, Bandar Baru Bukit Tinggi, 41200, Klang, Selangor, Malaysia", "addr:country": "MY", "name": "McDonald's Bukit Tinggi DT", "phone": "03-33243190", "website": "https://www.mcdonalds.com.my", "contact:email": "s184@my.mcd.com", "brand": "McDonald\u2019s", "brand:wikidata": "Q38076"}, "geometry": {"type": "Point", "coordinates": [101.432729, 3.007941]}},
{"type": "Feature", "id": "CxJSg-TjUZ5ofM5-qMoI_gEL9dA=", "properties": {"ref": "74", "@spider": "mcdonalds_my", "addr:full": "Lot PT 5, HD(D) 239246, Batu 3 Federal Highway, Pekan Country Height (Federal Highway Klang Bound), Daerah Petaling, 46150 Subang Jaya, Selangor", "addr:country": "MY", "name": "Petronas Batu 3 Federal Highway DT", "phone": "016-2238193", "website": "https://www.mcdonalds.com.my", "contact:email": "s382@my.mcd.com", "brand": "McDonald\u2019s", "brand:wikidata": "Q38076"}, "geometry": {"type": "Point", "coordinates": [101.572347, 3.080722]}},
{"type": "Feature", "id": "AVrRfADkWb-KUhUenronH6boLME=", "properties": {"ref": "75", "@spider": "mcdonalds_my", "addr:full": "Lot G-13, Ground Floor, Alpha Angle Complex, Jalan R1, Wangsa Maju, 53000, Setapak, Kuala Lumpur, Malaysia", "addr:country": "MY", "name": "McDonald's Alpha Angle ", "phone": "03-41311340", "website": "https://www.mcdonalds.com.my", "contact:email": "s028@my.mcd.com", "brand": "McDonald\u2019s", "brand:wikidata": "Q38076"}, "geometry": {"type": "Point", "coordinates": [101.734244, 3.202098]}},
{"type": "Feature", "id": "rhHNskJjh8Z5CNEYN8Ac2aNsJrA=", "properties": {"ref": "76", "@spider": "mcdonalds_my", "addr:full": "PT 128899, Batu 3 1/2, Jalan Kebun, Taman Maznah, 41000, Bandar Klang, Daerah Klang, Selangor, Malaysia", "addr:country": "MY", "name": "McDonald's Giant Jalan Kebun DT", "phone": "03-33701985", "website": "https://www.mcdonalds.com.my", "contact:email": "s318@my.mcd.com", "brand": "McDonald\u2019s", "brand:wikidata": "Q38076"}, "geometry": {"type": "Point", "coordinates": [101.479994, 3.024657]}},
{"type": "Feature", "id": "BT93XdxcWCHeguiJePmNutbS84s=", "properties": {"ref": "77", "@spider": "mcdonalds_my", "addr:full": "No. 37, Jalan Pinang 18B, Section 18, 40200, Shah Alam, Selangor, Malaysia", "addr:country": "MY", "name": "McDonald's Section 18 Shah Alam", "phone": "03-55495398", "website": "https://www.mcdonalds.com.my", "contact:email": "s151@my.mcd.com", "brand": "McDonald\u2019s", "brand:wikidata": "Q38076"}, "geometry": {"type": "Point", "coordinates": [101.51807, 3.044239]}},
{"type": "Feature", "id": "5FFObJ0N8s4f_cxFstYIe2mRCOE=", "properties": {"ref": "78", "@spider": "mcdonalds_my", "addr:full": "LG 10 Subang Parade, No. 5 Jalan SS 16/1, 47500, Subang Jaya, Selangor, Malaysia", "addr:country": "MY", "name": "McDonald's Subang Parade ", "phone": "03-55495398", "website": "https://www.mcdonalds.com.my", "contact:email": "s018@my.mcd.com", "brand": "McDonald\u2019s", "brand:wikidata": "Q38076"}, "geometry": {"type": "Point", "coordinates": [101.585211, 3.081861]}},
{"type": "Feature", "id": "mVBOLg7BjWDduCJhMestaBbTqJc=", "properties": {"ref": "79", "@spider": "mcdonalds_my", "addr:full": "No 9, Jalan Fletcher, 50400 Kuala Lumpur", "addr:country": "MY", "name": "McDonald's Jalan Tun Razak DT", "website": "https://www.mcdonalds.com.my", "contact:email": "s445@my.mcd.com", "brand": "McDonald\u2019s", "brand:wikidata": "Q38076"}, "geometry": {"type": "Point", "coordinates": [101.7086, 3.1721]}},
{"type": "Feature", "id": "2-wA5KbTJJuC2I_rmOYgYCEeQJA=", "properties": {"ref": "80", "@spider": "mcdonalds_my", "addr:full": "No.1 Jalan SS15/3A, 47500, Subang Jaya, Selangor, Malaysia", "addr:country": "MY", "name": "McDonald's Subang DT", "phone": "015-96049975", "website": "https://www.mcdonalds.com.my", "contact:email": "s164@my.mcd.com", "brand": "McDonald\u2019s", "brand:wikidata": "Q38076"}, "geometry": {"type": "Point", "coordinates": [101.585985, 3.079081]}},
{"type": "Feature", "id": "XehaS2KhFM2xQTM9ZXVVxscph6c=", "properties": {"ref": "81", "@spider": "mcdonalds_my", "addr:full": "Lot 1, Level1, BUSANA, Menara MARA, No. 232, Jalan Tuanku Abdul Rahman, 50100, Kuala Lumpur , Malaysia", "addr:country": "MY", "name": "McDonald's M2 Mall", "phone": "03-22028034", "website": "https://www.mcdonalds.com.my", "contact:email": "s285@my.mcd.com", "brand": "McDonald\u2019s", "brand:wikidata": "Q38076"}, "geometry": {"type": "Point", "coordinates": [101.695732, 3.157924]}},
{"type": "Feature", "id": "SNujEwsIC3rl-NfLiNwFPVrG-U4=", "properties": {"ref": "82", "@spider": "mcdonalds_my", "addr:full": "Lot 6, LGF Sogo Pernas Department Stores S/B, 190, Jalan Tuanku Abdul Rahman, 50100, Kuala Lumpur, Malaysia", "addr:country": "MY", "name": "McDonald's SOGO", "phone": "03-22028063", "website": "https://www.mcdonalds.com.my", "contact:email": "s045@my.mcd.com", "brand": "McDonald\u2019s", "brand:wikidata": "Q38076"}, "geometry": {"type": "Point", "coordinates": [101.695574, 3.156262]}},
{"type": "Feature", "id": "ikSL9NSQG4up-HBE2VVQIBXzf8w=", "properties": {"ref": "83", "@spider": "mcdonalds_my", "addr:full": "Lots F2.43, F2.44, F2.45, Level F2, Aeon Wangsa Maju, No. 6 Jalan 8/27A, Section 5, 53300, , Kuala Lumpur, Malaysia", "addr:country": "MY", "name": "McDonald's AEON Wangsa Maju", "phone": "03-41495655", "website": "https://www.mcdonalds.com.my", "contact:email": "s147@my.mcd.com", "brand": "McDonald\u2019s", "brand:wikidata": "Q38076"}, "geometry": {"type": "Point", "coordinates": [101.743032, 3.196319]}},
{"type": "Feature", "id": "bK1-Ma4fVOWUMDwlwf6Fstra-rY=", "properties": {"ref": "84", "@spider": "mcdonalds_my", "addr:full": "Lot 28332, Jalan 8/27A, Pusat Bandar Wangsa Maju, 53300 Kuala Lumpur", "addr:country": "MY", "name": "McDonald's Shell Wangsa Maju DT", "website": "https://www.mcdonalds.com.my", "contact:email": "s444@my.mcd.com", "brand": "McDonald\u2019s", "brand:wikidata": "Q38076"}, "geometry": {"type": "Point", "coordinates": [101.744674130684, 3.19744]}},
{"type": "Feature", "id": "hwXBVEEh4S9OqcxCj1dF4COJo8g=", "properties": {"ref": "85", "@spider": "mcdonalds_my", "addr:full": "No.2, Jalan 14/4, 46100, Petaling Jaya, Selangor, Malaysia", "addr:country": "MY", "name": "McDonald's Section 14 ", "phone": "03-79312673", "website": "https://www.mcdonalds.com.my", "contact:email": "s004@my.mcd.com", "brand": "McDonald\u2019s", "brand:wikidata": "Q38076"}, "geometry": {"type": "Point", "coordinates": [101.637001, 3.109608]}},
{"type": "Feature", "id": "T_leltGQFe7Ez1htyFu_jBMqmII=", "properties": {"ref": "86", "@spider": "mcdonalds_my", "addr:full": "48, Jalan Telawi Lima, 59100, Bangsar Baru, Bangsar, Kuala Lumpur, Malaysia", "addr:country": "MY", "name": "McDonald's Bangsar", "phone": "03-22843790 ", "website": "https://www.mcdonalds.com.my", "contact:email": "s008@my.mcd.com", "brand": "McDonald\u2019s", "brand:wikidata": "Q38076"}, "geometry": {"type": "Point", "coordinates": [101.672297, 3.13295]}},
{"type": "Feature", "id": "DkdMNzTYHjmg3zbuvku8IvGuiJ8=", "properties": {"ref": "87", "@spider": "mcdonalds_my", "addr:full": "GF, No. 82 & 84, Jalan SS 15/4D, 47500, Subang Jaya, Selangor, Malaysia", "addr:country": "MY", "name": "McDonald's SS15 Subang", "phone": "03-56110172", "website": "https://www.mcdonalds.com.my", "contact:email": "s140@my.mcd.com", "brand": "McDonald\u2019s", "brand:wikidata": "Q38076"}, "geometry": {"type": "Point", "coordinates": [101.590526, 3.073651]}},
{"type": "Feature", "id": "UfhhukzW-tJwMFDk9lpkK0OSeYg=", "properties": {"ref": "88", "@spider": "mcdonalds_my", "addr:full": "38, Jalan Tun Perak, Ground & Mezzanine Floor, Wisma Teck Lee, 50050, Kuala Lumpur, Malaysia", "addr:country": "MY", "name": "McDonald's Jalan Tun Perak ", "phone": "03-20266899 ", "website": "https://www.mcdonalds.com.my", "contact:email": "s101@my.mcd.com", "brand": "McDonald\u2019s", "brand:wikidata": "Q38076"}, "geometry": {"type": "Point", "coordinates": [101.696865, 3.149178]}},
{"type": "Feature", "id": "OjSE6EuKK7NVVPr2SQGYPM99Y4c=", "properties": {"ref": "89", "@spider": "mcdonalds_my", "addr:full": "AEON Bukit Tinggi Shopping Centre, No. 1, Persiaran Batu Nilam 1/KS6, Bandar Bukit Tinggi 2, 41200, Klang, Selangor, Malaysia", "addr:country": "MY", "name": "McDonald's AEON Bukit Tinggi", "phone": "03-33188457", "website": "https://www.mcdonalds.com.my", "contact:email": "s218@my.mcd.com", "brand": "McDonald\u2019s", "brand:wikidata": "Q38076"}, "geometry": {"type": "Point", "coordinates": [101.444921, 2.994316]}},
{"type": "Feature", "id": "CUb-ePV1uUCC7Wl2LHFjaU98nsg=", "properties": {"ref": "90", "@spider": "mcdonalds_my", "addr:full": "Lot 517, 276 & 277, Batu 7, Lebuhraya Lingkaran Tengah 2, MRR2, 53300, Mukim Ulu Kelang, Selangor, Malaysia", "addr:country": "MY", "name": "McDonald's Ulu Kelang", "phone": "03-41617604", "website": "https://www.mcdonalds.com.my", "contact:email": "s193@my.mcd.com", "brand": "McDonald\u2019s", "brand:wikidata": "Q38076"}, "geometry": {"type": "Point", "coordinates": [101.760348, 3.202369]}},
{"type": "Feature", "id": "b9wagZLfnVxBkJmgsvUUcnRToqo=", "properties": {"ref": "91", "@spider": "mcdonalds_my", "addr:full": "Lot G-W-1, Ground Floor, West Wing, Rohas Pure Circle, No 9, Jalan P Ramlee, 50450 Kuala Lumpur", "addr:country": "MY", "name": "McDonald's Jalan P. Ramlee", "phone": "03-21815851", "website": "https://www.mcdonalds.com.my", "contact:email": "s392@my.mcd.com", "brand": "McDonald\u2019s", "brand:wikidata": "Q38076"}, "geometry": {"type": "Point", "coordinates": [101.708461, 3.154587]}},
{"type": "Feature", "id": "GabBd1wXvgQ0CKJSOcNFd7AJrGs=", "properties": {"ref": "92", "@spider": "mcdonalds_my", "addr:full": "Lot C35 - 38, Concourse Floor, Suria KLCC Shopping Centre, Jalan Ampang, 50088, Kuala Lumpur, Malaysia", "addr:country": "MY", "name": "McDonald's Suria KLCC", "phone": "03-27151512", "website": "https://www.mcdonalds.com.my", "contact:email": "s360@my.mcd.com", "brand": "McDonald\u2019s", "brand:wikidata": "Q38076"}, "geometry": {"type": "Point", "coordinates": [101.712164, 3.157474]}},
{"type": "Feature", "id": "Tuh1ojHD57I8AYCOOEl3dRoMysI=", "properties": {"ref": "93", "@spider": "mcdonalds_my", "addr:full": "Lot PT 118176 Jalan Langat, Bandar Botanik, 41200 Klang, Selangor", "addr:country": "MY", "name": "McDonald's Shell Bandar Botanik DT", "website": "https://www.mcdonalds.com.my", "contact:email": "s428@my.mcd.com", "brand": "McDonald\u2019s", "brand:wikidata": "Q38076"}, "geometry": {"type": "Point", "coordinates": [101.4477997, 2.99088]}},
{"type": "Feature", "id": "SnJ3CeKdm0EOEVfrhq9I39lJpo0=", "properties": {"ref": "94", "@spider": "mcdonalds_my", "addr:full": "Lot 14, 15, & 16, First Floor, Kuala Lumpur Sentral Station, 50470, Kuala Lumpur, Malaysia", "addr:country": "MY", "name": "McDonald's KL Sentral", "phone": "03-22711431", "website": "https://www.mcdonalds.com.my", "contact:email": "s155@my.mcd.com", "brand": "McDonald\u2019s", "brand:wikidata": "Q38076"}, "geometry": {"type": "Point", "coordinates": [101.686593, 3.134615]}},
{"type": "Feature", "id": "q8Q1BZppGc6TCHezxR8NeC2E7DQ=", "properties": {"ref": "95", "@spider": "mcdonalds_my", "addr:full": "No.2, Jalan 22/6, Seksyen 22, 40300, Shah Alam, Selangor, Malaysia", "addr:country": "MY", "name": "McDonald's Section 22 Shah Alam DT", "phone": "03-51037743", "website": "https://www.mcdonalds.com.my", "contact:email": "s213@my.mcd.com", "brand": "McDonald\u2019s", "brand:wikidata": "Q38076"}, "geometry": {"type": "Point", "coordinates": [101.547503, 3.040568]}},
{"type": "Feature", "id": "kWnCpp9M1Eb0PFZ9NfaBR2o50RI=", "properties": {"ref": "96", "@spider": "mcdonalds_my", "addr:full": "Lot No. G17, G17A & G17B, Ground Floor, Intermark Mall, 348, Jalan Tun Razak, 50400, Kuala Lumpur, Malaysia", "addr:country": "MY", "name": "McDonald's Intermark Mall", "phone": "03-27155667", "website": "https://www.mcdonalds.com.my", "contact:email": "s364@my.mcd.com", "brand": "McDonald\u2019s", "brand:wikidata": "Q38076"}, "geometry": {"type": "Point", "coordinates": [101.720181, 3.161279]}},
{"type": "Feature", "id": "oWIWuIM-WoVTYvemXAEKCmnh85U=", "properties": {"ref": "97", "@spider": "mcdonalds_my", "addr:full": "Unit No. L4. 02 & 03, Level 4, 1 Sentral, Jalan Travers, 50470, Kuala Lumpur, Malaysia", "addr:country": "MY", "name": "McDonald's NU Sentral", "phone": "03-22722054", "website": "https://www.mcdonalds.com.my", "contact:email": "s331@my.mcd.com", "brand": "McDonald\u2019s", "brand:wikidata": "Q38076"}, "geometry": {"type": "Point", "coordinates": [101.687277, 3.133295]}},
{"type": "Feature", "id": "lgv1O8dgKJVFk3rVvLpksmDyjc4=", "properties": {"ref": "98", "@spider": "mcdonalds_my", "addr:full": "Lot 16794 & 16795, Jalan 37/56, Taman Setiawangsa, 54200, Kuala Lumpur, Malaysia", "addr:country": "MY", "name": "McDonald's Setiawangsa DT", "phone": "03-42651384", "website": "https://www.mcdonalds.com.my", "contact:email": "s173@my.mcd.com", "brand": "McDonald\u2019s", "brand:wikidata": "Q38076"}, "geometry": {"type": "Point", "coordinates": [101.743585, 3.178129]}},
{"type": "Feature", "id": "lZHjfKE9cDvlZrHCD3ixIwga6UY=", "properties": {"ref": "99", "@spider": "mcdonalds_my", "addr:full": "LL2.41, Sunway Pyramid Megamall, No. 3, Jalan PJS 11/15, Bandar Sunway, 46150, Selangor, Malaysia", "addr:country": "MY", "name": "McDonald's Sunway Pyramid ", "phone": "03-56112097", "website": "https://www.mcdonalds.com.my", "contact:email": "s100@my.mcd.com", "brand": "McDonald\u2019s", "brand:wikidata": "Q38076"}, "geometry": {"type": "Point", "coordinates": [101.607403, 3.071924]}},
{"type": "Feature", "id": "nry1V5CVHElE2dWDkpqBzDNaoGU=", "properties": {"ref": "100", "@spider": "mcdonalds_my", "addr:full": "No. 30 Sunway Mentari, Ground Floor Dataran Mentari, Jalan PJS 8/2, 46150, Petaling Jaya, Selangor, Malaysia", "addr:country": "MY", "name": "McDonald's Sunway Mentari", "phone": "03-56117941", "website": "https://www.mcdonalds.com.my", "contact:email": "s156@my.mcd.com", "brand": "McDonald\u2019s", "brand:wikidata": "Q38076"}, "geometry": {"type": "Point", "coordinates": [101.612113, 3.074902]}},
{"type": "Feature", "id": "1_8S2uh26m4tSgIoEJUr0D9nDzU=", "properties": {"ref": "101", "@spider": "mcdonalds_my", "addr:full": "120-120A Jalan Bukit Bintang, 55100, Kuala Lumpur, Malaysia", "addr:country": "MY", "name": "McDonald's Bukit Bintang", "phone": "03-21427843  ", "website": "https://www.mcdonalds.com.my", "contact:email": "s001@my.mcd.com", "brand": "McDonald\u2019s", "brand:wikidata": "Q38076"}, "geometry": {"type": "Point", "coordinates": [101.710931, 3.146847]}},
{"type": "Feature", "id": "tcpKvoNbQzAbuJEZrrRYDvz8c4s=", "properties": {"ref": "102", "@spider": "mcdonalds_my", "addr:full": "Tingkat 3, Mid Valley Megamall, Lingkaran Syed Putra, 59200, Kuala Lumpur, Malaysia", "addr:country": "MY", "name": "McDonald's Mid Valley 3", "phone": "03-22010506", "website": "https://www.mcdonalds.com.my", "contact:email": "s347@my.mcd.com", "brand": "McDonald\u2019s", "brand:wikidata": "Q38076"}, "geometry": {"type": "Point", "coordinates": [101.677572, 3.117399]}},
{"type": "Feature", "id": "WGqquYo0TH3HTXxAzik_BFyUY5A=", "properties": {"ref": "103", "@spider": "mcdonalds_my", "addr:full": "Lot 05-93, 93A, No. 1, Jalan Imbi, 55100, Kuala Lumpur, Malaysia", "addr:country": "MY", "name": "McDonald's Berjaya Times Square", "phone": "03-21100154", "website": "https://www.mcdonalds.com.my", "contact:email": "s176@my.mcd.com", "brand": "McDonald\u2019s", "brand:wikidata": "Q38076"}, "geometry": {"type": "Point", "coordinates": [101.710819, 3.142065]}},
{"type": "Feature", "id": "MXL9tt0IM4zBXCIvZ8dkOX34fWM=", "properties": {"ref": "104", "@spider": "mcdonalds_my", "addr:full": "Lot 133826, Lebuh Sanggul 1/KS7, Bandar Puteri, 41200, Klang, Selangor, Malaysia", "addr:country": "MY", "name": "McDonald's Caltex Bandar Puteri Klang DT", "phone": "03-51623985", "website": "https://www.mcdonalds.com.my", "contact:email": "s262@my.mcd.com", "brand": "McDonald\u2019s", "brand:wikidata": "Q38076"}, "geometry": {"type": "Point", "coordinates": [101.465999, 2.988257]}},
{"type": "Feature", "id": "OJfgzt1KmLjRn_skqrf5SrNQYSo=", "properties": {"ref": "105", "@spider": "mcdonalds_my", "addr:full": "225, Bukit Bintang St, Imbi, 55100 Kuala Lumpur, Federal Territory Of Kuala Lumpur", "addr:country": "MY", "name": "McDonald's Shell Bukit Bintang DT", "website": "https://www.mcdonalds.com.my", "contact:email": "s434@my.mcd.com", "brand": "McDonald\u2019s", "brand:wikidata": "Q38076"}, "geometry": {"type": "Point", "coordinates": [101.7178428, 3.14752]}},
{"type": "Feature", "id": "FpQ2XWivqOQyJsCZxPVTJYsbkO8=", "properties": {"ref": "106", "@spider": "mcdonalds_my", "addr:full": "No 4, Jalan USJ 10/1, Taipan USJ, Subang Jaya, 47620, USJ, Selangor, Malaysia", "addr:country": "MY", "name": "McDonald's Taipan ", "phone": "03-80115219", "website": "https://www.mcdonalds.com.my", "contact:email": "s053@my.mcd.com", "brand": "McDonald\u2019s", "brand:wikidata": "Q38076"}, "geometry": {"type": "Point", "coordinates": [101.585878, 3.048248]}},
{"type": "Feature", "id": "uuO2v0-wjc01siQgJ8V18UgKndg=", "properties": {"ref": "107", "@spider": "mcdonalds_my", "addr:full": "No.66, Block Crystal, Jalan 1/19, 46200, Petaling Jaya, Selangor, Malaysia", "addr:country": "MY", "name": "McDonald's PJ Old Town ", "phone": "03-77836755", "website": "https://www.mcdonalds.com.my", "contact:email": "s040@my.mcd.com", "brand": "McDonald\u2019s", "brand:wikidata": "Q38076"}, "geometry": {"type": "Point", "coordinates": [101.64686, 3.086649]}},
{"type": "Feature", "id": "tMUCYOrNOPaHAolKLRYvKxK9fQs=", "properties": {"ref": "108", "@spider": "mcdonalds_my", "addr:full": "Lay By 3, Hentian Sebelah Petaling Jaya, Lebuhraya Damansara Puchong, Bandar Sunway, PJS 9, 47600, Petaling Jaya, Selangor, Malaysia", "addr:country": "MY", "name": "McDonald's Litrak DT", "phone": "03-56328658", "website": "https://www.mcdonalds.com.my", "contact:email": "s128@my.mcd.com", "brand": "McDonald\u2019s", "brand:wikidata": "Q38076"}, "geometry": {"type": "Point", "coordinates": [101.614373, 3.060685]}},
{"type": "Feature", "id": "4xrvHGXoxuYAXhKP3GplW1V-y9A=", "properties": {"ref": "109", "@spider": "mcdonalds_my", "addr:full": "Lot HS(D) 216848, PT 36061, Pekan Penaga, Taman Subang Mewah, Subang Jaya, Selangor", "addr:country": "MY", "name": "McDonald's PSS USJ1 DT", "phone": "03-80812681", "website": "https://www.mcdonalds.com.my", "contact:email": "s410@my.mcd.com", "brand": "McDonald\u2019s", "brand:wikidata": "Q38076"}, "geometry": {"type": "Point", "coordinates": [101.601864, 3.04779]}},
{"type": "Feature", "id": "p5A4r2gVaTF-yerdd58vsgEhTew=", "properties": {"ref": "110", "@spider": "mcdonalds_my", "addr:full": "Lot 2 & 2-1, Jalan 1/76D, Desa Pandan, 55100, Kuala Lumpur, Malaysia", "addr:country": "MY", "name": "McDonald's Desa Pandan", "phone": "03-92852636", "website": "https://www.mcdonalds.com.my", "contact:email": "s077@my.mcd.com", "brand": "McDonald\u2019s", "brand:wikidata": "Q38076"}, "geometry": {"type": "Point", "coordinates": [101.736853, 3.14709]}},
{"type": "Feature", "id": "SL7UXgAJf0AHv_MUWehpNDvDUic=", "properties": {"ref": "111", "@spider": "mcdonalds_my", "addr:full": "Lot G08, Ground Floor, Ampang Point Shopping Centre, Jalan Mamanda 3, 68000, Ampang, Selangor, Malaysia", "addr:country": "MY", "name": "McDonald's Ampang Point ", "phone": "03-42653689", "website": "https://www.mcdonalds.com.my", "contact:email": "s068@my.mcd.com", "brand": "McDonald\u2019s", "brand:wikidata": "Q38076"}, "geometry": {"type": "Point", "coordinates": [101.750803, 3.157739]}},
{"type": "Feature", "id": "49bihEt405NbLS92YYAwUI3Vjos=", "properties": {"ref": "112", "@spider": "mcdonalds_my", "addr:full": "Lot No. B1-03 & B1-E-03, MyTown Shopping Centre, No. 6, Jalan Cohcrane, Section 90, 55100, Kuala Lumpur, Malaysia", "addr:country": "MY", "name": "McDonald's MyTown Mall", "phone": "03-2732 2566", "website": "https://www.mcdonalds.com.my", "contact:email": "s368@my.mcd.com", "brand": "McDonald\u2019s", "brand:wikidata": "Q38076"}, "geometry": {"type": "Point", "coordinates": [101.723645, 3.134208]}},
{"type": "Feature", "id": "mdB8UCyA1a3a2_p56qe1FcRVo64=", "properties": {"ref": "113", "@spider": "mcdonalds_my", "addr:full": "D/A Petronas Servis Stesen, Jalan Kolam Ayer Lama, Lot 36904 (PT 27423), Taman Dato' Ahmad Razali, 68000, Ampang, Selangor, Malaysia", "addr:country": "MY", "name": "McDonald's Petronas Ampang DT", "phone": "03-42651703", "website": "https://www.mcdonalds.com.my", "contact:email": "s204@my.mcd.com", "brand": "McDonald\u2019s", "brand:wikidata": "Q38076"}, "geometry": {"type": "Point", "coordinates": [101.754149, 3.160062]}},
{"type": "Feature", "id": "y4uuuK53r7LwpQtc_584D6CloKQ=", "properties": {"ref": "114", "@spider": "mcdonalds_my", "addr:full": "Lot PT 2536, Lebuh Raya Lingkaran Tengah 2, Mukim Ampang, 55000 Kuala Lumpur", "addr:country": "MY", "name": "McDonald's Shell Tasik Ampang DT", "website": "https://www.mcdonalds.com.my", "contact:email": "s430@my.mcd.com", "brand": "McDonald\u2019s", "brand:wikidata": "Q38076"}, "geometry": {"type": "Point", "coordinates": [101.745321, 3.151919749]}},
{"type": "Feature", "id": "79WRru85A1_KvPy2pCNvW88rGOE=", "properties": {"ref": "115", "@spider": "mcdonalds_my", "addr:full": "Lot No GF-36, Ground Floor, Main Place Mall, Jalan USJ 21/10, 47630, Subang Jaya, Selangor, Malaysia", "addr:country": "MY", "name": "McDonald's Main Place", "phone": "03-80118420", "website": "https://www.mcdonalds.com.my", "contact:email": "s330@my.mcd.com", "brand": "McDonald\u2019s", "brand:wikidata": "Q38076"}, "geometry": {"type": "Point", "coordinates": [101.581506, 3.02665]}},
{"type": "Feature", "id": "TZhiJYoQE3L5csBtaxFFmIWY4AY=", "properties": {"ref": "116", "@spider": "mcdonalds_my", "addr:full": "LG, Sunway Velocity Mall, Jalan Peel, 55100, Kuala Lumpur, Malaysia", "addr:country": "MY", "name": "McDonald's Sunway Velocity Mall", "phone": "03-27320717", "website": "https://www.mcdonalds.com.my", "contact:email": "s367@my.mcd.com", "brand": "McDonald\u2019s", "brand:wikidata": "Q38076"}, "geometry": {"type": "Point", "coordinates": [101.724463, 3.127299]}},
{"type": "Feature", "id": "9Szh4_fuyWXNUuGyz2AUKd0zI5E=", "properties": {"ref": "117", "@spider": "mcdonalds_my", "addr:full": "No. 1, Jalan Anggerik Vanilla 31/94, Seksyen 31, Kota Kemuning, 40706, Shah Alam, Selangor, Malaysia", "addr:country": "MY", "name": "McDonald's Kota Kemuning", "phone": "03-51310287", "website": "https://www.mcdonalds.com.my", "contact:email": "s179@my.mcd.com", "brand": "McDonald\u2019s", "brand:wikidata": "Q38076"}, "geometry": {"type": "Point", "coordinates": [101.540994, 3.002996]}},
{"type": "Feature", "id": "dJxNgsP1dEQZfQ_WmMlOQGibSco=", "properties": {"ref": "118", "@spider": "mcdonalds_my", "addr:full": "Lot No G-08, Ground Floor, Pearl Point Shopping Complex, 5th Mile, Old Klang Road, 58000 Kuala Lumpur                                                                 ", "addr:country": "MY", "name": "McDonald's Pearl Point DT", "phone": "03-79710196", "website": "https://www.mcdonalds.com.my", "contact:email": "S385@my.mcd.com", "brand": "McDonald\u2019s", "brand:wikidata": "Q38076"}, "geometry": {"type": "Point", "coordinates": [101.673568, 3.084915]}},
{"type": "Feature", "id": "5XFGkuHpPXvWmcR5Vul2k-ohcno=", "properties": {"ref": "119", "@spider": "mcdonalds_my", "addr:full": "Lot 17, Ground Floor, IOI Mall, Batu 9 Jalan Puchong, Bandar Puchong Jaya, 47100, Puchong, Selangor, Malaysia", "addr:country": "MY", "name": "McDonald's IOI Puchong Mall", "phone": "03-80718009", "website": "https://www.mcdonalds.com.my", "contact:email": "s069@my.mcd.com", "brand": "McDonald\u2019s", "brand:wikidata": "Q38076"}, "geometry": {"type": "Point", "coordinates": [101.618013, 3.045519]}},
{"type": "Feature", "id": "taXypl-9wmoBg3XRcGtQWl_vGjQ=", "properties": {"ref": "120", "@spider": "mcdonalds_my", "addr:full": "Part of G 03 to G 06, Ground Floor, Plaza OUG, Jalan Klang Lama, 58000 Kuala Lumpur.", "addr:country": "MY", "name": "McDonald's OUG", "phone": "03-79820933", "website": "https://www.mcdonalds.com.my", "contact:email": "s015@my.mcd.com", "brand": "McDonald\u2019s", "brand:wikidata": "Q38076"}, "geometry": {"type": "Point", "coordinates": [101.671337, 3.081921]}},
{"type": "Feature", "id": "ijh3QuB0Thex3iVn9128bWq55-s=", "properties": {"ref": "121", "@spider": "mcdonalds_my", "addr:full": "Part of Lot PT 51795, Jalan Langat KS8, Bandar Bestari, 41200 Klang, Selangor Darul Ehsan. ", "addr:country": "MY", "name": "McDonald's Canary Garden Klang DT", "phone": "03-31221647", "website": "https://www.mcdonalds.com.my", "contact:email": "s372@my.mcd.com", "brand": "McDonald\u2019s", "brand:wikidata": "Q38076"}, "geometry": {"type": "Point", "coordinates": [101.466226, 2.960231]}},
{"type": "Feature", "id": "y3zw76KNyvRF_UuLLSYsOkqLZaw=", "properties": {"ref": "122", "@spider": "mcdonalds_my", "addr:full": "Petronas Taman Dagang, PT 12671, Jalan Nirwana, Taman Nirwana, 68000, Ampang, Selangor.", "addr:country": "MY", "name": "McDonald's Petronas Taman Dagang Drive-Thru", "phone": "03 - 42705247", "website": "https://www.mcdonalds.com.my", "contact:email": "S249@my.mcd.com", "brand": "McDonald\u2019s", "brand:wikidata": "Q38076"}, "geometry": {"type": "Point", "coordinates": [101.755045, 3.145192]}},
{"type": "Feature", "id": "dXYxR7Z_7BHez66Z1SbwPqyI8Bo=", "properties": {"ref": "123", "@spider": "mcdonalds_my", "addr:full": "1/116B, Off Jalan Kuchai Lama, Kuchai Entrepreneurs Park, 58200, Kuala Lumpur, Malaysia", "addr:country": "MY", "name": "McDonald's Kuchai Lama DT", "phone": "03-79822180", "website": "https://www.mcdonalds.com.my", "contact:email": "s182@my.mcd.com", "brand": "McDonald\u2019s", "brand:wikidata": "Q38076"}, "geometry": {"type": "Point", "coordinates": [101.690106, 3.087352]}},
{"type": "Feature", "id": "XVCuOjf1bAVhXNDKB7tSPbFOmoI=", "properties": {"ref": "124", "@spider": "mcdonalds_my", "addr:full": "Lot No. 7 & 9, Ground Floor, Tesco Hypermarket, Jalan Bandar 3, Pusat Bandar Puchong, 47100, Puchong, Selangor, Malaysia", "addr:country": "MY", "name": "McDonald's Lotuss Puchong DT", "phone": "03-80804917", "website": "https://www.mcdonalds.com.my", "contact:email": "s165@my.mcd.com", "brand": "McDonald\u2019s", "brand:wikidata": "Q38076"}, "geometry": {"type": "Point", "coordinates": [101.616172, 3.035194]}},
{"type": "Feature", "id": "ZT0QHYJABggvBhM1PZ-QOh1NHro=", "properties": {"ref": "125", "@spider": "mcdonalds_my", "addr:full": "Lot PT 9623, Jalan Taman Kosas 2, Taman Kosas, 68000, Ampang, Selangor, Malaysia", "addr:country": "MY", "name": "McDonald's BHP Taman Kosas DT", "phone": "016-7239014", "website": "https://www.mcdonalds.com.my", "contact:email": "s361@my.mcd.com", "brand": "McDonald\u2019s", "brand:wikidata": "Q38076"}, "geometry": {"type": "Point", "coordinates": [101.76634, 3.148208]}},
{"type": "Feature", "id": "ROMZGyET9l5LFcaTbDTErBGa5wE=", "properties": {"ref": "126", "@spider": "mcdonalds_my", "addr:full": "Lot PT. 35810, Persiaran Putra Indah, Putra Heights, Mukim Damansara, Daerah Petaling, 47650, Selangor, Malaysia", "addr:country": "MY", "name": "McDonald's Shell Putra Height DT", "phone": "03-51035347", "website": "https://www.mcdonalds.com.my", "contact:email": "s358@my.mcd.com", "brand": "McDonald\u2019s", "brand:wikidata": "Q38076"}, "geometry": {"type": "Point", "coordinates": [101.570971, 2.99728]}},
{"type": "Feature", "id": "yqf4VE51WkrJKxHk4fa0p2p7Tzw=", "properties": {"ref": "127", "@spider": "mcdonalds_my", "addr:full": "Lot PT 7430, HSD 111856, KM5.5, Jalan Cheras, 56000, Cheras, Kuala Lumpur, Malaysia", "addr:country": "MY", "name": "McDonald's Shell Jalan Cheras DT", "phone": "03-91331724  ", "website": "https://www.mcdonalds.com.my", "contact:email": "s224@my.mcd.com", "brand": "McDonald\u2019s", "brand:wikidata": "Q38076"}, "geometry": {"type": "Point", "coordinates": [101.732853, 3.104739]}},
{"type": "Feature", "id": "qCxtpk5U9hApsTYqqSa_3tcoLws=", "properties": {"ref": "128", "@spider": "mcdonalds_my", "addr:full": "Lot 32426 Jalan Puchong Permai 2, Taman Puchong Permai, 47100, Puchong, Selangor, Malaysia", "addr:country": "MY", "name": "McDonald's Puchong Permai DT", "phone": "03-80518413", "website": "https://www.mcdonalds.com.my", "contact:email": "s172@my.mcd.com", "brand": "McDonald\u2019s", "brand:wikidata": "Q38076"}, "geometry": {"type": "Point", "coordinates": [101.59908, 3.009016]}},
{"type": "Feature", "id": "IE938C3OK-ZZbCZSE6JHKe2G88E=", "properties": {"ref": "129", "@spider": "mcdonalds_my", "addr:full": "Bangunan Restoran McDonald's, Jalan Mewah Utara, 68000, Ampang, Kuala Lumpur, Malaysia", "addr:country": "MY", "name": "McDonald's Pandan Mewah DT", "phone": "03-42955046", "website": "https://www.mcdonalds.com.my", "contact:email": "s171@my.mcd.com", "brand": "McDonald\u2019s", "brand:wikidata": "Q38076"}, "geometry": {"type": "Point", "coordinates": [101.762843, 3.128108]}},
{"type": "Feature", "id": "Pvub97zDIHcJomWZ_rvgJQo2vDc=", "properties": {"ref": "130", "@spider": "mcdonalds_my", "addr:full": "No 63 & 63-1, Jalan Radin Tengah, Bandar Baru Sri Petaling, 57000, Kuala Lumpur, Malaysia", "addr:country": "MY", "name": "McDonald's Sri Petaling", "phone": "03-90545927", "website": "https://www.mcdonalds.com.my", "contact:email": "s338@my.mcd.com", "brand": "McDonald\u2019s", "brand:wikidata": "Q38076"}, "geometry": {"type": "Point", "coordinates": [101.6918, 3.068888]}},
{"type": "Feature", "id": "XiEuUE05P-MtXFd9tYXuH6_jkBU=", "properties": {"ref": "131", "@spider": "mcdonalds_my", "addr:full": "No. G-6, No. 1-6 & No. 2-6, Jalan Puteri 7/13A, Bandar Puteri, 47100, Puchong, Selangor, Malaysia", "addr:country": "MY", "name": "McDonald's Bandar Puteri Puchong DT", "phone": "03-80514150", "website": "https://www.mcdonalds.com.my", "contact:email": "s323@my.mcd.com", "brand": "McDonald\u2019s", "brand:wikidata": "Q38076"}, "geometry": {"type": "Point", "coordinates": [101.625074, 3.020174]}},
{"type": "Feature", "id": "5aZN79uXVXkGuOpzislcsjvXfuw=", "properties": {"ref": "132", "@spider": "mcdonalds_my", "addr:full": "Part of Lot 4054, Phase 5A, Jalan Kinrara 6, Bandar Kinrara, 47180 Puchong, Selangor", "addr:country": "MY", "name": "McDonald's Petronas Bandar Kinrara DT", "phone": "03-80740617", "website": "https://www.mcdonalds.com.my", "contact:email": "s396@my.mcd.com", "brand": "McDonald\u2019s", "brand:wikidata": "Q38076"}, "geometry": {"type": "Point", "coordinates": [101.654738, 3.036724]}},
{"type": "Feature", "id": "dqgfYVFUGoVxrfwZk2pdHP_uh2A=", "properties": {"ref": "133", "@spider": "mcdonalds_my", "addr:full": "LG 16, Lower Ground Floor, Leisure Mall, Taman Segar, No. 6, Jalan Cheras, 56100, Cheras, Kuala Lumpur, Malaysia", "addr:country": "MY", "name": "McDonald's Leisure Mall Cheras", "phone": "03-91327577", "website": "https://www.mcdonalds.com.my", "contact:email": "s049@my.mcd.com", "brand": "McDonald\u2019s", "brand:wikidata": "Q38076"}, "geometry": {"type": "Point", "coordinates": [101.74152, 3.090122]}},
{"type": "Feature", "id": "14SMikOwabWpXU1y9uzm1gHlNqo=", "properties": {"ref": "134", "@spider": "mcdonalds_my", "addr:full": "Lot 18113, Jalan Cendikiawan, 55100, Mukim Petaling, Kuala Lumpur, Malaysia", "addr:country": "MY", "name": "McDonald's Taman Connaught DT", "phone": "03-91016190", "website": "https://www.mcdonalds.com.my", "contact:email": "s183@my.mcd.com", "brand": "McDonald\u2019s", "brand:wikidata": "Q38076"}, "geometry": {"type": "Point", "coordinates": [101.731946, 3.081484]}},
{"type": "Feature", "id": "4DQ-XJW1-Wml621z7wHnYfy2H8U=", "properties": {"ref": "135", "@spider": "mcdonalds_my", "addr:full": "Petronas Petrol Station, Technology Park Malaysia, Seremban KL-Highway, 50700, Kuala Lumpur, Malaysia", "addr:country": "MY", "name": "McDonald's Petronas TPM DT", "phone": "03-90541502", "website": "https://www.mcdonalds.com.my", "contact:email": "s189@my.mcd.com", "brand": "McDonald\u2019s", "brand:wikidata": "Q38076"}, "geometry": {"type": "Point", "coordinates": [101.704186, 3.056652]}},
{"type": "Feature", "id": "D1kSAsZtPDxwaZPCCUtlReVbPpY=", "properties": {"ref": "136", "@spider": "mcdonalds_my", "addr:full": "Lot PT 2469, Jalan Utama, Taman Serdang Jaya, 43300 Seri Kembangan, Selangor.", "addr:country": "MY", "name": "McDonald's Shell Serdang Raya", "phone": "03-89381092", "website": "https://www.mcdonalds.com.my", "contact:email": "s363@my.mcd.com", "brand": "McDonald\u2019s", "brand:wikidata": "Q38076"}, "geometry": {"type": "Point", "coordinates": [101.704716, 3.047288]}},
{"type": "Feature", "id": "wYNN8xQNphiOuP4hZW_hz4FzzbQ=", "properties": {"ref": "137", "@spider": "mcdonalds_my", "addr:full": "8KM, KL-Seremban Highway, 57000, Seri Kembangan, Kuala Lumpur, Malaysia", "addr:country": "MY", "name": "McDonald's Petron Seremban-KL Highway DT", "phone": "03-89423932", "website": "https://www.mcdonalds.com.my", "contact:email": "s149@my.mcd.com", "brand": "McDonald\u2019s", "brand:wikidata": "Q38076"}, "geometry": {"type": "Point", "coordinates": [101.705739, 3.047047]}},
{"type": "Feature", "id": "c2KwlPH0JFcsMoNg7zS5HUm77ec=", "properties": {"ref": "138", "@spider": "mcdonalds_my", "addr:full": "2, Jalan BP 7/1 Sierra 7, Bandar Bukit Puchong, 47120 Puchong, Selangor", "addr:country": "MY", "name": "McDonald's Bandar Bukit Puchong DT", "website": "https://www.mcdonalds.com.my", "contact:email": "s435@my.mcd.com", "brand": "McDonald\u2019s", "brand:wikidata": "Q38076"}, "geometry": {"type": "Point", "coordinates": [101.6171598, 2.98357]}},
{"type": "Feature", "id": "9YKrQGKLSzaO4JqmMT8Lh1j5wDA=", "properties": {"ref": "139", "@spider": "mcdonalds_my", "addr:full": "Lot No. 48733, Mukim Petaling LDP Puchong Gateway, 47100, Puchong, Selangor, Malaysia", "addr:country": "MY", "name": "McDonald's Puchong Gateway DT", "phone": "03-89586508", "website": "https://www.mcdonalds.com.my", "contact:email": "s243@my.mcd.com", "brand": "McDonald\u2019s", "brand:wikidata": "Q38076"}, "geometry": {"type": "Point", "coordinates": [101.648354, 2.981733]}},
{"type": "Feature", "id": "59LDox5Nmt3fqPmGj19oe-oBJLM=", "properties": {"ref": "140", "@spider": "mcdonalds_my", "addr:full": "Lot No. 2, Persiaran Equine, Taman Equine, 43300, Seri Kembangan, Selangor, Malaysia", "addr:country": "MY", "name": "McDonald's Equine Park DT", "phone": "03 - 89385387", "website": "https://www.mcdonalds.com.my", "contact:email": "s192@my.mcd.com", "brand": "McDonald\u2019s", "brand:wikidata": "Q38076"}, "geometry": {"type": "Point", "coordinates": [101.67021, 2.995664]}},
{"type": "Feature", "id": "kYVnIdyUrbzYCT-QVXyMnyF4S54=", "properties": {"ref": "141", "@spider": "mcdonalds_my", "addr:full": "Lot 79, 2nd Floor, The Mines Shopping Fair, Jalan Dulang, Mines Resort City, 43300, Sri Kembangan, Selangor, Malaysia", "addr:country": "MY", "name": "McDonald's The Mines ", "phone": "03-89425749 ", "website": "https://www.mcdonalds.com.my", "contact:email": "s088@my.mcd.com", "brand": "McDonald\u2019s", "brand:wikidata": "Q38076"}, "geometry": {"type": "Point", "coordinates": [101.718106, 3.027901]}},
{"type": "Feature", "id": "8lAY86QUwkLFbswwxF2kNbxKl88=", "properties": {"ref": "142", "@spider": "mcdonalds_my", "addr:full": "Part of Lot 26104, Jalan Saujana Putra, Bandar Saujana Putra, Off Lebuhraya ELITE, 42610 Jenjarom Selangor.", "addr:country": "MY", "name": "McDonald's Petron Bandar Saujana Putra DT", "phone": "03-51036118", "website": "https://www.mcdonalds.com.my", "contact:email": "s379@my.mcd.com", "brand": "McDonald\u2019s", "brand:wikidata": "Q38076"}, "geometry": {"type": "Point", "coordinates": [101.587978, 2.944413]}},
{"type": "Feature", "id": "J76FUFesmG_AyTXfJHnQIhhOEU0=", "properties": {"ref": "143", "@spider": "mcdonalds_my", "addr:full": "Lot PT 18150 & PT 18151, Jalan Suasana 2/2, Bandar Tun Hussein Onn, 43200, Cheras, Selangor, Malaysia", "addr:country": "MY", "name": "McDonald's Bandar Tun Hussein Onn DT ", "phone": "03-90813046", "website": "https://www.mcdonalds.com.my", "contact:email": "s209@my.mcd.com", "brand": "McDonald\u2019s", "brand:wikidata": "Q38076"}, "geometry": {"type": "Point", "coordinates": [101.765296, 3.050159]}},
{"type": "Feature", "id": "6XZv7H5abFtBas4wygyRkdUTAGs=", "properties": {"ref": "144", "@spider": "mcdonalds_my", "addr:full": "No. 20-1, 20-2 & 20-3, Jalan 18/33A, Taman Sri Serdang, 43300, Seri Kembangan, Selangor, Malaysia", "addr:country": "MY", "name": "McDonald's Sri Serdang Prima", "phone": "03-89409037", "website": "https://www.mcdonalds.com.my", "contact:email": "s320@my.mcd.com", "brand": "McDonald\u2019s", "brand:wikidata": "Q38076"}, "geometry": {"type": "Point", "coordinates": [101.714358, 3.008579]}},
{"type": "Feature", "id": "ZZFPUuRnnVZnJ7xJGJ26JKEd5pk=", "properties": {"ref": "145", "@spider": "mcdonalds_my", "addr:full": "Lot G51, Ground Floor, Jusco Balakong Shopping Centre, 43200, Balakong, Selangor, Malaysia", "addr:country": "MY", "name": "McDonald's Jusco Balakong", "phone": "03-90753905", "website": "https://www.mcdonalds.com.my", "contact:email": "s210@my.mcd.com", "brand": "McDonald\u2019s", "brand:wikidata": "Q38076"}, "geometry": {"type": "Point", "coordinates": [101.764829, 3.033386]}},
{"type": "Feature", "id": "bb7h51NjU4OhMdhj0L6979e9Q5o=", "properties": {"ref": "146", "@spider": "mcdonalds_my", "addr:full": "Bandar Mahkota Cheras, 43200, Batu 9, Cheras, Selangor.", "addr:country": "MY", "name": "McDonald's Shell Mahkota Cheras DT", "phone": "03-90109849", "website": "https://www.mcdonalds.com.my", "contact:email": "s362@my.mcd.com", "brand": "McDonald\u2019s", "brand:wikidata": "Q38076"}, "geometry": {"type": "Point", "coordinates": [101.786975, 3.050911]}},
{"type": "Feature", "id": "2DC6O_GrBlQ2KM9j0YWNdb4h3xQ=", "properties": {"ref": "147", "@spider": "mcdonalds_my", "addr:full": "Atelier Centre, Jalan Atelier 1, Edusphere, Cyber 11, 63000 Cyberjaya, Selangor.", "addr:country": "MY", "name": "McDonald's Edusphere DT", "website": "https://www.mcdonalds.com.my", "contact:email": "s419@my.mcd.com", "brand": "McDonald\u2019s", "brand:wikidata": "Q38076"}, "geometry": {"type": "Point", "coordinates": [101.63631, 2.93385]}},
{"type": "Feature", "id": "eX_NAjX004sH8RXz76mPuiuXUeY=", "properties": {"ref": "148", "@spider": "mcdonalds_my", "addr:full": "Lot Nos. 57 & 58, IOI City Mall, IOI Resort, 62502, Putrajaya, Selangor, Malaysia", "addr:country": "MY", "name": "McDonald's IOI City Mall", "phone": "03-89571562", "website": "https://www.mcdonalds.com.my", "contact:email": "s339@my.mcd.com", "brand": "McDonald\u2019s", "brand:wikidata": "Q38076"}, "geometry": {"type": "Point", "coordinates": [101.712868, 2.970368]}},
{"type": "Feature", "id": "AVrUdLhp9mVwiOz7R0P1tw1L1fE=", "properties": {"ref": "149", "@spider": "mcdonalds_my", "addr:full": "Prima 5-B, Jalan Teknorat 5, 63000, Cyberjaya,  Selangor Darul Ehsan", "addr:country": "MY", "name": "McDonald's Cyberjaya", "phone": "03-86880450", "website": "https://www.mcdonalds.com.my", "contact:email": "s354@my.mcd.com", "brand": "McDonald\u2019s", "brand:wikidata": "Q38076"}, "geometry": {"type": "Point", "coordinates": [101.655869, 2.921166]}},
{"type": "Feature", "id": "HWyUcjFQjFKDee4iyPB4wp26dF8=", "properties": {"ref": "150", "@spider": "mcdonalds_my", "addr:full": "Sebahagian Lot 7 (2M1), Presint 2,  62100 Putrajaya", "addr:country": "MY", "name": "McDonald's Putrajaya Persint 2 DT", "phone": "03-88615413", "website": "https://www.mcdonalds.com.my", "contact:email": "s351@my.mcd.com", "brand": "McDonald\u2019s", "brand:wikidata": "Q38076"}, "geometry": {"type": "Point", "coordinates": [101.684837, 2.926237]}},
{"type": "Feature", "id": "KWLACxpJq7wCwiMBpMBBVtsXihc=", "properties": {"ref": "151", "@spider": "mcdonalds_my", "addr:full": "LG-07, Lower Ground Floor, Alamanda Shopping Complex, Jalan Alamanda, Presinct 1, 62000, Putrajaya, Kuala Lumpur, Malaysia", "addr:country": "MY", "name": "McDonald's Alamanda Putrajaya", "phone": "03-88888641", "website": "https://www.mcdonalds.com.my", "contact:email": "s198@my.mcd.com", "brand": "McDonald\u2019s", "brand:wikidata": "Q38076"}, "geometry": {"type": "Point", "coordinates": [101.710793, 2.939491]}},
{"type": "Feature", "id": "JFuHr4rPFXC6Rnn2GQCUSR-il8g=", "properties": {"ref": "152", "@spider": "mcdonalds_my", "addr:full": "Lot PT 52317, Prima Saujana, Mukim Kajang, 43000, Kajang, Selangor, Malaysia", "addr:country": "MY", "name": "McDonald's Prima Saujana Kajang DT", "phone": "03-87416420", "website": "https://www.mcdonalds.com.my", "contact:email": "s238@my.mcd.com", "brand": "McDonald\u2019s", "brand:wikidata": "Q38076"}, "geometry": {"type": "Point", "coordinates": [101.804351, 3.007491]}},
{"type": "Feature", "id": "BifJaf9UygN39r9QYzzQ1NWR3HQ=", "properties": {"ref": "153", "@spider": "mcdonalds_my", "addr:full": "Unit No. G-17, Ground Floor, Shaftsbury Putrajaya, Jalan Alamanda, Presint 1, 62000 Putrajaya, Wilayah Persekutuan Putrajaya", "addr:country": "MY", "name": "McDonald's Shaftsbury DT", "phone": "03-88612903", "website": "https://www.mcdonalds.com.my", "contact:email": "s377@my.mcd.com", "brand": "McDonald\u2019s", "brand:wikidata": "Q38076"}, "geometry": {"type": "Point", "coordinates": [101.713325, 2.939236]}},
{"type": "Feature", "id": "WT_4CSoMWWYgUgvg7Bvk_mXO9zE=", "properties": {"ref": "154", "@spider": "mcdonalds_my", "addr:full": "27 & 28, Jalan Abdul Aziz, 43000, Kajang, Selangor, Malaysia", "addr:country": "MY", "name": "McDonald's Kajang ", "phone": "03-87335649", "website": "https://www.mcdonalds.com.my", "contact:email": "s029@my.mcd.com", "brand": "McDonald\u2019s", "brand:wikidata": "Q38076"}, "geometry": {"type": "Point", "coordinates": [101.791236, 2.991572]}},
{"type": "Feature", "id": "9ceI5T8955mY81rv3bRl2L7WT3Y=", "properties": {"ref": "155", "@spider": "mcdonalds_my", "addr:full": "Lot PT. 70550, Jalan Kajang Impian 1/2, Taman Kajang Impian, Mukim Bandar Baru Bangi, 43650 Daerah Hulu Langat, Selangor Darul Ehsan", "addr:country": "MY", "name": "McDonald's Kajang Impian DT", "phone": "03-89221937", "website": "https://www.mcdonalds.com.my", "contact:email": "s433@my.mcd.com\t", "brand": "McDonald\u2019s", "brand:wikidata": "Q38076"}, "geometry": {"type": "Point", "coordinates": [101.77144, 2.975016]}},
{"type": "Feature", "id": "nLobM7hZkqL5rEFZZPs_ueiL1i0=", "properties": {"ref": "156", "@spider": "mcdonalds_my", "addr:full": "PTD 68518, Persiaran Bangi, 43650, Bandar Baru Bangi, Selangor, Malaysia", "addr:country": "MY", "name": "McDonald's Bandar Baru Bangi DT", "phone": "03 - 89221553", "website": "https://www.mcdonalds.com.my", "contact:email": "s231@my.mcd.com", "brand": "McDonald\u2019s", "brand:wikidata": "Q38076"}, "geometry": {"type": "Point", "coordinates": [101.758106, 2.961851]}},
{"type": "Feature", "id": "PAOvrCdnde128dwSFOliZSZ9v-c=", "properties": {"ref": "157", "@spider": "mcdonalds_my", "addr:full": "No. 2 Jalan Cemerlang 4, 42700 Banting, Selangor, Malaysia", "addr:country": "MY", "name": "McDonald's Banting DT", "phone": "03-31813188", "website": "https://www.mcdonalds.com.my", "contact:email": "s217@my.mcd.com", "brand": "McDonald\u2019s", "brand:wikidata": "Q38076"}, "geometry": {"type": "Point", "coordinates": [101.50808, 2.812972]}},
{"type": "Feature", "id": "Fjw6hgx0zwPS5BTBwDZXwEHxCTo=", "properties": {"ref": "158", "@spider": "mcdonalds_my", "addr:full": "Lot PT 2 (HSD 41974) Berhadapan Lebuhraya, Utara Selatan KL - (KM 297.9 - 298.1 Arah Utara) Bandar Sungai Merab, Mukim Dengkil, Sepang, Selangor Darul Ehsan\r\n\r\n\r\n\r\n\r\n\r\n\r\n\r\n\r\n\r\n\r\n\r\n\r\n\r\n\r\n", "addr:country": "MY", "name": "McDonald's PSS Bangi NB Layby DT", "phone": "03-89229640", "website": "https://www.mcdonalds.com.my", "contact:email": "s427@my.mcd.com", "brand": "McDonald\u2019s", "brand:wikidata": "Q38076"}, "geometry": {"type": "Point", "coordinates": [101.751844, 2.945037]}},
{"type": "Feature", "id": "E9Co6-YL80OaBZAQL3cYcdAdOog=", "properties": {"ref": "159", "@spider": "mcdonalds_my", "addr:full": "Lot 53934, Reko Sentral, Mukim Kajang, 43000 Daerah Hulu Langat, Selangor", "addr:country": "MY", "name": "McDonald's PSS Jalan REKO", "phone": "03-87354278", "website": "https://www.mcdonalds.com.my", "contact:email": "s412@my.mcd.com", "brand": "McDonald\u2019s", "brand:wikidata": "Q38076"}, "geometry": {"type": "Point", "coordinates": [101.789231, 2.969077]}},
{"type": "Feature", "id": "qcekgnWCE5T-OO8RigoXCbTR2Ag=", "properties": {"ref": "160", "@spider": "mcdonalds_my", "addr:full": "18, Mukim Semenyih, Daerah Ulu Langat, 43000, Kajang, Selangor, Malaysia", "addr:country": "MY", "name": "McDonald's Kajang Perdana DT", "phone": "03-87417192", "website": "https://www.mcdonalds.com.my", "contact:email": "s341@my.mcd.com", "brand": "McDonald\u2019s", "brand:wikidata": "Q38076"}, "geometry": {"type": "Point", "coordinates": [101.819705, 2.990079]}},
{"type": "Feature", "id": "udEfMojUyM_6WEi_krJWyLFf-tw=", "properties": {"ref": "161", "@spider": "mcdonalds_my", "addr:full": "Lot 101777, KM 48.7, Jalan Pintasan Dengkil-Putrajaya (FT 29) Arah Utara, 43800 Dengkil, Selangor", "addr:country": "MY", "name": "McDonald's Shell Dengkil Bypass DT", "website": "https://www.mcdonalds.com.my", "contact:email": "s426@my.mcd.com", "brand": "McDonald\u2019s", "brand:wikidata": "Q38076"}, "geometry": {"type": "Point", "coordinates": [101.685648, 2.869292]}},
{"type": "Feature", "id": "_Tj0Qsa-UldfWXxebrqdAxK-4as=", "properties": {"ref": "162", "@spider": "mcdonalds_my", "addr:full": "Plot No. 1, HSD 47588, PT 5910, Mukim 13, Seberang Perai Selatan, 14100 Batu Kawan, Pulau Pinang", "addr:country": "MY", "name": "McDonald's IKEA Batu Kawan DT", "website": "https://www.mcdonalds.com.my", "contact:email": "s417@my.mcd.com", "brand": "McDonald\u2019s", "brand:wikidata": "Q38076"}, "geometry": {"type": "Point", "coordinates": [100.442596, 5.234703]}},
{"type": "Feature", "id": "u2V1fh7uP6GNDMyjiYiQ0FQYqq4=", "properties": {"ref": "163", "@spider": "mcdonalds_my", "addr:full": "Lot 1809, Batu 22, Jalan Beranang, Mukim Semenyih, Daerah Hulu Langat, 43500, Selangor", "addr:country": "MY", "name": "McDonald's Semenyih DT", "phone": "03 - 87230592 ", "website": "https://www.mcdonalds.com.my", "contact:email": "s267@my.mcd.com", "brand": "McDonald\u2019s", "brand:wikidata": "Q38076"}, "geometry": {"type": "Point", "coordinates": [101.8526, 2.936787]}},
{"type": "Feature", "id": "H8-eCXW-dBt-yB1m29ZSBdqAjHA=", "properties": {"ref": "164", "@spider": "mcdonalds_my", "addr:full": "Sebahagian Lot 38833, Jalan Seri Putra 1/9, Bandar Seri Putra, 43000, Kajang, Selangor, Malaysia", "addr:country": "MY", "name": "McDonald's Bandar Sri Putra DT", "phone": "03-89120244", "website": "https://www.mcdonalds.com.my", "contact:email": "s342@my.mcd.com", "brand": "McDonald\u2019s", "brand:wikidata": "Q38076"}, "geometry": {"type": "Point", "coordinates": [101.792793, 2.886726]}},
{"type": "Feature", "id": "Zw0kyaxJVMXx2ukQ3qPVv5TWGoM=", "properties": {"ref": "165", "@spider": "mcdonalds_my", "addr:full": "Pintasan Dengkil By Pass (B29), 43900, Sepang, Selangor, Malaysia", "addr:country": "MY", "name": "McDonald's Kota Warisan DT", "phone": "03-87068788", "website": "https://www.mcdonalds.com.my", "contact:email": "s275@my.mcd.com", "brand": "McDonald\u2019s", "brand:wikidata": "Q38076"}, "geometry": {"type": "Point", "coordinates": [101.69428, 2.817261]}},
{"type": "Feature", "id": "dk7MZONGlj4HN2yGI-3B3EKVICo=", "properties": {"ref": "166", "@spider": "mcdonalds_my", "addr:full": "No. 1, Jalan Eco Majestic 9/1, Eco Majestic, 43500 Semenyih, Selangor", "addr:country": "MY", "name": "McDonald's Eco Majestic DT", "phone": "03-87239527", "website": "https://www.mcdonalds.com.my", "contact:email": "s401@my.mcd.com", "brand": "McDonald\u2019s", "brand:wikidata": "Q38076"}, "geometry": {"type": "Point", "coordinates": [101.836588, 2.901795]}},
{"type": "Feature", "id": "Rz52KJcDaamtErm5wkC2gcdmftY=", "properties": {"ref": "167", "@spider": "mcdonalds_my", "addr:full": "Lot 15495, Mukim Pedah, Daerah Jerantut, 27000, Jerantut, Pahang, Malaysia", "addr:country": "MY", "name": "McDonald's Jerantut DT", "phone": "09-2665900", "website": "https://www.mcdonalds.com.my", "contact:email": "s325@my.mcd.com", "brand": "McDonald\u2019s", "brand:wikidata": "Q38076"}, "geometry": {"type": "Point", "coordinates": [102.381333, 3.933405]}},
{"type": "Feature", "id": "3HZqWh0rp_Jw6RVropEUm4sBvTE=", "properties": {"ref": "168", "@spider": "mcdonalds_my", "addr:full": "2, Jalan Iconic Point, Iconic Point, 14100 Simpang Ampat, Pulau Pinang", "addr:country": "MY", "name": "McDonald's ICONIC Simpang Ampat DT", "website": "https://www.mcdonalds.com.my", "contact:email": "s438@my.mcd.com", "brand": "McDonald\u2019s", "brand:wikidata": "Q38076"}, "geometry": {"type": "Point", "coordinates": [100.476241, 5.283685]}},
{"type": "Feature", "id": "n9QzMVcH-Y5C8ejFiiWiAGXFWoI=", "properties": {"ref": "169", "@spider": "mcdonalds_my", "addr:full": "Lot PT 3906, Jalan Terminal KLIA (Outbound), 64000, Sepang, Selangor, Malaysia", "addr:country": "MY", "name": "McDonald's Petronas KLIA DT", "phone": "016 - 2232827", "website": "https://www.mcdonalds.com.my", "contact:email": "s237@my.mcd.com", "brand": "McDonald\u2019s", "brand:wikidata": "Q38076"}, "geometry": {"type": "Point", "coordinates": [101.683261, 2.764666]}},
{"type": "Feature", "id": "9-UjcNvcpGDhrLf5dNUJw25Mx7c=", "properties": {"ref": "170", "@spider": "mcdonalds_my", "addr:full": "Sebahagian Lot 17493, Jalan Rozhan, Pusat Perniagaan Seri Impian, 14000, Bukit Mertajam, Pulau Pinang, Malaysia", "addr:country": "MY", "name": "McDonald's Tesco Alma DT", "phone": "604-5308379", "website": "https://www.mcdonalds.com.my", "contact:email": "s301@my.mcd.com", "brand": "McDonald\u2019s", "brand:wikidata": "Q38076"}, "geometry": {"type": "Point", "coordinates": [100.477512, 5.315285]}},
{"type": "Feature", "id": "109LV7huZb-aNYmtD0BQDAfBiRw=", "properties": {"ref": "171", "@spider": "mcdonalds_my", "addr:full": "PT 1134, Persiaran Pusat Bandar, 71800 Nilai, Negeri Sembilan, Malaysia", "addr:country": "MY", "name": "McDonald's Putra Nilai DT", "phone": "06-7971888", "website": "https://www.mcdonalds.com.my", "contact:email": "s250@my.mcd.com", "brand": "McDonald\u2019s", "brand:wikidata": "Q38076"}, "geometry": {"type": "Point", "coordinates": [101.793611, 2.822465]}},
{"type": "Feature", "id": "dFund9idrAsryIkwsY0N7ZgVX4c=", "properties": {"ref": "172", "@spider": "mcdonalds_my", "addr:full": "Shoplot PT No. 7330, Bandar Baru Nilai, 79149 Nilai, Negeri Sembilan, Malaysia", "addr:country": "MY", "name": "McDonald's Bandar Baru Nilai", "phone": "06-7948788", "website": "https://www.mcdonalds.com.my", "contact:email": "s106@my.mcd.com", "brand": "McDonald\u2019s", "brand:wikidata": "Q38076"}, "geometry": {"type": "Point", "coordinates": [101.791978, 2.815152]}},
{"type": "Feature", "id": "epwj-Q1XhJSvknoV_ET8rEUgs3Q=", "properties": {"ref": "173", "@spider": "mcdonalds_my", "addr:full": "F & B 1, Mentakab Star Mall, No 1, Jalan Star City 1, Star City, 28400, Mentakab, Pahang, Malaysia", "addr:country": "MY", "name": "McDonald's Mentakab Star Mall", "phone": "09- 2785034", "website": "https://www.mcdonalds.com.my", "contact:email": "s282@my.mcd.com", "brand": "McDonald\u2019s", "brand:wikidata": "Q38076"}, "geometry": {"type": "Point", "coordinates": [102.331465, 3.470383]}},
{"type": "Feature", "id": "pj8nTUs1wdklDaHHwes1VyXxjbA=", "properties": {"ref": "174", "@spider": "mcdonalds_my", "addr:full": "Lot L3-47 - L3-50 & L3-33, Level 3, Gateway @ KLIA 2, H.S (D) 7429, PT No 13, Bandar Lapangan Terbang Antarabangsa Sepang, 64000, Sepang, Selangor, Malaysia", "addr:country": "MY", "name": "McDonald's KLIA 2 Gateway", "phone": "03-87878271", "website": "https://www.mcdonalds.com.my", "contact:email": "s333@my.mcd.com", "brand": "McDonald\u2019s", "brand:wikidata": "Q38076"}, "geometry": {"type": "Point", "coordinates": [101.685438, 2.743521]}},
{"type": "Feature", "id": "F_nii50_WNMffB6CDJfcqT_2uoM=", "properties": {"ref": "175", "@spider": "mcdonalds_my", "addr:full": "No. 1689, Jalan Perusahaan, Highway Auto City, Kawasan Perusahaan 4, North-South Highway, Juru Interchange, MK 11, Seberang Perai Tengah Perai 4, 13600, Perai, Pulau Pinang, Malaysia", "addr:country": "MY", "name": "McDonald's Juru DT", "phone": "04-5080510", "website": "https://www.mcdonalds.com.my", "contact:email": "s174@my.mcd.com", "brand": "McDonald\u2019s", "brand:wikidata": "Q38076"}, "geometry": {"type": "Point", "coordinates": [100.431189, 5.337408]}},
{"type": "Feature", "id": "Rn9NWXJEVSoGXYVOW1jhXy419vM=", "properties": {"ref": "176", "@spider": "mcdonalds_my", "addr:full": "No. 28, Jalan KLC 1, Kulim Landmark Central, 09000 Kedah, Malaysia", "addr:country": "MY", "name": "McDonald's Kulim DT", "phone": "04-4903063", "website": "https://www.mcdonalds.com.my", "contact:email": "s260@my.mcd.com", "brand": "McDonald\u2019s", "brand:wikidata": "Q38076"}, "geometry": {"type": "Point", "coordinates": [100.545805, 5.383114]}},
{"type": "Feature", "id": "o3-MwQaU5K_NSbkv4WLqZlirlRs=", "properties": {"ref": "177", "@spider": "mcdonalds_my", "addr:full": "Lot Nos. 5730, 5731 & 5732, Jalan Jelawat, Mukim 1, Pusat Bandar Seberang Jaya, 13700, Prai, Pulau Pinang, Malaysia", "addr:country": "MY", "name": "McDonald's Caltex Sunway Prai DT", "phone": "04-3982180", "website": "https://www.mcdonalds.com.my", "contact:email": "s181@my.mcd.com", "brand": "McDonald\u2019s", "brand:wikidata": "Q38076"}, "geometry": {"type": "Point", "coordinates": [100.400229, 5.339805]}},
{"type": "Feature", "id": "4PnTXCz2DW-7KsDIhvmKlVvkyew=", "properties": {"ref": "178", "@spider": "mcdonalds_my", "addr:full": "Part of Lot No. 341 & 6154, Mukim 6, Jalan Bukit Tengah, Seberang Perai Tengah, 13700 Pulau Pinang", "addr:country": "MY", "name": "McDonald's Juru R&R", "phone": "04-5026142", "website": "https://www.mcdonalds.com.my", "contact:email": "s378@my.mcd.com", "brand": "McDonald\u2019s", "brand:wikidata": "Q38076"}, "geometry": {"type": "Point", "coordinates": [100.416819, 5.355126]}},
{"type": "Feature", "id": "D0_hqE7gdXThRu75BqvDMTkMQj4=", "properties": {"ref": "179", "@spider": "mcdonalds_my", "addr:full": "PT 860, HS (D) 1217, Bandar Perda, Mukim 6, Daerah Seberang Prai Tengah, 14000, Pulau Pinang, Malaysia", "addr:country": "MY", "name": "McDonald's Bandar Perda DT ", "phone": "04-3830675", "website": "https://www.mcdonalds.com.my", "contact:email": "s245@my.mcd.com", "brand": "McDonald\u2019s", "brand:wikidata": "Q38076"}, "geometry": {"type": "Point", "coordinates": [100.424111, 5.36814]}},
{"type": "Feature", "id": "IoqJn7zJ2cwPE1j_Si0RF0eoFJ4=", "properties": {"ref": "180", "@spider": "mcdonalds_my", "addr:full": "Lot PC 05, Depature Level, Penang International Airport, 11900 Bayan Lepas, Pulau Pinang", "addr:country": "MY", "name": "McDonald's Penang International Airport", "website": "https://www.mcdonalds.com.my", "contact:email": "s441@my.mcd.com", "brand": "McDonald\u2019s", "brand:wikidata": "Q38076"}, "geometry": {"type": "Point", "coordinates": [100.265933, 5.293007]}},
{"type": "Feature", "id": "ukwMJ2HlG9T7roSYeDtUHFaQTTg=", "properties": {"ref": "181", "@spider": "mcdonalds_my", "addr:full": "Part of Lot 16793, Mukim 12, Barat Daya, 11900, Pulau Pinang, Malaysia", "addr:country": "MY", "name": "McDonald's Setia Pearl DT", "phone": "04-2962806", "website": "https://www.mcdonalds.com.my", "contact:email": "s352@my.mcd.com", "brand": "McDonald\u2019s", "brand:wikidata": "Q38076"}, "geometry": {"type": "Point", "coordinates": [100.261412, 5.302556]}},
{"type": "Feature", "id": "hKtQYr6bAs4wbufU0m21IhvrwQ0=", "properties": {"ref": "182", "@spider": "mcdonalds_my", "addr:full": "No. 23-A, Jalan Tengah, Bayan Baru, 11950, Bayan Lepas, Pulau Pinang, Malaysia", "addr:country": "MY", "name": "McDonald's Caltex Jalan Tengah DT", "phone": "04-6380570", "website": "https://www.mcdonalds.com.my", "contact:email": "s349@my.mcd.com", "brand": "McDonald\u2019s", "brand:wikidata": "Q38076"}, "geometry": {"type": "Point", "coordinates": [100.284669, 5.319377]}},
{"type": "Feature", "id": "GAp3eLTGFj7F6h_0W80VRPION-Y=", "properties": {"ref": "183", "@spider": "mcdonalds_my", "addr:full": "LG-73, Lower Ground Floor, Queensbay Mall, 100, Persiaran Bayan Indah, 11900, Pulau Pinang, Malaysia", "addr:country": "MY", "name": "McDonald's Queensbay Mall", "phone": "04-6411559", "website": "https://www.mcdonalds.com.my", "contact:email": "s208@my.mcd.com", "brand": "McDonald\u2019s", "brand:wikidata": "Q38076"}, "geometry": {"type": "Point", "coordinates": [100.306606, 5.332927]}},
{"type": "Feature", "id": "9NpFQcrlXwlluG8kVDmBmudiNU8=", "properties": {"ref": "184", "@spider": "mcdonalds_my", "addr:full": "G-11, 2898, Jalan Baru, Bandar Prai Jaya, 13600, Seberang Prai Tengah, Prai, Pulau Pinang, Malaysia", "addr:country": "MY", "name": "McDonald's Megamall Penang ", "phone": "04-3998199", "website": "https://www.mcdonalds.com.my", "contact:email": "s116@my.mcd.com", "brand": "McDonald\u2019s", "brand:wikidata": "Q38076"}, "geometry": {"type": "Point", "coordinates": [100.39953, 5.377595]}},
{"type": "Feature", "id": "9YN1X5iWLUoI2MZJ4VKx-76oZlU=", "properties": {"ref": "185", "@spider": "mcdonalds_my", "addr:full": "Level 1, Lot 1.01, Annexed Building, Sunshine Complex, 11950, Bayan Baru, Pulau Pinang, Malaysia", "addr:country": "MY", "name": "McDonald's Sunshine Square", "phone": "04-6427731 ", "website": "https://www.mcdonalds.com.my", "contact:email": "s054@my.mcd.com", "brand": "McDonald\u2019s", "brand:wikidata": "Q38076"}, "geometry": {"type": "Point", "coordinates": [100.287327, 5.325744]}},
{"type": "Feature", "id": "ahKgh2MZTLUWnzXg1qle_9OitiI=", "properties": {"ref": "186", "@spider": "mcdonalds_my", "addr:full": "Sebahagian Lot 1304 Sek. 05 (GM 7677), Mukim Perak, 28000, Temerloh, Pahang, Malaysia", "addr:country": "MY", "name": "McDonald's Temerloh DT", "phone": "09-2962529", "website": "https://www.mcdonalds.com.my", "contact:email": "s304@my.mcd.com", "brand": "McDonald\u2019s", "brand:wikidata": "Q38076"}, "geometry": {"type": "Point", "coordinates": [102.409495, 3.451867]}},
{"type": "Feature", "id": "KjuPaPx8nf1FOCinXXPg8ILuxks=", "properties": {"ref": "187", "@spider": "mcdonalds_my", "addr:full": "3A-G-19, Kompleks Bukit Jambul, Jalan Rumbia, 11900, Pulau Pinang, Malaysia", "addr:country": "MY", "name": "McDonald's Bukit Jambul ", "phone": "04-6468988", "website": "https://www.mcdonalds.com.my", "contact:email": "s097@my.mcd.com", "brand": "McDonald\u2019s", "brand:wikidata": "Q38076"}, "geometry": {"type": "Point", "coordinates": [100.290991, 5.334074]}},
{"type": "Feature", "id": "zJhICi-fZj-znk_i36npv4VrIdM=", "properties": {"ref": "188", "@spider": "mcdonalds_my", "addr:full": "Lot 4B, 4C & 4D, Desa Universiti, Jalan Sg. Dua, 11700, Sungai Dua, Pulau Pinang, Malaysia", "addr:country": "MY", "name": "McDonald's Desa Universiti", "phone": "04-6599399 ", "website": "https://www.mcdonalds.com.my", "contact:email": "s093@my.mcd.com", "brand": "McDonald\u2019s", "brand:wikidata": "Q38076"}, "geometry": {"type": "Point", "coordinates": [100.299424, 5.352584]}},
{"type": "Feature", "id": "RtqA1vKae7kkFaVBO0lhFyzn7rc=", "properties": {"ref": "189", "@spider": "mcdonalds_my", "addr:full": "1-1-01 & 1-1-02, Lot A3 - 4, Jalan Udini, 11700, Pulau Pinang, Malaysia", "addr:country": "MY", "name": "McDonald's Lotuss Penang", "phone": "04-6579803", "website": "https://www.mcdonalds.com.my", "contact:email": "s190@my.mcd.com", "brand": "McDonald\u2019s", "brand:wikidata": "Q38076"}, "geometry": {"type": "Point", "coordinates": [100.315257, 5.377527]}},
{"type": "Feature", "id": "Jw8UHYeQ-3k_cjYrjMhFHmwdlbk=", "properties": {"ref": "190", "@spider": "mcdonalds_my", "addr:full": "Caltex Sungai Dua North Bound, PMT 10359, KM 132.5, Lebuhraya Utara Selatan, 13600 Permatang Pauh, Pulau Pinang", "addr:country": "MY", "name": "McDonald's Caltex Sungai Dua DT", "website": "https://www.mcdonalds.com.my", "contact:email": "s425@my.mcd.com", "brand": "McDonald\u2019s", "brand:wikidata": "Q38076"}, "geometry": {"type": "Point", "coordinates": [100.4128, 5.423207]}},
{"type": "Feature", "id": "ycchVTC8aklw1USlYCQd34ZbB_Q=", "properties": {"ref": "191", "@spider": "mcdonalds_my", "addr:full": "No 2, Lebuh Sungai Pinang 4, 11600, Pulau Pinang, Malaysia", "addr:country": "MY", "name": "McDonald's Bandar Sri Pinang DT", "phone": "04-2815291", "website": "https://www.mcdonalds.com.my", "contact:email": "s332@my.mcd.com", "brand": "McDonald\u2019s", "brand:wikidata": "Q38076"}, "geometry": {"type": "Point", "coordinates": [100.326778, 5.395419]}},
{"type": "Feature", "id": "iLJJNp8bBVCYCA3Yc3D3GzcMw4E=", "properties": {"ref": "192", "@spider": "mcdonalds_my", "addr:full": "Lot 2506/7, Section 6, Jalan Masjid Negeri, 11600, Penang, Pulau Pinang, Malaysia", "addr:country": "MY", "name": "McDonald's Greenlane DT", "phone": "04-2834299", "website": "https://www.mcdonalds.com.my", "contact:email": "s025@my.mcd.com", "brand": "McDonald\u2019s", "brand:wikidata": "Q38076"}, "geometry": {"type": "Point", "coordinates": [100.304258, 5.401264]}},
{"type": "Feature", "id": "NYAfZns9GDlsESwEwLON3JVX7aw=", "properties": {"ref": "193", "@spider": "mcdonalds_my", "addr:full": "Caltex Farlim Petrol station, Lot No.9435, Mukim 13, North East District, 11900, Pulau Pinang, Malaysia", "addr:country": "MY", "name": "McDonald's Caltex Farlim DT", "phone": "012-7877219", "website": "https://www.mcdonalds.com.my", "contact:email": "s219@my.mcd.com", "brand": "McDonald\u2019s", "brand:wikidata": "Q38076"}, "geometry": {"type": "Point", "coordinates": [100.276876, 5.387483]}},
{"type": "Feature", "id": "_U8PfZB1gBoa-jGLcyaeTrmnQ2U=", "properties": {"ref": "194", "@spider": "mcdonalds_my", "addr:full": "Lot 33-1-40, Prangin Mall, Jalan Dr Lim Chwee Leong, 10000, George Town, Pulau Pinang, Malaysia", "addr:country": "MY", "name": "McDonald's Prangin Mall", "phone": "04-2626277", "website": "https://www.mcdonalds.com.my", "contact:email": "s150@my.mcd.com", "brand": "McDonald\u2019s", "brand:wikidata": "Q38076"}, "geometry": {"type": "Point", "coordinates": [100.331057, 5.414422]}},
{"type": "Feature", "id": "s_Zk-YKJco_Z4evcFDDMx8Y4tso=", "properties": {"ref": "195", "@spider": "mcdonalds_my", "addr:full": "No. 73, Jalan Dato' Keramat, 10150, Georgetown, Pulau Pinang, Malaysia", "addr:country": "MY", "name": "McDonald's Birch House DT", "phone": "04-2265685", "website": "https://www.mcdonalds.com.my", "contact:email": "s329@my.mcd.com", "brand": "McDonald\u2019s", "brand:wikidata": "Q38076"}, "geometry": {"type": "Point", "coordinates": [100.326031, 5.412839]}},
{"type": "Feature", "id": "vIrPF9kKtqz6MvfPiByHQ78HZ0I=", "properties": {"ref": "196", "@spider": "mcdonalds_my", "addr:full": "Plot No. 2, Pusat Perniagaan Oren, Diatas Lot 10067 (Sebahagian Lot Lama: 35), Jalan Bagan Ajam Seksyen 1, 13000 Bandar Butterworth, Seberang Perai Utara Pulau Pinang.", "addr:country": "MY", "name": "McDonald's Bagan Ajam DT", "phone": "04-3137858", "website": "https://www.mcdonalds.com.my", "contact:email": "s388@my.mcd.com", "brand": "McDonald\u2019s", "brand:wikidata": "Q38076"}, "geometry": {"type": "Point", "coordinates": [100.381611, 5.440361]}},
{"type": "Feature", "id": "ttqsNOYp9Kp1c3IVd7pm01xRUBg=", "properties": {"ref": "197", "@spider": "mcdonalds_my", "addr:full": "Jalan Seremban Jaya, PT 2443, Pekan, 71450 Seremban, Negeri Sembilan", "addr:country": "MY", "name": "McDonald's Shell Seremban Jaya DT", "website": "https://www.mcdonalds.com.my", "contact:email": "s447@my.mcd.com", "brand": "McDonald\u2019s", "brand:wikidata": "Q38076"}, "geometry": {"type": "Point", "coordinates": [101.92413, 2.72263]}},
{"type": "Feature", "id": "i8z7R9_CgfoQ72JBqC6zBcyiRRc=", "properties": {"ref": "198", "@spider": "mcdonalds_my", "addr:full": "Lot 24158 (PT2) & Lot 24159 (PT3), Pekan Bukit Kepayang, Mukim Rasah, 70200, Seremban, Negeri Sembilan, Malaysia", "addr:country": "MY", "name": "McDonald's Seremban DT", "phone": "06-7627625", "website": "https://www.mcdonalds.com.my", "contact:email": "s324@my.mcd.com", "brand": "McDonald\u2019s", "brand:wikidata": "Q38076"}, "geometry": {"type": "Point", "coordinates": [101.918724, 2.716919]}},
{"type": "Feature", "id": "4z6DQfAGXt52AxpRbmzFAGCAmRY=", "properties": {"ref": "199", "@spider": "mcdonalds_my", "addr:full": "No 1, Jalan Haruan 2, 70300, Seremban, Negeri Sembilan, Malaysia", "addr:country": "MY", "name": "McDonald's Tesco Seremban 2", "phone": "06-6315613", "website": "https://www.mcdonalds.com.my", "contact:email": "s270@my.mcd.com", "brand": "McDonald\u2019s", "brand:wikidata": "Q38076"}, "geometry": {"type": "Point", "coordinates": [101.91543, 2.711553]}},
{"type": "Feature", "id": "_zzNo70dp2-3u_ov1_obdZpnkpw=", "properties": {"ref": "200", "@spider": "mcdonalds_my", "addr:full": "Lot LG 35, Lower Ground, Terminal 1 Shopping Complex, 70300, Seremban, Negeri Sembilan, Malaysia", "addr:country": "MY", "name": "McDonald's Terminal 1 Seremban", "phone": "06-7621257", "website": "https://www.mcdonalds.com.my", "contact:email": "s067@my.mcd.com", "brand": "McDonald\u2019s", "brand:wikidata": "Q38076"}, "geometry": {"type": "Point", "coordinates": [101.936979, 2.722481]}},
{"type": "Feature", "id": "r9AxjhKBiVgP8tfEQsIfwtNauq8=", "properties": {"ref": "201", "@spider": "mcdonalds_my", "addr:full": "Lot G43, Ground Floor, Jusco Seremban 2, Shopping Centre, 112 Persiaran S2, Phase B1, Seremban 2, 70300, Seremban, Negeri Sembilan, Malaysia", "addr:country": "MY", "name": "McDonald's AEON Seremban 2", "phone": "06-6015842 ", "website": "https://www.mcdonalds.com.my", "contact:email": "s201@my.mcd.com", "brand": "McDonald\u2019s", "brand:wikidata": "Q38076"}, "geometry": {"type": "Point", "coordinates": [101.91168, 2.701288]}},
{"type": "Feature", "id": "SCnN5uDc3iYqjdUThQk4ow4GP7w=", "properties": {"ref": "202", "@spider": "mcdonalds_my", "addr:full": "Lot PT 560, Bandar Seremban Utama, Seremban 2, 70300, Seremban, Negeri Sembilan, Malaysia", "addr:country": "MY", "name": "McDonald's Seremban 2 DT", "phone": "06-6307043", "website": "https://www.mcdonalds.com.my", "contact:email": "s337@my.mcd.com", "brand": "McDonald\u2019s", "brand:wikidata": "Q38076"}, "geometry": {"type": "Point", "coordinates": [101.906053, 2.691766]}},
{"type": "Feature", "id": "-cAyZb6DBm_T9uRkP70qATjM8Pc=", "properties": {"ref": "203", "@spider": "mcdonalds_my", "addr:full": "Unit No. 170-G-75  & 170-01-73, 10250, Penang, Malaysia", "addr:country": "MY", "name": "McDonald's Gurney Plaza", "phone": "04-2264654", "website": "https://www.mcdonalds.com.my", "contact:email": "s235@my.mcd.com", "brand": "McDonald\u2019s", "brand:wikidata": "Q38076"}, "geometry": {"type": "Point", "coordinates": [100.309951, 5.43709]}},
{"type": "Feature", "id": "U4aeK4tMJUzhJYtSTS6Ya2arqtA=", "properties": {"ref": "204", "@spider": "mcdonalds_my", "addr:full": "Lot GE-03, Centrepoint Seremban, Jalan Dato' Siamang Gagap, 70300, Seremban, Negeri Sembilan, Malaysia", "addr:country": "MY", "name": "McDonald's Ampangan DT", "phone": "06-7600425", "website": "https://www.mcdonalds.com.my", "contact:email": "s359@my.mcd.com", "brand": "McDonald\u2019s", "brand:wikidata": "Q38076"}, "geometry": {"type": "Point", "coordinates": [101.955652, 2.722367]}},
{"type": "Feature", "id": "Oebbr7Vd_WDtsoqur68PDzpfhNU=", "properties": {"ref": "205", "@spider": "mcdonalds_my", "addr:full": "Sebahagian PT 25213, Mukim Triang, Daerah Bera, 28300, Temerloh, Pahang, Malaysia", "addr:country": "MY", "name": "McDonald's Triang DT", "phone": "09-2556350", "website": "https://www.mcdonalds.com.my", "contact:email": "s303@my.mcd.com", "brand": "McDonald\u2019s", "brand:wikidata": "Q38076"}, "geometry": {"type": "Point", "coordinates": [102.435187, 3.25927]}},
{"type": "Feature", "id": "IJ-tqf5-iCyaiTybyuGQaE43X9A=", "properties": {"ref": "206", "@spider": "mcdonalds_my", "addr:full": "Sebahagian Lot 20016, Mukim 06, Seberang Perai Utara, 13200, Pulau Pinang, Malaysia", "addr:country": "MY", "name": "McDonald's Bertam DT", "phone": "04-5755358", "website": "https://www.mcdonalds.com.my", "contact:email": "s302@my.mcd.com", "brand": "McDonald\u2019s", "brand:wikidata": "Q38076"}, "geometry": {"type": "Point", "coordinates": [100.450306, 5.517539]}},
{"type": "Feature", "id": "1Tulb17RJv9QuzqpjU0H6w1exBY=", "properties": {"ref": "207", "@spider": "mcdonalds_my", "addr:full": "Lot G10, 11, 12, 13 & 14, Tesco Tanjung Pinang, No 1, Jalan Seri Tanjung Pinang, 10470, Tanjung Tokong, Pulau Pinang, Malaysia", "addr:country": "MY", "name": "McDonald's Lotuss Tanjung Pinang", "phone": "04-8903551", "website": "https://www.mcdonalds.com.my", "contact:email": "s269@my.mcd.com", "brand": "McDonald\u2019s", "brand:wikidata": "Q38076"}, "geometry": {"type": "Point", "coordinates": [100.30883, 5.459071]}},
{"type": "Feature", "id": "n5mJOcdrR4SEW8t_fxf6t5rJExA=", "properties": {"ref": "208", "@spider": "mcdonalds_my", "addr:full": "Sebahagian Lot 33369, Mukim Ampangan Seremban, 70450, Seremban, Negeri Sembilan, Malaysia", "addr:country": "MY", "name": "McDonald's Forest Height DT", "phone": "06-7630260 ", "website": "https://www.mcdonalds.com.my", "contact:email": "s311@my.mcd.com", "brand": "McDonald\u2019s", "brand:wikidata": "Q38076"}, "geometry": {"type": "Point", "coordinates": [101.970083, 2.699703]}},
{"type": "Feature", "id": "Oxj742qGoWXVkvzUDVxOnF3kQzA=", "properties": {"ref": "209", "@spider": "mcdonalds_my", "addr:full": "Lot 2726, Jalan Taman Komersil Senawang 1, Taman Komersil Senawang, 70450, Senawang, Negeri Sembilan, Malaysia", "addr:country": "MY", "name": "McDonald's Senawang DT", "phone": "06-6788489", "website": "https://www.mcdonalds.com.my", "contact:email": "s166@my.mcd.com", "brand": "McDonald\u2019s", "brand:wikidata": "Q38076"}, "geometry": {"type": "Point", "coordinates": [101.985591, 2.703619]}},
{"type": "Feature", "id": "gK0O-1_i7B_ZmGCuSH8-sFRK3CA=", "properties": {"ref": "210", "@spider": "mcdonalds_my", "addr:full": "PT4849, Jalan Besar Lukut, Batu 4, Bandar Baru Lukut, 71010 Port Dickson, Negeri Sembilan", "addr:country": "MY", "name": "McDonald's Shell Lukut DT", "website": "https://www.mcdonalds.com.my", "contact:email": "s429@my.mcd.com", "brand": "McDonald\u2019s", "brand:wikidata": "Q38076"}, "geometry": {"type": "Point", "coordinates": [101.820597, 2.565154633]}},
{"type": "Feature", "id": "JiJEGIyfbddPNMLyf7YMG075QD4=", "properties": {"ref": "211", "@spider": "mcdonalds_my", "addr:full": "Lot 697 & Lot 764, Jalan Batu Ferringi, Seksyen 2, Bandar Baru Ferringi, Daerah Timur Laut, 11100, Pulau Pinang, Malaysia", "addr:country": "MY", "name": "McDonald's Petronas Batu Ferringhi DT", "phone": "04-8812516", "website": "https://www.mcdonalds.com.my", "contact:email": "s264@my.mcd.com", "brand": "McDonald\u2019s", "brand:wikidata": "Q38076"}, "geometry": {"type": "Point", "coordinates": [100.251541, 5.475314]}},
{"type": "Feature", "id": "XPLOcWf9xbFJfeVW8v78RZfzU4Y=", "properties": {"ref": "212", "@spider": "mcdonalds_my", "addr:full": "No. 27, Jalan Persiaran, PD Waterfront, 71010, Port Dickson, Negeri Sembilan, Malaysia", "addr:country": "MY", "name": "McDonald's PD Waterfront DT", "phone": "06-6463188", "website": "https://www.mcdonalds.com.my", "contact:email": "s283@my.mcd.com", "brand": "McDonald\u2019s", "brand:wikidata": "Q38076"}, "geometry": {"type": "Point", "coordinates": [101.800038, 2.521093]}},
{"type": "Feature", "id": "NCzITNgl8ijQWWd1BWmGNEiXhSA=", "properties": {"ref": "213", "@spider": "mcdonalds_my", "addr:full": "G16 - G19, Ground Floor, Kompleks Central Square, 23, Jalan Kampung Baru, 08000, Sungai Petani, Kedah, Malaysia", "addr:country": "MY", "name": "McDonald's Central Square", "phone": "04-4211117 ", "website": "https://www.mcdonalds.com.my", "contact:email": "s087@my.mcd.com", "brand": "McDonald\u2019s", "brand:wikidata": "Q38076"}, "geometry": {"type": "Point", "coordinates": [100.488095, 5.636536]}},
{"type": "Feature", "id": "pavYArKRWH9kvV9RdpQsWFWu87o=", "properties": {"ref": "214", "@spider": "mcdonalds_my", "addr:full": "Part of Lot 894-Lot 900, Lot 955-Lot 961, Seksyen 64, Bandar Aman Jaya, Seksyen 64, Bandar Aman Jaya, 08000,  Sungai Petani, Kedah Darul Aman", "addr:country": "MY", "name": "McDonald's Amanjaya DT", "phone": "04-4410974", "website": "https://www.mcdonalds.com.my", "contact:email": "S383@my.mcd.com", "brand": "McDonald\u2019s", "brand:wikidata": "Q38076"}, "geometry": {"type": "Point", "coordinates": [100.5102205, 5.6730823]}},
{"type": "Feature", "id": "TmK2rqSxwKy0n3LXRAvZCIh3yS0=", "properties": {"ref": "215", "@spider": "mcdonalds_my", "addr:full": "Lot 9169, 7th Mile, Jalan Pantai, Kampung Baharu, 71050 Port Dickson, Negeri Sembilan", "addr:country": "MY", "name": "McDonald's Shell Port Dickson DT", "phone": "06 - 6466815", "website": "https://www.mcdonalds.com.my", "contact:email": "s374@my.mcd.com", "brand": "McDonald\u2019s", "brand:wikidata": "Q38076"}, "geometry": {"type": "Point", "coordinates": [101.857923, 2.47339]}},
{"type": "Feature", "id": "iWhdDT1IQyvCEJmskGKe76PRbzM=", "properties": {"ref": "216", "@spider": "mcdonalds_my", "addr:full": "Lot PT 2781, Jalan Melang, Taman Melang, 72000 Kuala Pilah, Negeri Sembilan", "addr:country": "MY", "name": "McDonald's Kuala Pilah DT", "phone": "06-4831069", "website": "https://www.mcdonalds.com.my", "contact:email": "S384@my.mcd.com", "brand": "McDonald\u2019s", "brand:wikidata": "Q38076"}, "geometry": {"type": "Point", "coordinates": [102.235089, 2.73433]}},
{"type": "Feature", "id": "cvI29T2sZWE7xzO2aArU-5a9oFM=", "properties": {"ref": "217", "@spider": "mcdonalds_my", "addr:full": "PT1127, Jalan Kiara 1/2, Pusat Perniagaan Kiara, 72100 Bahau, Negeri Sembilan", "addr:country": "MY", "name": "McDonald's Bahau DT ", "phone": "06-4539877", "website": "https://www.mcdonalds.com.my", "contact:email": "s400@my.mcd.com", "brand": "McDonald\u2019s", "brand:wikidata": "Q38076"}, "geometry": {"type": "Point", "coordinates": [102.431691, 2.825381]}},
{"type": "Feature", "id": "GbKALStKGKT-yjkNM14bJE_DrUQ=", "properties": {"ref": "218", "@spider": "mcdonalds_my", "addr:full": "Lot 613, Jalan Seremban-Tampin, 73000 Tampin, Negeri Sembilan", "addr:country": "MY", "name": "McDonald's Tampin DT", "phone": "016-2372097", "website": "https://www.mcdonalds.com.my", "contact:email": "s402@my.mcd.com", "brand": "McDonald\u2019s", "brand:wikidata": "Q38076"}, "geometry": {"type": "Point", "coordinates": [102.226762, 2.473091]}},
{"type": "Feature", "id": "e_e9Gxv_wOKhLR5R4r6nklfy5P0=", "properties": {"ref": "219", "@spider": "mcdonalds_my", "addr:full": "No. 75, Jalan Inang 3, Taman Paya Rumput Utama, 76450, Bandar Cheng, Melaka, Malaysia", "addr:country": "MY", "name": "McDonald's Bandar Utama Cheng", "phone": "06-3122476", "website": "https://www.mcdonalds.com.my", "contact:email": "s273@my.mcd.com", "brand": "McDonald\u2019s", "brand:wikidata": "Q38076"}, "geometry": {"type": "Point", "coordinates": [102.215438, 2.280646]}},
{"type": "Feature", "id": "G4-W_xJf6ndG9R_dJjYcHUexptc=", "properties": {"ref": "220", "@spider": "mcdonalds_my", "addr:full": "Sebahagian Lot 23344, Jalan Pantai Belimbing,75260 Krubong, Melaka", "addr:country": "MY", "name": "McDonald's Caltex Krubong DT", "website": "https://www.mcdonalds.com.my", "contact:email": "s446@my.mcd.com", "brand": "McDonald\u2019s", "brand:wikidata": "Q38076"}, "geometry": {"type": "Point", "coordinates": [102.24862, 2.29776]}},
{"type": "Feature", "id": "5zRUcvC_T7wfhi_BG8IETZwrUSY=", "properties": {"ref": "221", "@spider": "mcdonalds_my", "addr:full": "GM 229, Lot 18859, Mukim Bertam, 75260 Daerah Melaka Tengah, Melaka", "addr:country": "MY", "name": "McDonald's AMJ Bertam DT", "phone": "06-3347865", "website": "https://www.mcdonalds.com.my", "contact:email": "s389@my.mcd.com", "brand": "McDonald\u2019s", "brand:wikidata": "Q38076"}, "geometry": {"type": "Point", "coordinates": [102.222233, 2.253646]}},
{"type": "Feature", "id": "74nfRcRF-n8jAsQ0KeW1Qm2IJn0=", "properties": {"ref": "222", "@spider": "mcdonalds_my", "addr:full": "Lot PT  13668, Mukim Batu Berendam, Melaka Tengah, 75350, Hang Tuah Jaya, Melaka, Malaysia", "addr:country": "MY", "name": "McDonald's Batu Berendam DT", "phone": "06-3173461", "website": "https://www.mcdonalds.com.my", "contact:email": "s274@my.mcd.com", "brand": "McDonald\u2019s", "brand:wikidata": "Q38076"}, "geometry": {"type": "Point", "coordinates": [102.2459, 2.251997]}},
{"type": "Feature", "id": "5hb4SpYHKjsxUmVP2pjFdhb7EW4=", "properties": {"ref": "223", "@spider": "mcdonalds_my", "addr:full": "Lot 15702, Mukim Bukit Katil, Daerah Melaka Tengah, Hang Tuah Jaya, 75450, Melaka, Malaysia", "addr:country": "MY", "name": "McDonald's MITC Melaka DT", "phone": "06-2314743 ", "website": "https://www.mcdonalds.com.my", "contact:email": "s294@my.mcd.com", "brand": "McDonald\u2019s", "brand:wikidata": "Q38076"}, "geometry": {"type": "Point", "coordinates": [102.285796, 2.273822]}},
{"type": "Feature", "id": "-hgUXvF_wZsvxXvTpTLbj5M-aiY=", "properties": {"ref": "224", "@spider": "mcdonalds_my", "addr:full": "PSS Maka, Lot 9844 & 9845, Mukim of Maka, 17500 Jajahan Tanah Merah, Kelantan.", "addr:country": "MY", "name": "McDonald's Petronas Tanah Merah DT", "website": "https://www.mcdonalds.com.my", "contact:email": "s418@my.mcd.com", "brand": "McDonald\u2019s", "brand:wikidata": "Q38076"}, "geometry": {"type": "Point", "coordinates": [102.149476, 5.821232]}},
{"type": "Feature", "id": "SfinZ1E2EWnRJBqtbMPekp2VyJ4=", "properties": {"ref": "225", "@spider": "mcdonalds_my", "addr:full": "Lot 4570 Taman Buaya Melaka, Mukim Bukit Katil, Daerah Melaka Tengah, 75320, Air Keroh, Melaka, Malaysia", "addr:country": "MY", "name": "McDonald's Taman Buaya DT", "phone": "06-2337400", "website": "https://www.mcdonalds.com.my", "contact:email": "s141@my.mcd.com", "brand": "McDonald\u2019s", "brand:wikidata": "Q38076"}, "geometry": {"type": "Point", "coordinates": [102.298276, 2.277511]}},
{"type": "Feature", "id": "-f5UP9nN2fT3PNe2TjOsh5X0eD8=", "properties": {"ref": "226", "@spider": "mcdonalds_my", "addr:full": "Lot PT188, Pekan Klebang Sek. IV, Daerah Melaka Tengah, Bandaraya Melaka, 75200, Melaka, Malaysia", "addr:country": "MY", "name": "McDonald's Kota Laksamana DT", "phone": "06-2821406", "website": "https://www.mcdonalds.com.my", "contact:email": "s327@my.mcd.com", "brand": "McDonald\u2019s", "brand:wikidata": "Q38076"}, "geometry": {"type": "Point", "coordinates": [102.223247, 2.202883]}},
{"type": "Feature", "id": "kT2KrozFKa-Rg9igksEfa5uEFnU=", "properties": {"ref": "227", "@spider": "mcdonalds_my", "addr:full": "Plaza Melaka Sentral, Lot No. 59, Zone D, Ground Floor, 75000, Melaka, Malaysia", "addr:country": "MY", "name": "McDonald's Melaka Sentral", "phone": "06-2841224", "website": "https://www.mcdonalds.com.my", "contact:email": "s220@my.mcd.com", "brand": "McDonald\u2019s", "brand:wikidata": "Q38076"}, "geometry": {"type": "Point", "coordinates": [102.250072, 2.221022]}},
{"type": "Feature", "id": "BFJrLMMDzNeUwWJHqIiMOH9hUB8=", "properties": {"ref": "228", "@spider": "mcdonalds_my", "addr:full": "Sebahagian Lot PT 3368, Leboh Ayeh Keroh, Mukim Bukit Baru, 75450, Melaka, Malaysia", "addr:country": "MY", "name": "McDonald's Melaka Mall DT", "phone": "06-3170712", "website": "https://www.mcdonalds.com.my", "contact:email": "s239@my.mcd.com", "brand": "McDonald\u2019s", "brand:wikidata": "Q38076"}, "geometry": {"type": "Point", "coordinates": [102.281344, 2.231665]}},
{"type": "Feature", "id": "SiI1AUzscDDBr55J6buWxsb1gz8=", "properties": {"ref": "229", "@spider": "mcdonalds_my", "addr:full": "No 8-A, Jalan Alor Mengkudu, 05400, Alor Setar, Kedah, Malaysia", "addr:country": "MY", "name": "McDonald's Alor Mengkudu DT", "phone": "04-7317304 ", "website": "https://www.mcdonalds.com.my", "contact:email": "s314@my.mcd.com", "brand": "McDonald\u2019s", "brand:wikidata": "Q38076"}, "geometry": {"type": "Point", "coordinates": [100.376115, 6.096192]}},
{"type": "Feature", "id": "r8rEOseFtL_oWhZarPCr4lisfek=", "properties": {"ref": "230", "@spider": "mcdonalds_my", "addr:full": "Lot 4985, Jalan Tun Hamzah, Mukim Bukit Katil, 75450 Bukit Katil, Melaka", "addr:country": "MY", "name": "McDonald's PSS Bukit Katil DT", "phone": "06-3182439", "website": "https://www.mcdonalds.com.my", "contact:email": "s393@my.mcd.com", "brand": "McDonald\u2019s", "brand:wikidata": "Q38076"}, "geometry": {"type": "Point", "coordinates": [102.301093, 2.235689]}},
{"type": "Feature", "id": "etAxGXA7QT8rozkMUIiFbpqEUUk=", "properties": {"ref": "231", "@spider": "mcdonalds_my", "addr:full": "Lot A02, Dataran Pahlawan Melaka Megamall, Jalan Merdeka, 75000, Melaka, Malaysia", "addr:country": "MY", "name": "McDonald's Dataran Pahlawan", "phone": "06-2810679", "website": "https://www.mcdonalds.com.my", "contact:email": "s206@my.mcd.com", "brand": "McDonald\u2019s", "brand:wikidata": "Q38076"}, "geometry": {"type": "Point", "coordinates": [102.248951, 2.190503]}},
{"type": "Feature", "id": "q0TIRPgZCIEvUD0fZXSSZOXjE3E=", "properties": {"ref": "232", "@spider": "mcdonalds_my", "addr:full": "FG-15 & FG-16, Ground Floor, Dataran Pahlawan Melaka Megamall, Jalan Merdeka, 75000, Melaka, Malaysia", "addr:country": "MY", "name": "McDonald's Dataran Pahlawan 2", "phone": "06-2866079", "website": "https://www.mcdonalds.com.my", "contact:email": "s241@my.mcd.com", "brand": "McDonald\u2019s", "brand:wikidata": "Q38076"}, "geometry": {"type": "Point", "coordinates": [102.252978, 2.190281]}},
{"type": "Feature", "id": "mfqc2d7bPb349m_5T8YqLA0niBI=", "properties": {"ref": "233", "@spider": "mcdonalds_my", "addr:full": "GF7, City Plaza, Jalan Tuanku Ibrahim, 05100, Alor Setar, Kedah, Malaysia", "addr:country": "MY", "name": "McDonald's City Plaza", "phone": "04-7308288 ", "website": "https://www.mcdonalds.com.my", "contact:email": "s086@my.mcd.com", "brand": "McDonald\u2019s", "brand:wikidata": "Q38076"}, "geometry": {"type": "Point", "coordinates": [100.369718, 6.11773]}},
{"type": "Feature", "id": "mEhsxJ9xhW5xc2QUDu46YM0n4F0=", "properties": {"ref": "234", "@spider": "mcdonalds_my", "addr:full": "Unit 1-39A, 58, 59, 60, 67 & 68, First Floor, Aman Central, 05100, Alor Setar, Kedah, Malaysia", "addr:country": "MY", "name": "McDonald's Aman Central", "phone": "04-7319299", "website": "https://www.mcdonalds.com.my", "contact:email": "s348@my.mcd.com", "brand": "McDonald\u2019s", "brand:wikidata": "Q38076"}, "geometry": {"type": "Point", "coordinates": [100.366629, 6.12524]}},
{"type": "Feature", "id": "bu0vC_B2pHXj887Q4nXqBklcXvY=", "properties": {"ref": "235", "@spider": "mcdonalds_my", "addr:full": "Lot 81, Jalan Sultanah Bahiyah, Mukim Alor Malai. 05350 Kota Setar Kedah", "addr:country": "MY", "name": "McDonald's Kota Star DT", "phone": "04-7372976", "website": "https://www.mcdonalds.com.my", "contact:email": "s406@my.mcd.com", "brand": "McDonald\u2019s", "brand:wikidata": "Q38076"}, "geometry": {"type": "Point", "coordinates": [100.3654614, 6.1431924]}},
{"type": "Feature", "id": "T5mSdjj-bH_Jxrzoc2UWaxTnDxA=", "properties": {"ref": "236", "@spider": "mcdonalds_my", "addr:full": "Lot 121596, Jalan Kuantan Gambang, Kuala Kuantan, 25150, Kuantan, Pahang, Malaysia", "addr:country": "MY", "name": "McDonald's Jalan Gambang DT", "phone": "09-5362746", "website": "https://www.mcdonalds.com.my", "contact:email": "s343@my.mcd.com", "brand": "McDonald\u2019s", "brand:wikidata": "Q38076"}, "geometry": {"type": "Point", "coordinates": [103.276752, 3.779836]}},
{"type": "Feature", "id": "fdWCcyXMOat81hdYa3TBTtUCbRI=", "properties": {"ref": "237", "@spider": "mcdonalds_my", "addr:full": "Lot 282, Mukim Mahang West, Daerah Ketereh, Jajahan Kota Bahru, 16450, Kelantan, Malaysia", "addr:country": "MY", "name": "McDonald's Kok Lanas DT", "phone": "09-7882107", "website": "https://www.mcdonalds.com.my", "contact:email": "s321@my.mcd.com", "brand": "McDonald\u2019s", "brand:wikidata": "Q38076"}, "geometry": {"type": "Point", "coordinates": [102.244611, 5.921957]}},
{"type": "Feature", "id": "6EeU_JgdVeu6yTcWER6lpMoD-m4=", "properties": {"ref": "238", "@spider": "mcdonalds_my", "addr:full": "Lot PT 96403, Bandar Indera Mahkota, Mukim Kuala Kuantan, 25200, Kuantan, Pahang, Malaysia", "addr:country": "MY", "name": "McDonald's Indera Mahkota DT", "phone": "09-5737552", "website": "https://www.mcdonalds.com.my", "contact:email": "s292@my.mcd.com", "brand": "McDonald\u2019s", "brand:wikidata": "Q38076"}, "geometry": {"type": "Point", "coordinates": [103.304488, 3.825664]}},
{"type": "Feature", "id": "zsbzvUCcs1tr2lt2qVZfRncwqpM=", "properties": {"ref": "239", "@spider": "mcdonalds_my", "addr:full": "PT 6370, Jalan BMU 1, Bandar Baru Merlimau Utara, 77300 Merlimau, Melaka", "addr:country": "MY", "name": "McDonald's Merlimau DT", "phone": "06-2639126", "website": "https://www.mcdonalds.com.my", "contact:email": "s409@my.mcd.com", "brand": "McDonald\u2019s", "brand:wikidata": "Q38076"}, "geometry": {"type": "Point", "coordinates": [102.431728, 2.169054]}},
{"type": "Feature", "id": "O1XbIQ6dX5jH_bHl-DcL8ba_Z8k=", "properties": {"ref": "240", "@spider": "mcdonalds_my", "addr:full": "Sebahagian Lot 57 & Sebahagian Lot 5, Jalan Tanah Putih, 25000, Kuantan, Pahang", "addr:country": "MY", "name": "McDonald's Kuantan Riverfront DT", "phone": "09-5132665", "website": "https://www.mcdonalds.com.my", "contact:email": "s356@my.mcd.com", "brand": "McDonald\u2019s", "brand:wikidata": "Q38076"}, "geometry": {"type": "Point", "coordinates": [103.322594, 3.799071]}},
{"type": "Feature", "id": "DwL57_xK8t1KgjhcYKXCnoKaVQU=", "properties": {"ref": "241", "@spider": "mcdonalds_my", "addr:full": "Lot No. G-89 & 1-85 (Ground & First), Berjaya Megamall, Jalan Tun Ismail, Sri Dagangan, 25000, Kuantan, Pahang, Malaysia", "addr:country": "MY", "name": "McDonald's Mega Mall Kuantan", "phone": "09-5316255", "website": "https://www.mcdonalds.com.my", "contact:email": "s124@my.mcd.com", "brand": "McDonald\u2019s", "brand:wikidata": "Q38076"}, "geometry": {"type": "Point", "coordinates": [103.330452, 3.816003]}},
{"type": "Feature", "id": "kHABVdLasONEAvrJG3tTWiAjO8M=", "properties": {"ref": "242", "@spider": "mcdonalds_my", "addr:full": "Shop No. 111,112,113, Jalan Sia Har Yam, 85000, Segamat, Johor, Malaysia", "addr:country": "MY", "name": "McDonald's Segamat", "phone": "07-9320531", "website": "https://www.mcdonalds.com.my", "contact:email": "s063@my.mcd.com", "brand": "McDonald\u2019s", "brand:wikidata": "Q38076"}, "geometry": {"type": "Point", "coordinates": [102.821686, 2.503335]}},
{"type": "Feature", "id": "di3VhAygMofw1g9cZ6_EbgGGD5w=", "properties": {"ref": "243", "@spider": "mcdonalds_my", "addr:full": "Kawasan Rekreasi Teluk Cempedak, Jalan Teluk Cempedak, 25100, Kuantan, Pahang, Malaysia", "addr:country": "MY", "name": "McDonald's Teluk Cempedak DT", "phone": "09-5054573", "website": "https://www.mcdonalds.com.my", "contact:email": "s159@my.mcd.com", "brand": "McDonald\u2019s", "brand:wikidata": "Q38076"}, "geometry": {"type": "Point", "coordinates": [103.37171, 3.812396]}},
{"type": "Feature", "id": "-2Eh-0pt3-zGHwNuejWSbwRZZHs=", "properties": {"ref": "244", "@spider": "mcdonalds_my", "addr:full": "Sebahagian Tanah Taman Tasik Sultan Abu Bakar, 26600, Pekan Bandar DiRaja, Pekan, Pahang, Malaysia", "addr:country": "MY", "name": "McDonald's Pekan DT", "phone": "09-4269299", "website": "https://www.mcdonalds.com.my", "contact:email": "s299@my.mcd.com", "brand": "McDonald\u2019s", "brand:wikidata": "Q38076"}, "geometry": {"type": "Point", "coordinates": [103.385463, 3.539354]}},
{"type": "Feature", "id": "H1ay9v-RA82OO4d51hrk_CHtMW0=", "properties": {"ref": "245", "@spider": "mcdonalds_my", "addr:full": "Lot 2994, Jalan Kuala Krai, Wakaf Che Yeh, 15050, Kota Bahru, Kelantan, Malaysia", "addr:country": "MY", "name": "McDonald's Kota Bahru DT", "phone": "09-7405427", "website": "https://www.mcdonalds.com.my", "contact:email": "s242@my.mcd.com", "brand": "McDonald\u2019s", "brand:wikidata": "Q38076"}, "geometry": {"type": "Point", "coordinates": [102.238965, 6.086991]}},
{"type": "Feature", "id": "gy_2K-1FAlQRtl3AQHWGpe8s5z8=", "properties": {"ref": "246", "@spider": "mcdonalds_my", "addr:full": "K-191, Jalan Kubang Kurus, Cukai Kemaman, 24000, Kemaman, Terengganu, Malaysia", "addr:country": "MY", "name": "McDonald's Caltex Chukai", "phone": "09-8585579", "website": "https://www.mcdonalds.com.my", "contact:email": "s350@my.mcd.com", "brand": "McDonald\u2019s", "brand:wikidata": "Q38076"}, "geometry": {"type": "Point", "coordinates": [103.419971, 4.22948]}},
{"type": "Feature", "id": "C3wk6gVrweF0kIDY-SHuGBKjUSk=", "properties": {"ref": "247", "@spider": "mcdonalds_my", "addr:full": "Lot 3201, Stesyen Minyak Petronas, Kampung Pasir Pekan, 16250, Pasir Pekan Kota Bharu, Kelantan Darul Naim", "addr:country": "MY", "name": "McDonald's Petronas Pasir Pekan DT", "phone": "09-7186061", "website": "https://www.mcdonalds.com.my", "contact:email": "s381@my.mcd.com", "brand": "McDonald\u2019s", "brand:wikidata": "Q38076"}, "geometry": {"type": "Point", "coordinates": [102.2165414, 6.1190494]}},
{"type": "Feature", "id": "x2Kz6WMGyzOqxBa9LkyTYeP2wD0=", "properties": {"ref": "248", "@spider": "mcdonalds_my", "addr:full": "Lot 523 Seksyen 54, Mukim Kenali, Daerah Kubang Kerian, Jajahan Kota Bharu, Kelantan Darul Naim", "addr:country": "MY", "name": "McDonald's Kubang Kerian DT", "website": "https://www.mcdonalds.com.my", "contact:email": "s432@my.mcd.com", "brand": "McDonald\u2019s", "brand:wikidata": "Q38076"}, "geometry": {"type": "Point", "coordinates": [102.27775, 6.093778]}},
{"type": "Feature", "id": "ShRho-9gzhGW9SvfBFUHa5vKRXc=", "properties": {"ref": "249", "@spider": "mcdonalds_my", "addr:full": "Lot No. 29A & 30, Ground Floor, KB Mall, Jalan Hamzah, 15050, Kota Bharu, Kelantan, Malaysia", "addr:country": "MY", "name": "McDonald's KB Mall", "phone": "09-7419787", "website": "https://www.mcdonalds.com.my", "contact:email": "s196@my.mcd.com", "brand": "McDonald\u2019s", "brand:wikidata": "Q38076"}, "geometry": {"type": "Point", "coordinates": [102.240196, 6.117193]}},
{"type": "Feature", "id": "d5KVrBtIimwlDFILG5MOUKDLj0k=", "properties": {"ref": "250", "@spider": "mcdonalds_my", "addr:full": "Lot 1-1, 1-2 Residensi Troika, Jalan Mahmood, 15200 Kota Bharu, Kelantan", "addr:country": "MY", "name": "McDonald's Troika ", "website": "https://www.mcdonalds.com.my", "contact:email": "s442@my.mcd.com", "brand": "McDonald\u2019s", "brand:wikidata": "Q38076"}, "geometry": {"type": "Point", "coordinates": [102.240525, 6.120501]}},
{"type": "Feature", "id": "MgOTb0OMNtQwnGXoD_9dIkHMpyQ=", "properties": {"ref": "251", "@spider": "mcdonalds_my", "addr:full": "Lot PT 7132, Mukim Kerteh, 24300, Daerah Kemaman, Terengganu, Malaysia", "addr:country": "MY", "name": "McDonald's Sri Kerteh DT", "phone": "09-8266920", "website": "https://www.mcdonalds.com.my", "contact:email": "s177@my.mcd.com", "brand": "McDonald\u2019s", "brand:wikidata": "Q38076"}, "geometry": {"type": "Point", "coordinates": [103.442922, 4.506567]}},
{"type": "Feature", "id": "CgDtPch8nCfrXMdnZyAEub93tWI=", "properties": {"ref": "252", "@spider": "mcdonalds_my", "addr:full": "Lot 3540, Jalan Sultan Mohammad, Padang Hiliran, 21100, Kuala Terengganu, Terengganu, Malaysia", "addr:country": "MY", "name": "McDonald's Kuala Terengganu DT", "phone": "09-6313901", "website": "https://www.mcdonalds.com.my", "contact:email": "s240@my.mcd.com", "brand": "McDonald\u2019s", "brand:wikidata": "Q38076"}, "geometry": {"type": "Point", "coordinates": [103.129287, 5.310455]}},
{"type": "Feature", "id": "BHWZ0gnZ87VrBLxZo_vZUrpkp6Y=", "properties": {"ref": "253", "@spider": "mcdonalds_my", "addr:full": "G-25, Wetex Parade, Jalan Ali, 84000, Muar, Johor, Malaysia", "addr:country": "MY", "name": "McDonald's Muar", "phone": "06-9517848", "website": "https://www.mcdonalds.com.my", "contact:email": "s065@my.mcd.com", "brand": "McDonald\u2019s", "brand:wikidata": "Q38076"}, "geometry": {"type": "Point", "coordinates": [102.566181, 2.04456]}},
{"type": "Feature", "id": "3xA1-sE1nt2ItAxarqRjFkFkf7E=", "properties": {"ref": "254", "@spider": "mcdonalds_my", "addr:full": "Lot No. 9154 GM4340, Jalan Tengku Ampuan Intan Zaharah, Mukim Kuala Nerus, 21300, Kuala Terengganu, Terengganu, Malaysia", "addr:country": "MY", "name": "McDonald's Gong Badak DT  ", "phone": "09-6627800", "website": "https://www.mcdonalds.com.my", "contact:email": "s317@my.mcd.com", "brand": "McDonald\u2019s", "brand:wikidata": "Q38076"}, "geometry": {"type": "Point", "coordinates": [103.084856, 5.39816]}},
{"type": "Feature", "id": "VMoD2jvo7LUWtqDOI2KkRZF7r9Y=", "properties": {"ref": "255", "@spider": "mcdonalds_my", "addr:full": "Jalan Bendahara 1/36, Taman Bendahara, Pengkalan Chepa, 16100, Kota Baru, Kelantan, Malaysia", "addr:country": "MY", "name": "McDonald's Pengkalan Chepa DT", "phone": "09-7731763", "website": "https://www.mcdonalds.com.my", "contact:email": "s298@my.mcd.com", "brand": "McDonald\u2019s", "brand:wikidata": "Q38076"}, "geometry": {"type": "Point", "coordinates": [102.283544, 6.163431]}},
{"type": "Feature", "id": "QPnPFjNGarJMmzPmj_s3QGKbVcU=", "properties": {"ref": "256", "@spider": "mcdonalds_my", "addr:full": "Lot 3070, Jalan Bakri, Mukim Bandar Maharani, 84000, Muar, Johor, Malaysia", "addr:country": "MY", "name": "McDonald's Muar DT", "phone": "06-9510753", "website": "https://www.mcdonalds.com.my", "contact:email": "s340@my.mcd.com", "brand": "McDonald\u2019s", "brand:wikidata": "Q38076"}, "geometry": {"type": "Point", "coordinates": [102.59325, 2.048498]}},
{"type": "Feature", "id": "_Y5w4g7clxmUYlKKsOhIu1DYYkw=", "properties": {"ref": "257", "@spider": "mcdonalds_my", "addr:full": "Ground Floor & 1st Floor, Jalan Baru Pak Sabah, Mukim Kuala Dungun, 23000, Dungun, Terengganu, Malaysia", "addr:country": "MY", "name": "McDonald's Dungun", "phone": "09-8441334", "website": "https://www.mcdonalds.com.my", "contact:email": "s259@my.mcd.com", "brand": "McDonald\u2019s", "brand:wikidata": "Q38076"}, "geometry": {"type": "Point", "coordinates": [103.414494, 4.755274]}},
{"type": "Feature", "id": "8dGHZe58suJFIwwJgsKj2K4Fd9E=", "properties": {"ref": "258", "@spider": "mcdonalds_my", "addr:full": "Jalan Kampung Bakau, 01000, Kangar, Perlis, Malaysia", "addr:country": "MY", "name": "McDonald's Kangar DT", "phone": "04-9779336", "website": "https://www.mcdonalds.com.my", "contact:email": "s336@my.mcd.com", "brand": "McDonald\u2019s", "brand:wikidata": "Q38076"}, "geometry": {"type": "Point", "coordinates": [100.196158, 6.432622]}},
{"type": "Feature", "id": "SHsuni-F8f8pQbxytbuXITrYCgk=", "properties": {"ref": "259", "@spider": "mcdonalds_my", "addr:full": "GF3, Langkawi Fair, Lot 44, Jalan Persiaran Putra, 07000, Langkawi, Kedah, Malaysia", "addr:country": "MY", "name": "McDonald's Langkawi Fair", "phone": "04-9662388", "website": "https://www.mcdonalds.com.my", "contact:email": "s112@my.mcd.com", "brand": "McDonald\u2019s", "brand:wikidata": "Q38076"}, "geometry": {"type": "Point", "coordinates": [99.85622, 6.310419]}},
{"type": "Feature", "id": "AJrEKuP4hbGVyH486PkKX7lTHyU=", "properties": {"ref": "260", "@spider": "mcdonalds_my", "addr:full": "Lot 107, Mukim Kuah, 07000 Daerah Langkawi Kedah", "addr:country": "MY", "name": "McDonald's Langkawi Kuah DT", "website": "https://www.mcdonalds.com.my", "contact:email": "s437@my.mcd.com\r\n", "brand": "McDonald\u2019s", "brand:wikidata": "Q38076"}, "geometry": {"type": "Point", "coordinates": [99.834406, 6.32844]}},
{"type": "Feature", "id": "NlbgEYobBTtVvMtMvznorg5jsF4=", "properties": {"ref": "261", "@spider": "mcdonalds_my", "addr:full": "Pantai Cenang, 07000, Langkawi, Kedah, Malaysia", "addr:country": "MY", "name": "McDonald's Underwater World Langkawi", "phone": "04-9551565 ", "website": "https://www.mcdonalds.com.my", "contact:email": "s291@my.mcd.com", "brand": "McDonald\u2019s", "brand:wikidata": "Q38076"}, "geometry": {"type": "Point", "coordinates": [99.72959, 6.286845]}},
{"type": "Feature", "id": "JA-BNah8eNYvwM-G3LQd4b2nTrc=", "properties": {"ref": "262", "@spider": "mcdonalds_my", "addr:full": "Lot PTD 48029, Taman Flora Utama, Jalan Tan Swee Hoe, 83000, Batu Pahat, Johor, Malaysia", "addr:country": "MY", "name": "McDonald's Batu Pahat DT", "phone": "07-4339286", "website": "https://www.mcdonalds.com.my", "contact:email": "s232@my.mcd.com", "brand": "McDonald\u2019s", "brand:wikidata": "Q38076"}, "geometry": {"type": "Point", "coordinates": [102.947235, 1.865327]}},
{"type": "Feature", "id": "vh6UuLY3Av9vnHArYAqnaMoBml0=", "properties": {"ref": "263", "@spider": "mcdonalds_my", "addr:full": "Lot 20398 HS (D) 59406, MK Sri Gading, 83300, Batu Pahat, Johor, Malaysia", "addr:country": "MY", "name": "McDonald's Parit Raja DT", "phone": "07-4535286", "website": "https://www.mcdonalds.com.my", "contact:email": "s268@my.mcd.com", "brand": "McDonald\u2019s", "brand:wikidata": "Q38076"}, "geometry": {"type": "Point", "coordinates": [103.075914, 1.848982]}},
{"type": "Feature", "id": "p87HFb2gCrVZyMi7zFF5hizJu0M=", "properties": {"ref": "264", "@spider": "mcdonalds_my", "addr:full": "265 & 343, GM. 3095 Dan GM. 3096, Jalan Kluang - Air Hitam, 86000, Kluang, Johor, Malaysia", "addr:country": "MY", "name": "McDonald's Kluang DT", "phone": "07-7714658", "website": "https://www.mcdonalds.com.my", "contact:email": "s308@my.mcd.com", "brand": "McDonald\u2019s", "brand:wikidata": "Q38076"}, "geometry": {"type": "Point", "coordinates": [103.297813, 2.018448]}},
{"type": "Feature", "id": "nFGhgK6qZvGymSjv0i1PjCzTFgY=", "properties": {"ref": "265", "@spider": "mcdonalds_my", "addr:full": "No. 1, Jalan Md. Lazim Saim, 86000, Kluang, Johor, Malaysia", "addr:country": "MY", "name": "McDonald's Kluang", "phone": "07-7716134", "website": "https://www.mcdonalds.com.my", "contact:email": "s089@my.mcd.com", "brand": "McDonald\u2019s", "brand:wikidata": "Q38076"}, "geometry": {"type": "Point", "coordinates": [103.320414, 2.034448]}},
{"type": "Feature", "id": "cLLvhy4zJZu__N5itvhX2SDwfiM=", "properties": {"ref": "266", "@spider": "mcdonalds_my", "addr:full": "Lot 17143, Jalan Besar, Mukim Renggam, Simpang Renggam, 86200 Kluang, Johor", "addr:country": "MY", "name": "McDonald's Simpang Renggam DT", "phone": "011-10895318", "website": "https://www.mcdonalds.com.my", "contact:email": "s414@my.mcd.com", "brand": "McDonald\u2019s", "brand:wikidata": "Q38076"}, "geometry": {"type": "Point", "coordinates": [103.315606, 1.822241]}},
{"type": "Feature", "id": "URFy1lejjpvo_FjO3MVvSXfjebM=", "properties": {"ref": "267", "@spider": "mcdonalds_my", "addr:full": "Lot 13182, Jalan Delima, Mukim Bandar Pontian Kecil, 82000, Pontian, Johor, Malaysia", "addr:country": "MY", "name": "McDonald's Pontian DT", "phone": "07-6883200", "website": "https://www.mcdonalds.com.my", "contact:email": "s288@my.mcd.com", "brand": "McDonald\u2019s", "brand:wikidata": "Q38076"}, "geometry": {"type": "Point", "coordinates": [103.392124, 1.478419]}},
{"type": "Feature", "id": "C8P1JgQTOztJh426eocqKXZaDis=", "properties": {"ref": "268", "@spider": "mcdonalds_my", "addr:full": "Lot 1150, Jalan Kasturi 36/41, Indahpura, 81000, Kulai, Johor Bahru, Johor, Malaysia", "addr:country": "MY", "name": "McDonald's Kulai DT", "phone": "07-6626515", "website": "https://www.mcdonalds.com.my", "contact:email": "s200@my.mcd.com", "brand": "McDonald\u2019s", "brand:wikidata": "Q38076"}, "geometry": {"type": "Point", "coordinates": [103.625675, 1.638243]}},
{"type": "Feature", "id": "m6xvQ3KC2i7UToazQk9mqfnwkYE=", "properties": {"ref": "269", "@spider": "mcdonalds_my", "addr:full": "LG08, Jusco Shopping Center, No. 4, Jalan Pendidikan, Taman Universiti, 81300, Skudai, Johor, Malaysia", "addr:country": "MY", "name": "McDonald's AEON Taman University", "phone": "07-5506427", "website": "https://www.mcdonalds.com.my", "contact:email": "s168@my.mcd.com", "brand": "McDonald\u2019s", "brand:wikidata": "Q38076"}, "geometry": {"type": "Point", "coordinates": [103.629175, 1.542346]}},
{"type": "Feature", "id": "eRQYJ7mQxOLquOdmmnjVwpNsCn8=", "properties": {"ref": "270", "@spider": "mcdonalds_my", "addr:full": "Lot PT 61054, Batu 11, Jalan Pontian, 81300, Skudai, Johor, Malaysia", "addr:country": "MY", "name": "McDonald's UTM Skudai DT", "phone": "07-5621047", "website": "https://www.mcdonalds.com.my", "contact:email": "s202@my.mcd.com", "brand": "McDonald\u2019s", "brand:wikidata": "Q38076"}, "geometry": {"type": "Point", "coordinates": [103.650721, 1.550878]}},
{"type": "Feature", "id": "mIkyoBPq-mex0gSctMMct8ezGNg=", "properties": {"ref": "271", "@spider": "mcdonalds_my", "addr:full": "Sebahagian Lot 2144714, Lot 2 (PTD 176566), Taman Mutiara Rini, Mukim Pulai, 86000 Johor Bahru, Johor, Malaysia", "addr:country": "MY", "name": "McDonald's Mutiara Rini DT                         ", "phone": "07-5212450", "website": "https://www.mcdonalds.com.my", "contact:email": "s309@my.mcd.com", "brand": "McDonald\u2019s", "brand:wikidata": "Q38076"}, "geometry": {"type": "Point", "coordinates": [103.634202, 1.514741]}},
{"type": "Feature", "id": "vWOQcBBProkPUDFgVSSQGLGTOk8=", "properties": {"ref": "272", "@spider": "mcdonalds_my", "addr:full": "Lot 13576, Taman Ungku Aminah, Mukim Pulai, 81300, Johor Bahru, Johor, Malaysia", "addr:country": "MY", "name": "McDonald's Taman Ungku Tun Aminah DT", "phone": "07-5571650", "website": "https://www.mcdonalds.com.my", "contact:email": "s281@my.mcd.com", "brand": "McDonald\u2019s", "brand:wikidata": "Q38076"}, "geometry": {"type": "Point", "coordinates": [103.656394, 1.513875]}},
{"type": "Feature", "id": "coQL_7kiXRvVyJFUkhlIJMER0qo=", "properties": {"ref": "273", "@spider": "mcdonalds_my", "addr:full": "Lot PT 135893, Jalan Roda Utama, 81300, Skudai, Johor Bahru, Johor, Malaysia", "addr:country": "MY", "name": "McDonald's Taman Sutera DT", "phone": "07-5565121", "website": "https://www.mcdonalds.com.my", "contact:email": "s207@my.mcd.com", "brand": "McDonald\u2019s", "brand:wikidata": "Q38076"}, "geometry": {"type": "Point", "coordinates": [103.678383, 1.523079]}},
{"type": "Feature", "id": "Vffd3r3jEmAytROznopowpDAq8Y=", "properties": {"ref": "274", "@spider": "mcdonalds_my", "addr:full": "No. 2, Jalan Jati, Taman Nusa Bestari Jaya, 81300, Johor Bahru, Johor, Malaysia", "addr:country": "MY", "name": "McDonald's Tan Sri Yaacob", "phone": "07-5122741", "website": "https://www.mcdonalds.com.my", "contact:email": "s197@my.mcd.com", "brand": "McDonald\u2019s", "brand:wikidata": "Q38076"}, "geometry": {"type": "Point", "coordinates": [103.655888, 1.497839]}},
{"type": "Feature", "id": "QP3x_dduMIOSittQrV1YGXfS_NE=", "properties": {"ref": "275", "@spider": "mcdonalds_my", "addr:full": "Lot 141190, Jalan Setia Tropika 1/21, Taman Setia Tropika, Mukim Tebrau, 81100, Johor Bahru, Johor, Malaysia", "addr:country": "MY", "name": "McDonald's Setia Tropika DT", "phone": "07-2342618", "website": "https://www.mcdonalds.com.my", "contact:email": "s272@my.mcd.com", "brand": "McDonald\u2019s", "brand:wikidata": "Q38076"}, "geometry": {"type": "Point", "coordinates": [103.715152, 1.548749]}},
{"type": "Feature", "id": "CxETNagk4gn2jMYi6W1HtWu3VzY=", "properties": {"ref": "276", "@spider": "mcdonalds_my", "addr:full": "Lot 4F-45B, Fourth Floor, Paradigm Mall JB, Jalan Skudai, 81200 Johor Bahru, Johor.", "addr:country": "MY", "name": "McDonald's Paradigm Mall JB", "phone": "07-2309173", "website": "https://www.mcdonalds.com.my", "contact:email": "s369@my.mcd.com", "brand": "McDonald\u2019s", "brand:wikidata": "Q38076"}, "geometry": {"type": "Point", "coordinates": [103.685767, 1.515158]}},
{"type": "Feature", "id": "BfoQb6Fan4INmHFRyqO35QJZl3w=", "properties": {"ref": "277", "@spider": "mcdonalds_my", "addr:full": "No. 57, Jalan Indah 15/2, Bukit Indah, 81200, Johor Bahru, Johor, Malaysia", "addr:country": "MY", "name": "McDonald's Bukit Indah DT", "phone": "07-2385535", "website": "https://www.mcdonalds.com.my", "contact:email": "s252@my.mcd.com", "brand": "McDonald\u2019s", "brand:wikidata": "Q38076"}, "geometry": {"type": "Point", "coordinates": [103.65776, 1.48168]}},
{"type": "Feature", "id": "NJkWS_jnICl2GtWidRfHIF_TVWc=", "properties": {"ref": "278", "@spider": "mcdonalds_my", "addr:full": "Lot 132943, Persiaran Jaya Putra, Taman Seri Austin, 81100 Johor Bahru, Johor.", "addr:country": "MY", "name": "McDonald's Seri Austin DT", "phone": "07-3643411", "website": "https://www.mcdonalds.com.my", "contact:email": "s411@my.mcd.com", "brand": "McDonald\u2019s", "brand:wikidata": "Q38076"}, "geometry": {"type": "Point", "coordinates": [103.749927, 1.579057]}},
{"type": "Feature", "id": "zp_O9rNKDhBBa7f9Y22p_pzzMOs=", "properties": {"ref": "279", "@spider": "mcdonalds_my", "addr:full": "Lot PTD 189218, Jalan Kampung Lalang, Educity, Iskandar Puteri, 79100 Johor Bahru, Johor ", "addr:country": "MY", "name": "McDonald's Educity JB DT", "phone": "07-5103667", "website": "https://www.mcdonalds.com.my", "contact:email": "s387@my.mcd.com", "brand": "McDonald\u2019s", "brand:wikidata": "Q38076"}, "geometry": {"type": "Point", "coordinates": [103.616117, 1.428935]}},
{"type": "Feature", "id": "weiebnX30VBbN85pjZTWglGqbps=", "properties": {"ref": "280", "@spider": "mcdonalds_my", "addr:full": "Lot 50844, Jalan Layang 16, Taman Perling, 81200 Johor Bahru, Johor", "addr:country": "MY", "name": "McDonald's PSS Taman Perling DT", "phone": "07-2171431", "website": "https://www.mcdonalds.com.my", "contact:email": "s415@my.mcd.com", "brand": "McDonald\u2019s", "brand:wikidata": "Q38076"}, "geometry": {"type": "Point", "coordinates": [103.66878, 1.4738]}},
{"type": "Feature", "id": "G-2Uw1qvmkJOOk8vVSPnZfwHf0E=", "properties": {"ref": "281", "@spider": "mcdonalds_my", "addr:full": "Lot No. PTD13309 & PTD52136, KM11 Jalan Skudai, Mukim Tebrau, 81200, Johor Bahru, Johor, Malaysia", "addr:country": "MY", "name": "McDonald's Petronas Skudai DT", "phone": "07-2383932", "website": "https://www.mcdonalds.com.my", "contact:email": "s170@my.mcd.com", "brand": "McDonald\u2019s", "brand:wikidata": "Q38076"}, "geometry": {"type": "Point", "coordinates": [103.697691, 1.500357]}},
{"type": "Feature", "id": "sAC8fWuSOay5weMbg4sUnXuhgPM=", "properties": {"ref": "282", "@spider": "mcdonalds_my", "addr:full": "Block A, Lot 2 Aras 1, Aras 2 & Lot 1 Aras 1, Jalan Niaga 11, Mukim Kota Tinggi, Daerah Kota Tinggi, 81900, Kota Tinggi, Johor, Malaysia", "addr:country": "MY", "name": "McDonald's Kota Tinggi", "phone": "07-8828825", "website": "https://www.mcdonalds.com.my", "contact:email": "s247@my.mcd.com", "brand": "McDonald\u2019s", "brand:wikidata": "Q38076"}, "geometry": {"type": "Point", "coordinates": [103.902428, 1.729912]}},
{"type": "Feature", "id": "NbxeW92Zxf2nCsGr-ed-o1twsM4=", "properties": {"ref": "283", "@spider": "mcdonalds_my", "addr:full": "Lot No. L1 - 27, Plaza Angsana, Jalan Skudai, Pusat Bandar Tampoi, 81000, Johor, Malaysia", "addr:country": "MY", "name": "McDonald's Plaza Angsana ", "phone": "07-2321277", "website": "https://www.mcdonalds.com.my", "contact:email": "s109@my.mcd.com", "brand": "McDonald\u2019s", "brand:wikidata": "Q38076"}, "geometry": {"type": "Point", "coordinates": [103.705668, 1.495077]}},
{"type": "Feature", "id": "FDk-Ln6e9m9PkGw9pQCK61Ok0hM=", "properties": {"ref": "284", "@spider": "mcdonalds_my", "addr:full": "Lot PTD 110501, Jalan Nipah 2, Taman Daya, 81100, Mukim Tebrau, Johor Bahru, Johor, Malaysia", "addr:country": "MY", "name": "McDonald's Taman Daya DT", "phone": " 07-3503205", "website": "https://www.mcdonalds.com.my", "contact:email": "s319@my.mcd.com", "brand": "McDonald\u2019s", "brand:wikidata": "Q38076"}, "geometry": {"type": "Point", "coordinates": [103.762622, 1.543576]}},
{"type": "Feature", "id": "RyyuwlI5qw8nl3msOcJ9mWk3THw=", "properties": {"ref": "285", "@spider": "mcdonalds_my", "addr:full": "Petronas Petrol Station, Lot No.105615, Jalan Pesona, Taman Pelangi Indah, 81800, Johor Bahru, Johor, Malaysia", "addr:country": "MY", "name": "McDonald's Pelangi Indah DT", "phone": "07-8610480", "website": "https://www.mcdonalds.com.my", "contact:email": "s187@my.mcd.com", "brand": "McDonald\u2019s", "brand:wikidata": "Q38076"}, "geometry": {"type": "Point", "coordinates": [103.800959, 1.582352]}},
{"type": "Feature", "id": "-1cze2nMBG6yK0iXnzHp2vlDGKs=", "properties": {"ref": "286", "@spider": "mcdonalds_my", "addr:full": "Lot 110034, Jalan Austin Heights 3, Taman Mount Austin, Mukim Tebrau, 81100, Johor Bahru, Johor, Malaysia", "addr:country": "MY", "name": "McDonald's Mount Austin DT", "phone": "07-3531918", "website": "https://www.mcdonalds.com.my", "contact:email": "s271@my.mcd.com", "brand": "McDonald\u2019s", "brand:wikidata": "Q38076"}, "geometry": {"type": "Point", "coordinates": [103.781721, 1.557757]}},
{"type": "Feature", "id": "cKPP1i6bmLWlf3ZNUsMSozSDyag=", "properties": {"ref": "287", "@spider": "mcdonalds_my", "addr:full": "Sebahagian Lot PTD 19827, Mukim Tebrau, Ulu Tiram, 81800, Johor Bahru, Johor, Malaysia", "addr:country": "MY", "name": "McDonald's Ulu Tiram DT", "phone": "07-8633429", "website": "https://www.mcdonalds.com.my", "contact:email": "s261@my.mcd.com", "brand": "McDonald\u2019s", "brand:wikidata": "Q38076"}, "geometry": {"type": "Point", "coordinates": [103.82003, 1.594882]}},
{"type": "Feature", "id": "z7IoXZfpmK_-HWfDSPfNEWrIp4I=", "properties": {"ref": "288", "@spider": "mcdonalds_my", "addr:full": "Lot PTD 83404, Taman Desa Tebrau,  81100 Mukim Tebrau, Johor Bahru", "addr:country": "MY", "name": "McDonald's Desa Tebrau DT", "phone": "015-96368490", "website": "https://www.mcdonalds.com.my", "contact:email": "s397@my.mcd.com", "brand": "McDonald\u2019s", "brand:wikidata": "Q38076"}, "geometry": {"type": "Point", "coordinates": [103.798566, 1.55525]}},
{"type": "Feature", "id": "sMfAdJqIswATxc3oe1hSYqwfd6Q=", "properties": {"ref": "289", "@spider": "mcdonalds_my", "addr:full": "Lot PTD 209631, Jalan Pandan, 81100, Johor Bahru, Johor, Malaysia", "addr:country": "MY", "name": "McDonald's Shell Jalan Pandan DT", "phone": "07-3512295", "website": "https://www.mcdonalds.com.my", "contact:email": "s366@my.mcd.com", "brand": "McDonald\u2019s", "brand:wikidata": "Q38076"}, "geometry": {"type": "Point", "coordinates": [103.772502, 1.525077]}},
{"type": "Feature", "id": "huHJKnJMUPoenEq5WhSWJPZdzoQ=", "properties": {"ref": "290", "@spider": "mcdonalds_my", "addr:full": "Lot PTD 68950, Batu 7 1/2, Jalan Kota Tinggi, 81100, Johor Bahru, Johor, Malaysia", "addr:country": "MY", "name": "McDonald's Jalan Tebrau DT", "phone": "07-3544108", "website": "https://www.mcdonalds.com.my", "contact:email": "s144@my.mcd.com", "brand": "McDonald\u2019s", "brand:wikidata": "Q38076"}, "geometry": {"type": "Point", "coordinates": [103.784543, 1.535706]}},
{"type": "Feature", "id": "bkr3YekSdUopmW_0UDuzc1VMRF0=", "properties": {"ref": "291", "@spider": "mcdonalds_my", "addr:full": "Sebahagian Lot PT 22062, Jalan Kolam Air, Bandar Johor Bahru, 80100, Johor Bahru, Johor, Malaysia", "addr:country": "MY", "name": "McDonald's Nong Chik DT", "phone": "07-2209040", "website": "https://www.mcdonalds.com.my", "contact:email": "s297@my.mcd.com", "brand": "McDonald\u2019s", "brand:wikidata": "Q38076"}, "geometry": {"type": "Point", "coordinates": [103.738872, 1.462667]}},
{"type": "Feature", "id": "05REsIhhCcmfPVQYYvt8dGal7IU=", "properties": {"ref": "292", "@spider": "mcdonalds_my", "addr:full": "Lot 1.19, Plaza Pelangi, Jalan Tebrau/Jalan Kuning, 80400, Johor Bahru, Johor, Malaysia", "addr:country": "MY", "name": "McDonald's Plaza Pelangi ", "phone": "07-3311746", "website": "https://www.mcdonalds.com.my", "contact:email": "s026@my.mcd.com", "brand": "McDonald\u2019s", "brand:wikidata": "Q38076"}, "geometry": {"type": "Point", "coordinates": [103.7651, 1.4799]}},
{"type": "Feature", "id": "DmRs2HlxaWP3oPJjLW-Dseczz-I=", "properties": {"ref": "293", "@spider": "mcdonalds_my", "addr:full": "No. M1-06-06A, Level 1, Johor Bahru City Square, Jalan Wong Ah Fook, 80400, Johor Bahru, Johor, Malaysia", "addr:country": "MY", "name": "McDonald's City Square", "phone": "07-2215801", "website": "https://www.mcdonalds.com.my", "contact:email": "s129@my.mcd.com", "brand": "McDonald\u2019s", "brand:wikidata": "Q38076"}, "geometry": {"type": "Point", "coordinates": [103.763575, 1.461972]}},
{"type": "Feature", "id": "j9BrVG8roWHuu67Mp0rhhrVM2wY=", "properties": {"ref": "294", "@spider": "mcdonalds_my", "addr:full": "Lot PTB 24076, Jalan Ibrahim Sultan, Stulang Laut, Bandar Johor Bahru, 80300 Johor Bahru, Johor", "addr:country": "MY", "name": "McDonald's Stulang DT", "phone": "07-2073794", "website": "https://www.mcdonalds.com.my", "contact:email": "s386@my.mcd.com", "brand": "McDonald\u2019s", "brand:wikidata": "Q38076"}, "geometry": {"type": "Point", "coordinates": [103.778644, 1.467432]}},
{"type": "Feature", "id": "Bb3qbMsRb1XG2k6TEmoGqw6gXDA=", "properties": {"ref": "295", "@spider": "mcdonalds_my", "addr:full": "No 2, Jalan Permas Jaya 10, Bandar Baru Permas Jaya, 80400, Johor Bahru, Johor, Malaysia", "addr:country": "MY", "name": "McDonald's Permas Jaya ", "phone": "07-3804925", "website": "https://www.mcdonalds.com.my", "contact:email": "s096@my.mcd.com", "brand": "McDonald\u2019s", "brand:wikidata": "Q38076"}, "geometry": {"type": "Point", "coordinates": [103.815515, 1.49526]}},
{"type": "Feature", "id": "0NbDXnwuY6JVhEM_VPtk21_U04o=", "properties": {"ref": "296", "@spider": "mcdonalds_my", "addr:full": "Lot PTD 174172, Jalan Seri Alam, Bandar Seri Alam, 81750, Masai, Johor, Malaysia", "addr:country": "MY", "name": "McDonald's Sri Alam Masai DT", "phone": "07 - 2564463", "website": "https://www.mcdonalds.com.my", "contact:email": "s230@my.mcd.com", "brand": "McDonald\u2019s", "brand:wikidata": "Q38076"}, "geometry": {"type": "Point", "coordinates": [103.870776, 1.496185]}},
{"type": "Feature", "id": "QboD6EuoWUlnanHIAVoexHraxYM=", "properties": {"ref": "297", "@spider": "mcdonalds_my", "addr:full": "Lot 85821, Taman Kota Masai, Plentong, 81700, Pasir Gudang, Johor, Malaysia", "addr:country": "MY", "name": "McDonald's Kota Masai DT", "phone": "07-2527842", "website": "https://www.mcdonalds.com.my", "contact:email": "s345@my.mcd.com", "brand": "McDonald\u2019s", "brand:wikidata": "Q38076"}, "geometry": {"type": "Point", "coordinates": [103.918802, 1.492546]}},
{"type": "Feature", "id": "eKO4OFMs1D5Rq4KXB1wXEX5M07A=", "properties": {"ref": "298", "@spider": "mcdonalds_my", "addr:full": "Lot PT 69990, HSD 124966, Jalan Bandar Mukim Plentong, Bandar Baru Pasir Gudang, 81700 Pasir Gudang, Johor, Malaysia", "addr:country": "MY", "name": "McDonald's Pasir Gudang DT", "phone": "07-2526102", "website": "https://www.mcdonalds.com.my", "contact:email": "s246@my.mcd.com", "brand": "McDonald\u2019s", "brand:wikidata": "Q38076"}, "geometry": {"type": "Point", "coordinates": [103.905013, 1.470203]}},
{"type": "Feature", "id": "E3JAHskrRTSSHtKDgcbmQPf7Wuk=", "properties": {"ref": "299", "@spider": "mcdonalds_my", "addr:full": "Lot No. L3 - L14, Public Concourse, Departure Level Terminal 1, Kota Kinabalu International Airport, 88100, Kota Kinabalu, Sabah, Malaysia", "addr:country": "MY", "name": "McDonald's KK Airport", "phone": "088-413791", "website": "https://www.mcdonalds.com.my", "contact:email": "s226@my.mcd.com", "brand": "McDonald\u2019s", "brand:wikidata": "Q38076"}, "geometry": {"type": "Point", "coordinates": [110.05062, 5.923602]}},
{"type": "Feature", "id": "Er1ZIfhMctrqYdB1vN9V9UpIN-c=", "properties": {"ref": "300", "@spider": "mcdonalds_my", "addr:full": "Lot 14212 (Plot 79), Metro City New Township, Section 65, Kuching Town Land District, Jalan Matang, 93050, Kuching, Sarawak, Malaysia", "addr:country": "MY", "name": "McDonald's Metro City DT", "phone": "082-646793", "website": "https://www.mcdonalds.com.my", "contact:email": "s335@my.mcd.com", "brand": "McDonald\u2019s", "brand:wikidata": "Q38076"}, "geometry": {"type": "Point", "coordinates": [110.308561, 1.568231]}},
{"type": "Feature", "id": "K2fRr6-um74pUPp25HO7VsVPm_Y=", "properties": {"ref": "301", "@spider": "mcdonalds_my", "addr:full": "Lot 3421 (Parent Lot 2433), Block 217 KNLD, Batu Kawa New Township, 93250, Kuching, Sarawak, Malaysia", "addr:country": "MY", "name": "McDonald's MJC Batu Kawa DT, Kuching", "phone": "082-462587", "website": "https://www.mcdonalds.com.my", "contact:email": "s326@my.mcd.com", "brand": "McDonald\u2019s", "brand:wikidata": "Q38076"}, "geometry": {"type": "Point", "coordinates": [110.304554, 1.511653]}},
{"type": "Feature", "id": "itDnvf2rCjKCYc_ULKWneuv8Xe4=", "properties": {"ref": "302", "@spider": "mcdonalds_my", "addr:full": "Plot 1, Lot 477 (Phase 2)  Block 17, Salak Land District, Jalan Semariang, 93050, Kuching, Sarawak, Malaysia", "addr:country": "MY", "name": "McDonald's Petrajaya DT", "phone": "082-506094", "website": "https://www.mcdonalds.com.my", "contact:email": "s355@my.mcd.com", "brand": "McDonald\u2019s", "brand:wikidata": "Q38076"}, "geometry": {"type": "Point", "coordinates": [110.331143, 1.586954]}},
{"type": "Feature", "id": "IENIWdgl6M35T2nv7fA6WJvcUrk=", "properties": {"ref": "303", "@spider": "mcdonalds_my", "addr:full": "Lot 180 & 181, Ground & 1st Floor, Bangunan Haji Abdul Rasit, Jalan Satok, 93400, Kuching, Sarawak, Malaysia", "addr:country": "MY", "name": "McDonald's Satok Kuching          ", "phone": "082-233598 ", "website": "https://www.mcdonalds.com.my", "contact:email": "s313@my.mcd.com", "brand": "McDonald\u2019s", "brand:wikidata": "Q38076"}, "geometry": {"type": "Point", "coordinates": [110.334022, 1.553416]}},
{"type": "Feature", "id": "1nU966MPnxWQZbyWfr8f03pxYpg=", "properties": {"ref": "304", "@spider": "mcdonalds_my", "addr:full": "Lot Nos. G-12, G-13, Part Of L1-15 and Alfresco Area, Plaza Merdeka, No 88, Pearl Street, 93000, Kuching, Sarawak, Malaysia", "addr:country": "MY", "name": "McDonald's Plaza Merdeka ", "phone": " 082-232479", "website": "https://www.mcdonalds.com.my", "contact:email": "s307@my.mcd.com", "brand": "McDonald\u2019s", "brand:wikidata": "Q38076"}, "geometry": {"type": "Point", "coordinates": [110.344069, 1.558775]}},
{"type": "Feature", "id": "ml55G84Eo6ItudcEp4XAWWH3Y_M=", "properties": {"ref": "305", "@spider": "mcdonalds_my", "addr:full": "Ground Floor, Shop Lot No. 12 & 13, 3rd Mile, Jalan Tun Ahmad Zaidi Adruce, 93250, Kuching, Sarawak, Malaysia", "addr:country": "MY", "name": "McDonald's Kuching II", "phone": "082-232265", "website": "https://www.mcdonalds.com.my", "contact:email": "s115@my.mcd.com", "brand": "McDonald\u2019s", "brand:wikidata": "Q38076"}, "geometry": {"type": "Point", "coordinates": [110.336949, 1.525011]}},
{"type": "Feature", "id": "hbj5au_5Jdg0WZdP9IPK4AW4ACM=", "properties": {"ref": "306", "@spider": "mcdonalds_my", "addr:full": "2nd Floor, Lot 268 - 269, Jalan Tuanku Abdul Rahman, 93100, Kuching, Sarawak, Malaysia", "addr:country": "MY", "name": "McDonald's Kuching ", "phone": "082-232278", "website": "https://www.mcdonalds.com.my", "contact:email": "s043@my.mcd.com", "brand": "McDonald\u2019s", "brand:wikidata": "Q38076"}, "geometry": {"type": "Point", "coordinates": [110.353033, 1.557502]}},
{"type": "Feature", "id": "Na3GHoZXrkz5V-waHEQBcz6PcGQ=", "properties": {"ref": "307", "@spider": "mcdonalds_my", "addr:full": "Lot 16843 (Lots 4581, 9210 and 9212), Block 11, MTLD Jalan Canna, 93150, Kuching, Sarawak, Malaysia", "addr:country": "MY", "name": "McDonald's Tabuan Jaya DT", "phone": "082-360395", "website": "https://www.mcdonalds.com.my", "contact:email": "s322@my.mcd.com", "brand": "McDonald\u2019s", "brand:wikidata": "Q38076"}, "geometry": {"type": "Point", "coordinates": [110.387951, 1.513061]}},
{"type": "Feature", "id": "liI5R2BNxZ_O_PDsLJw2lJ4ohH0=", "properties": {"ref": "308", "@spider": "mcdonalds_my", "addr:full": "Shop Lot No. 2 (Ground & 1st Floor) and Shop Lot  No. 4 (Ground Floor), Causeway Road, 96007, Sibu, Sarawak, Malaysia", "addr:country": "MY", "name": "McDonald's Sibu", "phone": "084-335522", "website": "https://www.mcdonalds.com.my", "contact:email": "s257@my.mcd.com", "brand": "McDonald\u2019s", "brand:wikidata": "Q38076"}, "geometry": {"type": "Point", "coordinates": [111.826063, 2.290759]}},
{"type": "Feature", "id": "i69AqTmP0KxQFMBjnOA53HY76uE=", "properties": {"ref": "309", "@spider": "mcdonalds_my", "addr:full": "Lots 119 & 120, Block 32, Kemena Land District, Jalan Tun Hussein Onn, 97000, Bintulu, Sarawak, Malaysia", "addr:country": "MY", "name": "McDonald's Bintulu DT ", "phone": "086-312124", "website": "https://www.mcdonalds.com.my", "contact:email": "s306@my.mcd.com", "brand": "McDonald\u2019s", "brand:wikidata": "Q38076"}, "geometry": {"type": "Point", "coordinates": [113.079632, 3.19756]}},
{"type": "Feature", "id": "-GvDf2PW8Wc33y_iQqgFM7QBST8=", "properties": {"ref": "310", "@spider": "mcdonalds_my", "addr:full": "Lot 1264, 1st Floor, Bintang Plaza Shopping Centre, Jalan Miri-Pujut, 98008 Miri, Sarawak, Malaysia", "addr:country": "MY", "name": "McDonald's Bintang Plaza Miri", "phone": "085-433118", "website": "https://www.mcdonalds.com.my", "contact:email": "s131@my.mcd.com", "brand": "McDonald\u2019s", "brand:wikidata": "Q38076"}, "geometry": {"type": "Point", "coordinates": [113.993806, 4.397233]}},
{"type": "Feature", "id": "v6_kdBuXhT7jXydeiNFv3xfH5a8=", "properties": {"ref": "311", "@spider": "mcdonalds_my", "addr:full": "Lot 1050(A), Jalan Bulan Sabit, Block 7, MCLD, 98000, Miri, Sarawak, Malaysia", "addr:country": "MY", "name": "McDonald's Petronas Miri DT", "phone": "085-422117", "website": "https://www.mcdonalds.com.my", "contact:email": "s277@my.mcd.com", "brand": "McDonald\u2019s", "brand:wikidata": "Q38076"}, "geometry": {"type": "Point", "coordinates": [114.003077, 4.412187]}},
{"type": "Feature", "id": "dU4bOD8nlexd5Kef0e7rpulx22Y=", "properties": {"ref": "312", "@spider": "mcdonalds_my", "addr:full": "Lot 5993, Block 11, K.B.L.D. Desa Indah 3, Jalan Tudan, Bandar Baru Permyjaya, 98000, Miri, Sarawak, Malaysia", "addr:country": "MY", "name": "McDonald's Miri Permyjaya", "phone": "085-641 587", "website": "https://www.mcdonalds.com.my", "contact:email": "s258@my.mcd.com", "brand": "McDonald\u2019s", "brand:wikidata": "Q38076"}, "geometry": {"type": "Point", "coordinates": [114.042988, 4.471653]}},
{"type": "Feature", "id": "XsJLkDGuMF1ZiQ-Fw6iYhVgCiJw=", "properties": {"ref": "313", "@spider": "mcdonalds_my", "addr:full": "IR9/C12, Tropical Umbrella Light, Industrial Estate, Jalan Arsat, 87014, WP Labuan, Malaysia", "addr:country": "MY", "name": "McDonald's Labuan", "website": "https://www.mcdonalds.com.my", "contact:email": "s443@my.mcd.com", "brand": "McDonald\u2019s", "brand:wikidata": "Q38076"}, "geometry": {"type": "Point", "coordinates": [115.239094, 5.296308]}},
{"type": "Feature", "id": "wdqRTda9yV0tm9xFqxFicc45Pbw=", "properties": {"ref": "314", "@spider": "mcdonalds_my", "addr:full": "Lot No. L1L04 - L1L06, Labuan Airport, Arrival Hall 1, Terminal Building, 80569, WP Labuan, Malaysia", "addr:country": "MY", "name": "McDonald's Labuan Airport", "phone": "087-428890", "website": "https://www.mcdonalds.com.my", "contact:email": "s229@my.mcd.com", "brand": "McDonald\u2019s", "brand:wikidata": "Q38076"}, "geometry": {"type": "Point", "coordinates": [115.249723, 5.29399]}},
{"type": "Feature", "id": "OxRk80A_DF1a3fh8r20Zi-Tt3Po=", "properties": {"ref": "315", "@spider": "mcdonalds_my", "addr:full": "Lot No. 1/G1 & 1/G2, Ground & First Floor, Api-Api Centre, Jalan Centrepoint, 88000, Kota Kinabalu, Sabah, Malaysia", "addr:country": "MY", "name": "McDonald's Api-Api (Kota Kinabalu)", "phone": "088-261501 / 088-274611", "website": "https://www.mcdonalds.com.my", "contact:email": "s052@my.mcd.com", "brand": "McDonald\u2019s", "brand:wikidata": "Q38076"}, "geometry": {"type": "Point", "coordinates": [116.071212, 5.976881]}},
{"type": "Feature", "id": "SKe3vwg3p11xZyXs9fKOLL2k9DA=", "properties": {"ref": "316", "@spider": "mcdonalds_my", "addr:full": "Lot L-9, Lower Ground Floor, Centre Point Shopping Centre, Jalan Centre Point, 88000, Kota Kinabalu, Sabah, Malaysia", "addr:country": "MY", "name": "McDonald's Centre Point KK", "phone": "088-269226", "website": "https://www.mcdonalds.com.my", "contact:email": "s134@my.mcd.com", "brand": "McDonald\u2019s", "brand:wikidata": "Q38076"}, "geometry": {"type": "Point", "coordinates": [116.072106, 5.978472]}},
{"type": "Feature", "id": "uTPDjZnPEAVzBAnvv74YrVpPLeM=", "properties": {"ref": "317", "@spider": "mcdonalds_my", "addr:full": "Lot G - 21,23,25 and 26 part, Complex Karamunsing, Jalan Karamunsing, 88000, Kota Kinabalu, Sabah, Malaysia", "addr:country": "MY", "name": "McDonald's Karamunsing", "phone": "088-255346", "website": "https://www.mcdonalds.com.my", "contact:email": "s180@my.mcd.com", "brand": "McDonald\u2019s", "brand:wikidata": "Q38076"}, "geometry": {"type": "Point", "coordinates": [116.075163, 5.971027]}},
{"type": "Feature", "id": "uxDBBAygHZmWoKhCzNRe1-gCWrg=", "properties": {"ref": "318", "@spider": "mcdonalds_my", "addr:full": "Lot G-Ext 1 & Part of Lot G35, Ground Floor, Suria Sabah Shopping Mall, No. 1, Jalan Tun Fuad Stephens,  88000 Kota Kinabalu, Sabah, Malaysia", "addr:country": "MY", "name": "McDonald's Suria Sabah KK", "phone": "088-274649", "website": "https://www.mcdonalds.com.my", "contact:email": "s357@my.mcd.com", "brand": "McDonald\u2019s", "brand:wikidata": "Q38076"}, "geometry": {"type": "Point", "coordinates": [116.076192, 5.986932]}},
{"type": "Feature", "id": "6avbzF_hKNCuHUNbRPwIMWwOPEg=", "properties": {"ref": "319", "@spider": "mcdonalds_my", "addr:full": "Lot No. CL 215347916 (Lot 9), Jalan Bundusan, Penampang, 88620 Kota Kinabalu, Sabah.", "addr:country": "MY", "name": "McDonald's Beverly Hills DT", "phone": "08-8710442", "website": "https://www.mcdonalds.com.my", "contact:email": "s376@my.mcd.com", "brand": "McDonald\u2019s", "brand:wikidata": "Q38076"}, "geometry": {"type": "Point", "coordinates": [116.098781, 5.931921]}},
{"type": "Feature", "id": "VPQ8S72cnp8VHQCaBd1QulffiNw=", "properties": {"ref": "320", "@spider": "mcdonalds_my", "addr:full": "Country Lease 135367387, Jalan Jabatan Perhutanan, Off Lebuhraya Keningau-Tambunan, 89008 Keningau, Sabah", "addr:country": "MY", "name": "McDonald's Keningau DT", "phone": "08-7332181", "website": "https://www.mcdonalds.com.my", "contact:email": "s391@my.mcd.com", "brand": "McDonald\u2019s", "brand:wikidata": "Q38076"}, "geometry": {"type": "Point", "coordinates": [116.157801, 5.33996]}},
{"type": "Feature", "id": "d9jVsBn-5bssexVMUGqOfCLMWI0=", "properties": {"ref": "321", "@spider": "mcdonalds_my", "addr:full": "Lot C, Anjung Selera, Tanjung Lipat, Likas Jalan Tun Fuad Stephens, 88400 Kota Kinabalu Sabah    ", "addr:country": "MY", "name": "McDonald's Likas Bay KK", "phone": "015-96322370", "website": "https://www.mcdonalds.com.my", "contact:email": "s394@my.mcd.com", "brand": "McDonald\u2019s", "brand:wikidata": "Q38076"}, "geometry": {"type": "Point", "coordinates": [116.110757, 6.009846]}},
{"type": "Feature", "id": "_zJ8z2t7HLuo9egnzjRRLNDRee4=", "properties": {"ref": "322", "@spider": "mcdonalds_my", "addr:full": "Off Jalan Sulaman Highway, 88000, Kota Kinabalu, Sabah, Malaysia", "addr:country": "MY", "name": "McDonald's Shell Jalan Sulaman DT", "phone": "088-387502 ", "website": "https://www.mcdonalds.com.my", "contact:email": "s199@my.mcd.com", "brand": "McDonald\u2019s", "brand:wikidata": "Q38076"}, "geometry": {"type": "Point", "coordinates": [116.114743, 6.018261]}},
{"type": "Feature", "id": "W7osWTt7fu7X0V6YgfPx2SjNOTE=", "properties": {"ref": "323", "@spider": "mcdonalds_my", "addr:full": "Concourse Floor, 1 Borneo Mall, Lot No. C215 - C218 & Part of D219, 88871, Kota Kinabalu, Sabah, Malaysia", "addr:country": "MY", "name": "McDonald's 1 Borneo Mall", "phone": "088-447568", "website": "https://www.mcdonalds.com.my", "contact:email": "s222@my.mcd.com", "brand": "McDonald\u2019s", "brand:wikidata": "Q38076"}, "geometry": {"type": "Point", "coordinates": [116.128903, 6.035481]}},
{"type": "Feature", "id": "1NUvZakBG2bR91X94Ogck072Jg0=", "properties": {"ref": "324", "@spider": "mcdonalds_my", "addr:full": "Lot 2 Of NT013108275, Along Sulaman Road, 88450, Kota Kinabalu, Sabah, Malaysia", "addr:country": "MY", "name": "McDonald's Jalan Sulaman DT 2 KK", "phone": "088-493398", "website": "https://www.mcdonalds.com.my", "contact:email": "s286@my.mcd.com", "brand": "McDonald\u2019s", "brand:wikidata": "Q38076"}, "geometry": {"type": "Point", "coordinates": [116.144268, 6.038688]}},
{"type": "Feature", "id": "eUMUEPlkXOkW6PXwlx14iFJuJ7g=", "properties": {"ref": "325", "@spider": "mcdonalds_my", "addr:full": "CL. 105509868 At Mile 4, Jalan Apas, 91000, Tawau, Sabah, Malaysia", "addr:country": "MY", "name": "McDonald's Jln Apas Tawau DT", "phone": "089-913322", "website": "https://www.mcdonalds.com.my", "contact:email": "s284@my.mcd.com", "brand": "McDonald\u2019s", "brand:wikidata": "Q38076"}, "geometry": {"type": "Point", "coordinates": [117.920815, 4.251907]}},
{"type": "Feature", "id": "4EjoU1-iS6ebyBoXh7hmN2N9VbY=", "properties": {"ref": "326", "@spider": "mcdonalds_my", "addr:full": "Sebahagian CL 075477584, Batu 6, Jalan Utara, 90000, Sandakan, Sabah, Malaysia", "addr:country": "MY", "name": "McDonald's Sandakan DT", "phone": "089-235265", "website": "https://www.mcdonalds.com.my", "contact:email": "s280@my.mcd.com", "brand": "McDonald\u2019s", "brand:wikidata": "Q38076"}, "geometry": {"type": "Point", "coordinates": [118.05596, 5.863514]}},
{"type": "Feature", "id": "EbWLX2hbw8HIrS1kUWzRiuNdO2E=", "properties": {"ref": "327", "@spider": "mcdonalds_my", "addr:full": "Lot G09, G10 & G12A, Harbour Mall Sandakan, Sandakan Harbour Square, 90000, Sandakan, Sabah, Malaysia", "addr:country": "MY", "name": "McDonald's Harbour Mall Sandakan", "phone": "089-276276", "website": "https://www.mcdonalds.com.my", "contact:email": "s296@my.mcd.com", "brand": "McDonald\u2019s", "brand:wikidata": "Q38076"}, "geometry": {"type": "Point", "coordinates": [118.119511, 5.838595]}},
{"type": "Feature", "id": "HolCk0v9oKqMAgxAq5gPvaubZNs=", "properties": {"ref": "328", "@spider": "mcdonalds_my", "addr:full": "Country Lease 125340490, Mile 1, Jalan Bubul, 91308 Semporna, Sabah", "addr:country": "MY", "name": "McDonald's Semporna DT", "phone": "08-9788603", "website": "https://www.mcdonalds.com.my", "contact:email": "s390@my.mcd.com", "brand": "McDonald\u2019s", "brand:wikidata": "Q38076"}, "geometry": {"type": "Point", "coordinates": [118.607646, 4.475638]}}]}