{"type":"FeatureCollection","features":[{"type": "Feature", "id": "LMI7LjZ2JKyrQ-zKI7bpowKy1Jk=", "properties": {"ref": "/restaurantes/birre/", "@spider": "mcdonalds_pt", "addr:street_address": "Rua de Birre, 581", "addr:city": "Birre", "addr:state": "CASCAIS", "addr:postcode": "2750-217", "addr:country": "PT", "name": "McDonald&#39;s Birre", "website": "https://www.mcdonalds.pt/restaurantes/birre", "opening_hours": "Mo 02:00-05:30; Tu 08:00-08:00", "image": "https://www.mcdonalds.pt/images/logo.png", "brand": "McDonald\u2019s", "brand:wikidata": "Q38076"}, "geometry": {"type": "Point", "coordinates": [-9.446847, 38.715251]}},
{"type": "Feature", "id": "6pcUKAsajzqdnbdEsHLp1yLA3pI=", "properties": {"ref": "/restaurantes/belem/", "@spider": "mcdonalds_pt", "addr:street_address": "Travessa da Pra&#231;a,n&#186;2-14", "addr:city": "Bel&#233;m", "addr:state": "LISBOA", "addr:postcode": "1300-000", "addr:country": "PT", "name": "McDonald&#39;s Bel&#233;m", "website": "https://www.mcdonalds.pt/restaurantes/belem", "opening_hours": "Mo 02:00-05:30; Tu 08:00-08:00", "image": "https://www.mcdonalds.pt/images/logo.png", "brand": "McDonald\u2019s", "brand:wikidata": "Q38076"}, "geometry": {"type": "Point", "coordinates": [-9.203328, 38.697036]}},
{"type": "Feature", "id": "U6t4cLYMlZ9QNzNg4N79NHScXms=", "properties": {"ref": "/restaurantes/bela-vista/", "@spider": "mcdonalds_pt", "addr:street_address": "C. C. da Bela Vista, Lojas 9 e 10, Av. Santo Condest&#225;vel -Via central de Chelas", "addr:city": "Avenida Santo Condest&#225;vel", "addr:state": "LISBOA", "addr:postcode": "1900\u2013806 Lisboa", "addr:country": "PT", "name": "McDonald&#39;s Bela Vista", "website": "https://www.mcdonalds.pt/restaurantes/bela-vista", "opening_hours": "Mo 02:00-05:30; Tu 08:00-08:00", "image": "https://www.mcdonalds.pt/images/logo.png", "brand": "McDonald\u2019s", "brand:wikidata": "Q38076"}, "geometry": {"type": "Point", "coordinates": [-9.116428, 38.749711]}},
{"type": "Feature", "id": "MDLuvyuQjtSUUV_VlHzlGIWDUsE=", "properties": {"ref": "/restaurantes/beja/", "@spider": "mcdonalds_pt", "addr:street_address": "Av.Fialho de Almeida e a EN 122", "addr:city": "Beja", "addr:state": "BEJA", "addr:postcode": "7800-000", "addr:country": "PT", "name": "McDonald&#39;s Beja", "website": "https://www.mcdonalds.pt/restaurantes/beja", "opening_hours": "Mo 02:00-05:30; Tu 08:00-08:00", "image": "https://www.mcdonalds.pt/images/logo.png", "brand": "McDonald\u2019s", "brand:wikidata": "Q38076"}, "geometry": {"type": "Point", "coordinates": [-7.866342, 38.003839]}},
{"type": "Feature", "id": "7o4Iey956YR6vOKK9Jzc4g2wGQQ=", "properties": {"ref": "/restaurantes/barreiro/", "@spider": "mcdonalds_pt", "addr:street_address": "Avenida Alfredo da Silva n&#186;134 a 136", "addr:city": "Barreiro", "addr:state": "BARREIRO", "addr:postcode": "2830-168", "addr:country": "PT", "name": "McDonald&#39;s Barreiro", "website": "https://www.mcdonalds.pt/restaurantes/barreiro", "opening_hours": "Mo 02:00-05:30; Tu 08:00-08:00", "image": "https://www.mcdonalds.pt/images/logo.png", "brand": "McDonald\u2019s", "brand:wikidata": "Q38076"}, "geometry": {"type": "Point", "coordinates": [-9.076003, 38.662014]}},
{"type": "Feature", "id": "OeaXabttEkEnozVZ_vL8MDq-kh4=", "properties": {"ref": "/restaurantes/barcelos/", "@spider": "mcdonalds_pt", "addr:street_address": "Rua Dr. Manuel Pais, Vila Frescainha", "addr:city": "Barcelos", "addr:state": "BARCELOS", "addr:postcode": "4750-317", "addr:country": "PT", "name": "McDonald&#39;s Barcelos", "website": "https://www.mcdonalds.pt/restaurantes/barcelos", "opening_hours": "Mo 02:00-05:30; Tu 08:00-08:00", "image": "https://www.mcdonalds.pt/images/logo.png", "brand": "McDonald\u2019s", "brand:wikidata": "Q38076"}, "geometry": {"type": "Point", "coordinates": [-8.619908, 41.538461]}},
{"type": "Feature", "id": "YwEK6Hb2C5s5E-2NCxY_pJlvoog=", "properties": {"ref": "/restaurantes/b-planet-coina/", "@spider": "mcdonalds_pt", "addr:street_address": "Parque Comercial Retail Planet, Estrada Nacional 10 (perto da Esta&#231;&#227;o Ferrovi&#225;ria de Coina)", "addr:city": "B Planet \u2013 Coina", "addr:state": "COINA", "addr:postcode": "2830-411", "addr:country": "PT", "name": "McDonald&#39;s B Planet \u2013 Coina", "website": "https://www.mcdonalds.pt/restaurantes/b-planet-coina", "opening_hours": "Mo 02:00-05:30; Tu 08:00-08:00", "image": "https://www.mcdonalds.pt/images/logo.png", "brand": "McDonald\u2019s", "brand:wikidata": "Q38076"}, "geometry": {"type": "Point", "coordinates": [-9.043339, 38.582186]}},
{"type": "Feature", "id": "YO6Bzd5GmznoYd9-ZUFdAWvQFTs=", "properties": {"ref": "/restaurantes/aveiro-universidade/", "@spider": "mcdonalds_pt", "addr:street_address": "Rua das Pombas, Gl&#243;ria", "addr:city": "Aveiro", "addr:state": "AVEIRO", "addr:postcode": "3810-150", "addr:country": "PT", "name": "McDonald&#39;s Aveiro Universidade", "website": "https://www.mcdonalds.pt/restaurantes/aveiro-universidade", "opening_hours": "Mo 02:00-05:30; Tu 08:00-08:00", "image": "https://www.mcdonalds.pt/images/logo.png", "brand": "McDonald\u2019s", "brand:wikidata": "Q38076"}, "geometry": {"type": "Point", "coordinates": [-8.65052, 40.632371]}},
{"type": "Feature", "id": "bYbHlVh4k5LqC07v-A6khLqn7rs=", "properties": {"ref": "/restaurantes/aveiro-pingo-doce/", "@spider": "mcdonalds_pt", "addr:street_address": "EN 109 - Parque Pingo Doce Hipermercados, Esgueira", "addr:city": "Aveiro Pingo Doce", "addr:state": "AVEIRO", "addr:postcode": "3800-042", "addr:country": "PT", "name": "McDonald&#39;s Aveiro Pingo Doce", "website": "https://www.mcdonalds.pt/restaurantes/aveiro-pingo-doce", "opening_hours": "Mo 02:00-05:30; Tu 08:00-08:00", "image": "https://www.mcdonalds.pt/images/logo.png", "brand": "McDonald\u2019s", "brand:wikidata": "Q38076"}, "geometry": {"type": "Point", "coordinates": [-8.620597, 40.651658]}},
{"type": "Feature", "id": "pLI76bjwPq_H3BG3CW_QWxUW-6E=", "properties": {"ref": "/restaurantes/aveiro-cc-glicinias/", "@spider": "mcdonalds_pt", "addr:street_address": "Loteamento das Glic&#237;nias,Lt.10,C.C.Glic&#237;nias,Lj.43,Aradas", "addr:city": "Aveiro Glic&#237;nias", "addr:state": "AVEIRO", "addr:postcode": "3810-187", "addr:country": "PT", "name": "McDonald&#39;s Aveiro - C.C. Glic&#237;nias", "website": "https://www.mcdonalds.pt/restaurantes/aveiro-cc-glicinias", "opening_hours": "Mo 02:00-05:30; Tu 08:00-08:00", "image": "https://www.mcdonalds.pt/images/logo.png", "brand": "McDonald\u2019s", "brand:wikidata": "Q38076"}, "geometry": {"type": "Point", "coordinates": [-8.64545, 40.627111]}},
{"type": "Feature", "id": "38IrGW-5AySlDa0HboItZZYyOoI=", "properties": {"ref": "/restaurantes/arrabida-shopping/", "@spider": "mcdonalds_pt", "addr:street_address": "Arr&#225;bida Shopping - Praceta Henrique Moreira, 244 \u2013 Afurada", "addr:city": "Arr&#225;bida Shopping", "addr:state": "VILA NOVA DE GAIA", "addr:postcode": "4400-346", "addr:country": "PT", "name": "McDonald&#39;s Arr&#225;bida Shopping", "website": "https://www.mcdonalds.pt/restaurantes/arrabida-shopping", "opening_hours": "Mo 02:00-05:30; Tu 08:00-08:00", "image": "https://www.mcdonalds.pt/images/logo.png", "brand": "McDonald\u2019s", "brand:wikidata": "Q38076"}, "geometry": {"type": "Point", "coordinates": [-8.636067, 41.140614]}},
{"type": "Feature", "id": "N9T9nIPb3M6iE-A_w91-rTnkn24=", "properties": {"ref": "/restaurantes/arena-shopping/", "@spider": "mcdonalds_pt", "addr:street_address": "C.C.Arena Shopping,Casal dos Ameias de Cima,Lj.2.020/2.021", "addr:city": "Torres Vedras - Arena Shopping", "addr:state": "TORRES VEDRAS", "addr:postcode": "2560", "addr:country": "PT", "name": "McDonald&#39;s Arena Shopping", "website": "https://www.mcdonalds.pt/restaurantes/arena-shopping", "opening_hours": "Mo 02:00-05:30; Tu 08:00-08:00", "image": "https://www.mcdonalds.pt/images/logo.png", "brand": "McDonald\u2019s", "brand:wikidata": "Q38076"}, "geometry": {"type": "Point", "coordinates": [-9.253678, 39.100983]}},
{"type": "Feature", "id": "dYtmcByghjy42CD9OoIRtXBpVsE=", "properties": {"ref": "/restaurantes/aqua-portimao/", "@spider": "mcdonalds_pt", "addr:street_address": "Centro Comercial Aqua Portim&#227;o, Loja 2.105B", "addr:city": "Aqua Portim&#227;o", "addr:state": "PORTIM&#195;O", "addr:postcode": "8500-614", "addr:country": "PT", "name": "McDonald&#39;s Aqua Portim&#227;o", "website": "https://www.mcdonalds.pt/restaurantes/aqua-portimao", "opening_hours": "Mo 02:00-05:30; Tu 08:00-08:00", "image": "https://www.mcdonalds.pt/images/logo.png", "brand": "McDonald\u2019s", "brand:wikidata": "Q38076"}, "geometry": {"type": "Point", "coordinates": [-8.543611, 37.1475]}},
{"type": "Feature", "id": "UaT3N0yR5S4WvU84Bnhp_hFfDgQ=", "properties": {"ref": "/restaurantes/antas/", "@spider": "mcdonalds_pt", "addr:street_address": "Avenida Fernando Magalh&#227;es, n&#186;1647/59", "addr:city": "Antas", "addr:state": "PORTO", "addr:postcode": "4350-170", "addr:country": "PT", "name": "McDonald&#39;s Antas", "website": "https://www.mcdonalds.pt/restaurantes/antas", "opening_hours": "Mo 02:00-05:30; Tu 08:00-08:00", "image": "https://www.mcdonalds.pt/images/logo.png", "brand": "McDonald\u2019s", "brand:wikidata": "Q38076"}, "geometry": {"type": "Point", "coordinates": [-8.590003, 41.163819]}},
{"type": "Feature", "id": "gjUYOEHPnPMZn82rqSoHRZlKyJ0=", "properties": {"ref": "/restaurantes/amoreiras/", "@spider": "mcdonalds_pt", "addr:street_address": "Amoreiras Shopping Center, Lojas 2041,2042 e 2033, Av. Eng&#186; Duarte Pacheco", "addr:city": "C.C. Amoreiras", "addr:state": "LISBOA", "addr:postcode": "1070-103", "addr:country": "PT", "name": "McDonald&#39;s Amoreiras", "website": "https://www.mcdonalds.pt/restaurantes/amoreiras", "opening_hours": "Mo 02:00-05:30; Tu 08:00-08:00", "image": "https://www.mcdonalds.pt/images/logo.png", "brand": "McDonald\u2019s", "brand:wikidata": "Q38076"}, "geometry": {"type": "Point", "coordinates": [-9.162253, 38.723764]}},
{"type": "Feature", "id": "XCEqtp0WNa5g2GI0ZfbBNHFwppA=", "properties": {"ref": "/restaurantes/amadora/", "@spider": "mcdonalds_pt", "addr:street_address": "C. C. Babil&#243;nia, Loja15, Piso 01, Fase E, Av. Gago Coutinho 47", "addr:city": "Amadora", "addr:state": "AMADORA", "addr:postcode": "2700-405", "addr:country": "PT", "name": "McDonald&#39;s Amadora", "website": "https://www.mcdonalds.pt/restaurantes/amadora", "opening_hours": "Mo 02:00-05:30; Tu 08:00-08:00", "image": "https://www.mcdonalds.pt/images/logo.png", "brand": "McDonald\u2019s", "brand:wikidata": "Q38076"}, "geometry": {"type": "Point", "coordinates": [-9.237058, 38.759953]}},
{"type": "Feature", "id": "HvClRXN7CuPw-1LOQJY0jhJjM14=", "properties": {"ref": "/restaurantes/paco-de-arcos/", "@spider": "mcdonalds_pt", "addr:street_address": "Estrada de Pa&#231;o de Arcos, 48, Lote 3", "addr:city": "Pa&#231;o de Arcos", "addr:state": "LISBOA", "addr:postcode": "2770-129", "addr:country": "PT", "name": "McDonald&#39;s Pa&#231;o de Arcos", "website": "https://www.mcdonalds.pt/restaurantes/paco-de-arcos", "opening_hours": "Mo 02:00-05:30; Tu 08:00-08:00", "image": "https://www.mcdonalds.pt/images/logo.png", "brand": "McDonald\u2019s", "brand:wikidata": "Q38076"}, "geometry": {"type": "Point", "coordinates": [-9.29501, 38.70508]}},
{"type": "Feature", "id": "7ufYA8MVfYH48h2VgxkYfLhgdlQ=", "properties": {"ref": "/restaurantes/valongo/", "@spider": "mcdonalds_pt", "addr:street_address": "Rua Fonseca Dias, 100, 120 e 126", "addr:city": "Valongo", "addr:state": "Valongo", "addr:postcode": "4440-452", "addr:country": "PT", "name": "McDonald&#39;s Valongo", "website": "https://www.mcdonalds.pt/restaurantes/valongo", "opening_hours": "Mo 02:00-05:30; Tu 08:00-08:00", "image": "https://www.mcdonalds.pt/images/logo.png", "brand": "McDonald\u2019s", "brand:wikidata": "Q38076"}, "geometry": {"type": "Point", "coordinates": [-8.489281, 41.187592]}},
{"type": "Feature", "id": "yXGd2TZElV4H2DEmQIqX-IZpP2A=", "properties": {"ref": "/restaurantes/povoa-varzim/", "@spider": "mcdonalds_pt", "addr:street_address": "Rua Gomes de Amorim N&#186; 1453, Vila de Aver-o-Mar", "addr:city": "P&#243;voa de Varzim", "addr:state": "P&#243;voa de Varzim", "addr:postcode": "4490-641", "addr:country": "PT", "name": "McDonald&#39;s P&#243;voa Varzim", "website": "https://www.mcdonalds.pt/restaurantes/povoa-varzim", "opening_hours": "Mo 02:00-05:30; Tu 08:00-08:00", "image": "https://www.mcdonalds.pt/images/logo.png", "brand": "McDonald\u2019s", "brand:wikidata": "Q38076"}, "geometry": {"type": "Point", "coordinates": [-9.188562, 38.75557]}},
{"type": "Feature", "id": "2ZVvBQgUnEETLZjitOdj1lXHzcU=", "properties": {"ref": "/restaurantes/funchal-drive/", "@spider": "mcdonalds_pt", "addr:street_address": "Rua Nova do Engenho Velho, 1 S&#237;tio da Vargem, 9000-775 Funchal", "addr:city": "S&#237;tio da Vargem", "addr:state": "Funchal", "addr:postcode": "9000-775", "addr:country": "PT", "name": "McDonald&#39;s Funchal Drive", "website": "https://www.mcdonalds.pt/restaurantes/funchal-drive", "opening_hours": "Mo 02:00-05:30; Tu 08:00-08:00", "image": "https://www.mcdonalds.pt/images/logo.png", "brand": "McDonald\u2019s", "brand:wikidata": "Q38076"}, "geometry": {"type": "Point", "coordinates": [-9.188562, 38.75557]}},
{"type": "Feature", "id": "DbpRAXRBNrgWS1C3lQ3RyshqjOw=", "properties": {"ref": "/restaurantes/loures-flamenga/", "@spider": "mcdonalds_pt", "addr:street_address": "Rua Comandante Sacadura Cabral, n&#186;6, Quinta da Flamenga", "addr:city": "Frielas, Santo Ant&#243;nio dos Cavaleiros", "addr:state": "Loures Flamenga", "addr:postcode": "2660-017", "addr:country": "PT", "name": "McDonald&#39;s Loures Flamenga", "website": "https://www.mcdonalds.pt/restaurantes/loures-flamenga", "opening_hours": "Mo 02:00-05:30; Tu 08:00-08:00", "image": "https://www.mcdonalds.pt/images/logo.png", "brand": "McDonald\u2019s", "brand:wikidata": "Q38076"}, "geometry": {"type": "Point", "coordinates": [-9.188562, 38.75557]}},
{"type": "Feature", "id": "292jDw8s9LjbYtDVtNE5WQnHK90=", "properties": {"ref": "/restaurantes/malveira/", "@spider": "mcdonalds_pt", "addr:street_address": "EN 8, Alto da Lagoa", "addr:city": "Malveira", "addr:state": "Malveira", "addr:postcode": "2665-243", "addr:country": "PT", "name": "McDonald&#39;s Malveira", "website": "https://www.mcdonalds.pt/restaurantes/malveira", "opening_hours": "Mo 02:00-05:30; Tu 08:00-08:00", "image": "https://www.mcdonalds.pt/images/logo.png", "brand": "McDonald\u2019s", "brand:wikidata": "Q38076"}, "geometry": {"type": "Point", "coordinates": [-9.0, 38.94061]}},
{"type": "Feature", "id": "9nj5usrZb8emzb7hPOeBlFLVsiA=", "properties": {"ref": "/restaurantes/sesimbra/", "@spider": "mcdonalds_pt", "addr:street_address": "Rua da Charneca n&#186; 39, Venda Nova, Sesimbra", "addr:city": "Sesimbra", "addr:state": "Sesimbra", "addr:postcode": "2970-841", "addr:country": "PT", "name": "McDonald&#39;s Sesimbra", "website": "https://www.mcdonalds.pt/restaurantes/sesimbra", "opening_hours": "Mo 02:00-05:30; Tu 08:00-08:00", "image": "https://www.mcdonalds.pt/images/logo.png", "brand": "McDonald\u2019s", "brand:wikidata": "Q38076"}, "geometry": {"type": "Point", "coordinates": [-9.1406, 38.47847]}},
{"type": "Feature", "id": "VVNOt3giRHRHl0lHadrC8OptThU=", "properties": {"ref": "/restaurantes/povoa-de-santa-iria/", "@spider": "mcdonalds_pt", "addr:street_address": "Estrada Nacional 10 - Loja 15", "addr:city": "P&#243;voa de Santa Iria", "addr:state": "P&#243;voa de Santa Iria", "addr:postcode": "2625-130", "addr:country": "PT", "name": "McDonald&#39;s P&#243;voa de Santa Iria", "website": "https://www.mcdonalds.pt/restaurantes/povoa-de-santa-iria", "opening_hours": "Mo 02:00-05:30; Tu 08:00-08:00", "image": "https://www.mcdonalds.pt/images/logo.png", "brand": "McDonald\u2019s", "brand:wikidata": "Q38076"}, "geometry": {"type": "Point", "coordinates": [-9.07048, 38.85621]}},
{"type": "Feature", "id": "L0Yg9L6m_pVbldaReCPL-n2iAN8=", "properties": {"ref": "/restaurantes/nazare/", "@spider": "mcdonalds_pt", "addr:street_address": "Av Nogent Sur Marne Estrada Nacional 242 Km 32+500", "addr:city": "Nazar&#233;", "addr:state": "Nazar&#233;", "addr:postcode": "2450-138", "addr:country": "PT", "name": "McDonald&#39;s Nazar&#233;", "website": "https://www.mcdonalds.pt/restaurantes/nazare", "opening_hours": "Mo 02:00-05:30; Tu 08:00-08:00", "image": "https://www.mcdonalds.pt/images/logo.png", "brand": "McDonald\u2019s", "brand:wikidata": "Q38076"}, "geometry": {"type": "Point", "coordinates": [-9.061262, 39.613638]}},
{"type": "Feature", "id": "csoc-YsrC5X4kq1Uc6hGJaKGK0Q=", "properties": {"ref": "/restaurantes/ribeira-porto/", "@spider": "mcdonalds_pt", "addr:street_address": "Rua Infante D. Henrique n&#186;131", "addr:city": "Porto", "addr:state": "Porto", "addr:postcode": "4050-298", "addr:country": "PT", "name": "McDonald&#39;s Ribeira Porto", "website": "https://www.mcdonalds.pt/restaurantes/ribeira-porto", "opening_hours": "Mo 02:00-05:30; Tu 08:00-08:00", "image": "https://www.mcdonalds.pt/images/logo.png", "brand": "McDonald\u2019s", "brand:wikidata": "Q38076"}, "geometry": {"type": "Point", "coordinates": [-8.61584, 41.14033]}},
{"type": "Feature", "id": "pAdJAk-yj78VUPYJ6rCOPu6ASdg=", "properties": {"ref": "/restaurantes/caldas-da-rainha-santo-onofre/", "@spider": "mcdonalds_pt", "addr:street_address": "Av. Eng Lu&#237;s de Paiva e Sousa \u2013 Santo Onofre", "addr:city": "Caldas da Rainha", "addr:state": "Caldas da Rainha", "addr:postcode": "2500-067", "addr:country": "PT", "name": "McDonald&#39;s Caldas da Rainha Santo Onofre", "website": "https://www.mcdonalds.pt/restaurantes/caldas-da-rainha-santo-onofre", "opening_hours": "Mo 02:00-05:30; Tu 08:00-08:00", "image": "https://www.mcdonalds.pt/images/logo.png", "brand": "McDonald\u2019s", "brand:wikidata": "Q38076"}, "geometry": {"type": "Point", "coordinates": [-9.06075, 39.40697]}},
{"type": "Feature", "id": "t98wCyhoWMGpJ5xjmzqlKJVumyo=", "properties": {"ref": "/restaurantes/barreiro-drive/", "@spider": "mcdonalds_pt", "addr:street_address": "Avenida Escola dos Fuzileiros Navais, Edif&#237;cio McDonald&#39;s", "addr:city": "Santo Andr&#233;", "addr:state": "Barreiro", "addr:postcode": "2830-170", "addr:country": "PT", "name": "McDonald&#39;s Barreiro Drive", "website": "https://www.mcdonalds.pt/restaurantes/barreiro-drive", "opening_hours": "Mo 02:00-05:30; Tu 08:00-08:00", "image": "https://www.mcdonalds.pt/images/logo.png", "brand": "McDonald\u2019s", "brand:wikidata": "Q38076"}, "geometry": {"type": "Point", "coordinates": [-9.05951, 38.64255]}},
{"type": "Feature", "id": "kIJ0LLssQVZCt-bNHPtxdmr64Ik=", "properties": {"ref": "/restaurantes/santo-tirso/", "@spider": "mcdonalds_pt", "addr:street_address": "Rua dos Trabalhadores do Arco", "addr:city": "Santo Tirso", "addr:postcode": "4780-424", "addr:country": "PT", "name": "McDonald&#39;s Santo Tirso", "website": "https://www.mcdonalds.pt/restaurantes/santo-tirso", "opening_hours": "Mo 02:00-05:30; Tu 08:00-08:00", "image": "https://www.mcdonalds.pt/images/logo.png", "brand": "McDonald\u2019s", "brand:wikidata": "Q38076"}, "geometry": {"type": "Point", "coordinates": [-8.480456, 41.33977]}},
{"type": "Feature", "id": "tXyjwYp32eOR5b9zBghXOXjZXM0=", "properties": {"ref": "/restaurantes/angra-do-heroismo/", "@spider": "mcdonalds_pt", "addr:street_address": "A. Infante D.Henrique", "addr:city": "Angra do Hero&#237;smo", "addr:state": "Angra do Hero&#237;smo", "addr:postcode": "9700-098", "addr:country": "PT", "name": "McDonald&#39;s Angra do Hero&#237;smo", "website": "https://www.mcdonalds.pt/restaurantes/angra-do-heroismo", "opening_hours": "Mo 02:00-05:30; Tu 08:00-08:00", "image": "https://www.mcdonalds.pt/images/logo.png", "brand": "McDonald\u2019s", "brand:wikidata": "Q38076"}, "geometry": {"type": "Point", "coordinates": [-27.21162, 38.655884]}},
{"type": "Feature", "id": "QZVT8J_O-d6KfQr46RbMoIa7F_o=", "properties": {"ref": "/restaurantes/marques-de-pombal/", "@spider": "mcdonalds_pt", "addr:street_address": "Pra&#231;a Marqu&#234;s de Pombal, n&#186;3", "addr:city": "Lisboa", "addr:state": "Lisboa", "addr:postcode": "1250-161", "addr:country": "PT", "name": "McDonald&#39;s Marqu&#234;s de Pombal", "website": "https://www.mcdonalds.pt/restaurantes/marques-de-pombal", "opening_hours": "Mo 02:00-05:30; Tu 08:00-08:00", "image": "https://www.mcdonalds.pt/images/logo.png", "brand": "McDonald\u2019s", "brand:wikidata": "Q38076"}, "geometry": {"type": "Point", "coordinates": [-9.150579, 38.724569]}},
{"type": "Feature", "id": "6LXUjLquq_RaVHT9QJqfVy4x8Ho=", "properties": {"ref": "/restaurantes/paredes/", "@spider": "mcdonalds_pt", "addr:street_address": "Av Dr. Francisco S&#225; Carneiro", "addr:city": "Paredes", "addr:postcode": "4580-104", "addr:country": "PT", "name": "McDonald&#39;s Paredes", "website": "https://www.mcdonalds.pt/restaurantes/paredes", "opening_hours": "Mo 02:00-05:30; Tu 08:00-08:00", "image": "https://www.mcdonalds.pt/images/logo.png", "brand": "McDonald\u2019s", "brand:wikidata": "Q38076"}, "geometry": {"type": "Point", "coordinates": [-8.326918, 41.202583]}},
{"type": "Feature", "id": "gEOD9bA2JzuC0jTYY0f4XeCT7pw=", "properties": {"ref": "/restaurantes/abrantes/", "@spider": "mcdonalds_pt", "addr:street_address": "Avenida Ant&#243;nio Farinha Pereira, Lote 1 Alferrarede", "addr:city": "Abrantes", "addr:postcode": "2200-024 Abrantes", "addr:country": "PT", "name": "McDonald&#39;s Abrantes", "website": "https://www.mcdonalds.pt/restaurantes/abrantes", "opening_hours": "Mo 02:00-05:30; Tu 08:00-08:00", "image": "https://www.mcdonalds.pt/images/logo.png", "brand": "McDonald\u2019s", "brand:wikidata": "Q38076"}, "geometry": {"type": "Point", "coordinates": [-8.190586, 39.475363]}},
{"type": "Feature", "id": "2btpAAxjlchptKdSmSzEZt9C65g=", "properties": {"ref": "/restaurantes/portalegre/", "@spider": "mcdonalds_pt", "addr:street_address": "Rua da Extremadura Espanhola", "addr:city": "Portalegre", "addr:state": "Portalegre", "addr:postcode": "7300-196", "addr:country": "PT", "name": "McDonald&#39;s Portalegre", "website": "https://www.mcdonalds.pt/restaurantes/portalegre", "opening_hours": "Mo 02:00-05:30; Tu 08:00-08:00", "image": "https://www.mcdonalds.pt/images/logo.png", "brand": "McDonald\u2019s", "brand:wikidata": "Q38076"}, "geometry": {"type": "Point", "coordinates": [-7.432943, 39.283787]}},
{"type": "Feature", "id": "E4KzI6No3vb2YzAlwzFJblQQ5Ls=", "properties": {"ref": "/restaurantes/gondomar/", "@spider": "mcdonalds_pt", "addr:street_address": "Rua Dr. Carlos Moura Guedes N&#186; 51", "addr:city": "Gondomar", "addr:state": "Gondomar", "addr:postcode": "4420-230", "addr:country": "PT", "name": "McDonald&#39;s Gondomar", "website": "https://www.mcdonalds.pt/restaurantes/gondomar", "opening_hours": "Mo 02:00-05:30; Tu 08:00-08:00", "image": "https://www.mcdonalds.pt/images/logo.png", "brand": "McDonald\u2019s", "brand:wikidata": "Q38076"}, "geometry": {"type": "Point", "coordinates": [-8.537038, 41.136491]}},
{"type": "Feature", "id": "SQzpfl4-7t2GMDPbJoNJdgYWaWs=", "properties": {"ref": "/restaurantes/leiria-d-dinis/", "@spider": "mcdonalds_pt", "addr:street_address": "Rua Dr. Jo&#227;o Soares", "addr:city": "Porto Moniz, Leiria", "addr:state": "LEIRIA", "addr:postcode": "2400-448", "addr:country": "PT", "name": "McDonald&#39;s Leiria D. Dinis", "website": "https://www.mcdonalds.pt/restaurantes/leiria-d-dinis", "opening_hours": "Mo 02:00-05:30; Tu 08:00-08:00", "image": "https://www.mcdonalds.pt/images/logo.png", "brand": "McDonald\u2019s", "brand:wikidata": "Q38076"}, "geometry": {"type": "Point", "coordinates": [-8.81848, 39.739868]}},
{"type": "Feature", "id": "BNvEHgcnILfGTan3xQgHPrKT860=", "properties": {"ref": "/restaurantes/vila-franca-de-xira/", "@spider": "mcdonalds_pt", "addr:street_address": "N1, Vila Franca de Xira", "addr:city": "Vila Franca de Xira", "addr:state": "VILA FRANCA DE XIRA", "addr:postcode": "2600-209", "addr:country": "PT", "name": "McDonald&#39;s Vila Franca de Xira", "website": "https://www.mcdonalds.pt/restaurantes/vila-franca-de-xira", "opening_hours": "Mo 02:00-05:30; Tu 08:00-08:00", "image": "https://www.mcdonalds.pt/images/logo.png", "brand": "McDonald\u2019s", "brand:wikidata": "Q38076"}, "geometry": {"type": "Point", "coordinates": [-8.984121, 38.963823]}},
{"type": "Feature", "id": "crLybRk3Ts3OQsqhd2EmnX50lSQ=", "properties": {"ref": "/restaurantes/vila-real-de-santo-antonio/", "@spider": "mcdonalds_pt", "addr:street_address": "Av. Fernando Salgueiro Maia 121, Hortas", "addr:city": "Vila Real de Santo Ant&#243;nio", "addr:state": "VILA REAL DE SANTO ANT&#211;NIO", "addr:postcode": "8900-265", "addr:country": "PT", "name": "McDonald&#39;s Vila Real de Santo Ant&#243;nio", "website": "https://www.mcdonalds.pt/restaurantes/vila-real-de-santo-antonio", "opening_hours": "Mo 02:00-05:30; Tu 08:00-08:00", "image": "https://www.mcdonalds.pt/images/logo.png", "brand": "McDonald\u2019s", "brand:wikidata": "Q38076"}, "geometry": {"type": "Point", "coordinates": [-7.435764, 37.190602]}},
{"type": "Feature", "id": "-WrgGQL1k24hfwp366a9z1kdM2U=", "properties": {"ref": "/restaurantes/ponte-de-lima/", "@spider": "mcdonalds_pt", "addr:street_address": "Rua do Tripeiro, n&#186;10", "addr:city": "Ponte de Lima", "addr:state": "PONTE DE LIMA", "addr:postcode": "4990-349", "addr:country": "PT", "name": "McDonald&#39;s Ponte de Lima", "website": "https://www.mcdonalds.pt/restaurantes/ponte-de-lima", "opening_hours": "Mo 02:00-05:30; Tu 08:00-08:00", "image": "https://www.mcdonalds.pt/images/logo.png", "brand": "McDonald\u2019s", "brand:wikidata": "Q38076"}, "geometry": {"type": "Point", "coordinates": [-8.585445, 41.758748]}},
{"type": "Feature", "id": "nnwpWxCOSzatDTKLoSgIsst7Eug=", "properties": {"ref": "/restaurantes/evora-plaza/", "@spider": "mcdonalds_pt", "addr:street_address": "Centro Comercial &#201;vora Plaza, Loja 1.15", "addr:city": "&#201;vora Plaza", "addr:state": "&#201;VORA", "addr:postcode": "7005-354", "addr:country": "PT", "name": "McDonald&#39;s &#201;vora Plaza", "website": "https://www.mcdonalds.pt/restaurantes/evora-plaza", "opening_hours": "Mo 02:00-05:30; Tu 08:00-08:00", "image": "https://www.mcdonalds.pt/images/logo.png", "brand": "McDonald\u2019s", "brand:wikidata": "Q38076"}, "geometry": {"type": "Point", "coordinates": [-7.905694, 38.549543]}},
{"type": "Feature", "id": "7cdD_M16hvtfiAsedkvz_DRLfTw=", "properties": {"ref": "/restaurantes/evora/", "@spider": "mcdonalds_pt", "addr:street_address": "Rua Cidade de Coimbra, n&#186;999", "addr:city": "&#201;vora", "addr:state": "&#201;VORA", "addr:postcode": "7005-000", "addr:country": "PT", "name": "McDonald&#39;s &#201;vora", "website": "https://www.mcdonalds.pt/restaurantes/evora", "opening_hours": "Mo 02:00-05:30; Tu 08:00-08:00", "image": "https://www.mcdonalds.pt/images/logo.png", "brand": "McDonald\u2019s", "brand:wikidata": "Q38076"}, "geometry": {"type": "Point", "coordinates": [-7.9261, 38.562197]}},
{"type": "Feature", "id": "V2kYqxsm-eqq538ZFnzWgPB4kIc=", "properties": {"ref": "/restaurantes/agueda/", "@spider": "mcdonalds_pt", "addr:street_address": "Rua de Aveiro, 68 ZI EN1 Norte - Barrosinhas - Trofa", "addr:city": "&#193;gueda", "addr:state": "&#193;GUEDA", "addr:postcode": "3750-760", "addr:country": "PT", "name": "McDonald&#39;s &#193;gueda", "website": "https://www.mcdonalds.pt/restaurantes/agueda", "opening_hours": "Mo 02:00-05:30; Tu 08:00-08:00", "image": "https://www.mcdonalds.pt/images/logo.png", "brand": "McDonald\u2019s", "brand:wikidata": "Q38076"}, "geometry": {"type": "Point", "coordinates": [-8.457528, 40.594886]}},
{"type": "Feature", "id": "jSetBnriQ9HWJi0vrtJJ0-oyspo=", "properties": {"ref": "/restaurantes/viseu-drive/", "@spider": "mcdonalds_pt", "addr:street_address": "Pra&#231;a Paulo VI", "addr:city": "Viseu", "addr:state": "VISEU", "addr:postcode": "3510-099", "addr:country": "PT", "name": "McDonald&#39;s Viseu Drive", "website": "https://www.mcdonalds.pt/restaurantes/viseu-drive", "opening_hours": "Mo 02:00-05:30; Tu 08:00-08:00", "image": "https://www.mcdonalds.pt/images/logo.png", "brand": "McDonald\u2019s", "brand:wikidata": "Q38076"}, "geometry": {"type": "Point", "coordinates": [-7.918667, 40.648947]}},
{"type": "Feature", "id": "w0pcj8H5CxaYN44ESxxnlI90MWg=", "properties": {"ref": "/restaurantes/vilamoura/", "@spider": "mcdonalds_pt", "addr:street_address": "Av. Da Marina,Lt.1-A/J", "addr:city": "Vilamoura", "addr:state": "QUARTEIRA", "addr:postcode": "8125-401", "addr:country": "PT", "name": "McDonald&#39;s Vilamoura", "website": "https://www.mcdonalds.pt/restaurantes/vilamoura", "opening_hours": "Mo 02:00-05:30; Tu 08:00-08:00", "image": "https://www.mcdonalds.pt/images/logo.png", "brand": "McDonald\u2019s", "brand:wikidata": "Q38076"}, "geometry": {"type": "Point", "coordinates": [-8.115828, 37.077667]}},
{"type": "Feature", "id": "6dJRlpaE1ZaGS1EZmRRYfFvw7KE=", "properties": {"ref": "/restaurantes/vila-real-nosso-shopping/", "@spider": "mcdonalds_pt", "addr:street_address": "Centro Comercial Nosso Shopping, Loja L249, Alameda de Grasse", "addr:city": "Vila Real Nosso Shopping", "addr:state": "VILA REAL", "addr:postcode": "5000-703", "addr:country": "PT", "name": "McDonald&#39;s Vila Real Nosso Shopping", "website": "https://www.mcdonalds.pt/restaurantes/vila-real-nosso-shopping", "opening_hours": "Mo 02:00-05:30; Tu 08:00-08:00", "image": "https://www.mcdonalds.pt/images/logo.png", "brand": "McDonald\u2019s", "brand:wikidata": "Q38076"}, "geometry": {"type": "Point", "coordinates": [-7.734442, 41.297272]}},
{"type": "Feature", "id": "2Zad4YrUkymKe3APi9AnjEK2sxM=", "properties": {"ref": "/restaurantes/vila-real/", "@spider": "mcdonalds_pt", "addr:street_address": "Av. da Universidade, Tourinhas", "addr:city": "Vila Real", "addr:state": "VILA REAL", "addr:postcode": "5000-000", "addr:country": "PT", "name": "McDonald&#39;s Vila Real", "website": "https://www.mcdonalds.pt/restaurantes/vila-real", "opening_hours": "Mo 02:00-05:30; Tu 08:00-08:00", "image": "https://www.mcdonalds.pt/images/logo.png", "brand": "McDonald\u2019s", "brand:wikidata": "Q38076"}, "geometry": {"type": "Point", "coordinates": [-7.735783, 41.292297]}},
{"type": "Feature", "id": "RwyEfj55_yI1ob_cu6ZL0EmC6JY=", "properties": {"ref": "/restaurantes/vila-do-conde-porto-fashion-outlet/", "@spider": "mcdonalds_pt", "addr:street_address": "Avenida Fonte Cova", "addr:city": "Vila do Conde", "addr:state": "MODIVAS", "addr:postcode": "4485-592", "addr:country": "PT", "name": "McDonald&#39;s Vila do Conde - Porto Fashion Outlet", "website": "https://www.mcdonalds.pt/restaurantes/vila-do-conde-porto-fashion-outlet", "opening_hours": "Mo 02:00-05:30; Tu 08:00-08:00", "image": "https://www.mcdonalds.pt/images/logo.png", "brand": "McDonald\u2019s", "brand:wikidata": "Q38076"}, "geometry": {"type": "Point", "coordinates": [-8.707171, 41.301614]}},
{"type": "Feature", "id": "PTotc96k_0vc6BaYUnCVIDan0yM=", "properties": {"ref": "/restaurantes/vila-do-conde/", "@spider": "mcdonalds_pt", "addr:street_address": "Avenida Portas Fronhas-EN13", "addr:city": "Vila do Conde", "addr:state": "VILA DO CONDE", "addr:postcode": "4480-004", "addr:country": "PT", "name": "McDonald&#39;s Vila do Conde", "website": "https://www.mcdonalds.pt/restaurantes/vila-do-conde", "opening_hours": "Mo 02:00-05:30; Tu 08:00-08:00", "image": "https://www.mcdonalds.pt/images/logo.png", "brand": "McDonald\u2019s", "brand:wikidata": "Q38076"}, "geometry": {"type": "Point", "coordinates": [-8.750144, 41.367667]}},
{"type": "Feature", "id": "x0EaaiXA5yuEMNwyLC2QnWu4TS8=", "properties": {"ref": "/restaurantes/viana-do-castelo-drive/", "@spider": "mcdonalds_pt", "addr:street_address": "Estrada da Papanata, n&#186; 535", "addr:city": "Viana do Castelo Drive", "addr:state": "VIANA DO CASTELO", "addr:postcode": "4900-470", "addr:country": "PT", "name": "McDonald&#39;s Viana do Castelo Drive", "website": "https://www.mcdonalds.pt/restaurantes/viana-do-castelo-drive", "opening_hours": "Mo 02:00-05:30; Tu 08:00-08:00", "image": "https://www.mcdonalds.pt/images/logo.png", "brand": "McDonald\u2019s", "brand:wikidata": "Q38076"}, "geometry": {"type": "Point", "coordinates": [-8.819006, 41.701508]}},
{"type": "Feature", "id": "zbkdgbS8NvB-EcetWwX5yIIq8UM=", "properties": {"ref": "/restaurantes/viana-do-castelo/", "@spider": "mcdonalds_pt", "addr:street_address": "Esta&#231;&#227;o Viana Shopping,Lj.2.044,Ed, da Esta&#231;&#227;o da CP", "addr:city": "Viana do Castelo - Esta&#231;&#227;o CP", "addr:state": "VIANA DO CASTELO", "addr:postcode": "4900-317", "addr:country": "PT", "name": "McDonald&#39;s Viana do Castelo", "website": "https://www.mcdonalds.pt/restaurantes/viana-do-castelo", "opening_hours": "Mo 02:00-05:30; Tu 08:00-08:00", "image": "https://www.mcdonalds.pt/images/logo.png", "brand": "McDonald\u2019s", "brand:wikidata": "Q38076"}, "geometry": {"type": "Point", "coordinates": [-8.832044, 41.695464]}},
{"type": "Feature", "id": "MYSzdHjuwLXgnw6u6XiatPwG7zU=", "properties": {"ref": "/restaurantes/via-catarina/", "@spider": "mcdonalds_pt", "addr:street_address": "Rua Santa Catarina, n&#186;312-350,Lj.4.08", "addr:city": "Via Catarina", "addr:state": "PORTO", "addr:postcode": "4000-000", "addr:country": "PT", "name": "McDonald&#39;s Via Catarina", "website": "https://www.mcdonalds.pt/restaurantes/via-catarina", "opening_hours": "Mo 02:00-05:30; Tu 08:00-08:00", "image": "https://www.mcdonalds.pt/images/logo.png", "brand": "McDonald\u2019s", "brand:wikidata": "Q38076"}, "geometry": {"type": "Point", "coordinates": [-8.605944, 41.149111]}},
{"type": "Feature", "id": "mPFQv6t6CO2BXg3X_C6H-C1mZr4=", "properties": {"ref": "/restaurantes/vasco-da-gama/", "@spider": "mcdonalds_pt", "addr:street_address": "C. C. Vasco da Gama, Lj.2015, Av. D. Jo&#227;o II, P.1.05, Lt.02", "addr:city": "Vasco da Gama", "addr:state": "LISBOA", "addr:postcode": "1990", "addr:country": "PT", "name": "McDonald&#39;s Vasco da Gama", "website": "https://www.mcdonalds.pt/restaurantes/vasco-da-gama", "opening_hours": "Mo 02:00-05:30; Tu 08:00-08:00", "image": "https://www.mcdonalds.pt/images/logo.png", "brand": "McDonald\u2019s", "brand:wikidata": "Q38076"}, "geometry": {"type": "Point", "coordinates": [-9.0977, 38.767733]}},
{"type": "Feature", "id": "gcp_SGlEdLx2a8zQQc4rS2sRI70=", "properties": {"ref": "/restaurantes/trofa/", "@spider": "mcdonalds_pt", "addr:street_address": "Avenida da Trofa Velha, 61", "addr:city": "Trofa", "addr:state": "TROFA", "addr:postcode": "4785-716", "addr:country": "PT", "name": "McDonald&#39;s Trofa", "website": "https://www.mcdonalds.pt/restaurantes/trofa", "opening_hours": "Mo 02:00-05:30; Tu 08:00-08:00", "image": "https://www.mcdonalds.pt/images/logo.png", "brand": "McDonald\u2019s", "brand:wikidata": "Q38076"}, "geometry": {"type": "Point", "coordinates": [-8.568413, 41.326549]}},
{"type": "Feature", "id": "DO6kCov8zF51geSDu7rbSeEkTkA=", "properties": {"ref": "/restaurantes/torres-vedras/", "@spider": "mcdonalds_pt", "addr:street_address": "Rua Projectada,Conquinha", "addr:city": "Torres Vedras", "addr:state": "TORRES VEDRAS", "addr:postcode": "2560-000", "addr:country": "PT", "name": "McDonald&#39;s Torres Vedras", "website": "https://www.mcdonalds.pt/restaurantes/torres-vedras", "opening_hours": "Mo 02:00-05:30; Tu 08:00-08:00", "image": "https://www.mcdonalds.pt/images/logo.png", "brand": "McDonald\u2019s", "brand:wikidata": "Q38076"}, "geometry": {"type": "Point", "coordinates": [-9.262133, 39.082778]}},
{"type": "Feature", "id": "DhIrKm-I_1_ugBAwsnDoGEacNps=", "properties": {"ref": "/restaurantes/torres-novas/", "@spider": "mcdonalds_pt", "addr:street_address": "Av. Andrade de Corvo, n&#186;3", "addr:city": "Torres Novas", "addr:state": "TORRES NOVAS", "addr:postcode": "2350-463", "addr:country": "PT", "name": "McDonald&#39;s Torres Novas", "website": "https://www.mcdonalds.pt/restaurantes/torres-novas", "opening_hours": "Mo 02:00-05:30; Tu 08:00-08:00", "image": "https://www.mcdonalds.pt/images/logo.png", "brand": "McDonald\u2019s", "brand:wikidata": "Q38076"}, "geometry": {"type": "Point", "coordinates": [-8.540217, 39.471428]}},
{"type": "Feature", "id": "jlZYIzoK2wcNhFjoAmvRZl8P7vs=", "properties": {"ref": "/restaurantes/tomar/", "@spider": "mcdonalds_pt", "addr:street_address": "R. Coronel Garc&#234;s Teixeira, 49B", "addr:city": "Tomar", "addr:state": "TOMAR", "addr:postcode": "2300-463", "addr:country": "PT", "name": "McDonald&#39;s Tomar", "website": "https://www.mcdonalds.pt/restaurantes/tomar", "opening_hours": "Mo 02:00-05:30; Tu 08:00-08:00", "image": "https://www.mcdonalds.pt/images/logo.png", "brand": "McDonald\u2019s", "brand:wikidata": "Q38076"}, "geometry": {"type": "Point", "coordinates": [-8.398594, 39.603158]}},
{"type": "Feature", "id": "NjzLRmtq8dP2kvt1gHCUQOzT24A=", "properties": {"ref": "/restaurantes/telheiras/", "@spider": "mcdonalds_pt", "addr:street_address": "C.Comercial Continente de Telheiras, Lojas 1-4, Av. Das Na&#231;&#245;es Unidas", "addr:city": "Telheiras", "addr:state": "LISBOA", "addr:postcode": "1600-008", "addr:country": "PT", "name": "McDonald&#39;s Telheiras", "website": "https://www.mcdonalds.pt/restaurantes/telheiras", "opening_hours": "Mo 02:00-05:30; Tu 08:00-08:00", "image": "https://www.mcdonalds.pt/images/logo.png", "brand": "McDonald\u2019s", "brand:wikidata": "Q38076"}, "geometry": {"type": "Point", "coordinates": [-9.176817, 38.764517]}},
{"type": "Feature", "id": "p9jNGq-jaCZ1gUKWcBzRZ-5zY-o=", "properties": {"ref": "/restaurantes/tagus-park/", "@spider": "mcdonalds_pt", "addr:street_address": "Estrada Nacional,249-3,Km1,9-2,2, S&#227;o Marcos", "addr:city": "Tagus Park", "addr:state": "RIO DE MOURO", "addr:postcode": "2635-000", "addr:country": "PT", "name": "McDonald&#39;s Tagus Park", "website": "https://www.mcdonalds.pt/restaurantes/tagus-park", "opening_hours": "Mo 02:00-05:30; Tu 08:00-08:00", "image": "https://www.mcdonalds.pt/images/logo.png", "brand": "McDonald\u2019s", "brand:wikidata": "Q38076"}, "geometry": {"type": "Point", "coordinates": [-9.307028, 38.751461]}},
{"type": "Feature", "id": "FtOR_vZ1kz3t3AktP9oTpq8ldjM=", "properties": {"ref": "/restaurantes/sao-joao-da-madeira/", "@spider": "mcdonalds_pt", "addr:street_address": "Avenida da Liberdade,Travessas", "addr:city": "S&#227;o Jo&#227;o da Madeira", "addr:state": "S&#195;O JO&#195;O DA MADEIRA", "addr:postcode": "3700-165", "addr:country": "PT", "name": "McDonald&#39;s S&#227;o Jo&#227;o da Madeira", "website": "https://www.mcdonalds.pt/restaurantes/sao-joao-da-madeira", "opening_hours": "Mo 02:00-05:30; Tu 08:00-08:00", "image": "https://www.mcdonalds.pt/images/logo.png", "brand": "McDonald\u2019s", "brand:wikidata": "Q38076"}, "geometry": {"type": "Point", "coordinates": [-8.480606, 40.894178]}},
{"type": "Feature", "id": "RMgHZDCuepxGIX6z2mIsLkPk5nM=", "properties": {"ref": "/restaurantes/strada-shopping/", "@spider": "mcdonalds_pt", "addr:street_address": "Strada Shopping,Lj.2.058,N&#243; das Patameiras", "addr:city": "Odivelas Park", "addr:state": "ODIVELAS", "addr:postcode": "2675", "addr:country": "PT", "name": "McDonald&#39;s Strada Shopping", "website": "https://www.mcdonalds.pt/restaurantes/strada-shopping", "opening_hours": "Mo 02:00-05:30; Tu 08:00-08:00", "image": "https://www.mcdonalds.pt/images/logo.png", "brand": "McDonald\u2019s", "brand:wikidata": "Q38076"}, "geometry": {"type": "Point", "coordinates": [-9.192131, 38.781156]}},
{"type": "Feature", "id": "6ntzop5Gkm9FjfwyhLMebtsyVjU=", "properties": {"ref": "/restaurantes/spacio-shopping/", "@spider": "mcdonalds_pt", "addr:street_address": "Olivais Shopping Center, Lojas 215/216, Rua Cidade de Bolama", "addr:city": "Olivais (Spacio Shopping)", "addr:state": "LISBOA", "addr:postcode": "1800-000", "addr:country": "PT", "name": "McDonald&#39;s Spacio Shopping", "website": "https://www.mcdonalds.pt/restaurantes/spacio-shopping", "opening_hours": "Mo 02:00-05:30; Tu 08:00-08:00", "image": "https://www.mcdonalds.pt/images/logo.png", "brand": "McDonald\u2019s", "brand:wikidata": "Q38076"}, "geometry": {"type": "Point", "coordinates": [-9.114864, 38.761894]}},
{"type": "Feature", "id": "enoCpFShEiV__AGlmeva0gtK1js=", "properties": {"ref": "/restaurantes/sintra-retail-park/", "@spider": "mcdonalds_pt", "addr:street_address": "Rua Am&#237;lcar Antunes, Parque Comercial Sintra Retail Park", "addr:city": "Sintra Retail Park", "addr:state": "RIO DE MOURO", "addr:postcode": "2635-000", "addr:country": "PT", "name": "McDonald&#39;s Sintra Retail Park", "website": "https://www.mcdonalds.pt/restaurantes/sintra-retail-park", "opening_hours": "Mo 02:00-05:30; Tu 08:00-08:00", "image": "https://www.mcdonalds.pt/images/logo.png", "brand": "McDonald\u2019s", "brand:wikidata": "Q38076"}, "geometry": {"type": "Point", "coordinates": [-9.335519, 38.776956]}},
{"type": "Feature", "id": "dTYX7FeGZo4k2uEemGIJDknt2vI=", "properties": {"ref": "/restaurantes/sines/", "@spider": "mcdonalds_pt", "addr:street_address": "Loteamento Municipal a Norte da R52, Lote 3", "addr:city": "Sines", "addr:state": "SINES", "addr:postcode": "7520-001", "addr:country": "PT", "name": "McDonald&#39;s Sines", "website": "https://www.mcdonalds.pt/restaurantes/sines", "opening_hours": "Mo 02:00-05:30; Tu 08:00-08:00", "image": "https://www.mcdonalds.pt/images/logo.png", "brand": "McDonald\u2019s", "brand:wikidata": "Q38076"}, "geometry": {"type": "Point", "coordinates": [-8.856195, 37.966273]}},
{"type": "Feature", "id": "8Cd9Vgu3vGrnoZtv6qun3FCkoek=", "properties": {"ref": "/restaurantes/setubal-drive/", "@spider": "mcdonalds_pt", "addr:street_address": "Estrada de Palmela com a Avenida Europa", "addr:city": "Set&#250;bal", "addr:state": "SET&#218;BAL", "addr:postcode": "2900-717", "addr:country": "PT", "name": "McDonald&#39;s Set&#250;bal Drive", "website": "https://www.mcdonalds.pt/restaurantes/setubal-drive", "opening_hours": "Mo 02:00-05:30; Tu 08:00-08:00", "image": "https://www.mcdonalds.pt/images/logo.png", "brand": "McDonald\u2019s", "brand:wikidata": "Q38076"}, "geometry": {"type": "Point", "coordinates": [-8.897307, 38.531883]}},
{"type": "Feature", "id": "4Hqi4Qm3LVMtAgG9Nx9czSbEZOc=", "properties": {"ref": "/restaurantes/setubal-centro/", "@spider": "mcdonalds_pt", "addr:street_address": "Av.Luisa Todi,n&#186;214,216 e 218", "addr:city": "Set&#250;bal Centro", "addr:state": "SET&#218;BAL", "addr:postcode": "2900-000", "addr:country": "PT", "name": "McDonald&#39;s Set&#250;bal Centro", "website": "https://www.mcdonalds.pt/restaurantes/setubal-centro", "opening_hours": "Mo 02:00-05:30; Tu 08:00-08:00", "image": "https://www.mcdonalds.pt/images/logo.png", "brand": "McDonald\u2019s", "brand:wikidata": "Q38076"}, "geometry": {"type": "Point", "coordinates": [-8.890839, 38.523331]}},
{"type": "Feature", "id": "d9Cg6y-JUsy_H25BMWVymF9cmlE=", "properties": {"ref": "/restaurantes/seixal-a2/", "@spider": "mcdonalds_pt", "addr:street_address": "&#193;rea de Servi&#231;o GALP A2,Sublan&#231;o Almada/Seixal,Km 12", "addr:city": "Seixal \u2013 A2", "addr:state": "AMORA", "addr:postcode": "2845-173", "addr:country": "PT", "name": "McDonald&#39;s Seixal \u2013 A2", "website": "https://www.mcdonalds.pt/restaurantes/seixal-a2", "opening_hours": "Mo 02:00-05:30; Tu 08:00-08:00", "image": "https://www.mcdonalds.pt/images/logo.png", "brand": "McDonald\u2019s", "brand:wikidata": "Q38076"}, "geometry": {"type": "Point", "coordinates": [-9.133564, 38.62245]}},
{"type": "Feature", "id": "IMSu3lB1peC9YPmtjMPdH2B8c7o=", "properties": {"ref": "/restaurantes/seixal-rio-sul-shopping/", "@spider": "mcdonalds_pt", "addr:street_address": "Rio Sul Shopping,Lj.1.025,Av.Timor Loro sae,Torre da Marinha", "addr:city": "Rio Sul Shopping", "addr:state": "SEIXAL", "addr:postcode": "2840-000", "addr:country": "PT", "name": "McDonald&#39;s Seixal (Rio Sul Shopping)", "website": "https://www.mcdonalds.pt/restaurantes/seixal-rio-sul-shopping", "opening_hours": "Mo 02:00-05:30; Tu 08:00-08:00", "image": "https://www.mcdonalds.pt/images/logo.png", "brand": "McDonald\u2019s", "brand:wikidata": "Q38076"}, "geometry": {"type": "Point", "coordinates": [-9.105261, 38.612719]}},
{"type": "Feature", "id": "ui-JR1gBGMb0NKa04AzDeRCXKTw=", "properties": {"ref": "/restaurantes/santarem/", "@spider": "mcdonalds_pt", "addr:street_address": "Rua Comandante Jos&#233; Carvalho", "addr:city": "Santar&#233;m", "addr:state": "SANTAR&#201;M", "addr:postcode": "2005-198", "addr:country": "PT", "name": "McDonald&#39;s Santar&#233;m", "website": "https://www.mcdonalds.pt/restaurantes/santarem", "opening_hours": "Mo 02:00-05:30; Tu 08:00-08:00", "image": "https://www.mcdonalds.pt/images/logo.png", "brand": "McDonald\u2019s", "brand:wikidata": "Q38076"}, "geometry": {"type": "Point", "coordinates": [-8.689344, 39.244506]}},
{"type": "Feature", "id": "KM2eaOxb7uSkBsQUhH_-248jnSw=", "properties": {"ref": "/restaurantes/saldanha/", "@spider": "mcdonalds_pt", "addr:street_address": "Av. Da Rep&#250;blica, 10-F", "addr:city": "Saldanha", "addr:state": "LISBOA", "addr:postcode": "1050-191", "addr:country": "PT", "name": "McDonald&#39;s Saldanha", "website": "https://www.mcdonalds.pt/restaurantes/saldanha", "opening_hours": "Mo 02:00-05:30; Tu 08:00-08:00", "image": "https://www.mcdonalds.pt/images/logo.png", "brand": "McDonald\u2019s", "brand:wikidata": "Q38076"}, "geometry": {"type": "Point", "coordinates": [-9.144917, 38.737298]}},
{"type": "Feature", "id": "dA9IAahYBE_7tu3f8rxklWnQbWE=", "properties": {"ref": "/restaurantes/sacavem/", "@spider": "mcdonalds_pt", "addr:street_address": "Rua Cidade de Goa, 22-24", "addr:city": "Sacav&#233;m", "addr:state": "SACAV&#201;M", "addr:postcode": "2685-038", "addr:country": "PT", "name": "McDonald&#39;s Sacav&#233;m", "website": "https://www.mcdonalds.pt/restaurantes/sacavem", "opening_hours": "Mo 02:00-05:30; Tu 08:00-08:00", "image": "https://www.mcdonalds.pt/images/logo.png", "brand": "McDonald\u2019s", "brand:wikidata": "Q38076"}, "geometry": {"type": "Point", "coordinates": [-9.103745, 38.791586]}},
{"type": "Feature", "id": "mzXzhAV3_SnQxB34XkAkxYtZzHQ=", "properties": {"ref": "/restaurantes/rossio/", "@spider": "mcdonalds_pt", "addr:street_address": "Pra&#231;a D.Pedro IV, 81-83", "addr:city": "Rossio", "addr:state": "LISBOA", "addr:postcode": "1100-202", "addr:country": "PT", "name": "McDonald&#39;s Rossio", "website": "https://www.mcdonalds.pt/restaurantes/rossio", "opening_hours": "Mo 02:00-05:30; Tu 08:00-08:00", "image": "https://www.mcdonalds.pt/images/logo.png", "brand": "McDonald\u2019s", "brand:wikidata": "Q38076"}, "geometry": {"type": "Point", "coordinates": [-9.139022, 38.714325]}},
{"type": "Feature", "id": "RtHqTrx8-FNVkRQd9CCC_O7vh7o=", "properties": {"ref": "/restaurantes/roma/", "@spider": "mcdonalds_pt", "addr:street_address": "Av. Roma, 3A-3B", "addr:city": "Av. de Roma", "addr:state": "LISBOA", "addr:postcode": "1000", "addr:country": "PT", "name": "McDonald&#39;s Roma", "website": "https://www.mcdonalds.pt/restaurantes/roma", "opening_hours": "Mo 02:00-05:30; Tu 08:00-08:00", "image": "https://www.mcdonalds.pt/images/logo.png", "brand": "McDonald\u2019s", "brand:wikidata": "Q38076"}, "geometry": {"type": "Point", "coordinates": [-9.13815, 38.741944]}},
{"type": "Feature", "id": "FF8jdolyZWL71yH-vh5BCAd08pk=", "properties": {"ref": "/restaurantes/rodrigo-da-fonseca/", "@spider": "mcdonalds_pt", "addr:street_address": "Rua Rodrigo da Fonseca, 33-37", "addr:city": "Rodrigo da Fonseca", "addr:state": "LISBOA", "addr:postcode": "1250-190", "addr:country": "PT", "name": "McDonald&#39;s Rodrigo da Fonseca", "website": "https://www.mcdonalds.pt/restaurantes/rodrigo-da-fonseca", "opening_hours": "Mo 02:00-05:30; Tu 08:00-08:00", "image": "https://www.mcdonalds.pt/images/logo.png", "brand": "McDonald\u2019s", "brand:wikidata": "Q38076"}, "geometry": {"type": "Point", "coordinates": [-9.152494, 38.721975]}},
{"type": "Feature", "id": "YO6iDza1StVwZe0Y1P_rerN_TB8=", "properties": {"ref": "/restaurantes/rio-tinto/", "@spider": "mcdonalds_pt", "addr:street_address": "Travessa S&#227;o Sebasti&#227;o, n&#186; 34", "addr:city": "Rio Tinto", "addr:state": "RIO TINTO", "addr:postcode": "4435-443", "addr:country": "PT", "name": "McDonald&#39;s Rio Tinto", "website": "https://www.mcdonalds.pt/restaurantes/rio-tinto", "opening_hours": "Mo 02:00-05:30; Tu 08:00-08:00", "image": "https://www.mcdonalds.pt/images/logo.png", "brand": "McDonald\u2019s", "brand:wikidata": "Q38076"}, "geometry": {"type": "Point", "coordinates": [-8.552578, 41.173578]}},
{"type": "Feature", "id": "3IJ9nPbzw5IrzayOt-AAH0Ox5K0=", "properties": {"ref": "/restaurantes/restelo/", "@spider": "mcdonalds_pt", "addr:street_address": "Rua Greg&#243;rio Lopes", "addr:city": "Restelo", "addr:state": "LISBOA", "addr:postcode": "1400-195", "addr:country": "PT", "name": "McDonald&#39;s Restelo", "website": "https://www.mcdonalds.pt/restaurantes/restelo", "opening_hours": "Mo 02:00-05:30; Tu 08:00-08:00", "image": "https://www.mcdonalds.pt/images/logo.png", "brand": "McDonald\u2019s", "brand:wikidata": "Q38076"}, "geometry": {"type": "Point", "coordinates": [-9.213736, 38.711081]}},
{"type": "Feature", "id": "KGFq3FI0mmHoGxDbWGJtvlCH7nQ=", "properties": {"ref": "/restaurantes/queluz/", "@spider": "mcdonalds_pt", "addr:street_address": "Av. Jos&#233; Elias Garcia n&#186;114 -118", "addr:city": "Queluz", "addr:state": "QUELUZ", "addr:postcode": "2745-143", "addr:country": "PT", "name": "McDonald&#39;s Queluz", "website": "https://www.mcdonalds.pt/restaurantes/queluz", "opening_hours": "Mo 02:00-05:30; Tu 08:00-08:00", "image": "https://www.mcdonalds.pt/images/logo.png", "brand": "McDonald\u2019s", "brand:wikidata": "Q38076"}, "geometry": {"type": "Point", "coordinates": [-9.254519, 38.756444]}},
{"type": "Feature", "id": "e9bvanWUCovCYJ6J3iZUL-QYvn4=", "properties": {"ref": "/restaurantes/porto-alto/", "@spider": "mcdonalds_pt", "addr:street_address": "Av das Na&#231;&#245;es Unidas, 24", "addr:city": "Porto Alto", "addr:state": "SAMORA CORREIA", "addr:postcode": "2135-196", "addr:country": "PT", "name": "McDonald&#39;s Porto Alto", "website": "https://www.mcdonalds.pt/restaurantes/porto-alto", "opening_hours": "Mo 02:00-05:30; Tu 08:00-08:00", "image": "https://www.mcdonalds.pt/images/logo.png", "brand": "McDonald\u2019s", "brand:wikidata": "Q38076"}, "geometry": {"type": "Point", "coordinates": [-8.885038, 38.922585]}},
{"type": "Feature", "id": "ZWYZmFnKN8eeI9MC1JHEFn5LrFQ=", "properties": {"ref": "/restaurantes/porto-alameda-shopping/", "@spider": "mcdonalds_pt", "addr:street_address": "Rua dos Campe&#245;es Europeus n&#186; 28-198, Loja 407", "addr:city": "Centro Comercial Alameda Shop &amp; Spot", "addr:state": "PORTO", "addr:postcode": "4350-414", "addr:country": "PT", "name": "McDonald&#39;s Porto Alameda Shopping", "website": "https://www.mcdonalds.pt/restaurantes/porto-alameda-shopping", "opening_hours": "Mo 02:00-05:30; Tu 08:00-08:00", "image": "https://www.mcdonalds.pt/images/logo.png", "brand": "McDonald\u2019s", "brand:wikidata": "Q38076"}, "geometry": {"type": "Point", "coordinates": [-8.584201, 41.163544]}},
{"type": "Feature", "id": "SPEvqkkFA8v-Pxuz0dlY1y6aEEg=", "properties": {"ref": "/restaurantes/portimao-drive/", "@spider": "mcdonalds_pt", "addr:street_address": "Av.V6 com a V7, Alto Pacheco", "addr:city": "Portim&#227;o", "addr:state": "PORTIM&#195;O", "addr:postcode": "8500-000", "addr:country": "PT", "name": "McDonald&#39;s Portim&#227;o Drive", "website": "https://www.mcdonalds.pt/restaurantes/portimao-drive", "opening_hours": "Mo 02:00-05:30; Tu 08:00-08:00", "image": "https://www.mcdonalds.pt/images/logo.png", "brand": "McDonald\u2019s", "brand:wikidata": "Q38076"}, "geometry": {"type": "Point", "coordinates": [-8.545861, 37.132675]}},
{"type": "Feature", "id": "Lk1lk8EcQNMmDXFQJiHgcNab440=", "properties": {"ref": "/restaurantes/ponta-delgada/", "@spider": "mcdonalds_pt", "addr:street_address": "Rua Dr. Francisco Esp&#237;nola de Mendon&#231;a, 2A", "addr:city": "Ponta Delgada", "addr:state": "PONTA DELGADA", "addr:postcode": "9500-437", "addr:country": "PT", "name": "McDonald&#39;s Ponta Delgada", "website": "https://www.mcdonalds.pt/restaurantes/ponta-delgada", "opening_hours": "Mo 02:00-05:30; Tu 08:00-08:00", "image": "https://www.mcdonalds.pt/images/logo.png", "brand": "McDonald\u2019s", "brand:wikidata": "Q38076"}, "geometry": {"type": "Point", "coordinates": [-25.65125, 37.751483]}},
{"type": "Feature", "id": "URyJZrJ491JGNec0Nod7eX0w2nQ=", "properties": {"ref": "/restaurantes/pinhal-novo/", "@spider": "mcdonalds_pt", "addr:street_address": "Posto de AbastecimentoBO,EN 252", "addr:city": "Pinhal Novo", "addr:state": "PINHAL NOVO", "addr:postcode": "2955", "addr:country": "PT", "name": "McDonald&#39;s Pinhal Novo", "website": "https://www.mcdonalds.pt/restaurantes/pinhal-novo", "opening_hours": "Mo 02:00-05:30; Tu 08:00-08:00", "image": "https://www.mcdonalds.pt/images/logo.png", "brand": "McDonald\u2019s", "brand:wikidata": "Q38076"}, "geometry": {"type": "Point", "coordinates": [-8.913944, 38.636831]}},
{"type": "Feature", "id": "tV1PAkYie5nywKU9JIDnYkOiVX8=", "properties": {"ref": "/restaurantes/penafiel/", "@spider": "mcdonalds_pt", "addr:street_address": "Rua Tapadinho", "addr:city": "Penafiel", "addr:state": "PENAFIEL", "addr:postcode": "4560-264 Penafiel", "addr:country": "PT", "name": "McDonald&#39;s Penafiel", "website": "https://www.mcdonalds.pt/restaurantes/penafiel", "opening_hours": "Mo 02:00-05:30; Tu 08:00-08:00", "image": "https://www.mcdonalds.pt/images/logo.png", "brand": "McDonald\u2019s", "brand:wikidata": "Q38076"}, "geometry": {"type": "Point", "coordinates": [-8.301892, 41.1941]}},
{"type": "Feature", "id": "uO_AUHkfFGiOT8cbCq3GbFBJ-vs=", "properties": {"ref": "/restaurantes/pacos-ferreira/", "@spider": "mcdonalds_pt", "addr:street_address": "Centro Comercial Ferrara plaza,Lj.2.33 e 2.34,Rua das Pedreiras,n&#186;36,Carvalhosa", "addr:city": "Pa&#231;os de Ferreira - Ferrara Plaza", "addr:state": "PA&#199;OS DE FERREIRA", "addr:postcode": "4590-046", "addr:country": "PT", "name": "McDonald&#39;s Pa&#231;os Ferreira", "website": "https://www.mcdonalds.pt/restaurantes/pacos-ferreira", "opening_hours": "Mo 02:00-05:30; Tu 08:00-08:00", "image": "https://www.mcdonalds.pt/images/logo.png", "brand": "McDonald\u2019s", "brand:wikidata": "Q38076"}, "geometry": {"type": "Point", "coordinates": [-8.360919, 41.284394]}},
{"type": "Feature", "id": "nGUMdXjPPuulo89uJYLArhlJnI0=", "properties": {"ref": "/restaurantes/parque-das-nacoes/", "@spider": "mcdonalds_pt", "addr:street_address": "Edif&#237;cio Lisboa, Fra&#231;&#227;o B e C, Parque das Na&#231;&#245;es, Alameda dos Oceanos, Lote 2.11.001 A a AD", "addr:city": "Parque das Na&#231;&#245;es", "addr:state": "LISBOA", "addr:postcode": "1990-225", "addr:country": "PT", "name": "McDonald&#39;s Parque das Na&#231;&#245;es", "website": "https://www.mcdonalds.pt/restaurantes/parque-das-nacoes", "opening_hours": "Mo 02:00-05:30; Tu 08:00-08:00", "image": "https://www.mcdonalds.pt/images/logo.png", "brand": "McDonald\u2019s", "brand:wikidata": "Q38076"}, "geometry": {"type": "Point", "coordinates": [-9.095701, 38.763622]}},
{"type": "Feature", "id": "rmfTpqGNJXyJdVkJOdbw38PsEds=", "properties": {"ref": "/restaurantes/parque-atlantico/", "@spider": "mcdonalds_pt", "addr:street_address": "Centro Comercial Parque Atl&#226;ntico Rua da Juventude, Loja n&#186; 1-037", "addr:city": "Parque Atl&#226;ntico", "addr:state": "PONTA DELGADA", "addr:postcode": "9500-211", "addr:country": "PT", "name": "McDonald&#39;s Parque Atl&#226;ntico", "website": "https://www.mcdonalds.pt/restaurantes/parque-atlantico", "opening_hours": "Mo 02:00-05:30; Tu 08:00-08:00", "image": "https://www.mcdonalds.pt/images/logo.png", "brand": "McDonald\u2019s", "brand:wikidata": "Q38076"}, "geometry": {"type": "Point", "coordinates": [-25.675669, 37.747574]}},
{"type": "Feature", "id": "x1DvgUDiGlKJcL2Q2bsCAJcb4YQ=", "properties": {"ref": "/restaurantes/palacio-do-gelo/", "@spider": "mcdonalds_pt", "addr:street_address": "Pal&#225;cio do Gelo Shopping,Lj.3.16,Quinta da Alagoa", "addr:city": "Viseu - C.C. Pal&#225;cio do Gelo", "addr:state": "VISEU", "addr:postcode": "3500-606", "addr:country": "PT", "name": "McDonald&#39;s Pal&#225;cio do Gelo", "website": "https://www.mcdonalds.pt/restaurantes/palacio-do-gelo", "opening_hours": "Mo 02:00-05:30; Tu 08:00-08:00", "image": "https://www.mcdonalds.pt/images/logo.png", "brand": "McDonald\u2019s", "brand:wikidata": "Q38076"}, "geometry": {"type": "Point", "coordinates": [-7.911117, 40.643464]}},
{"type": "Feature", "id": "Ag8mzD8D1s9ocVyTJMDg9iYctXM=", "properties": {"ref": "/restaurantes/palmela/", "@spider": "mcdonalds_pt", "addr:street_address": "E.N.252,Km14,&#193;rea de Servi&#231;o Repsol", "addr:city": "Palmela", "addr:state": "PALMELA", "addr:postcode": "2950-011", "addr:country": "PT", "name": "McDonald&#39;s Palmela", "website": "https://www.mcdonalds.pt/restaurantes/palmela", "opening_hours": "Mo 02:00-05:30; Tu 08:00-08:00", "image": "https://www.mcdonalds.pt/images/logo.png", "brand": "McDonald\u2019s", "brand:wikidata": "Q38076"}, "geometry": {"type": "Point", "coordinates": [-8.888267, 38.566986]}},
{"type": "Feature", "id": "0J9sntvmJFNcvnkmpfTh49xP4Hw=", "properties": {"ref": "/restaurantes/padre-cruz/", "@spider": "mcdonalds_pt", "addr:street_address": "Av. Padre Cruz, Posto de Abastecimento BP", "addr:city": "Av. Padre Cruz - BP Est&#225;dio de Alvalade", "addr:state": "LISBOA", "addr:postcode": "1600-000", "addr:country": "PT", "name": "McDonald&#39;s Padre Cruz", "website": "https://www.mcdonalds.pt/restaurantes/padre-cruz", "opening_hours": "Mo 02:00-05:30; Tu 08:00-08:00", "image": "https://www.mcdonalds.pt/images/logo.png", "brand": "McDonald\u2019s", "brand:wikidata": "Q38076"}, "geometry": {"type": "Point", "coordinates": [-9.163553, 38.762825]}},
{"type": "Feature", "id": "UJ-9xOmtyWXQLyN24pL4rthw6ss=", "properties": {"ref": "/restaurantes/olhao/", "@spider": "mcdonalds_pt", "addr:street_address": "E. N.125, Brancanes", "addr:city": "Olh&#227;o", "addr:state": "OLH&#195;O", "addr:postcode": "8700-134", "addr:country": "PT", "name": "McDonald&#39;s Olh&#227;o", "website": "https://www.mcdonalds.pt/restaurantes/olhao", "opening_hours": "Mo 02:00-05:30; Tu 08:00-08:00", "image": "https://www.mcdonalds.pt/images/logo.png", "brand": "McDonald\u2019s", "brand:wikidata": "Q38076"}, "geometry": {"type": "Point", "coordinates": [-7.851189, 37.030144]}},
{"type": "Feature", "id": "tiMZvyeclE8aJ-LfBzbkRf5LcSo=", "properties": {"ref": "/restaurantes/oeiras-parque/", "@spider": "mcdonalds_pt", "addr:street_address": "Oeiras Parque-O Shopping da Linha, Lj.1080, Caminho dos Mochos", "addr:city": "Oeiras Parque", "addr:state": "PA&#199;O DE ARCOS", "addr:postcode": "2770-219", "addr:country": "PT", "name": "McDonald&#39;s Oeiras Parque", "website": "https://www.mcdonalds.pt/restaurantes/oeiras-parque", "opening_hours": "Mo 02:00-05:30; Tu 08:00-08:00", "image": "https://www.mcdonalds.pt/images/logo.png", "brand": "McDonald\u2019s", "brand:wikidata": "Q38076"}, "geometry": {"type": "Point", "coordinates": [-9.302031, 38.704308]}},
{"type": "Feature", "id": "KicVRG6RK647qO2S54wsskAcBJc=", "properties": {"ref": "/restaurantes/oeiras-a5/", "@spider": "mcdonalds_pt", "addr:street_address": "&#193;rea de Servi&#231;o GALP A5, Km 9,6, sentido Lisboa/Cascais", "addr:city": "A5 - Oeiras", "addr:state": "OEIRAS", "addr:postcode": "2780-000", "addr:country": "PT", "name": "McDonald&#39;s Oeiras - A5", "website": "https://www.mcdonalds.pt/restaurantes/oeiras-a5", "opening_hours": "Mo 02:00-05:30; Tu 08:00-08:00", "image": "https://www.mcdonalds.pt/images/logo.png", "brand": "McDonald\u2019s", "brand:wikidata": "Q38076"}, "geometry": {"type": "Point", "coordinates": [-9.287103, 38.714764]}},
{"type": "Feature", "id": "2qs5ML2o557qz4vLBDheb-nfbok=", "properties": {"ref": "/restaurantes/oeiras/", "@spider": "mcdonalds_pt", "addr:street_address": "Parque Gago Coutinho, Santo Amaro de Oeiras, Av. Marginal", "addr:city": "Oeiras - Santo Amaro", "addr:state": "OEIRAS", "addr:postcode": "2780-000", "addr:country": "PT", "name": "McDonald&#39;s Oeiras", "website": "https://www.mcdonalds.pt/restaurantes/oeiras", "opening_hours": "Mo 02:00-05:30; Tu 08:00-08:00", "image": "https://www.mcdonalds.pt/images/logo.png", "brand": "McDonald\u2019s", "brand:wikidata": "Q38076"}, "geometry": {"type": "Point", "coordinates": [-9.313169, 38.685331]}},
{"type": "Feature", "id": "vSecipIIMOGAGYyP8zabwQIGV5o=", "properties": {"ref": "/restaurantes/odivelas/", "@spider": "mcdonalds_pt", "addr:street_address": "Piscinas Municipais de Odivelas,Av.Prof.Dr.Augusto Abreu Lopes", "addr:city": "Odivelas", "addr:state": "ODIVELAS", "addr:postcode": "2675-000", "addr:country": "PT", "name": "McDonald&#39;s Odivelas", "website": "https://www.mcdonalds.pt/restaurantes/odivelas", "opening_hours": "Mo 02:00-05:30; Tu 08:00-08:00", "image": "https://www.mcdonalds.pt/images/logo.png", "brand": "McDonald\u2019s", "brand:wikidata": "Q38076"}, "geometry": {"type": "Point", "coordinates": [-9.181378, 38.794578]}},
{"type": "Feature", "id": "lxHiRzE-owTglAf8pdBXFZUaYL4=", "properties": {"ref": "/restaurantes/norteshopping/", "@spider": "mcdonalds_pt", "addr:street_address": "Centro Comercial Norteshopping, Rua Sara Afonso, 105 - 117, Loja 1126 \u2013 Senhora da Hora", "addr:city": "Norte Shopping", "addr:state": "Matosinhos", "addr:postcode": "4464-001 Senhora da Hora", "addr:country": "PT", "name": "McDonald&#39;s NorteShopping", "website": "https://www.mcdonalds.pt/restaurantes/norteshopping", "opening_hours": "Mo 02:00-05:30; Tu 08:00-08:00", "image": "https://www.mcdonalds.pt/images/logo.png", "brand": "McDonald\u2019s", "brand:wikidata": "Q38076"}, "geometry": {"type": "Point", "coordinates": [-8.654308, 41.180875]}},
{"type": "Feature", "id": "0Qf3YkZGbZ-3opUYiy9_fHsmMKI=", "properties": {"ref": "/restaurantes/montijo-forum/", "@spider": "mcdonalds_pt", "addr:street_address": "Forum Montijo,Lj.131,Zona Industrial do Pau Queimado,Rua da Azinhaga,Afonseiro", "addr:city": "Forum Montijo", "addr:state": "MONTIJO", "addr:postcode": "2870-100", "addr:country": "PT", "name": "McDonald&#39;s Montijo Alegro", "website": "https://www.mcdonalds.pt/restaurantes/montijo-forum", "opening_hours": "Mo 02:00-05:30; Tu 08:00-08:00", "image": "https://www.mcdonalds.pt/images/logo.png", "brand": "McDonald\u2019s", "brand:wikidata": "Q38076"}, "geometry": {"type": "Point", "coordinates": [-8.942219, 38.6954]}},
{"type": "Feature", "id": "-pNqyDbDlPc-xEiItEheadyKlWU=", "properties": {"ref": "/restaurantes/montijo-drive/", "@spider": "mcdonalds_pt", "addr:street_address": "Retail Park, Avenida Portas da Cidade", "addr:city": "Montijo", "addr:state": "MONTIJO", "addr:postcode": "2870-448", "addr:country": "PT", "name": "McDonald&#39;s Montijo Drive", "website": "https://www.mcdonalds.pt/restaurantes/montijo-drive", "opening_hours": "Mo 02:00-05:30; Tu 08:00-08:00", "image": "https://www.mcdonalds.pt/images/logo.png", "brand": "McDonald\u2019s", "brand:wikidata": "Q38076"}, "geometry": {"type": "Point", "coordinates": [-8.945158, 38.703118]}},
{"type": "Feature", "id": "kfMr4TV2yqix9SMyJFzMUie0jXc=", "properties": {"ref": "/restaurantes/merces/", "@spider": "mcdonalds_pt", "addr:street_address": "Estrada das Merc&#234;s, Limites do lugar de Algueir&#227;o", "addr:city": "Merc&#234;s", "addr:state": "MEM MARTINS", "addr:postcode": "2725-083", "addr:country": "PT", "name": "McDonald&#39;s Merc&#234;s", "website": "https://www.mcdonalds.pt/restaurantes/merces", "opening_hours": "Mo 02:00-05:30; Tu 08:00-08:00", "image": "https://www.mcdonalds.pt/images/logo.png", "brand": "McDonald\u2019s", "brand:wikidata": "Q38076"}, "geometry": {"type": "Point", "coordinates": [-9.326003, 38.800628]}},
{"type": "Feature", "id": "iprLvjuV7Op0cd7_JuOIJEHYOTg=", "properties": {"ref": "/restaurantes/mem-martins/", "@spider": "mcdonalds_pt", "addr:street_address": "Estrada de Sintra, Km14,7", "addr:city": "Mem Martins", "addr:state": "MEM MARTINS", "addr:postcode": "2725-397", "addr:country": "PT", "name": "McDonald&#39;s Mem Martins", "website": "https://www.mcdonalds.pt/restaurantes/mem-martins", "opening_hours": "Mo 02:00-05:30; Tu 08:00-08:00", "image": "https://www.mcdonalds.pt/images/logo.png", "brand": "McDonald\u2019s", "brand:wikidata": "Q38076"}, "geometry": {"type": "Point", "coordinates": [-9.349147, 38.780783]}},
{"type": "Feature", "id": "QLNStO7EBHG350ZfczsgFxUGH5M=", "properties": {"ref": "/restaurantes/matosinhos/", "@spider": "mcdonalds_pt", "addr:street_address": "Rua H&#233;rois de Fran&#231;a, 905", "addr:city": "Matosinhos", "addr:state": "MATOSINHOS", "addr:postcode": "4450-156", "addr:country": "PT", "name": "McDonald&#39;s Matosinhos", "website": "https://www.mcdonalds.pt/restaurantes/matosinhos", "opening_hours": "Mo 02:00-05:30; Tu 08:00-08:00", "image": "https://www.mcdonalds.pt/images/logo.png", "brand": "McDonald\u2019s", "brand:wikidata": "Q38076"}, "geometry": {"type": "Point", "coordinates": [-8.690907, 41.179095]}},
{"type": "Feature", "id": "onBQ1kW8qDer62MHRetZZ90ivsg=", "properties": {"ref": "/restaurantes/massama-sul/", "@spider": "mcdonalds_pt", "addr:street_address": "Rua Cidade Desportiva", "addr:city": "Massam&#225; Sul", "addr:state": "QUELUZ", "addr:postcode": "2745-012", "addr:country": "PT", "name": "McDonald&#39;s Massam&#225; Sul", "website": "https://www.mcdonalds.pt/restaurantes/massama-sul", "opening_hours": "Mo 02:00-05:30; Tu 08:00-08:00", "image": "https://www.mcdonalds.pt/images/logo.png", "brand": "McDonald\u2019s", "brand:wikidata": "Q38076"}, "geometry": {"type": "Point", "coordinates": [-9.268467, 38.753314]}},
{"type": "Feature", "id": "uwTXFsNZZKTWHFVNepRi7b__O5Q=", "properties": {"ref": "/restaurantes/massama-norte/", "@spider": "mcdonalds_pt", "addr:street_address": "Av. Salgueiro Maia n&#186;98, Massam&#225; Norte", "addr:city": "Massam&#225; Norte", "addr:state": "BELAS", "addr:postcode": "2605-229", "addr:country": "PT", "name": "McDonald&#39;s Massam&#225; Norte", "website": "https://www.mcdonalds.pt/restaurantes/massama-norte", "opening_hours": "Mo 02:00-05:30; Tu 08:00-08:00", "image": "https://www.mcdonalds.pt/images/logo.png", "brand": "McDonald\u2019s", "brand:wikidata": "Q38076"}, "geometry": {"type": "Point", "coordinates": [-9.278733, 38.767028]}},
{"type": "Feature", "id": "xc1ARiRgZ6a2azsjIaqH5qGsRow=", "properties": {"ref": "/restaurantes/marinha-grande/", "@spider": "mcdonalds_pt", "addr:street_address": "Rua das Bicas,EN 242", "addr:city": "Marinha Grande", "addr:state": "MARINHA GRANDE", "addr:postcode": "2430-000", "addr:country": "PT", "name": "McDonald&#39;s Marinha Grande", "website": "https://www.mcdonalds.pt/restaurantes/marinha-grande", "opening_hours": "Mo 02:00-05:30; Tu 08:00-08:00", "image": "https://www.mcdonalds.pt/images/logo.png", "brand": "McDonald\u2019s", "brand:wikidata": "Q38076"}, "geometry": {"type": "Point", "coordinates": [-8.933414, 39.734364]}},
{"type": "Feature", "id": "mTNncwb6U3nw0X2YKyUi3yBPmng=", "properties": {"ref": "/restaurantes/marechal-gomes-da-costa/", "@spider": "mcdonalds_pt", "addr:street_address": "Av&#170; Dr&#186; Augusto Castro , Lote 408 - Bloco 3", "addr:city": "Av. Marechal Gomes da Costa 33", "addr:state": "LISBOA", "addr:postcode": "1950-081", "addr:country": "PT", "name": "McDonald&#39;s Marechal Gomes da Costa", "website": "https://www.mcdonalds.pt/restaurantes/marechal-gomes-da-costa", "opening_hours": "Mo 02:00-05:30; Tu 08:00-08:00", "image": "https://www.mcdonalds.pt/images/logo.png", "brand": "McDonald\u2019s", "brand:wikidata": "Q38076"}, "geometry": {"type": "Point", "coordinates": [-9.113148, 38.757141]}},
{"type": "Feature", "id": "c-9uKzCEeZ1BYzOL3lvMrI4UpBM=", "properties": {"ref": "/restaurantes/marco-de-canaveses/", "@spider": "mcdonalds_pt", "addr:street_address": "Avenida Sta. Teresa do Menino Jesus, Lote 1Lugar do Talegre", "addr:city": "Marco de Canaveses", "addr:state": "MARCO DE CANAVESES", "addr:postcode": "4630-446", "addr:country": "PT", "name": "McDonald&#39;s Marco de Canaveses", "website": "https://www.mcdonalds.pt/restaurantes/marco-de-canaveses", "opening_hours": "Mo 02:00-05:30; Tu 08:00-08:00", "image": "https://www.mcdonalds.pt/images/logo.png", "brand": "McDonald\u2019s", "brand:wikidata": "Q38076"}, "geometry": {"type": "Point", "coordinates": [-8.151968, 41.178241]}},
{"type": "Feature", "id": "TnPks6v5o3nOPc-H0sQM-d1aMvg=", "properties": {"ref": "/restaurantes/mar-shopping/", "@spider": "mcdonalds_pt", "addr:street_address": "Av. Arq. Fernando T&#225;vora, n&#186; 231Loja 1.53 \u2013 Le&#231;a da Palmeira", "addr:city": "Marshopping (IKEA)", "addr:state": "MATOSINHOS", "addr:postcode": "4450-820", "addr:country": "PT", "name": "McDonald&#39;s Mar Shopping", "website": "https://www.mcdonalds.pt/restaurantes/mar-shopping", "opening_hours": "Mo 02:00-05:30; Tu 08:00-08:00", "image": "https://www.mcdonalds.pt/images/logo.png", "brand": "McDonald\u2019s", "brand:wikidata": "Q38076"}, "geometry": {"type": "Point", "coordinates": [-8.688425, 41.209353]}},
{"type": "Feature", "id": "g6N7kbjyS1f97AF6RnWpEogiZqQ=", "properties": {"ref": "/restaurantes/maia-shopping/", "@spider": "mcdonalds_pt", "addr:street_address": "Maia Shopping, Piso 2, Lj.238, Lugar de Ardeg&#227;es", "addr:city": "Maia Shopping", "addr:state": "MAIA", "addr:postcode": "4425-500", "addr:country": "PT", "name": "McDonald&#39;s Maia Shopping", "website": "https://www.mcdonalds.pt/restaurantes/maia-shopping", "opening_hours": "Mo 02:00-05:30; Tu 08:00-08:00", "image": "https://www.mcdonalds.pt/images/logo.png", "brand": "McDonald\u2019s", "brand:wikidata": "Q38076"}, "geometry": {"type": "Point", "coordinates": [-8.562358, 41.220647]}},
{"type": "Feature", "id": "YhyjEy-F6e3KuGjbMYUMNProL1E=", "properties": {"ref": "/restaurantes/maia-centro/", "@spider": "mcdonalds_pt", "addr:street_address": "Gaveto da Via Perif&#233;rica c/ a Av. Santos de Leite, Lugar de Catassol", "addr:city": "Maia Centro", "addr:state": "MAIA", "addr:postcode": "4470-142", "addr:country": "PT", "name": "McDonald&#39;s Maia Centro", "website": "https://www.mcdonalds.pt/restaurantes/maia-centro", "opening_hours": "Mo 02:00-05:30; Tu 08:00-08:00", "image": "https://www.mcdonalds.pt/images/logo.png", "brand": "McDonald\u2019s", "brand:wikidata": "Q38076"}, "geometry": {"type": "Point", "coordinates": [-8.618231, 41.226514]}},
{"type": "Feature", "id": "0kwdF6rw5hnNuppz6LTvQ6o2rKs=", "properties": {"ref": "/restaurantes/maia/", "@spider": "mcdonalds_pt", "addr:street_address": "Galeria Comercial Auchan Maia, E.N.14, Km9", "addr:city": "Maia", "addr:state": "MAIA", "addr:postcode": "4475-045", "addr:country": "PT", "name": "McDonald&#39;s Maia", "website": "https://www.mcdonalds.pt/restaurantes/maia", "opening_hours": "Mo 02:00-05:30; Tu 08:00-08:00", "image": "https://www.mcdonalds.pt/images/logo.png", "brand": "McDonald\u2019s", "brand:wikidata": "Q38076"}, "geometry": {"type": "Point", "coordinates": [-8.621386, 41.248867]}},
{"type": "Feature", "id": "icV_sQv7gd6CWFCW_DkGAhInSGA=", "properties": {"ref": "/restaurantes/mafra/", "@spider": "mcdonalds_pt", "addr:street_address": "Av. Dr. Francisco S&#225; Carneiro, 14", "addr:city": "Mafra", "addr:state": "MAFRA", "addr:postcode": "2640-486", "addr:country": "PT", "name": "McDonald&#39;s Mafra", "website": "https://www.mcdonalds.pt/restaurantes/mafra", "opening_hours": "Mo 02:00-05:30; Tu 08:00-08:00", "image": "https://www.mcdonalds.pt/images/logo.png", "brand": "McDonald\u2019s", "brand:wikidata": "Q38076"}, "geometry": {"type": "Point", "coordinates": [-9.342236, 38.9429]}},
{"type": "Feature", "id": "NO3D2IYM1c0AaPkKnKjeiUo83nw=", "properties": {"ref": "/restaurantes/madeira-shopping/", "@spider": "mcdonalds_pt", "addr:street_address": "C.C.Madeira Shpping,Lj.1001,Caminho de St&#170;Quit&#233;ria,St&#186; Ant&#243;nio", "addr:city": "Madeira Shopping", "addr:state": "FUNCHAL", "addr:postcode": "9024", "addr:country": "PT", "name": "McDonald&#39;s Madeira Shopping", "website": "https://www.mcdonalds.pt/restaurantes/madeira-shopping", "opening_hours": "Mo 02:00-05:30; Tu 08:00-08:00", "image": "https://www.mcdonalds.pt/images/logo.png", "brand": "McDonald\u2019s", "brand:wikidata": "Q38076"}, "geometry": {"type": "Point", "coordinates": [-16.950672, 32.659528]}},
{"type": "Feature", "id": "Gv13TCr20GvV91hfwxUbPZPAvCA=", "properties": {"ref": "/restaurantes/lourosa/", "@spider": "mcdonalds_pt", "addr:street_address": "Estrada nacional 1", "addr:city": "Lourosa", "addr:state": "LOUROSA", "addr:postcode": "4535-013", "addr:country": "PT", "name": "McDonald&#39;s Lourosa", "website": "https://www.mcdonalds.pt/restaurantes/lourosa", "opening_hours": "Mo 02:00-05:30; Tu 08:00-08:00", "image": "https://www.mcdonalds.pt/images/logo.png", "brand": "McDonald\u2019s", "brand:wikidata": "Q38076"}, "geometry": {"type": "Point", "coordinates": [-8.536636, 40.977792]}},
{"type": "Feature", "id": "5eDiIZ1gNR85zkO42nXvVly0nOU=", "properties": {"ref": "/restaurantes/louresshopping/", "@spider": "mcdonalds_pt", "addr:street_address": "Centro Comercial Loureshopping,Lj.1.065,Quinta do Infantado", "addr:city": "LouresShopping", "addr:state": "LOURES", "addr:postcode": "2670", "addr:country": "PT", "name": "McDonald&#39;s LouresShopping", "website": "https://www.mcdonalds.pt/restaurantes/louresshopping", "opening_hours": "Mo 02:00-05:30; Tu 08:00-08:00", "image": "https://www.mcdonalds.pt/images/logo.png", "brand": "McDonald\u2019s", "brand:wikidata": "Q38076"}, "geometry": {"type": "Point", "coordinates": [-9.156261, 38.833131]}},
{"type": "Feature", "id": "MFg4mZVs6SgVRHgIJYUG6ByNtwY=", "properties": {"ref": "/restaurantes/loule-marshopping/", "@spider": "mcdonalds_pt", "addr:street_address": "Centro Comercial Mar Shopping Loul&#233;, Lj 1.32, Av. Do Algarve", "addr:city": "Mar Shopping Loul&#233;", "addr:state": "ALMANCIL", "addr:postcode": "8135-182", "addr:country": "PT", "name": "McDonald&#39;s Loul&#233; Marshopping", "website": "https://www.mcdonalds.pt/restaurantes/loule-marshopping", "opening_hours": "Mo 02:00-05:30; Tu 08:00-08:00", "image": "https://www.mcdonalds.pt/images/logo.png", "brand": "McDonald\u2019s", "brand:wikidata": "Q38076"}, "geometry": {"type": "Point", "coordinates": [-7.995924, 37.09859]}},
{"type": "Feature", "id": "DSuCRBsJ-L1UHHrNF3f3yHC9bo8=", "properties": {"ref": "/restaurantes/loule/", "@spider": "mcdonalds_pt", "addr:street_address": "Rua Brites de Almeida, Olivais de St&#186; Ant&#243;nio, S&#227;o Sebasti&#227;o", "addr:city": "Loul&#233;", "addr:state": "LOUL&#201;", "addr:postcode": "8100-676", "addr:country": "PT", "name": "McDonald&#39;s Loul&#233;", "website": "https://www.mcdonalds.pt/restaurantes/loule", "opening_hours": "Mo 02:00-05:30; Tu 08:00-08:00", "image": "https://www.mcdonalds.pt/images/logo.png", "brand": "McDonald\u2019s", "brand:wikidata": "Q38076"}, "geometry": {"type": "Point", "coordinates": [-8.029722, 37.139444]}},
{"type": "Feature", "id": "FKaBgdkIimUaPMw8dIT7amazf_c=", "properties": {"ref": "/restaurantes/leca-da-palmeira/", "@spider": "mcdonalds_pt", "addr:street_address": "Av. Liberdade s/n", "addr:city": "Le&#231;a da Palmeira", "addr:state": "MATOSINHOS", "addr:postcode": "4450-718", "addr:country": "PT", "name": "McDonald&#39;s Le&#231;a da Palmeira", "website": "https://www.mcdonalds.pt/restaurantes/leca-da-palmeira", "opening_hours": "Mo 02:00-05:30; Tu 08:00-08:00", "image": "https://www.mcdonalds.pt/images/logo.png", "brand": "McDonald\u2019s", "brand:wikidata": "Q38076"}, "geometry": {"type": "Point", "coordinates": [-8.705814, 41.19255]}},
{"type": "Feature", "id": "2AvR_Vo316Rrfkzfvwfz9HKl-8s=", "properties": {"ref": "/restaurantes/leiriashopping/", "@spider": "mcdonalds_pt", "addr:street_address": "Loja 146 -&#160; Estrada Nacional 1", "addr:city": "Leiriashopping", "addr:state": "LEIRIA", "addr:postcode": "2400-822", "addr:country": "PT", "name": "McDonald&#39;s Leiriashopping", "website": "https://www.mcdonalds.pt/restaurantes/leiriashopping", "opening_hours": "Mo 02:00-05:30; Tu 08:00-08:00", "image": "https://www.mcdonalds.pt/images/logo.png", "brand": "McDonald\u2019s", "brand:wikidata": "Q38076"}, "geometry": {"type": "Point", "coordinates": [-8.824808, 39.732611]}},
{"type": "Feature", "id": "YlAo5G8yTQeV3W1V4cODUkrzoRg=", "properties": {"ref": "/restaurantes/leiria-drive/", "@spider": "mcdonalds_pt", "addr:street_address": "Variante Sul/Rotunda Vale dos Lobos (ou Av.Nossa Senhora de F&#225;tima)", "addr:city": "Leiria", "addr:state": "LEIRIA", "addr:postcode": "2410-140", "addr:country": "PT", "name": "McDonald&#39;s Leiria Drive", "website": "https://www.mcdonalds.pt/restaurantes/leiria-drive", "opening_hours": "Mo 02:00-05:30; Tu 08:00-08:00", "image": "https://www.mcdonalds.pt/images/logo.png", "brand": "McDonald\u2019s", "brand:wikidata": "Q38076"}, "geometry": {"type": "Point", "coordinates": [-8.799719, 39.735331]}},
{"type": "Feature", "id": "iT8fwPbPmpLAX_w4nrg2iIDI6Ds=", "properties": {"ref": "/restaurantes/largo-do-chiado/", "@spider": "mcdonalds_pt", "addr:street_address": "Largo do Chiado, 4 a 7.", "addr:city": "Largo Chiado", "addr:state": "LISBOA", "addr:postcode": "1200-108", "addr:country": "PT", "name": "McDonald&#39;s Largo do Chiado", "website": "https://www.mcdonalds.pt/restaurantes/largo-do-chiado", "opening_hours": "Mo 02:00-05:30; Tu 08:00-08:00", "image": "https://www.mcdonalds.pt/images/logo.png", "brand": "McDonald\u2019s", "brand:wikidata": "Q38076"}, "geometry": {"type": "Point", "coordinates": [-9.142677, 38.710648]}},
{"type": "Feature", "id": "1M1iS5dmlnaEj5GVPVWdcV25f9g=", "properties": {"ref": "/restaurantes/lagos/", "@spider": "mcdonalds_pt", "addr:street_address": "Urbaniza&#231;&#227;o Varandas de S&#186;Jo&#227;o,Lt.14,S.Sebasti&#227;o", "addr:city": "Lagos", "addr:state": "LAGOS", "addr:postcode": "8600", "addr:country": "PT", "name": "McDonald&#39;s Lagos", "website": "https://www.mcdonalds.pt/restaurantes/lagos", "opening_hours": "Mo 02:00-05:30; Tu 08:00-08:00", "image": "https://www.mcdonalds.pt/images/logo.png", "brand": "McDonald\u2019s", "brand:wikidata": "Q38076"}, "geometry": {"type": "Point", "coordinates": [-8.681764, 37.113464]}},
{"type": "Feature", "id": "lCMtaSt58qc0pCOUFZMP9LNcXb8=", "properties": {"ref": "/restaurantes/jardim-zoologico/", "@spider": "mcdonalds_pt", "addr:street_address": "Jardim Zool&#243;gico de Lisboa, Estrada de Benfica", "addr:city": "ZOO de Lisboa (zona de acesso livre)", "addr:state": "LISBOA", "addr:postcode": "1549", "addr:country": "PT", "name": "McDonald&#39;s Jardim Zool&#243;gico", "website": "https://www.mcdonalds.pt/restaurantes/jardim-zoologico", "opening_hours": "Mo 02:00-05:30; Tu 08:00-08:00", "image": "https://www.mcdonalds.pt/images/logo.png", "brand": "McDonald\u2019s", "brand:wikidata": "Q38076"}, "geometry": {"type": "Point", "coordinates": [-9.170426, 38.742454]}},
{"type": "Feature", "id": "AkSSXlhz8R2eX9J78tN45BZEJVs=", "properties": {"ref": "/restaurantes/imperial-aliados-porto/", "@spider": "mcdonalds_pt", "addr:street_address": "Pra&#231;a da Liberdade, 126", "addr:city": "Imperial", "addr:state": "PORTO", "addr:postcode": "4000-322", "addr:country": "PT", "name": "McDonald&#39;s Imperial Aliados - Porto", "website": "https://www.mcdonalds.pt/restaurantes/imperial-aliados-porto", "opening_hours": "Mo 02:00-05:30; Tu 08:00-08:00", "image": "https://www.mcdonalds.pt/images/logo.png", "brand": "McDonald\u2019s", "brand:wikidata": "Q38076"}, "geometry": {"type": "Point", "coordinates": [-8.610931, 41.146658]}},
{"type": "Feature", "id": "3MnYAx-eiI1whighLeThz60rT5k=", "properties": {"ref": "/restaurantes/guimaraes-shopping/", "@spider": "mcdonalds_pt", "addr:street_address": "Alameda Dr&#186; Mariano Felgueiras, n&#186; 430", "addr:city": "Guimar&#227;es Shopping", "addr:state": "GUIMAR&#195;ES", "addr:postcode": "4835-075", "addr:country": "PT", "name": "McDonald&#39;s Guimar&#227;es Shopping", "website": "https://www.mcdonalds.pt/restaurantes/guimaraes-shopping", "opening_hours": "Mo 02:00-05:30; Tu 08:00-08:00", "image": "https://www.mcdonalds.pt/images/logo.png", "brand": "McDonald\u2019s", "brand:wikidata": "Q38076"}, "geometry": {"type": "Point", "coordinates": [-8.30385, 41.440575]}},
{"type": "Feature", "id": "1XXwYbZ6p612sIetvKH_uAE3ZNI=", "properties": {"ref": "/restaurantes/guimaraes-drive/", "@spider": "mcdonalds_pt", "addr:street_address": "Lugar da Rodovia de Covas", "addr:city": "Guimar&#227;es Drive", "addr:state": "GUIMAR&#195;ES", "addr:postcode": "4810-482", "addr:country": "PT", "name": "McDonald&#39;s Guimar&#227;es Drive", "website": "https://www.mcdonalds.pt/restaurantes/guimaraes-drive", "opening_hours": "Mo 02:00-05:30; Tu 08:00-08:00", "image": "https://www.mcdonalds.pt/images/logo.png", "brand": "McDonald\u2019s", "brand:wikidata": "Q38076"}, "geometry": {"type": "Point", "coordinates": [-8.301697, 41.431208]}},
{"type": "Feature", "id": "RBKVpvwtLR2obbXlMTEyqoQcnSk=", "properties": {"ref": "/restaurantes/guarda/", "@spider": "mcdonalds_pt", "addr:street_address": "Quinta do Pinheiro, Rotunda VICEG, S/N", "addr:city": "Guarda", "addr:postcode": "6300-501", "addr:country": "PT", "name": "McDonald&#39;s Guarda", "website": "https://www.mcdonalds.pt/restaurantes/guarda", "opening_hours": "Mo 02:00-05:30; Tu 08:00-08:00", "image": "https://www.mcdonalds.pt/images/logo.png", "brand": "McDonald\u2019s", "brand:wikidata": "Q38076"}, "geometry": {"type": "Point", "coordinates": [-7.239719, 40.542625]}},
{"type": "Feature", "id": "qu9WFol-I6Ivih26Ui50KxqWD-M=", "properties": {"ref": "/restaurantes/gondomar-parque-nascente/", "@spider": "mcdonalds_pt", "addr:street_address": "Galeria Comercial Parque Nascente,Lj.5.21,Estrada Ext.Circunvala&#231;&#227;o", "addr:city": "Gondomar (Parque Nascente)", "addr:state": "GONDOMAR", "addr:postcode": "4435", "addr:country": "PT", "name": "McDonald&#39;s Gondomar (Parque Nascente)", "website": "https://www.mcdonalds.pt/restaurantes/gondomar-parque-nascente", "opening_hours": "Mo 02:00-05:30; Tu 08:00-08:00", "image": "https://www.mcdonalds.pt/images/logo.png", "brand": "McDonald\u2019s", "brand:wikidata": "Q38076"}, "geometry": {"type": "Point", "coordinates": [-8.565569, 41.175225]}},
{"type": "Feature", "id": "_4Nx4276MKTIT4x8ykg74ZuEBIQ=", "properties": {"ref": "/restaurantes/gaiashopping/", "@spider": "mcdonalds_pt", "addr:street_address": "Gaia Shopping, Lojas 213-215, Av. Das Descobertas, n&#186;549", "addr:city": "Gaiashopping", "addr:state": "VILA NOVA DE GAIA", "addr:postcode": "4404-503", "addr:country": "PT", "name": "McDonald&#39;s Gaiashopping", "website": "https://www.mcdonalds.pt/restaurantes/gaiashopping", "opening_hours": "Mo 02:00-05:30; Tu 08:00-08:00", "image": "https://www.mcdonalds.pt/images/logo.png", "brand": "McDonald\u2019s", "brand:wikidata": "Q38076"}, "geometry": {"type": "Point", "coordinates": [-8.622314, 41.118611]}},
{"type": "Feature", "id": "6hwjoISnR6CMo1C321aetY5h7h4=", "properties": {"ref": "/restaurantes/gaia-fojo/", "@spider": "mcdonalds_pt", "addr:street_address": "Rua Nova do Fojo, 305", "addr:city": "Gaia", "addr:state": "VILA NOVA DE GAIA", "addr:postcode": "4400-232", "addr:country": "PT", "name": "McDonald&#39;s Gaia Fojo", "website": "https://www.mcdonalds.pt/restaurantes/gaia-fojo", "opening_hours": "Mo 02:00-05:30; Tu 08:00-08:00", "image": "https://www.mcdonalds.pt/images/logo.png", "brand": "McDonald\u2019s", "brand:wikidata": "Q38076"}, "geometry": {"type": "Point", "coordinates": [-8.634764, 41.125047]}},
{"type": "Feature", "id": "loCVP7-1L03DZehwnlsDyrVYECo=", "properties": {"ref": "/restaurantes/gaia-drive/", "@spider": "mcdonalds_pt", "addr:street_address": "Av. D. Jo&#227;o II, 1701, Mafamude", "addr:city": "Gaia Drive", "addr:state": "VILA NOVA DE GAIA", "addr:postcode": "4430-415", "addr:country": "PT", "name": "McDonald&#39;s Gaia Drive", "website": "https://www.mcdonalds.pt/restaurantes/gaia-drive", "opening_hours": "Mo 02:00-05:30; Tu 08:00-08:00", "image": "https://www.mcdonalds.pt/images/logo.png", "brand": "McDonald\u2019s", "brand:wikidata": "Q38076"}, "geometry": {"type": "Point", "coordinates": [-8.596892, 41.130114]}},
{"type": "Feature", "id": "ksl8QzGMzvaQXHKRdLhdEuNS1YM=", "properties": {"ref": "/restaurantes/alegro-sintra/", "@spider": "mcdonalds_pt", "addr:street_address": "Centro Comercial Alegro Sintra, Loja 2.10, Alto do Forte", "addr:city": "Alegro Sintra", "addr:state": "RIO DE MOURO", "addr:postcode": "2635-098", "addr:country": "PT", "name": "McDonald&#39;s Alegro Sintra", "website": "https://www.mcdonalds.pt/restaurantes/alegro-sintra", "opening_hours": "Mo 02:00-05:30; Tu 08:00-08:00", "image": "https://www.mcdonalds.pt/images/logo.png", "brand": "McDonald\u2019s", "brand:wikidata": "Q38076"}, "geometry": {"type": "Point", "coordinates": [-9.338696, 38.775042]}},
{"type": "Feature", "id": "y5iwNAOELha1GQmJwG2FlrOscpQ=", "properties": {"ref": "/restaurantes/forum-castelo-branco/", "@spider": "mcdonalds_pt", "addr:street_address": "Av. Professor Doutor Egas Moniz", "addr:city": "Castelo Branco", "addr:state": "CASTELO BRANCO", "addr:postcode": "6000-901", "addr:country": "PT", "name": "McDonald&#39;s F&#243;rum Castelo Branco", "website": "https://www.mcdonalds.pt/restaurantes/forum-castelo-branco", "opening_hours": "Mo 02:00-05:30; Tu 08:00-08:00", "image": "https://www.mcdonalds.pt/images/logo.png", "brand": "McDonald\u2019s", "brand:wikidata": "Q38076"}, "geometry": {"type": "Point", "coordinates": [-7.515618, 39.807994]}},
{"type": "Feature", "id": "T_2jBbht6Q3u0pk1CpUe--rh4GE=", "properties": {"ref": "/restaurantes/fatima/", "@spider": "mcdonalds_pt", "addr:street_address": "Av. Beato Nuno, 479", "addr:city": "F&#225;tima", "addr:state": "F&#193;TIMA", "addr:postcode": "2495-651", "addr:country": "PT", "name": "McDonald&#39;s F&#225;tima", "website": "https://www.mcdonalds.pt/restaurantes/fatima", "opening_hours": "Mo 02:00-05:30; Tu 08:00-08:00", "image": "https://www.mcdonalds.pt/images/logo.png", "brand": "McDonald\u2019s", "brand:wikidata": "Q38076"}, "geometry": {"type": "Point", "coordinates": [-8.683015, 39.635364]}},
{"type": "Feature", "id": "YNNWhKdvvC4wm6hcqh8FfOn423U=", "properties": {"ref": "/restaurantes/funchal-avdo-mar/", "@spider": "mcdonalds_pt", "addr:street_address": "Av. Do Mar, n&#186;2", "addr:city": "Funchal - Av.do Mar", "addr:state": "FUNCHAL", "addr:postcode": "9000-054", "addr:country": "PT", "name": "McDonald&#39;s Funchal Av. do Mar", "website": "https://www.mcdonalds.pt/restaurantes/funchal-avdo-mar", "opening_hours": "Mo 02:00-05:30; Tu 08:00-08:00", "image": "https://www.mcdonalds.pt/images/logo.png", "brand": "McDonald\u2019s", "brand:wikidata": "Q38076"}, "geometry": {"type": "Point", "coordinates": [-16.909175, 32.647094]}},
{"type": "Feature", "id": "AIyxj9J4It5yFGiZF7pIuRchEJI=", "properties": {"ref": "/restaurantes/forum-madeira/", "@spider": "mcdonalds_pt", "addr:street_address": "Centro Comercial Forum Madeira,Lj.2.29,Bairro da Ajuda,Estrada Monumental,n&#186;390", "addr:city": "Forum Madeira", "addr:state": "FUNCHAL", "addr:postcode": "9004", "addr:country": "PT", "name": "McDonald&#39;s Forum Madeira", "website": "https://www.mcdonalds.pt/restaurantes/forum-madeira", "opening_hours": "Mo 02:00-05:30; Tu 08:00-08:00", "image": "https://www.mcdonalds.pt/images/logo.png", "brand": "McDonald\u2019s", "brand:wikidata": "Q38076"}, "geometry": {"type": "Point", "coordinates": [-16.943217, 32.635736]}},
{"type": "Feature", "id": "lvXyhKqKnVhJoXDbb61oSzTbD-g=", "properties": {"ref": "/restaurantes/forum-de-aveiro/", "@spider": "mcdonalds_pt", "addr:street_address": "Forum Aveiro, Loja 2.17, Piso n&#186;1", "addr:city": "Forum Aveiro", "addr:state": "AVEIRO", "addr:postcode": "3810-120", "addr:country": "PT", "name": "McDonald&#39;s Forum de Aveiro", "website": "https://www.mcdonalds.pt/restaurantes/forum-de-aveiro", "opening_hours": "Mo 02:00-05:30; Tu 08:00-08:00", "image": "https://www.mcdonalds.pt/images/logo.png", "brand": "McDonald\u2019s", "brand:wikidata": "Q38076"}, "geometry": {"type": "Point", "coordinates": [-8.652614, 40.640867]}},
{"type": "Feature", "id": "208WbKFHjvGhtfp8VaM5psKQBMI=", "properties": {"ref": "/restaurantes/forum-barreiro/", "@spider": "mcdonalds_pt", "addr:street_address": "Forum Barreiro,Lj.1.30,Rua Miguel Bombarda,71A,Campo das Cordoarias", "addr:city": "Forum Barreiro", "addr:state": "BARREIRO", "addr:postcode": "2830", "addr:country": "PT", "name": "McDonald&#39;s Forum Barreiro", "website": "https://www.mcdonalds.pt/restaurantes/forum-barreiro", "opening_hours": "Mo 02:00-05:30; Tu 08:00-08:00", "image": "https://www.mcdonalds.pt/images/logo.png", "brand": "McDonald\u2019s", "brand:wikidata": "Q38076"}, "geometry": {"type": "Point", "coordinates": [-9.074514, 38.662347]}},
{"type": "Feature", "id": "iMVfJSlYGdEbSYDetfkwYGUoq_s=", "properties": {"ref": "/restaurantes/figueira-da-foz/", "@spider": "mcdonalds_pt", "addr:street_address": "Avenida Dr. M&#225;rio Soares, Lugar dos 4 Caminhos, Tavarede", "addr:city": "Figueira da Foz", "addr:state": "FIGUEIRA DA FOZ", "addr:postcode": "3080-854", "addr:country": "PT", "name": "McDonald&#39;s Figueira da Foz", "website": "https://www.mcdonalds.pt/restaurantes/figueira-da-foz", "opening_hours": "Mo 02:00-05:30; Tu 08:00-08:00", "image": "https://www.mcdonalds.pt/images/logo.png", "brand": "McDonald\u2019s", "brand:wikidata": "Q38076"}, "geometry": {"type": "Point", "coordinates": [-8.8525, 40.164967]}},
{"type": "Feature", "id": "lsGDoqmuXXCAxWJfYcLEGiLznWM=", "properties": {"ref": "/restaurantes/felgueiras/", "@spider": "mcdonalds_pt", "addr:street_address": "Rua Tenente Coronel Ant&#243;nio Em&#237;dio Moreira Peixoto, n&#186;1422", "addr:city": "Felgueiras", "addr:state": "FELGUEIRAS", "addr:postcode": "4610-213", "addr:country": "PT", "name": "McDonald&#39;s Felgueiras", "website": "https://www.mcdonalds.pt/restaurantes/felgueiras", "opening_hours": "Mo 02:00-05:30; Tu 08:00-08:00", "image": "https://www.mcdonalds.pt/images/logo.png", "brand": "McDonald\u2019s", "brand:wikidata": "Q38076"}, "geometry": {"type": "Point", "coordinates": [-8.204372, 41.359261]}},
{"type": "Feature", "id": "oGzGO3jzqvWdODa5PKKOO-mBMnk=", "properties": {"ref": "/restaurantes/feira-drive/", "@spider": "mcdonalds_pt", "addr:street_address": "Hipermercado Feira Nova, Lugar da Cruz", "addr:city": "St. Maria da Feira", "addr:state": "SANTA MARIA DA FEIRA", "addr:postcode": "4520-195", "addr:country": "PT", "name": "McDonald&#39;s Feira Drive", "website": "https://www.mcdonalds.pt/restaurantes/feira-drive", "opening_hours": "Mo 02:00-05:30; Tu 08:00-08:00", "image": "https://www.mcdonalds.pt/images/logo.png", "brand": "McDonald\u2019s", "brand:wikidata": "Q38076"}, "geometry": {"type": "Point", "coordinates": [-8.564873, 40.922682]}},
{"type": "Feature", "id": "FJnC1GQK1oC0yddd4h50rYgUMoY=", "properties": {"ref": "/restaurantes/faro-forum-algarve/", "@spider": "mcdonalds_pt", "addr:street_address": "Forum Algarve,Lj.1.04,Pontes de Marchil", "addr:city": "Faro - Forum Algarve", "addr:state": "FARO", "addr:postcode": "8009-020", "addr:country": "PT", "name": "McDonald&#39;s Faro Forum Algarve", "website": "https://www.mcdonalds.pt/restaurantes/faro-forum-algarve", "opening_hours": "Mo 02:00-05:30; Tu 08:00-08:00", "image": "https://www.mcdonalds.pt/images/logo.png", "brand": "McDonald\u2019s", "brand:wikidata": "Q38076"}, "geometry": {"type": "Point", "coordinates": [-7.945439, 37.028956]}},
{"type": "Feature", "id": "6HJ_lqdksSCr-f-ZZ_a_FlUcDsw=", "properties": {"ref": "/restaurantes/faro/", "@spider": "mcdonalds_pt", "addr:street_address": "Rua Conselheiro Bivar n&#186;23 a n&#186;27", "addr:city": "Faro", "addr:state": "FARO", "addr:postcode": "8000-255", "addr:country": "PT", "name": "McDonald&#39;s Faro", "website": "https://www.mcdonalds.pt/restaurantes/faro", "opening_hours": "Mo 02:00-05:30; Tu 08:00-08:00", "image": "https://www.mcdonalds.pt/images/logo.png", "brand": "McDonald\u2019s", "brand:wikidata": "Q38076"}, "geometry": {"type": "Point", "coordinates": [-7.935567, 37.016839]}},
{"type": "Feature", "id": "srphuLlrvSUr58SsTCtkgB_w-HY=", "properties": {"ref": "/restaurantes/famalicao/", "@spider": "mcdonalds_pt", "addr:street_address": "Av. Eng&#186; Pinheiro Braga,n&#186;41", "addr:city": "Famalic&#227;o", "addr:state": "VILA NOVA DE FAMALIC&#195;O", "addr:postcode": "4760-089", "addr:country": "PT", "name": "McDonald&#39;s Famalic&#227;o", "website": "https://www.mcdonalds.pt/restaurantes/famalicao", "opening_hours": "Mo 02:00-05:30; Tu 08:00-08:00", "image": "https://www.mcdonalds.pt/images/logo.png", "brand": "McDonald\u2019s", "brand:wikidata": "Q38076"}, "geometry": {"type": "Point", "coordinates": [-8.520056, 41.414889]}},
{"type": "Feature", "id": "Si-a-fL2m-12mK1gDrcC_hdWVQM=", "properties": {"ref": "/restaurantes/espinho/", "@spider": "mcdonalds_pt", "addr:street_address": "Rua 20, n&#186; 1", "addr:city": "Espinho", "addr:state": "ESPINHO", "addr:postcode": "4500-182", "addr:country": "PT", "name": "McDonald&#39;s Espinho", "website": "https://www.mcdonalds.pt/restaurantes/espinho", "opening_hours": "Mo 02:00-05:30; Tu 08:00-08:00", "image": "https://www.mcdonalds.pt/images/logo.png", "brand": "McDonald\u2019s", "brand:wikidata": "Q38076"}, "geometry": {"type": "Point", "coordinates": [-8.639445, 41.015774]}},
{"type": "Feature", "id": "S_wfOcfxJByEpQTd8woE6HwHERM=", "properties": {"ref": "/restaurantes/espaco-guimaraes/", "@spider": "mcdonalds_pt", "addr:street_address": "Espa&#231;o Guimar&#227;es, Centro Comercial, Rua 25 de Abril, 210 Loja 1.97", "addr:city": "Espa&#231;o Guimar&#227;es", "addr:state": "GUIMAR&#195;ES", "addr:postcode": "4835-400", "addr:country": "PT", "name": "McDonald&#39;s Espa&#231;o Guimar&#227;es", "website": "https://www.mcdonalds.pt/restaurantes/espaco-guimaraes", "opening_hours": "Mo 02:00-05:30; Tu 08:00-08:00", "image": "https://www.mcdonalds.pt/images/logo.png", "brand": "McDonald\u2019s", "brand:wikidata": "Q38076"}, "geometry": {"type": "Point", "coordinates": [-8.344019, 41.448826]}},
{"type": "Feature", "id": "slQv3T7JgGAJU5EpJqIToDolP2Y=", "properties": {"ref": "/restaurantes/ermesinde/", "@spider": "mcdonalds_pt", "addr:street_address": "AV&#170;Duarte Pacheco,Rotunda da Formiga", "addr:city": "Ermesinde", "addr:state": "ERMESINDE", "addr:postcode": "4445-416", "addr:country": "PT", "name": "McDonald&#39;s Ermesinde", "website": "https://www.mcdonalds.pt/restaurantes/ermesinde", "opening_hours": "Mo 02:00-05:30; Tu 08:00-08:00", "image": "https://www.mcdonalds.pt/images/logo.png", "brand": "McDonald\u2019s", "brand:wikidata": "Q38076"}, "geometry": {"type": "Point", "coordinates": [-8.548136, 41.205633]}},
{"type": "Feature", "id": "QLAahgW-7YK-oZ4js53bb9wflg0=", "properties": {"ref": "/restaurantes/amadora-ubbo/", "@spider": "mcdonalds_pt", "addr:street_address": "Av. Cruzeiro Seixas, n&#186;s 5 e 7, Centro Comercial Ubbo, Piso 1, Lojas 1061 a 1062, 2650-504 Amadora", "addr:city": "Dolce Vita Tejo", "addr:state": "AMADORA", "addr:postcode": "2650-504", "addr:country": "PT", "name": "McDonald&#39;s Amadora UBBO", "website": "https://www.mcdonalds.pt/restaurantes/amadora-ubbo", "opening_hours": "Mo 02:00-05:30; Tu 08:00-08:00", "image": "https://www.mcdonalds.pt/images/logo.png", "brand": "McDonald\u2019s", "brand:wikidata": "Q38076"}, "geometry": {"type": "Point", "coordinates": [-9.2195, 38.7781]}},
{"type": "Feature", "id": "1-0l9sOyZqLw6z-BXbrBoYc42lo=", "properties": {"ref": "/restaurantes/d-carlos-i/", "@spider": "mcdonalds_pt", "addr:street_address": "Av. D. Carlos I, 17-25", "addr:city": "Av. D Carlos I", "addr:state": "LISBOA", "addr:postcode": "1200-676", "addr:country": "PT", "name": "McDonald&#39;s D Carlos I", "website": "https://www.mcdonalds.pt/restaurantes/d-carlos-i", "opening_hours": "Mo 02:00-05:30; Tu 08:00-08:00", "image": "https://www.mcdonalds.pt/images/logo.png", "brand": "McDonald\u2019s", "brand:wikidata": "Q38076"}, "geometry": {"type": "Point", "coordinates": [-9.152803, 38.707019]}},
{"type": "Feature", "id": "FMXxV779BNmdEix_ReqDXs3KEFM=", "properties": {"ref": "/restaurantes/covilha-serra-shopping/", "@spider": "mcdonalds_pt", "addr:street_address": "Centro Comercial Serra Shopping ALAMEDA DA EUROPA \u2013 LOTE 7 LOJA 1.62", "addr:city": "Covilh&#227; Serra Shopping", "addr:state": "COVILH&#195;", "addr:postcode": "6200-546", "addr:country": "PT", "name": "McDonald&#39;s Covilh&#227; Serra Shopping", "website": "https://www.mcdonalds.pt/restaurantes/covilha-serra-shopping", "opening_hours": "Mo 02:00-05:30; Tu 08:00-08:00", "image": "https://www.mcdonalds.pt/images/logo.png", "brand": "McDonald\u2019s", "brand:wikidata": "Q38076"}, "geometry": {"type": "Point", "coordinates": [-7.50171, 40.270893]}},
{"type": "Feature", "id": "3mVA8plsBg-o8OUzimR2xz0nDhw=", "properties": {"ref": "/restaurantes/covilha-drive/", "@spider": "mcdonalds_pt", "addr:street_address": "Covilh&#227; Shopping, Quinta do Alvito", "addr:city": "Covilh&#227;", "addr:state": "COVILH&#195;", "addr:postcode": "6200-000", "addr:country": "PT", "name": "McDonald&#39;s Covilh&#227; Drive", "website": "https://www.mcdonalds.pt/restaurantes/covilha-drive", "opening_hours": "Mo 02:00-05:30; Tu 08:00-08:00", "image": "https://www.mcdonalds.pt/images/logo.png", "brand": "McDonald\u2019s", "brand:wikidata": "Q38076"}, "geometry": {"type": "Point", "coordinates": [-7.490778, 40.263786]}},
{"type": "Feature", "id": "nW_SllZU_i3yWcmnvsndC3yIuSo=", "properties": {"ref": "/restaurantes/corroios/", "@spider": "mcdonalds_pt", "addr:street_address": "Estrada Nacional 10,km5.9", "addr:city": "Corroios - BP Estrada Nacional", "addr:state": "CORROIOS", "addr:postcode": "2855-000", "addr:country": "PT", "name": "McDonald&#39;s Corroios", "website": "https://www.mcdonalds.pt/restaurantes/corroios", "opening_hours": "Mo 02:00-05:30; Tu 08:00-08:00", "image": "https://www.mcdonalds.pt/images/logo.png", "brand": "McDonald\u2019s", "brand:wikidata": "Q38076"}, "geometry": {"type": "Point", "coordinates": [-9.151011, 38.639214]}},
{"type": "Feature", "id": "IByFPpHRm49fi5pGro4JnwIV14A=", "properties": {"ref": "/restaurantes/colombo/", "@spider": "mcdonalds_pt", "addr:street_address": "C. C. Colombo, Av.dos Lusiadas, Lj.2112", "addr:city": "C.C. Colombo", "addr:state": "LISBOA", "addr:postcode": "1500-392 Lisboa", "addr:country": "PT", "name": "McDonald&#39;s Colombo", "website": "https://www.mcdonalds.pt/restaurantes/colombo", "opening_hours": "Mo 02:00-05:30; Tu 08:00-08:00", "image": "https://www.mcdonalds.pt/images/logo.png", "brand": "McDonald\u2019s", "brand:wikidata": "Q38076"}, "geometry": {"type": "Point", "coordinates": [-9.189786, 38.753997]}},
{"type": "Feature", "id": "XKJnF6EyzwVnWwM0b6lF3qX5sLc=", "properties": {"ref": "/restaurantes/coimbrashopping/", "@spider": "mcdonalds_pt", "addr:street_address": "Coimbra Shopping, Lj.213/214, Av. Dr. Mendes Silva", "addr:city": "CoimbraShopping", "addr:state": "COIMBRA", "addr:postcode": "3030-193", "addr:country": "PT", "name": "McDonald&#39;s CoimbraShopping", "website": "https://www.mcdonalds.pt/restaurantes/coimbrashopping", "opening_hours": "Mo 02:00-05:30; Tu 08:00-08:00", "image": "https://www.mcdonalds.pt/images/logo.png", "brand": "McDonald\u2019s", "brand:wikidata": "Q38076"}, "geometry": {"type": "Point", "coordinates": [-8.409372, 40.194383]}},
{"type": "Feature", "id": "5vcSMIQotcbhEFjCG-Xs1BeMKXo=", "properties": {"ref": "/restaurantes/coimbra-solum/", "@spider": "mcdonalds_pt", "addr:street_address": "Gaveto da Rua Jo&#227;o de Deus com a Rua Feliciano Castilho", "addr:city": "Coimbra 2", "addr:state": "COIMBRA", "addr:postcode": "3030-327", "addr:country": "PT", "name": "McDonald&#39;s Coimbra Solum", "website": "https://www.mcdonalds.pt/restaurantes/coimbra-solum", "opening_hours": "Mo 02:00-05:30; Tu 08:00-08:00", "image": "https://www.mcdonalds.pt/images/logo.png", "brand": "McDonald\u2019s", "brand:wikidata": "Q38076"}, "geometry": {"type": "Point", "coordinates": [-8.403936, 40.204108]}},
{"type": "Feature", "id": "yx0QsYtyo6xrWB2joudXBMTVTI8=", "properties": {"ref": "/restaurantes/coimbra-forum/", "@spider": "mcdonalds_pt", "addr:street_address": "Centro Comercial F&#243;rum Coimbra, Lj.207, Planalto de St&#170; Clara", "addr:city": "Coimbra Forum", "addr:state": "COIMBRA", "addr:postcode": "3044-520", "addr:country": "PT", "name": "McDonald&#39;s Coimbra Forum", "website": "https://www.mcdonalds.pt/restaurantes/coimbra-forum", "opening_hours": "Mo 02:00-05:30; Tu 08:00-08:00", "image": "https://www.mcdonalds.pt/images/logo.png", "brand": "McDonald\u2019s", "brand:wikidata": "Q38076"}, "geometry": {"type": "Point", "coordinates": [-8.444053, 40.211236]}},
{"type": "Feature", "id": "wEdVdAgk_a6Fgj5HLqyLOge6StI=", "properties": {"ref": "/restaurantes/coimbra-fernao-magalhaes/", "@spider": "mcdonalds_pt", "addr:street_address": "Av. Fern&#227;o Magalh&#227;es, 701", "addr:city": "Av. Fern&#227;o Magalh&#227;es, 701", "addr:state": "COIMBRA", "addr:postcode": "3000-178", "addr:country": "PT", "name": "McDonald&#39;s Coimbra Fern&#227;o Magalh&#227;es", "website": "https://www.mcdonalds.pt/restaurantes/coimbra-fernao-magalhaes", "opening_hours": "Mo 02:00-05:30; Tu 08:00-08:00", "image": "https://www.mcdonalds.pt/images/logo.png", "brand": "McDonald\u2019s", "brand:wikidata": "Q38076"}, "geometry": {"type": "Point", "coordinates": [-8.437661, 40.217006]}},
{"type": "Feature", "id": "vMbl-L6uL0I5A-4ldQgKuGAZj60=", "properties": {"ref": "/restaurantes/circunvalacao/", "@spider": "mcdonalds_pt", "addr:street_address": "Estrada Exterior da Circunvala&#231;&#227;o, 8114 - 8116, Paranhos", "addr:city": "Circunvala&#231;&#227;o", "addr:state": "PORTO", "addr:postcode": "4200-163", "addr:country": "PT", "name": "McDonald&#39;s Circunvala&#231;&#227;o", "website": "https://www.mcdonalds.pt/restaurantes/circunvalacao", "opening_hours": "Mo 02:00-05:30; Tu 08:00-08:00", "image": "https://www.mcdonalds.pt/images/logo.png", "brand": "McDonald\u2019s", "brand:wikidata": "Q38076"}, "geometry": {"type": "Point", "coordinates": [-8.605235, 41.18466]}},
{"type": "Feature", "id": "Tq-5NNb__HwdnmzdjNH-juWcngc=", "properties": {"ref": "/restaurantes/chiado/", "@spider": "mcdonalds_pt", "addr:street_address": "Rua do Carmo, n&#186;2, Armaz&#233;ns do Chiado, Lj.6, 10A", "addr:city": "Chiado - Armanz&#233;ns do Chiado", "addr:state": "LISBOA", "addr:postcode": "1200-049", "addr:country": "PT", "name": "McDonald&#39;s Chiado", "website": "https://www.mcdonalds.pt/restaurantes/chiado", "opening_hours": "Mo 02:00-05:30; Tu 08:00-08:00", "image": "https://www.mcdonalds.pt/images/logo.png", "brand": "McDonald\u2019s", "brand:wikidata": "Q38076"}, "geometry": {"type": "Point", "coordinates": [-9.139586, 38.710956]}},
{"type": "Feature", "id": "PBb3e6TjVL_AmggaIRQtKqDFKYI=", "properties": {"ref": "/restaurantes/chaves/", "@spider": "mcdonalds_pt", "addr:street_address": "Rotunda do Raio X, Av. D. Jo&#227;o I", "addr:city": "Chaves", "addr:state": "CHAVES", "addr:postcode": "5400-323", "addr:country": "PT", "name": "McDonald&#39;s Chaves", "website": "https://www.mcdonalds.pt/restaurantes/chaves", "opening_hours": "Mo 02:00-05:30; Tu 08:00-08:00", "image": "https://www.mcdonalds.pt/images/logo.png", "brand": "McDonald\u2019s", "brand:wikidata": "Q38076"}, "geometry": {"type": "Point", "coordinates": [-7.469325, 41.732125]}},
{"type": "Feature", "id": "XkBbFTIHmKw0kiWAUA7vMtD6P1M=", "properties": {"ref": "/restaurantes/charneca-da-caparica/", "@spider": "mcdonalds_pt", "addr:street_address": "Rua Ant&#243;nio Andrade, antiga EN377, Km10", "addr:city": "Charneca da Caparica/Almada", "addr:state": "CHARNECA DA CAPARICA", "addr:postcode": "2820-287", "addr:country": "PT", "name": "McDonald&#39;s Charneca da Caparica - Temporariamente fechado", "website": "https://www.mcdonalds.pt/restaurantes/charneca-da-caparica", "opening_hours": "Mo 02:00-05:30; Tu 08:00-08:00", "image": "https://www.mcdonalds.pt/images/logo.png", "brand": "McDonald\u2019s", "brand:wikidata": "Q38076"}, "geometry": {"type": "Point", "coordinates": [-9.189383, 38.612997]}},
{"type": "Feature", "id": "W2zoCTWoakjz1l24NrJDG84Y84Q=", "properties": {"ref": "/restaurantes/centro-comercial-8a-avenida/", "@spider": "mcdonalds_pt", "addr:street_address": "Av. Dr. Renato Ara&#250;jo, n&#186; 1625", "addr:city": "Centro Comercial 8&#170; Avenida", "addr:state": "S&#195;O JO&#195;O DA MADEIRA", "addr:postcode": "3700-346", "addr:country": "PT", "name": "McDonald&#39;s Centro Comercial 8&#170; Avenida", "website": "https://www.mcdonalds.pt/restaurantes/centro-comercial-8a-avenida", "opening_hours": "Mo 02:00-05:30; Tu 08:00-08:00", "image": "https://www.mcdonalds.pt/images/logo.png", "brand": "McDonald\u2019s", "brand:wikidata": "Q38076"}, "geometry": {"type": "Point", "coordinates": [-8.491468, 40.887772]}},
{"type": "Feature", "id": "MFyhAzH1PQs1lhAbtz7psb9PCc0=", "properties": {"ref": "/restaurantes/castelo-branco-drive/", "@spider": "mcdonalds_pt", "addr:street_address": "Estrada Nacional 18, R. Amilcar Crespo, 6000-000 Castelo Branco", "addr:city": "Castelo Branco", "addr:postcode": "6000-000", "addr:country": "PT", "name": "McDonald&#39;s Castelo Branco Drive", "website": "https://www.mcdonalds.pt/restaurantes/castelo-branco-drive", "opening_hours": "Mo 02:00-05:30; Tu 08:00-08:00", "image": "https://www.mcdonalds.pt/images/logo.png", "brand": "McDonald\u2019s", "brand:wikidata": "Q38076"}, "geometry": {"type": "Point", "coordinates": [-7.512406, 39.806319]}},
{"type": "Feature", "id": "QUJ7O3bHLWt_MpzwpAdP8rNdX88=", "properties": {"ref": "/restaurantes/cascaishopping/", "@spider": "mcdonalds_pt", "addr:street_address": "Cascaishopping, Loja 1B, E.N.9 Alcabideche", "addr:city": "CascaiShopping", "addr:state": "ALCABIDECHE", "addr:postcode": "2645-543", "addr:country": "PT", "name": "McDonald&#39;s CascaiShopping", "website": "https://www.mcdonalds.pt/restaurantes/cascaishopping", "opening_hours": "Mo 02:00-05:30; Tu 08:00-08:00", "image": "https://www.mcdonalds.pt/images/logo.png", "brand": "McDonald\u2019s", "brand:wikidata": "Q38076"}, "geometry": {"type": "Point", "coordinates": [-9.398936, 38.738225]}},
{"type": "Feature", "id": "nw2rKlO8pxzVoQUwV9QN1eJVyAY=", "properties": {"ref": "/restaurantes/cascais-largo-da-estacao/", "@spider": "mcdonalds_pt", "addr:street_address": "Rua Sebasti&#227;o Jos&#233; de Carvalho e Mello, 15-17", "addr:city": "Cascais", "addr:state": "CASCAIS", "addr:postcode": "2750-483", "addr:country": "PT", "name": "McDonald&#39;s Cascais - Largo da Esta&#231;&#227;o", "website": "https://www.mcdonalds.pt/restaurantes/cascais-largo-da-estacao", "opening_hours": "Mo 02:00-05:30; Tu 08:00-08:00", "image": "https://www.mcdonalds.pt/images/logo.png", "brand": "McDonald\u2019s", "brand:wikidata": "Q38076"}, "geometry": {"type": "Point", "coordinates": [-9.418672, 38.700033]}},
{"type": "Feature", "id": "VcQzIWznq628bPtMxq-eDuAxSrM=", "properties": {"ref": "/restaurantes/carregado/", "@spider": "mcdonalds_pt", "addr:street_address": "Campera Outlet Shopping, Estrada Nacional, n&#186;3, Km 149", "addr:city": "Carregado - Campera", "addr:state": "ALENQUER", "addr:postcode": "2580\u2013491 Carregado", "addr:country": "PT", "name": "McDonald&#39;s Carregado", "website": "https://www.mcdonalds.pt/restaurantes/carregado", "opening_hours": "Mo 02:00-05:30; Tu 08:00-08:00", "image": "https://www.mcdonalds.pt/images/logo.png", "brand": "McDonald\u2019s", "brand:wikidata": "Q38076"}, "geometry": {"type": "Point", "coordinates": [-8.965694, 39.028886]}},
{"type": "Feature", "id": "RaSt0jJhxZOzy_aUlpcZ3gQlkCY=", "properties": {"ref": "/restaurantes/carnaxide/", "@spider": "mcdonalds_pt", "addr:street_address": "Av. do Forte n&#186;7 - 7A, Posto de Abastecimento B.P.", "addr:city": "Carnaxide", "addr:state": "CARNAXIDE", "addr:postcode": "2790-074", "addr:country": "PT", "name": "McDonald&#39;s Carnaxide", "website": "https://www.mcdonalds.pt/restaurantes/carnaxide", "opening_hours": "Mo 02:00-05:30; Tu 08:00-08:00", "image": "https://www.mcdonalds.pt/images/logo.png", "brand": "McDonald\u2019s", "brand:wikidata": "Q38076"}, "geometry": {"type": "Point", "coordinates": [-9.235108, 38.723397]}},
{"type": "Feature", "id": "bW7KUiZZ58il2_bh6N85plaPG-g=", "properties": {"ref": "/restaurantes/campus-s-joao/", "@spider": "mcdonalds_pt", "addr:street_address": "Galerias Campus S.Jo&#227;o,Lj.207/208,Rua Dr.Pl&#225;cido da Costa", "addr:city": "Galerias Campus S. Jo&#227;o", "addr:state": "PORTO", "addr:postcode": "4200-450", "addr:country": "PT", "name": "McDonald&#39;s Campus S. Jo&#227;o", "website": "https://www.mcdonalds.pt/restaurantes/campus-s-joao", "opening_hours": "Mo 02:00-05:30; Tu 08:00-08:00", "image": "https://www.mcdonalds.pt/images/logo.png", "brand": "McDonald\u2019s", "brand:wikidata": "Q38076"}, "geometry": {"type": "Point", "coordinates": [-8.604247, 41.180133]}},
{"type": "Feature", "id": "3dGcVu6FNnhLhnliU3xeqYt0eLM=", "properties": {"ref": "/restaurantes/campo-grande/", "@spider": "mcdonalds_pt", "addr:street_address": "Jardim do Campo Grande, Edif&#237;cio Caleidosc&#243;pio", "addr:city": "Campo Grande", "addr:state": "LISBOA", "addr:postcode": "1700-090", "addr:country": "PT", "name": "McDonald&#39;s Campo Grande", "website": "https://www.mcdonalds.pt/restaurantes/campo-grande", "opening_hours": "Mo 02:00-05:30; Tu 08:00-08:00", "image": "https://www.mcdonalds.pt/images/logo.png", "brand": "McDonald\u2019s", "brand:wikidata": "Q38076"}, "geometry": {"type": "Point", "coordinates": [-9.1527, 38.754]}},
{"type": "Feature", "id": "4JRiJhOaRvh7KUn6keR7YoF16ZE=", "properties": {"ref": "/restaurantes/caldas-da-rainha/", "@spider": "mcdonalds_pt", "addr:street_address": "Rua Prof. Ab&#237;lio Moniz Barreto, Lt.8", "addr:city": "Caldas da Rainha", "addr:state": "CALDAS DA RAINHA", "addr:postcode": "2500-241", "addr:country": "PT", "name": "McDonald&#39;s Caldas da Rainha", "website": "https://www.mcdonalds.pt/restaurantes/caldas-da-rainha", "opening_hours": "Mo 02:00-05:30; Tu 08:00-08:00", "image": "https://www.mcdonalds.pt/images/logo.png", "brand": "McDonald\u2019s", "brand:wikidata": "Q38076"}, "geometry": {"type": "Point", "coordinates": [-9.134472, 39.412536]}},
{"type": "Feature", "id": "oZ-GYN_6jFtHrJZ-89gzoN3MjEE=", "properties": {"ref": "/restaurantes/braganca/", "@spider": "mcdonalds_pt", "addr:street_address": "Bairro dos Formarigos, Av. C&#243;nego Lu&#237;s Ruivo, n&#186;2", "addr:city": "Bragan&#231;a", "addr:state": "BRAGAN&#199;A", "addr:postcode": "5300-007", "addr:country": "PT", "name": "McDonald&#39;s Bragan&#231;a", "website": "https://www.mcdonalds.pt/restaurantes/braganca", "opening_hours": "Mo 02:00-05:30; Tu 08:00-08:00", "image": "https://www.mcdonalds.pt/images/logo.png", "brand": "McDonald\u2019s", "brand:wikidata": "Q38076"}, "geometry": {"type": "Point", "coordinates": [-6.771741, 41.797264]}},
{"type": "Feature", "id": "4BDn_lRvO5Naw12MPRX2Ql7cHGo=", "properties": {"ref": "/restaurantes/braga-parque/", "@spider": "mcdonalds_pt", "addr:street_address": "C.C Comercial Braga Parque, Loja 300, Quinta dos Congregados", "addr:city": "Braga Parque", "addr:state": "BRAGA", "addr:postcode": "4710-427 Braga", "addr:country": "PT", "name": "McDonald&#39;s Braga Parque", "website": "https://www.mcdonalds.pt/restaurantes/braga-parque", "opening_hours": "Mo 02:00-05:30; Tu 08:00-08:00", "image": "https://www.mcdonalds.pt/images/logo.png", "brand": "McDonald\u2019s", "brand:wikidata": "Q38076"}, "geometry": {"type": "Point", "coordinates": [-8.406787, 41.558371]}},
{"type": "Feature", "id": "Q7WYXo4TwaOMLfF6thZ81pNYtE0=", "properties": {"ref": "/restaurantes/braga-minho-center/", "@spider": "mcdonalds_pt", "addr:street_address": "Minho Center,Lj.12,Av.Robert Smith, s/n,Frai&#227;o", "addr:city": "Braga - Minho Center", "addr:state": "BRAGA", "addr:postcode": "4715-249", "addr:country": "PT", "name": "McDonald&#39;s Braga Minho Center", "website": "https://www.mcdonalds.pt/restaurantes/braga-minho-center", "opening_hours": "Mo 02:00-05:30; Tu 08:00-08:00", "image": "https://www.mcdonalds.pt/images/logo.png", "brand": "McDonald\u2019s", "brand:wikidata": "Q38076"}, "geometry": {"type": "Point", "coordinates": [-8.401542, 41.541281]}},
{"type": "Feature", "id": "OoQpYk_3-T383MYED0Wt2BtTouw=", "properties": {"ref": "/restaurantes/braga-maximinos/", "@spider": "mcdonalds_pt", "addr:street_address": "Rua Abr&#227;o, Lote 1 Quinta das Portas", "addr:city": "Maximinos", "addr:state": "BRAGA", "addr:postcode": "4705-076", "addr:country": "PT", "name": "McDonald&#39;s Braga Maximinos", "website": "https://www.mcdonalds.pt/restaurantes/braga-maximinos", "opening_hours": "Mo 02:00-05:30; Tu 08:00-08:00", "image": "https://www.mcdonalds.pt/images/logo.png", "brand": "McDonald\u2019s", "brand:wikidata": "Q38076"}, "geometry": {"type": "Point", "coordinates": [-8.430826, 41.540941]}},
{"type": "Feature", "id": "jOoWy4VqcZ5RbCXt_Q7VZg4kF9E=", "properties": {"ref": "/restaurantes/braga-gualtar/", "@spider": "mcdonalds_pt", "addr:street_address": "Quinta dos Pe&#245;es, Variante do Fojo, Gualtar", "addr:city": "Braga - Gualtar", "addr:state": "BRAGA", "addr:postcode": "4710-416", "addr:country": "PT", "name": "McDonald&#39;s Braga Gualtar", "website": "https://www.mcdonalds.pt/restaurantes/braga-gualtar", "opening_hours": "Mo 02:00-05:30; Tu 08:00-08:00", "image": "https://www.mcdonalds.pt/images/logo.png", "brand": "McDonald\u2019s", "brand:wikidata": "Q38076"}, "geometry": {"type": "Point", "coordinates": [-8.396786, 41.557142]}},
{"type": "Feature", "id": "hDNeBVaMXkHUtPB3l6ruH0LJGRc=", "properties": {"ref": "/restaurantes/braga-av-central/", "@spider": "mcdonalds_pt", "addr:street_address": "Avenida Central, Apart. 534", "addr:city": "Braga  - Avenida Central", "addr:state": "BRAGA", "addr:postcode": "4710-229", "addr:country": "PT", "name": "McDonald&#39;s Braga Av. Central", "website": "https://www.mcdonalds.pt/restaurantes/braga-av-central", "opening_hours": "Mo 02:00-05:30; Tu 08:00-08:00", "image": "https://www.mcdonalds.pt/images/logo.png", "brand": "McDonald\u2019s", "brand:wikidata": "Q38076"}, "geometry": {"type": "Point", "coordinates": [-8.422042, 41.551219]}},
{"type": "Feature", "id": "AuBzII5U0wj1i9xvSoo_IFth8vY=", "properties": {"ref": "/restaurantes/bom-sucesso/", "@spider": "mcdonalds_pt", "addr:street_address": "Shopping Center Cidade do Porto, Piso &quot;Mouzinho de Albuquerque&quot;, Loja 321-3, Rua Gon&#231;alo Sampaio, 350", "addr:city": "Bom Sucesso", "addr:state": "PORTO", "addr:postcode": "4150-365", "addr:country": "PT", "name": "McDonald&#39;s Bom Sucesso", "website": "https://www.mcdonalds.pt/restaurantes/bom-sucesso", "opening_hours": "Mo 02:00-05:30; Tu 08:00-08:00", "image": "https://www.mcdonalds.pt/images/logo.png", "brand": "McDonald\u2019s", "brand:wikidata": "Q38076"}, "geometry": {"type": "Point", "coordinates": [-8.630197, 41.155125]}},
{"type": "Feature", "id": "pRJ37yJ4qvseYj1bQVHGmgppXXU=", "properties": {"ref": "/restaurantes/boavista/", "@spider": "mcdonalds_pt", "addr:street_address": "Av. Boavista, 1745", "addr:city": "Av. Boavista", "addr:state": "PORTO", "addr:postcode": "4100-133", "addr:country": "PT", "name": "McDonald&#39;s Boavista", "website": "https://www.mcdonalds.pt/restaurantes/boavista", "opening_hours": "Mo 02:00-05:30; Tu 08:00-08:00", "image": "https://www.mcdonalds.pt/images/logo.png", "brand": "McDonald\u2019s", "brand:wikidata": "Q38076"}, "geometry": {"type": "Point", "coordinates": [-8.644256, 41.160219]}},
{"type": "Feature", "id": "khbUhhg5GgFHb2-VW3kUjxltudE=", "properties": {"ref": "/restaurantes/alverca-jumbo/", "@spider": "mcdonalds_pt", "addr:street_address": "Galeria Comercial Jumbo, Lj.12, Estrada Nacional n&#186;10", "addr:city": "Alverca - Hipermercado Jumbo", "addr:state": "ALVERCA", "addr:postcode": "2615", "addr:country": "PT", "name": "McDonald&#39;s Alverca Auchan", "website": "https://www.mcdonalds.pt/restaurantes/alverca-jumbo", "opening_hours": "Mo 02:00-05:30; Tu 08:00-08:00", "image": "https://www.mcdonalds.pt/images/logo.png", "brand": "McDonald\u2019s", "brand:wikidata": "Q38076"}, "geometry": {"type": "Point", "coordinates": [-9.044264, 38.888383]}},
{"type": "Feature", "id": "ePhvG8iTTE-BgsB-GTYH-UH6IXY=", "properties": {"ref": "/restaurantes/alverca-drive/", "@spider": "mcdonalds_pt", "addr:street_address": "Rua Josu&#233; Martins, LT 60, Urbaniza&#231;&#227;o Malvarosa Parque", "addr:city": "Alverca", "addr:state": "ALVERCA DO RIBATEJO", "addr:postcode": "2615-164", "addr:country": "PT", "name": "McDonald&#39;s Alverca Drive", "website": "https://www.mcdonalds.pt/restaurantes/alverca-drive", "opening_hours": "Mo 02:00-05:30; Tu 08:00-08:00", "image": "https://www.mcdonalds.pt/images/logo.png", "brand": "McDonald\u2019s", "brand:wikidata": "Q38076"}, "geometry": {"type": "Point", "coordinates": [-9.048497, 38.888142]}},
{"type": "Feature", "id": "0xw1KNLYbX2urToZXTHCsR7FM7w=", "properties": {"ref": "/restaurantes/alvalade/", "@spider": "mcdonalds_pt", "addr:street_address": "Pra&#231;a de Alvalade,14A-15D", "addr:city": "Alvalade - Av. Igreja", "addr:state": "LISBOA", "addr:postcode": "1700-000", "addr:country": "PT", "name": "McDonald&#39;s Alvalade", "website": "https://www.mcdonalds.pt/restaurantes/alvalade", "opening_hours": "Mo 02:00-05:30; Tu 08:00-08:00", "image": "https://www.mcdonalds.pt/images/logo.png", "brand": "McDonald\u2019s", "brand:wikidata": "Q38076"}, "geometry": {"type": "Point", "coordinates": [-9.143444, 38.753019]}},
{"type": "Feature", "id": "s5ZpKQfmduGdN3Ekp7sRHmX4sNw=", "properties": {"ref": "/restaurantes/almada-forum/", "@spider": "mcdonalds_pt", "addr:street_address": "Centro Comercial MDC Almada, Loja 328, Estrada do Caminho Municipal, Vale de Moureles", "addr:city": "Almada Forum", "addr:state": "ALMADA", "addr:postcode": "2810-500", "addr:country": "PT", "name": "McDonald&#39;s Almada Forum", "website": "https://www.mcdonalds.pt/restaurantes/almada-forum", "opening_hours": "Mo 02:00-05:30; Tu 08:00-08:00", "image": "https://www.mcdonalds.pt/images/logo.png", "brand": "McDonald\u2019s", "brand:wikidata": "Q38076"}, "geometry": {"type": "Point", "coordinates": [-9.173581, 38.659303]}},
{"type": "Feature", "id": "CsDbwfjOG4PHKeGpS_lYgJQhBG4=", "properties": {"ref": "/restaurantes/almada-drive/", "@spider": "mcdonalds_pt", "addr:street_address": "Rua de Eduardo Viana, 1 - Quinta das Carapinha", "addr:city": "Almada Drive", "addr:state": "ALMADA", "addr:postcode": "2810-017", "addr:country": "PT", "name": "McDonald&#39;s Almada Drive", "website": "https://www.mcdonalds.pt/restaurantes/almada-drive", "opening_hours": "Mo 02:00-05:30; Tu 08:00-08:00", "image": "https://www.mcdonalds.pt/images/logo.png", "brand": "McDonald\u2019s", "brand:wikidata": "Q38076"}, "geometry": {"type": "Point", "coordinates": [-9.162971, 38.662761]}},
{"type": "Feature", "id": "RWmc7TLmHGli2-4KA65X2y55XlU=", "properties": {"ref": "/restaurantes/almada-centro/", "@spider": "mcdonalds_pt", "addr:street_address": "Galeria Comercial do Parque Urbano Comandante J&#250;lio Ferraz", "addr:city": "Almada", "addr:state": "ALMADA", "addr:postcode": "2800-199", "addr:country": "PT", "name": "McDonald&#39;s Almada Centro", "website": "https://www.mcdonalds.pt/restaurantes/almada-centro", "opening_hours": "Mo 02:00-05:30; Tu 08:00-08:00", "image": "https://www.mcdonalds.pt/images/logo.png", "brand": "McDonald\u2019s", "brand:wikidata": "Q38076"}, "geometry": {"type": "Point", "coordinates": [-9.156922, 38.678919]}},
{"type": "Feature", "id": "RvgZc2naqiy74LvKrzaieFHa90I=", "properties": {"ref": "/restaurantes/alma-shopping/", "@spider": "mcdonalds_pt", "addr:street_address": "Centro Comercial Alma Shopping Loja 303", "addr:city": "Centro Comercial Alma Shopping", "addr:state": "COIMBRA", "addr:postcode": "3030-327", "addr:country": "PT", "name": "McDonald&#39;s Alma Shopping", "website": "https://www.mcdonalds.pt/restaurantes/alma-shopping", "opening_hours": "Mo 02:00-05:30; Tu 08:00-08:00", "image": "https://www.mcdonalds.pt/images/logo.png", "brand": "McDonald\u2019s", "brand:wikidata": "Q38076"}, "geometry": {"type": "Point", "coordinates": [-8.40765, 40.204586]}},
{"type": "Feature", "id": "F44-P2jnNroFVeWQu5H4IFjDrr8=", "properties": {"ref": "/restaurantes/alges/", "@spider": "mcdonalds_pt", "addr:street_address": "Rua Dami&#227;o de G&#243;is,n&#186;32A,B e C", "addr:city": "Alg&#233;s", "addr:state": "ALG&#201;S", "addr:postcode": "1495-043", "addr:country": "PT", "name": "McDonald&#39;s Alg&#233;s", "website": "https://www.mcdonalds.pt/restaurantes/alges", "opening_hours": "Mo 02:00-05:30; Tu 08:00-08:00", "image": "https://www.mcdonalds.pt/images/logo.png", "brand": "McDonald\u2019s", "brand:wikidata": "Q38076"}, "geometry": {"type": "Point", "coordinates": [-9.228178, 38.699686]}},
{"type": "Feature", "id": "DkNb5SHNO9lqzpeDqn5ipcR4q-s=", "properties": {"ref": "/restaurantes/algarve-shopping/", "@spider": "mcdonalds_pt", "addr:street_address": "Algarve Shopping,Lj.1317,Lanka Parque Comercial e Industrial do Algarve,Tavagueira", "addr:city": "Guia (Algarve Shopping)", "addr:state": "ALBUFEIRA", "addr:postcode": "8200", "addr:country": "PT", "name": "McDonald&#39;s Algarve Shopping", "website": "https://www.mcdonalds.pt/restaurantes/algarve-shopping", "opening_hours": "Mo 02:00-05:30; Tu 08:00-08:00", "image": "https://www.mcdonalds.pt/images/logo.png", "brand": "McDonald\u2019s", "brand:wikidata": "Q38076"}, "geometry": {"type": "Point", "coordinates": [-8.280656, 37.127992]}},
{"type": "Feature", "id": "I0ShauRORhmTD8jJ53uL17eauHs=", "properties": {"ref": "/restaurantes/alegro-setubal/", "@spider": "mcdonalds_pt", "addr:street_address": "Centro Comercial Alegro, Loja 1.001-1.002  Avenida Antero de Quental, 2  S. Sebasti&#227;o", "addr:city": "Alegro Set&#250;bal", "addr:state": "SET&#218;BAL", "addr:postcode": "2910-394", "addr:country": "PT", "name": "McDonald&#39;s Alegro Set&#250;bal", "website": "https://www.mcdonalds.pt/restaurantes/alegro-setubal", "opening_hours": "Mo 02:00-05:30; Tu 08:00-08:00", "image": "https://www.mcdonalds.pt/images/logo.png", "brand": "McDonald\u2019s", "brand:wikidata": "Q38076"}, "geometry": {"type": "Point", "coordinates": [-8.87605, 38.53714]}},
{"type": "Feature", "id": "xpR7uaBMiMdwBQ3PZ-i6TrKLsEI=", "properties": {"ref": "/restaurantes/alegro-alfragide/", "@spider": "mcdonalds_pt", "addr:street_address": "C. C. Alegro Alfragide, Loja 142", "addr:city": "Alfragide - C.C. Alegro", "addr:state": "CARNAXIDE", "addr:postcode": "2790-150", "addr:country": "PT", "name": "McDonald&#39;s Alegro Alfragide", "website": "https://www.mcdonalds.pt/restaurantes/alegro-alfragide", "opening_hours": "Mo 02:00-05:30; Tu 08:00-08:00", "image": "https://www.mcdonalds.pt/images/logo.png", "brand": "McDonald\u2019s", "brand:wikidata": "Q38076"}, "geometry": {"type": "Point", "coordinates": [-9.21815, 38.727253]}},
{"type": "Feature", "id": "uLTiBMMtkN2iuls-THSxxpjJE-k=", "properties": {"ref": "/restaurantes/albufeira/", "@spider": "mcdonalds_pt", "addr:street_address": "Lugar da Corrieira,Quinta da Bela Vista,Lote E1", "addr:city": "Albufeira", "addr:state": "ALBUFEIRA", "addr:postcode": "8200-020", "addr:country": "PT", "name": "McDonald&#39;s Albufeira", "website": "https://www.mcdonalds.pt/restaurantes/albufeira", "opening_hours": "Mo 02:00-05:30; Tu 08:00-08:00", "image": "https://www.mcdonalds.pt/images/logo.png", "brand": "McDonald\u2019s", "brand:wikidata": "Q38076"}, "geometry": {"type": "Point", "coordinates": [-8.243242, 37.091328]}},
{"type": "Feature", "id": "0fFHHlAeZvFf2DzlsNznd-Duocg=", "properties": {"ref": "/restaurantes/aeroporto-de-lisboa-t2/", "@spider": "mcdonalds_pt", "addr:street_address": "Aeroporto de Lisboa, Terminal 2", "addr:city": "Aeroporto de Lisboa, Terminal 2", "addr:state": "LISBOA", "addr:postcode": "1700-007", "addr:country": "PT", "name": "McDonald&#39;s Aeroporto de Lisboa - T2", "website": "https://www.mcdonalds.pt/restaurantes/aeroporto-de-lisboa-t2", "opening_hours": "Mo 02:00-05:30; Tu 08:00-08:00", "image": "https://www.mcdonalds.pt/images/logo.png", "brand": "McDonald\u2019s", "brand:wikidata": "Q38076"}, "geometry": {"type": "Point", "coordinates": [-9.12943, 38.7688]}},
{"type": "Feature", "id": "h699pMEpQhGePuE0bkl5OpyaBbs=", "properties": {"ref": "/restaurantes/aeroporto-de-lisboa-t1/", "@spider": "mcdonalds_pt", "addr:street_address": "Aeroporto de Lisboa, Sala de Partidas Internacionais", "addr:city": "Aeroporto", "addr:state": "LISBOA", "addr:postcode": "1700-007", "addr:country": "PT", "name": "McDonald&#39;s Aeroporto de Lisboa - T1", "website": "https://www.mcdonalds.pt/restaurantes/aeroporto-de-lisboa-t1", "opening_hours": "Mo 02:00-05:30; Tu 08:00-08:00", "image": "https://www.mcdonalds.pt/images/logo.png", "brand": "McDonald\u2019s", "brand:wikidata": "Q38076"}, "geometry": {"type": "Point", "coordinates": [-9.129578, 38.768956]}},
{"type": "Feature", "id": "bFfHy7Sr0CmWj_qFqD3WynoFOlI=", "properties": {"ref": "/restaurantes/aboboda/", "@spider": "mcdonalds_pt", "addr:street_address": "Estrada Nacional 249 \u2013 km4", "addr:city": "Estrada Nacional 249 \u2013 km4", "addr:state": "S&#195;O DOMINGOS DE RANA", "addr:postcode": "2785-784", "addr:country": "PT", "name": "McDonald&#39;s Ab&#243;boda", "website": "https://www.mcdonalds.pt/restaurantes/aboboda", "opening_hours": "Mo 02:00-05:30; Tu 08:00-08:00", "image": "https://www.mcdonalds.pt/images/logo.png", "brand": "McDonald\u2019s", "brand:wikidata": "Q38076"}, "geometry": {"type": "Point", "coordinates": [-9.33864, 38.721948]}},
{"type": "Feature", "id": "TrqtX0GigBolMI5ZtUDnQMVRFEw=", "properties": {"ref": "/restaurantes/2a-circular/", "@spider": "mcdonalds_pt", "addr:street_address": "Avenida Marechal Craveiro Lopes, Posto de Abastecimento Repsol", "addr:city": "2&#170; Circular", "addr:state": "LISBOA", "addr:postcode": "1700-305", "addr:country": "PT", "name": "McDonald&#39;s 2&#170; Circular", "website": "https://www.mcdonalds.pt/restaurantes/2a-circular", "opening_hours": "Mo 02:00-05:30; Tu 08:00-08:00", "image": "https://www.mcdonalds.pt/images/logo.png", "brand": "McDonald\u2019s", "brand:wikidata": "Q38076"}, "geometry": {"type": "Point", "coordinates": [-9.140344, 38.762883]}}]}