{"type":"FeatureCollection","features":[{"type": "Feature", "id": "8w-uxuC5alApNwk-EnV3AQjZMmI=", "properties": {"ref": "f8cc843f-c280-4d76-81a5-a883d2c16417", "@spider": "medical_city_healthcare", "addr:full": "9323 LBJ Freeway", "addr:city": "Dallas", "addr:state": "TX", "addr:postcode": "75243", "name": "CareNow Urgent Care - Abrams", "phone": "214-570-3003", "website": "https://medicalcityhealthcare.com/locations/", "brand": "Medical City Healthcare"}, "geometry": {"type": "Point", "coordinates": [-96.73689680000001, 32.9134275]}},
{"type": "Feature", "id": "7cqnLCBYCJTDKlnz2Naop6-Qweo=", "properties": {"ref": "0034ca74-7385-42e8-8233-85e95c0c2681", "@spider": "medical_city_healthcare", "addr:full": "1218 W McDermott Dr.", "addr:city": "Allen", "addr:state": "TX", "addr:postcode": "75013", "name": "CareNow Urgent Care - Allen", "phone": "972-390-9000", "website": "https://medicalcityhealthcare.com/locations/", "brand": "Medical City Healthcare"}, "geometry": {"type": "Point", "coordinates": [-96.69627000000003, 33.1012765]}},
{"type": "Feature", "id": "3E7-tN_zfKdmsLfKXVMpYSatkq4=", "properties": {"ref": "a4f74d45-94da-4533-9c8d-966fc6a5660e", "@spider": "medical_city_healthcare", "addr:full": "5405 S Cooper St", "addr:city": "Arlington", "addr:state": "TX", "addr:postcode": "76017", "name": "CareNow Urgent Care - Arlington", "phone": "817-465-4928", "website": "https://medicalcityhealthcare.com/locations/", "brand": "Medical City Healthcare"}, "geometry": {"type": "Point", "coordinates": [-97.1337924, 32.658757]}},
{"type": "Feature", "id": "DkfBsaLFFy77EMnHysYYa9_uEts=", "properties": {"ref": "8fbfe84e-e40e-432d-aa59-187e1d06a6ed", "@spider": "medical_city_healthcare", "addr:full": "1501 SW Wilshire Blvd", "addr:city": "Burleson", "addr:state": "TX", "addr:postcode": "76028", "name": "CareNow Urgent Care - Burleson", "phone": "817-295-9400", "website": "https://medicalcityhealthcare.com/locations/", "brand": "Medical City Healthcare"}, "geometry": {"type": "Point", "coordinates": [-97.3484909, 32.5196663]}},
{"type": "Feature", "id": "kUUEv6-BvGsXurGVA9bUI2ea_w8=", "properties": {"ref": "57526b55-56cd-494b-b931-aace83d3d5cf", "@spider": "medical_city_healthcare", "addr:full": "1017 W Hebron Pkwy", "addr:city": "Carrollton", "addr:state": "TX", "addr:postcode": "75010", "name": "CareNow Urgent Care - Carrollton", "phone": "972-939-9495", "website": "https://medicalcityhealthcare.com/locations/", "brand": "Medical City Healthcare"}, "geometry": {"type": "Point", "coordinates": [-96.9171819, 33.019993]}},
{"type": "Feature", "id": "Tk0sy-5L8mwc_OzXxi9MfTC-o5c=", "properties": {"ref": "fc87ff5a-8e8a-4819-ae48-66cd4b9054b4", "@spider": "medical_city_healthcare", "addr:full": "345 N. Hwy 67", "addr:city": "Cedar Hill", "addr:state": "TX", "addr:postcode": "75104", "name": "CareNow Urgent Care - Cedar Hill", "phone": "972-956-5300", "website": "https://medicalcityhealthcare.com/locations/", "brand": "Medical City Healthcare"}, "geometry": {"type": "Point", "coordinates": [-96.94336229999999, 32.5937731]}},
{"type": "Feature", "id": "QmSCiLbl5XwHToGFfHdx1WX0u2Q=", "properties": {"ref": "c5d41cf2-7375-469c-91dd-8485a3997358", "@spider": "medical_city_healthcare", "addr:full": "5653 McPherson Blvd.", "addr:city": "Fort Worth", "addr:state": "TX", "addr:postcode": "76123", "name": "CareNow Urgent Care - Chisholm Trail", "phone": "(682) 354-3100", "website": "https://medicalcityhealthcare.com/locations/", "brand": "Medical City Healthcare"}, "geometry": {"type": "Point", "coordinates": [-97.41101250000001, 32.6063573]}},
{"type": "Feature", "id": "qiswq0keAbHnklkQ7i0UgTYJVhI=", "properties": {"ref": "9c297951-729b-4d10-a20e-8668482998c4", "@spider": "medical_city_healthcare", "addr:full": "3751 South I-35E", "addr:city": "Denton", "addr:state": "TX", "addr:postcode": "76210", "name": "CareNow Urgent Care - Denton", "phone": "940-383-2700", "website": "https://medicalcityhealthcare.com/locations/", "brand": "Medical City Healthcare"}, "geometry": {"type": "Point", "coordinates": [-97.08795880000002, 33.173079]}},
{"type": "Feature", "id": "uxaSjVO2LOLZO2kwotDQKMSf2fQ=", "properties": {"ref": "d8eef0ee-c4a3-4487-917b-cdbcc7f2e9fd", "@spider": "medical_city_healthcare", "addr:full": "2310 W. University Drive", "addr:city": "Denton", "addr:state": "TX", "addr:postcode": "76201-1650", "name": "CareNow Urgent Care - Denton Rayzor Ranch", "phone": "940-220-5901", "website": "https://medicalcityhealthcare.com/locations/", "brand": "Medical City Healthcare"}, "geometry": {"type": "Point", "coordinates": [-97.1617842, 33.2298805]}},
{"type": "Feature", "id": "3aRE88s3h8cOZtuAnu3WUVDInx4=", "properties": {"ref": "e2e2be81-3aac-44d8-9336-2c6e5e598dcc", "@spider": "medical_city_healthcare", "addr:full": "8450 East Freeway", "addr:city": "Fort Worth", "addr:state": "TX", "addr:postcode": "76120", "name": "CareNow Urgent Care - Eastchase", "phone": "817-459-2005", "website": "https://medicalcityhealthcare.com/locations/", "brand": "Medical City Healthcare"}, "geometry": {"type": "Point", "coordinates": [-97.17049359999999, 32.7591911]}},
{"type": "Feature", "id": "XG5k1CujiNKiLVPEL42C9pApiIA=", "properties": {"ref": "aa5e1454-3680-4c6b-980f-cf7f4396b295", "@spider": "medical_city_healthcare", "addr:full": "7400 McCart Ave", "addr:city": "Fort Worth", "addr:state": "TX", "addr:postcode": "76133", "name": "CareNow Urgent Care - Fort Worth", "phone": "817-294-1651", "website": "https://medicalcityhealthcare.com/locations/", "brand": "Medical City Healthcare"}, "geometry": {"type": "Point", "coordinates": [-97.37026839999999, 32.6376232]}},
{"type": "Feature", "id": "wQ21C3hsX4LBq72Vt4PLXEPHc6U=", "properties": {"ref": "588dc18b-7163-4cc8-9cdc-ff4f29b21a3d", "@spider": "medical_city_healthcare", "addr:full": "7232 North Freeway", "addr:city": "Fort Worth", "addr:state": "TX", "addr:postcode": "76137", "name": "CareNow Urgent Care - Fossil Creek", "phone": "817-232-2100", "website": "https://medicalcityhealthcare.com/locations/", "brand": "Medical City Healthcare"}, "geometry": {"type": "Point", "coordinates": [-97.31486189999998, 32.8716165]}},
{"type": "Feature", "id": "ZgVoJRen3cT1Q5sgRD1EAnugBmE=", "properties": {"ref": "9752301a-e980-47e6-857d-e5dde1354d3e", "@spider": "medical_city_healthcare", "addr:full": "5644 Preston Road", "addr:city": "Frisco", "addr:state": "TX", "addr:postcode": "75034", "name": "CareNow Urgent Care - Frisco Preston Rd", "phone": "972-529-4545", "website": "https://medicalcityhealthcare.com/locations/", "brand": "Medical City Healthcare"}, "geometry": {"type": "Point", "coordinates": [-96.80491599999999, 33.12531]}},
{"type": "Feature", "id": "hrzNvRnWxqa73zwE-2zx3h_QbZY=", "properties": {"ref": "f89614aa-35eb-484d-a38f-2202c97aebd5", "@spider": "medical_city_healthcare", "addr:full": "301 W. Main Street", "addr:city": "Frisco", "addr:state": "TX", "addr:postcode": "75036", "name": "CareNow Urgent Care - Frisco West", "phone": "972-335-0030", "website": "https://medicalcityhealthcare.com/locations/", "brand": "Medical City Healthcare"}, "geometry": {"type": "Point", "coordinates": [-96.88957570000002, 33.1529527]}},
{"type": "Feature", "id": "kso34Uk8ONZDb21IIULsu3UTai8=", "properties": {"ref": "d2f32beb-13a0-4327-9311-497dd8ba58e3", "@spider": "medical_city_healthcare", "addr:full": "2520 W. I-20", "addr:city": "Grand Prairie", "addr:state": "TX", "addr:postcode": "75052", "name": "CareNow Urgent Care - Grand Prairie", "phone": "972-264-5858", "website": "https://medicalcityhealthcare.com/locations/", "brand": "Medical City Healthcare"}, "geometry": {"type": "Point", "coordinates": [-97.13461699999999, 32.6738911]}},
{"type": "Feature", "id": "VahHBLO7G3g6c8cF0IpMJJD0pA0=", "properties": {"ref": "09a17ad7-1b7a-4b2c-a3d9-06383ada862a", "@spider": "medical_city_healthcare", "addr:full": "5301 William D Tate Ave.", "addr:city": "Grapevine", "addr:state": "TX", "addr:postcode": "76051", "name": "CareNow Urgent Care - Grapevine", "phone": "817-251-2101", "website": "https://medicalcityhealthcare.com/locations/", "brand": "Medical City Healthcare"}, "geometry": {"type": "Point", "coordinates": [-97.09800589999998, 32.8840255]}},
{"type": "Feature", "id": "EI9yXiDtxDUq-jeASGSdCIvQIwI=", "properties": {"ref": "c1cc9e8d-9086-4bfd-918f-996a1776a903", "@spider": "medical_city_healthcare", "addr:full": "4844 Greenville Avenue", "addr:city": "Dallas", "addr:state": "TX", "addr:postcode": "75206", "name": "CareNow Urgent Care - Greenville", "phone": "214-295-9410", "website": "https://medicalcityhealthcare.com/locations/", "brand": "Medical City Healthcare"}, "geometry": {"type": "Point", "coordinates": [-96.76968440000002, 32.8468591]}},
{"type": "Feature", "id": "20gy9LAjsg4N89BcxIhp5fhV_kI=", "properties": {"ref": "7352a765-11e7-4bc5-8294-00b149c94eb9", "@spider": "medical_city_healthcare", "addr:full": "2700 Horne Street, #100", "addr:city": "Fort Worth", "addr:state": "TX", "addr:postcode": "76107", "name": "CareNow Urgent Care - Horne", "phone": "817-570-7995", "website": "https://medicalcityhealthcare.com/locations/", "brand": "Medical City Healthcare"}, "geometry": {"type": "Point", "coordinates": [-97.40843799999999, 32.7334129]}},
{"type": "Feature", "id": "cDQZkj5yAVoHgpob0g6m_LaSuVI=", "properties": {"ref": "10085e41-b96f-4321-9038-25800fc2c2d0", "@spider": "medical_city_healthcare", "addr:full": "779 Grapevine Highway", "addr:city": "Hurst", "addr:state": "TX", "addr:postcode": "76054", "name": "CareNow Urgent Care - Hurst", "phone": "817-428-7300", "website": "https://medicalcityhealthcare.com/locations/", "brand": "Medical City Healthcare"}, "geometry": {"type": "Point", "coordinates": [-97.18395099999998, 32.8568118]}},
{"type": "Feature", "id": "mrZLOwIVR50GnsDSXdjzLKn0s7Q=", "properties": {"ref": "a35d3156-67dc-46b7-80fe-2c093945300d", "@spider": "medical_city_healthcare", "addr:full": "39769 Interstate 20", "addr:city": "Dallas", "addr:state": "TX", "addr:postcode": "75237", "name": "CareNow Urgent Care - I-20 & Wheatland", "phone": "972-780-0802", "website": "https://medicalcityhealthcare.com/locations/", "brand": "Medical City Healthcare"}, "geometry": {"type": "Point", "coordinates": [-96.86475300000001, 32.64971]}},
{"type": "Feature", "id": "TZD-o8TbexctxOoj2F2MlsleD1w=", "properties": {"ref": "f435d778-f02b-41e8-8329-94b45613d65b", "@spider": "medical_city_healthcare", "addr:full": "2675 N Belt Line Road", "addr:city": "Irving", "addr:state": "TX", "addr:postcode": "75062", "name": "CareNow Urgent Care - Irving", "phone": "(469) 299-5445", "website": "https://medicalcityhealthcare.com/locations/", "brand": "Medical City Healthcare"}, "geometry": {"type": "Point", "coordinates": [-96.9929157, 32.8437415]}},
{"type": "Feature", "id": "yQU_GwbYV1VaX5ZEIhGwekiu0kY=", "properties": {"ref": "7972e475-36fb-40bc-baf3-83105102d086", "@spider": "medical_city_healthcare", "addr:full": "720 South Main Street", "addr:city": "Keller", "addr:state": "TX", "addr:postcode": "76248", "name": "CareNow Urgent Care - Keller Main Bear", "phone": "817-431-2800", "website": "https://medicalcityhealthcare.com/locations/", "brand": "Medical City Healthcare"}, "geometry": {"type": "Point", "coordinates": [-97.25487659999999, 32.9246478]}},
{"type": "Feature", "id": "oSjt6N0CzAQYSu9Z0bgyUxKpyJA=", "properties": {"ref": "e699d9e5-6de5-4ed6-bc1a-197217497dad", "@spider": "medical_city_healthcare", "addr:full": "104 South Main Street", "addr:city": "Keller", "addr:state": "TX", "addr:postcode": "76248", "name": "CareNow Urgent Care - Keller Pkwy & Main", "phone": "214-295-9385", "website": "https://medicalcityhealthcare.com/locations/", "brand": "Medical City Healthcare"}, "geometry": {"type": "Point", "coordinates": [-97.25414230000001, 32.9340536]}},
{"type": "Feature", "id": "o7JYi0b2h6h0Pd58UUxgBgBWiwE=", "properties": {"ref": "a8fce6d5-9468-4f6d-9429-07accc31c113", "@spider": "medical_city_healthcare", "addr:full": "4617 North Central Expressway", "addr:city": "Dallas", "addr:state": "TX", "addr:postcode": "75205", "name": "CareNow Urgent Care - Knox Henderson", "phone": "469-804-9280", "website": "https://medicalcityhealthcare.com/locations/", "brand": "Medical City Healthcare"}, "geometry": {"type": "Point", "coordinates": [-96.78614759999999, 32.8227842]}},
{"type": "Feature", "id": "-uSwAqeP8K9x2GFzEV7l93AKhTo=", "properties": {"ref": "082a67a8-1d93-4357-b3a4-bd2adf7afab9", "@spider": "medical_city_healthcare", "addr:full": "3520 NW Centre Drive", "addr:city": "Fort Worth", "addr:state": "TX", "addr:postcode": "76135", "name": "CareNow Urgent Care - Lake Worth", "phone": "817-375-2100", "website": "https://medicalcityhealthcare.com/locations/", "brand": "Medical City Healthcare"}, "geometry": {"type": "Point", "coordinates": [-97.42660139999998, 32.8081917]}},
{"type": "Feature", "id": "vVImRzyz-qtvJlW_3HVF53tgKRU=", "properties": {"ref": "fea5f554-d3f9-41bd-9b6c-01f4701c204b", "@spider": "medical_city_healthcare", "addr:full": "2221 Abrams Rd", "addr:city": "Dallas", "addr:state": "TX", "addr:postcode": "75214", "name": "CareNow Urgent Care - Lakewood", "phone": "972-674-8510", "website": "https://medicalcityhealthcare.com/locations/", "brand": "Medical City Healthcare"}, "geometry": {"type": "Point", "coordinates": [-96.75319939999997, 32.8169585]}},
{"type": "Feature", "id": "yOJUa-hnN2reykw8ORX4SwBUwIg=", "properties": {"ref": "d2b32061-2305-4c1e-a415-53ddf2035705", "@spider": "medical_city_healthcare", "addr:full": "2851 W. Interstate Hwy. 635", "addr:city": "Irving", "addr:state": "TX", "addr:postcode": "75063", "name": "CareNow Urgent Care - Las Colinas", "phone": "(214) 496-0820", "website": "https://medicalcityhealthcare.com/locations/", "brand": "Medical City Healthcare"}, "geometry": {"type": "Point", "coordinates": [-96.9842142, 32.9222884]}},
{"type": "Feature", "id": "8t9--dilwM1cosxIcJ1C10bDkVE=", "properties": {"ref": "cbe06c05-14e1-45da-af2b-bdf6356affd4", "@spider": "medical_city_healthcare", "addr:full": "7400 North MacArthur Boulevard", "addr:city": "Irving", "addr:state": "TX", "addr:postcode": "75063", "name": "CareNow Urgent Care - Las Colinas - MacArthur", "phone": "469-804-9295", "website": "https://medicalcityhealthcare.com/locations/", "brand": "Medical City Healthcare"}, "geometry": {"type": "Point", "coordinates": [-96.9581877, 32.90755]}},
{"type": "Feature", "id": "0gJFC65NZbLUwG2I6j1uQnm_M9I=", "properties": {"ref": "9f303aac-175c-45da-b6c3-1ce496977169", "@spider": "medical_city_healthcare", "addr:full": "1559 W. Main Street", "addr:city": "Lewisville", "addr:state": "TX", "addr:postcode": "75067", "name": "CareNow Urgent Care - Lewisville", "phone": "972-436-0333", "website": "https://medicalcityhealthcare.com/locations/", "brand": "Medical City Healthcare"}, "geometry": {"type": "Point", "coordinates": [-97.03132019999998, 33.0426704]}},
{"type": "Feature", "id": "ZTQE5OFPXFPzXHTF9zemaVcdg6Y=", "properties": {"ref": "79c4ac72-99a1-4e74-8536-c15dee2476b9", "@spider": "medical_city_healthcare", "addr:full": "1501 Highway 287 N", "addr:city": "Mansfield", "addr:state": "TX", "addr:postcode": "76063", "name": "CareNow Urgent Care - Mansfield", "phone": "817-453-8080", "website": "https://medicalcityhealthcare.com/locations/", "brand": "Medical City Healthcare"}, "geometry": {"type": "Point", "coordinates": [-97.13916849999998, 32.585996]}},
{"type": "Feature", "id": "EfK-oFAhjdWzrHvKu01y6da-LEQ=", "properties": {"ref": "e971a129-9832-4a71-8b63-413d51960e63", "@spider": "medical_city_healthcare", "addr:full": "809 North Central Expressway", "addr:city": "McKinney", "addr:state": "TX", "addr:postcode": "75072", "name": "CareNow Urgent Care - McKinney", "phone": "972-529-4500", "website": "https://medicalcityhealthcare.com/locations/", "brand": "Medical City Healthcare"}, "geometry": {"type": "Point", "coordinates": [-96.63938539999998, 33.204544]}},
{"type": "Feature", "id": "VQMJFPgj0SQwmQmhzpumjTBmoBw=", "properties": {"ref": "0fd259fc-74e6-4f82-84a7-4eb2af31df3b", "@spider": "medical_city_healthcare", "addr:full": "6200 Eldorado Pkwy", "addr:city": "McKinney", "addr:state": "TX", "addr:postcode": "75070", "name": "CareNow Urgent Care - McKinney Stonebridge Ranch", "phone": "(469) 617-4130", "website": "https://medicalcityhealthcare.com/locations/", "brand": "Medical City Healthcare"}, "geometry": {"type": "Point", "coordinates": [-96.697283, 33.17469210000001]}},
{"type": "Feature", "id": "hg007WGpHd3ZweLNtCt7KzF5b3E=", "properties": {"ref": "79e13d8b-2153-4451-a5fa-6e8c88291fc0", "@spider": "medical_city_healthcare", "addr:full": "12801 Midway Road", "addr:city": "Dallas", "addr:state": "TX", "addr:postcode": "75244", "name": "CareNow Urgent Care - Midway", "website": "https://medicalcityhealthcare.com/locations/", "brand": "Medical City Healthcare"}, "geometry": {"type": "Point", "coordinates": [-96.83865509999998, 32.9234237]}},
{"type": "Feature", "id": "UrT7fs4fK3KXvl_vrrvz9kLalPE=", "properties": {"ref": "313042b9-22c5-4134-a29a-24117a428dd1", "@spider": "medical_city_healthcare", "addr:full": "14856 Preston Rd.", "addr:city": "Dallas", "addr:state": "TX", "addr:postcode": "75254", "name": "CareNow Urgent Care - North Dallas", "phone": "972-387-8900", "website": "https://medicalcityhealthcare.com/locations/", "brand": "Medical City Healthcare"}, "geometry": {"type": "Point", "coordinates": [-96.80299079999998, 32.9508613]}},
{"type": "Feature", "id": "2vdpphXlhjkfWHj3KYIdWbrmVa8=", "properties": {"ref": "5e6d4653-a1ae-482c-869f-e23722e4f506", "@spider": "medical_city_healthcare", "addr:full": "5106 N President George Bush Hwy", "addr:city": "Garland", "addr:state": "TX", "addr:postcode": "75040", "name": "CareNow Urgent Care - North Garland", "phone": "972-530-1900", "website": "https://medicalcityhealthcare.com/locations/", "brand": "Medical City Healthcare"}, "geometry": {"type": "Point", "coordinates": [-96.63804949999997, 32.9643772]}},
{"type": "Feature", "id": "WbdL0lHpiVOYKZS_5WQSCzFHess=", "properties": {"ref": "17b4c09d-09d5-44a2-bb36-595aefee6f49", "@spider": "medical_city_healthcare", "addr:full": "4501 Lemmon Avenue", "addr:city": "Dallas", "addr:state": "TX", "addr:postcode": "75219", "name": "CareNow Urgent Care - Oak Lawn", "phone": "469-672-4238", "website": "https://medicalcityhealthcare.com/locations/", "brand": "Medical City Healthcare"}, "geometry": {"type": "Point", "coordinates": [-96.81427309999998, 32.8188899]}},
{"type": "Feature", "id": "5yLBpP5g4e2ozMyJvclBw9hWuJc=", "properties": {"ref": "f72aeaec-00c3-459a-850a-3ebf43736a9f", "@spider": "medical_city_healthcare", "addr:full": "3821 W Spring Creek Pkwy", "addr:city": "Plano", "addr:state": "TX", "addr:postcode": "75023", "name": "CareNow Urgent Care - Plano", "phone": "972-599-0077", "website": "https://medicalcityhealthcare.com/locations/", "brand": "Medical City Healthcare"}, "geometry": {"type": "Point", "coordinates": [-96.76792749999998, 33.0570651]}},
{"type": "Feature", "id": "fbX7AEI3_6xdoN6rraNbWZH0p5A=", "properties": {"ref": "74c3e351-0407-450e-8889-d2b051f3172c", "@spider": "medical_city_healthcare", "addr:full": "8901 North Freeway", "addr:city": "Fort Worth", "addr:state": "TX", "addr:postcode": "76177", "name": "CareNow Urgent Care - Presidio Vista", "phone": "469-778-5228", "website": "https://medicalcityhealthcare.com/locations/", "brand": "Medical City Healthcare"}, "geometry": {"type": "Point", "coordinates": [-97.31895889999998, 32.9005895]}},
{"type": "Feature", "id": "685CucZACk4lOl2kUhRKtpUBrlw=", "properties": {"ref": "1a542906-6bb0-457b-ad62-6a06d3ceb1d1", "@spider": "medical_city_healthcare", "addr:full": "781 S Preston Rd", "addr:city": "Prosper", "addr:state": "TX", "addr:postcode": "75078", "name": "CareNow Urgent Care - Prosper", "phone": "(972) 529-4520", "website": "https://medicalcityhealthcare.com/locations/", "brand": "Medical City Healthcare"}, "geometry": {"type": "Point", "coordinates": [-96.79337302458266, 33.22753386002278]}},
{"type": "Feature", "id": "_mAt6EeqiZXQbJwC2bLG9Dwanb8=", "properties": {"ref": "ccdc4e28-e66f-4ed8-8a17-35da6633c876", "@spider": "medical_city_healthcare", "addr:full": "4530 W University Dr", "addr:city": "Prosper", "addr:state": "TX", "addr:postcode": "75078", "name": "CareNow Urgent Care - Prosper West", "phone": "(469) 607-7504", "website": "https://medicalcityhealthcare.com/locations/", "brand": "Medical City Healthcare"}, "geometry": {"type": "Point", "coordinates": [-96.87483789999999, 33.2190965]}},
{"type": "Feature", "id": "JaPUIs63khyfPioJDmuTGa8twMw=", "properties": {"ref": "0f7dda8f-ab25-48c7-9d98-e7ef7458e05a", "@spider": "medical_city_healthcare", "addr:full": "377 West Campbell Road", "addr:city": "Richardson", "addr:state": "TX", "addr:postcode": "75080", "name": "CareNow Urgent Care - Richardson", "phone": "469-232-2945", "website": "https://medicalcityhealthcare.com/locations/", "brand": "Medical City Healthcare"}, "geometry": {"type": "Point", "coordinates": [-96.72310089999996, 32.9749863]}},
{"type": "Feature", "id": "0HfvenJTCerg_ug4SuLJyrXQ67k=", "properties": {"ref": "7396a1b0-0354-48fb-83f2-a23a5a505ed4", "@spider": "medical_city_healthcare", "addr:full": "1530 N. US-377", "addr:city": "Roanoke", "addr:state": "TX", "addr:postcode": "76262", "name": "CareNow Urgent Care - Roanoke", "phone": "(682) 549-9920", "website": "https://medicalcityhealthcare.com/locations/", "brand": "Medical City Healthcare"}, "geometry": {"type": "Point", "coordinates": [-97.2156875, 33.0183368]}},
{"type": "Feature", "id": "SwNkaYlTsY7kANGSpCiZF47oQqY=", "properties": {"ref": "2c4ddec1-7d57-4269-bfd4-44f5901f41e4", "@spider": "medical_city_healthcare", "addr:full": "600 Horizon Road", "addr:city": "Rockwall", "addr:state": "TX", "addr:postcode": "75032", "name": "CareNow Urgent Care - Rockwall", "phone": "972-332-5555", "website": "https://medicalcityhealthcare.com/locations/", "brand": "Medical City Healthcare"}, "geometry": {"type": "Point", "coordinates": [-96.47481199999999, 32.8942915]}},
{"type": "Feature", "id": "A_9NpkJ5G6UHwTPDqTvbcT8w0Jo=", "properties": {"ref": "0cda751f-6158-414e-9cee-089e179382fe", "@spider": "medical_city_healthcare", "addr:full": "4524 W Bailey Boswell Rd", "addr:city": "Fort Worth", "addr:state": "TX", "addr:postcode": "76179", "name": "CareNow Urgent Care - Saginaw", "phone": "(817) 720-9685", "website": "https://medicalcityhealthcare.com/locations/", "brand": "Medical City Healthcare"}, "geometry": {"type": "Point", "coordinates": [-97.39223480310865, 32.88134477135019]}},
{"type": "Feature", "id": "w8m_5qa0irSlOtQT5V8Ef_b2Fc8=", "properties": {"ref": "aeb9e10b-8cfa-4a01-9503-c6c8170cc4cd", "@spider": "medical_city_healthcare", "addr:full": "565 West I-30", "addr:city": "Garland", "addr:state": "TX", "addr:postcode": "75043", "name": "CareNow Urgent Care - South Garland", "phone": "972-303-3030", "website": "https://medicalcityhealthcare.com/locations/", "brand": "Medical City Healthcare"}, "geometry": {"type": "Point", "coordinates": [-96.59977939999999, 32.8391997]}},
{"type": "Feature", "id": "Zg98xrjHg8tw0yXx6dOSDhW19fM=", "properties": {"ref": "c0b1b1e1-f49b-4e8c-b400-39490646e131", "@spider": "medical_city_healthcare", "addr:full": "2751 E State Highway 114", "addr:city": "Southlake", "addr:state": "TX", "addr:postcode": "76092", "name": "CareNow Urgent Care - Southlake", "phone": "817-749-0155", "website": "https://medicalcityhealthcare.com/locations/", "brand": "Medical City Healthcare"}, "geometry": {"type": "Point", "coordinates": [-97.10847489999998, 32.9419988]}},
{"type": "Feature", "id": "4wuGxwG9HBpwm08tV7_fIbA1goM=", "properties": {"ref": "9fdfc41f-3427-4a5a-9a58-a94110cc826c", "@spider": "medical_city_healthcare", "addr:full": "2404 McKinney Avenue", "addr:city": "Dallas", "addr:state": "TX", "addr:postcode": "75201", "name": "CareNow Urgent Care - Uptown", "phone": "214-721-0630", "website": "https://medicalcityhealthcare.com/locations/", "brand": "Medical City Healthcare"}, "geometry": {"type": "Point", "coordinates": [-96.8020032, 32.7947262]}},
{"type": "Feature", "id": "AUqk1Uo_SfIUGo_qdI4iqlatTOQ=", "properties": {"ref": "35685756-3621-4b73-acdd-e8d0e861738c", "@spider": "medical_city_healthcare", "addr:full": "454 N Jim Wright Freeway", "addr:city": "White Settlement", "addr:state": "TX", "addr:postcode": "76108", "name": "CareNow Urgent Care - White Settlement", "website": "https://medicalcityhealthcare.com/locations/", "brand": "Medical City Healthcare"}, "geometry": {"type": "Point", "coordinates": [-97.4761552, 32.7651618]}},
{"type": "Feature", "id": "29JUB6dz6tAPUStbEdN740DjUeM=", "properties": {"ref": "5b9d61c1-759f-4212-a351-cd5772b68000", "@spider": "medical_city_healthcare", "addr:full": "11970 North Central Expressway", "addr:city": "Dallas", "addr:state": "TX", "addr:postcode": "75243", "name": "Dallas Valve Institute", "phone": "(972) 940-9510", "website": "https://medicalcityhealthcare.com/locations/", "brand": "Medical City Healthcare"}, "geometry": {"type": "Point", "coordinates": [-96.76671780000004, 32.9120385]}},
{"type": "Feature", "id": "CKfwc9aNA_i0MwuyoZlG8J7Omq4=", "properties": {"ref": "47bb3e40-5bb9-4bcf-b555-68aa45be8440", "@spider": "medical_city_healthcare", "addr:full": "1600 Coit Rd", "addr:city": "Plano", "addr:state": "TX", "addr:postcode": "75075", "name": "Endoscopy of Plano", "phone": "(972) 612-9771", "website": "https://medicalcityhealthcare.com/locations/", "brand": "Medical City Healthcare"}, "geometry": {"type": "Point", "coordinates": [-96.76696090000002, 33.0209877]}},
{"type": "Feature", "id": "nMs4cPMSBMTX7FSfWpFnwTLj6FM=", "properties": {"ref": "1e08d8ba-fbfb-4eb0-b1ea-3693d4c025cf", "@spider": "medical_city_healthcare", "addr:full": "4201 Medical Center Drive", "addr:city": "McKinney", "addr:state": "TX", "addr:postcode": "75069", "name": "Medical Arts Imaging Center", "website": "https://medicalcityhealthcare.com/locations/", "brand": "Medical City Healthcare"}, "geometry": {"type": "Point", "coordinates": [-96.63418569999999, 33.16115660000001]}},
{"type": "Feature", "id": "ij000Lon2qncY9Trjlvw-UXj9Q8=", "properties": {"ref": "15ad75fb-9632-4f01-9541-c07a091c9a60", "@spider": "medical_city_healthcare", "addr:full": "3101 N Tarrant Pkwy", "addr:city": "Fort Worth", "addr:state": "TX", "addr:postcode": "76177", "name": "Medical City Alliance", "phone": "(817) 639-1000", "website": "https://medicalcityhealthcare.com/locations/", "brand": "Medical City Healthcare"}, "geometry": {"type": "Point", "coordinates": [-97.31326489999998, 32.9001783]}},
{"type": "Feature", "id": "wjdOI2uz0g7_So5aCOq7qTHuIbo=", "properties": {"ref": "c423812a-7823-4e3e-af32-43c45a131c7d", "@spider": "medical_city_healthcare", "addr:full": "3301 Matlock Rd", "addr:city": "Arlington", "addr:state": "TX", "addr:postcode": "76015", "name": "Medical City Arlington", "phone": "(682) 509-6200", "website": "https://medicalcityhealthcare.com/locations/", "brand": "Medical City Healthcare"}, "geometry": {"type": "Point", "coordinates": [-97.11305529999998, 32.6931143]}},
{"type": "Feature", "id": "EkFuFsJ4g2lxdxR0kjy48RkrX70=", "properties": {"ref": "79b4b346-aa50-4755-ad3a-13d2bab93401", "@spider": "medical_city_healthcare", "addr:full": "4001 W. 15th Street", "addr:city": "Plano", "addr:state": "TX", "addr:postcode": "75093", "name": "Medical City Center for Lung Health", "phone": "(833) 624-5864", "website": "https://medicalcityhealthcare.com/locations/", "brand": "Medical City Healthcare"}, "geometry": {"type": "Point", "coordinates": [-96.76855490000003, 33.0203941]}},
{"type": "Feature", "id": "0J5b5z9Hms7z4ralPrwm8Libc20=", "properties": {"ref": "ba01e57e-0900-42b1-a085-6b14ab6b9139", "@spider": "medical_city_healthcare", "addr:full": "7777 Forest Lane", "addr:city": "Dallas", "addr:state": "TX", "addr:postcode": "75230", "name": "Medical City Children's Hospital", "phone": "(972) 566-7000", "website": "https://medicalcityhealthcare.com/locations/", "brand": "Medical City Healthcare"}, "geometry": {"type": "Point", "coordinates": [-96.77344629999999, 32.9113881]}},
{"type": "Feature", "id": "xQRlPiUI5rg3SmERatpKRXibuYo=", "properties": {"ref": "7752db3f-1f81-460b-b08a-5ef25f9ee196", "@spider": "medical_city_healthcare", "addr:full": "7777 Forest Ln", "addr:city": "Dallas", "addr:state": "TX", "addr:postcode": "75230", "name": "Medical City Dallas", "phone": "(972) 566-7000", "website": "https://medicalcityhealthcare.com/locations/", "brand": "Medical City Healthcare"}, "geometry": {"type": "Point", "coordinates": [-96.77344629999999, 32.9113881]}},
{"type": "Feature", "id": "VJf3qPNDRCepckq885zUaCtwjmo=", "properties": {"ref": "5b1ffe43-c3ce-4909-9721-2b27862ee8d4", "@spider": "medical_city_healthcare", "addr:full": "3535 S Interstate 35", "addr:city": "Denton", "addr:state": "TX", "addr:postcode": "76210", "name": "Medical City Denton", "phone": "(940) 384-3535", "website": "https://medicalcityhealthcare.com/locations/", "brand": "Medical City Healthcare"}, "geometry": {"type": "Point", "coordinates": [-97.09121700000003, 33.1778917]}},
{"type": "Feature", "id": "qN_Uc8uX3I5fwloxjZHUQNeMx9o=", "properties": {"ref": "635891b5-447a-4228-a292-7429b176b0ee", "@spider": "medical_city_healthcare", "addr:full": "4351 Long Prairie Rd", "addr:city": "Flower Mound", "addr:state": "TX", "addr:postcode": "75028", "name": "Medical City ER Flower Mound", "phone": "(972) 420-4911", "website": "https://medicalcityhealthcare.com/locations/", "brand": "Medical City Healthcare"}, "geometry": {"type": "Point", "coordinates": [-97.07009640000001, 33.0448097]}},
{"type": "Feature", "id": "5Yoz6AKjiR5hfWGtmj06Fd7M0tw=", "properties": {"ref": "f5170b93-a5e8-4027-be3f-02e36589020c", "@spider": "medical_city_healthcare", "addr:full": "5203 Lake Ridge Pkwy", "addr:city": "Grand Prairie", "addr:state": "TX", "addr:postcode": "75052", "name": "Medical City ER Grand Prairie", "phone": "(682) 218-5400", "website": "https://medicalcityhealthcare.com/locations/", "brand": "Medical City Healthcare"}, "geometry": {"type": "Point", "coordinates": [-97.04476119999998, 32.6472736]}},
{"type": "Feature", "id": "01AuzPJHukFLpxHEGdgWVUpNTWo=", "properties": {"ref": "445d9d9b-5214-4b84-a669-bf8c8a1b13e4", "@spider": "medical_city_healthcare", "addr:full": "13172 NW Highway 287", "addr:city": "Fort Worth", "addr:state": "TX", "addr:postcode": "76052", "name": "Medical City ER Haslet", "phone": "(817) 639-2830", "website": "https://medicalcityhealthcare.com/locations/", "brand": "Medical City Healthcare"}, "geometry": {"type": "Point", "coordinates": [-97.4159562, 32.9673656]}},
{"type": "Feature", "id": "wgezR9x9KOwANxoWUpe-1FA7804=", "properties": {"ref": "5f653f72-2526-4aee-a73d-7bcafba672d0", "@spider": "medical_city_healthcare", "addr:full": "317 E. Ovilla Road", "addr:city": "Red Oak", "addr:state": "TX", "addr:postcode": "75154", "name": "Medical City ER Red Oak", "phone": "(469) 820-6080", "website": "https://medicalcityhealthcare.com/locations/", "brand": "Medical City Healthcare"}, "geometry": {"type": "Point", "coordinates": [-96.80086540000002, 32.5317985]}},
{"type": "Feature", "id": "_acvyM1UotwAiVYD27KlL7jErDM=", "properties": {"ref": "832d2de4-33f9-4750-a4ed-9cf0b8eb94f5", "@spider": "medical_city_healthcare", "addr:full": "727 W Bailey Boswell Rd.", "addr:city": "Saginaw", "addr:state": "TX", "addr:postcode": "76179", "name": "Medical City ER Saginaw", "phone": "(682) 312-2444", "website": "https://medicalcityhealthcare.com/locations/", "brand": "Medical City Healthcare"}, "geometry": {"type": "Point", "coordinates": [-97.3898572, 32.8813499]}},
{"type": "Feature", "id": "4AfBKjpYysYxc4Q0bgPM7QisjOE=", "properties": {"ref": "66c17d20-b1b3-427a-9544-bda18ba78418", "@spider": "medical_city_healthcare", "addr:full": "8995 W University Dr", "addr:city": "McKinney", "addr:state": "TX", "addr:postcode": "75071", "name": "Medical City ER Stonebridge", "phone": "(469) 408-1400", "website": "https://medicalcityhealthcare.com/locations/", "brand": "Medical City Healthcare"}, "geometry": {"type": "Point", "coordinates": [-96.7321561, 33.2179342]}},
{"type": "Feature", "id": "9KkZxz7T4Acy1e_CVRoQIKiEZfo=", "properties": {"ref": "c0e2a6fd-d9c5-44fa-8bdd-c8dbc126adc8", "@spider": "medical_city_healthcare", "addr:full": "9650 White Settlement Rd.", "addr:city": "Fort Worth", "addr:state": "TX", "addr:postcode": "76108", "name": "Medical City ER White Settlement", "phone": "(682) 610-6100", "website": "https://medicalcityhealthcare.com/locations/", "brand": "Medical City Healthcare"}, "geometry": {"type": "Point", "coordinates": [-97.48639479999997, 32.7618601]}},
{"type": "Feature", "id": "iwvAyd9ULlV_EpTaWweIwFXAaT0=", "properties": {"ref": "fc75d497-6b3c-44e5-93e0-669035c809f2", "@spider": "medical_city_healthcare", "addr:full": "900 8th Ave", "addr:city": "Fort Worth", "addr:state": "TX", "addr:postcode": "76104", "name": "Medical City Fort Worth", "phone": "(817) 336-2100", "website": "https://medicalcityhealthcare.com/locations/", "brand": "Medical City Healthcare"}, "geometry": {"type": "Point", "coordinates": [-97.34541489999998, 32.7358538]}},
{"type": "Feature", "id": "BB1_jkY0Z4nnB6zRH6hAy3Wn-1A=", "properties": {"ref": "52edce42-5008-4be4-8f9e-68227f5973a4", "@spider": "medical_city_healthcare", "addr:full": "5500 Frisco Square Blvd", "addr:city": "Frisco", "addr:state": "TX", "addr:postcode": "75034", "name": "Medical City Frisco, a Medical City Plano Facility", "phone": "(214) 618-0500", "website": "https://medicalcityhealthcare.com/locations/", "brand": "Medical City Healthcare"}, "geometry": {"type": "Point", "coordinates": [-96.8388754, 33.1509332]}},
{"type": "Feature", "id": "70ctpSmgFMKbV9oDrSsl0mW2sU4=", "properties": {"ref": "eabd1904-0d69-4732-90dc-5dd77120a95f", "@spider": "medical_city_healthcare", "addr:full": "7808 Clodus Fields Dr", "addr:city": "Dallas", "addr:state": "TX", "addr:postcode": "75251", "name": "Medical City Green Oaks", "phone": "(972) 991-9504", "website": "https://medicalcityhealthcare.com/locations/", "brand": "Medical City Healthcare"}, "geometry": {"type": "Point", "coordinates": [-96.7720329, 32.9130884]}},
{"type": "Feature", "id": "lwUtQjR9kLQpR2emH71TIl234JI=", "properties": {"ref": "f9132503-901f-44d3-a4f2-8a935087c571", "@spider": "medical_city_healthcare", "addr:full": "4001 W. 15th Street", "addr:city": "Plano", "addr:state": "TX", "addr:postcode": "75093", "name": "Medical City Green Oaks Hospital - Plano Outpatient Clinic", "phone": "(972) 985-1599", "website": "https://medicalcityhealthcare.com/locations/", "brand": "Medical City Healthcare"}, "geometry": {"type": "Point", "coordinates": [-96.76855490000003, 33.0203941]}},
{"type": "Feature", "id": "Ys7kNn1WKckSPI1dhNW_hUNK1H8=", "properties": {"ref": "9c992079-b6c2-4d8a-adf5-a0aea585b0eb", "@spider": "medical_city_healthcare", "addr:full": "13155 Noel Rd.", "addr:city": "Dallas", "addr:state": "TX", "addr:postcode": "75240", "name": "Medical City Healthcare", "website": "https://medicalcityhealthcare.com/locations/", "brand": "Medical City Healthcare"}, "geometry": {"type": "Point", "coordinates": [-96.81865189999996, 32.9270565]}},
{"type": "Feature", "id": "tE4WdZ0Br4fYCpJmfp2qR5xwuTs=", "properties": {"ref": "51784dad-d9a0-4d6a-b0dc-5f3542f60238", "@spider": "medical_city_healthcare", "addr:full": "11970 North Central Expressway", "addr:city": "Dallas", "addr:state": "TX", "addr:postcode": "75243", "name": "Medical City Heart Hospital, a Medical City Dallas Facility", "phone": "(972) 940-8000", "website": "https://medicalcityhealthcare.com/locations/", "brand": "Medical City Healthcare"}, "geometry": {"type": "Point", "coordinates": [-96.76671780000004, 32.9120385]}},
{"type": "Feature", "id": "brDQ9JDP-2nGgka9Cdn5NNs3fUY=", "properties": {"ref": "60125123-0163-4df0-b646-4ee5dc75e528", "@spider": "medical_city_healthcare", "addr:full": "1429 Clear Lake Road Suite 400", "addr:city": "Weatherford", "addr:state": "TX", "addr:postcode": "76086", "name": "Medical City Imaging | Weatherford", "phone": "(682) 582-2670", "website": "https://medicalcityhealthcare.com/locations/", "brand": "Medical City Healthcare"}, "geometry": {"type": "Point", "coordinates": [-97.77763549999997, 32.7405835]}},
{"type": "Feature", "id": "9fMm8d81OJVA5_wMiIvrPm0PJ9U=", "properties": {"ref": "aea9cef7-73cc-4c39-893c-6eefa2c73122", "@spider": "medical_city_healthcare", "addr:full": "6800 N MacArthur Blvd", "addr:city": "Irving", "addr:state": "TX", "addr:postcode": "75039", "name": "Medical City Las Colinas", "phone": "(972) 969-2000", "website": "https://medicalcityhealthcare.com/locations/", "brand": "Medical City Healthcare"}, "geometry": {"type": "Point", "coordinates": [-96.95740189999998, 32.9010772]}},
{"type": "Feature", "id": "ALZjVVfdlda9c86CSdTF24Gr3Rg=", "properties": {"ref": "608234f5-ab6c-4c15-9c93-f6e23d9b1d6a", "@spider": "medical_city_healthcare", "addr:full": "500 W Main St", "addr:city": "Lewisville", "addr:state": "TX", "addr:postcode": "75057", "name": "Medical City Lewisville", "phone": "(469) 370-2000", "website": "https://medicalcityhealthcare.com/locations/", "brand": "Medical City Healthcare"}, "geometry": {"type": "Point", "coordinates": [-97.0046562, 33.0452646]}},
{"type": "Feature", "id": "gSSYFNfnQL7pw82XdL9hcKYLYTg=", "properties": {"ref": "02fac148-e9a8-499c-abbe-34f7840ee6c9", "@spider": "medical_city_healthcare", "addr:full": "4500 Medical Center Dr", "addr:city": "McKinney", "addr:state": "TX", "addr:postcode": "75069", "name": "Medical City McKinney", "phone": "(972) 547-8000", "website": "https://medicalcityhealthcare.com/locations/", "brand": "Medical City Healthcare"}, "geometry": {"type": "Point", "coordinates": [-96.63712939999999, 33.1596558]}},
{"type": "Feature", "id": "UVhCzNbXMuc72IV-4rIaYZpWmts=", "properties": {"ref": "5e2cf041-0970-4697-b0c0-2850e92a26f0", "@spider": "medical_city_healthcare", "addr:full": "4401 Booth Calloway Rd", "addr:city": "North Richland Hills", "addr:state": "TX", "addr:postcode": "76180", "name": "Medical City North Hills", "phone": "(817) 255-1000", "website": "https://medicalcityhealthcare.com/locations/", "brand": "Medical City Healthcare"}, "geometry": {"type": "Point", "coordinates": [-97.21352409999997, 32.8292376]}},
{"type": "Feature", "id": "8S3Cx7PFITKU-XvaMKhA1ooJAbA=", "properties": {"ref": "ad91f02d-39e2-45a8-b6e5-2fba48677ac5", "@spider": "medical_city_healthcare", "addr:full": "12228 North Central Expressway", "addr:city": "Dallas", "addr:state": "TX", "addr:postcode": "75243", "name": "Medical City Orthopedic & Spine Surgery Center Dallas", "phone": "(469) 761-5500", "website": "https://medicalcityhealthcare.com/locations/", "brand": "Medical City Healthcare"}, "geometry": {"type": "Point", "coordinates": [-96.76676739999999, 32.9151589]}},
{"type": "Feature", "id": "LxadxtsZ7xwWJJPnXyn3kF9tixk=", "properties": {"ref": "94187290-4030-484e-870a-c91ee16aaa46", "@spider": "medical_city_healthcare", "addr:full": "3901 West 15th St", "addr:city": "Plano", "addr:state": "TX", "addr:postcode": "75075", "name": "Medical City Plano", "phone": "(972) 596-6800", "website": "https://medicalcityhealthcare.com/locations/", "brand": "Medical City Healthcare"}, "geometry": {"type": "Point", "coordinates": [-96.76610500000004, 33.021236]}},
{"type": "Feature", "id": "kIhzirhSEhIqv1EKR1BC0BaPxqs=", "properties": {"ref": "3c867bc2-a1e1-405e-83be-1e6d76e17dc0", "@spider": "medical_city_healthcare", "addr:full": "879 Eureka Street", "addr:city": "Weatherford", "addr:state": "TX", "addr:postcode": "76086", "name": "Medical City Rehabilitation Institute | Weatherford", "phone": "(817) 596-2700", "website": "https://medicalcityhealthcare.com/locations/", "brand": "Medical City Healthcare"}, "geometry": {"type": "Point", "coordinates": [-97.78178559999998, 32.7511923]}},
{"type": "Feature", "id": "T9hgNcM59vyd2XN-07IHUezwS20=", "properties": {"ref": "6edd25f0-5e4a-4720-bfb9-74a3f4204e4b", "@spider": "medical_city_healthcare", "addr:full": "4201 Medical Center Drive", "addr:city": "McKinney", "addr:state": "TX", "addr:postcode": "75069", "name": "Medical City Senior Health Clinic McKinney", "phone": "(972) 547-8400", "website": "https://medicalcityhealthcare.com/locations/", "brand": "Medical City Healthcare"}, "geometry": {"type": "Point", "coordinates": [-96.63418569999999, 33.16115660000001]}},
{"type": "Feature", "id": "iTa36uuj9le0-zsW94UKExEmyW0=", "properties": {"ref": "4b6e0a07-c8c2-4d59-9eb2-d0470b6ae23f", "@spider": "medical_city_healthcare", "addr:full": "11990 North Central Expressway", "addr:city": "Dallas", "addr:state": "TX", "addr:postcode": "75243", "name": "Medical City Spine Hospital, a Medical City Dallas Facility", "phone": "(972) 940-8000", "website": "https://medicalcityhealthcare.com/locations/", "brand": "Medical City Healthcare"}, "geometry": {"type": "Point", "coordinates": [-96.76711290000003, 32.912919]}},
{"type": "Feature", "id": "pJnB00xYkOmNf5w7SZebIMfx8O0=", "properties": {"ref": "4764a3d2-4a6a-4dcf-8709-5148ceb1c8e4", "@spider": "medical_city_healthcare", "addr:full": "8900 Medical City Way", "addr:city": "Fort Worth", "addr:state": "TX", "addr:postcode": "76177", "name": "Medical City Surgery Center Alliance", "phone": "(817) 898-6610", "website": "https://medicalcityhealthcare.com/locations/", "brand": "Medical City Healthcare"}, "geometry": {"type": "Point", "coordinates": [-97.3115284, 32.8981059]}},
{"type": "Feature", "id": "vPXKIJ8pkZ4_J3K_29usJ9__WZ0=", "properties": {"ref": "9523ec30-5720-4b1d-8f22-311e3456214e", "@spider": "medical_city_healthcare", "addr:full": "4300 City Point Dr", "addr:city": "North Richland Hills", "addr:state": "TX", "addr:postcode": "76180", "name": "Medical City Surgery Center Calloway Creek", "phone": "(817) 548-4000", "website": "https://medicalcityhealthcare.com/locations/", "brand": "Medical City Healthcare"}, "geometry": {"type": "Point", "coordinates": [-97.21531920000001, 32.8280507]}},
{"type": "Feature", "id": "kCHQ5o7ZwwOtyTJn_b76bkf-bi4=", "properties": {"ref": "d107f1c5-011c-41cb-9283-85c27786ed0b", "@spider": "medical_city_healthcare", "addr:full": "7777 Forest Ln, Suite C-150", "addr:city": "Dallas", "addr:state": "TX", "addr:postcode": "75230", "name": "Medical City Surgery Center Dallas", "phone": "(972) 566-6171", "website": "https://medicalcityhealthcare.com/locations/", "brand": "Medical City Healthcare"}, "geometry": {"type": "Point", "coordinates": [-96.77344629999999, 32.9113881]}},
{"type": "Feature", "id": "8J0XpYgizLbAtYaSbJ9umt2QvvY=", "properties": {"ref": "806b1e76-e265-4b83-885a-e07cf4c14af9", "@spider": "medical_city_healthcare", "addr:full": "3316 Colorado Blvd", "addr:city": "Denton", "addr:state": "TX", "addr:postcode": "76210", "name": "Medical City Surgery Center Denton", "phone": "(940) 349-5500", "website": "https://medicalcityhealthcare.com/locations/", "brand": "Medical City Healthcare"}, "geometry": {"type": "Point", "coordinates": [-97.09359169999999, 33.1800982]}},
{"type": "Feature", "id": "HqgU4QglgSiI37wr3G42K4cC_DY=", "properties": {"ref": "b69aaf59-78ed-46b4-9d26-53a57be37469", "@spider": "medical_city_healthcare", "addr:full": "909 9th Ave", "addr:city": "Fort Worth", "addr:state": "TX", "addr:postcode": "76104", "name": "Medical City Surgery Center Fort Worth", "phone": "(817) 336-6060", "website": "https://medicalcityhealthcare.com/locations/", "brand": "Medical City Healthcare"}, "geometry": {"type": "Point", "coordinates": [-97.34552910000002, 32.7345426]}},
{"type": "Feature", "id": "8we7iSA3eft0xJPbIG6KxQ7TYTY=", "properties": {"ref": "e038bca7-e16e-4437-92e8-80b3dce7882f", "@spider": "medical_city_healthcare", "addr:full": "5575 Frisco Square Blvd", "addr:city": "Frisco", "addr:state": "TX", "addr:postcode": "75034", "name": "Medical City Surgery Center Frisco", "phone": "(972) 324-0200", "website": "https://medicalcityhealthcare.com/locations/", "brand": "Medical City Healthcare"}, "geometry": {"type": "Point", "coordinates": [-96.83873, 33.15098]}},
{"type": "Feature", "id": "9AlDLetE8gXArGtyuHdz6mKeuJ8=", "properties": {"ref": "b336cd7c-9bd9-44d3-b988-8b7ba2845af0", "@spider": "medical_city_healthcare", "addr:full": "4510 Medical Center Dr, Suite 150", "addr:city": "McKinney", "addr:state": "TX", "addr:postcode": "75069", "name": "Medical City Surgery Center McKinney", "phone": "(972) 547-1580", "website": "https://medicalcityhealthcare.com/locations/", "brand": "Medical City Healthcare"}, "geometry": {"type": "Point", "coordinates": [-96.63821540000004, 33.1596482]}},
{"type": "Feature", "id": "zKia21KM0_4HKzwNAT5fyun5Sfo=", "properties": {"ref": "5487cd21-cd65-4318-b6f2-fb9ec678815d", "@spider": "medical_city_healthcare", "addr:full": "12200 Park Central Dr, 3rd Floor", "addr:city": "Dallas", "addr:state": "TX", "addr:postcode": "75251", "name": "Medical City Surgery Center Park Central", "phone": "(972) 661-0505", "website": "https://medicalcityhealthcare.com/locations/", "brand": "Medical City Healthcare"}, "geometry": {"type": "Point", "coordinates": [-96.7750767, 32.91403440000001]}},
{"type": "Feature", "id": "P0kEUDL5NnklMJrA4v2GQm9_cwM=", "properties": {"ref": "2381fd5b-895b-4320-92d6-1e7cb19e49d9", "@spider": "medical_city_healthcare", "addr:full": "2814 W. Southlake Blvd.", "addr:city": "Southlake", "addr:state": "TX", "addr:postcode": "Southlake", "name": "Medical City Surgery Center Southlake", "phone": "(817) 431-3200", "website": "https://medicalcityhealthcare.com/locations/", "brand": "Medical City Healthcare"}, "geometry": {"type": "Point", "coordinates": [-97.19666300000002, 32.9348342]}},
{"type": "Feature", "id": "I75wXfFW-rfogSliF65oMF1ZK9M=", "properties": {"ref": "c2d55e6e-64e5-4861-8a33-1e75fb34e83e", "@spider": "medical_city_healthcare", "addr:full": "905 E. Eureka St.", "addr:city": "Weatherford", "addr:state": "TX", "addr:postcode": "76086", "name": "Medical City Surgery Center Weatherford", "phone": "(817) 341-2273", "website": "https://medicalcityhealthcare.com/locations/", "brand": "Medical City Healthcare"}, "geometry": {"type": "Point", "coordinates": [-97.782736, 32.749585]}},
{"type": "Feature", "id": "-ZQjVzU3c8aZpugPPxWezki62sM=", "properties": {"ref": "7bb71ad0-fb36-41c2-8edf-55780d2eefe8", "@spider": "medical_city_healthcare", "addr:full": "713 East Anderson Street", "addr:city": "Weatherford", "addr:state": "TX", "addr:postcode": "76086", "name": "Medical City Weatherford", "phone": "(682) 582-1000", "website": "https://medicalcityhealthcare.com/locations/", "brand": "Medical City Healthcare"}, "geometry": {"type": "Point", "coordinates": [-97.78564970000002, 32.7481906]}},
{"type": "Feature", "id": "cR5ceWN6QsVMWepZi0Lsr1OURKc=", "properties": {"ref": "b59065a7-ca33-4fe6-9c15-34715073b6f9", "@spider": "medical_city_healthcare", "addr:full": "1620 Coit Road", "addr:city": "Plano", "addr:state": "TX", "addr:postcode": "75075", "name": "Outpatient Rehabilitation", "phone": "(972) 519-1197", "website": "https://medicalcityhealthcare.com/locations/", "brand": "Medical City Healthcare"}, "geometry": {"type": "Point", "coordinates": [-96.76759279999999, 33.0218035]}},
{"type": "Feature", "id": "pBwCI9DK_D9Bovly7gosz9cF2hg=", "properties": {"ref": "45044ba4-593a-4014-b4d3-c6f6ceeea20d", "@spider": "medical_city_healthcare", "addr:full": "3201 Omega Drive, Building C", "addr:city": "Arlington", "addr:state": "TX", "addr:postcode": "76104", "name": "Outpatient Rehabilitation Building", "phone": "(682) 509-2840", "website": "https://medicalcityhealthcare.com/locations/", "brand": "Medical City Healthcare"}, "geometry": {"type": "Point", "coordinates": [-97.11074550000001, 32.693347]}},
{"type": "Feature", "id": "87z1oLJtqEqu5q_Q9WnicN0NlIc=", "properties": {"ref": "c8f2cdea-61b1-4f18-8843-3ab85617c051", "@spider": "medical_city_healthcare", "addr:full": "12221 Merit Drive Suite 400", "addr:city": "Dallas", "addr:state": "TX", "addr:postcode": "75251", "name": "Partial Hospitalization Program", "website": "https://medicalcityhealthcare.com/locations/", "brand": "Medical City Healthcare"}, "geometry": {"type": "Point", "coordinates": [-96.7724035, 32.9145332]}},
{"type": "Feature", "id": "N2pallOfaZQnHCQHYnDr30dxyBQ=", "properties": {"ref": "ff55b5ff-19cb-45fb-9fcf-d8963f9a6829", "@spider": "medical_city_healthcare", "addr:full": "3901 W. 15th St.", "addr:city": "Plano", "addr:state": "TX", "addr:postcode": "75075", "name": "Sarah Cannon Cancer Hospital at Medical City Plano", "phone": "(972) 202-8877", "website": "https://medicalcityhealthcare.com/locations/", "brand": "Medical City Healthcare"}, "geometry": {"type": "Point", "coordinates": [-96.76610500000001, 33.021236]}},
{"type": "Feature", "id": "msseDOdd-rQ9EqCIW9U73QJvG2E=", "properties": {"ref": "891a8e2f-8b02-44c8-962a-bb9e8c6c1d83", "@spider": "medical_city_healthcare", "addr:full": "3025 North Tarrant Pkwy", "addr:city": "Fort Worth", "addr:state": "TX", "addr:postcode": "76177", "name": "Solis Mammography, a department of Medical City Alliance", "phone": "(817) 509-6137", "website": "https://medicalcityhealthcare.com/locations/", "brand": "Medical City Healthcare"}, "geometry": {"type": "Point", "coordinates": [-97.314952, 32.9002548]}},
{"type": "Feature", "id": "tkclTxk6w7e-6pitxwcFeApo6GE=", "properties": {"ref": "0c33605f-8dfd-46b0-9dc0-ad8dc2fb8ba2", "@spider": "medical_city_healthcare", "addr:full": "515 W Mayfield Professional Bldg A", "addr:city": "Arlington", "addr:state": "TX", "addr:postcode": "76014", "name": "Solis Mammography, a department of Medical City Arlington", "phone": "(817) 375-9357", "website": "https://medicalcityhealthcare.com/locations/", "brand": "Medical City Healthcare"}, "geometry": {"type": "Point", "coordinates": [-97.1127899, 32.6915406]}},
{"type": "Feature", "id": "JGRtCog2kWwxfSZbelV6-x_HAlQ=", "properties": {"ref": "0ce0ce93-5184-4519-bfa4-a2e6a25df4d4", "@spider": "medical_city_healthcare", "addr:full": "7777 Forest Lane", "addr:city": "Dallas", "addr:state": "TX", "addr:postcode": "75230", "name": "Solis Mammography, a department of Medical City Dallas", "phone": "(214) 294-9051", "website": "https://medicalcityhealthcare.com/locations/", "brand": "Medical City Healthcare"}, "geometry": {"type": "Point", "coordinates": [-96.77344629999999, 32.9113881]}},
{"type": "Feature", "id": "bwW3r_FxPNZQc84GJJwi8gYnY0A=", "properties": {"ref": "e65fc068-558f-4cef-8a1a-74f627af28c9", "@spider": "medical_city_healthcare", "addr:full": "3537 South I-35E", "addr:city": "Denton", "addr:state": "TX", "addr:postcode": "76210", "name": "Solis Mammography, a department of Medical City Denton", "phone": "(940) 382-5400", "website": "https://medicalcityhealthcare.com/locations/", "brand": "Medical City Healthcare"}, "geometry": {"type": "Point", "coordinates": [-97.09108760000004, 33.1769567]}},
{"type": "Feature", "id": "3T2CN6Ulq1pWczkJIyCSoTjAgZg=", "properties": {"ref": "ffc58f7a-86ce-470d-8999-da7cfc75fa77", "@spider": "medical_city_healthcare", "addr:full": "6750 North MacArthur", "addr:city": "Las Colinas", "addr:state": "TX", "addr:postcode": "75039", "name": "Solis Mammography, a department of Medical City Las Colinas", "phone": "(469) 677-3174", "website": "https://medicalcityhealthcare.com/locations/", "brand": "Medical City Healthcare"}, "geometry": {"type": "Point", "coordinates": [-96.9568635, 32.90173040000001]}},
{"type": "Feature", "id": "qAhVL2tKjiHFuMVjXojrO9J9dIY=", "properties": {"ref": "4ac5a4c1-93e9-4cbf-91f3-5477902a3575", "@spider": "medical_city_healthcare", "addr:full": "500 West Main St", "addr:city": "Lewisville", "addr:state": "TX", "addr:postcode": "75057", "name": "Solis Mammography, a department of Medical City Lewisville", "phone": "(972) 350-0078", "website": "https://medicalcityhealthcare.com/locations/", "brand": "Medical City Healthcare"}, "geometry": {"type": "Point", "coordinates": [-97.0046562, 33.0452646]}},
{"type": "Feature", "id": "8vKoilgPr_ePKF-RAOW6luUNEZU=", "properties": {"ref": "2efa8d11-e812-4bf6-ba82-91bba2a9e541", "@spider": "medical_city_healthcare", "addr:full": "4201 Medical Center Dr", "addr:city": "McKinney", "addr:state": "TX", "addr:postcode": "75069", "name": "Solis Mammography, a department of Medical City McKinney", "phone": "(214) 620-2346", "website": "https://medicalcityhealthcare.com/locations/", "brand": "Medical City Healthcare"}, "geometry": {"type": "Point", "coordinates": [-96.63418569999999, 33.16115660000001]}},
{"type": "Feature", "id": "Do-7IrqDRtVRiUl3Zn6jD6hA2bE=", "properties": {"ref": "334e3b80-40a6-4423-b28b-0c0864960308", "@spider": "medical_city_healthcare", "addr:full": "3801 W 15th St", "addr:city": "Plano", "addr:state": "TX", "addr:postcode": "75075", "name": "Solis Mammography, a department of Medical City Plano (Central Plano)", "phone": "(972) 596-4033", "website": "https://medicalcityhealthcare.com/locations/", "brand": "Medical City Healthcare"}, "geometry": {"type": "Point", "coordinates": [-96.7642047, 33.0202797]}},
{"type": "Feature", "id": "Y01OJGaiEtTZoGodNH3jLkhoAWs=", "properties": {"ref": "6601caab-d600-4ba5-a142-c143686e4d20", "@spider": "medical_city_healthcare", "addr:full": "914 Foster Lane", "addr:city": "Weatherford", "addr:state": "TX", "addr:postcode": "76086", "name": "Solis Mammography, a department of Medical City Weatherford", "phone": "(817) 594-1227", "website": "https://medicalcityhealthcare.com/locations/", "brand": "Medical City Healthcare"}, "geometry": {"type": "Point", "coordinates": [-97.7880265, 32.7486004]}},
{"type": "Feature", "id": "g9HD8OkPN1-8unlKw4Dw4tI6_0k=", "properties": {"ref": "934d9415-9c94-40f1-9d76-385302ec34b4", "@spider": "medical_city_healthcare", "addr:full": "4005 W. 15th St", "addr:city": "Plano", "addr:state": "TX", "addr:postcode": "75093", "name": "Surgery Center of Plano", "phone": "(972) 519-1100", "website": "https://medicalcityhealthcare.com/locations/", "brand": "Medical City Healthcare"}, "geometry": {"type": "Point", "coordinates": [-96.7682203, 33.0197118]}},
{"type": "Feature", "id": "O4YjXU6KLJIpc3EN9l32_l06FOk=", "properties": {"ref": "986721fb-7b2a-4cf4-b9d2-de2594e09678", "@spider": "medical_city_healthcare", "addr:full": "12221 Merit Drive", "addr:city": "Dallas", "addr:state": "TX", "addr:postcode": "75251", "name": "The Oak Counseling and Psychiatric Services", "phone": "(972) 770-1032", "website": "https://medicalcityhealthcare.com/locations/", "brand": "Medical City Healthcare"}, "geometry": {"type": "Point", "coordinates": [-96.77344629999999, 32.9113881]}},
{"type": "Feature", "id": "opYW2s23avAXfifQf414mhJhOZU=", "properties": {"ref": "ec7d36d3-3067-47e0-9c95-5102869b3b3f", "@spider": "medical_city_healthcare", "addr:full": "3501 Matlock Rd", "addr:city": "Arlington", "addr:state": "TX", "addr:postcode": "76015", "name": "Trinity Park Surgery Center", "phone": "(817) 375-9370", "website": "https://medicalcityhealthcare.com/locations/", "brand": "Medical City Healthcare"}, "geometry": {"type": "Point", "coordinates": [-97.11350470000002, 32.6889831]}},
{"type": "Feature", "id": "hxEJ2HUnpQO4OngYh9dztPT3VfE=", "properties": {"ref": "7d250f9f-66a8-40d6-ba1e-338c4257fb2f", "@spider": "medical_city_healthcare", "addr:full": "Medical City Plano, Bldg. III 4001 W. 15th Street", "addr:city": "Plano", "addr:state": "TX", "addr:postcode": "75093", "name": "WorkReturns Plano Clinic", "phone": "(972) 985-1599", "website": "https://medicalcityhealthcare.com/locations/", "brand": "Medical City Healthcare"}, "geometry": {"type": "Point", "coordinates": [-96.76865429999998, 33.0203407]}},
{"type": "Feature", "id": "G8V2Z_KXfv-zoGApM_bgYngaylE=", "properties": {"ref": "3b7dbed9-f8d0-4825-8a3a-4f5104d68bb8", "@spider": "medical_city_healthcare", "addr:full": "4001 West 15th Street", "addr:city": "Plano", "addr:state": "TX", "addr:postcode": "75093", "name": "Wound Care Center", "phone": "(214) 473-7671", "website": "https://medicalcityhealthcare.com/locations/", "brand": "Medical City Healthcare"}, "geometry": {"type": "Point", "coordinates": [-96.76855490000003, 33.0203941]}}]}