{"type":"FeatureCollection","features":[{"type": "Feature", "id": "0g_fNsLu7KwiT3TlEepc41nKRsY=", "properties": {"ref": "00-3561", "@spider": "merkur", "addr:full": "Roemerstrasse 1a", "addr:city": "Woellersdorf", "addr:state": "Niederoesterreich", "addr:postcode": "2752", "addr:country": "AT", "name": "BILLA AG FIL. 3561", "phone": "059915 03561", "brand": "Merkur", "brand:wikidata": "Q1921857"}, "geometry": {"type": "Point", "coordinates": [16.19422, 47.85247]}},
{"type": "Feature", "id": "2V9dfGorJCgvz2r-O2NOX5GbUzE=", "properties": {"ref": "00-1207", "@spider": "merkur", "addr:full": "Sagedergasse 18-22 .", "addr:city": "Wien", "addr:state": "Wien", "addr:postcode": "1120", "addr:country": "AT", "name": "BILLA AG FIL. 1207", "phone": "059915 01207", "brand": "Merkur", "brand:wikidata": "Q1921857"}, "geometry": {"type": "Point", "coordinates": [16.319521, 48.161532]}},
{"type": "Feature", "id": "qooP_BaZg-r-0cY0n5n1bNtsZ1E=", "properties": {"ref": "00-7249", "@spider": "merkur", "addr:full": "Neudorfstrasse 2-4", "addr:city": "Parndorf", "addr:state": "Burgenland", "addr:postcode": "7111", "addr:country": "AT", "name": "BILLA AG FIL. 7249", "phone": "059915 07249", "brand": "Merkur", "brand:wikidata": "Q1921857"}, "geometry": {"type": "Point", "coordinates": [16.85868, 47.99308]}},
{"type": "Feature", "id": "8M4uOCmocmrIJSOZWY86QTIAyaE=", "properties": {"ref": "00-4519", "@spider": "merkur", "addr:full": "Ort 64", "addr:city": "Ampflwang Im Hausruckwald", "addr:state": "Oberoesterreich", "addr:postcode": "4843", "addr:country": "AT", "name": "BILLA AG FIL. 4519", "phone": "059915 04519", "brand": "Merkur", "brand:wikidata": "Q1921857"}, "geometry": {"type": "Point", "coordinates": [13.56495, 48.08148]}},
{"type": "Feature", "id": "XekyjSR9nTf-kSAGfnJ_qCHdA1s=", "properties": {"ref": "00-2306", "@spider": "merkur", "addr:full": "Breitenfurter Strasse 146", "addr:city": "Wien", "addr:state": "Wien", "addr:postcode": "1230", "addr:country": "AT", "name": "BILLA AG FIL. 2306", "phone": "059915 02306", "brand": "Merkur", "brand:wikidata": "Q1921857"}, "geometry": {"type": "Point", "coordinates": [16.30361, 48.15611]}},
{"type": "Feature", "id": "My0zPUXMaVpquqwrdprjfJbQ0jU=", "properties": {"ref": "00-3071", "@spider": "merkur", "addr:full": "Wally Neuzil Platz 1", "addr:city": "Tattendorf", "addr:state": "Niederoesterreich", "addr:postcode": "2523", "addr:country": "AT", "name": "BILLA AG FIL. 3071", "phone": "059915 03071", "brand": "Merkur", "brand:wikidata": "Q1921857"}, "geometry": {"type": "Point", "coordinates": [16.3043775332655, 47.9567532]}},
{"type": "Feature", "id": "JsmvMx9q7gLHs-gDptgWiH_Pn90=", "properties": {"ref": "00-8012", "@spider": "merkur", "addr:full": "Grazer Strasse 3 - B 116", "addr:city": "Bruck An Der Mur", "addr:state": "Steiermark", "addr:postcode": "8600", "addr:country": "AT", "name": "BILLA AG FIL. 8012", "phone": "059915 08012", "brand": "Merkur", "brand:wikidata": "Q1921857"}, "geometry": {"type": "Point", "coordinates": [15.2746387, 47.4083803]}},
{"type": "Feature", "id": "AYFkFaJ64dHKjZeKzwN01oZ39bw=", "properties": {"ref": "00-3659", "@spider": "merkur", "addr:full": "Schraubenwerkstrasse 3", "addr:city": "Neunkirchen", "addr:state": "Niederoesterreich", "addr:postcode": "2620", "addr:country": "AT", "name": "BILLA AG FIL. 3659", "phone": "059915 03659", "brand": "Merkur", "brand:wikidata": "Q1921857"}, "geometry": {"type": "Point", "coordinates": [16.0783784, 47.7234795]}},
{"type": "Feature", "id": "kIrrOrKRuOrWMKysRLcKQvrjJkU=", "properties": {"ref": "00-3856", "@spider": "merkur", "addr:full": "Angerner Bundesstrasse 6", "addr:city": "Deutsch-Wagram", "addr:state": "Niederoesterreich", "addr:postcode": "2232", "addr:country": "AT", "name": "BILLA AG FIL. 3856", "phone": "059915 03856", "brand": "Merkur", "brand:wikidata": "Q1921857"}, "geometry": {"type": "Point", "coordinates": [16.555439, 48.294652]}},
{"type": "Feature", "id": "thGF-m7qlchkpZSiTeiwiKv2xlQ=", "properties": {"ref": "00-7757", "@spider": "merkur", "addr:full": "Voelkermarkterstr. 186", "addr:city": "Klagenfurt", "addr:state": "Kaernten", "addr:postcode": "9020", "addr:country": "AT", "name": "BILLA AG FIL. 7757", "phone": "059915 07757", "brand": "Merkur", "brand:wikidata": "Q1921857"}, "geometry": {"type": "Point", "coordinates": [14.3483, 46.62761]}},
{"type": "Feature", "id": "CYZXc_l_YLLMS7TQElE6yVvmimo=", "properties": {"ref": "00-7811", "@spider": "merkur", "addr:full": "Miegererstr.38", "addr:city": "Ebental", "addr:state": "Kaernten", "addr:postcode": "9065", "addr:country": "AT", "name": "BILLA AG FIL. 7811", "phone": "059915 07811", "brand": "Merkur", "brand:wikidata": "Q1921857"}, "geometry": {"type": "Point", "coordinates": [14.36162, 46.61022]}},
{"type": "Feature", "id": "ycxkLH7IIk12WX7_HOhkujA0j2Y=", "properties": {"ref": "00-8030", "@spider": "merkur", "addr:full": "Am Marienplatz 346", "addr:city": "Mayrhofen", "addr:state": "Tirol", "addr:postcode": "6290", "addr:country": "AT", "name": "BILLA AG FIL. 8030", "phone": "059915 08030", "brand": "Merkur", "brand:wikidata": "Q1921857"}, "geometry": {"type": "Point", "coordinates": [11.86552, 47.16729]}},
{"type": "Feature", "id": "zSDNsnPsnrxqY-CfR5RomEq0Ec4=", "properties": {"ref": "00-8102", "@spider": "merkur", "addr:full": "Hammerschmiedstrasse 3-5", "addr:city": "Kitzbuehel", "addr:state": "Tirol", "addr:postcode": "6370", "addr:country": "AT", "name": "BILLA AG FIL. 8102", "phone": "059915 08102", "brand": "Merkur", "brand:wikidata": "Q1921857"}, "geometry": {"type": "Point", "coordinates": [12.39492, 47.4451]}},
{"type": "Feature", "id": "r0EaA9clf3MVh7MII6fdDHhPnZg=", "properties": {"ref": "00-8177", "@spider": "merkur", "addr:full": "Huettfeldstrasse 16", "addr:city": "Koessen", "addr:state": "Tirol", "addr:postcode": "6345", "addr:country": "AT", "name": "BILLA AG FIL. 8177", "phone": "059915 08177", "brand": "Merkur", "brand:wikidata": "Q1921857"}, "geometry": {"type": "Point", "coordinates": [12.40902, 47.66749]}},
{"type": "Feature", "id": "FpcLSnbge2COOEo88VCqyeFm9Ic=", "properties": {"ref": "00-8243", "@spider": "merkur", "addr:full": "Stubaitalstr.92", "addr:city": "Neustift Im Stu", "addr:state": "Tirol", "addr:postcode": "6167", "addr:country": "AT", "name": "BILLA AG FIL. 8243", "phone": "059915 08243", "brand": "Merkur", "brand:wikidata": "Q1921857"}, "geometry": {"type": "Point", "coordinates": [11.3076594, 47.1103362]}},
{"type": "Feature", "id": "53fQwjPd9Wlo8XMwbJ6IpeAuLlE=", "properties": {"ref": "00-8441", "@spider": "merkur", "addr:full": "Umfahrungsstrasse 294", "addr:city": "Bad Aussee", "addr:state": "Steiermark", "addr:postcode": "8990", "addr:country": "AT", "name": "BILLA AG FIL. 8441", "phone": "059915 08441", "brand": "Merkur", "brand:wikidata": "Q1921857"}, "geometry": {"type": "Point", "coordinates": [13.77559, 47.60719]}},
{"type": "Feature", "id": "Cmyh0kLBuwwExR3zOPn5NYWZeFE=", "properties": {"ref": "00-9118", "@spider": "merkur", "addr:full": "Gewerbepark 1", "addr:city": "Aschbach Markt", "addr:state": "Niederoesterreich", "addr:postcode": "3361", "addr:country": "AT", "name": "BILLA AG FIL. 9118", "phone": "059915 09118", "brand": "Merkur", "brand:wikidata": "Q1921857"}, "geometry": {"type": "Point", "coordinates": [14.74172, 48.07363]}},
{"type": "Feature", "id": "O40M2kmyKvZD_Lj2iCOoT2kVLXI=", "properties": {"ref": "00-9225", "@spider": "merkur", "addr:full": "Tullnerstrasse 36", "addr:city": "Zwentendorf-Erp", "addr:state": "Niederoesterreich", "addr:postcode": "3435", "addr:country": "AT", "name": "BILLA AG FIL. 9225", "phone": "059915 09225", "brand": "Merkur", "brand:wikidata": "Q1921857"}, "geometry": {"type": "Point", "coordinates": [15.91922, 48.34172]}},
{"type": "Feature", "id": "xgUZg-uim3GjfwvBXTO8k8gBP7k=", "properties": {"ref": "00-9589", "@spider": "merkur", "addr:full": "Waidhofnerstrasse 25", "addr:city": "Hilm", "addr:state": "Niederoesterreich", "addr:postcode": "3331", "addr:country": "AT", "name": "BILLA AG FIL. 9589", "phone": "059915 09589", "brand": "Merkur", "brand:wikidata": "Q1921857"}, "geometry": {"type": "Point", "coordinates": [14.75724, 48.02187]}},
{"type": "Feature", "id": "TS5AQM4QXw4S4EZZIeLuaG00kyA=", "properties": {"ref": "00-9688", "@spider": "merkur", "addr:full": "Laaerstrasse 48", "addr:city": "Haugsdorf", "addr:state": "Niederoesterreich", "addr:postcode": "2054", "addr:country": "AT", "name": "BILLA AG FIL. 9688", "phone": "059915 09688", "brand": "Merkur", "brand:wikidata": "Q1921857"}, "geometry": {"type": "Point", "coordinates": [16.08348, 48.70334]}},
{"type": "Feature", "id": "ymf9WkzLbGfresu_N8dqLGHslJ4=", "properties": {"ref": "00-1198", "@spider": "merkur", "addr:full": "Geiselbergstr. 34-36", "addr:city": "Wien", "addr:state": "Wien", "addr:postcode": "1110", "addr:country": "AT", "name": "BILLA AG FIL. 1198", "phone": "059915 01198", "brand": "Merkur", "brand:wikidata": "Q1921857"}, "geometry": {"type": "Point", "coordinates": [16.40318, 48.174563]}},
{"type": "Feature", "id": "eYeRtUidZ3RjHz3VNlCxhm9qHf8=", "properties": {"ref": "00-440", "@spider": "merkur", "addr:full": "Rechte Wienzeile 9-9a", "addr:city": "Wien", "addr:state": "Wien", "addr:postcode": "1040", "addr:country": "AT", "name": "BILLA AG FIL. 440", "phone": "059915 00440", "brand": "Merkur", "brand:wikidata": "Q1921857"}, "geometry": {"type": "Point", "coordinates": [16.364863, 48.198865]}},
{"type": "Feature", "id": "rdVykhfjVNUAFjDyeaKPnM7KOy8=", "properties": {"ref": "00-778", "@spider": "merkur", "addr:full": "Neubauguertel 38", "addr:city": "Wien", "addr:state": "Wien", "addr:postcode": "1070", "addr:country": "AT", "name": "BILLA AG FIL. 778", "phone": "059915 00778", "brand": "Merkur", "brand:wikidata": "Q1921857"}, "geometry": {"type": "Point", "coordinates": [16.3383595, 48.2010264]}},
{"type": "Feature", "id": "P4JAb9mHK1Cb8ivhi7taoQi_QW4=", "properties": {"ref": "00-1016", "@spider": "merkur", "addr:full": "Kudlichgasse 39", "addr:city": "Wien", "addr:state": "Wien", "addr:postcode": "1100", "addr:country": "AT", "name": "BILLA AG FIL. 1016", "phone": "059915 01016", "brand": "Merkur", "brand:wikidata": "Q1921857"}, "geometry": {"type": "Point", "coordinates": [16.38199, 48.1729]}},
{"type": "Feature", "id": "0PZoxUVfywDtrgEMHPwbLiIVGpE=", "properties": {"ref": "00-141", "@spider": "merkur", "addr:full": "Franz Josefs Kai 29", "addr:city": "Wien", "addr:state": "Wien", "addr:postcode": "1010", "addr:country": "AT", "name": "BILLA AG FIL. 141", "phone": "059915 00141", "brand": "Merkur", "brand:wikidata": "Q1921857"}, "geometry": {"type": "Point", "coordinates": [16.3748774, 48.2121451]}},
{"type": "Feature", "id": "LAPF5vUAvtjvXl7McwvTpigUVhY=", "properties": {"ref": "00-2188", "@spider": "merkur", "addr:full": "Bruennerstrasse 22", "addr:city": "Wien", "addr:state": "Wien", "addr:postcode": "1210", "addr:country": "AT", "name": "BILLA AG FIL. 2188", "phone": "059915 02188", "brand": "Merkur", "brand:wikidata": "Q1921857"}, "geometry": {"type": "Point", "coordinates": [16.40068, 48.26055]}},
{"type": "Feature", "id": "WdMVjL4T2YyCnK9zcusAACFaSZg=", "properties": {"ref": "00-1024", "@spider": "merkur", "addr:full": "Holbeingasse 2-4", "addr:city": "Wien", "addr:state": "Wien", "addr:postcode": "1100", "addr:country": "AT", "name": "BILLA AG FIL. 1024", "phone": "059915 01024", "brand": "Merkur", "brand:wikidata": "Q1921857"}, "geometry": {"type": "Point", "coordinates": [16.36145, 48.17152]}},
{"type": "Feature", "id": "cC09KnKK-b0yVEF922kZi3LG0nc=", "properties": {"ref": "00-7609", "@spider": "merkur", "addr:full": "St.Veiterstrasse 2", "addr:city": "Feldkirchen", "addr:state": "Kaernten", "addr:postcode": "9560", "addr:country": "AT", "name": "BILLA AG FIL. 7609", "phone": "059915 07609", "brand": "Merkur", "brand:wikidata": "Q1921857"}, "geometry": {"type": "Point", "coordinates": [14.10072, 46.72265]}},
{"type": "Feature", "id": "_G_Dl1_0ZkLLYW02fF-DbcRgudU=", "properties": {"ref": "00-6012", "@spider": "merkur", "addr:full": "Muenzgrabenstrasse", "addr:city": "Graz", "addr:state": "Steiermark", "addr:postcode": "8010", "addr:country": "AT", "name": "BILLA AG FIL. 6012", "phone": "059915 06012", "brand": "Merkur", "brand:wikidata": "Q1921857"}, "geometry": {"type": "Point", "coordinates": [15.45185, 47.05961]}},
{"type": "Feature", "id": "mKgIwv2t1ZpD3cxO2RJK2EyW17k=", "properties": {"ref": "00-6011", "@spider": "merkur", "addr:full": "Schoenaugasse 139-141", "addr:city": "Graz", "addr:state": "Steiermark", "addr:postcode": "8010", "addr:country": "AT", "name": "BILLA AG FIL. 6011", "phone": "059915 06011", "brand": "Merkur", "brand:wikidata": "Q1921857"}, "geometry": {"type": "Point", "coordinates": [15.44265, 47.05455]}},
{"type": "Feature", "id": "LkCB8rskbmAWRWad8eTiWc9d1oQ=", "properties": {"ref": "00-6705", "@spider": "merkur", "addr:full": "Pestalozzistrasse 71", "addr:city": "Leoben", "addr:state": "Steiermark", "addr:postcode": "8704", "addr:country": "AT", "name": "BILLA AG FIL. 6705", "phone": "059915 06705", "brand": "Merkur", "brand:wikidata": "Q1921857"}, "geometry": {"type": "Point", "coordinates": [15.07361, 47.37583]}},
{"type": "Feature", "id": "4TUR5AgqkkX_eESfFn0yfW9lqyU=", "properties": {"ref": "00-6910", "@spider": "merkur", "addr:full": "Fronleichnamsweg 11", "addr:city": "Liezen", "addr:state": "Steiermark", "addr:postcode": "8940", "addr:country": "AT", "name": "BILLA AG FIL. 6910", "phone": "059915 06910", "brand": "Merkur", "brand:wikidata": "Q1921857"}, "geometry": {"type": "Point", "coordinates": [14.2394465, 47.5654993]}},
{"type": "Feature", "id": "mjiLIhB86VSpN0wR9II8OEI90zw=", "properties": {"ref": "00-2098", "@spider": "merkur", "addr:full": "Engerthstrasse 59 A", "addr:city": "Wien", "addr:state": "Wien", "addr:postcode": "1200", "addr:country": "AT", "name": "BILLA AG FIL. 2098", "phone": "059915 02098", "brand": "Merkur", "brand:wikidata": "Q1921857"}, "geometry": {"type": "Point", "coordinates": [16.383558, 48.2417084]}},
{"type": "Feature", "id": "vTgXbZ7lXxdMNnlLHSpMT2Sbw5A=", "properties": {"ref": "00-3234", "@spider": "merkur", "addr:full": "Wiener Strasse 127", "addr:city": "Brunn Am Gebirge", "addr:state": "Niederoesterreich", "addr:postcode": "2345", "addr:country": "AT", "name": "BILLA AG FIL. 3234", "phone": "059915 03234", "brand": "Merkur", "brand:wikidata": "Q1921857"}, "geometry": {"type": "Point", "coordinates": [16.300551, 48.112492]}},
{"type": "Feature", "id": "0DfUJqaKVaskBPP6v0ZLSyzUuLk=", "properties": {"ref": "00-367", "@spider": "merkur", "addr:full": "Landstrasser Hauptstrasse 89", "addr:city": "Wien", "addr:state": "Wien", "addr:postcode": "1030", "addr:country": "AT", "name": "BILLA AG FIL. 367", "phone": "059915 00367", "brand": "Merkur", "brand:wikidata": "Q1921857"}, "geometry": {"type": "Point", "coordinates": [16.394153, 48.19958]}},
{"type": "Feature", "id": "pU8TFlBOYTIRlg6pg5WVVf-JUHg=", "properties": {"ref": "00-3987", "@spider": "merkur", "addr:full": "Goelsentalstrasse 58", "addr:city": "Sankt Veit An Der Goelsen", "addr:state": "Niederoesterreich", "addr:postcode": "3161", "addr:country": "AT", "name": "BILLA AG FIL. 3987", "phone": "059915 03987", "brand": "Merkur", "brand:wikidata": "Q1921857"}, "geometry": {"type": "Point", "coordinates": [15.6640604, 48.0464463]}},
{"type": "Feature", "id": "a8FD5JnsKDOAYCtW2Eje1bRJem8=", "properties": {"ref": "00-7767", "@spider": "merkur", "addr:full": "Woerthersee Sueduferstr. 60", "addr:city": "Klagenfurt", "addr:state": "Kaernten", "addr:postcode": "9020", "addr:country": "AT", "name": "BILLA AG FIL. 7767", "phone": "059915 07767", "brand": "Merkur", "brand:wikidata": "Q1921857"}, "geometry": {"type": "Point", "coordinates": [14.2559066, 46.6066852]}},
{"type": "Feature", "id": "rdrMXF6Jh3hqWGDZlGqaNhRei6c=", "properties": {"ref": "00-5113", "@spider": "merkur", "addr:full": "Holzhauserweg 2", "addr:city": "Lamprechtshausen", "addr:state": "Salzburg", "addr:postcode": "5112", "addr:country": "AT", "name": "BILLA AG FIL. 5113", "phone": "059915 05113", "brand": "Merkur", "brand:wikidata": "Q1921857"}, "geometry": {"type": "Point", "coordinates": [12.9550757, 47.9913385]}},
{"type": "Feature", "id": "6jpIo4Gqj9NfnQXBRFXdiJLMG4A=", "properties": {"ref": "00-2148", "@spider": "merkur", "addr:full": "Siemensstrasse 68", "addr:city": "Wien", "addr:state": "Wien", "addr:postcode": "1210", "addr:country": "AT", "name": "BILLA AG FIL. 2148", "phone": "059915 02148", "brand": "Merkur", "brand:wikidata": "Q1921857"}, "geometry": {"type": "Point", "coordinates": [16.418333, 48.271617]}},
{"type": "Feature", "id": "ZsPTnDonrDl_SzoyqY-XNM9NHVU=", "properties": {"ref": "00-3011", "@spider": "merkur", "addr:full": "Flugfeldstrasse 53", "addr:city": "Bad Voeslau", "addr:state": "Niederoesterreich", "addr:postcode": "2540", "addr:country": "AT", "name": "BILLA AG FIL. 3011", "phone": "059915 03011", "brand": "Merkur", "brand:wikidata": "Q1921857"}, "geometry": {"type": "Point", "coordinates": [16.2388602, 47.9663051]}},
{"type": "Feature", "id": "POrY5x37oWJcMUpm60uhIldKxMU=", "properties": {"ref": "00-6219", "@spider": "merkur", "addr:full": "Nr. 300", "addr:city": "Sinabelkirchen", "addr:state": "Steiermark", "addr:postcode": "8261", "addr:country": "AT", "name": "BILLA AG FIL. 6219", "phone": "059915 06219", "brand": "Merkur", "brand:wikidata": "Q1921857"}, "geometry": {"type": "Point", "coordinates": [15.822931, 47.1013902]}},
{"type": "Feature", "id": "2EwVXen1j9oTzXb_zCKn7-YF4Js=", "properties": {"ref": "00-4104", "@spider": "merkur", "addr:full": "Leondingerstrasse 28", "addr:city": "Traun", "addr:state": "Oberoesterreich", "addr:postcode": "4050", "addr:country": "AT", "name": "BILLA AG FIL. 4104", "phone": "059915 04104", "brand": "Merkur", "brand:wikidata": "Q1921857"}, "geometry": {"type": "Point", "coordinates": [14.2597, 48.241]}},
{"type": "Feature", "id": "Xrv1gXZhogxkmYc97hEVmIapsbQ=", "properties": {"ref": "00-1108", "@spider": "merkur", "addr:full": "Simmeringer Hauptstr. 47-49", "addr:city": "Wien", "addr:state": "Wien", "addr:postcode": "1110", "addr:country": "AT", "name": "BILLA AG FIL. 1108", "phone": "059915 01108", "brand": "Merkur", "brand:wikidata": "Q1921857"}, "geometry": {"type": "Point", "coordinates": [16.4108937, 48.1797037]}},
{"type": "Feature", "id": "QBqYoD6rNssB1p3xmstpygWs4Ak=", "properties": {"ref": "00-7733", "@spider": "merkur", "addr:full": "Klagenfurter Strasse 40a", "addr:city": "Wolfsberg", "addr:state": "Kaernten", "addr:postcode": "9400", "addr:country": "AT", "name": "BILLA AG FIL. 7733", "phone": "059915 07733", "brand": "Merkur", "brand:wikidata": "Q1921857"}, "geometry": {"type": "Point", "coordinates": [14.834267, 46.81949]}},
{"type": "Feature", "id": "26ffark7G4Maakubtatdw4k59lg=", "properties": {"ref": "00-3044", "@spider": "merkur", "addr:full": "Donauwoerther Str. 46-48", "addr:city": "Perchtoldsdorf", "addr:state": "Niederoesterreich", "addr:postcode": "2380", "addr:country": "AT", "name": "BILLA AG FIL. 3044", "phone": "059915 03044", "brand": "Merkur", "brand:wikidata": "Q1921857"}, "geometry": {"type": "Point", "coordinates": [16.2655797, 48.1240036]}},
{"type": "Feature", "id": "4FcYcV0D0634un4xKjAL_RXXrF4=", "properties": {"ref": "00-3131", "@spider": "merkur", "addr:full": "An Der Bundesstrasse 2", "addr:city": "Krumbach", "addr:state": "Niederoesterreich", "addr:postcode": "2851", "addr:country": "AT", "name": "BILLA AG FIL. 3131", "phone": "059915 03131", "brand": "Merkur", "brand:wikidata": "Q1921857"}, "geometry": {"type": "Point", "coordinates": [16.1905307, 47.5229714]}},
{"type": "Feature", "id": "KPFoHyL7efbJSUfFdAEK-t4zxqs=", "properties": {"ref": "00-1631", "@spider": "merkur", "addr:full": "Huttengasse 18, Stiege 3", "addr:city": "Wien", "addr:state": "Wien", "addr:postcode": "1160", "addr:country": "AT", "name": "BILLA AG FIL. 1631", "phone": "059915 01631", "brand": "Merkur", "brand:wikidata": "Q1921857"}, "geometry": {"type": "Point", "coordinates": [16.3080351, 48.2040106]}},
{"type": "Feature", "id": "_8JHMkuqhmSyZT6gShP9Yv9nndw=", "properties": {"ref": "00-5019", "@spider": "merkur", "addr:full": "Fuschlerstrasse 10", "addr:city": "Thalgau", "addr:state": "Salzburg", "addr:postcode": "5303", "addr:country": "AT", "name": "BILLA AG FIL. 5019", "phone": "059915 05019", "brand": "Merkur", "brand:wikidata": "Q1921857"}, "geometry": {"type": "Point", "coordinates": [13.254316, 47.840048]}},
{"type": "Feature", "id": "-1F3pk4d_EA_B_pu11qCxDX3sZo=", "properties": {"ref": "00-119", "@spider": "merkur", "addr:full": "Neuer Markt 17 / Herrnhuterhaus", "addr:city": "Wien", "addr:state": "Wien", "addr:postcode": "1010", "addr:country": "AT", "name": "BILLA AG CORSO FIL. 119", "phone": "059915 00119", "brand": "Merkur", "brand:wikidata": "Q1921857"}, "geometry": {"type": "Point", "coordinates": [16.3709682, 48.2068637]}},
{"type": "Feature", "id": "ZiERCKrddPPMbxZDtiNPYTxRvDE=", "properties": {"ref": "00-4601", "@spider": "merkur", "addr:full": "Eichenstrasse 15", "addr:city": "Marchtrenk", "addr:state": "Oberoesterreich", "addr:postcode": "4614", "addr:country": "AT", "name": "BILLA AG FIL. 4601", "phone": "059915 04601", "brand": "Merkur", "brand:wikidata": "Q1921857"}, "geometry": {"type": "Point", "coordinates": [14.115639, 48.194556]}},
{"type": "Feature", "id": "aDjTUcsGftFYeEi95cwg27uITd4=", "properties": {"ref": "00-3162", "@spider": "merkur", "addr:full": "Lilienfelder Strasse 10", "addr:city": "Wilhelmsburg", "addr:state": "Niederoesterreich", "addr:postcode": "3150", "addr:country": "AT", "name": "BILLA AG FIL. 3162", "phone": "059915 03162", "brand": "Merkur", "brand:wikidata": "Q1921857"}, "geometry": {"type": "Point", "coordinates": [15.6005285, 48.1008442]}},
{"type": "Feature", "id": "BnBkG92Bwg2oRK8LFCH68XPGm_0=", "properties": {"ref": "00-3001", "@spider": "merkur", "addr:full": "Neunkirchner Strasse 107", "addr:city": "Wiener Neustadt", "addr:state": "Niederoesterreich", "addr:postcode": "2700", "addr:country": "AT", "name": "BILLA AG FIL. 3001", "phone": "059915 03001", "brand": "Merkur", "brand:wikidata": "Q1921857"}, "geometry": {"type": "Point", "coordinates": [16.22691, 47.79948]}},
{"type": "Feature", "id": "SyHqjnUo_XCAAm87uQJGcmhNxjo=", "properties": {"ref": "00-3275", "@spider": "merkur", "addr:full": "Marktstrasse 1", "addr:city": "Matzendorf", "addr:state": "Niederoesterreich", "addr:postcode": "2751", "addr:country": "AT", "name": "BILLA AG FIL. 3275", "phone": "059915 03275", "brand": "Merkur", "brand:wikidata": "Q1921857"}, "geometry": {"type": "Point", "coordinates": [16.218739, 47.888478]}},
{"type": "Feature", "id": "Vw5l4bp3hBjGcHhEFnQd7Ad-i3Y=", "properties": {"ref": "00-4401", "@spider": "merkur", "addr:full": "Schaunbergstrasse 24", "addr:city": "Hartkirchen", "addr:state": "Oberoesterreich", "addr:postcode": "4081", "addr:country": "AT", "name": "BILLA AG FIL. 4401", "phone": "059915 04401", "brand": "Merkur", "brand:wikidata": "Q1921857"}, "geometry": {"type": "Point", "coordinates": [13.996572, 48.35978]}},
{"type": "Feature", "id": "rtxzujXfcI_ckxDu0WMImmSAshY=", "properties": {"ref": "00-225", "@spider": "merkur", "addr:full": "Malzgasse 8/Schiffamtsgasse 15", "addr:city": "Wien", "addr:state": "Wien", "addr:postcode": "1020", "addr:country": "AT", "name": "BILLA AG FIL. 225", "phone": "059915 00225", "brand": "Merkur", "brand:wikidata": "Q1921857"}, "geometry": {"type": "Point", "coordinates": [16.3755326, 48.2197827]}},
{"type": "Feature", "id": "0GK2AAuDFMISyyKHKCBJC80K6OY=", "properties": {"ref": "00-6812", "@spider": "merkur", "addr:full": "Coburgstrasse 53", "addr:city": "Schladming", "addr:state": "Steiermark", "addr:postcode": "8970", "addr:country": "AT", "name": "BILLA AG FIL. 6812", "phone": "059915 06812", "brand": "Merkur", "brand:wikidata": "Q1921857"}, "geometry": {"type": "Point", "coordinates": [13.6928, 47.39326]}},
{"type": "Feature", "id": "XfiGW8h4yi4_RxGGQL8DKMY9wh4=", "properties": {"ref": "00-3235", "@spider": "merkur", "addr:full": "Rathausviertel 4", "addr:city": "Guntramsdorf", "addr:state": "Niederoesterreich", "addr:postcode": "2353", "addr:country": "AT", "name": "BILLA AG FIL. 3235", "phone": "059915 03235", "brand": "Merkur", "brand:wikidata": "Q1921857"}, "geometry": {"type": "Point", "coordinates": [16.31247602721, 48.0484263]}},
{"type": "Feature", "id": "j0bilfe-GZLdbMGVw2pwR5DCM7U=", "properties": {"ref": "00-7743", "@spider": "merkur", "addr:full": "Grazer Strasse 136", "addr:city": "Oberwart", "addr:state": "Burgenland", "addr:postcode": "7400", "addr:country": "AT", "name": "BILLA AG FIL. 7743", "phone": "059915 07743", "brand": "Merkur", "brand:wikidata": "Q1921857"}, "geometry": {"type": "Point", "coordinates": [16.1858755, 47.2842942]}},
{"type": "Feature", "id": "wDKI58QkZMsBjvxxO7ZAIsGBZoA=", "properties": {"ref": "00-6816", "@spider": "merkur", "addr:full": "Koeroesistrasse 66b", "addr:city": "Graz", "addr:state": "Steiermark", "addr:postcode": "8010", "addr:country": "AT", "name": "BILLA AG FIL. 6816", "phone": "059915 06816", "brand": "Merkur", "brand:wikidata": "Q1921857"}, "geometry": {"type": "Point", "coordinates": [15.43101, 47.08332]}},
{"type": "Feature", "id": "HcgUYRgeBecQ7y15HYmsY3f6gNI=", "properties": {"ref": "00-3709", "@spider": "merkur", "addr:full": "Hauptstrasse Silberwald 315-325", "addr:city": "Strasshof", "addr:state": "Niederoesterreich", "addr:postcode": "2231", "addr:country": "AT", "name": "BILLA AG FIL. 3709", "phone": "059915 03709", "brand": "Merkur", "brand:wikidata": "Q1921857"}, "geometry": {"type": "Point", "coordinates": [16.65485, 48.32083]}},
{"type": "Feature", "id": "dfGPRKj_o03kAnX5e7uH8KSIalI=", "properties": {"ref": "00-7263", "@spider": "merkur", "addr:full": "Industriegel\u00e4nde 2", "addr:city": "Forchtenstein", "addr:state": "Burgenland", "addr:postcode": "7212", "addr:country": "AT", "name": "BILLA AG FIL. 7263", "phone": "059915 07263", "brand": "Merkur", "brand:wikidata": "Q1921857"}, "geometry": {"type": "Point", "coordinates": [16.36815, 47.7172]}},
{"type": "Feature", "id": "4m1fjbJeX252Hhst13yl7m-bFJM=", "properties": {"ref": "00-7820", "@spider": "merkur", "addr:full": "Abstimmungsstrasse 41", "addr:city": "Klagenfurt-Viktring", "addr:state": "Kaernten", "addr:postcode": "9073", "addr:country": "AT", "name": "BILLA AG FIL. 7820", "phone": "059915 07820", "brand": "Merkur", "brand:wikidata": "Q1921857"}, "geometry": {"type": "Point", "coordinates": [14.27332, 46.59063]}},
{"type": "Feature", "id": "mYqKzcdGOCbRVACC40FHMpKcp7c=", "properties": {"ref": "00-7527", "@spider": "merkur", "addr:full": "Hauptbahnhof", "addr:city": "Klagenfurt", "addr:state": "Kaernten", "addr:postcode": "9020", "addr:country": "AT", "name": "BILLA AG FIL. 7527", "phone": "059915 07527", "brand": "Merkur", "brand:wikidata": "Q1921857"}, "geometry": {"type": "Point", "coordinates": [14.31414, 46.61628]}},
{"type": "Feature", "id": "YXc26o6nYt-ZHPmBonk78RYPIPw=", "properties": {"ref": "00-4756", "@spider": "merkur", "addr:full": "Aegydiplatz 2", "addr:city": "Thalheim Bei Wels", "addr:state": "Oberoesterreich", "addr:postcode": "4600", "addr:country": "AT", "name": "BILLA AG FIL. 4756", "phone": "059915 04756", "brand": "Merkur", "brand:wikidata": "Q1921857"}, "geometry": {"type": "Point", "coordinates": [14.02821, 48.1518]}},
{"type": "Feature", "id": "GEWO0YBG5z8V1FD31wwPhkmcqHo=", "properties": {"ref": "00-5115", "@spider": "merkur", "addr:full": "Bundesstrasse 18", "addr:city": "St. Johann Im Pongau", "addr:state": "Salzburg", "addr:postcode": "5600", "addr:country": "AT", "name": "BILLA AG FIL. 5115", "phone": "059915 05115", "brand": "Merkur", "brand:wikidata": "Q1921857"}, "geometry": {"type": "Point", "coordinates": [13.194, 47.35013]}},
{"type": "Feature", "id": "cTM_wq_DFcVBlRZj_mWUOJ4qDEY=", "properties": {"ref": "00-5381", "@spider": "merkur", "addr:full": "Unterbergstrasse 74", "addr:city": "Grossarl", "addr:state": "Salzburg", "addr:postcode": "5611", "addr:country": "AT", "name": "BILLA AG FIL. 5381", "phone": "059915 05381", "brand": "Merkur", "brand:wikidata": "Q1921857"}, "geometry": {"type": "Point", "coordinates": [13.19582, 47.24106]}},
{"type": "Feature", "id": "dq50kOwD1Ndm_xFK8KGAb43pIXI=", "properties": {"ref": "00-3506", "@spider": "merkur", "addr:full": "Prager Strasse 83", "addr:city": "Horn", "addr:state": "Niederoesterreich", "addr:postcode": "3580", "addr:country": "AT", "name": "BILLA AG FIL. 3506", "phone": "059915 03506", "brand": "Merkur", "brand:wikidata": "Q1921857"}, "geometry": {"type": "Point", "coordinates": [15.6383126, 48.6639809]}},
{"type": "Feature", "id": "fgCSlpQHsLWp8kqWlQZaNUQB7gI=", "properties": {"ref": "00-1017", "@spider": "merkur", "addr:full": "Fuerthweg 12", "addr:city": "Wien", "addr:state": "Wien", "addr:postcode": "1130", "addr:country": "AT", "name": "BILLA AG FIL. 1017", "phone": "059915 01017", "brand": "Merkur", "brand:wikidata": "Q1921857"}, "geometry": {"type": "Point", "coordinates": [16.2883, 48.1705]}},
{"type": "Feature", "id": "iJNXuiydmWwxdGUwNZg9fEJa5jQ=", "properties": {"ref": "00-3349", "@spider": "merkur", "addr:full": "Hoferstrasse 2", "addr:city": "Sieghartskirchen", "addr:state": "Niederoesterreich", "addr:postcode": "3443", "addr:country": "AT", "name": "BILLA AG FIL. 3349", "phone": "059915 03349", "brand": "Merkur", "brand:wikidata": "Q1921857"}, "geometry": {"type": "Point", "coordinates": [16.006678, 48.256137]}},
{"type": "Feature", "id": "HiW303ophaRHzk4Ma_JZmjMdBco=", "properties": {"ref": "00-6850", "@spider": "merkur", "addr:full": "Hauptstrasse 70", "addr:city": "Rosental An Der Kainach", "addr:state": "Steiermark", "addr:postcode": "8582", "addr:country": "AT", "name": "BILLA AG FIL. 6850", "phone": "059915 06850", "brand": "Merkur", "brand:wikidata": "Q1921857"}, "geometry": {"type": "Point", "coordinates": [15.116589, 47.055095]}},
{"type": "Feature", "id": "E3QQaZ72y2BVPaDXN-yTUBynxPo=", "properties": {"ref": "00-3284", "@spider": "merkur", "addr:full": "St. P\u00f6ltner Strasse 55", "addr:city": "Hofstetten", "addr:state": "Niederoesterreich", "addr:postcode": "3202", "addr:country": "AT", "name": "BILLA AG FIL. 3284", "phone": "059915 03284", "brand": "Merkur", "brand:wikidata": "Q1921857"}, "geometry": {"type": "Point", "coordinates": [15.5175, 48.1011]}},
{"type": "Feature", "id": "6Rjasdo70qAP1Mw2nisC1Qkq2FY=", "properties": {"ref": "00-1901", "@spider": "merkur", "addr:full": "Sieveringer Strasse 4-10", "addr:city": "Wien", "addr:state": "Wien", "addr:postcode": "1190", "addr:country": "AT", "name": "BILLA AG FIL. 1901", "phone": "059915 01901", "brand": "Merkur", "brand:wikidata": "Q1921857"}, "geometry": {"type": "Point", "coordinates": [16.3408, 48.2458]}},
{"type": "Feature", "id": "A-g7WqkD2A5bqglsdOqLRwS5ZBI=", "properties": {"ref": "00-226", "@spider": "merkur", "addr:full": "Franzensbrueckenstrasse 20", "addr:city": "Wien", "addr:state": "Wien", "addr:postcode": "1020", "addr:country": "AT", "name": "BILLA AG FIL. 226", "phone": "059915 00226", "brand": "Merkur", "brand:wikidata": "Q1921857"}, "geometry": {"type": "Point", "coordinates": [16.3908, 48.215]}},
{"type": "Feature", "id": "AzPRRGTc7er_xG-a_v8P63K7Sqc=", "properties": {"ref": "00-3102", "@spider": "merkur", "addr:full": "Obergrafendorferstrasse 15", "addr:city": "St. Poelten", "addr:state": "Niederoesterreich", "addr:postcode": "3100", "addr:country": "AT", "name": "BILLA AG FIL. 3102", "phone": "059915 03102", "brand": "Merkur", "brand:wikidata": "Q1921857"}, "geometry": {"type": "Point", "coordinates": [15.6133, 48.1702]}},
{"type": "Feature", "id": "YfwYf0Fzlq65gGnij2YOcfeanQ4=", "properties": {"ref": "00-3979", "@spider": "merkur", "addr:full": "Strasse Zur Autobahn 10", "addr:city": "Haag", "addr:state": "Niederoesterreich", "addr:postcode": "3350", "addr:country": "AT", "name": "BILLA AG FIL. 3979", "phone": "059915 03979", "brand": "Merkur", "brand:wikidata": "Q1921857"}, "geometry": {"type": "Point", "coordinates": [14.57184, 48.11447]}},
{"type": "Feature", "id": "pb_r_ghzvdSxyz6GnyZesRARw9w=", "properties": {"ref": "00-3120", "@spider": "merkur", "addr:full": "Hauptstrasse 105 A", "addr:city": "Breitenfurt", "addr:state": "Niederoesterreich", "addr:postcode": "2384", "addr:country": "AT", "name": "BILLA AG FIL. 3120", "phone": "059915 03120", "brand": "Merkur", "brand:wikidata": "Q1921857"}, "geometry": {"type": "Point", "coordinates": [16.1912248, 48.1356843]}},
{"type": "Feature", "id": "O70QVGv-SbbgRbEOP2jrmpO9KDk=", "properties": {"ref": "00-1628", "@spider": "merkur", "addr:full": "Wernhardtstrasse 24", "addr:city": "Wien", "addr:state": "Wien", "addr:postcode": "1160", "addr:country": "AT", "name": "BILLA AG FIL. 1628", "phone": "059915 01628", "brand": "Merkur", "brand:wikidata": "Q1921857"}, "geometry": {"type": "Point", "coordinates": [16.3053313, 48.2087592]}},
{"type": "Feature", "id": "jhs0hesjErfjKJgxPHWvNqdHP2o=", "properties": {"ref": "00-4524", "@spider": "merkur", "addr:full": "Althauserstr. 16", "addr:city": "Pregarten", "addr:state": "Oberoesterreich", "addr:postcode": "4230", "addr:country": "AT", "name": "BILLA AG FIL. 4524", "phone": "059915 04524", "brand": "Merkur", "brand:wikidata": "Q1921857"}, "geometry": {"type": "Point", "coordinates": [14.5294643, 48.3483466]}},
{"type": "Feature", "id": "a_gHBVvFn81Y0liWiLZyKqbtauw=", "properties": {"ref": "00-6306", "@spider": "merkur", "addr:full": "Industriepark 6", "addr:city": "Muehldorf Bei Feldbach", "addr:state": "Steiermark", "addr:postcode": "8330", "addr:country": "AT", "name": "BILLA AG FIL. 6306", "phone": "059915 06306", "brand": "Merkur", "brand:wikidata": "Q1921857"}, "geometry": {"type": "Point", "coordinates": [15.9152678, 46.9474745]}},
{"type": "Feature", "id": "hCqEnS67TwSWKlY54CjbFo1oOvk=", "properties": {"ref": "00-7780", "@spider": "merkur", "addr:full": "Millstaetter Str.103", "addr:city": "Afritz", "addr:state": "Kaernten", "addr:postcode": "9542", "addr:country": "AT", "name": "BILLA AG FIL. 7780", "phone": "059915 07780", "brand": "Merkur", "brand:wikidata": "Q1921857"}, "geometry": {"type": "Point", "coordinates": [13.78302, 46.72971]}},
{"type": "Feature", "id": "vGEjUIt7_KwGMqdUg9MZU45QOUQ=", "properties": {"ref": "00-829", "@spider": "merkur", "addr:full": "Skodagasse 8", "addr:city": "Wien", "addr:state": "Wien", "addr:postcode": "1080", "addr:country": "AT", "name": "BILLA AG FIL. 829", "phone": "059915 00829", "brand": "Merkur", "brand:wikidata": "Q1921857"}, "geometry": {"type": "Point", "coordinates": [16.345476, 48.2122029]}},
{"type": "Feature", "id": "HO-JTWCIHg-hYAoScfISwoZKkgE=", "properties": {"ref": "00-841", "@spider": "merkur", "addr:full": "Florianigasse 11", "addr:city": "Wien", "addr:state": "Wien", "addr:postcode": "1080", "addr:country": "AT", "name": "BILLA AG FIL. 841", "phone": "059915 00841", "brand": "Merkur", "brand:wikidata": "Q1921857"}, "geometry": {"type": "Point", "coordinates": [16.3530395, 48.2119501]}},
{"type": "Feature", "id": "TK_GijBkDG2HKyzrYGfJ_LKYaqo=", "properties": {"ref": "00-936", "@spider": "merkur", "addr:full": "Wilhelm Exner Gasse 13", "addr:city": "Wien", "addr:state": "Wien", "addr:postcode": "1090", "addr:country": "AT", "name": "BILLA AG FIL. 936", "phone": "059915 00936", "brand": "Merkur", "brand:wikidata": "Q1921857"}, "geometry": {"type": "Point", "coordinates": [16.35211, 48.22418]}},
{"type": "Feature", "id": "RjA9FQ4yJ5PlViWeVco5gTh2MVo=", "properties": {"ref": "00-2115", "@spider": "merkur", "addr:full": "Floridusgasse 2", "addr:city": "Wien", "addr:state": "Wien", "addr:postcode": "1210", "addr:country": "AT", "name": "BILLA AG FIL. 2115", "phone": "059915 02115", "brand": "Merkur", "brand:wikidata": "Q1921857"}, "geometry": {"type": "Point", "coordinates": [16.40531, 48.25155]}},
{"type": "Feature", "id": "XBRBt9om1bQ8gyFmZcfDkUd9N0M=", "properties": {"ref": "00-5363", "@spider": "merkur", "addr:full": "Innsbruckerbundesstr. 63", "addr:city": "Salzburg", "addr:state": "Salzburg", "addr:postcode": "5020", "addr:country": "AT", "name": "BILLA AG FIL. 5363", "phone": "059915 05363", "brand": "Merkur", "brand:wikidata": "Q1921857"}, "geometry": {"type": "Point", "coordinates": [13.015161, 47.801253]}},
{"type": "Feature", "id": "FauSC1UuFCdY_Bc3pTH79urb21s=", "properties": {"ref": "00-448", "@spider": "merkur", "addr:full": "Johann Strauss Gasse 24", "addr:city": "Wien", "addr:state": "Wien", "addr:postcode": "1040", "addr:country": "AT", "name": "BILLA AG FIL. 448", "phone": "059915 00448", "brand": "Merkur", "brand:wikidata": "Q1921857"}, "geometry": {"type": "Point", "coordinates": [16.368036, 48.187597]}},
{"type": "Feature", "id": "P5WDtUaPTuc5-jo_kmVVrAl_Bhg=", "properties": {"ref": "00-3569", "@spider": "merkur", "addr:full": "Siegfried Marcus-Str. 18", "addr:city": "Biedermannsdorf", "addr:state": "Niederoesterreich", "addr:postcode": "2362", "addr:country": "AT", "name": "BILLA AG FIL. 3569", "phone": "059915 03569", "brand": "Merkur", "brand:wikidata": "Q1921857"}, "geometry": {"type": "Point", "coordinates": [16.35823, 48.08508]}},
{"type": "Feature", "id": "M36VVz8hNsbnvJ3pUD_bEYG-YrI=", "properties": {"ref": "00-4580", "@spider": "merkur", "addr:full": "Linzerstrasse 8", "addr:city": "Altheim", "addr:state": "Oberoesterreich", "addr:postcode": "4950", "addr:country": "AT", "name": "BILLA AG FIL. 4580", "phone": "059915 04580", "brand": "Merkur", "brand:wikidata": "Q1921857"}, "geometry": {"type": "Point", "coordinates": [13.23481, 48.25042]}},
{"type": "Feature", "id": "PiNqd64p_84xgpdCsJrDT_OkPXY=", "properties": {"ref": "00-4671", "@spider": "merkur", "addr:full": "Jaegerstaetterstasse 10", "addr:city": "Linz", "addr:state": "Oberoesterreich", "addr:postcode": "4040", "addr:country": "AT", "name": "BILLA AG FIL. 4671", "phone": "059915 04671", "brand": "Merkur", "brand:wikidata": "Q1921857"}, "geometry": {"type": "Point", "coordinates": [14.30047, 48.33552]}},
{"type": "Feature", "id": "581cCfiPENZuTDI0bM7nLM13eJA=", "properties": {"ref": "00-4754", "@spider": "merkur", "addr:full": "Kaiser Josef Platz 53", "addr:city": "Wels", "addr:state": "Oberoesterreich", "addr:postcode": "4600", "addr:country": "AT", "name": "BILLA AG FIL. 4754", "phone": "059915 04754", "brand": "Merkur", "brand:wikidata": "Q1921857"}, "geometry": {"type": "Point", "coordinates": [14.02435, 48.16077]}},
{"type": "Feature", "id": "6OrodGIjC0XBkHRUMqS5vDgTXdY=", "properties": {"ref": "00-4200", "@spider": "merkur", "addr:full": "Punzerstrasse 47", "addr:city": "Steyr", "addr:state": "Oberoesterreich", "addr:postcode": "4400", "addr:country": "AT", "name": "BILLA AG FIL. 4200", "phone": "059915 04200", "brand": "Merkur", "brand:wikidata": "Q1921857"}, "geometry": {"type": "Point", "coordinates": [14.43754, 48.05708]}},
{"type": "Feature", "id": "otEeSwBqNaj9km1ZybAVIVFfSDo=", "properties": {"ref": "00-4350", "@spider": "merkur", "addr:full": "Breitenangerstr. 7", "addr:city": "Grein", "addr:state": "Oberoesterreich", "addr:postcode": "4360", "addr:country": "AT", "name": "BILLA AG FIL. 4350", "phone": "059915 04350", "brand": "Merkur", "brand:wikidata": "Q1921857"}, "geometry": {"type": "Point", "coordinates": [14.84654, 48.22828]}},
{"type": "Feature", "id": "UHbBQ-7x8ujfbgMD8ntg5SOl0U4=", "properties": {"ref": "00-3710", "@spider": "merkur", "addr:full": "Joesef Reitherstrasse 49", "addr:city": "Tulln", "addr:state": "Niederoesterreich", "addr:postcode": "3430", "addr:country": "AT", "name": "BILLA AG FIL. 3710", "phone": "059915 03710", "brand": "Merkur", "brand:wikidata": "Q1921857"}, "geometry": {"type": "Point", "coordinates": [16.02864, 48.32331]}},
{"type": "Feature", "id": "Ebca-Nd4A5VFCnIxo68JUTRLoI8=", "properties": {"ref": "00-3140", "@spider": "merkur", "addr:full": "Leopoldstrasse 24", "addr:city": "Klosterneuburg", "addr:state": "Niederoesterreich", "addr:postcode": "3400", "addr:country": "AT", "name": "BILLA AG FIL. 3140", "phone": "059915 03140", "brand": "Merkur", "brand:wikidata": "Q1921857"}, "geometry": {"type": "Point", "coordinates": [16.32685, 48.30304]}},
{"type": "Feature", "id": "8fzRDpZkk4KMvR4oIgORKzO9KfE=", "properties": {"ref": "00-3200", "@spider": "merkur", "addr:full": "Himbergerstrasse 3", "addr:city": "Zwoelfaxing", "addr:state": "Niederoesterreich", "addr:postcode": "2322", "addr:country": "AT", "name": "BILLA AG FIL. 3200", "phone": "01 7063811", "brand": "Merkur", "brand:wikidata": "Q1921857"}, "geometry": {"type": "Point", "coordinates": [16.46217, 48.10923]}},
{"type": "Feature", "id": "7ufaCl-xdkW-vN0YfmRJQOxSAP0=", "properties": {"ref": "00-3418", "@spider": "merkur", "addr:full": "Ernstbrunnerstrasse 6", "addr:city": "Stockerau", "addr:state": "Niederoesterreich", "addr:postcode": "2000", "addr:country": "AT", "name": "BILLA AG FIL. 3418", "phone": "059915 03418", "brand": "Merkur", "brand:wikidata": "Q1921857"}, "geometry": {"type": "Point", "coordinates": [16.21864, 48.38971]}},
{"type": "Feature", "id": "X-foC6Ap7TB6oPpwGoUdhzaNhGs=", "properties": {"ref": "00-2980", "@spider": "merkur", "addr:full": "Heiligenstaedterstr. 161", "addr:city": "Wien", "addr:state": "Wien", "addr:postcode": "1190", "addr:country": "AT", "name": "BILLA AG FIL. 2980", "phone": "059915 02980", "brand": "Merkur", "brand:wikidata": "Q1921857"}, "geometry": {"type": "Point", "coordinates": [16.3653595, 48.2550122]}},
{"type": "Feature", "id": "uXu6x25WJg68OjChDgAdcOnVwBA=", "properties": {"ref": "00-3321", "@spider": "merkur", "addr:full": "Gst. 611/1", "addr:city": "Wien", "addr:state": "Niederoesterreich", "addr:postcode": "1300", "addr:country": "AT", "name": "BILLA AG FIL. 3321", "phone": "059915 03321", "brand": "Merkur", "brand:wikidata": "Q1921857"}, "geometry": {"type": "Point", "coordinates": [16.56317, 48.12502]}},
{"type": "Feature", "id": "3tpMESBWjTenlRJsklF1CNBl9Vg=", "properties": {"ref": "00-7618", "@spider": "merkur", "addr:full": "Stappitz 159", "addr:city": "Mallnitz", "addr:state": "Kaernten", "addr:postcode": "9822", "addr:country": "AT", "name": "BILLA AG FIL. 7618", "phone": "059915 07618", "brand": "Merkur", "brand:wikidata": "Q1921857"}, "geometry": {"type": "Point", "coordinates": [13.17055, 46.9915]}},
{"type": "Feature", "id": "mxM3Xr38Zu6IZYFIFpe5t68xHJA=", "properties": {"ref": "00-8971", "@spider": "merkur", "addr:full": "Eibiswald 119", "addr:city": "Eibiswald", "addr:state": "Steiermark", "addr:postcode": "8552", "addr:country": "AT", "name": "BILLA AG FIL. 8971", "phone": "059915 08971", "brand": "Merkur", "brand:wikidata": "Q1921857"}, "geometry": {"type": "Point", "coordinates": [15.24171, 46.68588]}},
{"type": "Feature", "id": "wpOoL3f43CARhwGdt1-5FY2Fnrc=", "properties": {"ref": "00-9761", "@spider": "merkur", "addr:full": "Wienerstrasse 3", "addr:city": "Muenchendorf", "addr:state": "Niederoesterreich", "addr:postcode": "2482", "addr:country": "AT", "name": "BILLA AG FIL. 9761", "phone": "059915 09761", "brand": "Merkur", "brand:wikidata": "Q1921857"}, "geometry": {"type": "Point", "coordinates": [16.37989, 48.03356]}},
{"type": "Feature", "id": "nizGCPZsxnJNa2GZ5JBFF7HjKqA=", "properties": {"ref": "00-1032", "@spider": "merkur", "addr:full": "Sibeliusstrasse 2a", "addr:city": "Wien", "addr:state": "Wien", "addr:postcode": "1100", "addr:country": "AT", "name": "BILLA AG FIL. 1032", "phone": "059915 01032", "brand": "Merkur", "brand:wikidata": "Q1921857"}, "geometry": {"type": "Point", "coordinates": [16.366114, 48.1593]}},
{"type": "Feature", "id": "PzocH4WzU0XPVBh4YBHO1pLpAb4=", "properties": {"ref": "00-9100", "@spider": "merkur", "addr:full": "Brunngasse 13, Braeuhausg", "addr:city": "St. Poelten", "addr:state": "Niederoesterreich", "addr:postcode": "3100", "addr:country": "AT", "name": "BILLA AG FIL. 9100", "phone": "059915 09100", "brand": "Merkur", "brand:wikidata": "Q1921857"}, "geometry": {"type": "Point", "coordinates": [15.6225777, 48.2067355]}},
{"type": "Feature", "id": "FFWc0-XnXhzL2MbHAt7pQeWdgq0=", "properties": {"ref": "00-9845", "@spider": "merkur", "addr:full": "Schuetzengasse 36", "addr:city": "Baden", "addr:state": "Niederoesterreich", "addr:postcode": "2500", "addr:country": "AT", "name": "BILLA AG FIL. 9845", "phone": "059915 09845", "brand": "Merkur", "brand:wikidata": "Q1921857"}, "geometry": {"type": "Point", "coordinates": [16.24978, 47.9983]}},
{"type": "Feature", "id": "432xXAVOdFmhr-mAxoTcZLeFOUo=", "properties": {"ref": "00-7328", "@spider": "merkur", "addr:full": "Neufelderstrasse 21", "addr:city": "Hornstein", "addr:state": "Burgenland", "addr:postcode": "7053", "addr:country": "AT", "name": "BILLA AG FIL. 7328", "phone": "059915 07328", "brand": "Merkur", "brand:wikidata": "Q1921857"}, "geometry": {"type": "Point", "coordinates": [16.4310722, 47.872322]}},
{"type": "Feature", "id": "X3ym-vJFTOI6i1eGEhvw3GomrPk=", "properties": {"ref": "00-1580", "@spider": "merkur", "addr:full": "Kundratstr. 16 Gegenueber", "addr:city": "Wien", "addr:state": "Wien", "addr:postcode": "1100", "addr:country": "AT", "name": "BILLA AG FIL. 1580", "phone": "059915 01580", "brand": "Merkur", "brand:wikidata": "Q1921857"}, "geometry": {"type": "Point", "coordinates": [16.348542, 48.175111]}},
{"type": "Feature", "id": "vQSdcMI9SbDHaRICi6cwCuGxyGA=", "properties": {"ref": "00-3985", "@spider": "merkur", "addr:full": "Hauptstr.151a", "addr:city": "Ratzersdorf", "addr:state": "Niederoesterreich", "addr:postcode": "3100", "addr:country": "AT", "name": "BILLA AG FIL. 3985", "phone": "059915 03985", "brand": "Merkur", "brand:wikidata": "Q1921857"}, "geometry": {"type": "Point", "coordinates": [15.67702, 48.22873]}},
{"type": "Feature", "id": "cUKE3bz_i4neX9bDTUww0cTvvmg=", "properties": {"ref": "00-3819", "@spider": "merkur", "addr:full": "Markt 343", "addr:city": "Kirchberg/Wechsel", "addr:state": "Niederoesterreich", "addr:postcode": "2880", "addr:country": "AT", "name": "BILLA AG FIL. 3819", "phone": "059915 03819", "brand": "Merkur", "brand:wikidata": "Q1921857"}, "geometry": {"type": "Point", "coordinates": [15.99568, 47.60785]}},
{"type": "Feature", "id": "0rPPESMpg7zbL1OHze2Y5kFbk-s=", "properties": {"ref": "00-9209", "@spider": "merkur", "addr:full": "Fischamenderstr. 2", "addr:city": "Schwadorf", "addr:state": "Niederoesterreich", "addr:postcode": "2432", "addr:country": "AT", "name": "BILLA AG FIL. 9209", "phone": "059915 09209", "brand": "Merkur", "brand:wikidata": "Q1921857"}, "geometry": {"type": "Point", "coordinates": [16.58322, 48.07113]}},
{"type": "Feature", "id": "Th8hRUiJAWaE9J2KMd-IlC4ES6I=", "properties": {"ref": "00-4088", "@spider": "merkur", "addr:full": "Eisenhandstrasse 42", "addr:city": "Linz", "addr:state": "Oberoesterreich", "addr:postcode": "4020", "addr:country": "AT", "name": "BILLA AG FIL. 4088", "phone": "059915 04088", "brand": "Merkur", "brand:wikidata": "Q1921857"}, "geometry": {"type": "Point", "coordinates": [14.2999, 48.30209]}},
{"type": "Feature", "id": "b1ZuQVSj2Vx3yAskE39kRVrKzTA=", "properties": {"ref": "00-7058", "@spider": "merkur", "addr:full": "Stoob-Sued Nr. 58", "addr:city": "Stoob", "addr:state": "Burgenland", "addr:postcode": "7344", "addr:country": "AT", "name": "BILLA AG FIL. 7058", "phone": "059915 07058", "brand": "Merkur", "brand:wikidata": "Q1921857"}, "geometry": {"type": "Point", "coordinates": [16.48796, 47.5137]}},
{"type": "Feature", "id": "0S2xVD1j2ZrrlGC1yLfuxti2JNY=", "properties": {"ref": "00-6979", "@spider": "merkur", "addr:full": "St.Margareten 233", "addr:city": "St.Margarethen/", "addr:state": "Steiermark", "addr:postcode": "8321", "addr:country": "AT", "name": "BILLA AG FIL. 6979", "phone": "059915 06979", "brand": "Merkur", "brand:wikidata": "Q1921857"}, "geometry": {"type": "Point", "coordinates": [15.7468, 47.0451]}},
{"type": "Feature", "id": "HO9sCdeU-QLNz9pHO7Bgy1M7QSE=", "properties": {"ref": "00-3579", "@spider": "merkur", "addr:full": "Ziegelofenstr.3", "addr:city": "Allentsteig", "addr:state": "Niederoesterreich", "addr:postcode": "3804", "addr:country": "AT", "name": "BILLA AG FIL. 3579", "phone": "059915 03579", "brand": "Merkur", "brand:wikidata": "Q1921857"}, "geometry": {"type": "Point", "coordinates": [15.32024, 48.70095]}},
{"type": "Feature", "id": "9oH506YU26k47BMv6IYDxYxzqb8=", "properties": {"ref": "00-3983", "@spider": "merkur", "addr:full": "Hauptstr. 59", "addr:city": "Blindenmarkt", "addr:state": "Niederoesterreich", "addr:postcode": "3372", "addr:country": "AT", "name": "BILLA AG FIL. 3983", "phone": "059915 03983", "brand": "Merkur", "brand:wikidata": "Q1921857"}, "geometry": {"type": "Point", "coordinates": [14.98149, 48.12679]}},
{"type": "Feature", "id": "h4zyFHAHACgEVG_-a1N449OMrGE=", "properties": {"ref": "00-3633", "@spider": "merkur", "addr:full": "Hainfelderstrasse 41", "addr:city": "Boeheimkirchen", "addr:state": "Niederoesterreich", "addr:postcode": "3071", "addr:country": "AT", "name": "BILLA AG FIL. 3633", "phone": "059915 03633", "brand": "Merkur", "brand:wikidata": "Q1921857"}, "geometry": {"type": "Point", "coordinates": [15.76611, 48.19136]}},
{"type": "Feature", "id": "-Y8N1Jibeobz_SS-fOUgiVrenI4=", "properties": {"ref": "00-6809", "@spider": "merkur", "addr:full": "Theodor Koerner-Str.122", "addr:city": "Graz", "addr:state": "Steiermark", "addr:postcode": "8010", "addr:country": "AT", "name": "BILLA AG FIL. 6809", "phone": "059915 06809", "brand": "Merkur", "brand:wikidata": "Q1921857"}, "geometry": {"type": "Point", "coordinates": [15.42873, 47.08907]}},
{"type": "Feature", "id": "nlhtjo1JWQl8wK_qw5Mbqkd-aqk=", "properties": {"ref": "00-6916", "@spider": "merkur", "addr:full": "Draschestrasse 5", "addr:city": "Leoben", "addr:state": "Steiermark", "addr:postcode": "8700", "addr:country": "AT", "name": "BILLA AG FIL. 6916", "phone": "059915 06916", "brand": "Merkur", "brand:wikidata": "Q1921857"}, "geometry": {"type": "Point", "coordinates": [15.09902, 47.38332]}},
{"type": "Feature", "id": "mjEN67eHvpG_EJ9iaRbF5K3k7UE=", "properties": {"ref": "00-5066", "@spider": "merkur", "addr:full": "Kurgartenstrasse 2-6", "addr:city": "Bad Hofgastein", "addr:state": "Salzburg", "addr:postcode": "5630", "addr:country": "AT", "name": "BILLA AG FIL. 5066", "phone": "059915 05066", "brand": "Merkur", "brand:wikidata": "Q1921857"}, "geometry": {"type": "Point", "coordinates": [13.10465, 47.17158]}},
{"type": "Feature", "id": "4qpXVoeHFfO8ufd3T3lOFoI-TIc=", "properties": {"ref": "00-5199", "@spider": "merkur", "addr:full": "Weitmoserstrasse 2", "addr:city": "Bad Hofgastein", "addr:state": "Salzburg", "addr:postcode": "5630", "addr:country": "AT", "name": "BILLA AG FIL. 5199", "phone": "059915 05199", "brand": "Merkur", "brand:wikidata": "Q1921857"}, "geometry": {"type": "Point", "coordinates": [13.10646, 47.15766]}},
{"type": "Feature", "id": "SPjfQjVMTha2hT22OPKyzTVNeYE=", "properties": {"ref": "00-4713", "@spider": "merkur", "addr:full": "Mayrhansenstrasse 28", "addr:city": "Leonding", "addr:state": "Oberoesterreich", "addr:postcode": "4060", "addr:country": "AT", "name": "BILLA AG FIL. 4713", "phone": "059915 04713", "brand": "Merkur", "brand:wikidata": "Q1921857"}, "geometry": {"type": "Point", "coordinates": [14.2519862, 48.2760444]}},
{"type": "Feature", "id": "Dbc1Ebqn3MEh2CDL63C4Ua-Rnz0=", "properties": {"ref": "00-4002", "@spider": "merkur", "addr:full": "Dauphinestr. 29", "addr:city": "Linz", "addr:state": "Oberoesterreich", "addr:postcode": "4030", "addr:country": "AT", "name": "BILLA AG FIL. 4002", "phone": "059915 04002", "brand": "Merkur", "brand:wikidata": "Q1921857"}, "geometry": {"type": "Point", "coordinates": [14.3096422, 48.2533012]}},
{"type": "Feature", "id": "1ZkSLEHz2fShX1jAnQAqQJm53iM=", "properties": {"ref": "00-4127", "@spider": "merkur", "addr:full": "Greinerstrasse 2-4", "addr:city": "Kremsmuenster", "addr:state": "Oberoesterreich", "addr:postcode": "4550", "addr:country": "AT", "name": "BILLA AG FIL. 4127", "phone": "059915 04127", "brand": "Merkur", "brand:wikidata": "Q1921857"}, "geometry": {"type": "Point", "coordinates": [14.1318, 48.0505]}},
{"type": "Feature", "id": "c5AAntB9lgIB8pxK3643tqlh7a0=", "properties": {"ref": "00-3150", "@spider": "merkur", "addr:full": "Dr.Gschmeidlerstrasse 16", "addr:city": "Krems", "addr:state": "Niederoesterreich", "addr:postcode": "3500", "addr:country": "AT", "name": "BILLA AG FIL. 3150", "phone": "059915 03150", "brand": "Merkur", "brand:wikidata": "Q1921857"}, "geometry": {"type": "Point", "coordinates": [15.61427, 48.40834]}},
{"type": "Feature", "id": "QX7yP9V9RQ-jkoq94ncNSjBl8mA=", "properties": {"ref": "00-2709", "@spider": "merkur", "addr:full": "Novigasse 8-10", "addr:city": "Wien", "addr:state": "Wien", "addr:postcode": "1210", "addr:country": "AT", "name": "BILLA AG FIL. 2709", "phone": "059915 02709", "brand": "Merkur", "brand:wikidata": "Q1921857"}, "geometry": {"type": "Point", "coordinates": [16.43994, 48.26222]}},
{"type": "Feature", "id": "qulWLB4ptKSOCruGsGgn0sGtOYE=", "properties": {"ref": "00-2210", "@spider": "merkur", "addr:full": "Hartlebengasse 1-17", "addr:city": "Wien", "addr:state": "Wien", "addr:postcode": "1220", "addr:country": "AT", "name": "BILLA AG FIL. 2210", "phone": "059915 02210", "brand": "Merkur", "brand:wikidata": "Q1921857"}, "geometry": {"type": "Point", "coordinates": [16.45824, 48.22206]}},
{"type": "Feature", "id": "93KWxR3Yzg7_o5d8itdtL9bmnlo=", "properties": {"ref": "00-1417", "@spider": "merkur", "addr:full": "Kendlerstr. 22", "addr:city": "Wien", "addr:state": "Wien", "addr:postcode": "1140", "addr:country": "AT", "name": "BILLA AG FIL. 1417", "phone": "059915 01417", "brand": "Merkur", "brand:wikidata": "Q1921857"}, "geometry": {"type": "Point", "coordinates": [16.3082566, 48.2012851]}},
{"type": "Feature", "id": "zdNAmIlJmFgE7z2ZerihTGZ9z9Q=", "properties": {"ref": "00-1047", "@spider": "merkur", "addr:full": "Quellenstrasse 47", "addr:city": "Wien", "addr:state": "Wien", "addr:postcode": "1100", "addr:country": "AT", "name": "BILLA AG FIL. 1047", "phone": "059915 01047", "brand": "Merkur", "brand:wikidata": "Q1921857"}, "geometry": {"type": "Point", "coordinates": [16.3891722, 48.1736621]}},
{"type": "Feature", "id": "Sax2AgPh_RkntS516bm8Vl5xMUY=", "properties": {"ref": "00-4912", "@spider": "merkur", "addr:full": "Gleinker Hauptstr.1d", "addr:city": "Steyr", "addr:state": "Oberoesterreich", "addr:postcode": "4400", "addr:country": "AT", "name": "BILLA AG FIL. 4912", "phone": "059915 04912", "brand": "Merkur", "brand:wikidata": "Q1921857"}, "geometry": {"type": "Point", "coordinates": [14.42005, 48.06661]}},
{"type": "Feature", "id": "Goawj5hG_NZYJ8KEQlb00Ynk0-E=", "properties": {"ref": "00-6051", "@spider": "merkur", "addr:full": "Birkfelderstrasse 48", "addr:city": "Weiz", "addr:state": "Steiermark", "addr:postcode": "8160", "addr:country": "AT", "name": "BILLA AG FIL. 6051", "phone": "059915 06051", "brand": "Merkur", "brand:wikidata": "Q1921857"}, "geometry": {"type": "Point", "coordinates": [15.632964, 47.218926]}},
{"type": "Feature", "id": "RvD1MKpHaTLzCxOWZC7ZhoV5P-4=", "properties": {"ref": "00-3111", "@spider": "merkur", "addr:full": "Kaiserin Elisabethstrasse 19", "addr:city": "Moedling", "addr:state": "Niederoesterreich", "addr:postcode": "2340", "addr:country": "AT", "name": "BILLA AG FIL. 3111", "phone": "059915 03111", "brand": "Merkur", "brand:wikidata": "Q1921857"}, "geometry": {"type": "Point", "coordinates": [16.282772, 48.0839014]}},
{"type": "Feature", "id": "9Ei8MRUb4fqwv2yIg2myl4KjvBQ=", "properties": {"ref": "00-6349", "@spider": "merkur", "addr:full": "Herrgottwiesgasse 119", "addr:city": "Graz", "addr:state": "Steiermark", "addr:postcode": "8020", "addr:country": "AT", "name": "BILLA AG FIL. 6349", "phone": "059915 06349", "brand": "Merkur", "brand:wikidata": "Q1921857"}, "geometry": {"type": "Point", "coordinates": [15.43441, 47.04773]}},
{"type": "Feature", "id": "HtX9rVj6-ETDRed_QSX-GSkwRYo=", "properties": {"ref": "00-1265", "@spider": "merkur", "addr:full": "Meidlinger Hauptstr. 78-8", "addr:city": "Wien", "addr:state": "Wien", "addr:postcode": "1120", "addr:country": "AT", "name": "BILLA AG FIL. 1265", "phone": "059915 01265", "brand": "Merkur", "brand:wikidata": "Q1921857"}, "geometry": {"type": "Point", "coordinates": [16.3299945, 48.1754452]}},
{"type": "Feature", "id": "h_7xDelWa3u53oDNlD7sIALHV38=", "properties": {"ref": "00-7827", "@spider": "merkur", "addr:full": "St. Martiner Strasse 46", "addr:city": "Villach", "addr:state": "Kaernten", "addr:postcode": "9500", "addr:country": "AT", "name": "BILLA AG FIL. 7827", "phone": "059915 07827", "brand": "Merkur", "brand:wikidata": "Q1921857"}, "geometry": {"type": "Point", "coordinates": [13.8314033, 46.6185242]}},
{"type": "Feature", "id": "is_SLKroo_DbOZM3ZL8umYNITEc=", "properties": {"ref": "00-4879", "@spider": "merkur", "addr:full": "Hubergutstrasse 14", "addr:city": "Steyr", "addr:state": "Oberoesterreich", "addr:postcode": "4400", "addr:country": "AT", "name": "BILLA AG FIL. 4879", "phone": "059915 04879", "brand": "Merkur", "brand:wikidata": "Q1921857"}, "geometry": {"type": "Point", "coordinates": [14.42572, 48.02975]}},
{"type": "Feature", "id": "kAoZ6pcSD3j20meJ5aNQDDGMLi0=", "properties": {"ref": "00-2111", "@spider": "merkur", "addr:full": "Bruenner Strasse 57 D", "addr:city": "Wien", "addr:state": "Wien", "addr:postcode": "1210", "addr:country": "AT", "name": "BILLA AG FIL. 2111", "phone": "059915 02111", "brand": "Merkur", "brand:wikidata": "Q1921857"}, "geometry": {"type": "Point", "coordinates": [16.4029281, 48.267492]}},
{"type": "Feature", "id": "kABPWtCpXdxX7-XWj5xNz6KPWSw=", "properties": {"ref": "00-7611", "@spider": "merkur", "addr:full": "Schillerstrasse 1", "addr:city": "Feldkirchen", "addr:state": "Kaernten", "addr:postcode": "9560", "addr:country": "AT", "name": "BILLA AG FIL. 7611", "phone": "059915 07611", "brand": "Merkur", "brand:wikidata": "Q1921857"}, "geometry": {"type": "Point", "coordinates": [14.08838, 46.72631]}},
{"type": "Feature", "id": "4CbFAPZezzBsDRdXCafNjbs2zws=", "properties": {"ref": "00-1041", "@spider": "merkur", "addr:full": "Quellenstrasse 189-195", "addr:city": "Wien", "addr:state": "Wien", "addr:postcode": "1100", "addr:country": "AT", "name": "BILLA AG FIL. 1041", "phone": "059915 01041", "brand": "Merkur", "brand:wikidata": "Q1921857"}, "geometry": {"type": "Point", "coordinates": [16.36194, 48.17638]}},
{"type": "Feature", "id": "Q_ak6CN3bn0qvCX3kYd7KqnPsGg=", "properties": {"ref": "00-2156", "@spider": "merkur", "addr:full": "Pragerstrasse 286", "addr:city": "Wien", "addr:state": "Wien", "addr:postcode": "1210", "addr:country": "AT", "name": "BILLA AG FIL. 2156", "phone": "059915 02156", "brand": "Merkur", "brand:wikidata": "Q1921857"}, "geometry": {"type": "Point", "coordinates": [16.3778724, 48.2962552]}},
{"type": "Feature", "id": "GDaTg0_nZA0n_PCFDYXpw67UDQw=", "properties": {"ref": "00-2108", "@spider": "merkur", "addr:full": "Angyalf\u00f6ldstrasse 76", "addr:city": "Wien", "addr:state": "Wien", "addr:postcode": "1210", "addr:country": "AT", "name": "BILLA AG FIL. 2108", "phone": "059915 02108", "brand": "Merkur", "brand:wikidata": "Q1921857"}, "geometry": {"type": "Point", "coordinates": [16.4260635, 48.2537982]}},
{"type": "Feature", "id": "6WNrBv_xzGc0JQy2uLrZHEwAAoY=", "properties": {"ref": "00-8171", "@spider": "merkur", "addr:full": "Dorf 39", "addr:city": "Ellmau", "addr:state": "Tirol", "addr:postcode": "6352", "addr:country": "AT", "name": "BILLA AG FIL. 8171", "phone": "059915 08171", "brand": "Merkur", "brand:wikidata": "Q1921857"}, "geometry": {"type": "Point", "coordinates": [12.3050424, 47.513705]}},
{"type": "Feature", "id": "1NPOnTN2DHkmBkPnG5C979K2JX4=", "properties": {"ref": "00-7544", "@spider": "merkur", "addr:full": "Kaerntnerstrasse 1", "addr:city": "Villach", "addr:state": "Kaernten", "addr:postcode": "9500", "addr:country": "AT", "name": "BILLA AG FIL. 7544", "phone": "059915 07544", "brand": "Merkur", "brand:wikidata": "Q1921857"}, "geometry": {"type": "Point", "coordinates": [13.8415138, 46.6005061]}},
{"type": "Feature", "id": "MujYVJno5eCgU7GCT599oPFEUYg=", "properties": {"ref": "00-3032", "@spider": "merkur", "addr:full": "Strasse D. 12. Februar 22", "addr:city": "Ternitz", "addr:state": "Niederoesterreich", "addr:postcode": "2630", "addr:country": "AT", "name": "BILLA AG FIL. 3032", "phone": "059915 03032", "brand": "Merkur", "brand:wikidata": "Q1921857"}, "geometry": {"type": "Point", "coordinates": [16.03239, 47.71961]}},
{"type": "Feature", "id": "LVBCO0Xs43PMzp82RFeOnejw_E4=", "properties": {"ref": "00-8140", "@spider": "merkur", "addr:full": "Untermarkt 33", "addr:city": "Reutte", "addr:state": "Tirol", "addr:postcode": "6600", "addr:country": "AT", "name": "BILLA AG FIL. 8140", "phone": "059915 08140", "brand": "Merkur", "brand:wikidata": "Q1921857"}, "geometry": {"type": "Point", "coordinates": [10.717503, 47.492175]}},
{"type": "Feature", "id": "kxx-gCqnuKrpRHkPH2b_AspbiU4=", "properties": {"ref": "00-3103", "@spider": "merkur", "addr:full": "Hauptstrasse 60", "addr:city": "Tullnerbach", "addr:state": "Niederoesterreich", "addr:postcode": "3013", "addr:country": "AT", "name": "BILLA AG FIL. 3103", "phone": "059915 03103", "brand": "Merkur", "brand:wikidata": "Q1921857"}, "geometry": {"type": "Point", "coordinates": [16.09218, 48.18425]}},
{"type": "Feature", "id": "gxdzWSlAcMike3kD_BsCSIWKO94=", "properties": {"ref": "00-2204", "@spider": "merkur", "addr:full": "Ziegelhofstrasse 24a (Ident Pirquetgasse 1)", "addr:city": "Wien", "addr:state": "Wien", "addr:postcode": "1220", "addr:country": "AT", "name": "BILLA AG FIL. 2204", "phone": "059915 02204", "brand": "Merkur", "brand:wikidata": "Q1921857"}, "geometry": {"type": "Point", "coordinates": [16.47795, 48.23797]}},
{"type": "Feature", "id": "JP1-bvR97qQQOW5_4DXHOKCfZrY=", "properties": {"ref": "00-2300", "@spider": "merkur", "addr:full": "Mehlfuehrergasse 30", "addr:city": "Wien", "addr:state": "Wien", "addr:postcode": "1230", "addr:country": "AT", "name": "BILLA AG FIL. 2300", "phone": "059915 02300", "brand": "Merkur", "brand:wikidata": "Q1921857"}, "geometry": {"type": "Point", "coordinates": [16.2841941, 48.146252]}},
{"type": "Feature", "id": "DjfkxP1QQHGdGQEHFSrfXMI9v2U=", "properties": {"ref": "00-2339", "@spider": "merkur", "addr:full": "Purkytgasse 5", "addr:city": "Wien", "addr:state": "Wien", "addr:postcode": "1230", "addr:country": "AT", "name": "BILLA AG FIL. 2339", "phone": "059915 02339", "brand": "Merkur", "brand:wikidata": "Q1921857"}, "geometry": {"type": "Point", "coordinates": [16.33212, 48.15007]}},
{"type": "Feature", "id": "CjjD8hRXT6nsx-i9xfYSiyEeJi4=", "properties": {"ref": "00-1933", "@spider": "merkur", "addr:full": "Weinberggasse 58/1", "addr:city": "Wien", "addr:state": "Wien", "addr:postcode": "1190", "addr:country": "AT", "name": "BILLA AG FIL. 1933", "phone": "059915 01933", "brand": "Merkur", "brand:wikidata": "Q1921857"}, "geometry": {"type": "Point", "coordinates": [16.3327092, 48.2438531]}},
{"type": "Feature", "id": "xwcSp1daCjQi_R7beeYU8RJd8N4=", "properties": {"ref": "00-8085", "@spider": "merkur", "addr:full": "Stuben 746", "addr:city": "Pfunds", "addr:state": "Tirol", "addr:postcode": "6542", "addr:country": "AT", "name": "BILLA AG FIL. 8085", "phone": "059915 08085", "brand": "Merkur", "brand:wikidata": "Q1921857"}, "geometry": {"type": "Point", "coordinates": [10.5311052, 46.9675546]}},
{"type": "Feature", "id": "N4KLsEzFVC-Cq8YA73attQ35tSQ=", "properties": {"ref": "00-2201", "@spider": "merkur", "addr:full": "Grossenzersdorferstrasse 74/Flugfeldstrasse 2", "addr:city": "Wien", "addr:state": "Wien", "addr:postcode": "1220", "addr:country": "AT", "name": "BILLA AG FIL. 2201", "phone": "059915 02201", "brand": "Merkur", "brand:wikidata": "Q1921857"}, "geometry": {"type": "Point", "coordinates": [16.5036, 48.2152]}},
{"type": "Feature", "id": "diNuoOzfMPfNRx0kPL6bqqvwreM=", "properties": {"ref": "00-6001", "@spider": "merkur", "addr:full": "Marktstrasse 187a", "addr:city": "Haus", "addr:state": "Steiermark", "addr:postcode": "8967", "addr:country": "AT", "name": "BILLA AG FIL. 6001", "phone": "059915 06001", "brand": "Merkur", "brand:wikidata": "Q1921857"}, "geometry": {"type": "Point", "coordinates": [13.77149, 47.41157]}},
{"type": "Feature", "id": "b0WUmEUFyui57goE-dud8dsscnU=", "properties": {"ref": "00-7866", "@spider": "merkur", "addr:full": "Kaerntnerstrasse 65", "addr:city": "Lienz", "addr:state": "Tirol", "addr:postcode": "9900", "addr:country": "AT", "name": "BILLA AG FIL. 7866", "phone": "059915 07866", "brand": "Merkur", "brand:wikidata": "Q1921857"}, "geometry": {"type": "Point", "coordinates": [12.78031, 46.83191]}},
{"type": "Feature", "id": "KBz9SWo5stEtfFiUQMCPpcb1urE=", "properties": {"ref": "00-9886", "@spider": "merkur", "addr:full": "Hauptstrasse 17", "addr:city": "Hinterbruehl", "addr:state": "Niederoesterreich", "addr:postcode": "2371", "addr:country": "AT", "name": "BILLA AG FIL. 9886", "phone": "059915 09886", "brand": "Merkur", "brand:wikidata": "Q1921857"}, "geometry": {"type": "Point", "coordinates": [16.25524, 48.0865]}},
{"type": "Feature", "id": "rSX1nInGtXfbjyErAOOQ4rvx71s=", "properties": {"ref": "00-7675", "@spider": "merkur", "addr:full": "Stadthammerstrasse 10", "addr:city": "Wolfsberg", "addr:state": "Kaernten", "addr:postcode": "9400", "addr:country": "AT", "name": "BILLA AG FIL. 7675", "phone": "059915 07675", "brand": "Merkur", "brand:wikidata": "Q1921857"}, "geometry": {"type": "Point", "coordinates": [14.8424, 46.84232]}},
{"type": "Feature", "id": "JbUnAemtyBaEvbSCMbaR_5a7DfE=", "properties": {"ref": "00-4583", "@spider": "merkur", "addr:full": "Freistaedterstr. 400", "addr:city": "Linz", "addr:state": "Oberoesterreich", "addr:postcode": "4040", "addr:country": "AT", "name": "BILLA AG FIL. 4583", "phone": "059915 04583", "brand": "Merkur", "brand:wikidata": "Q1921857"}, "geometry": {"type": "Point", "coordinates": [14.3251114, 48.3276507]}},
{"type": "Feature", "id": "nLRYMjpvcqAG3fMLNFiKI5GoDKI=", "properties": {"ref": "00-2313", "@spider": "merkur", "addr:full": "Willergasse 24-30", "addr:city": "Wien", "addr:state": "Wien", "addr:postcode": "1230", "addr:country": "AT", "name": "BILLA AG FIL. 2313", "phone": "059915 02313", "brand": "Merkur", "brand:wikidata": "Q1921857"}, "geometry": {"type": "Point", "coordinates": [16.2566303, 48.1338359]}},
{"type": "Feature", "id": "Axm2QBUPGcVNGQQryqFzrjrGhlQ=", "properties": {"ref": "00-8031", "@spider": "merkur", "addr:full": "Achenfeldweg 12", "addr:city": "Kundl", "addr:state": "Tirol", "addr:postcode": "6250", "addr:country": "AT", "name": "BILLA AG FIL. 8031", "phone": "059915 08031", "brand": "Merkur", "brand:wikidata": "Q1921857"}, "geometry": {"type": "Point", "coordinates": [11.9924, 47.46798]}},
{"type": "Feature", "id": "EmRDihgse5eHNcxdW9MXG4Trijs=", "properties": {"ref": "00-2011", "@spider": "merkur", "addr:full": "Dresdnerstrasse 33-47", "addr:city": "Wien", "addr:state": "Wien", "addr:postcode": "1200", "addr:country": "AT", "name": "BILLA AG FIL. 2011", "phone": "059915 02011", "brand": "Merkur", "brand:wikidata": "Q1921857"}, "geometry": {"type": "Point", "coordinates": [16.3792264, 48.2378668]}},
{"type": "Feature", "id": "cyHPm8T1ewZqik63X5oFXw_A0UE=", "properties": {"ref": "00-3143", "@spider": "merkur", "addr:full": "Langenloiser Strasse  49", "addr:city": "Gfoehl", "addr:state": "Niederoesterreich", "addr:postcode": "3542", "addr:country": "AT", "name": "BILLA AG FIL. 3143", "phone": "059915 03143", "brand": "Merkur", "brand:wikidata": "Q1921857"}, "geometry": {"type": "Point", "coordinates": [15.499628, 48.515479]}},
{"type": "Feature", "id": "YbBrXv0YB7KBsCUnN0cuQ5fVxZo=", "properties": {"ref": "00-9030", "@spider": "merkur", "addr:full": "Industriestrasse", "addr:city": "Friesach", "addr:state": "Kaernten", "addr:postcode": "9360", "addr:country": "AT", "name": "BILLA AG FIL. 9030", "phone": "059915 09030", "brand": "Merkur", "brand:wikidata": "Q1921857"}, "geometry": {"type": "Point", "coordinates": [14.4134636, 46.9536183]}},
{"type": "Feature", "id": "0kIhQ-sxsLV9MKxBvydFhPKz-hk=", "properties": {"ref": "00-301", "@spider": "merkur", "addr:full": "Thomas Klestil Platz 15/Erdbergstrasse 139", "addr:city": "Wien", "addr:state": "Wien", "addr:postcode": "1030", "addr:country": "AT", "name": "BILLA AG FIL. 301", "phone": "059915 00301", "brand": "Merkur", "brand:wikidata": "Q1921857"}, "geometry": {"type": "Point", "coordinates": [16.412096, 48.192635]}},
{"type": "Feature", "id": "CEd8ab6JCAFvHGZ4u16KIXr4eOk=", "properties": {"ref": "00-8646", "@spider": "merkur", "addr:full": "Langgasse 49", "addr:city": "Imst", "addr:state": "Tirol", "addr:postcode": "6460", "addr:country": "AT", "name": "BILLA AG FIL. 8646", "phone": "059915 08646", "brand": "Merkur", "brand:wikidata": "Q1921857"}, "geometry": {"type": "Point", "coordinates": [10.744095, 47.230682]}},
{"type": "Feature", "id": "g26N_QWRcorJEAKVwAhDxactAxs=", "properties": {"ref": "00-7721", "@spider": "merkur", "addr:full": "Walbersdorf Arenaplatz 8", "addr:city": "Mattersburg", "addr:state": "Burgenland", "addr:postcode": "7210", "addr:country": "AT", "name": "BILLA AG FIL. 7721", "phone": "059915 07721", "brand": "Merkur", "brand:wikidata": "Q1921857"}, "geometry": {"type": "Point", "coordinates": [16.41869, 47.747096]}},
{"type": "Feature", "id": "pB3eNSuYRFD-tiMfftlZeTq8nSU=", "properties": {"ref": "00-7701", "@spider": "merkur", "addr:full": "Ruster Strasse 81", "addr:city": "Eisenstadt", "addr:state": "Burgenland", "addr:postcode": "7000", "addr:country": "AT", "name": "BILLA AG FIL. 7701", "phone": "059915 07701", "brand": "Merkur", "brand:wikidata": "Q1921857"}, "geometry": {"type": "Point", "coordinates": [16.528004, 47.837736]}},
{"type": "Feature", "id": "qsqaomlV6hBg98FgSwgatnVHdbI=", "properties": {"ref": "00-6855", "@spider": "merkur", "addr:full": "Gradnerstrasse6", "addr:city": "Graz-Puntigam", "addr:state": "Steiermark", "addr:postcode": "8055", "addr:country": "AT", "name": "BILLA AG FIL. 6855", "phone": "059915 06855", "brand": "Merkur", "brand:wikidata": "Q1921857"}, "geometry": {"type": "Point", "coordinates": [15.43012, 47.02346]}},
{"type": "Feature", "id": "XoqRalRXtiDVBq_Qm6XLLxMmr7E=", "properties": {"ref": "00-2213", "@spider": "merkur", "addr:full": "Langobardenstrasse 14", "addr:city": "Wien", "addr:state": "Wien", "addr:postcode": "1220", "addr:country": "AT", "name": "BILLA AG FIL. 2213", "phone": "059915 02213", "brand": "Merkur", "brand:wikidata": "Q1921857"}, "geometry": {"type": "Point", "coordinates": [16.453584, 48.22493]}},
{"type": "Feature", "id": "32qQ5Li5Fkm6iBNl4aAoG5ITytY=", "properties": {"ref": "00-8606", "@spider": "merkur", "addr:full": "Brockenweg 2", "addr:city": "Hall In Tirol", "addr:state": "Tirol", "addr:postcode": "6060", "addr:country": "AT", "name": "BILLA AG FIL. 8606", "phone": "059915 08606", "brand": "Merkur", "brand:wikidata": "Q1921857"}, "geometry": {"type": "Point", "coordinates": [11.511754, 47.280204]}},
{"type": "Feature", "id": "1HuI98i9zlHTcV9oMRBea6MSeek=", "properties": {"ref": "00-4048", "@spider": "merkur", "addr:full": "Wuestenrotplatz 2-4", "addr:city": "Linz", "addr:state": "Oberoesterreich", "addr:postcode": "4030", "addr:country": "AT", "name": "BILLA AG FIL. 4048", "phone": "059915 04048", "brand": "Merkur", "brand:wikidata": "Q1921857"}, "geometry": {"type": "Point", "coordinates": [14.3085388, 48.2492086]}},
{"type": "Feature", "id": "u2fKPgE6nRwTmTXxl0RfR3KN4So=", "properties": {"ref": "00-3027", "@spider": "merkur", "addr:full": "Triester Strasse 248", "addr:city": "Voesendorf", "addr:state": "Niederoesterreich", "addr:postcode": "2331", "addr:country": "AT", "name": "BILLA AG FIL. 3027", "phone": "059915 03027", "brand": "Merkur", "brand:wikidata": "Q1921857"}, "geometry": {"type": "Point", "coordinates": [16.32581, 48.13737]}},
{"type": "Feature", "id": "p-N3j3p5xTnb8pEBz4rYvf0LSWw=", "properties": {"ref": "00-1670", "@spider": "merkur", "addr:full": "Thaliastrasse 154 A", "addr:city": "Wien", "addr:state": "Wien", "addr:postcode": "1160", "addr:country": "AT", "name": "BILLA AG FIL. 1670", "phone": "059915 01670", "brand": "Merkur", "brand:wikidata": "Q1921857"}, "geometry": {"type": "Point", "coordinates": [16.3076819, 48.2137075]}},
{"type": "Feature", "id": "6nXeNPjXEUyVUqyGZcaJ8hC99xA=", "properties": {"ref": "00-3146", "@spider": "merkur", "addr:full": "Wienerstrasse 52", "addr:city": "Wolkersdorf", "addr:state": "Niederoesterreich", "addr:postcode": "2120", "addr:country": "AT", "name": "BILLA AG FIL. 3146", "phone": "059915 03146", "brand": "Merkur", "brand:wikidata": "Q1921857"}, "geometry": {"type": "Point", "coordinates": [16.507618, 48.3757165]}},
{"type": "Feature", "id": "ziVtYRtnecAMmlQ9llLQ9iUyklY=", "properties": {"ref": "00-4146", "@spider": "merkur", "addr:full": "Attnanger Strasse 4", "addr:city": "Ottnang", "addr:state": "Oberoesterreich", "addr:postcode": "4901", "addr:country": "AT", "name": "BILLA AG FIL. 4146", "phone": "059915 04146", "brand": "Merkur", "brand:wikidata": "Q1921857"}, "geometry": {"type": "Point", "coordinates": [13.66186, 48.09525]}},
{"type": "Feature", "id": "f_MuIfTjcCzGmNzDOFY96CbwpdU=", "properties": {"ref": "00-5131", "@spider": "merkur", "addr:full": "Salzburgerstrasse 143", "addr:city": "Hallein", "addr:state": "Salzburg", "addr:postcode": "5400", "addr:country": "AT", "name": "BILLA AG FIL. 5131", "phone": "059915 05131", "brand": "Merkur", "brand:wikidata": "Q1921857"}, "geometry": {"type": "Point", "coordinates": [13.061158, 47.72157]}},
{"type": "Feature", "id": "50LWCNVKFcdSqupcJODejjGDTck=", "properties": {"ref": "00-7547", "@spider": "merkur", "addr:full": "Obervellach Nr. 217", "addr:city": "Obervellach", "addr:state": "Kaernten", "addr:postcode": "9821", "addr:country": "AT", "name": "BILLA AG FIL. 7547", "phone": "059915 07547", "brand": "Merkur", "brand:wikidata": "Q1921857"}, "geometry": {"type": "Point", "coordinates": [13.2065, 46.9299]}},
{"type": "Feature", "id": "1oQQa3YqOcxozDWZIp-UTspfxMY=", "properties": {"ref": "00-7603", "@spider": "merkur", "addr:full": "Wiedweg 45", "addr:city": "Patergassen", "addr:state": "Kaernten", "addr:postcode": "9564", "addr:country": "AT", "name": "BILLA AG FIL. 7603", "phone": "059915 07603", "brand": "Merkur", "brand:wikidata": "Q1921857"}, "geometry": {"type": "Point", "coordinates": [13.86121, 46.81751]}},
{"type": "Feature", "id": "HHlX92YdZTRCH5apIO1i2di9zOU=", "properties": {"ref": "00-4181", "@spider": "merkur", "addr:full": "Lonstorferpl 1/Franckstr", "addr:city": "Linz", "addr:state": "Oberoesterreich", "addr:postcode": "4020", "addr:country": "AT", "name": "BILLA AG FIL. 4181", "phone": "059915 04181", "brand": "Merkur", "brand:wikidata": "Q1921857"}, "geometry": {"type": "Point", "coordinates": [14.31381, 48.29391]}},
{"type": "Feature", "id": "IhcdOMhnt5-NXqidXciBbiATWD8=", "properties": {"ref": "00-2253", "@spider": "merkur", "addr:full": "Schuettaustrasse 51", "addr:city": "Wien", "addr:state": "Wien", "addr:postcode": "1220", "addr:country": "AT", "name": "BILLA AG FIL. 2253", "phone": "059915 02253", "brand": "Merkur", "brand:wikidata": "Q1921857"}, "geometry": {"type": "Point", "coordinates": [16.4219197, 48.2275399]}},
{"type": "Feature", "id": "ZzGd0y6ILhcypyosq7J77bKb9ho=", "properties": {"ref": "00-3047", "@spider": "merkur", "addr:full": "Wienerstrasse 9", "addr:city": "Klosterneuburg", "addr:state": "Niederoesterreich", "addr:postcode": "3400", "addr:country": "AT", "name": "BILLA AG FIL. 3047", "phone": "059915 03047", "brand": "Merkur", "brand:wikidata": "Q1921857"}, "geometry": {"type": "Point", "coordinates": [16.33337, 48.299]}},
{"type": "Feature", "id": "7bVz4zBZUdfyYqloS2jMKWxhuLw=", "properties": {"ref": "00-3156", "@spider": "merkur", "addr:full": "Gerasdorfergasse 31", "addr:city": "Wiener Neustadt", "addr:state": "Niederoesterreich", "addr:postcode": "2700", "addr:country": "AT", "name": "BILLA AG FIL. 3156", "phone": "059915 03156", "brand": "Merkur", "brand:wikidata": "Q1921857"}, "geometry": {"type": "Point", "coordinates": [16.211799, 47.8049105]}},
{"type": "Feature", "id": "F4G-2k9wdw-Qb04YowCrK6L7wP8=", "properties": {"ref": "00-4881", "@spider": "merkur", "addr:full": "Leopold Werndl Str.29", "addr:city": "Steyr", "addr:state": "Oberoesterreich", "addr:postcode": "4400", "addr:country": "AT", "name": "BILLA AG FIL. 4881", "phone": "059915 04881", "brand": "Merkur", "brand:wikidata": "Q1921857"}, "geometry": {"type": "Point", "coordinates": [14.40981, 48.02874]}},
{"type": "Feature", "id": "34VA_lEVwXG2VODqBaKRKdKS6B8=", "properties": {"ref": "00-7232", "@spider": "merkur", "addr:full": "Moerbischer Strasse 10", "addr:city": "Rust", "addr:state": "Burgenland", "addr:postcode": "7071", "addr:country": "AT", "name": "BILLA AG FIL. 7232", "phone": "059915 07232", "brand": "Merkur", "brand:wikidata": "Q1921857"}, "geometry": {"type": "Point", "coordinates": [16.6733249, 47.7952194]}},
{"type": "Feature", "id": "ROznPUFTT68OUMkS2jlG4-NkOaQ=", "properties": {"ref": "00-2200", "@spider": "merkur", "addr:full": "Am Heidjoechl 14/Stiege 1", "addr:city": "Wien", "addr:state": "Wien", "addr:postcode": "1220", "addr:country": "AT", "name": "BILLA AG FIL. 2200", "phone": "059915 02200", "brand": "Merkur", "brand:wikidata": "Q1921857"}, "geometry": {"type": "Point", "coordinates": [16.4864303, 48.2373369]}},
{"type": "Feature", "id": "qiKiDS8OeTOPyvwYX-0SDHKopFI=", "properties": {"ref": "00-7041", "@spider": "merkur", "addr:full": "Hauptstrasse 169", "addr:city": "Rohrbach Bei Mattersburg", "addr:state": "Burgenland", "addr:postcode": "7222", "addr:country": "AT", "name": "BILLA AG FIL. 7041", "phone": "059915 07041", "brand": "Merkur", "brand:wikidata": "Q1921857"}, "geometry": {"type": "Point", "coordinates": [16.428222, 47.715502]}},
{"type": "Feature", "id": "KMPQQqI87r6j_LeWKxykTn3s1qI=", "properties": {"ref": "00-3081", "@spider": "merkur", "addr:full": "Passhoehe 1", "addr:city": "Semmering", "addr:state": "Niederoesterreich", "addr:postcode": "2680", "addr:country": "AT", "name": "BILLA AG FIL. 3081", "phone": "059915 03081", "brand": "Merkur", "brand:wikidata": "Q1921857"}, "geometry": {"type": "Point", "coordinates": [15.83002, 47.63283]}},
{"type": "Feature", "id": "vG-wvs6vxK1DQectW7v-0TFraYk=", "properties": {"ref": "00-8426", "@spider": "merkur", "addr:full": "Bruggfeldstrasse 21 A", "addr:city": "Landeck", "addr:state": "Tirol", "addr:postcode": "6500", "addr:country": "AT", "name": "BILLA AG FIL. 8426", "phone": "059915 08426", "brand": "Merkur", "brand:wikidata": "Q1921857"}, "geometry": {"type": "Point", "coordinates": [10.557702, 47.140597]}},
{"type": "Feature", "id": "Aou6HgWbb8stIvKgPl6Stt91ais=", "properties": {"ref": "00-3063", "@spider": "merkur", "addr:full": "Wiener Strasse 67/Oskar Helmer Strasse", "addr:city": "Traiskirchen", "addr:state": "Niederoesterreich", "addr:postcode": "2514", "addr:country": "AT", "name": "BILLA AG FIL. 3063", "phone": "059915 03063", "brand": "Merkur", "brand:wikidata": "Q1921857"}, "geometry": {"type": "Point", "coordinates": [16.2961312, 48.0202415]}},
{"type": "Feature", "id": "lFmkBieN55z5ozYhHaWNCnYdO1k=", "properties": {"ref": "00-2543", "@spider": "merkur", "addr:full": "Saikogasse 3a", "addr:city": "Wien", "addr:state": "Wien", "addr:postcode": "1220", "addr:country": "AT", "name": "BILLA AG FIL. 2543", "phone": "059915 02543", "brand": "Merkur", "brand:wikidata": "Q1921857"}, "geometry": {"type": "Point", "coordinates": [16.43763, 48.25303]}},
{"type": "Feature", "id": "ahSqII2qouijOFuhE09czUN3DaA=", "properties": {"ref": "00-1701", "@spider": "merkur", "addr:full": "Franz Glasergasse 1-3", "addr:city": "Wien", "addr:state": "Wien", "addr:postcode": "1170", "addr:country": "AT", "name": "BILLA AG FIL. 1701", "phone": "059915 01701", "brand": "Merkur", "brand:wikidata": "Q1921857"}, "geometry": {"type": "Point", "coordinates": [16.29568, 48.22642]}},
{"type": "Feature", "id": "Qu-DW3b4F7RflsAX3UtGEzSE59o=", "properties": {"ref": "00-9837", "@spider": "merkur", "addr:full": "Forellenweg 2", "addr:city": "Kirchschlag", "addr:state": "Niederoesterreich", "addr:postcode": "2860", "addr:country": "AT", "name": "BILLA AG FIL. 9837", "phone": "059915 09837", "brand": "Merkur", "brand:wikidata": "Q1921857"}, "geometry": {"type": "Point", "coordinates": [16.28341, 47.49369]}},
{"type": "Feature", "id": "gLvEDdV5mx_VX8-lXiFI3sD-L5Y=", "properties": {"ref": "00-3509", "@spider": "merkur", "addr:full": "Koenigstetterstrasse 10", "addr:city": "Tulln", "addr:state": "Niederoesterreich", "addr:postcode": "3430", "addr:country": "AT", "name": "BILLA AG FIL. 3509", "phone": "059915 03509", "brand": "Merkur", "brand:wikidata": "Q1921857"}, "geometry": {"type": "Point", "coordinates": [16.06057, 48.32591]}},
{"type": "Feature", "id": "SDioj1ZG5_H7Rpvd1vkbsIZ7K9o=", "properties": {"ref": "00-350", "@spider": "merkur", "addr:full": "Markhofgasse 1-9/Schlachthausgasse 23-29", "addr:city": "Wien", "addr:state": "Wien", "addr:postcode": "1030", "addr:country": "AT", "name": "BILLA AG FIL. 350", "phone": "059915 00350", "brand": "Merkur", "brand:wikidata": "Q1921857"}, "geometry": {"type": "Point", "coordinates": [16.4077058, 48.1942463]}},
{"type": "Feature", "id": "YHmwfdEgaXhCa5l2b-IgxmvGyl4=", "properties": {"ref": "00-921", "@spider": "merkur", "addr:full": "Schlickg. 6/Bergg.26-28", "addr:city": "Wien", "addr:state": "Wien", "addr:postcode": "1090", "addr:country": "AT", "name": "BILLA AG FIL. 921", "phone": "059915 00921", "brand": "Merkur", "brand:wikidata": "Q1921857"}, "geometry": {"type": "Point", "coordinates": [16.36486, 48.21911]}},
{"type": "Feature", "id": "8nQRSWlOi8veojFP-yrdqvD8BwA=", "properties": {"ref": "00-1070", "@spider": "merkur", "addr:full": "Grundaeckergasse 38", "addr:city": "Wien", "addr:state": "Wien", "addr:postcode": "1100", "addr:country": "AT", "name": "BILLA AG FIL. 1070", "phone": "059915 01070", "brand": "Merkur", "brand:wikidata": "Q1921857"}, "geometry": {"type": "Point", "coordinates": [16.3927, 48.13997]}},
{"type": "Feature", "id": "mKjmQ09osPc7Yu1qqzs2nyVmhRw=", "properties": {"ref": "00-4639", "@spider": "merkur", "addr:full": "Goethestr.3", "addr:city": "Ried Im Innkreis", "addr:state": "Oberoesterreich", "addr:postcode": "4910", "addr:country": "AT", "name": "BILLA AG FIL. 4639", "phone": "059915 04639", "brand": "Merkur", "brand:wikidata": "Q1921857"}, "geometry": {"type": "Point", "coordinates": [13.48602, 48.21389]}},
{"type": "Feature", "id": "g4BTSfBLNH4Pp6UBbnsJqXtCSQs=", "properties": {"ref": "00-7621", "@spider": "merkur", "addr:full": "Goesserringlaende 7", "addr:city": "Hermagor", "addr:state": "Kaernten", "addr:postcode": "9620", "addr:country": "AT", "name": "BILLA AG FIL. 7621", "phone": "059915 07621", "brand": "Merkur", "brand:wikidata": "Q1921857"}, "geometry": {"type": "Point", "coordinates": [13.37251, 46.62588]}},
{"type": "Feature", "id": "RQjzBeNrLvSOa3_XO8UL9B6h2fQ=", "properties": {"ref": "00-6902", "@spider": "merkur", "addr:full": "Ragnitzstrasse 12-14", "addr:city": "Graz", "addr:state": "Steiermark", "addr:postcode": "8010", "addr:country": "AT", "name": "BILLA AG FIL. 6902", "phone": "059915 06902", "brand": "Merkur", "brand:wikidata": "Q1921857"}, "geometry": {"type": "Point", "coordinates": [15.4727977, 47.0787658]}},
{"type": "Feature", "id": "7HB7uGE1u5qb6t0vjKadcC3hNZU=", "properties": {"ref": "00-8417", "@spider": "merkur", "addr:full": "St.Johanner Strasse 20a", "addr:city": "Kitzbuehel", "addr:state": "Tirol", "addr:postcode": "6370", "addr:country": "AT", "name": "BILLA AG FIL. 8417", "phone": "059915 08417", "brand": "Merkur", "brand:wikidata": "Q1921857"}, "geometry": {"type": "Point", "coordinates": [12.38699, 47.45748]}},
{"type": "Feature", "id": "egGZMMTCB4UmT5PVdNCdxlNgIco=", "properties": {"ref": "00-4515", "@spider": "merkur", "addr:full": "Wienerstrasse 65", "addr:city": "Linz", "addr:state": "Oberoesterreich", "addr:postcode": "4020", "addr:country": "AT", "name": "BILLA AG FIL. 4515", "phone": "059915 04515", "brand": "Merkur", "brand:wikidata": "Q1921857"}, "geometry": {"type": "Point", "coordinates": [14.3001025, 48.2878611]}},
{"type": "Feature", "id": "nwp2U_CKaC3-w3UMu0wibt0qgjc=", "properties": {"ref": "00-380", "@spider": "merkur", "addr:full": "Erdbergstrasse 85", "addr:city": "Wien", "addr:state": "Wien", "addr:postcode": "1030", "addr:country": "AT", "name": "BILLA AG FIL. 380", "phone": "059915 00380", "brand": "Merkur", "brand:wikidata": "Q1921857"}, "geometry": {"type": "Point", "coordinates": [16.4029, 48.19693]}},
{"type": "Feature", "id": "-VkjCRARgiTauifgid8Ahfuxxfo=", "properties": {"ref": "00-9399", "@spider": "merkur", "addr:full": "Raiffeisenstrasse 4", "addr:city": "Neunkirchen", "addr:state": "Niederoesterreich", "addr:postcode": "2620", "addr:country": "AT", "name": "BILLA AG FIL. 9399", "phone": "059915 09399", "brand": "Merkur", "brand:wikidata": "Q1921857"}, "geometry": {"type": "Point", "coordinates": [16.08443, 47.71996]}},
{"type": "Feature", "id": "-Clf6H4_p7oTQSwsMLsB3AZvcvE=", "properties": {"ref": "00-2140", "@spider": "merkur", "addr:full": "Meriangasse 3", "addr:city": "Wien", "addr:state": "Wien", "addr:postcode": "1210", "addr:country": "AT", "name": "BILLA AG FIL. 2140", "phone": "059915 02140", "brand": "Merkur", "brand:wikidata": "Q1921857"}, "geometry": {"type": "Point", "coordinates": [16.38414, 48.29165]}},
{"type": "Feature", "id": "J1-_JFbhlrRDalTrePcnZg0TpK4=", "properties": {"ref": "00-3740", "@spider": "merkur", "addr:full": "Herzog Albrecht Str. 2", "addr:city": "Mistelbach", "addr:state": "Niederoesterreich", "addr:postcode": "2130", "addr:country": "AT", "name": "BILLA AG FIL. 3740", "phone": "059915 03740", "brand": "Merkur", "brand:wikidata": "Q1921857"}, "geometry": {"type": "Point", "coordinates": [16.59033, 48.56789]}},
{"type": "Feature", "id": "fRyWxdf57DJREKHXEP067Hx2_90=", "properties": {"ref": "00-7543", "@spider": "merkur", "addr:full": "Nikolaigasse 39", "addr:city": "Villach", "addr:state": "Kaernten", "addr:postcode": "9500", "addr:country": "AT", "name": "BILLA AG FIL. 7543", "phone": "059915 07543", "brand": "Merkur", "brand:wikidata": "Q1921857"}, "geometry": {"type": "Point", "coordinates": [13.85432, 46.61504]}},
{"type": "Feature", "id": "kLachbcSzQwTKkIU-MOpXce2GP4=", "properties": {"ref": "00-4120", "@spider": "merkur", "addr:full": "Steyrtalstrasse 4", "addr:city": "Gruenburg", "addr:state": "Oberoesterreich", "addr:postcode": "4594", "addr:country": "AT", "name": "BILLA AG FIL. 4120", "phone": "059915 04120", "brand": "Merkur", "brand:wikidata": "Q1921857"}, "geometry": {"type": "Point", "coordinates": [14.25645, 47.96488]}},
{"type": "Feature", "id": "es94z7kW1wEDjentRrnKDt18YFo=", "properties": {"ref": "00-2260", "@spider": "merkur", "addr:full": "Kagraner Platz 1-3", "addr:city": "Wien", "addr:state": "Wien", "addr:postcode": "1220", "addr:country": "AT", "name": "BILLA AG FIL. 2260", "phone": "059915 02260", "brand": "Merkur", "brand:wikidata": "Q1921857"}, "geometry": {"type": "Point", "coordinates": [16.4442934, 48.2504203]}},
{"type": "Feature", "id": "47gxPVzyu14LUJXLaUWbyPYTl7Q=", "properties": {"ref": "00-6156", "@spider": "merkur", "addr:full": "Wienerstrasse 18", "addr:city": "Knittelfeld", "addr:state": "Steiermark", "addr:postcode": "8720", "addr:country": "AT", "name": "BILLA AG FIL. 6156", "phone": "059915 06156", "brand": "Merkur", "brand:wikidata": "Q1921857"}, "geometry": {"type": "Point", "coordinates": [14.827988, 47.216898]}},
{"type": "Feature", "id": "3e7L2Y3vOR1vYQkV54NIaD067sg=", "properties": {"ref": "00-4813", "@spider": "merkur", "addr:full": "Braunauer Strasse 6b", "addr:city": "Mattighofen", "addr:state": "Oberoesterreich", "addr:postcode": "5230", "addr:country": "AT", "name": "BILLA AG FIL. 4813", "phone": "059915 04813", "brand": "Merkur", "brand:wikidata": "Q1921857"}, "geometry": {"type": "Point", "coordinates": [13.151257, 48.1094081]}},
{"type": "Feature", "id": "3eghHrA41ew0dRe737T3C2kUwA0=", "properties": {"ref": "00-2266", "@spider": "merkur", "addr:full": "Schiffmuehlenstrasse 43", "addr:city": "Wien", "addr:state": "Wien", "addr:postcode": "1220", "addr:country": "AT", "name": "BILLA AG FIL. 2266", "phone": "059915 02266", "brand": "Merkur", "brand:wikidata": "Q1921857"}, "geometry": {"type": "Point", "coordinates": [16.420218, 48.227519]}},
{"type": "Feature", "id": "NHq4Oiz9u0R1VhNvnXl_kWJkjBc=", "properties": {"ref": "00-7665", "@spider": "merkur", "addr:full": "Faakerseestrasse 5", "addr:city": "Finkenstein", "addr:state": "Kaernten", "addr:postcode": "9584", "addr:country": "AT", "name": "BILLA AG FIL. 7665", "phone": "059915 07665", "brand": "Merkur", "brand:wikidata": "Q1921857"}, "geometry": {"type": "Point", "coordinates": [13.869156, 46.561645]}},
{"type": "Feature", "id": "1VumTBYKHdNRzu8ovesAI9XZ0VI=", "properties": {"ref": "00-1098", "@spider": "merkur", "addr:full": "Laxenburger Strasse 115", "addr:city": "Wien", "addr:state": "Wien", "addr:postcode": "1100", "addr:country": "AT", "name": "BILLA AG FIL. 1098", "phone": "059915 01098", "brand": "Merkur", "brand:wikidata": "Q1921857"}, "geometry": {"type": "Point", "coordinates": [16.37118, 48.169717]}},
{"type": "Feature", "id": "NXI5rmIli3TuXndK98WvyTBASLE=", "properties": {"ref": "00-1128", "@spider": "merkur", "addr:full": "Baudissgasse 4-6/Awarenstr. 3-5", "addr:city": "Wien", "addr:state": "Wien", "addr:postcode": "1110", "addr:country": "AT", "name": "BILLA AG FIL. 1128", "phone": "059915 01128", "brand": "Merkur", "brand:wikidata": "Q1921857"}, "geometry": {"type": "Point", "coordinates": [16.461902, 48.146637]}},
{"type": "Feature", "id": "2i3FwPy-84Vh8AgUel18MVSrjn0=", "properties": {"ref": "00-3981", "@spider": "merkur", "addr:full": "Wiener Strasse 85", "addr:city": "Melk", "addr:state": "Niederoesterreich", "addr:postcode": "3390", "addr:country": "AT", "name": "BILLA PLUS FIL. 3981", "phone": "059915 03981", "brand": "Merkur", "brand:wikidata": "Q1921857"}, "geometry": {"type": "Point", "coordinates": [15.3479452, 48.2261028]}},
{"type": "Feature", "id": "tq0w5MmXLnJBmqncR7v3xjwonEc=", "properties": {"ref": "00-4783", "@spider": "merkur", "addr:full": "Hauptstrasse 134", "addr:city": "Kalsdorf Bei Graz", "addr:state": "Steiermark", "addr:postcode": "8401", "addr:country": "AT", "name": "BILLA AG FIL. 4783", "phone": "059915 04783", "brand": "Merkur", "brand:wikidata": "Q1921857"}, "geometry": {"type": "Point", "coordinates": [15.478155, 46.961031]}},
{"type": "Feature", "id": "fn-p4gXlxKne0XvNjXLrFIgiCBA=", "properties": {"ref": "00-4714", "@spider": "merkur", "addr:full": "Trappenhof S\u00fcd 2", "addr:city": "Meggenhofen", "addr:state": "Oberoesterreich", "addr:postcode": "4714", "addr:country": "AT", "name": "BILLA AG FIL. 4714", "phone": "059915 04714", "brand": "Merkur", "brand:wikidata": "Q1921857"}, "geometry": {"type": "Point", "coordinates": [13.781474, 48.182845]}},
{"type": "Feature", "id": "ZKMlAPjdXDQDNbfGaZgYRd23TI0=", "properties": {"ref": "00-7002", "@spider": "merkur", "addr:full": "Hauptstrasse 313", "addr:city": "Feistritz Im Rosental", "addr:state": "Kaernten", "addr:postcode": "9181", "addr:country": "AT", "name": "BILLA AG FIL. 7002", "phone": "059915 07002", "brand": "Merkur", "brand:wikidata": "Q1921857"}, "geometry": {"type": "Point", "coordinates": [14.175054, 46.521585]}},
{"type": "Feature", "id": "brosG9WdO89gMr0QWoixQrVB40k=", "properties": {"ref": "00-1101", "@spider": "merkur", "addr:full": "Sonnwendgasse 13-15", "addr:city": "Wien", "addr:state": "Wien", "addr:postcode": "1100", "addr:country": "AT", "name": "BILLA AG FIL. 1101", "phone": "059915 01101", "brand": "Merkur", "brand:wikidata": "Q1921857"}, "geometry": {"type": "Point", "coordinates": [16.377628, 48.182861]}},
{"type": "Feature", "id": "cD6Xj_LdKoO1MFPFiH5DlnGfKXs=", "properties": {"ref": "00-7003", "@spider": "merkur", "addr:full": "Neusiedler Strasse 68", "addr:city": "Podersdorf Am See", "addr:state": "Burgenland", "addr:postcode": "7141", "addr:country": "AT", "name": "BILLA AG FIL. 7003", "phone": "059915 07003", "brand": "Merkur", "brand:wikidata": "Q1921857"}, "geometry": {"type": "Point", "coordinates": [16.84361, 47.85833]}},
{"type": "Feature", "id": "nMe10G1Y-aoGCzghmcuk8vEdF1E=", "properties": {"ref": "00-7006", "@spider": "merkur", "addr:full": "Oedenburgerstrasse 51", "addr:city": "Andau", "addr:state": "Burgenland", "addr:postcode": "7163", "addr:country": "AT", "name": "BILLA AG FIL. 7006", "phone": "059915 07006", "brand": "Merkur", "brand:wikidata": "Q1921857"}, "geometry": {"type": "Point", "coordinates": [17.0216, 47.7727]}},
{"type": "Feature", "id": "21eYfwOMyKezQkEFhHpLbxzMN6c=", "properties": {"ref": "00-5000", "@spider": "merkur", "addr:full": "Rupertusstrasse 42", "addr:city": "Seekirchen", "addr:state": "Salzburg", "addr:postcode": "5201", "addr:country": "AT", "name": "BILLA AG FIL. 5000", "phone": "059915 05000", "brand": "Merkur", "brand:wikidata": "Q1921857"}, "geometry": {"type": "Point", "coordinates": [13.12091, 47.88866]}},
{"type": "Feature", "id": "RDfzcDI3ZElhrISIihW1GX9PKKA=", "properties": {"ref": "00-7004", "@spider": "merkur", "addr:full": "Foelliggasse 1", "addr:city": "Steinbrunn", "addr:state": "Burgenland", "addr:postcode": "7035", "addr:country": "AT", "name": "BILLA AG FIL. 7004", "phone": "059915 07004", "brand": "Merkur", "brand:wikidata": "Q1921857"}, "geometry": {"type": "Point", "coordinates": [16.4197, 47.833]}},
{"type": "Feature", "id": "-11O6XM06KLLkXNRVuS-ni7IkeE=", "properties": {"ref": "00-1617", "@spider": "merkur", "addr:full": "Ottakringerstr. 173-175", "addr:city": "Wien", "addr:state": "Wien", "addr:postcode": "1160", "addr:country": "AT", "name": "BILLA AG FIL. 1617", "phone": "059915 01617", "brand": "Merkur", "brand:wikidata": "Q1921857"}, "geometry": {"type": "Point", "coordinates": [16.3129699, 48.2133665]}},
{"type": "Feature", "id": "mWoE_vBTak2w8pdyvtV3Jwg1yLQ=", "properties": {"ref": "00-1963", "@spider": "merkur", "addr:full": "Rathstrasse 6-8", "addr:city": "Wien", "addr:state": "Wien", "addr:postcode": "1190", "addr:country": "AT", "name": "BILLA AG FIL. 1963", "phone": "059915 01963", "brand": "Merkur", "brand:wikidata": "Q1921857"}, "geometry": {"type": "Point", "coordinates": [16.3065385006381, 48.2506657]}},
{"type": "Feature", "id": "-OjkKLQOp2pKNWe3QkNgdoZM4tM=", "properties": {"ref": "00-4138", "@spider": "merkur", "addr:full": "Pfarrgasse 4", "addr:city": "Bad Ischl", "addr:state": "Oberoesterreich", "addr:postcode": "4820", "addr:country": "AT", "name": "BILLA AG FIL. 4138", "phone": "059915 04138", "brand": "Merkur", "brand:wikidata": "Q1921857"}, "geometry": {"type": "Point", "coordinates": [13.6228, 47.71125]}},
{"type": "Feature", "id": "WIXQM506rgd6Z3rjqoEjSIjkLVk=", "properties": {"ref": "00-7539", "@spider": "merkur", "addr:full": "St. Veiter Ring 20", "addr:city": "Klagenfurt", "addr:state": "Kaernten", "addr:postcode": "9020", "addr:country": "AT", "name": "BILLA AG FIL. 7539", "phone": "059915 07539", "brand": "Merkur", "brand:wikidata": "Q1921857"}, "geometry": {"type": "Point", "coordinates": [14.3104797, 46.6275166]}},
{"type": "Feature", "id": "wzfkfRlwA20MnP8s9RjwB5jiXtw=", "properties": {"ref": "00-3490", "@spider": "merkur", "addr:full": "Linzerstrasse 53", "addr:city": "Prinzersdorf", "addr:state": "Niederoesterreich", "addr:postcode": "3385", "addr:country": "AT", "name": "BILLA AG FIL. 3490", "phone": "059915 03490", "brand": "Merkur", "brand:wikidata": "Q1921857"}, "geometry": {"type": "Point", "coordinates": [15.50345, 48.19982]}},
{"type": "Feature", "id": "0SS3ERX4iQedce2T3d0uatr9ayw=", "properties": {"ref": "00-6480", "@spider": "merkur", "addr:full": "Turmgasse 21", "addr:city": "Leoben", "addr:state": "Steiermark", "addr:postcode": "8700", "addr:country": "AT", "name": "BILLA AG FIL. 6480", "phone": "059915 06480", "brand": "Merkur", "brand:wikidata": "Q1921857"}, "geometry": {"type": "Point", "coordinates": [15.09522, 47.36047]}},
{"type": "Feature", "id": "S8iRQ9yPdzaVrcsCuWkEiZUSWK0=", "properties": {"ref": "00-6065", "@spider": "merkur", "addr:full": "Kaerntner Strasse 136", "addr:city": "Graz-Neuhart", "addr:state": "Steiermark", "addr:postcode": "8053", "addr:country": "AT", "name": "BILLA AG FIL. 6065", "phone": "059915 06065", "brand": "Merkur", "brand:wikidata": "Q1921857"}, "geometry": {"type": "Point", "coordinates": [15.4154, 47.04924]}},
{"type": "Feature", "id": "dbxz4qk5neyvdoZ4QROCkOEuEOs=", "properties": {"ref": "00-6366", "@spider": "merkur", "addr:full": "Falkenburg Trautenfelserstr. 262", "addr:city": "Irdning", "addr:state": "Steiermark", "addr:postcode": "8952", "addr:country": "AT", "name": "BILLA AG FIL. 6366", "phone": "059915 06366", "brand": "Merkur", "brand:wikidata": "Q1921857"}, "geometry": {"type": "Point", "coordinates": [14.0985731, 47.5050111]}},
{"type": "Feature", "id": "vsiNEVHHI6sSHwjY49zXXg7GC68=", "properties": {"ref": "00-4847", "@spider": "merkur", "addr:full": "Werfelstrasse 5", "addr:city": "Wels", "addr:state": "Oberoesterreich", "addr:postcode": "4600", "addr:country": "AT", "name": "BILLA AG FIL. 4847", "phone": "059915 04847", "brand": "Merkur", "brand:wikidata": "Q1921857"}, "geometry": {"type": "Point", "coordinates": [14.05469, 48.17551]}},
{"type": "Feature", "id": "inSYwKxLlSm82hES_f6TeHBK-aw=", "properties": {"ref": "00-2312", "@spider": "merkur", "addr:full": "Gesslg. 19/Maurer Lange G", "addr:city": "Wien", "addr:state": "Wien", "addr:postcode": "1230", "addr:country": "AT", "name": "BILLA AG FIL. 2312", "phone": "059915 02312", "brand": "Merkur", "brand:wikidata": "Q1921857"}, "geometry": {"type": "Point", "coordinates": [16.2682996, 48.1479435]}},
{"type": "Feature", "id": "LC0PvsAFBK6GkmoSJA7h9zx0gWk=", "properties": {"ref": "00-6819", "@spider": "merkur", "addr:full": "Grazer Strasse 73", "addr:city": "Judendorf-Strassengel", "addr:state": "Steiermark", "addr:postcode": "8111", "addr:country": "AT", "name": "BILLA AG FIL. 6819", "phone": "059915 06819", "brand": "Merkur", "brand:wikidata": "Q1921857"}, "geometry": {"type": "Point", "coordinates": [15.3499, 47.11576]}},
{"type": "Feature", "id": "Er3LQ4iQmw5H9rH9oZbJNaLyaGw=", "properties": {"ref": "00-7681", "@spider": "merkur", "addr:full": "Aribonenstrasse 281", "addr:city": "Millstatt", "addr:state": "Kaernten", "addr:postcode": "9872", "addr:country": "AT", "name": "BILLA AG FIL. 7681", "phone": "059915 07681", "brand": "Merkur", "brand:wikidata": "Q1921857"}, "geometry": {"type": "Point", "coordinates": [13.56807, 46.80523]}},
{"type": "Feature", "id": "_fX2eWBAEQdC26IHbj0bdlRnucg=", "properties": {"ref": "00-7766", "@spider": "merkur", "addr:full": "St. Veiter-Strasse 70", "addr:city": "Klagenfurt", "addr:state": "Kaernten", "addr:postcode": "9020", "addr:country": "AT", "name": "BILLA AG FIL. 7766", "phone": "059915 07766", "brand": "Merkur", "brand:wikidata": "Q1921857"}, "geometry": {"type": "Point", "coordinates": [14.31161, 46.63412]}},
{"type": "Feature", "id": "tHV48l8-EY9D8HKkXpU6YOkeKPM=", "properties": {"ref": "00-329", "@spider": "merkur", "addr:full": "Rabengasse 11", "addr:city": "Wien", "addr:state": "Wien", "addr:postcode": "1030", "addr:country": "AT", "name": "BILLA AG FIL. 329", "phone": "059915 00329", "brand": "Merkur", "brand:wikidata": "Q1921857"}, "geometry": {"type": "Point", "coordinates": [16.39886, 48.19522]}},
{"type": "Feature", "id": "6wssCLnyQbeqkVaW88IipAIbPV0=", "properties": {"ref": "00-330", "@spider": "merkur", "addr:full": "Untere Viaduktgasse 4", "addr:city": "Wien", "addr:state": "Wien", "addr:postcode": "1030", "addr:country": "AT", "name": "BILLA AG FIL. 330", "phone": "059915 00330", "brand": "Merkur", "brand:wikidata": "Q1921857"}, "geometry": {"type": "Point", "coordinates": [16.3873846, 48.207369]}},
{"type": "Feature", "id": "pnQj8F5ifu-HVGUIC0Wjyzdbz3Q=", "properties": {"ref": "00-5523", "@spider": "merkur", "addr:full": "Siebenstaedterstrasse 50-52", "addr:city": "Salzburg", "addr:state": "Salzburg", "addr:postcode": "5020", "addr:country": "AT", "name": "BILLA AG FIL. 5523", "phone": "059915 05523", "brand": "Merkur", "brand:wikidata": "Q1921857"}, "geometry": {"type": "Point", "coordinates": [13.029935, 47.81645]}},
{"type": "Feature", "id": "zSyIyAu3Fa1wfPhvK7i8jO_qK5Y=", "properties": {"ref": "00-6875", "@spider": "merkur", "addr:full": "Burggasse 39", "addr:city": "Judenburg", "addr:state": "Steiermark", "addr:postcode": "8750", "addr:country": "AT", "name": "BILLA AG FIL. 6875", "phone": "059915 06875", "brand": "Merkur", "brand:wikidata": "Q1921857"}, "geometry": {"type": "Point", "coordinates": [14.656527, 47.168246]}},
{"type": "Feature", "id": "mXzxTDAQNHFLYGApI_KJPHGsWXM=", "properties": {"ref": "00-5520", "@spider": "merkur", "addr:full": "Kaigasse 32", "addr:city": "Salzburg", "addr:state": "Salzburg", "addr:postcode": "5020", "addr:country": "AT", "name": "BILLA AG FIL. 5520", "phone": "059915 05520", "brand": "Merkur", "brand:wikidata": "Q1921857"}, "geometry": {"type": "Point", "coordinates": [13.050102, 47.796568]}},
{"type": "Feature", "id": "-hKqjStpywZ3hWFD6NiJmvaAjb8=", "properties": {"ref": "00-3401", "@spider": "merkur", "addr:full": "Wiener Strasse 101", "addr:city": "Koenigstetten", "addr:state": "Niederoesterreich", "addr:postcode": "3433", "addr:country": "AT", "name": "BILLA AG FIL. 3401", "phone": "059915 03401", "brand": "Merkur", "brand:wikidata": "Q1921857"}, "geometry": {"type": "Point", "coordinates": [16.1569896092917, 48.3051665]}},
{"type": "Feature", "id": "6xho1GNpKSpbV8NU8f_u_HOvBE0=", "properties": {"ref": "00-7920", "@spider": "merkur", "addr:full": "Hans-Sachs-Strasse 21", "addr:city": "Klagenfurt", "addr:state": "Kaernten", "addr:postcode": "9020", "addr:country": "AT", "name": "BILLA AG FIL. 7920", "phone": "059915 07920", "brand": "Merkur", "brand:wikidata": "Q1921857"}, "geometry": {"type": "Point", "coordinates": [14.300388, 46.619732]}},
{"type": "Feature", "id": "xoTk0MKAqu8pgVoiV-y7VWBSrI8=", "properties": {"ref": "00-220", "@spider": "merkur", "addr:full": "Engerthstrasse 160-178", "addr:city": "Wien", "addr:state": "Wien", "addr:postcode": "1020", "addr:country": "AT", "name": "BILLA AG FIL. 220", "phone": "059915 00220", "brand": "Merkur", "brand:wikidata": "Q1921857"}, "geometry": {"type": "Point", "coordinates": [16.4002, 48.2263]}},
{"type": "Feature", "id": "_0Be00S-esMlgkwxHj3ePBoSxRo=", "properties": {"ref": "00-4700", "@spider": "merkur", "addr:full": "Pesslerstrasse 1", "addr:city": "Riedau", "addr:state": "Oberoesterreich", "addr:postcode": "4752", "addr:country": "AT", "name": "BILLA AG FIL. 4700", "phone": "059915 04700", "brand": "Merkur", "brand:wikidata": "Q1921857"}, "geometry": {"type": "Point", "coordinates": [13.637739, 48.300964]}},
{"type": "Feature", "id": "1IZLhPbyCP5_lhvcB7u4i_LT7GE=", "properties": {"ref": "00-4021", "@spider": "merkur", "addr:full": "Dauphinestrasse 226", "addr:city": "Linz", "addr:state": "Oberoesterreich", "addr:postcode": "4020", "addr:country": "AT", "name": "BILLA AG FIL. 4021", "phone": "059915 04021", "brand": "Merkur", "brand:wikidata": "Q1921857"}, "geometry": {"type": "Point", "coordinates": [14.283864, 48.253714]}},
{"type": "Feature", "id": "0CSeNYIGKmw72Ywvqrvk7z8bI9s=", "properties": {"ref": "00-3322", "@spider": "merkur", "addr:full": "Waidhofner Strasse 1", "addr:city": "Amstetten", "addr:state": "Niederoesterreich", "addr:postcode": "3300", "addr:country": "AT", "name": "BILLA AG FIL. 3322", "phone": "059915 03322", "brand": "Merkur", "brand:wikidata": "Q1921857"}, "geometry": {"type": "Point", "coordinates": [14.8677, 48.1211]}},
{"type": "Feature", "id": "YlJnsDdNwURb6cdMbq8xOf9GxHk=", "properties": {"ref": "00-1002", "@spider": "merkur", "addr:full": "Walcherstrasse 11", "addr:city": "Wien", "addr:state": "Wien", "addr:postcode": "1020", "addr:country": "AT", "name": "BILLA AG FIL. 1002", "phone": "059915 01002", "brand": "Merkur", "brand:wikidata": "Q1921857"}, "geometry": {"type": "Point", "coordinates": [16.3972, 48.2238]}},
{"type": "Feature", "id": "M17wSKwKE-YWTYngURhvKcagCeM=", "properties": {"ref": "00-4022", "@spider": "merkur", "addr:full": "Neubauzeile 69-79", "addr:city": "Linz", "addr:state": "Oberoesterreich", "addr:postcode": "4030", "addr:country": "AT", "name": "BILLA AG FIL. 4022", "phone": "059915 04022", "brand": "Merkur", "brand:wikidata": "Q1921857"}, "geometry": {"type": "Point", "coordinates": [14.282583, 48.244861]}},
{"type": "Feature", "id": "uH0uOfF_V-EMooY7Y3WKzedsLrY=", "properties": {"ref": "00-771", "@spider": "merkur", "addr:full": "Lindengasse 60-62/Zieglergasse 19", "addr:city": "Wien", "addr:state": "Wien", "addr:postcode": "1070", "addr:country": "AT", "name": "BILLA AG FIL. 771", "phone": "059915 00771", "brand": "Merkur", "brand:wikidata": "Q1921857"}, "geometry": {"type": "Point", "coordinates": [16.3447, 48.1991]}},
{"type": "Feature", "id": "sgdzzdz4WWZlLPh4putU7FZilBQ=", "properties": {"ref": "00-2301", "@spider": "merkur", "addr:full": "Gatterederstrasse 9", "addr:city": "Wien", "addr:state": "Wien", "addr:postcode": "1230", "addr:country": "AT", "name": "BILLA AG FIL. 2301", "phone": "059915 02301", "brand": "Merkur", "brand:wikidata": "Q1921857"}, "geometry": {"type": "Point", "coordinates": [16.2909622, 48.1515703]}},
{"type": "Feature", "id": "EnbHYzGhqP9755K2JJacVnMeKB0=", "properties": {"ref": "00-2486", "@spider": "merkur", "addr:full": "Wiener Strasse 5", "addr:city": "Pottendorf", "addr:state": "Niederoesterreich", "addr:postcode": "2486", "addr:country": "AT", "name": "BILLA AG FIL. 2486", "phone": "059915 02486", "brand": "Merkur", "brand:wikidata": "Q1921857"}, "geometry": {"type": "Point", "coordinates": [16.386548, 47.912308]}},
{"type": "Feature", "id": "gE0ik1MOklzcrrdfzTL0S7__qiU=", "properties": {"ref": "00-6123", "@spider": "merkur", "addr:full": "Grazer Strasse 32", "addr:city": "Peggau", "addr:state": "Steiermark", "addr:postcode": "8120", "addr:country": "AT", "name": "BILLA AG FIL. 6123", "phone": "059915 06123", "brand": "Merkur", "brand:wikidata": "Q1921857"}, "geometry": {"type": "Point", "coordinates": [15.345347, 47.201562]}},
{"type": "Feature", "id": "YiikRQqnuGKhS4ef8iZ9BqaKyDI=", "properties": {"ref": "00-6877", "@spider": "merkur", "addr:full": "Klostergasse 17", "addr:city": "Mautern In Steiermark", "addr:state": "Steiermark", "addr:postcode": "8774", "addr:country": "AT", "name": "BILLA AG FIL. 6877", "phone": "059915 06877", "brand": "Merkur", "brand:wikidata": "Q1921857"}, "geometry": {"type": "Point", "coordinates": [14.821982, 47.39793]}},
{"type": "Feature", "id": "qKM8Nige0bErNY4tt_ppaOo3upM=", "properties": {"ref": "00-5414", "@spider": "merkur", "addr:full": "Gewerbestrasse 581", "addr:city": "St. Michael Im Lungau", "addr:state": "Salzburg", "addr:postcode": "5582", "addr:country": "AT", "name": "BILLA AG FIL. 5414", "phone": "059915 05414", "brand": "Merkur", "brand:wikidata": "Q1921857"}, "geometry": {"type": "Point", "coordinates": [13.6338752, 47.0957902]}},
{"type": "Feature", "id": "fWjJ7JP32ETWoAkznHjBQwZSW28=", "properties": {"ref": "00-3139", "@spider": "merkur", "addr:full": "In Luessen 10", "addr:city": "Gaweinstal", "addr:state": "Niederoesterreich", "addr:postcode": "2191", "addr:country": "AT", "name": "BILLA AG FIL. 3139", "phone": "059915 03139", "brand": "Merkur", "brand:wikidata": "Q1921857"}, "geometry": {"type": "Point", "coordinates": [16.59301, 48.48486]}},
{"type": "Feature", "id": "cUqMLupu8WQYClGIekEBIqXRBMg=", "properties": {"ref": "00-952", "@spider": "merkur", "addr:full": "Garnisongasse 18", "addr:city": "Wien", "addr:state": "Wien", "addr:postcode": "1090", "addr:country": "AT", "name": "BILLA AG FIL. 952", "phone": "059915 00952", "brand": "Merkur", "brand:wikidata": "Q1921857"}, "geometry": {"type": "Point", "coordinates": [16.35637, 48.21708]}},
{"type": "Feature", "id": "doDjrB3R6BVRSUN_7VOK0PVHPzw=", "properties": {"ref": "00-239", "@spider": "merkur", "addr:full": "Rotensterngasse 21-23.", "addr:city": "Wien", "addr:state": "Wien", "addr:postcode": "1020", "addr:country": "AT", "name": "BILLA AG FIL. 239", "phone": "059915 00239", "brand": "Merkur", "brand:wikidata": "Q1921857"}, "geometry": {"type": "Point", "coordinates": [16.38387, 48.21746]}},
{"type": "Feature", "id": "5ltDvp4rga91YtNmLLV6niI7WV0=", "properties": {"ref": "00-7535", "@spider": "merkur", "addr:full": "Holztratte 30", "addr:city": "Gmuend", "addr:state": "Kaernten", "addr:postcode": "9853", "addr:country": "AT", "name": "BILLA AG FIL. 7535", "phone": "059915 07535", "brand": "Merkur", "brand:wikidata": "Q1921857"}, "geometry": {"type": "Point", "coordinates": [13.5304334, 46.9059209]}},
{"type": "Feature", "id": "CBQYpR9BEXNQ7q6nc9y4d3ogpBw=", "properties": {"ref": "00-3052", "@spider": "merkur", "addr:full": "Dr. Adolf Sch\u00e4rf Strasse 10", "addr:city": "St. Poelten", "addr:state": "Niederoesterreich", "addr:postcode": "3100", "addr:country": "AT", "name": "BILLA AG FIL. 3052", "phone": "059915 03052", "brand": "Merkur", "brand:wikidata": "Q1921857"}, "geometry": {"type": "Point", "coordinates": [15.6376855, 48.2212841]}},
{"type": "Feature", "id": "Z46ap7cPjAyY3-CinphSuk8-lS4=", "properties": {"ref": "00-4076", "@spider": "merkur", "addr:full": "Wiener Strasse 24-26", "addr:city": "Attnang-Puchheim", "addr:state": "Oberoesterreich", "addr:postcode": "4800", "addr:country": "AT", "name": "BILLA AG FIL. 4076", "phone": "059915 04076", "brand": "Merkur", "brand:wikidata": "Q1921857"}, "geometry": {"type": "Point", "coordinates": [13.7273098, 48.0182103]}},
{"type": "Feature", "id": "A8LGGGZehIFAqI9iMJS7s8gvTVo=", "properties": {"ref": "00-4126", "@spider": "merkur", "addr:full": "Hauptstrasse 21", "addr:city": "Kronstorf", "addr:state": "Oberoesterreich", "addr:postcode": "4484", "addr:country": "AT", "name": "BILLA AG FIL. 4126", "phone": "059915 04126", "brand": "Merkur", "brand:wikidata": "Q1921857"}, "geometry": {"type": "Point", "coordinates": [14.46536, 48.14506]}},
{"type": "Feature", "id": "VdWOCHBoDw4uxevRlXwtk3EECCQ=", "properties": {"ref": "00-7536", "@spider": "merkur", "addr:full": "Klagenfurter Strasse 28", "addr:city": "Ferlach", "addr:state": "Kaernten", "addr:postcode": "9170", "addr:country": "AT", "name": "BILLA AG FIL. 7536", "phone": "059915 07536", "brand": "Merkur", "brand:wikidata": "Q1921857"}, "geometry": {"type": "Point", "coordinates": [14.2906, 46.52878]}},
{"type": "Feature", "id": "uNm68CTh8emVK1j4MWRyM3O0vkc=", "properties": {"ref": "00-5067", "@spider": "merkur", "addr:full": "Markt 295", "addr:city": "Abtenau", "addr:state": "Salzburg", "addr:postcode": "5441", "addr:country": "AT", "name": "BILLA AG FIL. 5067", "phone": "059915 05067", "brand": "Merkur", "brand:wikidata": "Q1921857"}, "geometry": {"type": "Point", "coordinates": [13.3401187, 47.5666356]}},
{"type": "Feature", "id": "dMzyeGvOLT-I5OnWcNcYB0bOGtE=", "properties": {"ref": "00-3253", "@spider": "merkur", "addr:full": "Hauptstrasse 27", "addr:city": "Pernitz", "addr:state": "Niederoesterreich", "addr:postcode": "2763", "addr:country": "AT", "name": "BILLA AG FIL. 3253", "phone": "059915 03253", "brand": "Merkur", "brand:wikidata": "Q1921857"}, "geometry": {"type": "Point", "coordinates": [15.96614, 47.89652]}},
{"type": "Feature", "id": "1h9a5FPw90oljaeB8I9F5DY-vtk=", "properties": {"ref": "00-5133", "@spider": "merkur", "addr:full": "Halleiner Landesstr. 63a", "addr:city": "Oberalm", "addr:state": "Salzburg", "addr:postcode": "5411", "addr:country": "AT", "name": "BILLA AG FIL. 5133", "phone": "059915 05133", "brand": "Merkur", "brand:wikidata": "Q1921857"}, "geometry": {"type": "Point", "coordinates": [13.0968171, 47.7031392]}},
{"type": "Feature", "id": "T27_PdJMqIW02VCqEWxhBdk4tTU=", "properties": {"ref": "00-7538", "@spider": "merkur", "addr:full": "Siebenhuegelstr. 83", "addr:city": "Klagenfurt", "addr:state": "Kaernten", "addr:postcode": "9020", "addr:country": "AT", "name": "BILLA AG FIL. 7538", "phone": "059915 07538", "brand": "Merkur", "brand:wikidata": "Q1921857"}, "geometry": {"type": "Point", "coordinates": [14.28095, 46.61122]}},
{"type": "Feature", "id": "_A9_vOTtB-CxLR--58fdxZ5-mOs=", "properties": {"ref": "00-6508", "@spider": "merkur", "addr:full": "Petrifelderstrasse 14", "addr:city": "Graz-St.Peter", "addr:state": "Steiermark", "addr:postcode": "8042", "addr:country": "AT", "name": "BILLA AG FIL. 6508", "phone": "059915 06508", "brand": "Merkur", "brand:wikidata": "Q1921857"}, "geometry": {"type": "Point", "coordinates": [15.47226, 47.05398]}},
{"type": "Feature", "id": "JzmEigRPFOxnH62p5IzXBxYWZ-c=", "properties": {"ref": "00-3507", "@spider": "merkur", "addr:full": "Hauptplatz 12-14 .", "addr:city": "Tulln", "addr:state": "Niederoesterreich", "addr:postcode": "3430", "addr:country": "AT", "name": "BILLA AG FIL. 3507", "phone": "059915 03507", "brand": "Merkur", "brand:wikidata": "Q1921857"}, "geometry": {"type": "Point", "coordinates": [16.05043, 48.33073]}},
{"type": "Feature", "id": "Ke4G6NQ16JevzZtHoy0nmQo4Fec=", "properties": {"ref": "00-5018", "@spider": "merkur", "addr:full": "Landesstrasse 21", "addr:city": "Henndorf Am Wallersee", "addr:state": "Salzburg", "addr:postcode": "5302", "addr:country": "AT", "name": "BILLA AG FIL. 5018", "phone": "059915 05018", "brand": "Merkur", "brand:wikidata": "Q1921857"}, "geometry": {"type": "Point", "coordinates": [13.18117, 47.89258]}},
{"type": "Feature", "id": "UiHVqTpiMfF4hTHP8hl_bxYm4j0=", "properties": {"ref": "00-7204", "@spider": "merkur", "addr:full": "Bahngasse 66", "addr:city": "Deutschkreutz", "addr:state": "Burgenland", "addr:postcode": "7301", "addr:country": "AT", "name": "BILLA AG FIL. 7204", "phone": "059915 07204", "brand": "Merkur", "brand:wikidata": "Q1921857"}, "geometry": {"type": "Point", "coordinates": [16.6120826, 47.6027968]}},
{"type": "Feature", "id": "zs3gcOcsptDQWjTSL88TWhvsNjI=", "properties": {"ref": "00-2013", "@spider": "merkur", "addr:full": "Wallensteinstr. 45-47", "addr:city": "Wien", "addr:state": "Wien", "addr:postcode": "1200", "addr:country": "AT", "name": "BILLA AG FIL. 2013", "phone": "059915 02013", "brand": "Merkur", "brand:wikidata": "Q1921857"}, "geometry": {"type": "Point", "coordinates": [16.3735854, 48.2307547]}},
{"type": "Feature", "id": "DjXV28Bj9WGFcDqMNya6xLmGPDo=", "properties": {"ref": "00-4690", "@spider": "merkur", "addr:full": "Aisttalstrasse 34a", "addr:city": "Schwertberg", "addr:state": "Oberoesterreich", "addr:postcode": "4311", "addr:country": "AT", "name": "BILLA AG FIL. 4690", "phone": "059915 04690", "brand": "Merkur", "brand:wikidata": "Q1921857"}, "geometry": {"type": "Point", "coordinates": [14.576766, 48.273717]}},
{"type": "Feature", "id": "cXswxkFdBhIwHDCJ9KOM-6Iq-ck=", "properties": {"ref": "00-5210", "@spider": "merkur", "addr:full": "Wiener Bundesstrasse 83", "addr:city": "Hallwang", "addr:state": "Salzburg", "addr:postcode": "5300", "addr:country": "AT", "name": "BILLA AG FIL. 5210", "phone": "059915 05210", "brand": "Merkur", "brand:wikidata": "Q1921857"}, "geometry": {"type": "Point", "coordinates": [13.108143, 47.8546678]}},
{"type": "Feature", "id": "KXqGPrJTxviCED5RQ6FmQPFpuFw=", "properties": {"ref": "00-3059", "@spider": "merkur", "addr:full": "Sueddruckgasse 1-7", "addr:city": "Oeynhausen", "addr:state": "Niederoesterreich", "addr:postcode": "2512", "addr:country": "AT", "name": "BILLA AG FIL. 3059", "phone": "059915 03059", "brand": "Merkur", "brand:wikidata": "Q1921857"}, "geometry": {"type": "Point", "coordinates": [16.2892408, 47.9861714]}},
{"type": "Feature", "id": "CsTfvCOrQztMdp2umtLsDU8DfuE=", "properties": {"ref": "00-3105", "@spider": "merkur", "addr:full": "An Der Stadlhuette 1", "addr:city": "Tullnerbach", "addr:state": "Niederoesterreich", "addr:postcode": "3013", "addr:country": "AT", "name": "BILLA AG FIL. 3105", "phone": "059915 03105", "brand": "Merkur", "brand:wikidata": "Q1921857"}, "geometry": {"type": "Point", "coordinates": [16.12377, 48.18555]}},
{"type": "Feature", "id": "cQaygW2toK6BG6KISmPd2VpAjKw=", "properties": {"ref": "00-4059", "@spider": "merkur", "addr:full": "Carl Richter Strasse 2", "addr:city": "Wels", "addr:state": "Oberoesterreich", "addr:postcode": "4600", "addr:country": "AT", "name": "BILLA AG FIL. 4059", "phone": "059915 04059", "brand": "Merkur", "brand:wikidata": "Q1921857"}, "geometry": {"type": "Point", "coordinates": [14.0156284, 48.1629969]}},
{"type": "Feature", "id": "oN_YRESQz2qElmNQlrZBedUgKYw=", "properties": {"ref": "00-7596", "@spider": "merkur", "addr:full": "Feistritz/Gail Nr. 300", "addr:city": "Feistritz An Der Gail", "addr:state": "Kaernten", "addr:postcode": "9613", "addr:country": "AT", "name": "BILLA AG FIL. 7596", "phone": "059915 07596", "brand": "Merkur", "brand:wikidata": "Q1921857"}, "geometry": {"type": "Point", "coordinates": [13.61124, 46.58278]}},
{"type": "Feature", "id": "UAt9HbXknfJnEubVuPq1PV9pStE=", "properties": {"ref": "00-3379", "@spider": "merkur", "addr:full": "Rauscherstr. 12", "addr:city": "Neufurth (Amstetten)", "addr:state": "Niederoesterreich", "addr:postcode": "3363", "addr:country": "AT", "name": "BILLA AG FIL. 3379", "phone": "059915 03379", "brand": "Merkur", "brand:wikidata": "Q1921857"}, "geometry": {"type": "Point", "coordinates": [14.80667, 48.08183]}},
{"type": "Feature", "id": "jMazk-dQhOqFiMT4kngablXkz40=", "properties": {"ref": "00-7546", "@spider": "merkur", "addr:full": "Villacher Schaechtestrasse 33", "addr:city": "Villach", "addr:state": "Kaernten", "addr:postcode": "9500", "addr:country": "AT", "name": "BILLA AG FIL. 7546", "phone": "059915 07546", "brand": "Merkur", "brand:wikidata": "Q1921857"}, "geometry": {"type": "Point", "coordinates": [13.827063, 46.5996644]}},
{"type": "Feature", "id": "B6PtYWAKsXK04FMIzXGLfdD8Jo4=", "properties": {"ref": "00-6518", "@spider": "merkur", "addr:full": "St. Veiterstrasse 11-13", "addr:city": "Graz", "addr:state": "Steiermark", "addr:postcode": "8045", "addr:country": "AT", "name": "BILLA AG FIL. 6518", "phone": "059915 06518", "brand": "Merkur", "brand:wikidata": "Q1921857"}, "geometry": {"type": "Point", "coordinates": [15.42155, 47.11388]}},
{"type": "Feature", "id": "5DAyni6A6-IcSv3KGc4RUYeiXOo=", "properties": {"ref": "00-4551", "@spider": "merkur", "addr:full": "Linzer Str. 34", "addr:city": "Windischgarsten", "addr:state": "Oberoesterreich", "addr:postcode": "4580", "addr:country": "AT", "name": "BILLA AG FIL. 4551", "phone": "059915 04551", "brand": "Merkur", "brand:wikidata": "Q1921857"}, "geometry": {"type": "Point", "coordinates": [14.31397, 47.72324]}},
{"type": "Feature", "id": "uvwYed-1bmRdLTx-HZGzyIAg-l8=", "properties": {"ref": "00-1425", "@spider": "merkur", "addr:full": "Linzerstrasse 112-116", "addr:city": "Wien", "addr:state": "Wien", "addr:postcode": "1140", "addr:country": "AT", "name": "BILLA AG FIL. 1425", "phone": "059915 01425", "brand": "Merkur", "brand:wikidata": "Q1921857"}, "geometry": {"type": "Point", "coordinates": [16.3002, 48.1938]}},
{"type": "Feature", "id": "zufGzEC6gtHX4HDY0IUiPtm8e4E=", "properties": {"ref": "00-255", "@spider": "merkur", "addr:full": "Handelskai 132", "addr:city": "Wien", "addr:state": "Wien", "addr:postcode": "1020", "addr:country": "AT", "name": "BILLA AG FIL. 255", "phone": "059915 00255", "brand": "Merkur", "brand:wikidata": "Q1921857"}, "geometry": {"type": "Point", "coordinates": [16.3955, 48.2325]}},
{"type": "Feature", "id": "YozcJCnw_mrEqgfsF0vV2-Kf0_U=", "properties": {"ref": "00-2154", "@spider": "merkur", "addr:full": "Pragerstrasse 274", "addr:city": "Wien", "addr:state": "Wien", "addr:postcode": "1210", "addr:country": "AT", "name": "BILLA AG FIL. 2154", "phone": "059915 02154", "brand": "Merkur", "brand:wikidata": "Q1921857"}, "geometry": {"type": "Point", "coordinates": [16.38393, 48.28856]}},
{"type": "Feature", "id": "rm8mNBSUa7XI5x3wR5_ZEXjVH4s=", "properties": {"ref": "00-1230", "@spider": "merkur", "addr:full": "Arndtstrasse 21-23", "addr:city": "Wien", "addr:state": "Wien", "addr:postcode": "1120", "addr:country": "AT", "name": "BILLA AG FIL. 1230", "phone": "059915 01230", "brand": "Merkur", "brand:wikidata": "Q1921857"}, "geometry": {"type": "Point", "coordinates": [16.34033, 48.18474]}},
{"type": "Feature", "id": "Q8yrlrZbcfPigG07eyzE8oAoPNI=", "properties": {"ref": "00-1297", "@spider": "merkur", "addr:full": "Hervicusgasse 4", "addr:city": "Wien", "addr:state": "Wien", "addr:postcode": "1120", "addr:country": "AT", "name": "BILLA AG FIL. 1297", "phone": "059915 01297", "brand": "Merkur", "brand:wikidata": "Q1921857"}, "geometry": {"type": "Point", "coordinates": [16.304375, 48.16759]}},
{"type": "Feature", "id": "iBzZD5SukSCONDHtfbqXzrU_x2o=", "properties": {"ref": "00-1500", "@spider": "merkur", "addr:full": "Giselhergasse 11", "addr:city": "Wien", "addr:state": "Wien", "addr:postcode": "1150", "addr:country": "AT", "name": "BILLA AG FIL. 1500", "phone": "059915 01500", "brand": "Merkur", "brand:wikidata": "Q1921857"}, "geometry": {"type": "Point", "coordinates": [16.32803, 48.20371]}},
{"type": "Feature", "id": "AUQAmhObBMceW0AhCRGy-_vWzVI=", "properties": {"ref": "00-1586", "@spider": "merkur", "addr:full": "Anschuetzgasse 26", "addr:city": "Wien", "addr:state": "Wien", "addr:postcode": "1150", "addr:country": "AT", "name": "BILLA AG FIL. 1586", "phone": "059915 01586", "brand": "Merkur", "brand:wikidata": "Q1921857"}, "geometry": {"type": "Point", "coordinates": [16.3232457, 48.1886746]}},
{"type": "Feature", "id": "N8g86z5PCsOGG6x3Mktn3o7UBM8=", "properties": {"ref": "00-497", "@spider": "merkur", "addr:full": "Ploesslgasse 5-7", "addr:city": "Wien", "addr:state": "Wien", "addr:postcode": "1040", "addr:country": "AT", "name": "BILLA AG FIL. 497", "phone": "059915 00497", "brand": "Merkur", "brand:wikidata": "Q1921857"}, "geometry": {"type": "Point", "coordinates": [16.3763715, 48.1941218]}},
{"type": "Feature", "id": "5cq3bv1maWoATvm9_YozS-Z0OXY=", "properties": {"ref": "00-604", "@spider": "merkur", "addr:full": "Linke Wienzeile 18", "addr:city": "Wien", "addr:state": "Wien", "addr:postcode": "1060", "addr:country": "AT", "name": "BILLA AG FIL. 604", "phone": "059915 00604", "brand": "Merkur", "brand:wikidata": "Q1921857"}, "geometry": {"type": "Point", "coordinates": [16.3633, 48.19884]}},
{"type": "Feature", "id": "t9ZvbcAgRji5g1S1VCDYWTkU5sM=", "properties": {"ref": "00-786", "@spider": "merkur", "addr:full": "Schottenfeldgasse 87", "addr:city": "Wien", "addr:state": "Wien", "addr:postcode": "1070", "addr:country": "AT", "name": "BILLA AG FIL. 786", "phone": "059915 00786", "brand": "Merkur", "brand:wikidata": "Q1921857"}, "geometry": {"type": "Point", "coordinates": [16.3428701, 48.2059846]}},
{"type": "Feature", "id": "PdxvUHHlMHZhYlfm8Dp7fJfl_Nk=", "properties": {"ref": "00-943", "@spider": "merkur", "addr:full": "Alser Strasse 4", "addr:city": "Wien", "addr:state": "Wien", "addr:postcode": "1090", "addr:country": "AT", "name": "BILLA AG FIL. 943", "phone": "059915 00943", "brand": "Merkur", "brand:wikidata": "Q1921857"}, "geometry": {"type": "Point", "coordinates": [16.3530603, 48.2164529]}},
{"type": "Feature", "id": "Kn1OG53RX5Vd4DjxmM0QwSiptQQ=", "properties": {"ref": "00-117", "@spider": "merkur", "addr:full": "Singerstrasse 6", "addr:city": "Wien", "addr:state": "Wien", "addr:postcode": "1010", "addr:country": "AT", "name": "BILLA AG FIL. 117", "phone": "059915 00117", "brand": "Merkur", "brand:wikidata": "Q1921857"}, "geometry": {"type": "Point", "coordinates": [16.37256, 48.20772]}},
{"type": "Feature", "id": "P0QJAwmxgeNZoaw3j4iMIvWeiWg=", "properties": {"ref": "00-372", "@spider": "merkur", "addr:full": "Loewengasse 33", "addr:city": "Wien", "addr:state": "Wien", "addr:postcode": "1030", "addr:country": "AT", "name": "BILLA AG FIL. 372", "phone": "059915 00372", "brand": "Merkur", "brand:wikidata": "Q1921857"}, "geometry": {"type": "Point", "coordinates": [16.39304, 48.20873]}},
{"type": "Feature", "id": "3nSZYwq0LBMkn3BM2j64tAnU7Gs=", "properties": {"ref": "00-7575", "@spider": "merkur", "addr:full": "Priesterhausgasse 8", "addr:city": "Klagenfurt", "addr:state": "Kaernten", "addr:postcode": "9020", "addr:country": "AT", "name": "BILLA AG FIL. 7575", "phone": "059915 07575", "brand": "Merkur", "brand:wikidata": "Q1921857"}, "geometry": {"type": "Point", "coordinates": [14.3114789, 46.6255081]}},
{"type": "Feature", "id": "C_jZFWi5TRSZOYAU_TDaRVlIo34=", "properties": {"ref": "00-7556", "@spider": "merkur", "addr:full": "Markus Pernhart-Str. 20", "addr:city": "Villach", "addr:state": "Kaernten", "addr:postcode": "9500", "addr:country": "AT", "name": "BILLA AG FIL. 7556", "phone": "059915 07556", "brand": "Merkur", "brand:wikidata": "Q1921857"}, "geometry": {"type": "Point", "coordinates": [13.85589, 46.62365]}},
{"type": "Feature", "id": "7KxRW50jekSx9mdbR2oabRTFyPU=", "properties": {"ref": "00-4418", "@spider": "merkur", "addr:full": "Ramsauerstrasse 70", "addr:city": "Linz", "addr:state": "Oberoesterreich", "addr:postcode": "4020", "addr:country": "AT", "name": "BILLA AG FIL. 4418", "phone": "059915 04418", "brand": "Merkur", "brand:wikidata": "Q1921857"}, "geometry": {"type": "Point", "coordinates": [14.28782, 48.26984]}},
{"type": "Feature", "id": "2PjaMaNLh5mUptFezSWsYzP3P0Q=", "properties": {"ref": "00-2109", "@spider": "merkur", "addr:full": "Bruennerstr. 219-221", "addr:city": "Wien", "addr:state": "Wien", "addr:postcode": "1210", "addr:country": "AT", "name": "BILLA AG FIL. 2109", "phone": "059915 02109", "brand": "Merkur", "brand:wikidata": "Q1921857"}, "geometry": {"type": "Point", "coordinates": [16.417366, 48.293056]}},
{"type": "Feature", "id": "7DxXDaXVdQrW72r_d2waB8b6K2g=", "properties": {"ref": "00-5078", "@spider": "merkur", "addr:full": "Griesgasse 19-21", "addr:city": "Salzburg", "addr:state": "Salzburg", "addr:postcode": "5020", "addr:country": "AT", "name": "BILLA AG CORSO FIL. 5078", "phone": "059915 05078", "brand": "Merkur", "brand:wikidata": "Q1921857"}, "geometry": {"type": "Point", "coordinates": [13.04199, 47.8008]}},
{"type": "Feature", "id": "g4aBZUC9Tjkue4ciPYtChdiLPbg=", "properties": {"ref": "00-8198", "@spider": "merkur", "addr:full": "Speckbacherstrasse 13", "addr:city": "St. Johann In Tirol", "addr:state": "Tirol", "addr:postcode": "6380", "addr:country": "AT", "name": "BILLA AG FIL. 8198", "phone": "059915 08198", "brand": "Merkur", "brand:wikidata": "Q1921857"}, "geometry": {"type": "Point", "coordinates": [12.42777, 47.5212]}},
{"type": "Feature", "id": "adoX4lySw556MW6kVorVqA5okQA=", "properties": {"ref": "00-3135", "@spider": "merkur", "addr:full": "Schulstrasse 2", "addr:city": "Gresten", "addr:state": "Niederoesterreich", "addr:postcode": "3264", "addr:country": "AT", "name": "BILLA AG FIL. 3135", "phone": "059915 03135", "brand": "Merkur", "brand:wikidata": "Q1921857"}, "geometry": {"type": "Point", "coordinates": [15.02765, 47.98809]}},
{"type": "Feature", "id": "XXEwuefoERi-yvQ6FJVPjbe7q3Q=", "properties": {"ref": "00-5088", "@spider": "merkur", "addr:full": "Rainerstrasse 19-23", "addr:city": "Salzburg", "addr:state": "Salzburg", "addr:postcode": "5020", "addr:country": "AT", "name": "BILLA AG FIL. 5088", "phone": "059915 05088", "brand": "Merkur", "brand:wikidata": "Q1921857"}, "geometry": {"type": "Point", "coordinates": [13.042287, 47.810481]}},
{"type": "Feature", "id": "BRFHPnrLs_YgwDZ6tesXQFG2Jvw=", "properties": {"ref": "00-4768", "@spider": "merkur", "addr:full": "Badstrasse 43", "addr:city": "Frankenburg Am Hausruck", "addr:state": "Oberoesterreich", "addr:postcode": "4873", "addr:country": "AT", "name": "BILLA AG FIL. 4768", "phone": "059915 04768", "brand": "Merkur", "brand:wikidata": "Q1921857"}, "geometry": {"type": "Point", "coordinates": [13.48207, 48.06268]}},
{"type": "Feature", "id": "pTk1MiKknGXdab4W53prb2_J7C4=", "properties": {"ref": "00-3149", "@spider": "merkur", "addr:full": "Utzstrasse 1", "addr:city": "Krems", "addr:state": "Niederoesterreich", "addr:postcode": "3500", "addr:country": "AT", "name": "BILLA AG FIL. 3149", "phone": "059915 03149", "brand": "Merkur", "brand:wikidata": "Q1921857"}, "geometry": {"type": "Point", "coordinates": [15.596666, 48.409142]}},
{"type": "Feature", "id": "nrgJHg2j8sXIOr_eayEr-d_HfN0=", "properties": {"ref": "00-1296", "@spider": "merkur", "addr:full": "Laengenfeldgasse 26", "addr:city": "Wien", "addr:state": "Wien", "addr:postcode": "1120", "addr:country": "AT", "name": "BILLA AG FIL. 1296", "phone": "059915 01296", "brand": "Merkur", "brand:wikidata": "Q1921857"}, "geometry": {"type": "Point", "coordinates": [16.339383, 48.1799527]}},
{"type": "Feature", "id": "5wpK49NjYXW1zQnAKMFd0JlSa04=", "properties": {"ref": "00-7245", "@spider": "merkur", "addr:full": "Faludistrasse 16", "addr:city": "Guessing", "addr:state": "Burgenland", "addr:postcode": "7540", "addr:country": "AT", "name": "BILLA AG FIL. 7245", "phone": "059915 07245", "brand": "Merkur", "brand:wikidata": "Q1921857"}, "geometry": {"type": "Point", "coordinates": [16.3294697, 47.0580746]}},
{"type": "Feature", "id": "uYtjYoQoqNliSHnkOIhTOZC3QPg=", "properties": {"ref": "00-7592", "@spider": "merkur", "addr:full": "Kaerntner Strasse 71", "addr:city": "Arnoldstein", "addr:state": "Kaernten", "addr:postcode": "9601", "addr:country": "AT", "name": "BILLA AG FIL. 7592", "phone": "059915 07592", "brand": "Merkur", "brand:wikidata": "Q1921857"}, "geometry": {"type": "Point", "coordinates": [13.69864, 46.54993]}},
{"type": "Feature", "id": "ImTekSm4NOzKTbZpBkKx2XQIO50=", "properties": {"ref": "00-7660", "@spider": "merkur", "addr:full": "Koetschach 390", "addr:city": "Koetschach Mauthen", "addr:state": "Kaernten", "addr:postcode": "9640", "addr:country": "AT", "name": "BILLA AG FIL. 7660", "phone": "059915 07660", "brand": "Merkur", "brand:wikidata": "Q1921857"}, "geometry": {"type": "Point", "coordinates": [12.9999, 46.67111]}},
{"type": "Feature", "id": "6XIQxwu58ln73QT82wSq7PIOg8Y=", "properties": {"ref": "00-8159", "@spider": "merkur", "addr:full": "Innsbruckerstr. 272", "addr:city": "Seefeld In Tirol", "addr:state": "Tirol", "addr:postcode": "6100", "addr:country": "AT", "name": "BILLA AG FIL. 8159", "phone": "059915 08159", "brand": "Merkur", "brand:wikidata": "Q1921857"}, "geometry": {"type": "Point", "coordinates": [11.19026, 47.32547]}},
{"type": "Feature", "id": "AXVscAdzeOUxCeRa-uDWobSDL_Q=", "properties": {"ref": "00-8409", "@spider": "merkur", "addr:full": "Wallenmahd 17", "addr:city": "Dornbirn", "addr:state": "Vorarlberg", "addr:postcode": "6850", "addr:country": "AT", "name": "BILLA AG FIL. 8409", "phone": "059915 08409", "brand": "Merkur", "brand:wikidata": "Q1921857"}, "geometry": {"type": "Point", "coordinates": [9.72936, 47.39257]}},
{"type": "Feature", "id": "lxn5B7pv_mN_gTunkEL-rQ2ba_8=", "properties": {"ref": "00-8940", "@spider": "merkur", "addr:full": "Proleberstrasse 2", "addr:city": "Niklasdorf", "addr:state": "Steiermark", "addr:postcode": "8712", "addr:country": "AT", "name": "BILLA AG FIL. 8940", "phone": "059915 08940", "brand": "Merkur", "brand:wikidata": "Q1921857"}, "geometry": {"type": "Point", "coordinates": [15.15137, 47.39363]}},
{"type": "Feature", "id": "RaZctHwI3gZc9-1c01GdJOfmw48=", "properties": {"ref": "00-9407", "@spider": "merkur", "addr:full": "Wienerstr. 62", "addr:city": "Poechlarn", "addr:state": "Niederoesterreich", "addr:postcode": "3380", "addr:country": "AT", "name": "BILLA AG FIL. 9407", "phone": "059915 09407", "brand": "Merkur", "brand:wikidata": "Q1921857"}, "geometry": {"type": "Point", "coordinates": [15.22519, 48.20967]}},
{"type": "Feature", "id": "kbytT1zrwQt-0GzSnQTj9m571TE=", "properties": {"ref": "00-3025", "@spider": "merkur", "addr:full": "Wiener Strasse 32-32a", "addr:city": "Stockerau", "addr:state": "Niederoesterreich", "addr:postcode": "2000", "addr:country": "AT", "name": "BILLA AG FIL. 3025", "phone": "059915 03025", "brand": "Merkur", "brand:wikidata": "Q1921857"}, "geometry": {"type": "Point", "coordinates": [16.234725, 48.3855962]}},
{"type": "Feature", "id": "vE7XJ25aTWNx9CLzutNP35P7S6o=", "properties": {"ref": "00-2223", "@spider": "merkur", "addr:full": "Breitenleerstrasse 22", "addr:city": "Wien", "addr:state": "Wien", "addr:postcode": "1220", "addr:country": "AT", "name": "BILLA AG FIL. 2223", "phone": "059915 02223", "brand": "Merkur", "brand:wikidata": "Q1921857"}, "geometry": {"type": "Point", "coordinates": [16.455996, 48.250152]}},
{"type": "Feature", "id": "i8tKXfKNKL754aKpFKn5BqrDdoI=", "properties": {"ref": "00-3404", "@spider": "merkur", "addr:full": "Kirchengasse 8", "addr:city": "Leopoldsdorf", "addr:state": "Niederoesterreich", "addr:postcode": "2285", "addr:country": "AT", "name": "BILLA AG FIL. 3404", "phone": "059915 03404", "brand": "Merkur", "brand:wikidata": "Q1921857"}, "geometry": {"type": "Point", "coordinates": [16.68869, 48.22314]}},
{"type": "Feature", "id": "XsPY5lVqtIPUNcx1EUTWX3NiYJ4=", "properties": {"ref": "00-4407", "@spider": "merkur", "addr:full": "Schulstrasse 9", "addr:city": "Wilhering", "addr:state": "Oberoesterreich", "addr:postcode": "4073", "addr:country": "AT", "name": "BILLA AG FIL. 4407", "phone": "059915 04407", "brand": "Merkur", "brand:wikidata": "Q1921857"}, "geometry": {"type": "Point", "coordinates": [14.1663, 48.3011]}},
{"type": "Feature", "id": "QP0BiCP4q0HnL7Dra6YjpqRwDYk=", "properties": {"ref": "00-5031", "@spider": "merkur", "addr:full": "Innsbrucker Bundesstr. 28", "addr:city": "Salzburg", "addr:state": "Salzburg", "addr:postcode": "5020", "addr:country": "AT", "name": "BILLA AG FIL. 5031", "phone": "059915 05031", "brand": "Merkur", "brand:wikidata": "Q1921857"}, "geometry": {"type": "Point", "coordinates": [13.02194, 47.80525]}},
{"type": "Feature", "id": "ABUCUR39qC5jVvmJx5yEEe63Kr0=", "properties": {"ref": "00-7915", "@spider": "merkur", "addr:full": "V\u00f6lkermarkter Strasse  28", "addr:city": "Bleiburg", "addr:state": "Kaernten", "addr:postcode": "9150", "addr:country": "AT", "name": "BILLA AG FIL. 7915", "phone": "059915 07915", "brand": "Merkur", "brand:wikidata": "Q1921857"}, "geometry": {"type": "Point", "coordinates": [14.795486, 46.592856]}},
{"type": "Feature", "id": "o1ugNIvRylMSqJ37KSqQdkbSHzY=", "properties": {"ref": "00-6823", "@spider": "merkur", "addr:full": "Fasanenweg 57", "addr:city": "Hartberg", "addr:state": "Steiermark", "addr:postcode": "8230", "addr:country": "AT", "name": "BILLA AG FIL. 6823", "phone": "059915 06823", "brand": "Merkur", "brand:wikidata": "Q1921857"}, "geometry": {"type": "Point", "coordinates": [15.991641, 47.285964]}},
{"type": "Feature", "id": "dbzAocTe7MnrmcfzIG0QXCB1Sys=", "properties": {"ref": "00-6859", "@spider": "merkur", "addr:full": "Kaerntnerstrasse 18", "addr:city": "Koeflach", "addr:state": "Steiermark", "addr:postcode": "8580", "addr:country": "AT", "name": "BILLA AG FIL. 6859", "phone": "059915 06859", "brand": "Merkur", "brand:wikidata": "Q1921857"}, "geometry": {"type": "Point", "coordinates": [15.080101, 47.06235]}},
{"type": "Feature", "id": "fnqrA_oHM8Mn9Pyw6iFFUpvIVHA=", "properties": {"ref": "00-6895", "@spider": "merkur", "addr:full": "Salzburgerstrasse 494", "addr:city": "Stainach", "addr:state": "Steiermark", "addr:postcode": "8950", "addr:country": "AT", "name": "BILLA AG FIL. 6895", "phone": "059915 06895", "brand": "Merkur", "brand:wikidata": "Q1921857"}, "geometry": {"type": "Point", "coordinates": [14.10528, 47.53229]}},
{"type": "Feature", "id": "5YzE4X8qEE1OxNyBq6Jk3Q2LX5s=", "properties": {"ref": "00-1801", "@spider": "merkur", "addr:full": "Martinstrasse 53", "addr:city": "Wien", "addr:state": "Wien", "addr:postcode": "1180", "addr:country": "AT", "name": "BILLA AG FIL. 1801", "phone": "059915 01801", "brand": "Merkur", "brand:wikidata": "Q1921857"}, "geometry": {"type": "Point", "coordinates": [16.3416, 48.2227]}},
{"type": "Feature", "id": "eKb06I-dgez3EileqsJr_JUMOys=", "properties": {"ref": "00-1220", "@spider": "merkur", "addr:full": "Bunsengasse 4", "addr:city": "Wien", "addr:state": "Wien", "addr:postcode": "1210", "addr:country": "AT", "name": "BILLA AG FIL. 1220", "phone": "059915 01220", "brand": "Merkur", "brand:wikidata": "Q1921857"}, "geometry": {"type": "Point", "coordinates": [16.390892, 48.2643517]}},
{"type": "Feature", "id": "_4yYyrTy_02zCQz_pqWcpzhiZbs=", "properties": {"ref": "00-3711", "@spider": "merkur", "addr:full": "Linzer Strasse 1", "addr:city": "Neumarkt An Der Ybbs", "addr:state": "Niederoesterreich", "addr:postcode": "3371", "addr:country": "AT", "name": "BILLA AG FIL. 3711", "phone": "059915 03711", "brand": "Merkur", "brand:wikidata": "Q1921857"}, "geometry": {"type": "Point", "coordinates": [15.055, 48.1411]}},
{"type": "Feature", "id": "XVkXhpSS4DplUaVvtA8L74EeN30=", "properties": {"ref": "00-6677", "@spider": "merkur", "addr:full": "Hilmgasse 4", "addr:city": "Graz", "addr:state": "Steiermark", "addr:postcode": "8010", "addr:country": "AT", "name": "BILLA AG FIL. 6677", "phone": "059915 06677", "brand": "Merkur", "brand:wikidata": "Q1921857"}, "geometry": {"type": "Point", "coordinates": [15.45944, 47.08388]}},
{"type": "Feature", "id": "M2XPjqHzPINlMlBLHhFq5mGea_E=", "properties": {"ref": "00-7610", "@spider": "merkur", "addr:full": "Klagenfurter-Strasse 38", "addr:city": "Voelkermarkt", "addr:state": "Kaernten", "addr:postcode": "9100", "addr:country": "AT", "name": "BILLA AG FIL. 7610", "phone": "059915 07610", "brand": "Merkur", "brand:wikidata": "Q1921857"}, "geometry": {"type": "Point", "coordinates": [14.61863, 46.6607]}},
{"type": "Feature", "id": "yV7_DUjjR2iXE7aPLZD13_JFkYI=", "properties": {"ref": "00-4001", "@spider": "merkur", "addr:full": "Wiener Strasse 328", "addr:city": "Linz", "addr:state": "Oberoesterreich", "addr:postcode": "4030", "addr:country": "AT", "name": "BILLA AG FIL. 4001", "phone": "059915 04001", "brand": "Merkur", "brand:wikidata": "Q1921857"}, "geometry": {"type": "Point", "coordinates": [14.317833, 48.262972]}},
{"type": "Feature", "id": "_1PTZ9_fs2tDJm5IgTkQ28XfzwQ=", "properties": {"ref": "00-3108", "@spider": "merkur", "addr:full": "Stattersdorfer Hauptstr. 120", "addr:city": "St. Poelten", "addr:state": "Niederoesterreich", "addr:postcode": "3100", "addr:country": "AT", "name": "BILLA AG FIL. 3108", "phone": "059915 03108", "brand": "Merkur", "brand:wikidata": "Q1921857"}, "geometry": {"type": "Point", "coordinates": [15.6427, 48.1811]}},
{"type": "Feature", "id": "2DWy7EqLZHOlkv_88BTfH_8kbwE=", "properties": {"ref": "00-3501", "@spider": "merkur", "addr:full": "An Der Schuett 1", "addr:city": "Krems", "addr:state": "Niederoesterreich", "addr:postcode": "3500", "addr:country": "AT", "name": "BILLA AG FIL. 3501", "phone": "059915 03501", "brand": "Merkur", "brand:wikidata": "Q1921857"}, "geometry": {"type": "Point", "coordinates": [15.6287797, 48.4108625]}},
{"type": "Feature", "id": "wfhsvIvPMX9Vf-y2Hed-tot2L3A=", "properties": {"ref": "00-6805", "@spider": "merkur", "addr:full": "Gewerbepark S\u00fcd 2", "addr:city": "Preding", "addr:state": "Steiermark", "addr:postcode": "8504", "addr:country": "AT", "name": "BILLA AG FIL. 6805", "phone": "059915 06805", "brand": "Merkur", "brand:wikidata": "Q1921857"}, "geometry": {"type": "Point", "coordinates": [15.411568, 46.851429]}},
{"type": "Feature", "id": "6HjvnuwwF_M0B7Y5ivgld_yVkmw=", "properties": {"ref": "00-7980", "@spider": "merkur", "addr:full": "Villacher Strasse 109a", "addr:city": "Spittal An Der Drau", "addr:state": "Kaernten", "addr:postcode": "9800", "addr:country": "AT", "name": "BILLA AG FIL. 7980", "phone": "059915 07980", "brand": "Merkur", "brand:wikidata": "Q1921857"}, "geometry": {"type": "Point", "coordinates": [13.522357, 46.787098]}},
{"type": "Feature", "id": "hWdMud0nO82kcGNmTsFA5RgmCVA=", "properties": {"ref": "00-7082", "@spider": "merkur", "addr:full": "Eisenstaedter Strasse 10", "addr:city": "Jennersdorf", "addr:state": "Burgenland", "addr:postcode": "8380", "addr:country": "AT", "name": "BILLA AG FIL. 7082", "phone": "059915 07082", "brand": "Merkur", "brand:wikidata": "Q1921857"}, "geometry": {"type": "Point", "coordinates": [16.145731, 46.938171]}},
{"type": "Feature", "id": "YLmGOvw0OzsuDitYFDSYSQ7GFDg=", "properties": {"ref": "00-8636", "@spider": "merkur", "addr:full": "Sennereiweg 5", "addr:city": "Westendorf", "addr:state": "Tirol", "addr:postcode": "6363", "addr:country": "AT", "name": "BILLA AG FIL. 8636", "phone": "059915 08636", "brand": "Merkur", "brand:wikidata": "Q1921857"}, "geometry": {"type": "Point", "coordinates": [12.214304, 47.433382]}},
{"type": "Feature", "id": "eCWhGrWOCNRmhU-dy1kx_ANyGXU=", "properties": {"ref": "00-3010", "@spider": "merkur", "addr:full": "Josef Dunkl Strasse 31-33", "addr:city": "Mistelbach", "addr:state": "Niederoesterreich", "addr:postcode": "2130", "addr:country": "AT", "name": "BILLA AG FIL. 3010", "phone": "059915 03010", "brand": "Merkur", "brand:wikidata": "Q1921857"}, "geometry": {"type": "Point", "coordinates": [16.563904, 48.563054]}},
{"type": "Feature", "id": "kPz0GC9mUEGuOjG4j7ORJYgTP0w=", "properties": {"ref": "00-4225", "@spider": "merkur", "addr:full": "Welser Strasse 41", "addr:city": "Leonding", "addr:state": "Oberoesterreich", "addr:postcode": "4060", "addr:country": "AT", "name": "BILLA AG FIL. 4225", "phone": "059915 04225", "brand": "Merkur", "brand:wikidata": "Q1921857"}, "geometry": {"type": "Point", "coordinates": [14.2649962, 48.2672426]}},
{"type": "Feature", "id": "QJfG3Hshodr1ifwB1ZwVx6tQlfU=", "properties": {"ref": "00-4615", "@spider": "merkur", "addr:full": "Sportplatzstrasse 3", "addr:city": "Koenigswiesen", "addr:state": "Oberoesterreich", "addr:postcode": "4280", "addr:country": "AT", "name": "BILLA AG FIL. 4615", "phone": "059915 04615", "brand": "Merkur", "brand:wikidata": "Q1921857"}, "geometry": {"type": "Point", "coordinates": [14.83594, 48.40436]}},
{"type": "Feature", "id": "P8tuMQrKFdqzPYOL0NjrCQjtL2Q=", "properties": {"ref": "00-6559", "@spider": "merkur", "addr:full": "Bundesstrasse 240", "addr:city": "Goessendorf", "addr:state": "Steiermark", "addr:postcode": "8077", "addr:country": "AT", "name": "BILLA AG FIL. 6559", "phone": "059915 06559", "brand": "Merkur", "brand:wikidata": "Q1921857"}, "geometry": {"type": "Point", "coordinates": [15.49552, 46.99731]}},
{"type": "Feature", "id": "XF78gN2P4SYxqloX0hcIHaKneMY=", "properties": {"ref": "00-6688", "@spider": "merkur", "addr:full": "Hauptstrasse 7", "addr:city": "St. Marein/Muer", "addr:state": "Steiermark", "addr:postcode": "8641", "addr:country": "AT", "name": "BILLA AG FIL. 6688", "phone": "059915 06688", "brand": "Merkur", "brand:wikidata": "Q1921857"}, "geometry": {"type": "Point", "coordinates": [15.36855, 47.47379]}},
{"type": "Feature", "id": "6WJZUYykjfikPVyG7fNs0fsFkEA=", "properties": {"ref": "00-6760", "@spider": "merkur", "addr:full": "Palbersdorf 181.", "addr:city": "Thoerl", "addr:state": "Steiermark", "addr:postcode": "8621", "addr:country": "AT", "name": "BILLA AG FIL. 6760", "phone": "059915 06760", "brand": "Merkur", "brand:wikidata": "Q1921857"}, "geometry": {"type": "Point", "coordinates": [15.23318, 47.52483]}},
{"type": "Feature", "id": "B4gTh1Go5F0mfFGxGDCivmtKyAk=", "properties": {"ref": "00-6868", "@spider": "merkur", "addr:full": "Bundesstrasse 53 A", "addr:city": "St. Michael", "addr:state": "Steiermark", "addr:postcode": "8770", "addr:country": "AT", "name": "BILLA AG FIL. 6868", "phone": "059915 06868", "brand": "Merkur", "brand:wikidata": "Q1921857"}, "geometry": {"type": "Point", "coordinates": [15.00958, 47.34778]}},
{"type": "Feature", "id": "P3UQEUMtbGY23WezCViI6dZppdI=", "properties": {"ref": "00-6932", "@spider": "merkur", "addr:full": "Hauptstrasse 6", "addr:city": "Zeltweg", "addr:state": "Steiermark", "addr:postcode": "8740", "addr:country": "AT", "name": "BILLA AG FIL. 6932", "phone": "059915 06932", "brand": "Merkur", "brand:wikidata": "Q1921857"}, "geometry": {"type": "Point", "coordinates": [14.76578, 47.19718]}},
{"type": "Feature", "id": "GVZE2qMFpYKbW51KjzcFQp76Mmg=", "properties": {"ref": "00-6145", "@spider": "merkur", "addr:full": "Hauptplatz 2", "addr:city": "Baernbach", "addr:state": "Steiermark", "addr:postcode": "8572", "addr:country": "AT", "name": "BILLA AG FIL. 6145", "phone": "059915 06145", "brand": "Merkur", "brand:wikidata": "Q1921857"}, "geometry": {"type": "Point", "coordinates": [15.128047, 47.070617]}},
{"type": "Feature", "id": "ANbcKffCOyDd1HqbokecYyY7rss=", "properties": {"ref": "00-5447", "@spider": "merkur", "addr:full": "Wienerstrasse 2", "addr:city": "Neumarkt Am Wallersee", "addr:state": "Salzburg", "addr:postcode": "5202", "addr:country": "AT", "name": "BILLA AG FIL. 5447", "phone": "059915 05447", "brand": "Merkur", "brand:wikidata": "Q1921857"}, "geometry": {"type": "Point", "coordinates": [13.226578, 47.9487716]}},
{"type": "Feature", "id": "niQgHr7VqFdhG09VxVboUWUi2s4=", "properties": {"ref": "00-5050", "@spider": "merkur", "addr:full": "Rupertiwinkelstrasse 12", "addr:city": "Salzburg", "addr:state": "Salzburg", "addr:postcode": "5020", "addr:country": "AT", "name": "BILLA AG FIL. 5050", "phone": "059915 05050", "brand": "Merkur", "brand:wikidata": "Q1921857"}, "geometry": {"type": "Point", "coordinates": [13.02207, 47.81841]}},
{"type": "Feature", "id": "JTd0-bWAnenpXvQlnEfR9-xr5ts=", "properties": {"ref": "00-3841", "@spider": "merkur", "addr:full": "Hauptstrasse 59", "addr:city": "Kaltenleutgeben", "addr:state": "Niederoesterreich", "addr:postcode": "2391", "addr:country": "AT", "name": "BILLA AG FIL. 3841", "phone": "059915 03841", "brand": "Merkur", "brand:wikidata": "Q1921857"}, "geometry": {"type": "Point", "coordinates": [16.20513, 48.11832]}},
{"type": "Feature", "id": "2yBpHvw1bqVcy4nnD67SJuBJdag=", "properties": {"ref": "00-3043", "@spider": "merkur", "addr:full": "Wiener Strasse 2", "addr:city": "Moedling", "addr:state": "Niederoesterreich", "addr:postcode": "2340", "addr:country": "AT", "name": "BILLA AG FIL. 3043", "phone": "059915 03043", "brand": "Merkur", "brand:wikidata": "Q1921857"}, "geometry": {"type": "Point", "coordinates": [16.2963478, 48.0862389]}},
{"type": "Feature", "id": "Te-IsJwfjPO70j5SPvXV2jTvchk=", "properties": {"ref": "00-4466", "@spider": "merkur", "addr:full": "Anton Bruckner Strasse 2", "addr:city": "Seewalchen Am Attersee", "addr:state": "Oberoesterreich", "addr:postcode": "4863", "addr:country": "AT", "name": "BILLA AG FIL. 4466", "phone": "059915 04466", "brand": "Merkur", "brand:wikidata": "Q1921857"}, "geometry": {"type": "Point", "coordinates": [13.5851652, 47.955443]}},
{"type": "Feature", "id": "qXhq1ixSm7oxClK88xYnuZWH-zo=", "properties": {"ref": "00-5315", "@spider": "merkur", "addr:full": "Mattseer Landesstrasse 1", "addr:city": "Elixhausen", "addr:state": "Salzburg", "addr:postcode": "5161", "addr:country": "AT", "name": "BILLA AG FIL. 5315", "phone": "059915 05315", "brand": "Merkur", "brand:wikidata": "Q1921857"}, "geometry": {"type": "Point", "coordinates": [13.0604211, 47.8616099]}},
{"type": "Feature", "id": "aiJ2Wg-9jC6JAen5Su5hJARcitk=", "properties": {"ref": "00-516", "@spider": "merkur", "addr:full": "Margaretenguertel 138-140", "addr:city": "Wien", "addr:state": "Wien", "addr:postcode": "1050", "addr:country": "AT", "name": "BILLA AG FIL. 516", "phone": "059915 00516", "brand": "Merkur", "brand:wikidata": "Q1921857"}, "geometry": {"type": "Point", "coordinates": [16.3444, 48.18615]}},
{"type": "Feature", "id": "Erq80oOo5TFAqN_7WrvicYfpHbY=", "properties": {"ref": "00-3669", "@spider": "merkur", "addr:full": "Brauhausstrasse 14", "addr:city": "Schwechat", "addr:state": "Niederoesterreich", "addr:postcode": "2320", "addr:country": "AT", "name": "BILLA AG FIL. 3669", "phone": "059915 03669", "brand": "Merkur", "brand:wikidata": "Q1921857"}, "geometry": {"type": "Point", "coordinates": [16.467961, 48.136544]}},
{"type": "Feature", "id": "5iFwRbMem08wI_1BkGnt51TlHCw=", "properties": {"ref": "00-7075", "@spider": "merkur", "addr:full": "Obere Hauptstrasse 97", "addr:city": "Zurndorf", "addr:state": "Burgenland", "addr:postcode": "2424", "addr:country": "AT", "name": "BILLA AG FIL. 7075", "phone": "059915 07075", "brand": "Merkur", "brand:wikidata": "Q1921857"}, "geometry": {"type": "Point", "coordinates": [17.0018897, 47.987787]}},
{"type": "Feature", "id": "iO3A_Du5eypgoAay0egMdqVMVTE=", "properties": {"ref": "00-6571", "@spider": "merkur", "addr:full": "Gewerbestrasse 12", "addr:city": "Wartberg Im Muerztal", "addr:state": "Steiermark", "addr:postcode": "8661", "addr:country": "AT", "name": "BILLA AG FIL. 6571", "phone": "059915 06571", "brand": "Merkur", "brand:wikidata": "Q1921857"}, "geometry": {"type": "Point", "coordinates": [15.5009875, 47.5276362]}},
{"type": "Feature", "id": "YOF2v7IkA8-ukR0A_J0j8_axJMA=", "properties": {"ref": "00-4675", "@spider": "merkur", "addr:full": "Kaufpark 2-18", "addr:city": "St. Valentin", "addr:state": "Niederoesterreich", "addr:postcode": "4300", "addr:country": "AT", "name": "BILLA AG FIL. 4675", "phone": "059915 04675", "brand": "Merkur", "brand:wikidata": "Q1921857"}, "geometry": {"type": "Point", "coordinates": [14.51991, 48.19158]}},
{"type": "Feature", "id": "kOPUH3s4c1qACcpCLAgWaItuElA=", "properties": {"ref": "00-7690", "@spider": "merkur", "addr:full": "Lastenstrasse 26", "addr:city": "Friesach", "addr:state": "Kaernten", "addr:postcode": "9360", "addr:country": "AT", "name": "BILLA AG FIL. 7690", "phone": "059915 07690", "brand": "Merkur", "brand:wikidata": "Q1921857"}, "geometry": {"type": "Point", "coordinates": [14.40171, 46.95664]}},
{"type": "Feature", "id": "1i8pwr_Ga3hY03wxejTxymvvSrY=", "properties": {"ref": "00-3714", "@spider": "merkur", "addr:full": "Stockerauer Strasse 2", "addr:city": "Hausleiten", "addr:state": "Niederoesterreich", "addr:postcode": "3464", "addr:country": "AT", "name": "BILLA AG FIL. 3714", "phone": "059915 03714", "brand": "Merkur", "brand:wikidata": "Q1921857"}, "geometry": {"type": "Point", "coordinates": [16.10313, 48.39313]}},
{"type": "Feature", "id": "6ZQo06vKhrD-fz2MW6kTVPSHe58=", "properties": {"ref": "00-4078", "@spider": "merkur", "addr:full": "Bahnhofstrasse 26", "addr:city": "Ebensee", "addr:state": "Oberoesterreich", "addr:postcode": "4802", "addr:country": "AT", "name": "BILLA AG FIL. 4078", "phone": "059915 04078", "brand": "Merkur", "brand:wikidata": "Q1921857"}, "geometry": {"type": "Point", "coordinates": [13.7710258, 47.806746]}},
{"type": "Feature", "id": "BalfkpWhJQeWJ1oeBcy_o1Vatt4=", "properties": {"ref": "00-6634", "@spider": "merkur", "addr:full": "Pachern-Hauptstrasse 87", "addr:city": "Hart/Graz", "addr:state": "Steiermark", "addr:postcode": "8075", "addr:country": "AT", "name": "BILLA AG FIL. 6634", "phone": "059915 06634", "brand": "Merkur", "brand:wikidata": "Q1921857"}, "geometry": {"type": "Point", "coordinates": [15.51951, 47.04525]}},
{"type": "Feature", "id": "smPbwqMhqnO3N1wqI2ZTJh5ml58=", "properties": {"ref": "00-6254", "@spider": "merkur", "addr:full": "Koerblergasse 27", "addr:city": "Graz", "addr:state": "Steiermark", "addr:postcode": "8010", "addr:country": "AT", "name": "BILLA AG FIL. 6254", "phone": "059915 06254", "brand": "Merkur", "brand:wikidata": "Q1921857"}, "geometry": {"type": "Point", "coordinates": [15.44505, 47.0811]}},
{"type": "Feature", "id": "YavlCfuC7OMqdDFcflpgoN0cGxs=", "properties": {"ref": "00-5256", "@spider": "merkur", "addr:full": "Moos 63", "addr:city": "Kuchl", "addr:state": "Salzburg", "addr:postcode": "5431", "addr:country": "AT", "name": "BILLA AG FIL. 5256", "phone": "059915 05256", "brand": "Merkur", "brand:wikidata": "Q1921857"}, "geometry": {"type": "Point", "coordinates": [13.1395349, 47.6323866]}},
{"type": "Feature", "id": "eQrJyZdIwd5C8CKFujhPdk-vIOg=", "properties": {"ref": "00-1800", "@spider": "merkur", "addr:full": "Thimiggasse 42", "addr:city": "Wien", "addr:state": "Wien", "addr:postcode": "1180", "addr:country": "AT", "name": "BILLA AG FIL. 1800", "phone": "059915 01800", "brand": "Merkur", "brand:wikidata": "Q1921857"}, "geometry": {"type": "Point", "coordinates": [16.32408, 48.23123]}},
{"type": "Feature", "id": "11SKoiibL5oUWFKuhA98IisJHbE=", "properties": {"ref": "00-2071", "@spider": "merkur", "addr:full": "Vorgartenstrasse 107", "addr:city": "Wien", "addr:state": "Wien", "addr:postcode": "1200", "addr:country": "AT", "name": "BILLA AG FIL. 2071", "phone": "059915 02071", "brand": "Merkur", "brand:wikidata": "Q1921857"}, "geometry": {"type": "Point", "coordinates": [16.3910608, 48.2335915]}},
{"type": "Feature", "id": "fgL6R-jtMg3Y96Oa2d7xiMo9auk=", "properties": {"ref": "00-2150", "@spider": "merkur", "addr:full": "Pragerstrasse 82-86", "addr:city": "Wien", "addr:state": "Wien", "addr:postcode": "1210", "addr:country": "AT", "name": "BILLA AG FIL. 2150", "phone": "01 2716209", "brand": "Merkur", "brand:wikidata": "Q1921857"}, "geometry": {"type": "Point", "coordinates": [16.39158, 48.26991]}},
{"type": "Feature", "id": "vZEsU0U4X9vIrADCL5g0KCbHVeM=", "properties": {"ref": "00-3042", "@spider": "merkur", "addr:full": "Hauptstrasse 76-80", "addr:city": "Maria Enzersdorf", "addr:state": "Niederoesterreich", "addr:postcode": "2344", "addr:country": "AT", "name": "BILLA AG FIL. 3042", "phone": "059915 03042", "brand": "Merkur", "brand:wikidata": "Q1921857"}, "geometry": {"type": "Point", "coordinates": [16.2828942, 48.0940901]}},
{"type": "Feature", "id": "kxARh0MM9XTFOHKlDycY_iIOrw4=", "properties": {"ref": "00-3670", "@spider": "merkur", "addr:full": "Oberhausner Strasse 2", "addr:city": "Gross-Enzersdorf", "addr:state": "Niederoesterreich", "addr:postcode": "2301", "addr:country": "AT", "name": "BILLA AG FIL. 3670", "phone": "059915 03670", "brand": "Merkur", "brand:wikidata": "Q1921857"}, "geometry": {"type": "Point", "coordinates": [16.57804, 48.1893]}},
{"type": "Feature", "id": "sMcr_jROPEAVGHdeAxT230GSMN4=", "properties": {"ref": "00-4099", "@spider": "merkur", "addr:full": "Remisenstrasse 1/Haidfeldstrasse", "addr:city": "Leonding", "addr:state": "Oberoesterreich", "addr:postcode": "4060", "addr:country": "AT", "name": "BILLA AG FIL. 4099", "phone": "059915 04099", "brand": "Merkur", "brand:wikidata": "Q1921857"}, "geometry": {"type": "Point", "coordinates": [14.2588764, 48.2473245]}},
{"type": "Feature", "id": "K3hbViItmHeT5IV8KL2DhCR1RpA=", "properties": {"ref": "00-4270", "@spider": "merkur", "addr:full": "Moosham 9", "addr:city": "Grieskirchen", "addr:state": "Oberoesterreich", "addr:postcode": "4710", "addr:country": "AT", "name": "BILLA AG FIL. 4270", "phone": "059915 04270", "brand": "Merkur", "brand:wikidata": "Q1921857"}, "geometry": {"type": "Point", "coordinates": [13.8109622, 48.2322709]}},
{"type": "Feature", "id": "kzLoGDhtRdNRcLJHrZz5omBM-D0=", "properties": {"ref": "00-616", "@spider": "merkur", "addr:full": "Gumpendorfer Strasse 77", "addr:city": "Wien", "addr:state": "Wien", "addr:postcode": "1060", "addr:country": "AT", "name": "BILLA AG FIL. 616", "phone": "059915 00616", "brand": "Merkur", "brand:wikidata": "Q1921857"}, "geometry": {"type": "Point", "coordinates": [16.350408, 48.194433]}},
{"type": "Feature", "id": "gFVEq3MARRieJ-xifumEThrD-UE=", "properties": {"ref": "00-7393", "@spider": "merkur", "addr:full": "Hauptstrasse  106", "addr:city": "Grosspetersdorf", "addr:state": "Burgenland", "addr:postcode": "7503", "addr:country": "AT", "name": "BILLA AG FIL. 7393", "phone": "059915 07393", "brand": "Merkur", "brand:wikidata": "Q1921857"}, "geometry": {"type": "Point", "coordinates": [16.3102, 47.243]}},
{"type": "Feature", "id": "y4i6qmUagaJbxiMUVS4nH622iE8=", "properties": {"ref": "00-2152", "@spider": "merkur", "addr:full": "Ruthnergasse 89", "addr:city": "Wien", "addr:state": "Wien", "addr:postcode": "1210", "addr:country": "AT", "name": "BILLA AG FIL. 2152", "phone": "059915 02152", "brand": "Merkur", "brand:wikidata": "Q1921857"}, "geometry": {"type": "Point", "coordinates": [16.423097, 48.277656]}},
{"type": "Feature", "id": "8EQt8a04fNPwJU-zqHXXXbonccw=", "properties": {"ref": "00-5481", "@spider": "merkur", "addr:full": "Filzwiesen 1", "addr:city": "Dorfbeuern", "addr:state": "Salzburg", "addr:postcode": "5152", "addr:country": "AT", "name": "BILLA AG FIL. 5481", "phone": "059915 05481", "brand": "Merkur", "brand:wikidata": "Q1921857"}, "geometry": {"type": "Point", "coordinates": [13.018869, 48.014624]}},
{"type": "Feature", "id": "B2Lm1yUiFl9c3wC08yu3ZjrSAvM=", "properties": {"ref": "00-6236", "@spider": "merkur", "addr:full": "Radlpassstrasse 17/Am Waldrand", "addr:city": "Altenmarkt", "addr:state": "Steiermark", "addr:postcode": "8551", "addr:country": "AT", "name": "BILLA AG FIL. 6236", "phone": "059915 06236", "brand": "Merkur", "brand:wikidata": "Q1921857"}, "geometry": {"type": "Point", "coordinates": [15.252882, 46.720199]}},
{"type": "Feature", "id": "IZdTsNC9Dt4TuwZIuauou7p7DdE=", "properties": {"ref": "00-6235", "@spider": "merkur", "addr:full": "Europaplatz 1a", "addr:city": "Leoben", "addr:state": "Steiermark", "addr:postcode": "8700", "addr:country": "AT", "name": "BILLA AG FIL. 6235", "phone": "059915 06235", "brand": "Merkur", "brand:wikidata": "Q1921857"}, "geometry": {"type": "Point", "coordinates": [15.114123, 47.383017]}},
{"type": "Feature", "id": "HAUDP5eZLOvYhIR7XXy8w1-J_NY=", "properties": {"ref": "00-215", "@spider": "merkur", "addr:full": "Taborstrasse 20", "addr:city": "Wien", "addr:state": "Wien", "addr:postcode": "1020", "addr:country": "AT", "name": "BILLA AG FIL. 215", "phone": "059915 00215", "brand": "Merkur", "brand:wikidata": "Q1921857"}, "geometry": {"type": "Point", "coordinates": [16.380679, 48.215884]}},
{"type": "Feature", "id": "zI7lbFEv09E5MBOUmh7CMmUZ-ws=", "properties": {"ref": "00-6225", "@spider": "merkur", "addr:full": "Gaswerkstrasse 2", "addr:city": "Graz-Eggenberg", "addr:state": "Steiermark", "addr:postcode": "8020", "addr:country": "AT", "name": "BILLA PLUS FIL. 6225", "phone": "059915 06225", "brand": "Merkur", "brand:wikidata": "Q1921857"}, "geometry": {"type": "Point", "coordinates": [15.40286, 47.07012]}},
{"type": "Feature", "id": "rRKyPWv8qDXTGOt5W76GQ3bn5d4=", "properties": {"ref": "00-2280", "@spider": "merkur", "addr:full": "Erzherzog-Karl-Str. 129a", "addr:city": "Wien", "addr:state": "Wien", "addr:postcode": "1220", "addr:country": "AT", "name": "BILLA PLUS FIL. 2280", "phone": "059915 02280", "brand": "Merkur", "brand:wikidata": "Q1921857"}, "geometry": {"type": "Point", "coordinates": [16.457701, 48.228958]}},
{"type": "Feature", "id": "dKy6vOenAvkSUtA9TbsCc66HPvI=", "properties": {"ref": "00-6487", "@spider": "merkur", "addr:full": "Gerbersdorf 19", "addr:city": "Sankt Georgen An Der Stie", "addr:state": "Steiermark", "addr:postcode": "8413", "addr:country": "AT", "name": "BILLA AG FIL. 6487", "phone": "059915 06487", "brand": "Merkur", "brand:wikidata": "Q1921857"}, "geometry": {"type": "Point", "coordinates": [15.573611, 46.881018]}},
{"type": "Feature", "id": "PmmYT6C4S2-pUPukqln59-LFeas=", "properties": {"ref": "00-8083", "@spider": "merkur", "addr:full": "Siemensstr. 39", "addr:city": "Innsbruck/Rum", "addr:state": "Tirol", "addr:postcode": "6063", "addr:country": "AT", "name": "BILLA PLUS FIL. 8083", "phone": "059915 08083", "brand": "Merkur", "brand:wikidata": "Q1921857"}, "geometry": {"type": "Point", "coordinates": [11.4492663, 47.2723056]}},
{"type": "Feature", "id": "j64P7OvAFnjONUhns648Ihb02Sw=", "properties": {"ref": "00-150", "@spider": "merkur", "addr:full": "Hoher Markt 12", "addr:city": "Wien", "addr:state": "Wien", "addr:postcode": "1010", "addr:country": "AT", "name": "BILLA PLUS CORSO FIL. 150", "phone": "059915 00150", "brand": "Merkur", "brand:wikidata": "Q1921857"}, "geometry": {"type": "Point", "coordinates": [16.373571, 48.210585]}},
{"type": "Feature", "id": "sSguFSwW2E1uGa1JTuoH3bpm4Ng=", "properties": {"ref": "00-2350", "@spider": "merkur", "addr:full": "Speisinger Strasse 135", "addr:city": "Wien", "addr:state": "Wien", "addr:postcode": "1230", "addr:country": "AT", "name": "BILLA PLUS FIL. 2350", "phone": "059915 02350", "brand": "Merkur", "brand:wikidata": "Q1921857"}, "geometry": {"type": "Point", "coordinates": [16.2783, 48.1616]}},
{"type": "Feature", "id": "xZOjWXRBgt-t_AjZjPMTcmzyI3o=", "properties": {"ref": "00-6150", "@spider": "merkur", "addr:full": "Sc Seiersberg Top 1/1/8", "addr:city": "Seiersberg-Pirka", "addr:state": "Steiermark", "addr:postcode": "8055", "addr:country": "AT", "name": "BILLA PLUS FIL. 6150", "phone": "0599 1506150", "brand": "Merkur", "brand:wikidata": "Q1921857"}, "geometry": {"type": "Point", "coordinates": [15.4100461, 47.0117371]}},
{"type": "Feature", "id": "HUNhHdDhXQcPx11RGPSaub2sltA=", "properties": {"ref": "00-1042", "@spider": "merkur", "addr:full": "Wienerbergstr.27", "addr:city": "Wien", "addr:state": "Wien", "addr:postcode": "1100", "addr:country": "AT", "name": "BILLA PLUS FIL. 1042", "phone": "059915 01042", "brand": "Merkur", "brand:wikidata": "Q1921857"}, "geometry": {"type": "Point", "coordinates": [16.3388812, 48.1697853]}},
{"type": "Feature", "id": "TXCrwYSFscdbqFi6jz_KRceES5k=", "properties": {"ref": "00-3357", "@spider": "merkur", "addr:full": "Aufeldgasse 45-49", "addr:city": "Klosterneuburg", "addr:state": "Niederoesterreich", "addr:postcode": "3400", "addr:country": "AT", "name": "BILLA PLUS FIL. 3357", "phone": "059915 03357", "brand": "Merkur", "brand:wikidata": "Q1921857"}, "geometry": {"type": "Point", "coordinates": [16.339111, 48.295105]}},
{"type": "Feature", "id": "wI7fvV1wcJRrMH8g8KjYr6Thb5A=", "properties": {"ref": "00-3901", "@spider": "merkur", "addr:full": "Otto-Schott-Str. 2", "addr:city": "Amstetten", "addr:state": "Niederoesterreich", "addr:postcode": "3300", "addr:country": "AT", "name": "BILLA PLUS FIL. 3901", "phone": "0599 1503901", "brand": "Merkur", "brand:wikidata": "Q1921857"}, "geometry": {"type": "Point", "coordinates": [14.9128, 48.11627]}},
{"type": "Feature", "id": "yxAdGfyoleyT12PD4pr-r6eJsPk=", "properties": {"ref": "00-3611", "@spider": "merkur", "addr:full": "Rusterstrasse 34", "addr:city": "Michelhausen", "addr:state": "Niederoesterreich", "addr:postcode": "3451", "addr:country": "AT", "name": "BILLA AG FIL. 3611", "phone": "059915 03611", "brand": "Merkur", "brand:wikidata": "Q1921857"}, "geometry": {"type": "Point", "coordinates": [15.932836, 48.292772]}},
{"type": "Feature", "id": "kwxZQG7FrO2CRhfV2x44jgBEetY=", "properties": {"ref": "00-1231", "@spider": "merkur", "addr:full": "Ruckergasse 36-38", "addr:city": "Wien", "addr:state": "Wien", "addr:postcode": "1120", "addr:country": "AT", "name": "BILLA PLUS FIL. 1231", "phone": "059915 01231", "brand": "Merkur", "brand:wikidata": "Q1921857"}, "geometry": {"type": "Point", "coordinates": [16.32669, 48.17863]}},
{"type": "Feature", "id": "IDeIY9CfNGE1xsI6ExdOCUfDJtQ=", "properties": {"ref": "00-6983", "@spider": "merkur", "addr:full": "Grazer Strasse 26", "addr:city": "Mariazell", "addr:state": "Steiermark", "addr:postcode": "8630", "addr:country": "AT", "name": "BILLA AG FIL. 6983", "phone": "059915 06983", "brand": "Merkur", "brand:wikidata": "Q1921857"}, "geometry": {"type": "Point", "coordinates": [15.315158, 47.770527]}},
{"type": "Feature", "id": "guIfmfJJ4Gw4BPf7-uZ7GK51az4=", "properties": {"ref": "00-1483", "@spider": "merkur", "addr:full": "Spallartgasse 29/Leyserstrasse", "addr:city": "Wien", "addr:state": "Wien", "addr:postcode": "1140", "addr:country": "AT", "name": "BILLA AG FIL. 1483", "phone": "059915 01483", "brand": "Merkur", "brand:wikidata": "Q1921857"}, "geometry": {"type": "Point", "coordinates": [16.303023, 48.200613]}},
{"type": "Feature", "id": "YyRSsbYVxPvBjL2ADHnHPoxaO_k=", "properties": {"ref": "00-3857", "@spider": "merkur", "addr:full": "Eisenst\u00e4dter Strasse 35", "addr:city": "Kittsee", "addr:state": "Burgenland", "addr:postcode": "2421", "addr:country": "AT", "name": "BILLA AG FIL. 3857", "phone": "059915 03857", "brand": "Merkur", "brand:wikidata": "Q1921857"}, "geometry": {"type": "Point", "coordinates": [17.040464, 48.084607]}},
{"type": "Feature", "id": "15TV7j5ULHKuyEyYLBm6x9L2S2k=", "properties": {"ref": "00-6439", "@spider": "merkur", "addr:full": "Hofackerstrasse 3", "addr:city": "Krieglach", "addr:state": "Steiermark", "addr:postcode": "8670", "addr:country": "AT", "name": "BILLA AG FIL. 6439", "phone": "059915 06439", "brand": "Merkur", "brand:wikidata": "Q1921857"}, "geometry": {"type": "Point", "coordinates": [15.542583, 47.543878]}},
{"type": "Feature", "id": "zoMbu6Dis3KvGfrkB5NnFyoigBw=", "properties": {"ref": "00-6847", "@spider": "merkur", "addr:full": "Hauptstrasse 1a", "addr:city": "Koettmannsdorf", "addr:state": "Kaernten", "addr:postcode": "9071", "addr:country": "AT", "name": "BILLA AG FIL. 6847", "phone": "059915 06847", "brand": "Merkur", "brand:wikidata": "Q1921857"}, "geometry": {"type": "Point", "coordinates": [14.236415, 46.561453]}},
{"type": "Feature", "id": "zv8txtDEZvTuBQpq1wmnb0Or98Y=", "properties": {"ref": "00-7565", "@spider": "merkur", "addr:full": "Toeschling 155", "addr:city": "Techelsberg Am Woerther S", "addr:state": "Kaernten", "addr:postcode": "9212", "addr:country": "AT", "name": "BILLA AG FIL. 7565", "phone": "059915 07565", "brand": "Merkur", "brand:wikidata": "Q1921857"}, "geometry": {"type": "Point", "coordinates": [14.11022, 46.634299]}},
{"type": "Feature", "id": "T9WPV_NhkR5ypmr23o8eOPYZq6c=", "properties": {"ref": "00-346", "@spider": "merkur", "addr:full": "Schnirchgasse 9", "addr:city": "Wien", "addr:state": "Wien", "addr:postcode": "1030", "addr:country": "AT", "name": "BILLA AG FIL. 346", "phone": "059915 00346", "brand": "Merkur", "brand:wikidata": "Q1921857"}, "geometry": {"type": "Point", "coordinates": [16.410996, 48.194718]}},
{"type": "Feature", "id": "e3r5sWqSDbUf1Ku3rnz3CcwuCMo=", "properties": {"ref": "00-5226", "@spider": "merkur", "addr:full": "Mundiglerweg 2", "addr:city": "Wals-Siezenheim", "addr:state": "Salzburg", "addr:postcode": "5071", "addr:country": "AT", "name": "BILLA AG FIL. 5226", "phone": "059915 05226", "brand": "Merkur", "brand:wikidata": "Q1921857"}, "geometry": {"type": "Point", "coordinates": [12.95548, 47.777919]}},
{"type": "Feature", "id": "yinqLWAiqPw2lkyYDlPpjoCf1i0=", "properties": {"ref": "00-3229", "@spider": "merkur", "addr:full": "Altenmarkt An Der Triesting 59", "addr:city": "Altenmarkt An Der Triesti", "addr:state": "Niederoesterreich", "addr:postcode": "2571", "addr:country": "AT", "name": "BILLA AG FIL. 3229", "phone": "059915 03229", "brand": "Merkur", "brand:wikidata": "Q1921857"}, "geometry": {"type": "Point", "coordinates": [15.997951, 48.015604]}},
{"type": "Feature", "id": "LiHT_4Qlmn3dBVEfDUZ-F4Py6QA=", "properties": {"ref": "00-254", "@spider": "merkur", "addr:full": "Handelskai 344-346", "addr:city": "Wien", "addr:state": "Wien", "addr:postcode": "1020", "addr:country": "AT", "name": "BILLA AG FIL. 254", "phone": "059915 00254", "brand": "Merkur", "brand:wikidata": "Q1921857"}, "geometry": {"type": "Point", "coordinates": [16.4297, 48.2069]}},
{"type": "Feature", "id": "cU4UsKpQzsjDpGvwdsJueKkk0Gw=", "properties": {"ref": "00-2149", "@spider": "merkur", "addr:full": "Seyringer Strasse 12-14", "addr:city": "Wien", "addr:state": "Wien", "addr:postcode": "1210", "addr:country": "AT", "name": "BILLA AG FIL. 2149", "phone": "059915 02149", "brand": "Merkur", "brand:wikidata": "Q1921857"}, "geometry": {"type": "Point", "coordinates": [16.457244, 48.267376]}},
{"type": "Feature", "id": "VpjgCUwRUUSApyRP78xBlXyR4yg=", "properties": {"ref": "00-4982", "@spider": "merkur", "addr:full": "Linzer Strasse 8", "addr:city": "Katsdorf", "addr:state": "Oberoesterreich", "addr:postcode": "4223", "addr:country": "AT", "name": "BILLA AG FIL. 4982", "phone": "059915 04982", "brand": "Merkur", "brand:wikidata": "Q1921857"}, "geometry": {"type": "Point", "coordinates": [14.469165, 48.319603]}},
{"type": "Feature", "id": "hxN1WWISk58vhI6MzmV7jIBBOLs=", "properties": {"ref": "00-7881", "@spider": "merkur", "addr:full": "Ossiacher Bundesstrasse 1", "addr:city": "Feldkirchen", "addr:state": "Kaernten", "addr:postcode": "9560", "addr:country": "AT", "name": "BILLA PLUS FIL. 7881", "phone": "059915 07881", "brand": "Merkur", "brand:wikidata": "Q1921857"}, "geometry": {"type": "Point", "coordinates": [14.0896036, 46.7261017]}},
{"type": "Feature", "id": "_1XPd-DSHqiRoW80z7n4n36iMVY=", "properties": {"ref": "00-4405", "@spider": "merkur", "addr:full": "Druckereistrasse 8", "addr:city": "Gmunden", "addr:state": "Oberoesterreich", "addr:postcode": "4810", "addr:country": "AT", "name": "BILLA PLUS FIL. 4405", "phone": "059915 04405", "brand": "Merkur", "brand:wikidata": "Q1921857"}, "geometry": {"type": "Point", "coordinates": [13.78863, 47.92517]}},
{"type": "Feature", "id": "EmXrZ2m2HMjVuzDQWjL_AqrZz2M=", "properties": {"ref": "00-4545", "@spider": "merkur", "addr:full": "Mozartstr. 7 (Ekz)", "addr:city": "Linz", "addr:state": "Oberoesterreich", "addr:postcode": "4020", "addr:country": "AT", "name": "BILLA PLUS FIL. 4545", "phone": "059915 04545", "brand": "Merkur", "brand:wikidata": "Q1921857"}, "geometry": {"type": "Point", "coordinates": [14.2917066, 48.3015572]}},
{"type": "Feature", "id": "RQymBeB5QgrRDfpr8gon1wBubvM=", "properties": {"ref": "00-4008", "@spider": "merkur", "addr:full": "Sulzbacherstrasse 41", "addr:city": "Bad Ischl", "addr:state": "Oberoesterreich", "addr:postcode": "4820", "addr:country": "AT", "name": "BILLA PLUS FIL. 4008", "phone": "059915 04008", "brand": "Merkur", "brand:wikidata": "Q1921857"}, "geometry": {"type": "Point", "coordinates": [13.6233, 47.6905]}},
{"type": "Feature", "id": "ep-X4PoAlHgqKndOIp4nndJIBRE=", "properties": {"ref": "00-3440", "@spider": "merkur", "addr:full": "Pressburger Reichsstrasse 1", "addr:city": "Hainburg An Der Donau", "addr:state": "Niederoesterreich", "addr:postcode": "2410", "addr:country": "AT", "name": "BILLA PLUS FIL. 3440", "phone": "059915 03440", "brand": "Merkur", "brand:wikidata": "Q1921857"}, "geometry": {"type": "Point", "coordinates": [16.9450835, 48.1486262]}},
{"type": "Feature", "id": "7P_1cLARmfn8ixSyQ0kMRUUf5tU=", "properties": {"ref": "00-4190", "@spider": "merkur", "addr:full": "Lindengasse 16", "addr:city": "Linz", "addr:state": "Oberoesterreich", "addr:postcode": "4040", "addr:country": "AT", "name": "BILLA PLUS FIL. 4190", "phone": "059915 04190", "brand": "Merkur", "brand:wikidata": "Q1921857"}, "geometry": {"type": "Point", "coordinates": [14.291248, 48.3215]}},
{"type": "Feature", "id": "KhVUS7veXLZ8XzifLXMxymLsS2o=", "properties": {"ref": "00-4105", "@spider": "merkur", "addr:full": "Landstrasse 2a", "addr:city": "Enns", "addr:state": "Oberoesterreich", "addr:postcode": "4470", "addr:country": "AT", "name": "BILLA PLUS FIL. 4105", "phone": "059915 04105", "brand": "Merkur", "brand:wikidata": "Q1921857"}, "geometry": {"type": "Point", "coordinates": [14.4641439, 48.2150623]}}]}