{"type":"FeatureCollection","features":[{"type": "Feature", "id": "ET8dp0fBbtl4cWn0I7QiSQg4yLI=", "properties": {"ref": "1087", "@spider": "microsoft", "addr:full": "677 Fifth Avenue", "addr:city": "New York", "addr:state": "NY", "addr:postcode": "10022-4210", "addr:country": "US", "name": "Microsoft Experience Center - Fifth Avenue", "website": "https://www.microsoft.com/en-us/store/locations/ny/new-york/fifth-avenue-/store-1087", "brand": "Microsoft", "brand:wikidata": "Q2283"}},
{"type": "Feature", "id": "VUmW1lo4fLvRSVVRCI4_7nzkL5s=", "properties": {"ref": "1144", "@spider": "microsoft", "addr:full": "253-259 Regent Street", "addr:city": "London", "addr:state": "England", "addr:postcode": "W1B 2ER", "addr:country": "GB", "name": "Microsoft Experience Centre - London", "website": "https://www.microsoft.com/en-gb/store/locations/england/london/oxford-circus/store-1144/", "brand": "Microsoft", "brand:wikidata": "Q2283"}},
{"type": "Feature", "id": "6HGlgZ3tanGTYwTLO2fxBXegZUQ=", "properties": {"ref": "1108", "@spider": "microsoft", "addr:full": "188 Pitt Street", "addr:city": "Sydney", "addr:state": "NSW", "addr:postcode": "2000", "addr:country": "AU", "name": "Microsoft Experience Centre - Sydney", "website": "https://www.microsoft.com/en-au/store/locations/nsw/sydney/westfield-sydney-on-pitt-street-mall/store-1108", "brand": "Microsoft", "brand:wikidata": "Q2283"}}]}