{"type":"FeatureCollection","features":[{"type": "Feature", "id": "acoe1tQpphnIVG95rk6RWw1dTnI=", "properties": {"ref": "https://www.microcenter.com/site/stores/tustin.aspx", "@spider": "micro_center", "shop": "computer", "addr:full": "1100 E Edinger Ave", "addr:city": "Tustin", "addr:state": "CA", "addr:postcode": "92780", "addr:country": "US", "name": "Micro Center - Tustin", "website": "https://www.microcenter.com/site/stores/tustin.aspx", "opening_hours": "Mo-Sa 10:00-21:00; Su 11:00-18:00", "brand": "Micro Center", "brand:wikidata": "Q6839153", "nsi_id": "microcenter-c4ecce"}, "geometry": {"type": "Point", "coordinates": [-117.832515, 33.72558]}},
{"type": "Feature", "id": "tpe-MEkdX2FCS0eSNUk2ZsMobz8=", "properties": {"ref": "https://www.microcenter.com/site/stores/fairfax.aspx", "@spider": "micro_center", "shop": "computer", "addr:full": "3089 Nutley St", "addr:city": "Fairfax", "addr:state": "VA", "addr:postcode": "22031", "addr:country": "US", "name": "Micro Center - Fairfax", "website": "https://www.microcenter.com/site/stores/fairfax.aspx", "opening_hours": "Mo-Sa 10:00-21:00; Su 11:00-18:00", "brand": "Micro Center", "brand:wikidata": "Q6839153", "nsi_id": "microcenter-c4ecce"}, "geometry": {"type": "Point", "coordinates": [-77.262885, 38.867742]}},
{"type": "Feature", "id": "XkvyjFIXkoFVcXTBzAvhwH6zHdE=", "properties": {"ref": "https://www.microcenter.com/site/stores/dallas.aspx", "@spider": "micro_center", "shop": "computer", "addr:full": "13929 N Central Expy", "addr:city": "Dallas", "addr:state": "TX", "addr:postcode": "75243", "addr:country": "US", "name": "Micro Center - Dallas", "website": "https://www.microcenter.com/site/stores/dallas.aspx", "opening_hours": "Mo-Sa 10:00-21:00; Su 11:00-18:00", "brand": "Micro Center", "brand:wikidata": "Q6839153", "nsi_id": "microcenter-c4ecce"}, "geometry": {"type": "Point", "coordinates": [-96.748542, 32.938058]}},
{"type": "Feature", "id": "Lq0G0agacsQtiG_8sfydZ_2Y270=", "properties": {"ref": "https://www.microcenter.com/site/stores/houston.aspx", "@spider": "micro_center", "shop": "computer", "addr:full": "5305 S Rice Ave", "addr:city": "Houston", "addr:state": "TX", "addr:postcode": "77081", "addr:country": "US", "name": "Micro Center - Houston", "website": "https://www.microcenter.com/site/stores/houston.aspx", "opening_hours": "Mo-Sa 10:00-21:00; Su 11:00-18:00", "brand": "Micro Center", "brand:wikidata": "Q6839153", "nsi_id": "microcenter-c4ecce"}, "geometry": {"type": "Point", "coordinates": [-95.468177, 29.72466]}},
{"type": "Feature", "id": "w_Z3nVpGK0eNXJ9sONatchROwfc=", "properties": {"ref": "https://www.microcenter.com/site/stores/st-davids.aspx", "@spider": "micro_center", "shop": "computer", "addr:full": "550 E Lancaster Ave Ste C", "addr:city": "St Davids", "addr:state": "PA", "addr:postcode": "19087", "addr:country": "US", "name": "Micro Center - St. Davids", "website": "https://www.microcenter.com/site/stores/st-davids.aspx", "opening_hours": "Mo-Sa 10:00-21:00; Su 11:00-18:00", "brand": "Micro Center", "brand:wikidata": "Q6839153", "nsi_id": "microcenter-c4ecce"}, "geometry": {"type": "Point", "coordinates": [-75.368402, 40.040771]}},
{"type": "Feature", "id": "bbM4qMHpnR3_Pdhm3-kIjrdMn14=", "properties": {"ref": "https://www.microcenter.com/site/stores/sharonville.aspx", "@spider": "micro_center", "shop": "computer", "addr:full": "11755 Mosteller Rd", "addr:city": "Sharonville", "addr:state": "OH", "addr:postcode": "45241", "addr:country": "US", "name": "Micro Center - Sharonville", "website": "https://www.microcenter.com/site/stores/sharonville.aspx", "opening_hours": "Mo-Sa 10:00-21:00; Su 11:00-18:00", "brand": "Micro Center", "brand:wikidata": "Q6839153", "nsi_id": "microcenter-c4ecce"}, "geometry": {"type": "Point", "coordinates": [-84.428542, 39.287393]}},
{"type": "Feature", "id": "GQ_-xbZTNHJcUv6yL9J7HK07nOk=", "properties": {"ref": "https://www.microcenter.com/site/stores/mayfield-heights.aspx", "@spider": "micro_center", "shop": "computer", "addr:full": "1349 Som Center Rd, Eastgate Shopping Center", "addr:city": "Mayfield Heights", "addr:state": "OH ", "addr:postcode": "44124", "addr:country": "US", "name": "Micro Center - Mayfield Heights", "website": "https://www.microcenter.com/site/stores/mayfield-heights.aspx", "opening_hours": "Mo-Sa 10:00-21:00; Su 11:00-18:00", "brand": "Micro Center", "brand:wikidata": "Q6839153", "nsi_id": "microcenter-c4ecce"}, "geometry": {"type": "Point", "coordinates": [-81.438541, 41.524047]}},
{"type": "Feature", "id": "kU4M9oNYTvlLmHgFZlYLJ9GYdII=", "properties": {"ref": "https://www.microcenter.com/site/stores/columbus.aspx", "@spider": "micro_center", "shop": "computer", "addr:full": "747 Bethel Rd", "addr:city": "Columbus", "addr:state": "OH", "addr:postcode": "43214", "addr:country": "US", "name": "Micro Center - Columbus", "website": "https://www.microcenter.com/site/stores/columbus.aspx", "opening_hours": "Mo-Sa 10:00-21:00; Su 11:00-18:00", "brand": "Micro Center", "brand:wikidata": "Q6839153", "nsi_id": "microcenter-c4ecce"}, "geometry": {"type": "Point", "coordinates": [-83.04033, 40.062]}},
{"type": "Feature", "id": "bOLtYg7raTk_QVHpKizn8dTKhlg=", "properties": {"ref": "https://www.microcenter.com/site/stores/brooklyn.aspx", "@spider": "micro_center", "shop": "computer", "addr:full": "850 3rd Ave", "addr:city": "Brooklyn", "addr:state": "NY", "addr:postcode": "11232", "addr:country": "US", "name": "Micro Center - Brooklyn", "website": "https://www.microcenter.com/site/stores/brooklyn.aspx", "opening_hours": "Mo-Sa 10:00-21:00; Su 11:00-18:00", "brand": "Micro Center", "brand:wikidata": "Q6839153", "nsi_id": "microcenter-c4ecce"}, "geometry": {"type": "Point", "coordinates": [-74.004446, 40.659336]}},
{"type": "Feature", "id": "T_YNCDc5QLjnsYvTFpKWyxzeDYQ=", "properties": {"ref": "https://www.microcenter.com/site/stores/flushing.aspx", "@spider": "micro_center", "shop": "computer", "addr:full": "71-43 Kissena Blvd", "addr:city": "Queens", "addr:state": "NY", "addr:postcode": "11367", "addr:country": "US", "name": "Micro Center - Flushing", "website": "https://www.microcenter.com/site/stores/flushing.aspx", "opening_hours": "Mo-Sa 10:00-21:00; Su 11:00-18:00", "brand": "Micro Center", "brand:wikidata": "Q6839153", "nsi_id": "microcenter-c4ecce"}, "geometry": {"type": "Point", "coordinates": [-73.815315, 40.728478]}},
{"type": "Feature", "id": "iMGg4yJnvSC2d-628itDqBu-xzQ=", "properties": {"ref": "https://www.microcenter.com/site/stores/yonkers.aspx", "@spider": "micro_center", "shop": "computer", "addr:full": "750-A Central Park Ave", "addr:city": "Yonkers", "addr:state": "NY", "addr:postcode": "10704", "addr:country": "US", "name": "Micro Center - Yonkers", "website": "https://www.microcenter.com/site/stores/yonkers.aspx", "opening_hours": "Mo-Sa 10:00-21:00; Su 11:00-18:00", "brand": "Micro Center", "brand:wikidata": "Q6839153", "nsi_id": "microcenter-c4ecce"}, "geometry": {"type": "Point", "coordinates": [-73.856071, 40.925657]}},
{"type": "Feature", "id": "HPU5CJYiFvTUxhV38XvuFqNP9qw=", "properties": {"ref": "https://www.microcenter.com/site/stores/westbury.aspx", "@spider": "micro_center", "shop": "computer", "addr:full": "655 Merrick Ave", "addr:city": "Westbury", "addr:state": "NY", "addr:postcode": "11590", "addr:country": "US", "name": "Micro Center - Westbury", "website": "https://www.microcenter.com/site/stores/westbury.aspx", "opening_hours": "Mo-Sa 10:00-21:00; Su 11:00-18:00", "brand": "Micro Center", "brand:wikidata": "Q6839153", "nsi_id": "microcenter-c4ecce"}, "geometry": {"type": "Point", "coordinates": [-73.587313, 40.746884]}},
{"type": "Feature", "id": "Y_V5C9l-jb8Y-_KEW5n1XTINhJM=", "properties": {"ref": "https://www.microcenter.com/site/stores/north-jersey.aspx", "@spider": "micro_center", "shop": "computer", "addr:full": "263 McLean Blvd, Route 20 Retail Center", "addr:city": "Paterson", "addr:state": "NJ", "addr:postcode": "07504", "addr:country": "US", "name": "Micro Center - North Jersey", "website": "https://www.microcenter.com/site/stores/north-jersey.aspx", "opening_hours": "Mo-Sa 10:00-21:00; Su 11:00-18:00", "brand": "Micro Center", "brand:wikidata": "Q6839153", "nsi_id": "microcenter-c4ecce"}, "geometry": {"type": "Point", "coordinates": [-74.134343, 40.908246]}},
{"type": "Feature", "id": "WOFymbxvxSI8yNAe6OKViTzoOb0=", "properties": {"ref": "https://www.microcenter.com/site/stores/brentwood.aspx", "@spider": "micro_center", "shop": "computer", "addr:full": "87 Brentwood Promenade Ct", "addr:city": "Brentwood", "addr:state": "MO", "addr:postcode": "63144 ", "addr:country": "US", "name": "Micro Center - Brentwood", "website": "https://www.microcenter.com/site/stores/brentwood.aspx", "opening_hours": "Mo-Sa 10:00-21:00; Su 11:00-18:00", "brand": "Micro Center", "brand:wikidata": "Q6839153", "nsi_id": "microcenter-c4ecce"}, "geometry": {"type": "Point", "coordinates": [-90.341618, 38.627242]}},
{"type": "Feature", "id": "mi3rLqUHTMiLmTPX2SUgnnS3G6g=", "properties": {"ref": "https://www.microcenter.com/site/stores/st-louis-park.aspx", "@spider": "micro_center", "shop": "computer", "addr:full": "3710 Highway 100 South", "addr:city": "St. Louis Park", "addr:state": "MN", "addr:postcode": "55416", "addr:country": "US", "name": "Micro Center - St. Louis Park", "website": "https://www.microcenter.com/site/stores/st-louis-park.aspx", "opening_hours": "Mo-Sa 10:00-21:00; Su 11:00-18:00", "brand": "Micro Center", "brand:wikidata": "Q6839153", "nsi_id": "microcenter-c4ecce"}, "geometry": {"type": "Point", "coordinates": [-93.351094, 44.936619]}},
{"type": "Feature", "id": "nLEI1dUl-mnnKw3TCq7AAxj33Bk=", "properties": {"ref": "https://www.microcenter.com/site/stores/madison-heights.aspx", "@spider": "micro_center", "shop": "computer", "addr:full": "32800 Concord Dr", "addr:city": "Madison Heights", "addr:state": "MI", "addr:postcode": "48071", "addr:country": "US", "name": "Micro Center - Madison Heights", "website": "https://www.microcenter.com/site/stores/madison-heights.aspx", "opening_hours": "Mo-Sa 10:00-21:00; Su 11:00-18:00", "brand": "Micro Center", "brand:wikidata": "Q6839153", "nsi_id": "microcenter-c4ecce"}, "geometry": {"type": "Point", "coordinates": [-83.113237, 42.534072]}},
{"type": "Feature", "id": "yATSQzTHLrNLN4oYdNLu6Yclxh0=", "properties": {"ref": "https://www.microcenter.com/site/stores/parkville.aspx", "@spider": "micro_center", "shop": "computer", "addr:full": "1957 E Joppa Rd", "addr:city": "Parkville", "addr:state": "MD", "addr:postcode": "21234", "addr:country": "US", "name": "Micro Center - Parkville", "website": "https://www.microcenter.com/site/stores/parkville.aspx", "opening_hours": "Mo-Sa 10:00-21:00; Su 11:00-18:00", "brand": "Micro Center", "brand:wikidata": "Q6839153", "nsi_id": "microcenter-c4ecce"}, "geometry": {"type": "Point", "coordinates": [-76.545687, 39.399382]}},
{"type": "Feature", "id": "oJ6bPyMGF9TClZE1ZsJZ_sGNMyI=", "properties": {"ref": "https://www.microcenter.com/site/stores/rockville.aspx", "@spider": "micro_center", "shop": "computer", "addr:full": "1776 E Jefferson ST Ste 203", "addr:city": "Rockville", "addr:state": "MD", "addr:postcode": "20852", "addr:country": "US", "name": "Micro Center - Rockville", "website": "https://www.microcenter.com/site/stores/rockville.aspx", "opening_hours": "Mo-Sa 10:00-21:00; Su 11:00-18:00", "brand": "Micro Center", "brand:wikidata": "Q6839153", "nsi_id": "microcenter-c4ecce"}, "geometry": {"type": "Point", "coordinates": [-77.126122, 39.057254]}},
{"type": "Feature", "id": "hxqx8V2j_8ZYtqsE6Gzl04hsYOo=", "properties": {"ref": "https://www.microcenter.com/site/stores/cambridge.aspx", "@spider": "micro_center", "shop": "computer", "addr:full": "730 Memorial Dr", "addr:city": "Cambridge", "addr:state": "MA", "addr:postcode": "02139", "addr:country": "US", "name": "Micro Center - Cambridge", "website": "https://www.microcenter.com/site/stores/cambridge.aspx", "opening_hours": "Mo-Sa 10:00-21:00; Su 11:00-18:00", "brand": "Micro Center", "brand:wikidata": "Q6839153", "nsi_id": "microcenter-c4ecce"}, "geometry": {"type": "Point", "coordinates": [-71.115163, 42.35728]}},
{"type": "Feature", "id": "pash20fsuBQGr0q0aLRcITjBvUc=", "properties": {"ref": "https://www.microcenter.com/site/stores/overland-park.aspx", "@spider": "micro_center", "shop": "computer", "addr:full": "9294 Metcalf Ave, Regency Park Shopping Center", "addr:city": "Overland Park", "addr:state": "KS", "addr:postcode": "66212", "addr:country": "US", "name": "Micro Center - Overland Park", "website": "https://www.microcenter.com/site/stores/overland-park.aspx", "opening_hours": "Mo-Sa 10:00-21:00; Su 11:00-18:00", "brand": "Micro Center", "brand:wikidata": "Q6839153", "nsi_id": "microcenter-c4ecce"}, "geometry": {"type": "Point", "coordinates": [-94.667659, 38.960419]}},
{"type": "Feature", "id": "ErXBUy31dQDouXhuWkd1hv4Oy8c=", "properties": {"ref": "https://www.microcenter.com/site/stores/westmont.aspx", "@spider": "micro_center", "shop": "computer", "addr:full": "80 E Ogden Ave", "addr:city": "Westmont", "addr:state": "IL", "addr:postcode": "60559", "addr:country": "US", "name": "Micro Center - Westmont", "website": "https://www.microcenter.com/site/stores/westmont.aspx", "opening_hours": "Mo-Sa 10:00-21:00; Su 11:00-18:00", "brand": "Micro Center", "brand:wikidata": "Q6839153", "nsi_id": "microcenter-c4ecce"}, "geometry": {"type": "Point", "coordinates": [-87.973453, 41.810147]}},
{"type": "Feature", "id": "wK8cUfpoS-Vy4xh2xLRa-yMR9gg=", "properties": {"ref": "https://www.microcenter.com/site/stores/chicago.aspx", "@spider": "micro_center", "shop": "computer", "addr:full": "2645 N Elston Ave", "addr:city": "Chicago", "addr:state": "IL", "addr:postcode": "60647", "addr:country": "US", "name": "Micro Center - Chicago", "website": "https://www.microcenter.com/site/stores/chicago.aspx", "opening_hours": "Mo-Sa 10:00-21:00; Su 11:00-18:00", "brand": "Micro Center", "brand:wikidata": "Q6839153", "nsi_id": "microcenter-c4ecce"}, "geometry": {"type": "Point", "coordinates": [-87.683715, 41.929328]}},
{"type": "Feature", "id": "39CVK9rAFiIgBLfrX4gThncjksY=", "properties": {"ref": "https://www.microcenter.com/site/stores/marietta.aspx", "@spider": "micro_center", "shop": "computer", "addr:full": "1275 Powers Ferry Rd SE Ste 50", "addr:city": "Marietta", "addr:state": "GA", "addr:postcode": "30067", "addr:country": "US", "name": "Micro Center - Marietta", "website": "https://www.microcenter.com/site/stores/marietta.aspx", "opening_hours": "Mo-Sa 10:00-21:00; Su 11:00-18:00", "brand": "Micro Center", "brand:wikidata": "Q6839153", "nsi_id": "microcenter-c4ecce"}, "geometry": {"type": "Point", "coordinates": [-84.467274, 33.919535]}},
{"type": "Feature", "id": "YBjt88DpEK3CsouyIs-NbiChR0E=", "properties": {"ref": "https://www.microcenter.com/site/stores/duluth.aspx", "@spider": "micro_center", "shop": "computer", "addr:full": "2340 Pleasant Hill Rd", "addr:city": "Duluth", "addr:state": "GA", "addr:postcode": "30096", "addr:country": "US", "name": "Micro Center - Duluth", "website": "https://www.microcenter.com/site/stores/duluth.aspx", "opening_hours": "Mo-Sa 10:00-21:00; Su 11:00-18:00", "brand": "Micro Center", "brand:wikidata": "Q6839153", "nsi_id": "microcenter-c4ecce"}, "geometry": {"type": "Point", "coordinates": [-84.138602, 33.963463]}},
{"type": "Feature", "id": "MeRFkWj9N1iBVEvhqquCq1xZ5dE=", "properties": {"ref": "https://www.microcenter.com/site/stores/denver.aspx", "@spider": "micro_center", "shop": "computer", "addr:full": "8000 E Quincy Ave", "addr:city": "Denver", "addr:state": "CO", "addr:postcode": "80237", "addr:country": "US", "name": "Micro Center - Denver", "website": "https://www.microcenter.com/site/stores/denver.aspx", "opening_hours": "Mo-Sa 10:00-21:00; Su 11:00-18:00", "brand": "Micro Center", "brand:wikidata": "Q6839153", "nsi_id": "microcenter-c4ecce"}, "geometry": {"type": "Point", "coordinates": [-104.896025, 39.638487]}}]}