{"type":"FeatureCollection","features":[{"type": "Feature", "id": "BNOqpR18eTnnTjxMlqBOUum1XSc=", "properties": {"ref": "https://www.elclubdelamilanesa.com/sucursal-puertomaderofoodtruck.html", "@spider": "milanesa", "addr:full": "Olga Cossettini 747-799 CABA, Argentina, 1107", "addr:street": "Olga Cossettini 747-799", "addr:city": "CABA", "addr:postcode": "1107", "name": "elclubdelamilanesa - Olga Cossettini 747-799", "website": "https://www.elclubdelamilanesa.com/sucursal-puertomaderofoodtruck.html", "opening_hours": "Mo - Su : 11:00 - 02:00", "brand": "Club Milanesa"}},
{"type": "Feature", "id": "bqapIPzx5yzjstCWQgYKl8iuue0=", "properties": {"ref": "https://www.elclubdelamilanesa.com/sucursal-puertomadero.html", "@spider": "milanesa", "addr:full": "Alicia Moreau De Justo 876 CABA, Argentina, 1107", "addr:street": "Alicia Moreau De Justo 876", "addr:city": "CABA", "addr:postcode": "1107", "name": "elclubdelamilanesa - Alicia Moreau De Justo 876", "website": "https://www.elclubdelamilanesa.com/sucursal-puertomadero.html", "opening_hours": "Mo - Su : 11:00 - 02:00", "brand": "Club Milanesa"}},
{"type": "Feature", "id": "WDd4bJqmDz9bKIlyqeKGQvDBZzo=", "properties": {"ref": "https://www.elclubdelamilanesa.com/sucursal-aeroparque.html", "@spider": "milanesa", "addr:full": "Av. Costanera Rafael Obligado, CABA CABA, Argentina, 1287", "addr:street": "Av. Costanera Rafael Obligado, CABA", "addr:city": "CABA", "addr:postcode": "1287", "name": "elclubdelamilanesa - Av. Costanera Rafael Obligado", "website": "https://www.elclubdelamilanesa.com/sucursal-aeroparque.html", "opening_hours": "Mo - Su : 6:00 - 23:00", "brand": "Club Milanesa"}},
{"type": "Feature", "id": "lux9EZOiwc26jx1gyJlkaN_xT3o=", "properties": {"ref": "https://www.elclubdelamilanesa.com/sucursal-barracas.html", "@spider": "milanesa", "addr:full": "Brandsen 1701, CABA CABA, Argentina, 1287", "addr:street": "Brandsen 1701, CABA", "addr:city": "CABA", "addr:postcode": "1287", "name": "elclubdelamilanesa - Brandsen 1701", "phone": "4709-1750", "website": "https://www.elclubdelamilanesa.com/sucursal-barracas.html", "opening_hours": "Mo - Su : 11:00 - 00:00", "brand": "Club Milanesa"}},
{"type": "Feature", "id": "DdCFgss45qwmGpOymU8ABs5JOQ4=", "properties": {"ref": "https://www.elclubdelamilanesa.com/sucursal-villaluro.html", "@spider": "milanesa", "addr:full": "Juan B Justo 7959, CABA CABA, Argentina, 1407", "addr:street": "Juan B Justo 7959, CABA", "addr:city": "CABA", "addr:postcode": "1407", "name": "elclubdelamilanesa - Juan B Justo 7959", "phone": "5631-3396 ", "website": "https://www.elclubdelamilanesa.com/sucursal-villaluro.html", "opening_hours": "Mo - Su : 11:00 - 00:00", "brand": "Club Milanesa"}},
{"type": "Feature", "id": "Zbdl2YCgmFc7Kby7bbnP8wycuyY=", "properties": {"ref": "https://www.elclubdelamilanesa.com/sucursal-flores.html", "@spider": "milanesa", "addr:full": "Avenida Rivadavia 7324\r\n CABA, Argentina, 1406", "addr:street": "Avenida Rivadavia 7324\r\n", "addr:city": "CABA", "addr:postcode": "1406", "name": "elclubdelamilanesa - Av. Rivadavia 7324", "phone": "7078-0364", "website": "https://www.elclubdelamilanesa.com/sucursal-flores.html", "opening_hours": "Mo - Su : 11:00 - 02:00", "brand": "Club Milanesa"}},
{"type": "Feature", "id": "GdNKPJccy_hquob29oiekfuTmF4=", "properties": {"ref": "https://www.elclubdelamilanesa.com/sucursal-devoto.html", "@spider": "milanesa", "addr:full": "Cuenca 4103 CABA, Argentina, 1419", "addr:street": "Cuenca 4103", "addr:city": "CABA", "addr:postcode": "1419", "name": "elclubdelamilanesa - Cuenca 4103", "phone": "4830-9410 ", "website": "https://www.elclubdelamilanesa.com/sucursal-devoto.html", "opening_hours": "Mo - Su : 11:00 - 02:00", "brand": "Club Milanesa"}},
{"type": "Feature", "id": "GuIZYYntVmHSfJzns_Jvn9Wd9Gg=", "properties": {"ref": "https://www.elclubdelamilanesa.com/sucursal-constitucion.html", "@spider": "milanesa", "addr:full": "Lima 1760 CABA, Argentina, 1154", "addr:street": "Lima 1760", "addr:city": "CABA", "addr:postcode": "1154", "name": "elclubdelamilanesa - Lima 1760", "phone": "15-2029-1851", "website": "https://www.elclubdelamilanesa.com/sucursal-constitucion.html", "opening_hours": "Mo - Su : 11:00 - 02:00", "brand": "Club Milanesa"}},
{"type": "Feature", "id": "fW8ZIqoEv4AE3oKijOZa9q5MNLU=", "properties": {"ref": "https://www.elclubdelamilanesa.com/sucursal-recoleta-caba.html", "@spider": "milanesa", "addr:full": "Azcu\ufffdnaga 1898 Buenos Aires, Argentina, 1603", "addr:street": "Azcu\ufffdnaga 1898", "addr:city": "Buenos Aires", "addr:postcode": "1603", "name": "elclubdelamilanesa - AZCU\u00c9NAGA 1898", "phone": "5263-9014", "website": "https://www.elclubdelamilanesa.com/sucursal-recoleta-caba.html", "opening_hours": "Mo - Su : 11:00 - 02:00", "brand": "Club Milanesa"}},
{"type": "Feature", "id": "tQqa7aKeSI6SHdBHST4A7sjhqjw=", "properties": {"ref": "https://www.elclubdelamilanesa.com/sucursal-botanico.html", "@spider": "milanesa", "addr:full": "Av. Ra\ufffdl Scalabrini Ort\ufffdz 3190\r\n CABA, Argentina, 1425", "addr:street": "Av. Ra\ufffdl Scalabrini Ort\ufffdz 3190\r\n", "addr:city": "CABA", "addr:postcode": "1425", "name": "elclubdelamilanesa - Av. Scalabrini Ortiz 3190", "phone": "5263-9582", "website": "https://www.elclubdelamilanesa.com/sucursal-botanico.html", "opening_hours": "Mo - Su : 11:00 - 02:00", "brand": "Club Milanesa"}},
{"type": "Feature", "id": "IlGz8uUIt31bnmM_cFzLleyTE5s=", "properties": {"ref": "https://www.elclubdelamilanesa.com/sucursal-villa-crespo.html", "@spider": "milanesa", "addr:full": "Avenida Corrientes 5136 CABA, Argentina, 1414", "addr:street": "Avenida Corrientes 5136", "addr:city": "CABA", "addr:postcode": "1414", "name": "elclubdelamilanesa - Avenida Corrientes 5136", "phone": "5263-9297", "website": "https://www.elclubdelamilanesa.com/sucursal-villa-crespo.html", "opening_hours": "Mo - Su : 11:00 - 02:00", "brand": "Club Milanesa"}},
{"type": "Feature", "id": "_cAw8QVhY18N72hQJkjjClsKMq8=", "properties": {"ref": "https://www.elclubdelamilanesa.com/sucursal-villa-urquiza-caba.html", "@spider": "milanesa", "addr:full": "Olazabal 4803 Buenos Aires, Argentina, 1431", "addr:street": "Olazabal 4803", "addr:city": "Buenos Aires", "addr:postcode": "1431", "name": "elclubdelamilanesa - OLAZABAL 4803 ESQ. PACHECO", "phone": "5263-7038", "website": "https://www.elclubdelamilanesa.com/sucursal-villa-urquiza-caba.html", "opening_hours": "Mo - Su : 11:00 - 02:00", "brand": "Club Milanesa"}},
{"type": "Feature", "id": "0pJULCdcBKDPj68nlu9mYHINCMg=", "properties": {"ref": "https://www.elclubdelamilanesa.com/sucursal-palermo-soho-caba.html", "@spider": "milanesa", "addr:full": "Gurruchaga 1806 CABA, Argentina, 1414", "addr:street": "Gurruchaga 1806", "addr:city": "CABA", "addr:postcode": "1414", "name": "elclubdelamilanesa - Gurruchaga 1806, CABA", "phone": "11-5263-9360", "website": "https://www.elclubdelamilanesa.com/sucursal-palermo-soho-caba.html", "opening_hours": "Mo - Su : 11:00 - 02:00", "brand": "Club Milanesa"}},
{"type": "Feature", "id": "hKvmMDz8VEOiVT_K11yI5HmfOTQ=", "properties": {"ref": "https://www.elclubdelamilanesa.com/sucursal-palermo-caba.html", "@spider": "milanesa", "addr:full": "Gorriti 5702 Buenos Aires, Argentina, 1603", "addr:street": "Gorriti 5702", "addr:city": "Buenos Aires", "addr:postcode": "1603", "name": "elclubdelamilanesa - GORRITI 5702", "phone": "5263-9012", "website": "https://www.elclubdelamilanesa.com/sucursal-palermo-caba.html", "opening_hours": "Mo - Su : 11:00 - 02:00", "brand": "Club Milanesa"}},
{"type": "Feature", "id": "Hp-QGd6_M-G7gtppSg9oCZ4jlGk=", "properties": {"ref": "https://www.elclubdelamilanesa.com/sucursal-caballito-caba.html", "@spider": "milanesa", "addr:full": "AV. Rivadavia 4945 Buenos Aires, Argentina, 1603", "addr:street": "AV. Rivadavia 4945", "addr:city": "Buenos Aires", "addr:postcode": "1603", "name": "elclubdelamilanesa - AV. RIVADAVIA 4945", "phone": "5263-9015", "website": "https://www.elclubdelamilanesa.com/sucursal-caballito-caba.html", "opening_hours": "Mo - Su : 11:00 - 02:00", "brand": "Club Milanesa"}},
{"type": "Feature", "id": "3oqwGJhXLqn3YjLUGQFF6Rza9No=", "properties": {"ref": "https://www.elclubdelamilanesa.com/sucursal-belgrano-r-caba.html", "@spider": "milanesa", "addr:full": "JURAMENTO 2995 Buenos Aires, Argentina, 1603", "addr:street": "JURAMENTO 2995", "addr:city": "Buenos Aires", "addr:postcode": "1603", "name": "elclubdelamilanesa - JURAMENTO 2995 ESQ. CONESA", "phone": "5263-7602", "website": "https://www.elclubdelamilanesa.com/sucursal-belgrano-r-caba.html", "opening_hours": "Mo - Su : 11:00 - 02:00", "brand": "Club Milanesa"}},
{"type": "Feature", "id": "kLcsC5FSUIN7HLZyuX6qlQnElRs=", "properties": {"ref": "https://www.elclubdelamilanesa.com/sucursal-altoavellaneda.html", "@spider": "milanesa", "addr:full": "Gral. Guemes 897 Avellaneda, Argentina, 1873", "addr:street": "Gral. Guemes 897", "addr:city": "Avellaneda", "addr:postcode": "1873", "name": "elclubdelamilanesa - Gral. Guemes 897", "website": "https://www.elclubdelamilanesa.com/sucursal-altoavellaneda.html", "opening_hours": "Mo - Su : 10:00 - 00:00", "brand": "Club Milanesa"}},
{"type": "Feature", "id": "GOdkKXPTFZd6NmSFwqfSzvZz4iA=", "properties": {"ref": "https://www.elclubdelamilanesa.com/sucursal-tigre.html", "@spider": "milanesa", "addr:full": "Av. Sta. Mar\ufffda de las Conchas 4711 Tigre, Argentina, 1287", "addr:street": "Av. Sta. Mar\ufffda de las Conchas 4711", "addr:city": "Tigre", "addr:postcode": "1287", "name": "elclubdelamilanesa - Av. Sta. Mar\u00eda de las Conchas 4711", "website": "https://www.elclubdelamilanesa.com/sucursal-tigre.html", "opening_hours": "Mo - Su : 11:00 - 00:00", "brand": "Club Milanesa"}},
{"type": "Feature", "id": "ksFDntpZNJxLoMw9fn7ZHQ7qLFU=", "properties": {"ref": "https://www.elclubdelamilanesa.com/sucursal-polvorines.html", "@spider": "milanesa", "addr:full": "AV. PRES. ARTURO UMBERTO ILLIA  B1613 Los Polvorines, Argentina, 1287", "addr:street": "AV. PRES. ARTURO UMBERTO ILLIA  B1613", "addr:city": "Los Polvorines", "addr:postcode": "1287", "name": "elclubdelamilanesa - AV. PRES. ARTURO UMBERTO ILLIA  B1613", "website": "https://www.elclubdelamilanesa.com/sucursal-polvorines.html", "opening_hours": "Mo - Su : 11:00 - 00:00", "brand": "Club Milanesa"}},
{"type": "Feature", "id": "4GUdG4c2RatuZz_hVyRflLt5Dao=", "properties": {"ref": "https://www.elclubdelamilanesa.com/sucursal-moron.html", "@spider": "milanesa", "addr:full": "Ntra. se\ufffdora del buen viaje  986 Buenos Aires, Argentina, 1708", "addr:street": "Ntra. se\ufffdora del buen viaje  986", "addr:city": "Buenos Aires", "addr:postcode": "1708", "name": "elclubdelamilanesa - Ntra. se\u00f1ora del buen viaje  986", "phone": "2133-3986", "website": "https://www.elclubdelamilanesa.com/sucursal-moron.html", "opening_hours": "Mo - Su : 11:00 - 00:00", "brand": "Club Milanesa"}},
{"type": "Feature", "id": "OPBtYdcxAeZXlLF2dnWj7Kacyc4=", "properties": {"ref": "https://www.elclubdelamilanesa.com/sucursal-moreno.html", "@spider": "milanesa", "addr:full": "Independencia 2831 Buenos Aires, Argentina, 1738", "addr:street": "Independencia 2831", "addr:city": "Buenos Aires", "addr:postcode": "1738", "name": "elclubdelamilanesa - Independencia 2831", "phone": "0237-4667595", "website": "https://www.elclubdelamilanesa.com/sucursal-moreno.html", "opening_hours": "Mo - Su : 11:00 - 00:00", "brand": "Club Milanesa"}},
{"type": "Feature", "id": "vqZE52VUXfSg1m7f95ebkmaJUjQ=", "properties": {"ref": "https://www.elclubdelamilanesa.com/sucursal-parqueleloir.html", "@spider": "milanesa", "addr:full": "Martin Fierro 3290 Buenos Aires, Argentina, 1713", "addr:street": "Martin Fierro 3290", "addr:city": "Buenos Aires", "addr:postcode": "1713", "name": "elclubdelamilanesa - Martin Fierro 3290", "phone": "7078-0639", "website": "https://www.elclubdelamilanesa.com/sucursal-parqueleloir.html", "opening_hours": "Mo - Su : 11:00 - 00:00", "brand": "Club Milanesa"}},
{"type": "Feature", "id": "O1i8L3gyMaCQwyIDT5ucyJ9hS6Q=", "properties": {"ref": "https://www.elclubdelamilanesa.com/sucursal-delviso.html", "@spider": "milanesa", "addr:full": "Colectora Este Ramal Pilar 2339 Buenos Aires, Argentina, 1664", "addr:street": "Colectora Este Ramal Pilar 2339", "addr:city": "Buenos Aires", "addr:postcode": "1664", "name": "elclubdelamilanesa - Colectora Este Ramal Pilar 2339", "phone": "4449-3153", "website": "https://www.elclubdelamilanesa.com/sucursal-delviso.html", "opening_hours": "Mo - Su : 11:00 - 00:00", "brand": "Club Milanesa"}},
{"type": "Feature", "id": "7sfgh9R8WxLenXZZ8ZiAuPIHck8=", "properties": {"ref": "https://www.elclubdelamilanesa.com/sucursal-merlo.html", "@spider": "milanesa", "addr:full": "Sarandi 397 Buenos Aires, Argentina, 1722", "addr:street": "Sarandi 397", "addr:city": "Buenos Aires", "addr:postcode": "1722", "name": "elclubdelamilanesa - Sarandi 397", "phone": "7078-8404", "website": "https://www.elclubdelamilanesa.com/sucursal-merlo.html", "opening_hours": "Mo - Su : 11:00 - 00:00", "brand": "Club Milanesa"}},
{"type": "Feature", "id": "znSMzBefB3ipfJsd4Uv-ZRvoWkw=", "properties": {"ref": "https://www.elclubdelamilanesa.com/sucursal-avellaneda.html", "@spider": "milanesa", "addr:full": "Monse\ufffdor Piaggio 20 Buenos Aires, Argentina, 1870", "addr:street": "Monse\ufffdor Piaggio 20", "addr:city": "Buenos Aires", "addr:postcode": "1870", "name": "elclubdelamilanesa - Monse\u00f1or Piaggio 20", "phone": "7078-0585", "website": "https://www.elclubdelamilanesa.com/sucursal-avellaneda.html", "opening_hours": "Mo - Su : 11:00 - 00:00", "brand": "Club Milanesa"}},
{"type": "Feature", "id": "2WYBxgP69vlVG4SAv5gvRPNYUCg=", "properties": {"ref": "https://www.elclubdelamilanesa.com/sucursal-sanmartin.html", "@spider": "milanesa", "addr:full": "Matheu 3941 Buenos Aires, Argentina, 1650", "addr:street": "Matheu 3941", "addr:city": "Buenos Aires", "addr:postcode": "1650", "name": "elclubdelamilanesa - Matheu 3941", "phone": "4852-5210", "website": "https://www.elclubdelamilanesa.com/sucursal-sanmartin.html", "opening_hours": "Mo - Su : 11:00 - 02:00", "brand": "Club Milanesa"}},
{"type": "Feature", "id": "m8UXgjkZQFcjurdZUoQIMlHeb7k=", "properties": {"ref": "https://www.elclubdelamilanesa.com/sucursal-munro.html", "@spider": "milanesa", "addr:full": "Av. Bartolome Mitre 2180 Buenos Aires, Argentina, 1605", "addr:street": "Av. Bartolome Mitre 2180", "addr:city": "Buenos Aires", "addr:postcode": "1605", "name": "elclubdelamilanesa - Av. Bartolome Mitre 2180", "phone": "5263-9010", "website": "https://www.elclubdelamilanesa.com/sucursal-munro.html", "opening_hours": "Mo - Su : 11:00 - 02:00", "brand": "Club Milanesa"}},
{"type": "Feature", "id": "kSpNhrlSBU1Q9vvmsY5njJdQVr0=", "properties": {"ref": "https://www.elclubdelamilanesa.com/sucursal-unicenter.html", "@spider": "milanesa", "addr:full": "Paran\ufffd 3745 Martinez, Argentina, 1640", "addr:street": "Paran\ufffd 3745", "addr:city": "Martinez", "addr:postcode": "1640", "name": "elclubdelamilanesa - Paran\u00e1 3745", "website": "https://www.elclubdelamilanesa.com/sucursal-unicenter.html", "opening_hours": "Mo - Su : 10:00 - 00:00", "brand": "Club Milanesa"}},
{"type": "Feature", "id": "ucq9-XD31mTubsskMPTxs3Zp-m8=", "properties": {"ref": "https://www.elclubdelamilanesa.com/sucursal-quilmes-buenos-aires.html", "@spider": "milanesa", "addr:full": "Almte Brown 401 Buenos Aires, Argentina, 1878", "addr:street": "Almte Brown 401", "addr:city": "Buenos Aires", "addr:postcode": "1878", "name": "elclubdelamilanesa - Almirante Brown 401", "phone": "5263-9594", "website": "https://www.elclubdelamilanesa.com/sucursal-quilmes-buenos-aires.html", "opening_hours": "Mo - Su : 11:00 - 02:00", "brand": "Club Milanesa"}},
{"type": "Feature", "id": "HGYJ5yveN_-mR2t59oQQFJYcSvc=", "properties": {"ref": "https://www.elclubdelamilanesa.com/sucursal-ituzaingo.html", "@spider": "milanesa", "addr:full": "SANTA ROSA 1206 Buenos Aires, Argentina, 1714", "addr:street": "SANTA ROSA 1206", "addr:city": "Buenos Aires", "addr:postcode": "1714", "name": "elclubdelamilanesa - Santa Rosa 1206", "phone": "5263-8404", "website": "https://www.elclubdelamilanesa.com/sucursal-ituzaingo.html", "opening_hours": "Mo - Su : 11:00 - 02:00", "brand": "Club Milanesa"}},
{"type": "Feature", "id": "gVrISJh0n37JG3tCpyatEv-rClk=", "properties": {"ref": "https://www.elclubdelamilanesa.com/sucursal-pilar.html", "@spider": "milanesa", "addr:full": "Chubut 5 Buenos Aires, Argentina, 1631", "addr:street": "Chubut 5", "addr:city": "Buenos Aires", "addr:postcode": "1631", "name": "elclubdelamilanesa - Torres del Sol. Panamericana, Ramal Pilar, Km 50", "phone": "(0230) 466 8655", "website": "https://www.elclubdelamilanesa.com/sucursal-pilar.html", "opening_hours": "Mo - Su : 11:00 - 02:00", "brand": "Club Milanesa"}},
{"type": "Feature", "id": "x4xWu0ONAcPUZLg4340Zp2S9Ayc=", "properties": {"ref": "https://www.elclubdelamilanesa.com/sucursal-vicente-lopez-buenos-aires.html", "@spider": "milanesa", "addr:full": "Av. del Libertador 48 Buenos Aires, Argentina, 1636 ", "addr:street": "Av. del Libertador 48", "addr:city": "Buenos Aires", "addr:postcode": "1636 ", "name": "elclubdelamilanesa - AV. DEL LIBERTADOR 48", "phone": "5263-9018", "website": "https://www.elclubdelamilanesa.com/sucursal-vicente-lopez-buenos-aires.html", "opening_hours": "Mo - Su : 11:00 - 02:00", "brand": "Club Milanesa"}},
{"type": "Feature", "id": "aqW52PAWeu0uSi7YvHIJhRE4O-A=", "properties": {"ref": "https://www.elclubdelamilanesa.com/sucursal-city-bell-la-plata-buenos-aires.html", "@spider": "milanesa", "addr:full": "Calle Cantilo 473 numero 256 Buenos Aires, Argentina, 1896", "addr:street": "Calle Cantilo 473 numero 256", "addr:city": "Buenos Aires", "addr:postcode": "1896", "name": "elclubdelamilanesa - Calle Cantilo 473 numero 256", "phone": "(0221) 472-0142", "website": "https://www.elclubdelamilanesa.com/sucursal-city-bell-la-plata-buenos-aires.html", "opening_hours": "Mo - Su : 11:00 - 02:00", "brand": "Club Milanesa"}},
{"type": "Feature", "id": "c7tA0bwoJeeb64ULgfzixmjbn9Y=", "properties": {"ref": "https://www.elclubdelamilanesa.com/sucursal-la-plata-buenos-aires.html", "@spider": "milanesa", "addr:full": "Diagonal 74 1451 Buenos Aires, Argentina, 1603", "addr:street": "Diagonal 74 1451", "addr:city": "Buenos Aires", "addr:postcode": "1603", "name": "elclubdelamilanesa - DIAGONAL 74 N\u00ba 1451 (ENTRE 46 Y 47)", "phone": "(0221) 421-4743", "website": "https://www.elclubdelamilanesa.com/sucursal-la-plata-buenos-aires.html", "opening_hours": "Mo - Su : 11:00 - 02:00", "brand": "Club Milanesa"}},
{"type": "Feature", "id": "1rBb-CqbadaHBT63znHgNtkhqNE=", "properties": {"ref": "https://www.elclubdelamilanesa.com/sucursal-lanus.html", "@spider": "milanesa", "addr:full": "Gobernador Carlos Tejedor 112 Buenos Aires, Argentina, 1824", "addr:street": "Gobernador Carlos Tejedor 112", "addr:city": "Buenos Aires", "addr:postcode": "1824", "name": "elclubdelamilanesa - Gobernador Carlos Tejedor 112", "phone": "5263-3448", "website": "https://www.elclubdelamilanesa.com/sucursal-lanus.html", "opening_hours": "Mo - Su : 11:00 - 02:00", "brand": "Club Milanesa"}},
{"type": "Feature", "id": "L4Qg4k602qwtjqwnV1WD4nZ7pdY=", "properties": {"ref": "https://www.elclubdelamilanesa.com/sucursal-san-miguel-buenos-aires.html", "@spider": "milanesa", "addr:full": "Av Presidente Juan Per\ufffdn 330 Buenos Aires, Argentina, 1603", "addr:street": "Av Presidente Juan Per\ufffdn 330", "addr:city": "Buenos Aires", "addr:postcode": "1603", "name": "elclubdelamilanesa - AV. PRES. J. D. PER\u00d3N 330", "phone": "5263-3825", "website": "https://www.elclubdelamilanesa.com/sucursal-san-miguel-buenos-aires.html", "opening_hours": "Mo - Su : 11:00 - 02:00", "brand": "Club Milanesa"}},
{"type": "Feature", "id": "V0RIp7JpweoizyOZJEhgUH7qrrE=", "properties": {"ref": "https://www.elclubdelamilanesa.com/sucursal-san-isidro-buenos-aires.html", "@spider": "milanesa", "addr:full": "Avenida del Libertador 16688 Buenos Aires, Argentina, 1603", "addr:street": "Avenida del Libertador 16688", "addr:city": "Buenos Aires", "addr:postcode": "1603", "name": "elclubdelamilanesa - AV. DEL LIBERTADOR 16688", "phone": "4743-1431", "website": "https://www.elclubdelamilanesa.com/sucursal-san-isidro-buenos-aires.html", "opening_hours": "Mo - Su : 11:00 - 02:00", "brand": "Club Milanesa"}},
{"type": "Feature", "id": "-NOH3MPmHqy6NMvmAdm-3-iEDBo=", "properties": {"ref": "https://www.elclubdelamilanesa.com/sucursal-las-lomitas.html", "@spider": "milanesa", "addr:full": "Sixto Fern\ufffdndez 290 Buenos Aires, Argentina, 1832", "addr:street": "Sixto Fern\ufffdndez 290", "addr:city": "Buenos Aires", "addr:postcode": "1832", "name": "elclubdelamilanesa - SIXTO FERNANDEZ 290", "phone": "5263-9380", "website": "https://www.elclubdelamilanesa.com/sucursal-las-lomitas.html", "opening_hours": "Mo - Su : 11:00 - 02:00", "brand": "Club Milanesa"}},
{"type": "Feature", "id": "_kzVTWFAhdV-GPEGL5NhXAz9Nao=", "properties": {"ref": "https://www.elclubdelamilanesa.com/sucursal-san-isidro-las-lomas-buenos-aires.html", "@spider": "milanesa", "addr:full": "Av Fondo de la Legua 387 Buenos Aires, Argentina, 1603", "addr:street": "Av Fondo de la Legua 387", "addr:city": "Buenos Aires", "addr:postcode": "1603", "name": "elclubdelamilanesa - AV. FONDO DE LA LEGUA 387", "phone": "4700-8873", "website": "https://www.elclubdelamilanesa.com/sucursal-san-isidro-las-lomas-buenos-aires.html", "opening_hours": "Mo - Su : 11:00 - 02:00", "brand": "Club Milanesa"}},
{"type": "Feature", "id": "bCmvlN1dG0aaPkQ97DJIFdnqT9Q=", "properties": {"ref": "https://www.elclubdelamilanesa.com/sucursal-ramos-mejia-buenos-aires.html", "@spider": "milanesa", "addr:full": "Rosales 239 Buenos Aires, Argentina, 1603", "addr:street": "Rosales 239", "addr:city": "Buenos Aires", "addr:postcode": "1603", "name": "elclubdelamilanesa - ROSALES 239", "phone": "4654-6166", "website": "https://www.elclubdelamilanesa.com/sucursal-ramos-mejia-buenos-aires.html", "opening_hours": "Mo - Su : 11:00 - 02:00", "brand": "Club Milanesa"}},
{"type": "Feature", "id": "giY2x_ZnRwnVm4ALZNGdckTBcLo=", "properties": {"ref": "https://www.elclubdelamilanesa.com/sucursal-olivos-buenos-aires.html", "@spider": "milanesa", "addr:full": "Av. del Libertador 2459 Buenos Aires, Argentina, 1603", "addr:street": "Av. del Libertador 2459", "addr:city": "Buenos Aires", "addr:postcode": "1603", "name": "elclubdelamilanesa - AV. DEL LIBERTADOR 2459", "phone": "5263-2459", "website": "https://www.elclubdelamilanesa.com/sucursal-olivos-buenos-aires.html", "opening_hours": "Mo - Su : 11:00 - 02:00", "brand": "Club Milanesa"}},
{"type": "Feature", "id": "K0t5C7-UekB0S3cxeeBqkscUsOM=", "properties": {"ref": "https://www.elclubdelamilanesa.com/sucursal-belgrano-caba.html", "@spider": "milanesa", "addr:full": "MONROE 1402 Buenos Aires, Argentina, 1603", "addr:street": "MONROE 1402", "addr:city": "Buenos Aires", "addr:postcode": "1603", "name": "elclubdelamilanesa - MONROE 1402 ESQ. MIGUELETES", "phone": "5263-9017", "website": "https://www.elclubdelamilanesa.com/sucursal-belgrano-caba.html", "opening_hours": "Mo - Su : 11:00 - 02:00", "brand": "Club Milanesa"}},
{"type": "Feature", "id": "OW4lURQXew3TGKDdDtieDzGEWW4=", "properties": {"ref": "https://www.elclubdelamilanesa.com/sucursal-barrio-norte-caba.html", "@spider": "milanesa", "addr:full": "Av. Callao 1077 Buenos Aires, Argentina, 1603", "addr:street": "Av. Callao 1077", "addr:city": "Buenos Aires", "addr:postcode": "1603", "name": "elclubdelamilanesa - CALLAO 1077 Y SANTA FE", "phone": "5263-9016", "website": "https://www.elclubdelamilanesa.com/sucursal-barrio-norte-caba.html", "opening_hours": "Mo - Su : 11:00 - 02:00", "brand": "Club Milanesa"}},
{"type": "Feature", "id": "d69_bs_nMsQNeVfwFMmKyOcPl3s=", "properties": {"ref": "https://www.elclubdelamilanesa.com/sucursal-mar-del-plata-buenos-aires-constitucion.html", "@spider": "milanesa", "addr:full": "Av. Constituci\ufffdn 5509 Buenos Aires, Argentina, 7600", "addr:street": "Av. Constituci\ufffdn 5509", "addr:city": "Buenos Aires", "addr:postcode": "7600", "name": "elclubdelamilanesa - Av. Constituci\u00f3n 5509", "phone": "2236144002", "website": "https://www.elclubdelamilanesa.com/sucursal-mar-del-plata-buenos-aires-constitucion.html", "opening_hours": "Mo - Su : 11:00 - 02:00", "brand": "Club Milanesa"}},
{"type": "Feature", "id": "VJGqeq-rhzz2CTKPvdh-Rj_jA_E=", "properties": {"ref": "https://www.elclubdelamilanesa.com/sucursal-mar-del-plata-buenos-aires.html", "@spider": "milanesa", "addr:full": "Alvarado 1355 Buenos Aires, Argentina, 1603", "addr:street": "Alvarado 1355", "addr:city": "Buenos Aires", "addr:postcode": "1603", "name": "elclubdelamilanesa - ALVARADO 1355 (ENTRE OLAVARR\u00cdA y G\u00dcEMES)", "phone": "451-8866", "website": "https://www.elclubdelamilanesa.com/sucursal-mar-del-plata-buenos-aires.html", "opening_hours": "Mo - Su : 11:00 - 02:00", "brand": "Club Milanesa"}},
{"type": "Feature", "id": "pp4mCf0-9rrMoGezPLg-_5tgsoo=", "properties": {"ref": "https://www.elclubdelamilanesa.com/sucursal-valle-escondido-cordoba.html", "@spider": "milanesa", "addr:full": "Republica de China 1450 Cordoba, Argentina, 5003", "addr:street": "Republica de China 1450", "addr:city": "Cordoba", "addr:postcode": "5003", "name": "elclubdelamilanesa - Rep\u00fablica de China 1450", "phone": "700-0290", "website": "https://www.elclubdelamilanesa.com/sucursal-valle-escondido-cordoba.html", "opening_hours": "Mo - Su : 11:00 - 02:00", "brand": "Club Milanesa"}},
{"type": "Feature", "id": "rzNiqMx_F-ZJusjkZSKd9xkixrg=", "properties": {"ref": "https://www.elclubdelamilanesa.com/sucursal-barrio-jardin-cordoba.html", "@spider": "milanesa", "addr:full": "Jose Moretto 3679 Cordoba, Argentina, 5000", "addr:street": "Jose Moretto 3679", "addr:city": "Cordoba", "addr:postcode": "5000", "name": "elclubdelamilanesa - JOSE MORETTO 3679", "phone": "700-0125", "website": "https://www.elclubdelamilanesa.com/sucursal-barrio-jardin-cordoba.html", "opening_hours": "Mo - Su : 11:00 - 02:00", "brand": "Club Milanesa"}},
{"type": "Feature", "id": "zDeS040WwpXE8Oc4unIyLPr6P4s=", "properties": {"ref": "https://www.elclubdelamilanesa.com/sucursal-general-paz-cordoba.html", "@spider": "milanesa", "addr:full": "24 de Septiembre 1072 Cordoba, Argentina, 1603", "addr:street": "24 de Septiembre 1072", "addr:city": "Cordoba", "addr:postcode": "1603", "name": "elclubdelamilanesa - 24 DE SEPTIEMBRE 1072", "phone": "700-2190", "website": "https://www.elclubdelamilanesa.com/sucursal-general-paz-cordoba.html", "opening_hours": "Mo - Su : 11:00 - 02:00", "brand": "Club Milanesa"}},
{"type": "Feature", "id": "9MWZi6eJw1OpzP_XoSwO2KT25nk=", "properties": {"ref": "https://www.elclubdelamilanesa.com/sucursal-nueva-cordoba.html", "@spider": "milanesa", "addr:full": "Chacabuco 895 Cordoba, Argentina, 1603", "addr:street": "Chacabuco 895", "addr:city": "Cordoba", "addr:postcode": "1603", "name": "elclubdelamilanesa - CHACABUCO 895", "phone": "700-0760", "website": "https://www.elclubdelamilanesa.com/sucursal-nueva-cordoba.html", "opening_hours": "Mo - Su : 11:00 - 02:00", "brand": "Club Milanesa"}},
{"type": "Feature", "id": "z7a923L9e6z-Z6SqyJi1IhbvZ-k=", "properties": {"ref": "https://www.elclubdelamilanesa.com/sucursal-cerro-las-rosas-cordoba.html", "@spider": "milanesa", "addr:full": "Rafael Nu\ufffdez 4802 Cordoba, Argentina, 1603", "addr:street": "Rafael Nu\ufffdez 4802", "addr:city": "Cordoba", "addr:postcode": "1603", "name": "elclubdelamilanesa - RAFAEL NU\u00d1EZ 4802", "phone": "700-2010", "website": "https://www.elclubdelamilanesa.com/sucursal-cerro-las-rosas-cordoba.html", "opening_hours": "Mo - Su : 11:00 - 02:00", "brand": "Club Milanesa"}},
{"type": "Feature", "id": "5QUL2WbeYahfLXi5S6YKhFukff8=", "properties": {"ref": "https://www.elclubdelamilanesa.com/sucursal-sanjuan.html", "@spider": "milanesa", "addr:full": "Av. Libertador Gral. San Mart\ufffdn San Juan, Argentina, 5400", "addr:street": "Av. Libertador Gral. San Mart\ufffdn", "addr:city": "San Juan", "addr:postcode": "5400", "name": "elclubdelamilanesa - Av. Libertador Gral. San Mart\u00edn 1315", "website": "https://www.elclubdelamilanesa.com/sucursal-sanjuan.html", "opening_hours": "Mo - Su : 11:00 - 02:00", "brand": "Club Milanesa"}},
{"type": "Feature", "id": "D4w1bIF3mnSHwvg2_hHGbKzsrrc=", "properties": {"ref": "https://www.elclubdelamilanesa.com/sucursal-mendozaplazashopping.html", "@spider": "milanesa", "addr:full": "Av. de Acceso Este 3280 Mendoza, Argentina, 5500", "addr:street": "Av. de Acceso Este 3280", "addr:city": "Mendoza", "addr:postcode": "5500", "name": "elclubdelamilanesa - Av. de Acceso Este 3280", "website": "https://www.elclubdelamilanesa.com/sucursal-mendozaplazashopping.html", "opening_hours": "Mo - Su : 11:00 - 02:00", "brand": "Club Milanesa"}},
{"type": "Feature", "id": "7ykJXV_SsjTLbyoH5Z7sstPNyoM=", "properties": {"ref": "https://www.elclubdelamilanesa.com/sucursal-palmares.html", "@spider": "milanesa", "addr:full": "Av. San Martin Sur 2875 Mendoza, Argentina, 5501", "addr:street": "Av. San Martin Sur 2875", "addr:city": "Mendoza", "addr:postcode": "5501", "name": "elclubdelamilanesa - AV. SAN MARTIN SUR 2875", "phone": "348-1390", "website": "https://www.elclubdelamilanesa.com/sucursal-palmares.html", "opening_hours": "Mo - Su : 11:00 - 02:00", "brand": "Club Milanesa"}},
{"type": "Feature", "id": "DliQVUX2ibQjbtWjBRvrSpHBNn8=", "properties": {"ref": "https://www.elclubdelamilanesa.com/sucursal-chacras-de-coria-mendoza.html", "@spider": "milanesa", "addr:full": "Orsini 70 Mendoza, Argentina, 1603", "addr:street": "Orsini 70", "addr:city": "Mendoza", "addr:postcode": "1603", "name": "elclubdelamilanesa - ORSINI 70", "phone": "496-0545", "website": "https://www.elclubdelamilanesa.com/sucursal-chacras-de-coria-mendoza.html", "opening_hours": "Mo - Su : 11:00 - 02:00", "brand": "Club Milanesa"}},
{"type": "Feature", "id": "06QOhuWjGNtrupPRNC_Qv6L3Pcc=", "properties": {"ref": "https://www.elclubdelamilanesa.com/sucursal-guaymallen-mendoza.html", "@spider": "milanesa", "addr:full": "Rondeau 5521 Mendoza, Argentina, 5521", "addr:street": "Rondeau 5521", "addr:city": "Mendoza", "addr:postcode": "5521", "name": "elclubdelamilanesa - RONDEAU 5521", "phone": "397-6642", "website": "https://www.elclubdelamilanesa.com/sucursal-guaymallen-mendoza.html", "opening_hours": "Mo - Su : 11:00 - 00:00", "brand": "Club Milanesa"}},
{"type": "Feature", "id": "iiuFC7JVtzzCjCNmap_ttzOUwl8=", "properties": {"ref": "https://www.elclubdelamilanesa.com/sucursal-aristides-mendoza.html", "@spider": "milanesa", "addr:full": "Av. Ar\ufffdstides Villanueva 405 Mendoza, Argentina, 1603", "addr:street": "Av. Ar\ufffdstides Villanueva 405", "addr:city": "Mendoza", "addr:postcode": "1603", "name": "elclubdelamilanesa - AV. AR\u00cdSTIDES VILLANUEVA 405", "phone": "425-9254", "website": "https://www.elclubdelamilanesa.com/sucursal-aristides-mendoza.html", "opening_hours": "Mo - Su : 11:00 - 02:00", "brand": "Club Milanesa"}},
{"type": "Feature", "id": "lMXWXvzampMo4aEVZxza2Zy8jak=", "properties": {"ref": "https://www.elclubdelamilanesa.com/sucursal-alto-rosario.html", "@spider": "milanesa", "addr:full": "Junin 501 Santa Fe, Argentina, 1603", "addr:street": "Junin 501", "addr:city": "Santa Fe", "addr:postcode": "1603", "name": "elclubdelamilanesa - Junin 501", "website": "https://www.elclubdelamilanesa.com/sucursal-alto-rosario.html", "opening_hours": "Mo - Su : 11:00 - 02:00", "brand": "Club Milanesa"}},
{"type": "Feature", "id": "Z9YmEutr4ye8qujC4wxvKzAUjIk=", "properties": {"ref": "https://www.elclubdelamilanesa.com/sucursal-puerto-norte-rosario.html", "@spider": "milanesa", "addr:full": "Av. Carballo 160 Santa Fe, Argentina, 1603", "addr:street": "Av. Carballo 160", "addr:city": "Santa Fe", "addr:postcode": "1603", "name": "elclubdelamilanesa - AV. CARBALLO 160, LOCAL 11", "website": "https://www.elclubdelamilanesa.com/sucursal-puerto-norte-rosario.html", "opening_hours": "Mo - Su : 11:00 - 02:00", "brand": "Club Milanesa"}},
{"type": "Feature", "id": "CV29LPnpEKMebyls56xenhlipME=", "properties": {"ref": "https://www.elclubdelamilanesa.com/sucursal-pichincha-rosario.html", "@spider": "milanesa", "addr:full": "Jujuy 2298 Santa Fe, Argentina, 1603", "addr:street": "Jujuy 2298", "addr:city": "Santa Fe", "addr:postcode": "1603", "name": "elclubdelamilanesa - JUJUY 2298", "website": "https://www.elclubdelamilanesa.com/sucursal-pichincha-rosario.html", "opening_hours": "Mo - Su : 11:00 - 02:00", "brand": "Club Milanesa"}},
{"type": "Feature", "id": "tR7mz0u9SAbZkI4fqx-Te0i3Bb4=", "properties": {"ref": "https://www.elclubdelamilanesa.com/sucursal-paseo-pellegrini-rosario.html", "@spider": "milanesa", "addr:full": "Av. Pellegrini 1605 Santa Fe, Argentina, 1603", "addr:street": "Av. Pellegrini 1605", "addr:city": "Santa Fe", "addr:postcode": "1603", "name": "elclubdelamilanesa - AV. PELLEGRINI ESQ. PTE. ROCA", "website": "https://www.elclubdelamilanesa.com/sucursal-paseo-pellegrini-rosario.html", "opening_hours": "Mo - Su : 11:00 - 02:00", "brand": "Club Milanesa"}},
{"type": "Feature", "id": "6tlLlyIMDRXyaTWs7bfPd6-IWoE=", "properties": {"ref": "https://www.elclubdelamilanesa.com/sucursal-yerbabuena.html", "@spider": "milanesa", "addr:full": "Aconquija 365 Tucumon, Argentina, 4001", "addr:street": "Aconquija 365", "addr:city": "Tucumon", "addr:postcode": "4001", "name": "elclubdelamilanesa - Aconquija 365", "phone": "3812554791", "website": "https://www.elclubdelamilanesa.com/sucursal-yerbabuena.html", "opening_hours": "Mo - Su : 11:00 - 00:00", "brand": "Club Milanesa"}},
{"type": "Feature", "id": "w4Sjx0PSvpgzYbZvGJFF5J5ArVM=", "properties": {"ref": "https://www.elclubdelamilanesa.com/sucursal-tucuman.html", "@spider": "milanesa", "addr:full": "Santa Fe 680 Tucumon, Argentina, 4000", "addr:street": "Santa Fe 680", "addr:city": "Tucumon", "addr:postcode": "4000", "name": "elclubdelamilanesa - Santa Fe 680", "phone": "0381 2603466", "website": "https://www.elclubdelamilanesa.com/sucursal-tucuman.html", "opening_hours": "Mo - Su : 11:00 - 23:00", "brand": "Club Milanesa"}},
{"type": "Feature", "id": "9seLwDpqSTJ5Oc0eL3SxJ_EQ3yg=", "properties": {"ref": "https://www.elclubdelamilanesa.com/sucursal-salta.html", "@spider": "milanesa", "addr:full": "Avenida Belgrano 267 Salta, Argentina, 4400", "addr:street": "Avenida Belgrano 267", "addr:city": "Salta", "addr:postcode": "4400", "name": "elclubdelamilanesa - Avenida Belgrano 267", "phone": "6705888", "website": "https://www.elclubdelamilanesa.com/sucursal-salta.html", "opening_hours": "Mo - Su : 11:00 - 02:00", "brand": "Club Milanesa"}}]}