{"type":"FeatureCollection","features":[{"type": "Feature", "id": "UcLjSO1KLv2B_gaY010nqaNXyeo=", "properties": {"ref": "https://www.millerandcarter.co.uk/restaurants/east-of-england/millerandcarterlangdonhills", "@spider": "millercarter", "addr:street_address": "High Road, Langdon Hills", "addr:city": "Basildon", "addr:state": "Essex", "addr:postcode": "SS16 6HU", "addr:country": "GB", "name": "Miller & Carter Langdon Hills Basildon", "phone": "01268 544714", "website": "https://www.millerandcarter.co.uk/restaurants/east-of-england/millerandcarterlangdonhills", "contact:twitter": "sysadmin_ds@caci.co.uk", "opening_hours": "Mo-Sa 12:00-23:00; Su 12:00-22:30", "brand": "Miller and Carter"}, "geometry": {"type": "Point", "coordinates": [0.422758, 51.554118]}},
{"type": "Feature", "id": "8ZHM3fyA6GKuDsPOmURPZ638U3w=", "properties": {"ref": "https://www.millerandcarter.co.uk/restaurants/east-of-england/millerandcarterlakeside", "@spider": "millercarter", "addr:street_address": "Unit 900, Lakeside Shopping Centre", "addr:city": "Grays", "addr:state": "Essex", "addr:postcode": "RM20 2ZS", "addr:country": "GB", "name": "Miller & Carter Lakeside Essex", "phone": "01708 805679", "website": "https://www.millerandcarter.co.uk/restaurants/east-of-england/millerandcarterlakeside", "contact:twitter": "sysadmin_ds@caci.co.uk", "opening_hours": "Mo-Su 12:00-23:00", "brand": "Miller and Carter"}, "geometry": {"type": "Point", "coordinates": [0.280664, 51.487575]}},
{"type": "Feature", "id": "j4Ix1oX8CJXiTPSZ3JCNtqyUjU8=", "properties": {"ref": "https://www.millerandcarter.co.uk/restaurants/east-of-england/millerandcarteripswich", "@spider": "millercarter", "addr:street_address": "Felixstowe Road, Nacton", "addr:city": "Ipswich", "addr:state": "Suffolk", "addr:postcode": "IP10 0DF", "addr:country": "GB", "name": "Miller & Carter Ipswich Ipswich", "phone": "01473 659210", "website": "https://www.millerandcarter.co.uk/restaurants/east-of-england/millerandcarteripswich", "contact:twitter": "sysadmin_ds@caci.co.uk", "opening_hours": "Mo-Sa 12:00-23:00; Su 12:00-22:30", "brand": "Miller and Carter"}, "geometry": {"type": "Point", "coordinates": [1.231108, 52.02824]}},
{"type": "Feature", "id": "WO-8v5owD4GqraTefpD7bm9YtEA=", "properties": {"ref": "https://www.millerandcarter.co.uk/restaurants/east-of-england/millerandcarterharlow", "@spider": "millercarter", "addr:street_address": "London Road", "addr:city": "Harlow", "addr:state": "Essex", "addr:postcode": "CM17 9NG", "addr:country": "GB", "name": "Miller & Carter Harlow Essex", "phone": "01279 424495", "website": "https://www.millerandcarter.co.uk/restaurants/east-of-england/millerandcarterharlow", "contact:twitter": "sysadmin_ds@caci.co.uk", "opening_hours": "Mo-Sa 12:00-23:00; Su 12:00-22:30", "brand": "Miller and Carter"}, "geometry": {"type": "Point", "coordinates": [0.133726, 51.751594]}},
{"type": "Feature", "id": "m-PTP9XDcf2y22h2UO_w-zYUoxQ=", "properties": {"ref": "https://www.millerandcarter.co.uk/restaurants/east-of-england/millerandcartereppingforest", "@spider": "millercarter", "addr:street_address": "Wake Arms Roundabout, Epping Road", "addr:city": "Epping", "addr:state": "Essex", "addr:postcode": "CM16 5HW", "addr:country": "GB", "name": "Miller & Carter Epping Forest Essex", "phone": "01992 814807", "website": "https://www.millerandcarter.co.uk/restaurants/east-of-england/millerandcartereppingforest", "contact:twitter": "sysadmin_ds@caci.co.uk", "opening_hours": "Mo-Sa 12:00-23:00; Su 12:00-22:30", "brand": "Miller and Carter"}, "geometry": {"type": "Point", "coordinates": [0.062312, 51.675577]}},
{"type": "Feature", "id": "nEc0uiyw5u4MrsUAAKPDNBZCC7A=", "properties": {"ref": "https://www.millerandcarter.co.uk/restaurants/east-of-england/millerandcartercolchester", "@spider": "millercarter", "addr:street_address": "342 London Road", "addr:city": "Colchester", "addr:postcode": "C03 8LT", "addr:country": "GB", "name": "Miller & Carter Colchester Colchester", "phone": "01206 879164", "website": "https://www.millerandcarter.co.uk/restaurants/east-of-england/millerandcartercolchester", "contact:twitter": "sysadmin_ds@caci.co.uk", "opening_hours": "Mo-Sa 12:00-23:00; Su 12:00-22:30", "brand": "Miller and Carter"}, "geometry": {"type": "Point", "coordinates": [0.815297, 51.883735]}},
{"type": "Feature", "id": "EjlQ8VtbiTqlgKjhQiabu227tr0=", "properties": {"ref": "https://www.millerandcarter.co.uk/restaurants/east-of-england/millerandcarterchelmsford", "@spider": "millercarter", "addr:street_address": "Barnes Mill Road", "addr:city": "Chelmsford", "addr:state": "Essex", "addr:postcode": "CM2 6NL", "addr:country": "GB", "name": "Miller & Carter Chelmsford Chelmsford", "phone": "01245 495336", "website": "https://www.millerandcarter.co.uk/restaurants/east-of-england/millerandcarterchelmsford", "contact:twitter": "sysadmin_ds@caci.co.uk", "opening_hours": "Mo-Sa 12:00-23:00; Su 12:00-22:30", "brand": "Miller and Carter"}, "geometry": {"type": "Point", "coordinates": [0.496933, 51.731269]}},
{"type": "Feature", "id": "FgDIvL4p_bsYbbG1PxbaReW2iVw=", "properties": {"ref": "https://www.millerandcarter.co.uk/restaurants/east-of-england/millerandcarterbrookmanspark", "@spider": "millercarter", "addr:street_address": "Great North Road, Brookmans Park", "addr:city": "Hatfield", "addr:state": "Hertfordshire", "addr:postcode": "AL9 6NA", "addr:country": "GB", "name": "Miller & Carter Brookmans Park Potters Bar", "phone": "01707 647429", "website": "https://www.millerandcarter.co.uk/restaurants/east-of-england/millerandcarterbrookmanspark", "contact:twitter": "sysadmin_ds@caci.co.uk", "opening_hours": "Mo-Sa 12:00-23:00; Su 12:00-22:30", "brand": "Miller and Carter"}, "geometry": {"type": "Point", "coordinates": [-0.18495, 51.731977]}},
{"type": "Feature", "id": "38Dlb9jSk2QMjTeJl07rYqBlr04=", "properties": {"ref": "https://www.millerandcarter.co.uk/restaurants/east-of-england/millerandcarterbedford", "@spider": "millercarter", "addr:street_address": "Unit 4C, Riverside Square", "addr:city": "Bedford", "addr:postcode": "MK40 1NY", "addr:country": "GB", "name": "Miller & Carter Bedford", "phone": "01234 608010", "website": "https://www.millerandcarter.co.uk/restaurants/east-of-england/millerandcarterbedford", "contact:twitter": "sysadmin_ds@caci.co.uk", "opening_hours": "Mo-Sa 12:00-23:00; Su 12:00-22:00", "brand": "Miller and Carter"}, "geometry": {"type": "Point", "coordinates": [-0.470366, 52.134886]}},
{"type": "Feature", "id": "TJouDC2cpLbVXOHZTGHIcnCaaoU=", "properties": {"ref": "https://www.millerandcarter.co.uk/restaurants/east-and-west-midlands/millerandcarterresortsworld", "@spider": "millercarter", "addr:street_address": "Pendigo Way", "addr:city": "Birmingham", "addr:postcode": "B40 1PU", "addr:country": "GB", "name": "Miller & Carter Resorts World", "phone": "0121 272 7147", "website": "https://www.millerandcarter.co.uk/restaurants/east-and-west-midlands/millerandcarterresortsworld", "contact:twitter": "sysadmin_ds@caci.co.uk", "opening_hours": "Mo-Sa 12:00-23:00; Su 12:00-22:00", "brand": "Miller and Carter"}, "geometry": {"type": "Point", "coordinates": [-1.718065, 52.448409]}},
{"type": "Feature", "id": "4dC1PO4qpkvGUGWz0-mn1wZetpw=", "properties": {"ref": "https://www.millerandcarter.co.uk/restaurants/east-and-west-midlands/millerandcartertelford", "@spider": "millercarter", "addr:street_address": "Unit 2a, Southwater Square", "addr:city": "Telford", "addr:state": "Shropshire", "addr:postcode": "TF3 4JG", "addr:country": "GB", "name": "Miller & Carter Telford Telford", "phone": "01952 200345", "website": "https://www.millerandcarter.co.uk/restaurants/east-and-west-midlands/millerandcartertelford", "contact:twitter": "sysadmin_ds@caci.co.uk", "opening_hours": "Mo-Sa 12:00-23:00; Su 12:00-22:00", "brand": "Miller and Carter"}, "geometry": {"type": "Point", "coordinates": [-2.448386, 52.673781]}},
{"type": "Feature", "id": "zAFAG1PvPZiSnDeDQiBtg5Fsh4A=", "properties": {"ref": "https://www.millerandcarter.co.uk/restaurants/east-and-west-midlands/millerandcarterburton", "@spider": "millercarter", "addr:street_address": "Centrum East, Ninth Avenue", "addr:city": "Burton-Upon-Trent", "addr:state": "Staffordshire", "addr:postcode": "DE14 3JZ", "addr:country": "GB", "name": "Miller & Carter Burton Burton", "phone": "01283 517935", "website": "https://www.millerandcarter.co.uk/restaurants/east-and-west-midlands/millerandcarterburton", "contact:twitter": "sysadmin_ds@caci.co.uk", "opening_hours": "Mo-Sa 12:00-23:00; Su 12:00-22:00", "brand": "Miller and Carter"}, "geometry": {"type": "Point", "coordinates": [-1.670165, 52.791172]}},
{"type": "Feature", "id": "LBFcrHKUYIisChLoqWAehuey7PM=", "properties": {"ref": "https://www.millerandcarter.co.uk/restaurants/east-and-west-midlands/millerandcarterkettering", "@spider": "millercarter", "addr:street_address": "Weekley Wood Avenue, Rockingham Road", "addr:city": "Kettering", "addr:state": "Northamptonshire", "addr:postcode": "NN14 1UD", "addr:country": "GB", "name": "Miller & Carter Kettering Kettering", "phone": "01536 483289", "website": "https://www.millerandcarter.co.uk/restaurants/east-and-west-midlands/millerandcarterkettering", "contact:twitter": "sysadmin_ds@caci.co.uk", "opening_hours": "Mo-Sa 12:00-23:00; Su 12:00-22:00", "brand": "Miller and Carter"}, "geometry": {"type": "Point", "coordinates": [-0.728061, 52.423349]}},
{"type": "Feature", "id": "Cg7-vhTZjqsXCyTHm4Bdk_c3vqg=", "properties": {"ref": "https://www.millerandcarter.co.uk/restaurants/east-and-west-midlands/millerandcarterhinckley", "@spider": "millercarter", "addr:street_address": "Watling Street, Burbage", "addr:city": "Hinckley", "addr:state": "Leicestershire", "addr:postcode": "LE10 2JQ", "addr:country": "GB", "name": "Miller & Carter Hinckley Hinckley", "phone": "01455 615408", "website": "https://www.millerandcarter.co.uk/restaurants/east-and-west-midlands/millerandcarterhinckley", "contact:twitter": "sysadmin_ds@caci.co.uk", "opening_hours": "Mo-Sa 11:00-23:00; Su 11:00-22:00", "brand": "Miller and Carter"}, "geometry": {"type": "Point", "coordinates": [-1.366287, 52.517783]}},
{"type": "Feature", "id": "38Z5fsozviaXg1eWPeSBOQFT2pE=", "properties": {"ref": "https://www.millerandcarter.co.uk/restaurants/east-and-west-midlands/millerandcartergrantham", "@spider": "millercarter", "addr:street_address": "Barrowby Road", "addr:city": "Grantham", "addr:state": "Lincolnshire", "addr:postcode": "NG31 8SR", "addr:country": "GB", "name": "Miller & Carter Grantham Grantham", "phone": "01476 593113", "website": "https://www.millerandcarter.co.uk/restaurants/east-and-west-midlands/millerandcartergrantham", "contact:twitter": "sysadmin_ds@caci.co.uk", "opening_hours": "Mo-Sa 12:00-23:00; Su 12:00-22:00", "brand": "Miller and Carter"}, "geometry": {"type": "Point", "coordinates": [-0.664087, 52.917885]}},
{"type": "Feature", "id": "37lT9wH2MvCWSL_dcQfkaEXvIgg=", "properties": {"ref": "https://www.millerandcarter.co.uk/restaurants/east-and-west-midlands/millerandcartermarlbrook", "@spider": "millercarter", "addr:street_address": "462 Birmingham Road", "addr:city": "Bromsgrove", "addr:state": "Worcestershire", "addr:postcode": "B61 0HR", "addr:country": "GB", "name": "Miller & Carter Marlbrook Bromsgrove", "phone": "01527 878060", "website": "https://www.millerandcarter.co.uk/restaurants/east-and-west-midlands/millerandcartermarlbrook", "contact:twitter": "sysadmin_ds@caci.co.uk", "opening_hours": "Mo-Sa 12:00-23:00; Su 12:00-22:00", "brand": "Miller and Carter"}, "geometry": {"type": "Point", "coordinates": [-2.046127, 52.365046]}},
{"type": "Feature", "id": "vhiooh1M56tMuoVsZI_hEV7dslY=", "properties": {"ref": "https://www.millerandcarter.co.uk/restaurants/yorkshire-and-the-humber/millerandcartersheffieldcentertainment", "@spider": "millercarter", "addr:street_address": "Valley Centertainment, Broughton Lane", "addr:city": "Sheffield", "addr:state": "South Yorkshire", "addr:postcode": "S9 2EP", "addr:country": "GB", "name": "Miller & Carter Sheffield Centertainment Sheffield", "phone": "0114 261 9836", "website": "https://www.millerandcarter.co.uk/restaurants/yorkshire-and-the-humber/millerandcartersheffieldcentertainment", "contact:twitter": "sysadmin_ds@caci.co.uk", "opening_hours": "Mo-Sa 12:00-23:00; Su 12:00-22:00", "brand": "Miller and Carter"}, "geometry": {"type": "Point", "coordinates": [-1.415713, 53.401467]}},
{"type": "Feature", "id": "rOT-h_k68lmoUc98QDq6zQFQwAk=", "properties": {"ref": "https://www.millerandcarter.co.uk/restaurants/yorkshire-and-the-humber/millerandcartergrimsby", "@spider": "millercarter", "addr:street_address": "Weelsby Road", "addr:city": "Grimsby", "addr:state": "Lincolnshire", "addr:postcode": "DN32 9RT", "addr:country": "GB", "name": "Miller & Carter Grimsby Lincolnshire", "phone": "01472 341767", "website": "https://www.millerandcarter.co.uk/restaurants/yorkshire-and-the-humber/millerandcartergrimsby", "contact:twitter": "sysadmin_ds@caci.co.uk", "opening_hours": "Mo-Sa 12:00-23:00; Su 12:00-22:00", "brand": "Miller and Carter"}, "geometry": {"type": "Point", "coordinates": [-0.073539, 53.553481]}},
{"type": "Feature", "id": "wg_QySHDnWpA0mhRgAEjbT-_M04=", "properties": {"ref": "https://www.millerandcarter.co.uk/restaurants/yorkshire-and-the-humber/millerandcarterscunthorpe", "@spider": "millercarter", "addr:street_address": "Messingham Road", "addr:city": "Scunthorpe", "addr:state": "Lincolnshire", "addr:postcode": "DN17 2QZ", "addr:country": "GB", "name": "Miller & Carter Scunthorpe Scunthorpe", "phone": "01724 842952", "website": "https://www.millerandcarter.co.uk/restaurants/yorkshire-and-the-humber/millerandcarterscunthorpe", "contact:twitter": "sysadmin_ds@caci.co.uk", "opening_hours": "Mo-Sa 11:30-22:00; Su 11:30-21:00", "brand": "Miller and Carter"}, "geometry": {"type": "Point", "coordinates": [-0.658099, 53.552445]}},
{"type": "Feature", "id": "jmJz18EnZKjMxG7WjIup4-nRCS4=", "properties": {"ref": "https://www.millerandcarter.co.uk/restaurants/yorkshire-and-the-humber/millerandcartersheffield", "@spider": "millercarter", "addr:street_address": "345 Ecclesall Road South", "addr:city": "Sheffield", "addr:state": "South Yorkshire", "addr:postcode": "S11 9PW", "addr:country": "GB", "name": "Miller & Carter Parkhead Sheffield", "phone": "0114 236 2735", "website": "https://www.millerandcarter.co.uk/restaurants/yorkshire-and-the-humber/millerandcartersheffield", "contact:twitter": "sysadmin_ds@caci.co.uk", "opening_hours": "Mo-Sa 12:00-22:00; Su 12:00-21:00", "brand": "Miller and Carter"}, "geometry": {"type": "Point", "coordinates": [-1.521825, 53.347871]}},
{"type": "Feature", "id": "_ryEp85tWayTMTv1lf2JrVDMOtA=", "properties": {"ref": "https://www.millerandcarter.co.uk/restaurants/yorkshire-and-the-humber/millerandcartermirfield", "@spider": "millercarter", "addr:street_address": "Leeds Road", "addr:city": "Mirfield", "addr:state": "West Yorkshire", "addr:postcode": "WF14 0BY", "addr:country": "GB", "name": "Miller & Carter Mirfield Mirfield", "phone": "01924 494233", "website": "https://www.millerandcarter.co.uk/restaurants/yorkshire-and-the-humber/millerandcartermirfield", "contact:twitter": "sysadmin_ds@caci.co.uk", "opening_hours": "Mo-Sa 12:00-23:00; Su 12:00-22:00", "brand": "Miller and Carter"}, "geometry": {"type": "Point", "coordinates": [-1.726577, 53.686666]}},
{"type": "Feature", "id": "NoMhksO8Uef9l3pYCgFuEZQe0Uc=", "properties": {"ref": "https://www.millerandcarter.co.uk/restaurants/yorkshire-and-the-humber/millerandcarterleedslight", "@spider": "millercarter", "addr:street_address": "56-58 The Headrow", "addr:city": "Leeds", "addr:state": "West Yorkshire", "addr:postcode": "LS1 8TL", "addr:country": "GB", "name": "Miller & Carter Leeds Light Leeds", "phone": "0113 244 3583", "website": "https://www.millerandcarter.co.uk/restaurants/yorkshire-and-the-humber/millerandcarterleedslight", "contact:twitter": "sysadmin_ds@caci.co.uk", "opening_hours": "Mo-Sa 12:00-23:00; Su 12:00-22:00", "brand": "Miller and Carter"}, "geometry": {"type": "Point", "coordinates": [-1.545851, 53.799685]}},
{"type": "Feature", "id": "WW2HrVy2HfdngQclRXn3GnalGRA=", "properties": {"ref": "https://www.millerandcarter.co.uk/restaurants/yorkshire-and-the-humber/millerandcarterhorsforth", "@spider": "millercarter", "addr:street_address": "299 Low Lane", "addr:city": "Horsforth", "addr:state": "West Yorkshire", "addr:postcode": "LS18 4DD", "addr:country": "GB", "name": "Miller & Carter Horsforth Leeds", "phone": "0113 258 2341", "website": "https://www.millerandcarter.co.uk/restaurants/yorkshire-and-the-humber/millerandcarterhorsforth", "contact:twitter": "sysadmin_ds@caci.co.uk", "opening_hours": "Mo-Sa 12:00-23:00; Su 12:00-22:30", "brand": "Miller and Carter"}, "geometry": {"type": "Point", "coordinates": [-1.618908, 53.836809]}},
{"type": "Feature", "id": "BLaWHtUsBhNYl0iEZKJHWImK5UY=", "properties": {"ref": "https://www.millerandcarter.co.uk/restaurants/yorkshire-and-the-humber/millerandcartergarforth", "@spider": "millercarter", "addr:street_address": "Selby Road, Garforth", "addr:city": "Leeds", "addr:state": "West Yorkshire", "addr:postcode": "LS25 1NB", "addr:country": "GB", "name": "Miller & Carter Garforth Leeds", "phone": "0113 286 2100", "website": "https://www.millerandcarter.co.uk/restaurants/yorkshire-and-the-humber/millerandcartergarforth", "contact:twitter": "sysadmin_ds@caci.co.uk", "opening_hours": "Mo-Sa 12:00-23:00; Su 12:00-22:00", "brand": "Miller and Carter"}, "geometry": {"type": "Point", "coordinates": [-1.404602, 53.786977]}},
{"type": "Feature", "id": "E2IA2OYhfcHLd-RMOptnfFJxuHE=", "properties": {"ref": "https://www.millerandcarter.co.uk/restaurants/yorkshire-and-the-humber/millerandcarterbessacarr", "@spider": "millercarter", "addr:street_address": "329 Bawtry Road", "addr:city": "Doncaster", "addr:state": "South Yorkshire", "addr:postcode": "DN4 7PB", "addr:country": "GB", "name": "Miller & Carter Bessacarr Doncaster", "phone": "01302 867329", "website": "https://www.millerandcarter.co.uk/restaurants/yorkshire-and-the-humber/millerandcarterbessacarr", "contact:twitter": "sysadmin_ds@caci.co.uk", "opening_hours": "Mo-Sa 12:00-23:00; Su 12:00-22:00", "brand": "Miller and Carter"}, "geometry": {"type": "Point", "coordinates": [-1.052264, 53.488666]}},
{"type": "Feature", "id": "focdmdV3IdnxmWCpGfrLvu9ZXFY=", "properties": {"ref": "https://www.millerandcarter.co.uk/restaurants/wales/millerandcarterkillay", "@spider": "millercarter", "addr:street_address": "301 Gower Road", "addr:city": "Swansea", "addr:state": "West Glamorgan", "addr:postcode": "SA2 7AA", "addr:country": "GB", "name": "Miller and Carter Killay Swansea", "phone": "01792 297115", "website": "https://www.millerandcarter.co.uk/restaurants/wales/millerandcarterkillay", "contact:twitter": "sysadmin_ds@caci.co.uk", "opening_hours": "Mo-Su 12:00-22:00", "brand": "Miller and Carter"}, "geometry": {"type": "Point", "coordinates": [-4.006107, 51.619762]}},
{"type": "Feature", "id": "nexkr40m8r63JDuX34SY24IOvJM=", "properties": {"ref": "https://www.millerandcarter.co.uk/restaurants/wales/millerandcartercardiffthornhill", "@spider": "millercarter", "addr:street_address": "Thornhill Road, Thornhill", "addr:city": "Cardiff", "addr:state": "South Glamorgan", "addr:postcode": "CF14 9UA", "addr:country": "GB", "name": "Miller & Carter Thornhill Cardiff", "phone": "029 2061 3873", "website": "https://www.millerandcarter.co.uk/restaurants/wales/millerandcartercardiffthornhill", "contact:twitter": "sysadmin_ds@caci.co.uk", "opening_hours": "Mo-Su 12:00-22:00", "brand": "Miller and Carter"}, "geometry": {"type": "Point", "coordinates": [-3.207618, 51.546644]}},
{"type": "Feature", "id": "NyZtlIzaJtgwSh6wp_Q02RYBgIo=", "properties": {"ref": "https://www.millerandcarter.co.uk/restaurants/wales/millerandcartercardiffbay", "@spider": "millercarter", "addr:street_address": "Hemingway Road, Atlantic Wharf", "addr:city": "Cardiff", "addr:state": "South Glamorgan", "addr:postcode": "CF10 4AU", "addr:country": "GB", "name": "Miller & Carter Cardiff Bay Cardiff", "phone": "029 2045 1315", "website": "https://www.millerandcarter.co.uk/restaurants/wales/millerandcartercardiffbay", "contact:twitter": "sysadmin_ds@caci.co.uk", "opening_hours": "Mo-Sa 12:00-22:00; Su 12:00-22:30", "brand": "Miller and Carter"}, "geometry": {"type": "Point", "coordinates": [-3.159551, 51.468359]}},
{"type": "Feature", "id": "wIzTUHOhhU8Uxrre2TDhR2pUZ40=", "properties": {"ref": "https://www.millerandcarter.co.uk/restaurants/wales/millerandcartercardiffthehayes", "@spider": "millercarter", "addr:street_address": "9-11 The Hayes", "addr:city": "Cardiff", "addr:state": "South Glamorgan", "addr:postcode": "CF10 1AH", "addr:country": "GB", "name": "Miller & Carter Cardiff Hayes Cardiff", "phone": "029 2037 2344", "website": "https://www.millerandcarter.co.uk/restaurants/wales/millerandcartercardiffthehayes", "contact:twitter": "sysadmin_ds@caci.co.uk", "opening_hours": "Mo-Th 12:00-22:00; Fr-Sa 12:00-22:30; Su 12:00-21:00", "brand": "Miller and Carter"}, "geometry": {"type": "Point", "coordinates": [-3.176258, 51.479792]}},
{"type": "Feature", "id": "bk51Fl4LrnO5oMThtafY0MwEJnI=", "properties": {"ref": "https://www.millerandcarter.co.uk/restaurants/south-west/millerandcarterhorsham", "@spider": "millercarter", "addr:street_address": "Unit 17, Piries Place", "addr:city": "Horsham", "addr:postcode": "RH12 1EH", "addr:country": "GB", "name": "Miller & Carter Horsham", "phone": "01403 338508", "website": "https://www.millerandcarter.co.uk/restaurants/south-west/millerandcarterhorsham", "contact:twitter": "sysadmin_ds@caci.co.uk", "opening_hours": "Mo-Th 12:00-23:00; Fr-Sa 12:00-23:30; Su 12:00-22:00", "brand": "Miller and Carter"}, "geometry": {"type": "Point", "coordinates": [-0.325663, 51.061704]}},
{"type": "Feature", "id": "NDWruNOSwnor5vKGe4uqkGrNPmk=", "properties": {"ref": "https://www.millerandcarter.co.uk/restaurants/south-west/millerandcarterwestongateway", "@spider": "millercarter", "addr:street_address": "Yew Tree Drive", "addr:city": "Weston-Super-Mare", "addr:state": "Somerset", "addr:postcode": "BS22 6DB", "addr:country": "GB", "name": "Miller & Carter Weston Gateway Weston-Super-Mare", "phone": "01934 521235", "website": "https://www.millerandcarter.co.uk/restaurants/south-west/millerandcarterwestongateway", "contact:twitter": "sysadmin_ds@caci.co.uk", "opening_hours": "Mo-Su 12:00-22:00", "brand": "Miller and Carter"}, "geometry": {"type": "Point", "coordinates": [-2.908672, 51.353207]}},
{"type": "Feature", "id": "7ZGn7ArNcafF7_fLcj1jWD6MhXc=", "properties": {"ref": "https://www.millerandcarter.co.uk/restaurants/south-west/millerandcarterbristolcitycentre", "@spider": "millercarter", "addr:street_address": "Marriott Bristol Royal, College Green", "addr:city": "Bristol", "addr:postcode": "BS1 5TA", "addr:country": "GB", "name": "Miller & Carter Bristol City Centre", "phone": "0117 456 9606", "website": "https://www.millerandcarter.co.uk/restaurants/south-west/millerandcarterbristolcitycentre", "contact:twitter": "sysadmin_ds@caci.co.uk", "opening_hours": "Mo-Th 06:30-22:00; Fr-Sa 06:30-22:30; Su 06:30-22:00", "brand": "Miller and Carter"}, "geometry": {"type": "Point", "coordinates": [-2.599299, 51.452014]}},
{"type": "Feature", "id": "YFHt2eVqFVflQk69ou6ZFxDxiCY=", "properties": {"ref": "https://www.millerandcarter.co.uk/restaurants/south-west/millerandcarterplymouth", "@spider": "millercarter", "addr:street_address": "Sutton Wharf", "addr:city": "Plymouth", "addr:state": "Devon", "addr:postcode": "PL4 0HJ", "addr:country": "GB", "name": "Miller & Carter Plymouth Plymouth", "phone": "01752 661592", "website": "https://www.millerandcarter.co.uk/restaurants/south-west/millerandcarterplymouth", "contact:twitter": "sysadmin_ds@caci.co.uk", "opening_hours": "Mo-Sa 12:00-23:00; Su 12:00-22:00", "brand": "Miller and Carter"}, "geometry": {"type": "Point", "coordinates": [-4.131697, 50.36868]}},
{"type": "Feature", "id": "bJBl1QqkMtyS30tnwoNogUy4aCc=", "properties": {"ref": "https://www.millerandcarter.co.uk/restaurants/south-west/millerandcarterswindon", "@spider": "millercarter", "addr:street_address": "Drove Road", "addr:city": "Swindon", "addr:state": "Wiltshire", "addr:postcode": "SN1 3AG", "addr:country": "GB", "name": "Miller & Carter Swindon Swindon", "phone": "01793 521028", "website": "https://www.millerandcarter.co.uk/restaurants/south-west/millerandcarterswindon", "contact:twitter": "sysadmin_ds@caci.co.uk", "opening_hours": "Mo-Th 12:00-22:00; Fr-Sa 12:00-22:30; Su 12:00-22:00", "brand": "Miller and Carter"}, "geometry": {"type": "Point", "coordinates": [-1.7743, 51.556553]}},
{"type": "Feature", "id": "4sYOsixjJPIF7liDzoOuO2VWWEI=", "properties": {"ref": "https://www.millerandcarter.co.uk/restaurants/south-west/millerandcarterpoole", "@spider": "millercarter", "addr:street_address": "553 Wallisdown Road, Parkstone", "addr:city": "Poole", "addr:state": "Dorset", "addr:postcode": "BH12 5AD", "addr:country": "GB", "name": "Miller & Carter Poole Poole", "phone": "01202 510278", "website": "https://www.millerandcarter.co.uk/restaurants/south-west/millerandcarterpoole", "contact:twitter": "sysadmin_ds@caci.co.uk", "opening_hours": "Mo-Sa 12:00-23:00; Su 12:00-22:00", "brand": "Miller and Carter"}, "geometry": {"type": "Point", "coordinates": [-1.932137, 50.753343]}},
{"type": "Feature", "id": "HrbkXRMcA4u8TbTAELLmzl8hxQs=", "properties": {"ref": "https://www.millerandcarter.co.uk/restaurants/south-west/millerandcartergloucester", "@spider": "millercarter", "addr:street_address": "Olympus Park Business Centre, Quedgeley", "addr:city": "Gloucester", "addr:state": "Gloucestershire", "addr:postcode": "GL2 4NF", "addr:country": "GB", "name": "Miller & Carter Gloucester Gloucester", "phone": "01452 725062", "website": "https://www.millerandcarter.co.uk/restaurants/south-west/millerandcartergloucester", "contact:twitter": "sysadmin_ds@caci.co.uk", "opening_hours": "Mo-Su 12:00-22:00", "brand": "Miller and Carter"}, "geometry": {"type": "Point", "coordinates": [-2.276174, 51.826591]}},
{"type": "Feature", "id": "CR6PkNNpLv-qkK9X34fK5sdzOE4=", "properties": {"ref": "https://www.millerandcarter.co.uk/restaurants/south-west/millerandcarterexeter", "@spider": "millercarter", "addr:street_address": "Guardian Road, Exeter Business Park", "addr:city": "Exeter", "addr:state": "Devon", "addr:postcode": "EX1 3PE", "addr:country": "GB", "name": "Miller & Carter Exeter Exeter", "phone": "01392 449011", "website": "https://www.millerandcarter.co.uk/restaurants/south-west/millerandcarterexeter", "contact:twitter": "sysadmin_ds@caci.co.uk", "opening_hours": "Mo-Sa 12:00-23:00; Su 12:00-22:00", "brand": "Miller and Carter"}, "geometry": {"type": "Point", "coordinates": [-3.471593, 50.725506]}},
{"type": "Feature", "id": "Qe1vtSP0KXnazIaxDguLL3Lv6KI=", "properties": {"ref": "https://www.millerandcarter.co.uk/restaurants/south-west/millerandcartercribbscauseway", "@spider": "millercarter", "addr:street_address": "Cribbs Causeway", "addr:city": "Bristol", "addr:state": "City of Bristol", "addr:postcode": "BS10 7TL", "addr:country": "GB", "name": "Miller & Carter CribbsCauseway Cribbs Causeway", "phone": "0117 950 1490", "website": "https://www.millerandcarter.co.uk/restaurants/south-west/millerandcartercribbscauseway", "contact:twitter": "sysadmin_ds@caci.co.uk", "opening_hours": "Mo-Su 12:00-22:00", "brand": "Miller and Carter"}, "geometry": {"type": "Point", "coordinates": [-2.614899, 51.525891]}},
{"type": "Feature", "id": "TVlj1G-9aw48ZUlmFJw0HFE5sbQ=", "properties": {"ref": "https://www.millerandcarter.co.uk/restaurants/south-west/millerandcarterbournemouth", "@spider": "millercarter", "addr:street_address": "Units UG7 and UG8, Exeter Road", "addr:city": "Bournemouth", "addr:postcode": "BH2 5AF", "addr:country": "GB", "name": "Miller & Carter Bournemouth Bournemouth", "phone": "01202 023565", "website": "https://www.millerandcarter.co.uk/restaurants/south-west/millerandcarterbournemouth", "contact:twitter": "sysadmin_ds@caci.co.uk", "opening_hours": "Mo-Sa 12:00-23:00; Su 12:00-22:00", "brand": "Miller and Carter"}, "geometry": {"type": "Point", "coordinates": [-1.879944, 50.718607]}},
{"type": "Feature", "id": "UlVWEiKbFuIF2jNi-chaZiSihT0=", "properties": {"ref": "https://www.millerandcarter.co.uk/restaurants/south-west/millerandcarterbath", "@spider": "millercarter", "addr:street_address": "23 Milsom Street", "addr:city": "Bath", "addr:state": "Somerset", "addr:postcode": "BA1 1DE", "addr:country": "GB", "name": "Miller & Carter Bath Bath", "phone": "01225 311708", "website": "https://www.millerandcarter.co.uk/restaurants/south-west/millerandcarterbath", "contact:twitter": "sysadmin_ds@caci.co.uk", "opening_hours": "Mo-Th 12:00-22:00; Fr-Sa 12:00-22:30; Su 12:00-22:00", "brand": "Miller and Carter"}, "geometry": {"type": "Point", "coordinates": [-2.362027, 51.384766]}},
{"type": "Feature", "id": "D_Ly_DD64NAQtHQfmPg2YBVDKdo=", "properties": {"ref": "https://www.millerandcarter.co.uk/restaurants/south-east/millerandcarterhernebay", "@spider": "millercarter", "addr:street_address": "Margate Road", "addr:city": "Herne Bay", "addr:state": "Kent", "addr:postcode": "CT6 6LB", "addr:country": "GB", "name": "Miller & Carter Herne Bay Herne Bay", "phone": "01227 741344", "website": "https://www.millerandcarter.co.uk/restaurants/south-east/millerandcarterhernebay", "contact:twitter": "sysadmin_ds@caci.co.uk", "opening_hours": "Mo-Sa 12:00-23:00; Su 12:00-22:30", "brand": "Miller and Carter"}, "geometry": {"type": "Point", "coordinates": [1.145906, 51.361439]}},
{"type": "Feature", "id": "KMMoqri6xv9oooUmzzu8hLjpdTk=", "properties": {"ref": "https://www.millerandcarter.co.uk/restaurants/south-east/millerandcarterbanbury", "@spider": "millercarter", "addr:street_address": "Stroud Park, Ermont Way", "addr:city": "Banbury", "addr:state": "Oxfordshire", "addr:postcode": "OX16 3JT", "addr:country": "GB", "name": "Miller & Carter Banbury Oxfordshire", "phone": "01295 276593", "website": "https://www.millerandcarter.co.uk/restaurants/south-east/millerandcarterbanbury", "contact:twitter": "sysadmin_ds@caci.co.uk", "opening_hours": "Mo-Sa 12:00-23:00; Su 12:00-22:00", "brand": "Miller and Carter"}, "geometry": {"type": "Point", "coordinates": [-1.318495, 52.071549]}},
{"type": "Feature", "id": "ffvHQrfosBBakD2Ab4_mUVpqVtQ=", "properties": {"ref": "https://www.millerandcarter.co.uk/restaurants/south-east/millerandcarterbeaconsfield", "@spider": "millercarter", "addr:street_address": "Holtspur Top Lane, Holtspur", "addr:city": "Beaconsfield", "addr:state": "Buckinghamshire", "addr:postcode": "HP9 1UD", "addr:country": "GB", "name": "Miller & Carter Beaconsfield Holtspur", "phone": "01494 673337", "website": "https://www.millerandcarter.co.uk/restaurants/south-east/millerandcarterbeaconsfield", "contact:twitter": "sysadmin_ds@caci.co.uk", "opening_hours": "Mo-Sa 12:00-23:00; Su 12:00-22:00", "brand": "Miller and Carter"}, "geometry": {"type": "Point", "coordinates": [-0.670059, 51.599723]}},
{"type": "Feature", "id": "r-8viXbfBLCSkVb-yQpkrsirqms=", "properties": {"ref": "https://www.millerandcarter.co.uk/restaurants/south-east/millerandcartermiltonkeynesxscape", "@spider": "millercarter", "addr:street_address": "Xscape, 602 Marlborough Gate", "addr:city": "Milton Keynes", "addr:state": "Buckinghamshire", "addr:postcode": "MK9 3XA", "addr:country": "GB", "name": "Miller & Carter Milton Keynes Xscape Xscape", "phone": "01908 397007", "website": "https://www.millerandcarter.co.uk/restaurants/south-east/millerandcartermiltonkeynesxscape", "contact:twitter": "sysadmin_ds@caci.co.uk", "opening_hours": "Mo-Sa 12:00-23:00; Su 12:00-22:00", "brand": "Miller and Carter"}, "geometry": {"type": "Point", "coordinates": [-0.749939, 52.041462]}},
{"type": "Feature", "id": "ACV6P9TBXenialvN5oFS28T9Mfs=", "properties": {"ref": "https://www.millerandcarter.co.uk/restaurants/south-east/millerandcartermaidstone", "@spider": "millercarter", "addr:street_address": "Sandling Road", "addr:city": "Maidstone", "addr:state": "Kent", "addr:postcode": "ME14 2RF", "addr:country": "GB", "name": "Miller & Carter Maidstone M&C Maidstone", "phone": "01622 692212", "website": "https://www.millerandcarter.co.uk/restaurants/south-east/millerandcartermaidstone", "contact:twitter": "sysadmin_ds@caci.co.uk", "opening_hours": "Mo-Sa 12:00-23:00; Su 12:00-22:30", "brand": "Miller and Carter"}, "geometry": {"type": "Point", "coordinates": [0.519455, 51.280003]}},
{"type": "Feature", "id": "b9zHjEZ-5RCsNnJsEM9Pr31XUik=", "properties": {"ref": "https://www.millerandcarter.co.uk/restaurants/south-east/millerandcarterbasingstoke", "@spider": "millercarter", "addr:street_address": "Winchester Road, Down Grange", "addr:city": "Basingstoke", "addr:state": "Hampshire", "addr:postcode": "RG22 4ET", "addr:country": "GB", "name": "Miller & Carter Basingstoke Hampshire", "phone": "01256 461149", "website": "https://www.millerandcarter.co.uk/restaurants/south-east/millerandcarterbasingstoke", "contact:twitter": "sysadmin_ds@caci.co.uk", "opening_hours": "Mo-Sa 12:00-23:00; Su 12:00-22:00", "brand": "Miller and Carter"}, "geometry": {"type": "Point", "coordinates": [-1.127449, 51.246043]}},
{"type": "Feature", "id": "dOpRn8_4VFGXnEf0Pt1P19ol6ZY=", "properties": {"ref": "https://www.millerandcarter.co.uk/restaurants/south-east/millerandcarterhaywardsheath", "@spider": "millercarter", "addr:street_address": "Butlers Green Road", "addr:city": "Haywards Heath", "addr:state": "West Sussex", "addr:postcode": "RH16 4AH", "addr:country": "GB", "name": "Miller & Carter Haywards Heath Haywards Heath", "phone": "01444 413768", "website": "https://www.millerandcarter.co.uk/restaurants/south-east/millerandcarterhaywardsheath", "contact:twitter": "sysadmin_ds@caci.co.uk", "opening_hours": "Mo-Sa 12:00-23:00; Su 12:00-22:00", "brand": "Miller and Carter"}, "geometry": {"type": "Point", "coordinates": [-0.112134, 50.999929]}},
{"type": "Feature", "id": "wpAO2EIjOOiR3jB5OYyiv1LBcg4=", "properties": {"ref": "https://www.millerandcarter.co.uk/restaurants/south-east/millerandcartermiltonkeynes", "@spider": "millercarter", "addr:street_address": "Burchard Crescent", "addr:city": "Milton Keynes", "addr:state": "Buckinghamshire", "addr:postcode": "MK5 6HQ", "addr:country": "GB", "name": "Miller & Carter Milton Keynes Milton Keynes", "phone": "01908 505467", "website": "https://www.millerandcarter.co.uk/restaurants/south-east/millerandcartermiltonkeynes", "contact:twitter": "sysadmin_ds@caci.co.uk", "opening_hours": "Mo-Sa 12:00-23:00; Su 12:00-22:00", "brand": "Miller and Carter"}, "geometry": {"type": "Point", "coordinates": [-0.786443, 52.024967]}},
{"type": "Feature", "id": "E_URf4hlYVgMBin2XIfasY5QAD4=", "properties": {"ref": "https://www.millerandcarter.co.uk/restaurants/south-east/millerandcartersevenoaks", "@spider": "millercarter", "addr:street_address": "Amherst Hill, Riverhead", "addr:city": "Sevenoaks", "addr:state": "Kent", "addr:postcode": "TN13 2EN", "addr:country": "GB", "name": "Miller & Carter Sevenoaks Sevenoaks", "phone": "01732 452787", "website": "https://www.millerandcarter.co.uk/restaurants/south-east/millerandcartersevenoaks", "contact:twitter": "sysadmin_ds@caci.co.uk", "opening_hours": "Mo-Sa 12:00-23:00; Su 12:00-22:30", "brand": "Miller and Carter"}, "geometry": {"type": "Point", "coordinates": [0.170845, 51.283031]}},
{"type": "Feature", "id": "kLm3ZPVLe-d54XaMlB9E8IVb4Io=", "properties": {"ref": "https://www.millerandcarter.co.uk/restaurants/south-east/millerandcartertaplow", "@spider": "millercarter", "addr:street_address": "Bath Road, Taplow", "addr:city": "Maidenhead", "addr:state": "Berkshire", "addr:postcode": "SL6 0AJ", "addr:country": "GB", "name": "Miller & Carter Taplow Maidenhead", "phone": "01628 627083", "website": "https://www.millerandcarter.co.uk/restaurants/south-east/millerandcartertaplow", "contact:twitter": "sysadmin_ds@caci.co.uk", "opening_hours": "Mo-Su 12:00-22:00", "brand": "Miller and Carter"}, "geometry": {"type": "Point", "coordinates": [-0.69083, 51.523093]}},
{"type": "Feature", "id": "w0-x-a6EY0hffa3Z_EG0NH1gn-M=", "properties": {"ref": "https://www.millerandcarter.co.uk/restaurants/south-east/millerandcartersouthampton", "@spider": "millercarter", "addr:street_address": "Providence Hill, Bursledon", "addr:city": "Southampton", "addr:state": "Hampshire", "addr:postcode": "SO31 8DW", "addr:country": "GB", "name": "Miller & Carter Southampton Bursledon", "phone": "023 8040 3500", "website": "https://www.millerandcarter.co.uk/restaurants/south-east/millerandcartersouthampton", "contact:twitter": "sysadmin_ds@caci.co.uk", "opening_hours": "Mo-Sa 12:00-23:00; Su 12:00-22:00", "brand": "Miller and Carter"}, "geometry": {"type": "Point", "coordinates": [-1.317529, 50.894739]}},
{"type": "Feature", "id": "bJcWHZdTG3x8KAbo8ZxTCSO0FVE=", "properties": {"ref": "https://www.millerandcarter.co.uk/restaurants/south-east/millerandcartersalfords", "@spider": "millercarter", "addr:street_address": "54 Brighton Road, Salfords", "addr:city": "Redhill", "addr:state": "Surrey", "addr:postcode": "RH1 5BZ", "addr:country": "GB", "name": "Miller & Carter Salfords Salfords", "phone": "01293 773277", "website": "https://www.millerandcarter.co.uk/restaurants/south-east/millerandcartersalfords", "contact:twitter": "sysadmin_ds@caci.co.uk", "opening_hours": "Mo 00:00-24:00; Tu-Th 17:00-23:00; Fr-Sa 12:00-23:00; Su 12:00-22:00", "brand": "Miller and Carter"}, "geometry": {"type": "Point", "coordinates": [-0.167288, 51.202256]}},
{"type": "Feature", "id": "uGoV928u4Bdhn_AgYyBlu3WA_Tc=", "properties": {"ref": "https://www.millerandcarter.co.uk/restaurants/south-east/millerandcarteroracle", "@spider": "millercarter", "addr:street_address": "Unit 5, The Oracle Centre", "addr:city": "Reading", "addr:state": "Berkshire", "addr:postcode": "RG1 2AG", "addr:country": "GB", "name": "Miller & Carter Oracle Reading", "phone": "0118 950 9961", "website": "https://www.millerandcarter.co.uk/restaurants/south-east/millerandcarteroracle", "contact:twitter": "sysadmin_ds@caci.co.uk", "opening_hours": "Mo-Th 12:00-22:00; Fr-Sa 12:00-22:30; Su 12:00-22:00", "brand": "Miller and Carter"}, "geometry": {"type": "Point", "coordinates": [-0.969506, 51.453333]}},
{"type": "Feature", "id": "KALT73tmpXVfSseM5Ly-RUX4wAc=", "properties": {"ref": "https://www.millerandcarter.co.uk/restaurants/south-east/millerandcarterlancing", "@spider": "millercarter", "addr:street_address": "43 Manor Road", "addr:city": "Lancing", "addr:state": "West Sussex", "addr:postcode": "BN15 0EU", "addr:country": "GB", "name": "Miller & Carter Lancing West Sussex", "phone": "01903 753210", "website": "https://www.millerandcarter.co.uk/restaurants/south-east/millerandcarterlancing", "contact:twitter": "sysadmin_ds@caci.co.uk", "opening_hours": "Mo-Sa 12:00-23:00; Su 12:00-22:00", "brand": "Miller and Carter"}, "geometry": {"type": "Point", "coordinates": [-0.320103, 50.83806]}},
{"type": "Feature", "id": "ZJ_8uVf047CgLpJ1msGXhv-ORaQ=", "properties": {"ref": "https://www.millerandcarter.co.uk/restaurants/south-east/millerandcarterkidlington", "@spider": "millercarter", "addr:street_address": "117 Bicester Road, Gosford", "addr:city": "Kidlington", "addr:state": "Oxfordshire", "addr:postcode": "OX5 2PX", "addr:country": "GB", "name": "Miller & Carter Kidlington Kidlington", "phone": "01865 378666", "website": "https://www.millerandcarter.co.uk/restaurants/south-east/millerandcarterkidlington", "contact:twitter": "sysadmin_ds@caci.co.uk", "opening_hours": "Mo-Sa 12:00-23:00; Su 12:00-22:00", "brand": "Miller and Carter"}, "geometry": {"type": "Point", "coordinates": [-1.272553, 51.817832]}},
{"type": "Feature", "id": "meSUY3GnIJlcQ41vv32nv-6-DMs=", "properties": {"ref": "https://www.millerandcarter.co.uk/restaurants/south-east/millerandcarterfleet", "@spider": "millercarter", "addr:street_address": "Cove Road", "addr:city": "Fleet", "addr:state": "Hampshire", "addr:postcode": "GU51 2SH", "addr:country": "GB", "name": "Miller & Carter Fleet Fleet", "phone": "01252 816655", "website": "https://www.millerandcarter.co.uk/restaurants/south-east/millerandcarterfleet", "contact:twitter": "sysadmin_ds@caci.co.uk", "opening_hours": "Mo-Sa 12:00-23:00; Su 12:00-22:00", "brand": "Miller and Carter"}, "geometry": {"type": "Point", "coordinates": [-0.804995, 51.293553]}},
{"type": "Feature", "id": "XY-fSxKoPy7AwRrHbUWLCx9kviU=", "properties": {"ref": "https://www.millerandcarter.co.uk/restaurants/south-east/millerandcarterchertsey", "@spider": "millercarter", "addr:street_address": "Guildford Road, Ottershaw", "addr:city": "Chertsey", "addr:state": "Surrey", "addr:postcode": "KT16 0PQ", "addr:country": "GB", "name": "Miller & Carter Chertsey Ottershaw", "phone": "01932 873217", "website": "https://www.millerandcarter.co.uk/restaurants/south-east/millerandcarterchertsey", "contact:twitter": "sysadmin_ds@caci.co.uk", "opening_hours": "Mo-Th 12:00-23:00; Fr-Sa 12:00-23:30; Su 12:00-22:00", "brand": "Miller and Carter"}, "geometry": {"type": "Point", "coordinates": [-0.532069, 51.365042]}},
{"type": "Feature", "id": "RIDX60N2StHauv7d3QKxf_WTfjw=", "properties": {"ref": "https://www.millerandcarter.co.uk/restaurants/south-east/millerandcarterbrighton", "@spider": "millercarter", "addr:street_address": "London Road, Patcham", "addr:city": "Brighton", "addr:state": "East Sussex", "addr:postcode": "BN1 8YQ", "addr:country": "GB", "name": "Miller & Carter Brighton Brighton", "phone": "01273 552886", "website": "https://www.millerandcarter.co.uk/restaurants/south-east/millerandcarterbrighton", "contact:twitter": "sysadmin_ds@caci.co.uk", "opening_hours": "Mo-Sa 12:00-23:00; Su 12:00-22:00", "brand": "Miller and Carter"}, "geometry": {"type": "Point", "coordinates": [-0.152127, 50.865289]}},
{"type": "Feature", "id": "gEcZHf9ni3zrW_6vELdmvfFeYCA=", "properties": {"ref": "https://www.millerandcarter.co.uk/restaurants/south-east/millerandcarterbagshot", "@spider": "millercarter", "addr:street_address": "39 London Road", "addr:city": "Bagshot", "addr:state": "Surrey", "addr:postcode": "GU19 5EG", "addr:country": "GB", "name": "Miller & Carter Bagshot Bagshot", "phone": "01276 479942", "website": "https://www.millerandcarter.co.uk/restaurants/south-east/millerandcarterbagshot", "contact:twitter": "sysadmin_ds@caci.co.uk", "opening_hours": "Mo-Sa 12:00-23:00; Su 12:00-22:00", "brand": "Miller and Carter"}, "geometry": {"type": "Point", "coordinates": [-0.69501, 51.360523]}},
{"type": "Feature", "id": "V4-72V9CVrMHOZyG9Of-UfgrOhI=", "properties": {"ref": "https://www.millerandcarter.co.uk/restaurants/south-east/millerandcarteraylesbury", "@spider": "millercarter", "addr:street_address": "1 Sir Henry Lee Crescent", "addr:city": "Aylesbury", "addr:postcode": "HP18 0PE", "addr:country": "GB", "name": "Miller & Carter Aylesbury Aylesbury", "phone": "01296 326590", "website": "https://www.millerandcarter.co.uk/restaurants/south-east/millerandcarteraylesbury", "contact:twitter": "sysadmin_ds@caci.co.uk", "opening_hours": "Mo-Sa 12:00-23:00; Su 12:00-22:00", "brand": "Miller and Carter"}, "geometry": {"type": "Point", "coordinates": [-0.860067, 51.832504]}},
{"type": "Feature", "id": "qqcHK8GbXHNqZGlpQHPlJNy65qU=", "properties": {"ref": "https://www.millerandcarter.co.uk/restaurants/scotland-and-northern-ireland/millerandcarteraberdeen", "@spider": "millercarter", "addr:street_address": "Union Street", "addr:city": "Aberdeen", "addr:postcode": "AB10 1BD", "addr:country": "GB", "name": "Miller & Carter Aberdeen", "phone": "01224 531074", "website": "https://www.millerandcarter.co.uk/restaurants/scotland-and-northern-ireland/millerandcarteraberdeen", "contact:twitter": "sysadmin_ds@caci.co.uk", "opening_hours": "Mo-Su 12:00-23:00", "brand": "Miller and Carter"}, "geometry": {"type": "Point", "coordinates": [-2.095489, 57.147617]}},
{"type": "Feature", "id": "u7-ahTRB4PtjZiChz61XhWdXVEg=", "properties": {"ref": "https://www.millerandcarter.co.uk/restaurants/scotland-and-northern-ireland/millerandcarternewtonmearns", "@spider": "millercarter", "addr:street_address": "Stewarton Road, Newton Mearns", "addr:city": "Glasgow", "addr:postcode": "G77 6NP", "addr:country": "GB", "name": "Miller & Carter Newton Mearns Newton Mearns", "phone": "0141 639 7453", "website": "https://www.millerandcarter.co.uk/restaurants/scotland-and-northern-ireland/millerandcarternewtonmearns", "contact:twitter": "sysadmin_ds@caci.co.uk", "opening_hours": "Mo-Sa 12:00-23:00; Su 12:00-22:00", "brand": "Miller and Carter"}, "geometry": {"type": "Point", "coordinates": [-4.344022, 55.78514]}},
{"type": "Feature", "id": "7K6eAM94q04Dvd_wkVXNmpagyWI=", "properties": {"ref": "https://www.millerandcarter.co.uk/restaurants/scotland-and-northern-ireland/millerandcarterglasgow", "@spider": "millercarter", "addr:street_address": "47 St Vincent Street", "addr:city": "Glasgow", "addr:postcode": "G2 5QX", "addr:country": "GB", "name": "Miller & Carter Glasgow", "phone": "0141 404 2914", "website": "https://www.millerandcarter.co.uk/restaurants/scotland-and-northern-ireland/millerandcarterglasgow", "contact:twitter": "sysadmin_ds@caci.co.uk", "opening_hours": "Mo-Sa 12:00-23:00; Su 12:00-22:00", "brand": "Miller and Carter"}, "geometry": {"type": "Point", "coordinates": [-4.254387, 55.861118]}},
{"type": "Feature", "id": "Uk2-Z0Axplt6zvDz5t1fJEZIAak=", "properties": {"ref": "https://www.millerandcarter.co.uk/restaurants/scotland-and-northern-ireland/millerandcarteredinburghcitycentre", "@spider": "millercarter", "addr:street_address": "29-31 Frederick Street", "addr:city": "Edinburgh", "addr:postcode": "EH2 2ND", "addr:country": "GB", "name": "Miller & Carter Edinburgh City", "phone": "0131 603 6080", "website": "https://www.millerandcarter.co.uk/restaurants/scotland-and-northern-ireland/millerandcarteredinburghcitycentre", "contact:twitter": "sysadmin_ds@caci.co.uk", "opening_hours": "Mo-Sa 12:00-23:00; Su 12:00-22:00", "brand": "Miller and Carter"}, "geometry": {"type": "Point", "coordinates": [-3.199928, 55.952736]}},
{"type": "Feature", "id": "uBZSHC5Vtf8kgrQaozuNas1M8vM=", "properties": {"ref": "https://www.millerandcarter.co.uk/restaurants/scotland-and-northern-ireland/millerandcartercramondbrig", "@spider": "millercarter", "addr:street_address": "Queensferry Road", "addr:city": "Edinburgh", "addr:postcode": "EH4 6DY", "addr:country": "GB", "name": "Miller & Carter Cramond Brig Edinburgh", "phone": "0131 339 4350", "website": "https://www.millerandcarter.co.uk/restaurants/scotland-and-northern-ireland/millerandcartercramondbrig", "contact:twitter": "sysadmin_ds@caci.co.uk", "opening_hours": "Mo-Sa 12:00-23:00; Su 12:00-22:00", "brand": "Miller and Carter"}, "geometry": {"type": "Point", "coordinates": [-3.317363, 55.965231]}},
{"type": "Feature", "id": "9QCizraDKE507GSC21VvgoP4KAE=", "properties": {"ref": "https://www.millerandcarter.co.uk/restaurants/north-west/millerandcartercrewe", "@spider": "millercarter", "addr:street_address": "Nantwich Road", "addr:city": "Crewe", "addr:state": "Cheshire", "addr:postcode": "CW2 6PB", "addr:country": "GB", "name": "Miller & Carter Crewe Crewe", "phone": "01270 662326", "website": "https://www.millerandcarter.co.uk/restaurants/north-west/millerandcartercrewe", "contact:twitter": "sysadmin_ds@caci.co.uk", "opening_hours": "Mo-Sa 12:00-23:00; Su 12:00-22:00", "brand": "Miller and Carter"}, "geometry": {"type": "Point", "coordinates": [-2.454378, 53.083495]}},
{"type": "Feature", "id": "FGBcTAPrpiSkJBFu5vGic0udZGs=", "properties": {"ref": "https://www.millerandcarter.co.uk/restaurants/north-west/millerandcarterotterspool", "@spider": "millercarter", "addr:street_address": "Otterspool Drive", "addr:city": "Liverpool", "addr:state": "Merseyside", "addr:postcode": "L17 5AL", "addr:country": "GB", "name": "Miller & Carter Otterspool Liverpool", "phone": "0151 726 0426", "website": "https://www.millerandcarter.co.uk/restaurants/north-west/millerandcarterotterspool", "contact:twitter": "sysadmin_ds@caci.co.uk", "opening_hours": "Mo-Sa 12:00-23:00; Su 12:00-22:30", "brand": "Miller and Carter"}, "geometry": {"type": "Point", "coordinates": [-2.936979, 53.365951]}},
{"type": "Feature", "id": "gmZRS9bXj8d6yGk6KmJApxzZ-ls=", "properties": {"ref": "https://www.millerandcarter.co.uk/restaurants/north-west/millerandcarterwilmslow", "@spider": "millercarter", "addr:street_address": "Station Road", "addr:city": "Wilmslow", "addr:state": "Cheshire", "addr:postcode": "SK9 1BU", "addr:country": "GB", "name": "Miller & Carter Wilmslow Cheshire", "phone": "01625 540313", "website": "https://www.millerandcarter.co.uk/restaurants/north-west/millerandcarterwilmslow", "contact:twitter": "sysadmin_ds@caci.co.uk", "opening_hours": "Mo-Sa 12:00-22:00; Su 12:00-21:00", "brand": "Miller and Carter"}, "geometry": {"type": "Point", "coordinates": [-2.22856, 53.32674]}},
{"type": "Feature", "id": "7SJHQHoSIJT_-nXqx3fUiWM0IZE=", "properties": {"ref": "https://www.millerandcarter.co.uk/restaurants/north-west/millerandcarterwarrington", "@spider": "millercarter", "addr:street_address": "Gemini Retail Park, Westbrook", "addr:city": "Warrington", "addr:state": "Cheshire", "addr:postcode": "WA5 8WF", "addr:country": "GB", "name": "Miller & Carter Warrington Warrington", "phone": "01925 712173", "website": "https://www.millerandcarter.co.uk/restaurants/north-west/millerandcarterwarrington", "contact:twitter": "sysadmin_ds@caci.co.uk", "opening_hours": "Mo-Sa 11:00-23:00; Su 11:00-22:00", "brand": "Miller and Carter"}, "geometry": {"type": "Point", "coordinates": [-2.632928, 53.411871]}},
{"type": "Feature", "id": "AimombEpbd49DvJAtgimBJsF3YY=", "properties": {"ref": "https://www.millerandcarter.co.uk/restaurants/north-west/millerandcarterpoulton-le-fylde", "@spider": "millercarter", "addr:street_address": "Longhouse Lane", "addr:city": "Poulton-Le-Fylde", "addr:state": "Lancashire", "addr:postcode": "FY6 8DF", "addr:country": "GB", "name": "Miller & Carter Poulton-le-Fylde Lancashire", "phone": "01253 883183", "website": "https://www.millerandcarter.co.uk/restaurants/north-west/millerandcarterpoulton-le-fylde", "contact:twitter": "sysadmin_ds@caci.co.uk", "opening_hours": "Mo-Sa 11:30-23:00; Su 11:30-22:00", "brand": "Miller and Carter"}, "geometry": {"type": "Point", "coordinates": [-2.993157, 53.831757]}},
{"type": "Feature", "id": "JJgsA-2st5v6mQu4wGDDQms-CHo=", "properties": {"ref": "https://www.millerandcarter.co.uk/restaurants/north-west/millerandcarterparbold", "@spider": "millercarter", "addr:street_address": "Parbold Hill, Parbold", "addr:city": "Wigan", "addr:state": "Greater Manchester", "addr:postcode": "WN8 7TG", "addr:country": "GB", "name": "Miller & Carter Parbold Wigan", "phone": "01257 462318", "website": "https://www.millerandcarter.co.uk/restaurants/north-west/millerandcarterparbold", "contact:twitter": "sysadmin_ds@caci.co.uk", "opening_hours": "Mo-Sa 12:00-23:00; Su 12:00-22:30", "brand": "Miller and Carter"}, "geometry": {"type": "Point", "coordinates": [-2.744002, 53.590998]}},
{"type": "Feature", "id": "FYoNRMANZTap4X6PFtgLhZdFqUw=", "properties": {"ref": "https://www.millerandcarter.co.uk/restaurants/north-west/millerandcartermanchester", "@spider": "millercarter", "addr:street_address": "King Street, Manchester", "addr:city": "Manchester", "addr:state": "Greater Manchester", "addr:postcode": "M2 4LQ", "addr:country": "GB", "name": "Miller & Carter Manchester Manchester", "phone": "0161 839 2846", "website": "https://www.millerandcarter.co.uk/restaurants/north-west/millerandcartermanchester", "contact:twitter": "sysadmin_ds@caci.co.uk", "opening_hours": "Mo-Fr 12:00-23:00; Sa 12:00-23:30; Su 12:00-22:00", "brand": "Miller and Carter"}, "geometry": {"type": "Point", "coordinates": [-2.244608, 53.481162]}},
{"type": "Feature", "id": "X0GVXHi0vZONGghHTiUbDI0ZPc0=", "properties": {"ref": "https://www.millerandcarter.co.uk/restaurants/north-west/millerandcarterlythamstannes", "@spider": "millercarter", "addr:street_address": "Blackpool Road North, Lytham St Annes", "addr:city": "Lytham St Annes", "addr:state": "Lancashire", "addr:postcode": "FY8 3RU", "addr:country": "GB", "name": "Miller & Carter Lytham St Annes Lytham St Annes", "phone": "01253 723240", "website": "https://www.millerandcarter.co.uk/restaurants/north-west/millerandcarterlythamstannes", "contact:twitter": "sysadmin_ds@caci.co.uk", "opening_hours": "Mo-Sa 12:00-23:00; Su 12:00-22:30", "brand": "Miller and Carter"}, "geometry": {"type": "Point", "coordinates": [-3.012561, 53.763686]}},
{"type": "Feature", "id": "2bvZiS9THqbJiEQWMOm0tbZGhU4=", "properties": {"ref": "https://www.millerandcarter.co.uk/restaurants/north-west/millerandcarterlowton", "@spider": "millercarter", "addr:street_address": "322 Newton Road", "addr:city": "Warrington", "addr:state": "Cheshire", "addr:postcode": "WA3 1HD", "addr:country": "GB", "name": "Miller & Carter Lowton Warrington", "phone": "01942 671421", "website": "https://www.millerandcarter.co.uk/restaurants/north-west/millerandcarterlowton", "contact:twitter": "sysadmin_ds@caci.co.uk", "opening_hours": "Mo-Sa 12:00-23:00; Su 12:00-22:30", "brand": "Miller and Carter"}, "geometry": {"type": "Point", "coordinates": [-2.569682, 53.467156]}},
{"type": "Feature", "id": "Z3uqiWiLRv5SJQxffDzeVVVusPE=", "properties": {"ref": "https://www.millerandcarter.co.uk/restaurants/north-west/millerandcarterheatonchapel", "@spider": "millercarter", "addr:street_address": "271 Wellington Road North", "addr:city": "Stockport", "addr:state": "Greater Manchester", "addr:postcode": "SK4 5BP", "addr:country": "GB", "name": "Miller & Carter Heaton Chapel Stockport", "phone": "0161 432 2753", "website": "https://www.millerandcarter.co.uk/restaurants/north-west/millerandcarterheatonchapel", "contact:twitter": "sysadmin_ds@caci.co.uk", "opening_hours": "Mo-Sa 12:00-23:00; Su 12:00-22:00", "brand": "Miller and Carter"}, "geometry": {"type": "Point", "coordinates": [-2.176085, 53.42513]}},
{"type": "Feature", "id": "_rOmsG8GBpOX0NkfZ3ca-XOEHL0=", "properties": {"ref": "https://www.millerandcarter.co.uk/restaurants/north-west/millerandcartergreenmount", "@spider": "millercarter", "addr:street_address": "Brandlesholme Road, Greenmount", "addr:city": "Bury", "addr:state": "Greater Manchester", "addr:postcode": "BL8 4DS", "addr:country": "GB", "name": "Miller & Carter Greenmount Bury", "phone": "01204 882021", "website": "https://www.millerandcarter.co.uk/restaurants/north-west/millerandcartergreenmount", "contact:twitter": "sysadmin_ds@caci.co.uk", "opening_hours": "Mo-Sa 11:30-23:00; Su 11:30-22:30", "brand": "Miller and Carter"}, "geometry": {"type": "Point", "coordinates": [-2.337594, 53.624752]}},
{"type": "Feature", "id": "jkarnTKrhT79xlBKEpFhm2uTiwE=", "properties": {"ref": "https://www.millerandcarter.co.uk/restaurants/north-west/millerandcarterchester", "@spider": "millercarter", "addr:street_address": "Grosvenor Road", "addr:city": "Chester", "addr:postcode": "CH1 2DJ", "addr:country": "GB", "name": "Miller & Carter Chester", "phone": "01244 311023", "website": "https://www.millerandcarter.co.uk/restaurants/north-west/millerandcarterchester", "contact:twitter": "sysadmin_ds@caci.co.uk", "opening_hours": "Mo-Sa 12:00-23:00; Su 12:00-22:30", "brand": "Miller and Carter"}, "geometry": {"type": "Point", "coordinates": [-2.894232, 53.186773]}},
{"type": "Feature", "id": "mYIBUBkrFjRPgRPxmgye-UjFFsQ=", "properties": {"ref": "https://www.millerandcarter.co.uk/restaurants/north-west/millerandcartercheshire", "@spider": "millercarter", "addr:street_address": "10 Coliseum Way, Cheshire Oaks", "addr:city": "Ellesmere Port", "addr:state": "Merseyside", "addr:postcode": "CH65 9HD", "addr:country": "GB", "name": "Miller & Carter Cheshire Ellesmere Port", "phone": "0151 355 6442", "website": "https://www.millerandcarter.co.uk/restaurants/north-west/millerandcartercheshire", "contact:twitter": "sysadmin_ds@caci.co.uk", "opening_hours": "Mo-Sa 12:00-23:00; Su 12:00-22:30", "brand": "Miller and Carter"}, "geometry": {"type": "Point", "coordinates": [-2.887089, 53.264809]}},
{"type": "Feature", "id": "Ioe5M6eIo3C2zIjptjlEUhJnO10=", "properties": {"ref": "https://www.millerandcarter.co.uk/restaurants/north-west/millerandcarteraughton", "@spider": "millercarter", "addr:street_address": "Swan Lane, Springfield Road", "addr:city": "Aughton", "addr:state": "Lancashire", "addr:postcode": "L39 6ST", "addr:country": "GB", "name": "Miller & Carter Aughton Lancashire", "phone": "01695 420052", "website": "https://www.millerandcarter.co.uk/restaurants/north-west/millerandcarteraughton", "contact:twitter": "sysadmin_ds@caci.co.uk", "opening_hours": "Mo-Sa 11:30-23:00; Su 08:00-23:00", "brand": "Miller and Carter"}, "geometry": {"type": "Point", "coordinates": [-2.925515, 53.537155]}},
{"type": "Feature", "id": "4ttqL7uyPkNVqmNYK-pe-pK_cqs=", "properties": {"ref": "https://www.millerandcarter.co.uk/restaurants/north-west/millerandcarteralbertdock", "@spider": "millercarter", "addr:street_address": "Atlantic Pavilion, Albert Dock", "addr:city": "Liverpool", "addr:state": "Merseyside", "addr:postcode": "L3 4AF", "addr:country": "GB", "name": "Miller & Carter Albert Dock Liverpool", "phone": "0151 707 7877", "website": "https://www.millerandcarter.co.uk/restaurants/north-west/millerandcarteralbertdock", "contact:twitter": "sysadmin_ds@caci.co.uk", "opening_hours": "Mo-Sa 12:00-23:00; Su 12:00-22:30", "brand": "Miller and Carter"}, "geometry": {"type": "Point", "coordinates": [-2.990819, 53.399909]}},
{"type": "Feature", "id": "c3kJNXdccMsM071tSNCjm6K_JZM=", "properties": {"ref": "https://www.millerandcarter.co.uk/restaurants/north-east/millerandcartergosforthpark", "@spider": "millercarter", "addr:street_address": "White House Drive, Killingworth", "addr:city": "Newcastle Upon Tyne", "addr:postcode": "NE12 7EZ", "addr:country": "GB", "name": "Miller & Carter Gosforth Park", "phone": "0191 268 3005", "website": "https://www.millerandcarter.co.uk/restaurants/north-east/millerandcartergosforthpark", "contact:twitter": "sysadmin_ds@caci.co.uk", "opening_hours": "Mo-Sa 12:00-23:00; Su 12:00-22:00", "brand": "Miller and Carter"}, "geometry": {"type": "Point", "coordinates": [-1.590371, 55.032721]}},
{"type": "Feature", "id": "-8Y-kJp3XDokhzSYp4KIV4XHWEg=", "properties": {"ref": "https://www.millerandcarter.co.uk/restaurants/north-east/millerandcartersunderland", "@spider": "millercarter", "addr:street_address": "Newcastle Road", "addr:city": "Sunderland", "addr:state": "Tyne And Wear", "addr:postcode": "SR5 1JT", "addr:country": "GB", "name": "Miller & Carter Sunderland Sunderland", "phone": "0191 548 0922", "website": "https://www.millerandcarter.co.uk/restaurants/north-east/millerandcartersunderland", "contact:twitter": "sysadmin_ds@caci.co.uk", "opening_hours": "Mo-Sa 12:00-23:00; Su 12:00-22:00", "brand": "Miller and Carter"}, "geometry": {"type": "Point", "coordinates": [-1.392707, 54.933268]}},
{"type": "Feature", "id": "WlRhMNBNbJqdSa8bT6MsqU5PS1E=", "properties": {"ref": "https://www.millerandcarter.co.uk/restaurants/north-east/millerandcarternewcastle", "@spider": "millercarter", "addr:street_address": "Mosley Street", "addr:city": "Newcastle-Upon-Tyne", "addr:state": "Tyne and Wear", "addr:postcode": "NE1 1DF", "addr:country": "GB", "name": "Miller & Carter Newcastle Newcastle", "phone": "0191 261 2028", "website": "https://www.millerandcarter.co.uk/restaurants/north-east/millerandcarternewcastle", "contact:twitter": "sysadmin_ds@caci.co.uk", "opening_hours": "Mo-Sa 12:00-23:00; Su 12:00-22:00", "brand": "Miller and Carter"}, "geometry": {"type": "Point", "coordinates": [-1.610607, 54.970691]}},
{"type": "Feature", "id": "hZ03o7dvZ32yQHU2sqRNV7AcxBU=", "properties": {"ref": "https://www.millerandcarter.co.uk/restaurants/london/millerandcarterdartford", "@spider": "millercarter", "addr:street_address": "Princes Road", "addr:city": "Dartford", "addr:state": "Kent", "addr:postcode": "DA2 6NQ", "addr:country": "GB", "name": "Miller & Carter Dartford Dartford", "phone": "01322 287766", "website": "https://www.millerandcarter.co.uk/restaurants/london/millerandcarterdartford", "contact:twitter": "sysadmin_ds@caci.co.uk", "opening_hours": "Mo-Sa 12:00-23:00; Su 12:00-22:30", "brand": "Miller and Carter"}, "geometry": {"type": "Point", "coordinates": [0.24069, 51.437615]}},
{"type": "Feature", "id": "LBGbnJMh3ssSfqyJGWEoNs-yJPs=", "properties": {"ref": "https://www.millerandcarter.co.uk/restaurants/london/millerandcarterstirlingcorner", "@spider": "millercarter", "addr:street_address": "Stirling Corner", "addr:city": "Barnet", "addr:state": "Greater London", "addr:postcode": "EN5 3JG", "addr:country": "GB", "name": "Miller & Carter Stirling Corner Barnet", "phone": "020 8441 9696", "website": "https://www.millerandcarter.co.uk/restaurants/london/millerandcarterstirlingcorner", "contact:twitter": "sysadmin_ds@caci.co.uk", "opening_hours": "Mo-Sa 12:00-23:00; Su 12:00-22:30", "brand": "Miller and Carter"}, "geometry": {"type": "Point", "coordinates": [-0.254455, 51.642289]}},
{"type": "Feature", "id": "YZwZn-SLyURkMaP5c4Mn_OUdEfs=", "properties": {"ref": "https://www.millerandcarter.co.uk/restaurants/london/millerandcarterworcesterpark", "@spider": "millercarter", "addr:street_address": "Church Road", "addr:city": "Worcester Park", "addr:state": "Surrey", "addr:postcode": "KT4 7RD", "addr:country": "GB", "name": "Miller & Carter Worcester Park Worcester Park", "phone": "020 8337 1338", "website": "https://www.millerandcarter.co.uk/restaurants/london/millerandcarterworcesterpark", "contact:twitter": "sysadmin_ds@caci.co.uk", "opening_hours": "Mo-Sa 12:00-23:00; Su 12:00-22:00", "brand": "Miller and Carter"}, "geometry": {"type": "Point", "coordinates": [-0.25278, 51.384636]}},
{"type": "Feature", "id": "rtpFOtlpCNMTg5ppTeGYMh8ahZQ=", "properties": {"ref": "https://www.millerandcarter.co.uk/restaurants/london/millerandcarterwoodfordgreen", "@spider": "millercarter", "addr:street_address": "393-395 High Road", "addr:city": "Woodford Green", "addr:state": "Greater London", "addr:postcode": "IG8 0XG", "addr:country": "GB", "name": "Miller & Carter Woodford Green Woodford Green", "phone": "020 8505 8615", "website": "https://www.millerandcarter.co.uk/restaurants/london/millerandcarterwoodfordgreen", "contact:twitter": "sysadmin_ds@caci.co.uk", "opening_hours": "Mo-Sa 12:00-23:00; Su 12:00-22:30", "brand": "Miller and Carter"}, "geometry": {"type": "Point", "coordinates": [0.020704, 51.609062]}},
{"type": "Feature", "id": "0weqqe4tPTruGIMQoRvRbPGgQxE=", "properties": {"ref": "https://www.millerandcarter.co.uk/restaurants/london/millerandcarterruislip", "@spider": "millercarter", "addr:street_address": "154 Bury Street", "addr:city": "Ruislip", "addr:state": "Greater London", "addr:postcode": "HA4 7TH", "addr:country": "GB", "name": "Miller & Carter Ruislip Middlesex", "phone": "01895 635318", "website": "https://www.millerandcarter.co.uk/restaurants/london/millerandcarterruislip", "contact:twitter": "sysadmin_ds@caci.co.uk", "opening_hours": "Mo-Sa 12:00-23:00; Su 12:00-22:00", "brand": "Miller and Carter"}, "geometry": {"type": "Point", "coordinates": [-0.432062, 51.584151]}},
{"type": "Feature", "id": "Z8gFB4cj6zO6lbu4Ns100b6CiWA=", "properties": {"ref": "https://www.millerandcarter.co.uk/restaurants/london/millerandcarternewburypark", "@spider": "millercarter", "addr:street_address": "Aldborough Road North", "addr:city": "Ilford", "addr:state": "Greater London", "addr:postcode": "IG2 7TD", "addr:country": "GB", "name": "Miller & Carter Newbury Park Essex", "phone": "020 8590 1281", "website": "https://www.millerandcarter.co.uk/restaurants/london/millerandcarternewburypark", "contact:twitter": "sysadmin_ds@caci.co.uk", "opening_hours": "Mo-Sa 12:00-23:00; Su 12:00-22:30", "brand": "Miller and Carter"}, "geometry": {"type": "Point", "coordinates": [0.1025, 51.585404]}},
{"type": "Feature", "id": "XzZcEA5fcuTz-oAgPLD6nqstPD4=", "properties": {"ref": "https://www.millerandcarter.co.uk/restaurants/london/millerandcartermuswellhill", "@spider": "millercarter", "addr:street_address": "87 Muswell Hill Broadway, Muswell Hill", "addr:city": "London", "addr:state": "Greater London", "addr:postcode": "N10 3HA", "addr:country": "GB", "name": "Miller & Carter Muswell Hill Muswell Hill", "phone": "020 8883 7382", "website": "https://www.millerandcarter.co.uk/restaurants/london/millerandcartermuswellhill", "contact:twitter": "sysadmin_ds@caci.co.uk", "opening_hours": "Mo-Sa 12:00-23:00; Su 12:00-22:30", "brand": "Miller and Carter"}, "geometry": {"type": "Point", "coordinates": [-0.14421, 51.590159]}},
{"type": "Feature", "id": "lrch9nWko6OuNLQD6Je-8N2UeVw=", "properties": {"ref": "https://www.millerandcarter.co.uk/restaurants/london/millerandcartermitcham", "@spider": "millercarter", "addr:street_address": "1 Windmill Road", "addr:city": "Mitcham", "addr:state": "Greater London", "addr:postcode": "CR4 1HT", "addr:country": "GB", "name": "Miller & Carter Mitcham Mitcham", "phone": "020 8288 0491", "website": "https://www.millerandcarter.co.uk/restaurants/london/millerandcartermitcham", "contact:twitter": "sysadmin_ds@caci.co.uk", "opening_hours": "Mo-Su 12:00-23:00", "brand": "Miller and Carter"}, "geometry": {"type": "Point", "coordinates": [-0.145297, 51.394854]}},
{"type": "Feature", "id": "BAAUgAji1q-9gCW9XKd6EQflm3Q=", "properties": {"ref": "https://www.millerandcarter.co.uk/restaurants/london/millerandcarterharrow", "@spider": "millercarter", "addr:street_address": "Brockhurst Corner, Uxbridge Road", "addr:city": "Harrow", "addr:state": "Greater London", "addr:postcode": "HA3 6DL", "addr:country": "GB", "name": "Miller & Carter Harrow Harrow", "phone": "020 8954 6781", "website": "https://www.millerandcarter.co.uk/restaurants/london/millerandcarterharrow", "contact:twitter": "sysadmin_ds@caci.co.uk", "opening_hours": "Mo-Sa 12:00-23:00; Su 12:00-22:30", "brand": "Miller and Carter"}, "geometry": {"type": "Point", "coordinates": [-0.333144, 51.612912]}},
{"type": "Feature", "id": "cHolqkxQk75PMgtBlOfbkfHgD4c=", "properties": {"ref": "https://www.millerandcarter.co.uk/restaurants/london/millerandcarterchigwell", "@spider": "millercarter", "addr:street_address": "Manor Road, Abridge", "addr:city": "Romford", "addr:state": "Greater London", "addr:postcode": "RM4 1NH", "addr:country": "GB", "name": "Miller & Carter Chigwell Essex", "phone": "020 8500 7712", "website": "https://www.millerandcarter.co.uk/restaurants/london/millerandcarterchigwell", "contact:twitter": "sysadmin_ds@caci.co.uk", "opening_hours": "Mo-Sa 12:00-23:00; Su 12:00-22:30", "brand": "Miller and Carter"}, "geometry": {"type": "Point", "coordinates": [0.13379, 51.629003]}},
{"type": "Feature", "id": "-IaqRSGH0iW0OQMHYtmucX9yPls=", "properties": {"ref": "https://www.millerandcarter.co.uk/restaurants/london/millerandcarterbromley", "@spider": "millercarter", "addr:street_address": "Pickhurst lane", "addr:city": "West Wickham", "addr:state": "Greater London", "addr:postcode": "BR4 0HH", "addr:country": "GB", "name": "Miller & Carter Bromley Bromley", "phone": "020 8462 1876", "website": "https://www.millerandcarter.co.uk/restaurants/london/millerandcarterbromley", "contact:twitter": "sysadmin_ds@caci.co.uk", "opening_hours": "Mo-Sa 12:00-23:00; Su 12:00-22:30", "brand": "Miller and Carter"}, "geometry": {"type": "Point", "coordinates": [0.002382, 51.383403]}},
{"type": "Feature", "id": "vv19HhQvgc0D1NKCxyVBYqz9W8s=", "properties": {"ref": "https://www.millerandcarter.co.uk/restaurants/london/millerandcarterbexley", "@spider": "millercarter", "addr:street_address": "Bourne Road", "addr:city": "Bexley", "addr:state": "Greater London", "addr:postcode": "DA5 1PQ", "addr:country": "GB", "name": "Miller & Carter Bexley Kent", "phone": "01322 552748", "website": "https://www.millerandcarter.co.uk/restaurants/london/millerandcarterbexley", "contact:twitter": "sysadmin_ds@caci.co.uk", "opening_hours": "Mo-Sa 12:00-23:00; Su 12:00-22:30", "brand": "Miller and Carter"}, "geometry": {"type": "Point", "coordinates": [0.160388, 51.448071]}},
{"type": "Feature", "id": "NZ8VNZ64-9n3arepZNbgQgkDpA0=", "properties": {"ref": "https://www.millerandcarter.co.uk/restaurants/east-of-england/millerandcarterkingslangley", "@spider": "millercarter", "addr:street_address": "Hempstead Road", "addr:city": "Kings Langley", "addr:state": "Hertfordshire", "addr:postcode": "WD4 8BR", "addr:country": "GB", "name": "Miller & Carter Kings Langley Hertfordshire", "phone": "01923 268694", "website": "https://www.millerandcarter.co.uk/restaurants/east-of-england/millerandcarterkingslangley", "contact:twitter": "sysadmin_ds@caci.co.uk", "opening_hours": "Mo-Sa 12:00-23:00; Su 12:00-22:00", "brand": "Miller and Carter"}, "geometry": {"type": "Point", "coordinates": [-0.45159, 51.71655]}},
{"type": "Feature", "id": "cpq7QRlIHlR0Ze-xbI-08GvImkM=", "properties": {"ref": "https://www.millerandcarter.co.uk/restaurants/east-of-england/millerandcarterstalbans", "@spider": "millercarter", "addr:street_address": "11 Victoria Street", "addr:city": "St Albans", "addr:state": "Hertfordshire", "addr:postcode": "AL1 3JJ", "addr:country": "GB", "name": "Miller & Carter St Albans St Albans", "phone": "01727 834086", "website": "https://www.millerandcarter.co.uk/restaurants/east-of-england/millerandcarterstalbans", "contact:twitter": "sysadmin_ds@caci.co.uk", "opening_hours": "Mo-Tu 12:00-22:30; We-Sa 12:00-23:00; Su 12:00-22:30", "brand": "Miller and Carter"}, "geometry": {"type": "Point", "coordinates": [-0.337992, 51.752109]}},
{"type": "Feature", "id": "QF_vy7puZtccsw2CDIoHYV1SUPQ=", "properties": {"ref": "https://www.millerandcarter.co.uk/restaurants/east-of-england/millerandcarterwheathampstead", "@spider": "millercarter", "addr:street_address": "11 High Street, Wheathampstead", "addr:city": "St Albans", "addr:state": "Hertfordshire", "addr:postcode": "AL4 8BS", "addr:country": "GB", "name": "Miller & Carter Wheathampstead Hertfordshire", "phone": "01582 833379", "website": "https://www.millerandcarter.co.uk/restaurants/east-of-england/millerandcarterwheathampstead", "contact:twitter": "sysadmin_ds@caci.co.uk", "opening_hours": "Mo-Sa 12:00-23:00; Su 12:00-22:30", "brand": "Miller and Carter"}, "geometry": {"type": "Point", "coordinates": [-0.293046, 51.813268]}},
{"type": "Feature", "id": "3weotq-QyZfNZGZ5a8cyzeVqz54=", "properties": {"ref": "https://www.millerandcarter.co.uk/restaurants/east-of-england/millerandcarterrickmansworth", "@spider": "millercarter", "addr:street_address": "Park Road", "addr:city": "Rickmansworth", "addr:state": "Hertfordshire", "addr:postcode": "WD3 1AT", "addr:country": "GB", "name": "Miller & Carter Rickmansworth Croxley Green", "phone": "01923 778377", "website": "https://www.millerandcarter.co.uk/restaurants/east-of-england/millerandcarterrickmansworth", "contact:twitter": "sysadmin_ds@caci.co.uk", "opening_hours": "Mo-Sa 12:00-23:00; Su 12:00-22:00", "brand": "Miller and Carter"}, "geometry": {"type": "Point", "coordinates": [-0.462476, 51.645251]}},
{"type": "Feature", "id": "-eqo6UuD-fvgCoRf6TQoA2Y0tWc=", "properties": {"ref": "https://www.millerandcarter.co.uk/restaurants/east-of-england/millerandcarterleighonsea", "@spider": "millercarter", "addr:street_address": "629 Rayleigh Road, Eastwood", "addr:city": "Leigh-On-Sea", "addr:state": "Essex", "addr:postcode": "SS9 5HR", "addr:country": "GB", "name": "Miller & Carter Leigh-on-Sea Essex", "phone": "01702 522357", "website": "https://www.millerandcarter.co.uk/restaurants/east-of-england/millerandcarterleighonsea", "contact:twitter": "sysadmin_ds@caci.co.uk", "opening_hours": "Mo-Su 12:00-23:00", "brand": "Miller and Carter"}, "geometry": {"type": "Point", "coordinates": [0.634728, 51.574792]}},
{"type": "Feature", "id": "LbAiS3MVUqRUpLQ43W5-eD2Aot8=", "properties": {"ref": "https://www.millerandcarter.co.uk/restaurants/east-and-west-midlands/millerandcarterstratforduponavon", "@spider": "millercarter", "addr:street_address": "Unit 20, Bell Court", "addr:city": "Stratford Upon Avon", "addr:postcode": "CV37 6JF", "addr:country": "GB", "name": "Miller & Carter Stratford-upon-Avon", "phone": "01789 338331", "website": "https://www.millerandcarter.co.uk/restaurants/east-and-west-midlands/millerandcarterstratforduponavon", "contact:twitter": "sysadmin_ds@caci.co.uk", "opening_hours": "Mo-Sa 12:00-23:00; Su 12:00-22:00", "brand": "Miller and Carter"}, "geometry": {"type": "Point", "coordinates": [-1.70876, 52.192205]}},
{"type": "Feature", "id": "QvaOcWTCcLjgn7Zb9KjV_BboENc=", "properties": {"ref": "https://www.millerandcarter.co.uk/restaurants/east-and-west-midlands/millerandcarterworcester", "@spider": "millercarter", "addr:street_address": "Cathedral Square", "addr:city": "Worcester", "addr:postcode": "WR1 2LU", "addr:country": "GB", "name": "Miller & Carter Worcester Unit A3-3", "phone": "01905 670015", "website": "https://www.millerandcarter.co.uk/restaurants/east-and-west-midlands/millerandcarterworcester", "contact:twitter": "sysadmin_ds@caci.co.uk", "opening_hours": "Mo-Sa 12:00-23:00; Su 12:00-22:00", "brand": "Miller and Carter"}, "geometry": {"type": "Point", "coordinates": [-2.220125, 52.189851]}},
{"type": "Feature", "id": "PHBq-yFCo3ceo-UnnoCt5muXTnw=", "properties": {"ref": "https://www.millerandcarter.co.uk/restaurants/east-and-west-midlands/millerandcarterrothley", "@spider": "millercarter", "addr:street_address": "933 Loughborough Road, Rothley", "addr:city": "Leicester", "addr:state": "Leicestershire", "addr:postcode": "LE7 7NJ", "addr:country": "GB", "name": "Miller & Carter Rothley Leicester", "phone": "0116 230 2488", "website": "https://www.millerandcarter.co.uk/restaurants/east-and-west-midlands/millerandcarterrothley", "contact:twitter": "sysadmin_ds@caci.co.uk", "opening_hours": "Mo-Sa 11:30-23:00; Su 11:30-22:00", "brand": "Miller and Carter"}, "geometry": {"type": "Point", "coordinates": [-1.127537, 52.708951]}},
{"type": "Feature", "id": "lbNYlhwJoBipHUlrH6ZZ3hRLfcI=", "properties": {"ref": "https://www.millerandcarter.co.uk/restaurants/east-and-west-midlands/millerandcartersherwoodforest", "@spider": "millercarter", "addr:street_address": "Mansfield Road, Arnold", "addr:city": "Nottingham", "addr:state": "Nottinghamshire", "addr:postcode": "NG5 8PJ", "addr:country": "GB", "name": "Miller & Carter SherwoodForest Nottingham", "phone": "0115 926 6595", "website": "https://www.millerandcarter.co.uk/restaurants/east-and-west-midlands/millerandcartersherwoodforest", "contact:twitter": "sysadmin_ds@caci.co.uk", "opening_hours": "Mo-Sa 12:00-22:00; Su 12:00-21:00", "brand": "Miller and Carter"}, "geometry": {"type": "Point", "coordinates": [-1.149542, 53.04951]}},
{"type": "Feature", "id": "E42bmtF4_c_sQcJIaNriAHJ-tkk=", "properties": {"ref": "https://www.millerandcarter.co.uk/restaurants/east-and-west-midlands/millerandcarterwollaton", "@spider": "millercarter", "addr:street_address": "Derby Road, Wollaton Vale", "addr:city": "Nottingham", "addr:state": "Nottinghamshire", "addr:postcode": "NG8 2NR", "addr:country": "GB", "name": "Miller & Carter Wollaton Nottingham", "phone": "0115 922 1691", "website": "https://www.millerandcarter.co.uk/restaurants/east-and-west-midlands/millerandcarterwollaton", "contact:twitter": "sysadmin_ds@caci.co.uk", "opening_hours": "Mo-Sa 12:00-22:00; Su 12:00-21:00", "brand": "Miller and Carter"}, "geometry": {"type": "Point", "coordinates": [-1.216192, 52.939504]}},
{"type": "Feature", "id": "cL0j257-wN72H7eAn5TsYODqG0Y=", "properties": {"ref": "https://www.millerandcarter.co.uk/restaurants/east-and-west-midlands/millerandcarterenderby", "@spider": "millercarter", "addr:street_address": "Leicester Road", "addr:city": "Leicester", "addr:state": "Leicestershire", "addr:postcode": "LE19 2BJ", "addr:country": "GB", "name": "Miller & Carter Enderby Leicester", "phone": "0116 275 3999", "website": "https://www.millerandcarter.co.uk/restaurants/east-and-west-midlands/millerandcarterenderby", "contact:twitter": "sysadmin_ds@caci.co.uk", "opening_hours": "Mo-Sa 11:30-23:00; Su 11:30-22:00", "brand": "Miller and Carter"}, "geometry": {"type": "Point", "coordinates": [-1.191543, 52.582959]}},
{"type": "Feature", "id": "_W5gDlmuXrTn7OcAQp7o6dA0CZ4=", "properties": {"ref": "https://www.millerandcarter.co.uk/restaurants/east-and-west-midlands/millerandcarternorthampton", "@spider": "millercarter", "addr:street_address": "Talavera Way", "addr:city": "Northampton", "addr:state": "Northamptonshire", "addr:postcode": "NN3 8RN", "addr:country": "GB", "name": "Miller & Carter Northampton Round Spinney", "phone": "01604 494241", "website": "https://www.millerandcarter.co.uk/restaurants/east-and-west-midlands/millerandcarternorthampton", "contact:twitter": "sysadmin_ds@caci.co.uk", "opening_hours": "Mo-Sa 12:00-23:00; Su 12:00-22:00", "brand": "Miller and Carter"}, "geometry": {"type": "Point", "coordinates": [-0.842873, 52.276611]}},
{"type": "Feature", "id": "S2Q4CMph67xwLvjkUXiMoIx061E=", "properties": {"ref": "https://www.millerandcarter.co.uk/restaurants/east-and-west-midlands/millerandcarterwashfordmill", "@spider": "millercarter", "addr:street_address": "Icknield Street Drive, Studley", "addr:city": "Warwickshire", "addr:postcode": "B80 7BD", "addr:country": "GB", "name": "Miller & Carter Washford Mill Studley", "phone": "01527 523068", "website": "https://www.millerandcarter.co.uk/restaurants/east-and-west-midlands/millerandcarterwashfordmill", "contact:twitter": "sysadmin_ds@caci.co.uk", "opening_hours": "Mo-Sa 12:00-23:00; Su 12:00-22:00", "brand": "Miller and Carter"}, "geometry": {"type": "Point", "coordinates": [-1.897207, 52.283396]}},
{"type": "Feature", "id": "VmruesWOUWA44Wz6WV1Y8VJA9Nk=", "properties": {"ref": "https://www.millerandcarter.co.uk/restaurants/east-and-west-midlands/millerandcartermailbox", "@spider": "millercarter", "addr:street_address": "178-180 Wharfside Street, Mailbox", "addr:city": "Birmingham", "addr:state": "West Midlands", "addr:postcode": "B1 1RN", "addr:country": "GB", "name": "Miller & Carter Mailbox Birmingham", "phone": "0121 643 7738", "website": "https://www.millerandcarter.co.uk/restaurants/east-and-west-midlands/millerandcartermailbox", "contact:twitter": "sysadmin_ds@caci.co.uk", "opening_hours": "Mo-Sa 12:00-23:00; Su 12:00-22:00", "brand": "Miller and Carter"}, "geometry": {"type": "Point", "coordinates": [-1.905402, 52.475894]}},
{"type": "Feature", "id": "ytPVNAGkK1c37QqVg3Tnie5Yp5A=", "properties": {"ref": "https://www.millerandcarter.co.uk/restaurants/east-and-west-midlands/millerandcartercoventry", "@spider": "millercarter", "addr:street_address": "Kenpas Highway", "addr:city": "Coventry", "addr:state": "West Midlands", "addr:postcode": "CV3 6PB", "addr:country": "GB", "name": "Miller & Carter Coventry Coventry", "phone": "024 7641 0199", "website": "https://www.millerandcarter.co.uk/restaurants/east-and-west-midlands/millerandcartercoventry", "contact:twitter": "sysadmin_ds@caci.co.uk", "opening_hours": "Mo-Sa 12:00-23:00; Su 12:00-22:00", "brand": "Miller and Carter"}, "geometry": {"type": "Point", "coordinates": [-1.516885, 52.379387]}},
{"type": "Feature", "id": "xRXZlJIyOqOaYYsU80q-1VEvtSc=", "properties": {"ref": "https://www.millerandcarter.co.uk/restaurants/east-and-west-midlands/millerandcarterhagleyroad", "@spider": "millercarter", "addr:street_address": "26 Hagley Road West", "addr:city": "Smethwick", "addr:state": "West Midlands", "addr:postcode": "B67 5EY", "addr:country": "GB", "name": "Miller & Carter Birmingham Hagley Road Smethwick", "phone": "0121 429 1082", "website": "https://www.millerandcarter.co.uk/restaurants/east-and-west-midlands/millerandcarterhagleyroad", "contact:twitter": "sysadmin_ds@caci.co.uk", "opening_hours": "Mo-Sa 12:00-23:00; Su 12:00-22:00", "brand": "Miller and Carter"}, "geometry": {"type": "Point", "coordinates": [-1.978609, 52.467173]}},
{"type": "Feature", "id": "zyStrzrTyAeVyuUHbBWJByTJBW4=", "properties": {"ref": "https://www.millerandcarter.co.uk/restaurants/east-and-west-midlands/millerandcartertalke", "@spider": "millercarter", "addr:street_address": "Newcastle Road, Talke", "addr:city": "Stoke On Trent", "addr:state": "Staffordshire", "addr:postcode": "ST7 1UR", "addr:country": "GB", "name": "Miller & Carter Talke Stoke-on-Trent", "phone": "01782 776676", "website": "https://www.millerandcarter.co.uk/restaurants/east-and-west-midlands/millerandcartertalke", "contact:twitter": "sysadmin_ds@caci.co.uk", "opening_hours": "Mo-Sa 12:00-22:00; Su 12:00-21:00", "brand": "Miller and Carter"}, "geometry": {"type": "Point", "coordinates": [-2.251293, 53.068438]}},
{"type": "Feature", "id": "SBmMeoRLq8nURLsTb-fZkTevSpY=", "properties": {"ref": "https://www.millerandcarter.co.uk/restaurants/east-and-west-midlands/millerandcarterhereford", "@spider": "millercarter", "addr:street_address": "The Old Market", "addr:city": "Hereford", "addr:state": "Herefordshire", "addr:postcode": "HR4 9HR", "addr:country": "GB", "name": "Miller & Carter Hereford Hereford", "phone": "01432 261309", "website": "https://www.millerandcarter.co.uk/restaurants/east-and-west-midlands/millerandcarterhereford", "contact:twitter": "sysadmin_ds@caci.co.uk", "opening_hours": "Mo-We 12:00-22:00; Th-Sa 11:00-22:00; Su 12:00-22:00", "brand": "Miller and Carter"}, "geometry": {"type": "Point", "coordinates": [-2.716705, 52.058816]}},
{"type": "Feature", "id": "t52uQeIB7VqB2JhE-hLYU_ntdxw=", "properties": {"ref": "https://www.millerandcarter.co.uk/restaurants/east-and-west-midlands/millerandcarterpenn", "@spider": "millercarter", "addr:street_address": "Stourbridge Road", "addr:city": "Wolverhampton", "addr:state": "West Midlands", "addr:postcode": "WV4 5NG", "addr:country": "GB", "name": "Miller & Carter Penn Wolverhampton", "phone": "01902 896264", "website": "https://www.millerandcarter.co.uk/restaurants/east-and-west-midlands/millerandcarterpenn", "contact:twitter": "sysadmin_ds@caci.co.uk", "opening_hours": "Mo-Sa 12:00-23:00; Su 12:00-22:00", "brand": "Miller and Carter"}, "geometry": {"type": "Point", "coordinates": [-2.17044, 52.550508]}},
{"type": "Feature", "id": "HwSE80z2T-jXKlRke3asrhD_uxs=", "properties": {"ref": "https://www.millerandcarter.co.uk/restaurants/east-and-west-midlands/millerandcartersuttonpark", "@spider": "millercarter", "addr:street_address": "Boldmere Gate, Sutton Park", "addr:city": "Sutton Coldfield", "addr:state": "West Midlands", "addr:postcode": "B73 6LH", "addr:country": "GB", "name": "Miller & Carter Sutton Park Sutton Coldfield", "phone": "0121 355 6919", "website": "https://www.millerandcarter.co.uk/restaurants/east-and-west-midlands/millerandcartersuttonpark", "contact:twitter": "sysadmin_ds@caci.co.uk", "opening_hours": "Mo-Sa 11:00-23:00; Su 11:00-22:00", "brand": "Miller and Carter"}, "geometry": {"type": "Point", "coordinates": [-1.845758, 52.556194]}},
{"type": "Feature", "id": "9xlSAVIKBzEee6ozAYfeqQ2ZhlQ=", "properties": {"ref": "https://www.millerandcarter.co.uk/restaurants/east-and-west-midlands/millerandcarterhockleyheath", "@spider": "millercarter", "addr:street_address": "Stratford Road, Hockley Heath", "addr:city": "Solihull", "addr:state": "West Midlands", "addr:postcode": "B94 6NL", "addr:country": "GB", "name": "Miller & Carter Hockley Heath Solihull", "phone": "01564 784137", "website": "https://www.millerandcarter.co.uk/restaurants/east-and-west-midlands/millerandcarterhockleyheath", "contact:twitter": "sysadmin_ds@caci.co.uk", "opening_hours": "Mo-Sa 12:00-23:00; Su 12:00-22:00", "brand": "Miller and Carter"}, "geometry": {"type": "Point", "coordinates": [-1.777325, 52.353482]}},
{"type": "Feature", "id": "-Ra5evkJi_hqV-ev9SE9cJbDahk=", "properties": {"ref": "https://www.millerandcarter.co.uk/restaurants/east-and-west-midlands/millerandcartersolihull", "@spider": "millercarter", "addr:street_address": "Tanworth Lane, Shirley", "addr:city": "Solihull", "addr:state": "West Midlands", "addr:postcode": "B90 4EA", "addr:country": "GB", "name": "Miller & Carter Solihull Solihull", "phone": "0121 744 1905", "website": "https://www.millerandcarter.co.uk/restaurants/east-and-west-midlands/millerandcartersolihull", "contact:twitter": "sysadmin_ds@caci.co.uk", "opening_hours": "Mo-Sa 12:00-23:00; Su 12:00-22:00", "brand": "Miller and Carter"}, "geometry": {"type": "Point", "coordinates": [-1.82598, 52.391448]}}]}