{"type":"FeatureCollection","features":[{"type": "Feature", "id": "jHql_7TpAie1sKYkVyRASTjBaIE=", "properties": {"ref": "3624", "@spider": "mistercarwash", "amenity": "car_wash", "addr:full": "8562 Veterans Hwy", "addr:city": "Millersville", "addr:state": "MD", "addr:country": "US", "name": "Mister Car Wash", "phone": "button{ white-space:pre;} .clear-inline{ display:inline-block; width:10px; } @media (max-width: 530px) { .clear-inline{ display:block; height:5px;} }</style><div class=\"info_content\"><h3><b>Severna</b></h3><div class=\"scroll-message\" style=\"margin-top:-45px; width:100%; text-align:center; font-size:14px\"><i>scroll for more info</i></div><div class=\"popup-address pup-info\"><b>8562 Veterans Hwy, Millersville, MD, United States </b></div><div class=\"button-wrapper\"><a href=\"https://mistercarwash.com/location/severna/\" class=\"popup-button pop-button\" >Store Info</a><div class=\"clear-inline\"></div><a class=\"popup-button\" target=\"_blank\" href=\"http://maps.google.com/?q=8562 Veterans Hwy, Millersville, MD, United States\">Directions</a></div><div class=\"popup-hours pup-info\"><b>Hours: </b>7:30 am-6:00 pm Mon-Sat; 8:00 am-6:00 pm Sun</div><div class=\"popup-phone pup-info\"><b>Phone: </b>410-729-9274</div><div class='services pup-info'><b>Services</b><ul class='service-icons'><li><a href='/services/exterior' class='exterior'>Exterior</a></li><li><a href='/services/detail' class='detail'>Interior</a></li><li><a href='/services/unlimited-wash-club' class='unlimited-wash-club'>Unlimited Wash Club\u00ae</a></li><li><a href='/services/express-detail' class='express-detail'>Express Detail</a></li></ul></div></di", "website": "http://mistercarwash.com/locations/severna", "opening_hours": "Mo-Sa 7:30-18:00;Su 8:00-18:00", "brand": "Mister Car Wash", "brand:wikidata": "Q114185788", "nsi_id": "mistercarwash-244496"}, "geometry": {"type": "Point", "coordinates": [-76.625007629, 39.095638275]}},
{"type": "Feature", "id": "e2G_VqTcR-RGSDwC7_5fCG86NuU=", "properties": {"ref": "3623", "@spider": "mistercarwash", "amenity": "car_wash", "addr:full": "2473 Solomons Island Rd", "addr:city": "Edgewater", "addr:state": "MD", "addr:country": "US", "name": "Mister Car Wash", "phone": "button{ white-space:pre;} .clear-inline{ display:inline-block; width:10px; } @media (max-width: 530px) { .clear-inline{ display:block; height:5px;} }</style><div class=\"info_content\"><h3><b>Annapolis</b></h3><div class=\"scroll-message\" style=\"margin-top:-45px; width:100%; text-align:center; font-size:14px\"><i>scroll for more info</i></div><div class=\"popup-address pup-info\"><b>2473 Solomons Island Rd, Edgewater, MD, United States </b></div><div class=\"button-wrapper\"><a href=\"https://mistercarwash.com/location/annapolis/\" class=\"popup-button pop-button\" >Store Info</a><div class=\"clear-inline\"></div><a class=\"popup-button\" target=\"_blank\" href=\"http://maps.google.com/?q=2473 Solomons Island Rd, Edgewater, MD, United States\">Directions</a></div><div class=\"popup-hours pup-info\"><b>Hours: </b>7:30 am-6:00 pm Mon-Sat; 8:00 am-6:00 pm Sun</div><div class=\"popup-phone pup-info\"><b>Phone: </b>410-897-9274</div><div class='services pup-info'><b>Services</b><ul class='service-icons'><li><a href='/services/exterior' class='exterior'>Exterior</a></li><li><a href='/services/detail' class='detail'>Interior</a></li><li><a href='/services/unlimited-wash-club' class='unlimited-wash-club'>Unlimited Wash Club\u00ae</a></li><li><a href='/services/express-detail' class='express-detail'>Express Detail</a></li></ul></div></di", "website": "http://mistercarwash.com/locations/annapolis", "opening_hours": "Mo-Sa 7:30-18:00;Su 8:00-18:00", "brand": "Mister Car Wash", "brand:wikidata": "Q114185788", "nsi_id": "mistercarwash-244496"}, "geometry": {"type": "Point", "coordinates": [-76.541000366, 38.973880768]}},
{"type": "Feature", "id": "hbZ1t7u2pC9RKWBylJJTJF0qLl0=", "properties": {"ref": "3626", "@spider": "mistercarwash", "amenity": "car_wash", "addr:full": "2720 East Market Street", "addr:city": "York", "addr:state": "PA", "addr:country": "US", "name": "Mister Car Wash", "phone": "button{ white-space:pre;} .clear-inline{ display:inline-block; width:10px; } @media (max-width: 530px) { .clear-inline{ display:block; height:5px;} }</style><div class=\"info_content\"><h3><b>York</b></h3><div class=\"scroll-message\" style=\"margin-top:-45px; width:100%; text-align:center; font-size:14px\"><i>scroll for more info</i></div><div class=\"popup-address pup-info\"><b>2720 East Market Street, York, PA, United States </b></div><div class=\"button-wrapper\"><a href=\"https://mistercarwash.com/location/york/\" class=\"popup-button pop-button\" >Store Info</a><div class=\"clear-inline\"></div><a class=\"popup-button\" target=\"_blank\" href=\"http://maps.google.com/?q=2720 East Market Street, York, PA, United States\">Directions</a></div><div class=\"popup-hours pup-info\"><b>Hours: </b>7:30 am-6:00 pm Mon-Sat; 8:00 am-6:00 pm Sun</div><div class=\"popup-phone pup-info\"><b>Phone: </b>717-840-9000</div><div class='services pup-info'><b>Services</b><ul class='service-icons'><li><a href='/services/exterior' class='exterior'>Exterior</a></li><li><a href='/services/detail' class='detail'>Interior</a></li><li><a href='/services/unlimited-wash-club' class='unlimited-wash-club'>Unlimited Wash Club\u00ae</a></li><li><a href='/services/express-detail' class='express-detail'>Express Detail</a></li></ul></div></di", "website": "http://mistercarwash.com/locations/york", "opening_hours": "Mo-Sa 7:30-18:00;Su 8:00-18:00", "brand": "Mister Car Wash", "brand:wikidata": "Q114185788", "nsi_id": "mistercarwash-244496"}, "geometry": {"type": "Point", "coordinates": [-76.672653198, 39.974639893]}},
{"type": "Feature", "id": "qh5PkWVC9wxRxzPHU4nq6Wj2YiM=", "properties": {"ref": "3627", "@spider": "mistercarwash", "amenity": "car_wash", "addr:full": "1417 Manheim Pike", "addr:city": "Lancaster", "addr:state": "PA", "addr:country": "US", "name": "Mister Car Wash", "phone": "button{ white-space:pre;} .clear-inline{ display:inline-block; width:10px; } @media (max-width: 530px) { .clear-inline{ display:block; height:5px;} }</style><div class=\"info_content\"><h3><b>Lancaster</b></h3><div class=\"scroll-message\" style=\"margin-top:-45px; width:100%; text-align:center; font-size:14px\"><i>scroll for more info</i></div><div class=\"popup-address pup-info\"><b>1417 Manheim Pike, Lancaster, PA, United States </b></div><div class=\"button-wrapper\"><a href=\"https://mistercarwash.com/location/lancaster/\" class=\"popup-button pop-button\" >Store Info</a><div class=\"clear-inline\"></div><a class=\"popup-button\" target=\"_blank\" href=\"http://maps.google.com/?q=1417 Manheim Pike, Lancaster, PA, United States\">Directions</a></div><div class=\"popup-hours pup-info\"><b>Hours: </b>7:30 am-6:00 pm Mon-Sat; 8:00 am-6:00 pm Sun</div><div class=\"popup-phone pup-info\"><b>Phone: </b>717-678-6513</div><div class='services pup-info'><b>Services</b><ul class='service-icons'><li><a href='/services/exterior' class='exterior'>Exterior</a></li><li><a href='/services/detail' class='detail'>Interior</a></li><li><a href='/services/unlimited-wash-club' class='unlimited-wash-club'>Unlimited Wash Club\u00ae</a></li><li><a href='/services/express-detail' class='express-detail'>Express Detail</a></li></ul></div></di", "website": "http://mistercarwash.com/locations/lancaster", "opening_hours": "Mo-Sa 7:30-18:00;Su 8:00-18:00", "brand": "Mister Car Wash", "brand:wikidata": "Q114185788", "nsi_id": "mistercarwash-244496"}, "geometry": {"type": "Point", "coordinates": [-76.331428528, 40.070644379]}},
{"type": "Feature", "id": "iRGk_9w8aWYk0eRtKK2GPzIj5l0=", "properties": {"ref": "3625", "@spider": "mistercarwash", "amenity": "car_wash", "addr:full": "825 W Main St", "addr:city": "Ephrata", "addr:state": "PA", "addr:postcode": "17522", "addr:country": "US", "name": "Mister Car Wash", "phone": "button{ white-space:pre;} .clear-inline{ display:inline-block; width:10px; } @media (max-width: 530px) { .clear-inline{ display:block; height:5px;} }</style><div class=\"info_content\"><h3><b>Ephrata</b></h3><div class=\"scroll-message\" style=\"margin-top:-45px; width:100%; text-align:center; font-size:14px\"><i>scroll for more info</i></div><div class=\"popup-address pup-info\"><b>825 W Main St, Ephrata, PA 17522, USA </b></div><div class=\"button-wrapper\"><a href=\"https://mistercarwash.com/location/ephrata/\" class=\"popup-button pop-button\" >Store Info</a><div class=\"clear-inline\"></div><a class=\"popup-button\" target=\"_blank\" href=\"http://maps.google.com/?q=825 W Main St, Ephrata, PA 17522, USA\">Directions</a></div><div class=\"popup-hours pup-info\"><b>Hours: </b>7:30 am-7:00 pm Mon-Sat; 8:00 am-6:00 pm Sun</div><div class=\"popup-phone pup-info\"><b>Phone: </b>717-301-8007</div><div class='services pup-info'><b>Services</b><ul class='service-icons'><li><a href='/services/exterior' class='exterior'>Exterior</a></li><li><a href='/services/unlimited-wash-club' class='unlimited-wash-club'>Unlimited Wash Club\u00ae</a></li></ul></div></di", "website": "http://mistercarwash.com/locations/ephrata", "opening_hours": "Mo-Sa 7:30-19:00;Su 8:00-18:00", "brand": "Mister Car Wash", "brand:wikidata": "Q114185788", "nsi_id": "mistercarwash-244496"}, "geometry": {"type": "Point", "coordinates": [-76.188079834, 40.186710358]}},
{"type": "Feature", "id": "aQ5mT1R2TRifhSUCgtYOhoZYKtU=", "properties": {"ref": "3628", "@spider": "mistercarwash", "amenity": "car_wash", "addr:full": "600 Revere Boulevard", "addr:city": "Reading", "addr:state": "PA", "addr:country": "US", "name": "Mister Car Wash", "phone": "button{ white-space:pre;} .clear-inline{ display:inline-block; width:10px; } @media (max-width: 530px) { .clear-inline{ display:block; height:5px;} }</style><div class=\"info_content\"><h3><b>Reading</b></h3><div class=\"scroll-message\" style=\"margin-top:-45px; width:100%; text-align:center; font-size:14px\"><i>scroll for more info</i></div><div class=\"popup-address pup-info\"><b>600 Revere Boulevard, Reading, PA, United States </b></div><div class=\"button-wrapper\"><a href=\"https://mistercarwash.com/location/reading/\" class=\"popup-button pop-button\" >Store Info</a><div class=\"clear-inline\"></div><a class=\"popup-button\" target=\"_blank\" href=\"http://maps.google.com/?q=600 Revere Boulevard, Reading, PA, United States\">Directions</a></div><div class=\"popup-hours pup-info\"><b>Hours: </b>7:30 am-6:00 pm Mon-Sat; 8:00 am-6:00 pm Sun</div><div class=\"popup-phone pup-info\"><b>Phone: </b>717-325-4162</div><div class='services pup-info'><b>Services</b><ul class='service-icons'><li><a href='/services/exterior' class='exterior'>Exterior</a></li><li><a href='/services/detail' class='detail'>Interior</a></li><li><a href='/services/unlimited-wash-club' class='unlimited-wash-club'>Unlimited Wash Club\u00ae</a></li><li><a href='/services/express-detail' class='express-detail'>Express Detail</a></li></ul></div></di", "website": "http://mistercarwash.com/locations/reading", "opening_hours": "Mo-Sa 7:30-18:00;Su 8:00-18:00", "brand": "Mister Car Wash", "brand:wikidata": "Q114185788", "nsi_id": "mistercarwash-244496"}, "geometry": {"type": "Point", "coordinates": [-75.991630554, 40.312202454]}},
{"type": "Feature", "id": "qc4r_S6a6l_lrnzimXo0nNaVH1A=", "properties": {"ref": "18483", "@spider": "mistercarwash", "amenity": "car_wash", "addr:full": "6008 W Saginaw Hwy", "addr:city": "Lansing", "addr:state": "MI", "addr:country": "US", "name": "Mister Car Wash", "phone": "button{ white-space:pre;} .clear-inline{ display:inline-block; width:10px; } @media (max-width: 530px) { .clear-inline{ display:block; height:5px;} }</style><div class=\"info_content\"><h3><b>Lansing</b></h3><div class=\"scroll-message\" style=\"margin-top:-45px; width:100%; text-align:center; font-size:14px\"><i>scroll for more info</i></div><div class=\"popup-address pup-info\"><b>6008 W Saginaw Hwy, Lansing, MI, USA </b></div><div class=\"button-wrapper\"><a href=\"https://mistercarwash.com/location/lansing/\" class=\"popup-button pop-button\" >Store Info</a><div class=\"clear-inline\"></div><a class=\"popup-button\" target=\"_blank\" href=\"http://maps.google.com/?q=6008 W Saginaw Hwy, Lansing, MI, USA\">Directions</a></div><div class=\"popup-hours pup-info\"><b>Hours: </b>7:30 am-7:00 pm Mon-Sat; 8:00 am-6:00 pm Sun</div><div class=\"popup-phone pup-info\"><b>Phone: </b>517-993-6266</div><div class='services pup-info'><b>Services</b><ul class='service-icons'><li><a href='/services/exterior' class='exterior'>Exterior</a></li><li><a href='/services/unlimited-wash-club' class='unlimited-wash-club'>Unlimited Wash Club\u00ae</a></li></ul></div></di", "website": "http://mistercarwash.com/locations/lansing", "opening_hours": "Mo-Sa 7:30-19:00;Su 8:00-18:00", "brand": "Mister Car Wash", "brand:wikidata": "Q114185788", "nsi_id": "mistercarwash-244496"}, "geometry": {"type": "Point", "coordinates": [-84.635604858, 42.74105072]}},
{"type": "Feature", "id": "Fd6OGj7FFLwwB7ok59ZZaAEweUo=", "properties": {"ref": "18196", "@spider": "mistercarwash", "amenity": "car_wash", "addr:full": "3475 Bay Road", "addr:city": "Saginaw", "addr:state": "MI", "addr:country": "US", "name": "Mister Car Wash", "phone": "button{ white-space:pre;} .clear-inline{ display:inline-block; width:10px; } @media (max-width: 530px) { .clear-inline{ display:block; height:5px;} }</style><div class=\"info_content\"><h3><b>Bay Road</b></h3><div class=\"scroll-message\" style=\"margin-top:-45px; width:100%; text-align:center; font-size:14px\"><i>scroll for more info</i></div><div class=\"popup-address pup-info\"><b>3475 Bay Road, Saginaw, MI, USA </b></div><div class=\"button-wrapper\"><a href=\"https://mistercarwash.com/location/bay-road/\" class=\"popup-button pop-button\" >Store Info</a><div class=\"clear-inline\"></div><a class=\"popup-button\" target=\"_blank\" href=\"http://maps.google.com/?q=3475 Bay Road, Saginaw, MI, USA\">Directions</a></div><div class=\"popup-hours pup-info\"><b>Hours: </b>7:30 am-7:00 pm Mon-Sat; 8:00 am-6:00 pm Sun</div><div class=\"popup-phone pup-info\"><b>Phone: </b>989-497-0000</div><div class='services pup-info'><b>Services</b><ul class='service-icons'><li><a href='/services/exterior' class='exterior'>Exterior</a></li><li><a href='/services/unlimited-wash-club' class='unlimited-wash-club'>Unlimited Wash Club\u00ae</a></li></ul></div></di", "website": "http://mistercarwash.com/locations/bay-road", "opening_hours": "Mo-Sa 7:30-19:00;Su 8:00-18:00", "brand": "Mister Car Wash", "brand:wikidata": "Q114185788", "nsi_id": "mistercarwash-244496"}, "geometry": {"type": "Point", "coordinates": [-83.976287842, 43.458011627]}},
{"type": "Feature", "id": "-YeTPX_hiLD8oq1yQDsXT-cfD9I=", "properties": {"ref": "18198", "@spider": "mistercarwash", "amenity": "car_wash", "addr:full": "6075 State Street", "addr:city": "Saginaw", "addr:state": "MI", "addr:country": "US", "name": "Mister Car Wash", "phone": "(989) 249-15-89", "website": "http://mistercarwash.com/locations/lawndale", "opening_hours": "Mo-Sa 7:30-19:00;Su 8:00-18:00", "brand": "Mister Car Wash", "brand:wikidata": "Q114185788", "nsi_id": "mistercarwash-244496"}, "geometry": {"type": "Point", "coordinates": [-84.036651611, 43.436328888]}},
{"type": "Feature", "id": "_UAxmpW90fvuSlMUAvniaF8SM1w=", "properties": {"ref": "18188", "@spider": "mistercarwash", "amenity": "car_wash", "addr:full": "2921 Center Ave", "addr:city": "Essexville", "addr:state": "MI", "addr:country": "US", "name": "Mister Car Wash", "phone": "(209) 519-44-65", "website": "http://mistercarwash.com/locations/center-ave.", "opening_hours": "Mo-Sa 7:30-19:00;Su 8:00-18:00", "brand": "Mister Car Wash", "brand:wikidata": "Q114185788", "nsi_id": "mistercarwash-244496"}, "geometry": {"type": "Point", "coordinates": [-83.8462677, 43.595302582]}},
{"type": "Feature", "id": "xlxnyMWmWKlC6byeYmZdo2kX_sY=", "properties": {"ref": "18481", "@spider": "mistercarwash", "amenity": "car_wash", "addr:full": "940 E Saginaw Hwy", "addr:city": "Grand Ledge", "addr:state": "MI", "addr:country": "US", "name": "Mister Car Wash", "phone": "button{ white-space:pre;} .clear-inline{ display:inline-block; width:10px; } @media (max-width: 530px) { .clear-inline{ display:block; height:5px;} }</style><div class=\"info_content\"><h3><b>Grand Ledge</b></h3><div class=\"scroll-message\" style=\"margin-top:-45px; width:100%; text-align:center; font-size:14px\"><i>scroll for more info</i></div><div class=\"popup-address pup-info\"><b>940 E Saginaw Hwy, Grand Ledge, MI, USA </b></div><div class=\"button-wrapper\"><a href=\"https://mistercarwash.com/location/grand-ledge/\" class=\"popup-button pop-button\" >Store Info</a><div class=\"clear-inline\"></div><a class=\"popup-button\" target=\"_blank\" href=\"http://maps.google.com/?q=940 E Saginaw Hwy, Grand Ledge, MI, USA\">Directions</a></div><div class=\"popup-hours pup-info\"><b>Hours: </b>7:30 am-7:00 pm Mon-Sat; 8:00 am-6:00 pm Sun</div><div class=\"popup-phone pup-info\"><b>Phone: </b>517-627-9506</div><div class='services pup-info'><b>Services</b><ul class='service-icons'><li><a href='/services/exterior' class='exterior'>Exterior</a></li><li><a href='/services/unlimited-wash-club' class='unlimited-wash-club'>Unlimited Wash Club\u00ae</a></li></ul></div></di", "website": "http://mistercarwash.com/locations/grand-ledge", "opening_hours": "Mo-Sa 7:30-19:00;Su 8:00-18:00", "brand": "Mister Car Wash", "brand:wikidata": "Q114185788", "nsi_id": "mistercarwash-244496"}, "geometry": {"type": "Point", "coordinates": [-84.734634399, 42.739852905]}},
{"type": "Feature", "id": "iPA__ED4wh2temGGW6bKsRn4pPU=", "properties": {"ref": "18186", "@spider": "mistercarwash", "amenity": "car_wash", "addr:full": "901 N Euclid Ave", "addr:city": "Bay City", "addr:state": "MI", "addr:country": "US", "name": "Mister Car Wash", "phone": "button{ white-space:pre;} .clear-inline{ display:inline-block; width:10px; } @media (max-width: 530px) { .clear-inline{ display:block; height:5px;} }</style><div class=\"info_content\"><h3><b>N. Union</b></h3><div class=\"scroll-message\" style=\"margin-top:-45px; width:100%; text-align:center; font-size:14px\"><i>scroll for more info</i></div><div class=\"popup-address pup-info\"><b>901 N Euclid Ave, Bay City, MI, USA </b></div><div class=\"button-wrapper\"><a href=\"https://mistercarwash.com/location/n-union/\" class=\"popup-button pop-button\" >Store Info</a><div class=\"clear-inline\"></div><a class=\"popup-button\" target=\"_blank\" href=\"http://maps.google.com/?q=901 N Euclid Ave, Bay City, MI, USA\">Directions</a></div><div class=\"popup-hours pup-info\"><b>Hours: </b>7:30 am-7:00 pm Mon-Sat; 8:00 am-6:00 pm Sun</div><div class=\"popup-phone pup-info\"><b>Phone: </b>989-992-1289</div><div class='services pup-info'><b>Services</b><ul class='service-icons'><li><a href='/services/exterior' class='exterior'>Exterior</a></li><li><a href='/services/unlimited-wash-club' class='unlimited-wash-club'>Unlimited Wash Club\u00ae</a></li></ul></div></di", "website": "http://mistercarwash.com/locations/n.-union", "opening_hours": "Mo-Sa 7:30-19:00;Su 8:00-18:00", "brand": "Mister Car Wash", "brand:wikidata": "Q114185788", "nsi_id": "mistercarwash-244496"}, "geometry": {"type": "Point", "coordinates": [-83.915351868, 43.611766815]}},
{"type": "Feature", "id": "XxOeCbW-JVkt-Aai-H0mc9ZCKUs=", "properties": {"ref": "18184", "@spider": "mistercarwash", "amenity": "car_wash", "addr:full": "3631 Wilder Rd", "addr:city": "Bay City", "addr:state": "MI", "addr:country": "US", "name": "Mister Car Wash", "phone": "button{ white-space:pre;} .clear-inline{ display:inline-block; width:10px; } @media (max-width: 530px) { .clear-inline{ display:block; height:5px;} }</style><div class=\"info_content\"><h3><b>Wilder</b></h3><div class=\"scroll-message\" style=\"margin-top:-45px; width:100%; text-align:center; font-size:14px\"><i>scroll for more info</i></div><div class=\"popup-address pup-info\"><b>3631 Wilder Rd, Bay City, MI, USA </b></div><div class=\"button-wrapper\"><a href=\"https://mistercarwash.com/location/wilder/\" class=\"popup-button pop-button\" >Store Info</a><div class=\"clear-inline\"></div><a class=\"popup-button\" target=\"_blank\" href=\"http://maps.google.com/?q=3631 Wilder Rd, Bay City, MI, USA\">Directions</a></div><div class=\"popup-hours pup-info\"><b>Hours: </b>7:30 am-7:00 pm Mon-Sat; 8:00 am-6:00 pm Sun</div><div class=\"popup-phone pup-info\"><b>Phone: </b>989-686-4400</div><div class='services pup-info'><b>Services</b><ul class='service-icons'><li><a href='/services/exterior' class='exterior'>Exterior</a></li><li><a href='/services/unlimited-wash-club' class='unlimited-wash-club'>Unlimited Wash Club\u00ae</a></li></ul></div></di", "website": "http://mistercarwash.com/locations/wilder", "opening_hours": "Mo-Sa 7:30-19:00;Su 8:00-18:00", "brand": "Mister Car Wash", "brand:wikidata": "Q114185788", "nsi_id": "mistercarwash-244496"}, "geometry": {"type": "Point", "coordinates": [-83.909095764, 43.624362946]}},
{"type": "Feature", "id": "JiWDl9He-TzVyMQYwLR17vR2P_M=", "properties": {"ref": "18190", "@spider": "mistercarwash", "amenity": "car_wash", "addr:full": "1214 South Saginaw Road", "addr:city": "Midland", "addr:state": "MI", "addr:country": "US", "name": "Mister Car Wash", "phone": "button{ white-space:pre;} .clear-inline{ display:inline-block; width:10px; } @media (max-width: 530px) { .clear-inline{ display:block; height:5px;} }</style><div class=\"info_content\"><h3><b>Saginaw</b></h3><div class=\"scroll-message\" style=\"margin-top:-45px; width:100%; text-align:center; font-size:14px\"><i>scroll for more info</i></div><div class=\"popup-address pup-info\"><b>1214 South Saginaw Road, Midland, MI, USA </b></div><div class=\"button-wrapper\"><a href=\"https://mistercarwash.com/location/saginaw/\" class=\"popup-button pop-button\" >Store Info</a><div class=\"clear-inline\"></div><a class=\"popup-button\" target=\"_blank\" href=\"http://maps.google.com/?q=1214 South Saginaw Road, Midland, MI, USA\">Directions</a></div><div class=\"popup-hours pup-info\"><b>Hours: </b>7:30 am-7:00 pm Mon-Sat; 8:00 am-6:00 pm Sun</div><div class=\"popup-phone pup-info\"><b>Phone: </b>989-631-2642</div><div class='services pup-info'><b>Services</b><ul class='service-icons'><li><a href='/services/exterior' class='exterior'>Exterior</a></li><li><a href='/services/unlimited-wash-club' class='unlimited-wash-club'>Unlimited Wash Club\u00ae</a></li></ul></div></di", "website": "http://mistercarwash.com/locations/saginaw", "opening_hours": "Mo-Sa 7:30-19:00;Su 8:00-18:00", "brand": "Mister Car Wash", "brand:wikidata": "Q114185788", "nsi_id": "mistercarwash-244496"}, "geometry": {"type": "Point", "coordinates": [-84.218223572, 43.617843628]}},
{"type": "Feature", "id": "eAZXqWgpoNepgtAbPQIL6Uox2Kc=", "properties": {"ref": "18192", "@spider": "mistercarwash", "amenity": "car_wash", "addr:full": "525 Joe Mann Boulevard", "addr:city": "Midland", "addr:state": "MI", "addr:country": "US", "name": "Mister Car Wash", "phone": "button{ white-space:pre;} .clear-inline{ display:inline-block; width:10px; } @media (max-width: 530px) { .clear-inline{ display:block; height:5px;} }</style><div class=\"info_content\"><h3><b>Cinema</b></h3><div class=\"scroll-message\" style=\"margin-top:-45px; width:100%; text-align:center; font-size:14px\"><i>scroll for more info</i></div><div class=\"popup-address pup-info\"><b>525 Joe Mann Boulevard, Midland, MI, USA </b></div><div class=\"button-wrapper\"><a href=\"https://mistercarwash.com/location/cinema/\" class=\"popup-button pop-button\" >Store Info</a><div class=\"clear-inline\"></div><a class=\"popup-button\" target=\"_blank\" href=\"http://maps.google.com/?q=525 Joe Mann Boulevard, Midland, MI, USA\">Directions</a></div><div class=\"popup-hours pup-info\"><b>Hours: </b>7:30 am-7:00 pm Mon-Sat; 8:00 am-6:00 pm Sun</div><div class=\"popup-phone pup-info\"><b>Phone: </b>989-633-2740</div><div class='services pup-info'><b>Services</b><ul class='service-icons'><li><a href='/services/exterior' class='exterior'>Exterior</a></li><li><a href='/services/unlimited-wash-club' class='unlimited-wash-club'>Unlimited Wash Club\u00ae</a></li></ul></div></di", "website": "http://mistercarwash.com/locations/cinema", "opening_hours": "Mo-Sa 7:30-19:00;Su 8:00-18:00", "brand": "Mister Car Wash", "brand:wikidata": "Q114185788", "nsi_id": "mistercarwash-244496"}, "geometry": {"type": "Point", "coordinates": [-84.232017517, 43.657859802]}},
{"type": "Feature", "id": "UEjbh8Updmk-ujMhWWnpr_AVx2Y=", "properties": {"ref": "19438", "@spider": "mistercarwash", "amenity": "car_wash", "addr:full": "5190 E Pickard Rd", "addr:city": "Mt Pleasant", "addr:state": "MI", "addr:postcode": "48858", "addr:country": "US", "name": "Mister Car Wash", "phone": "button{ white-space:pre;} .clear-inline{ display:inline-block; width:10px; } @media (max-width: 530px) { .clear-inline{ display:block; height:5px;} }</style><div class=\"info_content\"><h3><b>Pickard</b></h3><div class=\"scroll-message\" style=\"margin-top:-45px; width:100%; text-align:center; font-size:14px\"><i>scroll for more info</i></div><div class=\"popup-address pup-info\"><b>5190 E Pickard Rd, Mt Pleasant, MI 48858, USA </b></div><div class=\"button-wrapper\"><a href=\"https://mistercarwash.com/location/pickard/\" class=\"popup-button pop-button\" >Store Info</a><div class=\"clear-inline\"></div><a class=\"popup-button\" target=\"_blank\" href=\"http://maps.google.com/?q=5190 E Pickard Rd, Mt Pleasant, MI 48858, USA\">Directions</a></div><div class=\"popup-hours pup-info\"><b>Hours: </b>7:30 am-7:00 pm Mon-Sat; 8:00 am-6:00 pm Sun</div><div class=\"popup-phone pup-info\"><b>Phone: </b>989-779-0505</div><div class='services pup-info'><b>Services</b><ul class='service-icons'><li><a href='/services/exterior' class='exterior'>Exterior</a></li><li><a href='/services/unlimited-wash-club' class='unlimited-wash-club'>Unlimited Wash Club\u00ae</a></li></ul></div></di", "website": "http://mistercarwash.com/locations/pickard", "opening_hours": "Mo-Sa 7:30-19:00;Su 8:00-18:00", "brand": "Mister Car Wash", "brand:wikidata": "Q114185788", "nsi_id": "mistercarwash-244496"}, "geometry": {"type": "Point", "coordinates": [-84.744606018, 43.611297607]}},
{"type": "Feature", "id": "bGM1mw_aky82zfmLdwn5GNOw1fI=", "properties": {"ref": "18194", "@spider": "mistercarwash", "amenity": "car_wash", "addr:full": "430 South Mission Street", "addr:city": "Mt Pleasant", "addr:state": "MI", "addr:country": "US", "name": "Mister Car Wash", "phone": "button{ white-space:pre;} .clear-inline{ display:inline-block; width:10px; } @media (max-width: 530px) { .clear-inline{ display:block; height:5px;} }</style><div class=\"info_content\"><h3><b>Craig Hill</b></h3><div class=\"scroll-message\" style=\"margin-top:-45px; width:100%; text-align:center; font-size:14px\"><i>scroll for more info</i></div><div class=\"popup-address pup-info\"><b>430 South Mission Street, Mt Pleasant, MI, USA </b></div><div class=\"button-wrapper\"><a href=\"https://mistercarwash.com/location/craig-hill/\" class=\"popup-button pop-button\" >Store Info</a><div class=\"clear-inline\"></div><a class=\"popup-button\" target=\"_blank\" href=\"http://maps.google.com/?q=430 South Mission Street, Mt Pleasant, MI, USA\">Directions</a></div><div class=\"popup-hours pup-info\"><b>Hours: </b>7:30 am-7:00 pm Mon-Sat; 8:00 am-6:00 pm Sun</div><div class=\"popup-phone pup-info\"><b>Phone: </b>989-772-5860</div><div class='services pup-info'><b>Services</b><ul class='service-icons'><li><a href='/services/exterior' class='exterior'>Exterior</a></li><li><a href='/services/unlimited-wash-club' class='unlimited-wash-club'>Unlimited Wash Club\u00ae</a></li></ul></div></di", "website": "http://mistercarwash.com/locations/craig-hill", "opening_hours": "Mo-Sa 7:30-19:00;Su 8:00-18:00", "brand": "Mister Car Wash", "brand:wikidata": "Q114185788", "nsi_id": "mistercarwash-244496"}, "geometry": {"type": "Point", "coordinates": [-84.76815033, 43.601104736]}},
{"type": "Feature", "id": "HD8w6GYcAujAbsdsN6qON1YWgoY=", "properties": {"ref": "17285", "@spider": "mistercarwash", "amenity": "car_wash", "addr:full": "725 North Lafayette Street", "addr:city": "Greenville", "addr:state": "MI", "addr:country": "US", "name": "Mister Car Wash", "phone": "(616) 754-84-82", "website": "http://mistercarwash.com/locations/greenville", "opening_hours": "Mo-Sa 7:30-19:00;Su 8:00-18:00", "brand": "Mister Car Wash", "brand:wikidata": "Q114185788", "nsi_id": "mistercarwash-244496"}, "geometry": {"type": "Point", "coordinates": [-85.25365448, 43.188503265]}},
{"type": "Feature", "id": "_4aS_mYNmuO7zta2VXaXass6NGk=", "properties": {"ref": "17281", "@spider": "mistercarwash", "amenity": "car_wash", "addr:full": "6771 Old 28th Street Southeast", "addr:city": "Grand Rapids", "addr:state": "MI", "addr:country": "US", "name": "Mister Car Wash", "phone": "(616) 942-53-61", "website": "http://mistercarwash.com/locations/cascade", "opening_hours": "Mo-Sa 7:30-19:00;Su 8:00-18:00", "brand": "Mister Car Wash", "brand:wikidata": "Q114185788", "nsi_id": "mistercarwash-244496"}, "geometry": {"type": "Point", "coordinates": [-85.500343323, 42.9139328]}},
{"type": "Feature", "id": "2pZnu90YjNQyYHlGFv25zMqZuFY=", "properties": {"ref": "13075", "@spider": "mistercarwash", "amenity": "car_wash", "addr:full": "6700 Kalamazoo Ave SE", "addr:city": "Grand Rapids", "addr:state": "MI", "addr:country": "US", "name": "Mister Car Wash", "phone": "button{ white-space:pre;} .clear-inline{ display:inline-block; width:10px; } @media (max-width: 530px) { .clear-inline{ display:block; height:5px;} }</style><div class=\"info_content\"><h3><b>Kalamazoo</b></h3><div class=\"scroll-message\" style=\"margin-top:-45px; width:100%; text-align:center; font-size:14px\"><i>scroll for more info</i></div><div class=\"popup-address pup-info\"><b>6700 Kalamazoo Ave SE, Grand Rapids, MI, United States </b></div><div class=\"button-wrapper\"><a href=\"https://mistercarwash.com/location/kalamazoo/\" class=\"popup-button pop-button\" >Store Info</a><div class=\"clear-inline\"></div><a class=\"popup-button\" target=\"_blank\" href=\"http://maps.google.com/?q=6700 Kalamazoo Ave SE, Grand Rapids, MI, United States\">Directions</a></div><div class=\"popup-hours pup-info\"><b>Hours: </b>7:30 am-7:00 pm Mon-Sat; 8:00 am-6:00 pm Sun</div><div class=\"popup-phone pup-info\"><b>Phone: </b>616-608-0660</div><div class='services pup-info'><b>Services</b><ul class='service-icons'><li><a href='/services/exterior' class='exterior'>Exterior</a></li><li><a href='/services/unlimited-wash-club' class='unlimited-wash-club'>Unlimited Wash Club\u00ae</a></li></ul></div></di", "website": "http://mistercarwash.com/locations/kalamazoo", "opening_hours": "Mo-Sa 7:30-19:00;Su 8:00-18:00", "brand": "Mister Car Wash", "brand:wikidata": "Q114185788", "nsi_id": "mistercarwash-244496"}, "geometry": {"type": "Point", "coordinates": [-85.624214172, 42.842918396]}},
{"type": "Feature", "id": "8eF60wURH3RF5ZS5iBqtRQQ50sE=", "properties": {"ref": "15175", "@spider": "mistercarwash", "amenity": "car_wash", "addr:full": "3797 28th Street Southeast", "addr:city": "Grand Rapids", "addr:state": "MI", "addr:country": "US", "name": "Mister Car Wash", "phone": "button{ white-space:pre;} .clear-inline{ display:inline-block; width:10px; } @media (max-width: 530px) { .clear-inline{ display:block; height:5px;} }</style><div class=\"info_content\"><h3><b>Centerpointe</b></h3><div class=\"scroll-message\" style=\"margin-top:-45px; width:100%; text-align:center; font-size:14px\"><i>scroll for more info</i></div><div class=\"popup-address pup-info\"><b>3797 28th Street Southeast, Grand Rapids, MI, United States </b></div><div class=\"button-wrapper\"><a href=\"https://mistercarwash.com/location/28th-street/\" class=\"popup-button pop-button\" >Store Info</a><div class=\"clear-inline\"></div><a class=\"popup-button\" target=\"_blank\" href=\"http://maps.google.com/?q=3797 28th Street Southeast, Grand Rapids, MI, United States\">Directions</a></div><div class=\"popup-hours pup-info\"><b>Hours: </b>7:30 am-7:00 pm Mon-Sat; 8:00 am-6:00 pm Sun</div><div class=\"popup-phone pup-info\"><b>Phone: </b>616-940-0904</div><div class='services pup-info'><b>Services</b><ul class='service-icons'><li><a href='/services/exterior' class='exterior'>Exterior</a></li><li><a href='/services/unlimited-wash-club' class='unlimited-wash-club'>Unlimited Wash Club\u00ae</a></li></ul></div></di", "website": "http://mistercarwash.com/locations/centerpointe", "opening_hours": "Mo-Sa 7:30-19:00;Su 8:00-18:00", "brand": "Mister Car Wash", "brand:wikidata": "Q114185788", "nsi_id": "mistercarwash-244496"}, "geometry": {"type": "Point", "coordinates": [-85.573760986, 42.913154602]}},
{"type": "Feature", "id": "571lDhCm7vzMeYOomuLuHzH8WIo=", "properties": {"ref": "31089", "@spider": "mistercarwash", "amenity": "car_wash", "addr:full": "294 84th St SW", "addr:city": "Byron Center", "addr:state": "MI", "addr:country": "US", "name": "Mister Car Wash", "phone": "(616) 577-94-60", "website": "http://mistercarwash.com/locations/byron-center", "opening_hours": "Mo-Sa 7:30-19:00;Su 8:00-18:00", "brand": "Mister Car Wash", "brand:wikidata": "Q114185788", "nsi_id": "mistercarwash-244496"}, "geometry": {"type": "Point", "coordinates": [-85.671035767, 42.811382294]}},
{"type": "Feature", "id": "YA16EN0yBXFGV7BtoSHJtT9MoCM=", "properties": {"ref": "18015", "@spider": "mistercarwash", "amenity": "car_wash", "addr:full": "550 Dawsonville Hwy", "addr:city": "Gainesville", "addr:state": "GA", "addr:country": "US", "name": "Mister Car Wash", "phone": "button{ white-space:pre;} .clear-inline{ display:inline-block; width:10px; } @media (max-width: 530px) { .clear-inline{ display:block; height:5px;} }</style><div class=\"info_content\"><h3><b>Dawsonville HWY</b></h3><div class=\"scroll-message\" style=\"margin-top:-45px; width:100%; text-align:center; font-size:14px\"><i>scroll for more info</i></div><div class=\"popup-address pup-info\"><b>550 Dawsonville Hwy, Gainesville, GA, USA </b></div><div class=\"button-wrapper\"><a href=\"https://mistercarwash.com/location/dawsonville-hwy/\" class=\"popup-button pop-button\" >Store Info</a><div class=\"clear-inline\"></div><a class=\"popup-button\" target=\"_blank\" href=\"http://maps.google.com/?q=550 Dawsonville Hwy, Gainesville, GA, USA\">Directions</a></div><div class=\"popup-hours pup-info\"><b>Hours: </b>7:30 am-7:00 pm Mon-Sat; 8:00 am-6:00 pm Sun</div><div class=\"popup-phone pup-info\"><b>Phone: </b>770-535-2588</div><div class='services pup-info'><b>Services</b><ul class='service-icons'><li><a href='/services/exterior' class='exterior'>Exterior</a></li><li><a href='/services/unlimited-wash-club' class='unlimited-wash-club'>Unlimited Wash Club\u00ae</a></li></ul></div></di", "website": "http://mistercarwash.com/locations/dawsonville-hwy", "opening_hours": "Mo-Sa 7:30-19:00;Su 8:00-18:00", "brand": "Mister Car Wash", "brand:wikidata": "Q114185788", "nsi_id": "mistercarwash-244496"}, "geometry": {"type": "Point", "coordinates": [-83.852127075, 34.296089172]}},
{"type": "Feature", "id": "AKFsu_HIZ4qKDgxIG57dc6VcqSY=", "properties": {"ref": "13070", "@spider": "mistercarwash", "amenity": "car_wash", "addr:full": "2730 28th Street Southeast", "addr:city": "Grand Rapids", "addr:state": "MI", "addr:country": "US", "name": "Mister Car Wash", "phone": "button{ white-space:pre;} .clear-inline{ display:inline-block; width:10px; } @media (max-width: 530px) { .clear-inline{ display:block; height:5px;} }</style><div class=\"info_content\"><h3><b>Woodland</b></h3><div class=\"scroll-message\" style=\"margin-top:-45px; width:100%; text-align:center; font-size:14px\"><i>scroll for more info</i></div><div class=\"popup-address pup-info\"><b>2730 28th Street Southeast, Grand Rapids, MI, United States </b></div><div class=\"button-wrapper\"><a href=\"https://mistercarwash.com/location/woodland/\" class=\"popup-button pop-button\" >Store Info</a><div class=\"clear-inline\"></div><a class=\"popup-button\" target=\"_blank\" href=\"http://maps.google.com/?q=2730 28th Street Southeast, Grand Rapids, MI, United States\">Directions</a></div><div class=\"popup-hours pup-info\"><b>Hours: </b>7:30 am-7:00 pm Mon-Sat; 8:00 am-6:00 pm Sun</div><div class=\"popup-phone pup-info\"><b>Phone: </b>616-957-1655</div><div class='services pup-info'><b>Services</b><ul class='service-icons'><li><a href='/services/exterior' class='exterior'>Exterior</a></li><li><a href='/services/unlimited-wash-club' class='unlimited-wash-club'>Unlimited Wash Club\u00ae</a></li></ul></div></di", "website": "http://mistercarwash.com/locations/woodland", "opening_hours": "Mo-Sa 7:30-19:00;Su 8:00-18:00", "brand": "Mister Car Wash", "brand:wikidata": "Q114185788", "nsi_id": "mistercarwash-244496"}, "geometry": {"type": "Point", "coordinates": [-85.599334717, 42.911773682]}},
{"type": "Feature", "id": "e9-e1S60vT97SHA-qf8GA_MlfIo=", "properties": {"ref": "15171", "@spider": "mistercarwash", "amenity": "car_wash", "addr:full": "604 44th Street Southeast", "addr:city": "Grand Rapids", "addr:state": "MI", "addr:country": "US", "name": "Mister Car Wash", "phone": "button{ white-space:pre;} .clear-inline{ display:inline-block; width:10px; } @media (max-width: 530px) { .clear-inline{ display:block; height:5px;} }</style><div class=\"info_content\"><h3><b>44th Street</b></h3><div class=\"scroll-message\" style=\"margin-top:-45px; width:100%; text-align:center; font-size:14px\"><i>scroll for more info</i></div><div class=\"popup-address pup-info\"><b>604 44th Street Southeast, Grand Rapids, MI, United States </b></div><div class=\"button-wrapper\"><a href=\"https://mistercarwash.com/location/44th-street/\" class=\"popup-button pop-button\" >Store Info</a><div class=\"clear-inline\"></div><a class=\"popup-button\" target=\"_blank\" href=\"http://maps.google.com/?q=604 44th Street Southeast, Grand Rapids, MI, United States\">Directions</a></div><div class=\"popup-hours pup-info\"><b>Hours: </b>7:30 am-7:00 pm Mon-Sat; 8:00 am-6:00 pm Sun</div><div class=\"popup-phone pup-info\"><b>Phone: </b>616-532-7600</div><div class='services pup-info'><b>Services</b><ul class='service-icons'><li><a href='/services/exterior' class='exterior'>Exterior</a></li><li><a href='/services/unlimited-wash-club' class='unlimited-wash-club'>Unlimited Wash Club\u00ae</a></li></ul></div></di", "website": "http://mistercarwash.com/locations/44th-street", "opening_hours": "Mo-Sa 7:30-19:00;Su 8:00-18:00", "brand": "Mister Car Wash", "brand:wikidata": "Q114185788", "nsi_id": "mistercarwash-244496"}, "geometry": {"type": "Point", "coordinates": [-85.650382996, 42.882720947]}},
{"type": "Feature", "id": "MSG5g7jmCd0iC4X0Mk9rknmW-hU=", "properties": {"ref": "13066", "@spider": "mistercarwash", "amenity": "car_wash", "addr:full": "1000 28th Street Southeast", "addr:city": "Grand Rapids", "addr:state": "MI", "addr:country": "US", "name": "Mister Car Wash", "phone": "button{ white-space:pre;} .clear-inline{ display:inline-block; width:10px; } @media (max-width: 530px) { .clear-inline{ display:block; height:5px;} }</style><div class=\"info_content\"><h3><b>Junior</b></h3><div class=\"scroll-message\" style=\"margin-top:-45px; width:100%; text-align:center; font-size:14px\"><i>scroll for more info</i></div><div class=\"popup-address pup-info\"><b>1000 28th Street Southeast, Grand Rapids, MI, United States </b></div><div class=\"button-wrapper\"><a href=\"https://mistercarwash.com/location/junior/\" class=\"popup-button pop-button\" >Store Info</a><div class=\"clear-inline\"></div><a class=\"popup-button\" target=\"_blank\" href=\"http://maps.google.com/?q=1000 28th Street Southeast, Grand Rapids, MI, United States\">Directions</a></div><div class=\"popup-hours pup-info\"><b>Hours: </b>7:30 am-7:00 pm Mon-Sat; 8:00 am-6:00 pm Sun</div><div class=\"popup-phone pup-info\"><b>Phone: </b>616-245-4330</div><div class='services pup-info'><b>Services</b><ul class='service-icons'><li><a href='/services/exterior' class='exterior'>Exterior</a></li><li><a href='/services/unlimited-wash-club' class='unlimited-wash-club'>Unlimited Wash Club\u00ae</a></li></ul></div></di", "website": "http://mistercarwash.com/locations/junior", "opening_hours": "Mo-Sa 7:30-19:00;Su 8:00-18:00", "brand": "Mister Car Wash", "brand:wikidata": "Q114185788", "nsi_id": "mistercarwash-244496"}, "geometry": {"type": "Point", "coordinates": [-85.641952515, 42.912147522]}},
{"type": "Feature", "id": "g-sKzd6WYjLDrdG38Ck-R8PLWnQ=", "properties": {"ref": "17512", "@spider": "mistercarwash", "amenity": "car_wash", "addr:full": "1035 Parkway Blvd", "addr:city": "Athens", "addr:state": "GA", "addr:country": "US", "name": "Mister Car Wash", "phone": "button{ white-space:pre;} .clear-inline{ display:inline-block; width:10px; } @media (max-width: 530px) { .clear-inline{ display:block; height:5px;} }</style><div class=\"info_content\"><h3><b>Athens</b></h3><div class=\"scroll-message\" style=\"margin-top:-45px; width:100%; text-align:center; font-size:14px\"><i>scroll for more info</i></div><div class=\"popup-address pup-info\"><b>1035 Parkway Blvd, Athens, GA, USA </b></div><div class=\"button-wrapper\"><a href=\"https://mistercarwash.com/location/athens/\" class=\"popup-button pop-button\" >Store Info</a><div class=\"clear-inline\"></div><a class=\"popup-button\" target=\"_blank\" href=\"http://maps.google.com/?q=1035 Parkway Blvd, Athens, GA, USA\">Directions</a></div><div class=\"popup-hours pup-info\"><b>Hours: </b>7:30 am-7:00 pm Mon-Sat; 8:00 am-6:00 pm Sun</div><div class=\"popup-phone pup-info\"><b>Phone: </b>706-521-5889</div><div class='services pup-info'><b>Services</b><ul class='service-icons'><li><a href='/services/exterior' class='exterior'>Exterior</a></li><li><a href='/services/unlimited-wash-club' class='unlimited-wash-club'>Unlimited Wash Club\u00ae</a></li></ul></div></di", "website": "http://mistercarwash.com/locations/athens", "opening_hours": "Mo-Sa 7:30-19:00;Su 8:00-18:00", "brand": "Mister Car Wash", "brand:wikidata": "Q114185788", "nsi_id": "mistercarwash-244496"}, "geometry": {"type": "Point", "coordinates": [-83.441757202, 33.921508789]}},
{"type": "Feature", "id": "pcwrRE-ALa7cn8t2TUwUsbs6kS4=", "properties": {"ref": "13713", "@spider": "mistercarwash", "amenity": "car_wash", "addr:full": "2205 E Beltline Ave NE", "addr:city": "Grand Rapids", "addr:state": "MI", "addr:country": "US", "name": "Mister Car Wash", "phone": "button{ white-space:pre;} .clear-inline{ display:inline-block; width:10px; } @media (max-width: 530px) { .clear-inline{ display:block; height:5px;} }</style><div class=\"info_content\"><h3><b>Beltline</b></h3><div class=\"scroll-message\" style=\"margin-top:-45px; width:100%; text-align:center; font-size:14px\"><i>scroll for more info</i></div><div class=\"popup-address pup-info\"><b>2205 E Beltline Ave NE, Grand Rapids, MI, United States </b></div><div class=\"button-wrapper\"><a href=\"https://mistercarwash.com/location/beltline/\" class=\"popup-button pop-button\" >Store Info</a><div class=\"clear-inline\"></div><a class=\"popup-button\" target=\"_blank\" href=\"http://maps.google.com/?q=2205 E Beltline Ave NE, Grand Rapids, MI, United States\">Directions</a></div><div class=\"popup-hours pup-info\"><b>Hours: </b>7:30 am-7:00 pm Mon-Sat; 8:00 am-6:00 pm Sun</div><div class=\"popup-phone pup-info\"><b>Phone: </b>616-447-9560</div><div class='services pup-info'><b>Services</b><ul class='service-icons'><li><a href='/services/exterior' class='exterior'>Exterior</a></li><li><a href='/services/unlimited-wash-club' class='unlimited-wash-club'>Unlimited Wash Club\u00ae</a></li></ul></div></di", "website": "http://mistercarwash.com/locations/beltline", "opening_hours": "Mo-Sa 7:30-19:00;Su 8:00-18:00", "brand": "Mister Car Wash", "brand:wikidata": "Q114185788", "nsi_id": "mistercarwash-244496"}, "geometry": {"type": "Point", "coordinates": [-85.592414856, 43.002685547]}},
{"type": "Feature", "id": "qM7cE8ZHkL6bbnmZWaEO1nhGnu4=", "properties": {"ref": "15173", "@spider": "mistercarwash", "amenity": "car_wash", "addr:full": "340 Fuller Avenue Northeast", "addr:city": "Grand Rapids", "addr:state": "MI", "addr:country": "US", "name": "Mister Car Wash", "phone": "button{ white-space:pre;} .clear-inline{ display:inline-block; width:10px; } @media (max-width: 530px) { .clear-inline{ display:block; height:5px;} }</style><div class=\"info_content\"><h3><b>Fuller</b></h3><div class=\"scroll-message\" style=\"margin-top:-45px; width:100%; text-align:center; font-size:14px\"><i>scroll for more info</i></div><div class=\"popup-address pup-info\"><b>340 Fuller Avenue Northeast, Grand Rapids, MI, United States </b></div><div class=\"button-wrapper\"><a href=\"https://mistercarwash.com/location/fuller/\" class=\"popup-button pop-button\" >Store Info</a><div class=\"clear-inline\"></div><a class=\"popup-button\" target=\"_blank\" href=\"http://maps.google.com/?q=340 Fuller Avenue Northeast, Grand Rapids, MI, United States\">Directions</a></div><div class=\"popup-hours pup-info\"><b>Hours: </b>7:30 am-7:00 pm Mon-Sat; 8:00 am-6:00 pm Sun</div><div class=\"popup-phone pup-info\"><b>Phone: </b>616-776-0365</div><div class='services pup-info'><b>Services</b><ul class='service-icons'><li><a href='/services/exterior' class='exterior'>Exterior</a></li><li><a href='/services/unlimited-wash-club' class='unlimited-wash-club'>Unlimited Wash Club\u00ae</a></li></ul></div></di", "website": "http://mistercarwash.com/locations/fuller", "opening_hours": "Mo-Sa 7:30-19:00;Su 8:00-18:00", "brand": "Mister Car Wash", "brand:wikidata": "Q114185788", "nsi_id": "mistercarwash-244496"}, "geometry": {"type": "Point", "coordinates": [-85.638870239, 42.969539642]}},
{"type": "Feature", "id": "wXzV8IN_8ZwyOh9_OEp5YB_xse0=", "properties": {"ref": "13064", "@spider": "mistercarwash", "amenity": "car_wash", "addr:full": "1259 28th Street Southwest", "addr:city": "Wyoming", "addr:state": "MI", "addr:country": "US", "name": "Mister Car Wash", "phone": "button{ white-space:pre;} .clear-inline{ display:inline-block; width:10px; } @media (max-width: 530px) { .clear-inline{ display:block; height:5px;} }</style><div class=\"info_content\"><h3><b>Wyoming</b></h3><div class=\"scroll-message\" style=\"margin-top:-45px; width:100%; text-align:center; font-size:14px\"><i>scroll for more info</i></div><div class=\"popup-address pup-info\"><b>1259 28th Street Southwest, Wyoming, MI, United States </b></div><div class=\"button-wrapper\"><a href=\"https://mistercarwash.com/location/wyoming/\" class=\"popup-button pop-button\" >Store Info</a><div class=\"clear-inline\"></div><a class=\"popup-button\" target=\"_blank\" href=\"http://maps.google.com/?q=1259 28th Street Southwest, Wyoming, MI, United States\">Directions</a></div><div class=\"popup-hours pup-info\"><b>Hours: </b>7:30 am-6:00 pm Mon-Sat; 8:00 am-6:00 pm Sun</div><div class=\"popup-phone pup-info\"><b>Phone: </b>616-538-6520</div><div class='services pup-info'><b>Services</b><ul class='service-icons'><li><a href='/services/exterior' class='exterior'>Exterior</a></li><li><a href='/services/detail' class='detail'>Interior</a></li><li><a href='/services/unlimited-wash-club' class='unlimited-wash-club'>Unlimited Wash Club\u00ae</a></li></ul></div></di", "website": "http://mistercarwash.com/locations/wyoming", "opening_hours": "Mo-Sa 7:30-18:00;Su 8:00-18:00", "brand": "Mister Car Wash", "brand:wikidata": "Q114185788", "nsi_id": "mistercarwash-244496"}, "geometry": {"type": "Point", "coordinates": [-85.697341919, 42.913864136]}},
{"type": "Feature", "id": "7HVtcUdw2UQ9n-YpTJc-xzLxyRo=", "properties": {"ref": "15169", "@spider": "mistercarwash", "amenity": "car_wash", "addr:full": "3752 Plainfield Avenue Northeast", "addr:city": "Grand Rapids", "addr:state": "MI", "addr:country": "US", "name": "Mister Car Wash", "phone": "button{ white-space:pre;} .clear-inline{ display:inline-block; width:10px; } @media (max-width: 530px) { .clear-inline{ display:block; height:5px;} }</style><div class=\"info_content\"><h3><b>Plainfield</b></h3><div class=\"scroll-message\" style=\"margin-top:-45px; width:100%; text-align:center; font-size:14px\"><i>scroll for more info</i></div><div class=\"popup-address pup-info\"><b>3752 Plainfield Avenue Northeast, Grand Rapids, MI, United States </b></div><div class=\"button-wrapper\"><a href=\"https://mistercarwash.com/location/plainfield/\" class=\"popup-button pop-button\" >Store Info</a><div class=\"clear-inline\"></div><a class=\"popup-button\" target=\"_blank\" href=\"http://maps.google.com/?q=3752 Plainfield Avenue Northeast, Grand Rapids, MI, United States\">Directions</a></div><div class=\"popup-hours pup-info\"><b>Hours: </b>7:30 am-7:00 pm Mon-Sat; 8:00 am-6:00 pm Sun</div><div class=\"popup-phone pup-info\"><b>Phone: </b>616-364-4871</div><div class='services pup-info'><b>Services</b><ul class='service-icons'><li><a href='/services/exterior' class='exterior'>Exterior</a></li><li><a href='/services/unlimited-wash-club' class='unlimited-wash-club'>Unlimited Wash Club\u00ae</a></li></ul></div></di", "website": "http://mistercarwash.com/locations/plainfield", "opening_hours": "Mo-Sa 7:30-19:00;Su 8:00-18:00", "brand": "Mister Car Wash", "brand:wikidata": "Q114185788", "nsi_id": "mistercarwash-244496"}, "geometry": {"type": "Point", "coordinates": [-85.628112793, 43.030612946]}},
{"type": "Feature", "id": "WA3lM7HU_sE3_ULoi9jw8Vvh39w=", "properties": {"ref": "13073", "@spider": "mistercarwash", "amenity": "car_wash", "addr:full": "1325 Leonard Street Northwest", "addr:city": "Grand Rapids", "addr:state": "MI", "addr:country": "US", "name": "Mister Car Wash", "phone": "button{ white-space:pre;} .clear-inline{ display:inline-block; width:10px; } @media (max-width: 530px) { .clear-inline{ display:block; height:5px;} }</style><div class=\"info_content\"><h3><b>Leonard</b></h3><div class=\"scroll-message\" style=\"margin-top:-45px; width:100%; text-align:center; font-size:14px\"><i>scroll for more info</i></div><div class=\"popup-address pup-info\"><b>1325 Leonard Street Northwest, Grand Rapids, MI, United States </b></div><div class=\"button-wrapper\"><a href=\"https://mistercarwash.com/location/leonard/\" class=\"popup-button pop-button\" >Store Info</a><div class=\"clear-inline\"></div><a class=\"popup-button\" target=\"_blank\" href=\"http://maps.google.com/?q=1325 Leonard Street Northwest, Grand Rapids, MI, United States\">Directions</a></div><div class=\"popup-hours pup-info\"><b>Hours: </b>7:30 am-7:00 pm Mon-Sat; 8:00 am-6:00 pm Sun</div><div class=\"popup-phone pup-info\"><b>Phone: </b>616-454-2457</div><div class='services pup-info'><b>Services</b><ul class='service-icons'><li><a href='/services/exterior' class='exterior'>Exterior</a></li><li><a href='/services/unlimited-wash-club' class='unlimited-wash-club'>Unlimited Wash Club\u00ae</a></li></ul></div></di", "website": "http://mistercarwash.com/locations/leonard", "opening_hours": "Mo-Sa 7:30-19:00;Su 8:00-18:00", "brand": "Mister Car Wash", "brand:wikidata": "Q114185788", "nsi_id": "mistercarwash-244496"}, "geometry": {"type": "Point", "coordinates": [-85.70124054, 42.986019135]}},
{"type": "Feature", "id": "B4Ip7rpMylzGLsExucbUvVis0Rw=", "properties": {"ref": "18783", "@spider": "mistercarwash", "amenity": "car_wash", "addr:full": "2775 10 Mile Road Northeast", "addr:city": "Rockford", "addr:state": "MI", "addr:country": "US", "name": "Mister Car Wash", "phone": "button{ white-space:pre;} .clear-inline{ display:inline-block; width:10px; } @media (max-width: 530px) { .clear-inline{ display:block; height:5px;} }</style><div class=\"info_content\"><h3><b>10 Mile</b></h3><div class=\"scroll-message\" style=\"margin-top:-45px; width:100%; text-align:center; font-size:14px\"><i>scroll for more info</i></div><div class=\"popup-address pup-info\"><b>2775 10 Mile Road Northeast, Rockford, MI, USA </b></div><div class=\"button-wrapper\"><a href=\"https://mistercarwash.com/location/10-mile/\" class=\"popup-button pop-button\" >Store Info</a><div class=\"clear-inline\"></div><a class=\"popup-button\" target=\"_blank\" href=\"http://maps.google.com/?q=2775 10 Mile Road Northeast, Rockford, MI, USA\">Directions</a></div><div class=\"popup-hours pup-info\"><b>Hours: </b>7:30 am-7:00 pm Mon-Sat; 8:00 am-6:00 pm Sun</div><div class=\"popup-phone pup-info\"><b>Phone: </b></div><div class='services pup-info'><b>Services</b><ul class='service-icons'><li><a href='/services/exterior' class='exterior'>Exterior</a></li><li><a href='/services/unlimited-wash-club' class='unlimited-wash-club'>Unlimited Wash Club\u00ae</a></li></ul></div></di", "website": "http://mistercarwash.com/locations/10-mile", "opening_hours": "Mo-Sa 7:30-19:00;Su 8:00-18:00", "brand": "Mister Car Wash", "brand:wikidata": "Q114185788", "nsi_id": "mistercarwash-244496"}, "geometry": {"type": "Point", "coordinates": [-85.601776123, 43.117599487]}},
{"type": "Feature", "id": "3NvFYaEa1rle5Vl_EmXkYuQSXqI=", "properties": {"ref": "13068", "@spider": "mistercarwash", "amenity": "car_wash", "addr:full": "3755 Alpine Avenue Northwest", "addr:city": "Comstock Park", "addr:state": "MI", "addr:country": "US", "name": "Mister Car Wash", "phone": "button{ white-space:pre;} .clear-inline{ display:inline-block; width:10px; } @media (max-width: 530px) { .clear-inline{ display:block; height:5px;} }</style><div class=\"info_content\"><h3><b>Alpine</b></h3><div class=\"scroll-message\" style=\"margin-top:-45px; width:100%; text-align:center; font-size:14px\"><i>scroll for more info</i></div><div class=\"popup-address pup-info\"><b>3755 Alpine Avenue Northwest, Comstock Park, MI, United States </b></div><div class=\"button-wrapper\"><a href=\"https://mistercarwash.com/location/alpine/\" class=\"popup-button pop-button\" >Store Info</a><div class=\"clear-inline\"></div><a class=\"popup-button\" target=\"_blank\" href=\"http://maps.google.com/?q=3755 Alpine Avenue Northwest, Comstock Park, MI, United States\">Directions</a></div><div class=\"popup-hours pup-info\"><b>Hours: </b>7:30 am-7:00 pm Mon-Sat; 8:00 am-6:00 pm Sun</div><div class=\"popup-phone pup-info\"><b>Phone: </b>616-784-1600</div><div class='services pup-info'><b>Services</b><ul class='service-icons'><li><a href='/services/exterior' class='exterior'>Exterior</a></li><li><a href='/services/unlimited-wash-club' class='unlimited-wash-club'>Unlimited Wash Club\u00ae</a></li></ul></div></di", "website": "http://mistercarwash.com/locations/alpine", "opening_hours": "Mo-Sa 7:30-19:00;Su 8:00-18:00", "brand": "Mister Car Wash", "brand:wikidata": "Q114185788", "nsi_id": "mistercarwash-244496"}, "geometry": {"type": "Point", "coordinates": [-85.690811157, 43.03163147]}},
{"type": "Feature", "id": "Y5eheMcKI73lrLRJznvEqNXmQXk=", "properties": {"ref": "17283", "@spider": "mistercarwash", "amenity": "car_wash", "addr:full": "325 Baldwin Street", "addr:city": "Jenison", "addr:state": "MI", "addr:country": "US", "name": "Mister Car Wash", "phone": "(616) 457-45-40", "website": "http://mistercarwash.com/locations/jenison", "opening_hours": "Mo-Sa 7:30-19:00;Su 8:00-18:00", "brand": "Mister Car Wash", "brand:wikidata": "Q114185788", "nsi_id": "mistercarwash-244496"}, "geometry": {"type": "Point", "coordinates": [-85.790641785, 42.907123566]}},
{"type": "Feature", "id": "ibLE2_3-1yD-fAKN4xzw070XmdM=", "properties": {"ref": "15183", "@spider": "mistercarwash", "amenity": "car_wash", "addr:full": "4260 Lake Michigan Drive Northwest", "addr:city": "Walker", "addr:state": "MI", "addr:country": "US", "name": "Mister Car Wash", "phone": "button{ white-space:pre;} .clear-inline{ display:inline-block; width:10px; } @media (max-width: 530px) { .clear-inline{ display:block; height:5px;} }</style><div class=\"info_content\"><h3><b>Walker</b></h3><div class=\"scroll-message\" style=\"margin-top:-45px; width:100%; text-align:center; font-size:14px\"><i>scroll for more info</i></div><div class=\"popup-address pup-info\"><b>4260 Lake Michigan Drive Northwest, Walker, MI, United States </b></div><div class=\"button-wrapper\"><a href=\"https://mistercarwash.com/location/walker/\" class=\"popup-button pop-button\" >Store Info</a><div class=\"clear-inline\"></div><a class=\"popup-button\" target=\"_blank\" href=\"http://maps.google.com/?q=4260 Lake Michigan Drive Northwest, Walker, MI, United States\">Directions</a></div><div class=\"popup-hours pup-info\"><b>Hours: </b>7:30 am-7:00 pm Mon-Sat; 8:00 am-6:00 pm Sun</div><div class=\"popup-phone pup-info\"><b>Phone: </b>616-4539792</div><div class='services pup-info'><b>Services</b><ul class='service-icons'><li><a href='/services/exterior' class='exterior'>Exterior</a></li><li><a href='/services/unlimited-wash-club' class='unlimited-wash-club'>Unlimited Wash Club\u00ae</a></li></ul></div></di", "website": "http://mistercarwash.com/locations/walker", "opening_hours": "Mo-Sa 7:30-19:00;Su 8:00-18:00", "brand": "Mister Car Wash", "brand:wikidata": "Q114185788", "nsi_id": "mistercarwash-244496"}, "geometry": {"type": "Point", "coordinates": [-85.77268219, 42.971664429]}},
{"type": "Feature", "id": "g82VnevBOSdK1YJrb4YPfvbI8rU=", "properties": {"ref": "31774", "@spider": "mistercarwash", "amenity": "car_wash", "addr:full": "594 East 16th Street", "addr:city": "Holland", "addr:state": "MI", "addr:postcode": "49423", "addr:country": "US", "name": "Mister Car Wash", "phone": "button{ white-space:pre;} .clear-inline{ display:inline-block; width:10px; } @media (max-width: 530px) { .clear-inline{ display:block; height:5px;} }</style><div class=\"info_content\"><h3><b>Holland</b></h3><div class=\"scroll-message\" style=\"margin-top:-45px; width:100%; text-align:center; font-size:14px\"><i>scroll for more info</i></div><div class=\"popup-address pup-info\"><b>594 East 16th Street, Holland, MI 49423, USA </b></div><div class=\"button-wrapper\"><a href=\"https://mistercarwash.com/location/holland/\" class=\"popup-button pop-button\" >Store Info</a><div class=\"clear-inline\"></div><a class=\"popup-button\" target=\"_blank\" href=\"http://maps.google.com/?q=594 East 16th Street, Holland, MI 49423, USA\">Directions</a></div><div class=\"popup-hours pup-info\"><b>Hours: </b>7:30am - 7:00pm Mon-Sat; 8:00am - 6:00pm Sun</div><div class=\"popup-phone pup-info\"><b>Phone: </b>616-258-2260</div><div class='services pup-info'><b>Services</b><ul class='service-icons'><li><a href='/services/exterior' class='exterior'>Exterior</a></li><li><a href='/services/unlimited-wash-club' class='unlimited-wash-club'>Unlimited Wash Club\u00ae</a></li></ul></div></di", "website": "http://mistercarwash.com/locations/holland", "opening_hours": "Mo-Sa 7:30-19:00;Su 8:00-18:00", "brand": "Mister Car Wash", "brand:wikidata": "Q114185788", "nsi_id": "mistercarwash-244496"}, "geometry": {"type": "Point", "coordinates": [-86.081222534, 42.783187866]}},
{"type": "Feature", "id": "61xmhowTvvgHe8VxF0YZdhL8jZY=", "properties": {"ref": "15377", "@spider": "mistercarwash", "amenity": "car_wash", "addr:full": "1780 Buford Highway", "addr:city": "Cumming", "addr:state": "GA", "addr:country": "US", "name": "Mister Car Wash", "phone": "button{ white-space:pre;} .clear-inline{ display:inline-block; width:10px; } @media (max-width: 530px) { .clear-inline{ display:block; height:5px;} }</style><div class=\"info_content\"><h3><b>Cumming</b></h3><div class=\"scroll-message\" style=\"margin-top:-45px; width:100%; text-align:center; font-size:14px\"><i>scroll for more info</i></div><div class=\"popup-address pup-info\"><b>1780 Buford Highway, Cumming, GA, United States </b></div><div class=\"button-wrapper\"><a href=\"https://mistercarwash.com/location/cumming/\" class=\"popup-button pop-button\" >Store Info</a><div class=\"clear-inline\"></div><a class=\"popup-button\" target=\"_blank\" href=\"http://maps.google.com/?q=1780 Buford Highway, Cumming, GA, United States\">Directions</a></div><div class=\"popup-hours pup-info\"><b>Hours: </b>7:30 am-7:00 pm Mon-Sat; 8:00 am-6:00 pm Sun</div><div class=\"popup-phone pup-info\"><b>Phone: </b>770-889-3322</div><div class='services pup-info'><b>Services</b><ul class='service-icons'><li><a href='/services/exterior' class='exterior'>Exterior</a></li><li><a href='/services/unlimited-wash-club' class='unlimited-wash-club'>Unlimited Wash Club\u00ae</a></li></ul></div></di", "website": "http://mistercarwash.com/locations/cumming", "opening_hours": "Mo-Sa 7:30-19:00;Su 8:00-18:00", "brand": "Mister Car Wash", "brand:wikidata": "Q114185788", "nsi_id": "mistercarwash-244496"}, "geometry": {"type": "Point", "coordinates": [-84.114898682, 34.160770416]}},
{"type": "Feature", "id": "9IN5UBLgxabtAni1tkqV3scCjI0=", "properties": {"ref": "15167", "@spider": "mistercarwash", "amenity": "car_wash", "addr:full": "2825 Buford Drive Northeast", "addr:city": "Buford", "addr:state": "GA", "addr:country": "US", "name": "Mister Car Wash", "phone": "button{ white-space:pre;} .clear-inline{ display:inline-block; width:10px; } @media (max-width: 530px) { .clear-inline{ display:block; height:5px;} }</style><div class=\"info_content\"><h3><b>Buford</b></h3><div class=\"scroll-message\" style=\"margin-top:-45px; width:100%; text-align:center; font-size:14px\"><i>scroll for more info</i></div><div class=\"popup-address pup-info\"><b>2825 Buford Drive Northeast, Buford, GA, United States </b></div><div class=\"button-wrapper\"><a href=\"https://mistercarwash.com/location/buford/\" class=\"popup-button pop-button\" >Store Info</a><div class=\"clear-inline\"></div><a class=\"popup-button\" target=\"_blank\" href=\"http://maps.google.com/?q=2825 Buford Drive Northeast, Buford, GA, United States\">Directions</a></div><div class=\"popup-hours pup-info\"><b>Hours: </b>7:30 am-7:00 pm Mon-Sat; 8:00 am-6:00 pm Sun</div><div class=\"popup-phone pup-info\"><b>Phone: </b>770-614-9601</div><div class='services pup-info'><b>Services</b><ul class='service-icons'><li><a href='/services/exterior' class='exterior'>Exterior</a></li><li><a href='/services/unlimited-wash-club' class='unlimited-wash-club'>Unlimited Wash Club\u00ae</a></li></ul></div></di", "website": "http://mistercarwash.com/locations/buford", "opening_hours": "Mo-Sa 7:30-19:00;Su 8:00-18:00", "brand": "Mister Car Wash", "brand:wikidata": "Q114185788", "nsi_id": "mistercarwash-244496"}, "geometry": {"type": "Point", "coordinates": [-83.992515564, 34.048725128]}},
{"type": "Feature", "id": "glAk9EjP28eG5xf64B3aAs0FO40=", "properties": {"ref": "17514", "@spider": "mistercarwash", "amenity": "car_wash", "addr:full": "170 Martin Luther King Junior Boulevard", "addr:city": "Monroe", "addr:state": "GA", "addr:country": "US", "name": "Mister Car Wash", "phone": "button{ white-space:pre;} .clear-inline{ display:inline-block; width:10px; } @media (max-width: 530px) { .clear-inline{ display:block; height:5px;} }</style><div class=\"info_content\"><h3><b>Monroe</b></h3><div class=\"scroll-message\" style=\"margin-top:-45px; width:100%; text-align:center; font-size:14px\"><i>scroll for more info</i></div><div class=\"popup-address pup-info\"><b>170 Martin Luther King Junior Boulevard, Monroe, GA, USA </b></div><div class=\"button-wrapper\"><a href=\"https://mistercarwash.com/location/monroe/\" class=\"popup-button pop-button\" >Store Info</a><div class=\"clear-inline\"></div><a class=\"popup-button\" target=\"_blank\" href=\"http://maps.google.com/?q=170 Martin Luther King Junior Boulevard, Monroe, GA, USA\">Directions</a></div><div class=\"popup-hours pup-info\"><b>Hours: </b>7:30 am-7:00 pm Mon-Sat; 8:00 am-6:00 pm Sun</div><div class=\"popup-phone pup-info\"><b>Phone: </b>770-207-1900</div><div class='services pup-info'><b>Services</b><ul class='service-icons'><li><a href='/services/exterior' class='exterior'>Exterior</a></li><li><a href='/services/unlimited-wash-club' class='unlimited-wash-club'>Unlimited Wash Club\u00ae</a></li></ul></div></di", "website": "http://mistercarwash.com/locations/monroe", "opening_hours": "Mo-Sa 7:30-19:00;Su 8:00-18:00", "brand": "Mister Car Wash", "brand:wikidata": "Q114185788", "nsi_id": "mistercarwash-244496"}, "geometry": {"type": "Point", "coordinates": [-83.744537354, 33.793392181]}},
{"type": "Feature", "id": "Gzg_Ybmk05LxB_n3cEhEPekTB4w=", "properties": {"ref": "17278", "@spider": "mistercarwash", "amenity": "car_wash", "addr:full": "930 Peachtree Parkway", "addr:city": "Cumming", "addr:state": "GA", "addr:country": "US", "name": "Mister Car Wash", "phone": "button{ white-space:pre;} .clear-inline{ display:inline-block; width:10px; } @media (max-width: 530px) { .clear-inline{ display:block; height:5px;} }</style><div class=\"info_content\"><h3><b>Peachtree</b></h3><div class=\"scroll-message\" style=\"margin-top:-45px; width:100%; text-align:center; font-size:14px\"><i>scroll for more info</i></div><div class=\"popup-address pup-info\"><b>930 Peachtree Parkway, Cumming, GA, USA </b></div><div class=\"button-wrapper\"><a href=\"https://mistercarwash.com/location/peachtree/\" class=\"popup-button pop-button\" >Store Info</a><div class=\"clear-inline\"></div><a class=\"popup-button\" target=\"_blank\" href=\"http://maps.google.com/?q=930 Peachtree Parkway, Cumming, GA, USA\">Directions</a></div><div class=\"popup-hours pup-info\"><b>Hours: </b>7:30 am-7:00 pm Mon-Sat; 8:00 am-6:00 pm Sun</div><div class=\"popup-phone pup-info\"><b>Phone: </b>678-771-8783</div><div class='services pup-info'><b>Services</b><ul class='service-icons'><li><a href='/services/exterior' class='exterior'>Exterior</a></li><li><a href='/services/unlimited-wash-club' class='unlimited-wash-club'>Unlimited Wash Club\u00ae</a></li></ul></div></di", "website": "http://mistercarwash.com/locations/peachtree", "opening_hours": "Mo-Sa 7:30-19:00;Su 8:00-18:00", "brand": "Mister Car Wash", "brand:wikidata": "Q114185788", "nsi_id": "mistercarwash-244496"}, "geometry": {"type": "Point", "coordinates": [-84.17326355, 34.139591217]}},
{"type": "Feature", "id": "4jIxIIGSHesQ3LsFkO0nR0_sYk0=", "properties": {"ref": "19286", "@spider": "mistercarwash", "amenity": "car_wash", "addr:full": "11110 State Bridge Road", "addr:city": "Johns Creek", "addr:state": "GA", "addr:country": "US", "name": "Mister Car Wash", "phone": "(678) 871-13-92", "website": "http://mistercarwash.com/locations/state-bridge", "opening_hours": "Mo-Sa 7:30-19:00;Su 8:00-18:00", "brand": "Mister Car Wash", "brand:wikidata": "Q114185788", "nsi_id": "mistercarwash-244496"}, "geometry": {"type": "Point", "coordinates": [-84.230476379, 34.055740356]}},
{"type": "Feature", "id": "cKpwnt4xaX2ebM0oxhJKAy9WdCM=", "properties": {"ref": "31620", "@spider": "mistercarwash", "amenity": "car_wash", "addr:full": "2350 Pleasant Hill Road", "addr:city": "Duluth", "addr:state": "GA", "addr:country": "US", "name": "Mister Car Wash", "phone": "button{ white-space:pre;} .clear-inline{ display:inline-block; width:10px; } @media (max-width: 530px) { .clear-inline{ display:block; height:5px;} }</style><div class=\"info_content\"><h3><b>Pleasant Hill Rd - Coming Soon!</b></h3><div class=\"scroll-message\" style=\"margin-top:-45px; width:100%; text-align:center; font-size:14px\"><i>scroll for more info</i></div><div class=\"popup-address pup-info\"><b>2350 Pleasant Hill Road, Duluth, GA, USA </b></div><div class=\"button-wrapper\"><a href=\"https://mistercarwash.com/location/pleasant-hill-rd/\" class=\"popup-button pop-button\" >Store Info</a><div class=\"clear-inline\"></div><a class=\"popup-button\" target=\"_blank\" href=\"http://maps.google.com/?q=2350 Pleasant Hill Road, Duluth, GA, USA\">Directions</a></div><div class=\"popup-hours pup-info\"><b>Hours: </b>7:30 am-7:00 pm Mon-Sat; 8:00 am-6:00 pm Sun</div><div class=\"popup-phone pup-info\"><b>Phone: </b></div><div class='services pup-info'><b>Services</b><ul class='service-icons'><li><a href='/services/exterior' class='exterior'>Exterior</a></li><li><a href='/services/unlimited-wash-club' class='unlimited-wash-club'>Unlimited Wash Club\u00ae</a></li></ul></div></di", "website": "http://mistercarwash.com/locations/pleasant-hill-rd---coming-soon!", "opening_hours": "Mo-Sa 7:30-19:00;Su 8:00-18:00", "brand": "Mister Car Wash", "brand:wikidata": "Q114185788", "nsi_id": "mistercarwash-244496"}, "geometry": {"type": "Point", "coordinates": [-84.13973999, 33.964672089]}},
{"type": "Feature", "id": "yEjppC8Rc9lDSLkZt6F2CVV9EEw=", "properties": {"ref": "19284", "@spider": "mistercarwash", "amenity": "car_wash", "addr:full": "651 Riverstone Pkwy", "addr:city": "Canton", "addr:state": "GA", "addr:country": "US", "name": "Mister Car Wash", "phone": "button{ white-space:pre;} .clear-inline{ display:inline-block; width:10px; } @media (max-width: 530px) { .clear-inline{ display:block; height:5px;} }</style><div class=\"info_content\"><h3><b>Riverstone</b></h3><div class=\"scroll-message\" style=\"margin-top:-45px; width:100%; text-align:center; font-size:14px\"><i>scroll for more info</i></div><div class=\"popup-address pup-info\"><b>651 Riverstone Pkwy, Canton, GA, USA </b></div><div class=\"button-wrapper\"><a href=\"https://mistercarwash.com/location/riverstone/\" class=\"popup-button pop-button\" >Store Info</a><div class=\"clear-inline\"></div><a class=\"popup-button\" target=\"_blank\" href=\"http://maps.google.com/?q=651 Riverstone Pkwy, Canton, GA, USA\">Directions</a></div><div class=\"popup-hours pup-info\"><b>Hours: </b>7:30 am-7:00 pm Mon-Sat; 8:00 am-6:00 pm Sun</div><div class=\"popup-phone pup-info\"><b>Phone: </b>678-493-0956</div><div class='services pup-info'><b>Services</b><ul class='service-icons'><li><a href='/services/exterior' class='exterior'>Exterior</a></li><li><a href='/services/unlimited-wash-club' class='unlimited-wash-club'>Unlimited Wash Club\u00ae</a></li></ul></div></di", "website": "http://mistercarwash.com/locations/riverstone", "opening_hours": "Mo-Sa 7:30-19:00;Su 8:00-18:00", "brand": "Mister Car Wash", "brand:wikidata": "Q114185788", "nsi_id": "mistercarwash-244496"}, "geometry": {"type": "Point", "coordinates": [-84.482192993, 34.246231079]}},
{"type": "Feature", "id": "Z2UDqR5qNHqwa3Mw2V-CQWbUMwk=", "properties": {"ref": "3535", "@spider": "mistercarwash", "amenity": "car_wash", "addr:full": "4850 Stone Mountain Highway", "addr:city": "Lilburn", "addr:state": "GA", "addr:country": "US", "name": "Mister Car Wash", "phone": "button{ white-space:pre;} .clear-inline{ display:inline-block; width:10px; } @media (max-width: 530px) { .clear-inline{ display:block; height:5px;} }</style><div class=\"info_content\"><h3><b>Stone Mountain</b></h3><div class=\"scroll-message\" style=\"margin-top:-45px; width:100%; text-align:center; font-size:14px\"><i>scroll for more info</i></div><div class=\"popup-address pup-info\"><b>4850 Stone Mountain Highway, Lilburn, GA, United States </b></div><div class=\"button-wrapper\"><a href=\"https://mistercarwash.com/location/stone-mountain/\" class=\"popup-button pop-button\" >Store Info</a><div class=\"clear-inline\"></div><a class=\"popup-button\" target=\"_blank\" href=\"http://maps.google.com/?q=4850 Stone Mountain Highway, Lilburn, GA, United States\">Directions</a></div><div class=\"popup-hours pup-info\"><b>Hours: </b>7:30 am-7:00 pm Mon-Sat; 8:00 am-6:00 pm Sun</div><div class=\"popup-phone pup-info\"><b>Phone: </b>770-661-7058</div><div class='services pup-info'><b>Services</b><ul class='service-icons'><li><a href='/services/exterior' class='exterior'>Exterior</a></li><li><a href='/services/unlimited-wash-club' class='unlimited-wash-club'>Unlimited Wash Club\u00ae</a></li></ul></div></di", "website": "http://mistercarwash.com/locations/stone-mountain", "opening_hours": "Mo-Sa 7:30-19:00;Su 8:00-18:00", "brand": "Mister Car Wash", "brand:wikidata": "Q114185788", "nsi_id": "mistercarwash-244496"}, "geometry": {"type": "Point", "coordinates": [-84.09627533, 33.826637268]}},
{"type": "Feature", "id": "MX8nujkA5eFwHUSPaZinBrIHeSE=", "properties": {"ref": "12988", "@spider": "mistercarwash", "amenity": "car_wash", "addr:full": "3261 Hwy 278 NE", "addr:city": "Covington", "addr:state": "GA", "addr:country": "US", "name": "Mister Car Wash", "phone": "button{ white-space:pre;} .clear-inline{ display:inline-block; width:10px; } @media (max-width: 530px) { .clear-inline{ display:block; height:5px;} }</style><div class=\"info_content\"><h3><b>Covington</b></h3><div class=\"scroll-message\" style=\"margin-top:-45px; width:100%; text-align:center; font-size:14px\"><i>scroll for more info</i></div><div class=\"popup-address pup-info\"><b>3261 Hwy 278 NE, Covington, GA, United States </b></div><div class=\"button-wrapper\"><a href=\"https://mistercarwash.com/location/covington/\" class=\"popup-button pop-button\" >Store Info</a><div class=\"clear-inline\"></div><a class=\"popup-button\" target=\"_blank\" href=\"http://maps.google.com/?q=3261 Hwy 278 NE, Covington, GA, United States\">Directions</a></div><div class=\"popup-hours pup-info\"><b>Hours: </b>7:30 am-7:00 pm Mon-Sat; 8:00 am-6:00 pm Sun</div><div class=\"popup-phone pup-info\"><b>Phone: </b>770-788-0033</div><div class='services pup-info'><b>Services</b><ul class='service-icons'><li><a href='/services/exterior' class='exterior'>Exterior</a></li><li><a href='/services/unlimited-wash-club' class='unlimited-wash-club'>Unlimited Wash Club\u00ae</a></li></ul></div></di", "website": "http://mistercarwash.com/locations/covington", "opening_hours": "Mo-Sa 7:30-19:00;Su 8:00-18:00", "brand": "Mister Car Wash", "brand:wikidata": "Q114185788", "nsi_id": "mistercarwash-244496"}, "geometry": {"type": "Point", "coordinates": [-83.856155396, 33.60294342]}},
{"type": "Feature", "id": "FFjqVauxWBWlIvCvzIJ4WctWSnc=", "properties": {"ref": "12986", "@spider": "mistercarwash", "amenity": "car_wash", "addr:full": "2281 Georgia 20", "addr:city": "Conyers", "addr:state": "GA", "addr:country": "US", "name": "Mister Car Wash", "phone": "button{ white-space:pre;} .clear-inline{ display:inline-block; width:10px; } @media (max-width: 530px) { .clear-inline{ display:block; height:5px;} }</style><div class=\"info_content\"><h3><b>Conyers</b></h3><div class=\"scroll-message\" style=\"margin-top:-45px; width:100%; text-align:center; font-size:14px\"><i>scroll for more info</i></div><div class=\"popup-address pup-info\"><b>2281 Georgia 20, Conyers, GA, USA </b></div><div class=\"button-wrapper\"><a href=\"https://mistercarwash.com/location/conyers/\" class=\"popup-button pop-button\" >Store Info</a><div class=\"clear-inline\"></div><a class=\"popup-button\" target=\"_blank\" href=\"http://maps.google.com/?q=2281 Georgia 20, Conyers, GA, USA\">Directions</a></div><div class=\"popup-hours pup-info\"><b>Hours: </b>7:30 am-7:00 pm Mon-Sat; 8:00 am-6:00 pm Sun</div><div class=\"popup-phone pup-info\"><b>Phone: </b>770-760-7074</div><div class='services pup-info'><b>Services</b><ul class='service-icons'><li><a href='/services/exterior' class='exterior'>Exterior</a></li><li><a href='/services/unlimited-wash-club' class='unlimited-wash-club'>Unlimited Wash Club\u00ae</a></li></ul></div></di", "website": "http://mistercarwash.com/locations/conyers", "opening_hours": "Mo-Sa 7:30-19:00;Su 8:00-18:00", "brand": "Mister Car Wash", "brand:wikidata": "Q114185788", "nsi_id": "mistercarwash-244496"}, "geometry": {"type": "Point", "coordinates": [-84.014717102, 33.629329681]}},
{"type": "Feature", "id": "bBvwFgbCKraHdLGR4q9P0FZrGaA=", "properties": {"ref": "3643", "@spider": "mistercarwash", "amenity": "car_wash", "addr:full": "941 Memory Ln", "addr:city": "Gallatin", "addr:state": "TN", "addr:postcode": "37066", "addr:country": "US", "name": "Mister Car Wash", "phone": "button{ white-space:pre;} .clear-inline{ display:inline-block; width:10px; } @media (max-width: 530px) { .clear-inline{ display:block; height:5px;} }</style><div class=\"info_content\"><h3><b>Gallatin</b></h3><div class=\"scroll-message\" style=\"margin-top:-45px; width:100%; text-align:center; font-size:14px\"><i>scroll for more info</i></div><div class=\"popup-address pup-info\"><b>941 Memory Ln, Gallatin, TN 37066, USA </b></div><div class=\"button-wrapper\"><a href=\"https://mistercarwash.com/location/gallatin/\" class=\"popup-button pop-button\" >Store Info</a><div class=\"clear-inline\"></div><a class=\"popup-button\" target=\"_blank\" href=\"http://maps.google.com/?q=941 Memory Ln, Gallatin, TN 37066, USA\">Directions</a></div><div class=\"popup-hours pup-info\"><b>Hours: </b>7:30 am-7:00 pm Mon-Sat; 8:00 am-6:00 pm Sun</div><div class=\"popup-phone pup-info\"><b>Phone: </b>615-451-0730</div><div class='services pup-info'><b>Services</b><ul class='service-icons'><li><a href='/services/exterior' class='exterior'>Exterior</a></li><li><a href='/services/unlimited-wash-club' class='unlimited-wash-club'>Unlimited Wash Club\u00ae</a></li></ul></div></di", "website": "http://mistercarwash.com/locations/gallatin", "opening_hours": "Mo-Sa 7:30-19:00;Su 8:00-18:00", "brand": "Mister Car Wash", "brand:wikidata": "Q114185788", "nsi_id": "mistercarwash-244496"}, "geometry": {"type": "Point", "coordinates": [-86.492172241, 36.363800049]}},
{"type": "Feature", "id": "Xy7EeeZR6FWOHVMbb_nTHfRT_CE=", "properties": {"ref": "3537", "@spider": "mistercarwash", "amenity": "car_wash", "addr:full": "2980 Piedmont Road Northeast", "addr:city": "Atlanta", "addr:state": "GA", "addr:country": "US", "name": "Mister Car Wash", "phone": "button{ white-space:pre;} .clear-inline{ display:inline-block; width:10px; } @media (max-width: 530px) { .clear-inline{ display:block; height:5px;} }</style><div class=\"info_content\"><h3><b>Piedmont</b></h3><div class=\"scroll-message\" style=\"margin-top:-45px; width:100%; text-align:center; font-size:14px\"><i>scroll for more info</i></div><div class=\"popup-address pup-info\"><b>2980 Piedmont Road Northeast, Atlanta, GA, United States </b></div><div class=\"button-wrapper\"><a href=\"https://mistercarwash.com/location/piedmont/\" class=\"popup-button pop-button\" >Store Info</a><div class=\"clear-inline\"></div><a class=\"popup-button\" target=\"_blank\" href=\"http://maps.google.com/?q=2980 Piedmont Road Northeast, Atlanta, GA, United States\">Directions</a></div><div class=\"popup-hours pup-info\"><b>Hours: </b>7:30 am-6:00 pm Mon-Sat; 8:00 am-6:00 pm Sun</div><div class=\"popup-phone pup-info\"><b>Phone: </b>404-846-4040</div><div class='services pup-info'><b>Services</b><ul class='service-icons'><li><a href='/services/exterior' class='exterior'>Exterior</a></li><li><a href='/services/detail' class='detail'>Interior</a></li><li><a href='/services/unlimited-wash-club' class='unlimited-wash-club'>Unlimited Wash Club\u00ae</a></li><li><a href='/services/express-detail' class='express-detail'>Express Detail</a></li></ul></div></di", "website": "http://mistercarwash.com/locations/piedmont", "opening_hours": "Mo-Sa 7:30-18:00;Su 8:00-18:00", "brand": "Mister Car Wash", "brand:wikidata": "Q114185788", "nsi_id": "mistercarwash-244496"}, "geometry": {"type": "Point", "coordinates": [-84.368339539, 33.835826874]}},
{"type": "Feature", "id": "rjS4-9BxWyP7bPU-xtzYC-lEkms=", "properties": {"ref": "3538", "@spider": "mistercarwash", "amenity": "car_wash", "addr:full": "575 Ponce De Leon Ave", "addr:city": "Atlanta", "addr:state": "GA", "addr:country": "US", "name": "Mister Car Wash", "phone": "button{ white-space:pre;} .clear-inline{ display:inline-block; width:10px; } @media (max-width: 530px) { .clear-inline{ display:block; height:5px;} }</style><div class=\"info_content\"><h3><b>Ponce</b></h3><div class=\"scroll-message\" style=\"margin-top:-45px; width:100%; text-align:center; font-size:14px\"><i>scroll for more info</i></div><div class=\"popup-address pup-info\"><b>575 Ponce De Leon Ave, Atlanta, GA, United States </b></div><div class=\"button-wrapper\"><a href=\"https://mistercarwash.com/location/ponce/\" class=\"popup-button pop-button\" >Store Info</a><div class=\"clear-inline\"></div><a class=\"popup-button\" target=\"_blank\" href=\"http://maps.google.com/?q=575 Ponce De Leon Ave, Atlanta, GA, United States\">Directions</a></div><div class=\"popup-hours pup-info\"><b>Hours: </b>7:30 am-6:00 pm Mon-Sat; 8:00 am-6:00 pm Sun</div><div class=\"popup-phone pup-info\"><b>Phone: </b>404-876-3232</div><div class='services pup-info'><b>Services</b><ul class='service-icons'><li><a href='/services/exterior' class='exterior'>Exterior</a></li><li><a href='/services/detail' class='detail'>Interior</a></li><li><a href='/services/unlimited-wash-club' class='unlimited-wash-club'>Unlimited Wash Club\u00ae</a></li><li><a href='/services/express-detail' class='express-detail'>Express Detail</a></li></ul></div></di", "website": "http://mistercarwash.com/locations/ponce", "opening_hours": "Mo-Sa 7:30-18:00;Su 8:00-18:00", "brand": "Mister Car Wash", "brand:wikidata": "Q114185788", "nsi_id": "mistercarwash-244496"}, "geometry": {"type": "Point", "coordinates": [-84.368186951, 33.773059845]}},
{"type": "Feature", "id": "csK7CCM0fDTfhXIepM8db7s9YSE=", "properties": {"ref": "12003", "@spider": "mistercarwash", "amenity": "car_wash", "addr:full": "3530 Cobb Pkwy NW", "addr:city": "Acworth", "addr:state": "GA", "addr:postcode": "30101", "addr:country": "US", "name": "Mister Car Wash", "phone": "(678) 213-13-13", "website": "http://mistercarwash.com/locations/acworth", "opening_hours": "Mo-Sa 7:30-19:00;Su 8:00-18:00", "brand": "Mister Car Wash", "brand:wikidata": "Q114185788", "nsi_id": "mistercarwash-244496"}, "geometry": {"type": "Point", "coordinates": [-84.691894531, 34.040397644]}},
{"type": "Feature", "id": "JhgZ-xgdwPTjoziXij26MeoPLAE=", "properties": {"ref": "12011", "@spider": "mistercarwash", "amenity": "car_wash", "addr:full": "3330 Dallas Hwy", "addr:city": "Marietta", "addr:state": "GA", "addr:country": "US", "name": "Mister Car Wash", "phone": "(678) 213-10-29", "website": "http://mistercarwash.com/locations/marietta", "opening_hours": "Mo-Sa 7:30-19:00;Su 8:00-18:00", "brand": "Mister Car Wash", "brand:wikidata": "Q114185788", "nsi_id": "mistercarwash-244496"}, "geometry": {"type": "Point", "coordinates": [-84.647705078, 33.953304291]}},
{"type": "Feature", "id": "2ebv8vvZmSI8LP8yl_fEBCMJ-aU=", "properties": {"ref": "3654", "@spider": "mistercarwash", "amenity": "car_wash", "addr:full": "457 N Mt Juliet Rd", "addr:city": "Mt Juliet", "addr:state": "TN", "addr:postcode": "37122", "addr:country": "US", "name": "Mister Car Wash", "phone": "button{ white-space:pre;} .clear-inline{ display:inline-block; width:10px; } @media (max-width: 530px) { .clear-inline{ display:block; height:5px;} }</style><div class=\"info_content\"><h3><b>Mount Juliet</b></h3><div class=\"scroll-message\" style=\"margin-top:-45px; width:100%; text-align:center; font-size:14px\"><i>scroll for more info</i></div><div class=\"popup-address pup-info\"><b>457 N Mt Juliet Rd, Mt Juliet, TN 37122, USA </b></div><div class=\"button-wrapper\"><a href=\"https://mistercarwash.com/location/mount-juliet/\" class=\"popup-button pop-button\" >Store Info</a><div class=\"clear-inline\"></div><a class=\"popup-button\" target=\"_blank\" href=\"http://maps.google.com/?q=457 N Mt Juliet Rd, Mt Juliet, TN 37122, USA\">Directions</a></div><div class=\"popup-hours pup-info\"><b>Hours: </b>7:30 am-7:00 pm Mon-Sat; 8:00 am-6:00 pm Sun</div><div class=\"popup-phone pup-info\"><b>Phone: </b>615-773-5246</div><div class='services pup-info'><b>Services</b><ul class='service-icons'><li><a href='/services/exterior' class='exterior'>Exterior</a></li><li><a href='/services/unlimited-wash-club' class='unlimited-wash-club'>Unlimited Wash Club\u00ae</a></li></ul></div></di", "website": "http://mistercarwash.com/locations/mount-juliet", "opening_hours": "Mo-Sa 7:30-19:00;Su 8:00-18:00", "brand": "Mister Car Wash", "brand:wikidata": "Q114185788", "nsi_id": "mistercarwash-244496"}, "geometry": {"type": "Point", "coordinates": [-86.512329102, 36.177272797]}},
{"type": "Feature", "id": "dGHYgssenvqlP4ObsWyzazuwTTQ=", "properties": {"ref": "3655", "@spider": "mistercarwash", "amenity": "car_wash", "addr:full": "223 E Main St", "addr:city": "Hendersonville", "addr:state": "TN", "addr:postcode": "37075", "addr:country": "US", "name": "Mister Car Wash", "phone": "button{ white-space:pre;} .clear-inline{ display:inline-block; width:10px; } @media (max-width: 530px) { .clear-inline{ display:block; height:5px;} }</style><div class=\"info_content\"><h3><b>Hendersonville</b></h3><div class=\"scroll-message\" style=\"margin-top:-45px; width:100%; text-align:center; font-size:14px\"><i>scroll for more info</i></div><div class=\"popup-address pup-info\"><b>223 E Main St, Hendersonville, TN 37075, USA </b></div><div class=\"button-wrapper\"><a href=\"https://mistercarwash.com/location/hendersonville/\" class=\"popup-button pop-button\" >Store Info</a><div class=\"clear-inline\"></div><a class=\"popup-button\" target=\"_blank\" href=\"http://maps.google.com/?q=223 E Main St, Hendersonville, TN 37075, USA\">Directions</a></div><div class=\"popup-hours pup-info\"><b>Hours: </b>7:30 am-7:00 pm Mon-Sat; 8:00 am-6:00 pm Sun</div><div class=\"popup-phone pup-info\"><b>Phone: </b>615-822-8627</div><div class='services pup-info'><b>Services</b><ul class='service-icons'><li><a href='/services/exterior' class='exterior'>Exterior</a></li><li><a href='/services/unlimited-wash-club' class='unlimited-wash-club'>Unlimited Wash Club\u00ae</a></li></ul></div></di", "website": "http://mistercarwash.com/locations/hendersonville", "opening_hours": "Mo-Sa 7:30-19:00;Su 8:00-18:00", "brand": "Mister Car Wash", "brand:wikidata": "Q114185788", "nsi_id": "mistercarwash-244496"}, "geometry": {"type": "Point", "coordinates": [-86.603050232, 36.30865097]}},
{"type": "Feature", "id": "yhoyC4vGNOT4icKIs6nw3cbFQYE=", "properties": {"ref": "3648", "@spider": "mistercarwash", "amenity": "car_wash", "addr:full": "3337 Memorial Blvd", "addr:city": "Murfreesboro", "addr:state": "TN", "addr:postcode": "37129", "addr:country": "US", "name": "Mister Car Wash", "phone": "button{ white-space:pre;} .clear-inline{ display:inline-block; width:10px; } @media (max-width: 530px) { .clear-inline{ display:block; height:5px;} }</style><div class=\"info_content\"><h3><b>Murfreesboro</b></h3><div class=\"scroll-message\" style=\"margin-top:-45px; width:100%; text-align:center; font-size:14px\"><i>scroll for more info</i></div><div class=\"popup-address pup-info\"><b>3337 Memorial Blvd, Murfreesboro, TN 37129, USA </b></div><div class=\"button-wrapper\"><a href=\"https://mistercarwash.com/location/murfreesboro/\" class=\"popup-button pop-button\" >Store Info</a><div class=\"clear-inline\"></div><a class=\"popup-button\" target=\"_blank\" href=\"http://maps.google.com/?q=3337 Memorial Blvd, Murfreesboro, TN 37129, USA\">Directions</a></div><div class=\"popup-hours pup-info\"><b>Hours: </b>7:30 am-7:00 pm Mon-Sat; 8:00 am-6:00 pm Sun</div><div class=\"popup-phone pup-info\"><b>Phone: </b>615-848-1577</div><div class='services pup-info'><b>Services</b><ul class='service-icons'><li><a href='/services/exterior' class='exterior'>Exterior</a></li><li><a href='/services/unlimited-wash-club' class='unlimited-wash-club'>Unlimited Wash Club\u00ae</a></li></ul></div></di", "website": "http://mistercarwash.com/locations/murfreesboro", "opening_hours": "Mo-Sa 7:30-19:00;Su 8:00-18:00", "brand": "Mister Car Wash", "brand:wikidata": "Q114185788", "nsi_id": "mistercarwash-244496"}, "geometry": {"type": "Point", "coordinates": [-86.384300232, 35.907970428]}},
{"type": "Feature", "id": "tAx7jWKkWOVHZolmv25yOEV8fP4=", "properties": {"ref": "3644", "@spider": "mistercarwash", "amenity": "car_wash", "addr:full": "4841 Lebanon Pike", "addr:city": "Hermitage", "addr:state": "TN", "addr:postcode": "37076", "addr:country": "US", "name": "Mister Car Wash", "phone": "button{ white-space:pre;} .clear-inline{ display:inline-block; width:10px; } @media (max-width: 530px) { .clear-inline{ display:block; height:5px;} }</style><div class=\"info_content\"><h3><b>Hermitage</b></h3><div class=\"scroll-message\" style=\"margin-top:-45px; width:100%; text-align:center; font-size:14px\"><i>scroll for more info</i></div><div class=\"popup-address pup-info\"><b>4841 Lebanon Pike, Hermitage, TN 37076, USA </b></div><div class=\"button-wrapper\"><a href=\"https://mistercarwash.com/location/hermitage/\" class=\"popup-button pop-button\" >Store Info</a><div class=\"clear-inline\"></div><a class=\"popup-button\" target=\"_blank\" href=\"http://maps.google.com/?q=4841 Lebanon Pike, Hermitage, TN 37076, USA\">Directions</a></div><div class=\"popup-hours pup-info\"><b>Hours: </b>7:30 am-7:00 pm Mon-Sat; 8:00 am-6:00 pm Sun</div><div class=\"popup-phone pup-info\"><b>Phone: </b>615-889-4889</div><div class='services pup-info'><b>Services</b><ul class='service-icons'><li><a href='/services/exterior' class='exterior'>Exterior</a></li><li><a href='/services/unlimited-wash-club' class='unlimited-wash-club'>Unlimited Wash Club\u00ae</a></li></ul></div></di", "website": "http://mistercarwash.com/locations/hermitage", "opening_hours": "Mo-Sa 7:30-19:00;Su 8:00-18:00", "brand": "Mister Car Wash", "brand:wikidata": "Q114185788", "nsi_id": "mistercarwash-244496"}, "geometry": {"type": "Point", "coordinates": [-86.585494995, 36.216602325]}},
{"type": "Feature", "id": "HkQ5kpHzdo8T6N88nGtKW3-YWeo=", "properties": {"ref": "17695", "@spider": "mistercarwash", "amenity": "car_wash", "addr:full": "44 Aspen Drive, Dallas", "addr:city": "Georgia,", "addr:state": "US", "addr:country": "US", "name": "Mister Car Wash", "phone": "(770) 779-81-76", "website": "http://mistercarwash.com/locations/aspen-drive", "opening_hours": "Mo-Sa 7:30-19:00;Su 8:00-18:00", "brand": "Mister Car Wash", "brand:wikidata": "Q114185788", "nsi_id": "mistercarwash-244496"}, "geometry": {"type": "Point", "coordinates": [-84.731903076, 33.932907104]}},
{"type": "Feature", "id": "al_cE2WALAu_7fVe1qUYSa8tUbg=", "properties": {"ref": "12215", "@spider": "mistercarwash", "amenity": "car_wash", "addr:full": "2239 Gallatin Pike N, TN", "addr:city": "United", "addr:state": "St", "addr:country": "US", "name": "Mister Car Wash", "phone": "button{ white-space:pre;} .clear-inline{ display:inline-block; width:10px; } @media (max-width: 530px) { .clear-inline{ display:block; height:5px;} }</style><div class=\"info_content\"><h3><b>Northside</b></h3><div class=\"scroll-message\" style=\"margin-top:-45px; width:100%; text-align:center; font-size:14px\"><i>scroll for more info</i></div><div class=\"popup-address pup-info\"><b>2239 Gallatin Pike N, TN, United States </b></div><div class=\"button-wrapper\"><a href=\"https://mistercarwash.com/location/northside/\" class=\"popup-button pop-button\" >Store Info</a><div class=\"clear-inline\"></div><a class=\"popup-button\" target=\"_blank\" href=\"http://maps.google.com/?q=2239 Gallatin Pike N, TN, United States\">Directions</a></div><div class=\"popup-hours pup-info\"><b>Hours: </b>7:30 am-7:00 pm Mon-Sat; 8:00 am-6:00 pm Sun</div><div class=\"popup-phone pup-info\"><b>Phone: </b>615-859-6700</div><div class='services pup-info'><b>Services</b><ul class='service-icons'><li><a href='/services/exterior' class='exterior'>Exterior</a></li><li><a href='/services/unlimited-wash-club' class='unlimited-wash-club'>Unlimited Wash Club\u00ae</a></li></ul></div></di", "website": "http://mistercarwash.com/locations/northside", "opening_hours": "Mo-Sa 7:30-19:00;Su 8:00-18:00", "brand": "Mister Car Wash", "brand:wikidata": "Q114185788", "nsi_id": "mistercarwash-244496"}, "geometry": {"type": "Point", "coordinates": [-86.685661316, 36.306026459]}},
{"type": "Feature", "id": "qBiqeI2NOGvGeMQcyGOl3yXy-o0=", "properties": {"ref": "12009", "@spider": "mistercarwash", "amenity": "car_wash", "addr:full": "5651 Wendy Bagwell Parkway", "addr:city": "Hiram", "addr:state": "GA", "addr:country": "US", "name": "Mister Car Wash", "phone": "(770) 943-59-67", "website": "http://mistercarwash.com/locations/hiram", "opening_hours": "Mo-Sa 7:30-19:00;Su 8:00-18:00", "brand": "Mister Car Wash", "brand:wikidata": "Q114185788", "nsi_id": "mistercarwash-244496"}, "geometry": {"type": "Point", "coordinates": [-84.734962463, 33.885658264]}},
{"type": "Feature", "id": "NjRomA_XSyhj5un97kaQlR8hZeE=", "properties": {"ref": "3650", "@spider": "mistercarwash", "amenity": "car_wash", "addr:full": "1200 Needham Drive", "addr:city": "Smyrna", "addr:state": "TN", "addr:country": "US", "name": "Mister Car Wash", "phone": "button{ white-space:pre;} .clear-inline{ display:inline-block; width:10px; } @media (max-width: 530px) { .clear-inline{ display:block; height:5px;} }</style><div class=\"info_content\"><h3><b>Smyrna</b></h3><div class=\"scroll-message\" style=\"margin-top:-45px; width:100%; text-align:center; font-size:14px\"><i>scroll for more info</i></div><div class=\"popup-address pup-info\"><b>1200 Needham Drive, Smyrna, TN, United States </b></div><div class=\"button-wrapper\"><a href=\"https://mistercarwash.com/location/smyrna/\" class=\"popup-button pop-button\" >Store Info</a><div class=\"clear-inline\"></div><a class=\"popup-button\" target=\"_blank\" href=\"http://maps.google.com/?q=1200 Needham Drive, Smyrna, TN, United States\">Directions</a></div><div class=\"popup-hours pup-info\"><b>Hours: </b>7:30 am-7:00 pm Mon-Sat; 8:00 am-6:00 pm Sun</div><div class=\"popup-phone pup-info\"><b>Phone: </b>615-355-0154</div><div class='services pup-info'><b>Services</b><ul class='service-icons'><li><a href='/services/exterior' class='exterior'>Exterior</a></li><li><a href='/services/unlimited-wash-club' class='unlimited-wash-club'>Unlimited Wash Club\u00ae</a></li></ul></div></di", "website": "http://mistercarwash.com/locations/smyrna", "opening_hours": "Mo-Sa 7:30-19:00;Su 8:00-18:00", "brand": "Mister Car Wash", "brand:wikidata": "Q114185788", "nsi_id": "mistercarwash-244496"}, "geometry": {"type": "Point", "coordinates": [-86.545227051, 35.987686157]}},
{"type": "Feature", "id": "jZ6EO75veLOSfUpD15TyjnhsYTw=", "properties": {"ref": "3649", "@spider": "mistercarwash", "amenity": "car_wash", "addr:full": "3320 Franklin Road", "addr:city": "Murfreesboro", "addr:state": "TN", "addr:country": "US", "name": "Mister Car Wash", "phone": "button{ white-space:pre;} .clear-inline{ display:inline-block; width:10px; } @media (max-width: 530px) { .clear-inline{ display:block; height:5px;} }</style><div class=\"info_content\"><h3><b>Hwy 96</b></h3><div class=\"scroll-message\" style=\"margin-top:-45px; width:100%; text-align:center; font-size:14px\"><i>scroll for more info</i></div><div class=\"popup-address pup-info\"><b>3320 Franklin Road, Murfreesboro, TN, United States </b></div><div class=\"button-wrapper\"><a href=\"https://mistercarwash.com/location/hwy-96/\" class=\"popup-button pop-button\" >Store Info</a><div class=\"clear-inline\"></div><a class=\"popup-button\" target=\"_blank\" href=\"http://maps.google.com/?q=3320 Franklin Road, Murfreesboro, TN, United States\">Directions</a></div><div class=\"popup-hours pup-info\"><b>Hours: </b>7:30 am-7:00 pm Mon-Sat; 8:00 am-6:00 pm Sun</div><div class=\"popup-phone pup-info\"><b>Phone: </b>615-896-7550</div><div class='services pup-info'><b>Services</b><ul class='service-icons'><li><a href='/services/exterior' class='exterior'>Exterior</a></li><li><a href='/services/unlimited-wash-club' class='unlimited-wash-club'>Unlimited Wash Club\u00ae</a></li></ul></div></di", "website": "http://mistercarwash.com/locations/hwy-96", "opening_hours": "Mo-Sa 7:30-19:00;Su 8:00-18:00", "brand": "Mister Car Wash", "brand:wikidata": "Q114185788", "nsi_id": "mistercarwash-244496"}, "geometry": {"type": "Point", "coordinates": [-86.457099915, 35.845291138]}},
{"type": "Feature", "id": "F0y_D86vyr1bYe12miaM10LGMGY=", "properties": {"ref": "14893", "@spider": "mistercarwash", "amenity": "car_wash", "addr:full": "4201 Hurricane Creek Boulevard", "addr:city": "Antioch", "addr:state": "TN", "addr:country": "US", "name": "Mister Car Wash", "phone": "button{ white-space:pre;} .clear-inline{ display:inline-block; width:10px; } @media (max-width: 530px) { .clear-inline{ display:block; height:5px;} }</style><div class=\"info_content\"><h3><b>LaVergne</b></h3><div class=\"scroll-message\" style=\"margin-top:-45px; width:100%; text-align:center; font-size:14px\"><i>scroll for more info</i></div><div class=\"popup-address pup-info\"><b>4201 Hurricane Creek Boulevard, Antioch, TN, United States </b></div><div class=\"button-wrapper\"><a href=\"https://mistercarwash.com/location/lavergne-2/\" class=\"popup-button pop-button\" >Store Info</a><div class=\"clear-inline\"></div><a class=\"popup-button\" target=\"_blank\" href=\"http://maps.google.com/?q=4201 Hurricane Creek Boulevard, Antioch, TN, United States\">Directions</a></div><div class=\"popup-hours pup-info\"><b>Hours: </b>7:30 am-7:00 pm Mon-Sat; 8:00 am-6:00 pm Sun</div><div class=\"popup-phone pup-info\"><b>Phone: </b>615-641-6228</div><div class='services pup-info'><b>Services</b><ul class='service-icons'><li><a href='/services/exterior' class='exterior'>Exterior</a></li><li><a href='/services/unlimited-wash-club' class='unlimited-wash-club'>Unlimited Wash Club\u00ae</a></li></ul></div></di", "website": "http://mistercarwash.com/locations/lavergne", "opening_hours": "Mo-Sa 7:30-19:00;Su 8:00-18:00", "brand": "Mister Car Wash", "brand:wikidata": "Q114185788", "nsi_id": "mistercarwash-244496"}, "geometry": {"type": "Point", "coordinates": [-86.592193604, 36.029560089]}},
{"type": "Feature", "id": "mzXoUH1IjpNOt9t2GN4kNQoGKvs=", "properties": {"ref": "3645", "@spider": "mistercarwash", "amenity": "car_wash", "addr:full": "2130 Murfreesboro Pike", "addr:city": "Nashville", "addr:state": "TN", "addr:postcode": "37217", "addr:country": "US", "name": "Mister Car Wash", "phone": "button{ white-space:pre;} .clear-inline{ display:inline-block; width:10px; } @media (max-width: 530px) { .clear-inline{ display:block; height:5px;} }</style><div class=\"info_content\"><h3><b>Nashboro</b></h3><div class=\"scroll-message\" style=\"margin-top:-45px; width:100%; text-align:center; font-size:14px\"><i>scroll for more info</i></div><div class=\"popup-address pup-info\"><b>2130 Murfreesboro Pike, Nashville, TN 37217, USA </b></div><div class=\"button-wrapper\"><a href=\"https://mistercarwash.com/location/nashboro/\" class=\"popup-button pop-button\" >Store Info</a><div class=\"clear-inline\"></div><a class=\"popup-button\" target=\"_blank\" href=\"http://maps.google.com/?q=2130 Murfreesboro Pike, Nashville, TN 37217, USA\">Directions</a></div><div class=\"popup-hours pup-info\"><b>Hours: </b>7:30 am-7:00 pm Mon-Sat; 8:00 am-6:00 pm Sun</div><div class=\"popup-phone pup-info\"><b>Phone: </b>615-360-3490</div><div class='services pup-info'><b>Services</b><ul class='service-icons'><li><a href='/services/exterior' class='exterior'>Exterior</a></li><li><a href='/services/unlimited-wash-club' class='unlimited-wash-club'>Unlimited Wash Club\u00ae</a></li></ul></div></di", "website": "http://mistercarwash.com/locations/nashboro", "opening_hours": "Mo-Sa 7:30-19:00;Su 8:00-18:00", "brand": "Mister Car Wash", "brand:wikidata": "Q114185788", "nsi_id": "mistercarwash-244496"}, "geometry": {"type": "Point", "coordinates": [-86.651695251, 36.093166351]}},
{"type": "Feature", "id": "ngNCdKRwRs4a3Yi9janQs0VsU3o=", "properties": {"ref": "3536", "@spider": "mistercarwash", "amenity": "car_wash", "addr:full": "6165 Old National Highway", "addr:city": "College Park", "addr:state": "GA", "addr:country": "US", "name": "Mister Car Wash", "phone": "button{ white-space:pre;} .clear-inline{ display:inline-block; width:10px; } @media (max-width: 530px) { .clear-inline{ display:block; height:5px;} }</style><div class=\"info_content\"><h3><b>Old National</b></h3><div class=\"scroll-message\" style=\"margin-top:-45px; width:100%; text-align:center; font-size:14px\"><i>scroll for more info</i></div><div class=\"popup-address pup-info\"><b>6165 Old National Highway, College Park, GA, United States </b></div><div class=\"button-wrapper\"><a href=\"https://mistercarwash.com/location/old-national/\" class=\"popup-button pop-button\" >Store Info</a><div class=\"clear-inline\"></div><a class=\"popup-button\" target=\"_blank\" href=\"http://maps.google.com/?q=6165 Old National Highway, College Park, GA, United States\">Directions</a></div><div class=\"popup-hours pup-info\"><b>Hours: </b>7:30 am-7:00 pm Mon-Sat; 8:00 am-6:00 pm Sun</div><div class=\"popup-phone pup-info\"><b>Phone: </b>678-466-1875</div><div class='services pup-info'><b>Services</b><ul class='service-icons'><li><a href='/services/exterior' class='exterior'>Exterior</a></li><li><a href='/services/unlimited-wash-club' class='unlimited-wash-club'>Unlimited Wash Club\u00ae</a></li></ul></div></di", "website": "http://mistercarwash.com/locations/old-national", "opening_hours": "Mo-Sa 7:30-19:00;Su 8:00-18:00", "brand": "Mister Car Wash", "brand:wikidata": "Q114185788", "nsi_id": "mistercarwash-244496"}, "geometry": {"type": "Point", "coordinates": [-84.469261169, 33.587306976]}},
{"type": "Feature", "id": "J8QxnpDLlBk9yd9634k4UHd_3bE=", "properties": {"ref": "3656", "@spider": "mistercarwash", "amenity": "car_wash", "addr:full": "2831 Gallatin Pike", "addr:city": "Nashville", "addr:state": "TN", "addr:postcode": "37216", "addr:country": "US", "name": "Mister Car Wash", "phone": "button{ white-space:pre;} .clear-inline{ display:inline-block; width:10px; } @media (max-width: 530px) { .clear-inline{ display:block; height:5px;} }</style><div class=\"info_content\"><h3><b>East Nashville</b></h3><div class=\"scroll-message\" style=\"margin-top:-45px; width:100%; text-align:center; font-size:14px\"><i>scroll for more info</i></div><div class=\"popup-address pup-info\"><b>2831 Gallatin Pike, Nashville, TN 37216, USA </b></div><div class=\"button-wrapper\"><a href=\"https://mistercarwash.com/location/east-nashville/\" class=\"popup-button pop-button\" >Store Info</a><div class=\"clear-inline\"></div><a class=\"popup-button\" target=\"_blank\" href=\"http://maps.google.com/?q=2831 Gallatin Pike, Nashville, TN 37216, USA\">Directions</a></div><div class=\"popup-hours pup-info\"><b>Hours: </b>7:30 am-7:00 pm Mon-Sat; 8:00 am-6:00 pm Sun</div><div class=\"popup-phone pup-info\"><b>Phone: </b>615-226-2441</div><div class='services pup-info'><b>Services</b><ul class='service-icons'><li><a href='/services/exterior' class='exterior'>Exterior</a></li><li><a href='/services/unlimited-wash-club' class='unlimited-wash-club'>Unlimited Wash Club\u00ae</a></li></ul></div></di", "website": "http://mistercarwash.com/locations/east-nashville", "opening_hours": "Mo-Sa 7:30-19:00;Su 8:00-18:00", "brand": "Mister Car Wash", "brand:wikidata": "Q114185788", "nsi_id": "mistercarwash-244496"}, "geometry": {"type": "Point", "coordinates": [-86.739379883, 36.20243454]}},
{"type": "Feature", "id": "9WmD9MkepbyWCcxR2IsUqha6Uws=", "properties": {"ref": "3534", "@spider": "mistercarwash", "amenity": "car_wash", "addr:full": "11303 Tara Blvd", "addr:city": "Hampton", "addr:state": "GA", "addr:postcode": "30228", "addr:country": "US", "name": "Mister Car Wash", "phone": "button{ white-space:pre;} .clear-inline{ display:inline-block; width:10px; } @media (max-width: 530px) { .clear-inline{ display:block; height:5px;} }</style><div class=\"info_content\"><h3><b>Lovejoy</b></h3><div class=\"scroll-message\" style=\"margin-top:-45px; width:100%; text-align:center; font-size:14px\"><i>scroll for more info</i></div><div class=\"popup-address pup-info\"><b>11303 Tara Blvd, Hampton, GA 30228, USA </b></div><div class=\"button-wrapper\"><a href=\"https://mistercarwash.com/location/lovejoy/\" class=\"popup-button pop-button\" >Store Info</a><div class=\"clear-inline\"></div><a class=\"popup-button\" target=\"_blank\" href=\"http://maps.google.com/?q=11303 Tara Blvd, Hampton, GA 30228, USA\">Directions</a></div><div class=\"popup-hours pup-info\"><b>Hours: </b>7:30 am-7:00 pm Mon-Sat; 8:00 am-6:00 pm Sun</div><div class=\"popup-phone pup-info\"><b>Phone: </b>770-471-0019</div><div class='services pup-info'><b>Services</b><ul class='service-icons'><li><a href='/services/exterior' class='exterior'>Exterior</a></li><li><a href='/services/unlimited-wash-club' class='unlimited-wash-club'>Unlimited Wash Club\u00ae</a></li></ul></div></di", "website": "http://mistercarwash.com/locations/lovejoy", "opening_hours": "Mo-Sa 7:30-19:00;Su 8:00-18:00", "brand": "Mister Car Wash", "brand:wikidata": "Q114185788", "nsi_id": "mistercarwash-244496"}, "geometry": {"type": "Point", "coordinates": [-84.324874878, 33.446464539]}},
{"type": "Feature", "id": "BaJqIURRE0cfBVqZKFyu081KuN8=", "properties": {"ref": "3657", "@spider": "mistercarwash", "amenity": "car_wash", "addr:full": "4024 Nolensville Pike", "addr:city": "Nashville", "addr:state": "TN", "addr:country": "US", "name": "Mister Car Wash", "phone": "button{ white-space:pre;} .clear-inline{ display:inline-block; width:10px; } @media (max-width: 530px) { .clear-inline{ display:block; height:5px;} }</style><div class=\"info_content\"><h3><b>Nolensville Pike</b></h3><div class=\"scroll-message\" style=\"margin-top:-45px; width:100%; text-align:center; font-size:14px\"><i>scroll for more info</i></div><div class=\"popup-address pup-info\"><b>4024 Nolensville Pike, Nashville, TN, United States </b></div><div class=\"button-wrapper\"><a href=\"https://mistercarwash.com/location/nolensville-pike/\" class=\"popup-button pop-button\" >Store Info</a><div class=\"clear-inline\"></div><a class=\"popup-button\" target=\"_blank\" href=\"http://maps.google.com/?q=4024 Nolensville Pike, Nashville, TN, United States\">Directions</a></div><div class=\"popup-hours pup-info\"><b>Hours: </b>7:30 am-7:00 pm Mon-Sat; 8:00 am-6:00 pm Sun</div><div class=\"popup-phone pup-info\"><b>Phone: </b>615-928-8022</div><div class='services pup-info'><b>Services</b><ul class='service-icons'><li><a href='/services/exterior' class='exterior'>Exterior</a></li><li><a href='/services/unlimited-wash-club' class='unlimited-wash-club'>Unlimited Wash Club\u00ae</a></li></ul></div></di", "website": "http://mistercarwash.com/locations/nolensville-pike", "opening_hours": "Mo-Sa 7:30-19:00;Su 8:00-18:00", "brand": "Mister Car Wash", "brand:wikidata": "Q114185788", "nsi_id": "mistercarwash-244496"}, "geometry": {"type": "Point", "coordinates": [-86.72719574, 36.083946228]}},
{"type": "Feature", "id": "1pYA48Pjc9DvLm0a_-c7soGSPq4=", "properties": {"ref": "12007", "@spider": "mistercarwash", "amenity": "car_wash", "addr:full": "6984 Douglas Blvd", "addr:city": "Douglasville", "addr:state": "GA", "addr:country": "US", "name": "Mister Car Wash", "phone": "(678) 213-22-85", "website": "http://mistercarwash.com/locations/douglasville", "opening_hours": "Mo-Sa 7:30-19:00;Su 8:00-18:00", "brand": "Mister Car Wash", "brand:wikidata": "Q114185788", "nsi_id": "mistercarwash-244496"}, "geometry": {"type": "Point", "coordinates": [-84.759437561, 33.724140167]}},
{"type": "Feature", "id": "eC0k4XKzEna46w29y0G-AKa-rts=", "properties": {"ref": "3533", "@spider": "mistercarwash", "amenity": "car_wash", "addr:full": "557 North Expressway", "addr:city": "Griffin", "addr:state": "GA", "addr:country": "US", "name": "Mister Car Wash", "phone": "button{ white-space:pre;} .clear-inline{ display:inline-block; width:10px; } @media (max-width: 530px) { .clear-inline{ display:block; height:5px;} }</style><div class=\"info_content\"><h3><b>Griffin</b></h3><div class=\"scroll-message\" style=\"margin-top:-45px; width:100%; text-align:center; font-size:14px\"><i>scroll for more info</i></div><div class=\"popup-address pup-info\"><b>557 North Expressway, Griffin, GA, United States </b></div><div class=\"button-wrapper\"><a href=\"https://mistercarwash.com/location/griffin/\" class=\"popup-button pop-button\" >Store Info</a><div class=\"clear-inline\"></div><a class=\"popup-button\" target=\"_blank\" href=\"http://maps.google.com/?q=557 North Expressway, Griffin, GA, United States\">Directions</a></div><div class=\"popup-hours pup-info\"><b>Hours: </b>7:30 am-7:00 pm Mon-Sat; 8:00 am-6:00 pm Sun</div><div class=\"popup-phone pup-info\"><b>Phone: </b>770-228-8001</div><div class='services pup-info'><b>Services</b><ul class='service-icons'><li><a href='/services/exterior' class='exterior'>Exterior</a></li><li><a href='/services/unlimited-wash-club' class='unlimited-wash-club'>Unlimited Wash Club\u00ae</a></li></ul></div></di", "website": "http://mistercarwash.com/locations/griffin", "opening_hours": "Mo-Sa 7:30-19:00;Su 8:00-18:00", "brand": "Mister Car Wash", "brand:wikidata": "Q114185788", "nsi_id": "mistercarwash-244496"}, "geometry": {"type": "Point", "coordinates": [-84.288856506, 33.257026672]}}]}