{"type":"FeatureCollection","features":[{"type": "Feature", "id": "AzfJlpp3fMUZKciwcr8VpiXeJwQ=", "properties": {"ref": "https://www.monicals.com/locations/monicals-pizza-of-morton/", "@spider": "monicals_pizza", "addr:full": "1067 W. JacksonMorton IL 61550", "addr:street": "1067 W. Jackson", "addr:city": "Morton", "addr:state": "IL", "addr:postcode": "61550", "phone": "309-284-0709", "website": "https://www.monicals.com/locations/monicals-pizza-of-morton", "opening_hours": "Su-Th : 11:00-22:30, Fr-Sa : 11:00-23:00", "brand": "Monical's Pizza", "brand:wikidata": "Q6900121"}, "geometry": {"type": "Point", "coordinates": [-89.469974, 40.620842]}},
{"type": "Feature", "id": "LU5zhRVEzMTxOfnecxbeugVbxzw=", "properties": {"ref": "https://www.monicals.com/locations/monicals-pizza-of-monticello-il/", "@spider": "monicals_pizza", "addr:full": "707 West Bridge StreetMonticello IL 61856", "addr:street": "707 West Bridge Street", "addr:city": "Monticello", "addr:state": "IL", "addr:postcode": "61856", "phone": "217-762-8484", "website": "https://www.monicals.com/locations/monicals-pizza-of-monticello-il", "opening_hours": "Su : 11:00-21:00, Mo : 11:00-21:00, Tu : 11:00-21:00, We : 11:00-21:00, Th : 11:00-21:00, Fr : 11:00-22:30, Sa : 11:00-22:30", "brand": "Monical's Pizza", "brand:wikidata": "Q6900121"}, "geometry": {"type": "Point", "coordinates": [-88.57837, 40.02837]}},
{"type": "Feature", "id": "YGjx0J2dFI6qjnqg11PiI1STw-U=", "properties": {"ref": "https://www.monicals.com/locations/monicals-pizza-of-mattoon/", "@spider": "monicals_pizza", "addr:full": "815 BroadwayMattoon IL 61938", "addr:street": "815 Broadway", "addr:city": "Mattoon", "addr:state": "IL", "addr:postcode": "61938", "phone": "217-234-6442", "website": "https://www.monicals.com/locations/monicals-pizza-of-mattoon", "opening_hours": "Su-Th : 11:00-21:00, Fr-Sa : 11:00-22:00", "brand": "Monical's Pizza", "brand:wikidata": "Q6900121"}, "geometry": {"type": "Point", "coordinates": [-88.363844, 39.482253]}},
{"type": "Feature", "id": "VstpAoPUc5x8Mql5ddEgWZZz1pU=", "properties": {"ref": "https://www.monicals.com/locations/monicals-pizza-of-manteno/", "@spider": "monicals_pizza", "addr:full": "199 Southcreek DriveManteno IL 60950", "addr:street": "199 Southcreek Drive", "addr:city": "Manteno", "addr:state": "IL", "addr:postcode": "60950", "phone": "815-468-7409", "website": "https://www.monicals.com/locations/monicals-pizza-of-manteno", "opening_hours": "Su-Th : 11:00-21:00, Fr-Sa : 11:00-23:00", "brand": "Monical's Pizza", "brand:wikidata": "Q6900121"}, "geometry": {"type": "Point", "coordinates": [-87.847991, 41.248919]}},
{"type": "Feature", "id": "DczdQBOLxBgHsAjYNqo3bkVIPno=", "properties": {"ref": "https://www.monicals.com/locations/monicals-pizza-of-mahomet/", "@spider": "monicals_pizza", "addr:full": "114 S. LombardMahomet IL 61853", "addr:street": "114 S. Lombard", "addr:city": "Mahomet", "addr:state": "IL", "addr:postcode": "61853", "phone": "217-586-4242", "website": "https://www.monicals.com/locations/monicals-pizza-of-mahomet", "opening_hours": "Su-Th : 11:00-21:00, Fr-Sa : 11:00-22:30", "brand": "Monical's Pizza", "brand:wikidata": "Q6900121"}, "geometry": {"type": "Point", "coordinates": [-88.399971, 40.192543]}},
{"type": "Feature", "id": "yMLBKoIeciKLtZPZcjs6gREYv-8=", "properties": {"ref": "https://www.monicals.com/locations/monicals-pizza-of-kankakee/", "@spider": "monicals_pizza", "addr:full": "1155 W. Court StreetKankakee IL 60901", "addr:street": "1155 W. Court Street", "addr:city": "Kankakee", "addr:state": "IL", "addr:postcode": "60901", "phone": "815-928-8043", "website": "https://www.monicals.com/locations/monicals-pizza-of-kankakee", "opening_hours": "Su-Th : 11:00-22:00, Fr-Sa : 11:00-23:00", "brand": "Monical's Pizza", "brand:wikidata": "Q6900121"}, "geometry": {"type": "Point", "coordinates": [-87.88164, 41.121627]}},
{"type": "Feature", "id": "lG2QnpSSu2TLR1Agl_GhyBJXOXU=", "properties": {"ref": "https://www.monicals.com/locations/monicals-pizza-of-hoopeston/", "@spider": "monicals_pizza", "addr:full": "618 W. Orange StreetHoopeston IL 60942", "addr:street": "618 W. Orange Street", "addr:city": "Hoopeston", "addr:state": "IL", "addr:postcode": "60942", "phone": "217-283-7781", "website": "https://www.monicals.com/locations/monicals-pizza-of-hoopeston", "opening_hours": "Su-Th : 11:00-21:00, Fr-Sa : 11:00-22:30", "brand": "Monical's Pizza", "brand:wikidata": "Q6900121"}, "geometry": {"type": "Point", "coordinates": [-87.6795561, 40.4589903]}},
{"type": "Feature", "id": "jT343Tt9U6_0RZehsiCx6ac8MRY=", "properties": {"ref": "https://www.monicals.com/locations/monicals-pizza-of-gilman/", "@spider": "monicals_pizza", "addr:full": "625 US Highway 24 WestGilman IL 60938", "addr:street": "625 US Highway 24 West", "addr:city": "Gilman", "addr:state": "IL", "addr:postcode": "60938", "phone": "815-265-7272", "website": "https://www.monicals.com/locations/monicals-pizza-of-gilman", "opening_hours": "Su : 11:00-21:00, Fr-Sa : 11:00-22:00", "brand": "Monical's Pizza", "brand:wikidata": "Q6900121"}, "geometry": {"type": "Point", "coordinates": [-87.999552, 40.751318]}},
{"type": "Feature", "id": "fTVXiXJkw0QqOzfCD9y3ZehUjqc=", "properties": {"ref": "https://www.monicals.com/locations/monicals-pizza-of-gibson-city/", "@spider": "monicals_pizza", "addr:full": "314 East First StreetGibson City IL 60936", "addr:street": "314 East First Street", "addr:city": "Gibson City", "addr:state": "IL", "addr:postcode": "60936", "phone": "217-784-4623", "website": "https://www.monicals.com/locations/monicals-pizza-of-gibson-city", "opening_hours": "Su-Th : 11:00-21:00, Fr-Sa : 11:00-22:00", "brand": "Monical's Pizza", "brand:wikidata": "Q6900121"}, "geometry": {"type": "Point", "coordinates": [-88.371974, 40.456869]}},
{"type": "Feature", "id": "3yoPvc38SPARdrlSjdvnPUJbSx4=", "properties": {"ref": "https://www.monicals.com/locations/monicals-pizza-of-fairbury/", "@spider": "monicals_pizza", "addr:full": "600 West Oak (Route 24)Fairbury IL 61739", "addr:street": "600 West Oak (Route 24)", "addr:city": "Fairbury", "addr:state": "IL", "addr:postcode": "61739", "phone": "815-692-4302", "website": "https://www.monicals.com/locations/monicals-pizza-of-fairbury", "opening_hours": "Su-Th : 11:00-21:00, Fr-Sa : 11:00-22:00", "brand": "Monical's Pizza", "brand:wikidata": "Q6900121"}, "geometry": {"type": "Point", "coordinates": [-88.520957, 40.743765]}},
{"type": "Feature", "id": "t9Q-ha63J5Ux4af1jJAL8gD-qLg=", "properties": {"ref": "https://www.monicals.com/locations/monicals-pizza-of-el-paso/", "@spider": "monicals_pizza", "addr:full": "850 W. Main StreetEl Paso IL 61738", "addr:street": "850 W. Main Street", "addr:city": "El Paso", "addr:state": "IL", "addr:postcode": "61738", "phone": "309-527-3663", "website": "https://www.monicals.com/locations/monicals-pizza-of-el-paso", "opening_hours": "Su : 11:00-21:00, Mo : 11:00-21:00, Tu : 11:00-21:00, We : 11:00-21:00, Th : 11:00-21:00, Fr : 11:00-22:00, Sa : 11:00-22:00", "brand": "Monical's Pizza", "brand:wikidata": "Q6900121"}, "geometry": {"type": "Point", "coordinates": [-89.036274, 40.736866]}},
{"type": "Feature", "id": "E3B9aNtRMGJIrupcmq6i4HjjYHE=", "properties": {"ref": "https://www.monicals.com/locations/monicals-pizza-of-decatur-south-shores-center/", "@spider": "monicals_pizza", "addr:full": "348 West First DriveDecatur IL 62521", "addr:street": "348 West First Drive", "addr:city": "Decatur", "addr:state": "IL", "addr:postcode": "62521", "phone": "217-423-2333", "website": "https://www.monicals.com/locations/monicals-pizza-of-decatur-south-shores-center", "opening_hours": "Su-Th : 11:00-21:00, Fr-Sa : 11:00-22:00", "brand": "Monical's Pizza", "brand:wikidata": "Q6900121"}, "geometry": {"type": "Point", "coordinates": [-88.957669, 39.822162]}},
{"type": "Feature", "id": "Z-yUo-UECXuqSWFurSkSCWVp1bM=", "properties": {"ref": "https://www.monicals.com/locations/monicals-pizza-of-decatur-prospect-dr/", "@spider": "monicals_pizza", "addr:full": "4333 Prospect DriveDecatur IL 62526", "addr:street": "4333 Prospect Drive", "addr:city": "Decatur", "addr:state": "IL", "addr:postcode": "62526", "phone": "217-875-7340", "website": "https://www.monicals.com/locations/monicals-pizza-of-decatur-prospect-dr", "opening_hours": "Su-Th : 11:00-21:00, Fr-Sa : 11:00-22:00", "brand": "Monical's Pizza", "brand:wikidata": "Q6900121"}, "geometry": {"type": "Point", "coordinates": [-88.954529, 39.902123]}},
{"type": "Feature", "id": "NsagBNuTfDnEqR6_N_2YRTOFKE4=", "properties": {"ref": "https://www.monicals.com/locations/monicals-pizza-of-decatur-mt-zion/", "@spider": "monicals_pizza", "addr:full": "2230 S. Mt. Zion RoadDecatur IL 62521", "addr:street": "2230 S. Mt. Zion Road", "addr:city": "Decatur", "addr:state": "IL", "addr:postcode": "62521", "phone": "217-864-2060", "website": "https://www.monicals.com/locations/monicals-pizza-of-decatur-mt-zion", "opening_hours": "Su-Th : 11:00-21:00, Fr-Sa : 11:00-22:00", "brand": "Monical's Pizza", "brand:wikidata": "Q6900121"}, "geometry": {"type": "Point", "coordinates": [-88.877675, 39.816351]}},
{"type": "Feature", "id": "oh5KRM7gF2EpBDvY1FceMYHcCQs=", "properties": {"ref": "https://www.monicals.com/locations/monicals-pizza-of-danville-n-vermilion/", "@spider": "monicals_pizza", "addr:full": "3542 N. Vermilion StreetDanville IL 61832", "addr:street": "3542 N. Vermilion Street", "addr:city": "Danville", "addr:state": "IL", "addr:postcode": "61832", "phone": "217-446-3111", "website": "https://www.monicals.com/locations/monicals-pizza-of-danville-n-vermilion", "opening_hours": "Su : 11:00-22:00, Mo : 11:00-22:00, Tu : 11:00-22:00, We : 11:00-22:00, Th : 11:00-22:00, Fr : 11:00-23:00, Sa : 11:00-23:00", "brand": "Monical's Pizza", "brand:wikidata": "Q6900121"}, "geometry": {"type": "Point", "coordinates": [-87.6303931, 40.1738521]}},
{"type": "Feature", "id": "rjtEIezl_ArJI__uWE56IOCPJJ4=", "properties": {"ref": "https://www.monicals.com/locations/monicals-pizza-of-clinton/", "@spider": "monicals_pizza", "addr:full": "121 Sunrise CtClinton IL 61727", "addr:street": "121 Sunrise Ct", "addr:city": "Clinton", "addr:state": "IL", "addr:postcode": "61727", "phone": "217-935-2919", "website": "https://www.monicals.com/locations/monicals-pizza-of-clinton", "opening_hours": "Su : 11:00-22:00, Mo : 11:00-21:00, Tu : 11:00-21:00, We : 11:00-21:00, Th : 11:00-21:00, Fr : 11:00-22:00, Sa : 11:00-22:00", "brand": "Monical's Pizza", "brand:wikidata": "Q6900121"}, "geometry": {"type": "Point", "coordinates": [-88.978851, 40.141303]}},
{"type": "Feature", "id": "6CGLia4WTWfAv6sDEUzKpF8LZ_M=", "properties": {"ref": "https://www.monicals.com/locations/monicals-pizza-of-arbor-vitae-wi/", "@spider": "monicals_pizza", "addr:full": "360 US Highway 51 NorthArbor Vitae WI 54568", "addr:street": "360 US Highway 51 North", "addr:city": "Arbor Vitae", "addr:state": "WI", "addr:postcode": "54568", "phone": "715-358-9959", "website": "https://www.monicals.com/locations/monicals-pizza-of-arbor-vitae-wi", "opening_hours": "Su : 11:00-21:00, Mo : Closed, Tu : Closed, We : 11:00-21:00, Th : 11:00-21:00, Fr : 11:00-21:00, Sa : 11:00-21:00", "brand": "Monical's Pizza", "brand:wikidata": "Q6900121"}, "geometry": {"type": "Point", "coordinates": [-89.6953571, 45.9064995]}},
{"type": "Feature", "id": "zIizoAdfecvisNbv05SiOphuwUI=", "properties": {"ref": "https://www.monicals.com/locations/monicals-pizza-of-ofallon/", "@spider": "monicals_pizza", "addr:full": "1224 Hwy KO'Fallon MO 63366", "addr:street": "1224 Hwy K", "addr:city": "O'Fallon", "addr:state": "MO", "addr:postcode": "63366", "phone": "636-980-1212", "website": "https://www.monicals.com/locations/monicals-pizza-of-ofallon", "opening_hours": "Su-Th : 11:00-21:00, Fr-Sa : 11:00-22:00", "brand": "Monical's Pizza", "brand:wikidata": "Q6900121"}, "geometry": {"type": "Point", "coordinates": [-90.698364, 38.79505]}},
{"type": "Feature", "id": "4W6rHD6nANbkkqZ12WECnbAqAw4=", "properties": {"ref": "https://www.monicals.com/locations/monicals-pizza-of-west-lafayette/", "@spider": "monicals_pizza", "addr:full": "3457 Bethel DriveWest Lafayette IN 47906", "addr:street": "3457 Bethel Drive", "addr:city": "West Lafayette", "addr:state": "IN", "addr:postcode": "47906", "phone": "765-464-2885", "website": "https://www.monicals.com/locations/monicals-pizza-of-west-lafayette", "opening_hours": "Su-Th : 11:00-21:00, Fr-Sa : 11:00-22:00", "brand": "Monical's Pizza", "brand:wikidata": "Q6900121"}, "geometry": {"type": "Point", "coordinates": [-86.954419, 40.467106]}},
{"type": "Feature", "id": "85pV_yMHjYYxmULT9R_GuVc0Gwg=", "properties": {"ref": "https://www.monicals.com/locations/monicals-pizza-of-vincennes/", "@spider": "monicals_pizza", "addr:full": "1813 Willow Street Suite 1AVincennes IN 47591", "addr:street": "1813 Willow Street Suite 1A", "addr:city": "Vincennes", "addr:state": "IN", "addr:postcode": "47591", "phone": "812-494-2100", "website": "https://www.monicals.com/locations/monicals-pizza-of-vincennes", "opening_hours": "Su-Th : 11:00-21:00, Fr-Sa : 11:00-22:00", "brand": "Monical's Pizza", "brand:wikidata": "Q6900121"}, "geometry": {"type": "Point", "coordinates": [-87.531794, 38.657792]}},
{"type": "Feature", "id": "JKuTwIvDdOMflMBWYMD2yMqm5jo=", "properties": {"ref": "https://www.monicals.com/locations/monicals-pizza-of-traders-point-mall-in-indianapolis/", "@spider": "monicals_pizza", "addr:full": "6010 W. 86th StreetIndianapolis IN 46278", "addr:street": "6010 W. 86th Street", "addr:city": "Indianapolis", "addr:state": "IN", "addr:postcode": "46278", "phone": "317-870-7722", "website": "https://www.monicals.com/locations/monicals-pizza-of-traders-point-mall-in-indianapolis", "opening_hours": "Su-Th : 11:00-21:00, Fr-Sa : 11:00-21:30", "brand": "Monical's Pizza", "brand:wikidata": "Q6900121"}, "geometry": {"type": "Point", "coordinates": [-86.265845, 39.913386]}},
{"type": "Feature", "id": "xs8njT2S4Rf9y_6If7zwEO8mM8E=", "properties": {"ref": "https://www.monicals.com/locations/monicals-pizza-of-terre-haute-sycamore-terrace/", "@spider": "monicals_pizza", "addr:full": "2147 South State Road 46Terre Haute IN 47803", "addr:street": "2147 South State Road 46", "addr:city": "Terre Haute", "addr:state": "IN", "addr:postcode": "47803", "phone": "812-877-2959", "website": "https://www.monicals.com/locations/monicals-pizza-of-terre-haute-sycamore-terrace", "opening_hours": "Su-Th : 11:00-21:00, Fr-Sa : 11:00-22:00", "brand": "Monical's Pizza", "brand:wikidata": "Q6900121"}, "geometry": {"type": "Point", "coordinates": [-87.33299, 39.440152]}},
{"type": "Feature", "id": "aZx_PK14UtXgtYb4wYgEzUJ4NlM=", "properties": {"ref": "https://www.monicals.com/locations/monicals-pizza-of-terre-haute/", "@spider": "monicals_pizza", "addr:full": "3712 South U.S. 41Terre Haute IN 47802", "addr:street": "3712 South U.S. 41", "addr:city": "Terre Haute", "addr:state": "IN", "addr:postcode": "47802", "phone": "812-235-4700", "website": "https://www.monicals.com/locations/monicals-pizza-of-terre-haute", "opening_hours": "Mo : Closed, Tu : 11:00-21:00, We : 11:00-21:00, Th : 11:00-21:00, Fr : 11:00-22:00, Sa : 11:00-22:00, Su : 11:00-21:00", "brand": "Monical's Pizza", "brand:wikidata": "Q6900121"}, "geometry": {"type": "Point", "coordinates": [-87.4159713, 39.421368]}},
{"type": "Feature", "id": "KJjyQjEprGxxFaOuS-PFppQwSQw=", "properties": {"ref": "https://www.monicals.com/locations/monicals-pizza-of-monticello-in/", "@spider": "monicals_pizza", "addr:full": "912 1/2 S. Main StreetMonticello IN 47960", "addr:street": "912 1/2 S. Main Street", "addr:city": "Monticello", "addr:state": "IN", "addr:postcode": "47960", "phone": "574-583-3550", "website": "https://www.monicals.com/locations/monicals-pizza-of-monticello-in", "opening_hours": "Cl-Mo : Closed, Su-Tu : Closed, Fr-Sa : 11:00-20:30", "brand": "Monical's Pizza", "brand:wikidata": "Q6900121"}, "geometry": {"type": "Point", "coordinates": [-86.762148, 40.7304]}},
{"type": "Feature", "id": "tZmNhrlxYgSKna6shegzSfmSrCk=", "properties": {"ref": "https://www.monicals.com/locations/monicals-pizza-of-linton/", "@spider": "monicals_pizza", "addr:full": "1600 A Street NortheastLinton IN 47441", "addr:street": "1600 A Street Northeast", "addr:city": "Linton", "addr:state": "IN", "addr:postcode": "47441", "phone": "812-847-2900", "website": "https://www.monicals.com/locations/monicals-pizza-of-linton", "opening_hours": "Su-Th : Closed, \u2013 -9: : Closed", "brand": "Monical's Pizza", "brand:wikidata": "Q6900121"}, "geometry": {"type": "Point", "coordinates": [-87.14481, 39.03922]}},
{"type": "Feature", "id": "rowMfQosun2QMOtVk-Zq4QtFUms=", "properties": {"ref": "https://www.monicals.com/locations/monicals-pizza-of-lafayette/", "@spider": "monicals_pizza", "addr:full": "3500 State Route 38 ELafayette IN 47905", "addr:street": "3500 State Route 38 E", "addr:city": "Lafayette", "addr:state": "IN", "addr:postcode": "47905", "phone": "765-448-6066", "website": "https://www.monicals.com/locations/monicals-pizza-of-lafayette", "opening_hours": "Su-Th : 11:00-21:00, Fr-Sa : 11:00-22:00", "brand": "Monical's Pizza", "brand:wikidata": "Q6900121"}, "geometry": {"type": "Point", "coordinates": [-86.854737, 40.400332]}},
{"type": "Feature", "id": "RkuwEba6sIoYt4yx4MTbrBzFuUA=", "properties": {"ref": "https://www.monicals.com/locations/monicals-pizza-of-kentland/", "@spider": "monicals_pizza", "addr:full": "402 N. 7thKentland IN 47951", "addr:street": "402 N. 7th", "addr:city": "Kentland", "addr:state": "IN", "addr:postcode": "47951", "phone": "219-474-9330", "website": "https://www.monicals.com/locations/monicals-pizza-of-kentland", "opening_hours": "Su-Th : 11:00-21:00, Fr-Sa : Special Hours", "brand": "Monical's Pizza", "brand:wikidata": "Q6900121"}, "geometry": {"type": "Point", "coordinates": [-87.438458, 40.771863]}},
{"type": "Feature", "id": "yotVOKyiHWV1BGc5GbPdoRZmxz4=", "properties": {"ref": "https://www.monicals.com/locations/monicals-pizza-of-greencastle/", "@spider": "monicals_pizza", "addr:full": "29 Putnam PlzGreencastle IN 46135", "addr:street": "29 Putnam Plz", "addr:city": "Greencastle", "addr:state": "IN", "addr:postcode": "46135", "phone": "765-301-4404", "website": "https://www.monicals.com/locations/monicals-pizza-of-greencastle", "opening_hours": "Su-Th : 11:00-21:00, Fr-Sa : 11:00-", "brand": "Monical's Pizza", "brand:wikidata": "Q6900121"}, "geometry": {"type": "Point", "coordinates": [-86.82928, 39.64763]}},
{"type": "Feature", "id": "4g-tvYxxPrWPBgz9qsJCFnvv3pw=", "properties": {"ref": "https://www.monicals.com/locations/monicals-pizza-of-fishers/", "@spider": "monicals_pizza", "addr:full": "14099 Mundy DriveFishers IN 46038", "addr:street": "14099 Mundy Drive", "addr:city": "Fishers", "addr:state": "IN", "addr:postcode": "46038", "phone": "317-770-8400", "website": "https://www.monicals.com/locations/monicals-pizza-of-fishers", "opening_hours": "Cl : Closed, Su : 11:00-20:00, Fr : 11:00-21:00", "brand": "Monical's Pizza", "brand:wikidata": "Q6900121"}, "geometry": {"type": "Point", "coordinates": [-86.002281, 39.993107]}},
{"type": "Feature", "id": "QLVfRv2q4q2y_vVlluRpS0hqgDY=", "properties": {"ref": "https://www.monicals.com/locations/monicals-pizza-of-avon/", "@spider": "monicals_pizza", "addr:full": "9271 U.S. 36Avon IN 46123", "addr:street": "9271 U.S. 36", "addr:city": "Avon", "addr:state": "IN", "addr:postcode": "46123", "phone": "317-271-2727", "website": "https://www.monicals.com/locations/monicals-pizza-of-avon", "opening_hours": "Su-Th : 11:00-21:00, Fr-Sa : 11:00-21:30", "brand": "Monical's Pizza", "brand:wikidata": "Q6900121"}, "geometry": {"type": "Point", "coordinates": [-86.357088, 39.762429]}},
{"type": "Feature", "id": "F7GHUzZ6eTXlHZC-ULm9RMWmuHA=", "properties": {"ref": "https://www.monicals.com/locations/monicals-pizza-of-watseka/", "@spider": "monicals_pizza", "addr:full": "1540 E. Walnut StreetWatseka IL 60970", "addr:street": "1540 E. Walnut Street", "addr:city": "Watseka", "addr:state": "IL", "addr:postcode": "60970", "phone": "815-432-3714", "website": "https://www.monicals.com/locations/monicals-pizza-of-watseka", "opening_hours": "Su-Th : 11:00-21:00, Fr-Sa : 11:00-22:00", "brand": "Monical's Pizza", "brand:wikidata": "Q6900121"}, "geometry": {"type": "Point", "coordinates": [-87.701016, 40.775416]}},
{"type": "Feature", "id": "Oavru1H1qWwk5SKnOeAG2OU-tYo=", "properties": {"ref": "https://www.monicals.com/locations/monicals-pizza-of-washington/", "@spider": "monicals_pizza", "addr:full": "6 Cherry Tree CenterWashington IL 61571", "addr:street": "6 Cherry Tree Center", "addr:city": "Washington", "addr:state": "IL", "addr:postcode": "61571", "phone": "309-444-7500", "website": "https://www.monicals.com/locations/monicals-pizza-of-washington", "opening_hours": "Su-Th : 11:00-22:00, Fr-Sa : 11:00-23:00", "brand": "Monical's Pizza", "brand:wikidata": "Q6900121"}, "geometry": {"type": "Point", "coordinates": [-89.44636, 40.706666]}},
{"type": "Feature", "id": "EH72VfnQJtX6QWUm_5013EHiQ38=", "properties": {"ref": "https://www.monicals.com/locations/monicals-pizza-of-villa-grove/", "@spider": "monicals_pizza", "addr:full": "102 N. Sycamore St.Villa Grove IL 61956", "addr:street": "102 N. Sycamore St.", "addr:city": "Villa Grove", "addr:state": "IL", "addr:postcode": "61956", "phone": "217-832-2361", "website": "https://www.monicals.com/locations/monicals-pizza-of-villa-grove", "opening_hours": "Su-Th : Special Hours, Fr-Sa : Special Hours", "brand": "Monical's Pizza", "brand:wikidata": "Q6900121"}, "geometry": {"type": "Point", "coordinates": [-88.160681, 39.863209]}},
{"type": "Feature", "id": "anVHlqWMMab4lavPWwgLh36F7ik=", "properties": {"ref": "https://www.monicals.com/locations/monicals-pizza-of-urbana/", "@spider": "monicals_pizza", "addr:full": "2720 South Philo RoadUrbana IL 61802", "addr:street": "2720 South Philo Road", "addr:city": "Urbana", "addr:state": "IL", "addr:postcode": "61802", "phone": "217-367-5781", "website": "https://www.monicals.com/locations/monicals-pizza-of-urbana", "opening_hours": "Su : 11:00-22:00, Mo : 11:00-22:00, Tu : 11:00-22:00, We : 11:00-22:00, Th : 11:00-22:00, Fr : 11:00-23:00, Sa : 11:00-23:00", "brand": "Monical's Pizza", "brand:wikidata": "Q6900121"}, "geometry": {"type": "Point", "coordinates": [-88.189951, 40.082803]}},
{"type": "Feature", "id": "RitdAs8dNrEejQed9Pw7DQZW5Q8=", "properties": {"ref": "https://www.monicals.com/locations/monicals-pizza-of-tolono/", "@spider": "monicals_pizza", "addr:full": "102 W. VineTolono IL 61880", "addr:street": "102 W. Vine", "addr:city": "Tolono", "addr:state": "IL", "addr:postcode": "61880", "phone": "217-485-5711", "website": "https://www.monicals.com/locations/monicals-pizza-of-tolono", "opening_hours": "Su : 11:00-21:00, Mo : 11:00-21:00, Tu : 11:00-21:00, We : 11:00-21:00, Th : 11:00-21:00, Fr : 11:00-21:30, Sa : 11:00-21:30", "brand": "Monical's Pizza", "brand:wikidata": "Q6900121"}, "geometry": {"type": "Point", "coordinates": [-88.262432, 39.989058]}},
{"type": "Feature", "id": "GBkQD1E824fj62v5ZdfGjCj9e28=", "properties": {"ref": "https://www.monicals.com/locations/monicals-pizza-of-tilton/", "@spider": "monicals_pizza", "addr:full": "1628 Georgetown RoadTilton IL 61833", "addr:street": "1628 Georgetown Road", "addr:city": "Tilton", "addr:state": "IL", "addr:postcode": "61833", "phone": "217-443-5545", "website": "https://www.monicals.com/locations/monicals-pizza-of-tilton", "opening_hours": "Su-Th : 11:00-22:30, Fr-Sa : 11:00-23:00", "brand": "Monical's Pizza", "brand:wikidata": "Q6900121"}, "geometry": {"type": "Point", "coordinates": [-87.63592, 40.096111]}},
{"type": "Feature", "id": "g69BzFmBHG6IVVU_v3qZQJFZk9U=", "properties": {"ref": "https://www.monicals.com/locations/monicals-pizza-of-sullivan/", "@spider": "monicals_pizza", "addr:full": "402 S. HamiltonSullivan IL 61951", "addr:street": "402 S. Hamilton", "addr:city": "Sullivan", "addr:state": "IL", "addr:postcode": "61951", "phone": "217-728-2373", "website": "https://www.monicals.com/locations/monicals-pizza-of-sullivan", "opening_hours": "Su-Th : 11:00-21:00, Fr-Sa : 11:00-22:00", "brand": "Monical's Pizza", "brand:wikidata": "Q6900121"}, "geometry": {"type": "Point", "coordinates": [-88.609018, 39.595849]}},
{"type": "Feature", "id": "FXTgP21kxTPZYjPijbkfQkSRsZE=", "properties": {"ref": "https://www.monicals.com/locations/monicals-pizza-of-st-joseph/", "@spider": "monicals_pizza", "addr:full": "703 N. 3rd StreetSt. Joseph IL 61873", "addr:street": "703 N. 3rd Street", "addr:city": "St. Joseph", "addr:state": "IL", "addr:postcode": "61873", "phone": "217-469-7777", "website": "https://www.monicals.com/locations/monicals-pizza-of-st-joseph", "opening_hours": "Su-Th : 11:00-21:00, Fr-Sa : 11:00-22:30", "brand": "Monical's Pizza", "brand:wikidata": "Q6900121"}, "geometry": {"type": "Point", "coordinates": [-88.041453, 40.118587]}},
{"type": "Feature", "id": "pItPUcEG66K3H71dsbDERXSQDRQ=", "properties": {"ref": "https://www.monicals.com/locations/monicals-pizza-of-springfield/", "@spider": "monicals_pizza", "addr:full": "2640 Prairie Crossing DriveSpringfield IL 62711", "addr:street": "2640 Prairie Crossing Drive", "addr:city": "Springfield", "addr:state": "IL", "addr:postcode": "62711", "phone": "217-546-7258", "website": "https://www.monicals.com/locations/monicals-pizza-of-springfield", "opening_hours": "Su : 11:00-21:00, Th : 11:00-21:00, Th : 11:00-21:00, Th : 11:00-21:00, Th : 11:00-21:00, Fr : 11:00-23:00, Sa : 11:00-23:00", "brand": "Monical's Pizza", "brand:wikidata": "Q6900121"}, "geometry": {"type": "Point", "coordinates": [-89.703191, 39.736292]}},
{"type": "Feature", "id": "597FFfBXgLjEiASKkcA1Ug3xwfU=", "properties": {"ref": "https://www.monicals.com/locations/monicals-pizza-of-shelbyville/", "@spider": "monicals_pizza", "addr:full": "1900 W. Main St.Shelbyville IL 62565", "addr:street": "1900 W. Main St.", "addr:city": "Shelbyville", "addr:state": "IL", "addr:postcode": "62565", "phone": "217-774-4100", "website": "https://www.monicals.com/locations/monicals-pizza-of-shelbyville", "opening_hours": "Su-Th : 11:00-21:00, Fr-Sa : 11:00-22:00", "brand": "Monical's Pizza", "brand:wikidata": "Q6900121"}, "geometry": {"type": "Point", "coordinates": [-88.81573, 39.405638]}},
{"type": "Feature", "id": "yr07DOnnpijS2iPC-bECeXrvumE=", "properties": {"ref": "https://www.monicals.com/locations/monicals-pizza-of-robinson/", "@spider": "monicals_pizza", "addr:full": "1703 W. MainRobinson IL 62454", "addr:street": "1703 W. Main", "addr:city": "Robinson", "addr:state": "IL", "addr:postcode": "62454", "phone": "618-544-3228", "website": "https://www.monicals.com/locations/monicals-pizza-of-robinson", "opening_hours": "Su-Th : 10:00-21:00, Fr-Sa : 10:00-22:00", "brand": "Monical's Pizza", "brand:wikidata": "Q6900121"}, "geometry": {"type": "Point", "coordinates": [-87.761131, 39.005293]}},
{"type": "Feature", "id": "ePHpuxHAZgxoQzLx5NpwB0eI-2o=", "properties": {"ref": "https://www.monicals.com/locations/monicals-pizza-of-rantoul/", "@spider": "monicals_pizza", "addr:full": "320 East Champaign StreetRantoul IL 61866", "addr:street": "320 East Champaign Street", "addr:city": "Rantoul", "addr:state": "IL", "addr:postcode": "61866", "phone": "217-893-1252", "website": "https://www.monicals.com/locations/monicals-pizza-of-rantoul", "opening_hours": "Su-Th : 11:00-21:00, Fr-Sa : 11:00-22:00", "brand": "Monical's Pizza", "brand:wikidata": "Q6900121"}, "geometry": {"type": "Point", "coordinates": [-88.154997, 40.30785]}},
{"type": "Feature", "id": "uLQbIatYKQON5DWwTcVIrx5EzYo=", "properties": {"ref": "https://www.monicals.com/locations/monicals-pizza-of-princeton/", "@spider": "monicals_pizza", "addr:full": "302 S. Main StreetPrinceton IL 61356", "addr:street": "302 S. Main Street", "addr:city": "Princeton", "addr:state": "IL", "addr:postcode": "61356", "phone": "815-872-0090", "website": "https://www.monicals.com/locations/monicals-pizza-of-princeton", "opening_hours": "Su-Th : 11:00-21:00, Fr-Sa : 11:00-22:30", "brand": "Monical's Pizza", "brand:wikidata": "Q6900121"}, "geometry": {"type": "Point", "coordinates": [-89.465264, 41.372686]}},
{"type": "Feature", "id": "iFcqLENdILrXzUjAX83OCecgB4c=", "properties": {"ref": "https://www.monicals.com/locations/monicals-pizza-of-pontiac/", "@spider": "monicals_pizza", "addr:full": "311 Historic Route 66Pontiac IL 61764", "addr:street": "311 Historic Route 66", "addr:city": "Pontiac", "addr:state": "IL", "addr:postcode": "61764", "phone": "815-844-2660", "website": "https://www.monicals.com/locations/monicals-pizza-of-pontiac", "opening_hours": "Mo : Closed, Cl : 11:00-20:00, Tu-Th : 11:00-21:00, Fr-Sa : 11:00-20:00", "brand": "Monical's Pizza", "brand:wikidata": "Q6900121"}, "geometry": {"type": "Point", "coordinates": [-88.6436885, 40.8756631]}},
{"type": "Feature", "id": "W-LXj-OM3LEWKEmLAKIhC9XiM7g=", "properties": {"ref": "https://www.monicals.com/locations/monicals-pizza-of-peoria-willow-knolls/", "@spider": "monicals_pizza", "addr:full": "4100 W. Willow Knolls DrivePeoria IL 61615", "addr:street": "4100 W. Willow Knolls Drive", "addr:city": "Peoria", "addr:state": "IL", "addr:postcode": "61615", "phone": "309-691-6477", "website": "https://www.monicals.com/locations/monicals-pizza-of-peoria-willow-knolls", "opening_hours": "Su-Th : 11:00-22:00, Fr-Sa : 11:00-23:00", "brand": "Monical's Pizza", "brand:wikidata": "Q6900121"}, "geometry": {"type": "Point", "coordinates": [-89.651973, 40.771339]}},
{"type": "Feature", "id": "_ZspgtH6aXyO0m2SwS-QwzvGk1Y=", "properties": {"ref": "https://www.monicals.com/locations/monicals-pizza-of-peoria-n-knoxville/", "@spider": "monicals_pizza", "addr:full": "4408 N. KnoxvillePeoria IL 61614", "addr:street": "4408 N. Knoxville", "addr:city": "Peoria", "addr:state": "IL", "addr:postcode": "61614", "phone": "309-688-0747", "website": "https://www.monicals.com/locations/monicals-pizza-of-peoria-n-knoxville", "opening_hours": "Su-Th : 11:00-22:00, Fr-Sa : 11:00-23:00", "brand": "Monical's Pizza", "brand:wikidata": "Q6900121"}, "geometry": {"type": "Point", "coordinates": [-89.592378, 40.74042]}},
{"type": "Feature", "id": "nSHu7mlJPsHgsyKG48FpUAOIXyM=", "properties": {"ref": "https://www.monicals.com/locations/monicals-pizza-of-pekin/", "@spider": "monicals_pizza", "addr:full": "111 South ParkwayPekin IL 61554", "addr:street": "111 South Parkway", "addr:city": "Pekin", "addr:state": "IL", "addr:postcode": "61554", "phone": "309-347-7761", "website": "https://www.monicals.com/locations/monicals-pizza-of-pekin", "opening_hours": "Su-Th : 11:00-22:00, Fr-Sa : 11:00-23:00", "brand": "Monical's Pizza", "brand:wikidata": "Q6900121"}, "geometry": {"type": "Point", "coordinates": [-89.618579, 40.567076]}},
{"type": "Feature", "id": "plhSlfsdbGBM59Rl0gQYxhblobE=", "properties": {"ref": "https://www.monicals.com/locations/monicals-pizza-of-paxton/", "@spider": "monicals_pizza", "addr:full": "500 W Ottawa Rd.Paxton IL 60957", "addr:street": "500 W Ottawa Rd.", "addr:city": "Paxton", "addr:state": "IL", "addr:postcode": "60957", "phone": "217-379-4835", "website": "https://www.monicals.com/locations/monicals-pizza-of-paxton", "opening_hours": "Su-Th : 11:00-21:00, Fr-Sa : 11:00-22:00", "brand": "Monical's Pizza", "brand:wikidata": "Q6900121"}, "geometry": {"type": "Point", "coordinates": [-88.107071, 40.454991]}},
{"type": "Feature", "id": "uUMqR66J893_2nz5opPQxwhP0Dc=", "properties": {"ref": "https://www.monicals.com/locations/monicals-pizza-of-paris/", "@spider": "monicals_pizza", "addr:full": "609 E. JasperParis IL 61944", "addr:street": "609 E. Jasper", "addr:city": "Paris", "addr:state": "IL", "addr:postcode": "61944", "phone": "217-465-7684", "website": "https://www.monicals.com/locations/monicals-pizza-of-paris", "opening_hours": "Su : 11:00-21:00, \u2013 -Sa : 11:00-22:00", "brand": "Monical's Pizza", "brand:wikidata": "Q6900121"}, "geometry": {"type": "Point", "coordinates": [-87.684993, 39.604153]}},
{"type": "Feature", "id": "uKserLjpbkuKKTt5Ee5RNZa19lU=", "properties": {"ref": "https://www.monicals.com/locations/monicals-pizza-of-olney/", "@spider": "monicals_pizza", "addr:full": "1125 E. Main StreetOlney IL 62450", "addr:street": "1125 E. Main Street", "addr:city": "Olney", "addr:state": "IL", "addr:postcode": "62450", "phone": "618-395-3359", "website": "https://www.monicals.com/locations/monicals-pizza-of-olney", "opening_hours": "Su-Th : 11:00-21:00, Fr-Sa : 11:00-22:00", "brand": "Monical's Pizza", "brand:wikidata": "Q6900121"}, "geometry": {"type": "Point", "coordinates": [-88.07308, 38.731531]}},
{"type": "Feature", "id": "gziLHMzOjojNUtHr56Mv4JMU_wE=", "properties": {"ref": "https://www.monicals.com/locations/monicals-pizza-of-normal/", "@spider": "monicals_pizza", "addr:full": "1219 S. MainNormal IL 61761", "addr:street": "1219 S. Main", "addr:city": "Normal", "addr:state": "IL", "addr:postcode": "61761", "phone": "309-454-7999", "website": "https://www.monicals.com/locations/monicals-pizza-of-normal", "opening_hours": "TE : 11:00-22:00, Su : Closed, Mo : Closed, CL : Closed, Tu : Closed, CL : 11:00-23:00, We : 11:00-23:00", "brand": "Monical's Pizza", "brand:wikidata": "Q6900121"}, "geometry": {"type": "Point", "coordinates": [-88.994909, 40.498363]}},
{"type": "Feature", "id": "LwNwhCb3TgJC9kC283xUa7vxCrM=", "properties": {"ref": "https://www.monicals.com/locations/monicals-pizza-of-charleston/", "@spider": "monicals_pizza", "addr:full": "909 18th StreetCharleston IL 61920", "addr:street": "909 18th Street", "addr:city": "Charleston", "addr:state": "IL", "addr:postcode": "61920", "phone": "217-348-7515", "website": "https://www.monicals.com/locations/monicals-pizza-of-charleston", "opening_hours": "Su : 11:00-22:00, Mo : 11:00-22:00, Tu : 11:00-22:00, We : 11:00-22:00, Th : 11:00-22:00, Fr : 11:00-22:00, Sa : 11:00-22:00", "brand": "Monical's Pizza", "brand:wikidata": "Q6900121"}, "geometry": {"type": "Point", "coordinates": [-88.16321, 39.489027]}},
{"type": "Feature", "id": "5mCDMDveF-Kq6HM6VZsRDtCnLAA=", "properties": {"ref": "https://www.monicals.com/locations/monicals-pizza-of-champaign-n-mattis-ave/", "@spider": "monicals_pizza", "addr:full": "205 N. MattisChampaign IL 61821", "addr:street": "205 N. Mattis", "addr:city": "Champaign", "addr:state": "IL", "addr:postcode": "61821", "phone": "217-359-3514", "website": "https://www.monicals.com/locations/monicals-pizza-of-champaign-n-mattis-ave", "opening_hours": "Su-Th : 11:00-22:00, Fr-Sa : 11:00-23:00", "brand": "Monical's Pizza", "brand:wikidata": "Q6900121"}, "geometry": {"type": "Point", "coordinates": [-88.277573, 40.118026]}},
{"type": "Feature", "id": "hAOgSFjhjwO2moR5X9PBPNyfTbU=", "properties": {"ref": "https://www.monicals.com/locations/monicals-pizza-of-centralia/", "@spider": "monicals_pizza", "addr:full": "1310 N. Elm St.Centralia IL 62801", "addr:street": "1310 N. Elm St.", "addr:city": "Centralia", "addr:state": "IL", "addr:postcode": "62801", "phone": "618-533-2755", "website": "https://www.monicals.com/locations/monicals-pizza-of-centralia", "opening_hours": "Su-Th : 11:00-21:00, Fr-Sa : 11:00-22:00", "brand": "Monical's Pizza", "brand:wikidata": "Q6900121"}, "geometry": {"type": "Point", "coordinates": [-89.1297975, 38.5392388]}},
{"type": "Feature", "id": "ofZZP-8laGUzy0MHhaNfzPVMmkA=", "properties": {"ref": "https://www.monicals.com/locations/monicals-pizza-of-canton/", "@spider": "monicals_pizza", "addr:full": "135 N. FifthCanton IL 61520", "addr:street": "135 N. Fifth", "addr:city": "Canton", "addr:state": "IL", "addr:postcode": "61520", "phone": "309-647-1127", "website": "https://www.monicals.com/locations/monicals-pizza-of-canton", "opening_hours": "Su : 11:00-21:00, Mo : Closed, Tu : 11:00-21:00, We : 11:00-21:00, Th : 11:00-21:00, Fr : 11:00-22:00, Sa : 11:00-22:00", "brand": "Monical's Pizza", "brand:wikidata": "Q6900121"}, "geometry": {"type": "Point", "coordinates": [-90.0272173, 40.5577859]}},
{"type": "Feature", "id": "G1ko4qaTLaGHLgYON3jROB86N2k=", "properties": {"ref": "https://www.monicals.com/locations/monicals-pizza-of-bourbonnais/", "@spider": "monicals_pizza", "addr:full": "597 William R Latham DrBourbonnais IL 60914", "addr:street": "597 William R Latham Dr", "addr:city": "Bourbonnais", "addr:state": "IL", "addr:postcode": "60914", "phone": "815-932-9100", "website": "https://www.monicals.com/locations/monicals-pizza-of-bourbonnais", "opening_hours": "Su-Th : 11:00-22:00, Fr-Sa : 11:00-23:00", "brand": "Monical's Pizza", "brand:wikidata": "Q6900121"}, "geometry": {"type": "Point", "coordinates": [-87.8771448, 41.1630059]}},
{"type": "Feature", "id": "G7wAbF8rjzNqMHKBKDk5j9myEjU=", "properties": {"ref": "https://www.monicals.com/locations/monicals-pizza-of-bloomington-veterans-pkwy/", "@spider": "monicals_pizza", "addr:full": "2103 N. Veterans Pkwy #314Bloomington IL 61704", "addr:street": "2103 N. Veterans Pkwy #314", "addr:city": "Bloomington", "addr:state": "IL", "addr:postcode": "61704", "phone": "309-662-6933", "website": "https://www.monicals.com/locations/monicals-pizza-of-bloomington-veterans-pkwy", "opening_hours": "Su : 11:00-22:00, Mo : 11:00-22:00, Tu : 11:00-22:00, We : 11:00-22:00, Th : 11:00-22:00, Fr : 11:00-23:00, Sa : 11:00-23:00", "brand": "Monical's Pizza", "brand:wikidata": "Q6900121"}, "geometry": {"type": "Point", "coordinates": [-88.9504462, 40.5087745]}},
{"type": "Feature", "id": "EmGA3PVg99SxC6o9oVxXwfld__I=", "properties": {"ref": "https://www.monicals.com/locations/monicals-pizza-of-bloomington-eldorado/", "@spider": "monicals_pizza", "addr:full": "718 S. EldoradoBloomington IL 61704", "addr:street": "718 S. Eldorado", "addr:city": "Bloomington", "addr:state": "IL", "addr:postcode": "61704", "phone": "309-662-8502", "website": "https://www.monicals.com/locations/monicals-pizza-of-bloomington-eldorado", "opening_hours": "Su-Th : 11:00-21:00, Fr-Sa : 11:00-23:00", "brand": "Monical's Pizza", "brand:wikidata": "Q6900121"}, "geometry": {"type": "Point", "coordinates": [-88.951971, 40.47059]}},
{"type": "Feature", "id": "1ome0fCCGX1Hz_1a28_holRhfOI=", "properties": {"ref": "https://www.monicals.com/locations/monicals-pizza-of-arcola/", "@spider": "monicals_pizza", "addr:full": "528 E. Springfield Rd.Arcola IL 61910", "addr:street": "528 E. Springfield Rd.", "addr:city": "Arcola", "addr:state": "IL", "addr:postcode": "61910", "phone": "217-268-4141", "website": "https://www.monicals.com/locations/monicals-pizza-of-arcola", "opening_hours": "Su-Th : Special Hours, Fr-Sa : Special Hours", "brand": "Monical's Pizza", "brand:wikidata": "Q6900121"}, "geometry": {"type": "Point", "coordinates": [-88.298659, 39.680598]}}]}