{"type":"FeatureCollection","features":[{"type": "Feature", "id": "CypR_esWjaY6CddHYTN6tvNeicM=", "properties": {"ref": "7330", "@spider": "montessori_school", "addr:full": "1400 Indian Trace Blvd", "addr:city": "Weston", "addr:state": "FL", "addr:postcode": "33326", "name": "Three Village Montessori", "brand": "Montessori School"}, "geometry": {"type": "Point", "coordinates": [-80.370046, 26.103412]}},
{"type": "Feature", "id": "AU9AxV6aFulGGHwXR84YbgTFYFs=", "properties": {"ref": "7331", "@spider": "montessori_school", "addr:full": "20400 Cain Blvd", "addr:city": "Boca Raton", "addr:state": "FL", "addr:postcode": "33498", "name": "West Glades Montessori", "brand": "Montessori School"}, "geometry": {"type": "Point", "coordinates": [-80.211209, 26.372259]}},
{"type": "Feature", "id": "FEzBt87ojuDb7PGNTU_V9JNk33g=", "properties": {"ref": "7332", "@spider": "montessori_school", "addr:full": "2270 Meadow Church Road", "addr:city": "Duluth", "addr:state": "GA", "addr:postcode": "30097", "name": "Sugarloaf Montessori", "brand": "Montessori School"}, "geometry": {"type": "Point", "coordinates": [-84.100649, 33.979286]}},
{"type": "Feature", "id": "YqxiId8ICMxD5a7BN4SMwep7I9c=", "properties": {"ref": "7333", "@spider": "montessori_school", "addr:full": "3800 North Point Pkwy", "addr:city": "Alpharetta", "addr:state": "GA", "addr:postcode": "30005", "name": "Preston Ridge Montessori", "brand": "Montessori School"}, "geometry": {"type": "Point", "coordinates": [-84.258566, 34.070076]}},
{"type": "Feature", "id": "vW7Wt1zW3a8MXgKZsXefuPGk_X0=", "properties": {"ref": "7335", "@spider": "montessori_school", "addr:full": "5815 Medlock Bridge Pkwy", "addr:city": "Johns Creek", "addr:state": "GA", "addr:postcode": "30022", "name": "Medlock Bridge Montessori", "brand": "Montessori School"}, "geometry": {"type": "Point", "coordinates": [-84.189495, 34.028259]}},
{"type": "Feature", "id": "LRtQsgL09C5lft6Kaxm9PxHazMs=", "properties": {"ref": "7336", "@spider": "montessori_school", "addr:full": "1680 Brookstone Walk NW", "addr:city": "Acworth", "addr:state": "GA", "addr:postcode": "30101", "name": "Montessori at Brookstone", "brand": "Montessori School"}, "geometry": {"type": "Point", "coordinates": [-84.709305, 33.995952]}},
{"type": "Feature", "id": "NK8nX6mNCxx9gwhiKpYP5ItEy5g=", "properties": {"ref": "7337", "@spider": "montessori_school", "addr:full": "2936 Artesian Road", "addr:city": "Naperville", "addr:state": "IL", "addr:postcode": "60564", "name": "Naperville Montessori School", "brand": "Montessori School"}, "geometry": {"type": "Point", "coordinates": [-88.203923, 41.725178]}},
{"type": "Feature", "id": "S0SE4ZmYWNzupxQxpBOt4zsAWDk=", "properties": {"ref": "7338", "@spider": "montessori_school", "addr:full": "3180 N Aurora Road", "addr:city": "Aurora", "addr:state": "IL", "addr:postcode": "60502", "name": "Aurora Montessori School", "brand": "Montessori School"}, "geometry": {"type": "Point", "coordinates": [-88.238082, 41.782419]}},
{"type": "Feature", "id": "LBtzULWdW3WAX6tEcvtvghf6Evs=", "properties": {"ref": "7339", "@spider": "montessori_school", "addr:full": "11100 W 135th Street", "addr:city": "Overland Park", "addr:state": "KS", "addr:postcode": "66221", "name": "Blue Valley Montessori", "brand": "Montessori School"}, "geometry": {"type": "Point", "coordinates": [-94.716465, 38.88565]}},
{"type": "Feature", "id": "bxffXQncs2mGIa_INB_hKAJqIOM=", "properties": {"ref": "7341", "@spider": "montessori_school", "addr:full": "3100 Parker Road", "addr:city": "West Linn", "addr:state": "OR", "addr:postcode": "97068", "name": "Cascade Summit Montessori", "brand": "Montessori School"}, "geometry": {"type": "Point", "coordinates": [-122.633379, 45.360857]}},
{"type": "Feature", "id": "ssWtX1ZeC-NMVHnq3WBiO5JHkBs=", "properties": {"ref": "7342", "@spider": "montessori_school", "addr:full": "15188 NW Central Drive", "addr:city": "Portland", "addr:state": "OR", "addr:postcode": "97229", "name": "Bethany Village Montessori", "brand": "Montessori School"}, "geometry": {"type": "Point", "coordinates": [-122.833029, 45.554191]}},
{"type": "Feature", "id": "RHpWD9huMvq5JG80hOyk6jJ78dU=", "properties": {"ref": "7703", "@spider": "montessori_school", "addr:full": "4980 Irvine Blvd", "addr:city": "Irvine", "addr:state": "CA", "addr:postcode": "92620", "name": "Great Foundations Montessori - Northwood", "brand": "Montessori School"}, "geometry": {"type": "Point", "coordinates": [-117.758549, 33.71206]}},
{"type": "Feature", "id": "xC7eRWjVa84BFuMmWZrwgT30g5I=", "properties": {"ref": "7704", "@spider": "montessori_school", "addr:full": "6304 Irvine Blvd", "addr:city": "Irvine", "addr:state": "CA", "addr:postcode": "92620", "name": "Great Foundations Montessori - Woodbury", "brand": "Montessori School"}, "geometry": {"type": "Point", "coordinates": [-117.741597, 33.697985]}},
{"type": "Feature", "id": "aL2DXRMkGI_OBk9ZvQHbc5rgcFA=", "properties": {"ref": "7705", "@spider": "montessori_school", "addr:full": "15140 Kensington Park Dr", "addr:city": "Tustin", "addr:state": "CA", "addr:postcode": "92782", "name": "Great Foundations Montessori - Tustin", "brand": "Montessori School"}, "geometry": {"type": "Point", "coordinates": [-117.815796, 33.711677]}}]}