{"type":"FeatureCollection","features":[{"type": "Feature", "id": "JF8KJtC2tWSZWSEj_hdHUACbIn8=", "properties": {"ref": "vegas-mall", "@spider": "nandos_in", "amenity": "restaurant", "cuisine": "chicken;portuguese", "addr:full": "Shop No. 8A, 5th Floor, Vegas Mall, Sec -14, Delhi, Dwarka", "addr:city": "Delhi", "addr:state": "Dwarka", "addr:country": "IN", "name": "Vegas Mall (Delivery & Takeout only)", "website": "https://www.nandosindia.com/eat/restaurant/vegas-mall", "brand": "Nando's", "brand:wikidata": "Q3472954", "nsi_id": "nandos-32ebee"}, "geometry": {"type": "Point", "coordinates": [77.030044, 28.6011115]}},
{"type": "Feature", "id": "_2N1zpfOKqhwFvRDs_dTHXrzZec=", "properties": {"ref": "nandos-ambience", "@spider": "nandos_in", "amenity": "restaurant", "cuisine": "chicken;portuguese", "addr:full": "Gurgaon - Delhi Expy, 3rd Floor, Ambience Mall, DLF Phase 3, Gurugram, Haryana, 122022", "addr:city": "Gurugram", "addr:state": "Haryana", "addr:country": "IN", "name": "Nando's Ambience ", "website": "https://www.nandosindia.com/eat/restaurant/nandos-ambience", "brand": "Nando's", "brand:wikidata": "Q3472954", "nsi_id": "nandos-32ebee"}, "geometry": {"type": "Point", "coordinates": [77.096378, 28.505103]}},
{"type": "Feature", "id": "yKbaUvWpxZP22nBfh2asN7S-B80=", "properties": {"ref": "nandos-phoenix-market-city", "@spider": "nandos_in", "amenity": "restaurant", "cuisine": "chicken;portuguese", "addr:full": "Whitefield Main Road, Unit UG-15, Upper ground floor, Phoenix Market city, Krishnarajapura, Bengaluru, Karnataka, 560048", "addr:city": "Bengaluru", "addr:state": "Karnataka", "addr:country": "IN", "name": "Nando's Phoenix Market City (Delivery & Take Out only)", "website": "https://www.nandosindia.com/eat/restaurant/nandos-phoenix-market-city", "brand": "Nando's", "brand:wikidata": "Q3472954", "nsi_id": "nandos-32ebee"}, "geometry": {"type": "Point", "coordinates": [77.69654, 12.997432]}},
{"type": "Feature", "id": "Qf-AnlYQv89YGMZUE7kuNRE0P0U=", "properties": {"ref": "Nando-12th-main", "@spider": "nandos_in", "amenity": "restaurant", "cuisine": "chicken;portuguese", "addr:full": "12th Main Rd, Indiranagar, Bengaluru, Karnataka, 560008", "addr:city": "Bengaluru", "addr:state": "Karnataka", "addr:country": "IN", "name": "Nando's 12th Main (Delivery & Take Out only)", "website": "https://www.nandosindia.com/eat/restaurant/Nando-12th-main", "brand": "Nando's", "brand:wikidata": "Q3472954", "nsi_id": "nandos-32ebee"}, "geometry": {"type": "Point", "coordinates": [77.638042, 12.969896]}},
{"type": "Feature", "id": "C1wtTQnN7CPVI-rRWnqpQFIf018=", "properties": {"ref": "nandos-mall-of-india", "@spider": "nandos_in", "amenity": "restaurant", "cuisine": "chicken;portuguese", "addr:full": "Maharaja Agrasen Marg, DLF Mall of India, Sector 18, Noida, Uttar Pradesh, 201301", "addr:city": "Noida", "addr:state": "Uttar Pradesh", "addr:country": "IN", "name": "Nando's Mall of India ", "website": "https://www.nandosindia.com/eat/restaurant/nandos-mall-of-india", "brand": "Nando's", "brand:wikidata": "Q3472954", "nsi_id": "nandos-32ebee"}, "geometry": {"type": "Point", "coordinates": [77.321315, 28.567378]}},
{"type": "Feature", "id": "jlJrHaUFoFp0xY_X9FVKUnV48ic=", "properties": {"ref": "nandos-elante", "@spider": "nandos_in", "amenity": "restaurant", "cuisine": "chicken;portuguese", "addr:full": "Ginger Hotel Road, Shop 178-178A, Third Floor, Elante Mall, Industrial Area Phase I, Chandigarh, 160002", "addr:state": "Chandigarh", "addr:country": "IN", "name": "Nando's Elante  (Delivery & Take Out only)", "website": "https://www.nandosindia.com/eat/restaurant/nandos-elante", "brand": "Nando's", "brand:wikidata": "Q3472954", "nsi_id": "nandos-32ebee"}, "geometry": {"type": "Point", "coordinates": [76.800742, 30.705652]}},
{"type": "Feature", "id": "trYNSmSkupLNATUqch_DBboZb3A=", "properties": {"ref": "nandos-promenade", "@spider": "nandos_in", "amenity": "restaurant", "cuisine": "chicken;portuguese", "addr:full": "Nelson Mandela Marg, Second Floor, DLF Promenade mall, Vasant Kunj, New Delhi, Delhi, 110070", "addr:city": "New Delhi", "addr:state": "Delhi", "addr:country": "IN", "name": "Nando's Promenade, VK  (Delivery & Take Out only)", "website": "https://www.nandosindia.com/eat/restaurant/nandos-promenade", "brand": "Nando's", "brand:wikidata": "Q3472954", "nsi_id": "nandos-32ebee"}, "geometry": {"type": "Point", "coordinates": [77.156739, 28.542694]}},
{"type": "Feature", "id": "ChyA5BRar54WUq7kJOB7bb0DpJ0=", "properties": {"ref": "orion-mall-brigade-gateway", "@spider": "nandos_in", "amenity": "restaurant", "cuisine": "chicken;portuguese", "addr:full": "Dr Rajkumar Road, Orion Mall, Rajajinagar, Bengaluru, Karnataka, 560055", "addr:city": "Bengaluru", "addr:state": "Karnataka", "addr:country": "IN", "name": "Nando's Orion (Delivery & Take Out only)", "website": "https://www.nandosindia.com/eat/restaurant/orion-mall-brigade-gateway", "brand": "Nando's", "brand:wikidata": "Q3472954", "nsi_id": "nandos-32ebee"}, "geometry": {"type": "Point", "coordinates": [77.555211, 13.01175]}},
{"type": "Feature", "id": "oBFbOLbnGxxlu-W7KmClJv_N5Yo=", "properties": {"ref": "nandos-cyberhub", "@spider": "nandos_in", "amenity": "restaurant", "cuisine": "chicken;portuguese", "addr:full": "Delhi - Jaipur Expy, Shop 12-14, Ground Floor, Cyber City, DLF Phase 2, Gurugram, Haryana , 122022", "addr:city": "Gurugram", "addr:state": "Haryana ", "addr:country": "IN", "name": "Nando's Cyberhub  (Delivery & Take Out only)", "website": "https://www.nandosindia.com/eat/restaurant/nandos-cyberhub", "brand": "Nando's", "brand:wikidata": "Q3472954", "nsi_id": "nandos-32ebee"}, "geometry": {"type": "Point", "coordinates": [77.088505, 28.495665]}},
{"type": "Feature", "id": "Xipkg7EynUyebc_aZWr1Yept5B0=", "properties": {"ref": "nandos-epicuria", "@spider": "nandos_in", "amenity": "restaurant", "cuisine": "chicken;portuguese", "addr:full": "Astha Kunj Road, Upper Ground floor, Epicuria Mall, Nehru Place, New Delhi , Delhi, 110019", "addr:city": "New Delhi ", "addr:state": "Delhi", "addr:country": "IN", "name": "Nando's Epicuria (Delivery & Take Out only)", "website": "https://www.nandosindia.com/eat/restaurant/nandos-epicuria", "brand": "Nando's", "brand:wikidata": "Q3472954", "nsi_id": "nandos-32ebee"}, "geometry": {"type": "Point", "coordinates": [77.251885, 28.551333]}},
{"type": "Feature", "id": "j82DzxZwwK1d65rU0CR4AdyNmMQ=", "properties": {"ref": "nandos-punjabi-bagh", "@spider": "nandos_in", "amenity": "restaurant", "cuisine": "chicken;portuguese", "addr:full": "25 North West Avenue Road, Upper Ground Floor,, Punjabi Bagh West, New Delhi , Delhi, 110026", "addr:city": "New Delhi ", "addr:state": "Delhi", "addr:country": "IN", "name": "Nando's Punjabi Bagh (Delivery & Take Out only)", "website": "https://www.nandosindia.com/eat/restaurant/nandos-punjabi-bagh", "brand": "Nando's", "brand:wikidata": "Q3472954", "nsi_id": "nandos-32ebee"}, "geometry": {"type": "Point", "coordinates": [77.124567, 28.666631]}},
{"type": "Feature", "id": "qVIZRv2mNrPUfs5_I3-ywqpqJ0Q=", "properties": {"ref": "nandos-connaught-place", "@spider": "nandos_in", "amenity": "restaurant", "cuisine": "chicken;portuguese", "addr:full": "Radial Road Number 1, Block F, Malhotra Building, Connaught Place, New Delhi , Delhi, 110001", "addr:city": "New Delhi ", "addr:state": "Delhi", "addr:country": "IN", "name": "Nando's Connaught Place (Delivery & Take Out only)", "website": "https://www.nandosindia.com/eat/restaurant/nandos-connaught-place", "brand": "Nando's", "brand:wikidata": "Q3472954", "nsi_id": "nandos-32ebee"}, "geometry": {"type": "Point", "coordinates": [77.219841, 28.6309]}}]}