{"type":"FeatureCollection","features":[{"type": "Feature", "id": "fkONuV23M5aNW9KZDSRRwpmuCqg=", "properties": {"ref": "nandos-dha6-Lahore", "@spider": "nandos_pk", "amenity": "restaurant", "cuisine": "chicken;portuguese", "addr:full": "157 MB, J block D.H.A Phase 6, Shabbir Sharif Road, Lahore, Punjab, 54792", "addr:city": "Lahore", "addr:state": "Punjab", "addr:country": "PK", "name": "Nando's DHA Phase 6", "phone": "+2742111626367", "website": "https://www.nandos.pk/eat/restaurant/nandos-dha6-Lahore", "brand": "Nando's", "brand:wikidata": "Q3472954", "nsi_id": "nandos-32ebee"}, "geometry": {"type": "Point", "coordinates": [74.456811, 31.483664]}},
{"type": "Feature", "id": "mpVKxm1Ss4KgwfjcE3t8c24WGzc=", "properties": {"ref": "nandos-bahria-rawalpindi", "@spider": "nandos_pk", "amenity": "restaurant", "cuisine": "chicken;portuguese", "addr:full": "Plot No. 10 Theme Park Avenue, Phase 7, Bahria Town, Rawalpindi, Punjab, 46220", "addr:city": "Rawalpindi", "addr:state": "Punjab", "addr:country": "PK", "name": "Nando's Bahria Rawalpindi", "phone": "+2751111626367", "website": "https://www.nandos.pk/eat/restaurant/nandos-bahria-rawalpindi", "brand": "Nando's", "brand:wikidata": "Q3472954", "nsi_id": "nandos-32ebee"}, "geometry": {"type": "Point", "coordinates": [73.098142, 33.528749]}},
{"type": "Feature", "id": "V_PwVumbToZ2o20Io6xvtz0eaVA=", "properties": {"ref": "nandos-emporium", "@spider": "nandos_pk", "amenity": "restaurant", "cuisine": "chicken;portuguese", "addr:full": "3rd Floor, Emporium Mall, Abdul Haque Rd, Trade Centre Commercial Area Phase 2, Johar Town, Lahore, Punjab, 54000", "addr:city": "Lahore", "addr:state": "Punjab", "addr:country": "PK", "name": "Nando's Emporium", "phone": "+2742111626367", "website": "https://www.nandos.pk/eat/restaurant/nandos-emporium", "brand": "Nando's", "brand:wikidata": "Q3472954", "nsi_id": "nandos-32ebee"}, "geometry": {"type": "Point", "coordinates": [74.265353, 31.466544]}},
{"type": "Feature", "id": "bFcmdIDzhYLUti9n0PmvWXJ8W7c=", "properties": {"ref": "nandos-faisalabad", "@spider": "nandos_pk", "amenity": "restaurant", "cuisine": "chicken;portuguese", "addr:full": "Mall 2, Plot No. 6, Kohinoor City, Faisalabad, Punjab", "addr:city": "Faisalabad", "addr:state": "Punjab", "addr:country": "PK", "name": "Nando's Faisalabad", "phone": "+2741111626367", "website": "https://www.nandos.pk/eat/restaurant/nandos-faisalabad", "brand": "Nando's", "brand:wikidata": "Q3472954", "nsi_id": "nandos-32ebee"}, "geometry": {"type": "Point", "coordinates": [73.116115, 31.413077]}},
{"type": "Feature", "id": "N89JjwrO9vRbQrQ8bEObY4tTjZk=", "properties": {"ref": "nandos-islamabad", "@spider": "nandos_pk", "amenity": "restaurant", "cuisine": "chicken;portuguese", "addr:full": "10-B, Super Market, F6, Islamabad, Punjab", "addr:city": "Islamabad", "addr:state": "Punjab", "addr:country": "PK", "name": "Nando's Islamabad", "phone": "+2751111626367", "website": "https://www.nandos.pk/eat/restaurant/nandos-islamabad", "brand": "Nando's", "brand:wikidata": "Q3472954", "nsi_id": "nandos-32ebee"}, "geometry": {"type": "Point", "coordinates": [73.077886, 33.729984]}},
{"type": "Feature", "id": "kfyYtYJnKCyVGEFC7v5_RqfqLEE=", "properties": {"ref": "nandos-dha-Lahore", "@spider": "nandos_pk", "amenity": "restaurant", "cuisine": "chicken;portuguese", "addr:full": "Plot No. 13, Sector Z Commercial 3, D.H.A, Lahore Cantt, Lahore, Punjab", "addr:city": "Lahore", "addr:state": "Punjab", "addr:country": "PK", "name": "Nando's D.H.A. Block Z", "phone": "+2742111626367", "website": "https://www.nandos.pk/eat/restaurant/nandos-dha-Lahore", "brand": "Nando's", "brand:wikidata": "Q3472954", "nsi_id": "nandos-32ebee"}, "geometry": {"type": "Point", "coordinates": [74.378568, 31.475028]}},
{"type": "Feature", "id": "oyefEM_2e8L_bJObufu5mtOIp3s=", "properties": {"ref": "nandos-gulberg", "@spider": "nandos_pk", "amenity": "restaurant", "cuisine": "chicken;portuguese", "addr:full": "Plot No. 39, Block A/2, Mian Mehmood Ali Kasuri Road, Gulberg 3, Lahore, Punjab", "addr:city": "Lahore", "addr:state": "Punjab", "addr:country": "PK", "name": "Nando's Gulberg", "phone": "+2742111626367", "website": "https://www.nandos.pk/eat/restaurant/nandos-gulberg", "brand": "Nando's", "brand:wikidata": "Q3472954", "nsi_id": "nandos-32ebee"}, "geometry": {"type": "Point", "coordinates": [74.354793, 31.507454]}},
{"type": "Feature", "id": "QKCXITBJwd7vwL8oQMTDpWZMFWs=", "properties": {"ref": "nandos-dolmen-mall-clifton", "@spider": "nandos_pk", "amenity": "restaurant", "cuisine": "chicken;portuguese", "addr:full": "F&B-2, Ground floor (near Gate-2), Dolmen Mall Clifton, Dolmen City, HC-3, Block-1, Clifton, Karachi, Sindh, 75600", "addr:city": "Karachi", "addr:state": "Sindh", "addr:country": "PK", "name": "Nando's Dolmen Mall Clifton", "phone": "+2721111626367", "website": "https://www.nandos.pk/eat/restaurant/nandos-dolmen-mall-clifton", "brand": "Nando's", "brand:wikidata": "Q3472954", "nsi_id": "nandos-32ebee"}, "geometry": {"type": "Point", "coordinates": [67.029386, 24.802444]}},
{"type": "Feature", "id": "fxmPr3a2R0n8P94syHb22rzanUA=", "properties": {"ref": "nandos-boat-basin", "@spider": "nandos_pk", "amenity": "restaurant", "cuisine": "chicken;portuguese", "addr:full": "Q.M. Building BC-15, Block 7, Showroom 2 KDA Scheme 5 Kehkashan Clifton, Boat Basin, Karachi, Sindh, 75600", "addr:city": "Karachi", "addr:state": "Sindh", "addr:country": "PK", "name": "Nando's Boat Basin", "phone": "+2721111626367", "website": "https://www.nandos.pk/eat/restaurant/nandos-boat-basin", "brand": "Nando's", "brand:wikidata": "Q3472954", "nsi_id": "nandos-32ebee"}, "geometry": {"type": "Point", "coordinates": [67.02448, 24.82732]}},
{"type": "Feature", "id": "O2WRllalmi7d0uCrbsSbfSUljyY=", "properties": {"ref": "nandos-north-nazimabad", "@spider": "nandos_pk", "amenity": "restaurant", "cuisine": "chicken;portuguese", "addr:full": "Plot D - 11, Block D, North Nazimabad , Karachi, Sindh, 74600", "addr:city": "Karachi", "addr:state": "Sindh", "addr:country": "PK", "name": "Nando's North Nazimabad", "phone": "+2721111626367", "website": "https://www.nandos.pk/eat/restaurant/nandos-north-nazimabad", "brand": "Nando's", "brand:wikidata": "Q3472954", "nsi_id": "nandos-32ebee"}, "geometry": {"type": "Point", "coordinates": [67.044644, 24.939754]}},
{"type": "Feature", "id": "aeBOW2Kx7aikolaLafN-KcN9Xq8=", "properties": {"ref": "nandos-smchs", "@spider": "nandos_pk", "amenity": "restaurant", "cuisine": "chicken;portuguese", "addr:full": "Plot 8, Block A, Sub Block D, SMCHS, Karachi, Sindh, 72500", "addr:city": "Karachi", "addr:state": "Sindh", "addr:country": "PK", "name": "Nando's SMCHS", "phone": "+2721111626367", "website": "https://www.nandos.pk/eat/restaurant/nandos-smchs", "brand": "Nando's", "brand:wikidata": "Q3472954", "nsi_id": "nandos-32ebee"}, "geometry": {"type": "Point", "coordinates": [67.055197, 24.862611]}},
{"type": "Feature", "id": "4FqTX3_1GYUUpIVMryc9L-xQaUc=", "properties": {"ref": "nandos-sehar", "@spider": "nandos_pk", "amenity": "restaurant", "cuisine": "chicken;portuguese", "addr:full": "Plot No. 31-D, Phase 6, D.H.A, Khayaban-e-Seher, Karachi, Sindh, 75500", "addr:city": "Karachi", "addr:state": "Sindh", "addr:country": "PK", "name": "Nando's Sehar", "phone": "+2721111626367", "website": "https://www.nandos.pk/eat/restaurant/nandos-sehar", "brand": "Nando's", "brand:wikidata": "Q3472954", "nsi_id": "nandos-32ebee"}, "geometry": {"type": "Point", "coordinates": [67.049944, 24.794903]}}]}