{"type":"FeatureCollection","features":[{"type": "Feature", "id": "D08M-G0qPhgFz4WzJmmDtiDam0E=", "properties": {"ref": "Nandos-Victoria-Falls", "@spider": "nandos_zw", "amenity": "restaurant", "cuisine": "chicken;portuguese", "addr:full": "Pioneer Road, Sawanga Mall, Victoria Falls, Victoria Falls, Matebeleland North", "addr:city": "Victoria Falls", "addr:state": "Matebeleland North", "addr:country": "ZW", "name": "Nandos Victoria Falls (Dine-in, Delivery & Takeaway)", "website": "https://www.nandos.co.zw/eat/restaurant/Nandos-Victoria-Falls", "brand": "Nando's", "brand:wikidata": "Q3472954", "nsi_id": "nandos-32ebee"}, "geometry": {"type": "Point", "coordinates": [25.83465608246695, -17.929995001381513]}},
{"type": "Feature", "id": "UHTrttuktVLczf8uAzGiwNP5ZqQ=", "properties": {"ref": "nandos-gweru", "@spider": "nandos_zw", "amenity": "restaurant", "cuisine": "chicken;portuguese", "addr:full": "7th St, Stand no. 61, Gweru, Midlands", "addr:city": "Gweru", "addr:state": "Midlands", "addr:country": "ZW", "name": "Nando's Gweru (Dine-in, Delivery & Takeaway)", "website": "https://www.nandos.co.zw/eat/restaurant/nandos-gweru", "brand": "Nando's", "brand:wikidata": "Q3472954", "nsi_id": "nandos-32ebee"}, "geometry": {"type": "Point", "coordinates": [31.030978, -17.83055]}},
{"type": "Feature", "id": "KH3C2PodCFuvbiReE1UId2sdnYE=", "properties": {"ref": "nandos-kwekwe", "@spider": "nandos_zw", "amenity": "restaurant", "cuisine": "chicken;portuguese", "addr:full": "92 Robert Mugabe , CBD, Kwekwe, Midlands, kwe", "addr:city": "Kwekwe", "addr:state": "Midlands", "addr:country": "ZW", "name": "Nando's Kwekwe (Dine-in, Delivery & Takeaway)", "website": "https://www.nandos.co.zw/eat/restaurant/nandos-kwekwe", "brand": "Nando's", "brand:wikidata": "Q3472954", "nsi_id": "nandos-32ebee"}, "geometry": {"type": "Point", "coordinates": [29.806379, -18.930492]}},
{"type": "Feature", "id": "5QoVrd2wACHDRj5ed7i5lO9iNrE=", "properties": {"ref": "nandos-Jason-moyo", "@spider": "nandos_zw", "amenity": "restaurant", "cuisine": "chicken;portuguese", "addr:full": "Jason Moyo Avenue, CBD, Bulawayo, Bulawayo, byo", "addr:city": "Bulawayo", "addr:state": "Bulawayo", "addr:country": "ZW", "name": "Nando's Jason Moyo (Dine-in, Delivery & Takeaway)", "website": "https://www.nandos.co.zw/eat/restaurant/nandos-Jason-moyo", "brand": "Nando's", "brand:wikidata": "Q3472954", "nsi_id": "nandos-32ebee"}, "geometry": {"type": "Point", "coordinates": [28.583143, -20.155085]}},
{"type": "Feature", "id": "_dL9W6e3a4BVRlDQdwxAkCaRkKE=", "properties": {"ref": "nandos-mutare", "@spider": "nandos_zw", "amenity": "restaurant", "cuisine": "chicken;portuguese", "addr:full": "32 Second Street, CBD, Mutare, Manicaland, mtr", "addr:city": "Mutare", "addr:state": "Manicaland", "addr:country": "ZW", "name": "Nando's Mutare (Dine-in, Delivery & Takeaway)", "website": "https://www.nandos.co.zw/eat/restaurant/nandos-mutare", "brand": "Nando's", "brand:wikidata": "Q3472954", "nsi_id": "nandos-32ebee"}, "geometry": {"type": "Point", "coordinates": [32.670014, -18.973763]}},
{"type": "Feature", "id": "fyj0LnFfJVcKJQwcmOSpjaboarY=", "properties": {"ref": "nandos-sam-levy-", "@spider": "nandos_zw", "amenity": "restaurant", "cuisine": "chicken;portuguese", "addr:full": "Sam Levy Shopping Centre, Borrowdale, Harare, Harare", "addr:city": "Harare", "addr:state": "Harare", "addr:country": "ZW", "name": "Nando's Sam Levy (Dine-in, Delivery & Takeaway)", "website": "https://www.nandos.co.zw/eat/restaurant/nandos-sam-levy-", "brand": "Nando's", "brand:wikidata": "Q3472954", "nsi_id": "nandos-32ebee"}, "geometry": {"type": "Point", "coordinates": [31.0846015, -17.7607552]}},
{"type": "Feature", "id": "Oa3sR4coMl5sYj1VsGyHCzwZfdY=", "properties": {"ref": "nandos-fife-avenue", "@spider": "nandos_zw", "amenity": "restaurant", "cuisine": "chicken;portuguese", "addr:full": "5 Avenue Shopping Centre, Avenues, Harare, Harare", "addr:city": "Harare", "addr:state": "Harare", "addr:country": "ZW", "name": "Nando's Fife Avenue (Dine-in, Delivery & Takeaway)", "website": "https://www.nandos.co.zw/eat/restaurant/nandos-fife-avenue", "brand": "Nando's", "brand:wikidata": "Q3472954", "nsi_id": "nandos-32ebee"}, "geometry": {"type": "Point", "coordinates": [31.0521326, -17.8190751]}},
{"type": "Feature", "id": "NSW_hukLOEYUz1tUGRhsXt3T-g8=", "properties": {"ref": "nandos-simon-mazorodze", "@spider": "nandos_zw", "amenity": "restaurant", "cuisine": "chicken;portuguese", "addr:full": "38 Simon Mazorodze, Mbare, Harare, Harare, hre", "addr:city": "Harare", "addr:state": "Harare", "addr:country": "ZW", "name": "Nando's Simon Mazorodze (Dine-in, Delivery & Takeaway)", "website": "https://www.nandos.co.zw/eat/restaurant/nandos-simon-mazorodze", "brand": "Nando's", "brand:wikidata": "Q3472954", "nsi_id": "nandos-32ebee"}, "geometry": {"type": "Point", "coordinates": [30.979586, -17.933374]}},
{"type": "Feature", "id": "mAZC3HntpoYcfE0DPNJXb-0GAm0=", "properties": {"ref": "nandos-pomona", "@spider": "nandos_zw", "amenity": "restaurant", "cuisine": "chicken;portuguese", "addr:full": "Pomona Shopping Centre, 54 Edinburgh Road, Pomona, Harare, Harare, hre", "addr:city": "Harare", "addr:state": "Harare", "addr:country": "ZW", "name": "Nando's Pomona (Dine-in, Delivery & Takeaway)", "website": "https://www.nandos.co.zw/eat/restaurant/nandos-pomona", "brand": "Nando's", "brand:wikidata": "Q3472954", "nsi_id": "nandos-32ebee"}, "geometry": {"type": "Point", "coordinates": [31.077474, -17.762289]}},
{"type": "Feature", "id": "NmYaT0iDGd0nhkCEKiuWvqdL1Bg=", "properties": {"ref": "nandos-marimba", "@spider": "nandos_zw", "amenity": "restaurant", "cuisine": "chicken;portuguese", "addr:full": "Marimba Shopping Centre, Belvedere, CBD, Harare, Harare, hre", "addr:city": "Harare", "addr:state": "Harare", "addr:country": "ZW", "name": "Nando's Marimba (Dine-in, Delivery & Takeaway)", "phone": "+27777006847", "website": "https://www.nandos.co.zw/eat/restaurant/nandos-marimba", "brand": "Nando's", "brand:wikidata": "Q3472954", "nsi_id": "nandos-32ebee"}, "geometry": {"type": "Point", "coordinates": [31.011222, -17.831599]}},
{"type": "Feature", "id": "zlLPNNqQKtV3dGCu5y-lnBf2ihw=", "properties": {"ref": "nandos-speke", "@spider": "nandos_zw", "amenity": "restaurant", "cuisine": "chicken;portuguese", "addr:full": "16885 Speke Avenue, CBD, Harare, Harare, hre", "addr:city": "Harare", "addr:state": "Harare", "addr:country": "ZW", "name": "Nando's Speke (Dine-in, Delivery & Takeaway)", "website": "https://www.nandos.co.zw/eat/restaurant/nandos-speke", "brand": "Nando's", "brand:wikidata": "Q3472954", "nsi_id": "nandos-32ebee"}, "geometry": {"type": "Point", "coordinates": [31.043513, -17.832353]}},
{"type": "Feature", "id": "3nzCWI3QCSEO6lIUN6JCzynoCTw=", "properties": {"ref": "nandos-msasa", "@spider": "nandos_zw", "amenity": "restaurant", "cuisine": "chicken;portuguese", "addr:full": "Beverly Shopping Centre, Mutare Road, CBD, Harare, Harare, hre", "addr:city": "Harare", "addr:state": "Harare", "addr:country": "ZW", "name": "Nando's Msasa (Dine-in, Delivery & Takeaway)", "website": "https://www.nandos.co.zw/eat/restaurant/nandos-msasa", "brand": "Nando's", "brand:wikidata": "Q3472954", "nsi_id": "nandos-32ebee"}, "geometry": {"type": "Point", "coordinates": [31.085588, -17.833017]}},
{"type": "Feature", "id": "fc2EF6A1ex1qjNcZY4kmMPSUfvo=", "properties": {"ref": "nandos-samora-machel", "@spider": "nandos_zw", "amenity": "restaurant", "cuisine": "chicken;portuguese", "addr:full": "142 Samora Machel, CBD, Harare, Harare, hre", "addr:city": "Harare", "addr:state": "Harare", "addr:country": "ZW", "name": "Nando's Samora Machel (Dine-in, Delivery & Takeaway)", "website": "https://www.nandos.co.zw/eat/restaurant/nandos-samora-machel", "brand": "Nando's", "brand:wikidata": "Q3472954", "nsi_id": "nandos-32ebee"}, "geometry": {"type": "Point", "coordinates": [31.076901, -17.821267]}},
{"type": "Feature", "id": "INs7vCyikcJeSXKwLRloMlMwu6U=", "properties": {"ref": "nandos-avondale", "@spider": "nandos_zw", "amenity": "restaurant", "cuisine": "chicken;portuguese", "addr:full": "Avondale Shopping Centre, 321-14 King George Road, Avondale, CBD, Harare, Harare, hre", "addr:city": "Harare", "addr:state": "Harare", "addr:country": "ZW", "name": "Nando's Avondale (Dine-in, Delivery & Takeaway)", "website": "https://www.nandos.co.zw/eat/restaurant/nandos-avondale", "brand": "Nando's", "brand:wikidata": "Q3472954", "nsi_id": "nandos-32ebee"}, "geometry": {"type": "Point", "coordinates": [31.033419, -17.796287]}}]}