{"type":"FeatureCollection","features":[{"type": "Feature", "id": "lCjSkTYyiqF1kTvIIQ9hdkEM-7Y=", "properties": {"ref": "bugis-junction", "@spider": "nandos_sg", "amenity": "restaurant", "cuisine": "chicken;portuguese", "addr:full": "#01-85/87 Bugis Junction 200 Victoria Street Singapore 188021", "addr:country": "SG", "name": "Bugis Junction", "website": "https://www.nandos.com.sg/restaurants/bugis-junction/", "brand": "Nando's", "brand:wikidata": "Q3472954", "nsi_id": "nandos-32ebee"}, "geometry": {"type": "Point", "coordinates": [103.854761, 1.29889]}},
{"type": "Feature", "id": "9TifWaFzHgEmYiv0xy__ffjbbII=", "properties": {"ref": "tampines-mall", "@spider": "nandos_sg", "amenity": "restaurant", "cuisine": "chicken;portuguese", "addr:full": "#01-46 Tampines Mall 4 Tampines Central 5 Singapore 529510", "addr:country": "SG", "name": "Tampines Mall", "website": "https://www.nandos.com.sg/restaurants/tampines-mall/", "brand": "Nando's", "brand:wikidata": "Q3472954", "nsi_id": "nandos-32ebee"}, "geometry": {"type": "Point", "coordinates": [103.944344, 1.352492]}},
{"type": "Feature", "id": "sBqSJTPVm5zmXc0W24b2xjgukrQ=", "properties": {"ref": "plaza-singapura", "@spider": "nandos_sg", "amenity": "restaurant", "cuisine": "chicken;portuguese", "addr:full": "#04 -10/11 Plaza Singapura 68 Orchard Road Singapore 238839", "addr:country": "SG", "name": "Plaza Singapura", "website": "https://www.nandos.com.sg/restaurants/plaza-singapura/", "brand": "Nando's", "brand:wikidata": "Q3472954", "nsi_id": "nandos-32ebee"}, "geometry": {"type": "Point", "coordinates": [103.845131, 1.30106]}},
{"type": "Feature", "id": "SDMpjK-FoBggmJVqqeMsP4uw5-8=", "properties": {"ref": "the-star-vista", "@spider": "nandos_sg", "amenity": "restaurant", "cuisine": "chicken;portuguese", "addr:full": "#B1-09 The Star Vista 1 Vista Exchange Green Singapore 138617", "addr:country": "SG", "name": "The Star Vista", "website": "https://www.nandos.com.sg/restaurants/the-star-vista/", "brand": "Nando's", "brand:wikidata": "Q3472954", "nsi_id": "nandos-32ebee"}, "geometry": {"type": "Point", "coordinates": [103.788191, 1.307063]}},
{"type": "Feature", "id": "TWoE6qzTOlJTYXCJ8WIa88qpNc8=", "properties": {"ref": "tanglin-mall", "@spider": "nandos_sg", "amenity": "restaurant", "cuisine": "chicken;portuguese", "addr:full": "#01-115/117 Tanglin Mall 163 Tanglin Road Singapore 247933", "addr:country": "SG", "name": "Tanglin Mall", "website": "https://www.nandos.com.sg/restaurants/tanglin-mall/", "brand": "Nando's", "brand:wikidata": "Q3472954", "nsi_id": "nandos-32ebee"}, "geometry": {"type": "Point", "coordinates": [103.823545, 1.305029]}},
{"type": "Feature", "id": "t3fjRUYr1wKcs6uUoiA3OApqZwc=", "properties": {"ref": "jurong-point", "@spider": "nandos_sg", "amenity": "restaurant", "cuisine": "chicken;portuguese", "addr:full": "JP1 #02-32 Jurong Point, 1 Jurong West Central 2 Singapore 648886", "addr:country": "SG", "name": "Jurong Point", "website": "https://www.nandos.com.sg/restaurants/jurong-point/", "brand": "Nando's", "brand:wikidata": "Q3472954", "nsi_id": "nandos-32ebee"}, "geometry": {"type": "Point", "coordinates": [103.70637040489959, 1.3400554084893312]}}]}