{"type":"FeatureCollection","features":[{"type": "Feature", "id": "FG9J6ysv9ptavMKl7618OSaysbQ=", "properties": {"ref": "nandos-salalah-grand-mall-", "@spider": "nandos_om", "amenity": "restaurant", "cuisine": "chicken;portuguese", "addr:full": "Ground Floor, Salalah Grand Mall, North Dahariz, Salalah, Dhofar Governorate", "addr:city": "Salalah", "addr:state": "Dhofar Governorate", "addr:country": "OM", "name": "Nando's Salalah Grand Mall ", "website": "https://www.nandosoman.com/eat/restaurant/nandos-salalah-grand-mall-", "brand": "Nando's", "brand:wikidata": "Q3472954", "nsi_id": "nandos-32ebee"}, "geometry": {"type": "Point", "coordinates": [31.26981, 29.96474]}},
{"type": "Feature", "id": "aSA-weiU28JcMsjN-VsytYCUIIw=", "properties": {"ref": "nandos-al-qurum-complex", "@spider": "nandos_om", "amenity": "restaurant", "cuisine": "chicken;portuguese", "addr:full": "Al Qurum Complex, Shop No. 9697, Building No. 6144, Block No. 206, Way 667, Al Qurum, Al Qurum, Muscat, Muscat, 112", "addr:city": "Muscat", "addr:state": "Muscat", "addr:country": "OM", "name": "Nando's Al Qurum Complex ", "website": "https://www.nandosoman.com/eat/restaurant/nandos-al-qurum-complex", "brand": "Nando's", "brand:wikidata": "Q3472954", "nsi_id": "nandos-32ebee"}, "geometry": {"type": "Point", "coordinates": [58.4975, 23.614328]}},
{"type": "Feature", "id": "VJBlUjWuWEa-lHVDxECjbNYbBDE=", "properties": {"ref": "nandos-al-mouj", "@spider": "nandos_om", "amenity": "restaurant", "cuisine": "chicken;portuguese", "addr:full": "The Walk, Street No. 6, Muscat 138, Oman, Seeb, Seeb, Muscat, 138", "addr:city": "Seeb", "addr:state": "Muscat", "addr:country": "OM", "name": "Nando's Al Mouj ", "website": "https://www.nandosoman.com/eat/restaurant/nandos-al-mouj", "brand": "Nando's", "brand:wikidata": "Q3472954", "nsi_id": "nandos-32ebee"}, "geometry": {"type": "Point", "coordinates": [58.545284, 23.614328]}},
{"type": "Feature", "id": "sexnXxu0J71p4zpJVMxmDV9QoH8=", "properties": {"ref": "Nandos-Muscat-City-Centre", "@spider": "nandos_om", "amenity": "restaurant", "cuisine": "chicken;portuguese", "addr:full": "Muscat City Centre, East Wing, Mawaleh, Seeb, Seeb, Muscat, 112", "addr:city": "Seeb", "addr:state": "Muscat", "addr:country": "OM", "name": "Nando's Muscat City Centre ", "website": "https://www.nandosoman.com/eat/restaurant/Nandos-Muscat-City-Centre", "brand": "Nando's", "brand:wikidata": "Q3472954", "nsi_id": "nandos-32ebee"}, "geometry": {"type": "Point", "coordinates": [58.545284, 23.614328]}}]}