{"type":"FeatureCollection","features":[{"type": "Feature", "id": "wbq6oYQyjnMZnKqcT5qaDRuW4U4=", "properties": {"ref": "nandos-atrium-mall", "@spider": "nandos_bh", "amenity": "restaurant", "cuisine": "chicken;portuguese", "addr:full": "The Atrium Mall, Block 527, Saar Area, Saar", "addr:city": "Saar Area", "addr:state": "Saar", "addr:country": "BH", "name": "Nando's Atrium Mall (Dine In, Delivery & Take Out)", "website": "https://www.nandos.com.bh/eat/restaurant/nandos-atrium-mall", "brand": "Nando's", "brand:wikidata": "Q3472954", "nsi_id": "nandos-32ebee"}, "geometry": {"type": "Point", "coordinates": [50.48378, 26.175685]}},
{"type": "Feature", "id": "vPiMmvPWHi4DWSq7F7mXxe8MYf4=", "properties": {"ref": "nandos-zayed-town", "@spider": "nandos_bh", "amenity": "restaurant", "cuisine": "chicken;portuguese", "addr:full": "Shiekh Salman High Way, Zayed Town, Zayed Town, Central Governorate, Isa Town", "addr:city": "Central Governorate", "addr:state": "Isa Town", "addr:country": "BH", "name": "Nando's Zayed Town (Closed)", "website": "https://www.nandos.com.bh/eat/restaurant/nandos-zayed-town", "brand": "Nando's", "brand:wikidata": "Q3472954", "nsi_id": "nandos-32ebee"}, "geometry": {"type": "Point", "coordinates": [50.542286, 26.167451]}},
{"type": "Feature", "id": "1VFqtmbFb3tjrwOm6LSGxGB2NQg=", "properties": {"ref": "nandos-amwaj", "@spider": "nandos_bh", "amenity": "restaurant", "cuisine": "chicken;portuguese", "addr:full": "muharrak government, lagoon, Amwaj islands, lagoon, amwaj islands, Muharrak, Amwaj, 251", "addr:city": "Muharrak", "addr:state": "Amwaj", "addr:country": "BH", "name": "Nando's Amwaj (Dine In, Delivery & Take Out)", "website": "https://www.nandos.com.bh/eat/restaurant/nandos-amwaj", "brand": "Nando's", "brand:wikidata": "Q3472954", "nsi_id": "nandos-32ebee"}, "geometry": {"type": "Point", "coordinates": [50.664843, 26.288934]}},
{"type": "Feature", "id": "lRh0jXaze_ugyWxARyFIuqWfn8o=", "properties": {"ref": "nandos-seef-mall", "@spider": "nandos_bh", "amenity": "restaurant", "cuisine": "chicken;portuguese", "addr:full": "Manama, seef mall, Seef area, Seef Area, Manama, Manama, 428", "addr:city": "Manama", "addr:state": "Manama", "addr:country": "BH", "name": "Nando's Seef mall (Dine In, Delivery & Take Out)", "website": "https://www.nandos.com.bh/eat/restaurant/nandos-seef-mall", "brand": "Nando's", "brand:wikidata": "Q3472954", "nsi_id": "nandos-32ebee"}, "geometry": {"type": "Point", "coordinates": [50.537973, 26.233162]}},
{"type": "Feature", "id": "xqglvltZFxWb6TXJcC6Yy3n78oc=", "properties": {"ref": "nandos-juffair", "@spider": "nandos_bh", "amenity": "restaurant", "cuisine": "chicken;portuguese", "addr:full": "Nando's, Shabab Avenue, Manama, Shabab avenue, Juffair, Manama, Manama, 340", "addr:city": "Manama", "addr:state": "Manama", "addr:country": "BH", "name": "Nando's Juffair (Dine In, Delivery & Take Out)", "website": "https://www.nandos.com.bh/eat/restaurant/nandos-juffair", "brand": "Nando's", "brand:wikidata": "Q3472954", "nsi_id": "nandos-32ebee"}, "geometry": {"type": "Point", "coordinates": [50.608403, 26.211213]}}]}