{"type":"FeatureCollection","features":[{"type": "Feature", "id": "-UXZIDs2eL8ScQNPoG5d6xiRZXQ=", "properties": {"ref": "nandos-sunway-carnival", "@spider": "nandos_my", "amenity": "restaurant", "cuisine": "chicken;portuguese", "addr:full": "LG-06,Lower Ground Floor, Sunway Carnival Mall, 3068, Jalan Todak, Pusat Bandar Seberang Jaya, Seberang Jaya, Pulau Pinang 13700", "addr:country": "MY", "name": "Sunway Carnival", "website": "https://nandos.com.my/restaurants/nandos-sunway-carnival/", "brand": "Nando's", "brand:wikidata": "Q3472954", "nsi_id": "nandos-32ebee"}, "geometry": {"type": "Point", "coordinates": [100.398032, 5.398554]}},
{"type": "Feature", "id": "BWCstnxjxlohZ-JvMArBYdct1Bo=", "properties": {"ref": "nandos-east-coast-mall", "@spider": "nandos_my", "amenity": "restaurant", "cuisine": "chicken;portuguese", "addr:full": "GF-01A & GF-01B, Ground Floor, East Coast Mall, Jalan Putra Square 6, Putra Square, Kuantan, Pahang 25200", "addr:country": "MY", "name": "East Coast Mall", "website": "https://nandos.com.my/restaurants/nandos-east-coast-mall/", "brand": "Nando's", "brand:wikidata": "Q3472954", "nsi_id": "nandos-32ebee"}, "geometry": {"type": "Point", "coordinates": [103.326836, 3.818763]}},
{"type": "Feature", "id": "A91ZC430cxkTVRl1p-krDqPvqFs=", "properties": {"ref": "nandos-palm-mall", "@spider": "nandos_my", "amenity": "restaurant", "cuisine": "chicken;portuguese", "addr:full": "UG-35, 36 & 37, UG Floor, Palm Mall, Jalan Sungai Ujong, Seremban, Negeri Sembilan 70200 ", "addr:country": "MY", "name": "Palm Mall", "website": "https://nandos.com.my/restaurants/nandos-palm-mall/", "brand": "Nando's", "brand:wikidata": "Q3472954", "nsi_id": "nandos-32ebee"}, "geometry": {"type": "Point", "coordinates": [101.92254, 2.71952]}},
{"type": "Feature", "id": "zi12fVmh6UdXveQ6svlr1HnVneY=", "properties": {"ref": "nandos-aeon-bukit-mertajam", "@spider": "nandos_my", "amenity": "restaurant", "cuisine": "chicken;portuguese", "addr:full": "Lot G-11,\u00a0 AEON Bukit Mertajam Jalan Rozhan Alma, Seberang Perai Tengah, Bukit Mertajam, Pulau Pinang 14000", "addr:country": "MY", "name": "AEON Bukit Mertajam", "website": "https://nandos.com.my/restaurants/nandos-aeon-bukit-mertajam/", "brand": "Nando's", "brand:wikidata": "Q3472954", "nsi_id": "nandos-32ebee"}, "geometry": {"type": "Point", "coordinates": [100.47758, 5.320335]}},
{"type": "Feature", "id": "-A8IAqYKVKnBD3waX6Sw9JklVjA=", "properties": {"ref": "nandos-aeon-melaka", "@spider": "nandos_my", "amenity": "restaurant", "cuisine": "chicken;portuguese", "addr:full": "Lot G02A, Ground Floor, AEON Melaka Shopping Centre, Lebuh Ayer Keroh, Melaka 75450 ", "addr:country": "MY", "name": "AEON Melaka (Ayer Keroh)", "website": "https://nandos.com.my/restaurants/nandos-aeon-melaka/", "brand": "Nando's", "brand:wikidata": "Q3472954", "nsi_id": "nandos-32ebee"}, "geometry": {"type": "Point", "coordinates": [102.283044, 2.234074]}},
{"type": "Feature", "id": "5KMmoAqownOgpEeZmCEo1KnY0Vk=", "properties": {"ref": "nandos-nilai-9-avenue", "@spider": "nandos_my", "amenity": "restaurant", "cuisine": "chicken;portuguese", "addr:full": "Shop 28 & 29, Ground Floor, 9 Avenue, Taman Koporat, Putra Nilai, Nilai, Negeri Sembilan 71800", "addr:country": "MY", "name": "Nilai 9 Avenue", "website": "https://nandos.com.my/restaurants/nandos-nilai-9-avenue/", "brand": "Nando's", "brand:wikidata": "Q3472954", "nsi_id": "nandos-32ebee"}, "geometry": {"type": "Point", "coordinates": [101.790575, 2.811892]}},
{"type": "Feature", "id": "JSkAjHAF6yggXaBev4yeTGt7DoA=", "properties": {"ref": "nandos-mahkota-parade", "@spider": "nandos_my", "amenity": "restaurant", "cuisine": "chicken;portuguese", "addr:full": "G89, Ground Floor,  Mahkota Parade, Melaka 75000", "addr:country": "MY", "name": "Mahkota Parade", "website": "https://nandos.com.my/restaurants/nandos-mahkota-parade/", "brand": "Nando's", "brand:wikidata": "Q3472954", "nsi_id": "nandos-32ebee"}, "geometry": {"type": "Point", "coordinates": [102.250342, 2.188294]}},
{"type": "Feature", "id": "veUvT3RKOqF3kQz0xa97rIQr1F0=", "properties": {"ref": "aeon-bandaraya-melaka", "@spider": "nandos_my", "amenity": "restaurant", "cuisine": "chicken;portuguese", "addr:full": "G80, Ground Floor, AEON Bandaraya Melaka Shopping Centre, 2 Jalan Legenda, Taman 1 Legenda, Melaka  75400", "addr:country": "MY", "name": "AEON Bandaraya Melaka", "website": "https://nandos.com.my/restaurants/aeon-bandaraya-melaka/", "brand": "Nando's", "brand:wikidata": "Q3472954", "nsi_id": "nandos-32ebee"}, "geometry": {"type": "Point", "coordinates": [102.246102, 2.214746]}},
{"type": "Feature", "id": "2jLHvxUUiioPaZRFKJp_7glVW1o=", "properties": {"ref": "nandos-mytown", "@spider": "nandos_my", "amenity": "restaurant", "cuisine": "chicken;portuguese", "addr:full": "Lot B1-02, Basement 1 MyTOWN Shopping Centre No 6, jalan cochrane Seksyen 90, Kuala Lumpur 55100", "addr:country": "MY", "name": "MyTown", "website": "https://nandos.com.my/restaurants/nandos-mytown/", "brand": "Nando's", "brand:wikidata": "Q3472954", "nsi_id": "nandos-32ebee"}, "geometry": {"type": "Point", "coordinates": [101.722905, 3.134467]}},
{"type": "Feature", "id": "5LCZnoaac56T5HMIRHSUcu9gPTk=", "properties": {"ref": "nandos-aeon-taman-maluri", "@spider": "nandos_my", "amenity": "restaurant", "cuisine": "chicken;portuguese", "addr:full": "Lot S08, Second Floor,  Taman Maluri Shopping Centre Jalan Jejaka, Kuala Lumpur 50766", "addr:country": "MY", "name": "AEON Taman Maluri", "website": "https://nandos.com.my/restaurants/nandos-aeon-taman-maluri/", "brand": "Nando's", "brand:wikidata": "Q3472954", "nsi_id": "nandos-32ebee"}, "geometry": {"type": "Point", "coordinates": [101.728223, 3.125783]}},
{"type": "Feature", "id": "WmyhL1AKfjcFrvKZzd9Hxj1jC0U=", "properties": {"ref": "nandos-klcc", "@spider": "nandos_my", "amenity": "restaurant", "cuisine": "chicken;portuguese", "addr:full": "Lot C07, Concourse Floor, Suria KLCC Kuala Lumpur City Centre, Kuala Lumpur 50088", "addr:country": "MY", "name": "KLCC", "website": "https://nandos.com.my/restaurants/nandos-klcc/", "brand": "Nando's", "brand:wikidata": "Q3472954", "nsi_id": "nandos-32ebee"}, "geometry": {"type": "Point", "coordinates": [101.71209, 3.158154]}},
{"type": "Feature", "id": "gy8zaZJ7KJ1k2NZMGrTouOBRT20=", "properties": {"ref": "nandos-pavilion", "@spider": "nandos_my", "amenity": "restaurant", "cuisine": "chicken;portuguese", "addr:full": "Lot No 1.105.00,Pavilion Elite 166,Jalan Bukit Bintang Bukit Bintang, Kuala Lumpur 55100", "addr:country": "MY", "name": "Pavilion", "website": "https://nandos.com.my/restaurants/nandos-pavilion/", "brand": "Nando's", "brand:wikidata": "Q3472954", "nsi_id": "nandos-32ebee"}, "geometry": {"type": "Point", "coordinates": [101.713658, 3.148757]}},
{"type": "Feature", "id": "iM-tEe19xyqJeFE4z2X-D1MphCo=", "properties": {"ref": "nandos-avenue-k", "@spider": "nandos_my", "amenity": "restaurant", "cuisine": "chicken;portuguese", "addr:full": "G17 Ground Floor Avenue K, 156, Jalan Ampang, Kuala Lumpur 50450", "addr:country": "MY", "name": "Avenue K", "website": "https://nandos.com.my/restaurants/nandos-avenue-k/", "brand": "Nando's", "brand:wikidata": "Q3472954", "nsi_id": "nandos-32ebee"}, "geometry": {"type": "Point", "coordinates": [101.713231, 3.159685]}},
{"type": "Feature", "id": "Je1Uwwq0ZaNY0zgYfMlhXx2g6yM=", "properties": {"ref": "nandos-mid-valley", "@spider": "nandos_my", "amenity": "restaurant", "cuisine": "chicken;portuguese", "addr:full": "Lot LG-053, Lower Ground, Mid Valley Megamall, Mid Valley City, Kuala Lumpur 58000", "addr:country": "MY", "name": "Mid Valley", "website": "https://nandos.com.my/restaurants/nandos-mid-valley/", "brand": "Nando's", "brand:wikidata": "Q3472954", "nsi_id": "nandos-32ebee"}, "geometry": {"type": "Point", "coordinates": [101.677027, 3.11641]}},
{"type": "Feature", "id": "RTzoSpy2_e8thkn-EXu7h-vfLI0=", "properties": {"ref": "nandos-bangsar-village", "@spider": "nandos_my", "amenity": "restaurant", "cuisine": "chicken;portuguese", "addr:full": "Lot G19, Ground Floor, Bangsar Village,  Bangsar Baru, Bangsar Baru Kuala Lumpur 59100 ", "addr:country": "MY", "name": "Bangsar Village", "website": "https://nandos.com.my/restaurants/nandos-bangsar-village/", "brand": "Nando's", "brand:wikidata": "Q3472954", "nsi_id": "nandos-32ebee"}, "geometry": {"type": "Point", "coordinates": [101.671127, 3.129204]}},
{"type": "Feature", "id": "tEpTeDwPlw4bgtxrYycDNiPSfuI=", "properties": {"ref": "nandos-publika", "@spider": "nandos_my", "amenity": "restaurant", "cuisine": "chicken;portuguese", "addr:full": "Unit UG-62, Level UG, Publika Shopping Gallery @ Dutamas, Jalan Dutamas 1, Kuala Lumpur  50480", "addr:country": "MY", "name": "Publika", "website": "https://nandos.com.my/restaurants/nandos-publika/", "brand": "Nando's", "brand:wikidata": "Q3472954", "nsi_id": "nandos-32ebee"}, "geometry": {"type": "Point", "coordinates": [101.666192, 3.17067]}},
{"type": "Feature", "id": "TZ-i-wjuoYf4P3qfmJVAB0_L0fA=", "properties": {"ref": "nandos-mesra-mall", "@spider": "nandos_my", "amenity": "restaurant", "cuisine": "chicken;portuguese", "addr:full": "Lot 1, Ground Floor, Mesra Mall , Jalan Kemaman-Dungun, Kemasik, Kemaman, Terengganu 24200", "addr:country": "MY", "name": "Mesra Mall", "website": "https://nandos.com.my/restaurants/nandos-mesra-mall/", "brand": "Nando's", "brand:wikidata": "Q3472954", "nsi_id": "nandos-32ebee"}, "geometry": {"type": "Point", "coordinates": [103.44778, 4.440904]}},
{"type": "Feature", "id": "YoxgJV12-hXqyJhVEHyBMCItyHQ=", "properties": {"ref": "nandos-sri-gombak-no-g-10-g-11", "@spider": "nandos_my", "amenity": "restaurant", "cuisine": "chicken;portuguese", "addr:full": "No G-10 & G-11, Jalan Prima SG1 Taman Prima Sri Gombak, Batu Caves 68100", "addr:country": "MY", "name": "Sri Gombak", "website": "https://nandos.com.my/restaurants/nandos-sri-gombak-no-g-10-g-11/", "brand": "Nando's", "brand:wikidata": "Q3472954", "nsi_id": "nandos-32ebee"}, "geometry": {"type": "Point", "coordinates": [101.699872, 3.237971]}},
{"type": "Feature", "id": "-MJtz1mvO51T3PWoGkWgmFCjhEw=", "properties": {"ref": "nandos-aeon-rawang", "@spider": "nandos_my", "amenity": "restaurant", "cuisine": "chicken;portuguese", "addr:full": "Lot G-60, Ground Floor, AEON Anggun Rawang Shopping Centre, No. 1, Persiaran Anggun, Taman Anggun, Rawang, Selangor  48000", "addr:country": "MY", "name": "AEON Rawang", "website": "https://nandos.com.my/restaurants/nandos-aeon-rawang/", "brand": "Nando's", "brand:wikidata": "Q3472954", "nsi_id": "nandos-32ebee"}, "geometry": {"type": "Point", "coordinates": [101.537441, 3.316053]}},
{"type": "Feature", "id": "nK31uzBrAOxQYUUjH3tSAbYekKA=", "properties": {"ref": "nandos-the-mines", "@spider": "nandos_my", "amenity": "restaurant", "cuisine": "chicken;portuguese", "addr:full": "L1-66 Level 1, Mines Shopping Fair, Jln Dulang, Mines Resorts City, Seri Kembangan Selangor 43300", "addr:country": "MY", "name": "The Mines", "website": "https://nandos.com.my/restaurants/nandos-the-mines/", "brand": "Nando's", "brand:wikidata": "Q3472954", "nsi_id": "nandos-32ebee"}, "geometry": {"type": "Point", "coordinates": [101.718416, 3.028535]}},
{"type": "Feature", "id": "LssZIF-kDDu9SdZUeq-SGinrLqE=", "properties": {"ref": "nandos-mahkota-cheras", "@spider": "nandos_my", "amenity": "restaurant", "cuisine": "chicken;portuguese", "addr:full": "No. 9 & 11 Mahkota Square, Jalan Temenggung 23/9, Bandar Mahkota Cheras, Cheras, Selangor 43200", "addr:country": "MY", "name": "Mahkota Cheras", "website": "https://nandos.com.my/restaurants/nandos-mahkota-cheras/", "brand": "Nando's", "brand:wikidata": "Q3472954", "nsi_id": "nandos-32ebee"}, "geometry": {"type": "Point", "coordinates": [101.788851, 3.054576]}},
{"type": "Feature", "id": "47_fNn9SDDHIokj3F6FbbBTJNXQ=", "properties": {"ref": "nandos-jaya-one", "@spider": "nandos_my", "amenity": "restaurant", "cuisine": "chicken;portuguese", "addr:full": "33-LG2, Block C , Jaya One, No. 72A Jalan Universiti, Petaling Jaya 46200", "addr:country": "MY", "name": "Jaya One", "website": "https://nandos.com.my/restaurants/nandos-jaya-one/", "brand": "Nando's", "brand:wikidata": "Q3472954", "nsi_id": "nandos-32ebee"}, "geometry": {"type": "Point", "coordinates": [101.636559, 3.117996]}},
{"type": "Feature", "id": "alD7DsryIz1MkKPGnF2kZ-4MdKs=", "properties": {"ref": "nandos-subang-parade", "@spider": "nandos_my", "amenity": "restaurant", "cuisine": "chicken;portuguese", "addr:full": "Lot LG 10B-C, Lower Ground Floor, Subang Parade, No.5, Jalan SS16/1, Subang Jaya,  Selangor 47500", "addr:country": "MY", "name": "Subang Parade", "website": "https://nandos.com.my/restaurants/nandos-subang-parade/", "brand": "Nando's", "brand:wikidata": "Q3472954", "nsi_id": "nandos-32ebee"}, "geometry": {"type": "Point", "coordinates": [101.585915, 3.082243]}},
{"type": "Feature", "id": "1A6ihlHQdMgeIqnggOWxT7hizKs=", "properties": {"ref": "nandos-sunway-pyramid", "@spider": "nandos_my", "amenity": "restaurant", "cuisine": "chicken;portuguese", "addr:full": "Lot L2.56, Lower Level 2, Sunway Pyramid, No.3, Jalan PJS11/15, Bandar Sunway, Petaling Jaya, Selangor 46150", "addr:country": "MY", "name": "Sunway Pyramid", "website": "https://nandos.com.my/restaurants/nandos-sunway-pyramid/", "brand": "Nando's", "brand:wikidata": "Q3472954", "nsi_id": "nandos-32ebee"}, "geometry": {"type": "Point", "coordinates": [101.607524, 3.073117]}},
{"type": "Feature", "id": "jgXY77nwGqnSmaPPE7B1HEdmayA=", "properties": {"ref": "nandos-ioi-mall-puchong", "@spider": "nandos_my", "amenity": "restaurant", "cuisine": "chicken;portuguese", "addr:full": "Lot EG003 EG5, Ground Floor, IOI Mall, Batu 9 Jalan Puchong, Bandar Puchong Jaya, Puchong, Selangor  47100", "addr:country": "MY", "name": "IOI Mall Puchong", "website": "https://nandos.com.my/restaurants/nandos-ioi-mall-puchong/", "brand": "Nando's", "brand:wikidata": "Q3472954", "nsi_id": "nandos-32ebee"}, "geometry": {"type": "Point", "coordinates": [101.618207, 3.043593]}},
{"type": "Feature", "id": "xXYxKQRAM2R4kQHCtSp-_0zQEGo=", "properties": {"ref": "nandos-main-place", "@spider": "nandos_my", "amenity": "restaurant", "cuisine": "chicken;portuguese", "addr:full": "Lot GF-23 & GF-26, Ground Floor, Main Place, Jalan USJ/10, Persiaran Kewajipan, Subang Jaya Selangor 47630", "addr:country": "MY", "name": "Main Place", "website": "https://nandos.com.my/restaurants/nandos-main-place/", "brand": "Nando's", "brand:wikidata": "Q3472954", "nsi_id": "nandos-32ebee"}, "geometry": {"type": "Point", "coordinates": [101.580864, 3.02672]}},
{"type": "Feature", "id": "vPuC1RfU9lZPnjZ0L0L-God4NMo=", "properties": {"ref": "nandos-usj-taipan", "@spider": "nandos_my", "amenity": "restaurant", "cuisine": "chicken;portuguese", "addr:full": "No.25 Jalan USJ 10/1E, USJ 10, Taipan, UEP, Subang Jaya, Selangor  47620", "addr:country": "MY", "name": "USJ Taipan", "website": "https://nandos.com.my/restaurants/nandos-usj-taipan/", "brand": "Nando's", "brand:wikidata": "Q3472954", "nsi_id": "nandos-32ebee"}, "geometry": {"type": "Point", "coordinates": [101.583809, 3.048594]}},
{"type": "Feature", "id": "ypYgEDxOSdx457nIwCvaD0U5A1w=", "properties": {"ref": "nandos-gamuda-walk", "@spider": "nandos_my", "amenity": "restaurant", "cuisine": "chicken;portuguese", "addr:full": "Ground floor Lot G-19 & G20, No.12 Persiaran Anggerik Vanilla, Kota Kemuning Seksyen 31, Selangor Darul Ehsan 40460", "addr:country": "MY", "name": "Gamuda Walk", "website": "https://nandos.com.my/restaurants/nandos-gamuda-walk/", "brand": "Nando's", "brand:wikidata": "Q3472954", "nsi_id": "nandos-32ebee"}, "geometry": {"type": "Point", "coordinates": [101.533385, 3.000442]}},
{"type": "Feature", "id": "Dp6vvw52Jnf7i5v9ksLftSVetPk=", "properties": {"ref": "nandos-klia-2", "@spider": "nandos_my", "amenity": "restaurant", "cuisine": "chicken;portuguese", "addr:full": "Lot L3-51, Level 3, Gateway@KLIA2, Terminal KLIA2, KL International Airport, Jalan KLIA 2/1, KLIA, Sepang, Selangor 64000", "addr:country": "MY", "name": "KLIA2", "website": "https://nandos.com.my/restaurants/nandos-klia-2/", "brand": "Nando's", "brand:wikidata": "Q3472954", "nsi_id": "nandos-32ebee"}, "geometry": {"type": "Point", "coordinates": [101.687313, 2.74297]}},
{"type": "Feature", "id": "WjWLioi9IGfuF6N3PVgta9BU1n4=", "properties": {"ref": "nandos-1-utama", "@spider": "nandos_my", "amenity": "restaurant", "cuisine": "chicken;portuguese", "addr:full": "Lot F351, First Floor, New Wing, 1 Utama Shopping Centre, Lebuh Bandar Utama, Petaling Jaya, Selangor 47800", "addr:country": "MY", "name": "1 Utama", "website": "https://nandos.com.my/restaurants/nandos-1-utama/", "brand": "Nando's", "brand:wikidata": "Q3472954", "nsi_id": "nandos-32ebee"}, "geometry": {"type": "Point", "coordinates": [101.615927, 3.150084]}},
{"type": "Feature", "id": "tBW8lVxlRdR2Qp5XpuTr4pDOSQA=", "properties": {"ref": "nandos-ikano-power-centre-ipc", "@spider": "nandos_my", "amenity": "restaurant", "cuisine": "chicken;portuguese", "addr:full": "G19 Ground Floor Ikano Power Centre, No.2, Jalan PJU 7/2, Mutiara Damansara, Petaling Jaya,  47800", "addr:country": "MY", "name": "IPC Shopping Centre", "website": "https://nandos.com.my/restaurants/nandos-ikano-power-centre-ipc/", "brand": "Nando's", "brand:wikidata": "Q3472954", "nsi_id": "nandos-32ebee"}, "geometry": {"type": "Point", "coordinates": [101.611312, 3.156242]}},
{"type": "Feature", "id": "1RgdVceKVJ29LpupPBuVxvz3y44=", "properties": {"ref": "nandos-sunway-giza", "@spider": "nandos_my", "amenity": "restaurant", "cuisine": "chicken;portuguese", "addr:full": "No. C.05G, Ground Floor, Block C, Sunway Giza Shopping Mall, PJU 5, Kota Damansara, Petaling Jaya, Selangor 47810", "addr:country": "MY", "name": "Sunway Giza", "website": "https://nandos.com.my/restaurants/nandos-sunway-giza/", "brand": "Nando's", "brand:wikidata": "Q3472954", "nsi_id": "nandos-32ebee"}, "geometry": {"type": "Point", "coordinates": [101.591535, 3.151312]}},
{"type": "Feature", "id": "yJGJJVOVVOqHaK6DotKS3An1Ae0=", "properties": {"ref": "nandos-3-damansara", "@spider": "nandos_my", "amenity": "restaurant", "cuisine": "chicken;portuguese", "addr:full": "Lot G-08, Ground Floor, 3 Damansara, No 3, Jalan SS20/27, Petaling Jaya,  Selangor 47400", "addr:country": "MY", "name": "3 Damansara", "website": "https://nandos.com.my/restaurants/nandos-3-damansara/", "brand": "Nando's", "brand:wikidata": "Q3472954", "nsi_id": "nandos-32ebee"}, "geometry": {"type": "Point", "coordinates": [101.626809, 3.130575]}},
{"type": "Feature", "id": "grBr-ADDB_kY5oteVasa7SwC0Zo=", "properties": {"ref": "nandos-paradigm-mall", "@spider": "nandos_my", "amenity": "restaurant", "cuisine": "chicken;portuguese", "addr:full": "Lot CC-32 Paradigm Mall, 1, Jalan SS7/26A, Petaling Jaya, Selangor  47301", "addr:country": "MY", "name": "Paradigm Mall", "website": "https://nandos.com.my/restaurants/nandos-paradigm-mall/", "brand": "Nando's", "brand:wikidata": "Q3472954", "nsi_id": "nandos-32ebee"}, "geometry": {"type": "Point", "coordinates": [101.595991, 3.105289]}},
{"type": "Feature", "id": "i3NdGrtuH3GRr4sjW28H9DV_Xi4=", "properties": {"ref": "nandos-desa-parkcity", "@spider": "nandos_my", "amenity": "restaurant", "cuisine": "chicken;portuguese", "addr:full": "Nandos Desa Park City\u00a0 Lot Gf-12 Ground Floor, The Waterfront @ Parkcity No 5 Persiaran Residen Desa Parkcity Kuala Lumpur 52200", "addr:country": "MY", "name": "Desa Park City", "website": "https://nandos.com.my/restaurants/nandos-desa-parkcity/", "brand": "Nando's", "brand:wikidata": "Q3472954", "nsi_id": "nandos-32ebee"}, "geometry": {"type": "Point", "coordinates": [101.627621, 3.186807]}},
{"type": "Feature", "id": "6IbiOluEsWqRH0JnbC5AIgXG8a8=", "properties": {"ref": "nandos-aeon-bukit-tinggi", "@spider": "nandos_my", "amenity": "restaurant", "cuisine": "chicken;portuguese", "addr:full": "Lot G25, AEON Bukit Tinggi, 1 Persiaran Batu Nilam, 1/KS6, Bandar Bukit Tinggi 2, Klang, Selangor 41200 ", "addr:country": "MY", "name": "AEON Bukit Tinggi", "website": "https://nandos.com.my/restaurants/nandos-aeon-bukit-tinggi/", "brand": "Nando's", "brand:wikidata": "Q3472954", "nsi_id": "nandos-32ebee"}, "geometry": {"type": "Point", "coordinates": [101.444406, 2.993932]}},
{"type": "Feature", "id": "yPxC_pVw9H_VDILvoMUIV5br9d8=", "properties": {"ref": "nandos-sacc-mall", "@spider": "nandos_my", "amenity": "restaurant", "cuisine": "chicken;portuguese", "addr:full": "Lot GF 30 & 31, Ground Floor, Shah Alam City Centre Mall,  Jalan Perbadanan 14/9,  Seksyen 14, Pusat Bandar Shah Alam, Shah Alam, Selangor 40000", "addr:country": "MY", "name": "SACC Mall", "website": "https://nandos.com.my/restaurants/nandos-sacc-mall/", "brand": "Nando's", "brand:wikidata": "Q3472954", "nsi_id": "nandos-32ebee"}, "geometry": {"type": "Point", "coordinates": [101.51789, 3.071723]}},
{"type": "Feature", "id": "fd23EKPmOpKYPQ0j-m_anIvGqaI=", "properties": {"ref": "nandos-aeon-shah-alam", "@spider": "nandos_my", "amenity": "restaurant", "cuisine": "chicken;portuguese", "addr:full": "Lot G01, Ground Floor, AEON Mall Shah Alam No. 1, Jalan Akuatik 13/64,  Seksyen 13, Shah Alam, Selangor Darul Ehsan.  40100", "addr:country": "MY", "name": "AEON Shah Alam", "website": "https://nandos.com.my/restaurants/nandos-aeon-shah-alam/", "brand": "Nando's", "brand:wikidata": "Q3472954", "nsi_id": "nandos-32ebee"}, "geometry": {"type": "Point", "coordinates": [101.547889, 3.076732]}},
{"type": "Feature", "id": "cnArcH3r8o7ispAxhgjfkNAQ-OI=", "properties": {"ref": "nandos-setia-city-mall", "@spider": "nandos_my", "amenity": "restaurant", "cuisine": "chicken;portuguese", "addr:full": "LG-35, Setia City Mall, No.7, Persiaran Setia Dagang, Bandar Setia Alam, Seksyen U13, Shah Alam,  Selangor 40170 ", "addr:country": "MY", "name": "Setia City Mall", "website": "https://nandos.com.my/restaurants/nandos-setia-city-mall/", "brand": "Nando's", "brand:wikidata": "Q3472954", "nsi_id": "nandos-32ebee"}, "geometry": {"type": "Point", "coordinates": [101.460457, 3.109326]}},
{"type": "Feature", "id": "lzZ148zca7IEFuFZNBIFWfrXylU=", "properties": {"ref": "nandos-aeon-bukit-raja", "@spider": "nandos_my", "amenity": "restaurant", "cuisine": "chicken;portuguese", "addr:full": "Lot G31, Ground Floor, Bukit Raja Shopping Centre, Persiaran Bukit Raja, Bandar Baru Klang, Selangor 41150", "addr:country": "MY", "name": "AEON Bukit Raja", "website": "https://nandos.com.my/restaurants/nandos-aeon-bukit-raja/", "brand": "Nando's", "brand:wikidata": "Q3472954", "nsi_id": "nandos-32ebee"}, "geometry": {"type": "Point", "coordinates": [101.472011, 3.06044]}},
{"type": "Feature", "id": "eF6z9VHcNgrAo45lQB17rrhhHCo=", "properties": {"ref": "nandos-citta-mall", "@spider": "nandos_my", "amenity": "restaurant", "cuisine": "chicken;portuguese", "addr:full": "G-13A, Ground Floor, Citta Mall, Ara Damansara, Petaling Jaya Selangor 47301", "addr:country": "MY", "name": "Citta Mall", "website": "https://nandos.com.my/restaurants/nandos-citta-mall/", "brand": "Nando's", "brand:wikidata": "Q3472954", "nsi_id": "nandos-32ebee"}, "geometry": {"type": "Point", "coordinates": [101.578794, 3.11158]}},
{"type": "Feature", "id": "NVFyM-XzB_fEa6TbNNj5GLdnFdw=", "properties": {"ref": "central-i-city", "@spider": "nandos_my", "amenity": "restaurant", "cuisine": "chicken;portuguese", "addr:full": "Lot L3-11, Central i-City, No. 1, i-City, Persiaran Multimedia, Seksyen 7, Shah Alam 40000", "addr:country": "MY", "name": "Central i-City", "website": "https://nandos.com.my/restaurants/central-i-city/", "brand": "Nando's", "brand:wikidata": "Q3472954", "nsi_id": "nandos-32ebee"}, "geometry": {"type": "Point", "coordinates": [101.481138, 3.062062]}},
{"type": "Feature", "id": "QRTaL2_gVgjClznZLC4Dx2yv7nE=", "properties": {"ref": "the-starling", "@spider": "nandos_my", "amenity": "restaurant", "cuisine": "chicken;portuguese", "addr:full": "Lot. G-031, Ground Floor The Starling Mall No. 6, Jalan SS21/37 Damansara Uptown Petaling Jaya Selangor 47400", "addr:country": "MY", "name": "The Starling", "website": "https://nandos.com.my/restaurants/the-starling/", "brand": "Nando's", "brand:wikidata": "Q3472954", "nsi_id": "nandos-32ebee"}, "geometry": {"type": "Point", "coordinates": [101.62317, 3.134763]}},
{"type": "Feature", "id": "HFdTelZinp97_xcK6Z2Q5svINYc=", "properties": {"ref": "nandos-vivacity", "@spider": "nandos_my", "amenity": "restaurant", "cuisine": "chicken;portuguese", "addr:full": "G-051, G-051s & G-065B Ground Floor Vivacity Megamall Jalan Wan Alwi, Kuching 93350", "addr:country": "MY", "name": "Vivacity", "website": "https://nandos.com.my/restaurants/nandos-vivacity/", "brand": "Nando's", "brand:wikidata": "Q3472954", "nsi_id": "nandos-32ebee"}, "geometry": {"type": "Point", "coordinates": [110.36861, 1.527032]}},
{"type": "Feature", "id": "ieVRQyox5xb8-qARAKTkgvFnTac=", "properties": {"ref": "nandos-the-spring", "@spider": "nandos_my", "amenity": "restaurant", "cuisine": "chicken;portuguese", "addr:full": "Lot G11 & GES 11, Ground Floor, The Spring Shopping Mall, Persiaran Spring, Kuching, Sarawak. 93300", "addr:country": "MY", "name": "The Spring", "website": "https://nandos.com.my/restaurants/nandos-the-spring/", "brand": "Nando's", "brand:wikidata": "Q3472954", "nsi_id": "nandos-32ebee"}, "geometry": {"type": "Point", "coordinates": [110.358256, 1.535694]}},
{"type": "Feature", "id": "_245K0yikgp69iM6nwvi4DIl_RY=", "properties": {"ref": "nandos-aeon-kuching", "@spider": "nandos_my", "amenity": "restaurant", "cuisine": "chicken;portuguese", "addr:full": "S-11 Second Floor, AEON Mall Kuching Central, Min Chu Garden, Kuching, Sarawak 93200", "addr:country": "MY", "name": "AEON Kuching", "website": "https://nandos.com.my/restaurants/nandos-aeon-kuching/", "brand": "Nando's", "brand:wikidata": "Q3472954", "nsi_id": "nandos-32ebee"}, "geometry": {"type": "Point", "coordinates": [110.337195, 1.526921]}},
{"type": "Feature", "id": "ravt3Hv1HQY8EEIinuW_NlJn-fE=", "properties": {"ref": "nandos-imago", "@spider": "nandos_my", "amenity": "restaurant", "cuisine": "chicken;portuguese", "addr:full": "G-97/98, Ground Floor, Imago Shopping Mall, KK Times Square Phase 2, Off Coastal Highway, Kota Kinabalu, Sabah 88100", "addr:country": "MY", "name": "Imago", "website": "https://nandos.com.my/restaurants/nandos-imago/", "brand": "Nando's", "brand:wikidata": "Q3472954", "nsi_id": "nandos-32ebee"}, "geometry": {"type": "Point", "coordinates": [116.065647, 5.971244]}},
{"type": "Feature", "id": "4Qtsp1Gt3CalJlHCyPUHz6N5rEk=", "properties": {"ref": "nandos-alamanda", "@spider": "nandos_my", "amenity": "restaurant", "cuisine": "chicken;portuguese", "addr:full": "Lot PO4B, Plaza Level, Alamanda Shopping Centre, \u00a0Jalan Alamanda, Presint 1,Putrajaya 62000", "addr:country": "MY", "name": "Alamanda", "website": "https://nandos.com.my/restaurants/nandos-alamanda/", "brand": "Nando's", "brand:wikidata": "Q3472954", "nsi_id": "nandos-32ebee"}, "geometry": {"type": "Point", "coordinates": [101.712168, 2.938878]}},
{"type": "Feature", "id": "W3w6POUuqcEQBaxC5P1PvWD3uOI=", "properties": {"ref": "nandos-ioi-city-mall", "@spider": "nandos_my", "amenity": "restaurant", "cuisine": "chicken;portuguese", "addr:full": "IOI City Mall, LG53 & LG55, Lower Ground Floor, IOI Resort City, Putrajaya  62502", "addr:country": "MY", "name": "IOI City Mall", "website": "https://nandos.com.my/restaurants/nandos-ioi-city-mall/", "brand": "Nando's", "brand:wikidata": "Q3472954", "nsi_id": "nandos-32ebee"}, "geometry": {"type": "Point", "coordinates": [101.713323, 2.97006]}},
{"type": "Feature", "id": "wU_x5vft_-HYVJyM1Z5Ppv3cOLE=", "properties": {"ref": "nandos-dpulze-cyberjaya", "@spider": "nandos_my", "amenity": "restaurant", "cuisine": "chicken;portuguese", "addr:full": "G25, Ground Floor @ DPULZE Shopping Centre, Persiaran Multimedia, Cyberjaya, Cyberjaya, Selangor 63000", "addr:country": "MY", "name": "DPULZE Cyberjaya", "website": "https://nandos.com.my/restaurants/nandos-dpulze-cyberjaya/", "brand": "Nando's", "brand:wikidata": "Q3472954", "nsi_id": "nandos-32ebee"}, "geometry": {"type": "Point", "coordinates": [101.65099, 2.922173]}},
{"type": "Feature", "id": "2af_rbSVCG74r9OqtWeVlmtgLIQ=", "properties": {"ref": "nandos-taiping", "@spider": "nandos_my", "amenity": "restaurant", "cuisine": "chicken;portuguese", "addr:full": "AEON MALL TAIPING, Lot G-18, Ground Floor, Jalan Kamunting, Taiping, Perak 34600 ", "addr:country": "MY", "name": "AEON Taiping", "website": "https://nandos.com.my/restaurants/nandos-taiping/", "brand": "Nando's", "brand:wikidata": "Q3472954", "nsi_id": "nandos-32ebee"}, "geometry": {"type": "Point", "coordinates": [100.728458, 4.87286]}},
{"type": "Feature", "id": "g1pn9hxODSfwQ93WqnVbVRCGRAA=", "properties": {"ref": "nandos-aeon-ipoh-st-18", "@spider": "nandos_my", "amenity": "restaurant", "cuisine": "chicken;portuguese", "addr:full": "Lot G-57, Aeon Ipoh Station 18 No. 2, Susuran Stesen 18, Station, Ipoh,  Perak 31650", "addr:country": "MY", "name": "AEON Ipoh St. 18", "website": "https://nandos.com.my/restaurants/nandos-aeon-ipoh-st-18/", "brand": "Nando's", "brand:wikidata": "Q3472954", "nsi_id": "nandos-32ebee"}, "geometry": {"type": "Point", "coordinates": [101.070656, 4.545617]}},
{"type": "Feature", "id": "J7V4UXxxpVAPi6gkCq_SaLzhc0M=", "properties": {"ref": "nandos-aeon-mall-klebang", "@spider": "nandos_my", "amenity": "restaurant", "cuisine": "chicken;portuguese", "addr:full": "G13 & G15, Ground Floor, AEON Mall Klebang, Jalan Kuala Kangsar, Ipoh, Perak 31200 ", "addr:country": "MY", "name": "AEON Mall Klebang", "website": "https://nandos.com.my/restaurants/nandos-aeon-mall-klebang/", "brand": "Nando's", "brand:wikidata": "Q3472954", "nsi_id": "nandos-32ebee"}, "geometry": {"type": "Point", "coordinates": [101.122973, 4.677435]}},
{"type": "Feature", "id": "2z9G4-xH0ZVpSTkKKy1PEkJekQ0=", "properties": {"ref": "nandos-queensbay-mall", "@spider": "nandos_my", "amenity": "restaurant", "cuisine": "chicken;portuguese", "addr:full": "Lot No. LG-92, Concourse Queensbay Mall,  Persiaran Bayan Indah, Bayan Lepas, Penang 11900", "addr:country": "MY", "name": "Queensbay Mall", "website": "https://nandos.com.my/restaurants/nandos-queensbay-mall/", "brand": "Nando's", "brand:wikidata": "Q3472954", "nsi_id": "nandos-32ebee"}, "geometry": {"type": "Point", "coordinates": [100.306493, 5.333198]}},
{"type": "Feature", "id": "9bwDKRD0DlGMUQJy0gbL0eFvBeM=", "properties": {"ref": "nandos-juru-auto-city", "@spider": "nandos_my", "amenity": "restaurant", "cuisine": "chicken;portuguese", "addr:full": "1822, Jalan Perusahaan Highway Auto City (Phase 3), North South Highway, Juru Interchange, Prai,  Penang 13600", "addr:country": "MY", "name": "Juru Auto City", "website": "https://nandos.com.my/restaurants/nandos-juru-auto-city/", "brand": "Nando's", "brand:wikidata": "Q3472954", "nsi_id": "nandos-32ebee"}, "geometry": {"type": "Point", "coordinates": [100.429421, 5.337256]}},
{"type": "Feature", "id": "0O0DDFXwcQPLZ0Ot144HnJDMYag=", "properties": {"ref": "nandos-gurney-plaza", "@spider": "nandos_my", "amenity": "restaurant", "cuisine": "chicken;portuguese", "addr:full": "Lot No.170-G-72, Plaza Gurney, Persiaran Gurney, Penang 10250", "addr:country": "MY", "name": "Gurney Plaza", "website": "https://nandos.com.my/restaurants/nandos-gurney-plaza/", "brand": "Nando's", "brand:wikidata": "Q3472954", "nsi_id": "nandos-32ebee"}, "geometry": {"type": "Point", "coordinates": [100.309679, 5.436697]}},
{"type": "Feature", "id": "RiAc-NJy4yFkoIBav9So2JjObHA=", "properties": {"ref": "nandos-1-mont-kiara", "@spider": "nandos_my", "amenity": "restaurant", "cuisine": "chicken;portuguese", "addr:full": "Unit G-13, Ground Floor, 1 Mon\u2019t Kiara, No.1, Jalan Kiara, Mon\u2019t Kiara, Kuala Lumpur 50480", "addr:country": "MY", "name": "1 Mont Kiara", "website": "https://nandos.com.my/restaurants/nandos-1-mont-kiara/", "brand": "Nando's", "brand:wikidata": "Q3472954", "nsi_id": "nandos-32ebee"}, "geometry": {"type": "Point", "coordinates": [101.65277, 3.1654]}},
{"type": "Feature", "id": "OhstUa3m0HqKCfCyWRfCNqaE_nE=", "properties": {"ref": "nandos-aeon-alpha-angle", "@spider": "nandos_my", "amenity": "restaurant", "cuisine": "chicken;portuguese", "addr:full": "Lot G12A, Ground Floor, AEON Alpha Angle Shopping Centre, Jalan R1, Seksyen 1, Bandar Baru Wangsa Maju, Kuala Lumpur 53300", "addr:country": "MY", "name": "AEON Alpha Angle", "website": "https://nandos.com.my/restaurants/nandos-aeon-alpha-angle/", "brand": "Nando's", "brand:wikidata": "Q3472954", "nsi_id": "nandos-32ebee"}, "geometry": {"type": "Point", "coordinates": [101.733907, 3.202194]}},
{"type": "Feature", "id": "RyLyYHbLskyXfa8URZPBXTPe9JE=", "properties": {"ref": "nandos-setapak-central", "@spider": "nandos_my", "amenity": "restaurant", "cuisine": "chicken;portuguese", "addr:full": "Lot G-14 AG-14, Ground Floor, Setapak Sentral Mall 67, Jalan Taman Ibu Kota, Taman Danau Kota, Setapak, Kuala Lumpur 53300", "addr:country": "MY", "name": "Setapak Central", "website": "https://nandos.com.my/restaurants/nandos-setapak-central/", "brand": "Nando's", "brand:wikidata": "Q3472954", "nsi_id": "nandos-32ebee"}, "geometry": {"type": "Point", "coordinates": [101.720418, 3.20429]}},
{"type": "Feature", "id": "OtYvZarBnRcE0wEaDue9fRSlVKE=", "properties": {"ref": "nandos-aeon-au2", "@spider": "nandos_my", "amenity": "restaurant", "cuisine": "chicken;portuguese", "addr:full": "G57, Ground Floor, AEON AU2 Shoping Center, No 6, Jalan Taman Setiawangsa (Jalan 37/56), Taman Keramat, Kuala Lumpur  54200", "addr:country": "MY", "name": "AEON AU2", "website": "https://nandos.com.my/restaurants/nandos-aeon-au2/", "brand": "Nando's", "brand:wikidata": "Q3472954", "nsi_id": "nandos-32ebee"}, "geometry": {"type": "Point", "coordinates": [101.751305, 3.177261]}},
{"type": "Feature", "id": "gpoxqemwRLnkrN7I0nB3-148ZYY=", "properties": {"ref": "nandos-pearl-point", "@spider": "nandos_my", "amenity": "restaurant", "cuisine": "chicken;portuguese", "addr:full": "1.0.28 \u2013 1.0.31, Ground Floor, Pearl Point Shopping Mall, Batu 5, Jalan Klang Lama, Kuala Lumpur 58000", "addr:country": "MY", "name": "Pearl Point", "website": "https://nandos.com.my/restaurants/nandos-pearl-point/", "brand": "Nando's", "brand:wikidata": "Q3472954", "nsi_id": "nandos-32ebee"}, "geometry": {"type": "Point", "coordinates": [101.673353, 3.085001]}},
{"type": "Feature", "id": "rUexe0tlpManpVdVpUA-5BaZPjw=", "properties": {"ref": "nandos-berjaya-times-square", "@spider": "nandos_my", "amenity": "restaurant", "cuisine": "chicken;portuguese", "addr:full": "LG-25, 26, 27, 76 & 76A Lower Ground Floor, Berjaya Times Square, No 1, Jalan Imbi, Kuala Lumpur 55100", "addr:country": "MY", "name": "Berjaya Times Square", "website": "https://nandos.com.my/restaurants/nandos-berjaya-times-square/", "brand": "Nando's", "brand:wikidata": "Q3472954", "nsi_id": "nandos-32ebee"}, "geometry": {"type": "Point", "coordinates": [101.71077, 3.142636]}},
{"type": "Feature", "id": "DgqgZRo7yyUJqXoeWBBZapZodcc=", "properties": {"ref": "nandos-nu-sentral", "@spider": "nandos_my", "amenity": "restaurant", "cuisine": "chicken;portuguese", "addr:full": "Unit L4-05, Level 4, Nu Sentral, Jalan Tun Sambathan, Kuala Lumpur 50470", "addr:country": "MY", "name": "NU Sentral", "website": "https://nandos.com.my/restaurants/nandos-nu-sentral/", "brand": "Nando's", "brand:wikidata": "Q3472954", "nsi_id": "nandos-32ebee"}, "geometry": {"type": "Point", "coordinates": [101.687033, 3.133508]}},
{"type": "Feature", "id": "2zXaUYwJiLA1vM7iO9grwhKH4yE=", "properties": {"ref": "nandos-sogo", "@spider": "nandos_my", "amenity": "restaurant", "cuisine": "chicken;portuguese", "addr:full": "L6-R8, R8A & L2-K2 & K3, Tingkat 6, Kompleks Pernas Sogo, 190 Jalan Tuanku Abdul Rahman, Kuala Lumpur 50100 ", "addr:country": "MY", "name": "Sogo", "website": "https://nandos.com.my/restaurants/nandos-sogo/", "brand": "Nando's", "brand:wikidata": "Q3472954", "nsi_id": "nandos-32ebee"}, "geometry": {"type": "Point", "coordinates": [101.695343, 3.156136]}},
{"type": "Feature", "id": "y85qLuyLr03UE1qN8jjdxj1YdK4=", "properties": {"ref": "nandos-ampang-point", "@spider": "nandos_my", "amenity": "restaurant", "cuisine": "chicken;portuguese", "addr:full": "Lot 79, Lorong Memanda 1, Ampang Point, Ampang, Selangor 68000", "addr:country": "MY", "name": "Ampang Point", "website": "https://nandos.com.my/restaurants/nandos-ampang-point/", "brand": "Nando's", "brand:wikidata": "Q3472954", "nsi_id": "nandos-32ebee"}, "geometry": {"type": "Point", "coordinates": [101.750523, 3.158893]}},
{"type": "Feature", "id": "JAux-YkZwXanLVogb7Bek_6yfcI=", "properties": {"ref": "nandos-sunway-putra", "@spider": "nandos_my", "amenity": "restaurant", "cuisine": "chicken;portuguese", "addr:full": "Lot LG-24, Lower Ground Floor, Sunway Putra Mall, Jalan Putra Mall, Kuala Lumpur 50350", "addr:country": "MY", "name": "Sunway Putra", "website": "https://nandos.com.my/restaurants/nandos-sunway-putra/", "brand": "Nando's", "brand:wikidata": "Q3472954", "nsi_id": "nandos-32ebee"}, "geometry": {"type": "Point", "coordinates": [101.692066, 3.166375]}},
{"type": "Feature", "id": "dmqMVlRAdy2Rk2Pg917IdPBR_UY=", "properties": {"ref": "intermark-mall", "@spider": "nandos_my", "amenity": "restaurant", "cuisine": "chicken;portuguese", "addr:full": "Lot. G-22, G-22A & G-22B, Ground Floor, Intermark Mall, The Intermark, 348, Jalan Tun Razak, Kuala Lumpur 50400", "addr:country": "MY", "name": "Intermark Mall", "website": "https://nandos.com.my/restaurants/intermark-mall/", "brand": "Nando's", "brand:wikidata": "Q3472954", "nsi_id": "nandos-32ebee"}, "geometry": {"type": "Point", "coordinates": [101.7205786, 3.1617572]}},
{"type": "Feature", "id": "VL_aYwJb3dDO5Xrt-fIcFqyIJYM=", "properties": {"ref": "nandos-pavilion-bukit-jalil", "@spider": "nandos_my", "amenity": "restaurant", "cuisine": "chicken;portuguese", "addr:full": "Lot 1.91.00, Level 1, Pavilion Bukit Jalil, No 2, Persiaran Jalil 8, Bandar Bukit Jalil, Kuala Lumpur 57000", "addr:country": "MY", "name": "Pavilion Bukit Jalil", "website": "https://nandos.com.my/restaurants/nandos-pavilion-bukit-jalil/", "brand": "Nando's", "brand:wikidata": "Q3472954", "nsi_id": "nandos-32ebee"}, "geometry": {"type": "Point", "coordinates": [101.669791543, 3.05573533484]}},
{"type": "Feature", "id": "Gilg7hvksIBF5iXVTu9FKIJoECQ=", "properties": {"ref": "nandos-aeon-kota-bharu", "@spider": "nandos_my", "amenity": "restaurant", "cuisine": "chicken;portuguese", "addr:full": "Lot G38, Ground Floor, AEON Mall Kota Bharu Lembah Sireh Kota Bharu Kelantan  15050 ", "addr:country": "MY", "name": "AEON Mall Kota Bharu", "website": "https://nandos.com.my/restaurants/nandos-aeon-kota-bharu/", "brand": "Nando's", "brand:wikidata": "Q3472954", "nsi_id": "nandos-32ebee"}, "geometry": {"type": "Point", "coordinates": [102.231031, 6.110789]}},
{"type": "Feature", "id": "K2X9_YfUA8hvvm9ci2HsLUIkBoo=", "properties": {"ref": "nandos-aman-sentral", "@spider": "nandos_my", "amenity": "restaurant", "cuisine": "chicken;portuguese", "addr:full": "G-62 & 63, Ground Floor, Aman Central, No.1 Lebuhraya Darulaman 05100", "addr:country": "MY", "name": "Aman Sentral", "website": "https://nandos.com.my/restaurants/nandos-aman-sentral/", "brand": "Nando's", "brand:wikidata": "Q3472954", "nsi_id": "nandos-32ebee"}, "geometry": {"type": "Point", "coordinates": [100.366258, 6.125009]}},
{"type": "Feature", "id": "kB5f6MHCYi7oNkJmDBKIVP-ld2Y=", "properties": {"ref": "nandos-aeon-bukit-indah", "@spider": "nandos_my", "amenity": "restaurant", "cuisine": "chicken;portuguese", "addr:full": "Lot G03, Ground Floor, AEON Bukit Indah Shopping Centre No.8, Jalan Indah 15/2, Bukit Indah, Johor Bahru, Johor 81200", "addr:country": "MY", "name": "AEON Bukit Indah", "website": "https://nandos.com.my/restaurants/nandos-aeon-bukit-indah/", "brand": "Nando's", "brand:wikidata": "Q3472954", "nsi_id": "nandos-32ebee"}, "geometry": {"type": "Point", "coordinates": [103.656053, 1.482206]}},
{"type": "Feature", "id": "HG_27bu_ek5PuMe49EXmpbx0qOw=", "properties": {"ref": "nandos-aeon-tebrau-city", "@spider": "nandos_my", "amenity": "restaurant", "cuisine": "chicken;portuguese", "addr:full": "Lot S 51, 2nd Floor, AEON Tebrau City Shopping Centre, No.1, Jalan Desa Tebrau, Johor Bahru, Johor 81100", "addr:country": "MY", "name": "AEON Tebrau City", "website": "https://nandos.com.my/restaurants/nandos-aeon-tebrau-city/", "brand": "Nando's", "brand:wikidata": "Q3472954", "nsi_id": "nandos-32ebee"}, "geometry": {"type": "Point", "coordinates": [103.796675, 1.550102]}},
{"type": "Feature", "id": "kH2C-49TL6AWWyAmyhscZrIr3G8=", "properties": {"ref": "nandos-plaza-pelangi", "@spider": "nandos_my", "amenity": "restaurant", "cuisine": "chicken;portuguese", "addr:full": "Lot No. 1.03, Level 01 Plaza Pelangi, No.2, Jalan Kuning Taman Pelangi, Johor Bahru, Johor 80400", "addr:country": "MY", "name": "Plaza Pelangi", "website": "https://nandos.com.my/restaurants/nandos-plaza-pelangi/", "brand": "Nando's", "brand:wikidata": "Q3472954", "nsi_id": "nandos-32ebee"}, "geometry": {"type": "Point", "coordinates": [103.764783, 1.480097]}},
{"type": "Feature", "id": "Z8Uwi14DAlHK5KYmto1EAb2NL8o=", "properties": {"ref": "mid-valley-southkey", "@spider": "nandos_my", "amenity": "restaurant", "cuisine": "chicken;portuguese", "addr:full": "LG-049, The Mall, Mid Valley Southkey, Persiaran Southkey 1, Southkey, Johor Bharu, Johor 80180 ", "addr:country": "MY", "name": "Mid Valley Southkey", "website": "https://nandos.com.my/restaurants/mid-valley-southkey/", "brand": "Nando's", "brand:wikidata": "Q3472954", "nsi_id": "nandos-32ebee"}, "geometry": {"type": "Point", "coordinates": [103.777159, 1.501537]}}]}