{"type":"FeatureCollection","features":[{"type": "Feature", "id": "uJaG80WG8Bnkqs6TWW_nETv_1Yg=", "properties": {"ref": "nandos-al-hamra-mall", "@spider": "nandos_ae", "amenity": "restaurant", "cuisine": "chicken;portuguese", "addr:full": "Sheikh Mohammad Bin Salem Rd, Level 1, Al Hamra Mall, Al Jazirah Al Hamra, Ras Al Khaimah", "addr:state": "Ras Al Khaimah", "addr:country": "AE", "name": "Nando's Al Hamra Mall ", "phone": "+277 243 8848", "website": "https://www.nandos.ae/eat/restaurant/nandos-al-hamra-mall", "brand": "Nando's", "brand:wikidata": "Q3472954", "nsi_id": "nandos-32ebee"}, "geometry": {"type": "Point", "coordinates": [55.781642, 25.683021]}},
{"type": "Feature", "id": "PoO016MZq6PI6XrJNbbWWo91DmM=", "properties": {"ref": "al-raha", "@spider": "nandos_ae", "amenity": "restaurant", "cuisine": "chicken;portuguese", "addr:full": "Al Raha Blvd, Precinct B - 02, Al Raha Beach, Al Zeina, Abu Dhabi", "addr:state": "Abu Dhabi", "addr:country": "AE", "name": "Nando's Al Zeina, Al Raha Beach", "website": "https://www.nandos.ae/eat/restaurant/al-raha", "brand": "Nando's", "brand:wikidata": "Q3472954", "nsi_id": "nandos-32ebee"}, "geometry": {"type": "Point", "coordinates": [54.613928, 24.454755]}},
{"type": "Feature", "id": "cjunvPp3OyOqWGqShRe_aIST04Q=", "properties": {"ref": "nandos-boutik-mall", "@spider": "nandos_ae", "amenity": "restaurant", "cuisine": "chicken;portuguese", "addr:full": "Al Rayfah St, Ground Floor, Shams BOUTIK, Al Reem Island, Abu Dhabi", "addr:state": "Abu Dhabi", "addr:country": "AE", "name": "Nando's Shams BOUTIK, Reem Island", "phone": "+272 650 6710", "website": "https://www.nandos.ae/eat/restaurant/nandos-boutik-mall", "brand": "Nando's", "brand:wikidata": "Q3472954", "nsi_id": "nandos-32ebee"}, "geometry": {"type": "Point", "coordinates": [54.407689, 24.495704]}},
{"type": "Feature", "id": "WcIp2miDadXfCdLqbHQu4RvWcaA=", "properties": {"ref": "world-trade-centre", "@spider": "nandos_ae", "amenity": "restaurant", "cuisine": "chicken;portuguese", "addr:full": "Hamdan Bin Mohammed St, Level 3, World Trade Center, Al Danah, Abu Dhabi", "addr:state": "Abu Dhabi", "addr:country": "AE", "name": "Nando's The Mall - World Trade Center", "phone": "+272 631 0002", "website": "https://www.nandos.ae/eat/restaurant/world-trade-centre", "brand": "Nando's", "brand:wikidata": "Q3472954", "nsi_id": "nandos-32ebee"}, "geometry": {"type": "Point", "coordinates": [54.357305, 24.48766]}},
{"type": "Feature", "id": "wYVMDbFDeVwNMsMyXLBzYgHGXFg=", "properties": {"ref": "al-ain", "@spider": "nandos_ae", "amenity": "restaurant", "cuisine": "chicken;portuguese", "addr:full": "Othman Bin Affan St, Level 1, Al Ain Mall, Al Murabaa, Al Ain", "addr:state": "Al Ain", "addr:country": "AE", "name": "Nando's Al Ain Mall", "phone": "+273 737 7187", "website": "https://www.nandos.ae/eat/restaurant/al-ain", "brand": "Nando's", "brand:wikidata": "Q3472954", "nsi_id": "nandos-32ebee"}, "geometry": {"type": "Point", "coordinates": [55.782113, 24.222823]}},
{"type": "Feature", "id": "Ld7HoMdyH3ZYsA7a3chByt7020c=", "properties": {"ref": "dubai-mall", "@spider": "nandos_ae", "amenity": "restaurant", "cuisine": "chicken;portuguese", "addr:full": "Financial Centre Rd, Lower Ground floor, Waterfront Promenade, The Dubai Mall, Downtown, Dubai", "addr:state": "Dubai", "addr:country": "AE", "name": "Nando's The Dubai Mall ", "website": "https://www.nandos.ae/eat/restaurant/dubai-mall", "brand": "Nando's", "brand:wikidata": "Q3472954", "nsi_id": "nandos-32ebee"}, "geometry": {"type": "Point", "coordinates": [55.278698, 25.198981]}},
{"type": "Feature", "id": "eJdpP_a1dhgDtWEI9o9GX2PqTjs=", "properties": {"ref": "nandos-mall-of-the-emirates", "@spider": "nandos_ae", "amenity": "restaurant", "cuisine": "chicken;portuguese", "addr:full": "Sheikh Zayed Rd, Level 1, Mall of the Emirates, Al Barsha 1, Dubai", "addr:city": "Al Barsha 1", "addr:state": "Dubai", "addr:country": "AE", "name": "Nando's Mall of the Emirates ", "phone": "+274 334 3479", "website": "https://www.nandos.ae/eat/restaurant/nandos-mall-of-the-emirates", "brand": "Nando's", "brand:wikidata": "Q3472954", "nsi_id": "nandos-32ebee"}, "geometry": {"type": "Point", "coordinates": [55.278698, 25.198981]}},
{"type": "Feature", "id": "TxNAenNxr_qoDRnZiBga1jYAYFY=", "properties": {"ref": "ibn-battuta-mall", "@spider": "nandos_ae", "amenity": "restaurant", "cuisine": "chicken;portuguese", "addr:full": "Sheikh Zayed Rd, Ground Floor, China Court, Ibn Battuta Mall, Jebel Ali Village, Dubai", "addr:state": "Dubai", "addr:country": "AE", "name": "Nando's Ibn Battuta Mall ", "phone": "+274 566 7521", "website": "https://www.nandos.ae/eat/restaurant/ibn-battuta-mall", "brand": "Nando's", "brand:wikidata": "Q3472954", "nsi_id": "nandos-32ebee"}, "geometry": {"type": "Point", "coordinates": [55.119995, 25.044351]}},
{"type": "Feature", "id": "7n-usDCzOosj5iq3xKRhYxHtkDM=", "properties": {"ref": "jumeirah-lake-towers", "@spider": "nandos_ae", "amenity": "restaurant", "cuisine": "chicken;portuguese", "addr:full": "First Al Khail St, Ground Floor, Jumeirah Islands Pavilion, Jumeirah Islands, Dubai", "addr:state": "Dubai", "addr:country": "AE", "name": "Nando's Jumeirah Islands Pavilion", "phone": "+274 368 5522", "website": "https://www.nandos.ae/eat/restaurant/jumeirah-lake-towers", "brand": "Nando's", "brand:wikidata": "Q3472954", "nsi_id": "nandos-32ebee"}, "geometry": {"type": "Point", "coordinates": [55.147546, 25.06447]}},
{"type": "Feature", "id": "-oT_uGcErYuCdHnredyMMyPXlhs=", "properties": {"ref": "nandos-burjuman", "@spider": "nandos_ae", "amenity": "restaurant", "cuisine": "chicken;portuguese", "addr:full": "Khalid Bin Al Waleed Rd, Ground Floor, BurJuman Centre, Al Mankhool, Dubai", "addr:state": "Dubai", "addr:country": "AE", "name": "Nando's BurJuman ", "phone": "+274 355 0800", "website": "https://www.nandos.ae/eat/restaurant/nandos-burjuman", "brand": "Nando's", "brand:wikidata": "Q3472954", "nsi_id": "nandos-32ebee"}, "geometry": {"type": "Point", "coordinates": [55.303336, 25.253632]}},
{"type": "Feature", "id": "XGqEAkB2MYiRjUOEOlrKR6kvDO0=", "properties": {"ref": "motor-city", "@spider": "nandos_ae", "amenity": "restaurant", "cuisine": "chicken;portuguese", "addr:full": "Ribbon Mall, Ground Floor, Motor City, Dubai", "addr:state": "Dubai", "addr:country": "AE", "name": "Nando's Dubai Motor City", "phone": "+274 431 7811", "website": "https://www.nandos.ae/eat/restaurant/motor-city", "brand": "Nando's", "brand:wikidata": "Q3472954", "nsi_id": "nandos-32ebee"}, "geometry": {"type": "Point", "coordinates": [55.239302, 25.045834]}},
{"type": "Feature", "id": "CUarA4nRawIVHUxopInklOCp1a4=", "properties": {"ref": "dubai-festival-city", "@spider": "nandos_ae", "amenity": "restaurant", "cuisine": "chicken;portuguese", "addr:full": "Crescent Dr, Ground Floor, Dubai Festival City Mall, Dubai Festival City, Dubai", "addr:state": "Dubai", "addr:country": "AE", "name": "Nando's Dubai Festival City Mall ", "phone": "+274 286 5868", "website": "https://www.nandos.ae/eat/restaurant/dubai-festival-city", "brand": "Nando's", "brand:wikidata": "Q3472954", "nsi_id": "nandos-32ebee"}, "geometry": {"type": "Point", "coordinates": [55.351481, 25.22106]}},
{"type": "Feature", "id": "NajkWoN7qcSV_eYg6ASqDFRVHa0=", "properties": {"ref": "mirdif-city-centre", "@spider": "nandos_ae", "amenity": "restaurant", "cuisine": "chicken;portuguese", "addr:full": "Sheikh Mohammed Bin Zayed Rd, Level 1, City Centre Mirdif, Mirdif, Dubai", "addr:state": "Dubai", "addr:country": "AE", "name": "Nando's City Centre Mirdiff ", "phone": "+274 284 4088", "website": "https://www.nandos.ae/eat/restaurant/mirdif-city-centre", "brand": "Nando's", "brand:wikidata": "Q3472954", "nsi_id": "nandos-32ebee"}, "geometry": {"type": "Point", "coordinates": [55.407502, 25.214287]}},
{"type": "Feature", "id": "d0pISLkzmd146iQZbIdohDHmNV8=", "properties": {"ref": "marina-walk", "@spider": "nandos_ae", "amenity": "restaurant", "cuisine": "chicken;portuguese", "addr:full": "Marina Walk, Ground Floor, Trident Marinascape, Dubai Marina, Dubai", "addr:state": "Dubai", "addr:country": "AE", "name": "Nando's Marina Walk", "phone": "+274 454 1404", "website": "https://www.nandos.ae/eat/restaurant/marina-walk", "brand": "Nando's", "brand:wikidata": "Q3472954", "nsi_id": "nandos-32ebee"}, "geometry": {"type": "Point", "coordinates": [55.146609, 25.083298]}},
{"type": "Feature", "id": "FB8hUKmm_ZG7-2FLOljEE5sJCzw=", "properties": {"ref": "deira-city-centre", "@spider": "nandos_ae", "amenity": "restaurant", "cuisine": "chicken;portuguese", "addr:full": "8th St, Level 2, City Centre Deira, Port Saeed, Dubai", "addr:state": "Dubai", "addr:country": "AE", "name": "Nando's City Centre Deira ", "phone": "+274 228 4500", "website": "https://www.nandos.ae/eat/restaurant/deira-city-centre", "brand": "Nando's", "brand:wikidata": "Q3472954", "nsi_id": "nandos-32ebee"}, "geometry": {"type": "Point", "coordinates": [55.333087, 25.251989]}},
{"type": "Feature", "id": "WWQahGj35xk0rc4mT7vBoI0ZzOs=", "properties": {"ref": "greens", "@spider": "nandos_ae", "amenity": "restaurant", "cuisine": "chicken;portuguese", "addr:full": "Street 7, Ground Floor, Turia B, The Greens, Dubai", "addr:state": "Dubai", "addr:country": "AE", "name": "Nando's The Greens (closed for revamp)", "phone": "+274 360 8080", "website": "https://www.nandos.ae/eat/restaurant/greens", "brand": "Nando's", "brand:wikidata": "Q3472954", "nsi_id": "nandos-32ebee"}, "geometry": {"type": "Point", "coordinates": [55.169758, 25.092809]}},
{"type": "Feature", "id": "UKeiAL1Ds2-s2gaXT-jZ7PL1ycw=", "properties": {"ref": "sheikh_zayed-road", "@spider": "nandos_ae", "amenity": "restaurant", "cuisine": "chicken;portuguese", "addr:full": "Sheikh Zayed Rd, Ground Floor, Saeed Tower - II, Trade Centre, Dubai", "addr:state": "Dubai", "addr:country": "AE", "name": "Nando's Sheikh Zayed Road ", "phone": "+274 321 2000", "website": "https://www.nandos.ae/eat/restaurant/sheikh_zayed-road", "brand": "Nando's", "brand:wikidata": "Q3472954", "nsi_id": "nandos-32ebee"}, "geometry": {"type": "Point", "coordinates": [55.27628, 25.214295]}},
{"type": "Feature", "id": "OL-3AimTQpsIrwwHClbOEpPkNkA=", "properties": {"ref": "nandos-circle-mall", "@spider": "nandos_ae", "amenity": "restaurant", "cuisine": "chicken;portuguese", "addr:full": "Street 21, JVC District 11, Ground Floor, Circle Mall, , Hadaeq Mohammed Bin Rashid, Al Barsha South 4, Dubai", "addr:city": "Al Barsha South 4", "addr:state": "Dubai", "addr:country": "AE", "name": "Nando's Circle Mall", "website": "https://www.nandos.ae/eat/restaurant/nandos-circle-mall", "brand": "Nando's", "brand:wikidata": "Q3472954", "nsi_id": "nandos-32ebee"}, "geometry": {"type": "Point", "coordinates": [55.2164, 25.0659]}},
{"type": "Feature", "id": "FLpM9ti16GNc21zxC2ARkOFcWoY=", "properties": {"ref": "nandos-al-qasba", "@spider": "nandos_ae", "amenity": "restaurant", "cuisine": "chicken;portuguese", "addr:full": "AL Khan Corniche St, Block D, Al Qasba, Al Khan, Sharjah", "addr:state": "Sharjah", "addr:country": "AE", "name": "Nando's Al Qasba ", "phone": "+276 556 6033", "website": "https://www.nandos.ae/eat/restaurant/nandos-al-qasba", "brand": "Nando's", "brand:wikidata": "Q3472954", "nsi_id": "nandos-32ebee"}, "geometry": {"type": "Point", "coordinates": [55.37601, 25.321744]}}]}