{"type":"FeatureCollection","features":[{"type": "Feature", "id": "PRVh-ceyv_SZ2Vzkuxxhq92b5Kk=", "properties": {"ref": "https://www.naturalgrocers.com/store/greeley", "@spider": "natural_grocers", "shop": "supermarket", "addr:full": "1320 8th Avenue", "addr:city": "Greeley", "addr:state": "CO", "addr:postcode": "80631", "addr:country": "US", "name": "Greeley", "website": "https://www.naturalgrocers.com/store/greeley", "opening_hours": "Mo-Sa 08:30-20:36; Su 09:00-19:35", "brand": "Natural Grocers", "brand:wikidata": "Q17146520", "nsi_id": "naturalgrocers-dde59d"}, "geometry": {"type": "Point", "coordinates": [-104.69028, 40.4178]}},
{"type": "Feature", "id": "aeGEmq53-0vAdFQN62JH9xwSALs=", "properties": {"ref": "https://www.naturalgrocers.com/store/denver-design-district-alameda-and-broadway", "@spider": "natural_grocers", "shop": "supermarket", "addr:full": "368 S Broadway ", "addr:city": "Denver", "addr:state": "CO", "addr:postcode": "80209", "addr:country": "US", "name": "Denver - Design District - Alameda and Broadway", "website": "https://www.naturalgrocers.com/store/denver-design-district-alameda-and-broadway", "opening_hours": "Mo-Sa 08:30-20:36; Su 09:00-19:35", "brand": "Natural Grocers", "brand:wikidata": "Q17146520", "nsi_id": "naturalgrocers-dde59d"}, "geometry": {"type": "Point", "coordinates": [-104.987224, 39.709921]}},
{"type": "Feature", "id": "tYdwJ5_zD9Ju7IbMk6IvJz4c_Ng=", "properties": {"ref": "https://www.naturalgrocers.com/store/castle-rock", "@spider": "natural_grocers", "shop": "supermarket", "addr:full": "4510 Trail Boss Drive", "addr:city": "Castle Rock", "addr:state": "CO", "addr:postcode": "80104", "addr:country": "US", "name": "Castle Rock", "website": "https://www.naturalgrocers.com/store/castle-rock", "opening_hours": "Mo-Sa 08:30-20:36; Su 09:00-19:35", "brand": "Natural Grocers", "brand:wikidata": "Q17146520", "nsi_id": "naturalgrocers-dde59d"}, "geometry": {"type": "Point", "coordinates": [-104.8590523, 39.4073334]}},
{"type": "Feature", "id": "txd9wwG30bZqRb9_oGFPMKHtZbI=", "properties": {"ref": "https://www.naturalgrocers.com/store/montrose", "@spider": "natural_grocers", "shop": "supermarket", "addr:full": "3451 Rio Grande Avenue, Unit B1", "addr:city": "Montrose", "addr:state": "CO", "addr:postcode": "81401", "addr:country": "US", "name": "Montrose", "website": "https://www.naturalgrocers.com/store/montrose", "opening_hours": "Mo-Sa 08:30-21:06; Su 09:00-19:35", "brand": "Natural Grocers", "brand:wikidata": "Q17146520", "nsi_id": "naturalgrocers-dde59d"}, "geometry": {"type": "Point", "coordinates": [-107.8678281, 38.4467715]}},
{"type": "Feature", "id": "KZ26Kd09KIw-UuwVK1iPMIKM0f0=", "properties": {"ref": "https://www.naturalgrocers.com/store/saint-george", "@spider": "natural_grocers", "shop": "supermarket", "addr:full": "712 W Telegraph St.", "addr:city": "Washington", "addr:state": "UT", "addr:postcode": "84780", "addr:country": "US", "name": "Saint George", "website": "https://www.naturalgrocers.com/store/saint-george", "opening_hours": "Mo-Sa 08:30-21:06; Su 09:00-19:35", "brand": "Natural Grocers", "brand:wikidata": "Q17146520", "nsi_id": "naturalgrocers-dde59d"}, "geometry": {"type": "Point", "coordinates": [-113.520759, 37.1305593]}},
{"type": "Feature", "id": "XBxdsoBgpKUNBhtGgIutFwIQD6c=", "properties": {"ref": "https://www.naturalgrocers.com/store/austin-n-lamar-blvd", "@spider": "natural_grocers", "shop": "supermarket", "addr:full": "4615 North Lamar Blvd", "addr:city": "Austin", "addr:state": "TX", "addr:postcode": "78751", "addr:country": "US", "name": "Austin - North Lamar Blvd", "website": "https://www.naturalgrocers.com/store/austin-n-lamar-blvd", "opening_hours": "Mo-Sa 08:30-20:36; Su 09:00-19:35", "brand": "Natural Grocers", "brand:wikidata": "Q17146520", "nsi_id": "naturalgrocers-dde59d"}, "geometry": {"type": "Point", "coordinates": [-97.734619, 30.315489]}},
{"type": "Feature", "id": "f98LxwwUJciuDo0x0YSz0BhYuKg=", "properties": {"ref": "https://www.naturalgrocers.com/store/durango", "@spider": "natural_grocers", "shop": "supermarket", "addr:full": "1123 Camino Del Rio", "addr:city": "Durango ", "addr:state": "CO", "addr:postcode": "81301", "addr:country": "US", "name": "Durango", "website": "https://www.naturalgrocers.com/store/durango", "opening_hours": "Mo-Sa 08:00-21:06; Su 09:00-19:35", "brand": "Natural Grocers", "brand:wikidata": "Q17146520", "nsi_id": "naturalgrocers-dde59d"}, "geometry": {"type": "Point", "coordinates": [-107.8822575, 37.2767978]}},
{"type": "Feature", "id": "RlFjUYBlrD5PK-W7MkivA20Ybo8=", "properties": {"ref": "https://www.naturalgrocers.com/store/amarillo", "@spider": "natural_grocers", "shop": "supermarket", "addr:full": "7400 SW 34th Ave.", "addr:city": "Amarillo", "addr:state": "TX", "addr:postcode": "79121", "addr:country": "US", "name": "Amarillo", "website": "https://www.naturalgrocers.com/store/amarillo", "opening_hours": "Mo-Sa 08:30-20:36; Su 09:00-19:35", "brand": "Natural Grocers", "brand:wikidata": "Q17146520", "nsi_id": "naturalgrocers-dde59d"}, "geometry": {"type": "Point", "coordinates": [-101.922735, 35.178153]}},
{"type": "Feature", "id": "-uv8RAdfgzm1JY6v4of9w8GsaTQ=", "properties": {"ref": "https://www.naturalgrocers.com/store/northglenn", "@spider": "natural_grocers", "shop": "supermarket", "addr:full": "11465 Washington St.", "addr:city": "Northglenn", "addr:state": "CO", "addr:postcode": "80233", "addr:country": "US", "name": "Northglenn", "website": "https://www.naturalgrocers.com/store/northglenn", "opening_hours": "Mo-Sa 09:00-20:36; Su 09:00-19:35", "brand": "Natural Grocers", "brand:wikidata": "Q17146520", "nsi_id": "naturalgrocers-dde59d"}, "geometry": {"type": "Point", "coordinates": [-104.9786343, 39.9057772]}},
{"type": "Feature", "id": "26jpIfz4s9JVrZl7NtZEAAR5_80=", "properties": {"ref": "https://www.naturalgrocers.com/store/dallas-richardson", "@spider": "natural_grocers", "shop": "supermarket", "addr:full": "677 West Campbell Rd", "addr:city": "Richardson", "addr:state": "TX", "addr:postcode": "75080", "addr:country": "US", "name": "Dallas - Richardson", "website": "https://www.naturalgrocers.com/store/dallas-richardson", "opening_hours": "Mo-Sa 08:30-20:36; Su 09:00-19:35", "brand": "Natural Grocers", "brand:wikidata": "Q17146520", "nsi_id": "naturalgrocers-dde59d"}, "geometry": {"type": "Point", "coordinates": [-96.742908, 32.977345]}},
{"type": "Feature", "id": "XGzhYQhA2sgy9ZacAYXeoiTwTE8=", "properties": {"ref": "https://www.naturalgrocers.com/store/colorado-springs-south-nevada-ave", "@spider": "natural_grocers", "shop": "supermarket", "addr:full": "1604 South Nevada Ave", "addr:city": "Colorado Springs", "addr:state": "CO", "addr:postcode": "80906", "addr:country": "US", "name": "Colorado Springs - South Nevada Ave", "website": "https://www.naturalgrocers.com/store/colorado-springs-south-nevada-ave", "opening_hours": "Mo-Sa 08:00-21:06; Su 09:00-19:35", "brand": "Natural Grocers", "brand:wikidata": "Q17146520", "nsi_id": "naturalgrocers-dde59d"}, "geometry": {"type": "Point", "coordinates": [-104.823128, 38.8111384]}},
{"type": "Feature", "id": "8dcv_66-UxmyZRFIVLjDCslacUQ=", "properties": {"ref": "https://www.naturalgrocers.com/store/frisco", "@spider": "natural_grocers", "shop": "supermarket", "addr:full": "970 N Ten Mile Dr.", "addr:city": "Frisco", "addr:state": "CO", "addr:postcode": "80443", "addr:country": "US", "name": "Frisco", "website": "https://www.naturalgrocers.com/store/frisco", "opening_hours": "Mo-Sa 09:00-20:36; Su 09:00-19:35", "brand": "Natural Grocers", "brand:wikidata": "Q17146520", "nsi_id": "naturalgrocers-dde59d"}, "geometry": {"type": "Point", "coordinates": [-106.094401, 39.590514]}},
{"type": "Feature", "id": "lbeY8p4iWblT6gfLKk1f5HfoxjA=", "properties": {"ref": "https://www.naturalgrocers.com/store/denver-rino-38th-and-brighton", "@spider": "natural_grocers", "shop": "supermarket", "addr:full": "3757 North Brighton Blvd", "addr:city": "Denver", "addr:state": "CO", "addr:postcode": "80216", "addr:country": "US", "name": "Denver - RiNo - 38th and Brighton", "website": "https://www.naturalgrocers.com/store/denver-rino-38th-and-brighton", "opening_hours": "Mo-Sa 08:30-20:36; Su 09:00-19:35", "brand": "Natural Grocers", "brand:wikidata": "Q17146520", "nsi_id": "naturalgrocers-dde59d"}, "geometry": {"type": "Point", "coordinates": [-104.975994, 39.773151]}},
{"type": "Feature", "id": "JcoEhCcMgjEI76T8s_GZB5LTKys=", "properties": {"ref": "https://www.naturalgrocers.com/store/brighton", "@spider": "natural_grocers", "shop": "supermarket", "addr:full": "903 S. 8th Ave.", "addr:city": "Brighton", "addr:state": "CO", "addr:postcode": "80601", "addr:country": "US", "name": "Brighton", "website": "https://www.naturalgrocers.com/store/brighton", "opening_hours": "Mo-Sa 08:30-20:36; Su 09:00-19:35", "brand": "Natural Grocers", "brand:wikidata": "Q17146520", "nsi_id": "naturalgrocers-dde59d"}, "geometry": {"type": "Point", "coordinates": [-104.813083, 39.971672]}},
{"type": "Feature", "id": "8OKegAwVxZhiMW4eB34nZHclwV8=", "properties": {"ref": "https://www.naturalgrocers.com/store/parker", "@spider": "natural_grocers", "shop": "supermarket", "addr:full": "11402 S.Parker Rd.", "addr:city": "Parker", "addr:state": "CO", "addr:postcode": "80134", "addr:country": "US", "name": "Parker", "website": "https://www.naturalgrocers.com/store/parker", "opening_hours": "Mo-Sa 08:30-20:36; Su 09:00-19:35", "brand": "Natural Grocers", "brand:wikidata": "Q17146520", "nsi_id": "naturalgrocers-dde59d"}, "geometry": {"type": "Point", "coordinates": [-104.7623643, 39.5096803]}},
{"type": "Feature", "id": "tUC4NpkC7k7MYqXnWjdxF0-niBk=", "properties": {"ref": "https://www.naturalgrocers.com/store/denver-central-park", "@spider": "natural_grocers", "shop": "supermarket", "name": "Denver - Central Park", "website": "https://www.naturalgrocers.com/store/denver-central-park", "opening_hours": "Mo-Sa 08:30-20:35; Su 09:00-19:35", "brand": "Natural Grocers", "brand:wikidata": "Q17146520", "nsi_id": "naturalgrocers-dde59d"}, "geometry": {"type": "Point", "coordinates": [-104.89114, 39.76153]}},
{"type": "Feature", "id": "dctgsTn7nQQcm3gHuvOs6J3Ffg8=", "properties": {"ref": "https://www.naturalgrocers.com/store/canon-city", "@spider": "natural_grocers", "shop": "supermarket", "addr:full": "121 N. 16th Street", "addr:city": "Canon City", "addr:state": "CO", "addr:postcode": "81212", "addr:country": "US", "name": "Canon City", "website": "https://www.naturalgrocers.com/store/canon-city", "opening_hours": "Mo-Sa 08:30-20:35; Su 09:00-19:35", "brand": "Natural Grocers", "brand:wikidata": "Q17146520", "nsi_id": "naturalgrocers-dde59d"}, "geometry": {"type": "Point", "coordinates": [-105.2261544, 38.4474503]}},
{"type": "Feature", "id": "0ZvFhJrSDP10hD7dM5hIUtfZ7wk=", "properties": {"ref": "https://www.naturalgrocers.com/store/sioux-falls", "@spider": "natural_grocers", "shop": "supermarket", "addr:full": "2601 S. Louise Ave.", "addr:city": "Sioux Falls", "addr:state": "SD", "addr:postcode": "57106", "addr:country": "US", "name": "Sioux Falls", "website": "https://www.naturalgrocers.com/store/sioux-falls", "opening_hours": "Mo-Sa 08:30-20:35; Su 09:00-19:35", "brand": "Natural Grocers", "brand:wikidata": "Q17146520", "nsi_id": "naturalgrocers-dde59d"}, "geometry": {"type": "Point", "coordinates": [-96.7742442, 43.5211889]}},
{"type": "Feature", "id": "hiOQMBNWXB4heYDB3ZwZTKJ55BA=", "properties": {"ref": "https://www.naturalgrocers.com/store/springfield", "@spider": "natural_grocers", "shop": "supermarket", "addr:full": "3333 S. Glenstone Ave.", "addr:city": "Springfield", "addr:state": "MO", "addr:postcode": "65804", "addr:country": "US", "name": "Springfield", "website": "https://www.naturalgrocers.com/store/springfield", "opening_hours": "Mo-Sa 08:30-20:36; Su 09:00-19:35", "brand": "Natural Grocers", "brand:wikidata": "Q17146520", "nsi_id": "naturalgrocers-dde59d"}, "geometry": {"type": "Point", "coordinates": [-93.2641777, 37.1525673]}},
{"type": "Feature", "id": "FGTqxVg5dP3c5cmL2iLGAKHqFLs=", "properties": {"ref": "https://www.naturalgrocers.com/store/jefferson-city", "@spider": "natural_grocers", "shop": "supermarket", "addr:full": "3535 Missouri Blvd, Suite 129", "addr:city": "Jefferson City", "addr:state": "MO", "addr:postcode": "65109", "addr:country": "US", "name": "Jefferson City", "website": "https://www.naturalgrocers.com/store/jefferson-city", "opening_hours": "Mo-Sa 08:30-20:36; Su 09:00-19:35", "brand": "Natural Grocers", "brand:wikidata": "Q17146520", "nsi_id": "naturalgrocers-dde59d"}, "geometry": {"type": "Point", "coordinates": [-92.249039601989, 38.58050764087]}},
{"type": "Feature", "id": "9am-zl535ZjJdYvyPaC72tonjWM=", "properties": {"ref": "https://www.naturalgrocers.com/store/los-alamos", "@spider": "natural_grocers", "shop": "supermarket", "addr:full": "1501 Trinity Dr", "addr:city": "Los Alamos", "addr:state": "NM", "addr:postcode": "87544", "addr:country": "US", "name": "Los Alamos", "website": "https://www.naturalgrocers.com/store/los-alamos", "opening_hours": "Mo-Sa 08:30-20:36; Su 09:00-19:35", "brand": "Natural Grocers", "brand:wikidata": "Q17146520", "nsi_id": "naturalgrocers-dde59d"}, "geometry": {"type": "Point", "coordinates": [-106.298968, 35.87957]}},
{"type": "Feature", "id": "UH6EgEwBat6LHSP8Gw2wp0XeKbA=", "properties": {"ref": "https://www.naturalgrocers.com/store/rio-rancho", "@spider": "natural_grocers", "shop": "supermarket", "addr:full": "921 Pat D'Arco Hwy", "addr:city": "Rio Rancho", "addr:state": "NM", "addr:postcode": "87124", "addr:country": "US", "name": "Rio Rancho", "website": "https://www.naturalgrocers.com/store/rio-rancho", "opening_hours": "Mo-Sa 08:30-20:36; Su 09:00-19:35", "brand": "Natural Grocers", "brand:wikidata": "Q17146520", "nsi_id": "naturalgrocers-dde59d"}, "geometry": {"type": "Point", "coordinates": [-106.65574, 35.243273]}},
{"type": "Feature", "id": "N6dH-XhBFle2Y0obhplmLMWC2TU=", "properties": {"ref": "https://www.naturalgrocers.com/store/cedar-city-ut", "@spider": "natural_grocers", "shop": "supermarket", "addr:full": "893 S. Main Street", "addr:city": "Cedar City", "addr:state": "UT", "addr:postcode": "84720", "addr:country": "US", "name": "Cedar City, UT", "website": "https://www.naturalgrocers.com/store/cedar-city-ut", "opening_hours": "Mo-Sa 08:30-20:36; Su 09:00-19:35", "brand": "Natural Grocers", "brand:wikidata": "Q17146520", "nsi_id": "naturalgrocers-dde59d"}, "geometry": {"type": "Point", "coordinates": [-113.069608, 37.662038]}},
{"type": "Feature", "id": "CuYWdT7Hg27uzSht1X2eU0dpLpI=", "properties": {"ref": "https://www.naturalgrocers.com/store/denver-green-valley-ranch", "@spider": "natural_grocers", "shop": "supermarket", "addr:full": "18471 Green Valley Ranch Blvd", "addr:city": "Denver", "addr:state": "CO", "addr:postcode": "80249", "addr:country": "US", "name": "Denver - Green Valley Ranch", "website": "https://www.naturalgrocers.com/store/denver-green-valley-ranch", "opening_hours": "Mo-Sa 08:30-20:36; Su 09:00-19:35", "brand": "Natural Grocers", "brand:wikidata": "Q17146520", "nsi_id": "naturalgrocers-dde59d"}, "geometry": {"type": "Point", "coordinates": [-104.771994, 39.783873]}},
{"type": "Feature", "id": "NG_RhbUO57gghKvPTJGCS1pANfk=", "properties": {"ref": "https://www.naturalgrocers.com/store/spokane-south-hill", "@spider": "natural_grocers", "shop": "supermarket", "addr:full": "2512 E. 29th Avenue", "addr:city": "Spokane", "addr:state": "WA", "addr:postcode": "99223", "addr:country": "US", "name": "Spokane - South Hill", "website": "https://www.naturalgrocers.com/store/spokane-south-hill", "opening_hours": "Mo-Sa 08:30-20:36; Su 09:00-19:35", "brand": "Natural Grocers", "brand:wikidata": "Q17146520", "nsi_id": "naturalgrocers-dde59d"}, "geometry": {"type": "Point", "coordinates": [-117.374525, 47.626934]}},
{"type": "Feature", "id": "fZWu51_aECjsUbOiLEHmMok3r2I=", "properties": {"ref": "https://www.naturalgrocers.com/store/pagosa-springs", "@spider": "natural_grocers", "shop": "supermarket", "addr:full": "755 San Juan Street", "addr:city": "Pagosa Springs", "addr:state": "CO", "addr:postcode": "81147", "addr:country": "US", "name": "Pagosa Springs", "website": "https://www.naturalgrocers.com/store/pagosa-springs", "opening_hours": "Mo-Sa 08:30-20:36; Su 09:00-19:35", "brand": "Natural Grocers", "brand:wikidata": "Q17146520", "nsi_id": "naturalgrocers-dde59d"}, "geometry": {"type": "Point", "coordinates": [-107.01677, 37.265953]}},
{"type": "Feature", "id": "dv9JyvfJPiT8sRxhrGQF5FamO1w=", "properties": {"ref": "https://www.naturalgrocers.com/store/klamath-falls", "@spider": "natural_grocers", "shop": "supermarket", "addr:full": "2800 S. 6th Street", "addr:city": "Klamath Falls", "addr:state": "OR", "addr:postcode": "97603", "addr:country": "US", "name": "Klamath Falls", "website": "https://www.naturalgrocers.com/store/klamath-falls", "opening_hours": "Mo-Sa 08:30-20:36; Su 09:00-19:35", "brand": "Natural Grocers", "brand:wikidata": "Q17146520", "nsi_id": "naturalgrocers-dde59d"}, "geometry": {"type": "Point", "coordinates": [-121.754859, 42.210101]}},
{"type": "Feature", "id": "ypfoWSlNyY0vLQgYGiPqHBxEByY=", "properties": {"ref": "https://www.naturalgrocers.com/store/lafayette-louisiana", "@spider": "natural_grocers", "shop": "supermarket", "addr:full": "1925 Kaliste Saloom Road", "addr:city": "Lafayette", "addr:state": "LA", "addr:postcode": "70508", "addr:country": "US", "name": "Lafayette", "website": "https://www.naturalgrocers.com/store/lafayette-louisiana", "opening_hours": "Mo-Sa 08:30-20:36; Su 09:00-19:35", "brand": "Natural Grocers", "brand:wikidata": "Q17146520", "nsi_id": "naturalgrocers-dde59d"}, "geometry": {"type": "Point", "coordinates": [-92.035222222222, 30.167416666667]}},
{"type": "Feature", "id": "hxBeyHx_YcbfFUQVtBHZiW3uD40=", "properties": {"ref": "https://www.naturalgrocers.com/store/bismarck", "@spider": "natural_grocers", "shop": "supermarket", "addr:full": "840 S Washington St", "addr:city": "Bismark", "addr:state": "ND", "addr:postcode": "58504", "addr:country": "US", "name": "Bismarck", "website": "https://www.naturalgrocers.com/store/bismarck", "opening_hours": "Mo-Sa 08:30-20:36; Su 09:00-19:35", "brand": "Natural Grocers", "brand:wikidata": "Q17146520", "nsi_id": "naturalgrocers-dde59d"}, "geometry": {"type": "Point", "coordinates": [-100.794506, 46.797546]}},
{"type": "Feature", "id": "gEgzLXs4xdF32pAHH5oGuLs6KPg=", "properties": {"ref": "https://www.naturalgrocers.com/store/woodland-park", "@spider": "natural_grocers", "shop": "supermarket", "addr:full": "916 Paradise Lodge Lane", "addr:city": "Woodland Park", "addr:state": "CO", "addr:postcode": "80863", "addr:country": "US", "name": "Woodland Park", "website": "https://www.naturalgrocers.com/store/woodland-park", "opening_hours": "Mo-Sa 08:30-20:36; Su 09:00-19:35", "brand": "Natural Grocers", "brand:wikidata": "Q17146520", "nsi_id": "naturalgrocers-dde59d"}, "geometry": {"type": "Point", "coordinates": [-105.044234, 38.983263]}},
{"type": "Feature", "id": "Fgr1STnJfmL0_EsUqt9aaDkmHlI=", "properties": {"ref": "https://www.naturalgrocers.com/store/tigard", "@spider": "natural_grocers", "shop": "supermarket", "addr:full": "13115 SW Pacific Hwy", "addr:city": "Tigard", "addr:state": "OR", "addr:postcode": "97223", "addr:country": "US", "name": "Tigard", "website": "https://www.naturalgrocers.com/store/tigard", "opening_hours": "Mo-Sa 08:30-20:36; Su 09:00-19:35", "brand": "Natural Grocers", "brand:wikidata": "Q17146520", "nsi_id": "naturalgrocers-dde59d"}, "geometry": {"type": "Point", "coordinates": [-122.781264, 45.425708]}},
{"type": "Feature", "id": "VB8cLL9a40SAlei6qsE0lxdF4EY=", "properties": {"ref": "https://www.naturalgrocers.com/store/dubuque", "@spider": "natural_grocers", "shop": "supermarket", "addr:full": "3333 Asbury Road", "addr:city": "Dubuque", "addr:state": "IA", "addr:postcode": "52002", "addr:country": "US", "name": "Dubuque", "website": "https://www.naturalgrocers.com/store/dubuque", "opening_hours": "Mo-Sa 08:30-20:36; Su 09:00-19:35", "brand": "Natural Grocers", "brand:wikidata": "Q17146520", "nsi_id": "naturalgrocers-dde59d"}, "geometry": {"type": "Point", "coordinates": [-90.722623, 42.512655]}},
{"type": "Feature", "id": "RzUcoD9-dYrdD6UC6POyiE-X0o8=", "properties": {"ref": "https://www.naturalgrocers.com/store/salida", "@spider": "natural_grocers", "shop": "supermarket", "addr:full": "200 F Street", "addr:city": "Salida", "addr:state": "CO", "addr:postcode": "81201", "addr:country": "US", "name": "Salida", "website": "https://www.naturalgrocers.com/store/salida", "opening_hours": "Mo-Sa 08:30-20:36; Su 09:00-19:35", "brand": "Natural Grocers", "brand:wikidata": "Q17146520", "nsi_id": "naturalgrocers-dde59d"}, "geometry": {"type": "Point", "coordinates": [-105.993365, 38.535667]}},
{"type": "Feature", "id": "_4q1o6a0yt-R2oyJUng_O2r-TdE=", "properties": {"ref": "https://www.naturalgrocers.com/store/fredericksburg", "@spider": "natural_grocers", "shop": "supermarket", "addr:full": "610 E. Main St", "addr:city": "Fredericksburg", "addr:state": "TX", "addr:postcode": "78624", "addr:country": "US", "name": "Fredericksburg", "website": "https://www.naturalgrocers.com/store/fredericksburg", "opening_hours": "Mo-Sa 08:30-20:36; Su 09:00-19:35", "brand": "Natural Grocers", "brand:wikidata": "Q17146520", "nsi_id": "naturalgrocers-dde59d"}, "geometry": {"type": "Point", "coordinates": [-98.862395, 30.268654]}},
{"type": "Feature", "id": "GIK_igl5md3wCSLS3-rWF1Pj9wM=", "properties": {"ref": "https://www.naturalgrocers.com/store/portland-mlk", "@spider": "natural_grocers", "shop": "supermarket", "addr:full": "5055 NE Martin Luther King Jr. Blvd", "addr:city": "Portland", "addr:state": "OR", "addr:postcode": "97211", "addr:country": "US", "name": "Portland - MLK", "website": "https://www.naturalgrocers.com/store/portland-mlk", "opening_hours": "Mo-Sa 08:30-20:36; Su 09:00-19:35", "brand": "Natural Grocers", "brand:wikidata": "Q17146520", "nsi_id": "naturalgrocers-dde59d"}, "geometry": {"type": "Point", "coordinates": [-122.661617, 45.559833]}},
{"type": "Feature", "id": "OK9uSW64oRUMXlJncf-PGI8Bax0=", "properties": {"ref": "https://www.naturalgrocers.com/store/austin-area-georgetown", "@spider": "natural_grocers", "shop": "supermarket", "addr:full": "1301 W. University Ave.", "addr:city": "Georgetown", "addr:state": "TX", "addr:postcode": "78628", "addr:country": "US", "name": "Austin Area - Georgetown", "website": "https://www.naturalgrocers.com/store/austin-area-georgetown", "opening_hours": "Mo-Sa 09:00-20:36; Su 09:00-19:35", "brand": "Natural Grocers", "brand:wikidata": "Q17146520", "nsi_id": "naturalgrocers-dde59d"}, "geometry": {"type": "Point", "coordinates": [-97.700918, 30.632907]}},
{"type": "Feature", "id": "Exx4WcIUiRoe-lXV1vF0lPdVFCg=", "properties": {"ref": "https://www.naturalgrocers.com/store/coos-bay", "@spider": "natural_grocers", "shop": "supermarket", "addr:full": "562 N Broadway", "addr:city": "Coos Bay", "addr:state": "OR", "addr:postcode": "97420", "addr:country": "US", "name": "Coos Bay", "website": "https://www.naturalgrocers.com/store/coos-bay", "opening_hours": "Mo-Sa 08:30-20:36; Su 09:00-19:35", "brand": "Natural Grocers", "brand:wikidata": "Q17146520", "nsi_id": "naturalgrocers-dde59d"}, "geometry": {"type": "Point", "coordinates": [-124.212897, 43.371341]}},
{"type": "Feature", "id": "XNGMlsB8yRQSp6LKvwJrYU_OpW4=", "properties": {"ref": "https://www.naturalgrocers.com/store/warrenton", "@spider": "natural_grocers", "shop": "supermarket", "addr:full": "137 S. Hwy 101", "addr:city": "Warrenton", "addr:state": "OR", "addr:postcode": "97146", "addr:country": "US", "name": "Warrenton", "website": "https://www.naturalgrocers.com/store/warrenton", "opening_hours": "Mo-Sa 08:30-20:36; Su 09:00-19:35", "brand": "Natural Grocers", "brand:wikidata": "Q17146520", "nsi_id": "naturalgrocers-dde59d"}, "geometry": {"type": "Point", "coordinates": [-123.899242, 46.162406]}},
{"type": "Feature", "id": "qT6LckJZsEyCq3T03JBn273ATsg=", "properties": {"ref": "https://www.naturalgrocers.com/store/fort-worth-north", "@spider": "natural_grocers", "shop": "supermarket", "addr:full": "5230 North Tarrant Parkway", "addr:city": "Fort Worth", "addr:state": "TX", "addr:postcode": "76137", "addr:country": "US", "name": "Fort Worth - North", "website": "https://www.naturalgrocers.com/store/fort-worth-north", "opening_hours": "Mo-Sa 08:30-20:36; Su 09:00-19:35", "brand": "Natural Grocers", "brand:wikidata": "Q17146520", "nsi_id": "naturalgrocers-dde59d"}, "geometry": {"type": "Point", "coordinates": [-97.27047, 32.8944849]}},
{"type": "Feature", "id": "ex2dnkF0L-XivVUXP424ELtuEP8=", "properties": {"ref": "https://www.naturalgrocers.com/store/keller", "@spider": "natural_grocers", "shop": "supermarket", "addr:full": "1501 Keller Parkway", "addr:city": "Keller", "addr:state": "TX", "addr:postcode": "76248", "addr:country": "US", "name": "Keller", "website": "https://www.naturalgrocers.com/store/keller", "opening_hours": "Mo-Sa 08:30-20:36; Su 09:00-19:35", "brand": "Natural Grocers", "brand:wikidata": "Q17146520", "nsi_id": "naturalgrocers-dde59d"}, "geometry": {"type": "Point", "coordinates": [-97.2180146, 32.9351473]}},
{"type": "Feature", "id": "OSyYs0x-qIbmKjK8Adnz1YMlGb4=", "properties": {"ref": "https://www.naturalgrocers.com/store/joplin", "@spider": "natural_grocers", "shop": "supermarket", "addr:full": "510 South Range Line Rd", "addr:city": "Joplin", "addr:state": "MO", "addr:postcode": "64801", "addr:country": "US", "name": "Joplin", "website": "https://www.naturalgrocers.com/store/joplin", "opening_hours": "Mo-Sa 08:30-20:36; Su 09:00-19:35", "brand": "Natural Grocers", "brand:wikidata": "Q17146520", "nsi_id": "naturalgrocers-dde59d"}, "geometry": {"type": "Point", "coordinates": [-94.478029, 37.085833]}},
{"type": "Feature", "id": "_m1m0DuFhQQ9o1ad6K9PyOU4lyI=", "properties": {"ref": "https://www.naturalgrocers.com/store/heber-city", "@spider": "natural_grocers", "shop": "supermarket", "addr:full": "989 S. Main Street", "addr:city": "Heber City", "addr:state": "UT", "addr:postcode": "84032", "addr:country": "US", "name": "Heber City", "website": "https://www.naturalgrocers.com/store/heber-city", "opening_hours": "Mo-Sa 08:30-20:36; Su 09:00-19:35", "brand": "Natural Grocers", "brand:wikidata": "Q17146520", "nsi_id": "naturalgrocers-dde59d"}, "geometry": {"type": "Point", "coordinates": [-111.412794, 40.494508]}},
{"type": "Feature", "id": "VRVTy6dTPvPG2y2hQO0cR6N-7Ss=", "properties": {"ref": "https://www.naturalgrocers.com/store/iowa-city", "@spider": "natural_grocers", "shop": "supermarket", "addr:full": "1404 Gilbert Street", "addr:city": "Iowa City", "addr:state": "IA", "addr:postcode": "52240", "addr:country": "US", "name": "Iowa City", "website": "https://www.naturalgrocers.com/store/iowa-city", "opening_hours": "Mo-Sa 08:30-20:36; Su 09:00-19:35", "brand": "Natural Grocers", "brand:wikidata": "Q17146520", "nsi_id": "naturalgrocers-dde59d"}, "geometry": {"type": "Point", "coordinates": [-91.5318328, 41.6447118]}},
{"type": "Feature", "id": "A7hNrZcp2uCs63V8Ml8sq9jxqlw=", "properties": {"ref": "https://www.naturalgrocers.com/store/davenport", "@spider": "natural_grocers", "shop": "supermarket", "addr:full": "3805 E. 53rd Street", "addr:city": "Davenport", "addr:state": "IA", "addr:postcode": "52807", "addr:country": "US", "name": "Davenport", "website": "https://www.naturalgrocers.com/store/davenport", "opening_hours": "Mo-Sa 08:30-20:36; Su 09:00-19:35", "brand": "Natural Grocers", "brand:wikidata": "Q17146520", "nsi_id": "naturalgrocers-dde59d"}, "geometry": {"type": "Point", "coordinates": [-90.5188784, 41.5741593]}},
{"type": "Feature", "id": "PvdGDwcwhr1GdgFMLWmAQTd9CWE=", "properties": {"ref": "https://www.naturalgrocers.com/store/jonesboro", "@spider": "natural_grocers", "shop": "supermarket", "addr:full": "1315 South Caraway Rd", "addr:city": "Jonesboro", "addr:state": "AR", "addr:postcode": "72401", "addr:country": "US", "name": "Jonesboro", "website": "https://www.naturalgrocers.com/store/jonesboro", "opening_hours": "Mo-Sa 08:30-20:36; Su 09:00-19:35", "brand": "Natural Grocers", "brand:wikidata": "Q17146520", "nsi_id": "naturalgrocers-dde59d"}, "geometry": {"type": "Point", "coordinates": [-90.67946, 35.829175]}},
{"type": "Feature", "id": "eezoDvhjpi-K7ib8vNkQOozokz4=", "properties": {"ref": "https://www.naturalgrocers.com/store/portland-cesar-chavez-and-powell", "@spider": "natural_grocers", "shop": "supermarket", "addr:full": "3975 SE Powell Blvd", "addr:city": "Portland", "addr:state": "OR", "addr:postcode": "97202", "addr:country": "US", "name": "Portland - Cesar Chavez and Powell", "website": "https://www.naturalgrocers.com/store/portland-cesar-chavez-and-powell", "opening_hours": "Mo-Sa 08:30-20:36; Su 09:00-19:35", "brand": "Natural Grocers", "brand:wikidata": "Q17146520", "nsi_id": "naturalgrocers-dde59d"}, "geometry": {"type": "Point", "coordinates": [-122.620778, 45.498309]}},
{"type": "Feature", "id": "YyCDgLXiAylmJaPobtP7tW-Hg9Q=", "properties": {"ref": "https://www.naturalgrocers.com/store/south-jordan", "@spider": "natural_grocers", "shop": "supermarket", "addr:full": "10622 S. Redwood Road", "addr:city": "South Jordan", "addr:state": "UT", "addr:postcode": "84095", "addr:country": "US", "name": "South Jordan", "website": "https://www.naturalgrocers.com/store/south-jordan", "opening_hours": "Mo-Sa 08:30-20:36; Su 09:00-19:35", "brand": "Natural Grocers", "brand:wikidata": "Q17146520", "nsi_id": "naturalgrocers-dde59d"}, "geometry": {"type": "Point", "coordinates": [-111.9391144, 40.5580519]}},
{"type": "Feature", "id": "52i2Ft6WDPwU_PgVX_J89OuvtJI=", "properties": {"ref": "https://www.naturalgrocers.com/store/san-antonio-alamo-heights", "@spider": "natural_grocers", "shop": "supermarket", "addr:full": "6514 N. New Braunfels Ave.", "addr:city": "San Antonio", "addr:state": "TX", "addr:postcode": "78209", "addr:country": "US", "name": "San Antonio - Alamo Heights", "website": "https://www.naturalgrocers.com/store/san-antonio-alamo-heights", "opening_hours": "Mo-Sa 08:30-20:36; Su 09:00-19:35", "brand": "Natural Grocers", "brand:wikidata": "Q17146520", "nsi_id": "naturalgrocers-dde59d"}, "geometry": {"type": "Point", "coordinates": [-98.4588271, 29.4912707]}},
{"type": "Feature", "id": "NMbLeUeaUBbYWrNs0uwJg9MsrgI=", "properties": {"ref": "https://www.naturalgrocers.com/store/vancouver-east", "@spider": "natural_grocers", "shop": "supermarket", "addr:full": "3311 SE 192nd Ave", "addr:city": "Vancouver", "addr:state": "WA", "addr:postcode": "98683", "addr:country": "US", "name": "Vancouver - East", "website": "https://www.naturalgrocers.com/store/vancouver-east", "opening_hours": "Mo-Sa 08:30-20:36; Su 09:00-19:35", "brand": "Natural Grocers", "brand:wikidata": "Q17146520", "nsi_id": "naturalgrocers-dde59d"}, "geometry": {"type": "Point", "coordinates": [-122.4773152, 45.5971904]}},
{"type": "Feature", "id": "mefogCVXuEw32xcno5FXX7cxdms=", "properties": {"ref": "https://www.naturalgrocers.com/store/longview", "@spider": "natural_grocers", "shop": "supermarket", "addr:full": "406 W Loop 281", "addr:city": "Longview", "addr:state": "TX", "addr:postcode": "75605", "addr:country": "US", "name": "Longview", "website": "https://www.naturalgrocers.com/store/longview", "opening_hours": "Mo-Sa 08:30-20:36; Su 09:00-19:35", "brand": "Natural Grocers", "brand:wikidata": "Q17146520", "nsi_id": "naturalgrocers-dde59d"}, "geometry": {"type": "Point", "coordinates": [-94.7564585, 32.5395547]}},
{"type": "Feature", "id": "W7xqallS_StN9nPpJU-TE2I2Js8=", "properties": {"ref": "https://www.naturalgrocers.com/store/cedar-falls", "@spider": "natural_grocers", "shop": "supermarket", "addr:full": "5410 University Avenue", "addr:city": "Cedar Falls", "addr:state": "IA", "addr:postcode": "50613", "addr:country": "US", "name": "Cedar Falls", "website": "https://www.naturalgrocers.com/store/cedar-falls", "opening_hours": "Mo-Sa 09:00-20:36; Su 09:00-19:35", "brand": "Natural Grocers", "brand:wikidata": "Q17146520", "nsi_id": "naturalgrocers-dde59d"}, "geometry": {"type": "Point", "coordinates": [-92.4219529, 42.5109638]}},
{"type": "Feature", "id": "BviHtomjsD_kgDueagiXFGw5Aso=", "properties": {"ref": "https://www.naturalgrocers.com/store/hurst", "@spider": "natural_grocers", "shop": "supermarket", "addr:full": "759 Grapevine Hwy", "addr:city": "Hurst", "addr:state": "TX", "addr:postcode": "76054", "addr:country": "US", "name": "Hurst", "website": "https://www.naturalgrocers.com/store/hurst", "opening_hours": "Mo-Sa 09:00-20:36; Su 09:00-19:35", "brand": "Natural Grocers", "brand:wikidata": "Q17146520", "nsi_id": "naturalgrocers-dde59d"}, "geometry": {"type": "Point", "coordinates": [-97.1823093, 32.858177]}},
{"type": "Feature", "id": "HM4ztehjFwgpLx25XKQ7NWRZcCk=", "properties": {"ref": "https://www.naturalgrocers.com/store/ogden", "@spider": "natural_grocers", "shop": "supermarket", "addr:full": "270 12th Street", "addr:city": "Ogden", "addr:state": "UT", "addr:postcode": "84404", "addr:country": "US", "name": "Ogden", "website": "https://www.naturalgrocers.com/store/ogden", "opening_hours": "Mo-Sa 09:00-20:36; Su 09:00-19:35", "brand": "Natural Grocers", "brand:wikidata": "Q17146520", "nsi_id": "naturalgrocers-dde59d"}, "geometry": {"type": "Point", "coordinates": [-111.9733645, 41.245006]}},
{"type": "Feature", "id": "I0gWa0Pd67Z8w37aW1sEiuK7xZA=", "properties": {"ref": "https://www.naturalgrocers.com/store/cedar-rapids", "@spider": "natural_grocers", "shop": "supermarket", "addr:full": "931 Blairs Ferry Rd NE", "addr:city": "Cedar Rapids", "addr:state": "IA", "addr:postcode": "52402", "addr:country": "US", "name": "Cedar Rapids", "website": "https://www.naturalgrocers.com/store/cedar-rapids", "opening_hours": "Mo-Sa 09:00-20:36; Su 09:00-19:35", "brand": "Natural Grocers", "brand:wikidata": "Q17146520", "nsi_id": "naturalgrocers-dde59d"}, "geometry": {"type": "Point", "coordinates": [-91.6480633, 42.0346126]}},
{"type": "Feature", "id": "m9KZi4OHIUqMzdBH3E3W6Y6fqVA=", "properties": {"ref": "https://www.naturalgrocers.com/store/liberty", "@spider": "natural_grocers", "shop": "supermarket", "addr:full": "114 S. Stewart Rd.", "addr:city": "Liberty", "addr:state": "MO", "addr:postcode": "64068", "addr:country": "US", "name": "Liberty", "website": "https://www.naturalgrocers.com/store/liberty", "opening_hours": "Mo-Sa 09:00-20:36; Su 09:00-19:35", "brand": "Natural Grocers", "brand:wikidata": "Q17146520", "nsi_id": "naturalgrocers-dde59d"}, "geometry": {"type": "Point", "coordinates": [-94.4527028, 39.2439316]}},
{"type": "Feature", "id": "G3JiPD3Le8UvTzuomj4hkjzgx_4=", "properties": {"ref": "https://www.naturalgrocers.com/store/hailey", "@spider": "natural_grocers", "shop": "supermarket", "addr:full": "710 N Main Street", "addr:city": "Hailey", "addr:state": "ID", "addr:postcode": "83333", "addr:country": "US", "name": "Hailey", "website": "https://www.naturalgrocers.com/store/hailey", "opening_hours": "Mo-Sa 09:00-20:36; Su 09:00-19:35", "brand": "Natural Grocers", "brand:wikidata": "Q17146520", "nsi_id": "naturalgrocers-dde59d"}, "geometry": {"type": "Point", "coordinates": [-114.319643, 43.526209]}},
{"type": "Feature", "id": "5heC1X76DVp8d85uTvROpDkEUk8=", "properties": {"ref": "https://www.naturalgrocers.com/store/salt-lake-city-sugar-house", "@spider": "natural_grocers", "shop": "supermarket", "addr:full": "1033 East 2100 South", "addr:city": "Salt Lake City", "addr:state": "UT", "addr:postcode": "84106", "addr:country": "US", "name": "Salt Lake City - Sugar House", "website": "https://www.naturalgrocers.com/store/salt-lake-city-sugar-house", "opening_hours": "Mo-Sa 09:00-20:36; Su 09:00-19:35", "brand": "Natural Grocers", "brand:wikidata": "Q17146520", "nsi_id": "naturalgrocers-dde59d"}, "geometry": {"type": "Point", "coordinates": [-111.8614232, 40.7256441]}},
{"type": "Feature", "id": "zFtKK-cMEEEbHwGR03pFjG3QEzw=", "properties": {"ref": "https://www.naturalgrocers.com/store/tucson-river-road", "@spider": "natural_grocers", "shop": "supermarket", "addr:full": "5600 E River Rd", "addr:city": "Tucson", "addr:state": "AZ", "addr:postcode": "85750", "addr:country": "US", "name": "Tucson - River Road", "website": "https://www.naturalgrocers.com/store/tucson-river-road", "opening_hours": "Mo-Sa 08:30-20:36; Su 09:00-19:35", "brand": "Natural Grocers", "brand:wikidata": "Q17146520", "nsi_id": "naturalgrocers-dde59d"}, "geometry": {"type": "Point", "coordinates": [-110.8732668, 32.2726445]}},
{"type": "Feature", "id": "oCPWw4spQvMM1zqLvwDIyuVa--E=", "properties": {"ref": "https://www.naturalgrocers.com/store/north-las-vegas", "@spider": "natural_grocers", "shop": "supermarket", "addr:full": "6305 Simmons St.", "addr:city": "North Las Vegas", "addr:state": "NV", "addr:postcode": "89031", "addr:country": "US", "name": "North Las Vegas", "website": "https://www.naturalgrocers.com/store/north-las-vegas", "opening_hours": "Mo-Sa 09:00-20:36; Su 09:00-19:35", "brand": "Natural Grocers", "brand:wikidata": "Q17146520", "nsi_id": "naturalgrocers-dde59d"}, "geometry": {"type": "Point", "coordinates": [-115.1804862, 36.274679]}},
{"type": "Feature", "id": "o3366W02vABq-fid82EUAKmCpGo=", "properties": {"ref": "https://www.naturalgrocers.com/store/grand-forks", "@spider": "natural_grocers", "shop": "supermarket", "addr:full": "1901 32nd Ave. South", "addr:city": "Grand Forks", "addr:state": "ND", "addr:postcode": "58201", "addr:country": "US", "name": "Grand Forks", "website": "https://www.naturalgrocers.com/store/grand-forks", "opening_hours": "Mo-Sa 09:00-20:36; Su 09:00-19:35", "brand": "Natural Grocers", "brand:wikidata": "Q17146520", "nsi_id": "naturalgrocers-dde59d"}, "geometry": {"type": "Point", "coordinates": [-97.0553655, 47.8882803]}},
{"type": "Feature", "id": "TTP-U31KN3zcs-Z8_eYPk_KQqhs=", "properties": {"ref": "https://www.naturalgrocers.com/store/henderson", "@spider": "natural_grocers", "shop": "supermarket", "addr:full": "1660 West Sunset Road", "addr:city": "Henderson", "addr:state": "NV", "addr:postcode": "89014", "addr:country": "US", "name": "Henderson", "website": "https://www.naturalgrocers.com/store/henderson", "opening_hours": "Mo-Sa 09:00-20:36; Su 09:00-19:35", "brand": "Natural Grocers", "brand:wikidata": "Q17146520", "nsi_id": "naturalgrocers-dde59d"}, "geometry": {"type": "Point", "coordinates": [-115.05778, 36.064607]}},
{"type": "Feature", "id": "NQu4dCE1f_dhbSnc0LclEECGsVc=", "properties": {"ref": "https://www.naturalgrocers.com/store/gilbert-val-vista", "@spider": "natural_grocers", "shop": "supermarket", "addr:full": "1625 E Williams Field Rd", "addr:city": "Gilbert", "addr:state": "AZ", "addr:postcode": "85295", "addr:country": "US", "name": "Gilbert - Val Vista", "website": "https://www.naturalgrocers.com/store/gilbert-val-vista", "opening_hours": "Mo-Sa 08:30-20:36; Su 09:00-19:35", "brand": "Natural Grocers", "brand:wikidata": "Q17146520", "nsi_id": "naturalgrocers-dde59d"}, "geometry": {"type": "Point", "coordinates": [-111.754644, 33.306228]}},
{"type": "Feature", "id": "0WpTF8loKf18Qf8qJf-pg5nkRcA=", "properties": {"ref": "https://www.naturalgrocers.com/store/gilbert-baseline", "@spider": "natural_grocers", "shop": "supermarket", "addr:full": "2151 E Baseline Rd", "addr:city": "Gilbert", "addr:state": "AZ", "addr:postcode": "85234", "addr:country": "US", "name": "Gilbert - Baseline", "website": "https://www.naturalgrocers.com/store/gilbert-baseline", "opening_hours": "Mo-Sa 09:00-20:36; Su 09:00-19:35", "brand": "Natural Grocers", "brand:wikidata": "Q17146520", "nsi_id": "naturalgrocers-dde59d"}, "geometry": {"type": "Point", "coordinates": [-111.785024, 33.378776]}},
{"type": "Feature", "id": "7oN-O4Xyfcyx4KsVcQgN4Ru25qo=", "properties": {"ref": "https://www.naturalgrocers.com/store/fort-worth-7th-street", "@spider": "natural_grocers", "shop": "supermarket", "addr:full": "2501 W. 7th St. Suite 115", "addr:city": "Fort Worth", "addr:state": "TX", "addr:postcode": "76107", "addr:country": "US", "name": "Fort Worth - 7th Street", "website": "https://www.naturalgrocers.com/store/fort-worth-7th-street", "opening_hours": "Mo-Sa 09:00-20:36; Su 09:00-19:35", "brand": "Natural Grocers", "brand:wikidata": "Q17146520", "nsi_id": "naturalgrocers-dde59d"}, "geometry": {"type": "Point", "coordinates": [-97.3533296, 32.7506218]}},
{"type": "Feature", "id": "okxjNKGJJQ3ZFzu7qJi3AzIOJi8=", "properties": {"ref": "https://www.naturalgrocers.com/store/st-joseph", "@spider": "natural_grocers", "shop": "supermarket", "addr:full": "2414 North Belt Highway Suite 100", "addr:city": "St. Joseph", "addr:state": "MO", "addr:postcode": "64506", "addr:country": "US", "name": "St. Joseph", "website": "https://www.naturalgrocers.com/store/st-joseph", "opening_hours": "Mo-Sa 09:00-20:36; Su 09:00-19:35", "brand": "Natural Grocers", "brand:wikidata": "Q17146520", "nsi_id": "naturalgrocers-dde59d"}, "geometry": {"type": "Point", "coordinates": [-94.8087334, 39.7891443]}},
{"type": "Feature", "id": "ATevysIAggUlFviMsd8W6Jf8h0g=", "properties": {"ref": "https://www.naturalgrocers.com/store/san-antonio-nw-military-highway", "@spider": "natural_grocers", "shop": "supermarket", "addr:full": "13310 NW Military Highway", "addr:city": "San Antonio", "addr:state": "TX", "addr:postcode": "78231", "addr:country": "US", "name": "San Antonio - NW Military Highway", "website": "https://www.naturalgrocers.com/store/san-antonio-nw-military-highway", "opening_hours": "Mo-Sa 09:00-20:36; Su 09:00-19:35", "brand": "Natural Grocers", "brand:wikidata": "Q17146520", "nsi_id": "naturalgrocers-dde59d"}, "geometry": {"type": "Point", "coordinates": [-98.5373421, 29.5643531]}},
{"type": "Feature", "id": "HPFSQy6t2TCFWGHX3mGmTFOZxiM=", "properties": {"ref": "https://www.naturalgrocers.com/store/chandler", "@spider": "natural_grocers", "shop": "supermarket", "addr:full": "5805 W. Ray Rd.", "addr:city": "Chandler", "addr:state": "AZ", "addr:postcode": "85226", "addr:country": "US", "name": "Chandler", "website": "https://www.naturalgrocers.com/store/chandler", "opening_hours": "Mo-Sa 09:00-20:36; Su 09:00-19:35", "brand": "Natural Grocers", "brand:wikidata": "Q17146520", "nsi_id": "naturalgrocers-dde59d"}, "geometry": {"type": "Point", "coordinates": [-111.9415364, 33.3194568]}},
{"type": "Feature", "id": "oehAltVqkpJuOQxCJ9J1cpkRPKw=", "properties": {"ref": "https://www.naturalgrocers.com/store/phoenix-indian-school-rd", "@spider": "natural_grocers", "shop": "supermarket", "addr:full": "655 W. Indian School Rd", "addr:city": "Phoenix", "addr:state": "AZ", "addr:postcode": "85013", "addr:country": "US", "name": "Phoenix - Indian School Rd", "website": "https://www.naturalgrocers.com/store/phoenix-indian-school-rd", "opening_hours": "Mo-Sa 09:00-20:36; Su 09:00-19:35", "brand": "Natural Grocers", "brand:wikidata": "Q17146520", "nsi_id": "naturalgrocers-dde59d"}, "geometry": {"type": "Point", "coordinates": [-112.083123, 33.494845]}},
{"type": "Feature", "id": "-XGETTh7BWbUMFmOEmntk9S5_oM=", "properties": {"ref": "https://www.naturalgrocers.com/store/spokane-north-division", "@spider": "natural_grocers", "shop": "supermarket", "addr:full": "4603 N Division St", "addr:city": "Spokane", "addr:state": "WA", "addr:postcode": "99207", "addr:country": "US", "name": "Spokane - North Division", "website": "https://www.naturalgrocers.com/store/spokane-north-division", "opening_hours": "Mo-Sa 08:30-20:36; Su 09:00-19:35", "brand": "Natural Grocers", "brand:wikidata": "Q17146520", "nsi_id": "naturalgrocers-dde59d"}, "geometry": {"type": "Point", "coordinates": [-117.412188, 47.699977]}},
{"type": "Feature", "id": "JghWS2OlHHofl0pOVGvs3TAKw-o=", "properties": {"ref": "https://www.naturalgrocers.com/store/tucson-broadway-and-country-club", "@spider": "natural_grocers", "shop": "supermarket", "addr:full": "3016 East Broadway Blvd", "addr:city": "Tucson", "addr:state": "AZ", "addr:postcode": "85716", "addr:country": "US", "name": "Tucson - Broadway and Country Club", "website": "https://www.naturalgrocers.com/store/tucson-broadway-and-country-club", "opening_hours": "Mo-Sa 09:00-20:36; Su 09:00-19:35", "brand": "Natural Grocers", "brand:wikidata": "Q17146520", "nsi_id": "naturalgrocers-dde59d"}, "geometry": {"type": "Point", "coordinates": [-110.9273303, 32.2213416]}},
{"type": "Feature", "id": "9B7aE0W79Qw19DTboHDbCzeKB6g=", "properties": {"ref": "https://www.naturalgrocers.com/store/corpus-christi", "@spider": "natural_grocers", "shop": "supermarket", "addr:full": "3750 South Staples St", "addr:city": "Corpus Christ", "addr:state": "TX", "addr:postcode": "78411", "addr:country": "US", "name": "Corpus Christi", "website": "https://www.naturalgrocers.com/store/corpus-christi", "opening_hours": "Mo-Sa 09:00-20:36; Su 09:00-19:35", "brand": "Natural Grocers", "brand:wikidata": "Q17146520", "nsi_id": "naturalgrocers-dde59d"}, "geometry": {"type": "Point", "coordinates": [-97.3877541, 27.7403398]}},
{"type": "Feature", "id": "bJdF0-INPm5x7ohOa4q2cStdVGI=", "properties": {"ref": "https://www.naturalgrocers.com/store/coppell", "@spider": "natural_grocers", "shop": "supermarket", "addr:full": "120 S Denton Tap Rd Suite 300", "addr:city": "Coppell", "addr:state": "TX", "addr:postcode": "75019", "addr:country": "US", "name": "Coppell", "website": "https://www.naturalgrocers.com/store/coppell", "opening_hours": "Mo-Sa 09:00-20:36; Su 09:00-19:35", "brand": "Natural Grocers", "brand:wikidata": "Q17146520", "nsi_id": "naturalgrocers-dde59d"}, "geometry": {"type": "Point", "coordinates": [-96.9922263, 32.9682219]}},
{"type": "Feature", "id": "eadFBmXWc1lb_M9jt8q9OLRhryM=", "properties": {"ref": "https://www.naturalgrocers.com/store/clive", "@spider": "natural_grocers", "shop": "supermarket", "addr:full": "8650 Hickman Rd", "addr:city": "Clive", "addr:state": "IA", "addr:postcode": "50325", "addr:country": "US", "name": "Clive", "website": "https://www.naturalgrocers.com/store/clive", "opening_hours": "Mo-Sa 09:00-20:36; Su 09:00-19:35", "brand": "Natural Grocers", "brand:wikidata": "Q17146520", "nsi_id": "naturalgrocers-dde59d"}, "geometry": {"type": "Point", "coordinates": [-93.737381, 41.614673]}},
{"type": "Feature", "id": "hoyN_-BjmANxohkCGcdHUO0o8UM=", "properties": {"ref": "https://www.naturalgrocers.com/store/denver-tennyson-and-38th", "@spider": "natural_grocers", "shop": "supermarket", "addr:full": "3825 Tennyson Street", "addr:city": "Denver", "addr:state": "CO", "addr:postcode": "80212", "addr:country": "US", "name": "Denver - Tennyson and 38th", "website": "https://www.naturalgrocers.com/store/denver-tennyson-and-38th", "opening_hours": "Mo-Sa 08:30-20:36; Su 09:00-19:35", "brand": "Natural Grocers", "brand:wikidata": "Q17146520", "nsi_id": "naturalgrocers-dde59d"}, "geometry": {"type": "Point", "coordinates": [-105.044286, 39.769876]}},
{"type": "Feature", "id": "OY7Rmc4JWuOHBme6rQANvIRu_SU=", "properties": {"ref": "https://www.naturalgrocers.com/store/little-rock", "@spider": "natural_grocers", "shop": "supermarket", "addr:full": "9210 N. Rodney Parham Rd", "addr:city": "Little Rock", "addr:state": "AR", "addr:postcode": "72227", "addr:country": "US", "name": "Little Rock", "website": "https://www.naturalgrocers.com/store/little-rock", "opening_hours": "Mo-Sa 09:00-20:36; Su 09:00-19:35", "brand": "Natural Grocers", "brand:wikidata": "Q17146520", "nsi_id": "naturalgrocers-dde59d"}, "geometry": {"type": "Point", "coordinates": [-92.3778527, 34.7585961]}},
{"type": "Feature", "id": "5eNlH65JbR3TzPoeUbTO1Ja9E-E=", "properties": {"ref": "https://www.naturalgrocers.com/store/bountiful", "@spider": "natural_grocers", "shop": "supermarket", "addr:full": "55 W 500 South", "addr:city": "Bountiful", "addr:state": "UT", "addr:postcode": "84010", "addr:country": "US", "name": "Bountiful", "website": "https://www.naturalgrocers.com/store/bountiful", "opening_hours": "Mo-Sa 09:00-20:36; Su 09:00-19:35", "brand": "Natural Grocers", "brand:wikidata": "Q17146520", "nsi_id": "naturalgrocers-dde59d"}, "geometry": {"type": "Point", "coordinates": [-111.882046, 40.884332]}},
{"type": "Feature", "id": "7yFfcp6nKEts1zXmdnLZd2hysO8=", "properties": {"ref": "https://www.naturalgrocers.com/store/conifer", "@spider": "natural_grocers", "shop": "supermarket", "addr:full": "27101 Main St", "addr:city": "Conifer", "addr:state": "CO", "addr:postcode": "80433", "addr:country": "US", "name": "Conifer", "website": "https://www.naturalgrocers.com/store/conifer", "opening_hours": "Mo-Sa 09:00-20:36; Su 09:00-19:35", "brand": "Natural Grocers", "brand:wikidata": "Q17146520", "nsi_id": "naturalgrocers-dde59d"}, "geometry": {"type": "Point", "coordinates": [-105.304978, 39.529774]}},
{"type": "Feature", "id": "P3BaxhjvbSzCpl6Qgfx0ifFUh_4=", "properties": {"ref": "https://www.naturalgrocers.com/store/oklahoma-city-south", "@spider": "natural_grocers", "shop": "supermarket", "addr:full": "2120 SW 89th Street", "addr:city": "Oklahoma City", "addr:state": "OK", "addr:postcode": "73159", "addr:country": "US", "name": "Oklahoma City - South", "website": "https://www.naturalgrocers.com/store/oklahoma-city-south", "opening_hours": "Mo-Sa 09:00-20:36; Su 09:00-19:35", "brand": "Natural Grocers", "brand:wikidata": "Q17146520", "nsi_id": "naturalgrocers-dde59d"}, "geometry": {"type": "Point", "coordinates": [-97.5491648, 35.3765794]}},
{"type": "Feature", "id": "uN0ac-R6qoaBaugK5IPt6cGkAjw=", "properties": {"ref": "https://www.naturalgrocers.com/store/rochester", "@spider": "natural_grocers", "shop": "supermarket", "addr:full": "1507 Greenview Drive SW", "addr:city": "Rochester", "addr:state": "MN", "addr:postcode": "55902", "addr:country": "US", "name": "Rochester", "website": "https://www.naturalgrocers.com/store/rochester", "opening_hours": "Mo-Sa 09:00-20:36; Su 09:00-19:35", "brand": "Natural Grocers", "brand:wikidata": "Q17146520", "nsi_id": "naturalgrocers-dde59d"}, "geometry": {"type": "Point", "coordinates": [-92.4873883, 44.0031167]}},
{"type": "Feature", "id": "CueVl63mCWmbuFtOZh1BNkesVao=", "properties": {"ref": "https://www.naturalgrocers.com/store/tucson-oracle-and-orange-grove", "@spider": "natural_grocers", "shop": "supermarket", "addr:full": "6320 N. Oracle Road", "addr:city": "Tucson", "addr:state": "AZ", "addr:postcode": "85704", "addr:country": "US", "name": "Tucson - Oracle and Orange Grove", "website": "https://www.naturalgrocers.com/store/tucson-oracle-and-orange-grove", "opening_hours": "Mo-Sa 09:00-20:36; Su 09:00-19:35", "brand": "Natural Grocers", "brand:wikidata": "Q17146520", "nsi_id": "naturalgrocers-dde59d"}, "geometry": {"type": "Point", "coordinates": [-110.973311, 32.321606]}},
{"type": "Feature", "id": "zu9prg5aCknvjYFWMWUfTkdZ8lY=", "properties": {"ref": "https://www.naturalgrocers.com/store/scottsdale", "@spider": "natural_grocers", "shop": "supermarket", "addr:full": "13802 North Scottsdale Road Unit 110", "addr:city": "Scottsdale", "addr:state": "AZ", "addr:postcode": "85254", "addr:country": "US", "name": "Scottsdale", "website": "https://www.naturalgrocers.com/store/scottsdale", "opening_hours": "Mo-Sa 08:30-20:36; Su 09:00-19:35", "brand": "Natural Grocers", "brand:wikidata": "Q17146520", "nsi_id": "naturalgrocers-dde59d"}, "geometry": {"type": "Point", "coordinates": [-111.9267629, 33.6133716]}},
{"type": "Feature", "id": "Fi8V7sR8NbC79Aqrtm_LwcHnqJQ=", "properties": {"ref": "https://www.naturalgrocers.com/store/mission", "@spider": "natural_grocers", "shop": "supermarket", "addr:full": "6819 Johnson Drive", "addr:city": "Mission", "addr:state": "KS", "addr:postcode": "66202", "addr:country": "US", "name": "Mission", "website": "https://www.naturalgrocers.com/store/mission", "opening_hours": "Mo-Sa 09:00-20:36; Su 09:00-19:35", "brand": "Natural Grocers", "brand:wikidata": "Q17146520", "nsi_id": "naturalgrocers-dde59d"}, "geometry": {"type": "Point", "coordinates": [-94.6648145, 39.0219084]}},
{"type": "Feature", "id": "OmPD6h0TDoZaFLRL7j-L3Tw9Tk4=", "properties": {"ref": "https://www.naturalgrocers.com/store/edmond-boulevard-st", "@spider": "natural_grocers", "shop": "supermarket", "addr:full": "3325 South Boulevard St Suite 169", "addr:city": "Edmond", "addr:state": "OK", "addr:postcode": "73013-4808", "addr:country": "US", "name": "Edmond - Boulevard St", "website": "https://www.naturalgrocers.com/store/edmond-boulevard-st", "opening_hours": "Mo-Sa 08:30-20:36; Su 09:00-19:35", "brand": "Natural Grocers", "brand:wikidata": "Q17146520", "nsi_id": "naturalgrocers-dde59d"}, "geometry": {"type": "Point", "coordinates": [-97.4791988, 35.6219812]}},
{"type": "Feature", "id": "BAKF1FQ5oAlqZgGw8XQmtzjUNUI=", "properties": {"ref": "https://www.naturalgrocers.com/store/fargo", "@spider": "natural_grocers", "shop": "supermarket", "addr:full": "4517 13th Ave S", "addr:city": "Fargo", "addr:state": "ND", "addr:postcode": "58103", "addr:country": "US", "name": "Fargo", "website": "https://www.naturalgrocers.com/store/fargo", "opening_hours": "Mo-Sa 08:30-20:36; Su 09:00-19:35", "brand": "Natural Grocers", "brand:wikidata": "Q17146520", "nsi_id": "naturalgrocers-dde59d"}, "geometry": {"type": "Point", "coordinates": [-96.86252, 46.863901]}},
{"type": "Feature", "id": "IZdXsRWVZg_To78N1RqXOGnG1F8=", "properties": {"ref": "https://www.naturalgrocers.com/store/wheat-ridge", "@spider": "natural_grocers", "shop": "supermarket", "addr:full": "4900 Kipling Street", "addr:city": "Wheat Ridge", "addr:state": "CO", "addr:postcode": "80033", "addr:country": "US", "name": "Wheat Ridge", "website": "https://www.naturalgrocers.com/store/wheat-ridge", "opening_hours": "Mo-Sa 08:30-20:36; Su 09:00-19:35", "brand": "Natural Grocers", "brand:wikidata": "Q17146520", "nsi_id": "naturalgrocers-dde59d"}, "geometry": {"type": "Point", "coordinates": [-105.108811, 39.7860991]}},
{"type": "Feature", "id": "2MhTo_7Y7J0F0NgZWxJdLxwXM40=", "properties": {"ref": "https://www.naturalgrocers.com/store/tyler", "@spider": "natural_grocers", "shop": "supermarket", "addr:full": "4820 S. Broadway Ave.", "addr:city": "Tyler", "addr:state": "TX", "addr:postcode": "75703", "addr:country": "US", "name": "Tyler", "website": "https://www.naturalgrocers.com/store/tyler", "opening_hours": "Mo-Sa 08:30-20:36; Su 09:00-19:35", "brand": "Natural Grocers", "brand:wikidata": "Q17146520", "nsi_id": "naturalgrocers-dde59d"}, "geometry": {"type": "Point", "coordinates": [-95.2993059, 32.2966717]}},
{"type": "Feature", "id": "9vvm8Wc0cu3EMQ8P5FWCnPMtC1I=", "properties": {"ref": "https://www.naturalgrocers.com/store/fayetteville", "@spider": "natural_grocers", "shop": "supermarket", "addr:full": "4116 N College Ave", "addr:city": "Fayetteville", "addr:state": "AR", "addr:postcode": "72703", "addr:country": "US", "name": "Fayetteville", "website": "https://www.naturalgrocers.com/store/fayetteville", "opening_hours": "Mo-Sa 08:30-20:36; Su 09:00-19:35", "brand": "Natural Grocers", "brand:wikidata": "Q17146520", "nsi_id": "naturalgrocers-dde59d"}, "geometry": {"type": "Point", "coordinates": [-94.1429807, 36.1259401]}},
{"type": "Feature", "id": "kGc9EV75MVoP0fUaheV9J8jGCmQ=", "properties": {"ref": "https://www.naturalgrocers.com/store/wichita-maize", "@spider": "natural_grocers", "shop": "supermarket", "addr:full": "10520 W. 13th Street N", "addr:city": "Wichita", "addr:state": "KS", "addr:postcode": "67212", "addr:country": "US", "name": "Wichita - Maize", "website": "https://www.naturalgrocers.com/store/wichita-maize", "opening_hours": "Mo-Sa 09:00-20:36; Su 09:00-19:35", "brand": "Natural Grocers", "brand:wikidata": "Q17146520", "nsi_id": "naturalgrocers-dde59d"}, "geometry": {"type": "Point", "coordinates": [-97.4642529, 37.70891]}},
{"type": "Feature", "id": "ajezYqwbr2CXkyWOy70Ds8fHLuw=", "properties": {"ref": "https://www.naturalgrocers.com/store/tucson-broadway-and-kolb", "@spider": "natural_grocers", "shop": "supermarket", "addr:full": "7220 E. Broadway Blvd.", "addr:city": "Tucson", "addr:state": "AZ", "addr:postcode": "85710", "addr:country": "US", "name": "Tucson - Broadway and Kolb", "website": "https://www.naturalgrocers.com/store/tucson-broadway-and-kolb", "opening_hours": "Mo-Sa 08:30-20:36; Su 09:00-19:35", "brand": "Natural Grocers", "brand:wikidata": "Q17146520", "nsi_id": "naturalgrocers-dde59d"}, "geometry": {"type": "Point", "coordinates": [-110.8386141, 32.2195364]}},
{"type": "Feature", "id": "3F7DbqGRVoipShLxPAEBQ29aLwA=", "properties": {"ref": "https://www.naturalgrocers.com/store/independence", "@spider": "natural_grocers", "shop": "supermarket", "addr:full": "19019 E 48th St S", "addr:city": "Independence", "addr:state": "MO", "addr:postcode": "64055", "addr:country": "US", "name": "Independence", "website": "https://www.naturalgrocers.com/store/independence", "opening_hours": "Mo-Sa 08:30-20:36; Su 09:00-19:35", "brand": "Natural Grocers", "brand:wikidata": "Q17146520", "nsi_id": "naturalgrocers-dde59d"}, "geometry": {"type": "Point", "coordinates": [-94.3577173, 39.0305094]}},
{"type": "Feature", "id": "afCBPhbDnp6ec9MElP4kVXoPnJQ=", "properties": {"ref": "https://www.naturalgrocers.com/store/reno", "@spider": "natural_grocers", "shop": "supermarket", "addr:full": "4819 Kietzke Lane", "addr:city": "Reno", "addr:state": "NV", "addr:postcode": "89502", "addr:country": "US", "name": "Reno", "website": "https://www.naturalgrocers.com/store/reno", "opening_hours": "Mo-Sa 09:00-20:06; Su 09:00-19:35", "brand": "Natural Grocers", "brand:wikidata": "Q17146520", "nsi_id": "naturalgrocers-dde59d"}, "geometry": {"type": "Point", "coordinates": [-119.7957285, 39.480668]}},
{"type": "Feature", "id": "jXqBZt0xhjOOgn1Z3s89sJ9Pexs=", "properties": {"ref": "https://www.naturalgrocers.com/store/golden", "@spider": "natural_grocers", "shop": "supermarket", "addr:full": "2401 Ford Street", "addr:city": "Golden", "addr:state": "CO", "addr:postcode": "80401", "addr:country": "US", "name": "Golden", "website": "https://www.naturalgrocers.com/store/golden", "opening_hours": "Mo-Sa 08:30-20:36; Su 09:00-19:35", "brand": "Natural Grocers", "brand:wikidata": "Q17146520", "nsi_id": "naturalgrocers-dde59d"}, "geometry": {"type": "Point", "coordinates": [-105.209086, 39.747156]}},
{"type": "Feature", "id": "rL95tQw-gwRrI6eogSwckbS6g10=", "properties": {"ref": "https://www.naturalgrocers.com/store/eugene", "@spider": "natural_grocers", "shop": "supermarket", "addr:full": "201 Coburg Road", "addr:city": "Eugene", "addr:state": "OR", "addr:postcode": "97401", "addr:country": "US", "name": "Eugene", "website": "https://www.naturalgrocers.com/store/eugene", "opening_hours": "Mo-Sa 08:30-20:36; Su 09:00-19:35", "brand": "Natural Grocers", "brand:wikidata": "Q17146520", "nsi_id": "naturalgrocers-dde59d"}, "geometry": {"type": "Point", "coordinates": [-123.0765025, 44.0636445]}},
{"type": "Feature", "id": "75PcDozrinREcvyo9H-vy_GhkPs=", "properties": {"ref": "https://www.naturalgrocers.com/store/oklahoma-city-north-may-ave", "@spider": "natural_grocers", "shop": "supermarket", "addr:full": "7013 North May Ave.", "addr:city": "Oklahoma City", "addr:state": "OK", "addr:postcode": "73116", "addr:country": "US", "name": "Oklahoma City - North May Ave", "website": "https://www.naturalgrocers.com/store/oklahoma-city-north-may-ave", "opening_hours": "Mo-Sa 09:00-20:36; Su 09:00-19:35", "brand": "Natural Grocers", "brand:wikidata": "Q17146520", "nsi_id": "naturalgrocers-dde59d"}, "geometry": {"type": "Point", "coordinates": [-97.5664473, 35.5421788]}},
{"type": "Feature", "id": "XcAm-qHlthn9L1SKcb75moYjFPw=", "properties": {"ref": "https://www.naturalgrocers.com/store/edmond-western-ave", "@spider": "natural_grocers", "shop": "supermarket", "addr:full": "16425 North Western Ave.", "addr:city": "Edmond", "addr:state": "OK", "addr:postcode": "73013-1000", "addr:country": "US", "name": "Edmond - Western Ave", "website": "https://www.naturalgrocers.com/store/edmond-western-ave", "opening_hours": "Mo-Sa 08:30-20:36; Su 09:00-19:35", "brand": "Natural Grocers", "brand:wikidata": "Q17146520", "nsi_id": "naturalgrocers-dde59d"}, "geometry": {"type": "Point", "coordinates": [-97.5324245, 35.6379375]}},
{"type": "Feature", "id": "wXTGA90zXRBtaGXu3uk6oYjr4DQ=", "properties": {"ref": "https://www.naturalgrocers.com/store/olathe", "@spider": "natural_grocers", "shop": "supermarket", "addr:full": "14921 West 119th St", "addr:city": "Olathe", "addr:state": "KS", "addr:postcode": "66062", "addr:country": "US", "name": "Olathe", "website": "https://www.naturalgrocers.com/store/olathe", "opening_hours": "Mo-Sa 09:00-20:36; Su 09:00-19:35", "brand": "Natural Grocers", "brand:wikidata": "Q17146520", "nsi_id": "naturalgrocers-dde59d"}, "geometry": {"type": "Point", "coordinates": [-94.7586253, 38.9114723]}},
{"type": "Feature", "id": "GV3roxKKzXzbgi_AJi_X8fnZ_q4=", "properties": {"ref": "https://www.naturalgrocers.com/store/vancouver", "@spider": "natural_grocers", "shop": "supermarket", "addr:full": "7604 NE 5th Avenue Ste 100", "addr:city": "Vancouver", "addr:state": "WA", "addr:postcode": "98665", "addr:country": "US", "name": "Vancouver", "website": "https://www.naturalgrocers.com/store/vancouver", "opening_hours": "Mo-Sa 08:30-20:36; Su 09:00-19:35", "brand": "Natural Grocers", "brand:wikidata": "Q17146520", "nsi_id": "naturalgrocers-dde59d"}, "geometry": {"type": "Point", "coordinates": [-122.6681641, 45.6772562]}},
{"type": "Feature", "id": "dlkhs2MF9loNwn6FFVoExOKrbQw=", "properties": {"ref": "https://www.naturalgrocers.com/store/portland-area-clackamas", "@spider": "natural_grocers", "shop": "supermarket", "addr:full": "11424 SE 82nd Avenue", "addr:city": "Happy Valley", "addr:state": "OR", "addr:postcode": "97086", "addr:country": "US", "name": "Portland Area - Clackamas", "website": "https://www.naturalgrocers.com/store/portland-area-clackamas", "opening_hours": "Mo-Sa 08:30-20:36; Su 09:00-19:35", "brand": "Natural Grocers", "brand:wikidata": "Q17146520", "nsi_id": "naturalgrocers-dde59d"}, "geometry": {"type": "Point", "coordinates": [-122.578213, 45.441147]}},
{"type": "Feature", "id": "jjLihpJcEnu6ofQHCvwMUFSBBRc=", "properties": {"ref": "https://www.naturalgrocers.com/store/logan", "@spider": "natural_grocers", "shop": "supermarket", "addr:full": "1075 North Main St, Suite 110", "addr:city": "Logan", "addr:state": "UT", "addr:postcode": "84341", "addr:country": "US", "name": "Logan", "website": "https://www.naturalgrocers.com/store/logan", "opening_hours": "Mo-Sa 09:00-20:36; Su 09:00-19:35", "brand": "Natural Grocers", "brand:wikidata": "Q17146520", "nsi_id": "naturalgrocers-dde59d"}, "geometry": {"type": "Point", "coordinates": [-111.8363304, 41.7516046]}},
{"type": "Feature", "id": "ZE_w8H_Wtcl6M6Mw3B4PffjYWV0=", "properties": {"ref": "https://www.naturalgrocers.com/store/las-cruces", "@spider": "natural_grocers", "shop": "supermarket", "addr:full": "3970 E Lohman Ave", "addr:city": "Las Cruces", "addr:state": "NM", "addr:postcode": "88011", "addr:country": "US", "name": "Las Cruces", "website": "https://www.naturalgrocers.com/store/las-cruces", "opening_hours": "Mo-Sa 08:30-20:36; Su 09:00-19:35", "brand": "Natural Grocers", "brand:wikidata": "Q17146520", "nsi_id": "naturalgrocers-dde59d"}, "geometry": {"type": "Point", "coordinates": [-106.7327705, 32.3193394]}},
{"type": "Feature", "id": "mwcxk_S-3aGCd0w9cUVVK8Gsq4o=", "properties": {"ref": "https://www.naturalgrocers.com/store/portland-area-gresham", "@spider": "natural_grocers", "shop": "supermarket", "addr:full": "407 Northwest Burnside Road", "addr:city": "Gresham", "addr:state": "OR", "addr:postcode": "97030", "addr:country": "US", "name": "Portland Area - Gresham", "website": "https://www.naturalgrocers.com/store/portland-area-gresham", "opening_hours": "Mo-Sa 08:30-20:36; Su 09:00-19:35", "brand": "Natural Grocers", "brand:wikidata": "Q17146520", "nsi_id": "naturalgrocers-dde59d"}, "geometry": {"type": "Point", "coordinates": [-122.4347216, 45.5107069]}},
{"type": "Feature", "id": "KkpXwARA9JFRkQm01M1ZEXTXemw=", "properties": {"ref": "https://www.naturalgrocers.com/store/coeur-dalene", "@spider": "natural_grocers", "shop": "supermarket", "addr:full": "222 W Neider Ave", "addr:city": "Coeur D Alene", "addr:state": "ID", "addr:postcode": "83815", "addr:country": "US", "name": "Coeur D'Alene", "website": "https://www.naturalgrocers.com/store/coeur-dalene", "opening_hours": "Mo-Sa 09:00-20:36; Su 09:00-19:35", "brand": "Natural Grocers", "brand:wikidata": "Q17146520", "nsi_id": "naturalgrocers-dde59d"}, "geometry": {"type": "Point", "coordinates": [-116.7907905, 47.7062345]}},
{"type": "Feature", "id": "au4BhhnAAk90onfYfRoZpJ9VqRA=", "properties": {"ref": "https://www.naturalgrocers.com/store/denver-colfax-and-washington", "@spider": "natural_grocers", "shop": "supermarket", "addr:full": "1433 Washington Street", "addr:city": "Denver", "addr:state": "CO", "addr:postcode": "80203", "addr:country": "US", "name": "Denver - Colfax and Washington", "website": "https://www.naturalgrocers.com/store/denver-colfax-and-washington", "opening_hours": "Mo-Sa 08:30-20:36; Su 09:00-19:35", "brand": "Natural Grocers", "brand:wikidata": "Q17146520", "nsi_id": "naturalgrocers-dde59d"}, "geometry": {"type": "Point", "coordinates": [-104.9791364, 39.739318]}},
{"type": "Feature", "id": "4uZm_0wr3BWc3yaqC1uo3PLyDaw=", "properties": {"ref": "https://www.naturalgrocers.com/store/shawnee", "@spider": "natural_grocers", "shop": "supermarket", "addr:full": "13335 Shawnee Mission Pkwy", "addr:city": "Shawnee", "addr:state": "KS", "addr:postcode": "66216", "addr:country": "US", "name": "Shawnee", "website": "https://www.naturalgrocers.com/store/shawnee", "opening_hours": "Mo-Sa 09:00-20:36; Su 09:00-19:35", "brand": "Natural Grocers", "brand:wikidata": "Q17146520", "nsi_id": "naturalgrocers-dde59d"}, "geometry": {"type": "Point", "coordinates": [-94.7413094, 39.0138198]}},
{"type": "Feature", "id": "6CGdAtlJE_rNLKycsOsJR4WU1IM=", "properties": {"ref": "https://www.naturalgrocers.com/store/corvallis", "@spider": "natural_grocers", "shop": "supermarket", "addr:full": "1235 NW 10th Street", "addr:city": "Corvallis", "addr:state": "OR", "addr:postcode": "97330", "addr:country": "US", "name": "Corvallis", "website": "https://www.naturalgrocers.com/store/corvallis", "opening_hours": "Mo-Sa 09:00-20:36; Su 09:00-19:35", "brand": "Natural Grocers", "brand:wikidata": "Q17146520", "nsi_id": "naturalgrocers-dde59d"}, "geometry": {"type": "Point", "coordinates": [-123.261679, 44.5781]}},
{"type": "Feature", "id": "LpGhqzw2HI5ZRjVq6mJLuK9UyuU=", "properties": {"ref": "https://www.naturalgrocers.com/store/wichita-falls", "@spider": "natural_grocers", "shop": "supermarket", "addr:full": "3910 Lawrence Rd", "addr:city": "Wichita Falls", "addr:state": "TX", "addr:postcode": "76308", "addr:country": "US", "name": "Wichita Falls", "website": "https://www.naturalgrocers.com/store/wichita-falls", "opening_hours": "Mo-Sa 09:00-20:36; Su 09:00-19:35", "brand": "Natural Grocers", "brand:wikidata": "Q17146520", "nsi_id": "naturalgrocers-dde59d"}, "geometry": {"type": "Point", "coordinates": [-98.540946, 33.8726243]}},
{"type": "Feature", "id": "uG8JmdSKUykYd0RrTFiwOET7o3w=", "properties": {"ref": "https://www.naturalgrocers.com/store/idaho-falls", "@spider": "natural_grocers", "shop": "supermarket", "addr:full": "1270 E 17th Street", "addr:city": "Idaho Falls", "addr:state": "ID", "addr:postcode": "83404", "addr:country": "US", "name": "Idaho Falls", "website": "https://www.naturalgrocers.com/store/idaho-falls", "opening_hours": "Mo-Sa 09:00-20:36; Su 09:00-19:35", "brand": "Natural Grocers", "brand:wikidata": "Q17146520", "nsi_id": "naturalgrocers-dde59d"}, "geometry": {"type": "Point", "coordinates": [-112.008938, 43.4820105]}},
{"type": "Feature", "id": "Faph2p7fkaBYFOp2SkmkpeAT87k=", "properties": {"ref": "https://www.naturalgrocers.com/store/tulsa-harvard-and-31st", "@spider": "natural_grocers", "shop": "supermarket", "addr:full": "3126 S Harvard Ave", "addr:city": "Tulsa", "addr:state": "OK", "addr:postcode": "74135", "addr:country": "US", "name": "Tulsa - Harvard and 31st", "website": "https://www.naturalgrocers.com/store/tulsa-harvard-and-31st", "opening_hours": "Mo-Sa 08:30-20:36; Su 09:00-19:35", "brand": "Natural Grocers", "brand:wikidata": "Q17146520", "nsi_id": "naturalgrocers-dde59d"}, "geometry": {"type": "Point", "coordinates": [-95.940689, 36.11809]}},
{"type": "Feature", "id": "eCqHhKpXZuSpCTfyo5mk6ZqL-UU=", "properties": {"ref": "https://www.naturalgrocers.com/store/topeka", "@spider": "natural_grocers", "shop": "supermarket", "addr:full": "5836 SW 21st Street", "addr:city": "Topeka", "addr:state": "KS", "addr:postcode": "66604", "addr:country": "US", "name": "Topeka", "website": "https://www.naturalgrocers.com/store/topeka", "opening_hours": "Mo-Sa 09:00-20:36; Su 09:00-19:35", "brand": "Natural Grocers", "brand:wikidata": "Q17146520", "nsi_id": "naturalgrocers-dde59d"}, "geometry": {"type": "Point", "coordinates": [-95.7578789, 39.0296765]}},
{"type": "Feature", "id": "l25K3HOpwBb2FKrZdv-5knSZH84=", "properties": {"ref": "https://www.naturalgrocers.com/store/bend", "@spider": "natural_grocers", "shop": "supermarket", "addr:full": "3188 North Highway 97", "addr:city": "Bend", "addr:state": "OR", "addr:postcode": "97703", "addr:country": "US", "name": "Bend", "website": "https://www.naturalgrocers.com/store/bend", "opening_hours": "Mo-Sa 08:30-21:06; Su 09:00-19:35", "brand": "Natural Grocers", "brand:wikidata": "Q17146520", "nsi_id": "naturalgrocers-dde59d"}, "geometry": {"type": "Point", "coordinates": [-121.303438, 44.0816668]}},
{"type": "Feature", "id": "EdNkgaGh8l6SgJ-Y7N1R8edVwNo=", "properties": {"ref": "https://www.naturalgrocers.com/store/portland-area-beaverton", "@spider": "natural_grocers", "shop": "supermarket", "addr:full": "12155 SW Broadway St", "addr:city": "Beaverton", "addr:state": "OR", "addr:postcode": "97005", "addr:country": "US", "name": "Portland Area - Beaverton", "website": "https://www.naturalgrocers.com/store/portland-area-beaverton", "opening_hours": "Mo-Sa 08:30-20:36; Su 09:00-19:35", "brand": "Natural Grocers", "brand:wikidata": "Q17146520", "nsi_id": "naturalgrocers-dde59d"}, "geometry": {"type": "Point", "coordinates": [-122.8023107, 45.4882362]}},
{"type": "Feature", "id": "lSqDAm7hGN-Bz5J-qE2KMJI-Nv0=", "properties": {"ref": "https://www.naturalgrocers.com/store/omaha-central", "@spider": "natural_grocers", "shop": "supermarket", "addr:full": "7831 Dodge St", "addr:city": "Omaha", "addr:state": "NE", "addr:postcode": "68114", "addr:country": "US", "name": "Omaha - Central", "website": "https://www.naturalgrocers.com/store/omaha-central", "opening_hours": "Mo-Sa 08:30-20:36; Su 09:00-19:35", "brand": "Natural Grocers", "brand:wikidata": "Q17146520", "nsi_id": "naturalgrocers-dde59d"}, "geometry": {"type": "Point", "coordinates": [-96.0365093, 41.258416]}},
{"type": "Feature", "id": "lU4bNt_2lP3DTRmlY2wYFDcEb2Y=", "properties": {"ref": "https://www.naturalgrocers.com/store/salem", "@spider": "natural_grocers", "shop": "supermarket", "addr:full": "4250 Commercial St SE", "addr:city": "Salem", "addr:state": "OR", "addr:postcode": "97302", "addr:country": "US", "name": "Salem", "website": "https://www.naturalgrocers.com/store/salem", "opening_hours": "Mo-Sa 08:30-20:36; Su 09:00-19:35", "brand": "Natural Grocers", "brand:wikidata": "Q17146520", "nsi_id": "naturalgrocers-dde59d"}, "geometry": {"type": "Point", "coordinates": [-123.0346865, 44.892977]}},
{"type": "Feature", "id": "Hn3soNTR6OfRkgk_cftr8yjMH9w=", "properties": {"ref": "https://www.naturalgrocers.com/store/kalispell", "@spider": "natural_grocers", "shop": "supermarket", "addr:full": "2395 US Highway 93 North", "addr:city": "Kalispell", "addr:state": "MT", "addr:postcode": "59901", "addr:country": "US", "name": "Kalispell", "website": "https://www.naturalgrocers.com/store/kalispell", "opening_hours": "Mo-Sa 08:30-21:06; Su 09:00-19:35", "brand": "Natural Grocers", "brand:wikidata": "Q17146520", "nsi_id": "naturalgrocers-dde59d"}, "geometry": {"type": "Point", "coordinates": [-114.3265041, 48.2372204]}},
{"type": "Feature", "id": "RXe7i8iOp0vPPC7u9D_ACItIaXA=", "properties": {"ref": "https://www.naturalgrocers.com/store/medford", "@spider": "natural_grocers", "shop": "supermarket", "addr:full": "1990 North Pacific Highway", "addr:city": "Medford", "addr:state": "OR", "addr:postcode": "97501", "addr:country": "US", "name": "Medford", "website": "https://www.naturalgrocers.com/store/medford", "opening_hours": "Mo-Sa 08:30-20:36; Su 09:00-19:35", "brand": "Natural Grocers", "brand:wikidata": "Q17146520", "nsi_id": "naturalgrocers-dde59d"}, "geometry": {"type": "Point", "coordinates": [-122.883838, 42.347469]}},
{"type": "Feature", "id": "oRG-IwiXUQiU-sL_SjbQm4eiEcI=", "properties": {"ref": "https://www.naturalgrocers.com/store/lubbock", "@spider": "natural_grocers", "shop": "supermarket", "addr:full": "7208 Slide Road", "addr:city": "Lubbock", "addr:state": "TX", "addr:postcode": "79424", "addr:country": "US", "name": "Lubbock", "website": "https://www.naturalgrocers.com/store/lubbock", "opening_hours": "Mo-Sa 09:00-20:36; Su 09:00-19:35", "brand": "Natural Grocers", "brand:wikidata": "Q17146520", "nsi_id": "naturalgrocers-dde59d"}, "geometry": {"type": "Point", "coordinates": [-101.923129, 33.5278312]}},
{"type": "Feature", "id": "40bjkWQ9cIpMaealthsONx6bHFY=", "properties": {"ref": "https://www.naturalgrocers.com/store/omaha-west", "@spider": "natural_grocers", "shop": "supermarket", "addr:full": "17602 Wright St", "addr:city": "Omaha", "addr:state": "NE", "addr:postcode": "68130", "addr:country": "US", "name": "Omaha - West", "website": "https://www.naturalgrocers.com/store/omaha-west", "opening_hours": "Mo-Sa 09:00-20:36; Su 09:00-19:35", "brand": "Natural Grocers", "brand:wikidata": "Q17146520", "nsi_id": "naturalgrocers-dde59d"}, "geometry": {"type": "Point", "coordinates": [-96.190417, 41.233684]}},
{"type": "Feature", "id": "sUPShkU50Pu5AWiZeSEn75Oib00=", "properties": {"ref": "https://www.naturalgrocers.com/store/helena", "@spider": "natural_grocers", "shop": "supermarket", "addr:full": "3061 North Montana Ave.", "addr:city": "Helena", "addr:state": "MT", "addr:postcode": "59601", "addr:country": "US", "name": "Helena", "website": "https://www.naturalgrocers.com/store/helena", "opening_hours": "Mo-Sa 08:30-20:36; Su 09:00-19:35", "brand": "Natural Grocers", "brand:wikidata": "Q17146520", "nsi_id": "naturalgrocers-dde59d"}, "geometry": {"type": "Point", "coordinates": [-112.0203988, 46.6140999]}},
{"type": "Feature", "id": "5n4E19YimFo2L8mYq6BBYj4NSBA=", "properties": {"ref": "https://www.naturalgrocers.com/store/denton", "@spider": "natural_grocers", "shop": "supermarket", "addr:full": "110 West University Dr", "addr:city": "Denton", "addr:state": "TX", "addr:postcode": "76201", "addr:country": "US", "name": "Denton", "website": "https://www.naturalgrocers.com/store/denton", "opening_hours": "Mo-Sa 08:30-20:36; Su 09:00-19:35", "brand": "Natural Grocers", "brand:wikidata": "Q17146520", "nsi_id": "naturalgrocers-dde59d"}, "geometry": {"type": "Point", "coordinates": [-97.1324884, 33.2316395]}},
{"type": "Feature", "id": "luzbeOkpbrTXgmvCungeNGRHmMc=", "properties": {"ref": "https://www.naturalgrocers.com/store/missoula", "@spider": "natural_grocers", "shop": "supermarket", "addr:full": "2530 South 3rd Street West", "addr:city": "Missoula", "addr:state": "MT", "addr:postcode": "59804", "addr:country": "US", "name": "Missoula", "website": "https://www.naturalgrocers.com/store/missoula", "opening_hours": "Mo-Sa 08:30-20:36; Su 09:00-19:35", "brand": "Natural Grocers", "brand:wikidata": "Q17146520", "nsi_id": "naturalgrocers-dde59d"}, "geometry": {"type": "Point", "coordinates": [-114.0402272, 46.8679717]}},
{"type": "Feature", "id": "IgDZpR8Mgoz1YxY2WVoCub_bXe4=", "properties": {"ref": "https://www.naturalgrocers.com/store/sedona", "@spider": "natural_grocers", "shop": "supermarket", "addr:full": "1915 West State Route 89A", "addr:city": "Sedona", "addr:state": "AZ", "addr:postcode": "86336", "addr:country": "US", "name": "Sedona", "website": "https://www.naturalgrocers.com/store/sedona", "opening_hours": "Mo-Sa 08:30-20:36; Su 09:00-19:35", "brand": "Natural Grocers", "brand:wikidata": "Q17146520", "nsi_id": "naturalgrocers-dde59d"}, "geometry": {"type": "Point", "coordinates": [-111.7937916, 34.863438]}},
{"type": "Feature", "id": "9cKW6tENzqcFAaIQwERXH7EoMjA=", "properties": {"ref": "https://www.naturalgrocers.com/store/steamboat-springs", "@spider": "natural_grocers", "shop": "supermarket", "addr:full": "335 Lincoln Ave", "addr:city": "Steamboat Springs", "addr:state": "CO", "addr:postcode": "80487", "addr:country": "US", "name": "Steamboat Springs", "website": "https://www.naturalgrocers.com/store/steamboat-springs", "opening_hours": "Mo-Sa 08:30-20:06; Su 09:00-19:35", "brand": "Natural Grocers", "brand:wikidata": "Q17146520", "nsi_id": "naturalgrocers-dde59d"}, "geometry": {"type": "Point", "coordinates": [-106.8299599, 40.482962]}},
{"type": "Feature", "id": "pE4aJ4qkmOyklMka6Fl-uWcLncg=", "properties": {"ref": "https://www.naturalgrocers.com/store/prescott", "@spider": "natural_grocers", "shop": "supermarket", "addr:full": "1470 Gail Gardner Way", "addr:city": "Prescott", "addr:state": "AZ", "addr:postcode": "86305", "addr:country": "US", "name": "Prescott", "website": "https://www.naturalgrocers.com/store/prescott", "opening_hours": "Mo-Sa 08:30-20:36; Su 09:00-19:35", "brand": "Natural Grocers", "brand:wikidata": "Q17146520", "nsi_id": "naturalgrocers-dde59d"}, "geometry": {"type": "Point", "coordinates": [-112.4833011, 34.5688169]}},
{"type": "Feature", "id": "Z6qk9imLWc3czluBccNj3laPuyI=", "properties": {"ref": "https://www.naturalgrocers.com/store/billings", "@spider": "natural_grocers", "shop": "supermarket", "addr:full": "304 S 24th Street W", "addr:city": "Billings", "addr:state": "MT", "addr:postcode": "59102", "addr:country": "US", "name": "Billings", "website": "https://www.naturalgrocers.com/store/billings", "opening_hours": "Mo-Sa 09:00-20:36; Su 09:00-19:35", "brand": "Natural Grocers", "brand:wikidata": "Q17146520", "nsi_id": "naturalgrocers-dde59d"}, "geometry": {"type": "Point", "coordinates": [-108.5771051, 45.7666065]}},
{"type": "Feature", "id": "hALuumzxTnAnoUpZSH-N-ypHH4I=", "properties": {"ref": "https://www.naturalgrocers.com/store/overland-park", "@spider": "natural_grocers", "shop": "supermarket", "addr:full": "9108 Metcalf Ave.", "addr:city": "Overland Park", "addr:state": "KS", "addr:postcode": "66212", "addr:country": "US", "name": "Overland Park", "website": "https://www.naturalgrocers.com/store/overland-park", "opening_hours": "Mo-Sa 08:30-20:36; Su 09:00-19:35", "brand": "Natural Grocers", "brand:wikidata": "Q17146520", "nsi_id": "naturalgrocers-dde59d"}, "geometry": {"type": "Point", "coordinates": [-94.6692993, 38.9624544]}},
{"type": "Feature", "id": "zTbodLPd2r_nXxBLyxsLDDvHBcs=", "properties": {"ref": "https://www.naturalgrocers.com/store/lincoln", "@spider": "natural_grocers", "shop": "supermarket", "addr:full": "212 N 48 Street", "addr:city": "Lincoln", "addr:state": "NE", "addr:postcode": "68504", "addr:country": "US", "name": "Lincoln", "website": "https://www.naturalgrocers.com/store/lincoln", "opening_hours": "Mo-Sa 08:30-20:36; Su 09:00-19:35", "brand": "Natural Grocers", "brand:wikidata": "Q17146520", "nsi_id": "naturalgrocers-dde59d"}, "geometry": {"type": "Point", "coordinates": [-96.6532051, 40.8146229]}},
{"type": "Feature", "id": "TH8Pc3JQo-mWrejuRu9UoB0-YnY=", "properties": {"ref": "https://www.naturalgrocers.com/store/boise", "@spider": "natural_grocers", "shop": "supermarket", "addr:full": "1195 N. Milwaukee St.", "addr:city": "Boise", "addr:state": "ID", "addr:postcode": "83704", "addr:country": "US", "name": "Boise", "website": "https://www.naturalgrocers.com/store/boise", "opening_hours": "Mo-Sa 09:00-20:36; Su 09:00-19:35", "brand": "Natural Grocers", "brand:wikidata": "Q17146520", "nsi_id": "naturalgrocers-dde59d"}, "geometry": {"type": "Point", "coordinates": [-116.2856205, 43.6152314]}},
{"type": "Feature", "id": "5MPtCZQCqSHCIbrCyALCXeocP_U=", "properties": {"ref": "https://www.naturalgrocers.com/store/flagstaff", "@spider": "natural_grocers", "shop": "supermarket", "addr:full": "503 West Clay Avenue", "addr:city": "Flagstaff", "addr:state": "AZ", "addr:postcode": "86001", "addr:country": "US", "name": "Flagstaff", "website": "https://www.naturalgrocers.com/store/flagstaff", "opening_hours": "Mo-Sa 08:30-20:36; Su 09:00-19:35", "brand": "Natural Grocers", "brand:wikidata": "Q17146520", "nsi_id": "naturalgrocers-dde59d"}, "geometry": {"type": "Point", "coordinates": [-111.656481, 35.195771]}},
{"type": "Feature", "id": "bYLfLVTZSbWxzx6OM0zVeByD4DU=", "properties": {"ref": "https://www.naturalgrocers.com/store/wichita", "@spider": "natural_grocers", "shop": "supermarket", "addr:full": "1715 N. Rock Rd", "addr:city": "Wichita", "addr:state": "KS", "addr:postcode": "67206", "addr:country": "US", "name": "Wichita", "website": "https://www.naturalgrocers.com/store/wichita", "opening_hours": "Mo-Sa 09:00-20:36; Su 09:00-19:35", "brand": "Natural Grocers", "brand:wikidata": "Q17146520", "nsi_id": "naturalgrocers-dde59d"}, "geometry": {"type": "Point", "coordinates": [-97.2459956, 37.7144354]}},
{"type": "Feature", "id": "UuEPj984ewyeZWQujtlnLh075SM=", "properties": {"ref": "https://www.naturalgrocers.com/store/lawrence", "@spider": "natural_grocers", "shop": "supermarket", "addr:full": "1301 W 23rd St", "addr:city": "Lawrence", "addr:state": "KS", "addr:postcode": "66046", "addr:country": "US", "name": "Lawrence", "website": "https://www.naturalgrocers.com/store/lawrence", "opening_hours": "Mo-Sa 09:00-20:36; Su 09:00-19:35", "brand": "Natural Grocers", "brand:wikidata": "Q17146520", "nsi_id": "naturalgrocers-dde59d"}, "geometry": {"type": "Point", "coordinates": [-95.250754, 38.9422561]}},
{"type": "Feature", "id": "pbC47QbKr8x1ovYMGdo1pgVIFjs=", "properties": {"ref": "https://www.naturalgrocers.com/store/columbia", "@spider": "natural_grocers", "shop": "supermarket", "addr:full": "1909 Bernadette Drive", "addr:city": "Columbia", "addr:state": "MO", "addr:postcode": "65203", "addr:country": "US", "name": "Columbia", "website": "https://www.naturalgrocers.com/store/columbia", "opening_hours": "Mo-Sa 08:30-20:36; Su 09:00-19:35", "brand": "Natural Grocers", "brand:wikidata": "Q17146520", "nsi_id": "naturalgrocers-dde59d"}, "geometry": {"type": "Point", "coordinates": [-92.3706418, 38.9603448]}},
{"type": "Feature", "id": "ZoE7dI1wc92hHJAIgvrFPd3RIN8=", "properties": {"ref": "https://www.naturalgrocers.com/store/temple", "@spider": "natural_grocers", "shop": "supermarket", "addr:full": "3621 S. General Bruce Dr", "addr:city": "Temple", "addr:state": "TX", "addr:postcode": "76504", "addr:country": "US", "name": "Temple", "website": "https://www.naturalgrocers.com/store/temple", "opening_hours": "Mo-Sa 08:30-20:36; Su 09:00-19:35", "brand": "Natural Grocers", "brand:wikidata": "Q17146520", "nsi_id": "naturalgrocers-dde59d"}, "geometry": {"type": "Point", "coordinates": [-97.3841573, 31.0902951]}},
{"type": "Feature", "id": "cpaIgmSpk4tG53xiFwNWTe2vNXo=", "properties": {"ref": "https://www.naturalgrocers.com/store/norman", "@spider": "natural_grocers", "shop": "supermarket", "addr:full": "1918 West Main St", "addr:city": "Norman", "addr:state": "OK", "addr:postcode": "73069", "addr:country": "US", "name": "Norman", "website": "https://www.naturalgrocers.com/store/norman", "opening_hours": "Mo-Sa 08:30-20:36; Su 09:00-19:35", "brand": "Natural Grocers", "brand:wikidata": "Q17146520", "nsi_id": "naturalgrocers-dde59d"}, "geometry": {"type": "Point", "coordinates": [-97.4700017, 35.2177467]}},
{"type": "Feature", "id": "17qRmXdA5rJwQSpDrrfxUGRVinY=", "properties": {"ref": "https://www.naturalgrocers.com/store/casper", "@spider": "natural_grocers", "shop": "supermarket", "addr:full": "3650 East 2nd St", "addr:city": "Casper", "addr:state": "WY", "addr:postcode": "82609", "addr:country": "US", "name": "Casper", "website": "https://www.naturalgrocers.com/store/casper", "opening_hours": "Mo-Sa 08:30-20:36; Su 09:00-19:35", "brand": "Natural Grocers", "brand:wikidata": "Q17146520", "nsi_id": "naturalgrocers-dde59d"}, "geometry": {"type": "Point", "coordinates": [-106.27828, 42.849459]}},
{"type": "Feature", "id": "lN3NLJM8QReiaQCnZkHQMYhLNoU=", "properties": {"ref": "https://www.naturalgrocers.com/store/abilene", "@spider": "natural_grocers", "shop": "supermarket", "addr:full": "3350 South Clack St", "addr:city": "Abilene", "addr:state": "TX", "addr:postcode": "79606", "addr:country": "US", "name": "Abilene", "website": "https://www.naturalgrocers.com/store/abilene", "opening_hours": "Mo-Sa 09:00-20:36; Su 09:00-19:35", "brand": "Natural Grocers", "brand:wikidata": "Q17146520", "nsi_id": "naturalgrocers-dde59d"}, "geometry": {"type": "Point", "coordinates": [-99.772856, 32.410136]}},
{"type": "Feature", "id": "TqGACY8AKmuR9yhPJw7fbiMUj5k=", "properties": {"ref": "https://www.naturalgrocers.com/store/dallas-casa-linda", "@spider": "natural_grocers", "shop": "supermarket", "addr:full": "9440 Garland Rd- Casa Linda Plaza", "addr:city": "Dallas", "addr:state": "TX", "addr:postcode": "75218", "addr:country": "US", "name": "Dallas - Casa Linda", "website": "https://www.naturalgrocers.com/store/dallas-casa-linda", "opening_hours": "Mo-Sa 08:30-20:36; Su 09:00-19:35", "brand": "Natural Grocers", "brand:wikidata": "Q17146520", "nsi_id": "naturalgrocers-dde59d"}, "geometry": {"type": "Point", "coordinates": [-96.701084, 32.832028]}},
{"type": "Feature", "id": "hG3UrkzgWnFv0VSjecMArULwnB8=", "properties": {"ref": "https://www.naturalgrocers.com/store/midland", "@spider": "natural_grocers", "shop": "supermarket", "addr:full": "3001 Loop 250 Frontage Road", "addr:city": "Midland", "addr:state": "TX", "addr:postcode": "79705", "addr:country": "US", "name": "Midland", "website": "https://www.naturalgrocers.com/store/midland", "opening_hours": "Mo-Sa 08:30-20:36; Su 09:00-19:35", "brand": "Natural Grocers", "brand:wikidata": "Q17146520", "nsi_id": "naturalgrocers-dde59d"}, "geometry": {"type": "Point", "coordinates": [-102.12367, 32.033789]}},
{"type": "Feature", "id": "m8fR4POY1Hiu0p5ymIiXPjMicsY=", "properties": {"ref": "https://www.naturalgrocers.com/store/austin-area-cedar-park", "@spider": "natural_grocers", "shop": "supermarket", "addr:full": "1335 E Whitestone Blvd Bldg G-17", "addr:city": "Cedar Park", "addr:state": "TX", "addr:postcode": "78613", "addr:country": "US", "name": "Austin Area - Cedar Park", "website": "https://www.naturalgrocers.com/store/austin-area-cedar-park", "opening_hours": "Mo-Sa 08:30-20:36; Su 09:00-19:35", "brand": "Natural Grocers", "brand:wikidata": "Q17146520", "nsi_id": "naturalgrocers-dde59d"}, "geometry": {"type": "Point", "coordinates": [-97.8141884, 30.5272466]}},
{"type": "Feature", "id": "tbOn6uMpxeeSXriCNZpYBw4kgXI=", "properties": {"ref": "https://www.naturalgrocers.com/store/farmington", "@spider": "natural_grocers", "shop": "supermarket", "addr:full": "700 E. 20th St.", "addr:city": "Farmington", "addr:state": "NM", "addr:postcode": "87401", "addr:country": "US", "name": "Farmington", "website": "https://www.naturalgrocers.com/store/farmington", "opening_hours": "Mo-Sa 09:00-20:36; Su 09:00-19:35", "brand": "Natural Grocers", "brand:wikidata": "Q17146520", "nsi_id": "naturalgrocers-dde59d"}, "geometry": {"type": "Point", "coordinates": [-108.1971165, 36.7488147]}},
{"type": "Feature", "id": "KVWHVZe_CysSoDvXn7Xh2kNYnIo=", "properties": {"ref": "https://www.naturalgrocers.com/store/austin-arbor-walk", "@spider": "natural_grocers", "shop": "supermarket", "addr:full": "10515 N. Mopac Expressway, Bldg. L", "addr:city": "Austin", "addr:state": "TX", "addr:postcode": "78759", "addr:country": "US", "name": "Austin - Arbor Walk", "website": "https://www.naturalgrocers.com/store/austin-arbor-walk", "opening_hours": "Mo-Sa 09:00-20:36; Su 09:00-19:35", "brand": "Natural Grocers", "brand:wikidata": "Q17146520", "nsi_id": "naturalgrocers-dde59d"}, "geometry": {"type": "Point", "coordinates": [-97.7326299, 30.3900731]}},
{"type": "Feature", "id": "f0_-sMrnv6OOa5rfy5RsXpW_hCY=", "properties": {"ref": "https://www.naturalgrocers.com/store/centennial-cherry-knolls", "@spider": "natural_grocers", "shop": "supermarket", "addr:full": "6774 S. University Blvd.", "addr:city": "Centennial", "addr:state": "CO", "addr:postcode": "80122", "addr:country": "US", "name": "Centennial - Cherry Knolls", "website": "https://www.naturalgrocers.com/store/centennial-cherry-knolls", "opening_hours": "Mo-Sa 09:00-20:36; Su 09:00-19:35", "brand": "Natural Grocers", "brand:wikidata": "Q17146520", "nsi_id": "naturalgrocers-dde59d"}, "geometry": {"type": "Point", "coordinates": [-104.9588636, 39.5938856]}},
{"type": "Feature", "id": "V-THMK08iKybgWYCMdehdAfzrD8=", "properties": {"ref": "https://www.naturalgrocers.com/store/dallas-preston-and-forest", "@spider": "natural_grocers", "shop": "supermarket", "addr:full": "11661 Preston Rd", "addr:city": "Dallas", "addr:state": "TX", "addr:postcode": "75230", "addr:country": "US", "name": "Dallas - Preston and Forest", "website": "https://www.naturalgrocers.com/store/dallas-preston-and-forest", "opening_hours": "Mo-Sa 08:30-20:36; Su 09:00-19:35", "brand": "Natural Grocers", "brand:wikidata": "Q17146520", "nsi_id": "naturalgrocers-dde59d"}, "geometry": {"type": "Point", "coordinates": [-96.805437, 32.908123]}},
{"type": "Feature", "id": "z0tTAIkhec1aZKOv9ZBUZdTIZf4=", "properties": {"ref": "https://www.naturalgrocers.com/store/cheyenne", "@spider": "natural_grocers", "shop": "supermarket", "addr:full": "1851 Dell Range Blvd", "addr:city": "Cheyenne", "addr:state": "WY", "addr:postcode": "82009", "addr:country": "US", "name": "Cheyenne", "website": "https://www.naturalgrocers.com/store/cheyenne", "opening_hours": "Mo-Sa 08:30-20:36; Su 09:00-19:35", "brand": "Natural Grocers", "brand:wikidata": "Q17146520", "nsi_id": "naturalgrocers-dde59d"}, "geometry": {"type": "Point", "coordinates": [-104.79523, 41.15959]}},
{"type": "Feature", "id": "NnB6Xtl5TgL8MAG2O0-ZZsxgh7g=", "properties": {"ref": "https://www.naturalgrocers.com/store/glenwood-springs", "@spider": "natural_grocers", "shop": "supermarket", "addr:full": "127 E. Meadows Drive", "addr:city": "Glenwood Springs", "addr:state": "CO", "addr:postcode": "81601", "addr:country": "US", "name": "Glenwood Springs", "website": "https://www.naturalgrocers.com/store/glenwood-springs", "opening_hours": "Mo-Sa 08:30-21:06; Su 09:00-19:35", "brand": "Natural Grocers", "brand:wikidata": "Q17146520", "nsi_id": "naturalgrocers-dde59d"}, "geometry": {"type": "Point", "coordinates": [-107.343906, 39.5562252]}},
{"type": "Feature", "id": "GJTeHHF5JtKc-OP9N3PPw8uxMe8=", "properties": {"ref": "https://www.naturalgrocers.com/store/monument", "@spider": "natural_grocers", "shop": "supermarket", "addr:full": "1216 W Baptist Road", "addr:city": "Monument", "addr:state": "CO", "addr:postcode": "80132", "addr:country": "US", "name": "Monument", "website": "https://www.naturalgrocers.com/store/monument", "opening_hours": "Mo-Sa 09:00-20:36; Su 09:00-19:35", "brand": "Natural Grocers", "brand:wikidata": "Q17146520", "nsi_id": "naturalgrocers-dde59d"}, "geometry": {"type": "Point", "coordinates": [-104.848096, 39.057679]}},
{"type": "Feature", "id": "Ye00Cfgm_ykYayHG3yoD-1CNEaM=", "properties": {"ref": "https://www.naturalgrocers.com/store/lafayette", "@spider": "natural_grocers", "shop": "supermarket", "addr:full": "100 W South Boulder Road", "addr:city": "Lafayette", "addr:state": "CO", "addr:postcode": "80026", "addr:country": "US", "name": "Lafayette", "website": "https://www.naturalgrocers.com/store/lafayette", "opening_hours": "Mo-Sa 08:00-21:06; Su 09:00-19:35", "brand": "Natural Grocers", "brand:wikidata": "Q17146520", "nsi_id": "naturalgrocers-dde59d"}, "geometry": {"type": "Point", "coordinates": [-105.091314, 39.98663]}},
{"type": "Feature", "id": "cnNu45bUYQTV2Myrvg8RwpnDFYI=", "properties": {"ref": "https://www.naturalgrocers.com/store/santa-fe", "@spider": "natural_grocers", "shop": "supermarket", "addr:full": "1090 S. St. Francis Dr.", "addr:city": "Santa Fe", "addr:state": "NM", "addr:postcode": "87505", "addr:country": "US", "name": "Santa Fe", "website": "https://www.naturalgrocers.com/store/santa-fe", "opening_hours": "Mo-Sa 08:30-20:36; Su 09:00-19:35", "brand": "Natural Grocers", "brand:wikidata": "Q17146520", "nsi_id": "naturalgrocers-dde59d"}, "geometry": {"type": "Point", "coordinates": [-105.954258, 35.675088]}},
{"type": "Feature", "id": "YCRrHqoFkzy2paizOdA552Bu6eY=", "properties": {"ref": "https://www.naturalgrocers.com/store/albuquerque-wyoming-blvd-ne", "@spider": "natural_grocers", "shop": "supermarket", "addr:full": "4420 Wyoming NE", "addr:city": "Albuquerque", "addr:state": "NM", "addr:postcode": "87111", "addr:country": "US", "name": "Albuquerque - Wyoming Blvd NE", "website": "https://www.naturalgrocers.com/store/albuquerque-wyoming-blvd-ne", "opening_hours": "Mo-Sa 08:30-21:06; Su 09:00-19:35", "brand": "Natural Grocers", "brand:wikidata": "Q17146520", "nsi_id": "naturalgrocers-dde59d"}, "geometry": {"type": "Point", "coordinates": [-106.550925, 35.130098]}},
{"type": "Feature", "id": "RX1H9an17xGyVc43wV0bknh0UWE=", "properties": {"ref": "https://www.naturalgrocers.com/store/grand-junction", "@spider": "natural_grocers", "shop": "supermarket", "addr:full": "2464 US Hwy 6 & 50", "addr:city": "Grand Junction", "addr:state": "CO", "addr:postcode": "81505", "addr:country": "US", "name": "Grand Junction", "website": "https://www.naturalgrocers.com/store/grand-junction", "opening_hours": "Mo-Sa 08:30-21:06; Su 09:00-19:35", "brand": "Natural Grocers", "brand:wikidata": "Q17146520", "nsi_id": "naturalgrocers-dde59d"}, "geometry": {"type": "Point", "coordinates": [-108.592677, 39.087264]}},
{"type": "Feature", "id": "eeais2Yz5o63liuWI6onk57imsM=", "properties": {"ref": "https://www.naturalgrocers.com/store/pueblo", "@spider": "natural_grocers", "shop": "supermarket", "addr:full": "101 W. 29th Street", "addr:city": "Pueblo", "addr:state": "CO", "addr:postcode": "81008", "addr:country": "US", "name": "Pueblo", "website": "https://www.naturalgrocers.com/store/pueblo", "opening_hours": "Mo-Sa 08:30-21:06; Su 09:00-19:35", "brand": "Natural Grocers", "brand:wikidata": "Q17146520", "nsi_id": "naturalgrocers-dde59d"}, "geometry": {"type": "Point", "coordinates": [-104.607329, 38.298785]}},
{"type": "Feature", "id": "zQOSmJd8d21P-cKOfp5rQBJhHOQ=", "properties": {"ref": "https://www.naturalgrocers.com/store/longmont", "@spider": "natural_grocers", "shop": "supermarket", "addr:full": "1745 North Main St", "addr:city": "Longmont", "addr:state": "CO", "addr:postcode": "80501", "addr:country": "US", "name": "Longmont", "website": "https://www.naturalgrocers.com/store/longmont", "opening_hours": "Mo-Sa 08:00-21:06; Su 09:00-19:35", "brand": "Natural Grocers", "brand:wikidata": "Q17146520", "nsi_id": "naturalgrocers-dde59d"}, "geometry": {"type": "Point", "coordinates": [-105.1039668, 40.1903257]}},
{"type": "Feature", "id": "93YINjJ3Qa2q4SRQRRnYV3HgrZ4=", "properties": {"ref": "https://www.naturalgrocers.com/store/highlands-ranch", "@spider": "natural_grocers", "shop": "supermarket", "addr:full": "1265 Sgt. John Stiles Drive, Suite M", "addr:city": "Littleton", "addr:state": "CO", "addr:postcode": "80129", "addr:country": "US", "name": "Highlands Ranch", "website": "https://www.naturalgrocers.com/store/highlands-ranch", "opening_hours": "Mo-Sa 08:30-20:36; Su 09:00-19:35", "brand": "Natural Grocers", "brand:wikidata": "Q17146520", "nsi_id": "naturalgrocers-dde59d"}, "geometry": {"type": "Point", "coordinates": [-105.00314, 39.550648]}},
{"type": "Feature", "id": "7S6OFHgicbiD3XCQGhwgAFnmNeg=", "properties": {"ref": "https://www.naturalgrocers.com/store/evergreen", "@spider": "natural_grocers", "shop": "supermarket", "addr:full": "1291 Bergen Pkwy.", "addr:city": "Evergreen", "addr:state": "CO", "addr:postcode": "80439", "addr:country": "US", "name": "Evergreen", "website": "https://www.naturalgrocers.com/store/evergreen", "opening_hours": "Mo-Sa 08:30-20:36; Su 09:00-19:35", "brand": "Natural Grocers", "brand:wikidata": "Q17146520", "nsi_id": "naturalgrocers-dde59d"}, "geometry": {"type": "Point", "coordinates": [-105.360785, 39.692365]}},
{"type": "Feature", "id": "pp_rg-4-_wGqtsDvJaNpZWBKk3U=", "properties": {"ref": "https://www.naturalgrocers.com/store/fort-collins", "@spider": "natural_grocers", "shop": "supermarket", "addr:full": "4318 S. College Ave.", "addr:city": "Fort Collins", "addr:state": "CO", "addr:postcode": "80525", "addr:country": "US", "name": "Fort Collins", "website": "https://www.naturalgrocers.com/store/fort-collins", "opening_hours": "Mo-Sa 08:00-21:06; Su 09:00-19:35", "brand": "Natural Grocers", "brand:wikidata": "Q17146520", "nsi_id": "naturalgrocers-dde59d"}, "geometry": {"type": "Point", "coordinates": [-105.075, 40.528459]}},
{"type": "Feature", "id": "HlvdJ-BeH7ibYGx4C7RSFEke93c=", "properties": {"ref": "https://www.naturalgrocers.com/store/boulder", "@spider": "natural_grocers", "shop": "supermarket", "addr:full": "2685 Pearl Street", "addr:city": "Boulder", "addr:state": "CO", "addr:postcode": "80302", "addr:country": "US", "name": "Boulder", "website": "https://www.naturalgrocers.com/store/boulder", "opening_hours": "Mo-Sa 08:00-21:06; Su 09:00-19:35", "brand": "Natural Grocers", "brand:wikidata": "Q17146520", "nsi_id": "naturalgrocers-dde59d"}, "geometry": {"type": "Point", "coordinates": [-105.260111, 40.022574]}},
{"type": "Feature", "id": "MZ7xdiZzftW9Z3AbCrWoDrQanBc=", "properties": {"ref": "https://www.naturalgrocers.com/store/lakewood-green-mountain", "@spider": "natural_grocers", "shop": "supermarket", "addr:full": "12612 W Alameda Parkway", "addr:city": "Lakewood", "addr:state": "CO", "addr:postcode": "80228", "addr:country": "US", "name": "Lakewood - Green Mountain", "website": "https://www.naturalgrocers.com/store/lakewood-green-mountain", "opening_hours": "Mo-Sa 08:30-20:36; Su 09:00-19:35", "brand": "Natural Grocers", "brand:wikidata": "Q17146520", "nsi_id": "naturalgrocers-dde59d"}, "geometry": {"type": "Point", "coordinates": [-105.138139, 39.7023012]}},
{"type": "Feature", "id": "4Rwfm6IVQX6-vAi9WQoXnXGmd0M=", "properties": {"ref": "https://www.naturalgrocers.com/store/denver-colorado-and-evans", "@spider": "natural_grocers", "shop": "supermarket", "addr:full": "2053 S.Colorado Blvd.", "addr:city": "Denver", "addr:state": "CO", "addr:postcode": "80222", "addr:country": "US", "name": "Denver - Colorado And Evans", "website": "https://www.naturalgrocers.com/store/denver-colorado-and-evans", "opening_hours": "Mo-Sa 08:30-20:36; Su 09:00-19:35", "brand": "Natural Grocers", "brand:wikidata": "Q17146520", "nsi_id": "naturalgrocers-dde59d"}, "geometry": {"type": "Point", "coordinates": [-104.940807, 39.679324]}},
{"type": "Feature", "id": "V3vBq88PbJxDqov5HuxiAzV1sOQ=", "properties": {"ref": "https://www.naturalgrocers.com/store/littleton-kipling-and-coal-mine", "@spider": "natural_grocers", "shop": "supermarket", "addr:full": "6475 S Kipling Parkway", "addr:city": "Littleton", "addr:state": "CO", "addr:postcode": "80123", "addr:country": "US", "name": "Littleton - Kipling And Coal Mine", "website": "https://www.naturalgrocers.com/store/littleton-kipling-and-coal-mine", "opening_hours": "Mo-Sa 08:30-20:36; Su 09:00-19:35", "brand": "Natural Grocers", "brand:wikidata": "Q17146520", "nsi_id": "naturalgrocers-dde59d"}, "geometry": {"type": "Point", "coordinates": [-105.1093205, 39.5987103]}},
{"type": "Feature", "id": "n03HBZYCEgt5honb38wiqw9GkNU=", "properties": {"ref": "https://www.naturalgrocers.com/store/colorado-springs-north-academy", "@spider": "natural_grocers", "shop": "supermarket", "addr:full": "7298 North Academy Blvd", "addr:city": "Colorado Springs", "addr:state": "CO", "addr:postcode": "80920", "addr:country": "US", "name": "Colorado Springs - North Academy", "website": "https://www.naturalgrocers.com/store/colorado-springs-north-academy", "opening_hours": "Mo-Sa 08:30-20:36; Su 09:00-19:35", "brand": "Natural Grocers", "brand:wikidata": "Q17146520", "nsi_id": "naturalgrocers-dde59d"}, "geometry": {"type": "Point", "coordinates": [-104.7994092, 38.9384826]}},
{"type": "Feature", "id": "GXXFLXiEGQO2DfXdXTr1ZXzKxaE=", "properties": {"ref": "https://www.naturalgrocers.com/store/aurora-south", "@spider": "natural_grocers", "shop": "supermarket", "addr:full": "3440 South Tower Road", "addr:city": "Aurora", "addr:state": "CO", "addr:postcode": "80013", "addr:country": "US", "name": "Aurora - South", "website": "https://www.naturalgrocers.com/store/aurora-south", "opening_hours": "Mo-Sa 08:30-20:36; Su 09:00-19:35", "brand": "Natural Grocers", "brand:wikidata": "Q17146520", "nsi_id": "naturalgrocers-dde59d"}, "geometry": {"type": "Point", "coordinates": [-104.7720804, 39.6539817]}},
{"type": "Feature", "id": "7X3whX_zkHYHvbe-swCymAnKPZ8=", "properties": {"ref": "https://www.naturalgrocers.com/store/arvada-north-wadsworth", "@spider": "natural_grocers", "shop": "supermarket", "addr:full": "7745 N. Wadsworth Blvd", "addr:city": "Arvada", "addr:state": "CO", "addr:postcode": "80003", "addr:country": "US", "name": "Arvada - North Wadsworth", "website": "https://www.naturalgrocers.com/store/arvada-north-wadsworth", "opening_hours": "Mo-Sa 08:30-20:36; Su 09:00-19:35", "brand": "Natural Grocers", "brand:wikidata": "Q17146520", "nsi_id": "naturalgrocers-dde59d"}, "geometry": {"type": "Point", "coordinates": [-105.0830505, 39.837959]}},
{"type": "Feature", "id": "WfEfXgIhDUYmYR5Oph3DHGCTl2s=", "properties": {"ref": "https://www.naturalgrocers.com/store/englewood-tech-center", "@spider": "natural_grocers", "shop": "supermarket", "addr:full": "11753 E Arapahoe ", "addr:city": "Centennial", "addr:state": "CO", "addr:postcode": "80112", "addr:country": "US", "name": "Centennial \u2013 Arapahoe Road", "website": "https://www.naturalgrocers.com/store/englewood-tech-center", "opening_hours": "Mo-Sa 08:30-20:36; Su 09:00-19:35", "brand": "Natural Grocers", "brand:wikidata": "Q17146520", "nsi_id": "naturalgrocers-dde59d"}, "geometry": {"type": "Point", "coordinates": [-104.852885, 39.5954671]}},
{"type": "Feature", "id": "-A_6g4fmLoG4Z9ZA8lKeEIKiHBg=", "properties": {"ref": "https://www.naturalgrocers.com/store/lakewood-west-colfax", "@spider": "natural_grocers", "shop": "supermarket", "addr:full": "9030 W. Colfax Ave", "addr:city": "Lakewood", "addr:state": "CO", "addr:postcode": "80215", "addr:country": "US", "name": "Lakewood - West Colfax", "website": "https://www.naturalgrocers.com/store/lakewood-west-colfax", "opening_hours": "Mo-Sa 09:00-20:36; Su 09:00-19:35", "brand": "Natural Grocers", "brand:wikidata": "Q17146520", "nsi_id": "naturalgrocers-dde59d"}, "geometry": {"type": "Point", "coordinates": [-105.098233, 39.740076]}},
{"type": "Feature", "id": "1BzfL4gKJvu0jLepbOwWzpMQVQk=", "properties": {"ref": "https://www.naturalgrocers.com/store/denver-leetsdale-and-alameda", "@spider": "natural_grocers", "shop": "supermarket", "addr:full": "4500 E Alameda Ave", "addr:city": "Denver", "addr:state": "CO", "addr:postcode": "80246", "addr:country": "US", "name": "Denver - Leetsdale And Alameda", "website": "https://www.naturalgrocers.com/store/denver-leetsdale-and-alameda", "opening_hours": "Mo-Sa 08:30-20:36; Su 09:00-19:35", "brand": "Natural Grocers", "brand:wikidata": "Q17146520", "nsi_id": "naturalgrocers-dde59d"}, "geometry": {"type": "Point", "coordinates": [-104.93542, 39.711164]}},
{"type": "Feature", "id": "yHc8OENrAJRJJOOO8KyU34k7JF8=", "properties": {"ref": "https://www.naturalgrocers.com/store/lakewood-mission-trace", "@spider": "natural_grocers", "shop": "supermarket", "addr:full": "3333 S Wadsworth Blvd", "addr:city": "Lakewood", "addr:state": "CO", "addr:postcode": "80227", "addr:country": "US", "name": "Lakewood - Mission Trace", "website": "https://www.naturalgrocers.com/store/lakewood-mission-trace", "opening_hours": "Mo-Sa 08:30-20:36; Su 09:00-19:35", "brand": "Natural Grocers", "brand:wikidata": "Q17146520", "nsi_id": "naturalgrocers-dde59d"}, "geometry": {"type": "Point", "coordinates": [-105.081867, 39.656541]}}]}