{"type":"FeatureCollection","features":[{"type": "Feature", "id": "pvEogXF7WP6ZBwpFhCllwzAeRa0=", "properties": {"ref": "https://www.ncp.co.uk/find-a-car-park/car-parks/norwich-stn-forecourt-g-anglia/", "@spider": "ncp_gb", "addr:street_address": "Norwich Station, Station Approach", "addr:city": "Norwich", "addr:postcode": "NR1 1EF", "addr:country": "GB", "name": "NCP Norwich Station Forecourt", "website": "https://www.ncp.co.uk/find-a-car-park/car-parks/norwich-stn-forecourt-g-anglia/", "brand": "NCP", "brand:wikidata": "Q6971273"}, "geometry": {"type": "Point", "coordinates": [1.3065751000000319, 52.6269647]}},
{"type": "Feature", "id": "XVwCFMXRFNJYG9ECGEhun-Tu-2s=", "properties": {"ref": "https://www.ncp.co.uk/find-a-car-park/car-parks/newark-st-marks-place/", "@spider": "ncp_gb", "addr:street_address": "St Marks Place, Lombard Street", "addr:city": "Newark", "addr:postcode": "NG24 1XT", "addr:country": "GB", "name": "NCP Newark St Marks Place", "website": "https://www.ncp.co.uk/find-a-car-park/car-parks/newark-st-marks-place/", "brand": "NCP", "brand:wikidata": "Q6971273"}, "geometry": {"type": "Point", "coordinates": [-0.8103419999999915, 53.075786]}},
{"type": "Feature", "id": "AD_6S43zybAgiZwA6sRdIL65qPo=", "properties": {"ref": "https://www.ncp.co.uk/find-a-car-park/car-parks/lincoln-motherby-lane/", "@spider": "ncp_gb", "addr:street_address": "Motherby lane", "addr:city": "Lincoln", "addr:postcode": "LN1 1EX", "addr:country": "GB", "name": "NCP Lincoln Motherby Lane", "website": "https://www.ncp.co.uk/find-a-car-park/car-parks/lincoln-motherby-lane/", "brand": "NCP", "brand:wikidata": "Q6971273"}, "geometry": {"type": "Point", "coordinates": [-0.5415101999999479, 53.2316412]}},
{"type": "Feature", "id": "YsHdr-8X7xati1W4JzoLKOztn2o=", "properties": {"ref": "https://www.ncp.co.uk/find-a-car-park/car-parks/coventry-belgrade-plaza/", "@spider": "ncp_gb", "addr:street_address": "Ringway Hill Cross", "addr:city": "Coventry", "addr:postcode": "CV1 4AJ", "addr:country": "GB", "name": "NCP Coventry Belgrade Plaza", "website": "https://www.ncp.co.uk/find-a-car-park/car-parks/coventry-belgrade-plaza/", "brand": "NCP", "brand:wikidata": "Q6971273"}, "geometry": {"type": "Point", "coordinates": [-1.5169273000000203, 52.4104695]}},
{"type": "Feature", "id": "ef0b5kdgLPeLAKdAuMMgt3f5Svo=", "properties": {"ref": "https://www.ncp.co.uk/find-a-car-park/car-parks/stoke-sampson-street/", "@spider": "ncp_gb", "addr:street_address": "Sampson Street, Hanley", "addr:city": "Stoke-On-Trent", "addr:postcode": "ST1 5QY", "addr:country": "GB", "name": "NCP Stoke Sampson Street", "website": "https://www.ncp.co.uk/find-a-car-park/car-parks/stoke-sampson-street/", "brand": "NCP", "brand:wikidata": "Q6971273"}, "geometry": {"type": "Point", "coordinates": [-2.178493000000003, 53.0285683]}},
{"type": "Feature", "id": "AbAisfCvVv7ay7W_Qx6Buc8bpJE=", "properties": {"ref": "https://www.ncp.co.uk/find-a-car-park/car-parks/salford-stanley-street-car-park/", "@spider": "ncp_gb", "addr:street_address": "Stanley St", "addr:city": "Salford", "addr:postcode": "M3 5FY", "addr:country": "GB", "name": "NCP Salford Stanley Street", "website": "https://www.ncp.co.uk/find-a-car-park/car-parks/salford-stanley-street-car-park/", "brand": "NCP", "brand:wikidata": "Q6971273"}, "geometry": {"type": "Point", "coordinates": [-2.255138200000033, 53.4815311]}},
{"type": "Feature", "id": "v26YKr1-DCNresutsOKyCbvjp6Q=", "properties": {"ref": "https://www.ncp.co.uk/find-a-car-park/car-parks/bolton-st-edmund-street/", "@spider": "ncp_gb", "addr:street_address": "St Edmund St", "addr:city": "Bolton", "addr:postcode": "BL1 2JR", "addr:country": "GB", "name": "NCP Bolton St Edmund Street", "website": "https://www.ncp.co.uk/find-a-car-park/car-parks/bolton-st-edmund-street/", "brand": "NCP", "brand:wikidata": "Q6971273"}},
{"type": "Feature", "id": "CLbfaRW_NT54L80N8ry7SbFufEk=", "properties": {"ref": "https://www.ncp.co.uk/find-a-car-park/car-parks/york-queen-street/", "@spider": "ncp_gb", "addr:street_address": "24 Queen Street", "addr:city": "York", "addr:postcode": "YO24 1AD", "addr:country": "GB", "name": "NCP York Station South", "website": "https://www.ncp.co.uk/find-a-car-park/car-parks/york-queen-street/", "brand": "NCP", "brand:wikidata": "Q6971273"}, "geometry": {"type": "Point", "coordinates": [-1.094276900000068, 53.95581319999999]}},
{"type": "Feature", "id": "4BmnXoAZFa2RaIDOx83TU_fW8xo=", "properties": {"ref": "https://www.ncp.co.uk/find-a-car-park/car-parks/swansea-salubrious-place/", "@spider": "ncp_gb", "addr:street_address": "The City Gates, York Street", "addr:city": "Swansea", "addr:postcode": "SA1 3LZ", "addr:country": "GB", "name": "NCP Swansea The City Gates", "website": "https://www.ncp.co.uk/find-a-car-park/car-parks/swansea-salubrious-place/", "brand": "NCP", "brand:wikidata": "Q6971273"}, "geometry": {"type": "Point", "coordinates": [-3.939055899999971, 51.6186902]}},
{"type": "Feature", "id": "57AOHp2I6mO-F0iQIvvhYEdxnv0=", "properties": {"ref": "https://www.ncp.co.uk/find-a-car-park/car-parks/swansea-orchard-street/", "@spider": "ncp_gb", "addr:street_address": "Orchard Street, Orchard Street", "addr:city": "Swansea", "addr:postcode": "SA1 5AS", "addr:country": "GB", "name": "NCP Swansea Orchard Street", "website": "https://www.ncp.co.uk/find-a-car-park/car-parks/swansea-orchard-street/", "opening_hours": "Mo-Sa 07:00-21:00; Su 09:00-21:00", "brand": "NCP", "brand:wikidata": "Q6971273"}, "geometry": {"type": "Point", "coordinates": [-3.943213499999956, 51.6232443]}},
{"type": "Feature", "id": "FUHx15M57_JKQnX6p7Z4gmyq6dc=", "properties": {"ref": "https://www.ncp.co.uk/find-a-car-park/car-parks/swansea-kingsway/", "@spider": "ncp_gb", "addr:street_address": "Kingsway, Kingsway", "addr:city": "Swansea", "addr:postcode": "SA1 5JQ", "addr:country": "GB", "name": "NCP Swansea Kingsway", "website": "https://www.ncp.co.uk/find-a-car-park/car-parks/swansea-kingsway/", "opening_hours": "Mo-Sa 07:00-21:00; Su 09:00-18:00", "brand": "NCP", "brand:wikidata": "Q6971273"}, "geometry": {"type": "Point", "coordinates": [-3.946470999999974, 51.6204593]}},
{"type": "Feature", "id": "1LiRFGdMVQ4TUFfrnOZp7VKI8Lk=", "properties": {"ref": "https://www.ncp.co.uk/find-a-car-park/car-parks/belfast-montgomery-street/", "@spider": "ncp_gb", "addr:street_address": "Montgomery Street", "addr:city": "Belfast", "addr:postcode": "BT1 4NX", "addr:country": "GB", "name": "NCP Belfast Montgomery Street", "website": "https://www.ncp.co.uk/find-a-car-park/car-parks/belfast-montgomery-street/", "opening_hours": "Mo-Sa 07:00-22:00; Su 10:00-22:00", "brand": "NCP", "brand:wikidata": "Q6971273"}, "geometry": {"type": "Point", "coordinates": [-5.926524599999993, 54.5972138]}},
{"type": "Feature", "id": "aY3LX9RzTLqAK90MpqoXVwiYN9A=", "properties": {"ref": "https://www.ncp.co.uk/find-a-car-park/car-parks/belfast-dublin-road/", "@spider": "ncp_gb", "addr:street_address": "Dublin Road, 1 Hardcastle Street", "addr:city": "Belfast", "addr:postcode": "BT7 1GG", "addr:country": "GB", "name": "NCP Belfast Dublin Road", "website": "https://www.ncp.co.uk/find-a-car-park/car-parks/belfast-dublin-road/", "opening_hours": "Mo-Sa 07:00-24:00; Su 09:00-24:00", "brand": "NCP", "brand:wikidata": "Q6971273"}, "geometry": {"type": "Point", "coordinates": [-5.9311735, 54.59189079999999]}},
{"type": "Feature", "id": "lJD_9EA_fdJUEGsTU55OLA_7A_w=", "properties": {"ref": "https://www.ncp.co.uk/find-a-car-park/car-parks/belfast-city-quays/", "@spider": "ncp_gb", "addr:street_address": "NCP City Quays, Belfast City Quays, Belfast Harbour, Clarendon Road", "addr:city": "Belfast", "addr:postcode": "BT1 3YD", "addr:country": "GB", "name": "NCP Belfast City Quays", "website": "https://www.ncp.co.uk/find-a-car-park/car-parks/belfast-city-quays/", "brand": "NCP", "brand:wikidata": "Q6971273"}, "geometry": {"type": "Point", "coordinates": [-5.919958299999962, 54.6052647]}},
{"type": "Feature", "id": "oLcG7q0o3UzBchlSTq0cP2PhqmM=", "properties": {"ref": "https://www.ncp.co.uk/find-a-car-park/car-parks/sheffield-solly-street/", "@spider": "ncp_gb", "addr:street_address": "Velocity Village, Solly Street", "addr:city": "Sheffield", "addr:postcode": "S1 4DE", "addr:country": "GB", "name": "NCP Sheffield Solly Street", "website": "https://www.ncp.co.uk/find-a-car-park/car-parks/sheffield-solly-street/", "brand": "NCP", "brand:wikidata": "Q6971273"}, "geometry": {"type": "Point", "coordinates": [-1.4731352000000015, 53.3846448]}},
{"type": "Feature", "id": "XcbnLzAh-dRgeb80WvRK1bFfIVo=", "properties": {"ref": "https://www.ncp.co.uk/find-a-car-park/car-parks/sheffield-hartshead-square/", "@spider": "ncp_gb", "addr:street_address": "Hartshead Square", "addr:city": "Sheffield", "addr:postcode": "S1 2EL", "addr:country": "GB", "name": "NCP Sheffield Hartshead Square", "website": "https://www.ncp.co.uk/find-a-car-park/car-parks/sheffield-hartshead-square/", "brand": "NCP", "brand:wikidata": "Q6971273"}, "geometry": {"type": "Point", "coordinates": [-1.4669242999999597, 53.3836731]}},
{"type": "Feature", "id": "cShuLREhaPo3XSRkF37fvSn9ue4=", "properties": {"ref": "https://www.ncp.co.uk/find-a-car-park/car-parks/sheffield-furnival-gate/", "@spider": "ncp_gb", "addr:street_address": "Furnival Gate, Matilda Way", "addr:city": "Sheffield", "addr:postcode": "S1 4QJ", "addr:country": "GB", "name": "NCP Sheffield Furnival Gate", "website": "https://www.ncp.co.uk/find-a-car-park/car-parks/sheffield-furnival-gate/", "brand": "NCP", "brand:wikidata": "Q6971273"}, "geometry": {"type": "Point", "coordinates": [-1.4708699000000252, 53.3775677]}},
{"type": "Feature", "id": "0jM7XfWuXwkM7plE8Ka7osiudl4=", "properties": {"ref": "https://www.ncp.co.uk/find-a-car-park/car-parks/sheffield-campo-lane/", "@spider": "ncp_gb", "addr:street_address": "Campo Lane", "addr:city": "Sheffield", "addr:postcode": "S1 2EF", "addr:country": "GB", "name": "NCP Sheffield Campo Lane", "website": "https://www.ncp.co.uk/find-a-car-park/car-parks/sheffield-campo-lane/", "brand": "NCP", "brand:wikidata": "Q6971273"}, "geometry": {"type": "Point", "coordinates": [-1.4693033999999443, 53.3836707]}},
{"type": "Feature", "id": "-PmowNLBRvTjy_6-zTswFx4yMAg=", "properties": {"ref": "https://www.ncp.co.uk/find-a-car-park/car-parks/sheffield-wellington-street/", "@spider": "ncp_gb", "addr:street_address": "Wellington Street", "addr:city": "Sheffield", "addr:postcode": "S1 4HF", "addr:country": "GB", "name": "NCP Sheffield Wellington Street", "website": "https://www.ncp.co.uk/find-a-car-park/car-parks/sheffield-wellington-street/", "opening_hours": "Mo-Sa 06:00-24:00; Su 09:30-24:00", "brand": "NCP", "brand:wikidata": "Q6971273"}, "geometry": {"type": "Point", "coordinates": [-1.4748753999999735, 53.3784949]}},
{"type": "Feature", "id": "uLsLoFR_CyBDoBd5pokE3Qo3_Hs=", "properties": {"ref": "https://www.ncp.co.uk/find-a-car-park/car-parks/sheffield-sidney-street/", "@spider": "ncp_gb", "addr:street_address": "Sidney Street", "addr:city": "Sheffield", "addr:postcode": "S1 4RG", "addr:country": "GB", "name": "NCP Sheffield Sidney Street", "website": "https://www.ncp.co.uk/find-a-car-park/car-parks/sheffield-sidney-street/", "brand": "NCP", "brand:wikidata": "Q6971273"}, "geometry": {"type": "Point", "coordinates": [-1.469536699999935, 53.374834]}},
{"type": "Feature", "id": "exKSYB4A3Phh360EXztKHMtME2g=", "properties": {"ref": "https://www.ncp.co.uk/find-a-car-park/car-parks/sheffield-blonk-street/", "@spider": "ncp_gb", "addr:street_address": "Blonk Street", "addr:city": "Sheffield", "addr:postcode": "S1 2AB", "addr:country": "GB", "name": "NCP Sheffield Blonk Street", "website": "https://www.ncp.co.uk/find-a-car-park/car-parks/sheffield-blonk-street/", "brand": "NCP", "brand:wikidata": "Q6971273"}, "geometry": {"type": "Point", "coordinates": [-1.4610482000000502, 53.3860191]}},
{"type": "Feature", "id": "Om_OX3RpGIWNSpqZjgIr82GDeFo=", "properties": {"ref": "https://www.ncp.co.uk/find-a-car-park/car-parks/bradford-southgate/", "@spider": "ncp_gb", "addr:street_address": "New Southgate, off Thornton Road", "addr:city": "Bradford", "addr:postcode": "BD1 2AP", "addr:country": "GB", "name": "NCP Bradford Southgate", "website": "https://www.ncp.co.uk/find-a-car-park/car-parks/bradford-southgate/", "brand": "NCP", "brand:wikidata": "Q6971273"}, "geometry": {"type": "Point", "coordinates": [-1.758154099999956, 53.7938005]}},
{"type": "Feature", "id": "EEexfwyUmdlbiu4zWNDaBIvHzvA=", "properties": {"ref": "https://www.ncp.co.uk/find-a-car-park/car-parks/york-tanner-row/", "@spider": "ncp_gb", "addr:street_address": "Tanner Row, George Hudson Street", "addr:city": "York", "addr:postcode": "YO1 6JL", "addr:country": "GB", "name": "NCP York Tanner Row", "website": "https://www.ncp.co.uk/find-a-car-park/car-parks/york-tanner-row/", "brand": "NCP", "brand:wikidata": "Q6971273"}, "geometry": {"type": "Point", "coordinates": [-1.0873556000000235, 53.9583235]}},
{"type": "Feature", "id": "VZjaMJYm4lc2q_NeznAxsOEZ0dw=", "properties": {"ref": "https://www.ncp.co.uk/find-a-car-park/car-parks/bolton-upper-bark-st/", "@spider": "ncp_gb", "addr:street_address": "Upper Bark St", "addr:city": "Bolton", "addr:postcode": "BL1 2AX", "addr:country": "GB", "name": "NCP Bolton Upper Bark Street", "website": "https://www.ncp.co.uk/find-a-car-park/car-parks/bolton-upper-bark-st/", "brand": "NCP", "brand:wikidata": "Q6971273"}, "geometry": {"type": "Point", "coordinates": [-2.4321386000000302, 53.5811934]}},
{"type": "Feature", "id": "xKSLJuj9yzIOLWLW3ty_pFgy4HI=", "properties": {"ref": "https://www.ncp.co.uk/find-a-car-park/car-parks/bolton-st-helena-road/", "@spider": "ncp_gb", "addr:street_address": "St Helena Road", "addr:city": "Bolton", "addr:postcode": "BL1 2JS", "addr:country": "GB", "name": "NCP Bolton St Helena Road", "website": "https://www.ncp.co.uk/find-a-car-park/car-parks/bolton-st-helena-road/", "brand": "NCP", "brand:wikidata": "Q6971273"}},
{"type": "Feature", "id": "8wDGG6iibmaZCkYphlpCT6Iakxw=", "properties": {"ref": "https://www.ncp.co.uk/find-a-car-park/car-parks/bolton-topp-way-duke-st/", "@spider": "ncp_gb", "addr:street_address": "Duke Street", "addr:city": "Bolton", "addr:postcode": "BL1 2BS", "addr:country": "GB", "name": "NCP Bolton Topp Way", "website": "https://www.ncp.co.uk/find-a-car-park/car-parks/bolton-topp-way-duke-st/", "brand": "NCP", "brand:wikidata": "Q6971273"}, "geometry": {"type": "Point", "coordinates": [-2.4286855000000287, 53.5831265]}},
{"type": "Feature", "id": "hFy5JVhAKeC8xmaBI0pMP7ZVtkc=", "properties": {"ref": "https://www.ncp.co.uk/find-a-car-park/car-parks/bolton-octagon-theatre-sp/", "@spider": "ncp_gb", "addr:street_address": "Octagon Theatre Surface, Great Moor Street", "addr:city": "Bolton", "addr:postcode": "BL1 1SJ", "addr:country": "GB", "name": "NCP Bolton Octagon Theatre SP", "website": "https://www.ncp.co.uk/find-a-car-park/car-parks/bolton-octagon-theatre-sp/", "brand": "NCP", "brand:wikidata": "Q6971273"}},
{"type": "Feature", "id": "AcxWBk2zIC7r9HeXlDPcJZgS92M=", "properties": {"ref": "https://www.ncp.co.uk/find-a-car-park/car-parks/bolton-octagon-theatre-mscp/", "@spider": "ncp_gb", "addr:street_address": "Octagon Theatre Multi Storey, Great Moor Street", "addr:city": "Bolton", "addr:postcode": "BL1 1SN", "addr:country": "GB", "name": "NCP Bolton Octagon Theatre", "website": "https://www.ncp.co.uk/find-a-car-park/car-parks/bolton-octagon-theatre-mscp/", "brand": "NCP", "brand:wikidata": "Q6971273"}, "geometry": {"type": "Point", "coordinates": [-2.430197000000021, 53.5767229]}},
{"type": "Feature", "id": "7mQ0uypQ7-fk9M73UhmuO0dGWwM=", "properties": {"ref": "https://www.ncp.co.uk/find-a-car-park/car-parks/bolton-king-street/", "@spider": "ncp_gb", "addr:street_address": "King Street", "addr:city": "Bolton", "addr:postcode": "BL1 1BB", "addr:country": "GB", "name": "NCP Bolton King Street", "website": "https://www.ncp.co.uk/find-a-car-park/car-parks/bolton-king-street/", "brand": "NCP", "brand:wikidata": "Q6971273"}, "geometry": {"type": "Point", "coordinates": [-2.4334321000000045, 53.5796319]}},
{"type": "Feature", "id": "TLXIhFeQN5BImQS0T-Chcryx3ac=", "properties": {"ref": "https://www.ncp.co.uk/find-a-car-park/car-parks/bolton-deane-road/", "@spider": "ncp_gb", "addr:street_address": "Deane Road, Wellington Street", "addr:city": "Bolton", "addr:postcode": "BL3 5EQ", "addr:country": "GB", "name": "NCP Bolton Deane Road", "website": "https://www.ncp.co.uk/find-a-car-park/car-parks/bolton-deane-road/", "brand": "NCP", "brand:wikidata": "Q6971273"}, "geometry": {"type": "Point", "coordinates": [-2.4363981000000194, 53.5744175]}},
{"type": "Feature", "id": "jDtzKYhVzcL_aS6gPN6DbW7DuBY=", "properties": {"ref": "https://www.ncp.co.uk/find-a-car-park/car-parks/bolton-clive-street/", "@spider": "ncp_gb", "addr:street_address": "Clive Street", "addr:city": "Bolton", "addr:postcode": "BL1 1PZ", "addr:country": "GB", "name": "NCP Bolton Clive Street", "website": "https://www.ncp.co.uk/find-a-car-park/car-parks/bolton-clive-street/", "brand": "NCP", "brand:wikidata": "Q6971273"}, "geometry": {"type": "Point", "coordinates": [-2.4242733999999473, 53.5777289]}},
{"type": "Feature", "id": "VUCsPJYbdB_P56bCi3mLeZ4DgHg=", "properties": {"ref": "https://www.ncp.co.uk/find-a-car-park/car-parks/bolton-breightmet-street/", "@spider": "ncp_gb", "addr:street_address": "Breightmet Street", "addr:city": "Bolton", "addr:postcode": "BL2 1BR", "addr:country": "GB", "name": "NCP Bolton Breightmet Street", "website": "https://www.ncp.co.uk/find-a-car-park/car-parks/bolton-breightmet-street/", "brand": "NCP", "brand:wikidata": "Q6971273"}, "geometry": {"type": "Point", "coordinates": [-2.4245600000000422, 53.5768132]}},
{"type": "Feature", "id": "jZASOlb1LXiqU5vvFwEYU8OWu3Q=", "properties": {"ref": "https://www.ncp.co.uk/find-a-car-park/car-parks/bolton-blackhorse-street/", "@spider": "ncp_gb", "addr:street_address": "Blackhorse Street", "addr:city": "Bolton", "addr:postcode": "BL3 6EB", "addr:country": "GB", "name": "NCP Bolton Blackhorse Street", "website": "https://www.ncp.co.uk/find-a-car-park/car-parks/bolton-blackhorse-street/", "brand": "NCP", "brand:wikidata": "Q6971273"}, "geometry": {"type": "Point", "coordinates": [-2.432006499999943, 53.5763638]}},
{"type": "Feature", "id": "d4v6JkzNy9AzNPKXuvLJ8tYboGg=", "properties": {"ref": "https://www.ncp.co.uk/find-a-car-park/car-parks/bolton-back-cheapside-2/", "@spider": "ncp_gb", "addr:street_address": "Back Cheapside", "addr:city": "Bolton", "addr:postcode": "BL1 1LT", "addr:country": "GB", "name": "NCP Bolton Back Cheapside 2", "website": "https://www.ncp.co.uk/find-a-car-park/car-parks/bolton-back-cheapside-2/", "brand": "NCP", "brand:wikidata": "Q6971273"}, "geometry": {"type": "Point", "coordinates": [-2.4286297999999533, 53.5774054]}},
{"type": "Feature", "id": "vrjwF0gtmCufm7gBMVDftAlytIo=", "properties": {"ref": "https://www.ncp.co.uk/find-a-car-park/car-parks/bolton-ashburner-street/", "@spider": "ncp_gb", "addr:street_address": "New Street", "addr:city": "Bolton", "addr:postcode": "BL1 1TN", "addr:country": "GB", "name": "NCP Bolton Ashburner Street", "website": "https://www.ncp.co.uk/find-a-car-park/car-parks/bolton-ashburner-street/", "brand": "NCP", "brand:wikidata": "Q6971273"}, "geometry": {"type": "Point", "coordinates": [-2.433206700000028, 53.5768476]}},
{"type": "Feature", "id": "LYQxFQXvQu42jdpXPEkm_9Cb0Tg=", "properties": {"ref": "https://www.ncp.co.uk/find-a-car-park/car-parks/bolton-all-saints-street-west/", "@spider": "ncp_gb", "addr:street_address": "All Saints Street", "addr:city": "Bolton", "addr:postcode": "BL1 2EQ", "addr:country": "GB", "name": "NCP Bolton All Saints Street West", "website": "https://www.ncp.co.uk/find-a-car-park/car-parks/bolton-all-saints-street-west/", "brand": "NCP", "brand:wikidata": "Q6971273"}, "geometry": {"type": "Point", "coordinates": [-2.4278054999999767, 53.5823796]}},
{"type": "Feature", "id": "BtapcVfGBSBMPV0H3opo7piNAoc=", "properties": {"ref": "https://www.ncp.co.uk/find-a-car-park/car-parks/bolton-all-saints-street-east/", "@spider": "ncp_gb", "addr:street_address": "All Saints Street", "addr:city": "Bolton", "addr:postcode": "BL1 2EQ", "addr:country": "GB", "name": "NCP Bolton All Saints Street East", "website": "https://www.ncp.co.uk/find-a-car-park/car-parks/bolton-all-saints-street-east/", "brand": "NCP", "brand:wikidata": "Q6971273"}, "geometry": {"type": "Point", "coordinates": [-2.4278054999999767, 53.5823796]}},
{"type": "Feature", "id": "hBdTbDgSF3Bbn6LsABnPg1IKID0=", "properties": {"ref": "https://www.ncp.co.uk/find-a-car-park/car-parks/chester-browns-yard/", "@spider": "ncp_gb", "addr:street_address": "Browns Yard, Bold Place, York Street", "addr:city": "Chester", "addr:postcode": "CH1 3LY", "addr:country": "GB", "name": "NCP Chester Browns Yard", "website": "https://www.ncp.co.uk/find-a-car-park/car-parks/chester-browns-yard/", "brand": "NCP", "brand:wikidata": "Q6971273"}, "geometry": {"type": "Point", "coordinates": [2.884859, 53.192512]}},
{"type": "Feature", "id": "VWmVbU1yZyHBkB6vvedd4lMZN88=", "properties": {"ref": "https://www.ncp.co.uk/find-a-car-park/car-parks/liverpool-tithebarn-street/", "@spider": "ncp_gb", "addr:street_address": "69 Tithebarn Street", "addr:city": "Liverpool", "addr:postcode": "L2 2EE", "addr:country": "GB", "name": "NCP Liverpool Tithebarn Street", "website": "https://www.ncp.co.uk/find-a-car-park/car-parks/liverpool-tithebarn-street/", "brand": "NCP", "brand:wikidata": "Q6971273"}, "geometry": {"type": "Point", "coordinates": [-2.989151600000014, 53.4102274]}},
{"type": "Feature", "id": "CTWLPaLasuUz49dtPWEuiT7aTno=", "properties": {"ref": "https://www.ncp.co.uk/find-a-car-park/car-parks/liverpool-pall-mall/", "@spider": "ncp_gb", "addr:street_address": "Pall Mall, Exchange Station", "addr:city": "Liverpool", "addr:postcode": "L3 6AL", "addr:country": "GB", "name": "NCP Liverpool Pall Mall", "website": "https://www.ncp.co.uk/find-a-car-park/car-parks/liverpool-pall-mall/", "brand": "NCP", "brand:wikidata": "Q6971273"}, "geometry": {"type": "Point", "coordinates": [-2.992900899999995, 53.4111808]}},
{"type": "Feature", "id": "Rh6ZJzbNxgVVS0jQUJCTfXwnhLc=", "properties": {"ref": "https://www.ncp.co.uk/find-a-car-park/car-parks/liverpool-the-arches/", "@spider": "ncp_gb", "addr:street_address": "The Arches, Pall Mall", "addr:city": "Liverpool", "addr:postcode": "L3 6AL", "addr:country": "GB", "name": "NCP Liverpool The Arches", "website": "https://www.ncp.co.uk/find-a-car-park/car-parks/liverpool-the-arches/", "brand": "NCP", "brand:wikidata": "Q6971273"}},
{"type": "Feature", "id": "7lClM7cUtWKhjv1myb3uxdjz1p0=", "properties": {"ref": "https://www.ncp.co.uk/find-a-car-park/car-parks/liverpool-smithfield/", "@spider": "ncp_gb", "addr:street_address": "Smithfield, Smithfield Street", "addr:city": "Liverpool", "addr:postcode": "L3 6AF", "addr:country": "GB", "name": "NCP Liverpool Smithfield", "website": "https://www.ncp.co.uk/find-a-car-park/car-parks/liverpool-smithfield/", "brand": "NCP", "brand:wikidata": "Q6971273"}, "geometry": {"type": "Point", "coordinates": [-2.9896839000000455, 53.4108544]}},
{"type": "Feature", "id": "83VP7Ft2DGBfLlwJBckEpS4s3d8=", "properties": {"ref": "https://www.ncp.co.uk/find-a-car-park/car-parks/liverpool-rumford-street/", "@spider": "ncp_gb", "addr:street_address": "Rumford Street", "addr:city": "Liverpool", "addr:postcode": "L2 8SZ", "addr:country": "GB", "name": "NCP Liverpool Rumford Street", "website": "https://www.ncp.co.uk/find-a-car-park/car-parks/liverpool-rumford-street/", "brand": "NCP", "brand:wikidata": "Q6971273"}, "geometry": {"type": "Point", "coordinates": [2.993616, 53.407366]}},
{"type": "Feature", "id": "zGYZQo6sMuM7zdje7DHUUOoNDqo=", "properties": {"ref": "https://www.ncp.co.uk/find-a-car-park/car-parks/liverpool-primrose-hill/", "@spider": "ncp_gb", "addr:street_address": "Primrose Hill SP, off Truman Street", "addr:city": "Liverpool", "addr:postcode": "L3 2BA", "addr:country": "GB", "name": "NCP Liverpool Primrose Hill", "website": "https://www.ncp.co.uk/find-a-car-park/car-parks/liverpool-primrose-hill/", "brand": "NCP", "brand:wikidata": "Q6971273"}, "geometry": {"type": "Point", "coordinates": [2.984275, 53.410867]}},
{"type": "Feature", "id": "A_G5DY_Gzgeyed3GS5kIMLl3wyI=", "properties": {"ref": "https://www.ncp.co.uk/find-a-car-park/car-parks/liverpool-moorfields/", "@spider": "ncp_gb", "addr:street_address": "Moorfields MSCP, Vernon Street", "addr:city": "Liverpool", "addr:postcode": "L2 2AY", "addr:country": "GB", "name": "NCP Liverpool Moorfields", "website": "https://www.ncp.co.uk/find-a-car-park/car-parks/liverpool-moorfields/", "brand": "NCP", "brand:wikidata": "Q6971273"}, "geometry": {"type": "Point", "coordinates": [-2.988021099999969, 53.40911620000001]}},
{"type": "Feature", "id": "9Nar0wu4mJdHDzR9Bbm7ZG8w7qY=", "properties": {"ref": "https://www.ncp.co.uk/find-a-car-park/car-parks/salford-new-bailey/", "@spider": "ncp_gb", "addr:street_address": "New Bailey MSCP, Irwell Street", "addr:city": "Salford", "addr:postcode": "M3 5EN", "addr:country": "GB", "name": "NCP Salford New Bailey", "website": "https://www.ncp.co.uk/find-a-car-park/car-parks/salford-new-bailey/", "brand": "NCP", "brand:wikidata": "Q6971273"}, "geometry": {"type": "Point", "coordinates": [-2.2562000000000353, 53.4819105]}},
{"type": "Feature", "id": "SEzkaaV-ya9Z7kbDyJhqWlRoRok=", "properties": {"ref": "https://www.ncp.co.uk/find-a-car-park/car-parks/stoke-on-trent-meigh-street/", "@spider": "ncp_gb", "addr:street_address": "Meigh Street, Hanley", "addr:city": "Stoke On Trent", "addr:postcode": "ST1 2ET", "addr:country": "GB", "name": "NCP Stoke On Trent Meigh Street", "website": "https://www.ncp.co.uk/find-a-car-park/car-parks/stoke-on-trent-meigh-street/", "brand": "NCP", "brand:wikidata": "Q6971273"}, "geometry": {"type": "Point", "coordinates": [-2.1725159000000076, 53.0265904]}},
{"type": "Feature", "id": "3cTosEDen5ESLrVn_3h4u8EPhrY=", "properties": {"ref": "https://www.ncp.co.uk/find-a-car-park/car-parks/derby-siddals-road1/", "@spider": "ncp_gb", "addr:street_address": "Siddals Road", "addr:city": "Derby", "addr:postcode": "DE1 2QD", "addr:country": "GB", "name": "NCP Derby Siddals Road", "website": "https://www.ncp.co.uk/find-a-car-park/car-parks/derby-siddals-road1/", "brand": "NCP", "brand:wikidata": "Q6971273"}, "geometry": {"type": "Point", "coordinates": [-1.466294400000038, 52.9195626]}},
{"type": "Feature", "id": "rplismCojtpmVQ4zFe2qeUJ0kEs=", "properties": {"ref": "https://www.ncp.co.uk/find-a-car-park/car-parks/derby-becketwell-lane/", "@spider": "ncp_gb", "addr:street_address": "Becketwell Lane, Colyear Street", "addr:city": "Derby", "addr:postcode": "DE1 1JW", "addr:country": "GB", "name": "NCP Derby St Peters Courtyard", "website": "https://www.ncp.co.uk/find-a-car-park/car-parks/derby-becketwell-lane/", "brand": "NCP", "brand:wikidata": "Q6971273"}, "geometry": {"type": "Point", "coordinates": [-1.4792694999999867, 52.9215042]}},
{"type": "Feature", "id": "zApFuqNUtQUFVz_AsIiC8tQp1T0=", "properties": {"ref": "https://www.ncp.co.uk/find-a-car-park/car-parks/leicester-welford-road/", "@spider": "ncp_gb", "addr:street_address": "Welford Road", "addr:city": "Leicester", "addr:postcode": "LE2 7AD", "addr:country": "GB", "name": "NCP Leicester Welford Road", "website": "https://www.ncp.co.uk/find-a-car-park/car-parks/leicester-welford-road/", "brand": "NCP", "brand:wikidata": "Q6971273"}, "geometry": {"type": "Point", "coordinates": [-1.1338412999999719, 52.6314803]}},
{"type": "Feature", "id": "n_o9uQ7FsJWVnAbF6Q2ffVaPCms=", "properties": {"ref": "https://www.ncp.co.uk/find-a-car-park/car-parks/leicester-st-nicholas-circle/", "@spider": "ncp_gb", "addr:street_address": "St Nicholas Circle", "addr:city": "Leicester", "addr:postcode": "LE1 4LF", "addr:country": "GB", "name": "NCP Leicester St Nicholas Circle", "website": "https://www.ncp.co.uk/find-a-car-park/car-parks/leicester-st-nicholas-circle/", "brand": "NCP", "brand:wikidata": "Q6971273"}, "geometry": {"type": "Point", "coordinates": [-1.1405732000000626, 52.634785]}},
{"type": "Feature", "id": "YlZY-E31qHcaxxtDAUwixx9zim4=", "properties": {"ref": "https://www.ncp.co.uk/find-a-car-park/car-parks/leicester-rutland-centre/", "@spider": "ncp_gb", "addr:street_address": "Rutland Centre, 56 Halford Street", "addr:city": "Leicester", "addr:postcode": "LE1 1TQ", "addr:country": "GB", "name": "NCP Leicester Rutland Centre", "website": "https://www.ncp.co.uk/find-a-car-park/car-parks/leicester-rutland-centre/", "brand": "NCP", "brand:wikidata": "Q6971273"}, "geometry": {"type": "Point", "coordinates": [1.128254, 52.635351]}},
{"type": "Feature", "id": "Dhgt1oz0RhLs0NRLycchNvZq-v8=", "properties": {"ref": "https://www.ncp.co.uk/find-a-car-park/car-parks/leicester-lee-circle/", "@spider": "ncp_gb", "addr:street_address": "Lee Circle", "addr:city": "Leicester", "addr:postcode": "LE1 3RE", "addr:country": "GB", "name": "NCP Leicester Lee Circle", "website": "https://www.ncp.co.uk/find-a-car-park/car-parks/leicester-lee-circle/", "brand": "NCP", "brand:wikidata": "Q6971273"}, "geometry": {"type": "Point", "coordinates": [-1.1291396000000304, 52.63819609999999]}},
{"type": "Feature", "id": "LUz4FAlyUh6aO6D-_4spGWWdBGg=", "properties": {"ref": "https://www.ncp.co.uk/find-a-car-park/car-parks/leicester-abbey-street/", "@spider": "ncp_gb", "addr:street_address": "Abbey Street, off Garden Street", "addr:city": "Leicester", "addr:postcode": "LE1 3UA", "addr:country": "GB", "name": "NCP Leicester Abbey Street", "website": "https://www.ncp.co.uk/find-a-car-park/car-parks/leicester-abbey-street/", "brand": "NCP", "brand:wikidata": "Q6971273"}, "geometry": {"type": "Point", "coordinates": [-1.1323098999999957, 52.63975139999999]}},
{"type": "Feature", "id": "nuXvO4xWuaVgZBRlYwPj_BUKlw8=", "properties": {"ref": "https://www.ncp.co.uk/find-a-car-park/car-parks/leicester-east-street/", "@spider": "ncp_gb", "addr:street_address": "East Street", "addr:city": "Leicester", "addr:postcode": "LE1 6NB", "addr:country": "GB", "name": "NCP Leicester East Street", "website": "https://www.ncp.co.uk/find-a-car-park/car-parks/leicester-east-street/", "brand": "NCP", "brand:wikidata": "Q6971273"}, "geometry": {"type": "Point", "coordinates": [-1.1270809999999756, 52.63139959999999]}},
{"type": "Feature", "id": "SAsSCvjxwUrLpq2Oiw9D2NC5svI=", "properties": {"ref": "https://www.ncp.co.uk/find-a-car-park/car-parks/lincoln-brayford-street/", "@spider": "ncp_gb", "addr:street_address": "Brayford Street", "addr:city": "Lincoln", "addr:postcode": "LN5 7BJ", "addr:country": "GB", "name": "NCP Lincoln Brayford Street", "website": "https://www.ncp.co.uk/find-a-car-park/car-parks/lincoln-brayford-street/", "brand": "NCP", "brand:wikidata": "Q6971273"}, "geometry": {"type": "Point", "coordinates": [-0.5428844000000481, 53.2274077]}},
{"type": "Feature", "id": "rOs6tO76tutY8JZZnFQ_wFJmhns=", "properties": {"ref": "https://www.ncp.co.uk/find-a-car-park/car-parks/lincoln-steep-hill/", "@spider": "ncp_gb", "addr:street_address": "Steep Hill", "addr:city": "Lincoln", "addr:postcode": "LN1 1ES", "addr:country": "GB", "name": "NCP Lincoln Steep Hill", "website": "https://www.ncp.co.uk/find-a-car-park/car-parks/lincoln-steep-hill/", "brand": "NCP", "brand:wikidata": "Q6971273"}, "geometry": {"type": "Point", "coordinates": [-0.53846539999995, 53.233073]}},
{"type": "Feature", "id": "uq2Dqc8ggpGAsiWXoHwzXlwyzyc=", "properties": {"ref": "https://www.ncp.co.uk/find-a-car-park/car-parks/lincoln-st-rumbold-street/", "@spider": "ncp_gb", "addr:street_address": "St Rumbold Street", "addr:city": "Lincoln", "addr:postcode": "LN2 5AP", "addr:country": "GB", "name": "NCP Lincoln St Rumbold Street", "website": "https://www.ncp.co.uk/find-a-car-park/car-parks/lincoln-st-rumbold-street/", "brand": "NCP", "brand:wikidata": "Q6971273"}, "geometry": {"type": "Point", "coordinates": [-0.5343072000000575, 53.229045]}},
{"type": "Feature", "id": "jdXgvLgivuX5U5b-6n4lNrIo45M=", "properties": {"ref": "https://www.ncp.co.uk/find-a-car-park/car-parks/lincoln-high-street/", "@spider": "ncp_gb", "addr:street_address": "High Street MSCP, Brayford Street", "addr:city": "Lincoln", "addr:postcode": "LN5 7BJ", "addr:country": "GB", "name": "Lincoln High Street", "website": "https://www.ncp.co.uk/find-a-car-park/car-parks/lincoln-high-street/", "brand": "NCP", "brand:wikidata": "Q6971273"}, "geometry": {"type": "Point", "coordinates": [-0.5425893999999971, 53.2271829]}},
{"type": "Feature", "id": "d_j34bwlqFiv6OIG2A63NYCA3KM=", "properties": {"ref": "https://www.ncp.co.uk/find-a-car-park/car-parks/lincoln-central/", "@spider": "ncp_gb", "addr:street_address": "Central, Free School Lane", "addr:city": "Lincoln", "addr:postcode": "LN2 1EY", "addr:country": "GB", "name": "NCP Lincoln Central", "website": "https://www.ncp.co.uk/find-a-car-park/car-parks/lincoln-central/", "brand": "NCP", "brand:wikidata": "Q6971273"}, "geometry": {"type": "Point", "coordinates": [-0.5377356999999847, 53.229342]}},
{"type": "Feature", "id": "pIHI_WavXfpi3SGGWRVmWRY_UXE=", "properties": {"ref": "https://www.ncp.co.uk/find-a-car-park/car-parks/newark-northgate-rail-stn/", "@spider": "ncp_gb", "addr:street_address": "Newark Northgate Rail Station, Appletongate", "addr:city": "Newark", "addr:postcode": "NG24 1LS", "addr:country": "GB", "name": "NCP Newark Train/Rail Station", "website": "https://www.ncp.co.uk/find-a-car-park/car-parks/newark-northgate-rail-stn/", "brand": "NCP", "brand:wikidata": "Q6971273"}, "geometry": {"type": "Point", "coordinates": [-0.8006070000000136, 53.081723]}},
{"type": "Feature", "id": "WfsXz9xwAkFQJBzM5DtnWlUr9UY=", "properties": {"ref": "https://www.ncp.co.uk/find-a-car-park/car-parks/norwich-st-stephens-street/", "@spider": "ncp_gb", "addr:street_address": "St Stephens, 12 Queens Road", "addr:city": "Norwich", "addr:postcode": "NR1 3PR", "addr:country": "GB", "name": "NCP Norwich St Stephens", "website": "https://www.ncp.co.uk/find-a-car-park/car-parks/norwich-st-stephens-street/", "brand": "NCP", "brand:wikidata": "Q6971273"}, "geometry": {"type": "Point", "coordinates": [1.291486500000019, 52.6242302]}},
{"type": "Feature", "id": "u5dt1zwgfh5E2vuULhE1f8ev3ZI=", "properties": {"ref": "https://www.ncp.co.uk/find-a-car-park/car-parks/newport-st-lukes/", "@spider": "ncp_gb", "addr:street_address": "St Lukes, Bridge Street", "addr:city": "Newport", "addr:postcode": "NP20 4AT", "addr:country": "GB", "name": "NCP Newport Station Approach", "website": "https://www.ncp.co.uk/find-a-car-park/car-parks/newport-st-lukes/", "brand": "NCP", "brand:wikidata": "Q6971273"}, "geometry": {"type": "Point", "coordinates": [-3.000304799999981, 51.5880524]}},
{"type": "Feature", "id": "7R4wUji77YcNDUjP_lK4jhYQ4Mw=", "properties": {"ref": "https://www.ncp.co.uk/find-a-car-park/car-parks/bangor-station-tfw/", "@spider": "ncp_gb", "addr:street_address": "Bangor Station", "addr:city": "Bangor", "addr:postcode": "LL57 1LZ", "addr:country": "GB", "name": "NCP Bangor Station", "website": "https://www.ncp.co.uk/find-a-car-park/car-parks/bangor-station-tfw/", "brand": "NCP", "brand:wikidata": "Q6971273"}, "geometry": {"type": "Point", "coordinates": [-4.134594200000038, 53.2230759]}},
{"type": "Feature", "id": "yMw1qu6yC0jkmk4DDixM24b48Vo=", "properties": {"ref": "https://www.ncp.co.uk/find-a-car-park/car-parks/dundee-willison-street/", "@spider": "ncp_gb", "addr:street_address": "Willison Street", "addr:city": "Dundee", "addr:postcode": "DD1 1PW", "addr:country": "GB", "name": "NCP Dundee Willison Street", "website": "https://www.ncp.co.uk/find-a-car-park/car-parks/dundee-willison-street/", "brand": "NCP", "brand:wikidata": "Q6971273"}, "geometry": {"type": "Point", "coordinates": [-2.9739887000000635, 56.460363]}},
{"type": "Feature", "id": "6Ym7nyztfn1cK21Vzxni761cQyI=", "properties": {"ref": "https://www.ncp.co.uk/find-a-car-park/car-parks/aberdeen-shiprow/", "@spider": "ncp_gb", "addr:street_address": "Shiprow, Virginia Street", "addr:city": "Aberdeen", "addr:postcode": "AB11 5BY", "addr:country": "GB", "name": "NCP Aberdeen Shiprow", "website": "https://www.ncp.co.uk/find-a-car-park/car-parks/aberdeen-shiprow/", "brand": "NCP", "brand:wikidata": "Q6971273"}, "geometry": {"type": "Point", "coordinates": [-1.37352, 52.725427]}},
{"type": "Feature", "id": "hnqtN60EtkcRG5ERzNRQHJaM3bI=", "properties": {"ref": "https://www.ncp.co.uk/find-a-car-park/car-parks/truro-kenwyn-street/", "@spider": "ncp_gb", "addr:street_address": "Riverside Apartments,Kenwyn Mews", "addr:city": "Truro", "addr:postcode": "TR1 3BX", "addr:country": "GB", "name": "NCP Truro Kenwyn Street", "website": "https://www.ncp.co.uk/find-a-car-park/car-parks/truro-kenwyn-street/", "brand": "NCP", "brand:wikidata": "Q6971273"}, "geometry": {"type": "Point", "coordinates": [-5.05672, 50.263109]}},
{"type": "Feature", "id": "dnLk068QCsOYyIXEAeqXCZ1vQIo=", "properties": {"ref": "https://www.ncp.co.uk/find-a-car-park/car-parks/hereford-little-berrington-st/", "@spider": "ncp_gb", "addr:street_address": "Little Berrington Street", "addr:city": "Hereford", "addr:postcode": "HR4 0BS", "addr:country": "GB", "name": "NCP Hereford Little Berrington St", "website": "https://www.ncp.co.uk/find-a-car-park/car-parks/hereford-little-berrington-st/", "brand": "NCP", "brand:wikidata": "Q6971273"}, "geometry": {"type": "Point", "coordinates": [2.718213, 52.054999]}},
{"type": "Feature", "id": "cgEULWQ5QDNhqJyTGeIeFine8ZY=", "properties": {"ref": "https://www.ncp.co.uk/find-a-car-park/car-parks/gloucester-spread-eagle/", "@spider": "ncp_gb", "addr:street_address": "Market Parade, Spread Eagle Road", "addr:city": "Gloucester", "addr:postcode": "GL1 1RL", "addr:country": "GB", "name": "NCP Gloucester Market Parade", "website": "https://www.ncp.co.uk/find-a-car-park/car-parks/gloucester-spread-eagle/", "brand": "NCP", "brand:wikidata": "Q6971273"}, "geometry": {"type": "Point", "coordinates": [-2.2417957000000115, 51.8664535]}},
{"type": "Feature", "id": "RZCU7zlRvA8d684v0OcI7geHmWw=", "properties": {"ref": "https://www.ncp.co.uk/find-a-car-park/car-parks/exeter-market-street/", "@spider": "ncp_gb", "addr:street_address": "Market Street, Guinea Street", "addr:city": "Exeter", "addr:postcode": "EX1 1BW", "addr:country": "GB", "name": "NCP Exeter Market Street", "website": "https://www.ncp.co.uk/find-a-car-park/car-parks/exeter-market-street/", "brand": "NCP", "brand:wikidata": "Q6971273"}, "geometry": {"type": "Point", "coordinates": [-3.5327127000000473, 50.7213573]}},
{"type": "Feature", "id": "ChyxCz0E3s2bfjkd-QFfeR_UJ6w=", "properties": {"ref": "https://www.ncp.co.uk/find-a-car-park/car-parks/worthing-union-place/", "@spider": "ncp_gb", "addr:street_address": "Union Place, Union Place", "addr:city": "Worthing", "addr:postcode": "BN11 1LG", "addr:country": "GB", "name": "NCP Worthing Union", "website": "https://www.ncp.co.uk/find-a-car-park/car-parks/worthing-union-place/", "brand": "NCP", "brand:wikidata": "Q6971273"}, "geometry": {"type": "Point", "coordinates": [-0.3699014000000034, 50.8138787]}},
{"type": "Feature", "id": "xrrF4Dy5tqrgId4e9PqudvQwgLg=", "properties": {"ref": "https://www.ncp.co.uk/find-a-car-park/car-parks/southampton-portland-terrace/", "@spider": "ncp_gb", "addr:street_address": "Portland Terrace", "addr:city": "Southampton", "addr:postcode": "SO14 7EN", "addr:country": "GB", "name": "NCP Southampton Portland Terrace", "website": "https://www.ncp.co.uk/find-a-car-park/car-parks/southampton-portland-terrace/", "brand": "NCP", "brand:wikidata": "Q6971273"}, "geometry": {"type": "Point", "coordinates": [-1.4062128000000484, 50.9047992]}},
{"type": "Feature", "id": "gYUJk0z3fp5Cpi-eDECz6AYZMAw=", "properties": {"ref": "https://www.ncp.co.uk/find-a-car-park/car-parks/portsmouth-market-way/", "@spider": "ncp_gb", "addr:street_address": "Market Way", "addr:city": "Portsmouth", "addr:postcode": "PO1 4AH", "addr:country": "GB", "name": "NCP Portsmouth Market Way", "website": "https://www.ncp.co.uk/find-a-car-park/car-parks/portsmouth-market-way/", "brand": "NCP", "brand:wikidata": "Q6971273"}, "geometry": {"type": "Point", "coordinates": [-1.090688499999942, 50.8030311]}},
{"type": "Feature", "id": "gMejMvedau0syd543MsPKwVc4iw=", "properties": {"ref": "https://www.ncp.co.uk/find-a-car-park/car-parks/ipswich-burrell-road/", "@spider": "ncp_gb", "addr:street_address": "Burrell Road", "addr:city": "Ipswich", "addr:postcode": "IP2 8AD", "addr:country": "GB", "name": "NCP Ipswich Burrell Road", "website": "https://www.ncp.co.uk/find-a-car-park/car-parks/ipswich-burrell-road/", "brand": "NCP", "brand:wikidata": "Q6971273"}, "geometry": {"type": "Point", "coordinates": [1.1485402000000704, 52.0506835]}},
{"type": "Feature", "id": "jFB8Bkw6wWB7LsU6vf0WSQWRJQ8=", "properties": {"ref": "https://www.ncp.co.uk/find-a-car-park/car-parks/ely-station-g-anglia/", "@spider": "ncp_gb", "addr:street_address": "Ely Station, Station Road", "addr:city": "Ely", "addr:postcode": "CB7 4BS", "addr:country": "GB", "name": "NCP Ely Station", "website": "https://www.ncp.co.uk/find-a-car-park/car-parks/ely-station-g-anglia/", "brand": "NCP", "brand:wikidata": "Q6971273"}, "geometry": {"type": "Point", "coordinates": [0.26653890000000047, 52.390988]}},
{"type": "Feature", "id": "vow_9nSLfBr5cQ8EkFRBrzEH0xA=", "properties": {"ref": "https://www.ncp.co.uk/find-a-car-park/car-parks/chelmsford-station-g-anglia/", "@spider": "ncp_gb", "addr:street_address": "Chelmsford Station, Viaduct Road", "addr:city": "Chelmsford", "addr:postcode": "CM1 1HT", "addr:country": "GB", "name": "NCP Chelmsford Station", "website": "https://www.ncp.co.uk/find-a-car-park/car-parks/chelmsford-station-g-anglia/", "brand": "NCP", "brand:wikidata": "Q6971273"}, "geometry": {"type": "Point", "coordinates": [0.4661680000000388, 51.73496230000001]}},
{"type": "Feature", "id": "whwqquG7Hd9mrtnq9jvTQKJQfSM=", "properties": {"ref": "https://www.ncp.co.uk/find-a-car-park/car-parks/cambridge-station-g-anglia/", "@spider": "ncp_gb", "addr:street_address": "Cambridge Station, Station Road", "addr:city": "Cambridge", "addr:postcode": "CB1 2JW", "addr:country": "GB", "name": "NCP Cambridge Station", "website": "https://www.ncp.co.uk/find-a-car-park/car-parks/cambridge-station-g-anglia/", "brand": "NCP", "brand:wikidata": "Q6971273"}, "geometry": {"type": "Point", "coordinates": [0.13744640000004438, 52.1942168]}},
{"type": "Feature", "id": "sWRWlsuO_bv1vqWi6zj28kKo_GI=", "properties": {"ref": "https://www.ncp.co.uk/find-a-car-park/car-parks/london-richmond-station/", "@spider": "ncp_gb", "addr:street_address": "Drummonds Place, Richmond,", "addr:city": "London", "addr:postcode": "TW9 1DN", "addr:country": "GB", "name": "NCP London Richmond Station", "website": "https://www.ncp.co.uk/find-a-car-park/car-parks/london-richmond-station/", "brand": "NCP", "brand:wikidata": "Q6971273"}, "geometry": {"type": "Point", "coordinates": [-0.300622, 51.462702]}},
{"type": "Feature", "id": "5-r_mWLBVjIxmw3fjBA0FF-kSzE=", "properties": {"ref": "https://www.ncp.co.uk/find-a-car-park/car-parks/ashford-county-square/", "@spider": "ncp_gb", "addr:street_address": "County Square, Apsley Street", "addr:city": "Ashford", "addr:postcode": "TN23 1JA", "addr:country": "GB", "name": "NCP Ashford County Square", "website": "https://www.ncp.co.uk/find-a-car-park/car-parks/ashford-county-square/", "opening_hours": "Mo-We 07:00-19:00; Th 07:00-21:00; Fr-Sa 07:00-19:00; Su 09:00-18:00", "brand": "NCP", "brand:wikidata": "Q6971273"}, "geometry": {"type": "Point", "coordinates": [0.8693779999999833, 51.147603]}},
{"type": "Feature", "id": "x90_67M-S7jAODHCPgRd_HRwjCk=", "properties": {"ref": "https://www.ncp.co.uk/find-a-car-park/car-parks/cambridge-addenbrookes-hospital/", "@spider": "ncp_gb", "addr:street_address": "Addensbrooke's Hospital, Hills Road", "addr:city": "Cambridge", "addr:postcode": "CB2 0XX", "addr:country": "GB", "name": "NCP Cambridge Addenbrookes Hospital", "website": "https://www.ncp.co.uk/find-a-car-park/car-parks/cambridge-addenbrookes-hospital/", "brand": "NCP", "brand:wikidata": "Q6971273"}, "geometry": {"type": "Point", "coordinates": [0.14066159999993033, 52.1751267]}},
{"type": "Feature", "id": "quV01czeB2uZ0p4bFxhIcyxz7OQ=", "properties": {"ref": "https://www.ncp.co.uk/find-a-car-park/car-parks/ipswich-turret-lane/", "@spider": "ncp_gb", "addr:street_address": "Turret Lane", "addr:city": "Ipswich", "addr:postcode": "IP4 1DL", "addr:country": "GB", "name": "NCP Ipswich Turret Lane", "website": "https://www.ncp.co.uk/find-a-car-park/car-parks/ipswich-turret-lane/", "brand": "NCP", "brand:wikidata": "Q6971273"}, "geometry": {"type": "Point", "coordinates": [1.1547244999999293, 52.0546744]}},
{"type": "Feature", "id": "0_KHMYsprjtF_Qm1-HzrKeyiFLM=", "properties": {"ref": "https://www.ncp.co.uk/find-a-car-park/car-parks/ipswich-tower-ramparts/", "@spider": "ncp_gb", "addr:street_address": "Tower Ramparts, Crown Street", "addr:city": "Ipswich", "addr:postcode": "IP1 3DH", "addr:country": "GB", "name": "NCP Ipswich Tower Ramparts", "website": "https://www.ncp.co.uk/find-a-car-park/car-parks/ipswich-tower-ramparts/", "brand": "NCP", "brand:wikidata": "Q6971273"}, "geometry": {"type": "Point", "coordinates": [1.1541076999999405, 52.059485]}},
{"type": "Feature", "id": "78k3Tq_l69B5KLFDszscfeekdoc=", "properties": {"ref": "https://www.ncp.co.uk/find-a-car-park/car-parks/ipswich-tackett-street/", "@spider": "ncp_gb", "addr:street_address": "Tacket Street", "addr:city": "Ipswich", "addr:postcode": "IP4 1AU", "addr:country": "GB", "name": "NCP Ipswich Tacket Street", "website": "https://www.ncp.co.uk/find-a-car-park/car-parks/ipswich-tackett-street/", "brand": "NCP", "brand:wikidata": "Q6971273"}, "geometry": {"type": "Point", "coordinates": [1.1576149999999643, 52.0557989]}},
{"type": "Feature", "id": "BBxTQljvUxPNYh1XPKcSjb0d4ug=", "properties": {"ref": "https://www.ncp.co.uk/find-a-car-park/car-parks/ipswich-station-g-anglia/", "@spider": "ncp_gb", "addr:street_address": "Ipswich Station, Burrell Road", "addr:city": "Ipswich", "addr:postcode": "IP2 8AL", "addr:country": "GB", "name": "NCP Ipswich Station", "website": "https://www.ncp.co.uk/find-a-car-park/car-parks/ipswich-station-g-anglia/", "brand": "NCP", "brand:wikidata": "Q6971273"}, "geometry": {"type": "Point", "coordinates": [1.1449466999999913, 52.0505193]}},
{"type": "Feature", "id": "f1W_P3cRg2OQaHs29wjH1Qvgr0M=", "properties": {"ref": "https://www.ncp.co.uk/find-a-car-park/car-parks/ipswich-portman-road/", "@spider": "ncp_gb", "addr:street_address": "Portman Road", "addr:city": "Ipswich", "addr:postcode": "IP1 2BP", "addr:country": "GB", "name": "NCP Ipswich Portman Road", "website": "https://www.ncp.co.uk/find-a-car-park/car-parks/ipswich-portman-road/", "brand": "NCP", "brand:wikidata": "Q6971273"}, "geometry": {"type": "Point", "coordinates": [1.1455462000000125, 52.05644849999999]}},
{"type": "Feature", "id": "xQsMoqQ3-v88q9vs7laIvgQy8kk=", "properties": {"ref": "https://www.ncp.co.uk/find-a-car-park/car-parks/ipswich-cox-lane/", "@spider": "ncp_gb", "addr:street_address": "Cox Lane", "addr:city": "Ipswich", "addr:postcode": "IP4 1HT", "addr:country": "GB", "name": "NCP Ipswich Cox Lane", "website": "https://www.ncp.co.uk/find-a-car-park/car-parks/ipswich-cox-lane/", "brand": "NCP", "brand:wikidata": "Q6971273"}, "geometry": {"type": "Point", "coordinates": [1.1584236999999575, 52.0568635]}},
{"type": "Feature", "id": "3x26Yl4NqtR6y3_YqZRCSD-DwAw=", "properties": {"ref": "https://www.ncp.co.uk/find-a-car-park/car-parks/portsmouth-cascades/", "@spider": "ncp_gb", "addr:street_address": "Cascades, Charlotte Street", "addr:city": "Portsmouth", "addr:postcode": "PO1 4RS", "addr:country": "GB", "name": "NCP Portsmouth Cascades", "website": "https://www.ncp.co.uk/find-a-car-park/car-parks/portsmouth-cascades/", "opening_hours": "Mo-Sa 08:00-18:30; Su 10:00-16:30", "brand": "NCP", "brand:wikidata": "Q6971273"}, "geometry": {"type": "Point", "coordinates": [-1.0901954999999361, 50.8015465]}},
{"type": "Feature", "id": "dEbNKLOu0LqpYdNb9Lt1hLAZgEM=", "properties": {"ref": "https://www.ncp.co.uk/find-a-car-park/car-parks/gloucester-blackfriars/", "@spider": "ncp_gb", "addr:street_address": "Blackfriars, Ladybellegate Street", "addr:city": "Gloucester", "addr:postcode": "GL1 2HJ", "addr:country": "GB", "name": "NCP Gloucester Blackfriars", "website": "https://www.ncp.co.uk/find-a-car-park/car-parks/gloucester-blackfriars/", "brand": "NCP", "brand:wikidata": "Q6971273"}, "geometry": {"type": "Point", "coordinates": [-2.2485577999999578, 51.8642489]}},
{"type": "Feature", "id": "RsL9n40Z24JpCIiaK1JD156PHl4=", "properties": {"ref": "https://www.ncp.co.uk/find-a-car-park/car-parks/hereford-berrington-st/", "@spider": "ncp_gb", "addr:street_address": "Berrington Street", "addr:city": "Hereford", "addr:postcode": "HR4 0BJ", "addr:country": "GB", "name": "NCP Hereford Berrington St", "website": "https://www.ncp.co.uk/find-a-car-park/car-parks/hereford-berrington-st/", "brand": "NCP", "brand:wikidata": "Q6971273"}, "geometry": {"type": "Point", "coordinates": [-2.7194434000000456, 52.0551519]}},
{"type": "Feature", "id": "TPSA6mLkzn1BlF2BvQqwgGdAXE0=", "properties": {"ref": "https://www.ncp.co.uk/find-a-car-park/car-parks/truro-highcross/", "@spider": "ncp_gb", "addr:street_address": "Highcross, St Clement Street", "addr:city": "Truro", "addr:postcode": "TR1 1DQ", "addr:country": "GB", "name": "NCP Truro Highcross", "website": "https://www.ncp.co.uk/find-a-car-park/car-parks/truro-highcross/", "brand": "NCP", "brand:wikidata": "Q6971273"}, "geometry": {"type": "Point", "coordinates": [-5.052088200000071, 50.2654812]}},
{"type": "Feature", "id": "GMM-gHwZyuTIcinyjiSv-xaFo_0=", "properties": {"ref": "https://www.ncp.co.uk/find-a-car-park/car-parks/dundee-north-lindsay-street/", "@spider": "ncp_gb", "addr:street_address": "North Lindsay Street", "addr:city": "Dundee", "addr:postcode": "DD1 1QA", "addr:country": "GB", "name": "NCP Dundee North Lindsay Street", "website": "https://www.ncp.co.uk/find-a-car-park/car-parks/dundee-north-lindsay-street/", "brand": "NCP", "brand:wikidata": "Q6971273"}, "geometry": {"type": "Point", "coordinates": [-2.974682199999961, 56.4601292]}},
{"type": "Feature", "id": "hoRc0NMuUQAkm8rrGVlpaXPtqu8=", "properties": {"ref": "https://www.ncp.co.uk/find-a-car-park/car-parks/dundee-marketgait/", "@spider": "ncp_gb", "addr:street_address": "Marketgait", "addr:city": "Dundee", "addr:postcode": "DD1 1QP", "addr:country": "GB", "name": "NCP Dundee Marketgait", "website": "https://www.ncp.co.uk/find-a-car-park/car-parks/dundee-marketgait/", "opening_hours": "Mo-We 06:00-19:00; Th 06:00-20:30; Fr-Sa 06:00-19:00; Su 09:00-18:00", "brand": "NCP", "brand:wikidata": "Q6971273"}, "geometry": {"type": "Point", "coordinates": [-2.9748402999999826, 56.4587689]}},
{"type": "Feature", "id": "6kXyxfWqmp5SKK5ltohQgKVJc0M=", "properties": {"ref": "https://www.ncp.co.uk/find-a-car-park/car-parks/dundee-bank-street/", "@spider": "ncp_gb", "addr:street_address": "Bank Street", "addr:city": "Dundee", "addr:postcode": "DD1 1RW", "addr:country": "GB", "name": "NCP Dundee Bank Street", "website": "https://www.ncp.co.uk/find-a-car-park/car-parks/dundee-bank-street/", "opening_hours": "Mo-We 07:00-21:00; Th-Fr 07:00-23:00; Sa 08:00-23:00; Su 09:00-21:00", "brand": "NCP", "brand:wikidata": "Q6971273"}, "geometry": {"type": "Point", "coordinates": [-2.9724472000000333, 56.4609365]}},
{"type": "Feature", "id": "0s89lwiTEAGBuN997KrkLN_pHsI=", "properties": {"ref": "https://www.ncp.co.uk/find-a-car-park/car-parks/newport-north-street/", "@spider": "ncp_gb", "addr:street_address": "North Street", "addr:city": "Newport", "addr:postcode": "NP20 1JZ", "addr:country": "GB", "name": "NCP Newport North Street", "website": "https://www.ncp.co.uk/find-a-car-park/car-parks/newport-north-street/", "brand": "NCP", "brand:wikidata": "Q6971273"}, "geometry": {"type": "Point", "coordinates": [-2.997939599999995, 51.58632679999999]}},
{"type": "Feature", "id": "AitaGN4ZEAhdFjbnoPajJyYCjYo=", "properties": {"ref": "https://www.ncp.co.uk/find-a-car-park/car-parks/newport-high-street/", "@spider": "ncp_gb", "addr:street_address": "High Street, Queensway, Old Post Office Site", "addr:city": "Newport", "addr:postcode": "NP20 4AX", "addr:country": "GB", "name": "NCP Newport High Street", "website": "https://www.ncp.co.uk/find-a-car-park/car-parks/newport-high-street/", "opening_hours": "Mo-Fr 06:00-21:00; Sa 07:00-21:00", "brand": "NCP", "brand:wikidata": "Q6971273"}, "geometry": {"type": "Point", "coordinates": [-2.996560700000032, 51.5900407]}},
{"type": "Feature", "id": "_Q4ChG5ZHbGzjXXbNJlTLhgCO-4=", "properties": {"ref": "https://www.ncp.co.uk/find-a-car-park/car-parks/kingston-fairfield/", "@spider": "ncp_gb", "addr:street_address": "Fairfield, Lady Booth Road", "addr:city": "Kingston", "addr:postcode": "KT1 2PR", "addr:country": "GB", "name": "NCP Kingston Fairfield", "website": "https://www.ncp.co.uk/find-a-car-park/car-parks/kingston-fairfield/", "brand": "NCP", "brand:wikidata": "Q6971273"}, "geometry": {"type": "Point", "coordinates": [-0.30144700000005287, 51.409478]}},
{"type": "Feature", "id": "uzRMNIcrOGvVBwBLHEEtn8G-iJg=", "properties": {"ref": "https://www.ncp.co.uk/find-a-car-park/car-parks/epsom-the-ebbisham-centre/", "@spider": "ncp_gb", "addr:street_address": "Ebbisham Centre, Waterloo Road", "addr:city": "Epsom", "addr:postcode": "KT19 8AG", "addr:country": "GB", "name": "NCP Epsom The Ebbisham Centre", "website": "https://www.ncp.co.uk/find-a-car-park/car-parks/epsom-the-ebbisham-centre/", "brand": "NCP", "brand:wikidata": "Q6971273"}, "geometry": {"type": "Point", "coordinates": [-0.26615000000003874, 51.3343453]}},
{"type": "Feature", "id": "ZqsDrZkx1uMwXj21f5VlPzMRRno=", "properties": {"ref": "https://www.ncp.co.uk/find-a-car-park/car-parks/colchester-station-g-anglia/", "@spider": "ncp_gb", "addr:street_address": "Colchester Station, North Station Road", "addr:city": "Colchester", "addr:postcode": "CO1 1XD", "addr:country": "GB", "name": "NCP Colchester Station", "website": "https://www.ncp.co.uk/find-a-car-park/car-parks/colchester-station-g-anglia/", "brand": "NCP", "brand:wikidata": "Q6971273"}, "geometry": {"type": "Point", "coordinates": [0.8926289999999426, 51.900723]}},
{"type": "Feature", "id": "UrU6zXbjJiS6eIqCs-tFfzgDSzo=", "properties": {"ref": "https://www.ncp.co.uk/find-a-car-park/car-parks/london-portland-place/", "@spider": "ncp_gb", "addr:street_address": "Portland Place, 6-7 Weymouth Mews", "addr:city": "London", "addr:postcode": "W1B 1QE", "addr:country": "GB", "name": "NCP London Portland Place", "website": "https://www.ncp.co.uk/find-a-car-park/car-parks/london-portland-place/", "brand": "NCP", "brand:wikidata": "Q6971273"}, "geometry": {"type": "Point", "coordinates": [-0.145965, 51.520286]}},
{"type": "Feature", "id": "2M-bErQP7HvX4wrqtg25JAoC7LE=", "properties": {"ref": "https://www.ncp.co.uk/find-a-car-park/car-parks/bromley-the-mall/", "@spider": "ncp_gb", "addr:street_address": "Bromley The Mall, Elmfield Road", "addr:city": "Bromley", "addr:postcode": "BR1 1TR", "addr:country": "GB", "name": "NCP Bromley The Mall", "website": "https://www.ncp.co.uk/find-a-car-park/car-parks/bromley-the-mall/", "brand": "NCP", "brand:wikidata": "Q6971273"}, "geometry": {"type": "Point", "coordinates": [0.01670569999998861, 51.40233569999999]}},
{"type": "Feature", "id": "EFqQ-cmBER5p33XgGf5BsYlgGGY=", "properties": {"ref": "https://www.ncp.co.uk/find-a-car-park/car-parks/worcester-cathedral/", "@spider": "ncp_gb", "addr:street_address": "Cathedral, College Street", "addr:city": "Worcester", "addr:postcode": "WR1 2LU", "addr:country": "GB", "name": "NCP Worcester Cathedral Square", "website": "https://www.ncp.co.uk/find-a-car-park/car-parks/worcester-cathedral/", "brand": "NCP", "brand:wikidata": "Q6971273"}, "geometry": {"type": "Point", "coordinates": [-2.2207065000000057, 52.18872589999999]}},
{"type": "Feature", "id": "bRC_LMb4VlnD02r6N5IXs0CODvo=", "properties": {"ref": "https://www.ncp.co.uk/find-a-car-park/car-parks/wolverhampton-summer-row/", "@spider": "ncp_gb", "addr:street_address": "Summer Row, Temple Street", "addr:city": "Wolverhampton", "addr:postcode": "WV2 4AU", "addr:country": "GB", "name": "NCP Wolverhampton Summer Row", "website": "https://www.ncp.co.uk/find-a-car-park/car-parks/wolverhampton-summer-row/", "brand": "NCP", "brand:wikidata": "Q6971273"}, "geometry": {"type": "Point", "coordinates": [-2.1292636000000584, 52.5821963]}},
{"type": "Feature", "id": "_mRiqpKrRzEGYXybBQei27BNqcc=", "properties": {"ref": "https://www.ncp.co.uk/find-a-car-park/car-parks/stratford-on-avon-rother-st/", "@spider": "ncp_gb", "addr:street_address": "Rother Street", "addr:city": "Stratford on Avon", "addr:postcode": "CV37 6JP", "addr:country": "GB", "name": "NCP Stratford on Avon Rother St", "website": "https://www.ncp.co.uk/find-a-car-park/car-parks/stratford-on-avon-rother-st/", "brand": "NCP", "brand:wikidata": "Q6971273"}, "geometry": {"type": "Point", "coordinates": [-1.7087265000000116, 52.1919086]}},
{"type": "Feature", "id": "gXI2ubKeAZLbCX9IiN_DDW7bOXY=", "properties": {"ref": "https://www.ncp.co.uk/find-a-car-park/car-parks/nottingham-huntingdon-street/", "@spider": "ncp_gb", "addr:street_address": "Union Road", "addr:city": "Nottingham", "addr:postcode": "NG3 1FG", "addr:country": "GB", "name": "NCP Nottingham Huntingdon Street", "website": "https://www.ncp.co.uk/find-a-car-park/car-parks/nottingham-huntingdon-street/", "brand": "NCP", "brand:wikidata": "Q6971273"}, "geometry": {"type": "Point", "coordinates": [-1.1444437000000107, 52.9584948]}},
{"type": "Feature", "id": "iVmheRBHuzA_BbIdXB88U0YimGM=", "properties": {"ref": "https://www.ncp.co.uk/find-a-car-park/car-parks/leeds-wellington-place/", "@spider": "ncp_gb", "addr:street_address": "Wellington Place", "addr:city": "Leeds", "addr:postcode": "LS1 4AJ", "addr:country": "GB", "name": "NCP Leeds Wellington Place", "website": "https://www.ncp.co.uk/find-a-car-park/car-parks/leeds-wellington-place/", "brand": "NCP", "brand:wikidata": "Q6971273"}, "geometry": {"type": "Point", "coordinates": [-1.5577716000000237, 53.7962079]}},
{"type": "Feature", "id": "k6-7l7-EFbQyhmDG1cUxCy9fGdc=", "properties": {"ref": "https://www.ncp.co.uk/find-a-car-park/car-parks/edinburgh-st-johns-hill/", "@spider": "ncp_gb", "addr:street_address": "2 Viewcraig Gardens", "addr:city": "Edinburgh", "addr:postcode": "EH8 9UL", "addr:country": "GB", "name": "NCP Edinburgh Holyrood", "website": "https://www.ncp.co.uk/find-a-car-park/car-parks/edinburgh-st-johns-hill/", "brand": "NCP", "brand:wikidata": "Q6971273"}, "geometry": {"type": "Point", "coordinates": [-3.1815096999999923, 55.94904]}},
{"type": "Feature", "id": "6XGJ-b_y-xxFXIS8oU69ruLfOEs=", "properties": {"ref": "https://www.ncp.co.uk/find-a-car-park/car-parks/cardiff-adam-street/", "@spider": "ncp_gb", "addr:street_address": "Adam Street", "addr:city": "Cardiff", "addr:postcode": "CF24 2FH", "addr:country": "GB", "name": "NCP Cardiff Adam Street", "website": "https://www.ncp.co.uk/find-a-car-park/car-parks/cardiff-adam-street/", "brand": "NCP", "brand:wikidata": "Q6971273"}, "geometry": {"type": "Point", "coordinates": [-3.1692650999999614, 51.4788528]}},
{"type": "Feature", "id": "IHCL4-Sp_VM_Ip5xZag531eJV4U=", "properties": {"ref": "https://www.ncp.co.uk/find-a-car-park/car-parks/cardiff-pellett-street/", "@spider": "ncp_gb", "addr:street_address": "Pellett Street", "addr:city": "Cardiff", "addr:postcode": "CF10 4FD", "addr:country": "GB", "name": "NCP Cardiff Pellett Street", "website": "https://www.ncp.co.uk/find-a-car-park/car-parks/cardiff-pellett-street/", "brand": "NCP", "brand:wikidata": "Q6971273"}, "geometry": {"type": "Point", "coordinates": [-3.170373799999993, 51.4785097]}},
{"type": "Feature", "id": "qlBn2gKaR1X-DHAQMoGKViPg6LY=", "properties": {"ref": "https://www.ncp.co.uk/find-a-car-park/car-parks/cardiff-knox-road/", "@spider": "ncp_gb", "addr:street_address": "Knox Road, 1 Knox Road", "addr:city": "Cardiff", "addr:postcode": "CF24 0EA", "addr:country": "GB", "name": "NCP Knox Road", "website": "https://www.ncp.co.uk/find-a-car-park/car-parks/cardiff-knox-road/", "brand": "NCP", "brand:wikidata": "Q6971273"}, "geometry": {"type": "Point", "coordinates": [-3.1679970999999796, 51.4822571]}},
{"type": "Feature", "id": "iLYLSsehku_Nti8r2kX3q1SYSVw=", "properties": {"ref": "https://www.ncp.co.uk/find-a-car-park/car-parks/cardiff-greyfriars/", "@spider": "ncp_gb", "addr:street_address": "Greyfriars, Greyfriars Road", "addr:city": "Cardiff", "addr:postcode": "CF10 3AD", "addr:country": "GB", "name": "NCP Cardiff Greyfriars", "website": "https://www.ncp.co.uk/find-a-car-park/car-parks/cardiff-greyfriars/", "brand": "NCP", "brand:wikidata": "Q6971273"}, "geometry": {"type": "Point", "coordinates": [3.176204, 51.483126]}},
{"type": "Feature", "id": "oGBCx3oCucmwW163ro7rmMFHIcw=", "properties": {"ref": "https://www.ncp.co.uk/find-a-car-park/car-parks/cardiff-dumfries-place/", "@spider": "ncp_gb", "addr:street_address": "Dumfries Place, Off St Andrews Lane", "addr:city": "Cardiff", "addr:postcode": "CF10 3FN", "addr:country": "GB", "name": "NCP Cardiff Dumfries Place", "website": "https://www.ncp.co.uk/find-a-car-park/car-parks/cardiff-dumfries-place/", "brand": "NCP", "brand:wikidata": "Q6971273"}, "geometry": {"type": "Point", "coordinates": [-3.1714908999999807, 51.4840347]}},
{"type": "Feature", "id": "GI-jSXbvNGiffx_u8kOqYNynagk=", "properties": {"ref": "https://www.ncp.co.uk/find-a-car-park/car-parks/cardiff-castle-court/", "@spider": "ncp_gb", "addr:street_address": "Castle Court, Westgate Street", "addr:city": "Cardiff", "addr:postcode": "CF10 1DB", "addr:country": "GB", "name": "NCP Cardiff Stadium", "website": "https://www.ncp.co.uk/find-a-car-park/car-parks/cardiff-castle-court/", "brand": "NCP", "brand:wikidata": "Q6971273"}, "geometry": {"type": "Point", "coordinates": [-3.182134000000019, 51.4799792]}},
{"type": "Feature", "id": "u61clZBQ4A9GTzUhu8k3uRrLUP4=", "properties": {"ref": "https://www.ncp.co.uk/find-a-car-park/car-parks/cardiff-westgate-street/", "@spider": "ncp_gb", "addr:street_address": "Westgate Street, Quay Street", "addr:city": "Cardiff", "addr:postcode": "CF10 1DZ", "addr:country": "GB", "name": "NCP Cardiff Westgate Street", "website": "https://www.ncp.co.uk/find-a-car-park/car-parks/cardiff-westgate-street/", "brand": "NCP", "brand:wikidata": "Q6971273"}, "geometry": {"type": "Point", "coordinates": [-3.18113900000003, 51.47969459999999]}},
{"type": "Feature", "id": "RlwT_GMG_TOxbm9ECH5qX9LD1Bk=", "properties": {"ref": "https://www.ncp.co.uk/find-a-car-park/car-parks/cardiff-rapports/", "@spider": "ncp_gb", "addr:street_address": "Rapports, David Street", "addr:city": "Cardiff", "addr:postcode": "CF10 2EH", "addr:country": "GB", "name": "NCP Cardiff Rapports", "website": "https://www.ncp.co.uk/find-a-car-park/car-parks/cardiff-rapports/", "brand": "NCP", "brand:wikidata": "Q6971273"}, "geometry": {"type": "Point", "coordinates": [-3.171707500000025, 51.4797927]}},
{"type": "Feature", "id": "gF6MWRLCJUCafD5I8Jmqq1_3JCU=", "properties": {"ref": "https://www.ncp.co.uk/find-a-car-park/car-parks/edinburgh-castle-terrace/", "@spider": "ncp_gb", "addr:street_address": "Castle Terrace", "addr:city": "Edinburgh", "addr:postcode": "EH1 2EW", "addr:country": "GB", "name": "NCP Edinburgh Castle Terrace", "website": "https://www.ncp.co.uk/find-a-car-park/car-parks/edinburgh-castle-terrace/", "brand": "NCP", "brand:wikidata": "Q6971273"}, "geometry": {"type": "Point", "coordinates": [-3.203239100000019, 55.9475372]}},
{"type": "Feature", "id": "aKX6btHlRRsUrEizEFmYIQn2UDA=", "properties": {"ref": "https://www.ncp.co.uk/find-a-car-park/car-parks/glasgow-the-glasshouse/", "@spider": "ncp_gb", "addr:street_address": "The Glasshouse, Glassford Street", "addr:city": "Glasgow", "addr:postcode": "G1 1UP", "addr:country": "GB", "name": "NCP Glasgow The Glasshouse", "website": "https://www.ncp.co.uk/find-a-car-park/car-parks/glasgow-the-glasshouse/", "brand": "NCP", "brand:wikidata": "Q6971273"}, "geometry": {"type": "Point", "coordinates": [-4.248837099999946, 55.858374]}},
{"type": "Feature", "id": "falM3Np7xGPuB22rRJtakDa1LLU=", "properties": {"ref": "https://www.ncp.co.uk/find-a-car-park/car-parks/glasgow-central-station/", "@spider": "ncp_gb", "addr:street_address": "Oswald Street, 38 Oswald Street", "addr:city": "Glasgow", "addr:postcode": "G1 4PA", "addr:country": "GB", "name": "NCP Glasgow Central Station", "website": "https://www.ncp.co.uk/find-a-car-park/car-parks/glasgow-central-station/", "brand": "NCP", "brand:wikidata": "Q6971273"}, "geometry": {"type": "Point", "coordinates": [-4.259543399999984, 55.8574539]}},
{"type": "Feature", "id": "nk5qjpfyb1vOMiKlqvdOqGqarsg=", "properties": {"ref": "https://www.ncp.co.uk/find-a-car-park/car-parks/glasgow-mitchell-street/", "@spider": "ncp_gb", "addr:street_address": "Mitchell Street, 81 Mitchell Street", "addr:city": "Glasgow", "addr:postcode": "G1 3LN", "addr:country": "GB", "name": "NCP Glasgow Mitchell Street", "website": "https://www.ncp.co.uk/find-a-car-park/car-parks/glasgow-mitchell-street/", "brand": "NCP", "brand:wikidata": "Q6971273"}, "geometry": {"type": "Point", "coordinates": [-4.2560763999999836, 55.8598564]}},
{"type": "Feature", "id": "__jKu9DZxmGISQUHAgpyDZlGreA=", "properties": {"ref": "https://www.ncp.co.uk/find-a-car-park/car-parks/glasgow-king-street/", "@spider": "ncp_gb", "addr:street_address": "King Street", "addr:city": "Glasgow", "addr:postcode": "G1 5QT", "addr:country": "GB", "name": "NCP Glasgow King Street", "website": "https://www.ncp.co.uk/find-a-car-park/car-parks/glasgow-king-street/", "brand": "NCP", "brand:wikidata": "Q6971273"}, "geometry": {"type": "Point", "coordinates": [-4.246799199999941, 55.8559818]}},
{"type": "Feature", "id": "LueMFXFYDJb0VWqlNA-PbggDqN0=", "properties": {"ref": "https://www.ncp.co.uk/find-a-car-park/car-parks/glasgow-ingram-street/", "@spider": "ncp_gb", "addr:street_address": "Ingram Street", "addr:city": "Glasgow", "addr:postcode": "G1 1DJ", "addr:country": "GB", "name": "NCP Glasgow Ingram Street", "website": "https://www.ncp.co.uk/find-a-car-park/car-parks/glasgow-ingram-street/", "brand": "NCP", "brand:wikidata": "Q6971273"}, "geometry": {"type": "Point", "coordinates": [-4.246355300000005, 55.8596004]}},
{"type": "Feature", "id": "y5gtrr0sJGFdHxUxB38od-PBSm8=", "properties": {"ref": "https://www.ncp.co.uk/find-a-car-park/car-parks/glasgow-george-street/", "@spider": "ncp_gb", "addr:street_address": "George Street, 68 Montrose Street", "addr:city": "Glasgow", "addr:postcode": "G1 1RS", "addr:country": "GB", "name": "NCP Glasgow George Street", "website": "https://www.ncp.co.uk/find-a-car-park/car-parks/glasgow-george-street/", "brand": "NCP", "brand:wikidata": "Q6971273"}, "geometry": {"type": "Point", "coordinates": [-4.245016200000009, 55.8613244]}},
{"type": "Feature", "id": "LFXcXlWvGSE936mWhUMvYulp3us=", "properties": {"ref": "https://www.ncp.co.uk/find-a-car-park/car-parks/leeds-the-markets/", "@spider": "ncp_gb", "addr:street_address": "The Markets", "addr:city": "Leeds", "addr:postcode": "LS2 7EA", "addr:country": "GB", "name": "NCP Leeds The Markets", "website": "https://www.ncp.co.uk/find-a-car-park/car-parks/leeds-the-markets/", "brand": "NCP", "brand:wikidata": "Q6971273"}, "geometry": {"type": "Point", "coordinates": [-1.537066999999979, 53.796672]}},
{"type": "Feature", "id": "rGR2Z-5003mcMxEDukuhZ2YXWa8=", "properties": {"ref": "https://www.ncp.co.uk/find-a-car-park/car-parks/leeds-schofields/", "@spider": "ncp_gb", "addr:street_address": "Schofields, Albion Street", "addr:city": "Leeds", "addr:postcode": "LS1 6AD", "addr:country": "GB", "name": "NCP Leeds The Core", "website": "https://www.ncp.co.uk/find-a-car-park/car-parks/leeds-schofields/", "brand": "NCP", "brand:wikidata": "Q6971273"}, "geometry": {"type": "Point", "coordinates": [-1.5447163999999702, 53.7984138]}},
{"type": "Feature", "id": "55QwwtAbCeIOV2tyfc8YD8gG4-0=", "properties": {"ref": "https://www.ncp.co.uk/find-a-car-park/car-parks/newcastle-john-dobson-street/", "@spider": "ncp_gb", "addr:street_address": "John Dobson Street", "addr:city": "Newcastle", "addr:postcode": "NE1 8HL", "addr:country": "GB", "name": "NCP Newcastle John Dobson Street", "website": "https://www.ncp.co.uk/find-a-car-park/car-parks/newcastle-john-dobson-street/", "brand": "NCP", "brand:wikidata": "Q6971273"}, "geometry": {"type": "Point", "coordinates": [-1.6108348000000206, 54.976454]}},
{"type": "Feature", "id": "dKWoJJwKspSyHgwxZZY09ZthD_c=", "properties": {"ref": "https://www.ncp.co.uk/find-a-car-park/car-parks/nottingham-st-james-street/", "@spider": "ncp_gb", "addr:street_address": "St James Street, 5 St James Street", "addr:city": "Nottingham", "addr:postcode": "NG1 6EY", "addr:country": "GB", "name": "NCP Nottingham St James Street", "website": "https://www.ncp.co.uk/find-a-car-park/car-parks/nottingham-st-james-street/", "brand": "NCP", "brand:wikidata": "Q6971273"}, "geometry": {"type": "Point", "coordinates": [-1.1536318999999366, 52.95194919999999]}},
{"type": "Feature", "id": "MjOp9RJaEG3n1AQ02WrknG9NWCA=", "properties": {"ref": "https://www.ncp.co.uk/find-a-car-park/car-parks/nottingham-mount-street/", "@spider": "ncp_gb", "addr:street_address": "Mount Street", "addr:city": "Nottingham", "addr:postcode": "NG1 6HG", "addr:country": "GB", "name": "NCP Nottingham Mount Street", "website": "https://www.ncp.co.uk/find-a-car-park/car-parks/nottingham-mount-street/", "brand": "NCP", "brand:wikidata": "Q6971273"}, "geometry": {"type": "Point", "coordinates": [-1.154205700000034, 52.95311659999999]}},
{"type": "Feature", "id": "YZUigD_1iuQsPRb86xm5D6YAPrA=", "properties": {"ref": "https://www.ncp.co.uk/find-a-car-park/car-parks/nottingham-arndale-centre/", "@spider": "ncp_gb", "addr:street_address": "Arndale Centre, Maid Marian Way", "addr:city": "Nottingham", "addr:postcode": "NG1 6AE", "addr:country": "GB", "name": "NCP Nottingham Maid Marian Way", "website": "https://www.ncp.co.uk/find-a-car-park/car-parks/nottingham-arndale-centre/", "brand": "NCP", "brand:wikidata": "Q6971273"}, "geometry": {"type": "Point", "coordinates": [-1.1503765999999587, 52.9496325]}},
{"type": "Feature", "id": "blcL89DL_7uI7vhcJ5ZFvCnW39Q=", "properties": {"ref": "https://www.ncp.co.uk/find-a-car-park/car-parks/nottingham-stoney-street/", "@spider": "ncp_gb", "addr:street_address": "Stoney Street", "addr:city": "Nottingham", "addr:postcode": "NG1 1LS", "addr:country": "GB", "name": "NCP Nottingham Stoney Street", "website": "https://www.ncp.co.uk/find-a-car-park/car-parks/nottingham-stoney-street/", "brand": "NCP", "brand:wikidata": "Q6971273"}, "geometry": {"type": "Point", "coordinates": [-1.1428935999999794, 52.9521819]}},
{"type": "Feature", "id": "tmB9PnmT54ERKRECc9wrw3Pezrs=", "properties": {"ref": "https://www.ncp.co.uk/find-a-car-park/car-parks/wolverhampton-pipers-row/", "@spider": "ncp_gb", "addr:street_address": "Pipers Row", "addr:city": "Wolverhampton", "addr:postcode": "WV1 3LA", "addr:country": "GB", "name": "NCP Wolverhampton Pipers Row", "website": "https://www.ncp.co.uk/find-a-car-park/car-parks/wolverhampton-pipers-row/", "brand": "NCP", "brand:wikidata": "Q6971273"}, "geometry": {"type": "Point", "coordinates": [-2.122760400000061, 52.58525419999999]}},
{"type": "Feature", "id": "DFX0dCEeZauZpeHux8kcFTfhMwU=", "properties": {"ref": "https://www.ncp.co.uk/find-a-car-park/car-parks/wolverhampton-fryer-street/", "@spider": "ncp_gb", "addr:street_address": "Fryer Street", "addr:city": "Wolverhampton", "addr:postcode": "WV1 1HT", "addr:country": "GB", "name": "NCP Wolverhampton Fryer Street", "website": "https://www.ncp.co.uk/find-a-car-park/car-parks/wolverhampton-fryer-street/", "brand": "NCP", "brand:wikidata": "Q6971273"}, "geometry": {"type": "Point", "coordinates": [-2.1237400999999636, 52.5875047]}},
{"type": "Feature", "id": "tEd_KYYGBrOy5Z6UKDzbKqfAMsc=", "properties": {"ref": "https://www.ncp.co.uk/find-a-car-park/car-parks/wolverhampton-church-street/", "@spider": "ncp_gb", "addr:street_address": "Church Street", "addr:city": "Wolverhampton", "addr:postcode": "WV2 4LW", "addr:country": "GB", "name": "NCP Wolverhampton Church Street", "website": "https://www.ncp.co.uk/find-a-car-park/car-parks/wolverhampton-church-street/", "brand": "NCP", "brand:wikidata": "Q6971273"}, "geometry": {"type": "Point", "coordinates": [-2.131316800000036, 52.581317]}},
{"type": "Feature", "id": "WED6_j7KBDJ3VeomPg3X4M917cY=", "properties": {"ref": "https://www.ncp.co.uk/find-a-car-park/car-parks/colchester-osborne-street/", "@spider": "ncp_gb", "addr:street_address": "Osborne Street", "addr:city": "Colchester", "addr:postcode": "CO2 7DP", "addr:country": "GB", "name": "NCP Colchester Osbourne Street", "website": "https://www.ncp.co.uk/find-a-car-park/car-parks/colchester-osborne-street/", "brand": "NCP", "brand:wikidata": "Q6971273"}, "geometry": {"type": "Point", "coordinates": [0.9018914000000677, 51.8871057]}},
{"type": "Feature", "id": "6fZrFUIuo3Rw78ZrrPX46BDfMrk=", "properties": {"ref": "https://www.ncp.co.uk/find-a-car-park/car-parks/colchester-high-street/", "@spider": "ncp_gb", "addr:street_address": "Nunns Road", "addr:city": "Colchester", "addr:postcode": "CO1 1EJ", "addr:country": "GB", "name": "NCP Colchester High Street", "website": "https://www.ncp.co.uk/find-a-car-park/car-parks/colchester-high-street/", "brand": "NCP", "brand:wikidata": "Q6971273"}, "geometry": {"type": "Point", "coordinates": [0.8973101999999926, 51.89177549999999]}},
{"type": "Feature", "id": "g_6vB2huSC235dG6G6tPHw1hc4Y=", "properties": {"ref": "https://www.ncp.co.uk/find-a-car-park/car-parks/crawley-parkside/", "@spider": "ncp_gb", "addr:street_address": "Parkside, R/O The Martlets, Parkside", "addr:city": "Crawley", "addr:postcode": "RH10 1EH", "addr:country": "GB", "name": "NCP Crawley Parkside", "website": "https://www.ncp.co.uk/find-a-car-park/car-parks/crawley-parkside/", "brand": "NCP", "brand:wikidata": "Q6971273"}, "geometry": {"type": "Point", "coordinates": [-0.1856471999999485, 51.1148693]}},
{"type": "Feature", "id": "2tNAw6MkOFwRg4MJvpvP9dV6GmE=", "properties": {"ref": "https://www.ncp.co.uk/find-a-car-park/car-parks/crawley-cross-keys/", "@spider": "ncp_gb", "addr:street_address": "Cross Keys", "addr:city": "Crawley", "addr:postcode": "RH10 1HB", "addr:country": "GB", "name": "NCP Crawley Cross Keys", "website": "https://www.ncp.co.uk/find-a-car-park/car-parks/crawley-cross-keys/", "brand": "NCP", "brand:wikidata": "Q6971273"}, "geometry": {"type": "Point", "coordinates": [-0.18907439999998132, 51.1148525]}},
{"type": "Feature", "id": "4WhtxKb9gc0QOYsgRsV1HDhiH-k=", "properties": {"ref": "https://www.ncp.co.uk/find-a-car-park/car-parks/crawley-boulevard-west/", "@spider": "ncp_gb", "addr:street_address": "Boulevard West", "addr:city": "Crawley", "addr:postcode": "RH10 1XP", "addr:country": "GB", "name": "NCP Crawley Boulevard West", "website": "https://www.ncp.co.uk/find-a-car-park/car-parks/crawley-boulevard-west/", "brand": "NCP", "brand:wikidata": "Q6971273"}, "geometry": {"type": "Point", "coordinates": [-0.18736020000005738, 51.1164176]}},
{"type": "Feature", "id": "diZvV_Mkk5sF0EC-x82sIxEttWg=", "properties": {"ref": "https://www.ncp.co.uk/find-a-car-park/car-parks/crawley-boulevard-east/", "@spider": "ncp_gb", "addr:street_address": "Boulevard East", "addr:city": "Crawley", "addr:postcode": "RH10 1XP", "addr:country": "GB", "name": "NCP Crawley Boulevard East", "website": "https://www.ncp.co.uk/find-a-car-park/car-parks/crawley-boulevard-east/", "brand": "NCP", "brand:wikidata": "Q6971273"}, "geometry": {"type": "Point", "coordinates": [-0.18692559999999503, 51.1161733]}},
{"type": "Feature", "id": "jtt3PoD1xV_QCTrnHbLXF-1WBQQ=", "properties": {"ref": "https://www.ncp.co.uk/find-a-car-park/car-parks/epsom-high-street/", "@spider": "ncp_gb", "addr:street_address": "High Street, 102 High Street", "addr:city": "Epsom", "addr:postcode": "KT19 8BY", "addr:country": "GB", "name": "NCP Epsom High Street", "website": "https://www.ncp.co.uk/find-a-car-park/car-parks/epsom-high-street/", "brand": "NCP", "brand:wikidata": "Q6971273"}, "geometry": {"type": "Point", "coordinates": [-0.2698086999999987, 51.3332145]}},
{"type": "Feature", "id": "f2-DwDzC4UIt4kiucQuvkNtRttY=", "properties": {"ref": "https://www.ncp.co.uk/parking-solutions/airports/newcastle-airport/", "@spider": "ncp_gb", "addr:street_address": "Newcastle International Airport, Woolsington", "addr:city": "Newcastle upon Tyne", "addr:postcode": "NE13 8BZ", "addr:country": "GB", "name": "NCP Newcastle Airport", "website": "https://www.ncp.co.uk/parking-solutions/airports/newcastle-airport/", "brand": "NCP", "brand:wikidata": "Q6971273"}, "geometry": {"type": "Point", "coordinates": [-1.693075, 55.039335]}},
{"type": "Feature", "id": "k5gyeUlbFWZRC1egST7_DVgBByk=", "properties": {"ref": "https://www.ncp.co.uk/parking-solutions/airports/liverpool-john-lennon-airport/", "@spider": "ncp_gb", "addr:street_address": "Speke Hall Avenue, Speke", "addr:city": "Liverpool", "addr:postcode": "L24 1YD", "addr:country": "GB", "name": "NCP Liverpool John Lennon Airport", "website": "https://www.ncp.co.uk/parking-solutions/airports/liverpool-john-lennon-airport/", "brand": "NCP", "brand:wikidata": "Q6971273"}, "geometry": {"type": "Point", "coordinates": [-2.854983, 53.335856]}},
{"type": "Feature", "id": "dL15kumotGxMVDaKaSDFH8AQCRg=", "properties": {"ref": "https://www.ncp.co.uk/parking-solutions/airports/london-luton-airport/", "@spider": "ncp_gb", "addr:street_address": "Luton Airport, Airport Way", "addr:city": "Luton", "addr:postcode": "LU2 9LY", "addr:country": "GB", "name": "NCP Luton Airport", "website": "https://www.ncp.co.uk/parking-solutions/airports/london-luton-airport/", "brand": "NCP", "brand:wikidata": "Q6971273"}, "geometry": {"type": "Point", "coordinates": [-0.37607, 51.879294]}},
{"type": "Feature", "id": "ID8g9boknNxbCZLURnv4zOul67c=", "properties": {"ref": "https://www.ncp.co.uk/parking-solutions/airports/bristol-airport/", "@spider": "ncp_gb", "addr:street_address": "Bristol Airport", "addr:city": "Bristol", "addr:postcode": "BS48 3DY", "addr:country": "GB", "name": "NCP Bristol Airport", "website": "https://www.ncp.co.uk/parking-solutions/airports/bristol-airport/", "brand": "NCP", "brand:wikidata": "Q6971273"}, "geometry": {"type": "Point", "coordinates": [-2.713613, 51.383697]}},
{"type": "Feature", "id": "AqW0HWGAmuEizw9ck6gnpThiqVQ=", "properties": {"ref": "https://www.ncp.co.uk/parking-solutions/airports/east-midlands-airport/", "@spider": "ncp_gb", "addr:street_address": "Castle Donington", "addr:city": "Derby", "addr:postcode": "DE74 2SA", "addr:country": "GB", "name": "NCP East Midlands Airport", "website": "https://www.ncp.co.uk/parking-solutions/airports/east-midlands-airport/", "brand": "NCP", "brand:wikidata": "Q6971273"}, "geometry": {"type": "Point", "coordinates": [-1.331288, 52.829961]}},
{"type": "Feature", "id": "0KpMGf3JMobOY3ewgWcNLgqB9-8=", "properties": {"ref": "https://www.ncp.co.uk/parking-solutions/airports/london-stansted-airport/", "@spider": "ncp_gb", "addr:street_address": "Stansted Airport, Bassingbourn Road", "addr:city": "Stansted", "addr:postcode": "CM24 1QW", "addr:country": "GB", "name": "NCP Stansted Airport", "website": "https://www.ncp.co.uk/parking-solutions/airports/london-stansted-airport/", "brand": "NCP", "brand:wikidata": "Q6971273"}, "geometry": {"type": "Point", "coordinates": [0.238877, 51.886005]}},
{"type": "Feature", "id": "AdrTuEs2DjiU1dsMx5IOlI2k6Zk=", "properties": {"ref": "https://www.ncp.co.uk/parking-solutions/airports/gatwick-international-airport/", "@spider": "ncp_gb", "addr:street_address": "Gatwick Airport", "addr:city": "Horley", "addr:postcode": "RH6 0NP", "addr:country": "GB", "name": "NCP Gatwick Airport", "website": "https://www.ncp.co.uk/parking-solutions/airports/gatwick-international-airport/", "brand": "NCP", "brand:wikidata": "Q6971273"}, "geometry": {"type": "Point", "coordinates": [-0.162593, 51.156306]}},
{"type": "Feature", "id": "AVnyDzSswnJkrEk1uZ2X8Db_6XQ=", "properties": {"ref": "https://www.ncp.co.uk/parking-solutions/airports/glasgow-international/", "@spider": "ncp_gb", "addr:street_address": "Glasgow Airport", "addr:city": "Paisley", "addr:postcode": "PA3 2ST", "addr:country": "GB", "name": "NCP Glasgow Airport", "website": "https://www.ncp.co.uk/parking-solutions/airports/glasgow-international/", "brand": "NCP", "brand:wikidata": "Q6971273"}, "geometry": {"type": "Point", "coordinates": [-4.434956, 55.869032]}},
{"type": "Feature", "id": "l1u-E_KNOAqSkXa9gCxPKA_ETus=", "properties": {"ref": "https://www.ncp.co.uk/parking-solutions/airports/edinburgh-airport/", "@spider": "ncp_gb", "addr:street_address": "Edinburgh Airport", "addr:city": "Edinburgh", "addr:postcode": "EH12 9DN", "addr:country": "GB", "name": "NCP Edinburgh Airport", "website": "https://www.ncp.co.uk/parking-solutions/airports/edinburgh-airport/", "brand": "NCP", "brand:wikidata": "Q6971273"}, "geometry": {"type": "Point", "coordinates": [-3.361421, 55.950554]}},
{"type": "Feature", "id": "sljRYJql9koj3SOTMIj_tzUOSXM=", "properties": {"ref": "https://www.ncp.co.uk/find-a-car-park/car-parks/bristol-st-james-barton/", "@spider": "ncp_gb", "addr:street_address": "St James Barton, Bond Street", "addr:city": "Bristol", "addr:postcode": "BS1 3LJ", "addr:country": "GB", "name": "NCP Bristol St James Barton", "website": "https://www.ncp.co.uk/find-a-car-park/car-parks/bristol-st-james-barton/", "brand": "NCP", "brand:wikidata": "Q6971273"}, "geometry": {"type": "Point", "coordinates": [-2.5901020999999673, 51.459653]}},
{"type": "Feature", "id": "ciKk-0mTqSrGIkexy4hqOKqtQqI=", "properties": {"ref": "https://www.ncp.co.uk/find-a-car-park/car-parks/brighton-centre-russell-road/", "@spider": "ncp_gb", "addr:street_address": "Russell Road", "addr:city": "Brighton", "addr:postcode": "BN1 2DX", "addr:country": "GB", "name": "NCP Brighton Russell Road", "website": "https://www.ncp.co.uk/find-a-car-park/car-parks/brighton-centre-russell-road/", "brand": "NCP", "brand:wikidata": "Q6971273"}, "geometry": {"type": "Point", "coordinates": [-0.14701300000001538, 50.82205320000001]}},
{"type": "Feature", "id": "rSsdxxHugjk5lGjfa5JSdFYDh38=", "properties": {"ref": "https://www.ncp.co.uk/parking-solutions/airports/southend-airport/", "@spider": "ncp_gb", "addr:street_address": "Southend Airport", "addr:city": "Southend-on-Sea", "addr:postcode": "SS2 6YF", "addr:country": "GB", "name": "NCP Southend Airport", "website": "https://www.ncp.co.uk/parking-solutions/airports/southend-airport/", "brand": "NCP", "brand:wikidata": "Q6971273"}, "geometry": {"type": "Point", "coordinates": [0.694165, 51.57]}},
{"type": "Feature", "id": "ah3Tmzdz_fXhxT5TBr6Mg4PEGXI=", "properties": {"ref": "https://www.ncp.co.uk/find-a-car-park/car-parks/newcastle-airport-long-stay/", "@spider": "ncp_gb", "addr:street_address": "Newcastle Airport, Woolsington", "addr:city": "Newcastle Upon Tyne", "addr:postcode": "NE13 8BZ", "addr:country": "GB", "name": "Newcastle Airport Long Stay", "website": "https://www.ncp.co.uk/find-a-car-park/car-parks/newcastle-airport-long-stay/", "brand": "NCP", "brand:wikidata": "Q6971273"}, "geometry": {"type": "Point", "coordinates": [-1.710934, 55.040771]}},
{"type": "Feature", "id": "iJ2pOKtVfI18jipbYPbwKQ8ddaI=", "properties": {"ref": "https://www.ncp.co.uk/find-a-car-park/car-parks/liverpool-airport-long-stay/", "@spider": "ncp_gb", "addr:street_address": "John Lennon Airport", "addr:city": "Liverpool", "addr:postcode": "L24 1YD", "addr:country": "GB", "name": "Liverpool Airport Long Stay", "website": "https://www.ncp.co.uk/find-a-car-park/car-parks/liverpool-airport-long-stay/", "brand": "NCP", "brand:wikidata": "Q6971273"}, "geometry": {"type": "Point", "coordinates": [-2.855861, 53.33892]}},
{"type": "Feature", "id": "FvIZvA6ew_cr59s03brZBIwlHIw=", "properties": {"ref": "https://www.ncp.co.uk/find-a-car-park/car-parks/airparks-park-and-ride-luton/", "@spider": "ncp_gb", "addr:street_address": "Grove Road, Slip End", "addr:city": "Luton", "addr:postcode": "LU1 4BZ", "addr:country": "GB", "name": "Airparks Park and Ride Luton", "website": "https://www.ncp.co.uk/find-a-car-park/car-parks/airparks-park-and-ride-luton/", "brand": "NCP", "brand:wikidata": "Q6971273"}, "geometry": {"type": "Point", "coordinates": [-0.438099, 51.855139]}},
{"type": "Feature", "id": "Ys02crmHilA8xucSYHGXN3LIGBE=", "properties": {"ref": "https://www.ncp.co.uk/find-a-car-park/car-parks/bristol-airport-meet-and-greet/", "@spider": "ncp_gb", "addr:street_address": "Express Drop Off, Bristol Airport", "addr:city": "Bristol", "addr:postcode": "BS48 3DY", "addr:country": "GB", "name": "NCP Bristol Airport Meet and Greet", "website": "https://www.ncp.co.uk/find-a-car-park/car-parks/bristol-airport-meet-and-greet/", "brand": "NCP", "brand:wikidata": "Q6971273"}, "geometry": {"type": "Point", "coordinates": [-2.713847, 51.38662]}},
{"type": "Feature", "id": "bcCNpHjmwTW0_0SElEajnd335yI=", "properties": {"ref": "https://www.ncp.co.uk/find-a-car-park/car-parks/east-midlands-jetparks-2/", "@spider": "ncp_gb", "addr:street_address": "East Midlands Airport, Castle Donington", "addr:city": "Derby", "addr:postcode": "DE74 2SA", "addr:country": "GB", "name": "NCP East Midlands Airport JetParks 2", "website": "https://www.ncp.co.uk/find-a-car-park/car-parks/east-midlands-jetparks-2/", "brand": "NCP", "brand:wikidata": "Q6971273"}, "geometry": {"type": "Point", "coordinates": [-1.357595, 52.826524]}},
{"type": "Feature", "id": "q09FMh-O6WOfA6ObOWsrKNKjH9I=", "properties": {"ref": "https://www.ncp.co.uk/find-a-car-park/car-parks/stansted-airport-jet-parks/", "@spider": "ncp_gb", "addr:street_address": "JetParks", "addr:city": "Stanstead", "addr:postcode": "CM24 1RY", "addr:country": "GB", "name": "Stansted Airport Jet Parks", "website": "https://www.ncp.co.uk/find-a-car-park/car-parks/stansted-airport-jet-parks/", "brand": "NCP", "brand:wikidata": "Q6971273"}, "geometry": {"type": "Point", "coordinates": [0.214277, 51.881645]}},
{"type": "Feature", "id": "rfMNJ51XA0BgcvAYXL0HcVRVgp4=", "properties": {"ref": "https://www.ncp.co.uk/find-a-car-park/car-parks/gatwick-airport-summer-special-north/", "@spider": "ncp_gb", "addr:street_address": "Larkins Road, North Terminal", "addr:city": "Gatwick", "addr:postcode": "RH6 0PJ", "addr:country": "GB", "name": "Gatwick Airport Summer Special North", "website": "https://www.ncp.co.uk/find-a-car-park/car-parks/gatwick-airport-summer-special-north/", "brand": "NCP", "brand:wikidata": "Q6971273"}, "geometry": {"type": "Point", "coordinates": [-0.189452, 51.15818]}},
{"type": "Feature", "id": "WGPxIOjh6CcFeuQUERNQAGzOgNw=", "properties": {"ref": "https://www.ncp.co.uk/find-a-car-park/car-parks/aph-park-and-ride-manchester/", "@spider": "ncp_gb", "addr:street_address": "Bradnor Road", "addr:city": "Manchester", "addr:postcode": "M22 4TE", "addr:country": "GB", "name": "Manchester APH Park and Ride", "website": "https://www.ncp.co.uk/find-a-car-park/car-parks/aph-park-and-ride-manchester/", "brand": "NCP", "brand:wikidata": "Q6971273"}, "geometry": {"type": "Point", "coordinates": [-2.258098, 53.401579]}},
{"type": "Feature", "id": "QYpKpB3ZjcFadhQiSwOPSeM0zpY=", "properties": {"ref": "https://www.ncp.co.uk/find-a-car-park/car-parks/glasgow-airport-holiday-inn-express-car-park/", "@spider": "ncp_gb", "addr:street_address": "St Andrews Drive", "addr:city": "Paisley", "addr:postcode": "PA3 2TJ", "addr:country": "GB", "name": "NCP Glasgow Airport Holiday Inn Express Car Park", "website": "https://www.ncp.co.uk/find-a-car-park/car-parks/glasgow-airport-holiday-inn-express-car-park/", "brand": "NCP", "brand:wikidata": "Q6971273"}, "geometry": {"type": "Point", "coordinates": [-4.429984900000022, 55.8629925]}},
{"type": "Feature", "id": "cb4inmLr7EOBH0qIPoZaRbH625Q=", "properties": {"ref": "https://www.ncp.co.uk/find-a-car-park/car-parks/aph-park-and-ride-edinburgh-airport/", "@spider": "ncp_gb", "addr:street_address": "100 Islington Road, Islington", "addr:city": "Edinburgh", "addr:postcode": "EH28 8AU", "addr:country": "GB", "name": "APH Park and Ride Edinburgh Airport", "website": "https://www.ncp.co.uk/find-a-car-park/car-parks/aph-park-and-ride-edinburgh-airport/", "brand": "NCP", "brand:wikidata": "Q6971273"}, "geometry": {"type": "Point", "coordinates": [-3.355689, 55.939017]}},
{"type": "Feature", "id": "xesbyYIjdeWWbs5SZBUwJ1bJ57Y=", "properties": {"ref": "https://www.ncp.co.uk/find-a-car-park/car-parks/secure-airparks-edinburgh-airport/", "@spider": "ncp_gb", "addr:street_address": "100 Islington Road, Islington", "addr:city": "Edinburgh", "addr:postcode": "EH28 8AU", "addr:country": "GB", "name": "Edinburgh Airport Secure Airparks", "website": "https://www.ncp.co.uk/find-a-car-park/car-parks/secure-airparks-edinburgh-airport/", "brand": "NCP", "brand:wikidata": "Q6971273"}, "geometry": {"type": "Point", "coordinates": [-3.373445, 55.945975]}},
{"type": "Feature", "id": "XuNVyABMDY3lwN7qSWXWCm5WuAY=", "properties": {"ref": "https://www.ncp.co.uk/find-a-car-park/car-parks/edinburgh-airport-scotpark/", "@spider": "ncp_gb", "addr:street_address": "49 Eastfield Road", "addr:city": "Newbridge", "addr:postcode": "EH28 8LS", "addr:country": "GB", "name": "NCP Edinburgh Scotpark", "website": "https://www.ncp.co.uk/find-a-car-park/car-parks/edinburgh-airport-scotpark/", "brand": "NCP", "brand:wikidata": "Q6971273"}, "geometry": {"type": "Point", "coordinates": [-3.360439, 55.939779]}},
{"type": "Feature", "id": "JY6CuLb280N6zS-_4DRL1jfazLg=", "properties": {"ref": "https://www.ncp.co.uk/find-a-car-park/car-parks/southend-sacp-park-and-ride/", "@spider": "ncp_gb", "addr:street_address": "SACP, Unit D3 Millhead Way, Purdeys Industrial Estate", "addr:city": "Rochford", "addr:postcode": "SS4 1LB", "addr:country": "GB", "name": "Southend SACP Park and Ride", "website": "https://www.ncp.co.uk/find-a-car-park/car-parks/southend-sacp-park-and-ride/", "brand": "NCP", "brand:wikidata": "Q6971273"}, "geometry": {"type": "Point", "coordinates": [0.720402, 51.578445]}},
{"type": "Feature", "id": "0cjILpWksEPhEd6VKiUSXw_wIEo=", "properties": {"ref": "https://www.ncp.co.uk/find-a-car-park/car-parks/glasgow-airport-pick-up-and-drop-off/", "@spider": "ncp_gb", "addr:street_address": "St Andrews Drive", "addr:city": "Paisley", "addr:postcode": "PA3 2ST", "addr:country": "GB", "name": "NCP Glasgow Airport Pick Up And Drop Off", "website": "https://www.ncp.co.uk/find-a-car-park/car-parks/glasgow-airport-pick-up-and-drop-off/", "brand": "NCP", "brand:wikidata": "Q6971273"}, "geometry": {"type": "Point", "coordinates": [-4.437746999999945, 55.8629214]}},
{"type": "Feature", "id": "-2VfSZ3rnzmRk4QG4aoJeCeiyzk=", "properties": {"ref": "https://www.ncp.co.uk/find-a-car-park/car-parks/glasgow-airport-car-park-2-fast-track/", "@spider": "ncp_gb", "addr:street_address": "Caledonian Way", "addr:city": "Paisley", "addr:postcode": "PA3 2ST", "addr:country": "GB", "name": "Glasgow Airport Car Park 2 Fast Track", "website": "https://www.ncp.co.uk/find-a-car-park/car-parks/glasgow-airport-car-park-2-fast-track/", "brand": "NCP", "brand:wikidata": "Q6971273"}, "geometry": {"type": "Point", "coordinates": [-4.4323259000000235, 55.8641009]}},
{"type": "Feature", "id": "XLv4aHUH37m3tU1H4cfE62tSIrg=", "properties": {"ref": "https://www.ncp.co.uk/find-a-car-park/car-parks/glasgow-airport-mscp-2/", "@spider": "ncp_gb", "addr:street_address": "Caledonian Way", "addr:city": "Paisley", "addr:postcode": "PA3 2ST", "addr:country": "GB", "name": "NCP Glasgow Airport Car Park 2 Short Stay", "website": "https://www.ncp.co.uk/find-a-car-park/car-parks/glasgow-airport-mscp-2/", "brand": "NCP", "brand:wikidata": "Q6971273"}, "geometry": {"type": "Point", "coordinates": [-4.4323259000000235, 55.8641009]}},
{"type": "Feature", "id": "lSzaah6NHp_OR_WLJCdmIR0UTTc=", "properties": {"ref": "https://www.ncp.co.uk/find-a-car-park/car-parks/glasgow-airport-mscp-1/", "@spider": "ncp_gb", "addr:street_address": "St Andrews Drive", "addr:city": "Paisley", "addr:postcode": "PA3 2ST", "addr:country": "GB", "name": "NCP Glasgow Airport Car Park 1 Short Stay", "website": "https://www.ncp.co.uk/find-a-car-park/car-parks/glasgow-airport-mscp-1/", "brand": "NCP", "brand:wikidata": "Q6971273"}, "geometry": {"type": "Point", "coordinates": [-4.437746999999945, 55.8629214]}},
{"type": "Feature", "id": "Z-lvtNlfguR3MU6NWyw8h6-atWY=", "properties": {"ref": "https://www.ncp.co.uk/find-a-car-park/car-parks/glasgow-airport-long-stay-we-park/", "@spider": "ncp_gb", "addr:street_address": "Arran Avenue", "addr:city": "Paisley", "addr:postcode": "PA3 2AY", "addr:country": "GB", "name": "NCP Glasgow Airport Long Stay We Park", "website": "https://www.ncp.co.uk/find-a-car-park/car-parks/glasgow-airport-long-stay-we-park/", "brand": "NCP", "brand:wikidata": "Q6971273"}, "geometry": {"type": "Point", "coordinates": [-4.424483, 55.86759]}},
{"type": "Feature", "id": "UT0FCt2b5Wpt5RQlFhdCtyLa_2k=", "properties": {"ref": "https://www.ncp.co.uk/find-a-car-park/car-parks/manchester-jetparks-3/", "@spider": "ncp_gb", "addr:street_address": "Styal Road", "addr:city": "Manchester", "addr:postcode": "M22 5GX", "addr:country": "GB", "name": "Manchester Airport Jetparks 3", "website": "https://www.ncp.co.uk/find-a-car-park/car-parks/manchester-jetparks-3/", "brand": "NCP", "brand:wikidata": "Q6971273"}, "geometry": {"type": "Point", "coordinates": [-2.247669, 53.362668]}},
{"type": "Feature", "id": "TSldIwWksKojcBGktmCPAYr7Qpk=", "properties": {"ref": "https://www.ncp.co.uk/find-a-car-park/car-parks/manchester-jetparks2/", "@spider": "ncp_gb", "addr:street_address": "Thorley Lane, Manchester Airport", "addr:city": "Manchester", "addr:postcode": "M90 4EG", "addr:country": "GB", "name": "Manchester Airport Jetparks 2", "website": "https://www.ncp.co.uk/find-a-car-park/car-parks/manchester-jetparks2/", "brand": "NCP", "brand:wikidata": "Q6971273"}, "geometry": {"type": "Point", "coordinates": [-2.273809, 53.369946]}},
{"type": "Feature", "id": "6ySAsr9IAJITDVlBBKwJIuiR_ws=", "properties": {"ref": "https://www.ncp.co.uk/find-a-car-park/car-parks/manchester-airport-jetparks-1/", "@spider": "ncp_gb", "addr:street_address": "Thorley Lane, Manchester Airport", "addr:city": "Manchester", "addr:postcode": "M90 5AZ", "addr:country": "GB", "name": "Manchester Airport Jetparks 1", "website": "https://www.ncp.co.uk/find-a-car-park/car-parks/manchester-airport-jetparks-1/", "brand": "NCP", "brand:wikidata": "Q6971273"}, "geometry": {"type": "Point", "coordinates": [-2.277905, 53.370572]}},
{"type": "Feature", "id": "3Y4iZfLjSQlssAey4KaXYr9NdHk=", "properties": {"ref": "https://www.ncp.co.uk/find-a-car-park/car-parks/manchester-airport-long-stay-t2/", "@spider": "ncp_gb", "addr:street_address": "Manchester Airport", "addr:city": "Manchester", "addr:postcode": "M90 5PR", "addr:country": "GB", "name": "Manchester Airport Long Stay T2", "website": "https://www.ncp.co.uk/find-a-car-park/car-parks/manchester-airport-long-stay-t2/", "brand": "NCP", "brand:wikidata": "Q6971273"}, "geometry": {"type": "Point", "coordinates": [-2.287858, 53.370233]}},
{"type": "Feature", "id": "Ozyosq-LXPEybigPi-yQZ1p0kE0=", "properties": {"ref": "https://www.ncp.co.uk/find-a-car-park/car-parks/manchester-airport-long-stay-t1-and-t3/", "@spider": "ncp_gb", "addr:street_address": "Long Stay T1 & T3, Manchester Airport", "addr:city": "Manchester", "addr:postcode": "M90 3NS", "addr:country": "GB", "name": "Manchester Airport Long Stay T1 and T3", "website": "https://www.ncp.co.uk/find-a-car-park/car-parks/manchester-airport-long-stay-t1-and-t3/", "brand": "NCP", "brand:wikidata": "Q6971273"}, "geometry": {"type": "Point", "coordinates": [-2.267911, 53.363696]}},
{"type": "Feature", "id": "4sk8_f78cBugLsEJyT3-XMwwLOE=", "properties": {"ref": "https://www.ncp.co.uk/find-a-car-park/car-parks/manchester-airport-short-stay-t3/", "@spider": "ncp_gb", "addr:street_address": "Manchester Airport", "addr:city": "Manchester", "addr:postcode": "M90 1QX", "addr:country": "GB", "name": "Manchester Airport Short Stay T3", "website": "https://www.ncp.co.uk/find-a-car-park/car-parks/manchester-airport-short-stay-t3/", "brand": "NCP", "brand:wikidata": "Q6971273"}, "geometry": {"type": "Point", "coordinates": [-2.26907, 53.361971]}},
{"type": "Feature", "id": "2cGXrZK4A_OS8EhysD1wXJgG7WE=", "properties": {"ref": "https://www.ncp.co.uk/find-a-car-park/car-parks/manchester-airport-short-stay-t2/", "@spider": "ncp_gb", "addr:street_address": "Manchester Airport", "addr:city": "Manchester", "addr:postcode": "M90 1QX", "addr:country": "GB", "name": "Manchester Airport Short Stay T2", "website": "https://www.ncp.co.uk/find-a-car-park/car-parks/manchester-airport-short-stay-t2/", "brand": "NCP", "brand:wikidata": "Q6971273"}, "geometry": {"type": "Point", "coordinates": [-2.278452, 53.3681]}},
{"type": "Feature", "id": "zkHs3G6zfs4fDythrNFE1TlAViA=", "properties": {"ref": "https://www.ncp.co.uk/find-a-car-park/car-parks/manchester-airport-short-stay-t1/", "@spider": "ncp_gb", "addr:street_address": "Manchester Airport", "addr:city": "Manchester", "addr:postcode": "M90 1QX", "addr:country": "GB", "name": "Manchester Airport Short Stay T1", "website": "https://www.ncp.co.uk/find-a-car-park/car-parks/manchester-airport-short-stay-t1/", "brand": "NCP", "brand:wikidata": "Q6971273"}, "geometry": {"type": "Point", "coordinates": [-2.273224, 53.362744]}},
{"type": "Feature", "id": "aNb8JKaCSWMd4JbYSvAuJCevgCo=", "properties": {"ref": "https://www.ncp.co.uk/find-a-car-park/car-parks/manchester-airport-meet-and-greet-t3/", "@spider": "ncp_gb", "addr:street_address": "Manchester Airport", "addr:city": "Manchester", "addr:postcode": "M90 1QX", "addr:country": "GB", "name": "Manchester Airport Meet and Greet T3", "website": "https://www.ncp.co.uk/find-a-car-park/car-parks/manchester-airport-meet-and-greet-t3/", "brand": "NCP", "brand:wikidata": "Q6971273"}, "geometry": {"type": "Point", "coordinates": [-2.269576, 53.362494]}},
{"type": "Feature", "id": "TNNf8z5Iq59XEO8f76IbxBHP72k=", "properties": {"ref": "https://www.ncp.co.uk/find-a-car-park/car-parks/manchester-airport-meet-and-greet-t1/", "@spider": "ncp_gb", "addr:street_address": "Meet & Greet T1, Manchester Airport", "addr:city": "Manchester", "addr:postcode": "M90 1QX", "addr:country": "GB", "name": "Manchester Airport Meet and Greet T1", "website": "https://www.ncp.co.uk/find-a-car-park/car-parks/manchester-airport-meet-and-greet-t1/", "brand": "NCP", "brand:wikidata": "Q6971273"}, "geometry": {"type": "Point", "coordinates": [-2.27278, 53.364631]}},
{"type": "Feature", "id": "q-HieBhQXmQUvPI77HZoNuXtxb4=", "properties": {"ref": "https://www.ncp.co.uk/find-a-car-park/car-parks/aph-park-and-ride-gatwick/", "@spider": "ncp_gb", "addr:street_address": "Copthorne Road", "addr:city": "Crawley", "addr:postcode": "RH10 3PD", "addr:country": "GB", "name": "APH Park and Ride Gatwick", "website": "https://www.ncp.co.uk/find-a-car-park/car-parks/aph-park-and-ride-gatwick/", "brand": "NCP", "brand:wikidata": "Q6971273"}, "geometry": {"type": "Point", "coordinates": [-0.139646, 51.129544]}},
{"type": "Feature", "id": "psrEcwsBR2qrHZ0UdlYLXpP_Qy4=", "properties": {"ref": "https://www.ncp.co.uk/find-a-car-park/car-parks/stansted-airport-long-stay/", "@spider": "ncp_gb", "addr:street_address": "Stansted Airport", "addr:city": "Stansted", "addr:postcode": "CM24 1SE", "addr:country": "GB", "name": "Stansted Airport Long Stay", "website": "https://www.ncp.co.uk/find-a-car-park/car-parks/stansted-airport-long-stay/", "brand": "NCP", "brand:wikidata": "Q6971273"}, "geometry": {"type": "Point", "coordinates": [0.214982, 51.877258]}},
{"type": "Feature", "id": "PIUqEY_AbtcRD77d_kjhY9Qx4Hg=", "properties": {"ref": "https://www.ncp.co.uk/find-a-car-park/car-parks/stansted-airport-meet-and-greet/", "@spider": "ncp_gb", "addr:street_address": "Stanstead Airport", "addr:city": "Stanstead", "addr:postcode": "CM24 1SE", "addr:country": "GB", "name": "Stansted Airport Meet and Greet", "website": "https://www.ncp.co.uk/find-a-car-park/car-parks/stansted-airport-meet-and-greet/", "brand": "NCP", "brand:wikidata": "Q6971273"}, "geometry": {"type": "Point", "coordinates": [0.262229, 51.887467]}},
{"type": "Feature", "id": "Uza7B1Pyh181jyE10CcP6OWtllY=", "properties": {"ref": "https://www.ncp.co.uk/find-a-car-park/car-parks/east-midlands-jetparks-1/", "@spider": "ncp_gb", "addr:street_address": "East Midlands Airport, Castle Donington", "addr:city": "Derby", "addr:postcode": "DE74 2SA", "addr:country": "GB", "name": "NCP East Midlands Airport JetParks 1", "website": "https://www.ncp.co.uk/find-a-car-park/car-parks/east-midlands-jetparks-1/", "brand": "NCP", "brand:wikidata": "Q6971273"}, "geometry": {"type": "Point", "coordinates": [-1.360975, 52.826369]}},
{"type": "Feature", "id": "gc2m4RWR67kqrxSKAkf5nXXiQZc=", "properties": {"ref": "https://www.ncp.co.uk/find-a-car-park/car-parks/east-midland-long-stay-1/", "@spider": "ncp_gb", "addr:street_address": "East Midlands Airport, Castle Donington", "addr:city": "Derby", "addr:postcode": "DE74 2SA", "addr:country": "GB", "name": "NCP East Midlands Airport Long Stay 1", "website": "https://www.ncp.co.uk/find-a-car-park/car-parks/east-midland-long-stay-1/", "brand": "NCP", "brand:wikidata": "Q6971273"}, "geometry": {"type": "Point", "coordinates": [-1.341421, 52.826302]}},
{"type": "Feature", "id": "8LucVCi-GH389Xu7B8xzcs1i0iU=", "properties": {"ref": "https://www.ncp.co.uk/find-a-car-park/car-parks/east-midlands-mid-stay-2/", "@spider": "ncp_gb", "addr:street_address": "East Midlands Airport, Castle Donington", "addr:city": "Derby", "addr:postcode": "DE74 2SA", "addr:country": "GB", "name": "NCP East Midlands Mid Stay 2", "website": "https://www.ncp.co.uk/find-a-car-park/car-parks/east-midlands-mid-stay-2/", "brand": "NCP", "brand:wikidata": "Q6971273"}, "geometry": {"type": "Point", "coordinates": [-1.333785, 52.823768]}},
{"type": "Feature", "id": "-yWdku_lcNewWFsPVlunZENKHss=", "properties": {"ref": "https://www.ncp.co.uk/find-a-car-park/car-parks/east-midlands-mid-stay-1/", "@spider": "ncp_gb", "addr:street_address": "East Midlands Airport, Castle Donington", "addr:city": "Derby", "addr:postcode": "DE74 2SA", "addr:country": "GB", "name": "NCP East Midlands Airport Mid Stay 1", "website": "https://www.ncp.co.uk/find-a-car-park/car-parks/east-midlands-mid-stay-1/", "brand": "NCP", "brand:wikidata": "Q6971273"}, "geometry": {"type": "Point", "coordinates": [-1.334554, 52.824752]}},
{"type": "Feature", "id": "FS2DgZ6TKB6Ed0_pfRayIt77J9E=", "properties": {"ref": "https://www.ncp.co.uk/find-a-car-park/car-parks/east-midland-short-stay-3/", "@spider": "ncp_gb", "addr:street_address": "East Midlands Airport, Castle Donington", "addr:city": "Derby", "addr:postcode": "DE74 2SA", "addr:country": "GB", "name": "NCP East Midlands Airport Short Stay 3", "website": "https://www.ncp.co.uk/find-a-car-park/car-parks/east-midland-short-stay-3/", "brand": "NCP", "brand:wikidata": "Q6971273"}, "geometry": {"type": "Point", "coordinates": [-1.33186, 52.824179]}},
{"type": "Feature", "id": "N15SHl_i7YGdPRlK6Gzd9_TbEa4=", "properties": {"ref": "https://www.ncp.co.uk/find-a-car-park/car-parks/east-midland-short-stay-2/", "@spider": "ncp_gb", "addr:street_address": "East Midlands Airport, Castle Donington", "addr:city": "Derby", "addr:postcode": "DE74 2SA", "addr:country": "GB", "name": "NCP East Midlands Short Stay 2", "website": "https://www.ncp.co.uk/find-a-car-park/car-parks/east-midland-short-stay-2/", "brand": "NCP", "brand:wikidata": "Q6971273"}, "geometry": {"type": "Point", "coordinates": [-1.331887, 52.825293]}},
{"type": "Feature", "id": "sCtjMoZmTja8T-EGql7ydZWswfU=", "properties": {"ref": "https://www.ncp.co.uk/find-a-car-park/car-parks/east-midlands-short-stay-1/", "@spider": "ncp_gb", "addr:street_address": "East Midlands Airport, Castle Donington", "addr:city": "Derby", "addr:postcode": "DE74 2SA", "addr:country": "GB", "name": "NCP East Midlands Short Stay 1", "website": "https://www.ncp.co.uk/find-a-car-park/car-parks/east-midlands-short-stay-1/", "brand": "NCP", "brand:wikidata": "Q6971273"}, "geometry": {"type": "Point", "coordinates": [-1.328093, 52.825469]}},
{"type": "Feature", "id": "bzoxnDarx5kHtB6jRecUq99o3Q4=", "properties": {"ref": "https://www.ncp.co.uk/find-a-car-park/car-parks/east-midlands-meet-and-greet/", "@spider": "ncp_gb", "addr:street_address": "East Midlands Airport, Castle Donington", "addr:city": "Derby", "addr:postcode": "DE74 2SA", "addr:country": "GB", "name": "NCP East Midlands Airport Meet and Greet", "website": "https://www.ncp.co.uk/find-a-car-park/car-parks/east-midlands-meet-and-greet/", "brand": "NCP", "brand:wikidata": "Q6971273"}, "geometry": {"type": "Point", "coordinates": [-1.32765, 52.825873]}},
{"type": "Feature", "id": "EVn5DiBlCznCAD_T_GDLu29GcDI=", "properties": {"ref": "https://www.ncp.co.uk/find-a-car-park/car-parks/aph-park-and-ride-luton/", "@spider": "ncp_gb", "addr:street_address": "Grove Road, Slip End", "addr:city": "Luton", "addr:postcode": "LU1 4BZ", "addr:country": "GB", "name": "APH Park and Ride Luton", "phone": "08008886444", "website": "https://www.ncp.co.uk/find-a-car-park/car-parks/aph-park-and-ride-luton/", "brand": "NCP", "brand:wikidata": "Q6971273"}, "geometry": {"type": "Point", "coordinates": [-0.439006, 51.853645]}},
{"type": "Feature", "id": "xgRwsw-F-PAMNFwvIdtgVYxC7Fk=", "properties": {"ref": "https://www.ncp.co.uk/find-a-car-park/car-parks/liverpool-airport-multi-storey/", "@spider": "ncp_gb", "addr:street_address": "John Lennon Airport", "addr:city": "Liverpool", "addr:postcode": "L24 1YD", "addr:country": "GB", "name": "Liverpool Airport Multi Storey", "website": "https://www.ncp.co.uk/find-a-car-park/car-parks/liverpool-airport-multi-storey/", "brand": "NCP", "brand:wikidata": "Q6971273"}, "geometry": {"type": "Point", "coordinates": [-2.855075, 53.338441]}},
{"type": "Feature", "id": "4sTuW865ORAe2o_9Bp7tGNG1uNU=", "properties": {"ref": "https://www.ncp.co.uk/find-a-car-park/car-parks/liverpool-airport-fast-track-parking/", "@spider": "ncp_gb", "addr:street_address": "John Lennon Airport", "addr:city": "Liverpool", "addr:postcode": "L24 1YD", "addr:country": "GB", "name": "Liverpool Airport Fast Track Parking", "website": "https://www.ncp.co.uk/find-a-car-park/car-parks/liverpool-airport-fast-track-parking/", "brand": "NCP", "brand:wikidata": "Q6971273"}, "geometry": {"type": "Point", "coordinates": [-2.851634, 53.338197]}},
{"type": "Feature", "id": "0kiQmEYu2JVduvFUIU_vSaOZOmM=", "properties": {"ref": "https://www.ncp.co.uk/find-a-car-park/car-parks/newcastle-airport-short-stay/", "@spider": "ncp_gb", "addr:street_address": "Newcastle Airport, Woolsington", "addr:city": "Newcastle Upon Tyne", "addr:postcode": "NE13 8BZ", "addr:country": "GB", "name": "Newcastle Airport Short Stay 1", "website": "https://www.ncp.co.uk/find-a-car-park/car-parks/newcastle-airport-short-stay/", "brand": "NCP", "brand:wikidata": "Q6971273"}, "geometry": {"type": "Point", "coordinates": [-1.711803, 55.037906]}},
{"type": "Feature", "id": "mDMLYyipdAZpGT-LM_hgqkAVYaw=", "properties": {"ref": "https://www.ncp.co.uk/find-a-car-park/car-parks/london-barbican/", "@spider": "ncp_gb", "addr:street_address": "158-170 Aldersgate Street", "addr:city": "London", "addr:postcode": "EC1A 4HY", "addr:country": "GB", "name": "NCP London Barbican car park", "website": "https://www.ncp.co.uk/find-a-car-park/car-parks/london-barbican/", "brand": "NCP", "brand:wikidata": "Q6971273"}, "geometry": {"type": "Point", "coordinates": [-0.097534, 51.518615]}},
{"type": "Feature", "id": "9mxNT1t5zSyTq6RQ8gDJsRjftoI=", "properties": {"ref": "https://www.ncp.co.uk/find-a-car-park/car-parks/london-covent-garden/", "@spider": "ncp_gb", "addr:street_address": "Parker Street, Parker Mews", "addr:city": "London", "addr:postcode": "WC2B 5NT", "addr:country": "GB", "name": "NCP Covent Garden car park", "website": "https://www.ncp.co.uk/find-a-car-park/car-parks/london-covent-garden/", "brand": "NCP", "brand:wikidata": "Q6971273"}, "geometry": {"type": "Point", "coordinates": [-0.122389, 51.515476]}},
{"type": "Feature", "id": "bS2ugtcJbqofSV42wF__G9bcRDs=", "properties": {"ref": "https://www.ncp.co.uk/find-a-car-park/car-parks/london-saffron-hill/", "@spider": "ncp_gb", "addr:street_address": "Saffron Hill, St Cross Street", "addr:city": "London", "addr:postcode": "EC1N 8XA", "addr:country": "GB", "name": "NCP London Saffron Hill", "website": "https://www.ncp.co.uk/find-a-car-park/car-parks/london-saffron-hill/", "brand": "NCP", "brand:wikidata": "Q6971273"}, "geometry": {"type": "Point", "coordinates": [-0.10684, 1.521066]}},
{"type": "Feature", "id": "DR_9ixy3VVSn9IctHnWpOg0WCy4=", "properties": {"ref": "https://www.ncp.co.uk/find-a-car-park/car-parks/london-bridge/", "@spider": "ncp_gb", "addr:street_address": "Kipling Street", "addr:city": "London", "addr:postcode": "SE1 3RU", "addr:country": "GB", "name": "NCP London Bridge", "website": "https://www.ncp.co.uk/find-a-car-park/car-parks/london-bridge/", "brand": "NCP", "brand:wikidata": "Q6971273"}, "geometry": {"type": "Point", "coordinates": [-0.086793, 51.502123]}},
{"type": "Feature", "id": "bFDY7xD7WQ0Nt6NENDUGoYHS86k=", "properties": {"ref": "https://www.ncp.co.uk/find-a-car-park/car-parks/london-judd-street/", "@spider": "ncp_gb", "addr:street_address": "Judd Street", "addr:city": "London", "addr:postcode": "WC1H 9QR", "addr:country": "GB", "name": "NCP London Kings Cross St Pancras", "website": "https://www.ncp.co.uk/find-a-car-park/car-parks/london-judd-street/", "brand": "NCP", "brand:wikidata": "Q6971273"}, "geometry": {"type": "Point", "coordinates": [-0.123846, 51.526693]}},
{"type": "Feature", "id": "I3l2mjF70I_7NStmjBdTRAiv0uc=", "properties": {"ref": "https://www.ncp.co.uk/find-a-car-park/car-parks/london-finsbury-square/", "@spider": "ncp_gb", "addr:street_address": "Finsbury Square", "addr:city": "London", "addr:postcode": "EC2A 1AD", "addr:country": "GB", "name": "NCP London Finsbury Square", "website": "https://www.ncp.co.uk/find-a-car-park/car-parks/london-finsbury-square/", "brand": "NCP", "brand:wikidata": "Q6971273"}, "geometry": {"type": "Point", "coordinates": [-0.086142, 51.521522]}},
{"type": "Feature", "id": "AcabgXT5uRDT0igYohjbFR9hvw8=", "properties": {"ref": "https://www.ncp.co.uk/find-a-car-park/car-parks/london-cadogan-place/", "@spider": "ncp_gb", "addr:street_address": "Cadogan PLace", "addr:city": "London", "addr:postcode": "SW1X 9SA", "addr:country": "GB", "name": "NCP London Cadogan Place", "website": "https://www.ncp.co.uk/find-a-car-park/car-parks/london-cadogan-place/", "brand": "NCP", "brand:wikidata": "Q6971273"}, "geometry": {"type": "Point", "coordinates": [-0.157851, 51.497963]}},
{"type": "Feature", "id": "SvDQYW4HTXlOJeziM-60liYL3FQ=", "properties": {"ref": "https://www.ncp.co.uk/find-a-car-park/car-parks/london-brunswick-square/", "@spider": "ncp_gb", "addr:street_address": "Marchmont Street", "addr:city": "London", "addr:postcode": "WC1N 1AP", "addr:country": "GB", "name": "NCP London Brunswick Square", "website": "https://www.ncp.co.uk/find-a-car-park/car-parks/london-brunswick-square/", "brand": "NCP", "brand:wikidata": "Q6971273"}, "geometry": {"type": "Point", "coordinates": [-0.124266, 51.523704]}},
{"type": "Feature", "id": "-ctauOb6FbfJl0ktikWi6KiSgiw=", "properties": {"ref": "https://www.ncp.co.uk/find-a-car-park/car-parks/london-brewer-street/", "@spider": "ncp_gb", "addr:street_address": "Brewer Street", "addr:city": "London", "addr:postcode": "W1F0LA", "addr:country": "GB", "name": "NCP London Brewer Street", "website": "https://www.ncp.co.uk/find-a-car-park/car-parks/london-brewer-street/", "brand": "NCP", "brand:wikidata": "Q6971273"}, "geometry": {"type": "Point", "coordinates": [-0.135195, 51.512417]}},
{"type": "Feature", "id": "pXrDEMp-XiTExGCHaPzvS6Ziols=", "properties": {"ref": "https://www.ncp.co.uk/find-a-car-park/car-parks/manchester-store-street/", "@spider": "ncp_gb", "addr:street_address": "Store Street", "addr:city": "Manchester", "addr:postcode": "M1 2WD", "addr:country": "GB", "name": "NCP Manchester Store Street", "website": "https://www.ncp.co.uk/find-a-car-park/car-parks/manchester-store-street/", "brand": "NCP", "brand:wikidata": "Q6971273"}, "geometry": {"type": "Point", "coordinates": [-2.2297499000000016, 53.4786279]}},
{"type": "Feature", "id": "kZhkLLkidF94sameGk6zkLqAuY4=", "properties": {"ref": "https://www.ncp.co.uk/find-a-car-park/car-parks/manchester-spinningfields/", "@spider": "ncp_gb", "addr:street_address": "Spinningfields, New Quay Street", "addr:city": "Manchester", "addr:postcode": "M3 3BE", "addr:country": "GB", "name": "NCP Manchester Spinningfields", "website": "https://www.ncp.co.uk/find-a-car-park/car-parks/manchester-spinningfields/", "brand": "NCP", "brand:wikidata": "Q6971273"}, "geometry": {"type": "Point", "coordinates": [-2.2550458000000617, 53.4798239]}},
{"type": "Feature", "id": "YmM-YMzURMGakjMIfATW9O_4RX4=", "properties": {"ref": "https://www.ncp.co.uk/find-a-car-park/car-parks/manchester-sackville-street/", "@spider": "ncp_gb", "addr:street_address": "Sackville Street, off Bloom Street", "addr:city": "Manchester", "addr:postcode": "M1 3LY", "addr:country": "GB", "name": "NCP Manchester Sackville Street", "website": "https://www.ncp.co.uk/find-a-car-park/car-parks/manchester-sackville-street/", "brand": "NCP", "brand:wikidata": "Q6971273"}, "geometry": {"type": "Point", "coordinates": [-2.238440999999966, 53.4772554]}},
{"type": "Feature", "id": "QJ9MmC6q8pVPTlQM_BiHSJ5urJo=", "properties": {"ref": "https://www.ncp.co.uk/find-a-car-park/car-parks/manchester-port-street/", "@spider": "ncp_gb", "addr:street_address": "Port Street, Dean Street", "addr:city": "Manchester", "addr:postcode": "M1 2EG", "addr:country": "GB", "name": "NCP Manchester Port Street", "website": "https://www.ncp.co.uk/find-a-car-park/car-parks/manchester-port-street/", "brand": "NCP", "brand:wikidata": "Q6971273"}, "geometry": {"type": "Point", "coordinates": [-2.2304825999999593, 53.4823792]}},
{"type": "Feature", "id": "WgcJrapIJhI7tHbSBtDXm42ar9o=", "properties": {"ref": "https://www.ncp.co.uk/find-a-car-park/car-parks/manchester-piccadilly-plaza/", "@spider": "ncp_gb", "addr:street_address": "Piccadilly Plaza, New York Street", "addr:city": "Manchester", "addr:postcode": "M1 4AJ", "addr:country": "GB", "name": "NCP Manchester Piccadilly Plaza", "website": "https://www.ncp.co.uk/find-a-car-park/car-parks/manchester-piccadilly-plaza/", "brand": "NCP", "brand:wikidata": "Q6971273"}, "geometry": {"type": "Point", "coordinates": [-2.2390594999999394, 53.4805743]}},
{"type": "Feature", "id": "OXi0rr0dFGfPlwFu3kBB3ptWSK0=", "properties": {"ref": "https://www.ncp.co.uk/find-a-car-park/car-parks/manchester-park-street/", "@spider": "ncp_gb", "addr:street_address": "Park Street", "addr:city": "Manchester", "addr:postcode": "M3 1EU", "addr:country": "GB", "name": "NCP Manchester Park Street", "website": "https://www.ncp.co.uk/find-a-car-park/car-parks/manchester-park-street/", "brand": "NCP", "brand:wikidata": "Q6971273"}, "geometry": {"type": "Point", "coordinates": [-2.2436778000000004, 53.4902135]}},
{"type": "Feature", "id": "hSpDZDRnW7JzbfyaU2x4LBKM4Hg=", "properties": {"ref": "https://www.ncp.co.uk/find-a-car-park/car-parks/manchester-palace/", "@spider": "ncp_gb", "addr:street_address": "Palace, Whitworth Street", "addr:city": "Manchester", "addr:postcode": "M1 6NE", "addr:country": "GB", "name": "NCP Manchester Palace", "website": "https://www.ncp.co.uk/find-a-car-park/car-parks/manchester-palace/", "brand": "NCP", "brand:wikidata": "Q6971273"}, "geometry": {"type": "Point", "coordinates": [-2.239353899999969, 53.4755389]}},
{"type": "Feature", "id": "V-OBgXgKM9m9YLiPbLnghGyKEuI=", "properties": {"ref": "https://www.ncp.co.uk/find-a-car-park/car-parks/manchester-oxford-street/", "@spider": "ncp_gb", "addr:street_address": "Oxford Street", "addr:city": "Manchester", "addr:postcode": "M1 5EJ", "addr:country": "GB", "name": "NCP Manchester Oxford Street", "website": "https://www.ncp.co.uk/find-a-car-park/car-parks/manchester-oxford-street/", "brand": "NCP", "brand:wikidata": "Q6971273"}, "geometry": {"type": "Point", "coordinates": [-2.2428244000000177, 53.4755233]}},
{"type": "Feature", "id": "g0stNljRovD452Gq0AgVgSw5RlU=", "properties": {"ref": "https://www.ncp.co.uk/find-a-car-park/car-parks/heathrow-t5-hilton-hotel/", "@spider": "ncp_gb", "addr:street_address": "Colnbrook, 5 Poyle Road", "addr:city": "Slough", "addr:postcode": "SL3 0FF", "addr:country": "GB", "name": "NCP Heathrow Terminals 4-5 (Hilton)", "website": "https://www.ncp.co.uk/find-a-car-park/car-parks/heathrow-t5-hilton-hotel/", "brand": "NCP", "brand:wikidata": "Q6971273"}, "geometry": {"type": "Point", "coordinates": [-0.51713, 51.476783]}},
{"type": "Feature", "id": "r4Xp41iZgDJQxBMT6dZ47px5iRk=", "properties": {"ref": "https://www.ncp.co.uk/find-a-car-park/car-parks/manchester-gt-northern-warehouse-2-/", "@spider": "ncp_gb", "addr:street_address": "Gt Northern Warehouse 2, Watson Street", "addr:city": "Manchester", "addr:postcode": "M3 4EE", "addr:country": "GB", "name": "NCP Manchester Gt Northern Warehouse 2", "website": "https://www.ncp.co.uk/find-a-car-park/car-parks/manchester-gt-northern-warehouse-2-/", "brand": "NCP", "brand:wikidata": "Q6971273"}, "geometry": {"type": "Point", "coordinates": [-2.249565999999959, 53.4769409]}},
{"type": "Feature", "id": "6EGWE70uvAiA5FrtFLwTuvttfsI=", "properties": {"ref": "https://www.ncp.co.uk/find-a-car-park/car-parks/manchester-gt-northern-warehouse-1-/", "@spider": "ncp_gb", "addr:street_address": "Gt Northern Warehouse 1, Watson Street", "addr:city": "Manchester", "addr:postcode": "M3 4EE", "addr:country": "GB", "name": "NCP Manchester Gt Northern Warehouse 1", "website": "https://www.ncp.co.uk/find-a-car-park/car-parks/manchester-gt-northern-warehouse-1-/", "brand": "NCP", "brand:wikidata": "Q6971273"}, "geometry": {"type": "Point", "coordinates": [-2.249565999999959, 53.4769409]}},
{"type": "Feature", "id": "-Ok70Pkj9dz2Xk3M0LmfEVDoDzU=", "properties": {"ref": "https://www.ncp.co.uk/find-a-car-park/car-parks/manchester-chorlton-street/", "@spider": "ncp_gb", "addr:street_address": "Chorlton Street", "addr:city": "Manchester", "addr:postcode": "M1 3FY", "addr:country": "GB", "name": "NCP Manchester Chorlton Street", "website": "https://www.ncp.co.uk/find-a-car-park/car-parks/manchester-chorlton-street/", "brand": "NCP", "brand:wikidata": "Q6971273"}, "geometry": {"type": "Point", "coordinates": [-2.235723099999973, 53.47736769999999]}},
{"type": "Feature", "id": "siQgKiG3f8SwITJV4l_gZK6B-sI=", "properties": {"ref": "https://www.ncp.co.uk/find-a-car-park/car-parks/manchester-chester-street/", "@spider": "ncp_gb", "addr:street_address": "Chester Street", "addr:city": "Manchester", "addr:postcode": "M1 5GE", "addr:country": "GB", "name": "NCP Manchester Chester Street", "website": "https://www.ncp.co.uk/find-a-car-park/car-parks/manchester-chester-street/", "brand": "NCP", "brand:wikidata": "Q6971273"}, "geometry": {"type": "Point", "coordinates": [-2.2413711000000376, 53.47190089999999]}},
{"type": "Feature", "id": "sjVQl_YMb9teiQIzu580SHCOIsE=", "properties": {"ref": "https://www.ncp.co.uk/find-a-car-park/car-parks/manchester-central/", "@spider": "ncp_gb", "addr:street_address": "Central, Lower Mosley Street", "addr:city": "Manchester", "addr:postcode": "M2 3GX", "addr:country": "GB", "name": "NCP Manchester Central", "website": "https://www.ncp.co.uk/find-a-car-park/car-parks/manchester-central/", "brand": "NCP", "brand:wikidata": "Q6971273"}, "geometry": {"type": "Point", "coordinates": [-2.247449700000061, 53.4761433]}},
{"type": "Feature", "id": "KuSdTTXH7yy4966Mq0xDJDWQWqI=", "properties": {"ref": "https://www.ncp.co.uk/find-a-car-park/car-parks/birmingham-st-judes-passage/", "@spider": "ncp_gb", "addr:street_address": "St Judes Passage, Hill Street", "addr:city": "Birmingham", "addr:postcode": "B5 4AN", "addr:country": "GB", "name": "NCP Birmingham St Judes Passage", "website": "https://www.ncp.co.uk/find-a-car-park/car-parks/birmingham-st-judes-passage/", "brand": "NCP", "brand:wikidata": "Q6971273"}, "geometry": {"type": "Point", "coordinates": [-1.8994682999999668, 52.4761148]}},
{"type": "Feature", "id": "jaZtHqN6p4asTQoHajGZEyVh8_I=", "properties": {"ref": "https://www.ncp.co.uk/find-a-car-park/car-parks/birmingham-gough-street/", "@spider": "ncp_gb", "addr:street_address": "Gough Street", "addr:city": "Birmingham", "addr:postcode": "B1 1HN", "addr:country": "GB", "name": "NCP Birmingham Gough Street", "website": "https://www.ncp.co.uk/find-a-car-park/car-parks/birmingham-gough-street/", "brand": "NCP", "brand:wikidata": "Q6971273"}, "geometry": {"type": "Point", "coordinates": [-1.9027078999999958, 52.4753961]}},
{"type": "Feature", "id": "24XiIHT0o6-dXfhCWErVKNZvXBA=", "properties": {"ref": "https://www.ncp.co.uk/find-a-car-park/car-parks/birmingham-horsefair/", "@spider": "ncp_gb", "addr:street_address": "Horsefair MSCP, Bow Street", "addr:city": "Birmingham", "addr:postcode": "B1 1DW", "addr:country": "GB", "name": "NCP Birmingham Horsefair", "website": "https://www.ncp.co.uk/find-a-car-park/car-parks/birmingham-horsefair/", "brand": "NCP", "brand:wikidata": "Q6971273"}, "geometry": {"type": "Point", "coordinates": [-1.9004876000000195, 52.4737958]}},
{"type": "Feature", "id": "QsnfeakCedtixJ8xw8VYOYrMHA4=", "properties": {"ref": "https://www.ncp.co.uk/find-a-car-park/car-parks/birmingham-royal-angus/", "@spider": "ncp_gb", "addr:street_address": "Royal Angus, St Chads Queensway", "addr:city": "Birmingham", "addr:postcode": "B4 6HY", "addr:country": "GB", "name": "NCP Birmingham Royal Angus", "website": "https://www.ncp.co.uk/find-a-car-park/car-parks/birmingham-royal-angus/", "brand": "NCP", "brand:wikidata": "Q6971273"}, "geometry": {"type": "Point", "coordinates": [-1.897224000000051, 52.4848545]}},
{"type": "Feature", "id": "9sws5-cIRWWuAuT-FEQa0EfuFIk=", "properties": {"ref": "https://www.ncp.co.uk/find-a-car-park/car-parks/birmingham-newhall-street/", "@spider": "ncp_gb", "addr:street_address": "Newhall Street", "addr:city": "Birmingham", "addr:postcode": "B3 1SW", "addr:country": "GB", "name": "NCP Birmingham Newhall Street", "website": "https://www.ncp.co.uk/find-a-car-park/car-parks/birmingham-newhall-street/", "brand": "NCP", "brand:wikidata": "Q6971273"}, "geometry": {"type": "Point", "coordinates": [-1.9066004999999677, 52.4838238]}},
{"type": "Feature", "id": "QAj6e_VsEF0TsAV7crpg8LxdR64=", "properties": {"ref": "https://www.ncp.co.uk/find-a-car-park/car-parks/birmingham-new-street/", "@spider": "ncp_gb", "addr:street_address": "New Street, St Judes Passage", "addr:city": "Birmingham", "addr:postcode": "B5 4AN", "addr:country": "GB", "name": "NCP Birmingham New Street", "website": "https://www.ncp.co.uk/find-a-car-park/car-parks/birmingham-new-street/", "brand": "NCP", "brand:wikidata": "Q6971273"}, "geometry": {"type": "Point", "coordinates": [-1.9000805000000582, 52.4757474]}},
{"type": "Feature", "id": "MKcZo4R78fBONlyXOaBw5ndavt8=", "properties": {"ref": "https://www.ncp.co.uk/find-a-car-park/car-parks/birmingham-londonderry-house/", "@spider": "ncp_gb", "addr:street_address": "Londonderry House, Dalton Street", "addr:city": "Birmingham", "addr:postcode": "B4 7LX", "addr:country": "GB", "name": "NCP Birmingham Londonderry House", "website": "https://www.ncp.co.uk/find-a-car-park/car-parks/birmingham-londonderry-house/", "brand": "NCP", "brand:wikidata": "Q6971273"}, "geometry": {"type": "Point", "coordinates": [-1.8930700999999317, 52.48235709999999]}},
{"type": "Feature", "id": "chtavQc5iH_b__ipwg-4O46D0w8=", "properties": {"ref": "https://www.ncp.co.uk/find-a-car-park/car-parks/birmingham-high-street/", "@spider": "ncp_gb", "addr:street_address": "High Street, Dale End", "addr:city": "Birmingham", "addr:postcode": "B4 7LN", "addr:country": "GB", "name": "NCP Birmingham High Street", "website": "https://www.ncp.co.uk/find-a-car-park/car-parks/birmingham-high-street/", "brand": "NCP", "brand:wikidata": "Q6971273"}, "geometry": {"type": "Point", "coordinates": [-1.8928988000000118, 52.4809622]}},
{"type": "Feature", "id": "VMPr3G3kdSUCSdu5P9aPERgv_BE=", "properties": {"ref": "https://www.ncp.co.uk/find-a-car-park/car-parks/bournemouth-the-square/", "@spider": "ncp_gb", "addr:street_address": "The Square, Richmond Hill", "addr:city": "Bournemouth", "addr:postcode": "BH2 6EJ", "addr:country": "GB", "name": "NCP Bournemouth The Square", "website": "https://www.ncp.co.uk/find-a-car-park/car-parks/bournemouth-the-square/", "brand": "NCP", "brand:wikidata": "Q6971273"}, "geometry": {"type": "Point", "coordinates": [-1.8785927999999785, 50.7201856]}},
{"type": "Feature", "id": "E4DWm8_gFrm4RQ0q1sJq-Yketds=", "properties": {"ref": "https://www.ncp.co.uk/find-a-car-park/car-parks/bournemouth-terrace-road/", "@spider": "ncp_gb", "addr:street_address": "Terrace Road", "addr:city": "Bournemouth", "addr:postcode": "BH2 5NN", "addr:country": "GB", "name": "NCP Bournemouth Terrace Road", "website": "https://www.ncp.co.uk/find-a-car-park/car-parks/bournemouth-terrace-road/", "brand": "NCP", "brand:wikidata": "Q6971273"}, "geometry": {"type": "Point", "coordinates": [-1.8833887000000686, 50.7196115]}},
{"type": "Feature", "id": "QfopqDD2vkPbSYrwCWh-zAkBfSU=", "properties": {"ref": "https://www.ncp.co.uk/find-a-car-park/car-parks/bournemouth-hinton-road/", "@spider": "ncp_gb", "addr:street_address": "Hinton Road", "addr:city": "Bournemouth", "addr:postcode": "BH1 2EN", "addr:country": "GB", "name": "NCP Bournemouth Hilton Road", "website": "https://www.ncp.co.uk/find-a-car-park/car-parks/bournemouth-hinton-road/", "brand": "NCP", "brand:wikidata": "Q6971273"}},
{"type": "Feature", "id": "24QspWEshrbI6D-JvD3mMhJ_l5A=", "properties": {"ref": "https://www.ncp.co.uk/find-a-car-park/car-parks/brighton-theatre/", "@spider": "ncp_gb", "addr:street_address": "Brighton Theatre, Church Street", "addr:city": "Brighton", "addr:postcode": "BN1 1US", "addr:country": "GB", "name": "NCP Brighton Theatre", "website": "https://www.ncp.co.uk/find-a-car-park/car-parks/brighton-theatre/", "brand": "NCP", "brand:wikidata": "Q6971273"}, "geometry": {"type": "Point", "coordinates": [-0.14066969999998946, 50.8244236]}},
{"type": "Feature", "id": "JvasCIayyV95g-Epi1Ra0Rh47ig=", "properties": {"ref": "https://www.ncp.co.uk/find-a-car-park/car-parks/bristol-rupert-street/", "@spider": "ncp_gb", "addr:street_address": "Rupert Street", "addr:city": "Bristol", "addr:postcode": "BS1 2PY", "addr:country": "GB", "name": "NCP Bristol Rupert Street", "website": "https://www.ncp.co.uk/find-a-car-park/car-parks/bristol-rupert-street/", "brand": "NCP", "brand:wikidata": "Q6971273"}, "geometry": {"type": "Point", "coordinates": [-2.5940325999999914, 51.4570574]}},
{"type": "Feature", "id": "_F3n23APOM4CeTwFOA3-CDfnzGE=", "properties": {"ref": "https://www.ncp.co.uk/find-a-car-park/car-parks/bristol-queen-charlotte-street/", "@spider": "ncp_gb", "addr:street_address": "Queen Charlotte Street", "addr:city": "Bristol", "addr:postcode": "BS1 4ES", "addr:country": "GB", "name": "NCP Bristol Queen Charlotte Street", "website": "https://www.ncp.co.uk/find-a-car-park/car-parks/bristol-queen-charlotte-street/", "brand": "NCP", "brand:wikidata": "Q6971273"}, "geometry": {"type": "Point", "coordinates": [-2.593472600000041, 51.4527654]}},
{"type": "Feature", "id": "3EaV25ndCxx43foxElqUEHpQQKM=", "properties": {"ref": "https://www.ncp.co.uk/find-a-car-park/car-parks/bristol-prince-street/", "@spider": "ncp_gb", "addr:street_address": "Prince Street, Bristol Hotel", "addr:city": "Bristol", "addr:postcode": "BS1 4QF", "addr:country": "GB", "name": "NCP Bristol Prince Street", "website": "https://www.ncp.co.uk/find-a-car-park/car-parks/bristol-prince-street/", "brand": "NCP", "brand:wikidata": "Q6971273"}, "geometry": {"type": "Point", "coordinates": [-2.596885499999985, 51.45022239999999]}},
{"type": "Feature", "id": "hy80TX6Tg-2S9M_RmOprkihw47o=", "properties": {"ref": "https://www.ncp.co.uk/find-a-car-park/car-parks/bristol-nelson-street/", "@spider": "ncp_gb", "addr:street_address": "Nelson Street, Fairfax Street", "addr:city": "Bristol", "addr:postcode": "BS1 3DB", "addr:country": "GB", "name": "NCP Bristol Nelson Street", "website": "https://www.ncp.co.uk/find-a-car-park/car-parks/bristol-nelson-street/", "brand": "NCP", "brand:wikidata": "Q6971273"}, "geometry": {"type": "Point", "coordinates": [-2.592698299999938, 51.45667419999999]}},
{"type": "Feature", "id": "FW63MmkID5cNy40Q4CsgaTPaj6Q=", "properties": {"ref": "https://www.ncp.co.uk/find-a-car-park/car-parks/bristol-broadmead/", "@spider": "ncp_gb", "addr:street_address": "Broadmead, Lower Castle Street", "addr:city": "Bristol", "addr:postcode": "BS1 3AF", "addr:country": "GB", "name": "NCP Bristol Broadmead", "website": "https://www.ncp.co.uk/find-a-car-park/car-parks/bristol-broadmead/", "brand": "NCP", "brand:wikidata": "Q6971273"}, "geometry": {"type": "Point", "coordinates": [-2.5853889999999637, 51.4563151]}},
{"type": "Feature", "id": "SOeWjXBCaYWLWPHqw28bVoR5NWc=", "properties": {"ref": "https://www.ncp.co.uk/parking-solutions/airports/london-heathrow/", "@spider": "ncp_gb", "addr:street_address": "Nelson Road", "addr:city": "Hounslow", "addr:postcode": "TW6 2GW", "addr:country": "GB", "name": "NCP Heathrow Airport", "website": "https://www.ncp.co.uk/parking-solutions/airports/london-heathrow/", "brand": "NCP", "brand:wikidata": "Q6971273"}, "geometry": {"type": "Point", "coordinates": [-0.454326, 51.469996]}},
{"type": "Feature", "id": "aLDVuUQsAIWhoDatFhaI-hxnfDM=", "properties": {"ref": "https://www.ncp.co.uk/parking-solutions/airports/birmingham-airport/", "@spider": "ncp_gb", "addr:street_address": "Birmingham Airport, Airport Way", "addr:city": "Birmingham", "addr:postcode": "B26 3QJ", "addr:country": "GB", "name": "NCP Birmingham Airport Parking", "website": "https://www.ncp.co.uk/parking-solutions/airports/birmingham-airport/", "brand": "NCP", "brand:wikidata": "Q6971273"}, "geometry": {"type": "Point", "coordinates": [-1.732349, 52.45308]}},
{"type": "Feature", "id": "TVlc5XFLzrfsIz3WdsKdQVPE7QM=", "properties": {"ref": "https://www.ncp.co.uk/find-a-car-park/car-parks/birmingham-airport-drop-off/", "@spider": "ncp_gb", "addr:street_address": "Birmingham Airport, Airport Way", "addr:city": "Birmingham", "addr:postcode": "B26 3QJ", "addr:country": "GB", "name": "NCP Birmingham Airport drop off", "website": "https://www.ncp.co.uk/find-a-car-park/car-parks/birmingham-airport-drop-off/", "brand": "NCP", "brand:wikidata": "Q6971273"}, "geometry": {"type": "Point", "coordinates": [-1.730849, 52.447911]}},
{"type": "Feature", "id": "4zA3YsbgMy8pIMVGBCtBeYffoGg=", "properties": {"ref": "https://www.ncp.co.uk/find-a-car-park/car-parks/birmingham-airport-carpark-7/", "@spider": "ncp_gb", "addr:street_address": "Works Rd, Marston Green", "addr:city": "Birmingham", "addr:postcode": "B26 3RF", "addr:country": "GB", "name": "NCP Birmingham Airport Car Park 7", "website": "https://www.ncp.co.uk/find-a-car-park/car-parks/birmingham-airport-carpark-7/", "brand": "NCP", "brand:wikidata": "Q6971273"}, "geometry": {"type": "Point", "coordinates": [-1.749457, 52.447307]}},
{"type": "Feature", "id": "6ZL5d8_JeuBi7SHwmO56h4vUWgQ=", "properties": {"ref": "https://www.ncp.co.uk/find-a-car-park/car-parks/birmingham-airport-coach-park/", "@spider": "ncp_gb", "addr:street_address": "Control Centre, Viscount House", "addr:city": "Birmingham", "addr:postcode": "B26 3QJ", "addr:country": "GB", "name": "NCP Birmingham Airport Coach Park", "website": "https://www.ncp.co.uk/find-a-car-park/car-parks/birmingham-airport-coach-park/", "brand": "NCP", "brand:wikidata": "Q6971273"}, "geometry": {"type": "Point", "coordinates": [-1.727481, 52.451244]}},
{"type": "Feature", "id": "v7aOd7T5X6z72W8Jtlu-d5zIQs4=", "properties": {"ref": "https://www.ncp.co.uk/find-a-car-park/car-parks/birmingham-airport-carpark-5/", "@spider": "ncp_gb", "addr:street_address": "Long Stay 1, Birmingham Airport, Airport Way", "addr:city": "Birmingham", "addr:postcode": "B26 3QJ", "addr:country": "GB", "name": "NCP Birmingham Airport Car Park 5", "website": "https://www.ncp.co.uk/find-a-car-park/car-parks/birmingham-airport-carpark-5/", "brand": "NCP", "brand:wikidata": "Q6971273"}, "geometry": {"type": "Point", "coordinates": [-1.733313, 52.446668]}},
{"type": "Feature", "id": "-7pLSvQcEI6J46sw_PHDwWXpsiI=", "properties": {"ref": "https://www.ncp.co.uk/find-a-car-park/car-parks/birmingham-airport-carpark-4/", "@spider": "ncp_gb", "addr:street_address": "Airport Way, Birmingham Airport", "addr:city": "Birmingham", "addr:postcode": "B26 3QJ", "addr:country": "GB", "name": "NCP Birmingham Airport Car Park 4", "website": "https://www.ncp.co.uk/find-a-car-park/car-parks/birmingham-airport-carpark-4/", "brand": "NCP", "brand:wikidata": "Q6971273"}, "geometry": {"type": "Point", "coordinates": [-1.730763, 52.448819]}},
{"type": "Feature", "id": "NrAZ-Frg8DH_TdcQsWnjUoegiL8=", "properties": {"ref": "https://www.ncp.co.uk/find-a-car-park/car-parks/birmingham-airport-carpark-23/", "@spider": "ncp_gb", "addr:street_address": "Airport Short and Medium Stay, Birmingham Airport, Airport Way", "addr:city": "Birmingham", "addr:postcode": "B26 3QJ", "addr:country": "GB", "name": "NCP Birmingham Airport Car Park 2&3", "website": "https://www.ncp.co.uk/find-a-car-park/car-parks/birmingham-airport-carpark-23/", "brand": "NCP", "brand:wikidata": "Q6971273"}, "geometry": {"type": "Point", "coordinates": [-1.730743, 52.453867]}},
{"type": "Feature", "id": "cy2jr5s1QTK1B9GfTN0e3fvMy0A=", "properties": {"ref": "https://www.ncp.co.uk/parking-solutions/airports/leeds-bradford-airport/", "@spider": "ncp_gb", "addr:street_address": "Whitehouse Lane, Yeadon", "addr:city": "Leeds", "addr:postcode": "LS19 7TU", "addr:country": "GB", "name": "NCP Leeds Bradford Airport", "website": "https://www.ncp.co.uk/parking-solutions/airports/leeds-bradford-airport/", "brand": "NCP", "brand:wikidata": "Q6971273"}, "geometry": {"type": "Point", "coordinates": [-1.661418, 53.867938]}},
{"type": "Feature", "id": "sCn4fABpKzw5VncD4993Oxb5AEo=", "properties": {"ref": "https://www.ncp.co.uk/parking-solutions/airports/glasgow-prestwick-airport/", "@spider": "ncp_gb", "addr:street_address": "Glasgow Prestwick Airport", "addr:city": "Prestwick", "addr:postcode": "KA9 2PL", "addr:country": "GB", "name": "NCP Glasgow Prestwick Airport", "website": "https://www.ncp.co.uk/parking-solutions/airports/glasgow-prestwick-airport/", "brand": "NCP", "brand:wikidata": "Q6971273"}, "geometry": {"type": "Point", "coordinates": [-4.610791, 55.509085]}},
{"type": "Feature", "id": "V9-9FA9BWwOon1Idgy67DUeKTw0=", "properties": {"ref": "https://www.ncp.co.uk/parking-solutions/airports/exeter-international-airport/", "@spider": "ncp_gb", "addr:street_address": "Exeter Airport", "addr:city": "Exeter", "addr:postcode": "EX5 2BD", "addr:country": "GB", "name": "NCP Exeter Airport", "website": "https://www.ncp.co.uk/parking-solutions/airports/exeter-international-airport/", "brand": "NCP", "brand:wikidata": "Q6971273"}, "geometry": {"type": "Point", "coordinates": [-3.415475, 50.735059]}},
{"type": "Feature", "id": "Bf1sjt826HbBRSsUvw-m6klvZLM=", "properties": {"ref": "https://www.ncp.co.uk/parking-solutions/airports/durham-tees-valley-airport/", "@spider": "ncp_gb", "addr:street_address": "Durham Tees Valley Airport", "addr:city": "Darlington", "addr:postcode": "DL2 1LU", "addr:country": "GB", "name": "NCP Durham Tees Valley Airport", "website": "https://www.ncp.co.uk/parking-solutions/airports/durham-tees-valley-airport/", "brand": "NCP", "brand:wikidata": "Q6971273"}, "geometry": {"type": "Point", "coordinates": [-1.424496, 54.510978]}},
{"type": "Feature", "id": "up80ELQen4hDb_Px0LXZQH7NeVI=", "properties": {"ref": "https://www.ncp.co.uk/parking-solutions/airports/doncaster-airport/", "@spider": "ncp_gb", "addr:street_address": "First Avenue", "addr:city": "Doncaster", "addr:postcode": "DN9 3RH", "addr:country": "GB", "name": "NCP Doncaster Sheffield Airport", "website": "https://www.ncp.co.uk/parking-solutions/airports/doncaster-airport/", "brand": "NCP", "brand:wikidata": "Q6971273"}, "geometry": {"type": "Point", "coordinates": [-1.007945, 53.4809]}},
{"type": "Feature", "id": "WVH3lCfEBt2q5viHXqXc9jsQ_m0=", "properties": {"ref": "https://www.ncp.co.uk/parking-solutions/airports/bournemouth-airport/", "@spider": "ncp_gb", "addr:street_address": "Parley Lane, Christchurch", "addr:city": "Bournemouth", "addr:postcode": "BH23 6SE", "addr:country": "GB", "name": "NCP Bournemouth Airport", "website": "https://www.ncp.co.uk/parking-solutions/airports/bournemouth-airport/", "brand": "NCP", "brand:wikidata": "Q6971273"}, "geometry": {"type": "Point", "coordinates": [-1.840475, 50.781633]}},
{"type": "Feature", "id": "c-AYCkmFMYW6B_y7yCy7AoHdfrg=", "properties": {"ref": "https://www.ncp.co.uk/parking-solutions/airports/aberdeen-dyce-airport/", "@spider": "ncp_gb", "addr:street_address": "Aberdeen Airport, Dyce", "addr:city": "Aberdeen", "addr:postcode": "AB21 7DU", "addr:country": "GB", "name": "NCP Aberdeen Dyce Airport", "website": "https://www.ncp.co.uk/parking-solutions/airports/aberdeen-dyce-airport/", "brand": "NCP", "brand:wikidata": "Q6971273"}, "geometry": {"type": "Point", "coordinates": [-2.200205, 57.203704]}},
{"type": "Feature", "id": "cj4q1lepa5iReJvxYKdnCPYfbJQ=", "properties": {"ref": "https://www.ncp.co.uk/find-a-car-park/car-parks/birmingham-airport-carpark-1/", "@spider": "ncp_gb", "addr:street_address": "Short and Medium Stay, Birmingham Airport, Airport Way", "addr:city": "Birmingham", "addr:postcode": "B26 3QJ", "addr:country": "GB", "name": "NCP Birmingham Airport Car Park 1", "website": "https://www.ncp.co.uk/find-a-car-park/car-parks/birmingham-airport-carpark-1/", "brand": "NCP", "brand:wikidata": "Q6971273"}, "geometry": {"type": "Point", "coordinates": [-1.730066, 52.451574]}},
{"type": "Feature", "id": "EOqcA_-kF7hCYX_vydC_2JlVvTQ=", "properties": {"ref": "https://www.ncp.co.uk/find-a-car-park/car-parks/birmingham-airport-valet-parking/", "@spider": "ncp_gb", "addr:street_address": "Valet Parking, Ambassador Way", "addr:city": "Birmingham", "addr:postcode": "B26 3AW", "addr:country": "GB", "name": "NCP Birmingham Airport Valet Parking", "website": "https://www.ncp.co.uk/find-a-car-park/car-parks/birmingham-airport-valet-parking/", "brand": "NCP", "brand:wikidata": "Q6971273"}, "geometry": {"type": "Point", "coordinates": [-1.731864, 52.452175]}},
{"type": "Feature", "id": "_YltzzT3EiZd5ywyeC33hAiTbjE=", "properties": {"ref": "https://www.ncp.co.uk/find-a-car-park/car-parks/birmingham-airport-premium-set-down/", "@spider": "ncp_gb", "addr:street_address": "Airport Drop & Go, Birmingham Airport, Airport Way", "addr:city": "Birmingham", "addr:postcode": "B26 3QJ", "addr:country": "GB", "name": "NCP Birmingham Airport Premium Set Down", "website": "https://www.ncp.co.uk/find-a-car-park/car-parks/birmingham-airport-premium-set-down/", "brand": "NCP", "brand:wikidata": "Q6971273"}, "geometry": {"type": "Point", "coordinates": [-1.732037, 52.452133]}},
{"type": "Feature", "id": "tgfd9Ans3JO6NEWLlmUgEhbiXTA=", "properties": {"ref": "https://www.ncp.co.uk/find-a-car-park/car-parks/sentinel-security-car-park/", "@spider": "ncp_gb", "addr:street_address": "Warren House Lane, Yeadon", "addr:city": "Leeds", "addr:postcode": "LS19 7FT", "addr:country": "GB", "name": "Sentinel Security Car Park", "website": "https://www.ncp.co.uk/find-a-car-park/car-parks/sentinel-security-car-park/", "brand": "NCP", "brand:wikidata": "Q6971273"}, "geometry": {"type": "Point", "coordinates": [-1.666878, 53.876126]}},
{"type": "Feature", "id": "aBwAozOniPCHh1boljTCL8q6kqo=", "properties": {"ref": "https://www.ncp.co.uk/find-a-car-park/car-parks/glasgow-prestwick-mid-and-long-stay/", "@spider": "ncp_gb", "addr:city": "Prestwick", "addr:postcode": "KA9 2PL", "addr:country": "GB", "name": "Glasgow Prestwick Mid and Long Stay Car Park", "website": "https://www.ncp.co.uk/find-a-car-park/car-parks/glasgow-prestwick-mid-and-long-stay/", "brand": "NCP", "brand:wikidata": "Q6971273"}, "geometry": {"type": "Point", "coordinates": [-4.607811, 55.508949]}},
{"type": "Feature", "id": "AOv-Z0hotVIZR6Cx5gfiVcrlDMk=", "properties": {"ref": "https://www.ncp.co.uk/find-a-car-park/car-parks/exeter-airport-long-stay-3/", "@spider": "ncp_gb", "addr:street_address": "Exeter Airport", "addr:city": "Exeter", "addr:postcode": "EX5 2BD", "addr:country": "GB", "name": "NCP Exeter Airport Long Stay 3", "website": "https://www.ncp.co.uk/find-a-car-park/car-parks/exeter-airport-long-stay-3/", "brand": "NCP", "brand:wikidata": "Q6971273"}, "geometry": {"type": "Point", "coordinates": [-3.418855, 50.729745]}},
{"type": "Feature", "id": "BZ0Mizb3qKV7jMaoV59xaGGmj6Q=", "properties": {"ref": "https://www.ncp.co.uk/find-a-car-park/car-parks/exeter-airport-short-stay-2/", "@spider": "ncp_gb", "addr:street_address": "Exeter Airport", "addr:city": "Exeter", "addr:postcode": "EX5 2BD", "addr:country": "GB", "name": "NCP Exeter Airport Short Stay 2", "website": "https://www.ncp.co.uk/find-a-car-park/car-parks/exeter-airport-short-stay-2/", "brand": "NCP", "brand:wikidata": "Q6971273"}, "geometry": {"type": "Point", "coordinates": [-3.417825, 50.730183]}},
{"type": "Feature", "id": "aoItFGIf_ELXCzu-TTVLsOdaJuk=", "properties": {"ref": "https://www.ncp.co.uk/find-a-car-park/car-parks/durham-tees-on-airport-car-park/", "@spider": "ncp_gb", "addr:street_address": "Durham Tees Valley Airport, Darlington", "addr:city": "Tees Valley", "addr:postcode": "DL2 1LU", "addr:country": "GB", "name": "NCP Durham Tees On Airport Car Park", "website": "https://www.ncp.co.uk/find-a-car-park/car-parks/durham-tees-on-airport-car-park/", "brand": "NCP", "brand:wikidata": "Q6971273"}, "geometry": {"type": "Point", "coordinates": [-1.435457, 54.512393]}},
{"type": "Feature", "id": "UW3GXEQgXun-M5BePWUTSZPoIfk=", "properties": {"ref": "https://www.ncp.co.uk/find-a-car-park/car-parks/bournemouth-airport-long-stay-1/", "@spider": "ncp_gb", "addr:street_address": "Bournemouth Airport", "addr:city": "Christchurch", "addr:postcode": "BH23 6SE", "addr:country": "GB", "name": "NCP Bournemouth Airport Car Park 2", "website": "https://www.ncp.co.uk/find-a-car-park/car-parks/bournemouth-airport-long-stay-1/", "brand": "NCP", "brand:wikidata": "Q6971273"}, "geometry": {"type": "Point", "coordinates": [-1.840478, 50.7815]}},
{"type": "Feature", "id": "jwcNtAAbBOHFz3SacOTXTOFQPlM=", "properties": {"ref": "https://www.ncp.co.uk/find-a-car-park/car-parks/aberdeen-long-stay/", "@spider": "ncp_gb", "addr:street_address": "Aberdeen Airport", "addr:city": "Aberdeen", "addr:postcode": "AB21 7DU", "addr:country": "GB", "name": "NCP Aberdeen Long Stay", "website": "https://www.ncp.co.uk/find-a-car-park/car-parks/aberdeen-long-stay/", "brand": "NCP", "brand:wikidata": "Q6971273"}, "geometry": {"type": "Point", "coordinates": [-2.214415, 57.200467]}},
{"type": "Feature", "id": "85GzLslrObv4Vtm2-t86Ruwf7gQ=", "properties": {"ref": "https://www.ncp.co.uk/find-a-car-park/car-parks/aberdeen-short-stay/", "@spider": "ncp_gb", "addr:street_address": "Aberdeen Airport", "addr:city": "Aberdeen", "addr:postcode": "AB21 7DU", "addr:country": "GB", "name": "NCP Aberdeen Short Stay", "website": "https://www.ncp.co.uk/find-a-car-park/car-parks/aberdeen-short-stay/", "brand": "NCP", "brand:wikidata": "Q6971273"}, "geometry": {"type": "Point", "coordinates": [-2.206652, 57.199768]}}]}