{"type":"FeatureCollection","features":[{"type": "Feature", "id": "SoVbAenREqdKypayLeRlv7XORf4=", "properties": {"ref": "HU", "@spider": "new_york_public_library", "addr:full": "203 West 115th Street", "addr:city": "New York", "addr:state": "NY", "addr:postcode": "10026", "addr:country": "US", "name": "Harry Belafonte 115th Street Library", "phone": "(212)-666-9393", "website": "https://www.nypl.org/about/locations/", "opening_hours": "Mo-Th 11:00-19:00; Fr-Sa 10:00-17:00", "brand": "The New York Public Library", "brand:wikidata": "Q219555"}, "geometry": {"type": "Point", "coordinates": [-73.9532, 40.8028]}},
{"type": "Feature", "id": "8fRIwCML4QAnEzh90NcTwONQUBI=", "properties": {"ref": "HD", "@spider": "new_york_public_library", "addr:full": "224 East 125th Street", "addr:city": "New York", "addr:state": "NY", "addr:postcode": "10035", "addr:country": "US", "name": "125th Street Library", "phone": "(212)-534-5050", "website": "https://www.nypl.org/about/locations/", "brand": "The New York Public Library", "brand:wikidata": "Q219555"}, "geometry": {"type": "Point", "coordinates": [-73.9354, 40.8034]}},
{"type": "Feature", "id": "Hrm15-KBJDC5VKjVlH0uaszlEwk=", "properties": {"ref": "53STR", "@spider": "new_york_public_library", "addr:full": "18 West 53rd Street", "addr:city": "New York", "addr:state": "NY", "addr:postcode": "10019", "addr:country": "US", "name": "53rd Street Library", "phone": "(212) 714-8400", "website": "https://www.nypl.org/about/locations/", "opening_hours": "Mo-Sa 11:00-18:00", "brand": "The New York Public Library", "brand:wikidata": "Q219555"}, "geometry": {"type": "Point", "coordinates": [-73.9773, 40.7608]}},
{"type": "Feature", "id": "7s38aTA1QCujXNsgM6zI6a86b5g=", "properties": {"ref": "FE", "@spider": "new_york_public_library", "addr:full": "127 East 58th Street", "addr:city": "New York", "addr:state": "NY", "addr:postcode": "10022", "addr:country": "US", "name": "58th Street Library", "phone": "(212)-759-7358", "website": "https://www.nypl.org/about/locations/", "opening_hours": "Mo-Th 10:00-18:00; Fr-Sa 10:00-17:00", "brand": "The New York Public Library", "brand:wikidata": "Q219555"}, "geometry": {"type": "Point", "coordinates": [-73.9691, 40.7619]}},
{"type": "Feature", "id": "kJ4PlQJOzMTgrbRHv1Ylyrher6A=", "properties": {"ref": "SS", "@spider": "new_york_public_library", "addr:full": "328 East 67th Street", "addr:city": "New York", "addr:state": "NY", "addr:postcode": "10065", "addr:country": "US", "name": "67th Street Library", "phone": "(212) 734-1717", "website": "https://www.nypl.org/about/locations/", "opening_hours": "Mo-Th 11:00-19:00; Fr-Sa 10:00-17:00", "brand": "The New York Public Library", "brand:wikidata": "Q219555"}, "geometry": {"type": "Point", "coordinates": [-73.9601, 40.7652]}},
{"type": "Feature", "id": "IrdE4GSiHBCtG6BA5EegsHfpSrM=", "properties": {"ref": "NSR", "@spider": "new_york_public_library", "addr:full": "112 East 96th Street", "addr:city": "New York", "addr:state": "NY", "addr:postcode": "10128", "addr:country": "US", "name": "96th Street Library", "phone": "(212)-289-0908", "website": "https://www.nypl.org/about/locations/", "opening_hours": "Mo-Th 10:00-19:00; Fr-Sa 10:00-17:00", "brand": "The New York Public Library", "brand:wikidata": "Q219555"}, "geometry": {"type": "Point", "coordinates": [-73.9522, 40.7863]}},
{"type": "Feature", "id": "jVMhEZ6RwuxqLkTSfK_L7XaUN2E=", "properties": {"ref": "AG", "@spider": "new_york_public_library", "addr:full": "174 East 110th Street", "addr:city": "New York", "addr:state": "NY", "addr:postcode": "10029", "addr:country": "US", "name": "Aguilar Library", "phone": "(212)-534-2930", "website": "https://www.nypl.org/about/locations/", "opening_hours": "Mo-Fr 10:00-18:00; Sa 10:00-17:00", "brand": "The New York Public Library", "brand:wikidata": "Q219555"}, "geometry": {"type": "Point", "coordinates": [-73.9436, 40.7943]}},
{"type": "Feature", "id": "QHYzo4NniWVoe4vcTRtBtqZeQB0=", "properties": {"ref": "AL", "@spider": "new_york_public_library", "addr:full": "2740 Barnes Avenue", "addr:city": "Bronx", "addr:state": "NY", "addr:postcode": "10467", "addr:country": "US", "name": "Allerton Library", "phone": "(718)-881-4240", "website": "https://www.nypl.org/about/locations/", "opening_hours": "Mo-Fr 10:00-18:00; Sa 10:00-17:00", "brand": "The New York Public Library", "brand:wikidata": "Q219555"}, "geometry": {"type": "Point", "coordinates": [-73.8632, 40.866]}},
{"type": "Feature", "id": "F1z2VfwQ-TfOmK5LD-j0oUQ4gJU=", "properties": {"ref": "BP", "@spider": "new_york_public_library", "addr:full": "175 North End Avenue", "addr:city": "New York", "addr:state": "NY", "addr:postcode": "10282", "addr:country": "US", "name": "Battery Park City Library", "phone": "(212)-790-3499", "website": "https://www.nypl.org/about/locations/", "opening_hours": "Mo 10:00-18:00; Tu 11:00-19:00; We 10:00-18:00; Th 11:00-19:00; Fr-Sa 10:00-17:00", "brand": "The New York Public Library", "brand:wikidata": "Q219555"}, "geometry": {"type": "Point", "coordinates": [-74.0157, 40.7155]}},
{"type": "Feature", "id": "6-KGHfGbarYLHP6lveGiPBy2tx8=", "properties": {"ref": "BAR", "@spider": "new_york_public_library", "addr:full": "2049 Asch Loop North", "addr:city": "Bronx", "addr:state": "NY", "addr:postcode": "10475", "addr:country": "US", "name": "Baychester Library", "phone": "(718)-379-6700", "website": "https://www.nypl.org/about/locations/", "opening_hours": "Mo-Th 10:00-19:00; Fr 10:00-18:00; Sa 10:00-17:00", "brand": "The New York Public Library", "brand:wikidata": "Q219555"}, "geometry": {"type": "Point", "coordinates": [-73.8305, 40.8711]}},
{"type": "Feature", "id": "aF5mQGvUvrahY50gCuKFc74EXxs=", "properties": {"ref": "BER", "@spider": "new_york_public_library", "addr:full": "610 East 186th Street", "addr:city": "Bronx", "addr:state": "NY", "addr:postcode": "10458", "addr:country": "US", "name": "Belmont Library and Enrico Fermi Cultural Center", "phone": "(718)-933-6410", "website": "https://www.nypl.org/about/locations/", "opening_hours": "Mo-Fr 10:00-18:00; Sa 10:00-17:00", "brand": "The New York Public Library", "brand:wikidata": "Q219555"}, "geometry": {"type": "Point", "coordinates": [-73.8877, 40.8544]}},
{"type": "Feature", "id": "UGOvHnaAUputmFFY3BLkTwBhr8E=", "properties": {"ref": "BL", "@spider": "new_york_public_library", "addr:full": "150 West 100th Street", "addr:city": "New York", "addr:state": "NY", "addr:postcode": "10025", "addr:country": "US", "name": "Bloomingdale Library", "phone": "(212)-222-8030", "website": "https://www.nypl.org/about/locations/", "opening_hours": "Mo-Tu 10:00-19:00; We-Th 11:00-19:00; Fr-Sa 10:00-17:00", "brand": "The New York Public Library", "brand:wikidata": "Q219555"}, "geometry": {"type": "Point", "coordinates": [-73.9671, 40.796]}},
{"type": "Feature", "id": "vtRriO84CLf2TfTsf73kCy1m0b8=", "properties": {"ref": "BLC", "@spider": "new_york_public_library", "addr:full": "310 East Kingsbridge Road", "addr:city": "Bronx", "addr:state": "NY", "addr:postcode": "10458", "addr:country": "US", "name": "Bronx Library Center", "phone": "(718)-579-4244", "website": "https://www.nypl.org/about/locations/", "opening_hours": "Mo-Th 09:00-21:00; Fr-Sa 10:00-20:00; Su 12:00-18:00", "brand": "The New York Public Library", "brand:wikidata": "Q219555"}, "geometry": {"type": "Point", "coordinates": [-73.8944, 40.8634]}},
{"type": "Feature", "id": "6h-uEiKTqSChYtrXBG7k3hYqc94=", "properties": {"ref": "CT", "@spider": "new_york_public_library", "addr:full": "947 Castle Hill Avenue", "addr:city": "Bronx", "addr:state": "NY", "addr:postcode": "10473", "addr:country": "US", "name": "Castle Hill Library", "phone": "(718)-824-3838", "website": "https://www.nypl.org/about/locations/", "opening_hours": "Mo-Tu 10:00-18:00; We-Th 11:00-18:00; Fr-Sa 10:00-17:00", "brand": "The New York Public Library", "brand:wikidata": "Q219555"}, "geometry": {"type": "Point", "coordinates": [-73.8499, 40.8264]}},
{"type": "Feature", "id": "GjmWd4KpN6LJbL0jkL_wwvsr81w=", "properties": {"ref": "CA", "@spider": "new_york_public_library", "addr:full": "560 Lexington Avenue", "addr:city": "New York", "addr:state": "NY", "addr:postcode": "10022", "addr:country": "US", "name": "Terence Cardinal Cooke-Cathedral Library", "phone": "(212)-752-3824", "website": "https://www.nypl.org/about/locations/", "brand": "The New York Public Library", "brand:wikidata": "Q219555"}, "geometry": {"type": "Point", "coordinates": [-73.9725, 40.7568]}},
{"type": "Feature", "id": "cxFj91CkE_U4Gh0kRuglWUM5DlI=", "properties": {"ref": "a990a853-a42f-4df8-9df1-aa193c503ea2", "@spider": "new_york_public_library", "addr:full": "225 Bricktown Way", "addr:city": "Staten Island", "addr:state": "NY", "addr:postcode": "10309", "addr:country": "US", "name": "Charleston Library", "phone": "929-284-3660", "website": "https://www.nypl.org/about/locations/", "opening_hours": "Mo-Th 10:00-19:00; Fr-Sa 10:00-17:00", "brand": "The New York Public Library", "brand:wikidata": "Q219555"}, "geometry": {"type": "Point", "coordinates": [-74.23043, 40.52957]}},
{"type": "Feature", "id": "7Ih0Qf38JGUOwS1chB-bGE5A5EQ=", "properties": {"ref": "CHR", "@spider": "new_york_public_library", "addr:full": "33 East Broadway", "addr:city": "New York", "addr:state": "NY", "addr:postcode": "10002", "addr:country": "US", "name": "Chatham Square Library", "phone": "(212)-964-6598", "website": "https://www.nypl.org/about/locations/", "opening_hours": "Mo-Th 09:00-19:00; Fr 10:00-18:00; Sa 10:00-17:00", "brand": "The New York Public Library", "brand:wikidata": "Q219555"}, "geometry": {"type": "Point", "coordinates": [-73.9965, 40.7134]}},
{"type": "Feature", "id": "fiZXvrXzooHDbda4bnHJuAVRtLg=", "properties": {"ref": "CI", "@spider": "new_york_public_library", "addr:full": "320 City Island Avenue", "addr:city": "Bronx", "addr:state": "NY", "addr:postcode": "10464", "addr:country": "US", "name": "City Island Library", "phone": "(718)-885-1703", "website": "https://www.nypl.org/about/locations/", "opening_hours": "Mo 11:00-19:00; Tu-We 11:00-18:00; Th 11:00-19:00; Fr-Sa 10:00-17:00", "brand": "The New York Public Library", "brand:wikidata": "Q219555"}, "geometry": {"type": "Point", "coordinates": [-73.7865, 40.8477]}},
{"type": "Feature", "id": "flr_-zXd3sgF6qLb35IjoOn7Rf0=", "properties": {"ref": "CP", "@spider": "new_york_public_library", "addr:full": "1215 Morrison Avenue", "addr:city": "Bronx", "addr:state": "NY", "addr:postcode": "10472", "addr:country": "US", "name": "Clason's Point Library", "phone": "(718) 842-1235", "website": "https://www.nypl.org/about/locations/", "opening_hours": "Mo-Th 10:00-19:00; Fr-Sa 10:00-17:00", "brand": "The New York Public Library", "brand:wikidata": "Q219555"}, "geometry": {"type": "Point", "coordinates": [-73.8748, 40.8299]}},
{"type": "Feature", "id": "iQF6qGQYqNlO-enyjAZUmTokcek=", "properties": {"ref": "CS", "@spider": "new_york_public_library", "addr:full": "742 10th Avenue", "addr:city": "New York", "addr:state": "NY", "addr:postcode": "10019", "addr:country": "US", "name": "Columbus Library ", "phone": "(212)-586-5098", "website": "https://www.nypl.org/about/locations/", "opening_hours": "Mo-Th 10:00-19:00; Fr-Sa 10:00-17:00", "brand": "The New York Public Library", "brand:wikidata": "Q219555"}, "geometry": {"type": "Point", "coordinates": [-73.9914, 40.765]}},
{"type": "Feature", "id": "UIT6orBAOZJeS3T8nE_JICKt5UA=", "properties": {"ref": "HTR", "@spider": "new_york_public_library", "addr:full": "104 West 136th Street", "addr:city": "New York", "addr:state": "NY", "addr:postcode": "10030", "addr:country": "US", "name": "Countee Cullen Library", "phone": "(212)-491-2070", "website": "https://www.nypl.org/about/locations/", "opening_hours": "Mo-Th 11:00-19:00; Fr-Sa 11:00-17:00", "brand": "The New York Public Library", "brand:wikidata": "Q219555"}, "geometry": {"type": "Point", "coordinates": [-73.9408, 40.8148]}},
{"type": "Feature", "id": "LGATMiXAEiMI422piRI9DKUA7MY=", "properties": {"ref": "DH", "@spider": "new_york_public_library", "addr:full": "1617 Richmond Road", "addr:city": "Staten Island", "addr:state": "NY", "addr:postcode": "10304", "addr:country": "US", "name": "Dongan Hills Library", "phone": "(718)-351-1444", "website": "https://www.nypl.org/about/locations/", "opening_hours": "Mo-Th 11:00-18:00; Fr-Sa 10:00-17:00", "brand": "The New York Public Library", "brand:wikidata": "Q219555"}, "geometry": {"type": "Point", "coordinates": [-74.101, 40.5906]}},
{"type": "Feature", "id": "G8FEdshwZSWtdH7Ds2ayMudAUfE=", "properties": {"ref": "EA", "@spider": "new_york_public_library", "addr:full": "1385 East Gun Hill Road", "addr:city": "Bronx", "addr:state": "NY", "addr:postcode": "10469", "addr:country": "US", "name": "Eastchester Library", "phone": "(718)-653-3292", "website": "https://www.nypl.org/about/locations/", "opening_hours": "Mo-Th 10:00-19:00; Fr-Sa 10:00-17:00", "brand": "The New York Public Library", "brand:wikidata": "Q219555"}, "geometry": {"type": "Point", "coordinates": [-73.8454, 40.8702]}},
{"type": "Feature", "id": "JBrr9YDRHNIvuVke1RUrYpV2urk=", "properties": {"ref": "EW", "@spider": "new_york_public_library", "addr:full": "1255 East 233rd Street", "addr:city": "Bronx", "addr:state": "NY", "addr:postcode": "10466", "addr:country": "US", "name": "Edenwald Library", "phone": "(718)-798-3355", "website": "https://www.nypl.org/about/locations/", "opening_hours": "Mo-Th 10:00-19:00; Fr 10:00-18:00; Sa 10:00-17:00", "brand": "The New York Public Library", "brand:wikidata": "Q219555"}, "geometry": {"type": "Point", "coordinates": [-73.8409, 40.8888]}},
{"type": "Feature", "id": "MO2HqnXuyEz68VqBOEosmdijBAo=", "properties": {"ref": "EP", "@spider": "new_york_public_library", "addr:full": "228 East 23rd Street", "addr:city": "New York", "addr:state": "NY", "addr:postcode": "10010", "addr:country": "US", "name": "Epiphany Library", "phone": "(212)-679-2645", "website": "https://www.nypl.org/about/locations/", "opening_hours": "Mo 12:00-19:00; Tu 10:00-18:00; We 12:00-19:00; Th 10:00-18:00; Fr-Sa 10:00-17:00", "brand": "The New York Public Library", "brand:wikidata": "Q219555"}, "geometry": {"type": "Point", "coordinates": [-73.9827, 40.7385]}},
{"type": "Feature", "id": "UV_EmihDYkuYyMB2rcy1vdupmEY=", "properties": {"ref": "FW", "@spider": "new_york_public_library", "addr:full": "535 West 179th Street", "addr:city": "New York", "addr:state": "NY", "addr:postcode": "10033", "addr:country": "US", "name": "Fort Washington Library", "phone": "(212)-927-3533", "website": "https://www.nypl.org/about/locations/", "brand": "The New York Public Library", "brand:wikidata": "Q219555"}, "geometry": {"type": "Point", "coordinates": [-73.9337, 40.8478]}},
{"type": "Feature", "id": "mY9fFT_yLIPKpYLoctdlOFA8Qo4=", "properties": {"ref": "FXR", "@spider": "new_york_public_library", "addr:full": "2150 University Avenue", "addr:city": "Bronx", "addr:state": "NY", "addr:postcode": "10453", "addr:country": "US", "name": "Francis Martin Library", "phone": "(718)-295-5287", "website": "https://www.nypl.org/about/locations/", "opening_hours": "Mo-Th 11:00-19:00; Fr 10:00-18:00; Sa 10:00-17:00", "brand": "The New York Public Library", "brand:wikidata": "Q219555"}, "geometry": {"type": "Point", "coordinates": [-73.9095, 40.8574]}},
{"type": "Feature", "id": "N4G0yKV3zq1d5CzX-2zP-uqk9Zk=", "properties": {"ref": "BR", "@spider": "new_york_public_library", "addr:full": "518 West 125th Street", "addr:city": "New York", "addr:state": "NY", "addr:postcode": "10027", "addr:country": "US", "name": "George Bruce Library", "phone": "(212)-662-9727", "website": "https://www.nypl.org/about/locations/", "opening_hours": "Mo-Th 12:00-19:00; Fr-Sa 11:00-18:00", "brand": "The New York Public Library", "brand:wikidata": "Q219555"}, "geometry": {"type": "Point", "coordinates": [-73.957, 40.8139]}},
{"type": "Feature", "id": "t_q0T-aDNFsNIvC2aZEnkH0G3kM=", "properties": {"ref": "GC", "@spider": "new_york_public_library", "addr:full": "135 East 46th Street ", "addr:city": "New York", "addr:state": "NY", "addr:postcode": "10017", "addr:country": "US", "name": "Grand Central Library", "phone": "(212)-621-0670", "website": "https://www.nypl.org/about/locations/", "opening_hours": "Mo 11:00-18:00; Tu 10:00-17:00; We 11:00-18:00; Th-Sa 10:00-17:00", "brand": "The New York Public Library", "brand:wikidata": "Q219555"}, "geometry": {"type": "Point", "coordinates": [-73.974, 40.7539]}},
{"type": "Feature", "id": "poFWYM0zK5VqBBBBHBd8Iri6w24=", "properties": {"ref": "GD", "@spider": "new_york_public_library", "addr:full": "155 East 173rd Street", "addr:city": "Bronx", "addr:state": "NY", "addr:postcode": "10457", "addr:country": "US", "name": "Grand Concourse Library", "phone": "(718)-583-6611", "website": "https://www.nypl.org/about/locations/", "opening_hours": "Mo 10:00-20:00; Tu 10:00-19:00; We 10:00-20:00; Th 10:00-19:00; Fr-Sa 10:00-17:00; Su 13:00-17:00", "brand": "The New York Public Library", "brand:wikidata": "Q219555"}, "geometry": {"type": "Point", "coordinates": [-73.9101, 40.8439]}},
{"type": "Feature", "id": "3sPYoteDLF_sDIeDnzdrRpbvMLM=", "properties": {"ref": "GK", "@spider": "new_york_public_library", "addr:full": "56 Giffords Lane", "addr:city": "Staten Island", "addr:state": "NY", "addr:postcode": "10308", "addr:country": "US", "name": "Great Kills Library", "phone": "(718) 984-6670", "website": "https://www.nypl.org/about/locations/", "opening_hours": "Mo-Th 11:00-18:00; Fr-Sa 10:00-17:00", "brand": "The New York Public Library", "brand:wikidata": "Q219555"}, "geometry": {"type": "Point", "coordinates": [-74.151, 40.5524]}},
{"type": "Feature", "id": "bKr4f_cNGwM_L3O-pRtA-joxRHg=", "properties": {"ref": "HFR", "@spider": "new_york_public_library", "addr:full": "415 East Houston Street", "addr:city": "New York", "addr:state": "NY", "addr:postcode": "10002", "addr:country": "US", "name": "Hamilton Fish Park Library", "phone": "(212)-673-2290", "website": "https://www.nypl.org/about/locations/", "brand": "The New York Public Library", "brand:wikidata": "Q219555"}, "geometry": {"type": "Point", "coordinates": [-73.9791, 40.7199]}},
{"type": "Feature", "id": "WXyexx-sI1K--eu-kPn6IJwuUPw=", "properties": {"ref": "HG", "@spider": "new_york_public_library", "addr:full": "503 West 145th Street", "addr:city": "New York", "addr:state": "NY", "addr:postcode": "10031", "addr:country": "US", "name": "Hamilton Grange Library", "phone": "(212) 926-2147", "website": "https://www.nypl.org/about/locations/", "opening_hours": "Mo-Th 10:00-19:00; Fr 11:00-18:00; Sa 11:00-17:00", "brand": "The New York Public Library", "brand:wikidata": "Q219555"}, "geometry": {"type": "Point", "coordinates": [-73.9477, 40.8255]}},
{"type": "Feature", "id": "-UiyqQvZXF8qYZZVCJ87JSVggOw=", "properties": {"ref": "HL", "@spider": "new_york_public_library", "addr:full": "9 West 124th Street", "addr:city": "New York", "addr:state": "NY", "addr:postcode": "10027", "addr:country": "US", "name": "Harlem Library", "phone": "(212) 348-5620", "website": "https://www.nypl.org/about/locations/", "opening_hours": "Mo-Th 11:00-19:00; Fr-Sa 10:00-17:00", "brand": "The New York Public Library", "brand:wikidata": "Q219555"}, "geometry": {"type": "Point", "coordinates": [-73.9431, 40.8061]}},
{"type": "Feature", "id": "mT3S5Wy1NSJbkBRBtaOp0RspCgw=", "properties": {"ref": "LB", "@spider": "new_york_public_library", "addr:full": "40 West 20th Street", "addr:city": "New York", "addr:state": "NY", "addr:postcode": "10011", "addr:country": "US", "name": "Andrew Heiskell Braille and Talking Book Library", "phone": "(212)-206-5400", "website": "https://www.nypl.org/about/locations/", "opening_hours": "Mo 10:00-17:00; Tu 12:00-19:00; We 10:00-17:00; Th 12:00-19:00; Fr-Sa 10:00-17:00", "brand": "The New York Public Library", "brand:wikidata": "Q219555"}, "geometry": {"type": "Point", "coordinates": [-73.993, 40.7404]}},
{"type": "Feature", "id": "FxjIlj5kpozMeCT7IM63an1lUbg=", "properties": {"ref": "HB", "@spider": "new_york_public_library", "addr:full": "78 West 168th Street", "addr:city": "Bronx", "addr:state": "NY", "addr:postcode": "10452", "addr:country": "US", "name": "High Bridge Library", "phone": "(718) 293-7800", "website": "https://www.nypl.org/about/locations/", "opening_hours": "Mo-Th 10:00-19:00; Fr 10:00-18:00; Sa 10:00-17:00", "brand": "The New York Public Library", "brand:wikidata": "Q219555"}, "geometry": {"type": "Point", "coordinates": [-73.9235, 40.838]}},
{"type": "Feature", "id": "WLAUDtpNJ7vro3BwM_H-LF7oLkk=", "properties": {"ref": "HP", "@spider": "new_york_public_library", "addr:full": "66 Leroy Street", "addr:city": "New York", "addr:state": "NY", "addr:postcode": "10014", "addr:country": "US", "name": "Hudson Park Library", "phone": "(212)-243-6876", "website": "https://www.nypl.org/about/locations/", "opening_hours": "Mo-Fr 10:00-18:00; Sa 10:00-17:00", "brand": "The New York Public Library", "brand:wikidata": "Q219555"}, "geometry": {"type": "Point", "coordinates": [-74.0053, 40.73]}},
{"type": "Feature", "id": "kpkWz90bfO4Cjg5sKw4GSa5pC0w=", "properties": {"ref": "HK", "@spider": "new_york_public_library", "addr:full": "830 Huguenot Avenue", "addr:city": "Staten Island", "addr:state": "NY", "addr:postcode": "10312", "addr:country": "US", "name": "Huguenot Park Library", "phone": "(718) 984-4636", "website": "https://www.nypl.org/about/locations/", "opening_hours": "Mo-Th 10:00-18:00; Fr-Sa 10:00-17:00", "brand": "The New York Public Library", "brand:wikidata": "Q219555"}, "geometry": {"type": "Point", "coordinates": [-74.1933, 40.5345]}},
{"type": "Feature", "id": "PuowX288KJGQqneeFW34dYUWOLI=", "properties": {"ref": "HSR", "@spider": "new_york_public_library", "addr:full": "877 Southern Boulevard", "addr:city": "Bronx", "addr:state": "NY", "addr:postcode": "10459", "addr:country": "US", "name": "Hunts Point Library", "phone": "(718) 617-0338", "website": "https://www.nypl.org/about/locations/", "brand": "The New York Public Library", "brand:wikidata": "Q219555"}, "geometry": {"type": "Point", "coordinates": [-73.8939, 40.8187]}},
{"type": "Feature", "id": "b1C-XxSgRgGJ2ST3j7C9jNNfqrk=", "properties": {"ref": "INR", "@spider": "new_york_public_library", "addr:full": "4857 Broadway", "addr:city": "New York", "addr:state": "NY", "addr:postcode": "10034", "addr:country": "US", "name": "Inwood Library", "phone": "(212) 942-2445", "website": "https://www.nypl.org/about/locations/", "opening_hours": "Mo-Th 10:00-19:00; Fr-Sa 10:00-17:00", "brand": "The New York Public Library", "brand:wikidata": "Q219555"}, "geometry": {"type": "Point", "coordinates": [-73.9257, 40.866]}},
{"type": "Feature", "id": "c6IycHjUQ-yFQFXDABGU6P7_zZs=", "properties": {"ref": "JMR", "@spider": "new_york_public_library", "addr:full": "425 Avenue of the Americas", "addr:city": "New York", "addr:state": "NY", "addr:postcode": "10011", "addr:country": "US", "name": "Jefferson Market Library", "phone": "(212) 243-4334", "website": "https://www.nypl.org/about/locations/", "opening_hours": "Mo-Th 10:00-20:00; Fr-Sa 10:00-17:00; Su 13:00-17:00", "brand": "The New York Public Library", "brand:wikidata": "Q219555"}, "geometry": {"type": "Point", "coordinates": [-73.999, 40.7347]}},
{"type": "Feature", "id": "bso-bFcyMUWnrJDbGVl5GU4_QFQ=", "properties": {"ref": "JP", "@spider": "new_york_public_library", "addr:full": "118 Eames Place", "addr:city": "Bronx", "addr:state": "NY", "addr:postcode": "10468", "addr:country": "US", "name": "Jerome Park Library", "phone": "(718) 549-5200", "website": "https://www.nypl.org/about/locations/", "opening_hours": "Mo-Th 10:00-19:00; Fr-Sa 10:00-17:00", "brand": "The New York Public Library", "brand:wikidata": "Q219555"}, "geometry": {"type": "Point", "coordinates": [-73.9012, 40.8691]}},
{"type": "Feature", "id": "7rbirp_fgEQ_JCWVVCu1hM-n2NM=", "properties": {"ref": "KBR", "@spider": "new_york_public_library", "addr:full": "291 West 231st Street", "addr:city": "Bronx", "addr:state": "NY", "addr:postcode": "10463", "addr:country": "US", "name": "Kingsbridge Library", "phone": "(718) 548-5656", "website": "https://www.nypl.org/about/locations/", "opening_hours": "Mo-Th 10:00-19:00; Fr-Sa 10:00-17:00", "brand": "The New York Public Library", "brand:wikidata": "Q219555"}, "geometry": {"type": "Point", "coordinates": [-73.908, 40.8805]}},
{"type": "Feature", "id": "dZYBPUHyto6a4S8clMDa2hUwmfU=", "properties": {"ref": "KP", "@spider": "new_york_public_library", "addr:full": "446 Third Avenue", "addr:city": "New York", "addr:state": "NY", "addr:postcode": "10016", "addr:country": "US", "name": "Kips Bay Library", "phone": "(212) 683-2520", "website": "https://www.nypl.org/about/locations/", "opening_hours": "Mo-Fr 10:00-18:00; Sa 10:00-17:00", "brand": "The New York Public Library", "brand:wikidata": "Q219555"}, "geometry": {"type": "Point", "coordinates": [-73.9797, 40.7438]}},
{"type": "Feature", "id": "7U0Zhr9HTfTw8XzbuLBc1H0rdE0=", "properties": {"ref": "LPA", "@spider": "new_york_public_library", "addr:full": "40 Lincoln Center Plaza (entrance at 111 Amsterdam between 64th and 65th)", "addr:city": "New York", "addr:state": "NY", "addr:postcode": "10023", "addr:country": "US", "name": "The New York Public Library for the Performing Arts", "phone": "917-275-6975 ", "website": "https://www.nypl.org/about/locations/", "opening_hours": "Mo 10:30-20:00; Tu-We 10:30-18:00; Th 10:30-20:00; Fr-Sa 10:30-18:00", "brand": "The New York Public Library", "brand:wikidata": "Q219555"}, "geometry": {"type": "Point", "coordinates": [-73.9871336, 40.7731593]}},
{"type": "Feature", "id": "ktTcG1pq4FrRDUEdCN9HXMXBRqA=", "properties": {"ref": "MB", "@spider": "new_york_public_library", "addr:full": "2633 Adam Clayton Powell, Jr. Blvd.", "addr:city": "New York", "addr:state": "NY", "addr:postcode": "10039", "addr:country": "US", "name": "Macomb's Bridge Library", "phone": "(212) 281-4900", "website": "https://www.nypl.org/about/locations/", "opening_hours": "Mo-Tu 10:00-18:00; We-Th 11:00-19:00; Fr-Sa 10:00-17:00", "brand": "The New York Public Library", "brand:wikidata": "Q219555"}, "geometry": {"type": "Point", "coordinates": [-73.938, 40.825]}},
{"type": "Feature", "id": "qSWajcxX1C4lbUy9L1ZXrzxSc3Y=", "properties": {"ref": "MARIN", "@spider": "new_york_public_library", "addr:full": "206 South Ave", "addr:city": "Staten Island", "addr:state": "NY", "addr:postcode": "10303", "addr:country": "US", "name": "Mariners Harbor Library", "phone": "(212) 621-0690", "website": "https://www.nypl.org/about/locations/", "opening_hours": "Mo-Th 11:00-19:00; Fr-Sa 10:00-17:00", "brand": "The New York Public Library", "brand:wikidata": "Q219555"}, "geometry": {"type": "Point", "coordinates": [-74.1665, 40.6348]}},
{"type": "Feature", "id": "X_BYxvf-B9mLiw0QKjkIBiTMYaE=", "properties": {"ref": "ME", "@spider": "new_york_public_library", "addr:full": "910 Morris Avenue", "addr:city": "Bronx", "addr:state": "NY", "addr:postcode": "10451", "addr:country": "US", "name": "Melrose Library", "phone": "(718) 588-0110", "website": "https://www.nypl.org/about/locations/", "brand": "The New York Public Library", "brand:wikidata": "Q219555"}, "geometry": {"type": "Point", "coordinates": [-73.9177, 40.8267]}},
{"type": "Feature", "id": "tVhVVOEmvCcq6uD_f_n_OYJVvgI=", "properties": {"ref": "CL", "@spider": "new_york_public_library", "addr:full": "2900 Broadway", "addr:city": "New York", "addr:state": "NY", "addr:postcode": "10025", "addr:country": "US", "name": "Morningside Heights Library", "phone": "212-864-2530", "website": "https://www.nypl.org/about/locations/", "opening_hours": "Mo-Fr 10:00-18:00; Sa 10:00-17:00", "brand": "The New York Public Library", "brand:wikidata": "Q219555"}, "geometry": {"type": "Point", "coordinates": [-73.965, 40.8062]}},
{"type": "Feature", "id": "AwvcdzGzEq04wrd-fgj2zAOwJpQ=", "properties": {"ref": "MP", "@spider": "new_york_public_library", "addr:full": "985 Morris Park Avenue", "addr:city": "Bronx", "addr:state": "NY", "addr:postcode": "10462", "addr:country": "US", "name": "Morris Park Library", "phone": "(718) 931-0636", "website": "https://www.nypl.org/about/locations/", "opening_hours": "Mo-Th 10:00-19:00; Fr-Sa 10:00-17:00", "brand": "The New York Public Library", "brand:wikidata": "Q219555"}, "geometry": {"type": "Point", "coordinates": [-73.8558, 40.8467]}},
{"type": "Feature", "id": "2OXJlzD-9C_MG8fq1uRberkzS1k=", "properties": {"ref": "MR", "@spider": "new_york_public_library", "addr:full": "610 East 169th Street", "addr:city": "Bronx", "addr:state": "NY", "addr:postcode": "10456", "addr:country": "US", "name": "Morrisania Library", "phone": "(718) 589-9268", "website": "https://www.nypl.org/about/locations/", "opening_hours": "Mo-Th 10:00-19:00; Fr-Sa 10:00-17:00", "brand": "The New York Public Library", "brand:wikidata": "Q219555"}, "geometry": {"type": "Point", "coordinates": [-73.9013, 40.8316]}},
{"type": "Feature", "id": "aI5IWBKlaS4sL38pf_NnMUgOBn0=", "properties": {"ref": "MO", "@spider": "new_york_public_library", "addr:full": "285 East 205th Street", "addr:city": "Bronx", "addr:state": "NY", "addr:postcode": "10467", "addr:country": "US", "name": "Mosholu Library", "phone": "(718) 882-8239", "website": "https://www.nypl.org/about/locations/", "opening_hours": "Mo-Th 11:00-19:00; Fr-Sa 10:00-17:00", "brand": "The New York Public Library", "brand:wikidata": "Q219555"}, "geometry": {"type": "Point", "coordinates": [-73.8784, 40.8744]}},
{"type": "Feature", "id": "y8LX9yZwDV8rjDaOt0d3tdKnRHA=", "properties": {"ref": "MH", "@spider": "new_york_public_library", "addr:full": "321 East 140th Street", "addr:city": "Bronx", "addr:state": "NY", "addr:postcode": "10454", "addr:country": "US", "name": "Mott Haven Library", "phone": "(718) 665-4878", "website": "https://www.nypl.org/about/locations/", "opening_hours": "Mo-Th 10:00-19:00; Fr-Sa 10:00-17:00", "brand": "The New York Public Library", "brand:wikidata": "Q219555"}, "geometry": {"type": "Point", "coordinates": [-73.9243, 40.8116]}},
{"type": "Feature", "id": "NAQCKKfSYKMfgrsVN7hZRhd-qFw=", "properties": {"ref": "MU", "@spider": "new_york_public_library", "addr:full": "209 West 23rd Street", "addr:city": "New York", "addr:state": "NY", "addr:postcode": "10011", "addr:country": "US", "name": "Muhlenberg Library", "phone": "(212) 924-1585", "website": "https://www.nypl.org/about/locations/", "brand": "The New York Public Library", "brand:wikidata": "Q219555"}, "geometry": {"type": "Point", "coordinates": [-73.9961, 40.7444]}},
{"type": "Feature", "id": "BiZimLJU5YO-R4A5kEq52sIJZ9w=", "properties": {"ref": "ML", "@spider": "new_york_public_library", "addr:full": "10 Jersey Street", "addr:city": "New York", "addr:state": "NY", "addr:postcode": "10012", "addr:country": "US", "name": "Mulberry Street Library", "phone": "(212) 966-3424", "website": "https://www.nypl.org/about/locations/", "opening_hours": "Mo 11:00-19:00; Tu 10:00-19:00; We 11:00-19:00; Th 10:00-19:00; Fr-Sa 10:00-17:00", "brand": "The New York Public Library", "brand:wikidata": "Q219555"}, "geometry": {"type": "Point", "coordinates": [-73.9956, 40.7242]}},
{"type": "Feature", "id": "QymqHJKqinkaCbYK3a9cQ_eNqA4=", "properties": {"ref": "LM", "@spider": "new_york_public_library", "addr:full": "9 Murray Street", "addr:city": "New York", "addr:state": "NY", "addr:postcode": "10007", "addr:country": "US", "name": "New Amsterdam Library", "phone": "(212) 732-8186", "website": "https://www.nypl.org/about/locations/", "opening_hours": "Mo-Th 10:00-19:00; Fr-Sa 10:00-17:00", "brand": "The New York Public Library", "brand:wikidata": "Q219555"}, "geometry": {"type": "Point", "coordinates": [-74.0078, 40.7134]}},
{"type": "Feature", "id": "xBOxeR0bS2wbya2SUXFgI-o4Ofk=", "properties": {"ref": "NDR", "@spider": "new_york_public_library", "addr:full": "309 New Dorp Lane", "addr:city": "Staten Island", "addr:state": "NY", "addr:postcode": "10306", "addr:country": "US", "name": "New Dorp Library", "phone": "(718) 351-2977", "website": "https://www.nypl.org/about/locations/", "opening_hours": "Mo-Th 10:00-19:00; Fr-Sa 10:00-17:00", "brand": "The New York Public Library", "brand:wikidata": "Q219555"}, "geometry": {"type": "Point", "coordinates": [-74.1123, 40.572]}},
{"type": "Feature", "id": "WLTtxRolHN1nZhgPm32fP7Af7uI=", "properties": {"ref": "OT", "@spider": "new_york_public_library", "addr:full": "135 Second Avenue", "addr:city": "New York", "addr:state": "NY", "addr:postcode": "10003", "addr:country": "US", "name": "Ottendorfer Library", "phone": "(212) 674-0947", "website": "https://www.nypl.org/about/locations/", "opening_hours": "Mo-Th 11:00-19:00; Fr-Sa 10:00-17:00", "brand": "The New York Public Library", "brand:wikidata": "Q219555"}, "geometry": {"type": "Point", "coordinates": [-73.9877, 40.7288]}},
{"type": "Feature", "id": "X6b0qC_jsjkREGvyTFM-V7bWEws=", "properties": {"ref": "PKR", "@spider": "new_york_public_library", "addr:full": "1985 Westchester Avenue", "addr:city": "Bronx", "addr:state": "NY", "addr:postcode": "10462", "addr:country": "US", "name": "Parkchester Library", "phone": "(718) 829-7830", "website": "https://www.nypl.org/about/locations/", "opening_hours": "Mo-Th 10:00-20:00; Fr-Sa 10:00-17:00; Su 13:00-17:00", "brand": "The New York Public Library", "brand:wikidata": "Q219555"}, "geometry": {"type": "Point", "coordinates": [-73.8593, 40.8336]}},
{"type": "Feature", "id": "blR3FilUytk_B86TNu0LVBTk_A8=", "properties": {"ref": "PM", "@spider": "new_york_public_library", "addr:full": "3060 Middletown Road", "addr:city": "Bronx", "addr:state": "NY", "addr:postcode": "10461", "addr:country": "US", "name": "Pelham Bay Library", "phone": "(718) 792-6744", "website": "https://www.nypl.org/about/locations/", "opening_hours": "Mo-Th 10:00-18:00; Fr-Sa 10:00-17:00", "brand": "The New York Public Library", "brand:wikidata": "Q219555"}, "geometry": {"type": "Point", "coordinates": [-73.828, 40.8444]}},
{"type": "Feature", "id": "YOSGokfeKzmMcXPg_1B6doWFk0g=", "properties": {"ref": "VN", "@spider": "new_york_public_library", "addr:full": "2147 Barnes Avenue", "addr:city": "Bronx", "addr:state": "NY", "addr:postcode": "10462", "addr:country": "US", "name": "Pelham Parkway-Van Nest Library", "phone": "(718) 829-5864", "website": "https://www.nypl.org/about/locations/", "opening_hours": "Mo-Fr 10:00-18:00; Sa 10:00-17:00", "brand": "The New York Public Library", "brand:wikidata": "Q219555"}, "geometry": {"type": "Point", "coordinates": [-73.8637, 40.8551]}},
{"type": "Feature", "id": "k6BkRTjsn0ywikxnan69Wcn6jPc=", "properties": {"ref": "PR", "@spider": "new_york_public_library", "addr:full": "75 Bennett Street", "addr:city": "Staten Island", "addr:state": "NY", "addr:postcode": "10302", "addr:country": "US", "name": "Port Richmond Library", "phone": "(718) 442-0158", "website": "https://www.nypl.org/about/locations/", "opening_hours": "Mo-Sa 11:00-17:00", "brand": "The New York Public Library", "brand:wikidata": "Q219555"}, "geometry": {"type": "Point", "coordinates": [-74.1322, 40.638]}},
{"type": "Feature", "id": "gf7rWcfWQ-nUedv6QyqwLLHWey0=", "properties": {"ref": "RT", "@spider": "new_york_public_library", "addr:full": "200 Clarke Avenue", "addr:city": "Staten Island", "addr:state": "NY", "addr:postcode": "10306", "addr:country": "US", "name": "Richmondtown Library", "phone": "(718) 668-0413", "website": "https://www.nypl.org/about/locations/", "opening_hours": "Mo-Th 10:00-18:00; Fr-Sa 10:00-17:00", "brand": "The New York Public Library", "brand:wikidata": "Q219555"}, "geometry": {"type": "Point", "coordinates": [-74.1381, 40.5668]}},
{"type": "Feature", "id": "PhipCavAhc4gGZm2tRo3V9ftb1o=", "properties": {"ref": "RD", "@spider": "new_york_public_library", "addr:full": "5540 Mosholu Avenue", "addr:city": "Bronx", "addr:state": "NY", "addr:postcode": "10471", "addr:country": "US", "name": "Riverdale Library", "phone": "(718) 549-1212", "website": "https://www.nypl.org/about/locations/", "opening_hours": "Mo-Th 10:00-18:00; Fr-Sa 10:00-17:00", "brand": "The New York Public Library", "brand:wikidata": "Q219555"}, "geometry": {"type": "Point", "coordinates": [-73.9037, 40.9029]}},
{"type": "Feature", "id": "u1dK-lPlxHkA5xGzWFWGBnO8iWo=", "properties": {"ref": "RS", "@spider": "new_york_public_library", "addr:full": "127 Amsterdam Avenue", "addr:city": "New York", "addr:state": "NY", "addr:postcode": "10023", "addr:country": "US", "name": "Riverside Library", "phone": "(212)-870-1810", "website": "https://www.nypl.org/about/locations/", "opening_hours": "Mo-Th 10:00-19:00; Fr-Sa 10:00-17:00", "brand": "The New York Public Library", "brand:wikidata": "Q219555"}, "geometry": {"type": "Point", "coordinates": [-73.9844, 40.7743]}},
{"type": "Feature", "id": "jbzfGzSIWQQjxa4yC_NF-GJ-dUg=", "properties": {"ref": "RI", "@spider": "new_york_public_library", "addr:full": "504 Main Street", "addr:city": "New York", "addr:state": "NY", "addr:postcode": "10044", "addr:country": "US", "name": "Roosevelt Island Library", "phone": "(212) 308-6243", "website": "https://www.nypl.org/about/locations/", "opening_hours": "Mo 10:00-20:00; Tu 10:00-18:00; We 10:00-20:00; Th 10:00-18:00; Fr-Sa 10:00-17:00", "brand": "The New York Public Library", "brand:wikidata": "Q219555"}, "geometry": {"type": "Point", "coordinates": [-73.9506, 40.7609]}},
{"type": "Feature", "id": "O-lDJ1qpAOQENBLhtDGAbSn2aag=", "properties": {"ref": "SC", "@spider": "new_york_public_library", "addr:full": "515 Malcolm X Boulevard (135th St and Malcolm X Blvd)", "addr:city": "New York", "addr:state": "NY", "addr:postcode": "10037", "addr:country": "US", "name": "Schomburg Center for Research in Black Culture", "phone": "(917) 275-6975", "website": "https://www.nypl.org/about/locations/", "opening_hours": "Mo-Sa 10:00-18:00", "brand": "The New York Public Library", "brand:wikidata": "Q219555"}, "geometry": {"type": "Point", "coordinates": [-73.941, 40.8144]}},
{"type": "Feature", "id": "lOKw0K7lM2pmaZNWZ1c6brfF_Wc=", "properties": {"ref": "SASB", "@spider": "new_york_public_library", "addr:full": "Fifth Avenue and 42nd Street", "addr:city": "New York", "addr:state": "NY", "addr:postcode": "10018", "addr:country": "US", "name": "Stephen A. Schwarzman Building", "phone": "9172756975", "website": "https://www.nypl.org/about/locations/", "opening_hours": "Mo 10:00-18:00; Tu-We 10:00-20:00; Th-Sa 10:00-18:00; Su 13:00-17:00", "brand": "The New York Public Library", "brand:wikidata": "Q219555"}, "geometry": {"type": "Point", "coordinates": [-73.9808774, 40.7534887]}},
{"type": "Feature", "id": "qQZCD5uWLi97kCVkNXoK7kPalEw=", "properties": {"ref": "SD", "@spider": "new_york_public_library", "addr:full": "1701 Martin Luther King, Jr. Blvd.", "addr:city": "Bronx", "addr:state": "NY", "addr:postcode": "10453", "addr:country": "US", "name": "Sedgwick Library", "phone": "(718) 731-2074", "website": "https://www.nypl.org/about/locations/", "opening_hours": "Mo-Fr 10:00-18:00; Sa 10:00-17:00", "brand": "The New York Public Library", "brand:wikidata": "Q219555"}, "geometry": {"type": "Point", "coordinates": [-73.9184, 40.8496]}},
{"type": "Feature", "id": "lenexoTP0z5fb4yEoDTE0r14bcE=", "properties": {"ref": "SE", "@spider": "new_york_public_library", "addr:full": "192 East Broadway", "addr:city": "New York", "addr:state": "NY", "addr:postcode": "10002", "addr:country": "US", "name": "Seward Park Library", "phone": "(212) 477-6770", "website": "https://www.nypl.org/about/locations/", "opening_hours": "Mo-Th 10:00-20:00; Fr-Sa 10:00-17:00", "brand": "The New York Public Library", "brand:wikidata": "Q219555"}, "geometry": {"type": "Point", "coordinates": [-73.9884, 40.7144]}},
{"type": "Feature", "id": "zh3DpsdjkP3BhCEbpsPnmpk5gRM=", "properties": {"ref": "SNFL", "@spider": "new_york_public_library", "addr:full": "455 Fifth Avenue", "addr:city": "New York", "addr:state": "NY", "addr:postcode": "10016", "addr:country": "US", "name": "Stavros Niarchos Foundation Library (SNFL)", "phone": "(212) 340-0863", "website": "https://www.nypl.org/about/locations/", "opening_hours": "Mo-Th 08:00-21:00; Fr 08:00-20:00; Sa-Su 10:00-18:00", "brand": "The New York Public Library", "brand:wikidata": "Q219555"}, "geometry": {"type": "Point", "coordinates": [-73.9818, 40.752]}},
{"type": "Feature", "id": "Y_swY56WUWIna5jBfjoUrQk5SAI=", "properties": {"ref": "SV", "@spider": "new_york_public_library", "addr:full": "660 Soundview Avenue", "addr:city": "Bronx", "addr:state": "NY", "addr:postcode": "10473", "addr:country": "US", "name": "Soundview Library", "phone": "(718) 589-0880", "website": "https://www.nypl.org/about/locations/", "opening_hours": "Mo-Th 10:00-18:00; Fr-Sa 10:00-17:00", "brand": "The New York Public Library", "brand:wikidata": "Q219555"}, "geometry": {"type": "Point", "coordinates": [-73.8625, 40.8182]}},
{"type": "Feature", "id": "-8-g4q-ajc22wi3KyeESw2RWYwE=", "properties": {"ref": "SB", "@spider": "new_york_public_library", "addr:full": "21-25 Robin Road", "addr:city": "Staten Island", "addr:state": "NY", "addr:postcode": "10305", "addr:country": "US", "name": "South Beach Library", "phone": "(718) 816-5834", "website": "https://www.nypl.org/about/locations/", "opening_hours": "Mo-Th 11:00-19:00; Fr-Sa 10:00-17:00", "brand": "The New York Public Library", "brand:wikidata": "Q219555"}, "geometry": {"type": "Point", "coordinates": [-74.0631, 40.5959]}},
{"type": "Feature", "id": "QoHC3xud_RdbRyjPeU2Ai8GfJbU=", "properties": {"ref": "DY", "@spider": "new_york_public_library", "addr:full": "650 W. 235th St.", "addr:city": "Bronx", "addr:state": "NY", "addr:postcode": "10463", "addr:country": "US", "name": "Spuyten Duyvil Library", "phone": "(718) 796-1202", "website": "https://www.nypl.org/about/locations/", "opening_hours": "Mo-Th 10:00-18:00; Fr-Sa 10:00-17:00", "brand": "The New York Public Library", "brand:wikidata": "Q219555"}, "geometry": {"type": "Point", "coordinates": [-73.9144, 40.8863]}},
{"type": "Feature", "id": "SCA-XaO4VSVSCs9-qU1Ux0BfKqY=", "properties": {"ref": "SA", "@spider": "new_york_public_library", "addr:full": "444 Amsterdam Avenue (between West 81st and West 82nd Streets) ", "addr:city": "New York", "addr:state": "NY", "addr:postcode": "10024", "addr:country": "US", "name": "St. Agnes Library", "phone": "(212)-621-0619", "website": "https://www.nypl.org/about/locations/", "opening_hours": "Mo 10:00-18:00; Tu-Th 10:00-19:00; Fr-Sa 10:00-18:00", "brand": "The New York Public Library", "brand:wikidata": "Q219555"}, "geometry": {"type": "Point", "coordinates": [-73.9773, 40.7848]}},
{"type": "Feature", "id": "A2u4w4nGvo0P9i2XTpeAEACDlSo=", "properties": {"ref": "SGC", "@spider": "new_york_public_library", "addr:full": "5 Central Avenue", "addr:city": "Staten Island", "addr:state": "NY", "addr:postcode": "10301", "addr:country": "US", "name": "St. George Library Center", "phone": "(718)-442-8560", "website": "https://www.nypl.org/about/locations/", "opening_hours": "Mo-Th 10:00-19:00; Fr-Sa 10:00-17:00", "brand": "The New York Public Library", "brand:wikidata": "Q219555"}, "geometry": {"type": "Point", "coordinates": [-74.0768, 40.6419]}},
{"type": "Feature", "id": "icEFCLTaNqn3zShhWHum3LY6vNE=", "properties": {"ref": "ST", "@spider": "new_york_public_library", "addr:full": "132 Canal St. ", "addr:city": "Staten Island", "addr:state": "NY", "addr:postcode": "10304", "addr:country": "US", "name": "Stapleton Library", "phone": "(718)-727-0427", "website": "https://www.nypl.org/about/locations/", "opening_hours": "Mo-Th 11:00-19:00; Fr-Sa 10:00-17:00", "brand": "The New York Public Library", "brand:wikidata": "Q219555"}, "geometry": {"type": "Point", "coordinates": [-74.0779, 40.6263]}},
{"type": "Feature", "id": "lNxT2FS3AWFy9Zh9aC-uYTeM06g=", "properties": {"ref": "TG", "@spider": "new_york_public_library", "addr:full": "3025 Cross Bronx Expressway", "addr:city": "Bronx", "addr:state": "NY", "addr:postcode": "10465", "addr:country": "US", "name": "Throg's Neck Library", "phone": "(718)-792-2612", "website": "https://www.nypl.org/about/locations/", "opening_hours": "Mo-Th 10:00-18:00; Fr-Sa 10:00-17:00", "brand": "The New York Public Library", "brand:wikidata": "Q219555"}, "geometry": {"type": "Point", "coordinates": [-73.8188, 40.8219]}},
{"type": "Feature", "id": "5_4x9OHyX20fWh6lfGobt0ONprI=", "properties": {"ref": "THR", "@spider": "new_york_public_library", "addr:full": "2550 Victory Boulevard", "addr:city": "Staten Island", "addr:state": "NY", "addr:postcode": "10314", "addr:country": "US", "name": "Todt Hill-Westerleigh Library", "phone": "(718)-494-1642", "website": "https://www.nypl.org/about/locations/", "opening_hours": "Mo-Th 10:00-19:00; Fr-Sa 10:00-17:00; Su 13:00-17:00", "brand": "The New York Public Library", "brand:wikidata": "Q219555"}, "geometry": {"type": "Point", "coordinates": [-74.148, 40.6098]}},
{"type": "Feature", "id": "N4pw0Qihp9_gaQ9VLUN-8bbYCtc=", "properties": {"ref": "TS", "@spider": "new_york_public_library", "addr:full": "331 East 10th Street", "addr:city": "New York", "addr:state": "NY", "addr:postcode": "10009", "addr:country": "US", "name": "Tompkins Square Library", "phone": "(212)-228-4747", "website": "https://www.nypl.org/about/locations/", "opening_hours": "Mo-Th 11:00-19:00; Fr 10:00-18:00; Sa 10:00-17:00", "brand": "The New York Public Library", "brand:wikidata": "Q219555"}, "geometry": {"type": "Point", "coordinates": [-73.9806, 40.7273]}},
{"type": "Feature", "id": "S_ie0Lr0VYfSjAjaAlWiXC9trm0=", "properties": {"ref": "TV", "@spider": "new_york_public_library", "addr:full": "7430 Amboy Road", "addr:city": "Staten Island", "addr:state": "NY", "addr:postcode": "10307", "addr:country": "US", "name": "Tottenville Library", "phone": "(718)-984-0945", "website": "https://www.nypl.org/about/locations/", "opening_hours": "Mo-Th 11:00-18:00; Fr-Sa 10:00-17:00", "brand": "The New York Public Library", "brand:wikidata": "Q219555"}, "geometry": {"type": "Point", "coordinates": [-74.244, 40.5098]}},
{"type": "Feature", "id": "PcKGIm8YyLd6dJy8XKt8et1xRXc=", "properties": {"ref": "TM", "@spider": "new_york_public_library", "addr:full": "1866 Washington Avenue", "addr:city": "Bronx", "addr:state": "NY", "addr:postcode": "10457", "addr:country": "US", "name": "Tremont Library", "phone": "(718)-299-5177", "website": "https://www.nypl.org/about/locations/", "opening_hours": "Mo-Fr 10:00-18:00; Sa 10:00-17:00", "brand": "The New York Public Library", "brand:wikidata": "Q219555"}, "geometry": {"type": "Point", "coordinates": [-73.8984, 40.8461]}},
{"type": "Feature", "id": "fRDiRx0uiJoFn7eh0MAYNvundW0=", "properties": {"ref": "VC", "@spider": "new_york_public_library", "addr:full": "3882 Cannon Place", "addr:city": "Bronx", "addr:state": "NY", "addr:postcode": "10463", "addr:country": "US", "name": "Van Cortlandt Library, Arline Schwarzman Building", "phone": "(718)-543-5150", "website": "https://www.nypl.org/about/locations/", "opening_hours": "Mo-Th 10:00-19:00; Fr-Sa 10:00-17:00", "brand": "The New York Public Library", "brand:wikidata": "Q219555"}, "geometry": {"type": "Point", "coordinates": [-73.8945, 40.8836]}},
{"type": "Feature", "id": "mvO1ZWvsjTzjXYTbRnxiiFwBjQ0=", "properties": {"ref": "WK", "@spider": "new_york_public_library", "addr:full": "4100 Lowerre Place", "addr:city": "Bronx", "addr:state": "NY", "addr:postcode": "10466", "addr:country": "US", "name": "Wakefield Library", "phone": "(718)-652-4663", "website": "https://www.nypl.org/about/locations/", "opening_hours": "Mo-Th 10:00-19:00; Fr-Sa 10:00-17:00", "brand": "The New York Public Library", "brand:wikidata": "Q219555"}, "geometry": {"type": "Point", "coordinates": [-73.8596, 40.8912]}},
{"type": "Feature", "id": "hrwLB1x2xLLQBlFJ7EWKDqUabNc=", "properties": {"ref": "WH", "@spider": "new_york_public_library", "addr:full": "1000 St. Nicholas Avenue", "addr:city": "New York", "addr:state": "NY", "addr:postcode": "10032", "addr:country": "US", "name": "Washington Heights Library", "phone": "(212)-923-6054", "website": "https://www.nypl.org/about/locations/", "opening_hours": "Mo-Th 10:00-19:00; Fr-Sa 10:00-17:00; Su 13:00-17:00", "brand": "The New York Public Library", "brand:wikidata": "Q219555"}, "geometry": {"type": "Point", "coordinates": [-73.9399, 40.8346]}},
{"type": "Feature", "id": "KI45CTEGUwo2aXMaDWSqpJYfZRQ=", "properties": {"ref": "WB", "@spider": "new_york_public_library", "addr:full": "1465 York Avenue", "addr:city": "New York", "addr:state": "NY", "addr:postcode": "10075", "addr:country": "US", "name": "Webster Library", "phone": "(212)-288-5049", "website": "https://www.nypl.org/about/locations/", "opening_hours": "Mo-Th 11:00-19:00; Fr-Sa 10:00-17:00", "brand": "The New York Public Library", "brand:wikidata": "Q219555"}, "geometry": {"type": "Point", "coordinates": [-73.9512, 40.7707]}},
{"type": "Feature", "id": "YQpYWslr4h7uw_Id6eGrEc2hcJo=", "properties": {"ref": "WF", "@spider": "new_york_public_library", "addr:full": "2085 Honeywell Avenue", "addr:city": "Bronx", "addr:state": "NY", "addr:postcode": "10460", "addr:country": "US", "name": "West Farms Library", "phone": "(718)-367-5376", "website": "https://www.nypl.org/about/locations/", "opening_hours": "Mo-Th 10:00-19:00; Fr-Sa 10:00-17:00", "brand": "The New York Public Library", "brand:wikidata": "Q219555"}, "geometry": {"type": "Point", "coordinates": [-73.8828, 40.8448]}},
{"type": "Feature", "id": "fCrjU5GPo_EbJzqTcKjdKxX_pCw=", "properties": {"ref": "NB", "@spider": "new_york_public_library", "addr:full": "976 Castleton Avenue", "addr:city": "Staten Island", "addr:state": "NY", "addr:postcode": "10310", "addr:country": "US", "name": "West New Brighton Library", "phone": "(718)-442-1416", "website": "https://www.nypl.org/about/locations/", "opening_hours": "Mo-Th 11:00-18:00; Fr-Sa 10:00-17:00", "brand": "The New York Public Library", "brand:wikidata": "Q219555"}, "geometry": {"type": "Point", "coordinates": [-74.1152, 40.6346]}},
{"type": "Feature", "id": "lE5AhwMZPnQmFT22U6V6KUCoVs8=", "properties": {"ref": "WT", "@spider": "new_york_public_library", "addr:full": "2521 Glebe Avenue", "addr:city": "Bronx", "addr:state": "NY", "addr:postcode": "10461", "addr:country": "US", "name": "Westchester Square Library", "phone": "(718)-863-0436", "website": "https://www.nypl.org/about/locations/", "opening_hours": "Mo 11:00-19:00; Tu 10:00-18:00; We 11:00-19:00; Th 10:00-18:00; Fr-Sa 10:00-17:00", "brand": "The New York Public Library", "brand:wikidata": "Q219555"}, "geometry": {"type": "Point", "coordinates": [-73.8469, 40.8407]}},
{"type": "Feature", "id": "47T4OEnc5nvOlbpIRaKa8iVu6lA=", "properties": {"ref": "WL", "@spider": "new_york_public_library", "addr:full": "4355 Katonah Avenue", "addr:city": "Bronx", "addr:state": "NY", "addr:postcode": "10470", "addr:country": "US", "name": "Woodlawn Heights Library", "phone": "(718)-519-9627", "website": "https://www.nypl.org/about/locations/", "opening_hours": "Mo-Th 10:00-19:00; Fr-Sa 10:00-17:00", "brand": "The New York Public Library", "brand:wikidata": "Q219555"}, "geometry": {"type": "Point", "coordinates": [-73.8679, 40.9005]}},
{"type": "Feature", "id": "7lVtcIvXHhMGrgXkCPEISj2-iFY=", "properties": {"ref": "WO", "@spider": "new_york_public_library", "addr:full": "761 East 160th Street", "addr:city": "Bronx", "addr:state": "NY", "addr:postcode": "10456", "addr:country": "US", "name": "Woodstock Library", "phone": "(718)-665-6255", "website": "https://www.nypl.org/about/locations/", "opening_hours": "Mo-Fr 10:00-18:00; Sa 10:00-17:00", "brand": "The New York Public Library", "brand:wikidata": "Q219555"}, "geometry": {"type": "Point", "coordinates": [-73.9046, 40.8205]}},
{"type": "Feature", "id": "amg87O4y-Vuu9V7ZlGCr8r5ZOfU=", "properties": {"ref": "YV", "@spider": "new_york_public_library", "addr:full": "222 East 79th Street", "addr:city": "New York", "addr:state": "NY", "addr:postcode": "10075", "addr:country": "US", "name": "Yorkville Library", "phone": "(212)-744-5824", "website": "https://www.nypl.org/about/locations/", "opening_hours": "Mo 11:00-19:00; Tu 10:00-18:00; We 11:00-19:00; Th 10:00-18:00; Fr-Sa 10:00-17:00", "brand": "The New York Public Library", "brand:wikidata": "Q219555"}, "geometry": {"type": "Point", "coordinates": [-73.9569, 40.774]}}]}