{"type":"FeatureCollection","features":[{"type": "Feature", "id": "5WGqNCzgiMr0SEuDU9VKNpJNzdA=", "properties": {"ref": "375-s-mcdowell-blvd", "@spider": "noahsnybagels", "amenity": "fast_food", "cuisine": "bagel", "official_name": "Noah's New York Bagels", "takeaway": "yes", "addr:full": "375 S. McDowell Blvd.", "addr:city": "Petaluma", "addr:state": "California", "addr:postcode": "94954", "addr:country": "US", "name": "Noah's NY Bagels Petaluma", "phone": "(707) 766-9651", "website": "https://locations.noahs.com/us/ca/petaluma/375-s-mcdowell-blvd", "opening_hours": "Mo-Fr 05:00-02:00; Sa-Su 06:00-02:00", "brand": "Noah's New York Bagels", "brand:wikidata": "Q64517373", "nsi_id": "noahsbagels-4d2ff4"}, "geometry": {"type": "Point", "coordinates": [-122.62258037924767, 38.24964191603374]}},
{"type": "Feature", "id": "7oe2vSyS5bkONv8vni__vcTvpqM=", "properties": {"ref": "15270-antioch-st", "@spider": "noahsnybagels", "amenity": "fast_food", "cuisine": "bagel", "official_name": "Noah's New York Bagels", "takeaway": "yes", "addr:full": "15270 Antioch St #15276", "addr:city": "Pacific Palisades", "addr:state": "California", "addr:postcode": "90272", "addr:country": "US", "name": "Noah's NY Bagels Pacific Palisades", "phone": "(310) 230-1461", "website": "https://locations.noahs.com/us/ca/pacific-palisades/15270-antioch-st", "opening_hours": "Mo-Fr 05:00-02:00; Sa-Su 06:00-02:00", "brand": "Noah's New York Bagels", "brand:wikidata": "Q64517373", "nsi_id": "noahsbagels-4d2ff4"}, "geometry": {"type": "Point", "coordinates": [-118.5255148261785, 34.0467113000913]}},
{"type": "Feature", "id": "GmoZ4TV7hZR4RazhBhRbW7Y4JRo=", "properties": {"ref": "124-n-milpitas-blvd", "@spider": "noahsnybagels", "amenity": "fast_food", "cuisine": "bagel", "official_name": "Noah's New York Bagels", "takeaway": "yes", "addr:full": "124 N Milpitas Blvd Ste 10", "addr:city": "Milpitas", "addr:state": "California", "addr:postcode": "95035", "addr:country": "US", "name": "Noah's NY Bagels Milpitas", "phone": "(408) 941-9440", "website": "https://locations.noahs.com/us/ca/milpitas/124-n-milpitas-blvd", "opening_hours": "Mo-Fr 05:30-02:00; Sa-Su 06:00-02:00", "brand": "Noah's New York Bagels", "brand:wikidata": "Q64517373", "nsi_id": "noahsbagels-4d2ff4"}, "geometry": {"type": "Point", "coordinates": [-121.9003976136446, 37.43463270210883]}},
{"type": "Feature", "id": "qgaEvj3bpwMVS45s2rhh_72aNCk=", "properties": {"ref": "548-washington-blvd", "@spider": "noahsnybagels", "amenity": "fast_food", "cuisine": "bagel", "official_name": "Noah's New York Bagels", "takeaway": "yes", "addr:full": "548 Washington Blvd. Ste B", "addr:city": "Marina Del Rey", "addr:state": "California", "addr:postcode": "90292", "addr:country": "US", "name": "Noah's NY Bagels Marina Del Rey", "phone": "(310) 574-1155", "website": "https://locations.noahs.com/us/ca/marina-del-rey/548-washington-blvd", "opening_hours": "Mo-Fr 05:00-02:00; Sa-Su 06:00-02:00", "brand": "Noah's New York Bagels", "brand:wikidata": "Q64517373", "nsi_id": "noahsbagels-4d2ff4"}, "geometry": {"type": "Point", "coordinates": [-118.45975711941719, 33.983098227997075]}},
{"type": "Feature", "id": "C0TEuwAn8nqno6aXILeMkmGt5Bc=", "properties": {"ref": "330-manhattan-beach-blvd", "@spider": "noahsnybagels", "amenity": "fast_food", "cuisine": "bagel", "official_name": "Noah's New York Bagels", "takeaway": "yes", "addr:full": "330 Manhattan Beach Blvd Ste C", "addr:city": "Manhattan Beach", "addr:state": "California", "addr:postcode": "90266", "addr:country": "US", "name": "Noah's NY Bagels Manhattan Beach", "phone": "(310) 937-2206", "website": "https://locations.noahs.com/us/ca/manhattan-beach/330-manhattan-beach-blvd", "opening_hours": "Mo-Fr 05:00-02:00; Sa-Su 06:00-02:00", "brand": "Noah's New York Bagels", "brand:wikidata": "Q64517373", "nsi_id": "noahsbagels-4d2ff4"}, "geometry": {"type": "Point", "coordinates": [-118.40877637267113, 33.88516617973088]}},
{"type": "Feature", "id": "frWPSJOvi5E7e3yF8VaIRlFrjDo=", "properties": {"ref": "15996-los-gatos-blvd", "@spider": "noahsnybagels", "amenity": "fast_food", "cuisine": "bagel", "official_name": "Noah's New York Bagels", "takeaway": "yes", "addr:full": "15996 Los Gatos Blvd", "addr:city": "Los Gatos", "addr:state": "California", "addr:postcode": "95032", "addr:country": "US", "name": "Noah's NY Bagels Los Gatos", "phone": "(408) 358-5895", "website": "https://locations.noahs.com/us/ca/los-gatos/15996-los-gatos-blvd", "opening_hours": "Mo-Su 06:00-02:00", "brand": "Noah's New York Bagels", "brand:wikidata": "Q64517373", "nsi_id": "noahsbagels-4d2ff4"}, "geometry": {"type": "Point", "coordinates": [-121.9614075, 37.2357927]}},
{"type": "Feature", "id": "8IdaX7rFMH-zoC2FWCAn6XneuAU=", "properties": {"ref": "1412-1st-st", "@spider": "noahsnybagels", "amenity": "fast_food", "cuisine": "bagel", "official_name": "Noah's New York Bagels", "takeaway": "yes", "addr:full": "1412 1st St Ste 400", "addr:city": "Livermore", "addr:state": "California", "addr:postcode": "94550", "addr:country": "US", "name": "Noah's NY Bagels Livermore", "phone": "(925) 454-9836", "website": "https://locations.noahs.com/us/ca/livermore/1412-1st-st", "opening_hours": "Mo-Fr 05:00-02:00; Sa-Su 06:00-02:00", "brand": "Noah's New York Bagels", "brand:wikidata": "Q64517373", "nsi_id": "noahsbagels-4d2ff4"}, "geometry": {"type": "Point", "coordinates": [-121.7793045938015, 37.678874294119275]}},
{"type": "Feature", "id": "0AExEBJm6axNFW079cTWNMcOeLo=", "properties": {"ref": "3518-mt-diablo-blvd", "@spider": "noahsnybagels", "amenity": "fast_food", "cuisine": "bagel", "official_name": "Noah's New York Bagels", "takeaway": "yes", "addr:full": "3518 Mt Diablo Blvd Unit B", "addr:city": "Lafayette", "addr:state": "California", "addr:postcode": "94549", "addr:country": "US", "name": "Noah's NY Bagels Lafayette CA", "phone": "(925) 299-0716", "website": "https://locations.noahs.com/us/ca/lafayette/3518-mt-diablo-blvd", "opening_hours": "Mo-Fr 05:00-02:00; Sa 05:30-02:00; Su 06:00-02:00", "brand": "Noah's New York Bagels", "brand:wikidata": "Q64517373", "nsi_id": "noahsbagels-4d2ff4"}, "geometry": {"type": "Point", "coordinates": [-122.11816281080246, 37.89317346208929]}},
{"type": "Feature", "id": "PRx89Lk3HIzng6GHsPkzAGlIeuY=", "properties": {"ref": "170-bon-air-ctr", "@spider": "noahsnybagels", "amenity": "fast_food", "cuisine": "bagel", "official_name": "Noah's New York Bagels", "takeaway": "yes", "addr:full": "170 Bon Air Ctr Ste 102", "addr:city": "Greenbrae", "addr:state": "California", "addr:postcode": "94904", "addr:country": "US", "name": "Noah's NY Bagels Bon Air", "phone": "(415) 925-9971", "website": "https://locations.noahs.com/us/ca/greenbrae/170-bon-air-ctr", "opening_hours": "Mo-Su 05:30-02:00", "brand": "Noah's New York Bagels", "brand:wikidata": "Q64517373", "nsi_id": "noahsbagels-4d2ff4"}, "geometry": {"type": "Point", "coordinates": [-122.52535432577133, 37.94622490812506]}},
{"type": "Feature", "id": "R0zuHVUAlGOYYrUPfcBSj26rLYA=", "properties": {"ref": "3958-mowry-ave", "@spider": "noahsnybagels", "amenity": "fast_food", "cuisine": "bagel", "official_name": "Noah's New York Bagels", "takeaway": "yes", "addr:full": "3958 Mowry Ave Ste 400", "addr:city": "Fremont", "addr:state": "California", "addr:postcode": "94538", "addr:country": "US", "name": "Noah's NY Bagels Fremont", "phone": "(510) 744-9142", "website": "https://locations.noahs.com/us/ca/fremont/3958-mowry-ave", "opening_hours": "Mo-Su 06:00-02:00", "brand": "Noah's New York Bagels", "brand:wikidata": "Q64517373", "nsi_id": "noahsbagels-4d2ff4"}, "geometry": {"type": "Point", "coordinates": [-121.98704168200493, 37.54866466558838]}},
{"type": "Feature", "id": "Hj1DNvsQYwFvwRn27m8kxNnN9kU=", "properties": {"ref": "210-palladio-parkway", "@spider": "noahsnybagels", "amenity": "fast_food", "cuisine": "bagel", "official_name": "Noah's New York Bagels", "takeaway": "yes", "addr:full": "210 Palladio Parkway Ste 14", "addr:city": "Folsom", "addr:state": "California", "addr:postcode": "95630", "addr:country": "US", "name": "Noah's NY Bagels Palladio", "phone": "(916) 642-8150", "website": "https://locations.noahs.com/us/ca/folsom/210-palladio-parkway", "opening_hours": "Mo-Fr 06:00-02:00; Sa-Su 07:00-02:00", "brand": "Noah's New York Bagels", "brand:wikidata": "Q64517373", "nsi_id": "noahsbagels-4d2ff4"}, "geometry": {"type": "Point", "coordinates": [-121.1177018, 38.6474893]}},
{"type": "Feature", "id": "mwfFVrI1SMZY_2bRmv1FFH-4jz4=", "properties": {"ref": "5249-hazel-ave", "@spider": "noahsnybagels", "amenity": "fast_food", "cuisine": "bagel", "official_name": "Noah's New York Bagels", "takeaway": "yes", "addr:full": "5249 Hazel Ave Ste 14", "addr:city": "Fair Oaks", "addr:state": "California", "addr:postcode": "95628", "addr:country": "US", "name": "Noah's NY Bagels Fair Oaks", "phone": "(916) 863-5367", "website": "https://locations.noahs.com/us/ca/fair-oaks/5249-hazel-ave", "opening_hours": "Mo-Su 06:00-02:00", "brand": "Noah's New York Bagels", "brand:wikidata": "Q64517373", "nsi_id": "noahsbagels-4d2ff4"}, "geometry": {"type": "Point", "coordinates": [-121.22687548398972, 38.6625559703903]}},
{"type": "Feature", "id": "AUcf-9ufxkQKnnBHQygFV2YtD6g=", "properties": {"ref": "1411-w-covell-blvd", "@spider": "noahsnybagels", "amenity": "fast_food", "cuisine": "bagel", "official_name": "Noah's New York Bagels", "takeaway": "yes", "addr:full": "1411 W Covell Blvd Ste 114A", "addr:city": "Davis", "addr:state": "California", "addr:postcode": "95616", "addr:country": "US", "name": "Noah's NY Bagels Davis", "phone": "(530) 750-5163", "website": "https://locations.noahs.com/us/ca/davis/1411-w-covell-blvd", "opening_hours": "Mo-Su 06:00-02:00", "brand": "Noah's New York Bagels", "brand:wikidata": "Q64517373", "nsi_id": "noahsbagels-4d2ff4"}, "geometry": {"type": "Point", "coordinates": [-121.7652395, 38.5624365]}},
{"type": "Feature", "id": "_mlXI3hY9VLmOIxbeyYO3_q8hLQ=", "properties": {"ref": "21917-ventura-blvd", "@spider": "noahsnybagels", "amenity": "fast_food", "cuisine": "bagel", "official_name": "Noah's New York Bagels", "takeaway": "yes", "addr:full": "21917 Ventura Blvd Ste 105", "addr:city": "Woodland Hills", "addr:state": "California", "addr:postcode": "91364", "addr:country": "US", "name": "Noah's NY Bagels Woodland Hills", "phone": "(818) 999-9577", "website": "https://locations.noahs.com/us/ca/woodland-hills/21917-ventura-blvd", "opening_hours": "Mo-Fr 05:00-02:00; Sa-Su 05:30-02:00", "brand": "Noah's New York Bagels", "brand:wikidata": "Q64517373", "nsi_id": "noahsbagels-4d2ff4"}, "geometry": {"type": "Point", "coordinates": [-118.6041471362114, 34.16866031622637]}},
{"type": "Feature", "id": "-27dJ-l_7PHmIqLc49QmmrxxD_0=", "properties": {"ref": "1413-s-victoria-ave", "@spider": "noahsnybagels", "amenity": "fast_food", "cuisine": "bagel", "official_name": "Noah's New York Bagels", "takeaway": "yes", "addr:full": "1413 S Victoria Ave Ste D", "addr:city": "Ventura", "addr:state": "California", "addr:postcode": "93003", "addr:country": "US", "name": "Noah's NY Bagels Ventura", "phone": "(805) 650-1413", "website": "https://locations.noahs.com/us/ca/ventura/1413-s-victoria-ave", "opening_hours": "Mo-Sa 06:00-02:00; Su 07:00-02:00", "brand": "Noah's New York Bagels", "brand:wikidata": "Q64517373", "nsi_id": "noahsbagels-4d2ff4"}, "geometry": {"type": "Point", "coordinates": [-119.21279534697533, 34.26225529773472]}},
{"type": "Feature", "id": "lFX_KNTR_ytO1P0qv2-EWH7_HR4=", "properties": {"ref": "5095-telegraph-ave", "@spider": "noahsnybagels", "amenity": "fast_food", "cuisine": "bagel", "official_name": "Noah's New York Bagels", "takeaway": "yes", "addr:full": "5095 Telegraph Ave Ste A-1", "addr:city": "Oakland", "addr:state": "California", "addr:postcode": "94609", "addr:country": "US", "name": "Noah's NY Bagels Temescal", "phone": "(510) 379-5557", "website": "https://locations.noahs.com/us/ca/oakland/5095-telegraph-ave", "opening_hours": "Mo-Fr 05:30-02:00; Sa-Su 06:00-02:00", "brand": "Noah's New York Bagels", "brand:wikidata": "Q64517373", "nsi_id": "noahsbagels-4d2ff4"}, "geometry": {"type": "Point", "coordinates": [-122.26322928282069, 37.83691870424726]}},
{"type": "Feature", "id": "w14HiJySW7yXFBta0sDthtjbYfQ=", "properties": {"ref": "3351-lakeshore-ave", "@spider": "noahsnybagels", "amenity": "fast_food", "cuisine": "bagel", "official_name": "Noah's New York Bagels", "takeaway": "yes", "addr:full": "3351 Lakeshore Ave Ste A-1", "addr:city": "Oakland", "addr:state": "California", "addr:postcode": "94610", "addr:country": "US", "name": "Noah's NY Bagels Lakeshore", "phone": "(510) 452-3744", "website": "https://locations.noahs.com/us/ca/oakland/3351-lakeshore-ave", "opening_hours": "Mo-Su 06:00-02:00", "brand": "Noah's New York Bagels", "brand:wikidata": "Q64517373", "nsi_id": "noahsbagels-4d2ff4"}, "geometry": {"type": "Point", "coordinates": [-122.24340990185732, 37.81126305613605]}},
{"type": "Feature", "id": "ISf-c9_CBcFhjQkfgvB-WX-8WW8=", "properties": {"ref": "25910-the-old-rd", "@spider": "noahsnybagels", "amenity": "fast_food", "cuisine": "bagel", "official_name": "Noah's New York Bagels", "takeaway": "yes", "addr:full": "25910 the Old Rd Ste C1", "addr:city": "Valencia", "addr:state": "California", "addr:postcode": "91381", "addr:country": "US", "name": "Noah's NY Bagels Valencia", "phone": "(661) 254-9474", "website": "https://locations.noahs.com/us/ca/valencia/25910-the-old-rd", "opening_hours": "Mo-Su 05:00-02:00", "brand": "Noah's New York Bagels", "brand:wikidata": "Q64517373", "nsi_id": "noahsbagels-4d2ff4"}, "geometry": {"type": "Point", "coordinates": [-118.573247, 34.3922368]}},
{"type": "Feature", "id": "67Vq6hpxu_g5-YVx2y1YYgxFhEE=", "properties": {"ref": "1670-east-monte-vista-ave", "@spider": "noahsnybagels", "amenity": "fast_food", "cuisine": "bagel", "official_name": "Noah's New York Bagels", "takeaway": "yes", "addr:full": "1670 East Monte Vista Ave Suite 104", "addr:city": "Vacaville", "addr:state": "California", "addr:postcode": "95688", "addr:country": "US", "name": "Noah's NY Bagels Nut Tree Plaza / Vacaville", "phone": "(707) 474-4359", "website": "https://locations.noahs.com/us/ca/vacaville/1670-east-monte-vista-ave", "opening_hours": "Mo-Fr 05:00-02:00; Sa-Su 05:30-02:00", "brand": "Noah's New York Bagels", "brand:wikidata": "Q64517373", "nsi_id": "noahsbagels-4d2ff4"}, "geometry": {"type": "Point", "coordinates": [-121.9600559771061, 38.368630969191635]}},
{"type": "Feature", "id": "ktPKCJeDxnsNFgpw9oKm-j0hDsk=", "properties": {"ref": "15020-kensington-park-drive", "@spider": "noahsnybagels", "amenity": "fast_food", "cuisine": "bagel", "official_name": "Noah's New York Bagels", "takeaway": "yes", "addr:full": "15020 Kensington Park Drive Suite J-400", "addr:city": "Tustin", "addr:state": "California", "addr:postcode": "92780", "addr:country": "US", "name": "Noah's NY Bagels Tustin Legacy", "phone": "(657) 210-6013", "website": "https://locations.noahs.com/us/ca/tustin/15020-kensington-park-drive", "opening_hours": "Mo-Fr 05:00-02:00; Sa-Su 06:00-02:00", "brand": "Noah's New York Bagels", "brand:wikidata": "Q64517373", "nsi_id": "noahsbagels-4d2ff4"}, "geometry": {"type": "Point", "coordinates": [-117.8166467, 33.7133044]}},
{"type": "Feature", "id": "BDmP5onedxeqZmGMQeK-NrOOTxo=", "properties": {"ref": "8985-venice-blvd", "@spider": "noahsnybagels", "amenity": "fast_food", "cuisine": "bagel", "official_name": "Noah's New York Bagels", "takeaway": "yes", "addr:full": "8985 Venice Blvd Ste B", "addr:city": "Los Angeles", "addr:state": "California", "addr:postcode": "90034", "addr:country": "US", "name": "Noah's NY Bagels Culver City", "phone": "(310) 280-0271", "website": "https://locations.noahs.com/us/ca/los-angeles/8985-venice-blvd", "opening_hours": "Mo-Fr 05:00-02:00; Sa-Su 06:00-02:00", "brand": "Noah's New York Bagels", "brand:wikidata": "Q64517373", "nsi_id": "noahsbagels-4d2ff4"}, "geometry": {"type": "Point", "coordinates": [-118.39286752045155, 34.027142782205026]}},
{"type": "Feature", "id": "-wh987YZ1ULYugxOF2n7OGVIwDU=", "properties": {"ref": "250-n-larchmont-blvd", "@spider": "noahsnybagels", "amenity": "fast_food", "cuisine": "bagel", "official_name": "Noah's New York Bagels", "takeaway": "yes", "addr:full": "250 N Larchmont Blvd Ste B", "addr:city": "Los Angeles", "addr:state": "California", "addr:postcode": "90004", "addr:country": "US", "name": "Noah's NY Bagels Larchmont", "phone": "(323) 466-2924", "website": "https://locations.noahs.com/us/ca/los-angeles/250-n-larchmont-blvd", "opening_hours": "Mo-Su 05:00-02:00", "brand": "Noah's New York Bagels", "brand:wikidata": "Q64517373", "nsi_id": "noahsbagels-4d2ff4"}, "geometry": {"type": "Point", "coordinates": [-118.32341104745865, 34.076030062093785]}},
{"type": "Feature", "id": "04UnAEKGnzVffXyOEiMibH5I86k=", "properties": {"ref": "10910-lindbrook-dr", "@spider": "noahsnybagels", "amenity": "fast_food", "cuisine": "bagel", "official_name": "Noah's New York Bagels", "takeaway": "yes", "addr:full": "10910 Lindbrook Dr Ste B", "addr:city": "Los Angeles", "addr:state": "California", "addr:postcode": "90024", "addr:country": "US", "name": "Noah's NY Bagels Westwood Village", "phone": "(310) 209-8177", "website": "https://locations.noahs.com/us/ca/los-angeles/10910-lindbrook-dr", "opening_hours": "Mo-Fr 05:00-02:00; Sa-Su 06:00-02:00", "brand": "Noah's New York Bagels", "brand:wikidata": "Q64517373", "nsi_id": "noahsbagels-4d2ff4"}, "geometry": {"type": "Point", "coordinates": [-118.4449115, 34.0593537]}},
{"type": "Feature", "id": "JBxJeIPKjOX4G5ZKWDoGIFSJsk8=", "properties": {"ref": "33-n-moorpark-rd", "@spider": "noahsnybagels", "amenity": "fast_food", "cuisine": "bagel", "official_name": "Noah's New York Bagels", "takeaway": "yes", "addr:full": "33 N Moorpark Rd Ste I", "addr:city": "Thousand Oaks", "addr:state": "California", "addr:postcode": "91360", "addr:country": "US", "name": "Noah's NY Bagels Thousand Oaks", "phone": "(805) 381-9893", "website": "https://locations.noahs.com/us/ca/thousand-oaks/33-n-moorpark-rd", "opening_hours": "Mo-Su 05:30-02:00", "brand": "Noah's New York Bagels", "brand:wikidata": "Q64517373", "nsi_id": "noahsbagels-4d2ff4"}, "geometry": {"type": "Point", "coordinates": [-118.87721747159958, 34.17989107821387]}},
{"type": "Feature", "id": "qIP8AI9UJqXwR_KO98fYrKuxy_o=", "properties": {"ref": "123-lincoln-ctr", "@spider": "noahsnybagels", "amenity": "fast_food", "cuisine": "bagel", "official_name": "Noah's New York Bagels", "takeaway": "yes", "addr:full": "123 Lincoln Ctr Ste 400", "addr:city": "Stockton", "addr:state": "California", "addr:postcode": "95207", "addr:country": "US", "name": "Noah's NY Bagels Stockton", "phone": "(209) 951-2284", "website": "https://locations.noahs.com/us/ca/stockton/123-lincoln-ctr", "opening_hours": "Mo-Fr 06:00-02:00; Sa-Su 07:00-02:00", "brand": "Noah's New York Bagels", "brand:wikidata": "Q64517373", "nsi_id": "noahsbagels-4d2ff4"}, "geometry": {"type": "Point", "coordinates": [-121.32225600859829, 38.011186265754304]}},
{"type": "Feature", "id": "5GSvDAoj7ngjRnN-Hk9ZZE7EC9o=", "properties": {"ref": "14622-ventura-blvd", "@spider": "noahsnybagels", "amenity": "fast_food", "cuisine": "bagel", "official_name": "Noah's New York Bagels", "takeaway": "yes", "addr:full": "14622 Ventura Blvd Ste 105", "addr:city": "Sherman Oaks", "addr:state": "California", "addr:postcode": "91403", "addr:country": "US", "name": "Noah's NY Bagels Sherman Oaks", "phone": "(818) 907-9570", "website": "https://locations.noahs.com/us/ca/sherman-oaks/14622-ventura-blvd", "opening_hours": "Mo-Su 06:00-02:00", "brand": "Noah's New York Bagels", "brand:wikidata": "Q64517373", "nsi_id": "noahsbagels-4d2ff4"}, "geometry": {"type": "Point", "coordinates": [-118.45239445567131, 34.15125090255452]}},
{"type": "Feature", "id": "aRQFA6nsDbHakDqCYcXW8JbwMbM=", "properties": {"ref": "2380-el-camino-real", "@spider": "noahsnybagels", "amenity": "fast_food", "cuisine": "bagel", "official_name": "Noah's New York Bagels", "takeaway": "yes", "addr:full": "2380 El Camino Real Ste 10", "addr:city": "Santa Clara", "addr:state": "California", "addr:postcode": "95050", "addr:country": "US", "name": "Noah's NY Bagels San Tomas", "phone": "(408) 249-9923", "website": "https://locations.noahs.com/us/ca/santa-clara/2380-el-camino-real", "opening_hours": "Mo-Fr 05:30-02:00; Sa-Su 06:00-02:00", "brand": "Noah's New York Bagels", "brand:wikidata": "Q64517373", "nsi_id": "noahsbagels-4d2ff4"}, "geometry": {"type": "Point", "coordinates": [-121.9681687, 37.3517237]}},
{"type": "Feature", "id": "VAkmy0Z7klwRQFsd9JEfQtTwEpQ=", "properties": {"ref": "821-n-douglas-st", "@spider": "noahsnybagels", "amenity": "fast_food", "cuisine": "bagel", "official_name": "Noah's New York Bagels", "takeaway": "yes", "addr:full": "821 N Douglas St Ste C", "addr:city": "El Segundo", "addr:state": "California", "addr:postcode": "90245", "addr:country": "US", "name": "Noah's NY Bagels Douglas", "phone": "(310) 535-2135", "website": "https://locations.noahs.com/us/ca/el-segundo/821-n-douglas-st", "opening_hours": "Mo-Fr 05:00-02:00; Sa 06:00-01:00; Su 07:00-01:00", "brand": "Noah's New York Bagels", "brand:wikidata": "Q64517373", "nsi_id": "noahsbagels-4d2ff4"}, "geometry": {"type": "Point", "coordinates": [-118.3836279809475, 33.9274776863506]}},
{"type": "Feature", "id": "yuOpnB2RhSZFHmkpMbzI_pKoVsM=", "properties": {"ref": "2231-rosecrans-ave", "@spider": "noahsnybagels", "amenity": "fast_food", "cuisine": "bagel", "official_name": "Noah's New York Bagels", "takeaway": "yes", "addr:full": "2231 Rosecrans Ave Ste C", "addr:city": "El Segundo", "addr:state": "California", "addr:postcode": "90245", "addr:country": "US", "name": "Noah's NY Bagels El Segundo", "phone": "(310) 725-9160", "website": "https://locations.noahs.com/us/ca/el-segundo/2231-rosecrans-ave", "opening_hours": "Mo-Fr 05:00-02:00; Sa-Su 06:00-02:00", "brand": "Noah's New York Bagels", "brand:wikidata": "Q64517373", "nsi_id": "noahsbagels-4d2ff4"}, "geometry": {"type": "Point", "coordinates": [-118.38346436619759, 33.90236089273689]}},
{"type": "Feature", "id": "v5aUNd2p-5r1Uhc6rmtqgzAMTcU=", "properties": {"ref": "50-e-4th-ave", "@spider": "noahsnybagels", "amenity": "fast_food", "cuisine": "bagel", "official_name": "Noah's New York Bagels", "takeaway": "yes", "addr:full": "50 E 4th Ave Suite 250", "addr:city": "San Mateo", "addr:state": "California", "addr:postcode": "94401", "addr:country": "US", "name": "Noah's NY Bagels San Mateo", "phone": "(650) 347-2364", "website": "https://locations.noahs.com/us/ca/san-mateo/50-e-4th-ave", "opening_hours": "Mo-Fr 05:00-02:00; Sa-Su 06:00-02:00", "brand": "Noah's New York Bagels", "brand:wikidata": "Q64517373", "nsi_id": "noahsbagels-4d2ff4"}, "geometry": {"type": "Point", "coordinates": [-122.32397675514221, 37.56283572305325]}},
{"type": "Feature", "id": "fKJUFEkcAV2vJAPks3wUqKy038g=", "properties": {"ref": "730-bancroft-rd", "@spider": "noahsnybagels", "amenity": "fast_food", "cuisine": "bagel", "official_name": "Noah's New York Bagels", "takeaway": "yes", "addr:full": "730 Bancroft Rd Unit B", "addr:city": "Walnut Creek", "addr:state": "California", "addr:postcode": "94598", "addr:country": "US", "name": "Noah's NY Bagels Walnut Creek", "phone": "(925) 256-8284", "website": "https://locations.noahs.com/us/ca/walnut-creek/730-bancroft-rd", "opening_hours": "Mo-Fr 05:00-02:00; Sa-Su 05:30-02:00", "brand": "Noah's New York Bagels", "brand:wikidata": "Q64517373", "nsi_id": "noahsbagels-4d2ff4"}, "geometry": {"type": "Point", "coordinates": [-122.03995361924171, 37.92918215790386]}},
{"type": "Feature", "id": "v4MY88-b-WY3gk63Y8oSRJFgWJ8=", "properties": {"ref": "1930-mt-diablo-blvd", "@spider": "noahsnybagels", "amenity": "fast_food", "cuisine": "bagel", "official_name": "Noah's New York Bagels", "takeaway": "yes", "addr:full": "1930 Mt Diablo Blvd Unit B", "addr:city": "Walnut Creek", "addr:state": "California", "addr:postcode": "94596", "addr:country": "US", "name": "Noah's NY Bagels Mt. Diablo - Walnut Creek", "phone": "(925) 357-6967", "website": "https://locations.noahs.com/us/ca/walnut-creek/1930-mt-diablo-blvd", "opening_hours": "Mo-Su 06:00-01:00", "brand": "Noah's New York Bagels", "brand:wikidata": "Q64517373", "nsi_id": "noahsbagels-4d2ff4"}, "geometry": {"type": "Point", "coordinates": [-122.06715658307076, 37.89792949905731]}},
{"type": "Feature", "id": "8m0n1QkXNgAsPe2w0d6UqGykXpg=", "properties": {"ref": "895-silver-spur-rd", "@spider": "noahsnybagels", "amenity": "fast_food", "cuisine": "bagel", "official_name": "Noah's New York Bagels", "takeaway": "yes", "addr:full": "895 Silver Spur Rd Ste C", "addr:city": "Rolling Hills Estates", "addr:state": "California", "addr:postcode": "90274", "addr:country": "US", "name": "Noah's NY Bagels Palos Verdes", "phone": "(310) 541-7824", "website": "https://locations.noahs.com/us/ca/rolling-hills-estates/895-silver-spur-rd", "opening_hours": "Mo-Fr 05:00-02:00; Sa-Su 06:00-02:00", "brand": "Noah's New York Bagels", "brand:wikidata": "Q64517373", "nsi_id": "noahsbagels-4d2ff4"}, "geometry": {"type": "Point", "coordinates": [-118.3668427169323, 33.76933510542941]}},
{"type": "Feature", "id": "DTGgsQbSjf3xFHMReuD-Q0B2hOA=", "properties": {"ref": "1067-el-camino-real", "@spider": "noahsnybagels", "amenity": "fast_food", "cuisine": "bagel", "official_name": "Noah's New York Bagels", "takeaway": "yes", "addr:full": "1067 El Camino Real", "addr:city": "Redwood City", "addr:state": "California", "addr:postcode": "94063", "addr:country": "US", "name": "Noah's NY Bagels Redwood City", "phone": "(650) 299-9050", "website": "https://locations.noahs.com/us/ca/redwood-city/1067-el-camino-real", "opening_hours": "Mo-Su 06:00-02:00", "brand": "Noah's New York Bagels", "brand:wikidata": "Q64517373", "nsi_id": "noahsbagels-4d2ff4"}, "geometry": {"type": "Point", "coordinates": [-122.2309395, 37.4848696]}},
{"type": "Feature", "id": "73dJ1FNZUVOE-6qRrKklRD9bmSo=", "properties": {"ref": "1737-santa-rita-rd", "@spider": "noahsnybagels", "amenity": "fast_food", "cuisine": "bagel", "official_name": "Noah's New York Bagels", "takeaway": "yes", "addr:full": "1737 Santa Rita Rd Ste 400", "addr:city": "Pleasanton", "addr:state": "California", "addr:postcode": "94566", "addr:country": "US", "name": "Noah's NY Bagels Pleasanton", "phone": "(925) 485-1921", "website": "https://locations.noahs.com/us/ca/pleasanton/1737-santa-rita-rd", "opening_hours": "Mo-Fr 05:00-02:00; Sa-Su 06:00-02:00", "brand": "Noah's New York Bagels", "brand:wikidata": "Q64517373", "nsi_id": "noahsbagels-4d2ff4"}, "geometry": {"type": "Point", "coordinates": [-121.87391817569727, 37.675216565233434]}},
{"type": "Feature", "id": "082XlvIoURJviA7r7EX9eg_sLnI=", "properties": {"ref": "1552-fitzgerald-dr", "@spider": "noahsnybagels", "amenity": "fast_food", "cuisine": "bagel", "official_name": "Noah's New York Bagels", "takeaway": "yes", "addr:full": "1552 Fitzgerald Dr Ste A-1", "addr:city": "Pinole", "addr:state": "California", "addr:postcode": "94564", "addr:country": "US", "name": "Noah's NY Bagels Pinole", "phone": "(510) 758-2757", "website": "https://locations.noahs.com/us/ca/pinole/1552-fitzgerald-dr", "opening_hours": "Mo-Fr 05:00-02:00; Sa-Su 06:00-02:00", "brand": "Noah's New York Bagels", "brand:wikidata": "Q64517373", "nsi_id": "noahsbagels-4d2ff4"}, "geometry": {"type": "Point", "coordinates": [-122.30200409889221, 37.990411021733415]}},
{"type": "Feature", "id": "LvzZdStpKMHwY_jSbm351RNOshg=", "properties": {"ref": "415-railroad-ave", "@spider": "noahsnybagels", "amenity": "fast_food", "cuisine": "bagel", "official_name": "Noah's New York Bagels", "takeaway": "yes", "addr:full": "415 Railroad Ave Unit B", "addr:city": "Danville", "addr:state": "California", "addr:postcode": "94526", "addr:country": "US", "name": "Noah's NY Bagels Iron Horse", "phone": "(925) 633-7521", "website": "https://locations.noahs.com/us/ca/danville/415-railroad-ave", "opening_hours": "Mo-Su 06:00-02:00", "brand": "Noah's New York Bagels", "brand:wikidata": "Q64517373", "nsi_id": "noahsbagels-4d2ff4"}, "geometry": {"type": "Point", "coordinates": [-121.9975162, 37.8189973]}},
{"type": "Feature", "id": "cecUj7f3au_CJQSFBtxhf6TGO6U=", "properties": {"ref": "7423-fair-oaks-blvd", "@spider": "noahsnybagels", "amenity": "fast_food", "cuisine": "bagel", "official_name": "Noah's New York Bagels", "takeaway": "yes", "addr:full": "7423 Fair Oaks Blvd Ste 14", "addr:city": "Carmichael", "addr:state": "California", "addr:postcode": "95608", "addr:country": "US", "name": "Noah's NY Bagels Carmichael", "phone": "(916) 571-7612", "website": "https://locations.noahs.com/us/ca/carmichael/7423-fair-oaks-blvd", "opening_hours": "Mo-Su 06:00-02:00", "brand": "Noah's New York Bagels", "brand:wikidata": "Q64517373", "nsi_id": "noahsbagels-4d2ff4"}, "geometry": {"type": "Point", "coordinates": [-121.3285053, 38.636463]}},
{"type": "Feature", "id": "eymt61EpAWganxID4ZEY5xJ5BOI=", "properties": {"ref": "608-las-posas-rd", "@spider": "noahsnybagels", "amenity": "fast_food", "cuisine": "bagel", "official_name": "Noah's New York Bagels", "takeaway": "yes", "addr:full": "608 Las Posas Rd Ste D", "addr:city": "Camarillo", "addr:state": "California", "addr:postcode": "93010", "addr:country": "US", "name": "Noah's NY Bagels Camarillo", "phone": "(805) 388-5090", "website": "https://locations.noahs.com/us/ca/camarillo/608-las-posas-rd", "opening_hours": "Mo-Fr 05:00-02:00; Sa-Su 05:30-02:00", "brand": "Noah's New York Bagels", "brand:wikidata": "Q64517373", "nsi_id": "noahsbagels-4d2ff4"}, "geometry": {"type": "Point", "coordinates": [-119.067939, 34.2224383]}},
{"type": "Feature", "id": "qThizTLOzwSxtAknozAjcQ692ss=", "properties": {"ref": "311-n-san-fernando-blvd", "@spider": "noahsnybagels", "amenity": "fast_food", "cuisine": "bagel", "official_name": "Noah's New York Bagels", "takeaway": "yes", "addr:full": "311 N San Fernando Blvd Ste 105", "addr:city": "Burbank", "addr:state": "California", "addr:postcode": "91502", "addr:country": "US", "name": "Noah's NY Bagels Burbank", "phone": "(818) 562-1635", "website": "https://locations.noahs.com/us/ca/burbank/311-n-san-fernando-blvd", "opening_hours": "Mo-Fr 05:00-02:00; Sa-Su 06:00-02:00", "brand": "Noah's New York Bagels", "brand:wikidata": "Q64517373", "nsi_id": "noahsbagels-4d2ff4"}, "geometry": {"type": "Point", "coordinates": [-118.31114396452904, 34.18241396613367]}},
{"type": "Feature", "id": "V9mLTBecsaBKyJzxDyiExuKgUVo=", "properties": {"ref": "1883-solano-ave", "@spider": "noahsnybagels", "amenity": "fast_food", "cuisine": "bagel", "official_name": "Noah's New York Bagels", "takeaway": "yes", "addr:full": "1883 Solano Ave Ste A-1", "addr:city": "Berkeley", "addr:state": "California", "addr:postcode": "94707", "addr:country": "US", "name": "Noah's NY Bagels Solano", "phone": "(510) 525-4447", "website": "https://locations.noahs.com/us/ca/berkeley/1883-solano-ave", "opening_hours": "Mo-Fr 05:30-02:00; Sa-Su 06:00-02:00", "brand": "Noah's New York Bagels", "brand:wikidata": "Q64517373", "nsi_id": "noahsbagels-4d2ff4"}, "geometry": {"type": "Point", "coordinates": [-122.27775357663631, 37.8916272076485]}},
{"type": "Feature", "id": "wruhYdkd5IXyUYpfhwz4bgRn_Gk=", "properties": {"ref": "1578-s-bascom-ave", "@spider": "noahsnybagels", "amenity": "fast_food", "cuisine": "bagel", "official_name": "Noah's New York Bagels", "takeaway": "yes", "addr:full": "1578 S Bascom Ave", "addr:city": "San Jose", "addr:state": "California", "addr:postcode": "95125", "addr:country": "US", "name": "Noah's NY Bagels Bascom", "phone": "(408) 371-8321", "website": "https://locations.noahs.com/us/ca/san-jose/1578-s-bascom-ave", "opening_hours": "Mo-Su 05:30-02:00", "brand": "Noah's New York Bagels", "brand:wikidata": "Q64517373", "nsi_id": "noahsbagels-4d2ff4"}, "geometry": {"type": "Point", "coordinates": [-121.93088293075562, 37.2946508531365]}},
{"type": "Feature", "id": "P7-yGNvis85HABvla_WgBRyIRvk=", "properties": {"ref": "1340-el-paseo-de-saratoga", "@spider": "noahsnybagels", "amenity": "fast_food", "cuisine": "bagel", "official_name": "Noah's New York Bagels", "takeaway": "yes", "addr:full": "1340 El Paseo De Saratoga", "addr:city": "San Jose", "addr:state": "California", "addr:postcode": "95130", "addr:country": "US", "name": "Noah's NY Bagels El Paseo", "phone": "(408) 871-0633", "website": "https://locations.noahs.com/us/ca/san-jose/1340-el-paseo-de-saratoga", "opening_hours": "Mo-Su 05:30-02:00", "brand": "Noah's New York Bagels", "brand:wikidata": "Q64517373", "nsi_id": "noahsbagels-4d2ff4"}, "geometry": {"type": "Point", "coordinates": [-121.9921731, 37.2904429]}},
{"type": "Feature", "id": "qPWzopBrQACHqZVMHbk0Y2Eox7A=", "properties": {"ref": "1140-lincoln-ave", "@spider": "noahsnybagels", "amenity": "fast_food", "cuisine": "bagel", "official_name": "Noah's New York Bagels", "takeaway": "yes", "addr:full": "1140 Lincoln Ave Ste 10", "addr:city": "San Jose", "addr:state": "California", "addr:postcode": "95125", "addr:country": "US", "name": "Noah's NY Bagels Willow Glen", "phone": "(408) 298-8953", "website": "https://locations.noahs.com/us/ca/san-jose/1140-lincoln-ave", "opening_hours": "Mo-Fr 05:30-02:00; Sa-Su 06:00-02:00", "brand": "Noah's New York Bagels", "brand:wikidata": "Q64517373", "nsi_id": "noahsbagels-4d2ff4"}, "geometry": {"type": "Point", "coordinates": [-121.90026015043259, 37.30782364416859]}},
{"type": "Feature", "id": "r0ijSHnukys8h_UOZqxQxsm31JI=", "properties": {"ref": "1095-e-brokaw-rd", "@spider": "noahsnybagels", "amenity": "fast_food", "cuisine": "bagel", "official_name": "Noah's New York Bagels", "takeaway": "yes", "addr:full": "1095 E Brokaw Rd Ste 10", "addr:city": "San Jose", "addr:state": "California", "addr:postcode": "95131", "addr:country": "US", "name": "Noah's NY Bagels Brokaw & Old Oakland", "phone": "(408) 797-2100", "website": "https://locations.noahs.com/us/ca/san-jose/1095-e-brokaw-rd", "opening_hours": "Mo-Fr 05:00-02:00; Sa-Su 06:00-02:00", "brand": "Noah's New York Bagels", "brand:wikidata": "Q64517373", "nsi_id": "noahsbagels-4d2ff4"}, "geometry": {"type": "Point", "coordinates": [-121.8973656, 37.3831105]}},
{"type": "Feature", "id": "87EzxlPm3SqQfHJnoZNWU37tGhg=", "properties": {"ref": "2300-16th-st", "@spider": "noahsnybagels", "amenity": "fast_food", "cuisine": "bagel", "official_name": "Noah's New York Bagels", "takeaway": "yes", "addr:full": "2300 16th St Suite 250", "addr:city": "San Francisco", "addr:state": "California", "addr:postcode": "94103", "addr:country": "US", "name": "Noah's NY Bagels Potrero Hill", "phone": "(415) 861-2802", "website": "https://locations.noahs.com/us/ca/san-francisco/2300-16th-st", "opening_hours": "Mo-Fr 05:00-02:00; Sa-Su 05:30-02:00", "brand": "Noah's New York Bagels", "brand:wikidata": "Q64517373", "nsi_id": "noahsbagels-4d2ff4"}, "geometry": {"type": "Point", "coordinates": [-122.40790806706721, 37.76596988162717]}},
{"type": "Feature", "id": "1471WiIugJ0HfUNVr76v_iR1bWw=", "properties": {"ref": "2075-chestnut-st", "@spider": "noahsnybagels", "amenity": "fast_food", "cuisine": "bagel", "official_name": "Noah's New York Bagels", "takeaway": "yes", "addr:full": "2075 Chestnut St Ste 102", "addr:city": "San Francisco", "addr:state": "California", "addr:postcode": "94123", "addr:country": "US", "name": "Noah's NY Bagels Chestnut", "phone": "(415) 775-2910", "website": "https://locations.noahs.com/us/ca/san-francisco/2075-chestnut-st", "opening_hours": "Mo-Fr 05:30-02:00; Sa-Su 06:00-02:00", "brand": "Noah's New York Bagels", "brand:wikidata": "Q64517373", "nsi_id": "noahsbagels-4d2ff4"}, "geometry": {"type": "Point", "coordinates": [-122.43736177682877, 37.800495440616324]}},
{"type": "Feature", "id": "3RJ_axBa-podzUUx_Bppi6HQuxI=", "properties": {"ref": "2918-fulton-ave", "@spider": "noahsnybagels", "amenity": "fast_food", "cuisine": "bagel", "official_name": "Noah's New York Bagels", "takeaway": "yes", "addr:full": "2918 Fulton Ave Ste B", "addr:city": "Sacramento", "addr:state": "California", "addr:postcode": "95821", "addr:country": "US", "name": "Noah's NY Bagels Town & Country", "phone": "(916) 973-1365", "website": "https://locations.noahs.com/us/ca/sacramento/2918-fulton-ave", "opening_hours": "Mo-Fr 06:00-02:00; Sa-Su 07:00-02:00", "brand": "Noah's New York Bagels", "brand:wikidata": "Q64517373", "nsi_id": "noahsbagels-4d2ff4"}, "geometry": {"type": "Point", "coordinates": [-121.40083685517311, 38.61893051575151]}},
{"type": "Feature", "id": "TlICYSwbUuf5CN2NbdhNPuLIUeE=", "properties": {"ref": "4201-thrive-drive", "@spider": "noahsnybagels", "amenity": "fast_food", "cuisine": "bagel", "official_name": "Noah's New York Bagels", "takeaway": "yes", "addr:full": "4201 Thrive Drive Ste 14", "addr:city": "Roseville", "addr:state": "California", "addr:postcode": "95678", "addr:country": "US", "name": "Noah's NY Bagels Freedom Pointe Plaza", "phone": "(916) 367-4349", "website": "https://locations.noahs.com/us/ca/roseville/4201-thrive-drive", "opening_hours": "Mo-Sa 06:00-02:00; Su 07:00-02:00", "brand": "Noah's New York Bagels", "brand:wikidata": "Q64517373", "nsi_id": "noahsbagels-4d2ff4"}, "geometry": {"type": "Point", "coordinates": [-121.29962785152424, 38.7935701087795]}},
{"type": "Feature", "id": "iho9jeG-n8nB2YCwe3tTtuMwEz8=", "properties": {"ref": "2030-douglas-blvd", "@spider": "noahsnybagels", "amenity": "fast_food", "cuisine": "bagel", "official_name": "Noah's New York Bagels", "takeaway": "yes", "addr:full": "2030 Douglas Blvd Ste 14", "addr:city": "Roseville", "addr:state": "California", "addr:postcode": "95661", "addr:country": "US", "name": "Noah's NY Bagels Roseville", "phone": "(916) 782-6772", "website": "https://locations.noahs.com/us/ca/roseville/2030-douglas-blvd", "opening_hours": "Mo-Su 06:00-02:00", "brand": "Noah's New York Bagels", "brand:wikidata": "Q64517373", "nsi_id": "noahsbagels-4d2ff4"}, "geometry": {"type": "Point", "coordinates": [-121.2515808, 38.7429924]}},
{"type": "Feature", "id": "f-EdEjv4JJn4IaxUyZSdX5bQtYk=", "properties": {"ref": "2559-fair-oaks-blvd", "@spider": "noahsnybagels", "amenity": "fast_food", "cuisine": "bagel", "official_name": "Noah's New York Bagels", "takeaway": "yes", "addr:full": "2559 Fair Oaks Blvd Ste B", "addr:city": "Sacramento", "addr:state": "California", "addr:postcode": "95825", "addr:country": "US", "name": "Noah's NY Bagels Loehman's", "phone": "(916) 973-8051", "website": "https://locations.noahs.com/us/ca/sacramento/2559-fair-oaks-blvd", "opening_hours": "Mo-Su 06:00-02:00", "brand": "Noah's New York Bagels", "brand:wikidata": "Q64517373", "nsi_id": "noahsbagels-4d2ff4"}, "geometry": {"type": "Point", "coordinates": [-121.4025187, 38.5749216]}},
{"type": "Feature", "id": "HCieYtB904nog-4gxx4eAW851sU=", "properties": {"ref": "1901-j-st", "@spider": "noahsnybagels", "amenity": "fast_food", "cuisine": "bagel", "official_name": "Noah's New York Bagels", "takeaway": "yes", "addr:full": "1901 J St Ste B", "addr:city": "Sacramento", "addr:state": "California", "addr:postcode": "95811", "addr:country": "US", "name": "Noah's NY Bagels Midtown", "phone": "(916) 444-5887", "website": "https://locations.noahs.com/us/ca/sacramento/1901-j-st", "opening_hours": "Mo-Su 06:00-02:00", "brand": "Noah's New York Bagels", "brand:wikidata": "Q64517373", "nsi_id": "noahsbagels-4d2ff4"}, "geometry": {"type": "Point", "coordinates": [-121.4808659, 38.5771335]}},
{"type": "Feature", "id": "ejakEE-EWlB1phq91gPaZ62Rr5A=", "properties": {"ref": "1601-broadway", "@spider": "noahsnybagels", "amenity": "fast_food", "cuisine": "bagel", "official_name": "Noah's New York Bagels", "takeaway": "yes", "addr:full": "1601 Broadway Ste B", "addr:city": "Sacramento", "addr:state": "California", "addr:postcode": "95818", "addr:country": "US", "name": "Noah's NY Bagels Sacramento - 16th & Broadway", "phone": "(916) 248-4430", "website": "https://locations.noahs.com/us/ca/sacramento/1601-broadway", "opening_hours": "Mo-Su 06:00-02:00", "brand": "Noah's New York Bagels", "brand:wikidata": "Q64517373", "nsi_id": "noahsbagels-4d2ff4"}, "geometry": {"type": "Point", "coordinates": [-121.491936, 38.5617299]}},
{"type": "Feature", "id": "dp1w75iJZoeihGKmEbKK1hD_JFA=", "properties": {"ref": "1521-sloat-blvd", "@spider": "noahsnybagels", "amenity": "fast_food", "cuisine": "bagel", "official_name": "Noah's New York Bagels", "takeaway": "yes", "addr:full": "1521 Sloat Blvd Suite 250", "addr:city": "San Francisco", "addr:state": "California", "addr:postcode": "94132", "addr:country": "US", "name": "Noah's NY Bagels Sloat", "phone": "(415) 731-1700", "website": "https://locations.noahs.com/us/ca/san-francisco/1521-sloat-blvd", "opening_hours": "Mo-Fr 05:30-02:00; Sa-Su 06:00-02:00", "brand": "Noah's New York Bagels", "brand:wikidata": "Q64517373", "nsi_id": "noahsbagels-4d2ff4"}, "geometry": {"type": "Point", "coordinates": [-122.4899402, 37.7324433]}},
{"type": "Feature", "id": "6wQTwujvqppqoNDd1UfoGjD-Noc=", "properties": {"ref": "100-bush-st", "@spider": "noahsnybagels", "amenity": "fast_food", "cuisine": "bagel", "official_name": "Noah's New York Bagels", "takeaway": "yes", "addr:full": "100 Bush St Ste 102", "addr:city": "San Francisco", "addr:state": "California", "addr:postcode": "94104", "addr:country": "US", "name": "Noah's NY Bagels Bush/Battery", "phone": "(415) 433-9682", "website": "https://locations.noahs.com/us/ca/san-francisco/100-bush-st", "opening_hours": "Mo-Fr 05:00-02:00; Sa 06:00-02:00; Su 07:00-02:00", "brand": "Noah's New York Bagels", "brand:wikidata": "Q64517373", "nsi_id": "noahsbagels-4d2ff4"}, "geometry": {"type": "Point", "coordinates": [-122.3998367, 37.7914629]}}]}