{"type":"FeatureCollection","features":[{"type": "Feature", "id": "WRaCSVhsIpBG5iq2_EfZYnqgYzM=", "properties": {"ref": "10", "type": "FullLineStore", "@spider": "nordstrom", "shop": "department_store", "addr:street_address": "3200 184th Street SW", "addr:city": "Lynnwood", "addr:state": "WA", "addr:postcode": "98037", "addr:country": "US", "name": "Nordstrom Alderwood Mall", "phone": "425.771.5755", "website": "https://www.nordstrom.com/store-details/nordstrom-alderwood-mall", "brand": "Nordstrom", "brand:wikidata": "Q174310", "nsi_id": "nordstrom-53f9e5"}, "geometry": {"type": "Point", "coordinates": [-122.2741404, 47.8306559]}},
{"type": "Feature", "id": "JUg_v07iPd8DP0287jRPLC_kwSo=", "properties": {"ref": "5", "type": "FullLineStore", "@spider": "nordstrom", "shop": "department_store", "addr:street_address": "100 Southcenter Mall", "addr:city": "Tukwila", "addr:state": "WA", "addr:postcode": "98188", "addr:country": "US", "name": "Nordstrom Southcenter", "phone": "206.246.0400", "website": "https://www.nordstrom.com/store-details/nordstrom-southcenter", "brand": "Nordstrom", "brand:wikidata": "Q174310", "nsi_id": "nordstrom-53f9e5"}, "geometry": {"type": "Point", "coordinates": [-122.271716, 47.452837]}},
{"type": "Feature", "id": "FrgT6fxyKFs9Fe1HJmqyvK6L0Fk=", "properties": {"ref": "4", "type": "FullLineStore", "@spider": "nordstrom", "shop": "department_store", "addr:street_address": "100 Bellevue Square", "addr:city": "Bellevue", "addr:state": "WA", "addr:postcode": "98004", "addr:country": "US", "name": "Nordstrom Bellevue Square", "phone": "425.455.5800", "website": "https://www.nordstrom.com/store-details/nordstrom-bellevue-square", "brand": "Nordstrom", "brand:wikidata": "Q174310", "nsi_id": "nordstrom-53f9e5"}, "geometry": {"type": "Point", "coordinates": [-122.204688, 47.614107]}},
{"type": "Feature", "id": "--LFcbQi5hyZSRKgg0hpd1p8Jus=", "properties": {"ref": "9", "type": "FullLineStore", "@spider": "nordstrom", "shop": "department_store", "addr:street_address": "828 West Main Avenue", "addr:city": "Spokane", "addr:state": "WA", "addr:postcode": "99201", "addr:country": "US", "name": "Nordstrom Spokane", "phone": "509.455.6111", "website": "https://www.nordstrom.com/store-details/nordstrom-spokane", "brand": "Nordstrom", "brand:wikidata": "Q174310", "nsi_id": "nordstrom-53f9e5"}, "geometry": {"type": "Point", "coordinates": [-117.4246376, 47.6595362]}},
{"type": "Feature", "id": "ivkmd5n4AnbyZjqYLmlX9XMLKTE=", "properties": {"ref": "1", "type": "FullLineStore", "@spider": "nordstrom", "shop": "department_store", "addr:street_address": "500 Pine Street", "addr:city": "Seattle", "addr:state": "WA", "addr:postcode": "98101", "addr:country": "US", "name": "Nordstrom Downtown Seattle", "phone": "206.628.2111", "website": "https://www.nordstrom.com/store-details/nordstrom-downtown-seattle", "brand": "Nordstrom", "brand:wikidata": "Q174310", "nsi_id": "nordstrom-53f9e5"}, "geometry": {"type": "Point", "coordinates": [-122.335961, 47.611949]}},
{"type": "Feature", "id": "qjAB1PDap63rrJT2_Jxh-oJ30YI=", "properties": {"ref": "6", "type": "FullLineStore", "@spider": "nordstrom", "shop": "department_store", "addr:street_address": "4502 South Steele Street, #800", "addr:city": "Tacoma", "addr:state": "WA", "addr:postcode": "98409", "addr:country": "US", "name": "Nordstrom Tacoma Mall", "phone": "253.475.3630", "website": "https://www.nordstrom.com/store-details/nordstrom-tacoma-mall", "brand": "Nordstrom", "brand:wikidata": "Q174310", "nsi_id": "nordstrom-53f9e5"}, "geometry": {"type": "Point", "coordinates": [-122.467628, 47.217879]}},
{"type": "Feature", "id": "TJ4imd5enduTDL_NVt-IKeoHYxo=", "properties": {"ref": "56", "type": "NordstromLocal", "@spider": "nordstrom", "shop": "department_store", "addr:street_address": "700 W 7th St Suite S200", "addr:city": "Los Angeles", "addr:state": "CA", "addr:postcode": "90017", "addr:country": "US", "name": "Nordstrom Local DTLA", "phone": "213.995.5606", "website": "https://www.nordstrom.com/store-details/nordstrom-local-dtla", "brand": "Nordstrom", "brand:wikidata": "Q174310", "nsi_id": "nordstrom-53f9e5"}, "geometry": {"type": "Point", "coordinates": [-118.2587597, 34.0483595]}},
{"type": "Feature", "id": "ZdcirLUdF00EAttnr42XYF07yDo=", "properties": {"ref": "384", "type": "FullLineStore", "@spider": "nordstrom", "shop": "department_store", "addr:street_address": "10250 Santa Monica Blvd", "addr:city": "Los Angeles", "addr:state": "CA", "addr:postcode": "90067", "addr:country": "US", "name": "Nordstrom Century City", "phone": "424.204.1177", "website": "https://www.nordstrom.com/store-details/nordstrom-century-city", "brand": "Nordstrom", "brand:wikidata": "Q174310", "nsi_id": "nordstrom-53f9e5"}, "geometry": {"type": "Point", "coordinates": [-118.4178287, 34.0581381]}},
{"type": "Feature", "id": "eLqEVxKCGRmflzac3uHcGZW2CA0=", "properties": {"ref": "45", "type": "NordstromLocal", "@spider": "nordstrom", "shop": "department_store", "addr:street_address": "8401 Melrose Place", "addr:city": "Los Angeles", "addr:state": "CA", "addr:postcode": "90069", "addr:country": "US", "name": "Nordstrom Local Melrose", "phone": "323.602.2201", "website": "https://www.nordstrom.com/store-details/nordstrom-local-melrose", "brand": "Nordstrom", "brand:wikidata": "Q174310", "nsi_id": "nordstrom-53f9e5"}, "geometry": {"type": "Point", "coordinates": [-118.3733858, 34.0838354]}},
{"type": "Feature", "id": "lFoCTM4b5OB8BFYalJEojYAjkt8=", "properties": {"ref": "57", "type": "FullLineStore", "@spider": "nordstrom", "shop": "department_store", "addr:street_address": "189 The Grove Dr Ste J10", "addr:city": "Los Angeles", "addr:state": "CA", "addr:postcode": "90036", "addr:country": "US", "name": "asos | NORDSTROM", "phone": "323.602.0558", "website": "https://www.nordstrom.com/store-details/asos-nordstrom", "brand": "Nordstrom", "brand:wikidata": "Q174310", "nsi_id": "nordstrom-53f9e5"}, "geometry": {"type": "Point", "coordinates": [-118.356329, 34.071279]}},
{"type": "Feature", "id": "0ZIUJ8rc10fQ0srGPyloydlfqWE=", "properties": {"ref": "349", "type": "FullLineStore", "@spider": "nordstrom", "shop": "department_store", "addr:street_address": "189 The Grove Drive", "addr:city": "Los Angeles", "addr:state": "CA", "addr:postcode": "90036", "addr:country": "US", "name": "Nordstrom The Grove", "phone": "323.930.2230", "website": "https://www.nordstrom.com/store-details/nordstrom-the-grove", "brand": "Nordstrom", "brand:wikidata": "Q174310", "nsi_id": "nordstrom-53f9e5"}, "geometry": {"type": "Point", "coordinates": [-118.3570079, 34.0713408]}},
{"type": "Feature", "id": "u54vhNxFVRvupZRcVnClKYORVjc=", "properties": {"ref": "360", "type": "FullLineStore", "@spider": "nordstrom", "shop": "department_store", "addr:street_address": "6997 Friars Road", "addr:city": "San Diego", "addr:state": "CA", "addr:postcode": "92108", "addr:country": "US", "name": "Nordstrom Fashion Valley", "phone": "619.295.4441", "website": "https://www.nordstrom.com/store-details/nordstrom-fashion-valley", "brand": "Nordstrom", "brand:wikidata": "Q174310", "nsi_id": "nordstrom-53f9e5"}, "geometry": {"type": "Point", "coordinates": [-117.1681829, 32.768701]}},
{"type": "Feature", "id": "qXYno5QtarnS0oJxeSzKe3IUra0=", "properties": {"ref": "361", "type": "FullLineStore", "@spider": "nordstrom", "shop": "department_store", "addr:street_address": "4401 La Jolla Village Drive", "addr:city": "San Diego", "addr:state": "CA", "addr:postcode": "92122", "addr:country": "US", "name": "Nordstrom La Jolla at UTC", "phone": "858.457.4575", "website": "https://www.nordstrom.com/store-details/nordstrom-la-jolla-at-utc", "brand": "Nordstrom", "brand:wikidata": "Q174310", "nsi_id": "nordstrom-53f9e5"}, "geometry": {"type": "Point", "coordinates": [-117.2130392, 32.870919]}},
{"type": "Feature", "id": "2az4yjTz6W_DuK-oqyDbhU42YPw=", "properties": {"ref": "421", "type": "FullLineStore", "@spider": "nordstrom", "shop": "department_store", "addr:street_address": "1200 Broadway Plaza", "addr:city": "Walnut Creek", "addr:state": "CA", "addr:postcode": "94596", "addr:country": "US", "name": "Nordstrom Broadway Plaza in Walnut Creek", "phone": "925.930.7959", "website": "https://www.nordstrom.com/store-details/nordstrom-broadway-plaza-in-walnut-creek", "brand": "Nordstrom", "brand:wikidata": "Q174310", "nsi_id": "nordstrom-53f9e5"}, "geometry": {"type": "Point", "coordinates": [-122.058284, 37.89717]}},
{"type": "Feature", "id": "FTiwsj_FZBTrvoQl6tPGMDfpfWg=", "properties": {"ref": "427", "type": "FullLineStore", "@spider": "nordstrom", "shop": "department_store", "addr:street_address": "865 Market Street", "addr:city": "San Francisco", "addr:state": "CA", "addr:postcode": "94103", "addr:country": "US", "name": "Nordstrom San Francisco Centre", "phone": "415.243.8500", "website": "https://www.nordstrom.com/store-details/nordstrom-san-francisco-centre", "brand": "Nordstrom", "brand:wikidata": "Q174310", "nsi_id": "nordstrom-53f9e5"}, "geometry": {"type": "Point", "coordinates": [-122.4061984, 37.7840569]}},
{"type": "Feature", "id": "EMYDSqfxTd3n_BamUjXgvdLnSUk=", "properties": {"ref": "422", "type": "FullLineStore", "@spider": "nordstrom", "shop": "department_store", "addr:street_address": "550 Stanford Shopping Center", "addr:city": "Palo Alto", "addr:state": "CA", "addr:postcode": "94304", "addr:country": "US", "name": "Nordstrom Stanford Shopping Center", "phone": "650.323.5111", "website": "https://www.nordstrom.com/store-details/nordstrom-stanford-shopping-center", "brand": "Nordstrom", "brand:wikidata": "Q174310", "nsi_id": "nordstrom-53f9e5"}, "geometry": {"type": "Point", "coordinates": [-122.1739601, 37.4394661]}},
{"type": "Feature", "id": "-oHd5kLj3x5DhP8EryVjs7LxKe4=", "properties": {"ref": "488", "type": "NordstromLocal", "@spider": "nordstrom", "shop": "department_store", "addr:street_address": "2043 Westcliff Dr Suite 103", "addr:city": "Newport Beach", "addr:state": "CA", "addr:postcode": "92660", "addr:country": "US", "name": "Nordstrom Local Newport Beach", "phone": "949.763.2922", "website": "https://www.nordstrom.com/store-details/nordstrom-local-newport-beach", "brand": "Nordstrom", "brand:wikidata": "Q174310", "nsi_id": "nordstrom-53f9e5"}, "geometry": {"type": "Point", "coordinates": [-117.908089, 33.627938]}},
{"type": "Feature", "id": "xuDD5v_uDWgpjjPJsdrBC2gKXsk=", "properties": {"ref": "333", "type": "FullLineStore", "@spider": "nordstrom", "shop": "department_store", "addr:street_address": "901 Newport Center Drive", "addr:city": "Newport Beach", "addr:state": "CA", "addr:postcode": "92660", "addr:country": "US", "name": "Nordstrom Fashion Island", "phone": "949.610.0700", "website": "https://www.nordstrom.com/store-details/nordstrom-fashion-island", "brand": "Nordstrom", "brand:wikidata": "Q174310", "nsi_id": "nordstrom-53f9e5"}, "geometry": {"type": "Point", "coordinates": [-117.877787, 33.6159538]}},
{"type": "Feature", "id": "7ToFFg_6mARL04QW1gB2nIoNdjY=", "properties": {"ref": "425", "type": "FullLineStore", "@spider": "nordstrom", "shop": "department_store", "addr:street_address": "2400 Forest Avenue", "addr:city": "San Jose", "addr:state": "CA", "addr:postcode": "95128", "addr:country": "US", "name": "Nordstrom Valley Fair", "phone": "408.248.2180", "website": "https://www.nordstrom.com/store-details/nordstrom-valley-fair", "brand": "Nordstrom", "brand:wikidata": "Q174310", "nsi_id": "nordstrom-53f9e5"}, "geometry": {"type": "Point", "coordinates": [-121.948603, 37.326947]}},
{"type": "Feature", "id": "TnANOe-UKlU0W9A02HrGbRnoVC0=", "properties": {"ref": "434", "type": "FullLineStore", "@spider": "nordstrom", "shop": "department_store", "addr:street_address": "1131 Galleria Boulevard", "addr:city": "Roseville", "addr:state": "CA", "addr:postcode": "95678", "addr:country": "US", "name": "Nordstrom Galleria at Roseville", "phone": "916.780.7300", "website": "https://www.nordstrom.com/store-details/nordstrom-galleria-at-roseville", "brand": "Nordstrom", "brand:wikidata": "Q174310", "nsi_id": "nordstrom-53f9e5"}, "geometry": {"type": "Point", "coordinates": [-121.2690199, 38.7722332]}},
{"type": "Feature", "id": "zhzwZdPXnv7XPK4SoDM4zWYIg4o=", "properties": {"ref": "420", "type": "FullLineStore", "@spider": "nordstrom", "shop": "department_store", "addr:street_address": "130 Hillsdale Shopping Center", "addr:city": "San Mateo", "addr:state": "CA", "addr:postcode": "94403", "addr:country": "US", "name": "Nordstrom Hillsdale Shopping Center", "phone": "650.570.5111", "website": "https://www.nordstrom.com/store-details/nordstrom-hillsdale-shopping-center", "brand": "Nordstrom", "brand:wikidata": "Q174310", "nsi_id": "nordstrom-53f9e5"}, "geometry": {"type": "Point", "coordinates": [-122.3013453, 37.5374785]}},
{"type": "Feature", "id": "g-hvd_wgRwNeDlYF40JuGQUMWco=", "properties": {"ref": "423", "type": "FullLineStore", "@spider": "nordstrom", "shop": "department_store", "addr:street_address": "1870 Redwood Highway", "addr:city": "Corte Madera", "addr:state": "CA", "addr:postcode": "94925", "addr:country": "US", "name": "Nordstrom The Village at Corte Madera", "phone": "415.927.1690", "website": "https://www.nordstrom.com/store-details/nordstrom-the-village-at-corte-madera", "brand": "Nordstrom", "brand:wikidata": "Q174310", "nsi_id": "nordstrom-53f9e5"}, "geometry": {"type": "Point", "coordinates": [-122.514836, 37.931397]}},
{"type": "Feature", "id": "x_LdkEA6ped6Jk7kisBv6CsAN6U=", "properties": {"ref": "486", "type": "NordstromLocal", "@spider": "nordstrom", "shop": "department_store", "addr:street_address": "451 Manhattan Beach Blvd Suite D116", "addr:city": "Manhattan Beach", "addr:state": "CA", "addr:postcode": "90266", "addr:country": "US", "name": "Nordstrom Local Manhattan Beach", "phone": "424.409.2000", "website": "https://www.nordstrom.com/store-details/nordstrom-local-manhattan-beach", "brand": "Nordstrom", "brand:wikidata": "Q174310", "nsi_id": "nordstrom-53f9e5"}, "geometry": {"type": "Point", "coordinates": [-118.408171, 33.885633]}},
{"type": "Feature", "id": "debwjJd1DIi7TXmDNpYH1Rzj1v8=", "properties": {"ref": "348", "type": "FullLineStore", "@spider": "nordstrom", "shop": "department_store", "addr:street_address": "346 West Hillcrest Drive", "addr:city": "Thousand Oaks", "addr:state": "CA", "addr:postcode": "91360", "addr:country": "US", "name": "Nordstrom Thousand Oaks", "phone": "805.418.4500", "website": "https://www.nordstrom.com/store-details/nordstrom-thousand-oaks", "brand": "Nordstrom", "brand:wikidata": "Q174310", "nsi_id": "nordstrom-53f9e5"}, "geometry": {"type": "Point", "coordinates": [-118.8886533, 34.1836602]}},
{"type": "Feature", "id": "AgSSmSehjcTrX2fmf1yXWdtL_QY=", "properties": {"ref": "322", "type": "FullLineStore", "@spider": "nordstrom", "shop": "department_store", "addr:street_address": "300 Los Cerritos Center", "addr:city": "Cerritos", "addr:state": "CA", "addr:postcode": "90703", "addr:country": "US", "name": "Nordstrom Los Cerritos Center", "phone": "562.924.0940", "website": "https://www.nordstrom.com/store-details/nordstrom-los-cerritos-center", "brand": "Nordstrom", "brand:wikidata": "Q174310", "nsi_id": "nordstrom-53f9e5"}, "geometry": {"type": "Point", "coordinates": [-118.0937519, 33.8634588]}},
{"type": "Feature", "id": "ulxBE1lSZtau32uiSlz_C-NQOoE=", "properties": {"ref": "54", "type": "NordstromLocal", "@spider": "nordstrom", "shop": "department_store", "addr:street_address": "214 26th Street", "addr:city": "Santa Monica", "addr:state": "CA", "addr:postcode": "90402", "addr:country": "US", "name": "Nordstrom Local Brentwood", "phone": "213.995.5601", "website": "https://www.nordstrom.com/store-details/nordstrom-local-brentwood", "brand": "Nordstrom", "brand:wikidata": "Q174310", "nsi_id": "nordstrom-53f9e5"}, "geometry": {"type": "Point", "coordinates": [-118.491614, 34.0478609]}},
{"type": "Feature", "id": "7cZUAc5VF9zli8GQ_89gYYiZ0gM=", "properties": {"ref": "353", "type": "FullLineStore", "@spider": "nordstrom", "shop": "department_store", "addr:street_address": "220 Broadway", "addr:city": "Santa Monica", "addr:state": "CA", "addr:postcode": "90401", "addr:country": "US", "name": "Nordstrom Santa Monica", "phone": "310.752.2701", "website": "https://www.nordstrom.com/store-details/nordstrom-santa-monica", "brand": "Nordstrom", "brand:wikidata": "Q174310", "nsi_id": "nordstrom-53f9e5"}, "geometry": {"type": "Point", "coordinates": [-118.4948201, 34.01355720000001]}},
{"type": "Feature", "id": "b4qKRctvoD-vIpWFOqt7SE21JkM=", "properties": {"ref": "321", "type": "FullLineStore", "@spider": "nordstrom", "shop": "department_store", "addr:street_address": "500 Brea Mall Way", "addr:city": "Brea", "addr:state": "CA", "addr:postcode": "92821", "addr:country": "US", "name": "Nordstrom Brea Mall", "phone": "714.529.0123", "website": "https://www.nordstrom.com/store-details/nordstrom-brea-mall", "brand": "Nordstrom", "brand:wikidata": "Q174310", "nsi_id": "nordstrom-53f9e5"}, "geometry": {"type": "Point", "coordinates": [-117.8881634, 33.9158345]}},
{"type": "Feature", "id": "XlJoK8g3ElAA7X-YVpXhbX93RcM=", "properties": {"ref": "326", "type": "FullLineStore", "@spider": "nordstrom", "shop": "department_store", "addr:street_address": "100 The Shops at Mission Viejo", "addr:city": "Mission Viejo", "addr:state": "CA", "addr:postcode": "92691", "addr:country": "US", "name": "Nordstrom The Shops at Mission Viejo", "phone": "949.347.2710", "website": "https://www.nordstrom.com/store-details/nordstrom-the-shops-at-mission-viejo", "brand": "Nordstrom", "brand:wikidata": "Q174310", "nsi_id": "nordstrom-53f9e5"}, "geometry": {"type": "Point", "coordinates": [-117.670678, 33.5564551]}},
{"type": "Feature", "id": "s9Ze74FiCX84aVZXm3d2EOcqI9k=", "properties": {"ref": "320", "type": "FullLineStore", "@spider": "nordstrom", "shop": "department_store", "addr:street_address": "3333 Bristol Street Suite 7000", "addr:city": "Costa Mesa", "addr:state": "CA", "addr:postcode": "92626", "addr:country": "US", "name": "Nordstrom South Coast Plaza", "phone": "714.549.8300", "website": "https://www.nordstrom.com/store-details/nordstrom-south-coast-plaza", "brand": "Nordstrom", "brand:wikidata": "Q174310", "nsi_id": "nordstrom-53f9e5"}, "geometry": {"type": "Point", "coordinates": [-117.8887855, 33.6908033]}},
{"type": "Feature", "id": "72LwCnLU7IgmH1ezlmZ6h3R7VCU=", "properties": {"ref": "330", "type": "FullLineStore", "@spider": "nordstrom", "shop": "department_store", "addr:street_address": "800 Spectrum Center Drive", "addr:city": "Irvine", "addr:state": "CA", "addr:postcode": "92618", "addr:country": "US", "name": "Nordstrom Irvine Spectrum Center", "phone": "949.255.2800", "website": "https://www.nordstrom.com/store-details/nordstrom-irvine-spectrum-center", "brand": "Nordstrom", "brand:wikidata": "Q174310", "nsi_id": "nordstrom-53f9e5"}, "geometry": {"type": "Point", "coordinates": [-117.7427411, 33.648841]}},
{"type": "Feature", "id": "K08iq62_bHwM0RoyH5xL2MiDbtw=", "properties": {"ref": "340", "type": "FullLineStore", "@spider": "nordstrom", "shop": "department_store", "addr:street_address": "102 Caruso Avenue", "addr:city": "Glendale", "addr:state": "CA", "addr:postcode": "91210", "addr:country": "US", "name": "Nordstrom at the Americana at Brand", "phone": "818.502.9922", "website": "https://www.nordstrom.com/store-details/nordstrom-at-the-americana-at-brand", "brand": "Nordstrom", "brand:wikidata": "Q174310", "nsi_id": "nordstrom-53f9e5"}, "geometry": {"type": "Point", "coordinates": [-118.2562835, 34.1434712]}},
{"type": "Feature", "id": "Xepxa9vH-kdti9gnHY6BfIerLKU=", "properties": {"ref": "341", "type": "FullLineStore", "@spider": "nordstrom", "shop": "department_store", "addr:street_address": "21725 Victory Boulevard", "addr:city": "Canoga Park", "addr:state": "CA", "addr:postcode": "91303", "addr:country": "US", "name": "Nordstrom Topanga", "phone": "818.884.7900", "website": "https://www.nordstrom.com/store-details/nordstrom-topanga", "brand": "Nordstrom", "brand:wikidata": "Q174310", "nsi_id": "nordstrom-53f9e5"}, "geometry": {"type": "Point", "coordinates": [-118.6026661, 34.1887114]}},
{"type": "Feature", "id": "LlPPLIi0jJRdsAZXU8kib9oyGM0=", "properties": {"ref": "342", "type": "FullLineStore", "@spider": "nordstrom", "shop": "department_store", "addr:street_address": "21500 Hawthorne Boulevard", "addr:city": "Torrance", "addr:state": "CA", "addr:postcode": "90503", "addr:country": "US", "name": "Nordstrom Del Amo Fashion Center", "phone": "310.542.9440", "website": "https://www.nordstrom.com/store-details/nordstrom-del-amo-fashion-center", "brand": "Nordstrom", "brand:wikidata": "Q174310", "nsi_id": "nordstrom-53f9e5"}, "geometry": {"type": "Point", "coordinates": [-118.3510822, 33.8349221]}},
{"type": "Feature", "id": "bjeexZVPMQGWfg-f-JIFkogTFC4=", "properties": {"ref": "345", "type": "FullLineStore", "@spider": "nordstrom", "shop": "department_store", "addr:street_address": "400 South Baldwin Avenue", "addr:city": "Arcadia", "addr:state": "CA", "addr:postcode": "91007", "addr:country": "US", "name": "Nordstrom Santa Anita", "phone": "626.821.6363", "website": "https://www.nordstrom.com/store-details/nordstrom-santa-anita", "brand": "Nordstrom", "brand:wikidata": "Q174310", "nsi_id": "nordstrom-53f9e5"}, "geometry": {"type": "Point", "coordinates": [-118.0524237, 34.1353439]}},
{"type": "Feature", "id": "JBfrF-zZkc_IxQAliD6UNfj_4nM=", "properties": {"ref": "386", "type": "FullLineStore", "@spider": "nordstrom", "shop": "department_store", "addr:street_address": "3200 Las Vegas Blvd South, #710", "addr:city": "Las Vegas", "addr:state": "NV", "addr:postcode": "89109", "addr:country": "US", "name": "Nordstrom Fashion Show", "phone": "702.862.2525", "website": "https://www.nordstrom.com/store-details/nordstrom-fashion-show", "brand": "Nordstrom", "brand:wikidata": "Q174310", "nsi_id": "nordstrom-53f9e5"}, "geometry": {"type": "Point", "coordinates": [-115.173048, 36.1279289]}},
{"type": "Feature", "id": "2tYNfUin-rq6I0CcM-9T9_mfu04=", "properties": {"ref": "770", "type": "LastChance", "@spider": "nordstrom", "shop": "department_store", "addr:street_address": "1919 East Camelback Road", "addr:city": "Phoenix", "addr:state": "AZ", "addr:postcode": "85016", "addr:country": "US", "name": "Last Chance Clearance Store", "phone": "602.248.2843", "website": "https://www.nordstrom.com/store-details/last-chance-clearance-store", "brand": "Nordstrom", "brand:wikidata": "Q174310", "nsi_id": "nordstrom-53f9e5"}, "geometry": {"type": "Point", "coordinates": [-112.0422343, 33.5071775]}},
{"type": "Feature", "id": "UTgKRjs_mePa01vEtN7A1wiFkjU=", "properties": {"ref": "380", "type": "FullLineStore", "@spider": "nordstrom", "shop": "department_store", "addr:street_address": "7055 East Camelback Road", "addr:city": "Scottsdale", "addr:state": "AZ", "addr:postcode": "85251", "addr:country": "US", "name": "Nordstrom Scottsdale Fashion Square", "phone": "480.946.4111", "website": "https://www.nordstrom.com/store-details/nordstrom-scottsdale-fashion-square", "brand": "Nordstrom", "brand:wikidata": "Q174310", "nsi_id": "nordstrom-53f9e5"}, "geometry": {"type": "Point", "coordinates": [-111.9290039, 33.5013274]}},
{"type": "Feature", "id": "78noAZJc8uYYL1GkGjBLKo-mP9I=", "properties": {"ref": "524", "type": "FullLineStore", "@spider": "nordstrom", "shop": "department_store", "addr:street_address": "630 Old Country Road", "addr:city": "Garden City", "addr:state": "NY", "addr:postcode": "11530", "addr:country": "US", "name": "Nordstrom Roosevelt Field", "phone": "516.746.0011", "website": "https://www.nordstrom.com/store-details/nordstrom-roosevelt-field", "brand": "Nordstrom", "brand:wikidata": "Q174310", "nsi_id": "nordstrom-53f9e5"}, "geometry": {"type": "Point", "coordinates": [-73.614303, 40.74312]}},
{"type": "Feature", "id": "HR95oA1kp2Vccb3uAUvg3Ks7Dnc=", "properties": {"ref": "523", "type": "FullLineStore", "@spider": "nordstrom", "shop": "department_store", "addr:street_address": "135 Westchester Avenue", "addr:city": "White Plains", "addr:state": "NY", "addr:postcode": "10601", "addr:country": "US", "name": "Nordstrom The Westchester", "phone": "914.946.1122", "website": "https://www.nordstrom.com/store-details/nordstrom-the-westchester", "brand": "Nordstrom", "brand:wikidata": "Q174310", "nsi_id": "nordstrom-53f9e5"}, "geometry": {"type": "Point", "coordinates": [-73.759783, 41.032405]}},
{"type": "Feature", "id": "brZgB0cThJf0bv297LIsL4TuaQw=", "properties": {"ref": "201", "type": "NordstromLocal", "@spider": "nordstrom", "shop": "department_store", "addr:street_address": "13 7th Ave", "addr:city": "New York", "addr:state": "NY", "addr:postcode": "10011", "addr:country": "US", "name": "Nordstrom Local West Village", "phone": "332.204.8965", "website": "https://www.nordstrom.com/store-details/nordstrom-local-west-village", "brand": "Nordstrom", "brand:wikidata": "Q174310", "nsi_id": "nordstrom-53f9e5"}, "geometry": {"type": "Point", "coordinates": [-74.0006617, 40.7369182]}},
{"type": "Feature", "id": "AN096ejdYckgag3dl1LWrvnBj6U=", "properties": {"ref": "202", "type": "NordstromLocal", "@spider": "nordstrom", "shop": "department_store", "addr:street_address": "1273 3rd Ave", "addr:city": "New York", "addr:state": "NY", "addr:postcode": "10021", "addr:country": "US", "name": "Nordstrom Local Upper East Side", "phone": "332.204.9050", "website": "https://www.nordstrom.com/store-details/nordstrom-local-upper-east-side", "brand": "Nordstrom", "brand:wikidata": "Q174310", "nsi_id": "nordstrom-53f9e5"}, "geometry": {"type": "Point", "coordinates": [-73.9597829, 40.7705147]}},
{"type": "Feature", "id": "DHM4J0SxRCrJqpEUFSYe4kfXyo8=", "properties": {"ref": "212", "type": "FullLineStore", "@spider": "nordstrom", "shop": "department_store", "addr:street_address": "235 West 57th Street", "addr:city": "New York", "addr:state": "NY", "addr:postcode": "10019", "addr:country": "US", "name": "Nordstrom Men's Store NYC", "phone": "212.843.5100", "website": "https://www.nordstrom.com/store-details/nordstrom-mens-store-nyc", "brand": "Nordstrom", "brand:wikidata": "Q174310", "nsi_id": "nordstrom-53f9e5"}, "geometry": {"type": "Point", "coordinates": [-73.98210259999999, 40.7666966]}},
{"type": "Feature", "id": "ldXgdThQhM_SXgatp2p9TCeuCh4=", "properties": {"ref": "210", "type": "FullLineStore", "@spider": "nordstrom", "shop": "department_store", "addr:street_address": "225 W 57TH ST", "addr:city": "New York", "addr:state": "NY", "addr:postcode": "10019", "addr:country": "US", "name": "Nordstrom NYC Flagship", "phone": "212.295.2000", "website": "https://www.nordstrom.com/store-details/nordstrom-nyc-flagship", "brand": "Nordstrom", "brand:wikidata": "Q174310", "nsi_id": "nordstrom-53f9e5"}, "geometry": {"type": "Point", "coordinates": [-73.98210259999999, 40.7666966]}},
{"type": "Feature", "id": "KOK3xgKuXx_kMwyC-06lSpOGHnU=", "properties": {"ref": "536", "type": "FullLineStore", "@spider": "nordstrom", "shop": "department_store", "addr:street_address": "210 Andover Street", "addr:city": "Peabody", "addr:state": "MA", "addr:postcode": "01960", "addr:country": "US", "name": "Nordstrom Northshore", "phone": "978.278.7400", "website": "https://www.nordstrom.com/store-details/nordstrom-northshore", "brand": "Nordstrom", "brand:wikidata": "Q174310", "nsi_id": "nordstrom-53f9e5"}, "geometry": {"type": "Point", "coordinates": [-70.944518, 42.545286]}},
{"type": "Feature", "id": "wO9tdHZsamfF4sthL258IlwBQSU=", "properties": {"ref": "535", "type": "FullLineStore", "@spider": "nordstrom", "shop": "department_store", "addr:street_address": "75 Middlesex Turnpike", "addr:city": "Burlington", "addr:state": "MA", "addr:postcode": "01803", "addr:country": "US", "name": "Nordstrom Burlington", "phone": "781.345.7800", "website": "https://www.nordstrom.com/store-details/nordstrom-burlington", "brand": "Nordstrom", "brand:wikidata": "Q174310", "nsi_id": "nordstrom-53f9e5"}, "geometry": {"type": "Point", "coordinates": [-71.216846, 42.480541]}},
{"type": "Feature", "id": "fnsiA8Sz-LwItjA7PB707bgcDMY=", "properties": {"ref": "534", "type": "FullLineStore", "@spider": "nordstrom", "shop": "department_store", "addr:street_address": "250 Granite Street", "addr:city": "Braintree", "addr:state": "MA", "addr:postcode": "02184", "addr:country": "US", "name": "Nordstrom South Shore Plaza", "phone": "781.519.7200", "website": "https://www.nordstrom.com/store-details/nordstrom-south-shore-plaza", "brand": "Nordstrom", "brand:wikidata": "Q174310", "nsi_id": "nordstrom-53f9e5"}, "geometry": {"type": "Point", "coordinates": [-71.025525, 42.218466]}},
{"type": "Feature", "id": "-WTBq0UfyIt7sMZz46u6odXJZok=", "properties": {"ref": "531", "type": "FullLineStore", "@spider": "nordstrom", "shop": "department_store", "addr:street_address": "290 Speen Street", "addr:city": "Natick", "addr:state": "MA", "addr:postcode": "01760", "addr:country": "US", "name": "Nordstrom Natick Mall", "phone": "508.318.2600", "website": "https://www.nordstrom.com/store-details/nordstrom-natick-mall", "brand": "Nordstrom", "brand:wikidata": "Q174310", "nsi_id": "nordstrom-53f9e5"}, "geometry": {"type": "Point", "coordinates": [-71.379738, 42.300485]}},
{"type": "Feature", "id": "98LMRdR4f94RcjlVX-TQPc3G7hs=", "properties": {"ref": "600", "type": "FullLineStore", "@spider": "nordstrom", "shop": "department_store", "addr:street_address": "8075 Tysons Corner Center", "addr:city": "McLean", "addr:state": "VA", "addr:postcode": "22102", "addr:country": "US", "name": "Nordstrom Tysons Corner Center", "phone": "703.761.1121", "website": "https://www.nordstrom.com/store-details/nordstrom-tysons-corner-center", "brand": "Nordstrom", "brand:wikidata": "Q174310", "nsi_id": "nordstrom-53f9e5"}, "geometry": {"type": "Point", "coordinates": [-77.22004, 38.916183]}},
{"type": "Feature", "id": "C2jjpy5VY2Y7-eavytI3XSNkunA=", "properties": {"ref": "621", "type": "FullLineStore", "@spider": "nordstrom", "shop": "department_store", "addr:street_address": "1400 South Hayes Street", "addr:city": "Arlington", "addr:state": "VA", "addr:postcode": "22202", "addr:country": "US", "name": "Nordstrom The Fashion Centre at Pentagon City", "phone": "703.415.1121", "website": "https://www.nordstrom.com/store-details/nordstrom-the-fashion-centre-at-pentagon-city", "brand": "Nordstrom", "brand:wikidata": "Q174310", "nsi_id": "nordstrom-53f9e5"}, "geometry": {"type": "Point", "coordinates": [-77.059911, 38.861305]}},
{"type": "Feature", "id": "xHY_j0q8C1MQdOSKGSVT_f8zY5I=", "properties": {"ref": "622", "type": "FullLineStore", "@spider": "nordstrom", "shop": "department_store", "addr:street_address": "700 Fairmount Avenue", "addr:city": "Towson", "addr:state": "MD", "addr:postcode": "21286", "addr:country": "US", "name": "Nordstrom Towson Town Center", "phone": "410.296.2111", "website": "https://www.nordstrom.com/store-details/nordstrom-towson-town-center", "brand": "Nordstrom", "brand:wikidata": "Q174310", "nsi_id": "nordstrom-53f9e5"}, "geometry": {"type": "Point", "coordinates": [-76.596677, 39.404083]}},
{"type": "Feature", "id": "8TMBFuQzfOMWBF7GdPlMViyBvLg=", "properties": {"ref": "631", "type": "FullLineStore", "@spider": "nordstrom", "shop": "department_store", "addr:street_address": "10300 Little Patuxent Parkway", "addr:city": "Columbia", "addr:state": "MD", "addr:postcode": "21044", "addr:country": "US", "name": "Nordstrom The Mall in Columbia", "phone": "410.715.2222", "website": "https://www.nordstrom.com/store-details/nordstrom-the-mall-in-columbia", "brand": "Nordstrom", "brand:wikidata": "Q174310", "nsi_id": "nordstrom-53f9e5"}, "geometry": {"type": "Point", "coordinates": [-76.859036, 39.219574]}},
{"type": "Feature", "id": "OO4KXSudw2YkYPh2x7ccr8amAO8=", "properties": {"ref": "623", "type": "FullLineStore", "@spider": "nordstrom", "shop": "department_store", "addr:street_address": "7111 Democracy Boulevard", "addr:city": "Bethesda", "addr:state": "MD", "addr:postcode": "20817", "addr:country": "US", "name": "Nordstrom Montgomery Mall", "phone": "301.365.4111", "website": "https://www.nordstrom.com/store-details/nordstrom-montgomery-mall", "brand": "Nordstrom", "brand:wikidata": "Q174310", "nsi_id": "nordstrom-53f9e5"}, "geometry": {"type": "Point", "coordinates": [-77.148722, 39.022415]}},
{"type": "Feature", "id": "wJKS0mlCO5vVPed_fuqiapMzcxY=", "properties": {"ref": "526", "type": "FullLineStore", "@spider": "nordstrom", "shop": "department_store", "addr:street_address": "600 Westfarms Mall", "addr:city": "Farmington", "addr:state": "CT", "addr:postcode": "06032", "addr:country": "US", "name": "Nordstrom Westfarms", "phone": "860.521.9090", "website": "https://www.nordstrom.com/store-details/nordstrom-westfarms", "brand": "Nordstrom", "brand:wikidata": "Q174310", "nsi_id": "nordstrom-53f9e5"}, "geometry": {"type": "Point", "coordinates": [-72.765831, 41.722043]}},
{"type": "Feature", "id": "8wEzNG25DxM0g46OFsgXajbhG9o=", "properties": {"ref": "538", "type": "FullLineStore", "@spider": "nordstrom", "shop": "department_store", "addr:street_address": "100 North Water Street, Suite A", "addr:city": "Norwalk", "addr:state": "CT", "addr:postcode": "06854", "addr:country": "US", "name": "Nordstrom at The SoNo Collection", "phone": "203.642.2634", "website": "https://www.nordstrom.com/store-details/nordstrom-at-the-sono-collection", "brand": "Nordstrom", "brand:wikidata": "Q174310", "nsi_id": "nordstrom-53f9e5"}, "geometry": {"type": "Point", "coordinates": [-73.415761, 41.096559]}},
{"type": "Feature", "id": "xHnS4g3StZg7Vkpfdk2YMK8_rsQ=", "properties": {"ref": "520", "type": "FullLineStore", "@spider": "nordstrom", "shop": "department_store", "addr:street_address": "501 Garden State Plaza", "addr:city": "Paramus", "addr:state": "NJ", "addr:postcode": "07652", "addr:country": "US", "name": "Nordstrom Garden State Plaza", "phone": "201.843.1122", "website": "https://www.nordstrom.com/store-details/nordstrom-garden-state-plaza", "brand": "Nordstrom", "brand:wikidata": "Q174310", "nsi_id": "nordstrom-53f9e5"}, "geometry": {"type": "Point", "coordinates": [-74.074472, 40.920968]}},
{"type": "Feature", "id": "7VdppZvsHv4h1VC3wRFsVmA7qgw=", "properties": {"ref": "637", "type": "FullLineStore", "@spider": "nordstrom", "shop": "department_store", "addr:street_address": "2000 Route 38", "addr:city": "Cherry Hill", "addr:state": "NJ", "addr:postcode": "08002", "addr:country": "US", "name": "Nordstrom Cherry Hill", "phone": "856.773.5600", "website": "https://www.nordstrom.com/store-details/nordstrom-cherry-hill", "brand": "Nordstrom", "brand:wikidata": "Q174310", "nsi_id": "nordstrom-53f9e5"}, "geometry": {"type": "Point", "coordinates": [-75.025279, 39.938872]}},
{"type": "Feature", "id": "iIEy3Sf06hl1jN-PmaQ4kkzS-Ao=", "properties": {"ref": "527", "type": "FullLineStore", "@spider": "nordstrom", "shop": "department_store", "addr:street_address": "1200 Morris Turnpike", "addr:city": "Short Hills", "addr:state": "NJ", "addr:postcode": "07078", "addr:country": "US", "name": "Nordstrom The Mall at Short Hills", "phone": "973.467.1500", "website": "https://www.nordstrom.com/store-details/nordstrom-the-mall-at-short-hills", "brand": "Nordstrom", "brand:wikidata": "Q174310", "nsi_id": "nordstrom-53f9e5"}, "geometry": {"type": "Point", "coordinates": [-74.364243, 40.737785]}},
{"type": "Feature", "id": "op4FAHRodOZrfJrbhB6leBnKHLw=", "properties": {"ref": "521", "type": "FullLineStore", "@spider": "nordstrom", "shop": "department_store", "addr:street_address": "449 Menlo Park Drive", "addr:city": "Edison", "addr:state": "NJ", "addr:postcode": "08837", "addr:country": "US", "name": "Nordstrom Menlo Park", "phone": "732.603.5000", "website": "https://www.nordstrom.com/store-details/nordstrom-menlo-park", "brand": "Nordstrom", "brand:wikidata": "Q174310", "nsi_id": "nordstrom-53f9e5"}, "geometry": {"type": "Point", "coordinates": [-74.334837, 40.549965]}},
{"type": "Feature", "id": "f0sGRDOc1rfaasMjP3Sw9wYm_xU=", "properties": {"ref": "724", "type": "FullLineStore", "@spider": "nordstrom", "shop": "department_store", "addr:street_address": "2613 Preston Road", "addr:city": "Frisco", "addr:state": "TX", "addr:postcode": "75034", "addr:country": "US", "name": "Nordstrom Stonebriar Centre", "phone": "972.712.3794", "website": "https://www.nordstrom.com/store-details/nordstrom-stonebriar-centre", "brand": "Nordstrom", "brand:wikidata": "Q174310", "nsi_id": "nordstrom-53f9e5"}, "geometry": {"type": "Point", "coordinates": [-96.81224209999999, 33.0999953]}},
{"type": "Feature", "id": "wkTefWvBfS_Sq_KIiAWyC544w7Y=", "properties": {"ref": "731", "type": "FullLineStore", "@spider": "nordstrom", "shop": "department_store", "addr:street_address": "2901 S Capital of Texas Hwy", "addr:city": "Austin", "addr:state": "TX", "addr:postcode": "78746", "addr:country": "US", "name": "Nordstrom Barton Creek Square", "phone": "512.691.3500", "website": "https://www.nordstrom.com/store-details/nordstrom-barton-creek-square", "brand": "Nordstrom", "brand:wikidata": "Q174310", "nsi_id": "nordstrom-53f9e5"}, "geometry": {"type": "Point", "coordinates": [-97.808566, 30.2590192]}},
{"type": "Feature", "id": "fc9GF58gF0Bo9m3idO-_g5TgDQQ=", "properties": {"ref": "733", "type": "FullLineStore", "@spider": "nordstrom", "shop": "department_store", "addr:street_address": "3111 Palm Way", "addr:city": "Austin", "addr:state": "TX", "addr:postcode": "78758", "addr:country": "US", "name": "Nordstrom Domain Northside", "phone": "512.605.4900", "website": "https://www.nordstrom.com/store-details/nordstrom-domain-northside", "brand": "Nordstrom", "brand:wikidata": "Q174310", "nsi_id": "nordstrom-53f9e5"}, "geometry": {"type": "Point", "coordinates": [-97.72039529999999, 30.4023499]}},
{"type": "Feature", "id": "XfSaOYgvsGGDwNyts7NcDDqoeow=", "properties": {"ref": "732", "type": "FullLineStore", "@spider": "nordstrom", "shop": "department_store", "addr:street_address": "15900 La Cantera Parkway", "addr:city": "San Antonio", "addr:state": "TX", "addr:postcode": "78256", "addr:country": "US", "name": "Nordstrom The Shops at La Cantera", "phone": "210.332.1900", "website": "https://www.nordstrom.com/store-details/nordstrom-the-shops-at-la-cantera", "brand": "Nordstrom", "brand:wikidata": "Q174310", "nsi_id": "nordstrom-53f9e5"}, "geometry": {"type": "Point", "coordinates": [-98.6169108, 29.594534]}},
{"type": "Feature", "id": "MPe_sKwEub6JZTJN2EvWKD5_CFE=", "properties": {"ref": "730", "type": "FullLineStore", "@spider": "nordstrom", "shop": "department_store", "addr:street_address": "5192 Hidalgo Street", "addr:city": "Houston", "addr:state": "TX", "addr:postcode": "77056", "addr:country": "US", "name": "Nordstrom Houston Galleria", "phone": "832.201.2700", "website": "https://www.nordstrom.com/store-details/nordstrom-houston-galleria", "brand": "Nordstrom", "brand:wikidata": "Q174310", "nsi_id": "nordstrom-53f9e5"}, "geometry": {"type": "Point", "coordinates": [-95.4642148, 29.7358538]}},
{"type": "Feature", "id": "8Ss0Hqzk1PL__blIXaKF1PxV_xU=", "properties": {"ref": "720", "type": "FullLineStore", "@spider": "nordstrom", "shop": "department_store", "addr:street_address": "5220 Alpha Road", "addr:city": "Dallas", "addr:state": "TX", "addr:postcode": "75240", "addr:country": "US", "name": "Nordstrom Galleria Dallas", "phone": "972.702.0055", "website": "https://www.nordstrom.com/store-details/nordstrom-galleria-dallas", "brand": "Nordstrom", "brand:wikidata": "Q174310", "nsi_id": "nordstrom-53f9e5"}, "geometry": {"type": "Point", "coordinates": [-96.8194, 32.9325465]}},
{"type": "Feature", "id": "RBM5gdeSgaAmIpoVe6TFhiuf-DA=", "properties": {"ref": "723", "type": "FullLineStore", "@spider": "nordstrom", "shop": "department_store", "addr:street_address": "8687 N Central Expy Ste 2000", "addr:city": "Dallas", "addr:state": "TX", "addr:postcode": "75225", "addr:country": "US", "name": "Nordstrom NorthPark Center", "phone": "214.231.3900", "website": "https://www.nordstrom.com/store-details/nordstrom-northpark-center", "brand": "Nordstrom", "brand:wikidata": "Q174310", "nsi_id": "nordstrom-53f9e5"}, "geometry": {"type": "Point", "coordinates": [-96.77468540000001, 32.8697969]}},
{"type": "Feature", "id": "YbBl5Ww0Lf4qgpWMZ2LCoXXJtAU=", "properties": {"ref": "746", "type": "FullLineStore", "@spider": "nordstrom", "shop": "department_store", "addr:street_address": "1201 Lake Woodlands Drive Ste 300", "addr:city": "The Woodlands", "addr:state": "TX", "addr:postcode": "77380", "addr:country": "US", "name": "Nordstrom The Woodlands", "phone": "832.562.4880", "website": "https://www.nordstrom.com/store-details/nordstrom-the-woodlands", "brand": "Nordstrom", "brand:wikidata": "Q174310", "nsi_id": "nordstrom-53f9e5"}, "geometry": {"type": "Point", "coordinates": [-95.45624389999999, 30.1653706]}},
{"type": "Feature", "id": "Uq7FYWMzj-l0QsTZ5bMqDrfj6mk=", "properties": {"ref": "629", "type": "FullLineStore", "@spider": "nordstrom", "shop": "department_store", "addr:street_address": "190 North Gulph Road", "addr:city": "King of Prussia", "addr:state": "PA", "addr:postcode": "19406", "addr:country": "US", "name": "Nordstrom The Plaza at King of Prussia", "phone": "610.265.6111", "website": "https://www.nordstrom.com/store-details/nordstrom-the-plaza-at-king-of-prussia", "brand": "Nordstrom", "brand:wikidata": "Q174310", "nsi_id": "nordstrom-53f9e5"}, "geometry": {"type": "Point", "coordinates": [-75.394692, 40.085397]}},
{"type": "Feature", "id": "3djRswt9b3C3Jo-an5hoWWY0_5Q=", "properties": {"ref": "237", "type": "FullLineStore", "@spider": "nordstrom", "shop": "department_store", "addr:street_address": "1000 Ross Park Mall Drive", "addr:city": "Pittsburgh", "addr:state": "PA", "addr:postcode": "15237", "addr:country": "US", "name": "Nordstrom Ross Park", "phone": "412.548.4300", "website": "https://www.nordstrom.com/store-details/nordstrom-ross-park", "brand": "Nordstrom", "brand:wikidata": "Q174310", "nsi_id": "nordstrom-53f9e5"}, "geometry": {"type": "Point", "coordinates": [-80.0083315, 40.5444283]}},
{"type": "Feature", "id": "0t56z6vzjez_Np_qfK-CFGC-JUU=", "properties": {"ref": "773", "type": "FullLineStore", "@spider": "nordstrom", "shop": "department_store", "addr:street_address": "3111 PGA Boulevard", "addr:city": "Palm Beach Gardens", "addr:state": "FL", "addr:postcode": "33410", "addr:country": "US", "name": "Nordstrom The Gardens", "phone": "561.340.2100", "website": "https://www.nordstrom.com/store-details/nordstrom-the-gardens", "brand": "Nordstrom", "brand:wikidata": "Q174310", "nsi_id": "nordstrom-53f9e5"}, "geometry": {"type": "Point", "coordinates": [-80.08758189999999, 26.8481472]}},
{"type": "Feature", "id": "m9ME3mvNeT3oFoLns9g3E4DZ2tE=", "properties": {"ref": "765", "type": "FullLineStore", "@spider": "nordstrom", "shop": "department_store", "addr:street_address": "2223 N Westshore Blvd Ste 300", "addr:city": "Tampa", "addr:state": "FL", "addr:postcode": "33607", "addr:country": "US", "name": "Nordstrom International Plaza", "phone": "813.875.4400", "website": "https://www.nordstrom.com/store-details/nordstrom-international-plaza", "brand": "Nordstrom", "brand:wikidata": "Q174310", "nsi_id": "nordstrom-53f9e5"}, "geometry": {"type": "Point", "coordinates": [-82.524039, 27.961608]}},
{"type": "Feature", "id": "liOPJpwMKO9KloFFOvINRAafYz4=", "properties": {"ref": "789", "type": "FullLineStore", "@spider": "nordstrom", "shop": "department_store", "addr:street_address": "4835 Town Crossing Drive", "addr:city": "Jacksonville", "addr:state": "FL", "addr:postcode": "32246", "addr:country": "US", "name": "Nordstrom St. Johns Town Center", "phone": "904.672.2200", "website": "https://www.nordstrom.com/store-details/nordstrom-st-johns-town-center", "brand": "Nordstrom", "brand:wikidata": "Q174310", "nsi_id": "nordstrom-53f9e5"}, "geometry": {"type": "Point", "coordinates": [-81.527181, 30.253385]}},
{"type": "Feature", "id": "roYaEP5Ej5jg9M_ZFoxyqDyp6O8=", "properties": {"ref": "762", "type": "FullLineStore", "@spider": "nordstrom", "shop": "department_store", "addr:street_address": "5820 Glades Road", "addr:city": "Boca Raton", "addr:state": "FL", "addr:postcode": "33431", "addr:country": "US", "name": "Nordstrom Town Center at Boca Raton", "phone": "561.620.5555", "website": "https://www.nordstrom.com/store-details/nordstrom-town-center-at-boca-raton", "brand": "Nordstrom", "brand:wikidata": "Q174310", "nsi_id": "nordstrom-53f9e5"}, "geometry": {"type": "Point", "coordinates": [-80.1308142, 26.3628304]}},
{"type": "Feature", "id": "5i-fh5zeMeNV4Bl1uqGWLHnXBAg=", "properties": {"ref": "763", "type": "FullLineStore", "@spider": "nordstrom", "shop": "department_store", "addr:street_address": "4310 Ponce de Leon Boulevard", "addr:city": "Coral Gables", "addr:state": "FL", "addr:postcode": "33146", "addr:country": "US", "name": "Nordstrom Shops at Merrick Park", "phone": "786.999.1313", "website": "https://www.nordstrom.com/store-details/nordstrom-shops-at-merrick-park", "brand": "Nordstrom", "brand:wikidata": "Q174310", "nsi_id": "nordstrom-53f9e5"}, "geometry": {"type": "Point", "coordinates": [-80.258474, 25.732069]}},
{"type": "Feature", "id": "b3hO7BJPcdBAV8vN4QBTYbLoA_Y=", "properties": {"ref": "774", "type": "FullLineStore", "@spider": "nordstrom", "shop": "department_store", "addr:street_address": "19507 Biscayne Boulevard", "addr:city": "Aventura", "addr:state": "FL", "addr:postcode": "33180", "addr:country": "US", "name": "Nordstrom Aventura", "phone": "305.356.6900", "website": "https://www.nordstrom.com/store-details/nordstrom-aventura", "brand": "Nordstrom", "brand:wikidata": "Q174310", "nsi_id": "nordstrom-53f9e5"}, "geometry": {"type": "Point", "coordinates": [-80.14524, 25.957253]}},
{"type": "Feature", "id": "pn27GOxUoJCPITQNOD9P1tlbqps=", "properties": {"ref": "750", "type": "FullLineStore", "@spider": "nordstrom", "shop": "department_store", "addr:street_address": "4400 Sharon Road", "addr:city": "Charlotte", "addr:state": "NC", "addr:postcode": "28211", "addr:country": "US", "name": "Nordstrom SouthPark", "phone": "704.442.6000", "website": "https://www.nordstrom.com/store-details/nordstrom-southpark", "brand": "Nordstrom", "brand:wikidata": "Q174310", "nsi_id": "nordstrom-53f9e5"}, "geometry": {"type": "Point", "coordinates": [-80.83334959999999, 35.1504864]}},
{"type": "Feature", "id": "G-wwhsW934ff7VgqIXM1wuB45j4=", "properties": {"ref": "751", "type": "FullLineStore", "@spider": "nordstrom", "shop": "department_store", "addr:street_address": "6910 Fayetteville Road #500", "addr:city": "Durham", "addr:state": "NC", "addr:postcode": "27713", "addr:country": "US", "name": "Nordstrom The Streets at Southpoint", "phone": "919.806.3700", "website": "https://www.nordstrom.com/store-details/nordstrom-the-streets-at-southpoint", "brand": "Nordstrom", "brand:wikidata": "Q174310", "nsi_id": "nordstrom-53f9e5"}, "geometry": {"type": "Point", "coordinates": [-78.9410777, 35.9042348]}},
{"type": "Feature", "id": "8Olc2YmeBXlCvdD9gyUqFwYSum4=", "properties": {"ref": "639", "type": "FullLineStore", "@spider": "nordstrom", "shop": "department_store", "addr:street_address": "100 Christiana Mall", "addr:city": "Newark", "addr:state": "DE", "addr:postcode": "19702", "addr:country": "US", "name": "Nordstrom Christiana Mall", "phone": "302.613.6000", "website": "https://www.nordstrom.com/store-details/nordstrom-christiana-mall", "brand": "Nordstrom", "brand:wikidata": "Q174310", "nsi_id": "nordstrom-53f9e5"}, "geometry": {"type": "Point", "coordinates": [-75.654339, 39.676473]}},
{"type": "Feature", "id": "wERzBt-BFNg5F1yzw9xL9-M0IVE=", "properties": {"ref": "706", "type": "FullLineStore", "@spider": "nordstrom", "shop": "department_store", "addr:street_address": "1450 Ala Moana Blvd, Ste 2950", "addr:city": "Honolulu", "addr:state": "HI", "addr:postcode": "96814", "addr:country": "US", "name": "Nordstrom Ala Moana", "phone": "808.953.6100", "website": "https://www.nordstrom.com/store-details/nordstrom-ala-moana", "brand": "Nordstrom", "brand:wikidata": "Q174310", "nsi_id": "nordstrom-53f9e5"}, "geometry": {"type": "Point", "coordinates": [-157.846596, 21.292169]}},
{"type": "Feature", "id": "Rp4O06dUef3Xw7A3fw7tC0tZvqE=", "properties": {"ref": "760", "type": "FullLineStore", "@spider": "nordstrom", "shop": "department_store", "addr:street_address": "4390 Ashford Dunwoody Road NE", "addr:city": "Atlanta", "addr:state": "GA", "addr:postcode": "30346", "addr:country": "US", "name": "Nordstrom Perimeter Mall", "phone": "770.394.1141", "website": "https://www.nordstrom.com/store-details/nordstrom-perimeter-mall", "brand": "Nordstrom", "brand:wikidata": "Q174310", "nsi_id": "nordstrom-53f9e5"}, "geometry": {"type": "Point", "coordinates": [-84.34241279999999, 33.9236807]}},
{"type": "Feature", "id": "vx8HVLrpes6dBvuyfhyiB8c4VOM=", "properties": {"ref": "772", "type": "FullLineStore", "@spider": "nordstrom", "shop": "department_store", "addr:street_address": "3500 Peachtree Road NE", "addr:city": "Atlanta", "addr:state": "GA", "addr:postcode": "30326", "addr:country": "US", "name": "Nordstrom Phipps Plaza", "phone": "404.442.3000", "website": "https://www.nordstrom.com/store-details/nordstrom-phipps-plaza", "brand": "Nordstrom", "brand:wikidata": "Q174310", "nsi_id": "nordstrom-53f9e5"}, "geometry": {"type": "Point", "coordinates": [-84.3613433, 33.8531338]}},
{"type": "Feature", "id": "7sHEmH2HJc9AUZe1hyLgbUwTwMg=", "properties": {"ref": "830", "type": "FullLineStore", "@spider": "nordstrom", "shop": "department_store", "addr:street_address": "6455 Macleod Trail SW", "addr:city": "Calgary", "addr:state": "AB", "addr:postcode": "T2H 0K8", "addr:country": "CA", "name": "Nordstrom Chinook Centre", "phone": "587.291.2000", "website": "https://www.nordstrom.com/store-details/nordstrom-chinook-centre", "brand": "Nordstrom", "brand:wikidata": "Q174310", "nsi_id": "nordstrom-53f9e5"}, "geometry": {"type": "Point", "coordinates": [-114.0742666, 51.00084349999999]}},
{"type": "Feature", "id": "p-0Zi7FmNb17Jgblx5ovBowgiXk=", "properties": {"ref": "831", "type": "FullLineStore", "@spider": "nordstrom", "shop": "department_store", "addr:street_address": "500-50 Rideau Street", "addr:city": "Ottawa", "addr:state": "ON", "addr:postcode": "K1N 9J7", "addr:country": "CA", "name": "Nordstrom Rideau Centre", "phone": "613.567.7005", "website": "https://www.nordstrom.com/store-details/nordstrom-rideau-centre", "brand": "Nordstrom", "brand:wikidata": "Q174310", "nsi_id": "nordstrom-53f9e5"}, "geometry": {"type": "Point", "coordinates": [-75.6900206, 45.4245841]}},
{"type": "Feature", "id": "8OkGNAWKymfnl2-IyECbjg_3qrA=", "properties": {"ref": "835", "type": "FullLineStore", "@spider": "nordstrom", "shop": "department_store", "addr:street_address": "260 Yonge Street", "addr:city": "Toronto", "addr:state": "ON", "addr:postcode": "M5B 2L9", "addr:country": "CA", "name": "Nordstrom Toronto Eaton Centre", "phone": "416.552.2900", "website": "https://www.nordstrom.com/store-details/nordstrom-toronto-eaton-centre", "brand": "Nordstrom", "brand:wikidata": "Q174310", "nsi_id": "nordstrom-53f9e5"}, "geometry": {"type": "Point", "coordinates": [-79.3809665, 43.655041]}},
{"type": "Feature", "id": "HVkPRTfaYFyZMG5Q05Sa9LfFq5A=", "properties": {"ref": "834", "type": "FullLineStore", "@spider": "nordstrom", "shop": "department_store", "addr:street_address": "3401 Dufferin Street, Unit 500", "addr:city": "Toronto", "addr:state": "ON", "addr:postcode": "M6A 2T9", "addr:country": "CA", "name": "Nordstrom Yorkdale Shopping Centre", "phone": "416.780.6630", "website": "https://www.nordstrom.com/store-details/nordstrom-yorkdale-shopping-centre", "brand": "Nordstrom", "brand:wikidata": "Q174310", "nsi_id": "nordstrom-53f9e5"}, "geometry": {"type": "Point", "coordinates": [-79.4494534, 43.7260812]}},
{"type": "Feature", "id": "Q-vCmYUK4HEXOZjJvHLnWtyWUrw=", "properties": {"ref": "833", "type": "FullLineStore", "@spider": "nordstrom", "shop": "department_store", "addr:street_address": "25 The West Mall, Unit #1150A", "addr:city": "Toronto", "addr:state": "ON", "addr:postcode": "M9C 1B8", "addr:country": "CA", "name": "Nordstrom Sherway Gardens", "phone": "647.798.4200", "website": "https://www.nordstrom.com/store-details/nordstrom-sherway-gardens", "brand": "Nordstrom", "brand:wikidata": "Q174310", "nsi_id": "nordstrom-53f9e5"}, "geometry": {"type": "Point", "coordinates": [-79.557183, 43.6116933]}},
{"type": "Feature", "id": "XlnIwBS6mySxSTfEsqXZSu0imtg=", "properties": {"ref": "832", "type": "FullLineStore", "@spider": "nordstrom", "shop": "department_store", "addr:street_address": "799 Robson Street", "addr:city": "Vancouver", "addr:state": "BC", "addr:postcode": "V7Y 0A2", "addr:country": "CA", "name": "Nordstrom Pacific Centre", "phone": "604.699.2100", "website": "https://www.nordstrom.com/store-details/nordstrom-pacific-centre", "brand": "Nordstrom", "brand:wikidata": "Q174310", "nsi_id": "nordstrom-53f9e5"}, "geometry": {"type": "Point", "coordinates": [-123.120054, 49.2819563]}},
{"type": "Feature", "id": "1mK4Tksq_MkPxGA3tfTLznpsfi8=", "properties": {"ref": "34", "type": "FullLineStore", "@spider": "nordstrom", "shop": "department_store", "addr:street_address": "8465 Park Meadows Center Drive", "addr:city": "Lone Tree", "addr:state": "CO", "addr:postcode": "80124", "addr:country": "US", "name": "Nordstrom Park Meadows", "phone": "303.799.3400", "website": "https://www.nordstrom.com/store-details/nordstrom-park-meadows", "brand": "Nordstrom", "brand:wikidata": "Q174310", "nsi_id": "nordstrom-53f9e5"}, "geometry": {"type": "Point", "coordinates": [-104.8749196, 39.5613293]}},
{"type": "Feature", "id": "YNoj5UfJR68jYTphamW9u6Jd0t0=", "properties": {"ref": "37", "type": "FullLineStore", "@spider": "nordstrom", "shop": "department_store", "addr:street_address": "2810 East First Avenue", "addr:city": "Denver", "addr:state": "CO", "addr:postcode": "80206", "addr:country": "US", "name": "Nordstrom Cherry Creek Shopping Center", "phone": "720.746.2424", "website": "https://www.nordstrom.com/store-details/nordstrom-cherry-creek-shopping-center", "brand": "Nordstrom", "brand:wikidata": "Q174310", "nsi_id": "nordstrom-53f9e5"}, "geometry": {"type": "Point", "coordinates": [-104.9550336, 39.7172026]}},
{"type": "Feature", "id": "aPLaMhKPMQFBLfBWzsp4Tpgtd34=", "properties": {"ref": "225", "type": "FullLineStore", "@spider": "nordstrom", "shop": "department_store", "addr:street_address": "6 Woodfield Shopping Center", "addr:city": "Schaumburg", "addr:state": "IL", "addr:postcode": "60173", "addr:country": "US", "name": "Nordstrom Woodfield Shopping Center", "phone": "847.605.2121", "website": "https://www.nordstrom.com/store-details/nordstrom-woodfield-shopping-center", "brand": "Nordstrom", "brand:wikidata": "Q174310", "nsi_id": "nordstrom-53f9e5"}, "geometry": {"type": "Point", "coordinates": [-88.04012960000001, 42.0454143]}},
{"type": "Feature", "id": "K_J3kjhTGW2ARrWDafqLkj1mTbI=", "properties": {"ref": "223", "type": "FullLineStore", "@spider": "nordstrom", "shop": "department_store", "addr:street_address": "4937 Old Orchard Center", "addr:city": "Skokie", "addr:state": "IL", "addr:postcode": "60077", "addr:country": "US", "name": "Nordstrom Old Orchard Center", "phone": "847.677.2121", "website": "https://www.nordstrom.com/store-details/nordstrom-old-orchard-center", "brand": "Nordstrom", "brand:wikidata": "Q174310", "nsi_id": "nordstrom-53f9e5"}, "geometry": {"type": "Point", "coordinates": [-87.7498573, 42.0562274]}},
{"type": "Feature", "id": "WJxuEdaQ72E7d8xrtZw5MNyxk1Q=", "properties": {"ref": "260", "type": "LastChance", "@spider": "nordstrom", "shop": "department_store", "addr:street_address": "100 Yorktown Shopping Center", "addr:city": "Lombard", "addr:state": "IL", "addr:postcode": "60148", "addr:country": "US", "name": "Last Chance Yorktown Center", "phone": "630.599.2011", "website": "https://www.nordstrom.com/store-details/last-chance-yorktown-center", "brand": "Nordstrom", "brand:wikidata": "Q174310", "nsi_id": "nordstrom-53f9e5"}, "geometry": {"type": "Point", "coordinates": [-88.0074695, 41.8394982]}},
{"type": "Feature", "id": "8RCM8K1eibdmxsDn2vc-cEynTlY=", "properties": {"ref": "220", "type": "FullLineStore", "@spider": "nordstrom", "shop": "department_store", "addr:street_address": "55 East Grand Avenue", "addr:city": "Chicago", "addr:state": "IL", "addr:postcode": "60611", "addr:country": "US", "name": "Nordstrom Michigan Avenue", "phone": "312.464.1515", "website": "https://www.nordstrom.com/store-details/nordstrom-michigan-avenue", "brand": "Nordstrom", "brand:wikidata": "Q174310", "nsi_id": "nordstrom-53f9e5"}, "geometry": {"type": "Point", "coordinates": [-87.62628, 41.891698]}},
{"type": "Feature", "id": "AcWGeByyUgp7enS9VjFRMwRq0UY=", "properties": {"ref": "221", "type": "FullLineStore", "@spider": "nordstrom", "shop": "department_store", "addr:street_address": "10 Oakbrook Center", "addr:city": "Oak Brook", "addr:state": "IL", "addr:postcode": "60523", "addr:country": "US", "name": "Nordstrom Oakbrook Center", "phone": "630.571.2121", "website": "https://www.nordstrom.com/store-details/nordstrom-oakbrook-center", "brand": "Nordstrom", "brand:wikidata": "Q174310", "nsi_id": "nordstrom-53f9e5"}, "geometry": {"type": "Point", "coordinates": [-87.95114840000001, 41.8524435]}},
{"type": "Feature", "id": "MQGrWqL_PlFZkJwgUnDNrtmhjmU=", "properties": {"ref": "20", "type": "FullLineStore", "@spider": "nordstrom", "shop": "department_store", "addr:street_address": "701 SW Broadway", "addr:city": "Portland", "addr:state": "OR", "addr:postcode": "97205", "addr:country": "US", "name": "Nordstrom Downtown Portland", "phone": "503.224.6666", "website": "https://www.nordstrom.com/store-details/nordstrom-downtown-portland", "brand": "Nordstrom", "brand:wikidata": "Q174310", "nsi_id": "nordstrom-53f9e5"}, "geometry": {"type": "Point", "coordinates": [-122.6803729, 45.5191726]}},
{"type": "Feature", "id": "QjOGl5enzO4RMEZPZ63saNRzcVI=", "properties": {"ref": "25", "type": "FullLineStore", "@spider": "nordstrom", "shop": "department_store", "addr:street_address": "9700 SW Washington Square Road", "addr:city": "Tigard", "addr:state": "OR", "addr:postcode": "97223", "addr:country": "US", "name": "Nordstrom Washington Square", "phone": "503.620.0555", "website": "https://www.nordstrom.com/store-details/nordstrom-washington-square", "brand": "Nordstrom", "brand:wikidata": "Q174310", "nsi_id": "nordstrom-53f9e5"}, "geometry": {"type": "Point", "coordinates": [-122.7820142, 45.4491225]}},
{"type": "Feature", "id": "LjU3i8kjsbBhHITnbxilMkpjEF4=", "properties": {"ref": "73", "type": "FullLineStore", "@spider": "nordstrom", "shop": "department_store", "addr:street_address": "55 South West Temple", "addr:city": "Salt Lake City", "addr:state": "UT", "addr:postcode": "84101", "addr:country": "US", "name": "Nordstrom City Creek Center", "phone": "801.322.4200", "website": "https://www.nordstrom.com/store-details/nordstrom-city-creek-center", "brand": "Nordstrom", "brand:wikidata": "Q174310", "nsi_id": "nordstrom-53f9e5"}, "geometry": {"type": "Point", "coordinates": [-111.893822, 40.76811]}},
{"type": "Feature", "id": "wMru6-W1wXif2w2pOkfhCe4L3kQ=", "properties": {"ref": "32", "type": "FullLineStore", "@spider": "nordstrom", "shop": "department_store", "addr:street_address": "6191 South State Street, Suite 200", "addr:city": "Murray", "addr:state": "UT", "addr:postcode": "84107", "addr:country": "US", "name": "Nordstrom Fashion Place", "phone": "801.261.4402", "website": "https://www.nordstrom.com/store-details/nordstrom-fashion-place", "brand": "Nordstrom", "brand:wikidata": "Q174310", "nsi_id": "nordstrom-53f9e5"}, "geometry": {"type": "Point", "coordinates": [-111.8871581, 40.6368125]}},
{"type": "Feature", "id": "yT7T4f8lDMGLVaGx6uKNxPS4ciw=", "properties": {"ref": "235", "type": "FullLineStore", "@spider": "nordstrom", "shop": "department_store", "addr:street_address": "27640 Novi Road", "addr:city": "Novi", "addr:state": "MI", "addr:postcode": "48377", "addr:country": "US", "name": "Nordstrom Twelve Oaks Mall", "phone": "248.504.5700", "website": "https://www.nordstrom.com/store-details/nordstrom-twelve-oaks-mall", "brand": "Nordstrom", "brand:wikidata": "Q174310", "nsi_id": "nordstrom-53f9e5"}, "geometry": {"type": "Point", "coordinates": [-83.4673196, 42.491798]}},
{"type": "Feature", "id": "OQgtOKmjgftH7-4gQijFsAWUXa4=", "properties": {"ref": "228", "type": "FullLineStore", "@spider": "nordstrom", "shop": "department_store", "addr:street_address": "2850 West Big Beaver Road", "addr:city": "Troy", "addr:state": "MI", "addr:postcode": "48084", "addr:country": "US", "name": "Nordstrom Somerset Collection", "phone": "248.816.5100", "website": "https://www.nordstrom.com/store-details/nordstrom-somerset-collection", "brand": "Nordstrom", "brand:wikidata": "Q174310", "nsi_id": "nordstrom-53f9e5"}, "geometry": {"type": "Point", "coordinates": [-83.18595529999999, 42.5627731]}},
{"type": "Feature", "id": "jNiw8SBgBYVQ3iKDD4uRhJ1zQJg=", "properties": {"ref": "222", "type": "FullLineStore", "@spider": "nordstrom", "shop": "department_store", "addr:street_address": "1000 NW Court", "addr:city": "Bloomington", "addr:state": "MN", "addr:postcode": "55425", "addr:country": "US", "name": "Nordstrom Mall of America", "phone": "952.883.2121", "website": "https://www.nordstrom.com/store-details/nordstrom-mall-of-america", "brand": "Nordstrom", "brand:wikidata": "Q174310", "nsi_id": "nordstrom-53f9e5"}, "geometry": {"type": "Point", "coordinates": [-93.24421509999999, 44.8558951]}},
{"type": "Feature", "id": "aEzMMU6HvqcDwrVITSwNghGn_u4=", "properties": {"ref": "283", "type": "FullLineStore", "@spider": "nordstrom", "shop": "department_store", "addr:street_address": "12441 Wayzata Boulevard", "addr:city": "Minnetonka", "addr:state": "MN", "addr:postcode": "55305", "addr:country": "US", "name": "Nordstrom Ridgedale", "phone": "651.900.6800", "website": "https://www.nordstrom.com/store-details/nordstrom-ridgedale", "brand": "Nordstrom", "brand:wikidata": "Q174310", "nsi_id": "nordstrom-53f9e5"}, "geometry": {"type": "Point", "coordinates": [-93.4354168, 44.9685972]}},
{"type": "Feature", "id": "TZpI3EclKtIGiLozowOKTYvhQQQ=", "properties": {"ref": "238", "type": "FullLineStore", "@spider": "nordstrom", "shop": "department_store", "addr:street_address": "8702 Keystone Crossing", "addr:city": "Indianapolis", "addr:state": "IN", "addr:postcode": "46240", "addr:country": "US", "name": "Nordstrom Fashion Mall at Keystone", "phone": "317.810.9809", "website": "https://www.nordstrom.com/store-details/nordstrom-fashion-mall-at-keystone", "brand": "Nordstrom", "brand:wikidata": "Q174310", "nsi_id": "nordstrom-53f9e5"}, "geometry": {"type": "Point", "coordinates": [-86.1115957, 39.9151886]}},
{"type": "Feature", "id": "gx2ijt_GQ3vAeaVQXzjcqGntbx0=", "properties": {"ref": "234", "type": "FullLineStore", "@spider": "nordstrom", "shop": "department_store", "addr:street_address": "4000 Worth Avenue", "addr:city": "Columbus", "addr:state": "OH", "addr:postcode": "43219", "addr:country": "US", "name": "Nordstrom Easton Town Center", "phone": "614.416.7111", "website": "https://www.nordstrom.com/store-details/nordstrom-easton-town-center", "brand": "Nordstrom", "brand:wikidata": "Q174310", "nsi_id": "nordstrom-53f9e5"}, "geometry": {"type": "Point", "coordinates": [-82.91516469999999, 40.0548072]}},
{"type": "Feature", "id": "AHiN4oKDXJ9fxV9QTxh6c9OWUoI=", "properties": {"ref": "239", "type": "FullLineStore", "@spider": "nordstrom", "shop": "department_store", "addr:street_address": "7801 Montgomery Road", "addr:city": "Cincinnati", "addr:state": "OH", "addr:postcode": "45236", "addr:country": "US", "name": "Nordstrom Kenwood Towne Centre", "phone": "513.699.4190", "website": "https://www.nordstrom.com/store-details/nordstrom-kenwood-towne-centre", "brand": "Nordstrom", "brand:wikidata": "Q174310", "nsi_id": "nordstrom-53f9e5"}, "geometry": {"type": "Point", "coordinates": [-84.3788864, 39.2001668]}},
{"type": "Feature", "id": "8HKnc-zfeiGbZ9rQswKa-KT43XA=", "properties": {"ref": "227", "type": "FullLineStore", "@spider": "nordstrom", "shop": "department_store", "addr:street_address": "26200 Cedar Road", "addr:city": "Beachwood", "addr:state": "OH", "addr:postcode": "44122", "addr:country": "US", "name": "Nordstrom Beachwood Place", "phone": "216.378.2121", "website": "https://www.nordstrom.com/store-details/nordstrom-beachwood-place", "brand": "Nordstrom", "brand:wikidata": "Q174310", "nsi_id": "nordstrom-53f9e5"}, "geometry": {"type": "Point", "coordinates": [-81.494465, 41.501184]}},
{"type": "Feature", "id": "cOPrhqdpvI93p-WdxSdMFT_nPzw=", "properties": {"ref": "282", "type": "FullLineStore", "@spider": "nordstrom", "shop": "department_store", "addr:street_address": "2424 N. Mayfair Road", "addr:city": "Wauwatosa", "addr:state": "WI", "addr:postcode": "53226", "addr:country": "US", "name": "Nordstrom Mayfair", "phone": "414.203.6900", "website": "https://www.nordstrom.com/store-details/nordstrom-mayfair", "brand": "Nordstrom", "brand:wikidata": "Q174310", "nsi_id": "nordstrom-53f9e5"}, "geometry": {"type": "Point", "coordinates": [-88.047597, 43.062757]}},
{"type": "Feature", "id": "VS-LeFpv5VBZcnpuXjCrRsYorsU=", "properties": {"ref": "240", "type": "FullLineStore", "@spider": "nordstrom", "shop": "department_store", "addr:street_address": "1453 Saint Louis Galleria", "addr:city": "St. Louis", "addr:state": "MO", "addr:postcode": "63117", "addr:country": "US", "name": "Nordstrom Saint Louis Galleria", "phone": "314.884.4900", "website": "https://www.nordstrom.com/store-details/nordstrom-saint-louis-galleria", "brand": "Nordstrom", "brand:wikidata": "Q174310", "nsi_id": "nordstrom-53f9e5"}, "geometry": {"type": "Point", "coordinates": [-90.347612, 38.634576]}},
{"type": "Feature", "id": "yOhVlBadxto8leJW5PKAFQ9MCpM=", "properties": {"ref": "232", "type": "FullLineStore", "@spider": "nordstrom", "shop": "department_store", "addr:street_address": "47 West County Center", "addr:city": "Des Peres", "addr:state": "MO", "addr:postcode": "63131", "addr:country": "US", "name": "Nordstrom West County", "phone": "314.255.2000", "website": "https://www.nordstrom.com/store-details/nordstrom-west-county", "brand": "Nordstrom", "brand:wikidata": "Q174310", "nsi_id": "nordstrom-53f9e5"}, "geometry": {"type": "Point", "coordinates": [-90.44793899999999, 38.6008751]}},
{"type": "Feature", "id": "9G08ynAp89GBi1BshOQIMmD9oVI=", "properties": {"ref": "230", "type": "FullLineStore", "@spider": "nordstrom", "shop": "department_store", "addr:street_address": "11143 West 95th Street", "addr:city": "Overland Park", "addr:state": "KS", "addr:postcode": "66214", "addr:country": "US", "name": "Nordstrom Oak Park Mall", "phone": "913.492.8111", "website": "https://www.nordstrom.com/store-details/nordstrom-oak-park-mall", "brand": "Nordstrom", "brand:wikidata": "Q174310", "nsi_id": "nordstrom-53f9e5"}, "geometry": {"type": "Point", "coordinates": [-94.718537, 38.95228729999999]}},
{"type": "Feature", "id": "es8-uUKjf2jUMppeTtq1RZnsJK4=", "properties": {"ref": "759", "type": "FullLineStore", "@spider": "nordstrom", "shop": "department_store", "addr:street_address": "2130 Abbott Martin Road", "addr:city": "Nashville", "addr:state": "TN", "addr:postcode": "37215", "addr:country": "US", "name": "Nordstrom The Mall at Green Hills", "phone": "615.850.6700", "website": "https://www.nordstrom.com/store-details/nordstrom-the-mall-at-green-hills", "brand": "Nordstrom", "brand:wikidata": "Q174310", "nsi_id": "nordstrom-53f9e5"}, "geometry": {"type": "Point", "coordinates": [-86.8164808, 36.1065199]}}]}