{"type":"FeatureCollection","features":[{"type": "Feature", "id": "wwfBrEvY742pK0nplbNlN-V8eyM=", "properties": {"ref": "https://locations.northwest.bank/#38117373", "@spider": "northwest_bank", "addr:street_address": "901 County Road 6E", "addr:city": "Elkhart", "addr:state": "IN", "addr:postcode": "46514", "name": "901 County Road 6E Elkhart", "phone": "(574) 206-1211", "website": "https://locations.northwest.bank/in/elkhart/901-county-road-6e", "opening_hours": "Mo-Th 09:00-16:00; Fr 09:00-17:00; Sa 09:00-12:00", "image": "https://locations.northwest.bank/permanent-b0b701/assets/images/logo.065cecd1.svg", "brand": "Northwest Bank", "brand:wikidata": "Q7060191"}, "geometry": {"type": "Point", "coordinates": [-85.96597170047221, 41.723927053425534]}},
{"type": "Feature", "id": "AhZX4nNxa1X4g63gtDpXK7UoixA=", "properties": {"ref": "https://locations.northwest.bank/#38117362", "@spider": "northwest_bank", "addr:street_address": "2111 South Liberty Drive", "addr:city": "Bloomington", "addr:state": "IN", "addr:postcode": "47403", "name": "2111 South Liberty Drive Bloomington - Liberty Drive", "phone": "(812) 334-1980", "website": "https://locations.northwest.bank/in/bloomington/2111-south-liberty-drive", "opening_hours": "Mo-Th 09:00-16:00; Fr 09:00-17:00; Sa 09:00-12:00", "image": "https://locations.northwest.bank/permanent-b0b701/assets/images/logo.065cecd1.svg", "brand": "Northwest Bank", "brand:wikidata": "Q7060191"}, "geometry": {"type": "Point", "coordinates": [-86.5775833457259, 39.14566354862014]}},
{"type": "Feature", "id": "lZso3_RTikCoxAIysKJuqBQUkLE=", "properties": {"ref": "https://locations.northwest.bank/#38117369", "@spider": "northwest_bank", "addr:street_address": "48 North Washington Street", "addr:city": "Bloomfield", "addr:state": "IN", "addr:postcode": "47424", "name": "48 North Washington Street Bloomfield", "phone": "(812) 384-4431", "website": "https://locations.northwest.bank/in/bloomfield/48-north-washington-street", "opening_hours": "Mo-Th 09:00-16:00; Fr 09:00-17:00; Sa 09:00-12:00", "image": "https://locations.northwest.bank/permanent-b0b701/assets/images/logo.065cecd1.svg", "brand": "Northwest Bank", "brand:wikidata": "Q7060191"}, "geometry": {"type": "Point", "coordinates": [-86.93765738219166, 39.027569802491676]}},
{"type": "Feature", "id": "65kPnAGABZfaCkG4Ol_9i6Ne_IY=", "properties": {"ref": "https://locations.northwest.bank/#38117364", "@spider": "northwest_bank", "addr:street_address": "401 West State Street", "addr:city": "Albany", "addr:state": "IN", "addr:postcode": "47320", "name": "401 West State Street Albany", "phone": "(765) 789-4235", "website": "https://locations.northwest.bank/in/albany/401-west-state-street", "opening_hours": "Mo-Th 09:00-16:00; Fr 09:00-17:00; Sa 09:00-12:00", "image": "https://locations.northwest.bank/permanent-b0b701/assets/images/logo.065cecd1.svg", "brand": "Northwest Bank", "brand:wikidata": "Q7060191"}, "geometry": {"type": "Point", "coordinates": [-85.24118319449417, 40.29952975237729]}},
{"type": "Feature", "id": "OGGvI7ZVYXUv01IjswzUOLgv3wQ=", "properties": {"ref": "https://locations.northwest.bank/#35176982", "@spider": "northwest_bank", "addr:street_address": "1228 Jefferson Avenue", "addr:city": "Buffalo", "addr:state": "NY", "addr:postcode": "14208", "name": "1228 Jefferson Avenue Buffalo - Jefferson Avenue", "phone": "(716) 515-0377", "website": "https://locations.northwest.bank/ny/buffalo/1228-jefferson-avenue", "opening_hours": "Mo-Th 09:00-16:00; Fr 09:00-17:00; Sa 09:00-12:00", "image": "https://locations.northwest.bank/permanent-b0b701/assets/images/logo.065cecd1.svg", "brand": "Northwest Bank", "brand:wikidata": "Q7060191"}, "geometry": {"type": "Point", "coordinates": [-78.85434597780996, 42.90863045985356]}},
{"type": "Feature", "id": "mHa_z9eW3f4_AlE-MAYVQFtYVcc=", "properties": {"ref": "https://locations.northwest.bank/#35177061", "@spider": "northwest_bank", "addr:street_address": "3105 Niagara Falls Blvd", "addr:city": "Amherst", "addr:state": "NY", "addr:postcode": "14228", "name": "3105 Niagara Falls Blvd West Amherst", "phone": "(716) 691-4265", "website": "https://locations.northwest.bank/ny/amherst/3105-niagara-falls-blvd", "opening_hours": "Mo-Th 09:00-16:00; Fr 09:00-18:00; Sa 09:00-12:00", "image": "https://locations.northwest.bank/permanent-b0b701/assets/images/logo.065cecd1.svg", "brand": "Northwest Bank", "brand:wikidata": "Q7060191"}, "geometry": {"type": "Point", "coordinates": [-78.82308644537014, 43.03880361625229]}},
{"type": "Feature", "id": "kP60XQqYGBtCPNM72h25T4qDyuM=", "properties": {"ref": "https://locations.northwest.bank/#35177044", "@spider": "northwest_bank", "addr:street_address": "1531 Niagara Falls Blvd", "addr:city": "Amherst", "addr:state": "NY", "addr:postcode": "14228", "name": "1531 Niagara Falls Blvd Amherst - Niagara Falls Blvd", "phone": "(716) 831-9618", "website": "https://locations.northwest.bank/ny/amherst/1531-niagara-falls-blvd", "opening_hours": "Mo-Th 09:00-16:00; Fr 09:00-18:00", "image": "https://locations.northwest.bank/permanent-b0b701/assets/images/logo.065cecd1.svg", "brand": "Northwest Bank", "brand:wikidata": "Q7060191"}, "geometry": {"type": "Point", "coordinates": [-78.82192826502973, 42.99602802025496]}},
{"type": "Feature", "id": "yOlVMd1utXxgyDYJwQi8dNVW3C8=", "properties": {"ref": "https://locations.northwest.bank/#35177076", "@spider": "northwest_bank", "addr:street_address": "202 E Main St", "addr:city": "Youngsville", "addr:state": "PA", "addr:postcode": "16371", "name": "202 E Main St Youngsville", "phone": "(814) 563-9080", "website": "https://locations.northwest.bank/pa/youngsville/202-e-main-st", "opening_hours": "Mo-Th 09:00-16:00; Fr 09:00-18:00; Sa 09:00-12:00", "image": "https://locations.northwest.bank/permanent-b0b701/assets/images/logo.065cecd1.svg", "brand": "Northwest Bank", "brand:wikidata": "Q7060191"}, "geometry": {"type": "Point", "coordinates": [-79.31640376165676, 41.85144625000001]}},
{"type": "Feature", "id": "NMVefGldTph974FkXXaj4odkwZI=", "properties": {"ref": "https://locations.northwest.bank/#35177060", "@spider": "northwest_bank", "addr:street_address": "3649 E Market St", "addr:city": "York", "addr:state": "PA", "addr:postcode": "17402", "name": "3649 E Market St Stonybrook", "phone": "(717) 840-6848", "website": "https://locations.northwest.bank/pa/york/3649-e-market-st", "opening_hours": "Mo-Th 09:00-17:00; Fr 09:00-18:00; Sa 09:00-12:00", "image": "https://locations.northwest.bank/permanent-b0b701/assets/images/logo.065cecd1.svg", "brand": "Northwest Bank", "brand:wikidata": "Q7060191"}, "geometry": {"type": "Point", "coordinates": [-76.64998142754901, 39.98367742606692]}},
{"type": "Feature", "id": "wZW38u5aoKnZanWmmSQjJ73UYq8=", "properties": {"ref": "https://locations.northwest.bank/#35176990", "@spider": "northwest_bank", "addr:street_address": "2502 E 3rd St", "addr:city": "Williamsport", "addr:state": "PA", "addr:postcode": "17701", "name": "2502 E 3rd St Loyalsock", "phone": "(570) 321-1620", "website": "https://locations.northwest.bank/pa/williamsport/2502-e-3rd-st", "opening_hours": "Mo-Th 09:00-16:30; Fr 09:00-18:00; Sa 09:00-12:00", "image": "https://locations.northwest.bank/permanent-b0b701/assets/images/logo.065cecd1.svg", "brand": "Northwest Bank", "brand:wikidata": "Q7060191"}, "geometry": {"type": "Point", "coordinates": [-76.95364322406051, 41.246789106543396]}},
{"type": "Feature", "id": "lfgwZs1BWjhO5BER8edM6cUXqgQ=", "properties": {"ref": "https://locations.northwest.bank/#35177002", "@spider": "northwest_bank", "addr:street_address": "100 E Main St", "addr:city": "Westfield", "addr:state": "PA", "addr:postcode": "16950", "name": "100 E Main St Westfield", "phone": "(814) 367-2216", "website": "https://locations.northwest.bank/pa/westfield/100-e-main-st", "opening_hours": "Mo-Th 09:00-16:00; Fr 09:00-18:00", "image": "https://locations.northwest.bank/permanent-b0b701/assets/images/logo.065cecd1.svg", "brand": "Northwest Bank", "brand:wikidata": "Q7060191"}, "geometry": {"type": "Point", "coordinates": [-77.5389133911045, 41.919290843693965]}},
{"type": "Feature", "id": "AKm5enWYgZAtJnL-x04gyOx_QcE=", "properties": {"ref": "https://locations.northwest.bank/#35177026", "@spider": "northwest_bank", "addr:street_address": "61 Main St", "addr:city": "Wellsboro", "addr:state": "PA", "addr:postcode": "16901", "name": "61 Main St Wellsboro", "phone": "(570) 724-2621", "website": "https://locations.northwest.bank/pa/wellsboro/61-main-st", "opening_hours": "Mo-Th 09:00-16:00; Fr 09:00-18:00", "image": "https://locations.northwest.bank/permanent-b0b701/assets/images/logo.065cecd1.svg", "brand": "Northwest Bank", "brand:wikidata": "Q7060191"}, "geometry": {"type": "Point", "coordinates": [-77.30010988604431, 41.748592395851]}},
{"type": "Feature", "id": "V4DgU3ZLn_9BcdgC8tY25VLvf0o=", "properties": {"ref": "https://locations.northwest.bank/#35177031", "@spider": "northwest_bank", "addr:street_address": "260 Murtland Ave", "addr:city": "Washington", "addr:state": "PA", "addr:postcode": "15301", "name": "260 Murtland Ave Washington", "phone": "(724) 229-8400", "website": "https://locations.northwest.bank/pa/washington/260-murtland-ave", "opening_hours": "Mo-Th 09:00-17:00; Fr 09:00-18:00; Sa 09:00-12:00", "image": "https://locations.northwest.bank/permanent-b0b701/assets/images/logo.065cecd1.svg", "brand": "Northwest Bank", "brand:wikidata": "Q7060191"}, "geometry": {"type": "Point", "coordinates": [-80.23147355053065, 40.181702898029194]}},
{"type": "Feature", "id": "RG8lXIADAO0Y8rDszpebeFC9wD0=", "properties": {"ref": "https://locations.northwest.bank/#35177047", "@spider": "northwest_bank", "addr:street_address": "400 Jackson Run Rd", "addr:city": "Warren", "addr:state": "PA", "addr:postcode": "16365", "name": "400 Jackson Run Rd Warren Commons", "phone": "(814) 726-1610", "website": "https://locations.northwest.bank/pa/warren/400-jackson-run-rd", "opening_hours": "Mo-Th 09:00-16:00; Fr 09:00-18:00; Sa 09:00-12:00", "image": "https://locations.northwest.bank/permanent-b0b701/assets/images/logo.065cecd1.svg", "brand": "Northwest Bank", "brand:wikidata": "Q7060191"}, "geometry": {"type": "Point", "coordinates": [-79.15287292080312, 41.87683069619729]}},
{"type": "Feature", "id": "NyWcdVM5QNM5K-V4TXSaTy6h6dQ=", "properties": {"ref": "https://locations.northwest.bank/#35177053", "@spider": "northwest_bank", "addr:street_address": "301 2nd Ave", "addr:city": "Warren", "addr:state": "PA", "addr:postcode": "16365", "name": "301 2nd Ave Warren - Second Avenue", "phone": "(814) 723-9696", "website": "https://locations.northwest.bank/pa/warren/301-2nd-ave", "opening_hours": "Mo-Th 09:00-16:00; Fr 09:00-18:00", "image": "https://locations.northwest.bank/permanent-b0b701/assets/images/logo.065cecd1.svg", "brand": "Northwest Bank", "brand:wikidata": "Q7060191"}, "geometry": {"type": "Point", "coordinates": [-79.1474738229024, 41.84472474399542]}},
{"type": "Feature", "id": "yX92v9HsyT5H70KCRRN2oByPeRs=", "properties": {"ref": "https://locations.northwest.bank/#35177030", "@spider": "northwest_bank", "addr:street_address": "1421 Pittsburgh Rd", "addr:city": "Valencia", "addr:state": "PA", "addr:postcode": "16059", "name": "1421 Pittsburgh Rd Valencia", "phone": "(724) 443-6100", "website": "https://locations.northwest.bank/pa/valencia/1421-pittsburgh-rd", "opening_hours": "Mo-Th 09:00-16:00; Fr 09:00-18:00; Sa 09:00-12:00", "image": "https://locations.northwest.bank/permanent-b0b701/assets/images/logo.065cecd1.svg", "brand": "Northwest Bank", "brand:wikidata": "Q7060191"}, "geometry": {"type": "Point", "coordinates": [-79.9331703546137, 40.67661448162319]}},
{"type": "Feature", "id": "Z9z-Fu4-ASP7R_1gk55-JhFB6YQ=", "properties": {"ref": "https://locations.northwest.bank/#35176957", "@spider": "northwest_bank", "addr:street_address": "4 Perry St", "addr:city": "Union City", "addr:state": "PA", "addr:postcode": "16438", "name": "4 Perry St Union City", "phone": "(814) 438-3896", "website": "https://locations.northwest.bank/pa/union-city/4-perry-st", "opening_hours": "Mo-Th 09:00-16:00; Fr 09:00-18:00; Sa 09:00-12:00", "image": "https://locations.northwest.bank/permanent-b0b701/assets/images/logo.065cecd1.svg", "brand": "Northwest Bank", "brand:wikidata": "Q7060191"}, "geometry": {"type": "Point", "coordinates": [-79.84649227422237, 41.90181645161573]}},
{"type": "Feature", "id": "wQYLrzpiO1ByAna6Zok7QWLrAZc=", "properties": {"ref": "https://locations.northwest.bank/#35176936", "@spider": "northwest_bank", "addr:street_address": "101 W Spring St", "addr:city": "Titusville", "addr:state": "PA", "addr:postcode": "16354", "name": "101 W Spring St Titusville", "phone": "(814) 827-3671", "website": "https://locations.northwest.bank/pa/titusville/101-w-spring-st", "opening_hours": "Mo-Th 09:00-16:00; Fr 09:00-18:00", "image": "https://locations.northwest.bank/permanent-b0b701/assets/images/logo.065cecd1.svg", "brand": "Northwest Bank", "brand:wikidata": "Q7060191"}, "geometry": {"type": "Point", "coordinates": [-79.67356482341172, 41.62624952213882]}},
{"type": "Feature", "id": "w-a77W1Ppfc2ykQFb7Prl7RWxHI=", "properties": {"ref": "https://locations.northwest.bank/#35176730", "@spider": "northwest_bank", "addr:street_address": "2200 S Atherton St", "addr:city": "State College", "addr:state": "PA", "addr:postcode": "16801", "name": "2200 S Atherton St State College - South Atherton", "phone": "(814) 234-4234", "website": "https://locations.northwest.bank/pa/state-college/2200-s-atherton-st", "opening_hours": "Mo-Th 09:00-16:00; Fr 09:00-18:00; Sa 09:00-12:00", "image": "https://locations.northwest.bank/permanent-b0b701/assets/images/logo.065cecd1.svg", "brand": "Northwest Bank", "brand:wikidata": "Q7060191"}, "geometry": {"type": "Point", "coordinates": [-77.8291738082838, 40.784186648271536]}},
{"type": "Feature", "id": "6hMNE7wCsfhQDJdZWVIwdWlSAiM=", "properties": {"ref": "https://locations.northwest.bank/#35177062", "@spider": "northwest_bank", "addr:street_address": "1767 N Atherton St", "addr:city": "State College", "addr:state": "PA", "addr:postcode": "16803", "name": "1767 N Atherton St State College - North Atherton", "phone": "(814) 237-2650", "website": "https://locations.northwest.bank/pa/state-college/1767-n-atherton-st", "opening_hours": "Mo-Th 09:00-16:00; Fr 09:00-18:00; Sa 09:00-12:00", "image": "https://locations.northwest.bank/permanent-b0b701/assets/images/logo.065cecd1.svg", "brand": "Northwest Bank", "brand:wikidata": "Q7060191"}, "geometry": {"type": "Point", "coordinates": [-77.89991111922936, 40.808922358428326]}},
{"type": "Feature", "id": "cPFgyF8Z7VorsLYyIZuBq9-Pu48=", "properties": {"ref": "https://locations.northwest.bank/#35177006", "@spider": "northwest_bank", "addr:street_address": "824 S St Marys Rd", "addr:city": "St. Marys", "addr:state": "PA", "addr:postcode": "15857", "name": "824 S St Marys Rd St. Marys Plaza", "phone": "(814) 781-3277", "website": "https://locations.northwest.bank/pa/st.-marys/824-s-st-marys-rd", "opening_hours": "Mo-Th 09:00-17:00; Fr 09:00-18:00", "image": "https://locations.northwest.bank/permanent-b0b701/assets/images/logo.065cecd1.svg", "brand": "Northwest Bank", "brand:wikidata": "Q7060191"}, "geometry": {"type": "Point", "coordinates": [-78.56187453526744, 41.411253238393755]}},
{"type": "Feature", "id": "NQpjgBoRzjQQr66soC6w1GCpnIo=", "properties": {"ref": "https://locations.northwest.bank/#35176958", "@spider": "northwest_bank", "addr:street_address": "39 S St Marys St", "addr:city": "St. Marys", "addr:state": "PA", "addr:postcode": "15857", "name": "39 S St Marys St St. Marys", "phone": "(814) 834-4417", "website": "https://locations.northwest.bank/pa/st.-marys/39-s-st-marys-st", "opening_hours": "Mo-Th 09:00-16:00; Fr 09:00-18:00", "image": "https://locations.northwest.bank/permanent-b0b701/assets/images/logo.065cecd1.svg", "brand": "Northwest Bank", "brand:wikidata": "Q7060191"}, "geometry": {"type": "Point", "coordinates": [-78.56071994938831, 41.42666500556449]}},
{"type": "Feature", "id": "ZPBJSaOqMY5O5gUgTHTBo6G0v3M=", "properties": {"ref": "https://locations.northwest.bank/#35177021", "@spider": "northwest_bank", "addr:street_address": "428 W Main St", "addr:city": "Smethport", "addr:state": "PA", "addr:postcode": "16749", "name": "428 W Main St Smethport", "phone": "(814) 887-5522", "website": "https://locations.northwest.bank/pa/smethport/428-w-main-st", "opening_hours": "Mo-Th 09:00-16:00; Fr 09:00-18:00", "image": "https://locations.northwest.bank/permanent-b0b701/assets/images/logo.065cecd1.svg", "brand": "Northwest Bank", "brand:wikidata": "Q7060191"}, "geometry": {"type": "Point", "coordinates": [-78.44652716650393, 41.80968522139037]}},
{"type": "Feature", "id": "REST1LpxTZ1CZqz7_EvWGBqTpms=", "properties": {"ref": "https://locations.northwest.bank/#35176998", "@spider": "northwest_bank", "addr:street_address": "101 Monroe Rd", "addr:city": "Sarver", "addr:state": "PA", "addr:postcode": "16055", "name": "101 Monroe Rd Sarver", "phone": "(724) 295-9070", "website": "https://locations.northwest.bank/pa/sarver/101-monroe-rd", "opening_hours": "Mo-Th 09:00-16:00; Fr 09:00-18:00; Sa 09:00-12:00", "image": "https://locations.northwest.bank/permanent-b0b701/assets/images/logo.065cecd1.svg", "brand": "Northwest Bank", "brand:wikidata": "Q7060191"}, "geometry": {"type": "Point", "coordinates": [-79.71931813805676, 40.69927029071993]}},
{"type": "Feature", "id": "fz2pjOrbSaHvC7IHOnhy7ncLm4U=", "properties": {"ref": "https://locations.northwest.bank/#35177079", "@spider": "northwest_bank", "addr:street_address": "190 Stony Battery Rd", "addr:city": "Salunga-Landisville", "addr:state": "PA", "addr:postcode": "17538", "name": "190 Stony Battery Rd Lancaster - Hempfield", "phone": "(717) 898-3531", "website": "https://locations.northwest.bank/pa/salunga-landisville/190-stony-battery-rd", "opening_hours": "Mo-We 09:00-16:00; Th 09:00-17:00; Fr 09:00-18:00; Sa 09:00-12:00", "image": "https://locations.northwest.bank/permanent-b0b701/assets/images/logo.065cecd1.svg", "brand": "Northwest Bank", "brand:wikidata": "Q7060191"}, "geometry": {"type": "Point", "coordinates": [-76.42570040470346, 40.09732184154939]}},
{"type": "Feature", "id": "0Brms6-endkOhqC3bX4WOL75BDs=", "properties": {"ref": "https://locations.northwest.bank/#35177036", "@spider": "northwest_bank", "addr:street_address": "629 Main St", "addr:city": "Rimersburg", "addr:state": "PA", "addr:postcode": "16248", "name": "629 Main St Rimersburg", "phone": "(814) 473-3131", "website": "https://locations.northwest.bank/pa/rimersburg/629-main-st", "opening_hours": "Mo-Th 09:00-16:00; Fr 09:00-18:00", "image": "https://locations.northwest.bank/permanent-b0b701/assets/images/logo.065cecd1.svg", "brand": "Northwest Bank", "brand:wikidata": "Q7060191"}, "geometry": {"type": "Point", "coordinates": [-79.50232014293957, 41.04279894933116]}},
{"type": "Feature", "id": "phJr6aSrfIlDgqELDO0vssu1DKc=", "properties": {"ref": "https://locations.northwest.bank/#35177082", "@spider": "northwest_bank", "addr:street_address": "170 Main Street", "addr:city": "Ridgway", "addr:state": "PA", "addr:postcode": "15853", "name": "170 Main Street Ridgway", "phone": "(814) 776-6184", "website": "https://locations.northwest.bank/pa/ridgway/170-main-street", "opening_hours": "Mo-Th 09:00-16:00; Fr 09:00-18:00; Sa 09:00-12:00", "image": "https://locations.northwest.bank/permanent-b0b701/assets/images/logo.065cecd1.svg", "brand": "Northwest Bank", "brand:wikidata": "Q7060191"}, "geometry": {"type": "Point", "coordinates": [-78.73109810643139, 41.42116694891607]}},
{"type": "Feature", "id": "xdQnHkMLphewkXMhw-D5OIrQZkI=", "properties": {"ref": "https://locations.northwest.bank/#35176977", "@spider": "northwest_bank", "addr:street_address": "905 Main St", "addr:city": "Pittsburgh", "addr:state": "PA", "addr:postcode": "15215", "name": "905 Main St Sharpsburg", "phone": "(412) 781-0555", "website": "https://locations.northwest.bank/pa/pittsburgh/905-main-st", "opening_hours": "Mo-Th 09:00-16:00; Fr 09:00-18:00", "image": "https://locations.northwest.bank/permanent-b0b701/assets/images/logo.065cecd1.svg", "brand": "Northwest Bank", "brand:wikidata": "Q7060191"}, "geometry": {"type": "Point", "coordinates": [-79.9335337171793, 40.49440469433408]}},
{"type": "Feature", "id": "Ln40lujFFEkNMPSzct5mfvvptTM=", "properties": {"ref": "https://locations.northwest.bank/#35176956", "@spider": "northwest_bank", "addr:street_address": "7709 McKnight Rd", "addr:city": "Pittsburgh", "addr:state": "PA", "addr:postcode": "15237", "name": "7709 McKnight Rd Ross Township", "phone": "(412) 366-6270", "website": "https://locations.northwest.bank/pa/pittsburgh/7709-mcknight-rd", "opening_hours": "Mo-Th 09:00-17:00; Fr 09:00-18:00; Sa 09:00-13:00", "image": "https://locations.northwest.bank/permanent-b0b701/assets/images/logo.065cecd1.svg", "brand": "Northwest Bank", "brand:wikidata": "Q7060191"}, "geometry": {"type": "Point", "coordinates": [-80.01778453669725, 40.54629277764228]}},
{"type": "Feature", "id": "qPUsaRkjizUGkQJiWc1R0hkDRW0=", "properties": {"ref": "https://locations.northwest.bank/#35177105", "@spider": "northwest_bank", "addr:street_address": "710 Old Clairton Rd", "addr:city": "Pittsburgh", "addr:state": "PA", "addr:postcode": "15236", "name": "710 Old Clairton Rd Pleasant Hills", "phone": "(412) 655-2110", "website": "https://locations.northwest.bank/pa/pittsburgh/710-old-clairton-rd", "opening_hours": "Mo-Th 09:00-16:30; Fr 09:00-18:00; Sa 09:00-12:00", "image": "https://locations.northwest.bank/permanent-b0b701/assets/images/logo.065cecd1.svg", "brand": "Northwest Bank", "brand:wikidata": "Q7060191"}, "geometry": {"type": "Point", "coordinates": [-79.9566876036701, 40.32264123711506]}},
{"type": "Feature", "id": "1Yx_N2K_F_jpWrz7vA6t88GfVRs=", "properties": {"ref": "https://locations.northwest.bank/#35176987", "@spider": "northwest_bank", "addr:street_address": "543 Brownsville Rd", "addr:city": "Pittsburgh", "addr:state": "PA", "addr:postcode": "15210", "name": "543 Brownsville Rd Mount Oliver", "phone": "(412) 431-3374", "website": "https://locations.northwest.bank/pa/pittsburgh/543-brownsville-rd", "opening_hours": "Mo-Th 09:00-16:30; Fr 09:00-18:00; Sa 09:00-12:00", "image": "https://locations.northwest.bank/permanent-b0b701/assets/images/logo.065cecd1.svg", "brand": "Northwest Bank", "brand:wikidata": "Q7060191"}, "geometry": {"type": "Point", "coordinates": [-79.98979721502971, 40.410916815280984]}},
{"type": "Feature", "id": "VeLEHL3WYbfD1uqfb5yPyhK0ndM=", "properties": {"ref": "https://locations.northwest.bank/#35176776", "@spider": "northwest_bank", "addr:street_address": "535 Smithfield St", "addr:city": "Pittsburgh", "addr:state": "PA", "addr:postcode": "15222", "name": "535 Smithfield St Pittsburgh - Oliver Building", "phone": "(412) 281-0883", "website": "https://locations.northwest.bank/pa/pittsburgh/535-smithfield-st", "opening_hours": "Mo-Fr 08:00-16:00", "image": "https://locations.northwest.bank/permanent-b0b701/assets/images/logo.065cecd1.svg", "brand": "Northwest Bank", "brand:wikidata": "Q7060191"}, "geometry": {"type": "Point", "coordinates": [-79.99793917921382, 40.44126663152129]}},
{"type": "Feature", "id": "mivRLLR_KE3Ar3V6lyckT5N5wOA=", "properties": {"ref": "https://locations.northwest.bank/#35177103", "@spider": "northwest_bank", "addr:street_address": "437 Cochran Rd", "addr:city": "Pittsburgh", "addr:state": "PA", "addr:postcode": "15228", "name": "437 Cochran Rd Mt. Lebanon", "phone": "(412) 343-1771", "website": "https://locations.northwest.bank/pa/pittsburgh/437-cochran-rd", "opening_hours": "Mo-Th 09:00-16:00; Fr 09:00-18:00; Sa 09:00-13:00", "image": "https://locations.northwest.bank/permanent-b0b701/assets/images/logo.065cecd1.svg", "brand": "Northwest Bank", "brand:wikidata": "Q7060191"}, "geometry": {"type": "Point", "coordinates": [-80.05248090423548, 40.38374033226668]}},
{"type": "Feature", "id": "YTilBZyKCugeO60OQpfYG-DssqA=", "properties": {"ref": "https://locations.northwest.bank/#35177010", "@spider": "northwest_bank", "addr:street_address": "201 N Craig St", "addr:city": "Pittsburgh", "addr:state": "PA", "addr:postcode": "15213", "name": "201 N Craig St Oakland", "phone": "(412) 682-0700", "website": "https://locations.northwest.bank/pa/pittsburgh/201-n-craig-st", "opening_hours": "Mo-Th 09:00-16:30; Fr 09:00-18:00", "image": "https://locations.northwest.bank/permanent-b0b701/assets/images/logo.065cecd1.svg", "brand": "Northwest Bank", "brand:wikidata": "Q7060191"}, "geometry": {"type": "Point", "coordinates": [-79.9510134064314, 40.4499074923994]}},
{"type": "Feature", "id": "DGV-VX2hBFhpupfLsOunG75R5Ro=", "properties": {"ref": "https://locations.northwest.bank/#35176950", "@spider": "northwest_bank", "addr:street_address": "1048 East Main Street", "addr:city": "Palmyra", "addr:state": "PA", "addr:postcode": "17078", "name": "1048 East Main Street Palmyra", "phone": "(717) 838-5418", "website": "https://locations.northwest.bank/pa/palmyra/1048-east-main-street", "opening_hours": "Mo-Th 09:00-17:00; Fr 09:00-18:00; Sa 09:00-12:00", "image": "https://locations.northwest.bank/permanent-b0b701/assets/images/logo.065cecd1.svg", "brand": "Northwest Bank", "brand:wikidata": "Q7060191"}, "geometry": {"type": "Point", "coordinates": [-76.57815874078999, 40.31561338134122]}},
{"type": "Feature", "id": "gqDIfDhahuErHf7Ajh5CXsS7AB4=", "properties": {"ref": "https://locations.northwest.bank/#35176931", "@spider": "northwest_bank", "addr:street_address": "105 Petroleum St", "addr:city": "Oil City", "addr:state": "PA", "addr:postcode": "16301", "name": "105 Petroleum St Oil City", "phone": "(814) 676-5648", "website": "https://locations.northwest.bank/pa/oil-city/105-petroleum-st", "opening_hours": "Mo-Th 09:00-16:00; Fr 09:00-18:00; Sa 09:00-12:00", "image": "https://locations.northwest.bank/permanent-b0b701/assets/images/logo.065cecd1.svg", "brand": "Northwest Bank", "brand:wikidata": "Q7060191"}, "geometry": {"type": "Point", "coordinates": [-79.71197045552252, 41.428018044242116]}},
{"type": "Feature", "id": "H2PoBJiVF9xarrzL3K12w3eiYyU=", "properties": {"ref": "https://locations.northwest.bank/#35176976", "@spider": "northwest_bank", "addr:street_address": "35 E Main St", "addr:city": "North East", "addr:state": "PA", "addr:postcode": "16428", "name": "35 E Main St North East", "phone": "(814) 725-4528", "website": "https://locations.northwest.bank/pa/north-east/35-e-main-st", "opening_hours": "Mo-Th 09:00-16:00; Fr 09:00-18:00; Sa 09:00-12:00", "image": "https://locations.northwest.bank/permanent-b0b701/assets/images/logo.065cecd1.svg", "brand": "Northwest Bank", "brand:wikidata": "Q7060191"}, "geometry": {"type": "Point", "coordinates": [-79.83261719022055, 42.21626778346399]}},
{"type": "Feature", "id": "sCFvOUroRlI6Y2qxZOJbgb7uVp0=", "properties": {"ref": "https://locations.northwest.bank/#35177093", "@spider": "northwest_bank", "addr:street_address": "1 W Main Ave", "addr:city": "Myerstown", "addr:state": "PA", "addr:postcode": "17067", "name": "1 W Main Ave Myerstown", "phone": "(717) 866-2929", "website": "https://locations.northwest.bank/pa/myerstown/1-w-main-ave", "opening_hours": "Mo-Th 09:00-17:00; Fr 09:00-18:00; Sa 09:00-12:00", "image": "https://locations.northwest.bank/permanent-b0b701/assets/images/logo.065cecd1.svg", "brand": "Northwest Bank", "brand:wikidata": "Q7060191"}, "geometry": {"type": "Point", "coordinates": [-76.30359150070721, 40.37558145848875]}},
{"type": "Feature", "id": "mvysVV2pILwrYWMqDONhY6Xlmz8=", "properties": {"ref": "https://locations.northwest.bank/#35177080", "@spider": "northwest_bank", "addr:street_address": "101 E Main St", "addr:city": "Mt Joy", "addr:state": "PA", "addr:postcode": "17552", "name": "101 E Main St Mount Joy", "phone": "(717) 653-0637", "website": "https://locations.northwest.bank/pa/mt-joy/101-e-main-st", "opening_hours": "Mo-Th 09:00-17:00; Fr 09:00-18:00; Sa 09:00-12:00", "image": "https://locations.northwest.bank/permanent-b0b701/assets/images/logo.065cecd1.svg", "brand": "Northwest Bank", "brand:wikidata": "Q7060191"}, "geometry": {"type": "Point", "coordinates": [-76.49858155459633, 40.10952062708802]}},
{"type": "Feature", "id": "sFadrccWhE6UytwZ7jUMa6IhS6c=", "properties": {"ref": "https://locations.northwest.bank/#35177056", "@spider": "northwest_bank", "addr:street_address": "999 S Main St", "addr:city": "Meadville", "addr:state": "PA", "addr:postcode": "16335", "name": "999 S Main St Meadville", "phone": "(814) 336-1164", "website": "https://locations.northwest.bank/pa/meadville/999-s-main-st", "opening_hours": "Mo-Th 09:00-16:00; Fr 09:00-18:00; Sa 09:00-12:00", "image": "https://locations.northwest.bank/permanent-b0b701/assets/images/logo.065cecd1.svg", "brand": "Northwest Bank", "brand:wikidata": "Q7060191"}, "geometry": {"type": "Point", "coordinates": [-80.15035206069382, 41.63594852127646]}},
{"type": "Feature", "id": "tJXqAq1KYP7rtvTd-5IJYyiGryc=", "properties": {"ref": "https://locations.northwest.bank/#35176938", "@spider": "northwest_bank", "addr:street_address": "3380 Washington Rd", "addr:city": "McMurray", "addr:state": "PA", "addr:postcode": "15317", "name": "3380 Washington Rd Peters Township", "phone": "(412) 851-1493", "website": "https://locations.northwest.bank/pa/mcmurray/3380-washington-rd", "opening_hours": "Mo-Th 09:00-16:00; Fr 09:00-18:00; Sa 09:00-12:00", "image": "https://locations.northwest.bank/permanent-b0b701/assets/images/logo.065cecd1.svg", "brand": "Northwest Bank", "brand:wikidata": "Q7060191"}, "geometry": {"type": "Point", "coordinates": [-80.11729281928258, 40.28758616153372]}},
{"type": "Feature", "id": "B4tPLAk-8phNAtUmR1Ov6lE1xew=", "properties": {"ref": "https://locations.northwest.bank/#35176970", "@spider": "northwest_bank", "addr:street_address": "100 W High St", "addr:city": "Maytown", "addr:state": "PA", "addr:postcode": "17550", "name": "100 W High St Maytown", "phone": "(717) 426-4129", "website": "https://locations.northwest.bank/pa/maytown/100-w-high-st", "opening_hours": "Mo-We 09:00-16:00; Th 09:00-17:00; Fr 09:00-18:00; Sa 09:00-12:00", "image": "https://locations.northwest.bank/permanent-b0b701/assets/images/logo.065cecd1.svg", "brand": "Northwest Bank", "brand:wikidata": "Q7060191"}, "geometry": {"type": "Point", "coordinates": [-76.5838810904928, 40.07422009994366]}},
{"type": "Feature", "id": "LlHXFrLcPLNZXOdRAptF6afm2sI=", "properties": {"ref": "https://locations.northwest.bank/#35177102", "@spider": "northwest_bank", "addr:street_address": "100 W Spruce St", "addr:city": "Marienville", "addr:state": "PA", "addr:postcode": "16239", "name": "100 W Spruce St Marienville", "phone": "(814) 927-6600", "website": "https://locations.northwest.bank/pa/marienville/100-w-spruce-st", "opening_hours": "Mo-Th 09:00-16:00; Fr 09:00-18:00", "image": "https://locations.northwest.bank/permanent-b0b701/assets/images/logo.065cecd1.svg", "brand": "Northwest Bank", "brand:wikidata": "Q7060191"}, "geometry": {"type": "Point", "coordinates": [-79.12414664871294, 41.46939831665249]}},
{"type": "Feature", "id": "LLF80szvNJ_WShN_GCHtDEY7Y3U=", "properties": {"ref": "https://locations.northwest.bank/#35177091", "@spider": "northwest_bank", "addr:street_address": "50 S Main St", "addr:city": "Mansfield", "addr:state": "PA", "addr:postcode": "16933", "name": "50 S Main St Mansfield", "phone": "(570) 662-2131", "website": "https://locations.northwest.bank/pa/mansfield/50-s-main-st", "opening_hours": "Mo-Th 08:30-16:00; Fr 08:30-18:00; Sa 09:00-12:00", "image": "https://locations.northwest.bank/permanent-b0b701/assets/images/logo.065cecd1.svg", "brand": "Northwest Bank", "brand:wikidata": "Q7060191"}, "geometry": {"type": "Point", "coordinates": [-77.0777454573576, 41.80554225195176]}},
{"type": "Feature", "id": "3y2hsBE-93fRHtoLtXnHJoKPY8k=", "properties": {"ref": "https://locations.northwest.bank/#35176955", "@spider": "northwest_bank", "addr:street_address": "104 E Main St", "addr:city": "Lock Haven", "addr:state": "PA", "addr:postcode": "17745", "name": "104 E Main St Lock Haven", "phone": "(570) 893-8290", "website": "https://locations.northwest.bank/pa/lock-haven/104-e-main-st", "opening_hours": "Mo-Th 09:00-16:30; Fr 09:00-18:00; Sa 09:00-12:00", "image": "https://locations.northwest.bank/permanent-b0b701/assets/images/logo.065cecd1.svg", "brand": "Northwest Bank", "brand:wikidata": "Q7060191"}, "geometry": {"type": "Point", "coordinates": [-77.44573701610321, 41.136897174047135]}},
{"type": "Feature", "id": "A90HsR8eEZOkQyb4arvw-svydSI=", "properties": {"ref": "https://locations.northwest.bank/#35177054", "@spider": "northwest_bank", "addr:street_address": "744 S Broad St", "addr:city": "Lititz", "addr:state": "PA", "addr:postcode": "17543", "name": "744 S Broad St Lititz", "phone": "(717) 625-3001", "website": "https://locations.northwest.bank/pa/lititz/744-s-broad-st", "opening_hours": "Mo-Th 09:00-17:00; Fr 09:00-18:00; Sa 09:00-12:00", "image": "https://locations.northwest.bank/permanent-b0b701/assets/images/logo.065cecd1.svg", "brand": "Northwest Bank", "brand:wikidata": "Q7060191"}, "geometry": {"type": "Point", "coordinates": [-76.30441003644452, 40.141279746443224]}},
{"type": "Feature", "id": "YuuvsGssI_faNL1nM71F8Sz2waU=", "properties": {"ref": "https://locations.northwest.bank/#35177086", "@spider": "northwest_bank", "addr:street_address": "547 S 10th St", "addr:city": "Lebanon", "addr:state": "PA", "addr:postcode": "17042", "name": "547 S 10th St Lebanon", "phone": "(717) 272-7639", "website": "https://locations.northwest.bank/pa/lebanon/547-s-10th-st", "opening_hours": "Mo-Th 09:00-17:00; Fr 09:00-18:00; Sa 09:00-12:00", "image": "https://locations.northwest.bank/permanent-b0b701/assets/images/logo.065cecd1.svg", "brand": "Northwest Bank", "brand:wikidata": "Q7060191"}, "geometry": {"type": "Point", "coordinates": [-76.42654851528056, 40.33110667271078]}},
{"type": "Feature", "id": "kAQPSAbaRwHtYWd3uhYg7pJaWOo=", "properties": {"ref": "https://locations.northwest.bank/#35177081", "@spider": "northwest_bank", "addr:street_address": "301 Centerville Rd", "addr:city": "Lancaster", "addr:state": "PA", "addr:postcode": "17601", "name": "301 Centerville Rd Lancaster - Centerville Road", "phone": "(717) 735-3871", "website": "https://locations.northwest.bank/pa/lancaster/301-centerville-rd", "opening_hours": "Mo-Th 09:00-17:00; Fr 09:00-18:00; Sa 09:00-12:00", "image": "https://locations.northwest.bank/permanent-b0b701/assets/images/logo.065cecd1.svg", "brand": "Northwest Bank", "brand:wikidata": "Q7060191"}, "geometry": {"type": "Point", "coordinates": [-76.39375200100349, 40.0503023315355]}},
{"type": "Feature", "id": "pNrde3hTp2MjDrgTEH2qU0sSwvQ=", "properties": {"ref": "https://locations.northwest.bank/#35177100", "@spider": "northwest_bank", "addr:street_address": "1195 Manheim Pike", "addr:city": "Lancaster", "addr:state": "PA", "addr:postcode": "17601", "name": "1195 Manheim Pike Lancaster - Manheim Pike", "phone": "(717) 393-0700", "website": "https://locations.northwest.bank/pa/lancaster/1195-manheim-pike", "opening_hours": "Mo-Th 09:00-17:00; Fr 09:00-18:00; Sa 09:00-12:00", "image": "https://locations.northwest.bank/permanent-b0b701/assets/images/logo.065cecd1.svg", "brand": "Northwest Bank", "brand:wikidata": "Q7060191"}, "geometry": {"type": "Point", "coordinates": [-76.31939355551111, 40.06011747188186]}},
{"type": "Feature", "id": "TsJ_Saci_ojjkBSHbY94CvKnBto=", "properties": {"ref": "https://locations.northwest.bank/#35177052", "@spider": "northwest_bank", "addr:street_address": "22 Franklin Village Mall", "addr:city": "Kittanning", "addr:state": "PA", "addr:postcode": "16201", "name": "22 Franklin Village Mall Kittanning", "phone": "(724) 543-9133", "website": "https://locations.northwest.bank/pa/kittanning/22-franklin-village-mall", "opening_hours": "Mo-Th 09:00-16:00; Fr 09:00-18:00; Sa 09:00-12:00", "image": "https://locations.northwest.bank/permanent-b0b701/assets/images/logo.065cecd1.svg", "brand": "Northwest Bank", "brand:wikidata": "Q7060191"}, "geometry": {"type": "Point", "coordinates": [-79.54954464488124, 40.81237657893539]}},
{"type": "Feature", "id": "qppyzAwHVsWpT4EABWGEdclXZCg=", "properties": {"ref": "https://locations.northwest.bank/#35177003", "@spider": "northwest_bank", "addr:street_address": "56 N Fraley St", "addr:city": "Kane", "addr:state": "PA", "addr:postcode": "16735", "name": "56 N Fraley St Kane", "phone": "(814) 837-6080", "website": "https://locations.northwest.bank/pa/kane/56-n-fraley-st", "opening_hours": "Mo-Th 09:00-16:00; Fr 09:00-18:00; Sa 09:00-12:00", "image": "https://locations.northwest.bank/permanent-b0b701/assets/images/logo.065cecd1.svg", "brand": "Northwest Bank", "brand:wikidata": "Q7060191"}, "geometry": {"type": "Point", "coordinates": [-78.8107403020859, 41.660121264775526]}},
{"type": "Feature", "id": "LmBizqwMipl6OQmY7AT6et3tkwc=", "properties": {"ref": "https://locations.northwest.bank/#35177104", "@spider": "northwest_bank", "addr:street_address": "475 Theatre Dr", "addr:city": "Johnstown", "addr:state": "PA", "addr:postcode": "15904", "name": "475 Theatre Dr Johnstown - Richland", "phone": "(814) 266-6096", "website": "https://locations.northwest.bank/pa/johnstown/475-theatre-dr", "opening_hours": "Mo-Th 09:00-16:00; Fr 09:00-18:00; Sa 09:00-12:00", "image": "https://locations.northwest.bank/permanent-b0b701/assets/images/logo.065cecd1.svg", "brand": "Northwest Bank", "brand:wikidata": "Q7060191"}, "geometry": {"type": "Point", "coordinates": [-78.84768741271475, 40.27841786568405]}},
{"type": "Feature", "id": "T3aSmlW0H9lk1wS_j-gygKpFwW8=", "properties": {"ref": "https://locations.northwest.bank/#35176971", "@spider": "northwest_bank", "addr:street_address": "1918 Minno Dr", "addr:city": "Johnstown", "addr:state": "PA", "addr:postcode": "15905", "name": "1918 Minno Dr Johnstown - Westmont", "phone": "(814) 255-6841", "website": "https://locations.northwest.bank/pa/johnstown/1918-minno-dr", "opening_hours": "Mo-Th 09:00-16:00; Fr 09:00-18:00; Sa 09:00-12:00", "image": "https://locations.northwest.bank/permanent-b0b701/assets/images/logo.065cecd1.svg", "brand": "Northwest Bank", "brand:wikidata": "Q7060191"}, "geometry": {"type": "Point", "coordinates": [-78.95674003898, 40.32444492230798]}},
{"type": "Feature", "id": "zjxj1Yr3-t5M6T3LRJEehznE_hE=", "properties": {"ref": "https://locations.northwest.bank/#35177075", "@spider": "northwest_bank", "addr:street_address": "410 Wilcox Rd", "addr:city": "Johnsonburg", "addr:state": "PA", "addr:postcode": "15845", "name": "410 Wilcox Rd Johnsonburg", "phone": "(814) 965-2561", "website": "https://locations.northwest.bank/pa/johnsonburg/410-wilcox-rd", "opening_hours": "Mo-Th 09:00-16:00; Fr 09:00-17:00; Sa 09:00-12:00", "image": "https://locations.northwest.bank/permanent-b0b701/assets/images/logo.065cecd1.svg", "brand": "Northwest Bank", "brand:wikidata": "Q7060191"}, "geometry": {"type": "Point", "coordinates": [-78.6798121506117, 41.49894397333465]}},
{"type": "Feature", "id": "vML-dY-uq0iad55p9JTRcqpjwIk=", "properties": {"ref": "https://locations.northwest.bank/#35177000", "@spider": "northwest_bank", "addr:street_address": "370 W Governor Rd", "addr:city": "Hershey", "addr:state": "PA", "addr:postcode": "17033", "name": "370 W Governor Rd Hershey", "phone": "(717) 533-1724", "website": "https://locations.northwest.bank/pa/hershey/370-w-governor-rd", "opening_hours": "Mo-Th 09:00-17:00; Fr 09:00-18:00; Sa 09:00-12:00", "image": "https://locations.northwest.bank/permanent-b0b701/assets/images/logo.065cecd1.svg", "brand": "Northwest Bank", "brand:wikidata": "Q7060191"}, "geometry": {"type": "Point", "coordinates": [-76.65839907093469, 40.272058238528736]}},
{"type": "Feature", "id": "l0vWa2tdXwwXoJKwsC3t96sILE4=", "properties": {"ref": "https://locations.northwest.bank/#35176984", "@spider": "northwest_bank", "addr:street_address": "1091 Eichelberger St", "addr:city": "Hanover", "addr:state": "PA", "addr:postcode": "17331", "name": "1091 Eichelberger St Hanover", "phone": "(717) 630-8600", "website": "https://locations.northwest.bank/pa/hanover/1091-eichelberger-st", "opening_hours": "Mo-We 09:00-17:00; Th-Fr 09:00-18:00; Sa 09:00-12:00", "image": "https://locations.northwest.bank/permanent-b0b701/assets/images/logo.065cecd1.svg", "brand": "Northwest Bank", "brand:wikidata": "Q7060191"}, "geometry": {"type": "Point", "coordinates": [-76.99064831165677, 39.81846693806823]}},
{"type": "Feature", "id": "1idfEKtk0VUkQngfWff8i41xUlY=", "properties": {"ref": "https://locations.northwest.bank/#35177015", "@spider": "northwest_bank", "addr:street_address": "200 S Center St", "addr:city": "Grove City", "addr:state": "PA", "addr:postcode": "16127", "name": "200 S Center St Grove City", "phone": "(724) 450-1300", "website": "https://locations.northwest.bank/pa/grove-city/200-s-center-st", "opening_hours": "Mo-Th 09:00-17:00; Fr 09:00-18:00; Sa 09:00-12:00", "image": "https://locations.northwest.bank/permanent-b0b701/assets/images/logo.065cecd1.svg", "brand": "Northwest Bank", "brand:wikidata": "Q7060191"}, "geometry": {"type": "Point", "coordinates": [-80.08736104723874, 41.15937227447942]}},
{"type": "Feature", "id": "xiuhm6UmnVjAGOTb0Q8stCRwkAY=", "properties": {"ref": "https://locations.northwest.bank/#35177066", "@spider": "northwest_bank", "addr:street_address": "520 Front St", "addr:city": "Fredericktown", "addr:state": "PA", "addr:postcode": "15333", "name": "520 Front St Fredericktown", "phone": "(724) 377-2233", "website": "https://locations.northwest.bank/pa/fredericktown/520-front-st", "opening_hours": "Mo-Th 09:00-16:00; Fr 09:00-18:00", "image": "https://locations.northwest.bank/permanent-b0b701/assets/images/logo.065cecd1.svg", "brand": "Northwest Bank", "brand:wikidata": "Q7060191"}, "geometry": {"type": "Point", "coordinates": [-79.9975114343586, 40.00072488747599]}},
{"type": "Feature", "id": "ZFcL0SwumiuMrA4RS5LV7evJWIk=", "properties": {"ref": "https://locations.northwest.bank/#35177087", "@spider": "northwest_bank", "addr:street_address": "1301 Liberty St", "addr:city": "Franklin", "addr:state": "PA", "addr:postcode": "16323", "name": "1301 Liberty St Franklin", "phone": "(814) 432-2195", "website": "https://locations.northwest.bank/pa/franklin/1301-liberty-st", "opening_hours": "Mo-Th 09:00-16:00; Fr 09:00-18:00", "image": "https://locations.northwest.bank/permanent-b0b701/assets/images/logo.065cecd1.svg", "brand": "Northwest Bank", "brand:wikidata": "Q7060191"}, "geometry": {"type": "Point", "coordinates": [-79.83181622969859, 41.397681433848405]}},
{"type": "Feature", "id": "6ze3LMviNi5MXjUN4AAJcy4DmVI=", "properties": {"ref": "https://locations.northwest.bank/#35177055", "@spider": "northwest_bank", "addr:street_address": "7512 W Ridge Rd", "addr:city": "Fairview", "addr:state": "PA", "addr:postcode": "16415", "name": "7512 W Ridge Rd Fairview", "phone": "(814) 474-4853", "website": "https://locations.northwest.bank/pa/fairview/7512-w-ridge-rd", "opening_hours": "Mo-Th 09:00-16:30; Fr 09:00-18:00; Sa 09:00-12:00", "image": "https://locations.northwest.bank/permanent-b0b701/assets/images/logo.065cecd1.svg", "brand": "Northwest Bank", "brand:wikidata": "Q7060191"}, "geometry": {"type": "Point", "coordinates": [-80.25622719871295, 42.03123119870606]}},
{"type": "Feature", "id": "DLQf5dLQhoeG1ieaPYRi0Mlojzw=", "properties": {"ref": "https://locations.northwest.bank/#35176989", "@spider": "northwest_bank", "addr:street_address": "850 Pittsburgh Ave", "addr:city": "Erie", "addr:state": "PA", "addr:postcode": "16505", "name": "850 Pittsburgh Ave Erie - Pittsburgh Avenue", "phone": "(814) 459-2161", "website": "https://locations.northwest.bank/pa/erie/850-pittsburgh-ave", "opening_hours": "Mo-Th 09:00-16:30; Fr 09:00-18:00; Sa 09:00-12:00", "image": "https://locations.northwest.bank/permanent-b0b701/assets/images/logo.065cecd1.svg", "brand": "Northwest Bank", "brand:wikidata": "Q7060191"}, "geometry": {"type": "Point", "coordinates": [-80.13319101165676, 42.10788335027426]}},
{"type": "Feature", "id": "SbAg8AKqDeVDOByTgGeMm0RPldU=", "properties": {"ref": "https://locations.northwest.bank/#35176953", "@spider": "northwest_bank", "addr:street_address": "800 State Street #100", "addr:city": "Erie", "addr:state": "PA", "addr:postcode": "16501", "name": "800 State Street Erie - 8th & State", "phone": "(814) 461-6900", "website": "https://locations.northwest.bank/pa/erie/800-state-street", "opening_hours": "Mo-Th 09:00-16:30; Fr 09:00-17:00", "image": "https://locations.northwest.bank/permanent-b0b701/assets/images/logo.065cecd1.svg", "brand": "Northwest Bank", "brand:wikidata": "Q7060191"}, "geometry": {"type": "Point", "coordinates": [-80.08411366810552, 42.12723364147305]}},
{"type": "Feature", "id": "DA52D2c9IQPhVvFHrKr75lRvrb0=", "properties": {"ref": "https://locations.northwest.bank/#35177071", "@spider": "northwest_bank", "addr:street_address": "4525 Buffalo Rd", "addr:city": "Erie", "addr:state": "PA", "addr:postcode": "16510", "name": "4525 Buffalo Rd Erie - Cook Avenue", "phone": "(814) 899-7674", "website": "https://locations.northwest.bank/pa/erie/4525-buffalo-rd", "opening_hours": "Mo-Th 09:00-16:30; Fr 09:00-18:00; Sa 09:00-12:00", "image": "https://locations.northwest.bank/permanent-b0b701/assets/images/logo.065cecd1.svg", "brand": "Northwest Bank", "brand:wikidata": "Q7060191"}, "geometry": {"type": "Point", "coordinates": [-79.99987207539944, 42.14709812749503]}},
{"type": "Feature", "id": "HtVNdEWrOb5Jvj4l7adLZkb54lI=", "properties": {"ref": "https://locations.northwest.bank/#35177084", "@spider": "northwest_bank", "addr:street_address": "3407 Liberty St", "addr:city": "Erie", "addr:state": "PA", "addr:postcode": "16508", "name": "3407 Liberty St Erie - 34th & Liberty", "phone": "(814) 868-4646", "website": "https://locations.northwest.bank/pa/erie/3407-liberty-st", "opening_hours": "Mo-Th 09:00-16:30; Fr 09:00-18:00; Sa 09:00-12:00", "image": "https://locations.northwest.bank/permanent-b0b701/assets/images/logo.065cecd1.svg", "brand": "Northwest Bank", "brand:wikidata": "Q7060191"}, "geometry": {"type": "Point", "coordinates": [-80.08569283050572, 42.09911802739455]}},
{"type": "Feature", "id": "TTWFSNzOpLfch71FEON-gJd3GVg=", "properties": {"ref": "https://locations.northwest.bank/#35176980", "@spider": "northwest_bank", "addr:street_address": "2863 W 26th St", "addr:city": "Erie", "addr:state": "PA", "addr:postcode": "16506", "name": "2863 W 26th St Erie - West 26th Street", "phone": "(814) 838-9684", "website": "https://locations.northwest.bank/pa/erie/2863-w-26th-st", "opening_hours": "Mo-Th 09:00-16:30; Fr 09:00-18:00; Sa 09:00-12:00", "image": "https://locations.northwest.bank/permanent-b0b701/assets/images/logo.065cecd1.svg", "brand": "Northwest Bank", "brand:wikidata": "Q7060191"}, "geometry": {"type": "Point", "coordinates": [-80.13702533306194, 42.087812019583524]}},
{"type": "Feature", "id": "Rl4Tyt_qm-lDqhWm9S88BlcOwxw=", "properties": {"ref": "https://locations.northwest.bank/#35176997", "@spider": "northwest_bank", "addr:street_address": "1945 Douglas Dr", "addr:city": "Erie", "addr:state": "PA", "addr:postcode": "16509", "name": "1945 Douglas Dr Erie - Summit Square", "phone": "(814) 864-4817", "website": "https://locations.northwest.bank/pa/erie/1945-douglas-dr", "opening_hours": "Mo-Th 09:00-16:30; Fr 09:00-18:00; Sa 09:00-12:00", "image": "https://locations.northwest.bank/permanent-b0b701/assets/images/logo.065cecd1.svg", "brand": "Northwest Bank", "brand:wikidata": "Q7060191"}, "geometry": {"type": "Point", "coordinates": [-80.08483050614336, 42.054392651156554]}},
{"type": "Feature", "id": "gPurF-YUo1Rle1S1zgr6L7Zuv8I=", "properties": {"ref": "https://locations.northwest.bank/#35177041", "@spider": "northwest_bank", "addr:street_address": "121 West 26th Street", "addr:city": "Erie", "addr:state": "PA", "addr:postcode": "16508", "name": "121 West 26th Street Erie - 26th & Peach", "phone": "(814) 452-6465", "website": "https://locations.northwest.bank/pa/erie/121-west-26th-street", "opening_hours": "Mo-Th 09:00-16:30; Fr 09:00-18:00; Sa 09:00-12:00", "image": "https://locations.northwest.bank/permanent-b0b701/assets/images/logo.065cecd1.svg", "brand": "Northwest Bank", "brand:wikidata": "Q7060191"}, "geometry": {"type": "Point", "coordinates": [-80.07585811081584, 42.110771334138846]}},
{"type": "Feature", "id": "zQ0DMUFsp2lYE5rL6LT9oO1G6fI=", "properties": {"ref": "https://locations.northwest.bank/#35176960", "@spider": "northwest_bank", "addr:street_address": "2 E 4th St", "addr:city": "Emporium", "addr:state": "PA", "addr:postcode": "15834", "name": "2 E 4th St Emporium", "phone": "(814) 486-3333", "website": "https://locations.northwest.bank/pa/emporium/2-e-4th-st", "opening_hours": "Mo-Tu 08:30-16:30; We 08:30-12:00; Th-Fr 08:30-17:00; Sa 09:00-12:00", "image": "https://locations.northwest.bank/permanent-b0b701/assets/images/logo.065cecd1.svg", "brand": "Northwest Bank", "brand:wikidata": "Q7060191"}, "geometry": {"type": "Point", "coordinates": [-78.23740402380457, 41.511739351454516]}},
{"type": "Feature", "id": "ERHoRGPl9JeSGotRlxbG4l0qSN0=", "properties": {"ref": "https://locations.northwest.bank/#35176838", "@spider": "northwest_bank", "addr:street_address": "1275 South Market Street", "addr:city": "Elizabethtown", "addr:state": "PA", "addr:postcode": "17022", "name": "1275 South Market Street Elizabethtown", "phone": "(717) 367-9652", "website": "https://locations.northwest.bank/pa/elizabethtown/1275-south-market-street", "opening_hours": "Mo-We 09:00-16:00; Th 09:00-17:00; Fr 09:00-18:00; Sa 09:00-12:00", "image": "https://locations.northwest.bank/permanent-b0b701/assets/images/logo.065cecd1.svg", "brand": "Northwest Bank", "brand:wikidata": "Q7060191"}, "geometry": {"type": "Point", "coordinates": [-76.59023638142851, 40.14062692506899]}},
{"type": "Feature", "id": "ZICvV7VN0rJUyw6fl0RrsI1vArY=", "properties": {"ref": "https://locations.northwest.bank/#35176963", "@spider": "northwest_bank", "addr:street_address": "603 Scenery Dr", "addr:city": "Elizabeth", "addr:state": "PA", "addr:postcode": "15037", "name": "603 Scenery Dr Elizabeth", "phone": "(412) 754-2661", "website": "https://locations.northwest.bank/pa/elizabeth/603-scenery-dr", "opening_hours": "Mo-Th 09:00-16:00; Fr 09:00-18:00; Sa 09:00-12:00", "image": "https://locations.northwest.bank/permanent-b0b701/assets/images/logo.065cecd1.svg", "brand": "Northwest Bank", "brand:wikidata": "Q7060191"}, "geometry": {"type": "Point", "coordinates": [-79.83785882331352, 40.27227654295023]}},
{"type": "Feature", "id": "BqJ3QetSGTyxiH1-iQz1y4IMf3o=", "properties": {"ref": "https://locations.northwest.bank/#35177095", "@spider": "northwest_bank", "addr:street_address": "1000 Marketplace Dr", "addr:city": "Edinboro", "addr:state": "PA", "addr:postcode": "16412", "name": "1000 Marketplace Dr Edinboro", "phone": "(814) 734-2801", "website": "https://locations.northwest.bank/pa/edinboro/1000-marketplace-dr", "opening_hours": "Mo-We 09:00-16:30; Th 09:00-17:00; Fr 09:00-18:00; Sa 09:00-12:00", "image": "https://locations.northwest.bank/permanent-b0b701/assets/images/logo.065cecd1.svg", "brand": "Northwest Bank", "brand:wikidata": "Q7060191"}, "geometry": {"type": "Point", "coordinates": [-80.17220902017407, 41.880287389155555]}},
{"type": "Feature", "id": "F8zUSepV2EtNe0fof1lQ4JRzqEE=", "properties": {"ref": "https://locations.northwest.bank/#35176975", "@spider": "northwest_bank", "addr:street_address": "5066 Shaffer Rd", "addr:city": "DuBois", "addr:state": "PA", "addr:postcode": "15801", "name": "5066 Shaffer Rd DuBois", "phone": "(800) 925-7189", "website": "https://locations.northwest.bank/pa/dubois/5066-shaffer-rd", "opening_hours": "Mo-Th 09:00-16:00; Fr 09:00-18:00; Sa 09:00-12:00", "image": "https://locations.northwest.bank/permanent-b0b701/assets/images/logo.065cecd1.svg", "brand": "Northwest Bank", "brand:wikidata": "Q7060191"}, "geometry": {"type": "Point", "coordinates": [-78.73232646771878, 41.11460658005629]}},
{"type": "Feature", "id": "SDanrYYB4j54f01C2j3VMbW3E3w=", "properties": {"ref": "https://locations.northwest.bank/#35176805", "@spider": "northwest_bank", "addr:street_address": "426 State St", "addr:city": "Curwensville", "addr:state": "PA", "addr:postcode": "16833", "name": "426 State St Curwensville", "phone": "(814) 236-2550", "website": "https://locations.northwest.bank/pa/curwensville/426-state-st", "opening_hours": "Mo-Th 09:00-16:00; Fr 09:00-18:00; Sa 09:00-12:00", "image": "https://locations.northwest.bank/permanent-b0b701/assets/images/logo.065cecd1.svg", "brand": "Northwest Bank", "brand:wikidata": "Q7060191"}, "geometry": {"type": "Point", "coordinates": [-78.5260345432541, 40.97526672456812]}},
{"type": "Feature", "id": "-MYE-Al_AFz2W2SvaewcEl-ZovI=", "properties": {"ref": "https://locations.northwest.bank/#35176992", "@spider": "northwest_bank", "addr:street_address": "7029 US-322", "addr:city": "Cranberry", "addr:state": "PA", "addr:postcode": "16319", "name": "7029 US-322 Cranberry", "phone": "(814) 676-8600", "website": "https://locations.northwest.bank/pa/cranberry/7029-us-322", "opening_hours": "Mo-Th 09:00-17:00; Fr 09:00-18:00; Sa 09:00-12:00", "image": "https://locations.northwest.bank/permanent-b0b701/assets/images/logo.065cecd1.svg", "brand": "Northwest Bank", "brand:wikidata": "Q7060191"}, "geometry": {"type": "Point", "coordinates": [-79.71489559355126, 41.350968680832324]}},
{"type": "Feature", "id": "93huAXiIBTYArHoVVQZ8Z0w2-c8=", "properties": {"ref": "https://locations.northwest.bank/#35176952", "@spider": "northwest_bank", "addr:street_address": "1688 PA-228", "addr:city": "Cranberry Twp.", "addr:state": "PA", "addr:postcode": "16066", "name": "1688 PA-228 Cranberry Township", "phone": "(724) 741-9200", "website": "https://locations.northwest.bank/pa/cranberry-twp./1688-pa-228", "opening_hours": "Mo-Th 09:00-16:00; Fr 09:00-18:00; Sa 09:00-12:00", "image": "https://locations.northwest.bank/permanent-b0b701/assets/images/logo.065cecd1.svg", "brand": "Northwest Bank", "brand:wikidata": "Q7060191"}, "geometry": {"type": "Point", "coordinates": [-80.08025944938831, 40.684949986638564]}},
{"type": "Feature", "id": "1DZmZfSrXraAZm1cCfZDtKu7GJ4=", "properties": {"ref": "https://locations.northwest.bank/#35176985", "@spider": "northwest_bank", "addr:street_address": "302 N East St", "addr:city": "Coudersport", "addr:state": "PA", "addr:postcode": "16915", "name": "302 N East St Coudersport", "phone": "(814) 274-8800", "website": "https://locations.northwest.bank/pa/coudersport/302-n-east-st", "opening_hours": "Mo-Th 09:00-16:00; Fr 09:00-18:00; Sa 09:00-12:00", "image": "https://locations.northwest.bank/permanent-b0b701/assets/images/logo.065cecd1.svg", "brand": "Northwest Bank", "brand:wikidata": "Q7060191"}, "geometry": {"type": "Point", "coordinates": [-78.01933695735758, 41.775683349016845]}},
{"type": "Feature", "id": "WKXPvlNKSB73nKt69rLiA82yX0s=", "properties": {"ref": "https://locations.northwest.bank/#35176948", "@spider": "northwest_bank", "addr:street_address": "80 W Columbus Ave", "addr:city": "Corry", "addr:state": "PA", "addr:postcode": "16407", "name": "80 W Columbus Ave Corry", "phone": "(814) 664-4681", "website": "https://locations.northwest.bank/pa/corry/80-w-columbus-ave", "opening_hours": "Mo-Th 09:00-16:00; Fr 09:00-17:00; Sa 09:00-12:00", "image": "https://locations.northwest.bank/permanent-b0b701/assets/images/logo.065cecd1.svg", "brand": "Northwest Bank", "brand:wikidata": "Q7060191"}, "geometry": {"type": "Point", "coordinates": [-79.64431163067113, 41.936200664199355]}},
{"type": "Feature", "id": "jrxzDeGvnPYsocJMh8rQDMHPCc8=", "properties": {"ref": "https://locations.northwest.bank/#35176966", "@spider": "northwest_bank", "addr:street_address": "10 S 18th St", "addr:city": "Columbia", "addr:state": "PA", "addr:postcode": "17512", "name": "10 S 18th St Columbia", "phone": "(717) 684-2868", "website": "https://locations.northwest.bank/pa/columbia/10-s-18th-st", "opening_hours": "Mo-We 09:00-16:00; Th 09:00-17:00; Fr 09:00-18:00; Sa 09:00-12:00", "image": "https://locations.northwest.bank/permanent-b0b701/assets/images/logo.065cecd1.svg", "brand": "Northwest Bank", "brand:wikidata": "Q7060191"}, "geometry": {"type": "Point", "coordinates": [-76.47764433982702, 40.03130635487841]}},
{"type": "Feature", "id": "l50gCbO9E9VrDAElelXVrxuvrsA=", "properties": {"ref": "https://locations.northwest.bank/#35176951", "@spider": "northwest_bank", "addr:street_address": "1475 Main St", "addr:city": "Coalport", "addr:state": "PA", "addr:postcode": "16627", "name": "1475 Main St Coalport", "phone": "(800) 925-7195", "website": "https://locations.northwest.bank/pa/coalport/1475-main-st", "opening_hours": "Mo-Th 09:00-16:00; Fr 09:00-18:00; Sa 09:00-12:00", "image": "https://locations.northwest.bank/permanent-b0b701/assets/images/logo.065cecd1.svg", "brand": "Northwest Bank", "brand:wikidata": "Q7060191"}, "geometry": {"type": "Point", "coordinates": [-78.5346096239252, 40.75382029973555]}},
{"type": "Feature", "id": "Zz1yseSEtuboEalGzIpkTsWnjFQ=", "properties": {"ref": "https://locations.northwest.bank/#35177088", "@spider": "northwest_bank", "addr:street_address": "1200 S 2nd St", "addr:city": "Clearfield", "addr:state": "PA", "addr:postcode": "16830", "name": "1200 S 2nd St Clearfield", "phone": "(814) 765-2476", "website": "https://locations.northwest.bank/pa/clearfield/1200-s-2nd-st", "opening_hours": "Mo-Th 09:00-16:00; Fr 09:00-18:00; Sa 09:00-12:00", "image": "https://locations.northwest.bank/permanent-b0b701/assets/images/logo.065cecd1.svg", "brand": "Northwest Bank", "brand:wikidata": "Q7060191"}, "geometry": {"type": "Point", "coordinates": [-78.45050655560311, 41.00839576949348]}},
{"type": "Feature", "id": "GaEVoZbxM_DI7IQDZlVayjTe2Tk=", "properties": {"ref": "https://locations.northwest.bank/#35177073", "@spider": "northwest_bank", "addr:street_address": "730 Main St", "addr:city": "Clarion", "addr:state": "PA", "addr:postcode": "16214", "name": "730 Main St Clarion", "phone": "(814) 226-7873", "website": "https://locations.northwest.bank/pa/clarion/730-main-st", "opening_hours": "Mo-Th 09:00-16:00; Fr 09:00-18:00; Sa 09:00-12:00", "image": "https://locations.northwest.bank/permanent-b0b701/assets/images/logo.065cecd1.svg", "brand": "Northwest Bank", "brand:wikidata": "Q7060191"}, "geometry": {"type": "Point", "coordinates": [-79.3809004135875, 41.21237295303331]}},
{"type": "Feature", "id": "-5pEhJFhubeJOYsLT9esgmTo0ao=", "properties": {"ref": "https://locations.northwest.bank/#35177034", "@spider": "northwest_bank", "addr:street_address": "104 Winfield Dr", "addr:city": "Centre Hall", "addr:state": "PA", "addr:postcode": "16828", "name": "104 Winfield Dr Centre Hall", "phone": "(814) 364-2116", "website": "https://locations.northwest.bank/pa/centre-hall/104-winfield-dr", "opening_hours": "Mo-Th 09:00-16:00; Fr 09:00-18:00; Sa 09:00-12:00", "image": "https://locations.northwest.bank/permanent-b0b701/assets/images/logo.065cecd1.svg", "brand": "Northwest Bank", "brand:wikidata": "Q7060191"}, "geometry": {"type": "Point", "coordinates": [-77.67558419723873, 40.83385861493869]}},
{"type": "Feature", "id": "ByPrJ5wGcZ6PfA2SKTIxsp8n8mQ=", "properties": {"ref": "https://locations.northwest.bank/#35177033", "@spider": "northwest_bank", "addr:street_address": "242 E Main St", "addr:city": "Carnegie", "addr:state": "PA", "addr:postcode": "15106", "name": "242 E Main St Carnegie", "phone": "(412) 276-2424", "website": "https://locations.northwest.bank/pa/carnegie/242-e-main-st", "opening_hours": "Mo-Th 09:00-16:00; Fr 09:00-18:00; Sa 09:00-12:00", "image": "https://locations.northwest.bank/permanent-b0b701/assets/images/logo.065cecd1.svg", "brand": "Northwest Bank", "brand:wikidata": "Q7060191"}, "geometry": {"type": "Point", "coordinates": [-80.08437918441875, 40.4087425630413]}},
{"type": "Feature", "id": "gK7XPt92SikfajU-iMNnkThd91s=", "properties": {"ref": "https://locations.northwest.bank/#35177043", "@spider": "northwest_bank", "addr:street_address": "151 Pittsburgh Rd", "addr:city": "Butler", "addr:state": "PA", "addr:postcode": "16001-3253", "name": "151 Pittsburgh Rd Butler", "phone": "(724) 287-2875", "website": "https://locations.northwest.bank/pa/butler/151-pittsburgh-rd", "opening_hours": "Mo-Th 09:00-16:00; Fr 09:00-18:00; Sa 09:00-12:00", "image": "https://locations.northwest.bank/permanent-b0b701/assets/images/logo.065cecd1.svg", "brand": "Northwest Bank", "brand:wikidata": "Q7060191"}, "geometry": {"type": "Point", "coordinates": [-79.91799011820373, 40.839455880647286]}},
{"type": "Feature", "id": "xpKVEP_gneiQabTz_6EMXwR-F2E=", "properties": {"ref": "https://locations.northwest.bank/#35177067", "@spider": "northwest_bank", "addr:street_address": "431 Washington Pike", "addr:city": "Bridgeville", "addr:state": "PA", "addr:postcode": "15017", "name": "431 Washington Pike Bridgeville", "phone": "(412) 221-4000", "website": "https://locations.northwest.bank/pa/bridgeville/431-washington-pike", "opening_hours": "Mo-Th 09:00-16:00; Fr 09:00-18:00; Sa 09:00-12:00", "image": "https://locations.northwest.bank/permanent-b0b701/assets/images/logo.065cecd1.svg", "brand": "Northwest Bank", "brand:wikidata": "Q7060191"}, "geometry": {"type": "Point", "coordinates": [-80.1115777162531, 40.35926259828856]}},
{"type": "Feature", "id": "CFOOLcJ4Io8XAzQ__RjrKlnXXvs=", "properties": {"ref": "https://locations.northwest.bank/#35176995", "@spider": "northwest_bank", "addr:street_address": "950 E Main St", "addr:city": "Bradford", "addr:state": "PA", "addr:postcode": "16701", "name": "950 E Main St Bradford - Foster Brook", "phone": "(814) 362-4000", "website": "https://locations.northwest.bank/pa/bradford/950-e-main-st", "opening_hours": "Mo-Th 09:00-16:00; Fr 09:00-18:00; Sa 09:00-12:00", "image": "https://locations.northwest.bank/permanent-b0b701/assets/images/logo.065cecd1.svg", "brand": "Northwest Bank", "brand:wikidata": "Q7060191"}, "geometry": {"type": "Point", "coordinates": [-78.61657437110028, 41.976793403222786]}},
{"type": "Feature", "id": "IVbRPH5N28PEYa77xS9nu8oxCfc=", "properties": {"ref": "https://locations.northwest.bank/#35176974", "@spider": "northwest_bank", "addr:street_address": "33 Main Street", "addr:city": "Bradford", "addr:state": "PA", "addr:postcode": "16701", "name": "33 Main Street Bradford Main", "phone": "(814) 362-3503", "website": "https://locations.northwest.bank/pa/bradford/33-main-street", "opening_hours": "Mo-Th 09:00-16:00; Fr 09:00-17:00", "image": "https://locations.northwest.bank/permanent-b0b701/assets/images/logo.065cecd1.svg", "brand": "Northwest Bank", "brand:wikidata": "Q7060191"}, "geometry": {"type": "Point", "coordinates": [-78.64977293539414, 41.956093510374735]}},
{"type": "Feature", "id": "L6pIL6BhneRTseAUtyoHwdgtgMQ=", "properties": {"ref": "https://locations.northwest.bank/#35176994", "@spider": "northwest_bank", "addr:street_address": "532 Lincoln Ave", "addr:city": "Bellevue", "addr:state": "PA", "addr:postcode": "15202", "name": "532 Lincoln Ave Bellevue", "phone": "(412) 734-2700", "website": "https://locations.northwest.bank/pa/bellevue/532-lincoln-ave", "opening_hours": "Mo-Th 09:00-16:00; Fr 09:00-17:00; Sa 09:00-12:00", "image": "https://locations.northwest.bank/permanent-b0b701/assets/images/logo.065cecd1.svg", "brand": "Northwest Bank", "brand:wikidata": "Q7060191"}, "geometry": {"type": "Point", "coordinates": [-80.0564365073576, 40.496261849265984]}},
{"type": "Feature", "id": "ztIfrmaTTbe2vrLE0cLjMalieY4=", "properties": {"ref": "https://locations.northwest.bank/#35176983", "@spider": "northwest_bank", "addr:street_address": "1127 Zion Rd", "addr:city": "Bellefonte", "addr:state": "PA", "addr:postcode": "16823", "name": "1127 Zion Rd Bellefonte", "phone": "(814) 353-1222", "website": "https://locations.northwest.bank/pa/bellefonte/1127-zion-rd", "opening_hours": "Mo-Th 09:00-16:30; Fr 09:00-18:00; Sa 09:00-12:00", "image": "https://locations.northwest.bank/permanent-b0b701/assets/images/logo.065cecd1.svg", "brand": "Northwest Bank", "brand:wikidata": "Q7060191"}, "geometry": {"type": "Point", "coordinates": [-77.75458800884141, 40.915153594621884]}},
{"type": "Feature", "id": "psNiUkx8jNMpxYCNGoDPcCkb9V4=", "properties": {"ref": "https://locations.northwest.bank/#35176935", "@spider": "northwest_bank", "addr:street_address": "4455 Liberty Ave", "addr:city": "Vermilion", "addr:state": "OH", "addr:postcode": "44089", "name": "4455 Liberty Ave Vermilion", "phone": "(440) 967-3124", "website": "https://locations.northwest.bank/oh/vermilion/4455-liberty-ave", "opening_hours": "Mo-Th 09:00-17:00; Fr 09:00-17:30; Sa 09:00-12:00", "image": "https://locations.northwest.bank/permanent-b0b701/assets/images/logo.065cecd1.svg", "brand": "Northwest Bank", "brand:wikidata": "Q7060191"}, "geometry": {"type": "Point", "coordinates": [-82.34386480889549, 41.42455512836168]}},
{"type": "Feature", "id": "Ul3nqMmvI5Jil69VIRNnuEluf9c=", "properties": {"ref": "https://locations.northwest.bank/#35177063", "@spider": "northwest_bank", "addr:street_address": "49 S Main St", "addr:city": "Oberlin", "addr:state": "OH", "addr:postcode": "44074", "name": "49 S Main St Oberlin", "phone": "(440) 775-1361", "website": "https://locations.northwest.bank/oh/oberlin/49-s-main-st", "opening_hours": "Mo-Th 09:00-17:00; Fr 09:00-17:30; Sa 09:00-12:00", "image": "https://locations.northwest.bank/permanent-b0b701/assets/images/logo.065cecd1.svg", "brand": "Northwest Bank", "brand:wikidata": "Q7060191"}, "geometry": {"type": "Point", "coordinates": [-82.21708270575606, 41.29036832390866]}},
{"type": "Feature", "id": "daU6PTUJuXfnLbfIlwJE91ZBDs4=", "properties": {"ref": "https://locations.northwest.bank/#35177045", "@spider": "northwest_bank", "addr:street_address": "34085 Center Ridge Rd", "addr:city": "North Ridgeville", "addr:state": "OH", "addr:postcode": "44039", "name": "34085 Center Ridge Rd North Ridgeville", "phone": "(440) 327-2265", "website": "https://locations.northwest.bank/oh/north-ridgeville/34085-center-ridge-rd", "opening_hours": "Mo-Th 09:00-17:00; Fr 09:00-17:30; Sa 09:00-12:00", "image": "https://locations.northwest.bank/permanent-b0b701/assets/images/logo.065cecd1.svg", "brand": "Northwest Bank", "brand:wikidata": "Q7060191"}, "geometry": {"type": "Point", "coordinates": [-81.99489758889993, 41.39831889652321]}},
{"type": "Feature", "id": "YOEOWkJFDdhY_-U1exfbp2N1btk=", "properties": {"ref": "https://locations.northwest.bank/#35177089", "@spider": "northwest_bank", "addr:street_address": "457 Broadway Ave", "addr:city": "Lorain", "addr:state": "OH", "addr:postcode": "44052", "name": "457 Broadway Ave Lorain - Broadway", "phone": "(440) 244-7185", "website": "https://locations.northwest.bank/oh/lorain/457-broadway-ave", "opening_hours": "Mo-Th 09:00-17:00; Fr 09:00-17:30; Sa 09:00-12:00", "image": "https://locations.northwest.bank/permanent-b0b701/assets/images/logo.065cecd1.svg", "brand": "Northwest Bank", "brand:wikidata": "Q7060191"}, "geometry": {"type": "Point", "coordinates": [-82.17594390330929, 41.46692691472205]}},
{"type": "Feature", "id": "E0XNC9t__M0c7BdI2hb6vVJX1sQ=", "properties": {"ref": "https://locations.northwest.bank/#35177048", "@spider": "northwest_bank", "addr:street_address": "3660 Oberlin Ave", "addr:city": "Lorain", "addr:state": "OH", "addr:postcode": "44053", "name": "3660 Oberlin Ave Lorain - Oberlin Avenue", "phone": "(440) 282-9196", "website": "https://locations.northwest.bank/oh/lorain/3660-oberlin-ave", "opening_hours": "Mo-Th 09:00-17:00; Fr 09:00-17:30; Sa 09:00-12:00", "image": "https://locations.northwest.bank/permanent-b0b701/assets/images/logo.065cecd1.svg", "brand": "Northwest Bank", "brand:wikidata": "Q7060191"}, "geometry": {"type": "Point", "coordinates": [-82.1859612561342, 41.4371055391945]}},
{"type": "Feature", "id": "LSOf2MePrXvi7jTv7RX4muVOdjc=", "properties": {"ref": "https://locations.northwest.bank/#35176750", "@spider": "northwest_bank", "addr:street_address": "2850 Pearl Avenue", "addr:city": "Lorain", "addr:state": "OH", "addr:postcode": "44055", "name": "2850 Pearl Avenue Lorain - Pearl Avenue", "phone": "(440) 277-1103", "website": "https://locations.northwest.bank/oh/lorain/2850-pearl-avenue", "opening_hours": "Mo-Th 09:00-17:00; Fr 09:00-17:30; Sa 09:00-12:00", "image": "https://locations.northwest.bank/permanent-b0b701/assets/images/logo.065cecd1.svg", "brand": "Northwest Bank", "brand:wikidata": "Q7060191"}, "geometry": {"type": "Point", "coordinates": [-82.13698333926945, 41.44481473857054]}},
{"type": "Feature", "id": "P7vohV9IRix4MjMXwVMcu5qPLiU=", "properties": {"ref": "https://locations.northwest.bank/#35177098", "@spider": "northwest_bank", "addr:street_address": "178 W Streetsboro St", "addr:city": "Hudson", "addr:state": "OH", "addr:postcode": "44236", "name": "178 W Streetsboro St Hudson", "phone": "(330) 342-4018", "website": "https://locations.northwest.bank/oh/hudson/178-w-streetsboro-st", "opening_hours": "Mo-Th 09:00-17:00; Fr 09:00-17:30; Sa 09:00-12:00", "image": "https://locations.northwest.bank/permanent-b0b701/assets/images/logo.065cecd1.svg", "brand": "Northwest Bank", "brand:wikidata": "Q7060191"}, "geometry": {"type": "Point", "coordinates": [-81.44902595920354, 41.2382449985807]}},
{"type": "Feature", "id": "_vSmtNjit9JbZPTe3bYeIuFL6lc=", "properties": {"ref": "https://locations.northwest.bank/#35177070", "@spider": "northwest_bank", "addr:street_address": "124 Middle Ave", "addr:city": "Elyria", "addr:state": "OH", "addr:postcode": "44035", "name": "124 Middle Ave Elyria - Ely Square", "phone": "(440) 323-4621", "website": "https://locations.northwest.bank/oh/elyria/124-middle-ave", "opening_hours": "Mo-Th 09:00-17:00; Fr 09:00-17:30; Sa 09:00-12:00", "image": "https://locations.northwest.bank/permanent-b0b701/assets/images/logo.065cecd1.svg", "brand": "Northwest Bank", "brand:wikidata": "Q7060191"}, "geometry": {"type": "Point", "coordinates": [-82.10663588067112, 41.367086452201804]}},
{"type": "Feature", "id": "vfmvjlHuw9zjm4DejCQ20aF1lDY=", "properties": {"ref": "https://locations.northwest.bank/#35176978", "@spider": "northwest_bank", "addr:street_address": "105 Chestnut Commons Dr", "addr:city": "Elyria", "addr:state": "OH", "addr:postcode": "44035", "name": "105 Chestnut Commons Dr Elyria - Chestnut Commons", "phone": "(440) 366-5000", "website": "https://locations.northwest.bank/oh/elyria/105-chestnut-commons-dr", "opening_hours": "Mo-Th 09:00-17:00; Fr 09:00-17:30; Sa 09:00-12:00", "image": "https://locations.northwest.bank/permanent-b0b701/assets/images/logo.065cecd1.svg", "brand": "Northwest Bank", "brand:wikidata": "Q7060191"}, "geometry": {"type": "Point", "coordinates": [-82.06574830423548, 41.34419082365461]}},
{"type": "Feature", "id": "ML0uXsqcdFFdQJPInrajR12sOSQ=", "properties": {"ref": "https://locations.northwest.bank/#35176895", "@spider": "northwest_bank", "addr:street_address": "32960 Walker Rd", "addr:city": "Avon Lake", "addr:state": "OH", "addr:postcode": "44012", "name": "32960 Walker Rd Avon Lake", "phone": "(440) 933-2186", "website": "https://locations.northwest.bank/oh/avon-lake/32960-walker-rd", "opening_hours": "Mo-Th 09:00-17:00; Fr 09:00-17:30; Sa 09:00-12:00", "image": "https://locations.northwest.bank/permanent-b0b701/assets/images/logo.065cecd1.svg", "brand": "Northwest Bank", "brand:wikidata": "Q7060191"}, "geometry": {"type": "Point", "coordinates": [-82.02470436747645, 41.49370786876774]}},
{"type": "Feature", "id": "8v6LD1r9n9ot5WEFUMUujLoH4v0=", "properties": {"ref": "https://locations.northwest.bank/#35177032", "@spider": "northwest_bank", "addr:street_address": "1175 Cleveland Ave", "addr:city": "Amherst", "addr:state": "OH", "addr:postcode": "44001", "name": "1175 Cleveland Ave Amherst OH", "phone": "(440) 988-4423", "website": "https://locations.northwest.bank/oh/amherst/1175-cleveland-ave", "opening_hours": "Mo-Th 09:00-17:00; Fr 09:00-17:30; Sa 09:00-12:00", "image": "https://locations.northwest.bank/permanent-b0b701/assets/images/logo.065cecd1.svg", "brand": "Northwest Bank", "brand:wikidata": "Q7060191"}, "geometry": {"type": "Point", "coordinates": [-82.21023044708942, 41.4058845800026]}},
{"type": "Feature", "id": "dEZK41rR2kAyO3oBCvmtNbmHpqE=", "properties": {"ref": "https://locations.northwest.bank/#35177057", "@spider": "northwest_bank", "addr:street_address": "1055 Union Rd", "addr:city": "West Seneca", "addr:state": "NY", "addr:postcode": "14224", "name": "1055 Union Rd West Seneca", "phone": "(716) 809-9000", "website": "https://locations.northwest.bank/ny/west-seneca/1055-union-rd", "opening_hours": "Mo-Th 09:00-16:00; Fr 09:00-18:00; Sa 09:00-12:00", "image": "https://locations.northwest.bank/permanent-b0b701/assets/images/logo.065cecd1.svg", "brand": "Northwest Bank", "brand:wikidata": "Q7060191"}, "geometry": {"type": "Point", "coordinates": [-78.75298961932887, 42.828825798051795]}},
{"type": "Feature", "id": "1LJ2j8OF_NWQtNPqlpdLUSHDXWQ=", "properties": {"ref": "https://locations.northwest.bank/#35176991", "@spider": "northwest_bank", "addr:street_address": "475 Plank Rd", "addr:city": "Webster", "addr:state": "NY", "addr:postcode": "14580", "name": "475 Plank Rd Webster", "phone": "(585) 787-2265", "website": "https://locations.northwest.bank/ny/webster/475-plank-rd", "opening_hours": "Mo-We 09:00-16:00; Th 09:00-17:00; Fr 09:00-18:00", "image": "https://locations.northwest.bank/permanent-b0b701/assets/images/logo.065cecd1.svg", "brand": "Northwest Bank", "brand:wikidata": "Q7060191"}, "geometry": {"type": "Point", "coordinates": [-77.50740754341928, 43.182024397206675]}},
{"type": "Feature", "id": "o7w9XleL0uZo5sDZgve9ikPODaE=", "properties": {"ref": "https://locations.northwest.bank/#35176988", "@spider": "northwest_bank", "addr:street_address": "860 Long Pond Rd", "addr:city": "Rochester", "addr:state": "NY", "addr:postcode": "14612", "name": "860 Long Pond Rd Greece", "phone": "(585) 621-2265", "website": "https://locations.northwest.bank/ny/rochester/860-long-pond-rd", "opening_hours": "Mo-We 09:00-16:00; Th 09:00-17:00; Fr 09:00-18:00", "image": "https://locations.northwest.bank/permanent-b0b701/assets/images/logo.065cecd1.svg", "brand": "Northwest Bank", "brand:wikidata": "Q7060191"}, "geometry": {"type": "Point", "coordinates": [-77.69599865520802, 43.23991946827008]}},
{"type": "Feature", "id": "KJlYHQ-wbsbi7YwGq3rTbDzPHuU=", "properties": {"ref": "https://locations.northwest.bank/#35176999", "@spider": "northwest_bank", "addr:street_address": "3858 N Buffalo St", "addr:city": "Orchard Park", "addr:state": "NY", "addr:postcode": "14127", "name": "3858 N Buffalo St Orchard Park", "phone": "(716) 822-6599", "website": "https://locations.northwest.bank/ny/orchard-park/3858-n-buffalo-st", "opening_hours": "Mo-Th 09:00-16:00; Fr 09:00-18:00", "image": "https://locations.northwest.bank/permanent-b0b701/assets/images/logo.065cecd1.svg", "brand": "Northwest Bank", "brand:wikidata": "Q7060191"}, "geometry": {"type": "Point", "coordinates": [-78.74587594527172, 42.77844809299082]}},
{"type": "Feature", "id": "AXprC_QsUd5J-7ttD_O1OCe-V_U=", "properties": {"ref": "https://locations.northwest.bank/#35177007", "@spider": "northwest_bank", "addr:street_address": "1035 Payne Avenue", "addr:city": "North Tonawanda", "addr:state": "NY", "addr:postcode": "14120", "name": "1035 Payne Avenue North Tonawanda - Payne Avenue", "phone": "(716) 693-7337", "website": "https://locations.northwest.bank/ny/north-tonawanda/1035-payne-avenue", "opening_hours": "Mo-Th 09:00-16:00; Fr 09:00-18:00; Sa 09:00-12:00", "image": "https://locations.northwest.bank/permanent-b0b701/assets/images/logo.065cecd1.svg", "brand": "Northwest Bank", "brand:wikidata": "Q7060191"}, "geometry": {"type": "Point", "coordinates": [-78.87723327209014, 43.05151759566805]}},
{"type": "Feature", "id": "BN47oBa4uiBstM5VFQ_isVDDbVI=", "properties": {"ref": "https://locations.northwest.bank/#35176961", "@spider": "northwest_bank", "addr:street_address": "805 Main St", "addr:city": "Niagara Falls", "addr:state": "NY", "addr:postcode": "14301", "name": "805 Main St Power City", "phone": "(716) 278-5944", "website": "https://locations.northwest.bank/ny/niagara-falls/805-main-st", "opening_hours": "Mo-Th 09:00-16:00; Fr 09:00-17:00", "image": "https://locations.northwest.bank/permanent-b0b701/assets/images/logo.065cecd1.svg", "brand": "Northwest Bank", "brand:wikidata": "Q7060191"}, "geometry": {"type": "Point", "coordinates": [-79.0544712828207, 43.09683024964947]}},
{"type": "Feature", "id": "0Imusl8OcdvmPiRu1hRsD8AdzoU=", "properties": {"ref": "https://locations.northwest.bank/#35177077", "@spider": "northwest_bank", "addr:street_address": "4381 Military Rd", "addr:city": "Niagara Falls", "addr:state": "NY", "addr:postcode": "14305", "name": "4381 Military Rd Town of Niagara", "phone": "(716) 297-8741", "website": "https://locations.northwest.bank/ny/niagara-falls/4381-military-rd", "opening_hours": "Mo-Th 09:00-16:00; Fr 09:00-18:00", "image": "https://locations.northwest.bank/permanent-b0b701/assets/images/logo.065cecd1.svg", "brand": "Northwest Bank", "brand:wikidata": "Q7060191"}, "geometry": {"type": "Point", "coordinates": [-79.00174153215404, 43.12606537075874]}},
{"type": "Feature", "id": "zx_01RyXiexwpP7uwGibmCT1JN4=", "properties": {"ref": "https://locations.northwest.bank/#35177083", "@spider": "northwest_bank", "addr:street_address": "29 S Erie St", "addr:city": "Mayville", "addr:state": "NY", "addr:postcode": "14757", "name": "29 S Erie St Mayville", "phone": "(716) 753-2250", "website": "https://locations.northwest.bank/ny/mayville/29-s-erie-st", "opening_hours": "Mo-Th 09:00-16:00; Fr 09:00-17:00", "image": "https://locations.northwest.bank/permanent-b0b701/assets/images/logo.065cecd1.svg", "brand": "Northwest Bank", "brand:wikidata": "Q7060191"}, "geometry": {"type": "Point", "coordinates": [-79.50422997944774, 42.253267079366324]}},
{"type": "Feature", "id": "qPMzcoIWWO41TEvuAA0A0WhZWjg=", "properties": {"ref": "https://locations.northwest.bank/#35177099", "@spider": "northwest_bank", "addr:street_address": "55 East Ave", "addr:city": "Lockport", "addr:state": "NY", "addr:postcode": "14094", "name": "55 East Ave Lockport", "phone": "(716) 589-3500", "website": "https://locations.northwest.bank/ny/lockport/55-east-ave", "opening_hours": "Mo-Th 09:00-16:00; Fr 09:00-18:00; Sa 09:00-12:00", "image": "https://locations.northwest.bank/permanent-b0b701/assets/images/logo.065cecd1.svg", "brand": "Northwest Bank", "brand:wikidata": "Q7060191"}, "geometry": {"type": "Point", "coordinates": [-78.68663579323673, 43.17164037152065]}},
{"type": "Feature", "id": "ImWFoHGH1XhWlUJzECzlkJ_oFE4=", "properties": {"ref": "https://locations.northwest.bank/#35177029", "@spider": "northwest_bank", "addr:street_address": "500 Center St", "addr:city": "Lewiston", "addr:state": "NY", "addr:postcode": "14092", "name": "500 Center St Lewiston", "phone": "(716) 754-2901", "website": "https://locations.northwest.bank/ny/lewiston/500-center-st", "opening_hours": "Mo-Th 09:00-16:00; Fr 09:00-18:00; Sa 09:00-12:00", "image": "https://locations.northwest.bank/permanent-b0b701/assets/images/logo.065cecd1.svg", "brand": "Northwest Bank", "brand:wikidata": "Q7060191"}, "geometry": {"type": "Point", "coordinates": [-79.04085452404075, 43.17302820315206]}},
{"type": "Feature", "id": "mSu4UXE2tx5mSz6V9XRYAKrgi38=", "properties": {"ref": "https://locations.northwest.bank/#35177078", "@spider": "northwest_bank", "addr:street_address": "311 E Fairmount Ave", "addr:city": "Lakewood", "addr:state": "NY", "addr:postcode": "14750-2008", "name": "311 E Fairmount Ave Lakewood", "phone": "(716) 763-2265", "website": "https://locations.northwest.bank/ny/lakewood/311-e-fairmount-ave", "opening_hours": "Mo-Th 09:00-16:00; Fr 09:00-17:00; Sa 09:00-12:00", "image": "https://locations.northwest.bank/permanent-b0b701/assets/images/logo.065cecd1.svg", "brand": "Northwest Bank", "brand:wikidata": "Q7060191"}, "geometry": {"type": "Point", "coordinates": [-79.30360435368748, 42.09939622232788]}},
{"type": "Feature", "id": "O3fjRvZDZLgWL_bp9aItxsREDdE=", "properties": {"ref": "https://locations.northwest.bank/#35177085", "@spider": "northwest_bank", "addr:street_address": "1248 Abbott Rd", "addr:city": "Lackawanna", "addr:state": "NY", "addr:postcode": "14218", "name": "1248 Abbott Rd Lackawanna - Abbott Road", "phone": "(716) 823-8225", "website": "https://locations.northwest.bank/ny/lackawanna/1248-abbott-rd", "opening_hours": "Mo-Th 09:00-16:00; Fr 09:00-17:00", "image": "https://locations.northwest.bank/permanent-b0b701/assets/images/logo.065cecd1.svg", "brand": "Northwest Bank", "brand:wikidata": "Q7060191"}, "geometry": {"type": "Point", "coordinates": [-78.80336901456067, 42.829996463094815]}},
{"type": "Feature", "id": "WQ-issT1U180n5KQFkaymQ7alsw=", "properties": {"ref": "https://locations.northwest.bank/#35177050", "@spider": "northwest_bank", "addr:street_address": "768 Foote Ave", "addr:city": "Jamestown", "addr:state": "NY", "addr:postcode": "14701", "name": "768 Foote Ave Jamestown - Foote Avenue", "phone": "(716) 488-2265", "website": "https://locations.northwest.bank/ny/jamestown/768-foote-ave", "opening_hours": "Mo-Th 09:00-16:00; Fr 09:00-17:00", "image": "https://locations.northwest.bank/permanent-b0b701/assets/images/logo.065cecd1.svg", "brand": "Northwest Bank", "brand:wikidata": "Q7060191"}, "geometry": {"type": "Point", "coordinates": [-79.22914889786777, 42.079218169103825]}},
{"type": "Feature", "id": "IRBmsxPnZZQYpCfweWqp4giTY-g=", "properties": {"ref": "https://locations.northwest.bank/#35177058", "@spider": "northwest_bank", "addr:street_address": "1 W 3rd St", "addr:city": "Jamestown", "addr:state": "NY", "addr:postcode": "14701", "name": "1 W 3rd St Jamestown - West 3rd Street", "phone": "(716) 665-2265", "website": "https://locations.northwest.bank/ny/jamestown/1-w-3rd-st", "opening_hours": "Mo-Th 09:00-16:00; Fr 09:00-17:00", "image": "https://locations.northwest.bank/permanent-b0b701/assets/images/logo.065cecd1.svg", "brand": "Northwest Bank", "brand:wikidata": "Q7060191"}, "geometry": {"type": "Point", "coordinates": [-79.24156046068424, 42.09608699533199]}},
{"type": "Feature", "id": "j1SnnLqz3Zq5rWO_gTm4PtpTEkU=", "properties": {"ref": "https://locations.northwest.bank/#35177049", "@spider": "northwest_bank", "addr:street_address": "5751 South Park Ave", "addr:city": "Hamburg", "addr:state": "NY", "addr:postcode": "14075", "name": "5751 South Park Ave Hamburg", "phone": "(716) 646-0266", "website": "https://locations.northwest.bank/ny/hamburg/5751-south-park-ave", "opening_hours": "Mo-Th 09:00-16:00; Fr 09:00-18:00; Sa 09:00-12:00", "image": "https://locations.northwest.bank/permanent-b0b701/assets/images/logo.065cecd1.svg", "brand": "Northwest Bank", "brand:wikidata": "Q7060191"}, "geometry": {"type": "Point", "coordinates": [-78.82585224196704, 42.74021516091105]}},
{"type": "Feature", "id": "HS4oQLFgbmRINMGd9xVNvTatthM=", "properties": {"ref": "https://locations.northwest.bank/#35176972", "@spider": "northwest_bank", "addr:street_address": "2300 Grand Island Blvd", "addr:city": "Grand Island", "addr:state": "NY", "addr:postcode": "14072", "name": "2300 Grand Island Blvd Grand Island", "phone": "(716) 773-7660", "website": "https://locations.northwest.bank/ny/grand-island/2300-grand-island-blvd", "opening_hours": "Mo-Th 09:00-16:00; Fr 09:00-18:00; Sa 09:00-12:00", "image": "https://locations.northwest.bank/permanent-b0b701/assets/images/logo.065cecd1.svg", "brand": "Northwest Bank", "brand:wikidata": "Q7060191"}, "geometry": {"type": "Point", "coordinates": [-78.96631849271965, 43.02436361356716]}},
{"type": "Feature", "id": "BhHyLG2dlHunERyqZT1voW07VY4=", "properties": {"ref": "https://locations.northwest.bank/#35176944", "@spider": "northwest_bank", "addr:street_address": "210 W Main St", "addr:city": "Falconer", "addr:state": "NY", "addr:postcode": "14733", "name": "210 W Main St Falconer", "phone": "(716) 664-2265", "website": "https://locations.northwest.bank/ny/falconer/210-w-main-st", "opening_hours": "Mo-Th 09:00-16:00; Fr 09:00-17:00; Sa 09:00-12:00", "image": "https://locations.northwest.bank/permanent-b0b701/assets/images/logo.065cecd1.svg", "brand": "Northwest Bank", "brand:wikidata": "Q7060191"}, "geometry": {"type": "Point", "coordinates": [-79.20171996620677, 42.1162054973394]}},
{"type": "Feature", "id": "B-P_e9Z9_jLp8mbfygDcz_oX_as=", "properties": {"ref": "https://locations.northwest.bank/#35177004", "@spider": "northwest_bank", "addr:street_address": "6525 Transit Road", "addr:city": "East Amherst", "addr:state": "NY", "addr:postcode": "14051", "name": "6525 Transit Road East Amherst", "phone": "(716) 688-3522", "website": "https://locations.northwest.bank/ny/east-amherst/6525-transit-road", "opening_hours": "Mo-Th 09:00-16:00; Fr 09:00-18:00; Sa 09:00-12:00", "image": "https://locations.northwest.bank/permanent-b0b701/assets/images/logo.065cecd1.svg", "brand": "Northwest Bank", "brand:wikidata": "Q7060191"}, "geometry": {"type": "Point", "coordinates": [-78.69627472296226, 43.02597196296794]}},
{"type": "Feature", "id": "ozfeCOrW1IKfxXWXYWgWPUHN9hQ=", "properties": {"ref": "https://locations.northwest.bank/#35177064", "@spider": "northwest_bank", "addr:street_address": "2070 George Urban Blvd", "addr:city": "Depew", "addr:state": "NY", "addr:postcode": "14043", "name": "2070 George Urban Blvd Depew - George Urban Blvd", "phone": "(716) 601-0840", "website": "https://locations.northwest.bank/ny/depew/2070-george-urban-blvd", "opening_hours": "Mo-Th 09:00-16:00; Fr 09:00-18:00; Sa 09:00-12:00", "image": "https://locations.northwest.bank/permanent-b0b701/assets/images/logo.065cecd1.svg", "brand": "Northwest Bank", "brand:wikidata": "Q7060191"}, "geometry": {"type": "Point", "coordinates": [-78.73448945301212, 42.919064156189656]}},
{"type": "Feature", "id": "Bem0Xhx1flYInSDjaHm3lGZy_YQ=", "properties": {"ref": "https://locations.northwest.bank/#35176993", "@spider": "northwest_bank", "addr:street_address": "690 Kenmore Ave", "addr:city": "Buffalo", "addr:state": "NY", "addr:postcode": "14216", "name": "690 Kenmore Ave Buffalo - Kenmore & Starin", "phone": "(716) 862-8080", "website": "https://locations.northwest.bank/ny/buffalo/690-kenmore-ave", "opening_hours": "Mo-Th 09:00-16:00; Fr 09:00-18:00", "image": "https://locations.northwest.bank/permanent-b0b701/assets/images/logo.065cecd1.svg", "brand": "Northwest Bank", "brand:wikidata": "Q7060191"}, "geometry": {"type": "Point", "coordinates": [-78.84328535728389, 42.95814359665426]}},
{"type": "Feature", "id": "nt0_OQik85Y6dDQp01j367LK0KQ=", "properties": {"ref": "https://locations.northwest.bank/#35177101", "@spider": "northwest_bank", "addr:street_address": "4435 Transit Rd", "addr:city": "Buffalo", "addr:state": "NY", "addr:postcode": "14221", "name": "4435 Transit Rd Williamsville - Main & Transit", "phone": "(716) 634-0368", "website": "https://locations.northwest.bank/ny/buffalo/4435-transit-rd", "opening_hours": "Mo-Th 09:00-16:00; Fr 09:00-18:00; Sa 09:00-12:00", "image": "https://locations.northwest.bank/permanent-b0b701/assets/images/logo.065cecd1.svg", "brand": "Northwest Bank", "brand:wikidata": "Q7060191"}, "geometry": {"type": "Point", "coordinates": [-78.69618347510227, 42.967209266800815]}},
{"type": "Feature", "id": "dAJuKZnt_H3qTprh1yoUKPrwePs=", "properties": {"ref": "https://locations.northwest.bank/#35177042", "@spider": "northwest_bank", "addr:street_address": "364 Connecticut St", "addr:city": "Buffalo", "addr:state": "NY", "addr:postcode": "14213", "name": "364 Connecticut St Buffalo - Connecticut Street", "phone": "(716) 819-2790", "website": "https://locations.northwest.bank/ny/buffalo/364-connecticut-st", "opening_hours": "Mo-Th 09:00-16:00; Fr 09:00-17:00", "image": "https://locations.northwest.bank/permanent-b0b701/assets/images/logo.065cecd1.svg", "brand": "Northwest Bank", "brand:wikidata": "Q7060191"}, "geometry": {"type": "Point", "coordinates": [-78.88760885423548, 42.9061311049587]}},
{"type": "Feature", "id": "e-NwbdAI61azvPAUDXYc0FtUfIE=", "properties": {"ref": "https://locations.northwest.bank/#35176941", "@spider": "northwest_bank", "addr:street_address": "1690 Sheridan Dr", "addr:city": "Buffalo", "addr:state": "NY", "addr:postcode": "14223", "name": "1690 Sheridan Dr Tonawanda - Sheridan Drive", "phone": "(716) 874-3500", "website": "https://locations.northwest.bank/ny/buffalo/1690-sheridan-dr", "opening_hours": "Mo-Th 09:00-16:00; Fr 09:00-18:00; Sa 09:00-12:00", "image": "https://locations.northwest.bank/permanent-b0b701/assets/images/logo.065cecd1.svg", "brand": "Northwest Bank", "brand:wikidata": "Q7060191"}, "geometry": {"type": "Point", "coordinates": [-78.8714329650297, 42.98125185847156]}},
{"type": "Feature", "id": "VNQcX1Qrjmj8uoP5EhfaHhw8FL4=", "properties": {"ref": "https://locations.northwest.bank/#35176927", "@spider": "northwest_bank", "addr:street_address": "14 Lafayette Square", "addr:city": "Buffalo", "addr:state": "NY", "addr:postcode": "14203", "name": "14 Lafayette Square Buffalo - Rand Building", "phone": "(716) 842-2500", "website": "https://locations.northwest.bank/ny/buffalo/14-lafayette-square", "opening_hours": "Mo-Th 09:00-16:00; Fr 09:00-17:00", "image": "https://locations.northwest.bank/permanent-b0b701/assets/images/logo.065cecd1.svg", "brand": "Northwest Bank", "brand:wikidata": "Q7060191"}, "geometry": {"type": "Point", "coordinates": [-78.87345094694155, 42.88621544143669]}},
{"type": "Feature", "id": "6FF9ja2JZyzU43L-Dd9Ajdq34Ms=", "properties": {"ref": "https://locations.northwest.bank/#38117359", "@spider": "northwest_bank", "addr:street_address": "2101 South Tiger Drive", "addr:city": "Yorktown", "addr:state": "IN", "addr:postcode": "47396", "name": "2101 South Tiger Drive Yorktown", "phone": "(765) 759-7748", "website": "https://locations.northwest.bank/in/yorktown/2101-south-tiger-drive", "opening_hours": "Mo-Th 09:00-16:00; Fr 09:00-17:00; Sa 09:00-12:00", "image": "https://locations.northwest.bank/permanent-b0b701/assets/images/logo.065cecd1.svg", "brand": "Northwest Bank", "brand:wikidata": "Q7060191"}, "geometry": {"type": "Point", "coordinates": [-85.49230175677097, 40.174930642072134]}},
{"type": "Feature", "id": "Xild3BrDa3CW4aWK2RUuWduB6e8=", "properties": {"ref": "https://locations.northwest.bank/#38117371", "@spider": "northwest_bank", "addr:street_address": "870 East Washington Street", "addr:city": "Winchester", "addr:state": "IN", "addr:postcode": "47394", "name": "870 East Washington Street Winchester", "phone": "(765) 584-6372", "website": "https://locations.northwest.bank/in/winchester/870-east-washington-street", "opening_hours": "Mo-Th 09:00-16:00; Fr 09:00-17:00; Sa 09:00-12:00", "image": "https://locations.northwest.bank/permanent-b0b701/assets/images/logo.065cecd1.svg", "brand": "Northwest Bank", "brand:wikidata": "Q7060191"}, "geometry": {"type": "Point", "coordinates": [-84.96746164737048, 40.17171132184956]}},
{"type": "Feature", "id": "eLbkS0VV1IfzLqk1_UatWeomwUU=", "properties": {"ref": "https://locations.northwest.bank/#38117360", "@spider": "northwest_bank", "addr:street_address": "219 West Market Street", "addr:city": "Warsaw", "addr:state": "IN", "addr:postcode": "46580", "name": "219 West Market Street Warsaw - Market Street", "phone": "(574) 267-8186", "website": "https://locations.northwest.bank/in/warsaw/219-west-market-street", "opening_hours": "Mo-Th 09:00-16:00; Fr 09:00-17:00", "image": "https://locations.northwest.bank/permanent-b0b701/assets/images/logo.065cecd1.svg", "brand": "Northwest Bank", "brand:wikidata": "Q7060191"}, "geometry": {"type": "Point", "coordinates": [-85.85890275677097, 41.23688340992634]}},
{"type": "Feature", "id": "P04B9hJTeiBiFMJs7M4ddW4-nr4=", "properties": {"ref": "https://locations.northwest.bank/#38117358", "@spider": "northwest_bank", "addr:street_address": "2034 East Center Street", "addr:city": "Warsaw", "addr:state": "IN", "addr:postcode": "46580", "name": "2034 East Center Street Warsaw - Center Street", "phone": "(574) 267-2001", "website": "https://locations.northwest.bank/in/warsaw/2034-east-center-street", "opening_hours": "Mo-Th 09:00-16:00; Fr 09:00-17:00; Sa 09:00-12:00", "image": "https://locations.northwest.bank/permanent-b0b701/assets/images/logo.065cecd1.svg", "brand": "Northwest Bank", "brand:wikidata": "Q7060191"}, "geometry": {"type": "Point", "coordinates": [-85.8293261662531, 41.23772664363755]}},
{"type": "Feature", "id": "PJZZRxzJZt0l6_UkIL8_Sn71SzI=", "properties": {"ref": "https://locations.northwest.bank/#38117370", "@spider": "northwest_bank", "addr:street_address": "742 East Ireland Road", "addr:city": "South Bend", "addr:state": "IN", "addr:postcode": "46614", "name": "742 East Ireland Road South Bend - Ireland Road", "phone": "(574) 299-1500", "website": "https://locations.northwest.bank/in/south-bend/742-east-ireland-road", "opening_hours": "Mo-Th 09:00-16:00; Fr 09:00-17:00", "image": "https://locations.northwest.bank/permanent-b0b701/assets/images/logo.065cecd1.svg", "brand": "Northwest Bank", "brand:wikidata": "Q7060191"}, "geometry": {"type": "Point", "coordinates": [-86.23942382514858, 41.62874604128745]}},
{"type": "Feature", "id": "_T9ENbGp-NjYiF-l_INT1huW50Y=", "properties": {"ref": "https://locations.northwest.bank/#38117361", "@spider": "northwest_bank", "addr:street_address": "23761 Western Avenue", "addr:city": "South Bend", "addr:state": "IN", "addr:postcode": "46619", "name": "23761 Western Avenue South Bend - Western Avenue", "phone": "(574) 236-4122", "website": "https://locations.northwest.bank/in/south-bend/23761-western-avenue", "opening_hours": "Mo-Th 09:00-16:00; Fr 09:00-17:00", "image": "https://locations.northwest.bank/permanent-b0b701/assets/images/logo.065cecd1.svg", "brand": "Northwest Bank", "brand:wikidata": "Q7060191"}, "geometry": {"type": "Point", "coordinates": [-86.32743900491084, 41.67240736473683]}},
{"type": "Feature", "id": "9_jpKNoV4txnTakkVI8iUMqDWq0=", "properties": {"ref": "https://locations.northwest.bank/#38117368", "@spider": "northwest_bank", "addr:street_address": "514 North Main Street", "addr:city": "North Webster", "addr:state": "IN", "addr:postcode": "46555", "name": "514 North Main Street North Webster", "phone": "(574) 834-2879", "website": "https://locations.northwest.bank/in/north-webster/514-north-main-street", "opening_hours": "Mo-Th 09:00-16:00; Fr 09:00-17:00; Sa 09:00-12:00", "image": "https://locations.northwest.bank/permanent-b0b701/assets/images/logo.065cecd1.svg", "brand": "Northwest Bank", "brand:wikidata": "Q7060191"}, "geometry": {"type": "Point", "coordinates": [-85.69847085002506, 41.33018883815988]}},
{"type": "Feature", "id": "oHcxAL0LoZSjcX_bb3clq3bJrV4=", "properties": {"ref": "https://locations.northwest.bank/#38117365", "@spider": "northwest_bank", "addr:street_address": "2910 West Jackson Street", "addr:city": "Muncie", "addr:state": "IN", "addr:postcode": "47304", "name": "2910 West Jackson Street Muncie - West Jackson Street", "phone": "(765) 747-2851", "website": "https://locations.northwest.bank/in/muncie/2910-west-jackson-street", "opening_hours": "Mo-Th 09:00-16:00; Fr 09:00-17:00", "image": "https://locations.northwest.bank/permanent-b0b701/assets/images/logo.065cecd1.svg", "brand": "Northwest Bank", "brand:wikidata": "Q7060191"}, "geometry": {"type": "Point", "coordinates": [-85.42055985775181, 40.19321032053581]}},
{"type": "Feature", "id": "32DzOZ9FgcebkIYV69tVKUsi3es=", "properties": {"ref": "https://locations.northwest.bank/#38117357", "@spider": "northwest_bank", "addr:street_address": "2000 South Madison Street", "addr:city": "Muncie", "addr:state": "IN", "addr:postcode": "47302", "name": "2000 South Madison Street Muncie - Madison Street", "phone": "(765) 747-2876", "website": "https://locations.northwest.bank/in/muncie/2000-south-madison-street", "opening_hours": "Mo-Th 09:00-16:00; Fr 09:00-17:00; Sa 09:00-12:00", "image": "https://locations.northwest.bank/permanent-b0b701/assets/images/logo.065cecd1.svg", "brand": "Northwest Bank", "brand:wikidata": "Q7060191"}, "geometry": {"type": "Point", "coordinates": [-85.38128662025444, 40.177182150806885]}},
{"type": "Feature", "id": "Rf8rdlmosc1km7gCp8CQNSQDUdM=", "properties": {"ref": "https://locations.northwest.bank/#38117354", "@spider": "northwest_bank", "addr:street_address": "1912 West McGalliard Road", "addr:city": "Muncie", "addr:state": "IN", "addr:postcode": "47304", "name": "1912 West McGalliard Road Muncie - McGalliard Road", "phone": "(765) 747-2855", "website": "https://locations.northwest.bank/in/muncie/1912-west-mcgalliard-road", "opening_hours": "Mo-Th 09:00-16:00; Fr 09:00-17:00; Sa 09:00-12:00", "image": "https://locations.northwest.bank/permanent-b0b701/assets/images/logo.065cecd1.svg", "brand": "Northwest Bank", "brand:wikidata": "Q7060191"}, "geometry": {"type": "Point", "coordinates": [-85.40929461413758, 40.21921556986524]}},
{"type": "Feature", "id": "eCccei8zz3xwC7TVt4Cp1epo-Bw=", "properties": {"ref": "https://locations.northwest.bank/#38117352", "@spider": "northwest_bank", "addr:street_address": "110 East Charles Street", "addr:city": "Muncie", "addr:state": "IN", "addr:postcode": "47305", "name": "110 East Charles Street Muncie - Charles Street", "phone": "(765) 747-2800", "website": "https://locations.northwest.bank/in/muncie/110-east-charles-street", "opening_hours": "Mo-Th 09:00-16:00; Fr 09:00-17:00", "image": "https://locations.northwest.bank/permanent-b0b701/assets/images/logo.065cecd1.svg", "brand": "Northwest Bank", "brand:wikidata": "Q7060191"}, "geometry": {"type": "Point", "coordinates": [-85.38576276271473, 40.19136579107033]}},
{"type": "Feature", "id": "uDXV0q3Viiz-vbfX0JyQhh6VVE0=", "properties": {"ref": "https://locations.northwest.bank/#38117355", "@spider": "northwest_bank", "addr:street_address": "121 South Church Street", "addr:city": "Mishawaka", "addr:state": "IN", "addr:postcode": "46544", "name": "121 South Church Street Mishawaka - Church Street", "phone": "(574) 255-3146", "website": "https://locations.northwest.bank/in/mishawaka/121-south-church-street", "opening_hours": "Mo-Th 09:00-16:00; Fr 09:00-17:00; Sa 09:00-12:00", "image": "https://locations.northwest.bank/permanent-b0b701/assets/images/logo.065cecd1.svg", "brand": "Northwest Bank", "brand:wikidata": "Q7060191"}, "geometry": {"type": "Point", "coordinates": [-86.17953941050912, 41.66037384595246]}},
{"type": "Feature", "id": "wouCN1iXAtww9jlAEIwDGbO4220=", "properties": {"ref": "https://locations.northwest.bank/#38117350", "@spider": "northwest_bank", "addr:street_address": "1020 North Baldwin Avenue", "addr:city": "Marion", "addr:state": "IN", "addr:postcode": "46952", "name": "1020 North Baldwin Avenue Marion - Baldwin Avenue", "phone": "(765) 662-6399", "website": "https://locations.northwest.bank/in/marion/1020-north-baldwin-avenue", "opening_hours": "Mo-Th 09:00-16:00; Fr 09:00-17:00; Sa 09:00-12:00", "image": "https://locations.northwest.bank/permanent-b0b701/assets/images/logo.065cecd1.svg", "brand": "Northwest Bank", "brand:wikidata": "Q7060191"}, "geometry": {"type": "Point", "coordinates": [-85.67535555891222, 40.569669103470275]}},
{"type": "Feature", "id": "iiIXBQkJMxycymodotD0XiFEZD4=", "properties": {"ref": "https://locations.northwest.bank/#38117353", "@spider": "northwest_bank", "addr:street_address": "100 West 3rd Street", "addr:city": "Marion", "addr:state": "IN", "addr:postcode": "46952", "name": "100 West 3rd Street Marion - 3rd Street", "phone": "(765) 664-0556", "website": "https://locations.northwest.bank/in/marion/100-west-3rd-street", "opening_hours": "Mo-Th 09:00-16:00; Fr 09:00-17:00", "image": "https://locations.northwest.bank/permanent-b0b701/assets/images/logo.065cecd1.svg", "brand": "Northwest Bank", "brand:wikidata": "Q7060191"}, "geometry": {"type": "Point", "coordinates": [-85.66001892754034, 40.558992834159376]}},
{"type": "Feature", "id": "sY_9Bo8XhaIgymGQZKPYM_TL5cQ=", "properties": {"ref": "https://locations.northwest.bank/#38117356", "@spider": "northwest_bank", "addr:street_address": "1450 A Street NE", "addr:city": "Linton", "addr:state": "IN", "addr:postcode": "47441", "name": "1450 A Street NE Linton", "phone": "(812) 847-8681", "website": "https://locations.northwest.bank/in/linton/1450-a-street-ne", "opening_hours": "Mo-Th 09:00-16:00; Fr 09:00-17:00; Sa 09:00-12:00", "image": "https://locations.northwest.bank/permanent-b0b701/assets/images/logo.065cecd1.svg", "brand": "Northwest Bank", "brand:wikidata": "Q7060191"}, "geometry": {"type": "Point", "coordinates": [-87.14673731106181, 39.03802224418417]}},
{"type": "Feature", "id": "b0SVtpZ91a1-_8k_pVVE0YGhAS8=", "properties": {"ref": "https://locations.northwest.bank/#38117363", "@spider": "northwest_bank", "addr:street_address": "315 East Main Street", "addr:city": "Jasonville", "addr:state": "IN", "addr:postcode": "47438", "name": "315 East Main Street Jasonville", "phone": "(812) 665-2248", "website": "https://locations.northwest.bank/in/jasonville/315-east-main-street", "opening_hours": "Mo-Th 09:00-16:00; Fr 09:00-17:00; Sa 09:00-12:00", "image": "https://locations.northwest.bank/permanent-b0b701/assets/images/logo.065cecd1.svg", "brand": "Northwest Bank", "brand:wikidata": "Q7060191"}, "geometry": {"type": "Point", "coordinates": [-87.19604370259587, 39.16274184067007]}},
{"type": "Feature", "id": "Ue6qGrueGujWQc6i8GteN2yiGfg=", "properties": {"ref": "https://locations.northwest.bank/#38117367", "@spider": "northwest_bank", "addr:street_address": "402 West Cleveland Road", "addr:city": "Granger", "addr:state": "IN", "addr:postcode": "46530", "name": "402 West Cleveland Road Granger", "phone": "(574) 277-4930", "website": "https://locations.northwest.bank/in/granger/402-west-cleveland-road", "opening_hours": "Mo-Th 09:00-16:00; Fr 09:00-17:00", "image": "https://locations.northwest.bank/permanent-b0b701/assets/images/logo.065cecd1.svg", "brand": "Northwest Bank", "brand:wikidata": "Q7060191"}, "geometry": {"type": "Point", "coordinates": [-86.18837346650395, 41.724336964810675]}},
{"type": "Feature", "id": "8nt3RtB9o1KK6VbH5eLYf42I7Jk=", "properties": {"ref": "https://locations.northwest.bank/#38117349", "@spider": "northwest_bank", "addr:street_address": "1010 East Main Street", "addr:city": "Gas City", "addr:state": "IN", "addr:postcode": "46933", "name": "1010 East Main Street Gas City", "phone": "(765) 677-4770", "website": "https://locations.northwest.bank/in/gas-city/1010-east-main-street", "opening_hours": "Mo-Th 09:00-16:00; Fr 09:00-17:00", "image": "https://locations.northwest.bank/permanent-b0b701/assets/images/logo.065cecd1.svg", "brand": "Northwest Bank", "brand:wikidata": "Q7060191"}, "geometry": {"type": "Point", "coordinates": [-85.59548134416292, 40.48743213982461]}}]}