{"type":"FeatureCollection","features":[{"type": "Feature", "id": "EJ4yhoygBCV6ZegDsSd5UwjkILM=", "properties": {"ref": "1849 Brewing Company", "@spider": "northern_california_breweries", "addr:full": "468 Sutton Way", "addr:city": "Grass Valley", "addr:state": "CA", "website": "https://www.1849brewingco.com/"}},
{"type": "Feature", "id": "3pJ0BTvTGgVZ5eJyc9xPtlZeisE=", "properties": {"ref": "21st Amendment Brewery ", "@spider": "northern_california_breweries", "addr:full": "2010 Williams St.", "addr:city": "San Leandro", "addr:state": "CA", "website": "http://21st-amendment.com/"}},
{"type": "Feature", "id": "RG1Q5laqnx-SEe0dbCoMQ6B4QAY=", "properties": {"ref": "21st Amendment Brewery (Taproom)", "@spider": "northern_california_breweries", "addr:full": "563 Second St.", "addr:city": "San Francisco", "addr:state": "CA", "website": "http://21st-amendment.com/"}},
{"type": "Feature", "id": "d935Bb1gIiskrY0bY6zda9h2rqk=", "properties": {"ref": "256 North ", "@spider": "northern_california_breweries", "addr:full": "256 Petaluma Blvd North", "addr:city": "Petaluma", "addr:state": "CA", "website": "https://256north.com/"}},
{"type": "Feature", "id": "_3XOxDy-w8LZNGWw13gCv-wKA3A=", "properties": {"ref": "47 Hills Brewing Company", "@spider": "northern_california_breweries", "addr:full": "137 South Linden Ave.", "addr:city": "South San Francisco", "addr:state": "CA", "website": "http://47hillsbrewingcompany.com/"}},
{"type": "Feature", "id": "usccnODkdDEGrQBKfWNK8Omert0=", "properties": {"ref": "Adobe Creek Brewing", "@spider": "northern_california_breweries", "addr:full": "67 Galli Drive, Suite E ", "addr:city": "Novato", "addr:state": "CA", "website": "https://www.adobecreekbrewing.com/"}},
{"type": "Feature", "id": "nLkUqrXwqHHWe0Hv8NkIGIxkB48=", "properties": {"ref": "Alameda Island Brewing Co.", "@spider": "northern_california_breweries", "addr:full": "1716 Park St.", "addr:city": "Alameda", "addr:state": "CA", "website": "http://alamedaislandbrewingcompany.com/"}},
{"type": "Feature", "id": "MSEWC1xhpbeiBoAiCPgR08b-iAs=", "properties": {"ref": "Alaro Brewing Co. ", "@spider": "northern_california_breweries", "addr:full": "2004 Capital Ave.", "addr:city": "Sacramento", "addr:state": "CA", "website": "https://alarobrewing.com/"}},
{"type": "Feature", "id": "m5YI0eBhcLEiwgAwBIKI7sAnpqk=", "properties": {"ref": "Ale Industries", "@spider": "northern_california_breweries", "addr:full": "3096 E. 10th St.", "addr:city": "Oakland", "addr:state": "CA", "website": "http://aleindustries.com/"}},
{"type": "Feature", "id": "J7duRQ6HSVdbmdhuCnmjkli_zGQ=", "properties": {"ref": "Alibi Ale Works", "@spider": "northern_california_breweries", "addr:full": "204 E. Enterprise St.", "addr:city": "Incline Village", "addr:state": "CA", "website": "http://www.alibialeworks.com/"}},
{"type": "Feature", "id": "06tKp2AMYYkCvduJgKRzXLVbO6A=", "properties": {"ref": "Almanac Beer Co.", "@spider": "northern_california_breweries", "addr:full": "651 Unit B West Tower Avenue", "addr:city": "Alameda", "addr:state": "CA", "website": "https://www.almanacbeer.com/"}},
{"type": "Feature", "id": "0JNPngQOIPCV29l5d8v1Pzdc2AQ=", "properties": {"ref": "Alpha Acid Brewing Co.", "@spider": "northern_california_breweries", "addr:full": "121 Industrial Road., Unit #12", "addr:city": "Belmont", "addr:state": "CA", "website": "http://www.alphaacidbrewing.com/"}},
{"type": "Feature", "id": "v1Yw545mLg9r6w2uNFVbTOCnsyY=", "properties": {"ref": "Altamont Beer Works ", "@spider": "northern_california_breweries", "addr:full": "2402 Research Drive", "addr:city": "Livermore", "addr:state": "CA", "website": "http://altamontbeerworks.com/"}},
{"type": "Feature", "id": "TpdyY_EmRPXhswPVGPa0WA9uHb8=", "properties": {"ref": "Alvarado Street Brewery", "@spider": "northern_california_breweries", "addr:full": "426 Alvarado St.", "addr:city": "Monterey", "addr:state": "CA", "website": "http://www.alvaradostreetbrewery.com/"}},
{"type": "Feature", "id": "vVs0024uarti33V76Ts7vRpVJBE=", "properties": {"ref": "Alvarado Street Brewery (Salinas)", "@spider": "northern_california_breweries", "addr:full": "1315 Dayton St. Suite E", "addr:city": "Salinas", "addr:state": "CA", "website": "http://www.alvaradostreetbrewery.com/"}},
{"type": "Feature", "id": "d-qVdO2hANBuWz7Z57kpONz3zew=", "properties": {"ref": "Amador Brewing Co.", "@spider": "northern_california_breweries", "addr:full": "9659 Main St.", "addr:city": "Plymouth", "addr:state": "CA", "website": "http://www.amadorbrewing.com/"}},
{"type": "Feature", "id": "Q7kkuYXh8Rl5opu_UXgCxpkdLCY=", "properties": {"ref": "Anchor Brewing Co.", "@spider": "northern_california_breweries", "addr:full": "1705 Mariposa St.", "addr:city": "San Francisco", "addr:state": "CA", "website": "http://www.anchorbrewing.com/"}},
{"type": "Feature", "id": "R8UmR-k0ttWq_VU8nMYV_8Vg6sc=", "properties": {"ref": "Anderson Valley Brewing Co.", "@spider": "northern_california_breweries", "addr:full": "17700 Highway 253", "addr:city": "Boonville", "addr:state": "CA", "website": "http://avbc.com/"}},
{"type": "Feature", "id": "YDm0gdu_rFPMlqLdv5t7HY4PUjI=", "properties": {"ref": "Armistice Brewing Co.", "@spider": "northern_california_breweries", "addr:full": "845 Marina Bay Pkwy #1", "addr:city": "Richmond", "addr:state": "CA", "website": "http://www.armisticebrewing.com/"}},
{"type": "Feature", "id": "2vrpc0rJ-876U7QI1S7Fl91BxVY=", "properties": {"ref": "At Ease Brewing Co. ", "@spider": "northern_california_breweries", "addr:full": "1825 I St.", "addr:city": "Sacramento", "addr:state": "CA", "website": "https://www.ateasebrewing.com/"}},
{"type": "Feature", "id": "qBhpgqEMXwlKwtjhvhQA_FJeCIM=", "properties": {"ref": "Auburn Alehouse Brewery", "@spider": "northern_california_breweries", "addr:full": "289 Washington St.", "addr:city": "Auburn", "addr:state": "CA", "website": "http://auburnalehouse.com/"}},
{"type": "Feature", "id": "134fZAnk0vxh7sPLRoTQLUBsFBA=", "properties": {"ref": "Barebottle Brewing", "@spider": "northern_california_breweries", "addr:full": "1525 Cortland Ave.", "addr:city": "San Francisco", "addr:state": "CA", "website": "http://www.barebottle.com/"}},
{"type": "Feature", "id": "MQmrAiE6A1H89CCwOjLIMBgLtYA=", "properties": {"ref": "BarmHaus Brewing Co.", "@spider": "northern_california_breweries", "addr:full": "3782 Winding Creek Ln", "addr:city": "Garden Valley", "addr:state": "CA", "website": "http://www.barmhausco.com/"}},
{"type": "Feature", "id": "DeA15y1GID9eVIlx7UZiMJKXIHw=", "properties": {"ref": "Barrel Brothers Brewing Company", "@spider": "northern_california_breweries", "addr:full": "399 Business Park Court, #506", "addr:city": "Windsor", "addr:state": "CA", "website": "barrelbrothersbrewing.com"}},
{"type": "Feature", "id": "isF1hxgi6zguyy14aLrJrVB4nHI=", "properties": {"ref": "Barrel Head Brewhouse", "@spider": "northern_california_breweries", "addr:full": "1785 Fulton St.", "addr:city": "San Francisco", "addr:state": "CA", "website": "http://www.barrelheadsf.com/"}},
{"type": "Feature", "id": "oP8-N2F6OXe1yt0WrZIuBj5YBno=", "properties": {"ref": "Bartlett Hall ", "@spider": "northern_california_breweries", "addr:full": "242 O'Farrell St.", "addr:city": "San Francisco", "addr:state": "CA", "website": "http://bartletthall.com/"}},
{"type": "Feature", "id": "-59qX-EzdAuFKrxY4CDMgXTGsRU=", "properties": {"ref": "Beach Chalet", "@spider": "northern_california_breweries", "addr:full": "1000 Great Highway", "addr:city": "San Francisco", "addr:state": "CA", "website": "http://www.beachchalet.com/"}},
{"type": "Feature", "id": "0fqC3_ccu0TZUBhBXEVf09MarvU=", "properties": {"ref": "Bear Republic Brewing Co. (Brewery)", "@spider": "northern_california_breweries", "addr:full": "110 Sandholm Lane", "addr:city": "Cloverdale", "addr:state": "CA", "website": "http://bearrepublic.com/"}},
{"type": "Feature", "id": "HbC_yvUe9XOXCWfgGugFBaDGJ64=", "properties": {"ref": "Bear Republic Lakeside", "@spider": "northern_california_breweries", "addr:full": "5000 Roberts Lake Rd", "addr:city": "Rohnert Park", "addr:state": "CA", "website": "https://bearrepublic.com/locations/bear-republic-brewing-company-lakeside/"}},
{"type": "Feature", "id": "LR4abLosPbB_eCMex-_K47Hl2tc=", "properties": {"ref": "Benoit Casper Brewing Co. ", "@spider": "northern_california_breweries", "addr:full": "1201 Pennsylvania Ave.", "addr:city": "Richmond", "addr:state": "CA", "website": "https://bcbrewing.com/"}},
{"type": "Feature", "id": "6ByB_BILC9IE0jtereIuRhk9EAo=", "properties": {"ref": "Berryessa Brewing Co.", "@spider": "northern_california_breweries", "addr:full": "27260 Highway 128", "addr:city": "Winters", "addr:state": "CA", "website": "http://berryessabrewingco.com/home/"}},
{"type": "Feature", "id": "LfPcKUrgpGRYQL0b1Iiy0Bn9AXo=", "properties": {"ref": "Big Meadow Brewing Co. ", "@spider": "northern_california_breweries", "addr:full": "241 Main St. Suite C", "addr:city": "Bridgeport", "addr:state": "CA", "website": "https://www.facebook.com/bigmeadowbrewing/"}},
{"type": "Feature", "id": "rzykwWNfFWcuZGNnvFrU3aoBb1U=", "properties": {"ref": "Big Sexy Brewing Co.", "@spider": "northern_california_breweries", "addr:full": "5861 88th St., Suite 800", "addr:city": "Sacramento", "addr:state": "CA", "website": "http://www.bigsexybrewing.com/"}},
{"type": "Feature", "id": "KbF3rGb_WHOWuubN0evFa_HzruQ=", "properties": {"ref": "Big Stump Brewing Co.", "@spider": "northern_california_breweries", "addr:full": "1716 L St.", "addr:city": "Sacramento", "addr:state": "CA", "website": "http://www.bigstumpbrewco.com/"}},
{"type": "Feature", "id": "MYgps6jcuwJc1DRO0RY4JlRqiwg=", "properties": {"ref": "Bike Dog Brewing Co.", "@spider": "northern_california_breweries", "addr:full": "2534 Industrial Blvd., No. 110", "addr:city": "West Sacramento", "addr:state": "CA", "website": "http://bikedogbrewing.com/"}},
{"type": "Feature", "id": "dxJ-krW2dgq0UfsCzRf5mpqZNis=", "properties": {"ref": "Black Hammer Brewing Co.", "@spider": "northern_california_breweries", "addr:full": "544 Bryant St.", "addr:city": "San Francisco", "addr:state": "CA", "website": "http://www.blackhammerbrewing.com/"}},
{"type": "Feature", "id": "AO4TcMMxMl3RyQohViDoJ9BNPg8=", "properties": {"ref": "Blaker Brewing", "@spider": "northern_california_breweries", "addr:full": "1063 Montclaire Drive", "addr:city": "Ceres", "addr:state": "CA", "website": "https://www.blakerbrewing.com/"}},
{"type": "Feature", "id": "IQKm4W8TOMgofxi4XanBsSHITBg=", "properties": {"ref": "Blue Frog Brewing Co. ", "@spider": "northern_california_breweries", "addr:full": "1740 Travis Blvd. ", "addr:city": "Fairfield", "addr:state": "CA", "website": "http://www.bluefrogbrewingcompany.com/"}},
{"type": "Feature", "id": "5Z6EAzQNZlvq1UcNUnEi-D6N2uc=", "properties": {"ref": "Blue Note Brewing", "@spider": "northern_california_breweries", "addr:full": "750 Dead Cat Alley ", "addr:city": "Woodland", "addr:state": "CA", "website": "http://www.bluenotebrewingcompany.com/"}},
{"type": "Feature", "id": "4HJGfR1xzspHsWTLuW5Xhvy39wo=", "properties": {"ref": "Blue Oak Brewing Co. ", "@spider": "northern_california_breweries", "addr:full": "821 Cherry Lane", "addr:city": "San Carlos", "addr:state": "CA", "website": "http://blueoakbrewing.com/"}},
{"type": "Feature", "id": "mn5AV9yr0UarXPwdQslDO4ZNWas=", "properties": {"ref": "Brewery Twenty Five", "@spider": "northern_california_breweries", "addr:full": "106 3rd St. ", "addr:city": "San Juan Bautista", "addr:state": "CA", "website": "https://www.brewerytwentyfive.com/"}},
{"type": "Feature", "id": "N_oxbGQ0CpoHz1u1vk72pT9wa6Q=", "properties": {"ref": "Brewery Twenty Five ", "@spider": "northern_california_breweries", "addr:full": "106 3rd Street", "addr:city": "San Juan Bautista", "addr:state": "CA", "website": "https://www.brewerytwentyfive.com/"}},
{"type": "Feature", "id": "gJ7Onjj1VhOBokg0N058_CVno3g=", "properties": {"ref": "British Bulldog Brewery", "@spider": "northern_california_breweries", "addr:full": "14540 Camaren Park Dr", "addr:city": "Chico", "addr:state": "CA", "website": "http://www.britishbulldogbrewery.com/"}},
{"type": "Feature", "id": "e5jOel0VOnDwhZDl3PfPIpmVelM=", "properties": {"ref": "Br\u00fcehol Brewing", "@spider": "northern_california_breweries", "addr:full": "4828 East 2nd St.", "addr:city": "Benicia", "addr:state": "CA", "website": "http://www.brueholbrewing.com/"}},
{"type": "Feature", "id": "_lREUonZu4tkSTCOGyfKvXgLZjU=", "properties": {"ref": "Buck Wild Brewing", "@spider": "northern_california_breweries", "addr:full": "401 Jackson St", "addr:city": "Oakland", "addr:state": "CA", "website": "https://www.buckwildbrew.com/"}},
{"type": "Feature", "id": "aAUvHoaWnAZrKbhBSINFdLqYvuM=", "properties": {"ref": "Buffalo Bill's Brewery", "@spider": "northern_california_breweries", "addr:full": "1082 B St.", "addr:city": "Hayward", "addr:state": "CA", "website": "http://buffalobillsbrewery.com/"}},
{"type": "Feature", "id": "Qi6h3U1eC8XrQdEeTXJJ-cnNUFY=", "properties": {"ref": "Burgers and Brewhouse", "@spider": "northern_california_breweries", "addr:full": "1616 J Street", "addr:city": "Sacramento", "addr:state": "CA", "website": "https://www.burgersbrew.com/"}},
{"type": "Feature", "id": "MUhgUUmf4AT4j14LQyyAhYW9KlU=", "properties": {"ref": "Burning Barrel Brewing Company", "@spider": "northern_california_breweries", "addr:full": "11210 Sun Center Dr.", "addr:city": "Rancho Cordova", "addr:state": "CA", "website": "https://www.burningbarrelbrewco.com/"}},
{"type": "Feature", "id": "MAaXVIwA9df4ypO9LzSo_yJY1QE=", "properties": {"ref": "Calicraft Brewing Company", "@spider": "northern_california_breweries", "addr:full": "2700 Mitchell Drive ", "addr:city": "Walnut Creek", "addr:state": "CA", "website": "http://www.calicraft.com/#california-bottled"}},
{"type": "Feature", "id": "t41jj6cqLZN5EDHRzOiog7YybwI=", "properties": {"ref": "Camino Brewing", "@spider": "northern_california_breweries", "addr:full": "718 S. 1st Street", "addr:city": "San Jose", "addr:state": "CA", "website": "http://caminobrewing.com/"}},
{"type": "Feature", "id": "9EdAOAOa77hrBEKOofD8hecQXWE=", "properties": {"ref": "Campbell Brewing Co. ", "@spider": "northern_california_breweries", "addr:full": "200 E. Campbell Ave.", "addr:city": "Campbell", "addr:state": "CA", "website": "http://www.campbellbrewing.com/"}},
{"type": "Feature", "id": "LK8DuiW2a4G8y2sE6n3Rwq7qKIs=", "properties": {"ref": "Campus Brewing", "@spider": "northern_california_breweries", "addr:full": "1520 Terminal St.", "addr:city": "West Sacramento", "addr:state": "CA", "website": "https://www.campusbrewing.com/"}},
{"type": "Feature", "id": "fLP2GlMyuvNSnjUN9jU5Ufs7Jhk=", "properties": {"ref": "Carmel Craft Brewing Company", "@spider": "northern_california_breweries", "addr:full": "3777 The Barnyard", "addr:city": "Carmel", "addr:state": "CA", "website": "https://www.carmelcraft.com/"}},
{"type": "Feature", "id": "tsrhQV7bSzfHEQuJz24g9PeaAOQ=", "properties": {"ref": "Cedar Crest Brewery", "@spider": "northern_california_breweries", "addr:full": "615 Main Street ", "addr:city": "Red Bluff ", "addr:state": "CA", "website": "https://www.facebook.com/cedarcrestbrewery/"}},
{"type": "Feature", "id": "lnqGgYI9tadQpsUvyDbQTVpek-Q=", "properties": {"ref": "Cellarmaker Brewing Co.", "@spider": "northern_california_breweries", "addr:full": "1150 Howard St.", "addr:city": "San Francisco", "addr:state": "CA", "website": "http://www.cellarmakerbrewing.com/"}},
{"type": "Feature", "id": "GJ2HcCWwnJkX2HImuhVZ1ZGR-Vk=", "properties": {"ref": "Cellarmaker House of Pizza", "@spider": "northern_california_breweries", "addr:full": "3193 Mission St.", "addr:city": "San Francisco", "addr:state": "CA", "website": "https://www.cellarmakerbrewing.com/"}},
{"type": "Feature", "id": "9iy1xSNSvJc9WVBTSvq8__4XKzU=", "properties": {"ref": "Channel Brewing Co.", "@spider": "northern_california_breweries", "addr:full": "110 N. San Joaquin St.", "addr:city": "Stockton", "addr:state": "CA", "addr:country": "CO", "website": "https://channelbrewing.co/"}},
{"type": "Feature", "id": "NBMs0LldgIV5SzJ-SqSiFGMAut8=", "properties": {"ref": "Claimstake Brewing Company", "@spider": "northern_california_breweries", "addr:full": "11366 Monier Park Place", "addr:city": "Rancho Cordova", "addr:state": "CA", "website": "http://claimstakebrewing.com/index.html"}},
{"type": "Feature", "id": "lqxK9FUghvjGCEHx5VDcC5w--ck=", "properties": {"ref": "Clandestine Brewing", "@spider": "northern_california_breweries", "addr:full": "980 S. 1st Street, Ste. B", "addr:city": "San Jose ", "addr:state": "CA", "website": "http://www.clandestinebrewing.com/index/"}},
{"type": "Feature", "id": "UbPfJJ4RDFi88G3z_WaqXwRRxIg=", "properties": {"ref": "Cloverdale Ale Co. ", "@spider": "northern_california_breweries", "addr:full": "131 E. First St.", "addr:city": "Cloverdale", "addr:state": "CA", "website": "http://ruthmcgowansbrewpub.com/"}},
{"type": "Feature", "id": "YaxifHTk7-QxSsPaJhWqC1Tk9Lw=", "properties": {"ref": "Cold Water Brewery & Grill", "@spider": "northern_california_breweries", "addr:full": "2544 Lake Tahoe Blvd.", "addr:city": "South Lake Tahoe", "addr:state": "CA", "website": "http://www.tahoecoldwaterbrewery.com/"}},
{"type": "Feature", "id": "O2kJtc0L5-6z1lQW1XzPNF7hjow=", "properties": {"ref": "Contentment Brewing Compay", "@spider": "northern_california_breweries", "addr:full": "208 Campus Way", "addr:city": "Modesto", "addr:state": "CA", "website": "http://www.contentmentbrewing.com/"}},
{"type": "Feature", "id": "85hKoNWXqGnSa8dQCmGqERsNxUw=", "properties": {"ref": "Cool Beerwerks", "@spider": "northern_california_breweries", "addr:full": "5020 Ellinghouse Drive", "addr:city": "Cool", "addr:state": "CA", "website": "http://www.cbwbeer.com/"}},
{"type": "Feature", "id": "S4CuSxq47IvCdhCT9NNepni3aWE=", "properties": {"ref": "Cooperage Brewing Co. ", "@spider": "northern_california_breweries", "addr:full": "981 Airway Court", "addr:city": "Santa Rosa", "addr:state": "CA", "website": "http://www.cooperagebrewing.com/"}},
{"type": "Feature", "id": "UNFkxrcHhsRon5vMw9f-hus9uqQ=", "properties": {"ref": "Corralitos Brewing Co. ", "@spider": "northern_california_breweries", "addr:full": "2536 Freedom Blvd.", "addr:city": "Watsonville", "addr:state": "CA", "website": "http://www.corralitosbrewingco.com/"}},
{"type": "Feature", "id": "VhGLITYfpmCFpIuVK-agrXauW6U=", "properties": {"ref": "Crooked Goat Brewing", "@spider": "northern_california_breweries", "addr:full": "120 Morris Street, Suite 120", "addr:city": "Sebastopol ", "addr:state": "CA", "website": "http://www.crookedgoatbrewing.com/"}},
{"type": "Feature", "id": "oBXEYCV7rtiVh9tn-Iyr-JynUzk=", "properties": {"ref": "Crooked Lane Brewing Company", "@spider": "northern_california_breweries", "addr:full": "536 Grass Valley Highway", "addr:city": "Auburn", "addr:state": "CA", "website": "http://www.crookedlanebrewing.com/"}},
{"type": "Feature", "id": "kE1L6ZOubeQhghwBmRojcHjQcVU=", "properties": {"ref": "Danville Brewing Co.", "@spider": "northern_california_breweries", "addr:full": "200 Railroad Ave. ", "addr:city": "Danville ", "addr:state": "CA", "website": "http://www.danvillebrewing.com/home.html"}},
{"type": "Feature", "id": "HrAn_n0iCcy8qZN8fRqn6V5ls5k=", "properties": {"ref": "Dark Heart Brewing ", "@spider": "northern_california_breweries", "addr:full": "4339 Auburn Blvd. Suite B", "addr:city": "Sacramento", "addr:state": "CA", "website": "https://darkheartbrewing.com/"}},
{"type": "Feature", "id": "1Ya1nL8FMZ3hlQm6APYKRJSxIUY=", "properties": {"ref": "Das Brew", "@spider": "northern_california_breweries", "addr:full": "44356 S. Grimmer Blvd.", "addr:city": "Fremont", "addr:state": "CA", "website": "http://www.dasbrewinc.com/"}},
{"type": "Feature", "id": "dxhHE8Zm5mDx-wh7vQd_H2-7ts0=", "properties": {"ref": "Del Cielo Brewing", "@spider": "northern_california_breweries", "addr:full": "701 Escobar St Unit A", "addr:city": "Martinez", "addr:state": "CA", "website": "http://www.delcielobrewing.com/"}},
{"type": "Feature", "id": "gyXWF2Lf6cQ8CX62fS-YhVfD9FE=", "properties": {"ref": "Delta Borne Brewing", "@spider": "northern_california_breweries", "addr:full": "5444 Watt Ave.", "addr:city": "North Highlands", "addr:state": "CA", "website": "https://www.facebook.com/DeltaBorneBrew"}},
{"type": "Feature", "id": "Jb5xWUT5cqpLDLak6YrzuJ1AmuQ=", "properties": {"ref": "Dempsey's Restaurant and Brewery", "@spider": "northern_california_breweries", "addr:full": "50 E. Washington St. ", "addr:city": "Petaluma", "addr:state": "CA", "website": "http://dempseys.com/"}},
{"type": "Feature", "id": "KwnWacKLneK-ih73Xw4lBBND-ns=", "properties": {"ref": "Device Brewing Co.", "@spider": "northern_california_breweries", "addr:full": "8166 14th Ave.", "addr:city": "Sacramento", "addr:state": "CA", "website": "http://devicebrewing.com/home"}},
{"type": "Feature", "id": "06LFzkSubQOK8FP8o5wmcjAials=", "properties": {"ref": "Devil's Canyon Brewing Co.", "@spider": "northern_california_breweries", "addr:full": "935 Washington St. ", "addr:city": "San Carlos", "addr:state": "CA", "website": "http://devilscanyon.com/"}},
{"type": "Feature", "id": "K9uZPqfJZ7GoGhWMIJ_iLnFWIXo=", "properties": {"ref": "Discretion Brewing ", "@spider": "northern_california_breweries", "addr:full": "2703 41st Ave., Suite A", "addr:city": "Soquel", "addr:state": "CA", "website": "http://www.discretionbrewing.com/"}},
{"type": "Feature", "id": "Tl_StSFyuizl4ASq8onO0AG19Oc=", "properties": {"ref": "Distant Brewing", "@spider": "northern_california_breweries", "addr:full": "568 Old Mammoth Road", "addr:city": "Mammoth Lakes", "addr:state": "CA", "website": "http://distantbeer.com/"}},
{"type": "Feature", "id": "xR8JY0VehYpcezx0gTVw_0ALhm0=", "properties": {"ref": "Drake's Brewing Co.", "@spider": "northern_california_breweries", "addr:full": "1933 Davis St., Building 177", "addr:city": "San Leandro", "addr:state": "CA", "website": "http://drinkdrakes.com/"}},
{"type": "Feature", "id": "sMrJQY6C9AlX3P1O-WYg81NefeI=", "properties": {"ref": "Drake's Dealership", "@spider": "northern_california_breweries", "addr:full": "2325 Broadway", "addr:city": "Oakland", "addr:state": "CA", "website": "http://drinkdrakes.com"}},
{"type": "Feature", "id": "WTNrYRD3WCoDbRnRSeDZ7Gf37nA=", "properties": {"ref": "Dreaming Dog Brewery", "@spider": "northern_california_breweries", "addr:full": "2501 West Taron Ct", "addr:city": "Elk Grove", "addr:state": "CA", "website": "http://dreamingdogbrewery.com/"}},
{"type": "Feature", "id": "lv7PNBIx2USHdbDpLdx_f2Pqks4=", "properties": {"ref": "Dueling Dogs Brewing Co.", "@spider": "northern_california_breweries", "addr:full": "3030 Barrett Park Lane", "addr:city": "Lincoln", "addr:state": "CA", "website": "http://www.duelingdogsbrewing.com/"}},
{"type": "Feature", "id": "tnHgqd1s8OxQ_e-emS0fVIuNHS8=", "properties": {"ref": "Dunloe Brewing ", "@spider": "northern_california_breweries", "addr:full": "1606 Olive Drive", "addr:city": "Davis", "addr:state": "CA", "website": "https://www.dunloebrewing.com/"}},
{"type": "Feature", "id": "uq7a9fTLFtFXSUyl1eURkknmSsM=", "properties": {"ref": "Dunsmuir Brewery Works", "@spider": "northern_california_breweries", "addr:full": "5701 Dunsmuir Ave.", "addr:city": "Dunsmuir", "addr:state": "CA", "website": "http://www.dunsmuirbreweryworks.com/"}},
{"type": "Feature", "id": "8Sw9WYp_KEiFyG-1O3w1CM8q-V8=", "properties": {"ref": "Dust Bowl Brewery & Taproom", "@spider": "northern_california_breweries", "addr:full": "3000 Fulkerth Road", "addr:city": "Turlock", "addr:state": "CA", "website": "https://dustbowlbrewing.com/db_locations/brewery-taproom/"}},
{"type": "Feature", "id": "G_BDcUFhA9fIQnNoimeYZHYuAUY=", "properties": {"ref": "Dust Bowl Brewery Monterey Tap Depot", "@spider": "northern_california_breweries", "addr:full": "290 Figueroa St. ", "addr:city": "Monterey", "addr:state": "CA", "website": "https://dustbowlbrewing.com/db_locations/tap-depot/"}},
{"type": "Feature", "id": "yO63IenGK6vqJ_jiPZg3a45o7a4=", "properties": {"ref": "Dust Bowl Brewing Downtown Tap Room", "@spider": "northern_california_breweries", "addr:full": "200 W. Main St. ", "addr:city": "Turlock", "addr:state": "CA", "website": "http://www.dustbowlbrewing.com/home/"}},
{"type": "Feature", "id": "56DqbmYAkMwhLPKbVVDNVKgWY8A=", "properties": {"ref": "E.J. Phair Brewing", "@spider": "northern_california_breweries", "addr:full": "300 Cumberland St. ", "addr:city": "Pittsburg", "addr:state": "CA", "website": "http://www.ejphair.com/"}},
{"type": "Feature", "id": "m6p5wLML6BNPRecUiLYNXIIQoG8=", "properties": {"ref": "East Brother Beer Company", "@spider": "northern_california_breweries", "addr:full": "1001 Canal Blvd.", "addr:city": "Richmond", "addr:state": "CA", "website": "http://www.eastbrotherbeer.com/"}},
{"type": "Feature", "id": "kN-HzYHdVlb3SKzNz7hjjQBbI_w=", "properties": {"ref": "East Cliff Brewing Co.", "@spider": "northern_california_breweries", "addr:full": "21517 E. Cliff Drive", "addr:city": "Santa Cruz", "addr:state": "CA", "website": "http://www.eastcliffbrewing.com/"}},
{"type": "Feature", "id": "we3dmfkMsuiZ7r-htAi9WVGhdPk=", "properties": {"ref": "Eel River Brewing Co.", "@spider": "northern_california_breweries", "addr:full": "1777 Alamar Way", "addr:city": "Fortuna", "addr:state": "CA", "website": "http://eelriverbrewing.com/"}},
{"type": "Feature", "id": "jbuMUky3wnHU7u3GpaxQVzLNanM=", "properties": {"ref": "Eight Bridges Brewing", "@spider": "northern_california_breweries", "addr:full": "332 Earhart Way", "addr:city": "Livermore", "addr:state": "CA", "website": "http://8bridgesbrewing.com/"}},
{"type": "Feature", "id": "eX9q0p8WLSFeK0-yjRxSq50FV84=", "properties": {"ref": "El Toro Brewing Co. ", "@spider": "northern_california_breweries", "addr:full": "17605 Monterey Road", "addr:city": "Morgan Hill", "addr:state": "CA", "website": "http://www.eltorobrewing.com/"}},
{"type": "Feature", "id": "bfkXKv5S78WDyVVSKRKtlVR9y80=", "properties": {"ref": "Elevation 66 Brewing Co. ", "@spider": "northern_california_breweries", "addr:full": "10082 San Pablo Ave. ", "addr:city": "El Cerrito", "addr:state": "CA", "website": "http://www.elevation66.com/"}},
{"type": "Feature", "id": "OvTfiWA1BFLGunKV1lInYPjkHzE=", "properties": {"ref": "Elkhorn Slough Brewery", "@spider": "northern_california_breweries", "addr:full": "65 Hangar Way, Unit D", "addr:city": "Watsonville", "addr:state": "CA", "website": "http://www.elkhornsloughbrew.com/"}},
{"type": "Feature", "id": "o5_FFDFEKCGy__UCU5oeyGFzMa0=", "properties": {"ref": "English Ales Brewery ", "@spider": "northern_california_breweries", "addr:full": "223 Reindollar Ave", "addr:city": "Marina", "addr:state": "CA", "website": "http://englishalesbrewery.com/"}},
{"type": "Feature", "id": "HPLEMxOfBi6HRoUwqe5GvOxgPnw=", "properties": {"ref": "Epidemic Ales", "@spider": "northern_california_breweries", "addr:full": "150 Mason Circle", "addr:city": "Concord", "addr:state": "CA", "website": "http://www.epidemicales.com/"}},
{"type": "Feature", "id": "jJ7zKvVLUt8sYDcb6xuxZ0YLra4=", "properties": {"ref": "Etna Brewing Co.", "@spider": "northern_california_breweries", "addr:full": "131 Callahan St.", "addr:city": "Etna", "addr:state": "CA", "website": "http://www.etnabrew.com/"}},
{"type": "Feature", "id": "Z1IwVYN35VOlHuYgdlEj1gZV4NU=", "properties": {"ref": "Etna Brewing Co. (Taphouse)", "@spider": "northern_california_breweries", "addr:full": "231 W Miner St.", "addr:city": "Yreka", "addr:state": "CA", "website": "http://www.etnabrew.com/"}},
{"type": "Feature", "id": "LIYL5tTpFtcI-aPiS_i7rgcXdxI=", "properties": {"ref": "Eureka Peak Brewing Company", "@spider": "northern_california_breweries", "addr:full": "72056 CA-70", "addr:city": "Portola", "addr:state": "CA", "website": "https://www.chaletviewlodge.com/"}},
{"type": "Feature", "id": "tspodsf-Ia_zP6i-UUCR1YxMN78=", "properties": {"ref": "Faction Brewing", "@spider": "northern_california_breweries", "addr:full": "2501 Monarch St.", "addr:city": "Alameda", "addr:state": "CA", "website": "http://factionbrewing.com/"}},
{"type": "Feature", "id": "ew-r5p20NZyiA4dF9cXHDl4Iv2w=", "properties": {"ref": "Fair Oaks Brew Pub", "@spider": "northern_california_breweries", "addr:full": "7988 California Ave. ", "addr:city": "Fair Oaks", "addr:state": "CA", "website": "http://fairoaksbrewpub.com/"}},
{"type": "Feature", "id": "mLNjey5NZK6-FE6DD8bXx-17pmg=", "properties": {"ref": "Fall River Brewing Co.", "@spider": "northern_california_breweries", "addr:full": "1030 E Cypress Ave.", "addr:city": "Redding", "addr:state": "CA", "website": "http://fallriverbrewing.com/"}},
{"type": "Feature", "id": "qqi2z7UI8BLKIsRJD7sPO7mBlP0=", "properties": {"ref": "Faultline Brewing Co. ", "@spider": "northern_california_breweries", "addr:full": "1235 Oakmead Parkway", "addr:city": "Sunnyvale", "addr:state": "CA", "website": "http://www.faultlinebrewing.com/"}},
{"type": "Feature", "id": "LxyyzPm2uN1HJJoccE1DMd01ELQ=", "properties": {"ref": "Feather Falls Casino Brewing Co. ", "@spider": "northern_california_breweries", "addr:full": "#3 Alverda Drive", "addr:city": "Oroville ", "addr:state": "CA", "website": "http://featherfallscasino.com/dining/brewing-co/"}},
{"type": "Feature", "id": "6CrT_GTHF25oMwAPidNmXfe-ms0=", "properties": {"ref": "Federation Brewing", "@spider": "northern_california_breweries", "addr:full": "420 Third St. Unit A", "addr:city": "Oakland", "addr:state": "CA", "website": "http://www.federationbrewing.com/"}},
{"type": "Feature", "id": "FSk9kFTMUa7uFEfjeMgRJC9RvJ4=", "properties": {"ref": "Ferment Drink Repeat - FDR Brewing", "@spider": "northern_california_breweries", "addr:full": "2636 San Bruno Ave.", "addr:city": "San Francisco", "addr:state": "CA", "website": "http://www.fermentdrinkrepeat.com/"}},
{"type": "Feature", "id": "hVtKNy-Jj1gKlxO1MtnpfviP9g0=", "properties": {"ref": "Fieldwork Brewing Co.", "@spider": "northern_california_breweries", "addr:full": "1160 Sixth St. ", "addr:city": "Berkeley", "addr:state": "CA", "website": "http://fieldworkbrewing.com/"}},
{"type": "Feature", "id": "fuPMdL0BnpTE-kRgPc9nQUTcW2o=", "properties": {"ref": "Fieldwork Brewing Co. (Corte Madera)", "@spider": "northern_california_breweries", "addr:full": "107 Corte Madera Town Ctr", "addr:city": "Corte Madera", "addr:state": "CA", "website": "https://fieldworkbrewing.com/corte-madera/"}},
{"type": "Feature", "id": "nlX929mlaZGuxDNvKwhK5kRFrO0=", "properties": {"ref": "Fieldwork Brewing Co. (Monterey)", "@spider": "northern_california_breweries", "addr:full": "560 Munras Ave.", "addr:city": "Monterey", "addr:state": "CA", "website": "https://fieldworkbrewing.com/monterey/"}},
{"type": "Feature", "id": "iLrT85qvZK16HNOBTxGQtbXeul0=", "properties": {"ref": "Fieldwork Brewing Co. (Napa)", "@spider": "northern_california_breweries", "addr:full": "610 First St.", "addr:city": "Napa", "addr:state": "CA", "website": "http://fieldworkbrewing.com/napa/"}},
{"type": "Feature", "id": "TM-DAz_0lyPHugarPzaegqm4Kww=", "properties": {"ref": "Fieldwork Brewing Co. (Sacramento)", "@spider": "northern_california_breweries", "addr:full": "1805 Capitol Ave.", "addr:city": "Sacramento", "addr:state": "CA", "website": "http://fieldworkbrewing.com/sacramento/"}},
{"type": "Feature", "id": "SP14xl9k4ryodXuTUQT-hT-hM98=", "properties": {"ref": "Fieldwork Brewing Co. (San Mateo)", "@spider": "northern_california_breweries", "addr:full": "3030 South Delaware St.", "addr:city": "San Mateo", "addr:state": "CA", "website": "https://fieldworkbrewing.com/san-mateo/"}},
{"type": "Feature", "id": "zerOdBq0Ai-UsRHrXBsBcB8Xhhs=", "properties": {"ref": "Fieldwork Brewing Co. (San Ramon)", "@spider": "northern_california_breweries", "addr:full": "6000 Bollinger Canyon Road", "addr:city": "San Ramon", "addr:state": "CA", "website": "https://fieldworkbrewing.com/san-ramon/"}},
{"type": "Feature", "id": "LBctNfq1OGyCuulOGadRgvoIILo=", "properties": {"ref": "Fifty Fifty Brewing Co.", "@spider": "northern_california_breweries", "addr:full": "11197 Brockway Road, No. 1", "addr:city": "Truckee", "addr:state": "CA", "website": "http://fiftyfiftybrewing.com/"}},
{"type": "Feature", "id": "KK8WoudTsF29kAPMnLocv8CGAqc=", "properties": {"ref": "Final Draft Brewing Company", "@spider": "northern_california_breweries", "addr:full": "1600 California Street", "addr:city": "Redding", "addr:state": "CA", "website": "https://www.finaldraftbrewingcompany.com/"}},
{"type": "Feature", "id": "Jy1uQjdXKgFL7Bz1MDwi_qlLVgM=", "properties": {"ref": "Five Sons Brewing ", "@spider": "northern_california_breweries", "addr:full": "701 Escobar St Unit C", "addr:city": "Martinez", "addr:state": "CA", "website": "http://www.fivesunsbrewing.com/"}},
{"type": "Feature", "id": "Nb7rUrTf0ORIj9-WhuAx1SZUhHI=", "properties": {"ref": "Five Window Beer Company ", "@spider": "northern_california_breweries", "addr:full": "9 W. Locust Street", "addr:city": "Lodi", "addr:state": "CA", "website": "http://www.fivewindow.com/"}},
{"type": "Feature", "id": "AzvV0M9yaK4cI-XQlQIv3XNcXbg=", "properties": {"ref": "Flatland Brewing Company", "@spider": "northern_california_breweries", "addr:full": "9183 Survey Road, Suite 104", "addr:city": "Elk Grove", "addr:state": "CA", "website": "http://flatlandbrewingco.com/home/"}},
{"type": "Feature", "id": "Xn6K_W1aAlFTP5Sy9rHdlKM5pUA=", "properties": {"ref": "FloodCraft Brewing Co.", "@spider": "northern_california_breweries", "addr:full": "777 The Alameda", "addr:city": "San Jose", "addr:state": "CA", "website": "https://www.facebook.com/pages/Floodcraft-Brewing-Company/1089943197772257"}},
{"type": "Feature", "id": "wf4swjt2pzN3g3AWXsqAueEV2hQ=", "properties": {"ref": "Fogbelt Brewing Co. ", "@spider": "northern_california_breweries", "addr:full": "1305 Cleveland Ave. ", "addr:city": "Santa Rosa", "addr:state": "CA", "website": "http://www.fogbeltbrewing.com/"}},
{"type": "Feature", "id": "I7CKinwQxElxyYf7bQVOdKyxFGA=", "properties": {"ref": "Fort Point Beer Co. (Ferry Building)", "@spider": "northern_california_breweries", "addr:full": "One Ferry Building, Kiosk #54", "addr:city": "San Francisco", "addr:state": "CA", "website": "http://www.fortpointbeer.com/"}},
{"type": "Feature", "id": "HfuIW1iZnVLt5r5XoX2tqVcVZ7Q=", "properties": {"ref": "Fort Point Beer Co. (Mission)", "@spider": "northern_california_breweries", "addr:full": "742 Valencia St.", "addr:city": "San Francisco", "addr:state": "CA", "website": "http://www.fortpointbeer.com/"}},
{"type": "Feature", "id": "q2RTRH2MxOfrKjhYTOpvipoENn4=", "properties": {"ref": "Fort Rock Brewing ", "@spider": "northern_california_breweries", "addr:full": "12401 Folsom Blvd., Suite 110", "addr:city": "Rancho Cordova", "addr:state": "CA", "website": "http://fortrockbrewing.com/"}},
{"type": "Feature", "id": "qFhQ9ev6Ox5omBTaEAcX0QUNhKE=", "properties": {"ref": "Fountainhead Brewing", "@spider": "northern_california_breweries", "addr:full": "4621 24th St.", "addr:city": "Sacramento", "addr:state": "CA", "website": "http://www.fountainheadbrewingco.com/"}},
{"type": "Feature", "id": "fiFYjxTZryU10H-swATlxclLiUE=", "properties": {"ref": "Freewheel Brewing Co.", "@spider": "northern_california_breweries", "addr:full": "3736 Florence St. ", "addr:city": "Redwood City", "addr:state": "CA", "website": "http://freewheelbrewing.com/"}},
{"type": "Feature", "id": "NlpyKJ01CUrmkm6RA6GO3vxmH-M=", "properties": {"ref": "Fruition Brewing ", "@spider": "northern_california_breweries", "addr:full": "918 E. Lake Ave.", "addr:city": "Watsonville", "addr:state": "CA", "website": "https://www.fruitionbrewing.com/"}},
{"type": "Feature", "id": "SAypyUwlNrcB_ec-x4r2S4sGhNc=", "properties": {"ref": "Ghost Town Brewing", "@spider": "northern_california_breweries", "addr:full": "1960 Adeline St. ", "addr:city": "Oakland", "addr:state": "CA", "website": "https://www.ghosttownbrewing.com/"}},
{"type": "Feature", "id": "MBLNwPV-ZFAsBE30yeHfFYdM7mo=", "properties": {"ref": "Ghostwood Beer Co. ", "@spider": "northern_california_breweries", "addr:full": "965 Brewster Ave. ", "addr:city": "Redwood City", "addr:state": "CA", "website": "https://www.ghostwoodbeer.com/"}},
{"type": "Feature", "id": "92_fuBW0jH8vMR4r8kNYd4s2lwI=", "properties": {"ref": "Gilman Brewing Co. (Berkeley)", "@spider": "northern_california_breweries", "addr:full": "912 Gilman Street", "addr:city": "Berkeley", "addr:state": "CA", "website": "http://gilmanbrew.com/"}},
{"type": "Feature", "id": "6bQAQ3PD3a81_YoC-AbsC1QCmFA=", "properties": {"ref": "Gilman Brewing Co. (Daly City)", "@spider": "northern_california_breweries", "addr:full": "2001 Junipero Serra Blvd.", "addr:city": "Daly City", "addr:state": "CA", "website": "http://gilmanbrew.com/"}},
{"type": "Feature", "id": "T3PM4jgQX45MN2snvySazSRCWhc=", "properties": {"ref": "Goat House Brewing", "@spider": "northern_california_breweries", "addr:full": "600 Wise Road", "addr:city": "Lincoln", "addr:state": "CA", "website": "http://www.goathousebrewing.com/GoatHouse_Brewing_Co/Home.html"}},
{"type": "Feature", "id": "z-_krR-JV9qmNRUcZxPsj2UhaX8=", "properties": {"ref": "Gold Hill Vineyard and Brewery", "@spider": "northern_california_breweries", "addr:full": "5660 Vineyard Lane", "addr:city": "Placerville", "addr:state": "CA", "website": "http://www.goldhillvineyard.com/"}},
{"type": "Feature", "id": "ddDfLHkD_kfIiHo4aG2qE3iTabk=", "properties": {"ref": "Golden State Brewery", "@spider": "northern_california_breweries", "addr:full": "1252 Memorex Drive", "addr:city": "Santa Clara", "addr:state": "CA", "website": "http://goldenstate.beer/"}},
{"type": "Feature", "id": "pXZ1SZbqYvDbGlSibOwZgNUrLSU=", "properties": {"ref": "Gordon Biersch Brewing Co.", "@spider": "northern_california_breweries", "addr:full": "357 E. Taylor St.", "addr:city": "San Jose", "addr:state": "CA", "website": "http://www.gordonbiersch.com/"}},
{"type": "Feature", "id": "ztRaC6yODiEbwnZVJWOi3E9t_uM=", "properties": {"ref": "Grass Valley Brewing Co. ", "@spider": "northern_california_breweries", "addr:full": "141 E. Main St.", "addr:city": "Grass Valley", "addr:state": "CA", "website": "https://gvbrew.com/"}},
{"type": "Feature", "id": "_YT_jKbD_2vAby-eOT_OHE2-QP4=", "properties": {"ref": "Grav South Brew Co.", "@spider": "northern_california_breweries", "addr:full": "7950 Redwood Drive, Suite 15", "addr:city": "Cotati", "addr:state": "CA", "website": "http://www.gravsouthbrewco.com"}},
{"type": "Feature", "id": "fo8BGK7_c7MZGNucxXF-efeS080=", "properties": {"ref": "Gyppo Ale Mill", "@spider": "northern_california_breweries", "addr:full": "1661 Upper Pacific Dr.", "addr:city": "Shelter Cove", "addr:state": "CA", "website": "http://www.gyppo.com/"}},
{"type": "Feature", "id": "h0zKAv0YEC9nmOe_YladB-8KdO4=", "properties": {"ref": "Half Moon Bay Brewing Co. ", "@spider": "northern_california_breweries", "addr:full": "390 Capistrano Road", "addr:city": "Half Moon Bay", "addr:state": "CA", "website": "http://www.hmbbrewingco.com/"}},
{"type": "Feature", "id": "ja61-HDbjfge7p9hOpUf4gByh0M=", "properties": {"ref": "Hapa's Brewing Co. ", "@spider": "northern_california_breweries", "addr:full": "460 Lincoln Ave. Ste. 90", "addr:city": "San Jose", "addr:state": "CA", "website": "http://hapasbrewing.com/"}},
{"type": "Feature", "id": "aXpZAYtIIUXtzgcXE0mexEozZiU=", "properties": {"ref": "Harmonic Brewing", "@spider": "northern_california_breweries", "addr:full": "1050 26th St.", "addr:city": "San Francisco", "addr:state": "CA", "website": "http://harmonicbrewing.com/"}},
{"type": "Feature", "id": "icLkKksk5H2d3ePkbIsKYVROjBg=", "properties": {"ref": "HenHouse Brewing Co.", "@spider": "northern_california_breweries", "addr:full": "322 Bellevue Ave.", "addr:city": "Santa Rosa", "addr:state": "CA", "website": "http://www.henhousebrewing.com/"}},
{"type": "Feature", "id": "JK_auVk8s9FlqW7xGBDfpgAMNBw=", "properties": {"ref": "HenHouse Brewing Company Palace of Barrels", "@spider": "northern_california_breweries", "addr:full": "1333 N McDowell Blvd", "addr:city": "Petaluma", "addr:state": "CA", "website": "https://www.facebook.com/henhousebrewing/"}},
{"type": "Feature", "id": "Re5F8_uKpgz5jyvhMnbBYZSguuM=", "properties": {"ref": "Heretic Brewing Co.", "@spider": "northern_california_breweries", "addr:full": "1052 Horizon Drive, Suite B", "addr:city": "Fairfield", "addr:state": "CA", "website": "http://hereticbrewing.com/"}},
{"type": "Feature", "id": "jWlxg41VCBYCE1RSjbUWurFDH_4=", "properties": {"ref": "Hermitage Brewing Co. ", "@spider": "northern_california_breweries", "addr:full": "1627 S. 7th St.", "addr:city": "San Jose", "addr:state": "CA", "website": "http://hermitagebrewing.com/"}},
{"type": "Feature", "id": "5woSVLSZOCR75M5m2hrcoGreYJY=", "properties": {"ref": "Highway 1 Brewing Co. ", "@spider": "northern_california_breweries", "addr:full": "5720 Cabrillo Highway", "addr:city": "Pescadero", "addr:state": "CA", "website": "http://www.highway1brewing.com/"}},
{"type": "Feature", "id": "Wp3dcMG6ltCAKzXPOApUWPXjFUQ=", "properties": {"ref": "Hillenbrand Farmhaus Brewery", "@spider": "northern_california_breweries", "addr:full": "5100 Virginiatown Road", "addr:city": "Newcastle", "addr:state": "CA", "website": "http://hillenbrandbrewery.com/"}},
{"type": "Feature", "id": "cYzQz4wnf58TW0JWBmrbGDr4L7o=", "properties": {"ref": "Hoi Polloi Brewpub and Beat Lounge", "@spider": "northern_california_breweries", "addr:full": "1763 Alcatraz Ave.", "addr:city": "Berkeley", "addr:state": "CA", "website": "https://www.hoipolloibrewing.com/"}},
{"type": "Feature", "id": "E3srscuJYtyH4A0ulpUT76EHmj8=", "properties": {"ref": "Hooby's Brewing", "@spider": "northern_california_breweries", "addr:full": "9 E Main St., Suite J", "addr:city": "Winters", "addr:state": "CA", "website": "https://www.hoobysbrew.com/"}},
{"type": "Feature", "id": "4hbd9QkkqRiQl9UpO9V2VpYR1Vs=", "properties": {"ref": "Hop Dogma Brewing Co.", "@spider": "northern_california_breweries", "addr:full": "270 Capistrano Rd.", "addr:city": "Half Moon Bay", "addr:state": "CA", "website": "http://hopdogma.com/"}},
{"type": "Feature", "id": "d8tjyRWs2PQaZRuffI83iofkO1o=", "properties": {"ref": "Hop Oast", "@spider": "northern_california_breweries", "addr:full": "2887 Bryant Street", "addr:city": "San Francisco", "addr:state": "CA", "website": "https://hopoast.com/"}},
{"type": "Feature", "id": "ezv-RQYs4eWb_i3Dsd6etX8x7bU=", "properties": {"ref": "Hoppy Brewing Co.", "@spider": "northern_california_breweries", "addr:full": "6300 Folsom Blvd.", "addr:city": "Sacramento", "addr:state": "CA", "website": "http://www.hoppy.com/"}},
{"type": "Feature", "id": "T3IEVsWEngi1jRluTFB61PdnI8Q=", "properties": {"ref": "Humble Sea Brewing Co. ", "@spider": "northern_california_breweries", "addr:full": "820 Swift St.", "addr:city": "Santa Cruz", "addr:state": "CA", "website": "http://humblesea.com/"}},
{"type": "Feature", "id": "k79TCoK5nxn1gRbZqXrFIfNPeCU=", "properties": {"ref": "Humboldt Regeneration", "@spider": "northern_california_breweries", "addr:full": "2320 Central Ave.", "addr:city": "McKinleyville", "addr:state": "CA", "website": "http://www.humboldtregeneration.com/"}},
{"type": "Feature", "id": "kYWa_yVzvJ2H9gdRUYps_9vDNC8=", "properties": {"ref": "Hwy 50 Brewery", "@spider": "northern_california_breweries", "addr:full": "344 Carson Road", "addr:city": "Camino", "addr:state": "CA", "website": "https://hwy50brewery.com/"}},
{"type": "Feature", "id": "nc8PurLPC3tdiV2eu8ojr4Ym0d4=", "properties": {"ref": "Idol Beer Works", "@spider": "northern_california_breweries", "addr:full": "100 South Sacramento St. ", "addr:city": "Lodi", "addr:state": "CA", "website": "https://www.idolbeerworks.com/"}},
{"type": "Feature", "id": "olXmQFBm2dJGIhPtN47pUctX5jg=", "properties": {"ref": "Iron Springs Pub and Brewery", "@spider": "northern_california_breweries", "addr:full": "765 Center Blvd.", "addr:city": "Fairfax", "addr:state": "CA", "website": "http://ironspringspub.com/"}},
{"type": "Feature", "id": "Mlisc2aXgIbiS-xHHW-CvsIuHJE=", "properties": {"ref": "Iron Springs Public House", "@spider": "northern_california_breweries", "addr:full": "901 4th St.", "addr:city": "San Rafael", "addr:state": "CA", "website": "http://ironspringspub.com/publichouse/"}},
{"type": "Feature", "id": "MgHVo39W-RNznomdqRV67WF37MI=", "properties": {"ref": "Jack Russell Farm Brewery ", "@spider": "northern_california_breweries", "addr:full": "2380 Larsen Drive", "addr:city": "Camino", "addr:state": "CA", "website": "https://www.facebook.com/jackrussellfarmbrewery/"}},
{"type": "Feature", "id": "rUwOZTN3Hc7YTRpN5Yxum53hQio=", "properties": {"ref": "Jack's Brewing", "@spider": "northern_california_breweries", "addr:full": "39176 Argonaut Way", "addr:city": "Fremont", "addr:state": "CA", "website": "https://www.facebook.com/JacksBrewing/"}},
{"type": "Feature", "id": "ikdTaUYDCPOsgSi90OBP2rXeuQY=", "properties": {"ref": "Jackrabbit Brewing", "@spider": "northern_california_breweries", "addr:full": "1323 Terminal St. ", "addr:city": "West Sacramento", "addr:state": "CA", "website": "http://www.jackrabbitbrewingcompany.com/"}},
{"type": "Feature", "id": "bFD_-kQuok6e2m2imcPpbXUlKJk=", "properties": {"ref": "Junction Brewery and Grill", "@spider": "northern_california_breweries", "addr:full": "110 W. American Canyon Rd", "addr:city": "American Canyon", "addr:state": "CA", "website": "http://junctionbreweryandgrill.com/"}},
{"type": "Feature", "id": "gneOwFu-sfsApJYsM3oQlx9oT90=", "properties": {"ref": "June Lake Brewing ", "@spider": "northern_california_breweries", "addr:full": "131 S. Crawford Ave. ", "addr:city": "June Lake", "addr:state": "CA", "website": "https://www.junelakebrewing.com/beers.html"}},
{"type": "Feature", "id": "7Q-GP6PnVHOoowxtI-PJjcsAMH4=", "properties": {"ref": "Jupiter Beer", "@spider": "northern_california_breweries", "addr:full": "2181 Shattuck Ave.", "addr:city": "Berkeley", "addr:state": "CA", "website": "http://www.jupiterbeer.com/"}},
{"type": "Feature", "id": "utkzpw1ZfIsF41s5gVakM1Z_EBg=", "properties": {"ref": "Kathrin's Biergarten", "@spider": "northern_california_breweries", "addr:full": "4810 Granite Drive, Suite A-1", "addr:city": "Roseville", "addr:state": "CA", "website": "http://www.kathrinsbiergarten.com/"}},
{"type": "Feature", "id": "846yW20u50WeHQAmit5u6pEj-FY=", "properties": {"ref": "Kelly Brewing ", "@spider": "northern_california_breweries", "addr:full": "70 E 4th St", "addr:city": "Morgan Hill ", "addr:state": "CA", "website": "https://www.facebook.com/KellyBrewCo/"}},
{"type": "Feature", "id": "jH5hK5YZWNY5zpLEyrLZ93Yjlug=", "properties": {"ref": "Kelsey Creek Brewing", "@spider": "northern_california_breweries", "addr:full": "3945 Main St.", "addr:city": "Kelseyville", "addr:state": "CA", "website": "http://www.kelseycreekbrewing.com/"}},
{"type": "Feature", "id": "9ZCLb0--zzi05TISzZo_8fwytxk=", "properties": {"ref": "King Cong Brewing Co.", "@spider": "northern_california_breweries", "addr:full": "1709 Del Paso Blvd", "addr:city": "Sacramento", "addr:state": "CA", "website": "https://kingcongbrewing.com/"}},
{"type": "Feature", "id": "ESM7weh5D8i59UUcnr6-cpcVR4s=", "properties": {"ref": "Knee Deep Brewing Co.", "@spider": "northern_california_breweries", "addr:full": "13395 New Airport Road, Suite H", "addr:city": "Auburn", "addr:state": "CA", "website": "http://kneedeepbrewing.com/"}},
{"type": "Feature", "id": "nmZ41ThzpB_FT8YmT4L0mFwEo94=", "properties": {"ref": "Lagunitas Brewing Co.", "@spider": "northern_california_breweries", "addr:full": "1280 N. McDowell Blvd.", "addr:city": "Petaluma", "addr:state": "CA", "website": "https://lagunitas.com/"}},
{"type": "Feature", "id": "eC5lNorXRzdxadGSlSpcPYGqZZ0=", "properties": {"ref": "Lake Tahoe AleWorx", "@spider": "northern_california_breweries", "addr:full": "2050 Lake Tahoe Blvd. ", "addr:city": "South Lake Tahoe", "addr:state": "CA", "website": "http://www.laketahoealeworx.com/"}},
{"type": "Feature", "id": "zrwTME7HHo9N1hGjLBQLHuSq8m0=", "properties": {"ref": "Lassen Ale Works", "@spider": "northern_california_breweries", "addr:full": " 702-000 Johnstonville Road", "addr:city": "Susanville", "addr:state": "CA", "website": "http://www.lassenaleworks.com/"}},
{"type": "Feature", "id": "Cr9s27Tb7oMZFd7rYURQ-zyTgQs=", "properties": {"ref": "Last Call Brewing Company", "@spider": "northern_california_breweries", "addr:full": "944 Shepard Ct. Suite C", "addr:city": "Oakdale", "addr:state": "CA", "website": "https://www.facebook.com/LastCallBrewing"}},
{"type": "Feature", "id": "ekYh_QP0JNQpQGaCyYVKDKdEJ6s=", "properties": {"ref": "Laughing Monk", "@spider": "northern_california_breweries", "addr:full": "1439 Egbert Ave.", "addr:city": "San Francisco", "addr:state": "CA", "website": "http://laughingmonkbrewing.com/"}},
{"type": "Feature", "id": "xR3KTpI4BiBgG3MShtRc42uOFAU=", "properties": {"ref": "Lazy Duck Brewing ", "@spider": "northern_california_breweries", "addr:full": "1723 Rogers Ave. Ste E", "addr:city": "San Jose ", "addr:state": "CA", "website": "https://www.facebook.com/LazyDuckBrewing/"}},
{"type": "Feature", "id": "hiopDrMA9bo_lMoGKlS87VXiJKo=", "properties": {"ref": "Local Brewing", "@spider": "northern_california_breweries", "addr:full": "69 Bluxome St. ", "addr:city": "San Francisco", "addr:state": "CA", "website": "http://localbrewingco.com/"}},
{"type": "Feature", "id": "ar-Ljtqpi5y3-UwCaHVFTFlvLkY=", "properties": {"ref": "Lodi Beer Company", "@spider": "northern_california_breweries", "addr:full": "105 S. School St. ", "addr:city": "Lodi", "addr:state": "CA", "website": "http://lodibeercompany.com/"}},
{"type": "Feature", "id": "JUcovwncczbL4v5yfmf1C5YliMo=", "properties": {"ref": "Loma Brewing Co.", "@spider": "northern_california_breweries", "addr:full": "130 North Santa Cruz Ave.", "addr:city": "Los Gatos", "addr:state": "CA", "website": "http://www.lomabrew.com/"}},
{"type": "Feature", "id": "pPVBrN2UQTZtdM0Eq85AcbXrIXI=", "properties": {"ref": "Loomis Basin Brewing ", "@spider": "northern_california_breweries", "addr:full": "3277 Swetzer Road", "addr:city": "Loomis ", "addr:state": "CA", "website": "http://www.loomisbasinbrewing.com/"}},
{"type": "Feature", "id": "TkkxxvTgMp4JH8q1OH3I2BkON78=", "properties": {"ref": "Lost Coast Brewery (Brewery/Cafe)", "@spider": "northern_california_breweries", "addr:full": "617 Fourth St.", "addr:city": "Eureka", "addr:state": "CA", "website": "http://www.lostcoast.com/"}},
{"type": "Feature", "id": "31leUQH4sfWmk3UQpenBCUTUKGQ=", "properties": {"ref": "Lost Coast Brewery (Brewhouse)", "@spider": "northern_california_breweries", "addr:full": "1600 Sunset Road", "addr:city": "Eureka", "addr:state": "CA", "website": "http://www.lostcoast.com/"}},
{"type": "Feature", "id": "-VXnyxdX92R7pCyNrMN_vpyP580=", "properties": {"ref": "Lupulandia Brewing", "@spider": "northern_california_breweries", "addr:full": "2243 Mission St.", "addr:city": "San Francisco", "addr:state": "CA", "website": "https://www.facebook.com/lupulandiabrewingsf/"}},
{"type": "Feature", "id": "4TI01Ec5h2QM-hQpHz10PJQqROU=", "properties": {"ref": "Mad Fritz Brewery", "@spider": "northern_california_breweries", "addr:full": "393 La Fata St.", "addr:city": "St. Helena", "addr:state": "CA", "website": "http://www.madfritz.com/"}},
{"type": "Feature", "id": "qvqcgQz3PgiFkFlOZ55ahncSj1I=", "properties": {"ref": "Mad River Brewing Co.", "@spider": "northern_california_breweries", "addr:full": "101 Taylor Way", "addr:city": "Blue Lake", "addr:state": "CA", "website": "http://www.madriverbrewing.com/"}},
{"type": "Feature", "id": "XJdtILzWi18xRLl7AX4fiAX4t-E=", "properties": {"ref": "Magnolia Dogpatch", "@spider": "northern_california_breweries", "addr:full": "2505 3rd St. ", "addr:city": "San Francisco", "addr:state": "CA", "website": "http://www.magnoliasmokestack.com/"}},
{"type": "Feature", "id": "THyUQ-irAR042DFK5WcookwooDo=", "properties": {"ref": "Magnolia Pub & Brewery", "@spider": "northern_california_breweries", "addr:full": "1398 Haight St.", "addr:city": "San Francisco", "addr:state": "CA", "website": "http://www.magnoliapub.com/"}},
{"type": "Feature", "id": "T8rCVNFM9f2KehsQpKWgLUMBU0A=", "properties": {"ref": "Main Street Brewery", "@spider": "northern_california_breweries", "addr:full": "830 Main St. ", "addr:city": "Pleasanton", "addr:state": "CA", "website": "http://www.mainstbrewery.com/"}},
{"type": "Feature", "id": "vwN7ESWnLn8qLyhionwwdzGMq9c=", "properties": {"ref": "Mammoth Brewing Company", "@spider": "northern_california_breweries", "addr:full": "18 Lake Mary Road", "addr:city": "Mammoth Lakes", "addr:state": "CA", "website": "http://mammothbrewingco.com/"}},
{"type": "Feature", "id": "2GsF7Va0e2fTU0DeBorwavUinso=", "properties": {"ref": "Mare Island Brewing Co. ", "@spider": "northern_california_breweries", "addr:full": "289 Mare Island Way", "addr:city": "Vallejo ", "addr:state": "CA", "website": "http://www.mareislandbrewingco.com/"}},
{"type": "Feature", "id": "N3FkSMryj43kaD2FNZrYew2lUl4=", "properties": {"ref": "Marin Brewing Co.", "@spider": "northern_california_breweries", "addr:full": "1809 Larkspur Landing", "addr:city": "Larkspur", "addr:state": "CA", "website": "http://www.marinbrewing.com/"}},
{"type": "Feature", "id": "RUziZeKS-s2B1s1eRnkTzEglUig=", "properties": {"ref": "Mikkeller Bar San Francisco", "@spider": "northern_california_breweries", "addr:full": "34 Mason St.", "addr:city": "San Francisco", "addr:state": "CA", "website": "http://www.mikkellerbar.com/sf/"}},
{"type": "Feature", "id": "n6yuRsOGEdBK3rkbuSNW6qSErKA=", "properties": {"ref": "Mill Valley Beerworks", "@spider": "northern_california_breweries", "addr:full": "173 Throckmorton Ave. ", "addr:city": "Mill Valley", "addr:state": "CA", "website": "http://www.millvalleybeerworks.com/"}},
{"type": "Feature", "id": "hzfoCJnNhHqFdM1L9RsE2jsoaPA=", "properties": {"ref": "Miners Alley Brewing Company", "@spider": "northern_california_breweries", "addr:full": "2053 Montgomery St.", "addr:city": "Oroville", "addr:state": "CA", "website": "http://www.minersalleybrewingco.com/home.html"}},
{"type": "Feature", "id": "HJLPs4MLMMhPFRhAQr7Ebv0zjew=", "properties": {"ref": "Modern Times Beer Oakland", "@spider": "northern_california_breweries", "addr:full": "2410 Valdez St.", "addr:city": "Oakland", "addr:state": "CA", "website": "http://moderntimesbeer.com"}},
{"type": "Feature", "id": "pmtEEfoJJVBOToFp8CkI6d4Xp_g=", "properties": {"ref": "Moksa Brewing Company", "@spider": "northern_california_breweries", "addr:full": "5860 Pacific St", "addr:city": "Rocklin", "addr:state": "CA", "website": "https://moksabrewing.com/"}},
{"type": "Feature", "id": "-YiHZWlFF9qBTi9jGCY5j5e7DGg=", "properties": {"ref": "Monterey Coast Brewing", "@spider": "northern_california_breweries", "addr:full": "165 Main St. ", "addr:city": "Salinas", "addr:state": "CA", "website": "http://montereycoastbrewing.com/"}},
{"type": "Feature", "id": "gTlUhMAvF49MGLeQjAV50oDhj_Q=", "properties": {"ref": "Moonlight Brewing Company", "@spider": "northern_california_breweries", "addr:full": "3350 Coffey Lane, Suite A", "addr:city": "Santa Rosa", "addr:state": "CA", "website": "http://moonlightbrewing.com/"}},
{"type": "Feature", "id": "MLMTliZ-kbMr0oz8VhRVR2klg6M=", "properties": {"ref": "Moonraker Brewing Company", "@spider": "northern_california_breweries", "addr:full": "12970 Earhart Ave. Suite 100", "addr:city": "Auburn", "addr:state": "CA", "website": "http://www.moonrakerbrewing.com/"}},
{"type": "Feature", "id": "bmhMfAP3J2iVyhvHdLFdYw4vahI=", "properties": {"ref": "Morgan Territory Brewing Co.", "@spider": "northern_california_breweries", "addr:full": "1885 N MacArthur Drive", "addr:city": "Tracy", "addr:state": "CA", "website": "http://www.morganterritorybrewing.com/"}},
{"type": "Feature", "id": "tU83qeF2Cr-hcUDsxSI41qYYOHw=", "properties": {"ref": "Mount St. Helena Brewing Co. ", "@spider": "northern_california_breweries", "addr:full": "21167 Calistoga Road", "addr:city": "Middletown", "addr:state": "CA", "website": "http://sainthelenabrewery.com/"}},
{"type": "Feature", "id": "2jhAbAfCBEGk-L1dNZGtevnrL2M=", "properties": {"ref": "Mountain Rambler Brewery", "@spider": "northern_california_breweries", "addr:full": "186 South Main Street", "addr:city": "Bishop", "addr:state": "CA", "website": "http://www.mountainramblerbrewery.com/"}},
{"type": "Feature", "id": "tv3w-48Ydfc2PdtXVwQMHiiEMfI=", "properties": {"ref": "Moylan's Brewery & Restaurant", "@spider": "northern_california_breweries", "addr:full": "15 Rowland Way", "addr:city": "Novato", "addr:state": "CA", "website": "http://www.moylans.com/"}},
{"type": "Feature", "id": "q4NZ2trmp576jgb3ACctogGuH0A=", "properties": {"ref": "Mraz Brewing Co. ", "@spider": "northern_california_breweries", "addr:full": "2222 Francisco Drive, Suite 510", "addr:city": "El Dorado Hills ", "addr:state": "CA", "website": "http://mrazbrewingcompany.com/"}},
{"type": "Feature", "id": "gcfWGcNePuCodTcS_LWpAEf9qyE=", "properties": {"ref": "Mt. Shasta Brewing Co.", "@spider": "northern_california_breweries", "addr:full": "360 College Ave.", "addr:city": "Weed", "addr:state": "CA", "website": "http://www.weedales.com/"}},
{"type": "Feature", "id": "_92tOF-y8-SvQQyuGe9_I7Fcg0w=", "properties": {"ref": "Napa Smith Brewery", "@spider": "northern_california_breweries", "addr:full": "101 Yolano Dr", "addr:city": "Vallejo ", "addr:state": "CA", "website": "http://www.napasmithbrewery.com/"}},
{"type": "Feature", "id": "RL4IU3lkMkvPwho0NDl4vKASDoU=", "properties": {"ref": "Napa Valley Brewing Co.", "@spider": "northern_california_breweries", "addr:full": "1250 Lincoln Ave.", "addr:city": "Calistoga", "addr:state": "CA", "website": "http://napabeer.com/"}},
{"type": "Feature", "id": "m9IUqohZao5NruS6rEqxTMjpUnE=", "properties": {"ref": "New Bohemia Brewing Co. ", "@spider": "northern_california_breweries", "addr:full": "1030 41st St. ", "addr:city": "Santa Cruz", "addr:state": "CA", "website": "http://www.nubobrew.com/"}},
{"type": "Feature", "id": "nMDQ0JwR1ydaUVpccH2yWRSVPAU=", "properties": {"ref": "New Glory Craft Brewery", "@spider": "northern_california_breweries", "addr:full": "8251 Alpine Ave.", "addr:city": "Sacramento", "addr:state": "CA", "website": "http://www.newglorybeer.com/"}},
{"type": "Feature", "id": "TV6ZnrZPDjpcAZoy1VQ0feip1SE=", "properties": {"ref": "New Helvetia Brewing Co.", "@spider": "northern_california_breweries", "addr:full": "1730 Broadway", "addr:city": "Sacramento", "addr:state": "CA", "website": "http://newhelvetiabrew.com/"}},
{"type": "Feature", "id": "uaTgDXWI_1FkYOSxdjw1SKsfTpU=", "properties": {"ref": "No Quarter Brewing ", "@spider": "northern_california_breweries", "addr:full": "8786 Lakewood Drive", "addr:city": "Windsor", "addr:state": "CA", "website": "https://noquarterbrewingco.com/"}},
{"type": "Feature", "id": "pAqulQcOhqhX_pybKwo9hx3Qlus=", "properties": {"ref": "Nor Cal Brewing Company", "@spider": "northern_california_breweries", "addr:full": "800 Broadway St. ", "addr:city": "Chico", "addr:state": "CA", "website": "https://norcalbc.com/"}},
{"type": "Feature", "id": "9JC5wy1U4CjdYUYcN3ybqEjnwgk=", "properties": {"ref": "North Coast Brewing Co.", "@spider": "northern_california_breweries", "addr:full": "455 N. Main St.", "addr:city": "Fort Bragg", "addr:state": "CA", "website": "http://www.northcoastbrewing.com/"}},
{"type": "Feature", "id": "Kx-Hm5PFMfOU_toTYVKjXV81880=", "properties": {"ref": "Novel Brewing Co.", "@spider": "northern_california_breweries", "addr:full": "6510 San Pablo Ave.", "addr:city": "Oakland", "addr:state": "CA", "website": "http://www.novelbrewing.com/"}},
{"type": "Feature", "id": "lp6x6V6zNdpZRA6qlX5DQ3QFPZc=", "properties": {"ref": "O'Meara Bros. Brewing Co. ", "@spider": "northern_california_breweries", "addr:full": "901 Bevins St. ", "addr:city": "Lakeport", "addr:state": "CA", "website": "http://www.omearabros.com/"}},
{"type": "Feature", "id": "ETGL7a5NH_f9Mf12hL7ITK2agUk=", "properties": {"ref": "Oakland United Beerworks", "@spider": "northern_california_breweries", "addr:full": "262 Second St.", "addr:city": "Oakland", "addr:state": "CA", "website": "https://oaklandunitedbeerworks.com/"}},
{"type": "Feature", "id": "IfLX7pi1kYDd873AAXT2c2VcajI=", "properties": {"ref": "Ocean View Brew Works", "@spider": "northern_california_breweries", "addr:full": "627 San Pablo Ave", "addr:city": "Albany", "addr:state": "CA", "website": "https://www.facebook.com/pg/oceanviewbrews/"}},
{"type": "Feature", "id": "L1Hj8uDPwMHKUuquBSvClHQy66I=", "properties": {"ref": "Off the Rails Brewing Company", "@spider": "northern_california_breweries", "addr:full": "111 S. Murphy Ave.", "addr:city": "Sunnyvale", "addr:state": "CA", "website": "https://offtherailsbrewing.com/"}},
{"type": "Feature", "id": "lFxKKcQzPS668fNqVHZeEYKfwb8=", "properties": {"ref": "Old Caz Beer", "@spider": "northern_california_breweries", "addr:full": "5625 State Farm Road, Suite 17", "addr:city": "Rohnert Park", "addr:state": "CA", "website": "https://www.oldcaz.com/"}},
{"type": "Feature", "id": "MXO_OZPishYAj_QkgA6tm2a-CX8=", "properties": {"ref": "Old Kan Beer & Co.", "@spider": "northern_california_breweries", "addr:full": "95 Linden Street", "addr:city": "Oakland", "addr:state": "CA", "website": "http://old-kan.com/"}},
{"type": "Feature", "id": "q_BOT5Q4s5ZcylUnO7T1Yti6iO4=", "properties": {"ref": "Old Possum Brewing Co. ", "@spider": "northern_california_breweries", "addr:full": "357 Sutton Place ", "addr:city": "Santa Rosa", "addr:state": "CA", "website": "https://www.oldpossumbrewing.com/"}},
{"type": "Feature", "id": "tDRcMC4tS4sQ5fHlD09KLABr9Mg=", "properties": {"ref": "Old Redwood Brewing Co. ", "@spider": "northern_california_breweries", "addr:full": "9000 Windsor Road", "addr:city": "Windsor", "addr:state": "CA", "website": "http://oldredwoodbrewing.com/"}},
{"type": "Feature", "id": "w01kAicrjUnVJCt5pBx83ozkCQM=", "properties": {"ref": "Original Pattern Brewing Company", "@spider": "northern_california_breweries", "addr:full": "292 Fourth Street", "addr:city": "Oakland", "addr:state": "CA", "website": "https://www.originalpatternbeer.com/"}},
{"type": "Feature", "id": "mQOoiI18KVET_hdxfJFiHj3I1H8=", "properties": {"ref": "Other Brother Beer Co. ", "@spider": "northern_california_breweries", "addr:full": "877 Broadway Ave.", "addr:city": "Seaside", "addr:state": "CA", "website": "https://otherbrotherbeer.com/"}},
{"type": "Feature", "id": "stCu9g0pn5X5PBDOuVMkjykceho=", "properties": {"ref": "Out of Bounds Brewing Co. ", "@spider": "northern_california_breweries", "addr:full": "4480 Yankee Hill Road, Suite 100", "addr:city": "Rocklin ", "addr:state": "CA", "website": "http://outofboundsbrewing.com/"}},
{"type": "Feature", "id": "2g30T5ExslVswLldgNjpQXr8xlM=", "properties": {"ref": "Outbreak Brewing Co. ", "@spider": "northern_california_breweries", "addr:full": "640 Main St. ", "addr:city": "Placerville", "addr:state": "CA", "website": "http://outbreakbrewing.com/"}},
{"type": "Feature", "id": "XLEJ09ihJp-hT2J-vdbrz2uN47Q=", "properties": {"ref": "Overtime Brewing", "@spider": "northern_california_breweries", "addr:full": "190 E. Elm St.", "addr:city": "Fort Bragg", "addr:state": "CA", "website": "http://overtimebrewing.com/"}},
{"type": "Feature", "id": "e_RyAYaxuXtu_FZSKESJpv4OnmM=", "properties": {"ref": "Pacifica Brewery", "@spider": "northern_california_breweries", "addr:full": "4627 Pacific Coast Highway", "addr:city": "Pacifica", "addr:state": "CA", "website": "https://www.pacificabrewery.beer/"}},
{"type": "Feature", "id": "l_iKUBkxzLRfTlxRNYf8iO4D0ac=", "properties": {"ref": "Palm Tree Brewing Company", "@spider": "northern_california_breweries", "addr:full": "8844 Greenback Lane #2", "addr:city": "Orangevale", "addr:state": "CA", "website": "https://www.facebook.com/palmtreebrewing/"}},
{"type": "Feature", "id": "ovKiRHeMtc44oxlMvPoufTMZCIg=", "properties": {"ref": "Paraiso Brewery", "@spider": "northern_california_breweries", "addr:full": "80 G St. Suite C", "addr:city": "Los Banos", "addr:state": "CA", "website": "http://paraisobrewery.com/"}},
{"type": "Feature", "id": "iuTfHg90TnUtO7LawBNi1JStdYw=", "properties": {"ref": "Parliament Brewing Company", "@spider": "northern_california_breweries", "addr:full": "5865 Labath Unit 9", "addr:city": "Rohnert Park", "addr:state": "CA", "website": "https://www.facebook.com/parliamentbrewing"}},
{"type": "Feature", "id": "aGEZ5kW2pH4cIGveiMup8P2n-IY=", "properties": {"ref": "Paystreak Brewing", "@spider": "northern_california_breweries", "addr:full": "449 Main Street ", "addr:city": "Etna", "addr:state": "CA", "website": "https://www.facebook.com/Paystreakbrewing/"}},
{"type": "Feature", "id": "vrGtVfn4xyQ04NiehWX2YRR8bGs=", "properties": {"ref": "Pedro Point Brewing", "@spider": "northern_california_breweries", "addr:full": "55A Bill Drake Way", "addr:city": "Pacifica", "addr:state": "CA", "website": "https://www.pedropointbrewing.com/"}},
{"type": "Feature", "id": "UxCUwjrJkp6JXvMIQ_7KCbFCcMY=", "properties": {"ref": "Persuasion Brewing ", "@spider": "northern_california_breweries", "addr:full": "500 7th St.", "addr:city": "Modesto", "addr:state": "CA", "website": "https://www.facebook.com/PersuasionBrewing/"}},
{"type": "Feature", "id": "nwkrOUOTSao0J7cScs3OSxnst_E=", "properties": {"ref": "Peter B's Brewpub", "@spider": "northern_california_breweries", "addr:full": "2 Portola Plaza", "addr:city": "Monterey", "addr:state": "CA", "website": "https://www.portolahotel.com/peter-bs-brewpub"}},
{"type": "Feature", "id": "sjEjJDNv1sznts5SvJoimGdUDwA=", "properties": {"ref": "Pine and Palm Brewing", "@spider": "northern_california_breweries", "addr:full": "352 W. Bedford Ave.", "addr:city": "Fresno ", "addr:state": "CA", "website": "http://pineandpalmbrewing.com/"}},
{"type": "Feature", "id": "qheaTNUWHJmYej4fiJCdUKFVMVY=", "properties": {"ref": "Plow Brewing Co. ", "@spider": "northern_california_breweries", "addr:full": "3344 Industrial Drive", "addr:city": "Santa Rosa", "addr:state": "CA", "website": "https://www.facebook.com/Plow-Brewing-Company-990122984344874/"}},
{"type": "Feature", "id": "X7MseXlwRUJWc50NIDRjyEH3dBU=", "properties": {"ref": "Pond Farm Brewing Co. ", "@spider": "northern_california_breweries", "addr:full": "1848 4th Street", "addr:city": "San Rafael", "addr:state": "CA", "website": "https://www.pondfarmbrewing.com/"}},
{"type": "Feature", "id": "KnRp0MzgL0Ns0PANS3NXAc8yJpA=", "properties": {"ref": "Porchlight Brewing Company", "@spider": "northern_california_breweries", "addr:full": "866 57th Street", "addr:city": "Sacramento", "addr:state": "CA", "website": "https://porchlightbrewingcompany.com/"}},
{"type": "Feature", "id": "qiBLU0_egxO_J1HvS54ZeXajNhc=", "properties": {"ref": "Port O' Pints Brewing Co.", "@spider": "northern_california_breweries", "addr:full": "1215 Northcrest Drive", "addr:city": "Crescent City", "addr:state": "CA", "website": "http://portopints.com/"}},
{"type": "Feature", "id": "dFZiETUcDIY41fvhBMvSVpOPrN8=", "properties": {"ref": "Promised Land Brewing Company", "@spider": "northern_california_breweries", "addr:full": "7419 Monterey Road", "addr:city": "Gilroy", "addr:state": "CA", "website": "https://www.promisedlandbeerco.com/"}},
{"type": "Feature", "id": "WepHJBuwCyT0TMO96LHLK59k0Cw=", "properties": {"ref": "Quintopia Brewing Co. ", "@spider": "northern_california_breweries", "addr:full": "591 Main Street", "addr:city": "Quincy", "addr:state": "CA", "website": "http://quintopiabrewing.com/"}},
{"type": "Feature", "id": "FWLhGHiHX0WOz0t1EMmSIV6o2YQ=", "properties": {"ref": "Red Branch Cider & Brewing Company", "@spider": "northern_california_breweries", "addr:full": "246 Birchwood Drive", "addr:city": "Sunnyvale", "addr:state": "CA", "website": "http://redbranchcider.com/"}},
{"type": "Feature", "id": "VWdAKG45G_dU2ElUO1-37r6uYFg=", "properties": {"ref": "Red Bus Brewing", "@spider": "northern_california_breweries", "addr:full": "802A Reading Street)", "addr:city": "Folsom", "addr:state": "CA", "website": "https://www.redbusbrew.com/"}},
{"type": "Feature", "id": "ivM1n3GRyotCujkVeUU0tm8wHrU=", "properties": {"ref": "Redwood Curtain Brewing Co. (Arcata)", "@spider": "northern_california_breweries", "addr:full": "550 S. G St.", "addr:city": "Arcata", "addr:state": "CA", "website": "http://www.redwoodcurtainbrewing.com/"}},
{"type": "Feature", "id": "_36pvvFPwPphqdX_Nvrlo5jvG9M=", "properties": {"ref": "Redwood Curtain Brewing Co. (Eureka)", "@spider": "northern_california_breweries", "addr:full": "1595 Myrtle Ave.", "addr:city": "Eureka", "addr:state": "CA", "website": "http://www.redwoodcurtainbrewing.com/"}},
{"type": "Feature", "id": "p1Du6wWImY-IDeeNgsIwtbvlFis=", "properties": {"ref": "River City Brewing", "@spider": "northern_california_breweries", "addr:full": "6241 Fair Oaks Blvd.", "addr:city": "Carmichael", "addr:state": "CA", "website": "http://www.rivercitybrewing.net/"}},
{"type": "Feature", "id": "_cLYUJ_eE4ziTKEcbggq0UcpvAY=", "properties": {"ref": "River Rock Brewery ", "@spider": "northern_california_breweries", "addr:full": "807 C Street", "addr:city": "Galt", "addr:state": "CA", "website": "http://www.riverrockbrewery.com"}},
{"type": "Feature", "id": "cqgmNYeva3l2nIdbc27N_gJAwNw=", "properties": {"ref": "Rocksteady Brewing Co. (Creek Monkey Tap House)", "@spider": "northern_california_breweries", "addr:full": "611 Escobar St.", "addr:city": "Martinez", "addr:state": "CA", "website": "http://www.rocksteadybrewing.com/"}},
{"type": "Feature", "id": "h82IUfPLL9SALTz8RE99iScpKtQ=", "properties": {"ref": "Roses' Taproom", "@spider": "northern_california_breweries", "addr:full": "4930 Telegraph Avenue", "addr:city": "Oakland ", "addr:state": "CA", "website": "http://www.rosestaproom.com/"}},
{"type": "Feature", "id": "08HFhl5rYnFYOuQ1WC5CYlY9zWg=", "properties": {"ref": "Ruhstaller", "@spider": "northern_california_breweries", "addr:full": "800 Business Park Dr Ste G,", "addr:city": "Davis", "addr:state": "CA", "website": "http://ruhstallerbeer.com/"}},
{"type": "Feature", "id": "ZKiQcPwll-5Bn9P0_mRqJyH1Ll4=", "properties": {"ref": "Ruhstaller (Taproom)", "@spider": "northern_california_breweries", "addr:full": "800 Business Park Drive, Suite G", "addr:city": "Dixon", "addr:state": "CA", "website": "http://ruhstallerbeer.com/shop/"}},
{"type": "Feature", "id": "KWuE7wC0249WupExwISLyyEmHvg=", "properties": {"ref": "Russian River Brewing Co.", "@spider": "northern_california_breweries", "addr:full": "725 Fourth St.", "addr:city": "Santa Rosa", "addr:state": "CA", "website": "http://russianriverbrewing.com/"}},
{"type": "Feature", "id": "3ibmki7Md-FZ-fwQ4SmyDZqOz5o=", "properties": {"ref": "Russian River Brewing Co. ", "@spider": "northern_california_breweries", "addr:full": "700 Mitchell Lane", "addr:city": "Windsor", "addr:state": "CA", "website": "https://russianriverbrewing.com/windsor-location/"}},
{"type": "Feature", "id": "Rv_p1ZTVgXIzaKRQpmACK2OAtfE=", "properties": {"ref": "Sacrilege Brewery", "@spider": "northern_california_breweries", "addr:full": "730 Main St.", "addr:city": "Half Moon Bay", "addr:state": "CA", "website": "http://www.sacrilegebrewing.com/"}},
{"type": "Feature", "id": "0jE3JeW0nXmorA2SX7HTugf0mM4=", "properties": {"ref": "San Francisco Brewing Co. ", "@spider": "northern_california_breweries", "addr:full": "3150 Polk Street.", "addr:city": "San Francisco", "addr:state": "CA", "website": "http://www.sfbrewingco.com/"}},
{"type": "Feature", "id": "np44f4FRqTSN5iQ8FI-1eHdLoFk=", "properties": {"ref": "Santa Clara Valley Brewing", "@spider": "northern_california_breweries", "addr:full": "101 E. Alma St.", "addr:city": "San Jose", "addr:state": "CA", "website": "http://www.scvbrewing.com/"}},
{"type": "Feature", "id": "poG7gZqueVl6rnQNIGU43B3m3nM=", "properties": {"ref": "Santa Cruz Ale Works", "@spider": "northern_california_breweries", "addr:full": "150 Dubois St.", "addr:city": "Santa Cruz", "addr:state": "CA", "website": "http://www.santacruzaleworks.com/"}},
{"type": "Feature", "id": "HgmxuMJ0zDmdJ6_Quq5gS8nK-XY=", "properties": {"ref": "Santa Cruz Mountain Brewing", "@spider": "northern_california_breweries", "addr:full": "402 Ingalls St., #27", "addr:city": "Santa Cruz", "addr:state": "CA", "website": "http://www.scmbrew.com/"}},
{"type": "Feature", "id": "Ejzt5ue-mZ2mPxIGKr2SzQPPZAY=", "properties": {"ref": "Sante Adairius Rustic Ales", "@spider": "northern_california_breweries", "addr:full": "103 Kennedy Drive", "addr:city": "Capitola", "addr:state": "CA", "website": "http://rusticales.com/"}},
{"type": "Feature", "id": "XSLinYPGc_NiAVieP_FheNrHNHQ=", "properties": {"ref": "Sante Adairius Santa Cruz Portal", "@spider": "northern_california_breweries", "addr:full": "1315 Water St.", "addr:city": "Santa Cruz", "addr:state": "CA", "website": "http://rusticales.com/"}},
{"type": "Feature", "id": "UZmJEMamGxm8Rnpv50CBVLH-zvc=", "properties": {"ref": "Seabright Brewery", "@spider": "northern_california_breweries", "addr:full": "519 Seabright Ave., #107", "addr:city": "Santa Cruz", "addr:state": "CA", "website": "http://www.seabrightbrewery.com/"}},
{"type": "Feature", "id": "xHv5vCAL2fuuN3a7kY2QeJM_IDA=", "properties": {"ref": "Seahorse Brewing", "@spider": "northern_california_breweries", "addr:full": "2017 Palmetto Ave.", "addr:city": "Pacifica", "addr:state": "CA", "website": "http://seahorsebrewingcompany.com/"}},
{"type": "Feature", "id": "IevCcF5P3K8lo6piHc8_8GxWrVA=", "properties": {"ref": "SeaQuake Brewing ", "@spider": "northern_california_breweries", "addr:full": "400 Front St.", "addr:city": "Crescent City", "addr:state": "CA", "website": "http://www.seaquakebrewing.com/"}},
{"type": "Feature", "id": "QQdOQNSjOLlsOEeKyfjMR4kRQIs=", "properties": {"ref": "Secret Trail Brewing Company", "@spider": "northern_california_breweries", "addr:full": "132 Meyers St Suite 120", "addr:city": "Chico", "addr:state": "CA", "website": "https://www.secrettrailbrewing.com/"}},
{"type": "Feature", "id": "6JIGPsyF6sZ2ghcyDlxQdAxDaY0=", "properties": {"ref": "Seismic Brewing", "@spider": "northern_california_breweries", "addr:full": "6700 Sebastopol Ave.", "addr:city": "Sebastopol", "addr:state": "CA", "website": "http://seismicbrewingco.com/"}},
{"type": "Feature", "id": "i_QJJnKsrhyBCTDwhB4tcPD6Cos=", "properties": {"ref": "Seven Stills (Mission Bay)", "@spider": "northern_california_breweries", "addr:full": "100 Hooper St., #4", "addr:city": "San Francisco", "addr:state": "CA", "website": "https://www.sevenstillsofsf.com/"}},
{"type": "Feature", "id": "9SU6q3_OBbhBJqChBPbSHKhQBvc=", "properties": {"ref": "Seven Stills (Sunset)", "@spider": "northern_california_breweries", "addr:full": "3645 Lawton St.", "addr:city": "San Francisco", "addr:state": "CA", "website": "https://www.sevenstillsofsf.com/"}},
{"type": "Feature", "id": "_meewkcFcTDnSc25OVeOVgRY8BI=", "properties": {"ref": "Shadow Puppet Brewing Company", "@spider": "northern_california_breweries", "addr:full": "4771 Arroyo Vista, Suite B", "addr:city": "Livermore", "addr:state": "CA", "website": "http://www.shadowpuppetbrewing.com/"}},
{"type": "Feature", "id": "aI8MjwGE2q_zE4xljM6eAgdkq6c=", "properties": {"ref": "Shady Oak Barrel House", "@spider": "northern_california_breweries", "addr:full": "420 1st Street", "addr:city": "Santa Rosa", "addr:state": "CA", "website": "http://www.shadyoakbarrelhouse.com/"}},
{"type": "Feature", "id": "skmHx3zXHaLU_uzVMe6ccJDrTpQ=", "properties": {"ref": "Shanty Shack Brewing", "@spider": "northern_california_breweries", "addr:full": "138 Fern St.", "addr:city": "Santa Cruz", "addr:state": "CA", "website": "http://www.shantyshackbrewing.com/"}},
{"type": "Feature", "id": "NfNgRQQJcqbZCZOGdbLlGl2mxK8=", "properties": {"ref": "Sidellis Brewery", "@spider": "northern_california_breweries", "addr:full": "3350 Sandy Way", "addr:city": "South Lake Tahoe", "addr:state": "CA", "website": "http://www.sidellis.com/"}},
{"type": "Feature", "id": "g0V6B_YG-N9ytMeD2nN0P4aN_Y8=", "properties": {"ref": "Sierra Nevada Brewing Co.", "@spider": "northern_california_breweries", "addr:full": "1075 E. 20th St.", "addr:city": "Chico", "addr:state": "CA", "website": "http://www.sierranevada.com/"}},
{"type": "Feature", "id": "EMy1UgmqnjZQ851tYefY_LcWVhg=", "properties": {"ref": "Sierra Nevada Torpedo Room", "@spider": "northern_california_breweries", "addr:full": "2031 Fourth St.", "addr:city": "Berkeley", "addr:state": "CA", "website": "http://www.sierranevada.com/brewery/california/torpedoroom"}},
{"type": "Feature", "id": "7G08Ti8A3NaW7qun4zBFDpT1cQc=", "properties": {"ref": "Siskiyou Brew Works", "@spider": "northern_california_breweries", "addr:full": "10 Squaw Valley Road", "addr:city": "McCloud", "addr:state": "CA", "website": "https://www.facebook.com/Siskiyou-Brew-Works-661638850578897/"}},
{"type": "Feature", "id": "g2KI5HKMffYejcbgFzaO1VVe-Gg=", "properties": {"ref": "Six Rivers Brewery", "@spider": "northern_california_breweries", "addr:full": "1300 Central Ave. ", "addr:city": "McKinleyville", "addr:state": "CA", "website": "http://www.sixriversbrewery.com/"}},
{"type": "Feature", "id": "oKDMzvPxIgp-tDjR76uCYYb0_5E=", "properties": {"ref": "Slice Beer Co. ", "@spider": "northern_california_breweries", "addr:full": "665 6th St.", "addr:city": "Lincoln", "addr:state": "CA", "website": "https://www.slicebeer.com/home"}},
{"type": "Feature", "id": "LZyeFHmdEUxjd84kg21zB1f9QOM=", "properties": {"ref": "Snowshoe Brewing Co.", "@spider": "northern_california_breweries", "addr:full": "2050 Highway 4", "addr:city": "Arnold", "addr:state": "CA", "website": "https://www.facebook.com/Snowshoe-Brewing-Company-108246532533638/"}},
{"type": "Feature", "id": "aTH4alHKvqvIA4t_l2l1hBohuXE=", "properties": {"ref": "Social Kitchen & Brewery", "@spider": "northern_california_breweries", "addr:full": "1326 9th Ave. ", "addr:city": "San Francisco", "addr:state": "CA", "website": "http://www.socialkitchenandbrewery.com/"}},
{"type": "Feature", "id": "b9G7bZglAQwIcwEcjBsOLe7g5gc=", "properties": {"ref": "Solid Ground Brewing", "@spider": "northern_california_breweries", "addr:full": "552 Pleasant Valley Rd", "addr:city": "Diamond Springs", "addr:state": "CA", "website": "http://www.solidgroundbrewing.com/"}},
{"type": "Feature", "id": "15vnxYLwxBLKYoHSDZRn64s9U6A=", "properties": {"ref": "Sonoma Springs Brewing Co. ", "@spider": "northern_california_breweries", "addr:full": "19449 Riverside Drive, #101", "addr:city": "Sonoma", "addr:state": "CA", "website": "http://www.sonomaspringsbrewing.com/"}},
{"type": "Feature", "id": "wS6YvWNV3jS3k3RfY6Gvq06Ft6g=", "properties": {"ref": "South Gate Brewing Company", "@spider": "northern_california_breweries", "addr:full": "40233 Enterprise Dr.", "addr:city": "Oakhurst", "addr:state": "CA", "website": "https://southgatebrewco.com/"}},
{"type": "Feature", "id": "PNXMcw0Y8fmuiTixuflirAox6U8=", "properties": {"ref": "South Lake Tahoe Brewing Co. ", "@spider": "northern_california_breweries", "addr:full": "1920 Lake Tahoe Blvd.", "addr:city": "South Lake Tahoe", "addr:state": "CA", "website": "https://www.southlakebeer.com/"}},
{"type": "Feature", "id": "oJLqmfqpxBnyehKWJUzAWQNoNmk=", "properties": {"ref": "South of North ", "@spider": "northern_california_breweries", "addr:full": "932 Stateline Ave.", "addr:city": "South Lake Tahoe", "addr:state": "CA", "website": "https://www.southofnorthbeer.com/"}},
{"type": "Feature", "id": "u6AuKCmxrwShvC5aRnV3AnyQOr0=", "properties": {"ref": "Southern Pacific Brewing Co.", "@spider": "northern_california_breweries", "addr:full": "620 Treat Ave. ", "addr:city": "San Francisco", "addr:state": "CA", "website": "http://www.southernpacificbrewing.com/"}},
{"type": "Feature", "id": "-BONwTy3dFKGoAU6WhImfze8QZ8=", "properties": {"ref": "Speakeasy Ales & Lagers", "@spider": "northern_california_breweries", "addr:full": "1195 Evans Ave.", "addr:city": "San Francisco", "addr:state": "CA", "website": "http://www.goodbeer.com/"}},
{"type": "Feature", "id": "5mhYm5DhRBfs15vv0TmkUn3TOtE=", "properties": {"ref": "St. Clair Brown Winery and Brewery", "@spider": "northern_california_breweries", "addr:full": "816 Vallejo St.", "addr:city": "Napa", "addr:state": "CA", "website": "https://www.stclairbrown.com/"}},
{"type": "Feature", "id": "bGkzUtyspmhAomhp6HtxYeguhsI=", "properties": {"ref": "St. Florian's Brewery", "@spider": "northern_california_breweries", "addr:full": "7704 Bell Road", "addr:city": "Windsor", "addr:state": "CA", "website": "http://www.stfloriansbrewery.com/"}},
{"type": "Feature", "id": "o1TMnqnUw8owTgZcfPgLEzPAB-M=", "properties": {"ref": "St. Stan's Brewing Co. ", "@spider": "northern_california_breweries", "addr:full": "1028 11th Street", "addr:city": "Modesto", "addr:state": "CA", "website": "https://www.ststans.com/"}},
{"type": "Feature", "id": "U-AxpvWRraoSLKeNMYA1JYtAjj0=", "properties": {"ref": "Standard Deviant Brewing", "@spider": "northern_california_breweries", "addr:full": "280 14th St.", "addr:city": "San Francisco", "addr:state": "CA", "website": "http://www.standarddeviantbrewing.com/"}},
{"type": "Feature", "id": "9i50eM6Fq-ATgZj1l9p1hD3sjow=", "properties": {"ref": "State Room Brewery", "@spider": "northern_california_breweries", "addr:full": "1132 4th St.", "addr:city": "San Rafael", "addr:state": "CA", "website": "http://stateroombrewery.com/"}},
{"type": "Feature", "id": "c-_uTysrtmDAQrB8B1udJtjESyo=", "properties": {"ref": "Stateline Brewery and Restaurant", "@spider": "northern_california_breweries", "addr:full": "4118 Lake Tahoe Blvd.", "addr:city": "South Lake Tahoe", "addr:state": "CA", "website": "http://statelinebrewery.com/"}},
{"type": "Feature", "id": "G5LsFQ8NNxjKqV15lm_c5XID5Do=", "properties": {"ref": "Steel Bonnet Brewing Co.", "@spider": "northern_california_breweries", "addr:full": "20 Victor Square", "addr:city": "Scotts Valley", "addr:state": "CA", "website": "http://www.steelbon.net/"}},
{"type": "Feature", "id": "TXqOUQZtk55QNTjo6mJ0aPwKxQc=", "properties": {"ref": "Steelhead Brewing Co.", "@spider": "northern_california_breweries", "addr:full": "333 California Drive", "addr:city": "Burlingame", "addr:state": "CA", "website": "http://steelheadbrewery.com/burlingame/"}},
{"type": "Feature", "id": "X9_GEYtvg93HdRA0fExfcHdW5ZU=", "properties": {"ref": "Stone Brewing Napa", "@spider": "northern_california_breweries", "addr:full": "930 Third Street", "addr:city": "Napa", "addr:state": "CA", "website": "http://www.stonebrewing.com/visit/outposts/napa"}},
{"type": "Feature", "id": "JVCDEIl-hQVctdlUFHDLUJdUNi8=", "properties": {"ref": "Strike Brewing Co. ", "@spider": "northern_california_breweries", "addr:full": "2099 S. 10th St.", "addr:city": "San Jose", "addr:state": "CA", "website": "http://www.strikebrewingco.com/home"}},
{"type": "Feature", "id": "qdr22mMjUsGC4L-NVjGpTE-ZNJg=", "properties": {"ref": "Stumptown Brewing Co.", "@spider": "northern_california_breweries", "addr:full": "15045 River Road", "addr:city": "Guerneville", "addr:state": "CA", "website": "http://www.stumptown.com/"}},
{"type": "Feature", "id": "HJUoC_eDgfpqKpNwcY0gbFCLlYI=", "properties": {"ref": "Sudwerk Restaurant and Brewery", "@spider": "northern_california_breweries", "addr:full": "2001 Second St.", "addr:city": "Davis", "addr:state": "CA", "website": "http://sudwerkbrew.com/"}},
{"type": "Feature", "id": "oEdwm-hVEHEWMgH9E17Ldg-Xm4w=", "properties": {"ref": "Sunset Reservoir Brewing Co.", "@spider": "northern_california_breweries", "addr:full": "1735 Noriega St. ", "addr:city": "San Francisco", "addr:state": "CA", "website": "http://sunsetbeersf.com/"}},
{"type": "Feature", "id": "T6IbV9ChkX2uCdxFYAaM0wbVyH8=", "properties": {"ref": "Super Owl Brewing", "@spider": "northern_california_breweries", "addr:full": "1260 Lake Blvd Suite 121", "addr:city": "Davis", "addr:state": "CA", "website": "http://www.superowlbrewing.com/"}},
{"type": "Feature", "id": "MJTm6vRiI3WuvyK6xtqxIQf5IxI=", "properties": {"ref": "Sutter Buttes Brewing", "@spider": "northern_california_breweries", "addr:full": "421 Center St.", "addr:city": "Yuba City", "addr:state": "CA", "website": "http://www.sutterbuttesbrewing.com/"}},
{"type": "Feature", "id": "pF-2w-sHla9G_5isJ2PuJQV8Khk=", "properties": {"ref": "Tannery Bend Beerworks", "@spider": "northern_california_breweries", "addr:full": "101 S. Coombs St Suite X", "addr:city": "Napa", "addr:state": "CA", "website": "https://tannerybendbeerworks.com/"}},
{"type": "Feature", "id": "lkm95i4jkj7vvnPRUz5gzzK93Cg=", "properties": {"ref": "Taplands Brewery", "@spider": "northern_california_breweries", "addr:full": "1171 Homestead Road, #110", "addr:city": "Santa Clara", "addr:state": "CA", "website": "http://www.taplands.com/"}},
{"type": "Feature", "id": "8DZLsIbGu3ccx6G2gxolSFxqfsU=", "properties": {"ref": "Temescal Brewing", "@spider": "northern_california_breweries", "addr:full": "4115 Telegraph Ave.", "addr:city": "Oakland", "addr:state": "CA", "website": "http://www.temescalbrewing.com/"}},
{"type": "Feature", "id": "U5xMjdJaXh1JpuqUFh8J1pZD8eY=", "properties": {"ref": "The Booth", "@spider": "northern_california_breweries", "addr:full": "123 W. 3rd Street", "addr:city": "Eureka", "addr:state": "CA", "website": "https://theboothbrewing.com/"}},
{"type": "Feature", "id": "Ui1djkZJpusAGf_Y4ztETcDw0Uo=", "properties": {"ref": "The Brewery at Lake Tahoe", "@spider": "northern_california_breweries", "addr:full": "3542 Lake Tahoe Blvd.", "addr:city": "South Lake Tahoe", "addr:state": "CA", "website": "http://www.brewerylaketahoe.com/"}},
{"type": "Feature", "id": "MoXbmxt9NCPhob7qIRsOfkZd6hU=", "properties": {"ref": "The Brewing Lair", "@spider": "northern_california_breweries", "addr:full": "67007 CA-70 ", "addr:city": "Blairsden", "addr:state": "CA", "website": "http://www.thebrewinglair.com/"}},
{"type": "Feature", "id": "4_Ku7lraHD8w9WNBbc_d3X9c_GQ=", "properties": {"ref": "The Dancing Fox Winery & Brewery", "@spider": "northern_california_breweries", "addr:full": "27 E Locust Street", "addr:city": "Lodi", "addr:state": "CA", "website": "http://www.dancingfoxlodi.com/"}},
{"type": "Feature", "id": "ilaLmC2Jn03jGPyCmceC8EDXPkk=", "properties": {"ref": "The Good Wolf Brewing Company", "@spider": "northern_california_breweries", "addr:full": "10990 Industrial Way B103", "addr:city": "Truckee", "addr:state": "CA", "website": "http://www.thegoodwolfbrewing.com/"}},
{"type": "Feature", "id": "sP99QTELRrchYasZvsmnxYgy2jU=", "properties": {"ref": "The Monk's Cellar", "@spider": "northern_california_breweries", "addr:full": "240 Vernon St.", "addr:city": "Roseville", "addr:state": "CA", "website": "http://monkscellar.com/"}},
{"type": "Feature", "id": "OL-JG-364e4cFq2BVFn3jLrUyLY=", "properties": {"ref": "The Rare Barrel", "@spider": "northern_california_breweries", "addr:full": "940 Parker St.", "addr:city": "Berkeley", "addr:state": "CA", "website": "https://www.therarebarrel.com/"}},
{"type": "Feature", "id": "K8HLzzgwK6teeKYlt-SlMcHDnig=", "properties": {"ref": "Thin Line Brewing Co. ", "@spider": "northern_california_breweries", "addr:full": "11345 White Rock Road Suite 100", "addr:city": "Rancho Cordova", "addr:state": "CA", "website": "https://www.thinlinebrewing.com/"}},
{"type": "Feature", "id": "p7kuksiMiz8nbh0fai3fFBlH2IU=", "properties": {"ref": "Third Street Aleworks", "@spider": "northern_california_breweries", "addr:full": "610 Third St. ", "addr:city": "Santa Rosa", "addr:state": "CA", "website": "http://thirdstreetaleworks.com/"}},
{"type": "Feature", "id": "kyJEeO7KWKWMh7s01Pb7JLKBOR4=", "properties": {"ref": "Thirsty Bear Brewing Co.", "@spider": "northern_california_breweries", "addr:full": "661 Howard St. ", "addr:city": "San Francisco", "addr:state": "CA", "website": "http://thirstybear.com/"}},
{"type": "Feature", "id": "k7jP_ukT-GJRXF_cQlHyD2oai60=", "properties": {"ref": "Three Forks Bakery and Brewery", "@spider": "northern_california_breweries", "addr:full": "211 Commercial St.", "addr:city": "Nevada City ", "addr:state": "CA", "website": "http://www.threeforksnc.com/"}},
{"type": "Feature", "id": "DpLg5vI9SmOsFPBi8ZfwIKYKVk8=", "properties": {"ref": "Three Mile Brewing Co. ", "@spider": "northern_california_breweries", "addr:full": "231 G St., Suite 3 ", "addr:city": "Davis", "addr:state": "CA", "website": "http://www.threemilebrewing.com/"}},
{"type": "Feature", "id": "HXLWNziMDXQmWSumMTHMLp5yG7A=", "properties": {"ref": "Tied House Brewery", "@spider": "northern_california_breweries", "addr:full": "954 Villa St.", "addr:city": "Mountain View", "addr:state": "CA", "website": "http://tiedhouse.com/"}},
{"type": "Feature", "id": "pvWdfTdsoaLIyqoJlfPJ4zYAXLw=", "properties": {"ref": "Tilted Mash Brewing ", "@spider": "northern_california_breweries", "addr:full": "9110 Union Park Way, #107", "addr:city": "Elk Grove", "addr:state": "CA", "website": "http://tilted-mash.myshopify.com/"}},
{"type": "Feature", "id": "1-nxmUTvoc84NkTcjnhZYSGSJnY=", "properties": {"ref": "Tioga-Sequoia Brewing Co. ", "@spider": "northern_california_breweries", "addr:full": "745 Fulton St.", "addr:city": "Fresno ", "addr:state": "CA", "website": "http://tiogasequoia.com/"}},
{"type": "Feature", "id": "SkkL9HlEZJXggkVmH_qGHv3Etmc=", "properties": {"ref": "Tower Brewing", "@spider": "northern_california_breweries", "addr:full": "1210 66th St.", "addr:city": "Sacramento", "addr:state": "CA", "website": "https://www.towerbrewingcompany.com/"}},
{"type": "Feature", "id": "9gfJ8NxCfTHonJ71YfToycl5XSA=", "properties": {"ref": "Track 7 Brewing Co. (Curtis Park)", "@spider": "northern_california_breweries", "addr:full": "3747 W. Pacific Ave., Suite F", "addr:city": "Sacramento", "addr:state": "CA", "website": "https://track7brewing.com/"}},
{"type": "Feature", "id": "O_9z0A5MBXrhXZPXlNdrCuuRL94=", "properties": {"ref": "Track 7 Brewing Co. (Natomas)", "@spider": "northern_california_breweries", "addr:full": "826 Professor Lane, Suite 100", "addr:city": "Sacramento", "addr:state": "CA", "website": "https://track7brewing.com/"}},
{"type": "Feature", "id": "8oPGdRxORA2vKp4W1tWqQa3kMWw=", "properties": {"ref": "Trade Brewing", "@spider": "northern_california_breweries", "addr:full": "731 1st Street", "addr:city": "Napa", "addr:state": "CA", "website": "http://tradebrewing.com/"}},
{"type": "Feature", "id": "0VKJtDd8DXglAjecTuoW3py6qNE=", "properties": {"ref": "Triple Rock Brewery and Alehouse", "@spider": "northern_california_breweries", "addr:full": "1920 Shattuck Ave.", "addr:city": "Berkeley", "addr:state": "CA", "website": "http://triplerock.com/"}},
{"type": "Feature", "id": "jcVCZdx1TqQMW5EY7s47fDNWHko=", "properties": {"ref": "Triple Voodoo Brewery", "@spider": "northern_california_breweries", "addr:full": "2245 Third St.", "addr:city": "San Francisco", "addr:state": "CA", "website": "http://triplevoodoo.com/"}},
{"type": "Feature", "id": "ovVk4HO4TaIz2te3ud76hEND4Bk=", "properties": {"ref": "Truckee Brewing Company", "@spider": "northern_california_breweries", "addr:full": "10736 Pioneer Trail #1", "addr:city": "Truckee", "addr:state": "CA", "website": "https://www.truckeebrewco.com/"}},
{"type": "Feature", "id": "Ah50i5nMhZDjNaNcuaP9IXN0RH4=", "properties": {"ref": "Trumer Brauerei", "@spider": "northern_california_breweries", "addr:full": "1404 Fourth St. ", "addr:city": "Berkeley", "addr:state": "CA", "website": "http://www.trumer-international.com/"}},
{"type": "Feature", "id": "1IPrQ164VA1wt9Q15Z7BZemjqrc=", "properties": {"ref": "Ukiah Brewing Co. ", "@spider": "northern_california_breweries", "addr:full": "102 S. State St.", "addr:city": "Ukiah", "addr:state": "CA", "website": "http://ukiahbrewing.com/"}},
{"type": "Feature", "id": "y12XKM_nv5coAhVGVu0FiKsKP1o=", "properties": {"ref": "Uncommon Brewers", "@spider": "northern_california_breweries", "addr:full": "303 Potrero St. ", "addr:city": "Santa Cruz", "addr:state": "CA", "website": "http://www.uncommonbrewers.com/"}},
{"type": "Feature", "id": "DuWzjxNtaeQSnokwxhPCf9nIrGc=", "properties": {"ref": "Uproar Brewing Co. ", "@spider": "northern_california_breweries", "addr:full": "439 S. First Street", "addr:city": "San Jose", "addr:state": "CA", "website": "https://www.uproarbrewing.com/"}},
{"type": "Feature", "id": "WBafmvtbp9vsBOaPcHln18WJ6mo=", "properties": {"ref": "Urban Roots Brewing & Smokehouse", "@spider": "northern_california_breweries", "addr:full": "1322 V Street", "addr:city": "Sacramento", "addr:state": "CA", "website": "https://www.urbanrootsbrewing.com/home/"}},
{"type": "Feature", "id": "7YWSV0cZF6svY7atGeQXBpPwzmI=", "properties": {"ref": "Valley Brewing Company", "@spider": "northern_california_breweries", "addr:full": "157 W. Adams St.", "addr:city": "Stockton", "addr:state": "CA", "website": "http://www.valleybrew.com/"}},
{"type": "Feature", "id": "cGvnx2SuYe_VmAYkylDsvRPsEVg=", "properties": {"ref": "Waganupa Brewing ", "@spider": "northern_california_breweries", "addr:full": "1346 Longfellow Ave", "addr:city": "Chico", "addr:state": "CA", "website": "http://www.waganupa.com/"}},
{"type": "Feature", "id": "wZcCrLCxVe170ISSxgh3bJJ4HhM=", "properties": {"ref": "Waterman Brewing Co.", "@spider": "northern_california_breweries", "addr:full": "9824 Dino Drive Unit #150", "addr:city": "Elk Grove", "addr:state": "CA", "website": "http://watermanbrewing.com/"}},
{"type": "Feature", "id": "kd41DB0EXKkBptCsbjeBy-Z7yqM=", "properties": {"ref": "Wildcard Brewing Co.", "@spider": "northern_california_breweries", "addr:full": "9565 Crossroads Drive", "addr:city": "Redding", "addr:state": "CA", "website": "http://wildcardbrewingco.com/"}},
{"type": "Feature", "id": "h7zPwWkJiSd4U6_sNBNkAS7S_6Y=", "properties": {"ref": "Woodfour Brewing Co. ", "@spider": "northern_california_breweries", "addr:full": "6780 Depot St.", "addr:city": "Sebastopol ", "addr:state": "CA", "website": "http://woodfourbrewing.com/"}},
{"type": "Feature", "id": "QX4x7XopnhnIzZMCCrhpuOgZ54Q=", "properties": {"ref": "Woods Cerveceria", "@spider": "northern_california_breweries", "addr:full": "3801 18th St.", "addr:city": "San Francisco ", "addr:state": "CA", "website": "http://www.woodsbeer.com/cerveceria"}},
{"type": "Feature", "id": "2nqbH654b9x2SbG-zZ0PjKPCx_E=", "properties": {"ref": "Woods Island Club", "@spider": "northern_california_breweries", "addr:full": "422 Clipper Cove Way", "addr:city": "San Francisco ", "addr:state": "CA", "website": "http://www.woodsbeer.com/island-club"}},
{"type": "Feature", "id": "6Kly87wuTeGv27t_Ms9LunUlqPA=", "properties": {"ref": "Woods Outbound", "@spider": "northern_california_breweries", "addr:full": "4045 Judah Street", "addr:city": "San Francisco ", "addr:state": "CA", "website": "http://www.woodsbeer.com/outbound"}},
{"type": "Feature", "id": "jvmQvjr-nbKkrPDvgO_rJaPpbiA=", "properties": {"ref": "Woods Polk Station", "@spider": "northern_california_breweries", "addr:full": "2255 Polk St.", "addr:city": "San Francisco ", "addr:state": "CA", "website": "http://www.woodsbeer.com/polk-station"}},
{"type": "Feature", "id": "_aERJHEKA6EFEHKVwrbpi6RBwSw=", "properties": {"ref": "Woody's Brewing Co.", "@spider": "northern_california_breweries", "addr:full": "1257 Oregon St.", "addr:city": "Redding", "addr:state": "CA", "website": "https://woodysbrewing.com/"}},
{"type": "Feature", "id": "Cz7cKSawgZ3FMGNoER59GaZGp5Y=", "properties": {"ref": "Working Man Brewing Co.", "@spider": "northern_california_breweries", "addr:full": "5542 Brisa St., Suite F", "addr:city": "Livermore", "addr:state": "CA", "website": "http://www.workingmanbrewing.com/"}},
{"type": "Feature", "id": "lJ326siBE4KAvMrZMmkzCiWrwsk=", "properties": {"ref": "Yeast of Eden", "@spider": "northern_california_breweries", "addr:full": "Carmel Plaza Suite 112, Mission St. ", "addr:city": "Carmel", "addr:state": "CA", "website": "https://yoebeer.com/"}},
{"type": "Feature", "id": "8CF0mt2wdpX1eBOoWRKX2JaJQIU=", "properties": {"ref": "Line 51 Brewing ", "@spider": "northern_california_breweries", "addr:full": "303 Castro Street", "addr:city": "Oakland", "addr:state": "CA", "website": "https://www.line51beer.com/"}},
{"type": "Feature", "id": "VT-S61I4spZ8TNhz7GExg0Yz9sE=", "properties": {"ref": "New Belgium Brewing", "@spider": "northern_california_breweries", "addr:full": "1000a 3rd Street", "addr:city": "San Francisco ", "addr:state": "CA", "website": "https://www.newbelgium.com/visit/san-francisco/"}}]}