{"type":"FeatureCollection","features":[{"type": "Feature", "id": "I0_W8bMMSKKeh13qM9YyRQV1ynA=", "properties": {"ref": "https://www.oakfurnitureland.co.uk/showrooms/aberdeen.html", "@spider": "oak_furnitureland", "shop": "furniture", "addr:street_address": "Unit 2, Kittybrewster Retail Park", "addr:city": "Bedford Road", "addr:state": "Aberdeen", "addr:postcode": "AB24 3LJ", "addr:country": "GB", "name": "Oak Furniture Land Aberdeen", "phone": "01224 937241", "website": "https://www.oakfurnitureland.co.uk/showrooms/aberdeen.html", "opening_hours": "Mo-Fr 09:00-20:00; Sa 09:00-18:00; Su 10:00-18:00", "brand": "Oak Furnitureland", "brand:wikidata": "Q16959724", "nsi_id": "oakfurnitureland-5a41a5"}, "geometry": {"type": "Point", "coordinates": [-2.11158, 57.1609]}},
{"type": "Feature", "id": "dVVqjMnOd_2w8_cfYvCwDWacZYk=", "properties": {"ref": "https://www.oakfurnitureland.co.uk/showrooms/llandudno.html", "@spider": "oak_furnitureland", "shop": "furniture", "addr:street_address": "Unit A2, Mostyn Champneys Retail Park", "addr:city": "Conway Road", "addr:state": "Llandudno", "addr:postcode": "LL30 1HA", "addr:country": "GB", "name": "Oak Furniture Land Llandudno", "phone": "01492 554221", "website": "https://www.oakfurnitureland.co.uk/showrooms/llandudno.html", "opening_hours": "Mo-Fr 09:00-20:00; Sa 09:00-18:00; Su 10:30-17:00", "brand": "Oak Furnitureland", "brand:wikidata": "Q16959724", "nsi_id": "oakfurnitureland-5a41a5"}, "geometry": {"type": "Point", "coordinates": [-3.82083, 53.3195]}},
{"type": "Feature", "id": "O305nCSW-dRH88E9U11Blz6XM5I=", "properties": {"ref": "https://www.oakfurnitureland.co.uk/showrooms/lincoln.html", "@spider": "oak_furnitureland", "shop": "furniture", "addr:street_address": "Unit 1B, Tritton Retail Park", "addr:city": "Tritton Road", "addr:state": "Lincoln", "addr:postcode": "LN6 7AN", "addr:country": "GB", "name": "Oak Furniture Land Lincoln", "phone": "01522 300560", "website": "https://www.oakfurnitureland.co.uk/showrooms/lincoln.html", "opening_hours": "Mo-Fr 09:00-20:00; Sa 09:00-18:00; Su 10:30-17:00", "brand": "Oak Furnitureland", "brand:wikidata": "Q16959724", "nsi_id": "oakfurnitureland-5a41a5"}, "geometry": {"type": "Point", "coordinates": [-0.552106, 53.224]}},
{"type": "Feature", "id": "nptA6rqSUFddhRW-7jB1jJnPmvI=", "properties": {"ref": "https://www.oakfurnitureland.co.uk/showrooms/leicester.html", "@spider": "oak_furnitureland", "shop": "furniture", "addr:street_address": "Unit C1, Fosse Park South", "addr:city": "Enderby", "addr:state": "Leicester", "addr:postcode": "LE19 1UT", "addr:country": "GB", "name": "Oak Furniture Land Leicester", "phone": "01162 166904", "website": "https://www.oakfurnitureland.co.uk/showrooms/leicester.html", "opening_hours": "Mo-Fr 09:00-20:00; Sa 09:00-18:00; Su 10:30-17:00", "brand": "Oak Furnitureland", "brand:wikidata": "Q16959724", "nsi_id": "oakfurnitureland-5a41a5"}, "geometry": {"type": "Point", "coordinates": [-1.17753, 52.5948]}},
{"type": "Feature", "id": "q76eocGS_uwKmG4QJgKtaCBrEQc=", "properties": {"ref": "https://www.oakfurnitureland.co.uk/showrooms/kettering.html", "@spider": "oak_furnitureland", "shop": "furniture", "addr:street_address": "Unit 2 Kettering Retail Park", "addr:city": "Carina Road", "addr:state": "Kettering", "addr:postcode": "NN15 6YA", "addr:country": "GB", "name": "Oak Furniture Land Kettering", "phone": "01536 216001", "website": "https://www.oakfurnitureland.co.uk/showrooms/Kettering.html", "opening_hours": "Mo-Fr 09:00-20:00; Sa 09:00-18:00; Su 10:30-17:00", "brand": "Oak Furnitureland", "brand:wikidata": "Q16959724", "nsi_id": "oakfurnitureland-5a41a5"}, "geometry": {"type": "Point", "coordinates": [-0.718924, 52.3748]}},
{"type": "Feature", "id": "gLtXK62fcv-S2pNmjxBK0SxiNas=", "properties": {"ref": "https://www.oakfurnitureland.co.uk/showrooms/inverness.html", "@spider": "oak_furnitureland", "shop": "furniture", "addr:street_address": "Unit 1A, Telford Retail Park", "addr:city": "Telford St", "addr:state": "Inverness", "addr:postcode": "IV3 5LS", "addr:country": "GB", "name": "Oak Furniture Land Inverness", "phone": "01463 210379", "website": "https://www.oakfurnitureland.co.uk/showrooms/inverness.html", "opening_hours": "Mo-Fr 09:00-20:00; Sa 09:00-18:00; Su 10:00-18:00", "brand": "Oak Furnitureland", "brand:wikidata": "Q16959724", "nsi_id": "oakfurnitureland-5a41a5"}, "geometry": {"type": "Point", "coordinates": [-4.24626, 57.4818]}},
{"type": "Feature", "id": "3EUagtrLfpAs8mho8PRdBzPKBeg=", "properties": {"ref": "https://www.oakfurnitureland.co.uk/showrooms/hull.html", "@spider": "oak_furnitureland", "shop": "furniture", "addr:street_address": "Unit 9B, St Andrews Quay Retail Park", "addr:city": "Clive Sullivan Way", "addr:state": "Hull", "addr:postcode": "HU3 4SA", "addr:country": "GB", "name": "Oak Furniture Land Hull", "phone": "01482 420470", "website": "https://www.oakfurnitureland.co.uk/showrooms/hull.html", "opening_hours": "Mo-Fr 09:00-20:00; Sa 09:00-18:00; Su 10:30-17:00", "brand": "Oak Furnitureland", "brand:wikidata": "Q16959724", "nsi_id": "oakfurnitureland-5a41a5"}, "geometry": {"type": "Point", "coordinates": [-0.370574, 53.7276]}},
{"type": "Feature", "id": "Ta81Hw4TXV0QkCUO1XLKOdRxin4=", "properties": {"ref": "https://www.oakfurnitureland.co.uk/showrooms/hedge-end.html", "@spider": "oak_furnitureland", "shop": "furniture", "addr:street_address": "Unit 1A, Hedge End Retail Park", "addr:city": "Charles Watts Way", "addr:state": "Southampton", "addr:postcode": "SO30 4RT", "addr:country": "GB", "name": "Oak Furniture Land Southampton", "phone": "01489 663026", "website": "https://www.oakfurnitureland.co.uk/showrooms/hedge-end.html", "opening_hours": "Mo-Fr 09:00-20:00; Sa 09:00-18:00; Su 10:30-17:00", "brand": "Oak Furnitureland", "brand:wikidata": "Q16959724", "nsi_id": "oakfurnitureland-5a41a5"}, "geometry": {"type": "Point", "coordinates": [-1.31433, 50.9167]}},
{"type": "Feature", "id": "d82s-vDgyzONIwFMZgp6aiJDsIA=", "properties": {"ref": "https://www.oakfurnitureland.co.uk/showrooms/haverfordwest.html", "@spider": "oak_furnitureland", "shop": "furniture", "addr:street_address": "Unit 5, Withybush Retail Park", "addr:city": "Fishguard Road", "addr:state": "Haverfordwest", "addr:postcode": "SA61 2PY", "addr:country": "GB", "name": "Oak Furniture Land Haverfordwest", "phone": "01437 807159", "website": "https://www.oakfurnitureland.co.uk/showrooms/haverfordwest.html", "opening_hours": "Mo-Fr 09:00-20:00; Sa 09:00-18:00; Su 10:30-17:00", "brand": "Oak Furnitureland", "brand:wikidata": "Q16959724", "nsi_id": "oakfurnitureland-5a41a5"}, "geometry": {"type": "Point", "coordinates": [-4.96388, 51.8116]}},
{"type": "Feature", "id": "FJvp9lhXtV8plz50s80OWmd8UTM=", "properties": {"ref": "https://www.oakfurnitureland.co.uk/showrooms/york.html", "@spider": "oak_furnitureland", "shop": "furniture", "addr:street_address": "Unit 1B, Clifton Moor Retail Park", "addr:city": "Stirling Road", "addr:state": "York", "addr:postcode": "YO30 4XZ", "addr:country": "GB", "name": "Oak Furniture Land York", "phone": "01904 232305", "website": "https://www.oakfurnitureland.co.uk/showrooms/york.html", "opening_hours": "Mo-Fr 09:00-20:00; Sa 09:00-18:00; Su 10:30-17:00", "brand": "Oak Furnitureland", "brand:wikidata": "Q16959724", "nsi_id": "oakfurnitureland-5a41a5"}, "geometry": {"type": "Point", "coordinates": [-1.10278, 53.9916]}},
{"type": "Feature", "id": "DdiOakqdTzboXqb-CrWm0Zm50oQ=", "properties": {"ref": "https://www.oakfurnitureland.co.uk/showrooms/yeovil.html", "@spider": "oak_furnitureland", "shop": "furniture", "addr:street_address": "Unit 2", "addr:city": "Houndstone Retail Park", "addr:state": "Yeovil", "addr:postcode": "BA22 8YQ", "addr:country": "GB", "name": "Oak Furniture Land Yeovil", "phone": "01935 314705", "website": "https://www.oakfurnitureland.co.uk/showrooms/yeovil.html", "opening_hours": "Mo-Fr 09:00-20:00; Sa 09:00-18:00; Su 10:30-17:00", "brand": "Oak Furnitureland", "brand:wikidata": "Q16959724", "nsi_id": "oakfurnitureland-5a41a5"}, "geometry": {"type": "Point", "coordinates": [-2.656, 50.945]}},
{"type": "Feature", "id": "6DaS75j3Iz25tXUBhHQWa15PMhQ=", "properties": {"ref": "https://www.oakfurnitureland.co.uk/showrooms/worcester.html", "@spider": "oak_furnitureland", "shop": "furniture", "addr:street_address": "Unit 6, Blackpole Retail Park", "addr:city": "Blackpole Road", "addr:state": "Worcester", "addr:postcode": "WR3 8PQ", "addr:country": "GB", "name": "Oak Furniture Land Worcester", "phone": "01905 679010", "website": "https://www.oakfurnitureland.co.uk/showrooms/worcester.html", "opening_hours": "Mo-Fr 09:00-20:00; Sa 09:00-18:00; Su 10:30-17:00", "brand": "Oak Furnitureland", "brand:wikidata": "Q16959724", "nsi_id": "oakfurnitureland-5a41a5"}, "geometry": {"type": "Point", "coordinates": [-2.20043, 52.213]}},
{"type": "Feature", "id": "UZ5LZ3nlbISj0LcJOqbGkKUchLE=", "properties": {"ref": "https://www.oakfurnitureland.co.uk/showrooms/watford.html", "@spider": "oak_furnitureland", "shop": "furniture", "addr:street_address": "Unit 1A", "addr:city": "Colne Valley Retail Park", "addr:state": "Watford", "addr:postcode": "WD17 2JZ", "addr:country": "GB", "name": "Oak Furniture Land Watford", "phone": "01923 604836", "website": "https://www.oakfurnitureland.co.uk/showrooms/watford.html", "opening_hours": "Mo-Fr 09:00-20:00; Sa 09:00-18:00; Su 10:30-17:00", "brand": "Oak Furnitureland", "brand:wikidata": "Q16959724", "nsi_id": "oakfurnitureland-5a41a5"}, "geometry": {"type": "Point", "coordinates": [-0.384604, 51.6498]}},
{"type": "Feature", "id": "MRTN6nmeXcolR1Wp9GIVdDRLEwg=", "properties": {"ref": "https://www.oakfurnitureland.co.uk/showrooms/warrington.html", "@spider": "oak_furnitureland", "shop": "furniture", "addr:street_address": "Unit 5B, Junction Nine Retail Park", "addr:city": "(ex Magnet, used to be Alban Retail Park)", "addr:state": "Warrington", "addr:postcode": "WA2 8TW", "addr:country": "GB", "name": "Oak Furniture Land Warrington", "phone": "01925 912950", "website": "https://www.oakfurnitureland.co.uk/showrooms/warrington.html", "opening_hours": "Mo-Fr 09:00-20:00; Sa 09:00-18:00; Su 10:30-17:00", "brand": "Oak Furnitureland", "brand:wikidata": "Q16959724", "nsi_id": "oakfurnitureland-5a41a5"}, "geometry": {"type": "Point", "coordinates": [-2.5986, 53.4102]}},
{"type": "Feature", "id": "J_bfzzMIbaUg9AY2T3WlmoJ4e0g=", "properties": {"ref": "https://www.oakfurnitureland.co.uk/showrooms/tunbridge-wells.html", "@spider": "oak_furnitureland", "shop": "furniture", "addr:street_address": "Unit 2B, Great Lodge Retail Park", "addr:city": "Longfield Road", "addr:state": "Royal Tunbridge Wells", "addr:postcode": "TN2 3EW", "addr:country": "GB", "name": "Oak Furniture Land Royal Tunbridge Wells", "phone": "01892 574512", "website": "https://www.oakfurnitureland.co.uk/showrooms/tunbridge-wells.html", "opening_hours": "Mo-Fr 09:00-20:00; Sa 09:00-18:00; Su 10:30-17:00", "brand": "Oak Furnitureland", "brand:wikidata": "Q16959724", "nsi_id": "oakfurnitureland-5a41a5"}, "geometry": {"type": "Point", "coordinates": [0.29281, 51.1578]}},
{"type": "Feature", "id": "l8el5luBcDc5WoujoKghzxXoM60=", "properties": {"ref": "https://www.oakfurnitureland.co.uk/showrooms/truro.html", "@spider": "oak_furnitureland", "shop": "furniture", "addr:street_address": "Unit 2 West Truro Retail Park", "addr:city": "Threemilestone", "addr:state": "Truro", "addr:postcode": "TR3 6FT", "addr:country": "GB", "name": "Oak Furniture Land Truro", "phone": "01872 306099", "website": "https://www.oakfurnitureland.co.uk/showrooms/truro.html", "opening_hours": "Mo-Fr 09:00-20:00; Sa 09:00-18:00; Su 10:30-17:00", "brand": "Oak Furnitureland", "brand:wikidata": "Q16959724", "nsi_id": "oakfurnitureland-5a41a5"}, "geometry": {"type": "Point", "coordinates": [-5.12164, 50.2637]}},
{"type": "Feature", "id": "WlrdLUjXHGL1XTSnoz7aO5t4GtQ=", "properties": {"ref": "https://www.oakfurnitureland.co.uk/showrooms/thurrock.html", "@spider": "oak_furnitureland", "shop": "furniture", "addr:street_address": "Unit D2B", "addr:city": "Lakeside Retail Park", "addr:state": "Thurrock", "addr:postcode": "RM20 1WN", "addr:country": "GB", "name": "Oak Furniture Land Thurrock", "phone": "01375 800726", "website": "https://www.oakfurnitureland.co.uk/showrooms/thurrock.html", "opening_hours": "Mo-Fr 09:00-20:00; Sa 09:00-18:00; Su 10:30-17:00", "brand": "Oak Furnitureland", "brand:wikidata": "Q16959724", "nsi_id": "oakfurnitureland-5a41a5"}, "geometry": {"type": "Point", "coordinates": [0.275208, 51.4868]}},
{"type": "Feature", "id": "ouwVUP0CacBmVtYtFtNnT6bFL3A=", "properties": {"ref": "https://www.oakfurnitureland.co.uk/showrooms/tamworth.html", "@spider": "oak_furnitureland", "shop": "furniture", "addr:street_address": "Unit 5, Cardinal Point Retail Park", "addr:city": "Ventura Park Road", "addr:state": "Tamworth", "addr:postcode": "B78 3HL", "addr:country": "GB", "name": "Oak Furniture Land Tamworth", "phone": "01827802140", "website": "https://www.oakfurnitureland.co.uk/showrooms/tamworth.html", "opening_hours": "Mo-Fr 09:00-20:00; Sa 09:00-18:00; Su 10:30-17:00", "brand": "Oak Furnitureland", "brand:wikidata": "Q16959724", "nsi_id": "oakfurnitureland-5a41a5"}, "geometry": {"type": "Point", "coordinates": [-1.70909, 52.6273]}},
{"type": "Feature", "id": "UDJRiai46dvXKVBsWlJpSZTWq7Y=", "properties": {"ref": "https://www.oakfurnitureland.co.uk/showrooms/swindon.html", "@spider": "oak_furnitureland", "shop": "furniture", "addr:street_address": "Unit 2D", "addr:city": "Mannington Retail Park", "addr:state": "Swindon", "addr:postcode": "SN5 8WA", "addr:country": "GB", "name": "Oak Furniture Land Swindon", "phone": "01793 689873", "website": "https://www.oakfurnitureland.co.uk/showrooms/swindon.html", "opening_hours": "Mo-Fr 09:00-20:00; Sa 09:00-18:00; Su 10:30-17:00", "brand": "Oak Furnitureland", "brand:wikidata": "Q16959724", "nsi_id": "oakfurnitureland-5a41a5"}, "geometry": {"type": "Point", "coordinates": [-1.81307, 51.5546]}},
{"type": "Feature", "id": "m9WDejSrWKuDpfIvBU_vaJzfT24=", "properties": {"ref": "https://www.oakfurnitureland.co.uk/showrooms/swansea.html", "@spider": "oak_furnitureland", "shop": "furniture", "addr:street_address": "Phoenix Way", "addr:city": "Lakeside Retail Park", "addr:state": "Swansea", "addr:postcode": "SA7 9EH", "addr:country": "GB", "name": "Oak Furniture Land Swansea", "phone": "01792 344055", "website": "https://www.oakfurnitureland.co.uk/showrooms/swansea.html", "opening_hours": "Mo-Fr 09:00-20:00; Sa 09:00-18:00; Su 10:30-17:00", "brand": "Oak Furnitureland", "brand:wikidata": "Q16959724", "nsi_id": "oakfurnitureland-5a41a5"}, "geometry": {"type": "Point", "coordinates": [-3.90799, 51.6572]}},
{"type": "Feature", "id": "LQoBg_VVaPn8gJ3EMmSxnGKA6dg=", "properties": {"ref": "https://www.oakfurnitureland.co.uk/showrooms/stoke.html", "@spider": "oak_furnitureland", "shop": "furniture", "addr:street_address": "Unit F, Octagon Retail Park", "addr:city": "New Century Street", "addr:state": "Stoke-on-Trent", "addr:postcode": "ST1 5RR", "addr:country": "GB", "name": "Oak Furniture Land Stoke-on-Trent", "phone": "01782 917940", "website": "https://www.oakfurnitureland.co.uk/showrooms/stoke.html", "opening_hours": "Mo-Fr 09:00-20:00; Sa 09:00-18:00; Su 10:30-17:00", "brand": "Oak Furnitureland", "brand:wikidata": "Q16959724", "nsi_id": "oakfurnitureland-5a41a5"}, "geometry": {"type": "Point", "coordinates": [-2.188, 53.025]}},
{"type": "Feature", "id": "lFaiza14z0vWCYZ-wKxdqgcGv54=", "properties": {"ref": "https://www.oakfurnitureland.co.uk/showrooms/stockton-on-tees.html", "@spider": "oak_furnitureland", "shop": "furniture", "addr:street_address": "Unit 4, Portrack Interchange Retail Park", "addr:city": "Stockton-On-Tees", "addr:state": "Stockton", "addr:postcode": "TS18 2SP", "addr:country": "GB", "name": "Oak Furniture Land Stockton", "phone": "01642 927261", "website": "https://www.oakfurnitureland.co.uk/showrooms/stockton-on-tees.html", "opening_hours": "Mo-Fr 09:00-20:00; Sa 09:00-18:00; Su 10:30-17:00", "brand": "Oak Furnitureland", "brand:wikidata": "Q16959724", "nsi_id": "oakfurnitureland-5a41a5"}, "geometry": {"type": "Point", "coordinates": [-1.28053, 54.5768]}},
{"type": "Feature", "id": "oITzfZL1U4QdtnXozniu0Puq-Fk=", "properties": {"ref": "https://www.oakfurnitureland.co.uk/showrooms/stirling.html", "@spider": "oak_furnitureland", "shop": "furniture", "addr:street_address": "Unit 2, Springkerse Retail Park", "addr:city": "Muirton Road", "addr:state": "Stirling", "addr:postcode": "FK7 7TL", "addr:country": "GB", "name": "Oak Furniture Land Stirling", "phone": "01786 236040", "website": "https://www.oakfurnitureland.co.uk/showrooms/stirling.html", "opening_hours": "Mo-Fr 09:00-20:00; Sa 09:00-18:00; Su 10:00-18:00", "brand": "Oak Furnitureland", "brand:wikidata": "Q16959724", "nsi_id": "oakfurnitureland-5a41a5"}, "geometry": {"type": "Point", "coordinates": [-3.91357, 56.114]}},
{"type": "Feature", "id": "xrFVLLAGg6IsKSMoU0GE_w6EfRk=", "properties": {"ref": "https://www.oakfurnitureland.co.uk/showrooms/stevenage.html", "@spider": "oak_furnitureland", "shop": "furniture", "addr:street_address": "Unit 2A, Roaring Meg Retail Park", "addr:city": "Great North Road", "addr:state": "Stevenage", "addr:postcode": "SG1 1XN", "addr:country": "GB", "name": "Oak Furniture Land Stevenage", "phone": "01438964428", "website": "https://www.oakfurnitureland.co.uk/showrooms/stevenage.html", "opening_hours": "Mo-Fr 09:00-20:00; Sa 09:00-18:00; Su 10:30-17:00", "brand": "Oak Furnitureland", "brand:wikidata": "Q16959724", "nsi_id": "oakfurnitureland-5a41a5"}, "geometry": {"type": "Point", "coordinates": [-0.196487, 51.8918]}},
{"type": "Feature", "id": "G638WmMzuobGU1SwaymoQqcr9fU=", "properties": {"ref": "https://www.oakfurnitureland.co.uk/showrooms/speke.html", "@spider": "oak_furnitureland", "shop": "furniture", "addr:street_address": "Unit K2, New Mersey Shopping Park", "addr:city": "Speke", "addr:state": "Liverpool", "addr:postcode": "L24 8QB", "addr:country": "GB", "name": "Oak Furniture Land Liverpool", "phone": "01515 591157", "website": "https://www.oakfurnitureland.co.uk/showrooms/speke.html", "opening_hours": "Mo-Fr 09:00-20:00; Sa 09:00-18:00; Su 10:30-17:00", "brand": "Oak Furnitureland", "brand:wikidata": "Q16959724", "nsi_id": "oakfurnitureland-5a41a5"}, "geometry": {"type": "Point", "coordinates": [-2.87989, 53.3507]}},
{"type": "Feature", "id": "-YoKOw2tBdxjZQtp3YTjdIlIW_Q=", "properties": {"ref": "https://www.oakfurnitureland.co.uk/showrooms/south-ruislip.html", "@spider": "oak_furnitureland", "shop": "furniture", "addr:street_address": "Unit A, Brook Retail Park", "addr:city": "Victoria Road", "addr:state": "South Ruislip", "addr:postcode": "HA4 0LN", "addr:country": "GB", "name": "Oak Furniture Land South Ruislip", "phone": "01895 544410", "website": "https://www.oakfurnitureland.co.uk/showrooms/south-ruislip.html", "opening_hours": "Mo-Fr 09:00-20:00; Sa 09:00-18:00; Su 10:30-17:00", "brand": "Oak Furnitureland", "brand:wikidata": "Q16959724", "nsi_id": "oakfurnitureland-5a41a5"}, "geometry": {"type": "Point", "coordinates": [-0.389959, 51.5558]}},
{"type": "Feature", "id": "5xjH3I-tJdCfKSHjnooNDk8fVNM=", "properties": {"ref": "https://www.oakfurnitureland.co.uk/showrooms/solihull.html", "@spider": "oak_furnitureland", "shop": "furniture", "addr:street_address": "Unit 4, Oakenshaw Road", "addr:city": "Sears Retail Park", "addr:state": "Solihull", "addr:postcode": "B90 4QY", "addr:country": "GB", "name": "Oak Furniture Land Solihull", "phone": "01216 473510", "website": "https://www.oakfurnitureland.co.uk/showrooms/solihull.html", "opening_hours": "Mo-Fr 09:00-20:00; Sa 09:00-18:00; Su 10:30-17:00", "brand": "Oak Furnitureland", "brand:wikidata": "Q16959724", "nsi_id": "oakfurnitureland-5a41a5"}, "geometry": {"type": "Point", "coordinates": [-1.81551, 52.4022]}},
{"type": "Feature", "id": "t-7RB-1hAlA-oikIMMhJhY5nMgo=", "properties": {"ref": "https://www.oakfurnitureland.co.uk/showrooms/sheffield.html", "@spider": "oak_furnitureland", "shop": "furniture", "addr:street_address": "Unit 10 Drakehouse Retail Park", "addr:city": "Drake House Way", "addr:state": "Sheffield", "addr:postcode": "S20 7JJ", "addr:country": "GB", "name": "Oak Furniture Land Sheffield", "phone": "01143 990082", "website": "https://www.oakfurnitureland.co.uk/showrooms/sheffield.html", "opening_hours": "Mo-Fr 09:00-20:00; Sa 09:00-18:00; Su 10:30-17:00", "brand": "Oak Furnitureland", "brand:wikidata": "Q16959724", "nsi_id": "oakfurnitureland-5a41a5"}, "geometry": {"type": "Point", "coordinates": [-1.35405, 53.3454]}},
{"type": "Feature", "id": "W9itHhQQcqe9wTSI4jjLB7VJYnY=", "properties": {"ref": "https://www.oakfurnitureland.co.uk/showrooms/salisbury.html", "@spider": "oak_furnitureland", "shop": "furniture", "addr:street_address": "Unit 1, Southampton Road Retail Park", "addr:city": "Southampton Road", "addr:state": "Salisbury", "addr:postcode": "SP1 2NB", "addr:country": "GB", "name": "Oak Furniture Land Salisbury", "phone": "01722 444640", "website": "https://www.oakfurnitureland.co.uk/showrooms/salisbury.html", "opening_hours": "Mo-Fr 09:00-20:00; Sa 09:00-18:00; Su 10:30-17:00", "brand": "Oak Furnitureland", "brand:wikidata": "Q16959724", "nsi_id": "oakfurnitureland-5a41a5"}, "geometry": {"type": "Point", "coordinates": [-1.78, 51.0639]}},
{"type": "Feature", "id": "K6n9a8F_zioN2aXEj3LBUQXMxQU=", "properties": {"ref": "https://www.oakfurnitureland.co.uk/showrooms/reading.html", "@spider": "oak_furnitureland", "shop": "furniture", "addr:street_address": "Unit 2A", "addr:city": "Reading Gate Retail Park", "addr:state": "Reading", "addr:postcode": "RG2 0QG", "addr:country": "GB", "name": "Oak Furniture Land Reading", "phone": "0118 4027555", "website": "https://www.oakfurnitureland.co.uk/showrooms/reading.html", "opening_hours": "Mo-Fr 09:00-20:00; Sa 09:00-18:00; Su 10:30-17:00", "brand": "Oak Furnitureland", "brand:wikidata": "Q16959724", "nsi_id": "oakfurnitureland-5a41a5"}, "geometry": {"type": "Point", "coordinates": [-0.98083, 51.4237]}},
{"type": "Feature", "id": "ej2HuOVTvOQUUQOGpOon_y33Kgk=", "properties": {"ref": "https://www.oakfurnitureland.co.uk/showrooms/preston.html", "@spider": "oak_furnitureland", "shop": "furniture", "addr:street_address": "Unit C, Deepdale Retail Park", "addr:city": "Blackpool Road", "addr:state": "Preston", "addr:postcode": "PR1 6QY", "addr:country": "GB", "name": "Oak Furniture Land Preston", "phone": "01772 280880", "website": "https://www.oakfurnitureland.co.uk/showrooms/preston.html", "opening_hours": "Mo-Fr 09:00-20:00; Sa 09:00-18:00; Su 10:30-17:00", "brand": "Oak Furnitureland", "brand:wikidata": "Q16959724", "nsi_id": "oakfurnitureland-5a41a5"}, "geometry": {"type": "Point", "coordinates": [-2.67786, 53.7731]}},
{"type": "Feature", "id": "o6un3PW83W3Lm8DS7ncctuz2dvU=", "properties": {"ref": "https://www.oakfurnitureland.co.uk/showrooms/poole.html", "@spider": "oak_furnitureland", "shop": "furniture", "addr:street_address": "Unit 6A, Poole Retail Park", "addr:city": "Branksome", "addr:state": "Poole", "addr:postcode": "BH12 1DN", "addr:country": "GB", "name": "Oak Furniture Land Poole", "phone": "01202 233828", "website": "https://www.oakfurnitureland.co.uk/showrooms/poole.html", "opening_hours": "Mo-Fr 09:00-20:00; Sa 09:00-18:00; Su 10:30-17:00", "brand": "Oak Furnitureland", "brand:wikidata": "Q16959724", "nsi_id": "oakfurnitureland-5a41a5"}, "geometry": {"type": "Point", "coordinates": [-1.92119, 50.7292]}},
{"type": "Feature", "id": "T9WnW888FqWVcF-ZWLf94CiUMFM=", "properties": {"ref": "https://www.oakfurnitureland.co.uk/showrooms/plymouth.html", "@spider": "oak_furnitureland", "shop": "furniture", "addr:street_address": "Coypool Retail Park", "addr:city": "Coypool Road", "addr:state": "Plymouth", "addr:postcode": "PL7 4TB", "addr:country": "GB", "name": "Oak Furniture Land Plymouth", "phone": "01752 967100", "website": "https://www.oakfurnitureland.co.uk/showrooms/plymouth.html", "opening_hours": "Mo-Fr 09:00-20:00; Sa 09:00-18:00; Su 10:30-17:00", "brand": "Oak Furnitureland", "brand:wikidata": "Q16959724", "nsi_id": "oakfurnitureland-5a41a5"}, "geometry": {"type": "Point", "coordinates": [-4.08087, 50.3933]}},
{"type": "Feature", "id": "PaDtZk8Nm26q8Z1Sr2SV0ZUe_w8=", "properties": {"ref": "https://www.oakfurnitureland.co.uk/showrooms/peterborough.html", "@spider": "oak_furnitureland", "shop": "furniture", "addr:street_address": "Unit 5", "addr:city": "Brotherhood Retail Park", "addr:state": "Peterborough", "addr:postcode": "PE4 6ZR", "addr:country": "GB", "name": "Oak Furniture Land Peterborough", "phone": "01733 783006", "website": "https://www.oakfurnitureland.co.uk/showrooms/peterborough.html", "opening_hours": "Mo-Fr 09:00-20:00; Sa 09:00-18:00; Su 10:30-17:00", "brand": "Oak Furnitureland", "brand:wikidata": "Q16959724", "nsi_id": "oakfurnitureland-5a41a5"}, "geometry": {"type": "Point", "coordinates": [-0.265155, 52.5991]}},
{"type": "Feature", "id": "K8UXzHpvrTrWWC7zESHTOZ8grC0=", "properties": {"ref": "https://www.oakfurnitureland.co.uk/showrooms/paisley.html", "@spider": "oak_furnitureland", "shop": "furniture", "addr:street_address": "Unit 14", "addr:city": "Abbotsinch Retail Park", "addr:state": "Paisley", "addr:postcode": "PA3 4EP", "addr:country": "GB", "name": "Oak Furniture Land Paisley", "phone": "01416 480229", "website": "https://www.oakfurnitureland.co.uk/showrooms/paisley.html", "opening_hours": "Mo-Fr 09:00-20:00; Sa 09:00-18:00; Su 10:00-18:00", "brand": "Oak Furnitureland", "brand:wikidata": "Q16959724", "nsi_id": "oakfurnitureland-5a41a5"}, "geometry": {"type": "Point", "coordinates": [-4.41703, 55.8603]}},
{"type": "Feature", "id": "jahv1Syc36zWJXUp85fgQeeUiSw=", "properties": {"ref": "https://www.oakfurnitureland.co.uk/showrooms/orpington.html", "@spider": "oak_furnitureland", "shop": "furniture", "addr:street_address": "Unit 2B", "addr:city": "Springvale Retail Park", "addr:state": "Orpington", "addr:postcode": "BR5 3SG", "addr:country": "GB", "name": "Oak Furniture Land Orpington", "phone": "01689 660001", "website": "https://www.oakfurnitureland.co.uk/showrooms/orpington.html", "opening_hours": "Mo-Fr 09:00-20:00; Sa 09:00-18:00; Su 10:30-17:00", "brand": "Oak Furnitureland", "brand:wikidata": "Q16959724", "nsi_id": "oakfurnitureland-5a41a5"}, "geometry": {"type": "Point", "coordinates": [0.113931, 51.3974]}},
{"type": "Feature", "id": "jvHC48S6Un4x8JONNJFjeZokQF8=", "properties": {"ref": "https://www.oakfurnitureland.co.uk/showrooms/oldham.html", "@spider": "oak_furnitureland", "shop": "furniture", "addr:street_address": "Unit 4, Elk Mill Retail Park", "addr:city": "Royton", "addr:state": "Oldham", "addr:postcode": "OL2 5HX", "addr:country": "GB", "name": "Oak Furniture Land Oldham", "phone": "01616 677580", "website": "https://www.oakfurnitureland.co.uk/showrooms/oldham.html", "opening_hours": "Mo-Fr 09:00-20:00; Sa 09:00-18:00; Su 10:30-17:00", "brand": "Oak Furnitureland", "brand:wikidata": "Q16959724", "nsi_id": "oakfurnitureland-5a41a5"}, "geometry": {"type": "Point", "coordinates": [-2.13834, 53.5585]}},
{"type": "Feature", "id": "Tzt_WYb6RTbJLy0GUwS3gaJ-DkE=", "properties": {"ref": "https://www.oakfurnitureland.co.uk/showrooms/nottingham.html", "@spider": "oak_furnitureland", "shop": "furniture", "addr:street_address": "Unit 3 Victoria Retail Park", "addr:city": "Netherfield", "addr:state": "Nottingham", "addr:postcode": "NG4 2PE", "addr:country": "GB", "name": "Oak Furniture Land Nottingham", "phone": "01158 962373", "website": "https://www.oakfurnitureland.co.uk/showrooms/nottingham.html", "opening_hours": "Mo-Fr 09:00-20:00; Sa 09:00-18:00; Su 10:30-17:00", "brand": "Oak Furnitureland", "brand:wikidata": "Q16959724", "nsi_id": "oakfurnitureland-5a41a5"}, "geometry": {"type": "Point", "coordinates": [-1.06606, 52.9623]}},
{"type": "Feature", "id": "GXYsi5lxcJx_sNcZ2vAI1vKElMY=", "properties": {"ref": "https://www.oakfurnitureland.co.uk/showrooms/norwich.html", "@spider": "oak_furnitureland", "shop": "furniture", "addr:street_address": "Unit 11A, Sprowston Retail Park", "addr:city": "Salhouse Road", "addr:state": "Norwich", "addr:postcode": "NR7 9AZ", "addr:country": "GB", "name": "Oak Furniture Land Norwich", "phone": "01603 519298", "website": "https://www.oakfurnitureland.co.uk/showrooms/norwich.html", "opening_hours": "Mo-Fr 09:00-20:00; Sa 09:00-18:00; Su 10:30-17:00", "brand": "Oak Furnitureland", "brand:wikidata": "Q16959724", "nsi_id": "oakfurnitureland-5a41a5"}, "geometry": {"type": "Point", "coordinates": [1.3254, 52.6463]}},
{"type": "Feature", "id": "BWeHJubpeQSRieVejCI_KqO1MTU=", "properties": {"ref": "https://www.oakfurnitureland.co.uk/showrooms/milton-keynes.html", "@spider": "oak_furnitureland", "shop": "furniture", "addr:street_address": "Unit 2, Winterhill Retail Park", "addr:city": "Cairngorm Gate", "addr:state": "Milton Keynes", "addr:postcode": "MK6 1AZ", "addr:country": "GB", "name": "Oak Furniture Land Milton Keynes", "phone": "01908 760363", "website": "https://www.oakfurnitureland.co.uk/showrooms/milton-keynes.html", "opening_hours": "Mo-Fr 09:00-20:00; Sa 09:00-18:00; Su 10:30-17:00", "brand": "Oak Furnitureland", "brand:wikidata": "Q16959724", "nsi_id": "oakfurnitureland-5a41a5"}, "geometry": {"type": "Point", "coordinates": [-0.765925, 52.0287]}},
{"type": "Feature", "id": "lEZBe9iXVsCsc43ohXYkCfVJkCk=", "properties": {"ref": "https://www.oakfurnitureland.co.uk/showrooms/merthyr-tydfil.html", "@spider": "oak_furnitureland", "shop": "furniture", "addr:street_address": "Unit 2, Cyfarthfa North Retail Park", "addr:city": "Swansea Road", "addr:state": "Merthyr Tydfil", "addr:postcode": "CF48 1HY", "addr:country": "GB", "name": "Oak Furniture Land Merthyr Tydfil", "phone": "01685 709090", "website": "https://www.oakfurnitureland.co.uk/showrooms/merthyr-tydfil.html", "opening_hours": "Mo-Fr 09:00-20:00; Sa 09:00-18:00; Su 10:30-17:00", "brand": "Oak Furnitureland", "brand:wikidata": "Q16959724", "nsi_id": "oakfurnitureland-5a41a5"}, "geometry": {"type": "Point", "coordinates": [-3.39618, 51.7515]}},
{"type": "Feature", "id": "bzwSwlhyphXT9Xi0P1Hge-Dw6JM=", "properties": {"ref": "https://www.oakfurnitureland.co.uk/showrooms/manchester.html", "@spider": "oak_furnitureland", "shop": "furniture", "addr:street_address": "Unit 10, White City Retail Park", "addr:city": "Chester Road", "addr:state": "Manchester", "addr:postcode": "M16 0RP", "addr:country": "GB", "name": "Oak Furniture Land Manchester", "phone": "01616 940060", "website": "https://www.oakfurnitureland.co.uk/showrooms/manchester.html", "opening_hours": "Mo-Fr 09:00-20:00; Sa 09:00-18:00; Su 10:30-17:00", "brand": "Oak Furnitureland", "brand:wikidata": "Q16959724", "nsi_id": "oakfurnitureland-5a41a5"}, "geometry": {"type": "Point", "coordinates": [-2.2874, 53.4606]}},
{"type": "Feature", "id": "etOGx19xhEGGVTUL2dqZlRIehcs=", "properties": {"ref": "https://www.oakfurnitureland.co.uk/showrooms/maidstone.html", "@spider": "oak_furnitureland", "shop": "furniture", "addr:street_address": "Unit 5B", "addr:city": "South Aylesford Retail Park", "addr:state": "Maidstone", "addr:postcode": "ME20 7TP", "addr:country": "GB", "name": "Oak Furniture Land Maidstone", "phone": "01622 231781", "website": "https://www.oakfurnitureland.co.uk/showrooms/maidstone.html", "opening_hours": "Mo-Fr 09:00-20:00; Sa 09:00-18:00; Su 10:00-16:30", "brand": "Oak Furnitureland", "brand:wikidata": "Q16959724", "nsi_id": "oakfurnitureland-5a41a5"}, "geometry": {"type": "Point", "coordinates": [0.469952, 51.2939]}},
{"type": "Feature", "id": "MKPzxjNqHjOzqX9Yfh0lFPmVJcA=", "properties": {"ref": "https://www.oakfurnitureland.co.uk/showrooms/glasgow.html", "@spider": "oak_furnitureland", "shop": "furniture", "addr:street_address": "Unit 1A, Birkenshaw Trading Estate", "addr:city": "Rannoch Road", "addr:state": "Glasgow", "addr:postcode": "G71 5PR", "addr:country": "GB", "name": "Oak Furniture Land Glasgow", "phone": "0141 3757396", "website": "https://www.oakfurnitureland.co.uk/showrooms/glasgow.html", "opening_hours": "Mo-Fr 09:00-20:00; Sa 09:00-18:00; Su 10:00-18:00", "brand": "Oak Furnitureland", "brand:wikidata": "Q16959724", "nsi_id": "oakfurnitureland-5a41a5"}, "geometry": {"type": "Point", "coordinates": [-4.08591, 55.8363]}},
{"type": "Feature", "id": "vGwqPlbQqky-6Q-QiprPNEEMnOw=", "properties": {"ref": "https://www.oakfurnitureland.co.uk/showrooms/gateshead.html", "@spider": "oak_furnitureland", "shop": "furniture", "addr:street_address": "Unit 5, Metro Retail Park", "addr:city": "Hollinside Road", "addr:state": "Gateshead", "addr:postcode": "NE11 9XU", "addr:country": "GB", "name": "Oak Furniture Land Gateshead", "phone": "0191 4063101", "website": "https://www.oakfurnitureland.co.uk/showrooms/gateshead.html", "opening_hours": "Mo-Fr 09:00-20:00; Sa 09:00-18:00; Su 10:30-17:00", "brand": "Oak Furnitureland", "brand:wikidata": "Q16959724", "nsi_id": "oakfurnitureland-5a41a5"}, "geometry": {"type": "Point", "coordinates": [-1.67512, 54.9595]}},
{"type": "Feature", "id": "peuCl08nxxCU9TaNyG1adrriRls=", "properties": {"ref": "https://www.oakfurnitureland.co.uk/showrooms/farnborough.html", "@spider": "oak_furnitureland", "shop": "furniture", "addr:street_address": "Unit 3, Horizon Shopping Park", "addr:city": "Solartron Road", "addr:state": "Farnborough", "addr:postcode": "GU14 7QL", "addr:country": "GB", "name": "Oak Furniture Land Farnborough", "phone": "01252 419459", "website": "https://www.oakfurnitureland.co.uk/showrooms/farnborough.html", "opening_hours": "Mo-Fr 09:00-20:00; Sa 09:00-18:00; Su 10:30-17:00", "brand": "Oak Furnitureland", "brand:wikidata": "Q16959724", "nsi_id": "oakfurnitureland-5a41a5"}, "geometry": {"type": "Point", "coordinates": [-0.759867, 51.2895]}},
{"type": "Feature", "id": "yQIfVTfy5pgKEtzKUO8QVcKCdCA=", "properties": {"ref": "https://www.oakfurnitureland.co.uk/showrooms/exeter.html", "@spider": "oak_furnitureland", "shop": "furniture", "addr:street_address": "Unit 6B, Exeter Retail Park", "addr:city": "Marsh Barton Road", "addr:state": "Exeter", "addr:postcode": "EX2 8LH", "addr:country": "GB", "name": "Oak Furniture Land Exeter", "phone": "01392 343056", "website": "https://www.oakfurnitureland.co.uk/showrooms/exeter.html", "opening_hours": "Mo-Fr 09:00-20:00; Sa 09:00-18:00; Su 10:30-17:00", "brand": "Oak Furnitureland", "brand:wikidata": "Q16959724", "nsi_id": "oakfurnitureland-5a41a5"}, "geometry": {"type": "Point", "coordinates": [-3.53558, 50.7097]}},
{"type": "Feature", "id": "DOZxqvc8L760VW50EYpPFLkt9C4=", "properties": {"ref": "https://www.oakfurnitureland.co.uk/showrooms/edinburgh-fort-kinnaird.html", "@spider": "oak_furnitureland", "shop": "furniture", "addr:street_address": "Unit 3, Fort Kinnaird Shopping Centre", "addr:city": "Newcraighall Road", "addr:state": "Edinburgh", "addr:postcode": "EH15 3RD", "addr:country": "GB", "name": "Oak Furniture Land Edinburgh", "phone": "01313225930", "website": "https://www.oakfurnitureland.co.uk/showrooms/edinburgh-fort-kinnaird.html", "opening_hours": "Mo-Fr 09:00-20:00; Sa 09:00-18:00; Su 10:00-18:00", "brand": "Oak Furnitureland", "brand:wikidata": "Q16959724", "nsi_id": "oakfurnitureland-5a41a5"}, "geometry": {"type": "Point", "coordinates": [-3.10415, 55.9354]}},
{"type": "Feature", "id": "fJEb6L3PXY9oZ87pQLXVGvEKE68=", "properties": {"ref": "https://www.oakfurnitureland.co.uk/showrooms/eastbourne.html", "@spider": "oak_furnitureland", "shop": "furniture", "addr:street_address": "Unit 3", "addr:city": "Lottbridge Drove", "addr:state": "Eastbourne", "addr:postcode": "BN22 7SG", "addr:country": "GB", "name": "Oak Furniture Land Eastbourne", "phone": "01323 404071", "website": "https://www.oakfurnitureland.co.uk/showrooms/eastbourne.html", "opening_hours": "Mo-Fr 09:00-20:00; Sa 09:00-18:00; Su 10:30-17:00", "brand": "Oak Furnitureland", "brand:wikidata": "Q16959724", "nsi_id": "oakfurnitureland-5a41a5"}, "geometry": {"type": "Point", "coordinates": [0.308261, 50.7853]}},
{"type": "Feature", "id": "XNElVX4qtxeS8gQc8zoq4yKXsN8=", "properties": {"ref": "https://www.oakfurnitureland.co.uk/showrooms/dundee.html", "@spider": "oak_furnitureland", "shop": "furniture", "addr:street_address": "Unit 11", "addr:city": "Kingsway West Retail Park", "addr:state": "Dundee", "addr:postcode": "DD3 8QB", "addr:country": "GB", "name": "Oak Furniture Land Dundee", "phone": "01382 214508", "website": "https://www.oakfurnitureland.co.uk/showrooms/dundee.html", "opening_hours": "Mo-Fr 09:00-20:00; Sa 09:00-18:00; Su 10:00-18:00", "brand": "Oak Furnitureland", "brand:wikidata": "Q16959724", "nsi_id": "oakfurnitureland-5a41a5"}, "geometry": {"type": "Point", "coordinates": [-2.99378, 56.4813]}},
{"type": "Feature", "id": "DFTCujselbVAQ8lOP1KnhYYYYl0=", "properties": {"ref": "https://www.oakfurnitureland.co.uk/showrooms/doncaster.html", "@spider": "oak_furnitureland", "shop": "furniture", "addr:street_address": "Unit 4, Danum Retail Park", "addr:city": "York Road", "addr:state": "Doncaster", "addr:postcode": "DN5 8AS", "addr:country": "GB", "name": "Oak Furniture Land Doncaster", "phone": "01302 436235", "website": "https://www.oakfurnitureland.co.uk/showrooms/doncaster.html", "opening_hours": "Mo-Fr 09:00-20:00; Sa 09:00-18:00; Su 10:30-17:00", "brand": "Oak Furnitureland", "brand:wikidata": "Q16959724", "nsi_id": "oakfurnitureland-5a41a5"}, "geometry": {"type": "Point", "coordinates": [-1.15448, 53.5314]}},
{"type": "Feature", "id": "bvVCBEUxrR-DcJ7E0B_SooQLklw=", "properties": {"ref": "https://www.oakfurnitureland.co.uk/showrooms/derby.html", "@spider": "oak_furnitureland", "shop": "furniture", "addr:street_address": "Unit 2A, Meteor Retail Park", "addr:city": "Mansfield Road", "addr:state": "Derby", "addr:postcode": "DE21 4SY", "addr:country": "GB", "name": "Oak Furniture Land Derby", "phone": "01332 321069", "website": "https://www.oakfurnitureland.co.uk/showrooms/derby.html", "opening_hours": "Mo-Fr 09:00-20:00; Sa 09:00-18:00; Su 10:30-17:00", "brand": "Oak Furnitureland", "brand:wikidata": "Q16959724", "nsi_id": "oakfurnitureland-5a41a5"}, "geometry": {"type": "Point", "coordinates": [-1.464, 52.9415]}},
{"type": "Feature", "id": "JLHDhElrjD921zIyhToPOt2014k=", "properties": {"ref": "https://www.oakfurnitureland.co.uk/showrooms/croydon.html", "@spider": "oak_furnitureland", "shop": "furniture", "addr:street_address": "Purley Way Retail Park", "addr:city": "230-250 Purley Way", "addr:state": "Croydon", "addr:postcode": "CR0 4XG", "addr:country": "GB", "name": "Oak Furniture Land Croydon", "phone": "02036 576543", "website": "https://www.oakfurnitureland.co.uk/showrooms/croydon.html", "opening_hours": "Mo-Fr 09:00-20:00; Sa 09:00-18:00; Su 10:30-17:00", "brand": "Oak Furnitureland", "brand:wikidata": "Q16959724", "nsi_id": "oakfurnitureland-5a41a5"}, "geometry": {"type": "Point", "coordinates": [-0.119714, 51.3751]}},
{"type": "Feature", "id": "lps3JorIQdaHTivJP8JNLVmqvCM=", "properties": {"ref": "https://www.oakfurnitureland.co.uk/showrooms/cribbs-causeway.html", "@spider": "oak_furnitureland", "shop": "furniture", "addr:street_address": "Unit 7, Cribbs Causeway Retail Park", "addr:city": "Lysander Road", "addr:state": "Bristol", "addr:postcode": "BS34 5TX", "addr:country": "GB", "name": "Oak Furniture Land Bristol", "phone": "01172 443770", "website": "https://www.oakfurnitureland.co.uk/showrooms/cribbs-causeway.html", "opening_hours": "Mo-Fr 09:00-20:00; Sa 09:00-18:00; Su 10:30-17:00", "brand": "Oak Furnitureland", "brand:wikidata": "Q16959724", "nsi_id": "oakfurnitureland-5a41a5"}, "geometry": {"type": "Point", "coordinates": [-2.6012, 51.5261]}},
{"type": "Feature", "id": "f_62FeJiAJ4cPnuA6egovr_JSAU=", "properties": {"ref": "https://www.oakfurnitureland.co.uk/showrooms/coventry.html", "@spider": "oak_furnitureland", "shop": "furniture", "addr:street_address": "Unit 12 Central Six Retail Park", "addr:city": "Warwick Road", "addr:state": "Coventry", "addr:postcode": "CV3 6TA", "addr:country": "GB", "name": "Oak Furniture Land Coventry", "phone": "02476016407", "website": "https://www.oakfurnitureland.co.uk/showrooms/coventry.html", "opening_hours": "Mo-Sa 09:00-18:00; Su 10:30-17:00", "brand": "Oak Furnitureland", "brand:wikidata": "Q16959724", "nsi_id": "oakfurnitureland-5a41a5"}, "geometry": {"type": "Point", "coordinates": [-1.51744, 52.4024]}},
{"type": "Feature", "id": "aTdJoblvIqVt_asY7zy5gJiVkl8=", "properties": {"ref": "https://www.oakfurnitureland.co.uk/showrooms/colchester.html", "@spider": "oak_furnitureland", "shop": "furniture", "addr:street_address": "Unit 4B, Tollgate Retail Park", "addr:city": "Tollgate West, Stanway", "addr:state": "Colchester", "addr:postcode": "CO3 8RG", "addr:country": "GB", "name": "Oak Furniture Land Colchester", "phone": "01206 699838", "website": "https://www.oakfurnitureland.co.uk/showrooms/colchester.html", "opening_hours": "Mo-Fr 09:00-20:00; Sa 09:00-18:00; Su 11:00-17:00", "brand": "Oak Furnitureland", "brand:wikidata": "Q16959724", "nsi_id": "oakfurnitureland-5a41a5"}, "geometry": {"type": "Point", "coordinates": [0.833073, 51.8838]}},
{"type": "Feature", "id": "SYfbOk4YsaeOAcoPe7khGenwf2c=", "properties": {"ref": "https://www.oakfurnitureland.co.uk/showrooms/chester.html", "@spider": "oak_furnitureland", "shop": "furniture", "addr:street_address": "Unit 4, Greyhound Retail Park", "addr:city": "Greyhound Park Road", "addr:state": "Chester", "addr:postcode": "CH1 4QG", "addr:country": "GB", "name": "Oak Furniture Land Chester", "phone": "01244 421108", "website": "https://www.oakfurnitureland.co.uk/showrooms/chester.html", "opening_hours": "Mo-Fr 09:00-20:00; Sa 09:00-18:00; Su 10:30-17:00", "brand": "Oak Furnitureland", "brand:wikidata": "Q16959724", "nsi_id": "oakfurnitureland-5a41a5"}, "geometry": {"type": "Point", "coordinates": [-2.91485, 53.1963]}},
{"type": "Feature", "id": "PJGrZbvfRZbWTw3zWj1xI58T9DU=", "properties": {"ref": "https://www.oakfurnitureland.co.uk/showrooms/cheltenham.html", "@spider": "oak_furnitureland", "shop": "furniture", "addr:street_address": "Unit H, Gallagher Retail Park", "addr:city": "Tewkesbury Road", "addr:state": "Cheltenham", "addr:postcode": "GL51 9RR", "addr:country": "GB", "name": "Oak Furniture Land Cheltenham", "phone": "01242 500056", "website": "https://www.oakfurnitureland.co.uk/showrooms/cheltenham.html", "opening_hours": "Mo-Fr 09:00-20:00; Sa 09:00-18:00; Su 10:30-17:00", "brand": "Oak Furnitureland", "brand:wikidata": "Q16959724", "nsi_id": "oakfurnitureland-5a41a5"}, "geometry": {"type": "Point", "coordinates": [-2.10306, 51.9177]}},
{"type": "Feature", "id": "MDhcmKZ09Ig-xTyC646SJ7gmUro=", "properties": {"ref": "https://www.oakfurnitureland.co.uk/showrooms/chelmsford.html", "@spider": "oak_furnitureland", "shop": "furniture", "addr:street_address": "Unit B3, Chelmer Village Retail Park", "addr:city": "Chelmer Village Way", "addr:state": "Chelmsford", "addr:postcode": "CM2 6XE", "addr:country": "GB", "name": "Oak Furniture Land Chelmsford", "phone": "01245 584499", "website": "https://www.oakfurnitureland.co.uk/showrooms/chelmsford.html", "opening_hours": "Mo-Fr 09:00-20:00; Sa 09:00-18:00; Su 10:30-17:00", "brand": "Oak Furnitureland", "brand:wikidata": "Q16959724", "nsi_id": "oakfurnitureland-5a41a5"}, "geometry": {"type": "Point", "coordinates": [0.495731, 51.7326]}},
{"type": "Feature", "id": "o0KyB9UjBWn7IpfGw326BB1Ix3M=", "properties": {"ref": "https://www.oakfurnitureland.co.uk/showrooms/carlisle.html", "@spider": "oak_furnitureland", "shop": "furniture", "addr:street_address": "Unit 2 St. Nicholas Gate Retail Park", "addr:city": "London Road", "addr:state": "Carlisle", "addr:postcode": "CA1 2EA", "addr:country": "GB", "name": "Oak Furniture Land Carlisle", "phone": "01228580155", "website": "https://www.oakfurnitureland.co.uk/showrooms/carlisle.html", "opening_hours": "Mo-Fr 09:00-20:00; Sa 09:00-18:00; Su 10:30-17:00", "brand": "Oak Furnitureland", "brand:wikidata": "Q16959724", "nsi_id": "oakfurnitureland-5a41a5"}, "geometry": {"type": "Point", "coordinates": [-2.92355, 54.8866]}},
{"type": "Feature", "id": "LDg1_DtAWPgKLE1svHv9fjpRYAA=", "properties": {"ref": "https://www.oakfurnitureland.co.uk/showrooms/cardiff.html", "@spider": "oak_furnitureland", "shop": "furniture", "addr:street_address": "6 Dering Road, Cardiff Gate Retail Park", "addr:city": "Pontprennau", "addr:state": "Cardiff", "addr:postcode": "CF23 8NL", "addr:country": "GB", "name": "Oak Furniture Land Cardiff", "phone": "02920 029989", "website": "https://www.oakfurnitureland.co.uk/showrooms/cardiff.html", "opening_hours": "Mo-Fr 09:00-20:00; Sa 09:00-18:00; Su 10:30-17:00", "brand": "Oak Furnitureland", "brand:wikidata": "Q16959724", "nsi_id": "oakfurnitureland-5a41a5"}, "geometry": {"type": "Point", "coordinates": [-3.13009, 51.5369]}},
{"type": "Feature", "id": "V_Fj0Sn0YGwDiP8Ms4fhOE_7n9I=", "properties": {"ref": "https://www.oakfurnitureland.co.uk/showrooms/broadstairs.html", "@spider": "oak_furnitureland", "shop": "furniture", "addr:street_address": "Westwood Gateway Retail Park", "addr:city": "Margate Road", "addr:state": "Broadstairs", "addr:postcode": "CT10 2QU", "addr:country": "GB", "name": "Oak Furniture Land Broadstairs", "phone": "01843 267001", "website": "https://www.oakfurnitureland.co.uk/showrooms/broadstairs.html", "opening_hours": "Mo-Fr 09:00-20:00; Sa 09:00-18:00; Su 10:30-17:00", "brand": "Oak Furnitureland", "brand:wikidata": "Q16959724", "nsi_id": "oakfurnitureland-5a41a5"}, "geometry": {"type": "Point", "coordinates": [1.39392, 51.3629]}},
{"type": "Feature", "id": "eDqo5HXdAv2s0N_gNs4gKMVmuNQ=", "properties": {"ref": "https://www.oakfurnitureland.co.uk/showrooms/brighton.html", "@spider": "oak_furnitureland", "shop": "furniture", "addr:street_address": "58 Newtown Road", "addr:city": "Hove", "addr:state": "Brighton", "addr:postcode": "BN3 6AB", "addr:country": "GB", "name": "Oak Furniture Land Brighton", "phone": "01273 311618", "website": "https://www.oakfurnitureland.co.uk/showrooms/brighton.html", "opening_hours": "Mo-Fr 09:00-20:00; Sa 09:00-18:00; Su 10:30-17:00", "brand": "Oak Furnitureland", "brand:wikidata": "Q16959724", "nsi_id": "oakfurnitureland-5a41a5"}, "geometry": {"type": "Point", "coordinates": [-0.175301, 50.8384]}},
{"type": "Feature", "id": "JLUsCseNbzM1qOjnzZ-rGbudZ0s=", "properties": {"ref": "https://www.oakfurnitureland.co.uk/showrooms/bolton.html", "@spider": "oak_furnitureland", "shop": "furniture", "addr:street_address": "Unit 11, Middlebrook Retail Park", "addr:city": "62 The Linkway", "addr:state": "Bolton", "addr:postcode": "BL6 6JA", "addr:country": "GB", "name": "Oak Furniture Land Bolton", "phone": "01204 324558", "website": "https://www.oakfurnitureland.co.uk/showrooms/bolton.html", "opening_hours": "Mo-Fr 09:00-20:00; Sa 09:00-18:00; Su 10:30-17:00", "brand": "Oak Furnitureland", "brand:wikidata": "Q16959724", "nsi_id": "oakfurnitureland-5a41a5"}, "geometry": {"type": "Point", "coordinates": [-2.53763, 53.5862]}},
{"type": "Feature", "id": "Cmb_aqulzdsRscqPlq8u9hvYdFw=", "properties": {"ref": "https://www.oakfurnitureland.co.uk/showrooms/birstall.html", "@spider": "oak_furnitureland", "shop": "furniture", "addr:street_address": "Unit 6, Birstall Shopping Park", "addr:city": "Holden Ing Way", "addr:state": "Birstall", "addr:postcode": "WF17 9DT", "addr:country": "GB", "name": "Oak Furniture Land Birstall", "phone": "01134 873339", "website": "https://www.oakfurnitureland.co.uk/showrooms/birstall.html", "opening_hours": "Mo-Fr 09:00-20:00; Sa 09:00-18:00; Su 10:30-17:00", "brand": "Oak Furnitureland", "brand:wikidata": "Q16959724", "nsi_id": "oakfurnitureland-5a41a5"}, "geometry": {"type": "Point", "coordinates": [-1.64425, 53.7461]}},
{"type": "Feature", "id": "czdbzNLylwtUPtYUo-fIaCxuwqY=", "properties": {"ref": "https://www.oakfurnitureland.co.uk/showrooms/belfast.html", "@spider": "oak_furnitureland", "shop": "furniture", "addr:street_address": "Unit 9, Shane Retail Park", "addr:city": "Boucher Road", "addr:state": "Belfast", "addr:postcode": "BT12 6UA", "addr:country": "GB", "name": "Oak Furniture Land Belfast", "phone": "02895 901731", "website": "https://www.oakfurnitureland.co.uk/showrooms/belfast.html", "opening_hours": "Mo-Fr 09:00-20:00; Sa 09:00-18:00; Su 13:00-18:00", "brand": "Oak Furnitureland", "brand:wikidata": "Q16959724", "nsi_id": "oakfurnitureland-5a41a5"}, "geometry": {"type": "Point", "coordinates": [-5.97019, 54.5729]}},
{"type": "Feature", "id": "odsVOllD2hJqOw405dhcbrkJCmI=", "properties": {"ref": "https://www.oakfurnitureland.co.uk/showrooms/ayr.html", "@spider": "oak_furnitureland", "shop": "furniture", "addr:street_address": "Unit 5, Heathfield Retail Park", "addr:city": "Heathfield Road", "addr:state": "Ayr", "addr:postcode": "KA8 9BF", "addr:country": "GB", "name": "Oak Furniture Land Ayr", "phone": "01292 244010", "website": "https://www.oakfurnitureland.co.uk/showrooms/ayr.html", "opening_hours": "Mo-Fr 09:00-20:00; Sa 09:00-18:00; Su 10:00-18:00", "brand": "Oak Furnitureland", "brand:wikidata": "Q16959724", "nsi_id": "oakfurnitureland-5a41a5"}, "geometry": {"type": "Point", "coordinates": [-4.59271, 55.4791]}}]}