{"type":"FeatureCollection","features":[{"type": "Feature", "id": "4J-4w6p0PTENdxHQt0nyJKub2EU=", "properties": {"ref": "7073", "@spider": "oldchicago", "amenity": "restaurant", "cuisine": "pizza", "official_name": "Old Chicago Pizza & Taproom", "addr:full": "15231 TRENTON RD", "addr:housenumber": "15231", "addr:street": "TRENTON RD", "addr:city": "SOUTHGATE", "addr:state": "MI", "addr:postcode": "48195", "name": "Old Chicago", "opening_hours": "Sun 12:00pm-8:00pm, Mon-Thu 3:00pm-10:00pm, Fri-Sat 12:00pm-10:00pm", "brand": "Old Chicago", "brand:wikidata": "Q64411347", "nsi_id": "oldchicago-96af40"}, "geometry": {"type": "Point", "coordinates": [-83.193202, 42.197539]}},
{"type": "Feature", "id": "04LTP2q80dGq9e5wYlp96MuSVPk=", "properties": {"ref": "77", "@spider": "oldchicago", "amenity": "restaurant", "cuisine": "pizza", "official_name": "Old Chicago Pizza & Taproom", "addr:full": "4157 Western Boulevard, Suite 100", "addr:housenumber": "4157", "addr:street": "Western Boulevard, Suite 100", "addr:city": "Jacksonville", "addr:state": "NC", "addr:postcode": "28546", "name": "Old Chicago", "opening_hours": "Mon-Sun 11:00am-12:00am", "brand": "Old Chicago", "brand:wikidata": "Q64411347", "nsi_id": "oldchicago-96af40"}, "geometry": {"type": "Point", "coordinates": [-77.414954, 34.79815]}},
{"type": "Feature", "id": "YItAqylr_ABfaGA4iNHzfnemSuw=", "properties": {"ref": "89", "@spider": "oldchicago", "amenity": "restaurant", "cuisine": "pizza", "official_name": "Old Chicago Pizza & Taproom", "addr:full": "2140 SKIBO RD", "addr:housenumber": "2140", "addr:street": "SKIBO RD", "addr:city": "Fayetteville", "addr:state": "NC", "addr:postcode": "28314", "name": "Old Chicago", "opening_hours": "Mon-Sun 11:00am-12:00am", "brand": "Old Chicago", "brand:wikidata": "Q64411347", "nsi_id": "oldchicago-96af40"}, "geometry": {"type": "Point", "coordinates": [-78.971291, 35.051433]}},
{"type": "Feature", "id": "VQ_z3Fk_cZD9l1bvNBhYK31Cewk=", "properties": {"ref": "7075", "@spider": "oldchicago", "amenity": "restaurant", "cuisine": "pizza", "official_name": "Old Chicago Pizza & Taproom", "addr:full": "6603 EASTMAN AVE", "addr:housenumber": "6603", "addr:street": "EASTMAN AVE", "addr:city": "MIDLAND", "addr:state": "MI", "addr:postcode": "48642", "name": "Old Chicago", "opening_hours": "Sun 12:00pm-8:00pm, Mon-Thu 11:00am-9:00pm, Fri-Sat 11:00am-10:00pm", "brand": "Old Chicago", "brand:wikidata": "Q64411347", "nsi_id": "oldchicago-96af40"}, "geometry": {"type": "Point", "coordinates": [-84.24785, 43.65787]}},
{"type": "Feature", "id": "mZw5cloK21kkBSZSACzIDRlsxQg=", "properties": {"ref": "7071", "@spider": "oldchicago", "amenity": "restaurant", "cuisine": "pizza", "official_name": "Old Chicago Pizza & Taproom", "addr:full": "1938 W GRAND RIVER AVE", "addr:housenumber": "1938", "addr:street": "W GRAND RIVER AVE", "addr:city": "OKEMOS", "addr:state": "MI", "addr:postcode": "48864", "name": "Old Chicago", "opening_hours": "Sun 12:00pm-8:00pm, Mon-Thu 11:00am-9:00pm, Fri-Sat 11:00am-10:00pm", "brand": "Old Chicago", "brand:wikidata": "Q64411347", "nsi_id": "oldchicago-96af40"}, "geometry": {"type": "Point", "coordinates": [-84.418192, 42.720207]}},
{"type": "Feature", "id": "TG38izkwdDh08Ezxl3A3Rc_Ri_g=", "properties": {"ref": "7072", "@spider": "oldchicago", "amenity": "restaurant", "cuisine": "pizza", "official_name": "Old Chicago Pizza & Taproom", "addr:full": "3333 28TH ST SE STE A", "addr:housenumber": "3333", "addr:street": "28TH ST SE STE A", "addr:city": "KENTWOOD", "addr:state": "MI", "addr:postcode": "49512", "name": "Old Chicago", "opening_hours": "Sun 12:00pm-8:00pm, Mon-Thu 11:00am-9:00pm, Fri-Sat 11:00am-10:00pm", "brand": "Old Chicago", "brand:wikidata": "Q64411347", "nsi_id": "oldchicago-96af40"}, "geometry": {"type": "Point", "coordinates": [-85.584985, 42.912664]}},
{"type": "Feature", "id": "UH6fXBf-3QW35z4tikbk64zTY_Y=", "properties": {"ref": "7061", "@spider": "oldchicago", "amenity": "restaurant", "cuisine": "pizza", "official_name": "Old Chicago Pizza & Taproom", "addr:full": "2859 Hwy 17 BUS", "addr:housenumber": "2859", "addr:street": "Hwy 17 BUS", "addr:city": "Murrells Inlet", "addr:state": "SC", "addr:postcode": "29576", "name": "Old Chicago", "opening_hours": "Mon-Sun 11:00am-10:00pm", "brand": "Old Chicago", "brand:wikidata": "Q64411347", "nsi_id": "oldchicago-96af40"}, "geometry": {"type": "Point", "coordinates": [-79.011217, 33.586675]}},
{"type": "Feature", "id": "VsDcnqaef0ECicD8Hq7J5jzz07Y=", "properties": {"ref": "94", "@spider": "oldchicago", "amenity": "restaurant", "cuisine": "pizza", "official_name": "Old Chicago Pizza & Taproom", "addr:full": "1924 PAVILLON WAY", "addr:housenumber": "1924", "addr:street": "PAVILLON WAY", "addr:city": "LEXINGTON", "addr:state": "KY", "addr:postcode": "40509", "name": "Old Chicago", "opening_hours": "Mon-Sun 11:00am-11:00pm", "brand": "Old Chicago", "brand:wikidata": "Q64411347", "nsi_id": "oldchicago-96af40"}, "geometry": {"type": "Point", "coordinates": [-84.417532, 38.021323]}},
{"type": "Feature", "id": "QQScYXqLdTBqB2ZZR7nxTTs1M98=", "properties": {"ref": "75", "@spider": "oldchicago", "amenity": "restaurant", "cuisine": "pizza", "official_name": "Old Chicago Pizza & Taproom", "addr:full": "802 Gervais Street, Suite 100", "addr:housenumber": "802", "addr:street": "Gervais Street, Suite 100", "addr:city": "Columbia", "addr:state": "SC", "addr:postcode": "29201", "name": "Old Chicago", "opening_hours": "Mon-Sun 11:00am-12:00am", "brand": "Old Chicago", "brand:wikidata": "Q64411347", "nsi_id": "oldchicago-96af40"}, "geometry": {"type": "Point", "coordinates": [-81.039282, 33.998476]}},
{"type": "Feature", "id": "nRuPCZJdqWL9SzDsDrL5q-xZL9E=", "properties": {"ref": "7260", "@spider": "oldchicago", "amenity": "restaurant", "cuisine": "pizza", "official_name": "Old Chicago Pizza & Taproom", "addr:full": "740 E 81ST STREET", "addr:housenumber": "740", "addr:street": "E 81ST STREET", "addr:city": "MERRILLVILLE", "addr:state": "IN", "addr:postcode": "46410", "name": "Old Chicago", "opening_hours": "Mon-Sun 11:00am-11:00pm", "brand": "Old Chicago", "brand:wikidata": "Q64411347", "nsi_id": "oldchicago-96af40"}, "geometry": {"type": "Point", "coordinates": [-87.330412, 41.472192]}},
{"type": "Feature", "id": "9AwRmOGteH6_6PwNykCil_YSD0w=", "properties": {"ref": "65", "@spider": "oldchicago", "amenity": "restaurant", "cuisine": "pizza", "official_name": "Old Chicago Pizza & Taproom", "addr:full": "2495 S ONEIDA ST", "addr:housenumber": "2495", "addr:street": "S ONEIDA ST", "addr:city": "GREEN BAY", "addr:state": "WI", "addr:postcode": "54304", "name": "Old Chicago", "opening_hours": "Mon-Sun 11:00am-12:00am", "brand": "Old Chicago", "brand:wikidata": "Q64411347", "nsi_id": "oldchicago-96af40"}, "geometry": {"type": "Point", "coordinates": [-88.069397, 44.482819]}},
{"type": "Feature", "id": "rnmSzdRZDIzvLRv11F4hBpMp3E4=", "properties": {"ref": "7160", "@spider": "oldchicago", "amenity": "restaurant", "cuisine": "pizza", "official_name": "Old Chicago Pizza & Taproom", "addr:full": "529 MAIN ST.", "addr:housenumber": "529", "addr:street": "MAIN ST.", "addr:city": "VINCENNES", "addr:state": "IN", "addr:postcode": "47591", "name": "Old Chicago", "opening_hours": "Sun-Thu 11:00am-11:00pm, Fri-Sat 11:00am-12:00am", "brand": "Old Chicago", "brand:wikidata": "Q64411347", "nsi_id": "oldchicago-96af40"}, "geometry": {"type": "Point", "coordinates": [-87.529482, 38.676877]}},
{"type": "Feature", "id": "THNMzFNRuF9Y_wckL2Mr7pzbtc4=", "properties": {"ref": "76", "@spider": "oldchicago", "amenity": "restaurant", "cuisine": "pizza", "official_name": "Old Chicago Pizza & Taproom", "addr:full": "250 Northgate Mall Drive, Space # R0010", "addr:housenumber": "250", "addr:street": "Northgate Mall Drive, Space # R0010", "addr:city": "Chattanooga", "addr:state": "TN", "addr:postcode": "37343", "name": "Old Chicago", "opening_hours": "Mon-Sun 11:00am-12:00am", "brand": "Old Chicago", "brand:wikidata": "Q64411347", "nsi_id": "oldchicago-96af40"}, "geometry": {"type": "Point", "coordinates": [-85.23842, 35.132759]}},
{"type": "Feature", "id": "DIT5mw-SKWRFMRMnsRuDmMp0mmU=", "properties": {"ref": "103", "@spider": "oldchicago", "amenity": "restaurant", "cuisine": "pizza", "official_name": "Old Chicago Pizza & Taproom", "addr:full": "2006 Hamilton Place Blvd", "addr:housenumber": "2006", "addr:street": "Hamilton Place Blvd", "addr:city": "Chattanooga", "addr:state": "TN", "addr:postcode": "37421", "name": "Old Chicago", "opening_hours": "Mon-Sun 11:00am-12:00am", "brand": "Old Chicago", "brand:wikidata": "Q64411347", "nsi_id": "oldchicago-96af40"}, "geometry": {"type": "Point", "coordinates": [-85.165695, 35.032574]}},
{"type": "Feature", "id": "mcOFtf_g-abgMstTgUxEiUDAy68=", "properties": {"ref": "40", "@spider": "oldchicago", "amenity": "restaurant", "cuisine": "pizza", "official_name": "Old Chicago Pizza & Taproom", "addr:full": "6280 E STATE ST UNIT A", "addr:housenumber": "6280", "addr:street": "E STATE ST UNIT A", "addr:city": "ROCKFORD", "addr:state": "IL", "addr:postcode": "61108", "name": "Old Chicago", "opening_hours": "Mon-Sun 11:00am-11:00pm", "brand": "Old Chicago", "brand:wikidata": "Q64411347", "nsi_id": "oldchicago-96af40"}, "geometry": {"type": "Point", "coordinates": [-88.993784, 42.267482]}},
{"type": "Feature", "id": "GhEaFJC45IOqJiGVxdMGeZaPmUs=", "properties": {"ref": "96", "@spider": "oldchicago", "amenity": "restaurant", "cuisine": "pizza", "official_name": "Old Chicago Pizza & Taproom", "addr:full": "2815 WILMA RUDOLPH BLVD", "addr:housenumber": "2815", "addr:street": "WILMA RUDOLPH BLVD", "addr:city": "CLARKSVILLE", "addr:state": "TN", "addr:postcode": "37040", "name": "Old Chicago", "opening_hours": "Mon-Sun 11:00am-12:00am", "brand": "Old Chicago", "brand:wikidata": "Q64411347", "nsi_id": "oldchicago-96af40"}, "geometry": {"type": "Point", "coordinates": [-87.293165, 36.588523]}},
{"type": "Feature", "id": "S-bBbhxJweh4tP2LIGcIrlCEOoE=", "properties": {"ref": "97", "@spider": "oldchicago", "amenity": "restaurant", "cuisine": "pizza", "official_name": "Old Chicago Pizza & Taproom", "addr:full": "440 COOL SPRINGS BLVD", "addr:housenumber": "440", "addr:street": "COOL SPRINGS BLVD", "addr:city": "FRANKLIN", "addr:state": "TN", "addr:postcode": "37067", "name": "Old Chicago", "opening_hours": "Mon-Sun 11:00am-12:00am", "brand": "Old Chicago", "brand:wikidata": "Q64411347", "nsi_id": "oldchicago-96af40"}, "geometry": {"type": "Point", "coordinates": [-86.825162, 35.945698]}},
{"type": "Feature", "id": "vT34Da4LUQ3obkc6hEcttkCPMbo=", "properties": {"ref": "7018", "@spider": "oldchicago", "amenity": "restaurant", "cuisine": "pizza", "official_name": "Old Chicago Pizza & Taproom", "addr:full": "7610 N GRAND PRAIRIE DR", "addr:housenumber": "7610", "addr:street": "N GRAND PRAIRIE DR", "addr:city": "PEORIA", "addr:state": "IL", "addr:postcode": "61615", "name": "Old Chicago", "opening_hours": "Sun-Thu 11:00am-9:00pm, Fri-Sat 11:00am-10:00pm", "brand": "Old Chicago", "brand:wikidata": "Q64411347", "nsi_id": "oldchicago-96af40"}, "geometry": {"type": "Point", "coordinates": [-89.67655, 40.777433]}},
{"type": "Feature", "id": "QfsSJhtPWUDEc6SqQ3Ql6bN7Prw=", "properties": {"ref": "31", "@spider": "oldchicago", "amenity": "restaurant", "cuisine": "pizza", "official_name": "Old Chicago Pizza & Taproom", "addr:full": "3030 UTICA RIDGE RD", "addr:housenumber": "3030", "addr:street": "UTICA RIDGE RD", "addr:city": "BETTENDORF", "addr:state": "IA", "addr:postcode": "52722", "name": "Old Chicago", "opening_hours": "Mon-Sun 11:00am-12:00am", "brand": "Old Chicago", "brand:wikidata": "Q64411347", "nsi_id": "oldchicago-96af40"}, "geometry": {"type": "Point", "coordinates": [-90.517904, 41.555065]}},
{"type": "Feature", "id": "a-p2Vv9tlUB5gIC3qb2cW6EHOCU=", "properties": {"ref": "7262", "@spider": "oldchicago", "amenity": "restaurant", "cuisine": "pizza", "official_name": "Old Chicago Pizza & Taproom", "addr:full": "3100 Dodge Street", "addr:housenumber": "3100", "addr:street": "Dodge Street", "addr:city": "Dubuque", "addr:state": "IA", "addr:postcode": "52003", "name": "Old Chicago", "opening_hours": "Sun-Thu 11:00am-11:00pm, Fri-Sat 11:00am-12:00am", "brand": "Old Chicago", "brand:wikidata": "Q64411347", "nsi_id": "oldchicago-96af40"}, "geometry": {"type": "Point", "coordinates": [-90.709117, 42.491059]}},
{"type": "Feature", "id": "GwIexu4tUms6T-cJ-shIRn-uEbo=", "properties": {"ref": "7300", "@spider": "oldchicago", "amenity": "restaurant", "cuisine": "pizza", "official_name": "Old Chicago Pizza & Taproom", "addr:full": "6581 WHITTLESEY BLVD", "addr:housenumber": "6581", "addr:street": "WHITTLESEY BLVD", "addr:city": "COLUMBUS", "addr:state": "GA", "addr:postcode": "31909", "name": "Old Chicago", "opening_hours": "Sun-Thu 11:00am-11:00pm, Fri-Sat 11:00am-12:00am", "brand": "Old Chicago", "brand:wikidata": "Q64411347", "nsi_id": "oldchicago-96af40"}, "geometry": {"type": "Point", "coordinates": [-84.94131, 32.54689]}},
{"type": "Feature", "id": "6xwf7sbEpVxZsXF82qDji_w0Zgg=", "properties": {"ref": "7017", "@spider": "oldchicago", "amenity": "restaurant", "cuisine": "pizza", "official_name": "Old Chicago Pizza & Taproom", "addr:full": "75 2ND ST", "addr:housenumber": "75", "addr:street": "2ND ST", "addr:city": "CORALVILLE", "addr:state": "IA", "addr:postcode": "52241", "name": "Old Chicago", "opening_hours": "Mon-Sun 11:00am-9:00pm", "brand": "Old Chicago", "brand:wikidata": "Q64411347", "nsi_id": "oldchicago-96af40"}, "geometry": {"type": "Point", "coordinates": [-91.563988, 41.668493]}},
{"type": "Feature", "id": "08cx4EY6hKNaTY--xTk3F1eexh0=", "properties": {"ref": "41", "@spider": "oldchicago", "amenity": "restaurant", "cuisine": "pizza", "official_name": "Old Chicago Pizza & Taproom", "addr:full": "327 S LAKE AVE", "addr:housenumber": "327", "addr:street": "S LAKE AVE", "addr:city": "DULUTH", "addr:state": "MN", "addr:postcode": "55802", "name": "Old Chicago", "opening_hours": "Mon-Sun 11:00am-11:00pm", "brand": "Old Chicago", "brand:wikidata": "Q64411347", "nsi_id": "oldchicago-96af40"}, "geometry": {"type": "Point", "coordinates": [-92.096035, 46.783345]}},
{"type": "Feature", "id": "UnFnq62JYoaCkUH4r7iXoyieAog=", "properties": {"ref": "32", "@spider": "oldchicago", "amenity": "restaurant", "cuisine": "pizza", "official_name": "Old Chicago Pizza & Taproom", "addr:full": "2100 SNELLING AVE N STE 64", "addr:housenumber": "2100", "addr:street": "SNELLING AVE N STE 64", "addr:city": "ROSEVILLE", "addr:state": "MN", "addr:postcode": "55113", "name": "Old Chicago", "opening_hours": "Mon-Sun 11:00am-11:00pm", "brand": "Old Chicago", "brand:wikidata": "Q64411347", "nsi_id": "oldchicago-96af40"}, "geometry": {"type": "Point", "coordinates": [-93.166152, 45.003436]}},
{"type": "Feature", "id": "A_Ohnd8GOQ7RiRg0pC4NVuU2Y9A=", "properties": {"ref": "58", "@spider": "oldchicago", "amenity": "restaurant", "cuisine": "pizza", "official_name": "Old Chicago Pizza & Taproom", "addr:full": "12300 SINGLETREE LN STE 100", "addr:housenumber": "12300", "addr:street": "SINGLETREE LN STE 100", "addr:city": "EDEN PRAIRIE", "addr:state": "MN", "addr:postcode": "55344", "name": "Old Chicago", "opening_hours": "Mon-Sun 11:00am-11:00pm", "brand": "Old Chicago", "brand:wikidata": "Q64411347", "nsi_id": "oldchicago-96af40"}, "geometry": {"type": "Point", "coordinates": [-93.433253, 44.857454]}},
{"type": "Feature", "id": "enMn1LZFMPRzUlxHNXetUe67a6s=", "properties": {"ref": "7010", "@spider": "oldchicago", "amenity": "restaurant", "cuisine": "pizza", "official_name": "Old Chicago Pizza & Taproom", "addr:full": "1610 S KELLOGG AVE", "addr:housenumber": "1610", "addr:street": "S KELLOGG AVE", "addr:city": "AMES", "addr:state": "IA", "addr:postcode": "50010", "name": "Old Chicago", "opening_hours": "Mon-Sun 11:00am-10:00pm", "brand": "Old Chicago", "brand:wikidata": "Q64411347", "nsi_id": "oldchicago-96af40"}, "geometry": {"type": "Point", "coordinates": [-93.6124, 42.008168]}},
{"type": "Feature", "id": "hi0Uu1v2-CsC0N29exI4JVUlYmc=", "properties": {"ref": "7009", "@spider": "oldchicago", "amenity": "restaurant", "cuisine": "pizza", "official_name": "Old Chicago Pizza & Taproom", "addr:full": "2732 SE DELAWARE AVE STE 101", "addr:housenumber": "2732", "addr:street": "SE DELAWARE AVE STE 101", "addr:city": "ANKENY", "addr:state": "IA", "addr:postcode": "50021", "name": "Old Chicago", "opening_hours": "Mon-Sun 11:00am-10:00pm", "brand": "Old Chicago", "brand:wikidata": "Q64411347", "nsi_id": "oldchicago-96af40"}, "geometry": {"type": "Point", "coordinates": [-93.5814, 41.70266]}},
{"type": "Feature", "id": "VTmwSMpHIV7eGeEJDTvM49bQ3RQ=", "properties": {"ref": "90", "@spider": "oldchicago", "amenity": "restaurant", "cuisine": "pizza", "official_name": "Old Chicago Pizza & Taproom", "addr:full": "4661 S COCHISE COURTS", "addr:housenumber": "4661", "addr:street": "S COCHISE COURTS", "addr:city": "Independence", "addr:state": "MO", "addr:postcode": "64055", "name": "Old Chicago", "opening_hours": "Mon-Sun 11:00am-12:00am", "brand": "Old Chicago", "brand:wikidata": "Q64411347", "nsi_id": "oldchicago-96af40"}, "geometry": {"type": "Point", "coordinates": [-94.36358, 39.03371]}},
{"type": "Feature", "id": "I4j5powcY4oAaJWtJfpeA00xNrc=", "properties": {"ref": "79", "@spider": "oldchicago", "amenity": "restaurant", "cuisine": "pizza", "official_name": "Old Chicago Pizza & Taproom", "addr:full": "8251 N BOOTH AVE", "addr:housenumber": "8251", "addr:street": "N BOOTH AVE", "addr:city": "Kansas City", "addr:state": "MO", "addr:postcode": "64158", "name": "Old Chicago", "opening_hours": "Mon-Sun 11:00am-12:00am", "brand": "Old Chicago", "brand:wikidata": "Q64411347", "nsi_id": "oldchicago-96af40"}, "geometry": {"type": "Point", "coordinates": [-94.476563, 39.286271]}},
{"type": "Feature", "id": "dxIW_OTdRnzpIUqEeOW5acaOkLg=", "properties": {"ref": "7341", "@spider": "oldchicago", "amenity": "restaurant", "cuisine": "pizza", "official_name": "Old Chicago Pizza & Taproom", "addr:full": "1920 DIAMOND PKWY", "addr:housenumber": "1920", "addr:street": "DIAMOND PKWY", "addr:city": "NORTH KANSAS CITY", "addr:state": "MO", "addr:postcode": "64116", "name": "Old Chicago", "opening_hours": "Sun-Thu 11:00am-10:00pm, Fri-Sat 11:00am-11:00pm", "brand": "Old Chicago", "brand:wikidata": "Q64411347", "nsi_id": "oldchicago-96af40"}, "geometry": {"type": "Point", "coordinates": [-94.556325, 39.144879]}},
{"type": "Feature", "id": "HnslTjofwfsvUnno1cDEXILqsyw=", "properties": {"ref": "7340", "@spider": "oldchicago", "amenity": "restaurant", "cuisine": "pizza", "official_name": "Old Chicago Pizza & Taproom", "addr:full": "10920 N. AMBASSADOR DR", "addr:housenumber": "10920", "addr:street": "N. AMBASSADOR DR", "addr:city": "Kansas City", "addr:state": "MO", "addr:postcode": "64153", "name": "Old Chicago", "opening_hours": "Mon-Sun 11:00am-10:00pm", "brand": "Old Chicago", "brand:wikidata": "Q64411347", "nsi_id": "oldchicago-96af40"}, "geometry": {"type": "Point", "coordinates": [-94.67996, 39.28982]}},
{"type": "Feature", "id": "gZvsIbCcZp2e_3Yn8GPj1E3Av6k=", "properties": {"ref": "59", "@spider": "oldchicago", "amenity": "restaurant", "cuisine": "pizza", "official_name": "Old Chicago Pizza & Taproom", "addr:full": "11969 S STRANG LINE RD", "addr:housenumber": "11969", "addr:street": "S STRANG LINE RD", "addr:city": "OLATHE", "addr:state": "KS", "addr:postcode": "66062", "name": "Old Chicago", "opening_hours": "Mon-Sun 11:00am-12:00am", "brand": "Old Chicago", "brand:wikidata": "Q64411347", "nsi_id": "oldchicago-96af40"}, "geometry": {"type": "Point", "coordinates": [-94.76824, 38.910049]}},
{"type": "Feature", "id": "OxFUSH3qWl7N3Hm7VK9EoaDA7x8=", "properties": {"ref": "7280", "@spider": "oldchicago", "amenity": "restaurant", "cuisine": "pizza", "official_name": "Old Chicago Pizza & Taproom", "addr:full": "5030 Sergeant Road", "addr:housenumber": "5030", "addr:street": "Sergeant Road", "addr:city": "SIOUX CITY", "addr:state": "IA", "addr:postcode": "51106", "name": "Old Chicago", "opening_hours": "Mon-Sun 11:00am-10:00pm", "brand": "Old Chicago", "brand:wikidata": "Q64411347", "nsi_id": "oldchicago-96af40"}, "geometry": {"type": "Point", "coordinates": [-96.340386, 42.445098]}},
{"type": "Feature", "id": "XhInoYmpd5mOBsXaxhSQHHRXdhY=", "properties": {"ref": "7273", "@spider": "oldchicago", "amenity": "restaurant", "cuisine": "pizza", "official_name": "Old Chicago Pizza & Taproom", "addr:full": "545 Wakarusa Drive", "addr:housenumber": "545", "addr:street": "Wakarusa Drive", "addr:city": "Lawrence", "addr:state": "KS", "addr:postcode": "66049", "name": "Old Chicago", "opening_hours": "Sun-Thu 11:00am-9:00pm, Fri-Sat 11:00am-10:00pm", "brand": "Old Chicago", "brand:wikidata": "Q64411347", "nsi_id": "oldchicago-96af40"}, "geometry": {"type": "Point", "coordinates": [-95.30789, 38.972573]}},
{"type": "Feature", "id": "IE6j8RFL-WV3ArCf34VmCsbaNT0=", "properties": {"ref": "36", "@spider": "oldchicago", "amenity": "restaurant", "cuisine": "pizza", "official_name": "Old Chicago Pizza & Taproom", "addr:full": "13110 BIRCH DR STE 180", "addr:housenumber": "13110", "addr:street": "BIRCH DR STE 180", "addr:city": "OMAHA", "addr:state": "NE", "addr:postcode": "68164", "name": "Old Chicago", "opening_hours": "Mon-Sun 11:00am-12:00am", "brand": "Old Chicago", "brand:wikidata": "Q64411347", "nsi_id": "oldchicago-96af40"}, "geometry": {"type": "Point", "coordinates": [-96.118534, 41.29102]}},
{"type": "Feature", "id": "_lJWm9X8JyUveIvUdfQlUbXr4nM=", "properties": {"ref": "45", "@spider": "oldchicago", "amenity": "restaurant", "cuisine": "pizza", "official_name": "Old Chicago Pizza & Taproom", "addr:full": "2643 S 144TH ST", "addr:housenumber": "2643", "addr:street": "S 144TH ST", "addr:city": "OMAHA", "addr:state": "NE", "addr:postcode": "68144", "name": "Old Chicago", "opening_hours": "Mon-Sun 11:00am-12:00am", "brand": "Old Chicago", "brand:wikidata": "Q64411347", "nsi_id": "oldchicago-96af40"}, "geometry": {"type": "Point", "coordinates": [-96.138325, 41.234466]}},
{"type": "Feature", "id": "J-mIUO-c99qvJr4sDMXIDAsj8ps=", "properties": {"ref": "7290", "@spider": "oldchicago", "amenity": "restaurant", "cuisine": "pizza", "official_name": "Old Chicago Pizza & Taproom", "addr:full": "3320 S RANGE ROAD", "addr:housenumber": "3320", "addr:street": "S RANGE ROAD", "addr:city": "Joplin", "addr:state": "MO", "addr:postcode": "64804", "name": "Old Chicago", "opening_hours": "Sun-Thu 11:00am-11:00pm, Fri-Sat 11:00am-12:00am", "brand": "Old Chicago", "brand:wikidata": "Q64411347", "nsi_id": "oldchicago-96af40"}, "geometry": {"type": "Point", "coordinates": [-94.479776, 37.053042]}},
{"type": "Feature", "id": "htJU1nbvByEF6CY31QgSR2vDvuc=", "properties": {"ref": "7292", "@spider": "oldchicago", "amenity": "restaurant", "cuisine": "pizza", "official_name": "Old Chicago Pizza & Taproom", "addr:full": "1900 W. PLEASANT GROVE", "addr:housenumber": "1900", "addr:street": "W. PLEASANT GROVE", "addr:city": "ROGERS", "addr:state": "AR", "addr:postcode": "72758", "name": "Old Chicago", "opening_hours": "Sun-Thu 11:00am-10:00pm, Fri-Sat 11:00am-11:00pm", "brand": "Old Chicago", "brand:wikidata": "Q64411347", "nsi_id": "oldchicago-96af40"}, "geometry": {"type": "Point", "coordinates": [-94.149042, 36.283165]}},
{"type": "Feature", "id": "uBg0YwN_N70-izNCQkzDu0qE0Ks=", "properties": {"ref": "63", "@spider": "oldchicago", "amenity": "restaurant", "cuisine": "pizza", "official_name": "Old Chicago Pizza & Taproom", "addr:full": "1231 SW WANAMAKER RD", "addr:housenumber": "1231", "addr:street": "SW WANAMAKER RD", "addr:city": "TOPEKA", "addr:state": "KS", "addr:postcode": "66604", "name": "Old Chicago", "opening_hours": "Mon-Sun 11:00am-12:00am", "brand": "Old Chicago", "brand:wikidata": "Q64411347", "nsi_id": "oldchicago-96af40"}, "geometry": {"type": "Point", "coordinates": [-95.76187, 39.045005]}},
{"type": "Feature", "id": "aQJemDjRZ4Vt1lbkP0HwGSHdVFY=", "properties": {"ref": "46", "@spider": "oldchicago", "amenity": "restaurant", "cuisine": "pizza", "official_name": "Old Chicago Pizza & Taproom", "addr:full": "2918 PINE LAKE RD", "addr:housenumber": "2918", "addr:street": "PINE LAKE RD", "addr:city": "LINCOLN", "addr:state": "NE", "addr:postcode": "68516", "name": "Old Chicago", "opening_hours": "Mon-Sun 11:00am-12:00am", "brand": "Old Chicago", "brand:wikidata": "Q64411347", "nsi_id": "oldchicago-96af40"}, "geometry": {"type": "Point", "coordinates": [-96.67821, 40.740781]}},
{"type": "Feature", "id": "2eWWMXbW8GYMeShP7iPnFDXHdFc=", "properties": {"ref": "7271", "@spider": "oldchicago", "amenity": "restaurant", "cuisine": "pizza", "official_name": "Old Chicago Pizza & Taproom", "addr:full": "2001 Clock Tower Place", "addr:housenumber": "2001", "addr:street": "Clock Tower Place", "addr:city": "MANHATTAN", "addr:state": "KS", "addr:postcode": "66503", "name": "Old Chicago", "opening_hours": "Sun-Thu 11:00am-9:00pm, Fri-Sat 11:00am-10:00pm", "brand": "Old Chicago", "brand:wikidata": "Q64411347", "nsi_id": "oldchicago-96af40"}, "geometry": {"type": "Point", "coordinates": [-96.571669, 39.183608]}},
{"type": "Feature", "id": "h8MDiJxyMpnZ4Lj9FA6mKIRPd0U=", "properties": {"ref": "7274", "@spider": "oldchicago", "amenity": "restaurant", "cuisine": "pizza", "official_name": "Old Chicago Pizza & Taproom", "addr:full": "214 S. Santa Fe", "addr:housenumber": "214", "addr:street": "S. Santa Fe", "addr:city": "Salina", "addr:state": "KS", "addr:postcode": "67401", "name": "Old Chicago", "opening_hours": "Sun-Thu 11:00am-9:00pm, Fri-Sat 11:00am-10:00pm", "brand": "Old Chicago", "brand:wikidata": "Q64411347", "nsi_id": "oldchicago-96af40"}, "geometry": {"type": "Point", "coordinates": [-97.608786, 38.821644]}},
{"type": "Feature", "id": "oXSxI_oItbUnnOq9WtRwRPZ9Kfw=", "properties": {"ref": "69", "@spider": "oldchicago", "amenity": "restaurant", "cuisine": "pizza", "official_name": "Old Chicago Pizza & Taproom", "addr:full": "7626 E KELLOGG DR", "addr:housenumber": "7626", "addr:street": "E KELLOGG DR", "addr:city": "WICHITA", "addr:state": "KS", "addr:postcode": "67207", "name": "Old Chicago", "opening_hours": "Sun-Wed 11:00am-12:00am, Thu-Sat 11:00am-2:00am", "brand": "Old Chicago", "brand:wikidata": "Q64411347", "nsi_id": "oldchicago-96af40"}, "geometry": {"type": "Point", "coordinates": [-97.248714, 37.679904]}},
{"type": "Feature", "id": "ivZE6nnveo7sNEON0xlfe0LT1Hg=", "properties": {"ref": "57", "@spider": "oldchicago", "amenity": "restaurant", "cuisine": "pizza", "official_name": "Old Chicago Pizza & Taproom", "addr:full": "300 N MEAD ST", "addr:housenumber": "300", "addr:street": "N MEAD ST", "addr:city": "WICHITA", "addr:state": "KS", "addr:postcode": "67202", "name": "Old Chicago", "opening_hours": "Sun-Wed 11:00am-12:00am, Thu-Sat 11:00am-2:00am", "brand": "Old Chicago", "brand:wikidata": "Q64411347", "nsi_id": "oldchicago-96af40"}, "geometry": {"type": "Point", "coordinates": [-97.328705, 37.689945]}},
{"type": "Feature", "id": "5PBrC8ACFJqzzBM8GVQPO892_Q8=", "properties": {"ref": "51", "@spider": "oldchicago", "amenity": "restaurant", "cuisine": "pizza", "official_name": "Old Chicago Pizza & Taproom", "addr:full": "2240 N TYLER RD STE 100", "addr:housenumber": "2240", "addr:street": "N TYLER RD STE 100", "addr:city": "WICHITA", "addr:state": "KS", "addr:postcode": "67205", "name": "Old Chicago", "opening_hours": "Sun-Wed 11:00am-12:00am, Thu-Sat 11:00am-2:00am", "brand": "Old Chicago", "brand:wikidata": "Q64411347", "nsi_id": "oldchicago-96af40"}, "geometry": {"type": "Point", "coordinates": [-97.444306, 37.723862]}},
{"type": "Feature", "id": "p8IikCHn58TuazkSSZZRH8ztiMU=", "properties": {"ref": "7003", "@spider": "oldchicago", "amenity": "restaurant", "cuisine": "pizza", "official_name": "Old Chicago Pizza & Taproom", "addr:full": "115 2ND AVE E", "addr:housenumber": "115", "addr:street": "2ND AVE E", "addr:city": "KEARNEY", "addr:state": "NE", "addr:postcode": "68847", "name": "Old Chicago", "opening_hours": "Sun-Thu 11:00am-11:00pm, Fri-Sat 11:00am-12:00am", "brand": "Old Chicago", "brand:wikidata": "Q64411347", "nsi_id": "oldchicago-96af40"}, "geometry": {"type": "Point", "coordinates": [-99.08449, 40.67369]}},
{"type": "Feature", "id": "yt8MPL_uJiSFY_bXxunGD9Xyo4Q=", "properties": {"ref": "7180", "@spider": "oldchicago", "amenity": "restaurant", "cuisine": "pizza", "official_name": "Old Chicago Pizza & Taproom", "addr:full": "383 West Mopar", "addr:housenumber": "383", "addr:street": "West Mopar", "addr:city": "Hays", "addr:state": "KS", "addr:postcode": "67601", "name": "Old Chicago", "opening_hours": "Mon-Sun 11:00am-9:00pm", "brand": "Old Chicago", "brand:wikidata": "Q64411347", "nsi_id": "oldchicago-96af40"}, "geometry": {"type": "Point", "coordinates": [-99.318013, 38.900008]}},
{"type": "Feature", "id": "IsL7U4JbvGLmWEpN0Uh87LZYHZA=", "properties": {"ref": "80", "@spider": "oldchicago", "amenity": "restaurant", "cuisine": "pizza", "official_name": "Old Chicago Pizza & Taproom", "addr:full": "8933 N Freeway", "addr:housenumber": "8933", "addr:street": "N Freeway", "addr:city": "Fort Worth", "addr:state": "TX", "addr:postcode": "76177", "name": "Old Chicago", "opening_hours": "Mon-Sun 11:00am-12:00am", "brand": "Old Chicago", "brand:wikidata": "Q64411347", "nsi_id": "oldchicago-96af40"}, "geometry": {"type": "Point", "coordinates": [-97.317918, 32.870701]}},
{"type": "Feature", "id": "nYQ6HHu7UJifbTyzanQYwKbk_vI=", "properties": {"ref": "7270", "@spider": "oldchicago", "amenity": "restaurant", "cuisine": "pizza", "official_name": "Old Chicago Pizza & Taproom", "addr:full": "1010 STONE CREEK DR", "addr:housenumber": "1010", "addr:street": "STONE CREEK DR", "addr:city": "GARDEN CITY", "addr:state": "KS", "addr:postcode": "67846", "name": "Old Chicago", "opening_hours": "Sun-Thu 11:00am-10:00pm, Fri-Sat 11:00am-11:00pm", "brand": "Old Chicago", "brand:wikidata": "Q64411347", "nsi_id": "oldchicago-96af40"}, "geometry": {"type": "Point", "coordinates": [-100.83698, 37.973955]}},
{"type": "Feature", "id": "YBTNbl9cyy9n8GcFKTz48n8be-o=", "properties": {"ref": "85", "@spider": "oldchicago", "amenity": "restaurant", "cuisine": "pizza", "official_name": "Old Chicago Pizza & Taproom", "addr:full": "4641 S JACK KULTGEN EXPRESSWAY", "addr:housenumber": "4641", "addr:street": "S JACK KULTGEN EXPRESSWAY", "addr:city": "Waco", "addr:state": "TX", "addr:postcode": "76711", "name": "Old Chicago", "opening_hours": "Mon-Sun 11:00am-2:00am", "brand": "Old Chicago", "brand:wikidata": "Q64411347", "nsi_id": "oldchicago-96af40"}, "geometry": {"type": "Point", "coordinates": [-97.148164, 31.499208]}},
{"type": "Feature", "id": "fZU4lyhLsYh8l7EVqSy-84S7JOM=", "properties": {"ref": "7272", "@spider": "oldchicago", "amenity": "restaurant", "cuisine": "pizza", "official_name": "Old Chicago Pizza & Taproom", "addr:full": "2867 Centennial Drive", "addr:housenumber": "2867", "addr:street": "Centennial Drive", "addr:city": "Liberal", "addr:state": "KS", "addr:postcode": "67901", "name": "Old Chicago", "opening_hours": "Sun-Thu 11:00am-10:00pm, Fri-Sat 11:00am-11:00pm", "brand": "Old Chicago", "brand:wikidata": "Q64411347", "nsi_id": "oldchicago-96af40"}, "geometry": {"type": "Point", "coordinates": [-100.920796, 37.07019]}},
{"type": "Feature", "id": "HZUjsLkQIZ0ub-7pmIMTpkQKjyc=", "properties": {"ref": "83", "@spider": "oldchicago", "amenity": "restaurant", "cuisine": "pizza", "official_name": "Old Chicago Pizza & Taproom", "addr:full": "24515 Katy Freeway Suite 100", "addr:housenumber": "24515", "addr:street": "Katy Freeway Suite 100", "addr:city": "Katy", "addr:state": "TX", "addr:postcode": "77450", "name": "Old Chicago", "opening_hours": "Mon-Sun 11:00am-2:00am", "brand": "Old Chicago", "brand:wikidata": "Q64411347", "nsi_id": "oldchicago-96af40"}, "geometry": {"type": "Point", "coordinates": [-95.796035, 29.7844]}},
{"type": "Feature", "id": "2w16EL32rp_t0L0rjr98LHQdqos=", "properties": {"ref": "7038", "@spider": "oldchicago", "amenity": "restaurant", "cuisine": "pizza", "official_name": "Old Chicago Pizza & Taproom", "addr:full": "1100 E BOXELDER RD", "addr:housenumber": "1100", "addr:street": "E BOXELDER RD", "addr:city": "GILLETTE", "addr:state": "WY", "addr:postcode": "82718", "name": "Old Chicago", "opening_hours": "Sun 11:00am-10:00pm, Mon-Sat 11:00am-12:00am", "brand": "Old Chicago", "brand:wikidata": "Q64411347", "nsi_id": "oldchicago-96af40"}, "geometry": {"type": "Point", "coordinates": [-105.487295, 44.27683]}},
{"type": "Feature", "id": "BROqy0hbTbXTCQ3cv8dQ85zUvxk=", "properties": {"ref": "74", "@spider": "oldchicago", "amenity": "restaurant", "cuisine": "pizza", "official_name": "Old Chicago Pizza & Taproom", "addr:full": "1734 MEADOWLAND DR", "addr:housenumber": "1734", "addr:street": "MEADOWLAND DR", "addr:city": "CHEYENNE", "addr:state": "WY", "addr:postcode": "82009", "name": "Old Chicago", "opening_hours": "Mon-Sun 11:00am-12:00am", "brand": "Old Chicago", "brand:wikidata": "Q64411347", "nsi_id": "oldchicago-96af40"}, "geometry": {"type": "Point", "coordinates": [-104.798893, 41.158869]}},
{"type": "Feature", "id": "EHFbselOxi6JT72-bjq0HgsL_wI=", "properties": {"ref": "10", "@spider": "oldchicago", "amenity": "restaurant", "cuisine": "pizza", "official_name": "Old Chicago Pizza & Taproom", "addr:full": "2349 W 29TH ST", "addr:housenumber": "2349", "addr:street": "W 29TH ST", "addr:city": "GREELEY", "addr:state": "CO", "addr:postcode": "80631", "name": "Old Chicago", "opening_hours": "Mon-Sun 11:00am-11:00pm", "brand": "Old Chicago", "brand:wikidata": "Q64411347", "nsi_id": "oldchicago-96af40"}, "geometry": {"type": "Point", "coordinates": [-104.71707, 40.390842]}},
{"type": "Feature", "id": "CaO3NCcti6vLK8MKjTisRi7jgRc=", "properties": {"ref": "98", "@spider": "oldchicago", "amenity": "restaurant", "cuisine": "pizza", "official_name": "Old Chicago Pizza & Taproom", "addr:full": "2155 Prairie Center Parkway", "addr:housenumber": "2155", "addr:street": "Prairie Center Parkway", "addr:city": "Brighton", "addr:state": "CO", "addr:postcode": "80601", "name": "Old Chicago", "opening_hours": "Mon-Sun 11:00am-11:00pm", "brand": "Old Chicago", "brand:wikidata": "Q64411347", "nsi_id": "oldchicago-96af40"}, "geometry": {"type": "Point", "coordinates": [-104.777341, 39.955222]}},
{"type": "Feature", "id": "iGVb9ACQQDQB0jk75fgqs1plhDQ=", "properties": {"ref": "50", "@spider": "oldchicago", "amenity": "restaurant", "cuisine": "pizza", "official_name": "Old Chicago Pizza & Taproom", "addr:full": "4709 S TIMBERLINE RD", "addr:housenumber": "4709", "addr:street": "S TIMBERLINE RD", "addr:city": "FORT COLLINS", "addr:state": "CO", "addr:postcode": "80528", "name": "Old Chicago", "opening_hours": "Mon-Sun 11:00am-12:00am", "brand": "Old Chicago", "brand:wikidata": "Q64411347", "nsi_id": "oldchicago-96af40"}, "geometry": {"type": "Point", "coordinates": [-105.039594, 40.521617]}},
{"type": "Feature", "id": "Y9zFHWGgNyCwG04TIv12kk7Y5QY=", "properties": {"ref": "70", "@spider": "oldchicago", "amenity": "restaurant", "cuisine": "pizza", "official_name": "Old Chicago Pizza & Taproom", "addr:full": "1436 HAHNS PEAK DR", "addr:housenumber": "1436", "addr:street": "HAHNS PEAK DR", "addr:city": "LOVELAND", "addr:state": "CO", "addr:postcode": "80538", "name": "Old Chicago", "opening_hours": "Mon-Sun 11:00am-12:00am", "brand": "Old Chicago", "brand:wikidata": "Q64411347", "nsi_id": "oldchicago-96af40"}, "geometry": {"type": "Point", "coordinates": [-105.011191, 40.409446]}},
{"type": "Feature", "id": "ruGqcgqadXyuROSlNhsUqzSXGqs=", "properties": {"ref": "12", "@spider": "oldchicago", "amenity": "restaurant", "cuisine": "pizza", "official_name": "Old Chicago Pizza & Taproom", "addr:full": "16990 E ILIFF AVE", "addr:housenumber": "16990", "addr:street": "E ILIFF AVE", "addr:city": "AURORA", "addr:state": "CO", "addr:postcode": "80013", "name": "Old Chicago", "opening_hours": "Mon-Sun 11:00am-12:00am", "brand": "Old Chicago", "brand:wikidata": "Q64411347", "nsi_id": "oldchicago-96af40"}, "geometry": {"type": "Point", "coordinates": [-104.789382, 39.673193]}},
{"type": "Feature", "id": "myoojMYeqr6HAaE1cAAKLewyg3Q=", "properties": {"ref": "60", "@spider": "oldchicago", "amenity": "restaurant", "cuisine": "pizza", "official_name": "Old Chicago Pizza & Taproom", "addr:full": "6676 S PARKER RD", "addr:housenumber": "6676", "addr:street": "S PARKER RD", "addr:city": "AURORA", "addr:state": "CO", "addr:postcode": "80016", "name": "Old Chicago", "opening_hours": "Mon-Sun 11:00am-12:00am", "brand": "Old Chicago", "brand:wikidata": "Q64411347", "nsi_id": "oldchicago-96af40"}, "geometry": {"type": "Point", "coordinates": [-104.802447, 39.595868]}},
{"type": "Feature", "id": "-G0Duc2JIQ1HDCDZsECwu-AlJ_g=", "properties": {"ref": "9", "@spider": "oldchicago", "amenity": "restaurant", "cuisine": "pizza", "official_name": "Old Chicago Pizza & Taproom", "addr:full": "3909 E 120TH AVE", "addr:housenumber": "3909", "addr:street": "E 120TH AVE", "addr:city": "THORNTON", "addr:state": "CO", "addr:postcode": "80233", "name": "Old Chicago", "opening_hours": "Mon-Sun 11:00am-12:00am", "brand": "Old Chicago", "brand:wikidata": "Q64411347", "nsi_id": "oldchicago-96af40"}, "geometry": {"type": "Point", "coordinates": [-104.941945, 39.914075]}},
{"type": "Feature", "id": "kgbqjTbTdtKOJuNoOii28WE6qA4=", "properties": {"ref": "72", "@spider": "oldchicago", "amenity": "restaurant", "cuisine": "pizza", "official_name": "Old Chicago Pizza & Taproom", "addr:full": "10180 GRANT ST", "addr:housenumber": "10180", "addr:street": "GRANT ST", "addr:city": "THORNTON", "addr:state": "CO", "addr:postcode": "80229", "name": "Old Chicago", "opening_hours": "Mon-Sun 11:00am-12:00am", "brand": "Old Chicago", "brand:wikidata": "Q64411347", "nsi_id": "oldchicago-96af40"}, "geometry": {"type": "Point", "coordinates": [-104.982346, 39.880299]}},
{"type": "Feature", "id": "pgHf1vhdP5cd5HGMe4VDLdReB1Y=", "properties": {"ref": "52", "@spider": "oldchicago", "amenity": "restaurant", "cuisine": "pizza", "official_name": "Old Chicago Pizza & Taproom", "addr:full": "1280 E 1ST AVE", "addr:housenumber": "1280", "addr:street": "E 1ST AVE", "addr:city": "BROOMFIELD", "addr:state": "CO", "addr:postcode": "80020", "name": "Old Chicago", "opening_hours": "Mon-Sun 11:00am-12:00am", "brand": "Old Chicago", "brand:wikidata": "Q64411347", "nsi_id": "oldchicago-96af40"}, "geometry": {"type": "Point", "coordinates": [-105.053931, 39.915909]}},
{"type": "Feature", "id": "giWjgHCD5WVXMB5tVR3zAg2OjgE=", "properties": {"ref": "18", "@spider": "oldchicago", "amenity": "restaurant", "cuisine": "pizza", "official_name": "Old Chicago Pizza & Taproom", "addr:full": "8711 WADSWORTH BLVD", "addr:housenumber": "8711", "addr:street": "WADSWORTH BLVD", "addr:city": "WESTMINSTER", "addr:state": "CO", "addr:postcode": "80003", "name": "Old Chicago", "opening_hours": "Mon-Sun 11:00am-12:00am", "brand": "Old Chicago", "brand:wikidata": "Q64411347", "nsi_id": "oldchicago-96af40"}, "geometry": {"type": "Point", "coordinates": [-105.081883, 39.853758]}},
{"type": "Feature", "id": "43NqerBBzU1xUcD8ts9VNUCxzH4=", "properties": {"ref": "61", "@spider": "oldchicago", "amenity": "restaurant", "cuisine": "pizza", "official_name": "Old Chicago Pizza & Taproom", "addr:full": "3190 NEW CENTER PT", "addr:housenumber": "3190", "addr:street": "NEW CENTER PT", "addr:city": "COLORADO SPRINGS", "addr:state": "CO", "addr:postcode": "80922", "name": "Old Chicago", "opening_hours": "Mon-Sun 11:00am-12:00am", "brand": "Old Chicago", "brand:wikidata": "Q64411347", "nsi_id": "oldchicago-96af40"}, "geometry": {"type": "Point", "coordinates": [-104.717583, 38.878758]}},
{"type": "Feature", "id": "bE_AN3YgUF_9UNO__fwin4QTrw4=", "properties": {"ref": "104", "@spider": "oldchicago", "amenity": "restaurant", "cuisine": "pizza", "official_name": "Old Chicago Pizza & Taproom", "addr:full": "1489 Park Central Drive", "addr:housenumber": "1489", "addr:street": "Park Central Drive", "addr:city": "Highlands Ranch", "addr:state": "CO", "addr:postcode": "80129", "name": "Old Chicago", "opening_hours": "Mon-Sun 11:00am-12:00am", "brand": "Old Chicago", "brand:wikidata": "Q64411347", "nsi_id": "oldchicago-96af40"}, "geometry": {"type": "Point", "coordinates": [-105.005812, 39.553926]}},
{"type": "Feature", "id": "rrzxKz72PBKsy9s76BNaxBff4CU=", "properties": {"ref": "16", "@spider": "oldchicago", "amenity": "restaurant", "cuisine": "pizza", "official_name": "Old Chicago Pizza & Taproom", "addr:full": "4110 N ACADEMY BLVD", "addr:housenumber": "4110", "addr:street": "N ACADEMY BLVD", "addr:city": "COLORADO SPRINGS", "addr:state": "CO", "addr:postcode": "80918", "name": "Old Chicago", "opening_hours": "Mon-Sun 11:00am-12:00am", "brand": "Old Chicago", "brand:wikidata": "Q64411347", "nsi_id": "oldchicago-96af40"}, "geometry": {"type": "Point", "coordinates": [-104.757274, 38.891175]}},
{"type": "Feature", "id": "h5f6NzsfttJA-SoEw-Ir3vAkiiI=", "properties": {"ref": "11", "@spider": "oldchicago", "amenity": "restaurant", "cuisine": "pizza", "official_name": "Old Chicago Pizza & Taproom", "addr:full": "3550 S WADSWORTH BLVD", "addr:housenumber": "3550", "addr:street": "S WADSWORTH BLVD", "addr:city": "LAKEWOOD", "addr:state": "CO", "addr:postcode": "80235", "name": "Old Chicago", "opening_hours": "Mon-Sun 11:00am-12:00am", "brand": "Old Chicago", "brand:wikidata": "Q64411347", "nsi_id": "oldchicago-96af40"}, "geometry": {"type": "Point", "coordinates": [-105.081184, 39.650278]}},
{"type": "Feature", "id": "EsAbjA1P2kSUwngAsQORDJLUNe4=", "properties": {"ref": "66", "@spider": "oldchicago", "amenity": "restaurant", "cuisine": "pizza", "official_name": "Old Chicago Pizza & Taproom", "addr:full": "145 UNION BLVD UNIT A", "addr:housenumber": "145", "addr:street": "UNION BLVD UNIT A", "addr:city": "LAKEWOOD", "addr:state": "CO", "addr:postcode": "80228", "name": "Old Chicago", "opening_hours": "Mon-Sun 11:00am-12:00am", "brand": "Old Chicago", "brand:wikidata": "Q64411347", "nsi_id": "oldchicago-96af40"}, "geometry": {"type": "Point", "coordinates": [-105.133023, 39.716941]}},
{"type": "Feature", "id": "Z7W3tceox5xs5vr1t7ttS3-U4Qs=", "properties": {"ref": "1", "@spider": "oldchicago", "amenity": "restaurant", "cuisine": "pizza", "official_name": "Old Chicago Pizza & Taproom", "addr:full": "7115 COMMERCE CENTER DR", "addr:housenumber": "7115", "addr:street": "COMMERCE CENTER DR", "addr:city": "COLORADO SPRINGS", "addr:state": "CO", "addr:postcode": "80919", "name": "Old Chicago", "opening_hours": "Mon-Sun 11:00am-12:00am", "brand": "Old Chicago", "brand:wikidata": "Q64411347", "nsi_id": "oldchicago-96af40"}, "geometry": {"type": "Point", "coordinates": [-104.814835, 38.936073]}},
{"type": "Feature", "id": "OlNqkqbj2Ibi5JpzHRQOqrbuY3Y=", "properties": {"ref": "81", "@spider": "oldchicago", "amenity": "restaurant", "cuisine": "pizza", "official_name": "Old Chicago Pizza & Taproom", "addr:full": "1579 E CHEYENNE MOUNTAIN BLVD", "addr:housenumber": "1579", "addr:street": "E CHEYENNE MOUNTAIN BLVD", "addr:city": "COLORADO SPRINGS", "addr:state": "CO", "addr:postcode": "80906", "name": "Old Chicago", "opening_hours": "Mon-Sun 11:00am-12:00am", "brand": "Old Chicago", "brand:wikidata": "Q64411347", "nsi_id": "oldchicago-96af40"}, "geometry": {"type": "Point", "coordinates": [-104.799355, 38.792825]}},
{"type": "Feature", "id": "iXF_NY8FfxbT0eWe6IHC6ft990g=", "properties": {"ref": "82", "@spider": "oldchicago", "amenity": "restaurant", "cuisine": "pizza", "official_name": "Old Chicago Pizza & Taproom", "addr:full": "3204 N ELIZABETH ST", "addr:housenumber": "3204", "addr:street": "N ELIZABETH ST", "addr:city": "Pueblo", "addr:state": "CO", "addr:postcode": "81008", "name": "Old Chicago", "opening_hours": "Mon-Sun 11:00am-12:00am", "brand": "Old Chicago", "brand:wikidata": "Q64411347", "nsi_id": "oldchicago-96af40"}, "geometry": {"type": "Point", "coordinates": [-104.614895, 38.302542]}},
{"type": "Feature", "id": "WRo6DiridLqSsGK5EpPohqYgWsE=", "properties": {"ref": "7036", "@spider": "oldchicago", "amenity": "restaurant", "cuisine": "pizza", "official_name": "Old Chicago Pizza & Taproom", "addr:full": "3580 E 2ND ST", "addr:housenumber": "3580", "addr:street": "E 2ND ST", "addr:city": "CASPER", "addr:state": "WY", "addr:postcode": "82609", "name": "Old Chicago", "opening_hours": "Sun 11:00am-10:00pm, Mon-Sat 11:00am-12:00am", "brand": "Old Chicago", "brand:wikidata": "Q64411347", "nsi_id": "oldchicago-96af40"}, "geometry": {"type": "Point", "coordinates": [-106.279393, 42.84901]}},
{"type": "Feature", "id": "2_b7QE6QfkNfPOSmKv0U1tOSWy0=", "properties": {"ref": "7042", "@spider": "oldchicago", "amenity": "restaurant", "cuisine": "pizza", "official_name": "Old Chicago Pizza & Taproom", "addr:full": "920 S 24TH ST W", "addr:housenumber": "920", "addr:street": "S 24TH ST W", "addr:city": "BILLINGS", "addr:state": "MT", "addr:postcode": "59102", "name": "Old Chicago", "opening_hours": "Sun 11:00am-10:00pm, Mon-Sat 11:00am-12:00am", "brand": "Old Chicago", "brand:wikidata": "Q64411347", "nsi_id": "oldchicago-96af40"}, "geometry": {"type": "Point", "coordinates": [-108.576301, 45.753483]}},
{"type": "Feature", "id": "3XBuwRJa2Lbl0DfFDmmfEp_J5MA=", "properties": {"ref": "7043", "@spider": "oldchicago", "amenity": "restaurant", "cuisine": "pizza", "official_name": "Old Chicago Pizza & Taproom", "addr:full": "1675 SUNSET DRIVE", "addr:housenumber": "1675", "addr:street": "SUNSET DRIVE", "addr:city": "ROCK SPRINGS", "addr:state": "WY", "addr:postcode": "82901", "name": "Old Chicago", "opening_hours": "Sun 6:00am-10:00pm, Mon-Sat 6:00am-12:00am", "brand": "Old Chicago", "brand:wikidata": "Q64411347", "nsi_id": "oldchicago-96af40"}, "geometry": {"type": "Point", "coordinates": [-109.253585, 41.576836]}},
{"type": "Feature", "id": "GUA9SjKS0JQxYqpeY4fi_TZTrZA=", "properties": {"ref": "27", "@spider": "oldchicago", "amenity": "restaurant", "cuisine": "pizza", "official_name": "Old Chicago Pizza & Taproom", "addr:full": "120 NORTH AVE", "addr:housenumber": "120", "addr:street": "NORTH AVE", "addr:city": "GRAND JUNCTION", "addr:state": "CO", "addr:postcode": "81501", "name": "Old Chicago", "opening_hours": "Mon-Sun 11:00am-11:00pm", "brand": "Old Chicago", "brand:wikidata": "Q64411347", "nsi_id": "oldchicago-96af40"}, "geometry": {"type": "Point", "coordinates": [-108.57046, 39.077607]}},
{"type": "Feature", "id": "lN_kMfy-9MOarlG2u-zroiSGKjE=", "properties": {"ref": "7041", "@spider": "oldchicago", "amenity": "restaurant", "cuisine": "pizza", "official_name": "Old Chicago Pizza & Taproom", "addr:full": "1940 N 19TH AVE", "addr:housenumber": "1940", "addr:street": "N 19TH AVE", "addr:city": "BOZEMAN", "addr:state": "MT", "addr:postcode": "59718", "name": "Old Chicago", "opening_hours": "Sun 11:00am-10:00pm, Mon-Sat 11:00am-12:00am", "brand": "Old Chicago", "brand:wikidata": "Q64411347", "nsi_id": "oldchicago-96af40"}, "geometry": {"type": "Point", "coordinates": [-111.06434, 45.699078]}},
{"type": "Feature", "id": "ja-EI8jLK4qNbmCKbk40RTGYUro=", "properties": {"ref": "7320", "@spider": "oldchicago", "amenity": "restaurant", "cuisine": "pizza", "official_name": "Old Chicago Pizza & Taproom", "addr:full": "1400 North 795 East", "addr:housenumber": "1400", "addr:street": "North 795 East", "addr:city": "Logan", "addr:state": "UT", "addr:postcode": "84321", "name": "Old Chicago", "opening_hours": "Sun 11:00am-10:00pm, Mon-Wed 11:00am-11:00pm, Thu-Sat 11:00am-12:00am", "brand": "Old Chicago", "brand:wikidata": "Q64411347", "nsi_id": "oldchicago-96af40"}, "geometry": {"type": "Point", "coordinates": [-111.846011, 41.737965]}},
{"type": "Feature", "id": "szsSrNYX4Nt_wkin6DIqRl63n0A=", "properties": {"ref": "7044", "@spider": "oldchicago", "amenity": "restaurant", "cuisine": "pizza", "official_name": "Old Chicago Pizza & Taproom", "addr:full": "3630 N RESERVE", "addr:housenumber": "3630", "addr:street": "N RESERVE", "addr:city": "MISSOULA", "addr:state": "MT", "addr:postcode": "89801", "name": "Old Chicago", "opening_hours": "Sun 11:00am-10:00pm, Mon-Sat 11:00am-12:00am", "brand": "Old Chicago", "brand:wikidata": "Q64411347", "nsi_id": "oldchicago-96af40"}, "geometry": {"type": "Point", "coordinates": [-114.03834, 46.90254]}},
{"type": "Feature", "id": "9HGVpgt1sCDrbHkkm9BEjiV9bcY=", "properties": {"ref": "33", "@spider": "oldchicago", "amenity": "restaurant", "cuisine": "pizza", "official_name": "Old Chicago Pizza & Taproom", "addr:full": "350 N MILWAUKEE ST STE 1017", "addr:housenumber": "350", "addr:street": "N MILWAUKEE ST STE 1017", "addr:city": "BOISE", "addr:state": "ID", "addr:postcode": "83704", "name": "Old Chicago", "opening_hours": "Mon-Sun 11:00am-12:00am", "brand": "Old Chicago", "brand:wikidata": "Q64411347", "nsi_id": "oldchicago-96af40"}, "geometry": {"type": "Point", "coordinates": [-116.283826, 43.60833]}},
{"type": "Feature", "id": "tMhERDaKNOuakiBc7uAE2dUQAG0=", "properties": {"ref": "7182", "@spider": "oldchicago", "amenity": "restaurant", "cuisine": "pizza", "official_name": "Old Chicago Pizza & Taproom", "addr:full": "2950 E. Germann Rd.", "addr:housenumber": "2950", "addr:street": "E. Germann Rd.", "addr:city": "CHANDLER", "addr:state": "AZ", "addr:postcode": "85286", "name": "Old Chicago", "opening_hours": "Sun-Thu 11:00am-9:00pm, Fri-Sat 11:00am-10:00pm", "brand": "Old Chicago", "brand:wikidata": "Q64411347", "nsi_id": "oldchicago-96af40"}, "geometry": {"type": "Point", "coordinates": [-111.79133, 33.277287]}},
{"type": "Feature", "id": "yuAn94KmF-eC0D4_o2G7OdYfUpk=", "properties": {"ref": "42", "@spider": "oldchicago", "amenity": "restaurant", "cuisine": "pizza", "official_name": "Old Chicago Pizza & Taproom", "addr:full": "11460 NE EVERGREEN PKWY", "addr:housenumber": "11460", "addr:street": "NE EVERGREEN PKWY", "addr:city": "HILLSBORO", "addr:state": "OR", "addr:postcode": "97006", "name": "Old Chicago", "opening_hours": "Mon-Sun 11:00am-11:00pm", "brand": "Old Chicago", "brand:wikidata": "Q64411347", "nsi_id": "oldchicago-96af40"}, "geometry": {"type": "Point", "coordinates": [-122.862784, 45.536031]}},
{"type": "Feature", "id": "BR27JPYdBPQtL4nx3DMu2KaCJi4=", "properties": {"ref": "7045", "@spider": "oldchicago", "amenity": "restaurant", "cuisine": "pizza", "official_name": "Old Chicago Pizza & Taproom", "addr:full": "1718 Elgin Street", "addr:housenumber": "1718", "addr:street": "Elgin Street", "addr:city": "Rapid City", "addr:state": "SD", "addr:postcode": "57701", "name": "Old Chicago", "brand": "Old Chicago", "brand:wikidata": "Q64411347", "nsi_id": "oldchicago-96af40"}},
{"type": "Feature", "id": "iH5vWGdmm1sB8AlQRA7wo4Uvlms=", "properties": {"ref": "10001", "@spider": "oldchicago", "amenity": "restaurant", "cuisine": "pizza", "official_name": "Old Chicago Pizza & Taproom", "addr:full": "1718 Elgin Street", "addr:housenumber": "1718", "addr:street": "Elgin Street", "addr:city": "Rapid City", "addr:state": "SD", "addr:postcode": "57701", "name": "Old Chicago", "brand": "Old Chicago", "brand:wikidata": "Q64411347", "nsi_id": "oldchicago-96af40"}},
{"type": "Feature", "id": "uWz0kQt3RKDpNXTaTkT8k5LzyjY=", "properties": {"ref": "7183", "@spider": "oldchicago", "amenity": "restaurant", "cuisine": "pizza", "official_name": "Old Chicago Pizza & Taproom", "addr:full": "1828 N Litchfield Rd", "addr:housenumber": "1828", "addr:street": "N Litchfield Rd", "addr:city": "Goodyear", "addr:state": "AZ", "addr:postcode": "85395", "name": "Old Chicago", "brand": "Old Chicago", "brand:wikidata": "Q64411347", "nsi_id": "oldchicago-96af40"}}]}