{"type":"FeatureCollection","features":[{"type": "Feature", "id": "7hxW2YSSXnfQE-cvQLf8deJjEFw=", "properties": {"ref": "https://www.opticalexpress.co.uk/clinic-finder/scotland/stirling-wallace-house", "@spider": "optical_express", "shop": "optician", "addr:full": "3rd Floor Suite, 3B Wallace House, Maxwell Place, Stirling, FK81JU", "addr:street_address": "3rd Floor Suite", "addr:state": "Scotland", "addr:country": "GB", "name": "Stirling", "phone": "01786 449567", "website": "https://www.opticalexpress.co.uk/clinic-finder/scotland/stirling-wallace-house", "opening_hours": "Mo-Fr 09:00-17:30", "image": "https://www.opticalexpress.co.uk/media/4103/meta-image.png", "brand": "Optical Express", "brand:wikidata": "Q7098810", "nsi_id": "opticalexpress-610826"}, "geometry": {"type": "Point", "coordinates": [-3.9375582883833284, 56.1207496184523]}},
{"type": "Feature", "id": "9Vvd-c4gyhTp91JvkWHMCNVAP4k=", "properties": {"ref": "https://www.opticalexpress.co.uk/clinic-finder/scotland/shawlands-kilmarnock-road", "@spider": "optical_express", "shop": "optician", "addr:full": "73 Kilmarnock Road Shawlands,Glasgow G41 3YR,United Kingdom", "addr:street_address": "73 Kilmarnock Road Shawlands", "addr:state": "Scotland", "addr:postcode": "G41 3YR", "addr:country": "GB", "name": "Shawlands", "phone": "0141 732 7200", "website": "https://www.opticalexpress.co.uk/clinic-finder/scotland/shawlands-kilmarnock-road", "opening_hours": "Mo-Sa 09:00-17:30", "image": "https://www.opticalexpress.co.uk/media/4103/meta-image.png", "brand": "Optical Express", "brand:wikidata": "Q7098810", "nsi_id": "opticalexpress-610826"}, "geometry": {"type": "Point", "coordinates": [-4.282938, 55.828568]}},
{"type": "Feature", "id": "QBg2GNc8BDFh7GTiQUcj_bof4HQ=", "properties": {"ref": "https://www.opticalexpress.co.uk/clinic-finder/scotland/perth-st-catherine", "@spider": "optical_express", "shop": "optician", "addr:full": "St Catherine's Road ,Perth PH1 5YA,United Kingdom", "addr:street_address": "St Catherine&#39;s Road", "addr:state": "Scotland", "addr:postcode": "PH1 5YA", "addr:country": "GB", "name": "Perth", "phone": "01738 500136", "website": "https://www.opticalexpress.co.uk/clinic-finder/scotland/perth-st-catherine", "opening_hours": "Mo-Sa 09:00-17:30", "image": "https://www.opticalexpress.co.uk/media/4103/meta-image.png", "brand": "Optical Express", "brand:wikidata": "Q7098810", "nsi_id": "opticalexpress-610826"}, "geometry": {"type": "Point", "coordinates": [-3.44086, 56.39997]}},
{"type": "Feature", "id": "7CSuMv7DSBJfXfP6KI45K2ipZyk=", "properties": {"ref": "https://www.opticalexpress.co.uk/clinic-finder/scotland/paisley-high-street", "@spider": "optical_express", "shop": "optician", "addr:full": "Unit 15 23 High Street,Paisley PA1 2AF,United Kingdom", "addr:street_address": "Unit 15 23 High Street", "addr:state": "Scotland", "addr:postcode": "PA1 2AF", "addr:country": "GB", "name": "Paisley", "phone": "0141 732 7209", "website": "https://www.opticalexpress.co.uk/clinic-finder/scotland/paisley-high-street", "opening_hours": "Mo-Sa 09:00-17:30", "image": "https://www.opticalexpress.co.uk/media/4103/meta-image.png", "brand": "Optical Express", "brand:wikidata": "Q7098810", "nsi_id": "opticalexpress-610826"}, "geometry": {"type": "Point", "coordinates": [-4.424064, 55.845226]}},
{"type": "Feature", "id": "Rt3qnqOIJ-N17BdaavvTLijZOnY=", "properties": {"ref": "https://www.opticalexpress.co.uk/clinic-finder/scotland/newton-mearns-the-avenue", "@spider": "optical_express", "shop": "optician", "addr:full": "Unit 12b The Avenue,Glasgow G77 6EY,United Kingdom", "addr:street_address": "Unit 12b The Avenue", "addr:state": "Scotland", "addr:postcode": "G77 6EY", "addr:country": "GB", "name": "Newton Mearns", "phone": "0141 732 7214", "website": "https://www.opticalexpress.co.uk/clinic-finder/scotland/newton-mearns-the-avenue", "opening_hours": "Mo-Sa 09:00-17:30", "image": "https://www.opticalexpress.co.uk/media/4103/meta-image.png", "brand": "Optical Express", "brand:wikidata": "Q7098810", "nsi_id": "opticalexpress-610826"}, "geometry": {"type": "Point", "coordinates": [-4.333975, 55.7729]}},
{"type": "Feature", "id": "tXzE1YU7ahumuwW-1DHC6qlIdZk=", "properties": {"ref": "https://www.opticalexpress.co.uk/clinic-finder/scotland/livingston-the-centre", "@spider": "optical_express", "shop": "optician", "addr:full": "Unit 331, Element Square, The Centre, Livingston, EH54 6GS", "addr:street_address": "Unit 331", "addr:state": "Scotland", "addr:postcode": "EH54 6GS", "addr:country": "GB", "name": "Livingston", "phone": "01506 433259", "website": "https://www.opticalexpress.co.uk/clinic-finder/scotland/livingston-the-centre", "opening_hours": "Mo-We 09:00-18:00; Th 09:00-20:00; Fr-Sa 09:00-18:00; Su 11:00-17:00", "image": "https://www.opticalexpress.co.uk/media/4103/meta-image.png", "brand": "Optical Express", "brand:wikidata": "Q7098810", "nsi_id": "opticalexpress-610826"}, "geometry": {"type": "Point", "coordinates": [-3.510517, 55.884655]}},
{"type": "Feature", "id": "DbFQxPv7pBfcaRI03ZlGDVov20k=", "properties": {"ref": "https://www.opticalexpress.co.uk/clinic-finder/scotland/leven-high-street", "@spider": "optical_express", "shop": "optician", "addr:full": "26 High Street ,Leven KY8 4LZ,United Kingdom", "addr:street_address": "26 High Street", "addr:state": "Scotland", "addr:postcode": "KY8 4LZ", "addr:country": "GB", "name": "Leven", "phone": "01333 425009", "website": "https://www.opticalexpress.co.uk/clinic-finder/scotland/leven-high-street", "opening_hours": "Mo 09:00-17:30; We-Sa 09:00-17:30", "image": "https://www.opticalexpress.co.uk/media/4103/meta-image.png", "brand": "Optical Express", "brand:wikidata": "Q7098810", "nsi_id": "opticalexpress-610826"}, "geometry": {"type": "Point", "coordinates": [-2.9984, 56.194187]}},
{"type": "Feature", "id": "MrGD-lLRgv3t0BKRbSjGaXlg7R8=", "properties": {"ref": "https://www.opticalexpress.co.uk/clinic-finder/scotland/kirkintilloch-the-regent-centre", "@spider": "optical_express", "shop": "optician", "addr:full": "8 The Regent Centre ,Glasgow G66 1JH,United Kingdom", "addr:street_address": "8 The Regent Centre", "addr:state": "Scotland", "addr:postcode": "G66 1JH", "addr:country": "GB", "name": "Kirkintilloch", "phone": "0141 732 7236", "website": "https://www.opticalexpress.co.uk/clinic-finder/scotland/kirkintilloch-the-regent-centre", "opening_hours": "Mo-Sa 09:00-17:30", "image": "https://www.opticalexpress.co.uk/media/4103/meta-image.png", "brand": "Optical Express", "brand:wikidata": "Q7098810", "nsi_id": "opticalexpress-610826"}, "geometry": {"type": "Point", "coordinates": [-4.15795, 55.93959]}},
{"type": "Feature", "id": "3BXA2fKL3OZZasZeb_HvsaKKnn4=", "properties": {"ref": "https://www.opticalexpress.co.uk/clinic-finder/scotland/kirkcaldy-high-street", "@spider": "optical_express", "shop": "optician", "addr:full": "137 High Street ,Kirkcaldy KY1 1LR,United Kingdom", "addr:street_address": "137 High Street", "addr:state": "Scotland", "addr:postcode": "KY1 1LR", "addr:country": "GB", "name": "Kirkcaldy", "phone": "01592 802812", "website": "https://www.opticalexpress.co.uk/clinic-finder/scotland/kirkcaldy-high-street", "opening_hours": "Mo-Sa 09:00-17:30", "image": "https://www.opticalexpress.co.uk/media/4103/meta-image.png", "brand": "Optical Express", "brand:wikidata": "Q7098810", "nsi_id": "opticalexpress-610826"}, "geometry": {"type": "Point", "coordinates": [-3.15891, 56.11031]}},
{"type": "Feature", "id": "UE-_eyrCLWdpbtktHFJaaRZJlEo=", "properties": {"ref": "https://www.opticalexpress.co.uk/clinic-finder/scotland/kilmarnock-king-street", "@spider": "optical_express", "shop": "optician", "addr:full": "82 King Street ,Kilmarnock KA1 1PD,United Kingdom", "addr:street_address": "82 King Street", "addr:state": "Scotland", "addr:postcode": "KA1 1PD", "addr:country": "GB", "name": "Kilmarnock", "phone": "01560 090070", "website": "https://www.opticalexpress.co.uk/clinic-finder/scotland/kilmarnock-king-street", "opening_hours": "Mo-Sa 09:00-17:30", "image": "https://www.opticalexpress.co.uk/media/4103/meta-image.png", "brand": "Optical Express", "brand:wikidata": "Q7098810", "nsi_id": "opticalexpress-610826"}, "geometry": {"type": "Point", "coordinates": [-4.496678, 55.608089]}},
{"type": "Feature", "id": "NCHJBGpnJccLZQIu13W848rbRaQ=", "properties": {"ref": "https://www.opticalexpress.co.uk/clinic-finder/scotland/johnstone-high-street", "@spider": "optical_express", "shop": "optician", "addr:full": "28a High Street ,Johnstone PA5 8AH,United Kingdom", "addr:street_address": "28a High Street", "addr:state": "Scotland", "addr:postcode": "PA5 8AH", "addr:country": "GB", "name": "Johnstone", "phone": "01505 325986", "website": "https://www.opticalexpress.co.uk/clinic-finder/scotland/johnstone-high-street", "opening_hours": "Mo-Tu 09:00-17:30; Th-Sa 09:00-17:30", "image": "https://www.opticalexpress.co.uk/media/4103/meta-image.png", "brand": "Optical Express", "brand:wikidata": "Q7098810", "nsi_id": "opticalexpress-610826"}, "geometry": {"type": "Point", "coordinates": [-4.510345, 55.836533]}},
{"type": "Feature", "id": "Ie3Ueadll_AVfs8nW8GiAnE4nXA=", "properties": {"ref": "https://www.opticalexpress.co.uk/clinic-finder/scotland/inverness-high-street", "@spider": "optical_express", "shop": "optician", "addr:full": "58 High Street ,Inverness IV1 1JE,United Kingdom", "addr:street_address": "58 High Street", "addr:state": "Scotland", "addr:postcode": "IV1 1JE", "addr:country": "GB", "name": "Inverness", "phone": "01463 248871", "website": "https://www.opticalexpress.co.uk/clinic-finder/scotland/inverness-high-street", "opening_hours": "Mo-Sa 09:00-17:30", "image": "https://www.opticalexpress.co.uk/media/4103/meta-image.png", "brand": "Optical Express", "brand:wikidata": "Q7098810", "nsi_id": "opticalexpress-610826"}, "geometry": {"type": "Point", "coordinates": [-4.223383, 57.477909]}},
{"type": "Feature", "id": "4MDziynrbMX4y-DgU9uJXdiISco=", "properties": {"ref": "https://www.opticalexpress.co.uk/clinic-finder/scotland/govanhill-victoria-road", "@spider": "optical_express", "shop": "optician", "addr:full": "406/408 Victoria Road Govanhill,Glasgow G42 8YS,United Kingdom", "addr:street_address": "406/408 Victoria Road Govanhill", "addr:city": "Glasgow", "addr:state": "Scotland", "addr:postcode": "G42 8YS", "addr:country": "GB", "name": "Govanhill", "phone": "0141 423 0479", "website": "https://www.opticalexpress.co.uk/clinic-finder/scotland/govanhill-victoria-road", "opening_hours": "Mo-Sa 09:00-17:30", "image": "https://www.opticalexpress.co.uk/media/4103/meta-image.png", "brand": "Optical Express", "brand:wikidata": "Q7098810", "nsi_id": "opticalexpress-610826"}, "geometry": {"type": "Point", "coordinates": [-4.265256, 55.836437]}},
{"type": "Feature", "id": "trl-ZbM3tPNnnYWH5DyEo01GY0o=", "properties": {"ref": "https://www.opticalexpress.co.uk/clinic-finder/scotland/glasgow-st-vincent-street", "@spider": "optical_express", "shop": "optician", "addr:full": "200 St Vincent Street ,Glasgow G2 5SG,United Kingdom", "addr:street_address": "200 St Vincent Street", "addr:city": "Glasgow", "addr:state": "Scotland", "addr:postcode": "G2 5SG", "addr:country": "GB", "name": "Glasgow", "phone": "0141 732 7192", "website": "https://www.opticalexpress.co.uk/clinic-finder/scotland/glasgow-st-vincent-street", "opening_hours": "Mo-Sa 08:00-17:00", "image": "https://www.opticalexpress.co.uk/media/4103/meta-image.png", "brand": "Optical Express", "brand:wikidata": "Q7098810", "nsi_id": "opticalexpress-610826"}, "geometry": {"type": "Point", "coordinates": [-4.260938, 55.862282]}},
{"type": "Feature", "id": "eW7JqQ8HG9PK01sYsmJ0MRmNx9E=", "properties": {"ref": "https://www.opticalexpress.co.uk/clinic-finder/scotland/glasgow-st-enochs-centre", "@spider": "optical_express", "shop": "optician", "addr:full": "Unit 68 St Enoch Centre,Glasgow G1 4BW,United Kingdom", "addr:street_address": "Unit 68 St Enoch Centre", "addr:city": "Glasgow", "addr:state": "Scotland", "addr:postcode": "G1 4BW", "addr:country": "GB", "name": "Glasgow St Enoch Centre", "phone": "0141 732 7196", "website": "https://www.opticalexpress.co.uk/clinic-finder/scotland/glasgow-st-enochs-centre", "opening_hours": "Mo-Su 09:00-17:30", "image": "https://www.opticalexpress.co.uk/media/4103/meta-image.png", "brand": "Optical Express", "brand:wikidata": "Q7098810", "nsi_id": "opticalexpress-610826"}, "geometry": {"type": "Point", "coordinates": [-4.254479, 55.857449]}},
{"type": "Feature", "id": "mA7_NwXj3e-apBBWLMA8AKNXv7s=", "properties": {"ref": "https://www.opticalexpress.co.uk/clinic-finder/wales/swansea-alexandra-house", "@spider": "optical_express", "shop": "optician", "addr:full": "5th Floor (Suite 9) Alexandra House,Swansea SA1 5ED,United Kingdom", "addr:street_address": "5th Floor (Suite 9) Alexandra House", "addr:state": "Wales", "addr:postcode": "SA1 5ED", "addr:country": "GB", "name": "Swansea", "phone": "01792 341 262", "website": "https://www.opticalexpress.co.uk/clinic-finder/wales/swansea-alexandra-house", "opening_hours": "Tu-We 09:00-17:30", "image": "https://www.opticalexpress.co.uk/media/4103/meta-image.png", "brand": "Optical Express", "brand:wikidata": "Q7098810", "nsi_id": "opticalexpress-610826"}, "geometry": {"type": "Point", "coordinates": [-3.942073, 51.624622]}},
{"type": "Feature", "id": "4MhOlOcHyTLs3dWukxwmKqtfI1w=", "properties": {"ref": "https://www.opticalexpress.co.uk/clinic-finder/wales/cardiff-windsor-place", "@spider": "optical_express", "shop": "optician", "addr:full": "24 Windsor Place, Cardiff CF10 3BY, United Kingdom", "addr:street_address": "24 Windsor Place", "addr:state": "Wales", "addr:postcode": "CF10 3BY", "addr:country": "GB", "name": "Cardiff", "phone": "029 2167 1106", "website": "https://www.opticalexpress.co.uk/clinic-finder/wales/cardiff-windsor-place", "opening_hours": "Mo-Sa 09:00-17:30", "image": "https://www.opticalexpress.co.uk/media/4103/meta-image.png", "brand": "Optical Express", "brand:wikidata": "Q7098810", "nsi_id": "opticalexpress-610826"}, "geometry": {"type": "Point", "coordinates": [-3.1741874, 51.4843591]}},
{"type": "Feature", "id": "yLgSJ2sBrFO0tLvMT80xFEIfV1A=", "properties": {"ref": "https://www.opticalexpress.co.uk/clinic-finder/northern-ireland/derry-londonderry", "@spider": "optical_express", "shop": "optician", "addr:full": "100 Patrick Street, Derry~Londonderry, BT48 7EL, United Kingdom", "addr:street_address": "100 Patrick Street", "addr:city": "Londonderry", "addr:state": "Northern Ireland", "addr:postcode": "BT48 7EL", "addr:country": "GB", "name": "Derry~Londonderry", "phone": "028 7122 8307", "website": "https://www.opticalexpress.co.uk/clinic-finder/northern-ireland/derry-londonderry", "opening_hours": "Tu 09:00-17:30", "image": "https://www.opticalexpress.co.uk/media/4103/meta-image.png", "brand": "Optical Express", "brand:wikidata": "Q7098810", "nsi_id": "opticalexpress-610826"}, "geometry": {"type": "Point", "coordinates": [-7.3228135594681785, 55.00039574743704]}},
{"type": "Feature", "id": "POtzcyNYpFQe33g_p5BsANRAjeo=", "properties": {"ref": "https://www.opticalexpress.co.uk/clinic-finder/northern-ireland/belfast-great-victoria-street", "@spider": "optical_express", "shop": "optician", "addr:full": "The Vantage, 4th Floor, 32-36 Great Victoria Street Belfast, BT2 7BA", "addr:street_address": "The Vantage", "addr:state": "Northern Ireland", "addr:postcode": "BT2 7BA", "addr:country": "GB", "name": "Belfast", "phone": "02890 230257", "website": "https://www.opticalexpress.co.uk/clinic-finder/northern-ireland/belfast-great-victoria-street", "opening_hours": "Mo-Sa 09:00-17:30", "image": "https://www.opticalexpress.co.uk/media/4103/meta-image.png", "brand": "Optical Express", "brand:wikidata": "Q7098810", "nsi_id": "opticalexpress-610826"}, "geometry": {"type": "Point", "coordinates": [-5.9341225464049225, 54.595084545954776]}},
{"type": "Feature", "id": "ty6obdsdh-mwJ4NqeCdMqdElpBA=", "properties": {"ref": "https://www.opticalexpress.co.uk/clinic-finder/south-of-england/stevenage", "@spider": "optical_express", "shop": "optician", "addr:full": "Second Floor Office, 93 - 95 Queensway, Stevenage, Hertfordshire, SG1 1EA", "addr:street_address": "Second Floor Office", "addr:state": "South of England", "addr:postcode": "SG1 1EA", "addr:country": "GB", "name": "Stevenage", "phone": "01438902501", "website": "https://www.opticalexpress.co.uk/clinic-finder/south-of-england/stevenage", "image": "https://www.opticalexpress.co.uk/media/4103/meta-image.png", "brand": "Optical Express", "brand:wikidata": "Q7098810", "nsi_id": "opticalexpress-610826"}, "geometry": {"type": "Point", "coordinates": [-0.20155978639734465, 51.90320548368528]}},
{"type": "Feature", "id": "SNz79DsbQeICNkBlVEtMeSiIdXY=", "properties": {"ref": "https://www.opticalexpress.co.uk/clinic-finder/south-of-england/birmingham-corporation-street", "@spider": "optical_express", "shop": "optician", "addr:full": "16 Corporation Street,Birmingham B2 4RN,United Kingdom", "addr:street_address": "16 Corporation Street", "addr:state": "South of England", "addr:postcode": "B2 4RN", "addr:country": "GB", "name": "Birmingham", "phone": "0121 783 5250", "website": "https://www.opticalexpress.co.uk/clinic-finder/south-of-england/birmingham-corporation-street", "opening_hours": "Mo-We 08:00-17:30; Th 08:30-17:30; Fr-Sa 08:00-17:30; Su 11:00-17:00", "image": "https://www.opticalexpress.co.uk/media/4103/meta-image.png", "brand": "Optical Express", "brand:wikidata": "Q7098810", "nsi_id": "opticalexpress-610826"}, "geometry": {"type": "Point", "coordinates": [-1.89733, 52.479628]}},
{"type": "Feature", "id": "TAFmWSxmlP6uRrKU81ynopEKUck=", "properties": {"ref": "https://www.opticalexpress.co.uk/clinic-finder/south-of-england/worcester-broad-street", "@spider": "optical_express", "shop": "optician", "addr:full": "6/9 Broad Street ,Worcester WR1 3LH,United Kingdom", "addr:street_address": "6/9 Broad Street", "addr:state": "South of England", "addr:postcode": "WR1 3LH", "addr:country": "GB", "name": "Worcester", "phone": "01905 677 393", "website": "https://www.opticalexpress.co.uk/clinic-finder/south-of-england/worcester-broad-street", "opening_hours": "Th 08:30-17:00", "image": "https://www.opticalexpress.co.uk/media/4103/meta-image.png", "brand": "Optical Express", "brand:wikidata": "Q7098810", "nsi_id": "opticalexpress-610826"}, "geometry": {"type": "Point", "coordinates": [-2.222035, 52.192886]}},
{"type": "Feature", "id": "akIEEADg1qI-0vvKwRQArGMsaQY=", "properties": {"ref": "https://www.opticalexpress.co.uk/clinic-finder/south-of-england/uxbridge-belmont", "@spider": "optical_express", "shop": "optician", "addr:full": "Belmont, Belmont Road, Uxbridge, UB8 1RZ", "addr:street_address": "Belmont", "addr:state": "South of England", "addr:postcode": "UB8 1RZ", "addr:country": "GB", "name": "Uxbridge", "phone": "01865 208520", "website": "https://www.opticalexpress.co.uk/clinic-finder/south-of-england/uxbridge-belmont", "opening_hours": "Tu-Sa 09:00-17:30", "image": "https://www.opticalexpress.co.uk/media/4103/meta-image.png", "brand": "Optical Express", "brand:wikidata": "Q7098810", "nsi_id": "opticalexpress-610826"}, "geometry": {"type": "Point", "coordinates": [-0.478986, 51.547518]}},
{"type": "Feature", "id": "Lcf8JppUApObr6SM1zKwRQ4hJ0o=", "properties": {"ref": "https://www.opticalexpress.co.uk/clinic-finder/south-of-england/truro", "@spider": "optical_express", "shop": "optician", "addr:full": "Truro, Courtleigh House, Ground Floor, 75 Lemon Street, TR1 2PN", "addr:street_address": "Truro", "addr:state": "South of England", "addr:postcode": "TR1 2PN", "addr:country": "GB", "name": "Truro", "phone": "01872 305 955", "website": "https://www.opticalexpress.co.uk/clinic-finder/south-of-england/truro", "image": "https://www.opticalexpress.co.uk/media/4103/meta-image.png", "brand": "Optical Express", "brand:wikidata": "Q7098810", "nsi_id": "opticalexpress-610826"}, "geometry": {"type": "Point", "coordinates": [-5.051881, 50.262071]}},
{"type": "Feature", "id": "QcB3R2EyXnPrnTUIPo0ZRuaU_08=", "properties": {"ref": "https://www.opticalexpress.co.uk/clinic-finder/south-of-england/torquay-the-terrace", "@spider": "optical_express", "shop": "optician", "addr:full": "36 The Terrace ,Torquay TQ1 1BN,United Kingdom", "addr:street_address": "36 The Terrace", "addr:state": "South of England", "addr:postcode": "TQ1 1BN", "addr:country": "GB", "name": "Torquay", "phone": "01803 296521", "website": "https://www.opticalexpress.co.uk/clinic-finder/south-of-england/torquay-the-terrace", "opening_hours": "Sa 09:00-16:00", "image": "https://www.opticalexpress.co.uk/media/4103/meta-image.png", "brand": "Optical Express", "brand:wikidata": "Q7098810", "nsi_id": "opticalexpress-610826"}, "geometry": {"type": "Point", "coordinates": [-3.525408, 50.462814]}},
{"type": "Feature", "id": "Ai1OV4n0HoqHCa2rOBzARuwWL6c=", "properties": {"ref": "https://www.opticalexpress.co.uk/clinic-finder/south-of-england/thurrock-lakeside-shopping-centre", "@spider": "optical_express", "shop": "optician", "addr:full": "Unit 230 Level 2,Thurrock RM20 2ZF,United Kingdom", "addr:street_address": "Unit 230 Level 2", "addr:state": "South of England", "addr:postcode": "RM20 2ZF", "addr:country": "GB", "name": "Thurrock", "phone": "01708 863395", "website": "https://www.opticalexpress.co.uk/clinic-finder/south-of-england/thurrock-lakeside-shopping-centre", "opening_hours": "Mo-Tu 09:00-19:30; Th-Sa 09:00-19:30", "image": "https://www.opticalexpress.co.uk/media/4103/meta-image.png", "brand": "Optical Express", "brand:wikidata": "Q7098810", "nsi_id": "opticalexpress-610826"}, "geometry": {"type": "Point", "coordinates": [0.283086, 51.487061]}},
{"type": "Feature", "id": "hKBmf4rjcZ9pGzJBZcFslICCMGg=", "properties": {"ref": "https://www.opticalexpress.co.uk/clinic-finder/south-of-england/taunton", "@spider": "optical_express", "shop": "optician", "addr:full": "Second Floor, 2 Tangier Central, Taunton TA1 4AS", "addr:street_address": "Second Floor", "addr:state": "South of England", "addr:postcode": "TA1 4AS", "addr:country": "GB", "name": "Taunton", "phone": "0182 335 27 05", "website": "https://www.opticalexpress.co.uk/clinic-finder/south-of-england/taunton", "opening_hours": "Tu-We 09:00-17:30", "image": "https://www.opticalexpress.co.uk/media/4103/meta-image.png", "brand": "Optical Express", "brand:wikidata": "Q7098810", "nsi_id": "opticalexpress-610826"}, "geometry": {"type": "Point", "coordinates": [-3.111154, 51.016514]}},
{"type": "Feature", "id": "XXd9o1d_dWYqCzyJ-CoRaKDEmEM=", "properties": {"ref": "https://www.opticalexpress.co.uk/clinic-finder/south-of-england/swindon-minton-place", "@spider": "optical_express", "shop": "optician", "addr:full": "1st Floor (suite 4) Minton Place,Swindon SN1 1DA,United Kingdom", "addr:street_address": "1st Floor (suite 4) Minton Place", "addr:state": "South of England", "addr:postcode": "SN1 1DA", "addr:country": "GB", "name": "Swindon", "phone": "01793 279 463", "website": "https://www.opticalexpress.co.uk/clinic-finder/south-of-england/swindon-minton-place", "opening_hours": "Tu 09:00-17:30", "image": "https://www.opticalexpress.co.uk/media/4103/meta-image.png", "brand": "Optical Express", "brand:wikidata": "Q7098810", "nsi_id": "opticalexpress-610826"}, "geometry": {"type": "Point", "coordinates": [-1.78697, 51.56405]}},
{"type": "Feature", "id": "GkaewF_mKB3_VVULz2T5OmhWK1w=", "properties": {"ref": "https://www.opticalexpress.co.uk/clinic-finder/south-of-england/st-albans-trident-house", "@spider": "optical_express", "shop": "optician", "addr:full": "Trident House 42-48 Victoria Street,St Albans AL1 3HZ,United Kingdom", "addr:street_address": "Trident House 42-48 Victoria Street", "addr:state": "South of England", "addr:postcode": "AL1 3HZ", "addr:country": "GB", "name": "St Albans", "phone": "01727 832772", "website": "https://www.opticalexpress.co.uk/clinic-finder/south-of-england/st-albans-trident-house", "opening_hours": "Mo-Sa 09:00-17:30", "image": "https://www.opticalexpress.co.uk/media/4103/meta-image.png", "brand": "Optical Express", "brand:wikidata": "Q7098810", "nsi_id": "opticalexpress-610826"}, "geometry": {"type": "Point", "coordinates": [-0.335534, 51.751286]}},
{"type": "Feature", "id": "huXYD_iOGYfWRSLTGqGpobzr_98=", "properties": {"ref": "https://www.opticalexpress.co.uk/clinic-finder/south-of-england/southampton-avenue", "@spider": "optical_express", "shop": "optician", "addr:full": "36-38 The Avenue ,Southampton S017 1XN,United Kingdom", "addr:street_address": "36-38 The Avenue", "addr:state": "South of England", "addr:postcode": "S017 1XN", "addr:country": "GB", "name": "Southampton", "phone": "02392 865741", "website": "https://www.opticalexpress.co.uk/clinic-finder/south-of-england/southampton-avenue", "opening_hours": "Mo-Fr 08:30-17:00", "image": "https://www.opticalexpress.co.uk/media/4103/meta-image.png", "brand": "Optical Express", "brand:wikidata": "Q7098810", "nsi_id": "opticalexpress-610826"}, "geometry": {"type": "Point", "coordinates": [-1.403173, 50.918318]}},
{"type": "Feature", "id": "woyEoz3mrq3TYW322lBAC_ICXcw=", "properties": {"ref": "https://www.opticalexpress.co.uk/clinic-finder/south-of-england/salisbury", "@spider": "optical_express", "shop": "optician", "addr:full": "First Floor Beckett House 2-10 Bridge Street Salisbury SP1 2LX", "addr:street_address": "First Floor Beckett House 2-10 Bridge Street Salisbury SP1 2LX", "addr:state": "South of England", "addr:postcode": "SP1 2LX", "addr:country": "GB", "name": "Salisbury", "phone": "01722 442 521", "website": "https://www.opticalexpress.co.uk/clinic-finder/south-of-england/salisbury", "image": "https://www.opticalexpress.co.uk/media/4103/meta-image.png", "brand": "Optical Express", "brand:wikidata": "Q7098810", "nsi_id": "opticalexpress-610826"}, "geometry": {"type": "Point", "coordinates": [-1.7983, 51.0688]}},
{"type": "Feature", "id": "eVuNz9lYqdXaelvak2uaIMfq_xc=", "properties": {"ref": "https://www.opticalexpress.co.uk/clinic-finder/south-of-england/reading-havell-house", "@spider": "optical_express", "shop": "optician", "addr:full": "Lower Ground Havell House,Reading RG1 4BP,United Kingdom", "addr:street_address": "Lower Ground Havell House", "addr:state": "South of England", "addr:postcode": "RG1 4BP", "addr:country": "GB", "name": "Reading", "phone": "01182 147 871", "website": "https://www.opticalexpress.co.uk/clinic-finder/south-of-england/reading-havell-house", "opening_hours": "Mo-Tu 08:30-17:00; We 09:00-17:30; Th 08:30-17:00; Fr 09:30-17:00; Sa 09:30-17:30", "image": "https://www.opticalexpress.co.uk/media/4103/meta-image.png", "brand": "Optical Express", "brand:wikidata": "Q7098810", "nsi_id": "opticalexpress-610826"}, "geometry": {"type": "Point", "coordinates": [-0.962736, 51.453641]}},
{"type": "Feature", "id": "sFi09Aj6XnI-opAy5MVV9LfSJpg=", "properties": {"ref": "https://www.opticalexpress.co.uk/clinic-finder/south-of-england/plymouth-princess-court", "@spider": "optical_express", "shop": "optician", "addr:full": "23 Princess Street ,Plymouth PL1 2EX,United Kingdom", "addr:street_address": "23 Princess Street", "addr:state": "South of England", "addr:postcode": "PL1 2EX", "addr:country": "GB", "name": "Plymouth", "phone": "01752 256875", "website": "https://www.opticalexpress.co.uk/clinic-finder/south-of-england/plymouth-princess-court", "opening_hours": "Tu-Fr 09:00-17:30", "image": "https://www.opticalexpress.co.uk/media/4103/meta-image.png", "brand": "Optical Express", "brand:wikidata": "Q7098810", "nsi_id": "opticalexpress-610826"}, "geometry": {"type": "Point", "coordinates": [-4.142755, 50.368717]}},
{"type": "Feature", "id": "wwrrr6kX9JgkSOXOiaX_35ShdBQ=", "properties": {"ref": "https://www.opticalexpress.co.uk/clinic-finder/south-of-england/peterborough-cross-street-court", "@spider": "optical_express", "shop": "optician", "addr:full": "Suite 9 Cross Street Court,Peterborough PE1 1XA,United Kingdom", "addr:street_address": "Suite 9 Cross Street Court", "addr:state": "South of England", "addr:postcode": "PE1 1XA", "addr:country": "GB", "name": "Peterborough", "phone": "01733 344373", "website": "https://www.opticalexpress.co.uk/clinic-finder/south-of-england/peterborough-cross-street-court", "opening_hours": "Mo-We 09:00-17:30", "image": "https://www.opticalexpress.co.uk/media/4103/meta-image.png", "brand": "Optical Express", "brand:wikidata": "Q7098810", "nsi_id": "opticalexpress-610826"}, "geometry": {"type": "Point", "coordinates": [-0.244894, 52.572144]}},
{"type": "Feature", "id": "UBxgPVlSm73NkO3zfun-ehuJaBA=", "properties": {"ref": "https://www.opticalexpress.co.uk/clinic-finder/south-of-england/oxford-midland-house", "@spider": "optical_express", "shop": "optician", "addr:full": "2nd Floor Midland House, West Way, Botley, Oxford, OX2 0PH, United Kingdom", "addr:street_address": "2nd Floor Midland House", "addr:state": "South of England", "addr:postcode": "OX2 0PH", "addr:country": "GB", "name": "Oxford", "phone": "01865 593 884", "website": "https://www.opticalexpress.co.uk/clinic-finder/south-of-england/oxford-midland-house", "image": "https://www.opticalexpress.co.uk/media/4103/meta-image.png", "brand": "Optical Express", "brand:wikidata": "Q7098810", "nsi_id": "opticalexpress-610826"}, "geometry": {"type": "Point", "coordinates": [-1.293976, 51.754026]}},
{"type": "Feature", "id": "G9cmbVxKpkXsx8SNMG_esJLJci8=", "properties": {"ref": "https://www.opticalexpress.co.uk/clinic-finder/south-of-england/norwich-haymarket", "@spider": "optical_express", "shop": "optician", "addr:full": "1 Haymarket ,Norwich NR2 1QD,United Kingdom", "addr:street_address": "1 Haymarket", "addr:state": "South of England", "addr:postcode": "NR2 1QD", "addr:country": "GB", "name": "Norwich", "phone": "01603 662072", "website": "https://www.opticalexpress.co.uk/clinic-finder/south-of-england/norwich-haymarket", "opening_hours": "Mo-Sa 09:00-17:30", "image": "https://www.opticalexpress.co.uk/media/4103/meta-image.png", "brand": "Optical Express", "brand:wikidata": "Q7098810", "nsi_id": "opticalexpress-610826"}, "geometry": {"type": "Point", "coordinates": [1.293508, 52.627438]}},
{"type": "Feature", "id": "QD3hPGxPVXfoGU6d8oDa8RqfTA4=", "properties": {"ref": "https://www.opticalexpress.co.uk/clinic-finder/south-of-england/milton-keynes-norfolk-house", "@spider": "optical_express", "shop": "optician", "addr:full": "2nd Floor, Norfolk House, Saxon Gate West, Milton Keynes MK9 2DN", "addr:street_address": "2nd Floor", "addr:state": "South of England", "addr:postcode": "MK9 2DN", "addr:country": "GB", "name": "Milton Keynes", "phone": "01908 926 290", "website": "https://www.opticalexpress.co.uk/clinic-finder/south-of-england/milton-keynes-norfolk-house", "opening_hours": "Mo-Sa 09:00-17:30", "image": "https://www.opticalexpress.co.uk/media/4103/meta-image.png", "brand": "Optical Express", "brand:wikidata": "Q7098810", "nsi_id": "opticalexpress-610826"}, "geometry": {"type": "Point", "coordinates": [-0.7633361, 52.04196]}},
{"type": "Feature", "id": "Zz-EZz8K793K4cawDNL80ZlianQ=", "properties": {"ref": "https://www.opticalexpress.co.uk/clinic-finder/south-of-england/maidstone", "@spider": "optical_express", "shop": "optician", "addr:full": "Unit 4, Toherst Court Turkey Mill Ashford Road Maidstone ME14 5SF  United Kingdom", "addr:street_address": "Unit 4", "addr:state": "South of England", "addr:postcode": "ME14 5SF", "addr:country": "GB", "name": "Maidstone", "phone": "01622 478 001", "website": "https://www.opticalexpress.co.uk/clinic-finder/south-of-england/maidstone", "opening_hours": "Mo-Fr 09:00-17:30", "image": "https://www.opticalexpress.co.uk/media/4103/meta-image.png", "brand": "Optical Express", "brand:wikidata": "Q7098810", "nsi_id": "opticalexpress-610826"}, "geometry": {"type": "Point", "coordinates": [0.5301, 51.273379]}},
{"type": "Feature", "id": "tMtdXzqSwS9BSwDN_7llhwDsD8w=", "properties": {"ref": "https://www.opticalexpress.co.uk/clinic-finder/south-of-england/london-shaftesbury-avenue", "@spider": "optical_express", "shop": "optician", "addr:full": "219-229 Shaftesbury Avenue ,London WC2H 8EL,United Kingdom", "addr:street_address": "219-229 Shaftesbury Avenue", "addr:state": "South of England", "addr:postcode": "WC2H 8EL", "addr:country": "GB", "name": "London", "phone": "0208 460 3387", "website": "https://www.opticalexpress.co.uk/clinic-finder/south-of-england/london-shaftesbury-avenue", "opening_hours": "Mo-Sa 09:00-17:30; Su 11:00-17:00", "image": "https://www.opticalexpress.co.uk/media/4103/meta-image.png", "brand": "Optical Express", "brand:wikidata": "Q7098810", "nsi_id": "opticalexpress-610826"}, "geometry": {"type": "Point", "coordinates": [-0.126684, 51.516068]}},
{"type": "Feature", "id": "JpjBN34dzYMncJYP7DWxYICL6DQ=", "properties": {"ref": "https://www.opticalexpress.co.uk/clinic-finder/south-of-england/london-monument", "@spider": "optical_express", "shop": "optician", "addr:full": "17 Eastcheap ,London EC3M 1BU,United Kingdom", "addr:street_address": "17 Eastcheap", "addr:state": "South of England", "addr:postcode": "EC3M 1BU", "addr:country": "GB", "name": "London", "phone": "0207 283 0120", "website": "https://www.opticalexpress.co.uk/clinic-finder/south-of-england/london-monument", "opening_hours": "Mo-Tu 09:00-17:30; We-Th 08:00-16:30; Fr 09:00-17:30", "image": "https://www.opticalexpress.co.uk/media/4103/meta-image.png", "brand": "Optical Express", "brand:wikidata": "Q7098810", "nsi_id": "opticalexpress-610826"}, "geometry": {"type": "Point", "coordinates": [-0.084715, 51.51086]}},
{"type": "Feature", "id": "7gDcSqYWQ6m1ZcZYTXXHAejqb90=", "properties": {"ref": "https://www.opticalexpress.co.uk/clinic-finder/south-of-england/london-harley-street", "@spider": "optical_express", "shop": "optician", "addr:full": "22 Harley Street Ground Floor Right,London W1G 9AP,United Kingdom", "addr:street_address": "22 Harley Street Ground Floor Right", "addr:state": "South of England", "addr:postcode": "W1G 9AP", "addr:country": "GB", "name": "London Harley Street", "phone": "0207 236 5707", "website": "https://www.opticalexpress.co.uk/clinic-finder/south-of-england/london-harley-street", "opening_hours": "Mo-Sa 09:00-17:30", "image": "https://www.opticalexpress.co.uk/media/4103/meta-image.png", "brand": "Optical Express", "brand:wikidata": "Q7098810", "nsi_id": "opticalexpress-610826"}, "geometry": {"type": "Point", "coordinates": [-0.146309, 51.517849]}},
{"type": "Feature", "id": "DNKxC5M7IaRF0kBvRvOjrd3lLrM=", "properties": {"ref": "https://www.opticalexpress.co.uk/clinic-finder/south-of-england/london-westfield-white-city", "@spider": "optical_express", "shop": "optician", "addr:full": "Unit 2121 Westfield London Shopping Centre,London W12 7GF,United Kingdom", "addr:street_address": "Unit 2121 Westfield London Shopping Centre", "addr:state": "South of England", "addr:postcode": "W12 7GF", "addr:country": "GB", "name": "London White City Westfield", "phone": "0208 735 3580", "website": "https://www.opticalexpress.co.uk/clinic-finder/south-of-england/london-westfield-white-city", "opening_hours": "Mo-Fr 10:00-20:30; Sa 09:00-20:30; Su 11:00-17:00", "image": "https://www.opticalexpress.co.uk/media/4103/meta-image.png", "brand": "Optical Express", "brand:wikidata": "Q7098810", "nsi_id": "opticalexpress-610826"}, "geometry": {"type": "Point", "coordinates": [-0.220757, 51.507301]}},
{"type": "Feature", "id": "Kg9XSWkGHSmNwbk4HrAd4-TVMSw=", "properties": {"ref": "https://www.opticalexpress.co.uk/clinic-finder/south-of-england/leicester-horsefair-street", "@spider": "optical_express", "shop": "optician", "addr:full": "First Floor Norwich House,Leicester LE1 5BD,United Kingdom", "addr:street_address": "First Floor Norwich House", "addr:state": "South of England", "addr:postcode": "LE1 5BD", "addr:country": "GB", "name": "Leicester", "phone": "0116 251 7568", "website": "https://www.opticalexpress.co.uk/clinic-finder/south-of-england/leicester-horsefair-street", "opening_hours": "Tu-We 09:00-17:30; Fr-Sa 09:00-17:30", "image": "https://www.opticalexpress.co.uk/media/4103/meta-image.png", "brand": "Optical Express", "brand:wikidata": "Q7098810", "nsi_id": "opticalexpress-610826"}, "geometry": {"type": "Point", "coordinates": [-1.133674, 52.633373]}},
{"type": "Feature", "id": "Qy7OWBq3IoI0y8Aj9jJPwpjL63Q=", "properties": {"ref": "https://www.opticalexpress.co.uk/clinic-finder/south-of-england/leamington-spa-bedford-street", "@spider": "optical_express", "shop": "optician", "addr:full": "Gnd R 93-95 Bedford Street,Leamington Spa ,United Kingdom", "addr:street_address": "Gnd R 93-95 Bedford Street", "addr:state": "South of England", "addr:country": "GB", "name": "Leamington Spa", "phone": "01926 431487", "website": "https://www.opticalexpress.co.uk/clinic-finder/south-of-england/leamington-spa-bedford-street", "opening_hours": "We 09:00-17:30", "image": "https://www.opticalexpress.co.uk/media/4103/meta-image.png", "brand": "Optical Express", "brand:wikidata": "Q7098810", "nsi_id": "opticalexpress-610826"}, "geometry": {"type": "Point", "coordinates": [-1.536141, 52.288624]}},
{"type": "Feature", "id": "FcWaPw0hK4SmQFd4Vt5nBON7U2s=", "properties": {"ref": "https://www.opticalexpress.co.uk/clinic-finder/south-of-england/kingston-upon-thames-fife-road", "@spider": "optical_express", "shop": "optician", "addr:full": "3rd Floor 14/18 Fife Road,Kingston Upon Thames KT1 1SZ,United Kingdom", "addr:street_address": "3rd Floor 14/18 Fife Road", "addr:state": "South of England", "addr:postcode": "KT1 1SZ", "addr:country": "GB", "name": "Kingston upon Thames", "phone": "02080 926 189", "website": "https://www.opticalexpress.co.uk/clinic-finder/south-of-england/kingston-upon-thames-fife-road", "opening_hours": "We-Sa 09:00-17:30", "image": "https://www.opticalexpress.co.uk/media/4103/meta-image.png", "brand": "Optical Express", "brand:wikidata": "Q7098810", "nsi_id": "opticalexpress-610826"}, "geometry": {"type": "Point", "coordinates": [-0.303518, 51.411354]}},
{"type": "Feature", "id": "IgSOLcoSRhNXS219CwRZmqJHm24=", "properties": {"ref": "https://www.opticalexpress.co.uk/clinic-finder/south-of-england/dartford-riverbridge-house", "@spider": "optical_express", "shop": "optician", "addr:full": "Riverbridge House, Anchor Boulevard, Crossways Business Park, Dartford, DA2 6SL", "addr:street_address": "Riverbridge House", "addr:state": "South of England", "addr:postcode": "DA2 6SL", "addr:country": "GB", "name": "Dartford", "phone": "01322 476 952", "website": "https://www.opticalexpress.co.uk/clinic-finder/south-of-england/dartford-riverbridge-house", "opening_hours": "Mo-Tu 09:00-17:30; We-Fr 10:00-21:00; Sa 09:00-19:00", "image": "https://www.opticalexpress.co.uk/media/4103/meta-image.png", "brand": "Optical Express", "brand:wikidata": "Q7098810", "nsi_id": "opticalexpress-610826"}, "geometry": {"type": "Point", "coordinates": [0.2546751163565578, 51.45474896372885]}},
{"type": "Feature", "id": "O7mCRqt2voUllTtQOOk-s7s6da4=", "properties": {"ref": "https://www.opticalexpress.co.uk/clinic-finder/south-of-england/ipswich-clydesdale-house", "@spider": "optical_express", "shop": "optician", "addr:full": "Clydesdale House (3rd floor) ,Ipswich IP1 1SW,United Kingdom", "addr:street_address": "Clydesdale House (3rd floor)", "addr:state": "South of England", "addr:postcode": "IP1 1SW", "addr:country": "GB", "name": "Ipswich", "phone": "01473 350 496", "website": "https://www.opticalexpress.co.uk/clinic-finder/south-of-england/ipswich-clydesdale-house", "opening_hours": "Th 09:00-16:30", "image": "https://www.opticalexpress.co.uk/media/4103/meta-image.png", "brand": "Optical Express", "brand:wikidata": "Q7098810", "nsi_id": "opticalexpress-610826"}, "geometry": {"type": "Point", "coordinates": [1.152785, 52.05661]}},
{"type": "Feature", "id": "RqI4aJe5a25Sxb3Ph90rhc2O2rU=", "properties": {"ref": "https://www.opticalexpress.co.uk/clinic-finder/south-of-england/guildford-milkhouse-gate", "@spider": "optical_express", "shop": "optician", "addr:full": "Suite 3 1 Milkhouse Gate,Surrey GU1 3EZ,United Kingdom", "addr:street_address": "Suite 3 1 Milkhouse Gate", "addr:state": "South of England", "addr:postcode": "GU1 3EZ", "addr:country": "GB", "name": "Guildford", "phone": "01483 740266", "website": "https://www.opticalexpress.co.uk/clinic-finder/south-of-england/guildford-milkhouse-gate", "opening_hours": "Tu-Th 09:00-17:30", "image": "https://www.opticalexpress.co.uk/media/4103/meta-image.png", "brand": "Optical Express", "brand:wikidata": "Q7098810", "nsi_id": "opticalexpress-610826"}, "geometry": {"type": "Point", "coordinates": [-0.571563, 51.235039]}},
{"type": "Feature", "id": "tVeg23mSTdwZJcFQf2Hb-nAXj9U=", "properties": {"ref": "https://www.opticalexpress.co.uk/clinic-finder/south-of-england/exeter-brittany-house", "@spider": "optical_express", "shop": "optician", "addr:full": "Brittany House First Floor,Exeter EX4 4EP,United Kingdom", "addr:street_address": "Brittany House First Floor", "addr:state": "South of England", "addr:postcode": "EX4 4EP", "addr:country": "GB", "name": "Exeter", "phone": "01392 549 575", "website": "https://www.opticalexpress.co.uk/clinic-finder/south-of-england/exeter-brittany-house", "opening_hours": "Mo-Sa 09:00-17:30", "image": "https://www.opticalexpress.co.uk/media/4103/meta-image.png", "brand": "Optical Express", "brand:wikidata": "Q7098810", "nsi_id": "opticalexpress-610826"}, "geometry": {"type": "Point", "coordinates": [-3.52768, 50.72604]}},
{"type": "Feature", "id": "1SbI7CKXwSL_VORj9J38tpN6tPE=", "properties": {"ref": "https://www.opticalexpress.co.uk/clinic-finder/south-of-england/dudley", "@spider": "optical_express", "shop": "optician", "addr:full": "Unit 1, Waterfront Business Park, Dudley Road, Brierley Hill DY5 1UD", "addr:street_address": "Unit 1", "addr:state": "South of England", "addr:postcode": "DY5 1UD", "addr:country": "GB", "name": "Dudley", "phone": "01384 480255", "website": "https://www.opticalexpress.co.uk/clinic-finder/south-of-england/dudley", "opening_hours": "Mo 09:00-19:00; Tu-We 09:00-17:30; Th 09:00-19:00; Fr-Sa 09:00-17:30", "image": "https://www.opticalexpress.co.uk/media/4103/meta-image.png", "brand": "Optical Express", "brand:wikidata": "Q7098810", "nsi_id": "opticalexpress-610826"}, "geometry": {"type": "Point", "coordinates": [-2.118, 52.48556]}},
{"type": "Feature", "id": "loRw-9JvMmVJjKyiFQjnQpSy5MA=", "properties": {"ref": "https://www.opticalexpress.co.uk/clinic-finder/south-of-england/coventry-sun-alliance-house", "@spider": "optical_express", "shop": "optician", "addr:full": "Sun Alliance House Little Park Street,Coventry CV1 2JZ,United Kingdom", "addr:street_address": "Sun Alliance House Little Park Street", "addr:state": "South of England", "addr:postcode": "CV1 2JZ", "addr:country": "GB", "name": "Coventry", "phone": "02477 710 946", "website": "https://www.opticalexpress.co.uk/clinic-finder/south-of-england/coventry-sun-alliance-house", "opening_hours": "Mo-Tu 09:00-17:30; Fr-Sa 09:00-17:30", "image": "https://www.opticalexpress.co.uk/media/4103/meta-image.png", "brand": "Optical Express", "brand:wikidata": "Q7098810", "nsi_id": "opticalexpress-610826"}, "geometry": {"type": "Point", "coordinates": [-1.508859, 52.406124]}},
{"type": "Feature", "id": "FSb8OFhraQef3HmLeZ5pfSU24eY=", "properties": {"ref": "https://www.opticalexpress.co.uk/clinic-finder/south-of-england/colchester-montrose-house", "@spider": "optical_express", "shop": "optician", "addr:full": "Montrose House Eld Lane,Colchester CO1 1LS,United Kingdom", "addr:street_address": "Montrose House Eld Lane", "addr:state": "South of England", "addr:postcode": "CO1 1LS", "addr:country": "GB", "name": "Colchester", "phone": "01206 237 531", "website": "https://www.opticalexpress.co.uk/clinic-finder/south-of-england/colchester-montrose-house", "opening_hours": "Th 09:00-17:30", "image": "https://www.opticalexpress.co.uk/media/4103/meta-image.png", "brand": "Optical Express", "brand:wikidata": "Q7098810", "nsi_id": "opticalexpress-610826"}, "geometry": {"type": "Point", "coordinates": [0.9007, 51.887913]}},
{"type": "Feature", "id": "xU_GugZaaeELmlhIXBCf1MJ1anU=", "properties": {"ref": "https://www.opticalexpress.co.uk/clinic-finder/south-of-england/cheltenham-promenade", "@spider": "optical_express", "shop": "optician", "addr:full": "43-45 Promenade ,Cheltenham GL50 1PY,United Kingdom", "addr:street_address": "43-45 Promenade", "addr:state": "South of England", "addr:postcode": "GL50 1PY", "addr:country": "GB", "name": "Cheltenham", "phone": "01242 242551", "website": "https://www.opticalexpress.co.uk/clinic-finder/south-of-england/cheltenham-promenade", "opening_hours": "Mo-We 08:30-17:00; Sa 08:30-17:00", "image": "https://www.opticalexpress.co.uk/media/4103/meta-image.png", "brand": "Optical Express", "brand:wikidata": "Q7098810", "nsi_id": "opticalexpress-610826"}, "geometry": {"type": "Point", "coordinates": [-2.076697, 51.89959]}},
{"type": "Feature", "id": "vC1WkVkfvm_WrLiMoh8RLqgmvEg=", "properties": {"ref": "https://www.opticalexpress.co.uk/clinic-finder/south-of-england/chelmsford-marlborough-house", "@spider": "optical_express", "shop": "optician", "addr:full": "Ground Floor Marlborough House, Victoria Road South, Chelmsford CM1 1LN,United Kingdom", "addr:street_address": "Ground Floor Marlborough House", "addr:state": "South of England", "addr:postcode": "CM1 1LN", "addr:country": "GB", "name": "Chelmsford", "phone": "01245 346595", "website": "https://www.opticalexpress.co.uk/clinic-finder/south-of-england/chelmsford-marlborough-house", "opening_hours": "Tu-Sa 09:00-17:30", "image": "https://www.opticalexpress.co.uk/media/4103/meta-image.png", "brand": "Optical Express", "brand:wikidata": "Q7098810", "nsi_id": "opticalexpress-610826"}, "geometry": {"type": "Point", "coordinates": [0.469415, 51.735596]}},
{"type": "Feature", "id": "apr20IQPjzyfiOXCORPmt5HG69g=", "properties": {"ref": "https://www.opticalexpress.co.uk/clinic-finder/south-of-england/cambridge-petty-cury", "@spider": "optical_express", "shop": "optician", "addr:full": "39-41 Petty Cury ,Cambridge CB2 3NB,United Kingdom", "addr:street_address": "39-41 Petty Cury", "addr:state": "South of England", "addr:postcode": "CB2 3NB", "addr:country": "GB", "name": "Cambridge", "phone": "01223 643 821", "website": "https://www.opticalexpress.co.uk/clinic-finder/south-of-england/cambridge-petty-cury", "opening_hours": "Mo-Sa 09:00-17:30", "image": "https://www.opticalexpress.co.uk/media/4103/meta-image.png", "brand": "Optical Express", "brand:wikidata": "Q7098810", "nsi_id": "opticalexpress-610826"}, "geometry": {"type": "Point", "coordinates": [0.120168, 52.205235]}},
{"type": "Feature", "id": "d1NPl_jhcmm050CS9tILD2TXYqQ=", "properties": {"ref": "https://www.opticalexpress.co.uk/clinic-finder/south-of-england/bristol-castlemead", "@spider": "optical_express", "shop": "optician", "addr:full": "9th Floor Castlemead,Bristol BS1 3AG,United Kingdom", "addr:street_address": "9th Floor Castlemead", "addr:state": "South of England", "addr:postcode": "BS1 3AG", "addr:country": "GB", "name": "Bristol", "phone": "0117 927 9704", "website": "https://www.opticalexpress.co.uk/clinic-finder/south-of-england/bristol-castlemead", "opening_hours": "Mo-Sa 09:00-17:30", "image": "https://www.opticalexpress.co.uk/media/4103/meta-image.png", "brand": "Optical Express", "brand:wikidata": "Q7098810", "nsi_id": "opticalexpress-610826"}, "geometry": {"type": "Point", "coordinates": [-2.585971, 51.457775]}},
{"type": "Feature", "id": "f-p0PLiIH2LK03mI0NO4zPubHqE=", "properties": {"ref": "https://www.opticalexpress.co.uk/clinic-finder/south-of-england/brighton-queensberry-house", "@spider": "optical_express", "shop": "optician", "addr:full": "Second Floor Queensberry House,Brighton BN1 3XF,United Kingdom", "addr:street_address": "Second Floor Queensberry House", "addr:state": "South of England", "addr:postcode": "BN1 3XF", "addr:country": "GB", "name": "Brighton", "phone": "01273 773265", "website": "https://www.opticalexpress.co.uk/clinic-finder/south-of-england/brighton-queensberry-house", "opening_hours": "Mo-Tu 09:00-17:30; Th-Sa 09:00-17:30", "image": "https://www.opticalexpress.co.uk/media/4103/meta-image.png", "brand": "Optical Express", "brand:wikidata": "Q7098810", "nsi_id": "opticalexpress-610826"}, "geometry": {"type": "Point", "coordinates": [-0.141893, 50.826443]}},
{"type": "Feature", "id": "Y7sIMvV-o_fz5Mbd6IjY6_knU7w=", "properties": {"ref": "https://www.opticalexpress.co.uk/clinic-finder/south-of-england/bournemouth-richmond-house", "@spider": "optical_express", "shop": "optician", "addr:full": "Richmond House Richmond Hill,Bournemouth BH2 6EZ,United Kingdom", "addr:street_address": "Richmond House Richmond Hill", "addr:state": "South of England", "addr:postcode": "BH2 6EZ", "addr:country": "GB", "name": "Bournemouth", "phone": "01202 587130", "website": "https://www.opticalexpress.co.uk/clinic-finder/south-of-england/bournemouth-richmond-house", "image": "https://www.opticalexpress.co.uk/media/4103/meta-image.png", "brand": "Optical Express", "brand:wikidata": "Q7098810", "nsi_id": "opticalexpress-610826"}, "geometry": {"type": "Point", "coordinates": [-1.878004, 50.721962]}},
{"type": "Feature", "id": "JeuM4EHlVE2PsU3lAUUqSSUmFsU=", "properties": {"ref": "https://www.opticalexpress.co.uk/clinic-finder/south-of-england/bath-southgate-street", "@spider": "optical_express", "shop": "optician", "addr:full": "56 Southgate Street ,Bath BA1 1TG,United Kingdom", "addr:street_address": "56 Southgate Street", "addr:state": "South of England", "addr:postcode": "BA1 1TG", "addr:country": "GB", "name": "Bath", "phone": "01225 435 943", "website": "https://www.opticalexpress.co.uk/clinic-finder/south-of-england/bath-southgate-street", "opening_hours": "Th 09:00-17:30", "image": "https://www.opticalexpress.co.uk/media/4103/meta-image.png", "brand": "Optical Express", "brand:wikidata": "Q7098810", "nsi_id": "opticalexpress-610826"}, "geometry": {"type": "Point", "coordinates": [-2.359905, 51.379421]}},
{"type": "Feature", "id": "RB32oP9TEsGLWTAHmPGKVYkYbvw=", "properties": {"ref": "https://www.opticalexpress.co.uk/clinic-finder/south-of-england/aylesbury", "@spider": "optical_express", "shop": "optician", "addr:full": "1st Floor 1 Cambridge Street,Aylesbury HP20 1RP,United Kingdom", "addr:street_address": "1st Floor 1 Cambridge Street", "addr:state": "South of England", "addr:postcode": "HP20 1RP", "addr:country": "GB", "name": "Aylesbury", "phone": "01296 796 434", "website": "https://www.opticalexpress.co.uk/clinic-finder/south-of-england/aylesbury", "opening_hours": "Tu 09:00-17:30; Th 09:00-17:30; Sa 09:00-17:30", "image": "https://www.opticalexpress.co.uk/media/4103/meta-image.png", "brand": "Optical Express", "brand:wikidata": "Q7098810", "nsi_id": "opticalexpress-610826"}, "geometry": {"type": "Point", "coordinates": [-0.8105846, 51.8177367]}},
{"type": "Feature", "id": "Kr138F7NdL8LvWLB7ffJ8nUiI5k=", "properties": {"ref": "https://www.opticalexpress.co.uk/clinic-finder/north-of-england/kendal", "@spider": "optical_express", "shop": "optician", "addr:full": "Ground Floor Bridge Mills Business Centre,Stramongate,Kendal LA9 4UB,United Kingdom", "addr:street_address": "Ground Floor Bridge Mills Business Centre", "addr:city": "Kendal", "addr:state": "Scotland", "addr:postcode": "LA9 4UB", "addr:country": "GB", "name": "Kendal", "phone": "01539 889216", "website": "https://www.opticalexpress.co.uk/clinic-finder/north-of-england/kendal", "opening_hours": "Mo-Sa 09:00-17:30", "image": "https://www.opticalexpress.co.uk/media/4103/meta-image.png", "brand": "Optical Express", "brand:wikidata": "Q7098810", "nsi_id": "opticalexpress-610826"}, "geometry": {"type": "Point", "coordinates": [-2.74312, 54.33014]}},
{"type": "Feature", "id": "sR8OFuBP6p41GzmPMFCVBfu5uiw=", "properties": {"ref": "https://www.opticalexpress.co.uk/clinic-finder/north-of-england/manchester-st-johns", "@spider": "optical_express", "shop": "optician", "addr:full": "7 St John Street Deansgate,Manchester M3 4DN,United Kingdom", "addr:street_address": "7 St John Street Deansgate", "addr:state": "North of England", "addr:postcode": "M3 4DN", "addr:country": "GB", "name": "Manchester", "phone": "0161 872 3625", "website": "https://www.opticalexpress.co.uk/clinic-finder/north-of-england/manchester-st-johns", "opening_hours": "Mo-Sa 09:00-17:30; Su 11:00-17:00", "image": "https://www.opticalexpress.co.uk/media/4103/meta-image.png", "brand": "Optical Express", "brand:wikidata": "Q7098810", "nsi_id": "opticalexpress-610826"}, "geometry": {"type": "Point", "coordinates": [-2.250784, 53.477665]}},
{"type": "Feature", "id": "O-ymAnrnYxAjKpGN0A1rDuGdK9I=", "properties": {"ref": "https://www.opticalexpress.co.uk/clinic-finder/north-of-england/hull-anchor-house", "@spider": "optical_express", "shop": "optician", "addr:full": "Anchor House, Suite B, The Maltings, Silvester Street, HU1 3HA", "addr:street_address": "Anchor House", "addr:state": "North of England", "addr:postcode": "HU1 3HA", "addr:country": "GB", "name": "Hull", "phone": "01482 699235", "website": "https://www.opticalexpress.co.uk/clinic-finder/north-of-england/hull-anchor-house", "opening_hours": "Mo 10:20-16:00; Fr 10:20-16:00", "image": "https://www.opticalexpress.co.uk/media/4103/meta-image.png", "brand": "Optical Express", "brand:wikidata": "Q7098810", "nsi_id": "opticalexpress-610826"}, "geometry": {"type": "Point", "coordinates": [-0.337878, 53.746444]}},
{"type": "Feature", "id": "V2ftBsTAZ19UuAfLS8b2Lb5G04c=", "properties": {"ref": "https://www.opticalexpress.co.uk/clinic-finder/north-of-england/york-parliament-square", "@spider": "optical_express", "shop": "optician", "addr:full": "16-18 Parliament Street ,York YO1 8SG,United Kingdom", "addr:street_address": "16-18 Parliament Street", "addr:state": "North of England", "addr:postcode": "YO1 8SG", "addr:country": "GB", "name": "York", "phone": "01904 621628", "website": "https://www.opticalexpress.co.uk/clinic-finder/north-of-england/york-parliament-square", "opening_hours": "Tu-Th 09:00-19:30; Sa 09:00-16:30", "image": "https://www.opticalexpress.co.uk/media/4103/meta-image.png", "brand": "Optical Express", "brand:wikidata": "Q7098810", "nsi_id": "opticalexpress-610826"}, "geometry": {"type": "Point", "coordinates": [-1.081924, 53.959118]}},
{"type": "Feature", "id": "7-xA5-1wVqCkluIHwYlu84RxkGs=", "properties": {"ref": "https://www.opticalexpress.co.uk/clinic-finder/north-of-england/stoke-the-forecourt", "@spider": "optical_express", "shop": "optician", "addr:full": "Suite 10 The Forecourt,Albion Street,Stoke on Trent ST1 1QH,United Kingdom", "addr:street_address": "Suite 10 The Forecourt", "addr:state": "North of England", "addr:postcode": "ST1 1QH", "addr:country": "GB", "name": "Stoke", "phone": "01782 959373", "website": "https://www.opticalexpress.co.uk/clinic-finder/north-of-england/stoke-the-forecourt", "opening_hours": "Th-Sa 09:30-17:00", "image": "https://www.opticalexpress.co.uk/media/4103/meta-image.png", "brand": "Optical Express", "brand:wikidata": "Q7098810", "nsi_id": "opticalexpress-610826"}, "geometry": {"type": "Point", "coordinates": [-2.176685, 53.023769]}},
{"type": "Feature", "id": "wEMdfBNAQTeFsqDdmZAGDhiGvP0=", "properties": {"ref": "https://www.opticalexpress.co.uk/clinic-finder/north-of-england/sheffield-meadowhall-centre", "@spider": "optical_express", "shop": "optician", "addr:full": "The Gallery Meadowhall Shopping Centre,Sheffield S9 1EP,United Kingdom", "addr:street_address": "The Gallery Meadowhall Shopping Centre", "addr:state": "North of England", "addr:postcode": "S9 1EP", "addr:country": "GB", "name": "Sheffield", "phone": "0114 256 8577", "website": "https://www.opticalexpress.co.uk/clinic-finder/north-of-england/sheffield-meadowhall-centre", "opening_hours": "Mo-Fr 09:00-21:00; Sa 09:00-20:00; Su 11:00-17:00", "image": "https://www.opticalexpress.co.uk/media/4103/meta-image.png", "brand": "Optical Express", "brand:wikidata": "Q7098810", "nsi_id": "opticalexpress-610826"}, "geometry": {"type": "Point", "coordinates": [-1.412455, 53.413029]}},
{"type": "Feature", "id": "iChZePhygYWL54coGspSom-ThyY=", "properties": {"ref": "https://www.opticalexpress.co.uk/clinic-finder/north-of-england/preston-derby-house", "@spider": "optical_express", "shop": "optician", "addr:full": "Ground Floor, Derby House 12 Winckley Square,Preston PR1 3JJ,United Kingdom", "addr:street_address": "Ground Floor", "addr:state": "North of England", "addr:postcode": "PR1 3JJ", "addr:country": "GB", "name": "Preston", "phone": "01772 281702", "website": "https://www.opticalexpress.co.uk/clinic-finder/north-of-england/preston-derby-house", "opening_hours": "Mo-Sa 09:00-17:30", "image": "https://www.opticalexpress.co.uk/media/4103/meta-image.png", "brand": "Optical Express", "brand:wikidata": "Q7098810", "nsi_id": "opticalexpress-610826"}, "geometry": {"type": "Point", "coordinates": [-2.700223, 53.755788]}},
{"type": "Feature", "id": "1Um4K5deYc24jpgJQ8A69z1t7JY=", "properties": {"ref": "https://www.opticalexpress.co.uk/clinic-finder/north-of-england/nottingham-the-triangle", "@spider": "optical_express", "shop": "optician", "addr:full": "5/6 The Triangle, NG2 Business Park, Nottingham NG2 1AE", "addr:street_address": "5/6 The Triangle", "addr:state": "North of England", "addr:postcode": "NG2 1AE", "addr:country": "GB", "name": "Nottingham", "phone": "0115 988 1934", "website": "https://www.opticalexpress.co.uk/clinic-finder/north-of-england/nottingham-the-triangle", "opening_hours": "Mo-Sa 09:00-17:30; Su 10:30-16:30", "image": "https://www.opticalexpress.co.uk/media/4103/meta-image.png", "brand": "Optical Express", "brand:wikidata": "Q7098810", "nsi_id": "opticalexpress-610826"}, "geometry": {"type": "Point", "coordinates": [-1.1665991493062413, 52.94125473537456]}},
{"type": "Feature", "id": "3aTUYPH69XGlG05u19VSVpAObeo=", "properties": {"ref": "https://www.opticalexpress.co.uk/clinic-finder/north-of-england/northampton-the-avenue", "@spider": "optical_express", "shop": "optician", "addr:full": "The Avenue, Cliftonville ,Northampton NN1 5BT,United Kingdom", "addr:street_address": "The Avenue", "addr:state": "North of England", "addr:postcode": "NN1 5BT", "addr:country": "GB", "name": "Northampton", "phone": "01604 212630", "website": "https://www.opticalexpress.co.uk/clinic-finder/north-of-england/northampton-the-avenue", "opening_hours": "Mo-Sa 09:00-17:30", "image": "https://www.opticalexpress.co.uk/media/4103/meta-image.png", "brand": "Optical Express", "brand:wikidata": "Q7098810", "nsi_id": "opticalexpress-610826"}, "geometry": {"type": "Point", "coordinates": [-0.877887, 52.235798]}},
{"type": "Feature", "id": "FM4wKIwmt2scsnTWkbHy_bf5PMs=", "properties": {"ref": "https://www.opticalexpress.co.uk/clinic-finder/north-of-england/newcastle-st-nicholas", "@spider": "optical_express", "shop": "optician", "addr:full": "Part Ground Floor The St Nicholas Building,Newcastle NE1 1RF,United Kingdom", "addr:street_address": "Part Ground Floor The St Nicholas Building", "addr:state": "North of England", "addr:postcode": "NE1 1RF", "addr:country": "GB", "name": "Newcastle", "phone": "0191 263 9218", "website": "https://www.opticalexpress.co.uk/clinic-finder/north-of-england/newcastle-st-nicholas", "opening_hours": "Mo-Sa 09:00-17:30", "image": "https://www.opticalexpress.co.uk/media/4103/meta-image.png", "brand": "Optical Express", "brand:wikidata": "Q7098810", "nsi_id": "opticalexpress-610826"}, "geometry": {"type": "Point", "coordinates": [-1.611646, 54.969214]}},
{"type": "Feature", "id": "kg0vaFTltH1Y9s3uQuX1Lt_vhjw=", "properties": {"ref": "https://www.opticalexpress.co.uk/clinic-finder/north-of-england/newcastle-eldon-square", "@spider": "optical_express", "shop": "optician", "addr:full": "intu Eldon Square 18 Blackettbridge,Newcastle Upon Tyne NE1 7XJ,United Kingdom", "addr:street_address": "intu Eldon Square 18 Blackettbridge", "addr:state": "North of England", "addr:postcode": "NE1 7XJ", "addr:country": "GB", "name": "Newcastle", "website": "https://www.opticalexpress.co.uk/clinic-finder/north-of-england/newcastle-eldon-square", "opening_hours": "Mo-Sa 09:00-17:30", "image": "https://www.opticalexpress.co.uk/media/4103/meta-image.png", "brand": "Optical Express", "brand:wikidata": "Q7098810", "nsi_id": "opticalexpress-610826"}, "geometry": {"type": "Point", "coordinates": [-1.616703, 54.974791]}},
{"type": "Feature", "id": "cMjh2ZtQT_lsN9qa4WAcAfcSjz4=", "properties": {"ref": "https://www.opticalexpress.co.uk/clinic-finder/north-of-england/middlesbrough-albert-road", "@spider": "optical_express", "shop": "optician", "addr:full": "29 Corporation Road ,Middlesbrough TS1 1LP ,United Kingdom", "addr:street_address": "29 Corporation Road", "addr:state": "North of England", "addr:postcode": "TS1 1LP", "addr:country": "GB", "name": "Middlesborough", "phone": "01642 880872", "website": "https://www.opticalexpress.co.uk/clinic-finder/north-of-england/middlesbrough-albert-road", "opening_hours": "Mo-Sa 09:00-17:30", "image": "https://www.opticalexpress.co.uk/media/4103/meta-image.png", "brand": "Optical Express", "brand:wikidata": "Q7098810", "nsi_id": "opticalexpress-610826"}, "geometry": {"type": "Point", "coordinates": [-1.235082, 54.576548]}},
{"type": "Feature", "id": "_BKAmI6t8LRiFKgqqXmGcPeiIbo=", "properties": {"ref": "https://www.opticalexpress.co.uk/clinic-finder/north-of-england/manchester-trafford-shopping-centre", "@spider": "optical_express", "shop": "optician", "addr:full": "37 Regent Crescent Intu Trafford Centre,Manchester M17 8AR,United Kingdom", "addr:street_address": "37 Regent Crescent Intu Trafford Centre", "addr:state": "North of England", "addr:postcode": "M17 8AR", "addr:country": "GB", "name": "Manchester Trafford Centre", "phone": "0161 877 4018", "website": "https://www.opticalexpress.co.uk/clinic-finder/north-of-england/manchester-trafford-shopping-centre", "opening_hours": "Mo-Fr 10:00-22:00; Sa 10:00-21:00; Su 12:00-18:00", "image": "https://www.opticalexpress.co.uk/media/4103/meta-image.png", "brand": "Optical Express", "brand:wikidata": "Q7098810", "nsi_id": "opticalexpress-610826"}, "geometry": {"type": "Point", "coordinates": [-2.345626, 53.46397]}},
{"type": "Feature", "id": "y-k4hO2HNI9cYz1QCUlJc76Pz90=", "properties": {"ref": "https://www.opticalexpress.co.uk/clinic-finder/north-of-england/liverpool-south-john-street", "@spider": "optical_express", "shop": "optician", "addr:full": "Unit 69a South John St,Liverpool L1 8BU,United Kingdom", "addr:street_address": "Unit 69a South John St", "addr:state": "North of England", "addr:postcode": "L1 8BU", "addr:country": "GB", "name": "Liverpool", "phone": "0151 708 0668", "website": "https://www.opticalexpress.co.uk/clinic-finder/north-of-england/liverpool-south-john-street", "opening_hours": "Mo-We 09:00-17:30; Th 09:00-19:00; Fr-Sa 09:00-17:30", "image": "https://www.opticalexpress.co.uk/media/4103/meta-image.png", "brand": "Optical Express", "brand:wikidata": "Q7098810", "nsi_id": "opticalexpress-610826"}, "geometry": {"type": "Point", "coordinates": [-2.98734, 53.403758]}},
{"type": "Feature", "id": "eBfio-mwB-U02zBYuemLFpqsFPc=", "properties": {"ref": "https://www.opticalexpress.co.uk/clinic-finder/north-of-england/lincoln-house", "@spider": "optical_express", "shop": "optician", "addr:full": "2nd Floor, Lincoln House 37 Newland,Lincoln LN1 1XP,United Kingdom", "addr:street_address": "2nd Floor", "addr:state": "North of England", "addr:postcode": "LN1 1XP", "addr:country": "GB", "name": "Lincoln", "phone": "01522 537267", "website": "https://www.opticalexpress.co.uk/clinic-finder/north-of-england/lincoln-house", "opening_hours": "Tu 10:00-16:30; Th 10:00-16:30", "image": "https://www.opticalexpress.co.uk/media/4103/meta-image.png", "brand": "Optical Express", "brand:wikidata": "Q7098810", "nsi_id": "opticalexpress-610826"}, "geometry": {"type": "Point", "coordinates": [-0.5448, 53.230267]}},
{"type": "Feature", "id": "Xc7oxx8lX9fsmrt0w6cV6dujzw8=", "properties": {"ref": "https://www.opticalexpress.co.uk/clinic-finder/north-of-england/leeds-white-rose", "@spider": "optical_express", "shop": "optician", "addr:full": "Unit 14, Lower Trading Level Dewsbury Road,Leeds LS11 8LU,United Kingdom", "addr:street_address": "Unit 14", "addr:state": "North of England", "addr:postcode": "LS11 8LU", "addr:country": "GB", "name": "Leeds White Rose", "phone": "01134 677 581", "website": "https://www.opticalexpress.co.uk/clinic-finder/north-of-england/leeds-white-rose", "opening_hours": "Mo 10:00-21:00; Tu-Fr 10:00-18:30; Sa 09:00-17:30; Su 11:00-17:00", "image": "https://www.opticalexpress.co.uk/media/4103/meta-image.png", "brand": "Optical Express", "brand:wikidata": "Q7098810", "nsi_id": "opticalexpress-610826"}, "geometry": {"type": "Point", "coordinates": [-1.574245, 53.758644]}},
{"type": "Feature", "id": "YNIVEF9JmX46eW7_Fbdo_ENLWWg=", "properties": {"ref": "https://www.opticalexpress.co.uk/clinic-finder/north-of-england/leeds-airedale-house", "@spider": "optical_express", "shop": "optician", "addr:full": "6th Floor, Airedale House 77-85 Albion Street,Leeds LS1 5AW,United Kingdom", "addr:street_address": "6th Floor", "addr:state": "North of England", "addr:postcode": "LS1 5AW", "addr:country": "GB", "name": "Leeds", "phone": "01134 677 580", "website": "https://www.opticalexpress.co.uk/clinic-finder/north-of-england/leeds-airedale-house", "opening_hours": "Mo 09:00-17:30", "image": "https://www.opticalexpress.co.uk/media/4103/meta-image.png", "brand": "Optical Express", "brand:wikidata": "Q7098810", "nsi_id": "opticalexpress-610826"}, "geometry": {"type": "Point", "coordinates": [-1.545385, 53.798431]}},
{"type": "Feature", "id": "ZWCFbyqABHu8w5MvE77u3eskZS8=", "properties": {"ref": "https://www.opticalexpress.co.uk/clinic-finder/north-of-england/huddersfield-nu-house", "@spider": "optical_express", "shop": "optician", "addr:full": "NU House Market Street,Huddersfield HD1 2LF,United Kingdom", "addr:street_address": "NU House Market Street", "addr:state": "North of England", "addr:postcode": "HD1 2LF", "addr:country": "GB", "name": "Huddersfield", "phone": "01484 430850", "website": "https://www.opticalexpress.co.uk/clinic-finder/north-of-england/huddersfield-nu-house", "opening_hours": "Tu 09:00-17:00; Th 09:00-17:00; Sa 09:00-17:00", "image": "https://www.opticalexpress.co.uk/media/4103/meta-image.png", "brand": "Optical Express", "brand:wikidata": "Q7098810", "nsi_id": "opticalexpress-610826"}, "geometry": {"type": "Point", "coordinates": [-1.785069, 53.64484]}},
{"type": "Feature", "id": "pjr9QBwNLoj7p3WjVhi_zxymokg=", "properties": {"ref": "https://www.opticalexpress.co.uk/clinic-finder/north-of-england/harpurhey-north-city-shopping-centre", "@spider": "optical_express", "shop": "optician", "addr:full": "Unit 31 North City shopping Centre,Harpurhey M9 4DH,United Kingdom", "addr:street_address": "Unit 31 North City shopping Centre", "addr:state": "North of England", "addr:postcode": "M9 4DH", "addr:country": "GB", "name": "Harpurhey", "phone": "0161 236 2770", "website": "https://www.opticalexpress.co.uk/clinic-finder/north-of-england/harpurhey-north-city-shopping-centre", "opening_hours": "Mo-Sa 09:00-17:30", "image": "https://www.opticalexpress.co.uk/media/4103/meta-image.png", "brand": "Optical Express", "brand:wikidata": "Q7098810", "nsi_id": "opticalexpress-610826"}, "geometry": {"type": "Point", "coordinates": [-2.212187, 53.512703]}},
{"type": "Feature", "id": "moDyxXAzR5jljpohrx6Ds9JnmwA=", "properties": {"ref": "https://www.opticalexpress.co.uk/clinic-finder/north-of-england/derby-st-peters-way", "@spider": "optical_express", "shop": "optician", "addr:full": "4 St. Peters Way ,Derby DE1 2NR,United Kingdom", "addr:street_address": "4 St. Peters Way", "addr:state": "North of England", "addr:postcode": "DE1 2NR", "addr:country": "GB", "name": "Derby", "phone": "01332 360246", "website": "https://www.opticalexpress.co.uk/clinic-finder/north-of-england/derby-st-peters-way", "opening_hours": "Mo-We 09:00-17:30; Fr-Sa 09:00-17:30", "image": "https://www.opticalexpress.co.uk/media/4103/meta-image.png", "brand": "Optical Express", "brand:wikidata": "Q7098810", "nsi_id": "opticalexpress-610826"}, "geometry": {"type": "Point", "coordinates": [-1.475388, 52.920036]}},
{"type": "Feature", "id": "okrKOPuzVq3lHMt2N1vCrSHlERA=", "properties": {"ref": "https://www.opticalexpress.co.uk/clinic-finder/north-of-england/darlington-high-row", "@spider": "optical_express", "shop": "optician", "addr:full": "32 High Row ,Darlington DL3 7QW,United Kingdom", "addr:street_address": "32 High Row", "addr:state": "North of England", "addr:postcode": "DL3 7QW", "addr:country": "GB", "name": "Darlington", "phone": "01325 524 790", "website": "https://www.opticalexpress.co.uk/clinic-finder/north-of-england/darlington-high-row", "opening_hours": "Mo-Sa 09:00-17:30", "image": "https://www.opticalexpress.co.uk/media/4103/meta-image.png", "brand": "Optical Express", "brand:wikidata": "Q7098810", "nsi_id": "opticalexpress-610826"}, "geometry": {"type": "Point", "coordinates": [-1.555569, 54.525604]}},
{"type": "Feature", "id": "3OeAUUBdWRo9waqIFtjfm2QPLKs=", "properties": {"ref": "https://www.opticalexpress.co.uk/clinic-finder/north-of-england/chester-the-exchange", "@spider": "optical_express", "shop": "optician", "addr:full": "Suite 2,1st Floor The Exchange,St John Street,Chester CH1 1DA,United Kingdom", "addr:street_address": "Suite 2", "addr:state": "North of England", "addr:postcode": "CH1 1DA", "addr:country": "GB", "name": "Chester", "phone": "01244 567731", "website": "https://www.opticalexpress.co.uk/clinic-finder/north-of-england/chester-the-exchange", "opening_hours": "We-Sa 09:00-17:30", "image": "https://www.opticalexpress.co.uk/media/4103/meta-image.png", "brand": "Optical Express", "brand:wikidata": "Q7098810", "nsi_id": "opticalexpress-610826"}, "geometry": {"type": "Point", "coordinates": [-2.886658, 53.190144]}},
{"type": "Feature", "id": "LS3fhAeCC5g_I9TdumFrV5Ohjn8=", "properties": {"ref": "https://www.opticalexpress.co.uk/clinic-finder/north-of-england/carlisle-broadacre-house", "@spider": "optical_express", "shop": "optician", "addr:full": "16-20 Lowther Street ,Carlisle CA3 8DA,United Kingdom", "addr:street_address": "16-20 Lowther Street", "addr:state": "North of England", "addr:postcode": "CA3 8DA", "addr:country": "GB", "name": "Carlisle", "phone": "01228 595168", "website": "https://www.opticalexpress.co.uk/clinic-finder/north-of-england/carlisle-broadacre-house", "opening_hours": "Tu-Sa 09:00-17:30", "image": "https://www.opticalexpress.co.uk/media/4103/meta-image.png", "brand": "Optical Express", "brand:wikidata": "Q7098810", "nsi_id": "opticalexpress-610826"}, "geometry": {"type": "Point", "coordinates": [-2.932504, 54.893299]}},
{"type": "Feature", "id": "GYBa9dDvH8u-AyvgGxgzvjFDVkY=", "properties": {"ref": "https://www.opticalexpress.co.uk/clinic-finder/north-of-england/bridgewater-wellness-clinic", "@spider": "optical_express", "shop": "optician", "addr:full": "120 Princess Road Manchester M15 5AT", "addr:street_address": "120 Princess Road Manchester M15 5AT", "addr:state": "North of England", "addr:postcode": "M15 5AT", "addr:country": "GB", "name": "Bridgewater Wellness Clinic", "phone": "0161 724 5600", "website": "https://www.opticalexpress.co.uk/clinic-finder/north-of-england/bridgewater-wellness-clinic", "image": "https://www.opticalexpress.co.uk/media/4103/meta-image.png", "brand": "Optical Express", "brand:wikidata": "Q7098810", "nsi_id": "opticalexpress-610826"}, "geometry": {"type": "Point", "coordinates": [-2.2451261, 53.4600797]}},
{"type": "Feature", "id": "i9p8QBDtAub9JZQIczzO3gUUWn0=", "properties": {"ref": "https://www.opticalexpress.co.uk/clinic-finder/north-of-england/bradford-kenburgh-house", "@spider": "optical_express", "shop": "optician", "addr:full": "Kenburgh House, Manor Row, BD1 4QL", "addr:street_address": "Kenburgh House", "addr:state": "North of England", "addr:postcode": "BD1 4QL", "addr:country": "GB", "name": "Bradford", "phone": "01274 532195", "website": "https://www.opticalexpress.co.uk/clinic-finder/north-of-england/bradford-kenburgh-house", "opening_hours": "Mo 09:00-17:30; We-Th 09:00-17:30; Sa 09:00-17:00", "image": "https://www.opticalexpress.co.uk/media/4103/meta-image.png", "brand": "Optical Express", "brand:wikidata": "Q7098810", "nsi_id": "opticalexpress-610826"}, "geometry": {"type": "Point", "coordinates": [-1.754408, 53.797097]}},
{"type": "Feature", "id": "JNtMLB1CyWVobsZbyIHi2rQfvwY=", "properties": {"ref": "https://www.opticalexpress.co.uk/clinic-finder/north-of-england/bolton-moorland-house", "@spider": "optical_express", "shop": "optician", "addr:full": "Moorland House 77-79 Knowsley Street,Bolton BL1 2BJ,United Kingdom", "addr:street_address": "Moorland House 77-79 Knowsley Street", "addr:state": "North of England", "addr:postcode": "BL1 2BJ", "addr:country": "GB", "name": "Bolton", "phone": "01204 368540", "website": "https://www.opticalexpress.co.uk/clinic-finder/north-of-england/bolton-moorland-house", "opening_hours": "Mo-Th 09:00-17:30; Sa 09:00-17:30", "image": "https://www.opticalexpress.co.uk/media/4103/meta-image.png", "brand": "Optical Express", "brand:wikidata": "Q7098810", "nsi_id": "opticalexpress-610826"}, "geometry": {"type": "Point", "coordinates": [-2.431002, 53.581532]}},
{"type": "Feature", "id": "otxYyxx8hTG4VN4OcK4-CjGjaDU=", "properties": {"ref": "https://www.opticalexpress.co.uk/clinic-finder/north-of-england/barnsley-queen-street", "@spider": "optical_express", "shop": "optician", "addr:full": "10-18 Queen Street ,Barnsley S70 1SJ,United Kingdom", "addr:street_address": "10-18 Queen Street", "addr:state": "North of England", "addr:postcode": "S70 1SJ", "addr:country": "GB", "name": "Barnsley", "phone": "01226 249485", "website": "https://www.opticalexpress.co.uk/clinic-finder/north-of-england/barnsley-queen-street", "opening_hours": "Tu-Sa 08:30-17:00", "image": "https://www.opticalexpress.co.uk/media/4103/meta-image.png", "brand": "Optical Express", "brand:wikidata": "Q7098810", "nsi_id": "opticalexpress-610826"}, "geometry": {"type": "Point", "coordinates": [-1.480334, 53.552704]}},
{"type": "Feature", "id": "feCz_-olKxf77BJcM8e0ZLoCZeQ=", "properties": {"ref": "https://www.opticalexpress.co.uk/clinic-finder/scotland/st-andrews", "@spider": "optical_express", "shop": "optician", "addr:full": "St. Leonards House, Abbey Walk, St Andrews, KY16 9LB", "addr:street_address": "St. Leonards House", "addr:city": "St. Andrews", "addr:state": "Scotland", "addr:postcode": "KY16 9LB", "addr:country": "GB", "name": "St. Andrews", "phone": "01334 237 539", "website": "https://www.opticalexpress.co.uk/clinic-finder/scotland/st-andrews", "opening_hours": "Mo-Su 09:00-17:30", "image": "https://www.opticalexpress.co.uk/media/4103/meta-image.png", "brand": "Optical Express", "brand:wikidata": "Q7098810", "nsi_id": "opticalexpress-610826"}, "geometry": {"type": "Point", "coordinates": [-2.7880817, 56.3367786]}},
{"type": "Feature", "id": "PGtguO-QSi3gV1j9YWNhTyBWuXM=", "properties": {"ref": "https://www.opticalexpress.co.uk/clinic-finder/scotland/edinburgh-haymarket", "@spider": "optical_express", "shop": "optician", "addr:full": "Apex House , 97 Haymarket Terrace, Edinburgh EH12 5HD, United Kingdom", "addr:street_address": "Apex House", "addr:city": "Edinburgh", "addr:state": "Scotland", "addr:postcode": "EH12 5HD", "addr:country": "GB", "name": "Edinburgh Haymarket", "phone": "0131 297 3117", "website": "https://www.opticalexpress.co.uk/clinic-finder/scotland/edinburgh-haymarket", "opening_hours": "Mo 08:00-16:30; Tu-Sa 09:00-17:30", "image": "https://www.opticalexpress.co.uk/media/4103/meta-image.png", "brand": "Optical Express", "brand:wikidata": "Q7098810", "nsi_id": "opticalexpress-610826"}, "geometry": {"type": "Point", "coordinates": [-3.223261115548797, 55.94576163239919]}},
{"type": "Feature", "id": "PYr27Jq6BxlJijwERDuFDYhvR2E=", "properties": {"ref": "https://www.opticalexpress.co.uk/clinic-finder/scotland/dunfermline-james-street", "@spider": "optical_express", "shop": "optician", "addr:full": "Suite B,East Port House,James Street,Dunfermline KY12 7JQ,United Kingdom", "addr:street_address": "Suite B", "addr:city": "Dunfermline", "addr:state": "Scotland", "addr:postcode": "KY12 7JQ", "addr:country": "GB", "name": "Dunfermline", "phone": "01383 661633", "website": "https://www.opticalexpress.co.uk/clinic-finder/scotland/dunfermline-james-street", "opening_hours": "Tu-Th 08:30-17:00", "image": "https://www.opticalexpress.co.uk/media/4103/meta-image.png", "brand": "Optical Express", "brand:wikidata": "Q7098810", "nsi_id": "opticalexpress-610826"}, "geometry": {"type": "Point", "coordinates": [-3.45862, 56.0721]}},
{"type": "Feature", "id": "V_ujfjXLH2aZF0orzq55zJVVDh0=", "properties": {"ref": "https://www.opticalexpress.co.uk/clinic-finder/scotland/dumfries-queensberry-house", "@spider": "optical_express", "shop": "optician", "addr:full": "Queensberry House,147 High Street,Dumfries DG1 2QT,United Kingdom", "addr:street_address": "Queensberry House", "addr:city": "Dumfries", "addr:state": "Scotland", "addr:postcode": "DG1 2QT", "addr:country": "GB", "name": "Dumfries", "phone": "01387 213193", "website": "https://www.opticalexpress.co.uk/clinic-finder/scotland/dumfries-queensberry-house", "opening_hours": "Fr 09:00-17:00", "image": "https://www.opticalexpress.co.uk/media/4103/meta-image.png", "brand": "Optical Express", "brand:wikidata": "Q7098810", "nsi_id": "opticalexpress-610826"}, "geometry": {"type": "Point", "coordinates": [-3.611396104175215, 55.0695266331037]}},
{"type": "Feature", "id": "cnvYudJ4z4HXD0MLH_CERzdm44s=", "properties": {"ref": "https://www.opticalexpress.co.uk/clinic-finder/scotland/george-street-edinburgh", "@spider": "optical_express", "shop": "optician", "addr:full": "Ardmore House , 40 George St, Edinburgh EH2 2LE, United Kingdom", "addr:street_address": "Ardmore House", "addr:city": "Edinburgh", "addr:state": "Scotland", "addr:postcode": "EH2 2LE", "addr:country": "GB", "name": "Edinburgh", "phone": "0131 524 9700", "website": "https://www.opticalexpress.co.uk/clinic-finder/scotland/george-street-edinburgh", "opening_hours": "Mo 08:00-16:30; Tu 09:00-17:30; Th 09:00-17:30; Sa 09:00-17:30", "image": "https://www.opticalexpress.co.uk/media/4103/meta-image.png", "brand": "Optical Express", "brand:wikidata": "Q7098810", "nsi_id": "opticalexpress-610826"}, "geometry": {"type": "Point", "coordinates": [-3.19811, 55.953201]}},
{"type": "Feature", "id": "Fo9gMruuuj3VrmMTnmXIwb-VuE8=", "properties": {"ref": "https://www.opticalexpress.co.uk/clinic-finder/scotland/edinburgh-gyle-shopping-centre", "@spider": "optical_express", "shop": "optician", "addr:full": "Unit 41 Gyle Shopping Centre,Edinburgh EH12 9JT,United Kingdom", "addr:street_address": "Unit 41 Gyle Shopping Centre", "addr:city": "Edinburgh", "addr:state": "Scotland", "addr:postcode": "EH12 9JT", "addr:country": "GB", "name": "Edinburgh", "phone": "0131 220 1325", "website": "https://www.opticalexpress.co.uk/clinic-finder/scotland/edinburgh-gyle-shopping-centre", "opening_hours": "Mo-Sa 09:00-17:30", "image": "https://www.opticalexpress.co.uk/media/4103/meta-image.png", "brand": "Optical Express", "brand:wikidata": "Q7098810", "nsi_id": "opticalexpress-610826"}, "geometry": {"type": "Point", "coordinates": [-3.314329, 55.938583]}},
{"type": "Feature", "id": "NycAJiuuMAP_sVFwAUjZpJ0chtY=", "properties": {"ref": "https://www.opticalexpress.co.uk/clinic-finder/scotland/edinburgh-cameron-toll", "@spider": "optical_express", "shop": "optician", "addr:full": "Unit 34B Cameron Toll Shopping Centre,Edinburgh EH16 5PB,United Kingdom", "addr:street_address": "Unit 34B Cameron Toll Shopping Centre", "addr:city": "Edinburgh", "addr:state": "Scotland", "addr:postcode": "EH16 5PB", "addr:country": "GB", "name": "Edinburgh", "phone": "0131 226 5314", "website": "https://www.opticalexpress.co.uk/clinic-finder/scotland/edinburgh-cameron-toll", "opening_hours": "Mo-Sa 09:00-17:30", "image": "https://www.opticalexpress.co.uk/media/4103/meta-image.png", "brand": "Optical Express", "brand:wikidata": "Q7098810", "nsi_id": "opticalexpress-610826"}, "geometry": {"type": "Point", "coordinates": [-3.1638, 55.927204]}},
{"type": "Feature", "id": "RM7nl09-yXrVKNC6BilP_2A7xfM=", "properties": {"ref": "https://www.opticalexpress.co.uk/clinic-finder/scotland/east-kilbride-the-plaza", "@spider": "optical_express", "shop": "optician", "addr:full": "27 The Plaza Town Centre,Glasgow G74 1LW,United Kingdom", "addr:street_address": "27 The Plaza Town Centre", "addr:city": "Glasgow", "addr:state": "Scotland", "addr:postcode": "G74 1LW", "addr:country": "GB", "name": "East Kilbride", "phone": "01355 241221", "website": "https://www.opticalexpress.co.uk/clinic-finder/scotland/east-kilbride-the-plaza", "opening_hours": "Mo-Sa 09:00-17:30", "image": "https://www.opticalexpress.co.uk/media/4103/meta-image.png", "brand": "Optical Express", "brand:wikidata": "Q7098810", "nsi_id": "opticalexpress-610826"}, "geometry": {"type": "Point", "coordinates": [-4.1799, 55.760075]}},
{"type": "Feature", "id": "jlXx-BX3zFIB1ZrXDEahwQ19nt8=", "properties": {"ref": "https://www.opticalexpress.co.uk/clinic-finder/scotland/dundee-high-street", "@spider": "optical_express", "shop": "optician", "addr:full": "96 High Street ,Dundee DD1 1SD,United Kingdom", "addr:street_address": "96 High Street", "addr:city": "Dundee", "addr:state": "Scotland", "addr:postcode": "DD1 1SD", "addr:country": "GB", "name": "Dundee", "phone": "01382 224030", "website": "https://www.opticalexpress.co.uk/clinic-finder/scotland/dundee-high-street", "opening_hours": "Tu-Sa 09:00-17:30", "image": "https://www.opticalexpress.co.uk/media/4103/meta-image.png", "brand": "Optical Express", "brand:wikidata": "Q7098810", "nsi_id": "opticalexpress-610826"}, "geometry": {"type": "Point", "coordinates": [-2.969514, 56.461235]}},
{"type": "Feature", "id": "fVJ1TB4udxAmsitHdEbUy94bMis=", "properties": {"ref": "https://www.opticalexpress.co.uk/clinic-finder/scotland/dumbarton-high-street", "@spider": "optical_express", "shop": "optician", "addr:full": "125 High Street ,Dumbarton G82 1LE,United Kingdom", "addr:street_address": "125 High Street", "addr:city": "Glasgow", "addr:state": "Scotland", "addr:postcode": "G82 1LE", "addr:country": "GB", "name": "Dumbarton", "phone": "01389 762490", "website": "https://www.opticalexpress.co.uk/clinic-finder/scotland/dumbarton-high-street", "opening_hours": "Mo-Sa 09:00-17:30", "image": "https://www.opticalexpress.co.uk/media/4103/meta-image.png", "brand": "Optical Express", "brand:wikidata": "Q7098810", "nsi_id": "opticalexpress-610826"}, "geometry": {"type": "Point", "coordinates": [-4.5723508, 55.9435632]}},
{"type": "Feature", "id": "YyKcjf2oJKxLoTIEzmduigCspa8=", "properties": {"ref": "https://www.opticalexpress.co.uk/clinic-finder/scotland/cowdenbeath-high-street", "@spider": "optical_express", "shop": "optician", "addr:full": "319 High Street ,Cowdenbeath KY4 9QJ,United Kingdom", "addr:street_address": "319 High Street", "addr:city": "Cowdenbeath", "addr:state": "Scotland", "addr:postcode": "KY4 9QJ", "addr:country": "GB", "name": "Cowdenbeath", "phone": "01383 626255", "website": "https://www.opticalexpress.co.uk/clinic-finder/scotland/cowdenbeath-high-street", "opening_hours": "Mo-Sa 09:00-17:30", "image": "https://www.opticalexpress.co.uk/media/4103/meta-image.png", "brand": "Optical Express", "brand:wikidata": "Q7098810", "nsi_id": "opticalexpress-610826"}, "geometry": {"type": "Point", "coordinates": [-3.34266, 56.109924]}},
{"type": "Feature", "id": "G-RgXT19Bts98qeEiKHAgC4-RuM=", "properties": {"ref": "https://www.opticalexpress.co.uk/clinic-finder/scotland/carluke-high-street", "@spider": "optical_express", "shop": "optician", "addr:full": "61 High Street ,Carluke ML8 4AL,United Kingdom", "addr:street_address": "61 High Street", "addr:city": "Carluke", "addr:state": "Scotland", "addr:postcode": "ML8 4AL", "addr:country": "GB", "name": "Carluke", "phone": "01555 750136", "website": "https://www.opticalexpress.co.uk/clinic-finder/scotland/carluke-high-street", "image": "https://www.opticalexpress.co.uk/media/4103/meta-image.png", "brand": "Optical Express", "brand:wikidata": "Q7098810", "nsi_id": "opticalexpress-610826"}, "geometry": {"type": "Point", "coordinates": [-3.838613, 55.73455]}},
{"type": "Feature", "id": "1FT3LKSoxi4C2oQbcgMRURB7kaE=", "properties": {"ref": "https://www.opticalexpress.co.uk/clinic-finder/scotland/blantyre-clyde-view-shopping-centre", "@spider": "optical_express", "shop": "optician", "addr:full": "5 Clyde View Shopping Centre ,Blantyre G72 0QD,United Kingdom", "addr:street_address": "5 Clyde View Shopping Centre", "addr:city": "Glasgow", "addr:state": "Scotland", "addr:postcode": "G72 0QD", "addr:country": "GB", "name": "Blantyre", "phone": "01698 824365", "website": "https://www.opticalexpress.co.uk/clinic-finder/scotland/blantyre-clyde-view-shopping-centre", "opening_hours": "Mo-Sa 09:00-17:30", "image": "https://www.opticalexpress.co.uk/media/4103/meta-image.png", "brand": "Optical Express", "brand:wikidata": "Q7098810", "nsi_id": "opticalexpress-610826"}, "geometry": {"type": "Point", "coordinates": [-4.088372, 55.792465]}},
{"type": "Feature", "id": "EM20nTUKhajDDo3VET1EvRxlEzg=", "properties": {"ref": "https://www.opticalexpress.co.uk/clinic-finder/scotland/bellshill-main-street", "@spider": "optical_express", "shop": "optician", "addr:full": "201 Main Street ,Bellshill ML4 1AH,United Kingdom", "addr:street_address": "201 Main Street", "addr:city": "Bellshill", "addr:state": "Scotland", "addr:postcode": "ML4 1AH", "addr:country": "GB", "name": "Bellshill", "phone": "01698 740738", "website": "https://www.opticalexpress.co.uk/clinic-finder/scotland/bellshill-main-street", "opening_hours": "Mo-Sa 09:00-17:30", "image": "https://www.opticalexpress.co.uk/media/4103/meta-image.png", "brand": "Optical Express", "brand:wikidata": "Q7098810", "nsi_id": "opticalexpress-610826"}, "geometry": {"type": "Point", "coordinates": [-4.024678, 55.818962]}},
{"type": "Feature", "id": "THPKAVHq9S8SAPkUG8maJDAD3iI=", "properties": {"ref": "https://www.opticalexpress.co.uk/clinic-finder/scotland/bearsden-drymen-road", "@spider": "optical_express", "shop": "optician", "addr:full": "134 Drymen Road ,Glasgow G61 3RA,United Kingdom", "addr:street_address": "134 Drymen Road", "addr:city": "Glasgow", "addr:state": "Scotland", "addr:postcode": "G61 3RA", "addr:country": "GB", "name": "Bearsden", "phone": "0141 732 7284", "website": "https://www.opticalexpress.co.uk/clinic-finder/scotland/bearsden-drymen-road", "opening_hours": "Mo-Sa 09:00-17:30", "image": "https://www.opticalexpress.co.uk/media/4103/meta-image.png", "brand": "Optical Express", "brand:wikidata": "Q7098810", "nsi_id": "opticalexpress-610826"}, "geometry": {"type": "Point", "coordinates": [-4.333711, 55.919868]}},
{"type": "Feature", "id": "0pcntjDEGX4-jn2w6AWiBsZp6Js=", "properties": {"ref": "https://www.opticalexpress.co.uk/clinic-finder/scotland/ayr-sandgate", "@spider": "optical_express", "shop": "optician", "addr:full": "34 Sandgate ,Ayr KA7 1BX,United Kingdom", "addr:street_address": "34 Sandgate", "addr:city": "Ayr", "addr:state": "Scotland", "addr:postcode": "KA7 1BX", "addr:country": "GB", "name": "Ayr", "phone": "0129 2437021", "website": "https://www.opticalexpress.co.uk/clinic-finder/scotland/ayr-sandgate", "opening_hours": "Mo-Sa 09:00-17:30", "image": "https://www.opticalexpress.co.uk/media/4103/meta-image.png", "brand": "Optical Express", "brand:wikidata": "Q7098810", "nsi_id": "opticalexpress-610826"}, "geometry": {"type": "Point", "coordinates": [-4.6342477, 55.4627066]}},
{"type": "Feature", "id": "fr3sCaF6ohFIw7v3lUcjdQKiplM=", "properties": {"ref": "https://www.opticalexpress.co.uk/clinic-finder/scotland/aberdeen-union-street", "@spider": "optical_express", "shop": "optician", "addr:full": "40 Union Street ,Aberdeen AB10 1BD,United Kingdom", "addr:street_address": "40 Union Street", "addr:city": "Aberdeen", "addr:state": "Scotland", "addr:postcode": "AB10 1BD", "addr:country": "GB", "name": "Aberdeen", "phone": "01224 634000", "website": "https://www.opticalexpress.co.uk/clinic-finder/scotland/aberdeen-union-street", "opening_hours": "Mo-Sa 09:00-17:30", "image": "https://www.opticalexpress.co.uk/media/4103/meta-image.png", "brand": "Optical Express", "brand:wikidata": "Q7098810", "nsi_id": "opticalexpress-610826"}, "geometry": {"type": "Point", "coordinates": [-2.0964805, 57.1474503]}}]}