{"type":"FeatureCollection","features":[{"type": "Feature", "id": "87ozYV07-sy-1X5V3Q3XlEhicdE=", "properties": {"ref": "AZ - Phoenix", "@spider": "petparadise", "addr:full": "1675 West Happy Valley Road", "addr:city": "Phoenix", "addr:state": "AZ", "addr:postcode": "85085", "name": "AZ - Phoenix", "phone": "602.277.3647", "website": "https://www.petparadise.com/phoenix.htm", "brand": "Pet Paradise"}, "geometry": {"type": "Point", "coordinates": [-112.095287, 33.712351]}},
{"type": "Feature", "id": "MsP-AGVljXHo9p6gqmVbj539StI=", "properties": {"ref": "FL - Amelia", "@spider": "petparadise", "addr:full": "463393 State Rd 200", "addr:city": "Yulee", "addr:state": "FL", "addr:postcode": "32097", "name": "FL - Amelia", "phone": "904.659.3660", "website": "https://www.petparadise.com/amelia.htm", "brand": "Pet Paradise"}, "geometry": {"type": "Point", "coordinates": [-81.58262605, 30.63112742]}},
{"type": "Feature", "id": "U2w5ptfyLY-jul7urTpyFu2dZek=", "properties": {"ref": "FL - Bartram", "@spider": "petparadise", "addr:full": "14976 Walden Springs Way", "addr:city": "Jacksonville", "addr:state": "FL", "addr:postcode": "32258", "name": "FL - Bartram", "phone": "904.527.5335", "website": "https://www.petparadise.com/bartram-park.htm", "brand": "Pet Paradise"}, "geometry": {"type": "Point", "coordinates": [-81.483558, 30.10495]}},
{"type": "Feature", "id": "N8FThgpbbIiwtA_boWILWcMjfNs=", "properties": {"ref": "FL - Bonita Springs", "@spider": "petparadise", "addr:full": "8739 Commerce Drive", "addr:city": "Bonita Springs", "addr:state": "FL", "addr:postcode": "34135", "name": "FL - Bonita Springs", "phone": "239.310.5400", "website": "https://www.petparadise.com/bonita-springs.htm", "brand": "Pet Paradise"}, "geometry": {"type": "Point", "coordinates": [-81.80794, 26.38741]}},
{"type": "Feature", "id": "mAvXqBTt8qpyaY0Nv3bOELfZP6o=", "properties": {"ref": "FL - Coconut Creek", "@spider": "petparadise", "addr:full": "4181 W. Hillsboro Blvd.", "addr:city": "Coconut Creek", "addr:state": "FL", "addr:postcode": "33073", "name": "FL - Coconut Creek", "phone": "954.406.0443", "website": "https://www.petparadise.com/coconut-creek.htm", "brand": "Pet Paradise"}, "geometry": {"type": "Point", "coordinates": [-80.18221, 26.318341]}},
{"type": "Feature", "id": "TiKAO7NuDU5BPRz_faVPqFF-X4U=", "properties": {"ref": "FL - Fleming Island", "@spider": "petparadise", "addr:full": "1115 Fleming Plantation Blvd", "addr:city": "Fleming Island", "addr:state": "FL", "addr:postcode": "32003", "name": "FL - Fleming Island", "phone": "904.643.3210", "website": "https://www.petparadise.com/fleming-island.htm", "brand": "Pet Paradise"}, "geometry": {"type": "Point", "coordinates": [-81.70919639468838, 30.068327582039228]}},
{"type": "Feature", "id": "DfiY2h1rYMXpagKwWjksBXCW33U=", "properties": {"ref": "FL - Ft. Lauderdale", "@spider": "petparadise", "addr:full": "10401 Orange Drive", "addr:city": "Davie", "addr:state": "FL", "addr:postcode": "33328", "name": "FL - Ft. Lauderdale", "phone": "954.888.1866", "website": "https://www.petparadise.com/ft-lauderdale.htm", "brand": "Pet Paradise"}, "geometry": {"type": "Point", "coordinates": [-80.285383, 26.065788]}},
{"type": "Feature", "id": "aVQR46bqLD4VVk1exZfn1kFesiw=", "properties": {"ref": "FL - Ft. Myers", "@spider": "petparadise", "addr:full": "6800 Granada Lakes Drive", "addr:city": "Ft. Myers", "addr:state": "FL", "addr:postcode": "33912", "name": "FL - Ft. Myers", "phone": "239.766.8155", "website": "https://www.petparadise.com/ft-myers.htm", "brand": "Pet Paradise"}, "geometry": {"type": "Point", "coordinates": [-81.842109, 26.492718]}},
{"type": "Feature", "id": "Ia2PdyKR4c4jnlbCvKVH7HsSF-E=", "properties": {"ref": "FL - Gainesville", "@spider": "petparadise", "addr:full": "19518 West Newberry Road", "addr:city": "Newberry", "addr:state": "FL", "addr:postcode": "32669", "name": "FL - Gainesville", "phone": "352.472.4732", "website": "https://www.petparadise.com/gainesville.htm", "brand": "Pet Paradise"}, "geometry": {"type": "Point", "coordinates": [-82.549895, 29.655658]}},
{"type": "Feature", "id": "1oHVGBgsAZJ5rJHsGh_AO3afmJc=", "properties": {"ref": "FL - Jacksonville Airport", "@spider": "petparadise", "addr:full": "14272 Pecan Park Road", "addr:city": "Jacksonville", "addr:state": "FL", "addr:postcode": "32218", "name": "FL - Jacksonville Airport", "phone": "904.741.0050", "website": "https://www.petparadise.com/jacksonville-airport.htm", "brand": "Pet Paradise"}, "geometry": {"type": "Point", "coordinates": [-81.670119, 30.496013]}},
{"type": "Feature", "id": "XnwA_tpi5mgEBNE_hJIrhQKUswg=", "properties": {"ref": "FL - Jacksonville Veterinary Hospital", "@spider": "petparadise", "addr:full": "5130 University Blvd W", "addr:city": "Jacksonville", "addr:state": "FL", "addr:postcode": "32216", "name": "FL - Jacksonville Veterinary Hospital", "phone": "904.770.3337", "website": "https://www.petparadise.com/jacksonville-hospital.htm", "brand": "Pet Paradise"}, "geometry": {"type": "Point", "coordinates": [-81.61451, 30.266966]}},
{"type": "Feature", "id": "CkzvLm6nSfp-ZpTAzPB80VehfeU=", "properties": {"ref": "FL - Jacksonville-University Blvd", "@spider": "petparadise", "addr:full": "5140 University Blvd West", "addr:city": "Jacksonville", "addr:state": "FL", "addr:postcode": "32216", "name": "FL - Jacksonville-University Blvd", "phone": "904.396.7529", "website": "https://www.petparadise.com/jacksonville-university-blvd.htm", "brand": "Pet Paradise"}, "geometry": {"type": "Point", "coordinates": [-81.614147, 30.266461]}},
{"type": "Feature", "id": "nHPOUb_gYgJ4iAYHmLJzVbzLjRE=", "properties": {"ref": "FL - Lake Nona", "@spider": "petparadise", "addr:full": "14200 Lake Nona Blvd.", "addr:city": "Orlando", "addr:state": "FL", "addr:postcode": "32824", "name": "FL - Lake Nona", "phone": "407.634.6742", "website": "https://www.petparadise.com/lake-nona.htm", "brand": "Pet Paradise"}, "geometry": {"type": "Point", "coordinates": [-81.31117855, 28.36361349]}},
{"type": "Feature", "id": "2JafiF9wR6BRLs50PYxnG6PHQmA=", "properties": {"ref": "FL - Lakewood Ranch", "@spider": "petparadise", "addr:full": "10411 Portal Crossing", "addr:city": "Bradenton", "addr:state": "FL", "addr:postcode": "34211", "name": "FL - Lakewood Ranch", "phone": "941.209.1021", "website": "https://www.petparadise.com/lakewood-ranch.htm", "brand": "Pet Paradise"}, "geometry": {"type": "Point", "coordinates": [-82.437216, 27.485064]}},
{"type": "Feature", "id": "GjJhSdFKhDRI0BWD2sOgjbK4WrQ=", "properties": {"ref": "FL - Naples", "@spider": "petparadise", "addr:full": "2021 Pine Ridge Road", "addr:city": "Naples", "addr:state": "FL", "addr:postcode": "34109", "name": "FL - Naples", "phone": "239.592.9663", "website": "https://www.petparadise.com/naples.htm", "brand": "Pet Paradise"}, "geometry": {"type": "Point", "coordinates": [-81.777965, 26.212164]}},
{"type": "Feature", "id": "unxuBt5bkLkJREgVbXxSu9ldJQc=", "properties": {"ref": "FL - Oakleaf", "@spider": "petparadise", "addr:full": "1611 Isaac Way", "addr:city": "Middleburg", "addr:state": "FL", "addr:postcode": "32068", "name": "FL - Oakleaf", "phone": "904.559.1212", "website": "https://www.petparadise.com/oakleaf.htm", "brand": "Pet Paradise"}, "geometry": {"type": "Point", "coordinates": [-81.828908, 30.113972]}},
{"type": "Feature", "id": "O4bAWtUtFVMZPgIeFXKgF4rdNls=", "properties": {"ref": "FL - Odessa", "@spider": "petparadise", "addr:full": "16030 Redstone Way", "addr:city": "Odessa", "addr:state": "FL", "addr:postcode": "33556", "name": "FL - Odessa", "website": "https://www.petparadise.com/odessa.htm", "brand": "Pet Paradise"}, "geometry": {"type": "Point", "coordinates": [-82.55091832, 28.18521738]}},
{"type": "Feature", "id": "rv-4UWNJhaupY3KFtL4qNb8F6ds=", "properties": {"ref": "FL - Orlando Airport", "@spider": "petparadise", "addr:full": "5601 Butler National Drive", "addr:city": "Orlando", "addr:state": "FL", "addr:postcode": "32812", "name": "FL - Orlando Airport", "phone": "407.209.3647", "website": "https://www.petparadise.com/orlando-airport.htm", "brand": "Pet Paradise"}, "geometry": {"type": "Point", "coordinates": [-81.313401, 28.467087]}},
{"type": "Feature", "id": "GLkIV6lVtahLCRD6UC38wKSSHxQ=", "properties": {"ref": "FL - Ormond Beach", "@spider": "petparadise", "addr:full": "1211 Golf Ave.", "addr:city": "Ormond Beach", "addr:state": "FL", "addr:postcode": "32174", "name": "FL - Ormond Beach", "phone": "386.673.8041", "website": "https://www.petparadise.com/ormond-beach.htm", "brand": "Pet Paradise"}, "geometry": {"type": "Point", "coordinates": [-81.072051, 29.253095]}},
{"type": "Feature", "id": "nYx8TaqS4DRJgZRl0rrMoTjJcJc=", "properties": {"ref": "FL - Palm Beach", "@spider": "petparadise", "addr:full": "7100 North Military Trail", "addr:city": "West Palm Beach", "addr:state": "FL", "addr:postcode": "33410", "name": "FL - Palm Beach", "phone": "561.868.8042", "website": "https://www.petparadise.com/palm-beach.htm", "brand": "Pet Paradise"}, "geometry": {"type": "Point", "coordinates": [-80.106932, 26.782065]}},
{"type": "Feature", "id": "-m7Zkk5YAE4IwlS8V22mMeK2ESY=", "properties": {"ref": "FL - St. Johns at WGV", "@spider": "petparadise", "addr:full": "291 Center Place Way", "addr:city": "St Augustine", "addr:state": "FL", "addr:postcode": "32095", "name": "FL - St. Johns at WGV", "phone": "904.544.8570", "website": "https://www.petparadise.com/saintjohns-wgv.htm", "brand": "Pet Paradise"}, "geometry": {"type": "Point", "coordinates": [-81.45766, 29.98231]}},
{"type": "Feature", "id": "YGPMepMg_C_6hfYxHWM71lKB9Mg=", "properties": {"ref": "FL - Palm Coast", "@spider": "petparadise", "addr:full": "23 Enterprise Drive", "addr:city": "Bunnell", "addr:state": "FL", "addr:postcode": "32110", "name": "FL - Palm Coast", "phone": "386.446.8443", "website": "https://www.petparadise.com/palm-coast.htm", "brand": "Pet Paradise"}, "geometry": {"type": "Point", "coordinates": [-81.264767, 29.529022]}},
{"type": "Feature", "id": "rwjjeWOwkAYZioDqJLrEd0h28ng=", "properties": {"ref": "FL - Sanford", "@spider": "petparadise", "addr:full": "1100 West First Street", "addr:city": "Sanford", "addr:state": "FL", "addr:postcode": "32771", "name": "FL - Sanford", "phone": "407.322.3350", "website": "https://www.petparadise.com/sanford.htm", "brand": "Pet Paradise"}, "geometry": {"type": "Point", "coordinates": [-81.279219, 28.812254]}},
{"type": "Feature", "id": "wGn87jJgWImOVAgPWpRWS39kvFI=", "properties": {"ref": "FL - St. Augustine", "@spider": "petparadise", "addr:full": "125 Ponce Harbor Drive", "addr:city": "St. Augustine", "addr:state": "FL", "addr:postcode": "32086", "name": "FL - St. Augustine", "phone": "904.797.9770", "website": "https://www.petparadise.com/st-augustine.htm", "brand": "Pet Paradise"}, "geometry": {"type": "Point", "coordinates": [-81.328394, 29.858243]}},
{"type": "Feature", "id": "4KYL96VHcW1iRG3m0zoexepxQyg=", "properties": {"ref": "FL - Tallahassee", "@spider": "petparadise", "addr:full": "2900 Commonwealth Blvd.", "addr:city": "Tallahassee", "addr:state": "FL", "addr:postcode": "32303", "name": "FL - Tallahassee", "phone": "850.574.3647", "website": "https://www.petparadise.com/tallahassee.htm", "brand": "Pet Paradise"}, "geometry": {"type": "Point", "coordinates": [-84.351344, 30.475348]}},
{"type": "Feature", "id": "mWhcrT0b6gZ22Z1S0Whku7ZsR9c=", "properties": {"ref": "FL - Wesley Chapel", "@spider": "petparadise", "addr:full": "2270 Cypress Ridge Boulevard", "addr:city": "Wesley Chapel", "addr:state": "FL", "addr:postcode": "33544", "name": "FL - Wesley Chapel", "phone": "813.778.0337", "website": "https://www.petparadise.com/wesley-chapel.htm", "brand": "Pet Paradise"}, "geometry": {"type": "Point", "coordinates": [-82.372952, 28.188615]}},
{"type": "Feature", "id": "5-yuZfzPFjw-jaiR1np1HYGwhqI=", "properties": {"ref": "FL - Winter Garden", "@spider": "petparadise", "addr:full": "1175 Tomyn Blvd.", "addr:city": "Winter Garden", "addr:state": "FL", "addr:postcode": "34787", "name": "FL - Winter Garden", "phone": "407.378.0750", "website": "https://www.petparadise.com/winter-garden.htm", "brand": "Pet Paradise"}, "geometry": {"type": "Point", "coordinates": [-81.555592, 28.539137]}},
{"type": "Feature", "id": "sd29Lrh1O6HNIUSBdVknxeQhGMA=", "properties": {"ref": "GA - Atlanta Airport", "@spider": "petparadise", "addr:full": "2525 Camp Creek Pkwy", "addr:city": "College Park", "addr:state": "GA", "addr:postcode": "30337", "name": "GA - Atlanta Airport", "phone": "404.333.0738", "website": "https://www.petparadise.com/atlanta-airport.htm", "brand": "Pet Paradise"}, "geometry": {"type": "Point", "coordinates": [-84.473902, 33.652753]}},
{"type": "Feature", "id": "VTULewuNBWjSfLfuulKSUVQs5mU=", "properties": {"ref": "GA - Peachtree City", "@spider": "petparadise", "addr:full": "35 Bailey Station Way", "addr:city": "Sharpsburg", "addr:state": "GA", "addr:postcode": "30277", "name": "GA - Peachtree City", "phone": "470.460.5446", "website": "https://www.petparadise.com/peachtree-city.htm", "brand": "Pet Paradise"}, "geometry": {"type": "Point", "coordinates": [-84.65133, 33.43367]}},
{"type": "Feature", "id": "NoA8yoxig5kXhTiSbBc4Lgt4l3c=", "properties": {"ref": "GA - Snellville", "@spider": "petparadise", "addr:full": "2350 Scenic Highway", "addr:city": "Snellville", "addr:state": "GA", "addr:postcode": "30078", "name": "GA - Snellville", "phone": "470.681.2800", "website": "https://www.petparadise.com/snellville.htm", "brand": "Pet Paradise"}, "geometry": {"type": "Point", "coordinates": [-84.021921, 33.853437]}},
{"type": "Feature", "id": "AJMHdUpohhwqEfUgQxi0XBET7Zw=", "properties": {"ref": "GA - Woodstock", "@spider": "petparadise", "addr:full": "240 Arnold Mill Rd, Ste 108", "addr:city": "Woodstock", "addr:state": "GA", "addr:postcode": "30188", "name": "GA - Woodstock", "phone": "770.517.9907", "website": "https://www.petparadise.com/woodstock.htm", "brand": "Pet Paradise"}, "geometry": {"type": "Point", "coordinates": [-84.507758, 34.101663]}},
{"type": "Feature", "id": "SLKHd-ts2i4mY70GRaoquIDkSKc=", "properties": {"ref": "LA - New Orleans", "@spider": "petparadise", "addr:full": "45 East Airline Highway", "addr:city": "Kenner", "addr:state": "LA", "addr:postcode": "70062", "name": "LA - New Orleans", "phone": "504.467.5226", "website": "https://www.petparadise.com/new-orleans.htm", "brand": "Pet Paradise"}, "geometry": {"type": "Point", "coordinates": [-90.272718, 29.980374]}},
{"type": "Feature", "id": "pUkJVRjH5bFas3lAQtt_YpJ8ruQ=", "properties": {"ref": "NM - Rio Rancho", "@spider": "petparadise", "addr:full": "580 Quantum Road NE", "addr:city": "Rio Rancho", "addr:state": "NM", "addr:postcode": "87124", "name": "NM - Rio Rancho", "phone": "505.891.4100", "website": "https://www.petparadise.com/rio-rancho.htm", "brand": "Pet Paradise"}, "geometry": {"type": "Point", "coordinates": [-106.635168, 35.267379]}},
{"type": "Feature", "id": "Z92zuz5EPye4CZG9U-TbINp1kTo=", "properties": {"ref": "NC - Cary", "@spider": "petparadise", "addr:full": "8795 Holly Springs Road", "addr:city": "Apex", "addr:state": "NC", "addr:postcode": "27539", "name": "NC - Cary", "phone": "919.890.8830", "website": "https://www.petparadise.com/cary.htm", "brand": "Pet Paradise"}, "geometry": {"type": "Point", "coordinates": [-78.78156, 35.68844]}},
{"type": "Feature", "id": "dLZUebz5-aYZw_8jR74962I6qOs=", "properties": {"ref": "NC - Charlotte Airport", "@spider": "petparadise", "addr:full": "2919 Boyer Street", "addr:city": "Charlotte", "addr:state": "NC", "addr:postcode": "28208", "name": "NC - Charlotte Airport", "phone": "704.393.3647", "website": "https://www.petparadise.com/charlotte-airport.htm", "brand": "Pet Paradise"}, "geometry": {"type": "Point", "coordinates": [-80.922083, 35.229892]}},
{"type": "Feature", "id": "2QUWqFpO_Nh8tqDUn2W1eK-3GhI=", "properties": {"ref": "NC - Lake Norman", "@spider": "petparadise", "addr:full": "15020 Brown Mill Road", "addr:city": "Huntersville", "addr:state": "NC", "addr:postcode": "28078", "name": "NC - Lake Norman", "phone": "704.875.8668", "website": "https://www.petparadise.com/lake-norman.htm", "brand": "Pet Paradise"}, "geometry": {"type": "Point", "coordinates": [-80.913742, 35.427128]}},
{"type": "Feature", "id": "awJAhMjSvdPtivkM2nP0kkEONyU=", "properties": {"ref": "NC - Matthews", "@spider": "petparadise", "addr:full": "10714 Independence Pointe Parkway", "addr:city": "Matthews", "addr:state": "NC", "addr:postcode": "28105", "name": "NC - Matthews", "phone": "704.246.4206", "website": "https://www.petparadise.com/matthews.htm", "brand": "Pet Paradise"}, "geometry": {"type": "Point", "coordinates": [-80.707106, 35.120338]}},
{"type": "Feature", "id": "QCzbaMzv5M24eDgAxN7VXRS7Ihg=", "properties": {"ref": "NC - Mooresville", "@spider": "petparadise", "addr:full": "109 Morlake Drive", "addr:city": "Mooresville", "addr:state": "NC", "addr:postcode": "28117", "name": "NC - Mooresville", "phone": "704.360.3852", "website": "https://www.petparadise.com/mooresville.htm", "brand": "Pet Paradise"}, "geometry": {"type": "Point", "coordinates": [-80.864736, 35.599043]}},
{"type": "Feature", "id": "hhBgEqjZtZUr0xT_HdBSZc8XeQU=", "properties": {"ref": "NC - Wilmington", "@spider": "petparadise", "addr:full": "6101 Market Street", "addr:city": "Wilmington", "addr:state": "NC", "addr:postcode": "28405", "name": "NC - Wilmington", "phone": "910.392.0588", "website": "https://www.petparadise.com/wilmington.htm", "brand": "Pet Paradise"}, "geometry": {"type": "Point", "coordinates": [-77.852235, 34.253397]}},
{"type": "Feature", "id": "7-KdnT1Sh3Oij2FfxrJhNs3KJIo=", "properties": {"ref": "SC - Ballantyne", "@spider": "petparadise", "addr:full": "9881 Harrisburg Road", "addr:city": "Indian Land", "addr:state": "SC", "addr:postcode": "29707", "name": "SC - Ballantyne", "phone": "803.335.1290", "website": "https://www.petparadise.com/ballantyne.htm", "brand": "Pet Paradise"}, "geometry": {"type": "Point", "coordinates": [-80.856258, 35.008132]}},
{"type": "Feature", "id": "Uyyjw75vHIs64iwidDylYuiUknY=", "properties": {"ref": "SC - Greenville", "@spider": "petparadise", "addr:full": "615 Congaree Road", "addr:city": "Greenville", "addr:state": "SC", "addr:postcode": "29607", "name": "SC - Greenville", "phone": "864.315.3396", "website": "https://www.petparadise.com/greenville.htm", "brand": "Pet Paradise"}, "geometry": {"type": "Point", "coordinates": [-82.324564, 34.846863]}},
{"type": "Feature", "id": "k7BVoFh2SXYUV6IeTePiP-hfUsw=", "properties": {"ref": "TX - Georgetown", "@spider": "petparadise", "addr:full": "716 S. Interstate 35", "addr:city": "Georgetown", "addr:state": "TX", "addr:postcode": "78628", "name": "TX - Georgetown", "phone": "512.298.3400", "website": "https://www.petparadise.com/georgetown.htm", "brand": "Pet Paradise"}, "geometry": {"type": "Point", "coordinates": [-97.689487, 30.64336]}},
{"type": "Feature", "id": "kTHTxZAlvQwZndZMlD5PpLUzg4o=", "properties": {"ref": "TX - Houston Hobby", "@spider": "petparadise", "addr:full": "7511 Monroe Road", "addr:city": "Houston", "addr:state": "TX", "addr:postcode": "77061", "name": "TX - Houston Hobby", "phone": "713.941.3647", "website": "https://www.petparadise.com/houston-hobby.htm", "brand": "Pet Paradise"}, "geometry": {"type": "Point", "coordinates": [-95.261486, 29.66055]}},
{"type": "Feature", "id": "D4ZEq50yaGZ372-mjdv7MS8du28=", "properties": {"ref": "TX - Houston IAH North - Humble", "@spider": "petparadise", "addr:full": "7117 Will Clayton Parkway", "addr:city": "Houston", "addr:state": "TX", "addr:postcode": "77338", "name": "TX - Houston IAH North - Humble", "phone": "281.441.7117", "website": "https://www.petparadise.com/houston-iah-north-humble.htm", "brand": "Pet Paradise"}, "geometry": {"type": "Point", "coordinates": [-95.280416, 29.98403]}},
{"type": "Feature", "id": "uTxMIL5rwTsLhrOzty1GvKngFGU=", "properties": {"ref": "TX - Houston IAH South", "@spider": "petparadise", "addr:full": "14500 John F. Kennedy Blvd.", "addr:city": "Houston", "addr:state": "TX", "addr:postcode": "77032", "name": "TX - Houston IAH South", "phone": "281.449.3647", "website": "https://www.petparadise.com/houston-iah-south.htm", "brand": "Pet Paradise"}, "geometry": {"type": "Point", "coordinates": [-95.330502, 29.929283]}},
{"type": "Feature", "id": "hFN5ZcmZHA2sTh1y77X-a6QzqrY=", "properties": {"ref": "TX - Las Colinas", "@spider": "petparadise", "addr:full": "6150 Riverside Dr", "addr:city": "Irving", "addr:state": "TX", "addr:postcode": "75039", "name": "TX - Las Colinas", "phone": "972.401.3647", "website": "https://www.petparadise.com/las-colinas.htm", "brand": "Pet Paradise"}, "geometry": {"type": "Point", "coordinates": [-96.93495, 32.892719]}},
{"type": "Feature", "id": "7vuSrtHy2mTttFQHl8R7n4iZBP0=", "properties": {"ref": "TX - Plano Custer", "@spider": "petparadise", "addr:full": "2280 Kathryn Lane", "addr:city": "Plano", "addr:state": "TX", "addr:postcode": "75025", "name": "TX - Plano Custer", "phone": "972.359.9822", "website": "https://www.petparadise.com/plano-custer.htm", "brand": "Pet Paradise"}, "geometry": {"type": "Point", "coordinates": [-96.734939, 33.118282]}},
{"type": "Feature", "id": "owR_5igpQ-BnK4nEW1HX5jxO_Mk=", "properties": {"ref": "TX - Plano Premier", "@spider": "petparadise", "addr:full": "3365 Premier Drive", "addr:city": "Plano", "addr:state": "TX", "addr:postcode": "75023", "name": "TX - Plano Premier", "phone": "972.424.7387", "website": "https://www.petparadise.com/plano-premier.htm", "brand": "Pet Paradise"}, "geometry": {"type": "Point", "coordinates": [-96.706391, 33.044212]}},
{"type": "Feature", "id": "2oc1uv1tjxNI09wuTX2NQ7L62z0=", "properties": {"ref": "TX - Cedar Park", "@spider": "petparadise", "addr:full": "1204 Arrow Point Dr.", "addr:city": "Cedar Park", "addr:state": "TX", "addr:postcode": "78613", "name": "TX - Cedar Park", "phone": "737.587.3100", "website": "https://www.petparadise.com/cedar-park.htm", "brand": "Pet Paradise"}, "geometry": {"type": "Point", "coordinates": [-97.80187863, 30.53403131]}},
{"type": "Feature", "id": "F8YmLJeI-WIP4DXiBMBym5qUNp8=", "properties": {"ref": "TX - Stone Oak", "@spider": "petparadise", "addr:full": "22811 N US Hwy 281", "addr:city": "San Antonio", "addr:state": "TX", "addr:postcode": "78258", "name": "TX - Stone Oak", "phone": "210.982.3445", "website": "https://www.petparadise.com/stone-oak.htm", "brand": "Pet Paradise"}, "geometry": {"type": "Point", "coordinates": [-98.45103829, 29.65348992]}},
{"type": "Feature", "id": "dBlX9e8yGQ3zPQ56TTo9Wm4eyiQ=", "properties": {"ref": "VA - Charlottesville", "@spider": "petparadise", "addr:full": "601 Concord Ave.", "addr:city": "Charlottesville", "addr:state": "VA", "addr:postcode": "22903", "name": "VA - Charlottesville", "phone": "434.293.7387", "website": "https://www.petparadise.com/charlottesville.htm", "brand": "Pet Paradise"}, "geometry": {"type": "Point", "coordinates": [-78.482965, 38.038281]}},
{"type": "Feature", "id": "ZbecC0NcgBchiJP3-Zct2CVtkmc=", "properties": {"ref": "VA -Richmond Airport", "@spider": "petparadise", "addr:full": "4101 Williamsburg Rd.", "addr:city": "Richmond", "addr:state": "VA", "addr:postcode": "23231", "name": "VA -Richmond Airport", "phone": "804.806.3640", "website": "https://www.petparadise.com/richmond-airport.htm", "brand": "Pet Paradise"}, "geometry": {"type": "Point", "coordinates": [-77.35706572, 37.51747019]}},
{"type": "Feature", "id": "yA2JeADx9jkBFxl6hKbz3RO1nDA=", "properties": {"ref": "VA - Chesterfield", "@spider": "petparadise", "addr:full": "1214 Koger Center Blvd", "addr:city": "North Chesterfield", "addr:state": "VA", "addr:postcode": "23235", "name": "VA - Chesterfield", "phone": "804.533.2320", "website": "https://www.petparadise.com/chesterfield.htm", "brand": "Pet Paradise"}, "geometry": {"type": "Point", "coordinates": [-77.60451937, 37.51151356]}}]}