{"type":"FeatureCollection","features":[{"type": "Feature", "id": "1WBRSFj65E2deXfbP2kcUKYOMWI=", "properties": {"ref": "beavercreek", "@spider": "piada", "addr:full": "3286-B Pentagon Blvd", "addr:city": "Beavercreek", "addr:state": "OH", "addr:postcode": "45431", "name": "Beavercreek", "phone": "937.912.9967", "website": "https://mypiada.com/locations/beavercreek", "opening_hours": "10:45am-10:00pm", "brand": "Piada Italian Street Food", "brand:wikidata": "Q7190020"}, "geometry": {"type": "Point", "coordinates": [-84.0530917, 39.7709981]}},
{"type": "Feature", "id": "-en_akZmClcfUxvzZ61JcUwvsbY=", "properties": {"ref": "cuyahoga-falls", "@spider": "piada", "addr:full": "2929 State Rd", "addr:city": "Cuyahoga Falls", "addr:state": "OH", "addr:postcode": "44223", "name": "Cuyahoga Falls", "phone": "234.706.3595", "website": "https://mypiada.com/locations/cuyahoga-falls", "opening_hours": "10:45am-10:00pm", "brand": "Piada Italian Street Food", "brand:wikidata": "Q7190020"}, "geometry": {"type": "Point", "coordinates": [-81.509362, 41.1483507]}},
{"type": "Feature", "id": "gfOd5Y4w6y7UQhjjraRwQdewgNM=", "properties": {"ref": "centerville", "@spider": "piada", "addr:full": "1047 Miamisburg-Centerville Rd", "addr:city": "Dayton", "addr:state": "OH", "addr:postcode": "45459", "name": "Centerville", "phone": "937.938.1356", "website": "https://mypiada.com/locations/centerville", "opening_hours": "10:45am-10:00pm", "brand": "Piada Italian Street Food", "brand:wikidata": "Q7190020"}, "geometry": {"type": "Point", "coordinates": [-84.1891267, 39.6287768]}},
{"type": "Feature", "id": "tCUvjQjQcyoRQTxFKk9cu0s2QuY=", "properties": {"ref": "mall-of-america", "@spider": "piada", "addr:full": "60 E Broadway - N326", "addr:city": "Bloomington", "addr:state": "MN", "addr:postcode": "55425", "name": "Mall of America", "phone": "952.303.5458", "website": "https://mypiada.com/locations/mall-of-america", "opening_hours": "10:45am-10:00pm", "brand": "Piada Italian Street Food", "brand:wikidata": "Q7190020"}, "geometry": {"type": "Point", "coordinates": [-93.2416961, 44.8548038]}},
{"type": "Feature", "id": "E26rf1ek6oHHXgIf4f76NOvKSpo=", "properties": {"ref": "florence", "@spider": "piada", "addr:full": "Florence Square, 7727 Mall Road, Ste C", "addr:city": "Florence", "addr:state": "KY", "addr:postcode": "41042", "name": "Florence", "phone": "859.282.1630", "website": "https://mypiada.com/locations/florence", "opening_hours": "10:45am-10:00pm", "brand": "Piada Italian Street Food", "brand:wikidata": "Q7190020"}, "geometry": {"type": "Point", "coordinates": [-84.6544474, 38.9955748]}}]}