{"type":"FeatureCollection","features":[{"type": "Feature", "id": "hGV0aBtuGNGxhlQAZsa1nVpw0Iw=", "properties": {"ref": "ada-ok", "@spider": "pkequipment", "addr:full": "13920 County Road 3530", "addr:city": "Ada", "addr:state": "OK", "addr:postcode": "74820", "name": "Ada, OK", "phone": "580-332-2422", "website": "https://www.pkequipment.com/about-us/locations/ada-ok/", "brand": "P&K Equipment"}, "geometry": {"type": "Point", "coordinates": [-96.7215124, 34.7829888]}},
{"type": "Feature", "id": "xXic0f0WnGXUmDSAsKLJkJTHCyA=", "properties": {"ref": "fort-smith-ar", "@spider": "pkequipment", "addr:full": "3421 S Zero St", "addr:city": "Fort Smith", "addr:state": "AR", "addr:postcode": "72908", "name": "Fort Smith, AR", "phone": "479-242-3337", "website": "https://www.pkequipment.com/about-us/locations/fort-smith-ar/", "brand": "P&K Equipment"}, "geometry": {"type": "Point", "coordinates": [-94.3963162, 35.3281548]}},
{"type": "Feature", "id": "wpazTwRJrOh7JGYQ5cpMLpn2P0M=", "properties": {"ref": "stillwater-ok", "@spider": "pkequipment", "addr:full": "604 Eastgate St", "addr:city": "Stillwater", "addr:state": "OK", "addr:postcode": "74074", "name": "Stillwater, OK", "phone": "405-743-4050", "website": "https://www.pkequipment.com/about-us/locations/stillwater-ok/", "brand": "P&K Equipment"}, "geometry": {"type": "Point", "coordinates": [-97.0203594, 36.1155717]}},
{"type": "Feature", "id": "kit__dw3DrUajXx_dUSoYDL6uwo=", "properties": {"ref": "shawnee-ok", "@spider": "pkequipment", "addr:full": "13503 Highway 177", "addr:city": "Shawnee", "addr:state": "OK", "addr:postcode": "74804", "name": "Shawnee, OK", "phone": "405-214-2205", "website": "https://www.pkequipment.com/about-us/locations/shawnee-ok/", "brand": "P&K Equipment"}, "geometry": {"type": "Point", "coordinates": [-96.9812968, 35.3685885]}},
{"type": "Feature", "id": "0or8oZNbGaVuth1DZ8aCFMQHkys=", "properties": {"ref": "purcell-ok", "@spider": "pkequipment", "addr:full": "1719 S Green Ave", "addr:city": "Purcell", "addr:state": "OK", "addr:postcode": "73080", "name": "Purcell, OK", "phone": "405-527-2425", "website": "https://www.pkequipment.com/about-us/locations/purcell-ok/", "brand": "P&K Equipment"}, "geometry": {"type": "Point", "coordinates": [-97.3682423, 34.9913802]}},
{"type": "Feature", "id": "oGOAHZnu6dtFD-nmat6uYgp2vVY=", "properties": {"ref": "pryor-ok", "@spider": "pkequipment", "addr:full": "4385 W 520", "addr:city": "Pryor", "addr:state": "OK", "addr:postcode": "74361", "name": "Pryor, OK", "phone": "918-824-8541", "website": "https://www.pkequipment.com/about-us/locations/pryor-ok/", "brand": "P&K Equipment"}, "geometry": {"type": "Point", "coordinates": [-95.3351285, 36.2629585]}},
{"type": "Feature", "id": "d6NZWZVkBPVdSpJ8dn-Kg3r3jbU=", "properties": {"ref": "poteau-ok", "@spider": "pkequipment", "addr:full": "28811 State Highway 112", "addr:city": "Poteau", "addr:state": "OK", "addr:postcode": "74953", "name": "Poteau, OK", "phone": "918-647-3230", "website": "https://www.pkequipment.com/about-us/locations/poteau-ok/", "brand": "P&K Equipment"}, "geometry": {"type": "Point", "coordinates": [-94.6169927, 35.1055025]}},
{"type": "Feature", "id": "1zhwmbWnmnFozQnBbQ0o3YEx4tM=", "properties": {"ref": "norman-ok", "@spider": "pkequipment", "addr:full": "5029 SE 44th St", "addr:city": "Norman", "addr:state": "OK", "addr:postcode": "73072", "name": "Norman, OK", "phone": "405-321-5439", "website": "https://www.pkequipment.com/about-us/locations/norman-ok/", "brand": "P&K Equipment"}, "geometry": {"type": "Point", "coordinates": [-97.5040169, 35.183465]}},
{"type": "Feature", "id": "dv1S9QGHOJjMkgpjrxPzhIWJsV4=", "properties": {"ref": "prague-ok", "@spider": "pkequipment", "addr:full": "223 N Jim Thorpe Blvd", "addr:city": "Prague", "addr:state": "OK", "addr:postcode": "74864", "name": "Prague, OK", "phone": "405-567-2205", "website": "https://www.pkequipment.com/about-us/locations/prague-ok/", "brand": "P&K Equipment"}, "geometry": {"type": "Point", "coordinates": [-96.687144, 35.480063]}},
{"type": "Feature", "id": "nStBRhBZslH6cUVoelPQ3r2bDjU=", "properties": {"ref": "kingfisher-ok", "@spider": "pkequipment", "addr:full": "17759 US Highway 81", "addr:city": "Kingfisher", "addr:state": "OK", "addr:postcode": "73750", "name": "Kingfisher, OK", "phone": "405-375-3111", "website": "https://www.pkequipment.com/about-us/locations/kingfisher-ok/", "brand": "P&K Equipment"}, "geometry": {"type": "Point", "coordinates": [-97.9351541, 35.9158139]}},
{"type": "Feature", "id": "7ZUmRffaYHPLdDUF_ZA8BypbOaM=", "properties": {"ref": "enid-ok", "@spider": "pkequipment", "addr:full": "4121 N Van Buren Bypass", "addr:city": "Enid", "addr:state": "OK", "addr:postcode": "73701", "name": "Enid, OK", "phone": "580-237-2304", "website": "https://www.pkequipment.com/about-us/locations/enid-ok/", "brand": "P&K Equipment"}, "geometry": {"type": "Point", "coordinates": [-97.881089, 36.435969]}},
{"type": "Feature", "id": "B12yL68qVOxeQv8Eh9YtlgFYJz0=", "properties": {"ref": "edmond-ok", "@spider": "pkequipment", "addr:full": "6709 N I 35 Frontage Rd", "addr:city": "Edmond", "addr:state": "OK", "addr:postcode": "73034", "name": "Edmond, OK", "phone": "405-341-8081", "website": "https://www.pkequipment.com/about-us/locations/edmond-ok/", "brand": "P&K Equipment"}, "geometry": {"type": "Point", "coordinates": [-97.418121, 35.7222019]}},
{"type": "Feature", "id": "Eo4sfy5NyBAydUjypfqhrEWy6Js=", "properties": {"ref": "chickasha-ok", "@spider": "pkequipment", "addr:full": "627 North 16th Street", "addr:city": "Chickasha", "addr:state": "OK", "addr:postcode": "73018", "name": "Chickasha, OK", "phone": "405-224-4411", "website": "https://www.pkequipment.com/about-us/locations/chickasha-ok/", "brand": "P&K Equipment"}, "geometry": {"type": "Point", "coordinates": [-97.9535825, 35.0579315]}},
{"type": "Feature", "id": "p288Yaei6Xaav1jibeCAS4p8OIU=", "properties": {"ref": "blackwell-ok", "@spider": "pkequipment", "addr:full": "3802 W Doolin Ave", "addr:city": "Blackwell", "addr:state": "OK", "addr:postcode": "74631", "name": "Blackwell, OK", "phone": "580-363-3758", "website": "https://www.pkequipment.com/about-us/locations/blackwell-ok/", "brand": "P&K Equipment"}, "geometry": {"type": "Point", "coordinates": [-97.3289562, 36.8123677]}},
{"type": "Feature", "id": "39t4lFjv54p6BnN0ni3XwlOcL-k=", "properties": {"ref": "bartlesville-ok", "@spider": "pkequipment", "addr:full": "665 NE Washington Blvd", "addr:city": "Bartlesville", "addr:state": "OK", "addr:postcode": "74006", "name": "Bartlesville, OK", "phone": "918-335-2650", "website": "https://www.pkequipment.com/about-us/locations/bartlesville-ok/", "brand": "P&K Equipment"}, "geometry": {"type": "Point", "coordinates": [-95.9361619, 36.7678363]}},
{"type": "Feature", "id": "QDpYOURFk6niZDypnlirEokNF2Q=", "properties": {"ref": "duncan-ok", "@spider": "pkequipment", "addr:full": "1920 W Bois D'Arc Ave", "addr:city": "Duncan", "addr:state": "OK", "addr:postcode": "73533", "name": "Duncan, OK", "phone": "580-255-6276", "website": "https://www.pkequipment.com/about-us/locations/duncan-ok/", "brand": "P&K Equipment"}, "geometry": {"type": "Point", "coordinates": [-97.9729945, 34.4915141]}},
{"type": "Feature", "id": "9IBtc5avOxszUMlg1_fmCj-v3K4=", "properties": {"ref": "springdale-ar", "@spider": "pkequipment", "addr:full": "907 W Henri De Tonti Blvd", "addr:city": "Springdale", "addr:state": "AR", "addr:postcode": "72762", "name": "Springdale, AR", "phone": "479-306-4020", "website": "https://www.pkequipment.com/about-us/locations/springdale-ar/", "brand": "P&K Equipment"}, "geometry": {"type": "Point", "coordinates": [-94.249742, 36.174802]}},
{"type": "Feature", "id": "zHNUeg3W1iO9hmB90abZqKUdVl4=", "properties": {"ref": "muskogee-ok", "@spider": "pkequipment", "addr:full": "540 N 43rd St E", "addr:city": "Muskogee", "addr:state": "OK", "addr:postcode": "74403", "name": "Muskogee, OK", "phone": "918-682-3413", "website": "https://www.pkequipment.com/about-us/locations/muskogee-ok/", "brand": "P&K Equipment"}, "geometry": {"type": "Point", "coordinates": [-95.3086985, 35.7470067]}},
{"type": "Feature", "id": "O_VWxCf9YZGq7sCefsAdHctxKAY=", "properties": {"ref": "owasso-tulsa-ok", "@spider": "pkequipment", "addr:full": "11518 E 66th St N", "addr:city": "Owasso", "addr:state": "OK", "addr:postcode": "74055", "name": "Owasso/Tulsa, OK", "phone": "918-437-3193", "website": "https://www.pkequipment.com/about-us/locations/owasso-tulsa-ok/", "brand": "P&K Equipment"}, "geometry": {"type": "Point", "coordinates": [-95.846169, 36.2482599]}},
{"type": "Feature", "id": "tCA6d5WY8T_yKVoeenuP1TG5JIY=", "properties": {"ref": "mcalester-ok", "@spider": "pkequipment", "addr:full": "5577 S US Highway 69", "addr:city": "McAlester", "addr:state": "OK", "addr:postcode": "74501", "name": "McAlester, OK", "phone": "918-423-3308", "website": "https://www.pkequipment.com/about-us/locations/mcalester-ok/", "brand": "P&K Equipment"}, "geometry": {"type": "Point", "coordinates": [-95.8018697, 34.8725446]}}]}