{"type":"FeatureCollection","features":[{"type": "Feature", "id": "MzD_b1UXqQuJ-WZfPrhrQuadRQY=", "properties": {"ref": "80", "@spider": "portillos", "amenity": "fast_food", "cuisine": "hot_dog;burger", "takeaway": "yes", "addr:full": "2741 E 53rd St", "addr:city": "Davenport", "addr:state": "IA", "addr:postcode": "52807", "name": "Davenport, Iowa", "phone": "563-823-9500", "website": "https://www.portillos.com/locations/davenport/", "brand": "Portillo's", "brand:wikidata": "Q3399307", "nsi_id": "portillos-4d2ff4"}, "geometry": {"type": "Point", "coordinates": [-90.5344291, 41.5748239]}},
{"type": "Feature", "id": "AdeurX4917xuto85cVrafsFUdHU=", "properties": {"ref": "25", "@spider": "portillos", "amenity": "fast_food", "cuisine": "hot_dog;burger", "takeaway": "yes", "addr:full": "855 Cog Circle", "addr:city": "Crystal Lake", "addr:state": "IL", "addr:postcode": "60014", "name": "Crystal Lake, Illinois", "phone": "815-788-0900", "website": "https://www.portillos.com/locations/crystal-lake/", "brand": "Portillo's", "brand:wikidata": "Q3399307", "nsi_id": "portillos-4d2ff4"}, "geometry": {"type": "Point", "coordinates": [-88.2889375, 42.2268477]}},
{"type": "Feature", "id": "aKd6kMH7A6v6Uo_SoxfzVSKGxNQ=", "properties": {"ref": "20", "@spider": "portillos", "amenity": "fast_food", "cuisine": "hot_dog;burger", "takeaway": "yes", "addr:full": "13130 S. Cicero", "addr:city": "Crestwood", "addr:state": "IL", "addr:postcode": "60445", "name": "Crestwood, Illinois", "phone": "708-385-6400", "website": "https://www.portillos.com/locations/crestwood/", "brand": "Portillo's", "brand:wikidata": "Q3399307", "nsi_id": "portillos-4d2ff4"}, "geometry": {"type": "Point", "coordinates": [-87.738923, 41.6529141]}},
{"type": "Feature", "id": "QxK-6xgveXBjDj-Hh6zciURU1TE=", "properties": {"ref": "40", "@spider": "portillos", "amenity": "fast_food", "cuisine": "hot_dog;burger", "takeaway": "yes", "addr:full": "100 W. Ontario", "addr:city": "Chicago", "addr:state": "IL", "addr:postcode": "60610", "name": "Chicago, Illinois - Clark and Ontario", "phone": "312-587-8910", "website": "https://www.portillos.com/locations/chicago/", "brand": "Portillo's", "brand:wikidata": "Q3399307", "nsi_id": "portillos-4d2ff4"}, "geometry": {"type": "Point", "coordinates": [-87.6315085, 41.8935068]}},
{"type": "Feature", "id": "dlyP3zOOVokF4_RU6Xtt5nV2pY4=", "properties": {"ref": "50", "@spider": "portillos", "amenity": "fast_food", "cuisine": "hot_dog;burger", "takeaway": "yes", "addr:full": "520 W. Taylor St. ", "addr:city": "Chicago", "addr:state": "IL", "addr:postcode": "60607", "name": "Chicago, Illinois - Canal and Taylor ", "phone": "312-667-4560", "website": "https://www.portillos.com/locations/chicago-canal-taylor/", "brand": "Portillo's", "brand:wikidata": "Q3399307", "nsi_id": "portillos-4d2ff4"}, "geometry": {"type": "Point", "coordinates": [-87.640642, 41.870015]}},
{"type": "Feature", "id": "uiBp16t9w6UwQ4OVEU_s3Qylq2k=", "properties": {"ref": "79", "@spider": "portillos", "amenity": "fast_food", "cuisine": "hot_dog;burger", "takeaway": "yes", "addr:full": "3343 W. Addison Street", "addr:city": "Chicago", "addr:state": "IL", "addr:postcode": "60618", "name": "Chicago, Illinois - Addison and Kimball", "phone": "331-900-1010", "website": "https://www.portillos.com/locations/chicago-addison-kimball/", "brand": "Portillo's", "brand:wikidata": "Q3399307", "nsi_id": "portillos-4d2ff4"}, "geometry": {"type": "Point", "coordinates": [-87.7074089, 41.9464283]}},
{"type": "Feature", "id": "0hUF10R5S0i3mDvTbh-JgTBDHwE=", "properties": {"ref": "55", "@spider": "portillos", "amenity": "fast_food", "cuisine": "hot_dog;burger", "takeaway": "yes", "addr:full": "2306 N. Prospect Ave", "addr:city": "Champaign", "addr:state": "IL", "addr:postcode": "61822", "name": "Champaign, Illinois", "phone": "217-207-9000", "website": "https://www.portillos.com/locations/champaign/", "brand": "Portillo's", "brand:wikidata": "Q3399307", "nsi_id": "portillos-4d2ff4"}, "geometry": {"type": "Point", "coordinates": [-88.2570338, 40.1442009]}},
{"type": "Feature", "id": "QlMIy1Hhe3JBpPl2RoVSHSDgTok=", "properties": {"ref": "38", "@spider": "portillos", "amenity": "fast_food", "cuisine": "hot_dog;burger", "takeaway": "yes", "addr:full": "8390 La Palma Ave.", "addr:city": "Buena Park", "addr:state": "CA", "addr:postcode": "90620", "name": "Buena Park, California", "phone": "714-220-6400", "website": "https://www.portillos.com/locations/buena-park/", "brand": "Portillo's", "brand:wikidata": "Q3399307", "nsi_id": "portillos-4d2ff4"}, "geometry": {"type": "Point", "coordinates": [-117.9871492, 33.8463782]}},
{"type": "Feature", "id": "Pjxga5NjedGXzK6Y84z2KJB9lAs=", "properties": {"ref": "46", "@spider": "portillos", "amenity": "fast_food", "cuisine": "hot_dog;burger", "takeaway": "yes", "addr:full": "17685 W. Bluemound Rd.", "addr:city": "Brookfield", "addr:state": "WI", "addr:postcode": "53045", "name": "Brookfield, Wisconsin ", "phone": "262-289-3390", "website": "https://www.portillos.com/locations/brookfield/", "brand": "Portillo's", "brand:wikidata": "Q3399307", "nsi_id": "portillos-4d2ff4"}, "geometry": {"type": "Point", "coordinates": [-88.132634, 43.036145]}},
{"type": "Feature", "id": "p9m6SB4GVljXja_rDqrg7xpbsPY=", "properties": {"ref": "45", "@spider": "portillos", "amenity": "fast_food", "cuisine": "hot_dog;burger", "takeaway": "yes", "addr:full": "1748 W. Brandon Blvd.", "addr:city": "Brandon", "addr:state": "FL", "addr:postcode": "33511", "name": "Brandon, Florida", "phone": "813-210-8190", "website": "https://www.portillos.com/locations/brandon/", "brand": "Portillo's", "brand:wikidata": "Q3399307", "nsi_id": "portillos-4d2ff4"}, "geometry": {"type": "Point", "coordinates": [-82.31159, 27.938277]}},
{"type": "Feature", "id": "ZRuZ37JQjFuLEFpUgjwRswCIUHk=", "properties": {"ref": "8", "@spider": "portillos", "amenity": "fast_food", "cuisine": "hot_dog;burger", "takeaway": "yes", "addr:full": "134 E. Boughton Rd.", "addr:city": "Bolingbrook", "addr:state": "IL", "addr:postcode": "60440", "name": "Bolingbrook, Illinois", "phone": "630-759-3735", "website": "https://www.portillos.com/locations/bolingbrook/", "brand": "Portillo's", "brand:wikidata": "Q3399307", "nsi_id": "portillos-4d2ff4"}, "geometry": {"type": "Point", "coordinates": [-88.0706624, 41.7108125]}},
{"type": "Feature", "id": "oFKshb3bVTkAT4yuIuLfwpXQEnM=", "properties": {"ref": "11", "@spider": "portillos", "amenity": "fast_food", "cuisine": "hot_dog;burger", "takeaway": "yes", "addr:full": "134 E. Lake St.", "addr:city": "Bloomingdale", "addr:state": "IL", "addr:postcode": "60108", "name": "Bloomingdale, Illinois", "phone": "630-351-3855", "website": "https://www.portillos.com/locations/bloomingdale/", "brand": "Portillo's", "brand:wikidata": "Q3399307", "nsi_id": "portillos-4d2ff4"}, "geometry": {"type": "Point", "coordinates": [-88.0776287, 41.9576241]}},
{"type": "Feature", "id": "Rp4ZXmY_WAdVJiipxpZD7fX8mbY=", "properties": {"ref": "24", "@spider": "portillos", "amenity": "fast_food", "cuisine": "hot_dog;burger", "takeaway": "yes", "addr:full": "531 N. Randall Rd.", "addr:city": "Batavia", "addr:state": "IL", "addr:postcode": "60510", "name": "Batavia, Illinois", "phone": "630-482-9600", "website": "https://www.portillos.com/locations/batavia/", "brand": "Portillo's", "brand:wikidata": "Q3399307", "nsi_id": "portillos-4d2ff4"}, "geometry": {"type": "Point", "coordinates": [-88.3413831, 41.8608139]}},
{"type": "Feature", "id": "8GZbYMMGcKPGiYXBtyHanCecTDA=", "properties": {"ref": "73", "@spider": "portillos", "amenity": "fast_food", "cuisine": "hot_dog;burger", "takeaway": "yes", "addr:full": "10331 West McDowell Rd", "addr:city": "Avondale", "addr:state": "AZ", "addr:postcode": "85392", "name": "Avondale, Arizona", "phone": "480-569-1880", "website": "https://www.portillos.com/locations/avondale/", "brand": "Portillo's", "brand:wikidata": "Q3399307", "nsi_id": "portillos-4d2ff4"}, "geometry": {"type": "Point", "coordinates": [-112.2980119, 33.4763518]}},
{"type": "Feature", "id": "xLGJkb1m1GPyfD7UBEfyHCkU498=", "properties": {"ref": "71", "@spider": "portillos", "amenity": "fast_food", "cuisine": "hot_dog;burger", "takeaway": "yes", "addr:full": "10444 E. US Hwy. 36", "addr:city": "Avon", "addr:state": "IN", "addr:postcode": "46123", "name": "Avon, Indiana", "phone": "317-766-9955", "website": "https://www.portillos.com/locations/avon/", "brand": "Portillo's", "brand:wikidata": "Q3399307", "nsi_id": "portillos-4d2ff4"}, "geometry": {"type": "Point", "coordinates": [-86.3374899, 39.7646218]}},
{"type": "Feature", "id": "nHzQ-kBUEaht6Fdn8WvQEip2O18=", "properties": {"ref": "12", "@spider": "portillos", "amenity": "fast_food", "cuisine": "hot_dog;burger", "takeaway": "yes", "addr:full": "806 W. Dundee Rd.", "addr:city": "Arlington Heights", "addr:state": "IL", "addr:postcode": "60004", "name": "Arlington Heights, Illinois", "phone": "847-870-0870", "website": "https://www.portillos.com/locations/arlington-heights/", "brand": "Portillo's", "brand:wikidata": "Q3399307", "nsi_id": "portillos-4d2ff4"}, "geometry": {"type": "Point", "coordinates": [-87.9919405, 42.1394187]}},
{"type": "Feature", "id": "9n-xNPg1iuhKak0b3KnpXJwsSZw=", "properties": {"ref": "56", "@spider": "portillos", "amenity": "fast_food", "cuisine": "hot_dog;burger", "takeaway": "yes", "addr:full": "8450 Hudson Road.", "addr:city": "Woodbury", "addr:state": "MN", "addr:postcode": "55125", "name": "Woodbury, Minnesota ", "phone": "612-295-0100", "website": "https://www.portillos.com/locations/woodbury/", "brand": "Portillo's", "brand:wikidata": "Q3399307", "nsi_id": "portillos-4d2ff4"}, "geometry": {"type": "Point", "coordinates": [-92.937189, 44.945036]}},
{"type": "Feature", "id": "HZsqSCwsav2O4muz8LMVGmhLooc=", "properties": {"ref": "33", "@spider": "portillos", "amenity": "fast_food", "cuisine": "hot_dog;burger", "takeaway": "yes", "addr:full": "7195 N. Kingery Highway", "addr:city": "Willowbrook", "addr:state": "IL", "addr:postcode": "60527", "name": "Willowbrook, Illinois", "phone": "630-789-0909", "website": "https://www.portillos.com/locations/willowbrook/", "brand": "Portillo's", "brand:wikidata": "Q3399307", "nsi_id": "portillos-4d2ff4"}, "geometry": {"type": "Point", "coordinates": [-87.9442094, 41.7574172]}},
{"type": "Feature", "id": "BSY93a-f7q6v_2KUWolKAWagxVU=", "properties": {"ref": "90", "@spider": "portillos", "amenity": "fast_food", "cuisine": "hot_dog;burger", "takeaway": "yes", "addr:full": "870 E. SR 32", "addr:city": "Westfield", "addr:state": "IN", "addr:postcode": "46074", "name": "Westfield, IN", "phone": "463-243-3200", "website": "https://www.portillos.com/location/westfield/", "brand": "Portillo's", "brand:wikidata": "Q3399307", "nsi_id": "portillos-4d2ff4"}, "geometry": {"type": "Point", "coordinates": [-86.1423868, 40.0426796]}},
{"type": "Feature", "id": "biffS70rCGtQC1HAqipCCkoE4PI=", "properties": {"ref": "4", "@spider": "portillos", "amenity": "fast_food", "cuisine": "hot_dog;burger", "takeaway": "yes", "addr:full": "635 W North Ave.", "addr:city": "Villa Park", "addr:state": "IL", "addr:postcode": "60181", "name": "Villa Park, Illinois", "phone": "630-530-8440", "website": "https://www.portillos.com/locations/villa-park/", "brand": "Portillo's", "brand:wikidata": "Q3399307", "nsi_id": "portillos-4d2ff4"}, "geometry": {"type": "Point", "coordinates": [-87.990641, 41.90251]}},
{"type": "Feature", "id": "nCm1hEE8QvU5SY9hf7B2URuXe2w=", "properties": {"ref": "21", "@spider": "portillos", "amenity": "fast_food", "cuisine": "hot_dog;burger", "takeaway": "yes", "addr:full": "221 E Townline Rd.", "addr:city": "Vernon Hills", "addr:state": "IL", "addr:postcode": "60061", "name": "Vernon Hills, Illinois", "phone": "847-367-7290", "website": "https://www.portillos.com/locations/vernon-hills/", "brand": "Portillo's", "brand:wikidata": "Q3399307", "nsi_id": "portillos-4d2ff4"}, "geometry": {"type": "Point", "coordinates": [-87.9591927, 42.2399431]}},
{"type": "Feature", "id": "10XneGdMbDNRYaxTegBmAf3-2dA=", "properties": {"ref": "22", "@spider": "portillos", "amenity": "fast_food", "cuisine": "hot_dog;burger", "takeaway": "yes", "addr:full": "15900 Harlem Ave.", "addr:city": "Tinley Park", "addr:state": "IL", "addr:postcode": "60477", "name": "Tinley Park, Illinois", "phone": "708-444-1000", "website": "https://www.portillos.com/locations/tinley-park/", "brand": "Portillo's", "brand:wikidata": "Q3399307", "nsi_id": "portillos-4d2ff4"}, "geometry": {"type": "Point", "coordinates": [-87.7951545, 41.6016793]}},
{"type": "Feature", "id": "LH5u0qB7YSkQvAI98T1IrpzzCIM=", "properties": {"ref": "37", "@spider": "portillos", "amenity": "fast_food", "cuisine": "hot_dog;burger", "takeaway": "yes", "addr:full": "65 S. McClintock", "addr:city": "Tempe", "addr:state": "AZ", "addr:postcode": "85281", "name": "Tempe, Arizona", "phone": "480-967-7988", "website": "https://www.portillos.com/locations/tempe/", "brand": "Portillo's", "brand:wikidata": "Q3399307", "nsi_id": "portillos-4d2ff4"}, "geometry": {"type": "Point", "coordinates": [-111.9084915, 33.4300241]}},
{"type": "Feature", "id": "Wwwy8d2xFgLsIYvzTaXLOC9WAtw=", "properties": {"ref": "51", "@spider": "portillos", "amenity": "fast_food", "cuisine": "hot_dog;burger", "takeaway": "yes", "addr:full": "2102 E Fowler Ave", "addr:city": "Tampa", "addr:state": "FL", "addr:postcode": "33612", "name": "Tampa, Florida ", "phone": "813-540-9001", "website": "https://www.portillos.com/locations/tampa/", "brand": "Portillo's", "brand:wikidata": "Q3399307", "nsi_id": "portillos-4d2ff4"}, "geometry": {"type": "Point", "coordinates": [-82.438046, 28.054656]}},
{"type": "Feature", "id": "O5gcgzra2vPT1Jak4sdcgRx3Bs8=", "properties": {"ref": "31", "@spider": "portillos", "amenity": "fast_food", "cuisine": "hot_dog;burger", "takeaway": "yes", "addr:full": "1780 DeKalb Ave.", "addr:city": "Sycamore", "addr:state": "IL", "addr:postcode": "60178", "name": "Sycamore, Illinois", "phone": "815-895-0100", "website": "https://www.portillos.com/locations/sycamore/", "brand": "Portillo's", "brand:wikidata": "Q3399307", "nsi_id": "portillos-4d2ff4"}, "geometry": {"type": "Point", "coordinates": [-88.7173001, 41.971466]}},
{"type": "Feature", "id": "mWESeyQHrP-iY4suEs77hWVuBOM=", "properties": {"ref": "23", "@spider": "portillos", "amenity": "fast_food", "cuisine": "hot_dog;burger", "takeaway": "yes", "addr:full": "5532 S. Harlem Ave.", "addr:city": "Summit", "addr:state": "IL", "addr:postcode": "60501", "name": "Summit, Illinois", "phone": "708-458-7000", "website": "https://www.portillos.com/locations/summit/", "brand": "Portillo's", "brand:wikidata": "Q3399307", "nsi_id": "portillos-4d2ff4"}, "geometry": {"type": "Point", "coordinates": [-87.8018348, 41.7908192]}},
{"type": "Feature", "id": "Mt9tAMSVYHCt88RHgnIqHkLBmbE=", "properties": {"ref": "18", "@spider": "portillos", "amenity": "fast_food", "cuisine": "hot_dog;burger", "takeaway": "yes", "addr:full": "950 S. Barrington Rd.", "addr:city": "Streamwood", "addr:state": "IL", "addr:postcode": "60107", "name": "Streamwood, Illinois", "phone": "630-213-6656", "website": "https://www.portillos.com/locations/streamwood/", "brand": "Portillo's", "brand:wikidata": "Q3399307", "nsi_id": "portillos-4d2ff4"}, "geometry": {"type": "Point", "coordinates": [-88.1453228, 42.0130692]}},
{"type": "Feature", "id": "GFtZk6Mb84hsP9MwUaC-rkPVcjQ=", "properties": {"ref": "87", "@spider": "portillos", "amenity": "fast_food", "cuisine": "hot_dog;burger", "takeaway": "yes", "addr:full": "14425 Lakeside Circle", "addr:city": "Sterling Heights", "addr:state": "MI", "addr:postcode": "48313", "name": "Sterling Heights, Michigan", "phone": "586-238-3111", "website": "https://www.portillos.com/location/sterling-heights/", "brand": "Portillo's", "brand:wikidata": "Q3399307", "nsi_id": "portillos-4d2ff4"}, "geometry": {"type": "Point", "coordinates": [-82.9848055, 42.6263047]}},
{"type": "Feature", "id": "8CxYvdCINafbDJ8ZwuBAcQUssT4=", "properties": {"ref": "92", "@spider": "portillos", "amenity": "fast_food", "cuisine": "hot_dog;burger", "takeaway": "yes", "addr:full": "2302 Tyrone Blvd N.", "addr:city": "St. Petersburg", "addr:state": "FL", "addr:postcode": "33710\u00a0", "name": "St. Petersburg, Florida", "phone": "727-390-6625", "website": "https://www.portillos.com/location/st-petersburg/", "brand": "Portillo's", "brand:wikidata": "Q3399307", "nsi_id": "portillos-4d2ff4"}, "geometry": {"type": "Point", "coordinates": [-82.729266, 27.79229]}},
{"type": "Feature", "id": "LerWNQij3IqaNdVneb1CYPA44MU=", "properties": {"ref": "27", "@spider": "portillos", "amenity": "fast_food", "cuisine": "hot_dog;burger", "takeaway": "yes", "addr:full": "3895 E. Main Street", "addr:city": "St. Charles", "addr:state": "IL", "addr:postcode": "60174", "name": "St. Charles, Illinois", "phone": "630-762-8484", "website": "https://www.portillos.com/locations/st-charles/", "brand": "Portillo's", "brand:wikidata": "Q3399307", "nsi_id": "portillos-4d2ff4"}, "geometry": {"type": "Point", "coordinates": [-88.2633669, 41.921103]}},
{"type": "Feature", "id": "5GIo8EBbXt5sU5xzYUl1r4P371c=", "properties": {"ref": "83", "@spider": "portillos", "amenity": "fast_food", "cuisine": "hot_dog;burger", "takeaway": "yes", "addr:full": "3400 Freedom Dr", "addr:city": "Springfield", "addr:state": "IL", "addr:postcode": "62704", "name": "Springfield, Illinois", "phone": "217-210-9050", "website": "https://www.portillos.com/locations/springfield/", "brand": "Portillo's", "brand:wikidata": "Q3399307", "nsi_id": "portillos-4d2ff4"}, "geometry": {"type": "Point", "coordinates": [-89.7071024, 39.7524093]}},
{"type": "Feature", "id": "3JlaR7wMro7iIaS8_NMX7Z05QTc=", "properties": {"ref": "30", "@spider": "portillos", "amenity": "fast_food", "cuisine": "hot_dog;burger", "takeaway": "yes", "addr:full": "9400  Skokie Blvd.", "addr:city": "Skokie", "addr:state": "IL", "addr:postcode": "60077", "name": "Skokie, Illinois", "phone": "847-933-0700", "website": "https://www.portillos.com/locations/skokie/", "brand": "Portillo's", "brand:wikidata": "Q3399307", "nsi_id": "portillos-4d2ff4"}, "geometry": {"type": "Point", "coordinates": [-87.7473739, 42.051943]}},
{"type": "Feature", "id": "HXK0-7GF7HIpnTgsxx7pcQGEguE=", "properties": {"ref": "29", "@spider": "portillos", "amenity": "fast_food", "cuisine": "hot_dog;burger", "takeaway": "yes", "addr:full": "1155 Brook Forest Ave.", "addr:city": "Shorewood", "addr:state": "IL", "addr:postcode": "60404", "name": "Shorewood, Illinois", "phone": "815-609-1400", "website": "https://www.portillos.com/locations/shorewood/", "brand": "Portillo's", "brand:wikidata": "Q3399307", "nsi_id": "portillos-4d2ff4"}, "geometry": {"type": "Point", "coordinates": [-88.2001949, 41.5431475]}},
{"type": "Feature", "id": "fRqt4F0ntzrH28qtkReZ-avFF_o=", "properties": {"ref": "36", "@spider": "portillos", "amenity": "fast_food", "cuisine": "hot_dog;burger", "takeaway": "yes", "addr:full": "10574 N. 90th Street", "addr:city": "Scottsdale", "addr:state": "AZ", "addr:postcode": "85258", "name": "Scottsdale, Arizona", "phone": "480-451-2888", "website": "https://www.portillos.com/locations/scottsdale/", "brand": "Portillo's", "brand:wikidata": "Q3399307", "nsi_id": "portillos-4d2ff4"}, "geometry": {"type": "Point", "coordinates": [-111.8885462, 33.5817746]}},
{"type": "Feature", "id": "pGVV-Ke7Q-NMcAPEiumEUwp3sFA=", "properties": {"ref": "17", "@spider": "portillos", "amenity": "fast_food", "cuisine": "hot_dog;burger", "takeaway": "yes", "addr:full": "611 E. Golf Rd.", "addr:city": "Schaumburg", "addr:state": "IL", "addr:postcode": "60173", "name": "Schaumburg, Illinois", "phone": "847-884-9020", "website": "https://www.portillos.com/locations/schaumburg/", "brand": "Portillo's", "brand:wikidata": "Q3399307", "nsi_id": "portillos-4d2ff4"}, "geometry": {"type": "Point", "coordinates": [-88.0635474, 42.0494034]}},
{"type": "Feature", "id": "alYtReG5rCcRaT5KLWZYY4kj-2Q=", "properties": {"ref": "72", "@spider": "portillos", "amenity": "fast_food", "cuisine": "hot_dog;burger", "takeaway": "yes", "addr:full": "1800 County Road B2 W", "addr:city": "Roseville", "addr:state": "MN", "addr:postcode": "55113", "name": "Roseville, Minnesota ", "phone": "651-888-8850", "website": "https://www.portillos.com/locations/roseville/", "brand": "Portillo's", "brand:wikidata": "Q3399307", "nsi_id": "portillos-4d2ff4"}, "geometry": {"type": "Point", "coordinates": [-93.1765752, 45.0141532]}},
{"type": "Feature", "id": "rhEtV12q6SBPT5IhCoebsbHKUa8=", "properties": {"ref": "14", "@spider": "portillos", "amenity": "fast_food", "cuisine": "hot_dog;burger", "takeaway": "yes", "addr:full": "1900 Golf Rd.", "addr:city": "Rolling Meadows", "addr:state": "IL", "addr:postcode": "60008", "name": "Rolling Meadows, Illinois", "phone": "847-228-0777", "website": "https://www.portillos.com/locations/rolling-meadows/", "brand": "Portillo's", "brand:wikidata": "Q3399307", "nsi_id": "portillos-4d2ff4"}, "geometry": {"type": "Point", "coordinates": [-88.00359, 42.051771]}},
{"type": "Feature", "id": "ICIWmbmdd0DOTOyQ8OuOufdBlxU=", "properties": {"ref": "41", "@spider": "portillos", "amenity": "fast_food", "cuisine": "hot_dog;burger", "takeaway": "yes", "addr:full": "6090 State Street", "addr:city": "Rockford", "addr:state": "IL", "addr:postcode": "61108", "name": "Rockford, Illinois", "phone": "815-997-1800", "website": "https://www.portillos.com/locations/rockford/", "brand": "Portillo's", "brand:wikidata": "Q3399307", "nsi_id": "portillos-4d2ff4"}, "geometry": {"type": "Point", "coordinates": [-88.9978699, 42.2669798]}},
{"type": "Feature", "id": "nDImHzijpgyBj0h-ZbmTs_P8uXA=", "properties": {"ref": "66", "@spider": "portillos", "amenity": "fast_food", "cuisine": "hot_dog;burger", "takeaway": "yes", "addr:full": "4412 N. Rockwood Drive", "addr:city": "Peoria", "addr:state": "IL", "addr:postcode": "61615", "name": "Peoria, Illinois  ", "phone": "309-282-3400", "website": "https://www.portillos.com/locations/peoria/", "brand": "Portillo's", "brand:wikidata": "Q3399307", "nsi_id": "portillos-4d2ff4"}, "geometry": {"type": "Point", "coordinates": [-89.6329412, 40.7414425]}},
{"type": "Feature", "id": "nev2EQ2pi6XHFuGUnBH8pggBvE0=", "properties": {"ref": "26", "@spider": "portillos", "amenity": "fast_food", "cuisine": "hot_dog;burger", "takeaway": "yes", "addr:full": "2810 US Highway 34", "addr:city": "Oswego", "addr:state": "IL", "addr:postcode": "60543", "name": "Oswego, Illinois", "phone": "630-554-1000", "website": "https://www.portillos.com/locations/sswego/", "brand": "Portillo's", "brand:wikidata": "Q3399307", "nsi_id": "portillos-4d2ff4"}, "geometry": {"type": "Point", "coordinates": [-88.3164944, 41.6986201]}},
{"type": "Feature", "id": "aiZK1uuNHBPAlWUz7r1KBZt0nUA=", "properties": {"ref": "86", "@spider": "portillos", "amenity": "fast_food", "cuisine": "hot_dog;burger", "takeaway": "yes", "addr:full": "7715 Palm Parkway", "addr:city": "Orlando", "addr:state": "FL", "addr:postcode": "32836", "name": "Orlando, Florida", "phone": "689-800-0102", "website": "https://www.portillos.com/location/orlando/", "brand": "Portillo's", "brand:wikidata": "Q3399307", "nsi_id": "portillos-4d2ff4"}, "geometry": {"type": "Point", "coordinates": [-81.4890363, 28.3991587]}},
{"type": "Feature", "id": "8V3iv7ZFUesNjFrbqO-53qFL_qU=", "properties": {"ref": "28", "@spider": "portillos", "amenity": "fast_food", "cuisine": "hot_dog;burger", "takeaway": "yes", "addr:full": "4020 W. 95th St.", "addr:city": "Oak Lawn", "addr:state": "IL", "addr:postcode": "60453", "name": "Oak Lawn, Illinois", "phone": "708-425-1600", "website": "https://www.portillos.com/locations/oak-lawn/", "brand": "Portillo's", "brand:wikidata": "Q3399307", "nsi_id": "portillos-4d2ff4"}, "geometry": {"type": "Point", "coordinates": [-87.7231571, 41.7207885]}},
{"type": "Feature", "id": "Htj32M93oDumY5kibToaeUAXmfY=", "properties": {"ref": "9", "@spider": "portillos", "amenity": "fast_food", "cuisine": "hot_dog;burger", "takeaway": "yes", "addr:full": "170 W. North Ave.", "addr:city": "Northlake", "addr:state": "IL", "addr:postcode": "60164", "name": "Northlake, Illinois", "phone": "708-409-0000", "website": "https://www.portillos.com/locations/northlake/", "brand": "Portillo's", "brand:wikidata": "Q3399307", "nsi_id": "portillos-4d2ff4"}, "geometry": {"type": "Point", "coordinates": [-87.912575, 41.907395]}},
{"type": "Feature", "id": "6_V6pmwu-tLXbK8kbaq7scZxSUw=", "properties": {"ref": "58", "@spider": "portillos", "amenity": "fast_food", "cuisine": "hot_dog;burger", "takeaway": "yes", "addr:full": "202 Landmark Drive", "addr:city": "Normal", "addr:state": "IL", "addr:postcode": "61761", "name": "Normal, Illinois", "phone": "309-200-8086", "website": "https://www.portillos.com/locations/normal/", "brand": "Portillo's", "brand:wikidata": "Q3399307", "nsi_id": "portillos-4d2ff4"}, "geometry": {"type": "Point", "coordinates": [-88.9542126, 40.5134331]}},
{"type": "Feature", "id": "5GBW8ed6MLO86iBzG3GgJCsxA_Q=", "properties": {"ref": "1", "@spider": "portillos", "amenity": "fast_food", "cuisine": "hot_dog;burger", "takeaway": "yes", "addr:full": "8832 W. Dempster", "addr:city": "Niles", "addr:state": "IL", "addr:postcode": "60714", "name": "Niles, Illinois", "phone": "847-795-0600", "website": "https://www.portillos.com/locations/niles/", "brand": "Portillo's", "brand:wikidata": "Q3399307", "nsi_id": "portillos-4d2ff4"}, "geometry": {"type": "Point", "coordinates": [-87.8464597, 42.0399043]}},
{"type": "Feature", "id": "6LWdP_lmK2-YHkGEXLfoPo6CdzA=", "properties": {"ref": "34", "@spider": "portillos", "amenity": "fast_food", "cuisine": "hot_dog;burger", "takeaway": "yes", "addr:full": "2306 E. Lincoln Hwy", "addr:city": "New Lenox", "addr:state": "IL", "addr:postcode": "60451", "name": "New Lenox, Illinois", "phone": "815-485-8301", "website": "https://www.portillos.com/locations/new-lenox/", "brand": "Portillo's", "brand:wikidata": "Q3399307", "nsi_id": "portillos-4d2ff4"}, "geometry": {"type": "Point", "coordinates": [-87.9215614, 41.5090779]}},
{"type": "Feature", "id": "siIOSZf-yCTDPNJ5PV_OXnKYazU=", "properties": {"ref": "19", "@spider": "portillos", "amenity": "fast_food", "cuisine": "hot_dog;burger", "takeaway": "yes", "addr:full": "1992 W. Jefferson", "addr:city": "Naperville", "addr:state": "IL", "addr:postcode": "60540", "name": "Naperville, Illinois - W. Jefferson", "phone": "630-420-7156", "website": "https://www.portillos.com/locations/naperville-jefferson/", "brand": "Portillo's", "brand:wikidata": "Q3399307", "nsi_id": "portillos-4d2ff4"}, "geometry": {"type": "Point", "coordinates": [-88.2050935, 41.7699336]}},
{"type": "Feature", "id": "N-kY7uiOmkN6CDrFhrAgkwr5W6Y=", "properties": {"ref": "13", "@spider": "portillos", "amenity": "fast_food", "cuisine": "hot_dog;burger", "takeaway": "yes", "addr:full": "950 E. Ogden Ave.", "addr:city": "Naperville", "addr:state": "IL", "addr:postcode": "60563", "name": "Naperville, Illinois - Ogden", "phone": "630-961-1151", "website": "https://www.portillos.com/locations/naperville-ogden/", "brand": "Portillo's", "brand:wikidata": "Q3399307", "nsi_id": "portillos-4d2ff4"}, "geometry": {"type": "Point", "coordinates": [-88.1320999, 41.7891035]}},
{"type": "Feature", "id": "1ga2K364zfpkyVUyPNWkURFzLLg=", "properties": {"ref": "39", "@spider": "portillos", "amenity": "fast_food", "cuisine": "hot_dog;burger", "takeaway": "yes", "addr:full": "12840 Day Street", "addr:city": "Moreno Valley", "addr:state": "CA", "addr:postcode": "92553", "name": "Moreno Valley, California", "phone": "951-653-1000", "website": "https://www.portillos.com/locations/moreno-valley/", "brand": "Portillo's", "brand:wikidata": "Q3399307", "nsi_id": "portillos-4d2ff4"}, "geometry": {"type": "Point", "coordinates": [-117.2782027, 33.9344945]}},
{"type": "Feature", "id": "T4FkWI50OO7a-OVJNiUsiEur_LI=", "properties": {"ref": "62", "@spider": "portillos", "amenity": "fast_food", "cuisine": "hot_dog;burger", "takeaway": "yes", "addr:full": "5102 N Main Street", "addr:city": "Mishawaka", "addr:state": "IN", "addr:postcode": "46545", "name": "Mishawaka, Indiana", "phone": "574-347-8720", "website": "https://www.portillos.com/locations/mishawaka/", "brand": "Portillo's", "brand:wikidata": "Q3399307", "nsi_id": "portillos-4d2ff4"}, "geometry": {"type": "Point", "coordinates": [-86.1822012, 41.7054926]}},
{"type": "Feature", "id": "Od_smSpXTJ2NZeBZTxsH-EfH6Kg=", "properties": {"ref": "32", "@spider": "portillos", "amenity": "fast_food", "cuisine": "hot_dog;burger", "takeaway": "yes", "addr:full": "555 East 81st Ave.", "addr:city": "Merrillville", "addr:state": "IN", "addr:postcode": "46410", "name": "Merrillville, Indiana", "phone": "219-769-8300", "website": "https://www.portillos.com/locations/merrillville/", "brand": "Portillo's", "brand:wikidata": "Q3399307", "nsi_id": "portillos-4d2ff4"}, "geometry": {"type": "Point", "coordinates": [-87.3329694, 41.4704135]}},
{"type": "Feature", "id": "bhr45hTpt4mSlP4jwXbK387KK-A=", "properties": {"ref": "61", "@spider": "portillos", "amenity": "fast_food", "cuisine": "hot_dog;burger", "takeaway": "yes", "addr:full": "12251 Elm Creek Blvd N", "addr:city": "Maple Grove", "addr:state": "MN", "addr:postcode": "55369", "name": "Maple Grove, Minnesota", "phone": "763-316-0860", "website": "https://www.portillos.com/locations/maplegrove/", "brand": "Portillo's", "brand:wikidata": "Q3399307", "nsi_id": "portillos-4d2ff4"}, "geometry": {"type": "Point", "coordinates": [-93.4363459, 45.09286]}},
{"type": "Feature", "id": "mInMbcyjofNJGWv7wcuOc_6mn7o=", "properties": {"ref": "89", "@spider": "portillos", "amenity": "fast_food", "cuisine": "hot_dog;burger", "takeaway": "yes", "addr:full": "7230 West Towne Way", "addr:city": "Madison", "addr:state": "WI", "addr:postcode": "53719", "name": "Madison, Wisconsin - West Towne", "phone": "608-653-2300", "website": "https://www.portillos.com/location/west-madison/", "brand": "Portillo's", "brand:wikidata": "Q3399307", "nsi_id": "portillos-4d2ff4"}, "geometry": {"type": "Point", "coordinates": [-89.5116764, 43.0574845]}},
{"type": "Feature", "id": "500SE07dQkYHO4_CbaktEqLzfvc=", "properties": {"ref": "70", "@spider": "portillos", "amenity": "fast_food", "cuisine": "hot_dog;burger", "takeaway": "yes", "addr:full": "4505 East Towne Blvd", "addr:city": "Madison", "addr:state": "WI", "addr:postcode": "53704", "name": "Madison, Wisconsin - East Towne", "phone": "608-819-2720", "website": "https://www.portillos.com/locations/madison/", "brand": "Portillo's", "brand:wikidata": "Q3399307", "nsi_id": "portillos-4d2ff4"}, "geometry": {"type": "Point", "coordinates": [-89.3072947, 43.1274118]}},
{"type": "Feature", "id": "_jRjSb0SRpOUMGISAz5_v3SP1Y4=", "properties": {"ref": "91", "@spider": "portillos", "amenity": "fast_food", "cuisine": "hot_dog;burger", "takeaway": "yes", "addr:full": "1444 N Larkin Ave.", "addr:city": "Joliet", "addr:state": "IL", "addr:postcode": "60435", "name": "Joliet, IL Pickup & Delivery", "phone": "779-267-0030", "website": "https://www.portillos.com/location/joliet-pickup-delivery/", "brand": "Portillo's", "brand:wikidata": "Q3399307", "nsi_id": "portillos-4d2ff4"}, "geometry": {"type": "Point", "coordinates": [-88.1251921, 41.5488032]}},
{"type": "Feature", "id": "eMuVojpzBtCYas1pDVmOt1ourgY=", "properties": {"ref": "69", "@spider": "portillos", "amenity": "fast_food", "cuisine": "hot_dog;burger", "takeaway": "yes", "addr:full": "8150 US-31", "addr:city": "Indianapolis", "addr:state": "IN", "addr:postcode": "46227", "name": "Indianapolis, Indiana", "phone": "317-743-9364", "website": "https://www.portillos.com/locations/indianapolis/", "brand": "Portillo's", "brand:wikidata": "Q3399307", "nsi_id": "portillos-4d2ff4"}, "geometry": {"type": "Point", "coordinates": [-86.1363895, 39.6479722]}},
{"type": "Feature", "id": "D2tbnTZ4vbYbx3OlBjOru0R9CyM=", "properties": {"ref": "42", "@spider": "portillos", "amenity": "fast_food", "cuisine": "hot_dog;burger", "takeaway": "yes", "addr:full": "17500 S. Halsted St.", "addr:city": "Homewood", "addr:state": "IL", "addr:postcode": " 60430", "name": "Homewood, Illinois", "phone": "708-991-2061", "website": "https://www.portillos.com/locations/homewood/", "brand": "Portillo's", "brand:wikidata": "Q3399307", "nsi_id": "portillos-4d2ff4"}, "geometry": {"type": "Point", "coordinates": [-87.63648, 41.571845]}},
{"type": "Feature", "id": "aJzPCq3nGGlErw_19JrrL_zFh64=", "properties": {"ref": "53", "@spider": "portillos", "amenity": "fast_food", "cuisine": "hot_dog;burger", "takeaway": "yes", "addr:full": "7308 W. Lawrence Ave.", "addr:city": "Harwood Heights", "addr:state": "IL", "addr:postcode": "60706", "name": "Harwood Heights, Illinois", "phone": "872-484-1919", "website": "https://www.portillos.com/locations/harwoodheights/", "brand": "Portillo's", "brand:wikidata": "Q3399307", "nsi_id": "portillos-4d2ff4"}, "geometry": {"type": "Point", "coordinates": [-87.8102094, 41.9672201]}},
{"type": "Feature", "id": "H8S5ifo1lhalFA8tw_w1YHE3vPc=", "properties": {"ref": "43", "@spider": "portillos", "amenity": "fast_food", "cuisine": "hot_dog;burger", "takeaway": "yes", "addr:full": "6102 W. Grand Avenue", "addr:city": "Gurnee", "addr:state": "IL", "addr:postcode": "60031", "name": "Gurnee, Illinois", "phone": "847-264-5060", "website": "https://www.portillos.com/locations/gurnee/", "brand": "Portillo's", "brand:wikidata": "Q3399307", "nsi_id": "portillos-4d2ff4"}, "geometry": {"type": "Point", "coordinates": [-87.953608, 42.390006]}},
{"type": "Feature", "id": "DT-5-wb0xCZlxf0H7Uk09qQLRJ0=", "properties": {"ref": "54", "@spider": "portillos", "amenity": "fast_food", "cuisine": "hot_dog;burger", "takeaway": "yes", "addr:full": "8705 West Sura Lane ", "addr:city": "Greenfield", "addr:state": "WI", "addr:postcode": "53228", "name": "Greenfield, Wisconsin", "phone": "414-877-5400", "website": "https://www.portillos.com/locations/greenfield/", "brand": "Portillo's", "brand:wikidata": "Q3399307", "nsi_id": "portillos-4d2ff4"}, "geometry": {"type": "Point", "coordinates": [-88.0213371, 42.9591864]}},
{"type": "Feature", "id": "d-Ix2CevMlQ1izsIxV-Ac2SclPc=", "properties": {"ref": "88", "@spider": "portillos", "amenity": "fast_food", "cuisine": "hot_dog;burger", "takeaway": "yes", "addr:full": "17125 N. 79th Ave.", "addr:city": "Glendale", "addr:state": "AZ", "addr:postcode": "85308", "name": "Glendale, Arizona", "phone": "480-672-0100", "website": "https://www.portillos.com/location/glendale/", "brand": "Portillo's", "brand:wikidata": "Q3399307", "nsi_id": "portillos-4d2ff4"}, "geometry": {"type": "Point", "coordinates": [-112.2287614, 33.6397882]}},
{"type": "Feature", "id": "t8QRyc3BuPyS6guxu36FnQazuDQ=", "properties": {"ref": "5", "@spider": "portillos", "amenity": "fast_food", "cuisine": "hot_dog;burger", "takeaway": "yes", "addr:full": "235 North Ave.", "addr:city": "Glendale Heights", "addr:state": "IL", "addr:postcode": "60139", "name": "Glendale Heights, Illinois", "phone": "630-690-9380", "website": "https://www.portillos.com/locations/glendale-heights/", "brand": "Portillo's", "brand:wikidata": "Q3399307", "nsi_id": "portillos-4d2ff4"}, "geometry": {"type": "Point", "coordinates": [-88.0805017, 41.9023026]}},
{"type": "Feature", "id": "AH4dycOGyN7-5c4HHPebhJ7xX9U=", "properties": {"ref": "81", "@spider": "portillos", "amenity": "fast_food", "cuisine": "hot_dog;burger", "takeaway": "yes", "addr:full": "295 W Coliseum Blvd", "addr:city": "Fort Wayne", "addr:state": "IN", "addr:postcode": "46805", "name": "Fort Wayne, Indiana", "phone": "260-704-9770", "website": "https://www.portillos.com/locations/fortwayne/", "brand": "Portillo's", "brand:wikidata": "Q3399307", "nsi_id": "portillos-4d2ff4"}, "geometry": {"type": "Point", "coordinates": [-85.1220031, 41.1024994]}},
{"type": "Feature", "id": "3Cf979v3A-oz6X3EXUDV51iMD20=", "properties": {"ref": "15", "@spider": "portillos", "amenity": "fast_food", "cuisine": "hot_dog;burger", "takeaway": "yes", "addr:full": "7740 Roosevelt Rd.", "addr:city": "Forest Park", "addr:state": "IL", "addr:postcode": "60130", "name": "Forest Park, Illinois", "phone": "708-383-7557", "website": "https://www.portillos.com/locations/forest-park/", "brand": "Portillo's", "brand:wikidata": "Q3399307", "nsi_id": "portillos-4d2ff4"}, "geometry": {"type": "Point", "coordinates": [-87.8185061, 41.8644194]}},
{"type": "Feature", "id": "6ADQ9SSJg7fryllyx6ILf8N4gbk=", "properties": {"ref": "57", "@spider": "portillos", "amenity": "fast_food", "cuisine": "hot_dog;burger", "takeaway": "yes", "addr:full": "9201 E 116th St", "addr:city": "Fishers", "addr:state": "IN", "addr:postcode": "46037", "name": "Fishers, Indiana", "phone": "317-588-1111", "website": "https://www.portillos.com/locations/fishers/", "brand": "Portillo's", "brand:wikidata": "Q3399307", "nsi_id": "portillos-4d2ff4"}, "geometry": {"type": "Point", "coordinates": [-86.0045829, 39.9562845]}},
{"type": "Feature", "id": "w9Yzpb2TvApelfFBlWXe4A_rfAg=", "properties": {"ref": "6", "@spider": "portillos", "amenity": "fast_food", "cuisine": "hot_dog;burger", "takeaway": "yes", "addr:full": "155 S. Route 83", "addr:city": "Elmhurst", "addr:state": "IL", "addr:postcode": "60126", "name": "Elmhurst, Illinois", "phone": "630-530-8451", "website": "https://www.portillos.com/locations/elmhurst/", "brand": "Portillo's", "brand:wikidata": "Q3399307", "nsi_id": "portillos-4d2ff4"}, "geometry": {"type": "Point", "coordinates": [-87.9625168, 41.8954652]}},
{"type": "Feature", "id": "3_V-70tfB6vXbhGNhsiS0iCzDz4=", "properties": {"ref": "16", "@spider": "portillos", "amenity": "fast_food", "cuisine": "hot_dog;burger", "takeaway": "yes", "addr:full": "1500 Busse Road", "addr:city": "Elk Grove Village", "addr:state": "IL", "addr:postcode": "60007", "name": "Elk Grove Village, Illinois", "phone": "847-228-6677", "website": "https://www.portillos.com/locations/elk-grove-village/", "brand": "Portillo's", "brand:wikidata": "Q3399307", "nsi_id": "portillos-4d2ff4"}, "geometry": {"type": "Point", "coordinates": [-87.9602071, 42.003588]}},
{"type": "Feature", "id": "iJNmE9ataPyDLO-xlbYtE7xuVd0=", "properties": {"ref": "35", "@spider": "portillos", "amenity": "fast_food", "cuisine": "hot_dog;burger", "takeaway": "yes", "addr:full": "1020 S. Randall Rd.", "addr:city": "Elgin", "addr:state": "IL", "addr:postcode": "60123", "name": "Elgin, Illinois", "phone": "847-695-8884", "website": "https://www.portillos.com/locations/elgin/", "brand": "Portillo's", "brand:wikidata": "Q3399307", "nsi_id": "portillos-4d2ff4"}, "geometry": {"type": "Point", "coordinates": [-88.3361074, 42.0090033]}},
{"type": "Feature", "id": "vVCJac021A2v_sYcnSf-ByOKk4I=", "properties": {"ref": "10", "@spider": "portillos", "amenity": "fast_food", "cuisine": "hot_dog;burger", "takeaway": "yes", "addr:full": "1500 Butterfield Rd.", "addr:city": "Downers Grove", "addr:state": "IL", "addr:postcode": "60515", "name": "Downers Grove, Illinois", "phone": "630-495-9033", "website": "https://www.portillos.com/locations/downers-grove/", "brand": "Portillo's", "brand:wikidata": "Q3399307", "nsi_id": "portillos-4d2ff4"}, "geometry": {"type": "Point", "coordinates": [-88.0225399, 41.8344583]}},
{"type": "Feature", "id": "gJ2MsRg_BceAGlicmEFbzArKaek=", "properties": {"ref": "52", "@spider": "portillos", "amenity": "fast_food", "cuisine": "hot_dog;burger", "takeaway": "yes", "addr:full": "700 Lake Cook Rd", "addr:city": "Deerfield", "addr:state": "IL", "addr:postcode": "60015", "name": "Deerfield, Illinois", "phone": "847-597-0010", "website": "https://www.portillos.com/locations/deerfield/", "brand": "Portillo's", "brand:wikidata": "Q3399307", "nsi_id": "portillos-4d2ff4"}, "geometry": {"type": "Point", "coordinates": [-87.8463132, 42.1535243]}},
{"type": "Feature", "id": "W4iRVZdL2fCahx5GogdQVOabng0=", "properties": {"ref": "7", "@spider": "portillos", "amenity": "fast_food", "cuisine": "hot_dog;burger", "takeaway": "yes", "addr:full": "100 W. Lake St.", "addr:city": "Addison", "addr:state": "IL", "addr:postcode": "60101", "name": "Addison, Illinois", "phone": "630-628-0358", "website": "https://www.portillos.com/locations/addison/", "brand": "Portillo's", "brand:wikidata": "Q3399307", "nsi_id": "portillos-4d2ff4"}, "geometry": {"type": "Point", "coordinates": [-87.9914829, 41.9336651]}}]}