{"type":"FeatureCollection","features":[{"type": "Feature", "id": "WD6KcHH4wdBx3E73gl_z9dirmfE=", "properties": {"ref": "236", "@spider": "pricerite", "shop": "supermarket", "addr:full": "1625 Erie Blvd E", "addr:city": "Syracuse", "addr:state": "NY", "addr:postcode": "13210", "name": "Price Rite of Syracuse", "phone": "3154742019", "website": "https://www.priceritemarketplace.com/sm/planning/rsid/236", "opening_hours": "Mon-Sat 8am-9pm  Sun 8am-8pm", "brand": "PriceRite", "brand:wikidata": "Q7242560", "nsi_id": "pricerite-dde59d"}, "geometry": {"type": "Point", "coordinates": [-76.1234, 43.04985]}},
{"type": "Feature", "id": "sRebaSG3KlqO-MHocPN3mzfoYlA=", "properties": {"ref": "345", "@spider": "pricerite", "shop": "supermarket", "addr:full": "29 Main St.", "addr:city": "Danbury", "addr:state": "CT", "addr:postcode": "06810", "name": "Price Rite of Danbury", "phone": "2037432660", "website": "https://www.priceritemarketplace.com/sm/planning/rsid/345", "opening_hours": "Mon-Sat 8am-9pm  Sun 8am-8pm", "brand": "PriceRite", "brand:wikidata": "Q7242560", "nsi_id": "pricerite-dde59d"}, "geometry": {"type": "Point", "coordinates": [-73.4452, 41.3885]}},
{"type": "Feature", "id": "GiV8b_AgjwVI7qDYtel7TV92C40=", "properties": {"ref": "337", "@spider": "pricerite", "shop": "supermarket", "addr:full": "395 Lynnway", "addr:city": "Lynn", "addr:state": "MA", "addr:postcode": "01901", "name": "Price Rite of Lynn", "phone": "7815812611", "website": "https://www.priceritemarketplace.com/sm/planning/rsid/337", "opening_hours": "Mon-Sat 8am-9pm  Sun 8am-8pm", "brand": "PriceRite", "brand:wikidata": "Q7242560", "nsi_id": "pricerite-dde59d"}, "geometry": {"type": "Point", "coordinates": [-70.9517, 42.45708]}},
{"type": "Feature", "id": "hhrTvMyhBNa96KITqRTQlZLRFp0=", "properties": {"ref": "124", "@spider": "pricerite", "shop": "supermarket", "addr:full": "59 Outwater Lane", "addr:city": "Garfield", "addr:state": "NJ", "addr:postcode": "07026", "name": "Price Rite of Garfield", "phone": "8622259717", "website": "https://www.priceritemarketplace.com/sm/planning/rsid/124", "opening_hours": "Monday - Saturday: 8 AM - 10 PM\nSunday: 8 AM - 10 PM", "brand": "PriceRite", "brand:wikidata": "Q7242560", "nsi_id": "pricerite-dde59d"}, "geometry": {"type": "Point", "coordinates": [-74.116, 40.88075]}},
{"type": "Feature", "id": "amlFJZMK8lpqTsZtLKJcbbkooy8=", "properties": {"ref": "305", "@spider": "pricerite", "shop": "supermarket", "addr:full": "150 Columbus Boulevard", "addr:city": "New Britain", "addr:state": "CT", "addr:postcode": "06051", "name": "Price Rite of New Britain", "phone": "8608260588", "website": "https://www.priceritemarketplace.com/sm/planning/rsid/305", "opening_hours": "Mon-Sat 8am-9pm  Sun 8am-8pm", "brand": "PriceRite", "brand:wikidata": "Q7242560", "nsi_id": "pricerite-dde59d"}, "geometry": {"type": "Point", "coordinates": [-72.7766, 41.66728]}},
{"type": "Feature", "id": "swcaJkwzLfdtrOJ5fPzPpmpHEhE=", "properties": {"ref": "249", "@spider": "pricerite", "shop": "supermarket", "addr:full": "501 Bleecker Street", "addr:city": "Utica", "addr:state": "NY", "addr:postcode": "13501", "name": "Price Rite of Utica", "phone": "3157984460", "website": "https://www.priceritemarketplace.com/sm/planning/rsid/249", "opening_hours": "Monday - Sunday 9am - 8pm  ", "brand": "PriceRite", "brand:wikidata": "Q7242560", "nsi_id": "pricerite-dde59d"}, "geometry": {"type": "Point", "coordinates": [-75.22141, 43.09984]}},
{"type": "Feature", "id": "KQVcm1X06Ze0D9j0ZjM_5EJ8oMg=", "properties": {"ref": "574", "@spider": "pricerite", "shop": "supermarket", "addr:full": "5800 Silver Hill Rd", "addr:city": "District Heights", "addr:state": "MD", "addr:postcode": "20747", "name": "Price Rite of District Heights", "phone": "3019670513", "website": "https://www.priceritemarketplace.com/sm/planning/rsid/574", "opening_hours": "Mon-Sat 8am-9pm  Sun 8am-8pm", "brand": "PriceRite", "brand:wikidata": "Q7242560", "nsi_id": "pricerite-dde59d"}, "geometry": {"type": "Point", "coordinates": [-76.9075, 38.85525]}},
{"type": "Feature", "id": "UY77P0ap3xLSoB0uAEEeA2trMGQ=", "properties": {"ref": "569", "@spider": "pricerite", "shop": "supermarket", "addr:full": "1753 Chesaco Ave", "addr:city": "Rosedale", "addr:state": "MD", "addr:postcode": "21237", "name": "Price Rite of Rosedale Plaza", "phone": "4108664104", "website": "https://www.priceritemarketplace.com/sm/planning/rsid/569", "opening_hours": "Mon-Sat 8am-8pm  \nSun 8am-6pm", "brand": "PriceRite", "brand:wikidata": "Q7242560", "nsi_id": "pricerite-dde59d"}, "geometry": {"type": "Point", "coordinates": [-76.5206, 39.3298]}},
{"type": "Feature", "id": "WUQPh3DKdkixL37AMhRkp5T9yOo=", "properties": {"ref": "238", "@spider": "pricerite", "shop": "supermarket", "addr:full": "1700 Walden Avenue", "addr:city": "Cheektowaga", "addr:state": "NY", "addr:postcode": "14225", "name": "Price Rite of Cheektowaga", "phone": "7168923723", "website": "https://www.priceritemarketplace.com/sm/planning/rsid/238", "opening_hours": "Mon-Sat 8am-9pm  Sun 8am-8pm", "brand": "PriceRite", "brand:wikidata": "Q7242560", "nsi_id": "pricerite-dde59d"}, "geometry": {"type": "Point", "coordinates": [-78.775, 42.90803]}},
{"type": "Feature", "id": "PxoUeFOh9VqAvHVjd718MusZHTw=", "properties": {"ref": "226", "@spider": "pricerite", "shop": "supermarket", "addr:full": "250 Elmwood Street", "addr:city": "Buffalo", "addr:state": "NY", "addr:postcode": "14209", "name": "Price Rite of Stuyvesant Plaza", "phone": "7168810529", "website": "https://www.priceritemarketplace.com/sm/planning/rsid/226", "opening_hours": "Mon-Sat 8am-9pm  Sun 8am-8pm", "brand": "PriceRite", "brand:wikidata": "Q7242560", "nsi_id": "pricerite-dde59d"}, "geometry": {"type": "Point", "coordinates": [-78.878, 42.90368]}},
{"type": "Feature", "id": "Dpn-ET9fDlDg7VJUCzWBIK2bbr0=", "properties": {"ref": "210", "@spider": "pricerite", "shop": "supermarket", "addr:full": "3333 W. Henrietta Rd", "addr:city": "Rochester", "addr:state": "NY", "addr:postcode": "14623", "name": "Price Rite of Henrietta", "phone": "5854244140", "website": "https://www.priceritemarketplace.com/sm/planning/rsid/210", "opening_hours": "Mon-Sat 8am-9pm  Sun 8am-8pm", "brand": "PriceRite", "brand:wikidata": "Q7242560", "nsi_id": "pricerite-dde59d"}, "geometry": {"type": "Point", "coordinates": [-77.6373, 43.08662]}},
{"type": "Feature", "id": "fZDIuI_Th5yGCPTFpr1ZvswoZxM=", "properties": {"ref": "575", "@spider": "pricerite", "shop": "supermarket", "addr:full": "1205 West Pratt Street", "addr:city": "Baltimore", "addr:state": "MD", "addr:postcode": "21201", "name": "Price Rite of Baltimore", "phone": "4105280380", "website": "https://www.priceritemarketplace.com/sm/planning/rsid/575", "opening_hours": "Mon-Sat 8am-9pm  Sun 8am-8pm", "brand": "PriceRite", "brand:wikidata": "Q7242560", "nsi_id": "pricerite-dde59d"}, "geometry": {"type": "Point", "coordinates": [-76.6354, 39.28438]}},
{"type": "Feature", "id": "SbpZxHMiAZB59E_APjl2f22vm0M=", "properties": {"ref": "360", "@spider": "pricerite", "shop": "supermarket", "addr:full": "1720 South 4th Street", "addr:city": "Allentown", "addr:state": "PA", "addr:postcode": "18103", "name": "Price Rite of Allentown", "phone": "6107090280", "website": "https://www.priceritemarketplace.com/sm/planning/rsid/360", "opening_hours": "Mon-Sat 8am-9pm  Sun 8am-8pm", "brand": "PriceRite", "brand:wikidata": "Q7242560", "nsi_id": "pricerite-dde59d"}, "geometry": {"type": "Point", "coordinates": [-75.4585, 40.58365]}},
{"type": "Feature", "id": "YEoOzPnSnEQn3NUXxIwW4zpLgj0=", "properties": {"ref": "349", "@spider": "pricerite", "shop": "supermarket", "addr:full": "4425 Main Street", "addr:city": "Bridgeport", "addr:state": "CT", "addr:postcode": "06606", "name": "Price Rite of Bridgeport - Main Street", "phone": "2033960839", "website": "https://www.priceritemarketplace.com/sm/planning/rsid/349", "opening_hours": "Mon-Sat 8am-8pm  Sun 8am-8pm", "brand": "PriceRite", "brand:wikidata": "Q7242560", "nsi_id": "pricerite-dde59d"}, "geometry": {"type": "Point", "coordinates": [-73.2169, 41.22002]}},
{"type": "Feature", "id": "JRSLLI6f5bHs7q89Zc1q1XceybQ=", "properties": {"ref": "406", "@spider": "pricerite", "shop": "supermarket", "addr:full": "951 North 6th Street", "addr:city": "Reading", "addr:state": "PA", "addr:postcode": "19601", "name": "Price Rite of Reading", "phone": "6103727267", "website": "https://www.priceritemarketplace.com/sm/planning/rsid/406", "opening_hours": "Mon-Sat 8am-9pm  Sun 8am-8pm", "brand": "PriceRite", "brand:wikidata": "Q7242560", "nsi_id": "pricerite-dde59d"}, "geometry": {"type": "Point", "coordinates": [-75.9253, 40.34968]}},
{"type": "Feature", "id": "_8ljAyNIT85D6rBES567X2X_iAo=", "properties": {"ref": "425", "@spider": "pricerite", "shop": "supermarket", "addr:full": "1001 8th Avenue", "addr:city": "Bethlehem", "addr:state": "PA", "addr:postcode": "18018", "name": "Price Rite of Bethlehem", "phone": "6108822356", "website": "https://www.priceritemarketplace.com/sm/planning/rsid/425", "opening_hours": "Mon-Sat 8am-9pm  Sun 8am-8pm", "brand": "PriceRite", "brand:wikidata": "Q7242560", "nsi_id": "pricerite-dde59d"}, "geometry": {"type": "Point", "coordinates": [-75.395, 40.62972]}},
{"type": "Feature", "id": "4y76dQzSyeDXTmhj1-wFc_0crwQ=", "properties": {"ref": "307", "@spider": "pricerite", "shop": "supermarket", "addr:full": "136 Berlin Road", "addr:city": "Cromwell", "addr:state": "CT", "addr:postcode": "06416", "name": "Price Rite of Cromwell", "phone": "8606350004", "website": "https://www.priceritemarketplace.com/sm/planning/rsid/307", "opening_hours": "Mon-Sat 8am-9pm  Sun 8am-8pm", "brand": "PriceRite", "brand:wikidata": "Q7242560", "nsi_id": "pricerite-dde59d"}, "geometry": {"type": "Point", "coordinates": [-72.7085, 41.60575]}},
{"type": "Feature", "id": "FPc6WCVD9Z54ASz7GbSZBJfl1lg=", "properties": {"ref": "332", "@spider": "pricerite", "shop": "supermarket", "addr:full": "866 Pleasant Street", "addr:city": "Fall River", "addr:state": "MA", "addr:postcode": "02723", "name": "Price Rite of Fall River", "phone": "5086788167", "website": "https://www.priceritemarketplace.com/sm/planning/rsid/332", "opening_hours": "Mon-Sat 8am-9pm  Sun 8am-8pm", "brand": "PriceRite", "brand:wikidata": "Q7242560", "nsi_id": "pricerite-dde59d"}, "geometry": {"type": "Point", "coordinates": [-71.1402, 41.69566]}},
{"type": "Feature", "id": "ATr3y1ig0JntgoqYeD9GAhUJwQE=", "properties": {"ref": "372", "@spider": "pricerite", "shop": "supermarket", "addr:full": "1415 Elmwood Avenue", "addr:city": "Cranston", "addr:state": "RI", "addr:postcode": "02910", "name": "Price Rite of Cranston", "phone": "4017854143", "website": "https://www.priceritemarketplace.com/sm/planning/rsid/372", "opening_hours": "Mon-Sat 8am-9pm  Sun 8am-8pm", "brand": "PriceRite", "brand:wikidata": "Q7242560", "nsi_id": "pricerite-dde59d"}, "geometry": {"type": "Point", "coordinates": [-71.4235, 41.77162]}},
{"type": "Feature", "id": "avqOwM0-a3ed-6nENsy9Mkq6tQ0=", "properties": {"ref": "347", "@spider": "pricerite", "shop": "supermarket", "addr:full": "1106 Union Street", "addr:city": "West Springfield", "addr:state": "MA", "addr:postcode": "01089", "name": "Price Rite of West Springfield", "phone": "4137317344", "website": "https://www.priceritemarketplace.com/sm/planning/rsid/347", "opening_hours": "Mon-Sat 8am-9pm  Sun 8am-8pm", "brand": "PriceRite", "brand:wikidata": "Q7242560", "nsi_id": "pricerite-dde59d"}, "geometry": {"type": "Point", "coordinates": [-72.6075, 42.09492]}},
{"type": "Feature", "id": "pDIWIvmkcEmk-8MACm32Hc1iiCA=", "properties": {"ref": "393", "@spider": "pricerite", "shop": "supermarket", "addr:full": "365 Lincoln St", "addr:city": "Manchester", "addr:state": "NH", "addr:postcode": "03103", "name": "Price Rite of Manchester", "phone": "6036219518", "website": "https://www.priceritemarketplace.com/sm/planning/rsid/393", "opening_hours": "Mon-Sat 8am-9pm  Sun 8am-8pm", "brand": "PriceRite", "brand:wikidata": "Q7242560", "nsi_id": "pricerite-dde59d"}, "geometry": {"type": "Point", "coordinates": [-71.4507, 42.98409]}},
{"type": "Feature", "id": "rbAYEPsSlOijWlxVGIQQifi2rtQ=", "properties": {"ref": "371", "@spider": "pricerite", "shop": "supermarket", "addr:full": "325 Valley Street", "addr:city": "Providence", "addr:state": "RI", "addr:postcode": "02940", "name": "Price Rite of Providence", "phone": "4012720721", "website": "https://www.priceritemarketplace.com/sm/planning/rsid/371", "opening_hours": "Mon-Sat 8am-9pm  Sun 8am-8pm", "brand": "PriceRite", "brand:wikidata": "Q7242560", "nsi_id": "pricerite-dde59d"}, "geometry": {"type": "Point", "coordinates": [-71.438, 41.8259]}},
{"type": "Feature", "id": "2zTvFvVvNqP2TeQHggfg79Ojlik=", "properties": {"ref": "405", "@spider": "pricerite", "shop": "supermarket", "addr:full": "611 Luzerne Street", "addr:city": "Scranton", "addr:state": "PA", "addr:postcode": "18504", "name": "Price Rite of Scranton", "phone": "5703415769", "website": "https://www.priceritemarketplace.com/sm/planning/rsid/405", "opening_hours": "Mon-Sat 8am-9pm  Sun 8am-8pm", "brand": "PriceRite", "brand:wikidata": "Q7242560", "nsi_id": "pricerite-dde59d"}, "geometry": {"type": "Point", "coordinates": [-75.6787, 41.4054]}},
{"type": "Feature", "id": "r-vl-IMHIA5LAFZeOm4MlP62X_Q=", "properties": {"ref": "335", "@spider": "pricerite", "shop": "supermarket", "addr:full": "465 Lonsdale Avenue", "addr:city": "Pawtucket", "addr:state": "RI", "addr:postcode": "02860", "name": "Price Rite of Pawtucket", "phone": "4017260073", "website": "https://www.priceritemarketplace.com/sm/planning/rsid/335", "opening_hours": "Mon-Sat 8am-9pm  Sun 8am-8pm", "brand": "PriceRite", "brand:wikidata": "Q7242560", "nsi_id": "pricerite-dde59d"}, "geometry": {"type": "Point", "coordinates": [-71.4001, 41.88074]}},
{"type": "Feature", "id": "dXLWn2iWrULysdqp_TOdEDnlsDs=", "properties": {"ref": "306", "@spider": "pricerite", "shop": "supermarket", "addr:full": "39 South Street", "addr:city": "New Bedford", "addr:state": "MA", "addr:postcode": "02740", "name": "Price Rite of South New Bedford", "phone": "5089900317", "website": "https://www.priceritemarketplace.com/sm/planning/rsid/306", "opening_hours": "Mon-Sat 8am-9pm  Sun 8am-8pm", "brand": "PriceRite", "brand:wikidata": "Q7242560", "nsi_id": "pricerite-dde59d"}, "geometry": {"type": "Point", "coordinates": [-70.919, 41.62528]}},
{"type": "Feature", "id": "6apap0Zoz2pMQkssXt4LfWgAtQI=", "properties": {"ref": "309", "@spider": "pricerite", "shop": "supermarket", "addr:full": "983 New Britain Ave", "addr:city": "West Hartford", "addr:state": "CT", "addr:postcode": "06110", "name": "Price Rite of West Hartford", "phone": "8609535816", "website": "https://www.priceritemarketplace.com/sm/planning/rsid/309", "opening_hours": "Mon-Sat 8am-9pm  Sun 8am-8pm", "brand": "PriceRite", "brand:wikidata": "Q7242560", "nsi_id": "pricerite-dde59d"}, "geometry": {"type": "Point", "coordinates": [-72.7208, 41.73014]}},
{"type": "Feature", "id": "WOKIOeJs3uaTs0dYtjVHoc4IA0s=", "properties": {"ref": "353", "@spider": "pricerite", "shop": "supermarket", "addr:full": "590 Windsor Avenue", "addr:city": "Windsor", "addr:state": "CT", "addr:postcode": "06095", "name": "Price Rite of Windsor", "phone": "8606838688", "website": "https://www.priceritemarketplace.com/sm/planning/rsid/353", "opening_hours": "Mon-Sat 8am-9pm  Sun 8am-8pm", "brand": "PriceRite", "brand:wikidata": "Q7242560", "nsi_id": "pricerite-dde59d"}, "geometry": {"type": "Point", "coordinates": [-72.6563, 41.82206]}},
{"type": "Feature", "id": "avsjOTkQNm8LKxnxGiM7wqoGJlc=", "properties": {"ref": "301", "@spider": "pricerite", "shop": "supermarket", "addr:full": "1869 Dixwell Avenue", "addr:city": "Hamden", "addr:state": "CT", "addr:postcode": "06514", "name": "Price Rite of Hamden", "phone": "2032810035", "website": "https://www.priceritemarketplace.com/sm/planning/rsid/301", "opening_hours": "Mon-Sat 8am-9pm  Sun 8am-8pm", "brand": "PriceRite", "brand:wikidata": "Q7242560", "nsi_id": "pricerite-dde59d"}, "geometry": {"type": "Point", "coordinates": [-72.9238, 41.36256]}},
{"type": "Feature", "id": "ZOEmatmMjGSYntG_VSQ4G0nvEBs=", "properties": {"ref": "408", "@spider": "pricerite", "shop": "supermarket", "addr:full": "2299 Cumberland St.", "addr:city": "Lebanon", "addr:state": "PA", "addr:postcode": "17042", "name": "Price Rite of Lebanon", "phone": "7172743730", "website": "https://www.priceritemarketplace.com/sm/planning/rsid/408", "opening_hours": "Monday - Saturday: 8 AM - 9 PM\nSunday: 8 AM - 8 PM", "brand": "PriceRite", "brand:wikidata": "Q7242560", "nsi_id": "pricerite-dde59d"}, "geometry": {"type": "Point", "coordinates": [-76.45413, 40.33936]}},
{"type": "Feature", "id": "HPcSVQu1QplnupGIqDNYSXIk_PY=", "properties": {"ref": "346", "@spider": "pricerite", "shop": "supermarket", "addr:full": "164 Boston Avenue", "addr:city": "Bridgeport", "addr:state": "CT", "addr:postcode": "06610", "name": "Price Rite of Bridgeport - Boston Ave", "phone": "2033336954", "website": "https://www.priceritemarketplace.com/sm/planning/rsid/346", "opening_hours": "Mon-Sat 8am-8pm  Sun 8am-8pm", "brand": "PriceRite", "brand:wikidata": "Q7242560", "nsi_id": "pricerite-dde59d"}, "geometry": {"type": "Point", "coordinates": [-73.1875, 41.20071]}},
{"type": "Feature", "id": "XtXbQ6jQ7UqWWqIQWvLi4h5laoY=", "properties": {"ref": "359", "@spider": "pricerite", "shop": "supermarket", "addr:full": "2000 Diamond Hill Road", "addr:city": "Woonsocket", "addr:state": "RI", "addr:postcode": "02895", "name": "Price Rite of Woonsocket", "phone": "4017626040", "website": "https://www.priceritemarketplace.com/sm/planning/rsid/359", "opening_hours": "Mon-Sat 8am-9pm  Sun 8am-8pm", "brand": "PriceRite", "brand:wikidata": "Q7242560", "nsi_id": "pricerite-dde59d"}, "geometry": {"type": "Point", "coordinates": [-71.4695, 42.01503]}},
{"type": "Feature", "id": "xhcFglODJm8mX1d8adYgUGDHj-M=", "properties": {"ref": "310", "@spider": "pricerite", "shop": "supermarket", "addr:full": "542 Southbridge Street", "addr:city": "Worcester", "addr:state": "MA", "addr:postcode": "01610", "name": "Price Rite of Southbridge Street", "phone": "5087976213", "website": "https://www.priceritemarketplace.com/sm/planning/rsid/310", "opening_hours": "Mon-Sat 8am-9pm  Sun 8am-8pm", "brand": "PriceRite", "brand:wikidata": "Q7242560", "nsi_id": "pricerite-dde59d"}, "geometry": {"type": "Point", "coordinates": [-71.8101, 42.2472]}},
{"type": "Feature", "id": "zmwolzq7HXqylcE5r4WpKWdVkBA=", "properties": {"ref": "577", "@spider": "pricerite", "shop": "supermarket", "addr:full": "3104 Queens Chapel Rd", "addr:city": "Hyattsville", "addr:state": "MD", "addr:postcode": "20782", "name": "Price Rite of Hyattsville", "phone": "3018871280", "website": "https://www.priceritemarketplace.com/sm/planning/rsid/577", "opening_hours": "Mon-Sat 8am-9pm  Sun 8am-8pm", "brand": "PriceRite", "brand:wikidata": "Q7242560", "nsi_id": "pricerite-dde59d"}, "geometry": {"type": "Point", "coordinates": [-76.96738, 38.9502]}},
{"type": "Feature", "id": "tQSh186rKrJNSw64-PMv5z4fda8=", "properties": {"ref": "358", "@spider": "pricerite", "shop": "supermarket", "addr:full": "140 Taunton Avenue", "addr:city": "Seekonk", "addr:state": "MA", "addr:postcode": "02771", "name": "Price Rite of Seekonk", "phone": "4014351851", "website": "https://www.priceritemarketplace.com/sm/planning/rsid/358", "opening_hours": "Mon-Sat 8am-9pm  Sun 8am-8pm", "brand": "PriceRite", "brand:wikidata": "Q7242560", "nsi_id": "pricerite-dde59d"}, "geometry": {"type": "Point", "coordinates": [-71.3412, 41.82622]}},
{"type": "Feature", "id": "wLkgpvVtJEg8fL-OYtqnJVsv4rM=", "properties": {"ref": "251", "@spider": "pricerite", "shop": "supermarket", "addr:full": "4224 Maple Road", "addr:city": "Amherst", "addr:state": "NY", "addr:postcode": "14226", "name": "Price Rite of Amherst", "phone": "7168364160", "website": "https://www.priceritemarketplace.com/sm/planning/rsid/251", "opening_hours": "Mon-Sat 8am-9pm  Sun 8am-8pm", "brand": "PriceRite", "brand:wikidata": "Q7242560", "nsi_id": "pricerite-dde59d"}, "geometry": {"type": "Point", "coordinates": [-78.80451, 42.99179]}},
{"type": "Feature", "id": "XHFUBEgoR01XsOf_y1nQTXmsAvc=", "properties": {"ref": "209", "@spider": "pricerite", "shop": "supermarket", "addr:full": "1230 University Avenue", "addr:city": "Rochester", "addr:state": "NY", "addr:postcode": "14607", "name": "Price Rite of Rochester - University Ave", "phone": "5852421980", "website": "https://www.priceritemarketplace.com/sm/planning/rsid/209", "opening_hours": "Mon-Sat 8am-9pm  Sun 8am-8pm", "brand": "PriceRite", "brand:wikidata": "Q7242560", "nsi_id": "pricerite-dde59d"}, "geometry": {"type": "Point", "coordinates": [-77.5696, 43.15139]}},
{"type": "Feature", "id": "5-d0sQbgDM-9yOlsdUcdjSAombo=", "properties": {"ref": "403", "@spider": "pricerite", "shop": "supermarket", "addr:full": "2142 South Queen Street", "addr:city": "York", "addr:state": "PA", "addr:postcode": "17403", "name": "Price Rite of York", "phone": "7178484466", "website": "https://www.priceritemarketplace.com/sm/planning/rsid/403", "opening_hours": "Mon-Sat 8am-9pm  Sun 8am-8pm", "brand": "PriceRite", "brand:wikidata": "Q7242560", "nsi_id": "pricerite-dde59d"}, "geometry": {"type": "Point", "coordinates": [-76.6909, 39.93376]}},
{"type": "Feature", "id": "0k0b8xBaT06jZiw9hXAQbqbp9fA=", "properties": {"ref": "374", "@spider": "pricerite", "shop": "supermarket", "addr:full": "1450 Hartford Ave", "addr:city": "Johnston", "addr:state": "RI", "addr:postcode": "02910", "name": "Price Rite of Johnston", "phone": "4014596713", "website": "https://www.priceritemarketplace.com/sm/planning/rsid/374", "opening_hours": "Mon-Sat 8am-9pm  Sun 8am-8pm", "brand": "PriceRite", "brand:wikidata": "Q7242560", "nsi_id": "pricerite-dde59d"}, "geometry": {"type": "Point", "coordinates": [-71.4793, 41.8224]}},
{"type": "Feature", "id": "NYEdWrBGiy_6yMswTf_-0islGpI=", "properties": {"ref": "248", "@spider": "pricerite", "shop": "supermarket", "addr:full": "611 South Avenue", "addr:city": "Syracuse", "addr:state": "NY", "addr:postcode": "13207", "name": "Price Rite of South Avenue", "phone": "3154222690", "website": "https://www.priceritemarketplace.com/sm/planning/rsid/248", "opening_hours": "Mon-Sat 8am-9pm  Sun 8am-8pm", "brand": "PriceRite", "brand:wikidata": "Q7242560", "nsi_id": "pricerite-dde59d"}, "geometry": {"type": "Point", "coordinates": [-76.15862, 43.03285]}},
{"type": "Feature", "id": "bx6Yni9cUM5lVP3ZlI6OAEak52E=", "properties": {"ref": "223", "@spider": "pricerite", "shop": "supermarket", "addr:full": "1716 Kenmore Avenue", "addr:city": "Buffalo", "addr:state": "NY", "addr:postcode": "14216", "name": "Price Rite of Kenmore Avenue", "phone": "7168734148", "website": "https://www.priceritemarketplace.com/sm/planning/rsid/223", "opening_hours": "Mon-Sat 8am-9pm  Sun 8am-8pm", "brand": "PriceRite", "brand:wikidata": "Q7242560", "nsi_id": "pricerite-dde59d"}, "geometry": {"type": "Point", "coordinates": [-78.8824, 42.9581]}},
{"type": "Feature", "id": "kTMF6eM2NYDek5uWUp-XUMA9zfM=", "properties": {"ref": "348", "@spider": "pricerite", "shop": "supermarket", "addr:full": "160 Silas Deane Highway", "addr:city": "Wethersfield", "addr:state": "CT", "addr:postcode": "06109", "name": "Price Rite of Wethersfield", "phone": "8602581951", "website": "https://www.priceritemarketplace.com/sm/planning/rsid/348", "opening_hours": "Mon-Sat 8am-9pm  Sun 8am-8pm", "brand": "PriceRite", "brand:wikidata": "Q7242560", "nsi_id": "pricerite-dde59d"}, "geometry": {"type": "Point", "coordinates": [-72.6678, 41.72278]}},
{"type": "Feature", "id": "qLEINuGWFLWzSabv7c49P4b14TU=", "properties": {"ref": "338", "@spider": "pricerite", "shop": "supermarket", "addr:full": "303 East Main Street", "addr:city": "Westfield", "addr:state": "MA", "addr:postcode": "01085", "name": "Price Rite of Westfield", "phone": "4135726773", "website": "https://www.priceritemarketplace.com/sm/planning/rsid/338", "opening_hours": "Mon-Sat 8am-9pm  Sun 8am-8pm", "brand": "PriceRite", "brand:wikidata": "Q7242560", "nsi_id": "pricerite-dde59d"}, "geometry": {"type": "Point", "coordinates": [-72.7272, 42.11279]}},
{"type": "Feature", "id": "0z-vWWFPgB07cUfMW8CatefefPE=", "properties": {"ref": "401", "@spider": "pricerite", "shop": "supermarket", "addr:full": "923-925 Providence Road", "addr:city": "Secane", "addr:state": "PA", "addr:postcode": "19018", "name": "Price Rite of Secane", "phone": "6103946573", "website": "https://www.priceritemarketplace.com/sm/planning/rsid/401", "opening_hours": "Mon-Sat 8am-9pm  Sun 8am-8pm", "brand": "PriceRite", "brand:wikidata": "Q7242560", "nsi_id": "pricerite-dde59d"}, "geometry": {"type": "Point", "coordinates": [-75.3024, 39.91763]}},
{"type": "Feature", "id": "HKe11ys_OtRW6jqtb75UeYrn-1o=", "properties": {"ref": "339", "@spider": "pricerite", "shop": "supermarket", "addr:full": "870 River Street", "addr:city": "Hyde Park", "addr:state": "MA", "addr:postcode": "02136", "name": "Price Rite of Hyde Park", "phone": "6173616812", "website": "https://www.priceritemarketplace.com/sm/planning/rsid/339", "opening_hours": "Mon-Sat 8am-9pm  Sun 8am-8pm", "brand": "PriceRite", "brand:wikidata": "Q7242560", "nsi_id": "pricerite-dde59d"}, "geometry": {"type": "Point", "coordinates": [-71.11, 42.26174]}},
{"type": "Feature", "id": "PMJ4wwUHAgdM-Q7kRaCqOn5FZuw=", "properties": {"ref": "311", "@spider": "pricerite", "shop": "supermarket", "addr:full": "695 Main Street", "addr:city": "Torrington", "addr:state": "CT", "addr:postcode": "06790", "name": "Price Rite of Torrington", "phone": "8604893864", "website": "https://www.priceritemarketplace.com/sm/planning/rsid/311", "opening_hours": "Mon-Sat 8am-9pm  Sun 8am-8pm", "brand": "PriceRite", "brand:wikidata": "Q7242560", "nsi_id": "pricerite-dde59d"}, "geometry": {"type": "Point", "coordinates": [-73.1217, 41.81462]}},
{"type": "Feature", "id": "AHiEHT2_Hxpk2zz8DBuaEvVDYZM=", "properties": {"ref": "208", "@spider": "pricerite", "shop": "supermarket", "addr:full": "375 Driving Park Ave", "addr:city": "Rochester", "addr:state": "NY", "addr:postcode": "14613", "name": "Price Rite of Rochester - Driving Park Ave", "phone": "5856478080", "website": "https://www.priceritemarketplace.com/sm/planning/rsid/208", "opening_hours": "Mon-Sat 8am-9pm  Sun 8am-8pm", "brand": "PriceRite", "brand:wikidata": "Q7242560", "nsi_id": "pricerite-dde59d"}, "geometry": {"type": "Point", "coordinates": [-77.64, 43.18079]}},
{"type": "Feature", "id": "FsTWFoZdip8NS1OJnYsoW5zPqzI=", "properties": {"ref": "458", "@spider": "pricerite", "shop": "supermarket", "addr:full": "4500 Buffalo Road", "addr:city": "Erie", "addr:state": "PA", "addr:postcode": "16510-2234", "name": "PriceRite of Erie", "phone": "8148981304", "website": "https://www.priceritemarketplace.com/sm/planning/rsid/458", "opening_hours": "Monday - Sunday 9am - 8pm", "brand": "PriceRite", "brand:wikidata": "Q7242560", "nsi_id": "pricerite-dde59d"}, "geometry": {"type": "Point", "coordinates": [-80.0003, 42.14884]}},
{"type": "Feature", "id": "eGXeHQB8JKLQqwI6DSQj9psrjvA=", "properties": {"ref": "312", "@spider": "pricerite", "shop": "supermarket", "addr:full": "945 Bald Hill Road", "addr:city": "Warwick", "addr:state": "RI", "addr:postcode": "02886", "name": "Price Rite of Warwick", "phone": "4018234044", "website": "https://www.priceritemarketplace.com/sm/planning/rsid/312", "opening_hours": "Mon-Sat 8am-9pm  Sun 8am-8pm", "brand": "PriceRite", "brand:wikidata": "Q7242560", "nsi_id": "pricerite-dde59d"}, "geometry": {"type": "Point", "coordinates": [-71.489, 41.71295]}},
{"type": "Feature", "id": "QmZ2co_yFD38qhhSSt-x_YTBKao=", "properties": {"ref": "356", "@spider": "pricerite", "shop": "supermarket", "addr:full": "139 Hathaway Road", "addr:city": "New Bedford", "addr:state": "MA", "addr:postcode": "02746", "name": "Price Rite of New Bedford", "phone": "5089923719", "website": "https://www.priceritemarketplace.com/sm/planning/rsid/356", "opening_hours": "Mon-Sat 8am-9pm  Sun 8am-8pm", "brand": "PriceRite", "brand:wikidata": "Q7242560", "nsi_id": "pricerite-dde59d"}, "geometry": {"type": "Point", "coordinates": [-70.9452, 41.66023]}},
{"type": "Feature", "id": "aCrP8DpPoInHYiGSanQnx6HA2K4=", "properties": {"ref": "328", "@spider": "pricerite", "shop": "supermarket", "addr:full": "666 Washington Street", "addr:city": "Stoughton", "addr:state": "MA", "addr:postcode": "02072", "name": "Price Rite of Stoughton", "phone": "7818474022", "website": "https://www.priceritemarketplace.com/sm/planning/rsid/328", "opening_hours": "Mon-Sat 8am-9pm  Sun 8am-8pm", "brand": "PriceRite", "brand:wikidata": "Q7242560", "nsi_id": "pricerite-dde59d"}, "geometry": {"type": "Point", "coordinates": [-71.102, 42.12761]}},
{"type": "Feature", "id": "SVQIfbfzAVmI8d_2fmkdhPqnXUY=", "properties": {"ref": "341", "@spider": "pricerite", "shop": "supermarket", "addr:full": "255 Squire Rd", "addr:city": "Revere", "addr:state": "MA", "addr:postcode": "02151", "name": "Price Rite of Revere", "phone": "7812866813", "website": "https://www.priceritemarketplace.com/sm/planning/rsid/341", "opening_hours": "Mon-Sat 7am-10pm  Sun 7am-8pm", "brand": "PriceRite", "brand:wikidata": "Q7242560", "nsi_id": "pricerite-dde59d"}, "geometry": {"type": "Point", "coordinates": [-71.0125, 42.42623]}},
{"type": "Feature", "id": "1dCD4LrcLqQ_TlZ7kh_YmzG9JDU=", "properties": {"ref": "361", "@spider": "pricerite", "shop": "supermarket", "addr:full": "1600 Memorial Drive", "addr:city": "Chicopee", "addr:state": "MA", "addr:postcode": "01020", "name": "Price Rite of Chicopee", "phone": "4135387700", "website": "https://www.priceritemarketplace.com/sm/planning/rsid/361", "opening_hours": "Mon-Sat 8am-9pm  Sun 8am-8pm", "brand": "PriceRite", "brand:wikidata": "Q7242560", "nsi_id": "pricerite-dde59d"}, "geometry": {"type": "Point", "coordinates": [-72.573, 42.20009]}},
{"type": "Feature", "id": "OmYrBUfToXdQ64p9ETBKwgqJ7Yc=", "properties": {"ref": "352", "@spider": "pricerite", "shop": "supermarket", "addr:full": "633 Boston Rd", "addr:city": "Springfield", "addr:state": "MA", "addr:postcode": "01119", "name": "Price Rite of Springfield", "phone": "4137962934", "website": "https://www.priceritemarketplace.com/sm/planning/rsid/352", "opening_hours": "Mon-Sat 8am-9pm  Sun 8am-8pm", "brand": "PriceRite", "brand:wikidata": "Q7242560", "nsi_id": "pricerite-dde59d"}, "geometry": {"type": "Point", "coordinates": [-72.5234, 42.13477]}},
{"type": "Feature", "id": "2qHHTCZBm056qf0mW4r021UWQ9Q=", "properties": {"ref": "334", "@spider": "pricerite", "shop": "supermarket", "addr:full": "117 Gold Star Blvd", "addr:city": "Worcester", "addr:state": "MA", "addr:postcode": "01606", "name": "Price Rite of Worcester", "phone": "5088537443", "website": "https://www.priceritemarketplace.com/sm/planning/rsid/334", "opening_hours": "Mon-Sat 8am-9pm  Sun 8am-8pm", "brand": "PriceRite", "brand:wikidata": "Q7242560", "nsi_id": "pricerite-dde59d"}, "geometry": {"type": "Point", "coordinates": [-71.8039, 42.29187]}},
{"type": "Feature", "id": "Pvtl6SlX7rjOx76-CiMStKEOBbY=", "properties": {"ref": "127", "@spider": "pricerite", "shop": "supermarket", "addr:full": "301 Main Street", "addr:city": "Paterson", "addr:state": "NJ", "addr:postcode": "07505", "name": "Price Rite of Paterson", "phone": "9735235321", "website": "https://www.priceritemarketplace.com/sm/planning/rsid/127", "opening_hours": "Mon-Sat 8am-9pm  Sun 8am-9pm", "brand": "PriceRite", "brand:wikidata": "Q7242560", "nsi_id": "pricerite-dde59d"}, "geometry": {"type": "Point", "coordinates": [-74.17267, 40.91509]}},
{"type": "Feature", "id": "CuAAG39YLR6zmkTkH6K4M23Nlns=", "properties": {"ref": "404", "@spider": "pricerite", "shop": "supermarket", "addr:full": "3812 Union Deposit Road", "addr:city": "Harrisburg", "addr:state": "PA", "addr:postcode": "17109", "name": "Price Rite of Harrisburg", "phone": "7175451689", "website": "https://www.priceritemarketplace.com/sm/planning/rsid/404", "opening_hours": "Mon-Sat 8am-9pm  Sun 8am-8pm", "brand": "PriceRite", "brand:wikidata": "Q7242560", "nsi_id": "pricerite-dde59d"}, "geometry": {"type": "Point", "coordinates": [-76.8264, 40.27844]}},
{"type": "Feature", "id": "yX2Zi6OudX4OOgBrg_qbmXuqdgo=", "properties": {"ref": "271", "@spider": "pricerite", "shop": "supermarket", "addr:full": "2330 Watt Street", "addr:city": "Schenectady", "addr:state": "NY", "addr:postcode": "12304", "name": "Price Rite of Schenectady", "phone": "5182431100", "website": "https://www.priceritemarketplace.com/sm/planning/rsid/271", "opening_hours": "Mon-Sat 8am-9pm  Sun 8am-8pm", "brand": "PriceRite", "brand:wikidata": "Q7242560", "nsi_id": "pricerite-dde59d"}, "geometry": {"type": "Point", "coordinates": [-73.9169, 42.78467]}},
{"type": "Feature", "id": "l6AylZ5HBaGU9nejyThyGHhqRFI=", "properties": {"ref": "375", "@spider": "pricerite", "shop": "supermarket", "addr:full": "500 Geneva Ave", "addr:city": "Dorchester", "addr:state": "MA", "addr:postcode": "02122", "name": "Price Rite of Dorchester", "phone": "(617) 514-5539", "website": "https://www.priceritemarketplace.com/sm/planning/rsid/375", "opening_hours": "Mon-Sat 8am-8pm \nSun 8am-6pm", "brand": "PriceRite", "brand:wikidata": "Q7242560", "nsi_id": "pricerite-dde59d"}, "geometry": {"type": "Point", "coordinates": [-71.072105, 42.302708]}},
{"type": "Feature", "id": "qfD0rhtQYKgnzDXDhhqu6W4UPM0=", "properties": {"ref": "378", "@spider": "pricerite", "shop": "supermarket", "addr:full": "240  E. Ashland Street", "addr:city": "Brockton", "addr:state": "MA", "addr:postcode": "02302", "name": "Price Rite of Brockton", "phone": "508-584-4472", "website": "https://www.priceritemarketplace.com/sm/planning/rsid/378", "opening_hours": "Mon - Sat 8am to 8pm\nSun 8am to 6pm\n", "brand": "PriceRite", "brand:wikidata": "Q7242560", "nsi_id": "pricerite-dde59d"}, "geometry": {"type": "Point", "coordinates": [-71.018379, 42.083431]}},
{"type": "Feature", "id": "B1_4WELo-IK-VRQABSaWHhCqzjE=", "properties": {"ref": "377", "@spider": "pricerite", "shop": "supermarket", "addr:full": "330 Martin Luther King Jr Blvd", "addr:city": "Roxbury", "addr:state": "MA", "addr:postcode": "02119", "name": "Price Rite of Roxbury", "phone": "617-427-0094", "website": "https://www.priceritemarketplace.com/sm/planning/rsid/377", "opening_hours": "Mon - Sat 8am to 8pm\nSun 8am to 6pm", "brand": "PriceRite", "brand:wikidata": "Q7242560", "nsi_id": "pricerite-dde59d"}, "geometry": {"type": "Point", "coordinates": [-71.0953294, 42.3250978]}},
{"type": "Feature", "id": "FI9TA5uTVn84J9tYUsg4i-RFDIg=", "properties": {"ref": "376", "@spider": "pricerite", "shop": "supermarket", "addr:full": "650 American Legion Highway ", "addr:city": "Roslindale", "addr:state": "MA", "addr:postcode": "02131", "name": "Price Rite of Roslindale", "phone": "(617) 522-0066", "website": "https://www.priceritemarketplace.com/sm/planning/rsid/376", "opening_hours": "Mon - Sat 8am to 8pm\nSun 8am to 6pm", "brand": "PriceRite", "brand:wikidata": "Q7242560", "nsi_id": "pricerite-dde59d"}, "geometry": {"type": "Point", "coordinates": [-71.109283, 42.285839]}}]}