{"type":"FeatureCollection","features":[{"type": "Feature", "id": "vDQ5YnFDyv7o_C7WVdrjgJjhul0=", "properties": {"ref": "177", "@spider": "pricechopper", "shop": "supermarket", "addr:street_address": "2725 Route 5 North", "addr:city": "Windsor", "addr:state": "VT", "addr:postcode": "05089", "name": "Price Chopper Windsor,VT (Store #177)", "phone": "(802) 674-3470", "website": "https://www.pricechopper.com/stores/vt/windsor/price-chopper-177.html", "opening_hours": "Mo-Su 06:00-23:00", "image": "https://assets.stores.pricechopper.com.prod.rioseo.com/images/pricechopper-logo.png", "brand": "Price Chopper", "brand:wikidata": "Q7242574", "nsi_id": "pricechopper-7d1b36"}, "geometry": {"type": "Point", "coordinates": [-72.5216377, 43.4655353]}},
{"type": "Feature", "id": "yRhkeeHCPCaicFqXB7O_npTuxx0=", "properties": {"ref": "122", "@spider": "pricechopper", "shop": "supermarket", "addr:street_address": "100 Westway Mall Dr.", "addr:city": "West Rutland", "addr:state": "VT", "addr:postcode": "05777", "name": "Price Chopper West Rutland,VT (Store #122)", "phone": "(802) 438-6119", "website": "https://www.pricechopper.com/stores/vt/westrutland/price-chopper-122.html", "opening_hours": "Mo-Su 06:00-23:00", "image": "https://assets.stores.pricechopper.com.prod.rioseo.com/images/pricechopper-logo.png", "brand": "Price Chopper", "brand:wikidata": "Q7242574", "nsi_id": "pricechopper-7d1b36"}, "geometry": {"type": "Point", "coordinates": [-73.042486489238, 43.5925479929835]}},
{"type": "Feature", "id": "_1_xFWwPOg-lp4yF1Dy5amfU9mk=", "properties": {"ref": "141", "@spider": "pricechopper", "shop": "supermarket", "addr:street_address": "857 Memorial Drive", "addr:city": "St. Johnsbury", "addr:state": "VT", "addr:postcode": "05819", "name": "Price Chopper St. Johnsbury,VT (Store #141)", "phone": "(802) 748-1109", "website": "https://www.pricechopper.com/stores/vt/st-johnsbury/price-chopper-141.html", "opening_hours": "Mo-Su 06:00-23:00", "image": "https://assets.stores.pricechopper.com.prod.rioseo.com/images/pricechopper-logo.png", "brand": "Price Chopper", "brand:wikidata": "Q7242574", "nsi_id": "pricechopper-7d1b36"}, "geometry": {"type": "Point", "coordinates": [-72.0169189, 44.4444858]}},
{"type": "Feature", "id": "ZK-DAYkSNU5hbzmAhJo7zv4QuVY=", "properties": {"ref": "127", "@spider": "pricechopper", "shop": "supermarket", "addr:street_address": "170 Swanton Rd. Rte. 7", "addr:city": "St. Albans", "addr:state": "VT", "addr:postcode": "05478", "name": "Price Chopper St. Albans,VT (Store #127)", "phone": "(802) 524-2033", "website": "https://www.pricechopper.com/stores/vt/st-albans/price-chopper-127.html", "opening_hours": "Mo-Su 06:00-23:00", "image": "https://assets.stores.pricechopper.com.prod.rioseo.com/images/pricechopper-logo.png", "brand": "Price Chopper", "brand:wikidata": "Q7242574", "nsi_id": "pricechopper-7d1b36"}, "geometry": {"type": "Point", "coordinates": [-73.08378, 44.83582]}},
{"type": "Feature", "id": "QW1mE8iOV2lDJWRCKxd5qpnNggQ=", "properties": {"ref": "131", "@spider": "pricechopper", "shop": "supermarket", "addr:street_address": "38 Rutland Shopping Plaza", "addr:city": "Rutland", "addr:state": "VT", "addr:postcode": "05701", "name": "Price Chopper Rutland,VT (Store #131)", "phone": "(802) 747-7880", "website": "https://www.pricechopper.com/stores/vt/rutland/price-chopper-131.html", "opening_hours": "Mo-Su 06:00-00:00", "image": "https://assets.stores.pricechopper.com.prod.rioseo.com/images/pricechopper-logo.png", "brand": "Price Chopper", "brand:wikidata": "Q7242574", "nsi_id": "pricechopper-7d1b36"}, "geometry": {"type": "Point", "coordinates": [-72.9784273, 43.603847]}},
{"type": "Feature", "id": "yIqUx-ismoc7Tp-JkJIORKVxYbw=", "properties": {"ref": "219", "@spider": "pricechopper", "shop": "supermarket", "addr:street_address": "56 Commons Drive", "addr:city": "Newport", "addr:state": "VT", "addr:postcode": "05855", "name": "Price Chopper Newport,VT (Store #219)", "phone": "(802) 334-1475", "website": "https://www.pricechopper.com/stores/vt/newport/price-chopper-219.html", "opening_hours": "Mo-Su 06:00-23:00", "image": "https://assets.stores.pricechopper.com.prod.rioseo.com/images/pricechopper-logo.png", "brand": "Price Chopper", "brand:wikidata": "Q7242574", "nsi_id": "pricechopper-7d1b36"}, "geometry": {"type": "Point", "coordinates": [-72.160491, 44.9535812]}},
{"type": "Feature", "id": "xztWHWdoKYBqvr-04pwg_gpKNLA=", "properties": {"ref": "137", "@spider": "pricechopper", "shop": "supermarket", "addr:street_address": "Rt 15 & Munson Ave", "addr:city": "Morrisville", "addr:state": "VT", "addr:postcode": "05661", "name": "Price Chopper Morrisville,VT (Store #137)", "phone": "(802) 888-1220", "website": "https://www.pricechopper.com/stores/vt/morrisville/price-chopper-137.html", "opening_hours": "Mo-Su 06:00-23:00", "image": "https://assets.stores.pricechopper.com.prod.rioseo.com/images/pricechopper-logo.png", "brand": "Price Chopper", "brand:wikidata": "Q7242574", "nsi_id": "pricechopper-7d1b36"}, "geometry": {"type": "Point", "coordinates": [-72.590255, 44.574314]}},
{"type": "Feature", "id": "ZG8yyhdVevEWcrFH10w88aporXw=", "properties": {"ref": "125", "@spider": "pricechopper", "shop": "supermarket", "addr:street_address": "263 Depot Street, Suite 1", "addr:city": "Manchester", "addr:state": "VT", "addr:postcode": "05255", "name": "Price Chopper Manchester,VT (Store #125)", "phone": "(802) 362-9896", "website": "https://www.pricechopper.com/stores/vt/manchester/price-chopper-125.html", "opening_hours": "Mo-Su 06:00-22:00", "image": "https://assets.stores.pricechopper.com.prod.rioseo.com/images/pricechopper-logo.png", "brand": "Price Chopper", "brand:wikidata": "Q7242574", "nsi_id": "pricechopper-7d1b36"}, "geometry": {"type": "Point", "coordinates": [-73.0522417, 43.1756492]}},
{"type": "Feature", "id": "ipwPGKFoG2Gp7IvfP9mbIlbGaNc=", "properties": {"ref": "192", "@spider": "pricechopper", "shop": "supermarket", "addr:street_address": "90 Center Road", "addr:city": "Essex Junction", "addr:state": "VT", "addr:postcode": "05452", "name": "Price Chopper Essex Junction,VT (Store #192)", "phone": "(802) 878-5163", "website": "https://www.pricechopper.com/stores/vt/essexjunction/price-chopper-192.html", "opening_hours": "Mo-Su 06:00-23:00", "image": "https://assets.stores.pricechopper.com.prod.rioseo.com/images/pricechopper-logo.png", "brand": "Price Chopper", "brand:wikidata": "Q7242574", "nsi_id": "pricechopper-7d1b36"}, "geometry": {"type": "Point", "coordinates": [-73.0658111, 44.5118603]}},
{"type": "Feature", "id": "XQ1Pomj3hwmzCwYvMtlRySkto2E=", "properties": {"ref": "230", "@spider": "pricechopper", "shop": "supermarket", "addr:street_address": "1184 Prim Rd", "addr:city": "Colchester", "addr:state": "VT", "addr:postcode": "05446", "name": "Price Chopper Colchester,VT (Store #230)", "phone": "(802) 651-9409", "website": "https://www.pricechopper.com/stores/vt/colchester/price-chopper-230.html", "opening_hours": "Mo-Su 06:00-23:00", "image": "https://assets.stores.pricechopper.com.prod.rioseo.com/images/pricechopper-logo.png", "brand": "Price Chopper", "brand:wikidata": "Q7242574", "nsi_id": "pricechopper-7d1b36"}, "geometry": {"type": "Point", "coordinates": [-73.2475535, 44.5378852]}},
{"type": "Feature", "id": "KgcTcW4PvkTL-HCT7tYmwcMs4Y8=", "properties": {"ref": "228", "@spider": "pricechopper", "shop": "supermarket", "addr:street_address": "41 Hinesburg Road", "addr:city": "Burlington", "addr:state": "VT", "addr:postcode": "05403", "name": "Price Chopper Burlington,VT (Store #228)", "phone": "(802) 864-9176", "website": "https://www.pricechopper.com/stores/vt/burlington/price-chopper-228.html", "opening_hours": "Mo-Su 06:00-23:00", "image": "https://assets.stores.pricechopper.com.prod.rioseo.com/images/pricechopper-logo.png", "brand": "Price Chopper", "brand:wikidata": "Q7242574", "nsi_id": "pricechopper-7d1b36"}, "geometry": {"type": "Point", "coordinates": [-73.1728931, 44.4658254]}},
{"type": "Feature", "id": "lIKwajIipqd-VNLdSVmNiWq5T_Y=", "properties": {"ref": "136", "@spider": "pricechopper", "shop": "supermarket", "addr:street_address": "499 Canal Street", "addr:city": "Brattleboro", "addr:state": "VT", "addr:postcode": "05301", "name": "Market 32 Brattleboro,VT (Store #136)", "phone": "(802) 254-3424", "website": "https://www.pricechopper.com/stores/vt/brattleboro/market-32-136.html", "opening_hours": "Mo-Su 06:00-00:00", "image": "https://assets.stores.pricechopper.com.prod.rioseo.com/images/pricechopper-logo.png", "brand": "Market 32", "brand:wikidata": "Q7242574", "nsi_id": "pricechopper-7d1b36"}, "geometry": {"type": "Point", "coordinates": [-72.5672496, 42.8389843]}},
{"type": "Feature", "id": "iT9B7MSsLkkfVqdKdUOsR2TEVRA=", "properties": {"ref": "173", "@spider": "pricechopper", "shop": "supermarket", "addr:street_address": "1026 Wyoming Ave.", "addr:city": "Wyoming", "addr:state": "PA", "addr:postcode": "18644", "name": "Price Chopper Wyoming,PA (Store #173)", "phone": "(570) 693-3997", "website": "https://www.pricechopper.com/stores/pa/wyoming/price-chopper-173.html", "opening_hours": "Mo-Su 06:00-00:00", "image": "https://assets.stores.pricechopper.com.prod.rioseo.com/images/pricechopper-logo.png", "brand": "Price Chopper", "brand:wikidata": "Q7242574", "nsi_id": "pricechopper-7d1b36"}, "geometry": {"type": "Point", "coordinates": [-75.8518521, 41.2998035]}},
{"type": "Feature", "id": "NeX4fsxR3kCZhNzGaKrTHcszI8s=", "properties": {"ref": "24", "@spider": "pricechopper", "shop": "supermarket", "addr:street_address": "60 High St", "addr:city": "West Carthage", "addr:state": "NY", "addr:postcode": "13619", "name": "Price Chopper West Carthage,NY (Store #24)", "phone": "(315) 493-6668", "website": "https://www.pricechopper.com/stores/ny/westcarthage/price-chopper-24.html", "opening_hours": "Mo-Su 06:00-23:00", "image": "https://assets.stores.pricechopper.com.prod.rioseo.com/images/pricechopper-logo.png", "brand": "Price Chopper", "brand:wikidata": "Q7242574", "nsi_id": "pricechopper-7d1b36"}, "geometry": {"type": "Point", "coordinates": [-75.6246276, 43.970297]}},
{"type": "Feature", "id": "N0UqAlLXCDY0IQ_hO0rnRJVBu6A=", "properties": {"ref": "227", "@spider": "pricechopper", "shop": "supermarket", "addr:street_address": "370 Miracle Mile", "addr:city": "West Lebanon", "addr:state": "NH", "addr:postcode": "03784", "name": "Price Chopper West Lebanon,NH (Store #227)", "phone": "(603) 448-3970", "website": "https://www.pricechopper.com/stores/nh/westlebanon/price-chopper-227.html", "opening_hours": "Mo-Su 06:00-23:00", "image": "https://assets.stores.pricechopper.com.prod.rioseo.com/images/pricechopper-logo.png", "brand": "Price Chopper", "brand:wikidata": "Q7242574", "nsi_id": "pricechopper-7d1b36"}, "geometry": {"type": "Point", "coordinates": [-72.2878091, 43.637099]}},
{"type": "Feature", "id": "g7ws7xK5Xj6t3DxIZasHn0J8tZY=", "properties": {"ref": "194", "@spider": "pricechopper", "shop": "supermarket", "addr:street_address": "72 Pullman St.", "addr:city": "Worcester", "addr:state": "MA", "addr:postcode": "01606", "name": "Market 32 Worcester,MA (Store #194)", "phone": "(508) 854-8474", "website": "https://www.pricechopper.com/stores/ma/worcester/market-32-194.html", "opening_hours": "Mo-Su 06:00-00:00", "image": "https://assets.stores.pricechopper.com.prod.rioseo.com/images/pricechopper-logo.png", "brand": "Market 32", "brand:wikidata": "Q7242574", "nsi_id": "pricechopper-7d1b36"}, "geometry": {"type": "Point", "coordinates": [-71.7971846, 42.3231161]}},
{"type": "Feature", "id": "leSneduLrQJ5wmTIF-rhBpmEXbY=", "properties": {"ref": "221", "@spider": "pricechopper", "shop": "supermarket", "addr:street_address": "675 Poquonock Ave", "addr:city": "Windsor", "addr:state": "CT", "addr:postcode": "06095", "name": "Price Chopper Windsor,CT (Store #221)", "phone": "(860) 687-1411", "website": "https://www.pricechopper.com/stores/ct/windsor/price-chopper-221.html", "opening_hours": "Mo-Su 06:00-23:00", "image": "https://assets.stores.pricechopper.com.prod.rioseo.com/images/pricechopper-logo.png", "brand": "Price Chopper", "brand:wikidata": "Q7242574", "nsi_id": "pricechopper-7d1b36"}, "geometry": {"type": "Point", "coordinates": [-72.6614971, 41.8706791]}},
{"type": "Feature", "id": "V7LJLkhaZwZpEwNdXQQmH6_c_EI=", "properties": {"ref": "179", "@spider": "pricechopper", "shop": "supermarket", "addr:street_address": "50 Cambridge Street", "addr:city": "Worcester", "addr:state": "MA", "addr:postcode": "01603", "name": "Price Chopper Worcester,MA (Store #179)", "phone": "(508) 363-4870", "website": "https://www.pricechopper.com/stores/ma/worcester/price-chopper-179.html", "opening_hours": "Mo-Su 06:00-23:00", "image": "https://assets.stores.pricechopper.com.prod.rioseo.com/images/pricechopper-logo.png", "brand": "Price Chopper", "brand:wikidata": "Q7242574", "nsi_id": "pricechopper-7d1b36"}, "geometry": {"type": "Point", "coordinates": [-71.8298947, 42.2429629]}},
{"type": "Feature", "id": "QpejpGlhJAkgSxsNd8Fqk1AP0RM=", "properties": {"ref": "160", "@spider": "pricechopper", "shop": "supermarket", "addr:street_address": "564 Southwest Cutoff", "addr:city": "Worcester", "addr:state": "MA", "addr:postcode": "01610", "name": "Price Chopper Worcester,MA (Store #160)", "phone": "(508) 752-3737", "website": "https://www.pricechopper.com/stores/ma/worcester/price-chopper-160.html", "opening_hours": "Mo-Su 06:00-23:00", "image": "https://assets.stores.pricechopper.com.prod.rioseo.com/images/pricechopper-logo.png", "brand": "Price Chopper", "brand:wikidata": "Q7242574", "nsi_id": "pricechopper-7d1b36"}, "geometry": {"type": "Point", "coordinates": [-71.7984807, 42.2135778]}},
{"type": "Feature", "id": "WsbeYLh_MTSMktNWQXmAmcnKtjM=", "properties": {"ref": "151", "@spider": "pricechopper", "shop": "supermarket", "addr:street_address": "29 Sunderland Road", "addr:city": "Worcester", "addr:state": "MA", "addr:postcode": "01604", "name": "Price Chopper Worcester,MA (Store #151)", "phone": "(508) 752-7061", "website": "https://www.pricechopper.com/stores/ma/worcester/price-chopper-151.html", "opening_hours": "Mo-Su 06:00-23:00", "image": "https://assets.stores.pricechopper.com.prod.rioseo.com/images/pricechopper-logo.png", "brand": "Price Chopper", "brand:wikidata": "Q7242574", "nsi_id": "pricechopper-7d1b36"}, "geometry": {"type": "Point", "coordinates": [-71.7724438, 42.2469992]}},
{"type": "Feature", "id": "Hx1rT9T0zhkgs_fhYValcFYXtDI=", "properties": {"ref": "148", "@spider": "pricechopper", "shop": "supermarket", "addr:street_address": "221-223 Park Ave.", "addr:city": "Worcester", "addr:state": "MA", "addr:postcode": "01609", "name": "Price Chopper Worcester,MA (Store #148)", "phone": "(508) 798-5178", "website": "https://www.pricechopper.com/stores/ma/worcester/price-chopper-148.html", "opening_hours": "Mo-Su 06:00-23:00", "image": "https://assets.stores.pricechopper.com.prod.rioseo.com/images/pricechopper-logo.png", "brand": "Price Chopper", "brand:wikidata": "Q7242574", "nsi_id": "pricechopper-7d1b36"}, "geometry": {"type": "Point", "coordinates": [-71.8149758, 42.2708796]}},
{"type": "Feature", "id": "I52WyxXuCzMQwQrU92lREgP5Lks=", "properties": {"ref": "167", "@spider": "pricechopper", "shop": "supermarket", "addr:street_address": "285 Plainfield Road", "addr:city": "West Lebanon", "addr:state": "NH", "addr:postcode": "03784", "name": "Price Chopper West Lebanon,NH (Store #167)", "phone": "(603) 298-9670", "website": "https://www.pricechopper.com/stores/nh/westlebanon/price-chopper-167.html", "opening_hours": "Mo-Su 06:00-23:00", "image": "https://assets.stores.pricechopper.com.prod.rioseo.com/images/pricechopper-logo.png", "brand": "Price Chopper", "brand:wikidata": "Q7242574", "nsi_id": "pricechopper-7d1b36"}, "geometry": {"type": "Point", "coordinates": [-72.3226893, 43.6246123]}},
{"type": "Feature", "id": "EwJMP1j_zCp1O1PLUkXeFGmEPxc=", "properties": {"ref": "165", "@spider": "pricechopper", "shop": "supermarket", "addr:street_address": "595 Shelburne Road", "addr:city": "Burlington", "addr:state": "VT", "addr:postcode": "05401", "name": "Market 32 Burlington,VT (Store #165)", "phone": "(802) 651-9826", "website": "https://www.pricechopper.com/stores/vt/burlington/market-32-165.html", "opening_hours": "Mo-Su 06:00-00:00", "image": "https://assets.stores.pricechopper.com.prod.rioseo.com/images/pricechopper-logo.png", "brand": "Market 32", "brand:wikidata": "Q7242574", "nsi_id": "pricechopper-7d1b36"}, "geometry": {"type": "Point", "coordinates": [-73.2109799, 44.4493877]}},
{"type": "Feature", "id": "Y8YCbJBxTcIlJMmbgKkOPZSqgF8=", "properties": {"ref": "156", "@spider": "pricechopper", "shop": "supermarket", "addr:street_address": "990 Torringford St.", "addr:city": "Torrington", "addr:state": "CT", "addr:postcode": "06790", "name": "Market 32 Torrington,CT (Store #156)", "phone": "(860) 496-5051", "website": "https://www.pricechopper.com/stores/ct/torrington/market-32-156.html", "opening_hours": "Mo-Su 06:00-23:00", "image": "https://assets.stores.pricechopper.com.prod.rioseo.com/images/pricechopper-logo.png", "brand": "Market 32", "brand:wikidata": "Q7242574", "nsi_id": "pricechopper-7d1b36"}, "geometry": {"type": "Point", "coordinates": [-73.0779735, 41.8195183]}},
{"type": "Feature", "id": "Koxtp-jzhoOkpW7SBnkhXms3y1E=", "properties": {"ref": "243", "@spider": "pricechopper", "shop": "supermarket", "addr:street_address": "1220 Storrs Rd", "addr:city": "Storrs", "addr:state": "CT", "addr:postcode": "06268", "name": "Price Chopper Storrs,CT (Store #243)", "phone": "(860) 553-6555", "website": "https://www.pricechopper.com/stores/ct/storrs/price-chopper-243.html", "opening_hours": "Mo-Su 06:00-23:00", "image": "https://assets.stores.pricechopper.com.prod.rioseo.com/images/pricechopper-logo.png", "brand": "Price Chopper", "brand:wikidata": "Q7242574", "nsi_id": "pricechopper-7d1b36"}, "geometry": {"type": "Point", "coordinates": [-72.2414681, 41.8023351]}},
{"type": "Feature", "id": "Cf6tIiCjRhRV9moB3SJ45ZkDSbI=", "properties": {"ref": "203", "@spider": "pricechopper", "shop": "supermarket", "addr:street_address": "410 Queen Street", "addr:city": "Southington", "addr:state": "CT", "addr:postcode": "06489", "name": "Price Chopper Southington,CT (Store #203)", "phone": "(860) 621-2128", "website": "https://www.pricechopper.com/stores/ct/southington/price-chopper-203.html", "opening_hours": "Mo-Su 06:00-23:00", "image": "https://assets.stores.pricechopper.com.prod.rioseo.com/images/pricechopper-logo.png", "brand": "Price Chopper", "brand:wikidata": "Q7242574", "nsi_id": "pricechopper-7d1b36"}, "geometry": {"type": "Point", "coordinates": [-72.8757324, 41.6275279]}},
{"type": "Feature", "id": "FO3op5GkwpcMHhoIHDmLgHWNd0w=", "properties": {"ref": "189", "@spider": "pricechopper", "shop": "supermarket", "addr:street_address": "251 Kennedy Drive", "addr:city": "Putnam", "addr:state": "CT", "addr:postcode": "06260", "name": "Price Chopper Putnam,CT (Store #189)", "phone": "(860) 928-3030", "website": "https://www.pricechopper.com/stores/ct/putnam/price-chopper-189.html", "opening_hours": "Mo-Su 06:00-23:00", "image": "https://assets.stores.pricechopper.com.prod.rioseo.com/images/pricechopper-logo.png", "brand": "Price Chopper", "brand:wikidata": "Q7242574", "nsi_id": "pricechopper-7d1b36"}, "geometry": {"type": "Point", "coordinates": [-71.9066028, 41.9192756]}},
{"type": "Feature", "id": "r06RHZb23GbtVRojgo8rZv76Vh4=", "properties": {"ref": "248", "@spider": "pricechopper", "shop": "supermarket", "addr:street_address": "140 Main Street", "addr:city": "Oxford", "addr:state": "CT", "addr:postcode": "06478", "name": "Market 32 Oxford,CT (Store #248)", "phone": "(203) 463-7990", "website": "https://www.pricechopper.com/stores/ct/oxford/market-32-248.html", "opening_hours": "Mo-Su 06:00-23:00", "image": "https://assets.stores.pricechopper.com.prod.rioseo.com/images/pricechopper-logo.png", "brand": "Market 32", "brand:wikidata": "Q7242574", "nsi_id": "pricechopper-7d1b36"}, "geometry": {"type": "Point", "coordinates": [-73.0741563, 41.3861023]}},
{"type": "Feature", "id": "FWtZO_RHW-Vuuh3EFHUWDsg62aw=", "properties": {"ref": "209", "@spider": "pricechopper", "shop": "supermarket", "addr:street_address": "2985 Berlin Turnpike", "addr:city": "Newington", "addr:state": "CT", "addr:postcode": "06111", "name": "Price Chopper Newington,CT (Store #209)", "phone": "(860) 665-8342", "website": "https://www.pricechopper.com/stores/ct/newington/price-chopper-209.html", "opening_hours": "Mo-Su 06:00-23:00", "image": "https://assets.stores.pricechopper.com.prod.rioseo.com/images/pricechopper-logo.png", "brand": "Price Chopper", "brand:wikidata": "Q7242574", "nsi_id": "pricechopper-7d1b36"}, "geometry": {"type": "Point", "coordinates": [-72.7217232, 41.6683342]}},
{"type": "Feature", "id": "vEWWb7e8S6LqV2bqmMGdWfHcqFE=", "properties": {"ref": "232", "@spider": "pricechopper", "shop": "supermarket", "addr:street_address": "855 Washington St", "addr:city": "Middletown", "addr:state": "CT", "addr:postcode": "06457", "name": "Price Chopper Middletown,CT (Store #232)", "phone": "(860) 740-7700", "website": "https://www.pricechopper.com/stores/ct/middletown/price-chopper-232.html", "opening_hours": "Mo-Su 06:00-00:00", "image": "https://assets.stores.pricechopper.com.prod.rioseo.com/images/pricechopper-logo.png", "brand": "Price Chopper", "brand:wikidata": "Q7242574", "nsi_id": "pricechopper-7d1b36"}, "geometry": {"type": "Point", "coordinates": [-72.6805395, 41.5529214]}},
{"type": "Feature", "id": "cDOxvLT-FbQcM3l7SqH0eBoM0J8=", "properties": {"ref": "204", "@spider": "pricechopper", "shop": "supermarket", "addr:street_address": "121 Farmington Ave.", "addr:city": "Bristol", "addr:state": "CT", "addr:postcode": "06010", "name": "Price Chopper Bristol,CT (Store #204)", "phone": "(860) 582-2876", "website": "https://www.pricechopper.com/stores/ct/bristol/price-chopper-204.html", "opening_hours": "Mo-Su 06:00-00:00", "image": "https://assets.stores.pricechopper.com.prod.rioseo.com/images/pricechopper-logo.png", "brand": "Price Chopper", "brand:wikidata": "Q7242574", "nsi_id": "pricechopper-7d1b36"}, "geometry": {"type": "Point", "coordinates": [-72.9403893, 41.6859995]}},
{"type": "Feature", "id": "6KZJgCaXTFM-a-C_yBgIKqfqiMo=", "properties": {"ref": "240", "@spider": "pricechopper", "shop": "supermarket", "addr:street_address": "2 Worcester Road", "addr:city": "Webster", "addr:state": "MA", "addr:postcode": "01570", "name": "Price Chopper Webster,MA (Store #240)", "phone": "(508) 943-7232", "website": "https://www.pricechopper.com/stores/ma/webster/price-chopper-240.html", "opening_hours": "Mo-Su 06:00-00:00", "image": "https://assets.stores.pricechopper.com.prod.rioseo.com/images/pricechopper-logo.png", "brand": "Price Chopper", "brand:wikidata": "Q7242574", "nsi_id": "pricechopper-7d1b36"}, "geometry": {"type": "Point", "coordinates": [-71.8627062, 42.0611238]}},
{"type": "Feature", "id": "zurj-Xom3nedX8TT6AIlI3gzqpU=", "properties": {"ref": "244", "@spider": "pricechopper", "shop": "supermarket", "addr:street_address": "21 Galaxy Pass", "addr:city": "Sutton", "addr:state": "MA", "addr:postcode": "01590", "name": "Market 32 Sutton,MA (Store #244)", "phone": "(508) 865-5168", "website": "https://www.pricechopper.com/stores/ma/sutton/market-32-244.html", "opening_hours": "Mo-Su 06:00-00:00", "image": "https://assets.stores.pricechopper.com.prod.rioseo.com/images/pricechopper-logo.png", "brand": "Market 32", "brand:wikidata": "Q7242574", "nsi_id": "pricechopper-7d1b36"}, "geometry": {"type": "Point", "coordinates": [-71.7327762, 42.1601694]}},
{"type": "Feature", "id": "x7MFUAFez8McBY_C_wDDdcVPmmA=", "properties": {"ref": "150", "@spider": "pricechopper", "shop": "supermarket", "addr:street_address": "133 Main St.", "addr:city": "Spencer", "addr:state": "MA", "addr:postcode": "01562", "name": "Price Chopper Spencer,MA (Store #150)", "phone": "(508) 885-3199", "website": "https://www.pricechopper.com/stores/ma/spencer/price-chopper-150.html", "opening_hours": "Mo-Su 06:00-23:00", "image": "https://assets.stores.pricechopper.com.prod.rioseo.com/images/pricechopper-logo.png", "brand": "Price Chopper", "brand:wikidata": "Q7242574", "nsi_id": "pricechopper-7d1b36"}, "geometry": {"type": "Point", "coordinates": [-71.9933873, 42.2448382]}},
{"type": "Feature", "id": "1pcuAf8P6QVZEzXoPpsXUDKxw0g=", "properties": {"ref": "229", "@spider": "pricechopper", "shop": "supermarket", "addr:street_address": "731 Boston Turnpike", "addr:city": "Shrewsbury", "addr:state": "MA", "addr:postcode": "01545", "name": "Price Chopper Shrewsbury,MA (Store #229)", "phone": "(508) 791-7142", "website": "https://www.pricechopper.com/stores/ma/shrewsbury/price-chopper-229.html", "opening_hours": "Mo-Su 06:00-00:00", "image": "https://assets.stores.pricechopper.com.prod.rioseo.com/images/pricechopper-logo.png", "brand": "Price Chopper", "brand:wikidata": "Q7242574", "nsi_id": "pricechopper-7d1b36"}, "geometry": {"type": "Point", "coordinates": [-71.6960715, 42.2782795]}},
{"type": "Feature", "id": "LH4-tzMKBTubMf2XpyfJ_QXFRGM=", "properties": {"ref": "140", "@spider": "pricechopper", "shop": "supermarket", "addr:street_address": "555 Hubbard Ave.", "addr:city": "Pittsfield", "addr:state": "MA", "addr:postcode": "01201", "name": "Market 32 Pittsfield,MA (Store #140)", "phone": "(413) 442-7696", "website": "https://www.pricechopper.com/stores/ma/pittsfield/market-32-140.html", "opening_hours": "Mo-Su 06:00-00:00", "image": "https://assets.stores.pricechopper.com.prod.rioseo.com/images/pricechopper-logo.png", "brand": "Market 32", "brand:wikidata": "Q7242574", "nsi_id": "pricechopper-7d1b36"}, "geometry": {"type": "Point", "coordinates": [-73.1968604, 42.4685643]}},
{"type": "Feature", "id": "vN2cKme1om5_GXVKzi5qLiEBe78=", "properties": {"ref": "162", "@spider": "pricechopper", "shop": "supermarket", "addr:street_address": "240 East Main Street", "addr:city": "Marlborough", "addr:state": "MA", "addr:postcode": "01752", "name": "Market 32 Marlborough,MA (Store #162)", "phone": "(508) 480-0109", "website": "https://www.pricechopper.com/stores/ma/marlborough/market-32-162.html", "opening_hours": "Mo-Su 06:00-00:00", "image": "https://assets.stores.pricechopper.com.prod.rioseo.com/images/pricechopper-logo.png", "brand": "Market 32", "brand:wikidata": "Q7242574", "nsi_id": "pricechopper-7d1b36"}, "geometry": {"type": "Point", "coordinates": [-71.5347458, 42.3534291]}},
{"type": "Feature", "id": "9zhvEI22vNBBKO_YqteoXUL3s-w=", "properties": {"ref": "233", "@spider": "pricechopper", "shop": "supermarket", "addr:street_address": "495 Pittsfield Road", "addr:city": "Lenox", "addr:state": "MA", "addr:postcode": "01240", "name": "Market 32 Lenox,MA (Store #233)", "phone": "(413) 443-5449", "website": "https://www.pricechopper.com/stores/ma/lenox/market-32-233.html", "opening_hours": "Mo-Su 06:00-23:00", "image": "https://assets.stores.pricechopper.com.prod.rioseo.com/images/pricechopper-logo.png", "brand": "Market 32", "brand:wikidata": "Q7242574", "nsi_id": "pricechopper-7d1b36"}, "geometry": {"type": "Point", "coordinates": [-73.2664002, 42.4062589]}},
{"type": "Feature", "id": "vwFbIXUYOvbiWH5mqSEbI9SBxdc=", "properties": {"ref": "231", "@spider": "pricechopper", "shop": "supermarket", "addr:street_address": "167 West Main Street", "addr:city": "Hopkinton", "addr:state": "MA", "addr:postcode": "01748", "name": "Price Chopper Hopkinton,MA (Store #231)", "phone": "(508) 625-3263", "website": "https://www.pricechopper.com/stores/ma/hopkinton/price-chopper-231.html", "opening_hours": "Mo-Su 06:00-00:00", "image": "https://assets.stores.pricechopper.com.prod.rioseo.com/images/pricechopper-logo.png", "brand": "Price Chopper", "brand:wikidata": "Q7242574", "nsi_id": "pricechopper-7d1b36"}, "geometry": {"type": "Point", "coordinates": [-71.5520873, 42.2093735]}},
{"type": "Feature", "id": "9TGw8WyvOw4d0nChR7fcjzN4p_g=", "properties": {"ref": "155", "@spider": "pricechopper", "shop": "supermarket", "addr:street_address": "300 Stockbridge Rd.", "addr:city": "Great Barrington", "addr:state": "MA", "addr:postcode": "01230", "name": "Price Chopper Great Barrington,MA (Store #155)", "phone": "(413) 528-8415", "website": "https://www.pricechopper.com/stores/ma/greatbarrington/price-chopper-155.html", "opening_hours": "Mo-Su 07:00-23:00", "image": "https://assets.stores.pricechopper.com.prod.rioseo.com/images/pricechopper-logo.png", "brand": "Price Chopper", "brand:wikidata": "Q7242574", "nsi_id": "pricechopper-7d1b36"}, "geometry": {"type": "Point", "coordinates": [-73.3445392, 42.2100163]}},
{"type": "Feature", "id": "4m8iS4BOZ4Y8nGorIF_O-qI1I-Q=", "properties": {"ref": "239", "@spider": "pricechopper", "shop": "supermarket", "addr:street_address": "560 Main Street", "addr:city": "Gardner", "addr:state": "MA", "addr:postcode": "01440", "name": "Price Chopper Gardner,MA (Store #239)", "phone": "(978) 730-1040", "website": "https://www.pricechopper.com/stores/ma/gardner/price-chopper-239.html", "opening_hours": "Mo-Su 06:00-00:00", "image": "https://assets.stores.pricechopper.com.prod.rioseo.com/images/pricechopper-logo.png", "brand": "Price Chopper", "brand:wikidata": "Q7242574", "nsi_id": "pricechopper-7d1b36"}, "geometry": {"type": "Point", "coordinates": [-71.9853311, 42.5697117]}},
{"type": "Feature", "id": "GT8kJr4UH1PSA9WLTZIy0cHYeMk=", "properties": {"ref": "4", "@spider": "pricechopper", "shop": "supermarket", "addr:street_address": "10 Paper Mill Drive", "addr:city": "Lincoln", "addr:state": "NH", "addr:postcode": "03251", "name": "Price Chopper Lincoln,NH (Store #4)", "phone": "(603) 745-3969", "website": "https://www.pricechopper.com/stores/nh/lincoln/price-chopper-4.html", "opening_hours": "Mo-Su 06:00-23:00", "image": "https://assets.stores.pricechopper.com.prod.rioseo.com/images/pricechopper-logo.png", "brand": "Price Chopper", "brand:wikidata": "Q7242574", "nsi_id": "pricechopper-7d1b36"}, "geometry": {"type": "Point", "coordinates": [-71.6712012, 44.0414537]}},
{"type": "Feature", "id": "FFLQhI5MCpzlaqtojwKwCeKKrJU=", "properties": {"ref": "208", "@spider": "pricechopper", "shop": "supermarket", "addr:street_address": "16 Ash Brook Road", "addr:city": "Keene", "addr:state": "NH", "addr:postcode": "03431", "name": "Price Chopper Keene,NH (Store #208)", "phone": "(603) 352-0957", "website": "https://www.pricechopper.com/stores/nh/keene/price-chopper-208.html", "opening_hours": "Mo-Su 06:00-00:00", "image": "https://assets.stores.pricechopper.com.prod.rioseo.com/images/pricechopper-logo.png", "brand": "Price Chopper", "brand:wikidata": "Q7242574", "nsi_id": "pricechopper-7d1b36"}, "geometry": {"type": "Point", "coordinates": [-72.3068136, 42.9266664]}},
{"type": "Feature", "id": "Zl_z098HJCjjcmVWfeTkSqFuAik=", "properties": {"ref": "245", "@spider": "pricechopper", "shop": "supermarket", "addr:street_address": "515 19th Street", "addr:city": "Watervliet", "addr:state": "NY", "addr:postcode": "12189", "name": "Price Chopper Watervliet,NY (Store #245)", "phone": "(518) 271-7446", "website": "https://www.pricechopper.com/stores/ny/watervliet/price-chopper-245.html", "opening_hours": "Mo-Su 06:00-23:00", "image": "https://assets.stores.pricechopper.com.prod.rioseo.com/images/pricechopper-logo.png", "brand": "Price Chopper", "brand:wikidata": "Q7242574", "nsi_id": "pricechopper-7d1b36"}, "geometry": {"type": "Point", "coordinates": [-73.7049388, 42.7326194]}},
{"type": "Feature", "id": "M4uw01wmx4DNckkvTQ0xEJF0UMA=", "properties": {"ref": "102", "@spider": "pricechopper", "shop": "supermarket", "addr:street_address": "1283 Arsenal St.", "addr:city": "Watertown", "addr:state": "NY", "addr:postcode": "13601", "name": "Price Chopper Watertown,NY (Store #102)", "phone": "(315) 788-1645", "website": "https://www.pricechopper.com/stores/ny/watertown/price-chopper-102.html", "opening_hours": "Mo-Su 06:00-23:00", "image": "https://assets.stores.pricechopper.com.prod.rioseo.com/images/pricechopper-logo.png", "brand": "Price Chopper", "brand:wikidata": "Q7242574", "nsi_id": "pricechopper-7d1b36"}, "geometry": {"type": "Point", "coordinates": [-75.9455982, 43.9748496]}},
{"type": "Feature", "id": "-YJBBfLSh9C765PSBDB5b7CkhjU=", "properties": {"ref": "223", "@spider": "pricechopper", "shop": "supermarket", "addr:street_address": "142 State Highway 94", "addr:city": "Warwick", "addr:state": "NY", "addr:postcode": "10990", "name": "Price Chopper Warwick,NY (Store #223)", "phone": "(845) 987-6333", "website": "https://www.pricechopper.com/stores/ny/warwick/price-chopper-223.html", "opening_hours": "Mo-Su 06:00-23:00", "image": "https://assets.stores.pricechopper.com.prod.rioseo.com/images/pricechopper-logo.png", "brand": "Price Chopper", "brand:wikidata": "Q7242574", "nsi_id": "pricechopper-7d1b36"}, "geometry": {"type": "Point", "coordinates": [-74.3804649, 41.2403937]}},
{"type": "Feature", "id": "Ahdg1NvrZ4rqq_ay4au817HIALE=", "properties": {"ref": "44", "@spider": "pricechopper", "shop": "supermarket", "addr:street_address": "50 Auert Ave.", "addr:city": "Utica", "addr:state": "NY", "addr:postcode": "13501", "name": "Price Chopper Utica,NY (Store #44)", "phone": "(315) 732-0507", "website": "https://www.pricechopper.com/stores/ny/utica/price-chopper-44.html", "opening_hours": "Mo-Su 06:00-23:00", "image": "https://assets.stores.pricechopper.com.prod.rioseo.com/images/pricechopper-logo.png", "brand": "Price Chopper", "brand:wikidata": "Q7242574", "nsi_id": "pricechopper-7d1b36"}, "geometry": {"type": "Point", "coordinates": [-75.2081127, 43.1140704]}},
{"type": "Feature", "id": "MiVCzbKRy6_1bu4krJavc66rymI=", "properties": {"ref": "181", "@spider": "pricechopper", "shop": "supermarket", "addr:street_address": "79 Vandenburgh Ave", "addr:city": "Troy", "addr:state": "NY", "addr:postcode": "12180", "name": "Market 32 Troy,NY (Store #181)", "phone": "(518) 266-8711", "website": "https://www.pricechopper.com/stores/ny/troy/market-32-181.html", "opening_hours": "Mo-Su 06:00-23:00", "image": "https://assets.stores.pricechopper.com.prod.rioseo.com/images/pricechopper-logo.png", "brand": "Market 32", "brand:wikidata": "Q7242574", "nsi_id": "pricechopper-7d1b36"}, "geometry": {"type": "Point", "coordinates": [-73.690513993439, 42.6973020871644]}},
{"type": "Feature", "id": "LmlfM92CEMQzm-brNijho3OJvMc=", "properties": {"ref": "174", "@spider": "pricechopper", "shop": "supermarket", "addr:street_address": "4713 Onondaga Blvd.", "addr:city": "Syracuse", "addr:state": "NY", "addr:postcode": "13219", "name": "Price Chopper Syracuse,NY (Store #174)", "phone": "(315) 472-3812", "website": "https://www.pricechopper.com/stores/ny/syracuse/price-chopper-174.html", "opening_hours": "Mo-Su 06:00-00:00", "image": "https://assets.stores.pricechopper.com.prod.rioseo.com/images/pricechopper-logo.png", "brand": "Price Chopper", "brand:wikidata": "Q7242574", "nsi_id": "pricechopper-7d1b36"}, "geometry": {"type": "Point", "coordinates": [-76.1915147, 43.0348041]}},
{"type": "Feature", "id": "gIw6cLWy-kftAk7_bT1XGnzS7X8=", "properties": {"ref": "159", "@spider": "pricechopper", "shop": "supermarket", "addr:street_address": "1395 New Scotland Ave.", "addr:city": "Slingerlands", "addr:state": "NY", "addr:postcode": "12159", "name": "Market 32 Slingerlands,NY (Store #159)", "phone": "(518) 478-0688", "website": "https://www.pricechopper.com/stores/ny/slingerlands/market-32-159.html", "opening_hours": "Mo-Su 06:00-00:00", "image": "https://assets.stores.pricechopper.com.prod.rioseo.com/images/pricechopper-logo.png", "brand": "Market 32", "brand:wikidata": "Q7242574", "nsi_id": "pricechopper-7d1b36"}, "geometry": {"type": "Point", "coordinates": [-73.8183938, 42.6545431]}},
{"type": "Feature", "id": "I4rf8lnmMbhQKV4LYPgooAjSTo8=", "properties": {"ref": "215", "@spider": "pricechopper", "shop": "supermarket", "addr:street_address": "165 Delaware Ave", "addr:city": "Sidney", "addr:state": "NY", "addr:postcode": "13838", "name": "Price Chopper Sidney,NY (Store #215)", "phone": "(607) 563-2733", "website": "https://www.pricechopper.com/stores/ny/sidney/price-chopper-215.html", "opening_hours": "Mo-Su 06:00-23:00", "image": "https://assets.stores.pricechopper.com.prod.rioseo.com/images/pricechopper-logo.png", "brand": "Price Chopper", "brand:wikidata": "Q7242574", "nsi_id": "pricechopper-7d1b36"}, "geometry": {"type": "Point", "coordinates": [-75.4100938, 42.2973199]}},
{"type": "Feature", "id": "WdoIG79_0-V_q_sE3RmzBgglMGI=", "properties": {"ref": "38", "@spider": "pricechopper", "shop": "supermarket", "addr:street_address": "290 Saratoga Road", "addr:city": "Scotia", "addr:state": "NY", "addr:postcode": "12302", "name": "Market 32 Scotia,NY (Store #38)", "phone": "(518) 399-4011", "website": "https://www.pricechopper.com/stores/ny/scotia/market-32-38.html", "opening_hours": "Mo-Su 06:00-00:00", "image": "https://assets.stores.pricechopper.com.prod.rioseo.com/images/pricechopper-logo.png", "brand": "Market 32", "brand:wikidata": "Q7242574", "nsi_id": "pricechopper-7d1b36"}, "geometry": {"type": "Point", "coordinates": [-73.9284109, 42.8731315]}},
{"type": "Feature", "id": "y0it5uUwV7mqoEbLgXo24bSUbkw=", "properties": {"ref": "191", "@spider": "pricechopper", "shop": "supermarket", "addr:street_address": "442 Balltown Road", "addr:city": "Schenectady", "addr:state": "NY", "addr:postcode": "12304", "name": "Market 32 Schenectady,NY (Store #191)", "phone": "(518) 346-0182", "website": "https://www.pricechopper.com/stores/ny/schenectady/market-32-191.html", "opening_hours": "Mo-Su 06:00-00:00", "image": "https://assets.stores.pricechopper.com.prod.rioseo.com/images/pricechopper-logo.png", "brand": "Market 32", "brand:wikidata": "Q7242574", "nsi_id": "pricechopper-7d1b36"}, "geometry": {"type": "Point", "coordinates": [-73.8924409, 42.7761388]}},
{"type": "Feature", "id": "h0_4d3Bw0PoGluULdmqb6wAZFkw=", "properties": {"ref": "193", "@spider": "pricechopper", "shop": "supermarket", "addr:street_address": "138 Ulster Ave.", "addr:city": "Saugerties", "addr:state": "NY", "addr:postcode": "12477", "name": "Price Chopper Saugerties,NY (Store #193)", "phone": "(845) 247-4500", "website": "https://www.pricechopper.com/stores/ny/saugerties/price-chopper-193.html", "opening_hours": "Mo-Su 06:00-23:00", "image": "https://assets.stores.pricechopper.com.prod.rioseo.com/images/pricechopper-logo.png", "brand": "Price Chopper", "brand:wikidata": "Q7242574", "nsi_id": "pricechopper-7d1b36"}, "geometry": {"type": "Point", "coordinates": [-73.9607797, 42.0797402]}},
{"type": "Feature", "id": "5Mb7M3pcAOE29hFO5Wza6ntZTjo=", "properties": {"ref": "158", "@spider": "pricechopper", "shop": "supermarket", "addr:street_address": "115 Ballston Ave.", "addr:city": "Saratoga Springs", "addr:state": "NY", "addr:postcode": "12866", "name": "Market 32 Saratoga Springs,NY (Store #158)", "phone": "(518) 580-9172", "website": "https://www.pricechopper.com/stores/ny/saratogasprings/market-32-158.html", "opening_hours": "Mo-Su 06:00-00:00", "image": "https://assets.stores.pricechopper.com.prod.rioseo.com/images/pricechopper-logo.png", "brand": "Market 32", "brand:wikidata": "Q7242574", "nsi_id": "pricechopper-7d1b36"}, "geometry": {"type": "Point", "coordinates": [-73.7929777, 43.0725147]}},
{"type": "Feature", "id": "YgjDa6CbyJfTXbwKUxg7oRDTjPI=", "properties": {"ref": "206", "@spider": "pricechopper", "shop": "supermarket", "addr:street_address": "1790 Black River Blvd.", "addr:city": "Rome", "addr:state": "NY", "addr:postcode": "13440", "name": "Market 32 Rome,NY (Store #206)", "phone": "(315) 337-5086", "website": "https://www.pricechopper.com/stores/ny/rome/market-32-206.html", "opening_hours": "Mo-Su 06:00-23:00", "image": "https://assets.stores.pricechopper.com.prod.rioseo.com/images/pricechopper-logo.png", "brand": "Market 32", "brand:wikidata": "Q7242574", "nsi_id": "pricechopper-7d1b36"}, "geometry": {"type": "Point", "coordinates": [-75.4364756, 43.2319598]}},
{"type": "Feature", "id": "A0x9HqYFfjkbtTIy23jUATaBt-4=", "properties": {"ref": "210", "@spider": "pricechopper", "shop": "supermarket", "addr:street_address": "1 W. Main Street", "addr:city": "Richfield Springs", "addr:state": "NY", "addr:postcode": "13439", "name": "Price Chopper Richfield Springs,NY (Store #210)", "phone": "(315) 858-1171", "website": "https://www.pricechopper.com/stores/ny/richfieldsprings/price-chopper-210.html", "opening_hours": "Mo-Su 06:00-23:00", "image": "https://assets.stores.pricechopper.com.prod.rioseo.com/images/pricechopper-logo.png", "brand": "Price Chopper", "brand:wikidata": "Q7242574", "nsi_id": "pricechopper-7d1b36"}, "geometry": {"type": "Point", "coordinates": [-74.9968771, 42.857863]}},
{"type": "Feature", "id": "mjKqntiXXu0fbCLFzHwpLgDFZwk=", "properties": {"ref": "39", "@spider": "pricechopper", "shop": "supermarket", "addr:street_address": "3049 Route 50", "addr:city": "Saratoga Springs", "addr:state": "NY", "addr:postcode": "12866", "name": "Market 32 Saratoga Springs,NY (Store #39)", "phone": "(518) 583-7551", "website": "https://www.pricechopper.com/stores/ny/saratogasprings/market-32-39.html", "opening_hours": "Mo-Su 06:00-00:00", "image": "https://assets.stores.pricechopper.com.prod.rioseo.com/images/pricechopper-logo.png", "brand": "Market 32", "brand:wikidata": "Q7242574", "nsi_id": "pricechopper-7d1b36"}, "geometry": {"type": "Point", "coordinates": [-73.742699, 43.1026198]}},
{"type": "Feature", "id": "3XD1j96lwrdRJ1QBykHFGDkuzYc=", "properties": {"ref": "175", "@spider": "pricechopper", "shop": "supermarket", "addr:street_address": "1879 Altamont Ave.", "addr:city": "Schenectady", "addr:state": "NY", "addr:postcode": "12303", "name": "Market 32 Schenectady,NY (Store #175)", "phone": "(518) 357-4050", "website": "https://www.pricechopper.com/stores/ny/schenectady/market-32-175.html", "opening_hours": "Mo-Su 06:00-23:00", "image": "https://assets.stores.pricechopper.com.prod.rioseo.com/images/pricechopper-logo.png", "brand": "Market 32", "brand:wikidata": "Q7242574", "nsi_id": "pricechopper-7d1b36"}, "geometry": {"type": "Point", "coordinates": [-73.9552417, 42.7824873]}},
{"type": "Feature", "id": "8pY8rXU90hL6eb_-493sWhIwyo4=", "properties": {"ref": "1", "@spider": "pricechopper", "shop": "supermarket", "addr:street_address": "1640 Eastern Parkway", "addr:city": "Schenectady", "addr:state": "NY", "addr:postcode": "12309", "name": "Market 32 Schenectady,NY (Store #1)", "phone": "(518) 372-6553", "website": "https://www.pricechopper.com/stores/ny/schenectady/market-32-1.html", "opening_hours": "Mo-Su 06:00-23:00", "image": "https://assets.stores.pricechopper.com.prod.rioseo.com/images/pricechopper-logo.png", "brand": "Market 32", "brand:wikidata": "Q7242574", "nsi_id": "pricechopper-7d1b36"}, "geometry": {"type": "Point", "coordinates": [-73.9137535, 42.8056741]}},
{"type": "Feature", "id": "hE3PTDq_4C8ZFmQdhAGGiR0Ei4A=", "properties": {"ref": "172", "@spider": "pricechopper", "shop": "supermarket", "addr:street_address": "2515 Erie Blvd.", "addr:city": "Syracuse", "addr:state": "NY", "addr:postcode": "13224", "name": "Price Chopper Syracuse,NY (Store #172)", "phone": "(315) 449-2314", "website": "https://www.pricechopper.com/stores/ny/syracuse/price-chopper-172.html", "opening_hours": "Mo-Su 06:00-00:00", "image": "https://assets.stores.pricechopper.com.prod.rioseo.com/images/pricechopper-logo.png", "brand": "Price Chopper", "brand:wikidata": "Q7242574", "nsi_id": "pricechopper-7d1b36"}, "geometry": {"type": "Point", "coordinates": [-76.1021152, 43.0548164]}},
{"type": "Feature", "id": "g76zvP5tPQrh98mKYV7gAoSV-7w=", "properties": {"ref": "3", "@spider": "pricechopper", "shop": "supermarket", "addr:street_address": "716 Hoosick Road", "addr:city": "Troy", "addr:state": "NY", "addr:postcode": "12180", "name": "Market 32 Troy,NY (Store #3)", "phone": "(518) 266-9035", "website": "https://www.pricechopper.com/stores/ny/troy/market-32-3.html", "opening_hours": "Mo-Su 06:00-23:00", "image": "https://assets.stores.pricechopper.com.prod.rioseo.com/images/pricechopper-logo.png", "brand": "Market 32", "brand:wikidata": "Q7242574", "nsi_id": "pricechopper-7d1b36"}, "geometry": {"type": "Point", "coordinates": [-73.6435414, 42.7421102]}},
{"type": "Feature", "id": "Ae7e_9HxJg7RHQdWoxef5Ulot9M=", "properties": {"ref": "26", "@spider": "pricechopper", "shop": "supermarket", "addr:street_address": "1917 Genesee Street", "addr:city": "Utica", "addr:state": "NY", "addr:postcode": "13501", "name": "Price Chopper Utica,NY (Store #26)", "phone": "(315) 732-1031", "website": "https://www.pricechopper.com/stores/ny/utica/price-chopper-26.html", "opening_hours": "Mo-Su 06:00-00:00", "image": "https://assets.stores.pricechopper.com.prod.rioseo.com/images/pricechopper-logo.png", "brand": "Price Chopper", "brand:wikidata": "Q7242574", "nsi_id": "pricechopper-7d1b36"}, "geometry": {"type": "Point", "coordinates": [-75.2597554, 43.0864237]}},
{"type": "Feature", "id": "AIcSpdPjQMsOAKOE3CCJ_QIlD-w=", "properties": {"ref": "111", "@spider": "pricechopper", "shop": "supermarket", "addr:street_address": "501 Columbia Turnpike", "addr:city": "Rensselaer", "addr:state": "NY", "addr:postcode": "12144", "name": "Market 32 Rensselaer,NY (Store #111)", "phone": "(518) 479-4380", "website": "https://www.pricechopper.com/stores/ny/rensselaer/market-32-111.html", "opening_hours": "Mo-Su 06:00-23:00", "image": "https://assets.stores.pricechopper.com.prod.rioseo.com/images/pricechopper-logo.png", "brand": "Market 32", "brand:wikidata": "Q7242574", "nsi_id": "pricechopper-7d1b36"}, "geometry": {"type": "Point", "coordinates": [-73.7190995, 42.6070226]}},
{"type": "Feature", "id": "R80tdKkguNXCj0JX2T4neijwJn4=", "properties": {"ref": "40", "@spider": "pricechopper", "shop": "supermarket", "addr:street_address": "677 Upper Glen Street", "addr:city": "Queensbury", "addr:state": "NY", "addr:postcode": "12804", "name": "Market 32 Queensbury,NY (Store #40)", "phone": "(518) 792-7456", "website": "https://www.pricechopper.com/stores/ny/queensbury/market-32-40.html", "opening_hours": "Mo-Su 06:00-00:00", "image": "https://assets.stores.pricechopper.com.prod.rioseo.com/images/pricechopper-logo.png", "brand": "Market 32", "brand:wikidata": "Q7242574", "nsi_id": "pricechopper-7d1b36"}, "geometry": {"type": "Point", "coordinates": [-73.6669619, 43.325166]}},
{"type": "Feature", "id": "e9SKZdmllycsAUvuJ6xXH7jJ5X4=", "properties": {"ref": "129", "@spider": "pricechopper", "shop": "supermarket", "addr:street_address": "2585 South Road", "addr:city": "Poughkeepsie", "addr:state": "NY", "addr:postcode": "12601", "name": "Price Chopper Poughkeepsie,NY (Store #129)", "phone": "(845) 452-1005", "website": "https://www.pricechopper.com/stores/ny/poughkeepsie/price-chopper-129.html", "opening_hours": "Mo-Su 06:00-00:00", "image": "https://assets.stores.pricechopper.com.prod.rioseo.com/images/pricechopper-logo.png", "brand": "Price Chopper", "brand:wikidata": "Q7242574", "nsi_id": "pricechopper-7d1b36"}, "geometry": {"type": "Point", "coordinates": [-73.931506, 41.665507]}},
{"type": "Feature", "id": "pzh_pMQaZdaGO4FxLXojz4ei8Nc=", "properties": {"ref": "29", "@spider": "pricechopper", "shop": "supermarket", "addr:street_address": "201 Market St", "addr:city": "Potsdam", "addr:state": "NY", "addr:postcode": "13676", "name": "Price Chopper Potsdam,NY (Store #29)", "phone": "(315) 265-2165", "website": "https://www.pricechopper.com/stores/ny/potsdam/price-chopper-29.html", "opening_hours": "Mo-Su 06:00-23:00", "image": "https://assets.stores.pricechopper.com.prod.rioseo.com/images/pricechopper-logo.png", "brand": "Price Chopper", "brand:wikidata": "Q7242574", "nsi_id": "pricechopper-7d1b36"}, "geometry": {"type": "Point", "coordinates": [-74.9883761, 44.6861204]}},
{"type": "Feature", "id": "5AWAReIHwRXpqi4_dy9tgLQyZCM=", "properties": {"ref": "168", "@spider": "pricechopper", "shop": "supermarket", "addr:street_address": "19 Centre Drive", "addr:city": "Plattsburgh", "addr:state": "NY", "addr:postcode": "12901", "name": "Market 32 Plattsburgh,NY (Store #168)", "phone": "(518) 562-3560", "website": "https://www.pricechopper.com/stores/ny/plattsburgh/market-32-168.html", "opening_hours": "Mo-Su 06:00-00:00", "image": "https://assets.stores.pricechopper.com.prod.rioseo.com/images/pricechopper-logo.png", "brand": "Market 32", "brand:wikidata": "Q7242574", "nsi_id": "pricechopper-7d1b36"}, "geometry": {"type": "Point", "coordinates": [-73.4922842, 44.6953469]}},
{"type": "Feature", "id": "E92krPuGcBUQIarOYtddZk9FcwU=", "properties": {"ref": "164", "@spider": "pricechopper", "shop": "supermarket", "addr:street_address": "6025 NY State Route 5", "addr:city": "Palatine Bridge", "addr:state": "NY", "addr:postcode": "13428", "name": "Price Chopper Palatine Bridge,NY (Store #164)", "phone": "(518) 673-2333", "website": "https://www.pricechopper.com/stores/ny/palatinebridge/price-chopper-164.html", "opening_hours": "Mo-Su 06:00-23:00", "image": "https://assets.stores.pricechopper.com.prod.rioseo.com/images/pricechopper-logo.png", "brand": "Price Chopper", "brand:wikidata": "Q7242574", "nsi_id": "pricechopper-7d1b36"}, "geometry": {"type": "Point", "coordinates": [-74.5914122, 42.9150171]}},
{"type": "Feature", "id": "8XfF859B_Qiq6yvc1dG_bUWnH48=", "properties": {"ref": "216", "@spider": "pricechopper", "shop": "supermarket", "addr:street_address": "42 West Main St", "addr:city": "Owego", "addr:state": "NY", "addr:postcode": "13827", "name": "Price Chopper Owego,NY (Store #216)", "phone": "(607) 687-5449", "website": "https://www.pricechopper.com/stores/ny/owego/price-chopper-216.html", "opening_hours": "Mo-Su 06:00-23:00", "image": "https://assets.stores.pricechopper.com.prod.rioseo.com/images/pricechopper-logo.png", "brand": "Price Chopper", "brand:wikidata": "Q7242574", "nsi_id": "pricechopper-7d1b36"}, "geometry": {"type": "Point", "coordinates": [-76.2699973, 42.0981995]}},
{"type": "Feature", "id": "V8AwDySZ4qFyHt011KVV3DKz3w0=", "properties": {"ref": "226", "@spider": "pricechopper", "shop": "supermarket", "addr:street_address": "137 ST RT 104", "addr:city": "Oswego", "addr:state": "NY", "addr:postcode": "13126", "name": "Price Chopper Oswego,NY (Store #226)", "phone": "(315) 342-0571", "website": "https://www.pricechopper.com/stores/ny/oswego/price-chopper-226.html", "opening_hours": "Mo-Su 06:00-00:00", "image": "https://assets.stores.pricechopper.com.prod.rioseo.com/images/pricechopper-logo.png", "brand": "Price Chopper", "brand:wikidata": "Q7242574", "nsi_id": "pricechopper-7d1b36"}, "geometry": {"type": "Point", "coordinates": [-76.486518, 43.462309]}},
{"type": "Feature", "id": "mFrAMOU5Xc6hQl8ynbtYGFTyinQ=", "properties": {"ref": "134", "@spider": "pricechopper", "shop": "supermarket", "addr:street_address": "5626 State Highway 7, Suite 7", "addr:city": "Oneonta", "addr:state": "NY", "addr:postcode": "13820", "name": "Price Chopper Oneonta,NY (Store #134)", "phone": "(607) 432-8905", "website": "https://www.pricechopper.com/stores/ny/oneonta/price-chopper-134.html", "opening_hours": "Mo-Su 06:00-23:00", "image": "https://assets.stores.pricechopper.com.prod.rioseo.com/images/pricechopper-logo.png", "brand": "Price Chopper", "brand:wikidata": "Q7242574", "nsi_id": "pricechopper-7d1b36"}, "geometry": {"type": "Point", "coordinates": [-75.0138347, 42.4605346]}},
{"type": "Feature", "id": "HljzTJxqP1JgM9fz4_JQrQ5Eg70=", "properties": {"ref": "213", "@spider": "pricechopper", "shop": "supermarket", "addr:street_address": "142 Genesee Street", "addr:city": "Oneida", "addr:state": "NY", "addr:postcode": "13421", "name": "Price Chopper Oneida,NY (Store #213)", "phone": "(315) 363-8927", "website": "https://www.pricechopper.com/stores/ny/oneida/price-chopper-213.html", "opening_hours": "Mo-Su 06:00-00:00", "image": "https://assets.stores.pricechopper.com.prod.rioseo.com/images/pricechopper-logo.png", "brand": "Price Chopper", "brand:wikidata": "Q7242574", "nsi_id": "pricechopper-7d1b36"}, "geometry": {"type": "Point", "coordinates": [-75.6439933, 43.0797953]}},
{"type": "Feature", "id": "BIFFn9u7lEavvoftXDk3G-Y8Drc=", "properties": {"ref": "30", "@spider": "pricechopper", "shop": "supermarket", "addr:street_address": "981 Ford Street Extension", "addr:city": "Odgensburg", "addr:state": "NY", "addr:postcode": "13669", "name": "Price Chopper Odgensburg,NY (Store #30)", "phone": "(315) 393-7153", "website": "https://www.pricechopper.com/stores/ny/odgensburg/price-chopper-30.html", "opening_hours": "Mo-Su 06:00-23:00", "image": "https://assets.stores.pricechopper.com.prod.rioseo.com/images/pricechopper-logo.png", "brand": "Price Chopper", "brand:wikidata": "Q7242574", "nsi_id": "pricechopper-7d1b36"}, "geometry": {"type": "Point", "coordinates": [-75.461192, 44.7052701]}},
{"type": "Feature", "id": "tI4sMRpNCbmIPcJsNSpFw0F1w14=", "properties": {"ref": "161", "@spider": "pricechopper", "shop": "supermarket", "addr:street_address": "5631 State Highway 12", "addr:city": "Norwich", "addr:state": "NY", "addr:postcode": "13815", "name": "Price Chopper Norwich,NY (Store #161)", "phone": "(607) 336-2774", "website": "https://www.pricechopper.com/stores/ny/norwich/price-chopper-161.html", "opening_hours": "Mo-Su 06:00-23:00", "image": "https://assets.stores.pricechopper.com.prod.rioseo.com/images/pricechopper-logo.png", "brand": "Price Chopper", "brand:wikidata": "Q7242574", "nsi_id": "pricechopper-7d1b36"}, "geometry": {"type": "Point", "coordinates": [-75.5243945, 42.5146295]}},
{"type": "Feature", "id": "R2CN8s4sNvKFCTMNNBukhvYRSxg=", "properties": {"ref": "198", "@spider": "pricechopper", "shop": "supermarket", "addr:street_address": "39 North Plank Road", "addr:city": "Newburgh", "addr:state": "NY", "addr:postcode": "12550", "name": "Market 32 Newburgh,NY (Store #198)", "phone": "(845) 569-2620", "website": "https://www.pricechopper.com/stores/ny/newburgh/market-32-198.html", "opening_hours": "Mo-Su 06:00-00:00", "image": "https://assets.stores.pricechopper.com.prod.rioseo.com/images/pricechopper-logo.png", "brand": "Market 32", "brand:wikidata": "Q7242574", "nsi_id": "pricechopper-7d1b36"}, "geometry": {"type": "Point", "coordinates": [-74.0278089, 41.5214794]}},
{"type": "Feature", "id": "tMMcnIIFTtqgjlAhoAVfry_G-2U=", "properties": {"ref": "142", "@spider": "pricechopper", "shop": "supermarket", "addr:street_address": "115 Temple Hill Road", "addr:city": "New Windsor", "addr:state": "NY", "addr:postcode": "12553", "name": "Price Chopper New Windsor,NY (Store #142)", "phone": "(845) 565-8637", "website": "https://www.pricechopper.com/stores/ny/newwindsor/price-chopper-142.html", "opening_hours": "Mo-Su 06:00-23:00", "image": "https://assets.stores.pricechopper.com.prod.rioseo.com/images/pricechopper-logo.png", "brand": "Price Chopper", "brand:wikidata": "Q7242574", "nsi_id": "pricechopper-7d1b36"}, "geometry": {"type": "Point", "coordinates": [-74.0603051, 41.4546024]}},
{"type": "Feature", "id": "ZXWttY__fks1KBiAarrDlxxoirk=", "properties": {"ref": "207", "@spider": "pricechopper", "shop": "supermarket", "addr:street_address": "4535 Commercial Drive", "addr:city": "New Hartford", "addr:state": "NY", "addr:postcode": "13413", "name": "Market 32 New Hartford,NY (Store #207)", "phone": "(315) 736-8376", "website": "https://www.pricechopper.com/stores/ny/newhartford/market-32-207.html", "opening_hours": "Mo-Su 06:00-23:00", "image": "https://assets.stores.pricechopper.com.prod.rioseo.com/images/pricechopper-logo.png", "brand": "Market 32", "brand:wikidata": "Q7242574", "nsi_id": "pricechopper-7d1b36"}, "geometry": {"type": "Point", "coordinates": [-75.3190797, 43.0861022]}},
{"type": "Feature", "id": "MEOp8htFc636AeLlXd0Hp42jY3k=", "properties": {"ref": "114", "@spider": "pricechopper", "shop": "supermarket", "addr:street_address": "511 Schutt Road Ext.", "addr:city": "Middletown", "addr:state": "NY", "addr:postcode": "10940", "name": "Price Chopper Middletown,NY (Store #114)", "phone": "(845) 344-0300", "website": "https://www.pricechopper.com/stores/ny/middletown/price-chopper-114.html", "opening_hours": "Mo-Su 06:00-23:00", "image": "https://assets.stores.pricechopper.com.prod.rioseo.com/images/pricechopper-logo.png", "brand": "Price Chopper", "brand:wikidata": "Q7242574", "nsi_id": "pricechopper-7d1b36"}, "geometry": {"type": "Point", "coordinates": [-74.3828533, 41.4504496]}},
{"type": "Feature", "id": "uPF6NOoP_EysYET0ltVhwEf_ZzM=", "properties": {"ref": "94", "@spider": "pricechopper", "shop": "supermarket", "addr:street_address": "1 Price Chopper Plaza", "addr:city": "Mechanicville", "addr:state": "NY", "addr:postcode": "12118", "name": "Price Chopper Mechanicville,NY (Store #94)", "phone": "(518) 664-1112", "website": "https://www.pricechopper.com/stores/ny/mechanicville/price-chopper-94.html", "opening_hours": "Mo-Su 06:00-23:00", "image": "https://assets.stores.pricechopper.com.prod.rioseo.com/images/pricechopper-logo.png", "brand": "Price Chopper", "brand:wikidata": "Q7242574", "nsi_id": "pricechopper-7d1b36"}, "geometry": {"type": "Point", "coordinates": [-73.68524, 42.910088]}},
{"type": "Feature", "id": "lVKl9FHMfYqsAfIlu3XTDcw4Rmw=", "properties": {"ref": "32", "@spider": "pricechopper", "shop": "supermarket", "addr:street_address": "152 Harte Haven Plaza", "addr:city": "Massena", "addr:state": "NY", "addr:postcode": "13662", "name": "Price Chopper Massena,NY (Store #32)", "phone": "(315) 769-0042", "website": "https://www.pricechopper.com/stores/ny/massena/price-chopper-32.html", "opening_hours": "Mo-Su 06:00-23:00", "image": "https://assets.stores.pricechopper.com.prod.rioseo.com/images/pricechopper-logo.png", "brand": "Price Chopper", "brand:wikidata": "Q7242574", "nsi_id": "pricechopper-7d1b36"}, "geometry": {"type": "Point", "coordinates": [-74.8863104, 44.9197993]}},
{"type": "Feature", "id": "Afk0VJ3TV1I6IxkGkO51Qlv0JFQ=", "properties": {"ref": "184", "@spider": "pricechopper", "shop": "supermarket", "addr:street_address": "One Kendall Way", "addr:city": "Malta", "addr:state": "NY", "addr:postcode": "12020", "name": "Market 32 Malta,NY (Store #184)", "phone": "(518) 899-2438", "website": "https://www.pricechopper.com/stores/ny/malta/market-32-184.html", "opening_hours": "Mo-Su 06:00-00:00", "image": "https://assets.stores.pricechopper.com.prod.rioseo.com/images/pricechopper-logo.png", "brand": "Market 32", "brand:wikidata": "Q7242574", "nsi_id": "pricechopper-7d1b36"}, "geometry": {"type": "Point", "coordinates": [-73.795044, 42.973057]}},
{"type": "Feature", "id": "pWrWRYzyF9ZkVQ2PYmXh2Z-33HM=", "properties": {"ref": "166", "@spider": "pricechopper", "shop": "supermarket", "addr:street_address": "53 Finney Blvd.", "addr:city": "Malone", "addr:state": "NY", "addr:postcode": "12953", "name": "Price Chopper Malone,NY (Store #166)", "phone": "(518) 483-8476", "website": "https://www.pricechopper.com/stores/ny/malone/price-chopper-166.html", "opening_hours": "Mo-Su 06:00-23:00", "image": "https://assets.stores.pricechopper.com.prod.rioseo.com/images/pricechopper-logo.png", "brand": "Price Chopper", "brand:wikidata": "Q7242574", "nsi_id": "pricechopper-7d1b36"}, "geometry": {"type": "Point", "coordinates": [-74.3012855, 44.8460477]}},
{"type": "Feature", "id": "pchGzix5RD_THrzqMIpFeGu786Y=", "properties": {"ref": "182", "@spider": "pricechopper", "shop": "supermarket", "addr:street_address": "3863 State Route 31", "addr:city": "Liverpool", "addr:state": "NY", "addr:postcode": "13090", "name": "Price Chopper Liverpool,NY (Store #182)", "phone": "(315) 622-6008", "website": "https://www.pricechopper.com/stores/ny/liverpool/price-chopper-182.html", "opening_hours": "Mo-Su 06:00-00:00", "image": "https://assets.stores.pricechopper.com.prod.rioseo.com/images/pricechopper-logo.png", "brand": "Price Chopper", "brand:wikidata": "Q7242574", "nsi_id": "pricechopper-7d1b36"}, "geometry": {"type": "Point", "coordinates": [-76.2454679, 43.1886599]}},
{"type": "Feature", "id": "APiMTqooyOZ8Kxj880Tq5e36WRw=", "properties": {"ref": "242", "@spider": "pricechopper", "shop": "supermarket", "addr:street_address": "555 E. Main St", "addr:city": "Little Falls", "addr:state": "NY", "addr:postcode": "13365", "name": "Price Chopper Little Falls,NY (Store #242)", "phone": "(315) 508-3333", "website": "https://www.pricechopper.com/stores/ny/littlefalls/price-chopper-242.html", "opening_hours": "Mo-Su 06:00-23:00", "image": "https://assets.stores.pricechopper.com.prod.rioseo.com/images/pricechopper-logo.png", "brand": "Price Chopper", "brand:wikidata": "Q7242574", "nsi_id": "pricechopper-7d1b36"}, "geometry": {"type": "Point", "coordinates": [-74.8579319, 43.0435457]}},
{"type": "Feature", "id": "1GLXQc90RqbVxMFWEHkWB5R1xqo=", "properties": {"ref": "138", "@spider": "pricechopper", "shop": "supermarket", "addr:street_address": "873 New Loudon Road", "addr:city": "Latham", "addr:state": "NY", "addr:postcode": "12110", "name": "Market Bistro Latham,NY (Store #138)", "phone": "(518) 782-0441", "website": "https://www.pricechopper.com/stores/ny/latham/market-bistro-138.html", "opening_hours": "Mo-Su 06:00-00:00", "image": "https://assets.stores.pricechopper.com.prod.rioseo.com/images/pricechopper-logo.png", "brand": "Market Bistro", "brand:wikidata": "Q7242574", "nsi_id": "pricechopper-7d1b36"}, "geometry": {"type": "Point", "coordinates": [-73.7564275, 42.7543901]}},
{"type": "Feature", "id": "HvU0M23Mflttao1_mkTzOm1r6E8=", "properties": {"ref": "180", "@spider": "pricechopper", "shop": "supermarket", "addr:street_address": "1930 Saranac Ave.", "addr:city": "Lake Placid", "addr:state": "NY", "addr:postcode": "12946", "name": "Price Chopper Lake Placid,NY (Store #180)", "phone": "(518) 523-2790", "website": "https://www.pricechopper.com/stores/ny/lakeplacid/price-chopper-180.html", "opening_hours": "Mo-Su 06:00-23:00", "image": "https://assets.stores.pricechopper.com.prod.rioseo.com/images/pricechopper-logo.png", "brand": "Price Chopper", "brand:wikidata": "Q7242574", "nsi_id": "pricechopper-7d1b36"}, "geometry": {"type": "Point", "coordinates": [-74.0109175, 44.2941736]}},
{"type": "Feature", "id": "t0V0qequxi1l7CZXQyOha2KqWYg=", "properties": {"ref": "247", "@spider": "pricechopper", "shop": "supermarket", "addr:street_address": "16 Lake George Plaza Rd", "addr:city": "Lake George", "addr:state": "NY", "addr:postcode": "12845", "name": "Price Chopper Lake George,NY (Store #247)", "phone": "(518) 964-6500", "website": "https://www.pricechopper.com/stores/ny/lakegeorge/price-chopper-247.html", "opening_hours": "Mo-Su 06:00-23:00", "image": "https://assets.stores.pricechopper.com.prod.rioseo.com/images/pricechopper-logo.png", "brand": "Price Chopper", "brand:wikidata": "Q7242574", "nsi_id": "pricechopper-7d1b36"}, "geometry": {"type": "Point", "coordinates": [-73.758542, 43.4862294]}},
{"type": "Feature", "id": "nLe-om8KygzPQRAnwWr5Jxdsnkg=", "properties": {"ref": "12", "@spider": "pricechopper", "shop": "supermarket", "addr:street_address": "241 North Comrie Ave.", "addr:city": "Johnstown", "addr:state": "NY", "addr:postcode": "12095", "name": "Price Chopper Johnstown,NY (Store #12)", "phone": "(518) 762-8981", "website": "https://www.pricechopper.com/stores/ny/johnstown/price-chopper-12.html", "opening_hours": "Mo-Su 06:00-23:00", "image": "https://assets.stores.pricechopper.com.prod.rioseo.com/images/pricechopper-logo.png", "brand": "Price Chopper", "brand:wikidata": "Q7242574", "nsi_id": "pricechopper-7d1b36"}, "geometry": {"type": "Point", "coordinates": [-74.3587382, 43.0160242]}},
{"type": "Feature", "id": "RuvItWWKaZUnCBmvb-0sxPHTlNg=", "properties": {"ref": "225", "@spider": "pricechopper", "shop": "supermarket", "addr:street_address": "2422 Highway 12B", "addr:city": "Hamilton", "addr:state": "NY", "addr:postcode": "13346", "name": "Price Chopper Hamilton,NY (Store #225)", "phone": "(315) 824-6040", "website": "https://www.pricechopper.com/stores/ny/hamilton/price-chopper-225.html", "opening_hours": "Mo-Su 06:00-23:00", "image": "https://assets.stores.pricechopper.com.prod.rioseo.com/images/pricechopper-logo.png", "brand": "Price Chopper", "brand:wikidata": "Q7242574", "nsi_id": "pricechopper-7d1b36"}, "geometry": {"type": "Point", "coordinates": [-75.5527054, 42.8430773]}},
{"type": "Feature", "id": "9igOzQs3BfwyY0JYUgO4ZRj2qX4=", "properties": {"ref": "28", "@spider": "pricechopper", "shop": "supermarket", "addr:street_address": "Routes 20 and 155", "addr:city": "Guilderland", "addr:state": "NY", "addr:postcode": "12084", "name": "Market 32 Guilderland,NY (Store #28)", "phone": "(518) 456-5115", "website": "https://www.pricechopper.com/stores/ny/guilderland/market-32-28.html", "opening_hours": "Mo-Su 06:00-23:00", "image": "https://assets.stores.pricechopper.com.prod.rioseo.com/images/pricechopper-logo.png", "brand": "Market 32", "brand:wikidata": "Q7242574", "nsi_id": "pricechopper-7d1b36"}, "geometry": {"type": "Point", "coordinates": [-73.893146, 42.698026]}},
{"type": "Feature", "id": "B8t7ym6fc39Tcz748SPvX_Ae5DQ=", "properties": {"ref": "157", "@spider": "pricechopper", "shop": "supermarket", "addr:street_address": "8648 State Rt 22", "addr:city": "Granville", "addr:state": "NY", "addr:postcode": "12832", "name": "Price Chopper Granville,NY (Store #157)", "phone": "(518) 642-9755", "website": "https://www.pricechopper.com/stores/ny/granville/price-chopper-157.html", "opening_hours": "Mo-Su 06:00-23:00", "image": "https://assets.stores.pricechopper.com.prod.rioseo.com/images/pricechopper-logo.png", "brand": "Price Chopper", "brand:wikidata": "Q7242574", "nsi_id": "pricechopper-7d1b36"}, "geometry": {"type": "Point", "coordinates": [-73.2630829, 43.3966582]}},
{"type": "Feature", "id": "O5HxQUeCA71iyWOIyKVRkXDjzgg=", "properties": {"ref": "37", "@spider": "pricechopper", "shop": "supermarket", "addr:street_address": "389 East Main St", "addr:city": "Gouverneur", "addr:state": "NY", "addr:postcode": "13642", "name": "Price Chopper Gouverneur,NY (Store #37)", "phone": "(315) 287-4200", "website": "https://www.pricechopper.com/stores/ny/gouverneur/price-chopper-37.html", "opening_hours": "Mo-Su 06:00-23:00", "image": "https://assets.stores.pricechopper.com.prod.rioseo.com/images/pricechopper-logo.png", "brand": "Price Chopper", "brand:wikidata": "Q7242574", "nsi_id": "pricechopper-7d1b36"}, "geometry": {"type": "Point", "coordinates": [-75.4548384, 44.3411024]}},
{"type": "Feature", "id": "QVT2acsr1vWMWd7m3YOrwAgn28U=", "properties": {"ref": "195", "@spider": "pricechopper", "shop": "supermarket", "addr:street_address": "358 North Main St.", "addr:city": "Gloversville", "addr:state": "NY", "addr:postcode": "12078", "name": "Price Chopper Gloversville,NY (Store #195)", "phone": "(518) 775-1464", "website": "https://www.pricechopper.com/stores/ny/gloversville/price-chopper-195.html", "opening_hours": "Mo-Su 06:00-23:00", "image": "https://assets.stores.pricechopper.com.prod.rioseo.com/images/pricechopper-logo.png", "brand": "Price Chopper", "brand:wikidata": "Q7242574", "nsi_id": "pricechopper-7d1b36"}, "geometry": {"type": "Point", "coordinates": [-74.3380485, 43.0629105]}},
{"type": "Feature", "id": "0yEfXkmkFiykFwzljARKgGJcdVo=", "properties": {"ref": "196", "@spider": "pricechopper", "shop": "supermarket", "addr:street_address": "329 Glenmont Rd.", "addr:city": "Glenmont", "addr:state": "NY", "addr:postcode": "12077", "name": "Price Chopper Glenmont,NY (Store #196)", "phone": "(518) 433-4700", "website": "https://www.pricechopper.com/stores/ny/glenmont/price-chopper-196.html", "opening_hours": "Mo-Su 06:00-23:00", "image": "https://assets.stores.pricechopper.com.prod.rioseo.com/images/pricechopper-logo.png", "brand": "Price Chopper", "brand:wikidata": "Q7242574", "nsi_id": "pricechopper-7d1b36"}, "geometry": {"type": "Point", "coordinates": [-73.7902558, 42.6025858]}},
{"type": "Feature", "id": "XBvldQVPGjgBeS_LNrWDQlC0c2c=", "properties": {"ref": "214", "@spider": "pricechopper", "shop": "supermarket", "addr:street_address": "12 West 1st Street South", "addr:city": "Fulton", "addr:state": "NY", "addr:postcode": "13069", "name": "Price Chopper Fulton,NY (Store #214)", "phone": "(315) 598-4000", "website": "https://www.pricechopper.com/stores/ny/fulton/price-chopper-214.html", "opening_hours": "Mo-Su 06:00-00:00", "image": "https://assets.stores.pricechopper.com.prod.rioseo.com/images/pricechopper-logo.png", "brand": "Price Chopper", "brand:wikidata": "Q7242574", "nsi_id": "pricechopper-7d1b36"}, "geometry": {"type": "Point", "coordinates": [-76.4247096, 43.3235516]}},
{"type": "Feature", "id": "vT-550mU_zXE_EhB0MZYIH8cH6w=", "properties": {"ref": "249", "@spider": "pricechopper", "shop": "supermarket", "addr:street_address": "354 Broadway", "addr:city": "Fort Edward", "addr:state": "NY", "addr:postcode": "12828", "name": "Market 32 Fort Edward,NY (Store #249)", "phone": "(518) 832-6236", "website": "https://www.pricechopper.com/stores/ny/fortedward/market-32-249.html", "opening_hours": "Mo-Su 06:00-23:00", "image": "https://assets.stores.pricechopper.com.prod.rioseo.com/images/pricechopper-logo.png", "brand": "Market 32", "brand:wikidata": "Q7242574", "nsi_id": "pricechopper-7d1b36"}, "geometry": {"type": "Point", "coordinates": [-73.5860282, 43.283781]}},
{"type": "Feature", "id": "6FfSk_Td2h0i1SnoiqBEt96h8Rk=", "properties": {"ref": "170", "@spider": "pricechopper", "shop": "supermarket", "addr:street_address": "49 Amherst & Iroquois St.", "addr:city": "Lake George", "addr:state": "NY", "addr:postcode": "12845", "name": "Price Chopper Lake George,NY (Store #170)", "phone": "(518) 668-2337", "website": "https://www.pricechopper.com/stores/ny/lakegeorge/price-chopper-170.html", "opening_hours": "Mo-Su 06:00-23:00", "image": "https://assets.stores.pricechopper.com.prod.rioseo.com/images/pricechopper-logo.png", "brand": "Price Chopper", "brand:wikidata": "Q7242574", "nsi_id": "pricechopper-7d1b36"}, "geometry": {"type": "Point", "coordinates": [-73.7136785, 43.4263918]}},
{"type": "Feature", "id": "3JRK5RvFFM7WFx6CAWF-9Q8cDHA=", "properties": {"ref": "130", "@spider": "pricechopper", "shop": "supermarket", "addr:street_address": "911 North Street", "addr:city": "Endicott", "addr:state": "NY", "addr:postcode": "13760", "name": "Price Chopper Endicott,NY (Store #130)", "phone": "(607) 748-8080", "website": "https://www.pricechopper.com/stores/ny/endicott/price-chopper-130.html", "opening_hours": "Mo-Su 06:00-00:00", "image": "https://assets.stores.pricechopper.com.prod.rioseo.com/images/pricechopper-logo.png", "brand": "Price Chopper", "brand:wikidata": "Q7242574", "nsi_id": "pricechopper-7d1b36"}, "geometry": {"type": "Point", "coordinates": [-76.0524266, 42.1044495]}},
{"type": "Feature", "id": "U1F_MtFjIkNM7a0hRd4vCir3RX4=", "properties": {"ref": "218", "@spider": "pricechopper", "shop": "supermarket", "addr:street_address": "3 Main Street", "addr:city": "Delhi", "addr:state": "NY", "addr:postcode": "13753", "name": "Price Chopper Delhi,NY (Store #218)", "phone": "(607) 746-8001", "website": "https://www.pricechopper.com/stores/ny/delhi/price-chopper-218.html", "opening_hours": "Mo-Su 06:00-23:00", "image": "https://assets.stores.pricechopper.com.prod.rioseo.com/images/pricechopper-logo.png", "brand": "Price Chopper", "brand:wikidata": "Q7242574", "nsi_id": "pricechopper-7d1b36"}, "geometry": {"type": "Point", "coordinates": [-74.922704, 42.2665025]}},
{"type": "Feature", "id": "UpWVVYXiANFaEeTPQ9CvnqdtZQY=", "properties": {"ref": "178", "@spider": "pricechopper", "shop": "supermarket", "addr:street_address": "854 State Route 13", "addr:city": "Cortland", "addr:state": "NY", "addr:postcode": "13045", "name": "Price Chopper Cortland,NY (Store #178)", "phone": "(607) 756-4994", "website": "https://www.pricechopper.com/stores/ny/cortland/price-chopper-178.html", "opening_hours": "Mo-Su 06:00-23:00", "image": "https://assets.stores.pricechopper.com.prod.rioseo.com/images/pricechopper-logo.png", "brand": "Price Chopper", "brand:wikidata": "Q7242574", "nsi_id": "pricechopper-7d1b36"}, "geometry": {"type": "Point", "coordinates": [-76.2162297, 42.5708758]}},
{"type": "Feature", "id": "Ykdgkp5c1AM533_lfuaYjQNafzc=", "properties": {"ref": "235", "@spider": "pricechopper", "shop": "supermarket", "addr:street_address": "113 Chestnut St", "addr:city": "Cooperstown", "addr:state": "NY", "addr:postcode": "13326", "name": "Price Chopper Cooperstown,NY (Store #235)", "phone": "(607) 547-2527", "website": "https://www.pricechopper.com/stores/ny/cooperstown/price-chopper-235.html", "opening_hours": "Mo-Su 06:00-23:00", "image": "https://assets.stores.pricechopper.com.prod.rioseo.com/images/pricechopper-logo.png", "brand": "Price Chopper", "brand:wikidata": "Q7242574", "nsi_id": "pricechopper-7d1b36"}, "geometry": {"type": "Point", "coordinates": [-74.933573, 42.6934587]}},
{"type": "Feature", "id": "EK71-SWYrAOst_FT1-7GmEH-QF0=", "properties": {"ref": "36", "@spider": "pricechopper", "shop": "supermarket", "addr:street_address": "240 Congress Street", "addr:city": "Cohoes", "addr:state": "NY", "addr:postcode": "12047", "name": "Price Chopper Cohoes,NY (Store #36)", "phone": "(518) 237-6050", "website": "https://www.pricechopper.com/stores/ny/cohoes/price-chopper-36.html", "opening_hours": "Mo-Su 06:00-23:00", "image": "https://assets.stores.pricechopper.com.prod.rioseo.com/images/pricechopper-logo.png", "brand": "Price Chopper", "brand:wikidata": "Q7242574", "nsi_id": "pricechopper-7d1b36"}, "geometry": {"type": "Point", "coordinates": [-73.7004195, 42.7651976]}},
{"type": "Feature", "id": "uykJpW2zDta0id01_p-mT6EZOHs=", "properties": {"ref": "116", "@spider": "pricechopper", "shop": "supermarket", "addr:street_address": "105 Plaza Lane", "addr:city": "Cobleskill", "addr:state": "NY", "addr:postcode": "12043", "name": "Price Chopper Cobleskill,NY (Store #116)", "phone": "(518) 234-7845", "website": "https://www.pricechopper.com/stores/ny/cobleskill/price-chopper-116.html", "opening_hours": "Mo-Su 06:00-23:00", "image": "https://assets.stores.pricechopper.com.prod.rioseo.com/images/pricechopper-logo.png", "brand": "Price Chopper", "brand:wikidata": "Q7242574", "nsi_id": "pricechopper-7d1b36"}, "geometry": {"type": "Point", "coordinates": [-74.472025, 42.6822615]}},
{"type": "Feature", "id": "tvhlQeJO_UuM0FKNQFXW-kUbAqI=", "properties": {"ref": "250", "@spider": "pricechopper", "shop": "supermarket", "addr:street_address": "1018 Route 146", "addr:city": "Clifton Park", "addr:state": "NY", "addr:postcode": "12065", "name": "Market 32 Clifton Park,NY (Store #250)", "phone": "(518) 371-3521", "website": "https://www.pricechopper.com/stores/ny/cliftonpark/market-32-250.html", "opening_hours": "Mo-Su 06:00-23:00", "image": "https://assets.stores.pricechopper.com.prod.rioseo.com/images/pricechopper-logo.png", "brand": "Market 32", "brand:wikidata": "Q7242574", "nsi_id": "pricechopper-7d1b36"}, "geometry": {"type": "Point", "coordinates": [-73.8183804, 42.8689171]}},
{"type": "Feature", "id": "ZrhIjxu-i_e06-_8SDEzUl-zjLY=", "properties": {"ref": "199", "@spider": "pricechopper", "shop": "supermarket", "addr:street_address": "5701 East Circle Dr. Suite 100", "addr:city": "Cicero", "addr:state": "NY", "addr:postcode": "13039", "name": "Price Chopper Cicero,NY (Store #199)", "phone": "(315) 458-2056", "website": "https://www.pricechopper.com/stores/ny/cicero/price-chopper-199.html", "opening_hours": "Mo-Su 06:00-00:00", "image": "https://assets.stores.pricechopper.com.prod.rioseo.com/images/pricechopper-logo.png", "brand": "Price Chopper", "brand:wikidata": "Q7242574", "nsi_id": "pricechopper-7d1b36"}, "geometry": {"type": "Point", "coordinates": [-76.1211231, 43.1501452]}},
{"type": "Feature", "id": "bZsepBxZ4qQen8JX99zkbxPgmb8=", "properties": {"ref": "246", "@spider": "pricechopper", "shop": "supermarket", "addr:street_address": "2614 Route 66", "addr:city": "Chatham", "addr:state": "NY", "addr:postcode": "12037", "name": "Price Chopper Chatham,NY (Store #246)", "phone": "(518) 392-9007", "website": "https://www.pricechopper.com/stores/ny/chatham/price-chopper-246.html", "opening_hours": "Mo-Su 06:00-23:00", "image": "https://assets.stores.pricechopper.com.prod.rioseo.com/images/pricechopper-logo.png", "brand": "Price Chopper", "brand:wikidata": "Q7242574", "nsi_id": "pricechopper-7d1b36"}, "geometry": {"type": "Point", "coordinates": [-73.6052342, 42.3483858]}},
{"type": "Feature", "id": "wW2UH4ZgEjDA72RkRk_SPntEEdY=", "properties": {"ref": "220", "@spider": "pricechopper", "shop": "supermarket", "addr:street_address": "860 Route 11", "addr:city": "Champlain", "addr:state": "NY", "addr:postcode": "12919", "name": "Price Chopper Champlain,NY (Store #220)", "phone": "(518) 298-4200", "website": "https://www.pricechopper.com/stores/ny/champlain/price-chopper-220.html", "opening_hours": "Mo-Su 06:00-23:00", "image": "https://assets.stores.pricechopper.com.prod.rioseo.com/images/pricechopper-logo.png", "brand": "Price Chopper", "brand:wikidata": "Q7242574", "nsi_id": "pricechopper-7d1b36"}, "geometry": {"type": "Point", "coordinates": [-73.4431923, 44.9794745]}},
{"type": "Feature", "id": "N084rl4Y-WLinvRtW9eaGrScGcQ=", "properties": {"ref": "42", "@spider": "pricechopper", "shop": "supermarket", "addr:street_address": "320 West Bridge St", "addr:city": "Catskill", "addr:state": "NY", "addr:postcode": "12414", "name": "Price Chopper Catskill,NY (Store #42)", "phone": "(518) 943-3239", "website": "https://www.pricechopper.com/stores/ny/catskill/price-chopper-42.html", "opening_hours": "Mo-Su 06:00-23:00", "image": "https://assets.stores.pricechopper.com.prod.rioseo.com/images/pricechopper-logo.png", "brand": "Price Chopper", "brand:wikidata": "Q7242574", "nsi_id": "pricechopper-7d1b36"}, "geometry": {"type": "Point", "coordinates": [-73.8861937, 42.2156712]}},
{"type": "Feature", "id": "9zL6nWnrSowbxkaROaN8L3oYIpI=", "properties": {"ref": "46", "@spider": "pricechopper", "shop": "supermarket", "addr:street_address": "111 East Main St", "addr:city": "Canton", "addr:state": "NY", "addr:postcode": "13617", "name": "Price Chopper Canton,NY (Store #46)", "phone": "(315) 379-9696", "website": "https://www.pricechopper.com/stores/ny/canton/price-chopper-46.html", "opening_hours": "Mo-Su 06:00-23:00", "image": "https://assets.stores.pricechopper.com.prod.rioseo.com/images/pricechopper-logo.png", "brand": "Price Chopper", "brand:wikidata": "Q7242574", "nsi_id": "pricechopper-7d1b36"}, "geometry": {"type": "Point", "coordinates": [-75.1496065, 44.5983864]}},
{"type": "Feature", "id": "iz-c8mPkmAHEDhxfbwqdMKM-hbM=", "properties": {"ref": "237", "@spider": "pricechopper", "shop": "supermarket", "addr:street_address": "10 Glenwood Blvd", "addr:city": "Binghamton", "addr:state": "NY", "addr:postcode": "13905", "name": "Price Chopper Binghamton,NY (Store #237)", "phone": "(607) 770-7151", "website": "https://www.pricechopper.com/stores/ny/binghamton/price-chopper-237.html", "opening_hours": "Mo-Su 06:00-23:00", "image": "https://assets.stores.pricechopper.com.prod.rioseo.com/images/pricechopper-logo.png", "brand": "Price Chopper", "brand:wikidata": "Q7242574", "nsi_id": "pricechopper-7d1b36"}, "geometry": {"type": "Point", "coordinates": [-75.9358, 42.1074103]}},
{"type": "Feature", "id": "6KKoNhRLB8SskNjTOU7zbTT7QVQ=", "properties": {"ref": "139", "@spider": "pricechopper", "shop": "supermarket", "addr:street_address": "141 Sanford Farms Plaza", "addr:city": "Amsterdam", "addr:state": "NY", "addr:postcode": "12010", "name": "Market 32 Amsterdam,NY (Store #139)", "phone": "(518) 843-0056", "website": "https://www.pricechopper.com/stores/ny/amsterdam/market-32-139.html", "opening_hours": "Mo-Su 06:00-23:00", "image": "https://assets.stores.pricechopper.com.prod.rioseo.com/images/pricechopper-logo.png", "brand": "Market 32", "brand:wikidata": "Q7242574", "nsi_id": "pricechopper-7d1b36"}, "geometry": {"type": "Point", "coordinates": [-74.1836317, 42.9626417]}},
{"type": "Feature", "id": "K5ChDA_dystJE2L_HIrhQGuRQ1g=", "properties": {"ref": "241", "@spider": "pricechopper", "shop": "supermarket", "addr:street_address": "43615 NYS Route 12", "addr:city": "Alexandria Bay", "addr:state": "NY", "addr:postcode": "13607", "name": "Price Chopper Alexandria Bay,NY (Store #241)", "phone": "(315) 215-7008", "website": "https://www.pricechopper.com/stores/ny/alexandriabay/price-chopper-241.html", "opening_hours": "Mo-Su 06:00-00:00", "image": "https://assets.stores.pricechopper.com.prod.rioseo.com/images/pricechopper-logo.png", "brand": "Price Chopper", "brand:wikidata": "Q7242574", "nsi_id": "pricechopper-7d1b36"}, "geometry": {"type": "Point", "coordinates": [-75.9682304, 44.2987306]}},
{"type": "Feature", "id": "X-c9cav40ClOJ1g-e4-t6N3QQmc=", "properties": {"ref": "224", "@spider": "pricechopper", "shop": "supermarket", "addr:street_address": "1892 Central Ave.", "addr:city": "Albany", "addr:state": "NY", "addr:postcode": "12205", "name": "Price Chopper Albany,NY (Store #224)", "phone": "(518) 456-9314", "website": "https://www.pricechopper.com/stores/ny/albany/price-chopper-224.html", "opening_hours": "Mo-Su 06:00-23:00", "image": "https://assets.stores.pricechopper.com.prod.rioseo.com/images/pricechopper-logo.png", "brand": "Price Chopper", "brand:wikidata": "Q7242574", "nsi_id": "pricechopper-7d1b36"}, "geometry": {"type": "Point", "coordinates": [-73.8548204, 42.7334883]}},
{"type": "Feature", "id": "JAv2THkXBJNyhr73MeZ_bBRiE-4=", "properties": {"ref": "222", "@spider": "pricechopper", "shop": "supermarket", "addr:street_address": "245 Wilkes Barre Township Blvd", "addr:city": "Wilkes-Barre", "addr:state": "PA", "addr:postcode": "18702", "name": "Price Chopper Wilkes-Barre,PA (Store #222)", "phone": "(570) 825-0830", "website": "https://www.pricechopper.com/stores/pa/wilkes-barre/price-chopper-222.html", "opening_hours": "Mo-Su 06:00-00:00", "image": "https://assets.stores.pricechopper.com.prod.rioseo.com/images/pricechopper-logo.png", "brand": "Price Chopper", "brand:wikidata": "Q7242574", "nsi_id": "pricechopper-7d1b36"}, "geometry": {"type": "Point", "coordinates": [-75.8597228, 41.2405657]}},
{"type": "Feature", "id": "Nphkgkhh6-L99z0BJIz00QRE3Oo=", "properties": {"ref": "188", "@spider": "pricechopper", "shop": "supermarket", "addr:street_address": "475 Albany Shaker Road", "addr:city": "Albany", "addr:state": "NY", "addr:postcode": "12211", "name": "Price Chopper Albany,NY (Store #188)", "phone": "(518) 459-8720", "website": "https://www.pricechopper.com/stores/ny/albany/price-chopper-188.html", "opening_hours": "Mo-Su 06:00-23:00", "image": "https://assets.stores.pricechopper.com.prod.rioseo.com/images/pricechopper-logo.png", "brand": "Price Chopper", "brand:wikidata": "Q7242574", "nsi_id": "pricechopper-7d1b36"}, "geometry": {"type": "Point", "coordinates": [-73.7779003, 42.7077241]}},
{"type": "Feature", "id": "4XSgt8TMCrKB6B86jeQb70V9w2s=", "properties": {"ref": "183", "@spider": "pricechopper", "shop": "supermarket", "addr:street_address": "1706 Western Ave", "addr:city": "Albany", "addr:state": "NY", "addr:postcode": "12203", "name": "Market 32 Albany,NY (Store #183)", "phone": "(518) 456-0403", "website": "https://www.pricechopper.com/stores/ny/albany/market-32-183.html", "opening_hours": "Mo-Su 06:00-23:00", "image": "https://assets.stores.pricechopper.com.prod.rioseo.com/images/pricechopper-logo.png", "brand": "Market 32", "brand:wikidata": "Q7242574", "nsi_id": "pricechopper-7d1b36"}, "geometry": {"type": "Point", "coordinates": [-73.8601953, 42.6870533]}},
{"type": "Feature", "id": "0h9chHbGkl8UysN22ze6FvO8-jA=", "properties": {"ref": "133", "@spider": "pricechopper", "shop": "supermarket", "addr:street_address": "911 Central Ave.", "addr:city": "Albany", "addr:state": "NY", "addr:postcode": "12206", "name": "Price Chopper Albany,NY (Store #133)", "phone": "(518) 482-0280", "website": "https://www.pricechopper.com/stores/ny/albany/price-chopper-133.html", "opening_hours": "Mo-Su 06:00-23:00", "image": "https://assets.stores.pricechopper.com.prod.rioseo.com/images/pricechopper-logo.png", "brand": "Price Chopper", "brand:wikidata": "Q7242574", "nsi_id": "pricechopper-7d1b36"}, "geometry": {"type": "Point", "coordinates": [-73.790072, 42.6826126]}},
{"type": "Feature", "id": "cLKQYiNBmVUboHFFqJYdfLuiqBE=", "properties": {"ref": "45", "@spider": "pricechopper", "shop": "supermarket", "addr:street_address": "40 Delaware Ave.", "addr:city": "Albany", "addr:state": "NY", "addr:postcode": "12210", "name": "Market 32 Albany,NY (Store #45)", "phone": "(518) 465-2603", "website": "https://www.pricechopper.com/stores/ny/albany/market-32-45.html", "opening_hours": "Mo-Su 06:00-23:00", "image": "https://assets.stores.pricechopper.com.prod.rioseo.com/images/pricechopper-logo.png", "brand": "Market 32", "brand:wikidata": "Q7242574", "nsi_id": "pricechopper-7d1b36"}, "geometry": {"type": "Point", "coordinates": [-73.7673525, 42.650492]}},
{"type": "Feature", "id": "0JEJ0piCdfB8GEGOqjQuvrMKSKA=", "properties": {"ref": "23", "@spider": "pricechopper", "shop": "supermarket", "addr:street_address": "1060 Madison Ave.", "addr:city": "Albany", "addr:state": "NY", "addr:postcode": "12210", "name": "Market 32 Albany,NY (Store #23)", "phone": "(518) 438-6241", "website": "https://www.pricechopper.com/stores/ny/albany/market-32-23.html", "opening_hours": "Mo-Su 06:00-23:00", "image": "https://assets.stores.pricechopper.com.prod.rioseo.com/images/pricechopper-logo.png", "brand": "Market 32", "brand:wikidata": "Q7242574", "nsi_id": "pricechopper-7d1b36"}, "geometry": {"type": "Point", "coordinates": [-73.7904294, 42.6643726]}},
{"type": "Feature", "id": "eI0pZxTrlsKJ2gev-iPvKs-bHRM=", "properties": {"ref": "234", "@spider": "pricechopper", "shop": "supermarket", "addr:street_address": "33 Chanango Bridge Rd", "addr:city": "Binghamton", "addr:state": "NY", "addr:postcode": "13901", "name": "Price Chopper Binghamton,NY (Store #234)", "phone": "(607) 235-7240", "website": "https://www.pricechopper.com/stores/ny/binghamton/price-chopper-234.html", "opening_hours": "Mo-Su 06:00-23:00", "image": "https://assets.stores.pricechopper.com.prod.rioseo.com/images/pricechopper-logo.png", "brand": "Price Chopper", "brand:wikidata": "Q7242574", "nsi_id": "pricechopper-7d1b36"}, "geometry": {"type": "Point", "coordinates": [-75.8844311, 42.1696279]}},
{"type": "Feature", "id": "-0BphG3Ljj4PtogdiUY33lQPPeA=", "properties": {"ref": "112", "@spider": "pricechopper", "shop": "supermarket", "addr:street_address": "15 Park Avenue", "addr:city": "Clifton Park", "addr:state": "NY", "addr:postcode": "12065", "name": "Market 32 Clifton Park,NY (Store #112)", "phone": "(518) 383-6780", "website": "https://www.pricechopper.com/stores/ny/cliftonpark/market-32-112.html", "opening_hours": "Mo-Su 06:00-00:00", "image": "https://assets.stores.pricechopper.com.prod.rioseo.com/images/pricechopper-logo.png", "brand": "Market 32", "brand:wikidata": "Q7242574", "nsi_id": "pricechopper-7d1b36"}, "geometry": {"type": "Point", "coordinates": [-73.7803285, 42.8666225]}},
{"type": "Feature", "id": "0_-WwcSllR1WGi1fw7nW82x4GEc=", "properties": {"ref": "169", "@spider": "pricechopper", "shop": "supermarket", "addr:street_address": "1510 South Main Ave.", "addr:city": "Taylor", "addr:state": "PA", "addr:postcode": "18517", "name": "Price Chopper Taylor,PA (Store #169)", "phone": "(570) 969-4920", "website": "https://www.pricechopper.com/stores/pa/taylor/price-chopper-169.html", "opening_hours": "Mo-Su 06:00-23:00", "image": "https://assets.stores.pricechopper.com.prod.rioseo.com/images/pricechopper-logo.png", "brand": "Price Chopper", "brand:wikidata": "Q7242574", "nsi_id": "pricechopper-7d1b36"}, "geometry": {"type": "Point", "coordinates": [-75.6918965, 41.3943516]}},
{"type": "Feature", "id": "G4ioXjGyjAAApDSnOJO9Kng2ClY=", "properties": {"ref": "185", "@spider": "pricechopper", "shop": "supermarket", "addr:street_address": "6750 State Route 706", "addr:city": "Montrose", "addr:state": "PA", "addr:postcode": "18801", "name": "Price Chopper Montrose,PA (Store #185)", "phone": "(570) 278-2817", "website": "https://www.pricechopper.com/stores/pa/montrose/price-chopper-185.html", "opening_hours": "Mo-Su 06:00-23:00", "image": "https://assets.stores.pricechopper.com.prod.rioseo.com/images/pricechopper-logo.png", "brand": "Price Chopper", "brand:wikidata": "Q7242574", "nsi_id": "pricechopper-7d1b36"}, "geometry": {"type": "Point", "coordinates": [-75.8533405, 41.8368156]}},
{"type": "Feature", "id": "eAi9z-_-1q47YV-HHXQZJ_h043w=", "properties": {"ref": "202", "@spider": "pricechopper", "shop": "supermarket", "addr:street_address": "1025 Pennsylvania Ave.", "addr:city": "Matamoras", "addr:state": "PA", "addr:postcode": "18336", "name": "Price Chopper Matamoras,PA (Store #202)", "phone": "(570) 491-5612", "website": "https://www.pricechopper.com/stores/pa/matamoras/price-chopper-202.html", "opening_hours": "Mo-Su 06:00-23:00", "image": "https://assets.stores.pricechopper.com.prod.rioseo.com/images/pricechopper-logo.png", "brand": "Price Chopper", "brand:wikidata": "Q7242574", "nsi_id": "pricechopper-7d1b36"}, "geometry": {"type": "Point", "coordinates": [-74.7098385, 41.3624397]}},
{"type": "Feature", "id": "oC75BqYP7m2QUooqn89O7wnM7mw=", "properties": {"ref": "190", "@spider": "pricechopper", "shop": "supermarket", "addr:street_address": "180 West Side Mall", "addr:city": "Edwardsville", "addr:state": "PA", "addr:postcode": "18704", "name": "Market 32 Edwardsville,PA (Store #190)", "phone": "(570) 287-7244", "website": "https://www.pricechopper.com/stores/pa/edwardsville/market-32-190.html", "opening_hours": "Mo-Su 06:00-00:00", "image": "https://assets.stores.pricechopper.com.prod.rioseo.com/images/pricechopper-logo.png", "brand": "Market 32", "brand:wikidata": "Q7242574", "nsi_id": "pricechopper-7d1b36"}, "geometry": {"type": "Point", "coordinates": [-75.9040418, 41.2587025]}},
{"type": "Feature", "id": "bg9zEBXtz-5MM9wba_ApFeP156c=", "properties": {"ref": "236", "@spider": "pricechopper", "shop": "supermarket", "addr:street_address": "4547 Milford Road", "addr:city": "East Stroudsburg", "addr:state": "PA", "addr:postcode": "18302", "name": "Price Chopper East Stroudsburg,PA (Store #236)", "phone": "(570) 223-2410", "website": "https://www.pricechopper.com/stores/pa/eaststroudsburg/price-chopper-236.html", "opening_hours": "Mo-Su 06:00-00:00", "image": "https://assets.stores.pricechopper.com.prod.rioseo.com/images/pricechopper-logo.png", "brand": "Price Chopper", "brand:wikidata": "Q7242574", "nsi_id": "pricechopper-7d1b36"}, "geometry": {"type": "Point", "coordinates": [-75.111665, 41.0506453]}},
{"type": "Feature", "id": "Mwg6sD_VB6lOphgVHR7dckrgJQA=", "properties": {"ref": "135", "@spider": "pricechopper", "shop": "supermarket", "addr:street_address": "1228 O'Neill Highway", "addr:city": "Dunmore", "addr:state": "PA", "addr:postcode": "18512", "name": "Market 32 Dunmore,PA (Store #135)", "phone": "(570) 346-4538", "website": "https://www.pricechopper.com/stores/pa/dunmore/market-32-135.html", "opening_hours": "Mo-Su 06:00-00:00", "image": "https://assets.stores.pricechopper.com.prod.rioseo.com/images/pricechopper-logo.png", "brand": "Market 32", "brand:wikidata": "Q7242574", "nsi_id": "pricechopper-7d1b36"}, "geometry": {"type": "Point", "coordinates": [-75.6173535, 41.4351978]}},
{"type": "Feature", "id": "fXwE8J27MW8Dso10jb-xgxA3eok=", "properties": {"ref": "171", "@spider": "pricechopper", "shop": "supermarket", "addr:street_address": "214 Northside Drive", "addr:city": "Bennington", "addr:state": "VT", "addr:postcode": "05201", "name": "Price Chopper Bennington,VT (Store #171)", "phone": "(802) 447-9940", "website": "https://www.pricechopper.com/stores/vt/bennington/price-chopper-171.html", "opening_hours": "Mo-Su 06:00-23:00", "image": "https://assets.stores.pricechopper.com.prod.rioseo.com/images/pricechopper-logo.png", "brand": "Price Chopper", "brand:wikidata": "Q7242574", "nsi_id": "pricechopper-7d1b36"}, "geometry": {"type": "Point", "coordinates": [-73.2127358, 42.8986533]}},
{"type": "Feature", "id": "81T9cLMEWQxvtRuRBk7bggeSBz0=", "properties": {"ref": "123", "@spider": "pricechopper", "shop": "supermarket", "addr:street_address": "168 Ames Drive", "addr:city": "Barre", "addr:state": "VT", "addr:postcode": "05641", "name": "Price Chopper Barre,VT (Store #123)", "phone": "(802) 479-9078", "website": "https://www.pricechopper.com/stores/vt/barre/price-chopper-123.html", "opening_hours": "Mo-Su 06:00-23:00", "image": "https://assets.stores.pricechopper.com.prod.rioseo.com/images/pricechopper-logo.png", "brand": "Price Chopper", "brand:wikidata": "Q7242574", "nsi_id": "pricechopper-7d1b36"}, "geometry": {"type": "Point", "coordinates": [-72.5471216, 44.2239036]}}]}