{"type":"FeatureCollection","features":[{"type": "Feature", "id": "QOuzeQz_EVhLKa_R_ESLddGHxas=", "properties": {"ref": "608", "payment:american_express": "yes", "payment:google_pay": "yes", "payment:apple_pay": "yes", "payment:cash": "yes", "payment:maestro": "yes", "payment:mastercard": "yes", "payment:visa": "yes", "@spider": "primark_gb", "shop": "clothes", "addr:street_address": "9-13 Market Place", "addr:city": "Chesterfield", "addr:postcode": "S40 1PJ", "addr:country": "GB", "name": "Primark Chesterfield", "phone": "+441246554468", "website": "https://www.primark.com/en-gb/stores/chesterfield/9-13-market-place", "opening_hours": "Mo-We 09:00-17:30; Th 08:30-17:30; Fr 09:00-17:30; Sa 08:30-18:00; Su 10:00-16:00", "brand": "Primark", "brand:wikidata": "Q137023", "nsi_id": "primark-5d2556"}, "geometry": {"type": "Point", "coordinates": [-1.4287765324115753, 53.235851298257515]}},
{"type": "Feature", "id": "zLy3blmRHE9EyLE4I35nW1ttLiI=", "properties": {"ref": "651", "payment:american_express": "yes", "payment:google_pay": "yes", "payment:apple_pay": "yes", "payment:cash": "yes", "payment:maestro": "yes", "payment:mastercard": "yes", "payment:visa": "yes", "@spider": "primark_gb", "shop": "clothes", "addr:street_address": "52-60 Foregate St", "addr:city": "Chester", "addr:postcode": "CH1 1HA", "addr:country": "GB", "name": "Primark Chester", "phone": "+441244624043", "website": "https://www.primark.com/en-gb/stores/chester/52-60-foregate-st", "opening_hours": "Mo-Sa 09:00-18:00; Su 11:00-17:00", "brand": "Primark", "brand:wikidata": "Q137023", "nsi_id": "primark-5d2556"}, "geometry": {"type": "Point", "coordinates": [-2.8858563, 53.1912522]}},
{"type": "Feature", "id": "7UpY2nD4mGVUiBQM-jVZKcSk3hw=", "properties": {"ref": "481", "payment:american_express": "yes", "payment:google_pay": "yes", "payment:apple_pay": "yes", "payment:cash": "yes", "payment:maestro": "yes", "payment:mastercard": "yes", "payment:visa": "yes", "@spider": "primark_gb", "shop": "clothes", "addr:street_address": "2A, Broughton Shopping Centre, Chester Rd", "addr:city": "Chester", "addr:postcode": "CH4 0DE", "addr:country": "GB", "name": "Primark Chester Broughton Shopping Centre", "phone": "+441244530759", "website": "https://www.primark.com/en-gb/stores/chester/2a-broughton-shopping-centre", "opening_hours": "Mo-Fr 09:00-20:00; Sa 09:00-19:00; Su 10:30-17:00", "brand": "Primark", "brand:wikidata": "Q137023", "nsi_id": "primark-5d2556"}, "geometry": {"type": "Point", "coordinates": [-2.9730758, 53.1690047]}},
{"type": "Feature", "id": "R88NfRjFnqc8_lOgnmI9T8F4kFc=", "properties": {"ref": "676", "payment:american_express": "yes", "payment:google_pay": "yes", "payment:apple_pay": "yes", "payment:cash": "yes", "payment:maestro": "yes", "payment:mastercard": "yes", "payment:visa": "yes", "@spider": "primark_gb", "shop": "clothes", "addr:street_address": "9 High Chelmer", "addr:city": "Chelmsford", "addr:postcode": "CM1 1XL", "addr:country": "GB", "name": "Primark Chelmsford", "phone": "+441245256358", "website": "https://www.primark.com/en-gb/stores/chelmsford/9-high-chelmer", "opening_hours": "Mo-Sa 08:30-18:30; Su 10:30-16:30", "brand": "Primark", "brand:wikidata": "Q137023", "nsi_id": "primark-5d2556"}, "geometry": {"type": "Point", "coordinates": [0.4721718478851926, 51.73288101555699]}},
{"type": "Feature", "id": "8NhnAiSsqytmrvefkflvxrUJoW8=", "properties": {"ref": "607", "payment:american_express": "yes", "payment:google_pay": "yes", "payment:apple_pay": "yes", "payment:cash": "yes", "payment:maestro": "yes", "payment:mastercard": "yes", "payment:visa": "yes", "@spider": "primark_gb", "shop": "clothes", "addr:street_address": "201 - 207 High Street", "addr:city": "Cheltenham", "addr:postcode": "GL50 3HH", "addr:country": "GB", "name": "Primark Cheltenham", "phone": "+441242251395", "website": "https://www.primark.com/en-gb/stores/cheltenham/201-207-high-street", "opening_hours": "Mo-Sa 09:00-18:00; Su 11:00-17:00", "brand": "Primark", "brand:wikidata": "Q137023", "nsi_id": "primark-5d2556"}, "geometry": {"type": "Point", "coordinates": [-2.0749049239425403, 51.90142663189085]}},
{"type": "Feature", "id": "IOXJrU6G6ZIf1MwXyG5LV9hiUs8=", "properties": {"ref": "502", "payment:american_express": "yes", "payment:google_pay": "yes", "payment:apple_pay": "yes", "payment:cash": "yes", "payment:maestro": "yes", "payment:mastercard": "yes", "payment:visa": "yes", "@spider": "primark_gb", "shop": "clothes", "addr:street_address": "194 - 198 High Street", "addr:city": "Chatham", "addr:postcode": "ME4 4AY", "addr:country": "GB", "name": "Primark Chatham", "phone": "+441634842062", "website": "https://www.primark.com/en-gb/stores/chatham/194-198-high-street", "opening_hours": "Mo-Sa 09:00-18:00; Su 10:30-16:30", "brand": "Primark", "brand:wikidata": "Q137023", "nsi_id": "primark-5d2556"}, "geometry": {"type": "Point", "coordinates": [0.5258431, 51.3822605]}},
{"type": "Feature", "id": "JmHbzn5T1wfNoopVItRgG27EdqU=", "properties": {"ref": "696", "payment:american_express": "yes", "payment:google_pay": "yes", "payment:apple_pay": "yes", "payment:cash": "yes", "payment:maestro": "yes", "payment:mastercard": "yes", "payment:visa": "yes", "@spider": "primark_gb", "shop": "clothes", "addr:street_address": "1 English Street", "addr:city": "Carlisle", "addr:postcode": "CA3 8NX", "addr:country": "GB", "name": "Primark Carlisle", "phone": "+441228599126", "website": "https://www.primark.com/en-gb/stores/carlisle/1-english-street", "opening_hours": "Mo-Fr 08:30-18:00; Sa 09:00-18:00; Su 10:00-16:30", "brand": "Primark", "brand:wikidata": "Q137023", "nsi_id": "primark-5d2556"}, "geometry": {"type": "Point", "coordinates": [-2.934565, 54.894372]}},
{"type": "Feature", "id": "ZmIm7OjwAmmrFiOouLYl3N2myW8=", "properties": {"ref": "649", "payment:american_express": "yes", "payment:google_pay": "yes", "payment:apple_pay": "yes", "payment:cash": "yes", "payment:maestro": "yes", "payment:mastercard": "yes", "payment:visa": "yes", "@spider": "primark_gb", "shop": "clothes", "addr:street_address": "62-74 Burleigh St", "addr:city": "Cambridge", "addr:postcode": "CB1 1DJ", "addr:country": "GB", "name": "Primark Cambridge", "phone": "+441223300026", "website": "https://www.primark.com/en-gb/stores/cambridge/62-74-burleigh-st", "opening_hours": "Mo-Tu 09:00-18:00; We 09:00-19:00; Th-Fr 09:00-18:00; Sa 09:00-18:30; Su 11:00-17:00", "brand": "Primark", "brand:wikidata": "Q137023", "nsi_id": "primark-5d2556"}, "geometry": {"type": "Point", "coordinates": [0.1321551, 52.2061758]}},
{"type": "Feature", "id": "77yskVIJZNs5CNeq6X5qi_E7KLI=", "properties": {"ref": "683", "payment:american_express": "yes", "payment:google_pay": "yes", "payment:apple_pay": "yes", "payment:cash": "yes", "payment:maestro": "yes", "payment:mastercard": "yes", "payment:visa": "yes", "@spider": "primark_gb", "shop": "clothes", "addr:street_address": "48 Queen Street", "addr:city": "Cardiff", "addr:postcode": "CF10 2GQ", "addr:country": "GB", "name": "Primark Cardiff", "phone": "+442920220605", "website": "https://www.primark.com/en-gb/stores/cardiff/48-queen-street", "opening_hours": "Mo-Fr 09:00-20:00; Sa 09:00-19:00; Su 10:30-17:00", "brand": "Primark", "brand:wikidata": "Q137023", "nsi_id": "primark-5d2556"}, "geometry": {"type": "Point", "coordinates": [-3.1756341, 51.4815178]}},
{"type": "Feature", "id": "F_C4zlTD6Wpymp5iMuhWLjfvv2M=", "properties": {"ref": "606", "payment:american_express": "yes", "payment:google_pay": "yes", "payment:apple_pay": "yes", "payment:cash": "yes", "payment:maestro": "yes", "payment:mastercard": "yes", "payment:visa": "yes", "@spider": "primark_gb", "shop": "clothes", "addr:street_address": "35 - 41 Park Street", "addr:city": "Camberley", "addr:postcode": "GU15 3PE", "addr:country": "GB", "name": "Primark Camberley", "phone": "+44127625903", "website": "https://www.primark.com/en-gb/stores/camberley/35-41-park-street", "opening_hours": "Mo-We 09:00-18:00; Th 09:00-20:00; Fr-Sa 09:00-18:00; Su 10:30-16:30", "brand": "Primark", "brand:wikidata": "Q137023", "nsi_id": "primark-5d2556"}, "geometry": {"type": "Point", "coordinates": [-0.7474715889547952, 51.33767694607343]}},
{"type": "Feature", "id": "UtlgVJBHNf4sA6uygA9j_9-YvZE=", "properties": {"ref": "688", "payment:american_express": "yes", "payment:google_pay": "yes", "payment:apple_pay": "yes", "payment:cash": "yes", "payment:maestro": "yes", "payment:mastercard": "yes", "payment:visa": "yes", "@spider": "primark_gb", "shop": "clothes", "addr:street_address": "Marlowe Arcade", "addr:city": "Canterbury", "addr:postcode": "CT1 2TE", "addr:country": "GB", "name": "Primark Canterbury", "phone": "+441227456002", "website": "https://www.primark.com/en-gb/stores/canterbury/marlowe-arcade", "opening_hours": "Mo-We 08:30-19:30; Th 08:30-20:00; Fr 08:30-19:30; Sa 08:30-19:00; Su 11:00-17:00", "brand": "Primark", "brand:wikidata": "Q137023", "nsi_id": "primark-5d2556"}, "geometry": {"type": "Point", "coordinates": [1.080109612688375, 51.27734861898992]}},
{"type": "Feature", "id": "W4hb3QcmwhYzSxYr-aGI_5gxLgM=", "properties": {"ref": "653", "payment:american_express": "yes", "payment:google_pay": "yes", "payment:apple_pay": "yes", "payment:cash": "yes", "payment:maestro": "yes", "payment:mastercard": "yes", "payment:visa": "yes", "@spider": "primark_gb", "shop": "clothes", "addr:street_address": "The Rock Shopping Centre, South Street", "addr:city": "Bury", "addr:postcode": "BL9 0ND", "addr:country": "GB", "name": "Primark Bury", "phone": "+441617970677", "website": "https://www.primark.com/en-gb/stores/bury/the-rock-shopping-centre", "opening_hours": "Mo-Sa 09:00-19:00; Su 10:30-17:00", "brand": "Primark", "brand:wikidata": "Q137023", "nsi_id": "primark-5d2556"}, "geometry": {"type": "Point", "coordinates": [-2.2907235, 53.5943679]}},
{"type": "Feature", "id": "nRc0anTPTtG1KEiS23Ks6V3o2N8=", "properties": {"ref": "441", "payment:american_express": "yes", "payment:google_pay": "yes", "payment:apple_pay": "yes", "payment:cash": "yes", "payment:maestro": "yes", "payment:mastercard": "yes", "payment:visa": "yes", "@spider": "primark_gb", "shop": "clothes", "addr:street_address": "Charter Walk Shopping Centre, 6 Curzon Street", "addr:city": "Burnley", "addr:postcode": "BB11 1BB", "addr:country": "GB", "name": "Primark Burnley", "phone": "+441282454790", "website": "https://www.primark.com/en-gb/stores/burnley/charter-walk-shopping-centre", "opening_hours": "Mo-Sa 09:00-17:30; Su 10:30-16:30", "brand": "Primark", "brand:wikidata": "Q137023", "nsi_id": "primark-5d2556"}, "geometry": {"type": "Point", "coordinates": [-2.2444678, 53.79083]}},
{"type": "Feature", "id": "eCzQ7J8kFSZaPqn8zUYZRsBFHXs=", "properties": {"ref": "604", "payment:american_express": "yes", "payment:google_pay": "yes", "payment:apple_pay": "yes", "payment:cash": "yes", "payment:maestro": "yes", "payment:mastercard": "yes", "payment:visa": "yes", "@spider": "primark_gb", "shop": "clothes", "addr:street_address": "22 - 26 St Modwens Walk, Coopers Square Shopping Centre", "addr:city": "Burton-on-Trent", "addr:postcode": "DE14 1HL", "addr:country": "GB", "name": "Primark Burton On Trent", "phone": "+441283515079", "website": "https://www.primark.com/en-gb/stores/burton-on-trent/22-26-st-modwens-walk", "opening_hours": "Mo-Sa 08:30-17:30; Su 10:00-16:30", "brand": "Primark", "brand:wikidata": "Q137023", "nsi_id": "primark-5d2556"}, "geometry": {"type": "Point", "coordinates": [-1.6314388811588287, 52.80141955528486]}},
{"type": "Feature", "id": "6sTUJ2DtEK0t3kNx_ZKJ_Iy8lQg=", "properties": {"ref": "550", "payment:american_express": "yes", "payment:google_pay": "yes", "payment:apple_pay": "yes", "payment:cash": "yes", "payment:maestro": "yes", "payment:mastercard": "yes", "payment:visa": "yes", "@spider": "primark_gb", "shop": "clothes", "addr:street_address": "1-27 The Horsefair", "addr:city": "Bristol", "addr:postcode": "BS1 3BB", "addr:country": "GB", "name": "Primark Bristol", "phone": "+441179225657", "website": "https://www.primark.com/en-gb/stores/bristol/1-27-the-horsefair", "opening_hours": "Mo-Sa 09:00-20:00; Su 10:30-17:00", "brand": "Primark", "brand:wikidata": "Q137023", "nsi_id": "primark-5d2556"}, "geometry": {"type": "Point", "coordinates": [-2.5912442, 51.4583698]}},
{"type": "Feature", "id": "2xI9l4JpUnk9P6HVWFeBtstxikM=", "properties": {"ref": "496", "payment:american_express": "yes", "payment:google_pay": "yes", "payment:apple_pay": "yes", "payment:cash": "yes", "payment:maestro": "yes", "payment:mastercard": "yes", "payment:visa": "yes", "@spider": "primark_gb", "shop": "clothes", "addr:street_address": "162 High Street", "addr:city": "Bromley", "addr:postcode": "BR1 1HE", "addr:country": "GB", "name": "Primark Bromley", "phone": "+442084640640", "website": "https://www.primark.com/en-gb/stores/bromley/162-high-street", "opening_hours": "Mo-We 08:00-19:00; Th 08:00-21:00; Fr-Sa 08:00-19:00; Su 11:00-17:00", "brand": "Primark", "brand:wikidata": "Q137023", "nsi_id": "primark-5d2556"}, "geometry": {"type": "Point", "coordinates": [0.0146526, 51.4052391]}},
{"type": "Feature", "id": "3nWz6ZnAnLEdeNLMI3epeC9wCuM=", "properties": {"ref": "479", "payment:american_express": "yes", "payment:google_pay": "yes", "payment:apple_pay": "yes", "payment:cash": "yes", "payment:maestro": "yes", "payment:mastercard": "yes", "payment:visa": "yes", "@spider": "primark_gb", "shop": "clothes", "addr:street_address": "Monks Cross Shopping Park, Monks Cross Drive", "addr:city": "York", "addr:postcode": "YO32 9JR", "addr:country": "GB", "name": "Primark York - Monks Cross", "phone": "+441904658421", "website": "https://www.primark.com/en-gb/stores/york/monks-cross-shopping-park", "opening_hours": "Mo-Fr 09:00-20:00; Sa 09:00-19:00; Su 11:00-17:00", "brand": "Primark", "brand:wikidata": "Q137023", "nsi_id": "primark-5d2556"}, "geometry": {"type": "Point", "coordinates": [-1.0426851002903277, 53.988032192971914]}},
{"type": "Feature", "id": "WxjzFaALR7PxO_-NDkPXsuJVUd4=", "properties": {"ref": "478", "payment:american_express": "yes", "payment:google_pay": "yes", "payment:apple_pay": "yes", "payment:cash": "yes", "payment:maestro": "yes", "payment:mastercard": "yes", "payment:visa": "yes", "@spider": "primark_gb", "shop": "clothes", "addr:street_address": "19-20, Coppergate Shopping Centre", "addr:city": "York", "addr:postcode": "YO1 9NT", "addr:country": "GB", "name": "Primark York - Coppergate", "phone": "+441904635072", "website": "https://www.primark.com/en-gb/stores/york/19-20-coppergate-shopping-centre", "opening_hours": "Mo-Sa 09:00-18:30; Su 11:00-17:00", "brand": "Primark", "brand:wikidata": "Q137023", "nsi_id": "primark-5d2556"}, "geometry": {"type": "Point", "coordinates": [-1.079810766864739, 53.95747098530088]}},
{"type": "Feature", "id": "3vtzSkbt0vAVmrlMjS-uqvokk8c=", "properties": {"ref": "667", "payment:american_express": "yes", "payment:google_pay": "yes", "payment:apple_pay": "yes", "payment:cash": "yes", "payment:maestro": "yes", "payment:mastercard": "yes", "payment:visa": "yes", "@spider": "primark_gb", "shop": "clothes", "addr:street_address": "19 Middle Street", "addr:city": "Yeovil", "addr:postcode": "BA20 1LF", "addr:country": "GB", "name": "Primark Yeovil", "phone": "+441935410229", "website": "https://www.primark.com/en-gb/stores/yeovil/19-middle-street", "opening_hours": "Mo-Sa 09:00-18:00; Su 09:30-16:00", "brand": "Primark", "brand:wikidata": "Q137023", "nsi_id": "primark-5d2556"}, "geometry": {"type": "Point", "coordinates": [-2.6308333, 50.9414557]}},
{"type": "Feature", "id": "OsbgipJOlbXeSX96zvTsxGPGvnA=", "properties": {"ref": "660", "payment:american_express": "yes", "payment:google_pay": "yes", "payment:apple_pay": "yes", "payment:cash": "yes", "payment:maestro": "yes", "payment:mastercard": "yes", "payment:visa": "yes", "@spider": "primark_gb", "shop": "clothes", "addr:street_address": "29, Crown Gate Shopping Centre", "addr:city": "Worcester", "addr:postcode": "WR1 3LD", "addr:country": "GB", "name": "Primark Worcester", "phone": "+441905739330", "website": "https://www.primark.com/en-gb/stores/worcester/29-crown-gate-shopping-centre", "opening_hours": "Mo-Sa 09:00-18:00; Su 10:30-17:00", "brand": "Primark", "brand:wikidata": "Q137023", "nsi_id": "primark-5d2556"}, "geometry": {"type": "Point", "coordinates": [-2.221869999999967, 52.19146818202697]}},
{"type": "Feature", "id": "qEEjKTy4LTDfXpPrQD0FIw6ilY8=", "properties": {"ref": "526", "payment:american_express": "yes", "payment:google_pay": "yes", "payment:apple_pay": "yes", "payment:cash": "yes", "payment:maestro": "yes", "payment:mastercard": "yes", "payment:visa": "yes", "@spider": "primark_gb", "shop": "clothes", "addr:street_address": "27 - 29 Regent Street", "addr:city": "Wrexham", "addr:postcode": "LL11 1RY", "addr:country": "GB", "name": "Primark Wrexham", "phone": "+441978358425", "website": "https://www.primark.com/en-gb/stores/wrexham/27-29-regent-street", "opening_hours": "Mo-Sa 09:00-17:30; Su 10:00-16:30", "brand": "Primark", "brand:wikidata": "Q137023", "nsi_id": "primark-5d2556"}, "geometry": {"type": "Point", "coordinates": [-2.9967195, 53.0466957]}},
{"type": "Feature", "id": "E84kQRMo2JkZMYKI0L85cN4x8H4=", "properties": {"ref": "639", "payment:american_express": "yes", "payment:google_pay": "yes", "payment:apple_pay": "yes", "payment:cash": "yes", "payment:maestro": "yes", "payment:mastercard": "yes", "payment:visa": "yes", "@spider": "primark_gb", "shop": "clothes", "addr:street_address": "4 Wulfrun Square", "addr:city": "Wolverhampton", "addr:postcode": "WV1 3HF", "addr:country": "GB", "name": "Primark Wolverhampton", "phone": "+441902311591", "website": "https://www.primark.com/en-gb/stores/wolverhampton/4-wulfrun-square", "opening_hours": "Mo-Sa 09:00-18:00; Su 10:30-16:30", "brand": "Primark", "brand:wikidata": "Q137023", "nsi_id": "primark-5d2556"}, "geometry": {"type": "Point", "coordinates": [-2.1260574942493804, 52.58396199824113]}},
{"type": "Feature", "id": "JL5cTPhJFG5irX_WSNnnF72EkS4=", "properties": {"ref": "536", "payment:american_express": "yes", "payment:google_pay": "yes", "payment:apple_pay": "yes", "payment:cash": "yes", "payment:maestro": "yes", "payment:mastercard": "yes", "payment:visa": "yes", "@spider": "primark_gb", "shop": "clothes", "addr:street_address": "Store 2, The Peacocks Centre", "addr:city": "Woking", "addr:postcode": "GU21 6GD", "addr:country": "GB", "name": "Primark Woking", "phone": "+441483720816", "website": "https://www.primark.com/en-gb/stores/woking/store-2", "opening_hours": "Mo-We 09:00-18:00; Th 09:00-20:00; Fr-Sa 09:00-18:00; Su 11:00-17:00", "brand": "Primark", "brand:wikidata": "Q137023", "nsi_id": "primark-5d2556"}, "geometry": {"type": "Point", "coordinates": [-0.5610496, 51.3195864]}},
{"type": "Feature", "id": "Czr9MLaBTgHIiEYhrM3LL4r-fSk=", "properties": {"ref": "589", "payment:american_express": "yes", "payment:google_pay": "yes", "payment:apple_pay": "yes", "payment:cash": "yes", "payment:maestro": "yes", "payment:mastercard": "yes", "payment:visa": "yes", "@spider": "primark_gb", "shop": "clothes", "addr:street_address": "Unit 425 Lakeside Shopping Centre", "addr:city": "West Thurrock", "addr:postcode": "RM20 2ZP", "addr:country": "GB", "name": "Primark Lakeside", "phone": "+441708252472", "website": "https://www.primark.com/en-gb/stores/west-thurrock/unit-425-lakeside-shopping-centre", "opening_hours": "Mo-Fr 08:30-22:00; Sa 08:30-21:00; Su 11:00-17:00", "brand": "Primark", "brand:wikidata": "Q137023", "nsi_id": "primark-5d2556"}, "geometry": {"type": "Point", "coordinates": [0.28442680835723877, 51.487562943807674]}},
{"type": "Feature", "id": "AcEPx1XXD0TiKCcb-6e8r7BGu4U=", "properties": {"ref": "657", "payment:american_express": "yes", "payment:google_pay": "yes", "payment:apple_pay": "yes", "payment:cash": "yes", "payment:maestro": "yes", "payment:mastercard": "yes", "payment:visa": "yes", "@spider": "primark_gb", "shop": "clothes", "addr:street_address": "Winchester Primark Unit, The Brooks Shopping Centre", "addr:city": "Winchester", "addr:postcode": "SO23 8QY", "addr:country": "GB", "name": "Primark Winchester", "phone": "+441962852966", "website": "https://www.primark.com/en-gb/stores/winchester/winchester-primark-unit", "opening_hours": "Mo-Sa 09:00-18:00; Su 10:00-16:30", "brand": "Primark", "brand:wikidata": "Q137023", "nsi_id": "primark-5d2556"}, "geometry": {"type": "Point", "coordinates": [-1.3125503, 51.0626636]}},
{"type": "Feature", "id": "o3Sfh5FJfhV04KfA46eDD9Fat8g=", "properties": {"ref": "530", "payment:american_express": "yes", "payment:google_pay": "yes", "payment:apple_pay": "yes", "payment:cash": "yes", "payment:maestro": "yes", "payment:mastercard": "yes", "payment:visa": "yes", "@spider": "primark_gb", "shop": "clothes", "addr:street_address": "45 - 51 Standish Gate", "addr:city": "Wigan", "addr:postcode": "WN1 1UP", "addr:country": "GB", "name": "Primark Wigan", "phone": "+441942491850", "website": "https://www.primark.com/en-gb/stores/wigan/45-51-standish-gate", "opening_hours": "Mo-Sa 09:00-17:30; Su 10:30-17:00", "brand": "Primark", "brand:wikidata": "Q137023", "nsi_id": "primark-5d2556"}, "geometry": {"type": "Point", "coordinates": [-2.629900574684143, 53.54833521447257]}},
{"type": "Feature", "id": "7Y-w8g4in1y_E2AYvlJo9JfiC94=", "properties": {"ref": "684", "payment:american_express": "yes", "payment:google_pay": "yes", "payment:apple_pay": "yes", "payment:cash": "yes", "payment:maestro": "yes", "payment:mastercard": "yes", "payment:visa": "yes", "@spider": "primark_gb", "shop": "clothes", "addr:street_address": "30 New Square", "addr:city": "West Bromwich", "addr:postcode": "B70 7PP", "addr:country": "GB", "name": "Primark West Bromwich", "phone": "+441215532696", "website": "https://www.primark.com/en-gb/stores/west-bromwich/30-new-square", "opening_hours": "Mo-Sa 09:00-20:00; Su 11:00-17:00", "brand": "Primark", "brand:wikidata": "Q137023", "nsi_id": "primark-5d2556"}, "geometry": {"type": "Point", "coordinates": [-1.989556058860785, 52.518958223196975]}},
{"type": "Feature", "id": "-h0-K1-qFGxBa5iLVUN7LrfTjaQ=", "properties": {"ref": "515", "payment:american_express": "yes", "payment:google_pay": "yes", "payment:apple_pay": "yes", "payment:cash": "yes", "payment:maestro": "yes", "payment:mastercard": "yes", "payment:visa": "yes", "@spider": "primark_gb", "shop": "clothes", "addr:street_address": "508 High Road", "addr:city": "Wembley", "addr:postcode": "HA9 7BS", "addr:country": "GB", "name": "Primark Wembley", "phone": "+442089021313", "website": "https://www.primark.com/en-gb/stores/wembley/508-high-road", "opening_hours": "Mo-Fr 09:00-19:30; Sa 09:00-19:00; Su 11:00-17:00", "brand": "Primark", "brand:wikidata": "Q137023", "nsi_id": "primark-5d2556"}, "geometry": {"type": "Point", "coordinates": [-0.29600992798805237, 51.55291406239978]}},
{"type": "Feature", "id": "mJ7M6t4IyZEFrZGqVPUMbEmRIzg=", "properties": {"ref": "580", "payment:american_express": "yes", "payment:google_pay": "yes", "payment:apple_pay": "yes", "payment:cash": "yes", "payment:maestro": "yes", "payment:mastercard": "yes", "payment:visa": "yes", "@spider": "primark_gb", "shop": "clothes", "addr:street_address": "109-111 High Street", "addr:city": "Watford", "addr:postcode": "WD17 2TA", "addr:country": "GB", "name": "Primark Watford", "phone": "+441923831835", "website": "https://www.primark.com/en-gb/stores/watford/109-111-high-street", "opening_hours": "Mo-We 09:00-18:30; Th 09:00-21:00; Fr-Sa 09:00-20:00; Su 10:30-17:00", "brand": "Primark", "brand:wikidata": "Q137023", "nsi_id": "primark-5d2556"}, "geometry": {"type": "Point", "coordinates": [-0.394305425760308, 51.65447230454248]}},
{"type": "Feature", "id": "AGopdk588EWiOlIu-o9I0A_utxE=", "properties": {"ref": "576", "payment:american_express": "yes", "payment:google_pay": "yes", "payment:apple_pay": "yes", "payment:cash": "yes", "payment:maestro": "yes", "payment:mastercard": "yes", "payment:visa": "yes", "@spider": "primark_gb", "shop": "clothes", "addr:street_address": "25 - 28 Liscard Way", "addr:city": "Wallasey", "addr:postcode": "CH44 5TL", "addr:country": "GB", "name": "Primark Wallasey", "phone": "+441516370464", "website": "https://www.primark.com/en-gb/stores/wallasey/25-28-liscard-way", "opening_hours": "Mo-Sa 09:00-17:30; Su 10:00-16:00", "brand": "Primark", "brand:wikidata": "Q137023", "nsi_id": "primark-5d2556"}, "geometry": {"type": "Point", "coordinates": [-3.044764224536948, 53.41990660619451]}},
{"type": "Feature", "id": "3gzfJca2zJoyo2leUptRDAFu8cM=", "properties": {"ref": "681", "payment:american_express": "yes", "payment:google_pay": "yes", "payment:apple_pay": "yes", "payment:cash": "yes", "payment:maestro": "yes", "payment:mastercard": "yes", "payment:visa": "yes", "@spider": "primark_gb", "shop": "clothes", "addr:street_address": "Golden Square, Sankey street", "addr:city": "Warrington", "addr:postcode": "WA1 1TD", "addr:country": "GB", "name": "Primark Warrington", "phone": "+441925650611", "website": "https://www.primark.com/en-gb/stores/warrington/golden-square", "opening_hours": "Mo-We 09:00-18:00; Th 09:00-20:00; Fr-Sa 09:00-18:00; Su 11:00-17:00", "brand": "Primark", "brand:wikidata": "Q137023", "nsi_id": "primark-5d2556"}, "geometry": {"type": "Point", "coordinates": [-2.5957131385803223, 53.39035422461224]}},
{"type": "Feature", "id": "y4Oh1WJ1mBU23zZjkjUh7p4fzqw=", "properties": {"ref": "690", "payment:american_express": "yes", "payment:google_pay": "yes", "payment:apple_pay": "yes", "payment:cash": "yes", "payment:maestro": "yes", "payment:mastercard": "yes", "payment:visa": "yes", "@spider": "primark_gb", "shop": "clothes", "addr:street_address": "1-7 Digbeth", "addr:city": "Walsall", "addr:postcode": "WS1 1QA", "addr:country": "GB", "name": "Primark Walsall", "phone": "+441922474785", "website": "https://www.primark.com/en-gb/stores/walsall/1-7-digbeth", "opening_hours": "Mo-Sa 08:30-18:00; Su 10:30-16:30", "brand": "Primark", "brand:wikidata": "Q137023", "nsi_id": "primark-5d2556"}, "geometry": {"type": "Point", "coordinates": [-1.9811466336250305, 52.583861910133116]}},
{"type": "Feature", "id": "yrc0XgB9lf5IoI2HikH1yWOiR6Q=", "properties": {"ref": "483", "payment:american_express": "yes", "payment:google_pay": "yes", "payment:apple_pay": "yes", "payment:cash": "yes", "payment:maestro": "yes", "payment:mastercard": "yes", "payment:visa": "yes", "@spider": "primark_gb", "shop": "clothes", "addr:street_address": "1 Chequers Mall", "addr:city": "Uxbridge", "addr:postcode": "UB8 1LN", "addr:country": "GB", "name": "Primark Uxbridge", "phone": "+441895553024", "website": "https://www.primark.com/en-gb/stores/uxbridge/1-chequers-mall", "opening_hours": "Mo-Sa 09:00-19:00; Su 10:45-17:00", "brand": "Primark", "brand:wikidata": "Q137023", "nsi_id": "primark-5d2556"}, "geometry": {"type": "Point", "coordinates": [-0.481019, 51.5473181]}},
{"type": "Feature", "id": "JwFPzk0n2VCmAVqqvrwhnzRd_J0=", "properties": {"ref": "579", "payment:american_express": "yes", "payment:google_pay": "yes", "payment:apple_pay": "yes", "payment:cash": "yes", "payment:maestro": "yes", "payment:mastercard": "yes", "payment:visa": "yes", "@spider": "primark_gb", "shop": "clothes", "addr:street_address": "57 - 58 Bishopsgate Walk, The Ridings Shopping Centre", "addr:city": "Wakefield", "addr:postcode": "WF1 1YB", "addr:country": "GB", "name": "Primark Wakefield", "phone": "+441924376498", "website": "https://www.primark.com/en-gb/stores/wakefield/57-58-bishopsgate-walk", "opening_hours": "Mo-Sa 09:00-17:30; Su 10:30-16:30", "brand": "Primark", "brand:wikidata": "Q137023", "nsi_id": "primark-5d2556"}, "geometry": {"type": "Point", "coordinates": [-1.4978769421577454, 53.68202260210157]}},
{"type": "Feature", "id": "F20Y5CGUKcXS43X5wMUbWesAEEU=", "properties": {"ref": "480", "payment:american_express": "yes", "payment:google_pay": "yes", "payment:apple_pay": "yes", "payment:cash": "yes", "payment:maestro": "yes", "payment:mastercard": "yes", "payment:visa": "yes", "@spider": "primark_gb", "shop": "clothes", "addr:street_address": "Lemon Quay", "addr:city": "Truro", "addr:postcode": "TR1 2LW", "addr:country": "GB", "name": "Primark Lemon Quay", "phone": "+441872222179", "website": "https://www.primark.com/en-gb/stores/truro/lemon-quay", "opening_hours": "Mo-Sa 08:30-18:00; Su 10:30-16:30", "brand": "Primark", "brand:wikidata": "Q137023", "nsi_id": "primark-5d2556"}, "geometry": {"type": "Point", "coordinates": [-5.0500374, 50.2619571]}},
{"type": "Feature", "id": "XgwW_6ej30wRQwnq0etIn8v8esc=", "properties": {"ref": "547", "payment:american_express": "yes", "payment:google_pay": "yes", "payment:apple_pay": "yes", "payment:cash": "yes", "payment:maestro": "yes", "payment:mastercard": "yes", "payment:visa": "yes", "@spider": "primark_gb", "shop": "clothes", "addr:street_address": "27-33 Union Street", "addr:city": "Torquay", "addr:postcode": "TQ1 1ES", "addr:country": "GB", "name": "Primark Torquay", "phone": "+441803290627", "website": "https://www.primark.com/en-gb/stores/torquay/27-33-union-street", "opening_hours": "Mo-Sa 09:00-18:00; Su 10:00-16:30", "brand": "Primark", "brand:wikidata": "Q137023", "nsi_id": "primark-5d2556"}, "geometry": {"type": "Point", "coordinates": [-3.5279847, 50.4658689]}},
{"type": "Feature", "id": "I2660qIeYi6FDKlZzoBycuq5b6s=", "properties": {"ref": "529", "payment:american_express": "yes", "payment:google_pay": "yes", "payment:apple_pay": "yes", "payment:cash": "yes", "payment:maestro": "yes", "payment:mastercard": "yes", "payment:visa": "yes", "@spider": "primark_gb", "shop": "clothes", "addr:street_address": "27 - 30a East Street", "addr:city": "Taunton", "addr:postcode": "TA1 3LS", "addr:country": "GB", "name": "Primark Taunton", "phone": "+441823331320", "website": "https://www.primark.com/en-gb/stores/taunton/27-30a-east-street", "opening_hours": "Mo-Sa 09:00-18:00; Su 10:00-16:30", "brand": "Primark", "brand:wikidata": "Q137023", "nsi_id": "primark-5d2556"}, "geometry": {"type": "Point", "coordinates": [-3.099109280774428, 51.01486907283773]}},
{"type": "Feature", "id": "pU0lWCrt-uDosQSHozEstjPnogE=", "properties": {"ref": "578", "payment:american_express": "yes", "payment:google_pay": "yes", "payment:apple_pay": "yes", "payment:cash": "yes", "payment:maestro": "yes", "payment:mastercard": "yes", "payment:visa": "yes", "@spider": "primark_gb", "shop": "clothes", "addr:street_address": "208 Dean Street, The Telford Centre", "addr:city": "Telford", "addr:postcode": "TF3 4AP", "addr:country": "GB", "name": "Primark Telford", "phone": "+441952293288", "website": "https://www.primark.com/en-gb/stores/telford/208-dean-street", "opening_hours": "Mo-We 09:00-18:00; Th 09:00-20:00; Fr-Sa 09:00-18:00; Su 10:30-16:30", "brand": "Primark", "brand:wikidata": "Q137023", "nsi_id": "primark-5d2556"}, "geometry": {"type": "Point", "coordinates": [-2.447592, 52.67704]}},
{"type": "Feature", "id": "xidO31IW7FvoNR-1hOHxE6ae7R8=", "properties": {"ref": "446", "@spider": "primark_gb", "shop": "clothes", "addr:street_address": "Ventura Park Road, Unit 8, Ventura Retail Park", "addr:city": "Tamworth", "addr:postcode": "B78 3HB", "addr:country": "GB", "name": "Primark Tamworth", "phone": "+441827306690", "website": "https://www.primark.com/en-gb/stores/tamworth/ventura-park-road", "opening_hours": "Mo-Sa 09:00-21:00; Su 11:00-17:00", "brand": "Primark", "brand:wikidata": "Q137023", "nsi_id": "primark-5d2556"}, "geometry": {"type": "Point", "coordinates": [-1.702122451589967, 52.62664092051591]}},
{"type": "Feature", "id": "fFyXxT4-EiqsE3wvR2OY2lqCEtQ=", "properties": {"ref": "638", "payment:american_express": "yes", "payment:google_pay": "yes", "payment:apple_pay": "yes", "payment:cash": "yes", "payment:maestro": "yes", "payment:mastercard": "yes", "payment:visa": "yes", "@spider": "primark_gb", "shop": "clothes", "addr:street_address": "8 - 9 Regent Street", "addr:city": "Swindon", "addr:postcode": "SN1 1JQ", "addr:country": "GB", "name": "Primark Swindon", "phone": "+441793530065", "website": "https://www.primark.com/en-gb/stores/swindon/8-9-regent-street", "opening_hours": "Mo-Sa 09:00-18:00; Su 10:30-16:30", "brand": "Primark", "brand:wikidata": "Q137023", "nsi_id": "primark-5d2556"}, "geometry": {"type": "Point", "coordinates": [-1.7844133079051971, 51.56129636135784]}},
{"type": "Feature", "id": "xmWH84ceE4kBHeI7JhxLyDswBO4=", "properties": {"ref": "636", "payment:american_express": "yes", "payment:google_pay": "yes", "payment:apple_pay": "yes", "payment:cash": "yes", "payment:maestro": "yes", "payment:mastercard": "yes", "payment:visa": "yes", "@spider": "primark_gb", "shop": "clothes", "addr:street_address": "St. Nicholas Shopping Centre, St. Nicholas Way", "addr:city": "Sutton", "addr:postcode": "SM1 1AX", "addr:country": "GB", "name": "Primark Sutton", "phone": "+442086619234", "website": "https://www.primark.com/en-gb/stores/sutton/st-nicholas-shopping-centre", "opening_hours": "Mo-Sa 09:00-18:00; Su 10:30-16:30", "brand": "Primark", "brand:wikidata": "Q137023", "nsi_id": "primark-5d2556"}, "geometry": {"type": "Point", "coordinates": [-0.1942361, 51.3640578]}},
{"type": "Feature", "id": "RGsNqxE6OROhvp2DF2L4vq8ETxc=", "properties": {"ref": "671", "payment:american_express": "yes", "payment:google_pay": "yes", "payment:apple_pay": "yes", "payment:cash": "yes", "payment:maestro": "yes", "payment:mastercard": "yes", "payment:visa": "yes", "@spider": "primark_gb", "shop": "clothes", "addr:street_address": "127- 128 The Arcade", "addr:city": "Stratford", "addr:postcode": "E20 1EL", "addr:country": "GB", "name": "Primark Stratford", "phone": "+442085198941", "website": "https://www.primark.com/en-gb/stores/stratford/127-128-the-arcade", "opening_hours": "Mo-Sa 09:00-21:30; Su 12:00-18:00", "brand": "Primark", "brand:wikidata": "Q137023", "nsi_id": "primark-5d2556"}, "geometry": {"type": "Point", "coordinates": [-0.0058528, 51.5439298]}},
{"type": "Feature", "id": "nIX9Z25cdGMbj3I8NqOe6Lc3qPw=", "properties": {"ref": "680", "payment:american_express": "yes", "payment:google_pay": "yes", "payment:apple_pay": "yes", "payment:cash": "yes", "payment:maestro": "yes", "payment:mastercard": "yes", "payment:visa": "yes", "@spider": "primark_gb", "shop": "clothes", "addr:street_address": "The Bridges Shopping Centre", "addr:city": "Sunderland", "addr:postcode": "SR1 3DR", "addr:country": "GB", "name": "Primark Sunderland", "phone": "+441915640798", "website": "https://www.primark.com/en-gb/stores/sunderland/the-bridges-shopping-centre", "opening_hours": "Mo-We 09:00-18:00; Th 09:00-20:00; Fr-Sa 09:00-18:00; Su 10:00-16:00", "brand": "Primark", "brand:wikidata": "Q137023", "nsi_id": "primark-5d2556"}, "geometry": {"type": "Point", "coordinates": [-1.387477525131203, 54.90588232706407]}},
{"type": "Feature", "id": "764HVXYIvM3L0-fvk92XQYMRwUw=", "properties": {"ref": "669", "payment:american_express": "yes", "payment:google_pay": "yes", "payment:apple_pay": "yes", "payment:cash": "yes", "payment:maestro": "yes", "payment:mastercard": "yes", "payment:visa": "yes", "@spider": "primark_gb", "shop": "clothes", "addr:street_address": "Chestergate", "addr:city": "Stockport", "addr:postcode": "SK1 1NT", "addr:country": "GB", "name": "Primark Stockport", "phone": "+441614772688", "website": "https://www.primark.com/en-gb/stores/stockport/chestergate", "opening_hours": "Mo-Sa 08:30-18:00; Su 10:30-17:00", "brand": "Primark", "brand:wikidata": "Q137023", "nsi_id": "primark-5d2556"}, "geometry": {"type": "Point", "coordinates": [-2.1601120882911573, 53.41042583842221]}},
{"type": "Feature", "id": "ccXImeNQhmrwQt-VlwloXB10Kyw=", "properties": {"ref": "619", "payment:american_express": "yes", "payment:google_pay": "yes", "payment:apple_pay": "yes", "payment:cash": "yes", "payment:maestro": "yes", "payment:mastercard": "yes", "payment:visa": "yes", "@spider": "primark_gb", "shop": "clothes", "addr:street_address": "2 - 10 Lamb Street, Hanley", "addr:city": "Stoke-On-Trent", "addr:postcode": "ST1 1PS", "addr:country": "GB", "name": "Primark Hanley", "phone": "+441782209804", "website": "https://www.primark.com/en-gb/stores/stoke-on-trent/2-10-lamb-street", "opening_hours": "Mo-We 09:00-19:00; Th 09:00-20:00; Fr-Sa 09:00-19:00; Su 10:00-16:30", "brand": "Primark", "brand:wikidata": "Q137023", "nsi_id": "primark-5d2556"}, "geometry": {"type": "Point", "coordinates": [-2.175397574901581, 53.026804809503496]}},
{"type": "Feature", "id": "wlCrbfLw4g1FVVw8mwaAhdZTJWw=", "properties": {"ref": "537", "payment:american_express": "yes", "payment:google_pay": "yes", "payment:apple_pay": "yes", "payment:cash": "yes", "payment:maestro": "yes", "payment:mastercard": "yes", "payment:visa": "yes", "@spider": "primark_gb", "shop": "clothes", "addr:street_address": "Thistle Marches, Goosecroft Road", "addr:city": "Stirling", "addr:postcode": "FK8 2EA", "addr:country": "GB", "name": "Primark Stirling", "phone": "+441786430415", "website": "https://www.primark.com/en-gb/stores/stirling/thistle-marches", "opening_hours": "Mo-Fr 09:00-17:30; Sa 09:00-18:00; Su 10:00-17:00", "brand": "Primark", "brand:wikidata": "Q137023", "nsi_id": "primark-5d2556"}, "geometry": {"type": "Point", "coordinates": [-3.9332044, 56.1163487]}},
{"type": "Feature", "id": "exDSTXJMcCAe1NSKKoH8QtqXPf4=", "properties": {"ref": "525", "payment:american_express": "yes", "payment:google_pay": "yes", "payment:apple_pay": "yes", "payment:cash": "yes", "payment:maestro": "yes", "payment:mastercard": "yes", "payment:visa": "yes", "@spider": "primark_gb", "shop": "clothes", "addr:street_address": "6 - 8 Town Square", "addr:city": "Stevenage", "addr:postcode": "SG1 1BP", "addr:country": "GB", "name": "Primark Stevenage", "phone": "+441438315246", "website": "https://www.primark.com/en-gb/stores/stevenage/6-8-town-square", "opening_hours": "Mo-Fr 09:00-17:30; Sa 09:00-18:00; Su 10:30-16:30", "brand": "Primark", "brand:wikidata": "Q137023", "nsi_id": "primark-5d2556"}, "geometry": {"type": "Point", "coordinates": [-0.20181844351100153, 51.90113178303495]}},
{"type": "Feature", "id": "sPgLd6qK9f1ACyYX6WiwF1tUEKM=", "properties": {"ref": "442", "payment:american_express": "yes", "payment:google_pay": "yes", "payment:apple_pay": "yes", "payment:cash": "yes", "payment:maestro": "yes", "payment:mastercard": "yes", "payment:visa": "yes", "@spider": "primark_gb", "shop": "clothes", "addr:street_address": "Elmsleigh Shopping Centre, 62 South Street", "addr:city": "Staines-upon-Thames", "addr:postcode": "TW18 4QB", "addr:country": "GB", "name": "Primark Elmsleigh Shopping Centre", "phone": "+441784442603", "website": "https://www.primark.com/en-gb/stores/staines-upon-thames/elmsleigh-shopping-centre", "opening_hours": "Mo-Sa 09:00-18:30; Su 10:00-16:30", "brand": "Primark", "brand:wikidata": "Q137023", "nsi_id": "primark-5d2556"}, "geometry": {"type": "Point", "coordinates": [-0.5092556, 51.4334629]}},
{"type": "Feature", "id": "KTP1hBnPHzheFWX1gZUULIMp9rA=", "properties": {"ref": "635", "payment:american_express": "yes", "payment:google_pay": "yes", "payment:apple_pay": "yes", "payment:cash": "yes", "payment:maestro": "yes", "payment:mastercard": "yes", "payment:visa": "yes", "@spider": "primark_gb", "shop": "clothes", "addr:street_address": "1 Chapel Street", "addr:city": "Southport", "addr:postcode": "PR8 1AE", "addr:country": "GB", "name": "Primark Southport", "phone": "+441704539629", "website": "https://www.primark.com/en-gb/stores/southport/1-chapel-street", "opening_hours": "Mo-Sa 09:00-18:00; Su 10:00-16:30", "brand": "Primark", "brand:wikidata": "Q137023", "nsi_id": "primark-5d2556"}, "geometry": {"type": "Point", "coordinates": [-3.005558, 53.6465093]}},
{"type": "Feature", "id": "i1eIBeDsl11Is8T-E70talNsgBA=", "properties": {"ref": "697", "payment:american_express": "yes", "payment:google_pay": "yes", "payment:apple_pay": "yes", "payment:cash": "yes", "payment:maestro": "yes", "payment:mastercard": "yes", "payment:visa": "yes", "@spider": "primark_gb", "shop": "clothes", "addr:street_address": "6, Riverside, South Walls", "addr:city": "Stafford", "addr:postcode": "ST16 3AL", "addr:country": "GB", "name": "Primark Stafford", "phone": "+441785246292", "website": "https://www.primark.com/en-gb/stores/stafford/6-riverside", "opening_hours": "Mo-Sa 09:00-19:00; Su 10:30-17:00", "brand": "Primark", "brand:wikidata": "Q137023", "nsi_id": "primark-5d2556"}, "geometry": {"type": "Point", "coordinates": [-2.1124244, 52.8054638]}},
{"type": "Feature", "id": "T4wCseHvVVONH3MWcnImdu9WrM4=", "properties": {"ref": "433", "payment:american_express": "yes", "payment:google_pay": "yes", "payment:apple_pay": "yes", "payment:cash": "yes", "payment:maestro": "yes", "payment:mastercard": "yes", "payment:visa": "yes", "@spider": "primark_gb", "shop": "clothes", "addr:street_address": "36-44 High Street", "addr:city": "Southend-on-Sea", "addr:postcode": "SS1 1JG", "addr:country": "GB", "name": "Primark Southend On Sea", "phone": "+441702443490", "website": "https://www.primark.com/en-gb/stores/southend-on-sea/36-44-high-street", "opening_hours": "Mo-Fr 09:00-18:00; Sa 08:30-18:00; Su 10:00-16:30", "brand": "Primark", "brand:wikidata": "Q137023", "nsi_id": "primark-5d2556"}, "geometry": {"type": "Point", "coordinates": [0.7144397478677611, 51.535574010981264]}},
{"type": "Feature", "id": "R9MuUhHnLAHPdn8BWF52a_3nUlU=", "properties": {"ref": "518", "payment:american_express": "yes", "payment:google_pay": "yes", "payment:apple_pay": "yes", "payment:cash": "yes", "payment:maestro": "yes", "payment:mastercard": "yes", "payment:visa": "yes", "@spider": "primark_gb", "shop": "clothes", "addr:street_address": "22 - 28 Above Bar Street", "addr:city": "Southampton", "addr:postcode": "SO14 7DQ", "addr:country": "GB", "name": "Primark Southampton", "phone": "+442380633553", "website": "https://www.primark.com/en-gb/stores/southampton/22-28-above-bar-street", "opening_hours": "Mo-Fr 09:00-20:00; Sa 09:00-19:00; Su 10:30-17:00", "brand": "Primark", "brand:wikidata": "Q137023", "nsi_id": "primark-5d2556"}, "geometry": {"type": "Point", "coordinates": [-1.4032549, 50.9035682]}},
{"type": "Feature", "id": "PLECi57JJV6EKj1x9Ud6poeR-QM=", "properties": {"ref": "573", "payment:american_express": "yes", "payment:google_pay": "yes", "payment:apple_pay": "yes", "payment:cash": "yes", "payment:maestro": "yes", "payment:mastercard": "yes", "payment:visa": "yes", "@spider": "primark_gb", "shop": "clothes", "addr:street_address": "Unit 8 The Observatory", "addr:city": "Slough", "addr:postcode": "SL1 1LE", "addr:country": "GB", "name": "Primark Slough", "phone": "+441753571363", "website": "https://www.primark.com/en-gb/stores/slough/unit-8-the-observatory", "opening_hours": "Mo-We 09:00-18:00; Th 09:00-19:00; Fr 09:00-18:00; Sa 09:00-19:00; Su 11:00-17:00", "brand": "Primark", "brand:wikidata": "Q137023", "nsi_id": "primark-5d2556"}, "geometry": {"type": "Point", "coordinates": [-0.5877583, 51.5085425]}},
{"type": "Feature", "id": "WC4HozAwsJe2Pddcz2fjeNvoTUY=", "properties": {"ref": "642", "payment:american_express": "yes", "payment:google_pay": "yes", "payment:apple_pay": "yes", "payment:cash": "yes", "payment:maestro": "yes", "payment:mastercard": "yes", "payment:visa": "yes", "@spider": "primark_gb", "shop": "clothes", "addr:street_address": "The Meadowhall Shopping Centre, 2 The Gallery", "addr:city": "Sheffield", "addr:postcode": "S9 1ER", "addr:country": "GB", "name": "Primark Meadowhall", "phone": "+441142569179", "website": "https://www.primark.com/en-gb/stores/sheffield/the-meadowhall-shopping-centre", "opening_hours": "Mo-Fr 09:00-21:30; Sa 09:00-20:00; Su 10:30-17:00", "brand": "Primark", "brand:wikidata": "Q137023", "nsi_id": "primark-5d2556"}, "geometry": {"type": "Point", "coordinates": [-1.4136268, 53.4125737]}},
{"type": "Feature", "id": "78Cpz_ClKB5KUwF9MgPVGa8B1aE=", "properties": {"ref": "488", "payment:american_express": "yes", "payment:google_pay": "yes", "payment:apple_pay": "yes", "payment:cash": "yes", "payment:maestro": "yes", "payment:mastercard": "yes", "payment:visa": "yes", "@spider": "primark_gb", "shop": "clothes", "addr:street_address": "Darwin Shopping Centre, Raven Meadows", "addr:city": "Shrewsbury", "addr:postcode": "SY1 1PL", "addr:country": "GB", "name": "Primark Shrewsbury", "phone": "+441743272858", "website": "https://www.primark.com/en-gb/stores/shrewsbury/darwin-shopping-centre", "opening_hours": "Tu-Sa 09:00-18:00; Su 10:00-16:30", "brand": "Primark", "brand:wikidata": "Q137023", "nsi_id": "primark-5d2556"}, "geometry": {"type": "Point", "coordinates": [-2.7521565, 52.7099911]}},
{"type": "Feature", "id": "Zss9N5EVKyXryIHLXHnZMN4J2lk=", "properties": {"ref": "663", "payment:american_express": "yes", "payment:google_pay": "yes", "payment:apple_pay": "yes", "payment:cash": "yes", "payment:maestro": "yes", "payment:mastercard": "yes", "payment:visa": "yes", "@spider": "primark_gb", "shop": "clothes", "addr:street_address": "82b High Street", "addr:city": "Scunthorpe", "addr:postcode": "DN15 6SA", "addr:country": "GB", "name": "Primark Scunthorpe", "phone": "+441724840616", "website": "https://www.primark.com/en-gb/stores/scunthorpe/82b-high-street", "opening_hours": "Mo-Sa 09:00-18:00; Su 09:30-16:00", "brand": "Primark", "brand:wikidata": "Q137023", "nsi_id": "primark-5d2556"}, "geometry": {"type": "Point", "coordinates": [-0.6465786695480347, 53.59214184153728]}},
{"type": "Feature", "id": "_AQvaTUGUWCSQtjwipsEsnieXxw=", "properties": {"ref": "489", "payment:american_express": "yes", "payment:google_pay": "yes", "payment:apple_pay": "yes", "payment:cash": "yes", "payment:maestro": "yes", "payment:mastercard": "yes", "payment:visa": "yes", "@spider": "primark_gb", "shop": "clothes", "addr:street_address": "30 The Moor", "addr:city": "Sheffield", "addr:postcode": "S1 4PA", "addr:country": "GB", "name": "Primark Sheffield", "phone": "+441142762024", "website": "https://www.primark.com/en-gb/stores/sheffield/30-the-moor", "opening_hours": "Mo-Sa 09:00-18:30; Su 11:00-17:00", "brand": "Primark", "brand:wikidata": "Q137023", "nsi_id": "primark-5d2556"}, "geometry": {"type": "Point", "coordinates": [-1.4733267, 53.3768077]}},
{"type": "Feature", "id": "nGfiIededzrfoaPWL1N4SWdjiXI=", "properties": {"ref": "482", "payment:american_express": "yes", "payment:google_pay": "yes", "payment:apple_pay": "yes", "payment:cash": "yes", "payment:maestro": "yes", "payment:mastercard": "yes", "payment:visa": "yes", "@spider": "primark_gb", "shop": "clothes", "addr:street_address": "Rushden Lakes Retail Park, Rushden", "addr:city": "Rushden", "addr:postcode": "NN10 6FH", "addr:country": "GB", "name": "Primark Rushden Lakes Retail Park", "phone": "+441933315020", "website": "https://www.primark.com/en-gb/stores/rushden/rushden-lakes-retail-park", "opening_hours": "Mo-Sa 09:00-20:00; Su 10:30-17:00", "brand": "Primark", "brand:wikidata": "Q137023", "nsi_id": "primark-5d2556"}, "geometry": {"type": "Point", "coordinates": [-0.6224332883605257, 52.30061024353957]}},
{"type": "Feature", "id": "9cbXwNpPVS8NMsMMI6Lop4x8jCk=", "properties": {"ref": "443", "payment:american_express": "yes", "payment:google_pay": "yes", "payment:apple_pay": "yes", "payment:cash": "yes", "payment:maestro": "yes", "payment:mastercard": "yes", "payment:visa": "yes", "@spider": "primark_gb", "shop": "clothes", "addr:street_address": "14a, Retail World, Unit, Stadium Way", "addr:city": "Rotherham", "addr:postcode": "S60 1TG", "addr:country": "GB", "name": "Primark Rotherham", "phone": "+441709780687", "website": "https://www.primark.com/en-gb/stores/rotherham/14a-retail-world-unit", "opening_hours": "Mo-Fr 09:00-20:00; Sa 09:00-19:00; Su 10:30-16:30", "brand": "Primark", "brand:wikidata": "Q137023", "nsi_id": "primark-5d2556"}, "geometry": {"type": "Point", "coordinates": [-1.3452860713005066, 53.44514551736607]}},
{"type": "Feature", "id": "_fRxwtMYCUoJ1yD5hBWJpd7p7sA=", "properties": {"ref": "528", "payment:american_express": "yes", "payment:google_pay": "yes", "payment:apple_pay": "yes", "payment:cash": "yes", "payment:maestro": "yes", "payment:mastercard": "yes", "payment:visa": "yes", "@spider": "primark_gb", "shop": "clothes", "addr:street_address": "33 - 35 South Street", "addr:city": "Romford", "addr:postcode": "RM1 1NJ", "addr:country": "GB", "name": "Primark Romford", "phone": "+441708721187", "website": "https://www.primark.com/en-gb/stores/romford/33-35-south-street", "opening_hours": "Tu-Fr 08:30-19:00; Sa 08:00-19:00; Su 10:30-17:00", "brand": "Primark", "brand:wikidata": "Q137023", "nsi_id": "primark-5d2556"}, "geometry": {"type": "Point", "coordinates": [0.1813903, 51.5775604]}},
{"type": "Feature", "id": "I5YrInWhjhiqnL3q4hm3z8C7bZE=", "properties": {"ref": "643", "payment:american_express": "yes", "payment:google_pay": "yes", "payment:apple_pay": "yes", "payment:cash": "yes", "payment:maestro": "yes", "payment:mastercard": "yes", "payment:visa": "yes", "@spider": "primark_gb", "shop": "clothes", "addr:street_address": "75 Evesham Walk, Kingfisher Shopping Centre", "addr:city": "Redditch", "addr:postcode": "B97 4EX", "addr:country": "GB", "name": "Primark Redditch", "phone": "+441527595011", "website": "https://www.primark.com/en-gb/stores/redditch/75-evesham-walk", "opening_hours": "Mo-We 09:00-18:00; Th 09:00-19:00; Fr-Sa 09:00-18:00; Su 10:00-16:30", "brand": "Primark", "brand:wikidata": "Q137023", "nsi_id": "primark-5d2556"}, "geometry": {"type": "Point", "coordinates": [-1.9422675669466116, 52.30465250333563]}},
{"type": "Feature", "id": "856qtN2Vs1C9ljIXxgKuV71MVp0=", "properties": {"ref": "699", "payment:american_express": "yes", "payment:google_pay": "yes", "payment:apple_pay": "yes", "payment:cash": "yes", "payment:maestro": "yes", "payment:mastercard": "yes", "payment:visa": "yes", "@spider": "primark_gb", "shop": "clothes", "addr:street_address": "116-117 Broad Street", "addr:city": "Reading", "addr:postcode": "RG1 2BD", "addr:country": "GB", "name": "Primark Reading", "phone": "+441189504023", "website": "https://www.primark.com/en-gb/stores/reading/116-117-broad-street", "opening_hours": "Mo-Fr 08:30-20:00; Sa 09:00-19:00; Su 11:00-17:00", "brand": "Primark", "brand:wikidata": "Q137023", "nsi_id": "primark-5d2556"}, "geometry": {"type": "Point", "coordinates": [-0.9716029, 51.455444]}},
{"type": "Feature", "id": "g0801iqBCS7LOzV3aJnBrG3tgqE=", "properties": {"ref": "633", "payment:american_express": "yes", "payment:google_pay": "yes", "payment:apple_pay": "yes", "payment:cash": "yes", "payment:maestro": "yes", "payment:mastercard": "yes", "payment:visa": "yes", "@spider": "primark_gb", "shop": "clothes", "addr:street_address": "4M, The Fishergate Centre, 49 Fishergate", "addr:city": "Preston", "addr:postcode": "PR1 8HJ", "addr:country": "GB", "name": "Primark Preston", "phone": "+441772889515", "website": "https://www.primark.com/en-gb/stores/preston/4m-the-fishergate-centre", "opening_hours": "Mo-Fr 09:00-17:30; Sa 09:00-18:00; Su 11:00-17:00", "brand": "Primark", "brand:wikidata": "Q137023", "nsi_id": "primark-5d2556"}, "geometry": {"type": "Point", "coordinates": [-2.7048468589782715, 53.75720172934812]}},
{"type": "Feature", "id": "mkwsioTvhnqzp9H3bkE0MXGvImU=", "properties": {"ref": "632", "payment:american_express": "yes", "payment:google_pay": "yes", "payment:apple_pay": "yes", "payment:cash": "yes", "payment:maestro": "yes", "payment:mastercard": "yes", "payment:visa": "yes", "@spider": "primark_gb", "shop": "clothes", "addr:street_address": "121 - 135 Commercial Road, Cascades", "addr:city": "Portsmouth", "addr:postcode": "PO1 1BU", "addr:country": "GB", "name": "Primark Portsmouth", "phone": "+442392296911", "website": "https://www.primark.com/en-gb/stores/portsmouth/121-135-commercial-road", "opening_hours": "Mo-Sa 09:00-18:00; Su 10:00-16:30", "brand": "Primark", "brand:wikidata": "Q137023", "nsi_id": "primark-5d2556"}, "geometry": {"type": "Point", "coordinates": [-1.0904525, 50.8010605]}},
{"type": "Feature", "id": "FdAUNRazmGegGXrbQwCdXQw0p8E=", "properties": {"ref": "631", "payment:american_express": "yes", "payment:google_pay": "yes", "payment:apple_pay": "yes", "payment:cash": "yes", "payment:maestro": "yes", "payment:mastercard": "yes", "payment:visa": "yes", "@spider": "primark_gb", "shop": "clothes", "addr:street_address": "198 - 206 High Street, Dolphin Centre", "addr:city": "Poole", "addr:postcode": "BH15 1EB", "addr:country": "GB", "name": "Primark Poole", "phone": "+441202668970", "website": "https://www.primark.com/en-gb/stores/poole/198-206-high-street", "opening_hours": "Mo-Sa 09:00-18:00; Su 10:00-16:30", "brand": "Primark", "brand:wikidata": "Q137023", "nsi_id": "primark-5d2556"}, "geometry": {"type": "Point", "coordinates": [-1.9804013, 50.7188806]}},
{"type": "Feature", "id": "orb9hQ3PFE4EvCNdYaUUmdbT-Rw=", "properties": {"ref": "495", "payment:american_express": "yes", "payment:google_pay": "yes", "payment:apple_pay": "yes", "payment:cash": "yes", "payment:maestro": "yes", "payment:mastercard": "yes", "payment:visa": "yes", "@spider": "primark_gb", "shop": "clothes", "addr:street_address": "Drake Circus Shopping Centre, Unit 1, 1 Charles St", "addr:city": "Plymouth", "addr:postcode": "PL1 1EA", "addr:country": "GB", "name": "Primark Plymouth", "phone": "+441752660254", "website": "https://www.primark.com/en-gb/stores/plymouth/drake-circus-shopping-centre", "opening_hours": "Mo-We 09:00-18:30; Th 09:00-20:00; Fr-Sa 09:00-18:30; Su 10:30-16:30", "brand": "Primark", "brand:wikidata": "Q137023", "nsi_id": "primark-5d2556"}, "geometry": {"type": "Point", "coordinates": [-4.136923906745892, 50.37181165343497]}},
{"type": "Feature", "id": "NDPkkSXs4Req8S6jvLRE71xu7PI=", "properties": {"ref": "511", "payment:american_express": "yes", "payment:google_pay": "yes", "payment:apple_pay": "yes", "payment:cash": "yes", "payment:maestro": "yes", "payment:mastercard": "yes", "payment:visa": "yes", "@spider": "primark_gb", "shop": "clothes", "addr:street_address": "51 - 57 Rye Lane", "addr:city": "Peckham", "addr:postcode": "SE15 5EY", "addr:country": "GB", "name": "Primark Peckham", "phone": "+442076399655", "website": "https://www.primark.com/en-gb/stores/peckham/51-57-rye-lane", "opening_hours": "Tu-Sa 09:00-19:00; Su 10:30-17:00", "brand": "Primark", "brand:wikidata": "Q137023", "nsi_id": "primark-5d2556"}, "geometry": {"type": "Point", "coordinates": [-0.06936997175216675, 51.47188486879121]}},
{"type": "Feature", "id": "UPS0wW8qq79EXTkkmdjPGXmrlQQ=", "properties": {"ref": "666", "payment:american_express": "yes", "payment:google_pay": "yes", "payment:apple_pay": "yes", "payment:cash": "yes", "payment:maestro": "yes", "payment:mastercard": "yes", "payment:visa": "yes", "@spider": "primark_gb", "shop": "clothes", "addr:street_address": "Queensgate Shopping Centre", "addr:city": "Peterborough", "addr:postcode": "PE1 1NH", "addr:country": "GB", "name": "Primark Peterborough", "phone": "+441733847928", "website": "https://www.primark.com/en-gb/stores/peterborough/queensgate-shopping-centre", "opening_hours": "Mo-We 09:00-18:00; Th 09:00-20:00; Fr-Sa 09:00-18:00; Su 10:00-16:30", "brand": "Primark", "brand:wikidata": "Q137023", "nsi_id": "primark-5d2556"}, "geometry": {"type": "Point", "coordinates": [-0.2455674, 52.5733397]}},
{"type": "Feature", "id": "OtQ3uGvGANSvszxl6TTLmPB-jh8=", "properties": {"ref": "659", "payment:american_express": "yes", "payment:google_pay": "yes", "payment:apple_pay": "yes", "payment:cash": "yes", "payment:maestro": "yes", "payment:mastercard": "yes", "payment:visa": "yes", "@spider": "primark_gb", "shop": "clothes", "addr:street_address": "134 - 148 High St", "addr:city": "Perth", "addr:postcode": "PH1 5UH", "addr:country": "GB", "name": "Primark Perth", "phone": "+441738443581", "website": "https://www.primark.com/en-gb/stores/perth/134-148-high-st", "opening_hours": "Mo-Sa 09:00-17:30; Su 11:00-17:00", "brand": "Primark", "brand:wikidata": "Q137023", "nsi_id": "primark-5d2556"}, "geometry": {"type": "Point", "coordinates": [-3.431958854198456, 56.39647050928491]}},
{"type": "Feature", "id": "Cf8prI84IejZ9cLRQ63FxeQzfEU=", "properties": {"ref": "440", "payment:american_express": "yes", "payment:google_pay": "yes", "payment:apple_pay": "yes", "payment:cash": "yes", "payment:maestro": "yes", "payment:mastercard": "yes", "payment:visa": "yes", "@spider": "primark_gb", "shop": "clothes", "addr:street_address": "201 The Westgate, Queen Street", "addr:city": "Oxford", "addr:postcode": "OX1 1PE", "addr:country": "GB", "name": "Primark Oxford", "phone": "+441865240899", "website": "https://www.primark.com/en-gb/stores/oxford/201-the-westgate", "opening_hours": "Mo-Sa 09:00-20:00; Su 11:00-17:00", "brand": "Primark", "brand:wikidata": "Q137023", "nsi_id": "primark-5d2556"}, "geometry": {"type": "Point", "coordinates": [-1.2620199, 51.7492153]}},
{"type": "Feature", "id": "eHKsvGFhoLlMINeE1IRpDk3xiHw=", "properties": {"ref": "695", "payment:american_express": "yes", "payment:google_pay": "yes", "payment:apple_pay": "yes", "payment:cash": "yes", "payment:maestro": "yes", "payment:mastercard": "yes", "payment:visa": "yes", "@spider": "primark_gb", "shop": "clothes", "addr:street_address": "11-13 Market Street", "addr:city": "Omagh", "addr:postcode": "BT78 1EE", "addr:country": "GB", "name": "Primark Omagh", "phone": "+442882240832", "website": "https://www.primark.com/en-gb/stores/omagh/11-13-market-street", "opening_hours": "Mo-We 09:00-18:00; Th-Fr 09:00-21:00; Sa 09:00-18:00; Su 13:00-18:00", "brand": "Primark", "brand:wikidata": "Q137023", "nsi_id": "primark-5d2556"}, "geometry": {"type": "Point", "coordinates": [-7.3000388, 54.5996997]}},
{"type": "Feature", "id": "MEOAcUUW2BRRJir-OIYruwnZMxA=", "properties": {"ref": "629", "payment:american_express": "yes", "payment:google_pay": "yes", "payment:apple_pay": "yes", "payment:cash": "yes", "payment:maestro": "yes", "payment:mastercard": "yes", "payment:visa": "yes", "@spider": "primark_gb", "shop": "clothes", "addr:street_address": "37 - 41 Market Place", "addr:city": "Oldham", "addr:postcode": "OL1 3AB", "addr:country": "GB", "name": "Primark Oldham", "phone": "+441616210946", "website": "https://www.primark.com/en-gb/stores/oldham/37-41-market-place", "opening_hours": "Mo-Sa 08:30-18:00; Su 10:30-17:00", "brand": "Primark", "brand:wikidata": "Q137023", "nsi_id": "primark-5d2556"}, "geometry": {"type": "Point", "coordinates": [-2.1143634618420037, 53.54215948814941]}},
{"type": "Feature", "id": "skD0DVc3fdxMopQvf5NsJDpywM4=", "properties": {"ref": "628", "payment:american_express": "yes", "payment:google_pay": "yes", "payment:apple_pay": "yes", "payment:cash": "yes", "payment:maestro": "yes", "payment:mastercard": "yes", "payment:visa": "yes", "@spider": "primark_gb", "shop": "clothes", "addr:street_address": "6 - 12 Long Row, Off Old Market Square", "addr:city": "Nottingham", "addr:postcode": "NG1 2DZ", "addr:country": "GB", "name": "Primark Nottingham", "phone": "+441159580817", "website": "https://www.primark.com/en-gb/stores/nottingham/6-12-long-row", "opening_hours": "Mo-Sa 08:00-19:00; Su 11:00-17:00", "brand": "Primark", "brand:wikidata": "Q137023", "nsi_id": "primark-5d2556"}, "geometry": {"type": "Point", "coordinates": [-1.1483, 52.9538478]}},
{"type": "Feature", "id": "hSjZrhHzvCEEI_3PZ7iGeSWY9Pk=", "properties": {"ref": "545", "payment:american_express": "yes", "payment:google_pay": "yes", "payment:apple_pay": "yes", "payment:cash": "yes", "payment:maestro": "yes", "payment:mastercard": "yes", "payment:visa": "yes", "@spider": "primark_gb", "shop": "clothes", "addr:street_address": "5-9 Haymarket", "addr:city": "Norwich", "addr:postcode": "NR2 1QD", "addr:country": "GB", "name": "Primark Norwich", "phone": "+441603760807", "website": "https://www.primark.com/en-gb/stores/norwich/5-9-haymarket", "opening_hours": "Mo-Sa 08:00-19:00; Su 10:00-16:30", "brand": "Primark", "brand:wikidata": "Q137023", "nsi_id": "primark-5d2556"}, "geometry": {"type": "Point", "coordinates": [1.2939777, 52.6273433]}},
{"type": "Feature", "id": "P3EQDOwJ-rQ_Dtpp92I63JKLf-g=", "properties": {"ref": "691", "payment:american_express": "yes", "payment:google_pay": "yes", "payment:apple_pay": "yes", "payment:cash": "yes", "payment:maestro": "yes", "payment:mastercard": "yes", "payment:visa": "yes", "@spider": "primark_gb", "shop": "clothes", "addr:street_address": "Grosvenor Shopping Centre, 37 Newland Walk", "addr:city": "Northampton", "addr:postcode": "NN1 2EW", "addr:country": "GB", "name": "Primark Northampton", "phone": "+441604636680", "website": "https://www.primark.com/en-gb/stores/northampton/grosvenor-shopping-centre", "opening_hours": "Mo-Sa 09:00-18:00; Su 10:00-16:30", "brand": "Primark", "brand:wikidata": "Q137023", "nsi_id": "primark-5d2556"}, "geometry": {"type": "Point", "coordinates": [-0.8949235, 52.2392121]}},
{"type": "Feature", "id": "BmQexXaz-80WEonaQRA1fbx9eE8=", "properties": {"ref": "471", "payment:american_express": "yes", "payment:google_pay": "yes", "payment:apple_pay": "yes", "payment:cash": "yes", "payment:maestro": "yes", "payment:mastercard": "yes", "payment:visa": "yes", "@spider": "primark_gb", "shop": "clothes", "addr:street_address": "Longwood Road, Unit 1, Abbey Centre", "addr:city": "Newtownabbey", "addr:postcode": "BT39 9UH", "addr:country": "GB", "name": "Primark Newtownabbey", "phone": "+442890365388", "website": "https://www.primark.com/en-gb/stores/newtownabbey/longwood-road", "opening_hours": "Mo-Fr 09:00-21:00; Sa 09:00-18:00; Su 13:00-18:00", "brand": "Primark", "brand:wikidata": "Q137023", "nsi_id": "primark-5d2556"}, "geometry": {"type": "Point", "coordinates": [-5.917963545168391, 54.65636703993649]}},
{"type": "Feature", "id": "joz5z0dJC-vUo8VQiUtcmTGUEhU=", "properties": {"ref": "458", "payment:american_express": "yes", "payment:google_pay": "yes", "payment:apple_pay": "yes", "payment:cash": "yes", "payment:maestro": "yes", "payment:mastercard": "yes", "payment:visa": "yes", "@spider": "primark_gb", "shop": "clothes", "addr:street_address": "Ards Shopping Centre, Circular Road", "addr:city": "Newtownards", "addr:postcode": "BT23 4EU", "addr:country": "GB", "name": "Primark Newtownards", "phone": "+442891822146", "website": "https://www.primark.com/en-gb/stores/newtownards/ards-shopping-centre", "opening_hours": "Mo-Fr 09:00-21:00; Sa 09:00-18:00; Su 13:00-18:00", "brand": "Primark", "brand:wikidata": "Q137023", "nsi_id": "primark-5d2556"}, "geometry": {"type": "Point", "coordinates": [-5.709194540977478, 54.592676451211965]}},
{"type": "Feature", "id": "8HCo15eYdWE3BxjwiQ1Vl8S9esw=", "properties": {"ref": "475", "payment:american_express": "yes", "payment:google_pay": "yes", "payment:apple_pay": "yes", "payment:cash": "yes", "payment:maestro": "yes", "payment:mastercard": "yes", "payment:visa": "yes", "@spider": "primark_gb", "shop": "clothes", "addr:street_address": "Unit 55 Buttercrane Shopping Centre", "addr:city": "Newry", "addr:postcode": "BT35 8HJ", "addr:country": "GB", "name": "Primark Buttercrane", "phone": "+442830835627", "website": "https://www.primark.com/en-gb/stores/newry/unit-55-buttercrane-shopping-centre", "opening_hours": "Mo-Tu 09:00-18:00; We-Fr 09:00-21:00; Sa 09:00-18:00; Su 13:00-18:00", "brand": "Primark", "brand:wikidata": "Q137023", "nsi_id": "primark-5d2556"}, "geometry": {"type": "Point", "coordinates": [-6.3427499, 54.1726307]}},
{"type": "Feature", "id": "S0uuhkJykLAYRkhln5sjlQRNkO8=", "properties": {"ref": "554", "payment:american_express": "yes", "payment:google_pay": "yes", "payment:apple_pay": "yes", "payment:cash": "yes", "payment:maestro": "yes", "payment:mastercard": "yes", "payment:visa": "yes", "@spider": "primark_gb", "shop": "clothes", "addr:street_address": "142 - 143 Commercial Street", "addr:city": "Newport", "addr:postcode": "NP20 1LN", "addr:country": "GB", "name": "Primark Newport", "phone": "+441633213455", "website": "https://www.primark.com/en-gb/stores/newport/142-143-commercial-street", "opening_hours": "Mo-Th 09:00-17:30; Fr-Sa 09:00-18:00; Su 10:00-16:00", "brand": "Primark", "brand:wikidata": "Q137023", "nsi_id": "primark-5d2556"}, "geometry": {"type": "Point", "coordinates": [-2.9944887, 51.5851966]}},
{"type": "Feature", "id": "3wkxJYfcTu8TbyZdx9veUQk7Atw=", "properties": {"ref": "534", "payment:american_express": "yes", "payment:google_pay": "yes", "payment:apple_pay": "yes", "payment:cash": "yes", "payment:maestro": "yes", "payment:mastercard": "yes", "payment:visa": "yes", "@spider": "primark_gb", "shop": "clothes", "addr:street_address": "78 - 84 Northumberland Street", "addr:city": "Newcastle-Upon-Tyne", "addr:postcode": "NE1 7DF", "addr:country": "GB", "name": "Primark Newcastle", "phone": "+441912615093", "website": "https://www.primark.com/en-gb/stores/newcastle-upon-tyne/78-84-northumberland-street", "opening_hours": "Mo-Fr 08:00-20:00; Sa 08:00-19:00; Su 10:30-17:00", "brand": "Primark", "brand:wikidata": "Q137023", "nsi_id": "primark-5d2556"}, "geometry": {"type": "Point", "coordinates": [-1.6124159, 54.9763565]}},
{"type": "Feature", "id": "GlrJOBQRLtOkg0x24wo3L4xeTn4=", "properties": {"ref": "510", "payment:american_express": "yes", "payment:google_pay": "yes", "payment:apple_pay": "yes", "payment:cash": "yes", "payment:maestro": "yes", "payment:mastercard": "yes", "payment:visa": "yes", "@spider": "primark_gb", "shop": "clothes", "addr:street_address": "20 - 26 Brandon Place South, Motherwell", "addr:city": "Motherwell", "addr:postcode": "ML1 1RB", "addr:country": "GB", "name": "Primark Motherwell", "phone": "+441698259538", "website": "https://www.primark.com/en-gb/stores/motherwell/20-26-brandon-place-south", "opening_hours": "Mo-Sa 08:30-18:00; Su 10:00-17:00", "brand": "Primark", "brand:wikidata": "Q137023", "nsi_id": "primark-5d2556"}, "geometry": {"type": "Point", "coordinates": [-3.9918459239426056, 55.78969605876659]}},
{"type": "Feature", "id": "fISSJxvGUiB9h4brFnCqcsYGPEU=", "properties": {"ref": "675", "payment:american_express": "yes", "payment:google_pay": "yes", "payment:apple_pay": "yes", "payment:cash": "yes", "payment:maestro": "yes", "payment:mastercard": "yes", "payment:visa": "yes", "@spider": "primark_gb", "shop": "clothes", "addr:street_address": "Unit A8 MK1 Shopping Park, Stadium Way", "addr:city": "Milton Keynes", "addr:postcode": "MK1 1ST", "addr:country": "GB", "name": "Primark Milton Keynes Shopping Park", "phone": "+441908270361", "website": "https://www.primark.com/en-gb/stores/milton-keynes/unit-a8-mk1-shopping-park", "opening_hours": "Mo-Fr 09:00-21:00; Sa 09:00-20:00; Su 10:30-17:00", "brand": "Primark", "brand:wikidata": "Q137023", "nsi_id": "primark-5d2556"}, "geometry": {"type": "Point", "coordinates": [-0.7379397, 52.0100243]}},
{"type": "Feature", "id": "wQqf-29XimOkYFDQhK29PJLMbdA=", "properties": {"ref": "583", "payment:american_express": "yes", "payment:google_pay": "yes", "payment:apple_pay": "yes", "payment:cash": "yes", "payment:maestro": "yes", "payment:mastercard": "yes", "payment:visa": "yes", "@spider": "primark_gb", "shop": "clothes", "addr:street_address": "Unit 1 Bottomley Mall, Hill Street", "addr:city": "Middlesbrough", "addr:postcode": "TS1 1SU", "addr:country": "GB", "name": "Primark Middlesbrough", "phone": "+441642243796", "website": "https://www.primark.com/en-gb/stores/middlesbrough/unit-1-bottomley-mall", "opening_hours": "Mo-Sa 08:00-18:00; Su 10:30-16:30", "brand": "Primark", "brand:wikidata": "Q137023", "nsi_id": "primark-5d2556"}, "geometry": {"type": "Point", "coordinates": [-1.239527, 54.5776745]}},
{"type": "Feature", "id": "rbypvQP4pzZeUjSrBYQWydcyh5Q=", "properties": {"ref": "435", "payment:american_express": "yes", "payment:google_pay": "yes", "payment:apple_pay": "yes", "payment:cash": "yes", "payment:maestro": "yes", "payment:mastercard": "yes", "payment:visa": "yes", "@spider": "primark_gb", "shop": "clothes", "addr:street_address": "Trafford Palazzo", "addr:city": "Manchester", "addr:postcode": "M17 8AS", "addr:country": "GB", "name": "Primark Trafford Palazzo", "phone": "+441617473340", "website": "https://www.primark.com/en-gb/stores/manchester/trafford-palazzo", "opening_hours": "Mo-Fr 10:00-22:00; Sa 10:00-21:00; Su 12:00-18:00", "brand": "Primark", "brand:wikidata": "Q137023", "nsi_id": "primark-5d2556"}, "geometry": {"type": "Point", "coordinates": [-2.3418825841182778, 53.4661433605675]}},
{"type": "Feature", "id": "SqzXJFteECAUXIw7fw9aJLFtsJI=", "properties": {"ref": "627", "payment:american_express": "yes", "payment:google_pay": "yes", "payment:apple_pay": "yes", "payment:cash": "yes", "payment:maestro": "yes", "payment:mastercard": "yes", "payment:visa": "yes", "@spider": "primark_gb", "shop": "clothes", "addr:street_address": "Four Seasons Shopping Centre, Westgate", "addr:city": "Mansfield", "addr:postcode": "NG18 1RY", "addr:country": "GB", "name": "Primark Mansfield", "phone": "+441623644386", "website": "https://www.primark.com/en-gb/stores/mansfield/four-seasons-shopping-centre", "opening_hours": "Mo-Sa 08:30-17:30; Su 10:00-16:00", "brand": "Primark", "brand:wikidata": "Q137023", "nsi_id": "primark-5d2556"}, "geometry": {"type": "Point", "coordinates": [-1.1974771521148568, 53.14502262475217]}},
{"type": "Feature", "id": "Rgh0KotUDwLoGtiNSXQ9yX1f3kM=", "properties": {"ref": "626", "payment:american_express": "yes", "payment:google_pay": "yes", "payment:apple_pay": "yes", "payment:cash": "yes", "payment:maestro": "yes", "payment:mastercard": "yes", "payment:visa": "yes", "@spider": "primark_gb", "shop": "clothes", "addr:street_address": "62 - 64 Week Street", "addr:city": "Maidstone", "addr:postcode": "ME14 1RT", "addr:country": "GB", "name": "Primark Maidstone", "phone": "+441622685266", "website": "https://www.primark.com/en-gb/stores/maidstone/62-64-week-street", "opening_hours": "Mo-We 08:30-18:00; Th 08:30-20:00; Fr-Sa 08:30-18:00; Su 10:00-16:30", "brand": "Primark", "brand:wikidata": "Q137023", "nsi_id": "primark-5d2556"}, "geometry": {"type": "Point", "coordinates": [0.522656, 51.2755452]}},
{"type": "Feature", "id": "AU9e6COItu2mOn4Ai4qG6j5j1go=", "properties": {"ref": "519", "payment:american_express": "yes", "payment:google_pay": "yes", "payment:apple_pay": "yes", "payment:cash": "yes", "payment:maestro": "yes", "payment:mastercard": "yes", "payment:visa": "yes", "@spider": "primark_gb", "shop": "clothes", "addr:street_address": "106 - 122 Market Street", "addr:city": "Manchester", "addr:postcode": "M1 1WA", "addr:country": "GB", "name": "Primark Manchester", "phone": "+441619234772", "website": "https://www.primark.com/en-gb/stores/manchester/106-122-market-street", "opening_hours": "Mo-Fr 08:00-21:00; Sa 08:00-20:00; Su 10:30-17:00", "brand": "Primark", "brand:wikidata": "Q137023", "nsi_id": "primark-5d2556"}, "geometry": {"type": "Point", "coordinates": [-2.2391467, 53.4818787]}},
{"type": "Feature", "id": "hGtYrnFvAK5ZfUpyGAwzDYqO5tI=", "properties": {"ref": "625", "payment:american_express": "yes", "payment:google_pay": "yes", "payment:apple_pay": "yes", "payment:cash": "yes", "payment:maestro": "yes", "payment:mastercard": "yes", "payment:visa": "yes", "@spider": "primark_gb", "shop": "clothes", "addr:street_address": "48 - 52 George Street", "addr:city": "Luton", "addr:postcode": "LU1 2BD", "addr:country": "GB", "name": "Primark Luton", "phone": "+441582457821", "website": "https://www.primark.com/en-gb/stores/luton/48-52-george-street", "opening_hours": "Mo-We 09:00-18:00; Th 09:00-19:00; Fr 09:00-18:00; Sa 08:30-18:00; Su 11:00-17:00", "brand": "Primark", "brand:wikidata": "Q137023", "nsi_id": "primark-5d2556"}, "geometry": {"type": "Point", "coordinates": [-0.416243, 51.8791948]}},
{"type": "Feature", "id": "ffjEEjo5-IjtQf5rewkd3uxK684=", "properties": {"ref": "572", "payment:american_express": "yes", "payment:google_pay": "yes", "payment:apple_pay": "yes", "payment:cash": "yes", "payment:maestro": "yes", "payment:mastercard": "yes", "payment:visa": "yes", "@spider": "primark_gb", "shop": "clothes", "addr:street_address": "39 - 40 Market Place", "addr:city": "Loughborough", "addr:postcode": "LE11 3EB", "addr:country": "GB", "name": "Primark Loughborough", "phone": "+441509236352", "website": "https://www.primark.com/en-gb/stores/loughborough/39-40-market-place", "opening_hours": "Mo-Sa 09:00-17:30; Su 10:30-16:30", "brand": "Primark", "brand:wikidata": "Q137023", "nsi_id": "primark-5d2556"}, "geometry": {"type": "Point", "coordinates": [-1.2063085, 52.7711841]}},
{"type": "Feature", "id": "pFOHbhnrJBXL_wclcm0m0D7pOR0=", "properties": {"ref": "457", "payment:american_express": "yes", "payment:google_pay": "yes", "payment:apple_pay": "yes", "payment:cash": "yes", "payment:maestro": "yes", "payment:mastercard": "yes", "payment:visa": "yes", "@spider": "primark_gb", "shop": "clothes", "addr:street_address": "Former Rialto Theatre, Newmarket St", "addr:city": "Londonderry", "addr:postcode": "BT48 6EF", "addr:country": "GB", "name": "Primark Derry", "phone": "+442871371402", "website": "https://www.primark.com/en-gb/stores/londonderry/former-rialto-theatre", "opening_hours": "Mo-Tu 09:00-18:00; We-Fr 09:00-21:00; Sa 09:00-19:00; Su 13:00-18:00", "brand": "Primark", "brand:wikidata": "Q137023", "nsi_id": "primark-5d2556"}, "geometry": {"type": "Point", "coordinates": [-7.3199502, 54.9954041]}},
{"type": "Feature", "id": "-kLJrLOQ3faLS5OJWLFYne4ka4Y=", "properties": {"ref": "438", "payment:american_express": "yes", "payment:google_pay": "yes", "payment:apple_pay": "yes", "payment:cash": "yes", "payment:maestro": "yes", "payment:mastercard": "yes", "payment:visa": "yes", "@spider": "primark_gb", "shop": "clothes", "addr:street_address": "Westfield London Shopping Centre, Ariel Way, White City", "addr:city": "London", "addr:postcode": "W12 7GF", "addr:country": "GB", "name": "Primark Westfield London Shopping Centre", "phone": "+442087491596", "website": "https://www.primark.com/en-gb/stores/london/westfield-london-shopping-centre", "opening_hours": "Mo-Sa 09:00-22:00; Su 11:30-18:00", "brand": "Primark", "brand:wikidata": "Q137023", "nsi_id": "primark-5d2556"}, "geometry": {"type": "Point", "coordinates": [-0.2213930000000346, 51.50751061122837]}},
{"type": "Feature", "id": "XR1Rc3sWu_hl2oF637VR9GNEYa4=", "properties": {"ref": "652", "payment:american_express": "yes", "payment:google_pay": "yes", "payment:apple_pay": "yes", "payment:cash": "yes", "payment:maestro": "yes", "payment:mastercard": "yes", "payment:visa": "yes", "@spider": "primark_gb", "shop": "clothes", "addr:street_address": "Shopping City, Unit 57, The Mall, High Road", "addr:city": "London", "addr:postcode": "N22 6YQ", "addr:country": "GB", "name": "Primark Wood Green", "phone": "+442088895620", "website": "https://www.primark.com/en-gb/stores/london/shopping-city", "opening_hours": "Mo-Sa 09:00-20:00; Su 10:30-17:00", "brand": "Primark", "brand:wikidata": "Q137023", "nsi_id": "primark-5d2556"}, "geometry": {"type": "Point", "coordinates": [-0.1086736, 51.5940001]}},
{"type": "Feature", "id": "siJkZN_Ekr4ILCbHEtelbS8JSmw=", "properties": {"ref": "486", "payment:american_express": "yes", "payment:google_pay": "yes", "payment:apple_pay": "yes", "payment:cash": "yes", "payment:maestro": "yes", "payment:mastercard": "yes", "payment:visa": "yes", "@spider": "primark_gb", "shop": "clothes", "addr:street_address": "Brocklebank Retail Park, 2-5 Brocklebank Rd", "addr:city": "London", "addr:postcode": "SE7 7SX", "addr:country": "GB", "name": "Primark Brocklebank Retail Park", "phone": "+442088534695", "website": "https://www.primark.com/en-gb/stores/london/brocklebank-retail-park", "opening_hours": "Mo-Sa 09:00-20:00; Su 11:00-17:00", "brand": "Primark", "brand:wikidata": "Q137023", "nsi_id": "primark-5d2556"}, "geometry": {"type": "Point", "coordinates": [0.0227813, 51.4901272]}},
{"type": "Feature", "id": "1HOhbmeKmr0L1s725h8XYKJyc1g=", "properties": {"ref": "507", "payment:american_express": "yes", "payment:google_pay": "yes", "payment:apple_pay": "yes", "payment:cash": "yes", "payment:maestro": "yes", "payment:mastercard": "yes", "payment:visa": "yes", "@spider": "primark_gb", "shop": "clothes", "addr:street_address": "54 - 56 High Street", "addr:city": "London", "addr:postcode": "NW6 4HJ", "addr:country": "GB", "name": "Primark Kilburn", "phone": "+442076244664", "website": "https://www.primark.com/en-gb/stores/london/54-56-high-street", "opening_hours": "Mo-Sa 09:00-20:00; Su 10:30-17:00", "brand": "Primark", "brand:wikidata": "Q137023", "nsi_id": "primark-5d2556"}, "geometry": {"type": "Point", "coordinates": [-0.19292121041598875, 51.53787502171672]}},
{"type": "Feature", "id": "AJQC2AnYatbuDVIcRU_EfzRWhD8=", "properties": {"ref": "590", "payment:american_express": "yes", "payment:google_pay": "yes", "payment:apple_pay": "yes", "payment:cash": "yes", "payment:maestro": "yes", "payment:mastercard": "yes", "payment:visa": "yes", "@spider": "primark_gb", "shop": "clothes", "addr:street_address": "499 - 517 Oxford Street", "addr:city": "London", "addr:postcode": "W1K 7DA", "addr:country": "GB", "name": "Primark Oxford Street West", "phone": "+442074950420", "website": "https://www.primark.com/en-gb/stores/london/499-517-oxford-street", "opening_hours": "Mo-Sa 08:00-22:00; Su 12:00-18:00", "brand": "Primark", "brand:wikidata": "Q137023", "nsi_id": "primark-5d2556"}, "geometry": {"type": "Point", "coordinates": [-0.15593182572558817, 51.51342013160093]}},
{"type": "Feature", "id": "PB2wxjGRXHFk9HQWfHTa5D6XC-c=", "properties": {"ref": "505", "payment:american_express": "yes", "payment:google_pay": "yes", "payment:apple_pay": "yes", "payment:cash": "yes", "payment:maestro": "yes", "payment:mastercard": "yes", "payment:visa": "yes", "@spider": "primark_gb", "shop": "clothes", "addr:street_address": "365 - 371 Mare Street", "addr:city": "London", "addr:postcode": "E8 1HY", "addr:country": "GB", "name": "Primark Hackney", "phone": "+442089852689", "website": "https://www.primark.com/en-gb/stores/london/365-371-mare-street", "opening_hours": "Mo-Sa 09:00-19:00; Su 10:30-17:00", "brand": "Primark", "brand:wikidata": "Q137023", "nsi_id": "primark-5d2556"}, "geometry": {"type": "Point", "coordinates": [-0.05521997809410095, 51.54794715709762]}},
{"type": "Feature", "id": "VWK86xsNRutE-_dwnfcNT2Dc0rE=", "properties": {"ref": "517", "payment:american_express": "yes", "payment:google_pay": "yes", "payment:apple_pay": "yes", "payment:cash": "yes", "payment:maestro": "yes", "payment:mastercard": "yes", "payment:visa": "yes", "@spider": "primark_gb", "shop": "clothes", "addr:street_address": "31 - 39 Mitcham Road", "addr:city": "London", "addr:postcode": "SW17 9PA", "addr:country": "GB", "name": "Primark Tooting", "phone": "+442086724737", "website": "https://www.primark.com/en-gb/stores/london/31-39-mitcham-road", "opening_hours": "Mo-Sa 09:00-19:00; Su 11:00-17:00", "brand": "Primark", "brand:wikidata": "Q137023", "nsi_id": "primark-5d2556"}, "geometry": {"type": "Point", "coordinates": [-0.16687095165252686, 51.42758615206802]}},
{"type": "Feature", "id": "fqGOuwRMxEEhqbNRKZKSM1boHBY=", "properties": {"ref": "514", "payment:american_express": "yes", "payment:google_pay": "yes", "payment:apple_pay": "yes", "payment:cash": "yes", "payment:maestro": "yes", "payment:mastercard": "yes", "payment:visa": "yes", "@spider": "primark_gb", "shop": "clothes", "addr:street_address": "32-34 Southside", "addr:city": "London", "addr:postcode": "SW18 4TF", "addr:country": "GB", "name": "Primark Wandsworth", "phone": "+442088779427", "website": "https://www.primark.com/en-gb/stores/london/32-34-southside", "opening_hours": "Mo-Sa 09:00-19:00; Su 10:30-17:00", "brand": "Primark", "brand:wikidata": "Q137023", "nsi_id": "primark-5d2556"}, "geometry": {"type": "Point", "coordinates": [-0.1933133, 51.4554404]}},
{"type": "Feature", "id": "a-X5XW6LwBXDLXYwdFXIC6A7zrM=", "properties": {"ref": "567", "payment:american_express": "yes", "payment:google_pay": "yes", "payment:apple_pay": "yes", "payment:cash": "yes", "payment:maestro": "yes", "payment:mastercard": "yes", "payment:visa": "yes", "@spider": "primark_gb", "shop": "clothes", "addr:street_address": "18 - 28 Hare Street", "addr:city": "London", "addr:postcode": "SE18 6LZ", "addr:country": "GB", "name": "Primark Woolwich", "phone": "+442083167988", "website": "https://www.primark.com/en-gb/stores/london/18-28-hare-street", "opening_hours": "Mo-Sa 09:00-18:30; Su 11:00-17:00", "brand": "Primark", "brand:wikidata": "Q137023", "nsi_id": "primark-5d2556"}, "geometry": {"type": "Point", "coordinates": [0.064206, 51.4927404]}},
{"type": "Feature", "id": "aT3bF4KFuc8qouIcDZr1Ub_KBEU=", "properties": {"ref": "533", "payment:american_express": "yes", "payment:google_pay": "yes", "payment:apple_pay": "yes", "payment:cash": "yes", "payment:maestro": "yes", "payment:mastercard": "yes", "payment:visa": "yes", "@spider": "primark_gb", "shop": "clothes", "addr:street_address": "180 - 190 Lewisham High Street", "addr:city": "London", "addr:postcode": "SE13 6JL", "addr:country": "GB", "name": "Primark Lewisham", "phone": "+442083185892", "website": "https://www.primark.com/en-gb/stores/london/180-190-lewisham-high-street", "opening_hours": "Mo-Sa 09:00-19:00; Su 10:30-17:00", "brand": "Primark", "brand:wikidata": "Q137023", "nsi_id": "primark-5d2556"}, "geometry": {"type": "Point", "coordinates": [-0.0113312, 51.4604614]}},
{"type": "Feature", "id": "JdSF9kXyuFbQiQuvG8qMd2hiZ7Q=", "properties": {"ref": "674", "payment:american_express": "yes", "payment:google_pay": "yes", "payment:apple_pay": "yes", "payment:cash": "yes", "payment:maestro": "yes", "payment:mastercard": "yes", "payment:visa": "yes", "@spider": "primark_gb", "shop": "clothes", "addr:street_address": "14-28 Oxford Street, Fitzrovia", "addr:city": "London", "addr:postcode": "W1D 1AU", "addr:country": "GB", "name": "Primark Oxford Street East", "phone": "+442075805510", "website": "https://www.primark.com/en-gb/stores/london/14-28-oxford-street", "opening_hours": "Mo-Sa 08:00-22:00; Su 11:30-18:00", "brand": "Primark", "brand:wikidata": "Q137023", "nsi_id": "primark-5d2556"}, "geometry": {"type": "Point", "coordinates": [-0.13118751347064972, 51.516534523842914]}},
{"type": "Feature", "id": "qU8wwVBHEIoB_wP9jrTY9P4W8bA=", "properties": {"ref": "694", "payment:american_express": "yes", "payment:google_pay": "yes", "payment:apple_pay": "yes", "payment:cash": "yes", "payment:maestro": "yes", "payment:mastercard": "yes", "payment:visa": "yes", "@spider": "primark_gb", "shop": "clothes", "addr:street_address": "10, Parc Llandudno, Mostyn Broadway", "addr:city": "Llandudno", "addr:postcode": "LL30 1PX", "addr:country": "GB", "name": "Primark Llandudno", "phone": "+441492871875", "website": "https://www.primark.com/en-gb/stores/llandudno/10-parc-llandudno", "opening_hours": "Mo-Fr 09:00-20:00; Sa 09:00-19:00; Su 10:30-17:00", "brand": "Primark", "brand:wikidata": "Q137023", "nsi_id": "primark-5d2556"}, "geometry": {"type": "Point", "coordinates": [-3.8216204, 53.3200749]}},
{"type": "Feature", "id": "X5qigkP05hkX-oBpwg_FRWimaME=", "properties": {"ref": "491", "payment:american_express": "yes", "payment:google_pay": "yes", "payment:apple_pay": "yes", "payment:cash": "yes", "payment:maestro": "yes", "payment:mastercard": "yes", "payment:visa": "yes", "@spider": "primark_gb", "shop": "clothes", "addr:street_address": "Unit 11, Trostre Retail Park", "addr:city": "Llanelli", "addr:postcode": "SA14 9UY", "addr:country": "GB", "name": "Primark Llanelli", "phone": "+441554770085", "website": "https://www.primark.com/en-gb/stores/llanelli/unit-11-trostre-retail-park", "opening_hours": "Mo-Fr 09:00-20:00; Sa 09:00-19:00; Su 10:30-17:00", "brand": "Primark", "brand:wikidata": "Q137023", "nsi_id": "primark-5d2556"}, "geometry": {"type": "Point", "coordinates": [-4.138498306274414, 51.67564228571743]}},
{"type": "Feature", "id": "MZ1_3bWHW92igkyP3MsHWWleSTI=", "properties": {"ref": "640", "payment:american_express": "yes", "payment:google_pay": "yes", "payment:apple_pay": "yes", "payment:cash": "yes", "payment:maestro": "yes", "payment:mastercard": "yes", "payment:visa": "yes", "@spider": "primark_gb", "shop": "clothes", "addr:street_address": "48 - 56 Church Street", "addr:city": "Liverpool", "addr:postcode": "L1 3AY", "addr:country": "GB", "name": "Primark Liverpool", "phone": "+441517094635", "website": "https://www.primark.com/en-gb/stores/liverpool/48-56-church-street", "opening_hours": "Mo-Fr 09:00-20:00; Sa 08:00-20:00; Su 10:30-17:00", "brand": "Primark", "brand:wikidata": "Q137023", "nsi_id": "primark-5d2556"}, "geometry": {"type": "Point", "coordinates": [-2.9831239, 53.4049788]}},
{"type": "Feature", "id": "28EOVflxAnRI-4c-c_zSTJzLv0w=", "properties": {"ref": "668", "payment:american_express": "yes", "payment:google_pay": "yes", "payment:apple_pay": "yes", "payment:cash": "yes", "payment:maestro": "yes", "payment:mastercard": "yes", "payment:visa": "yes", "@spider": "primark_gb", "shop": "clothes", "addr:street_address": "8 - 11 Almondvale South, The Centre", "addr:city": "Livingston", "addr:postcode": "EH54 6HR", "addr:country": "GB", "name": "Primark Livingston", "phone": "+441506439397", "website": "https://www.primark.com/en-gb/stores/livingston/8-11-almondvale-south", "opening_hours": "Mo-We 09:00-18:00; Th 09:00-20:00; Fr-Sa 09:00-18:00; Su 10:00-18:00", "brand": "Primark", "brand:wikidata": "Q137023", "nsi_id": "primark-5d2556"}, "geometry": {"type": "Point", "coordinates": [-3.5117476, 55.8848659]}},
{"type": "Feature", "id": "IQoxf45-IyffOX3GxGk2VtuZ_2s=", "properties": {"ref": "473", "payment:american_express": "yes", "payment:google_pay": "yes", "payment:apple_pay": "yes", "payment:cash": "yes", "payment:maestro": "yes", "payment:mastercard": "yes", "payment:visa": "yes", "@spider": "primark_gb", "shop": "clothes", "addr:street_address": "Bow Street Mall", "addr:city": "Lisburn", "addr:postcode": "BT28 1AG", "addr:country": "GB", "name": "Primark Lisburn", "phone": "+442892634892", "website": "https://www.primark.com/en-gb/stores/lisburn/bow-street-mall", "opening_hours": "Mo-Tu 09:00-18:00; We-Fr 09:00-21:00; Sa 09:00-18:00; Su 13:00-18:00", "brand": "Primark", "brand:wikidata": "Q137023", "nsi_id": "primark-5d2556"}, "geometry": {"type": "Point", "coordinates": [-6.051074266433716, 54.51187220319456]}},
{"type": "Feature", "id": "PSjebhAoihFtSNV3VKjrHNkMqyU=", "properties": {"ref": "624", "payment:american_express": "yes", "payment:google_pay": "yes", "payment:apple_pay": "yes", "payment:cash": "yes", "payment:maestro": "yes", "payment:mastercard": "yes", "payment:visa": "yes", "@spider": "primark_gb", "shop": "clothes", "addr:street_address": "216 - 219 High Street", "addr:city": "Lincoln", "addr:postcode": "LN2 1AB", "addr:country": "GB", "name": "Primark Lincoln", "phone": "+441522527896", "website": "https://www.primark.com/en-gb/stores/lincoln/216-219-high-street", "opening_hours": "Mo-Sa 08:30-18:00; Su 10:30-17:00", "brand": "Primark", "brand:wikidata": "Q137023", "nsi_id": "primark-5d2556"}, "geometry": {"type": "Point", "coordinates": [-0.541456, 53.2288883]}},
{"type": "Feature", "id": "kVeEEuoRtjhtSAyW4KvzwhD7cY4=", "properties": {"ref": "477", "payment:american_express": "yes", "payment:google_pay": "yes", "payment:apple_pay": "yes", "payment:cash": "yes", "payment:maestro": "yes", "payment:mastercard": "yes", "payment:visa": "yes", "@spider": "primark_gb", "shop": "clothes", "addr:street_address": "8, Fosse Park Shopping Centre, Fosse Park Avenue", "addr:city": "Leicester", "addr:postcode": "LE19 1HX", "addr:country": "GB", "name": "Primark Leicester - Fosse Park", "phone": "+441162891287", "website": "https://www.primark.com/en-gb/stores/leicester/8-fosse-park-shopping-centre", "opening_hours": "Mo-Fr 09:00-21:00; Sa 08:00-21:00; Su 11:00-17:00", "brand": "Primark", "brand:wikidata": "Q137023", "nsi_id": "primark-5d2556"}, "geometry": {"type": "Point", "coordinates": [-1.1776061, 52.5970052]}},
{"type": "Feature", "id": "JzXNd37zveQqmXKfZF1bjBDe5qc=", "properties": {"ref": "499", "payment:american_express": "yes", "payment:google_pay": "yes", "payment:apple_pay": "yes", "payment:cash": "yes", "payment:maestro": "yes", "payment:mastercard": "yes", "payment:visa": "yes", "@spider": "primark_gb", "shop": "clothes", "addr:street_address": "38 Humberstone Gate, Haymarket Shopping Centre", "addr:city": "Leicester", "addr:postcode": "LE1 3PH", "addr:country": "GB", "name": "Primark Leicester", "phone": "+441162623062", "website": "https://www.primark.com/en-gb/stores/leicester/38-humberstone-gate", "opening_hours": "Mo-Sa 08:00-19:00; Su 11:00-17:00", "brand": "Primark", "brand:wikidata": "Q137023", "nsi_id": "primark-5d2556"}, "geometry": {"type": "Point", "coordinates": [-1.130774, 52.636644]}},
{"type": "Feature", "id": "yNu8J-Mh-m9NaMDe2g6WmpOZzCE=", "properties": {"ref": "623", "payment:american_express": "yes", "payment:google_pay": "yes", "payment:apple_pay": "yes", "payment:cash": "yes", "payment:maestro": "yes", "payment:mastercard": "yes", "payment:visa": "yes", "@spider": "primark_gb", "shop": "clothes", "addr:street_address": "Unit 4 White Rose Shopping Centre, Dewsbury Road", "addr:city": "Leeds", "addr:postcode": "LS11 8LU", "addr:country": "GB", "name": "Primark Leeds - White Rose", "phone": "+441132716208", "website": "https://www.primark.com/en-gb/stores/leeds/unit-4-white-rose-shopping-centre", "opening_hours": "Mo-Fr 09:00-21:00; Sa 09:00-20:00; Su 11:00-17:00", "brand": "Primark", "brand:wikidata": "Q137023", "nsi_id": "primark-5d2556"}, "geometry": {"type": "Point", "coordinates": [-1.5739944, 53.7577859]}},
{"type": "Feature", "id": "sZKyc9f-sUp4cUQml-3kliiSBoE=", "properties": {"ref": "692", "payment:american_express": "yes", "payment:google_pay": "yes", "payment:apple_pay": "yes", "payment:cash": "yes", "payment:maestro": "yes", "payment:mastercard": "yes", "payment:visa": "yes", "@spider": "primark_gb", "shop": "clothes", "addr:street_address": "18, Marketgate Shopping Centre", "addr:city": "Lancaster", "addr:postcode": "LA1 1JF", "addr:country": "GB", "name": "Primark Marketgate", "phone": "+44152466360", "website": "https://www.primark.com/en-gb/stores/lancaster/18-marketgate-shopping-centre", "opening_hours": "Mo-Sa 09:00-18:00; Su 10:00-16:30", "brand": "Primark", "brand:wikidata": "Q137023", "nsi_id": "primark-5d2556"}, "geometry": {"type": "Point", "coordinates": [-2.8018222, 54.0478898]}},
{"type": "Feature", "id": "KnpTdI3MKJVRod4ToxGgwlyEKok=", "properties": {"ref": "673", "payment:american_express": "yes", "payment:google_pay": "yes", "payment:apple_pay": "yes", "payment:cash": "yes", "payment:maestro": "yes", "payment:mastercard": "yes", "payment:visa": "yes", "@spider": "primark_gb", "shop": "clothes", "addr:street_address": "Albion Street", "addr:city": "Leeds", "addr:postcode": "LS1 5AT", "addr:country": "GB", "name": "Primark Leeds - Trinity", "phone": "+441132340788", "website": "https://www.primark.com/en-gb/stores/leeds/albion-street", "opening_hours": "Mo-Sa 09:00-20:00; Su 11:00-17:00", "brand": "Primark", "brand:wikidata": "Q137023", "nsi_id": "primark-5d2556"}, "geometry": {"type": "Point", "coordinates": [-1.5458646, 53.7964073]}},
{"type": "Feature", "id": "iRXKRYsWOL2tproiAGePD1uBxlU=", "properties": {"ref": "662", "payment:american_express": "yes", "payment:google_pay": "yes", "payment:apple_pay": "yes", "payment:cash": "yes", "payment:maestro": "yes", "payment:mastercard": "yes", "payment:visa": "yes", "@spider": "primark_gb", "shop": "clothes", "addr:street_address": "40 - 42 High Street", "addr:city": "Kings Lynn", "addr:postcode": "PE30 1BJ", "addr:country": "GB", "name": "Primark Kings Lynn", "phone": "+441553768298", "website": "https://www.primark.com/en-gb/stores/kings-lynn/40-42-high-street", "opening_hours": "Mo-Fr 09:00-17:30; Sa 09:00-18:00; Su 10:00-16:00", "brand": "Primark", "brand:wikidata": "Q137023", "nsi_id": "primark-5d2556"}, "geometry": {"type": "Point", "coordinates": [0.39551341104504445, 52.75427101307526]}},
{"type": "Feature", "id": "MNvJ5WhpeD7fqXR9hPT3hvUAApQ=", "properties": {"ref": "581", "payment:american_express": "yes", "payment:google_pay": "yes", "payment:apple_pay": "yes", "payment:cash": "yes", "payment:maestro": "yes", "payment:mastercard": "yes", "payment:visa": "yes", "@spider": "primark_gb", "shop": "clothes", "addr:street_address": "76 Eden Street", "addr:city": "Kingston Upon Thames", "addr:postcode": "KT1 1DJ", "addr:country": "GB", "name": "Primark Kingston", "phone": "+442085498342", "website": "https://www.primark.com/en-gb/stores/kingston-upon-thames/76-eden-street", "opening_hours": "Mo-We 09:00-20:00; Th 09:00-21:00; Fr-Sa 09:00-20:00; Su 11:00-17:00", "brand": "Primark", "brand:wikidata": "Q137023", "nsi_id": "primark-5d2556"}, "geometry": {"type": "Point", "coordinates": [-0.3027007, 51.4096586]}},
{"type": "Feature", "id": "B7w6IDNGwvIGitBVuANOX97qckI=", "properties": {"ref": "672", "payment:american_express": "yes", "payment:google_pay": "yes", "payment:apple_pay": "yes", "payment:cash": "yes", "payment:maestro": "yes", "payment:mastercard": "yes", "payment:visa": "yes", "@spider": "primark_gb", "shop": "clothes", "addr:street_address": "Westwood Cross Shopping Centre, Margate Road", "addr:city": "Kent", "addr:postcode": "CT10 2BF", "addr:country": "GB", "name": "Primark Thanet", "phone": "+441843862757", "website": "https://www.primark.com/en-gb/stores/kent/westwood-cross-shopping-centre", "opening_hours": "Mo-Fr 08:30-20:00; Sa 08:30-19:00; Su 10:30-16:30", "brand": "Primark", "brand:wikidata": "Q137023", "nsi_id": "primark-5d2556"}, "geometry": {"type": "Point", "coordinates": [1.3939582961402142, 51.360046642971895]}},
{"type": "Feature", "id": "KRomStgtGW93ZE-pNe2cpQZ_8Bg=", "properties": {"ref": "622", "payment:american_express": "yes", "payment:google_pay": "yes", "payment:apple_pay": "yes", "payment:cash": "yes", "payment:maestro": "yes", "payment:mastercard": "yes", "payment:visa": "yes", "@spider": "primark_gb", "shop": "clothes", "addr:street_address": "Unit 46 Rivergate Centre", "addr:city": "Irvine", "addr:postcode": "KA12 8EH", "addr:country": "GB", "name": "Primark Irvine", "phone": "+441294322890", "website": "https://www.primark.com/en-gb/stores/irvine/unit-46-rivergate-centre", "opening_hours": "Mo-Fr 08:00-20:00; Sa 08:00-18:00; Su 10:00-18:00", "brand": "Primark", "brand:wikidata": "Q137023", "nsi_id": "primark-5d2556"}, "geometry": {"type": "Point", "coordinates": [-4.671867370630025, 55.61274148095425]}},
{"type": "Feature", "id": "mEc2MVYul70jzZd3gjczmrAbxXo=", "properties": {"ref": "621", "payment:american_express": "yes", "payment:google_pay": "yes", "payment:apple_pay": "yes", "payment:cash": "yes", "payment:maestro": "yes", "payment:mastercard": "yes", "payment:visa": "yes", "@spider": "primark_gb", "shop": "clothes", "addr:street_address": "16 - 18 Bridge Street", "addr:city": "Inverness", "addr:postcode": "IV1 1HG", "addr:country": "GB", "name": "Primark Inverness", "phone": "+441463712087", "website": "https://www.primark.com/en-gb/stores/inverness/16-18-bridge-street", "opening_hours": "Mo-Sa 08:30-18:00; Su 10:00-17:00", "brand": "Primark", "brand:wikidata": "Q137023", "nsi_id": "primark-5d2556"}, "geometry": {"type": "Point", "coordinates": [-4.226147532463074, 57.477365080108456]}},
{"type": "Feature", "id": "jyDjsMCKZim8Ew8yE3db03G5GJI=", "properties": {"ref": "551", "payment:american_express": "yes", "payment:google_pay": "yes", "payment:apple_pay": "yes", "payment:cash": "yes", "payment:maestro": "yes", "payment:mastercard": "yes", "payment:visa": "yes", "@spider": "primark_gb", "shop": "clothes", "addr:street_address": "23 Westgate Street", "addr:city": "Ipswich", "addr:postcode": "IP1 3DR", "addr:country": "GB", "name": "Primark Ipswich", "phone": "+441473258064", "website": "https://www.primark.com/en-gb/stores/ipswich/23-westgate-street", "opening_hours": "Mo-We 09:00-18:00; Th 09:00-21:00; Fr 09:00-18:00; Sa 08:30-18:00; Su 10:00-16:30", "brand": "Primark", "brand:wikidata": "Q137023", "nsi_id": "primark-5d2556"}, "geometry": {"type": "Point", "coordinates": [1.1512876, 52.058376]}},
{"type": "Feature", "id": "EfDVCkYXxYgVT9vWxuPoVq2PdnE=", "properties": {"ref": "661", "payment:american_express": "yes", "payment:google_pay": "yes", "payment:apple_pay": "yes", "payment:cash": "yes", "payment:maestro": "yes", "payment:mastercard": "yes", "payment:visa": "yes", "@spider": "primark_gb", "shop": "clothes", "addr:street_address": "129 - 133 High Road", "addr:city": "Ilford", "addr:postcode": "IG1 1DE", "addr:country": "GB", "name": "Primark Ilford", "phone": "+442084777680", "website": "https://www.primark.com/en-gb/stores/ilford/129-133-high-road", "opening_hours": "Mo-Tu 09:00-19:00; We 09:00-20:00; Th-Sa 09:00-19:00; Su 11:00-17:00", "brand": "Primark", "brand:wikidata": "Q137023", "nsi_id": "primark-5d2556"}, "geometry": {"type": "Point", "coordinates": [0.07214200934890869, 51.558923865788095]}},
{"type": "Feature", "id": "ufHcwQ09NMGXNhcu6rWHxp_u2rg=", "properties": {"ref": "498", "payment:american_express": "yes", "payment:google_pay": "yes", "payment:apple_pay": "yes", "payment:cash": "yes", "payment:maestro": "yes", "payment:mastercard": "yes", "payment:visa": "yes", "@spider": "primark_gb", "shop": "clothes", "addr:street_address": "Princes Quay, 1-5 Carr Lane", "addr:city": "Hull", "addr:postcode": "HU1 3RD", "addr:country": "GB", "name": "Primark Hull", "phone": "+441482620640", "website": "https://www.primark.com/en-gb/stores/hull/princes-quay", "opening_hours": "Mo-Sa 09:00-18:00; Su 10:30-16:30", "brand": "Primark", "brand:wikidata": "Q137023", "nsi_id": "primark-5d2556"}, "geometry": {"type": "Point", "coordinates": [-0.3405709, 53.7433439]}},
{"type": "Feature", "id": "dHKfmMOmio6mEIRwVz2F66OwVWk=", "properties": {"ref": "506", "payment:american_express": "yes", "payment:google_pay": "yes", "payment:apple_pay": "yes", "payment:cash": "yes", "payment:maestro": "yes", "payment:mastercard": "yes", "payment:visa": "yes", "@spider": "primark_gb", "shop": "clothes", "addr:street_address": "165 - 169 High Street", "addr:city": "Hounslow", "addr:postcode": "TW3 1QL", "addr:country": "GB", "name": "Primark Hounslow", "phone": "+442085704855", "website": "https://www.primark.com/en-gb/stores/hounslow/165-169-high-street", "opening_hours": "Mo-Fr 09:00-19:00; Sa 09:00-18:30; Su 10:45-17:00", "brand": "Primark", "brand:wikidata": "Q137023", "nsi_id": "primark-5d2556"}, "geometry": {"type": "Point", "coordinates": [-0.36018311977386475, 51.46892672026687]}},
{"type": "Feature", "id": "RT6-xHGVVRLnZc_FAx4d14llQys=", "properties": {"ref": "532", "payment:american_express": "yes", "payment:google_pay": "yes", "payment:apple_pay": "yes", "payment:cash": "yes", "payment:maestro": "yes", "payment:mastercard": "yes", "payment:visa": "yes", "@spider": "primark_gb", "shop": "clothes", "addr:street_address": "82-86 New Street", "addr:city": "Huddersfield", "addr:postcode": "HD1 2TR", "addr:country": "GB", "name": "Primark Huddersfield", "phone": "+441484426814", "website": "https://www.primark.com/en-gb/stores/huddersfield/82-86-new-street", "opening_hours": "Mo-Sa 09:00-18:00; Su 10:00-16:00", "brand": "Primark", "brand:wikidata": "Q137023", "nsi_id": "primark-5d2556"}, "geometry": {"type": "Point", "coordinates": [-1.7837149, 53.6439315]}},
{"type": "Feature", "id": "b7w4cdkR5vAa_sNDM0oorQinIPE=", "properties": {"ref": "647", "payment:american_express": "yes", "payment:google_pay": "yes", "payment:apple_pay": "yes", "payment:cash": "yes", "payment:maestro": "yes", "payment:mastercard": "yes", "payment:visa": "yes", "@spider": "primark_gb", "shop": "clothes", "addr:street_address": "7 The Chilterns", "addr:city": "High Wycombe", "addr:postcode": "HP13 5ES", "addr:country": "GB", "name": "Primark High Wycombe", "phone": "+441494462149", "website": "https://www.primark.com/en-gb/stores/high-wycombe/7-the-chilterns", "opening_hours": "Mo-We 09:00-18:00; Th 09:00-20:00; Fr-Sa 09:00-18:00; Su 10:30-17:00", "brand": "Primark", "brand:wikidata": "Q137023", "nsi_id": "primark-5d2556"}, "geometry": {"type": "Point", "coordinates": [-0.751613974571228, 51.63037869859852]}},
{"type": "Feature", "id": "coabhxn9s13wam8KecL-iGo78JI=", "properties": {"ref": "523", "payment:american_express": "yes", "payment:google_pay": "yes", "payment:apple_pay": "yes", "payment:cash": "yes", "payment:maestro": "yes", "payment:mastercard": "yes", "payment:visa": "yes", "@spider": "primark_gb", "shop": "clothes", "addr:street_address": "9 - 11 Widemarsh Street", "addr:city": "Hereford", "addr:postcode": "HR4 9ED", "addr:country": "GB", "name": "Primark Hereford", "phone": "+441432276158", "website": "https://www.primark.com/en-gb/stores/hereford/9-11-widemarsh-street", "opening_hours": "Mo-Sa 09:00-18:00; Su 10:30-16:30", "brand": "Primark", "brand:wikidata": "Q137023", "nsi_id": "primark-5d2556"}, "geometry": {"type": "Point", "coordinates": [-2.7166539430618286, 52.05702443477529]}},
{"type": "Feature", "id": "1RfleggWAJK3LV89sS5rDqYw1y0=", "properties": {"ref": "584", "payment:american_express": "yes", "payment:google_pay": "yes", "payment:apple_pay": "yes", "payment:cash": "yes", "payment:maestro": "yes", "payment:mastercard": "yes", "payment:visa": "yes", "@spider": "primark_gb", "shop": "clothes", "addr:street_address": "Unit 194A, Middleton Grange Shopping Centre", "addr:city": "Hartlepool", "addr:postcode": "TS24 7RR", "addr:country": "GB", "name": "Primark Hartlepool", "phone": "+441429222135", "website": "https://www.primark.com/en-gb/stores/hartlepool/unit-194a", "opening_hours": "Mo-Sa 08:30-17:30; Su 10:00-16:00", "brand": "Primark", "brand:wikidata": "Q137023", "nsi_id": "primark-5d2556"}, "geometry": {"type": "Point", "coordinates": [-1.2120749, 54.6830015]}},
{"type": "Feature", "id": "tS_ScZiVuP44JfQCbtiZSrT2Q14=", "properties": {"ref": "524", "payment:american_express": "yes", "payment:google_pay": "yes", "payment:apple_pay": "yes", "payment:cash": "yes", "payment:maestro": "yes", "payment:mastercard": "yes", "payment:visa": "yes", "@spider": "primark_gb", "shop": "clothes", "addr:street_address": "260 Marlowes", "addr:city": "Hemel Hempstead", "addr:postcode": "HP1 1BJ", "addr:country": "GB", "name": "Primark Hemel Hempstead", "phone": "+441442249458", "website": "https://www.primark.com/en-gb/stores/hemel-hempstead/260-marlowes", "opening_hours": "Mo-Sa 09:00-18:00; Su 11:00-17:00", "brand": "Primark", "brand:wikidata": "Q137023", "nsi_id": "primark-5d2556"}, "geometry": {"type": "Point", "coordinates": [-0.4728506, 51.7483032]}},
{"type": "Feature", "id": "UyzfPv5ZQbwOI9NL-392oSIwoTc=", "properties": {"ref": "656", "payment:american_express": "yes", "payment:google_pay": "yes", "payment:apple_pay": "yes", "payment:cash": "yes", "payment:maestro": "yes", "payment:mastercard": "yes", "payment:visa": "yes", "@spider": "primark_gb", "shop": "clothes", "addr:street_address": "36-38 Cambridge Street", "addr:city": "Harrogate", "addr:postcode": "HG1 1RX", "addr:country": "GB", "name": "Primark Harrogate", "phone": "+441423507626", "website": "https://www.primark.com/en-gb/stores/harrogate/36-38-cambridge-street", "opening_hours": "Mo-Sa 09:00-18:00; Su 10:30-16:30", "brand": "Primark", "brand:wikidata": "Q137023", "nsi_id": "primark-5d2556"}, "geometry": {"type": "Point", "coordinates": [-1.5405662, 53.9938798]}},
{"type": "Feature", "id": "I5a5co21B2X9mWCNOKcUsZF_Lgg=", "properties": {"ref": "437", "payment:american_express": "yes", "payment:google_pay": "yes", "payment:apple_pay": "yes", "payment:cash": "yes", "payment:maestro": "yes", "payment:mastercard": "yes", "payment:visa": "yes", "@spider": "primark_gb", "shop": "clothes", "addr:street_address": "Store D, St Ann\u2019s Shopping Centre", "addr:city": "Harrow", "addr:postcode": "HA1 1AT", "addr:country": "GB", "name": "Primark Harrow", "phone": "+442084277919", "website": "https://www.primark.com/en-gb/stores/harrow/store-d", "opening_hours": "Mo-We 09:00-19:00; Th 09:00-20:00; Fr 09:00-19:30; Sa 09:00-19:00; Su 10:30-17:00", "brand": "Primark", "brand:wikidata": "Q137023", "nsi_id": "primark-5d2556"}, "geometry": {"type": "Point", "coordinates": [-0.336767, 51.580858]}},
{"type": "Feature", "id": "qkj30CKxtKWv71TYI-LuXEp5sBk=", "properties": {"ref": "620", "payment:american_express": "yes", "payment:google_pay": "yes", "payment:apple_pay": "yes", "payment:cash": "yes", "payment:maestro": "yes", "payment:mastercard": "yes", "payment:visa": "yes", "@spider": "primark_gb", "shop": "clothes", "addr:street_address": "28 Broad Walk", "addr:city": "Harlow", "addr:postcode": "CM20 1JA", "addr:country": "GB", "name": "Primark Harlow", "phone": "+441279427907", "website": "https://www.primark.com/en-gb/stores/harlow/28-broad-walk", "opening_hours": "Mo-We 09:00-17:30; Th-Sa 09:00-18:00; Su 10:00-16:30", "brand": "Primark", "brand:wikidata": "Q137023", "nsi_id": "primark-5d2556"}, "geometry": {"type": "Point", "coordinates": [0.093527, 51.7697726]}},
{"type": "Feature", "id": "PtW1Ug28VHWJWMdnMFUGD7Hrm08=", "properties": {"ref": "522", "payment:american_express": "yes", "payment:google_pay": "yes", "payment:apple_pay": "yes", "payment:cash": "yes", "payment:maestro": "yes", "payment:mastercard": "yes", "payment:visa": "yes", "@spider": "primark_gb", "shop": "clothes", "addr:street_address": "1, Kings Mall Shopping Centre, Kings Street", "addr:city": "Hammersmith", "addr:postcode": "W6 0PZ", "addr:country": "GB", "name": "Primark Hammersmith", "phone": "+442087487119", "website": "https://www.primark.com/en-gb/stores/hammersmith/1-kings-mall-shopping-centre", "opening_hours": "Mo-Fr 09:00-20:00; Sa 09:00-19:00; Su 10:30-17:00", "brand": "Primark", "brand:wikidata": "Q137023", "nsi_id": "primark-5d2556"}, "geometry": {"type": "Point", "coordinates": [-0.22897079586982727, 51.49267671749433]}},
{"type": "Feature", "id": "0tjIR5yliNCdC-l8ZbOMuW688Bw=", "properties": {"ref": "553", "payment:american_express": "yes", "payment:google_pay": "yes", "payment:apple_pay": "yes", "payment:cash": "yes", "payment:maestro": "yes", "payment:mastercard": "yes", "payment:visa": "yes", "@spider": "primark_gb", "shop": "clothes", "addr:street_address": "29 Quarry Street", "addr:city": "Hamilton", "addr:postcode": "ML3 7AW", "addr:country": "GB", "name": "Primark Hamilton", "phone": "+441698282570", "website": "https://www.primark.com/en-gb/stores/hamilton/29-quarry-street", "opening_hours": "Mo-Sa 08:30-18:00; Su 10:00-17:00", "brand": "Primark", "brand:wikidata": "Q137023", "nsi_id": "primark-5d2556"}, "geometry": {"type": "Point", "coordinates": [-4.033943690807291, 55.77553578291381]}},
{"type": "Feature", "id": "V5uw-pEAreOEG7ftMGjAJEdnmHk=", "properties": {"ref": "655", "payment:american_express": "yes", "payment:google_pay": "yes", "payment:apple_pay": "yes", "payment:cash": "yes", "payment:maestro": "yes", "payment:mastercard": "yes", "payment:visa": "yes", "@spider": "primark_gb", "shop": "clothes", "addr:street_address": "33 The Friary", "addr:city": "Guildford", "addr:postcode": "GU1 4YW", "addr:country": "GB", "name": "Primark Guildford", "phone": "+441483300696", "website": "https://www.primark.com/en-gb/stores/guildford/33-the-friary", "opening_hours": "Mo-We 09:00-18:00; Th 09:00-20:00; Fr-Sa 09:00-18:00; Su 11:00-17:00", "brand": "Primark", "brand:wikidata": "Q137023", "nsi_id": "primark-5d2556"}, "geometry": {"type": "Point", "coordinates": [-0.5762739, 51.2380533]}},
{"type": "Feature", "id": "VsAwCbh4R5VPexA-m6o7mYPkGkw=", "properties": {"ref": "565", "payment:american_express": "yes", "payment:google_pay": "yes", "payment:apple_pay": "yes", "payment:cash": "yes", "payment:maestro": "yes", "payment:mastercard": "yes", "payment:visa": "yes", "@spider": "primark_gb", "shop": "clothes", "addr:street_address": "Freshney Place Shopping Centre, 65 Friargate", "addr:city": "Grimsby", "addr:postcode": "DN31 1QQ", "addr:country": "GB", "name": "Primark Grimsby", "phone": "+441472354363", "website": "https://www.primark.com/en-gb/stores/grimsby/freshney-place-shopping-centre", "opening_hours": "Mo-Th 09:00-17:30; Fr-Sa 08:30-17:30; Su 10:30-16:30", "brand": "Primark", "brand:wikidata": "Q137023", "nsi_id": "primark-5d2556"}, "geometry": {"type": "Point", "coordinates": [-0.0853865, 53.5663136]}},
{"type": "Feature", "id": "uVqLFybMlQ8SGyBnW9INx9rhqOM=", "properties": {"ref": "582", "payment:american_express": "yes", "payment:google_pay": "yes", "payment:apple_pay": "yes", "payment:cash": "yes", "payment:maestro": "yes", "payment:mastercard": "yes", "payment:visa": "yes", "@spider": "primark_gb", "shop": "clothes", "addr:street_address": "1A - 1B New Road", "addr:city": "Gravesend", "addr:postcode": "DA11 0AA", "addr:country": "GB", "name": "Primark Gravesend", "phone": "+441474564809", "website": "https://www.primark.com/en-gb/stores/gravesend/1a-1b-new-road", "opening_hours": "Mo-Sa 09:00-18:00; Su 10:00-16:00", "brand": "Primark", "brand:wikidata": "Q137023", "nsi_id": "primark-5d2556"}, "geometry": {"type": "Point", "coordinates": [0.3689367, 51.442708]}},
{"type": "Feature", "id": "ICZihOqS7-q69FiNmN-Pbed25_c=", "properties": {"ref": "618", "payment:american_express": "yes", "payment:google_pay": "yes", "payment:apple_pay": "yes", "payment:cash": "yes", "payment:maestro": "yes", "payment:mastercard": "yes", "payment:visa": "yes", "@spider": "primark_gb", "shop": "clothes", "addr:street_address": "39 Hamilton Way, Oak Mall Shopping Centre", "addr:city": "Greenock", "addr:postcode": "PA15 1JW", "addr:country": "GB", "name": "Primark Greenock", "phone": "+441475784703", "website": "https://www.primark.com/en-gb/stores/greenock/39-hamilton-way", "opening_hours": "Mo-Sa 08:30-18:00; Su 10:00-17:00", "brand": "Primark", "brand:wikidata": "Q137023", "nsi_id": "primark-5d2556"}, "geometry": {"type": "Point", "coordinates": [-4.759708642959595, 55.9485540253999]}},
{"type": "Feature", "id": "-Z_sYAMURVQzHWViowusNskX9Wg=", "properties": {"ref": "630", "payment:american_express": "yes", "payment:google_pay": "yes", "payment:apple_pay": "yes", "payment:cash": "yes", "payment:maestro": "yes", "payment:mastercard": "yes", "payment:visa": "yes", "@spider": "primark_gb", "shop": "clothes", "addr:street_address": "Unit 21 Forge Shopping Centre, 1221 Gallowgate, Parkhead", "addr:city": "Glasgow", "addr:postcode": "G31 4EB", "addr:country": "GB", "name": "Primark Glasgow Parkhead", "phone": "+441415504082", "website": "https://www.primark.com/en-gb/stores/glasgow/unit-21-forge-shopping-centre", "opening_hours": "Mo-Sa 09:00-18:00; Su 10:00-18:00", "brand": "Primark", "brand:wikidata": "Q137023", "nsi_id": "primark-5d2556"}, "geometry": {"type": "Point", "coordinates": [-4.199767673263523, 55.853733914506705]}},
{"type": "Feature", "id": "gztmlESz-1AQUNoeTxIsFH5IRiE=", "properties": {"ref": "617", "payment:american_express": "yes", "payment:google_pay": "yes", "payment:apple_pay": "yes", "payment:cash": "yes", "payment:maestro": "yes", "payment:mastercard": "yes", "payment:visa": "yes", "@spider": "primark_gb", "shop": "clothes", "addr:street_address": "56 - 68 Argyle Street", "addr:city": "Glasgow", "addr:postcode": "G2 8AG", "addr:country": "GB", "name": "Primark Glasgow Argyle St", "phone": "+441412291343", "website": "https://www.primark.com/en-gb/stores/glasgow/56-68-argyle-street", "opening_hours": "Mo-Fr 08:00-20:00; Sa 08:00-19:00; Su 09:00-19:00", "brand": "Primark", "brand:wikidata": "Q137023", "nsi_id": "primark-5d2556"}, "geometry": {"type": "Point", "coordinates": [-4.252199828624725, 55.85849358915466]}},
{"type": "Feature", "id": "Eem0KOtwLTCBqkcnmzkp6RSyTFk=", "properties": {"ref": "665", "payment:american_express": "yes", "payment:google_pay": "yes", "payment:apple_pay": "yes", "payment:cash": "yes", "payment:maestro": "yes", "payment:mastercard": "yes", "payment:visa": "yes", "@spider": "primark_gb", "shop": "clothes", "addr:street_address": "Unit 1a Braehead Shopping Centre, Kings Inch Road", "addr:city": "Glasgow", "addr:postcode": "G51 4BS", "addr:country": "GB", "name": "Primark Braehead", "phone": "+441418851083", "website": "https://www.primark.com/en-gb/stores/glasgow/unit-1a-braehead-shopping-centre", "opening_hours": "Mo-Fr 09:00-21:00; Sa 08:30-18:30; Su 09:00-18:00", "brand": "Primark", "brand:wikidata": "Q137023", "nsi_id": "primark-5d2556"}, "geometry": {"type": "Point", "coordinates": [-4.3669991, 55.8770996]}},
{"type": "Feature", "id": "s3iUBzFLNx-taLQaKdaLs6vQ3TU=", "properties": {"ref": "670", "payment:american_express": "yes", "payment:google_pay": "yes", "payment:apple_pay": "yes", "payment:cash": "yes", "payment:maestro": "yes", "payment:mastercard": "yes", "payment:visa": "yes", "@spider": "primark_gb", "shop": "clothes", "addr:street_address": "Central Mall, Metrocentre", "addr:city": "Gateshead", "addr:postcode": "NE11 9YG", "addr:country": "GB", "name": "Primark Central Mall", "phone": "+441914603256", "website": "https://www.primark.com/en-gb/stores/gateshead/central-mall", "opening_hours": "Mo-Fr 09:00-21:00; Sa 09:00-19:00; Su 11:00-17:00", "brand": "Primark", "brand:wikidata": "Q137023", "nsi_id": "primark-5d2556"}, "geometry": {"type": "Point", "coordinates": [-1.6684756, 54.958046]}},
{"type": "Feature", "id": "TwSV5XKRlEHKpfGdexfl6GQSEMQ=", "properties": {"ref": "541", "payment:american_express": "yes", "payment:google_pay": "yes", "payment:apple_pay": "yes", "payment:cash": "yes", "payment:maestro": "yes", "payment:mastercard": "yes", "payment:visa": "yes", "@spider": "primark_gb", "shop": "clothes", "addr:street_address": "171 Sauchiehall Street", "addr:city": "Glasgow", "addr:postcode": "G2 3ER", "addr:country": "GB", "name": "Primark Glasgow Sauchiehall", "phone": "+441413329097", "website": "https://www.primark.com/en-gb/stores/glasgow/171-sauchiehall-street", "opening_hours": "Mo-Sa 08:00-19:00; Su 10:00-18:00", "brand": "Primark", "brand:wikidata": "Q137023", "nsi_id": "primark-5d2556"}, "geometry": {"type": "Point", "coordinates": [-4.259801023313457, 55.864842742329785]}},
{"type": "Feature", "id": "J1AvoxkByCxa3zDpj2C-HXH1Uxw=", "properties": {"ref": "615", "payment:american_express": "yes", "payment:google_pay": "yes", "payment:apple_pay": "yes", "payment:cash": "yes", "payment:maestro": "yes", "payment:mastercard": "yes", "payment:visa": "yes", "@spider": "primark_gb", "shop": "clothes", "addr:street_address": "30 Guildhall Shopping Centre", "addr:city": "Exeter", "addr:postcode": "EX4 3HJ", "addr:country": "GB", "name": "Primark Exeter", "phone": "+441392420931", "website": "https://www.primark.com/en-gb/stores/exeter/30-guildhall-shopping-centre", "opening_hours": "Mo-Fr 09:00-18:30; Sa 09:00-18:00; Su 10:30-17:00", "brand": "Primark", "brand:wikidata": "Q137023", "nsi_id": "primark-5d2556"}, "geometry": {"type": "Point", "coordinates": [-3.5336105, 50.7237702]}},
{"type": "Feature", "id": "hK-F7yn-Oc-m1gCmjodvpYpJEgw=", "properties": {"ref": "654", "payment:american_express": "yes", "payment:google_pay": "yes", "payment:apple_pay": "yes", "payment:cash": "yes", "payment:maestro": "yes", "payment:mastercard": "yes", "payment:visa": "yes", "@spider": "primark_gb", "shop": "clothes", "addr:street_address": "Bouverie Place Shopping Centre, Alexandre Gardens", "addr:city": "Folkestone", "addr:postcode": "CT20 1AU", "addr:country": "GB", "name": "Primark Folkestone", "phone": "+441303252047", "website": "https://www.primark.com/en-gb/stores/folkestone/bouverie-place-shopping-centre", "opening_hours": "Mo-Sa 09:00-18:00; Su 10:00-16:00", "brand": "Primark", "brand:wikidata": "Q137023", "nsi_id": "primark-5d2556"}, "geometry": {"type": "Point", "coordinates": [1.1779507582664337, 51.07977741573401]}},
{"type": "Feature", "id": "LcoF8NN1oqwng0zXE-jI0MPpTk8=", "properties": {"ref": "698", "payment:american_express": "yes", "payment:google_pay": "yes", "payment:apple_pay": "yes", "payment:cash": "yes", "payment:maestro": "yes", "payment:mastercard": "yes", "payment:visa": "yes", "@spider": "primark_gb", "shop": "clothes", "addr:street_address": "Unit 5 Fort Kinnaird Retail Park, Newcraighall", "addr:city": "Edinburgh", "addr:postcode": "EH15 3RD", "addr:country": "GB", "name": "Primark Edinburgh Fort Kinnaird", "phone": "+441316571006", "website": "https://www.primark.com/en-gb/stores/edinburgh/unit-5-fort-kinnaird-retail-park", "opening_hours": "Mo-Fr 09:00-21:00; Sa-Su 09:00-18:00", "brand": "Primark", "brand:wikidata": "Q137023", "nsi_id": "primark-5d2556"}, "geometry": {"type": "Point", "coordinates": [-3.1004859, 55.934647]}},
{"type": "Feature", "id": "HHW2QkZ6SX5zy3YI-H8G15Vwd3c=", "properties": {"ref": "650", "payment:american_express": "yes", "payment:google_pay": "yes", "payment:apple_pay": "yes", "payment:cash": "yes", "payment:maestro": "yes", "payment:mastercard": "yes", "payment:visa": "yes", "@spider": "primark_gb", "shop": "clothes", "addr:street_address": "91 - 93 Princes Street", "addr:city": "Edinburgh", "addr:postcode": "EH2 2ER", "addr:country": "GB", "name": "Primark Edinburgh", "phone": "+441312263443", "website": "https://www.primark.com/en-gb/stores/edinburgh/91-93-princes-street", "opening_hours": "Mo-Fr 08:00-21:00; Sa 08:00-20:00; Su 09:00-19:00", "brand": "Primark", "brand:wikidata": "Q137023", "nsi_id": "primark-5d2556"}, "geometry": {"type": "Point", "coordinates": [-3.1987894, 55.951953]}},
{"type": "Feature", "id": "n5l6pbJKtHUqfbB-CLOI-nFiPN0=", "properties": {"ref": "614", "payment:american_express": "yes", "payment:google_pay": "yes", "payment:apple_pay": "yes", "payment:cash": "yes", "payment:maestro": "yes", "payment:mastercard": "yes", "payment:visa": "yes", "@spider": "primark_gb", "shop": "clothes", "addr:street_address": "The Beacon", "addr:city": "Eastbourne", "addr:postcode": "BN21 3NW", "addr:country": "GB", "name": "Primark Eastbourne", "phone": "+441323746748", "website": "https://www.primark.com/en-gb/stores/eastbourne/the-beacon", "opening_hours": "Mo-Sa 09:00-18:00; Su 10:00-16:30", "brand": "Primark", "brand:wikidata": "Q137023", "nsi_id": "primark-5d2556"}, "geometry": {"type": "Point", "coordinates": [0.286218523979187, 50.769620087803354]}},
{"type": "Feature", "id": "BpHmWKOS_P-F09ONBE7sjBOfJOs=", "properties": {"ref": "558", "payment:american_express": "yes", "payment:google_pay": "yes", "payment:apple_pay": "yes", "payment:cash": "yes", "payment:maestro": "yes", "payment:mastercard": "yes", "payment:visa": "yes", "@spider": "primark_gb", "shop": "clothes", "addr:street_address": "Unit 4, Plaza Shopping Centre, Cornwall St", "addr:city": "East Kilbride", "addr:postcode": "G74 1LW", "addr:country": "GB", "name": "Primark East Kilbride", "phone": "+441355570264", "website": "https://www.primark.com/en-gb/stores/east-kilbride/unit-4-plaza-shopping-centre", "opening_hours": "Mo-We 08:30-19:00; Th 08:30-20:00; Fr 08:30-19:00; Sa 08:30-18:00; Su 10:00-18:00", "brand": "Primark", "brand:wikidata": "Q137023", "nsi_id": "primark-5d2556"}, "geometry": {"type": "Point", "coordinates": [-4.180405139923096, 55.7605642069116]}},
{"type": "Feature", "id": "rm4WDpSolDCCfkbT963g1xUheq0=", "properties": {"ref": "504", "payment:american_express": "yes", "payment:google_pay": "yes", "payment:apple_pay": "yes", "payment:cash": "yes", "payment:maestro": "yes", "payment:mastercard": "yes", "payment:visa": "yes", "@spider": "primark_gb", "shop": "clothes", "addr:street_address": "51 High Street North", "addr:city": "East Ham", "addr:postcode": "E6 1HZ", "addr:country": "GB", "name": "Primark East Ham", "phone": "+442084722512", "website": "https://www.primark.com/en-gb/stores/east-ham/51-high-street-north", "opening_hours": "Mo-Sa 09:00-19:30; Su 11:00-17:00", "brand": "Primark", "brand:wikidata": "Q137023", "nsi_id": "primark-5d2556"}, "geometry": {"type": "Point", "coordinates": [0.05230849206543553, 51.53530317397248]}},
{"type": "Feature", "id": "zmrN3IL-FBXBXiJiI_8ayfuFb4Y=", "properties": {"ref": "644", "payment:american_express": "yes", "payment:google_pay": "yes", "payment:apple_pay": "yes", "payment:cash": "yes", "payment:maestro": "yes", "payment:mastercard": "yes", "payment:visa": "yes", "@spider": "primark_gb", "shop": "clothes", "addr:street_address": "38 Ealing Broadway Centre, Unit LSU1", "addr:city": "Ealing", "addr:postcode": "W5 5JY", "addr:country": "GB", "name": "Primark Ealing", "phone": "+442085674134", "website": "https://www.primark.com/en-gb/stores/ealing/38-ealing-broadway-centre", "opening_hours": "Mo-Fr 09:00-20:00; Sa 08:30-19:30; Su 11:00-17:00", "brand": "Primark", "brand:wikidata": "Q137023", "nsi_id": "primark-5d2556"}, "geometry": {"type": "Point", "coordinates": [-0.3036954, 51.5120669]}},
{"type": "Feature", "id": "G8H5XQsqnlKlPhzKLKFtq_YzC7g=", "properties": {"ref": "613", "payment:american_express": "yes", "payment:google_pay": "yes", "payment:apple_pay": "yes", "payment:cash": "yes", "payment:maestro": "yes", "payment:mastercard": "yes", "payment:visa": "yes", "@spider": "primark_gb", "shop": "clothes", "addr:street_address": "127 - 137 High Street", "addr:city": "Dunfermline", "addr:postcode": "KY12 7DR", "addr:country": "GB", "name": "Primark Dunfermline", "phone": "+441383734276", "website": "https://www.primark.com/en-gb/stores/dunfermline/127-137-high-street", "opening_hours": "Mo-We 08:30-18:00; Th 08:30-19:30; Fr-Sa 08:30-18:00; Su 10:00-17:00", "brand": "Primark", "brand:wikidata": "Q137023", "nsi_id": "primark-5d2556"}, "geometry": {"type": "Point", "coordinates": [-3.4596258401870728, 56.07105936630482]}},
{"type": "Feature", "id": "WIdTgHUCRdW__qINdKNKf6btIL0=", "properties": {"ref": "612", "payment:american_express": "yes", "payment:google_pay": "yes", "payment:apple_pay": "yes", "payment:cash": "yes", "payment:maestro": "yes", "payment:mastercard": "yes", "payment:visa": "yes", "@spider": "primark_gb", "shop": "clothes", "addr:street_address": "40 High Street", "addr:city": "Dundee", "addr:postcode": "DD1 1TU", "addr:country": "GB", "name": "Primark Dundee", "phone": "+441382220575", "website": "https://www.primark.com/en-gb/stores/dundee/40-high-street", "opening_hours": "Mo-Sa 09:00-18:00; Su 10:00-17:00", "brand": "Primark", "brand:wikidata": "Q137023", "nsi_id": "primark-5d2556"}, "geometry": {"type": "Point", "coordinates": [-2.9710759, 56.4601268]}},
{"type": "Feature", "id": "j1qvf0lOl9jyFTGl6JI4-EshLag=", "properties": {"ref": "641", "payment:american_express": "yes", "payment:google_pay": "yes", "payment:apple_pay": "yes", "payment:cash": "yes", "payment:maestro": "yes", "payment:mastercard": "yes", "payment:visa": "yes", "@spider": "primark_gb", "shop": "clothes", "addr:street_address": "Intu Merry Hill Shopping Centre, Brierley Hill", "addr:city": "Dudley", "addr:postcode": "DY5 1QX", "addr:country": "GB", "name": "Primark Dudley", "phone": "+441384480843", "website": "https://www.primark.com/en-gb/stores/dudley/intu-merry-hill-shopping-centre", "opening_hours": "Mo-Fr 09:00-21:00; Sa 09:00-19:00; Su 10:30-17:00", "brand": "Primark", "brand:wikidata": "Q137023", "nsi_id": "primark-5d2556"}, "geometry": {"type": "Point", "coordinates": [-2.1129299, 52.4814823]}},
{"type": "Feature", "id": "VJTd-DdHx0pQvLEHLFuMadolJdI=", "properties": {"ref": "611", "payment:american_express": "yes", "payment:google_pay": "yes", "payment:apple_pay": "yes", "payment:cash": "yes", "payment:maestro": "yes", "payment:mastercard": "yes", "payment:visa": "yes", "@spider": "primark_gb", "shop": "clothes", "addr:street_address": "1-7 Market Place", "addr:city": "Doncaster", "addr:postcode": "DN1 1LQ", "addr:country": "GB", "name": "Primark Doncaster", "phone": "+441302366857", "website": "https://www.primark.com/en-gb/stores/doncaster/1-7-market-place", "opening_hours": "Mo-Sa 08:30-18:00; Su 09:30-16:00", "brand": "Primark", "brand:wikidata": "Q137023", "nsi_id": "primark-5d2556"}, "geometry": {"type": "Point", "coordinates": [-1.1339, 53.5246971]}},
{"type": "Feature", "id": "_pr2yC1an7UE_d4-ykK9nlozYp0=", "properties": {"ref": "546", "payment:american_express": "yes", "payment:google_pay": "yes", "payment:apple_pay": "yes", "payment:cash": "yes", "payment:maestro": "yes", "payment:mastercard": "yes", "payment:visa": "yes", "@spider": "primark_gb", "shop": "clothes", "addr:street_address": "28-31 Cornmarket", "addr:city": "Derby", "addr:postcode": "DE1 2DG", "addr:country": "GB", "name": "Primark Derby", "phone": "+441332297209", "website": "https://www.primark.com/en-gb/stores/derby/28-31-cornmarket", "opening_hours": "Mo-We 09:00-18:00; Th-Fr 09:00-20:00; Sa 09:00-19:00; Su 10:30-16:30", "brand": "Primark", "brand:wikidata": "Q137023", "nsi_id": "primark-5d2556"}, "geometry": {"type": "Point", "coordinates": [-1.4764568209648132, 52.92204303374633]}},
{"type": "Feature", "id": "plmeg3tWI4rBL356r57Cr-q8B5A=", "properties": {"ref": "543", "payment:american_express": "yes", "payment:google_pay": "yes", "payment:apple_pay": "yes", "payment:cash": "yes", "payment:maestro": "yes", "payment:mastercard": "yes", "payment:visa": "yes", "@spider": "primark_gb", "shop": "clothes", "addr:street_address": "58 - 60 High Street", "addr:city": "Dartford", "addr:postcode": "DA1 1DE", "addr:country": "GB", "name": "Primark Dartford", "phone": "+441322289302", "website": "https://www.primark.com/en-gb/stores/dartford/58-60-high-street", "opening_hours": "Mo-Sa 09:00-18:00; Su 10:00-16:00", "brand": "Primark", "brand:wikidata": "Q137023", "nsi_id": "primark-5d2556"}, "geometry": {"type": "Point", "coordinates": [0.21905694477459292, 51.44479147406691]}},
{"type": "Feature", "id": "TKxc7kKGEzr2MNrPdC1J9f2ngkA=", "properties": {"ref": "610", "payment:american_express": "yes", "payment:google_pay": "yes", "payment:apple_pay": "yes", "payment:cash": "yes", "payment:maestro": "yes", "payment:mastercard": "yes", "payment:visa": "yes", "@spider": "primark_gb", "shop": "clothes", "addr:street_address": "12 The Cornmill Centre", "addr:city": "Darlington", "addr:postcode": "DL1 1NH", "addr:country": "GB", "name": "Primark Darlington", "phone": "+441325483951", "website": "https://www.primark.com/en-gb/stores/darlington/12-the-cornmill-centre", "opening_hours": "Mo-Sa 09:00-17:30; Su 10:30-16:30", "brand": "Primark", "brand:wikidata": "Q137023", "nsi_id": "primark-5d2556"}, "geometry": {"type": "Point", "coordinates": [-1.5535452, 54.5251323]}},
{"type": "Feature", "id": "RFjX-tuxZnEZWFBCyoqMos2yPf0=", "properties": {"ref": "664", "payment:american_express": "yes", "payment:google_pay": "yes", "payment:apple_pay": "yes", "payment:cash": "yes", "payment:maestro": "yes", "payment:mastercard": "yes", "payment:visa": "yes", "@spider": "primark_gb", "shop": "clothes", "addr:street_address": "Cwmbran Shopping Centre, General Rees Square", "addr:city": "Cwmbran", "addr:postcode": "NP44 1AH", "addr:country": "GB", "name": "Primark Cwmbran", "phone": "+441633485179", "website": "https://www.primark.com/en-gb/stores/cwmbran/cwmbran-shopping-centre", "opening_hours": "Mo-Fr 09:00-18:00; Sa 08:30-18:00; Su 09:30-16:00", "brand": "Primark", "brand:wikidata": "Q137023", "nsi_id": "primark-5d2556"}, "geometry": {"type": "Point", "coordinates": [-3.0231089, 51.653121]}},
{"type": "Feature", "id": "FCtDOLPwN_81xwcFx-xQTLM6DqA=", "properties": {"ref": "609", "payment:american_express": "yes", "payment:google_pay": "yes", "payment:apple_pay": "yes", "payment:cash": "yes", "payment:maestro": "yes", "payment:mastercard": "yes", "payment:visa": "yes", "@spider": "primark_gb", "shop": "clothes", "addr:street_address": "5 - 9 North End, High Street", "addr:city": "Croydon", "addr:postcode": "CR9 1SX", "addr:country": "GB", "name": "Primark Croydon", "phone": "+442086497612", "website": "https://www.primark.com/en-gb/stores/croydon/5-9-north-end", "opening_hours": "Mo-We 09:00-19:30; Th 09:00-21:00; Fr-Sa 09:00-19:30; Su 11:00-17:00", "brand": "Primark", "brand:wikidata": "Q137023", "nsi_id": "primark-5d2556"}, "geometry": {"type": "Point", "coordinates": [-0.1010776, 51.3740488]}},
{"type": "Feature", "id": "xibnBiHLebnvFq7KeU_VeNytf3c=", "properties": {"ref": "497", "payment:american_express": "yes", "payment:google_pay": "yes", "payment:apple_pay": "yes", "payment:cash": "yes", "payment:maestro": "yes", "payment:mastercard": "yes", "payment:visa": "yes", "@spider": "primark_gb", "shop": "clothes", "addr:street_address": "Broadgate", "addr:city": "Coventry", "addr:postcode": "CV1 1NA", "addr:country": "GB", "name": "Primark Coventry", "phone": "+442476632018", "website": "https://www.primark.com/en-gb/stores/coventry/broadgate", "opening_hours": "Mo-Sa 09:00-19:00; Su 11:00-17:00", "brand": "Primark", "brand:wikidata": "Q137023", "nsi_id": "primark-5d2556"}, "geometry": {"type": "Point", "coordinates": [-1.5103632, 52.4085418]}},
{"type": "Feature", "id": "iJfVBoo_EGXyp3a50BQdc8W0syc=", "properties": {"ref": "685", "payment:american_express": "yes", "payment:google_pay": "yes", "payment:apple_pay": "yes", "payment:cash": "yes", "payment:maestro": "yes", "payment:mastercard": "yes", "payment:visa": "yes", "@spider": "primark_gb", "shop": "clothes", "addr:street_address": "Store 4 County Mall Shopping Centre", "addr:city": "Crawley", "addr:postcode": "RH10 1FP", "addr:country": "GB", "name": "Primark Crawley", "phone": "+441293541764", "website": "https://www.primark.com/en-gb/stores/crawley/store-4-county-mall-shopping-centre", "opening_hours": "Mo-We 09:00-18:00; Th 09:00-20:00; Fr-Sa 09:00-18:00; Su 10:00-16:30", "brand": "Primark", "brand:wikidata": "Q137023", "nsi_id": "primark-5d2556"}, "geometry": {"type": "Point", "coordinates": [-0.1840698, 51.1134422]}},
{"type": "Feature", "id": "2H1uhsJ6JE2EDzg2u7nWNBeTvQ0=", "properties": {"ref": "648", "payment:american_express": "yes", "payment:google_pay": "yes", "payment:apple_pay": "yes", "payment:cash": "yes", "payment:maestro": "yes", "payment:mastercard": "yes", "payment:visa": "yes", "@spider": "primark_gb", "shop": "clothes", "addr:street_address": "1A Willow Place", "addr:city": "Corby", "addr:postcode": "NN17 1BH", "addr:country": "GB", "name": "Primark Corby", "phone": "+441536264647", "website": "https://www.primark.com/en-gb/stores/corby/1a-willow-place", "opening_hours": "Mo-Sa 09:00-18:00; Su 10:30-16:30", "brand": "Primark", "brand:wikidata": "Q137023", "nsi_id": "primark-5d2556"}, "geometry": {"type": "Point", "coordinates": [-0.7027468, 52.4867508]}},
{"type": "Feature", "id": "L9-diReyGIgoB9w3BbSwLcmnZsc=", "properties": {"ref": "586", "payment:american_express": "yes", "payment:google_pay": "yes", "payment:apple_pay": "yes", "payment:cash": "yes", "payment:maestro": "yes", "payment:mastercard": "yes", "payment:visa": "yes", "@spider": "primark_gb", "shop": "clothes", "addr:street_address": "Unit 2 117 Sylvania Way", "addr:city": "Clydebank", "addr:postcode": "G81 2RR", "addr:country": "GB", "name": "Primark Clydebank", "phone": "+441419526554", "website": "https://www.primark.com/en-gb/stores/clydebank/unit-2-117-sylvania-way", "opening_hours": "Mo-Sa 08:00-18:00; Su 10:00-17:00", "brand": "Primark", "brand:wikidata": "Q137023", "nsi_id": "primark-5d2556"}, "geometry": {"type": "Point", "coordinates": [-4.4029447, 55.9060919]}},
{"type": "Feature", "id": "O6uwfWvisVzLATkPP1SIWRicuBw=", "properties": {"ref": "485", "payment:american_express": "yes", "payment:google_pay": "yes", "payment:apple_pay": "yes", "payment:cash": "yes", "payment:maestro": "yes", "payment:mastercard": "yes", "payment:visa": "yes", "@spider": "primark_gb", "shop": "clothes", "addr:street_address": "Lion Walk Shopping Centre, 77 Culver St E", "addr:city": "Colchester", "addr:postcode": "CO1 1LF", "addr:country": "GB", "name": "Primark Colchester", "phone": "+441206762690", "website": "https://www.primark.com/en-gb/stores/colchester/lion-walk-shopping-centre", "opening_hours": "Mo-Fr 09:00-18:00; Sa 08:30-18:00; Su 10:30-16:30", "brand": "Primark", "brand:wikidata": "Q137023", "nsi_id": "primark-5d2556"}, "geometry": {"type": "Point", "coordinates": [0.901371, 51.888802]}},
{"type": "Feature", "id": "DezMMAbT48s_RUpz3bt9781Nnbc=", "properties": {"ref": "605", "payment:american_express": "yes", "payment:google_pay": "yes", "payment:apple_pay": "yes", "payment:cash": "yes", "payment:maestro": "yes", "payment:mastercard": "yes", "payment:visa": "yes", "@spider": "primark_gb", "shop": "clothes", "addr:street_address": "169 - 174 Western Road", "addr:city": "Brighton", "addr:postcode": "BN1 2BA", "addr:country": "GB", "name": "Primark Brighton", "phone": "+441273325632", "website": "https://www.primark.com/en-gb/stores/brighton/169-174-western-road", "opening_hours": "Mo-We 09:00-19:00; Th 09:00-20:00; Fr-Sa 09:00-19:00; Su 11:00-17:00", "brand": "Primark", "brand:wikidata": "Q137023", "nsi_id": "primark-5d2556"}, "geometry": {"type": "Point", "coordinates": [-0.14815986156463623, 50.824330539247995]}},
{"type": "Feature", "id": "U1MZVal59ao1frLaJ0CrE3_u9pg=", "properties": {"ref": "603", "payment:american_express": "yes", "payment:google_pay": "yes", "payment:apple_pay": "yes", "payment:cash": "yes", "payment:maestro": "yes", "payment:mastercard": "yes", "payment:visa": "yes", "@spider": "primark_gb", "shop": "clothes", "addr:street_address": "Kirkgate Centre, 4 Darley Street", "addr:city": "Bradford", "addr:postcode": "BD1 3LB", "addr:country": "GB", "name": "Primark Bradford", "phone": "+441274395884", "website": "https://www.primark.com/en-gb/stores/bradford/kirkgate-centre", "opening_hours": "Mo-Sa 09:00-17:30; Su 10:30-16:30", "brand": "Primark", "brand:wikidata": "Q137023", "nsi_id": "primark-5d2556"}, "geometry": {"type": "Point", "coordinates": [-1.7545126, 53.7948251]}},
{"type": "Feature", "id": "PcBvJ63dJnVd6DPaDKfCtElhMSc=", "properties": {"ref": "570", "payment:american_express": "yes", "payment:google_pay": "yes", "payment:apple_pay": "yes", "payment:cash": "yes", "payment:maestro": "yes", "payment:mastercard": "yes", "payment:visa": "yes", "@spider": "primark_gb", "shop": "clothes", "addr:street_address": "599 - 607 Christchurch Road, Boscombe", "addr:city": "Bournemouth", "addr:postcode": "BH1 4AN", "addr:country": "GB", "name": "Primark Boscombe", "phone": "+441202396076", "website": "https://www.primark.com/en-gb/stores/bournemouth/599-607-christchurch-road", "opening_hours": "Mo-Sa 09:00-17:30; Su 10:00-16:00", "brand": "Primark", "brand:wikidata": "Q137023", "nsi_id": "primark-5d2556"}, "geometry": {"type": "Point", "coordinates": [-1.8392107, 50.7265397]}},
{"type": "Feature", "id": "sdN5r17mpAYEmUAuA4Z4B3LjL_E=", "properties": {"ref": "490", "payment:american_express": "yes", "payment:google_pay": "yes", "payment:apple_pay": "yes", "payment:cash": "yes", "payment:maestro": "yes", "payment:mastercard": "yes", "payment:visa": "yes", "@spider": "primark_gb", "shop": "clothes", "addr:street_address": "The Lexicon, 25 Braccan Walk", "addr:city": "Bracknell", "addr:postcode": "RG12 1DF", "addr:country": "GB", "name": "Primark Bracknell", "phone": "+441344305937", "website": "https://www.primark.com/en-gb/stores/bracknell/the-lexicon", "opening_hours": "Mo-Sa 09:00-20:00; Su 10:30-17:00", "brand": "Primark", "brand:wikidata": "Q137023", "nsi_id": "primark-5d2556"}, "geometry": {"type": "Point", "coordinates": [-0.7492827716888542, 51.41555812029622]}},
{"type": "Feature", "id": "DlNuH75UTGsgocvBEhKMPooOlkU=", "properties": {"ref": "658", "payment:american_express": "yes", "payment:google_pay": "yes", "payment:apple_pay": "yes", "payment:cash": "yes", "payment:maestro": "yes", "payment:mastercard": "yes", "payment:visa": "yes", "@spider": "primark_gb", "shop": "clothes", "addr:street_address": "48 - 54 Commercial Road", "addr:city": "Bournemouth", "addr:postcode": "BH2 5LR", "addr:country": "GB", "name": "Primark Bournemouth", "phone": "+441202589043", "website": "https://www.primark.com/en-gb/stores/bournemouth/48-54-commercial-road", "opening_hours": "Mo-Sa 09:00-19:00; Su 10:30-17:00", "brand": "Primark", "brand:wikidata": "Q137023", "nsi_id": "primark-5d2556"}, "geometry": {"type": "Point", "coordinates": [-1.8822929, 50.7203221]}},
{"type": "Feature", "id": "iXe-sqLhx5YUGbPqKmbOnWJudZk=", "properties": {"ref": "552", "payment:american_express": "yes", "payment:google_pay": "yes", "payment:apple_pay": "yes", "payment:cash": "yes", "payment:maestro": "yes", "payment:mastercard": "yes", "payment:visa": "yes", "@spider": "primark_gb", "shop": "clothes", "addr:street_address": "40 Bradshawgate, Crompton Place", "addr:city": "Bolton", "addr:postcode": "BL1 1EA", "addr:country": "GB", "name": "Primark Bolton", "phone": "+441204534411", "website": "https://www.primark.com/en-gb/stores/bolton/40-bradshawgate", "opening_hours": "Mo-Sa 09:00-17:30; Su 11:00-17:00", "brand": "Primark", "brand:wikidata": "Q137023", "nsi_id": "primark-5d2556"}, "geometry": {"type": "Point", "coordinates": [-2.4273729, 53.5784664]}},
{"type": "Feature", "id": "EnGvJye_FvJrGNhWuC4oGuZGKWg=", "properties": {"ref": "646", "payment:american_express": "yes", "payment:google_pay": "yes", "payment:apple_pay": "yes", "payment:cash": "yes", "payment:maestro": "yes", "payment:mastercard": "yes", "payment:visa": "yes", "@spider": "primark_gb", "shop": "clothes", "addr:street_address": "20 Cobden Court", "addr:city": "Blackburn", "addr:postcode": "BB17JG", "addr:country": "GB", "name": "Primark Blackburn", "phone": "+441254278192", "website": "https://www.primark.com/en-gb/stores/blackburn/20-cobden-court", "opening_hours": "Mo-Sa 09:00-17:30; Su 10:30-16:30", "brand": "Primark", "brand:wikidata": "Q137023", "nsi_id": "primark-5d2556"}, "geometry": {"type": "Point", "coordinates": [-2.48140811920166, 53.74850778012181]}},
{"type": "Feature", "id": "Dcz9hLw2q2QmIlTSkzXJy9Oj9jI=", "properties": {"ref": "602", "payment:american_express": "yes", "payment:google_pay": "yes", "payment:apple_pay": "yes", "payment:cash": "yes", "payment:maestro": "yes", "payment:mastercard": "yes", "payment:visa": "yes", "@spider": "primark_gb", "shop": "clothes", "addr:street_address": "50 - 70 Bank Hey Street", "addr:city": "Blackpool", "addr:postcode": "FY1 4RY", "addr:country": "GB", "name": "Primark Blackpool", "phone": "+441253293386", "website": "https://www.primark.com/en-gb/stores/blackpool/50-70-bank-hey-street", "opening_hours": "Mo-We 09:00-18:00; Th-Sa 09:00-19:00; Su 10:00-16:30", "brand": "Primark", "brand:wikidata": "Q137023", "nsi_id": "primark-5d2556"}, "geometry": {"type": "Point", "coordinates": [-3.0543585, 53.8157665]}},
{"type": "Feature", "id": "ZnPhV6y5lq4u1iymikJCULzCQ5A=", "properties": {"ref": "689", "payment:american_express": "yes", "payment:google_pay": "yes", "payment:apple_pay": "yes", "payment:cash": "yes", "payment:maestro": "yes", "payment:mastercard": "yes", "payment:visa": "yes", "@spider": "primark_gb", "shop": "clothes", "addr:street_address": "38 High Street", "addr:city": "Birmingham", "addr:postcode": "B4 7SL", "addr:country": "GB", "name": "Primark Birmingham High Street", "phone": "+441216436859", "website": "https://www.primark.com/en-gb/stores/birmingham/38-high-street", "opening_hours": "Mo-Sa 08:00-21:00; Su 10:30-17:00", "brand": "Primark", "brand:wikidata": "Q137023", "nsi_id": "primark-5d2556"}, "geometry": {"type": "Point", "coordinates": [-1.8942205, 52.4789619]}},
{"type": "Feature", "id": "3O37MpZZ-WBpt-k-X9-QkHIDmb8=", "properties": {"ref": "476", "payment:american_express": "yes", "payment:google_pay": "yes", "payment:apple_pay": "yes", "payment:cash": "yes", "payment:maestro": "yes", "payment:mastercard": "yes", "payment:visa": "yes", "@spider": "primark_gb", "shop": "clothes", "addr:street_address": "1B-3A, The Fort Shopping Centre, Fort Parkway", "addr:city": "Birmingham", "addr:postcode": "B24 9FP", "addr:country": "GB", "name": "Primark Birmingham Fort Parkway", "phone": "+441213847865", "website": "https://www.primark.com/en-gb/stores/birmingham/1b-3a-the-fort-shopping-centre", "opening_hours": "Mo-We 09:00-20:00; Th 09:00-21:00; Fr 09:00-20:00; Sa 09:00-19:00; Su 11:00-17:00", "brand": "Primark", "brand:wikidata": "Q137023", "nsi_id": "primark-5d2556"}, "geometry": {"type": "Point", "coordinates": [-1.8213433, 52.5085161]}},
{"type": "Feature", "id": "L10b3xvJ_uBiQwG_cRSYiR6wWrE=", "properties": {"ref": "575", "payment:american_express": "yes", "payment:google_pay": "yes", "payment:apple_pay": "yes", "payment:cash": "yes", "payment:maestro": "yes", "payment:mastercard": "yes", "payment:visa": "yes", "@spider": "primark_gb", "shop": "clothes", "addr:street_address": "212 - 218 Grange Road", "addr:city": "Birkenhead", "addr:postcode": "CH41 6EA", "addr:country": "GB", "name": "Primark Birkenhead", "phone": "+441516475041", "website": "https://www.primark.com/en-gb/stores/birkenhead/212-218-grange-road", "opening_hours": "Mo-Fr 09:00-17:30; Sa 09:00-18:00; Su 10:30-16:30", "brand": "Primark", "brand:wikidata": "Q137023", "nsi_id": "primark-5d2556"}, "geometry": {"type": "Point", "coordinates": [-3.0280710380286564, 53.389531992888834]}},
{"type": "Feature", "id": "jDonTaXxkHVWCXHdmYArer2mwkI=", "properties": {"ref": "501", "payment:american_express": "yes", "payment:google_pay": "yes", "payment:apple_pay": "yes", "payment:cash": "yes", "payment:maestro": "yes", "payment:mastercard": "yes", "payment:visa": "yes", "@spider": "primark_gb", "shop": "clothes", "addr:street_address": "Unit 4 131 The Broadway", "addr:city": "Bexleyheath", "addr:postcode": "DA6 7HF", "addr:country": "GB", "name": "Primark Bexleyheath", "phone": "+442083037399", "website": "https://www.primark.com/en-gb/stores/bexleyheath/unit-4-131-the-broadway", "opening_hours": "Mo-We 09:00-18:00; Th 09:00-19:30; Fr 09:00-18:00; Sa 08:30-18:00; Su 10:30-16:30", "brand": "Primark", "brand:wikidata": "Q137023", "nsi_id": "primark-5d2556"}, "geometry": {"type": "Point", "coordinates": [0.1431261, 51.4567412]}},
{"type": "Feature", "id": "VFdwda3u1Q95k-fNko_18cO48pE=", "properties": {"ref": "445", "payment:american_express": "yes", "payment:google_pay": "yes", "payment:apple_pay": "yes", "payment:cash": "yes", "payment:maestro": "yes", "payment:mastercard": "yes", "payment:visa": "yes", "@spider": "primark_gb", "shop": "clothes", "addr:street_address": "29-43 Castle Street", "addr:city": "Belfast", "addr:postcode": "BT1 1BL", "addr:country": "GB", "name": "Primark Castle Street", "phone": "+442890325974", "website": "https://www.primark.com/en-gb/stores/belfast/29-43-castle-street", "opening_hours": "Mo-We 09:00-17:30; Th 09:00-21:00; Fr 09:00-19:00; Sa 09:00-18:00; Su 13:00-18:00", "brand": "Primark", "brand:wikidata": "Q137023", "nsi_id": "primark-5d2556"}, "geometry": {"type": "Point", "coordinates": [-5.9318374, 54.599215]}},
{"type": "Feature", "id": "5V-LmMb5GMjAzf7LAplFOr1iwZM=", "properties": {"ref": "470", "payment:american_express": "yes", "payment:google_pay": "yes", "payment:apple_pay": "yes", "payment:cash": "yes", "payment:maestro": "yes", "payment:mastercard": "yes", "payment:visa": "yes", "@spider": "primark_gb", "shop": "clothes", "addr:street_address": "25 Donegall Pl, Fountain House", "addr:city": "Belfast", "addr:postcode": "BT1 5AB", "addr:country": "GB", "name": "Primark Primark Donegall Place", "phone": "+442890312524", "website": "https://www.primark.com/en-gb/stores/belfast/25-donegall-pl", "opening_hours": "Sa 09:00-18:00", "brand": "Primark", "brand:wikidata": "Q137023", "nsi_id": "primark-5d2556"}, "geometry": {"type": "Point", "coordinates": [-5.930504710231048, 54.59845333872475]}},
{"type": "Feature", "id": "8WZtg8PzK9ZUHREx3AjdzL02ih8=", "properties": {"ref": "601", "payment:american_express": "yes", "payment:google_pay": "yes", "payment:apple_pay": "yes", "payment:cash": "yes", "payment:maestro": "yes", "payment:mastercard": "yes", "payment:visa": "yes", "@spider": "primark_gb", "shop": "clothes", "addr:street_address": "29 - 35 Midland Road, Unit 1 Harpur Centre", "addr:city": "Bedford", "addr:postcode": "MK40 1TJ", "addr:country": "GB", "name": "Primark Bedford", "phone": "+441234272314", "website": "https://www.primark.com/en-gb/stores/bedford/29-35-midland-road", "opening_hours": "Mo-Sa 09:00-18:00; Su 10:30-16:30", "brand": "Primark", "brand:wikidata": "Q137023", "nsi_id": "primark-5d2556"}, "geometry": {"type": "Point", "coordinates": [-0.4699072, 52.136424]}},
{"type": "Feature", "id": "CytuwthMlYj7syJT6IRGf_AvOlU=", "properties": {"ref": "687", "payment:american_express": "yes", "payment:google_pay": "yes", "payment:apple_pay": "yes", "payment:cash": "yes", "payment:maestro": "yes", "payment:mastercard": "yes", "payment:visa": "yes", "@spider": "primark_gb", "shop": "clothes", "addr:street_address": "38 - 39 Stall Street", "addr:city": "Bath", "addr:postcode": "BA1 1QH", "addr:country": "GB", "name": "Primark Bath", "phone": "+441225445150", "website": "https://www.primark.com/en-gb/stores/bath/38-39-stall-street", "opening_hours": "Tu-Sa 09:00-19:00; Su 10:30-17:00", "brand": "Primark", "brand:wikidata": "Q137023", "nsi_id": "primark-5d2556"}, "geometry": {"type": "Point", "coordinates": [-2.360825349914194, 51.38097173087994]}},
{"type": "Feature", "id": "wBYGdqGKSWlZZ4RWOuZYYLQcRQo=", "properties": {"ref": "527", "payment:american_express": "yes", "payment:google_pay": "yes", "payment:apple_pay": "yes", "payment:cash": "yes", "payment:maestro": "yes", "payment:mastercard": "yes", "payment:visa": "yes", "@spider": "primark_gb", "shop": "clothes", "addr:street_address": "106 - 114 Town Square", "addr:city": "Basildon", "addr:postcode": "SS14 1BX", "addr:country": "GB", "name": "Primark Basildon", "phone": "+441268522409", "website": "https://www.primark.com/en-gb/stores/basildon/106-114-town-square", "opening_hours": "Mo-Sa 09:00-18:00; Su 10:30-16:30", "brand": "Primark", "brand:wikidata": "Q137023", "nsi_id": "primark-5d2556"}, "geometry": {"type": "Point", "coordinates": [0.45939714847941104, 51.56990767006518]}},
{"type": "Feature", "id": "92645lkxkzlfQQKyOFS4-Pv0e5E=", "properties": {"ref": "521", "payment:american_express": "yes", "payment:google_pay": "yes", "payment:apple_pay": "yes", "payment:cash": "yes", "payment:maestro": "yes", "payment:mastercard": "yes", "payment:visa": "yes", "@spider": "primark_gb", "shop": "clothes", "addr:street_address": "49 - 52 High Street", "addr:city": "Barnstaple", "addr:postcode": "EX31 1BZ", "addr:country": "GB", "name": "Primark Barnstaple", "phone": "+441271327961", "website": "https://www.primark.com/en-gb/stores/barnstaple/49-52-high-street", "opening_hours": "Mo-Sa 09:00-18:00; Su 10:00-16:30", "brand": "Primark", "brand:wikidata": "Q137023", "nsi_id": "primark-5d2556"}, "geometry": {"type": "Point", "coordinates": [-4.061372056603432, 51.082217801679995]}},
{"type": "Feature", "id": "hUqGo0Vc8P7ERfADyvP5YH8YIZI=", "properties": {"ref": "520", "payment:american_express": "yes", "payment:google_pay": "yes", "payment:apple_pay": "yes", "payment:cash": "yes", "payment:maestro": "yes", "payment:mastercard": "yes", "payment:visa": "yes", "@spider": "primark_gb", "shop": "clothes", "addr:street_address": "Unit 4, The Alhambra Shopping Centre", "addr:city": "Barnsley", "addr:postcode": "S70 1SB", "addr:country": "GB", "name": "Primark Barnsley", "phone": "+441226200894", "website": "https://www.primark.com/en-gb/stores/barnsley/unit-4", "opening_hours": "Mo-Sa 09:00-17:30; Su 10:00-16:00", "brand": "Primark", "brand:wikidata": "Q137023", "nsi_id": "primark-5d2556"}, "geometry": {"type": "Point", "coordinates": [-1.4778858, 53.5510379]}},
{"type": "Feature", "id": "KxWTmmHVA_o735saLLgG6Csow2g=", "properties": {"ref": "693", "payment:american_express": "yes", "payment:google_pay": "yes", "payment:apple_pay": "yes", "payment:cash": "yes", "payment:maestro": "yes", "payment:mastercard": "yes", "payment:visa": "yes", "@spider": "primark_gb", "shop": "clothes", "addr:street_address": "Banbury Gateway, Unit 8 Acorn Way", "addr:city": "Banbury", "addr:postcode": "OX16 3AB", "addr:country": "GB", "name": "Primark Banbury", "phone": "+441295273036", "website": "https://www.primark.com/en-gb/stores/banbury/banbury-gateway", "opening_hours": "Mo-Sa 09:00-20:00; Su 10:30-17:00", "brand": "Primark", "brand:wikidata": "Q137023", "nsi_id": "primark-5d2556"}, "geometry": {"type": "Point", "coordinates": [-1.3200197, 52.0769399]}},
{"type": "Feature", "id": "stPPyai9K3p3oQOvzilwr6KXk_I=", "properties": {"ref": "456", "payment:american_express": "yes", "payment:google_pay": "yes", "payment:apple_pay": "yes", "payment:cash": "yes", "payment:maestro": "yes", "payment:mastercard": "yes", "payment:visa": "yes", "@spider": "primark_gb", "shop": "clothes", "addr:street_address": "30 A Tower Centre, Wellington Street", "addr:city": "Ballymena", "addr:postcode": "BT43 6AH", "addr:country": "GB", "name": "Primark Ballymena", "phone": "+442825649428", "website": "https://www.primark.com/en-gb/stores/ballymena/30-a-tower-centre", "opening_hours": "Mo-We 09:00-17:30; Th-Fr 09:00-21:00; Sa 09:00-18:00; Su 13:00-18:00", "brand": "Primark", "brand:wikidata": "Q137023", "nsi_id": "primark-5d2556"}, "geometry": {"type": "Point", "coordinates": [-6.277689, 54.865723]}},
{"type": "Feature", "id": "vMoct994Qx7BIYUhYUKfggHERtA=", "properties": {"ref": "494", "payment:american_express": "yes", "payment:google_pay": "yes", "payment:apple_pay": "yes", "payment:cash": "yes", "payment:maestro": "yes", "payment:mastercard": "yes", "payment:visa": "yes", "@spider": "primark_gb", "shop": "clothes", "addr:street_address": "Unit 8 Taran Walk, Kyle Street", "addr:city": "Ayr", "addr:postcode": "KA7 1TU", "addr:country": "GB", "name": "Primark Ayr", "phone": "+441292291096", "website": "https://www.primark.com/en-gb/stores/ayr/unit-8-taran-walk", "opening_hours": "Mo-We 09:00-18:00; Th 09:00-19:00; Fr-Sa 09:00-18:00; Su 10:00-17:00", "brand": "Primark", "brand:wikidata": "Q137023", "nsi_id": "primark-5d2556"}, "geometry": {"type": "Point", "coordinates": [-4.625667, 55.4597282]}},
{"type": "Feature", "id": "rL0_vtC_fjr6YGRfsG5jjvSCc50=", "properties": {"ref": "600", "payment:american_express": "yes", "payment:google_pay": "yes", "payment:apple_pay": "yes", "payment:cash": "yes", "payment:maestro": "yes", "payment:mastercard": "yes", "payment:visa": "yes", "@spider": "primark_gb", "shop": "clothes", "addr:street_address": "153 Union Street, 143", "addr:city": "Aberdeen", "addr:postcode": "AB11 6BH", "addr:country": "GB", "name": "Primark Aberdeen", "phone": "+441224213828", "website": "https://www.primark.com/en-gb/stores/aberdeen/153-union-street", "opening_hours": "Mo-We 08:30-18:30; Th 08:30-20:00; Fr-Sa 08:30-18:30; Su 10:00-18:00", "brand": "Primark", "brand:wikidata": "Q137023", "nsi_id": "primark-5d2556"}, "geometry": {"type": "Point", "coordinates": [-2.1003466844558716, 57.145890821965565]}}]}