{"type":"FeatureCollection","features":[{"type": "Feature", "id": "JIkp22M94MpoTS_Cul_zhnuhYQE=", "properties": {"ref": "108", "payment:google_pay": "yes", "payment:apple_pay": "yes", "payment:cash": "yes", "payment:mastercard": "yes", "payment:visa": "yes", "@spider": "primark", "shop": "clothes", "addr:street_address": "2500 West Moreland Road", "addr:city": "Willow Grove", "addr:state": "PA", "addr:postcode": "19090", "addr:country": "US", "name": "Primark", "phone": "+12678186355", "website": "https://stores.primark.com/united-states/willow-grove/2500-west-moreland-road", "contact:facebook": "https://www.facebook.com/1095710780547456", "opening_hours": "Mo-Th 11:00-20:00; Fr-Sa 10:00-21:00; Su 11:00-18:00", "brand": "Primark", "brand:wikidata": "Q137023", "nsi_id": "primark-5d2556"}, "geometry": {"type": "Point", "coordinates": [-75.12400990674587, 40.14078939462115]}},
{"type": "Feature", "id": "-TmD8-urOV6aJPLzgbdEVrMv-Os=", "properties": {"ref": "112", "payment:american_express": "yes", "payment:google_pay": "yes", "payment:apple_pay": "yes", "payment:cash": "yes", "payment:mastercard": "yes", "payment:visa": "yes", "@spider": "primark", "shop": "clothes", "addr:street_address": "Sawgrass Mills, 12801 W Sunrise Blvd", "addr:city": "Sunrise", "addr:state": "FL", "addr:postcode": "33323", "addr:country": "US", "name": "Primark", "phone": "+15614492561", "website": "https://stores.primark.com/united-states/sunrise/sawgrass-mills", "contact:facebook": "https://www.facebook.com/107594814458129", "opening_hours": "Mo-Sa 10:00-21:30; Su 11:00-20:00", "brand": "Primark", "brand:wikidata": "Q137023", "nsi_id": "primark-5d2556"}, "geometry": {"type": "Point", "coordinates": [-80.32110307263005, 26.15154162663389]}},
{"type": "Feature", "id": "vWWFepe59-NGeV_GsNf2zeQXEAU=", "properties": {"ref": "109", "payment:google_pay": "yes", "payment:apple_pay": "yes", "payment:cash": "yes", "payment:mastercard": "yes", "payment:visa": "yes", "@spider": "primark", "shop": "clothes", "addr:street_address": "2655 Richmond Avenue", "addr:city": "Staten Island", "addr:state": "NY", "addr:postcode": "10314", "addr:country": "US", "name": "Primark", "phone": "+17184944707", "website": "https://stores.primark.com/united-states/staten-island/2655-richmond-avenue", "contact:facebook": "https://www.facebook.com/151823288669347", "opening_hours": "Mo-Th 11:00-20:00; Fr-Sa 10:00-21:00; Su 11:00-19:00", "brand": "Primark", "brand:wikidata": "Q137023", "nsi_id": "primark-5d2556"}, "geometry": {"type": "Point", "coordinates": [-74.16594922542572, 40.581680623404516]}},
{"type": "Feature", "id": "YER7Ao4qgSb_HwTKyzc4cgTIBMI=", "properties": {"ref": "114", "@spider": "primark", "shop": "clothes", "addr:street_address": "1033 Market Street", "addr:city": "Philadelphia", "addr:state": "PA", "addr:postcode": "19107", "addr:country": "US", "name": "Primark", "phone": "+12677923577", "website": "https://stores.primark.com/united-states/philadelphia/1033-market-street", "contact:facebook": "https://www.facebook.com/101854468843409", "opening_hours": "Mo-Th 10:00-19:00; Fr-Sa 10:00-20:00; Su 11:00-18:00", "brand": "Primark", "brand:wikidata": "Q137023", "nsi_id": "primark-5d2556"}, "geometry": {"type": "Point", "coordinates": [-75.15803215214957, 39.95186235262391]}},
{"type": "Feature", "id": "dTvAA65HXHhmNnw7H8RbNQ-VyMQ=", "properties": {"ref": "103", "payment:google_pay": "yes", "payment:apple_pay": "yes", "payment:cash": "yes", "payment:mastercard": "yes", "payment:visa": "yes", "@spider": "primark", "shop": "clothes", "addr:street_address": "160 North Gulph Road, King Of Prussia Mall", "addr:city": "King Of Prussia", "addr:state": "PA", "addr:postcode": "19406", "addr:country": "US", "name": "Primark", "phone": "+16102653086", "website": "https://stores.primark.com/united-states/king-of-prussia/160-north-gulph-road", "contact:facebook": "https://www.facebook.com/551709455021633", "opening_hours": "Mo-Sa 10:00-21:00; Su 11:00-19:00", "brand": "Primark", "brand:wikidata": "Q137023", "nsi_id": "primark-5d2556"}, "geometry": {"type": "Point", "coordinates": [-75.39205697419234, 40.087850200044294]}},
{"type": "Feature", "id": "wTDBoykOuEhtcwhy92tIyftQ9nY=", "properties": {"ref": "105", "payment:google_pay": "yes", "payment:apple_pay": "yes", "payment:cash": "yes", "payment:mastercard": "yes", "payment:visa": "yes", "@spider": "primark", "shop": "clothes", "addr:street_address": "3710 US Hwy 9", "addr:city": "Freehold", "addr:state": "NJ", "addr:postcode": "07728", "addr:country": "US", "name": "Primark", "phone": "+17324146519", "website": "https://stores.primark.com/united-states/freehold/3710-us-hwy-9", "contact:facebook": "https://www.facebook.com/197390627365683", "opening_hours": "Mo-Th 10:00-20:00; Fr-Sa 10:00-21:00; Su 11:00-19:00", "brand": "Primark", "brand:wikidata": "Q137023", "nsi_id": "primark-5d2556"}, "geometry": {"type": "Point", "coordinates": [-74.3000574, 40.2513532]}},
{"type": "Feature", "id": "gKyqjZ8sBqtUmDfbf6Bw3Ph94OI=", "properties": {"ref": "110", "@spider": "primark", "shop": "clothes", "addr:street_address": "1 American Dream Way, D350 Primark", "addr:city": "East Rutherford", "addr:state": "NJ", "addr:postcode": "07073", "addr:country": "US", "name": "Primark", "phone": "+12019398490", "website": "https://stores.primark.com/united-states/east-rutherford/1-american-dream-way", "contact:facebook": "https://www.facebook.com/107095140913715", "opening_hours": "Mo-Th 11:00-21:00; Fr-Sa 11:00-22:00", "brand": "Primark", "brand:wikidata": "Q137023", "nsi_id": "primark-5d2556"}, "geometry": {"type": "Point", "coordinates": [-74.07000997550547, 40.8085457883445]}},
{"type": "Feature", "id": "A0OXV0bnwzodYY6rc8Q-ehetkg0=", "properties": {"ref": "104", "payment:google_pay": "yes", "payment:apple_pay": "yes", "payment:cash": "yes", "payment:mastercard": "yes", "payment:visa": "yes", "@spider": "primark", "shop": "clothes", "addr:street_address": "Danbury Fair Mall, 7 Backus Avenue", "addr:city": "Danbury", "addr:state": "CT", "addr:postcode": "06810", "addr:country": "US", "name": "Primark", "phone": "+12037306642", "website": "https://stores.primark.com/united-states/danbury/danbury-fair-mall", "contact:facebook": "https://www.facebook.com/1771727446414148", "opening_hours": "Mo-Sa 10:00-21:00; Su 11:00-19:00", "brand": "Primark", "brand:wikidata": "Q137023", "nsi_id": "primark-5d2556"}, "geometry": {"type": "Point", "coordinates": [-73.482799, 41.379313]}},
{"type": "Feature", "id": "oH3bKEur8mgIUq_7f54QHdDXG_Y=", "properties": {"ref": "113", "@spider": "primark", "shop": "clothes", "addr:street_address": "North State Street, 35", "addr:city": "Chicago", "addr:state": "IL", "addr:postcode": "60602", "addr:country": "US", "name": "Primark", "phone": "+17087337344", "website": "https://stores.primark.com/united-states/chicago/north-state-street", "contact:facebook": "https://www.facebook.com/108838831284662", "opening_hours": "Mo-Sa 10:00-21:00; Su 10:00-19:00", "brand": "Primark", "brand:wikidata": "Q137023", "nsi_id": "primark-5d2556"}, "geometry": {"type": "Point", "coordinates": [-87.62719672883605, 41.88303190177704]}},
{"type": "Feature", "id": "9p5mokEUZC0-iiU1q-ltEOynd6A=", "properties": {"ref": "102", "payment:google_pay": "yes", "payment:apple_pay": "yes", "payment:cash": "yes", "payment:mastercard": "yes", "payment:visa": "yes", "@spider": "primark", "shop": "clothes", "addr:street_address": "75 Middlesex Turnpike", "addr:city": "Burlington", "addr:state": "MA", "addr:postcode": "01803", "addr:country": "US", "name": "Primark", "phone": "+17812720792", "website": "https://stores.primark.com/united-states/burlington/75-middlesex-turnpike", "contact:facebook": "https://www.facebook.com/630476950490278", "opening_hours": "Mo-Th 10:00-20:00; Fr-Sa 10:00-21:00; Su 12:00-18:00", "brand": "Primark", "brand:wikidata": "Q137023", "nsi_id": "primark-5d2556"}, "geometry": {"type": "Point", "coordinates": [-71.21436618650819, 42.48371454698109]}},
{"type": "Feature", "id": "SdHE2tGN6-J-l9biv0k7xy92ZaM=", "properties": {"ref": "370", "payment:google_pay": "yes", "payment:apple_pay": "yes", "payment:cash": "yes", "payment:mastercard": "yes", "payment:visa": "yes", "@spider": "primark", "shop": "clothes", "addr:street_address": "Puerto Venecia, Avda. Isla de Murano s/n", "addr:city": "Zaragoza", "addr:postcode": "50021", "addr:country": "ES", "name": "Primark", "phone": "+34976952026", "website": "https://stores.primark.com/fr_fr/espagne/zaragoza/puerto-venecia", "contact:facebook": "https://www.facebook.com/548284055527294", "opening_hours": "Mo-Sa 09:00-22:00", "brand": "Primark", "brand:wikidata": "Q137023", "nsi_id": "primark-5d2556"}, "geometry": {"type": "Point", "coordinates": [-0.8847407, 41.6087595]}},
{"type": "Feature", "id": "PAbY-d6rooa1KQWJbhzhbNqCTC4=", "properties": {"ref": "385", "payment:google_pay": "yes", "payment:apple_pay": "yes", "payment:cash": "yes", "payment:mastercard": "yes", "payment:visa": "yes", "@spider": "primark", "shop": "clothes", "addr:street_address": "Centre commercial El Boulevard, Calle Zaramaga n\u2022 1", "addr:city": "Vitoria-Gasteiz", "addr:postcode": "01013", "addr:country": "ES", "name": "Primark", "phone": "+34945120371", "website": "https://stores.primark.com/fr_fr/espagne/vitoria-gasteiz/centre-commercial-el-boulevard", "contact:facebook": "https://www.facebook.com/2180770781952495", "opening_hours": "Mo-Sa 10:00-22:00", "brand": "Primark", "brand:wikidata": "Q137023", "nsi_id": "primark-5d2556"}, "geometry": {"type": "Point", "coordinates": [-2.66769530422971, 42.86204267916622]}},
{"type": "Feature", "id": "mDRP14EC3sKIlm9b5IMf7rH9_O8=", "properties": {"ref": "349", "@spider": "primark", "shop": "clothes", "addr:street_address": "Vigo-Urz\u00e1iz, Praza Estaci\u00f3n, 1, Centro Comercial Vialia Vigo", "addr:city": "Vigo", "addr:state": "Pontevedra", "addr:postcode": "36201", "addr:country": "ES", "name": "Primark", "phone": "+34984160050", "website": "https://stores.primark.com/fr_fr/espagne/vigo/vigo-urzaiz-praza-estacion-1", "contact:facebook": "https://www.facebook.com/100236555718865", "opening_hours": "Mo-Sa 10:00-22:00", "brand": "Primark", "brand:wikidata": "Q137023", "nsi_id": "primark-5d2556"}, "geometry": {"type": "Point", "coordinates": [-8.712001943130495, 42.23468261523312]}},
{"type": "Feature", "id": "CMajY-NibY0ZOCuRlvPemFDfXbk=", "properties": {"ref": "374", "payment:google_pay": "yes", "payment:apple_pay": "yes", "payment:cash": "yes", "payment:mastercard": "yes", "payment:visa": "yes", "@spider": "primark", "shop": "clothes", "addr:street_address": "Centre commercial R\u00cdO Shopping, Calle Me Falta un Tornillo, 3, Arroyo de la Encomienda", "addr:city": "Valladolid", "addr:postcode": "47195", "addr:country": "ES", "name": "Primark", "phone": "+34983991035", "website": "https://stores.primark.com/fr_fr/espagne/valladolid/centre-commercial-rio-shopping", "contact:facebook": "https://www.facebook.com/1386377938174940", "opening_hours": "Mo-Sa 10:00-22:00", "brand": "Primark", "brand:wikidata": "Q137023", "nsi_id": "primark-5d2556"}, "geometry": {"type": "Point", "coordinates": [-4.7837367202375844, 41.62911396123689]}},
{"type": "Feature", "id": "Oa5JV-9DbKgq8XE-yFlCJwomUOs=", "properties": {"ref": "381", "payment:google_pay": "yes", "payment:apple_pay": "yes", "payment:cash": "yes", "payment:mastercard": "yes", "payment:visa": "yes", "@spider": "primark", "shop": "clothes", "addr:street_address": "Centre commercial Bonaire, Carretera A3 Km 345 Local L-654/046", "addr:city": "Valencia", "addr:postcode": "46960", "addr:country": "ES", "name": "Primark", "phone": "+34961921093", "website": "https://stores.primark.com/fr_fr/espagne/valencia/centre-commercial-bonaire", "contact:facebook": "https://www.facebook.com/354116511663637", "opening_hours": "Mo-Th 10:00-22:00; Fr 10:00-20:00; Sa 10:00-22:00", "brand": "Primark", "brand:wikidata": "Q137023", "nsi_id": "primark-5d2556"}, "geometry": {"type": "Point", "coordinates": [-0.4889264702796936, 39.4719140525865]}},
{"type": "Feature", "id": "IvDdqnQ5AEe6yZK4ZKVWJWtwUWs=", "properties": {"ref": "405", "payment:google_pay": "yes", "payment:apple_pay": "yes", "payment:cash": "yes", "payment:mastercard": "yes", "payment:visa": "yes", "@spider": "primark", "shop": "clothes", "addr:street_address": "Carrer de Vidal i Barraquer, 15-17, Centre commercial Parc Central", "addr:city": "Tarragona", "addr:postcode": "43005", "addr:country": "ES", "name": "Primark", "phone": "+34977252712", "website": "https://stores.primark.com/fr_fr/espagne/tarragona/carrer-de-vidal-i-barraquer-15-17", "contact:facebook": "https://www.facebook.com/1391380227799029", "opening_hours": "Mo-Sa 09:00-21:00", "brand": "Primark", "brand:wikidata": "Q137023", "nsi_id": "primark-5d2556"}, "geometry": {"type": "Point", "coordinates": [1.238560974597931, 41.1167871624822]}},
{"type": "Feature", "id": "8yEVPdAF7QU_XujYdoBUnoP9evw=", "properties": {"ref": "408", "payment:google_pay": "yes", "payment:apple_pay": "yes", "payment:cash": "yes", "payment:mastercard": "yes", "payment:visa": "yes", "@spider": "primark", "shop": "clothes", "addr:street_address": "Torre Sevilla, Calle Gonzalo Jim\u00e9nez de Quesada,\u00a02", "addr:city": "S\u00e9ville", "addr:postcode": "41092", "addr:country": "ES", "name": "Primark", "phone": "+34955329382", "website": "https://stores.primark.com/fr_fr/espagne/seville/torre-sevilla", "contact:facebook": "https://www.facebook.com/2248290328776170", "opening_hours": "Mo-Sa 10:00-22:00", "brand": "Primark", "brand:wikidata": "Q137023", "nsi_id": "primark-5d2556"}, "geometry": {"type": "Point", "coordinates": [-6.01033, 37.39111]}},
{"type": "Feature", "id": "BnoLR-7z5PfLTrwiBXNSAyjd6oc=", "properties": {"ref": "409", "payment:google_pay": "yes", "payment:apple_pay": "yes", "payment:cash": "yes", "payment:mastercard": "yes", "payment:visa": "yes", "@spider": "primark", "shop": "clothes", "addr:street_address": "Centre commercial Lagoh, Avenida de Palmas Altas s/n", "addr:city": "S\u00e9ville", "addr:postcode": "41012", "addr:country": "ES", "name": "Primark", "phone": "+34955550930", "website": "https://stores.primark.com/fr_fr/espagne/seville/centre-commercial-lagoh", "contact:facebook": "https://www.facebook.com/113810120003726", "opening_hours": "Mo-Sa 10:00-22:00", "brand": "Primark", "brand:wikidata": "Q137023", "nsi_id": "primark-5d2556"}, "geometry": {"type": "Point", "coordinates": [-5.986808, 37.3408516]}},
{"type": "Feature", "id": "sPDSB6nDSo5IUJKQpwnAGA0GNtA=", "properties": {"ref": "373", "payment:google_pay": "yes", "payment:apple_pay": "yes", "payment:cash": "yes", "payment:mastercard": "yes", "payment:visa": "yes", "@spider": "primark", "shop": "clothes", "addr:street_address": "Centre commercial As Cancelas, Avenida do Cami Frances, s/n", "addr:city": "Santiago de Compostela", "addr:postcode": "15703", "addr:country": "ES", "name": "Primark", "phone": "+34981555367", "website": "https://stores.primark.com/fr_fr/espagne/santiago-de-compostela/centre-commercial-as-cancelas", "contact:facebook": "https://www.facebook.com/450367518425814", "opening_hours": "Mo-Sa 10:00-22:00", "brand": "Primark", "brand:wikidata": "Q137023", "nsi_id": "primark-5d2556"}, "geometry": {"type": "Point", "coordinates": [-8.5250718, 42.8887379]}},
{"type": "Feature", "id": "5iqqmkXyhWScHc7j84pvmmHA3sw=", "properties": {"ref": "393", "payment:google_pay": "yes", "payment:apple_pay": "yes", "payment:cash": "yes", "payment:mastercard": "yes", "payment:visa": "yes", "@spider": "primark", "shop": "clothes", "addr:street_address": "Avenida Manuel Hermoso Rojas, 16", "addr:city": "Santa Cruz de Tenerife", "addr:state": "Santa Cruz de Tenerife", "addr:postcode": "38005", "addr:country": "ES", "name": "Primark", "phone": "+34922200873", "website": "https://stores.primark.com/fr_fr/espagne/santa-cruz-de-tenerife/avenida-manuel-hermoso-rojas-16", "contact:facebook": "https://www.facebook.com/1407524682847912", "opening_hours": "Mo-Sa 10:00-22:00", "brand": "Primark", "brand:wikidata": "Q137023", "nsi_id": "primark-5d2556"}, "geometry": {"type": "Point", "coordinates": [-16.259151571758252, 28.456980925605894]}},
{"type": "Feature", "id": "wxzXE6z8OaCVIaR3YPsTIJ8sDGA=", "properties": {"ref": "348", "@spider": "primark", "shop": "clothes", "addr:street_address": "Centro Comercial Bah\u00eda Sur, Avda. Ca\u00f1o Herrera, S/N", "addr:city": "San Fernando", "addr:state": "C\u00e1diz", "addr:postcode": "11100", "addr:country": "ES", "name": "Primark", "phone": "+34856260010", "website": "https://stores.primark.com/fr_fr/espagne/san-fernando/centro-comercial-bahia-sur", "contact:facebook": "https://www.facebook.com/109928861550295", "opening_hours": "Mo-Sa 10:00-22:00", "brand": "Primark", "brand:wikidata": "Q137023", "nsi_id": "primark-5d2556"}, "geometry": {"type": "Point", "coordinates": [-6.2085974216461155, 36.47154364947083]}},
{"type": "Feature", "id": "elxg9hGUq1zEa6p0NTGcxrmtyII=", "properties": {"ref": "415", "@spider": "primark", "shop": "clothes", "addr:street_address": "Espai Girones, Cam\u00ed dels Carlins, 10,", "addr:city": "Salt", "addr:state": "Girona", "addr:postcode": "17190", "addr:country": "ES", "name": "Primark", "phone": "+34872420250", "website": "https://stores.primark.com/fr_fr/espagne/salt/espai-girones", "contact:facebook": "https://www.facebook.com/107117245160258", "opening_hours": "Mo-Sa 09:30-21:00", "brand": "Primark", "brand:wikidata": "Q137023", "nsi_id": "primark-5d2556"}, "geometry": {"type": "Point", "coordinates": [2.78157022624018, 41.96648691704277]}},
{"type": "Feature", "id": "zePOrzYZWQU9mkTvnam-7GIC2Oo=", "properties": {"ref": "389", "payment:google_pay": "yes", "payment:apple_pay": "yes", "payment:cash": "yes", "payment:mastercard": "yes", "payment:visa": "yes", "@spider": "primark", "shop": "clothes", "addr:street_address": "Passatge Doctor Serra 29", "addr:city": "Ruzafa", "addr:state": "Valencia", "addr:postcode": "46004", "addr:country": "ES", "name": "Primark", "phone": "+34962000310", "website": "https://stores.primark.com/fr_fr/espagne/ruzafa/passatge-doctor-serra-29", "contact:facebook": "https://www.facebook.com/216616169061049", "opening_hours": "Mo-Su 10:00-22:00", "brand": "Primark", "brand:wikidata": "Q137023", "nsi_id": "primark-5d2556"}, "geometry": {"type": "Point", "coordinates": [-0.37542858895494646, 39.46618905997954]}},
{"type": "Feature", "id": "dXuq0CPdL4uff8ntYGgMPgmbih0=", "properties": {"ref": "390", "payment:google_pay": "yes", "payment:apple_pay": "yes", "payment:cash": "yes", "payment:mastercard": "yes", "payment:visa": "yes", "@spider": "primark", "shop": "clothes", "addr:street_address": "Centre commercial Gran Plaza, Avda. de Alicun S/N 04740", "addr:city": "Roquetas de Mar", "addr:postcode": "04740", "addr:country": "ES", "name": "Primark", "phone": "+34950324959", "website": "https://stores.primark.com/fr_fr/espagne/roquetas-de-mar/centre-commercial-gran-plaza", "contact:facebook": "https://www.facebook.com/830297127003714", "opening_hours": "Mo-Sa 10:00-22:00", "brand": "Primark", "brand:wikidata": "Q137023", "nsi_id": "primark-5d2556"}, "geometry": {"type": "Point", "coordinates": [-2.6140517668648044, 36.77520687410925]}},
{"type": "Feature", "id": "t0lK29cRBH3wmItmfJKc1yFP_8Q=", "properties": {"ref": "380", "payment:google_pay": "yes", "payment:apple_pay": "yes", "payment:cash": "yes", "payment:mastercard": "yes", "payment:visa": "yes", "@spider": "primark", "shop": "clothes", "addr:street_address": "Centre commercial La Morea, Local B-00 Barrio La Morea s/n Pamplona, Cordovilla", "addr:city": "Pamplona", "addr:postcode": "31191", "addr:country": "ES", "name": "Primark", "phone": "+34948293490", "website": "https://stores.primark.com/fr_fr/espagne/pamplona/centre-commercial-la-morea", "contact:facebook": "https://www.facebook.com/396507730798896", "opening_hours": "Mo-Sa 09:30-21:30", "brand": "Primark", "brand:wikidata": "Q137023", "nsi_id": "primark-5d2556"}, "geometry": {"type": "Point", "coordinates": [-1.632658, 42.78389500000001]}},
{"type": "Feature", "id": "Tq8FqEY_S9grevmgu7HTZLmWxtI=", "properties": {"ref": "399", "payment:google_pay": "yes", "payment:apple_pay": "yes", "payment:cash": "yes", "payment:mastercard": "yes", "payment:visa": "yes", "@spider": "primark", "shop": "clothes", "addr:street_address": "Fan Mallorca Shopping, Avenida Cardenal Rossel", "addr:city": "Palma", "addr:postcode": "07007", "addr:country": "ES", "name": "Primark", "phone": "+34971981440", "website": "https://stores.primark.com/fr_fr/espagne/palma/fan-mallorca-shopping", "contact:facebook": "https://www.facebook.com/252075905188453", "opening_hours": "Mo-Sa 10:00-22:00", "brand": "Primark", "brand:wikidata": "Q137023", "nsi_id": "primark-5d2556"}, "geometry": {"type": "Point", "coordinates": [2.7071828069970083, 39.55477175014822]}},
{"type": "Feature", "id": "TgcL2xMMug4x67JwU-pZ33ZLfgY=", "properties": {"ref": "358", "payment:google_pay": "yes", "payment:apple_pay": "yes", "payment:cash": "yes", "payment:mastercard": "yes", "payment:visa": "yes", "@spider": "primark", "shop": "clothes", "addr:street_address": "Centre commercial Parque Principado, Acceso Santander, Paredes Lugones", "addr:city": "Oviedo", "addr:postcode": "33429", "addr:country": "ES", "name": "Primark", "phone": "+34985268366", "website": "https://stores.primark.com/fr_fr/espagne/oviedo/centre-commercial-parque-principado", "contact:facebook": "https://www.facebook.com/1918695258459793", "opening_hours": "Mo-Sa 10:00-22:00", "brand": "Primark", "brand:wikidata": "Q137023", "nsi_id": "primark-5d2556"}, "geometry": {"type": "Point", "coordinates": [-5.8002072, 43.3907962]}},
{"type": "Feature", "id": "k7CJG9K2f7WS8L3LTEkZgzXoJdE=", "properties": {"ref": "365", "payment:google_pay": "yes", "payment:apple_pay": "yes", "payment:cash": "yes", "payment:mastercard": "yes", "payment:visa": "yes", "@spider": "primark", "shop": "clothes", "addr:street_address": "Centre commercial La Zenia Boulevard, Local MS-08.01, Calle Jade s/n La Zenia, Orihuela Costa,", "addr:city": "Orihuela", "addr:postcode": "03189", "addr:country": "ES", "name": "Primark", "phone": "+34966793930", "website": "https://stores.primark.com/fr_fr/espagne/orihuela/centre-commercial-la-zenia-boulevard", "contact:facebook": "https://www.facebook.com/231430546984147", "opening_hours": "Mo-Su 10:00-22:00", "brand": "Primark", "brand:wikidata": "Q137023", "nsi_id": "primark-5d2556"}, "geometry": {"type": "Point", "coordinates": [-0.7375686, 37.9317727]}},
{"type": "Feature", "id": "4LTJr6Af_dBH-dXFdRkvKRlUeuc=", "properties": {"ref": "383", "payment:google_pay": "yes", "payment:apple_pay": "yes", "payment:cash": "yes", "payment:mastercard": "yes", "payment:visa": "yes", "@spider": "primark", "shop": "clothes", "addr:street_address": "Centre commercial Espacio Mediterraneo, Pol. industrial Cabezo Beaza", "addr:city": "Murcia", "addr:postcode": "30353", "addr:country": "ES", "name": "Primark", "phone": "+34968197326", "website": "https://stores.primark.com/fr_fr/espagne/murcia/centre-commercial-espacio-mediterraneo", "contact:facebook": "https://www.facebook.com/314703695690358", "opening_hours": "Mo-Su 10:00-22:00", "brand": "Primark", "brand:wikidata": "Q137023", "nsi_id": "primark-5d2556"}, "geometry": {"type": "Point", "coordinates": [-0.9501636, 37.6266725]}},
{"type": "Feature", "id": "Q4mvy1-At64wIF6PQpv0jChwnbA=", "properties": {"ref": "397", "@spider": "primark", "shop": "clothes", "addr:street_address": "La Ca\u00f1ada Parque Comercial, Carretera de Oj\u00e9n s/n", "addr:city": "Marbella", "addr:postcode": "29600", "addr:country": "ES", "name": "Primark", "phone": "+34851920010", "website": "https://stores.primark.com/fr_fr/espagne/marbella/la-canada-parque-comercial", "contact:facebook": "https://www.facebook.com/105865441788544", "opening_hours": "Mo-Sa 10:00-22:00", "brand": "Primark", "brand:wikidata": "Q137023", "nsi_id": "primark-5d2556"}, "geometry": {"type": "Point", "coordinates": [-4.87240619046021, 36.52256281142036]}},
{"type": "Feature", "id": "kGRWKb2vUXoXpePXJ9Y84iXPlbA=", "properties": {"ref": "387", "payment:google_pay": "yes", "payment:apple_pay": "yes", "payment:cash": "yes", "payment:mastercard": "yes", "payment:visa": "yes", "@spider": "primark", "shop": "clothes", "addr:street_address": "Centre commercial Parque Miramar, Avenida de la Encarnaci\u00f3n, FUENGIROLA", "addr:city": "Malaga", "addr:postcode": "29640", "addr:country": "ES", "name": "Primark", "phone": "+34952663629", "website": "https://stores.primark.com/fr_fr/espagne/malaga/centre-commercial-parque-miramar-avenida-de-la-encarnacion", "contact:facebook": "https://www.facebook.com/147172475999716", "opening_hours": "Mo-Sa 10:00-22:00", "brand": "Primark", "brand:wikidata": "Q137023", "nsi_id": "primark-5d2556"}, "geometry": {"type": "Point", "coordinates": [-4.6323842, 36.5290788]}},
{"type": "Feature", "id": "DvobXI3Rufl1lpTweBkfxUSpZUA=", "properties": {"ref": "375", "payment:google_pay": "yes", "payment:apple_pay": "yes", "payment:cash": "yes", "payment:mastercard": "yes", "payment:visa": "yes", "@spider": "primark", "shop": "clothes", "addr:street_address": "Centre commercial Larios Centro, Av. de la Aurora, 25", "addr:city": "Malaga", "addr:postcode": "29002", "addr:country": "ES", "name": "Primark", "phone": "+34952368060", "website": "https://stores.primark.com/fr_fr/espagne/malaga/centre-commercial-larios-centro", "contact:facebook": "https://www.facebook.com/269111579953954", "opening_hours": "Mo-Sa 10:00-22:00", "brand": "Primark", "brand:wikidata": "Q137023", "nsi_id": "primark-5d2556"}, "geometry": {"type": "Point", "coordinates": [-4.43268, 36.7153]}},
{"type": "Feature", "id": "DxolV5_cLxhjqL1Fa4m4m9xcQzQ=", "properties": {"ref": "367", "payment:google_pay": "yes", "payment:apple_pay": "yes", "payment:cash": "yes", "payment:mastercard": "yes", "payment:visa": "yes", "@spider": "primark", "shop": "clothes", "addr:street_address": "Calle Los Qu\u00edmicos, Centre commercial Gran Plaza 2", "addr:city": "Majahonda", "addr:state": "Madrid", "addr:postcode": "28222", "addr:country": "ES", "name": "Primark", "phone": "+34916788678", "website": "https://stores.primark.com/fr_fr/espagne/majahonda/calle-los-quimicos", "contact:facebook": "https://www.facebook.com/248264749099739", "opening_hours": "Mo-Su 10:00-22:00", "brand": "Primark", "brand:wikidata": "Q137023", "nsi_id": "primark-5d2556"}, "geometry": {"type": "Point", "coordinates": [-3.9000042, 40.4925708]}},
{"type": "Feature", "id": "Y08yOANPfdxX8metwad2UGPJY20=", "properties": {"ref": "352", "payment:google_pay": "yes", "payment:apple_pay": "yes", "payment:cash": "yes", "payment:mastercard": "yes", "payment:visa": "yes", "@spider": "primark", "shop": "clothes", "addr:street_address": "Centre commercial Xanadu, Carretera N-V Km, Calle Puerto Navacerrada s/n, Arroyomolinos", "addr:city": "Madrid", "addr:postcode": "28939", "addr:country": "ES", "name": "Primark", "phone": "+34916482194", "website": "https://stores.primark.com/fr_fr/espagne/madrid/centre-commercial-xanadu", "contact:facebook": "https://www.facebook.com/806489142829398", "opening_hours": "Mo-Su 10:00-22:00", "brand": "Primark", "brand:wikidata": "Q137023", "nsi_id": "primark-5d2556"}, "geometry": {"type": "Point", "coordinates": [-3.9257138, 40.2993402]}},
{"type": "Feature", "id": "K2rAaNAlZyZAHEMJkaH1eb68MuE=", "properties": {"ref": "395", "payment:google_pay": "yes", "payment:apple_pay": "yes", "payment:cash": "yes", "payment:mastercard": "yes", "payment:visa": "yes", "@spider": "primark", "shop": "clothes", "addr:street_address": "Centre commercial Plenilunio, Local 125 Calle Aracne", "addr:city": "Madrid", "addr:postcode": "28022", "addr:country": "ES", "name": "Primark", "phone": "+34917462241", "website": "https://stores.primark.com/fr_fr/espagne/madrid/centre-commercial-plenilunio", "contact:facebook": "https://www.facebook.com/1589589124696056", "opening_hours": "Mo-Su 10:00-22:00", "brand": "Primark", "brand:wikidata": "Q137023", "nsi_id": "primark-5d2556"}, "geometry": {"type": "Point", "coordinates": [-3.5869004, 40.4479883]}},
{"type": "Feature", "id": "V24ynd6qDb-cYV7jcPBRwBAgCs0=", "properties": {"ref": "376", "payment:google_pay": "yes", "payment:apple_pay": "yes", "payment:cash": "yes", "payment:mastercard": "yes", "payment:visa": "yes", "@spider": "primark", "shop": "clothes", "addr:street_address": "Centre commercial Parquesur, Avenida Gran Breta\u00cd\u00b1a s/n,Leganes", "addr:city": "Madrid", "addr:postcode": "28916", "addr:country": "ES", "name": "Primark", "phone": "+34914812014", "website": "https://stores.primark.com/fr_fr/espagne/madrid/centre-commercial-parquesur", "contact:facebook": "https://www.facebook.com/1431010327025934", "opening_hours": "Mo-Su 10:00-22:00", "brand": "Primark", "brand:wikidata": "Q137023", "nsi_id": "primark-5d2556"}, "geometry": {"type": "Point", "coordinates": [-3.7306888, 40.3397715]}},
{"type": "Feature", "id": "WkFSV_KHIh_wyGKBNbnZe8T2oPg=", "properties": {"ref": "355", "payment:google_pay": "yes", "payment:apple_pay": "yes", "payment:cash": "yes", "payment:mastercard": "yes", "payment:visa": "yes", "@spider": "primark", "shop": "clothes", "addr:street_address": "Centre Commercial Parque Corredor, Ctra Torrejon a Ajalvir, Torrej\u00f3n de Ardoz", "addr:city": "Madrid", "addr:postcode": "28850", "addr:country": "ES", "name": "Primark", "phone": "+34916788650", "website": "https://stores.primark.com/fr_fr/espagne/madrid/centre-commercial-parque-corredor", "contact:facebook": "https://www.facebook.com/214042255828478", "opening_hours": "Mo-Su 10:00-22:00", "brand": "Primark", "brand:wikidata": "Q137023", "nsi_id": "primark-5d2556"}, "geometry": {"type": "Point", "coordinates": [-3.480409, 40.477136]}},
{"type": "Feature", "id": "0RGF-PePo9nTmdrOj9BjqaR-8Lk=", "properties": {"ref": "361", "payment:google_pay": "yes", "payment:apple_pay": "yes", "payment:cash": "yes", "payment:mastercard": "yes", "payment:visa": "yes", "@spider": "primark", "shop": "clothes", "addr:street_address": "Centre commercial La Gavia, Calle Adolfo Bioy Casares 2, local B-17", "addr:city": "Madrid", "addr:postcode": "28051", "addr:country": "ES", "name": "Primark", "phone": "+34914255412", "website": "https://stores.primark.com/fr_fr/espagne/madrid/centre-commercial-la-gavia", "contact:facebook": "https://www.facebook.com/183928059029353", "opening_hours": "Mo-Su 10:00-22:00", "brand": "Primark", "brand:wikidata": "Q137023", "nsi_id": "primark-5d2556"}, "geometry": {"type": "Point", "coordinates": [-3.5963082711639345, 40.36836026138855]}},
{"type": "Feature", "id": "3Cchf9SECAlcCDpN65joEByx1xM=", "properties": {"ref": "407", "payment:google_pay": "yes", "payment:apple_pay": "yes", "payment:cash": "yes", "payment:mastercard": "yes", "payment:visa": "yes", "@spider": "primark", "shop": "clothes", "addr:street_address": "Centre commercial Islazul, Calle Calderilla n\u2018_ 1 local 48", "addr:city": "Madrid", "addr:postcode": "28054", "addr:country": "ES", "name": "Primark", "phone": "+34910051092", "website": "https://stores.primark.com/fr_fr/espagne/madrid/centre-commercial-islazul", "contact:facebook": "https://www.facebook.com/269831160217436", "opening_hours": "Mo-Su 10:00-22:00", "brand": "Primark", "brand:wikidata": "Q137023", "nsi_id": "primark-5d2556"}, "geometry": {"type": "Point", "coordinates": [-3.737546492065462, 40.36395331449845]}},
{"type": "Feature", "id": "Nu6esBk5sQ5we5mZxlAxf9hQAnY=", "properties": {"ref": "386", "payment:google_pay": "yes", "payment:apple_pay": "yes", "payment:cash": "yes", "payment:mastercard": "yes", "payment:visa": "yes", "@spider": "primark", "shop": "clothes", "addr:street_address": "Calle Gran V\u00eda 32", "addr:city": "Madrid", "addr:postcode": "28013", "addr:country": "ES", "name": "Primark", "phone": "+34913605506", "website": "https://stores.primark.com/fr_fr/espagne/madrid/calle-gran-via-32", "contact:facebook": "https://www.facebook.com/975629449149471", "opening_hours": "Mo-Fr 09:30-22:00; Sa 09:30-22:30; Su 09:30-22:00", "brand": "Primark", "brand:wikidata": "Q137023", "nsi_id": "primark-5d2556"}, "geometry": {"type": "Point", "coordinates": [-3.7034745, 40.4204147]}},
{"type": "Feature", "id": "qHToN1Iw9FiMwSZTCU8HSHva5I0=", "properties": {"ref": "394", "payment:google_pay": "yes", "payment:apple_pay": "yes", "payment:cash": "yes", "payment:mastercard": "yes", "payment:visa": "yes", "@spider": "primark", "shop": "clothes", "addr:street_address": "Centre commercial Berceo, Calle Lerida", "addr:city": "Logro\u00f1o", "addr:postcode": "26006", "addr:country": "ES", "name": "Primark", "phone": "+34941256193", "website": "https://stores.primark.com/fr_fr/espagne/logrono/centre-commercial-berceo", "contact:facebook": "https://www.facebook.com/813625082159213", "opening_hours": "Mo-Sa 10:00-22:00", "brand": "Primark", "brand:wikidata": "Q137023", "nsi_id": "primark-5d2556"}, "geometry": {"type": "Point", "coordinates": [-2.420066, 42.4626666]}},
{"type": "Feature", "id": "Sse3YZMEdL-ZvlG90UAAO6nqTZU=", "properties": {"ref": "416", "@spider": "primark", "shop": "clothes", "addr:street_address": "Espacio Le\u00f3n, Av Pais Leones, Leones, 12", "addr:city": "Le\u00f3n", "addr:postcode": "24010", "addr:country": "ES", "name": "Primark", "phone": "+34987990644", "website": "https://stores.primark.com/fr_fr/espagne/leon/espacio-leon-av-pais-leones", "contact:facebook": "https://www.facebook.com/104301551561337", "opening_hours": "Mo-Sa 10:00-22:00", "brand": "Primark", "brand:wikidata": "Q137023", "nsi_id": "primark-5d2556"}, "geometry": {"type": "Point", "coordinates": [-5.595937190145152, 42.61252485443421]}},
{"type": "Feature", "id": "9_-5B7ekWNePlHZAeU9lRjRMvBI=", "properties": {"ref": "392", "payment:google_pay": "yes", "payment:apple_pay": "yes", "payment:cash": "yes", "payment:mastercard": "yes", "payment:visa": "yes", "@spider": "primark", "shop": "clothes", "addr:street_address": "Centre commercial Las Arenas, Carretera Ctra. del Rinc\u00f3n", "addr:city": "Las Palmas", "addr:postcode": "35010", "addr:country": "ES", "name": "Primark", "phone": "+34928228292", "website": "https://stores.primark.com/fr_fr/espagne/las-palmas/centre-commercial-las-arenas", "contact:facebook": "https://www.facebook.com/472386826161612", "opening_hours": "Mo-Sa 10:00-22:00; Su 10:00-21:00", "brand": "Primark", "brand:wikidata": "Q137023", "nsi_id": "primark-5d2556"}, "geometry": {"type": "Point", "coordinates": [-15.4503104, 28.128755]}},
{"type": "Feature", "id": "qW8MI2i9jefB2ujx49C2WIDAkpQ=", "properties": {"ref": "382", "payment:google_pay": "yes", "payment:apple_pay": "yes", "payment:cash": "yes", "payment:mastercard": "yes", "payment:visa": "yes", "@spider": "primark", "shop": "clothes", "addr:street_address": "Centre commercial Holea, Ronda Exterior Norte Zona Sur s/n", "addr:city": "Huelva", "addr:postcode": "21007", "addr:country": "ES", "name": "Primark", "phone": "+34959751000", "website": "https://stores.primark.com/fr_fr/espagne/huelva/centre-commercial-holea", "contact:facebook": "https://www.facebook.com/1020930687968433", "opening_hours": "Mo-Sa 10:00-22:00", "brand": "Primark", "brand:wikidata": "Q137023", "nsi_id": "primark-5d2556"}, "geometry": {"type": "Point", "coordinates": [-6.9207281, 37.271969]}},
{"type": "Feature", "id": "2CSFZ_6o4TdJNx6x4Ii0wHLUtuA=", "properties": {"ref": "391", "payment:google_pay": "yes", "payment:apple_pay": "yes", "payment:cash": "yes", "payment:mastercard": "yes", "payment:visa": "yes", "@spider": "primark", "shop": "clothes", "addr:street_address": "Centre commercial El Mirador, Locales B1 y A4, Avda. Santa Rita de Casia", "addr:city": "Gran Canaria", "addr:postcode": "35220", "addr:country": "ES", "name": "Primark", "phone": "+34928686806", "website": "https://stores.primark.com/fr_fr/espagne/gran-canaria/centre-commercial-el-mirador", "contact:facebook": "https://www.facebook.com/2020511334895228", "opening_hours": "Mo-Sa 10:00-22:00", "brand": "Primark", "brand:wikidata": "Q137023", "nsi_id": "primark-5d2556"}, "geometry": {"type": "Point", "coordinates": [-15.4049844, 28.0339804]}},
{"type": "Feature", "id": "dTieAqSM5R04I6aL0qGrwzjtbaU=", "properties": {"ref": "368", "payment:google_pay": "yes", "payment:apple_pay": "yes", "payment:cash": "yes", "payment:mastercard": "yes", "payment:visa": "yes", "@spider": "primark", "shop": "clothes", "addr:street_address": "Centre commercial Marineda City, Carretera Banos de Arteixo No 43", "addr:city": "Coru\u00f1a", "addr:postcode": "15009", "addr:country": "ES", "name": "Primark", "phone": "+34981632409", "website": "https://stores.primark.com/fr_fr/espagne/coruna/centre-commercial-marineda-city", "contact:facebook": "https://www.facebook.com/439640493104741", "opening_hours": "Mo-Sa 10:00-22:00", "brand": "Primark", "brand:wikidata": "Q137023", "nsi_id": "primark-5d2556"}, "geometry": {"type": "Point", "coordinates": [-8.428809, 43.3445642]}},
{"type": "Feature", "id": "amPKzOKpfsasyIxqaCuaAgUFWQI=", "properties": {"ref": "378", "payment:google_pay": "yes", "payment:apple_pay": "yes", "payment:cash": "yes", "payment:mastercard": "yes", "payment:visa": "yes", "@spider": "primark", "shop": "clothes", "addr:street_address": "Centre commercial El Arcangel, Avenida. Del Arcangel, s/n", "addr:city": "Cordoba", "addr:postcode": "14010", "addr:country": "ES", "name": "Primark", "phone": "+34957752450", "website": "https://stores.primark.com/fr_fr/espagne/cordoba/centre-commercial-el-arcangel", "contact:facebook": "https://www.facebook.com/1702009783245850", "opening_hours": "Mo-Sa 10:00-22:00", "brand": "Primark", "brand:wikidata": "Q137023", "nsi_id": "primark-5d2556"}, "geometry": {"type": "Point", "coordinates": [-4.7664557, 37.8786888]}},
{"type": "Feature", "id": "Cofx7xbtAKVwGV-x7NF2g_vZuso=", "properties": {"ref": "396", "payment:google_pay": "yes", "payment:apple_pay": "yes", "payment:cash": "yes", "payment:mastercard": "yes", "payment:visa": "yes", "@spider": "primark", "shop": "clothes", "addr:street_address": "Centre commercial Condomina Autov\u00eda A7 Km. 760, Local H1 Planta Baja", "addr:city": "Churra", "addr:state": "Murcia", "addr:postcode": "30110", "addr:country": "ES", "name": "Primark", "phone": "+34968982100", "website": "https://stores.primark.com/fr_fr/espagne/churra/centre-commercial-condomina-autovia-a7-km-760", "contact:facebook": "https://www.facebook.com/158328774214223", "opening_hours": "Mo-Sa 10:00-22:00", "brand": "Primark", "brand:wikidata": "Q137023", "nsi_id": "primark-5d2556"}, "geometry": {"type": "Point", "coordinates": [-1.1478811, 38.038785]}},
{"type": "Feature", "id": "6xBNCKgvUOscO9JwWsvy0yIxQzk=", "properties": {"ref": "371", "payment:google_pay": "yes", "payment:apple_pay": "yes", "payment:cash": "yes", "payment:mastercard": "yes", "payment:visa": "yes", "@spider": "primark", "shop": "clothes", "addr:street_address": "Centre commercial Salera, Locales B1, B2 Y B55 Carretera Nacional 340, Km. 64.5", "addr:city": "Castell\u00f3n de la Plana", "addr:postcode": "12006", "addr:country": "ES", "name": "Primark", "phone": "+34964240035", "website": "https://stores.primark.com/fr_fr/espagne/castellon-de-la-plana/centre-commercial-salera", "contact:facebook": "https://www.facebook.com/199606973416494", "opening_hours": "Mo-Sa 10:00-22:00", "brand": "Primark", "brand:wikidata": "Q137023", "nsi_id": "primark-5d2556"}, "geometry": {"type": "Point", "coordinates": [-0.064495, 39.979849]}},
{"type": "Feature", "id": "DDun-PriPE2CM0VujNXDdkfDqVQ=", "properties": {"ref": "384", "payment:google_pay": "yes", "payment:apple_pay": "yes", "payment:cash": "yes", "payment:mastercard": "yes", "payment:visa": "yes", "@spider": "primark", "shop": "clothes", "addr:street_address": "Centre commercial Valle Real, Calle Alday s/n,Maliano s/n", "addr:city": "Camargo", "addr:postcode": "39600", "addr:country": "ES", "name": "Primark", "phone": "+34942262017", "website": "https://stores.primark.com/fr_fr/espagne/camargo/centre-commercial-valle-real", "contact:facebook": "https://www.facebook.com/1264382310373201", "opening_hours": "Mo-Sa 10:00-22:00", "brand": "Primark", "brand:wikidata": "Q137023", "nsi_id": "primark-5d2556"}, "geometry": {"type": "Point", "coordinates": [-3.839217, 43.4277912]}},
{"type": "Feature", "id": "fMbjB4uOHx65O_1yaJsqYsVmWOY=", "properties": {"ref": "353", "payment:google_pay": "yes", "payment:apple_pay": "yes", "payment:cash": "yes", "payment:mastercard": "yes", "payment:visa": "yes", "@spider": "primark", "shop": "clothes", "addr:street_address": "Centre commercial Area Sur, Crta. Nacional IV, km 639, Jerez de la Frontera", "addr:city": "Cadiz", "addr:postcode": "11408", "addr:country": "ES", "name": "Primark", "phone": "+34856813075", "website": "https://stores.primark.com/fr_fr/espagne/cadiz/centre-commercial-area-sur", "contact:facebook": "https://www.facebook.com/283324528864244", "opening_hours": "Mo-Sa 10:00-22:00", "brand": "Primark", "brand:wikidata": "Q137023", "nsi_id": "primark-5d2556"}, "geometry": {"type": "Point", "coordinates": [-6.1563004, 36.6903501]}},
{"type": "Feature", "id": "1ls6pqNR8d3sL2NxolIAbmuQov0=", "properties": {"ref": "400", "@spider": "primark", "shop": "clothes", "addr:street_address": "Gran v\u00eda de Don Diego L\u00f3pez de Haro, 1", "addr:city": "Bilbao", "addr:postcode": "48001", "addr:country": "ES", "name": "Primark", "phone": "+34945480000", "website": "https://stores.primark.com/fr_fr/espagne/bilbao/gran-via-de-don-diego-lopez-de-haro-1", "contact:facebook": "https://www.facebook.com/106814108236077", "opening_hours": "Mo-Sa 09:30-21:00", "brand": "Primark", "brand:wikidata": "Q137023", "nsi_id": "primark-5d2556"}, "geometry": {"type": "Point", "coordinates": [-2.9282415780253612, 43.26130525480518]}},
{"type": "Feature", "id": "juP3ZTCaPXtX9Sc1PLTU3HQf_mM=", "properties": {"ref": "356", "payment:google_pay": "yes", "payment:apple_pay": "yes", "payment:cash": "yes", "payment:mastercard": "yes", "payment:visa": "yes", "@spider": "primark", "shop": "clothes", "addr:street_address": "Centre commercial Ballonti, Local 46-47B, Avenida Ballonti s/n, Portugalete - Vizcaya", "addr:city": "Bilbao", "addr:postcode": "48920", "addr:country": "ES", "name": "Primark", "phone": "+34944724712", "website": "https://stores.primark.com/fr_fr/espagne/bilbao/centre-commercial-ballonti", "contact:facebook": "https://www.facebook.com/1912661079007683", "opening_hours": "Mo-Sa 10:00-22:00", "brand": "Primark", "brand:wikidata": "Q137023", "nsi_id": "primark-5d2556"}, "geometry": {"type": "Point", "coordinates": [-3.0235482, 43.3123935]}},
{"type": "Feature", "id": "nJYFSE-2ToopXbK0Jwol3NJcHy8=", "properties": {"ref": "412", "payment:google_pay": "yes", "payment:apple_pay": "yes", "payment:cash": "yes", "payment:mastercard": "yes", "payment:visa": "yes", "@spider": "primark", "shop": "clothes", "addr:street_address": "Pla\u00e7a de Catalunya, 23", "addr:city": "Barcelona", "addr:postcode": "08002", "addr:country": "ES", "name": "Primark", "phone": "+34936194570", "website": "https://stores.primark.com/fr_fr/espagne/barcelona/placa-de-catalunya-23", "contact:facebook": "https://www.facebook.com/115625283562674", "opening_hours": "Mo-Sa 09:00-21:00", "brand": "Primark", "brand:wikidata": "Q137023", "nsi_id": "primark-5d2556"}, "geometry": {"type": "Point", "coordinates": [2.1703906, 41.3855607]}},
{"type": "Feature", "id": "msvIgP0yo4fOLB6s_Bua-8RuBu0=", "properties": {"ref": "414", "payment:google_pay": "yes", "payment:apple_pay": "yes", "payment:cash": "yes", "payment:mastercard": "yes", "payment:visa": "yes", "@spider": "primark", "shop": "clothes", "addr:street_address": "Centro Comercial Sant Cugat, Avda. de la V\u00eda Augusta 2-14, Sant Cugat del Vall\u00e9s", "addr:city": "Barcelona", "addr:postcode": "08174", "addr:country": "ES", "name": "Primark", "phone": "+34936202721", "website": "https://stores.primark.com/fr_fr/espagne/barcelona/centro-comercial-sant-cugat", "contact:facebook": "https://www.facebook.com/105835041279367", "opening_hours": "Mo-Sa 09:00-21:00", "brand": "Primark", "brand:wikidata": "Q137023", "nsi_id": "primark-5d2556"}, "geometry": {"type": "Point", "coordinates": [2.05299053128281, 41.48268845720836]}},
{"type": "Feature", "id": "CfViDFafQpQKSXjndYS8zLRTC1o=", "properties": {"ref": "364", "payment:google_pay": "yes", "payment:apple_pay": "yes", "payment:cash": "yes", "payment:mastercard": "yes", "payment:visa": "yes", "@spider": "primark", "shop": "clothes", "addr:street_address": "Centre commercial Splau, Avda. del Baix Llobregat", "addr:city": "Barcelona", "addr:postcode": "08940", "addr:country": "ES", "name": "Primark", "phone": "+34934719279", "website": "https://stores.primark.com/fr_fr/espagne/barcelona/centre-commercial-splau", "contact:facebook": "https://www.facebook.com/314016585353460", "opening_hours": "Mo-Sa 09:00-21:00", "brand": "Primark", "brand:wikidata": "Q137023", "nsi_id": "primark-5d2556"}, "geometry": {"type": "Point", "coordinates": [2.077598149111939, 41.347461214528856]}},
{"type": "Feature", "id": "UOGYID94VoZgKCDcZbs036GJ3q8=", "properties": {"ref": "379", "payment:google_pay": "yes", "payment:apple_pay": "yes", "payment:cash": "yes", "payment:mastercard": "yes", "payment:visa": "yes", "@spider": "primark", "shop": "clothes", "addr:street_address": "Centre commercial L'Illa, Calle Deu i Mata 69-99", "addr:city": "Barcelona", "addr:postcode": "08029", "addr:country": "ES", "name": "Primark", "phone": "+34934449511", "website": "https://stores.primark.com/fr_fr/espagne/barcelona/centre-commercial-l'illa", "contact:facebook": "https://www.facebook.com/235694149828967", "opening_hours": "Mo-Sa 09:30-21:00", "brand": "Primark", "brand:wikidata": "Q137023", "nsi_id": "primark-5d2556"}, "geometry": {"type": "Point", "coordinates": [2.1362043, 41.3890578]}},
{"type": "Feature", "id": "hviutgdkC-a-hYSfKjFoXnbartI=", "properties": {"ref": "410", "payment:google_pay": "yes", "payment:apple_pay": "yes", "payment:cash": "yes", "payment:mastercard": "yes", "payment:visa": "yes", "@spider": "primark", "shop": "clothes", "addr:street_address": "Centre commercial Diagonal Mar, Avinguda Diagonal, 3", "addr:city": "Barcelona", "addr:state": "Barcelona", "addr:postcode": "08019", "addr:country": "ES", "name": "Primark", "phone": "+34933562572", "website": "https://stores.primark.com/fr_fr/espagne/barcelona/centre-commercial-diagonal-mar", "contact:facebook": "https://www.facebook.com/333152480110385", "opening_hours": "Mo-Sa 09:00-21:00", "brand": "Primark", "brand:wikidata": "Q137023", "nsi_id": "primark-5d2556"}, "geometry": {"type": "Point", "coordinates": [2.2181, 41.410619]}},
{"type": "Feature", "id": "Xk1JPFh9Ypur4ScTxa4rdxG6Zc8=", "properties": {"ref": "366", "payment:google_pay": "yes", "payment:apple_pay": "yes", "payment:cash": "yes", "payment:mastercard": "yes", "payment:visa": "yes", "@spider": "primark", "shop": "clothes", "addr:street_address": "Centre commercial Faro del Guadiana, Avenida de Elvas s/n", "addr:city": "Badajoz", "addr:postcode": "06006", "addr:country": "ES", "name": "Primark", "phone": "+34924266697", "website": "https://stores.primark.com/fr_fr/espagne/badajoz/centre-commercial-faro-del-guadiana", "contact:facebook": "https://www.facebook.com/381736465248494", "opening_hours": "Mo-Sa 10:00-22:00", "brand": "Primark", "brand:wikidata": "Q137023", "nsi_id": "primark-5d2556"}, "geometry": {"type": "Point", "coordinates": [-7.022246028135883, 38.884324421001345]}},
{"type": "Feature", "id": "uvRsixUZuwyaS628kMRsb0rwJNo=", "properties": {"ref": "406", "payment:google_pay": "yes", "payment:apple_pay": "yes", "payment:cash": "yes", "payment:mastercard": "yes", "payment:visa": "yes", "@spider": "primark", "shop": "clothes", "addr:street_address": "Centre commercial Nevada Shopping, Calle Hip\u00f3crates, 36", "addr:city": "Armilla", "addr:state": "Granada", "addr:postcode": "18100", "addr:country": "ES", "name": "Primark", "phone": "+34858800039", "website": "https://stores.primark.com/fr_fr/espagne/armilla/centre-commercial-nevada-shopping", "contact:facebook": "https://www.facebook.com/379175202555518", "opening_hours": "Mo-Sa 10:00-22:00", "brand": "Primark", "brand:wikidata": "Q137023", "nsi_id": "primark-5d2556"}, "geometry": {"type": "Point", "coordinates": [-3.613353967666626, 37.14671174843816]}},
{"type": "Feature", "id": "YdC8ia5UIvWXcYrGPOA_OcIN9tQ=", "properties": {"ref": "404", "payment:google_pay": "yes", "payment:apple_pay": "yes", "payment:cash": "yes", "payment:mastercard": "yes", "payment:visa": "yes", "@spider": "primark", "shop": "clothes", "addr:street_address": "Avenida del M\u00e9dico Francisco P\u00e9rez Company", "addr:city": "Almer\u00eda", "addr:postcode": "04009", "addr:country": "ES", "name": "Primark", "phone": "+34950680356", "website": "https://stores.primark.com/fr_fr/espagne/almeria/avenida-del-medico-francisco-perez-company", "contact:facebook": "https://www.facebook.com/354441278449266", "opening_hours": "Mo-Sa 10:00-22:00", "brand": "Primark", "brand:wikidata": "Q137023", "nsi_id": "primark-5d2556"}, "geometry": {"type": "Point", "coordinates": [-2.4347577, 36.8622654]}},
{"type": "Feature", "id": "8vpS3jbbgW0useh3n2ln-jTWo9s=", "properties": {"ref": "369", "payment:google_pay": "yes", "payment:apple_pay": "yes", "payment:cash": "yes", "payment:mastercard": "yes", "payment:visa": "yes", "@spider": "primark", "shop": "clothes", "addr:street_address": "Centre commercial L'Aljub, Local 1030 C/ Jacarilla, 7 , Elche", "addr:city": "Alicante", "addr:postcode": "03205", "addr:country": "ES", "name": "Primark", "phone": "+34965460409", "website": "https://stores.primark.com/fr_fr/espagne/alicante/centre-commercial-l'aljub", "contact:facebook": "https://www.facebook.com/1944758652231208", "opening_hours": "Mo-Sa 10:00-22:00", "brand": "Primark", "brand:wikidata": "Q137023", "nsi_id": "primark-5d2556"}, "geometry": {"type": "Point", "coordinates": [-0.7216000556945801, 38.26198644581586]}},
{"type": "Feature", "id": "PQObBF9pfA_oi35SY8uN_Db3I34=", "properties": {"ref": "377", "payment:google_pay": "yes", "payment:apple_pay": "yes", "payment:cash": "yes", "payment:mastercard": "yes", "payment:visa": "yes", "@spider": "primark", "shop": "clothes", "addr:street_address": "Centre commercial Gran V\u00eda, Calle Jose Garcia Selles, 2", "addr:city": "Alicante", "addr:postcode": "03015", "addr:country": "ES", "name": "Primark", "phone": "+34965253131", "website": "https://stores.primark.com/fr_fr/espagne/alicante/centre-commercial-gran-via", "contact:facebook": "https://www.facebook.com/312923642580162", "opening_hours": "Mo-Su 10:00-22:00", "brand": "Primark", "brand:wikidata": "Q137023", "nsi_id": "primark-5d2556"}, "geometry": {"type": "Point", "coordinates": [-0.468987, 38.3676091]}},
{"type": "Feature", "id": "vHA3_egSQGyx3uu_7K8kp0_i2Jk=", "properties": {"ref": "362", "payment:google_pay": "yes", "payment:apple_pay": "yes", "payment:cash": "yes", "payment:mastercard": "yes", "payment:visa": "yes", "@spider": "primark", "shop": "clothes", "addr:street_address": "Centre commercial Puerta Europa, Avenida Virgen de la Palma", "addr:city": "Algeciras", "addr:postcode": "11203", "addr:country": "ES", "name": "Primark", "phone": "+34956637301", "website": "https://stores.primark.com/fr_fr/espagne/algeciras/centre-commercial-puerta-europa", "contact:facebook": "https://www.facebook.com/268724416479879", "opening_hours": "Mo-Sa 10:00-22:00", "brand": "Primark", "brand:wikidata": "Q137023", "nsi_id": "primark-5d2556"}, "geometry": {"type": "Point", "coordinates": [-5.4621809, 36.13561]}},
{"type": "Feature", "id": "4RlhDmTU25bqg23zaW1x6Y_PrWw=", "properties": {"ref": "388", "payment:google_pay": "yes", "payment:apple_pay": "yes", "payment:cash": "yes", "payment:mastercard": "yes", "payment:visa": "yes", "@spider": "primark", "shop": "clothes", "addr:street_address": "Albacenter, Calle Alcalde Conangla", "addr:city": "Albacete", "addr:postcode": "02002", "addr:country": "ES", "name": "Primark", "phone": "+34967193212", "website": "https://stores.primark.com/fr_fr/espagne/albacete/albacenter", "contact:facebook": "https://www.facebook.com/536026626781614", "opening_hours": "Mo-Sa 10:00-22:00", "brand": "Primark", "brand:wikidata": "Q137023", "nsi_id": "primark-5d2556"}, "geometry": {"type": "Point", "coordinates": [-1.8462115, 38.9908215]}},
{"type": "Feature", "id": "DvC5YHQeJ5Z1gNusWcQvPDWsNTk=", "properties": {"ref": "758", "@spider": "primark", "shop": "clothes", "addr:street_address": "Grand Rue 49", "addr:city": "Mons", "addr:postcode": "7000", "addr:country": "BE", "name": "Primark", "phone": "+3265202620", "website": "https://stores.primark.com/fr_fr/belgique/mons/grand-rue-49", "contact:facebook": "https://www.facebook.com/106024730992664", "opening_hours": "Mo-Fr 09:00-19:00; Sa 09:00-20:00", "brand": "Primark", "brand:wikidata": "Q137023", "nsi_id": "primark-5d2556"}, "geometry": {"type": "Point", "coordinates": [3.9495182901924863, 50.45093272232164]}},
{"type": "Feature", "id": "7fgOBiUxh2qVp7MCtAw9EN6h9vA=", "properties": {"ref": "751", "payment:google_pay": "yes", "payment:cash": "yes", "payment:maestro": "yes", "payment:mastercard": "yes", "payment:visa": "yes", "@spider": "primark", "shop": "clothes", "addr:street_address": "Boulevard Raymond Poincari 07/113", "addr:city": "Liege", "addr:postcode": "4020", "addr:country": "BE", "name": "Primark", "phone": "+3243422194", "website": "https://stores.primark.com/fr_fr/belgique/liege/boulevard-raymond-poincari-07/113", "contact:facebook": "https://www.facebook.com/415449988911383", "opening_hours": "Mo-Th 09:00-19:45; Fr 09:00-20:45; Sa 09:00-19:45", "brand": "Primark", "brand:wikidata": "Q137023", "nsi_id": "primark-5d2556"}, "geometry": {"type": "Point", "coordinates": [5.580006304650746, 50.631928725393884]}},
{"type": "Feature", "id": "lKFiQKP0PCzgVA6OkqGIPBkUV1Q=", "properties": {"ref": "754", "payment:google_pay": "yes", "payment:cash": "yes", "payment:maestro": "yes", "payment:mastercard": "yes", "payment:visa": "yes", "@spider": "primark", "shop": "clothes", "addr:street_address": "Molenpoort 5", "addr:city": "Hasselt", "addr:postcode": "3500", "addr:country": "BE", "name": "Primark", "phone": "+3211423771", "website": "https://stores.primark.com/fr_fr/belgique/hasselt/molenpoort-5", "contact:facebook": "https://www.facebook.com/167507323601684", "opening_hours": "Mo-Sa 09:30-18:30", "brand": "Primark", "brand:wikidata": "Q137023", "nsi_id": "primark-5d2556"}, "geometry": {"type": "Point", "coordinates": [5.338149815797806, 50.93304210097335]}},
{"type": "Feature", "id": "3QH0YBl1S-bZnmdZ8UZdTp9-Y-0=", "properties": {"ref": "752", "payment:google_pay": "yes", "payment:cash": "yes", "payment:maestro": "yes", "payment:mastercard": "yes", "payment:visa": "yes", "@spider": "primark", "shop": "clothes", "addr:street_address": "Langemunt 54", "addr:city": "Ghent", "addr:postcode": "9000", "addr:country": "BE", "name": "Primark", "phone": "+3292252112", "website": "https://stores.primark.com/fr_fr/belgique/ghent/langemunt-54", "contact:facebook": "https://www.facebook.com/174301156249988", "opening_hours": "Mo-Sa 09:00-19:45", "brand": "Primark", "brand:wikidata": "Q137023", "nsi_id": "primark-5d2556"}, "geometry": {"type": "Point", "coordinates": [3.724057685782287, 51.05692770105228]}},
{"type": "Feature", "id": "doHb6D6D0biouR5PBgzYm-4E5Tw=", "properties": {"ref": "757", "payment:google_pay": "yes", "payment:cash": "yes", "payment:maestro": "yes", "payment:mastercard": "yes", "payment:visa": "yes", "@spider": "primark", "shop": "clothes", "addr:street_address": "20, Place Verte, Bte 97 \u00e0 6", "addr:city": "Charleroi", "addr:postcode": "6000", "addr:country": "BE", "name": "Primark", "phone": "+3271205020", "website": "https://stores.primark.com/fr_fr/belgique/charleroi/20-place-verte", "contact:facebook": "https://www.facebook.com/387126531651328", "opening_hours": "Mo-Th 09:00-19:45; Fr 09:00-20:00; Sa 09:00-19:45", "brand": "Primark", "brand:wikidata": "Q137023", "nsi_id": "primark-5d2556"}, "geometry": {"type": "Point", "coordinates": [4.4398492, 50.4070742]}},
{"type": "Feature", "id": "Kj3UEHJM2KHrfkfAPD7YbMHBtAs=", "properties": {"ref": "756", "payment:google_pay": "yes", "payment:cash": "yes", "payment:maestro": "yes", "payment:mastercard": "yes", "payment:visa": "yes", "@spider": "primark", "shop": "clothes", "addr:street_address": "Brussels Chausee DIxelles, 63 Chauss\u00e9e d\u2019Ixelles", "addr:city": "Brussels", "addr:postcode": "1050", "addr:country": "BE", "name": "Primark", "phone": "+3228083996", "website": "https://stores.primark.com/fr_fr/belgique/brussels/brussels-chausee-dixelles", "contact:facebook": "https://www.facebook.com/2255158231469066", "opening_hours": "Mo-Sa 09:00-19:45", "brand": "Primark", "brand:wikidata": "Q137023", "nsi_id": "primark-5d2556"}, "geometry": {"type": "Point", "coordinates": [4.3628358, 50.8360834]}},
{"type": "Feature", "id": "-Rydyf0dC6X8AXjquyvmK5vu0mQ=", "properties": {"ref": "753", "payment:google_pay": "yes", "payment:cash": "yes", "payment:maestro": "yes", "payment:mastercard": "yes", "payment:visa": "yes", "@spider": "primark", "shop": "clothes", "addr:street_address": "13-15 Rue Neuve", "addr:city": "Brussels", "addr:postcode": "1000", "addr:country": "BE", "name": "Primark", "phone": "+3222279726", "website": "https://stores.primark.com/fr_fr/belgique/brussels/13-15-rue-neuve", "contact:facebook": "https://www.facebook.com/1562002620683389", "opening_hours": "Mo-Sa 09:00-19:45", "brand": "Primark", "brand:wikidata": "Q137023", "nsi_id": "primark-5d2556"}, "geometry": {"type": "Point", "coordinates": [4.354571599507153, 50.85120750417988]}},
{"type": "Feature", "id": "L4A5ft-OtzZfs0PRRTILSMLpPpU=", "properties": {"ref": "755", "payment:google_pay": "yes", "payment:cash": "yes", "payment:maestro": "yes", "payment:mastercard": "yes", "payment:visa": "yes", "@spider": "primark", "shop": "clothes", "addr:street_address": "Meir 22-30", "addr:city": "Antwerp", "addr:postcode": "2000", "addr:country": "BE", "name": "Primark", "phone": "+3238082938", "website": "https://stores.primark.com/fr_fr/belgique/antwerp/meir-22-30", "contact:facebook": "https://www.facebook.com/260135248213489", "opening_hours": "Mo-Sa 09:00-19:45", "brand": "Primark", "brand:wikidata": "Q137023", "nsi_id": "primark-5d2556"}, "geometry": {"type": "Point", "coordinates": [4.406669961971268, 51.21781239787853]}},
{"type": "Feature", "id": "23K7d-gZkVswFyw3dhLGWMH6Xzs=", "properties": {"ref": "785", "payment:google_pay": "yes", "payment:apple_pay": "yes", "payment:cash": "yes", "payment:maestro": "yes", "payment:mastercard": "yes", "payment:visa": "yes", "@spider": "primark", "shop": "clothes", "addr:street_address": "SCS, SCS-Stra\u00dfe", "addr:city": "Vosendorf", "addr:postcode": "2331", "addr:country": "AT", "name": "Primark", "phone": "+4316981671", "website": "https://stores.primark.com/fr_fr/autriche/vosendorf/scs", "contact:facebook": "https://www.facebook.com/2204643162886760", "opening_hours": "Mo-We 09:00-19:00; Th-Fr 09:00-20:00; Sa 09:00-18:00", "brand": "Primark", "brand:wikidata": "Q137023", "nsi_id": "primark-5d2556"}, "geometry": {"type": "Point", "coordinates": [16.3190254, 48.1107001]}},
{"type": "Feature", "id": "y6-AucrQdetxIpg6pcHj3kK0Eqs=", "properties": {"ref": "787", "payment:google_pay": "yes", "payment:apple_pay": "yes", "payment:cash": "yes", "payment:maestro": "yes", "payment:mastercard": "yes", "payment:visa": "yes", "@spider": "primark", "shop": "clothes", "addr:street_address": "Plus-Kauf-Stra\u00dfe 7", "addr:city": "Pasching", "addr:postcode": "4061", "addr:country": "AT", "name": "Primark", "phone": "+43722962036", "website": "https://stores.primark.com/fr_fr/autriche/pasching/plus-kauf-stra%C3%9Fe-7", "contact:facebook": "https://www.facebook.com/1792943317656042", "opening_hours": "Mo-We 09:00-19:00; Th-Fr 09:00-21:00; Sa 09:00-18:00", "brand": "Primark", "brand:wikidata": "Q137023", "nsi_id": "primark-5d2556"}, "geometry": {"type": "Point", "coordinates": [14.236047678573641, 48.243471564862865]}},
{"type": "Feature", "id": "ngqdl7rLRRAyZ6BfaWIPgNk-m-k=", "properties": {"ref": "783", "payment:google_pay": "yes", "payment:apple_pay": "yes", "payment:cash": "yes", "payment:maestro": "yes", "payment:mastercard": "yes", "payment:visa": "yes", "@spider": "primark", "shop": "clothes", "addr:street_address": "Centre commercial Sillpark, Museum Strase 38", "addr:city": "Innsbruck", "addr:postcode": "6020", "addr:country": "AT", "name": "Primark", "phone": "+43512551307", "website": "https://stores.primark.com/fr_fr/autriche/innsbruck/centre-commercial-sillpark", "contact:facebook": "https://www.facebook.com/249433418525524", "opening_hours": "Mo-We 09:00-19:00; Th-Fr 09:00-20:00; Sa 09:00-18:00", "brand": "Primark", "brand:wikidata": "Q137023", "nsi_id": "primark-5d2556"}, "geometry": {"type": "Point", "coordinates": [11.404256740806622, 47.266203153289744]}},
{"type": "Feature", "id": "WsNjvuU2s89yd9LbuM9TcEs1jeI=", "properties": {"ref": "786", "payment:google_pay": "yes", "payment:apple_pay": "yes", "payment:cash": "yes", "payment:maestro": "yes", "payment:mastercard": "yes", "payment:visa": "yes", "@spider": "primark", "shop": "clothes", "addr:street_address": "Shopping City, Seiersberg 1-9", "addr:city": "Graz", "addr:postcode": "8055", "addr:country": "AT", "name": "Primark", "phone": "+43316241172", "website": "https://stores.primark.com/fr_fr/autriche/graz/shopping-city", "contact:facebook": "https://www.facebook.com/1238013949548012", "opening_hours": "Mo-Fr 09:00-19:30; Sa 09:00-18:00", "brand": "Primark", "brand:wikidata": "Q137023", "nsi_id": "primark-5d2556"}, "geometry": {"type": "Point", "coordinates": [15.411542364417983, 47.01227965768353]}},
{"type": "Feature", "id": "FnDXEAw0CzoKyGD1VcGMszwsK2I=", "properties": {"ref": "784", "payment:google_pay": "yes", "payment:apple_pay": "yes", "payment:cash": "yes", "payment:maestro": "yes", "payment:mastercard": "yes", "payment:visa": "yes", "@spider": "primark", "shop": "clothes", "addr:street_address": "G3 Shopping Resort, G3 Platz 1", "addr:city": "Gerasdorf bei Wien", "addr:postcode": "2102", "addr:country": "AT", "name": "Primark", "phone": "+43224627461", "website": "https://stores.primark.com/fr_fr/autriche/gerasdorf-bei-wien/g3-shopping-resort", "contact:facebook": "https://www.facebook.com/450083711693634", "opening_hours": "Mo-We 09:30-19:00; Th-Fr 09:30-20:00; Sa 09:00-18:00", "brand": "Primark", "brand:wikidata": "Q137023", "nsi_id": "primark-5d2556"}, "geometry": {"type": "Point", "coordinates": [16.4630624, 48.3412314]}},
{"type": "Feature", "id": "j4n6VssytQ5cBsyu6XT6VGO6HJ4=", "properties": {"ref": "825", "payment:google_pay": "yes", "payment:apple_pay": "yes", "payment:cash": "yes", "payment:maestro": "yes", "payment:mastercard": "yes", "payment:visa": "yes", "@spider": "primark", "shop": "clothes", "addr:street_address": "D\u00f6ppersberg 51", "addr:city": "Wuppertal", "addr:postcode": "42103", "addr:country": "DE", "name": "Primark", "phone": "+4920229528480", "website": "https://stores.primark.com/fr_fr/allemagne/wuppertal/doppersberg-51", "contact:facebook": "https://www.facebook.com/2238319979761140", "opening_hours": "Mo-Sa 09:30-20:00", "brand": "Primark", "brand:wikidata": "Q137023", "nsi_id": "primark-5d2556"}, "geometry": {"type": "Point", "coordinates": [7.15014, 51.25553]}},
{"type": "Feature", "id": "S2r75ISfHw0H4Q8id1JNOM1W2yk=", "properties": {"ref": "816", "@spider": "primark", "shop": "clothes", "addr:street_address": "Gutenbergstr. 5, Loop 5", "addr:city": "Weiterstadt", "addr:postcode": "64331", "addr:country": "DE", "name": "Primark", "phone": "+4961519574652", "website": "https://stores.primark.com/fr_fr/allemagne/weiterstadt/gutenbergstr-5", "contact:facebook": "https://www.facebook.com/380667409004847", "brand": "Primark", "brand:wikidata": "Q137023", "nsi_id": "primark-5d2556"}, "geometry": {"type": "Point", "coordinates": [8.607276, 49.891934]}},
{"type": "Feature", "id": "JlxfzixqYXOVwZmdroxbxLcbgTI=", "properties": {"ref": "817", "payment:google_pay": "yes", "payment:apple_pay": "yes", "payment:cash": "yes", "payment:maestro": "yes", "payment:mastercard": "yes", "payment:visa": "yes", "@spider": "primark", "shop": "clothes", "addr:street_address": "Mailander Platz 7, Milaneo", "addr:city": "Stuttgart", "addr:postcode": "70173", "addr:country": "DE", "name": "Primark", "phone": "+4971128453249", "website": "https://stores.primark.com/fr_fr/allemagne/stuttgart/mailander-platz-7", "contact:facebook": "https://www.facebook.com/934893419855534", "opening_hours": "Mo-Th 10:00-20:00; Fr 10:00-21:30; Sa 09:30-20:00", "brand": "Primark", "brand:wikidata": "Q137023", "nsi_id": "primark-5d2556"}, "geometry": {"type": "Point", "coordinates": [9.18216, 48.79061]}},
{"type": "Feature", "id": "yGd6qfEQNPFYbq60vXyHED0fI_w=", "properties": {"ref": "826", "payment:google_pay": "yes", "payment:apple_pay": "yes", "payment:cash": "yes", "payment:maestro": "yes", "payment:mastercard": "yes", "payment:visa": "yes", "@spider": "primark", "shop": "clothes", "addr:street_address": "Koenigstrasse 27-27a", "addr:city": "Stuttgart", "addr:postcode": "70173", "addr:country": "DE", "name": "Primark", "phone": "+4971121840419", "website": "https://stores.primark.com/fr_fr/allemagne/stuttgart/koenigstrasse-27-27a", "contact:facebook": "https://www.facebook.com/235233387076273", "opening_hours": "Mo-Fr 10:00-20:00; Sa 09:30-20:00", "brand": "Primark", "brand:wikidata": "Q137023", "nsi_id": "primark-5d2556"}, "geometry": {"type": "Point", "coordinates": [9.176214110450701, 48.77574339441889]}},
{"type": "Feature", "id": "EdxqylkUwfy-cvqt8Fg9sjAgwME=", "properties": {"ref": "805", "payment:google_pay": "yes", "payment:apple_pay": "yes", "payment:cash": "yes", "payment:maestro": "yes", "payment:mastercard": "yes", "payment:visa": "yes", "@spider": "primark", "shop": "clothes", "addr:street_address": "Bahnhofstrasse 81-85", "addr:city": "Saarbrucken", "addr:postcode": "66111", "addr:country": "DE", "name": "Primark", "phone": "+4968130140084", "website": "https://stores.primark.com/fr_fr/allemagne/saarbrucken/bahnhofstrasse-81-85", "contact:facebook": "https://www.facebook.com/1461367767318791", "opening_hours": "Mo-Sa 10:00-20:00", "brand": "Primark", "brand:wikidata": "Q137023", "nsi_id": "primark-5d2556"}, "geometry": {"type": "Point", "coordinates": [6.991927714316944, 49.236959177495585]}},
{"type": "Feature", "id": "4RYqS5Ow0eWFnbvdXzQBb1Lh7tQ=", "properties": {"ref": "827", "payment:google_pay": "yes", "payment:apple_pay": "yes", "payment:cash": "yes", "payment:maestro": "yes", "payment:mastercard": "yes", "payment:visa": "yes", "@spider": "primark", "shop": "clothes", "addr:street_address": "Salzstra\u00dfe 3-4", "addr:city": "M\u00fcnster", "addr:postcode": "48143", "addr:country": "DE", "name": "Primark", "phone": "+4925198209001", "website": "https://stores.primark.com/fr_fr/allemagne/munster/salzstra%C3%9Fe-3-4", "contact:facebook": "https://www.facebook.com/240634656529030", "opening_hours": "Mo-Sa 10:00-20:00", "brand": "Primark", "brand:wikidata": "Q137023", "nsi_id": "primark-5d2556"}, "geometry": {"type": "Point", "coordinates": [7.629516288360605, 51.96244201252776]}},
{"type": "Feature", "id": "5487_k2QQyA1fjWGDyKXa3dcKz4=", "properties": {"ref": "828", "payment:google_pay": "yes", "payment:apple_pay": "yes", "payment:cash": "yes", "payment:maestro": "yes", "payment:mastercard": "yes", "payment:visa": "yes", "@spider": "primark", "shop": "clothes", "addr:street_address": "Ollenhauerstr. 6", "addr:city": "M\u00fcnchen", "addr:postcode": "81737", "addr:country": "DE", "name": "Primark", "phone": "+498921094374", "website": "https://stores.primark.com/fr_fr/allemagne/munchen/ollenhauerstr-6", "contact:facebook": "https://www.facebook.com/1033130453517974", "opening_hours": "Mo-Sa 09:30-20:00", "brand": "Primark", "brand:wikidata": "Q137023", "nsi_id": "primark-5d2556"}, "geometry": {"type": "Point", "coordinates": [11.6450981, 48.1020865]}},
{"type": "Feature", "id": "QXkFuJ4ArDJptoms4eMEccXVpzE=", "properties": {"ref": "822", "payment:google_pay": "yes", "payment:apple_pay": "yes", "payment:cash": "yes", "payment:maestro": "yes", "payment:mastercard": "yes", "payment:visa": "yes", "@spider": "primark", "shop": "clothes", "addr:street_address": "Q6Q7 Das Quartier", "addr:city": "Mannheim", "addr:postcode": "68161", "addr:country": "DE", "name": "Primark", "phone": "+4962112347490", "website": "https://stores.primark.com/fr_fr/allemagne/mannheim/q6q7-das-quartier", "contact:facebook": "https://www.facebook.com/246359999077880", "opening_hours": "Mo-Sa 10:00-20:00", "brand": "Primark", "brand:wikidata": "Q137023", "nsi_id": "primark-5d2556"}, "geometry": {"type": "Point", "coordinates": [8.4736475, 49.485862]}},
{"type": "Feature", "id": "dGQMwM7VzeS5DEZImeyjTyu3RyY=", "properties": {"ref": "820", "payment:google_pay": "yes", "payment:apple_pay": "yes", "payment:cash": "yes", "payment:maestro": "yes", "payment:mastercard": "yes", "payment:visa": "yes", "@spider": "primark", "shop": "clothes", "addr:street_address": "Hainstra\u00dfe 21-23", "addr:city": "Leipzig", "addr:postcode": "04109", "addr:country": "DE", "name": "Primark", "phone": "+4934196258064", "website": "https://stores.primark.com/fr_fr/allemagne/leipzig/hainstra%C3%9Fe-21-23", "contact:facebook": "https://www.facebook.com/1631897840366086", "opening_hours": "Mo-Fr 10:00-20:00; Sa 09:00-20:00", "brand": "Primark", "brand:wikidata": "Q137023", "nsi_id": "primark-5d2556"}, "geometry": {"type": "Point", "coordinates": [12.37282800859839, 51.34285784494403]}},
{"type": "Feature", "id": "N05cqABRwuSJNc9QLrshkJz6dXg=", "properties": {"ref": "813", "payment:google_pay": "yes", "payment:apple_pay": "yes", "payment:cash": "yes", "payment:maestro": "yes", "payment:mastercard": "yes", "payment:visa": "yes", "@spider": "primark", "shop": "clothes", "addr:street_address": "Rheinstrasse 85", "addr:city": "Krefeld", "addr:postcode": "47798", "addr:country": "DE", "name": "Primark", "phone": "+4921516576519", "website": "https://stores.primark.com/fr_fr/allemagne/krefeld/rheinstrasse-85", "contact:facebook": "https://www.facebook.com/660111467418520", "opening_hours": "Mo-Sa 10:00-20:00", "brand": "Primark", "brand:wikidata": "Q137023", "nsi_id": "primark-5d2556"}, "geometry": {"type": "Point", "coordinates": [6.5646845, 51.3339231]}},
{"type": "Feature", "id": "3ToJOkGYbmlEUkG23z6zUIdEWB0=", "properties": {"ref": "815", "payment:google_pay": "yes", "payment:apple_pay": "yes", "payment:cash": "yes", "payment:maestro": "yes", "payment:mastercard": "yes", "payment:visa": "yes", "@spider": "primark", "shop": "clothes", "addr:street_address": "Holstenstr. 37", "addr:city": "Kiel", "addr:postcode": "24103", "addr:country": "DE", "name": "Primark", "phone": "+4943122139290", "website": "https://stores.primark.com/fr_fr/allemagne/kiel/holstenstr-37", "contact:facebook": "https://www.facebook.com/114193003326023", "opening_hours": "Mo-Fr 09:30-19:00; Sa 09:00-19:00", "brand": "Primark", "brand:wikidata": "Q137023", "nsi_id": "primark-5d2556"}, "geometry": {"type": "Point", "coordinates": [10.136358373016378, 54.32121893120851]}},
{"type": "Feature", "id": "yY_8dgVlROsUVAELgM500z3bo4k=", "properties": {"ref": "810", "payment:google_pay": "yes", "payment:apple_pay": "yes", "payment:cash": "yes", "payment:maestro": "yes", "payment:mastercard": "yes", "payment:visa": "yes", "@spider": "primark", "shop": "clothes", "addr:street_address": "Kaiserstrase 217, Post Galerie", "addr:city": "Karlsruhe", "addr:postcode": "76133", "addr:country": "DE", "name": "Primark", "phone": "+4972159668890", "website": "https://stores.primark.com/fr_fr/allemagne/karlsruhe/kaiserstrase-217", "contact:facebook": "https://www.facebook.com/1263037690398356", "opening_hours": "Mo-Sa 10:00-20:00", "brand": "Primark", "brand:wikidata": "Q137023", "nsi_id": "primark-5d2556"}, "geometry": {"type": "Point", "coordinates": [8.393793728836044, 49.0094705935313]}},
{"type": "Feature", "id": "lUWhuN0CnPdUjdUWSlel74CFyWc=", "properties": {"ref": "819", "payment:google_pay": "yes", "payment:apple_pay": "yes", "payment:cash": "yes", "payment:maestro": "yes", "payment:mastercard": "yes", "payment:visa": "yes", "@spider": "primark", "shop": "clothes", "addr:street_address": "Fackelrondell 1, K in Lautern", "addr:city": "Kaiserslautern", "addr:postcode": "67655", "addr:country": "DE", "name": "Primark", "phone": "+4963153497638", "website": "https://stores.primark.com/fr_fr/allemagne/kaiserslautern/fackelrondell-1", "contact:facebook": "https://www.facebook.com/101628785130914", "opening_hours": "Mo-Sa 09:30-20:00", "brand": "Primark", "brand:wikidata": "Q137023", "nsi_id": "primark-5d2556"}, "geometry": {"type": "Point", "coordinates": [7.7645252, 49.4439945]}},
{"type": "Feature", "id": "0Bwz4gKLyD7hLwaYETx3Ma31SSs=", "properties": {"ref": "823", "payment:google_pay": "yes", "payment:apple_pay": "yes", "payment:cash": "yes", "payment:maestro": "yes", "payment:mastercard": "yes", "payment:visa": "yes", "@spider": "primark", "shop": "clothes", "addr:street_address": "City Arkaden, Ludwigstrasse 25", "addr:city": "Ingolstadt", "addr:postcode": "85049", "addr:country": "DE", "name": "Primark", "phone": "+4984193880100", "website": "https://stores.primark.com/fr_fr/allemagne/ingolstadt/city-arkaden", "contact:facebook": "https://www.facebook.com/488406014923223", "opening_hours": "Mo-Fr 09:30-19:00; Sa 09:00-19:00", "brand": "Primark", "brand:wikidata": "Q137023", "nsi_id": "primark-5d2556"}, "geometry": {"type": "Point", "coordinates": [11.426800434358597, 48.76472316007563]}},
{"type": "Feature", "id": "jIn2YBo5AxbZE9SxOSKXODAXdJI=", "properties": {"ref": "803", "payment:google_pay": "yes", "payment:apple_pay": "yes", "payment:cash": "yes", "payment:maestro": "yes", "payment:mastercard": "yes", "payment:visa": "yes", "@spider": "primark", "shop": "clothes", "addr:street_address": "Osterstrasse 10", "addr:city": "Hannover", "addr:postcode": "30159", "addr:country": "DE", "name": "Primark", "phone": "+4951116979853", "website": "https://stores.primark.com/fr_fr/allemagne/hannover/osterstrasse-10", "contact:facebook": "https://www.facebook.com/252166399058750", "opening_hours": "Mo-Sa 10:00-20:00", "brand": "Primark", "brand:wikidata": "Q137023", "nsi_id": "primark-5d2556"}, "geometry": {"type": "Point", "coordinates": [9.7359702, 52.3741111]}},
{"type": "Feature", "id": "dAIjKidkWPog-wtx0sjEgUi7bIM=", "properties": {"ref": "821", "payment:google_pay": "yes", "payment:apple_pay": "yes", "payment:cash": "yes", "payment:maestro": "yes", "payment:mastercard": "yes", "payment:visa": "yes", "@spider": "primark", "shop": "clothes", "addr:street_address": "Billstedt-Center, M\u00f6llner Landstra\u00dfe 1", "addr:city": "Hamburg", "addr:postcode": "22111", "addr:country": "DE", "name": "Primark", "phone": "+494073675811", "website": "https://stores.primark.com/fr_fr/allemagne/hamburg/billstedt-center", "contact:facebook": "https://www.facebook.com/224288581332148", "opening_hours": "Mo-Sa 10:00-20:00", "brand": "Primark", "brand:wikidata": "Q137023", "nsi_id": "primark-5d2556"}, "geometry": {"type": "Point", "coordinates": [10.104634440475593, 53.540061442541834]}},
{"type": "Feature", "id": "3mfN9uvkEV2d0UZzo7P4Mr1r-sU=", "properties": {"ref": "802", "payment:google_pay": "yes", "payment:apple_pay": "yes", "payment:cash": "yes", "payment:maestro": "yes", "payment:mastercard": "yes", "payment:visa": "yes", "@spider": "primark", "shop": "clothes", "addr:street_address": "Bahnhofstrasse 41", "addr:city": "Gelsenkirchen", "addr:postcode": "45879", "addr:country": "DE", "name": "Primark", "phone": "+4920912041514", "website": "https://stores.primark.com/fr_fr/allemagne/gelsenkirchen/bahnhofstrasse-41", "contact:facebook": "https://www.facebook.com/571141096238488", "opening_hours": "Mo-Sa 10:00-20:00", "brand": "Primark", "brand:wikidata": "Q137023", "nsi_id": "primark-5d2556"}, "geometry": {"type": "Point", "coordinates": [7.098442018032074, 51.508276695480596]}},
{"type": "Feature", "id": "5EwEhBIYpYdtjRX3MUInB6SfVQk=", "properties": {"ref": "809", "payment:google_pay": "yes", "payment:apple_pay": "yes", "payment:cash": "yes", "payment:maestro": "yes", "payment:mastercard": "yes", "payment:visa": "yes", "@spider": "primark", "shop": "clothes", "addr:street_address": "Zeil 94", "addr:city": "Frankfurt", "addr:postcode": "60313", "addr:country": "DE", "name": "Primark", "phone": "+496929723556", "website": "https://stores.primark.com/fr_fr/allemagne/frankfurt/zeil-94", "contact:facebook": "https://www.facebook.com/383730295037188", "opening_hours": "Mo-Sa 10:00-21:00", "brand": "Primark", "brand:wikidata": "Q137023", "nsi_id": "primark-5d2556"}, "geometry": {"type": "Point", "coordinates": [8.6837214, 50.1148662]}},
{"type": "Feature", "id": "WVNp1QRX5-7sPCcoRYJ-7QTOiZE=", "properties": {"ref": "801", "payment:google_pay": "yes", "payment:apple_pay": "yes", "payment:cash": "yes", "payment:maestro": "yes", "payment:mastercard": "yes", "payment:visa": "yes", "@spider": "primark", "shop": "clothes", "addr:street_address": "Limescorso 15, Nordwestzentrum", "addr:city": "Frankfurt", "addr:postcode": "60439", "addr:country": "DE", "name": "Primark", "phone": "+496957003738", "website": "https://stores.primark.com/fr_fr/allemagne/frankfurt/limescorso-15", "contact:facebook": "https://www.facebook.com/230982430392480", "opening_hours": "Mo-Sa 10:00-20:00", "brand": "Primark", "brand:wikidata": "Q137023", "nsi_id": "primark-5d2556"}, "geometry": {"type": "Point", "coordinates": [8.632392, 50.157299]}},
{"type": "Feature", "id": "ZFfD0Y4ii68TRKRsI3MKzyxo3c4=", "properties": {"ref": "804", "payment:google_pay": "yes", "payment:apple_pay": "yes", "payment:cash": "yes", "payment:maestro": "yes", "payment:mastercard": "yes", "payment:visa": "yes", "@spider": "primark", "shop": "clothes", "addr:street_address": "Kettwiger Strasse 39", "addr:city": "Essen", "addr:postcode": "45127", "addr:country": "DE", "name": "Primark", "phone": "+4920163298000", "website": "https://stores.primark.com/fr_fr/allemagne/essen/kettwiger-strasse-39", "contact:facebook": "https://www.facebook.com/298587656847627", "opening_hours": "Mo-Sa 10:00-20:00", "brand": "Primark", "brand:wikidata": "Q137023", "nsi_id": "primark-5d2556"}, "geometry": {"type": "Point", "coordinates": [7.0119622349739075, 51.456091096858344]}},
{"type": "Feature", "id": "iitLh-kwXh-6bQmhwyY_qJ62aaI=", "properties": {"ref": "811", "payment:google_pay": "yes", "payment:apple_pay": "yes", "payment:cash": "yes", "payment:maestro": "yes", "payment:mastercard": "yes", "payment:visa": "yes", "@spider": "primark", "shop": "clothes", "addr:street_address": "Schadowstra\u00dfe 56-58", "addr:city": "Dusseldorf", "addr:postcode": "40212", "addr:country": "DE", "name": "Primark", "phone": "+4921116097974", "website": "https://stores.primark.com/fr_fr/allemagne/dusseldorf/schadowstra%C3%9Fe-56-58", "contact:facebook": "https://www.facebook.com/710231788992756", "opening_hours": "Mo-Sa 10:00-20:00", "brand": "Primark", "brand:wikidata": "Q137023", "nsi_id": "primark-5d2556"}, "geometry": {"type": "Point", "coordinates": [6.7846401, 51.2271735]}},
{"type": "Feature", "id": "0f4S2FXfrQe9eAEWnKljQLuWgT4=", "properties": {"ref": "818", "payment:google_pay": "yes", "payment:apple_pay": "yes", "payment:cash": "yes", "payment:maestro": "yes", "payment:mastercard": "yes", "payment:visa": "yes", "@spider": "primark", "shop": "clothes", "addr:street_address": "Centrum Galerie Dresden, Prager Strasse 15", "addr:city": "Dresden", "addr:postcode": "01069", "addr:country": "DE", "name": "Primark", "phone": "+4935148618790", "website": "https://stores.primark.com/fr_fr/allemagne/dresden/centrum-galerie-dresden", "contact:facebook": "https://www.facebook.com/242604436523352", "opening_hours": "Mo-Sa 09:30-20:00", "brand": "Primark", "brand:wikidata": "Q137023", "nsi_id": "primark-5d2556"}, "geometry": {"type": "Point", "coordinates": [13.734371960163116, 51.04585100394042]}},
{"type": "Feature", "id": "Jvr9n8Q6ElogG2V3Z8Yb3SMs7AE=", "properties": {"ref": "807", "payment:google_pay": "yes", "payment:apple_pay": "yes", "payment:cash": "yes", "payment:maestro": "yes", "payment:mastercard": "yes", "payment:visa": "yes", "@spider": "primark", "shop": "clothes", "addr:street_address": "Westenhellweg 102-106", "addr:city": "Dortmund", "addr:postcode": "44137", "addr:country": "DE", "name": "Primark", "phone": "+492312867645", "website": "https://stores.primark.com/fr_fr/allemagne/dortmund/westenhellweg-102-106", "contact:facebook": "https://www.facebook.com/1512974588744968", "opening_hours": "Mo-Sa 10:00-20:00", "brand": "Primark", "brand:wikidata": "Q137023", "nsi_id": "primark-5d2556"}, "geometry": {"type": "Point", "coordinates": [7.460527728836041, 51.512911599747085]}},
{"type": "Feature", "id": "ZLMu4O7P5-V1vBpyAwGFX-d0_ww=", "properties": {"ref": "812", "payment:google_pay": "yes", "payment:apple_pay": "yes", "payment:cash": "yes", "payment:maestro": "yes", "payment:mastercard": "yes", "payment:visa": "yes", "@spider": "primark", "shop": "clothes", "addr:street_address": "Neumarkt Galerie, Neumarkt 2-4", "addr:city": "Cologne", "addr:postcode": "50667", "addr:country": "DE", "name": "Primark", "phone": "+4922127098893", "website": "https://stores.primark.com/fr_fr/allemagne/cologne/neumarkt-galerie", "contact:facebook": "https://www.facebook.com/118800801999992", "opening_hours": "Mo-Sa 10:00-21:00", "brand": "Primark", "brand:wikidata": "Q137023", "nsi_id": "primark-5d2556"}, "geometry": {"type": "Point", "coordinates": [6.948336728836011, 50.93738285852582]}},
{"type": "Feature", "id": "2SHMVZiA9yPvSkmUAmqha1nzlmU=", "properties": {"ref": "800", "payment:google_pay": "yes", "payment:apple_pay": "yes", "payment:cash": "yes", "payment:maestro": "yes", "payment:mastercard": "yes", "payment:visa": "yes", "@spider": "primark", "shop": "clothes", "addr:street_address": "Waterfront AG Weser Strase 3", "addr:city": "Bremen", "addr:postcode": "28237", "addr:country": "DE", "name": "Primark", "phone": "+4942169109882", "website": "https://stores.primark.com/fr_fr/allemagne/bremen/waterfront-ag-weser-strase-3", "contact:facebook": "https://www.facebook.com/178389398850085", "opening_hours": "Mo-Sa 10:00-20:00", "brand": "Primark", "brand:wikidata": "Q137023", "nsi_id": "primark-5d2556"}, "geometry": {"type": "Point", "coordinates": [8.7497884, 53.1095107]}},
{"type": "Feature", "id": "psoSJxigK4CVgCDg-hXhbwJ4bXM=", "properties": {"ref": "814", "payment:google_pay": "yes", "payment:apple_pay": "yes", "payment:cash": "yes", "payment:maestro": "yes", "payment:mastercard": "yes", "payment:visa": "yes", "@spider": "primark", "shop": "clothes", "addr:street_address": "City Point Braunschweig, Sack 5", "addr:city": "Braunschweig", "addr:postcode": "38100", "addr:country": "DE", "name": "Primark", "phone": "+4953161285010", "website": "https://stores.primark.com/fr_fr/allemagne/braunschweig/city-point-braunschweig", "contact:facebook": "https://www.facebook.com/144372262917977", "opening_hours": "Mo-Sa 09:30-20:00", "brand": "Primark", "brand:wikidata": "Q137023", "nsi_id": "primark-5d2556"}, "geometry": {"type": "Point", "coordinates": [10.520975589752197, 52.26471025244613]}},
{"type": "Feature", "id": "l_p08kUF6pVP9TzrmYLbhhg7awo=", "properties": {"ref": "824", "payment:google_pay": "yes", "payment:apple_pay": "yes", "payment:cash": "yes", "payment:maestro": "yes", "payment:mastercard": "yes", "payment:visa": "yes", "@spider": "primark", "shop": "clothes", "addr:street_address": "Poststra\u00dfe 2-4, Maximiliancenter", "addr:city": "Bonn", "addr:postcode": "53111", "addr:country": "DE", "name": "Primark", "phone": "+4922829976480", "website": "https://stores.primark.com/fr_fr/allemagne/bonn/poststra%C3%9Fe-2-4", "contact:facebook": "https://www.facebook.com/Primark-505559853587302/", "opening_hours": "Mo-Sa 10:30-19:30", "brand": "Primark", "brand:wikidata": "Q137023", "nsi_id": "primark-5d2556"}, "geometry": {"type": "Point", "coordinates": [7.097593352464401, 50.73253921919051]}},
{"type": "Feature", "id": "8u6eemxNSowSp7hgRNJwUnntRps=", "properties": {"ref": "831", "payment:google_pay": "yes", "payment:apple_pay": "yes", "payment:cash": "yes", "payment:maestro": "yes", "payment:mastercard": "yes", "payment:visa": "yes", "@spider": "primark", "shop": "clothes", "addr:street_address": "Centre commercial Loom, Bahnhofstra\u00dfe 28", "addr:city": "Bielefeld", "addr:postcode": "33602", "addr:country": "DE", "name": "Primark", "phone": "+495218988003", "website": "https://stores.primark.com/fr_fr/allemagne/bielefeld/centre-commercial-loom", "contact:facebook": "https://www.facebook.com/637200423318697", "opening_hours": "Mo-Sa 09:30-20:00", "brand": "Primark", "brand:wikidata": "Q137023", "nsi_id": "primark-5d2556"}, "geometry": {"type": "Point", "coordinates": [8.532033, 52.025665]}},
{"type": "Feature", "id": "E1MguSybIUamF2Tqs4_pRZLsnz8=", "properties": {"ref": "830", "payment:google_pay": "yes", "payment:apple_pay": "yes", "payment:cash": "yes", "payment:maestro": "yes", "payment:mastercard": "yes", "payment:visa": "yes", "@spider": "primark", "shop": "clothes", "addr:street_address": "ZOOM Berlin, Joachimsthaler Strasse 1-3", "addr:city": "Berlin", "addr:state": "Germany", "addr:postcode": "10623", "addr:country": "DE", "name": "Primark", "phone": "+493030809560", "website": "https://stores.primark.com/fr_fr/allemagne/berlin/zoom-berlin", "contact:facebook": "https://www.facebook.com/251751542204197", "opening_hours": "Mo-Sa 10:00-20:00", "brand": "Primark", "brand:wikidata": "Q137023", "nsi_id": "primark-5d2556"}, "geometry": {"type": "Point", "coordinates": [13.331362694442763, 52.50555606869298]}},
{"type": "Feature", "id": "J83VrHtnLBep-6PZe93GLx_5ZrI=", "properties": {"ref": "806", "payment:google_pay": "yes", "payment:apple_pay": "yes", "payment:cash": "yes", "payment:maestro": "yes", "payment:mastercard": "yes", "payment:visa": "yes", "@spider": "primark", "shop": "clothes", "addr:street_address": "Walther-Schreiber-Platz 1", "addr:city": "Berlin", "addr:postcode": "12161", "addr:country": "DE", "name": "Primark", "phone": "+493081006758", "website": "https://stores.primark.com/fr_fr/allemagne/berlin/walther-schreiber-platz-1", "contact:facebook": "https://www.facebook.com/541934299511788", "opening_hours": "Mo-Sa 09:00-20:00", "brand": "Primark", "brand:wikidata": "Q137023", "nsi_id": "primark-5d2556"}, "geometry": {"type": "Point", "coordinates": [13.327704413155303, 52.46560000983906]}},
{"type": "Feature", "id": "sClL0Yj8pWA4EOlRSy5azxAlKYE=", "properties": {"ref": "829", "payment:mastercard": "yes", "payment:visa": "yes", "@spider": "primark", "shop": "clothes", "addr:street_address": "Gropius Passagen, Johannisthaler Chaussee 301", "addr:city": "Berlin", "addr:state": "Germany", "addr:postcode": "12351", "addr:country": "DE", "name": "Primark", "phone": "+4930403675310", "website": "https://stores.primark.com/fr_fr/allemagne/berlin/gropius-passagen", "contact:facebook": "https://www.facebook.com/106360254431617", "opening_hours": "Mo-Sa 10:00-20:00", "brand": "Primark", "brand:wikidata": "Q137023", "nsi_id": "primark-5d2556"}, "geometry": {"type": "Point", "coordinates": [13.4568114, 52.4301816]}},
{"type": "Feature", "id": "n7QM51bWcyTvCFm-Hxu6GHq1-00=", "properties": {"ref": "808", "payment:google_pay": "yes", "payment:apple_pay": "yes", "payment:cash": "yes", "payment:maestro": "yes", "payment:mastercard": "yes", "payment:visa": "yes", "@spider": "primark", "shop": "clothes", "addr:street_address": "Alexanderplatz 5-7", "addr:city": "Berlin", "addr:postcode": "10178", "addr:country": "DE", "name": "Primark", "phone": "+493023457162", "website": "https://stores.primark.com/fr_fr/allemagne/berlin/alexanderplatz-5-7", "contact:facebook": "https://www.facebook.com/854698074548431", "opening_hours": "Mo-We 10:00-21:00; Th-Sa 10:00-22:00", "brand": "Primark", "brand:wikidata": "Q137023", "nsi_id": "primark-5d2556"}, "geometry": {"type": "Point", "coordinates": [13.416491, 52.522971]}},
{"type": "Feature", "id": "v2_INYJS2u1m4GlY5UbTbJieUjo=", "properties": {"ref": "895", "@spider": "primark", "shop": "clothes", "addr:street_address": "V\u00e1clavsk\u00e9 n\u00e1m\u011bst\u00ed 47, V\u00e1clavsk\u00e9 n\u00e1m. 47", "addr:city": "Praha", "addr:postcode": "11000", "addr:country": "CZ", "name": "Primark", "phone": "+420255712679", "website": "https://stores.primark.com/fr_be/tchequie/praha/vaclavske-namesti-47", "opening_hours": "Mo-Su 09:00-21:00", "brand": "Primark", "brand:wikidata": "Q137023", "nsi_id": "primark-5d2556"}, "geometry": {"type": "Point", "coordinates": [14.4287112, 50.0806712]}},
{"type": "Feature", "id": "pWpRCDGs8MPlpR-cMuP8FEO6gM8=", "properties": {"ref": "795", "payment:google_pay": "yes", "payment:cash": "yes", "payment:maestro": "yes", "payment:mastercard": "yes", "payment:visa": "yes", "@spider": "primark", "shop": "clothes", "addr:street_address": "TOP 122, CityPark, Smartinska 152g, 1000", "addr:city": "Ljubljana", "addr:postcode": "1000", "addr:country": "SI", "name": "Primark", "phone": "+38615201860", "website": "https://stores.primark.com/fr_be/slovenie/ljubljana/top-122-citypark", "contact:facebook": "https://www.facebook.com/683478478778731", "opening_hours": "Mo-Fr 09:00-21:00; Sa 08:00-21:00", "brand": "Primark", "brand:wikidata": "Q137023", "nsi_id": "primark-5d2556"}, "geometry": {"type": "Point", "coordinates": [14.5457129, 46.0690266]}},
{"type": "Feature", "id": "gGgDBpG0rcg5oom0DrHx0DuTC_w=", "properties": {"ref": "431", "payment:google_pay": "yes", "payment:cash": "yes", "payment:mastercard": "yes", "payment:visa": "yes", "@spider": "primark", "shop": "clothes", "addr:street_address": "Rua Sara Afonso 105-117 - Loja A0438, Senhora da Hora", "addr:city": "Porto", "addr:state": "Rio Tinto", "addr:postcode": "4460-841", "addr:country": "PT", "name": "Primark", "phone": "+351220280251", "website": "https://stores.primark.com/fr_be/portugal/porto/rua-sara-afonso-105-117-loja-a0438", "contact:facebook": "https://www.facebook.com/597379310594043", "opening_hours": "Mo-Su 10:00-23:00", "brand": "Primark", "brand:wikidata": "Q137023", "nsi_id": "primark-5d2556"}, "geometry": {"type": "Point", "coordinates": [-8.655579175260813, 41.180637177519266]}},
{"type": "Feature", "id": "zjxSLQ_znKsNY7qDoem2srzT9No=", "properties": {"ref": "421", "payment:google_pay": "yes", "payment:cash": "yes", "payment:mastercard": "yes", "payment:visa": "yes", "@spider": "primark", "shop": "clothes", "addr:street_address": "Centre commercial Parque Nascente, Unit 431, Praceta Parque Nascente, 35", "addr:city": "Porto", "addr:state": "Rio Tinto", "addr:postcode": "4435-182", "addr:country": "PT", "name": "Primark", "phone": "+351224885589", "website": "https://stores.primark.com/fr_be/portugal/porto/centre-commercial-parque-nascente", "contact:facebook": "https://www.facebook.com/962862023879443", "opening_hours": "Mo 10:00-24:00; Tu-Th 10:00-23:00; Fr-Sa 10:00-24:00; Su 10:00-23:00", "brand": "Primark", "brand:wikidata": "Q137023", "nsi_id": "primark-5d2556"}, "geometry": {"type": "Point", "coordinates": [-8.5666791, 41.1737393]}},
{"type": "Feature", "id": "MGKxC42CHWpD5QifghABxEY3pYQ=", "properties": {"ref": "423", "payment:google_pay": "yes", "payment:cash": "yes", "payment:mastercard": "yes", "payment:visa": "yes", "@spider": "primark", "shop": "clothes", "addr:street_address": "Urb. Quinta S. Pedro, Cardosas Lote A, Boavista", "addr:city": "Portimao", "addr:postcode": "8500-616", "addr:country": "PT", "name": "Primark", "phone": "+351282422620", "website": "https://stores.primark.com/fr_be/portugal/portimao/urb-quinta-s-pedro", "contact:facebook": "https://www.facebook.com/320249898487095", "opening_hours": "Mo-Su 10:00-23:00", "brand": "Primark", "brand:wikidata": "Q137023", "nsi_id": "primark-5d2556"}, "geometry": {"type": "Point", "coordinates": [-8.5432137, 37.1475719]}},
{"type": "Feature", "id": "l16BmMNRYgoFhiroVrd0FheUJYM=", "properties": {"ref": "420", "payment:google_pay": "yes", "payment:cash": "yes", "payment:mastercard": "yes", "payment:visa": "yes", "@spider": "primark", "shop": "clothes", "addr:street_address": "Centre commercial Dolce Vita Tejo, Avenida Cruzeiro Seixas, 5 e 7 Amadora, Loja 1006", "addr:city": "Lisbon", "addr:postcode": "2650-504", "addr:country": "PT", "name": "Primark", "phone": "+351214792377", "website": "https://stores.primark.com/fr_be/portugal/lisbon/centre-commercial-dolce-vita-tejo", "contact:facebook": "https://www.facebook.com/1843291315712796", "opening_hours": "Mo 10:00-23:00; Tu 10:00-12:00; We 10:00-11:00; Th 10:00-23:00; Fr-Sa 10:00-24:00; Su 10:00-23:00", "brand": "Primark", "brand:wikidata": "Q137023", "nsi_id": "primark-5d2556"}, "geometry": {"type": "Point", "coordinates": [-9.2188687, 38.7778514]}},
{"type": "Feature", "id": "B22KAhuwZoC5LWBgzgq6OjDvrs4=", "properties": {"ref": "427", "payment:google_pay": "yes", "payment:cash": "yes", "payment:mastercard": "yes", "payment:visa": "yes", "@spider": "primark", "shop": "clothes", "addr:street_address": "Centre commercial Colombo, Avenida Lusiada", "addr:city": "Lisbon", "addr:postcode": "1550-392", "addr:country": "PT", "name": "Primark", "phone": "+351217150772", "website": "https://stores.primark.com/fr_be/portugal/lisbon/centre-commercial-colombo", "contact:facebook": "https://www.facebook.com/427267114397152", "opening_hours": "Mo-Su 10:00-24:00", "brand": "Primark", "brand:wikidata": "Q137023", "nsi_id": "primark-5d2556"}, "geometry": {"type": "Point", "coordinates": [-9.189788084655788, 38.755190966971874]}},
{"type": "Feature", "id": "hMihNLcWqekOcYzatSYea3nWQT8=", "properties": {"ref": "422", "payment:google_pay": "yes", "payment:cash": "yes", "payment:mastercard": "yes", "payment:visa": "yes", "@spider": "primark", "shop": "clothes", "addr:street_address": "C.C. Alegro Sintra, IC19 - Alto do Forte Rio de Mouro, Sintra", "addr:city": "Lisbon", "addr:postcode": "2635-018", "addr:country": "PT", "name": "Primark", "phone": "+351219258695", "website": "https://stores.primark.com/fr_be/portugal/lisbon/cc-alegro-sintra", "contact:facebook": "https://www.facebook.com/241115296083394", "opening_hours": "Mo-Su 10:00-23:00", "brand": "Primark", "brand:wikidata": "Q137023", "nsi_id": "primark-5d2556"}, "geometry": {"type": "Point", "coordinates": [-9.3386116, 38.7751607]}},
{"type": "Feature", "id": "B21zaV7vsRk1dVt_7Fz68tR0myw=", "properties": {"ref": "425", "payment:google_pay": "yes", "payment:cash": "yes", "payment:mastercard": "yes", "payment:visa": "yes", "@spider": "primark", "shop": "clothes", "addr:street_address": "Centre commercial Forum Coimbra, Av. Jose Bonificacio de Andrade e Silva 1, Almegue Santa Clara, Coimbra", "addr:city": "Coimbra", "addr:postcode": "3040-389", "addr:country": "PT", "name": "Primark", "phone": "+351239800916", "website": "https://stores.primark.com/fr_be/portugal/coimbra/centre-commercial-forum-coimbra", "contact:facebook": "https://www.facebook.com/238101402994011", "opening_hours": "Mo-Th 10:00-23:00; Fr-Sa 10:00-24:00; Su 10:00-23:00", "brand": "Primark", "brand:wikidata": "Q137023", "nsi_id": "primark-5d2556"}, "geometry": {"type": "Point", "coordinates": [-8.443752229213715, 40.21224613096671]}},
{"type": "Feature", "id": "Z14QSINPnUVojSshUMUAqUz3dgQ=", "properties": {"ref": "424", "payment:google_pay": "yes", "payment:cash": "yes", "payment:mastercard": "yes", "payment:visa": "yes", "@spider": "primark", "shop": "clothes", "addr:street_address": "Centre commercial Braga Parque, Quinta dos Congregados", "addr:city": "Braga", "addr:postcode": "4710-427", "addr:country": "PT", "name": "Primark", "phone": "+351253253519", "website": "https://stores.primark.com/fr_be/portugal/braga/centre-commercial-braga-parque", "contact:facebook": "https://www.facebook.com/606525703153607", "opening_hours": "Mo-Su 10:00-23:00", "brand": "Primark", "brand:wikidata": "Q137023", "nsi_id": "primark-5d2556"}, "geometry": {"type": "Point", "coordinates": [-8.40535258502996, 41.557730883272775]}},
{"type": "Feature", "id": "C9er_qR1ihOO9Uh1khtNh6B3TLc=", "properties": {"ref": "429", "payment:google_pay": "yes", "payment:cash": "yes", "payment:mastercard": "yes", "payment:visa": "yes", "@spider": "primark", "shop": "clothes", "addr:street_address": "Centre commercial MAR Shopping, Loja 0.19", "addr:city": "Almancil", "addr:state": "Loul\u00e9", "addr:postcode": "8135-014", "addr:country": "PT", "name": "Primark", "phone": "+351289543414", "website": "https://stores.primark.com/fr_be/portugal/almancil/centre-commercial-mar-shopping", "contact:facebook": "https://www.facebook.com/1427063397420249", "opening_hours": "Mo-Su 10:00-23:00", "brand": "Primark", "brand:wikidata": "Q137023", "nsi_id": "primark-5d2556"}, "geometry": {"type": "Point", "coordinates": [-7.9976882, 37.099224]}},
{"type": "Feature", "id": "9VETIbRVw0vh2KrGN4G68va9id8=", "properties": {"ref": "430", "payment:google_pay": "yes", "payment:cash": "yes", "payment:mastercard": "yes", "payment:visa": "yes", "@spider": "primark", "shop": "clothes", "addr:street_address": "Centre commercial Almada Forum, Rua S\u00e9rgio Malpique", "addr:city": "Almada", "addr:postcode": "2810-354", "addr:country": "PT", "name": "Primark", "phone": "+351212591886", "website": "https://stores.primark.com/fr_be/portugal/almada/centre-commercial-almada-forum", "contact:facebook": "https://www.facebook.com/1678863989047949", "opening_hours": "Mo-Su 10:00-24:00", "brand": "Primark", "brand:wikidata": "Q137023", "nsi_id": "primark-5d2556"}, "geometry": {"type": "Point", "coordinates": [-9.1737032, 38.6591258]}},
{"type": "Feature", "id": "gbQLh-thZHTExIzlZ0QR27n2uY0=", "properties": {"ref": "765", "@spider": "primark", "shop": "clothes", "addr:street_address": "Galeria\u00a0M\u0142ociny, Zgrupowania\u00a0AK, \"Kampinos\" 15", "addr:city": "Warszawa", "addr:postcode": "01-943", "addr:country": "PL", "name": "Primark", "phone": "+48223003061", "website": "https://stores.primark.com/fr_be/pologne/warszawa/galeria-m%C5%82ociny", "opening_hours": "Mo-Sa 10:00-22:00", "brand": "Primark", "brand:wikidata": "Q137023", "nsi_id": "primark-5d2556"}, "geometry": {"type": "Point", "coordinates": [20.932226206359882, 52.29652733022141]}},
{"type": "Feature", "id": "cIIonmgQV2jh8bHuktc3VrwiBU4=", "properties": {"ref": "767", "@spider": "primark", "shop": "clothes", "addr:street_address": "Posnania Mall, Pleszewska 1", "addr:city": "Pozna\u0144", "addr:postcode": "61-139", "addr:country": "PL", "name": "Primark", "phone": "+48614236094", "website": "https://stores.primark.com/fr_be/pologne/poznan/posnania-mall", "opening_hours": "Mo-Sa 10:00-22:00", "brand": "Primark", "brand:wikidata": "Q137023", "nsi_id": "primark-5d2556"}, "geometry": {"type": "Point", "coordinates": [16.9568171, 52.3956934]}},
{"type": "Feature", "id": "7InCFzdMuqM89AjIX9LMdCYcBb4=", "properties": {"ref": "719", "payment:google_pay": "yes", "payment:cash": "yes", "payment:maestro": "yes", "payment:mastercard": "yes", "payment:visa": "yes", "@spider": "primark", "shop": "clothes", "addr:street_address": "Melkmarkt 3", "addr:city": "Zwolle", "addr:postcode": "8011MA", "addr:country": "NL", "name": "Primark", "phone": "+31384218328", "website": "https://stores.primark.com/fr_be/pays-bas/zwolle/melkmarkt-3", "contact:facebook": "https://www.facebook.com/1875027386134838", "opening_hours": "Mo 11:00-18:00; Tu-We 10:00-18:00; Th 10:00-21:00; Fr 10:00-18:00; Sa 09:00-18:00; Su 12:00-17:00", "brand": "Primark", "brand:wikidata": "Q137023", "nsi_id": "primark-5d2556"}, "geometry": {"type": "Point", "coordinates": [6.091526207340166, 52.5125374998047]}},
{"type": "Feature", "id": "tfE1WaRe47kgA4UpQYhVcaY1DIU=", "properties": {"ref": "707", "payment:google_pay": "yes", "payment:cash": "yes", "payment:maestro": "yes", "payment:mastercard": "yes", "payment:visa": "yes", "@spider": "primark", "shop": "clothes", "addr:street_address": "Burgermeester van Leeuwenpassage 2-8", "addr:city": "Zoetermeer", "addr:postcode": "2711JV", "addr:country": "NL", "name": "Primark", "phone": "+31793521690", "website": "https://stores.primark.com/fr_be/pays-bas/zoetermeer/burgermeester-van-leeuwenpassage-2-8", "contact:facebook": "https://www.facebook.com/1842675469097763", "opening_hours": "Mo-Th 10:00-18:00; Fr 10:00-21:00; Sa 09:00-19:00; Su 11:00-18:00", "brand": "Primark", "brand:wikidata": "Q137023", "nsi_id": "primark-5d2556"}, "geometry": {"type": "Point", "coordinates": [4.4844006, 52.0613575]}},
{"type": "Feature", "id": "Zrm4R2vxNE78XIL-cvUNfPza9d8=", "properties": {"ref": "703", "payment:google_pay": "yes", "payment:cash": "yes", "payment:maestro": "yes", "payment:mastercard": "yes", "payment:visa": "yes", "@spider": "primark", "shop": "clothes", "addr:street_address": "Ankersmidplein 7", "addr:city": "Zaandam", "addr:postcode": "1506CK", "addr:country": "NL", "name": "Primark", "phone": "+31756170733", "website": "https://stores.primark.com/fr_be/pays-bas/zaandam/ankersmidplein-7", "contact:facebook": "https://www.facebook.com/1653690224692537", "opening_hours": "Mo 11:00-18:00; Tu-We 10:00-18:00; Th 10:00-21:00; Fr 10:00-18:00; Sa 09:00-18:00; Su 11:00-16:45", "brand": "Primark", "brand:wikidata": "Q137023", "nsi_id": "primark-5d2556"}, "geometry": {"type": "Point", "coordinates": [4.816963644180305, 52.438674771465465]}},
{"type": "Feature", "id": "0MvMp2CwMT7gl_KHKQe4_LenXlc=", "properties": {"ref": "710", "payment:google_pay": "yes", "payment:cash": "yes", "payment:maestro": "yes", "payment:mastercard": "yes", "payment:visa": "yes", "@spider": "primark", "shop": "clothes", "addr:street_address": "Oude Markt 36", "addr:city": "Venlo", "addr:postcode": "5911HH", "addr:country": "NL", "name": "Primark", "phone": "+31773520881", "website": "https://stores.primark.com/fr_be/pays-bas/venlo/oude-markt-36", "contact:facebook": "https://www.facebook.com/1589061884728079", "opening_hours": "Mo 11:00-18:00; Tu-We 10:00-18:00; Th 10:00-21:00; Fr 10:00-18:00; Sa 09:00-18:30; Su 11:30-18:00", "brand": "Primark", "brand:wikidata": "Q137023", "nsi_id": "primark-5d2556"}, "geometry": {"type": "Point", "coordinates": [6.16729425396727, 51.3705105124616]}},
{"type": "Feature", "id": "_WzqE8JZBcxfziIelC32t2kd58g=", "properties": {"ref": "721", "payment:google_pay": "yes", "payment:cash": "yes", "payment:maestro": "yes", "payment:mastercard": "yes", "payment:visa": "yes", "@spider": "primark", "shop": "clothes", "addr:street_address": "Rijnkade 5", "addr:city": "Utrecht", "addr:postcode": "3511 LC", "addr:country": "NL", "name": "Primark", "phone": "+31302242890", "website": "https://stores.primark.com/fr_be/pays-bas/utrecht/rijnkade-5", "contact:facebook": "https://www.facebook.com/2527343447489617", "opening_hours": "Mo-We 10:00-19:00; Th 10:00-21:00; Fr-Sa 10:00-19:00; Su 11:00-19:00", "brand": "Primark", "brand:wikidata": "Q137023", "nsi_id": "primark-5d2556"}, "geometry": {"type": "Point", "coordinates": [5.111612705515654, 52.08573475278574]}},
{"type": "Feature", "id": "mRBGnRAQWP-XZL4jGwmnhNz_h1Y=", "properties": {"ref": "720", "payment:google_pay": "yes", "payment:cash": "yes", "payment:maestro": "yes", "payment:mastercard": "yes", "payment:visa": "yes", "@spider": "primark", "shop": "clothes", "addr:street_address": "Stadhuisstraat 3", "addr:city": "Tilburg", "addr:postcode": "5038 XZ", "addr:country": "NL", "name": "Primark", "phone": "+31138080193", "website": "https://stores.primark.com/fr_be/pays-bas/tilburg/stadhuisstraat-3", "contact:facebook": "https://www.facebook.com/277290346150525", "opening_hours": "Mo 11:00-18:00; Tu-We 10:00-18:00; Th 10:00-21:00; Fr 10:00-18:00; Sa 09:00-19:00; Su 12:00-18:00", "brand": "Primark", "brand:wikidata": "Q137023", "nsi_id": "primark-5d2556"}, "geometry": {"type": "Point", "coordinates": [5.08631908465577, 51.55540872881373]}},
{"type": "Feature", "id": "LhMX1uagUNLLfiym6GVus_g2trs=", "properties": {"ref": "712", "payment:google_pay": "yes", "payment:cash": "yes", "payment:maestro": "yes", "payment:mastercard": "yes", "payment:visa": "yes", "@spider": "primark", "shop": "clothes", "addr:street_address": "Zuiderterras 147-151", "addr:city": "Rotterdam", "addr:postcode": "3083BZ", "addr:country": "NL", "name": "Primark", "phone": "+31102939376", "website": "https://stores.primark.com/fr_be/pays-bas/rotterdam/zuiderterras-147-151", "contact:facebook": "https://www.facebook.com/1520664391559615", "opening_hours": "Mo-Th 10:00-18:00; Fr 10:00-21:00; Sa 09:00-18:00; Su 12:00-17:00", "brand": "Primark", "brand:wikidata": "Q137023", "nsi_id": "primark-5d2556"}, "geometry": {"type": "Point", "coordinates": [4.4889388, 51.885475]}},
{"type": "Feature", "id": "WnVzPv37KF_t5aKUCDckyFI2Rwo=", "properties": {"ref": "715", "@spider": "primark", "shop": "clothes", "addr:street_address": "Van Oldenbarneveltplaats 36", "addr:city": "Rotterdam", "addr:postcode": "3012 AH", "addr:country": "NL", "name": "Primark", "phone": "+31103009830", "website": "https://stores.primark.com/fr_be/pays-bas/rotterdam/van-oldenbarneveltplaats-36", "contact:facebook": "https://www.facebook.com/100432795503205", "opening_hours": "Mo-Th 10:00-19:00; Fr 10:00-21:00; Sa-Su 10:00-19:00", "brand": "Primark", "brand:wikidata": "Q137023", "nsi_id": "primark-5d2556"}, "geometry": {"type": "Point", "coordinates": [4.47727646262059, 51.9195384280102]}},
{"type": "Feature", "id": "0GN2YLzNS6jfTRYzriYEfmuN7yc=", "properties": {"ref": "700", "payment:google_pay": "yes", "payment:cash": "yes", "payment:maestro": "yes", "payment:mastercard": "yes", "payment:visa": "yes", "@spider": "primark", "shop": "clothes", "addr:street_address": "Poolsterplein 100", "addr:city": "Rotterdam", "addr:postcode": "3067LW", "addr:country": "NL", "name": "Primark", "phone": "+31104201211", "website": "https://stores.primark.com/fr_be/pays-bas/rotterdam/poolsterplein-100", "contact:facebook": "https://www.facebook.com/471106163065317", "opening_hours": "Mo-Th 10:00-18:00; Fr 10:00-21:00; Sa 09:00-18:00; Su 11:00-18:00", "brand": "Primark", "brand:wikidata": "Q137023", "nsi_id": "primark-5d2556"}, "geometry": {"type": "Point", "coordinates": [4.5565827, 51.9471858]}},
{"type": "Feature", "id": "uIl798-5SJ0522l5ExJbaniejEk=", "properties": {"ref": "702", "payment:google_pay": "yes", "payment:cash": "yes", "payment:maestro": "yes", "payment:mastercard": "yes", "payment:visa": "yes", "@spider": "primark", "shop": "clothes", "addr:street_address": "Plein 1944 No 136", "addr:city": "Nijmegen", "addr:postcode": "6511JH", "addr:country": "NL", "name": "Primark", "phone": "+31243224946", "website": "https://stores.primark.com/fr_be/pays-bas/nijmegen/plein-1944-no-136", "contact:facebook": "https://www.facebook.com/870488506394794", "opening_hours": "Mo-We 10:00-18:30; Th 10:00-21:00; Fr 10:00-18:30; Sa 09:00-18:30; Su 12:00-18:00", "brand": "Primark", "brand:wikidata": "Q137023", "nsi_id": "primark-5d2556"}, "geometry": {"type": "Point", "coordinates": [5.8630729, 51.8462125]}},
{"type": "Feature", "id": "vO__IojMq1J_Ng9OQ7zb1itJ0yI=", "properties": {"ref": "701", "payment:google_pay": "yes", "payment:cash": "yes", "payment:maestro": "yes", "payment:mastercard": "yes", "payment:visa": "yes", "@spider": "primark", "shop": "clothes", "addr:street_address": "Marktplein 254", "addr:city": "Hoofddorp", "addr:postcode": "2132CX", "addr:country": "NL", "name": "Primark", "phone": "+31235573111", "website": "https://stores.primark.com/fr_be/pays-bas/hoofddorp/marktplein-254", "contact:facebook": "https://www.facebook.com/467448036973924", "opening_hours": "Mo-Th 09:00-18:00; Fr 09:00-21:00; Sa 09:00-18:00; Su 11:00-18:00", "brand": "Primark", "brand:wikidata": "Q137023", "nsi_id": "primark-5d2556"}, "geometry": {"type": "Point", "coordinates": [4.6941706441803035, 52.30369107968041]}},
{"type": "Feature", "id": "CGntzh998ANrkZVyd2jyCORq6Ck=", "properties": {"ref": "718", "payment:google_pay": "yes", "payment:cash": "yes", "payment:maestro": "yes", "payment:mastercard": "yes", "payment:visa": "yes", "@spider": "primark", "shop": "clothes", "addr:street_address": "Hilvertshof 35", "addr:city": "Hilversum", "addr:postcode": "1211EA", "addr:country": "NL", "name": "Primark", "phone": "+31358080218", "website": "https://stores.primark.com/fr_be/pays-bas/hilversum/hilvertshof-35", "contact:facebook": "https://www.facebook.com/197149387669936", "opening_hours": "Mo 12:00-18:00; Tu-We 10:00-18:00; Th 10:00-21:00; Fr 10:00-18:00; Sa 09:00-18:00; Su 12:00-17:00", "brand": "Primark", "brand:wikidata": "Q137023", "nsi_id": "primark-5d2556"}, "geometry": {"type": "Point", "coordinates": [5.1754793, 52.2246932]}},
{"type": "Feature", "id": "Ty-AfL8R3CDAVLqnCO_NZbQikFA=", "properties": {"ref": "716", "payment:google_pay": "yes", "payment:cash": "yes", "payment:maestro": "yes", "payment:mastercard": "yes", "payment:visa": "yes", "@spider": "primark", "shop": "clothes", "addr:street_address": "Westerhaven 44", "addr:city": "Groningen", "addr:postcode": "9718AC", "addr:country": "NL", "name": "Primark", "phone": "+31503118750", "website": "https://stores.primark.com/fr_be/pays-bas/groningen/westerhaven-44", "contact:facebook": "https://www.facebook.com/345868209517095", "opening_hours": "Mo 11:00-18:00; Tu-We 10:00-18:00; Th 10:00-21:00; Fr 10:00-18:00; Sa 10:00-18:30; Su 12:00-18:00", "brand": "Primark", "brand:wikidata": "Q137023", "nsi_id": "primark-5d2556"}, "geometry": {"type": "Point", "coordinates": [6.5570764110450455, 53.2148559692529]}},
{"type": "Feature", "id": "fth_RHFJCP9s155iePnPUJx6q14=", "properties": {"ref": "709", "payment:google_pay": "yes", "payment:cash": "yes", "payment:maestro": "yes", "payment:mastercard": "yes", "payment:visa": "yes", "@spider": "primark", "shop": "clothes", "addr:street_address": "H.J Van Heekplein 90", "addr:city": "Enschede", "addr:postcode": "7511HN", "addr:country": "NL", "name": "Primark", "phone": "+31534346236", "website": "https://stores.primark.com/fr_be/pays-bas/enschede/hj-van-heekplein-90", "contact:facebook": "https://www.facebook.com/634384093343633", "opening_hours": "Mo 11:00-18:00; Tu-We 10:00-18:00; Th 10:00-21:00; Fr 10:00-18:00; Sa 09:00-19:00; Su 12:00-17:00", "brand": "Primark", "brand:wikidata": "Q137023", "nsi_id": "primark-5d2556"}, "geometry": {"type": "Point", "coordinates": [6.896535737434419, 52.21781201202851]}},
{"type": "Feature", "id": "-B6qk8JrlqvI2c9-Ww4rfuIoKIY=", "properties": {"ref": "705", "payment:google_pay": "yes", "payment:cash": "yes", "payment:maestro": "yes", "payment:mastercard": "yes", "payment:visa": "yes", "@spider": "primark", "shop": "clothes", "addr:street_address": "Vestdijk 2", "addr:city": "Eindhoven", "addr:postcode": "5611CC", "addr:country": "NL", "name": "Primark", "phone": "+31402369580", "website": "https://stores.primark.com/fr_be/pays-bas/eindhoven/vestdijk-2", "contact:facebook": "https://www.facebook.com/912352215507121", "opening_hours": "Mo-Th 10:00-19:00; Fr 10:00-21:00; Sa 10:00-19:00; Su 11:00-18:00", "brand": "Primark", "brand:wikidata": "Q137023", "nsi_id": "primark-5d2556"}, "geometry": {"type": "Point", "coordinates": [5.478362292051315, 51.44094055136952]}},
{"type": "Feature", "id": "0rXp-rtloH_DZ_NsJ-2XMMokRcU=", "properties": {"ref": "714", "payment:google_pay": "yes", "payment:cash": "yes", "payment:maestro": "yes", "payment:mastercard": "yes", "payment:visa": "yes", "@spider": "primark", "shop": "clothes", "addr:street_address": "Drievriendenhof 16", "addr:city": "Dordrecht", "addr:postcode": "3311NM", "addr:country": "NL", "name": "Primark", "phone": "+31235573112", "website": "https://stores.primark.com/fr_be/pays-bas/dordrecht/drievriendenhof-16", "contact:facebook": "https://www.facebook.com/151812781844050", "opening_hours": "Mo-We 10:00-18:00; Th 10:00-21:00; Fr-Sa 10:00-18:00; Su 12:00-17:00", "brand": "Primark", "brand:wikidata": "Q137023", "nsi_id": "primark-5d2556"}, "geometry": {"type": "Point", "coordinates": [4.6696587, 51.8130591]}},
{"type": "Feature", "id": "Tnc4kI4k7cydaRRR-RPjEQMZANU=", "properties": {"ref": "706", "payment:google_pay": "yes", "payment:cash": "yes", "payment:maestro": "yes", "payment:mastercard": "yes", "payment:visa": "yes", "@spider": "primark", "shop": "clothes", "addr:street_address": "Spui 50", "addr:city": "Den Haag", "addr:postcode": "2511BS", "addr:country": "NL", "name": "Primark", "phone": "+31703620433", "website": "https://stores.primark.com/fr_be/pays-bas/den-haag/spui-50", "contact:facebook": "https://www.facebook.com/1542807719343871", "opening_hours": "Mo-We 10:00-19:00; Th 10:00-21:00; Fr-Sa 10:00-19:00; Su 11:00-18:00", "brand": "Primark", "brand:wikidata": "Q137023", "nsi_id": "primark-5d2556"}, "geometry": {"type": "Point", "coordinates": [4.315061332506275, 52.07782835153984]}},
{"type": "Feature", "id": "nuH67E5tuzGleCmC9sLY9irZOmo=", "properties": {"ref": "708", "payment:google_pay": "yes", "payment:cash": "yes", "payment:maestro": "yes", "payment:mastercard": "yes", "payment:visa": "yes", "@spider": "primark", "shop": "clothes", "addr:street_address": "45 Ketelstraat", "addr:city": "Arnhem", "addr:postcode": "6811 CZ", "addr:country": "NL", "name": "Primark", "phone": "+31263895400", "website": "https://stores.primark.com/fr_be/pays-bas/arnhem/45-ketelstraat", "contact:facebook": "https://www.facebook.com/699127513530020", "opening_hours": "Mo-We 10:00-18:00; Th 10:00-21:00; Fr 10:00-18:00; Sa 09:00-18:00; Su 11:00-18:00", "brand": "Primark", "brand:wikidata": "Q137023", "nsi_id": "primark-5d2556"}, "geometry": {"type": "Point", "coordinates": [5.90863394546318, 51.981854906661816]}},
{"type": "Feature", "id": "yEwvYiuGPuV8HsCbHjvDzVvQU0Q=", "properties": {"ref": "713", "payment:google_pay": "yes", "payment:cash": "yes", "payment:maestro": "yes", "payment:mastercard": "yes", "payment:visa": "yes", "@spider": "primark", "shop": "clothes", "addr:street_address": "Damrak 77", "addr:city": "Amsterdam", "addr:postcode": "1012 LM", "addr:country": "NL", "name": "Primark", "phone": "+31206041521", "website": "https://stores.primark.com/fr_be/pays-bas/amsterdam/damrak-77", "contact:facebook": "https://www.facebook.com/566751276850909", "opening_hours": "Mo-Sa 10:00-21:00; Su 10:00-20:00", "brand": "Primark", "brand:wikidata": "Q137023", "nsi_id": "primark-5d2556"}, "geometry": {"type": "Point", "coordinates": [4.894425272941589, 52.37458395111685]}},
{"type": "Feature", "id": "sFz_ypeyKUyGbJnXtTaT0UWv7xc=", "properties": {"ref": "704", "payment:google_pay": "yes", "payment:cash": "yes", "payment:maestro": "yes", "payment:mastercard": "yes", "payment:visa": "yes", "@spider": "primark", "shop": "clothes", "addr:street_address": "Metropolestraat 11", "addr:city": "Almere", "addr:postcode": "1315KK", "addr:country": "NL", "name": "Primark", "phone": "+31365303588", "website": "https://stores.primark.com/fr_be/pays-bas/almere/metropolestraat-11", "contact:facebook": "https://www.facebook.com/617912634988484", "opening_hours": "Mo 11:00-18:00; Tu-We 09:00-18:00; Th 09:00-21:00; Fr-Sa 09:00-18:00; Su 11:00-18:00", "brand": "Primark", "brand:wikidata": "Q137023", "nsi_id": "primark-5d2556"}, "geometry": {"type": "Point", "coordinates": [5.220152735710144, 52.37422861666342]}},
{"type": "Feature", "id": "o1g55qW9XRJS0wEgg97OzykQF_g=", "properties": {"ref": "273", "payment:google_pay": "yes", "payment:apple_pay": "yes", "payment:cash": "yes", "payment:maestro": "yes", "payment:mastercard": "yes", "payment:visa": "yes", "@spider": "primark", "shop": "clothes", "addr:street_address": "Centre commercial Adigeo, Viale delle Nazioni", "addr:city": "Verona", "addr:state": "VR", "addr:postcode": "37135", "addr:country": "IT", "name": "Primark", "phone": "+39045502584", "website": "https://stores.primark.com/fr_be/italie/verona/centre-commercial-adigeo", "contact:facebook": "https://www.facebook.com/1735124100116536", "opening_hours": "Mo-Su 09:00-22:00", "brand": "Primark", "brand:wikidata": "Q137023", "nsi_id": "primark-5d2556"}, "geometry": {"type": "Point", "coordinates": [10.97761063956912, 45.40540270596193]}},
{"type": "Feature", "id": "kp1ALp3bNXh-xZ3C0dhyMHQ_CcE=", "properties": {"ref": "279", "@spider": "primark", "shop": "clothes", "addr:street_address": "Shoville \u201cLe Gru\u201d, Via Crea 10, Grugliasco", "addr:city": "Torino", "addr:state": "Turin", "addr:postcode": "10095", "addr:country": "IT", "name": "Primark Torino", "phone": "+390110712920", "website": "https://stores.primark.com/fr_be/italie/torino/shoville-%E2%80%9Cle-gru%E2%80%9D", "contact:facebook": "https://www.facebook.com/111808285050282", "opening_hours": "Mo-Su 09:00-22:00", "brand": "Primark", "brand:wikidata": "Q137023", "nsi_id": "primark-5d2556"}, "geometry": {"type": "Point", "coordinates": [7.61449, 45.05833]}},
{"type": "Feature", "id": "LXqOr_JiyItMONkZqxBmkKr0Y-g=", "properties": {"ref": "276", "payment:google_pay": "yes", "payment:apple_pay": "yes", "payment:cash": "yes", "payment:maestro": "yes", "payment:mastercard": "yes", "payment:visa": "yes", "@spider": "primark", "shop": "clothes", "addr:street_address": "Via Eugenio Curiel, 25", "addr:city": "Rozzano", "addr:state": "MI", "addr:postcode": "20089", "addr:country": "IT", "name": "Primark", "phone": "+390287141260", "website": "https://stores.primark.com/fr_be/italie/rozzano/via-eugenio-curiel-25", "contact:facebook": "https://www.facebook.com/112627046861048", "opening_hours": "Mo-Su 09:00-22:00", "brand": "Primark", "brand:wikidata": "Q137023", "nsi_id": "primark-5d2556"}, "geometry": {"type": "Point", "coordinates": [9.175665342325551, 45.38931106529404]}},
{"type": "Feature", "id": "EjWyjb6JBCG7BgVaSoxF0xNaRI0=", "properties": {"ref": "277", "@spider": "primark", "shop": "clothes", "addr:street_address": "Via Laurentina, 865", "addr:city": "Roma", "addr:postcode": "00143", "addr:country": "IT", "name": "Primark", "phone": "+390680307010", "website": "https://stores.primark.com/fr_be/italie/roma/via-laurentina-865", "contact:facebook": "https://www.facebook.com/100599128491720", "opening_hours": "Mo-Su 09:00-22:00", "brand": "Primark", "brand:wikidata": "Q137023", "nsi_id": "primark-5d2556"}, "geometry": {"type": "Point", "coordinates": [12.485923616276397, 41.808177441754125]}},
{"type": "Feature", "id": "4XQcKP9wmOZUM4mxeQvtr4FuEhw=", "properties": {"ref": "274", "@spider": "primark", "shop": "clothes", "addr:street_address": "Centro Commerciale \u201cRomaest\u201d, Via Collatina 858, Roma", "addr:city": "Roma", "addr:postcode": "00132", "addr:country": "IT", "name": "Primark", "phone": "+390680307620", "website": "https://stores.primark.com/fr_be/italie/roma/centro-commerciale-%E2%80%9Cromaest%E2%80%9D", "contact:facebook": "https://www.facebook.com/100279815591176", "opening_hours": "Mo-Su 09:00-22:00", "brand": "Primark", "brand:wikidata": "Q137023", "nsi_id": "primark-5d2556"}, "geometry": {"type": "Point", "coordinates": [12.660442916499948, 41.914379292629675]}},
{"type": "Feature", "id": "yfRCYjKnONn2vNAEzUrsOJskEh8=", "properties": {"ref": "282", "@spider": "primark", "shop": "clothes", "addr:street_address": "Centro Commerciale \u201cCentro Sicilia\u201d, SP54 Misterbianco Catania", "addr:city": "Misterbianco", "addr:state": "Catania", "addr:postcode": "95045", "addr:country": "IT", "name": "Primark", "phone": "+390952262300", "website": "https://stores.primark.com/fr_be/italie/misterbianco/centro-commerciale-%E2%80%9Ccentro-sicilia%E2%80%9D", "contact:facebook": "https://www.facebook.com/105759075232723", "opening_hours": "Mo-Su 09:00-22:00", "brand": "Primark", "brand:wikidata": "Q137023", "nsi_id": "primark-5d2556"}, "geometry": {"type": "Point", "coordinates": [15.008920481756176, 37.478626048040596]}},
{"type": "Feature", "id": "COMJJ2Ds8vsBhBi3lYH2kOsqD_w=", "properties": {"ref": "275", "payment:google_pay": "yes", "payment:apple_pay": "yes", "payment:cash": "yes", "payment:maestro": "yes", "payment:mastercard": "yes", "payment:visa": "yes", "@spider": "primark", "shop": "clothes", "addr:street_address": "Via Torino 45, Milano", "addr:city": "Milan", "addr:postcode": "20122", "addr:country": "IT", "name": "Primark", "phone": "+390223313230", "website": "https://stores.primark.com/fr_be/italie/milan/via-torino-45-milano", "opening_hours": "Mo-Su 09:00-22:00", "brand": "Primark", "brand:wikidata": "Q137023", "nsi_id": "primark-5d2556"}, "geometry": {"type": "Point", "coordinates": [9.1855273, 45.4614533]}},
{"type": "Feature", "id": "zelPyQpen7LWPC8fMaU9mIRHiGM=", "properties": {"ref": "283", "@spider": "primark", "shop": "clothes", "addr:street_address": "Centro Commerciale \u201cMegal\u00f2\u201d, Localit\u00e0 Santa Filomena,", "addr:city": "Chieti", "addr:postcode": "66100", "addr:country": "IT", "name": "Primark", "phone": "+390871232760", "website": "https://stores.primark.com/fr_be/italie/chieti/centro-commerciale-%E2%80%9Cmegalo%E2%80%9D", "opening_hours": "Mo-Su 09:00-22:00", "brand": "Primark", "brand:wikidata": "Q137023", "nsi_id": "primark-5d2556"}, "geometry": {"type": "Point", "coordinates": [14.1254656970885, 42.34291546841318]}},
{"type": "Feature", "id": "Sq8ouTF9qbYmsLAa-TIfqyn4B5E=", "properties": {"ref": "271", "payment:google_pay": "yes", "payment:apple_pay": "yes", "payment:cash": "yes", "payment:maestro": "yes", "payment:mastercard": "yes", "payment:visa": "yes", "@spider": "primark", "shop": "clothes", "addr:street_address": "Via San Quirico, 164", "addr:city": "Campi Bisenzio", "addr:state": "FI", "addr:postcode": "50013", "addr:country": "IT", "name": "Primark", "phone": "+390553922400", "website": "https://stores.primark.com/fr_be/italie/campi-bisenzio/via-san-quirico-164", "contact:facebook": "https://www.facebook.com/737778779717041", "opening_hours": "Mo-Su 09:00-22:00", "brand": "Primark", "brand:wikidata": "Q137023", "nsi_id": "primark-5d2556"}, "geometry": {"type": "Point", "coordinates": [11.14330208315459, 43.848131707541874]}},
{"type": "Feature", "id": "Sr1hos9w3QVSolR8Tc_b7TRs9os=", "properties": {"ref": "272", "payment:google_pay": "yes", "payment:apple_pay": "yes", "payment:cash": "yes", "payment:maestro": "yes", "payment:mastercard": "yes", "payment:visa": "yes", "@spider": "primark", "shop": "clothes", "addr:street_address": "Via Luigi Einaudi, 9, Eln\u00f2s Shopping", "addr:city": "Brescia", "addr:state": "BS", "addr:postcode": "25030", "addr:country": "IT", "name": "Primark", "phone": "+390223369284", "website": "https://stores.primark.com/fr_be/italie/brescia/via-luigi-einaudi-9", "contact:facebook": "https://www.facebook.com/925538074245106", "opening_hours": "Mo-Su 09:00-22:00", "brand": "Primark", "brand:wikidata": "Q137023", "nsi_id": "primark-5d2556"}, "geometry": {"type": "Point", "coordinates": [10.164837967266655, 45.53398634079043]}},
{"type": "Feature", "id": "0aAxevVhrPmu1UI2Wt8xNZpGmgs=", "properties": {"ref": "270", "payment:google_pay": "yes", "payment:apple_pay": "yes", "payment:cash": "yes", "payment:maestro": "yes", "payment:mastercard": "yes", "payment:visa": "yes", "@spider": "primark", "shop": "clothes", "addr:street_address": "Via Giuseppe Eugenio Luraghi, 11", "addr:city": "Arese", "addr:state": "MI", "addr:postcode": "20020", "addr:country": "IT", "name": "Primark", "phone": "+390223369034", "website": "https://stores.primark.com/fr_be/italie/arese/via-giuseppe-eugenio-luraghi-11", "contact:facebook": "https://www.facebook.com/217822255305077", "opening_hours": "Mo-Su 09:00-22:00", "brand": "Primark", "brand:wikidata": "Q137023", "nsi_id": "primark-5d2556"}, "geometry": {"type": "Point", "coordinates": [9.0527283, 45.5631646]}},
{"type": "Feature", "id": "2sVAHmJUV1vUtS8RA-iouU37hh8=", "properties": {"ref": "46", "payment:american_express": "yes", "payment:google_pay": "yes", "payment:apple_pay": "yes", "payment:cash": "yes", "payment:mastercard": "yes", "payment:visa": "yes", "@spider": "primark", "shop": "clothes", "addr:street_address": "Centre commercial de Wilton, Sarsfield Road", "addr:city": "Wilton", "addr:state": "Cork", "addr:postcode": "T12 PNR7", "addr:country": "IE", "name": "Penneys", "phone": "+353214345404", "website": "https://stores.primark.com/fr_be/irlande/wilton/centre-commercial-de-wilton", "contact:facebook": "https://www.facebook.com/147109209241903", "opening_hours": "Mo-We 09:00-19:00; Th-Fr 09:00-21:00; Sa 09:00-19:00; Su 11:00-18:30", "brand": "Penneys", "brand:wikidata": "Q137023", "nsi_id": "penneys-b30dbb"}, "geometry": {"type": "Point", "coordinates": [-8.5083603, 51.8816734]}},
{"type": "Feature", "id": "u6tIWqClnaouXnCEwA0-U-RlVsM=", "properties": {"ref": "9", "payment:american_express": "yes", "payment:google_pay": "yes", "payment:apple_pay": "yes", "payment:cash": "yes", "payment:mastercard": "yes", "payment:visa": "yes", "@spider": "primark", "shop": "clothes", "addr:street_address": "29 South Main Street", "addr:city": "Wexford", "addr:state": "Wexford", "addr:postcode": "Y35 W825", "addr:country": "IE", "name": "Penneys", "phone": "+353539122898", "website": "https://stores.primark.com/fr_be/irlande/wexford/29-south-main-street", "contact:facebook": "https://www.facebook.com/398390493521123", "opening_hours": "Mo-We 09:00-18:00; Th-Fr 09:00-21:00; Sa 09:00-18:30; Su 11:30-18:00", "brand": "Penneys", "brand:wikidata": "Q137023", "nsi_id": "penneys-b30dbb"}, "geometry": {"type": "Point", "coordinates": [-6.460877060894745, 52.337531729265855]}},
{"type": "Feature", "id": "8SlIPrbt6dtV4SEh9AgPFYlH6Bs=", "properties": {"ref": "29", "payment:american_express": "yes", "payment:google_pay": "yes", "payment:apple_pay": "yes", "payment:cash": "yes", "payment:mastercard": "yes", "payment:visa": "yes", "@spider": "primark", "shop": "clothes", "addr:street_address": "31/34 Barronstrand Street", "addr:city": "Waterford", "addr:state": "Waterford", "addr:postcode": "X91 HK15", "addr:country": "IE", "name": "Penneys", "phone": "+35351874510", "website": "https://stores.primark.com/fr_be/irlande/waterford/31/34-barronstrand-street", "contact:facebook": "https://www.facebook.com/195100173834112", "opening_hours": "Mo-We 09:00-18:30; Th-Fr 09:00-21:00; Sa 09:00-18:30; Su 11:00-18:30", "brand": "Penneys", "brand:wikidata": "Q137023", "nsi_id": "penneys-b30dbb"}, "geometry": {"type": "Point", "coordinates": [-7.1115379, 52.2613184]}},
{"type": "Feature", "id": "O_0BBlVvOx42te8d8dv4sVV6qtc=", "properties": {"ref": "31", "payment:american_express": "yes", "payment:google_pay": "yes", "payment:apple_pay": "yes", "payment:cash": "yes", "payment:mastercard": "yes", "payment:visa": "yes", "@spider": "primark", "shop": "clothes", "addr:street_address": "23 - 24 The Mall", "addr:city": "Tralee", "addr:state": "Kerry", "addr:postcode": "V92 CX99", "addr:country": "IE", "name": "Penneys", "phone": "+353667117506", "website": "https://stores.primark.com/fr_be/irlande/tralee/23-24-the-mall", "contact:facebook": "https://www.facebook.com/142905253049210", "opening_hours": "Mo-We 09:00-18:00; Th 09:00-20:00; Fr 09:00-21:00; Sa 09:00-18:30; Su 11:30-18:00", "brand": "Penneys", "brand:wikidata": "Q137023", "nsi_id": "penneys-b30dbb"}, "geometry": {"type": "Point", "coordinates": [-9.705213495700832, 52.26977363367397]}},
{"type": "Feature", "id": "f07oFAMLkQWONR59doONT_5tRVo=", "properties": {"ref": "16", "payment:american_express": "yes", "payment:google_pay": "yes", "payment:apple_pay": "yes", "payment:cash": "yes", "payment:mastercard": "yes", "payment:visa": "yes", "@spider": "primark", "shop": "clothes", "addr:street_address": "15 - 16 O'Connell Street", "addr:city": "Sligo", "addr:state": "Sligo", "addr:postcode": "F91 K791", "addr:country": "IE", "name": "Penneys", "phone": "+353719161300", "website": "https://stores.primark.com/fr_be/irlande/sligo/15-16-o'connell-street", "contact:facebook": "https://www.facebook.com/711777205660502", "opening_hours": "Mo-We 09:00-18:30; Th-Fr 09:00-21:00; Sa 09:00-18:30; Su 11:00-18:00", "brand": "Penneys", "brand:wikidata": "Q137023", "nsi_id": "penneys-b30dbb"}, "geometry": {"type": "Point", "coordinates": [-8.4755927, 54.2716012]}},
{"type": "Feature", "id": "L6eiVPx4JSZAXsvdaNvUsh1IzaM=", "properties": {"ref": "24", "payment:american_express": "yes", "payment:google_pay": "yes", "payment:apple_pay": "yes", "payment:cash": "yes", "payment:mastercard": "yes", "payment:visa": "yes", "@spider": "primark", "shop": "clothes", "addr:street_address": "Unit 53/53A, Swords Road, Centre commercial Omni Park", "addr:city": "Santry", "addr:state": "Dublin", "addr:postcode": "D09 PX01", "addr:country": "IE", "name": "Penneys", "phone": "+35318423088", "website": "https://stores.primark.com/fr_be/irlande/santry/unit-53/53a-swords-road", "contact:facebook": "https://www.facebook.com/198853280205893", "opening_hours": "Mo-Tu 09:00-18:00; We 09:00-20:00; Th-Fr 09:00-21:00; Sa 09:00-18:30; Su 11:00-18:00", "brand": "Penneys", "brand:wikidata": "Q137023", "nsi_id": "penneys-b30dbb"}, "geometry": {"type": "Point", "coordinates": [-6.2481184, 53.39186]}},
{"type": "Feature", "id": "91OO_gEAtTqSfMUe8F5pz3jHI_I=", "properties": {"ref": "12", "payment:american_express": "yes", "payment:google_pay": "yes", "payment:apple_pay": "yes", "payment:cash": "yes", "payment:mastercard": "yes", "payment:visa": "yes", "@spider": "primark", "shop": "clothes", "addr:street_address": "Centre commercial Nutgrove", "addr:city": "Rathfarnham", "addr:state": "Dublin", "addr:postcode": "D14 KW29", "addr:country": "IE", "name": "Penneys", "phone": "+35314932528", "website": "https://stores.primark.com/fr_be/irlande/rathfarnham/centre-commercial-nutgrove", "contact:facebook": "https://www.facebook.com/Penneys-195076651179779/", "opening_hours": "Mo-Tu 09:00-18:00; We 09:00-20:00; Th-Fr 09:00-21:00; Sa 09:00-19:00; Su 11:00-18:00", "brand": "Penneys", "brand:wikidata": "Q137023", "nsi_id": "penneys-b30dbb"}, "geometry": {"type": "Point", "coordinates": [-6.266618252204125, 53.289803680415865]}},
{"type": "Feature", "id": "bDEyoPOMbE0ouZ1vF37YsLcq8cY=", "properties": {"ref": "10", "payment:american_express": "yes", "payment:google_pay": "yes", "payment:apple_pay": "yes", "payment:cash": "yes", "payment:mastercard": "yes", "payment:visa": "yes", "@spider": "primark", "shop": "clothes", "addr:street_address": "Centre commercial Laois, James Fintan Lalor Avenue", "addr:city": "Portlaoise", "addr:state": "Laois", "addr:postcode": "R32 XA33", "addr:country": "IE", "name": "Penneys", "phone": "+353578622669", "website": "https://stores.primark.com/fr_be/irlande/portlaoise/centre-commercial-laois", "contact:facebook": "https://www.facebook.com/358024764991577", "opening_hours": "Mo-We 09:00-18:00; Th-Fr 09:00-21:00; Sa 09:00-18:00; Su 11:00-18:00", "brand": "Penneys", "brand:wikidata": "Q137023", "nsi_id": "penneys-b30dbb"}, "geometry": {"type": "Point", "coordinates": [-7.2957492, 53.0314412]}},
{"type": "Feature", "id": "4A5Lp5S_53cYtA15Kpyfk0nwsg8=", "properties": {"ref": "28", "payment:american_express": "yes", "payment:google_pay": "yes", "payment:apple_pay": "yes", "payment:cash": "yes", "payment:mastercard": "yes", "payment:visa": "yes", "@spider": "primark", "shop": "clothes", "addr:street_address": "Edward Street", "addr:city": "Newbridge", "addr:state": "Kildare", "addr:postcode": "W12 HN80", "addr:country": "IE", "name": "Penneys", "phone": "+35345440902", "website": "https://stores.primark.com/fr_be/irlande/newbridge/edward-street", "contact:facebook": "https://www.facebook.com/1623364101063224", "opening_hours": "Mo-We 09:00-19:00; Th-Fr 09:00-21:00; Sa 09:00-19:00; Su 11:00-18:00", "brand": "Penneys", "brand:wikidata": "Q137023", "nsi_id": "penneys-b30dbb"}, "geometry": {"type": "Point", "coordinates": [-6.7985644, 53.1797656]}},
{"type": "Feature", "id": "mZJ9r63VEc93BlikpSLO6sU_Zn8=", "properties": {"ref": "6", "payment:american_express": "yes", "payment:google_pay": "yes", "payment:apple_pay": "yes", "payment:cash": "yes", "payment:mastercard": "yes", "payment:visa": "yes", "@spider": "primark", "shop": "clothes", "addr:street_address": "Centre commercial de Navan", "addr:city": "Navan", "addr:state": "Meath", "addr:postcode": "C15 KF76", "addr:country": "IE", "name": "Penneys", "phone": "+353469028857", "website": "https://stores.primark.com/fr_be/irlande/navan/centre-commercial-de-navan", "contact:facebook": "https://www.facebook.com/498159787281320", "opening_hours": "Mo-We 09:00-18:00; Th-Fr 09:00-21:00; Sa 09:00-19:00; Su 11:00-18:00", "brand": "Penneys", "brand:wikidata": "Q137023", "nsi_id": "penneys-b30dbb"}, "geometry": {"type": "Point", "coordinates": [-6.6868907, 53.6538919]}},
{"type": "Feature", "id": "VkGcxeubblNsxaU_YZMUrZad2bo=", "properties": {"ref": "8", "payment:american_express": "yes", "payment:google_pay": "yes", "payment:apple_pay": "yes", "payment:cash": "yes", "payment:mastercard": "yes", "payment:visa": "yes", "@spider": "primark", "shop": "clothes", "addr:street_address": "Centre commercial Fairgreen, Grand Parade", "addr:city": "Mullingar", "addr:state": "Westmeath", "addr:postcode": "N91 FK5Y", "addr:country": "IE", "name": "Penneys", "phone": "+353449347619", "website": "https://stores.primark.com/fr_be/irlande/mullingar/centre-commercial-fairgreen", "contact:facebook": "https://www.facebook.com/1509517739347706", "opening_hours": "Mo-We 09:00-19:00; Th-Fr 09:00-21:00; Sa 09:00-19:00; Su 11:00-18:00", "brand": "Penneys", "brand:wikidata": "Q137023", "nsi_id": "penneys-b30dbb"}, "geometry": {"type": "Point", "coordinates": [-7.3499458, 53.524657]}},
{"type": "Feature", "id": "owOV6PC9lEJRKhMKbTU2C2AfyBw=", "properties": {"ref": "33", "payment:american_express": "yes", "payment:google_pay": "yes", "payment:apple_pay": "yes", "payment:cash": "yes", "payment:mastercard": "yes", "payment:visa": "yes", "@spider": "primark", "shop": "clothes", "addr:street_address": "2 Ardrum Ct, Deanscurragh, Centre commercial de Longford", "addr:city": "Longford", "addr:state": "Longford", "addr:postcode": "N39 E6P7", "addr:country": "IE", "name": "Penneys", "phone": "+353433347247", "website": "https://stores.primark.com/fr_be/irlande/longford/2-ardrum-ct-deanscurragh", "contact:facebook": "https://www.facebook.com/227730627852417", "opening_hours": "Mo-We 09:00-18:00; Th-Fr 09:00-21:00; Sa 09:00-18:30; Su 11:00-18:00", "brand": "Penneys", "brand:wikidata": "Q137023", "nsi_id": "penneys-b30dbb"}, "geometry": {"type": "Point", "coordinates": [-7.799874711639404, 53.72904160424273]}},
{"type": "Feature", "id": "6-hxqDKOA1BFs9bIJlCIZrcKnVY=", "properties": {"ref": "23", "payment:american_express": "yes", "payment:google_pay": "yes", "payment:apple_pay": "yes", "payment:cash": "yes", "payment:mastercard": "yes", "payment:visa": "yes", "@spider": "primark", "shop": "clothes", "addr:street_address": "O'Connell Street", "addr:city": "Limerick", "addr:state": "Limerick", "addr:postcode": "V94 H6RO", "addr:country": "IE", "name": "Penneys", "phone": "+35361416033", "website": "https://stores.primark.com/fr_be/irlande/limerick/o'connell-street", "contact:facebook": "https://www.facebook.com/469052383520056", "opening_hours": "Mo-We 09:00-18:00; Th 09:00-19:00; Fr 09:00-21:00; Sa 09:00-19:00; Su 11:00-18:00", "brand": "Penneys", "brand:wikidata": "Q137023", "nsi_id": "penneys-b30dbb"}, "geometry": {"type": "Point", "coordinates": [-8.6264251, 52.6642985]}},
{"type": "Feature", "id": "uFHuuOvreIGCQ5QXp-FA1MTM8Tw=", "properties": {"ref": "15", "payment:american_express": "yes", "payment:google_pay": "yes", "payment:apple_pay": "yes", "payment:cash": "yes", "payment:mastercard": "yes", "payment:visa": "yes", "@spider": "primark", "shop": "clothes", "addr:street_address": "Centre commercial Crescent, Dooradoyle", "addr:city": "Limerick", "addr:state": "Limerick", "addr:postcode": "V9453Y1", "addr:country": "IE", "name": "Penneys", "phone": "+35361227244", "website": "https://stores.primark.com/fr_be/irlande/limerick/centre-commercial-crescent", "contact:facebook": "https://www.facebook.com/1985352438425595", "opening_hours": "Mo-We 09:00-18:00; Th-Fr 09:00-21:30; Sa 09:00-19:00; Su 11:00-18:00", "brand": "Penneys", "brand:wikidata": "Q137023", "nsi_id": "penneys-b30dbb"}, "geometry": {"type": "Point", "coordinates": [-8.647581662620402, 52.640954201941014]}},
{"type": "Feature", "id": "l7hmltis0YQyUVgwW0ESBDP0_UQ=", "properties": {"ref": "18", "payment:american_express": "yes", "payment:google_pay": "yes", "payment:apple_pay": "yes", "payment:cash": "yes", "payment:mastercard": "yes", "payment:visa": "yes", "@spider": "primark", "shop": "clothes", "addr:street_address": "Centre commercial de Letterkenny, Port Road", "addr:city": "Letterkenny", "addr:state": "Donegal", "addr:postcode": "F92 A9CP", "addr:country": "IE", "name": "Penneys", "phone": "+353749121333", "website": "https://stores.primark.com/fr_be/irlande/letterkenny/centre-commercial-de-letterkenny", "contact:facebook": "https://www.facebook.com/1765299650430564", "opening_hours": "Mo-We 09:00-18:00; Th-Fr 09:00-21:00; Sa 09:00-18:00; Su 11:00-18:00", "brand": "Penneys", "brand:wikidata": "Q137023", "nsi_id": "penneys-b30dbb"}, "geometry": {"type": "Point", "coordinates": [-7.7256555, 54.9538724]}},
{"type": "Feature", "id": "ot5C1Rn2DFYArOpL9cuuSTfsrkQ=", "properties": {"ref": "49", "payment:american_express": "yes", "payment:google_pay": "yes", "payment:apple_pay": "yes", "payment:cash": "yes", "payment:mastercard": "yes", "payment:visa": "yes", "@spider": "primark", "shop": "clothes", "addr:street_address": "11-12 High Street", "addr:city": "Killarney", "addr:state": "Kerry", "addr:postcode": "V94 53YI", "addr:country": "IE", "name": "Penneys", "phone": "+353646637062", "website": "https://stores.primark.com/fr_be/irlande/killarney/11-12-high-street", "contact:facebook": "https://www.facebook.com/163302354473176", "opening_hours": "Mo-We 09:00-19:00; Th 09:00-20:00; Fr 09:00-21:00; Sa 09:00-19:00; Su 10:00-19:00", "brand": "Penneys", "brand:wikidata": "Q137023", "nsi_id": "penneys-b30dbb"}, "geometry": {"type": "Point", "coordinates": [-9.50973, 52.06007]}},
{"type": "Feature", "id": "so6aEZWt_1Y9lPbp65D-Ly9Uxxk=", "properties": {"ref": "21", "payment:american_express": "yes", "payment:google_pay": "yes", "payment:apple_pay": "yes", "payment:cash": "yes", "payment:mastercard": "yes", "payment:visa": "yes", "@spider": "primark", "shop": "clothes", "addr:street_address": "Centre commercial Kilkenny Market Cross, James's St Gardens", "addr:city": "Kilkenny", "addr:state": "Clare", "addr:country": "IE", "name": "Penneys", "phone": "+353567752755", "website": "https://stores.primark.com/fr_be/irlande/kilkenny/centre-commercial-kilkenny-market-cross", "contact:facebook": "https://www.facebook.com/2214937258781351", "opening_hours": "Mo-We 09:00-18:00; Th-Fr 09:00-21:00; Sa 09:00-18:30; Su 11:00-18:00", "brand": "Penneys", "brand:wikidata": "Q137023", "nsi_id": "penneys-b30dbb"}, "geometry": {"type": "Point", "coordinates": [-7.254576086997986, 52.65257355343702]}},
{"type": "Feature", "id": "IuUiljBNmN_49yXY7LXHrbOYsEg=", "properties": {"ref": "30", "payment:american_express": "yes", "payment:google_pay": "yes", "payment:apple_pay": "yes", "payment:cash": "yes", "payment:mastercard": "yes", "payment:visa": "yes", "@spider": "primark", "shop": "clothes", "addr:street_address": "Centre commercial Eyre Square, 36 Eyre Square", "addr:city": "Galway", "addr:state": "Galway", "addr:postcode": "H91 XN79", "addr:country": "IE", "name": "Penneys", "phone": "+35391566889", "website": "https://stores.primark.com/fr_be/irlande/galway/centre-commercial-eyre-square", "contact:facebook": "https://www.facebook.com/2298710243740787", "opening_hours": "Mo-We 09:00-19:00; Th-Fr 09:00-21:00; Sa 09:00-19:00; Su 11:00-19:00", "brand": "Penneys", "brand:wikidata": "Q137023", "nsi_id": "penneys-b30dbb"}, "geometry": {"type": "Point", "coordinates": [-9.049272, 53.2731722]}},
{"type": "Feature", "id": "ZNMpomQvMWu9mAtyLdFfuBcyEqc=", "properties": {"ref": "20", "payment:american_express": "yes", "payment:google_pay": "yes", "payment:apple_pay": "yes", "payment:cash": "yes", "payment:mastercard": "yes", "payment:visa": "yes", "@spider": "primark", "shop": "clothes", "addr:street_address": "Centre commercial de Galway, Headford Road", "addr:city": "Galway", "addr:state": "Galway", "addr:postcode": "H91 YN2K", "addr:country": "IE", "name": "Penneys", "phone": "+35391566308", "website": "https://stores.primark.com/fr_be/irlande/galway/centre-commercial-de-galway", "contact:facebook": "https://www.facebook.com/197716134509922", "opening_hours": "Mo 11:00-18:00; Tu-We 09:00-18:30; Th 09:00-21:00; Fr 09:00-18:00; Sa 09:00-18:30; Su 11:00-18:00", "brand": "Penneys", "brand:wikidata": "Q137023", "nsi_id": "penneys-b30dbb"}, "geometry": {"type": "Point", "coordinates": [-9.0467027, 53.2801975]}},
{"type": "Feature", "id": "Ae6WIesjg8LAJ5ODcBBSfFaJj9w=", "properties": {"ref": "14", "payment:american_express": "yes", "payment:google_pay": "yes", "payment:apple_pay": "yes", "payment:cash": "yes", "payment:mastercard": "yes", "payment:visa": "yes", "@spider": "primark", "shop": "clothes", "addr:street_address": "Centre commercial d'Ennis, Francis Street", "addr:city": "Ennis", "addr:state": "Clare", "addr:postcode": "V95 C62F", "addr:country": "IE", "name": "Penneys", "phone": "+353656829921", "website": "https://stores.primark.com/fr_be/irlande/ennis/centre-commercial-d'ennis", "contact:facebook": "https://www.facebook.com/148609522483641", "opening_hours": "Mo-We 09:00-18:00; Th-Fr 09:00-21:00; Sa 09:00-18:00; Su 11:00-18:00", "brand": "Penneys", "brand:wikidata": "Q137023", "nsi_id": "penneys-b30dbb"}, "geometry": {"type": "Point", "coordinates": [-8.976200653748606, 52.84553355076761]}},
{"type": "Feature", "id": "kHoWU-3QJegfBZPFnAjYVc8Ntqc=", "properties": {"ref": "43", "payment:american_express": "yes", "payment:google_pay": "yes", "payment:apple_pay": "yes", "payment:cash": "yes", "payment:mastercard": "yes", "payment:visa": "yes", "@spider": "primark", "shop": "clothes", "addr:street_address": "Centre commercial The Marshes, The Ramparts", "addr:city": "Dundalk", "addr:state": "Louth", "addr:postcode": "A91 Y0C8", "addr:country": "IE", "name": "Penneys", "phone": "+353429354380", "website": "https://stores.primark.com/fr_be/irlande/dundalk/centre-commercial-the-marshes", "contact:facebook": "https://www.facebook.com/542057892847601", "opening_hours": "Mo-Tu 09:00-19:00; We 09:00-20:00; Th-Fr 09:00-21:00; Sa 09:00-19:00; Su 11:00-18:00", "brand": "Penneys", "brand:wikidata": "Q137023", "nsi_id": "penneys-b30dbb"}, "geometry": {"type": "Point", "coordinates": [-6.3994215, 54.0022241]}},
{"type": "Feature", "id": "3FZ1kuFEnGMkuZ94pokY_b_dQYA=", "properties": {"ref": "3", "payment:american_express": "yes", "payment:google_pay": "yes", "payment:apple_pay": "yes", "payment:cash": "yes", "payment:mastercard": "yes", "payment:visa": "yes", "@spider": "primark", "shop": "clothes", "addr:street_address": "84 - 85 Lower George Street", "addr:city": "D\u00fan Laoghaire", "addr:state": "Dublin", "addr:postcode": "A96 XN81", "addr:country": "IE", "name": "Penneys", "phone": "+35312801946", "website": "https://stores.primark.com/fr_be/irlande/dun-laoghaire/84-85-lower-george-street", "contact:facebook": "https://www.facebook.com/164498624354416", "opening_hours": "Mo-Fr 09:00-18:00; Sa 09:00-18:30; Su 12:00-18:00", "brand": "Penneys", "brand:wikidata": "Q137023", "nsi_id": "penneys-b30dbb"}, "geometry": {"type": "Point", "coordinates": [-6.136837899684906, 53.2929047336568]}},
{"type": "Feature", "id": "AxhT-oCrPcVW84bb2EIBAsZyips=", "properties": {"ref": "40", "payment:american_express": "yes", "payment:google_pay": "yes", "payment:apple_pay": "yes", "payment:cash": "yes", "payment:mastercard": "yes", "payment:visa": "yes", "@spider": "primark", "shop": "clothes", "addr:street_address": "Unit\u00e9 304, centre commercial de Blanchardstown", "addr:city": "Dublin", "addr:state": "Dublin", "addr:postcode": "D15 HK22", "addr:country": "IE", "name": "Penneys", "phone": "+35318208408", "website": "https://stores.primark.com/fr_be/irlande/dublin/unite-304-centre-commercial-de-blanchardstown", "contact:facebook": "https://www.facebook.com/202013743253692", "opening_hours": "Mo-Fr 09:00-21:00; Sa 09:00-19:00; Su 10:00-19:00", "brand": "Penneys", "brand:wikidata": "Q137023", "nsi_id": "penneys-b30dbb"}, "geometry": {"type": "Point", "coordinates": [-6.3899157, 53.3916228]}},
{"type": "Feature", "id": "KlqvW6hWQROyNNgpeRL45mYlpTQ=", "properties": {"ref": "42", "payment:american_express": "yes", "payment:google_pay": "yes", "payment:apple_pay": "yes", "payment:cash": "yes", "payment:mastercard": "yes", "payment:visa": "yes", "@spider": "primark", "shop": "clothes", "addr:street_address": "Unit 21 Level 2, Dundrum Town Centre, Sandyford Road", "addr:city": "Dublin", "addr:state": "Dublin", "addr:postcode": "D16 X957", "addr:country": "IE", "name": "Penneys", "phone": "+35312157202", "website": "https://stores.primark.com/fr_be/irlande/dublin/unit-21-level-2-dundrum-town-centre", "contact:facebook": "https://www.facebook.com/435750296840400", "opening_hours": "Mo-Fr 09:00-21:00; Sa 09:00-19:00; Su 10:00-19:00", "brand": "Penneys", "brand:wikidata": "Q137023", "nsi_id": "penneys-b30dbb"}, "geometry": {"type": "Point", "coordinates": [-6.241439, 53.286266]}},
{"type": "Feature", "id": "HNwQ_yzX0cMKUono6LvdQLjjwbc=", "properties": {"ref": "52", "payment:american_express": "yes", "payment:google_pay": "yes", "payment:apple_pay": "yes", "payment:cash": "yes", "payment:mastercard": "yes", "payment:visa": "yes", "@spider": "primark", "shop": "clothes", "addr:street_address": "The Square Shopping Centre,", "addr:city": "Dublin", "addr:state": "Dublin", "addr:postcode": "D24 ND77", "addr:country": "IE", "name": "Penneys", "phone": "+35312333980", "website": "https://stores.primark.com/fr_be/irlande/dublin/the-square-shopping-centre", "contact:facebook": "https://www.facebook.com/103013495911394", "opening_hours": "Mo-Tu 09:00-20:00; We-Fr 09:00-21:00; Sa 09:00-19:00; Su 10:00-19:00", "brand": "Penneys", "brand:wikidata": "Q137023", "nsi_id": "penneys-b30dbb"}, "geometry": {"type": "Point", "coordinates": [-6.3717012, 53.2865928]}},
{"type": "Feature", "id": "FQCO4-C9HYG_99W0ctQ7DhbHpMs=", "properties": {"ref": "41", "payment:american_express": "yes", "payment:google_pay": "yes", "payment:apple_pay": "yes", "payment:cash": "yes", "payment:mastercard": "yes", "payment:visa": "yes", "@spider": "primark", "shop": "clothes", "addr:street_address": "Main Street", "addr:city": "Dublin", "addr:state": "Dublin", "addr:postcode": "K67 D762", "addr:country": "IE", "name": "Penneys", "phone": "+35318074484", "website": "https://stores.primark.com/fr_be/irlande/dublin/main-street", "contact:facebook": "https://www.facebook.com/1304873396274482", "opening_hours": "Mo-Tu 09:00-20:00; We-Fr 09:00-21:00; Sa 09:00-19:00; Su 10:00-19:00", "brand": "Penneys", "brand:wikidata": "Q137023", "nsi_id": "penneys-b30dbb"}, "geometry": {"type": "Point", "coordinates": [-6.2208838, 53.4553298]}},
{"type": "Feature", "id": "jGivyo1PW_FXZl49msXqHh9W9Is=", "properties": {"ref": "50", "payment:american_express": "yes", "payment:google_pay": "yes", "payment:apple_pay": "yes", "payment:cash": "yes", "payment:mastercard": "yes", "payment:visa": "yes", "@spider": "primark", "shop": "clothes", "addr:street_address": "Centre commercial Liffey Valley, Fonthill Road", "addr:city": "Dublin", "addr:state": "Dublin", "addr:postcode": "D22 R6K8", "addr:country": "IE", "name": "Penneys", "phone": "+35316202440", "website": "https://stores.primark.com/fr_be/irlande/dublin/centre-commercial-liffey-valley", "contact:facebook": "https://www.facebook.com/180026932602442", "opening_hours": "Mo-Fr 09:00-21:00; Sa 09:00-19:00; Su 10:00-19:00", "brand": "Penneys", "brand:wikidata": "Q137023", "nsi_id": "penneys-b30dbb"}, "geometry": {"type": "Point", "coordinates": [-6.3933355, 53.3524334]}},
{"type": "Feature", "id": "K3iTg6XOfL4TU_hr6Bi4NXjv62A=", "properties": {"ref": "26", "payment:american_express": "yes", "payment:google_pay": "yes", "payment:apple_pay": "yes", "payment:cash": "yes", "payment:mastercard": "yes", "payment:visa": "yes", "@spider": "primark", "shop": "clothes", "addr:street_address": "Centre commercial Artane Castle, Kilmore Road", "addr:city": "Dublin", "addr:state": "Dublin", "addr:postcode": "D05 HF82", "addr:country": "IE", "name": "Penneys", "phone": "+35318314444", "website": "https://stores.primark.com/fr_be/irlande/dublin/centre-commercial-artane-castle", "contact:facebook": "https://www.facebook.com/174366242580363", "opening_hours": "Mo-Tu 09:00-18:00; We 09:00-20:00; Th-Fr 09:00-21:00; Sa 09:00-19:00; Su 11:00-18:00", "brand": "Penneys", "brand:wikidata": "Q137023", "nsi_id": "penneys-b30dbb"}, "geometry": {"type": "Point", "coordinates": [-6.2153428, 53.3831106]}},
{"type": "Feature", "id": "PMwMrO8b5qpfSfZ08ATOeY5-DLQ=", "properties": {"ref": "1", "payment:american_express": "yes", "payment:google_pay": "yes", "payment:apple_pay": "yes", "payment:cash": "yes", "payment:mastercard": "yes", "payment:visa": "yes", "@spider": "primark", "shop": "clothes", "addr:street_address": "47 Mary Street", "addr:city": "Dublin", "addr:state": "Dublin", "addr:postcode": "D01 NX45", "addr:country": "IE", "name": "Penneys", "phone": "+35318727788", "website": "https://stores.primark.com/fr_be/irlande/dublin/47-mary-street", "contact:facebook": "https://www.facebook.com/400407740092047", "opening_hours": "Mo-We 08:30-20:00; Th-Fr 08:30-21:00; Sa 08:30-19:00; Su 10:00-19:00", "brand": "Penneys", "brand:wikidata": "Q137023", "nsi_id": "penneys-b30dbb"}, "geometry": {"type": "Point", "coordinates": [-6.2665344, 53.348886]}},
{"type": "Feature", "id": "wpw0tDhvi92CvnOnfgH1bB0nq5o=", "properties": {"ref": "37", "payment:american_express": "yes", "payment:google_pay": "yes", "payment:apple_pay": "yes", "payment:cash": "yes", "payment:mastercard": "yes", "payment:visa": "yes", "@spider": "primark", "shop": "clothes", "addr:street_address": "39 O'Connell Street", "addr:city": "Dublin", "addr:state": "Dublin", "addr:postcode": "D01 PY90", "addr:country": "IE", "name": "Penneys", "phone": "+35316566666", "website": "https://stores.primark.com/fr_be/irlande/dublin/39-o'connell-street", "contact:facebook": "https://www.facebook.com/154698718037129", "opening_hours": "Mo-We 08:30-20:00; Th-Fr 08:30-21:00; Sa 08:30-19:00; Su 10:00-19:00", "brand": "Penneys", "brand:wikidata": "Q137023", "nsi_id": "penneys-b30dbb"}, "geometry": {"type": "Point", "coordinates": [-6.260860338861676, 53.34879652320978]}},
{"type": "Feature", "id": "3jfzfL61ViOs7jvx6FWa_3KEggc=", "properties": {"ref": "27", "payment:american_express": "yes", "payment:google_pay": "yes", "payment:apple_pay": "yes", "payment:cash": "yes", "payment:mastercard": "yes", "payment:visa": "yes", "@spider": "primark", "shop": "clothes", "addr:street_address": "6 West Street", "addr:city": "Drogheda", "addr:state": "Louth", "addr:postcode": "A92 XV12", "addr:country": "IE", "name": "Penneys", "phone": "+353419838624", "website": "https://stores.primark.com/fr_be/irlande/drogheda/6-west-street", "contact:facebook": "https://www.facebook.com/1580155258891091", "opening_hours": "Mo-We 09:00-18:00; Th-Fr 09:00-21:00; Sa 09:00-18:00; Su 12:00-18:00", "brand": "Penneys", "brand:wikidata": "Q137023", "nsi_id": "penneys-b30dbb"}, "geometry": {"type": "Point", "coordinates": [-6.3511574, 53.7148035]}},
{"type": "Feature", "id": "X899SDMjzOxDQbMb8qxcpD1I_oA=", "properties": {"ref": "36", "payment:american_express": "yes", "payment:google_pay": "yes", "payment:apple_pay": "yes", "payment:cash": "yes", "payment:mastercard": "yes", "payment:visa": "yes", "@spider": "primark", "shop": "clothes", "addr:street_address": "27-30 Saint Patrick's Street", "addr:city": "Cork", "addr:state": "Cork", "addr:postcode": "T12 D868", "addr:country": "IE", "name": "Penneys", "phone": "+353214271935", "website": "https://stores.primark.com/fr_be/irlande/cork/27-30-saint-patrick's-street", "contact:facebook": "https://www.facebook.com/193623607316450", "opening_hours": "Mo-We 09:00-19:00; Th-Fr 09:00-21:00; Sa 09:00-19:00; Su 11:00-18:30", "brand": "Penneys", "brand:wikidata": "Q137023", "nsi_id": "penneys-b30dbb"}, "geometry": {"type": "Point", "coordinates": [-8.471610271163968, 51.898470449247704]}},
{"type": "Feature", "id": "bJdFEMfUG4S3a1PexTo01S_2WjY=", "properties": {"ref": "38", "payment:american_express": "yes", "payment:google_pay": "yes", "payment:apple_pay": "yes", "payment:cash": "yes", "payment:mastercard": "yes", "payment:visa": "yes", "@spider": "primark", "shop": "clothes", "addr:street_address": "16 O'Connell Street", "addr:city": "Clonmel", "addr:state": "Tipperary", "addr:postcode": "E91 XW86", "addr:country": "IE", "name": "Penneys", "phone": "+353526125838", "website": "https://stores.primark.com/fr_be/irlande/clonmel/16-o'connell-street", "contact:facebook": "https://www.facebook.com/1585056148250365", "opening_hours": "Mo-We 09:00-18:00; Th-Fr 09:00-21:00; Sa 09:00-18:30; Su 12:00-18:00", "brand": "Penneys", "brand:wikidata": "Q137023", "nsi_id": "penneys-b30dbb"}, "geometry": {"type": "Point", "coordinates": [-7.70312382209022, 52.35259425535137]}},
{"type": "Feature", "id": "wkmHIUAFnNqwtStLO2XTFRQemiw=", "properties": {"ref": "34", "payment:american_express": "yes", "payment:google_pay": "yes", "payment:apple_pay": "yes", "payment:cash": "yes", "payment:mastercard": "yes", "payment:visa": "yes", "@spider": "primark", "shop": "clothes", "addr:street_address": "Centre commercial de Castlebar, New Antrim Street", "addr:city": "Castlebar", "addr:state": "Mayo", "addr:postcode": "F23 VR92", "addr:country": "IE", "name": "Penneys", "phone": "+353949025321", "website": "https://stores.primark.com/fr_be/irlande/castlebar/centre-commercial-de-castlebar", "contact:facebook": "https://www.facebook.com/183980604958811", "opening_hours": "Mo 11:00-18:00; Tu-We 09:00-18:00; Th-Fr 09:00-21:00; Sa 09:00-19:00; Su 11:00-18:00", "brand": "Penneys", "brand:wikidata": "Q137023", "nsi_id": "penneys-b30dbb"}, "geometry": {"type": "Point", "coordinates": [-9.2970388, 53.85914709999999]}},
{"type": "Feature", "id": "_qUqMG5YM9HxeFrEk1U_teuyHVI=", "properties": {"ref": "002", "payment:american_express": "yes", "payment:google_pay": "yes", "payment:apple_pay": "yes", "payment:cash": "yes", "payment:mastercard": "yes", "payment:visa": "yes", "@spider": "primark", "shop": "clothes", "addr:street_address": "Unit\u00e9 21, centre commercial de Carlow, Kennedy Avenue", "addr:city": "Carlow", "addr:state": "Carlow", "addr:postcode": "R93 K6W7", "addr:country": "IE", "name": "Penneys", "phone": "+353599143516", "website": "https://stores.primark.com/fr_be/irlande/carlow/unite-21-centre-commercial-de-carlow", "contact:facebook": "https://www.facebook.com/472439536425988", "opening_hours": "Mo-We 09:00-18:00; Th-Fr 09:00-21:00; Sa 09:00-18:30; Su 11:00-18:00", "brand": "Penneys", "brand:wikidata": "Q137023", "nsi_id": "penneys-b30dbb"}, "geometry": {"type": "Point", "coordinates": [-6.9298201, 52.8350769]}},
{"type": "Feature", "id": "4E-H-dEOc_k84NJ38AiKQ1qXEuk=", "properties": {"ref": "44", "payment:american_express": "yes", "payment:google_pay": "yes", "payment:apple_pay": "yes", "payment:cash": "yes", "payment:mastercard": "yes", "payment:visa": "yes", "@spider": "primark", "shop": "clothes", "addr:street_address": "Pearse Street", "addr:city": "Ballina", "addr:state": "Mayo", "addr:postcode": "F26 K250", "addr:country": "IE", "name": "Penneys", "phone": "+3539679561", "website": "https://stores.primark.com/fr_be/irlande/ballina/pearse-street", "contact:facebook": "https://www.facebook.com/1277937112331856", "opening_hours": "Mo-We 09:00-18:00; Th-Fr 09:00-21:00; Sa 09:00-18:30; Su 11:00-18:00", "brand": "Penneys", "brand:wikidata": "Q137023", "nsi_id": "penneys-b30dbb"}, "geometry": {"type": "Point", "coordinates": [-9.15458858013153, 54.114584364449534]}},
{"type": "Feature", "id": "B0rgTRrespm4AB8plBaA8kM0n_g=", "properties": {"ref": "39", "payment:american_express": "yes", "payment:google_pay": "yes", "payment:apple_pay": "yes", "payment:cash": "yes", "payment:mastercard": "yes", "payment:visa": "yes", "@spider": "primark", "shop": "clothes", "addr:street_address": "Centre commercial Golden Island", "addr:city": "Athlone", "addr:state": "Westmeath", "addr:postcode": "N37 W5C9", "addr:country": "IE", "name": "Penneys", "phone": "+353906476933", "website": "https://stores.primark.com/fr_be/irlande/athlone/centre-commercial-golden-island", "contact:facebook": "https://www.facebook.com/558712591155459", "opening_hours": "Mo-Tu 09:00-18:00; We 09:00-20:00; Th-Fr 09:00-21:00; Sa 09:00-18:30; Su 11:00-18:30", "brand": "Penneys", "brand:wikidata": "Q137023", "nsi_id": "penneys-b30dbb"}, "geometry": {"type": "Point", "coordinates": [-7.933637427771538, 53.41964339372247]}},
{"type": "Feature", "id": "rYqIM0yjV-mBXLhwbcKKKdjzZwA=", "properties": {"ref": "203", "payment:google_pay": "yes", "payment:cash": "yes", "payment:mastercard": "yes", "payment:visa": "yes", "@spider": "primark", "shop": "clothes", "addr:street_address": "41 Rue De Remusat", "addr:city": "Toulouse", "addr:postcode": "31000", "addr:country": "FR", "name": "Primark", "phone": "+33534330005", "website": "https://stores.primark.com/fr_be/france/toulouse/41-rue-de-remusat", "contact:facebook": "https://www.facebook.com/107876311808733", "opening_hours": "Mo-Sa 10:00-19:30", "brand": "Primark", "brand:wikidata": "Q137023", "nsi_id": "primark-5d2556"}, "geometry": {"type": "Point", "coordinates": [1.4453285, 43.6077815]}},
{"type": "Feature", "id": "7OSyH0nrMM2Fj_MfcB9cjVg9TW8=", "properties": {"ref": "231", "payment:google_pay": "yes", "payment:cash": "yes", "payment:mastercard": "yes", "payment:visa": "yes", "@spider": "primark", "shop": "clothes", "addr:street_address": "CCR Belle Epine, Avenue du Luxembourg", "addr:city": "Thiais Cedex", "addr:postcode": "94320", "addr:country": "FR", "name": "Primark", "phone": "+33177741390", "website": "https://stores.primark.com/fr_be/france/thiais-cedex/ccr-belle-epine", "contact:facebook": "https://www.facebook.com/110679247327576", "opening_hours": "Mo 10:00-20:00; Tu-Fr 10:00-20:30; Sa 10:00-20:00; Su 11:00-19:00", "brand": "Primark", "brand:wikidata": "Q137023", "nsi_id": "primark-5d2556"}, "geometry": {"type": "Point", "coordinates": [2.37359500021997, 48.7572400000313]}},
{"type": "Feature", "id": "ohlluoaownuyR7SDx5JZs5ASoMU=", "properties": {"ref": "227", "@spider": "primark", "shop": "clothes", "addr:street_address": "1 rue du Noyer, 3 quai Kellermann, 2-2a rue Marbach", "addr:city": "Strasbourg", "addr:postcode": "67000", "addr:country": "FR", "name": "Primark", "phone": "+33368331660", "website": "https://stores.primark.com/fr_be/france/strasbourg/1-rue-du-noyer-3-quai-kellermann", "opening_hours": "Mo-Sa 10:00-20:00", "brand": "Primark", "brand:wikidata": "Q137023", "nsi_id": "primark-5d2556"}, "geometry": {"type": "Point", "coordinates": [7.743879419469852, 48.58538861852355]}},
{"type": "Feature", "id": "sa8W7JH2r1RMnfeeB0TdW1E4tiM=", "properties": {"ref": "223", "payment:google_pay": "yes", "payment:cash": "yes", "payment:mastercard": "yes", "payment:visa": "yes", "@spider": "primark", "shop": "clothes", "addr:street_address": "Centre commercial Val d'Europe, 14 Cours du Danube", "addr:city": "Serris", "addr:postcode": "77700", "addr:country": "FR", "name": "Primark", "phone": "+33160048058", "website": "https://stores.primark.com/fr_be/france/serris/centre-commercial-val-d'europe", "contact:facebook": "https://www.facebook.com/532462753818465", "opening_hours": "Mo-Sa 10:00-20:30; Su 11:00-19:00", "brand": "Primark", "brand:wikidata": "Q137023", "nsi_id": "primark-5d2556"}, "geometry": {"type": "Point", "coordinates": [2.7809018, 48.8558352]}},
{"type": "Feature", "id": "ChTpIcJ0Q6FaFN8ho4o2Iak7eQg=", "properties": {"ref": "221", "payment:google_pay": "yes", "payment:cash": "yes", "payment:mastercard": "yes", "payment:visa": "yes", "@spider": "primark", "shop": "clothes", "addr:street_address": "20 Rue de la bongarde, Villeneuve La Garenne", "addr:city": "Paris", "addr:postcode": "92390", "addr:country": "FR", "name": "Primark", "phone": "+33140864408", "website": "https://stores.primark.com/fr_be/france/paris/20-rue-de-la-bongarde", "contact:facebook": "https://www.facebook.com/1227462117370781", "opening_hours": "Mo-Sa 10:00-20:30; Su 11:00-19:00", "brand": "Primark", "brand:wikidata": "Q137023", "nsi_id": "primark-5d2556"}, "geometry": {"type": "Point", "coordinates": [2.3281329, 48.9250197]}},
{"type": "Feature", "id": "JAqHuRio3xlnAHHWuPC2AcgbgAM=", "properties": {"ref": "229", "@spider": "primark", "shop": "clothes", "addr:street_address": "Centre commercial Mon Grand Plaisir, 1170 avenue de Saint Germain", "addr:city": "Paris, Plaisir", "addr:postcode": "78370", "addr:country": "FR", "name": "Primark", "phone": "+33182610185", "website": "https://stores.primark.com/fr_be/france/paris-plaisir/centre-commercial-mon-grand-plaisir", "contact:facebook": "https://www.facebook.com/103760082225428", "opening_hours": "Mo-Sa 10:00-20:00; Su 10:00-19:00", "brand": "Primark", "brand:wikidata": "Q137023", "nsi_id": "primark-5d2556"}, "geometry": {"type": "Point", "coordinates": [1.9616638037307998, 48.82895510688275]}},
{"type": "Feature", "id": "cH8MTwpvz-DA4a1AQoJlIB6F_VY=", "properties": {"ref": "230", "payment:google_pay": "yes", "payment:cash": "yes", "payment:mastercard": "yes", "payment:visa": "yes", "@spider": "primark", "shop": "clothes", "addr:street_address": "Centre commercial Aushopping Noyelles, Route Nationale 43", "addr:city": "Noyelles Godault", "addr:postcode": "62950", "addr:country": "FR", "name": "Primark", "phone": "+33366308150", "website": "https://stores.primark.com/fr_be/france/noyelles-godault/centre-commercial-aushopping-noyelles", "contact:facebook": "https://www.facebook.com/102810944682367", "opening_hours": "Mo-Sa 10:00-20:00", "brand": "Primark", "brand:wikidata": "Q137023", "nsi_id": "primark-5d2556"}, "geometry": {"type": "Point", "coordinates": [2.9780658483505373, 50.41374837486682]}},
{"type": "Feature", "id": "7bcvPCMx0_nTLuymDDodoCbOIhQ=", "properties": {"ref": "224", "payment:google_pay": "yes", "payment:cash": "yes", "payment:mastercard": "yes", "payment:visa": "yes", "@spider": "primark", "shop": "clothes", "addr:street_address": "Centre commercial Muse, 2 Rue des Messageries", "addr:city": "Metz", "addr:postcode": "57000", "addr:country": "FR", "name": "Primark", "phone": "+33387746968", "website": "https://stores.primark.com/fr_be/france/metz/centre-commercial-muse", "contact:facebook": "https://www.facebook.com/396536757524605", "opening_hours": "Mo-Sa 10:00-20:00", "brand": "Primark", "brand:wikidata": "Q137023", "nsi_id": "primark-5d2556"}, "geometry": {"type": "Point", "coordinates": [6.1820602, 49.104729]}},
{"type": "Feature", "id": "K09jHKOQo0Kc0QCZ4m7VCdIlyrc=", "properties": {"ref": "200", "payment:google_pay": "yes", "payment:cash": "yes", "payment:mastercard": "yes", "payment:visa": "yes", "@spider": "primark", "shop": "clothes", "addr:street_address": "Centre commercial Marseille Grand Littoral, 11, Avenue Saint Antoine", "addr:city": "Marseille", "addr:postcode": "13015", "addr:country": "FR", "name": "Primark", "phone": "+33495069180", "website": "https://stores.primark.com/fr_be/france/marseille/centre-commercial-marseille-grand-littoral", "contact:facebook": "https://www.facebook.com/562662703820448", "opening_hours": "Mo-Sa 09:30-20:00", "brand": "Primark", "brand:wikidata": "Q137023", "nsi_id": "primark-5d2556"}, "geometry": {"type": "Point", "coordinates": [5.3537205, 43.3633232]}},
{"type": "Feature", "id": "BVWrwvXOKyvX1lXYTfKPNRZHby8=", "properties": {"ref": "204", "payment:google_pay": "yes", "payment:cash": "yes", "payment:mastercard": "yes", "payment:visa": "yes", "@spider": "primark", "shop": "clothes", "addr:street_address": "Centre Commercial Part Dieu, Tour Oxygene, 17 rue du Docteur Bouchut", "addr:city": "Lyon", "addr:postcode": "69003", "addr:country": "FR", "name": "Primark", "phone": "+33437241109", "website": "https://stores.primark.com/fr_be/france/lyon/centre-commercial-part-dieu", "contact:facebook": "https://www.facebook.com/320535628075676", "opening_hours": "Mo-Sa 09:30-20:00", "brand": "Primark", "brand:wikidata": "Q137023", "nsi_id": "primark-5d2556"}, "geometry": {"type": "Point", "coordinates": [4.856871775463105, 45.76200396587203]}},
{"type": "Feature", "id": "XpVXDmDNi1pxCKLndyiboHTUR18=", "properties": {"ref": "226", "payment:google_pay": "yes", "payment:cash": "yes", "payment:mastercard": "yes", "payment:visa": "yes", "@spider": "primark", "shop": "clothes", "addr:street_address": "Euralille, 100 Centre Commercial", "addr:city": "Lille", "addr:postcode": "59000", "addr:country": "FR", "name": "Primark", "phone": "+33320551407", "website": "https://stores.primark.com/fr_be/france/lille/euralille-100-centre-commercial", "contact:facebook": "https://www.facebook.com/1889438021276555", "opening_hours": "Mo-We 10:00-20:00; Th 10:00-19:00; Fr 11:00-20:00; Sa 10:00-20:00", "brand": "Primark", "brand:wikidata": "Q137023", "nsi_id": "primark-5d2556"}, "geometry": {"type": "Point", "coordinates": [3.0754557, 50.6367744]}},
{"type": "Feature", "id": "nnqzHPIGtSINnrlrs_qkMrLZpfE=", "properties": {"ref": "228", "payment:google_pay": "yes", "payment:cash": "yes", "payment:mastercard": "yes", "payment:visa": "yes", "@spider": "primark", "shop": "clothes", "addr:street_address": "Centre commercial Les Docks Vauban, 70 quai Frissard", "addr:city": "Le Havre", "addr:postcode": "76600", "addr:country": "FR", "name": "Primark", "phone": "+33235255765", "website": "https://stores.primark.com/fr_be/france/le-havre/centre-commercial-les-docks-vauban", "contact:facebook": "https://www.facebook.com/2112044019041533", "opening_hours": "Mo-Sa 10:00-20:00; Su 11:00-19:00", "brand": "Primark", "brand:wikidata": "Q137023", "nsi_id": "primark-5d2556"}, "geometry": {"type": "Point", "coordinates": [0.129853, 49.490434]}},
{"type": "Feature", "id": "aZRVSksVfvQ-QKw2icG1cFPkwZk=", "properties": {"ref": "212", "payment:google_pay": "yes", "payment:cash": "yes", "payment:mastercard": "yes", "payment:visa": "yes", "@spider": "primark", "shop": "clothes", "addr:street_address": "Centre commercial l'Avenue 83, 115 Avenue de l'Universit\u00e9", "addr:city": "La Valette-du-Var", "addr:postcode": "83160", "addr:country": "FR", "name": "Primark", "phone": "+33494480088", "website": "https://stores.primark.com/fr_be/france/la-valette-du-var/centre-commercial-l'avenue-83", "contact:facebook": "https://www.facebook.com/929265253854973", "opening_hours": "Mo 10:00-20:00; Tu 10:00-19:00; We-Sa 10:00-20:00", "brand": "Primark", "brand:wikidata": "Q137023", "nsi_id": "primark-5d2556"}, "geometry": {"type": "Point", "coordinates": [6.0068349, 43.1382057]}},
{"type": "Feature", "id": "yumuhj2OYupSrCsEpmpIv4OLxos=", "properties": {"ref": "225", "payment:google_pay": "yes", "payment:cash": "yes", "payment:mastercard": "yes", "payment:visa": "yes", "@spider": "primark", "shop": "clothes", "addr:street_address": "Centre commercial \u00c9vry 2, 2 Boulevard de l'Europe", "addr:city": "\u00c9vry", "addr:postcode": "91000", "addr:country": "FR", "name": "Primark", "phone": "+33164980026", "website": "https://stores.primark.com/fr_be/france/evry/centre-commercial-evry-2", "contact:facebook": "https://www.facebook.com/336507393375093", "opening_hours": "Mo-Th 10:00-20:00; Fr 10:00-20:30; Sa 10:00-20:00", "brand": "Primark", "brand:wikidata": "Q137023", "nsi_id": "primark-5d2556"}, "geometry": {"type": "Point", "coordinates": [2.428075411045029, 48.6298721818215]}},
{"type": "Feature", "id": "uflDPqEGdIhPmmC6bjMOOsTo3ew=", "properties": {"ref": "201", "payment:google_pay": "yes", "payment:cash": "yes", "payment:mastercard": "yes", "payment:visa": "yes", "@spider": "primark", "shop": "clothes", "addr:street_address": "Centre commercial Toison d'or, Route de Langres", "addr:city": "Dijon", "addr:postcode": "21000", "addr:country": "FR", "name": "Primark", "phone": "+33380410833", "website": "https://stores.primark.com/fr_be/france/dijon/centre-commercial-toison-d'or", "contact:facebook": "https://www.facebook.com/208732245993181", "opening_hours": "Mo-Fr 10:00-20:00; Sa 09:00-20:00", "brand": "Primark", "brand:wikidata": "Q137023", "nsi_id": "primark-5d2556"}, "geometry": {"type": "Point", "coordinates": [5.0501265, 47.3552451]}},
{"type": "Feature", "id": "Yf8YdaUlDejSEtdPLvhJWKC4ajs=", "properties": {"ref": "222", "payment:google_pay": "yes", "payment:cash": "yes", "payment:mastercard": "yes", "payment:visa": "yes", "@spider": "primark", "shop": "clothes", "addr:street_address": "Avenue de la France Libre", "addr:city": "Creteil", "addr:postcode": "94000", "addr:country": "FR", "name": "Primark", "phone": "+33148536602", "website": "https://stores.primark.com/fr_be/france/creteil/avenue-de-la-france-libre", "contact:facebook": "https://www.facebook.com/378641875866651", "opening_hours": "Mo-Sa 10:00-20:30; Su 11:00-19:00", "brand": "Primark", "brand:wikidata": "Q137023", "nsi_id": "primark-5d2556"}, "geometry": {"type": "Point", "coordinates": [2.4551638920547703, 48.78180463273082]}},
{"type": "Feature", "id": "AjB9f0kS-n3yGt2qCwGvDSvOPsw=", "properties": {"ref": "232", "@spider": "primark", "shop": "clothes", "addr:street_address": "Centre commercial Cit\u00e9 Europe, 1001 Boulevard du Kent", "addr:city": "Coquelles", "addr:postcode": "62231", "addr:country": "FR", "name": "Primark", "phone": "+33361315000", "website": "https://stores.primark.com/fr_be/france/coquelles/centre-commercial-cite-europe", "contact:facebook": "https://www.facebook.com/105374035081012", "opening_hours": "Mo-Sa 10:00-20:00", "brand": "Primark", "brand:wikidata": "Q137023", "nsi_id": "primark-5d2556"}, "geometry": {"type": "Point", "coordinates": [1.81007343914795, 50.93400905708158]}},
{"type": "Feature", "id": "8SuPS3LeyfzaEDG76d45J-VZV5s=", "properties": {"ref": "206", "payment:google_pay": "yes", "payment:cash": "yes", "payment:mastercard": "yes", "payment:visa": "yes", "@spider": "primark", "shop": "clothes", "addr:street_address": "Centre Commercial Polygone Riviera, 119 Avenue des Alpes", "addr:city": "Cagnes-sur-Mer", "addr:postcode": "06800", "addr:country": "FR", "name": "Primark", "phone": "+33493294301", "website": "https://stores.primark.com/fr_be/france/cagnes-sur-mer/centre-commercial-polygone-riviera", "contact:facebook": "https://www.facebook.com/1583334501991940", "opening_hours": "Mo-Sa 10:00-20:00; Su 11:00-19:00", "brand": "Primark", "brand:wikidata": "Q137023", "nsi_id": "primark-5d2556"}, "geometry": {"type": "Point", "coordinates": [7.128327, 43.66299619999999]}},
{"type": "Feature", "id": "0mehdIDMV4JNOdtfZAFLthqsNRs=", "properties": {"ref": "213", "payment:google_pay": "yes", "payment:cash": "yes", "payment:mastercard": "yes", "payment:visa": "yes", "@spider": "primark", "shop": "clothes", "addr:street_address": "Primark Bordeaux Lac, Centre Commercial Aushopping Bordeaux lac, Avenue des quarante journaux", "addr:city": "Bordeaux", "addr:postcode": "33300", "addr:country": "FR", "name": "Primark", "phone": "+33557443809", "website": "https://stores.primark.com/fr_be/france/bordeaux/primark-bordeaux-lac-centre-commercial-aushopping-bordeaux-lac", "contact:facebook": "https://www.facebook.com/2479765945376708", "opening_hours": "Mo-Sa 10:00-20:00", "brand": "Primark", "brand:wikidata": "Q137023", "nsi_id": "primark-5d2556"}, "geometry": {"type": "Point", "coordinates": [-0.5650020503235282, 44.87901405877513]}},
{"type": "Feature", "id": "LtE2iBElh9YmTj7bzJp26C5_S-8=", "properties": {"ref": "220", "payment:google_pay": "yes", "payment:cash": "yes", "payment:mastercard": "yes", "payment:visa": "yes", "@spider": "primark", "shop": "clothes", "addr:street_address": "Centre Commercial O'Parinor, Le Haut de Galy", "addr:city": "Aulnay-sous-Bois", "addr:postcode": "93600", "addr:country": "FR", "name": "Primark", "phone": "+33148638025", "website": "https://stores.primark.com/fr_be/france/aulnay-sous-bois/centre-commercial-o'parinor", "contact:facebook": "https://www.facebook.com/1989247538001942", "opening_hours": "Mo-Sa 10:00-20:00; Su 11:00-19:00", "brand": "Primark", "brand:wikidata": "Q137023", "nsi_id": "primark-5d2556"}, "geometry": {"type": "Point", "coordinates": [2.4749252, 48.9595835]}},
{"type": "Feature", "id": "I9b_Utj9Is7O5ZuwiVCdzy0iGJc=", "properties": {"ref": "111", "payment:google_pay": "yes", "payment:apple_pay": "yes", "payment:cash": "yes", "payment:mastercard": "yes", "payment:visa": "yes", "@spider": "primark", "shop": "clothes", "addr:street_address": "5100 Kings Plaza", "addr:city": "Brooklyn", "addr:state": "NY", "addr:postcode": "11234", "addr:country": "US", "name": "Primark", "phone": "+17182531701", "website": "https://stores.primark.com/fr_be/etats-unis/brooklyn/5100-kings-plaza", "contact:facebook": "https://www.facebook.com/2101844496724899", "opening_hours": "Mo-Sa 10:00-21:30; Su 10:00-20:00", "brand": "Primark", "brand:wikidata": "Q137023", "nsi_id": "primark-5d2556"}, "geometry": {"type": "Point", "coordinates": [-73.92014866004945, 40.60907322034157]}},
{"type": "Feature", "id": "mOBPAGRZghkHCri1CLxJOiljaCA=", "properties": {"ref": "106", "payment:google_pay": "yes", "payment:apple_pay": "yes", "payment:cash": "yes", "payment:mastercard": "yes", "payment:visa": "yes", "@spider": "primark", "shop": "clothes", "addr:street_address": "250 Granite Street", "addr:city": "Braintree", "addr:state": "MA", "addr:postcode": "02184", "addr:country": "US", "name": "Primark", "phone": "+17817943270", "website": "https://stores.primark.com/fr_be/etats-unis/braintree/250-granite-street", "contact:facebook": "https://www.facebook.com/1238612322917985", "opening_hours": "Mo-Th 10:00-20:00; Fr-Sa 10:00-21:00; Su 11:00-18:00", "brand": "Primark", "brand:wikidata": "Q137023", "nsi_id": "primark-5d2556"}, "geometry": {"type": "Point", "coordinates": [-71.02421, 42.222096]}},
{"type": "Feature", "id": "GtVKG9E5xoiMs-GmBmyk_BkylaI=", "properties": {"ref": "100", "payment:google_pay": "yes", "payment:apple_pay": "yes", "payment:cash": "yes", "payment:mastercard": "yes", "payment:visa": "yes", "@spider": "primark", "shop": "clothes", "addr:street_address": "10 Summer Street", "addr:city": "Boston", "addr:state": "MA", "addr:postcode": "02110", "addr:country": "US", "name": "Primark", "phone": "+16173505232", "website": "https://stores.primark.com/fr_be/etats-unis/boston/10-summer-street", "contact:facebook": "https://www.facebook.com/1843157462585942", "opening_hours": "Mo-Su 10:00-20:00", "brand": "Primark", "brand:wikidata": "Q137023", "nsi_id": "primark-5d2556"}, "geometry": {"type": "Point", "coordinates": [-71.06009493485749, 42.35553779610866]}}]}