{"type":"FeatureCollection","features":[{"type": "Feature", "id": "bcohd_ZEKNOkRSP-4zO_Zjz5y8g=", "properties": {"ref": "https://www.providence.org/locations/st-thomas-child-and-family-center", "@spider": "providence_health_services", "addr:street_address": "1710 Benefis Court", "addr:city": "Great Falls", "addr:state": "Montana", "addr:postcode": "59405", "name": "St Thomas Child and Family Center", "phone": "406-761-6538", "website": "https://www.providence.org/locations/st-thomas-child-and-family-center", "brand": "Providence Health Services", "brand:wikidata": "Q7252430"}, "geometry": {"type": "Point", "coordinates": [-111.2997763, 47.486702]}},
{"type": "Feature", "id": "LK4M__ZvCxpuVY9-zIwwps5ie1k=", "properties": {"ref": "https://www.providence.org/locations/tarzana-medical-center", "@spider": "providence_health_services", "addr:street_address": "18321 Clark St", "addr:city": "Tarzana", "addr:state": "California", "addr:postcode": "91356", "name": "Providence Tarzana Medical Center", "phone": "818-881-0800", "website": "https://www.providence.org/locations/tarzana-medical-center", "brand": "Providence Health Services", "brand:wikidata": "Q7252430"}, "geometry": {"type": "Point", "coordinates": [-118.5320475, 34.1710084]}},
{"type": "Feature", "id": "TQaKbkkNCKxYU7fGaffgQgtZYRo=", "properties": {"ref": "https://www.providence.org/locations/st-joseph-hospital-orange", "@spider": "providence_health_services", "addr:street_address": "1100 W Stewart Dr", "addr:city": "Orange", "addr:state": "California", "addr:postcode": "92868", "name": "St Joseph Hospital Orange", "phone": "714-771-8000", "website": "https://www.providence.org/locations/st-joseph-hospital-orange", "brand": "Providence Health Services", "brand:wikidata": "Q7252430"}, "geometry": {"type": "Point", "coordinates": [-117.8654245, 33.7820441]}},
{"type": "Feature", "id": "SXIEtzj_m_p6YC9xJCDskJnLr-U=", "properties": {"ref": "https://www.providence.org/locations/st-mary-medical-center", "@spider": "providence_health_services", "addr:street_address": "18300 Highway 18", "addr:city": "Apple Valley", "addr:state": "California", "addr:postcode": "92307", "name": "St. Mary Medical Center", "phone": "760-242-2311 ", "website": "https://www.providence.org/locations/st-mary-medical-center", "brand": "Providence Health Services", "brand:wikidata": "Q7252430"}, "geometry": {"type": "Point", "coordinates": [-117.2655636, 34.5418476]}},
{"type": "Feature", "id": "nQLczMHB97KszZdypwkDnGWnzAQ=", "properties": {"ref": "https://www.providence.org/locations/saint-joseph-medical-center", "@spider": "providence_health_services", "addr:street_address": "501 S Buena Vista St", "addr:city": "Burbank", "addr:state": "California", "addr:postcode": "91505", "name": "Providence Saint Joseph Medical Center", "phone": "818-843-5111", "website": "https://www.providence.org/locations/saint-joseph-medical-center", "brand": "Providence Health Services", "brand:wikidata": "Q7252430"}, "geometry": {"type": "Point", "coordinates": [-118.3284546, 34.1562138]}},
{"type": "Feature", "id": "UNiNIOgi9fBZX0_3lEt_5oFBqo0=", "properties": {"ref": "https://www.providence.org/locations/st-jude-medical-center", "@spider": "providence_health_services", "addr:street_address": "101 E Valencia Mesa Dr", "addr:city": "Fullerton", "addr:state": "California", "addr:postcode": "92835", "name": "St Jude Medical Center", "phone": "714-871-3280", "website": "https://www.providence.org/locations/st-jude-medical-center", "brand": "Providence Health Services", "brand:wikidata": "Q7252430"}, "geometry": {"type": "Point", "coordinates": [-117.9272201, 33.8943451]}},
{"type": "Feature", "id": "AKcyM4jeWF6dnFG0WyLRDjYic6c=", "properties": {"ref": "https://www.providence.org/locations/saint-johns-health-center", "@spider": "providence_health_services", "addr:street_address": "2121 Santa Monica Blvd", "addr:city": "Santa Monica", "addr:state": "California", "addr:postcode": "90404", "name": "Providence Saint Johns Health Center", "phone": "310-829-5511", "website": "https://www.providence.org/locations/saint-johns-health-center", "brand": "Providence Health Services", "brand:wikidata": "Q7252430"}, "geometry": {"type": "Point", "coordinates": [-118.4796445, 34.0307739]}},
{"type": "Feature", "id": "GVX35WlWCnTqlW2vqDAhn5HS08w=", "properties": {"ref": "https://www.providence.org/locations/plcm-torrance", "@spider": "providence_health_services", "addr:street_address": "4101 Torrance Blvd", "addr:city": "Torrance", "addr:state": "California", "addr:postcode": "90503", "name": "Providence Little Company of Mary Medical Center - Torrance", "phone": "310-540-7676", "website": "https://www.providence.org/locations/plcm-torrance", "brand": "Providence Health Services", "brand:wikidata": "Q7252430"}, "geometry": {"type": "Point", "coordinates": [-118.3572436, 33.8384678]}},
{"type": "Feature", "id": "xD7lHYhNy5IYdQcQzIRlQsW10u0=", "properties": {"ref": "https://www.providence.org/locations/plcm-san-pedro", "@spider": "providence_health_services", "addr:street_address": "1300 W 7th St", "addr:city": "San Pedro", "addr:state": "California", "addr:postcode": "90732", "name": "Providence Little Company of Mary Medical Center - San Pedro", "phone": "310-832-3311", "website": "https://www.providence.org/locations/plcm-san-pedro", "brand": "Providence Health Services", "brand:wikidata": "Q7252430"}, "geometry": {"type": "Point", "coordinates": [-118.305098, 33.7382583]}}]}