{"type":"FeatureCollection","features":[{"type": "Feature", "id": "hFgIFd939zXa8myu0oo04l3KbCA=", "properties": {"ref": "29", "@spider": "qualitydiary", "addr:city": "Lansing", "addr:state": "MI", "name": "Quality Dairy Store - South Pennsylvania & Kalamazoo", "phone": "517-371-8902", "website": "http://qualitydairy.com/v15/stores/s-pennsylvania/", "opening_hours": "06:00-02:00", "brand": "Quality Dairy", "brand:wikidata": "Q23461886"}, "geometry": {"type": "Point", "coordinates": [-84.5383868081303, 42.72952863060616]}},
{"type": "Feature", "id": "MgSyf8OjA8HF6ca5w87hXH72g8k=", "properties": {"ref": "30", "@spider": "qualitydiary", "addr:city": "Lansing", "addr:state": "MI", "name": "Quality Dairy Store - North Larch Street", "phone": "517-371-8903", "website": "http://qualitydairy.com/v15/stores/n-larch/", "opening_hours": "05:30-02:00", "brand": "Quality Dairy", "brand:wikidata": "Q23461886"}, "geometry": {"type": "Point", "coordinates": [-84.543916, 42.756585]}},
{"type": "Feature", "id": "wtkrxGBtOoTlitWBLdGA-UGbQmU=", "properties": {"ref": "31", "@spider": "qualitydiary", "addr:city": "Lansing", "addr:state": "MI", "name": "Quality Dairy Store - West Mount Hope Ave", "phone": "517-371-8904", "website": "http://qualitydairy.com/v15/stores/mt-hope/", "opening_hours": "06:00-12:00", "brand": "Quality Dairy", "brand:wikidata": "Q23461886"}, "geometry": {"type": "Point", "coordinates": [-84.572059, 42.712285]}},
{"type": "Feature", "id": "QA-Co9k5IfIHuQh14rP_0kQB3lU=", "properties": {"ref": "32", "@spider": "qualitydiary", "addr:city": "Lansing", "addr:state": "MI", "name": "Quality Dairy Store - Pine Street & West Saginaw", "phone": "517-371-8905", "website": "http://qualitydairy.com/v15/stores/pine/", "opening_hours": "Su 07:00-12:00; Mo-Fr 06:00-12:00; Sa 07:00-12:00", "brand": "Quality Dairy", "brand:wikidata": "Q23461886"}, "geometry": {"type": "Point", "coordinates": [-84.559671, 42.74119]}},
{"type": "Feature", "id": "huGHm6wY8fB1RFisZQ5b_Pb1wZM=", "properties": {"ref": "34", "@spider": "qualitydiary", "addr:city": "Lansing", "addr:state": "MI", "name": "Quality Dairy Store - West Jolly Road", "phone": "517-371-8906", "website": "http://qualitydairy.com/v15/stores/w-jolly/", "opening_hours": "Su 07:00-12:00; Mo-Fr 06:30-12:00; Sa 07:00-12:00", "brand": "Quality Dairy", "brand:wikidata": "Q23461886"}, "geometry": {"type": "Point", "coordinates": [-84.562025, 42.683347]}},
{"type": "Feature", "id": "IMZQEABQXXnChNLRWdAV-DkeMAI=", "properties": {"ref": "35", "@spider": "qualitydiary", "addr:city": "Lansing", "addr:state": "MI", "name": "Quality Dairy Store - Cavanaugh & Pennsylvania", "phone": "517-371-8909", "website": "http://qualitydairy.com/v15/stores/cavanaughpennsylvania/", "opening_hours": "Su 07:00-02:00; Mo-Fr 05:30-02:00; Sa 07:00-02:00", "brand": "Quality Dairy", "brand:wikidata": "Q23461886"}, "geometry": {"type": "Point", "coordinates": [-84.53864, 42.690319]}},
{"type": "Feature", "id": "BR9HcavErUyfGz_01Q89mcJd_4A=", "properties": {"ref": "36", "@spider": "qualitydiary", "addr:city": "Lansing", "addr:state": "MI", "name": "Quality Dairy Store - Holmes Road", "phone": "517-371-8911", "website": "http://qualitydairy.com/v15/stores/holmes/", "opening_hours": "05:30-12:00", "brand": "Quality Dairy", "brand:wikidata": "Q23461886"}, "geometry": {"type": "Point", "coordinates": [-84.581699, 42.697212]}},
{"type": "Feature", "id": "sKln21PNR37NBzrFYMKGzjRjdx8=", "properties": {"ref": "37", "@spider": "qualitydiary", "addr:city": "Lansing", "addr:state": "MI", "name": "Quality Dairy Store - Waverly & St. Joe", "phone": "517-371-8910", "website": "http://qualitydairy.com/v15/stores/waverlyst-joe/", "opening_hours": "Su 06:00-22:00; Mo-Fr 05:00-12:00; Sa 06:00-22:00", "brand": "Quality Dairy", "brand:wikidata": "Q23461886"}, "geometry": {"type": "Point", "coordinates": [-84.602944, 42.726768]}},
{"type": "Feature", "id": "TNd3AXwpXTgviZYq1XKS_pyEZTg=", "properties": {"ref": "38", "@spider": "qualitydiary", "addr:city": "Lansing", "addr:state": "MI", "name": "Quality Dairy Store - Saginaw Hwy West of Waverly", "phone": "517-371-8913", "website": "http://qualitydairy.com/v15/stores/w-saginaw/", "opening_hours": "Su-Th 06:00-12:00; Fr-Sa 06:00-02:00", "brand": "Quality Dairy", "brand:wikidata": "Q23461886"}, "geometry": {"type": "Point", "coordinates": [-84.613543, 42.741028]}},
{"type": "Feature", "id": "C-hPVpO9QrazVjfLGrFmbYCNbD8=", "properties": {"ref": "40", "@spider": "qualitydiary", "addr:city": "Haslett", "addr:state": "MI", "name": "Quality Dairy Store - Haslett", "phone": "517-371-8915", "website": "http://qualitydairy.com/v15/stores/haslett/", "opening_hours": "Su-Th 06:00-23:00; Fr-Sa 06:00-12:00", "brand": "Quality Dairy", "brand:wikidata": "Q23461886"}, "geometry": {"type": "Point", "coordinates": [-84.408261, 42.753108]}},
{"type": "Feature", "id": "vy-z5Bx2hvrKn9ds7A3RkryKJFA=", "properties": {"ref": "41", "@spider": "qualitydiary", "addr:city": "Lansing", "addr:state": "MI", "name": "Quality Dairy Store - South Waverly & Jolly Road", "phone": "517-371-8916", "website": "http://qualitydairy.com/v15/stores/s-waverly/", "opening_hours": "06:00-02:00", "brand": "Quality Dairy", "brand:wikidata": "Q23461886"}, "geometry": {"type": "Point", "coordinates": [-84.603668, 42.682834]}},
{"type": "Feature", "id": "NoFXNS7UEpoD-rw29Of97waq3fo=", "properties": {"ref": "42", "@spider": "qualitydiary", "addr:city": "Lansing", "addr:state": "MI", "name": "Quality Dairy Store - Martin Luther King & Miller Road", "phone": "517-371-8917", "website": "http://qualitydairy.com/v15/stores/mlk/", "opening_hours": "06:00-22:00", "brand": "Quality Dairy", "brand:wikidata": "Q23461886"}, "geometry": {"type": "Point", "coordinates": [-84.582937, 42.669461]}},
{"type": "Feature", "id": "YxYpr8wy168wuiDac79d8VqCkaU=", "properties": {"ref": "43", "@spider": "qualitydiary", "addr:city": "Holt", "addr:state": "MI", "name": "Quality Dairy Store - Holt", "phone": "517-371-8918", "website": "http://qualitydairy.com/v15/stores/holt/", "opening_hours": "05:30-02:00", "brand": "Quality Dairy", "brand:wikidata": "Q23461886"}, "geometry": {"type": "Point", "coordinates": [-84.523239, 42.64694]}},
{"type": "Feature", "id": "xbQskGa0jtpn43h9BGX9xn1khjk=", "properties": {"ref": "44", "@spider": "qualitydiary", "addr:city": "Dimondale", "addr:state": "MI", "name": "Quality Dairy Store - Lansing Road / M-78", "phone": "517-371-8919", "website": "http://qualitydairy.com/v15/stores/m-78/", "opening_hours": "Su 06:00-12:00; Mo-Fr 04:00-12:00; Sa 06:00-12:00", "brand": "Quality Dairy", "brand:wikidata": "Q23461886"}, "geometry": {"type": "Point", "coordinates": [-84.659431, 42.671722]}},
{"type": "Feature", "id": "7hnTmufrmIWVx3G1QkkoHJmDBfE=", "properties": {"ref": "45", "@spider": "qualitydiary", "addr:city": "Lansing", "addr:state": "MI", "name": "Quality Dairy Store - Downtown East Saginaw Street", "phone": "517-371-8920", "website": "http://qualitydairy.com/v15/stores/e-saginaw/", "opening_hours": "24/7", "brand": "Quality Dairy", "brand:wikidata": "Q23461886"}, "geometry": {"type": "Point", "coordinates": [-84.545533, 42.740467]}},
{"type": "Feature", "id": "i3VS_AamNq4dOgzFq-xFxhz3wZU=", "properties": {"ref": "46", "@spider": "qualitydiary", "addr:city": "East Lansing", "addr:state": "MI", "name": "Quality Dairy Store - Harrison Road", "phone": "517-371-8921", "website": "http://qualitydairy.com/v15/stores/harrison/", "opening_hours": "Su 08:00-23:00; Mo-Th 07:00-23:00; Fr-Sa 07:00-12:00", "brand": "Quality Dairy", "brand:wikidata": "Q23461886"}, "geometry": {"type": "Point", "coordinates": [-84.493919, 42.733862]}},
{"type": "Feature", "id": "cZ2iRYzT66aD0eQR51jV6Vfz3Gs=", "properties": {"ref": "47", "@spider": "qualitydiary", "addr:city": "Lansing", "addr:state": "MI", "name": "Quality Dairy Store - Cedar & Greenlawn", "phone": "517-371-8922", "website": "http://qualitydairy.com/v15/stores/greenlawn/", "opening_hours": "05:30-12:00", "brand": "Quality Dairy", "brand:wikidata": "Q23461886"}, "geometry": {"type": "Point", "coordinates": [-84.548446, 42.70481]}},
{"type": "Feature", "id": "IgOsTh22S88vvNxisu0ZLeT3Akc=", "properties": {"ref": "50", "@spider": "qualitydiary", "addr:city": "Eaton Rapids", "addr:state": "MI", "name": "Quality Dairy Store - Eaton Rapids", "phone": "517-371-8923", "website": "http://qualitydairy.com/v15/stores/eaton-rapids/", "opening_hours": "24/7", "brand": "Quality Dairy", "brand:wikidata": "Q23461886"}, "geometry": {"type": "Point", "coordinates": [-84.655749, 42.512416]}},
{"type": "Feature", "id": "_1KGmSZDoE1rcVDLRaxhv-rOvxs=", "properties": {"ref": "53", "@spider": "qualitydiary", "addr:city": "Lansing", "addr:state": "MI", "name": "Quality Dairy Store - Creyts Road", "phone": "517-371-8924", "website": "http://qualitydairy.com/v15/stores/creyts/", "opening_hours": "Su 06:00-22:00; Mo-Sa 06:00-12:00", "brand": "Quality Dairy", "brand:wikidata": "Q23461886"}, "geometry": {"type": "Point", "coordinates": [-84.6423966, 42.7266559]}},
{"type": "Feature", "id": "4wKnqaZAw7YZF0u3cQATd_ThZBo=", "properties": {"ref": "54", "@spider": "qualitydiary", "addr:city": "Lansing", "addr:state": "MI", "name": "Quality Dairy Store - Michigan & Foster", "phone": "517-371-8925", "website": "http://qualitydairy.com/v15/stores/foster/", "opening_hours": "06:00-11:00", "brand": "Quality Dairy", "brand:wikidata": "Q23461886"}, "geometry": {"type": "Point", "coordinates": [-84.517161, 42.733289]}},
{"type": "Feature", "id": "nF3jsNSW3mGjyS4zLqo4RXJkTJU=", "properties": {"ref": "55", "@spider": "qualitydiary", "addr:city": "Grand Ledge", "addr:state": "MI", "name": "Quality Dairy Store - Grand Ledge", "phone": "517-371-8926", "website": "http://qualitydairy.com/v15/stores/grand-ledge/", "opening_hours": "Su 06:00-12:00; Mo-Th 05:00-12:00; Fr 05:00-02:00; Sa 06:00-02:00", "brand": "Quality Dairy", "brand:wikidata": "Q23461886"}, "geometry": {"type": "Point", "coordinates": [-84.739401, 42.748005]}},
{"type": "Feature", "id": "8uTATP7jPB7vLlyMu0NAVKkjoJw=", "properties": {"ref": "58", "@spider": "qualitydiary", "addr:city": "East Lansing", "addr:state": "MI", "name": "Quality Dairy Store - Whitehills", "phone": "517-371-8927", "website": "http://qualitydairy.com/v15/stores/whitehills/", "opening_hours": "06:00-23:00", "brand": "Quality Dairy", "brand:wikidata": "Q23461886"}, "geometry": {"type": "Point", "coordinates": [-84.474985, 42.758045]}},
{"type": "Feature", "id": "8JCmQJdVpd4-JN8jRWEfxvJDTKA=", "properties": {"ref": "59", "@spider": "qualitydiary", "addr:city": "Lansing", "addr:state": "MI", "name": "Quality Dairy Store - Jolly & Dunckel", "phone": " 517-371-8928", "website": "http://qualitydairy.com/v15/stores/dunckel/", "opening_hours": "24/7", "brand": "Quality Dairy", "brand:wikidata": "Q23461886"}, "geometry": {"type": "Point", "coordinates": [-84.513436, 42.683365]}},
{"type": "Feature", "id": "c-TySXpA7y52ZzWe1IXVrNemJUA=", "properties": {"ref": "65", "@spider": "qualitydiary", "addr:city": "Mason", "addr:state": "MI", "name": "Quality Dairy Store - Mason", "phone": "517-371-8930", "website": "http://qualitydairy.com/v15/stores/mason/", "opening_hours": "Su-Th 06:00-22:00; Fr-Sa 06:00-12:00", "brand": "Quality Dairy", "brand:wikidata": "Q23461886"}, "geometry": {"type": "Point", "coordinates": [-84.444355, 42.579906]}},
{"type": "Feature", "id": "iWd-zlfNU77JqHfn2e7gCcyvIU0=", "properties": {"ref": "66", "@spider": "qualitydiary", "addr:city": "Okemos", "addr:state": "MI", "name": "Quality Dairy Store - Okemos", "phone": "517-371-8931", "website": "http://qualitydairy.com/v15/stores/okemos/", "opening_hours": "Su 07:00-23:00; Mo-Fr 06:00-23:00; Sa 07:00-23:00", "brand": "Quality Dairy", "brand:wikidata": "Q23461886"}, "geometry": {"type": "Point", "coordinates": [-84.410574, 42.717569]}},
{"type": "Feature", "id": "PVDILqOLdM7Hck6Oi3zHt--BCe8=", "properties": {"ref": "67", "@spider": "qualitydiary", "addr:city": "Charlotte", "addr:state": "MI", "name": "Quality Dairy Store - Charlotte", "phone": "517-371-8932", "website": "http://qualitydairy.com/v15/stores/charlotte/", "opening_hours": "Su-Th 05:00-23:00; Fr-Sa 05:00-12:00", "brand": "Quality Dairy", "brand:wikidata": "Q23461886"}, "geometry": {"type": "Point", "coordinates": [-84.82527, 42.570466]}},
{"type": "Feature", "id": "_Qd4TVa_wXoqWPfs4IgjZO1wY_M=", "properties": {"ref": "68", "@spider": "qualitydiary", "addr:city": "Lansing", "addr:state": "MI", "name": "Quality Dairy Store - Delta Township", "phone": "517-371-8933", "website": "http://qualitydairy.com/v15/stores/delta/", "opening_hours": "Su-Th 05:00-23:00; Fr-Sa 05:00-12:00", "brand": "Quality Dairy", "brand:wikidata": "Q23461886"}, "geometry": {"type": "Point", "coordinates": [-84.680835, 42.741081]}}]}