{"type":"FeatureCollection","features":[{"type": "Feature", "id": "O6mSMdocaDG0mPb9zE04_fXzYzg=", "properties": {"ref": "4016", "addr:suite": "", "@spider": "quiznos", "amenity": "fast_food", "cuisine": "sandwich", "takeaway": "yes", "addr:full": "164 W Division St", "addr:city": "Chicago", "addr:state": "IL", "addr:postcode": "60610", "addr:country": "US", "name": "1212 N. LaSalle", "phone": "(312) 642-3355", "website": "https://delivery.quiznos.com/?store_id=6359", "opening_hours": "Mo-Fr 10:00-21:00; Sa 11:00-21:00; Su 11:00-20:00", "brand": "Quizno's", "brand:wikidata": "Q1936229", "nsi_id": "quiznos-658eea"}, "geometry": {"type": "Point", "coordinates": [-87.633669383024, 41.903868042386]}},
{"type": "Feature", "id": "D_rCevj9sJ58dabMOopNqvnhLX8=", "properties": {"ref": "9580", "addr:suite": null, "@spider": "quiznos", "amenity": "fast_food", "cuisine": "sandwich", "takeaway": "yes", "addr:full": "Unit 607 - 137 Ave NW", "addr:city": "Edmonton", "addr:state": "AB", "addr:postcode": "T5E 6C1", "addr:country": "CA", "name": "137 Ave. NW/113A St. NW", "website": "https://delivery.quiznos.com/?store_id=6773", "opening_hours": "Mo-Fr 10:00-21:00; Sa-Su 11:00-20:00", "brand": "Quizno's", "brand:wikidata": "Q1936229", "nsi_id": "quiznos-658eea"}, "geometry": {"type": "Point", "coordinates": [-113.48585, 53.59991]}},
{"type": "Feature", "id": "mfr5NtgDrj9pZ9r_5R9dFu-Q6tc=", "properties": {"ref": "648", "addr:suite": "", "@spider": "quiznos", "amenity": "fast_food", "cuisine": "sandwich", "takeaway": "yes", "addr:full": "1441 W Knox St", "addr:city": "Torrance", "addr:state": "CA", "addr:postcode": "90501", "addr:country": "US", "name": "190th and Normandie", "website": "https://delivery.quiznos.com/?store_id=6214", "opening_hours": "Mo-Fr 10:00-20:00; Sa 10:00-16:00; Su 11:00-16:00", "brand": "Quizno's", "brand:wikidata": "Q1936229", "nsi_id": "quiznos-658eea"}, "geometry": {"type": "Point", "coordinates": [-118.30123, 33.85404]}},
{"type": "Feature", "id": "jPF8vQfE-uw8b4G0kM-QNHaMIZk=", "properties": {"ref": "3669", "addr:suite": null, "@spider": "quiznos", "amenity": "fast_food", "cuisine": "sandwich", "takeaway": "yes", "addr:full": "101 1st Ave SW Ste 11", "addr:city": "Rochester", "addr:state": "MN", "addr:postcode": "55902", "addr:country": "US", "name": "1st Avenue", "phone": "(507) 292-5725", "website": "https://delivery.quiznos.com/?store_id=6346", "opening_hours": "Mo-Th 07:00-18:00; Fr 07:00-17:30", "brand": "Quizno's", "brand:wikidata": "Q1936229", "nsi_id": "quiznos-658eea"}, "geometry": {"type": "Point", "coordinates": [-92.46441, 44.02241]}},
{"type": "Feature", "id": "cs9LvtwKo-u3uV1Nn3by7gYUpS4=", "properties": {"ref": "6356", "addr:suite": null, "@spider": "quiznos", "amenity": "fast_food", "cuisine": "sandwich", "takeaway": "yes", "addr:full": "3110 2nd Ave W", "addr:city": "Prince Albert", "addr:state": "SK", "addr:postcode": "S6V 5E8", "addr:country": "CA", "name": "2nd Ave Prince Albert", "website": "https://delivery.quiznos.com/?store_id=6737", "opening_hours": "Mo-Fr 10:00-21:00; Sa 11:00-21:00; Su 11:00-20:00", "brand": "Quizno's", "brand:wikidata": "Q1936229", "nsi_id": "quiznos-658eea"}, "geometry": {"type": "Point", "coordinates": [-105.759696, 53.1846121]}},
{"type": "Feature", "id": "xYz30LIBWNiou3WIwhaNpmLiJFg=", "properties": {"ref": "15007", "addr:suite": "Ste 105", "@spider": "quiznos", "amenity": "fast_food", "cuisine": "sandwich", "takeaway": "yes", "addr:full": "3535 Quebec St", "addr:city": "Denver", "addr:state": "CO", "addr:postcode": "80207", "addr:country": "US", "name": "35th and Quebec St", "website": "https://delivery.quiznos.com/?store_id=11028", "opening_hours": "Mo-Fr 10:00-21:00", "brand": "Quizno's", "brand:wikidata": "Q1936229", "nsi_id": "quiznos-658eea"}, "geometry": {"type": "Point", "coordinates": [-104.90367, 39.76672]}},
{"type": "Feature", "id": "mDT0LHlkfe-qUnCdxPwZf6fgqCk=", "properties": {"ref": "4008", "addr:suite": "", "@spider": "quiznos", "amenity": "fast_food", "cuisine": "sandwich", "takeaway": "yes", "addr:full": "1565 N 1st St Ste 9", "addr:city": "Hermiston", "addr:state": "OR", "addr:postcode": "97838", "addr:country": "US", "name": "395 Mall", "phone": "(541) 567-5050", "website": "https://delivery.quiznos.com/?store_id=6357", "opening_hours": "Mo-Sa 10:00-21:00; Su 11:00-20:00", "brand": "Quizno's", "brand:wikidata": "Q1936229", "nsi_id": "quiznos-658eea"}, "geometry": {"type": "Point", "coordinates": [-119.290384, 45.852433]}},
{"type": "Feature", "id": "FiY1lk7tp8boas6wjZcwexKue-Y=", "properties": {"ref": "10810", "addr:suite": null, "@spider": "quiznos", "amenity": "fast_food", "cuisine": "sandwich", "takeaway": "yes", "addr:full": "4505 Peoria St Unit 102", "addr:city": "Denver", "addr:state": "CO", "addr:postcode": "80239", "addr:country": "US", "name": "45th and Peoria Street", "website": "https://delivery.quiznos.com/?store_id=6488", "opening_hours": "Mo-Fr 10:00-19:00; Sa 10:00-17:00", "brand": "Quizno's", "brand:wikidata": "Q1936229", "nsi_id": "quiznos-658eea"}, "geometry": {"type": "Point", "coordinates": [-104.84725, 39.778179]}},
{"type": "Feature", "id": "pUDKgl3x3CQkMwZhiAt457cjmik=", "properties": {"ref": "12123", "addr:suite": null, "@spider": "quiznos", "amenity": "fast_food", "cuisine": "sandwich", "takeaway": "yes", "addr:full": "100, 4529 49 Ave", "addr:city": "Olds", "addr:state": "AB", "addr:postcode": "T4H 1A4", "addr:country": "CA", "name": "49th Ave & 46th St - Olds", "website": "https://delivery.quiznos.com/?store_id=6795", "opening_hours": "Mo-Fr 10:00-19:00; Sa 11:30-18:00", "brand": "Quizno's", "brand:wikidata": "Q1936229", "nsi_id": "quiznos-658eea"}, "geometry": {"type": "Point", "coordinates": [-114.10141, 51.79528]}},
{"type": "Feature", "id": "I7KGO7B-Bgk6VyGlyYUqWWFi0xk=", "properties": {"ref": "4489", "addr:suite": null, "@spider": "quiznos", "amenity": "fast_food", "cuisine": "sandwich", "takeaway": "yes", "addr:full": "820B 51st St E", "addr:city": "Saskatoon", "addr:state": "SK", "addr:postcode": "S7K 0X8", "addr:country": "CA", "name": "51st Street", "phone": "(306) 975-1820", "website": "https://delivery.quiznos.com/?store_id=6702", "opening_hours": "Mo-Fr 10:00-21:00; Sa 11:00-21:00; Su 11:00-20:00", "brand": "Quizno's", "brand:wikidata": "Q1936229", "nsi_id": "quiznos-658eea"}, "geometry": {"type": "Point", "coordinates": [-106.6550193, 52.1729935]}},
{"type": "Feature", "id": "JJFPsroKiDxekMjEuEeQhqr-3mI=", "properties": {"ref": "3068", "addr:suite": null, "@spider": "quiznos", "amenity": "fast_food", "cuisine": "sandwich", "takeaway": "yes", "addr:full": "710 Peachtree St NE Ste 116", "addr:city": "Atlanta", "addr:state": "GA", "addr:postcode": "30308", "addr:country": "US", "name": "710 Peachtree Street", "phone": "(404) 532-1994", "website": "https://delivery.quiznos.com/?store_id=6318", "opening_hours": "Mo-Fr 10:00-19:30; Sa 10:00-19:00", "brand": "Quizno's", "brand:wikidata": "Q1936229", "nsi_id": "quiznos-658eea"}, "geometry": {"type": "Point", "coordinates": [-84.384761170686, 33.774105490214]}},
{"type": "Feature", "id": "TgFdROsJ3N48yqWfcfawz7sMzhY=", "properties": {"ref": "3701", "addr:suite": null, "@spider": "quiznos", "amenity": "fast_food", "cuisine": "sandwich", "takeaway": "yes", "addr:full": "9115 96A St", "addr:city": "Fort St John", "addr:state": "BC", "addr:postcode": "V1J 6X6", "addr:country": "CA", "name": "96A and 100 Street", "phone": "(250) 787-1126", "opening_hours": "Mo-Sa 08:00-21:00; Su 11:00-20:00", "brand": "Quizno's", "brand:wikidata": "Q1936229", "nsi_id": "quiznos-658eea"}, "geometry": {"type": "Point", "coordinates": [-120.8406627, 56.2388692]}},
{"type": "Feature", "id": "6tAl1vxG4q0cO5vQnbIcBtauHsI=", "properties": {"ref": "2440", "addr:suite": null, "@spider": "quiznos", "amenity": "fast_food", "cuisine": "sandwich", "takeaway": "yes", "addr:full": "1217 Northeast 99th Street Suite 103", "addr:city": "Vancouver", "addr:state": "WA", "addr:postcode": "98665", "addr:country": "US", "name": "99 Street Crossing", "phone": "(360) 546-5396", "website": "https://delivery.quiznos.com/?store_id=6290", "opening_hours": "Mo-Su 10:00-20:00", "brand": "Quizno's", "brand:wikidata": "Q1936229", "nsi_id": "quiznos-658eea"}, "geometry": {"type": "Point", "coordinates": [-122.65928588773, 45.692987226532]}},
{"type": "Feature", "id": "YA1QVUsOOPQcdVkNdspC8bMljx8=", "properties": {"ref": "14987", "addr:suite": "Bldg 752", "@spider": "quiznos", "amenity": "fast_food", "cuisine": "sandwich", "takeaway": "yes", "addr:full": "1 Schofield Barracks", "addr:city": "Schofield Barracks", "addr:state": "HI", "addr:postcode": "96857", "addr:country": "US", "name": "AAFES - Schofield Barracks, Bldg 752", "website": "https://delivery.quiznos.com/?store_id=10168", "opening_hours": "Mo 07:00-20:00; Tu 07:00-20:30; We-Fr 07:00-20:00; Sa 09:00-17:00", "brand": "Quizno's", "brand:wikidata": "Q1936229", "nsi_id": "quiznos-658eea"}, "geometry": {"type": "Point", "coordinates": [-158.06535, 21.50139]}},
{"type": "Feature", "id": "eWJqrpLx-bHiBP4iHWXbQlT56kk=", "properties": {"ref": "14755", "addr:suite": null, "@spider": "quiznos", "amenity": "fast_food", "cuisine": "sandwich", "takeaway": "yes", "addr:full": "223 North Service Road West, Bldg A", "addr:city": "Oakville", "addr:state": "ON", "addr:postcode": "L6M 3R2", "addr:country": "CA", "name": "Abbey Centre Oakville", "website": "https://delivery.quiznos.com/?store_id=6841", "opening_hours": "Mo-Fr 10:00-21:00; Sa 11:00-21:00; Su 12:00-20:00", "brand": "Quizno's", "brand:wikidata": "Q1936229", "nsi_id": "quiznos-658eea"}, "geometry": {"type": "Point", "coordinates": [-79.7033043, 43.4506506]}},
{"type": "Feature", "id": "bzN4xFTVksE7Bd8a8PXMdzYNhZk=", "properties": {"ref": "4486", "addr:suite": null, "@spider": "quiznos", "amenity": "fast_food", "cuisine": "sandwich", "takeaway": "yes", "addr:full": "15B-2040 Algonquin Rd", "addr:city": "Sudbury", "addr:state": "ON", "addr:postcode": "P3E 4Z6", "addr:country": "CA", "name": "Algonquin Square", "phone": "(705) 523-8108", "website": "https://delivery.quiznos.com/?store_id=6700", "opening_hours": "Mo-Fr 10:00-21:30; Sa-Su 11:00-21:00", "brand": "Quizno's", "brand:wikidata": "Q1936229", "nsi_id": "quiznos-658eea"}, "geometry": {"type": "Point", "coordinates": [-80.9946754, 46.4475413]}},
{"type": "Feature", "id": "An-NXkCsxnIwPmFyF79SgkDOXK4=", "properties": {"ref": "5016", "addr:suite": null, "@spider": "quiznos", "amenity": "fast_food", "cuisine": "sandwich", "takeaway": "yes", "addr:full": "2119 Amherst Ave", "addr:city": "Butte", "addr:state": "MT", "addr:postcode": "59701", "addr:country": "US", "name": "Amherst", "website": "https://delivery.quiznos.com/?store_id=6390", "opening_hours": "Mo-Sa 10:00-21:00; Su 11:00-20:00", "brand": "Quizno's", "brand:wikidata": "Q1936229", "nsi_id": "quiznos-658eea"}, "geometry": {"type": "Point", "coordinates": [-112.50766, 45.98637]}},
{"type": "Feature", "id": "h0n9T9EArviQbnS9Y2K0xwt_AVE=", "properties": {"ref": "5278", "addr:suite": "", "@spider": "quiznos", "amenity": "fast_food", "cuisine": "sandwich", "takeaway": "yes", "addr:full": "1980 Cooper Foster Park Rd W", "addr:city": "Lorain", "addr:state": "OH", "addr:postcode": "44053", "addr:country": "US", "name": "Amherst", "phone": "(440) 282-3382", "website": "https://delivery.quiznos.com/?store_id=6400", "opening_hours": "Mo-Sa 10:00-21:00; Su 11:00-18:00", "brand": "Quizno's", "brand:wikidata": "Q1936229", "nsi_id": "quiznos-658eea"}, "geometry": {"type": "Point", "coordinates": [-82.20151, 41.41855]}},
{"type": "Feature", "id": "A2E7em0yzb4CNzYi4muODDjy9aA=", "properties": {"ref": "1282", "addr:suite": "", "@spider": "quiznos", "amenity": "fast_food", "cuisine": "sandwich", "takeaway": "yes", "addr:full": "545 Anton Blvd Ste 103", "addr:city": "Costa Mesa", "addr:state": "CA", "addr:postcode": "92626", "addr:country": "US", "name": "Anton", "phone": "(714) 546-7222", "website": "https://delivery.quiznos.com/?store_id=6239", "opening_hours": "Mo-Fr 10:00-18:00; Sa 10:00-15:00", "brand": "Quizno's", "brand:wikidata": "Q1936229", "nsi_id": "quiznos-658eea"}, "geometry": {"type": "Point", "coordinates": [-117.8764836137, 33.69003299629]}},
{"type": "Feature", "id": "-W6YNXvFJzyVc1e9Fp-3TBeTKw0=", "properties": {"ref": "14811", "addr:suite": "", "@spider": "quiznos", "amenity": "fast_food", "cuisine": "sandwich", "takeaway": "yes", "addr:full": "43937 Hugo Ter", "addr:city": "Fremont", "addr:state": "CA", "addr:postcode": "94538", "addr:country": "US", "name": "Auto Mall", "website": "https://delivery.quiznos.com/?store_id=6575", "opening_hours": "Mo-Fr 10:00-19:00; Sa 10:00-17:00; Su 11:00-16:00", "brand": "Quizno's", "brand:wikidata": "Q1936229", "nsi_id": "quiznos-658eea"}, "geometry": {"type": "Point", "coordinates": [-121.947722, 37.511503]}},
{"type": "Feature", "id": "nj2ZSyFCIPduNYIqP7RtbzVJqIM=", "properties": {"ref": "8344", "addr:suite": null, "@spider": "quiznos", "amenity": "fast_food", "cuisine": "sandwich", "takeaway": "yes", "addr:full": "Terminal D", "addr:city": "Baltimore", "addr:state": "MD", "addr:postcode": "21240", "addr:country": "US", "name": "Baltimore Washington Int'l Airport - Terminal D", "opening_hours": "Mo-Su 04:30-21:00", "brand": "Quizno's", "brand:wikidata": "Q1936229", "nsi_id": "quiznos-658eea"}, "geometry": {"type": "Point", "coordinates": [-76.66844, 39.17739]}},
{"type": "Feature", "id": "_fDYqcY5rhLjZi7nbWOfUZmfPzA=", "properties": {"ref": "576", "addr:suite": null, "@spider": "quiznos", "amenity": "fast_food", "cuisine": "sandwich", "takeaway": "yes", "addr:full": "1775 S 4130 W Ste D", "addr:city": "Salt Lake City", "addr:state": "UT", "addr:postcode": "84104", "addr:country": "US", "name": "Bangerter Pointe", "phone": "(801) 973-6300", "website": "https://delivery.quiznos.com/?store_id=6210", "opening_hours": "Mo-Fr 07:00-18:00", "brand": "Quizno's", "brand:wikidata": "Q1936229", "nsi_id": "quiznos-658eea"}, "geometry": {"type": "Point", "coordinates": [-111.99004334894, 40.729691775611]}},
{"type": "Feature", "id": "frOhrZI5iLtXLQVTfq8nDN-K60M=", "properties": {"ref": "12664", "addr:suite": null, "@spider": "quiznos", "amenity": "fast_food", "cuisine": "sandwich", "takeaway": "yes", "addr:full": "306-1500 Banks Rd", "addr:city": "Kelowna", "addr:state": "BC", "addr:postcode": "V1X 7Y1", "addr:country": "CA", "name": "Banks and Harvey", "website": "https://delivery.quiznos.com/?store_id=6805", "opening_hours": "Mo-Fr 10:00-21:00; Sa 10:30-21:00; Su 11:00-20:00", "brand": "Quizno's", "brand:wikidata": "Q1936229", "nsi_id": "quiznos-658eea"}, "geometry": {"type": "Point", "coordinates": [-119.4279438, 49.8880184]}},
{"type": "Feature", "id": "VxltmAlJThqEO_6HF3l84RV4eUA=", "properties": {"ref": "6170", "addr:suite": null, "@spider": "quiznos", "amenity": "fast_food", "cuisine": "sandwich", "takeaway": "yes", "addr:full": "1855 Barataria Blvd Ste C1", "addr:city": "Marrero", "addr:state": "LA", "addr:postcode": "70072", "addr:country": "US", "name": "Barataria", "website": "https://delivery.quiznos.com/?store_id=6419", "opening_hours": "Mo-Sa 10:00-21:00; Su 11:00-20:00", "brand": "Quizno's", "brand:wikidata": "Q1936229", "nsi_id": "quiznos-658eea"}, "geometry": {"type": "Point", "coordinates": [-90.09864, 29.87721]}},
{"type": "Feature", "id": "hnJ9OP-nxOQa9ajj--mn0RV-9fQ=", "properties": {"ref": "10073", "addr:suite": null, "@spider": "quiznos", "amenity": "fast_food", "cuisine": "sandwich", "takeaway": "yes", "addr:full": "3324 Rue Du Carrefour", "addr:city": "Beauport", "addr:state": "QC", "addr:postcode": "G1C 7E1", "addr:country": "CA", "name": "Beauport", "website": "https://delivery.quiznos.com/?store_id=6779", "opening_hours": "Mo-Sa 10:30-21:00; Su 11:00-20:00", "brand": "Quizno's", "brand:wikidata": "Q1936229", "nsi_id": "quiznos-658eea"}, "geometry": {"type": "Point", "coordinates": [-71.213887, 46.8624235]}},
{"type": "Feature", "id": "s5Pb6WztprUz4IkJlzj4ivOkB9c=", "properties": {"ref": "1215", "addr:suite": null, "@spider": "quiznos", "amenity": "fast_food", "cuisine": "sandwich", "takeaway": "yes", "addr:full": "1831 Robertson Road, Unit 18", "addr:city": "Ottawa", "addr:state": "ON", "addr:postcode": "K2H 8X3", "addr:country": "CA", "name": "Bells Corner", "phone": "(613) 726-3376", "website": "https://delivery.quiznos.com/?store_id=6634", "opening_hours": "Mo-Sa 11:00-20:00; Su 11:00-19:00", "brand": "Quizno's", "brand:wikidata": "Q1936229", "nsi_id": "quiznos-658eea"}, "geometry": {"type": "Point", "coordinates": [-75.8179258, 45.3294918]}},
{"type": "Feature", "id": "zl_X0kFhMxxRUyzKV59rHlRm4v4=", "properties": {"ref": "298", "addr:suite": null, "@spider": "quiznos", "amenity": "fast_food", "cuisine": "sandwich", "takeaway": "yes", "addr:full": "600 Blairs Ferry Rd NE Ste E", "addr:city": "Cedar Rapids", "addr:state": "IA", "addr:postcode": "52402", "addr:country": "US", "name": "Blairs Place Shopping Center", "phone": "(319) 294-8524", "website": "https://delivery.quiznos.com/?store_id=6201", "opening_hours": "Mo-Sa 10:00-21:00; Su 11:00-20:00", "brand": "Quizno's", "brand:wikidata": "Q1936229", "nsi_id": "quiznos-658eea"}, "geometry": {"type": "Point", "coordinates": [-91.64308, 42.03491]}},
{"type": "Feature", "id": "SCtFxeYjHYtTRmbzABaoparU35I=", "properties": {"ref": "14294", "addr:suite": null, "@spider": "quiznos", "amenity": "fast_food", "cuisine": "sandwich", "takeaway": "yes", "addr:full": "7100 SW Bird Road", "addr:city": "Miami", "addr:state": "FL", "addr:postcode": "33155", "addr:country": "US", "name": "BMS Bird East", "website": "https://delivery.quiznos.com/?store_id=6556", "opening_hours": "Mo-Sa 10:00-21:00; Su 11:00-19:00", "brand": "Quizno's", "brand:wikidata": "Q1936229", "nsi_id": "quiznos-658eea"}, "geometry": {"type": "Point", "coordinates": [-80.30948, 25.73296]}},
{"type": "Feature", "id": "r-6WlC6IKJ-BmC13aPQTHAp8684=", "properties": {"ref": "3822", "addr:suite": "", "@spider": "quiznos", "amenity": "fast_food", "cuisine": "sandwich", "takeaway": "yes", "addr:full": "805 Boyd St", "addr:city": "New Westminster", "addr:state": "BC", "addr:postcode": "V3M 5X2", "addr:country": "CA", "name": "Boyd Street", "website": "https://delivery.quiznos.com/?store_id=6688", "opening_hours": "Mo-Sa 10:00-21:30; Su 11:00-21:30", "brand": "Quizno's", "brand:wikidata": "Q1936229", "nsi_id": "quiznos-658eea"}, "geometry": {"type": "Point", "coordinates": [-122.9487798, 49.1919884]}},
{"type": "Feature", "id": "R6yVtdocKzWwRF2sqoi7835e7W4=", "properties": {"ref": "14421", "addr:suite": null, "@spider": "quiznos", "amenity": "fast_food", "cuisine": "sandwich", "takeaway": "yes", "addr:full": "1030 E CLifton St", "addr:city": "Tomah", "addr:state": "WI", "addr:postcode": "54660", "addr:country": "US", "name": "BP - Highway 12 and 16", "website": "https://delivery.quiznos.com/?store_id=6559", "opening_hours": "Mo-Su 10:00-16:00", "brand": "Quizno's", "brand:wikidata": "Q1936229", "nsi_id": "quiznos-658eea"}, "geometry": {"type": "Point", "coordinates": [-90.49898, 43.97233]}},
{"type": "Feature", "id": "xK7KLvV-bofDv9EyckqMhOML6zY=", "properties": {"ref": "11125", "addr:suite": null, "@spider": "quiznos", "amenity": "fast_food", "cuisine": "sandwich", "takeaway": "yes", "addr:full": "5500 Highway 31 W", "addr:city": "Portland", "addr:state": "TN", "addr:postcode": "37148", "addr:country": "US", "name": "BP - Highway 31 West", "opening_hours": "Mo-Sa 10:00-21:00; Su 11:00-20:00", "brand": "Quizno's", "brand:wikidata": "Q1936229", "nsi_id": "quiznos-658eea"}, "geometry": {"type": "Point", "coordinates": [-86.59207, 36.59101]}},
{"type": "Feature", "id": "5pwtUwSTUptgz3bjuaLHSeMLlFA=", "properties": {"ref": "6620", "addr:suite": null, "@spider": "quiznos", "amenity": "fast_food", "cuisine": "sandwich", "takeaway": "yes", "addr:full": "2105 E 5th St", "addr:city": "Metropolis", "addr:state": "IL", "addr:postcode": "62960", "addr:country": "US", "name": "BP - Highway 45 and Dever Road", "website": "https://delivery.quiznos.com/?store_id=6975", "opening_hours": "Mo-Sa 10:00-21:00; Su 11:00-20:00", "brand": "Quizno's", "brand:wikidata": "Q1936229", "nsi_id": "quiznos-658eea"}, "geometry": {"type": "Point", "coordinates": [-88.68964, 37.16156]}},
{"type": "Feature", "id": "lSqcr-cFVehu9R1Ov5bpscto4Yg=", "properties": {"ref": "14245", "addr:suite": "W Washington/Vilas Avenue", "@spider": "quiznos", "amenity": "fast_food", "cuisine": "sandwich", "takeaway": "yes", "addr:full": "318 S Park Street", "addr:city": "Madison", "addr:state": "WI", "addr:postcode": "53715", "addr:country": "US", "name": "BP - Park Street Madison", "website": "https://delivery.quiznos.com/?store_id=6554", "opening_hours": "Mo-Fr 10:00-21:00; Sa-Su 11:00-21:00", "brand": "Quizno's", "brand:wikidata": "Q1936229", "nsi_id": "quiznos-658eea"}, "geometry": {"type": "Point", "coordinates": [-89.40083, 43.06433]}},
{"type": "Feature", "id": "xaJPpLV95dPtXfas2ZL19xaA_KM=", "properties": {"ref": "1994", "addr:suite": null, "@spider": "quiznos", "amenity": "fast_food", "cuisine": "sandwich", "takeaway": "yes", "addr:full": "8502 Main St Ste A", "addr:city": "Houston", "addr:state": "TX", "addr:postcode": "77025", "addr:country": "US", "name": "Braesmain", "phone": "(832) 778-8014", "website": "https://delivery.quiznos.com/?store_id=6268", "opening_hours": "Mo-Sa 09:30-21:00; Su 11:00-20:00", "brand": "Quizno's", "brand:wikidata": "Q1936229", "nsi_id": "quiznos-658eea"}, "geometry": {"type": "Point", "coordinates": [-95.417449589709, 29.690584356783]}},
{"type": "Feature", "id": "rC6pAFMlFaG44PTFzTG5l0E0DWA=", "properties": {"ref": "5538", "addr:suite": null, "@spider": "quiznos", "amenity": "fast_food", "cuisine": "sandwich", "takeaway": "yes", "addr:full": "4001 E Broadway Rd Ste B12A", "addr:city": "Phoenix", "addr:state": "AZ", "addr:postcode": "85040", "addr:country": "US", "name": "Broadway Commerce Park", "phone": "(602) 431-5754", "website": "https://delivery.quiznos.com/?store_id=6407", "opening_hours": "Mo-Fr 09:00-18:00; Sa 10:00-15:00", "brand": "Quizno's", "brand:wikidata": "Q1936229", "nsi_id": "quiznos-658eea"}, "geometry": {"type": "Point", "coordinates": [-111.99527261378, 33.407192250091]}},
{"type": "Feature", "id": "OnkT58ZrDHkDuTHAKvmGnWwzVeE=", "properties": {"ref": "15062", "addr:suite": "Ste. 8", "@spider": "quiznos", "amenity": "fast_food", "cuisine": "sandwich", "takeaway": "yes", "addr:full": "4490 W. 121st Ave", "addr:city": "Broomfield", "addr:state": "CO", "addr:postcode": "80020", "addr:country": "US", "name": "Broomfield Corners", "website": "https://delivery.quiznos.com/?store_id=11170", "opening_hours": "Mo-Sa 10:00-21:00; Su 11:00-20:00", "brand": "Quizno's", "brand:wikidata": "Q1936229", "nsi_id": "quiznos-658eea"}, "geometry": {"type": "Point", "coordinates": [-105.04397, 39.91488]}},
{"type": "Feature", "id": "rMa9As9QYgIr9GltjVGvlv65oJw=", "properties": {"ref": "4960", "addr:suite": null, "@spider": "quiznos", "amenity": "fast_food", "cuisine": "sandwich", "takeaway": "yes", "addr:full": "6408 Callaghan Rd", "addr:city": "San Antonio", "addr:state": "TX", "addr:postcode": "78229", "addr:country": "US", "name": "Callaghan Road Center", "phone": "(210) 308-5525", "website": "https://delivery.quiznos.com/?store_id=6388", "opening_hours": "Mo-Sa 10:00-21:00; Su 11:00-20:00", "brand": "Quizno's", "brand:wikidata": "Q1936229", "nsi_id": "quiznos-658eea"}, "geometry": {"type": "Point", "coordinates": [-98.572509936515, 29.491187290043]}},
{"type": "Feature", "id": "gEt3gMIu50lZygQ7q0uFaOpJN_U=", "properties": {"ref": "2469", "addr:suite": null, "@spider": "quiznos", "amenity": "fast_food", "cuisine": "sandwich", "takeaway": "yes", "addr:full": "5971 Cambridge Way", "addr:city": "Plainfield", "addr:state": "IN", "addr:postcode": "46168", "addr:country": "US", "name": "Cambridge Place Shopping Center", "phone": "(317) 838-7433", "website": "https://delivery.quiznos.com/?store_id=6293", "opening_hours": "Mo-Su 10:00-18:00", "brand": "Quizno's", "brand:wikidata": "Q1936229", "nsi_id": "quiznos-658eea"}, "geometry": {"type": "Point", "coordinates": [-86.36969, 39.67721]}},
{"type": "Feature", "id": "5tD77XjwGSh1WftKcQVvVPqs3U4=", "properties": {"ref": "14615", "addr:suite": null, "@spider": "quiznos", "amenity": "fast_food", "cuisine": "sandwich", "takeaway": "yes", "addr:full": "200 US Highway 12/16", "addr:city": "Camp Douglas", "addr:state": "WI", "addr:postcode": "54618", "addr:country": "US", "name": "Camp Douglas", "opening_hours": "Mo-Sa 07:00-21:00; Su 08:00-20:00", "brand": "Quizno's", "brand:wikidata": "Q1936229", "nsi_id": "quiznos-658eea"}, "geometry": {"type": "Point", "coordinates": [-90.36889, 43.99144]}},
{"type": "Feature", "id": "B7DK9YDW05WuLg2_G59zTI9Ips8=", "properties": {"ref": "5011", "addr:suite": null, "@spider": "quiznos", "amenity": "fast_food", "cuisine": "sandwich", "takeaway": "yes", "addr:full": "2933 Crooks Rd", "addr:city": "Rochester Hills", "addr:state": "MI", "addr:postcode": "48309", "addr:country": "US", "name": "Campus at Auburn and Crooks", "website": "https://delivery.quiznos.com/?store_id=6389", "opening_hours": "Mo-Sa 10:00-21:00; Su 11:00-20:00", "brand": "Quizno's", "brand:wikidata": "Q1936229", "nsi_id": "quiznos-658eea"}, "geometry": {"type": "Point", "coordinates": [-83.170568155592, 42.636957911402]}},
{"type": "Feature", "id": "VlOhf_YD-FOR1OUfGqdIoOxw61A=", "properties": {"ref": "2201", "addr:suite": "1147-5004 98 Ave NW", "@spider": "quiznos", "amenity": "fast_food", "cuisine": "sandwich", "takeaway": "yes", "addr:full": "Capilano Shopping Centre", "addr:city": "Edmonton", "addr:state": "AB", "addr:postcode": "T6A 0A1", "addr:country": "CA", "name": "Capilano Mall", "phone": "(780) 485-2999", "website": "https://delivery.quiznos.com/?store_id=6648", "opening_hours": "Mo-Fr 10:00-21:00; Sa-Su 11:00-20:00", "brand": "Quizno's", "brand:wikidata": "Q1936229", "nsi_id": "quiznos-658eea"}, "geometry": {"type": "Point", "coordinates": [-113.4231271, 53.5394398]}},
{"type": "Feature", "id": "xLzXHxDJFL7vtu3-VwzgCBP2v5k=", "properties": {"ref": "246", "addr:suite": "", "@spider": "quiznos", "amenity": "fast_food", "cuisine": "sandwich", "takeaway": "yes", "addr:full": "922 Congress Ave", "addr:city": "Austin", "addr:state": "TX", "addr:postcode": "78701", "addr:country": "US", "name": "Capitol", "phone": "(512) 494-9300", "opening_hours": "Mo-Fr 10:00-19:00; Sa 10:00-15:00", "brand": "Quizno's", "brand:wikidata": "Q1936229", "nsi_id": "quiznos-658eea"}, "geometry": {"type": "Point", "coordinates": [-97.741597348496, 30.271007056845]}},
{"type": "Feature", "id": "PHdckmJiF5pp4lBZHHUb9T2PWvQ=", "properties": {"ref": "5823", "addr:suite": null, "@spider": "quiznos", "amenity": "fast_food", "cuisine": "sandwich", "takeaway": "yes", "addr:full": "369  De Diego", "addr:city": "Rio Piedias", "addr:state": "PR", "addr:postcode": "00923", "addr:country": "PR", "name": "Caribbean Pediatric", "opening_hours": "Mo-Sa 10:00-21:00; Su 11:00-20:00", "brand": "Quizno's", "brand:wikidata": "Q1936229", "nsi_id": "quiznos-658eea"}, "geometry": {"type": "Point", "coordinates": [-66.039429, 18.398575]}},
{"type": "Feature", "id": "xrUWvtpjR7NXBu1biSY85CK-ozc=", "properties": {"ref": "4372", "addr:suite": null, "@spider": "quiznos", "amenity": "fast_food", "cuisine": "sandwich", "takeaway": "yes", "addr:full": "136 W High St", "addr:city": "Centralia", "addr:state": "WA", "addr:postcode": "98531", "addr:country": "US", "name": "Centralia Factory Outlets", "phone": "(360) 330-5100", "website": "https://delivery.quiznos.com/?store_id=6373", "opening_hours": "Mo-Su 10:00-20:00", "brand": "Quizno's", "brand:wikidata": "Q1936229", "nsi_id": "quiznos-658eea"}, "geometry": {"type": "Point", "coordinates": [-122.9748771484, 46.725374814593]}},
{"type": "Feature", "id": "s3b22YlKfExdZaYIzCv51FmTwKE=", "properties": {"ref": "9814", "addr:suite": null, "@spider": "quiznos", "amenity": "fast_food", "cuisine": "sandwich", "takeaway": "yes", "addr:full": "5603 Summitview Ave Unit 102", "addr:city": "Yakima", "addr:state": "WA", "addr:postcode": "98908", "addr:country": "US", "name": "Chalet Place Shopping Center", "website": "https://delivery.quiznos.com/?store_id=6479", "opening_hours": "Mo-Sa 10:00-21:00; Su 11:00-20:00", "brand": "Quizno's", "brand:wikidata": "Q1936229", "nsi_id": "quiznos-658eea"}, "geometry": {"type": "Point", "coordinates": [-120.5831551, 46.59990836]}},
{"type": "Feature", "id": "TtPOlQW2f0p0pjUiEmKNvwFL4Jc=", "properties": {"ref": "9750", "addr:suite": null, "@spider": "quiznos", "amenity": "fast_food", "cuisine": "sandwich", "takeaway": "yes", "addr:full": "4B-18 Champlain St", "addr:city": "Dieppe", "addr:state": "NB", "addr:postcode": "E1A 1N3", "addr:country": "CA", "name": "Champlain Street Plaza", "website": "https://delivery.quiznos.com/?store_id=6774", "opening_hours": "Mo-Sa 11:00-22:00; Su 11:00-20:00", "brand": "Quizno's", "brand:wikidata": "Q1936229", "nsi_id": "quiznos-658eea"}, "geometry": {"type": "Point", "coordinates": [-64.75922, 46.09274]}},
{"type": "Feature", "id": "itIvITDqAL1V-T8AAAhCOg95blw=", "properties": {"ref": "3813", "addr:suite": null, "@spider": "quiznos", "amenity": "fast_food", "cuisine": "sandwich", "takeaway": "yes", "addr:full": "4212 Charlestown Rd Ste 1", "addr:city": "New Albany", "addr:state": "IN", "addr:postcode": "47150", "addr:country": "US", "name": "Charlestown Road", "phone": "(812) 981-7849", "website": "https://delivery.quiznos.com/?store_id=6353", "opening_hours": "Mo-Sa 10:00-21:00; Su 11:00-20:00", "brand": "Quizno's", "brand:wikidata": "Q1936229", "nsi_id": "quiznos-658eea"}, "geometry": {"type": "Point", "coordinates": [-85.79423, 38.35212]}},
{"type": "Feature", "id": "3nZYlkKXyr6dnYfgqXaJAcFGEQk=", "properties": {"ref": "13805", "addr:suite": null, "@spider": "quiznos", "amenity": "fast_food", "cuisine": "sandwich", "takeaway": "yes", "addr:full": "232 Pioneer Trl", "addr:city": "Chaska", "addr:state": "MN", "addr:postcode": "55318", "addr:country": "US", "name": "Chaska Commons", "website": "https://delivery.quiznos.com/?store_id=6543", "opening_hours": "Mo-Sa 10:00-21:00; Su 11:00-20:00", "brand": "Quizno's", "brand:wikidata": "Q1936229", "nsi_id": "quiznos-658eea"}, "geometry": {"type": "Point", "coordinates": [-93.600987862732, 44.82851106666]}},
{"type": "Feature", "id": "TQsCfBc2P4zXOg4WE-QlWWSV-mI=", "properties": {"ref": "7008", "addr:suite": null, "@spider": "quiznos", "amenity": "fast_food", "cuisine": "sandwich", "takeaway": "yes", "addr:full": "66440 Belmont Morristown Rd", "addr:city": "Belmont", "addr:state": "OH", "addr:postcode": "43718", "addr:country": "US", "name": "Marathon - Bel-Morr Market", "website": "https://delivery.quiznos.com/?store_id=6439", "opening_hours": "Mo-Su 11:00-20:00", "brand": "Quizno's", "brand:wikidata": "Q1936229", "nsi_id": "quiznos-658eea"}, "geometry": {"type": "Point", "coordinates": [-81.05336, 40.06081]}},
{"type": "Feature", "id": "Ov02gUgmZrb8VdOuYx7olgeUxLw=", "properties": {"ref": "13198", "addr:suite": null, "@spider": "quiznos", "amenity": "fast_food", "cuisine": "sandwich", "takeaway": "yes", "addr:full": "10920 W Little York Rd", "addr:city": "Houston", "addr:state": "TX", "addr:postcode": "77041", "addr:country": "US", "name": "Chevron - Fuel Depot", "website": "https://delivery.quiznos.com/?store_id=6528", "opening_hours": "Mo-We 10:00-18:00; Th 10:00-06:00; Fr-Sa 10:00-18:00", "brand": "Quizno's", "brand:wikidata": "Q1936229", "nsi_id": "quiznos-658eea"}, "geometry": {"type": "Point", "coordinates": [-95.56926, 29.8672]}},
{"type": "Feature", "id": "5sMk2f_gujpZjcmwCCD_YhuBW24=", "properties": {"ref": "3741", "addr:suite": "", "@spider": "quiznos", "amenity": "fast_food", "cuisine": "sandwich", "takeaway": "yes", "addr:full": "407 N Arkansas Ave Ste 3", "addr:city": "Russellville", "addr:state": "AR", "addr:postcode": "72801", "addr:country": "US", "name": "City Mall", "phone": "(479) 968-7827", "website": "https://delivery.quiznos.com/?store_id=6352", "opening_hours": "Mo-Sa 10:00-21:00; Su 11:00-20:00", "brand": "Quizno's", "brand:wikidata": "Q1936229", "nsi_id": "quiznos-658eea"}, "geometry": {"type": "Point", "coordinates": [-93.13363, 35.28133]}},
{"type": "Feature", "id": "UP6-DId1rrz3B0r4W-CiI5qbjOk=", "properties": {"ref": "9124", "addr:suite": null, "@spider": "quiznos", "amenity": "fast_food", "cuisine": "sandwich", "takeaway": "yes", "addr:full": "10075 City Walk Dr Ste F", "addr:city": "Woodbury", "addr:state": "MN", "addr:postcode": "55129", "addr:country": "US", "name": "City Walk", "website": "https://delivery.quiznos.com/?store_id=6468", "opening_hours": "Mo-Th 10:00-21:00; Fr-Sa 10:00-22:00; Su 10:00-21:00", "brand": "Quizno's", "brand:wikidata": "Q1936229", "nsi_id": "quiznos-658eea"}, "geometry": {"type": "Point", "coordinates": [-92.90249, 44.9429]}},
{"type": "Feature", "id": "MkFiVTpAPlLSTH3N3q5TnpsmLF8=", "properties": {"ref": "13917", "addr:suite": null, "@spider": "quiznos", "amenity": "fast_food", "cuisine": "sandwich", "takeaway": "yes", "addr:full": "8301 99 Street", "addr:city": "Clairmont", "addr:state": "AB", "addr:postcode": "T8X 5B1", "addr:country": "CA", "name": "Clairmont Travel Centre", "website": "https://delivery.quiznos.com/?store_id=6823", "opening_hours": "Mo-Sa 10:00-21:00; Su 10:00-21:30", "brand": "Quizno's", "brand:wikidata": "Q1936229", "nsi_id": "quiznos-658eea"}, "geometry": {"type": "Point", "coordinates": [-118.7943726, 55.2414313]}},
{"type": "Feature", "id": "WkWa4uwivhC16-doJ1QV5RtMtkQ=", "properties": {"ref": "14700", "addr:suite": null, "@spider": "quiznos", "amenity": "fast_food", "cuisine": "sandwich", "takeaway": "yes", "addr:full": "132 Trans Canada Highway", "addr:city": "Clarenville", "addr:state": "NL", "addr:postcode": "A5A 1Y3", "addr:country": "CA", "name": "Clarenville", "website": "https://delivery.quiznos.com/?store_id=6835", "opening_hours": "Mo-Su 10:30-21:00", "brand": "Quizno's", "brand:wikidata": "Q1936229", "nsi_id": "quiznos-658eea"}, "geometry": {"type": "Point", "coordinates": [-53.9558, 48.14492]}},
{"type": "Feature", "id": "677lK1fAxmd5TWXjkaZyqG9B8Ww=", "properties": {"ref": "4172", "addr:suite": null, "@spider": "quiznos", "amenity": "fast_food", "cuisine": "sandwich", "takeaway": "yes", "addr:full": "C11-960 Southdown Rd", "addr:city": "Mississauga", "addr:state": "ON", "addr:postcode": "L5J 2Y4", "addr:country": "CA", "name": "Clarkson Crossing", "phone": "(905) 855-0782", "website": "https://delivery.quiznos.com/?store_id=6692", "opening_hours": "Mo-Sa 10:00-00:00; Su 10:30-00:00", "brand": "Quizno's", "brand:wikidata": "Q1936229", "nsi_id": "quiznos-658eea"}, "geometry": {"type": "Point", "coordinates": [-79.6312356, 43.5093435]}},
{"type": "Feature", "id": "uM1gDQD_NpFH3LlmH0C37sTuSUw=", "properties": {"ref": "681", "addr:suite": null, "@spider": "quiznos", "amenity": "fast_food", "cuisine": "sandwich", "takeaway": "yes", "addr:full": "32500 South Fraser Way", "addr:city": "Abbotsford", "addr:state": "BC", "addr:postcode": "V2T 4W1", "addr:country": "CA", "name": "Clearbrook Town Square", "phone": "(604) 504-7849", "website": "https://delivery.quiznos.com/?store_id=6607", "opening_hours": "Mo-Sa 10:30-21:00; Su 11:00-20:00", "brand": "Quizno's", "brand:wikidata": "Q1936229", "nsi_id": "quiznos-658eea"}, "geometry": {"type": "Point", "coordinates": [-122.3247049, 49.0505838]}},
{"type": "Feature", "id": "mx8pArEhrURIV1mw7zXHmU88BoM=", "properties": {"ref": "3372", "addr:suite": "", "@spider": "quiznos", "amenity": "fast_food", "cuisine": "sandwich", "takeaway": "yes", "addr:full": "821 1st Ave", "addr:city": "Seattle", "addr:state": "WA", "addr:postcode": "98104", "addr:country": "US", "name": "Colman Building", "phone": "(206) 382-8840", "website": "https://delivery.quiznos.com/?store_id=6330", "opening_hours": "Mo-Fr 10:00-20:00", "brand": "Quizno's", "brand:wikidata": "Q1936229", "nsi_id": "quiznos-658eea"}, "geometry": {"type": "Point", "coordinates": [-122.33503676945, 47.603361502391]}},
{"type": "Feature", "id": "n4g3lK4Va-y5XNKwVuy8i0MBbI0=", "properties": {"ref": "752", "addr:suite": null, "@spider": "quiznos", "amenity": "fast_food", "cuisine": "sandwich", "takeaway": "yes", "addr:full": "2580 Commercial Dr", "addr:city": "Vancouver", "addr:state": "BC", "addr:postcode": "V5N 4C2", "addr:country": "CA", "name": "Commercial Drive", "phone": "(604) 872-8097", "website": "https://delivery.quiznos.com/?store_id=6612", "opening_hours": "Mo-Th 10:00-23:00; Fr-Sa 11:00-23:00; Su 11:00-20:00", "brand": "Quizno's", "brand:wikidata": "Q1936229", "nsi_id": "quiznos-658eea"}, "geometry": {"type": "Point", "coordinates": [-123.0697631, 49.2616057]}},
{"type": "Feature", "id": "sIP66p1-RoLa33jezkjzKY7Zz6Q=", "properties": {"ref": "10924", "addr:suite": null, "@spider": "quiznos", "amenity": "fast_food", "cuisine": "sandwich", "takeaway": "yes", "addr:full": "2615 Gary Ave", "addr:city": "Dodge City", "addr:state": "KS", "addr:postcode": "67801", "addr:country": "US", "name": "Conoco - Gary Avenue and Hwy 50", "website": "https://delivery.quiznos.com/?store_id=6489", "opening_hours": "Mo-Sa 10:00-21:00; Su 11:00-20:00", "brand": "Quizno's", "brand:wikidata": "Q1936229", "nsi_id": "quiznos-658eea"}, "geometry": {"type": "Point", "coordinates": [-100.0195, 37.77955]}},
{"type": "Feature", "id": "HyeHiiw6HrNudVyBS7KETmNNn7Y=", "properties": {"ref": "178", "addr:suite": null, "@spider": "quiznos", "amenity": "fast_food", "cuisine": "sandwich", "takeaway": "yes", "addr:full": "3004 Highway 30 W", "addr:city": "Kearney", "addr:state": "NE", "addr:postcode": "68845", "addr:country": "US", "name": "Conoco - Highway 30 W", "phone": "(308) 234-6554", "website": "https://orders.deliverybyquiznos.com/mp/ordernow/store_selection?restid=706", "opening_hours": "Mo-Fr 08:00-20:00; Sa-Su 10:30-20:00", "brand": "Quizno's", "brand:wikidata": "Q1936229", "nsi_id": "quiznos-658eea"}, "geometry": {"type": "Point", "coordinates": [-99.12254, 40.69938]}},
{"type": "Feature", "id": "Oao3nQPIi3_fK7w072Wue_9csWI=", "properties": {"ref": "14922", "addr:suite": null, "@spider": "quiznos", "amenity": "fast_food", "cuisine": "sandwich", "takeaway": "yes", "addr:full": "504 Medical Center Blvd", "addr:city": "Conroe", "addr:state": "TX", "addr:postcode": "77304", "addr:country": "US", "name": "Conroe Regional Medical Center", "website": "https://delivery.quiznos.com/?store_id=7379", "opening_hours": "Mo-Fr 09:00-22:00; Sa 10:00-22:00; Su 11:00-22:00", "brand": "Quizno's", "brand:wikidata": "Q1936229", "nsi_id": "quiznos-658eea"}, "geometry": {"type": "Point", "coordinates": [-95.46741, 30.28504]}},
{"type": "Feature", "id": "LvnD7LNrQ2WQYr3xSGPEHSqG31I=", "properties": {"ref": "6902", "addr:suite": null, "@spider": "quiznos", "amenity": "fast_food", "cuisine": "sandwich", "takeaway": "yes", "addr:full": "309-201 Southridge Dr Bldg B3", "addr:city": "Okotoks", "addr:state": "AB", "addr:postcode": "T1S 2E1", "addr:country": "CA", "name": "Cornerstore Shopping Center", "phone": "(403) 995-1893", "website": "https://delivery.quiznos.com/?store_id=6744", "opening_hours": "Mo-Fr 10:00-21:00; Sa 11:00-20:00; Su 11:00-19:00", "brand": "Quizno's", "brand:wikidata": "Q1936229", "nsi_id": "quiznos-658eea"}, "geometry": {"type": "Point", "coordinates": [-113.9748532, 50.7065834]}},
{"type": "Feature", "id": "9HRQWhOp-dB19m4j-kzhl3T7f4s=", "properties": {"ref": "2597", "addr:suite": "", "@spider": "quiznos", "amenity": "fast_food", "cuisine": "sandwich", "takeaway": "yes", "addr:full": "45609 Luckakuck Way", "addr:city": "Chilliwack", "addr:state": "BC", "addr:postcode": "V2R 1A3", "addr:country": "CA", "name": "Cottonwood", "phone": "(604) 824-7944", "website": "https://delivery.quiznos.com/?store_id=6653", "opening_hours": "Mo-Sa 10:00-20:00; Su 11:00-19:00", "brand": "Quizno's", "brand:wikidata": "Q1936229", "nsi_id": "quiznos-658eea"}, "geometry": {"type": "Point", "coordinates": [-121.9612034, 49.14233]}},
{"type": "Feature", "id": "ZpmKW7QxEDJnKuxiHyCsf-ckDjc=", "properties": {"ref": "2839", "addr:suite": null, "@spider": "quiznos", "amenity": "fast_food", "cuisine": "sandwich", "takeaway": "yes", "addr:full": "1001 Avenida Pico Ste F", "addr:city": "San Clemente", "addr:state": "CA", "addr:postcode": "92673", "addr:country": "US", "name": "Courtyards at Talega", "phone": "(949) 218-1930", "website": "https://delivery.quiznos.com/?store_id=6308", "opening_hours": "Mo-Fr 10:00-20:00; Sa 10:00-17:00; Su 10:00-16:00", "brand": "Quizno's", "brand:wikidata": "Q1936229", "nsi_id": "quiznos-658eea"}, "geometry": {"type": "Point", "coordinates": [-117.60498, 33.45404]}},
{"type": "Feature", "id": "-nJoyUF5-oA5ExiJ7T-tIB4SDBc=", "properties": {"ref": "15049", "addr:suite": "Suite D", "@spider": "quiznos", "amenity": "fast_food", "cuisine": "sandwich", "takeaway": "yes", "addr:full": "225 Cross Creek Boulevard", "addr:city": "Branson", "addr:state": "MO", "addr:postcode": "65616", "addr:country": "US", "name": "Cross Creek Center", "website": "https://delivery.quiznos.com/?store_id=11187", "opening_hours": "Mo-Su 08:00-20:00", "brand": "Quizno's", "brand:wikidata": "Q1936229", "nsi_id": "quiznos-658eea"}, "geometry": {"type": "Point", "coordinates": [-93.18827, 36.64341]}},
{"type": "Feature", "id": "KWJtEcY-hVb-BCp1kCeeb6ptIHc=", "properties": {"ref": "4494", "addr:suite": null, "@spider": "quiznos", "amenity": "fast_food", "cuisine": "sandwich", "takeaway": "yes", "addr:full": "263 Boston Post Rd Ste 2", "addr:city": "Orange", "addr:state": "CT", "addr:postcode": "06477", "addr:country": "US", "name": "Crossroads Plaza", "phone": "(203) 795-7000", "website": "https://delivery.quiznos.com/?store_id=6378", "opening_hours": "Mo-Sa 10:30-20:00; Su 11:00-19:00", "brand": "Quizno's", "brand:wikidata": "Q1936229", "nsi_id": "quiznos-658eea"}, "geometry": {"type": "Point", "coordinates": [-73.00096116786, 41.267229329184]}},
{"type": "Feature", "id": "euO_WiGwIVX0wnakeU5-Z_49p80=", "properties": {"ref": "209", "addr:suite": "Suite 110", "@spider": "quiznos", "amenity": "fast_food", "cuisine": "sandwich", "takeaway": "yes", "addr:full": "1050 West Pender Street", "addr:city": "Vancouver", "addr:state": "BC", "addr:postcode": "V6E 3S7", "addr:country": "CA", "name": "Dacon Building", "phone": "(604) 801-6678", "website": "https://delivery.quiznos.com/?store_id=6598", "opening_hours": "Mo-Fr 08:00-17:30; Sa 11:00-15:00", "brand": "Quizno's", "brand:wikidata": "Q1936229", "nsi_id": "quiznos-658eea"}, "geometry": {"type": "Point", "coordinates": [-123.1200342, 49.2865022]}},
{"type": "Feature", "id": "zdbYja6JQPg4JCNmr4_8njMPFgg=", "properties": {"ref": "12378", "addr:suite": null, "@spider": "quiznos", "amenity": "fast_food", "cuisine": "sandwich", "takeaway": "yes", "addr:full": "30 Foulis Row", "addr:city": "Dartmouth", "addr:state": "NS", "addr:postcode": "B3B 0E1", "addr:country": "CA", "name": "Dartmouth Crossing", "website": "https://delivery.quiznos.com/?store_id=6798", "opening_hours": "Mo-Fr 09:00-22:00; Sa 10:00-22:00; Su 11:00-21:00", "brand": "Quizno's", "brand:wikidata": "Q1936229", "nsi_id": "quiznos-658eea"}, "geometry": {"type": "Point", "coordinates": [-63.5631562, 44.706183]}},
{"type": "Feature", "id": "izcubK0b5yYu75WuGCyUGXYoz8k=", "properties": {"ref": "12248", "addr:suite": null, "@spider": "quiznos", "amenity": "fast_food", "cuisine": "sandwich", "takeaway": "yes", "addr:full": "4192 Dawson St", "addr:city": "Burnaby", "addr:state": "BC", "addr:postcode": "V5C 0A4", "addr:country": "CA", "name": "Dawson Street", "website": "https://delivery.quiznos.com/?store_id=6796", "opening_hours": "Mo-Fr 10:00-20:00; Sa 11:00-18:00; Su 12:00-17:00", "brand": "Quizno's", "brand:wikidata": "Q1936229", "nsi_id": "quiznos-658eea"}, "geometry": {"type": "Point", "coordinates": [-123.011814, 49.2643223]}},
{"type": "Feature", "id": "4V_X-3Ss_Hlf7JcLSklmv1lGr74=", "properties": {"ref": "1083", "addr:suite": "", "@spider": "quiznos", "amenity": "fast_food", "cuisine": "sandwich", "takeaway": "yes", "addr:full": "9940 170 St NW", "addr:city": "Edmonton", "addr:state": "AB", "addr:postcode": "T5T 6G7", "addr:country": "CA", "name": "Depot 170", "phone": "(780) 444-7827", "website": "https://delivery.quiznos.com/?store_id=6632", "opening_hours": "Mo-Sa 10:00-22:00", "brand": "Quizno's", "brand:wikidata": "Q1936229", "nsi_id": "quiznos-658eea"}, "geometry": {"type": "Point", "coordinates": [-113.6178048, 53.5374342]}},
{"type": "Feature", "id": "_Iw2tJRbzaWQkHDllYluhYq421Y=", "properties": {"ref": "14722", "addr:suite": null, "@spider": "quiznos", "amenity": "fast_food", "cuisine": "sandwich", "takeaway": "yes", "addr:full": "1093 Boulevard des Laurentides", "addr:city": "Laval", "addr:state": "QC", "addr:postcode": "H7G 2W2", "addr:country": "CA", "name": "Des Laurentides", "website": "https://delivery.quiznos.com/?store_id=6836", "opening_hours": "Mo-Fr 11:00-20:00; Sa 11:00-18:00", "brand": "Quizno's", "brand:wikidata": "Q1936229", "nsi_id": "quiznos-658eea"}, "geometry": {"type": "Point", "coordinates": [-73.7000095, 45.5772856]}},
{"type": "Feature", "id": "iucTltZwlf27Am6gah8Uug1Zsx8=", "properties": {"ref": "46", "addr:suite": null, "@spider": "quiznos", "amenity": "fast_food", "cuisine": "sandwich", "takeaway": "yes", "addr:full": "8400 Pena Blvd Concourse A Ste D", "addr:city": "Denver", "addr:state": "CO", "addr:postcode": "80249", "addr:country": "US", "name": "DIA Concourse A", "phone": "(303) 342-7399", "opening_hours": "Mo-Sa 10:00-21:00; Su 11:00-20:00", "brand": "Quizno's", "brand:wikidata": "Q1936229", "nsi_id": "quiznos-658eea"}, "geometry": {"type": "Point", "coordinates": [-104.67415, 39.85323]}},
{"type": "Feature", "id": "jrTr1W2MxKcv301V98n0UysUBxc=", "properties": {"ref": "3157", "addr:suite": "", "@spider": "quiznos", "amenity": "fast_food", "cuisine": "sandwich", "takeaway": "yes", "addr:full": "5170 Dixie Rd", "addr:city": "Mississauga", "addr:state": "ON", "addr:postcode": "L4W 1E3", "addr:country": "CA", "name": "Dixie Road and Aimco", "phone": "(905) 282-9101", "website": "https://delivery.quiznos.com/?store_id=6665", "opening_hours": "Mo-Fr 10:00-22:00; Sa 11:00-22:00; Su 11:00-21:00", "brand": "Quizno's", "brand:wikidata": "Q1936229", "nsi_id": "quiznos-658eea"}, "geometry": {"type": "Point", "coordinates": [-79.6253897, 43.6385273]}},
{"type": "Feature", "id": "zDsslsroGS2xhXGnFvj-tu1nvQQ=", "properties": {"ref": "13731", "addr:suite": null, "@spider": "quiznos", "amenity": "fast_food", "cuisine": "sandwich", "takeaway": "yes", "addr:full": "1665 Dove Park Rd Ste 300", "addr:city": "Mandeville", "addr:state": "LA", "addr:postcode": "70471", "addr:country": "US", "name": "Dove Park Commons", "website": "https://delivery.quiznos.com/?store_id=6540", "opening_hours": "Mo-Fr 10:00-19:00; Sa 10:00-15:00", "brand": "Quizno's", "brand:wikidata": "Q1936229", "nsi_id": "quiznos-658eea"}, "geometry": {"type": "Point", "coordinates": [-90.04098, 30.41348]}},
{"type": "Feature", "id": "g1IaZJ_kSSvzKIZzGmaV69tbF0c=", "properties": {"ref": "2119", "addr:suite": null, "@spider": "quiznos", "amenity": "fast_food", "cuisine": "sandwich", "takeaway": "yes", "addr:full": "224 N Hogan St", "addr:city": "Jacksonville", "addr:state": "FL", "addr:postcode": "32202", "addr:country": "US", "name": "Downtown", "phone": "(904) 798-8889", "website": "https://delivery.quiznos.com/?store_id=6985", "opening_hours": "Mo-Fr 09:00-17:00", "brand": "Quizno's", "brand:wikidata": "Q1936229", "nsi_id": "quiznos-658eea"}, "geometry": {"type": "Point", "coordinates": [-81.660112659015, 30.328561546488]}},
{"type": "Feature", "id": "R6rKOVjftg5zgFB7TU_h6MqgoMM=", "properties": {"ref": "3972", "addr:suite": "", "@spider": "quiznos", "amenity": "fast_food", "cuisine": "sandwich", "takeaway": "yes", "addr:full": "1520 Wilmington Dr Ste C2", "addr:city": "Dupont", "addr:state": "WA", "addr:postcode": "98327", "addr:country": "US", "name": "Dupont Station", "phone": "(253) 964-4700", "website": "https://delivery.quiznos.com/?store_id=6355", "opening_hours": "Mo-Fr 10:00-19:30; Sa-Su 11:00-17:30", "brand": "Quizno's", "brand:wikidata": "Q1936229", "nsi_id": "quiznos-658eea"}, "geometry": {"type": "Point", "coordinates": [-122.64399, 47.09152]}},
{"type": "Feature", "id": "OoZfHCdNxDLH2FGfjZD8iQDZNTE=", "properties": {"ref": "4376", "addr:suite": null, "@spider": "quiznos", "amenity": "fast_food", "cuisine": "sandwich", "takeaway": "yes", "addr:full": "14110 Main St NE Ste C", "addr:city": "Duvall", "addr:state": "WA", "addr:postcode": "98019", "addr:country": "US", "name": "Duvall Safeway Plaza", "phone": "(425) 844-0755", "website": "https://delivery.quiznos.com/?store_id=6374", "opening_hours": "Mo-Su 10:00-20:00", "brand": "Quizno's", "brand:wikidata": "Q1936229", "nsi_id": "quiznos-658eea"}, "geometry": {"type": "Point", "coordinates": [-121.98703, 47.72713]}},
{"type": "Feature", "id": "gOB1txGLOBJnT74qpIItuabZAbI=", "properties": {"ref": "6608", "addr:suite": null, "@spider": "quiznos", "amenity": "fast_food", "cuisine": "sandwich", "takeaway": "yes", "addr:full": "701 E Main St Ste A", "addr:city": "Weatherford", "addr:state": "OK", "addr:postcode": "73096", "addr:country": "US", "name": "East Main", "phone": "(580) 772-7849", "website": "https://delivery.quiznos.com/?store_id=6431", "opening_hours": "Mo-Sa 10:00-21:00; Su 11:00-20:00", "brand": "Quizno's", "brand:wikidata": "Q1936229", "nsi_id": "quiznos-658eea"}, "geometry": {"type": "Point", "coordinates": [-98.69953598382, 35.526027504045]}},
{"type": "Feature", "id": "mCEgB47-8d8vm2M4RjOZPgrUwTo=", "properties": {"ref": "14833", "addr:suite": null, "@spider": "quiznos", "amenity": "fast_food", "cuisine": "sandwich", "takeaway": "yes", "addr:full": "962 East Highway 290", "addr:city": "Elgin", "addr:state": "TX", "addr:postcode": "78621", "addr:country": "US", "name": "Elgin Travel Center", "opening_hours": "Mo-Fr 09:00-21:00; Sa-Su 10:00-21:00", "brand": "Quizno's", "brand:wikidata": "Q1936229", "nsi_id": "quiznos-658eea"}, "geometry": {"type": "Point", "coordinates": [-97.30551, 30.31187]}},
{"type": "Feature", "id": "K77XTPwFUBOkVCHEJ1rIKpTfr3A=", "properties": {"ref": "11946", "addr:suite": null, "@spider": "quiznos", "amenity": "fast_food", "cuisine": "sandwich", "takeaway": "yes", "addr:full": "9264 Ellerslie Rd SW", "addr:city": "Edmonton", "addr:state": "AB", "addr:postcode": "T6X 0K6", "addr:country": "CA", "name": "Ellerslie Road SW and 91 Street SW", "website": "https://delivery.quiznos.com/?store_id=6791", "opening_hours": "Mo-Fr 09:30-22:00; Sa-Su 10:30-21:00", "brand": "Quizno's", "brand:wikidata": "Q1936229", "nsi_id": "quiznos-658eea"}, "geometry": {"type": "Point", "coordinates": [-113.476558, 53.4256991]}},
{"type": "Feature", "id": "iy64wTRSblekfn_TmfdAv1r-EhE=", "properties": {"ref": "4892", "addr:suite": null, "@spider": "quiznos", "amenity": "fast_food", "cuisine": "sandwich", "takeaway": "yes", "addr:full": "1130 S Clearview Pkwy Ste D", "addr:city": "Harahan", "addr:state": "LA", "addr:postcode": "70123", "addr:country": "US", "name": "Elmwood Village Plaza", "website": "https://delivery.quiznos.com/?store_id=6386", "opening_hours": "Mo-Sa 10:00-21:00; Su 11:00-20:00", "brand": "Quizno's", "brand:wikidata": "Q1936229", "nsi_id": "quiznos-658eea"}, "geometry": {"type": "Point", "coordinates": [-90.183848327519, 29.959770846035]}},
{"type": "Feature", "id": "vPG6ev5vKC2v-W04I5GEK1d1xec=", "properties": {"ref": "5965", "addr:suite": null, "@spider": "quiznos", "amenity": "fast_food", "cuisine": "sandwich", "takeaway": "yes", "addr:full": "301-3508 32nd Ave NE", "addr:city": "Calgary", "addr:state": "AB", "addr:postcode": "T1Y 6J2", "addr:country": "CA", "name": "Elveden Centre", "phone": "(403) 291-1919", "website": "https://delivery.quiznos.com/?store_id=6728", "opening_hours": "Mo-Fr 10:00-21:00; Sa 11:00-21:00; Su 11:00-20:00", "brand": "Quizno's", "brand:wikidata": "Q1936229", "nsi_id": "quiznos-658eea"}, "geometry": {"type": "Point", "coordinates": [-113.9848642, 51.082063]}},
{"type": "Feature", "id": "HCWPpVlQUH-yQzrkDarLpoYpc78=", "properties": {"ref": "12537", "addr:suite": null, "@spider": "quiznos", "amenity": "fast_food", "cuisine": "sandwich", "takeaway": "yes", "addr:full": "220-5000 Emerald Dr", "addr:city": "Sherwood Park", "addr:state": "AB", "addr:postcode": "T8H 0P5", "addr:country": "CA", "name": "Emerald Hills", "website": "https://delivery.quiznos.com/?store_id=6801", "opening_hours": "Mo-Fr 10:30-21:00; Sa 11:00-20:30; Su 11:00-19:00", "brand": "Quizno's", "brand:wikidata": "Q1936229", "nsi_id": "quiznos-658eea"}, "geometry": {"type": "Point", "coordinates": [-113.2882048, 53.5680437]}},
{"type": "Feature", "id": "ULx0ONOuWEdh7dzFQiChHv7hsvs=", "properties": {"ref": "2304", "addr:suite": "", "@spider": "quiznos", "amenity": "fast_food", "cuisine": "sandwich", "takeaway": "yes", "addr:full": "2339 Fairview Ave N", "addr:city": "Roseville", "addr:state": "MN", "addr:postcode": "55113", "addr:country": "US", "name": "Fairdale Shops", "phone": "(651) 255-3344", "website": "https://delivery.quiznos.com/?store_id=6284", "opening_hours": "Mo-Sa 10:00-20:00", "brand": "Quizno's", "brand:wikidata": "Q1936229", "nsi_id": "quiznos-658eea"}, "geometry": {"type": "Point", "coordinates": [-93.17734, 45.01148]}},
{"type": "Feature", "id": "7L9NBtpC0iVfaRzKZft7mKUApQc=", "properties": {"ref": "1527", "addr:suite": null, "@spider": "quiznos", "amenity": "fast_food", "cuisine": "sandwich", "takeaway": "yes", "addr:full": "2408 Fairway Plaza Rd South", "addr:city": "Lethbridge", "addr:state": "AB", "addr:postcode": "T1K 6Z3", "addr:country": "CA", "name": "Fairway Plaza Mall", "phone": "(403) 317-9333", "website": "https://delivery.quiznos.com/?store_id=6638", "opening_hours": "Mo-Sa 10:00-21:00; Su 10:30-20:00", "brand": "Quizno's", "brand:wikidata": "Q1936229", "nsi_id": "quiznos-658eea"}, "geometry": {"type": "Point", "coordinates": [-112.7945932, 49.6683725]}},
{"type": "Feature", "id": "dwJc8P4xGIkyWUiuU8ZEK_erKZw=", "properties": {"ref": "91", "addr:suite": "", "@spider": "quiznos", "amenity": "fast_food", "cuisine": "sandwich", "takeaway": "yes", "addr:full": "6605 Falls of Neuse Rd", "addr:city": "Raleigh", "addr:state": "NC", "addr:postcode": "27615", "addr:country": "US", "name": "Falls Village", "phone": "(919) 676-1909", "website": "https://delivery.quiznos.com/?store_id=6188", "opening_hours": "Mo-Sa 10:00-20:00; Su 11:00-20:00", "brand": "Quizno's", "brand:wikidata": "Q1936229", "nsi_id": "quiznos-658eea"}, "geometry": {"type": "Point", "coordinates": [-78.622443, 35.873111]}},
{"type": "Feature", "id": "bmmimRHSYhgmIPXPEHRAUsjYsvE=", "properties": {"ref": "5470", "addr:suite": null, "@spider": "quiznos", "amenity": "fast_food", "cuisine": "sandwich", "takeaway": "yes", "addr:full": "1985 Hyde Park Rd", "addr:city": "London", "addr:state": "ON", "addr:postcode": "N6H 0A3", "addr:country": "CA", "name": "Fanshawe and  Hyde Park", "website": "https://delivery.quiznos.com/?store_id=6724", "opening_hours": "Mo-Sa 10:30-21:00; Su 11:00-20:00", "brand": "Quizno's", "brand:wikidata": "Q1936229", "nsi_id": "quiznos-658eea"}, "geometry": {"type": "Point", "coordinates": [-81.3333636, 43.0094482]}},
{"type": "Feature", "id": "Vx9Skf6zyPxDAP8G1oDPVY_y580=", "properties": {"ref": "3621", "addr:suite": null, "@spider": "quiznos", "amenity": "fast_food", "cuisine": "sandwich", "takeaway": "yes", "addr:full": "721 1st Ave S", "addr:city": "Jamestown", "addr:state": "ND", "addr:postcode": "58401", "addr:country": "US", "name": "First Avenue and Eighth Street", "phone": "(701) 251-9348", "website": "https://delivery.quiznos.com/?store_id=6341", "opening_hours": "Mo-Sa 11:00-21:00; Su 11:00-20:00", "brand": "Quizno's", "brand:wikidata": "Q1936229", "nsi_id": "quiznos-658eea"}, "geometry": {"type": "Point", "coordinates": [-98.708034259427, 46.901676424353]}},
{"type": "Feature", "id": "yRo0BUzqswgmfeFT6fFytfeSVfc=", "properties": {"ref": "674", "addr:suite": null, "@spider": "quiznos", "amenity": "fast_food", "cuisine": "sandwich", "takeaway": "yes", "addr:full": "403-15940 Fraser Hwy", "addr:city": "Surrey", "addr:state": "BC", "addr:postcode": "V4N 0X8", "addr:country": "CA", "name": "Fleetwood Park Village Shopping Center", "phone": "(604) 543-7080", "website": "https://delivery.quiznos.com/?store_id=6605", "opening_hours": "Mo-Tu 11:00-20:00; We-Fr 11:00-21:00; Sa-Su 11:00-20:00", "brand": "Quizno's", "brand:wikidata": "Q1936229", "nsi_id": "quiznos-658eea"}, "geometry": {"type": "Point", "coordinates": [-122.78101, 49.15708]}},
{"type": "Feature", "id": "3M6R4XBR9kqVqIGMev_9veczB-w=", "properties": {"ref": "13678", "addr:suite": null, "@spider": "quiznos", "amenity": "fast_food", "cuisine": "sandwich", "takeaway": "yes", "addr:full": "2505 W Russell St", "addr:city": "Sioux Falls", "addr:state": "SD", "addr:postcode": "57104", "addr:country": "US", "name": "Food and Fuel", "opening_hours": "Mo-Fr 10:30-19:00; Sa 11:00-15:00", "brand": "Quizno's", "brand:wikidata": "Q1936229", "nsi_id": "quiznos-658eea"}, "geometry": {"type": "Point", "coordinates": [-96.7595, 43.56416]}},
{"type": "Feature", "id": "TfZn8VTbmuq1p6NeDS23VO6pD88=", "properties": {"ref": "7538", "addr:suite": null, "@spider": "quiznos", "amenity": "fast_food", "cuisine": "sandwich", "takeaway": "yes", "addr:full": "1-601 Ford Dr", "addr:city": "Oakville", "addr:state": "ON", "addr:postcode": "L6J 7Z6", "addr:country": "CA", "name": "Ford and Royal Windsor Drive", "phone": "(905) 815-8100", "website": "https://delivery.quiznos.com/?store_id=6749", "opening_hours": "Mo-Fr 10:00-20:00; Sa 10:00-18:00; Su 11:00-16:00", "brand": "Quizno's", "brand:wikidata": "Q1936229", "nsi_id": "quiznos-658eea"}, "geometry": {"type": "Point", "coordinates": [-79.6505345, 43.4887308]}},
{"type": "Feature", "id": "Jy5xUcPypOOgMagwoJ7HSPkIKXY=", "properties": {"ref": "12927", "addr:suite": null, "@spider": "quiznos", "amenity": "fast_food", "cuisine": "sandwich", "takeaway": "yes", "addr:full": "3587 Butner Road Bldg A", "addr:city": "Fort Bragg", "addr:state": "NC", "addr:postcode": "28310", "addr:country": "US", "name": "Fort Bragg Army Base - Building A", "website": "https://delivery.quiznos.com/?store_id=6986", "opening_hours": "Mo-Fr 08:00-19:00; Sa-Su 11:00-16:00", "brand": "Quizno's", "brand:wikidata": "Q1936229", "nsi_id": "quiznos-658eea"}, "geometry": {"type": "Point", "coordinates": [-79.01765, 35.15238]}},
{"type": "Feature", "id": "0_viyCiNNPYJu6nS5KGUvRn1guQ=", "properties": {"ref": "11649", "addr:suite": "Ste 8630", "@spider": "quiznos", "amenity": "fast_food", "cuisine": "sandwich", "takeaway": "yes", "addr:full": "11000 Terminal Axis Road", "addr:city": "Fort Myers", "addr:state": "FL", "addr:postcode": "33913", "addr:country": "US", "name": "Fort Myers Int'l Airport", "opening_hours": "Mo-Su 09:00-18:00", "brand": "Quizno's", "brand:wikidata": "Q1936229", "nsi_id": "quiznos-658eea"}, "geometry": {"type": "Point", "coordinates": [-81.75528, 26.53363]}},
{"type": "Feature", "id": "SsAdiAw--Lb3P9chQYt8t0dqAfw=", "properties": {"ref": "11846", "addr:suite": null, "@spider": "quiznos", "amenity": "fast_food", "cuisine": "sandwich", "takeaway": "yes", "addr:full": "10010  88 Avenue CRU 2", "addr:city": "Fort Saskatchewan", "addr:state": "AB", "addr:postcode": "T8L 0A8", "addr:country": "CA", "name": "Fort Saskatchewan", "website": "https://delivery.quiznos.com/?store_id=6789", "opening_hours": "Mo-Fr 10:00-21:00; Sa 10:00-20:00; Su 11:00-19:00", "brand": "Quizno's", "brand:wikidata": "Q1936229", "nsi_id": "quiznos-658eea"}, "geometry": {"type": "Point", "coordinates": [-113.2070778, 53.6998159]}},
{"type": "Feature", "id": "YZLUj9FmUz7ROAP3-zAKo3_nXyU=", "properties": {"ref": "2152", "addr:suite": null, "@spider": "quiznos", "amenity": "fast_food", "cuisine": "sandwich", "takeaway": "yes", "addr:full": "11339 Fountain Lake Dr", "addr:city": "Stafford", "addr:state": "TX", "addr:postcode": "77477", "addr:country": "US", "name": "Fountains", "phone": "(281) 277-2444", "website": "https://delivery.quiznos.com/?store_id=6277", "opening_hours": "Mo-Sa 10:00-21:00; Su 11:00-20:00", "brand": "Quizno's", "brand:wikidata": "Q1936229", "nsi_id": "quiznos-658eea"}, "geometry": {"type": "Point", "coordinates": [-95.58464182683, 29.639228181149]}},
{"type": "Feature", "id": "T-5Ajf962cRoO4vG_RQ_DJ6ydd0=", "properties": {"ref": "12951", "addr:suite": null, "@spider": "quiznos", "amenity": "fast_food", "cuisine": "sandwich", "takeaway": "yes", "addr:full": "216 W Merced St, Ste 104", "addr:city": "Fowler", "addr:state": "CA", "addr:postcode": "93625", "addr:country": "US", "name": "Fowler Crossroads", "website": "https://delivery.quiznos.com/?store_id=6520", "opening_hours": "Mo-Sa 10:00-21:00; Su 11:00-20:00", "brand": "Quizno's", "brand:wikidata": "Q1936229", "nsi_id": "quiznos-658eea"}, "geometry": {"type": "Point", "coordinates": [-119.68312, 36.62797]}},
{"type": "Feature", "id": "kfSX4zcYw4x3Gua_9XbKbeWqSbY=", "properties": {"ref": "2136", "addr:suite": null, "@spider": "quiznos", "amenity": "fast_food", "cuisine": "sandwich", "takeaway": "yes", "addr:full": "6257 Bristol Pkwy", "addr:city": "Culver City", "addr:state": "CA", "addr:postcode": "90230", "addr:country": "US", "name": "Fox Hills Plaza", "phone": "(310) 670-2752", "website": "https://delivery.quiznos.com/?store_id=6275", "opening_hours": "Mo-Sa 10:00-21:00; Su 11:00-20:00", "brand": "Quizno's", "brand:wikidata": "Q1936229", "nsi_id": "quiznos-658eea"}, "geometry": {"type": "Point", "coordinates": [-118.39128693294, 33.982719180393]}},
{"type": "Feature", "id": "ZOjJDCt_u9BuNVLVe9Smn3GwgkU=", "properties": {"ref": "15116", "addr:suite": null, "@spider": "quiznos", "amenity": "fast_food", "cuisine": "sandwich", "takeaway": "yes", "addr:full": "729 SE Marine Dr", "addr:city": "Vancouver", "addr:state": "BC", "addr:postcode": "V5X 2T9", "addr:country": "CA", "name": "Fraser Street & SE Marine Dr", "website": "https://delivery.quiznos.com/?store_id=12933", "opening_hours": "Mo-Sa 10:00-21:00; Su 11:00-20:00", "brand": "Quizno's", "brand:wikidata": "Q1936229", "nsi_id": "quiznos-658eea"}, "geometry": {"type": "Point", "coordinates": [-123.09008, 49.21113]}},
{"type": "Feature", "id": "gNaAG9-JDpMhShMc7D07NtEIku0=", "properties": {"ref": "14972", "addr:suite": null, "@spider": "quiznos", "amenity": "fast_food", "cuisine": "sandwich", "takeaway": "yes", "addr:full": "1888 SE Sedgwick Rd, Ste 103", "addr:city": "Port Orchard", "addr:state": "WA", "addr:postcode": "98366", "addr:country": "US", "name": "Fred Meyer - Sedgwick Road", "website": "https://delivery.quiznos.com/?store_id=10033", "opening_hours": "Mo-Sa 10:00-21:00; Su 11:00-20:00", "brand": "Quizno's", "brand:wikidata": "Q1936229", "nsi_id": "quiznos-658eea"}, "geometry": {"type": "Point", "coordinates": [-122.62926, 47.5046]}},
{"type": "Feature", "id": "oAxOKSKXBthZl8uKwMrlM_JYVrc=", "properties": {"ref": "1556", "addr:suite": "5250 22 St", "@spider": "quiznos", "amenity": "fast_food", "cuisine": "sandwich", "takeaway": "yes", "addr:full": "Gaetz Avenue Crossing", "addr:city": "Red Deer", "addr:state": "AB", "addr:postcode": "T4R 2T4", "addr:country": "CA", "name": "Gaetz Avenue Crossing", "phone": "(403) 314-4464", "website": "https://delivery.quiznos.com/?store_id=6639", "opening_hours": "Mo-Fr 10:00-21:00; Sa-Su 11:00-19:00", "brand": "Quizno's", "brand:wikidata": "Q1936229", "nsi_id": "quiznos-658eea"}, "geometry": {"type": "Point", "coordinates": [-113.8141942, 52.2498342]}},
{"type": "Feature", "id": "LMqDrB244jOi1Hb9IHgE593OG0M=", "properties": {"ref": "7063", "addr:suite": "Ste 240", "@spider": "quiznos", "amenity": "fast_food", "cuisine": "sandwich", "takeaway": "yes", "addr:full": "6306 Garfield Ave", "addr:city": "Sacramento", "addr:state": "CA", "addr:postcode": "95841", "addr:country": "US", "name": "Garfield Corner", "website": "https://delivery.quiznos.com/?store_id=6441", "opening_hours": "Mo-Sa 10:00-21:00; Su 11:00-20:00", "brand": "Quizno's", "brand:wikidata": "Q1936229", "nsi_id": "quiznos-658eea"}, "geometry": {"type": "Point", "coordinates": [-121.3339, 38.68006]}},
{"type": "Feature", "id": "PVLRqi35bZ2eU6TtTisTfjVyRjI=", "properties": {"ref": "15112", "addr:suite": null, "@spider": "quiznos", "amenity": "fast_food", "cuisine": "sandwich", "takeaway": "yes", "addr:full": "114 Hartzel Rd", "addr:city": "St Catharines", "addr:state": "ON", "addr:postcode": "L2P 1N5", "addr:country": "CA", "name": "GK - St. Catherines", "opening_hours": "24/7", "brand": "Quizno's", "brand:wikidata": "Q1936229", "nsi_id": "quiznos-658eea"}, "geometry": {"type": "Point", "coordinates": [-79.21396, 43.15098]}},
{"type": "Feature", "id": "WtKTC204qr77EpV94cVSVTLa0jI=", "properties": {"ref": "2915", "addr:suite": null, "@spider": "quiznos", "amenity": "fast_food", "cuisine": "sandwich", "takeaway": "yes", "addr:full": "9230 W Northern Ave Ste 107", "addr:city": "Glendale", "addr:state": "AZ", "addr:postcode": "85305", "addr:country": "US", "name": "Glendale", "phone": "(623) 772-0220", "website": "https://delivery.quiznos.com/?store_id=6310", "opening_hours": "Mo-Sa 10:00-20:00; Su 11:00-20:00", "brand": "Quizno's", "brand:wikidata": "Q1936229", "nsi_id": "quiznos-658eea"}, "geometry": {"type": "Point", "coordinates": [-112.25790889418, 33.551639915685]}},
{"type": "Feature", "id": "PHWu1ujx_5ivcAuUWC1EZoWD0XM=", "properties": {"ref": "13117", "addr:suite": null, "@spider": "quiznos", "amenity": "fast_food", "cuisine": "sandwich", "takeaway": "yes", "addr:full": "280 Legacy Parkway, Suite 200", "addr:city": "Plano", "addr:state": "TX", "addr:postcode": "75023", "addr:country": "US", "name": "Golden Plaza", "website": "https://delivery.quiznos.com/?store_id=6527", "opening_hours": "Mo-Sa 10:00-20:00; Su 11:00-20:00", "brand": "Quizno's", "brand:wikidata": "Q1936229", "nsi_id": "quiznos-658eea"}, "geometry": {"type": "Point", "coordinates": [-96.69806, 33.06752]}},
{"type": "Feature", "id": "mHKbiKReypVMsMa7eFawpiGjHFA=", "properties": {"ref": "1612", "addr:suite": null, "@spider": "quiznos", "amenity": "fast_food", "cuisine": "sandwich", "takeaway": "yes", "addr:full": "1813 Wayne Memorial Dr", "addr:city": "Goldsboro", "addr:state": "NC", "addr:postcode": "27534", "addr:country": "US", "name": "Goldsboro", "phone": "(919) 731-7315", "website": "https://delivery.quiznos.com/?store_id=6970", "opening_hours": "Mo-Sa 10:00-21:00; Su 11:00-20:00", "brand": "Quizno's", "brand:wikidata": "Q1936229", "nsi_id": "quiznos-658eea"}, "geometry": {"type": "Point", "coordinates": [-77.97143, 35.39459]}},
{"type": "Feature", "id": "lfM45BHEuFzPCuuePjtxFv3TtG4=", "properties": {"ref": "7940", "addr:suite": null, "@spider": "quiznos", "amenity": "fast_food", "cuisine": "sandwich", "takeaway": "yes", "addr:full": "103-10661 108a St", "addr:city": "Grande Prairie", "addr:state": "AB", "addr:postcode": "T8V 7X5", "addr:country": "CA", "name": "Grand Prairie", "website": "https://delivery.quiznos.com/?store_id=6657", "opening_hours": "Mo-Sa 10:00-21:30; Su 11:00-21:00", "brand": "Quizno's", "brand:wikidata": "Q1936229", "nsi_id": "quiznos-658eea"}, "geometry": {"type": "Point", "coordinates": [-118.8206909, 55.1789293]}},
{"type": "Feature", "id": "YJK7MOpuhFgeIc5re-WGzSFS9LU=", "properties": {"ref": "17", "addr:suite": null, "@spider": "quiznos", "amenity": "fast_food", "cuisine": "sandwich", "takeaway": "yes", "addr:full": "1275 North Grant Street", "addr:city": "Denver", "addr:state": "CO", "addr:postcode": "80203", "addr:country": "US", "name": "Grant", "phone": "(303) 837-9096", "website": "https://delivery.quiznos.com/?store_id=6186&", "opening_hours": "Mo-Sa 10:00-21:00; Su 11:00-20:00", "brand": "Quizno's", "brand:wikidata": "Q1936229", "nsi_id": "quiznos-658eea"}, "geometry": {"type": "Point", "coordinates": [-104.98358904392, 39.736425430315]}},
{"type": "Feature", "id": "jHI-90G1uuhy4m2zJYHYfAtuefY=", "properties": {"ref": "13027", "addr:suite": null, "@spider": "quiznos", "amenity": "fast_food", "cuisine": "sandwich", "takeaway": "yes", "addr:full": "4602 Gordon Rd", "addr:city": "Regina", "addr:state": "SK", "addr:postcode": "S4W 0B7", "addr:country": "CA", "name": "Grasslands", "website": "https://delivery.quiznos.com/?store_id=6813", "opening_hours": "Mo-Sa 10:30-21:00; Su 11:00-20:00", "brand": "Quizno's", "brand:wikidata": "Q1936229", "nsi_id": "quiznos-658eea"}, "geometry": {"type": "Point", "coordinates": [-104.6393355, 50.4053857]}},
{"type": "Feature", "id": "qHH73FIrwip2kbKluMKz-C2Wqfw=", "properties": {"ref": "2362", "addr:suite": null, "@spider": "quiznos", "amenity": "fast_food", "cuisine": "sandwich", "takeaway": "yes", "addr:full": "603 Louis Henna Blvd Ste B120", "addr:city": "Round Rock", "addr:state": "TX", "addr:postcode": "78664", "addr:country": "US", "name": "Greenlawn Crossing", "phone": "(512) 248-2929", "website": "https://delivery.quiznos.com/?store_id=6286", "opening_hours": "Mo-Sa 10:00-21:00", "brand": "Quizno's", "brand:wikidata": "Q1936229", "nsi_id": "quiznos-658eea"}, "geometry": {"type": "Point", "coordinates": [-97.660433118391, 30.482755836284]}},
{"type": "Feature", "id": "k6f4c0xasEaEJy7TSW5mQU1liog=", "properties": {"ref": "1492", "addr:suite": null, "@spider": "quiznos", "amenity": "fast_food", "cuisine": "sandwich", "takeaway": "yes", "addr:full": "55 Eastern Blvd N", "addr:city": "Hagerstown", "addr:state": "MD", "addr:postcode": "21740", "addr:country": "US", "name": "Hagerstown Shopping Center", "phone": "(301) 665-1006", "website": "https://delivery.quiznos.com/?store_id=6248", "opening_hours": "Mo-Sa 11:00-20:00", "brand": "Quizno's", "brand:wikidata": "Q1936229", "nsi_id": "quiznos-658eea"}, "geometry": {"type": "Point", "coordinates": [-77.69954, 39.63296]}},
{"type": "Feature", "id": "XHTZuKIEqMi5m-bvlZVjdMjZO64=", "properties": {"ref": "14821", "addr:suite": null, "@spider": "quiznos", "amenity": "fast_food", "cuisine": "sandwich", "takeaway": "yes", "addr:full": "1735 Hanwell Rd", "addr:city": "Hanwell", "addr:state": "NB", "addr:postcode": "E3C 2B8", "addr:country": "CA", "name": "Hanwell Crossroads", "website": "https://delivery.quiznos.com/?store_id=6845", "opening_hours": "Mo-Sa 11:00-21:00; Su 11:00-20:00", "brand": "Quizno's", "brand:wikidata": "Q1936229", "nsi_id": "quiznos-658eea"}, "geometry": {"type": "Point", "coordinates": [-66.7170175, 45.9299765]}},
{"type": "Feature", "id": "NR0UfBFYVuw7x6ZKHf6GWwzae68=", "properties": {"ref": "14309", "addr:suite": "", "@spider": "quiznos", "amenity": "fast_food", "cuisine": "sandwich", "takeaway": "yes", "addr:full": "2175 Meeker Ave", "addr:city": "Richmond", "addr:state": "CA", "addr:postcode": "94804", "addr:country": "US", "name": "Harbor Gate", "website": "https://delivery.quiznos.com/?store_id=6557", "opening_hours": "Mo-Fr 10:00-19:00; Sa 10:00-17:00; Su 11:00-16:00", "brand": "Quizno's", "brand:wikidata": "Q1936229", "nsi_id": "quiznos-658eea"}, "geometry": {"type": "Point", "coordinates": [-122.34674373762, 37.919672645178]}},
{"type": "Feature", "id": "_UNuKQ9Ooorkut4sqB7xhaKCYnA=", "properties": {"ref": "6500", "addr:suite": "Suite 106", "@spider": "quiznos", "amenity": "fast_food", "cuisine": "sandwich", "takeaway": "yes", "addr:full": "320 South Burlington Avenue", "addr:city": "Hastings", "addr:state": "NE", "addr:postcode": "68901", "addr:country": "US", "name": "Hastings", "phone": "(402) 461-3800", "website": "https://delivery.quiznos.com/?store_id=6428", "opening_hours": "Mo-Sa 10:00-21:00; Su 11:00-20:00", "brand": "Quizno's", "brand:wikidata": "Q1936229", "nsi_id": "quiznos-658eea"}, "geometry": {"type": "Point", "coordinates": [-98.392385550528, 40.581309528081]}},
{"type": "Feature", "id": "HnA4zr0ysig2CHfb0xn5f4aywpw=", "properties": {"ref": "7371", "addr:suite": null, "@spider": "quiznos", "amenity": "fast_food", "cuisine": "sandwich", "takeaway": "yes", "addr:full": "2909 W 120th St", "addr:city": "Hawthorne", "addr:state": "CA", "addr:postcode": "90250", "addr:country": "US", "name": "Hawthorne Commercial Center", "website": "https://delivery.quiznos.com/?store_id=6447", "opening_hours": "Mo-Sa 10:00-21:00; Su 11:00-20:00", "brand": "Quizno's", "brand:wikidata": "Q1936229", "nsi_id": "quiznos-658eea"}, "geometry": {"type": "Point", "coordinates": [-118.32581698499, 33.92361960378]}},
{"type": "Feature", "id": "JC2BTSGKCc836tDNgGjN0TE6UMg=", "properties": {"ref": "4933", "addr:suite": null, "@spider": "quiznos", "amenity": "fast_food", "cuisine": "sandwich", "takeaway": "yes", "addr:full": "1411A Henderson Hwy", "addr:city": "Winnipeg", "addr:state": "MB", "addr:postcode": "R2G 1N3", "addr:country": "CA", "name": "Henderson Highway", "website": "https://delivery.quiznos.com/?store_id=6715", "opening_hours": "Mo-Fr 10:00-22:00; Sa 11:00-21:00; Su 11:00-20:00", "brand": "Quizno's", "brand:wikidata": "Q1936229", "nsi_id": "quiznos-658eea"}, "geometry": {"type": "Point", "coordinates": [-97.08575, 49.944735]}},
{"type": "Feature", "id": "AISHTSZY22BAVgxgP3rsNjOfEQY=", "properties": {"ref": "695", "addr:suite": null, "@spider": "quiznos", "amenity": "fast_food", "cuisine": "sandwich", "takeaway": "yes", "addr:full": "1163 Pinetree Way", "addr:city": "Coquitlam", "addr:state": "BC", "addr:postcode": "V3B 8A9", "addr:country": "CA", "name": "Henderson Place", "phone": "(604) 945-5777", "website": "https://delivery.quiznos.com/?store_id=6610", "opening_hours": "Mo-Sa 10:00-21:00; Su 11:00-20:00", "brand": "Quizno's", "brand:wikidata": "Q1936229", "nsi_id": "quiznos-658eea"}, "geometry": {"type": "Point", "coordinates": [-122.7926388, 49.2798301]}},
{"type": "Feature", "id": "lKKnElq67pQQYT0gGrmH9padtsA=", "properties": {"ref": "3410", "addr:suite": null, "@spider": "quiznos", "amenity": "fast_food", "cuisine": "sandwich", "takeaway": "yes", "addr:full": "580 Hespeler Rd", "addr:city": "Cambridge", "addr:state": "ON", "addr:postcode": "N1R 6J8", "addr:country": "CA", "name": "Hespeler Road", "phone": "(519) 624-7622", "website": "https://delivery.quiznos.com/?store_id=6679", "opening_hours": "Mo-Fr 11:00-21:00; Sa 12:00-21:00; Su 12:00-20:00", "brand": "Quizno's", "brand:wikidata": "Q1936229", "nsi_id": "quiznos-658eea"}, "geometry": {"type": "Point", "coordinates": [-80.327388, 43.4031797]}},
{"type": "Feature", "id": "8u3MmcZXAbVUaaVexM3ce0_riO0=", "properties": {"ref": "3623", "addr:suite": null, "@spider": "quiznos", "amenity": "fast_food", "cuisine": "sandwich", "takeaway": "yes", "addr:full": "2100 Highland Way", "addr:city": "Mitchell", "addr:state": "SD", "addr:postcode": "57301", "addr:country": "US", "name": "Highland Mall", "phone": "(605) 995-1010", "website": "https://delivery.quiznos.com/?store_id=6342", "opening_hours": "Mo-Sa 10:00-21:00; Su 11:00-20:00", "brand": "Quizno's", "brand:wikidata": "Q1936229", "nsi_id": "quiznos-658eea"}, "geometry": {"type": "Point", "coordinates": [-98.00863, 43.69045]}},
{"type": "Feature", "id": "ye2lZudEJUfaCz-OURssw9hD3mI=", "properties": {"ref": "8085", "addr:suite": null, "@spider": "quiznos", "amenity": "fast_food", "cuisine": "sandwich", "takeaway": "yes", "addr:full": "1815 Middleton Ave", "addr:city": "Brandon", "addr:state": "MB", "addr:postcode": "R7C 1A7", "addr:country": "CA", "name": "Highway 1 Esso", "website": "https://delivery.quiznos.com/?store_id=6754", "opening_hours": "Mo-Su 10:00-22:00", "brand": "Quizno's", "brand:wikidata": "Q1936229", "nsi_id": "quiznos-658eea"}, "geometry": {"type": "Point", "coordinates": [-99.962194, 49.8877979]}},
{"type": "Feature", "id": "yNtZdvca9QBnv9dbAUS51unqz4k=", "properties": {"ref": "7266", "addr:suite": null, "@spider": "quiznos", "amenity": "fast_food", "cuisine": "sandwich", "takeaway": "yes", "addr:full": "101-15335 Hwy 10", "addr:city": "Surrey", "addr:state": "BC", "addr:postcode": "V3S 0X9", "addr:country": "CA", "name": "Highway 10 and 152nd Street", "website": "https://delivery.quiznos.com/?store_id=6746", "opening_hours": "Mo-Fr 10:00-21:00; Sa 11:00-21:00; Su 11:00-20:00", "brand": "Quizno's", "brand:wikidata": "Q1936229", "nsi_id": "quiznos-658eea"}, "geometry": {"type": "Point", "coordinates": [-122.7995533, 49.1045001]}},
{"type": "Feature", "id": "xcLnYnatXMjvP9YkyKEBU4xeTGw=", "properties": {"ref": "11907", "addr:suite": "300 Rodgers Blvd", "@spider": "quiznos", "amenity": "fast_food", "cuisine": "sandwich", "takeaway": "yes", "addr:full": "HMS Host, Honolulu International Airport", "addr:city": "Honolulu", "addr:state": "HI", "addr:postcode": "96819", "addr:country": "US", "name": "Honolulu International Airport", "opening_hours": "Mo-Su 08:00-22:30", "brand": "Quizno's", "brand:wikidata": "Q1936229", "nsi_id": "quiznos-658eea"}, "geometry": {"type": "Point", "coordinates": [-157.92163, 21.33311]}},
{"type": "Feature", "id": "QcA3Rl_nq1QZhm-MFTjSO_1UYW0=", "properties": {"ref": "14919", "addr:suite": null, "@spider": "quiznos", "amenity": "fast_food", "cuisine": "sandwich", "takeaway": "yes", "addr:full": "10208 104 Avenue", "addr:city": "Westlock", "addr:state": "AB", "addr:postcode": "T7P 2H6", "addr:country": "CA", "name": "Husky-Westlock", "website": "https://delivery.quiznos.com/?store_id=6935", "opening_hours": "Mo-Su 10:00-20:00", "brand": "Quizno's", "brand:wikidata": "Q1936229", "nsi_id": "quiznos-658eea"}, "geometry": {"type": "Point", "coordinates": [-113.85072, 54.15461]}},
{"type": "Feature", "id": "RBm9w3CKOCQBuM0oC9OFjUgerjg=", "properties": {"ref": "4063", "addr:suite": null, "@spider": "quiznos", "amenity": "fast_food", "cuisine": "sandwich", "takeaway": "yes", "addr:full": "1426 9th St SE", "addr:city": "Dyersville", "addr:state": "IA", "addr:postcode": "52040", "addr:country": "US", "name": "Hwy 136 - 9th Street", "phone": "(608) 326-7849", "website": "https://delivery.quiznos.com/?store_id=6362", "opening_hours": "Mo-Sa 10:00-21:00; Su 11:00-20:00", "brand": "Quizno's", "brand:wikidata": "Q1936229", "nsi_id": "quiznos-658eea"}, "geometry": {"type": "Point", "coordinates": [-91.11431, 42.47195]}},
{"type": "Feature", "id": "JwVYG0vqgw58fNnKgopMda9uhP0=", "properties": {"ref": "12379", "addr:suite": null, "@spider": "quiznos", "amenity": "fast_food", "cuisine": "sandwich", "takeaway": "yes", "addr:full": "7701 44th St. #102", "addr:city": "Loydminster", "addr:state": "AB", "addr:postcode": "T9X 0X9", "addr:country": "CA", "name": "Hwy 16/75th Avenue", "website": "https://delivery.quiznos.com/?store_id=6799", "opening_hours": "Mo-Fr 10:00-21:00; Sa 11:00-21:00; Su 11:00-20:00", "brand": "Quizno's", "brand:wikidata": "Q1936229", "nsi_id": "quiznos-658eea"}, "geometry": {"type": "Point", "coordinates": [-110.05804, 53.27749]}},
{"type": "Feature", "id": "t0OONr3jAIM7dhOKa7DH8wPzH7k=", "properties": {"ref": "15080", "addr:suite": null, "@spider": "quiznos", "amenity": "fast_food", "cuisine": "sandwich", "takeaway": "yes", "addr:full": "575 66th Street Court East", "addr:city": "Bradenton", "addr:state": "FL", "addr:postcode": "34208", "addr:country": "US", "name": "Hwy 64 and 66th St Ct East", "opening_hours": "Mo-Su 06:00-21:00", "brand": "Quizno's", "brand:wikidata": "Q1936229", "nsi_id": "quiznos-658eea"}, "geometry": {"type": "Point", "coordinates": [-82.47825, 27.49289]}},
{"type": "Feature", "id": "Xd7mbkzpnoLx7DX0vtJ8O3oZu5o=", "properties": {"ref": "15061", "addr:suite": null, "@spider": "quiznos", "amenity": "fast_food", "cuisine": "sandwich", "takeaway": "yes", "addr:full": "1090 Westminster Ave W", "addr:city": "Penticton", "addr:state": "BC", "addr:postcode": "V2A 1L5", "addr:country": "CA", "name": "Hwy 97 & Westminster", "website": "https://delivery.quiznos.com/?store_id=11589", "opening_hours": "Mo-Su 07:00-21:00", "brand": "Quizno's", "brand:wikidata": "Q1936229", "nsi_id": "quiznos-658eea"}, "geometry": {"type": "Point", "coordinates": [-119.61352, 49.49559]}},
{"type": "Feature", "id": "xMtWhoFFZHwSBbaxoTds5y37FOo=", "properties": {"ref": "11308", "addr:suite": null, "@spider": "quiznos", "amenity": "fast_food", "cuisine": "sandwich", "takeaway": "yes", "addr:full": "4640 Pecos St Unit A", "addr:city": "Denver", "addr:state": "CO", "addr:postcode": "80211", "addr:country": "US", "name": "Interstate 70 and Pecos Street", "website": "https://delivery.quiznos.com/?store_id=6493", "opening_hours": "Mo-Fr 10:00-19:00; Sa 10:00-15:00", "brand": "Quizno's", "brand:wikidata": "Q1936229", "nsi_id": "quiznos-658eea"}, "geometry": {"type": "Point", "coordinates": [-105.00622, 39.780934]}},
{"type": "Feature", "id": "UhqCll0b2ZTM1fN4rL8XP7VYGLM=", "properties": {"ref": "7186", "addr:suite": null, "@spider": "quiznos", "amenity": "fast_food", "cuisine": "sandwich", "takeaway": "yes", "addr:full": "13038 Interurban Ave S Ste 140", "addr:city": "Tukwila", "addr:state": "WA", "addr:postcode": "98168", "addr:country": "US", "name": "Interurban Retail Center", "website": "https://delivery.quiznos.com/?store_id=6445", "opening_hours": "Mo-Fr 10:00-21:00; Sa 11:00-21:00; Su 11:00-20:00", "brand": "Quizno's", "brand:wikidata": "Q1936229", "nsi_id": "quiznos-658eea"}, "geometry": {"type": "Point", "coordinates": [-122.2742900888, 47.485809129757]}},
{"type": "Feature", "id": "l4wHD-_AauBTK0B3OsDMouIJ6bQ=", "properties": {"ref": "509", "addr:suite": null, "@spider": "quiznos", "amenity": "fast_food", "cuisine": "sandwich", "takeaway": "yes", "addr:full": "11666 Steveston Hwy", "addr:city": "Richmond", "addr:state": "BC", "addr:postcode": "V7A 5J3", "addr:country": "CA", "name": "Ironwood", "phone": "(604) 272-5072", "website": "https://delivery.quiznos.com/?store_id=6601", "opening_hours": "Mo-Sa 10:00-21:00; Su 11:00-20:00", "brand": "Quizno's", "brand:wikidata": "Q1936229", "nsi_id": "quiznos-658eea"}, "geometry": {"type": "Point", "coordinates": [-123.0954851, 49.1320664]}},
{"type": "Feature", "id": "_eoG7uUYWNOZTdnJ2vgknhOdacY=", "properties": {"ref": "7124", "addr:suite": null, "@spider": "quiznos", "amenity": "fast_food", "cuisine": "sandwich", "takeaway": "yes", "addr:full": "1325 S Highway 89", "addr:city": "Jackson Hole", "addr:state": "WY", "addr:postcode": "83001", "addr:country": "US", "name": "Jackson Hole", "phone": "(307) 733-0201", "website": "https://delivery.quiznos.com/?store_id=6442", "opening_hours": "Mo-Fr 11:00-19:30; Sa-Su 11:00-17:00", "brand": "Quizno's", "brand:wikidata": "Q1936229", "nsi_id": "quiznos-658eea"}, "geometry": {"type": "Point", "coordinates": [-110.80653, 43.46479]}},
{"type": "Feature", "id": "tzwXoXPsVNrl5JKWMUbHnYdLZb0=", "properties": {"ref": "537", "addr:suite": null, "@spider": "quiznos", "amenity": "fast_food", "cuisine": "sandwich", "takeaway": "yes", "addr:full": "2043 E Independence St", "addr:city": "Springfield", "addr:state": "MO", "addr:postcode": "65804", "addr:country": "US", "name": "James Town Center", "phone": "(417) 877-0606", "website": "https://delivery.quiznos.com/?store_id=6206", "opening_hours": "Mo-Sa 10:00-21:00; Su 11:00-20:00", "brand": "Quizno's", "brand:wikidata": "Q1936229", "nsi_id": "quiznos-658eea"}, "geometry": {"type": "Point", "coordinates": [-93.25742, 37.14207]}},
{"type": "Feature", "id": "X6iVwVrQ5x-nxid-bcz5v9FRPZs=", "properties": {"ref": "8814", "addr:suite": null, "@spider": "quiznos", "amenity": "fast_food", "cuisine": "sandwich", "takeaway": "yes", "addr:full": "5375 Highway 308", "addr:city": "Mathews", "addr:state": "LA", "addr:postcode": "70375", "addr:country": "US", "name": "Jester's Court Too Truck Stop - Highway 308", "website": "https://delivery.quiznos.com/?store_id=6463", "opening_hours": "Mo-Su 09:00-21:00", "brand": "Quizno's", "brand:wikidata": "Q1936229", "nsi_id": "quiznos-658eea"}, "geometry": {"type": "Point", "coordinates": [-90.53831, 29.67247]}},
{"type": "Feature", "id": "0Y18HjutZdd-Ty0Zis_cKOwPUGA=", "properties": {"ref": "5071", "addr:suite": null, "@spider": "quiznos", "amenity": "fast_food", "cuisine": "sandwich", "takeaway": "yes", "addr:full": "1323 W Joe Harvey Blvd", "addr:city": "Hobbs", "addr:state": "NM", "addr:postcode": "88240", "addr:country": "US", "name": "Joe Harvey Boulevard and Cam Real", "phone": "(505) 492-9961", "website": "https://delivery.quiznos.com/?store_id=6392", "opening_hours": "Mo-Sa 10:00-22:00; Su 11:00-20:00", "brand": "Quizno's", "brand:wikidata": "Q1936229", "nsi_id": "quiznos-658eea"}, "geometry": {"type": "Point", "coordinates": [-103.15197, 32.74012]}},
{"type": "Feature", "id": "oghKOd83YuKVWDmkkZ0TWqmV6u8=", "properties": {"ref": "14902", "addr:suite": null, "@spider": "quiznos", "amenity": "fast_food", "cuisine": "sandwich", "takeaway": "yes", "addr:full": "8087 John Hart Highway", "addr:city": "Prince George", "addr:state": "BC", "addr:postcode": "V2K 3B8", "addr:country": "CA", "name": "John Hart Highway", "opening_hours": "Mo-Su 10:00-20:00", "brand": "Quizno's", "brand:wikidata": "Q1936229", "nsi_id": "quiznos-658eea"}, "geometry": {"type": "Point", "coordinates": [-122.80203, 54.0046]}},
{"type": "Feature", "id": "Nl_RzhyQi_JKas60HKZi2noCNf8=", "properties": {"ref": "1529", "addr:suite": null, "@spider": "quiznos", "amenity": "fast_food", "cuisine": "sandwich", "takeaway": "yes", "addr:full": "2150 N Josey Ln Ste 122", "addr:city": "Carrollton", "addr:state": "TX", "addr:postcode": "75006", "addr:country": "US", "name": "Keller/Josey", "phone": "(972) 446-2852", "website": "https://delivery.quiznos.com/?store_id=6250", "opening_hours": "Mo-Fr 10:00-20:00; Sa 10:00-19:00", "brand": "Quizno's", "brand:wikidata": "Q1936229", "nsi_id": "quiznos-658eea"}, "geometry": {"type": "Point", "coordinates": [-96.889902705627, 32.973903151693]}},
{"type": "Feature", "id": "DKr_2c0Jbfdyo2EvS0WzclhF0GU=", "properties": {"ref": "2768", "addr:suite": null, "@spider": "quiznos", "amenity": "fast_food", "cuisine": "sandwich", "takeaway": "yes", "addr:full": "7-1639 Kenaston Blvd", "addr:city": "Winnipeg", "addr:state": "MB", "addr:postcode": "R3P 2M4", "addr:country": "CA", "name": "Kenaston Boulevard", "phone": "(204) 956-3290", "website": "https://delivery.quiznos.com/?store_id=6664", "opening_hours": "Mo-Fr 10:00-21:00; Sa 11:00-21:00; Su 11:00-19:00", "brand": "Quizno's", "brand:wikidata": "Q1936229", "nsi_id": "quiznos-658eea"}, "geometry": {"type": "Point", "coordinates": [-97.1986387, 49.8234968]}},
{"type": "Feature", "id": "BSU1xQ-T673wwJ2-hkeJU4NdCGU=", "properties": {"ref": "9019", "addr:suite": null, "@spider": "quiznos", "amenity": "fast_food", "cuisine": "sandwich", "takeaway": "yes", "addr:full": "1046 Princess St Unit 6C", "addr:city": "Kingston", "addr:state": "ON", "addr:postcode": "K7L 1H2", "addr:country": "CA", "name": "Kingston Centre", "website": "https://delivery.quiznos.com/?store_id=6767", "opening_hours": "Mo-Sa 10:30-21:00; Su 11:00-20:00", "brand": "Quizno's", "brand:wikidata": "Q1936229", "nsi_id": "quiznos-658eea"}, "geometry": {"type": "Point", "coordinates": [-76.5152368, 44.2424283]}},
{"type": "Feature", "id": "xkuztv93VHDxVKowYcUEY8bg4JY=", "properties": {"ref": "7874", "addr:suite": null, "@spider": "quiznos", "amenity": "fast_food", "cuisine": "sandwich", "takeaway": "yes", "addr:full": "11621 Kingsway NW", "addr:city": "Edmonton", "addr:state": "AB", "addr:postcode": "T5G 3E8", "addr:country": "CA", "name": "Kingsway Avenue and 114th Street", "website": "https://delivery.quiznos.com/?store_id=6751", "opening_hours": "Mo-Fr 10:30-21:00; Sa 11:00-20:00; Su 11:30-19:00", "brand": "Quizno's", "brand:wikidata": "Q1936229", "nsi_id": "quiznos-658eea"}, "geometry": {"type": "Point", "coordinates": [-113.5212386, 53.5661945]}},
{"type": "Feature", "id": "m6Ap3tV4SgKLL7TKC1_MMpwwrdg=", "properties": {"ref": "4487", "addr:suite": null, "@spider": "quiznos", "amenity": "fast_food", "cuisine": "sandwich", "takeaway": "yes", "addr:full": "E-1560 Lasalle Blvd", "addr:city": "Sudbury", "addr:state": "ON", "addr:postcode": "P3A 1Z7", "addr:country": "CA", "name": "La Salle", "phone": "(705) 675-7782", "website": "https://delivery.quiznos.com/?store_id=6701", "opening_hours": "Mo-Fr 09:00-21:00; Sa 11:00-21:00; Su 11:00-20:30", "brand": "Quizno's", "brand:wikidata": "Q1936229", "nsi_id": "quiznos-658eea"}, "geometry": {"type": "Point", "coordinates": [-80.9390589, 46.5224952]}},
{"type": "Feature", "id": "RfX4Zduqtj8J0LckSQgzA0-ed44=", "properties": {"ref": "15113", "addr:suite": null, "@spider": "quiznos", "amenity": "fast_food", "cuisine": "sandwich", "takeaway": "yes", "addr:full": "310 S Greer Blvd.", "addr:city": "Pittsburg", "addr:state": "TX", "addr:postcode": "75686", "addr:country": "US", "name": "Lafayette St & Highland Ave.", "opening_hours": "Mo-Su 11:00-20:00", "brand": "Quizno's", "brand:wikidata": "Q1936229", "nsi_id": "quiznos-658eea"}, "geometry": {"type": "Point", "coordinates": [-94.96222, 32.9917]}},
{"type": "Feature", "id": "3KusN7t5EO733n-rLEltahw8N8k=", "properties": {"ref": "15033", "addr:suite": null, "@spider": "quiznos", "amenity": "fast_food", "cuisine": "sandwich", "takeaway": "yes", "addr:full": "15520 Daniel Blvd, Suite G", "addr:city": "Gulfport", "addr:state": "MS", "addr:postcode": "39503", "addr:country": "US", "name": "Landon Rd & US Hwy 49", "website": "https://delivery.quiznos.com/?store_id=11492", "opening_hours": "Mo-Sa 10:00-21:00; Su 11:00-20:00", "brand": "Quizno's", "brand:wikidata": "Q1936229", "nsi_id": "quiznos-658eea"}, "geometry": {"type": "Point", "coordinates": [-89.09904, 30.43674]}},
{"type": "Feature", "id": "WPAKTjjFdTn0oxmeKIzwBFZi5us=", "properties": {"ref": "473", "addr:suite": "", "@spider": "quiznos", "amenity": "fast_food", "cuisine": "sandwich", "takeaway": "yes", "addr:full": "A-20055 Langley Bypass", "addr:city": "Langley", "addr:state": "BC", "addr:postcode": "V3A 8R6", "addr:country": "CA", "name": "Langley", "phone": "(604) 530-9911", "website": "https://delivery.quiznos.com/?store_id=6600", "opening_hours": "Mo-Sa 10:30-21:00; Su 11:00-20:00", "brand": "Quizno's", "brand:wikidata": "Q1936229", "nsi_id": "quiznos-658eea"}, "geometry": {"type": "Point", "coordinates": [-122.668076, 49.1144701]}},
{"type": "Feature", "id": "QHHC1c_0iga0npxZAoZhMHbQmPY=", "properties": {"ref": "14602", "addr:suite": null, "@spider": "quiznos", "amenity": "fast_food", "cuisine": "sandwich", "takeaway": "yes", "addr:full": "1915 Front Rd", "addr:city": "LaSalle", "addr:state": "ON", "addr:postcode": "N9J 2B8", "addr:country": "CA", "name": "LaSalle Petro Canada", "opening_hours": "Mo-Su 11:00-21:00", "brand": "Quizno's", "brand:wikidata": "Q1936229", "nsi_id": "quiznos-658eea"}, "geometry": {"type": "Point", "coordinates": [-83.1031849, 42.229937]}},
{"type": "Feature", "id": "gxTQFLvzjHjIQ9sBlQ_zW0fKwbE=", "properties": {"ref": "14366", "addr:suite": null, "@spider": "quiznos", "amenity": "fast_food", "cuisine": "sandwich", "takeaway": "yes", "addr:full": "160 Erie St N", "addr:city": "Leamington", "addr:state": "ON", "addr:postcode": "N8H 1A3", "addr:country": "CA", "name": "Leamington Petro Canada", "website": "https://delivery.quiznos.com/?store_id=6825", "opening_hours": "Mo-Su 06:00-22:00", "brand": "Quizno's", "brand:wikidata": "Q1936229", "nsi_id": "quiznos-658eea"}, "geometry": {"type": "Point", "coordinates": [-82.5992629, 42.0593312]}},
{"type": "Feature", "id": "psjwtHPGNW-FKyMCfXNVOgUMc0I=", "properties": {"ref": "15022", "addr:suite": null, "@spider": "quiznos", "amenity": "fast_food", "cuisine": "sandwich", "takeaway": "yes", "addr:full": "5250 Shepherd Road", "addr:city": "Springfield", "addr:state": "IL", "addr:postcode": "62794", "addr:country": "US", "name": "Lincoln Land Community College", "website": "https://delivery.quiznos.com/?store_id=10551", "opening_hours": "Mo-Fr 10:00-14:00", "brand": "Quizno's", "brand:wikidata": "Q1936229", "nsi_id": "quiznos-658eea"}, "geometry": {"type": "Point", "coordinates": [-89.61073, 39.72145]}},
{"type": "Feature", "id": "HWSj7cy75MeeTeXPf9vLd-xlynk=", "properties": {"ref": "2832", "addr:suite": null, "@spider": "quiznos", "amenity": "fast_food", "cuisine": "sandwich", "takeaway": "yes", "addr:full": "1006 Taylor Avenue", "addr:city": "Towson", "addr:state": "MD", "addr:postcode": "21286", "addr:country": "US", "name": "Loch Raven", "phone": "(443) 279-0587", "website": "https://delivery.quiznos.com/?store_id=6307", "opening_hours": "Mo-Fr 10:30-19:00; Sa-Su 12:00-18:00", "brand": "Quizno's", "brand:wikidata": "Q1936229", "nsi_id": "quiznos-658eea"}, "geometry": {"type": "Point", "coordinates": [-76.576276221306, 39.385034924405]}},
{"type": "Feature", "id": "Aoh6Ge_2HQXRJv5dbRK2W8h4sos=", "properties": {"ref": "12890", "addr:suite": null, "@spider": "quiznos", "amenity": "fast_food", "cuisine": "sandwich", "takeaway": "yes", "addr:full": "12011 US Highway 93 S", "addr:city": "Lolo", "addr:state": "MT", "addr:postcode": "59847", "addr:country": "US", "name": "Lolo Super Stop - Highway 93 South", "opening_hours": "Mo-Th 10:00-17:00; Fr-Sa 10:00-21:00; Su 10:00-20:00", "brand": "Quizno's", "brand:wikidata": "Q1936229", "nsi_id": "quiznos-658eea"}, "geometry": {"type": "Point", "coordinates": [-114.08264, 46.74712]}},
{"type": "Feature", "id": "3wZIeWBSn92yi_tOh3IvqO2WTZ0=", "properties": {"ref": "6068", "addr:suite": null, "@spider": "quiznos", "amenity": "fast_food", "cuisine": "sandwich", "takeaway": "yes", "addr:full": "201 N Los Angeles St Ste 22", "addr:city": "Los Angeles", "addr:state": "CA", "addr:postcode": "90012", "addr:country": "US", "name": "Los Angeles City Mall", "phone": "(213) 995-3100", "opening_hours": "Mo-Fr 08:00-16:00", "brand": "Quizno's", "brand:wikidata": "Q1936229", "nsi_id": "quiznos-658eea"}, "geometry": {"type": "Point", "coordinates": [-118.24165785965, 34.052418772268]}},
{"type": "Feature", "id": "NRrjLIz4djglnJo8ccqHtSk3pOA=", "properties": {"ref": "8305", "addr:suite": null, "@spider": "quiznos", "amenity": "fast_food", "cuisine": "sandwich", "takeaway": "yes", "addr:full": "209 E Louise Ave", "addr:city": "Lathrop", "addr:state": "CA", "addr:postcode": "95330", "addr:country": "US", "name": "Louise Plaza", "website": "https://delivery.quiznos.com/?store_id=6457", "opening_hours": "Mo-Sa 10:00-20:00; Su 11:00-20:00", "brand": "Quizno's", "brand:wikidata": "Q1936229", "nsi_id": "quiznos-658eea"}, "geometry": {"type": "Point", "coordinates": [-121.29, 37.81]}},
{"type": "Feature", "id": "cshcFPyLQB601GXtCM2h3WmpGi4=", "properties": {"ref": "1604", "addr:suite": "Unit A122", "@spider": "quiznos", "amenity": "fast_food", "cuisine": "sandwich", "takeaway": "yes", "addr:full": "184 Manning Crossing NW", "addr:city": "Edmonton", "addr:state": "AB", "addr:postcode": "T5A 5A1", "addr:country": "CA", "name": "Manning Crossing", "phone": "(780) 472-7841", "website": "https://delivery.quiznos.com/?store_id=6640", "opening_hours": "Mo-Fr 10:30-21:00; Sa-Su 11:00-20:00", "brand": "Quizno's", "brand:wikidata": "Q1936229", "nsi_id": "quiznos-658eea"}, "geometry": {"type": "Point", "coordinates": [-113.424344, 53.6006209]}},
{"type": "Feature", "id": "poe4T77L7brY20x8fEpdfq458xw=", "properties": {"ref": "14973", "addr:suite": null, "@spider": "quiznos", "amenity": "fast_food", "cuisine": "sandwich", "takeaway": "yes", "addr:full": "760 Benstein Road", "addr:city": "Commerce Township", "addr:state": "MI", "addr:postcode": "48390", "addr:country": "US", "name": "Maple and Benstein", "website": "https://delivery.quiznos.com/?store_id=10066", "opening_hours": "Mo-Sa 10:00-21:00; Su 11:00-20:00", "brand": "Quizno's", "brand:wikidata": "Q1936229", "nsi_id": "quiznos-658eea"}, "geometry": {"type": "Point", "coordinates": [-83.502237387642, 42.533679627115]}},
{"type": "Feature", "id": "KW-FAikmYWBF576z9dA6daNlcsU=", "properties": {"ref": "4562", "addr:suite": null, "@spider": "quiznos", "amenity": "fast_food", "cuisine": "sandwich", "takeaway": "yes", "addr:full": "29 Marietta St NW", "addr:city": "Atlanta", "addr:state": "GA", "addr:postcode": "30303", "addr:country": "US", "name": "Marietta Street", "phone": "(404) 589-8025", "website": "https://delivery.quiznos.com/?store_id=6380", "opening_hours": "Mo-Th 07:00-19:30; Fr 07:00-19:00; Sa 11:00-18:30", "brand": "Quizno's", "brand:wikidata": "Q1936229", "nsi_id": "quiznos-658eea"}, "geometry": {"type": "Point", "coordinates": [-84.390502291939, 33.755034445808]}},
{"type": "Feature", "id": "4GvUzDtEQN6QIFNyMHmey27v5o4=", "properties": {"ref": "12642", "addr:suite": null, "@spider": "quiznos", "amenity": "fast_food", "cuisine": "sandwich", "takeaway": "yes", "addr:full": "305 Albert St", "addr:city": "Regina", "addr:state": "SK", "addr:postcode": "S4R 2P6", "addr:country": "CA", "name": "Market Mall", "website": "https://delivery.quiznos.com/?store_id=6804", "opening_hours": "Mo-Sa 10:00-21:00; Su 11:00-20:00", "brand": "Quizno's", "brand:wikidata": "Q1936229", "nsi_id": "quiznos-658eea"}, "geometry": {"type": "Point", "coordinates": [-104.6173008, 50.4810917]}},
{"type": "Feature", "id": "ES488BOt82ovy9Wwt1SQMIra130=", "properties": {"ref": "8765", "addr:suite": null, "@spider": "quiznos", "amenity": "fast_food", "cuisine": "sandwich", "takeaway": "yes", "addr:full": "105-13988 Maycrest Way", "addr:city": "Richmond", "addr:state": "BC", "addr:postcode": "V6V 2J4", "addr:country": "CA", "name": "Maycrest Way", "website": "https://delivery.quiznos.com/?store_id=6763", "opening_hours": "Mo-Fr 09:00-17:00", "brand": "Quizno's", "brand:wikidata": "Q1936229", "nsi_id": "quiznos-658eea"}, "geometry": {"type": "Point", "coordinates": [-123.0702138, 49.1793782]}},
{"type": "Feature", "id": "FUEdHUHTrUrLsn_FOXdOZE0ON-0=", "properties": {"ref": "12750", "addr:suite": null, "@spider": "quiznos", "amenity": "fast_food", "cuisine": "sandwich", "takeaway": "yes", "addr:full": "2055 Alcoa Highway", "addr:city": "Alcoa", "addr:state": "TN", "addr:postcode": "37701", "addr:country": "US", "name": "Mc Ghee Tyson Airport", "opening_hours": "Mo-Fr 04:30-19:30; Sa 04:30-18:30; Su 04:30-19:30", "brand": "Quizno's", "brand:wikidata": "Q1936229", "nsi_id": "quiznos-658eea"}, "geometry": {"type": "Point", "coordinates": [-83.98703, 35.805518]}},
{"type": "Feature", "id": "rhZZwDKnD-13b8jdrX_gEYCzJL8=", "properties": {"ref": "1344", "addr:suite": "D Gate Terminal 1", "@spider": "quiznos", "amenity": "fast_food", "cuisine": "sandwich", "takeaway": "yes", "addr:full": "5757 Wayne Newton BLvd", "addr:city": "Las Vegas", "addr:state": "NV", "addr:postcode": "89119", "addr:country": "US", "name": "McCarran International Airport", "phone": "(702) 261-7330", "opening_hours": "Mo-Su 04:30-01:00", "brand": "Quizno's", "brand:wikidata": "Q1936229", "nsi_id": "quiznos-658eea"}, "geometry": {"type": "Point", "coordinates": [-115.14958, 36.08484]}},
{"type": "Feature", "id": "gwfeAp5eahU3k4RpRfs5dVlL4Lk=", "properties": {"ref": "857", "addr:suite": null, "@spider": "quiznos", "amenity": "fast_food", "cuisine": "sandwich", "takeaway": "yes", "addr:full": "948 McCurdy Rd", "addr:city": "Kelowna", "addr:state": "BC", "addr:postcode": "V1X 2P7", "addr:country": "CA", "name": "McCurdy Corner", "phone": "(250) 492-3243", "website": "https://delivery.quiznos.com/?store_id=6617", "opening_hours": "Mo-Sa 10:00-20:00; Su 11:00-20:00", "brand": "Quizno's", "brand:wikidata": "Q1936229", "nsi_id": "quiznos-658eea"}, "geometry": {"type": "Point", "coordinates": [-119.4054165, 49.9029574]}},
{"type": "Feature", "id": "vSGyUGBSNtDw-H0skns2QvV6aHk=", "properties": {"ref": "6739", "addr:suite": null, "@spider": "quiznos", "amenity": "fast_food", "cuisine": "sandwich", "takeaway": "yes", "addr:full": "1595 N Peach Ave Ste 101", "addr:city": "Fresno", "addr:state": "CA", "addr:postcode": "93727", "addr:country": "US", "name": "McKinley and Peach", "website": "https://delivery.quiznos.com/?store_id=6435", "opening_hours": "Mo-Sa 10:00-21:00; Su 11:00-20:00", "brand": "Quizno's", "brand:wikidata": "Q1936229", "nsi_id": "quiznos-658eea"}, "geometry": {"type": "Point", "coordinates": [-119.7183684049, 36.765025559062]}},
{"type": "Feature", "id": "uymcF1rnePlsJIIUgTyqoPQ_ZIw=", "properties": {"ref": "8109", "addr:suite": null, "@spider": "quiznos", "amenity": "fast_food", "cuisine": "sandwich", "takeaway": "yes", "addr:full": "4250 NW 20th St", "addr:city": "Miami", "addr:state": "FL", "addr:postcode": "33122", "addr:country": "US", "name": "Miami Int'l Airport - Concourse H", "opening_hours": "Mo-Su 09:30-19:00", "brand": "Quizno's", "brand:wikidata": "Q1936229", "nsi_id": "quiznos-658eea"}, "geometry": {"type": "Point", "coordinates": [-80.2747, 25.7929]}},
{"type": "Feature", "id": "Iivpqdf3gYdikPCYGSJu6JN-0zM=", "properties": {"ref": "865", "addr:suite": null, "@spider": "quiznos", "amenity": "fast_food", "cuisine": "sandwich", "takeaway": "yes", "addr:full": "10031 E 71st St Ste F", "addr:city": "Tulsa", "addr:state": "OK", "addr:postcode": "74133", "addr:country": "US", "name": "Mingo Marketplace", "phone": "(918) 459-7966", "website": "https://delivery.quiznos.com/?store_id=6224", "opening_hours": "Mo-Sa 10:00-21:00; Su 11:00-20:00", "brand": "Quizno's", "brand:wikidata": "Q1936229", "nsi_id": "quiznos-658eea"}, "geometry": {"type": "Point", "coordinates": [-95.864903802287, 36.060771324783]}},
{"type": "Feature", "id": "MeyQccBtGwwzMHnRVb0opX2e6OA=", "properties": {"ref": "691", "addr:suite": "B368", "@spider": "quiznos", "amenity": "fast_food", "cuisine": "sandwich", "takeaway": "yes", "addr:full": "32555 London Ave", "addr:city": "Mission", "addr:state": "BC", "addr:postcode": "V2V 6M7", "addr:country": "CA", "name": "Mission Shoping", "phone": "(604) 820-9792", "website": "https://delivery.quiznos.com/?store_id=6609", "opening_hours": "Mo-Fr 10:00-21:00; Sa 11:00-21:00; Su 11:00-20:00", "brand": "Quizno's", "brand:wikidata": "Q1936229", "nsi_id": "quiznos-658eea"}, "geometry": {"type": "Point", "coordinates": [-122.3190858, 49.1310442]}},
{"type": "Feature", "id": "ckG1kfky4sb0oNaOkm591m13ueQ=", "properties": {"ref": "1764", "addr:suite": null, "@spider": "quiznos", "amenity": "fast_food", "cuisine": "sandwich", "takeaway": "yes", "addr:full": "2868 W Monte Vista Ave", "addr:city": "Turlock", "addr:state": "CA", "addr:postcode": "95380", "addr:country": "US", "name": "Monte Vista Crossings", "phone": "(209) 668-2858", "website": "https://delivery.quiznos.com/?store_id=6259", "opening_hours": "Mo-Su 08:00-21:00", "brand": "Quizno's", "brand:wikidata": "Q1936229", "nsi_id": "quiznos-658eea"}, "geometry": {"type": "Point", "coordinates": [-120.88014, 37.52187]}},
{"type": "Feature", "id": "n9ueZGI9kNwvuVBfIc8j-e4t5Xo=", "properties": {"ref": "3709", "addr:suite": "", "@spider": "quiznos", "amenity": "fast_food", "cuisine": "sandwich", "takeaway": "yes", "addr:full": "5095 A Moores Mill Rd", "addr:city": "Huntsville", "addr:state": "AL", "addr:postcode": "35811", "addr:country": "US", "name": "Moores Mill", "phone": "(256) 852-7676", "website": "https://delivery.quiznos.com/?store_id=7161", "opening_hours": "Mo-Sa 10:00-20:00; Su 11:00-20:00", "brand": "Quizno's", "brand:wikidata": "Q1936229", "nsi_id": "quiznos-658eea"}, "geometry": {"type": "Point", "coordinates": [-86.53611, 34.79374]}},
{"type": "Feature", "id": "f45IZQqBCTMektGPRHEJAaxpwWU=", "properties": {"ref": "8044", "addr:suite": null, "@spider": "quiznos", "amenity": "fast_food", "cuisine": "sandwich", "takeaway": "yes", "addr:full": "121 Thatcher Dr W", "addr:city": "Moose Jaw", "addr:state": "SK", "addr:postcode": "S6J 1M3", "addr:country": "CA", "name": "Moose Jaw", "website": "https://delivery.quiznos.com/?store_id=6753", "opening_hours": "Mo-Sa 09:00-22:00; Su 10:00-21:00", "brand": "Quizno's", "brand:wikidata": "Q1936229", "nsi_id": "quiznos-658eea"}, "geometry": {"type": "Point", "coordinates": [-105.5302399, 50.4127516]}},
{"type": "Feature", "id": "0WR-6Xg7SUkeFzfs1aoEN-9QGcQ=", "properties": {"ref": "1806", "addr:suite": null, "@spider": "quiznos", "amenity": "fast_food", "cuisine": "sandwich", "takeaway": "yes", "addr:full": "101-3220 Mt Lehman Rd", "addr:city": "Abbotsford", "addr:state": "BC", "addr:postcode": "V4X 2M9", "addr:country": "CA", "name": "Mount Lehman Center", "phone": "(604) 607-7269", "website": "https://delivery.quiznos.com/?store_id=6643", "opening_hours": "Mo-Su 11:00-20:00", "brand": "Quizno's", "brand:wikidata": "Q1936229", "nsi_id": "quiznos-658eea"}, "geometry": {"type": "Point", "coordinates": [-122.380692, 49.06088]}},
{"type": "Feature", "id": "UpdYZhEnAnmVda9bwqv2zIVUi94=", "properties": {"ref": "14988", "addr:suite": null, "@spider": "quiznos", "amenity": "fast_food", "cuisine": "sandwich", "takeaway": "yes", "addr:full": "2625 Mount Vernon Ave, Ste 105", "addr:city": "Bakersfield", "addr:state": "CA", "addr:postcode": "93306", "addr:country": "US", "name": "Mount Vernon Ave", "website": "https://delivery.quiznos.com/?store_id=10041", "opening_hours": "Mo-Sa 11:00-20:00", "brand": "Quizno's", "brand:wikidata": "Q1936229", "nsi_id": "quiznos-658eea"}, "geometry": {"type": "Point", "coordinates": [-118.96583, 35.39262]}},
{"type": "Feature", "id": "zwi6ffgY_mDa9zeeqFtcKBxLOg8=", "properties": {"ref": "2392", "addr:suite": null, "@spider": "quiznos", "amenity": "fast_food", "cuisine": "sandwich", "takeaway": "yes", "addr:full": "1156 W Maple Ave", "addr:city": "Mundelein", "addr:state": "IL", "addr:postcode": "60060", "addr:country": "US", "name": "Mundelein", "phone": "(847) 837-0500", "website": "https://delivery.quiznos.com/?store_id=6287", "opening_hours": "Mo-Sa 10:00-20:00; Su 10:30-20:00", "brand": "Quizno's", "brand:wikidata": "Q1936229", "nsi_id": "quiznos-658eea"}, "geometry": {"type": "Point", "coordinates": [-88.02191, 42.27735]}},
{"type": "Feature", "id": "DdboFLSRAzHN9GxiurLxaaTEvNg=", "properties": {"ref": "859", "addr:suite": null, "@spider": "quiznos", "amenity": "fast_food", "cuisine": "sandwich", "takeaway": "yes", "addr:full": "103-22259 48 Ave", "addr:city": "Langley", "addr:state": "BC", "addr:postcode": "V3A 3N4", "addr:country": "CA", "name": "Murrayville", "phone": "(604) 530-6606", "website": "https://delivery.quiznos.com/?store_id=6618", "opening_hours": "Mo-Fr 10:00-21:00; Sa 10:30-21:00; Su 11:00-20:00", "brand": "Quizno's", "brand:wikidata": "Q1936229", "nsi_id": "quiznos-658eea"}, "geometry": {"type": "Point", "coordinates": [-122.6073055, 49.0896917]}},
{"type": "Feature", "id": "r0Cu6R_s9LYDr9dBr0QMnkSstL4=", "properties": {"ref": "12721", "addr:suite": null, "@spider": "quiznos", "amenity": "fast_food", "cuisine": "sandwich", "takeaway": "yes", "addr:full": "1231 N Port Washington Rd", "addr:city": "Grafton", "addr:state": "WI", "addr:postcode": "53024", "addr:country": "US", "name": "N Port Washington Road and Washington Street", "website": "https://delivery.quiznos.com/?store_id=6514", "opening_hours": "Mo-Su 10:00-20:00", "brand": "Quizno's", "brand:wikidata": "Q1936229", "nsi_id": "quiznos-658eea"}, "geometry": {"type": "Point", "coordinates": [-87.92532, 43.32161]}},
{"type": "Feature", "id": "BGfYZIkugO2Xv7X-IxSsLnumFUI=", "properties": {"ref": "12175", "addr:suite": null, "@spider": "quiznos", "amenity": "fast_food", "cuisine": "sandwich", "takeaway": "yes", "addr:full": "420 N Redwood Rd Unit A", "addr:city": "North Salt Lake", "addr:state": "UT", "addr:postcode": "84054", "addr:country": "US", "name": "N Redwood Road and Cambridge Drive", "website": "https://delivery.quiznos.com/?store_id=6987", "opening_hours": "Mo-Fr 10:00-17:00; Sa 10:00-15:00", "brand": "Quizno's", "brand:wikidata": "Q1936229", "nsi_id": "quiznos-658eea"}, "geometry": {"type": "Point", "coordinates": [-111.92978, 40.84927]}},
{"type": "Feature", "id": "LC8Vw2henqe4HZxLy0_D-pO3nGU=", "properties": {"ref": "13570", "addr:suite": null, "@spider": "quiznos", "amenity": "fast_food", "cuisine": "sandwich", "takeaway": "yes", "addr:full": "5805 E Sam Houston Pkwy N Ste H", "addr:city": "Houston", "addr:state": "TX", "addr:postcode": "77049", "addr:country": "US", "name": "New Forest Crossing", "website": "https://delivery.quiznos.com/?store_id=6537", "opening_hours": "Mo-Sa 10:00-21:00; Su 11:00-20:00", "brand": "Quizno's", "brand:wikidata": "Q1936229", "nsi_id": "quiznos-658eea"}, "geometry": {"type": "Point", "coordinates": [-95.16263, 29.81153]}},
{"type": "Feature", "id": "bIpms4rezbQ9AnFukQ_8AGfxkgg=", "properties": {"ref": "14677", "addr:suite": "Unit 2", "@spider": "quiznos", "amenity": "fast_food", "cuisine": "sandwich", "takeaway": "yes", "addr:full": "205 19 Avenue", "addr:city": "Nisku", "addr:state": "AB", "addr:postcode": "T9E 0W8", "addr:country": "CA", "name": "New Nisku Park", "website": "https://delivery.quiznos.com/?store_id=6831", "opening_hours": "Mo-Su 10:00-19:00", "brand": "Quizno's", "brand:wikidata": "Q1936229", "nsi_id": "quiznos-658eea"}, "geometry": {"type": "Point", "coordinates": [-113.5413023, 53.335197]}},
{"type": "Feature", "id": "P0nWrbhIDTBVPXnU216RlPUO7Sk=", "properties": {"ref": "5437", "addr:suite": "Suite 100", "@spider": "quiznos", "amenity": "fast_food", "cuisine": "sandwich", "takeaway": "yes", "addr:full": "1550 Main St", "addr:city": "Windsor", "addr:state": "CO", "addr:postcode": "80550", "addr:country": "US", "name": "New Windsor Marketplace", "phone": "(970) 674-3377", "website": "https://delivery.quiznos.com/?store_id=6403", "opening_hours": "Mo-Sa 10:00-21:00; Su 10:30-20:00", "brand": "Quizno's", "brand:wikidata": "Q1936229", "nsi_id": "quiznos-658eea"}, "geometry": {"type": "Point", "coordinates": [-104.928587, 40.479577]}},
{"type": "Feature", "id": "ypaUOEwB8TRbeYma6X26HLsHq4c=", "properties": {"ref": "13888", "addr:suite": null, "@spider": "quiznos", "amenity": "fast_food", "cuisine": "sandwich", "takeaway": "yes", "addr:full": "1303 Marine Dr", "addr:city": "North Vancouver", "addr:state": "BC", "addr:postcode": "V7P 3E5", "addr:country": "CA", "name": "Norgate Mall", "website": "https://delivery.quiznos.com/?store_id=6822", "opening_hours": "Mo-Sa 11:00-21:00; Su 12:00-20:00", "brand": "Quizno's", "brand:wikidata": "Q1936229", "nsi_id": "quiznos-658eea"}, "geometry": {"type": "Point", "coordinates": [-123.1120315, 49.3238672]}},
{"type": "Feature", "id": "R8bH87u-MjDvfksvNhQPPE9mhxA=", "properties": {"ref": "12007", "addr:suite": null, "@spider": "quiznos", "amenity": "fast_food", "cuisine": "sandwich", "takeaway": "yes", "addr:full": "115 N Northwest Hwy", "addr:city": "Barrington", "addr:state": "IL", "addr:postcode": "60010", "addr:country": "US", "name": "Northwest Highway", "website": "https://delivery.quiznos.com/?store_id=6501", "opening_hours": "Mo-Fr 10:00-20:00; Sa-Su 10:00-19:00", "brand": "Quizno's", "brand:wikidata": "Q1936229", "nsi_id": "quiznos-658eea"}, "geometry": {"type": "Point", "coordinates": [-88.128274157962, 42.154252979146]}},
{"type": "Feature", "id": "QpmW3_lqUjArwBoE6p6LJJBjj_I=", "properties": {"ref": "11744", "addr:suite": "Unit 8", "@spider": "quiznos", "amenity": "fast_food", "cuisine": "sandwich", "takeaway": "yes", "addr:full": "19810 Old Highway 99 SW", "addr:city": "Rochester", "addr:state": "WA", "addr:postcode": "98579", "addr:country": "US", "name": "Old Highway 99 and 198th Ave SW", "website": "https://delivery.quiznos.com/?store_id=6495", "opening_hours": "Mo-Sa 10:00-21:00; Su 11:00-21:00", "brand": "Quizno's", "brand:wikidata": "Q1936229", "nsi_id": "quiznos-658eea"}, "geometry": {"type": "Point", "coordinates": [-123.01216, 46.79793]}},
{"type": "Feature", "id": "vEl2egk9YViBGYSlI9k18vxRBAs=", "properties": {"ref": "560", "addr:suite": null, "@spider": "quiznos", "amenity": "fast_food", "cuisine": "sandwich", "takeaway": "yes", "addr:full": "113 E Olive St", "addr:city": "Lamar", "addr:state": "CO", "addr:postcode": "81052", "addr:country": "US", "name": "Olive", "phone": "(719) 336-3040", "website": "https://delivery.quiznos.com/?store_id=6209", "opening_hours": "Mo-Sa 10:00-21:00; Su 11:00-20:00", "brand": "Quizno's", "brand:wikidata": "Q1936229", "nsi_id": "quiznos-658eea"}, "geometry": {"type": "Point", "coordinates": [-102.61913676418, 38.088096108003]}},
{"type": "Feature", "id": "xKRzjXIKvh48b1nw-kvCnX1fjQM=", "properties": {"ref": "3697", "addr:suite": null, "@spider": "quiznos", "amenity": "fast_food", "cuisine": "sandwich", "takeaway": "yes", "addr:full": "7620 NE 119th Pl Unit 102", "addr:city": "Vancouver", "addr:state": "WA", "addr:postcode": "98682", "addr:country": "US", "name": "Orchards Green Plaza", "phone": "(360) 944-0906", "website": "https://delivery.quiznos.com/?store_id=6349", "opening_hours": "Mo-Su 11:00-19:00", "brand": "Quizno's", "brand:wikidata": "Q1936229", "nsi_id": "quiznos-658eea"}, "geometry": {"type": "Point", "coordinates": [-122.551095, 45.67794]}},
{"type": "Feature", "id": "EZ_nxLviGVkeDNR6_N-hbvCV8EU=", "properties": {"ref": "3204", "addr:suite": null, "@spider": "quiznos", "amenity": "fast_food", "cuisine": "sandwich", "takeaway": "yes", "addr:full": "3-1288 Ritson Rd N", "addr:city": "Oshawa", "addr:state": "ON", "addr:postcode": "L1G 8B2", "addr:country": "CA", "name": "Oshawa", "phone": "(905) 435-4735", "website": "https://delivery.quiznos.com/?store_id=6674", "opening_hours": "Mo-Sa 11:00-21:00; Su 12:00-20:00", "brand": "Quizno's", "brand:wikidata": "Q1936229", "nsi_id": "quiznos-658eea"}, "geometry": {"type": "Point", "coordinates": [-78.8690935, 43.9335677]}},
{"type": "Feature", "id": "WALL7M1_tNj_IAJjxOU1REXFEq8=", "properties": {"ref": "7277", "addr:suite": "Building B", "@spider": "quiznos", "amenity": "fast_food", "cuisine": "sandwich", "takeaway": "yes", "addr:full": "102-10355 120th St", "addr:city": "Surrey", "addr:state": "BC", "addr:postcode": "V3V 0C1", "addr:country": "CA", "name": "Pacific Link", "website": "https://delivery.quiznos.com/?store_id=6747", "opening_hours": "Mo 09:30-21:00; Tu-Fr 09:00-21:00; Sa 10:00-21:00; Su 10:30-20:00", "brand": "Quizno's", "brand:wikidata": "Q1936229", "nsi_id": "quiznos-658eea"}, "geometry": {"type": "Point", "coordinates": [-122.8783352, 49.202728]}},
{"type": "Feature", "id": "EiIq7DSefbhDmxkEd_G1BSmECDI=", "properties": {"ref": "944", "addr:suite": "Unit 137", "@spider": "quiznos", "amenity": "fast_food", "cuisine": "sandwich", "takeaway": "yes", "addr:full": "1600 15th Ave", "addr:city": "Prince George", "addr:state": "BC", "addr:postcode": "V2L 3X3", "addr:country": "CA", "name": "Parkwood Place", "phone": "(250) 564-7793", "website": "https://delivery.quiznos.com/?store_id=6641", "opening_hours": "Mo-Sa 10:00-20:00; Su 11:00-19:00", "brand": "Quizno's", "brand:wikidata": "Q1936229", "nsi_id": "quiznos-658eea"}, "geometry": {"type": "Point", "coordinates": [-122.7607, 53.9104]}},
{"type": "Feature", "id": "nBsPjv8KcLC06YFUzKoaYoZbaro=", "properties": {"ref": "11962", "addr:suite": null, "@spider": "quiznos", "amenity": "fast_food", "cuisine": "sandwich", "takeaway": "yes", "addr:full": "319 Peabody St", "addr:city": "Nashville", "addr:state": "TN", "addr:postcode": "37210", "addr:country": "US", "name": "Peabody Corner Marketplace", "website": "https://delivery.quiznos.com/?store_id=6500", "opening_hours": "Mo-Fr 09:00-17:00; Sa 10:00-15:00", "brand": "Quizno's", "brand:wikidata": "Q1936229", "nsi_id": "quiznos-658eea"}, "geometry": {"type": "Point", "coordinates": [-86.77384, 36.156]}},
{"type": "Feature", "id": "UZabPmvw0vE3q0krwohKuC1pee8=", "properties": {"ref": "9850", "addr:suite": null, "@spider": "quiznos", "amenity": "fast_food", "cuisine": "sandwich", "takeaway": "yes", "addr:full": "3054 boul Laframboise", "addr:city": "Saint-Hyacinthe", "addr:state": "QC", "addr:postcode": "J2S 4Z4", "addr:country": "CA", "name": "Place Saint-Hyacinthe", "website": "https://delivery.quiznos.com/?store_id=6775", "opening_hours": "Mo-Th 07:00-21:00; Fr 07:00-22:00; Sa 07:00-21:00; Su 08:00-21:00", "brand": "Quizno's", "brand:wikidata": "Q1936229", "nsi_id": "quiznos-658eea"}, "geometry": {"type": "Point", "coordinates": [-72.9667765, 45.6364445]}},
{"type": "Feature", "id": "076G8Vh2fRbgRHeXIQlwbXZtbGQ=", "properties": {"ref": "3253", "addr:suite": null, "@spider": "quiznos", "amenity": "fast_food", "cuisine": "sandwich", "takeaway": "yes", "addr:full": "22312 Foothill Blvd", "addr:city": "Hayward", "addr:state": "CA", "addr:postcode": "94541", "addr:country": "US", "name": "Plaza Center", "phone": "(510) 733-5881", "website": "https://delivery.quiznos.com/?store_id=6324", "opening_hours": "Mo-Fr 10:00-20:00; Sa 10:00-18:00; Su 11:00-18:00", "brand": "Quizno's", "brand:wikidata": "Q1936229", "nsi_id": "quiznos-658eea"}, "geometry": {"type": "Point", "coordinates": [-122.08420835429, 37.67874687458]}},
{"type": "Feature", "id": "N7WKgy8jC2FVUZY2knUobhK10J0=", "properties": {"ref": "13787", "addr:suite": null, "@spider": "quiznos", "amenity": "fast_food", "cuisine": "sandwich", "takeaway": "yes", "addr:full": "36171 Plymouth Rd", "addr:city": "Livonia", "addr:state": "MI", "addr:postcode": "48150", "addr:country": "US", "name": "Plymouth Road", "website": "https://delivery.quiznos.com/?store_id=6542", "opening_hours": "Mo-Fr 10:00-19:00; Sa 11:00-18:00", "brand": "Quizno's", "brand:wikidata": "Q1936229", "nsi_id": "quiznos-658eea"}, "geometry": {"type": "Point", "coordinates": [-83.400227810331, 42.367744472958]}},
{"type": "Feature", "id": "a5MugfF-CN79a1HEhNd-PN5AhM0=", "properties": {"ref": "672", "addr:suite": "Ste 103", "@spider": "quiznos", "amenity": "fast_food", "cuisine": "sandwich", "takeaway": "yes", "addr:full": "1201 Sumas Way", "addr:city": "Abbotsford", "addr:state": "BC", "addr:postcode": "V2S 8H2", "addr:country": "CA", "name": "Power Centre", "phone": "(604) 864-6002", "website": "https://delivery.quiznos.com/?store_id=6603", "opening_hours": "Mo-Sa 10:00-21:00; Su 11:00-19:00", "brand": "Quizno's", "brand:wikidata": "Q1936229", "nsi_id": "quiznos-658eea"}, "geometry": {"type": "Point", "coordinates": [-122.2670084, 49.0242628]}},
{"type": "Feature", "id": "mJc6pH-oMXeUcD8D8C4C4ZAa-JQ=", "properties": {"ref": "11584", "addr:suite": null, "@spider": "quiznos", "amenity": "fast_food", "cuisine": "sandwich", "takeaway": "yes", "addr:full": "2237 Prairie Center Pkwy Ste E", "addr:city": "Brighton", "addr:state": "CO", "addr:postcode": "80601", "addr:country": "US", "name": "Prairie Center", "website": "https://delivery.quiznos.com/?store_id=6494", "opening_hours": "Mo-Sa 10:00-21:00; Su 11:00-20:00", "brand": "Quizno's", "brand:wikidata": "Q1936229", "nsi_id": "quiznos-658eea"}, "geometry": {"type": "Point", "coordinates": [-104.7729, 39.9576]}},
{"type": "Feature", "id": "GMPlrrO3ijs5AhZJkKQSQojCgc8=", "properties": {"ref": "4484", "addr:suite": null, "@spider": "quiznos", "amenity": "fast_food", "cuisine": "sandwich", "takeaway": "yes", "addr:full": "63-2118 Prince of Wales Dr", "addr:city": "Regina", "addr:state": "SK", "addr:postcode": "S4V 3A6", "addr:country": "CA", "name": "Quance Street", "phone": "(306) 757-2180", "website": "https://delivery.quiznos.com/?store_id=6698", "opening_hours": "Mo-Sa 09:30-21:00; Su 10:30-20:00", "brand": "Quizno's", "brand:wikidata": "Q1936229", "nsi_id": "quiznos-658eea"}, "geometry": {"type": "Point", "coordinates": [-104.536668, 50.4447807]}},
{"type": "Feature", "id": "AD6riFXEZLRNhEgg3Pcb-40AHGU=", "properties": {"ref": "8774", "addr:suite": null, "@spider": "quiznos", "amenity": "fast_food", "cuisine": "sandwich", "takeaway": "yes", "addr:full": "10-9380 Boul. Leduc", "addr:city": "Brossard", "addr:state": "QC", "addr:postcode": "J4Y 0B3", "addr:country": "CA", "name": "Quartier DIX30", "website": "https://delivery.quiznos.com/?store_id=6764", "opening_hours": "Mo-Su 11:00-21:00", "brand": "Quizno's", "brand:wikidata": "Q1936229", "nsi_id": "quiznos-658eea"}, "geometry": {"type": "Point", "coordinates": [-73.43538, 45.4446]}},
{"type": "Feature", "id": "xzR5Y4d62nIoaPtXWvTvVk9qwZ8=", "properties": {"ref": "2600", "addr:suite": null, "@spider": "quiznos", "amenity": "fast_food", "cuisine": "sandwich", "takeaway": "yes", "addr:full": "426 Reid St", "addr:city": "Quesnel", "addr:state": "BC", "addr:postcode": "V2J 2M6", "addr:country": "CA", "name": "Quesnel", "phone": "(250) 992-1140", "website": "https://delivery.quiznos.com/?store_id=6655", "opening_hours": "Mo-Sa 10:00-20:00; Su 11:00-19:00", "brand": "Quizno's", "brand:wikidata": "Q1936229", "nsi_id": "quiznos-658eea"}, "geometry": {"type": "Point", "coordinates": [-122.4966416, 52.979507]}},
{"type": "Feature", "id": "wA_1W8rco3EELLYB4OW_7UJGPtY=", "properties": {"ref": "15110", "addr:suite": null, "@spider": "quiznos", "amenity": "fast_food", "cuisine": "sandwich", "takeaway": "yes", "addr:full": "1615 Millen Dr.", "addr:city": "Hobbs", "addr:state": "NM", "addr:postcode": "88240", "addr:country": "US", "name": "Quiznos Deli & Eatery Hobbs", "website": "https://delivery.quiznos.com/?store_id=12440", "opening_hours": "Mo-Sa 10:00-21:00; Su 11:00-20:00", "brand": "Quizno's", "brand:wikidata": "Q1936229", "nsi_id": "quiznos-658eea"}, "geometry": {"type": "Point", "coordinates": [-103.15585, 32.75471]}},
{"type": "Feature", "id": "zO6mcO9xQPj-az2B5rcHqqW1feU=", "properties": {"ref": "1062", "addr:suite": null, "@spider": "quiznos", "amenity": "fast_food", "cuisine": "sandwich", "takeaway": "yes", "addr:full": "901 S Rancho Dr", "addr:city": "Las Vegas", "addr:state": "NV", "addr:postcode": "89106", "addr:country": "US", "name": "Rancho Plaza", "phone": "(702) 384-1911", "website": "https://delivery.quiznos.com/?store_id=6229", "opening_hours": "Mo-Sa 10:00-21:00; Su 11:00-20:00", "brand": "Quizno's", "brand:wikidata": "Q1936229", "nsi_id": "quiznos-658eea"}, "geometry": {"type": "Point", "coordinates": [-115.17266082496, 36.160707909343]}},
{"type": "Feature", "id": "3wHj2IUIpBSeSbTw7eePW-O_Cy0=", "properties": {"ref": "5428", "addr:suite": null, "@spider": "quiznos", "amenity": "fast_food", "cuisine": "sandwich", "takeaway": "yes", "addr:full": "2-6842 50 Ave N", "addr:city": "Red Deer", "addr:state": "AB", "addr:postcode": "T4N 4E3", "addr:country": "CA", "name": "Red Deer", "phone": "(403) 340-3346", "website": "https://delivery.quiznos.com/?store_id=6723", "opening_hours": "Mo-Fr 10:00-21:00; Sa 11:00-20:00; Su 11:00-19:00", "brand": "Quizno's", "brand:wikidata": "Q1936229", "nsi_id": "quiznos-658eea"}, "geometry": {"type": "Point", "coordinates": [-113.8153479, 52.2941453]}},
{"type": "Feature", "id": "g_t-Qj02kOYVC9AFDSikq05aV7Y=", "properties": {"ref": "9855", "addr:suite": null, "@spider": "quiznos", "amenity": "fast_food", "cuisine": "sandwich", "takeaway": "yes", "addr:full": "300 - 855 Regent Ave W", "addr:city": "Winnipeg", "addr:state": "MB", "addr:postcode": "R2C 0R1", "addr:country": "CA", "name": "Regent", "website": "https://delivery.quiznos.com/?store_id=6776", "opening_hours": "Mo-We 10:30-21:00; Th-Fr 10:30-21:30; Sa 11:00-21:00; Su 11:00-20:00", "brand": "Quizno's", "brand:wikidata": "Q1936229", "nsi_id": "quiznos-658eea"}, "geometry": {"type": "Point", "coordinates": [-97.02909, 49.89544]}},
{"type": "Feature", "id": "3YzAm_2PM5cmjiMevqEf5FKvQno=", "properties": {"ref": "2646", "addr:suite": "", "@spider": "quiznos", "amenity": "fast_food", "cuisine": "sandwich", "takeaway": "yes", "addr:full": "6215 Oxon Hill Rd", "addr:city": "Oxon Hill", "addr:state": "MD", "addr:postcode": "20745", "addr:country": "US", "name": "Rivertown Commons", "phone": "(301) 839-0920", "website": "https://delivery.quiznos.com/?store_id=7178", "opening_hours": "Mo-Sa 10:00-21:00; Su 11:00-20:00", "brand": "Quizno's", "brand:wikidata": "Q1936229", "nsi_id": "quiznos-658eea"}, "geometry": {"type": "Point", "coordinates": [-76.9799, 38.804636]}},
{"type": "Feature", "id": "53SXdYJYemyjKvOxmGqGk2K6-ow=", "properties": {"ref": "4590", "addr:suite": null, "@spider": "quiznos", "amenity": "fast_food", "cuisine": "sandwich", "takeaway": "yes", "addr:full": "101 Gateway Blvd Ste A", "addr:city": "Rock Springs", "addr:state": "WY", "addr:postcode": "82901", "addr:country": "US", "name": "Rock Springs", "website": "https://delivery.quiznos.com/?store_id=6381", "opening_hours": "Mo-Sa 10:00-21:00; Su 11:00-20:00", "brand": "Quizno's", "brand:wikidata": "Q1936229", "nsi_id": "quiznos-658eea"}, "geometry": {"type": "Point", "coordinates": [-109.24942, 41.57736]}},
{"type": "Feature", "id": "tkM4knwIQtjGeELQspxKPx4eRNg=", "properties": {"ref": "3031", "addr:suite": "", "@spider": "quiznos", "amenity": "fast_food", "cuisine": "sandwich", "takeaway": "yes", "addr:full": "4406 Nathan Ln N", "addr:city": "Plymouth", "addr:state": "MN", "addr:postcode": "55442", "addr:country": "US", "name": "Rockford Square", "phone": "(763) 559-8100", "website": "https://delivery.quiznos.com/?store_id=6971", "opening_hours": "Mo-Sa 10:00-21:00; Su 11:00-20:00", "brand": "Quizno's", "brand:wikidata": "Q1936229", "nsi_id": "quiznos-658eea"}, "geometry": {"type": "Point", "coordinates": [-93.40806, 45.0351]}},
{"type": "Feature", "id": "ihMzj8PSo5Lh-LAsj-pn1eRRgwk=", "properties": {"ref": "4796", "addr:suite": null, "@spider": "quiznos", "amenity": "fast_food", "cuisine": "sandwich", "takeaway": "yes", "addr:full": "5670 75 St NW", "addr:city": "Edmonton", "addr:state": "AB", "addr:postcode": "T6E 5X6", "addr:country": "CA", "name": "Roper and 75th Street", "website": "https://delivery.quiznos.com/?store_id=6711", "opening_hours": "Mo-Fr 10:00-19:00; Sa 11:00-18:00", "brand": "Quizno's", "brand:wikidata": "Q1936229", "nsi_id": "quiznos-658eea"}, "geometry": {"type": "Point", "coordinates": [-113.4435616, 53.4927512]}},
{"type": "Feature", "id": "0Hq4um1uHaRidKZGC07mXuSzV2o=", "properties": {"ref": "13066", "addr:suite": null, "@spider": "quiznos", "amenity": "fast_food", "cuisine": "sandwich", "takeaway": "yes", "addr:full": "21043 N Cave Creek Rd Ste A2", "addr:city": "Phoenix", "addr:state": "AZ", "addr:postcode": "85024", "addr:country": "US", "name": "Rose Garden Plaza", "website": "https://delivery.quiznos.com/?store_id=6523", "opening_hours": "Mo-Fr 10:00-20:00; Sa 10:00-16:00", "brand": "Quizno's", "brand:wikidata": "Q1936229", "nsi_id": "quiznos-658eea"}, "geometry": {"type": "Point", "coordinates": [-112.0310700662, 33.677627385209]}},
{"type": "Feature", "id": "eFdmfOG9SkpnkCV4LawTpdGeMy0=", "properties": {"ref": "6198", "addr:suite": null, "@spider": "quiznos", "amenity": "fast_food", "cuisine": "sandwich", "takeaway": "yes", "addr:full": "6500 Washington Blvd", "addr:city": "Elkridge", "addr:state": "MD", "addr:postcode": "21075", "addr:country": "US", "name": "Rowanberry Center", "website": "https://delivery.quiznos.com/?store_id=6421", "opening_hours": "Mo-Sa 10:00-21:00", "brand": "Quizno's", "brand:wikidata": "Q1936229", "nsi_id": "quiznos-658eea"}, "geometry": {"type": "Point", "coordinates": [-76.73479, 39.20145]}},
{"type": "Feature", "id": "pdvIcFQSwUnA9uEECK9v2GfVGR4=", "properties": {"ref": "4830", "addr:suite": null, "@spider": "quiznos", "amenity": "fast_food", "cuisine": "sandwich", "takeaway": "yes", "addr:full": "B6-2701 Rutherford Rd", "addr:city": "Concord", "addr:state": "ON", "addr:postcode": "L4K 2N6", "addr:country": "CA", "name": "Rutherford Road and Creditstone", "phone": "(905) 417-7005", "opening_hours": "Mo-Fr 11:00-20:00; Sa 11:00-17:00; Su 12:00-17:00", "brand": "Quizno's", "brand:wikidata": "Q1936229", "nsi_id": "quiznos-658eea"}, "geometry": {"type": "Point", "coordinates": [-79.5236116, 43.8328512]}},
{"type": "Feature", "id": "PAMfyp_RRcSJBbyeVwDYEUpCg5M=", "properties": {"ref": "7092", "addr:suite": null, "@spider": "quiznos", "amenity": "fast_food", "cuisine": "sandwich", "takeaway": "yes", "addr:full": "932 W Atlantic St", "addr:city": "Emporia", "addr:state": "VA", "addr:postcode": "23847", "addr:country": "US", "name": "Sadler Texaco - Atlantic Street", "phone": "(434) 348-7827", "website": "https://delivery.quiznos.com/?store_id=6978", "opening_hours": "Mo-Sa 10:00-21:00; Su 11:00-20:00", "brand": "Quizno's", "brand:wikidata": "Q1936229", "nsi_id": "quiznos-658eea"}, "geometry": {"type": "Point", "coordinates": [-77.55212, 36.70353]}},
{"type": "Feature", "id": "LT_cn8XHSOxCYHrYjyLUnSDql9U=", "properties": {"ref": "7938", "addr:suite": "", "@spider": "quiznos", "amenity": "fast_food", "cuisine": "sandwich", "takeaway": "yes", "addr:full": "65 Sadler Rd", "addr:city": "Dunn", "addr:state": "NC", "addr:postcode": "28334", "addr:country": "US", "name": "Sadler's Travel Plaza", "website": "https://delivery.quiznos.com/?store_id=6453", "opening_hours": "24/7", "brand": "Quizno's", "brand:wikidata": "Q1936229", "nsi_id": "quiznos-658eea"}, "geometry": {"type": "Point", "coordinates": [-78.57059, 35.32164]}},
{"type": "Feature", "id": "Motv1Ystlre7EVRwONJPqnBT904=", "properties": {"ref": "3122", "addr:suite": null, "@spider": "quiznos", "amenity": "fast_food", "cuisine": "sandwich", "takeaway": "yes", "addr:full": "7058 State Highway 303 NE Ste B", "addr:city": "Bremerton", "addr:state": "WA", "addr:postcode": "98311", "addr:country": "US", "name": "Saint Charles Place", "phone": "(360) 698-7210", "website": "https://delivery.quiznos.com/?store_id=6320", "opening_hours": "Mo-Sa 10:00-21:00; Su 11:00-20:00", "brand": "Quizno's", "brand:wikidata": "Q1936229", "nsi_id": "quiznos-658eea"}, "geometry": {"type": "Point", "coordinates": [-122.628695, 47.62784]}},
{"type": "Feature", "id": "gsRCTjlhUP1lvSfGlBson8H4P1E=", "properties": {"ref": "8953", "addr:suite": null, "@spider": "quiznos", "amenity": "fast_food", "cuisine": "sandwich", "takeaway": "yes", "addr:full": "5960 Cousineau Blvd", "addr:city": "Saint Hubert", "addr:state": "QC", "addr:postcode": "J3Y 7R9", "addr:country": "CA", "name": "Saint Hubert", "website": "https://delivery.quiznos.com/?store_id=6766", "opening_hours": "Mo-Sa 10:00-21:00; Su 10:00-20:00", "brand": "Quizno's", "brand:wikidata": "Q1936229", "nsi_id": "quiznos-658eea"}, "geometry": {"type": "Point", "coordinates": [-73.4101632, 45.495813]}},
{"type": "Feature", "id": "GaiQepWhfkomN9SUBNkqvqwEQ7Q=", "properties": {"ref": "2758", "addr:suite": null, "@spider": "quiznos", "amenity": "fast_food", "cuisine": "sandwich", "takeaway": "yes", "addr:full": "1038 St James St", "addr:city": "Winnipeg", "addr:state": "MB", "addr:postcode": "R3H 0K5", "addr:country": "CA", "name": "Saint James", "phone": "(204) 788-4004", "opening_hours": "Mo-We 10:30-21:00; Th-Fr 10:30-22:00; Sa 11:00-21:00; Su 11:00-20:00", "brand": "Quizno's", "brand:wikidata": "Q1936229", "nsi_id": "quiznos-658eea"}, "geometry": {"type": "Point", "coordinates": [-97.201008, 49.8953231]}},
{"type": "Feature", "id": "WZ-d03UyXDsXH9cAXLOi6ST-NFU=", "properties": {"ref": "5161", "addr:suite": null, "@spider": "quiznos", "amenity": "fast_food", "cuisine": "sandwich", "takeaway": "yes", "addr:full": "2850 Prince St Ste 9", "addr:city": "Conway", "addr:state": "AR", "addr:postcode": "72034", "addr:country": "US", "name": "Salem Place Center", "phone": "(501) 329-7827", "website": "https://delivery.quiznos.com/?store_id=6396", "opening_hours": "Mo-Sa 10:00-21:00; Su 11:00-21:00", "brand": "Quizno's", "brand:wikidata": "Q1936229", "nsi_id": "quiznos-658eea"}, "geometry": {"type": "Point", "coordinates": [-92.470199807566, 35.092316201649]}},
{"type": "Feature", "id": "WLAZf5TYSohzqD_kKcfjAn2uXzQ=", "properties": {"ref": "14889", "addr:suite": null, "@spider": "quiznos", "amenity": "fast_food", "cuisine": "sandwich", "takeaway": "yes", "addr:full": "San Patricio Av - Carrmen Gonzales Goisti Av", "addr:city": "Guaynabo", "addr:state": "PR", "addr:postcode": "00968", "addr:country": "PR", "name": "San Patricio Plaza", "opening_hours": "Mo-We 07:00-21:00; Th-Fr 07:00-22:00; Sa 09:00-22:00; Su 11:00-19:00", "brand": "Quizno's", "brand:wikidata": "Q1936229", "nsi_id": "quiznos-658eea"}, "geometry": {"type": "Point", "coordinates": [-66.10625, 18.362]}},
{"type": "Feature", "id": "omJf4S112eeb8FfpzCje-YcV5XY=", "properties": {"ref": "8425", "addr:suite": null, "@spider": "quiznos", "amenity": "fast_food", "cuisine": "sandwich", "takeaway": "yes", "addr:full": "3840 W State Road 10", "addr:city": "Wheatfield", "addr:state": "IN", "addr:postcode": "46392", "addr:country": "US", "name": "School Crossing Market Place", "website": "https://delivery.quiznos.com/?store_id=6459", "opening_hours": "Mo-Sa 09:00-20:00; Su 10:00-20:00", "brand": "Quizno's", "brand:wikidata": "Q1936229", "nsi_id": "quiznos-658eea"}, "geometry": {"type": "Point", "coordinates": [-87.118764, 41.187637]}},
{"type": "Feature", "id": "67HhTYzDyLB5Wrfj7yB_7JXVSag=", "properties": {"ref": "13092", "addr:suite": null, "@spider": "quiznos", "amenity": "fast_food", "cuisine": "sandwich", "takeaway": "yes", "addr:full": "1690 W State Highway J", "addr:city": "Ozark", "addr:state": "MO", "addr:postcode": "65721", "addr:country": "US", "name": "Scrivener Oil - Ozark", "website": "https://delivery.quiznos.com/?store_id=6526", "opening_hours": "Mo-Su 09:00-22:00", "brand": "Quizno's", "brand:wikidata": "Q1936229", "nsi_id": "quiznos-658eea"}, "geometry": {"type": "Point", "coordinates": [-93.22296, 37.07005]}},
{"type": "Feature", "id": "pjg-ZQSX3j9e8SR0W5w0yE328ZU=", "properties": {"ref": "6249", "addr:suite": null, "@spider": "quiznos", "amenity": "fast_food", "cuisine": "sandwich", "takeaway": "yes", "addr:full": "2850 Shaughnessy St", "addr:city": "Port Coquitlam", "addr:state": "BC", "addr:postcode": "V3C 6K5", "addr:country": "CA", "name": "Shaughnessy Station Mall", "phone": "(604) 552-2244", "website": "https://delivery.quiznos.com/?store_id=6734", "opening_hours": "Mo-Sa 10:30-21:00; Su 11:00-20:00", "brand": "Quizno's", "brand:wikidata": "Q1936229", "nsi_id": "quiznos-658eea"}, "geometry": {"type": "Point", "coordinates": [-122.7761743, 49.2656429]}},
{"type": "Feature", "id": "eWdmUWJ5f0WacTpKiDOFekiJ_-U=", "properties": {"ref": "888", "addr:suite": null, "@spider": "quiznos", "amenity": "fast_food", "cuisine": "sandwich", "takeaway": "yes", "addr:full": "85 Shawville Blvd SE", "addr:city": "Calgary", "addr:state": "AB", "addr:postcode": "T2Y 3W5", "addr:country": "CA", "name": "Shawnessy", "phone": "(403) 201-8800", "website": "https://delivery.quiznos.com/?store_id=6626", "opening_hours": "Mo-Fr 10:30-21:00; Sa 11:00-21:00; Su 11:00-20:00", "brand": "Quizno's", "brand:wikidata": "Q1936229", "nsi_id": "quiznos-658eea"}, "geometry": {"type": "Point", "coordinates": [-114.0668171, 50.9050314]}},
{"type": "Feature", "id": "p5Eps0-V6v0aYBsH_kA-i3OQTmc=", "properties": {"ref": "7729", "addr:suite": null, "@spider": "quiznos", "amenity": "fast_food", "cuisine": "sandwich", "takeaway": "yes", "addr:full": "2883 Highway 903", "addr:city": "Bracey", "addr:state": "VA", "addr:postcode": "23919", "addr:country": "US", "name": "Shell Station - Highway 9", "phone": "(434) 689-5000", "website": "https://delivery.quiznos.com/?store_id=7168", "opening_hours": "Mo-Sa 10:00-21:00; Su 11:00-20:00", "brand": "Quizno's", "brand:wikidata": "Q1936229", "nsi_id": "quiznos-658eea"}, "geometry": {"type": "Point", "coordinates": [-78.153999, 36.60169]}},
{"type": "Feature", "id": "F-6ZYu_RWNVZADfSwFJstapHCOs=", "properties": {"ref": "2805", "addr:suite": null, "@spider": "quiznos", "amenity": "fast_food", "cuisine": "sandwich", "takeaway": "yes", "addr:full": "5999 Rice Creek Pkwy Ste 106", "addr:city": "Shoreview", "addr:state": "MN", "addr:postcode": "55126", "addr:country": "US", "name": "Shoreview", "phone": "(651) 784-7931", "website": "https://delivery.quiznos.com/?store_id=6305", "opening_hours": "Mo-Fr 10:00-19:00; Sa 10:00-17:00; Su 11:00-17:00", "brand": "Quizno's", "brand:wikidata": "Q1936229", "nsi_id": "quiznos-658eea"}, "geometry": {"type": "Point", "coordinates": [-93.18505, 45.1239]}},
{"type": "Feature", "id": "bsBmkkfu-8L2tFU8V72F2jj95fI=", "properties": {"ref": "11778", "addr:suite": "Bldg A Suite 1", "@spider": "quiznos", "amenity": "fast_food", "cuisine": "sandwich", "takeaway": "yes", "addr:full": "1103 E Boxelder Road", "addr:city": "Gillette", "addr:state": "WY", "addr:postcode": "82718", "addr:country": "US", "name": "Silverado Center", "website": "https://delivery.quiznos.com/?store_id=6496", "opening_hours": "Mo-Sa 10:00-21:00; Su 11:00-20:00", "brand": "Quizno's", "brand:wikidata": "Q1936229", "nsi_id": "quiznos-658eea"}, "geometry": {"type": "Point", "coordinates": [-105.48939, 44.27659]}},
{"type": "Feature", "id": "FuQfi-KA4E3sxSDFhTUnNM_u8kA=", "properties": {"ref": "3696", "addr:suite": null, "@spider": "quiznos", "amenity": "fast_food", "cuisine": "sandwich", "takeaway": "yes", "addr:full": "4800 Mills Civic Pkwy Ste 103", "addr:city": "West Des Moines", "addr:state": "IA", "addr:postcode": "50265", "addr:country": "US", "name": "Somerfield Village Center", "phone": "(515) 222-1213", "website": "https://delivery.quiznos.com/?store_id=6933", "opening_hours": "Mo-Sa 10:00-19:00; Su 11:00-19:00", "brand": "Quizno's", "brand:wikidata": "Q1936229", "nsi_id": "quiznos-658eea"}, "geometry": {"type": "Point", "coordinates": [-93.76703, 41.55915]}},
{"type": "Feature", "id": "7U-vdZuFhDqQW2H2enm8ZQB4CVY=", "properties": {"ref": "23", "addr:suite": null, "@spider": "quiznos", "amenity": "fast_food", "cuisine": "sandwich", "takeaway": "yes", "addr:full": "8053 S Broadway", "addr:city": "Littleton", "addr:state": "CO", "addr:postcode": "80122", "addr:country": "US", "name": "South Broadway Car Care Center", "phone": "(303) 795-1500", "website": "https://delivery.quiznos.com/?store_id=6187", "opening_hours": "Mo-Sa 10:00-21:00; Su 11:00-20:00", "brand": "Quizno's", "brand:wikidata": "Q1936229", "nsi_id": "quiznos-658eea"}, "geometry": {"type": "Point", "coordinates": [-104.98871, 39.56966]}},
{"type": "Feature", "id": "nVlUqKJ2zXvcGSPdltFLHMCilNE=", "properties": {"ref": "4616", "addr:suite": null, "@spider": "quiznos", "amenity": "fast_food", "cuisine": "sandwich", "takeaway": "yes", "addr:full": "4705 130 Ave SE", "addr:city": "Calgary", "addr:state": "AB", "addr:postcode": "T2Z 4J2", "addr:country": "CA", "name": "South Deerfoot Center", "phone": "(403) 257-4712", "website": "https://delivery.quiznos.com/?store_id=6704", "opening_hours": "Mo-Fr 10:30-21:00; Sa-Su 11:00-20:00", "brand": "Quizno's", "brand:wikidata": "Q1936229", "nsi_id": "quiznos-658eea"}, "geometry": {"type": "Point", "coordinates": [-113.9667846, 50.9293479]}},
{"type": "Feature", "id": "jbIeOXJNvTFN5vngSgZBZjy-yh8=", "properties": {"ref": "2203", "addr:suite": null, "@spider": "quiznos", "amenity": "fast_food", "cuisine": "sandwich", "takeaway": "yes", "addr:full": "1931 98 St NW", "addr:city": "Edmonton", "addr:state": "AB", "addr:postcode": "T6N 1L5", "addr:country": "CA", "name": "South Edmonton Common", "phone": "(780) 450-5700", "website": "https://delivery.quiznos.com/?store_id=6650", "opening_hours": "Mo-Fr 10:00-21:00; Sa 04:30-21:00; Su 11:00-19:00", "brand": "Quizno's", "brand:wikidata": "Q1936229", "nsi_id": "quiznos-658eea"}, "geometry": {"type": "Point", "coordinates": [-113.4836573, 53.4487736]}},
{"type": "Feature", "id": "JLhwSJVru4X8HR0vkJUI4HSYEyI=", "properties": {"ref": "3607", "addr:suite": null, "@spider": "quiznos", "amenity": "fast_food", "cuisine": "sandwich", "takeaway": "yes", "addr:full": "5110 E Southern Ave Ste 112", "addr:city": "Mesa", "addr:state": "AZ", "addr:postcode": "85206", "addr:country": "US", "name": "Southern Promenade", "phone": "(480) 832-1604", "website": "https://delivery.quiznos.com/?store_id=6340", "opening_hours": "Mo-Sa 10:00-19:30; Su 10:00-18:00", "brand": "Quizno's", "brand:wikidata": "Q1936229", "nsi_id": "quiznos-658eea"}, "geometry": {"type": "Point", "coordinates": [-111.72115720711, 33.393870366505]}},
{"type": "Feature", "id": "EamSF6zMut8mGB3-IaV42xhgMTw=", "properties": {"ref": "14928", "addr:suite": null, "@spider": "quiznos", "amenity": "fast_food", "cuisine": "sandwich", "takeaway": "yes", "addr:full": "10640 South Fort Hood", "addr:city": "Killeen", "addr:state": "TX", "addr:postcode": "76542", "addr:country": "US", "name": "Splawn Ranch Town Center", "opening_hours": "Mo-Fr 09:00-21:00; Sa-Su 10:00-21:00", "brand": "Quizno's", "brand:wikidata": "Q1936229", "nsi_id": "quiznos-658eea"}, "geometry": {"type": "Point", "coordinates": [-97.76527, 31.05694]}},
{"type": "Feature", "id": "Ff7DuNOso4BIF5kT0ZnofNRtkV0=", "properties": {"ref": "10822", "addr:suite": null, "@spider": "quiznos", "amenity": "fast_food", "cuisine": "sandwich", "takeaway": "yes", "addr:full": "9000 W Airport Dr Ste 401", "addr:city": "Spokane", "addr:state": "WA", "addr:postcode": "99224", "addr:country": "US", "name": "Spokane Int'l Airport- Rotunda Food Court", "opening_hours": "Mo-Su 04:30-19:00", "brand": "Quizno's", "brand:wikidata": "Q1936229", "nsi_id": "quiznos-658eea"}, "geometry": {"type": "Point", "coordinates": [-117.507072, 47.641063]}},
{"type": "Feature", "id": "iNuBmR0dZVb7RUyvT9jwRqPkfcc=", "properties": {"ref": "2757", "addr:suite": null, "@spider": "quiznos", "amenity": "fast_food", "cuisine": "sandwich", "takeaway": "yes", "addr:full": "38-100 Jennifer Heil Way", "addr:city": "Spruce Grove", "addr:state": "AB", "addr:postcode": "T7X 4B8", "addr:country": "CA", "name": "Spruce Grove", "phone": "(780) 962-7849", "website": "https://delivery.quiznos.com/?store_id=6661", "opening_hours": "Mo-Fr 10:00-21:00; Sa-Su 11:00-20:00", "brand": "Quizno's", "brand:wikidata": "Q1936229", "nsi_id": "quiznos-658eea"}, "geometry": {"type": "Point", "coordinates": [-113.9330188, 53.5420935]}},
{"type": "Feature", "id": "e4U_hC9xE7x8eccuGzSmUj-1sKU=", "properties": {"ref": "2489", "addr:suite": null, "@spider": "quiznos", "amenity": "fast_food", "cuisine": "sandwich", "takeaway": "yes", "addr:full": "663 Central St W", "addr:city": "Prince George", "addr:state": "BC", "addr:postcode": "V2M 3C6", "addr:country": "CA", "name": "Spruceland", "phone": "(250) 564-7394", "website": "https://delivery.quiznos.com/?store_id=6651", "opening_hours": "Mo-Sa 10:00-20:00; Su 11:00-19:00", "brand": "Quizno's", "brand:wikidata": "Q1936229", "nsi_id": "quiznos-658eea"}, "geometry": {"type": "Point", "coordinates": [-122.7834083, 53.9194239]}},
{"type": "Feature", "id": "dlEXPrqzjKlsGGqfYCI4MDNUmPo=", "properties": {"ref": "673", "addr:suite": null, "@spider": "quiznos", "amenity": "fast_food", "cuisine": "sandwich", "takeaway": "yes", "addr:full": "108-3088 St Edwards Drive", "addr:city": "Richmond", "addr:state": "BC", "addr:postcode": "V6X 4C4", "addr:country": "CA", "name": "St. Edwards Crossing", "phone": "(604) 207-9588", "website": "https://delivery.quiznos.com/?store_id=6604", "opening_hours": "Mo-Fr 10:00-21:00; Sa 11:00-20:00; Su 11:00-19:00", "brand": "Quizno's", "brand:wikidata": "Q1936229", "nsi_id": "quiznos-658eea"}, "geometry": {"type": "Point", "coordinates": [-123.1096561, 49.191785]}},
{"type": "Feature", "id": "2O9BZaUAH-nTlGDOKTFYUwcVq3E=", "properties": {"ref": "11774", "addr:suite": null, "@spider": "quiznos", "amenity": "fast_food", "cuisine": "sandwich", "takeaway": "yes", "addr:full": "161 St.Peters Road", "addr:city": "Charlottetown", "addr:state": "PE", "addr:postcode": "C1A 5P7", "addr:country": "CA", "name": "St. Peters", "website": "https://delivery.quiznos.com/?store_id=6787", "opening_hours": "Mo-Tu 09:30-20:00; We-Fr 09:30-21:00; Sa 11:30-20:00; Su 12:00-19:00", "brand": "Quizno's", "brand:wikidata": "Q1936229", "nsi_id": "quiznos-658eea"}, "geometry": {"type": "Point", "coordinates": [-63.1193559, 46.2610227]}},
{"type": "Feature", "id": "EUJCf_jNxg59ijpZW7xAM162LlY=", "properties": {"ref": "7553", "addr:suite": null, "@spider": "quiznos", "amenity": "fast_food", "cuisine": "sandwich", "takeaway": "yes", "addr:full": "3625 Broadway Ste B", "addr:city": "Everett", "addr:state": "WA", "addr:postcode": "98201", "addr:country": "US", "name": "Stadium Center", "phone": "(425) 258-7553", "website": "https://delivery.quiznos.com/?store_id=6450", "opening_hours": "Mo-Sa 10:00-21:00; Su 11:00-20:00", "brand": "Quizno's", "brand:wikidata": "Q1936229", "nsi_id": "quiznos-658eea"}, "geometry": {"type": "Point", "coordinates": [-122.2011946194, 47.969735758687]}},
{"type": "Feature", "id": "br8BTaNGJD-vJDW14ODJtqS2Ckw=", "properties": {"ref": "14996", "addr:suite": null, "@spider": "quiznos", "amenity": "fast_food", "cuisine": "sandwich", "takeaway": "yes", "addr:full": "14315 East State Road 70", "addr:city": "Lakewood Ranch", "addr:state": "FL", "addr:postcode": "34202", "addr:country": "US", "name": "State Rd 70 & Lorraine Rd", "opening_hours": "Mo-Su 06:00-21:00", "brand": "Quizno's", "brand:wikidata": "Q1936229", "nsi_id": "quiznos-658eea"}, "geometry": {"type": "Point", "coordinates": [-82.39689, 27.43255]}},
{"type": "Feature", "id": "dDl6r9JbBuwCJDyxNVA6VfmUxpY=", "properties": {"ref": "3895", "addr:suite": "Unit 3", "@spider": "quiznos", "amenity": "fast_food", "cuisine": "sandwich", "takeaway": "yes", "addr:full": "1100 Golf Links Rd", "addr:city": "Ancaster", "addr:state": "ON", "addr:postcode": "L9K 1J8", "addr:country": "CA", "name": "Stone Church and Golf Links Road", "phone": "(905) 304-7821", "website": "https://delivery.quiznos.com/?store_id=6690", "opening_hours": "Mo-Sa 11:00-21:00; Su 12:00-20:00", "brand": "Quizno's", "brand:wikidata": "Q1936229", "nsi_id": "quiznos-658eea"}, "geometry": {"type": "Point", "coordinates": [-79.939396, 43.2278107]}},
{"type": "Feature", "id": "-yDosRE4zwmoKrKnTLva9bYlxwo=", "properties": {"ref": "10106", "addr:suite": null, "@spider": "quiznos", "amenity": "fast_food", "cuisine": "sandwich", "takeaway": "yes", "addr:full": "292 Stone Rd W Unit 3", "addr:city": "Guelph", "addr:state": "ON", "addr:postcode": "N1G 3C4", "addr:country": "CA", "name": "Stone Road", "website": "https://delivery.quiznos.com/?store_id=6781", "opening_hours": "Mo-Su 11:00-22:00", "brand": "Quizno's", "brand:wikidata": "Q1936229", "nsi_id": "quiznos-658eea"}, "geometry": {"type": "Point", "coordinates": [-80.2339154, 43.5190366]}},
{"type": "Feature", "id": "GrSqpZIS_1DBb8H0dZh7RyC_cAg=", "properties": {"ref": "671", "addr:suite": null, "@spider": "quiznos", "amenity": "fast_food", "cuisine": "sandwich", "takeaway": "yes", "addr:full": "12077 72 Ave", "addr:city": "Surrey", "addr:state": "BC", "addr:postcode": "V3W 2M1", "addr:country": "CA", "name": "Strawberry Hills", "phone": "(604) 502-7000", "website": "https://delivery.quiznos.com/?store_id=6602", "opening_hours": "Mo-Fr 10:00-21:00; Sa 11:00-21:00; Su 11:00-20:00", "brand": "Quizno's", "brand:wikidata": "Q1936229", "nsi_id": "quiznos-658eea"}, "geometry": {"type": "Point", "coordinates": [-122.888371, 49.134287]}},
{"type": "Feature", "id": "zfvjGePilphtNAdBJ3xYD9GZhY8=", "properties": {"ref": "12717", "addr:suite": "T. Truck Plaza - Swifties Food Mart", "@spider": "quiznos", "amenity": "fast_food", "cuisine": "sandwich", "takeaway": "yes", "addr:full": "43106 S Airport Rd", "addr:city": "Hammond", "addr:state": "LA", "addr:postcode": "70403", "addr:country": "US", "name": "T Truck Plaza", "website": "https://delivery.quiznos.com/?store_id=6513", "opening_hours": "Mo-Su 10:30-19:30", "brand": "Quizno's", "brand:wikidata": "Q1936229", "nsi_id": "quiznos-658eea"}, "geometry": {"type": "Point", "coordinates": [-90.41462, 30.48344]}},
{"type": "Feature", "id": "ORemj7YQEjoiHnhivezASaH9OkM=", "properties": {"ref": "11790", "addr:suite": null, "@spider": "quiznos", "amenity": "fast_food", "cuisine": "sandwich", "takeaway": "yes", "addr:full": "627 E Pennsylvania Ave", "addr:city": "Ottumwa", "addr:state": "IA", "addr:postcode": "52501", "addr:country": "US", "name": "Terrace Hill Plaza Shopping Center", "website": "https://delivery.quiznos.com/?store_id=6497", "opening_hours": "Mo-Sa 10:30-21:00; Su 11:00-21:00", "brand": "Quizno's", "brand:wikidata": "Q1936229", "nsi_id": "quiznos-658eea"}, "geometry": {"type": "Point", "coordinates": [-92.40027, 41.02786]}},
{"type": "Feature", "id": "iAT5FUyPGXy5u2Nh1j_dyiDk4E0=", "properties": {"ref": "12737", "addr:suite": "Plaza Drive at Hwy 198/Hwy 99", "@spider": "quiznos", "amenity": "fast_food", "cuisine": "sandwich", "takeaway": "yes", "addr:full": "202 North Plaza Drive", "addr:city": "Visalia", "addr:state": "CA", "addr:postcode": "93291", "addr:country": "US", "name": "The Barn at Plaza Drive", "opening_hours": "Mo-Fr 09:00-21:00; Sa 10:00-18:00", "brand": "Quizno's", "brand:wikidata": "Q1936229", "nsi_id": "quiznos-658eea"}, "geometry": {"type": "Point", "coordinates": [-119.391, 36.33044]}},
{"type": "Feature", "id": "8Kt8Y_60cslYIAWamTjfWCNDqAs=", "properties": {"ref": "12481", "addr:suite": null, "@spider": "quiznos", "amenity": "fast_food", "cuisine": "sandwich", "takeaway": "yes", "addr:full": "2/3-50 Selkirk Ave", "addr:city": "Thompson", "addr:state": "MB", "addr:postcode": "R8N 0M7", "addr:country": "CA", "name": "Thompson Plaza", "website": "https://delivery.quiznos.com/?store_id=6800", "opening_hours": "Mo-Fr 09:00-22:00; Sa 10:00-22:00; Su 11:00-21:00", "brand": "Quizno's", "brand:wikidata": "Q1936229", "nsi_id": "quiznos-658eea"}, "geometry": {"type": "Point", "coordinates": [-97.8533254, 55.7421848]}},
{"type": "Feature", "id": "-tl-xgIn2n0ahdVvu7IZIgVPJOM=", "properties": {"ref": "6751", "addr:suite": null, "@spider": "quiznos", "amenity": "fast_food", "cuisine": "sandwich", "takeaway": "yes", "addr:full": "8426 Pearl St", "addr:city": "Thornton", "addr:state": "CO", "addr:postcode": "80229", "addr:country": "US", "name": "Thornton Gateway Plaza", "website": "https://delivery.quiznos.com/?store_id=6436", "opening_hours": "Mo-Fr 10:00-19:30; Sa-Su 11:00-19:00", "brand": "Quizno's", "brand:wikidata": "Q1936229", "nsi_id": "quiznos-658eea"}, "geometry": {"type": "Point", "coordinates": [-104.9791969382, 39.849594067824]}},
{"type": "Feature", "id": "zyo7Vm8LCv0OAIaA5_CjQHsv4mY=", "properties": {"ref": "3893", "addr:suite": null, "@spider": "quiznos", "amenity": "fast_food", "cuisine": "sandwich", "takeaway": "yes", "addr:full": "3969 Montrose Rd Ste 7", "addr:city": "Niagara Falls", "addr:state": "ON", "addr:postcode": "L2H 3A1", "addr:country": "CA", "name": "Thoro West Plaza", "phone": "(905) 354-7733", "website": "https://delivery.quiznos.com/?store_id=6689", "opening_hours": "Mo-Fr 11:00-22:00; Sa 11:00-21:00; Su 11:30-20:30", "brand": "Quizno's", "brand:wikidata": "Q1936229", "nsi_id": "quiznos-658eea"}, "geometry": {"type": "Point", "coordinates": [-79.1253237, 43.115373]}},
{"type": "Feature", "id": "wSKSFTsMiqcrjE2gRVRfv7_SfJI=", "properties": {"ref": "4479", "addr:suite": null, "@spider": "quiznos", "amenity": "fast_food", "cuisine": "sandwich", "takeaway": "yes", "addr:full": "15-7355 72 St", "addr:city": "Delta", "addr:state": "BC", "addr:postcode": "V4G 1L5", "addr:country": "CA", "name": "Tilbury Park", "phone": "(604) 946-0024", "website": "https://delivery.quiznos.com/?store_id=6696", "opening_hours": "Mo-Fr 08:30-20:30; Sa 10:00-15:00", "brand": "Quizno's", "brand:wikidata": "Q1936229", "nsi_id": "quiznos-658eea"}, "geometry": {"type": "Point", "coordinates": [-123.026466, 49.136309]}},
{"type": "Feature", "id": "qFf6caBspCO7IdXu3lFeTPgdd98=", "properties": {"ref": "3996", "addr:suite": "", "@spider": "quiznos", "amenity": "fast_food", "cuisine": "sandwich", "takeaway": "yes", "addr:full": "18440 Kenrick Ave", "addr:city": "Lakeville", "addr:state": "MN", "addr:postcode": "55044", "addr:country": "US", "name": "Timbercrest", "phone": "(952) 435-5900", "website": "https://delivery.quiznos.com/?store_id=6356", "opening_hours": "Mo-Th 10:00-21:00; Fr-Sa 10:00-22:00; Su 11:00-20:00", "brand": "Quizno's", "brand:wikidata": "Q1936229", "nsi_id": "quiznos-658eea"}, "geometry": {"type": "Point", "coordinates": [-93.29041, 44.68201]}},
{"type": "Feature", "id": "e9BQw4VTd7XDyGpKPDz8uAcKnHM=", "properties": {"ref": "1043", "addr:suite": null, "@spider": "quiznos", "amenity": "fast_food", "cuisine": "sandwich", "takeaway": "yes", "addr:full": "650 W Bough Ln Ste 130", "addr:city": "Houston", "addr:state": "TX", "addr:postcode": "77024", "addr:country": "US", "name": "Town and Country Village", "phone": "(713) 647-9966", "website": "https://delivery.quiznos.com/?store_id=6228", "opening_hours": "Mo-Sa 10:00-21:00; Su 11:00-20:00", "brand": "Quizno's", "brand:wikidata": "Q1936229", "nsi_id": "quiznos-658eea"}, "geometry": {"type": "Point", "coordinates": [-95.558447380206, 29.773632781436]}},
{"type": "Feature", "id": "xJhByyy1I_sj764N_WOfaGSgMVQ=", "properties": {"ref": "6319", "addr:suite": null, "@spider": "quiznos", "amenity": "fast_food", "cuisine": "sandwich", "takeaway": "yes", "addr:full": "2384 Armour Rd", "addr:city": "Kansas City", "addr:state": "MO", "addr:postcode": "64116", "addr:country": "US", "name": "Two Ten Center", "phone": "(816) 436-3900", "website": "https://delivery.quiznos.com/?store_id=6991", "opening_hours": "Mo-Sa 10:00-21:00", "brand": "Quizno's", "brand:wikidata": "Q1936229", "nsi_id": "quiznos-658eea"}, "geometry": {"type": "Point", "coordinates": [-94.5566, 39.14563]}},
{"type": "Feature", "id": "txxWi-ITsGfbmAHBkdxpOwOfyt0=", "properties": {"ref": "9321", "addr:suite": null, "@spider": "quiznos", "amenity": "fast_food", "cuisine": "sandwich", "takeaway": "yes", "addr:full": "4-3647 Portage Avenue", "addr:city": "Winnipeg", "addr:state": "MB", "addr:postcode": "R3K 2G6", "addr:country": "CA", "name": "Unicity Mall", "website": "https://delivery.quiznos.com/?store_id=6771", "opening_hours": "Mo-Fr 09:30-21:00; Sa 10:30-21:00; Su 11:00-19:00", "brand": "Quizno's", "brand:wikidata": "Q1936229", "nsi_id": "quiznos-658eea"}, "geometry": {"type": "Point", "coordinates": [-97.3120783, 49.8846627]}},
{"type": "Feature", "id": "0fFBMOZna6dOtmFZqFzX8sg3FSo=", "properties": {"ref": "11239", "addr:suite": null, "@spider": "quiznos", "amenity": "fast_food", "cuisine": "sandwich", "takeaway": "yes", "addr:full": "201 S Donaghey", "addr:city": "Conway", "addr:state": "AR", "addr:postcode": "72032", "addr:country": "US", "name": "University of Central Arkansas", "opening_hours": "Mo-Fr 10:00-16:00", "brand": "Quizno's", "brand:wikidata": "Q1936229", "nsi_id": "quiznos-658eea"}, "geometry": {"type": "Point", "coordinates": [-92.45415, 35.07933]}},
{"type": "Feature", "id": "N_mS70qcAADPNJwrRr8D9hgnl0w=", "properties": {"ref": "7665", "addr:suite": null, "@spider": "quiznos", "amenity": "fast_food", "cuisine": "sandwich", "takeaway": "yes", "addr:full": "17 W Main St", "addr:city": "Newark", "addr:state": "DE", "addr:postcode": "19716", "addr:country": "US", "name": "University of Delaware", "phone": "(302) 831-0509", "opening_hours": "Mo-Sa 10:00-21:00; Su 11:00-20:00", "brand": "Quizno's", "brand:wikidata": "Q1936229", "nsi_id": "quiznos-658eea"}, "geometry": {"type": "Point", "coordinates": [-75.754401, 39.682863]}},
{"type": "Feature", "id": "uEkYL4T0ngZIAjD26rA3_xq1hDE=", "properties": {"ref": "5982", "addr:suite": null, "@spider": "quiznos", "amenity": "fast_food", "cuisine": "sandwich", "takeaway": "yes", "addr:full": "1053 Century Dr", "addr:city": "Edwardsville", "addr:state": "IL", "addr:postcode": "62025", "addr:country": "US", "name": "University Pointe", "website": "https://delivery.quiznos.com/?store_id=6416", "opening_hours": "Mo-Sa 10:30-20:00; Su 11:00-20:00", "brand": "Quizno's", "brand:wikidata": "Q1936229", "nsi_id": "quiznos-658eea"}, "geometry": {"type": "Point", "coordinates": [-89.98101, 38.78826]}},
{"type": "Feature", "id": "5GD0V9gL4gLGYIlkspGUSvt-gkI=", "properties": {"ref": "3167", "addr:suite": null, "@spider": "quiznos", "amenity": "fast_food", "cuisine": "sandwich", "takeaway": "yes", "addr:full": "841 Upper James St", "addr:city": "Hamilton", "addr:state": "ON", "addr:postcode": "L9C 3A3", "addr:country": "CA", "name": "Upper James and Mohawk", "phone": "(905) 318-6699", "website": "https://delivery.quiznos.com/?store_id=6669", "opening_hours": "Mo-Fr 10:30-22:00; Sa 11:00-22:00; Su 11:00-20:30", "brand": "Quizno's", "brand:wikidata": "Q1936229", "nsi_id": "quiznos-658eea"}, "geometry": {"type": "Point", "coordinates": [-79.8821698, 43.2275899]}},
{"type": "Feature", "id": "_Y9y_V1mQwW1v05aHz7upODJRIs=", "properties": {"ref": "1955", "addr:suite": null, "@spider": "quiznos", "amenity": "fast_food", "cuisine": "sandwich", "takeaway": "yes", "addr:full": "11123 Plum Dr", "addr:city": "Urbandale", "addr:state": "IA", "addr:postcode": "50322", "addr:country": "US", "name": "Urbandale Marketplace", "phone": "(515) 309-0591", "website": "https://delivery.quiznos.com/?store_id=6266", "opening_hours": "Mo-Sa 10:00-19:00; Su 11:00-19:00", "brand": "Quizno's", "brand:wikidata": "Q1936229", "nsi_id": "quiznos-658eea"}, "geometry": {"type": "Point", "coordinates": [-93.77089, 41.64791]}},
{"type": "Feature", "id": "meNikUpxlLhguXAc8shNCJ883vc=", "properties": {"ref": "13901", "addr:suite": null, "@spider": "quiznos", "amenity": "fast_food", "cuisine": "sandwich", "takeaway": "yes", "addr:full": "520 W Main St", "addr:city": "Hamilton", "addr:state": "TX", "addr:postcode": "76531", "addr:country": "US", "name": "Valero - Main and Price", "website": "https://delivery.quiznos.com/?store_id=6545", "opening_hours": "Th-Su 11:00-15:00", "brand": "Quizno's", "brand:wikidata": "Q1936229", "nsi_id": "quiznos-658eea"}, "geometry": {"type": "Point", "coordinates": [-98.12843, 31.70525]}},
{"type": "Feature", "id": "ubS7jeqsvCx-riPsf_xc5qyi8iE=", "properties": {"ref": "2959", "addr:suite": null, "@spider": "quiznos", "amenity": "fast_food", "cuisine": "sandwich", "takeaway": "yes", "addr:full": "2620 Laporte Ave Ste 130", "addr:city": "Valparaiso", "addr:state": "IN", "addr:postcode": "46383", "addr:country": "US", "name": "Valparaiso Marketplace", "phone": "(219) 548-2900", "website": "https://delivery.quiznos.com/?store_id=6314", "opening_hours": "Mo-Sa 10:00-21:00; Su 11:00-20:00", "brand": "Quizno's", "brand:wikidata": "Q1936229", "nsi_id": "quiznos-658eea"}, "geometry": {"type": "Point", "coordinates": [-87.02813, 41.46887]}},
{"type": "Feature", "id": "WFD6sBLS3ea1e4ZhxM0b29BztcM=", "properties": {"ref": "5608", "addr:suite": null, "@spider": "quiznos", "amenity": "fast_food", "cuisine": "sandwich", "takeaway": "yes", "addr:full": "1528 N Vermont Ave Ste A", "addr:city": "Hollywood", "addr:state": "CA", "addr:postcode": "90027", "addr:country": "US", "name": "Vermont Avenue", "phone": "(323) 805-2200", "website": "https://orders.deliverybyquiznos.com/mp/ordernow/store_selection?restid=226", "opening_hours": "Mo-Fr 09:00-20:00; Sa 11:00-17:00; Su 11:00-16:00", "brand": "Quizno's", "brand:wikidata": "Q1936229", "nsi_id": "quiznos-658eea"}, "geometry": {"type": "Point", "coordinates": [-118.29176306973, 34.098960025716]}},
{"type": "Feature", "id": "a2zBvHNc2NFixt5AIJCGn6KpzNo=", "properties": {"ref": "2752", "addr:suite": null, "@spider": "quiznos", "amenity": "fast_food", "cuisine": "sandwich", "takeaway": "yes", "addr:full": "1581 Greenbank Rd", "addr:city": "Ottawa", "addr:state": "ON", "addr:postcode": "K2J 4Y6", "addr:country": "CA", "name": "Village Square", "phone": "(613) 825-5585", "website": "https://delivery.quiznos.com/?store_id=6594", "opening_hours": "Mo-Sa 10:30-21:00; Su 11:00-20:00", "brand": "Quizno's", "brand:wikidata": "Q1936229", "nsi_id": "quiznos-658eea"}, "geometry": {"type": "Point", "coordinates": [-75.746751, 45.2738662]}},
{"type": "Feature", "id": "e0tC1fLY4OinekIfyrkAJ8bFqWk=", "properties": {"ref": "5594", "addr:suite": null, "@spider": "quiznos", "amenity": "fast_food", "cuisine": "sandwich", "takeaway": "yes", "addr:full": "260-700 St Albert Rd", "addr:city": "Saint Albert", "addr:state": "AB", "addr:postcode": "T8N 7A5", "addr:country": "CA", "name": "Villeneuve", "phone": "(780) 418-8834", "website": "https://delivery.quiznos.com/?store_id=6726", "opening_hours": "Mo-Fr 10:00-21:00; Sa-Su 10:00-20:00", "brand": "Quizno's", "brand:wikidata": "Q1936229", "nsi_id": "quiznos-658eea"}, "geometry": {"type": "Point", "coordinates": [-113.6334203, 53.6598601]}},
{"type": "Feature", "id": "Rew4HGbRs1zsXhdsJWKHRVPmqpo=", "properties": {"ref": "12913", "addr:suite": null, "@spider": "quiznos", "amenity": "fast_food", "cuisine": "sandwich", "takeaway": "yes", "addr:full": "3031 Foothills Blvd Ste 100", "addr:city": "Roseville", "addr:state": "CA", "addr:postcode": "95747", "addr:country": "US", "name": "Vineyard Pointe Center", "website": "https://delivery.quiznos.com/?store_id=6519", "opening_hours": "Mo-Fr 10:00-21:00; Sa 11:00-20:00; Su 11:00-19:00", "brand": "Quizno's", "brand:wikidata": "Q1936229", "nsi_id": "quiznos-658eea"}, "geometry": {"type": "Point", "coordinates": [-121.30915417492, 38.744434680076]}},
{"type": "Feature", "id": "kK29zQp5S__ZWqGL2RBxHRSvFp0=", "properties": {"ref": "744", "addr:suite": null, "@spider": "quiznos", "amenity": "fast_food", "cuisine": "sandwich", "takeaway": "yes", "addr:full": "7205 Vista Dr Ste 120", "addr:city": "West Des Moines", "addr:state": "IA", "addr:postcode": "50266", "addr:country": "US", "name": "Vista Centre", "phone": "(515) 267-0328", "website": "https://delivery.quiznos.com/?store_id=6219", "opening_hours": "Mo-Sa 10:00-19:00; Su 11:00-19:00", "brand": "Quizno's", "brand:wikidata": "Q1936229", "nsi_id": "quiznos-658eea"}, "geometry": {"type": "Point", "coordinates": [-93.80825, 41.58893]}},
{"type": "Feature", "id": "JszgDHhydjl8WrRJZKDuoG8zKUs=", "properties": {"ref": "14969", "addr:suite": null, "@spider": "quiznos", "amenity": "fast_food", "cuisine": "sandwich", "takeaway": "yes", "addr:full": "4610 North Interstate 35", "addr:city": "Georgetown", "addr:state": "TX", "addr:postcode": "78626", "addr:country": "US", "name": "Walburg Travel Center", "opening_hours": "Mo-Sa 09:00-21:00; Su 10:00-21:00", "brand": "Quizno's", "brand:wikidata": "Q1936229", "nsi_id": "quiznos-658eea"}, "geometry": {"type": "Point", "coordinates": [-97.6481, 30.71093]}},
{"type": "Feature", "id": "8Qh9vasFkqByZh6F1S4xnOH0MW4=", "properties": {"ref": "3287", "addr:suite": null, "@spider": "quiznos", "amenity": "fast_food", "cuisine": "sandwich", "takeaway": "yes", "addr:full": "1330 164th St SW Ste 110", "addr:city": "Lynnwood", "addr:state": "WA", "addr:postcode": "98087", "addr:country": "US", "name": "Walmart Center", "phone": "(425) 745-7718", "website": "https://delivery.quiznos.com/?store_id=6327", "opening_hours": "Mo-Sa 10:00-21:00; Su 11:00-20:00", "brand": "Quizno's", "brand:wikidata": "Q1936229", "nsi_id": "quiznos-658eea"}, "geometry": {"type": "Point", "coordinates": [-122.25186558503, 47.849793891087]}},
{"type": "Feature", "id": "Na82bGjZYk6G6AfJWQDMMkRbESo=", "properties": {"ref": "879", "addr:suite": null, "@spider": "quiznos", "amenity": "fast_food", "cuisine": "sandwich", "takeaway": "yes", "addr:full": "108-9292 200 St", "addr:city": "Langley", "addr:state": "BC", "addr:postcode": "V1M 3A6", "addr:country": "CA", "name": "Walnut Grove", "phone": "(604) 881-2200", "website": "https://delivery.quiznos.com/?store_id=6623", "opening_hours": "Mo-Fr 09:30-21:00; Sa-Su 10:30-20:00", "brand": "Quizno's", "brand:wikidata": "Q1936229", "nsi_id": "quiznos-658eea"}, "geometry": {"type": "Point", "coordinates": [-122.6673167, 49.1721032]}},
{"type": "Feature", "id": "aMZqqHY0Xd_wBA8Dsjha7B4SvYs=", "properties": {"ref": "2267", "addr:suite": null, "@spider": "quiznos", "amenity": "fast_food", "cuisine": "sandwich", "takeaway": "yes", "addr:full": "39345 Michigan Ave", "addr:city": "Wayne", "addr:state": "MI", "addr:postcode": "48184", "addr:country": "US", "name": "Wayne", "phone": "(734) 721-5555", "website": "https://delivery.quiznos.com/?store_id=6281", "opening_hours": "Mo-Sa 10:00-21:00; Su 11:00-20:00", "brand": "Quizno's", "brand:wikidata": "Q1936229", "nsi_id": "quiznos-658eea"}, "geometry": {"type": "Point", "coordinates": [-83.426773342482, 42.278812141529]}},
{"type": "Feature", "id": "tAHS2Nm8zaJJtdrr7L8VLzORqVY=", "properties": {"ref": "14481", "addr:suite": null, "@spider": "quiznos", "amenity": "fast_food", "cuisine": "sandwich", "takeaway": "yes", "addr:full": "4410 Kathleen Rd", "addr:city": "Lakeland", "addr:state": "FL", "addr:postcode": "33813", "addr:country": "US", "name": "Wayne's Amoco", "opening_hours": "Mo-Su 06:00-21:00", "brand": "Quizno's", "brand:wikidata": "Q1936229", "nsi_id": "quiznos-658eea"}, "geometry": {"type": "Point", "coordinates": [-82.00663, 28.09863]}},
{"type": "Feature", "id": "_TuP72yGjdbe_vMUBvQr52NWRYU=", "properties": {"ref": "7179", "addr:suite": null, "@spider": "quiznos", "amenity": "fast_food", "cuisine": "sandwich", "takeaway": "yes", "addr:full": "2701 W Lawrence Ave", "addr:city": "Springfield", "addr:state": "IL", "addr:postcode": "62704", "addr:country": "US", "name": "West Lawrence", "phone": "(217) 787-7304", "website": "https://delivery.quiznos.com/?store_id=6444", "opening_hours": "Mo-Fr 11:00-19:00; Sa 11:00-19:30; Su 11:00-19:00", "brand": "Quizno's", "brand:wikidata": "Q1936229", "nsi_id": "quiznos-658eea"}, "geometry": {"type": "Point", "coordinates": [-89.70489, 39.79521]}},
{"type": "Feature", "id": "Ih3ByaYFWnSHOAs7y04_cvhpwo0=", "properties": {"ref": "4483", "addr:suite": null, "@spider": "quiznos", "amenity": "fast_food", "cuisine": "sandwich", "takeaway": "yes", "addr:full": "B-210 Ogilvie Street", "addr:city": "Whitehorse", "addr:state": "YT", "addr:postcode": "Y1A 2S3", "addr:country": "CA", "name": "Whitehorse", "phone": "(867) 456-3000", "opening_hours": "Mo-Sa 10:00-19:00; Su 11:00-19:00", "brand": "Quizno's", "brand:wikidata": "Q1936229", "nsi_id": "quiznos-658eea"}, "geometry": {"type": "Point", "coordinates": [-135.0592774, 60.7264522]}},
{"type": "Feature", "id": "Rzi_0vglFyj6anuQDX5lcwTQrY4=", "properties": {"ref": "5221", "addr:suite": null, "@spider": "quiznos", "amenity": "fast_food", "cuisine": "sandwich", "takeaway": "yes", "addr:full": "2905 Northtowne Ln, Ste 120", "addr:city": "Reno", "addr:state": "NV", "addr:postcode": "89512", "addr:country": "US", "name": "Wildcreek", "website": "https://delivery.quiznos.com/?store_id=6399", "opening_hours": "Mo-Sa 10:00-21:00; Su 11:00-20:00", "brand": "Quizno's", "brand:wikidata": "Q1936229", "nsi_id": "quiznos-658eea"}, "geometry": {"type": "Point", "coordinates": [-119.782277, 39.5569]}},
{"type": "Feature", "id": "f7-ZsfLUiiV2tihg0aj917aw68I=", "properties": {"ref": "1231", "addr:suite": null, "@spider": "quiznos", "amenity": "fast_food", "cuisine": "sandwich", "takeaway": "yes", "addr:full": "29814 S Wixom Rd", "addr:city": "Wixom", "addr:state": "MI", "addr:postcode": "48393", "addr:country": "US", "name": "Wixom, MI", "phone": "(248) 960-4808", "website": "https://delivery.quiznos.com/?store_id=6237", "opening_hours": "Mo-Fr 10:00-21:00; Sa 10:00-20:00; Su 11:00-18:00", "brand": "Quizno's", "brand:wikidata": "Q1936229", "nsi_id": "quiznos-658eea"}, "geometry": {"type": "Point", "coordinates": [-83.536729, 42.511685]}},
{"type": "Feature", "id": "ShuoNg1hCwCzdqj7iklY2jeSMvA=", "properties": {"ref": "4766", "addr:suite": null, "@spider": "quiznos", "amenity": "fast_food", "cuisine": "sandwich", "takeaway": "yes", "addr:full": "8865 Woodbine Ave Bldg D Unit 2", "addr:city": "Markham", "addr:state": "ON", "addr:postcode": "L3R 4X9", "addr:country": "CA", "name": "Woodbine and Applecreek", "website": "https://delivery.quiznos.com/?store_id=6708", "opening_hours": "Mo-Sa 11:00-21:00; Su 12:00-20:00", "brand": "Quizno's", "brand:wikidata": "Q1936229", "nsi_id": "quiznos-658eea"}, "geometry": {"type": "Point", "coordinates": [-79.3597955, 43.857876]}},
{"type": "Feature", "id": "HGePtdyYLWQWh79l8-I4GTgkVgY=", "properties": {"ref": "1482", "addr:suite": null, "@spider": "quiznos", "amenity": "fast_food", "cuisine": "sandwich", "takeaway": "yes", "addr:full": "2945 Old Canton Rd", "addr:city": "Jackson", "addr:state": "MS", "addr:postcode": "39216", "addr:country": "US", "name": "Woodland Hills", "phone": "(601) 713-0357", "website": "https://delivery.quiznos.com/?store_id=6247", "opening_hours": "Mo-Fr 10:00-20:00; Sa 10:00-15:00", "brand": "Quizno's", "brand:wikidata": "Q1936229", "nsi_id": "quiznos-658eea"}, "geometry": {"type": "Point", "coordinates": [-90.17458, 32.33401]}},
{"type": "Feature", "id": "AEUtj0v9V93POq9bgZ9ZP3-OUAc=", "properties": {"ref": "3054", "addr:suite": "", "@spider": "quiznos", "amenity": "fast_food", "cuisine": "sandwich", "takeaway": "yes", "addr:full": "1440A Lake Woodlands Dr", "addr:city": "The Woodlands", "addr:state": "TX", "addr:postcode": "77380", "addr:country": "US", "name": "Woodlands Town Centre", "phone": "(281) 419-5968", "website": "https://delivery.quiznos.com/?store_id=6317", "opening_hours": "Mo-Sa 10:00-21:00; Su 11:00-20:00", "brand": "Quizno's", "brand:wikidata": "Q1936229", "nsi_id": "quiznos-658eea"}, "geometry": {"type": "Point", "coordinates": [-95.45669, 30.16732]}},
{"type": "Feature", "id": "GVi3ips9Jj2XoyW2wDp_dCwqMJQ=", "properties": {"ref": "14986", "addr:suite": "", "@spider": "quiznos", "amenity": "fast_food", "cuisine": "sandwich", "takeaway": "yes", "addr:full": "8625 Woodley Ave", "addr:city": "North Hills", "addr:state": "CA", "addr:postcode": "91343", "addr:country": "US", "name": "Woodley and Parthenia", "website": "https://delivery.quiznos.com/?store_id=10034", "opening_hours": "Mo-Fr 10:00-21:00; Sa 10:00-20:00; Su 11:00-20:00", "brand": "Quizno's", "brand:wikidata": "Q1936229", "nsi_id": "quiznos-658eea"}, "geometry": {"type": "Point", "coordinates": [-118.48522583114, 34.226968684591]}},
{"type": "Feature", "id": "clvW0FnoAxs0RmKWt-aukbco7nc=", "properties": {"ref": "12293", "addr:suite": null, "@spider": "quiznos", "amenity": "fast_food", "cuisine": "sandwich", "takeaway": "yes", "addr:full": "121 Route 550", "addr:city": "Hartford", "addr:state": "NB", "addr:postcode": "E7M 6B6", "addr:country": "CA", "name": "Woodstock, NB", "website": "https://delivery.quiznos.com/?store_id=6797", "opening_hours": "Mo-Su 10:00-21:00", "brand": "Quizno's", "brand:wikidata": "Q1936229", "nsi_id": "quiznos-658eea"}, "geometry": {"type": "Point", "coordinates": [-67.6124658, 46.1731278]}},
{"type": "Feature", "id": "Pc8i2VEp4cO0XKBHqJQDSsmBr6Y=", "properties": {"ref": "8128", "addr:suite": null, "@spider": "quiznos", "amenity": "fast_food", "cuisine": "sandwich", "takeaway": "yes", "addr:full": "393 St. Jaques Local C146", "addr:city": "Montreal", "addr:state": "QC", "addr:postcode": "H2Z 2B1", "addr:country": "CA", "name": "World Trade Center", "website": "https://delivery.quiznos.com/?store_id=6755", "opening_hours": "Mo-Fr 11:00-18:00", "brand": "Quizno's", "brand:wikidata": "Q1936229", "nsi_id": "quiznos-658eea"}, "geometry": {"type": "Point", "coordinates": [-73.5623802, 45.5023902]}},
{"type": "Feature", "id": "S27whf7K2tYtxwjR-MQM41NsjwE=", "properties": {"ref": "5212", "addr:suite": null, "@spider": "quiznos", "amenity": "fast_food", "cuisine": "sandwich", "takeaway": "yes", "addr:full": "106-314 Old Airport Rd", "addr:city": "Yellowknife", "addr:state": "NT", "addr:postcode": "X1A 3T3", "addr:country": "CA", "name": "Yellowknife", "phone": "(867) 920-7827", "website": "https://delivery.quiznos.com/?store_id=6720", "opening_hours": "Mo-Su 10:00-19:00", "brand": "Quizno's", "brand:wikidata": "Q1936229", "nsi_id": "quiznos-658eea"}, "geometry": {"type": "Point", "coordinates": [-114.4023598, 62.449868]}},
{"type": "Feature", "id": "-ULM5BhZe18SOkl0e69E1t2DNlQ=", "properties": {"ref": "14500", "addr:suite": "Yellowknife Airport - Air Terminal Building", "@spider": "quiznos", "amenity": "fast_food", "cuisine": "sandwich", "takeaway": "yes", "addr:full": "1 Yellowknife Airport", "addr:city": "Yellowknife", "addr:state": "NT", "addr:postcode": "X1A 3T2", "addr:country": "CA", "name": "Yellowknife Airport", "website": "https://delivery.quiznos.com/?store_id=6826", "opening_hours": "Mo-Su 10:00-19:00", "brand": "Quizno's", "brand:wikidata": "Q1936229", "nsi_id": "quiznos-658eea"}, "geometry": {"type": "Point", "coordinates": [-114.4164709, 62.440928]}},
{"type": "Feature", "id": "cGZeWEruo8XHYCAqiSIBho_CGp8=", "properties": {"ref": "4015", "addr:suite": null, "@spider": "quiznos", "amenity": "fast_food", "cuisine": "sandwich", "takeaway": "yes", "addr:full": "1202 E Yelm Ave Ste E", "addr:city": "Yelm", "addr:state": "WA", "addr:postcode": "98597", "addr:country": "US", "name": "Yelm Plaza Shopping Center", "phone": "(360) 400-7827", "website": "https://delivery.quiznos.com/?store_id=6358", "opening_hours": "Mo-Sa 11:00-20:00; Su 11:00-19:00", "brand": "Quizno's", "brand:wikidata": "Q1936229", "nsi_id": "quiznos-658eea"}, "geometry": {"type": "Point", "coordinates": [-122.59270420269, 46.934446641025]}}]}