{"type":"FeatureCollection","features":[{"type": "Feature", "id": "4eImHGDQ2FsbpxqApxsThcvq-gY=", "properties": {"ref": "dearborn", "@spider": "ra_sushi", "addr:city": "Dearborn", "addr:state": "Mi", "addr:country": "US", "name": "DEARBORN, MI", "website": "https://rasushi.com/locations/dearborn/", "brand": "RA Sushi"}, "geometry": {"type": "Point", "coordinates": [-83.17631449999999, 42.3222599]}},
{"type": "Feature", "id": "D1D4GFF7x4ViWXljqZDiPGhQMlM=", "properties": {"ref": "cherry-hill", "@spider": "ra_sushi", "addr:city": "Cherry Hill", "addr:state": "NJ", "addr:country": "US", "name": "CHERRY HILL, NJ", "website": "https://rasushi.com/locations/cherry-hill/", "brand": "RA Sushi"}, "geometry": {"type": "Point", "coordinates": [-75.0246312, 39.926813]}},
{"type": "Feature", "id": "S9eLwtI1hLoTlmYcM6EJiKr2mIc=", "properties": {"ref": "chandler", "@spider": "ra_sushi", "addr:city": "CHANDLER", "addr:state": "AZ", "addr:country": "US", "name": "CHANDLER, AZ", "website": "https://rasushi.com/locations/chandler/", "brand": "RA Sushi"}, "geometry": {"type": "Point", "coordinates": [-111.8412502, 33.3061605]}},
{"type": "Feature", "id": "n_dQOirO4m2KHRp3FPptzWRKIJ0=", "properties": {"ref": "carlsbad", "@spider": "ra_sushi", "addr:city": "Carlsbad", "addr:state": "CA", "addr:country": "US", "name": "CARLSBAD, CA", "website": "https://rasushi.com/locations/carlsbad/", "brand": "RA Sushi"}, "geometry": {"type": "Point", "coordinates": [-117.3505939, 33.1580933]}},
{"type": "Feature", "id": "65cVQcNncWoRWf5A85q5vySUCx0=", "properties": {"ref": "broomfield", "@spider": "ra_sushi", "addr:city": "Broomfield", "addr:state": "CO", "addr:country": "US", "name": "BROOMFIELD, CO", "website": "https://rasushi.com/locations/broomfield/", "brand": "RA Sushi"}, "geometry": {"type": "Point", "coordinates": [-105.0866504, 39.9205411]}},
{"type": "Feature", "id": "HCVEKhzIANhSIHH7G4ft-LNm2qQ=", "properties": {"ref": "boca-raton", "@spider": "ra_sushi", "addr:city": "Boca Raton", "addr:state": "FL", "addr:country": "US", "name": "BOCA RATON, FL", "website": "https://rasushi.com/locations/boca-raton/", "brand": "RA Sushi"}, "geometry": {"type": "Point", "coordinates": [-80.1289321, 26.3683064]}},
{"type": "Feature", "id": "OWhs_KPs4WJ7j23mIjDYEjniU-A=", "properties": {"ref": "bethesda", "@spider": "ra_sushi", "addr:city": "Bethesda", "addr:state": "MD", "addr:country": "US", "name": "BETHESDA, MD", "website": "https://rasushi.com/locations/bethesda/", "brand": "RA Sushi"}, "geometry": {"type": "Point", "coordinates": [-77.0947092, 38.984652]}},
{"type": "Feature", "id": "TPcyK2pHB40YaOdPQ7VqDRaSsWI=", "properties": {"ref": "buckhead", "@spider": "ra_sushi", "addr:city": "Buckhead", "addr:state": "GA", "addr:country": "US", "name": "BUCKHEAD, GA", "website": "https://rasushi.com/locations/buckhead/", "brand": "RA Sushi"}, "geometry": {"type": "Point", "coordinates": [-83.362312, 33.568748]}},
{"type": "Feature", "id": "MEOL_9qujMectcuiMKrqfBnWx7E=", "properties": {"ref": "anaheim", "@spider": "ra_sushi", "addr:city": "Anaheim", "addr:state": "CA", "addr:country": "US", "name": "ANAHEIM, CA", "website": "https://rasushi.com/locations/anaheim/", "brand": "RA Sushi"}, "geometry": {"type": "Point", "coordinates": [-117.9143012, 33.8365932]}},
{"type": "Feature", "id": "EIouH9e3nvf_jAEK8RjRgwrNv74=", "properties": {"ref": "miramar-fl", "@spider": "ra_sushi", "addr:city": "Miramar", "addr:state": "FL", "addr:country": "US", "name": "Miramar, FL", "website": "https://rasushi.com/locations/miramar-fl/", "brand": "RA Sushi"}, "geometry": {"type": "Point", "coordinates": [-80.35484, 25.9805]}},
{"type": "Feature", "id": "i0__FNVi8-E9hpme40STYoW39rE=", "properties": {"ref": "chicago", "@spider": "ra_sushi", "addr:city": "Chicago", "addr:state": "IL", "addr:country": "US", "name": "CHICAGO, IL", "website": "https://rasushi.com/locations/chicago/", "brand": "RA Sushi"}, "geometry": {"type": "Point", "coordinates": [-87.6297982, 41.8781136]}},
{"type": "Feature", "id": "EGKFm7xTELb0kGsez0wG2kXHIeg=", "properties": {"ref": "san-diego", "@spider": "ra_sushi", "addr:city": "San Diego", "addr:state": "CA", "addr:country": "US", "name": "SAN DIEGO, CA", "website": "https://rasushi.com/locations/san-diego/", "brand": "RA Sushi"}, "geometry": {"type": "Point", "coordinates": [-117.1610838, 32.715738]}},
{"type": "Feature", "id": "fMvLaM7IFVeEYHBjFbwiPQPYvjs=", "properties": {"ref": "santa-monica", "@spider": "ra_sushi", "addr:city": "Santa Monica", "addr:state": "CA", "addr:country": "US", "name": "SANTA MONICA, CA", "website": "https://rasushi.com/locations/santa-monica/", "brand": "RA Sushi"}, "geometry": {"type": "Point", "coordinates": [-118.4911912, 34.0194543]}},
{"type": "Feature", "id": "HLbq2-j0NJTz3WL6YYQykD3RkOs=", "properties": {"ref": "westbury-ny", "@spider": "ra_sushi", "addr:city": "Westbury", "addr:state": "NY", "addr:country": "US", "name": "Westbury, NY", "website": "https://rasushi.com/locations/westbury-ny/", "brand": "RA Sushi"}, "geometry": {"type": "Point", "coordinates": [-73.5876273, 40.7556561]}},
{"type": "Feature", "id": "xPwmcPE5mcg2jp-cVl7QCxB35Fc=", "properties": {"ref": "torrance", "@spider": "ra_sushi", "addr:city": "Torrance", "addr:state": "CA", "addr:country": "US", "name": "TORRANCE, CA", "website": "https://rasushi.com/locations/torrance/", "brand": "RA Sushi"}, "geometry": {"type": "Point", "coordinates": [-118.3406288, 33.8358492]}},
{"type": "Feature", "id": "FJiYBEKEmeRVCLpvij7Y2aW2Fh0=", "properties": {"ref": "short-hills-nj", "@spider": "ra_sushi", "addr:city": "Short Hills", "addr:state": "NJ", "addr:country": "US", "name": "Short Hills, NJ", "website": "https://rasushi.com/locations/short-hills-nj/", "brand": "RA Sushi"}, "geometry": {"type": "Point", "coordinates": [-74.3377, 40.72375]}},
{"type": "Feature", "id": "lSBg-QRHTkQN31uQHnCvCv3lI_M=", "properties": {"ref": "times-square-ny", "@spider": "ra_sushi", "addr:city": "New York", "addr:state": "NY", "addr:postcode": "10036", "addr:country": "US", "name": "Times Square, NY", "phone": "212.398.9810", "website": "https://rasushi.com/locations/times-square-ny/", "brand": "RA Sushi"}, "geometry": {"type": "Point", "coordinates": [-73.9873677, 40.7576153]}},
{"type": "Feature", "id": "ysgOOkLYFS5DkrZQ0c-jYcMusZE=", "properties": {"ref": "lombard-il", "@spider": "ra_sushi", "addr:city": "Lombard", "addr:state": "IL", "addr:postcode": "60148", "addr:country": "US", "name": "LOMBARD, IL", "phone": "630.627.6800", "website": "https://rasushi.com/locations/lombard-il/", "brand": "RA Sushi"}, "geometry": {"type": "Point", "coordinates": [-88.0083746, 41.8375837]}},
{"type": "Feature", "id": "ccwVW8lhP1xA70Ps8UhOxErFabw=", "properties": {"ref": "las-vegas", "@spider": "ra_sushi", "addr:state": "Las", "addr:postcode": "89109", "addr:country": "US", "name": "LAS VEGAS, NV", "phone": "702.696.0008", "website": "https://rasushi.com/locations/las-vegas/", "brand": "RA Sushi"}, "geometry": {"type": "Point", "coordinates": [-115.1730984, 36.1273449]}},
{"type": "Feature", "id": "QpYULHEmuE4F49B63jyqLje_9iA=", "properties": {"ref": "baltimore", "@spider": "ra_sushi", "addr:city": "Baltimore", "addr:state": "MD", "addr:country": "US", "name": "BALTIMORE, MD", "phone": "410.522.3200", "website": "https://rasushi.com/locations/baltimore/", "brand": "RA Sushi"}, "geometry": {"type": "Point", "coordinates": [-76.5974426, 39.2824818]}},
{"type": "Feature", "id": "TZyZSvNMV2-ColCZ3vQ_8UHNHJc=", "properties": {"ref": "austin-tx", "@spider": "ra_sushi", "addr:state": "Austin", "addr:country": "US", "name": "AUSTIN, TX", "phone": "512.726.2130", "website": "https://rasushi.com/locations/austin-tx/", "brand": "RA Sushi"}, "geometry": {"type": "Point", "coordinates": [-97.74459139999999, 30.2662488]}},
{"type": "Feature", "id": "3T1ujGkKaecKntApQDNymU5VBwM=", "properties": {"ref": "addison", "@spider": "ra_sushi", "addr:state": "Addison", "addr:postcode": "75254", "addr:country": "US", "name": "ADDISON, TX", "phone": "972.581.2905", "website": "https://rasushi.com/locations/addison/", "brand": "RA Sushi"}, "geometry": {"type": "Point", "coordinates": [-96.8206605, 32.9515797]}},
{"type": "Feature", "id": "x2oRiP7zhWqa-7ILTmDj3WTWpx8=", "properties": {"ref": "leawood-ks", "@spider": "ra_sushi", "addr:city": "Leawood", "addr:state": "KS", "addr:postcode": "66211", "addr:country": "US", "name": "LEAWOOD, KS", "phone": "913.850.6260", "website": "https://rasushi.com/locations/leawood-ks/", "brand": "RA Sushi"}, "geometry": {"type": "Point", "coordinates": [-94.6481212, 38.9171841]}},
{"type": "Feature", "id": "EjlhZZWWz5wxSdzT4_PRg13NuQY=", "properties": {"ref": "pembroke-pines", "@spider": "ra_sushi", "addr:city": "Pembroke Pines", "addr:state": "FL", "addr:postcode": "33027", "addr:country": "US", "name": "PEMBROKE PINES, FL", "phone": "954.342.5454", "website": "https://rasushi.com/locations/pembroke-pines/", "brand": "RA Sushi"}, "geometry": {"type": "Point", "coordinates": [-80.33635319999999, 26.006352]}},
{"type": "Feature", "id": "_nJ5eJAaLPPiwWxVxRgeRATMgFU=", "properties": {"ref": "ahwatukee-foothills-towne-center", "@spider": "ra_sushi", "addr:state": "Phoenix", "addr:postcode": "85044", "addr:country": "US", "name": "AHWATUKEE, AZ", "phone": "480.940.1111", "website": "https://rasushi.com/locations/ahwatukee-foothills-towne-center/", "brand": "RA Sushi"}, "geometry": {"type": "Point", "coordinates": [-111.9766656, 33.3171793]}},
{"type": "Feature", "id": "u_ApVsUtq8iGkD2QDACILkpdja0=", "properties": {"ref": "north-scottsdale", "@spider": "ra_sushi", "addr:state": "Scottsdale", "addr:postcode": "85254", "addr:country": "US", "name": "NORTH SCOTTSDALE, AZ", "phone": "480.951.5888", "website": "https://rasushi.com/locations/north-scottsdale/", "brand": "RA Sushi"}, "geometry": {"type": "Point", "coordinates": [-111.9272838, 33.61326409999999]}},
{"type": "Feature", "id": "kY7VrDXHxZWRkx-_QxP9_mfv8SM=", "properties": {"ref": "mesa", "@spider": "ra_sushi", "addr:state": "Mesa", "addr:postcode": "85204", "addr:country": "US", "name": "MESA, AZ", "phone": "480.632.9500", "website": "https://rasushi.com/locations/mesa/", "brand": "RA Sushi"}, "geometry": {"type": "Point", "coordinates": [-111.7559698, 33.3853331]}},
{"type": "Feature", "id": "aCnCWdK3L-ZqzX2ZMinp0tmYXpk=", "properties": {"ref": "old-town", "@spider": "ra_sushi", "addr:city": "Scottsdale", "addr:state": "AZ", "addr:postcode": "85251", "addr:country": "US", "name": "OLD TOWN, AZ", "phone": "480.990.9256", "website": "https://rasushi.com/locations/old-town/", "brand": "RA Sushi"}, "geometry": {"type": "Point", "coordinates": [-111.9259016, 33.4919758]}},
{"type": "Feature", "id": "8U8FZHyCb2QptWEasas50Ef5UVI=", "properties": {"ref": "tucson", "@spider": "ra_sushi", "addr:state": "Tucson", "addr:postcode": "85718", "addr:country": "US", "name": "TUCSON, AZ", "phone": "520.615.3970", "website": "https://rasushi.com/locations/tucson/", "brand": "RA Sushi"}, "geometry": {"type": "Point", "coordinates": [-110.9301432, 32.3255688]}},
{"type": "Feature", "id": "vOgjmHsc2OPoIytwB6-DJ2yB98c=", "properties": {"ref": "chino-hills", "@spider": "ra_sushi", "addr:state": "Chino", "addr:postcode": "91709", "addr:country": "US", "name": "CHINO HILLS, CA", "phone": "909.902.0044", "website": "https://rasushi.com/locations/chino-hills/", "brand": "RA Sushi"}, "geometry": {"type": "Point", "coordinates": [-117.7295703, 34.0005043]}},
{"type": "Feature", "id": "4IN2LaC5yXOQYGGRFpoJaOCWQHo=", "properties": {"ref": "tustin-ca", "@spider": "ra_sushi", "addr:city": "Tustin", "addr:state": "CA", "addr:postcode": "92782", "addr:country": "US", "name": "TUSTIN, CA", "phone": "714.566.1700", "website": "https://rasushi.com/locations/tustin-ca/", "brand": "RA Sushi"}, "geometry": {"type": "Point", "coordinates": [-117.8276958, 33.69822370000001]}},
{"type": "Feature", "id": "HAZY2yRdU9Kzet1tz_pKU9J9CE8=", "properties": {"ref": "houston-city-centre", "@spider": "ra_sushi", "addr:state": "Houston", "addr:postcode": "77024", "addr:country": "US", "name": "HOUSTON- CITY CENTRE, TX", "phone": "713.331.2792", "website": "https://rasushi.com/locations/houston-city-centre/", "brand": "RA Sushi"}, "geometry": {"type": "Point", "coordinates": [-95.5611579, 29.7795366]}},
{"type": "Feature", "id": "6_wzNp-Khfjb0Qwrs3-WdTKrtOs=", "properties": {"ref": "houston-highland-village-tx", "@spider": "ra_sushi", "addr:state": "Houston", "addr:postcode": "77027", "addr:country": "US", "name": "HOUSTON- HIGHLAND VILLAGE TX", "phone": "713.621.5800", "website": "https://rasushi.com/locations/houston-highland-village-tx/", "brand": "RA Sushi"}, "geometry": {"type": "Point", "coordinates": [-95.4436968, 29.7424268]}},
{"type": "Feature", "id": "Fpnlay3P29UJolYwBw3grjgPQWg=", "properties": {"ref": "plano", "@spider": "ra_sushi", "addr:state": "Plano", "addr:postcode": "75024", "addr:country": "US", "name": "PLANO, TX", "phone": "469.467.7400", "website": "https://rasushi.com/locations/plano/", "brand": "RA Sushi"}, "geometry": {"type": "Point", "coordinates": [-96.8231775, 33.0801883]}},
{"type": "Feature", "id": "oqI2y8WxoQv0FUZA3Nc3oBnZjdA=", "properties": {"ref": "southlake", "@spider": "ra_sushi", "addr:state": "Southlake", "addr:postcode": "76092", "addr:country": "US", "name": "SOUTHLAKE, TX", "phone": "817.601.9590", "website": "https://rasushi.com/locations/southlake/", "brand": "RA Sushi"}, "geometry": {"type": "Point", "coordinates": [-97.1340448, 32.9403658]}},
{"type": "Feature", "id": "Oxiu9Aqo4AF31QSa-W8fn7rxky0=", "properties": {"ref": "cincinnati", "@spider": "ra_sushi", "addr:city": "Cincinatti", "addr:state": "OH", "addr:postcode": "45246", "addr:country": "US", "name": "CINCINNATI, OH", "phone": "513.766.8057", "website": "https://rasushi.com/locations/cincinnati/", "brand": "RA Sushi"}, "geometry": {"type": "Point", "coordinates": [-84.47043459999999, 39.2836294]}},
{"type": "Feature", "id": "xPEFYOhv9R2tf_lmmX3SrAfhgHY=", "properties": {"ref": "phoenix-suns-arena-az", "@spider": "ra_sushi", "addr:city": "Phoenix", "addr:state": "AZ", "addr:postcode": "85004", "addr:country": "US", "name": "Phoenix Suns Arena, Phoenix, AZ", "website": "https://rasushi.com/locations/phoenix-suns-arena-az/", "brand": "RA Sushi"}, "geometry": {"type": "Point", "coordinates": [-112.0718561, 33.4458753]}},
{"type": "Feature", "id": "Kg7uaETySNWmmZm1T8oFozmeBDc=", "properties": {"ref": "dignity-health-sports-park", "@spider": "ra_sushi", "addr:city": "Carson", "addr:state": "CA", "addr:country": "US", "name": "DIGNITY HEALTH SPORTS PARK, CARSON, CA", "website": "https://rasushi.com/locations/dignity-health-sports-park/", "brand": "RA Sushi"}, "geometry": {"type": "Point", "coordinates": [-118.2610677, 33.8645988]}},
{"type": "Feature", "id": "fqccOdDpcSH-AQG68YGp-4-mV3Q=", "properties": {"ref": "yankee-stadium-ny", "@spider": "ra_sushi", "addr:city": "The Bronx", "addr:state": "NY", "addr:postcode": "10451", "addr:country": "US", "name": "YANKEE STADIUM, NY", "website": "https://rasushi.com/locations/yankee-stadium-ny/", "brand": "RA Sushi"}, "geometry": {"type": "Point", "coordinates": [-73.9278437, 40.8292979]}},
{"type": "Feature", "id": "Krplf0c6CXI_QXEmbHMFHXMQwhY=", "properties": {"ref": "ft-lauderdale", "@spider": "ra_sushi", "addr:city": "Ft. Lauderdale", "addr:state": "FL", "addr:country": "US", "name": "FT. LAUDERDALE, FL", "website": "https://rasushi.com/locations/ft-lauderdale/", "brand": "RA Sushi"}, "geometry": {"type": "Point", "coordinates": [-80.13731740000001, 26.1224386]}},
{"type": "Feature", "id": "AFealgPU0mCNNKHW_x1oB1DGsp4=", "properties": {"ref": "pinecrest", "@spider": "ra_sushi", "addr:city": "Pinecrest", "addr:state": "FL", "addr:country": "US", "name": "PINECREST, FL", "website": "https://rasushi.com/locations/pinecrest/", "brand": "RA Sushi"}, "geometry": {"type": "Point", "coordinates": [-80.3070395, 25.6622835]}},
{"type": "Feature", "id": "677n-8e1PSzOXLuFCnDzHAvgqcA=", "properties": {"ref": "new-york-west-ny", "@spider": "ra_sushi", "addr:city": "New York", "addr:state": "NY", "addr:country": "US", "name": "New York West, NY", "website": "https://rasushi.com/locations/new-york-west-ny/", "brand": "RA Sushi"}, "geometry": {"type": "Point", "coordinates": [-73.976546, 40.763433]}},
{"type": "Feature", "id": "G41Ua76SmgTMO22og0a2jWXhwc8=", "properties": {"ref": "scottsdale-az", "@spider": "ra_sushi", "addr:city": "Scottsdale", "addr:state": "AZ", "addr:country": "US", "name": "SCOTTSDALE, AZ", "website": "https://rasushi.com/locations/scottsdale-az/", "brand": "RA Sushi"}, "geometry": {"type": "Point", "coordinates": [-111.9260519, 33.4941704]}},
{"type": "Feature", "id": "FxXPnGw-Yu-VpspLhMM5NT8s7UI=", "properties": {"ref": "sugarland", "@spider": "ra_sushi", "addr:city": "Sugarland", "addr:state": "TX", "addr:country": "US", "name": "SUGARLAND, TX", "website": "https://rasushi.com/locations/sugarland/", "brand": "RA Sushi"}, "geometry": {"type": "Point", "coordinates": [-95.6225521, 29.5984434]}},
{"type": "Feature", "id": "-0rIXgpj6ZLeTkDOEPbTxpBZ8-c=", "properties": {"ref": "las-colinas", "@spider": "ra_sushi", "addr:city": "LAS COLINAS", "addr:state": "TX", "addr:country": "US", "name": "LAS COLINAS, TX", "website": "https://rasushi.com/locations/las-colinas/", "brand": "RA Sushi"}, "geometry": {"type": "Point", "coordinates": [-96.9588229, 32.8958605]}},
{"type": "Feature", "id": "FR7HOq5DWfkLP3Gp8vgrh9EEuaU=", "properties": {"ref": "denver", "@spider": "ra_sushi", "addr:city": "Denver", "addr:state": "CO", "addr:country": "US", "name": "DENVER, CO", "website": "https://rasushi.com/locations/denver/", "brand": "RA Sushi"}, "geometry": {"type": "Point", "coordinates": [-104.990251, 39.7392358]}},
{"type": "Feature", "id": "Jx69alOJ6DUIjEKmciYOAmKUn14=", "properties": {"ref": "coral-springs", "@spider": "ra_sushi", "addr:city": "Coral Spring", "addr:state": "FL", "addr:country": "US", "name": "CORAL SPRINGS, FL", "website": "https://rasushi.com/locations/coral-springs/", "brand": "RA Sushi"}, "geometry": {"type": "Point", "coordinates": [-80.2706044, 26.271192]}},
{"type": "Feature", "id": "3Ir7b4CoI4KYfiomLxqfyE5AqK4=", "properties": {"ref": "columbus", "@spider": "ra_sushi", "addr:city": "Columbus", "addr:state": "OH", "addr:country": "US", "name": "COLUMBUS, OH", "website": "https://rasushi.com/locations/columbus/", "brand": "RA Sushi"}, "geometry": {"type": "Point", "coordinates": [-82.99879419999999, 39.9611755]}},
{"type": "Feature", "id": "8jgmZ32OwERHvV3YY8peku_nwfU=", "properties": {"ref": "beaverton-or", "@spider": "ra_sushi", "addr:city": "BEAVERTON", "addr:state": "OR", "addr:country": "US", "name": "BEAVERTON, OR", "website": "https://rasushi.com/locations/beaverton-or/", "brand": "RA Sushi"}, "geometry": {"type": "Point", "coordinates": [-122.8013771, 45.4888761]}},
{"type": "Feature", "id": "nWZMI3fqq0qx6SuMoQZ3mUMxY2Y=", "properties": {"ref": "woodlands", "@spider": "ra_sushi", "addr:city": "Woodlands", "addr:state": "TX", "addr:country": "US", "name": "WOODLANDS, TX", "website": "https://rasushi.com/locations/woodlands/", "brand": "RA Sushi"}, "geometry": {"type": "Point", "coordinates": [-95.46126249999999, 30.1658207]}},
{"type": "Feature", "id": "xTC2qZPauUTNlDDwpLdxExX5TGU=", "properties": {"ref": "troy", "@spider": "ra_sushi", "addr:city": "Troy", "addr:state": "MN", "addr:country": "US", "name": "TROY, MI", "website": "https://rasushi.com/locations/troy/", "brand": "RA Sushi"}, "geometry": {"type": "Point", "coordinates": [-83.1497751, 42.6064095]}},
{"type": "Feature", "id": "ZobfTuGXkJl56QluJEt5TLt3Wz0=", "properties": {"ref": "stuart", "@spider": "ra_sushi", "addr:city": "Stuart", "addr:state": "FL", "addr:country": "US", "name": "STUART, FL", "website": "https://rasushi.com/locations/stuart/", "brand": "RA Sushi"}, "geometry": {"type": "Point", "coordinates": [-80.2528257, 27.197548]}},
{"type": "Feature", "id": "Jp619-peNZBsZQ4Hy49B-pKBTjg=", "properties": {"ref": "santa-anita", "@spider": "ra_sushi", "addr:city": "Santa Anita", "addr:state": "CA", "addr:country": "US", "name": "SANTA  ANITA \u2013 CA", "website": "https://rasushi.com/locations/santa-anita/", "brand": "RA Sushi"}, "geometry": {"type": "Point", "coordinates": [-118.0497899, 34.1455624]}},
{"type": "Feature", "id": "Z8QP70Q4IbX-qzyL160trupjg8M=", "properties": {"ref": "san-francisco-ca", "@spider": "ra_sushi", "addr:city": "San Francisco", "addr:state": "CA", "addr:country": "US", "name": "SAN FRANCISCO, CA", "website": "https://rasushi.com/locations/san-francisco-ca/", "brand": "RA Sushi"}, "geometry": {"type": "Point", "coordinates": [-122.4194155, 37.7749295]}},
{"type": "Feature", "id": "tlLk79tH1hMe2JnyAKiZB8FEQr4=", "properties": {"ref": "puente-hills", "@spider": "ra_sushi", "addr:city": "Puente Hills", "addr:state": "CA", "addr:country": "US", "name": "PUENTE HILLS, CA", "website": "https://rasushi.com/locations/puente-hills/", "brand": "RA Sushi"}, "geometry": {"type": "Point", "coordinates": [-117.9175627, 33.9997344]}},
{"type": "Feature", "id": "FCFG91sV6fMzIdiEphb7jSY8W94=", "properties": {"ref": "pittsburgh", "@spider": "ra_sushi", "addr:city": "Pittsburgh", "addr:state": "PA", "addr:country": "US", "name": "PITTSBURGH, PA", "website": "https://rasushi.com/locations/pittsburgh/", "brand": "RA Sushi"}, "geometry": {"type": "Point", "coordinates": [-79.9958864, 40.44062479999999]}},
{"type": "Feature", "id": "_xtOZZqn0yEF63tQP2N0hKzBS6g=", "properties": {"ref": "orlando-fl", "@spider": "ra_sushi", "addr:city": "Orlando", "addr:state": "FL", "addr:country": "US", "name": "ORLANDO \u2013 INT\u2019L DRIVE, FL", "website": "https://rasushi.com/locations/orlando-fl/", "brand": "RA Sushi"}, "geometry": {"type": "Point", "coordinates": [-81.3792365, 28.5383355]}},
{"type": "Feature", "id": "2w2XvLMrPfhWvE3vkYKRHSb94mQ=", "properties": {"ref": "ontario", "@spider": "ra_sushi", "addr:city": "Ontario", "addr:state": "CA", "addr:country": "US", "name": "ONTARIO, CA", "website": "https://rasushi.com/locations/ontario/", "brand": "RA Sushi"}, "geometry": {"type": "Point", "coordinates": [-117.6508876, 34.0633443]}},
{"type": "Feature", "id": "NEAn_Vbq-h7b6iCJm0_4ugQtfZg=", "properties": {"ref": "newport-beach", "@spider": "ra_sushi", "addr:city": "Newport Beach", "addr:state": "CA", "addr:country": "US", "name": "NEWPORT BEACH, CA", "website": "https://rasushi.com/locations/newport-beach/", "brand": "RA Sushi"}, "geometry": {"type": "Point", "coordinates": [-117.9298493, 33.6188829]}},
{"type": "Feature", "id": "b1A2HCzaxGkgTr3kl-OaEUERF-Q=", "properties": {"ref": "miami-beach", "@spider": "ra_sushi", "addr:city": "Miami Beach", "addr:state": "FL", "addr:country": "US", "name": "MIAMI BEACH, FL", "website": "https://rasushi.com/locations/miami-beach/", "brand": "RA Sushi"}, "geometry": {"type": "Point", "coordinates": [-80.1300455, 25.790654]}},
{"type": "Feature", "id": "nuCaY3gsDJ-cs0irZoS6_4AYtKk=", "properties": {"ref": "maple-grove", "@spider": "ra_sushi", "addr:city": "Mapple Grove", "addr:state": "MN", "addr:country": "US", "name": "MAPLE GROVE, MN", "website": "https://rasushi.com/locations/maple-grove/", "brand": "RA Sushi"}, "geometry": {"type": "Point", "coordinates": [-93.4557877, 45.0724642]}},
{"type": "Feature", "id": "oPegF-jw3vuFBJpkt6lv3aS8p3c=", "properties": {"ref": "mall-of-america", "@spider": "ra_sushi", "addr:city": "MALL OF AMERICA", "addr:state": "MN", "addr:country": "US", "name": "MALL OF AMERICA, MN", "website": "https://rasushi.com/locations/mall-of-america/", "brand": "RA Sushi"}, "geometry": {"type": "Point", "coordinates": [-93.2422148, 44.8548651]}},
{"type": "Feature", "id": "2A9qC2NIIhzvhtp2RbrRHJjpF0U=", "properties": {"ref": "cupertino", "@spider": "ra_sushi", "addr:city": "Cupertino", "addr:state": "CA", "addr:country": "US", "name": "CUPERTINO, CA", "website": "https://rasushi.com/locations/cupertino/", "brand": "RA Sushi"}, "geometry": {"type": "Point", "coordinates": [-122.0321823, 37.3229978]}},
{"type": "Feature", "id": "xli66WVv5X6uGPxBLZHLm_Ut29k=", "properties": {"ref": "houston-westheimer", "@spider": "ra_sushi", "addr:city": "WESTHEIMER", "addr:state": "TX", "addr:country": "US", "name": "HOUSTON WESTHEIMER, TX", "website": "https://rasushi.com/locations/houston-westheimer/", "brand": "RA Sushi"}, "geometry": {"type": "Point", "coordinates": [-95.5425326, 29.7370517]}},
{"type": "Feature", "id": "ZwAWSgW5t2Bjr6y1ZWEWp-5w4BU=", "properties": {"ref": "houston-downtown", "@spider": "ra_sushi", "addr:city": "HOUSTON DOWNTOWN", "addr:state": "TX", "addr:country": "US", "name": "HOUSTON DOWNTOWN, TX", "website": "https://rasushi.com/locations/houston-downtown/", "brand": "RA Sushi"}, "geometry": {"type": "Point", "coordinates": [-95.3573194, 29.7559698]}},
{"type": "Feature", "id": "masyLyzkV77TMg6uqPtp3VHpQPk=", "properties": {"ref": "golden-valley-mn", "@spider": "ra_sushi", "addr:city": "Golden Valley", "addr:state": "MN", "addr:country": "US", "name": "GOLDEN VALLEY, MN", "website": "https://rasushi.com/locations/golden-valley-mn/", "brand": "RA Sushi"}, "geometry": {"type": "Point", "coordinates": [-93.3600034, 44.9917149]}},
{"type": "Feature", "id": "jEa1LsZTFFkrQtd3w0coCYaGV_Q=", "properties": {"ref": "farmington", "@spider": "ra_sushi", "addr:city": "Farmington", "addr:state": "MI", "addr:country": "US", "name": "FARMINGTON HILLS, MI", "website": "https://rasushi.com/locations/farmington/", "brand": "RA Sushi"}, "geometry": {"type": "Point", "coordinates": [-83.359177, 42.484669]}},
{"type": "Feature", "id": "j4w8_YbnqXWPuJ1BfpHoHYxikck=", "properties": {"ref": "encino-ca", "@spider": "ra_sushi", "addr:city": "Encino", "addr:state": "CA", "addr:country": "US", "name": "ENCINO, CA", "website": "https://rasushi.com/locations/encino-ca/", "brand": "RA Sushi"}, "geometry": {"type": "Point", "coordinates": [-118.5214282, 34.1517492]}},
{"type": "Feature", "id": "D4FqKyaFk0Gn8WX3_3RSzEVo1dg=", "properties": {"ref": "dulles", "@spider": "ra_sushi", "addr:city": "Dulles", "addr:state": "VA", "addr:country": "US", "name": "DULLES, VA", "website": "https://rasushi.com/locations/dulles/", "brand": "RA Sushi"}, "geometry": {"type": "Point", "coordinates": [-77.4380485, 38.9624899]}},
{"type": "Feature", "id": "taXNKJv2gtsHcq8WzMl_Z1kQJeY=", "properties": {"ref": "downey", "@spider": "ra_sushi", "addr:city": "Downey", "addr:state": "CA", "addr:country": "US", "name": "DOWNEY, CA", "website": "https://rasushi.com/locations/downey/", "brand": "RA Sushi"}, "geometry": {"type": "Point", "coordinates": [-118.1331593, 33.9401088]}},
{"type": "Feature", "id": "J6XbjdPYdTVhBtQbPXKCc4_serg=", "properties": {"ref": "plymouth-pa", "@spider": "ra_sushi", "addr:city": "Plymouth", "addr:state": "PA", "addr:country": "US", "name": "Plymouth, PA", "website": "https://rasushi.com/locations/plymouth-pa/", "brand": "RA Sushi"}, "geometry": {"type": "Point", "coordinates": [-70.6672621, 41.9584457]}},
{"type": "Feature", "id": "OHaBbRwB6HNIKfyjQZImAohj6Ug=", "properties": {"ref": "memphis-tn", "@spider": "ra_sushi", "addr:city": "Memphis", "addr:state": "TN", "addr:country": "US", "name": "Memphis, TN", "website": "https://rasushi.com/locations/memphis-tn/", "brand": "RA Sushi"}, "geometry": {"type": "Point", "coordinates": [-90.0489801, 35.1495343]}},
{"type": "Feature", "id": "TcuE8iKVUj5_zOjcmoNAEE9--Qo=", "properties": {"ref": "manhasset-ny", "@spider": "ra_sushi", "addr:city": "Manhasset", "addr:state": "NY", "addr:country": "US", "name": "Manhasset, NY", "website": "https://rasushi.com/locations/manhasset-ny/", "brand": "RA Sushi"}, "geometry": {"type": "Point", "coordinates": [-73.66968, 40.79696]}},
{"type": "Feature", "id": "-9vM_SafmHgHzx7e4zy0B_sLWZ0=", "properties": {"ref": "indianapolis-in", "@spider": "ra_sushi", "addr:city": "Indianapolis", "addr:state": "IN", "addr:country": "US", "name": "Indianapolis, IN", "website": "https://rasushi.com/locations/indianapolis-in/", "brand": "RA Sushi"}, "geometry": {"type": "Point", "coordinates": [-86.110143, 39.916051]}},
{"type": "Feature", "id": "8v8mjtV6wZgLmJxtGLXsL8rlqbY=", "properties": {"ref": "dallas", "@spider": "ra_sushi", "addr:city": "Dallas", "addr:state": "TX", "addr:country": "US", "name": "DALLAS, TX", "website": "https://rasushi.com/locations/dallas/", "brand": "RA Sushi"}, "geometry": {"type": "Point", "coordinates": [-96.79698789999999, 32.7766642]}},
{"type": "Feature", "id": "lWkC2oMd5x6b7JWtlMz-F6EI1zU=", "properties": {"ref": "coral-gables", "@spider": "ra_sushi", "addr:city": "Coral Gables", "addr:state": "FL", "addr:country": "US", "name": "CORAL GABLES, FL", "website": "https://rasushi.com/locations/coral-gables/", "brand": "RA Sushi"}, "geometry": {"type": "Point", "coordinates": [-80.2635411, 25.7491968]}},
{"type": "Feature", "id": "QaOEeTXZmzmRc0m8kK86kFTkauo=", "properties": {"ref": "concord", "@spider": "ra_sushi", "addr:city": "Concord", "addr:state": "CA", "addr:country": "US", "name": "CONCORD, CA", "website": "https://rasushi.com/locations/concord/", "brand": "RA Sushi"}, "geometry": {"type": "Point", "coordinates": [-122.031326, 37.979099]}},
{"type": "Feature", "id": "gTf5zDPu300Ezi70fCFWlgj-BJU=", "properties": {"ref": "cleveland-oh", "@spider": "ra_sushi", "addr:city": "Cleveland", "addr:state": "OH", "addr:country": "US", "name": "CLEVELAND, OH", "website": "https://rasushi.com/locations/cleveland-oh/", "brand": "RA Sushi"}, "geometry": {"type": "Point", "coordinates": [-81.6943605, 41.49932]}},
{"type": "Feature", "id": "BX8D4rV_jmUGl0FZEdyLpwfBoCU=", "properties": {"ref": "schaumburg", "@spider": "ra_sushi", "addr:city": "Schaumburg", "addr:state": "I", "addr:country": "US", "name": "SCHAUMBURG, IL", "website": "https://rasushi.com/locations/schaumburg/", "brand": "RA Sushi"}, "geometry": {"type": "Point", "coordinates": [-88.0834059, 42.0333607]}},
{"type": "Feature", "id": "VnA734VZ1gwzfhDsvsdYumTkuzs=", "properties": {"ref": "wheeling", "@spider": "ra_sushi", "addr:city": "Wheeling", "addr:state": "IL", "addr:country": "US", "name": "WHEELING, IL", "website": "https://rasushi.com/locations/wheeling/", "brand": "RA Sushi"}, "geometry": {"type": "Point", "coordinates": [-87.926323, 42.139359]}},
{"type": "Feature", "id": "PNG7METEmNWPU2t-FNcu9snfJWA=", "properties": {"ref": "alpharetta", "@spider": "ra_sushi", "addr:city": "Alpharetta", "addr:state": "GA", "addr:country": "US", "name": "ALPHARETTA, GA", "website": "https://rasushi.com/locations/alpharetta/", "brand": "RA Sushi"}, "geometry": {"type": "Point", "coordinates": [-84.29409, 34.075375]}},
{"type": "Feature", "id": "WLqvhWjCY49QJim-aQmLNIOoIuU=", "properties": {"ref": "hard-rock-stadium", "@spider": "ra_sushi", "addr:city": "Miami Gardens", "addr:state": "FL", "addr:postcode": "33056", "addr:country": "US", "name": "HARD ROCK STADIUM, MIAMI, FL", "website": "https://rasushi.com/locations/hard-rock-stadium/", "brand": "RA Sushi"}, "geometry": {"type": "Point", "coordinates": [-80.2387705, 25.9578662]}},
{"type": "Feature", "id": "gRvKzBC2sR194yQV5OA3KRpIenA=", "properties": {"ref": "t-mobile-center-kansas-mo", "@spider": "ra_sushi", "addr:city": "Kansas City", "addr:state": "MO", "addr:postcode": "64106", "addr:country": "US", "name": "T-MOBILE CENTER, KANSAS CITY, MO", "website": "https://rasushi.com/locations/t-mobile-center-kansas-mo/", "brand": "RA Sushi"}, "geometry": {"type": "Point", "coordinates": [-94.5799392, 39.0972997]}}]}