{"type":"FeatureCollection","features":[{"type": "Feature", "id": "_6F9gpDWYrg-XeYY0YvtvxMYi3s=", "properties": {"ref": "RR3679", "@spider": "redrooster_au", "amenity": "fast_food", "cuisine": "chicken", "takeaway": "yes", "addr:street_address": "Cnr Dromana & Mathews Ave", "addr:city": "Airport West", "addr:state": "VIC", "addr:postcode": "3042", "addr:country": "AU", "name": "Airport West", "phone": "03 9330 4617", "brand": "Red Rooster", "brand:wikidata": "Q376466", "nsi_id": "redrooster-d43c69"}, "geometry": {"type": "Point", "coordinates": [144.8899344, -37.7134282]}},
{"type": "Feature", "id": "uEhWPNHcRLyQEhJ4QQk6gAXevYA=", "properties": {"ref": "RR4765", "@spider": "redrooster_au", "amenity": "fast_food", "cuisine": "chicken", "takeaway": "yes", "addr:street_address": "Cnr Ross River Road & Acheron Avenue", "addr:city": "Aitkenvale", "addr:state": "QLD", "addr:postcode": "4814", "addr:country": "AU", "name": "Aitkenvale", "phone": "07 4775 1914", "brand": "Red Rooster", "brand:wikidata": "Q376466", "nsi_id": "redrooster-d43c69"}, "geometry": {"type": "Point", "coordinates": [146.7594138, -19.2986593]}},
{"type": "Feature", "id": "MWjWefFcJsZxfNwOqaXa28Uqlng=", "properties": {"ref": "RR6571", "@spider": "redrooster_au", "amenity": "fast_food", "cuisine": "chicken", "takeaway": "yes", "addr:street_address": "87 Lockyer Road", "addr:city": "Albany", "addr:state": "WA", "addr:postcode": "6330", "addr:country": "AU", "name": "Albany", "phone": "08 9841 2033", "brand": "Red Rooster", "brand:wikidata": "Q376466", "nsi_id": "redrooster-d43c69"}, "geometry": {"type": "Point", "coordinates": [117.8837156, -35.0173657]}},
{"type": "Feature", "id": "j5u2WL9C7BMQvOWIZ_IPbuA-0es=", "properties": {"ref": "RR4769", "@spider": "redrooster_au", "amenity": "fast_food", "cuisine": "chicken", "takeaway": "yes", "addr:street_address": "5 - 7 Albany Forest Drive", "addr:city": "Albany Creek", "addr:state": "QLD", "addr:postcode": "4035", "addr:country": "AU", "name": "Albany Creek", "phone": "07 3325 4894", "brand": "Red Rooster", "brand:wikidata": "Q376466", "nsi_id": "redrooster-d43c69"}, "geometry": {"type": "Point", "coordinates": [152.9688046, -27.3581953]}},
{"type": "Feature", "id": "HUwDMm8benNuy-RjaXNy7UQ7O84=", "properties": {"ref": "RR6611", "@spider": "redrooster_au", "amenity": "fast_food", "cuisine": "chicken", "takeaway": "yes", "addr:street_address": "Shop 55 Alexander Heights Shopping Centre, Corner Mirrabooka Avenue and Griffon Way", "addr:city": "Alexander Heights", "addr:state": "WA", "addr:postcode": "6064", "addr:country": "AU", "name": "Alexander Heights", "phone": "08 9342 8410", "brand": "Red Rooster", "brand:wikidata": "Q376466", "nsi_id": "redrooster-d43c69"}, "geometry": {"type": "Point", "coordinates": [115.8534826, -31.8295959]}},
{"type": "Feature", "id": "oCROghn3CpTaFdU9IW_hPffgiE0=", "properties": {"ref": "RR4688", "@spider": "redrooster_au", "amenity": "fast_food", "cuisine": "chicken", "takeaway": "yes", "addr:street_address": "Alexandra Hills S/C  Finucane Rd. @ Cambridge Dr.", "addr:city": "Alexandra Hills", "addr:state": "QLD", "addr:postcode": "4161", "addr:country": "AU", "name": "Alexandra Hills", "phone": "07 3824 1949", "brand": "Red Rooster", "brand:wikidata": "Q376466", "nsi_id": "redrooster-d43c69"}, "geometry": {"type": "Point", "coordinates": [153.2216608, -27.5236086]}},
{"type": "Feature", "id": "N4-hAOm54P9Q6dmP6Rigu2AcS6Q=", "properties": {"ref": "RR4869", "@spider": "redrooster_au", "amenity": "fast_food", "cuisine": "chicken", "takeaway": "yes", "addr:street_address": "36 Algester Road", "addr:city": "Algester", "addr:state": "QLD", "addr:postcode": "4115", "addr:country": "AU", "name": "Algester", "phone": "07 3272 3897", "brand": "Red Rooster", "brand:wikidata": "Q376466", "nsi_id": "redrooster-d43c69"}, "geometry": {"type": "Point", "coordinates": [153.0438024, -27.6055426]}},
{"type": "Feature", "id": "ZmVbmqd35TfbJe6SP6x-yKDAU00=", "properties": {"ref": "RR1516", "@spider": "redrooster_au", "amenity": "fast_food", "cuisine": "chicken", "takeaway": "yes", "addr:street_address": "Cnr. Parsons Rd & Railway Ave.", "addr:city": "Alice Springs", "addr:state": "NT", "addr:postcode": "0870", "addr:country": "AU", "name": "Alice Springs", "phone": "08 8953 8775", "brand": "Red Rooster", "brand:wikidata": "Q376466", "nsi_id": "redrooster-d43c69"}, "geometry": {"type": "Point", "coordinates": [133.879121, -23.6968143]}},
{"type": "Feature", "id": "MhtZlcirlSozJzbiBrzFmVzLUCs=", "properties": {"ref": "RR3712", "@spider": "redrooster_au", "amenity": "fast_food", "cuisine": "chicken", "takeaway": "yes", "addr:street_address": "154-156 Central Avenue", "addr:city": "Altona Meadows", "addr:state": "VIC", "addr:postcode": "3028", "addr:country": "AU", "name": "Altona Meadows", "phone": "03 7007 8016", "brand": "Red Rooster", "brand:wikidata": "Q376466", "nsi_id": "redrooster-d43c69"}, "geometry": {"type": "Point", "coordinates": [144.7630219, -37.8700142]}},
{"type": "Feature", "id": "ZNU875npQRBTDgVbqmU_upSo960=", "properties": {"ref": "RR4848", "@spider": "redrooster_au", "amenity": "fast_food", "cuisine": "chicken", "takeaway": "yes", "addr:street_address": "Corner Dawson Parade and Patricks Road", "addr:city": "Arana Hills", "addr:state": "QLD", "addr:postcode": "4054", "addr:country": "AU", "name": "Arana Hills", "phone": "07 3351 5552", "brand": "Red Rooster", "brand:wikidata": "Q376466", "nsi_id": "redrooster-d43c69"}, "geometry": {"type": "Point", "coordinates": [152.961036, -27.3976997]}},
{"type": "Feature", "id": "gyi0GBdyKVJ4PFOLCyTIXxg8D1k=", "properties": {"ref": "RR6619", "@spider": "redrooster_au", "amenity": "fast_food", "cuisine": "chicken", "takeaway": "yes", "addr:street_address": "Armadale Plaza Corner Third Road and Jull Street", "addr:city": "Armadale", "addr:state": "WA", "addr:postcode": "6112", "addr:country": "AU", "name": "Armadale", "phone": "08 6157 5362", "brand": "Red Rooster", "brand:wikidata": "Q376466", "nsi_id": "redrooster-d43c69"}, "geometry": {"type": "Point", "coordinates": [116.0155556, -32.1536111]}},
{"type": "Feature", "id": "dU9OBTOwyg820f71pDFcX9L7nrk=", "properties": {"ref": "RR2677", "@spider": "redrooster_au", "amenity": "fast_food", "cuisine": "chicken", "takeaway": "yes", "addr:street_address": "Unit 2, 146 Marsh Street", "addr:city": "Armidale", "addr:state": "NSW", "addr:postcode": "2350", "addr:country": "AU", "name": "Armidale", "phone": "02 6771 5111", "brand": "Red Rooster", "brand:wikidata": "Q376466", "nsi_id": "redrooster-d43c69"}, "geometry": {"type": "Point", "coordinates": [151.6673508, -30.5175819]}},
{"type": "Feature", "id": "9EavX4YqsS9PFCUg1qadqVfgrvk=", "properties": {"ref": "RR5632", "@spider": "redrooster_au", "amenity": "fast_food", "cuisine": "chicken", "takeaway": "yes", "addr:street_address": "Torrens Rd & Regency Rd", "addr:city": "Kilkenny", "addr:state": "SA", "addr:postcode": "5009", "addr:country": "AU", "name": "Arndale", "phone": "08 8243 0261", "brand": "Red Rooster", "brand:wikidata": "Q376466", "nsi_id": "redrooster-d43c69"}, "geometry": {"type": "Point", "coordinates": [138.5508897, -34.8766772]}},
{"type": "Feature", "id": "ROJrTRgcuaWOQdB1tfPj0yoQhWo=", "properties": {"ref": "RR3716", "@spider": "redrooster_au", "amenity": "fast_food", "cuisine": "chicken", "takeaway": "yes", "addr:street_address": "115 Mt Alexander Road", "addr:city": "Ascot Vale", "addr:state": "VIC", "addr:postcode": "3032", "addr:country": "AU", "name": "Ascot Vale", "phone": "03 9376 5198", "brand": "Red Rooster", "brand:wikidata": "Q376466", "nsi_id": "redrooster-d43c69"}, "geometry": {"type": "Point", "coordinates": [144.9352621, -37.7833905]}},
{"type": "Feature", "id": "WMS8Lsf-bIjayaXsOePoEbarxtI=", "properties": {"ref": "RR4801", "@spider": "redrooster_au", "amenity": "fast_food", "cuisine": "chicken", "takeaway": "yes", "addr:street_address": "Shop 15  486 Waterworks Road", "addr:city": "Ashgrove", "addr:state": "QLD", "addr:postcode": "4060", "addr:country": "AU", "name": "Ashgrove West Reggie", "phone": "07 3366 5903", "brand": "Red Rooster", "brand:wikidata": "Q376466", "nsi_id": "redrooster-d43c69"}, "geometry": {"type": "Point", "coordinates": [152.9781772, -27.4494639]}},
{"type": "Feature", "id": "oAj7L3l6Oj19eUyVHnyv6-rbqCI=", "properties": {"ref": "RR4651", "@spider": "redrooster_au", "amenity": "fast_food", "cuisine": "chicken", "takeaway": "yes", "addr:street_address": "149 Cotlew St.", "addr:city": "Ashmore", "addr:state": "QLD", "addr:postcode": "4214", "addr:country": "AU", "name": "Ashmore", "phone": "07 5597 1388", "brand": "Red Rooster", "brand:wikidata": "Q376466", "nsi_id": "redrooster-d43c69"}, "geometry": {"type": "Point", "coordinates": [153.3838188, -27.9860549]}},
{"type": "Feature", "id": "HeBCG-REKTlNnjlKYd1OE5rL3YQ=", "properties": {"ref": "RR4751", "@spider": "redrooster_au", "amenity": "fast_food", "cuisine": "chicken", "takeaway": "yes", "addr:street_address": "Homebase Centre  Cnr. Zillmere & Gympie Rds.", "addr:city": "Aspley", "addr:state": "QLD", "addr:postcode": "4034", "addr:country": "AU", "name": "Aspley", "phone": "07 3478 9489", "brand": "Red Rooster", "brand:wikidata": "Q376466", "nsi_id": "redrooster-d43c69"}, "geometry": {"type": "Point", "coordinates": [153.0178066, -27.355191]}},
{"type": "Feature", "id": "eQ4PhCE-AwrZxs38vWrj5ksiOWk=", "properties": {"ref": "RR4834", "@spider": "redrooster_au", "amenity": "fast_food", "cuisine": "chicken", "takeaway": "yes", "addr:street_address": "5 Gateway Drive,", "addr:city": "Augustine Heights", "addr:state": "QLD", "addr:postcode": "4300", "addr:country": "AU", "name": "Augustine Heights", "phone": "07 3062 9855", "brand": "Red Rooster", "brand:wikidata": "Q376466", "nsi_id": "redrooster-d43c69"}, "geometry": {"type": "Point", "coordinates": [152.8961606, -27.6711944]}},
{"type": "Feature", "id": "FBu-irGhmvuIPsyRRcw-g7Q_uHY=", "properties": {"ref": "RR4703", "@spider": "redrooster_au", "amenity": "fast_food", "cuisine": "chicken", "takeaway": "yes", "addr:street_address": "220 - 226 Queen St.", "addr:city": "Ayr", "addr:state": "QLD", "addr:postcode": "4807", "addr:country": "AU", "name": "Ayr", "phone": "07 3478 9499", "brand": "Red Rooster", "brand:wikidata": "Q376466", "nsi_id": "redrooster-d43c69"}, "geometry": {"type": "Point", "coordinates": [147.4026812, -19.5791548]}},
{"type": "Feature", "id": "NLFQJfUJLK1Sk_mmnhguU8iFM68=", "properties": {"ref": "RR6530", "@spider": "redrooster_au", "amenity": "fast_food", "cuisine": "chicken", "takeaway": "yes", "addr:street_address": "Northlands S/C Cnr Wanneroo Road & Amelia Street", "addr:city": "Balcatta", "addr:state": "WA", "addr:postcode": "6021", "addr:country": "AU", "name": "Balcatta Northlands", "phone": "08 6157 5368", "brand": "Red Rooster", "brand:wikidata": "Q376466", "nsi_id": "redrooster-d43c69"}, "geometry": {"type": "Point", "coordinates": [115.8304248, -31.8734458]}},
{"type": "Feature", "id": "qLqNlFiOex-NqPBvgCpAbMTaD_Y=", "properties": {"ref": "RR6594", "@spider": "redrooster_au", "amenity": "fast_food", "cuisine": "chicken", "takeaway": "yes", "addr:street_address": "Stockland Baldivis SC  Safety Bay Road", "addr:city": "Baldivis", "addr:state": "WA", "addr:postcode": "6171", "addr:country": "AU", "name": "Baldivis", "phone": "08 9523 0000", "brand": "Red Rooster", "brand:wikidata": "Q376466", "nsi_id": "redrooster-d43c69"}, "geometry": {"type": "Point", "coordinates": [115.8157409, -32.3323541]}},
{"type": "Feature", "id": "tSGxILFRKQyYtx72z1VqoKaaPzw=", "properties": {"ref": "RR6597", "@spider": "redrooster_au", "amenity": "fast_food", "cuisine": "chicken", "takeaway": "yes", "addr:street_address": "191 Paparone Road", "addr:city": "Baldivis", "addr:state": "WA", "addr:postcode": "6171", "addr:country": "AU", "name": "Baldivis Service Centre North", "phone": "08 9523 0545", "brand": "Red Rooster", "brand:wikidata": "Q376466", "nsi_id": "redrooster-d43c69"}, "geometry": {"type": "Point", "coordinates": [115.8301357, -32.3098487]}},
{"type": "Feature", "id": "_gCs79bXebxveU7_ZAXpkUp4KW0=", "properties": {"ref": "RR6598", "@spider": "redrooster_au", "amenity": "fast_food", "cuisine": "chicken", "takeaway": "yes", "addr:street_address": "Lot 192 Leary Road", "addr:city": "Baldivis", "addr:state": "WA", "addr:postcode": "6171", "addr:country": "AU", "name": "Baldivis Service Centre South", "phone": "08 9523 6628", "brand": "Red Rooster", "brand:wikidata": "Q376466", "nsi_id": "redrooster-d43c69"}, "geometry": {"type": "Point", "coordinates": [115.8329057, -32.3091612]}},
{"type": "Feature", "id": "5o2YirDj2Sfuk0OmSgVaHFq0vas=", "properties": {"ref": "RR6549", "@spider": "redrooster_au", "amenity": "fast_food", "cuisine": "chicken", "takeaway": "yes", "addr:street_address": "Ballajura Shopping Centre  Cnr. Kingfisher & Illawarra Crescent", "addr:city": "Ballajura", "addr:state": "WA", "addr:postcode": "6066", "addr:country": "AU", "name": "Ballajura", "phone": "08 6157 5366", "brand": "Red Rooster", "brand:wikidata": "Q376466", "nsi_id": "redrooster-d43c69"}, "geometry": {"type": "Point", "coordinates": [115.8963889, -31.8402778]}},
{"type": "Feature", "id": "UrZFSHU98IZb0iz2RoGIw-YXnQE=", "properties": {"ref": "RR3508", "@spider": "redrooster_au", "amenity": "fast_food", "cuisine": "chicken", "takeaway": "yes", "addr:street_address": "Cnr Sturt & Ascot St", "addr:city": "Ballarat", "addr:state": "VIC", "addr:postcode": "3350", "addr:country": "AU", "name": "Ballarat", "phone": "03 5332 2114", "brand": "Red Rooster", "brand:wikidata": "Q376466", "nsi_id": "redrooster-d43c69"}, "geometry": {"type": "Point", "coordinates": [143.8444996, -37.560265]}},
{"type": "Feature", "id": "c3DLE3QjQoSAClok_mTLlZ5y2Fo=", "properties": {"ref": "RR2735", "@spider": "redrooster_au", "amenity": "fast_food", "cuisine": "chicken", "takeaway": "yes", "addr:street_address": "856 Hume Highway", "addr:city": "Bass Hill", "addr:state": "NSW", "addr:postcode": "2137", "addr:country": "AU", "name": "Bass Hill", "phone": "02 8023 6853", "brand": "Red Rooster", "brand:wikidata": "Q376466", "nsi_id": "redrooster-d43c69"}, "geometry": {"type": "Point", "coordinates": [150.9998705, -33.9017728]}},
{"type": "Feature", "id": "93vFFC9FQcDAHF_wwENfpOxeQ54=", "properties": {"ref": "RR6608", "@spider": "redrooster_au", "amenity": "fast_food", "cuisine": "chicken", "takeaway": "yes", "addr:street_address": "Bassendean Shopping Centre  Cnr Extension & West Streets", "addr:city": "Bassendean", "addr:state": "WA", "addr:postcode": "6054", "addr:country": "AU", "name": "Bassendean", "phone": "08 6157 5332", "brand": "Red Rooster", "brand:wikidata": "Q376466", "nsi_id": "redrooster-d43c69"}, "geometry": {"type": "Point", "coordinates": [115.9533149, -31.90332249999999]}},
{"type": "Feature", "id": "a_n1Z3kN3gx3iF_8SPd8kxQRmNE=", "properties": {"ref": "RR2627", "@spider": "redrooster_au", "amenity": "fast_food", "cuisine": "chicken", "takeaway": "yes", "addr:street_address": "30 William Street", "addr:city": "Bathurst", "addr:state": "NSW", "addr:postcode": "2795", "addr:country": "AU", "name": "Bathurst", "phone": "02 7923 5752", "brand": "Red Rooster", "brand:wikidata": "Q376466", "nsi_id": "redrooster-d43c69"}, "geometry": {"type": "Point", "coordinates": [149.5839751, -33.4160519]}},
{"type": "Feature", "id": "4_6CpGzGQZCmE78SkV1q2AYpyE4=", "properties": {"ref": "RR3619", "@spider": "redrooster_au", "amenity": "fast_food", "cuisine": "chicken", "takeaway": "yes", "addr:street_address": "254 - 300 Canterbury Road", "addr:city": "Bayswater", "addr:state": "VIC", "addr:postcode": "3153", "addr:country": "AU", "name": "Bayswater VIC", "phone": "03 9738 0169", "brand": "Red Rooster", "brand:wikidata": "Q376466", "nsi_id": "redrooster-d43c69"}, "geometry": {"type": "Point", "coordinates": [145.2750606, -37.8301564]}},
{"type": "Feature", "id": "3p6dfhoB9iUe31C93JK631r1lpE=", "properties": {"ref": "RR6599", "@spider": "redrooster_au", "amenity": "fast_food", "cuisine": "chicken", "takeaway": "yes", "addr:street_address": "497 Guildford Road", "addr:city": "Bayswater", "addr:state": "WA", "addr:postcode": "6053", "addr:country": "AU", "name": "Bayswater WA", "phone": "08 9471 8261", "brand": "Red Rooster", "brand:wikidata": "Q376466", "nsi_id": "redrooster-d43c69"}, "geometry": {"type": "Point", "coordinates": [115.9203059, -31.9233672]}},
{"type": "Feature", "id": "d24kURFfWE-G1G-cx6TU_uMdDt8=", "properties": {"ref": "RR4842", "@spider": "redrooster_au", "amenity": "fast_food", "cuisine": "chicken", "takeaway": "yes", "addr:street_address": "Shop 3, 1 Oakland Way", "addr:city": "Beaudesert", "addr:state": "QLD", "addr:postcode": "4285", "addr:country": "AU", "name": "Beaudesert", "phone": "07 5541 1508", "brand": "Red Rooster", "brand:wikidata": "Q376466", "nsi_id": "redrooster-d43c69"}, "geometry": {"type": "Point", "coordinates": [153.0116305, -27.9937035]}},
{"type": "Feature", "id": "t-0UvJ7iX3yTcsNJigGhhQ1JxvM=", "properties": {"ref": "RR6525", "@spider": "redrooster_au", "amenity": "fast_food", "cuisine": "chicken", "takeaway": "yes", "addr:street_address": "Shop 28 Springs Shopping Centre  130 Bridgeman Drive", "addr:city": "Beechboro", "addr:state": "WA", "addr:postcode": "6063", "addr:country": "AU", "name": "Beechboro Bennett Springs", "phone": "08 6157 5347", "brand": "Red Rooster", "brand:wikidata": "Q376466", "nsi_id": "redrooster-d43c69"}, "geometry": {"type": "Point", "coordinates": [115.9258417, -31.8592578]}},
{"type": "Feature", "id": "86ySF7ScgMZa8tGME2bEXTkeTg4=", "properties": {"ref": "RR4847", "@spider": "redrooster_au", "amenity": "fast_food", "cuisine": "chicken", "takeaway": "yes", "addr:street_address": "Beenleigh S/C. 40 - 48 Main St.", "addr:city": "Beenleigh", "addr:state": "QLD", "addr:postcode": "4207", "addr:country": "AU", "name": "Beenleigh", "phone": "07 3478 9479", "brand": "Red Rooster", "brand:wikidata": "Q376466", "nsi_id": "redrooster-d43c69"}, "geometry": {"type": "Point", "coordinates": [153.202864, -27.7185934]}},
{"type": "Feature", "id": "EPV7w0gBqT8GNCukG-cGxCOPnIY=", "properties": {"ref": "RR6624", "@spider": "redrooster_au", "amenity": "fast_food", "cuisine": "chicken", "takeaway": "yes", "addr:street_address": "Cnr Eddystone Avenue & Ocean Reef Road", "addr:city": "Beldon", "addr:state": "WA", "addr:postcode": "6027", "addr:country": "AU", "name": "Beldon", "phone": "08 9307 7788", "brand": "Red Rooster", "brand:wikidata": "Q376466", "nsi_id": "redrooster-d43c69"}, "geometry": {"type": "Point", "coordinates": [115.7681555, -31.7699679]}},
{"type": "Feature", "id": "4h0ZZsFZCOfEHOQI3VwK4tUhZwE=", "properties": {"ref": "RR6529", "@spider": "redrooster_au", "amenity": "fast_food", "cuisine": "chicken", "takeaway": "yes", "addr:street_address": "Abernathy Road & Fulham Street", "addr:city": "Belmont", "addr:state": "WA", "addr:postcode": "6104", "addr:country": "AU", "name": "Belmont WA", "phone": "08 9277 6899", "brand": "Red Rooster", "brand:wikidata": "Q376466", "nsi_id": "redrooster-d43c69"}, "geometry": {"type": "Point", "coordinates": [115.938252, -31.964117]}},
{"type": "Feature", "id": "P4qd9rvJbCxJSGfM_pcprJnzWyE=", "properties": {"ref": "RR3669", "@spider": "redrooster_au", "amenity": "fast_food", "cuisine": "chicken", "takeaway": "yes", "addr:street_address": "135 High Street", "addr:city": "Bendigo", "addr:state": "VIC", "addr:postcode": "3550", "addr:country": "AU", "name": "Bendigo", "phone": "03 5441 6266", "brand": "Red Rooster", "brand:wikidata": "Q376466", "nsi_id": "redrooster-d43c69"}, "geometry": {"type": "Point", "coordinates": [144.2725051, -36.7620343]}},
{"type": "Feature", "id": "Sx6glpnpuAoPMLCiqPy7QFG7fUY=", "properties": {"ref": "RR3642", "@spider": "redrooster_au", "amenity": "fast_food", "cuisine": "chicken", "takeaway": "yes", "addr:street_address": "Berwick Homestead Road Commercial Centre  Cnr Clyde & Homestead Rds", "addr:city": "Berwick", "addr:state": "VIC", "addr:postcode": "3806", "addr:country": "AU", "name": "Berwick Springs", "phone": "03 8786 7054", "brand": "Red Rooster", "brand:wikidata": "Q376466", "nsi_id": "redrooster-d43c69"}, "geometry": {"type": "Point", "coordinates": [145.3390213, -38.0555746]}},
{"type": "Feature", "id": "U8wDIpsHFtZPhi-PfFiFupUdtEY=", "properties": {"ref": "RR6564", "@spider": "redrooster_au", "amenity": "fast_food", "cuisine": "chicken", "takeaway": "yes", "addr:street_address": "Northlake Road & Forrest Road", "addr:city": "Bibra Lake", "addr:state": "WA", "addr:postcode": "6163", "addr:country": "AU", "name": "Bibra Lake", "phone": "08 9395 7015", "brand": "Red Rooster", "brand:wikidata": "Q376466", "nsi_id": "redrooster-d43c69"}, "geometry": {"type": "Point", "coordinates": [115.8163764, -32.0905843]}},
{"type": "Feature", "id": "I153FPiW6IYEi-RD-2aWabRyPwg=", "properties": {"ref": "RR2688", "@spider": "redrooster_au", "amenity": "fast_food", "cuisine": "chicken", "takeaway": "yes", "addr:street_address": "2 Lyton Street", "addr:city": "Blacktown", "addr:state": "NSW", "addr:postcode": "2148", "addr:country": "AU", "name": "Blacktown", "phone": "02 9622 2596", "brand": "Red Rooster", "brand:wikidata": "Q376466", "nsi_id": "redrooster-d43c69"}, "geometry": {"type": "Point", "coordinates": [150.8941269, -33.757483]}},
{"type": "Feature", "id": "xDskH09qIRxkq7sd07omSyPCWlw=", "properties": {"ref": "RR2722", "@spider": "redrooster_au", "amenity": "fast_food", "cuisine": "chicken", "takeaway": "yes", "addr:street_address": "St Martins Village, 8 Bungarribee Road", "addr:city": "Blacktown East", "addr:state": "NSW", "addr:postcode": "2148", "addr:country": "AU", "name": "Blacktown East", "phone": "02 8023 6828", "brand": "Red Rooster", "brand:wikidata": "Q376466", "nsi_id": "redrooster-d43c69"}, "geometry": {"type": "Point", "coordinates": [150.9193364, -33.7794744]}},
{"type": "Feature", "id": "kVmMgtKi3gFi8vtZQTg4K4Ciq7M=", "properties": {"ref": "RR4707", "@spider": "redrooster_au", "amenity": "fast_food", "cuisine": "chicken", "takeaway": "yes", "addr:street_address": "Cnr. Bluff & Railway Sts.", "addr:city": "Blackwater", "addr:state": "QLD", "addr:postcode": "4717", "addr:country": "AU", "name": "Blackwater", "phone": "07 4982 6603", "brand": "Red Rooster", "brand:wikidata": "Q376466", "nsi_id": "redrooster-d43c69"}, "geometry": {"type": "Point", "coordinates": [148.8840614, -23.5856749]}},
{"type": "Feature", "id": "YSwq8iAHRmPa3qVuWsyeSIk3FB0=", "properties": {"ref": "RR2719", "@spider": "redrooster_au", "amenity": "fast_food", "cuisine": "chicken", "takeaway": "yes", "addr:street_address": "271 Princes Highway", "addr:city": "Bomaderry", "addr:state": "NSW", "addr:postcode": "2541", "addr:country": "AU", "name": "Bomaderry", "phone": "02 7923 5744", "brand": "Red Rooster", "brand:wikidata": "Q376466", "nsi_id": "redrooster-d43c69"}, "geometry": {"type": "Point", "coordinates": [150.5939979, -34.840016]}},
{"type": "Feature", "id": "UR8MMAyuimvs0Ou-AO4dEo-VaSc=", "properties": {"ref": "RR4760", "@spider": "redrooster_au", "amenity": "fast_food", "cuisine": "chicken", "takeaway": "yes", "addr:street_address": "Booval Fair S/C. 139 Brisbane Rd. Cnr. Station Rd.", "addr:city": "Booval", "addr:state": "QLD", "addr:postcode": "4304", "addr:country": "AU", "name": "Booval", "phone": "07 2105 1503", "brand": "Red Rooster", "brand:wikidata": "Q376466", "nsi_id": "redrooster-d43c69"}, "geometry": {"type": "Point", "coordinates": [152.7900807, -27.6159398]}},
{"type": "Feature", "id": "CY3RU09tEmKUDYUtCvHgYDJHyEw=", "properties": {"ref": "RR4508", "@spider": "redrooster_au", "amenity": "fast_food", "cuisine": "chicken", "takeaway": "yes", "addr:street_address": "Cnr. Leichardt & Livingstone Streets", "addr:city": "Bowen", "addr:state": "QLD", "addr:postcode": "4805", "addr:country": "AU", "name": "Bowen", "phone": "07 4786 1106", "brand": "Red Rooster", "brand:wikidata": "Q376466", "nsi_id": "redrooster-d43c69"}, "geometry": {"type": "Point", "coordinates": [148.237413, -20.0107965]}},
{"type": "Feature", "id": "6f3cYnQ_Q3UiMTQcLrDMvyIrc7k=", "properties": {"ref": "RR3662", "@spider": "redrooster_au", "amenity": "fast_food", "cuisine": "chicken", "takeaway": "yes", "addr:street_address": "Cnr Middleborough & Springfield Rds", "addr:city": "Box Hill", "addr:state": "VIC", "addr:postcode": "3129", "addr:country": "AU", "name": "Box Hill North", "phone": "03 9899 2599", "brand": "Red Rooster", "brand:wikidata": "Q376466", "nsi_id": "redrooster-d43c69"}, "geometry": {"type": "Point", "coordinates": [145.1400902, -37.8093423]}},
{"type": "Feature", "id": "Z42WNWInQ_zB11WGRROiF5Yw-YU=", "properties": {"ref": "RR4809", "@spider": "redrooster_au", "amenity": "fast_food", "cuisine": "chicken", "takeaway": "yes", "addr:street_address": "Shop 1  75 Cotterill Avenue", "addr:city": "Bongaree", "addr:state": "QLD", "addr:postcode": "4507", "addr:country": "AU", "name": "Bribie Island", "phone": "07 3408 4568", "brand": "Red Rooster", "brand:wikidata": "Q376466", "nsi_id": "redrooster-d43c69"}, "geometry": {"type": "Point", "coordinates": [153.164743, -27.0758376]}},
{"type": "Feature", "id": "bf1Yt50jLcB9r9NpImwXGwMD2-E=", "properties": {"ref": "RR4828", "@spider": "redrooster_au", "amenity": "fast_food", "cuisine": "chicken", "takeaway": "yes", "addr:street_address": "Brisbane Domestic Airport  Virgin Blue Terminal  Lvl 1.", "addr:city": "Eagle Farm", "addr:state": "QLD", "addr:postcode": "4009", "addr:country": "AU", "name": "Brisbane Domestic Airport Virgin Terminal", "phone": "07 3860 6951", "brand": "Red Rooster", "brand:wikidata": "Q376466", "nsi_id": "redrooster-d43c69"}, "geometry": {"type": "Point", "coordinates": [153.1193898, -27.3863091]}},
{"type": "Feature", "id": "ejsKY5P1wzNJ9M-9iIEbCAyhU4I=", "properties": {"ref": "RR4827", "@spider": "redrooster_au", "amenity": "fast_food", "cuisine": "chicken", "takeaway": "yes", "addr:street_address": "Brisbane International Airport. Lvl 4 Airport Dr.", "addr:city": "Eagle Farm", "addr:state": "QLD", "addr:postcode": "4009", "addr:country": "AU", "name": "Brisbane Int Airport Dockside", "phone": "07 3114 7210", "brand": "Red Rooster", "brand:wikidata": "Q376466", "nsi_id": "redrooster-d43c69"}, "geometry": {"type": "Point", "coordinates": [153.1038038, -27.4045586]}},
{"type": "Feature", "id": "xE8Yd8tQ2aXwup_1fxWLeSswH0A=", "properties": {"ref": "RR4786", "@spider": "redrooster_au", "amenity": "fast_food", "cuisine": "chicken", "takeaway": "yes", "addr:street_address": "Grand Plaza S/C. Browns Plains Rd.", "addr:city": "Browns Plains", "addr:state": "QLD", "addr:postcode": "4118", "addr:country": "AU", "name": "Browns Plains", "phone": "07 3478 9470", "brand": "Red Rooster", "brand:wikidata": "Q376466", "nsi_id": "redrooster-d43c69"}, "geometry": {"type": "Point", "coordinates": [153.0400585, -27.6637183]}},
{"type": "Feature", "id": "9W1qLQFJ0GLgTCndFG8YIM8qkYM=", "properties": {"ref": "RR6539", "@spider": "redrooster_au", "amenity": "fast_food", "cuisine": "chicken", "takeaway": "yes", "addr:street_address": "3 Beningfield Road", "addr:city": "Bullcreek", "addr:state": "WA", "addr:postcode": "6155", "addr:country": "AU", "name": "Bullcreek", "phone": "08 6157 5342", "brand": "Red Rooster", "brand:wikidata": "Q376466", "nsi_id": "redrooster-d43c69"}, "geometry": {"type": "Point", "coordinates": [115.8580683, -32.0581762]}},
{"type": "Feature", "id": "cXZwqSyJTwfGkaTi1-KC7EH6qb0=", "properties": {"ref": "RR6585", "@spider": "redrooster_au", "amenity": "fast_food", "cuisine": "chicken", "takeaway": "yes", "addr:street_address": "Lot 66 Sandridge Road", "addr:city": "Bunbury", "addr:state": "WA", "addr:postcode": "6230", "addr:country": "AU", "name": "Bunbury", "phone": "08 9792 5073", "brand": "Red Rooster", "brand:wikidata": "Q376466", "nsi_id": "redrooster-d43c69"}, "geometry": {"type": "Point", "coordinates": [115.6629687, -33.33662]}},
{"type": "Feature", "id": "Mc9rhvPLEB921JYWCsWai4apH3s=", "properties": {"ref": "RR4617", "@spider": "redrooster_au", "amenity": "fast_food", "cuisine": "chicken", "takeaway": "yes", "addr:street_address": "226 Bourbong St.", "addr:city": "Bundaberg", "addr:state": "QLD", "addr:postcode": "4670", "addr:country": "AU", "name": "Bundaberg", "phone": "07 4153 2277", "brand": "Red Rooster", "brand:wikidata": "Q376466", "nsi_id": "redrooster-d43c69"}, "geometry": {"type": "Point", "coordinates": [152.3425126, -24.868216]}},
{"type": "Feature", "id": "-fJktDV7WVNbOJzWlQ-ap-L-_yY=", "properties": {"ref": "RR4761", "@spider": "redrooster_au", "amenity": "fast_food", "cuisine": "chicken", "takeaway": "yes", "addr:street_address": "5 Classic Way  Tree Top Square.", "addr:city": "Burleigh Heads", "addr:state": "QLD", "addr:postcode": "4220", "addr:country": "AU", "name": "Burleigh Waters", "phone": "07 2105 1523", "brand": "Red Rooster", "brand:wikidata": "Q376466", "nsi_id": "redrooster-d43c69"}, "geometry": {"type": "Point", "coordinates": [153.4236706, -28.1007007]}},
{"type": "Feature", "id": "9B0w6SQnIVnR7ap-SieoISmOmLw=", "properties": {"ref": "RR4858", "@spider": "redrooster_au", "amenity": "fast_food", "cuisine": "chicken", "takeaway": "yes", "addr:street_address": "Lot 1 Station Road", "addr:city": "Burpengary", "addr:state": "QLD", "addr:postcode": "4505", "addr:country": "AU", "name": "Burpengary", "phone": "07 3478 9426", "brand": "Red Rooster", "brand:wikidata": "Q376466", "nsi_id": "redrooster-d43c69"}, "geometry": {"type": "Point", "coordinates": [152.9585096, -27.1614262]}},
{"type": "Feature", "id": "g7qsVJPjPO0b0w3aP-qLu7nu2Vc=", "properties": {"ref": "RR6604", "@spider": "redrooster_au", "amenity": "fast_food", "cuisine": "chicken", "takeaway": "yes", "addr:street_address": "Corner Bussell Highway and Gale Street", "addr:city": "Busselton", "addr:state": "WA", "addr:postcode": "6280", "addr:country": "AU", "name": "Busselton", "phone": "08 9752 3407", "brand": "Red Rooster", "brand:wikidata": "Q376466", "nsi_id": "redrooster-d43c69"}, "geometry": {"type": "Point", "coordinates": [115.3389274, -33.653403]}},
{"type": "Feature", "id": "k1FadzjPxZWMLKze3hzeQjT9fbg=", "properties": {"ref": "RR6645", "@spider": "redrooster_au", "amenity": "fast_food", "cuisine": "chicken", "takeaway": "yes", "addr:street_address": "41 Butler Boulevard", "addr:city": "Butler", "addr:state": "WA", "addr:postcode": "6036", "addr:country": "AU", "name": "Butler", "phone": "08 9563 1276", "brand": "Red Rooster", "brand:wikidata": "Q376466", "nsi_id": "redrooster-d43c69"}, "geometry": {"type": "Point", "coordinates": [115.6948515, 31.6384716]}},
{"type": "Feature", "id": "97U1hFlJobpYiM2LJ5AB_3P33LY=", "properties": {"ref": "RR6633", "@spider": "redrooster_au", "amenity": "fast_food", "cuisine": "chicken", "takeaway": "yes", "addr:street_address": "8 Kardan Boulevard", "addr:city": "Byford City", "addr:state": "WA", "addr:postcode": "6122", "addr:country": "AU", "name": "Byford DTR", "phone": "08 6157 5325", "brand": "Red Rooster", "brand:wikidata": "Q376466", "nsi_id": "redrooster-d43c69"}, "geometry": {"type": "Point", "coordinates": [115.9777944, -32.2078656]}},
{"type": "Feature", "id": "9Nqjb9bXNHF-YpSxiQkbuKrA39o=", "properties": {"ref": "RR4730", "@spider": "redrooster_au", "amenity": "fast_food", "cuisine": "chicken", "takeaway": "yes", "addr:street_address": "123 William Berry Drive", "addr:city": "Caboolture", "addr:state": "QLD", "addr:postcode": "4510", "addr:country": "AU", "name": "Caboolture Drive Thru", "phone": "07 5495 4711", "brand": "Red Rooster", "brand:wikidata": "Q376466", "nsi_id": "redrooster-d43c69"}, "geometry": {"type": "Point", "coordinates": [152.9489923, -27.1000126]}},
{"type": "Feature", "id": "3i56yLqRfB-KAbG74D9LR-R34-c=", "properties": {"ref": "RR4513", "@spider": "redrooster_au", "amenity": "fast_food", "cuisine": "chicken", "takeaway": "yes", "addr:street_address": "Central Lakes Shopping Centre Shop 4 1 - 21 Pettigrew Street", "addr:city": "Caboolture", "addr:state": "QLD", "addr:postcode": "4510", "addr:country": "AU", "name": "Caboolture Lakes", "phone": "07 2105 1501", "brand": "Red Rooster", "brand:wikidata": "Q376466", "nsi_id": "redrooster-d43c69"}, "geometry": {"type": "Point", "coordinates": [152.9649505, -27.0782829]}},
{"type": "Feature", "id": "_e7-M_vxUHTv5pOkqUhRynW_880=", "properties": {"ref": "RR4817", "@spider": "redrooster_au", "amenity": "fast_food", "cuisine": "chicken", "takeaway": "yes", "addr:street_address": "Cnr Kennington and Old Cleveland Roads", "addr:city": "Camp Hill", "addr:state": "QLD", "addr:postcode": "4152", "addr:country": "AU", "name": "Camp Hill", "phone": "07 2105 1502", "brand": "Red Rooster", "brand:wikidata": "Q376466", "nsi_id": "redrooster-d43c69"}, "geometry": {"type": "Point", "coordinates": [153.0854444, -27.4937553]}},
{"type": "Feature", "id": "f7vPJgmhETEhMcWp6DEU5foRzrI=", "properties": {"ref": "RR3690", "@spider": "redrooster_au", "amenity": "fast_food", "cuisine": "chicken", "takeaway": "yes", "addr:street_address": "1445-1451 Hume Highway (near Camp Road)", "addr:city": "Campbellfield", "addr:state": "VIC", "addr:postcode": "3061", "addr:country": "AU", "name": "Campbellfield", "phone": "03 9357 2544", "brand": "Red Rooster", "brand:wikidata": "Q376466", "nsi_id": "redrooster-d43c69"}, "geometry": {"type": "Point", "coordinates": [144.9572102, -37.688199]}},
{"type": "Feature", "id": "ayjdA5P-pcLdLNc0Q4x4cwPE23g=", "properties": {"ref": "RR2715", "@spider": "redrooster_au", "amenity": "fast_food", "cuisine": "chicken", "takeaway": "yes", "addr:street_address": "321 Queen Street Cnr Camden Road", "addr:city": "Campbelltown", "addr:state": "NSW", "addr:postcode": "2560", "addr:country": "AU", "name": "Campbelltown", "phone": "02 9121 3976", "brand": "Red Rooster", "brand:wikidata": "Q376466", "nsi_id": "redrooster-d43c69"}, "geometry": {"type": "Point", "coordinates": [150.8098344, -34.0711503]}},
{"type": "Feature", "id": "8-TjQ_dAjyPK6uypqfjaAuD4lqU=", "properties": {"ref": "RR4503", "@spider": "redrooster_au", "amenity": "fast_food", "cuisine": "chicken", "takeaway": "yes", "addr:street_address": "Cnr Victoria & Mangrove Street", "addr:city": "Mackay", "addr:state": "QLD", "addr:postcode": "4740", "addr:country": "AU", "name": "Caneland", "phone": "07 4951 2002", "brand": "Red Rooster", "brand:wikidata": "Q376466", "nsi_id": "redrooster-d43c69"}, "geometry": {"type": "Point", "coordinates": [149.1774885, -21.1398426]}},
{"type": "Feature", "id": "En6eQQk0pwwsTb7d6Evh7DjW7EQ=", "properties": {"ref": "RR4502", "@spider": "redrooster_au", "amenity": "fast_food", "cuisine": "chicken", "takeaway": "yes", "addr:street_address": "Shop 2534 Canelands Central S/C Cnr Victora & Mangrove Street", "addr:city": "Mackay", "addr:state": "QLD", "addr:postcode": "4740", "addr:country": "AU", "name": "Caneland Central Foodcourt", "phone": "07 4951 2005", "brand": "Red Rooster", "brand:wikidata": "Q376466", "nsi_id": "redrooster-d43c69"}, "geometry": {"type": "Point", "coordinates": [149.178238, -21.13978]}},
{"type": "Feature", "id": "ru-y64YoKvGHGEyHGveHd5XoSUo=", "properties": {"ref": "RR4818", "@spider": "redrooster_au", "amenity": "fast_food", "cuisine": "chicken", "takeaway": "yes", "addr:street_address": "1090 Wynnum Rd.", "addr:city": "Cannon Hill", "addr:state": "QLD", "addr:postcode": "4170", "addr:country": "AU", "name": "Cannon Hill", "phone": "07 3890 2699", "brand": "Red Rooster", "brand:wikidata": "Q376466", "nsi_id": "redrooster-d43c69"}, "geometry": {"type": "Point", "coordinates": [153.0967505, -27.4692132]}},
{"type": "Feature", "id": "znsXSQ7kEM8ZYPFzlJ6rbuPEZAs=", "properties": {"ref": "RR6618", "@spider": "redrooster_au", "amenity": "fast_food", "cuisine": "chicken", "takeaway": "yes", "addr:street_address": "Cnr Marmion Avenue & Almadine Drive", "addr:city": "Carine", "addr:state": "WA", "addr:postcode": "6020", "addr:country": "AU", "name": "Carine", "phone": "08 6157 5305", "brand": "Red Rooster", "brand:wikidata": "Q376466", "nsi_id": "redrooster-d43c69"}, "geometry": {"type": "Point", "coordinates": [115.7677457, -31.854074]}},
{"type": "Feature", "id": "7_y_E_xm-Zi2rllHfm2sWvPuTUI=", "properties": {"ref": "RR2720", "@spider": "redrooster_au", "amenity": "fast_food", "cuisine": "chicken", "takeaway": "yes", "addr:street_address": "373 Princes Highway", "addr:city": "Carlton", "addr:state": "NSW", "addr:postcode": "2218", "addr:country": "AU", "name": "Carlton", "phone": "02 9546 2910", "brand": "Red Rooster", "brand:wikidata": "Q376466", "nsi_id": "redrooster-d43c69"}, "geometry": {"type": "Point", "coordinates": [151.1219787, -33.9785095]}},
{"type": "Feature", "id": "6-NevG4IvsJis7IFM1kh9LbDPVo=", "properties": {"ref": "RR6584", "@spider": "redrooster_au", "amenity": "fast_food", "cuisine": "chicken", "takeaway": "yes", "addr:street_address": "Shop 102  Carousel SC", "addr:city": "Cannington", "addr:state": "WA", "addr:postcode": "6107", "addr:country": "AU", "name": "Carousel Foodcourt", "phone": "08 9451 8685", "brand": "Red Rooster", "brand:wikidata": "Q376466", "nsi_id": "redrooster-d43c69"}, "geometry": {"type": "Point", "coordinates": [115.9382998, -32.01949630000001]}},
{"type": "Feature", "id": "EUS3d-Bmxwcz0RoIwqdsnIppoKQ=", "properties": {"ref": "RR4790", "@spider": "redrooster_au", "amenity": "fast_food", "cuisine": "chicken", "takeaway": "yes", "addr:street_address": "Shop 2  7 Eleven Service Station. Corner Broadbeach Nerang & Chisholm Roads", "addr:city": "Carrara", "addr:state": "QLD", "addr:postcode": "4211", "addr:country": "AU", "name": "Carrara", "phone": "07 2105 1527", "brand": "Red Rooster", "brand:wikidata": "Q376466", "nsi_id": "redrooster-d43c69"}, "geometry": {"type": "Point", "coordinates": [153.3591262, -28.0009033]}},
{"type": "Feature", "id": "h6qxzn7_UXN1cStUGd68OxRBHPI=", "properties": {"ref": "RR5636", "@spider": "redrooster_au", "amenity": "fast_food", "cuisine": "chicken", "takeaway": "yes", "addr:street_address": "Corner Furness Avenue and Main South Road", "addr:city": "Edwards Town", "addr:state": "SA", "addr:postcode": "5039", "addr:country": "AU", "name": "Castle Plaza", "phone": "08 8257 3475", "brand": "Red Rooster", "brand:wikidata": "Q376466", "nsi_id": "redrooster-d43c69"}, "geometry": {"type": "Point", "coordinates": [138.5741862, -34.9831521]}},
{"type": "Feature", "id": "iRUuHOq-rALq0fMtIzjWEjSQIQs=", "properties": {"ref": "RR4862", "@spider": "redrooster_au", "amenity": "fast_food", "cuisine": "chicken", "takeaway": "yes", "addr:street_address": "CBUS Stadium Centreline Place", "addr:city": "Robina", "addr:state": "QLD", "addr:postcode": "4226", "addr:country": "AU", "name": "CBUS Stadium", "brand": "Red Rooster", "brand:wikidata": "Q376466", "nsi_id": "redrooster-d43c69"}, "geometry": {"type": "Point", "coordinates": [153.3787955, -28.066797]}},
{"type": "Feature", "id": "heAC8waoGt5TmcBpM_31ChRxpe8=", "properties": {"ref": "RR4889", "@spider": "redrooster_au", "amenity": "fast_food", "cuisine": "chicken", "takeaway": "yes", "addr:street_address": "Centreline Place", "addr:city": "Robina", "addr:state": "QLD", "addr:postcode": "4226", "addr:country": "AU", "name": "CBUS Stadium Level 1 West", "brand": "Red Rooster", "brand:wikidata": "Q376466", "nsi_id": "redrooster-d43c69"}, "geometry": {"type": "Point", "coordinates": [153.3785225, -28.0688835]}},
{"type": "Feature", "id": "Ce4wUVCVYm6O1Ra7_43BUEwyUf8=", "properties": {"ref": "RR4865", "@spider": "redrooster_au", "amenity": "fast_food", "cuisine": "chicken", "takeaway": "yes", "addr:street_address": "Centreline Place", "addr:city": "Robina", "addr:state": "QLD", "addr:postcode": "4226", "addr:country": "AU", "name": "CBUS Stadium West", "brand": "Red Rooster", "brand:wikidata": "Q376466", "nsi_id": "redrooster-d43c69"}, "geometry": {"type": "Point", "coordinates": [153.3785225, -28.0688835]}},
{"type": "Feature", "id": "Af24zMUZOICMxDcD2NlxZB8jaiU=", "properties": {"ref": "RR4791", "@spider": "redrooster_au", "amenity": "fast_food", "cuisine": "chicken", "takeaway": "yes", "addr:street_address": "Tenancy 2  Charlton Service Centre. Corner Warrego Highway & Steger Road", "addr:city": "Charlton", "addr:state": "QLD", "addr:postcode": "4350", "addr:country": "AU", "name": "Charlton", "phone": "07 2105 1539", "brand": "Red Rooster", "brand:wikidata": "Q376466", "nsi_id": "redrooster-d43c69"}, "geometry": {"type": "Point", "coordinates": [151.8495089, -27.5195715]}},
{"type": "Feature", "id": "-0ZnCrLx3SigomihCnYBgAUmw5k=", "properties": {"ref": "RR2742", "@spider": "redrooster_au", "amenity": "fast_food", "cuisine": "chicken", "takeaway": "yes", "addr:street_address": "6 Charnwood Place", "addr:city": "Charnwood", "addr:state": "ACT", "addr:postcode": "2615", "addr:country": "AU", "name": "Charnwood", "phone": "02 6198 8958", "brand": "Red Rooster", "brand:wikidata": "Q376466", "nsi_id": "redrooster-d43c69"}, "geometry": {"type": "Point", "coordinates": [149.0325845, -35.204709]}},
{"type": "Feature", "id": "x7Hm9GRGomZp1bP9UZDRvOs2Qlw=", "properties": {"ref": "RR4512", "@spider": "redrooster_au", "amenity": "fast_food", "cuisine": "chicken", "takeaway": "yes", "addr:street_address": "40 - 44 Mosman Street", "addr:city": "Charters Towers", "addr:state": "QLD", "addr:postcode": "4820", "addr:country": "AU", "name": "Charters Towers", "phone": "07 4787 1477", "brand": "Red Rooster", "brand:wikidata": "Q376466", "nsi_id": "redrooster-d43c69"}, "geometry": {"type": "Point", "coordinates": [146.2572589, -20.07425]}},
{"type": "Feature", "id": "eil03ah5-6yTLgloT77_1L3cnE8=", "properties": {"ref": "RR4886", "@spider": "redrooster_au", "amenity": "fast_food", "cuisine": "chicken", "takeaway": "yes", "addr:street_address": "Shop FC2  Westfield Chermside S/C  Cnr. Gympie & Hamilton Rds.", "addr:city": "Chermside", "addr:state": "QLD", "addr:postcode": "4032", "addr:country": "AU", "name": "Chermside", "phone": "07 3478 9493", "brand": "Red Rooster", "brand:wikidata": "Q376466", "nsi_id": "redrooster-d43c69"}, "geometry": {"type": "Point", "coordinates": [153.0322839, -27.3829935]}},
{"type": "Feature", "id": "rllCBlkWRO3sbLT4gp0ouyMBJG4=", "properties": {"ref": "RR3613", "@spider": "redrooster_au", "amenity": "fast_food", "cuisine": "chicken", "takeaway": "yes", "addr:street_address": "Cnr Fletcher Rd & Maroondah Hwy", "addr:city": "Chirnside Park", "addr:state": "VIC", "addr:postcode": "3116", "addr:country": "AU", "name": "Chirnside Park", "phone": "03 9727 0281", "brand": "Red Rooster", "brand:wikidata": "Q376466", "nsi_id": "redrooster-d43c69"}, "geometry": {"type": "Point", "coordinates": [145.3106309, -37.7613603]}},
{"type": "Feature", "id": "ZSyrJUELR_gTTs6o4cgOMo5EBd8=", "properties": {"ref": "RR2657", "@spider": "redrooster_au", "amenity": "fast_food", "cuisine": "chicken", "takeaway": "yes", "addr:street_address": "97 Hume Highway", "addr:city": "Chullora", "addr:state": "NSW", "addr:postcode": "2190", "addr:country": "AU", "name": "Chullora", "phone": "02 9742 6777", "brand": "Red Rooster", "brand:wikidata": "Q376466", "nsi_id": "redrooster-d43c69"}, "geometry": {"type": "Point", "coordinates": [151.0578706, -33.8916694]}},
{"type": "Feature", "id": "lLBOy8CMeKpGzKxet4sa-5RvzmY=", "properties": {"ref": "RR4711", "@spider": "redrooster_au", "amenity": "fast_food", "cuisine": "chicken", "takeaway": "yes", "addr:street_address": "Cnr. Bonney Ave. & Sandgate Rd.", "addr:city": "Clayfield", "addr:state": "QLD", "addr:postcode": "4632", "addr:country": "AU", "name": "Clayfield", "phone": "07 3262 3383", "brand": "Red Rooster", "brand:wikidata": "Q376466", "nsi_id": "redrooster-d43c69"}, "geometry": {"type": "Point", "coordinates": [153.0464569, -27.4276757]}},
{"type": "Feature", "id": "SFI9yrUVOlUbX5NPN4ZmO2mQaQc=", "properties": {"ref": "RR4757", "@spider": "redrooster_au", "amenity": "fast_food", "cuisine": "chicken", "takeaway": "yes", "addr:street_address": "Cnr. Shore St. & Delancy St.", "addr:city": "Cleveland", "addr:state": "QLD", "addr:postcode": "4163", "addr:country": "AU", "name": "Cleveland", "phone": "07 3286 9584", "brand": "Red Rooster", "brand:wikidata": "Q376466", "nsi_id": "redrooster-d43c69"}, "geometry": {"type": "Point", "coordinates": [153.2514441, -27.5237934]}},
{"type": "Feature", "id": "c07KoRBIvcHXV-Nyh4nECxO-Zok=", "properties": {"ref": "RR4833", "@spider": "redrooster_au", "amenity": "fast_food", "cuisine": "chicken", "takeaway": "yes", "addr:street_address": "Shop 60 Clifford Gardens Shopping Centre Corner James & Anzac Ave", "addr:city": "Toowoomba", "addr:state": "QLD", "addr:postcode": "4350", "addr:country": "AU", "name": "Clifford Gardens", "phone": "07 4634 4999", "brand": "Red Rooster", "brand:wikidata": "Q376466", "nsi_id": "redrooster-d43c69"}, "geometry": {"type": "Point", "coordinates": [151.9322222, -27.5644444]}},
{"type": "Feature", "id": "Xl4-EKjziFECOABkUR4maIO0-a4=", "properties": {"ref": "RR3709", "@spider": "redrooster_au", "amenity": "fast_food", "cuisine": "chicken", "takeaway": "yes", "addr:street_address": "401 Moreland Road", "addr:city": "Coburg", "addr:state": "VIC", "addr:postcode": "3058", "addr:country": "AU", "name": "Coburg", "phone": "03 9386 6252", "brand": "Red Rooster", "brand:wikidata": "Q376466", "nsi_id": "redrooster-d43c69"}, "geometry": {"type": "Point", "coordinates": [144.9461112623, -37.752906378]}},
{"type": "Feature", "id": "m1da_0FoDPJo0iVgXhjxYtAUj9M=", "properties": {"ref": "RR2148", "@spider": "redrooster_au", "amenity": "fast_food", "cuisine": "chicken", "takeaway": "yes", "addr:street_address": "35/61 Harbour Drive", "addr:city": "Coffs Harbour", "addr:state": "NSW", "addr:postcode": "2450", "addr:country": "AU", "name": "Coffs Central", "phone": "02 7203 5205", "brand": "Red Rooster", "brand:wikidata": "Q376466", "nsi_id": "redrooster-d43c69"}, "geometry": {"type": "Point", "coordinates": [153.1157409, -30.2968896]}},
{"type": "Feature", "id": "xTmhDIn33OFSCjaoZNfIcu6di3M=", "properties": {"ref": "RR2695", "@spider": "redrooster_au", "amenity": "fast_food", "cuisine": "chicken", "takeaway": "yes", "addr:street_address": "Shop 5 Coffs Service Centre Pacific Highway", "addr:city": "Coffs Harbour", "addr:state": "NSW", "addr:postcode": "2525", "addr:country": "AU", "name": "Coffs Harbour South", "phone": "02 7203 5207", "brand": "Red Rooster", "brand:wikidata": "Q376466", "nsi_id": "redrooster-d43c69"}, "geometry": {"type": "Point", "coordinates": [153.0896812, -30.3179981]}},
{"type": "Feature", "id": "rATow0BEqrMARzCAHnP0SWPvPHM=", "properties": {"ref": "RR3510", "@spider": "redrooster_au", "amenity": "fast_food", "cuisine": "chicken", "takeaway": "yes", "addr:street_address": "303 Murray Street", "addr:city": "Colac", "addr:state": "VIC", "addr:postcode": "3250", "addr:country": "AU", "name": "Colac", "phone": "03 5232 2228", "brand": "Red Rooster", "brand:wikidata": "Q376466", "nsi_id": "redrooster-d43c69"}, "geometry": {"type": "Point", "coordinates": [143.5796164, -38.3386389]}},
{"type": "Feature", "id": "EtrMx9a5vpjEo9nAWZsdBkxtjLo=", "properties": {"ref": "RR4859", "@spider": "redrooster_au", "amenity": "fast_food", "cuisine": "chicken", "takeaway": "yes", "addr:street_address": "124 Orange Grove Rd.", "addr:city": "Coopers Plains", "addr:state": "QLD", "addr:postcode": "4180", "addr:country": "AU", "name": "Coopers Plains", "phone": "07 3084 3612", "brand": "Red Rooster", "brand:wikidata": "Q376466", "nsi_id": "redrooster-d43c69"}, "geometry": {"type": "Point", "coordinates": [153.0390195, -27.564435]}},
{"type": "Feature", "id": "sqSeuepW01QIWJFKSrZpv2vWhqw=", "properties": {"ref": "RR3682", "@spider": "redrooster_au", "amenity": "fast_food", "cuisine": "chicken", "takeaway": "yes", "addr:street_address": "Geelong Gate Homemaker Centre 470 Princes Hwy", "addr:city": "Corio", "addr:state": "VIC", "addr:postcode": "3214", "addr:country": "AU", "name": "Corio", "phone": "03 9055 8101", "brand": "Red Rooster", "brand:wikidata": "Q376466", "nsi_id": "redrooster-d43c69"}, "geometry": {"type": "Point", "coordinates": [144.3834296, -38.064583]}},
{"type": "Feature", "id": "TjHc_l-mGu96HuwJzaPclGcb6S8=", "properties": {"ref": "RR3687", "@spider": "redrooster_au", "amenity": "fast_food", "cuisine": "chicken", "takeaway": "yes", "addr:street_address": "264 Craigieburn Road", "addr:city": "Craigieburn", "addr:state": "VIC", "addr:postcode": "3064", "addr:country": "AU", "name": "Craigieburn", "phone": "03 9192 8414", "brand": "Red Rooster", "brand:wikidata": "Q376466", "nsi_id": "redrooster-d43c69"}, "geometry": {"type": "Point", "coordinates": [144.9206887, -37.5959386]}},
{"type": "Feature", "id": "R5aCyJZO0OfDmXm7t5iPO8ZQoi4=", "properties": {"ref": "RR3631", "@spider": "redrooster_au", "amenity": "fast_food", "cuisine": "chicken", "takeaway": "yes", "addr:street_address": "Shop FS2  Centro Cranbourne Shopping Centre  Corner of Mundaring Drive and High Street", "addr:city": "Cranbourne", "addr:state": "VIC", "addr:postcode": "3977", "addr:country": "AU", "name": "Cranbourne", "phone": "03 5996 3058", "brand": "Red Rooster", "brand:wikidata": "Q376466", "nsi_id": "redrooster-d43c69"}, "geometry": {"type": "Point", "coordinates": [145.2822345, -38.1081532]}},
{"type": "Feature", "id": "Skfo7r2XVCqzraIEWOuElVxRMg0=", "properties": {"ref": "RR3698", "@spider": "redrooster_au", "amenity": "fast_food", "cuisine": "chicken", "takeaway": "yes", "addr:street_address": "Cnr South Gippsland Hwy & Thompsons Rd", "addr:city": "North Cranbourne", "addr:state": "VIC", "addr:postcode": "3977", "addr:country": "AU", "name": "Cranbourne North", "phone": "03 9055 8109", "brand": "Red Rooster", "brand:wikidata": "Q376466", "nsi_id": "redrooster-d43c69"}, "geometry": {"type": "Point", "coordinates": [145.2766059, -38.0822809]}},
{"type": "Feature", "id": "23sWxiCOeKQE_UTIDu56VBQJcx4=", "properties": {"ref": "RR6612", "@spider": "redrooster_au", "amenity": "fast_food", "cuisine": "chicken", "takeaway": "yes", "addr:street_address": "Cnr Delamere & Marmion Avenue", "addr:city": "Currambine", "addr:state": "WA", "addr:postcode": "6028", "addr:country": "AU", "name": "Currambine", "phone": "08 9304 0500", "brand": "Red Rooster", "brand:wikidata": "Q376466", "nsi_id": "redrooster-d43c69"}, "geometry": {"type": "Point", "coordinates": [115.7368257, -31.7364966]}},
{"type": "Feature", "id": "z1GTFEYDjtHFgFLwpumTTGie9GQ=", "properties": {"ref": "RR4866", "@spider": "redrooster_au", "amenity": "fast_food", "cuisine": "chicken", "takeaway": "yes", "addr:street_address": "Cnr Nicklin Way & Bellara Rd", "addr:city": "Currimundi", "addr:state": "QLD", "addr:postcode": "4551", "addr:country": "AU", "name": "Currimundi", "phone": "07 3478 9421", "brand": "Red Rooster", "brand:wikidata": "Q376466", "nsi_id": "redrooster-d43c69"}, "geometry": {"type": "Point", "coordinates": [153.1241696, -26.7733579]}},
{"type": "Feature", "id": "blTQ6kswd2QNhMtiiT474A7schU=", "properties": {"ref": "RR4589", "@spider": "redrooster_au", "amenity": "fast_food", "cuisine": "chicken", "takeaway": "yes", "addr:street_address": "67 Drayton St.", "addr:city": "Dalby", "addr:state": "QLD", "addr:postcode": "4405", "addr:country": "AU", "name": "Dalby", "phone": "07 4662 4922", "brand": "Red Rooster", "brand:wikidata": "Q376466", "nsi_id": "redrooster-d43c69"}, "geometry": {"type": "Point", "coordinates": [151.264917, -27.1844281]}},
{"type": "Feature", "id": "sDoxJN4IIO99Vc4jUYF4ABWV1_o=", "properties": {"ref": "RR3624", "@spider": "redrooster_au", "amenity": "fast_food", "cuisine": "chicken", "takeaway": "yes", "addr:street_address": "Stud & Heatherton Roads", "addr:city": "Dandenong", "addr:state": "VIC", "addr:postcode": "3175", "addr:country": "AU", "name": "Dandenong North", "phone": "03 7007 8010", "brand": "Red Rooster", "brand:wikidata": "Q376466", "nsi_id": "redrooster-d43c69"}, "geometry": {"type": "Point", "coordinates": [145.2235588, -37.9710865]}},
{"type": "Feature", "id": "nHwi5RLP_p-tR9_mTmRii9F62Ec=", "properties": {"ref": "RR4843", "@spider": "redrooster_au", "amenity": "fast_food", "cuisine": "chicken", "takeaway": "yes", "addr:street_address": "75 Braun Street", "addr:city": "Deagon", "addr:state": "QLD", "addr:postcode": "4017", "addr:country": "AU", "name": "Deagon", "phone": "07 3074 1957", "brand": "Red Rooster", "brand:wikidata": "Q376466", "nsi_id": "redrooster-d43c69"}, "geometry": {"type": "Point", "coordinates": [153.0571385, -27.3297826]}},
{"type": "Feature", "id": "u6K-kIG0duyn-16pnaSyTqwj2oY=", "properties": {"ref": "RR4857", "@spider": "redrooster_au", "amenity": "fast_food", "cuisine": "chicken", "takeaway": "yes", "addr:street_address": "444  Deception Bay Rd", "addr:city": "Deception Bay", "addr:state": "QLD", "addr:postcode": "4508", "addr:country": "AU", "name": "Deception Bay", "phone": "07 3478 9425", "brand": "Red Rooster", "brand:wikidata": "Q376466", "nsi_id": "redrooster-d43c69"}, "geometry": {"type": "Point", "coordinates": [153.0240709, -27.1923485]}},
{"type": "Feature", "id": "Ibw-iM9csA_JCD120OO1KAqrVQE=", "properties": {"ref": "RR3702", "@spider": "redrooster_au", "amenity": "fast_food", "cuisine": "chicken", "takeaway": "yes", "addr:street_address": "Brimbank Shopping Centre, Cnr Station & Neale Rds", "addr:city": "Deer Park", "addr:state": "VIC", "addr:postcode": "3023", "addr:country": "AU", "name": "Deer Park", "phone": "03 9360 4151", "brand": "Red Rooster", "brand:wikidata": "Q376466", "nsi_id": "redrooster-d43c69"}, "geometry": {"type": "Point", "coordinates": [144.7761969, -37.7512263]}},
{"type": "Feature", "id": "2YQyV6_Qf9Gp_8wXb1BB5JKTcMM=", "properties": {"ref": "RR4606", "@spider": "redrooster_au", "amenity": "fast_food", "cuisine": "chicken", "takeaway": "yes", "addr:street_address": "Cnr Bruce Hwy. & Geaney Lane.", "addr:city": "Deeragun", "addr:state": "QLD", "addr:postcode": "4818", "addr:country": "AU", "name": "Deeragun", "phone": "07 4751 9755", "brand": "Red Rooster", "brand:wikidata": "Q376466", "nsi_id": "redrooster-d43c69"}, "geometry": {"type": "Point", "coordinates": [146.6813337, -19.2482329]}},
{"type": "Feature", "id": "cjyZJdUYC4aq73lyst3zsYsL8RM=", "properties": {"ref": "RR3646", "@spider": "redrooster_au", "amenity": "fast_food", "cuisine": "chicken", "takeaway": "yes", "addr:street_address": "Cnr Boundary & Fitzgerald Roads", "addr:city": "Derrimut", "addr:state": "VIC", "addr:postcode": "3030", "addr:country": "AU", "name": "Derrimut", "phone": "03 9369 1806", "brand": "Red Rooster", "brand:wikidata": "Q376466", "nsi_id": "redrooster-d43c69"}, "geometry": {"type": "Point", "coordinates": [144.7866509, -37.81278289999999]}},
{"type": "Feature", "id": "cnvR-D5346FSUXH8R80CPBAdiMU=", "properties": {"ref": "RR6642", "@spider": "redrooster_au", "amenity": "fast_food", "cuisine": "chicken", "takeaway": "yes", "addr:street_address": "Shop FS004 Centro Dianella, Cnr Alexander Drive & Grand Boulevard", "addr:city": "Dianella", "addr:state": "WA", "addr:postcode": "6059", "addr:country": "AU", "name": "Dianella", "phone": "08 6157 5326", "brand": "Red Rooster", "brand:wikidata": "Q376466", "nsi_id": "redrooster-d43c69"}, "geometry": {"type": "Point", "coordinates": [115.8719086, -31.89582]}},
{"type": "Feature", "id": "Av8KqXxo54RqhHqg0YAjFKEa6a4=", "properties": {"ref": "RR3667", "@spider": "redrooster_au", "amenity": "fast_food", "cuisine": "chicken", "takeaway": "yes", "addr:street_address": "Cnr High Street & Manningham Road", "addr:city": "Doncaster", "addr:state": "VIC", "addr:postcode": "3108", "addr:country": "AU", "name": "Doncaster", "phone": "03 9850 9670", "brand": "Red Rooster", "brand:wikidata": "Q376466", "nsi_id": "redrooster-d43c69"}, "geometry": {"type": "Point", "coordinates": [145.1142326, -37.7738058]}},
{"type": "Feature", "id": "1jSHalD9hqJy7YmVT-LTyd67j5o=", "properties": {"ref": "RR2506", "@spider": "redrooster_au", "amenity": "fast_food", "cuisine": "chicken", "takeaway": "yes", "addr:street_address": "Lot 101 Cobra Street", "addr:city": "Dubbo", "addr:state": "NSW", "addr:postcode": "2830", "addr:country": "AU", "name": "Dubbo", "phone": "02 6882 0593", "brand": "Red Rooster", "brand:wikidata": "Q376466", "nsi_id": "redrooster-d43c69"}, "geometry": {"type": "Point", "coordinates": [148.6089203, -32.2547708]}},
{"type": "Feature", "id": "a7qdevrprMbVKX5ID_JGFB5iA6w=", "properties": {"ref": "RR3695", "@spider": "redrooster_au", "amenity": "fast_food", "cuisine": "chicken", "takeaway": "yes", "addr:street_address": "Cnr Plenty & Gremel Rds", "addr:city": "East Reservoir", "addr:state": "VIC", "addr:postcode": "3073", "addr:country": "AU", "name": "East Reservoir", "phone": "03 9478 1299", "brand": "Red Rooster", "brand:wikidata": "Q376466", "nsi_id": "redrooster-d43c69"}, "geometry": {"type": "Point", "coordinates": [145.0294675, -37.7235048]}},
{"type": "Feature", "id": "CyXrTafolBArSsn99QQSm0MmitA=", "properties": {"ref": "RR6602", "@spider": "redrooster_au", "amenity": "fast_food", "cuisine": "chicken", "takeaway": "yes", "addr:street_address": "347 Shepperton Road East", "addr:city": "Victoria Park", "addr:state": "WA", "addr:postcode": "6101", "addr:country": "AU", "name": "East Victoria Park", "phone": "08 6157 5370", "brand": "Red Rooster", "brand:wikidata": "Q376466", "nsi_id": "redrooster-d43c69"}, "geometry": {"type": "Point", "coordinates": [115.9122209, -31.9922365]}},
{"type": "Feature", "id": "YqfRGt_0bpfjphwbKHJnS806QxU=", "properties": {"ref": "RR2716", "@spider": "redrooster_au", "amenity": "fast_food", "cuisine": "chicken", "takeaway": "yes", "addr:street_address": "Lot 218, M4 Motorway (Westbound)", "addr:city": "Eastern Creek", "addr:state": "NSW", "addr:postcode": "2766", "addr:country": "AU", "name": "Eastern Creek", "phone": "02 7923 5611", "brand": "Red Rooster", "brand:wikidata": "Q376466", "nsi_id": "redrooster-d43c69"}, "geometry": {"type": "Point", "coordinates": [150.8811129, -33.8023821]}},
{"type": "Feature", "id": "-QtqTKqc1npX-VbRpd_oMpEwWRo=", "properties": {"ref": "RR6560", "@spider": "redrooster_au", "amenity": "fast_food", "cuisine": "chicken", "takeaway": "yes", "addr:street_address": "5 Deloraine Way", "addr:city": "Ellenbrook", "addr:state": "WA", "addr:postcode": "6069", "addr:country": "AU", "name": "Ellenbrook", "phone": "08 6157 5372", "brand": "Red Rooster", "brand:wikidata": "Q376466", "nsi_id": "redrooster-d43c69"}, "geometry": {"type": "Point", "coordinates": [115.9778175, -31.7960324]}},
{"type": "Feature", "id": "gQ-UeNidqSgEOnH7L-GAZiEUL-8=", "properties": {"ref": "RR4854", "@spider": "redrooster_au", "amenity": "fast_food", "cuisine": "chicken", "takeaway": "yes", "addr:street_address": "17 Clermont Street", "addr:city": "Emerald", "addr:state": "QLD", "addr:postcode": "4720", "addr:country": "AU", "name": "Emerald", "phone": "07 4982 2473", "brand": "Red Rooster", "brand:wikidata": "Q376466", "nsi_id": "redrooster-d43c69"}, "geometry": {"type": "Point", "coordinates": [148.1586243, -23.5253318]}},
{"type": "Feature", "id": "omfYogm3H4v_7n93XANKXfTECjg=", "properties": {"ref": "RR2582", "@spider": "redrooster_au", "amenity": "fast_food", "cuisine": "chicken", "takeaway": "yes", "addr:street_address": "121 Bunting Street Cnr Popondetta Street", "addr:city": "Emerton", "addr:state": "NSW", "addr:postcode": "2770", "addr:country": "AU", "name": "Emerton", "phone": "02 9675 2227", "brand": "Red Rooster", "brand:wikidata": "Q376466", "nsi_id": "redrooster-d43c69"}, "geometry": {"type": "Point", "coordinates": [150.8104021, -33.7454958]}},
{"type": "Feature", "id": "xi1eS4wjIwmB2n_HPAr1C4IiWQY=", "properties": {"ref": "RR2731", "@spider": "redrooster_au", "amenity": "fast_food", "cuisine": "chicken", "takeaway": "yes", "addr:street_address": "148-150 Russel St.", "addr:city": "Emu Plains", "addr:state": "NSW", "addr:postcode": "2750", "addr:country": "AU", "name": "Emu Plains", "phone": "02 4735 7774", "brand": "Red Rooster", "brand:wikidata": "Q376466", "nsi_id": "redrooster-d43c69"}, "geometry": {"type": "Point", "coordinates": [150.6528523, -33.7577698]}},
{"type": "Feature", "id": "ynLqJPXl0zM7iyvbdBpMqb5OZLs=", "properties": {"ref": "RR2658", "@spider": "redrooster_au", "amenity": "fast_food", "cuisine": "chicken", "takeaway": "yes", "addr:street_address": "157 The Entrance Road", "addr:city": "Erina", "addr:state": "NSW", "addr:postcode": "2250", "addr:country": "AU", "name": "Erina", "phone": "02 7923 5674", "brand": "Red Rooster", "brand:wikidata": "Q376466", "nsi_id": "redrooster-d43c69"}, "geometry": {"type": "Point", "coordinates": [151.3797656, -33.4381059]}},
{"type": "Feature", "id": "FF_-pI3laiEUmCCHOPg76E6llvs=", "properties": {"ref": "RR2721", "@spider": "redrooster_au", "amenity": "fast_food", "cuisine": "chicken", "takeaway": "yes", "addr:street_address": "Cnr Victoria Road and Betty Cuthbert Avenue", "addr:city": "Ermington", "addr:state": "NSW", "addr:postcode": "2155", "addr:country": "AU", "name": "Ermington", "phone": "02 7923 5723", "brand": "Red Rooster", "brand:wikidata": "Q376466", "nsi_id": "redrooster-d43c69"}, "geometry": {"type": "Point", "coordinates": [151.0528559, -33.8146023]}},
{"type": "Feature", "id": "eMNLCaIfBP5hH45yeuI0m93bKD4=", "properties": {"ref": "RR6544", "@spider": "redrooster_au", "amenity": "fast_food", "cuisine": "chicken", "takeaway": "yes", "addr:street_address": "Boulevard Drive Shopping Centre  Corner Randell & Forrest Roads", "addr:city": "Esperance", "addr:state": "WA", "addr:postcode": "6450", "addr:country": "AU", "name": "Esperance", "phone": "08 9071 3825", "brand": "Red Rooster", "brand:wikidata": "Q376466", "nsi_id": "redrooster-d43c69"}, "geometry": {"type": "Point", "coordinates": [121.8890788, -33.8589765]}},
{"type": "Feature", "id": "I6Pa6mh67k5HkmTaWp_SilpRi_w=", "properties": {"ref": "RR3717", "@spider": "redrooster_au", "amenity": "fast_food", "cuisine": "chicken", "takeaway": "yes", "addr:street_address": "54 Princes Highway", "addr:city": "Eumemmerring", "addr:state": "VIC", "addr:postcode": "3177", "addr:country": "AU", "name": "Eumemmerring", "phone": "03 7007 8038", "brand": "Red Rooster", "brand:wikidata": "Q376466", "nsi_id": "redrooster-d43c69"}, "geometry": {"type": "Point", "coordinates": [145.247035, -38.002599]}},
{"type": "Feature", "id": "Kxf3lUqtcyMXQ2gZvwXSytdVvrM=", "properties": {"ref": "RR3724", "@spider": "redrooster_au", "amenity": "fast_food", "cuisine": "chicken", "takeaway": "yes", "addr:street_address": "784-800 Heidelberg Rd", "addr:city": "Fairfield", "addr:state": "VIC", "addr:postcode": "3078", "addr:country": "AU", "name": "Fairfield", "phone": "03 9497 1432", "brand": "Red Rooster", "brand:wikidata": "Q376466", "nsi_id": "redrooster-d43c69"}, "geometry": {"type": "Point", "coordinates": [145.0331031, -37.7807171]}},
{"type": "Feature", "id": "yewCyNF3kDVJkuYcfv_vOzH5ET0=", "properties": {"ref": "RR4608", "@spider": "redrooster_au", "amenity": "fast_food", "cuisine": "chicken", "takeaway": "yes", "addr:street_address": "Shop 1  40 - 42 Stuart Dr.", "addr:city": "Idalia", "addr:state": "QLD", "addr:postcode": "4811", "addr:country": "AU", "name": "Fairfield Waters", "phone": "07 4778 4598", "brand": "Red Rooster", "brand:wikidata": "Q376466", "nsi_id": "redrooster-d43c69"}, "geometry": {"type": "Point", "coordinates": [146.8055103, -19.3082337]}},
{"type": "Feature", "id": "sA3DWx0Z2_xKjF1rJUchwpsrLXw=", "properties": {"ref": "RR3632", "@spider": "redrooster_au", "amenity": "fast_food", "cuisine": "chicken", "takeaway": "yes", "addr:street_address": "1855 Ferntree Gully Road", "addr:city": "Ferntree Gully", "addr:state": "VIC", "addr:postcode": "3156", "addr:country": "AU", "name": "Ferntree Gully", "phone": "03 9758 7690", "brand": "Red Rooster", "brand:wikidata": "Q376466", "nsi_id": "redrooster-d43c69"}, "geometry": {"type": "Point", "coordinates": [145.2753482, -37.8828058]}},
{"type": "Feature", "id": "KRnDtD9W8iiuBnCmKplPaxvcfQc=", "properties": {"ref": "RR4510", "@spider": "redrooster_au", "amenity": "fast_food", "cuisine": "chicken", "takeaway": "yes", "addr:street_address": "Shop 002 Flagstone Drive, Corner Homestead and Wild Mint Drive", "addr:city": "Flagstone", "addr:state": "QLD", "addr:postcode": "4280", "addr:country": "AU", "name": "Flagstone", "phone": "07 2105 1548", "brand": "Red Rooster", "brand:wikidata": "Q376466", "nsi_id": "redrooster-d43c69"}, "geometry": {"type": "Point", "coordinates": [152.95153, -27.8084]}},
{"type": "Feature", "id": "SqCWECJnWFo1RGNprxjKCoNw1lU=", "properties": {"ref": "RR4820", "@spider": "redrooster_au", "amenity": "fast_food", "cuisine": "chicken", "takeaway": "yes", "addr:street_address": "251 - 255 Forest Lake Boulevard", "addr:city": "Forest Lake", "addr:state": "QLD", "addr:postcode": "4078", "addr:country": "AU", "name": "Forest Lake", "phone": "07 3278 8370", "brand": "Red Rooster", "brand:wikidata": "Q376466", "nsi_id": "redrooster-d43c69"}, "geometry": {"type": "Point", "coordinates": [152.9699954, -27.6261732]}},
{"type": "Feature", "id": "L9kYTXSqP-sW4DVSyOdzyXFQ3Qg=", "properties": {"ref": "RR6635", "@spider": "redrooster_au", "amenity": "fast_food", "cuisine": "chicken", "takeaway": "yes", "addr:street_address": "60 Hale Road", "addr:city": "Forrestfield", "addr:state": "WA", "addr:postcode": "6058", "addr:country": "AU", "name": "Forrestfield", "phone": "08 9453 1488", "brand": "Red Rooster", "brand:wikidata": "Q376466", "nsi_id": "redrooster-d43c69"}, "geometry": {"type": "Point", "coordinates": [116.0102171, -31.9887336]}},
{"type": "Feature", "id": "U0MoMXtlKk9sEXyEBeHiyKvM2VM=", "properties": {"ref": "RR3721", "@spider": "redrooster_au", "amenity": "fast_food", "cuisine": "chicken", "takeaway": "yes", "addr:street_address": "10 Brechin Dr,", "addr:city": "Narre Warre", "addr:state": "VIC", "addr:postcode": "3805", "addr:country": "AU", "name": "Fountain Gate", "phone": "03 9704 9200", "brand": "Red Rooster", "brand:wikidata": "Q376466", "nsi_id": "redrooster-d43c69"}, "geometry": {"type": "Point", "coordinates": [145.3027007, -38.0171694]}},
{"type": "Feature", "id": "Un-sU3C-S6a62AOkUDIFHh32FhI=", "properties": {"ref": "RR3663", "@spider": "redrooster_au", "amenity": "fast_food", "cuisine": "chicken", "takeaway": "yes", "addr:street_address": "Ballarto & Frankston-Dandenong Rds", "addr:city": "Nth Frankston", "addr:state": "VIC", "addr:postcode": "3200", "addr:country": "AU", "name": "Frankston North", "phone": "03 7007 8040", "brand": "Red Rooster", "brand:wikidata": "Q376466", "nsi_id": "redrooster-d43c69"}, "geometry": {"type": "Point", "coordinates": [145.15886, -38.112412]}},
{"type": "Feature", "id": "3IgMWYhwpyQ6zZE8nJKuw-J_vjQ=", "properties": {"ref": "RR4813", "@spider": "redrooster_au", "amenity": "fast_food", "cuisine": "chicken", "takeaway": "yes", "addr:street_address": "Gabba Level 4, 411 Vulture Street", "addr:city": "Woolloongabba", "addr:state": "QLD", "addr:postcode": "4102", "addr:country": "AU", "name": "Gabba L2", "phone": "0424 141 366", "brand": "Red Rooster", "brand:wikidata": "Q376466", "nsi_id": "redrooster-d43c69"}, "geometry": {"type": "Point", "coordinates": [153.0380853, -27.4858376]}},
{"type": "Feature", "id": "fAmyjtgVkxWgiEBGZ3Sx_RP-MUw=", "properties": {"ref": "RR4836", "@spider": "redrooster_au", "amenity": "fast_food", "cuisine": "chicken", "takeaway": "yes", "addr:street_address": "Gabba Level 4, 411 Vulture Street", "addr:city": "Woolloongabba", "addr:state": "QLD", "addr:postcode": "4102", "addr:country": "AU", "name": "Gabba L4", "phone": "0424 141 366", "brand": "Red Rooster", "brand:wikidata": "Q376466", "nsi_id": "redrooster-d43c69"}, "geometry": {"type": "Point", "coordinates": [153.0380853, -27.4858376]}},
{"type": "Feature", "id": "zRhY4vEWb8fdOX8KN1-lOKgO5c4=", "properties": {"ref": "RR3715", "@spider": "redrooster_au", "amenity": "fast_food", "cuisine": "chicken", "takeaway": "yes", "addr:street_address": "2-4 Fyans Street", "addr:city": "Geelong", "addr:state": "VIC", "addr:postcode": "3220", "addr:country": "AU", "name": "Geelong", "phone": "03 5224 2310", "brand": "Red Rooster", "brand:wikidata": "Q376466", "nsi_id": "redrooster-d43c69"}, "geometry": {"type": "Point", "coordinates": [144.3503448, -38.1612223]}},
{"type": "Feature", "id": "JY41Z4XawwL3fFvMZ3391Z96PzI=", "properties": {"ref": "RR3648", "@spider": "redrooster_au", "amenity": "fast_food", "cuisine": "chicken", "takeaway": "yes", "addr:street_address": "BP Freeway Sewrvice Centre Geelong Ring Road Northbound ( Kulina Dve )", "addr:city": "Geelong", "addr:state": "VIC", "addr:postcode": "3213", "addr:country": "AU", "name": "Geelong Bypass North Inbound", "phone": "03 7007 8009", "brand": "Red Rooster", "brand:wikidata": "Q376466", "nsi_id": "redrooster-d43c69"}, "geometry": {"type": "Point", "coordinates": [144.3172186, -38.1252591]}},
{"type": "Feature", "id": "l9ZaPc6gwvlFoGGhizxLI96v8To=", "properties": {"ref": "RR3649", "@spider": "redrooster_au", "amenity": "fast_food", "cuisine": "chicken", "takeaway": "yes", "addr:street_address": "BP Freeway Sewrvice Centre Geelong Ring Road Southbound ( Plantation Rd)", "addr:city": "Geelong", "addr:state": "VIC", "addr:postcode": "3214", "addr:country": "AU", "name": "Geelong Bypass South Outbound", "phone": "03 7007 8008", "brand": "Red Rooster", "brand:wikidata": "Q376466", "nsi_id": "redrooster-d43c69"}, "geometry": {"type": "Point", "coordinates": [144.3172186, -38.1252591]}},
{"type": "Feature", "id": "zBR1KOFvxL8v225t6cSDoCvnnTE=", "properties": {"ref": "RR6586", "@spider": "redrooster_au", "amenity": "fast_food", "cuisine": "chicken", "takeaway": "yes", "addr:street_address": "Lawley & Green Streets", "addr:city": "Geraldton", "addr:state": "WA", "addr:postcode": "6530", "addr:country": "AU", "name": "Geraldton", "phone": "08 6112 8616", "brand": "Red Rooster", "brand:wikidata": "Q376466", "nsi_id": "redrooster-d43c69"}, "geometry": {"type": "Point", "coordinates": [114.6284448, -28.733667]}},
{"type": "Feature", "id": "ilByjlkXQMRbNEj2jEgrNkTy9qQ=", "properties": {"ref": "RR4713", "@spider": "redrooster_au", "amenity": "fast_food", "cuisine": "chicken", "takeaway": "yes", "addr:street_address": "36 Far St.", "addr:city": "Gladstone", "addr:state": "QLD", "addr:postcode": "4680", "addr:country": "AU", "name": "Gladstone", "phone": "07 3478 9476", "brand": "Red Rooster", "brand:wikidata": "Q376466", "nsi_id": "redrooster-d43c69"}, "geometry": {"type": "Point", "coordinates": [151.2445576, -23.8600415]}},
{"type": "Feature", "id": "My_o8ok__zutgWe2pOh16FEUfOA=", "properties": {"ref": "RR3612", "@spider": "redrooster_au", "amenity": "fast_food", "cuisine": "chicken", "takeaway": "yes", "addr:street_address": "247 Mickleham Road", "addr:city": "Gladstone Park", "addr:state": "VIC", "addr:postcode": "3043", "addr:country": "AU", "name": "Gladstone Park", "phone": "03 9338 7570", "brand": "Red Rooster", "brand:wikidata": "Q376466", "nsi_id": "redrooster-d43c69"}, "geometry": {"type": "Point", "coordinates": [144.8819726, -37.68331490000001]}},
{"type": "Feature", "id": "MFTU4YeEZuemk-IVYJNE5hNsx90=", "properties": {"ref": "RR2676", "@spider": "redrooster_au", "amenity": "fast_food", "cuisine": "chicken", "takeaway": "yes", "addr:street_address": "591 Main Road", "addr:city": "Glendale", "addr:state": "NSW", "addr:postcode": "2285", "addr:country": "AU", "name": "Glendale", "phone": "02 7923 5750", "brand": "Red Rooster", "brand:wikidata": "Q376466", "nsi_id": "redrooster-d43c69"}, "geometry": {"type": "Point", "coordinates": [151.638328, -32.9273068]}},
{"type": "Feature", "id": "-5_qMecmAn4llDYMjZz_i6MDGZo=", "properties": {"ref": "RR2580", "@spider": "redrooster_au", "amenity": "fast_food", "cuisine": "chicken", "takeaway": "yes", "addr:street_address": "670 Richmond Road", "addr:city": "Glendenning", "addr:state": "NSW", "addr:postcode": "2761", "addr:country": "AU", "name": "Glendenning", "phone": "02 9626 2931", "brand": "Red Rooster", "brand:wikidata": "Q376466", "nsi_id": "redrooster-d43c69"}, "geometry": {"type": "Point", "coordinates": [150.8513047, -33.7360984]}},
{"type": "Feature", "id": "azR6FS6JV1b6VMbRHzRxcJ4TQH8=", "properties": {"ref": "RR4754", "@spider": "redrooster_au", "amenity": "fast_food", "cuisine": "chicken", "takeaway": "yes", "addr:street_address": "Cnr. Farm & Yaamba Rds.", "addr:city": "Glenmore", "addr:state": "QLD", "addr:postcode": "4700", "addr:country": "AU", "name": "Glenmore", "phone": "07 4928 0464", "brand": "Red Rooster", "brand:wikidata": "Q376466", "nsi_id": "redrooster-d43c69"}, "geometry": {"type": "Point", "coordinates": [150.5082971, -23.3636076]}},
{"type": "Feature", "id": "Wyea4XzHtxOpRjk0C6XDYtzcSIY=", "properties": {"ref": "RR4878", "@spider": "redrooster_au", "amenity": "fast_food", "cuisine": "chicken", "takeaway": "yes", "addr:street_address": "Gold Coast Airport 1 Eastern Avenue", "addr:city": "Balinga", "addr:state": "QLD", "addr:postcode": "4225", "addr:country": "AU", "name": "Gold Coast Airport", "brand": "Red Rooster", "brand:wikidata": "Q376466", "nsi_id": "redrooster-d43c69"}, "geometry": {"type": "Point", "coordinates": [153.5150588, -28.164661]}},
{"type": "Feature", "id": "FApNgQGDw3sOoGCmmPyPiDpC6rI=", "properties": {"ref": "RR4775", "@spider": "redrooster_au", "amenity": "fast_food", "cuisine": "chicken", "takeaway": "yes", "addr:street_address": "St. Ives S/C. Cnr. Smiths Rd. & Queen St.", "addr:city": "Goodna", "addr:state": "QLD", "addr:postcode": "4300", "addr:country": "AU", "name": "Goodna", "phone": "07 2105 1504", "brand": "Red Rooster", "brand:wikidata": "Q376466", "nsi_id": "redrooster-d43c69"}, "geometry": {"type": "Point", "coordinates": [152.8982875, -27.609421]}},
{"type": "Feature", "id": "dMQkh2zHCWw4WM50XDvIbZGKF7A=", "properties": {"ref": "RR4724", "@spider": "redrooster_au", "amenity": "fast_food", "cuisine": "chicken", "takeaway": "yes", "addr:street_address": "37 Marshall St.", "addr:city": "Goondiwindi", "addr:state": "QLD", "addr:postcode": "4390", "addr:country": "AU", "name": "Goondiwindi", "phone": "07 4671 4114", "brand": "Red Rooster", "brand:wikidata": "Q376466", "nsi_id": "redrooster-d43c69"}, "geometry": {"type": "Point", "coordinates": [150.3039359, -28.5461972]}},
{"type": "Feature", "id": "-S6uZpNauAEo6taJVU3BIDb76Kc=", "properties": {"ref": "RR2653", "@spider": "redrooster_au", "amenity": "fast_food", "cuisine": "chicken", "takeaway": "yes", "addr:street_address": "57 Central Coast Hwy (Cnr Hely St)", "addr:city": "West Gosford", "addr:state": "NSW", "addr:postcode": "2250", "addr:country": "AU", "name": "Gosford West", "phone": "02 7923 5677", "brand": "Red Rooster", "brand:wikidata": "Q376466", "nsi_id": "redrooster-d43c69"}, "geometry": {"type": "Point", "coordinates": [151.3290863, -33.4267434]}},
{"type": "Feature", "id": "0K8p-rQe1ndftMntT2O2F99gEt4=", "properties": {"ref": "RR6634", "@spider": "redrooster_au", "amenity": "fast_food", "cuisine": "chicken", "takeaway": "yes", "addr:street_address": "2184 Albany Highway", "addr:city": "Gosnells", "addr:state": "WA", "addr:postcode": "6110", "addr:country": "AU", "name": "Gosnells", "phone": "08 6157 5343", "brand": "Red Rooster", "brand:wikidata": "Q376466", "nsi_id": "redrooster-d43c69"}, "geometry": {"type": "Point", "coordinates": [116.0007262, -32.070023]}},
{"type": "Feature", "id": "FgqV1pF0jOZMIVQIoM632MECYEc=", "properties": {"ref": "RR2646", "@spider": "redrooster_au", "amenity": "fast_food", "cuisine": "chicken", "takeaway": "yes", "addr:street_address": "Corner of Duck Lane and Hume Street", "addr:city": "Goulburn", "addr:state": "NSW", "addr:postcode": "2580", "addr:country": "AU", "name": "Goulburn DT", "phone": "02 4861 3265", "brand": "Red Rooster", "brand:wikidata": "Q376466", "nsi_id": "redrooster-d43c69"}, "geometry": {"type": "Point", "coordinates": [149.6886362, -34.7726488]}},
{"type": "Feature", "id": "infaEnoGyfJy8DcwDyg4_10GNwM=", "properties": {"ref": "RR2647", "@spider": "redrooster_au", "amenity": "fast_food", "cuisine": "chicken", "takeaway": "yes", "addr:street_address": "228 Auburn Street", "addr:city": "Goulburn", "addr:state": "NSW", "addr:postcode": "2580", "addr:country": "AU", "name": "Goulburn Reggie", "phone": "02 4823 9391", "brand": "Red Rooster", "brand:wikidata": "Q376466", "nsi_id": "redrooster-d43c69"}, "geometry": {"type": "Point", "coordinates": [149.7188694, -34.7534419]}},
{"type": "Feature", "id": "yYQZzgjUNxRdsMj0boAeu8sA14U=", "properties": {"ref": "RR4756", "@spider": "redrooster_au", "amenity": "fast_food", "cuisine": "chicken", "takeaway": "yes", "addr:street_address": "Tenancy P3 Gracemere Shopping World  McLaughlin St.", "addr:city": "Gracemere", "addr:state": "QLD", "addr:postcode": "4702", "addr:country": "AU", "name": "Gracemere", "phone": "07 4933 1108", "brand": "Red Rooster", "brand:wikidata": "Q376466", "nsi_id": "redrooster-d43c69"}, "geometry": {"type": "Point", "coordinates": [150.4533333, -23.4338889]}},
{"type": "Feature", "id": "SssIL7rB8htwv9BTza-uy71k5BM=", "properties": {"ref": "RR2686", "@spider": "redrooster_au", "amenity": "fast_food", "cuisine": "chicken", "takeaway": "yes", "addr:street_address": "Corner Spring & Iolanthe Streets South", "addr:city": "Grafton", "addr:state": "NSW", "addr:postcode": "2460", "addr:country": "AU", "name": "Grafton", "phone": "02 7203 5235", "brand": "Red Rooster", "brand:wikidata": "Q376466", "nsi_id": "redrooster-d43c69"}, "geometry": {"type": "Point", "coordinates": [152.9370724, -29.7041524]}},
{"type": "Feature", "id": "vWmHKQciIysTTFqNJGZe-VJhyik=", "properties": {"ref": "RR3621", "@spider": "redrooster_au", "amenity": "fast_food", "cuisine": "chicken", "takeaway": "yes", "addr:street_address": "Grimshaw St & Greensborough Road", "addr:city": "Greensborough", "addr:state": "VIC", "addr:postcode": "3088", "addr:country": "AU", "name": "Greensborough", "phone": "03 9434 5682", "brand": "Red Rooster", "brand:wikidata": "Q376466", "nsi_id": "redrooster-d43c69"}, "geometry": {"type": "Point", "coordinates": [145.0919291, -37.7033839]}},
{"type": "Feature", "id": "ThUKuxdrZqp12GkcKC-ipPwGLgY=", "properties": {"ref": "RR2726", "@spider": "redrooster_au", "amenity": "fast_food", "cuisine": "chicken", "takeaway": "yes", "addr:street_address": "3 Lasso Road", "addr:city": "Gregory Hills", "addr:state": "NSW", "addr:postcode": "2570", "addr:country": "AU", "name": "Gregory Hills", "phone": "02 4623 3434", "brand": "Red Rooster", "brand:wikidata": "Q376466", "nsi_id": "redrooster-d43c69"}, "geometry": {"type": "Point", "coordinates": [150.7607481, -34.0217718]}},
{"type": "Feature", "id": "7Npal7UedlwmTL7KsfFYRm0n8S4=", "properties": {"ref": "RR2603", "@spider": "redrooster_au", "amenity": "fast_food", "cuisine": "chicken", "takeaway": "yes", "addr:street_address": "25-27 Banna Avenue", "addr:city": "Griffith", "addr:state": "NSW", "addr:postcode": "2680", "addr:country": "AU", "name": "Griffith", "phone": "02 7203 5234", "brand": "Red Rooster", "brand:wikidata": "Q376466", "nsi_id": "redrooster-d43c69"}, "geometry": {"type": "Point", "coordinates": [146.0607353, -34.28929919999999]}},
{"type": "Feature", "id": "PGFZutzqRwEx9XwIAzF28wHqKkQ=", "properties": {"ref": "RR2700", "@spider": "redrooster_au", "amenity": "fast_food", "cuisine": "chicken", "takeaway": "yes", "addr:street_address": "322 Woodville Road Cnr Bursill Street", "addr:city": "Guildford", "addr:state": "NSW", "addr:postcode": "2161", "addr:country": "AU", "name": "Guildford", "phone": "02 80551946", "brand": "Red Rooster", "brand:wikidata": "Q376466", "nsi_id": "redrooster-d43c69"}, "geometry": {"type": "Point", "coordinates": [150.9957771, -33.8522904]}},
{"type": "Feature", "id": "dre2RM_AyhW0PJDfxe2C4y-c0W8=", "properties": {"ref": "RR4879", "@spider": "redrooster_au", "amenity": "fast_food", "cuisine": "chicken", "takeaway": "yes", "addr:street_address": "Shop 4, 15 Wickham Street", "addr:city": "Gympie", "addr:state": "QLD", "addr:postcode": "4570", "addr:country": "AU", "name": "Gympie", "phone": "07 5482 9311", "brand": "Red Rooster", "brand:wikidata": "Q376466", "nsi_id": "redrooster-d43c69"}, "geometry": {"type": "Point", "coordinates": [152.657381, -26.1913098]}},
{"type": "Feature", "id": "knfHNzgDBtaloz6N5P1w3MsEp9k=", "properties": {"ref": "RR6605", "@spider": "redrooster_au", "amenity": "fast_food", "cuisine": "chicken", "takeaway": "yes", "addr:street_address": "Guava Way & Peelwood Parade", "addr:city": "Halls Head", "addr:state": "WA", "addr:postcode": "6210", "addr:country": "AU", "name": "Halls Head", "phone": "08 9581 2222", "brand": "Red Rooster", "brand:wikidata": "Q376466", "nsi_id": "redrooster-d43c69"}, "geometry": {"type": "Point", "coordinates": [115.7008154, -32.5504447]}},
{"type": "Feature", "id": "I4fOKrlZnyBlMy2R6UUhX2I6bJQ=", "properties": {"ref": "RR6565", "@spider": "redrooster_au", "amenity": "fast_food", "cuisine": "chicken", "takeaway": "yes", "addr:street_address": "Carrington & Dodd Streets", "addr:city": "Hamilton Hill", "addr:state": "WA", "addr:postcode": "6163", "addr:country": "AU", "name": "Hamilton Hill", "phone": "08 9337 1673", "brand": "Red Rooster", "brand:wikidata": "Q376466", "nsi_id": "redrooster-d43c69"}, "geometry": {"type": "Point", "coordinates": [115.7798754, -32.0758478]}},
{"type": "Feature", "id": "aiW52V16Dyohh-vMUWmDudI4O7Q=", "properties": {"ref": "RR3691", "@spider": "redrooster_au", "amenity": "fast_food", "cuisine": "chicken", "takeaway": "yes", "addr:street_address": "100 South Road Corner of Hampton Street", "addr:city": "Hampton", "addr:state": "VIC", "addr:postcode": "3188", "addr:country": "AU", "name": "Hampton", "phone": "03 9521 9489", "brand": "Red Rooster", "brand:wikidata": "Q376466", "nsi_id": "redrooster-d43c69"}, "geometry": {"type": "Point", "coordinates": [145.003439, -37.929492]}},
{"type": "Feature", "id": "tg06dZCXWtLlwjQdwpix2Tu9Pec=", "properties": {"ref": "RR3676", "@spider": "redrooster_au", "amenity": "fast_food", "cuisine": "chicken", "takeaway": "yes", "addr:street_address": "Cnr Sommerville & Hallam Rds", "addr:city": "Hampton Park", "addr:state": "VIC", "addr:postcode": "3976", "addr:country": "AU", "name": "Hampton Park", "phone": "03 7007 8017", "brand": "Red Rooster", "brand:wikidata": "Q376466", "nsi_id": "redrooster-d43c69"}, "geometry": {"type": "Point", "coordinates": [145.2660587, -38.0326996]}},
{"type": "Feature", "id": "lT4NT8pS1Tbm802y0DhxYxbWfY0=", "properties": {"ref": "RR3725", "@spider": "redrooster_au", "amenity": "fast_food", "cuisine": "chicken", "takeaway": "yes", "addr:street_address": "2091 Frankton-Flinders Rd (Cnr Glendale Ave)", "addr:city": "Hastings", "addr:state": "VIC", "addr:postcode": "3915", "addr:country": "AU", "name": "Hastings", "phone": "03 9055 8190", "brand": "Red Rooster", "brand:wikidata": "Q376466", "nsi_id": "redrooster-d43c69"}, "geometry": {"type": "Point", "coordinates": [145.1838942628, -38.3071295717]}},
{"type": "Feature", "id": "TrWlUzTEVNoJOh14f9hFrTo29GQ=", "properties": {"ref": "RR4652", "@spider": "redrooster_au", "amenity": "fast_food", "cuisine": "chicken", "takeaway": "yes", "addr:street_address": "Sir John Overall Dr.", "addr:city": "Helensvale", "addr:state": "QLD", "addr:postcode": "4212", "addr:country": "AU", "name": "Helensvale", "phone": "07 5573 4277", "brand": "Red Rooster", "brand:wikidata": "Q376466", "nsi_id": "redrooster-d43c69"}, "geometry": {"type": "Point", "coordinates": [153.3360778, -27.9224926]}},
{"type": "Feature", "id": "cOlnW95c5aGPresO4yVie08kdmg=", "properties": {"ref": "RR4611", "@spider": "redrooster_au", "amenity": "fast_food", "cuisine": "chicken", "takeaway": "yes", "addr:street_address": "Cnr. Boat Harbour Dr. & Main St.", "addr:city": "Hervey Bay", "addr:state": "QLD", "addr:postcode": "4655", "addr:country": "AU", "name": "Hervey Bay", "phone": "07 3478 9492", "brand": "Red Rooster", "brand:wikidata": "Q376466", "nsi_id": "redrooster-d43c69"}, "geometry": {"type": "Point", "coordinates": [152.838458, -25.286117]}},
{"type": "Feature", "id": "th3nnFJP07O9orPIbIWqe4tZyZQ=", "properties": {"ref": "RR3722", "@spider": "redrooster_au", "amenity": "fast_food", "cuisine": "chicken", "takeaway": "yes", "addr:street_address": "262 -264 Derimut Road", "addr:city": "Hoppers Crossing", "addr:state": "VIC", "addr:postcode": "3030", "addr:country": "AU", "name": "Hogans Corner", "phone": "03 7007 8048", "brand": "Red Rooster", "brand:wikidata": "Q376466", "nsi_id": "redrooster-d43c69"}, "geometry": {"type": "Point", "coordinates": [144.6862064, -37.8620405]}},
{"type": "Feature", "id": "1LEsDCJFqBp39d1XR7Gzo8sbHJ4=", "properties": {"ref": "RR3633", "@spider": "redrooster_au", "amenity": "fast_food", "cuisine": "chicken", "takeaway": "yes", "addr:street_address": "10-14 Morris Road", "addr:city": "Hoppers Crossing", "addr:state": "VIC", "addr:postcode": "3029", "addr:country": "AU", "name": "Hoppers Crossing", "phone": "03 7007 8034", "brand": "Red Rooster", "brand:wikidata": "Q376466", "nsi_id": "redrooster-d43c69"}, "geometry": {"type": "Point", "coordinates": [144.7014374, -37.8808705]}},
{"type": "Feature", "id": "efnFAy7ATIP3Bw-TSU1bAZZ1fak=", "properties": {"ref": "RR4819", "@spider": "redrooster_au", "amenity": "fast_food", "cuisine": "chicken", "takeaway": "yes", "addr:street_address": "Red Rooster Inala Corner Freeman and Rosemary Street", "addr:city": "Inala", "addr:state": "QLD", "addr:postcode": "4077", "addr:country": "AU", "name": "Inala", "phone": "07 3879 8184", "brand": "Red Rooster", "brand:wikidata": "Q376466", "nsi_id": "redrooster-d43c69"}, "geometry": {"type": "Point", "coordinates": [152.9743723, -27.578399]}},
{"type": "Feature", "id": "VPkUH7pUxUy_cIiDHg-2STjDMDg=", "properties": {"ref": "RR6636", "@spider": "redrooster_au", "amenity": "fast_food", "cuisine": "chicken", "takeaway": "yes", "addr:street_address": "Cnr Oswald & Scarborough Beach Rd", "addr:city": "Innaloo", "addr:state": "WA", "addr:postcode": "6018", "addr:country": "AU", "name": "Innaloo DTR", "phone": "08 9446 8037", "brand": "Red Rooster", "brand:wikidata": "Q376466", "nsi_id": "redrooster-d43c69"}, "geometry": {"type": "Point", "coordinates": [115.8005083, -31.9006184]}},
{"type": "Feature", "id": "UTAiuOpl9kLnL_YvpTu-DU00t9Y=", "properties": {"ref": "RR2612", "@spider": "redrooster_au", "amenity": "fast_food", "cuisine": "chicken", "takeaway": "yes", "addr:street_address": "Cnr Mulgoa Rd & Glenbrook Street", "addr:city": "Jamisontown", "addr:state": "NSW", "addr:postcode": "2750", "addr:country": "AU", "name": "Jamisontown", "phone": "02 4733 5508", "brand": "Red Rooster", "brand:wikidata": "Q376466", "nsi_id": "redrooster-d43c69"}, "geometry": {"type": "Point", "coordinates": [150.6755589, -33.7698182]}},
{"type": "Feature", "id": "LnuwpAfqWFtQFg-tQX2i8l4qhyk=", "properties": {"ref": "RR6603", "@spider": "redrooster_au", "amenity": "fast_food", "cuisine": "chicken", "takeaway": "yes", "addr:street_address": "Lakeside SC  Cnr. Joondalup & Dwyer", "addr:city": "Joondalup", "addr:state": "WA", "addr:postcode": "6027", "addr:country": "AU", "name": "Joondalup", "phone": "08 9301 2461", "brand": "Red Rooster", "brand:wikidata": "Q376466", "nsi_id": "redrooster-d43c69"}, "geometry": {"type": "Point", "coordinates": [115.764052, -31.739981]}},
{"type": "Feature", "id": "S41nq6HnVdmn93MeJFuaQTguxdM=", "properties": {"ref": "RR6563", "@spider": "redrooster_au", "amenity": "fast_food", "cuisine": "chicken", "takeaway": "yes", "addr:street_address": "Cnr Wanneroo Rd & Robert St", "addr:city": "Joondanna", "addr:state": "WA", "addr:postcode": "6060", "addr:country": "AU", "name": "Joondanna", "phone": "08 6157 5302", "brand": "Red Rooster", "brand:wikidata": "Q376466", "nsi_id": "redrooster-d43c69"}, "geometry": {"type": "Point", "coordinates": [115.8443056, -31.9081161]}},
{"type": "Feature", "id": "G718Rjqwlv-nmXMEr4tYNScoEtQ=", "properties": {"ref": "RR6648", "@spider": "redrooster_au", "amenity": "fast_food", "cuisine": "chicken", "takeaway": "yes", "addr:street_address": "1 Canning Road", "addr:city": "Kalamunda", "addr:state": "WA", "addr:postcode": "6076", "addr:country": "AU", "name": "Kalamunda", "phone": "08 9293 4473", "brand": "Red Rooster", "brand:wikidata": "Q376466", "nsi_id": "redrooster-d43c69"}, "geometry": {"type": "Point", "coordinates": [116.057158, -31.9704295]}},
{"type": "Feature", "id": "NLkasw5QCgsrdTpoiYszN3JVk_c=", "properties": {"ref": "RR6556", "@spider": "redrooster_au", "amenity": "fast_food", "cuisine": "chicken", "takeaway": "yes", "addr:street_address": "Cnr Brookman & Wilson St's", "addr:city": "Kalgoorlie", "addr:state": "WA", "addr:postcode": "6430", "addr:country": "AU", "name": "Kalgoorlie", "phone": "08 9021 1067", "brand": "Red Rooster", "brand:wikidata": "Q376466", "nsi_id": "redrooster-d43c69"}, "geometry": {"type": "Point", "coordinates": [121.4770327, -30.7544756]}},
{"type": "Feature", "id": "KRg3dimz_BL8NArN7qyf2M2Z--w=", "properties": {"ref": "RR4845", "@spider": "redrooster_au", "amenity": "fast_food", "cuisine": "chicken", "takeaway": "yes", "addr:street_address": "Cnr. Anzac Ave. & the Crescent", "addr:city": "Kallangur", "addr:state": "QLD", "addr:postcode": "4503", "addr:country": "AU", "name": "Kallangur", "phone": "07 3074 1960", "brand": "Red Rooster", "brand:wikidata": "Q376466", "nsi_id": "redrooster-d43c69"}, "geometry": {"type": "Point", "coordinates": [152.9966375, -27.2499548]}},
{"type": "Feature", "id": "IAX6R5pyO8IbEkbccbSiAnCmiHk=", "properties": {"ref": "RR3677", "@spider": "redrooster_au", "amenity": "fast_food", "cuisine": "chicken", "takeaway": "yes", "addr:street_address": "Karingal Hub S/C Karingal Drive/Cranbourne Road", "addr:city": "Karingal", "addr:state": "VIC", "addr:postcode": "3199", "addr:country": "AU", "name": "Karingal", "phone": "03 7007 8036", "brand": "Red Rooster", "brand:wikidata": "Q376466", "nsi_id": "redrooster-d43c69"}, "geometry": {"type": "Point", "coordinates": [145.1662662, -38.1522833]}},
{"type": "Feature", "id": "Az9i4rOhgw2eaqc_5IPnodTAyPY=", "properties": {"ref": "RR1503", "@spider": "redrooster_au", "amenity": "fast_food", "cuisine": "chicken", "takeaway": "yes", "addr:street_address": "Cnr. Katherine Tce. & Warburton St.", "addr:city": "Katherine", "addr:state": "NT", "addr:postcode": "0850", "addr:country": "AU", "name": "Katherine", "phone": "08 7915 3151", "brand": "Red Rooster", "brand:wikidata": "Q376466", "nsi_id": "redrooster-d43c69"}, "geometry": {"type": "Point", "coordinates": [132.2621302, -14.4644557]}},
{"type": "Feature", "id": "KgfZaYUewaXUiQyeWSUxvWDkRnI=", "properties": {"ref": "RR3707", "@spider": "redrooster_au", "amenity": "fast_food", "cuisine": "chicken", "takeaway": "yes", "addr:street_address": "251 Keilor Road", "addr:city": "Essendon North", "addr:state": "VIC", "addr:postcode": "3041", "addr:country": "AU", "name": "Keilor Road", "phone": "03 9379 4185", "brand": "Red Rooster", "brand:wikidata": "Q376466", "nsi_id": "redrooster-d43c69"}, "geometry": {"type": "Point", "coordinates": [144.8971491, -37.7393921]}},
{"type": "Feature", "id": "71VZBffVaji2rpY2yaZsn5_Z4Ug=", "properties": {"ref": "RR6569", "@spider": "redrooster_au", "amenity": "fast_food", "cuisine": "chicken", "takeaway": "yes", "addr:street_address": "2889 Albany Highway", "addr:city": "Kelmscott", "addr:state": "WA", "addr:postcode": "6111", "addr:country": "AU", "name": "Kelmscott", "phone": "08 9390 5918", "brand": "Red Rooster", "brand:wikidata": "Q376466", "nsi_id": "redrooster-d43c69"}, "geometry": {"type": "Point", "coordinates": [116.0149739, -32.1166314]}},
{"type": "Feature", "id": "eUzpdIQ2yGlTWD-xm9H-ajuOscw=", "properties": {"ref": "RR4774", "@spider": "redrooster_au", "amenity": "fast_food", "cuisine": "chicken", "takeaway": "yes", "addr:street_address": "171 Kelvin Grove Road", "addr:city": "Kelvin Grove", "addr:state": "QLD", "addr:postcode": "4069", "addr:country": "AU", "name": "Kelvin Grove", "phone": "07 3831 0401", "brand": "Red Rooster", "brand:wikidata": "Q376466", "nsi_id": "redrooster-d43c69"}, "geometry": {"type": "Point", "coordinates": [153.0112856, -27.4516907]}},
{"type": "Feature", "id": "GOsincm1Lret7p6k890nEn_ZEkY=", "properties": {"ref": "RR2634", "@spider": "redrooster_au", "amenity": "fast_food", "cuisine": "chicken", "takeaway": "yes", "addr:street_address": "629 Pacific Highway", "addr:city": "Kempsey", "addr:state": "NSW", "addr:postcode": "2440", "addr:country": "AU", "name": "Kempsey", "phone": "02 6562 5138", "brand": "Red Rooster", "brand:wikidata": "Q376466", "nsi_id": "redrooster-d43c69"}, "geometry": {"type": "Point", "coordinates": [152.8286098, -31.1286894]}},
{"type": "Feature", "id": "cXDYecGlg8d1eZSbiT_DciuWlRg=", "properties": {"ref": "RR4738", "@spider": "redrooster_au", "amenity": "fast_food", "cuisine": "chicken", "takeaway": "yes", "addr:street_address": "Cnr. Moggill Rd. & Almay St.", "addr:city": "Kenmore", "addr:state": "QLD", "addr:postcode": "4069", "addr:country": "AU", "name": "Kenmore", "phone": "07 3378 6305", "brand": "Red Rooster", "brand:wikidata": "Q376466", "nsi_id": "redrooster-d43c69"}, "geometry": {"type": "Point", "coordinates": [152.937707, -27.5102059]}},
{"type": "Feature", "id": "6iaGeUMDDQTfg3zTixTLOUt-43s=", "properties": {"ref": "RR2558", "@spider": "redrooster_au", "amenity": "fast_food", "cuisine": "chicken", "takeaway": "yes", "addr:street_address": "Shop 16 106-108 Terralong Street", "addr:city": "Kiama", "addr:state": "NSW", "addr:postcode": "2533", "addr:country": "AU", "name": "Kiama", "phone": "02 7923 5684", "brand": "Red Rooster", "brand:wikidata": "Q376466", "nsi_id": "redrooster-d43c69"}, "geometry": {"type": "Point", "coordinates": [150.852902, -34.6695169]}},
{"type": "Feature", "id": "5rz3joRjP3UCumpCnbXSuuqZ0q8=", "properties": {"ref": "RR3718", "@spider": "redrooster_au", "amenity": "fast_food", "cuisine": "chicken", "takeaway": "yes", "addr:street_address": "Canterbury & Liverpool Roads,", "addr:city": "Kilsyth", "addr:state": "VIC", "addr:postcode": "3137", "addr:country": "AU", "name": "Kilsyth", "phone": "03 9728 1066", "brand": "Red Rooster", "brand:wikidata": "Q376466", "nsi_id": "redrooster-d43c69"}, "geometry": {"type": "Point", "coordinates": [145.3168532, -37.8182274]}},
{"type": "Feature", "id": "tq_MCAXqd9IADmPwLk4bMj4OM14=", "properties": {"ref": "RR4784", "@spider": "redrooster_au", "amenity": "fast_food", "cuisine": "chicken", "takeaway": "yes", "addr:street_address": "67 Kingaroy St.", "addr:city": "Kingaroy", "addr:state": "QLD", "addr:postcode": "4610", "addr:country": "AU", "name": "Kingaroy", "phone": "07 4162 4624", "brand": "Red Rooster", "brand:wikidata": "Q376466", "nsi_id": "redrooster-d43c69"}, "geometry": {"type": "Point", "coordinates": [151.8377676, -26.5480201]}},
{"type": "Feature", "id": "IQsAj_bk6eoXjXfFqB_3ft7GFSI=", "properties": {"ref": "RR6521", "@spider": "redrooster_au", "amenity": "fast_food", "cuisine": "chicken", "takeaway": "yes", "addr:street_address": "180 Wanneroo Road", "addr:city": "Landsdale", "addr:state": "WA", "addr:postcode": "6065", "addr:country": "AU", "name": "Kingsway", "phone": "08 6157 5340", "brand": "Red Rooster", "brand:wikidata": "Q376466", "nsi_id": "redrooster-d43c69"}, "geometry": {"type": "Point", "coordinates": [115.8212826, -31.8179308]}},
{"type": "Feature", "id": "ReZoAvDP7QN24ISX2q5sEznTLSk=", "properties": {"ref": "RR4871", "@spider": "redrooster_au", "amenity": "fast_food", "cuisine": "chicken", "takeaway": "yes", "addr:street_address": "Cnr. Bamford Lane & Charles St.", "addr:city": "Kirwan", "addr:state": "QLD", "addr:postcode": "4817", "addr:country": "AU", "name": "Kirwan", "phone": "07 4773 4288", "brand": "Red Rooster", "brand:wikidata": "Q376466", "nsi_id": "redrooster-d43c69"}, "geometry": {"type": "Point", "coordinates": [146.7403196, -19.3042674]}},
{"type": "Feature", "id": "W_4EhJRklMsznVXg-7lhk_7Sclc=", "properties": {"ref": "RR4835", "@spider": "redrooster_au", "amenity": "fast_food", "cuisine": "chicken", "takeaway": "yes", "addr:street_address": "Homemaker Centre 72 Maroochydore Road,", "addr:city": "Maroochydore", "addr:state": "QLD", "addr:postcode": "4588", "addr:country": "AU", "name": "Kuluin", "phone": "07 3478 9466", "brand": "Red Rooster", "brand:wikidata": "Q376466", "nsi_id": "redrooster-d43c69"}, "geometry": {"type": "Point", "coordinates": [153.0837583, -26.6589879]}},
{"type": "Feature", "id": "h2orzGCwcqE18g8uvoYZm7NMhSo=", "properties": {"ref": "RR2640", "@spider": "redrooster_au", "amenity": "fast_food", "cuisine": "chicken", "takeaway": "yes", "addr:street_address": "98 Main Street", "addr:city": "Heddon Greta", "addr:state": "NSW", "addr:postcode": "2321", "addr:country": "AU", "name": "Kurri Kurri", "phone": "02 4937 1595", "brand": "Red Rooster", "brand:wikidata": "Q376466", "nsi_id": "redrooster-d43c69"}, "geometry": {"type": "Point", "coordinates": [151.5025405, -32.8076513]}},
{"type": "Feature", "id": "Ln8THWgCDpTDsYXSMSEHLBvLuJw=", "properties": {"ref": "RR2623", "@spider": "redrooster_au", "amenity": "fast_food", "cuisine": "chicken", "takeaway": "yes", "addr:street_address": "Lakehaven Shopping Centre Lake Haven Drive", "addr:city": "Lake Haven", "addr:state": "NSW", "addr:postcode": "2263", "addr:country": "AU", "name": "Lake Haven", "phone": "02 4393 1299", "brand": "Red Rooster", "brand:wikidata": "Q376466", "nsi_id": "redrooster-d43c69"}, "geometry": {"type": "Point", "coordinates": [151.5036653, -33.2408898]}},
{"type": "Feature", "id": "h6RlYrayof35jVhRwUMZ0gSgRgI=", "properties": {"ref": "RR2739", "@spider": "redrooster_au", "amenity": "fast_food", "cuisine": "chicken", "takeaway": "yes", "addr:street_address": "944 Canterbury Rd Cnr Dreadnought St", "addr:city": "Lakemba", "addr:state": "NSW", "addr:postcode": "2195", "addr:country": "AU", "name": "Lakemba", "phone": "02 9750 0959", "brand": "Red Rooster", "brand:wikidata": "Q376466", "nsi_id": "redrooster-d43c69"}},
{"type": "Feature", "id": "Ha9eClJHny_LrxSE2zAwUd6jldY=", "properties": {"ref": "RR3658", "@spider": "redrooster_au", "amenity": "fast_food", "cuisine": "chicken", "takeaway": "yes", "addr:street_address": "343 Dalton Road", "addr:city": "Lalor", "addr:state": "VIC", "addr:postcode": "3075", "addr:country": "AU", "name": "Lalor", "phone": "03 9401 5191", "brand": "Red Rooster", "brand:wikidata": "Q376466", "nsi_id": "redrooster-d43c69"}, "geometry": {"type": "Point", "coordinates": [145.0300675, -37.6598264]}},
{"type": "Feature", "id": "CGwUmcETyYb38KbUJnTNArotxSA=", "properties": {"ref": "RR4768", "@spider": "redrooster_au", "amenity": "fast_food", "cuisine": "chicken", "takeaway": "yes", "addr:street_address": "92 Radius Drive", "addr:city": "Larapinta", "addr:state": "QLD", "addr:postcode": "4110", "addr:country": "AU", "name": "Larapinta", "phone": "07 3478 9495", "brand": "Red Rooster", "brand:wikidata": "Q376466", "nsi_id": "redrooster-d43c69"}, "geometry": {"type": "Point", "coordinates": [153.0046703, -27.64036]}},
{"type": "Feature", "id": "tkl1ktZveqn4dVs9aVI3bLOftes=", "properties": {"ref": "RR3714", "@spider": "redrooster_au", "amenity": "fast_food", "cuisine": "chicken", "takeaway": "yes", "addr:street_address": "326 Wagga Rd", "addr:city": "Lavington", "addr:state": "NSW", "addr:postcode": "2461", "addr:country": "AU", "name": "Lavington", "phone": "02 7923 5751", "brand": "Red Rooster", "brand:wikidata": "Q376466", "nsi_id": "redrooster-d43c69"}, "geometry": {"type": "Point", "coordinates": [146.9355845, -36.0510208]}},
{"type": "Feature", "id": "T9OqMP9we8FxotS09Q9_TEa5ppU=", "properties": {"ref": "RR2734", "@spider": "redrooster_au", "amenity": "fast_food", "cuisine": "chicken", "takeaway": "yes", "addr:street_address": "1119 Great Western Highway Cnr Main Street", "addr:city": "Lithgow", "addr:state": "NSW", "addr:postcode": "2790", "addr:country": "AU", "name": "Lithgow", "phone": "02 7923 5743", "brand": "Red Rooster", "brand:wikidata": "Q376466", "nsi_id": "redrooster-d43c69"}, "geometry": {"type": "Point", "coordinates": [150.1372853, -33.4814589]}},
{"type": "Feature", "id": "U9VqSs8Za0UjqQEEJ3bIv11huao=", "properties": {"ref": "RR4867", "@spider": "redrooster_au", "amenity": "fast_food", "cuisine": "chicken", "takeaway": "yes", "addr:street_address": "Shop FS1 Logan City Centre Cnr Wembley & Kingston Rds", "addr:city": "Logan City", "addr:state": "QLD", "addr:postcode": "4114", "addr:country": "AU", "name": "Logan City", "phone": "07 3478 9488", "brand": "Red Rooster", "brand:wikidata": "Q376466", "nsi_id": "redrooster-d43c69"}, "geometry": {"type": "Point", "coordinates": [153.1177428, -27.6437003]}},
{"type": "Feature", "id": "GIj8CoUHiXliUakaJGQC0leZQow=", "properties": {"ref": "RR4742", "@spider": "redrooster_au", "amenity": "fast_food", "cuisine": "chicken", "takeaway": "yes", "addr:street_address": "Shop 330. Logan Hyperdome S/C. Cnr Bryants Rd. & Pacific Hwy.", "addr:city": "Loganholme", "addr:state": "QLD", "addr:postcode": "4130", "addr:country": "AU", "name": "Logan Hyperdome FC", "phone": "07 3515 0417", "brand": "Red Rooster", "brand:wikidata": "Q376466", "nsi_id": "redrooster-d43c69"}, "geometry": {"type": "Point", "coordinates": [153.1727439, -27.6623786]}},
{"type": "Feature", "id": "AhgVNw52Gz1cUahz2PbSW8wtQ9Y=", "properties": {"ref": "RR4763", "@spider": "redrooster_au", "amenity": "fast_food", "cuisine": "chicken", "takeaway": "yes", "addr:street_address": "2 - 4 Leda Dr.", "addr:city": "Loganholme", "addr:state": "QLD", "addr:postcode": "4129", "addr:country": "AU", "name": "Loganholme DT", "phone": "07 3515 0401", "brand": "Red Rooster", "brand:wikidata": "Q376466", "nsi_id": "redrooster-d43c69"}, "geometry": {"type": "Point", "coordinates": [153.1685433, -27.6591068]}},
{"type": "Feature", "id": "IHke8eavrvFPtQZTph0ixSCPN2c=", "properties": {"ref": "RR2707", "@spider": "redrooster_au", "amenity": "fast_food", "cuisine": "chicken", "takeaway": "yes", "addr:street_address": "176 Hoxton Park Road", "addr:city": "Lurnea", "addr:state": "NSW", "addr:postcode": "2170", "addr:country": "AU", "name": "Lurnea", "phone": "02 7923 5673", "brand": "Red Rooster", "brand:wikidata": "Q376466", "nsi_id": "redrooster-d43c69"}, "geometry": {"type": "Point", "coordinates": [150.8963762, -33.9270971]}},
{"type": "Feature", "id": "8E_vJL6ISRioaWu65iE6C_8H4w4=", "properties": {"ref": "RR3729", "@spider": "redrooster_au", "amenity": "fast_food", "cuisine": "chicken", "takeaway": "yes", "addr:street_address": "910 Thompsons Road", "addr:city": "Cranbourne West", "addr:state": "VIC", "addr:postcode": "3977", "addr:country": "AU", "name": "Lyndhurst", "phone": "03 8768 8297", "brand": "Red Rooster", "brand:wikidata": "Q376466", "nsi_id": "redrooster-d43c69"}, "geometry": {"type": "Point", "coordinates": [145.2403359, -38.0785595]}},
{"type": "Feature", "id": "yc6jlI1gW26p9u00qBEl8Pyc83Q=", "properties": {"ref": "RR4840", "@spider": "redrooster_au", "amenity": "fast_food", "cuisine": "chicken", "takeaway": "yes", "addr:street_address": "Tenancy XX Boundary Road East", "addr:city": "East Mackay", "addr:state": "QLD", "addr:postcode": "4740", "addr:country": "AU", "name": "Mackay Airport", "brand": "Red Rooster", "brand:wikidata": "Q376466", "nsi_id": "redrooster-d43c69"}, "geometry": {"type": "Point", "coordinates": [149.1706903, -21.17668]}},
{"type": "Feature", "id": "FjDSiVDiJvigx87J96iAZHL9EgU=", "properties": {"ref": "RR6625", "@spider": "redrooster_au", "amenity": "fast_food", "cuisine": "chicken", "takeaway": "yes", "addr:street_address": "Corner Bonner and Alexander Drives", "addr:city": "Malaga", "addr:state": "WA", "addr:postcode": "6062", "addr:country": "AU", "name": "Malaga", "phone": "08 9249 4095", "brand": "Red Rooster", "brand:wikidata": "Q376466", "nsi_id": "redrooster-d43c69"}, "geometry": {"type": "Point", "coordinates": [115.9054062, -31.88724839999999]}},
{"type": "Feature", "id": "md6GJUrdN6SWmB16tTyFZ8LnPHE=", "properties": {"ref": "RR6620", "@spider": "redrooster_au", "amenity": "fast_food", "cuisine": "chicken", "takeaway": "yes", "addr:street_address": "16 Sholl Street", "addr:city": "Mandurah", "addr:state": "WA", "addr:postcode": "6210", "addr:country": "AU", "name": "Mandurah Foreshore", "phone": "08 9535 1581", "brand": "Red Rooster", "brand:wikidata": "Q376466", "nsi_id": "redrooster-d43c69"}, "geometry": {"type": "Point", "coordinates": [115.7209012, -32.5320077]}},
{"type": "Feature", "id": "r14JAomPfTdsIKFQ-E5SwaiawsI=", "properties": {"ref": "RR4883", "@spider": "redrooster_au", "amenity": "fast_food", "cuisine": "chicken", "takeaway": "yes", "addr:street_address": "74 Byrne Rd.", "addr:city": "Mareeba", "addr:state": "QLD", "addr:postcode": "4880", "addr:country": "AU", "name": "Mareeba", "phone": "07 3478 9490", "brand": "Red Rooster", "brand:wikidata": "Q376466", "nsi_id": "redrooster-d43c69"}, "geometry": {"type": "Point", "coordinates": [145.4216596, -16.9911067]}},
{"type": "Feature", "id": "avJxaezCDvaQQF7OW3QoCj0lhRc=", "properties": {"ref": "RR1512", "@spider": "redrooster_au", "amenity": "fast_food", "cuisine": "chicken", "takeaway": "yes", "addr:street_address": "3293 McMillians Rd.", "addr:city": "Marrara", "addr:state": "NT", "addr:postcode": "0812", "addr:country": "AU", "name": "Marrara", "phone": "08 8927 6244", "brand": "Red Rooster", "brand:wikidata": "Q376466", "nsi_id": "redrooster-d43c69"}, "geometry": {"type": "Point", "coordinates": [130.8971094, -12.3961811]}},
{"type": "Feature", "id": "eG_V1DKyoHDu_jp0uzewAa89Glo=", "properties": {"ref": "RR4141", "@spider": "redrooster_au", "amenity": "fast_food", "cuisine": "chicken", "takeaway": "yes", "addr:street_address": "57-77 Chambers Flat RdRd. & Tamarind St.", "addr:city": "Marsden", "addr:state": "QLD", "addr:postcode": "4132", "addr:country": "AU", "name": "Marsden Park", "phone": "07 3200 7448", "brand": "Red Rooster", "brand:wikidata": "Q376466", "nsi_id": "redrooster-d43c69"}, "geometry": {"type": "Point", "coordinates": [153.1162247, -27.6790962]}},
{"type": "Feature", "id": "Kf7B_10IlOyhW3DpcTPG6dPtYwU=", "properties": {"ref": "RR6640", "@spider": "redrooster_au", "amenity": "fast_food", "cuisine": "chicken", "takeaway": "yes", "addr:street_address": "Cnr Meadow Springs Drive & Fremantle Road", "addr:city": "Meadow Springs", "addr:state": "WA", "addr:postcode": "6210", "addr:country": "AU", "name": "Meadow Springs", "phone": "08 6157 5371", "brand": "Red Rooster", "brand:wikidata": "Q376466", "nsi_id": "redrooster-d43c69"}},
{"type": "Feature", "id": "HuR1TOXUXDGvfoB0fQUGrBZi45E=", "properties": {"ref": "RR3571", "@spider": "redrooster_au", "amenity": "fast_food", "cuisine": "chicken", "takeaway": "yes", "addr:street_address": "Cnr Barries & Coburns Rds", "addr:city": "Melton", "addr:state": "VIC", "addr:postcode": "3337", "addr:country": "AU", "name": "Melton", "phone": "03 9743 7286", "brand": "Red Rooster", "brand:wikidata": "Q376466", "nsi_id": "redrooster-d43c69"}, "geometry": {"type": "Point", "coordinates": [144.5674697, -37.68756]}},
{"type": "Feature", "id": "ILqqvx3yeWhzvJq1ZzFu9ZNSrTc=", "properties": {"ref": "RR6562", "@spider": "redrooster_au", "amenity": "fast_food", "cuisine": "chicken", "takeaway": "yes", "addr:street_address": "Corner Marmion Street and Stock Road", "addr:city": "Melville", "addr:state": "WA", "addr:postcode": "6156", "addr:country": "AU", "name": "Melville", "phone": "08 9330 7105", "brand": "Red Rooster", "brand:wikidata": "Q376466", "nsi_id": "redrooster-d43c69"}, "geometry": {"type": "Point", "coordinates": [115.7937982, -32.0468981]}},
{"type": "Feature", "id": "y9oWusblM258bdQzi_CBJToUpts=", "properties": {"ref": "RR6631", "@spider": "redrooster_au", "amenity": "fast_food", "cuisine": "chicken", "takeaway": "yes", "addr:street_address": "3 Olive Road", "addr:city": "Falcon", "addr:state": "WA", "addr:postcode": "6210", "addr:country": "AU", "name": "Miami", "phone": "08 9534 6370", "brand": "Red Rooster", "brand:wikidata": "Q376466", "nsi_id": "redrooster-d43c69"}, "geometry": {"type": "Point", "coordinates": [115.6611095, -32.5841619]}},
{"type": "Feature", "id": "vZITaK_3yPH1C2QLbAEjGrn4LSw=", "properties": {"ref": "RR6519", "@spider": "redrooster_au", "amenity": "fast_food", "cuisine": "chicken", "takeaway": "yes", "addr:street_address": "354-356 Great Eastern Highway", "addr:city": "Midland", "addr:state": "WA", "addr:postcode": "6056", "addr:country": "AU", "name": "Midland", "phone": "08 9274 3950", "brand": "Red Rooster", "brand:wikidata": "Q376466", "nsi_id": "redrooster-d43c69"}, "geometry": {"type": "Point", "coordinates": [115.9977242, -31.8899351]}},
{"type": "Feature", "id": "MR0PNUCmP9KF8rmMjqa_5Ry1_OY=", "properties": {"ref": "RR6601", "@spider": "redrooster_au", "amenity": "fast_food", "cuisine": "chicken", "takeaway": "yes", "addr:street_address": "375 Great Eastern Hwy", "addr:city": "Midvale", "addr:state": "WA", "addr:postcode": "6056", "addr:country": "AU", "name": "Midvale", "phone": "08 6157 5349", "brand": "Red Rooster", "brand:wikidata": "Q376466", "nsi_id": "redrooster-d43c69"}, "geometry": {"type": "Point", "coordinates": [116.0315808, -31.894668]}},
{"type": "Feature", "id": "d5UssnfDqIlhBzOLCI_U-QsLqKA=", "properties": {"ref": "RR3123", "@spider": "redrooster_au", "amenity": "fast_food", "cuisine": "chicken", "takeaway": "yes", "addr:street_address": "237 Deakin Avenue", "addr:city": "Mildura", "addr:state": "VIC", "addr:postcode": "3500", "addr:country": "AU", "name": "Mildura", "phone": "03 5021 0251", "brand": "Red Rooster", "brand:wikidata": "Q376466", "nsi_id": "redrooster-d43c69"}, "geometry": {"type": "Point", "coordinates": [142.1514636, -34.1936087]}},
{"type": "Feature", "id": "c1D5NOaRH7GUEBymAHllwe5fYjo=", "properties": {"ref": "RR6614", "@spider": "redrooster_au", "amenity": "fast_food", "cuisine": "chicken", "takeaway": "yes", "addr:street_address": "Cnr Bergen Way & Mulgrave Loop", "addr:city": "Mindarie", "addr:state": "WA", "addr:postcode": "6030", "addr:country": "AU", "name": "Mindarie", "phone": "08 93044587", "brand": "Red Rooster", "brand:wikidata": "Q376466", "nsi_id": "redrooster-d43c69"}, "geometry": {"type": "Point", "coordinates": [115.7105059, -31.6775013]}},
{"type": "Feature", "id": "sGz3MX3q9t6Wr66PwVxo7MwIfMQ=", "properties": {"ref": "RR4767", "@spider": "redrooster_au", "amenity": "fast_food", "cuisine": "chicken", "takeaway": "yes", "addr:street_address": "508 - 512 Cnr. Taylors Rd. & Samford Rd.", "addr:city": "Mitchelton", "addr:state": "QLD", "addr:postcode": "4053", "addr:country": "AU", "name": "Mitchelton", "phone": "07 2105 1538", "brand": "Red Rooster", "brand:wikidata": "Q376466", "nsi_id": "redrooster-d43c69"}, "geometry": {"type": "Point", "coordinates": [152.9797821, -27.4164352]}},
{"type": "Feature", "id": "pNsZbSbuC7mKspoc2LG9ZIa7Q3Y=", "properties": {"ref": "RR2631", "@spider": "redrooster_au", "amenity": "fast_food", "cuisine": "chicken", "takeaway": "yes", "addr:street_address": "52-58 Nuwarra Road", "addr:city": "Moorebank", "addr:state": "NSW", "addr:postcode": "2170", "addr:country": "AU", "name": "Moorebank", "phone": "02 9600 8371", "brand": "Red Rooster", "brand:wikidata": "Q376466", "nsi_id": "redrooster-d43c69"}, "geometry": {"type": "Point", "coordinates": [150.9561673, -33.9292232]}},
{"type": "Feature", "id": "k8lbtGxkfBeTucxZNAnfc-nzynQ=", "properties": {"ref": "RR4874", "@spider": "redrooster_au", "amenity": "fast_food", "cuisine": "chicken", "takeaway": "yes", "addr:street_address": "Cnr. Ipswich Rd & Longueval St", "addr:city": "Moorooka", "addr:state": "QLD", "addr:postcode": "4106", "addr:country": "AU", "name": "Moorooka", "phone": "07 3848 5386", "brand": "Red Rooster", "brand:wikidata": "Q376466", "nsi_id": "redrooster-d43c69"}, "geometry": {"type": "Point", "coordinates": [153.0239283, -27.5238014]}},
{"type": "Feature", "id": "wd1iYuFiWUnnA_codUyshSJE7IY=", "properties": {"ref": "RR4764", "@spider": "redrooster_au", "amenity": "fast_food", "cuisine": "chicken", "takeaway": "yes", "addr:street_address": "35 Mills Ave.", "addr:city": "Moranbah", "addr:state": "QLD", "addr:postcode": "4744", "addr:country": "AU", "name": "Moranbah", "phone": "07 4941 8725", "brand": "Red Rooster", "brand:wikidata": "Q376466", "nsi_id": "redrooster-d43c69"}, "geometry": {"type": "Point", "coordinates": [148.0426293, -22.0034265]}},
{"type": "Feature", "id": "XDYNxdtuwEt7MlwrcNuib6fpf-c=", "properties": {"ref": "RR4794", "@spider": "redrooster_au", "amenity": "fast_food", "cuisine": "chicken", "takeaway": "yes", "addr:street_address": "Morayfield S/C. Shop F28.", "addr:city": "Caboolture", "addr:state": "QLD", "addr:postcode": "4510", "addr:country": "AU", "name": "Morayfield Plaza Foodcourt", "phone": "07 5499 4899", "brand": "Red Rooster", "brand:wikidata": "Q376466", "nsi_id": "redrooster-d43c69"}, "geometry": {"type": "Point", "coordinates": [152.949628, -27.0851326]}},
{"type": "Feature", "id": "tSY8z9ba3OS78900E-IkP5RFRiM=", "properties": {"ref": "RR6628", "@spider": "redrooster_au", "amenity": "fast_food", "cuisine": "chicken", "takeaway": "yes", "addr:street_address": "501 - 503 Walter Road", "addr:city": "Morley", "addr:state": "WA", "addr:postcode": "6062", "addr:country": "AU", "name": "Morley East", "phone": "08 6157 5365", "brand": "Red Rooster", "brand:wikidata": "Q376466", "nsi_id": "redrooster-d43c69"}, "geometry": {"type": "Point", "coordinates": [115.9246485, -31.8944246]}},
{"type": "Feature", "id": "NPVEBPxdfMJ8TPAIYcn1naWQ45Y=", "properties": {"ref": "RR6580", "@spider": "redrooster_au", "amenity": "fast_food", "cuisine": "chicken", "takeaway": "yes", "addr:street_address": "Shop 149 Galleria Shopping Centre", "addr:city": "Morley", "addr:state": "WA", "addr:postcode": "6062", "addr:country": "AU", "name": "Morley Foodcourt", "phone": "08 6157 5348", "brand": "Red Rooster", "brand:wikidata": "Q376466", "nsi_id": "redrooster-d43c69"}, "geometry": {"type": "Point", "coordinates": [115.8995051, -31.8963549]}},
{"type": "Feature", "id": "5pOESmfq6pexEYddvX5FFaTIgWk=", "properties": {"ref": "RR3617", "@spider": "redrooster_au", "amenity": "fast_food", "cuisine": "chicken", "takeaway": "yes", "addr:street_address": "McDonald Street & Princes Hwy", "addr:city": "Morwell", "addr:state": "VIC", "addr:postcode": "3840", "addr:country": "AU", "name": "Morwell", "phone": "03 9055 8189", "brand": "Red Rooster", "brand:wikidata": "Q376466", "nsi_id": "redrooster-d43c69"}, "geometry": {"type": "Point", "coordinates": [146.4046761, -38.237765]}},
{"type": "Feature", "id": "WxMpKrPTh54xJQzq4dTxoHByDOI=", "properties": {"ref": "RR2718", "@spider": "redrooster_au", "amenity": "fast_food", "cuisine": "chicken", "takeaway": "yes", "addr:street_address": "Lot 3 Cnr Luxford Rd & Zoe Place", "addr:city": "Mt Druitt", "addr:state": "NSW", "addr:postcode": "2770", "addr:country": "AU", "name": "Mount Druitt", "phone": "02 9832 7407", "brand": "Red Rooster", "brand:wikidata": "Q376466", "nsi_id": "redrooster-d43c69"}, "geometry": {"type": "Point", "coordinates": [150.826464, -33.765212]}},
{"type": "Feature", "id": "7ti9ZYrg4OyTm7emOxiOAtS8Wng=", "properties": {"ref": "RR4792", "@spider": "redrooster_au", "amenity": "fast_food", "cuisine": "chicken", "takeaway": "yes", "addr:street_address": "450 Bayswater Road", "addr:city": "Mount Louisa", "addr:state": "QLD", "addr:postcode": "4814", "addr:country": "AU", "name": "Mount Louisa", "phone": "07 4774 7507", "brand": "Red Rooster", "brand:wikidata": "Q376466", "nsi_id": "redrooster-d43c69"}, "geometry": {"type": "Point", "coordinates": [146.7519798, -19.2727391]}},
{"type": "Feature", "id": "ODVAjVDNPcp3E04nhh45PwsnXQ0=", "properties": {"ref": "RR4868", "@spider": "redrooster_au", "amenity": "fast_food", "cuisine": "chicken", "takeaway": "yes", "addr:street_address": "Shop FS014 Mt Ommaney Centre, Dandenong Road", "addr:city": "Mt Ommaney", "addr:state": "QLD", "addr:postcode": "4074", "addr:country": "AU", "name": "Mount Ommaney", "phone": "07 3376 8298", "brand": "Red Rooster", "brand:wikidata": "Q376466", "nsi_id": "redrooster-d43c69"}, "geometry": {"type": "Point", "coordinates": [152.9396088, -27.5498398]}},
{"type": "Feature", "id": "rp2OKA1quVPniPTpyuDkk4Rfh0k=", "properties": {"ref": "RR2641", "@spider": "redrooster_au", "amenity": "fast_food", "cuisine": "chicken", "takeaway": "yes", "addr:street_address": "230 Princes Highway", "addr:city": "Mount Ousley", "addr:state": "NSW", "addr:postcode": "2519", "addr:country": "AU", "name": "Mount Ousley", "phone": "02 4226 4643", "brand": "Red Rooster", "brand:wikidata": "Q376466", "nsi_id": "redrooster-d43c69"}, "geometry": {"type": "Point", "coordinates": [150.8918358, -34.4029327]}},
{"type": "Feature", "id": "VbPpuDyHiPj3-jn-6444xqFwjqo=", "properties": {"ref": "RR2732", "@spider": "redrooster_au", "amenity": "fast_food", "cuisine": "chicken", "takeaway": "yes", "addr:street_address": "249 Waterworth Drive", "addr:city": "Mt Annan", "addr:state": "NSW", "addr:postcode": "2567", "addr:country": "AU", "name": "Mt Annan", "phone": "02 7923 5612", "brand": "Red Rooster", "brand:wikidata": "Q376466", "nsi_id": "redrooster-d43c69"}, "geometry": {"type": "Point", "coordinates": [150.76068, -34.0486696]}},
{"type": "Feature", "id": "S1vPZwE5Bd6me5WrtB4e2KQ8ZkI=", "properties": {"ref": "RR5634", "@spider": "redrooster_au", "amenity": "fast_food", "cuisine": "chicken", "takeaway": "yes", "addr:street_address": "76 Jubilee Highway East", "addr:city": "Mt Gambier", "addr:state": "SA", "addr:postcode": "5290", "addr:country": "AU", "name": "Mt Gambier", "phone": "08 8723 6366", "brand": "Red Rooster", "brand:wikidata": "Q376466", "nsi_id": "redrooster-d43c69"}, "geometry": {"type": "Point", "coordinates": [140.7927876, -37.8311893]}},
{"type": "Feature", "id": "gWyKSsXBKqDF_x21sxT2ptMS4rI=", "properties": {"ref": "RR4826", "@spider": "redrooster_au", "amenity": "fast_food", "cuisine": "chicken", "takeaway": "yes", "addr:street_address": "Red Rooster Mt Gravatt Corner Logan and Shires Roads", "addr:city": "Mt Gravatt", "addr:state": "QLD", "addr:postcode": "4122", "addr:country": "AU", "name": "Mt Gravatt", "phone": "07 3478 9445", "brand": "Red Rooster", "brand:wikidata": "Q376466", "nsi_id": "redrooster-d43c69"}, "geometry": {"type": "Point", "coordinates": [153.0775222, -27.5366797]}},
{"type": "Feature", "id": "igSX9sBs7vSESa1yBZSanEqsGxg=", "properties": {"ref": "RR4525", "@spider": "redrooster_au", "amenity": "fast_food", "cuisine": "chicken", "takeaway": "yes", "addr:street_address": "179 Camooweal St.", "addr:city": "Mt. Isa", "addr:state": "QLD", "addr:postcode": "4825", "addr:country": "AU", "name": "Mt Isa", "phone": "07 2105 1506", "brand": "Red Rooster", "brand:wikidata": "Q376466", "nsi_id": "redrooster-d43c69"}, "geometry": {"type": "Point", "coordinates": [139.4955138, -20.7160064]}},
{"type": "Feature", "id": "yOR4e61C2m8itPIMp9Xpb7PimQk=", "properties": {"ref": "RR4841", "@spider": "redrooster_au", "amenity": "fast_food", "cuisine": "chicken", "takeaway": "yes", "addr:street_address": "Lot 3, Grandview Drive,", "addr:city": "Mount Pleasant Mackay", "addr:state": "QLD", "addr:postcode": "4740", "addr:country": "AU", "name": "Mt Pleasant Dtr", "phone": "07 4942 5666", "brand": "Red Rooster", "brand:wikidata": "Q376466", "nsi_id": "redrooster-d43c69"}, "geometry": {"type": "Point", "coordinates": [149.1593923, -21.121144]}},
{"type": "Feature", "id": "D_KfdlE4IkJ6kOnqHpulRg3CAsQ=", "properties": {"ref": "RR4734", "@spider": "redrooster_au", "amenity": "fast_food", "cuisine": "chicken", "takeaway": "yes", "addr:street_address": "Cnr Malcomson St & Bucasia Rd, Shop 162, Mt Pleasant Shopping Centre", "addr:city": "Mount Pleasant", "addr:state": "QLD", "addr:postcode": "4740", "addr:country": "AU", "name": "Mt Pleasant Foodcourt", "phone": "07 4942 1222", "brand": "Red Rooster", "brand:wikidata": "Q376466", "nsi_id": "redrooster-d43c69"}, "geometry": {"type": "Point", "coordinates": [149.1586432, -21.1189274]}},
{"type": "Feature", "id": "d0QuqC0vI_XHX6x0fFkZkbRdZog=", "properties": {"ref": "RR2675", "@spider": "redrooster_au", "amenity": "fast_food", "cuisine": "chicken", "takeaway": "yes", "addr:street_address": "177 Cnr Meadows Road & Elizabeth Drive", "addr:city": "Mt Pritchard", "addr:state": "NSW", "addr:postcode": "2170", "addr:country": "AU", "name": "Mt Pritchard", "phone": "02 7923 5685", "brand": "Red Rooster", "brand:wikidata": "Q376466", "nsi_id": "redrooster-d43c69"}, "geometry": {"type": "Point", "coordinates": [150.8967549, -33.9026986]}},
{"type": "Feature", "id": "blmOwhIlrHX1wUMcpEnOLeyJ5vQ=", "properties": {"ref": "RR4870", "@spider": "redrooster_au", "amenity": "fast_food", "cuisine": "chicken", "takeaway": "yes", "addr:street_address": "Mt Sheridan Plaza, Cnr Bruce Highway and Fosters Road", "addr:city": "Cairns", "addr:state": "QLD", "addr:postcode": "4868", "addr:country": "AU", "name": "Mt Sheridan", "phone": "07 3478 9497", "brand": "Red Rooster", "brand:wikidata": "Q376466", "nsi_id": "redrooster-d43c69"}, "geometry": {"type": "Point", "coordinates": [145.7401854, -16.9899651]}},
{"type": "Feature", "id": "y8ucyntRszCuwUcxrdhgf1QTv20=", "properties": {"ref": "RR5606", "@spider": "redrooster_au", "amenity": "fast_food", "cuisine": "chicken", "takeaway": "yes", "addr:street_address": "Munno Para S/C 600 Main North Rd", "addr:city": "Munno Para", "addr:state": "SA", "addr:postcode": "5114", "addr:country": "AU", "name": "Munno Para", "phone": "08 8284 4601", "brand": "Red Rooster", "brand:wikidata": "Q376466", "nsi_id": "redrooster-d43c69"}, "geometry": {"type": "Point", "coordinates": [138.6857804, -34.6911417]}},
{"type": "Feature", "id": "XPOV4B57_VFVhGU8E6CQc2vTY3g=", "properties": {"ref": "RR4873", "@spider": "redrooster_au", "amenity": "fast_food", "cuisine": "chicken", "takeaway": "yes", "addr:street_address": "Shop 68 Myer Centre FC Level E", "addr:city": "Brisbane City", "addr:state": "QLD", "addr:postcode": "4000", "addr:country": "AU", "name": "Myer Centre FC", "phone": "(07) 3478 9462", "brand": "Red Rooster", "brand:wikidata": "Q376466", "nsi_id": "redrooster-d43c69"}, "geometry": {"type": "Point", "coordinates": [153.0248758, -27.4706058]}},
{"type": "Feature", "id": "vhHgokO_03D3Yac-bKdQ97axUFQ=", "properties": {"ref": "RR4731", "@spider": "redrooster_au", "amenity": "fast_food", "cuisine": "chicken", "takeaway": "yes", "addr:street_address": "Cnr. Young Rd. & Golden Wattle Dr.", "addr:city": "Narangba", "addr:state": "QLD", "addr:postcode": "4575", "addr:country": "AU", "name": "Narangba", "phone": "07 3886 8066", "brand": "Red Rooster", "brand:wikidata": "Q376466", "nsi_id": "redrooster-d43c69"}, "geometry": {"type": "Point", "coordinates": [152.9314759, -27.1753632]}},
{"type": "Feature", "id": "24lwjqOVetoWDx0DsGEE_-wIA5s=", "properties": {"ref": "RR4831", "@spider": "redrooster_au", "amenity": "fast_food", "cuisine": "chicken", "takeaway": "yes", "addr:street_address": "Corner Cayuga Street and Mortensen Road", "addr:city": "Nerang", "addr:state": "QLD", "addr:postcode": "4211", "addr:country": "AU", "name": "Nerang", "phone": "07 5596 3676", "brand": "Red Rooster", "brand:wikidata": "Q376466", "nsi_id": "redrooster-d43c69"}, "geometry": {"type": "Point", "coordinates": [153.3391174, -28.0063475]}},
{"type": "Feature", "id": "5YK-J0Y27Vxmicm8_5vZ2nyZpFY=", "properties": {"ref": "RR2672", "@spider": "redrooster_au", "amenity": "fast_food", "cuisine": "chicken", "takeaway": "yes", "addr:street_address": "1 Willamtown Drive", "addr:city": "Williamtown", "addr:state": "NSW", "addr:postcode": "2318", "addr:country": "AU", "name": "Newcastle Airport", "phone": "02 4965 1369", "brand": "Red Rooster", "brand:wikidata": "Q376466", "nsi_id": "redrooster-d43c69"}, "geometry": {"type": "Point", "coordinates": [151.8364304, -32.7936521]}},
{"type": "Feature", "id": "2m_rIdlgBeuADVFDGmwwwBxceqM=", "properties": {"ref": "RR4872", "@spider": "redrooster_au", "amenity": "fast_food", "cuisine": "chicken", "takeaway": "yes", "addr:street_address": "2 Mary St.", "addr:city": "Noosaville", "addr:state": "QLD", "addr:postcode": "4566", "addr:country": "AU", "name": "Noosaville", "phone": "07 3478 9424", "brand": "Red Rooster", "brand:wikidata": "Q376466", "nsi_id": "redrooster-d43c69"}, "geometry": {"type": "Point", "coordinates": [153.0622936, -26.3995801]}},
{"type": "Feature", "id": "Fz8_tLoXE3b_zkiAvisyqjEqOoQ=", "properties": {"ref": "RR6557", "@spider": "redrooster_au", "amenity": "fast_food", "cuisine": "chicken", "takeaway": "yes", "addr:street_address": "Noranda Square SC  Benara Road", "addr:city": "Noranda", "addr:state": "WA", "addr:postcode": "6062", "addr:country": "AU", "name": "Noranda", "phone": "08 6157 5360", "brand": "Red Rooster", "brand:wikidata": "Q376466", "nsi_id": "redrooster-d43c69"}, "geometry": {"type": "Point", "coordinates": [115.896221, -31.876827]}},
{"type": "Feature", "id": "rMu92vgDXcBsc7KpEXtrrMDquNM=", "properties": {"ref": "RR4811", "@spider": "redrooster_au", "amenity": "fast_food", "cuisine": "chicken", "takeaway": "yes", "addr:street_address": "459 Pumicstone Road", "addr:city": "Caboolture", "addr:state": "QLD", "addr:postcode": "4510", "addr:country": "AU", "name": "North Caboolture", "phone": "07 2105 1526", "brand": "Red Rooster", "brand:wikidata": "Q376466", "nsi_id": "redrooster-d43c69"}, "geometry": {"type": "Point", "coordinates": [152.97522, -27.04195]}},
{"type": "Feature", "id": "P8N25X3izEoHYWDGoR58TS67yb8=", "properties": {"ref": "RR4844", "@spider": "redrooster_au", "amenity": "fast_food", "cuisine": "chicken", "takeaway": "yes", "addr:street_address": "1650 Anzac Road", "addr:city": "Northlakes", "addr:state": "QLD", "addr:postcode": "4509", "addr:country": "AU", "name": "North Lakes DTR", "phone": "07 3074 1969", "brand": "Red Rooster", "brand:wikidata": "Q376466", "nsi_id": "redrooster-d43c69"}, "geometry": {"type": "Point", "coordinates": [153.023634, -27.2410731]}},
{"type": "Feature", "id": "qZQVaQNnHrjh6rWDGiFvUBb1apU=", "properties": {"ref": "RR4887", "@spider": "redrooster_au", "amenity": "fast_food", "cuisine": "chicken", "takeaway": "yes", "addr:street_address": "North Queensland Stadium 17-49 Saunders Street Railway Estate", "addr:city": "Townsville", "addr:state": "QLD", "addr:postcode": "4810", "addr:country": "AU", "name": "North QLD Stadium Level 1 East 4887", "brand": "Red Rooster", "brand:wikidata": "Q376466", "nsi_id": "redrooster-d43c69"}, "geometry": {"type": "Point", "coordinates": [146.8150784, -19.2670358]}},
{"type": "Feature", "id": "ap2L03bXOf6eAikWRRPMzEI4FH8=", "properties": {"ref": "RR4888", "@spider": "redrooster_au", "amenity": "fast_food", "cuisine": "chicken", "takeaway": "yes", "addr:street_address": "North Queensland Stadium 17-49 Saunders Street Railway Estate", "addr:city": "Townsville", "addr:state": "QLD", "addr:postcode": "4810", "addr:country": "AU", "name": "North QLD Stadium Level 1 South 4888", "brand": "Red Rooster", "brand:wikidata": "Q376466", "nsi_id": "redrooster-d43c69"}, "geometry": {"type": "Point", "coordinates": [146.8150784, -19.2670358]}},
{"type": "Feature", "id": "Yy53wyLrY13FCsJ1MqM2ruPNWt4=", "properties": {"ref": "RR4885", "@spider": "redrooster_au", "amenity": "fast_food", "cuisine": "chicken", "takeaway": "yes", "addr:country": "AU", "name": "North QLD Stadium Media Arc 4885", "brand": "Red Rooster", "brand:wikidata": "Q376466", "nsi_id": "redrooster-d43c69"}, "geometry": {"type": "Point", "coordinates": [146.81575, -19.26638]}},
{"type": "Feature", "id": "hr3gC5T9zRiXmUudv-RMHFZqaX8=", "properties": {"ref": "RR4864", "@spider": "redrooster_au", "amenity": "fast_food", "cuisine": "chicken", "takeaway": "yes", "addr:street_address": "North Queensland Stadium 17-49 Saunders Street Railway Estate", "addr:city": "Townsville", "addr:state": "QLD", "addr:postcode": "4810", "addr:country": "AU", "name": "North Qld Stadium South", "brand": "Red Rooster", "brand:wikidata": "Q376466", "nsi_id": "redrooster-d43c69"}, "geometry": {"type": "Point", "coordinates": [146.8150784, -19.2670358]}},
{"type": "Feature", "id": "SrJUDlOdRY5Qh4dsEuJ3eVb8yDk=", "properties": {"ref": "RR6600", "@spider": "redrooster_au", "amenity": "fast_food", "cuisine": "chicken", "takeaway": "yes", "addr:street_address": "115 Fitzgerald Street", "addr:city": "Northam", "addr:state": "WA", "addr:postcode": "6401", "addr:country": "AU", "name": "Northam", "phone": "08 9622 5010", "brand": "Red Rooster", "brand:wikidata": "Q376466", "nsi_id": "redrooster-d43c69"}, "geometry": {"type": "Point", "coordinates": [116.673643, -31.6518095]}},
{"type": "Feature", "id": "3kTXBuZ_cuEPFEzlqWGivyUHQ_A=", "properties": {"ref": "RR6621", "@spider": "redrooster_au", "amenity": "fast_food", "cuisine": "chicken", "takeaway": "yes", "addr:street_address": "128B James Street", "addr:city": "Northbridge", "addr:state": "WA", "addr:postcode": "6003", "addr:country": "AU", "name": "Northbridge Reggie", "phone": "08 6157 5345", "brand": "Red Rooster", "brand:wikidata": "Q376466", "nsi_id": "redrooster-d43c69"}, "geometry": {"type": "Point", "coordinates": [115.8575407, -31.9479215]}},
{"type": "Feature", "id": "MonRU8fke5Ps0BtQLGQKV1tqHqg=", "properties": {"ref": "RR3644", "@spider": "redrooster_au", "amenity": "fast_food", "cuisine": "chicken", "takeaway": "yes", "addr:street_address": "231/233 Ferntree Gully Rd", "addr:city": "Mount Waverley", "addr:state": "VIC", "addr:postcode": "3149", "addr:country": "AU", "name": "Notting Hill", "phone": "03 9543 6102", "brand": "Red Rooster", "brand:wikidata": "Q376466", "nsi_id": "redrooster-d43c69"}, "geometry": {"type": "Point", "coordinates": [145.1248784, -37.8988562]}},
{"type": "Feature", "id": "uoY8LJgssuSAydyNtMPkY_mmIu0=", "properties": {"ref": "RR4699", "@spider": "redrooster_au", "amenity": "fast_food", "cuisine": "chicken", "takeaway": "yes", "addr:street_address": "1097 Nudgee RD.", "addr:city": "Nudgee", "addr:state": "QLD", "addr:postcode": "4014", "addr:country": "AU", "name": "Nudgee Foodcourt", "phone": "07 3267 5155", "brand": "Red Rooster", "brand:wikidata": "Q376466", "nsi_id": "redrooster-d43c69"}, "geometry": {"type": "Point", "coordinates": [153.093737, -27.3780244]}},
{"type": "Feature", "id": "6sQXOXvS827d0rduD6YraWkfIs8=", "properties": {"ref": "RR4694", "@spider": "redrooster_au", "amenity": "fast_food", "cuisine": "chicken", "takeaway": "yes", "addr:street_address": "Cnr Henchman St. & Sandgate Rd.", "addr:city": "Nundah", "addr:state": "QLD", "addr:postcode": "4012", "addr:country": "AU", "name": "Nundah", "phone": "07 3478 9491", "brand": "Red Rooster", "brand:wikidata": "Q376466", "nsi_id": "redrooster-d43c69"}, "geometry": {"type": "Point", "coordinates": [153.0591954, -27.3982589]}},
{"type": "Feature", "id": "i7N7xK0ebIBfPMyxIeeSAYa7Q-k=", "properties": {"ref": "RR6591", "@spider": "redrooster_au", "amenity": "fast_food", "cuisine": "chicken", "takeaway": "yes", "addr:street_address": "390 South Street", "addr:city": "O'Connor", "addr:state": "WA", "addr:postcode": "6163", "addr:country": "AU", "name": "O Connor", "phone": "08 6157 5356", "brand": "Red Rooster", "brand:wikidata": "Q376466", "nsi_id": "redrooster-d43c69"}, "geometry": {"type": "Point", "coordinates": [115.8013395, -32.0650881]}},
{"type": "Feature", "id": "p8TC12NJ_0IfHdQkHvWnZcbghfI=", "properties": {"ref": "RR2530", "@spider": "redrooster_au", "amenity": "fast_food", "cuisine": "chicken", "takeaway": "yes", "addr:street_address": "94-98 Bathurst Road", "addr:city": "Orange", "addr:state": "NSW", "addr:postcode": "2800", "addr:country": "AU", "name": "Orange", "phone": "02 6362 7732", "brand": "Red Rooster", "brand:wikidata": "Q376466", "nsi_id": "redrooster-d43c69"}, "geometry": {"type": "Point", "coordinates": [149.1112728, -33.2920872]}},
{"type": "Feature", "id": "iLQ5Uz7oTWpICgfnYNj6axLTTEA=", "properties": {"ref": "RR3596", "@spider": "redrooster_au", "amenity": "fast_food", "cuisine": "chicken", "takeaway": "yes", "addr:street_address": "North & Tucker Roads", "addr:city": "Ormond", "addr:state": "VIC", "addr:postcode": "3204", "addr:country": "AU", "name": "Ormond", "phone": "03 7007 8031", "brand": "Red Rooster", "brand:wikidata": "Q376466", "nsi_id": "redrooster-d43c69"}, "geometry": {"type": "Point", "coordinates": [145.0532043, -37.9070016]}},
{"type": "Feature", "id": "cR_Bxxd3tj-ti423_NFVbfmk4kk=", "properties": {"ref": "RR3647", "@spider": "redrooster_au", "amenity": "fast_food", "cuisine": "chicken", "takeaway": "yes", "addr:street_address": "Cnr Princes Hwy & Windemere Blvd", "addr:city": "Pakenham", "addr:state": "VIC", "addr:postcode": "3810", "addr:country": "AU", "name": "Pakenham", "phone": "03 7007 8035", "brand": "Red Rooster", "brand:wikidata": "Q376466", "nsi_id": "redrooster-d43c69"}, "geometry": {"type": "Point", "coordinates": [145.5069217, -38.065604]}},
{"type": "Feature", "id": "06ordxfZ9NboLGk9uQ9wu4HIBqM=", "properties": {"ref": "RR3636", "@spider": "redrooster_au", "amenity": "fast_food", "cuisine": "chicken", "takeaway": "yes", "addr:street_address": "825 Princess Hwy Cnr Lakeside Dve", "addr:city": "Pakenham", "addr:state": "VIC", "addr:postcode": "3810", "addr:country": "AU", "name": "Pakenham West Masters Centre", "phone": "03 7007 8059", "brand": "Red Rooster", "brand:wikidata": "Q376466", "nsi_id": "redrooster-d43c69"}, "geometry": {"type": "Point", "coordinates": [145.4533918, -38.0601103]}},
{"type": "Feature", "id": "NWxOwtFRe8Km8rFal4fEuMTBIzM=", "properties": {"ref": "RR1509", "@spider": "redrooster_au", "amenity": "fast_food", "cuisine": "chicken", "takeaway": "yes", "addr:street_address": "Lot 4277 Chung Wah Tce.", "addr:city": "Palmerston", "addr:state": "NT", "addr:postcode": "0830", "addr:country": "AU", "name": "Palmerston", "phone": "08 7915 3150", "brand": "Red Rooster", "brand:wikidata": "Q376466", "nsi_id": "redrooster-d43c69"}, "geometry": {"type": "Point", "coordinates": [130.9861681, -12.482506]}},
{"type": "Feature", "id": "Eln0td3FPxL10_A4GqEwTK8R0B8=", "properties": {"ref": "RR2708", "@spider": "redrooster_au", "amenity": "fast_food", "cuisine": "chicken", "takeaway": "yes", "addr:street_address": "146 Cnr Tower & Hinemoa Streets", "addr:city": "Panania", "addr:state": "NSW", "addr:postcode": "2213", "addr:country": "AU", "name": "Panania", "phone": "02 7923 5730", "brand": "Red Rooster", "brand:wikidata": "Q376466", "nsi_id": "redrooster-d43c69"}, "geometry": {"type": "Point", "coordinates": [151.0011428, -33.9565071]}},
{"type": "Feature", "id": "qMsSo0uG0Bn-WJkRVXBu9E9JIhk=", "properties": {"ref": "RR2698", "@spider": "redrooster_au", "amenity": "fast_food", "cuisine": "chicken", "takeaway": "yes", "addr:street_address": "484 Sunnyholt Road", "addr:city": "Parklea", "addr:state": "NSW", "addr:postcode": "2768", "addr:country": "AU", "name": "Parklea", "phone": "02 9121 3942", "brand": "Red Rooster", "brand:wikidata": "Q376466", "nsi_id": "redrooster-d43c69"}, "geometry": {"type": "Point", "coordinates": [150.9218257, -33.7293118]}},
{"type": "Feature", "id": "517cwSW2nD__JyJShRL3pB8W28o=", "properties": {"ref": "RR4509", "@spider": "redrooster_au", "amenity": "fast_food", "cuisine": "chicken", "takeaway": "yes", "addr:street_address": "Corner Olsen Avenue & Musgrave Road", "addr:city": "Parkwood", "addr:state": "QLD", "addr:postcode": "4214", "addr:country": "AU", "name": "Parkwood", "phone": "07 5571 6355", "brand": "Red Rooster", "brand:wikidata": "Q376466", "nsi_id": "redrooster-d43c69"}, "geometry": {"type": "Point", "coordinates": [153.383637, -27.9540074]}},
{"type": "Feature", "id": "pMQRNFT1mczfrP5qSElhN7lyZ4w=", "properties": {"ref": "RR3703", "@spider": "redrooster_au", "amenity": "fast_food", "cuisine": "chicken", "takeaway": "yes", "addr:street_address": "504 Pascoe Vale Road", "addr:city": "Strathmore", "addr:state": "VIC", "addr:postcode": "3041", "addr:country": "AU", "name": "Pascoe Vale", "phone": "03 7007 8021", "brand": "Red Rooster", "brand:wikidata": "Q376466", "nsi_id": "redrooster-d43c69"}, "geometry": {"type": "Point", "coordinates": [144.9243223, -37.7295687]}},
{"type": "Feature", "id": "FWRGqVddRRFMnjt__CWAJQbnbR0=", "properties": {"ref": "RR2740", "@spider": "redrooster_au", "amenity": "fast_food", "cuisine": "chicken", "takeaway": "yes", "addr:street_address": "No. 2 Kendall & Cnr Henry Streets", "addr:city": "Penrith", "addr:state": "NSW", "addr:postcode": "2750", "addr:country": "AU", "name": "Penrith", "phone": "02 4731 5597", "brand": "Red Rooster", "brand:wikidata": "Q376466", "nsi_id": "redrooster-d43c69"}, "geometry": {"type": "Point", "coordinates": [150.7076905, -33.7551525]}},
{"type": "Feature", "id": "qUlQefjNMcStMHXS3-NswAosDqk=", "properties": {"ref": "RR6517", "@spider": "redrooster_au", "amenity": "fast_food", "cuisine": "chicken", "takeaway": "yes", "addr:street_address": "Stirling Highway & Johnston Street", "addr:city": "Peppermint Grove", "addr:state": "WA", "addr:postcode": "6011", "addr:country": "AU", "name": "Peppermint Grove", "phone": "08 6157 5341", "brand": "Red Rooster", "brand:wikidata": "Q376466", "nsi_id": "redrooster-d43c69"}, "geometry": {"type": "Point", "coordinates": [115.7600605, -32.0034031]}},
{"type": "Feature", "id": "BcGj5EL1pcA4C8hBIvizPYypbC0=", "properties": {"ref": "RR6504", "@spider": "redrooster_au", "amenity": "fast_food", "cuisine": "chicken", "takeaway": "yes", "addr:street_address": "Perth Royal Showgrounds", "addr:city": "Claremont", "addr:state": "WA", "addr:postcode": "6020", "addr:country": "AU", "name": "Perth Royal Showgrounds", "brand": "Red Rooster", "brand:wikidata": "Q376466", "nsi_id": "redrooster-d43c69"}, "geometry": {"type": "Point", "coordinates": [115.7855771, -31.9745197]}},
{"type": "Feature", "id": "Z3hOg1VBWDWlgu4h3JszTzLimiU=", "properties": {"ref": "RR4832", "@spider": "redrooster_au", "amenity": "fast_food", "cuisine": "chicken", "takeaway": "yes", "addr:street_address": "Tenancies 2 & 3 Pimpama Central, 27 Dixon Drive", "addr:city": "Pimpama", "addr:state": "QLD", "addr:postcode": "4209", "addr:country": "AU", "name": "Pimpama", "phone": "07 2105 1517", "brand": "Red Rooster", "brand:wikidata": "Q376466", "nsi_id": "redrooster-d43c69"}, "geometry": {"type": "Point", "coordinates": [153.3176592, -27.8246672]}},
{"type": "Feature", "id": "SpgbTvDJPYCvuoWUHdZW7klp7_c=", "properties": {"ref": "RR6607", "@spider": "redrooster_au", "amenity": "fast_food", "cuisine": "chicken", "takeaway": "yes", "addr:street_address": "375 Warnbro Sound Avenue", "addr:city": "Port Kennedy", "addr:state": "WA", "addr:postcode": "6062", "addr:country": "AU", "name": "Port Kennedy", "phone": "08 9524 6314", "brand": "Red Rooster", "brand:wikidata": "Q376466", "nsi_id": "redrooster-d43c69"}, "geometry": {"type": "Point", "coordinates": [115.7557167, -32.3662348]}},
{"type": "Feature", "id": "qi_oVJHj9ktSyvhHQ63tYv9V1As=", "properties": {"ref": "RR2733", "@spider": "redrooster_au", "amenity": "fast_food", "cuisine": "chicken", "takeaway": "yes", "addr:street_address": "110 Gordon Street,", "addr:city": "Port Macquarie", "addr:state": "NSW", "addr:postcode": "2444", "addr:country": "AU", "name": "Port Macquarie", "phone": "02 7923 5675", "brand": "Red Rooster", "brand:wikidata": "Q376466", "nsi_id": "redrooster-d43c69"}, "geometry": {"type": "Point", "coordinates": [152.9053765, -31.4348444]}},
{"type": "Feature", "id": "rivF-nRAS_scy2u4KRoVe0rE6ds=", "properties": {"ref": "RR3726", "@spider": "redrooster_au", "amenity": "fast_food", "cuisine": "chicken", "takeaway": "yes", "addr:street_address": "High & Bell Streets", "addr:city": "Preston", "addr:state": "VIC", "addr:postcode": "3072", "addr:country": "AU", "name": "Preston", "phone": "03 9480 3460", "brand": "Red Rooster", "brand:wikidata": "Q376466", "nsi_id": "redrooster-d43c69"}, "geometry": {"type": "Point", "coordinates": [145.0028474, -37.7450864]}},
{"type": "Feature", "id": "NDE7r0tS9wiXdHmRptszmeqBQuc=", "properties": {"ref": "RR2654", "@spider": "redrooster_au", "amenity": "fast_food", "cuisine": "chicken", "takeaway": "yes", "addr:street_address": "Cnr Beech Road & Camden Valley Way", "addr:city": "Casula", "addr:state": "NSW", "addr:postcode": "2170", "addr:country": "AU", "name": "Prestons NSW", "phone": "02 9608 1025", "brand": "Red Rooster", "brand:wikidata": "Q376466", "nsi_id": "redrooster-d43c69"}, "geometry": {"type": "Point", "coordinates": [150.8823416, -33.957485]}},
{"type": "Feature", "id": "k8b6fyZ3oFSsftnztfKgcM0pZ0I=", "properties": {"ref": "RR4645", "@spider": "redrooster_au", "amenity": "fast_food", "cuisine": "chicken", "takeaway": "yes", "addr:street_address": "Ampol Service Station  Cnr. Bruce Hwy & Fulljames St.", "addr:city": "Proserpine", "addr:state": "QLD", "addr:postcode": "4800", "addr:country": "AU", "name": "Proserpine", "phone": "07 4945 3721", "brand": "Red Rooster", "brand:wikidata": "Q376466", "nsi_id": "redrooster-d43c69"}, "geometry": {"type": "Point", "coordinates": [148.5886517, -20.4035549]}},
{"type": "Feature", "id": "Q0cJzn4qTpDyTffxT-m0edmMqvk=", "properties": {"ref": "RR2691", "@spider": "redrooster_au", "amenity": "fast_food", "cuisine": "chicken", "takeaway": "yes", "addr:street_address": "3 Bungendore Road Cnr Yass Rd", "addr:city": "Queanbeyan", "addr:state": "NSW", "addr:postcode": "2620", "addr:country": "AU", "name": "Queanbeyan", "phone": "02 7923 5742", "brand": "Red Rooster", "brand:wikidata": "Q376466", "nsi_id": "redrooster-d43c69"}, "geometry": {"type": "Point", "coordinates": [149.2454736, -35.347629]}},
{"type": "Feature", "id": "xQK4Lbr7e1cNHrLpnMYS9tfSx7c=", "properties": {"ref": "RR4891", "@spider": "redrooster_au", "amenity": "fast_food", "cuisine": "chicken", "takeaway": "yes", "addr:street_address": "LG09. Queens Plaza. 226 Queen St.", "addr:city": "Brisbane City", "addr:state": "QLD", "addr:postcode": "4000", "addr:country": "AU", "name": "Queens Plaza", "phone": "07 3236 0665", "brand": "Red Rooster", "brand:wikidata": "Q376466", "nsi_id": "redrooster-d43c69"}, "geometry": {"type": "Point", "coordinates": [153.0264743, -27.4680368]}},
{"type": "Feature", "id": "_ILjjvNMa3cZALdrUHsP8c4Nd8c=", "properties": {"ref": "RR4776", "@spider": "redrooster_au", "amenity": "fast_food", "cuisine": "chicken", "takeaway": "yes", "addr:street_address": "Raintrees S/C. Cnr. Cochrane & Alfred Sts.", "addr:city": "Cairns", "addr:state": "QLD", "addr:postcode": "4870", "addr:country": "AU", "name": "Raintrees", "phone": "07 4053 7033", "brand": "Red Rooster", "brand:wikidata": "Q376466", "nsi_id": "redrooster-d43c69"}, "geometry": {"type": "Point", "coordinates": [145.742505, -16.9278581]}},
{"type": "Feature", "id": "yPVZC4y2HqTwvTRASAdi6-dmqk4=", "properties": {"ref": "RR4882", "@spider": "redrooster_au", "amenity": "fast_food", "cuisine": "chicken", "takeaway": "yes", "addr:street_address": "82-92 Anzac Avenue", "addr:city": "Redcliffe", "addr:state": "QLD", "addr:postcode": "4020", "addr:country": "AU", "name": "Redcliffe", "phone": "07 3284 7717", "brand": "Red Rooster", "brand:wikidata": "Q376466", "nsi_id": "redrooster-d43c69"}, "geometry": {"type": "Point", "coordinates": [153.1069088, -27.2294053]}},
{"type": "Feature", "id": "KNYlM-Jm71k3RrcFf7arHp1CsLA=", "properties": {"ref": "RR3732", "@spider": "redrooster_au", "amenity": "fast_food", "cuisine": "chicken", "takeaway": "yes", "addr:street_address": "294 Swan St", "addr:city": "Richmond", "addr:state": "VIC", "addr:postcode": "3121", "addr:country": "AU", "name": "Richmond", "phone": "03 7007 8022", "brand": "Red Rooster", "brand:wikidata": "Q376466", "nsi_id": "redrooster-d43c69"}, "geometry": {"type": "Point", "coordinates": [145.0006316, -37.8262044]}},
{"type": "Feature", "id": "SowXsWqk0BA2WSgaJqcx_sthi0Q=", "properties": {"ref": "RR3620", "@spider": "redrooster_au", "amenity": "fast_food", "cuisine": "chicken", "takeaway": "yes", "addr:street_address": "436 Maroondah Highway", "addr:city": "Ringwood", "addr:state": "VIC", "addr:postcode": "3134", "addr:country": "AU", "name": "Ringwood", "phone": "03 7007 8037", "brand": "Red Rooster", "brand:wikidata": "Q376466", "nsi_id": "redrooster-d43c69"}, "geometry": {"type": "Point", "coordinates": [145.257387, -37.7960345]}},
{"type": "Feature", "id": "Qo5_w5IEzV5QiMbB_2sMulqd5I4=", "properties": {"ref": "RR4797", "@spider": "redrooster_au", "amenity": "fast_food", "cuisine": "chicken", "takeaway": "yes", "addr:street_address": "Tenancy FC3  Riverlink S/C  Cnr. Doens St. & The Terrace.", "addr:city": "North Ipswich", "addr:state": "QLD", "addr:postcode": "4350", "addr:country": "AU", "name": "Riverlink", "phone": "07 2105 1507", "brand": "Red Rooster", "brand:wikidata": "Q376466", "nsi_id": "redrooster-d43c69"}, "geometry": {"type": "Point", "coordinates": [152.7590842, -27.6092545]}},
{"type": "Feature", "id": "nUNZMdu3ZO-RZ60FgsdD3XiaocE=", "properties": {"ref": "RR6528", "@spider": "redrooster_au", "amenity": "fast_food", "cuisine": "chicken", "takeaway": "yes", "addr:street_address": "Great Eastern Highway & Kooyong Road", "addr:city": "Rivervale", "addr:state": "WA", "addr:postcode": "6103", "addr:country": "AU", "name": "Rivervale", "phone": "08 9472 7486", "brand": "Red Rooster", "brand:wikidata": "Q376466", "nsi_id": "redrooster-d43c69"}, "geometry": {"type": "Point", "coordinates": [115.907202, -31.95584]}},
{"type": "Feature", "id": "Lxwh_hBOhsbieWqBSvoJguH3ar8=", "properties": {"ref": "RR4752", "@spider": "redrooster_au", "amenity": "fast_food", "cuisine": "chicken", "takeaway": "yes", "addr:street_address": "113 Musgrave St.", "addr:city": "Rockhampton", "addr:state": "QLD", "addr:postcode": "4700", "addr:country": "AU", "name": "Rockhampton North", "phone": "07 4927 1918", "brand": "Red Rooster", "brand:wikidata": "Q376466", "nsi_id": "redrooster-d43c69"}, "geometry": {"type": "Point", "coordinates": [150.5218156, -23.3660898]}},
{"type": "Feature", "id": "YwQ_9213JVXIMC9dP2iKkWREOBM=", "properties": {"ref": "RR4753", "@spider": "redrooster_au", "amenity": "fast_food", "cuisine": "chicken", "takeaway": "yes", "addr:street_address": "Cnr. Archer St. & Geaorge St.", "addr:city": "Rockhampton", "addr:state": "QLD", "addr:postcode": "4700", "addr:country": "AU", "name": "Rockhampton South", "phone": "07 4927 3842", "brand": "Red Rooster", "brand:wikidata": "Q376466", "nsi_id": "redrooster-d43c69"}, "geometry": {"type": "Point", "coordinates": [150.5043126, -23.3789077]}},
{"type": "Feature", "id": "nt_hkxg0W6KWg4VzTaz1C2SPsCg=", "properties": {"ref": "RR6558", "@spider": "redrooster_au", "amenity": "fast_food", "cuisine": "chicken", "takeaway": "yes", "addr:street_address": "Rockingham SC  Read Road", "addr:city": "Rockingham", "addr:state": "WA", "addr:postcode": "6168", "addr:country": "AU", "name": "Rockingham", "phone": "08 6157 5369", "brand": "Red Rooster", "brand:wikidata": "Q376466", "nsi_id": "redrooster-d43c69"}, "geometry": {"type": "Point", "coordinates": [115.744946, -32.289574]}},
{"type": "Feature", "id": "hUOAW6b1dZi3Qsxu4gdc-dcw1xU=", "properties": {"ref": "RR6596", "@spider": "redrooster_au", "amenity": "fast_food", "cuisine": "chicken", "takeaway": "yes", "addr:street_address": "T205/1 Council Avenue", "addr:city": "Rockingham", "addr:state": "WA", "addr:postcode": "6168", "addr:country": "AU", "name": "Rockingham Food Court", "phone": "08 9592 1745", "brand": "Red Rooster", "brand:wikidata": "Q376466", "nsi_id": "redrooster-d43c69"}, "geometry": {"type": "Point", "coordinates": [115.7475343, -32.28934100000001]}},
{"type": "Feature", "id": "FB3Gb-lUm7ayFk4nNmyRgyPP44U=", "properties": {"ref": "RR4708", "@spider": "redrooster_au", "amenity": "fast_food", "cuisine": "chicken", "takeaway": "yes", "addr:street_address": "Shop 15  81 Palmerin St.", "addr:city": "Warwick", "addr:state": "QLD", "addr:postcode": "4370", "addr:country": "AU", "name": "Rose City FC", "phone": "0721051528", "brand": "Red Rooster", "brand:wikidata": "Q376466", "nsi_id": "redrooster-d43c69"}, "geometry": {"type": "Point", "coordinates": [152.0315756, -28.2150598]}},
{"type": "Feature", "id": "vmC2zvZiiVrjWEzR2yLJFSrGag8=", "properties": {"ref": "RR2702", "@spider": "redrooster_au", "amenity": "fast_food", "cuisine": "chicken", "takeaway": "yes", "addr:street_address": "Shop 2/1 Resolution Place", "addr:city": "Rouse Hill", "addr:state": "NSW", "addr:postcode": "2155", "addr:country": "AU", "name": "Rouse Hill", "phone": "02 4058 3538", "brand": "Red Rooster", "brand:wikidata": "Q376466", "nsi_id": "redrooster-d43c69"}, "geometry": {"type": "Point", "coordinates": [150.9180453, -33.6843669]}},
{"type": "Feature", "id": "SeqfZ8in7NhgBghZGYu2BrLMbdU=", "properties": {"ref": "RR3562", "@spider": "redrooster_au", "amenity": "fast_food", "cuisine": "chicken", "takeaway": "yes", "addr:street_address": "1081 Stud Rd (Cnr Fulham Rd)", "addr:city": "Rowville", "addr:state": "VIC", "addr:postcode": "3178", "addr:country": "AU", "name": "Rowville", "phone": "03 9763 7727", "brand": "Red Rooster", "brand:wikidata": "Q376466", "nsi_id": "redrooster-d43c69"}, "geometry": {"type": "Point", "coordinates": [145.2357176, -37.9172669]}},
{"type": "Feature", "id": "KcLpd6v060JM_QHXxsr1bLMFTaA=", "properties": {"ref": "RR4849", "@spider": "redrooster_au", "amenity": "fast_food", "cuisine": "chicken", "takeaway": "yes", "addr:street_address": "384 Oxley Dr.", "addr:city": "Runaway Bay", "addr:state": "QLD", "addr:postcode": "4216", "addr:country": "AU", "name": "Runaway Bay", "phone": "07 3478 9472", "brand": "Red Rooster", "brand:wikidata": "Q376466", "nsi_id": "redrooster-d43c69"}, "geometry": {"type": "Point", "coordinates": [153.3883335, -27.9119858]}},
{"type": "Feature", "id": "s9W1kcLkK_hwKy5-iv2DJClQWxU=", "properties": {"ref": "RR2661", "@spider": "redrooster_au", "amenity": "fast_food", "cuisine": "chicken", "takeaway": "yes", "addr:street_address": "230 The New Lakes Entrance Road", "addr:city": "Shellharbour", "addr:state": "NSW", "addr:postcode": "2529", "addr:country": "AU", "name": "Shellharbour", "phone": "02 4297 4034", "brand": "Red Rooster", "brand:wikidata": "Q376466", "nsi_id": "redrooster-d43c69"}, "geometry": {"type": "Point", "coordinates": [150.8286107, -34.5651386]}},
{"type": "Feature", "id": "LtxZ5jCXkkX6qcR_Pt3KWYA_JTg=", "properties": {"ref": "RR3661", "@spider": "redrooster_au", "amenity": "fast_food", "cuisine": "chicken", "takeaway": "yes", "addr:street_address": "Cnr High Street & St Georges Road", "addr:city": "Shepparton", "addr:state": "VIC", "addr:postcode": "3630", "addr:country": "AU", "name": "Shepparton", "phone": "03 5822 1633", "brand": "Red Rooster", "brand:wikidata": "Q376466", "nsi_id": "redrooster-d43c69"}, "geometry": {"type": "Point", "coordinates": [145.405893, -36.3899093]}},
{"type": "Feature", "id": "8C_uSaY_-N5bFktEF_FPTsFYjbU=", "properties": {"ref": "RR3645", "@spider": "redrooster_au", "amenity": "fast_food", "cuisine": "chicken", "takeaway": "yes", "addr:street_address": "330 - 342 McDonalds Road", "addr:city": "South Morang", "addr:state": "VIC", "addr:postcode": "3752", "addr:country": "AU", "name": "South Morang", "phone": "03 9404 5934", "brand": "Red Rooster", "brand:wikidata": "Q376466", "nsi_id": "redrooster-d43c69"}, "geometry": {"type": "Point", "coordinates": [145.0727258, -37.6491569]}},
{"type": "Feature", "id": "AbPpwJInhiiSbVP0Z_9DkosFEbY=", "properties": {"ref": "RR6638", "@spider": "redrooster_au", "amenity": "fast_food", "cuisine": "chicken", "takeaway": "yes", "addr:street_address": "130 Canning Highway", "addr:city": "South Perth", "addr:state": "WA", "addr:postcode": "6151", "addr:country": "AU", "name": "South Perth", "phone": "08 9434 6519", "brand": "Red Rooster", "brand:wikidata": "Q376466", "nsi_id": "redrooster-d43c69"}, "geometry": {"type": "Point", "coordinates": [115.8762744, -31.982651]}},
{"type": "Feature", "id": "TiKrhlA-qjbGY9m1rrW2S-LvWu8=", "properties": {"ref": "RR3518", "@spider": "redrooster_au", "amenity": "fast_food", "cuisine": "chicken", "takeaway": "yes", "addr:street_address": "Ground level  Spencer Street", "addr:city": "Melbourne", "addr:state": "VIC", "addr:postcode": "3000", "addr:country": "AU", "name": "Southern Cross", "phone": "03 9269 7532", "brand": "Red Rooster", "brand:wikidata": "Q376466", "nsi_id": "redrooster-d43c69"}, "geometry": {"type": "Point", "coordinates": [144.9543325, -37.8182119]}},
{"type": "Feature", "id": "qJV54sGg3XawHWudBD9xoTFl2zk=", "properties": {"ref": "RR3517", "@spider": "redrooster_au", "amenity": "fast_food", "cuisine": "chicken", "takeaway": "yes", "addr:street_address": "Level 1  Collins Street", "addr:city": "Melbourne", "addr:state": "VIC", "addr:postcode": "3000", "addr:country": "AU", "name": "Southern Cross 1", "phone": "03 9269 7475", "brand": "Red Rooster", "brand:wikidata": "Q376466", "nsi_id": "redrooster-d43c69"}, "geometry": {"type": "Point", "coordinates": [144.973728, -37.8138267]}},
{"type": "Feature", "id": "5qu7-Zq2JgRT22dbAhRS5wXGyt8=", "properties": {"ref": "RR6587", "@spider": "redrooster_au", "amenity": "fast_food", "cuisine": "chicken", "takeaway": "yes", "addr:street_address": "Ranford Road and Boardwalk Boulevard", "addr:city": "Southern River", "addr:state": "WA", "addr:postcode": "6110", "addr:country": "AU", "name": "Southern River", "phone": "08 6157 5357", "brand": "Red Rooster", "brand:wikidata": "Q376466", "nsi_id": "redrooster-d43c69"}, "geometry": {"type": "Point", "coordinates": [115.9368709, -32.1057465]}},
{"type": "Feature", "id": "lp-OGWDQ7TWh7cWpJ2-fYwwL7nE=", "properties": {"ref": "RR3643", "@spider": "redrooster_au", "amenity": "fast_food", "cuisine": "chicken", "takeaway": "yes", "addr:street_address": "663 - 671 Springvale Road", "addr:city": "Springvale South", "addr:state": "VIC", "addr:postcode": "3172", "addr:country": "AU", "name": "Springvale South", "phone": "03 9547 5664", "brand": "Red Rooster", "brand:wikidata": "Q376466", "nsi_id": "redrooster-d43c69"}, "geometry": {"type": "Point", "coordinates": [145.147156, -37.978939]}},
{"type": "Feature", "id": "TXr9HTrZhU_XeERHhG9MdjcU_Z0=", "properties": {"ref": "RR4881", "@spider": "redrooster_au", "amenity": "fast_food", "cuisine": "chicken", "takeaway": "yes", "addr:street_address": "Springwood Shopping Centre, Cnr Rochedale Road and Fitzgerald Avenue", "addr:city": "Springwood", "addr:state": "QLD", "addr:postcode": "4127", "addr:country": "AU", "name": "Springwood", "phone": "07 3478 9494", "brand": "Red Rooster", "brand:wikidata": "Q376466", "nsi_id": "redrooster-d43c69"}, "geometry": {"type": "Point", "coordinates": [153.1259015, -27.6134685]}},
{"type": "Feature", "id": "NKftDRI8kRKVapcgyXZASz6t0x0=", "properties": {"ref": "RR2671", "@spider": "redrooster_au", "amenity": "fast_food", "cuisine": "chicken", "takeaway": "yes", "addr:street_address": "St Clair Shopping Centre, 4 Endeavour Avenue", "addr:city": "St Clair", "addr:state": "NSW", "addr:postcode": "2759", "addr:country": "AU", "name": "St Clair", "phone": "02 9834 3210", "brand": "Red Rooster", "brand:wikidata": "Q376466", "nsi_id": "redrooster-d43c69"}, "geometry": {"type": "Point", "coordinates": [150.7894297, -33.7948775]}},
{"type": "Feature", "id": "atnCoo3zifXB3WJfyEE4ul9g8ig=", "properties": {"ref": "RR4777", "@spider": "redrooster_au", "amenity": "fast_food", "cuisine": "chicken", "takeaway": "yes", "addr:street_address": "123 High St.", "addr:city": "Stanthorpe", "addr:state": "QLD", "addr:postcode": "4380", "addr:country": "AU", "name": "Stanthorpe", "phone": "07 4681 3355", "brand": "Red Rooster", "brand:wikidata": "Q376466", "nsi_id": "redrooster-d43c69"}, "geometry": {"type": "Point", "coordinates": [151.9369564, -28.6539829]}},
{"type": "Feature", "id": "TBgzzbpNPm3G0o1SUtDyKTDqMxA=", "properties": {"ref": "RR4804", "@spider": "redrooster_au", "amenity": "fast_food", "cuisine": "chicken", "takeaway": "yes", "addr:street_address": "Corner Southpine Road and Mott Street", "addr:city": "Strathpine", "addr:state": "QLD", "addr:postcode": "4500", "addr:country": "AU", "name": "Strathpine", "phone": "07 3881 3991", "brand": "Red Rooster", "brand:wikidata": "Q376466", "nsi_id": "redrooster-d43c69"}, "geometry": {"type": "Point", "coordinates": [152.9891301, -27.3132133]}},
{"type": "Feature", "id": "PmYWBM3b-PdTLw89exiRxVsC820=", "properties": {"ref": "RR6610", "@spider": "redrooster_au", "amenity": "fast_food", "cuisine": "chicken", "takeaway": "yes", "addr:street_address": "Lot 202, 810 Beeliar Drive", "addr:city": "Success", "addr:state": "WA", "addr:postcode": "6075", "addr:country": "AU", "name": "Success", "phone": "08 9414 6759", "brand": "Red Rooster", "brand:wikidata": "Q376466", "nsi_id": "redrooster-d43c69"}, "geometry": {"type": "Point", "coordinates": [115.8539786, -32.1299424]}},
{"type": "Feature", "id": "gb9iwtB4_3st2Gm82myiZGEnrUM=", "properties": {"ref": "RR2703", "@spider": "redrooster_au", "amenity": "fast_food", "cuisine": "chicken", "takeaway": "yes", "addr:street_address": "25 Liverpool Road", "addr:city": "Summer Hill", "addr:state": "NSW", "addr:postcode": "2130", "addr:country": "AU", "name": "Summer Hill", "phone": "02 9121 3975", "brand": "Red Rooster", "brand:wikidata": "Q376466", "nsi_id": "redrooster-d43c69"}, "geometry": {"type": "Point", "coordinates": [151.1374751, -33.886635]}},
{"type": "Feature", "id": "5irfp2QhSJECbv-vc8m7uAVjcVw=", "properties": {"ref": "RR3634", "@spider": "redrooster_au", "amenity": "fast_food", "cuisine": "chicken", "takeaway": "yes", "addr:street_address": "Cnr Mitchells Lane & Horn Street", "addr:city": "Sunbury", "addr:state": "VIC", "addr:postcode": "3429", "addr:country": "AU", "name": "Sunbury", "phone": "03 9740 6132", "brand": "Red Rooster", "brand:wikidata": "Q376466", "nsi_id": "redrooster-d43c69"}, "geometry": {"type": "Point", "coordinates": [144.7208542, -37.5861098]}},
{"type": "Feature", "id": "XNX1qV0N4yRXJOkGi6NZkK5PLfY=", "properties": {"ref": "RR4778", "@spider": "redrooster_au", "amenity": "fast_food", "cuisine": "chicken", "takeaway": "yes", "addr:street_address": "40 Castlemaine Street.", "addr:city": "Milton", "addr:state": "QLD", "addr:postcode": "4064", "addr:country": "AU", "name": "Suncorp Stadium", "phone": "0424 141 366", "brand": "Red Rooster", "brand:wikidata": "Q376466", "nsi_id": "redrooster-d43c69"}, "geometry": {"type": "Point", "coordinates": [153.0101589, -27.465166]}},
{"type": "Feature", "id": "QvorYz68pZtK_jSN5vzkxicwjAc=", "properties": {"ref": "RR3699", "@spider": "redrooster_au", "amenity": "fast_food", "cuisine": "chicken", "takeaway": "yes", "addr:street_address": "483 - 485 Ballarat Road", "addr:city": "Sunshine", "addr:state": "VIC", "addr:postcode": "3020", "addr:country": "AU", "name": "Sunshine", "phone": "03 9311 4481", "brand": "Red Rooster", "brand:wikidata": "Q376466", "nsi_id": "redrooster-d43c69"}, "geometry": {"type": "Point", "coordinates": [144.8341977, -37.7780431]}},
{"type": "Feature", "id": "9_7xyZOl6sFolwr2cMIHIgYE-h0=", "properties": {"ref": "RR4860", "@spider": "redrooster_au", "amenity": "fast_food", "cuisine": "chicken", "takeaway": "yes", "addr:street_address": "Sunshine Plaza S/C Lvl G Horton Parade", "addr:city": "Maroochydore", "addr:state": "QLD", "addr:postcode": "4558", "addr:country": "AU", "name": "Sunshine Plaza", "phone": "07 3478 9422", "brand": "Red Rooster", "brand:wikidata": "Q376466", "nsi_id": "redrooster-d43c69"}, "geometry": {"type": "Point", "coordinates": [153.0889226, -26.6548593]}},
{"type": "Feature", "id": "6UJjuKRV2r9Q-XK6lDjyfpPGNdw=", "properties": {"ref": "RR3599", "@spider": "redrooster_au", "amenity": "fast_food", "cuisine": "chicken", "takeaway": "yes", "addr:street_address": "360 Canterbury Road", "addr:city": "Surrey Hills", "addr:state": "VIC", "addr:postcode": "3127", "addr:country": "AU", "name": "Surrey Hills", "phone": "0370078041", "brand": "Red Rooster", "brand:wikidata": "Q376466", "nsi_id": "redrooster-d43c69"}, "geometry": {"type": "Point", "coordinates": [145.0967007, -37.8261761]}},
{"type": "Feature", "id": "jaH_Zi8PANZdv75RowJq66J40hg=", "properties": {"ref": "RR2673", "@spider": "redrooster_au", "amenity": "fast_food", "cuisine": "chicken", "takeaway": "yes", "addr:street_address": "TD-08 Terminal 2 Sydney Airport", "addr:city": "Mascot", "addr:state": "NSW", "addr:postcode": "2020", "addr:country": "AU", "name": "Sydney Domestic", "phone": "02 9352 7312", "brand": "Red Rooster", "brand:wikidata": "Q376466", "nsi_id": "redrooster-d43c69"}, "geometry": {"type": "Point", "coordinates": [151.1793385, -33.9342801]}},
{"type": "Feature", "id": "neIt8THMHkJJY4vio1NvCbOi3ew=", "properties": {"ref": "RR2674", "@spider": "redrooster_au", "amenity": "fast_food", "cuisine": "chicken", "takeaway": "yes", "addr:street_address": "Terminal 3 Sydney (Kingsford Smith) Airport", "addr:city": "Mascot", "addr:state": "NSW", "addr:postcode": "2020", "addr:country": "AU", "name": "Sydney Domestic Ap T3", "phone": "02 8000 9630", "brand": "Red Rooster", "brand:wikidata": "Q376466", "nsi_id": "redrooster-d43c69"}, "geometry": {"type": "Point", "coordinates": [151.1787379, -33.9321219]}},
{"type": "Feature", "id": "etPNBm1HHZYJ7ajJ1Xvd8DF3BiY=", "properties": {"ref": "RR2517", "@spider": "redrooster_au", "amenity": "fast_food", "cuisine": "chicken", "takeaway": "yes", "addr:street_address": "512-514 Cnr Peel & Murray Streets", "addr:city": "Tamworth", "addr:state": "NSW", "addr:postcode": "2340", "addr:country": "AU", "name": "Tamworth East", "phone": "02 6766 4776", "brand": "Red Rooster", "brand:wikidata": "Q376466", "nsi_id": "redrooster-d43c69"}, "geometry": {"type": "Point", "coordinates": [150.9365752, -31.0975935]}},
{"type": "Feature", "id": "FlZ3uwgFPpHjzXWL1-qKlWL2C3E=", "properties": {"ref": "RR2724", "@spider": "redrooster_au", "amenity": "fast_food", "cuisine": "chicken", "takeaway": "yes", "addr:street_address": "Shop 5 Tamworth Shopping World Cnr Bridge & Denne St", "addr:city": "Tamworth", "addr:state": "NSW", "addr:postcode": "2340", "addr:country": "AU", "name": "Tamworth Foodcourt", "phone": "02 7203 5236", "brand": "Red Rooster", "brand:wikidata": "Q376466", "nsi_id": "redrooster-d43c69"}, "geometry": {"type": "Point", "coordinates": [150.9186516, -31.0915351]}},
{"type": "Feature", "id": "cRXCWAiELgOvlHvYmrS_gp3Mw9k=", "properties": {"ref": "RR3635", "@spider": "redrooster_au", "amenity": "fast_food", "cuisine": "chicken", "takeaway": "yes", "addr:street_address": "Watergardens Shopping Centre Melton Hwy", "addr:city": "Sydenham", "addr:state": "VIC", "addr:postcode": "3037", "addr:country": "AU", "name": "Taylors Lakes", "phone": "03 9449 1531", "brand": "Red Rooster", "brand:wikidata": "Q376466", "nsi_id": "redrooster-d43c69"}, "geometry": {"type": "Point", "coordinates": [144.776823, -37.699141]}},
{"type": "Feature", "id": "MpTzbFopoG0PE02zoBskEZBS8Y4=", "properties": {"ref": "RR4772", "@spider": "redrooster_au", "amenity": "fast_food", "cuisine": "chicken", "takeaway": "yes", "addr:street_address": "196 Woolcock St.", "addr:city": "Townsville", "addr:state": "QLD", "addr:postcode": "4810", "addr:country": "AU", "name": "The Lakes Woolcock St", "phone": "07 4728 2999", "brand": "Red Rooster", "brand:wikidata": "Q376466", "nsi_id": "redrooster-d43c69"}, "geometry": {"type": "Point", "coordinates": [146.7841517, -19.2711128]}},
{"type": "Feature", "id": "eJcHxoyJuyBP8TwC-PEejfmAuxo=", "properties": {"ref": "RR6617", "@spider": "redrooster_au", "amenity": "fast_food", "cuisine": "chicken", "takeaway": "yes", "addr:street_address": "Shop FS1 Thornlie Square Shopping Centre, Spenser Road", "addr:city": "Thornlie", "addr:state": "WA", "addr:postcode": "6108", "addr:country": "AU", "name": "Thornlie", "phone": "08 9467 0131", "brand": "Red Rooster", "brand:wikidata": "Q376466", "nsi_id": "redrooster-d43c69"}, "geometry": {"type": "Point", "coordinates": [115.962696, -32.0562062]}},
{"type": "Feature", "id": "_fXsElid89VHKlKRQewnsms0NjY=", "properties": {"ref": "RR2660", "@spider": "redrooster_au", "amenity": "fast_food", "cuisine": "chicken", "takeaway": "yes", "addr:street_address": "Cnr Glenwood Dr & Weakleys Dr", "addr:city": "Beresfield", "addr:state": "NSW", "addr:postcode": "2322", "addr:country": "AU", "name": "Thornton", "phone": "02 7203 5247", "brand": "Red Rooster", "brand:wikidata": "Q376466", "nsi_id": "redrooster-d43c69"}, "geometry": {"type": "Point", "coordinates": [151.6372346, -32.7921376]}},
{"type": "Feature", "id": "HtQKihlnPrKCMLegH5uVBI3d4WY=", "properties": {"ref": "RR4880", "@spider": "redrooster_au", "amenity": "fast_food", "cuisine": "chicken", "takeaway": "yes", "addr:street_address": "833 Ruthven St.", "addr:city": "Toowoomba", "addr:state": "QLD", "addr:postcode": "4350", "addr:country": "AU", "name": "Toowoomba", "phone": "07 4642 0143", "brand": "Red Rooster", "brand:wikidata": "Q376466", "nsi_id": "redrooster-d43c69"}, "geometry": {"type": "Point", "coordinates": [151.947864, -27.5897677]}},
{"type": "Feature", "id": "aPUWdPd0oL1SYPa1wNhx4Ll-B4U=", "properties": {"ref": "RR2689", "@spider": "redrooster_au", "amenity": "fast_food", "cuisine": "chicken", "takeaway": "yes", "addr:street_address": "184 Pacific Highway", "addr:city": "Tuggerah", "addr:state": "NSW", "addr:postcode": "2259", "addr:country": "AU", "name": "Tuggerah DT", "phone": "02 4355 4270", "brand": "Red Rooster", "brand:wikidata": "Q376466", "nsi_id": "redrooster-d43c69"}, "geometry": {"type": "Point", "coordinates": [151.422145, -33.2944462]}},
{"type": "Feature", "id": "UX2e8Njeqz2wX6AYn9AX3ScmprM=", "properties": {"ref": "RR2723", "@spider": "redrooster_au", "amenity": "fast_food", "cuisine": "chicken", "takeaway": "yes", "addr:street_address": "105 \u2013 109 Wharf Road", "addr:city": "Tweed Head", "addr:state": "NSW", "addr:postcode": "2485", "addr:country": "AU", "name": "Tweed Heads", "phone": "02 7923 5747", "brand": "Red Rooster", "brand:wikidata": "Q376466", "nsi_id": "redrooster-d43c69"}, "geometry": {"type": "Point", "coordinates": [153.5416036, -28.1751477]}},
{"type": "Feature", "id": "Rdnj2dJqv35LUfOA5pFcnwv8xGQ=", "properties": {"ref": "RR4511", "@spider": "redrooster_au", "amenity": "fast_food", "cuisine": "chicken", "takeaway": "yes", "addr:street_address": "Cnr Logan Rd & Kingston Rd", "addr:city": "Underwood", "addr:state": "QLD", "addr:postcode": "4119", "addr:country": "AU", "name": "Underwood", "phone": "07 3478 9465", "brand": "Red Rooster", "brand:wikidata": "Q376466", "nsi_id": "redrooster-d43c69"}, "geometry": {"type": "Point", "coordinates": [153.1118647, -27.6083795]}},
{"type": "Feature", "id": "NAzgLbFGuEoRhnk91DuECyGZf_4=", "properties": {"ref": "RR3710", "@spider": "redrooster_au", "amenity": "fast_food", "cuisine": "chicken", "takeaway": "yes", "addr:street_address": "Cnr Canterbury and Heatherdale Roads", "addr:city": "Vermont", "addr:state": "VIC", "addr:postcode": "3133", "addr:country": "AU", "name": "Vermont", "phone": "03 9874 4818", "brand": "Red Rooster", "brand:wikidata": "Q376466", "nsi_id": "redrooster-d43c69"}, "geometry": {"type": "Point", "coordinates": [145.2133445, -37.8325229]}},
{"type": "Feature", "id": "BNiU5Ly8GeKX-KvPXHIjQ4Rwlt0=", "properties": {"ref": "RR4690", "@spider": "redrooster_au", "amenity": "fast_food", "cuisine": "chicken", "takeaway": "yes", "addr:street_address": "Victoria Point S/C  Cleveland-Redland Bay Road", "addr:city": "Victoria Point", "addr:state": "QLD", "addr:postcode": "4165", "addr:country": "AU", "name": "Victoria Point", "phone": "07 3820 6588", "brand": "Red Rooster", "brand:wikidata": "Q376466", "nsi_id": "redrooster-d43c69"}, "geometry": {"type": "Point", "coordinates": [153.2801746, -27.5813923]}},
{"type": "Feature", "id": "xqo6HzkkDp2mt-SjSOr1lZJyn1M=", "properties": {"ref": "RR2599", "@spider": "redrooster_au", "amenity": "fast_food", "cuisine": "chicken", "takeaway": "yes", "addr:street_address": "345 Edward Street", "addr:city": "Wagga Wagga", "addr:state": "NSW", "addr:postcode": "2650", "addr:country": "AU", "name": "Wagga Wagga", "phone": "02 7923 5748", "brand": "Red Rooster", "brand:wikidata": "Q376466", "nsi_id": "redrooster-d43c69"}, "geometry": {"type": "Point", "coordinates": [147.3515032, -35.1162018]}},
{"type": "Feature", "id": "btsYlQcyzbHkhUhmm3h1TZZIwxQ=", "properties": {"ref": "RR2600", "@spider": "redrooster_au", "amenity": "fast_food", "cuisine": "chicken", "takeaway": "yes", "addr:street_address": "Shop 39 Wagga Wagga Marketplace 87 Baylis Street", "addr:city": "Wagga Wagga", "addr:state": "NSW", "addr:postcode": "2650", "addr:country": "AU", "name": "Wagga Wagga Marketplace", "phone": "02 7923 5749", "brand": "Red Rooster", "brand:wikidata": "Q376466", "nsi_id": "redrooster-d43c69"}, "geometry": {"type": "Point", "coordinates": [147.3701792, -35.1151053]}},
{"type": "Feature", "id": "eeIv8TgfKZ47Qkj3xa84g0ENvwE=", "properties": {"ref": "RR2610", "@spider": "redrooster_au", "amenity": "fast_food", "cuisine": "chicken", "takeaway": "yes", "addr:street_address": "Cnr Langdon Ave & Rylah Cres  Wanniassa  2903", "addr:city": "Wanniassa", "addr:state": "ACT", "addr:postcode": "2903", "addr:country": "AU", "name": "Wanniassa", "phone": "02 6196 8653", "brand": "Red Rooster", "brand:wikidata": "Q376466", "nsi_id": "redrooster-d43c69"}, "geometry": {"type": "Point", "coordinates": [149.0858763, -35.390082]}},
{"type": "Feature", "id": "rwEQGoup0eu0RUyYtlqfROOzdXI=", "properties": {"ref": "RR4875", "@spider": "redrooster_au", "amenity": "fast_food", "cuisine": "chicken", "takeaway": "yes", "addr:street_address": "Cnr of Production Avenue and Nicklin Way", "addr:city": "Warana", "addr:state": "QLD", "addr:postcode": "4575", "addr:country": "AU", "name": "Warana", "phone": "07 2105 1536", "brand": "Red Rooster", "brand:wikidata": "Q376466", "nsi_id": "redrooster-d43c69"}, "geometry": {"type": "Point", "coordinates": [153.1292777686, -26.7275872594]}},
{"type": "Feature", "id": "2QBHLsleVUHiptKULXXqIvbqKnI=", "properties": {"ref": "RR2632", "@spider": "redrooster_au", "amenity": "fast_food", "cuisine": "chicken", "takeaway": "yes", "addr:street_address": "91 Turton Road Cnr Georgetown Road", "addr:city": "Waratah", "addr:state": "NSW", "addr:postcode": "2298", "addr:country": "AU", "name": "Waratah", "phone": "02 4968 8318", "brand": "Red Rooster", "brand:wikidata": "Q376466", "nsi_id": "redrooster-d43c69"}, "geometry": {"type": "Point", "coordinates": [151.7260062, -32.9072798]}},
{"type": "Feature", "id": "e-5QCRFLXIGNMzh1V5Vf7FBiRRo=", "properties": {"ref": "RR3515", "@spider": "redrooster_au", "amenity": "fast_food", "cuisine": "chicken", "takeaway": "yes", "addr:street_address": "837 Raglan Parade", "addr:city": "Warrnambool", "addr:state": "VIC", "addr:postcode": "3280", "addr:country": "AU", "name": "Warrnambool", "phone": "03 5562 9949", "brand": "Red Rooster", "brand:wikidata": "Q376466", "nsi_id": "redrooster-d43c69"}, "geometry": {"type": "Point", "coordinates": [142.4781576, -38.3749678]}},
{"type": "Feature", "id": "DwWybq9fazQVDav7S3xCeJsDpcA=", "properties": {"ref": "RR6643", "@spider": "redrooster_au", "amenity": "fast_food", "cuisine": "chicken", "takeaway": "yes", "addr:street_address": "Warwick Grove Shopping Centre  Cnr Beach & Erindale Rds", "addr:city": "Warwick", "addr:state": "WA", "addr:postcode": "6024", "addr:country": "AU", "name": "Warwick Grove WA", "phone": "08 9203 7621", "brand": "Red Rooster", "brand:wikidata": "Q376466", "nsi_id": "redrooster-d43c69"}, "geometry": {"type": "Point", "coordinates": [115.8106705, -31.8444548]}},
{"type": "Feature", "id": "K3zBWmtumRxYewZLvIBg2UIxdWU=", "properties": {"ref": "RR4619", "@spider": "redrooster_au", "amenity": "fast_food", "cuisine": "chicken", "takeaway": "yes", "addr:street_address": "Cnr. Wood St. & Guy St.", "addr:city": "Warwick", "addr:state": "QLD", "addr:postcode": "4370", "addr:country": "AU", "name": "Warwick QLD", "phone": "07 4661 5834", "brand": "Red Rooster", "brand:wikidata": "Q376466", "nsi_id": "redrooster-d43c69"}, "geometry": {"type": "Point", "coordinates": [152.0295095, -28.2199999]}},
{"type": "Feature", "id": "7pSoCSuZtz5PAMNqWMyYv_jrytE=", "properties": {"ref": "RR3694", "@spider": "redrooster_au", "amenity": "fast_food", "cuisine": "chicken", "takeaway": "yes", "addr:street_address": "195-203 Colac Road (Cnr Rossack Drive)", "addr:city": "Waurn Ponds", "addr:state": "VIC", "addr:postcode": "3216", "addr:country": "AU", "name": "Waurn Ponds", "phone": "03 7007 8015", "brand": "Red Rooster", "brand:wikidata": "Q376466", "nsi_id": "redrooster-d43c69"}, "geometry": {"type": "Point", "coordinates": [144.3116469, -38.202737]}},
{"type": "Feature", "id": "L2356DlCCIoU0h7e6ZNoBWB1k-A=", "properties": {"ref": "RR6637", "@spider": "redrooster_au", "amenity": "fast_food", "cuisine": "chicken", "takeaway": "yes", "addr:street_address": "965 Abernethy Road", "addr:city": "Forrestfield", "addr:state": "WA", "addr:postcode": "6058", "addr:country": "AU", "name": "Waypoint", "phone": "08 6157 5317", "brand": "Red Rooster", "brand:wikidata": "Q376466", "nsi_id": "redrooster-d43c69"}, "geometry": {"type": "Point", "coordinates": [115.9877941, -31.9513411]}},
{"type": "Feature", "id": "nh_IBakILWGAp0sNxFJaJEQmPdg=", "properties": {"ref": "RR2636", "@spider": "redrooster_au", "amenity": "fast_food", "cuisine": "chicken", "takeaway": "yes", "addr:street_address": "320 Great Western Highway", "addr:city": "Wentworthville", "addr:state": "NSW", "addr:postcode": "2145", "addr:country": "AU", "name": "Wentworthville", "phone": "02 9635 1659", "brand": "Red Rooster", "brand:wikidata": "Q376466", "nsi_id": "redrooster-d43c69"}, "geometry": {"type": "Point", "coordinates": [150.9726239, -33.8159433]}},
{"type": "Feature", "id": "5_HlIuX1a3v2c-Tbl1DSd9rNErQ=", "properties": {"ref": "RR2655", "@spider": "redrooster_au", "amenity": "fast_food", "cuisine": "chicken", "takeaway": "yes", "addr:street_address": "Corner of Dunheaved and Lavin Crescent", "addr:city": "Werrington", "addr:state": "NSW", "addr:postcode": "2747", "addr:country": "AU", "name": "Werrington", "phone": "02 9833 4997", "brand": "Red Rooster", "brand:wikidata": "Q376466", "nsi_id": "redrooster-d43c69"}, "geometry": {"type": "Point", "coordinates": [150.7394931, -33.7459667]}},
{"type": "Feature", "id": "5xsfJ05UbtfY94vVolTAjjPf1nM=", "properties": {"ref": "RR3723", "@spider": "redrooster_au", "amenity": "fast_food", "cuisine": "chicken", "takeaway": "yes", "addr:street_address": "Westgate Express  12-62 Cook", "addr:city": "Port Melbourne", "addr:state": "VIC", "addr:postcode": "3207", "addr:country": "AU", "name": "Westgate", "phone": "03 7007 8029", "brand": "Red Rooster", "brand:wikidata": "Q376466", "nsi_id": "redrooster-d43c69"}, "geometry": {"type": "Point", "coordinates": [144.9169199, -37.8299006]}},
{"type": "Feature", "id": "wSjBPKu8LtYJKr3oEIWUiAFBVhA=", "properties": {"ref": "RR4829", "@spider": "redrooster_au", "amenity": "fast_food", "cuisine": "chicken", "takeaway": "yes", "addr:street_address": "352 Bridge Street", "addr:city": "Wilsonton", "addr:state": "QLD", "addr:postcode": "4350", "addr:country": "AU", "name": "Wilsonton", "phone": "07 4634 0548", "brand": "Red Rooster", "brand:wikidata": "Q376466", "nsi_id": "redrooster-d43c69"}, "geometry": {"type": "Point", "coordinates": [151.9263468, -27.5455292]}},
{"type": "Feature", "id": "qAzBxmW_sKK8v1ZsATruEQ8UTxk=", "properties": {"ref": "RR2717", "@spider": "redrooster_au", "amenity": "fast_food", "cuisine": "chicken", "takeaway": "yes", "addr:street_address": "80 Macquarie Street", "addr:city": "Windsor", "addr:state": "NSW", "addr:postcode": "2756", "addr:country": "AU", "name": "Windsor", "phone": "02 4577 5744", "brand": "Red Rooster", "brand:wikidata": "Q376466", "nsi_id": "redrooster-d43c69"}, "geometry": {"type": "Point", "coordinates": [150.8198262, -33.6088911]}},
{"type": "Feature", "id": "etfTWewseDkki7Ii4x5jtpf3C3g=", "properties": {"ref": "RR4821", "@spider": "redrooster_au", "amenity": "fast_food", "cuisine": "chicken", "takeaway": "yes", "addr:street_address": "Shop 18 Wishart Shopping Centre 590 Mt Gravatt Road Cnr Capalaba Road", "addr:city": "Wishart", "addr:state": "QLD", "addr:postcode": "4122", "addr:country": "AU", "name": "Wishart", "phone": "07 3343 3267", "brand": "Red Rooster", "brand:wikidata": "Q376466", "nsi_id": "redrooster-d43c69"}, "geometry": {"type": "Point", "coordinates": [153.1073816, -27.5488355]}},
{"type": "Feature", "id": "XGZw1U8vy0GSuF3qa0UV8ukOyJs=", "properties": {"ref": "RR3656", "@spider": "redrooster_au", "amenity": "fast_food", "cuisine": "chicken", "takeaway": "yes", "addr:street_address": "62-64 High Street", "addr:city": "Wodonga", "addr:state": "VIC", "addr:postcode": "3690", "addr:country": "AU", "name": "Wodonga", "phone": "03 7007 8014", "brand": "Red Rooster", "brand:wikidata": "Q376466", "nsi_id": "redrooster-d43c69"}, "geometry": {"type": "Point", "coordinates": [146.890764, -36.1172334]}},
{"type": "Feature", "id": "g6ijTn38SFQSfmGrbuUa5uAsiB0=", "properties": {"ref": "RR2729", "@spider": "redrooster_au", "amenity": "fast_food", "cuisine": "chicken", "takeaway": "yes", "addr:street_address": "Hollylea Rd Leumeah\nCnr CampbelltownRd & Plough Inn Rd", "addr:city": "Woodbine", "addr:state": "NSW", "addr:postcode": "2560", "addr:country": "AU", "name": "Woodbine", "phone": "02 7923 5651", "brand": "Red Rooster", "brand:wikidata": "Q376466", "nsi_id": "redrooster-d43c69"}, "geometry": {"type": "Point", "coordinates": [150.8269718, -34.0494923]}},
{"type": "Feature", "id": "ZuCjBeILaegb6aMc8-GCzpwSesM=", "properties": {"ref": "RR6527", "@spider": "redrooster_au", "amenity": "fast_food", "cuisine": "chicken", "takeaway": "yes", "addr:street_address": "933 Whitfords Avenue", "addr:city": "Woodvale", "addr:state": "WA", "addr:postcode": "6026", "addr:country": "AU", "name": "Woodvale", "phone": "08 9309 5300", "brand": "Red Rooster", "brand:wikidata": "Q376466", "nsi_id": "redrooster-d43c69"}, "geometry": {"type": "Point", "coordinates": [115.7950997, -31.7999822]}},
{"type": "Feature", "id": "N5v6Nw0KzSs1MCvIyLLKzdaz1Ow=", "properties": {"ref": "RR4798", "@spider": "redrooster_au", "amenity": "fast_food", "cuisine": "chicken", "takeaway": "yes", "addr:street_address": "Worongary Village S/C. 1 Mudgeeraba Rd.", "addr:city": "Worongary", "addr:state": "QLD", "addr:postcode": "4213", "addr:country": "AU", "name": "Worongary", "phone": "07 3515 0429", "brand": "Red Rooster", "brand:wikidata": "Q376466", "nsi_id": "redrooster-d43c69"}, "geometry": {"type": "Point", "coordinates": [153.3544297, -28.048647]}},
{"type": "Feature", "id": "HjWutJYFyRnxZlplXwU3_B1y69o=", "properties": {"ref": "RR4783", "@spider": "redrooster_au", "amenity": "fast_food", "cuisine": "chicken", "takeaway": "yes", "addr:street_address": "Wynnum Plaza S/C  2021 Wynnum Rd.", "addr:city": "Wynnum", "addr:state": "QLD", "addr:postcode": "4178", "addr:country": "AU", "name": "Wynnum West", "phone": "07 2105 1518", "brand": "Red Rooster", "brand:wikidata": "Q376466", "nsi_id": "redrooster-d43c69"}, "geometry": {"type": "Point", "coordinates": [153.1546538, -27.4567725]}},
{"type": "Feature", "id": "eXrcFUVK4IMzVjsoqRyTfPfgXq0=", "properties": {"ref": "RR4747", "@spider": "redrooster_au", "amenity": "fast_food", "cuisine": "chicken", "takeaway": "yes", "addr:street_address": "Cnr. Warwick Rd. & Ash St.", "addr:city": "Yamanto", "addr:state": "QLD", "addr:postcode": "4305", "addr:country": "AU", "name": "Yamanto", "phone": "07 2105 1505", "brand": "Red Rooster", "brand:wikidata": "Q376466", "nsi_id": "redrooster-d43c69"}, "geometry": {"type": "Point", "coordinates": [152.7501826, -27.6541543]}},
{"type": "Feature", "id": "U-yIl-ACHLYYr_4MY803bGa0-Iw=", "properties": {"ref": "RR4755", "@spider": "redrooster_au", "amenity": "fast_food", "cuisine": "chicken", "takeaway": "yes", "addr:street_address": "8 Normanby St.", "addr:city": "Yeppoon", "addr:state": "QLD", "addr:postcode": "4703", "addr:country": "AU", "name": "Yeppoon", "phone": "07 4939 1488", "brand": "Red Rooster", "brand:wikidata": "Q376466", "nsi_id": "redrooster-d43c69"}, "geometry": {"type": "Point", "coordinates": [150.7485131, -23.129404]}}]}