{"type":"FeatureCollection","features":[{"type": "Feature", "id": "wThIwydcpDHfgVeME4T8GdD1OXM=", "properties": {"ref": "https://www.regissalons.co.uk/salon-locator/regis-brent-cross/", "@spider": "regis_gb", "shop": "hairdresser", "addr:full": "Unit A2, Brent Cross Shopping Centre, Prince Charles Drive, London, NW4 3FY", "addr:postcode": "NW4 3FY", "addr:country": "GB", "name": "Regis Brent Cross", "phone": "02082024222", "website": "https://www.regissalons.co.uk/salon-locator/regis-brent-cross/", "opening_hours": "Mo-Fr 10:00-20:00; Sa 09:00-20:00; Su 00:00-18:00", "brand": "Regis Salon", "brand:wikidata": "Q110166032", "nsi_id": "regissalons-afda3f"}, "geometry": {"type": "Point", "coordinates": [-0.2231058, 51.5764073]}},
{"type": "Feature", "id": "3Vtw6NxjZIPJYkVWEehIY78VVbA=", "properties": {"ref": "https://www.regissalons.co.uk/salon-locator/regis-bromborough/", "@spider": "regis_gb", "shop": "hairdresser", "addr:full": "14 The Precinct, Bromborough, CH62 7AD", "addr:postcode": "CH62 7AD", "addr:country": "GB", "name": "Regis Bromborough", "phone": "01513344492", "website": "https://www.regissalons.co.uk/salon-locator/regis-bromborough/", "opening_hours": "Mo-Sa 09:00-17:30", "brand": "Regis Salon", "brand:wikidata": "Q110166032", "nsi_id": "regissalons-afda3f"}, "geometry": {"type": "Point", "coordinates": [-2.9794393, 53.3317307]}},
{"type": "Feature", "id": "0ljcZT0afb1Ti3AwYUwtX0BO6WE=", "properties": {"ref": "https://www.regissalons.co.uk/salon-locator/regis-birkenhead/", "@spider": "regis_gb", "shop": "hairdresser", "addr:full": "Pyramids Shopping Centre, 150 Borough Road, Birkenhead, CH41 2RA", "addr:postcode": "CH41 2RA", "addr:country": "GB", "name": "Regis Birkenhead", "phone": "01516501550", "website": "https://www.regissalons.co.uk/salon-locator/regis-birkenhead/", "opening_hours": "Mo-Sa 09:00-17:30; Su 10:00-16:00", "brand": "Regis Salon", "brand:wikidata": "Q110166032", "nsi_id": "regissalons-afda3f"}, "geometry": {"type": "Point", "coordinates": [-3.0242172, 53.3889576]}},
{"type": "Feature", "id": "CpmYkq1bO8i-xscn7r04XoZjZyk=", "properties": {"ref": "https://www.regissalons.co.uk/salon-locator/regis-harvey-nichols-manchester/", "@spider": "regis_gb", "shop": "hairdresser", "addr:full": "21 New Cathedral St, Manchester, M1 1AD", "addr:postcode": "M1 1AD", "addr:country": "GB", "name": "Regis at James Bushell, Harvey Nichols", "phone": "0161 828 8840", "website": "https://www.regissalons.co.uk/salon-locator/regis-harvey-nichols-manchester/", "opening_hours": "Mo-Sa 10:00-19:00", "brand": "Regis Salon", "brand:wikidata": "Q110166032", "nsi_id": "regissalons-afda3f"}, "geometry": {"type": "Point", "coordinates": [-2.2448628, 53.4841713]}},
{"type": "Feature", "id": "q0hykW7roGJqzCpr4qB9Kv9HtUk=", "properties": {"ref": "https://www.regissalons.co.uk/salon-locator/regis-middlesbrough/", "@spider": "regis_gb", "shop": "hairdresser", "addr:full": "5A Parkway Centre, Coulby Newham, Middlesbrough, TS8 0TJ", "addr:postcode": "TS8 0TJ", "addr:country": "GB", "name": "Regis Middlesbrough", "phone": "01642595396", "website": "https://www.regissalons.co.uk/salon-locator/regis-middlesbrough/", "opening_hours": "Mo-Tu 09:00-17:00; We-Th 09:00-19:00; Fr-Sa 09:00-17:00", "brand": "Regis Salon", "brand:wikidata": "Q110166032", "nsi_id": "regissalons-afda3f"}, "geometry": {"type": "Point", "coordinates": [-1.2163612, 54.524292]}},
{"type": "Feature", "id": "9UL_iPdBQaK5I4J75IjPQHancRI=", "properties": {"ref": "https://www.regissalons.co.uk/salon-locator/regis-leeds/", "@spider": "regis_gb", "shop": "hairdresser", "addr:full": "Unit 1.03A, Trinity Shopping Centre, 53 Boar Lane, Leeds, LS1 5EL", "addr:postcode": "LS1 5EL", "addr:country": "GB", "name": "Regis Leeds Trinity", "phone": "01132461119", "website": "https://www.regissalons.co.uk/salon-locator/regis-leeds/", "opening_hours": "Mo-Sa 09:00-20:00; Su 11:00-17:00", "brand": "Regis Salon", "brand:wikidata": "Q110166032", "nsi_id": "regissalons-afda3f"}, "geometry": {"type": "Point", "coordinates": [-1.5445826, 53.7966752]}},
{"type": "Feature", "id": "PCampTKM2krwJkxBR-LrHvnzpMc=", "properties": {"ref": "https://www.regissalons.co.uk/salon-locator/regis-harrogate/", "@spider": "regis_gb", "shop": "hairdresser", "addr:full": "17 Beulah Street, Harrogate, HG1 1QH", "addr:postcode": "HG1 1QH", "addr:country": "GB", "name": "Regis Harrogate", "phone": "01423709880", "website": "https://www.regissalons.co.uk/salon-locator/regis-harrogate/", "opening_hours": "Mo-Tu 09:00-17:30; We-Th 09:00-19:30; Fr-Sa 09:00-17:30; Su 11:00-16:00", "brand": "Regis Salon", "brand:wikidata": "Q110166032", "nsi_id": "regissalons-afda3f"}, "geometry": {"type": "Point", "coordinates": [-1.5389624, 53.9939858]}},
{"type": "Feature", "id": "1Z21bjh0NjlKPMDC6ypKUu9gkBc=", "properties": {"ref": "https://www.regissalons.co.uk/salon-locator/browns-york/", "@spider": "regis_gb", "shop": "hairdresser", "addr:full": "Daveygate Corner, York, YO1 8QT", "addr:postcode": "YO1 8QT", "addr:country": "GB", "name": "Browns York", "phone": " 01904 623 003", "website": "https://www.regissalons.co.uk/salon-locator/browns-york/", "opening_hours": "Mo-Sa 09:00-17:30", "brand": "Regis Salon", "brand:wikidata": "Q110166032", "nsi_id": "regissalons-afda3f"}, "geometry": {"type": "Point", "coordinates": [-1.0831377, 53.9597951]}},
{"type": "Feature", "id": "roE98sEuUV6bP6m4PQ4P8NLDPpM=", "properties": {"ref": "https://www.regissalons.co.uk/salon-locator/fenwick-newcastle/", "@spider": "regis_gb", "shop": "hairdresser", "addr:full": "39 Northumberland Street, Newcastle, NE1 7AF", "addr:postcode": "NE1 7AF", "addr:country": "GB", "name": "Fenwick Newcastle", "phone": "0191 232 0802", "website": "https://www.regissalons.co.uk/salon-locator/fenwick-newcastle/", "opening_hours": "Mo-Fr 09:00-20:00; Sa 09:00-19:00", "brand": "Regis Salon", "brand:wikidata": "Q110166032", "nsi_id": "regissalons-afda3f"}, "geometry": {"type": "Point", "coordinates": [-1.6122708, 54.975275]}},
{"type": "Feature", "id": "x6ZHpicvxfId6Qm1A-FtscBcS6s=", "properties": {"ref": "https://www.regissalons.co.uk/salon-locator/mops-gallowgate/", "@spider": "regis_gb", "shop": "hairdresser", "addr:full": "1-2 Gallowgate, Newcastle Upon Tyne, NE1 4SG", "addr:postcode": "NE1 4SG", "addr:country": "GB", "name": "Mops Gallowgate", "phone": "0191 232 9559", "website": "https://www.regissalons.co.uk/salon-locator/mops-gallowgate/", "opening_hours": "Mo-Tu 10:00-18:00; We 09:00-18:00; Th 10:00-19:00; Fr 09:00-18:00; Sa 08:45-17:15", "brand": "Regis Salon", "brand:wikidata": "Q110166032", "nsi_id": "regissalons-afda3f"}, "geometry": {"type": "Point", "coordinates": [-1.6183744, 54.9739287]}},
{"type": "Feature", "id": "8SkUKSbbTIUhFtVtCMLczexU-RM=", "properties": {"ref": "https://www.regissalons.co.uk/salon-locator/regis-gateshead/", "@spider": "regis_gb", "shop": "hairdresser", "addr:full": "Metrocentre, 36 The Galleria, Gateshead, NE11 9YR", "addr:postcode": "NE11 9YR", "addr:country": "GB", "name": "Regis Gateshead", "phone": "0191 460 9037", "website": "https://www.regissalons.co.uk/salon-locator/regis-gateshead/", "opening_hours": "Mo-Fr 10:00-21:00; Sa 09:00-19:00; Su 11:00-17:00", "brand": "Regis Salon", "brand:wikidata": "Q110166032", "nsi_id": "regissalons-afda3f"}, "geometry": {"type": "Point", "coordinates": [-1.6689199, 54.9564897]}},
{"type": "Feature", "id": "cODbTf9YHxyfvvk1YwKft7GRNdQ=", "properties": {"ref": "https://www.regissalons.co.uk/salon-locator/regis-barnsley/", "@spider": "regis_gb", "shop": "hairdresser", "addr:full": "Unit 21, Alhambra Centre, Cheapside, Barnsley, S70 1SB", "addr:postcode": "S70 1SB", "addr:country": "GB", "name": "Regis Barnsley", "phone": "01226243666", "website": "https://www.regissalons.co.uk/salon-locator/regis-barnsley/", "opening_hours": "Mo-Fr 09:00-17:30; Sa 08:30-17:30; Su 10:00-16:00", "brand": "Regis Salon", "brand:wikidata": "Q110166032", "nsi_id": "regissalons-afda3f"}, "geometry": {"type": "Point", "coordinates": [-1.478353, 53.5509274]}},
{"type": "Feature", "id": "SAaRPrR0kwgdLWNqD1zmsdnOBY0=", "properties": {"ref": "https://www.regissalons.co.uk/salon-locator/regis-telford/", "@spider": "regis_gb", "shop": "hairdresser", "addr:full": "Telford Town Centre,59 Southwater Arcade,, Telford, TF3 4DE", "addr:postcode": "TF3 4DE", "addr:country": "GB", "name": "Regis Telford", "phone": "01952291116", "website": "https://www.regissalons.co.uk/salon-locator/regis-telford/", "opening_hours": "Mo-We 09:00-18:00; Th 09:00-20:00; Fr-Sa 09:00-18:00; Su 10:30-16:30", "brand": "Regis Salon", "brand:wikidata": "Q110166032", "nsi_id": "regissalons-afda3f"}, "geometry": {"type": "Point", "coordinates": [-2.4476574, 52.6742349]}},
{"type": "Feature", "id": "WhM8-Wap3L9q4wMV4eIUvzfJQvY=", "properties": {"ref": "https://www.regissalons.co.uk/salon-locator/regis-solihull/", "@spider": "regis_gb", "shop": "hairdresser", "addr:full": "18 Drury Lane, Solihull, B91 3BG", "addr:postcode": "B91 3BG", "addr:country": "GB", "name": "Regis Solihull", "phone": "01217056444", "website": "https://www.regissalons.co.uk/salon-locator/regis-solihull/", "opening_hours": "Mo-Sa 08:00-17:00; Su 10:00-16:00", "brand": "Regis Salon", "brand:wikidata": "Q110166032", "nsi_id": "regissalons-afda3f"}, "geometry": {"type": "Point", "coordinates": [-1.7755626, 52.412972]}},
{"type": "Feature", "id": "1yDkmcJD7FOn5dZouQ_7DhdxOXM=", "properties": {"ref": "https://www.regissalons.co.uk/salon-locator/beauty-birmingham/", "@spider": "regis_gb", "shop": "hairdresser", "addr:full": "Great Western Arcade, Birmingham, B2 5HU", "addr:postcode": "B2 5HU", "addr:country": "GB", "name": "Beauty by Regis", "phone": "0121 212 0680", "website": "https://www.regissalons.co.uk/salon-locator/beauty-birmingham/", "opening_hours": "Mo-Fr 10:00-21:00; Sa 09:00-19:00; Su 11:00-17:00", "brand": "Regis Salon", "brand:wikidata": "Q110166032", "nsi_id": "regissalons-afda3f"}, "geometry": {"type": "Point", "coordinates": [-1.8972817, 52.4818912]}},
{"type": "Feature", "id": "rBTgyFM7vCI9YwQ_xxX1SDqUmic=", "properties": {"ref": "https://www.regissalons.co.uk/salon-locator/regis-merry-hill/", "@spider": "regis_gb", "shop": "hairdresser", "addr:full": "Unit 29A, Merry Hill Shopping Centre, Dudley, DY5 1SR", "addr:postcode": "DY5 1SR", "addr:country": "GB", "name": "Regis Merry Hill", "phone": "01384481502", "website": "https://www.regissalons.co.uk/salon-locator/regis-merry-hill/", "opening_hours": "Mo-Fr 09:00-21:00; Sa 09:00-19:00; Su 11:00-17:00", "brand": "Regis Salon", "brand:wikidata": "Q110166032", "nsi_id": "regissalons-afda3f"}, "geometry": {"type": "Point", "coordinates": [-2.1111574, 52.481582]}},
{"type": "Feature", "id": "-PsHT45tQz7hpquXv-mX8UpB7ro=", "properties": {"ref": "https://www.regissalons.co.uk/salon-locator/regis-st-enoch/", "@spider": "regis_gb", "shop": "hairdresser", "addr:full": "Unit 65, St. Enoch Centre, 55 St. Enoch Square, Glasgow, G1 4BW", "addr:postcode": "G1 4BW", "addr:country": "GB", "name": "Regis St Enoch", "phone": "01413329555", "website": "https://www.regissalons.co.uk/salon-locator/regis-st-enoch/", "opening_hours": "Mo-Fr 09:00-19:00; Sa 09:00-18:00; Su 10:00-18:00", "brand": "Regis Salon", "brand:wikidata": "Q110166032", "nsi_id": "regissalons-afda3f"}, "geometry": {"type": "Point", "coordinates": [-4.252942, 55.85676]}},
{"type": "Feature", "id": "gllK5s7IfZf3ATyPMiEz_c5SOxo=", "properties": {"ref": "https://www.regissalons.co.uk/salon-locator/regis-glasgow/", "@spider": "regis_gb", "shop": "hairdresser", "addr:full": "7 Buchanan Galleries, Glasgow, G1 2FF", "addr:postcode": "G1 2FF", "addr:country": "GB", "name": "Regis Glasgow", "phone": "01413320027", "website": "https://www.regissalons.co.uk/salon-locator/regis-glasgow/", "opening_hours": "Mo-Sa 09:00-18:00; Su 10:00-18:00", "brand": "Regis Salon", "brand:wikidata": "Q110166032", "nsi_id": "regissalons-afda3f"}, "geometry": {"type": "Point", "coordinates": [-4.2524325, 55.8638319]}},
{"type": "Feature", "id": "5ablkfj76f2YaXMnyAz4hYelKXE=", "properties": {"ref": "https://www.regissalons.co.uk/salon-locator/regis-cumbernauld/", "@spider": "regis_gb", "shop": "hairdresser", "addr:full": "Unit 5, Antonine Centre, Tryst Road, Cumbernauld, G67 1JW", "addr:postcode": "G67 1JW", "addr:country": "GB", "name": "Regis Cumbernauld", "phone": "01236782435", "website": "https://www.regissalons.co.uk/salon-locator/regis-cumbernauld/", "opening_hours": "Mo-Fr 09:00-18:00; Sa 09:00-17:30; Su 11:00-17:00", "brand": "Regis Salon", "brand:wikidata": "Q110166032", "nsi_id": "regissalons-afda3f"}, "geometry": {"type": "Point", "coordinates": [-3.989756, 55.9455107]}},
{"type": "Feature", "id": "lol-BHVsgTTHJK5IT07tYT1td0A=", "properties": {"ref": "https://www.regissalons.co.uk/salon-locator/regis-braehead/", "@spider": "regis_gb", "shop": "hairdresser", "addr:full": "Braehead Shopping Centre, Kings Inch Road, Glasgow, G51 4BP", "addr:postcode": "G51 4BP", "addr:country": "GB", "name": "Regis Braehead", "phone": "01418861265", "website": "https://www.regissalons.co.uk/salon-locator/regis-braehead/", "opening_hours": "Mo-Fr 10:00-21:00; Sa 09:00-18:30; Su 10:00-18:00", "brand": "Regis Salon", "brand:wikidata": "Q110166032", "nsi_id": "regissalons-afda3f"}, "geometry": {"type": "Point", "coordinates": [-4.3650292, 55.8758902]}},
{"type": "Feature", "id": "iC6eK95_BngvSCLuPPxrmUqK99Y=", "properties": {"ref": "https://www.regissalons.co.uk/salon-locator/regis-wilmslow/", "@spider": "regis_gb", "shop": "hairdresser", "addr:full": "53 Grove Street,, Wilmslow, SK9 1DT ", "addr:postcode": "SK9 1DT", "addr:country": "GB", "name": "Regis Wilmslow", "phone": "01625529283", "website": "https://www.regissalons.co.uk/salon-locator/regis-wilmslow/", "opening_hours": "Mo-We 09:00-18:00; Th-Fr 09:00-20:00; Sa 09:00-17:30", "brand": "Regis Salon", "brand:wikidata": "Q110166032", "nsi_id": "regissalons-afda3f"}, "geometry": {"type": "Point", "coordinates": [-2.2321489, 53.3261956]}},
{"type": "Feature", "id": "A_Yu3E2TB6SpH6Vxw3zA8YpnIPg=", "properties": {"ref": "https://www.regissalons.co.uk/salon-locator/regis-warrington/", "@spider": "regis_gb", "shop": "hairdresser", "addr:full": "Unit K8,Golden Square,, Warrington, WA1 1QB", "addr:postcode": "WA1 1QB", "addr:country": "GB", "name": "Regis Warrington", "phone": "01925416895", "website": "https://www.regissalons.co.uk/salon-locator/regis-warrington/", "opening_hours": "Mo-We 09:00-17:30; Th 09:00-20:00; Fr-Sa 09:00-17:30; Su 11:00-17:00", "brand": "Regis Salon", "brand:wikidata": "Q110166032", "nsi_id": "regissalons-afda3f"}, "geometry": {"type": "Point", "coordinates": [-2.5947638, 53.3897689]}},
{"type": "Feature", "id": "dM6nQ0gNagvG-X8jazpFSBVxiw0=", "properties": {"ref": "https://www.regissalons.co.uk/salon-locator/regis-nantwich/", "@spider": "regis_gb", "shop": "hairdresser", "addr:full": "9-11 High Street, Nantwich, CW5 5AW", "addr:postcode": "CW5 5AW", "addr:country": "GB", "name": "Regis Nantwich", "phone": "01270623500", "website": "https://www.regissalons.co.uk/salon-locator/regis-nantwich/", "opening_hours": "Mo-We 09:00-17:30; Th-Fr 09:00-18:30; Sa 09:00-17:00", "brand": "Regis Salon", "brand:wikidata": "Q110166032", "nsi_id": "regissalons-afda3f"}, "geometry": {"type": "Point", "coordinates": [-2.523623, 53.0677544]}},
{"type": "Feature", "id": "n_9tuI-U_xyc8XLFcticrwFGXA0=", "properties": {"ref": "https://www.regissalons.co.uk/salon-locator/regis-holmes-chapel/", "@spider": "regis_gb", "shop": "hairdresser", "addr:full": "23/23A The Precinct, London Road, Holmes Chapel, CW4 7AP", "addr:postcode": "CW4 7AP", "addr:country": "GB", "name": "Regis Holmes Chapel", "phone": "01477532669", "website": "https://www.regissalons.co.uk/salon-locator/regis-holmes-chapel/", "opening_hours": "Mo-We 09:00-17:30; Th 09:00-19:00; Fr 09:00-17:30; Sa 09:00-17:00", "brand": "Regis Salon", "brand:wikidata": "Q110166032", "nsi_id": "regissalons-afda3f"}, "geometry": {"type": "Point", "coordinates": [-2.3569144, 53.2004926]}},
{"type": "Feature", "id": "UA4k-0pw8YMvlQRNXOAGvigacqc=", "properties": {"ref": "https://www.regissalons.co.uk/salon-locator/regis-chester/", "@spider": "regis_gb", "shop": "hairdresser", "addr:full": "Unit 11, Newgate Row, Grosvenor Precinct, Chester, CH1 1ER", "addr:postcode": "CH1 1ER", "addr:country": "GB", "name": "Regis Chester", "phone": "01244322242", "website": "https://www.regissalons.co.uk/salon-locator/regis-chester/", "opening_hours": "Mo-Sa 09:00-18:00; Su 11:00-17:00", "brand": "Regis Salon", "brand:wikidata": "Q110166032", "nsi_id": "regissalons-afda3f"}, "geometry": {"type": "Point", "coordinates": [-2.8890415, 53.189645]}},
{"type": "Feature", "id": "MbzskY9Va8WioRPxCCdROy7Ralc=", "properties": {"ref": "https://www.regissalons.co.uk/salon-locator/regis-birmingham/", "@spider": "regis_gb", "shop": "hairdresser", "addr:full": "25 Corporation Street, Birmingham, B2 4LS", "addr:postcode": "B2 4LS", "addr:country": "GB", "name": "Regis Birmingham", "phone": "01216437242", "website": "https://www.regissalons.co.uk/salon-locator/regis-birmingham/", "opening_hours": "Mo-We 09:00-18:00; Th-Fr 09:00-20:00; Sa 09:00-18:00; Su 11:00-17:00", "brand": "Regis Salon", "brand:wikidata": "Q110166032", "nsi_id": "regissalons-afda3f"}, "geometry": {"type": "Point", "coordinates": [-1.8973527, 52.4798407]}},
{"type": "Feature", "id": "R2lMsH_hyizTdz-SmOV0NAguei0=", "properties": {"ref": "https://www.regissalons.co.uk/salon-locator/james-hair-salon/", "@spider": "regis_gb", "shop": "hairdresser", "addr:full": "64 Whitburn Street, Bridgnorth, WV16 4QP", "addr:postcode": "WV16 4QP", "addr:country": "GB", "name": "James Hair Salon", "phone": "01746 219101", "website": "https://www.regissalons.co.uk/salon-locator/james-hair-salon/", "opening_hours": "Mo 09:00-17:30; Tu-Fr 09:00-20:00; Sa 00:00-24:00; Su 10:00-17:00", "brand": "Regis Salon", "brand:wikidata": "Q110166032", "nsi_id": "regissalons-afda3f"}, "geometry": {"type": "Point", "coordinates": [-2.4216792, 52.536018]}},
{"type": "Feature", "id": "3cKcaSltNBDte1AluqOfU0P_hrc=", "properties": {"ref": "https://www.regissalons.co.uk/salon-locator/regis-cambridge/", "@spider": "regis_gb", "shop": "hairdresser", "addr:full": "Unit 10, The Grafton Centre, Cambridge, CB1 1PS", "addr:postcode": "CB1 1PS", "addr:country": "GB", "name": "Regis Cambridge", "phone": "01223323334", "website": "https://www.regissalons.co.uk/salon-locator/regis-cambridge/", "opening_hours": "Mo-Tu 00:00-05:30; We 00:00-08:00; Th-Fr 00:00-05:30; Sa 00:00-06:00; Su 00:00-05:00", "brand": "Regis Salon", "brand:wikidata": "Q110166032", "nsi_id": "regissalons-afda3f"}, "geometry": {"type": "Point", "coordinates": [0.1332753, 52.2069728]}},
{"type": "Feature", "id": "nrvX5PvUwUQm13TF2-l3e3UuqKk=", "properties": {"ref": "https://www.regissalons.co.uk/salon-locator/regis-cribbs-causeway/", "@spider": "regis_gb", "shop": "hairdresser", "addr:full": "Unit Lr44, The Mall, Cribbs Causeway, Patchway, Bristol, BS34 5DG", "addr:postcode": "BS34 5DG", "addr:country": "GB", "name": "Regis Cribbs Causeway", "phone": "01179591812", "website": "https://www.regissalons.co.uk/salon-locator/regis-cribbs-causeway/", "opening_hours": "Mo-Fr 00:00-09:00; Sa 00:00-08:00; Su 00:00-05:00", "brand": "Regis Salon", "brand:wikidata": "Q110166032", "nsi_id": "regissalons-afda3f"}, "geometry": {"type": "Point", "coordinates": [-2.5960692, 51.5249719]}},
{"type": "Feature", "id": "Cd3N6cP-0xh5oSZhJZXAIO75dMI=", "properties": {"ref": "https://www.regissalons.co.uk/salon-locator/regis-cheltenham/", "@spider": "regis_gb", "shop": "hairdresser", "addr:full": "Unit 34, Regent Arcade Shopping Centre, Cheltenham, GL50 1JZ", "addr:postcode": "GL50 1JZ", "addr:country": "GB", "name": "Regis Cheltenham", "phone": "01242 539566", "website": "https://www.regissalons.co.uk/salon-locator/regis-cheltenham/", "opening_hours": "Mo 09:00-17:30; Tu 00:00-24:00; We-Sa 09:00-17:30", "brand": "Regis Salon", "brand:wikidata": "Q110166032", "nsi_id": "regissalons-afda3f"}, "geometry": {"type": "Point", "coordinates": [-2.0741844, 51.8999068]}},
{"type": "Feature", "id": "lMfEBOIScsOboUCd0yUdZAvzL-o=", "properties": {"ref": "https://www.regissalons.co.uk/salon-locator/regis-lakeside/", "@spider": "regis_gb", "shop": "hairdresser", "addr:full": "Unit 5A, Lakeside Shopping Centre,Brompton Walk,, Grays, RM20 2ZF", "addr:postcode": "RM20 2ZF", "addr:country": "GB", "name": "Regis Lakeside", "phone": "01708861926", "website": "https://www.regissalons.co.uk/salon-locator/regis-lakeside/", "opening_hours": "Mo-Fr 10:00-22:00; Sa 09:00-21:00; Su 11:00-17:00", "brand": "Regis Salon", "brand:wikidata": "Q110166032", "nsi_id": "regissalons-afda3f"}, "geometry": {"type": "Point", "coordinates": [0.2836034, 51.4874865]}},
{"type": "Feature", "id": "q1xr_ohONadNX3i76vZh6j60fP8=", "properties": {"ref": "https://www.regissalons.co.uk/salon-locator/watford-tradesecrets/", "@spider": "regis_gb", "shop": "hairdresser", "addr:full": "Unit 170,Intu Watford Upper Mall,, Watford, WD17 2TA", "addr:postcode": "WD17 2TA", "addr:country": "GB", "name": "Watford Trade Secrets", "phone": "01923242116", "website": "https://www.regissalons.co.uk/salon-locator/watford-tradesecrets/", "opening_hours": "Mo-We 00:00-06:00; Th 00:00-09:00; Fr 00:00-06:00; Sa 00:00-07:00; Su 00:00-05:00", "brand": "Regis Salon", "brand:wikidata": "Q110166032", "nsi_id": "regissalons-afda3f"}, "geometry": {"type": "Point", "coordinates": [-0.3933585, 51.6554806]}},
{"type": "Feature", "id": "jjhWXlf_RznSS8rYf_P4vYHFj20=", "properties": {"ref": "https://www.regissalons.co.uk/salon-locator/regis-portsmouth/", "@spider": "regis_gb", "shop": "hairdresser", "addr:full": "Unit 101, Canalside, Gunwharf Quays, Portsmouth, PO1 3FA", "addr:postcode": "PO1 3FA", "addr:country": "GB", "name": "Regis Portsmouth", "phone": "02392839227", "website": "https://www.regissalons.co.uk/salon-locator/regis-portsmouth/", "opening_hours": "Mo-We 10:00-18:00; Th-Fr 10:00-20:00; Sa 09:00-20:00; Su 10:00-17:00", "brand": "Regis Salon", "brand:wikidata": "Q110166032", "nsi_id": "regissalons-afda3f"}, "geometry": {"type": "Point", "coordinates": [-1.1047885, 50.7948701]}},
{"type": "Feature", "id": "l42s3XgO9oH1Pv1ZRS1AUZHHUio=", "properties": {"ref": "https://www.regissalons.co.uk/salon-locator/regis-milton-keynes/", "@spider": "regis_gb", "shop": "hairdresser", "addr:full": "Unit 109, 12 Sunset Walk, Milton Keynes, MK9 3PD", "addr:postcode": "MK9 3PD", "addr:country": "GB", "name": "Regis Milton Keynes", "phone": "01908696331", "website": "https://www.regissalons.co.uk/salon-locator/regis-milton-keynes/", "opening_hours": "Mo-We 09:00-18:00; Th-Fr 09:00-20:00; Sa 09:00-18:00; Su 11:00-17:00", "brand": "Regis Salon", "brand:wikidata": "Q110166032", "nsi_id": "regissalons-afda3f"}, "geometry": {"type": "Point", "coordinates": [-0.7591035, 52.0421133]}},
{"type": "Feature", "id": "W9qEMPprrSEdU5hku4AeGLHlbJI=", "properties": {"ref": "https://www.regissalons.co.uk/salon-locator/regis-kingston/", "@spider": "regis_gb", "shop": "hairdresser", "addr:full": "56 The Bentall Centre, Wood Street, Kingston Upon Thames, KT1 1TP", "addr:postcode": "KT1 1TP", "addr:country": "GB", "name": "Regis Kingston", "phone": "02083920225", "website": "https://www.regissalons.co.uk/salon-locator/regis-kingston/", "opening_hours": "Mo-We 09:30-18:00; Th 09:30-20:00; Fr 09:30-18:00; Sa 09:00-18:00; Su 11:00-17:00", "brand": "Regis Salon", "brand:wikidata": "Q110166032", "nsi_id": "regissalons-afda3f"}, "geometry": {"type": "Point", "coordinates": [-0.304739, 51.4115818]}},
{"type": "Feature", "id": "v05tMW1llFurUzfc1Z6RocsVDac=", "properties": {"ref": "https://www.regissalons.co.uk/salon-locator/regis-horsham/", "@spider": "regis_gb", "shop": "hairdresser", "addr:full": "66 Swan Walk, Horsham, RH12 1HQ", "addr:postcode": "RH12 1HQ", "addr:country": "GB", "name": "Regis Horsham", "phone": "01403259414", "website": "https://www.regissalons.co.uk/salon-locator/regis-horsham/", "opening_hours": "Mo-Sa 09:00-17:30; Su 10:30-16:30", "brand": "Regis Salon", "brand:wikidata": "Q110166032", "nsi_id": "regissalons-afda3f"}, "geometry": {"type": "Point", "coordinates": [-0.3297128, 51.0633054]}},
{"type": "Feature", "id": "efCLsu4oXaC_M_2bSn7nY1rRpRA=", "properties": {"ref": "https://www.regissalons.co.uk/salon-locator/regis-epsom/", "@spider": "regis_gb", "shop": "hairdresser", "addr:full": "53 The Ashley Centre, Ashley Avenue, Epsom, KT18 5DB", "addr:postcode": "KT18 5DB", "addr:country": "GB", "name": "Regis Epsom", "phone": "01372742222", "website": "https://www.regissalons.co.uk/salon-locator/regis-epsom/", "opening_hours": "Mo-We 00:00-05:30; Th 00:00-08:00; Fr-Sa 00:00-05:30; Su 00:00-04:00", "brand": "Regis Salon", "brand:wikidata": "Q110166032", "nsi_id": "regissalons-afda3f"}, "geometry": {"type": "Point", "coordinates": [-0.2683239, 51.3324484]}},
{"type": "Feature", "id": "NXB5YFKnmqdZ6de_DpjalPTZdFM=", "properties": {"ref": "https://www.regissalons.co.uk/salon-locator/regis-colchester/", "@spider": "regis_gb", "shop": "hairdresser", "addr:full": "39 Eld Lane, Colchester, CO1 1LS", "addr:postcode": "CO1 1LS", "addr:country": "GB", "name": "Regis Colchester", "phone": "01206572403", "website": "https://www.regissalons.co.uk/salon-locator/regis-colchester/", "opening_hours": "Mo-Sa 09:00-17:30; Su 10:30-16:30", "brand": "Regis Salon", "brand:wikidata": "Q110166032", "nsi_id": "regissalons-afda3f"}, "geometry": {"type": "Point", "coordinates": [0.9006998, 51.8879125]}},
{"type": "Feature", "id": "U4mw2zd3mG-DrNSnbiDVoa3AXq0=", "properties": {"ref": "https://www.regissalons.co.uk/salon-locator/regis-chichester/", "@spider": "regis_gb", "shop": "hairdresser", "addr:full": "11 Crane Street, Chichester, PO19 1LJ", "addr:postcode": "PO19 1LJ", "addr:country": "GB", "name": "Regis Chichester", "phone": "01243527676", "website": "https://www.regissalons.co.uk/salon-locator/regis-chichester/", "opening_hours": "Mo-We 09:00-17:30; Th 09:00-19:00; Fr 09:00-17:30; Sa 08:30-16:00", "brand": "Regis Salon", "brand:wikidata": "Q110166032", "nsi_id": "regissalons-afda3f"}, "geometry": {"type": "Point", "coordinates": [-0.7791933, 50.8380233]}},
{"type": "Feature", "id": "mIoxyLfYdjRwC20Ucg_L9eJW4GU=", "properties": {"ref": "https://www.regissalons.co.uk/salon-locator/regis-chelmsford/", "@spider": "regis_gb", "shop": "hairdresser", "addr:full": "Unit 35B, The Meadows, 42-47 High Street, Chelmsford, CM2 6FD", "addr:postcode": "CM2 6FD", "addr:country": "GB", "name": "Regis Chelmsford", "phone": "01245264446", "website": "https://www.regissalons.co.uk/salon-locator/regis-chelmsford/", "opening_hours": "Mo-We 09:00-17:30; Th 09:00-19:00; Fr 09:00-17:30; Sa 09:00-18:00; Su 10:30-16:30", "brand": "Regis Salon", "brand:wikidata": "Q110166032", "nsi_id": "regissalons-afda3f"}, "geometry": {"type": "Point", "coordinates": [0.476636, 51.731358]}},
{"type": "Feature", "id": "NaWKiVyDwhHTo4nz5NyLA-47o1o=", "properties": {"ref": "https://www.regissalons.co.uk/salon-locator/regis-basildon/", "@spider": "regis_gb", "shop": "hairdresser", "addr:full": "Unit 74/75, Upper Mall, Eastgate Centre, Basildon, SS14 1AF", "addr:postcode": "SS14 1AF", "addr:country": "GB", "name": "Regis Basildon", "phone": "01268289567", "website": "https://www.regissalons.co.uk/salon-locator/regis-basildon/", "opening_hours": "Mo-Sa 09:00-18:00; Su 10:00-16:00", "brand": "Regis Salon", "brand:wikidata": "Q110166032", "nsi_id": "regissalons-afda3f"}, "geometry": {"type": "Point", "coordinates": [0.4607383, 51.5694858]}},
{"type": "Feature", "id": "wyhNLxmcb41_LX6ZsZQfReA-J1s=", "properties": {"ref": "https://www.regissalons.co.uk/salon-locator/fenwick-canterbury/", "@spider": "regis_gb", "shop": "hairdresser", "addr:full": "6 St. George Stree, Kent, CT1 2TB", "addr:postcode": "CT1 2TB", "addr:country": "GB", "name": "Fenwick Canterbury", "phone": "01227 634911", "website": "https://www.regissalons.co.uk/salon-locator/fenwick-canterbury/", "opening_hours": "Mo-Sa 09:00-17:30; Su 10:30-16:30", "brand": "Regis Salon", "brand:wikidata": "Q110166032", "nsi_id": "regissalons-afda3f"}, "geometry": {"type": "Point", "coordinates": [1.08268405, 51.27725726]}},
{"type": "Feature", "id": "NgT3AGjT0nk1sUJ2QwGJqzww6yM=", "properties": {"ref": "https://www.regissalons.co.uk/salon-locator/regis-westfields-shepards-bush/", "@spider": "regis_gb", "shop": "hairdresser", "addr:full": "Unit C0301, Westfield Shopping Centre,Ariel Way,, London , W12 7GF ", "addr:postcode": "W12 7GF", "addr:country": "GB", "name": "Regis Westfield London Shepherd\u2019s Bush", "phone": "02087431200", "website": "https://www.regissalons.co.uk/salon-locator/regis-westfields-shepards-bush/", "opening_hours": "Mo-We 08:00-21:00; Th-Fr 08:00-22:00; Sa 08:00-21:00; Su 00:00-18:00", "brand": "Regis Salon", "brand:wikidata": "Q110166032", "nsi_id": "regissalons-afda3f"}, "geometry": {"type": "Point", "coordinates": [-0.2213319, 51.507706]}},
{"type": "Feature", "id": "Fy7T7AJ7FIeoLKv3CCxVpEkhz8E=", "properties": {"ref": "https://www.regissalons.co.uk/salon-locator/regis-putney/", "@spider": "regis_gb", "shop": "hairdresser", "addr:full": "Unit 4, The Exchange Shopping Centre, High Street, Putney, SW15 1TW", "addr:postcode": "SW15 1TW", "addr:country": "GB", "name": "Regis Putney", "phone": "02087850326", "website": "https://www.regissalons.co.uk/salon-locator/regis-putney/", "opening_hours": "Mo-We 10:00-18:00; Th 10:00-20:00; Fr-Sa 10:00-18:00; Su 11:00-17:00", "brand": "Regis Salon", "brand:wikidata": "Q110166032", "nsi_id": "regissalons-afda3f"}, "geometry": {"type": "Point", "coordinates": [-0.2163889, 51.4633333]}},
{"type": "Feature", "id": "uHVVHSePczElM9RFM-DksuSiorU=", "properties": {"ref": "https://www.regissalons.co.uk/salon-locator/regis-croydon/", "@spider": "regis_gb", "shop": "hairdresser", "addr:full": "Unit 1103, Whitgift Centre, Croydon, CR0 1UY", "addr:postcode": "CR0 1UY", "addr:country": "GB", "name": "Regis Croydon", "phone": "02086889455", "website": "https://www.regissalons.co.uk/salon-locator/regis-croydon/", "opening_hours": "Mo-We 00:00-06:00; Th 00:00-08:00; Fr-Sa 00:00-06:00; Su 00:00-05:00", "brand": "Regis Salon", "brand:wikidata": "Q110166032", "nsi_id": "regissalons-afda3f"}, "geometry": {"type": "Point", "coordinates": [-0.1005812, 51.3761634]}}]}