{"type":"FeatureCollection","features":[{"type": "Feature", "id": "sCOFwpxxb4BtJL1V4elsp42yY3M=", "properties": {"ref": "1606", "@spider": "regis", "shop": "hairdresser", "addr:full": "277 Broadway St E Unit 50-A", "addr:city": "Yorkton", "addr:state": "SK", "addr:postcode": "S3N 3G7", "addr:country": "CA", "name": "SmartStyle", "phone": "+13067863383", "website": "https://www.regissalons.com/locations/sk/yorkton/regis-salon-parkland-mall-haircuts-5310.html", "brand": "Regis Salon", "brand:wikidata": "Q7309325", "nsi_id": "smartstyle-46af32"}, "geometry": {"type": "Point", "coordinates": [-102.444248, 51.211817]}},
{"type": "Feature", "id": "HDZBSad8BQAqPtqtTTQs-pcC1aI=", "properties": {"ref": "1627", "@spider": "regis", "shop": "hairdresser", "addr:full": "988 Park Royal South Ste 2034", "addr:city": "West Vancouver", "addr:state": "BC", "addr:postcode": "V7T 1H9", "addr:country": "CA", "name": "SmartStyle", "phone": "+16049813300", "website": "https://www.regissalons.com/locations/bc/west-vancouver/hennessey-salon-spa-park-royal-south-haircuts-5846.html", "brand": "Regis Salon", "brand:wikidata": "Q7309325", "nsi_id": "smartstyle-46af32"}, "geometry": {"type": "Point", "coordinates": [-123.138873, 49.326346]}},
{"type": "Feature", "id": "7-OMlyaiED2oRIgjz__wYxjmleQ=", "properties": {"ref": "1499", "@spider": "regis", "addr:full": "4310 Buffalo Gap Rd Spc 1446", "addr:city": "Abilene", "addr:state": "TX", "addr:postcode": "79606", "addr:country": "US", "phone": "+13256926671", "website": "https://www.regissalons.com/locations/tx/abilene/regis-salon-mall-of-abilene-haircuts-4304.html", "brand": "Regis Salon", "brand:wikidata": "Q7309325"}, "geometry": {"type": "Point", "coordinates": [-99.76041, 32.402036]}},
{"type": "Feature", "id": "MVqUYDawu2Vennvatyzyt_n_2mw=", "properties": {"ref": "1494", "@spider": "regis", "addr:full": "2011 N Roan St Ste B-1A", "addr:city": "Johnson City", "addr:state": "TN", "addr:postcode": "37601", "addr:country": "US", "phone": "+14232820109", "website": "https://www.regissalons.com/locations/tn/johnson-city/hair-plus-the-mall-haircuts-4231.html", "brand": "Regis Salon", "brand:wikidata": "Q7309325"}, "geometry": {"type": "Point", "coordinates": [-82.377027, 36.337811]}},
{"type": "Feature", "id": "WOXDsoDEGVEbTifcHHUfHHuXVoQ=", "properties": {"ref": "1454", "@spider": "regis", "addr:full": "4600 Colonial Rd Spot 2", "addr:city": "Harrisburg", "addr:state": "PA", "addr:postcode": "17109", "addr:country": "US", "phone": "+17175405444", "website": "https://www.regissalons.com/locations/pa/harrisburg/regis-salon-colonial-park-mall-haircuts-3823.html", "brand": "Regis Salon", "brand:wikidata": "Q7309325"}, "geometry": {"type": "Point", "coordinates": [-76.81588, 40.301509]}},
{"type": "Feature", "id": "eQ08-6CE9BugSBSjMhSRtTm6Zt0=", "properties": {"ref": "1677", "@spider": "regis", "addr:full": "100 Robinson Center Dr # 2010", "addr:city": "Pittsburgh", "addr:state": "PA", "addr:postcode": "15205", "addr:country": "US", "phone": "+14124945555", "website": "https://www.regissalons.com/locations/pa/pittsburgh/regis-salon-the-mall-at-robinson-haircuts-38017.html", "brand": "Regis Salon", "brand:wikidata": "Q7309325"}, "geometry": {"type": "Point", "coordinates": [-80.157122, 40.454452]}},
{"type": "Feature", "id": "Q2NhmhXSmAfxVsZhpxvbHSaFJxc=", "properties": {"ref": "1682", "@spider": "regis", "addr:full": "2277 Schoenersville Rd", "addr:city": "Bethlehem", "addr:state": "PA", "addr:postcode": "18017", "addr:country": "US", "phone": "+16108664842", "website": "https://www.regissalons.com/locations/pa/bethlehem/outlooks-for-hair-westgate-mall-haircuts-38119.html", "brand": "Regis Salon", "brand:wikidata": "Q7309325"}, "geometry": {"type": "Point", "coordinates": [-75.403249, 40.641805]}},
{"type": "Feature", "id": "9wqdKkNzPvx8GMkpGsRkd9JdOWI=", "properties": {"ref": "1688", "@spider": "regis", "addr:full": "29 Wyoming Valley Mall", "addr:city": "Wilkes Barre", "addr:state": "PA", "addr:postcode": "18702", "addr:country": "US", "phone": "+15708225114", "website": "https://www.regissalons.com/locations/pa/wilkes-barre/outlooks-for-hair-wyoming-valley-mall-haircuts-38141.html", "brand": "Regis Salon", "brand:wikidata": "Q7309325"}, "geometry": {"type": "Point", "coordinates": [-75.844471, 41.246491]}},
{"type": "Feature", "id": "EbZ0setZM850lfkri4WHplWWQ1Y=", "properties": {"ref": "1444", "@spider": "regis", "addr:full": "63455 N Highway 97 Bldg 1 # 87", "addr:city": "Bend", "addr:state": "OR", "addr:postcode": "97701", "addr:country": "US", "phone": "+15413187160", "website": "https://www.regissalons.com/locations/or/bend/regis-salon-cascade-village-shopping-ctr-haircuts-3703.html", "brand": "Regis Salon", "brand:wikidata": "Q7309325"}, "geometry": {"type": "Point", "coordinates": [-121.302225, 44.101207]}},
{"type": "Feature", "id": "AGtDrL6pGseaNND8JTWlOLkwB4U=", "properties": {"ref": "1396", "@spider": "regis", "addr:full": "167 Quaker Bridge Mall", "addr:city": "Lawrenceville", "addr:state": "NJ", "addr:postcode": "8648", "addr:country": "US", "phone": "+16097998195", "website": "https://www.regissalons.com/locations/nj/lawrenceville/regis-salon-quaker-bridge-mall-haircuts-3151.html", "brand": "Regis Salon", "brand:wikidata": "Q7309325"}, "geometry": {"type": "Point", "coordinates": [-74.681631, 40.290861]}},
{"type": "Feature", "id": "HqDq3C47fWJC4f4HFJx87YhiMhA=", "properties": {"ref": "1415", "@spider": "regis", "addr:full": "578 Aviation Rd Ste 41", "addr:city": "Glens Falls", "addr:state": "NY", "addr:postcode": "12804", "addr:country": "US", "phone": "+15187981222", "website": "https://www.regissalons.com/locations/ny/glens-falls/regis-salon-aviation-mall-haircuts-3419.html", "brand": "Regis Salon", "brand:wikidata": "Q7309325"}, "geometry": {"type": "Point", "coordinates": [-73.677628, 43.326732]}},
{"type": "Feature", "id": "l1gHpsLmRm1RdQ0th8443mN87kI=", "properties": {"ref": "1362", "@spider": "regis", "addr:full": "663 Kirkwood Mall", "addr:city": "Bismarck", "addr:state": "ND", "addr:postcode": "58504", "addr:country": "US", "phone": "+17012551113", "website": "https://www.regissalons.com/locations/nd/bismarck/regis-salon-kirkwood-mall-haircuts-2807.html", "brand": "Regis Salon", "brand:wikidata": "Q7309325"}, "geometry": {"type": "Point", "coordinates": [-100.785089, 46.797549]}},
{"type": "Feature", "id": "I3LZqXOYjNjGy5eLzM7vlQ-37Hs=", "properties": {"ref": "1335", "@spider": "regis", "addr:full": "1401 S 12Th Ave", "addr:city": "Virginia", "addr:state": "MN", "addr:postcode": "55792", "addr:country": "US", "phone": "+12187413387", "website": "https://www.regissalons.com/locations/mn/virginia/regis-salon-thunderbird-mall-haircuts-2385.html", "brand": "Regis Salon", "brand:wikidata": "Q7309325"}, "geometry": {"type": "Point", "coordinates": [-92.554244, 47.510839]}},
{"type": "Feature", "id": "Dl1GvdDbbUSwf3z7rmYShaYImyA=", "properties": {"ref": "1349", "@spider": "regis", "addr:full": "300 S 24Th St W Ste F-1", "addr:city": "Billings", "addr:state": "MT", "addr:postcode": "59102", "addr:country": "US", "phone": "+14066566466", "website": "https://www.regissalons.com/locations/mt/billings/regis-salon-rimrock-mall-haircuts-2600.html", "brand": "Regis Salon", "brand:wikidata": "Q7309325"}, "geometry": {"type": "Point", "coordinates": [-108.579374, 45.765639]}},
{"type": "Feature", "id": "lbQaRKUwHVHajOsy6hAxfLJAGy8=", "properties": {"ref": "1302", "@spider": "regis", "addr:full": "2717 Preyde Blvd", "addr:city": "Lansing", "addr:state": "MI", "addr:postcode": "48912", "addr:country": "US", "phone": "+15173373033", "website": "https://www.regissalons.com/locations/mi/lansing/panopoulos-eastwood-towne-center-haircuts-22061.html", "brand": "Regis Salon", "brand:wikidata": "Q7309325"}, "geometry": {"type": "Point", "coordinates": [-84.515665, 42.763172]}},
{"type": "Feature", "id": "JdkFDk5ztZY1pywJYCNNHqeoF_U=", "properties": {"ref": "1285", "@spider": "regis", "addr:full": "2345 Burton St Se", "addr:city": "Grand Rapids", "addr:state": "MI", "addr:postcode": "49506", "addr:country": "US", "phone": "+16162452287", "website": "https://www.regissalons.com/locations/mi/grand-rapids/panopoulos-panopoulos-haircuts-22001.html", "brand": "Regis Salon", "brand:wikidata": "Q7309325"}, "geometry": {"type": "Point", "coordinates": [-85.610039, 42.941101]}},
{"type": "Feature", "id": "eXR3uiZQrVbNnQh64_YeYaciOfw=", "properties": {"ref": "1314", "@spider": "regis", "addr:full": "1982 E Grand River Rd", "addr:city": "Okemos", "addr:state": "MI", "addr:postcode": "48864", "addr:country": "US", "phone": "+15173491113", "website": "https://www.regissalons.com/locations/mi/okemos/regis-salon-meridian-mall-haircuts-2249.html", "brand": "Regis Salon", "brand:wikidata": "Q7309325"}, "geometry": {"type": "Point", "coordinates": [-84.419527, 42.725279]}},
{"type": "Feature", "id": "yh6TRmZKgyQvbTfj6FRTQuwn_3w=", "properties": {"ref": "1299", "@spider": "regis", "addr:full": "5500 Buckeystown Pike Room 814", "addr:city": "Frederick", "addr:state": "MD", "addr:postcode": "21703", "addr:country": "US", "phone": "+13018464200", "website": "https://www.regissalons.com/locations/md/frederick/regis-salon-francis-scott-key-mall-haircuts-2040.html", "brand": "Regis Salon", "brand:wikidata": "Q7309325"}, "geometry": {"type": "Point", "coordinates": [-77.405884, 39.382675]}},
{"type": "Feature", "id": "4AqDgLG_x6AyV1J-DFnH_7ZSRA4=", "properties": {"ref": "1209", "@spider": "regis", "addr:full": "3333 Buford Dr Ste 2019B", "addr:city": "Buford", "addr:state": "GA", "addr:postcode": "30519", "addr:country": "US", "phone": "+16784826767", "website": "https://www.regissalons.com/locations/ga/buford/regis-salon-mall-of-georgia-haircuts-1046.html", "brand": "Regis Salon", "brand:wikidata": "Q7309325"}, "geometry": {"type": "Point", "coordinates": [-83.984484, 34.065141]}},
{"type": "Feature", "id": "CFHRy8HLQ2BO0FXnDX4i1sbyYpo=", "properties": {"ref": "1471", "@spider": "regis", "addr:full": "2223 N Westshore Blvd Ste 151A", "addr:city": "Tampa", "addr:state": "FL", "addr:postcode": "33607", "addr:country": "US", "phone": "+18133489119", "website": "https://www.regissalons.com/locations/fl/tampa/regis-signature-salon-international-plaza-haircuts-3981.html", "brand": "Regis Salon", "brand:wikidata": "Q7309325"}, "geometry": {"type": "Point", "coordinates": [-82.512786, 27.961326]}},
{"type": "Feature", "id": "rsTCIN9JbYoR6pSpr0Up6QjOAG8=", "properties": {"ref": "1652", "@spider": "regis", "addr:full": "10300 W Forest Hill Blvd # 152", "addr:city": "Wellington", "addr:state": "FL", "addr:postcode": "33414", "addr:country": "US", "phone": "+15613332991", "website": "https://www.regissalons.com/locations/fl/wellington/regis-signature-salon-wellington-green-mall-haircuts-6483.html", "brand": "Regis Salon", "brand:wikidata": "Q7309325"}, "geometry": {"type": "Point", "coordinates": [-80.208445, 26.646324]}},
{"type": "Feature", "id": "HWK4IBfXpBDC2DnUSAUIZtcWqwQ=", "properties": {"ref": "1660", "@spider": "regis", "addr:full": "42 Serramonte Ctr", "addr:city": "Daly City", "addr:state": "CA", "addr:postcode": "94015", "addr:country": "US", "phone": "+16509929970", "website": "https://www.regissalons.com/locations/ca/daly-city/regis-salon-serramonte-center-haircuts-6535.html", "brand": "Regis Salon", "brand:wikidata": "Q7309325"}, "geometry": {"type": "Point", "coordinates": [-122.470884, 37.673548]}}]}