{"type":"FeatureCollection","features":[{"type": "Feature", "id": "WAIrJjIPZ_W7IzWluMrFJcKWjq4=", "properties": {"ref": "29", "@spider": "ricoh_europe", "addr:full": "Konrad-Zuse-Ring 5-7", "addr:city": "M\u00f6nchengladbach", "addr:state": "Nordrhein-Westfalen", "addr:postcode": "41179", "addr:country": "DE", "name": "IT Services - M\u00f6nchengladbach", "phone": "0049 21616550", "brand": "Ricoh"}, "geometry": {"type": "Point", "coordinates": [6.389943, 51.17107]}},
{"type": "Feature", "id": "_0xIhny_3F1hLqMGD4blppVMVXQ=", "properties": {"ref": "30", "@spider": "ricoh_europe", "addr:full": "Wilhelm-Schickard-Stra\u00dfe 2 ", "addr:city": "M\u00fcnster ", "addr:state": "Niedersachsen", "addr:postcode": "48149 ", "addr:country": "DE", "name": "IT Services - M\u00fcnster", "phone": "0049 251921080 ", "brand": "Ricoh"}, "geometry": {"type": "Point", "coordinates": [7.594006, 51.975897]}},
{"type": "Feature", "id": "M2txWPe3EmJR5DBqvKHLc2Zlt4Q=", "properties": {"ref": "42", "@spider": "ricoh_europe", "addr:full": "Otto-Hahn-Str. 20 ", "addr:city": "Aschheim/Dornach ", "addr:state": "Bayern", "addr:postcode": "85609", "addr:country": "DE", "name": "Ricoh -  Business & Service Center Aschheim/Dornach ", "phone": "0049 899049930 ", "brand": "Ricoh"}, "geometry": {"type": "Point", "coordinates": [11.682543, 48.148723]}},
{"type": "Feature", "id": "ifoXEtGoe3HyCht9-oVA8uhM7Hs=", "properties": {"ref": "43", "@spider": "ricoh_europe", "addr:full": "Oberrather Str. 6 ", "addr:city": "D\u00fcsseldorf  ", "addr:state": "Nordrhein-Westfalen", "addr:postcode": "40472", "addr:country": "DE", "name": "Ricoh -  Business & Service Center D\u00fcsseldorf  ", "phone": "0049 211920820 ", "brand": "Ricoh"}, "geometry": {"type": "Point", "coordinates": [6.821329, 51.263368]}},
{"type": "Feature", "id": "-9geEcqATHhGg7Z2EJQ6_9SmPeU=", "properties": {"ref": "44", "@spider": "ricoh_europe", "addr:full": "Am Kaiserkai 1 ", "addr:city": "Hamburg ", "addr:state": "Hamburg", "addr:postcode": "20457", "addr:country": "DE", "name": "Ricoh -  Business & Service Center Hamburg ", "phone": "0049 40532010 ", "brand": "Ricoh"}, "geometry": {"type": "Point", "coordinates": [9.99305, 53.541622]}},
{"type": "Feature", "id": "qQJWz5pWxeuHup71BKhIw8l3lD8=", "properties": {"ref": "45", "@spider": "ricoh_europe", "addr:full": "Gutenbergstr. 6 + 8  ", "addr:city": "Neu-Isenburg", "addr:state": "Hessen", "addr:postcode": "63263", "addr:country": "DE", "name": "Ricoh -  Business & Service Center Neu-Isenburg", "phone": "0049 610220230", "brand": "Ricoh"}, "geometry": {"type": "Point", "coordinates": [8.680376, 50.043623]}},
{"type": "Feature", "id": "8Cy2hny9sktUX1ssJF6_sxF1g5s=", "properties": {"ref": "46", "@spider": "ricoh_europe", "addr:full": "Rheinstra\u00dfe 40 ", "addr:city": "N\u00fcrnberg ", "addr:state": "Bayern", "addr:postcode": "90451", "addr:country": "DE", "name": "Ricoh -  Business & Service Center N\u00fcrnberg  ", "phone": "0049 911931780 ", "brand": "Ricoh"}, "geometry": {"type": "Point", "coordinates": [11.055146, 49.415609]}},
{"type": "Feature", "id": "VIPJQkhfZlfB7A3S0bst25JIlvY=", "properties": {"ref": "47", "@spider": "ricoh_europe", "addr:full": "Kesselstra\u00dfe 19 ", "addr:city": "Stuttgart ", "addr:state": "Baden-W\u00fcrttemberg", "addr:postcode": "70327", "addr:country": "DE", "name": "Ricoh -  Business & Service Center Stuttgart ", "phone": "0049 71152890 ", "brand": "Ricoh"}, "geometry": {"type": "Point", "coordinates": [9.251029, 48.767223]}},
{"type": "Feature", "id": "V8VwZn80Awve6Z9MbbbVP3Vf0Y0=", "properties": {"ref": "48", "@spider": "ricoh_europe", "addr:full": "Rudower Chaussee 13 ", "addr:city": "Berlin ", "addr:state": "Berlin", "addr:postcode": "12489", "addr:country": "DE", "name": "Ricoh - Business & Service Center Berlin ", "phone": "0049 303800090 ", "brand": "Ricoh"}, "geometry": {"type": "Point", "coordinates": [13.535609, 52.432227]}},
{"type": "Feature", "id": "nTxccZbeNrcMmgUbnHQBFp1FEPE=", "properties": {"ref": "49", "@spider": "ricoh_europe", "addr:full": "Torgauer Str. 231/233 ", "addr:city": "Leipzig ", "addr:state": "Sachsen", "addr:postcode": "04347 ", "addr:country": "DE", "name": "Ricoh - Business & Service Center Leipzig", "phone": "0049 341908210 ", "brand": "Ricoh"}, "geometry": {"type": "Point", "coordinates": [12.446486, 51.362677]}},
{"type": "Feature", "id": "B4Nu_-iJlQRTeG2Fr0EBUBdkcMQ=", "properties": {"ref": "50", "@spider": "ricoh_europe", "addr:full": "\"Vahrenwalder Str. 315 ", "addr:city": "Hannover ", "addr:state": "Niedersachsen", "addr:postcode": "30179", "addr:country": "DE", "name": "Ricoh - Hauptverwaltung & Business & Service Center ", "phone": "\"0049 51167420 ", "brand": "Ricoh"}, "geometry": {"type": "Point", "coordinates": [9.732107, 52.421332]}},
{"type": "Feature", "id": "_7b-HezjVIJg54WdIuQV_wYK0ao=", "properties": {"ref": "51", "@spider": "ricoh_europe", "addr:full": "Otto-Brenner-Stra\u00dfe 247 ", "addr:city": "Bielefeld ", "addr:state": "Nordrhein-Westfalen", "addr:postcode": "33604 ", "addr:country": "DE", "name": "Ricoh - Sales Office", "phone": "0049 521520530 ", "brand": "Ricoh"}, "geometry": {"type": "Point", "coordinates": [8.560244, 52.004947]}},
{"type": "Feature", "id": "cCPQqbpVIKoBLrI5NsAQ4IDcTpM=", "properties": {"ref": "52", "@spider": "ricoh_europe", "addr:full": "Georg Kohl Stra\u00dfe 42 ", "addr:city": "Brackenheim ", "addr:state": "Baden-W\u00fcrttemberg", "addr:postcode": "74336 ", "addr:country": "DE", "name": "Ricoh Document Center - Brackenheim   ", "phone": "0049 71359910", "brand": "Ricoh"}, "geometry": {"type": "Point", "coordinates": [9.067534, 49.079399]}},
{"type": "Feature", "id": "KGo75rBEuQOdMH7Zn1PYx4ksMw4=", "properties": {"ref": "64", "@spider": "ricoh_europe", "addr:full": "Lavendelheide 8A", "addr:city": "Drachten", "addr:state": "Flevoland", "addr:postcode": "9202 PD", "addr:country": "NL", "name": "Business Center Noord", "phone": "0850-685 090 ", "brand": "Ricoh"}, "geometry": {"type": "Point", "coordinates": [6.1274182, 53.1049889]}},
{"type": "Feature", "id": "yzwexuLVd2kg7JKD8BDcoHR5Vuo=", "properties": {"ref": "65", "@spider": "ricoh_europe", "addr:full": "Lavendelheide 8A", "addr:city": "Drachten", "addr:state": "Drenthe", "addr:postcode": "9202 PD", "addr:country": "NL", "name": "Business Center Noord - Drenthe", "phone": "0850-685 090 ", "brand": "Ricoh"}, "geometry": {"type": "Point", "coordinates": [6.1274182, 53.1049889]}},
{"type": "Feature", "id": "TRer68I4akTjX4Aa-aPewKyL9tk=", "properties": {"ref": "66", "@spider": "ricoh_europe", "addr:full": "Lavendelheide 8A", "addr:city": "Drachten", "addr:state": "Friesland", "addr:postcode": "9202 PD", "addr:country": "NL", "name": "Business Center Noord - Friesland", "phone": "0850-685 090", "brand": "Ricoh"}, "geometry": {"type": "Point", "coordinates": [6.1274182, 53.1049889]}},
{"type": "Feature", "id": "x9eqwiPq_PLqwoO6zx-R2eE0AQ8=", "properties": {"ref": "86", "@spider": "ricoh_europe", "addr:full": "Wamberg 37", "addr:city": "Amsterdam", "addr:state": "Noord-Holland", "addr:postcode": "1083 CW", "addr:country": "NL", "name": "Ricoh Business Center", "phone": "020 -7630840 ", "brand": "Ricoh"}, "geometry": {"type": "Point", "coordinates": [4.8836782, 52.3276348]}},
{"type": "Feature", "id": "vP8r-6sD_rIvwaEK_M7AW5yKujI=", "properties": {"ref": "88", "@spider": "ricoh_europe", "addr:full": "De Witbogt 22A", "addr:city": "Eindhoven", "addr:state": "Noord-Brabant", "addr:postcode": "5652 AG ", "addr:country": "NL", "name": "Ricoh Document Center Brabant", "phone": "040 -820 02 13", "brand": "Ricoh"}, "geometry": {"type": "Point", "coordinates": [5.43353, 51.432454]}},
{"type": "Feature", "id": "_6B9zo95crySpoMUNQzDad_hL6o=", "properties": {"ref": "136", "@spider": "ricoh_europe", "addr:full": "Thorm\u00f8hlens Gate 53D, 4 etg.", "addr:city": "Bergen", "addr:state": "Vestland", "addr:postcode": "5006", "addr:country": "NO", "name": "Ricoh Norge - Bergen", "phone": "+47 22 58 78 00", "brand": "Ricoh"}, "geometry": {"type": "Point", "coordinates": [5.330698, 60.380965]}},
{"type": "Feature", "id": "oqPPR02pgHcv7kCAd9Gf4KVbH2o=", "properties": {"ref": "137", "@spider": "ricoh_europe", "addr:full": "Gr\u00e5terudveien 1, Eikhaugen N\u00e6ringspark", "addr:city": "Drammen", "addr:state": "Viken", "addr:postcode": "3036", "addr:country": "NO", "name": "Ricoh Norge - Drammen og T\u00f8nsberg ", "phone": "+47 22 58 78 00", "brand": "Ricoh"}, "geometry": {"type": "Point", "coordinates": [10.247796, 59.697902]}},
{"type": "Feature", "id": "asKKy4qvA-o3F2-bI3htdu3j6yI=", "properties": {"ref": "138", "@spider": "ricoh_europe", "addr:full": "Wilbergjordet 1", "addr:city": "Fredrikstad", "addr:state": "Viken", "addr:postcode": "1605", "addr:country": "NO", "name": "Ricoh Norge - Fredrikstad", "phone": "+47 22 58 78 00", "brand": "Ricoh"}, "geometry": {"type": "Point", "coordinates": [10.951799, 59.222547]}},
{"type": "Feature", "id": "2vI4hXH-9V4oybmRRIqbtT8pOA0=", "properties": {"ref": "139", "@spider": "ricoh_europe", "addr:full": "\u00c6girs vei 10", "addr:city": "Kristiansand", "addr:state": "Agder", "addr:postcode": "4632", "addr:country": "NO", "name": "Ricoh Norge - Kristiansand", "phone": "+47 22 58 78 00", "brand": "Ricoh"}, "geometry": {"type": "Point", "coordinates": [8.029481, 58.154551]}},
{"type": "Feature", "id": "DtU9JFgtFK1eaO47xnceZeZddww=", "properties": {"ref": "140", "@spider": "ricoh_europe", "addr:full": "Ingvald Ystg\u00e5rds vei 1", "addr:city": "Trondheim", "addr:state": "Tr\u00f8ndelag", "addr:postcode": "7047", "addr:country": "NO", "name": "Ricoh Norge - Trondheim", "phone": " +47 22 58 78 00", "brand": "Ricoh"}, "geometry": {"type": "Point", "coordinates": [10.470132, 63.422016]}},
{"type": "Feature", "id": "f1z6_VVcXLM5kQBl0hHUnaJBbUQ=", "properties": {"ref": "141", "@spider": "ricoh_europe", "addr:full": "Hovedkontor Valle Wood", "addr:city": "Innspurten 13", "addr:state": "Oslo", "addr:postcode": "0663", "addr:country": "NO", "name": "Ricoh Norge AS ", "phone": "0047 22 58 78 00", "brand": "Ricoh"}, "geometry": {"type": "Point", "coordinates": [10.806795720615042, 59.916939684430815]}},
{"type": "Feature", "id": "hlvdo2p__nzl4D-4HXrepHcbKJg=", "properties": {"ref": "145", "@spider": "ricoh_europe", "addr:full": "Unit 1 (Ground Floor), Greenwood Court, Skyliner Way, Bury St Edmunds, Suffolk", "addr:city": "Bury", "addr:state": "East of England", "addr:postcode": "IP32 7GY", "addr:country": "GB", "name": "Ricoh - Bury St. Edmunds", "phone": "+44 1638 750 925", "brand": "Ricoh"}, "geometry": {"type": "Point", "coordinates": [0.7104932, 52.2429228]}},
{"type": "Feature", "id": "s1L-dlYLNcyYwWh5Knxk_82iSiM=", "properties": {"ref": "146", "@spider": "ricoh_europe", "addr:full": "Cardiff City Stadium, Leckwith Road", "addr:city": "Cardiff", "addr:state": "Wales", "addr:postcode": "CF11 8AZ", "addr:country": "GB", "name": "Ricoh - Cardiff", "phone": "+44 2920 642 590", "brand": "Ricoh"}, "geometry": {"type": "Point", "coordinates": [-3.2041312, 51.4729389]}},
{"type": "Feature", "id": "BXS6wYcWXCol-r6oYwxXq8hkWLI=", "properties": {"ref": "147", "@spider": "ricoh_europe", "addr:full": "7 Blenheim Court, Lustleigh Close, Marsh Barton", "addr:city": "Exeter", "addr:state": "South West", "addr:postcode": "EX2 8PW", "addr:country": "GB", "name": "Ricoh - Exeter", "phone": "+44 1392 823 880", "brand": "Ricoh"}, "geometry": {"type": "Point", "coordinates": [-3.5238941, 50.6993288]}},
{"type": "Feature", "id": "kSBazLM0iVH-_aghZjDuFSExDus=", "properties": {"ref": "148", "@spider": "ricoh_europe", "addr:full": "Ricoh House, Angels Wing, Hunslet Road, Hunslet", "addr:city": "Leeds", "addr:state": "Yorkshire and the Humber", "addr:postcode": "LS10 1AF", "addr:country": "GB", "name": "Ricoh - Leeds", "phone": "+44 113 244 5050", "brand": "Ricoh"}, "geometry": {"type": "Point", "coordinates": [-1.5321953, 53.7843742]}},
{"type": "Feature", "id": "seGnHP4EO86ROfeC3y5QbYjKd2s=", "properties": {"ref": "149", "@spider": "ricoh_europe", "addr:full": "22nd Floor, The Broadgate Tower, 20 Primrose Street", "addr:city": "London", "addr:state": "London", "addr:postcode": "EC2A 2EW", "addr:country": "GB", "name": "Ricoh - London - Broadgate Tower", "phone": "+44 207 655 0100", "brand": "Ricoh"}, "geometry": {"type": "Point", "coordinates": [-0.0793523, 51.5208225]}},
{"type": "Feature", "id": "KpHQMjiLSfQCt9VKVLqEIueEj7k=", "properties": {"ref": "150", "@spider": "ricoh_europe", "addr:full": "Ricoh House, Unit 2, Wells Place", "addr:city": "Merstham", "addr:state": "South East", "addr:postcode": "\tRH1 3LG", "addr:country": "GB", "name": "Ricoh - Merstham", "phone": "/", "brand": "Ricoh"}, "geometry": {"type": "Point", "coordinates": [-0.1548819, 51.2581706]}},
{"type": "Feature", "id": "uYx5TQgN9_bT6rlqSZhPJoJoAEA=", "properties": {"ref": "151", "@spider": "ricoh_europe", "addr:full": "300 & 800 Pavilion Drive, Northampton Business Park", "addr:city": "Northampton", "addr:state": "East Midlands", "addr:postcode": "NN4 7YL", "addr:country": "GB", "name": "Ricoh - Northampton", "phone": "+44 1604 814900", "brand": "Ricoh"}, "geometry": {"type": "Point", "coordinates": [-0.8793428, 52.2182452]}},
{"type": "Feature", "id": "ivBOabK-_albUwCcPK4OuvrF0sE=", "properties": {"ref": "152", "@spider": "ricoh_europe", "addr:full": "3 Lotus Park, First floor, The Causeway", "addr:city": "Staines upon Thames", "addr:state": "London", "addr:postcode": "TW18 3AG", "addr:country": "GB", "name": "Ricoh - Staines upon Thames", "phone": "+44 1784 416 900", "brand": "Ricoh"}, "geometry": {"type": "Point", "coordinates": [0.5230693, 51.4341987]}},
{"type": "Feature", "id": "0HPwZZeiPja8Ll9mOgquoinK5VY=", "properties": {"ref": "153", "@spider": "ricoh_europe", "addr:full": "Priorslee", "addr:city": "Telford", "addr:state": "West Midlands", "addr:postcode": "TF2 9NS", "addr:country": "GB", "name": "Ricoh - Telford", "phone": "+44 1952 211100", "brand": "Ricoh"}, "geometry": {"type": "Point", "coordinates": [-2.4179271, 52.6814469]}},
{"type": "Feature", "id": "Fg9Vsbr9GvEb_uwa51Lwohq7jqM=", "properties": {"ref": "154", "@spider": "ricoh_europe", "addr:full": "305 Bridgewater Place, Birchwood Park", "addr:city": "Warrington", "addr:state": "North West", "addr:postcode": "WA3 6XG", "addr:country": "GB", "name": "Ricoh - Warrington", "phone": "+44 1928 599 599", "brand": "Ricoh"}, "geometry": {"type": "Point", "coordinates": [2.5257191, 53.4246481]}},
{"type": "Feature", "id": "m00CfGFyNQmR-6p-n4bubVtYqq0=", "properties": {"ref": "155", "@spider": "ricoh_europe", "addr:full": "54 Hagley Road, Edgbaston, Birmingham", "addr:city": "Birmingham", "addr:state": "West Midlands", "addr:postcode": "B16 8PE", "addr:country": "GB", "name": "Ricoh Birmingham", "phone": "+44 121 452 4500", "brand": "Ricoh"}, "geometry": {"type": "Point", "coordinates": [1.9259372, 52.4716065]}},
{"type": "Feature", "id": "P6drF2YYbHLO50_wTXFvatIVpNc=", "properties": {"ref": "156", "@spider": "ricoh_europe", "addr:full": "Maxim One, 2 Parklands Way, Holytown", "addr:city": "Motherwell", "addr:state": "Scotland", "addr:postcode": "ML1 4WR", "addr:country": "GB", "name": "Ricoh Motherwell", "phone": "+44 1698 835 600", "brand": "Ricoh"}, "geometry": {"type": "Point", "coordinates": [3.9855926, 55.8346323]}},
{"type": "Feature", "id": "AtsaJc3cPCjjQtODRzwBt7yz9kg=", "properties": {"ref": "158", "@spider": "ricoh_europe", "addr:full": "Parc du Golf-Pichaury ZAC 750 Ave Guilibert de la Lauzi\u00e8re  B\u00e2timent 33 - CS10377", "addr:city": "Aix en Provence", "addr:state": "Provence-Alpes-C\u00f4te d'Azur", "addr:postcode": "13799", "addr:country": "FR", "name": "Agence Aix en Provence", "phone": "337 621 841 01000", "brand": "Ricoh"}, "geometry": {"type": "Point", "coordinates": [5.4474270000000615, 43.529742]}},
{"type": "Feature", "id": "a2-LMzrmT6yjBnmvQE3TQ9lXjQ4=", "properties": {"ref": "159", "@spider": "ricoh_europe", "addr:full": "14 av Roger Dumoulin ZI Longpr\u00e9", "addr:city": "Amiens", "addr:state": "Hauts-de-France", "addr:postcode": "80000", "addr:country": "FR", "name": "Agence Amiens", "phone": "337 621 841 01059", "brand": "Ricoh"}, "geometry": {"type": "Point", "coordinates": [2.2957529999999906, 49.894067]}},
{"type": "Feature", "id": "1UKSo4AUk9kqDrYff1hyRSEVGwE=", "properties": {"ref": "160", "@spider": "ricoh_europe", "addr:full": "27 Rue de Montbron", "addr:city": "Angoul\u00e8me", "addr:state": "Nouvelle-Aquitaine", "addr:postcode": "16000", "addr:country": "FR", "name": "Agence Angoul\u00e8me", "phone": "337 621 841 00416", "brand": "Ricoh"}, "geometry": {"type": "Point", "coordinates": [0.15623690000006718, 45.648377]}},
{"type": "Feature", "id": "No0CsAYBvwqvGIhXtThCuJGBqdM=", "properties": {"ref": "161", "@spider": "ricoh_europe", "addr:full": "15 av Albert Denis  ZA Les Fourneaux  Bat 1 Lot 1", "addr:city": "Angoulins", "addr:state": "Nouvelle-Aquitaine", "addr:postcode": "17690", "addr:country": "FR", "name": "Agence Angoulins", "phone": "337 621 841 00382", "brand": "Ricoh"}, "geometry": {"type": "Point", "coordinates": [-1.1102610000000368, 46.10386589999999]}},
{"type": "Feature", "id": "iF_itWq47txHhRfV5T8a2E1VK70=", "properties": {"ref": "162", "@spider": "ricoh_europe", "addr:full": "Centre d'Affaires du Port 6 rue de Porstrein", "addr:city": "Brest", "addr:state": "Bretagne", "addr:postcode": "29200", "addr:country": "FR", "name": "Agence Brest", "phone": "/", "brand": "Ricoh"}, "geometry": {"type": "Point", "coordinates": [-4.4860760000000255, 48.390394]}},
{"type": "Feature", "id": "1q7hgWBQwIgrTHR94QClstdVV4s=", "properties": {"ref": "163", "@spider": "ricoh_europe", "addr:full": "5 Chemin des Presses  B\u00e2t B - Technopolis", "addr:city": "Cagnes sur mer", "addr:state": "Provence-Alpes-C\u00f4te d'Azur", "addr:postcode": "06890", "addr:country": "FR", "name": "Agence Cagnes sur mer", "phone": "337 621 841 00556", "brand": "Ricoh"}, "geometry": {"type": "Point", "coordinates": [7.148820000000001, 43.663739]}},
{"type": "Feature", "id": "v1Lv9ssT_VhzYt_OdXZRmaodnZ4=", "properties": {"ref": "164", "@spider": "ricoh_europe", "addr:full": "Parc d'Activit\u00e9s de la Rigourdi\u00e8re IMM. B. Appollo 8 Rue de la Rigourdi\u00e8re", "addr:city": "Cesson S\u00e9vign\u00e9", "addr:state": "Bretagne", "addr:postcode": "35510", "addr:country": "FR", "name": "Agence Cesson S\u00e9vign\u00e9", "phone": "337 621 841 00937", "brand": "Ricoh"}, "geometry": {"type": "Point", "coordinates": [-1.6029230000000325, 48.11947199999999]}},
{"type": "Feature", "id": "K6ZIkUqOzkyU9W2DtGuKb5_Qsbw=", "properties": {"ref": "165", "@spider": "ricoh_europe", "addr:full": "7 Rue Cataroux", "addr:city": "Clermont-Ferrand Cedex 2", "addr:state": "Auvergne-Rh\u00f4ne-Alpes", "addr:postcode": "63017", "addr:country": "FR", "name": "Agence Clermont-Ferrand Cedex 2", "phone": "337 621 841 00887", "brand": "Ricoh"}, "geometry": {"type": "Point", "coordinates": [3.0870250000000397, 45.77722199999999]}},
{"type": "Feature", "id": "3e_hJ5U6NP1TlPg8Iwc0rIE3kd8=", "properties": {"ref": "166", "@spider": "ricoh_europe", "addr:full": "B\u00e2timent Olympus d'Effiscience, 9 Rue L\u00e9opold S\u00e9dar-Senghor", "addr:city": "Colombelles", "addr:state": "Basse-Normandie", "addr:postcode": "14460", "addr:country": "FR", "name": "Agence Colombelles", "phone": "337 621 841 01125", "brand": "Ricoh"}, "geometry": {"type": "Point", "coordinates": [-0.30726, 49.187461]}},
{"type": "Feature", "id": "9Xp-zV16JHdglFSZRZ1Yjbk91fo=", "properties": {"ref": "167", "@spider": "ricoh_europe", "addr:full": "Parc de Collines West Park B\u00e2timent B 2 avenue de Strasbourg", "addr:city": "Didenheim", "addr:state": "Grand Est", "addr:postcode": "68350", "addr:country": "FR", "name": "Agence Didenheim", "phone": "337 621 841 01026", "brand": "Ricoh"}, "geometry": {"type": "Point", "coordinates": [7.302875999999969, 47.717881]}},
{"type": "Feature", "id": "ogmOltikVRZfxPCFrE4Qm3KQJ9Y=", "properties": {"ref": "168", "@spider": "ricoh_europe", "addr:full": "Parc Valmy 8 rue Jeanne Barret", "addr:city": "Dijon", "addr:state": "Bourgogne-Franche-Comt\u00e9", "addr:postcode": "21000", "addr:country": "FR", "name": "Agence Dijon", "phone": "337 621 841 01067", "brand": "Ricoh"}, "geometry": {"type": "Point", "coordinates": [5.041479999999979, 47.322047]}},
{"type": "Feature", "id": "NbcDsVCDSVjZvMqjW0JSYULawNE=", "properties": {"ref": "169", "@spider": "ricoh_europe", "addr:full": "A\u00e9roparc Espace Plein Sud 3 Rue Icare CS 50166", "addr:city": "Entzheim", "addr:state": "Grand Est", "addr:postcode": "67960", "addr:country": "FR", "name": "Agence Entzheim", "phone": "337 621 841 00911", "brand": "Ricoh"}, "geometry": {"type": "Point", "coordinates": [7.632306999999969, 48.536734]}},
{"type": "Feature", "id": "w0zbDMNLT8HVpqS67jS0JnonjsI=", "properties": {"ref": "170", "@spider": "ricoh_europe", "addr:full": "Eurospace de Vinci- Alpespace BAT Neptune - 1er \u00e9tage Voie Albert Einstein", "addr:city": "Francin", "addr:state": "Auvergne-Rh\u00f4ne-Alpes", "addr:postcode": "73800", "addr:country": "FR", "name": "Agence Francin", "phone": "337 621 841 00978", "brand": "Ricoh"}, "geometry": {"type": "Point", "coordinates": [6.0278107999999975, 45.50123500000001]}},
{"type": "Feature", "id": "a-ubdWGoWSX0uQRMGvpPDiqb9Ms=", "properties": {"ref": "171", "@spider": "ricoh_europe", "addr:full": "ZAC La Liodi\u00e8re 5 Rue de la Flotti\u00e8re", "addr:city": "Jou\u00e9 Les Tours Cedex", "addr:state": "Centre-Val de Loire", "addr:postcode": "37305", "addr:country": "FR", "name": "Agence Jou\u00e9 Les Tours Cedex", "phone": "337 621 841 00374", "brand": "Ricoh"}, "geometry": {"type": "Point", "coordinates": [0.661309899999992, 47.351861]}},
{"type": "Feature", "id": "VD5KD7yPfsYm-HHyOlFV5I1AWeY=", "properties": {"ref": "172", "@spider": "ricoh_europe", "addr:full": "Lotissement du Parc LEINSTER  Parc du CONNEMARA 94 Rue du LEINSTER  - Bat C  BP 94214", "addr:city": "La Chapelle s/ Erdre", "addr:state": "Centre-Val de Loire", "addr:postcode": "44240", "addr:country": "FR", "name": "Agence La Chapelle s/ Erdre", "phone": "337 621 841 01158", "brand": "Ricoh"}, "geometry": {"type": "Point", "coordinates": [-1.5506379999999353, 47.29957599999999]}},
{"type": "Feature", "id": "yUztm3qi1N_VyVc-BZuYSU64AEk=", "properties": {"ref": "173", "@spider": "ricoh_europe", "addr:full": "Les PLEIADES 417 Route de la Farlede", "addr:city": "La Garde", "addr:state": "Provence-Alpes-C\u00f4te d'Azur", "addr:postcode": "83130", "addr:country": "FR", "name": "Agence La Garde", "phone": "337 621 841 01182", "brand": "Ricoh"}, "geometry": {"type": "Point", "coordinates": [6.017199000000005, 43.128777]}},
{"type": "Feature", "id": "BVtxeRkZpnMrNGZ50Qlam6-aUgc=", "properties": {"ref": "174", "@spider": "ricoh_europe", "addr:full": "Lake Park - Zac de l'Hers 308 All\u00e9e du Lac BP 67687", "addr:city": "Lab\u00e8ge", "addr:state": "Occitanie", "addr:postcode": "31670", "addr:country": "FR", "name": "Agence Lab\u00e8ge", "phone": "337 621 841 00929", "brand": "Ricoh"}, "geometry": {"type": "Point", "coordinates": [1.528055600000016, 43.5367334]}},
{"type": "Feature", "id": "-4esmCJujrrQizahmb5KWZu4bzc=", "properties": {"ref": "175", "@spider": "ricoh_europe", "addr:full": "Le Mill\u00e9nium Rue Ir\u00e8ne Joliot Curie", "addr:city": "Lacroix Saint Ouen", "addr:state": "Hauts-de-France", "addr:postcode": "60610", "addr:country": "FR", "name": "Agence Lacroix Saint Ouen", "phone": "337 621 841 01117", "brand": "Ricoh"}, "geometry": {"type": "Point", "coordinates": [2.7866579999999885, 49.35528499999999]}},
{"type": "Feature", "id": "GTs6H6CvjKG6dW70U1z3U_IoO0A=", "properties": {"ref": "176", "@spider": "ricoh_europe", "addr:full": "Parc d'activit\u00e9 P\u00e9gase Rue Galil\u00e9e", "addr:city": "Lannion", "addr:state": "Bretagne", "addr:postcode": "22300", "addr:country": "FR", "name": "Agence Lannion", "phone": "337 621 841 01083", "brand": "Ricoh"}, "geometry": {"type": "Point", "coordinates": [-3.4591440000000375, 48.732084]}},
{"type": "Feature", "id": "LnhA5pK-448n_D55vEC4i7XS02Y=", "properties": {"ref": "177", "@spider": "ricoh_europe", "addr:full": "Technopole de l'Universit\u00e9 28 Rue Xavier Bichat", "addr:city": "Le Mans Cedex 2", "addr:state": "Pays de la Loire", "addr:postcode": "72000", "addr:country": "FR", "name": "Agence Le Mans Cedex 2", "phone": "337 621 841 01190", "brand": "Ricoh"}, "geometry": {"type": "Point", "coordinates": [0.1995560000000296, 48.00611000000001]}},
{"type": "Feature", "id": "XfDy8bmPleDhjdhtyAeebWyMMiA=", "properties": {"ref": "178", "@spider": "ricoh_europe", "addr:full": "Centre d'Affaires LE SIGNAL 2 Rue Ir\u00e8ne Joliot Curie", "addr:city": "Les Auxons", "addr:state": "Bourgogne-Franche-Comt\u00e9", "addr:postcode": "25870", "addr:country": "FR", "name": "Agence Les Auxons", "phone": "337 621 841 01216", "brand": "Ricoh"}, "geometry": {"type": "Point", "coordinates": [5.9493453000000045, 47.3005089]}},
{"type": "Feature", "id": "nRY78zSmklJs_57RbR7ckYy4ZVU=", "properties": {"ref": "179", "@spider": "ricoh_europe", "addr:full": "Z.I. du Hellu 4 Rue Paul Langevin", "addr:city": "Lezennes", "addr:state": "Hauts-de-France", "addr:postcode": "59260", "addr:country": "FR", "name": "Agence Lezennes", "phone": "337 621 841 00515", "brand": "Ricoh"}, "geometry": {"type": "Point", "coordinates": [3.1170549999999366, 50.61496400000001]}},
{"type": "Feature", "id": "Tr01wyabkmhyGOtvseqI1A4ncHg=", "properties": {"ref": "180", "@spider": "ricoh_europe", "addr:full": "18 place Winston Churchill", "addr:city": "Limoges", "addr:state": "Nouvelle-Aquitaine", "addr:postcode": "87000", "addr:country": "FR", "name": "Agence Limoges", "phone": "/", "brand": "Ricoh"}, "geometry": {"type": "Point", "coordinates": [1.2611050000000432, 45.83361900000001]}},
{"type": "Feature", "id": "LFY87InO45kUkPImjCHNOayMOPc=", "properties": {"ref": "181", "@spider": "ricoh_europe", "addr:full": "Parc St Jacques II 7 rue Paul Langevin", "addr:city": "Maxeville", "addr:state": "Grand Est", "addr:postcode": "54320", "addr:country": "FR", "name": "Agence Maxeville", "phone": "337 621 841 00465", "brand": "Ricoh"}, "geometry": {"type": "Point", "coordinates": [6.165042999999969, 48.711211]}},
{"type": "Feature", "id": "kDbK4cNxCNfV7bebXLRjuaQvtI8=", "properties": {"ref": "182", "@spider": "ricoh_europe", "addr:full": "Parc Technologique de la Vatine Le Soho 9 Rue Linus Carl Pauling", "addr:city": "Mont Saint Aignan", "addr:state": "Normandie", "addr:postcode": "76130", "addr:country": "FR", "name": "Agence Mont Saint Aignan", "phone": "337 621 841 00358", "brand": "Ricoh"}, "geometry": {"type": "Point", "coordinates": [1.0797979999999825, 49.459778]}},
{"type": "Feature", "id": "SzSB_olaX1gW_DcU-g4Sayhdlpo=", "properties": {"ref": "183", "@spider": "ricoh_europe", "addr:full": "1905 Route d'Arras", "addr:city": "Raillencourt Sainte-Olle", "addr:state": "Hauts-de-France", "addr:postcode": "59554", "addr:country": "FR", "name": "Agence Raillencourt Sainte-Olle", "phone": "337 621 841 01208", "brand": "Ricoh"}, "geometry": {"type": "Point", "coordinates": [3.1686970000000656, 50.19059]}},
{"type": "Feature", "id": "I9zJp-cU1Et_Rvle8oPfWyqz_zo=", "properties": {"ref": "184", "@spider": "ricoh_europe", "addr:full": "109 Rue Edmond Rostand", "addr:city": "Reims", "addr:state": "Grand Est", "addr:postcode": "51100", "addr:country": "FR", "name": "Agence Reims", "phone": "337 621 841 01174", "brand": "Ricoh"}, "geometry": {"type": "Point", "coordinates": [4.031696000000011, 49.258329]}},
{"type": "Feature", "id": "XTRW7mFlUmrTBHLligxGhFp4V8s=", "properties": {"ref": "185", "@spider": "ricoh_europe", "addr:full": "7/9, avenue Robert Schuman", "addr:city": "Rungis", "addr:state": "\u00cele-de-France", "addr:postcode": "94150", "addr:country": "FR", "name": "Agence Ricoh France", "phone": "0 892 012012", "brand": "Ricoh"}, "geometry": {"type": "Point", "coordinates": [2.3554476, 48.7469365]}},
{"type": "Feature", "id": "Is0NH5akdoBkuLD1-Mr3mt-oZsY=", "properties": {"ref": "186", "@spider": "ricoh_europe", "addr:full": "ZA des Perches - Bat B4 10/12 All\u00e9e Irene Joliot Curie", "addr:city": "Saint Priest", "addr:state": "Auvergne-Rh\u00f4ne-Alpes", "addr:postcode": "69800", "addr:country": "FR", "name": "Agence Saint Priest", "phone": "337 621 841 01075", "brand": "Ricoh"}, "geometry": {"type": "Point", "coordinates": [4.947071000000051, 45.698938]}},
{"type": "Feature", "id": "kvQbpY9nzo5pG3T_E-NChJWI5SI=", "properties": {"ref": "187", "@spider": "ricoh_europe", "addr:full": "ZAC Les Sables de Sary 163 Rue des Sables de Sary", "addr:city": "Saran", "addr:state": "Centre-Val de Loire", "addr:postcode": "45770", "addr:country": "FR", "name": "Agence Saran", "phone": "337 621 841 00408", "brand": "Ricoh"}, "geometry": {"type": "Point", "coordinates": [1.8807339999999613, 47.94791]}},
{"type": "Feature", "id": "G4C12Hmg9g3YXfhIh-QBQSi0_d4=", "properties": {"ref": "188", "@spider": "ricoh_europe", "addr:full": "Pelus Plaza  16 avenue de Pythagore B\u00e2t. 1 - Entr\u00e9e B - RDC", "addr:city": "M\u00e9rignac", "addr:state": "Nouvelle-Aquitaine", "addr:postcode": "33700", "addr:country": "FR", "name": "Agency M\u00e9rignac", "phone": "337 621 841 01042", "brand": "Ricoh"}, "geometry": {"type": "Point", "coordinates": [-0.6563579999999547, 44.8448769]}},
{"type": "Feature", "id": "WCMlJagBPoEZ3UJEx9DkvsziclU=", "properties": {"ref": "189", "@spider": "ricoh_europe", "addr:full": "1350 Rue Albert Einstein", "addr:city": "Montpellier", "addr:state": "Occitanie", "addr:postcode": "34000", "addr:country": "FR", "name": "Agency Montpellier", "phone": "337 621 841 01166", "brand": "Ricoh"}, "geometry": {"type": "Point", "coordinates": [3.8767159999999876, 43.610769]}},
{"type": "Feature", "id": "Pyz_0ZYOzp9g3hAQhxA-anBgFmA=", "properties": {"ref": "200", "@spider": "ricoh_europe", "addr:full": "RUE BARTHELEMY CONSTESTIN", "addr:city": "FOURQUES", "addr:state": "Occitanie", "addr:postcode": "30300", "addr:country": "FR", "name": "PARTENAIRE CAP SOLUTIONS", "phone": "+33820000371", "brand": "Ricoh"}, "geometry": {"type": "Point", "coordinates": [4.361724, 43.4146612]}},
{"type": "Feature", "id": "QHTL7xTn8Kmez-ugIsqOgnMGRlw=", "properties": {"ref": "212", "@spider": "ricoh_europe", "addr:full": "14 QUAI DU CANAL", "addr:city": "ROANNE", "addr:state": "Auvergne-Rh\u00f4ne-Alpes", "addr:postcode": "42300", "addr:country": "FR", "name": "PARTENAIRE IMAGE LASER COULEUR", "phone": "+33477680505", "brand": "Ricoh"}, "geometry": {"type": "Point", "coordinates": [4.58491, 46.239152]}},
{"type": "Feature", "id": "7HrGwf4SAEfT-cneCqakzWUF6QM=", "properties": {"ref": "226", "@spider": "ricoh_europe", "addr:full": "49 AVENUE JEAN JAURES", "addr:city": "CACHAN", "addr:state": "\u00cele-de-France", "addr:postcode": "94230", "addr:country": "FR", "name": "PARTENAIRE PRO BUREAUTIQUE", "phone": "+33180915480", "brand": "Ricoh"}, "geometry": {"type": "Point", "coordinates": [2.1922498, 48.472647]}},
{"type": "Feature", "id": "vf_AHlKuZsWW3NHLsz31UcdSREs=", "properties": {"ref": "233", "@spider": "ricoh_europe", "addr:full": "Medialaan 28A", "addr:city": "Vilvoorde", "addr:state": "Tous les r\u00e9gions", "addr:postcode": "1800", "addr:country": "BE", "name": "Ricoh Vilvoorde", "phone": "+32 (0)2 558 22 11", "brand": "Ricoh"}, "geometry": {"type": "Point", "coordinates": [4.4000675, 50.9151484]}},
{"type": "Feature", "id": "9-O_1LjrY3e6AZIdOy5CtG9e6cA=", "properties": {"ref": "302", "@spider": "ricoh_europe", "addr:full": "ul. \u017bwirki i Wigury 18A", "addr:city": "Warszawa", "addr:state": "woj. mazowieckie", "addr:postcode": "02-092", "addr:country": "PL", "name": "RICOH POLSKA", "phone": "0048222561555", "brand": "Ricoh"}, "geometry": {"type": "Point", "coordinates": [20.9839954, 52.190134]}},
{"type": "Feature", "id": "FxoQW5BNEVnh2OkZBJ3FKWJrfz0=", "properties": {"ref": "303", "@spider": "ricoh_europe", "addr:full": "ul. Ks. Bpa H. Bednorza 2A-6 (Bud.B-4)\u00a0", "addr:city": "Katowice", "addr:state": "woj. \u015bl\u0105skie", "addr:postcode": "40-384\u00a0", "addr:country": "PL", "name": "RICOH POLSKA, Oddzia\u0142 Katowice", "phone": "(32) 251 82 12", "brand": "Ricoh"}, "geometry": {"type": "Point", "coordinates": [19.0939898, 50.2639339]}},
{"type": "Feature", "id": "b-aDsjFGQM6OIQb1OMraRUzlbDM=", "properties": {"ref": "304", "@spider": "ricoh_europe", "addr:full": "ul. Tkacka 65\u00a0", "addr:city": "Szczecin", "addr:state": "woj. zachodniopomorskie", "addr:postcode": "70-556", "addr:country": "PL", "name": "RICOH POLSKA, Oddzia\u0142 Szczecin", "phone": "0048914646888", "brand": "Ricoh"}, "geometry": {"type": "Point", "coordinates": [14.5534698, 53.4275264]}},
{"type": "Feature", "id": "ffgtkeTSHXge1KxLKc--GOrdRxU=", "properties": {"ref": "305", "@spider": "ricoh_europe", "addr:full": "Al. Grunwaldzka 472C", "addr:city": "Gda\u0144sk", "addr:state": "woj. pomorskie", "addr:postcode": "80-309", "addr:country": "PL", "name": "RICOH POLSKA, Oddzia\u0142 w Tr\u00f3jmie\u015bcie", "phone": "(58) 733 82 68", "brand": "Ricoh"}, "geometry": {"type": "Point", "coordinates": [18.570957, 54.403754]}},
{"type": "Feature", "id": "Vy9NRfhB7Xmu763dy4CNEPnYxEI=", "properties": {"ref": "306", "@spider": "ricoh_europe", "addr:full": "ul. Grabiszy\u0144ska 241F", "addr:city": "Wroc\u0142aw", "addr:state": "woj. dolno\u015bl\u0105skie", "addr:postcode": "53-234", "addr:country": "PL", "name": "RICOH POLSKA, Oddzia\u0142 Wroc\u0142aw", "phone": "0048713390544", "brand": "Ricoh"}, "geometry": {"type": "Point", "coordinates": [16.9841209, 51.0968949]}},
{"type": "Feature", "id": "ty3RS-bn22H3a2gDzocTWc76ntM=", "properties": {"ref": "328", "@spider": "ricoh_europe", "addr:full": "Landsberger Stra\u00dfe 9/2/Top 4", "addr:city": "St. P\u00f6lten", "addr:state": "Nieder\u00f6sterreich", "addr:postcode": "3100", "addr:country": "AT", "name": "Ricoh Austria GmbH  - Nieder\u00f6sterreich", "phone": "05 74264 2300", "brand": "Ricoh"}, "geometry": {"type": "Point", "coordinates": [15.6333, 48.2]}},
{"type": "Feature", "id": "Z0hJ0V-Fh3f_1vkIZMs4n9R9OQ0=", "properties": {"ref": "329", "@spider": "ricoh_europe", "addr:full": "Obere Landstra\u00dfe 19", "addr:city": "Pucking", "addr:state": "Ober\u00f6sterreich", "addr:postcode": "4490", "addr:country": "AT", "name": "Ricoh Austria GmbH  - Ober\u00f6sterreich", "phone": "05 74264 2400", "brand": "Ricoh"}, "geometry": {"type": "Point", "coordinates": [14.178874, 48.1853764]}},
{"type": "Feature", "id": "6WyDsAMcj8lbBiKRZKEJqqrynOc=", "properties": {"ref": "330", "@spider": "ricoh_europe", "addr:full": "Siezenheimer Stra\u00dfe 35", "addr:city": "Salzburg", "addr:state": "Salzburg", "addr:postcode": "5020", "addr:country": "AT", "name": "Ricoh Austria GmbH  - Salzburg", "phone": "05 74264 2500", "brand": "Ricoh"}, "geometry": {"type": "Point", "coordinates": [13.0100679, 47.8056722]}},
{"type": "Feature", "id": "aZU5b-o7R7iIDXkhgKqKj5rZYc4=", "properties": {"ref": "331", "@spider": "ricoh_europe", "addr:full": "Weizerstrasse 14", "addr:city": "Gleisdorf", "addr:state": "Steiermark", "addr:postcode": "8200", "addr:country": "AT", "name": "Ricoh Austria GmbH  - Steiermark", "phone": "0043 5 74264 2800", "brand": "Ricoh"}, "geometry": {"type": "Point", "coordinates": [15.7060728, 47.1077592]}},
{"type": "Feature", "id": "vhGJ0wJUwCK_HhBEI2_jiBzzxG0=", "properties": {"ref": "332", "@spider": "ricoh_europe", "addr:full": "Grabenweg 68", "addr:city": "Innsbruck ", "addr:state": "Tirol", "addr:postcode": "6020", "addr:country": "AT", "name": "Ricoh Austria GmbH  - Tirol ", "phone": "05 74264 2600", "brand": "Ricoh"}, "geometry": {"type": "Point", "coordinates": [11.4409818649292, 47.26518630981445]}},
{"type": "Feature", "id": "ilyShfHJ8EB64m5Z5V--UG8hxY0=", "properties": {"ref": "333", "@spider": "ricoh_europe", "addr:full": "Forachstra\u00dfe 39", "addr:city": "Dornbirn", "addr:state": "Vorarlberg", "addr:postcode": "6850", "addr:country": "AT", "name": "Ricoh Austria GmbH  - Vorarlberg", "phone": "05 74264 2660", "brand": "Ricoh"}, "geometry": {"type": "Point", "coordinates": [9.7351894, 47.4270686]}},
{"type": "Feature", "id": "5LXxgztS2p9rzyQyyRWhyXS16bY=", "properties": {"ref": "334", "@spider": "ricoh_europe", "addr:full": "Thomas-Klestil-Platz 13", "addr:city": "Vienna", "addr:state": "Wien", "addr:postcode": "1030", "addr:country": "AT", "name": "Ricoh Austria GmbH  - Zentrale", "phone": "05 74264", "brand": "Ricoh"}, "geometry": {"type": "Point", "coordinates": [16.4112522, 48.1934994]}},
{"type": "Feature", "id": "eEobx5Gr96byfxzoqxJPKMJsD1I=", "properties": {"ref": "421", "@spider": "ricoh_europe", "addr:full": "\u043f\u0440. \u0410\u043b\u044c-\u0424\u0430\u0440\u0430\u0431\u0438, 7 \u0431\u043b\u043e\u043a 5\u0430, \u043e\u0444. 136, 5 \u044d\u0442\u0430\u0436, \u0411\u0426 \u041d\u0443\u0440\u043b\u044b \u0422\u0430\u0443", "addr:city": "\u0410\u043b\u043c\u0430\u0442\u044b", "addr:state": "\u041a\u0430\u0437\u0430\u0445\u0441\u0442\u0430\u043d", "addr:postcode": "50059", "addr:country": "RU", "name": "\u0424\u0438\u043b\u0438\u0430\u043b \u041e\u041e\u041e \u0420\u0438\u043a\u043e \u0420\u0443\u0441 \u0426\u0435\u043d\u0442\u0440\u0430\u043b\u044c\u043d\u0430\u044f \u0410\u0437\u0438\u044f", "phone": "7(775)2439955", "brand": "Ricoh"}, "geometry": {"type": "Point", "coordinates": [76.947163, 43.230345]}},
{"type": "Feature", "id": "TFYqBBomrMVGwq-J7jxfKZH3ZHY=", "properties": {"ref": "453", "@spider": "ricoh_europe", "addr:full": "Sk\u00e6ringvej 88-100", "addr:city": "Lystrup", "addr:state": "Jylland", "addr:postcode": "8520", "addr:country": "DK", "name": "Ricoh Danmark A/S - \u00c5rhus N", "phone": "+4570106768", "brand": "Ricoh"}, "geometry": {"type": "Point", "coordinates": [10.18683, 56.188061]}},
{"type": "Feature", "id": "aE-nw08z0aNkdJLcDE2GzPBiwiY=", "properties": {"ref": "454", "@spider": "ricoh_europe", "addr:full": "Kokholm 1A", "addr:city": "Kolding", "addr:state": "Jylland", "addr:postcode": "6000", "addr:country": "DK", "name": "Ricoh Danmark A/S - Kolding", "phone": "+4570106768", "brand": "Ricoh"}, "geometry": {"type": "Point", "coordinates": [9.484857, 55.546268]}},
{"type": "Feature", "id": "1MnNjaDifSmUK6pzd8ycymmV7GI=", "properties": {"ref": "455", "@spider": "ricoh_europe", "addr:full": "Delta Park 37", "addr:city": "Vallensb\u00e6k Strand", "addr:state": "Sj\u00e6lland", "addr:postcode": "2665", "addr:country": "DK", "name": "Ricoh Danmark A/S - Vallensb\u00e6k Strand", "phone": "+4570106768", "brand": "Ricoh"}, "geometry": {"type": "Point", "coordinates": [12.387228, 55.628262]}},
{"type": "Feature", "id": "UN1_2v1_AWpeDbz3flixX-wfKck=", "properties": {"ref": "460", "@spider": "ricoh_europe", "addr:full": "Atrium Business Park. Zone Industrielle de Bourmicht, 37 Rue du Puits Romain", "addr:city": "Bertrange", "addr:state": "Luxembourg", "addr:postcode": "8070", "addr:country": "LU", "name": "Ricoh Luxembourg", "phone": "+352 33 58 88", "brand": "Ricoh"}, "geometry": {"type": "Point", "coordinates": [6.079934, 49.607752]}},
{"type": "Feature", "id": "TKgm5ijA6ljWddoHUYBL_ka4gTE=", "properties": {"ref": "461", "@spider": "ricoh_europe", "addr:full": "28 Milkyway Avenue", "addr:city": "Johannesburg", "addr:state": "All regions", "addr:postcode": "2090", "addr:country": "ZA", "name": "Ricoh South Africa", "phone": " 0800 100 040 (Toll free in South Africa)", "brand": "Ricoh"}, "geometry": {"type": "Point", "coordinates": [28.1140714, -26.0712841]}},
{"type": "Feature", "id": "cLwQWrHR24lJI29s4HASchz17pw=", "properties": {"ref": "468", "@spider": "ricoh_europe", "addr:full": "O\u00b4Donell 15, Local", "addr:city": "Madrid", "addr:state": "Madrid", "addr:postcode": "28009", "addr:country": "ES", "name": "C.R.I. Retiro", "phone": "91 426 21 88", "brand": "Ricoh"}, "geometry": {"type": "Point", "coordinates": [-3.6805112, 40.4221734]}},
{"type": "Feature", "id": "XunnkV2bZ7JdakroPDrcdDH-reQ=", "properties": {"ref": "472", "@spider": "ricoh_europe", "addr:full": "Paseo de la Glorieta, 26", "addr:city": "Huelva", "addr:state": "Huelva", "addr:postcode": "21002", "addr:country": "ES", "name": "Compa\u00f1\u00eda Ofim\u00e1tica F.M. 4", "phone": "959 28 07 84", "brand": "Ricoh"}, "geometry": {"type": "Point", "coordinates": [-6.9599524, 37.261908]}},
{"type": "Feature", "id": "6-BB8dHX15gjwRZjKdigZWHvfx4=", "properties": {"ref": "524", "@spider": "ricoh_europe", "addr:full": "Calle Estonia, 9", "addr:city": "M\u00e1laga", "addr:state": "M\u00e1laga", "addr:postcode": "45600", "addr:country": "ES", "name": "Multioficinas", "phone": "95 234 34 04", "brand": "Ricoh"}, "geometry": {"type": "Point", "coordinates": [-4.4974585, 36.6944871]}},
{"type": "Feature", "id": "Edbb0IuX0r8INBpTI3fcOZekzCA=", "properties": {"ref": "534", "@spider": "ricoh_europe", "addr:full": "Parque Tecnol\u00f3gico de Asturias, Parcela 43", "addr:city": "Llanera", "addr:state": "Asturias", "addr:postcode": "33428", "addr:country": "ES", "name": "Ricoh Asturias", "phone": "98 526 84 03", "brand": "Ricoh"}, "geometry": {"type": "Point", "coordinates": [-5.8278215, 43.4224965]}},
{"type": "Feature", "id": "liBGmy7NCiXD-6jwPnB6PN7qbI0=", "properties": {"ref": "535", "@spider": "ricoh_europe", "addr:full": "Av. Via Augusta 71-73", "addr:city": "Sant Cugat del Vall\u00e8s", "addr:state": "Barcelona", "addr:postcode": "08174", "addr:country": "ES", "name": "Ricoh Barcelona", "phone": "98 526 84 03", "brand": "Ricoh"}, "geometry": {"type": "Point", "coordinates": [2.0551033, 41.487018]}},
{"type": "Feature", "id": "AEuioQc1b7RTjCM6_-Jw7Z2DAS0=", "properties": {"ref": "536", "@spider": "ricoh_europe", "addr:full": "Alameda de Mazarredo, 18 bis bajo", "addr:city": "Bilbao", "addr:state": "Bizkaia", "addr:postcode": "48009", "addr:country": "ES", "name": "Ricoh Bilbao", "phone": "944 35 69 50", "brand": "Ricoh"}, "geometry": {"type": "Point", "coordinates": [-2.9327852, 43.2673378]}},
{"type": "Feature", "id": "PRd2nq08w2JL-6GbbsLI8ozFG9A=", "properties": {"ref": "537", "@spider": "ricoh_europe", "addr:full": "Calle Luis Amador, 26, 1\u00ba", "addr:city": "Granada", "addr:state": "Granada", "addr:postcode": "18014", "addr:country": "ES", "name": "Ricoh Granada", "phone": "958 13 18 65", "brand": "Ricoh"}, "geometry": {"type": "Point", "coordinates": [-3.6317732, 37.1779153]}},
{"type": "Feature", "id": "pLrXj8uK7szqCRH8E1Ebfgriw3Y=", "properties": {"ref": "538", "@spider": "ricoh_europe", "addr:full": "Calle Gambrinus 7, 2\u00ba - L  Pol\u00edgono Industrial A Grela ", "addr:city": "A Coru\u00f1a", "addr:state": "A Coru\u00f1a", "addr:postcode": "15008", "addr:country": "ES", "name": "Ricoh La Coru\u00f1a", "phone": "98 126 27 81 / 98 126 27 50", "brand": "Ricoh"}, "geometry": {"type": "Point", "coordinates": [-8.4268347, 43.352645]}},
{"type": "Feature", "id": "eBEKiX7cOMdXe8gLkCjReNL6asg=", "properties": {"ref": "539", "@spider": "ricoh_europe", "addr:full": "Calle Cantabria, 2  Edificio Amura ", "addr:city": "Alcobendas", "addr:state": "Madrid", "addr:postcode": "28108", "addr:country": "ES", "name": "Ricoh Madrid", "phone": "91 708 20 50 ", "brand": "Ricoh"}, "geometry": {"type": "Point", "coordinates": [-3.7385117, 40.459894]}},
{"type": "Feature", "id": "_oc12xRuu7aO22GG5dQv5rIhaZU=", "properties": {"ref": "540", "@spider": "ricoh_europe", "addr:full": "Calle Marie Curie, 12  Conjunto Tecnol\u00f3gico I+D, 11  Bloque A, Local A2  Parque Tecnol\u00f3gico de Andaluc\u00eda", "addr:city": "Campanillas", "addr:state": "M\u00e1laga", "addr:postcode": "29590", "addr:country": "ES", "name": "Ricoh M\u00e1laga", "phone": "952 02 03 19 ", "brand": "Ricoh"}, "geometry": {"type": "Point", "coordinates": [-4.5579937, 36.736511]}},
{"type": "Feature", "id": "-E5Vf4_OA9F_5HgU2I7iBnrEWz8=", "properties": {"ref": "541", "@spider": "ricoh_europe", "addr:full": "Calle Gremi Fusters, 33 PL.2 Oficina 206  Edificio Vipasima ", "addr:city": "Palma de Mallorca", "addr:state": "Baleares", "addr:postcode": "07009", "addr:country": "ES", "name": "Ricoh Mallorca", "phone": "971 43 43 60 ", "brand": "Ricoh"}, "geometry": {"type": "Point", "coordinates": [2.7097993, 39.6433825]}},
{"type": "Feature", "id": "tQ2pLSwRd0iSNFgEYm2CtZ1rNJg=", "properties": {"ref": "542", "@spider": "ricoh_europe", "addr:full": "Edificio Klammer c/ Arcadio Mar\u00eda Larraona, 1   2\u00ba Planta", "addr:city": "Pamplona", "addr:state": "Navarra", "addr:postcode": "31008", "addr:country": "ES", "name": "Ricoh Pamplona", "phone": "948 250 911", "brand": "Ricoh"}, "geometry": {"type": "Point", "coordinates": [-1.6660363, 42.8114463]}},
{"type": "Feature", "id": "Vi0fcCxU7mM3ilrPD_5DwlDicLE=", "properties": {"ref": "543", "@spider": "ricoh_europe", "addr:full": "Fernando M\u00fagica, 11 1\u00ba A  Pol\u00edgono Belartza ", "addr:city": "Donostia-San Sebasti\u00e1n", "addr:state": "Gipuzkoa", "addr:postcode": "20018", "addr:country": "ES", "name": "Ricoh San Sebasti\u00e1n", "phone": "943 36 89 00", "brand": "Ricoh"}, "geometry": {"type": "Point", "coordinates": [-2.0152577, 43.2812798]}},
{"type": "Feature", "id": "21L2HykcJzTGG5Ndg-JS_bHdO5k=", "properties": {"ref": "544", "@spider": "ricoh_europe", "addr:full": "Centro de Negocios, 72A - Oficina 101 ", "addr:city": "Guarnizo", "addr:state": "Cantabria", "addr:postcode": "39611", "addr:country": "ES", "name": "Ricoh Santander", "phone": "942 56 50 22", "brand": "Ricoh"}, "geometry": {"type": "Point", "coordinates": [-3.9181262, 43.3963264]}},
{"type": "Feature", "id": "KkFBMw3YsCHMPl9qUzezGzWp6S4=", "properties": {"ref": "545", "@spider": "ricoh_europe", "addr:full": "Calle Esclusa 11, Locales 2 y 3  Edificio Galia Puerto ", "addr:city": "Sevilla", "addr:state": "Sevilla", "addr:postcode": "41011", "addr:country": "ES", "name": "Ricoh Sevilla", "phone": "95 565 83 47 ", "brand": "Ricoh"}, "geometry": {"type": "Point", "coordinates": [-6.0016231, 37.3680963]}},
{"type": "Feature", "id": "7O4ExZWnnzhxS_1TP7qIMooHnMA=", "properties": {"ref": "546", "@spider": "ricoh_europe", "addr:full": "Calle Juan de la Cierva y Codorniu, 27  Edificio Wellness 1 Parque Tecnol\u00f3gico de Valencia", "addr:city": "Paterna", "addr:state": "Valencia", "addr:postcode": "46980", "addr:country": "ES", "name": "Ricoh Valencia", "phone": "96 131 83 10", "brand": "Ricoh"}, "geometry": {"type": "Point", "coordinates": [-0.4588128, 39.5467328]}},
{"type": "Feature", "id": "kcgYOVdPxg-KjLzM0z2LgJDll18=", "properties": {"ref": "547", "@spider": "ricoh_europe", "addr:full": "Venta de la Estrella, 6 Pabell\u00f3n 1  Pol\u00edgono Uritiasolo", "addr:city": "Vitoria-Gasteiz", "addr:state": "Araba - \u00c1lava", "addr:postcode": "01006", "addr:country": "ES", "name": "Ricoh Vitoria", "phone": "945 14 53 11", "brand": "Ricoh"}, "geometry": {"type": "Point", "coordinates": [-2.6600469, 42.8362503]}},
{"type": "Feature", "id": "_KtbEQDeFrx3njsg0rMGN-IIgIQ=", "properties": {"ref": "548", "@spider": "ricoh_europe", "addr:full": "Av. Manuel Rodr\u00edguez Ayuso  No 114 (Ctra. Madrid Km 315,7)", "addr:city": "Zaragoza", "addr:state": "Zaragoza", "addr:postcode": "50012", "addr:country": "ES", "name": "Ricoh Zaragoza", "phone": "976 53 82 53", "brand": "Ricoh"}, "geometry": {"type": "Point", "coordinates": [-0.9302582, 41.6449657]}},
{"type": "Feature", "id": "v88rHJ1SjM1xW-wSpQjy3ZDM2pI=", "properties": {"ref": "549", "@spider": "ricoh_europe", "addr:full": "Calle \u00c1ngel San Gabriel, 25", "addr:city": "Albacete", "addr:state": "Albacete", "addr:postcode": "02002", "addr:country": "ES", "name": "Ricoh-Alba", "phone": "967 22 11 56", "brand": "Ricoh"}, "geometry": {"type": "Point", "coordinates": [-1.8606686, 38.98532]}},
{"type": "Feature", "id": "rY_y72GxFozH-PkxzL3DOudTe30=", "properties": {"ref": "558", "@spider": "ricoh_europe", "addr:full": "Calle Latorre, 155 - 157", "addr:city": "Sabadell", "addr:state": "Barcelona", "addr:postcode": "08203", "addr:country": "ES", "name": "Salvans", "phone": "93 710 46 88", "brand": "Ricoh"}, "geometry": {"type": "Point", "coordinates": [2.1082912, 41.5384079]}},
{"type": "Feature", "id": "uZ4vNORKGK4l7RHEJzy9V5TW7is=", "properties": {"ref": "562", "@spider": "ricoh_europe", "addr:full": "Avenida Consejo de Europa s/n (Edificio Melkart - Zona Franca)", "addr:city": "C\u00e1diz", "addr:state": "C\u00e1diz", "addr:postcode": "11011", "addr:country": "ES", "name": "Servicios de Oficina de C\u00e1diz", "phone": "956 29 05 66", "brand": "Ricoh"}, "geometry": {"type": "Point", "coordinates": [-6.2697167, 36.501495]}},
{"type": "Feature", "id": "PFaJYT-Myg4z1lpeHLe6u04Hd0s=", "properties": {"ref": "563", "@spider": "ricoh_europe", "addr:full": "Calle Fray Tom\u00e1s Valle, 9", "addr:city": "Algeciras", "addr:state": "C\u00e1diz", "addr:postcode": "11202", "addr:country": "ES", "name": "Servicios de Oficinas de Algeciras", "phone": "956 58 70 09", "brand": "Ricoh"}, "geometry": {"type": "Point", "coordinates": [-5.4501994, 36.137463]}},
{"type": "Feature", "id": "ESnzuvDU_8au1xlkRd-RxPzcDZs=", "properties": {"ref": "574", "@spider": "ricoh_europe", "addr:full": "Calle J\u00fapiter, 6 (Mod. BPI San Fernando)", "addr:city": "San Fernando de Henares", "addr:state": "Madrid", "addr:postcode": "28830", "addr:country": "ES", "name": "Sistemas Ofim\u00e1ticos Madrid", "phone": "902 88 48 30", "brand": "Ricoh"}, "geometry": {"type": "Point", "coordinates": [-3.4928404, 40.4498895]}},
{"type": "Feature", "id": "qCNCVl5XBHIM0R1MhOVOzoDXj_M=", "properties": {"ref": "593", "@spider": "ricoh_europe", "addr:full": "Ingarvsv\u00e4gen 1", "addr:city": " Falun", "addr:state": "Falun", "addr:postcode": "791 77", "addr:country": "SE", "name": "Ricoh IT Partner - Falun", "phone": "0046 010-177 12 80", "brand": "Ricoh"}, "geometry": {"type": "Point", "coordinates": [15.6030587, 60.6053798]}},
{"type": "Feature", "id": "JTKalYeIQ6d6qxA0R-zeHRnXB40=", "properties": {"ref": "596", "@spider": "ricoh_europe", "addr:full": "Vasalidsv\u00e4gen 16", "addr:city": "Mora", "addr:state": "Mora", "addr:postcode": "792 23", "addr:country": "SE", "name": "Ricoh IT Partner - Mora", "phone": "0046 010-177 12 80", "brand": "Ricoh"}, "geometry": {"type": "Point", "coordinates": [14.5458966, 61.0156592]}},
{"type": "Feature", "id": "ucGu4oS7jIutNK0WW5SdK0Ty7A4=", "properties": {"ref": "598", "@spider": "ricoh_europe", "addr:full": "G\u00e4rdev\u00e4gen 5B", "addr:city": "Sundsvall", "addr:state": "Sundsvall", "addr:postcode": "856 50", "addr:country": "SE", "name": "Ricoh IT Partner - Sundsvall", "phone": "0046 010-177 12 80", "brand": "Ricoh"}, "geometry": {"type": "Point", "coordinates": [17.3492358, 62.4155427]}},
{"type": "Feature", "id": "HLCWA76jFWALCqM_Z_H7yNd9xm8=", "properties": {"ref": "600", "@spider": "ricoh_europe", "addr:full": "Norra Obbolav\u00e4gen 115", "addr:city": "Ume\u00e5", "addr:state": "Ume\u00e5", "addr:postcode": "904 22", "addr:country": "SE", "name": "Ricoh IT Partner - Ume\u00e5", "phone": "0046 010-177 12 80", "brand": "Ricoh"}, "geometry": {"type": "Point", "coordinates": [20.2761388, 63.8039035]}},
{"type": "Feature", "id": "jYuS9Tm6eb3t9uotTIT_K8GioPg=", "properties": {"ref": "601", "@spider": "ricoh_europe", "addr:full": "Kungs\u00e4ngsv\u00e4gen 31A", "addr:city": "Uppsala", "addr:state": "Uppsala", "addr:postcode": "753 23", "addr:country": "SE", "name": "Ricoh IT Partner - Uppsala", "phone": "0046 010-177 12 80", "brand": "Ricoh"}, "geometry": {"type": "Point", "coordinates": [17.6718014, 59.8465138]}},
{"type": "Feature", "id": "dRmTjItfU03kAppmeIgorbHr248=", "properties": {"ref": "616", "@spider": "ricoh_europe", "addr:full": "Gustav Adolfs gata 57", "addr:city": "Sk\u00f6vde", "addr:state": "Sk\u00f6vde", "addr:postcode": "541 45", "addr:country": "SE", "name": "Ricoh IT Partner Sk\u00f6vde", "phone": "0046 500 49 59 90", "brand": "Ricoh"}, "geometry": {"type": "Point", "coordinates": [13.8533277, 58.4063184]}},
{"type": "Feature", "id": "eaZExMaUDjta_PfYaP8P-JyYH8I=", "properties": {"ref": "617", "@spider": "ricoh_europe", "addr:full": "Str\u00f6mstadsv\u00e4gen 15", "addr:city": "Uddevalla", "addr:state": "Uddevalla", "addr:postcode": "451 50 ", "addr:country": "SE", "name": "Ricoh IT Partner Uddevalla", "phone": "-", "brand": "Ricoh"}, "geometry": {"type": "Point", "coordinates": [11.9277101, 58.3526296]}},
{"type": "Feature", "id": "tKzFMreq3KiP2Oe61_In-yfpd0o=", "properties": {"ref": "623", "@spider": "ricoh_europe", "addr:full": "Alfagatan 9, ", "addr:city": "M\u00f6lndal", "addr:state": "G\u00f6teborg", "addr:postcode": "431 49", "addr:country": "SE", "name": "Ricoh Sverige AB - G\u00f6teborg", "phone": "031-703 59 00", "brand": "Ricoh"}, "geometry": {"type": "Point", "coordinates": [11.9319853, 57.7000535]}},
{"type": "Feature", "id": "fT2bE5TQ_c0OkZX_G2pnpeXdDhY=", "properties": {"ref": "624", "@spider": "ricoh_europe", "addr:full": "H\u00f6jagatan 1 A", "addr:city": "Malm\u00f6", "addr:state": "Malm\u00f6", "addr:postcode": "212 33 ", "addr:country": "SE", "name": "Ricoh Sverige AB - Malm\u00f6", "phone": "0046 40 - 59 21 50 ", "brand": "Ricoh"}, "geometry": {"type": "Point", "coordinates": [13.0643093, 55.5800717]}},
{"type": "Feature", "id": "Rcumuc5ouKB1u_MGwCOGT7gqWNM=", "properties": {"ref": "625", "@spider": "ricoh_europe", "addr:full": "Storgatan 53", "addr:city": "N\u00e4ssj\u00f6", "addr:state": "N\u00e4ssj\u00f6", "addr:postcode": "571 32", "addr:country": "SE", "name": "Ricoh Sverige AB - N\u00e4ssj\u00f6", "phone": "0046 08-734 33 00", "brand": "Ricoh"}, "geometry": {"type": "Point", "coordinates": [14.691351, 57.656776]}},
{"type": "Feature", "id": "PsU4sZxcD_pgEFbSRVovZCX3Ph4=", "properties": {"ref": "626", "@spider": "ricoh_europe", "addr:full": "R\u00f6ntgenv\u00e4gen 2", "addr:city": "Sp\u00e5nga", "addr:state": "Stockholm", "addr:postcode": "171 29", "addr:country": "SE", "name": "Ricoh Sverige AB - Stockholm ", "phone": "0046 8-734 33 00", "brand": "Ricoh"}, "geometry": {"type": "Point", "coordinates": [17.9769294, 59.357337]}},
{"type": "Feature", "id": "iLSCTmXYtwrsWKjLPs8ujESZrxI=", "properties": {"ref": "680", "@spider": "ricoh_europe", "addr:full": "Moosstrasse 8a", "addr:city": "Sch\u00f6nb\u00fchl (Bern)", "addr:state": "Bern", "addr:postcode": "3322", "addr:country": "CH", "name": "Ricoh Schweiz AG - Bern", "phone": "0844 360 360", "brand": "Ricoh"}, "geometry": {"type": "Point", "coordinates": [7.4943998, 47.0165038]}},
{"type": "Feature", "id": "qjGBg24iD5pkHggIpzvSW6HurE0=", "properties": {"ref": "681", "@spider": "ricoh_europe", "addr:full": "Route de Buchillon 1", "addr:city": "Etoy", "addr:state": "Vaud", "addr:postcode": "1163", "addr:country": "CH", "name": "Ricoh Schweiz AG - Etoy", "phone": "021 632 88 88", "brand": "Ricoh"}, "geometry": {"type": "Point", "coordinates": [6.4118235, 46.4732653]}},
{"type": "Feature", "id": "9Vqq7kv-lA_WFGw_YreSm3BbL-Y=", "properties": {"ref": "682", "@spider": "ricoh_europe", "addr:full": "Altgraben 31", "addr:city": "H\u00e4rkingen", "addr:state": "Solothurn", "addr:postcode": "4624", "addr:country": "CH", "name": "Ricoh Schweiz AG - H\u00e4rkingen", "phone": "0844 360 360", "brand": "Ricoh"}, "geometry": {"type": "Point", "coordinates": [7.8098005, 47.3168799]}},
{"type": "Feature", "id": "C-TC-HYRNLfR_i9yygD_32lyFvs=", "properties": {"ref": "683", "@spider": "ricoh_europe", "addr:full": "Hertistrasse 2", "addr:city": "Wallisellen", "addr:state": "Z\u00fcrich", "addr:postcode": "8304", "addr:country": "CH", "name": "Ricoh Schweiz AG \u2013 Hauptsitz", "phone": "0844 36 03 60", "brand": "Ricoh"}, "geometry": {"type": "Point", "coordinates": [8.5820405, 47.4141521]}},
{"type": "Feature", "id": "RSq0kIwXfzfYr7tmSDsOUHK3YoQ=", "properties": {"ref": "684", "@spider": "ricoh_europe", "addr:full": "Bionstrasse 5", "addr:city": "St. Gallen", "addr:state": "St. Gallen", "addr:postcode": "9015", "addr:country": "CH", "name": "Ricoh Schweiz AG - St. Gallen", "phone": "0844 360 360", "brand": "Ricoh"}, "geometry": {"type": "Point", "coordinates": [9.3128507, 47.408214]}},
{"type": "Feature", "id": "JYw843A53bT8CBtSfc6wgQ5V79k=", "properties": {"ref": "735", "@spider": "ricoh_europe", "addr:full": "Ahjokatu 12", "addr:city": "Jyv\u00e4skyl\u00e4", "addr:state": "All regions for Finland", "addr:postcode": "40320", "addr:country": "FI", "name": "Ricoh Finland Oy - Jyv\u00e4skyl\u00e4", "phone": "0207 370 300", "brand": "Ricoh"}, "geometry": {"type": "Point", "coordinates": [25.780444, 62.257337]}},
{"type": "Feature", "id": "KIr8klsTqwv0kh7mxFmnrdtDUEY=", "properties": {"ref": "736", "@spider": "ricoh_europe", "addr:full": "Linjakatu 4", "addr:city": "Lahti", "addr:state": "All regions for Finland", "addr:postcode": "15100", "addr:country": "FI", "name": "Ricoh Finland Oy - Lahti", "phone": "0207 370 300", "brand": "Ricoh"}, "geometry": {"type": "Point", "coordinates": [25.654932, 60.970172]}},
{"type": "Feature", "id": "2PtDm9LcNOuiwxkJNDa_2M-Ym_E=", "properties": {"ref": "737", "@spider": "ricoh_europe", "addr:full": "Ratakatu 12", "addr:city": "Oulu", "addr:state": "All regions for Finland", "addr:postcode": "90130", "addr:country": "FI", "name": "Ricoh Finland Oy - Oulu", "phone": "0207 370 300", "brand": "Ricoh"}, "geometry": {"type": "Point", "coordinates": [25.4819299, 65.0087004]}},
{"type": "Feature", "id": "95k_DLaJewwaEeGDuSCcZi6y7Pg=", "properties": {"ref": "738", "@spider": "ricoh_europe", "addr:full": "Piispanportti 11", "addr:city": "Espoo", "addr:state": "All regions for Finland", "addr:postcode": "02240", "addr:country": "FI", "name": "Ricoh Finland Oy - P\u00e4\u00e4toimipaikka", "phone": "0207 370 300", "brand": "Ricoh"}, "geometry": {"type": "Point", "coordinates": [24.775141, 60.168685]}},
{"type": "Feature", "id": "Ww0pa4GzxCM03eawIRkk8MRyCtI=", "properties": {"ref": "754", "@spider": "ricoh_europe", "addr:full": "First Floor Unit 160, Airside Business Park, Swords", "addr:city": "Co Dublin", "addr:state": "All regions in Ireland", "addr:postcode": "-", "addr:country": "IE", "name": "Ricoh Dublin", "phone": "-", "brand": "Ricoh"}, "geometry": {"type": "Point", "coordinates": [-6.3755786, 53.3309755]}},
{"type": "Feature", "id": "hv5ZwiI2SXJGwEJ2EWJ4Of4lPUc=", "properties": {"ref": "755", "@spider": "ricoh_europe", "addr:full": "Unit  A1 Hume Centre, Park West ", "addr:city": "Dublin 12", "addr:state": "All regions in Ireland", "addr:postcode": "-", "addr:country": "IE", "name": "Ricoh Print and Document Services Ltd", "phone": "+353 (1) 6239000", "brand": "Ricoh"}, "geometry": {"type": "Point", "coordinates": [-6.3755786, 53.3309755]}},
{"type": "Feature", "id": "jKkwX1UqjkZV1kBPVLz263TteiY=", "properties": {"ref": "779", "@spider": "ricoh_europe", "addr:full": "Be\u015ftepeler Mahallesi Nergis Sokak Via Flat Plaza No : 7/2-41 S\u00f6\u011f\u00fct\u00f6z\u00fc", "addr:city": "Yenimahalle", "addr:state": "Ankara", "addr:postcode": "06560", "addr:country": "TR", "name": "Ricoh Turkey Ankara", "phone": "+90 312 478 01 39 ", "brand": "Ricoh"}, "geometry": {"type": "Point", "coordinates": [32.80850059285768, 39.91430855708532]}},
{"type": "Feature", "id": "VxvPiNUa_GViSNiStou9eXD5ysc=", "properties": {"ref": "780", "@spider": "ricoh_europe", "addr:full": "Fulya Mah. Ortaklar Caddesi Bah\u00e7eler Sokak No: 20 Mecidiyek\u00f6y", "addr:city": "\u015ei\u015fli", "addr:state": "\u0130stanbul", "addr:postcode": "34394", "addr:country": "TR", "name": "Ricoh Turkey Genel Merkez", "phone": "+90 212 370 96 00 \u00a0", "brand": "Ricoh"}, "geometry": {"type": "Point", "coordinates": [28.993817, 41.064324]}},
{"type": "Feature", "id": "1ky2wzssAJsdTtvoMSpXr54f0yY=", "properties": {"ref": "781", "@spider": "ricoh_europe", "addr:full": "\u00c7\u0131narl\u0131 Mah 1572 Sk. No.33", "addr:city": "Withco", "addr:state": "\u0130zmir", "addr:postcode": "35510", "addr:country": "TR", "name": "Ricoh Turkey \u0130zmir", "phone": " +90 232 445 15 68", "brand": "Ricoh"}, "geometry": {"type": "Point", "coordinates": [27.172034207359154, 38.441704333613416]}}]}