{"type":"FeatureCollection","features":[{"type": "Feature", "id": "kshSU-OJvJebLeu21unEz9m0hy0=", "properties": {"ref": "1137", "@spider": "ridleys", "addr:street_address": "210 Crest Wood Drive", "addr:city": "Gypsum", "addr:state": "CO", "addr:postcode": "81637", "addr:country": "US", "name": "Gypsum Market", "phone": "970-524-3663", "brand": "Ridley's Family Markets"}, "geometry": {"type": "Point", "coordinates": [-106.9487287, 39.6465474]}},
{"type": "Feature", "id": "rFh_Dtv9vhqtnVfT45uOrrA2ZCw=", "properties": {"ref": "1136", "@spider": "ridleys", "addr:street_address": "7670 5th St.", "addr:city": "Wellington", "addr:state": "CO", "addr:postcode": "80549", "addr:country": "US", "name": "Wellington Market & Pharmacy", "phone": "970-568-3197", "brand": "Ridley's Family Markets"}, "geometry": {"type": "Point", "coordinates": [-105.0040942, 40.6961771]}},
{"type": "Feature", "id": "OHGxJw1f30VmbPCcvKn7nN6eaeU=", "properties": {"ref": "7155", "@spider": "ridleys", "addr:street_address": "1295 Parkway Blvd", "addr:city": "Blackfoot", "addr:state": "ID", "addr:postcode": "83221", "addr:country": "US", "name": "Blackfoot Grocery Store & Pharmacy", "phone": "(208) 785-4261", "brand": "Ridley's Family Markets"}, "geometry": {"type": "Point", "coordinates": [-112.359255, 43.196087]}},
{"type": "Feature", "id": "CrK7kUrONwAONoTqGU3K2reEgqA=", "properties": {"ref": "8446", "@spider": "ridleys", "addr:street_address": "705 East US Hwy 30", "addr:city": "Buhl", "addr:state": "ID", "addr:postcode": "83644", "addr:country": "US", "name": "Buhl Grocery Store & Pharmacy", "phone": "(208) 543-4366", "brand": "Ridley's Family Markets"}, "geometry": {"type": "Point", "coordinates": [-114.7672413, 42.6044533]}},
{"type": "Feature", "id": "xTs2h7oFebmfAQaZWEat6cbtI_I=", "properties": {"ref": "8445", "@spider": "ridleys", "addr:street_address": "1427 Main St.", "addr:city": "Gooding", "addr:state": "ID", "addr:postcode": "83330", "addr:country": "US", "name": "Gooding Grocery Store & Pharmacy", "phone": "(208) 934-4032", "brand": "Ridley's Family Markets"}, "geometry": {"type": "Point", "coordinates": [-114.7128665, 42.9309241]}},
{"type": "Feature", "id": "EewaCf33LRjMfl0OY6n-zkAaGz0=", "properties": {"ref": "8443", "@spider": "ridleys", "addr:street_address": "1016 South Lincoln", "addr:city": "Jerome", "addr:state": "ID", "addr:postcode": "83338", "addr:country": "US", "name": "Jerome Grocery Store & Pharmacy", "phone": "(208) 324-3954", "brand": "Ridley's Family Markets"}, "geometry": {"type": "Point", "coordinates": [-114.5184278, 42.715699]}},
{"type": "Feature", "id": "2nvpbcAXRsUpDAQk3n2Rv_1MH3Q=", "properties": {"ref": "8464", "@spider": "ridleys", "addr:street_address": "210 Main St. South", "addr:city": "Kimberly", "addr:state": "ID", "addr:postcode": "83341", "addr:country": "US", "name": "Kimberly Grocery Store & Pharmacy", "phone": "(208) 423-5490", "brand": "Ridley's Family Markets"}, "geometry": {"type": "Point", "coordinates": [-114.3647704, 42.5326253]}},
{"type": "Feature", "id": "8ZpWzHlrhvxUhSiLRz9rK2sc4cA=", "properties": {"ref": "8448", "@spider": "ridleys", "addr:street_address": "1403 N Meridian Rd", "addr:city": "Kuna", "addr:state": "ID", "addr:postcode": "83634", "addr:country": "US", "name": "Kuna Grocery Store & Pharmacy", "phone": "208-922-5586", "brand": "Ridley's Family Markets"}, "geometry": {"type": "Point", "coordinates": [-116.393795, 43.50262]}},
{"type": "Feature", "id": "4o_f14rsIplbUagF0G4BNpPj8PU=", "properties": {"ref": "8463", "@spider": "ridleys", "addr:street_address": "411 Deinhard Lane", "addr:city": "McCall", "addr:state": "ID", "addr:postcode": "83638", "addr:country": "US", "name": "McCall Grocery & Variety Store", "phone": "(208) 634-8719", "brand": "Ridley's Family Markets"}, "geometry": {"type": "Point", "coordinates": [-116.0987364, 44.911006]}},
{"type": "Feature", "id": "lPNjzy2A5o8B5vB03Jmck7i9mxw=", "properties": {"ref": "8442", "@spider": "ridleys", "addr:street_address": "430 E Main ", "addr:city": "Middleton", "addr:state": "ID", "addr:postcode": "83644", "addr:country": "US", "name": "Middleton Grocery Store & Pharmacy", "phone": "(208) 585-3043", "brand": "Ridley's Family Markets"}, "geometry": {"type": "Point", "coordinates": [-116.6201357, 43.7068281]}},
{"type": "Feature", "id": "cZzuNVKrT5g0vvvel6EiiJ4bktk=", "properties": {"ref": "7156", "@spider": "ridleys", "addr:street_address": "1000 Pocatello Creek Rd", "addr:city": "Pocatello", "addr:state": "ID", "addr:postcode": "83204", "addr:country": "US", "name": "Pocatello Creek Grocery Store & Pharmacy", "phone": "208-233-4158", "brand": "Ridley's Family Markets"}, "geometry": {"type": "Point", "coordinates": [-112.441015, 42.894045]}},
{"type": "Feature", "id": "6rTjZtFT--PGmOneSD93dsQBw6E=", "properties": {"ref": "7152", "@spider": "ridleys", "addr:street_address": "911 N. Main St.", "addr:city": "Pocatello", "addr:state": "ID", "addr:postcode": "83204", "addr:country": "US", "name": "Pocatello Grocery Store & Pharmacy", "phone": "(208) 232-3156", "brand": "Ridley's Family Markets"}, "geometry": {"type": "Point", "coordinates": [-112.4581459, 42.8684927]}},
{"type": "Feature", "id": "NKCjCpDtJ8--dvH2GKsEHy5vIRA=", "properties": {"ref": "8447", "@spider": "ridleys", "addr:street_address": "310 Oneida", "addr:city": "Rupert", "addr:state": "ID", "addr:postcode": "83350", "addr:country": "US", "name": "Rupert Grocery Store & Pharmacy", "phone": "(208) 436-0633", "brand": "Ridley's Family Markets"}, "geometry": {"type": "Point", "coordinates": [-113.6772348, 42.6190756]}},
{"type": "Feature", "id": "Ki696dQoGAZchVB0cr04HTtD3VA=", "properties": {"ref": "8440", "@spider": "ridleys", "addr:street_address": "145 South Plummer Way", "addr:city": "Star", "addr:state": "ID", "addr:postcode": "83669", "addr:country": "US", "name": "Star Grocery Store, Pharmacy & Ace Hardware", "phone": "208-207-1010", "brand": "Ridley's Family Markets"}, "geometry": {"type": "Point", "coordinates": [-116.4753317, 43.6900618]}},
{"type": "Feature", "id": "Ct26duUmC9XaxeozkKkhBGlnlH0=", "properties": {"ref": "8444", "@spider": "ridleys", "addr:street_address": "1401 e 6th street", "addr:city": "Weiser", "addr:state": "ID", "addr:postcode": "83672", "addr:country": "US", "name": "Weiser Grocery Store & Pharmacy", "phone": "(208) 549-1332", "brand": "Ridley's Family Markets"}, "geometry": {"type": "Point", "coordinates": [-116.9681458, 44.2473743]}},
{"type": "Feature", "id": "gmvY1gtrsvY914lnsrrz97ltQe4=", "properties": {"ref": "1154", "@spider": "ridleys", "addr:street_address": "1689 Great Basin Blvd.", "addr:city": "Ely", "addr:state": "NV", "addr:postcode": "89301", "addr:country": "US", "name": "Ely Grocery Store & Pharmacy", "phone": "(775) 289-3444", "brand": "Ridley's Family Markets"}, "geometry": {"type": "Point", "coordinates": [-114.8700353, 39.2453979]}},
{"type": "Feature", "id": "uL-H03VPrgAlqh5AFKHl1OV_ETE=", "properties": {"ref": "1135", "@spider": "ridleys", "addr:street_address": "1125 W. Winnemucca Blvd", "addr:city": "Winnemucca", "addr:state": "NV", "addr:postcode": "89445", "addr:country": "US", "name": "Winnemucca Market & Pharmacy", "phone": "775-623-2577", "brand": "Ridley's Family Markets"}, "geometry": {"type": "Point", "coordinates": [-117.7438498, 40.9642853]}},
{"type": "Feature", "id": "4InwJxAV5vCu5SKwMO9NqAgY-uo=", "properties": {"ref": "1165", "@spider": "ridleys", "addr:street_address": "4045 East Pony Express Pkwy", "addr:city": "Eagle Mountain", "addr:state": "UT", "addr:postcode": "84005", "addr:country": "US", "name": "Eagle Mountain Grocery Store & Pharmacy", "phone": "801-789-4995", "brand": "Ridley's Family Markets"}, "geometry": {"type": "Point", "coordinates": [-112.013512, 40.322565]}},
{"type": "Feature", "id": "x_tUr1HsYabS-beEv-I1RS8Jwvk=", "properties": {"ref": "1150", "@spider": "ridleys", "addr:street_address": "780 East Main Street", "addr:city": "Hyrum", "addr:state": "UT", "addr:postcode": "84319", "addr:country": "US", "name": "Hyrum Grocery & Hardware Store", "phone": "(435) 245-4455", "brand": "Ridley's Family Markets"}, "geometry": {"type": "Point", "coordinates": [-111.8340015, 41.6335931]}},
{"type": "Feature", "id": "FAFIXy-x72FqKnEUpzpvwVKmGfs=", "properties": {"ref": "1171", "@spider": "ridleys", "addr:street_address": "42 West Main Street", "addr:city": "Midway", "addr:state": "UT", "addr:postcode": "84049", "addr:country": "US", "name": "Midway Grocery Store and Fuel Center", "phone": "435-657-0170", "brand": "Ridley's Family Markets"}, "geometry": {"type": "Point", "coordinates": [-111.473231, 40.512827]}},
{"type": "Feature", "id": "GRSCiecXXz9D6La6DtjA4ixCpkQ=", "properties": {"ref": "1161", "@spider": "ridleys", "addr:street_address": "275 E 300 N", "addr:city": "Morgan", "addr:state": "UT", "addr:postcode": "84050", "addr:country": "US", "name": "Morgan Grocery Store & Pharmacy", "phone": "(801) 829-3284", "brand": "Ridley's Family Markets"}, "geometry": {"type": "Point", "coordinates": [-111.674287, 41.047625]}},
{"type": "Feature", "id": "6SCrG84dzcaXJly_iRVgzthVC3k=", "properties": {"ref": "1151", "@spider": "ridleys", "addr:street_address": "74 South 100 East", "addr:city": "Tremonton", "addr:state": "UT", "addr:postcode": "84337", "addr:country": "US", "name": "Tremonton Grocery Store & Pharmacy", "phone": "(435) 557-7011", "brand": "Ridley's Family Markets"}, "geometry": {"type": "Point", "coordinates": [-112.1647056, 41.7109376]}},
{"type": "Feature", "id": "Q4ROFzpta_bbOQJt6V9Hn6e1z20=", "properties": {"ref": "1132", "@spider": "ridleys", "addr:street_address": "300 E. Wyoming Blvd", "addr:city": "Casper", "addr:state": "WY", "addr:postcode": "82609", "addr:country": "US", "name": "Casper on Wyoming Blvd Grocery Store, Pharmacy, and Fuel Center", "phone": "307-577-7060", "brand": "Ridley's Family Markets"}, "geometry": {"type": "Point", "coordinates": [-106.272602, 42.848042]}},
{"type": "Feature", "id": "cwxN1l2JL4781w9GYalGOHllays=", "properties": {"ref": "1163", "@spider": "ridleys", "addr:street_address": "620 Pine Ave.", "addr:city": "Kemmerer", "addr:state": "WY", "addr:postcode": "83101", "addr:country": "US", "name": "Kemmerer Grocery Store & Pharmacy", "phone": "(307) 877-3698", "brand": "Ridley's Family Markets"}, "geometry": {"type": "Point", "coordinates": [-110.537889, 41.796368]}},
{"type": "Feature", "id": "XqYOCqWJpaHGQecEBzsy3maJ9fc=", "properties": {"ref": "1131", "@spider": "ridleys", "addr:street_address": "3112 Grand Ave", "addr:city": "Laramie", "addr:state": "WY", "addr:postcode": "82070", "addr:country": "US", "name": "Laramie Grocery Store & Pharmacy", "phone": "307-742-8146", "brand": "Ridley's Family Markets"}, "geometry": {"type": "Point", "coordinates": [-105.5557214, 41.3080321]}},
{"type": "Feature", "id": "X5as7liY0LnBTVUdLdE5QZaI_4o=", "properties": {"ref": "1153", "@spider": "ridleys", "addr:street_address": "341 East Pine Street (Box 1856)", "addr:city": "Pinedale", "addr:state": "WY", "addr:postcode": "82941", "addr:country": "US", "name": "Pinedale General Store & Pharmacy", "phone": "(307) 367-2131", "brand": "Ridley's Family Markets"}, "geometry": {"type": "Point", "coordinates": [-109.864482, 42.864735]}},
{"type": "Feature", "id": "rA9NY7klY9vwt4M4RWufuJ-_xfc=", "properties": {"ref": "1130", "@spider": "ridleys", "addr:street_address": "169  Coffeen Ave", "addr:city": "Sheridan", "addr:state": "WY", "addr:postcode": "82801", "addr:country": "US", "name": "Sheridan Grocery Store & Pharmacy", "phone": "307-674-9800", "brand": "Ridley's Family Markets"}, "geometry": {"type": "Point", "coordinates": [-106.95207, 44.7946399]}}]}