{"type":"FeatureCollection","features":[{"type": "Feature", "id": "gp9nd-1xGLqPqdPoWJAQqv-GQ4c=", "properties": {"ref": "https://www.riverisland.com/how-can-we-help/find-a-store/bromley", "@spider": "riverisland_gb", "shop": "clothes", "addr:street_address": "85 The Glades Shopping Centre", "addr:city": "Kent", "addr:state": "South East", "addr:postcode": "BR1 1DD", "addr:country": "GB", "name": "River Island BROMLEY", "phone": "+44 (0)344 826 9746", "website": "http://www.riverisland.com/how-can-we-help/find-a-store/bromley", "opening_hours": "Mo-We 09:00-19:00; Th 09:00-21:00; Fr-Sa 09:00-19:00; Su 11:00-17:00", "image": "https://www.riverisland.com/Assets/RiverIsland/Core/images/logo.png", "brand": "RIVER ISLAND", "brand:wikidata": "Q2670328", "nsi_id": "riverisland-a754e7"}, "geometry": {"type": "Point", "coordinates": [0.016325, 51.404094]}},
{"type": "Feature", "id": "Q-8Pfk1Dfuyi-snBWBIjJejwceI=", "properties": {"ref": "https://www.riverisland.com/how-can-we-help/find-a-store/bristol-longwell-green", "@spider": "riverisland_gb", "shop": "clothes", "addr:street_address": "Unit A1 Aldermoor Way", "addr:city": "South Gloucestershire", "addr:state": "South West", "addr:postcode": "BS30 7DA", "addr:country": "GB", "name": "River Island BRISTOL LONGWELL GREEN", "phone": "+44 (0)344 847 2609", "website": "http://www.riverisland.com/how-can-we-help/find-a-store/bristol-longwell-green", "opening_hours": "Mo-We 09:30-18:30; Th-Fr 09:30-19:00; Sa 09:30-18:30; Su 10:30-16:30", "image": "https://www.riverisland.com/Assets/RiverIsland/Core/images/logo.png", "brand": "RIVER ISLAND", "brand:wikidata": "Q2670328", "nsi_id": "riverisland-a754e7"}, "geometry": {"type": "Point", "coordinates": [-2.501125, 51.445064]}},
{"type": "Feature", "id": "e4sIpOKcGCU8rSAPDHhRMENzl7A=", "properties": {"ref": "https://www.riverisland.com/how-can-we-help/find-a-store/bristol-cribbs-causeway", "@spider": "riverisland_gb", "shop": "clothes", "addr:street_address": "Unit 47", "addr:city": "Bristol", "addr:state": "South West", "addr:postcode": "BS34 5DG", "addr:country": "GB", "name": "River Island BRISTOL CRIBBS CAUSEWAY", "phone": "+44 (0)344 826 9765", "website": "http://www.riverisland.com/how-can-we-help/find-a-store/bristol-cribbs-causeway", "opening_hours": "Mo-Fr 09:30-20:00; Sa 09:00-20:00; Su 11:00-17:00", "image": "https://www.riverisland.com/Assets/RiverIsland/Core/images/logo.png", "brand": "RIVER ISLAND", "brand:wikidata": "Q2670328", "nsi_id": "riverisland-a754e7"}, "geometry": {"type": "Point", "coordinates": [-2.610664, 51.526278]}},
{"type": "Feature", "id": "hTLTjDTRP329Nk9hKhPWJ8MIbxU=", "properties": {"ref": "https://www.riverisland.com/how-can-we-help/find-a-store/bristol-cabot-circus", "@spider": "riverisland_gb", "shop": "clothes", "addr:street_address": "Unit Su06", "addr:city": "Bristol", "addr:state": "South West", "addr:postcode": "BS1 3BF", "addr:country": "GB", "name": "River Island BRISTOL CABOT CIRCUS", "phone": "+44 (0)344 826 9745", "website": "http://www.riverisland.com/how-can-we-help/find-a-store/bristol-cabot-circus", "opening_hours": "Mo-Sa 10:00-20:00; Su 11:00-17:00", "image": "https://www.riverisland.com/Assets/RiverIsland/Core/images/logo.png", "brand": "RIVER ISLAND", "brand:wikidata": "Q2670328", "nsi_id": "riverisland-a754e7"}, "geometry": {"type": "Point", "coordinates": [-2.588261, 51.458125]}},
{"type": "Feature", "id": "6vYAXHNiH9X9yQBP75tjUsUsKns=", "properties": {"ref": "https://www.riverisland.com/how-can-we-help/find-a-store/brighton", "@spider": "riverisland_gb", "shop": "clothes", "addr:street_address": "Units 51-53", "addr:city": "Brighton", "addr:state": "South East", "addr:postcode": "BN1 2RG", "addr:country": "GB", "name": "River Island BRIGHTON", "phone": "+44 (0)344 826 9744", "website": "http://www.riverisland.com/how-can-we-help/find-a-store/brighton", "opening_hours": "Mo-Sa 09:00-18:00; Su 11:00-17:00", "image": "https://www.riverisland.com/Assets/RiverIsland/Core/images/logo.png", "brand": "RIVER ISLAND", "brand:wikidata": "Q2670328", "nsi_id": "riverisland-a754e7"}, "geometry": {"type": "Point", "coordinates": [-0.145417, 50.822281]}},
{"type": "Feature", "id": "bSMMkXo7Jpjp9SR4kAVVDH0aiwU=", "properties": {"ref": "https://www.riverisland.com/how-can-we-help/find-a-store/brent-cross", "@spider": "riverisland_gb", "shop": "clothes", "addr:street_address": "Brent Cross Shopping Centre", "addr:city": "London", "addr:state": "London", "addr:postcode": "NW4 3FP", "addr:country": "GB", "name": "River Island BRENT CROSS", "phone": "+44 (0)344 395 1003", "website": "http://www.riverisland.com/how-can-we-help/find-a-store/brent-cross", "opening_hours": "Mo-Fr 10:00-20:00; Sa 09:00-20:00; Su 11:30-18:00", "image": "https://www.riverisland.com/Assets/RiverIsland/Core/images/logo.png", "brand": "RIVER ISLAND", "brand:wikidata": "Q2670328", "nsi_id": "riverisland-a754e7"}, "geometry": {"type": "Point", "coordinates": [-0.225361, 51.577817]}},
{"type": "Feature", "id": "YsgQblvlsBLLMri4271zRojz8Bc=", "properties": {"ref": "https://www.riverisland.com/how-can-we-help/find-a-store/bradford", "@spider": "riverisland_gb", "shop": "clothes", "addr:street_address": "Unit 4,5,6 Eastbrook Mall", "addr:city": "Yorkshire", "addr:state": "Yorkshire and Humber", "addr:postcode": "BD1 1AE", "addr:country": "GB", "name": "River Island BRADFORD", "phone": "+44 (0)344 826 9743", "website": "http://www.riverisland.com/how-can-we-help/find-a-store/bradford", "opening_hours": "Mo-Sa 09:00-19:00; Su 11:00-17:00", "image": "https://www.riverisland.com/Assets/RiverIsland/Core/images/logo.png", "brand": "RIVER ISLAND", "brand:wikidata": "Q2670328", "nsi_id": "riverisland-a754e7"}, "geometry": {"type": "Point", "coordinates": [-1.750149, 53.795277]}},
{"type": "Feature", "id": "aHY2GImdUSosUoXUsnGvdwPlUvk=", "properties": {"ref": "https://www.riverisland.com/how-can-we-help/find-a-store/bracknell", "@spider": "riverisland_gb", "shop": "clothes", "addr:street_address": "Unit 4c", "addr:city": "Berkshire", "addr:postcode": "RG12 1BE", "addr:country": "GB", "name": "River Island BRACKNELL", "phone": "+44 (0)330 311 7802", "website": "http://www.riverisland.com/how-can-we-help/find-a-store/bracknell", "opening_hours": "Mo-We 09:00-18:00; Th 09:00-20:00; Fr 09:00-19:00; Sa 09:00-18:00; Su 11:00-17:00", "image": "https://www.riverisland.com/Assets/RiverIsland/Core/images/logo.png", "brand": "RIVER ISLAND", "brand:wikidata": "Q2670328", "nsi_id": "riverisland-a754e7"}, "geometry": {"type": "Point", "coordinates": [-0.747418, 51.415857]}},
{"type": "Feature", "id": "7IIGZiKiBGG_JfC1Eq3DiKarndo=", "properties": {"ref": "https://www.riverisland.com/how-can-we-help/find-a-store/bournemouth-castlepoint", "@spider": "riverisland_gb", "shop": "clothes", "addr:street_address": "Unit Q1", "addr:city": "Dorset", "addr:state": "South West", "addr:postcode": "BH8 9UZ", "addr:country": "GB", "name": "River Island BOURNEMOUTH CASTLEPOINT", "phone": "+44 (0)344 826 9742", "website": "http://www.riverisland.com/how-can-we-help/find-a-store/bournemouth-castlepoint", "opening_hours": "Mo-Fr 09:00-20:00; Sa 09:00-19:00; Su 10:30-16:30", "image": "https://www.riverisland.com/Assets/RiverIsland/Core/images/logo.png", "brand": "RIVER ISLAND", "brand:wikidata": "Q2670328", "nsi_id": "riverisland-a754e7"}, "geometry": {"type": "Point", "coordinates": [-1.840903, 50.753681]}},
{"type": "Feature", "id": "2lZy7zfEndR1wUxGRBkrGbIGbIA=", "properties": {"ref": "https://www.riverisland.com/how-can-we-help/find-a-store/bournemouth", "@spider": "riverisland_gb", "shop": "clothes", "addr:street_address": "56-58 Commercial Road", "addr:city": "Dorset", "addr:state": "South West", "addr:postcode": "BH2 5LR", "addr:country": "GB", "name": "River Island BOURNEMOUTH", "phone": "+44 (0)344 826 9741", "website": "http://www.riverisland.com/how-can-we-help/find-a-store/bournemouth", "opening_hours": "Mo-Sa 09:00-18:00; Su 11:00-17:00", "image": "https://www.riverisland.com/Assets/RiverIsland/Core/images/logo.png", "brand": "RIVER ISLAND", "brand:wikidata": "Q2670328", "nsi_id": "riverisland-a754e7"}, "geometry": {"type": "Point", "coordinates": [-1.877603, 50.720117]}},
{"type": "Feature", "id": "swh97dA_ilYdEVqZh72uTvF5PVA=", "properties": {"ref": "https://www.riverisland.com/how-can-we-help/find-a-store/bolton-middlebrook", "@spider": "riverisland_gb", "shop": "clothes", "addr:street_address": "Unit A", "addr:city": "Lancashire", "addr:state": "North West", "addr:postcode": "BL6 6JA", "addr:country": "GB", "name": "River Island BOLTON MIDDLEBROOK", "phone": "+44 (0)344 334 0526", "website": "http://www.riverisland.com/how-can-we-help/find-a-store/bolton-middlebrook", "opening_hours": "Mo-We 09:00-19:00; Th-Fr 09:00-20:00; Sa 09:00-19:00; Su 10:30-16:30", "image": "https://www.riverisland.com/Assets/RiverIsland/Core/images/logo.png", "brand": "RIVER ISLAND", "brand:wikidata": "Q2670328", "nsi_id": "riverisland-a754e7"}, "geometry": {"type": "Point", "coordinates": [-2.534246, 53.584456]}},
{"type": "Feature", "id": "2xnaAUifcWPtayhfD9k3HapJpx4=", "properties": {"ref": "https://www.riverisland.com/how-can-we-help/find-a-store/bolton-market-place", "@spider": "riverisland_gb", "shop": "clothes", "addr:street_address": "26-28 Ground Mall", "addr:city": "Lancashire", "addr:state": "North West", "addr:postcode": "BL1 2AL", "addr:country": "GB", "name": "River Island BOLTON MARKET PLACE", "phone": "+44 (0)344 826 9740", "website": "http://www.riverisland.com/how-can-we-help/find-a-store/bolton-market-place", "opening_hours": "Mo-Sa 09:00-17:30; Su 10:30-16:30", "image": "https://www.riverisland.com/Assets/RiverIsland/Core/images/logo.png", "brand": "RIVER ISLAND", "brand:wikidata": "Q2670328", "nsi_id": "riverisland-a754e7"}, "geometry": {"type": "Point", "coordinates": [-2.429817, 53.581347]}},
{"type": "Feature", "id": "qHBW2TkU2E5OF0AsVmYbnkTYOeY=", "properties": {"ref": "https://www.riverisland.com/how-can-we-help/find-a-store/bluewater", "@spider": "riverisland_gb", "shop": "clothes", "addr:street_address": "U032 Upper Rose Gallery", "addr:city": "Kent", "addr:state": "South East", "addr:postcode": "DA9 9SP", "addr:country": "GB", "name": "River Island BLUEWATER", "phone": "+44 (0)344 395 1002", "website": "http://www.riverisland.com/how-can-we-help/find-a-store/bluewater", "opening_hours": "Mo-Fr 10:00-21:00; Sa 09:00-21:00; Su 11:00-17:00", "image": "https://www.riverisland.com/Assets/RiverIsland/Core/images/logo.png", "brand": "RIVER ISLAND", "brand:wikidata": "Q2670328", "nsi_id": "riverisland-a754e7"}, "geometry": {"type": "Point", "coordinates": [0.270144, 51.439186]}},
{"type": "Feature", "id": "nMvmwO1XYTiQ25TMNNCA_cW3A3A=", "properties": {"ref": "https://www.riverisland.com/how-can-we-help/find-a-store/blackpool", "@spider": "riverisland_gb", "shop": "clothes", "addr:street_address": "Unit N10", "addr:city": "Lancashire", "addr:state": "North West", "addr:postcode": "FY1 4HU", "addr:country": "GB", "name": "River Island BLACKPOOL", "phone": "+44 (0)344 826 9722", "website": "http://www.riverisland.com/how-can-we-help/find-a-store/blackpool", "opening_hours": "Mo-Fr 09:00-17:30; Sa 09:00-18:00; Su 10:30-16:30", "image": "https://www.riverisland.com/Assets/RiverIsland/Core/images/logo.png", "brand": "RIVER ISLAND", "brand:wikidata": "Q2670328", "nsi_id": "riverisland-a754e7"}, "geometry": {"type": "Point", "coordinates": [-3.054408, 53.816186]}},
{"type": "Feature", "id": "JbtniLCLLMXUHD_mtrucqghXcV0=", "properties": {"ref": "https://www.riverisland.com/how-can-we-help/find-a-store/blackburn", "@spider": "riverisland_gb", "shop": "clothes", "addr:street_address": "18-20 Springhill", "addr:city": "Lancashire", "addr:state": "North West", "addr:postcode": "BB1 7JB", "addr:country": "GB", "name": "River Island BLACKBURN", "phone": "+44 (0)344 826 9739", "website": "http://www.riverisland.com/how-can-we-help/find-a-store/blackburn", "opening_hours": "Mo-Fr 09:00-17:30; Sa 09:00-18:00; Su 10:30-16:30", "image": "https://www.riverisland.com/Assets/RiverIsland/Core/images/logo.png", "brand": "RIVER ISLAND", "brand:wikidata": "Q2670328", "nsi_id": "riverisland-a754e7"}, "geometry": {"type": "Point", "coordinates": [-2.482553, 53.748747]}},
{"type": "Feature", "id": "RW1eYB38X6v1XKnW13rd3xWkTZU=", "properties": {"ref": "https://www.riverisland.com/how-can-we-help/find-a-store/york-monks-cross", "@spider": "riverisland_gb", "shop": "clothes", "addr:street_address": "Unit 13a Monks Cross Park", "addr:city": "Yorkshire", "addr:state": "Yorkshire and Humber", "addr:postcode": "YO32 9GX", "addr:country": "GB", "name": "River Island YORK MONKS CROSS", "phone": "+44 (0)344 847 2589", "website": "http://www.riverisland.com/how-can-we-help/find-a-store/york-monks-cross", "opening_hours": "Mo-Sa 10:00-18:00; Su 11:00-17:00", "image": "https://www.riverisland.com/Assets/RiverIsland/Core/images/logo.png", "brand": "RIVER ISLAND", "brand:wikidata": "Q2670328", "nsi_id": "riverisland-a754e7"}, "geometry": {"type": "Point", "coordinates": [-1.045361, 53.988522]}},
{"type": "Feature", "id": "gDc6VCsIYlvSxzMAyPu41ZBKj2E=", "properties": {"ref": "https://www.riverisland.com/how-can-we-help/find-a-store/wrexham", "@spider": "riverisland_gb", "shop": "clothes", "addr:street_address": "Unit C4", "addr:city": "Wrexham", "addr:state": "Wales", "addr:postcode": "LL13 8DB", "addr:country": "GB", "name": "River Island WREXHAM", "phone": "+44 (0)344 847 2618", "website": "http://www.riverisland.com/how-can-we-help/find-a-store/wrexham", "opening_hours": "Mo-Fr 09:00-17:30; Sa 09:00-18:00; Su 10:30-16:30", "image": "https://www.riverisland.com/Assets/RiverIsland/Core/images/logo.png", "brand": "RIVER ISLAND", "brand:wikidata": "Q2670328", "nsi_id": "riverisland-a754e7"}, "geometry": {"type": "Point", "coordinates": [-2.994447, 53.046064]}},
{"type": "Feature", "id": "xPfUTGxbnOoEW2ZuhVQSjR9_t1I=", "properties": {"ref": "https://www.riverisland.com/how-can-we-help/find-a-store/worthing", "@spider": "riverisland_gb", "shop": "clothes", "addr:street_address": "73-79 Montague Street", "addr:city": "Sussex", "addr:state": "South East", "addr:postcode": "BN11 3BN", "addr:country": "GB", "name": "River Island WORTHING", "phone": "+44 (0)344 847 2585", "website": "http://www.riverisland.com/how-can-we-help/find-a-store/worthing", "opening_hours": "Mo-Th 09:00-17:30; Fr-Sa 09:00-18:00; Su 11:00-17:00", "image": "https://www.riverisland.com/Assets/RiverIsland/Core/images/logo.png", "brand": "RIVER ISLAND", "brand:wikidata": "Q2670328", "nsi_id": "riverisland-a754e7"}, "geometry": {"type": "Point", "coordinates": [-0.37325, 50.810103]}},
{"type": "Feature", "id": "oDfJtXyg_OXTUiYBZETRtgbFsi8=", "properties": {"ref": "https://www.riverisland.com/how-can-we-help/find-a-store/workington", "@spider": "riverisland_gb", "shop": "clothes", "addr:street_address": "Unit S18", "addr:city": "Cumbria", "addr:state": "North West", "addr:postcode": "CA14 3DU", "addr:country": "GB", "name": "River Island WORKINGTON", "phone": "+44 (0)344 847 2584", "website": "http://www.riverisland.com/how-can-we-help/find-a-store/workington", "opening_hours": "Mo-Sa 09:00-17:30; Su 11:00-16:00", "image": "https://www.riverisland.com/Assets/RiverIsland/Core/images/logo.png", "brand": "RIVER ISLAND", "brand:wikidata": "Q2670328", "nsi_id": "riverisland-a754e7"}, "geometry": {"type": "Point", "coordinates": [-3.544578, 54.643]}},
{"type": "Feature", "id": "0m5mJA-rj_IyDVt_66QDE3WjPkc=", "properties": {"ref": "https://www.riverisland.com/how-can-we-help/find-a-store/worcester", "@spider": "riverisland_gb", "shop": "clothes", "addr:street_address": "35-36 High Street", "addr:city": "Worcestershire", "addr:state": "West Midlands", "addr:postcode": "WR1 2QL", "addr:country": "GB", "name": "River Island WORCESTER", "phone": "+44 (0)344 847 2583", "website": "http://www.riverisland.com/how-can-we-help/find-a-store/worcester", "opening_hours": "Mo-Fr 09:00-17:30; Sa 09:00-18:00; Su 10:30-16:30", "image": "https://www.riverisland.com/Assets/RiverIsland/Core/images/logo.png", "brand": "RIVER ISLAND", "brand:wikidata": "Q2670328", "nsi_id": "riverisland-a754e7"}, "geometry": {"type": "Point", "coordinates": [-2.220267, 52.191119]}},
{"type": "Feature", "id": "9nDDo3ygzHcmUzg_20vNEKcH8ck=", "properties": {"ref": "https://www.riverisland.com/how-can-we-help/find-a-store/wood-green", "@spider": "riverisland_gb", "shop": "clothes", "addr:street_address": "88-96 High Road", "addr:city": "London", "addr:state": "London", "addr:postcode": "N22 6HE", "addr:country": "GB", "name": "River Island WOOD GREEN", "phone": "+44 (0)344 847 2582", "website": "http://www.riverisland.com/how-can-we-help/find-a-store/wood-green", "opening_hours": "Mo-Fr 09:30-18:00; Sa 09:00-18:00; Su 11:00-17:00", "image": "https://www.riverisland.com/Assets/RiverIsland/Core/images/logo.png", "brand": "RIVER ISLAND", "brand:wikidata": "Q2670328", "nsi_id": "riverisland-a754e7"}, "geometry": {"type": "Point", "coordinates": [-0.108461, 51.594267]}},
{"type": "Feature", "id": "yiYxa8TR7DO4_IZGPBR3FUUPbQ8=", "properties": {"ref": "https://www.riverisland.com/how-can-we-help/find-a-store/wolverhampton", "@spider": "riverisland_gb", "shop": "clothes", "addr:street_address": "25-26 Dudley Street", "addr:city": "West Midlands", "addr:state": "West Midlands", "addr:postcode": "WV1 3EY", "addr:country": "GB", "name": "River Island WOLVERHAMPTON", "phone": "+44 (0)344 847 2581", "website": "http://www.riverisland.com/how-can-we-help/find-a-store/wolverhampton", "opening_hours": "Mo-Sa 09:00-17:30; Su 10:30-16:30", "image": "https://www.riverisland.com/Assets/RiverIsland/Core/images/logo.png", "brand": "RIVER ISLAND", "brand:wikidata": "Q2670328", "nsi_id": "riverisland-a754e7"}, "geometry": {"type": "Point", "coordinates": [-2.126628, 52.584967]}},
{"type": "Feature", "id": "taLoRuAa7iR7esAOfkknCsL4Ctc=", "properties": {"ref": "https://www.riverisland.com/how-can-we-help/find-a-store/windsor", "@spider": "riverisland_gb", "shop": "clothes", "addr:street_address": "114-115 Peascod Street", "addr:city": "Berkshire", "addr:state": "South East", "addr:postcode": "SL4 1DN", "addr:country": "GB", "name": "River Island WINDSOR", "phone": "+44 (0)344 847 2579", "website": "http://www.riverisland.com/how-can-we-help/find-a-store/windsor", "opening_hours": "Mo-Fr 09:00-17:30; Sa 09:00-18:00; Su 11:00-17:00", "image": "https://www.riverisland.com/Assets/RiverIsland/Core/images/logo.png", "brand": "RIVER ISLAND", "brand:wikidata": "Q2670328", "nsi_id": "riverisland-a754e7"}, "geometry": {"type": "Point", "coordinates": [-0.609281, 51.481794]}},
{"type": "Feature", "id": "SoBVFq6HuP42nKyhuhfk3M51GzM=", "properties": {"ref": "https://www.riverisland.com/how-can-we-help/find-a-store/wigan", "@spider": "riverisland_gb", "shop": "clothes", "addr:street_address": "Unit 4-5", "addr:city": "Lancashire", "addr:state": "North West", "addr:postcode": "WN1 1BH", "addr:country": "GB", "name": "River Island WIGAN", "phone": "+44 (0)344 847 2576", "website": "http://www.riverisland.com/how-can-we-help/find-a-store/wigan", "opening_hours": "Mo-Sa 09:00-17:30; Su 10:30-16:30", "image": "https://www.riverisland.com/Assets/RiverIsland/Core/images/logo.png", "brand": "RIVER ISLAND", "brand:wikidata": "Q2670328", "nsi_id": "riverisland-a754e7"}, "geometry": {"type": "Point", "coordinates": [-2.628683, 53.547731]}},
{"type": "Feature", "id": "KN6behqHSkDxYzMXZxlk4jH6RxE=", "properties": {"ref": "https://www.riverisland.com/how-can-we-help/find-a-store/widnes", "@spider": "riverisland_gb", "shop": "clothes", "addr:street_address": "Unit 4 Widnes Shopping Park", "addr:city": "Cheshire", "addr:state": "North West", "addr:postcode": "WA8 7TN", "addr:country": "GB", "name": "River Island WIDNES", "phone": "+44 (0)344 847 2631", "website": "http://www.riverisland.com/how-can-we-help/find-a-store/widnes", "opening_hours": "Mo-We 09:00-19:00; Th-Fr 09:00-20:00; Sa 09:00-19:00; Su 10:30-16:30", "image": "https://www.riverisland.com/Assets/RiverIsland/Core/images/logo.png", "brand": "RIVER ISLAND", "brand:wikidata": "Q2670328", "nsi_id": "riverisland-a754e7"}, "geometry": {"type": "Point", "coordinates": [-2.725533, 53.366695]}},
{"type": "Feature", "id": "1VEVrzLsmqpusjcLKKoCgp8dZGc=", "properties": {"ref": "https://www.riverisland.com/how-can-we-help/find-a-store/white-city-westfield", "@spider": "riverisland_gb", "shop": "clothes", "addr:street_address": "Unit Su3223/2223", "addr:city": "London", "addr:state": "London", "addr:postcode": "W12 7GF", "addr:country": "GB", "name": "River Island WHITE CITY WESTFIELD", "phone": "+44 (0)344 847 2619", "website": "http://www.riverisland.com/how-can-we-help/find-a-store/white-city-westfield", "opening_hours": "Mo-Sa 10:00-21:00; Su 11:30-18:00", "image": "https://www.riverisland.com/Assets/RiverIsland/Core/images/logo.png", "brand": "RIVER ISLAND", "brand:wikidata": "Q2670328", "nsi_id": "riverisland-a754e7"}, "geometry": {"type": "Point", "coordinates": [-0.220069, 51.509956]}},
{"type": "Feature", "id": "tQ7H030NFZVvQVlTZaXIWEQ_HeI=", "properties": {"ref": "https://www.riverisland.com/how-can-we-help/find-a-store/west-bromwich", "@spider": "riverisland_gb", "shop": "clothes", "addr:street_address": "Unit Su07", "addr:city": "West Midlands", "addr:state": "West Midlands", "addr:postcode": "B70 7PP", "addr:country": "GB", "name": "River Island WEST BROMWICH", "phone": "+44 (0)344 334 0537", "website": "http://www.riverisland.com/how-can-we-help/find-a-store/west-bromwich", "opening_hours": "Mo-We 09:00-19:00; Th 09:00-20:00; Fr-Sa 09:00-19:00; Su 11:00-17:00", "image": "https://www.riverisland.com/Assets/RiverIsland/Core/images/logo.png", "brand": "RIVER ISLAND", "brand:wikidata": "Q2670328", "nsi_id": "riverisland-a754e7"}, "geometry": {"type": "Point", "coordinates": [-1.990646, 52.520701]}},
{"type": "Feature", "id": "Y25FcTnhPwyGx9MArFMpDzUWF8s=", "properties": {"ref": "https://www.riverisland.com/how-can-we-help/find-a-store/watford", "@spider": "riverisland_gb", "shop": "clothes", "addr:street_address": "Unit 10b-11c", "addr:city": "Hertfordshire", "addr:state": "East", "addr:postcode": "WD17 2TA", "addr:country": "GB", "name": "River Island WATFORD", "phone": "+44 (0)344 847 2574", "website": "http://www.riverisland.com/how-can-we-help/find-a-store/watford", "opening_hours": "Mo-Sa 09:00-18:00; Su 11:00-17:00", "image": "https://www.riverisland.com/Assets/RiverIsland/Core/images/logo.png", "brand": "RIVER ISLAND", "brand:wikidata": "Q2670328", "nsi_id": "riverisland-a754e7"}, "geometry": {"type": "Point", "coordinates": [-0.392856, 51.654553]}},
{"type": "Feature", "id": "wvVhnS-T0c_0O5B2ovwYpF-MbiA=", "properties": {"ref": "https://www.riverisland.com/how-can-we-help/find-a-store/waterford", "@spider": "riverisland_gb", "shop": "clothes", "addr:street_address": "Unit 24-25 City Square Shop Ctr", "addr:city": "Waterford", "addr:postcode": "X91 PH67", "addr:country": "IE", "name": "River Island WATERFORD", "phone": "+353 (0)513 65977", "website": "http://www.riverisland.com/how-can-we-help/find-a-store/waterford", "opening_hours": "Mo-We 09:30-18:00; Th-Fr 09:30-21:00; Sa 09:30-18:00; Su 12:00-18:00", "image": "https://www.riverisland.com/Assets/RiverIsland/Core/images/logo.png", "brand": "RIVER ISLAND", "brand:wikidata": "Q2670328", "nsi_id": "riverisland-a754e7"}, "geometry": {"type": "Point", "coordinates": [-7.109894, 52.255719]}},
{"type": "Feature", "id": "4QYF49cOg8uK8fs2zE37uCNdD7w=", "properties": {"ref": "https://www.riverisland.com/how-can-we-help/find-a-store/washington-galleries", "@spider": "riverisland_gb", "shop": "clothes", "addr:street_address": "Unit 7, Galleries Retail Park", "addr:city": "Tyne And Wear", "addr:postcode": "NE38 7RW", "addr:country": "GB", "name": "River Island WASHINGTON GALLERIES", "phone": "+44 (0)330 311 7805", "website": "http://www.riverisland.com/how-can-we-help/find-a-store/washington-galleries", "opening_hours": "Mo-Sa 09:00-18:00; Su 10:30-16:30", "image": "https://www.riverisland.com/Assets/RiverIsland/Core/images/logo.png", "brand": "RIVER ISLAND", "brand:wikidata": "Q2670328", "nsi_id": "riverisland-a754e7"}, "geometry": {"type": "Point", "coordinates": [-1.532765, 54.900176]}},
{"type": "Feature", "id": "JrOI1jqV9tLVzFxVU-bk3U1I7QI=", "properties": {"ref": "https://www.riverisland.com/how-can-we-help/find-a-store/warrington", "@spider": "riverisland_gb", "shop": "clothes", "addr:street_address": "Unit Su01", "addr:city": "Cheshire", "addr:state": "North West", "addr:postcode": "WA1 1QE", "addr:country": "GB", "name": "River Island WARRINGTON", "phone": "+44 (0)344 847 2573", "website": "http://www.riverisland.com/how-can-we-help/find-a-store/warrington", "opening_hours": "Mo-We 09:00-17:30; Th 09:00-20:00; Fr 09:00-17:30; Sa 09:00-18:00; Su 11:00-17:00", "image": "https://www.riverisland.com/Assets/RiverIsland/Core/images/logo.png", "brand": "RIVER ISLAND", "brand:wikidata": "Q2670328", "nsi_id": "riverisland-a754e7"}, "geometry": {"type": "Point", "coordinates": [-2.595072, 53.389922]}},
{"type": "Feature", "id": "5r6hN_7JuUbahOzhFSNMk39Y9NA=", "properties": {"ref": "https://www.riverisland.com/how-can-we-help/find-a-store/wandsworth", "@spider": "riverisland_gb", "shop": "clothes", "addr:street_address": "Unit 91/92", "addr:city": "London", "addr:state": "London", "addr:postcode": "SW18 4TG", "addr:country": "GB", "name": "River Island WANDSWORTH", "phone": "+44 (0)344 847 2572", "website": "http://www.riverisland.com/how-can-we-help/find-a-store/wandsworth", "opening_hours": "Mo-Th 09:30-18:00; Fr-Sa 09:30-18:30; Su 11:00-17:00", "image": "https://www.riverisland.com/Assets/RiverIsland/Core/images/logo.png", "brand": "RIVER ISLAND", "brand:wikidata": "Q2670328", "nsi_id": "riverisland-a754e7"}, "geometry": {"type": "Point", "coordinates": [-0.1939, 51.455464]}},
{"type": "Feature", "id": "vbQ5XyaORkwHNayblAW7fAqJDbI=", "properties": {"ref": "https://www.riverisland.com/how-can-we-help/find-a-store/walthamstow", "@spider": "riverisland_gb", "shop": "clothes", "addr:street_address": "24 Selbourne Walk", "addr:city": "London", "addr:state": "London", "addr:postcode": "E17 7JR", "addr:country": "GB", "name": "River Island WALTHAMSTOW", "phone": "+44 (0)344 847 2570", "website": "http://www.riverisland.com/how-can-we-help/find-a-store/walthamstow", "opening_hours": "Mo-Fr 09:30-18:00; Sa 09:00-18:00; Su 11:00-17:00", "image": "https://www.riverisland.com/Assets/RiverIsland/Core/images/logo.png", "brand": "RIVER ISLAND", "brand:wikidata": "Q2670328", "nsi_id": "riverisland-a754e7"}, "geometry": {"type": "Point", "coordinates": [-0.023436, 51.583967]}},
{"type": "Feature", "id": "cOM75pmk-zqeacXS_LxX73qgIX8=", "properties": {"ref": "https://www.riverisland.com/how-can-we-help/find-a-store/walsall", "@spider": "riverisland_gb", "shop": "clothes", "addr:street_address": "Unit 13", "addr:city": "West Midlands", "addr:state": "West Midlands", "addr:postcode": "WS2 8LL", "addr:country": "GB", "name": "River Island WALSALL", "phone": "+44 (0)344 847 2569", "website": "http://www.riverisland.com/how-can-we-help/find-a-store/walsall", "opening_hours": "Mo-Sa 09:00-18:00; Su 10:30-16:30", "image": "https://www.riverisland.com/Assets/RiverIsland/Core/images/logo.png", "brand": "RIVER ISLAND", "brand:wikidata": "Q2670328", "nsi_id": "riverisland-a754e7"}, "geometry": {"type": "Point", "coordinates": [-1.983269, 52.584561]}},
{"type": "Feature", "id": "305sRP4E_hFLW0akbncb29YAEuE=", "properties": {"ref": "https://www.riverisland.com/how-can-we-help/find-a-store/wakefield", "@spider": "riverisland_gb", "shop": "clothes", "addr:street_address": "Unit G28", "addr:city": "West Yorkshire", "addr:state": "Yorkshire and Humber", "addr:postcode": "WF1 1QS", "addr:country": "GB", "name": "River Island WAKEFIELD", "phone": "+44 (0)344 847 2635", "website": "http://www.riverisland.com/how-can-we-help/find-a-store/wakefield", "opening_hours": "Mo-Sa 09:00-17:30; Su 10:30-16:30", "image": "https://www.riverisland.com/Assets/RiverIsland/Core/images/logo.png", "brand": "RIVER ISLAND", "brand:wikidata": "Q2670328", "nsi_id": "riverisland-a754e7"}, "geometry": {"type": "Point", "coordinates": [-1.496797, 53.681861]}},
{"type": "Feature", "id": "QgfNmkI8Kkh-G2H52JIqQzqNG7o=", "properties": {"ref": "https://www.riverisland.com/how-can-we-help/find-a-store/uxbridge", "@spider": "riverisland_gb", "shop": "clothes", "addr:street_address": "119-120 Intu Uxbridge", "addr:city": "Middlesex", "addr:state": "South East", "addr:postcode": "UB8 1GA", "addr:country": "GB", "name": "River Island UXBRIDGE", "phone": "+44 (0)344 847 2567", "website": "http://www.riverisland.com/how-can-we-help/find-a-store/uxbridge", "opening_hours": "Mo-Sa 09:00-18:00; Su 11:00-17:00", "image": "https://www.riverisland.com/Assets/RiverIsland/Core/images/logo.png", "brand": "RIVER ISLAND", "brand:wikidata": "Q2670328", "nsi_id": "riverisland-a754e7"}, "geometry": {"type": "Point", "coordinates": [-0.476572, 51.54525]}},
{"type": "Feature", "id": "pQ5FO4ep4OR9K7zDDnBLhHxAGuo=", "properties": {"ref": "https://www.riverisland.com/how-can-we-help/find-a-store/torquay", "@spider": "riverisland_gb", "shop": "clothes", "addr:street_address": "42-44 Union Street", "addr:city": "Devon", "addr:state": "South West", "addr:postcode": "TQ2 5PW", "addr:country": "GB", "name": "River Island TORQUAY", "phone": "+44 (0)344 847 2564", "website": "http://www.riverisland.com/how-can-we-help/find-a-store/torquay", "opening_hours": "Mo-Fr 09:00-17:30; Sa 09:00-18:00; Su 10:30-16:30", "image": "https://www.riverisland.com/Assets/RiverIsland/Core/images/logo.png", "brand": "RIVER ISLAND", "brand:wikidata": "Q2670328", "nsi_id": "riverisland-a754e7"}, "geometry": {"type": "Point", "coordinates": [-3.528031, 50.465628]}},
{"type": "Feature", "id": "TsSHTkEzj7u_u4z0sYeiJh4XeZI=", "properties": {"ref": "https://www.riverisland.com/how-can-we-help/find-a-store/thurrock", "@spider": "riverisland_gb", "shop": "clothes", "addr:street_address": "Unit 14,15, 15a", "addr:city": "Essex", "addr:state": "East", "addr:postcode": "RM20 2ZP", "addr:country": "GB", "name": "River Island THURROCK", "phone": "+44 (0)344 847 2563", "website": "http://www.riverisland.com/how-can-we-help/find-a-store/thurrock", "opening_hours": "Mo-Fr 10:00-21:00; Sa 09:00-21:00; Su 10:30-17:00", "image": "https://www.riverisland.com/Assets/RiverIsland/Core/images/logo.png", "brand": "RIVER ISLAND", "brand:wikidata": "Q2670328", "nsi_id": "riverisland-a754e7"}, "geometry": {"type": "Point", "coordinates": [0.283961, 51.487508]}},
{"type": "Feature", "id": "oo8ADJ94ymojJTXFQ5doipT3oKQ=", "properties": {"ref": "https://www.riverisland.com/how-can-we-help/find-a-store/thanet", "@spider": "riverisland_gb", "shop": "clothes", "addr:street_address": "Unit 3 Terrace B The Fort", "addr:city": "Kent", "addr:state": "South East", "addr:postcode": "CT10 2BF", "addr:country": "GB", "name": "River Island THANET", "phone": "+44 (0)344 847 2562", "website": "http://www.riverisland.com/how-can-we-help/find-a-store/thanet", "opening_hours": "Mo-Fr 09:00-19:30; Sa 09:00-18:30; Su 10:00-16:00", "image": "https://www.riverisland.com/Assets/RiverIsland/Core/images/logo.png", "brand": "RIVER ISLAND", "brand:wikidata": "Q2670328", "nsi_id": "riverisland-a754e7"}, "geometry": {"type": "Point", "coordinates": [1.392912, 51.359447]}},
{"type": "Feature", "id": "N49UhelCkSsNbD8mzmc4HEZToM0=", "properties": {"ref": "https://www.riverisland.com/how-can-we-help/find-a-store/telford", "@spider": "riverisland_gb", "shop": "clothes", "addr:street_address": "Su16 Telford Shopping Centre", "addr:city": "Shropshire", "addr:state": "West Midlands", "addr:postcode": "TF3 4BW", "addr:country": "GB", "name": "River Island TELFORD", "phone": "+44 (0)344 847 2561", "website": "http://www.riverisland.com/how-can-we-help/find-a-store/telford", "opening_hours": "Mo-We 09:00-18:00; Th 09:00-20:00; Fr-Sa 09:00-18:00; Su 10:30-16:30", "image": "https://www.riverisland.com/Assets/RiverIsland/Core/images/logo.png", "brand": "RIVER ISLAND", "brand:wikidata": "Q2670328", "nsi_id": "riverisland-a754e7"}, "geometry": {"type": "Point", "coordinates": [-2.446807, 52.675469]}},
{"type": "Feature", "id": "Zd3cq49Za1Pc_BY_JFLa5R_Ymfg=", "properties": {"ref": "https://www.riverisland.com/how-can-we-help/find-a-store/taunton", "@spider": "riverisland_gb", "shop": "clothes", "addr:street_address": "56 North Street", "addr:city": "Somerset", "addr:state": "South West", "addr:postcode": "TA1 1LX", "addr:country": "GB", "name": "River Island TAUNTON", "phone": "+44 (0)344 847 2560", "website": "http://www.riverisland.com/how-can-we-help/find-a-store/taunton", "opening_hours": "Mo-Sa 09:00-17:30; Su 10:30-16:30", "image": "https://www.riverisland.com/Assets/RiverIsland/Core/images/logo.png", "brand": "RIVER ISLAND", "brand:wikidata": "Q2670328", "nsi_id": "riverisland-a754e7"}, "geometry": {"type": "Point", "coordinates": [-3.102997, 51.015558]}},
{"type": "Feature", "id": "TIkfnbwIJwryn8K_eSDcwzYQGYg=", "properties": {"ref": "https://www.riverisland.com/how-can-we-help/find-a-store/tamworth", "@spider": "riverisland_gb", "shop": "clothes", "addr:street_address": "Unit E", "addr:city": "Staffordshire", "addr:state": "West Midlands", "addr:postcode": "B78 3JD", "addr:country": "GB", "name": "River Island TAMWORTH", "phone": "+44 (0)344 334 0528", "website": "http://www.riverisland.com/how-can-we-help/find-a-store/tamworth", "opening_hours": "Mo-Fr 09:00-20:00; Sa 09:00-18:00; Su 10:30-16:30", "image": "https://www.riverisland.com/Assets/RiverIsland/Core/images/logo.png", "brand": "RIVER ISLAND", "brand:wikidata": "Q2670328", "nsi_id": "riverisland-a754e7"}, "geometry": {"type": "Point", "coordinates": [-1.700515, 52.626936]}},
{"type": "Feature", "id": "a-f3oH3GFy88rEYyl7l7HVJnDIQ=", "properties": {"ref": "https://www.riverisland.com/how-can-we-help/find-a-store/tallaght", "@spider": "riverisland_gb", "shop": "clothes", "addr:street_address": "239-240 The Square", "addr:city": "County Dublin", "addr:postcode": "D24 HRY1", "addr:country": "IE", "name": "River Island TALLAGHT", "phone": "+353 (0)190 23091", "website": "http://www.riverisland.com/how-can-we-help/find-a-store/tallaght", "opening_hours": "Mo-Tu 09:00-18:00; We-Fr 09:00-21:00; Sa 09:00-18:00; Su 12:00-18:00", "image": "https://www.riverisland.com/Assets/RiverIsland/Core/images/logo.png", "brand": "RIVER ISLAND", "brand:wikidata": "Q2670328", "nsi_id": "riverisland-a754e7"}, "geometry": {"type": "Point", "coordinates": [-6.360511, 53.288508]}},
{"type": "Feature", "id": "pUKkKmeOuYGz2fmqwplP_6f9E1U=", "properties": {"ref": "https://www.riverisland.com/how-can-we-help/find-a-store/swindon", "@spider": "riverisland_gb", "shop": "clothes", "addr:street_address": "Unit D2", "addr:city": "Swindon", "addr:state": "South West", "addr:postcode": "SN25 4AN", "addr:country": "GB", "name": "River Island SWINDON", "phone": "+44 (0)344 847 2559", "website": "http://www.riverisland.com/how-can-we-help/find-a-store/swindon", "opening_hours": "Mo-We 09:00-19:00; Th 09:00-20:00; Fr-Sa 09:00-19:00; Su 10:30-16:30", "image": "https://www.riverisland.com/Assets/RiverIsland/Core/images/logo.png", "brand": "RIVER ISLAND", "brand:wikidata": "Q2670328", "nsi_id": "riverisland-a754e7"}, "geometry": {"type": "Point", "coordinates": [-1.784381, 51.562094]}},
{"type": "Feature", "id": "7I44AiimWO55nmTWYs3iWPmuOdo=", "properties": {"ref": "https://www.riverisland.com/how-can-we-help/find-a-store/swansea-oxford-street", "@spider": "riverisland_gb", "shop": "clothes", "addr:street_address": "4-5 Oxford Street", "addr:city": "West Glamorgan", "addr:state": "Wales", "addr:postcode": "SA1 3AE", "addr:country": "GB", "name": "River Island SWANSEA OXFORD STREET", "phone": "+44 (0)344 847 2557", "website": "http://www.riverisland.com/how-can-we-help/find-a-store/swansea-oxford-street", "opening_hours": "Mo-Fr 09:00-17:30; Sa 09:00-18:00; Su 10:30-16:30", "image": "https://www.riverisland.com/Assets/RiverIsland/Core/images/logo.png", "brand": "RIVER ISLAND", "brand:wikidata": "Q2670328", "nsi_id": "riverisland-a754e7"}, "geometry": {"type": "Point", "coordinates": [-3.945197, 51.619642]}},
{"type": "Feature", "id": "DFMQZdfqc0l2vbyBoYTzn4DmVE0=", "properties": {"ref": "https://www.riverisland.com/how-can-we-help/find-a-store/sutton-coldfield", "@spider": "riverisland_gb", "shop": "clothes", "addr:street_address": "Unit 154 The Parade", "addr:city": "West Midlands", "addr:state": "West Midlands", "addr:postcode": "B72 1PD", "addr:country": "GB", "name": "River Island SUTTON COLDFIELD", "phone": "+44 (0)344 847 2556", "website": "http://www.riverisland.com/how-can-we-help/find-a-store/sutton-coldfield", "opening_hours": "Mo-Sa 09:00-17:30; Su 10:30-16:30", "image": "https://www.riverisland.com/Assets/RiverIsland/Core/images/logo.png", "brand": "RIVER ISLAND", "brand:wikidata": "Q2670328", "nsi_id": "riverisland-a754e7"}, "geometry": {"type": "Point", "coordinates": [-1.824711, 52.561861]}},
{"type": "Feature", "id": "S-KbNWvR6X2IFN_kCAbEZuzOF1A=", "properties": {"ref": "https://www.riverisland.com/how-can-we-help/find-a-store/surrey-quays", "@spider": "riverisland_gb", "shop": "clothes", "addr:street_address": "8-9 Surrey Quays Centre", "addr:city": "London", "addr:state": "London", "addr:postcode": "SE16 7LL", "addr:country": "GB", "name": "River Island SURREY QUAYS", "phone": "+44 (0)344 847 2555", "website": "http://www.riverisland.com/how-can-we-help/find-a-store/surrey-quays", "opening_hours": "Mo-Fr 09:30-18:00; Sa 09:00-18:00; Su 11:00-17:00", "image": "https://www.riverisland.com/Assets/RiverIsland/Core/images/logo.png", "brand": "RIVER ISLAND", "brand:wikidata": "Q2670328", "nsi_id": "riverisland-a754e7"}, "geometry": {"type": "Point", "coordinates": [-0.046769, 51.495303]}},
{"type": "Feature", "id": "Q3bZUUMFuK_JpmvUirEiwkmcFWA=", "properties": {"ref": "https://www.riverisland.com/how-can-we-help/find-a-store/sunderland", "@spider": "riverisland_gb", "shop": "clothes", "addr:street_address": "Unit 40b", "addr:city": "Tyne And Wear", "addr:state": "North East", "addr:postcode": "SR1 3LB", "addr:country": "GB", "name": "River Island SUNDERLAND", "phone": "+44 (0)344 847 2554", "website": "http://www.riverisland.com/how-can-we-help/find-a-store/sunderland", "opening_hours": "Mo-Sa 09:00-17:30; Su 10:00-16:00", "image": "https://www.riverisland.com/Assets/RiverIsland/Core/images/logo.png", "brand": "RIVER ISLAND", "brand:wikidata": "Q2670328", "nsi_id": "riverisland-a754e7"}, "geometry": {"type": "Point", "coordinates": [-1.384394, 54.905764]}},
{"type": "Feature", "id": "AYK2ixnQu0pLHCbFGKLU80KJHSM=", "properties": {"ref": "https://www.riverisland.com/how-can-we-help/find-a-store/stratford", "@spider": "riverisland_gb", "shop": "clothes", "addr:street_address": "227 First Floor The Arcade", "addr:city": "London", "addr:state": "London", "addr:postcode": "E20 1EQ", "addr:country": "GB", "name": "River Island STRATFORD", "phone": "+44 (0)344 334 0523", "website": "http://www.riverisland.com/how-can-we-help/find-a-store/stratford", "opening_hours": "Mo-Fr 10:00-21:00; Sa 09:00-21:00; Su 11:30-18:00", "image": "https://www.riverisland.com/Assets/RiverIsland/Core/images/logo.png", "brand": "RIVER ISLAND", "brand:wikidata": "Q2670328", "nsi_id": "riverisland-a754e7"}, "geometry": {"type": "Point", "coordinates": [-0.005191, 51.54244]}},
{"type": "Feature", "id": "leghSdV3x5_WS8SWBRKgtHVJc60=", "properties": {"ref": "https://www.riverisland.com/how-can-we-help/find-a-store/stoke-festival-park", "@spider": "riverisland_gb", "shop": "clothes", "addr:street_address": "Unit 7a", "addr:city": "Stoke", "addr:postcode": "ST1 5SD", "addr:country": "GB", "name": "River Island STOKE FESTIVAL PARK", "phone": "+44 (0)330 311 7809", "website": "http://www.riverisland.com/how-can-we-help/find-a-store/stoke-festival-park", "opening_hours": "Mo-Fr 09:00-20:00; Sa 09:00-19:00; Su 10:30-16:30", "image": "https://www.riverisland.com/Assets/RiverIsland/Core/images/logo.png", "brand": "RIVER ISLAND", "brand:wikidata": "Q2670328", "nsi_id": "riverisland-a754e7"}, "geometry": {"type": "Point", "coordinates": [-2.189146, 53.032021]}},
{"type": "Feature", "id": "-uNK2EOFvumOhHa3CfLdpHM7IAY=", "properties": {"ref": "https://www.riverisland.com/how-can-we-help/find-a-store/stockton-teesside-park", "@spider": "riverisland_gb", "shop": "clothes", "addr:street_address": "Unit 7b", "addr:city": "Cleveland", "addr:state": "North East", "addr:postcode": "TS17 7BT", "addr:country": "GB", "name": "River Island STOCKTON TEESSIDE PARK", "phone": "+44 (0)344 847 2604", "website": "http://www.riverisland.com/how-can-we-help/find-a-store/stockton-teesside-park", "opening_hours": "Mo-Fr 09:00-20:00; Sa 09:00-19:00; Su 11:00-17:00", "image": "https://www.riverisland.com/Assets/RiverIsland/Core/images/logo.png", "brand": "RIVER ISLAND", "brand:wikidata": "Q2670328", "nsi_id": "riverisland-a754e7"}, "geometry": {"type": "Point", "coordinates": [-1.278768, 54.556336]}},
{"type": "Feature", "id": "oj2B4WcPvA7IyA9wdbK9T46sEzg=", "properties": {"ref": "https://www.riverisland.com/how-can-we-help/find-a-store/stockton-on-tees", "@spider": "riverisland_gb", "shop": "clothes", "addr:street_address": "Unit 37-38", "addr:city": "Cleveland", "addr:state": "North East", "addr:postcode": "TS18 1RG", "addr:country": "GB", "name": "River Island STOCKTON ON TEES", "phone": "+44 (0)344 826 9879", "website": "http://www.riverisland.com/how-can-we-help/find-a-store/stockton-on-tees", "opening_hours": "Mo-Sa 09:00-17:30; Su 11:00-16:00", "image": "https://www.riverisland.com/Assets/RiverIsland/Core/images/logo.png", "brand": "RIVER ISLAND", "brand:wikidata": "Q2670328", "nsi_id": "riverisland-a754e7"}, "geometry": {"type": "Point", "coordinates": [-1.314069, 54.565617]}},
{"type": "Feature", "id": "aBEACgT7ugv1OMJorLkWFEa03Z0=", "properties": {"ref": "https://www.riverisland.com/how-can-we-help/find-a-store/stockport", "@spider": "riverisland_gb", "shop": "clothes", "addr:street_address": "34-36 Merseyway", "addr:city": "Cheshire", "addr:state": "North West", "addr:postcode": "SK1 1QD", "addr:country": "GB", "name": "River Island STOCKPORT", "phone": "+44 (0)344 826 9878", "website": "http://www.riverisland.com/how-can-we-help/find-a-store/stockport", "opening_hours": "Mo-Fr 09:00-17:30; Sa 09:00-18:00; Su 10:30-16:30", "image": "https://www.riverisland.com/Assets/RiverIsland/Core/images/logo.png", "brand": "RIVER ISLAND", "brand:wikidata": "Q2670328", "nsi_id": "riverisland-a754e7"}, "geometry": {"type": "Point", "coordinates": [-2.161219, 53.410658]}},
{"type": "Feature", "id": "9VqqBa9-rkrxcaJvxgMhj_IILRs=", "properties": {"ref": "https://www.riverisland.com/how-can-we-help/find-a-store/stirling", "@spider": "riverisland_gb", "shop": "clothes", "addr:street_address": "Unit 7", "addr:city": "Stirlingshire", "addr:state": "Scotland", "addr:postcode": "FK8 2EA", "addr:country": "GB", "name": "River Island STIRLING", "phone": "+44 (0)344 826 9877", "website": "http://www.riverisland.com/how-can-we-help/find-a-store/stirling", "opening_hours": "Mo-Sa 09:00-17:30; Su 10:00-17:00", "image": "https://www.riverisland.com/Assets/RiverIsland/Core/images/logo.png", "brand": "RIVER ISLAND", "brand:wikidata": "Q2670328", "nsi_id": "riverisland-a754e7"}, "geometry": {"type": "Point", "coordinates": [-3.934033, 56.116969]}},
{"type": "Feature", "id": "J_0NsXbqaq7SegJXImJIfwKk5AU=", "properties": {"ref": "https://www.riverisland.com/how-can-we-help/find-a-store/stevenage", "@spider": "riverisland_gb", "shop": "clothes", "addr:street_address": "19-20 West Gate Centre", "addr:city": "Hertfordshire", "addr:state": "East", "addr:postcode": "SG1 1QR", "addr:country": "GB", "name": "River Island STEVENAGE", "phone": "+44 (0)344 826 9876", "website": "http://www.riverisland.com/how-can-we-help/find-a-store/stevenage", "opening_hours": "Mo-Sa 09:00-17:30; Su 10:00-16:00", "image": "https://www.riverisland.com/Assets/RiverIsland/Core/images/logo.png", "brand": "RIVER ISLAND", "brand:wikidata": "Q2670328", "nsi_id": "riverisland-a754e7"}, "geometry": {"type": "Point", "coordinates": [-0.202358, 51.9029]}},
{"type": "Feature", "id": "WOPE94d_MGMibC8uSc14B8vShig=", "properties": {"ref": "https://www.riverisland.com/how-can-we-help/find-a-store/staines", "@spider": "riverisland_gb", "shop": "clothes", "addr:street_address": "Unit 11-12", "addr:city": "Middlesex", "addr:state": "South East", "addr:postcode": "TW18 4QB", "addr:country": "GB", "name": "River Island STAINES", "phone": "+44 (0)344 826 9875", "website": "http://www.riverisland.com/how-can-we-help/find-a-store/staines", "opening_hours": "Mo-Fr 09:00-17:30; Sa 09:00-18:00; Su 10:30-16:30", "image": "https://www.riverisland.com/Assets/RiverIsland/Core/images/logo.png", "brand": "RIVER ISLAND", "brand:wikidata": "Q2670328", "nsi_id": "riverisland-a754e7"}, "geometry": {"type": "Point", "coordinates": [-0.509328, 51.433325]}},
{"type": "Feature", "id": "YlBR5ClCV8OXbtfcagAEJaA2xo0=", "properties": {"ref": "https://www.riverisland.com/how-can-we-help/find-a-store/stafford-riverside", "@spider": "riverisland_gb", "shop": "clothes", "addr:street_address": "Unit 9", "addr:city": "Stafford", "addr:state": "West Midlands", "addr:postcode": "ST16 3AL", "addr:country": "GB", "name": "River Island STAFFORD RIVERSIDE", "phone": "+44 (0)344 826 9874", "website": "http://www.riverisland.com/how-can-we-help/find-a-store/stafford-riverside", "opening_hours": "Mo-Sa 09:00-18:00; Su 10:30-16:30", "image": "https://www.riverisland.com/Assets/RiverIsland/Core/images/logo.png", "brand": "RIVER ISLAND", "brand:wikidata": "Q2670328", "nsi_id": "riverisland-a754e7"}, "geometry": {"type": "Point", "coordinates": [-2.117703, 52.807219]}},
{"type": "Feature", "id": "8aViS44eDHkMH7vdX6OLCJhejDg=", "properties": {"ref": "https://www.riverisland.com/how-can-we-help/find-a-store/st-helens", "@spider": "riverisland_gb", "shop": "clothes", "addr:street_address": "Unit 11-13 La Grange Arcade", "addr:city": "Merseyside", "addr:state": "North West", "addr:postcode": "WA10 1AR", "addr:country": "GB", "name": "River Island ST HELENS", "phone": "+44 (0)344 826 9873", "website": "http://www.riverisland.com/how-can-we-help/find-a-store/st-helens", "opening_hours": "Mo-Sa 09:00-17:30; Su 10:00-16:00", "image": "https://www.riverisland.com/Assets/RiverIsland/Core/images/logo.png", "brand": "RIVER ISLAND", "brand:wikidata": "Q2670328", "nsi_id": "riverisland-a754e7"}, "geometry": {"type": "Point", "coordinates": [-2.735036, 53.451519]}},
{"type": "Feature", "id": "dtM1yGWbHubr3v0I6mcM0G5BpY4=", "properties": {"ref": "https://www.riverisland.com/how-can-we-help/find-a-store/southport", "@spider": "riverisland_gb", "shop": "clothes", "addr:street_address": "Unit 1", "addr:city": "Merseyside", "addr:state": "North West", "addr:postcode": "PR8 1AL", "addr:country": "GB", "name": "River Island SOUTHPORT", "phone": "+44 (0)344 826 9871", "website": "http://www.riverisland.com/how-can-we-help/find-a-store/southport", "opening_hours": "Mo-Sa 09:00-17:30; Su 10:30-16:30", "image": "https://www.riverisland.com/Assets/RiverIsland/Core/images/logo.png", "brand": "RIVER ISLAND", "brand:wikidata": "Q2670328", "nsi_id": "riverisland-a754e7"}, "geometry": {"type": "Point", "coordinates": [-3.003469, 53.647508]}},
{"type": "Feature", "id": "CkVJYDt5yTkjNzoLTTMB7SjEIg8=", "properties": {"ref": "https://www.riverisland.com/how-can-we-help/find-a-store/southend", "@spider": "riverisland_gb", "shop": "clothes", "addr:street_address": "Station Approach", "addr:city": "Essex", "addr:state": "East", "addr:postcode": "SS1 1LH", "addr:country": "GB", "name": "River Island SOUTHEND", "phone": "+44 (0)344 826 9870", "website": "http://www.riverisland.com/how-can-we-help/find-a-store/southend", "opening_hours": "Mo-Fr 09:00-17:30; Sa 09:00-18:00; Su 10:00-16:30", "image": "https://www.riverisland.com/Assets/RiverIsland/Core/images/logo.png", "brand": "RIVER ISLAND", "brand:wikidata": "Q2670328", "nsi_id": "riverisland-a754e7"}, "geometry": {"type": "Point", "coordinates": [0.712914, 51.537942]}},
{"type": "Feature", "id": "P3X6X5dRkd1ZEQVuk3GBIIQPCE0=", "properties": {"ref": "https://www.riverisland.com/how-can-we-help/find-a-store/southampton", "@spider": "riverisland_gb", "shop": "clothes", "addr:street_address": "56-58", "addr:city": "Hampshire", "addr:state": "South East", "addr:postcode": "SO14 7DS", "addr:country": "GB", "name": "River Island SOUTHAMPTON", "phone": "+44 (0)344 826 9869", "website": "http://www.riverisland.com/how-can-we-help/find-a-store/southampton", "opening_hours": "Mo-Sa 09:00-18:00; Su 11:00-17:00", "image": "https://www.riverisland.com/Assets/RiverIsland/Core/images/logo.png", "brand": "RIVER ISLAND", "brand:wikidata": "Q2670328", "nsi_id": "riverisland-a754e7"}, "geometry": {"type": "Point", "coordinates": [-1.404196, 50.90466]}},
{"type": "Feature", "id": "iOKMoTKZrTzS80Of9B9NFu1GgJw=", "properties": {"ref": "https://www.riverisland.com/how-can-we-help/find-a-store/south-shields", "@spider": "riverisland_gb", "shop": "clothes", "addr:street_address": "Unit E Waterloo Square", "addr:city": "Tyne And Wear", "addr:state": "North East", "addr:postcode": "NE33 1AX", "addr:country": "GB", "name": "River Island SOUTH SHIELDS", "phone": "+44 (0)344 826 9868", "website": "http://www.riverisland.com/how-can-we-help/find-a-store/south-shields", "opening_hours": "Mo-Sa 09:00-17:30; Su 10:30-16:30", "image": "https://www.riverisland.com/Assets/RiverIsland/Core/images/logo.png", "brand": "RIVER ISLAND", "brand:wikidata": "Q2670328", "nsi_id": "riverisland-a754e7"}, "geometry": {"type": "Point", "coordinates": [-1.434008, 54.997072]}},
{"type": "Feature", "id": "2aYYRVZHea1X8ViKgfE1jk9QO1o=", "properties": {"ref": "https://www.riverisland.com/how-can-we-help/find-a-store/solihull", "@spider": "riverisland_gb", "shop": "clothes", "addr:street_address": "Unit 11  7 Crescent Arcade", "addr:city": "West Midlands", "addr:state": "West Midlands", "addr:postcode": "B91 3GZ", "addr:country": "GB", "name": "River Island SOLIHULL", "phone": "+44 (0)344 826 9867", "website": "http://www.riverisland.com/how-can-we-help/find-a-store/solihull", "opening_hours": "Mo-We 09:30-18:00; Th 09:30-20:00; Fr 09:30-18:00; Sa 09:00-18:00; Su 11:00-17:00", "image": "https://www.riverisland.com/Assets/RiverIsland/Core/images/logo.png", "brand": "RIVER ISLAND", "brand:wikidata": "Q2670328", "nsi_id": "riverisland-a754e7"}, "geometry": {"type": "Point", "coordinates": [-1.778808, 52.411811]}},
{"type": "Feature", "id": "Xc35kAtFlHi4B79vFiUDGLxlcnM=", "properties": {"ref": "https://www.riverisland.com/how-can-we-help/find-a-store/sligo", "@spider": "riverisland_gb", "shop": "clothes", "addr:street_address": "Unit 5-6", "addr:city": "County Sligo", "addr:postcode": "F91 YP49", "addr:country": "IE", "name": "River Island SLIGO", "phone": "+353 (0)719 104 984", "website": "http://www.riverisland.com/how-can-we-help/find-a-store/sligo", "opening_hours": "Mo-Th 09:30-18:30; Fr 09:30-19:00; Sa 09:30-18:30; Su 12:00-18:00", "image": "https://www.riverisland.com/Assets/RiverIsland/Core/images/logo.png", "brand": "RIVER ISLAND", "brand:wikidata": "Q2670328", "nsi_id": "riverisland-a754e7"}, "geometry": {"type": "Point", "coordinates": [-8.478125, 54.272942]}},
{"type": "Feature", "id": "FWQG1VzCWzY76NtDw39DUcl2v24=", "properties": {"ref": "https://www.riverisland.com/how-can-we-help/find-a-store/sheffield-the-moor", "@spider": "riverisland_gb", "shop": "clothes", "addr:street_address": "Unit 15", "addr:postcode": "S1 4PF", "addr:country": "GB", "name": "River Island SHEFFIELD THE MOOR", "phone": "+0333 (0)22 5880", "website": "http://www.riverisland.com/how-can-we-help/find-a-store/sheffield-the-moor", "opening_hours": "Mo-Sa 09:00-17:30; Su 10:30-16:30", "image": "https://www.riverisland.com/Assets/RiverIsland/Core/images/logo.png", "brand": "RIVER ISLAND", "brand:wikidata": "Q2670328", "nsi_id": "riverisland-a754e7"}, "geometry": {"type": "Point", "coordinates": [-1.471889, 53.377258]}},
{"type": "Feature", "id": "BfCClBkXy1sS_XTvnMa-5srMEbI=", "properties": {"ref": "https://www.riverisland.com/how-can-we-help/find-a-store/sheffield-meadowhall", "@spider": "riverisland_gb", "shop": "clothes", "addr:street_address": "Unit Msu 5a Upper Mall", "addr:city": "South Yorkshire", "addr:state": "Yorkshire and Humber", "addr:postcode": "S9 1EN", "addr:country": "GB", "name": "River Island SHEFFIELD MEADOWHALL", "phone": "+44 (0)344 395 1012", "website": "http://www.riverisland.com/how-can-we-help/find-a-store/sheffield-meadowhall", "opening_hours": "Mo-Fr 09:00-22:00; Sa 09:00-20:00; Su 11:00-17:00", "image": "https://www.riverisland.com/Assets/RiverIsland/Core/images/logo.png", "brand": "RIVER ISLAND", "brand:wikidata": "Q2670328", "nsi_id": "riverisland-a754e7"}, "geometry": {"type": "Point", "coordinates": [-1.412456, 53.413028]}},
{"type": "Feature", "id": "mnP2Wjwb19OTrqZRmaINS2Zezto=", "properties": {"ref": "https://www.riverisland.com/how-can-we-help/find-a-store/rushden-lakes", "@spider": "riverisland_gb", "shop": "clothes", "addr:street_address": "Unit C3, Northwalk", "addr:city": "Northamptonshire", "addr:postcode": "NN10 6FG", "addr:country": "GB", "name": "River Island RUSHDEN LAKES", "phone": "+44 (0)330 311 7804", "website": "http://www.riverisland.com/how-can-we-help/find-a-store/rushden-lakes", "opening_hours": "Mo-Fr 09:30-20:00; Sa 09:00-19:00; Su 11:00-17:00", "image": "https://www.riverisland.com/Assets/RiverIsland/Core/images/logo.png", "brand": "RIVER ISLAND", "brand:wikidata": "Q2670328", "nsi_id": "riverisland-a754e7"}, "geometry": {"type": "Point", "coordinates": [-0.944575, 52.285773]}},
{"type": "Feature", "id": "wGOjYjx7NjubMVXcJoEYcOR9-iE=", "properties": {"ref": "https://www.riverisland.com/how-can-we-help/find-a-store/rugby", "@spider": "riverisland_gb", "shop": "clothes", "addr:street_address": "Unit 5", "addr:city": "Rugby", "addr:postcode": "CV21 1SR", "addr:country": "GB", "name": "River Island RUGBY", "phone": "+44 (0)344 334 0538", "website": "http://www.riverisland.com/how-can-we-help/find-a-store/rugby", "opening_hours": "Mo-We 09:00-18:00; Th-Fr 09:00-19:00; Sa 09:00-18:00; Su 10:30-16:30", "image": "https://www.riverisland.com/Assets/RiverIsland/Core/images/logo.png", "brand": "RIVER ISLAND", "brand:wikidata": "Q2670328", "nsi_id": "riverisland-a754e7"}, "geometry": {"type": "Point", "coordinates": [-1.258491, 52.388744]}},
{"type": "Feature", "id": "wBMGWFuNb__ZeCsGVjSxalrDFIs=", "properties": {"ref": "https://www.riverisland.com/how-can-we-help/find-a-store/rotherham", "@spider": "riverisland_gb", "shop": "clothes", "addr:street_address": "Unit 4", "addr:city": "South Yorkshire", "addr:state": "Yorkshire and Humber", "addr:postcode": "S60 1TG", "addr:country": "GB", "name": "River Island ROTHERHAM", "phone": "+44 (0)344 847 2599", "website": "http://www.riverisland.com/how-can-we-help/find-a-store/rotherham", "opening_hours": "Mo-We 10:00-18:00; Th-Fr 10:00-19:00; Sa 10:00-18:00; Su 10:00-16:00", "image": "https://www.riverisland.com/Assets/RiverIsland/Core/images/logo.png", "brand": "RIVER ISLAND", "brand:wikidata": "Q2670328", "nsi_id": "riverisland-a754e7"}, "geometry": {"type": "Point", "coordinates": [-1.344208, 53.4435]}},
{"type": "Feature", "id": "HwTjf9D2aJaKy5P_ZQfcCZOZW1Y=", "properties": {"ref": "https://www.riverisland.com/how-can-we-help/find-a-store/romford", "@spider": "riverisland_gb", "shop": "clothes", "addr:street_address": "Unit B", "addr:city": "Essex", "addr:state": "East", "addr:postcode": "RM1 3RL", "addr:country": "GB", "name": "River Island ROMFORD", "phone": "+44 (0)344 847 2627", "website": "http://www.riverisland.com/how-can-we-help/find-a-store/romford", "opening_hours": "Mo-We 09:00-18:00; Th 09:00-19:00; Fr-Sa 09:00-18:00; Su 10:30-17:00", "image": "https://www.riverisland.com/Assets/RiverIsland/Core/images/logo.png", "brand": "RIVER ISLAND", "brand:wikidata": "Q2670328", "nsi_id": "riverisland-a754e7"}, "geometry": {"type": "Point", "coordinates": [0.183824, 51.578152]}},
{"type": "Feature", "id": "gfHZCpTTFg_JzMQO3me4U1y3cWA=", "properties": {"ref": "https://www.riverisland.com/how-can-we-help/find-a-store/rochdale", "@spider": "riverisland_gb", "shop": "clothes", "addr:street_address": "Unit 18", "addr:city": "Lancashire", "addr:state": "North West", "addr:postcode": "OL16 1BE", "addr:country": "GB", "name": "River Island ROCHDALE", "phone": "+44 (0)344 826 9861", "website": "http://www.riverisland.com/how-can-we-help/find-a-store/rochdale", "opening_hours": "Mo-Sa 09:00-17:30; Su 10:30-16:30", "image": "https://www.riverisland.com/Assets/RiverIsland/Core/images/logo.png", "brand": "RIVER ISLAND", "brand:wikidata": "Q2670328", "nsi_id": "riverisland-a754e7"}, "geometry": {"type": "Point", "coordinates": [-2.155578, 53.617809]}},
{"type": "Feature", "id": "2mPvd_NGHVGvP8jruKX0BFnx9OI=", "properties": {"ref": "https://www.riverisland.com/how-can-we-help/find-a-store/reading", "@spider": "riverisland_gb", "shop": "clothes", "addr:street_address": "Unit 11", "addr:city": "Berkshire", "addr:state": "South East", "addr:postcode": "RG1 2AG", "addr:country": "GB", "name": "River Island READING", "phone": "+44 (0)344 826 9859", "website": "http://www.riverisland.com/how-can-we-help/find-a-store/reading", "opening_hours": "Mo 10:00-18:00; Tu-Fr 09:30-20:00; Sa 09:00-19:00; Su 11:00-17:00", "image": "https://www.riverisland.com/Assets/RiverIsland/Core/images/logo.png", "brand": "RIVER ISLAND", "brand:wikidata": "Q2670328", "nsi_id": "riverisland-a754e7"}, "geometry": {"type": "Point", "coordinates": [-0.974406, 51.455653]}},
{"type": "Feature", "id": "XFcotwNuM6HuxKWeJyiDLDWk7d0=", "properties": {"ref": "https://www.riverisland.com/how-can-we-help/find-a-store/prestatyn", "@spider": "riverisland_gb", "shop": "clothes", "addr:street_address": "Prestatyn Shopping Park", "addr:city": "Clwydd", "addr:state": "Wales", "addr:postcode": "LL19 9LR", "addr:country": "GB", "name": "River Island PRESTATYN", "phone": "+44 (0)344 334 0534", "website": "http://www.riverisland.com/how-can-we-help/find-a-store/prestatyn", "opening_hours": "Mo-We 09:00-19:00; Th-Fr 09:00-20:00; Sa 09:00-19:00; Su 10:00-16:00", "image": "https://www.riverisland.com/Assets/RiverIsland/Core/images/logo.png", "brand": "RIVER ISLAND", "brand:wikidata": "Q2670328", "nsi_id": "riverisland-a754e7"}, "geometry": {"type": "Point", "coordinates": [-3.40384, 53.335868]}},
{"type": "Feature", "id": "9dlFrAuPvH1WeJFyHK7mFHYFSe0=", "properties": {"ref": "https://www.riverisland.com/how-can-we-help/find-a-store/preston-fishergate", "@spider": "riverisland_gb", "shop": "clothes", "addr:street_address": "109-110 Fishergate", "addr:city": "Lancashire", "addr:state": "North West", "addr:postcode": "PR1 2AH", "addr:country": "GB", "name": "River Island PRESTON FISHERGATE", "phone": "+44 (0)344 826 9856", "website": "http://www.riverisland.com/how-can-we-help/find-a-store/preston-fishergate", "opening_hours": "Mo-Fr 09:00-17:30; Sa 09:00-18:00; Su 11:00-17:00", "image": "https://www.riverisland.com/Assets/RiverIsland/Core/images/logo.png", "brand": "RIVER ISLAND", "brand:wikidata": "Q2670328", "nsi_id": "riverisland-a754e7"}, "geometry": {"type": "Point", "coordinates": [-2.702644, 53.757686]}},
{"type": "Feature", "id": "InTZ9CGfcOck7irVx_6MdoDwiQU=", "properties": {"ref": "https://www.riverisland.com/how-can-we-help/find-a-store/preston-deepdale", "@spider": "riverisland_gb", "shop": "clothes", "addr:street_address": "Unit G2 Deepdale Retail Park", "addr:city": "Lancashire", "addr:state": "North West", "addr:postcode": "PR1 6QY", "addr:country": "GB", "name": "River Island PRESTON DEEPDALE", "phone": "+44 (0)344 847 2613", "website": "http://www.riverisland.com/how-can-we-help/find-a-store/preston-deepdale", "opening_hours": "Mo-Fr 09:00-20:00; Sa 09:00-19:00; Su 11:00-17:00", "image": "https://www.riverisland.com/Assets/RiverIsland/Core/images/logo.png", "brand": "RIVER ISLAND", "brand:wikidata": "Q2670328", "nsi_id": "riverisland-a754e7"}, "geometry": {"type": "Point", "coordinates": [-2.676747, 53.773928]}},
{"type": "Feature", "id": "9szqyC_FjhPG9Zs8wqKvHvER6xw=", "properties": {"ref": "https://www.riverisland.com/how-can-we-help/find-a-store/portsmouth", "@spider": "riverisland_gb", "shop": "clothes", "addr:street_address": "Unit 154 Commercial Road", "addr:city": "Portsmouth", "addr:postcode": "PO1 1EX", "addr:country": "GB", "name": "River Island PORTSMOUTH", "phone": "+44 (0)344 8269855", "website": "http://www.riverisland.com/how-can-we-help/find-a-store/portsmouth", "opening_hours": "Mo-Th 09:00-17:30; Fr-Sa 09:00-18:00; Su 10:30-16:30", "image": "https://www.riverisland.com/Assets/RiverIsland/Core/images/logo.png", "brand": "RIVER ISLAND", "brand:wikidata": "Q2670328", "nsi_id": "riverisland-a754e7"}, "geometry": {"type": "Point", "coordinates": [-1.08962, 50.80077]}},
{"type": "Feature", "id": "nFOJWoVpsTVnsd2Sd3xr4jjOh9U=", "properties": {"ref": "https://www.riverisland.com/how-can-we-help/find-a-store/poole", "@spider": "riverisland_gb", "shop": "clothes", "addr:street_address": "Unit 61-62", "addr:city": "Dorset", "addr:state": "South West", "addr:postcode": "BH15 1ST", "addr:country": "GB", "name": "River Island POOLE", "phone": "+44 (0)344 826 9854", "website": "http://www.riverisland.com/how-can-we-help/find-a-store/poole", "opening_hours": "Mo-Sa 09:00-17:30; Su 10:30-16:30", "image": "https://www.riverisland.com/Assets/RiverIsland/Core/images/logo.png", "brand": "RIVER ISLAND", "brand:wikidata": "Q2670328", "nsi_id": "riverisland-a754e7"}, "geometry": {"type": "Point", "coordinates": [-1.981058, 50.718261]}},
{"type": "Feature", "id": "qZ_nff-BTHp3Zw9OjDduWpf0epw=", "properties": {"ref": "https://www.riverisland.com/how-can-we-help/find-a-store/plymouth", "@spider": "riverisland_gb", "shop": "clothes", "addr:street_address": "Unit 45 Lsu3 Upper Mall", "addr:city": "Devon", "addr:state": "South West", "addr:postcode": "PL1 1EA", "addr:country": "GB", "name": "River Island PLYMOUTH", "phone": "+44 (0)344 826 9851", "website": "http://www.riverisland.com/how-can-we-help/find-a-store/plymouth", "opening_hours": "Mo-We 09:00-18:00; Th 09:00-20:00; Fr-Sa 09:00-18:00; Su 10:30-16:30", "image": "https://www.riverisland.com/Assets/RiverIsland/Core/images/logo.png", "brand": "RIVER ISLAND", "brand:wikidata": "Q2670328", "nsi_id": "riverisland-a754e7"}, "geometry": {"type": "Point", "coordinates": [-4.136908, 50.371783]}},
{"type": "Feature", "id": "yI-k3cNznRlZkGm8C3Ox4PA0_74=", "properties": {"ref": "https://www.riverisland.com/how-can-we-help/find-a-store/peterborough-serpentine", "@spider": "riverisland_gb", "shop": "clothes", "addr:street_address": "15a Serpentine Green Centre", "addr:city": "Cambridgeshire", "addr:state": "East", "addr:postcode": "PE7 8BD", "addr:country": "GB", "name": "River Island PETERBOROUGH SERPENTINE", "phone": "+44 (0)344 826 9838", "website": "http://www.riverisland.com/how-can-we-help/find-a-store/peterborough-serpentine", "opening_hours": "Mo-Fr 09:30-19:00; Sa 09:00-19:00; Su 10:00-16:00", "image": "https://www.riverisland.com/Assets/RiverIsland/Core/images/logo.png", "brand": "RIVER ISLAND", "brand:wikidata": "Q2670328", "nsi_id": "riverisland-a754e7"}, "geometry": {"type": "Point", "coordinates": [-0.263006, 52.540831]}},
{"type": "Feature", "id": "C89kg31qmqPBxmmJ3_glataymV8=", "properties": {"ref": "https://www.riverisland.com/how-can-we-help/find-a-store/peterborough-queensgate", "@spider": "riverisland_gb", "shop": "clothes", "addr:street_address": "Unit 44", "addr:city": "Cambridgeshire", "addr:state": "East", "addr:postcode": "PE1 1NH", "addr:country": "GB", "name": "River Island PETERBOROUGH QUEENSGATE", "phone": "+44 (0)344 826 9850", "website": "http://www.riverisland.com/how-can-we-help/find-a-store/peterborough-queensgate", "opening_hours": "Mo-We 09:00-17:30; Th 09:00-20:00; Fr 09:00-17:30; Sa 09:00-18:00; Su 10:30-16:30", "image": "https://www.riverisland.com/Assets/RiverIsland/Core/images/logo.png", "brand": "RIVER ISLAND", "brand:wikidata": "Q2670328", "nsi_id": "riverisland-a754e7"}, "geometry": {"type": "Point", "coordinates": [-0.245869, 52.573894]}},
{"type": "Feature", "id": "DupwlMpa4VyJ8MWDaQxiNzMk99g=", "properties": {"ref": "https://www.riverisland.com/how-can-we-help/find-a-store/perth", "@spider": "riverisland_gb", "shop": "clothes", "addr:street_address": "Unit 7", "addr:city": "Perthshire", "addr:state": "Scotland", "addr:postcode": "PH1 5UX", "addr:country": "GB", "name": "River Island PERTH", "phone": "+44 (0)344 826 9849", "website": "http://www.riverisland.com/how-can-we-help/find-a-store/perth", "image": "https://www.riverisland.com/Assets/RiverIsland/Core/images/logo.png", "brand": "RIVER ISLAND", "brand:wikidata": "Q2670328", "nsi_id": "riverisland-a754e7"}, "geometry": {"type": "Point", "coordinates": [-3.431325, 56.396028]}},
{"type": "Feature", "id": "YcQ8Mn5E_r7GQQZGHKaWwTSuP94=", "properties": {"ref": "https://www.riverisland.com/how-can-we-help/find-a-store/oxford-westgate", "@spider": "riverisland_gb", "shop": "clothes", "addr:street_address": "Unit 223 The Westgate", "addr:city": "Oxfordshire", "addr:state": "South East", "addr:postcode": "OX1 1PE", "addr:country": "GB", "name": "River Island OXFORD WESTGATE", "phone": "+44 (0)344 826 9848", "website": "http://www.riverisland.com/how-can-we-help/find-a-store/oxford-westgate", "opening_hours": "Mo-Fr 10:00-20:00; Sa 09:00-19:00; Su 11:00-17:00", "image": "https://www.riverisland.com/Assets/RiverIsland/Core/images/logo.png", "brand": "RIVER ISLAND", "brand:wikidata": "Q2670328", "nsi_id": "riverisland-a754e7"}, "geometry": {"type": "Point", "coordinates": [-1.258283, 51.75255]}},
{"type": "Feature", "id": "kniLxmz_wbB56sEdBESKmhk9goQ=", "properties": {"ref": "https://www.riverisland.com/how-can-we-help/find-a-store/oxford-street-213", "@spider": "riverisland_gb", "shop": "clothes", "addr:street_address": "207-213 Oxford Street", "addr:city": "London", "addr:state": "London", "addr:postcode": "W1D 2LF", "addr:country": "GB", "name": "River Island OXFORD STREET 213", "phone": "+44 (0)344 847 2666", "website": "http://www.riverisland.com/how-can-we-help/find-a-store/oxford-street-213", "opening_hours": "Mo-Sa 09:30-21:00; Su 12:00-18:00", "image": "https://www.riverisland.com/Assets/RiverIsland/Core/images/logo.png", "brand": "RIVER ISLAND", "brand:wikidata": "Q2670328", "nsi_id": "riverisland-a754e7"}, "geometry": {"type": "Point", "coordinates": [-0.14446, 51.51496]}},
{"type": "Feature", "id": "Q2LJpVbgZ_xxnXRUWEvrsIstTLU=", "properties": {"ref": "https://www.riverisland.com/how-can-we-help/find-a-store/omagh", "@spider": "riverisland_gb", "shop": "clothes", "addr:street_address": "Unit 9", "addr:city": "Omagh", "addr:state": "Northern Ireland", "addr:postcode": "BT79 7AQ", "addr:country": "GB", "name": "River Island OMAGH", "phone": "+44 (0)344 847 2634", "website": "http://www.riverisland.com/how-can-we-help/find-a-store/omagh", "opening_hours": "Mo-We 09:30-18:00; Th-Fr 09:30-21:00; Sa 09:00-18:00; Su 13:00-18:00", "image": "https://www.riverisland.com/Assets/RiverIsland/Core/images/logo.png", "brand": "RIVER ISLAND", "brand:wikidata": "Q2670328", "nsi_id": "riverisland-a754e7"}, "geometry": {"type": "Point", "coordinates": [-7.304151, 54.60237]}},
{"type": "Feature", "id": "f2_gyfL8of-2FfwZTEaJmRdoW5A=", "properties": {"ref": "https://www.riverisland.com/how-can-we-help/find-a-store/oldham", "@spider": "riverisland_gb", "shop": "clothes", "addr:street_address": "Unit 26-28 The Spindles Shopping Centre", "addr:city": "Lancashire", "addr:state": "North West", "addr:postcode": "OL1 1HD", "addr:country": "GB", "name": "River Island OLDHAM", "phone": "+44 (0)344 826 9847", "website": "http://www.riverisland.com/how-can-we-help/find-a-store/oldham", "opening_hours": "Mo-Sa 09:00-17:30; Su 10:30-16:30", "image": "https://www.riverisland.com/Assets/RiverIsland/Core/images/logo.png", "brand": "RIVER ISLAND", "brand:wikidata": "Q2670328", "nsi_id": "riverisland-a754e7"}, "geometry": {"type": "Point", "coordinates": [-2.112253, 53.541664]}},
{"type": "Feature", "id": "bFNsFX0c5lG4InAilxmWcud6uj4=", "properties": {"ref": "https://www.riverisland.com/how-can-we-help/find-a-store/nottingham-victoria", "@spider": "riverisland_gb", "shop": "clothes", "addr:street_address": "Unit 28", "addr:city": "Nottinghamshire", "addr:state": "East Midlands", "addr:postcode": "NG1 3QL", "addr:country": "GB", "name": "River Island NOTTINGHAM VICTORIA", "phone": "+44 (0)344 334 0527", "website": "http://www.riverisland.com/how-can-we-help/find-a-store/nottingham-victoria", "opening_hours": "Mo-Fr 09:00-18:00; Sa 09:00-18:30; Su 11:00-17:00", "image": "https://www.riverisland.com/Assets/RiverIsland/Core/images/logo.png", "brand": "RIVER ISLAND", "brand:wikidata": "Q2670328", "nsi_id": "riverisland-a754e7"}, "geometry": {"type": "Point", "coordinates": [-1.147835, 52.958331]}},
{"type": "Feature", "id": "ZPZC7qI5F1ePwOKNI8DF543MfVs=", "properties": {"ref": "https://www.riverisland.com/how-can-we-help/find-a-store/norwich", "@spider": "riverisland_gb", "shop": "clothes", "addr:street_address": "221-222 Merchants Hall", "addr:city": "Norfolk", "addr:state": "East", "addr:postcode": "NR2 1SU", "addr:country": "GB", "name": "River Island NORWICH", "phone": "+44 (0)344 826 9844", "website": "http://www.riverisland.com/how-can-we-help/find-a-store/norwich", "opening_hours": "Mo-Sa 09:00-18:00; Su 10:30-16:30", "image": "https://www.riverisland.com/Assets/RiverIsland/Core/images/logo.png", "brand": "RIVER ISLAND", "brand:wikidata": "Q2670328", "nsi_id": "riverisland-a754e7"}, "geometry": {"type": "Point", "coordinates": [1.289772, 52.625872]}},
{"type": "Feature", "id": "g_kogVAc2hYAoVtH7NxJa_eG7lE=", "properties": {"ref": "https://www.riverisland.com/how-can-we-help/find-a-store/northwich", "@spider": "riverisland_gb", "shop": "clothes", "addr:street_address": "Unit 14-16 Barons Quay Development", "addr:postcode": "CW9 5LD", "addr:country": "GB", "name": "River Island NORTHWICH", "phone": "+44 (0)333 222 5881", "website": "http://www.riverisland.com/how-can-we-help/find-a-store/northwich", "opening_hours": "Mo-Fr 09:00-17:30; Sa 09:00-18:00; Su 10:30-16:30", "image": "https://www.riverisland.com/Assets/RiverIsland/Core/images/logo.png", "brand": "RIVER ISLAND", "brand:wikidata": "Q2670328", "nsi_id": "riverisland-a754e7"}, "geometry": {"type": "Point", "coordinates": [-2.51293, 53.2641]}},
{"type": "Feature", "id": "MkNm92L5W8II9Ah6rdSQvpsaTpg=", "properties": {"ref": "https://www.riverisland.com/how-can-we-help/find-a-store/northampton", "@spider": "riverisland_gb", "shop": "clothes", "addr:street_address": "Units 14-20 Newland Walk", "addr:city": "Northamptonshire", "addr:state": "East Midlands", "addr:postcode": "NN1 2EW", "addr:country": "GB", "name": "River Island NORTHAMPTON", "phone": "+44 (0)344 826 9843", "website": "http://www.riverisland.com/how-can-we-help/find-a-store/northampton", "opening_hours": "Mo-Sa 09:00-18:00; Su 10:30-16:30", "image": "https://www.riverisland.com/Assets/RiverIsland/Core/images/logo.png", "brand": "RIVER ISLAND", "brand:wikidata": "Q2670328", "nsi_id": "riverisland-a754e7"}, "geometry": {"type": "Point", "coordinates": [-0.895277, 52.243333]}},
{"type": "Feature", "id": "SlPBX_ez2kRgq8KWLbEBDLATpqk=", "properties": {"ref": "https://www.riverisland.com/how-can-we-help/find-a-store/north-shields", "@spider": "riverisland_gb", "shop": "clothes", "addr:street_address": "Unit G1", "addr:city": "North Tyneside", "addr:state": "North East", "addr:postcode": "NE28 9ND", "addr:country": "GB", "name": "River Island NORTH SHIELDS", "phone": "+44 (0)344 847 2617", "website": "http://www.riverisland.com/how-can-we-help/find-a-store/north-shields", "opening_hours": "Mo-Fr 09:30-20:00; Sa 09:00-17:30; Su 10:30-16:30", "image": "https://www.riverisland.com/Assets/RiverIsland/Core/images/logo.png", "brand": "RIVER ISLAND", "brand:wikidata": "Q2670328", "nsi_id": "riverisland-a754e7"}, "geometry": {"type": "Point", "coordinates": [-1.493075, 55.011983]}},
{"type": "Feature", "id": "HSrfuJZvdvT1id8eVr4X5KJXsJg=", "properties": {"ref": "https://www.riverisland.com/how-can-we-help/find-a-store/newtownards", "@spider": "riverisland_gb", "shop": "clothes", "addr:street_address": "Units C3-4", "addr:city": "County Down", "addr:state": "Northern Ireland", "addr:postcode": "BT23 4YH", "addr:country": "GB", "name": "River Island NEWTOWNARDS", "phone": "+44 (0)344 847 2594", "website": "http://www.riverisland.com/how-can-we-help/find-a-store/newtownards", "opening_hours": "Mo 09:00-17:00; Tu-We 09:00-18:00; Th-Fr 09:00-21:00; Sa 09:00-18:00; Su 13:00-18:00", "image": "https://www.riverisland.com/Assets/RiverIsland/Core/images/logo.png", "brand": "RIVER ISLAND", "brand:wikidata": "Q2670328", "nsi_id": "riverisland-a754e7"}, "geometry": {"type": "Point", "coordinates": [-5.703083, 54.585058]}},
{"type": "Feature", "id": "BdStq6ac94h480ZaOFUJI1Dad4U=", "properties": {"ref": "https://www.riverisland.com/how-can-we-help/find-a-store/newtownabbey", "@spider": "riverisland_gb", "shop": "clothes", "addr:street_address": "38 Abbeycentre", "addr:city": "County Antrim", "addr:state": "Northern Ireland", "addr:postcode": "BT37 9UH", "addr:country": "GB", "name": "River Island NEWTOWNABBEY", "phone": "+44 (0)344 847 2593", "website": "http://www.riverisland.com/how-can-we-help/find-a-store/newtownabbey", "opening_hours": "Mo-Fr 09:00-21:00; Sa 09:00-18:00; Su 13:00-17:00", "image": "https://www.riverisland.com/Assets/RiverIsland/Core/images/logo.png", "brand": "RIVER ISLAND", "brand:wikidata": "Q2670328", "nsi_id": "riverisland-a754e7"}, "geometry": {"type": "Point", "coordinates": [-5.918078, 54.656036]}},
{"type": "Feature", "id": "2F_TSW8e7Pyr_-vEeJCwSIwSEBA=", "properties": {"ref": "https://www.riverisland.com/how-can-we-help/find-a-store/newry", "@spider": "riverisland_gb", "shop": "clothes", "addr:street_address": "Unit 36", "addr:city": "County Down", "addr:state": "Northern Ireland", "addr:postcode": "BT35 8QS", "addr:country": "GB", "name": "River Island NEWRY", "phone": "+44 (0)344 847 2592", "website": "http://www.riverisland.com/how-can-we-help/find-a-store/newry", "opening_hours": "Mo-Tu 09:00-17:30; We-Fr 09:00-21:00; Sa 09:00-18:00; Su 13:00-18:00", "image": "https://www.riverisland.com/Assets/RiverIsland/Core/images/logo.png", "brand": "RIVER ISLAND", "brand:wikidata": "Q2670328", "nsi_id": "riverisland-a754e7"}, "geometry": {"type": "Point", "coordinates": [-6.33955, 54.167681]}},
{"type": "Feature", "id": "zHM1s7RaDB4YgOKdGdTXHUn9va8=", "properties": {"ref": "https://www.riverisland.com/how-can-we-help/find-a-store/newport-spytty", "@spider": "riverisland_gb", "shop": "clothes", "addr:street_address": "Unit 13a Newport Retail Park", "addr:city": "Gwent", "addr:state": "Wales", "addr:postcode": "NP19 4QQ", "addr:country": "GB", "name": "River Island NEWPORT SPYTTY", "phone": "+44 (0)344 334 0535", "website": "http://www.riverisland.com/how-can-we-help/find-a-store/newport-spytty", "opening_hours": "Mo-Sa 09:00-18:00; Su 10:00-16:00", "image": "https://www.riverisland.com/Assets/RiverIsland/Core/images/logo.png", "brand": "RIVER ISLAND", "brand:wikidata": "Q2670328", "nsi_id": "riverisland-a754e7"}, "geometry": {"type": "Point", "coordinates": [-2.943583, 51.57757]}},
{"type": "Feature", "id": "jQXthaRJ__H26zZrnif71h1Ep2I=", "properties": {"ref": "https://www.riverisland.com/how-can-we-help/find-a-store/newport-friars-walk", "@spider": "riverisland_gb", "shop": "clothes", "addr:street_address": "Unit 4 Friars Walk", "addr:city": "Gwent", "addr:state": "Wales", "addr:postcode": "NP20 1DB", "addr:country": "GB", "name": "River Island NEWPORT FRIARS WALK", "phone": "+44 (0)344 826 9842", "website": "http://www.riverisland.com/how-can-we-help/find-a-store/newport-friars-walk", "opening_hours": "Mo-We 09:00-17:30; Th-Sa 09:00-18:00; Su 11:00-17:00", "image": "https://www.riverisland.com/Assets/RiverIsland/Core/images/logo.png", "brand": "RIVER ISLAND", "brand:wikidata": "Q2670328", "nsi_id": "riverisland-a754e7"}, "geometry": {"type": "Point", "coordinates": [-2.996129, 51.587215]}},
{"type": "Feature", "id": "pfmtFdimmMOiIokfQpAWn01TeEg=", "properties": {"ref": "https://www.riverisland.com/how-can-we-help/find-a-store/newcastle", "@spider": "riverisland_gb", "shop": "clothes", "addr:street_address": "Unit 14 - 16 St Andrews Way", "addr:city": "Tyne And Wear", "addr:state": "North East", "addr:postcode": "NE1 7XD", "addr:country": "GB", "name": "River Island NEWCASTLE", "phone": "+44 (0)344 826 9841", "website": "http://www.riverisland.com/how-can-we-help/find-a-store/newcastle", "opening_hours": "Mo-We 10:00-18:00; Th 10:00-19:00; Fr-Sa 09:00-18:00; Su 11:00-17:00", "image": "https://www.riverisland.com/Assets/RiverIsland/Core/images/logo.png", "brand": "RIVER ISLAND", "brand:wikidata": "Q2670328", "nsi_id": "riverisland-a754e7"}, "geometry": {"type": "Point", "coordinates": [-1.615261, 54.974889]}},
{"type": "Feature", "id": "3QVJCKp2cgY5MBYi_kgmpEjQuXc=", "properties": {"ref": "https://www.riverisland.com/how-can-we-help/find-a-store/newbridge", "@spider": "riverisland_gb", "shop": "clothes", "addr:street_address": "Retail Unit 44", "addr:city": "County Kildare", "addr:postcode": "W12 RD88", "addr:country": "IE", "name": "River Island NEWBRIDGE", "phone": "+353 (0)458 32950", "website": "http://www.riverisland.com/how-can-we-help/find-a-store/newbridge", "opening_hours": "Mo-We 09:30-18:00; Th-Fr 09:30-21:00; Sa 09:30-18:00; Su 11:00-18:00", "image": "https://www.riverisland.com/Assets/RiverIsland/Core/images/logo.png", "brand": "RIVER ISLAND", "brand:wikidata": "Q2670328", "nsi_id": "riverisland-a754e7"}, "geometry": {"type": "Point", "coordinates": [-6.774864, 53.181558]}},
{"type": "Feature", "id": "vM3_RNImkXV86Uh1OuNExLG68b0=", "properties": {"ref": "https://www.riverisland.com/how-can-we-help/find-a-store/navan", "@spider": "riverisland_gb", "shop": "clothes", "addr:street_address": "Unit 38", "addr:city": "Co Meath", "addr:postcode": "C15 H732", "addr:country": "IE", "name": "River Island NAVAN", "phone": "+353 (0)469 046 988", "website": "http://www.riverisland.com/how-can-we-help/find-a-store/navan", "opening_hours": "Mo-We 09:30-18:00; Th-Fr 09:30-20:00; Sa 09:00-18:00; Su 12:00-18:00", "image": "https://www.riverisland.com/Assets/RiverIsland/Core/images/logo.png", "brand": "RIVER ISLAND", "brand:wikidata": "Q2670328", "nsi_id": "riverisland-a754e7"}, "geometry": {"type": "Point", "coordinates": [-6.684827, 53.653767]}},
{"type": "Feature", "id": "nLAzwAZGNhN93-OIteywjRndD3c=", "properties": {"ref": "https://www.riverisland.com/how-can-we-help/find-a-store/mk1-fashion-park", "@spider": "riverisland_gb", "shop": "clothes", "addr:street_address": "Mk1 Shopping Park", "addr:city": "Milton Keynes", "addr:state": "South East", "addr:postcode": "MK1 1ST", "addr:country": "GB", "name": "River Island MK1 FASHION PARK", "phone": "+44 (0)344 334 0533", "website": "http://www.riverisland.com/how-can-we-help/find-a-store/mk1-fashion-park", "opening_hours": "Mo-Fr 09:30-20:00; Sa 09:00-19:00; Su 11:00-17:00", "image": "https://www.riverisland.com/Assets/RiverIsland/Core/images/logo.png", "brand": "RIVER ISLAND", "brand:wikidata": "Q2670328", "nsi_id": "riverisland-a754e7"}, "geometry": {"type": "Point", "coordinates": [-0.736872, 52.009553]}},
{"type": "Feature", "id": "n-tFulNLXutbdwdA8ST3f294Ahc=", "properties": {"ref": "https://www.riverisland.com/how-can-we-help/find-a-store/milton-keynes", "@spider": "riverisland_gb", "shop": "clothes", "addr:street_address": "Unit 23-25", "addr:city": "Milton Keynes", "addr:state": "South East", "addr:postcode": "MK9 3ES", "addr:country": "GB", "name": "River Island MILTON KEYNES", "phone": "+44 (0)344 826 9837", "website": "http://www.riverisland.com/how-can-we-help/find-a-store/milton-keynes", "opening_hours": "Mo-We 09:30-19:00; Th-Fr 09:30-20:00; Sa 09:00-19:00; Su 11:00-17:00", "image": "https://www.riverisland.com/Assets/RiverIsland/Core/images/logo.png", "brand": "RIVER ISLAND", "brand:wikidata": "Q2670328", "nsi_id": "riverisland-a754e7"}, "geometry": {"type": "Point", "coordinates": [-0.757214, 52.040664]}},
{"type": "Feature", "id": "vkBidTlHvUBlBhlxj3JtxDZJHkk=", "properties": {"ref": "https://www.riverisland.com/how-can-we-help/find-a-store/middlesbrough", "@spider": "riverisland_gb", "shop": "clothes", "addr:street_address": "53-67 Linthorpe Road", "addr:city": "Cleveland", "addr:state": "North East", "addr:postcode": "TS1 5BS", "addr:country": "GB", "name": "River Island MIDDLESBROUGH", "phone": "+44 (0)344 826 9836", "website": "http://www.riverisland.com/how-can-we-help/find-a-store/middlesbrough", "opening_hours": "Mo-Sa 09:00-17:30; Su 10:30-16:30", "image": "https://www.riverisland.com/Assets/RiverIsland/Core/images/logo.png", "brand": "RIVER ISLAND", "brand:wikidata": "Q2670328", "nsi_id": "riverisland-a754e7"}, "geometry": {"type": "Point", "coordinates": [-1.237158, 54.575922]}},
{"type": "Feature", "id": "FR2c-EZefc82ceHw67Z0sFU1-EE=", "properties": {"ref": "https://www.riverisland.com/how-can-we-help/find-a-store/merthyr-tydfil", "@spider": "riverisland_gb", "shop": "clothes", "addr:street_address": "Unit 16", "addr:city": "Mid Glamorgan", "addr:postcode": "CF48 1HY", "addr:country": "GB", "name": "River Island MERTHYR TYDFIL", "phone": "+44 (0)344 334 0541", "website": "http://www.riverisland.com/how-can-we-help/find-a-store/merthyr-tydfil", "opening_hours": "Mo-We 09:00-19:00; Th-Fr 09:00-20:00; Sa 09:00-19:00; Su 11:00-17:00", "image": "https://www.riverisland.com/Assets/RiverIsland/Core/images/logo.png", "brand": "RIVER ISLAND", "brand:wikidata": "Q2670328", "nsi_id": "riverisland-a754e7"}, "geometry": {"type": "Point", "coordinates": [-3.392962, 51.749541]}},
{"type": "Feature", "id": "XU1oNwKDK7eWR8S0nc8ofblILUw=", "properties": {"ref": "https://www.riverisland.com/how-can-we-help/find-a-store/marble-arch-park-house", "@spider": "riverisland_gb", "shop": "clothes", "addr:street_address": "473 Oxford Street", "addr:city": "London", "addr:state": "London", "addr:postcode": "W1C 2AU", "addr:country": "GB", "name": "River Island MARBLE ARCH PARK HOUSE", "phone": "+44 (0)344 826 9835", "website": "http://www.riverisland.com/how-can-we-help/find-a-store/marble-arch-park-house", "opening_hours": "Mo-Sa 09:30-21:00; Su 12:30-18:30", "image": "https://www.riverisland.com/Assets/RiverIsland/Core/images/logo.png", "brand": "RIVER ISLAND", "brand:wikidata": "Q2670328", "nsi_id": "riverisland-a754e7"}, "geometry": {"type": "Point", "coordinates": [-0.154931, 51.513928]}},
{"type": "Feature", "id": "w2V3ole6ZRN1uSfUw2G_HnTZyZk=", "properties": {"ref": "https://www.riverisland.com/how-can-we-help/find-a-store/mansfield", "@spider": "riverisland_gb", "shop": "clothes", "addr:street_address": "Units E8 &amp;amp; E4 East Mall", "addr:city": "Nottinghamshire", "addr:state": "East Midlands", "addr:postcode": "NG18 1SN", "addr:country": "GB", "name": "River Island MANSFIELD", "phone": "+44 (0)344 826 9834", "website": "http://www.riverisland.com/how-can-we-help/find-a-store/mansfield", "opening_hours": "Mo-Sa 09:00-17:30; Su 10:00-16:00", "image": "https://www.riverisland.com/Assets/RiverIsland/Core/images/logo.png", "brand": "RIVER ISLAND", "brand:wikidata": "Q2670328", "nsi_id": "riverisland-a754e7"}, "geometry": {"type": "Point", "coordinates": [-1.198056, 53.144822]}},
{"type": "Feature", "id": "mlQnXS6awQ6UnnMT9ATJvz6zfWU=", "properties": {"ref": "https://www.riverisland.com/how-can-we-help/find-a-store/manchester-trafford-park", "@spider": "riverisland_gb", "shop": "clothes", "addr:street_address": "Unit Lsu09", "addr:city": "Manchester", "addr:state": "North West", "addr:postcode": "M17 8AH", "addr:country": "GB", "name": "River Island MANCHESTER TRAFFORD PARK", "phone": "+44 (0)344 395 1009", "website": "http://www.riverisland.com/how-can-we-help/find-a-store/manchester-trafford-park", "opening_hours": "Mo-Fr 10:00-22:00; Sa 10:00-21:00; Su 12:00-18:00", "image": "https://www.riverisland.com/Assets/RiverIsland/Core/images/logo.png", "brand": "RIVER ISLAND", "brand:wikidata": "Q2670328", "nsi_id": "riverisland-a754e7"}, "geometry": {"type": "Point", "coordinates": [-2.349003, 53.465731]}},
{"type": "Feature", "id": "P7E5Gj4fIwhkWIkvcXN-xwVmEX8=", "properties": {"ref": "https://www.riverisland.com/how-can-we-help/find-a-store/manchester-arndale", "@spider": "riverisland_gb", "shop": "clothes", "addr:street_address": "Unit L3/U3", "addr:city": "Manchester", "addr:state": "North West", "addr:postcode": "M4 3AQ", "addr:country": "GB", "name": "River Island MANCHESTER ARNDALE", "phone": "+44 (0)344 395 1008", "website": "http://www.riverisland.com/how-can-we-help/find-a-store/manchester-arndale", "opening_hours": "Mo-Fr 09:00-20:00; Sa 09:00-19:00; Su 11:30-17:30", "image": "https://www.riverisland.com/Assets/RiverIsland/Core/images/logo.png", "brand": "RIVER ISLAND", "brand:wikidata": "Q2670328", "nsi_id": "riverisland-a754e7"}, "geometry": {"type": "Point", "coordinates": [-2.241753, 53.483164]}},
{"type": "Feature", "id": "QcgUvtS-iXGGXgHXQec80hUGxIY=", "properties": {"ref": "https://www.riverisland.com/how-can-we-help/find-a-store/maidstone", "@spider": "riverisland_gb", "shop": "clothes", "addr:street_address": "20 Fremlin Walk", "addr:city": "Kent", "addr:state": "South East", "addr:postcode": "ME14 1PS", "addr:country": "GB", "name": "River Island MAIDSTONE", "phone": "+44 (0)344 826 9833", "website": "http://www.riverisland.com/how-can-we-help/find-a-store/maidstone", "opening_hours": "Mo-Th 09:00-17:30; Fr-Sa 09:00-18:00; Su 11:00-17:00", "image": "https://www.riverisland.com/Assets/RiverIsland/Core/images/logo.png", "brand": "RIVER ISLAND", "brand:wikidata": "Q2670328", "nsi_id": "riverisland-a754e7"}, "geometry": {"type": "Point", "coordinates": [0.522706, 51.274592]}},
{"type": "Feature", "id": "-WOTTacTinDBbRd-IFQhVn4WDPc=", "properties": {"ref": "https://www.riverisland.com/how-can-we-help/find-a-store/magherafelt", "@spider": "riverisland_gb", "shop": "clothes", "addr:street_address": "Unit 30", "addr:city": "County Londonderry", "addr:state": "Northern Ireland", "addr:postcode": "BT45 6PR", "addr:country": "GB", "name": "River Island MAGHERAFELT", "phone": "+44 (0)344 847 2605", "website": "http://www.riverisland.com/how-can-we-help/find-a-store/magherafelt", "opening_hours": "Mo-We 09:00-17:30; Th-Fr 09:00-21:00; Sa 09:00-17:30; Su 13:00-18:00", "image": "https://www.riverisland.com/Assets/RiverIsland/Core/images/logo.png", "brand": "RIVER ISLAND", "brand:wikidata": "Q2670328", "nsi_id": "riverisland-a754e7"}, "geometry": {"type": "Point", "coordinates": [-6.610678, 54.753936]}},
{"type": "Feature", "id": "lbrptJuNfOBHDCYxwi0zFjvq_fg=", "properties": {"ref": "https://www.riverisland.com/how-can-we-help/find-a-store/luton", "@spider": "riverisland_gb", "shop": "clothes", "addr:street_address": "95-97 The Mall", "addr:city": "Bedfordshire", "addr:state": "East", "addr:postcode": "LU1 2TH", "addr:country": "GB", "name": "River Island LUTON", "phone": "+44 (0)344 826 9831", "website": "http://www.riverisland.com/how-can-we-help/find-a-store/luton", "opening_hours": "Mo-We 09:00-18:00; Th 09:00-19:00; Fr-Sa 09:00-18:00; Su 11:00-17:00", "image": "https://www.riverisland.com/Assets/RiverIsland/Core/images/logo.png", "brand": "RIVER ISLAND", "brand:wikidata": "Q2670328", "nsi_id": "riverisland-a754e7"}, "geometry": {"type": "Point", "coordinates": [-0.414997, 51.879333]}},
{"type": "Feature", "id": "10cjSPLhvjxy_2r56kJhrrYICJI=", "properties": {"ref": "https://www.riverisland.com/how-can-we-help/find-a-store/londonderry", "@spider": "riverisland_gb", "shop": "clothes", "addr:street_address": "Unit 4 Level 4", "addr:city": "Derry", "addr:state": "Northern Ireland", "addr:postcode": "BT48 6XY", "addr:country": "GB", "name": "River Island LONDONDERRY", "phone": "+44 (0)344 847 2591", "website": "http://www.riverisland.com/how-can-we-help/find-a-store/londonderry", "opening_hours": "Mo-Tu 09:00-18:00; We-Fr 09:00-21:00; Sa 09:00-18:00; Su 13:00-18:00", "image": "https://www.riverisland.com/Assets/RiverIsland/Core/images/logo.png", "brand": "RIVER ISLAND", "brand:wikidata": "Q2670328", "nsi_id": "riverisland-a754e7"}, "geometry": {"type": "Point", "coordinates": [-7.318767, 54.994769]}},
{"type": "Feature", "id": "8ojj_WVK_PVEDG7ctln4VZYVVJc=", "properties": {"ref": "https://www.riverisland.com/how-can-we-help/find-a-store/llantrisant", "@spider": "riverisland_gb", "shop": "clothes", "addr:street_address": "Unit 3a", "addr:city": "Mid Glamorgan", "addr:state": "Wales", "addr:postcode": "CF72 8LW", "addr:country": "GB", "name": "River Island LLANTRISANT", "phone": "+44 (0)344 826 9830", "website": "http://www.riverisland.com/how-can-we-help/find-a-store/llantrisant", "opening_hours": "Mo-We 09:00-19:00; Th-Fr 09:00-20:00; Sa 09:00-19:00; Su 10:30-16:30", "image": "https://www.riverisland.com/Assets/RiverIsland/Core/images/logo.png", "brand": "RIVER ISLAND", "brand:wikidata": "Q2670328", "nsi_id": "riverisland-a754e7"}, "geometry": {"type": "Point", "coordinates": [-3.381044, 51.536258]}},
{"type": "Feature", "id": "ls6l8-c4DjsLt9WoSyYUWoQRzeQ=", "properties": {"ref": "https://www.riverisland.com/how-can-we-help/find-a-store/llanelli", "@spider": "riverisland_gb", "shop": "clothes", "addr:street_address": "Unit 7b Parc", "addr:city": "Carmarthenshire", "addr:state": "Wales", "addr:postcode": "SA14 9UY", "addr:country": "GB", "name": "River Island LLANELLI", "phone": "+44 (0)344 847 2616", "website": "http://www.riverisland.com/how-can-we-help/find-a-store/llanelli", "image": "https://www.riverisland.com/Assets/RiverIsland/Core/images/logo.png", "brand": "RIVER ISLAND", "brand:wikidata": "Q2670328", "nsi_id": "riverisland-a754e7"}, "geometry": {"type": "Point", "coordinates": [-4.139736, 51.676925]}},
{"type": "Feature", "id": "bbpTi3DKP1ug_GQBf7rQyfgHJvM=", "properties": {"ref": "https://www.riverisland.com/how-can-we-help/find-a-store/llandudno", "@spider": "riverisland_gb", "shop": "clothes", "addr:street_address": "Unit 7 Llandudno Retail Park", "addr:city": "Conwy", "addr:state": "Wales", "addr:postcode": "LL30 1PJ", "addr:country": "GB", "name": "River Island LLANDUDNO", "phone": "+44 (0)344 826 9829", "website": "http://www.riverisland.com/how-can-we-help/find-a-store/llandudno", "opening_hours": "Mo-Sa 09:00-19:00; Su 11:00-17:00", "image": "https://www.riverisland.com/Assets/RiverIsland/Core/images/logo.png", "brand": "RIVER ISLAND", "brand:wikidata": "Q2670328", "nsi_id": "riverisland-a754e7"}, "geometry": {"type": "Point", "coordinates": [-3.817536, 53.318611]}},
{"type": "Feature", "id": "V7jHj81R21Hdhxz3QnNEMZtuvpU=", "properties": {"ref": "https://www.riverisland.com/how-can-we-help/find-a-store/livingston", "@spider": "riverisland_gb", "shop": "clothes", "addr:street_address": "Unit Su10", "addr:city": "Livingston", "addr:state": "Scotland", "addr:postcode": "EH54 6GS", "addr:country": "GB", "name": "River Island LIVINGSTON", "phone": "+44 (0)344 826 9828", "website": "http://www.riverisland.com/how-can-we-help/find-a-store/livingston", "opening_hours": "Mo-We 09:00-18:00; Th 09:00-20:00; Fr-Sa 09:00-18:00; Su 10:00-18:00", "image": "https://www.riverisland.com/Assets/RiverIsland/Core/images/logo.png", "brand": "RIVER ISLAND", "brand:wikidata": "Q2670328", "nsi_id": "riverisland-a754e7"}, "geometry": {"type": "Point", "coordinates": [-3.535158, 55.885206]}},
{"type": "Feature", "id": "nTn7TCWfIkqtq_AUMFI9StVIPaE=", "properties": {"ref": "https://www.riverisland.com/how-can-we-help/find-a-store/liverpool-speke", "@spider": "riverisland_gb", "shop": "clothes", "addr:street_address": "U1 New Mersey Shopping Park", "addr:city": "Merseyside", "addr:state": "North West", "addr:postcode": "L24 8QB", "addr:country": "GB", "name": "River Island LIVERPOOL SPEKE", "phone": "+44 (0)344 826 9827", "website": "http://www.riverisland.com/how-can-we-help/find-a-store/liverpool-speke", "opening_hours": "Mo-Fr 09:00-20:00; Sa 09:00-19:00; Su 11:00-17:00", "image": "https://www.riverisland.com/Assets/RiverIsland/Core/images/logo.png", "brand": "RIVER ISLAND", "brand:wikidata": "Q2670328", "nsi_id": "riverisland-a754e7"}, "geometry": {"type": "Point", "coordinates": [-2.880367, 53.351758]}},
{"type": "Feature", "id": "OFMDH9jHiyyNLVt9KxUbUm99hiQ=", "properties": {"ref": "https://www.riverisland.com/how-can-we-help/find-a-store/liverpool-shopping-park", "@spider": "riverisland_gb", "shop": "clothes", "addr:street_address": "Unit 28, Liverpool Shopping Park", "addr:city": "Liverpool", "addr:postcode": "L13 1FA", "addr:country": "GB", "name": "River Island LIVERPOOL SHOPPING PARK", "phone": "+44 (0)330 311 7807", "website": "http://www.riverisland.com/how-can-we-help/find-a-store/liverpool-shopping-park", "opening_hours": "Mo-Fr 09:00-20:00; Sa 09:00-19:00; Su 11:00-17:00", "image": "https://www.riverisland.com/Assets/RiverIsland/Core/images/logo.png", "brand": "RIVER ISLAND", "brand:wikidata": "Q2670328", "nsi_id": "riverisland-a754e7"}, "geometry": {"type": "Point", "coordinates": [-2.925899, 53.409367]}},
{"type": "Feature", "id": "pk21TUq5z2JkPWOoQqmb6VZhoxY=", "properties": {"ref": "https://www.riverisland.com/how-can-we-help/find-a-store/liverpool-church-street", "@spider": "riverisland_gb", "shop": "clothes", "addr:street_address": "10-16 Church Street", "addr:city": "Merseyside", "addr:state": "North West", "addr:postcode": "L1 1DA", "addr:country": "GB", "name": "River Island LIVERPOOL CHURCH STREET", "phone": "+44 (0)344 395 1007", "website": "http://www.riverisland.com/how-can-we-help/find-a-store/liverpool-church-street", "image": "https://www.riverisland.com/Assets/RiverIsland/Core/images/logo.png", "brand": "RIVER ISLAND", "brand:wikidata": "Q2670328", "nsi_id": "riverisland-a754e7"}, "geometry": {"type": "Point", "coordinates": [-2.983981, 53.405264]}},
{"type": "Feature", "id": "nzXMQ4EYh2Ks8KKqa4qvyy5jU-E=", "properties": {"ref": "https://www.riverisland.com/how-can-we-help/find-a-store/lincoln", "@spider": "riverisland_gb", "shop": "clothes", "addr:street_address": "200-201 High Street", "addr:city": "Lincolnshire", "addr:state": "Yorkshire and Humber", "addr:postcode": "LN5 7AL", "addr:country": "GB", "name": "River Island LINCOLN", "phone": "+44 (0)344 826 9826", "website": "http://www.riverisland.com/how-can-we-help/find-a-store/lincoln", "opening_hours": "Mo-Sa 09:00-17:30; Su 10:00-16:00", "image": "https://www.riverisland.com/Assets/RiverIsland/Core/images/logo.png", "brand": "RIVER ISLAND", "brand:wikidata": "Q2670328", "nsi_id": "riverisland-a754e7"}, "geometry": {"type": "Point", "coordinates": [-0.540722, 53.227731]}},
{"type": "Feature", "id": "1UqpwFjytkWZBZmm5vbQCAmJZ-Q=", "properties": {"ref": "https://www.riverisland.com/how-can-we-help/find-a-store/lisburn", "@spider": "riverisland_gb", "shop": "clothes", "addr:street_address": "1-5 Bow Street", "addr:city": "County Antrim", "addr:state": "Northern Ireland", "addr:postcode": "BT28 1BJ", "addr:country": "GB", "name": "River Island LISBURN", "phone": "+44 (0)344 847 2590", "website": "http://www.riverisland.com/how-can-we-help/find-a-store/lisburn", "opening_hours": "Mo-Fr 09:00-17:30; Sa 09:00-18:00; Su 13:00-18:00", "image": "https://www.riverisland.com/Assets/RiverIsland/Core/images/logo.png", "brand": "RIVER ISLAND", "brand:wikidata": "Q2670328", "nsi_id": "riverisland-a754e7"}, "geometry": {"type": "Point", "coordinates": [-6.046972, 54.511256]}},
{"type": "Feature", "id": "u2QVMbUFO0NgiGW5IBF32g848Uw=", "properties": {"ref": "https://www.riverisland.com/how-can-we-help/find-a-store/limerick-cruises-street", "@spider": "riverisland_gb", "shop": "clothes", "addr:street_address": "Units 8a 8b 9a", "addr:city": "Limerick", "addr:postcode": "V94 WR15", "addr:country": "IE", "name": "River Island LIMERICK CRUISES STREET", "phone": "+353 (0)615 74873", "website": "http://www.riverisland.com/how-can-we-help/find-a-store/limerick-cruises-street", "opening_hours": "Mo-Th 10:00-18:00; Fr 10:00-19:00; Sa 09:30-18:00; Su 12:00-18:00", "image": "https://www.riverisland.com/Assets/RiverIsland/Core/images/logo.png", "brand": "RIVER ISLAND", "brand:wikidata": "Q2670328", "nsi_id": "riverisland-a754e7"}, "geometry": {"type": "Point", "coordinates": [-8.625144, 52.663839]}},
{"type": "Feature", "id": "XEo94jLvKyZRIeDqQPvDtrw0DQc=", "properties": {"ref": "https://www.riverisland.com/how-can-we-help/find-a-store/limerick-crescent-centre", "@spider": "riverisland_gb", "shop": "clothes", "addr:street_address": "Unit 47x", "addr:city": "Limerick", "addr:postcode": "V94 WP65", "addr:country": "IE", "name": "River Island LIMERICK CRESCENT CENTRE", "phone": "+353 (0)615 74875", "website": "http://www.riverisland.com/how-can-we-help/find-a-store/limerick-crescent-centre", "opening_hours": "Mo-We 09:30-18:00; Th-Fr 09:30-21:00; Sa 09:30-18:00; Su 12:00-18:00", "image": "https://www.riverisland.com/Assets/RiverIsland/Core/images/logo.png", "brand": "RIVER ISLAND", "brand:wikidata": "Q2670328", "nsi_id": "riverisland-a754e7"}, "geometry": {"type": "Point", "coordinates": [-8.64584, 52.639899]}},
{"type": "Feature", "id": "BviI6Z7whAdeAjIQS-7s_YpdVAg=", "properties": {"ref": "https://www.riverisland.com/how-can-we-help/find-a-store/letterkenny", "@spider": "riverisland_gb", "shop": "clothes", "addr:street_address": "Unit 3 Phase 4", "addr:city": "Donegal", "addr:postcode": "F92 NY89", "addr:country": "IE", "name": "River Island LETTERKENNY", "phone": "+353 (0)749 117 992", "website": "http://www.riverisland.com/how-can-we-help/find-a-store/letterkenny", "opening_hours": "Mo-We 09:30-18:00; Th-Fr 09:30-21:00; Sa 09:30-18:00; Su 12:00-18:00", "image": "https://www.riverisland.com/Assets/RiverIsland/Core/images/logo.png", "brand": "RIVER ISLAND", "brand:wikidata": "Q2670328", "nsi_id": "riverisland-a754e7"}, "geometry": {"type": "Point", "coordinates": [-7.733017, 54.945853]}},
{"type": "Feature", "id": "DsHO8wd3RgfmrEqQGZeNeRMgrUg=", "properties": {"ref": "https://www.riverisland.com/how-can-we-help/find-a-store/leicester-highcross", "@spider": "riverisland_gb", "shop": "clothes", "addr:street_address": "Unit 110-111", "addr:city": "Leicestershire", "addr:state": "East Midlands", "addr:postcode": "LE1 4SP", "addr:country": "GB", "name": "River Island LEICESTER HIGHCROSS", "phone": "+44 (0)344 826 9824", "website": "http://www.riverisland.com/how-can-we-help/find-a-store/leicester-highcross", "opening_hours": "Mo-We 10:00-18:00; Th-Fr 10:00-19:00; Sa 09:00-19:00; Su 11:00-17:00", "image": "https://www.riverisland.com/Assets/RiverIsland/Core/images/logo.png", "brand": "RIVER ISLAND", "brand:wikidata": "Q2670328", "nsi_id": "riverisland-a754e7"}, "geometry": {"type": "Point", "coordinates": [-1.134822, 52.635975]}},
{"type": "Feature", "id": "hm63FOgWoOzvcsdfjcFIvWOCIGA=", "properties": {"ref": "https://www.riverisland.com/how-can-we-help/find-a-store/leicester-fosse-park", "@spider": "riverisland_gb", "shop": "clothes", "addr:street_address": "Unit 7b", "addr:city": "Leicester", "addr:state": "East Midlands", "addr:postcode": "LE19 1HX", "addr:country": "GB", "name": "River Island LEICESTER FOSSE PARK", "phone": "+44 (0)344 826 9825", "website": "http://www.riverisland.com/how-can-we-help/find-a-store/leicester-fosse-park", "image": "https://www.riverisland.com/Assets/RiverIsland/Core/images/logo.png", "brand": "RIVER ISLAND", "brand:wikidata": "Q2670328", "nsi_id": "riverisland-a754e7"}, "geometry": {"type": "Point", "coordinates": [-1.180648, 52.597846]}},
{"type": "Feature", "id": "lYTwOOhlDjvnh7Ey08yMKNjJP2g=", "properties": {"ref": "https://www.riverisland.com/how-can-we-help/find-a-store/leeds-white-rose", "@spider": "riverisland_gb", "shop": "clothes", "addr:street_address": "Unit 65-66", "addr:city": "West Yorkshire", "addr:state": "Yorkshire and Humber", "addr:postcode": "LS11 8LL", "addr:country": "GB", "name": "River Island LEEDS WHITE ROSE", "phone": "+44 (0)344 826 9823", "website": "http://www.riverisland.com/how-can-we-help/find-a-store/leeds-white-rose", "opening_hours": "Mo-Fr 10:00-21:00; Sa 09:00-20:00; Su 11:00-17:00", "image": "https://www.riverisland.com/Assets/RiverIsland/Core/images/logo.png", "brand": "RIVER ISLAND", "brand:wikidata": "Q2670328", "nsi_id": "riverisland-a754e7"}, "geometry": {"type": "Point", "coordinates": [-1.574217, 53.758633]}},
{"type": "Feature", "id": "NvG6RNzD-0isVpez7xou6zuXxAY=", "properties": {"ref": "https://www.riverisland.com/how-can-we-help/find-a-store/leeds-trinity", "@spider": "riverisland_gb", "shop": "clothes", "addr:street_address": "36 Briggate", "addr:city": "West Yorkshire", "addr:state": "Yorkshire and Humber", "addr:postcode": "LS1 6HD", "addr:country": "GB", "name": "River Island LEEDS TRINITY", "phone": "+44 (0)344 826 9822", "website": "http://www.riverisland.com/how-can-we-help/find-a-store/leeds-trinity", "opening_hours": "Mo-Fr 10:00-19:00; Sa 09:00-19:00; Su 11:00-17:00", "image": "https://www.riverisland.com/Assets/RiverIsland/Core/images/logo.png", "brand": "RIVER ISLAND", "brand:wikidata": "Q2670328", "nsi_id": "riverisland-a754e7"}, "geometry": {"type": "Point", "coordinates": [-1.543297, 53.798414]}},
{"type": "Feature", "id": "USc63P42DP7B8GFkguFprauZ75s=", "properties": {"ref": "https://www.riverisland.com/how-can-we-help/find-a-store/leeds-thorpe-park", "@spider": "riverisland_gb", "shop": "clothes", "addr:street_address": "Unit 13b Leeds Thorpe Park Development", "addr:city": "Leeds", "addr:postcode": "LS15 8ZA", "addr:country": "GB", "name": "River Island LEEDS THORPE PARK", "phone": "+44 (0)330 311 7835", "website": "http://www.riverisland.com/how-can-we-help/find-a-store/leeds-thorpe-park", "image": "https://www.riverisland.com/Assets/RiverIsland/Core/images/logo.png", "brand": "RIVER ISLAND", "brand:wikidata": "Q2670328", "nsi_id": "riverisland-a754e7"}, "geometry": {"type": "Point", "coordinates": [-1.427261, 53.79449]}},
{"type": "Feature", "id": "UkwVeharJZ7CiUvvJBtE1hIakNs=", "properties": {"ref": "https://www.riverisland.com/how-can-we-help/find-a-store/leeds-birstall-park", "@spider": "riverisland_gb", "shop": "clothes", "addr:street_address": "Unit 4a Birstall Retail Park", "addr:city": "West Yorkshire", "addr:state": "Yorkshire and Humber", "addr:postcode": "WF17 9DT", "addr:country": "GB", "name": "River Island LEEDS BIRSTALL PARK", "phone": "+44 (0)344 847 2615", "website": "http://www.riverisland.com/how-can-we-help/find-a-store/leeds-birstall-park", "opening_hours": "Mo-Sa 10:00-19:00; Su 11:00-17:00", "image": "https://www.riverisland.com/Assets/RiverIsland/Core/images/logo.png", "brand": "RIVER ISLAND", "brand:wikidata": "Q2670328", "nsi_id": "riverisland-a754e7"}, "geometry": {"type": "Point", "coordinates": [-1.645403, 53.746103]}},
{"type": "Feature", "id": "8sBHXoYqq3ytCF24dl3h9YX8660=", "properties": {"ref": "https://www.riverisland.com/how-can-we-help/find-a-store/lancaster", "@spider": "riverisland_gb", "shop": "clothes", "addr:street_address": "33-35 Penny Street", "addr:city": "Lancashire", "addr:state": "North West", "addr:postcode": "LA1 1UA", "addr:country": "GB", "name": "River Island LANCASTER", "phone": "+44 (0)344 826 9820", "website": "http://www.riverisland.com/how-can-we-help/find-a-store/lancaster", "opening_hours": "Mo-Fr 09:00-17:30; Sa 09:00-18:00; Su 10:00-16:30", "image": "https://www.riverisland.com/Assets/RiverIsland/Core/images/logo.png", "brand": "RIVER ISLAND", "brand:wikidata": "Q2670328", "nsi_id": "riverisland-a754e7"}, "geometry": {"type": "Point", "coordinates": [-2.7997, 54.047906]}},
{"type": "Feature", "id": "tr3G2JmXiX_FfS_1sQdlU3ThpTg=", "properties": {"ref": "https://www.riverisland.com/how-can-we-help/find-a-store/kirkcaldy", "@spider": "riverisland_gb", "shop": "clothes", "addr:street_address": "158 High Street", "addr:city": "Fife", "addr:state": "Scotland", "addr:postcode": "KY1 1NQ", "addr:country": "GB", "name": "River Island KIRKCALDY", "phone": "+44 (0)344 826 9819", "website": "http://www.riverisland.com/how-can-we-help/find-a-store/kirkcaldy", "opening_hours": "Mo-Sa 09:00-17:30; Su 11:30-16:30", "image": "https://www.riverisland.com/Assets/RiverIsland/Core/images/logo.png", "brand": "RIVER ISLAND", "brand:wikidata": "Q2670328", "nsi_id": "riverisland-a754e7"}, "geometry": {"type": "Point", "coordinates": [-3.157389, 56.110123]}},
{"type": "Feature", "id": "jSvLSZ-SqWpzV7upvLgQLsczgCs=", "properties": {"ref": "https://www.riverisland.com/how-can-we-help/find-a-store/kingston", "@spider": "riverisland_gb", "shop": "clothes", "addr:street_address": "38 Clarence Street", "addr:city": "Surrey", "addr:state": "South East", "addr:postcode": "KT1 1NR", "addr:country": "GB", "name": "River Island KINGSTON", "phone": "+44 (0)344 826 9818", "website": "http://www.riverisland.com/how-can-we-help/find-a-store/kingston", "opening_hours": "Mo-Tu 09:30-18:00; We 09:00-18:30; Th-Fr 09:30-18:00; Sa 09:00-18:00; Su 11:00-17:00", "image": "https://www.riverisland.com/Assets/RiverIsland/Core/images/logo.png", "brand": "RIVER ISLAND", "brand:wikidata": "Q2670328", "nsi_id": "riverisland-a754e7"}, "geometry": {"type": "Point", "coordinates": [-0.303406, 51.410781]}},
{"type": "Feature", "id": "oeEtqxE9AqFoowEcyHwwL1bOEhU=", "properties": {"ref": "https://www.riverisland.com/how-can-we-help/find-a-store/kings-lynn", "@spider": "riverisland_gb", "shop": "clothes", "addr:street_address": "85-86 High Street", "addr:city": "Norfolk", "addr:state": "East", "addr:postcode": "PE30 1BL", "addr:country": "GB", "name": "River Island KINGS LYNN", "phone": "+44 (0)344 826 9817", "website": "http://www.riverisland.com/how-can-we-help/find-a-store/kings-lynn", "opening_hours": "Mo-Sa 09:00-17:30; Su 10:00-16:00", "image": "https://www.riverisland.com/Assets/RiverIsland/Core/images/logo.png", "brand": "RIVER ISLAND", "brand:wikidata": "Q2670328", "nsi_id": "riverisland-a754e7"}, "geometry": {"type": "Point", "coordinates": [0.395075, 52.754314]}},
{"type": "Feature", "id": "0JXrbSP-Etv0HleOVK1ucuXgfVg=", "properties": {"ref": "https://www.riverisland.com/how-can-we-help/find-a-store/kilmarnock", "@spider": "riverisland_gb", "shop": "clothes", "addr:street_address": "98-100 King Street", "addr:city": "Ayrshire", "addr:state": "Scotland", "addr:postcode": "KA1 1PG", "addr:country": "GB", "name": "River Island KILMARNOCK", "phone": "+44 (0)344 847 2598", "website": "http://www.riverisland.com/how-can-we-help/find-a-store/kilmarnock", "opening_hours": "Mo-Sa 09:00-17:30; Su 11:00-16:00", "image": "https://www.riverisland.com/Assets/RiverIsland/Core/images/logo.png", "brand": "RIVER ISLAND", "brand:wikidata": "Q2670328", "nsi_id": "riverisland-a754e7"}, "geometry": {"type": "Point", "coordinates": [-4.496383, 55.606944]}},
{"type": "Feature", "id": "wfx6pjiaPTqMc_0n5kg-CQxCZfU=", "properties": {"ref": "https://www.riverisland.com/how-can-we-help/find-a-store/kilkenny", "@spider": "riverisland_gb", "shop": "clothes", "addr:street_address": "Unit 13", "addr:city": "County Kilkenny", "addr:postcode": "R95 V072", "addr:country": "IE", "name": "River Island KILKENNY", "phone": "+353 (0)567 747 975", "website": "http://www.riverisland.com/how-can-we-help/find-a-store/kilkenny", "opening_hours": "Mo-We 09:30-18:00; Th-Fr 09:30-21:00; Sa 09:30-18:00; Su 12:00-18:00", "image": "https://www.riverisland.com/Assets/RiverIsland/Core/images/logo.png", "brand": "RIVER ISLAND", "brand:wikidata": "Q2670328", "nsi_id": "riverisland-a754e7"}, "geometry": {"type": "Point", "coordinates": [-7.248028, 52.65375]}},
{"type": "Feature", "id": "TMWN8GKh5MgZ7GWjuebCxNckJCA=", "properties": {"ref": "https://www.riverisland.com/how-can-we-help/find-a-store/jersey", "@spider": "riverisland_gb", "shop": "clothes", "addr:street_address": "Voisins Department Store", "addr:city": "St Helier", "addr:state": "Jersey", "addr:postcode": "JE2 4WF", "addr:country": "GB", "name": "River Island JERSEY", "phone": "+44 (0)1534 837162", "website": "http://www.riverisland.com/how-can-we-help/find-a-store/jersey", "opening_hours": "Mo-Sa 09:30-18:00; Su 00:00-24:00", "image": "https://www.riverisland.com/Assets/RiverIsland/Core/images/logo.png", "brand": "RIVER ISLAND", "brand:wikidata": "Q2670328", "nsi_id": "riverisland-a754e7"}, "geometry": {"type": "Point", "coordinates": [-2.106423, 49.184435]}},
{"type": "Feature", "id": "7LsBsmH3Ig1ZiEaGjgML8gd78As=", "properties": {"ref": "https://www.riverisland.com/how-can-we-help/find-a-store/isle-of-man", "@spider": "riverisland_gb", "shop": "clothes", "addr:street_address": "86 Strand Street", "addr:city": "Isle Of Man", "addr:state": "North West", "addr:postcode": "IM1 2EP", "addr:country": "GB", "name": "River Island ISLE OF MAN", "phone": "+44 (0)1624 664 086", "website": "http://www.riverisland.com/how-can-we-help/find-a-store/isle-of-man", "opening_hours": "Mo-Sa 10:00-17:00; Su 11:00-16:00", "image": "https://www.riverisland.com/Assets/RiverIsland/Core/images/logo.png", "brand": "RIVER ISLAND", "brand:wikidata": "Q2670328", "nsi_id": "riverisland-a754e7"}, "geometry": {"type": "Point", "coordinates": [-4.478986, 54.151656]}},
{"type": "Feature", "id": "eeVGrEb4-TkIbo2ioxwRG5BYHN4=", "properties": {"ref": "https://www.riverisland.com/how-can-we-help/find-a-store/ipswich", "@spider": "riverisland_gb", "shop": "clothes", "addr:street_address": "15a Tavern Street", "addr:city": "Suffolk", "addr:state": "East", "addr:postcode": "IP1 3BB", "addr:country": "GB", "name": "River Island IPSWICH", "phone": "+44 (0)344 826 9815", "website": "http://www.riverisland.com/how-can-we-help/find-a-store/ipswich", "opening_hours": "Mo-Th 09:00-17:30; Fr-Sa 09:00-18:00; Su 10:30-16:30", "image": "https://www.riverisland.com/Assets/RiverIsland/Core/images/logo.png", "brand": "RIVER ISLAND", "brand:wikidata": "Q2670328", "nsi_id": "riverisland-a754e7"}, "geometry": {"type": "Point", "coordinates": [1.155472, 52.057564]}},
{"type": "Feature", "id": "0sSU1n9BBbp4Du1i3NOfbif19xs=", "properties": {"ref": "https://www.riverisland.com/how-can-we-help/find-a-store/inverness-shopping-park", "@spider": "riverisland_gb", "shop": "clothes", "addr:street_address": "Unit 1a Eastfields Way", "addr:city": "Inverness-Shire", "addr:postcode": "IV2 7GD", "addr:country": "GB", "name": "River Island INVERNESS SHOPPING PARK", "phone": "+44 (0)330 311 7801", "website": "http://www.riverisland.com/how-can-we-help/find-a-store/inverness-shopping-park", "opening_hours": "Mo-We 10:00-18:00; Th-Fr 10:00-20:00; Sa 09:00-18:00; Su 10:00-17:30", "image": "https://www.riverisland.com/Assets/RiverIsland/Core/images/logo.png", "brand": "RIVER ISLAND", "brand:wikidata": "Q2670328", "nsi_id": "riverisland-a754e7"}, "geometry": {"type": "Point", "coordinates": [-4.176841, 57.482292]}},
{"type": "Feature", "id": "QehXlqYLo_PfHLL0hngZmull6mQ=", "properties": {"ref": "https://www.riverisland.com/how-can-we-help/find-a-store/hull-st-stephens", "@spider": "riverisland_gb", "shop": "clothes", "addr:street_address": "Unit 32", "addr:city": "North Humberside", "addr:state": "Yorkshire and Humber", "addr:postcode": "HU2 8TJ", "addr:country": "GB", "name": "River Island HULL ST STEPHENS", "phone": "+44 (0)344 847 2553", "website": "http://www.riverisland.com/how-can-we-help/find-a-store/hull-st-stephens", "opening_hours": "Mo-We 09:00-18:00; Th 09:00-19:00; Fr-Sa 09:00-18:00; Su 11:00-17:00", "image": "https://www.riverisland.com/Assets/RiverIsland/Core/images/logo.png", "brand": "RIVER ISLAND", "brand:wikidata": "Q2670328", "nsi_id": "riverisland-a754e7"}, "geometry": {"type": "Point", "coordinates": [-0.346011, 53.745328]}},
{"type": "Feature", "id": "SyCvy2cmPIYOP9Ew40gbGwcifzc=", "properties": {"ref": "https://www.riverisland.com/how-can-we-help/find-a-store/huddersfield", "@spider": "riverisland_gb", "shop": "clothes", "addr:street_address": "Unit 4-5", "addr:city": "West Yorkshire", "addr:state": "Yorkshire and Humber", "addr:postcode": "HD1 2QB", "addr:country": "GB", "name": "River Island HUDDERSFIELD", "phone": "+44 (0)344 826 9811", "website": "http://www.riverisland.com/how-can-we-help/find-a-store/huddersfield", "opening_hours": "Mo-Sa 09:00-17:30; Su 10:30-16:30", "image": "https://www.riverisland.com/Assets/RiverIsland/Core/images/logo.png", "brand": "RIVER ISLAND", "brand:wikidata": "Q2670328", "nsi_id": "riverisland-a754e7"}, "geometry": {"type": "Point", "coordinates": [-1.779617, 53.646106]}},
{"type": "Feature", "id": "pjnuEEKHGAj8XmxyZorCijyGie4=", "properties": {"ref": "https://www.riverisland.com/how-can-we-help/find-a-store/hounslow", "@spider": "riverisland_gb", "shop": "clothes", "addr:street_address": "30-32 Treaty Centre", "addr:city": "Middlesex", "addr:state": "South East", "addr:postcode": "TW3 1ES", "addr:country": "GB", "name": "River Island HOUNSLOW", "phone": "+44 (0)344 826 9810", "website": "http://www.riverisland.com/how-can-we-help/find-a-store/hounslow", "opening_hours": "Mo-We 09:30-18:00; Th 09:30-19:00; Fr 09:30-18:00; Sa 09:00-18:00; Su 11:00-17:00", "image": "https://www.riverisland.com/Assets/RiverIsland/Core/images/logo.png", "brand": "RIVER ISLAND", "brand:wikidata": "Q2670328", "nsi_id": "riverisland-a754e7"}, "geometry": {"type": "Point", "coordinates": [-0.363253, 51.467769]}},
{"type": "Feature", "id": "n9jbwGf7DcY4TLRv1ut3ssuF8RI=", "properties": {"ref": "https://www.riverisland.com/how-can-we-help/find-a-store/high-wycombe", "@spider": "riverisland_gb", "shop": "clothes", "addr:street_address": "Unit 41 Zone M4", "addr:city": "Buckinghamshire", "addr:state": "South East", "addr:postcode": "HP11 2NZ", "addr:country": "GB", "name": "River Island HIGH WYCOMBE", "phone": "+44 (0)344 826 9809", "website": "http://www.riverisland.com/how-can-we-help/find-a-store/high-wycombe", "opening_hours": "Mo-Fr 09:30-18:00; Sa 09:00-18:00; Su 11:00-17:00", "image": "https://www.riverisland.com/Assets/RiverIsland/Core/images/logo.png", "brand": "RIVER ISLAND", "brand:wikidata": "Q2670328", "nsi_id": "riverisland-a754e7"}, "geometry": {"type": "Point", "coordinates": [-0.756344, 51.630703]}},
{"type": "Feature", "id": "1ZOrajUGJx-6Zlb1_JpYHT7ApLM=", "properties": {"ref": "https://www.riverisland.com/how-can-we-help/find-a-store/hereford-stock-market", "@spider": "riverisland_gb", "shop": "clothes", "addr:street_address": "Unit 5-6", "addr:city": "Herefordshire", "addr:state": "West Midlands", "addr:postcode": "HR4 9HT", "addr:country": "GB", "name": "River Island HEREFORD STOCK MARKET", "phone": "+44 (0)344 826 9808", "website": "http://www.riverisland.com/how-can-we-help/find-a-store/hereford-stock-market", "opening_hours": "Mo-Fr 09:30-18:00; Sa 09:00-18:00; Su 11:00-17:00", "image": "https://www.riverisland.com/Assets/RiverIsland/Core/images/logo.png", "brand": "RIVER ISLAND", "brand:wikidata": "Q2670328", "nsi_id": "riverisland-a754e7"}, "geometry": {"type": "Point", "coordinates": [-2.717803, 52.058662]}},
{"type": "Feature", "id": "STFghPldzkYdgBvmndRwnek10zY=", "properties": {"ref": "https://www.riverisland.com/how-can-we-help/find-a-store/hartlepool", "@spider": "riverisland_gb", "shop": "clothes", "addr:street_address": "189 Middleton Grange", "addr:city": "Cleveland", "addr:state": "North East", "addr:postcode": "TS24 7RR", "addr:country": "GB", "name": "River Island HARTLEPOOL", "phone": "+44 (0)344 826 9805", "website": "http://www.riverisland.com/how-can-we-help/find-a-store/hartlepool", "opening_hours": "Mo-Sa 09:00-17:30; Su 10:00-16:00", "image": "https://www.riverisland.com/Assets/RiverIsland/Core/images/logo.png", "brand": "RIVER ISLAND", "brand:wikidata": "Q2670328", "nsi_id": "riverisland-a754e7"}, "geometry": {"type": "Point", "coordinates": [-1.213314, 54.684108]}},
{"type": "Feature", "id": "BCyfmBaruBCTTBpjvO_kCsjlxTw=", "properties": {"ref": "https://www.riverisland.com/how-can-we-help/find-a-store/harrogate", "@spider": "riverisland_gb", "shop": "clothes", "addr:street_address": "29-31 Cambridge Street", "addr:city": "North Yorkshire", "addr:state": "Yorkshire and Humber", "addr:postcode": "HG1 1RW", "addr:country": "GB", "name": "River Island HARROGATE", "phone": "+44 (0)344 847 2628", "website": "http://www.riverisland.com/how-can-we-help/find-a-store/harrogate", "opening_hours": "Mo-Sa 09:00-17:30; Su 10:30-16:30", "image": "https://www.riverisland.com/Assets/RiverIsland/Core/images/logo.png", "brand": "RIVER ISLAND", "brand:wikidata": "Q2670328", "nsi_id": "riverisland-a754e7"}, "geometry": {"type": "Point", "coordinates": [-1.53915, 53.993146]}},
{"type": "Feature", "id": "9xv4Y6o1A582OIdSKwi-72shYrk=", "properties": {"ref": "https://www.riverisland.com/how-can-we-help/find-a-store/harlow", "@spider": "riverisland_gb", "shop": "clothes", "addr:street_address": "Unit 5 Water Gardens", "addr:city": "Essex", "addr:state": "East", "addr:postcode": "CM20 1AB", "addr:country": "GB", "name": "River Island HARLOW", "phone": "+44 (0)344 826 9845", "website": "http://www.riverisland.com/how-can-we-help/find-a-store/harlow", "opening_hours": "Mo-Sa 09:00-18:00; Su 10:30-16:30", "image": "https://www.riverisland.com/Assets/RiverIsland/Core/images/logo.png", "brand": "RIVER ISLAND", "brand:wikidata": "Q2670328", "nsi_id": "riverisland-a754e7"}, "geometry": {"type": "Point", "coordinates": [0.094133, 51.76765]}},
{"type": "Feature", "id": "TxGCLCB2S2jVYgabRJC3egF2lWg=", "properties": {"ref": "https://www.riverisland.com/how-can-we-help/find-a-store/hanley", "@spider": "riverisland_gb", "shop": "clothes", "addr:street_address": "3 The Potteries Centre", "addr:city": "Staffordshire", "addr:state": "West Midlands", "addr:postcode": "ST1 1PS", "addr:country": "GB", "name": "River Island HANLEY", "phone": "+44 (0)344 826 9802", "website": "http://www.riverisland.com/how-can-we-help/find-a-store/hanley", "opening_hours": "Mo-Fr 09:00-17:30; Sa 09:00-18:00; Su 10:30-16:30", "image": "https://www.riverisland.com/Assets/RiverIsland/Core/images/logo.png", "brand": "RIVER ISLAND", "brand:wikidata": "Q2670328", "nsi_id": "riverisland-a754e7"}, "geometry": {"type": "Point", "coordinates": [-2.175817, 53.027278]}},
{"type": "Feature", "id": "jUBq4R4ac5bPxJoaCrgFGvlXDNw=", "properties": {"ref": "https://www.riverisland.com/how-can-we-help/find-a-store/halifax", "@spider": "riverisland_gb", "shop": "clothes", "addr:street_address": "7 Woolshops", "addr:city": "Yorkshire", "addr:state": "Yorkshire and Humber", "addr:postcode": "HX1 1RU", "addr:country": "GB", "name": "River Island HALIFAX", "phone": "+44 (0)344 826 9799", "website": "http://www.riverisland.com/how-can-we-help/find-a-store/halifax", "opening_hours": "Mo-Sa 09:00-17:30; Su 10:30-16:30", "image": "https://www.riverisland.com/Assets/RiverIsland/Core/images/logo.png", "brand": "RIVER ISLAND", "brand:wikidata": "Q2670328", "nsi_id": "riverisland-a754e7"}, "geometry": {"type": "Point", "coordinates": [-1.857914, 53.723417]}},
{"type": "Feature", "id": "Oo4lIYptGUVmovhRtU2vDvtergw=", "properties": {"ref": "https://www.riverisland.com/how-can-we-help/find-a-store/guildford", "@spider": "riverisland_gb", "shop": "clothes", "addr:street_address": "Unit Msu3", "addr:city": "Surrey", "addr:state": "South East", "addr:postcode": "GU1 4YT", "addr:country": "GB", "name": "River Island GUILDFORD", "phone": "+44 (0)344 826 9798", "website": "http://www.riverisland.com/how-can-we-help/find-a-store/guildford", "opening_hours": "Mo-We 09:00-18:00; Th 09:00-20:00; Fr-Sa 09:00-18:00; Su 11:00-17:00", "image": "https://www.riverisland.com/Assets/RiverIsland/Core/images/logo.png", "brand": "RIVER ISLAND", "brand:wikidata": "Q2670328", "nsi_id": "riverisland-a754e7"}, "geometry": {"type": "Point", "coordinates": [-0.576649, 51.236959]}},
{"type": "Feature", "id": "I5ZFZqBwLYBaOjwzY-2MNyb9934=", "properties": {"ref": "https://www.riverisland.com/how-can-we-help/find-a-store/grimsby", "@spider": "riverisland_gb", "shop": "clothes", "addr:street_address": "Unit 12-13 Baxter Square", "addr:city": "South Humberside", "addr:state": "Yorkshire and Humber", "addr:postcode": "DN31 1QQ", "addr:country": "GB", "name": "River Island GRIMSBY", "phone": "+44 (0)344 826 9797", "website": "http://www.riverisland.com/how-can-we-help/find-a-store/grimsby", "opening_hours": "Mo-Sa 09:00-17:30; Su 10:30-16:30", "image": "https://www.riverisland.com/Assets/RiverIsland/Core/images/logo.png", "brand": "RIVER ISLAND", "brand:wikidata": "Q2670328", "nsi_id": "riverisland-a754e7"}, "geometry": {"type": "Point", "coordinates": [-0.086261, 53.566025]}},
{"type": "Feature", "id": "d0VTBlgrGuOxsmkv314uUNPB4_E=", "properties": {"ref": "https://www.riverisland.com/how-can-we-help/find-a-store/great-yarmouth", "@spider": "riverisland_gb", "shop": "clothes", "addr:street_address": "179 Kings Street", "addr:city": "Norfolk", "addr:state": "East", "addr:postcode": "NR30 1LS", "addr:country": "GB", "name": "River Island GREAT YARMOUTH", "phone": "+44 (0)344 826 9795", "website": "http://www.riverisland.com/how-can-we-help/find-a-store/great-yarmouth", "opening_hours": "Mo-Fr 09:00-17:30; Sa 09:00-18:00; Su 10:00-16:00", "image": "https://www.riverisland.com/Assets/RiverIsland/Core/images/logo.png", "brand": "RIVER ISLAND", "brand:wikidata": "Q2670328", "nsi_id": "riverisland-a754e7"}, "geometry": {"type": "Point", "coordinates": [1.727044, 52.607053]}},
{"type": "Feature", "id": "JRhTdFRMqSZUrc4mwTHMBECEeQU=", "properties": {"ref": "https://www.riverisland.com/how-can-we-help/find-a-store/gloucester", "@spider": "riverisland_gb", "shop": "clothes", "addr:street_address": "32 Kings Walk", "addr:city": "Gloucestershire", "addr:state": "South West", "addr:postcode": "GL1 1EA", "addr:country": "GB", "name": "River Island GLOUCESTER", "phone": "+44 (0)344 826 9794", "website": "http://www.riverisland.com/how-can-we-help/find-a-store/gloucester", "opening_hours": "Mo-Sa 09:00-17:30; Su 10:30-16:30", "image": "https://www.riverisland.com/Assets/RiverIsland/Core/images/logo.png", "brand": "RIVER ISLAND", "brand:wikidata": "Q2670328", "nsi_id": "riverisland-a754e7"}, "geometry": {"type": "Point", "coordinates": [-2.241817, 51.865072]}},
{"type": "Feature", "id": "EkED2QvtM5tBTb5D75MQ3sq2XKU=", "properties": {"ref": "https://www.riverisland.com/how-can-we-help/find-a-store/glasgow-silverburn", "@spider": "riverisland_gb", "shop": "clothes", "addr:street_address": "Unit 25 Silverburn Centre", "addr:city": "Glasgow", "addr:state": "Scotland", "addr:postcode": "G53 6AG", "addr:country": "GB", "name": "River Island GLASGOW SILVERBURN", "phone": "+44 (0)344 847 2597", "website": "http://www.riverisland.com/how-can-we-help/find-a-store/glasgow-silverburn", "opening_hours": "Mo-Fr 10:00-19:00; Sa 09:00-18:00; Su 11:00-18:00", "image": "https://www.riverisland.com/Assets/RiverIsland/Core/images/logo.png", "brand": "RIVER ISLAND", "brand:wikidata": "Q2670328", "nsi_id": "riverisland-a754e7"}, "geometry": {"type": "Point", "coordinates": [-4.342458, 55.822436]}},
{"type": "Feature", "id": "xsKcZ-7IzY9ccYMFjFvumlBIAuA=", "properties": {"ref": "https://www.riverisland.com/how-can-we-help/find-a-store/glasgow-parkhead", "@spider": "riverisland_gb", "shop": "clothes", "addr:street_address": "8b Forge Parkhead Centre", "addr:city": "Lanarkshire", "addr:state": "Scotland", "addr:postcode": "G31 4EB", "addr:country": "GB", "name": "River Island GLASGOW PARKHEAD", "phone": "+44 (0)344 826 9793", "website": "http://www.riverisland.com/how-can-we-help/find-a-store/glasgow-parkhead", "opening_hours": "Mo-Sa 09:00-17:30; Su 11:00-17:00", "image": "https://www.riverisland.com/Assets/RiverIsland/Core/images/logo.png", "brand": "RIVER ISLAND", "brand:wikidata": "Q2670328", "nsi_id": "riverisland-a754e7"}, "geometry": {"type": "Point", "coordinates": [-4.199861, 55.853486]}},
{"type": "Feature", "id": "joGzsLzOwzUkZLpsVz6uUAVPZQI=", "properties": {"ref": "https://www.riverisland.com/how-can-we-help/find-a-store/glasgow-fort", "@spider": "riverisland_gb", "shop": "clothes", "addr:street_address": "Unit 33 Glasgow Fort", "addr:city": "Lanarkshire", "addr:state": "Scotland", "addr:postcode": "G34 9DL", "addr:country": "GB", "name": "River Island GLASGOW FORT", "phone": "+44 (0)344 826 9792", "website": "http://www.riverisland.com/how-can-we-help/find-a-store/glasgow-fort", "opening_hours": "Mo-Fr 09:30-20:00; Sa 09:00-18:00; Su 10:00-18:00", "image": "https://www.riverisland.com/Assets/RiverIsland/Core/images/logo.png", "brand": "RIVER ISLAND", "brand:wikidata": "Q2670328", "nsi_id": "riverisland-a754e7"}, "geometry": {"type": "Point", "coordinates": [-4.136486, 55.873145]}},
{"type": "Feature", "id": "DRJOz9EpMLy-l2akcyxzpMdVcEM=", "properties": {"ref": "https://www.riverisland.com/how-can-we-help/find-a-store/glasgow-buchanan", "@spider": "riverisland_gb", "shop": "clothes", "addr:street_address": "Unit 10-11 Buchanan Galleries", "addr:city": "Glasgow", "addr:state": "Scotland", "addr:postcode": "G1 2GF", "addr:country": "GB", "name": "River Island GLASGOW BUCHANAN", "phone": "+44 (0)344 826 9791", "website": "http://www.riverisland.com/how-can-we-help/find-a-store/glasgow-buchanan", "opening_hours": "Mo-Fr 09:30-17:30; Sa 09:00-18:00; Su 11:00-17:00", "image": "https://www.riverisland.com/Assets/RiverIsland/Core/images/logo.png", "brand": "RIVER ISLAND", "brand:wikidata": "Q2670328", "nsi_id": "riverisland-a754e7"}, "geometry": {"type": "Point", "coordinates": [-4.252833, 55.864492]}},
{"type": "Feature", "id": "lvNmllTfuW_fb4I31BG6v4P99Io=", "properties": {"ref": "https://www.riverisland.com/how-can-we-help/find-a-store/glasgow-braehead-kids", "@spider": "riverisland_gb", "shop": "clothes", "addr:street_address": "Unit 7, Braehead Centre", "addr:city": "Glasgow", "addr:postcode": "G51 4BP", "addr:country": "GB", "name": "River Island GLASGOW BRAEHEAD KIDS", "phone": "+44 (0)330 311 7813", "website": "http://www.riverisland.com/how-can-we-help/find-a-store/glasgow-braehead-kids", "opening_hours": "Mo-Fr 10:00-20:00; Sa 09:00-18:30; Su 10:00-18:00", "image": "https://www.riverisland.com/Assets/RiverIsland/Core/images/logo.png", "brand": "RIVER ISLAND", "brand:wikidata": "Q2670328", "nsi_id": "riverisland-a754e7"}, "geometry": {"type": "Point", "coordinates": [-4.364827, 55.875904]}},
{"type": "Feature", "id": "JsZpierwa4XZMzlZ1PI7S3LX8ME=", "properties": {"ref": "https://www.riverisland.com/how-can-we-help/find-a-store/glasgow-braehead", "@spider": "riverisland_gb", "shop": "clothes", "addr:street_address": "Unit Lr 41", "addr:city": "Glasgow", "addr:state": "Scotland", "addr:postcode": "G51 4BP", "addr:country": "GB", "name": "River Island GLASGOW BRAEHEAD", "phone": "+44 (0)344 826 9790", "website": "http://www.riverisland.com/how-can-we-help/find-a-store/glasgow-braehead", "opening_hours": "Mo-Fr 10:00-20:00; Sa 09:00-18:30; Su 10:00-18:00", "image": "https://www.riverisland.com/Assets/RiverIsland/Core/images/logo.png", "brand": "RIVER ISLAND", "brand:wikidata": "Q2670328", "nsi_id": "riverisland-a754e7"}, "geometry": {"type": "Point", "coordinates": [-4.364827, 55.875904]}},
{"type": "Feature", "id": "tvDTbVzQYQkxCYTRhOoEjxq1uZU=", "properties": {"ref": "https://www.riverisland.com/how-can-we-help/find-a-store/glasgow-argyle-street", "@spider": "riverisland_gb", "shop": "clothes", "addr:street_address": "20-24 Argyle Street", "addr:city": "Lanarkshire", "addr:state": "Scotland", "addr:postcode": "G2 8AD", "addr:country": "GB", "name": "River Island GLASGOW ARGYLE STREET", "phone": "+44 (0)344 395 1006", "website": "http://www.riverisland.com/how-can-we-help/find-a-store/glasgow-argyle-street", "opening_hours": "Mo-We 09:00-17:30; Th-Sa 09:00-18:00; Su 11:00-17:00", "image": "https://www.riverisland.com/Assets/RiverIsland/Core/images/logo.png", "brand": "RIVER ISLAND", "brand:wikidata": "Q2670328", "nsi_id": "riverisland-a754e7"}, "geometry": {"type": "Point", "coordinates": [-4.250564, 55.85775]}},
{"type": "Feature", "id": "fDHKvxclmb3_WmGTCoy3abCFl00=", "properties": {"ref": "https://www.riverisland.com/how-can-we-help/find-a-store/gateshead", "@spider": "riverisland_gb", "shop": "clothes", "addr:street_address": "Unit 7 - 8", "addr:city": "Tyne And Wear", "addr:state": "North East", "addr:postcode": "NE11 9YG", "addr:country": "GB", "name": "River Island GATESHEAD", "phone": "+44 (0)344 826 9789", "website": "http://www.riverisland.com/how-can-we-help/find-a-store/gateshead", "opening_hours": "Mo-Fr 09:00-21:00; Sa 09:00-19:00; Su 11:00-17:00", "image": "https://www.riverisland.com/Assets/RiverIsland/Core/images/logo.png", "brand": "RIVER ISLAND", "brand:wikidata": "Q2670328", "nsi_id": "riverisland-a754e7"}, "geometry": {"type": "Point", "coordinates": [-1.667572, 54.957008]}},
{"type": "Feature", "id": "hXfU0Y53i320dcy3HFW0VxjIbj0=", "properties": {"ref": "https://www.riverisland.com/how-can-we-help/find-a-store/galway", "@spider": "riverisland_gb", "shop": "clothes", "addr:street_address": "14-15 Shop Street", "addr:city": "Galway", "addr:postcode": "H91 Y667", "addr:country": "IE", "name": "River Island GALWAY", "phone": "+353 (0)913 99945", "website": "http://www.riverisland.com/how-can-we-help/find-a-store/galway", "opening_hours": "Mo-We 09:30-18:00; Th-Fr 09:30-19:00; Sa 09:00-18:00; Su 12:00-18:00", "image": "https://www.riverisland.com/Assets/RiverIsland/Core/images/logo.png", "brand": "RIVER ISLAND", "brand:wikidata": "Q2670328", "nsi_id": "riverisland-a754e7"}, "geometry": {"type": "Point", "coordinates": [-9.052792, 53.272894]}},
{"type": "Feature", "id": "Kkrdyiraw97h4CN-6F0RqOYlP2k=", "properties": {"ref": "https://www.riverisland.com/how-can-we-help/find-a-store/fareham-whiteley", "@spider": "riverisland_gb", "shop": "clothes", "addr:street_address": "U A4  Whiteley Shopping Centre", "addr:city": "Hants", "addr:state": "South East", "addr:postcode": "PO15 7PD", "addr:country": "GB", "name": "River Island FAREHAM WHITELEY", "phone": "+44 (0)344 334 0536", "website": "http://www.riverisland.com/how-can-we-help/find-a-store/fareham-whiteley", "opening_hours": "Mo-Sa 09:00-19:00; Su 10:30-16:30", "image": "https://www.riverisland.com/Assets/RiverIsland/Core/images/logo.png", "brand": "RIVER ISLAND", "brand:wikidata": "Q2670328", "nsi_id": "riverisland-a754e7"}, "geometry": {"type": "Point", "coordinates": [-1.243362, 50.881074]}},
{"type": "Feature", "id": "mZCe1Ko1Tqk6Ka2d7oIeK-J9pJI=", "properties": {"ref": "https://www.riverisland.com/how-can-we-help/find-a-store/falkirk", "@spider": "riverisland_gb", "shop": "clothes", "addr:street_address": "Unit C Howgate Shopping Centre", "addr:city": "Stirlingshire", "addr:state": "Scotland", "addr:postcode": "FK1 1HG", "addr:country": "GB", "name": "River Island FALKIRK", "phone": "+44 (0)344 826 9786", "website": "http://www.riverisland.com/how-can-we-help/find-a-store/falkirk", "opening_hours": "Mo-We 09:30-17:30; Th-Sa 09:00-17:30; Su 11:00-16:30", "image": "https://www.riverisland.com/Assets/RiverIsland/Core/images/logo.png", "brand": "RIVER ISLAND", "brand:wikidata": "Q2670328", "nsi_id": "riverisland-a754e7"}, "geometry": {"type": "Point", "coordinates": [-3.786769, 55.998802]}},
{"type": "Feature", "id": "55qIm1jLyaGX-SDqiIx8XJds0GE=", "properties": {"ref": "https://www.riverisland.com/how-can-we-help/find-a-store/exeter", "@spider": "riverisland_gb", "shop": "clothes", "addr:street_address": "Units 1-2 Princesshay", "addr:city": "Devon", "addr:state": "South West", "addr:postcode": "EX4 3LF", "addr:country": "GB", "name": "River Island EXETER", "phone": "+44 (0)344 826 9785", "website": "http://www.riverisland.com/how-can-we-help/find-a-store/exeter", "opening_hours": "Mo-We 09:00-18:00; Th 09:00-19:00; Fr-Sa 09:00-18:00; Su 10:30-17:00", "image": "https://www.riverisland.com/Assets/RiverIsland/Core/images/logo.png", "brand": "RIVER ISLAND", "brand:wikidata": "Q2670328", "nsi_id": "riverisland-a754e7"}, "geometry": {"type": "Point", "coordinates": [-3.528256, 50.724894]}},
{"type": "Feature", "id": "ZTbpV22RNaEKvLGzN59JbOLXcik=", "properties": {"ref": "https://www.riverisland.com/how-can-we-help/find-a-store/enniskillen", "@spider": "riverisland_gb", "shop": "clothes", "addr:street_address": "Unit 5-6", "addr:city": "County Fermanagh", "addr:state": "Northern Ireland", "addr:postcode": "BT74 6JQ", "addr:country": "GB", "name": "River Island ENNISKILLEN", "phone": "+44 (0)344 847 2621", "website": "http://www.riverisland.com/how-can-we-help/find-a-store/enniskillen", "opening_hours": "Mo-We 09:00-18:00; Th-Fr 09:00-21:00; Sa 09:00-18:00; Su 13:00-18:00", "image": "https://www.riverisland.com/Assets/RiverIsland/Core/images/logo.png", "brand": "RIVER ISLAND", "brand:wikidata": "Q2670328", "nsi_id": "riverisland-a754e7"}, "geometry": {"type": "Point", "coordinates": [-7.635261, 54.342497]}},
{"type": "Feature", "id": "jN_w_o7R9UPu_vPSJzGbbavPVus=", "properties": {"ref": "https://www.riverisland.com/how-can-we-help/find-a-store/enfield", "@spider": "riverisland_gb", "shop": "clothes", "addr:street_address": "Unit 13", "addr:city": "Middlesex", "addr:state": "South East", "addr:postcode": "EN2 6SN", "addr:country": "GB", "name": "River Island ENFIELD", "phone": "+44 (0)344 826 9784", "website": "http://www.riverisland.com/how-can-we-help/find-a-store/enfield", "opening_hours": "Mo-We 09:00-17:30; Th 09:00-18:00; Fr 09:00-17:30; Sa 09:00-18:00; Su 10:30-16:30", "image": "https://www.riverisland.com/Assets/RiverIsland/Core/images/logo.png", "brand": "RIVER ISLAND", "brand:wikidata": "Q2670328", "nsi_id": "riverisland-a754e7"}, "geometry": {"type": "Point", "coordinates": [-0.082449, 51.651273]}},
{"type": "Feature", "id": "1E16bHC7a-xzGtUgi1pjqWe_BOg=", "properties": {"ref": "https://www.riverisland.com/how-can-we-help/find-a-store/edinburgh-princes-street", "@spider": "riverisland_gb", "shop": "clothes", "addr:street_address": "111 Princes Street", "addr:city": "Midlothian", "addr:state": "Scotland", "addr:postcode": "EH2 3AA", "addr:country": "GB", "name": "River Island EDINBURGH PRINCES STREET", "phone": "+44 (0)344 826 9782", "website": "http://www.riverisland.com/how-can-we-help/find-a-store/edinburgh-princes-street", "opening_hours": "Mo-Fr 10:00-18:00; Sa 09:00-18:00; Su 11:00-17:30", "image": "https://www.riverisland.com/Assets/RiverIsland/Core/images/logo.png", "brand": "RIVER ISLAND", "brand:wikidata": "Q2670328", "nsi_id": "riverisland-a754e7"}, "geometry": {"type": "Point", "coordinates": [-3.201158, 55.951425]}},
{"type": "Feature", "id": "TGElCdInFKGKzmHN0vFDP9flsRw=", "properties": {"ref": "https://www.riverisland.com/how-can-we-help/find-a-store/edinburgh-gyle", "@spider": "riverisland_gb", "shop": "clothes", "addr:street_address": "Units 18-19 Gyle Centre", "addr:city": "Midlothian", "addr:state": "Scotland", "addr:postcode": "EH12 9JT", "addr:country": "GB", "name": "River Island EDINBURGH GYLE", "phone": "+44 (0)344 826 9781", "website": "http://www.riverisland.com/how-can-we-help/find-a-store/edinburgh-gyle", "opening_hours": "Mo-Fr 09:30-17:30; Sa 09:00-18:00; Su 11:00-17:30", "image": "https://www.riverisland.com/Assets/RiverIsland/Core/images/logo.png", "brand": "RIVER ISLAND", "brand:wikidata": "Q2670328", "nsi_id": "riverisland-a754e7"}, "geometry": {"type": "Point", "coordinates": [-3.314328, 55.938586]}},
{"type": "Feature", "id": "EPa8fJibFvEkn0A91nNCJqT0BXk=", "properties": {"ref": "https://www.riverisland.com/how-can-we-help/find-a-store/edinburgh-fort-kinnaird", "@spider": "riverisland_gb", "shop": "clothes", "addr:street_address": "Unit 11b", "addr:city": "Midlothian", "addr:state": "Scotland", "addr:postcode": "EH15 3RH", "addr:country": "GB", "name": "River Island EDINBURGH FORT KINNAIRD", "phone": "+44 (0)344 847 2614", "website": "http://www.riverisland.com/how-can-we-help/find-a-store/edinburgh-fort-kinnaird", "opening_hours": "Mo-Fr 09:00-20:00; Sa 09:00-18:00; Su 10:00-18:00", "image": "https://www.riverisland.com/Assets/RiverIsland/Core/images/logo.png", "brand": "RIVER ISLAND", "brand:wikidata": "Q2670328", "nsi_id": "riverisland-a754e7"}, "geometry": {"type": "Point", "coordinates": [-3.108731, 55.932286]}},
{"type": "Feature", "id": "OqKuYDkIDDGqotW73bg343T3PW4=", "properties": {"ref": "https://www.riverisland.com/how-can-we-help/find-a-store/eastbourne", "@spider": "riverisland_gb", "shop": "clothes", "addr:street_address": "Unit 13-14", "addr:city": "East Sussex", "addr:state": "South East", "addr:postcode": "BN21 3NW", "addr:country": "GB", "name": "River Island EASTBOURNE", "phone": "+44 (0)344 334 0532", "website": "http://www.riverisland.com/how-can-we-help/find-a-store/eastbourne", "opening_hours": "Mo-Th 09:00-17:30; Fr-Sa 09:00-18:00; Su 10:30-16:30", "image": "https://www.riverisland.com/Assets/RiverIsland/Core/images/logo.png", "brand": "RIVER ISLAND", "brand:wikidata": "Q2670328", "nsi_id": "riverisland-a754e7"}, "geometry": {"type": "Point", "coordinates": [0.285339, 50.76961]}},
{"type": "Feature", "id": "hs1NuZsO6SM9yPOYUCdnmkodigw=", "properties": {"ref": "https://www.riverisland.com/how-can-we-help/find-a-store/east-kilbride", "@spider": "riverisland_gb", "shop": "clothes", "addr:street_address": "Unit 10 Centre West", "addr:city": "Lanarkshire", "addr:state": "Scotland", "addr:postcode": "G74 1LL", "addr:country": "GB", "name": "River Island EAST KILBRIDE", "phone": "+44 (0)344 826 9780", "website": "http://www.riverisland.com/how-can-we-help/find-a-store/east-kilbride", "opening_hours": "Mo-We 09:00-18:00; Th 09:00-20:00; Fr-Sa 09:00-18:00; Su 10:00-18:00", "image": "https://www.riverisland.com/Assets/RiverIsland/Core/images/logo.png", "brand": "RIVER ISLAND", "brand:wikidata": "Q2670328", "nsi_id": "riverisland-a754e7"}, "geometry": {"type": "Point", "coordinates": [-4.183642, 55.760236]}},
{"type": "Feature", "id": "CJyuGLwKadmZTegckq1ul1M2QM4=", "properties": {"ref": "https://www.riverisland.com/how-can-we-help/find-a-store/ealing", "@spider": "riverisland_gb", "shop": "clothes", "addr:street_address": "Unit 28-30", "addr:city": "London", "addr:state": "London", "addr:postcode": "W5 5JY", "addr:country": "GB", "name": "River Island EALING", "phone": "+44 (0)344 826 9778", "website": "http://www.riverisland.com/how-can-we-help/find-a-store/ealing", "opening_hours": "Mo-We 09:30-18:00; Th-Fr 09:30-19:00; Sa 09:00-18:30; Su 10:30-17:00", "image": "https://www.riverisland.com/Assets/RiverIsland/Core/images/logo.png", "brand": "RIVER ISLAND", "brand:wikidata": "Q2670328", "nsi_id": "riverisland-a754e7"}, "geometry": {"type": "Point", "coordinates": [-0.303664, 51.512917]}},
{"type": "Feature", "id": "loOOOvT-fv9ApS6HCZP4tGn-3jE=", "properties": {"ref": "https://www.riverisland.com/how-can-we-help/find-a-store/durham-arnison-centre", "@spider": "riverisland_gb", "shop": "clothes", "addr:street_address": "Unit 4 Abbey Road", "addr:city": "Durham", "addr:postcode": "DH1 5GB", "addr:country": "GB", "name": "River Island DURHAM ARNISON CENTRE", "phone": "+44 (0)330 311 7803", "website": "http://www.riverisland.com/how-can-we-help/find-a-store/durham-arnison-centre", "opening_hours": "Mo-Fr 09:00-19:30; Sa 09:00-18:30; Su 10:30-16:30", "image": "https://www.riverisland.com/Assets/RiverIsland/Core/images/logo.png", "brand": "RIVER ISLAND", "brand:wikidata": "Q2670328", "nsi_id": "riverisland-a754e7"}, "geometry": {"type": "Point", "coordinates": [-1.580555, 54.807222]}},
{"type": "Feature", "id": "lJeCk6PZynGYhfXlyNlno97FbsU=", "properties": {"ref": "https://www.riverisland.com/how-can-we-help/find-a-store/dunfermline", "@spider": "riverisland_gb", "shop": "clothes", "addr:street_address": "Unit Lg10 &amp;amp; 11", "addr:city": "Fife", "addr:state": "Scotland", "addr:postcode": "KY12 7NF", "addr:country": "GB", "name": "River Island DUNFERMLINE", "phone": "+44 (0)344 826 9775", "website": "http://www.riverisland.com/how-can-we-help/find-a-store/dunfermline", "opening_hours": "Mo-Sa 09:00-17:30; Su 11:30-16:30", "image": "https://www.riverisland.com/Assets/RiverIsland/Core/images/logo.png", "brand": "RIVER ISLAND", "brand:wikidata": "Q2670328", "nsi_id": "riverisland-a754e7"}, "geometry": {"type": "Point", "coordinates": [-3.45897, 56.072344]}},
{"type": "Feature", "id": "yRHpx_iltjhOx_JuTnk1UEOPcUo=", "properties": {"ref": "https://www.riverisland.com/how-can-we-help/find-a-store/dundee", "@spider": "riverisland_gb", "shop": "clothes", "addr:street_address": "Unit L4  West Mall", "addr:city": "Angus", "addr:state": "Scotland", "addr:postcode": "DD1 1UF", "addr:country": "GB", "name": "River Island DUNDEE", "phone": "+44 (0)344 826 9774", "website": "http://www.riverisland.com/how-can-we-help/find-a-store/dundee", "opening_hours": "Mo-Sa 09:00-18:00; Su 11:00-17:00", "image": "https://www.riverisland.com/Assets/RiverIsland/Core/images/logo.png", "brand": "RIVER ISLAND", "brand:wikidata": "Q2670328", "nsi_id": "riverisland-a754e7"}, "geometry": {"type": "Point", "coordinates": [-2.972678, 56.460092]}},
{"type": "Feature", "id": "m7rFVL6Fls8UkmNw8J9WokrnJuE=", "properties": {"ref": "https://www.riverisland.com/how-can-we-help/find-a-store/dundalk", "@spider": "riverisland_gb", "shop": "clothes", "addr:street_address": "Unit 4 The Marshes Shop Ctr", "addr:city": "County Louth", "addr:postcode": "A91 A788", "addr:country": "IE", "name": "River Island DUNDALK", "phone": "+353 (0)429 343 983", "website": "http://www.riverisland.com/how-can-we-help/find-a-store/dundalk", "opening_hours": "Mo-Tu 09:00-18:00; We 09:00-19:00; Th-Fr 09:00-21:00; Sa 09:00-19:00; Su 12:00-18:00", "image": "https://www.riverisland.com/Assets/RiverIsland/Core/images/logo.png", "brand": "RIVER ISLAND", "brand:wikidata": "Q2670328", "nsi_id": "riverisland-a754e7"}, "geometry": {"type": "Point", "coordinates": [-6.399011, 54.001625]}},
{"type": "Feature", "id": "W6H8otKHYYqV0G-wNPfErcMY1jk=", "properties": {"ref": "https://www.riverisland.com/how-can-we-help/find-a-store/dumfries", "@spider": "riverisland_gb", "shop": "clothes", "addr:street_address": "68 - 70 High Street", "addr:city": "Dumfrieshire", "addr:state": "Scotland", "addr:postcode": "DG1 2BS", "addr:country": "GB", "name": "River Island DUMFRIES", "phone": "+44 (0)344 826 9773", "website": "http://www.riverisland.com/how-can-we-help/find-a-store/dumfries", "opening_hours": "Mo-Sa 09:00-17:30; Su 11:00-16:00", "image": "https://www.riverisland.com/Assets/RiverIsland/Core/images/logo.png", "brand": "RIVER ISLAND", "brand:wikidata": "Q2670328", "nsi_id": "riverisland-a754e7"}, "geometry": {"type": "Point", "coordinates": [-3.60955, 55.067497]}},
{"type": "Feature", "id": "54BDe6G0iAPVZUr6_TbYYYZ1rdM=", "properties": {"ref": "https://www.riverisland.com/how-can-we-help/find-a-store/dudley-merryhill", "@spider": "riverisland_gb", "shop": "clothes", "addr:street_address": "Unit Msu2 Merryhill", "addr:city": "West Midlands", "addr:state": "West Midlands", "addr:postcode": "DY5 1QX", "addr:country": "GB", "name": "River Island DUDLEY MERRYHILL", "phone": "+44 (0)344 395 1005", "website": "http://www.riverisland.com/how-can-we-help/find-a-store/dudley-merryhill", "opening_hours": "Mo-Fr 09:00-21:00; Sa 09:00-19:00; Su 11:00-17:00", "image": "https://www.riverisland.com/Assets/RiverIsland/Core/images/logo.png", "brand": "RIVER ISLAND", "brand:wikidata": "Q2670328", "nsi_id": "riverisland-a754e7"}, "geometry": {"type": "Point", "coordinates": [-2.110478, 52.482264]}},
{"type": "Feature", "id": "tHorliEeSIUFFyA922lRaR1f5P8=", "properties": {"ref": "https://www.riverisland.com/how-can-we-help/find-a-store/dublin-swords", "@spider": "riverisland_gb", "shop": "clothes", "addr:street_address": "Unit 21-22 Swords Pavilions", "addr:city": "Dublin", "addr:postcode": "K67 N935", "addr:country": "IE", "name": "River Island DUBLIN SWORDS", "phone": "+353 (0)168 56536", "website": "http://www.riverisland.com/how-can-we-help/find-a-store/dublin-swords", "opening_hours": "Mo-We 09:30-18:00; Th-Fr 09:30-21:00; Sa 09:30-18:00; Su 11:00-18:00", "image": "https://www.riverisland.com/Assets/RiverIsland/Core/images/logo.png", "brand": "RIVER ISLAND", "brand:wikidata": "Q2670328", "nsi_id": "riverisland-a754e7"}, "geometry": {"type": "Point", "coordinates": [-6.218685, 53.45386]}},
{"type": "Feature", "id": "_9mF_p9bTYRlhi_aXbSmKV27kvg=", "properties": {"ref": "https://www.riverisland.com/how-can-we-help/find-a-store/dublin-liffey-valley", "@spider": "riverisland_gb", "shop": "clothes", "addr:street_address": "Unit 69-70 Liffey Valley Centre", "addr:city": "County Dublin", "addr:postcode": "D22 XY04", "addr:country": "IE", "name": "River Island DUBLIN LIFFEY VALLEY", "phone": "+353 (0)190 23092", "website": "http://www.riverisland.com/how-can-we-help/find-a-store/dublin-liffey-valley", "opening_hours": "Mo-Tu 09:30-19:00; We-Fr 09:30-21:00; Sa 09:30-19:00; Su 11:00-19:00", "image": "https://www.riverisland.com/Assets/RiverIsland/Core/images/logo.png", "brand": "RIVER ISLAND", "brand:wikidata": "Q2670328", "nsi_id": "riverisland-a754e7"}, "geometry": {"type": "Point", "coordinates": [-6.406258, 53.350433]}},
{"type": "Feature", "id": "rvL7GqK8Ari1dZ0vCJfpBkRAD50=", "properties": {"ref": "https://www.riverisland.com/how-can-we-help/find-a-store/dublin-ilac", "@spider": "riverisland_gb", "shop": "clothes", "addr:street_address": "Unit C1-C7 Ilac Shopping Centre", "addr:city": "Dublin 1", "addr:postcode": "D01 T202", "addr:country": "IE", "name": "River Island DUBLIN ILAC", "phone": "+353 (0)151 43906", "website": "http://www.riverisland.com/how-can-we-help/find-a-store/dublin-ilac", "opening_hours": "Mo-We 09:00-19:00; Th 09:00-21:00; Fr-Sa 09:00-19:00; Su 11:00-19:00", "image": "https://www.riverisland.com/Assets/RiverIsland/Core/images/logo.png", "brand": "RIVER ISLAND", "brand:wikidata": "Q2670328", "nsi_id": "riverisland-a754e7"}, "geometry": {"type": "Point", "coordinates": [-6.265015, 53.349443]}},
{"type": "Feature", "id": "dBTsquG6z2xpnZEsg3aoZy327Sc=", "properties": {"ref": "https://www.riverisland.com/how-can-we-help/find-a-store/dublin-grafton-street", "@spider": "riverisland_gb", "shop": "clothes", "addr:street_address": "102-103 Grafton Street", "addr:city": "Dublin 2", "addr:postcode": "D02 KV79", "addr:country": "IE", "name": "River Island DUBLIN GRAFTON STREET", "phone": "+353 (0)151 43890", "website": "http://www.riverisland.com/how-can-we-help/find-a-store/dublin-grafton-street", "opening_hours": "Mo-We 09:30-18:30; Th 09:30-20:00; Fr-Sa 09:30-19:00; Su 11:00-18:00", "image": "https://www.riverisland.com/Assets/RiverIsland/Core/images/logo.png", "brand": "RIVER ISLAND", "brand:wikidata": "Q2670328", "nsi_id": "riverisland-a754e7"}, "geometry": {"type": "Point", "coordinates": [-6.260264, 53.341833]}},
{"type": "Feature", "id": "Rsn4zQGlcxuSS1rkPo2FJvfKTiA=", "properties": {"ref": "https://www.riverisland.com/how-can-we-help/find-a-store/dublin-dundrum", "@spider": "riverisland_gb", "shop": "clothes", "addr:street_address": "Unit 35 Level 1 Dundrum Centre", "addr:city": "County Dublin", "addr:postcode": "D15 E642", "addr:country": "IE", "name": "River Island DUBLIN DUNDRUM", "phone": "+353 (0)190 23093", "website": "http://www.riverisland.com/how-can-we-help/find-a-store/dublin-dundrum", "opening_hours": "Mo-Fr 09:00-21:00; Sa 09:00-19:00; Su 10:00-19:00", "image": "https://www.riverisland.com/Assets/RiverIsland/Core/images/logo.png", "brand": "RIVER ISLAND", "brand:wikidata": "Q2670328", "nsi_id": "riverisland-a754e7"}, "geometry": {"type": "Point", "coordinates": [-6.242678, 53.287683]}},
{"type": "Feature", "id": "Ic39rS6llhTv3utHtqaFeKQzPfk=", "properties": {"ref": "https://www.riverisland.com/how-can-we-help/find-a-store/dublin-blanchardstown", "@spider": "riverisland_gb", "shop": "clothes", "addr:street_address": "Unit 301", "addr:city": "County Dublin", "addr:postcode": "D15 E642", "addr:country": "IE", "name": "River Island DUBLIN BLANCHARDSTOWN", "phone": "+353 (0)168 56572", "website": "http://www.riverisland.com/how-can-we-help/find-a-store/dublin-blanchardstown", "opening_hours": "Mo-Tu 09:30-18:00; We-Fr 09:30-21:00; Sa 09:00-19:00; Su 11:00-19:00", "image": "https://www.riverisland.com/Assets/RiverIsland/Core/images/logo.png", "brand": "RIVER ISLAND", "brand:wikidata": "Q2670328", "nsi_id": "riverisland-a754e7"}, "geometry": {"type": "Point", "coordinates": [-6.378672, 53.386028]}},
{"type": "Feature", "id": "yUIfOGsIEZTj5ZtqaDnnja0NQkU=", "properties": {"ref": "https://www.riverisland.com/how-can-we-help/find-a-store/drogheda", "@spider": "riverisland_gb", "shop": "clothes", "addr:street_address": "Units 1-14 And 1-15", "addr:city": "County Louth", "addr:postcode": "A92 R220", "addr:country": "IE", "name": "River Island DROGHEDA", "phone": "+353 (0)412 132 981", "website": "http://www.riverisland.com/how-can-we-help/find-a-store/drogheda", "opening_hours": "Mo-We 09:30-18:00; Th-Fr 09:30-19:00; Sa 09:30-18:00; Su 12:00-18:00", "image": "https://www.riverisland.com/Assets/RiverIsland/Core/images/logo.png", "brand": "RIVER ISLAND", "brand:wikidata": "Q2670328", "nsi_id": "riverisland-a754e7"}, "geometry": {"type": "Point", "coordinates": [-6.354339, 53.716761]}},
{"type": "Feature", "id": "zm7ErWz5ciJGTiF7J2HUP_BXpQA=", "properties": {"ref": "https://www.riverisland.com/how-can-we-help/find-a-store/doncaster", "@spider": "riverisland_gb", "shop": "clothes", "addr:street_address": "Unit 23a", "addr:city": "South Yorkshire", "addr:state": "Yorkshire and Humber", "addr:postcode": "DN1 1LF", "addr:country": "GB", "name": "River Island DONCASTER", "phone": "+44 (0)344 826 9771", "website": "http://www.riverisland.com/how-can-we-help/find-a-store/doncaster", "opening_hours": "Mo-Sa 09:00-17:30; Su 10:00-16:00", "image": "https://www.riverisland.com/Assets/RiverIsland/Core/images/logo.png", "brand": "RIVER ISLAND", "brand:wikidata": "Q2670328", "nsi_id": "riverisland-a754e7"}, "geometry": {"type": "Point", "coordinates": [-1.137164, 53.524097]}},
{"type": "Feature", "id": "ASHLXeOkDAJdF7VHn_JjUzLQEAI=", "properties": {"ref": "https://www.riverisland.com/how-can-we-help/find-a-store/didcot", "@spider": "riverisland_gb", "shop": "clothes", "addr:street_address": "Unit 37", "addr:city": "Didcot", "addr:postcode": "OX11 7LG", "addr:country": "GB", "name": "River Island DIDCOT", "phone": "+44 (0)330 311 7817", "website": "http://www.riverisland.com/how-can-we-help/find-a-store/didcot", "opening_hours": "Mo-Fr 09:00-17:30; Sa 09:00-18:00; Su 10:00-16:00", "image": "https://www.riverisland.com/Assets/RiverIsland/Core/images/logo.png", "brand": "RIVER ISLAND", "brand:wikidata": "Q2670328", "nsi_id": "riverisland-a754e7"}, "geometry": {"type": "Point", "coordinates": [-1.238882, 51.606949]}},
{"type": "Feature", "id": "u500Qf5Fizf7v3h0-liOwoGm0JY=", "properties": {"ref": "https://www.riverisland.com/how-can-we-help/find-a-store/derby", "@spider": "riverisland_gb", "shop": "clothes", "addr:street_address": "Derbion, Units Su202-Su203 &amp;amp; Su301", "addr:city": "Derby", "addr:postcode": "DE1 2PL", "addr:country": "GB", "name": "River Island DERBY", "phone": "(0)344 8269770", "website": "http://www.riverisland.com/how-can-we-help/find-a-store/derby", "opening_hours": "Mo-We 09:00-18:00; Th-Fr 09:00-20:00; Sa 09:00-19:00; Su 10:30-16:30", "image": "https://www.riverisland.com/Assets/RiverIsland/Core/images/logo.png", "brand": "RIVER ISLAND", "brand:wikidata": "Q2670328", "nsi_id": "riverisland-a754e7"}, "geometry": {"type": "Point", "coordinates": [-1.47227, 52.91892]}},
{"type": "Feature", "id": "jVJGuB2ONiCWlHrwSo6aMEhRMUk=", "properties": {"ref": "https://www.riverisland.com/how-can-we-help/find-a-store/denton", "@spider": "riverisland_gb", "shop": "clothes", "addr:street_address": "Unit 17b Crown Point North Pk", "addr:city": "Lancashire", "addr:state": "North West", "addr:postcode": "M34 3LY", "addr:country": "GB", "name": "River Island DENTON", "phone": "+44 (0)344 826 9769", "website": "http://www.riverisland.com/how-can-we-help/find-a-store/denton", "opening_hours": "Mo-Fr 09:00-20:00; Sa 09:00-19:00; Su 11:00-17:00", "image": "https://www.riverisland.com/Assets/RiverIsland/Core/images/logo.png", "brand": "RIVER ISLAND", "brand:wikidata": "Q2670328", "nsi_id": "riverisland-a754e7"}, "geometry": {"type": "Point", "coordinates": [-2.118339, 53.459058]}},
{"type": "Feature", "id": "Yv9OTPxKJAiT-WLNbQWzSJcT8h8=", "properties": {"ref": "https://www.riverisland.com/how-can-we-help/find-a-store/darlington", "@spider": "riverisland_gb", "shop": "clothes", "addr:street_address": "41 Northgate", "addr:city": "County Durham", "addr:state": "North East", "addr:postcode": "DL1 1TR", "addr:country": "GB", "name": "River Island DARLINGTON", "phone": "+44 (0)344 826 9768", "website": "http://www.riverisland.com/how-can-we-help/find-a-store/darlington", "opening_hours": "Mo-Sa 09:00-17:30; Su 10:30-16:30", "image": "https://www.riverisland.com/Assets/RiverIsland/Core/images/logo.png", "brand": "RIVER ISLAND", "brand:wikidata": "Q2670328", "nsi_id": "riverisland-a754e7"}, "geometry": {"type": "Point", "coordinates": [-1.554403, 54.526903]}},
{"type": "Feature", "id": "oR0t6wQ14_55d1O8-gHo-SK3tJM=", "properties": {"ref": "https://www.riverisland.com/how-can-we-help/find-a-store/cwmbran", "@spider": "riverisland_gb", "shop": "clothes", "addr:street_address": "24 Gwent Square", "addr:city": "Cwmbran", "addr:state": "Wales", "addr:postcode": "NP44 1PS", "addr:country": "GB", "name": "River Island CWMBRAN", "phone": "+44 (0)344 847 2612", "website": "http://www.riverisland.com/how-can-we-help/find-a-store/cwmbran", "opening_hours": "Mo-Fr 09:00-17:30; Sa 09:00-18:00; Su 10:00-16:00", "image": "https://www.riverisland.com/Assets/RiverIsland/Core/images/logo.png", "brand": "RIVER ISLAND", "brand:wikidata": "Q2670328", "nsi_id": "riverisland-a754e7"}, "geometry": {"type": "Point", "coordinates": [-3.021264, 51.653172]}},
{"type": "Feature", "id": "10myP5GKfFqp5YcoNUokjekaPX0=", "properties": {"ref": "https://www.riverisland.com/how-can-we-help/find-a-store/cumbernauld", "@spider": "riverisland_gb", "shop": "clothes", "addr:street_address": "Unit 15 The Antonine Centre", "addr:city": "Glasgow", "addr:state": "Scotland", "addr:postcode": "G67 1JW", "addr:country": "GB", "name": "River Island CUMBERNAULD", "phone": "+44 (0)344 826 9767", "website": "http://www.riverisland.com/how-can-we-help/find-a-store/cumbernauld", "opening_hours": "Mo-Sa 09:00-17:30; Su 11:00-17:00", "image": "https://www.riverisland.com/Assets/RiverIsland/Core/images/logo.png", "brand": "RIVER ISLAND", "brand:wikidata": "Q2670328", "nsi_id": "riverisland-a754e7"}, "geometry": {"type": "Point", "coordinates": [-3.988131, 55.946996]}},
{"type": "Feature", "id": "lEvxIVkoyHPh4PdsBAa3iHDsyzg=", "properties": {"ref": "https://www.riverisland.com/how-can-we-help/find-a-store/croydon", "@spider": "riverisland_gb", "shop": "clothes", "addr:street_address": "90-92 Whitgift Centre", "addr:city": "Surrey", "addr:state": "South East", "addr:postcode": "CR0 1US", "addr:country": "GB", "name": "River Island CROYDON", "phone": "+44 (0)344 826 9766", "website": "http://www.riverisland.com/how-can-we-help/find-a-store/croydon", "opening_hours": "Mo-Sa 09:00-18:00; Su 11:00-17:00", "image": "https://www.riverisland.com/Assets/RiverIsland/Core/images/logo.png", "brand": "RIVER ISLAND", "brand:wikidata": "Q2670328", "nsi_id": "riverisland-a754e7"}, "geometry": {"type": "Point", "coordinates": [-0.100478, 51.376769]}},
{"type": "Feature", "id": "2AGvgb3AEo57rEbXNukP21mZkCs=", "properties": {"ref": "https://www.riverisland.com/how-can-we-help/find-a-store/crewe", "@spider": "riverisland_gb", "shop": "clothes", "addr:street_address": "Unit 2b", "addr:city": "Cheshire", "addr:state": "North West", "addr:postcode": "CW1 2RP", "addr:country": "GB", "name": "River Island CREWE", "phone": "+44 (0)344 826 9764", "website": "http://www.riverisland.com/how-can-we-help/find-a-store/crewe", "opening_hours": "Mo-We 09:00-18:00; Th 09:00-19:00; Fr-Sa 09:00-18:00; Su 10:30-16:30", "image": "https://www.riverisland.com/Assets/RiverIsland/Core/images/logo.png", "brand": "RIVER ISLAND", "brand:wikidata": "Q2670328", "nsi_id": "riverisland-a754e7"}, "geometry": {"type": "Point", "coordinates": [-2.441239, 53.096517]}},
{"type": "Feature", "id": "vcb7N7fbvp3iMMVAf0A0BZ6Cx5A=", "properties": {"ref": "https://www.riverisland.com/how-can-we-help/find-a-store/crawley", "@spider": "riverisland_gb", "shop": "clothes", "addr:street_address": "Unit 16 Lower Ground", "addr:city": "West Sussex", "addr:state": "South East", "addr:postcode": "RH10 1FF", "addr:country": "GB", "name": "River Island CRAWLEY", "phone": "+44 (0)344 826 9763", "website": "http://www.riverisland.com/how-can-we-help/find-a-store/crawley", "opening_hours": "Mo-Sa 09:00-18:00; Su 10:30-16:30", "image": "https://www.riverisland.com/Assets/RiverIsland/Core/images/logo.png", "brand": "RIVER ISLAND", "brand:wikidata": "Q2670328", "nsi_id": "riverisland-a754e7"}, "geometry": {"type": "Point", "coordinates": [-0.185225, 51.113533]}},
{"type": "Feature", "id": "DA6ZkeilHTA--0y9zjTWuRTm4Ic=", "properties": {"ref": "https://www.riverisland.com/how-can-we-help/find-a-store/craigavon", "@spider": "riverisland_gb", "shop": "clothes", "addr:street_address": "Unit E Rushmere Centre", "addr:city": "County Armagh", "addr:state": "Northern Ireland", "addr:postcode": "BT64 1AA", "addr:country": "GB", "name": "River Island CRAIGAVON", "phone": "+44 (0)344 826 9762", "website": "http://www.riverisland.com/how-can-we-help/find-a-store/craigavon", "opening_hours": "Mo-Fr 09:00-21:00; Sa 09:00-18:00; Su 13:00-18:00", "image": "https://www.riverisland.com/Assets/RiverIsland/Core/images/logo.png", "brand": "RIVER ISLAND", "brand:wikidata": "Q2670328", "nsi_id": "riverisland-a754e7"}, "geometry": {"type": "Point", "coordinates": [-6.390028, 54.450358]}},
{"type": "Feature", "id": "YITk0XLUXATZL-omEWMqYsN-R5k=", "properties": {"ref": "https://www.riverisland.com/how-can-we-help/find-a-store/coventry", "@spider": "riverisland_gb", "shop": "clothes", "addr:street_address": "Unit 57 And 61-65", "addr:city": "Warwickshire", "addr:state": "West Midlands", "addr:postcode": "CV1 1DX", "addr:country": "GB", "name": "River Island COVENTRY", "phone": "+44 (0)344 826 9761", "website": "http://www.riverisland.com/how-can-we-help/find-a-store/coventry", "opening_hours": "Mo-Sa 09:00-17:30; Su 10:30-16:30", "image": "https://www.riverisland.com/Assets/RiverIsland/Core/images/logo.png", "brand": "RIVER ISLAND", "brand:wikidata": "Q2670328", "nsi_id": "riverisland-a754e7"}, "geometry": {"type": "Point", "coordinates": [-1.51382, 52.40857]}},
{"type": "Feature", "id": "FEgx425UAhKFlWqSInU7nmYvvfc=", "properties": {"ref": "https://www.riverisland.com/how-can-we-help/find-a-store/cork-opera-lane", "@spider": "riverisland_gb", "shop": "clothes", "addr:street_address": "Unit 12 Opera Lane", "addr:city": "Cork", "addr:postcode": "T12 E092", "addr:country": "IE", "name": "River Island CORK OPERA LANE", "phone": "+353 (0)212 355 843", "website": "http://www.riverisland.com/how-can-we-help/find-a-store/cork-opera-lane", "opening_hours": "Mo-We 09:30-18:00; Th 09:30-19:00; Fr 09:30-20:00; Sa 09:30-18:00; Su 12:00-18:00", "image": "https://www.riverisland.com/Assets/RiverIsland/Core/images/logo.png", "brand": "RIVER ISLAND", "brand:wikidata": "Q2670328", "nsi_id": "riverisland-a754e7"}, "geometry": {"type": "Point", "coordinates": [-8.472511, 51.898718]}},
{"type": "Feature", "id": "qqQK28hd4QqanCU6_0XiK7yJAbs=", "properties": {"ref": "https://www.riverisland.com/how-can-we-help/find-a-store/cork-mahon-point", "@spider": "riverisland_gb", "shop": "clothes", "addr:street_address": "Unit 39-40", "addr:city": "Cork", "addr:postcode": "T12 X563", "addr:country": "IE", "name": "River Island CORK MAHON POINT", "phone": "+353 (0)212 355 844", "website": "http://www.riverisland.com/how-can-we-help/find-a-store/cork-mahon-point", "opening_hours": "Mo-We 09:30-19:00; Th-Fr 09:30-21:00; Sa 09:30-19:00; Su 11:00-18:00", "image": "https://www.riverisland.com/Assets/RiverIsland/Core/images/logo.png", "brand": "RIVER ISLAND", "brand:wikidata": "Q2670328", "nsi_id": "riverisland-a754e7"}, "geometry": {"type": "Point", "coordinates": [-8.395694, 51.88556]}},
{"type": "Feature", "id": "iMlnkBFNaIfCVvwQSrkuE4dQQKo=", "properties": {"ref": "https://www.riverisland.com/how-can-we-help/find-a-store/corby", "@spider": "riverisland_gb", "shop": "clothes", "addr:street_address": "Unit Su16", "addr:city": "Northamptonshire", "addr:state": "East Midlands", "addr:postcode": "NN17 1BH", "addr:country": "GB", "name": "River Island CORBY", "phone": "+44 (0)344 847 2596", "website": "http://www.riverisland.com/how-can-we-help/find-a-store/corby", "opening_hours": "Mo-Th 09:00-17:30; Fr-Sa 09:00-17:00; Su 10:00-16:00", "image": "https://www.riverisland.com/Assets/RiverIsland/Core/images/logo.png", "brand": "RIVER ISLAND", "brand:wikidata": "Q2670328", "nsi_id": "riverisland-a754e7"}, "geometry": {"type": "Point", "coordinates": [-0.700889, 52.486397]}},
{"type": "Feature", "id": "RsW1Fg3LfKwN5Ef6OFhCYFVvF7o=", "properties": {"ref": "https://www.riverisland.com/how-can-we-help/find-a-store/colchester", "@spider": "riverisland_gb", "shop": "clothes", "addr:street_address": "11-14 Lion Walk", "addr:city": "Essex", "addr:state": "East", "addr:postcode": "CO1 1LX", "addr:country": "GB", "name": "River Island COLCHESTER", "phone": "+44 (0)344 826 9760", "website": "http://www.riverisland.com/how-can-we-help/find-a-store/colchester", "opening_hours": "Mo-Fr 09:00-17:30; Sa 09:00-18:00; Su 10:30-16:30", "image": "https://www.riverisland.com/Assets/RiverIsland/Core/images/logo.png", "brand": "RIVER ISLAND", "brand:wikidata": "Q2670328", "nsi_id": "riverisland-a754e7"}, "geometry": {"type": "Point", "coordinates": [0.900756, 51.888231]}},
{"type": "Feature", "id": "zUrLYds1DnNwCipKBJT60uTONQ8=", "properties": {"ref": "https://www.riverisland.com/how-can-we-help/find-a-store/chichester", "@spider": "riverisland_gb", "shop": "clothes", "addr:street_address": "84-86 East Street", "addr:city": "West Sussex", "addr:state": "South East", "addr:postcode": "PO19 1HA", "addr:country": "GB", "name": "River Island CHICHESTER", "phone": "+44 (0)344 847 2611", "website": "http://www.riverisland.com/how-can-we-help/find-a-store/chichester", "opening_hours": "Mo-Fr 09:00-17:30; Sa 09:00-18:00; Su 10:30-16:00", "image": "https://www.riverisland.com/Assets/RiverIsland/Core/images/logo.png", "brand": "RIVER ISLAND", "brand:wikidata": "Q2670328", "nsi_id": "riverisland-a754e7"}, "geometry": {"type": "Point", "coordinates": [-0.778622, 50.836256]}},
{"type": "Feature", "id": "aJ83lkrHgU31datvtvxvBJCdyns=", "properties": {"ref": "https://www.riverisland.com/how-can-we-help/find-a-store/chesterfield", "@spider": "riverisland_gb", "shop": "clothes", "addr:street_address": "Unit Su21", "addr:city": "Derbyshire", "addr:state": "East Midlands", "addr:postcode": "S40 1PY", "addr:country": "GB", "name": "River Island CHESTERFIELD", "phone": "+44 (0)344 826 9759", "website": "http://www.riverisland.com/how-can-we-help/find-a-store/chesterfield", "opening_hours": "Mo-Fr 09:30-17:00; Sa 09:00-17:30; Su 10:00-16:00", "image": "https://www.riverisland.com/Assets/RiverIsland/Core/images/logo.png", "brand": "RIVER ISLAND", "brand:wikidata": "Q2670328", "nsi_id": "riverisland-a754e7"}, "geometry": {"type": "Point", "coordinates": [-1.426156, 53.234731]}},
{"type": "Feature", "id": "JsXQNqg6CZP-4BaQ4ZbADLn5pRg=", "properties": {"ref": "https://www.riverisland.com/how-can-we-help/find-a-store/chester-foregate", "@spider": "riverisland_gb", "shop": "clothes", "addr:street_address": "Unit A", "addr:city": "Cheshire", "addr:state": "North West", "addr:postcode": "CH1 1HD", "addr:country": "GB", "name": "River Island CHESTER FOREGATE", "phone": "+44 (0)344 826 9758", "website": "http://www.riverisland.com/how-can-we-help/find-a-store/chester-foregate", "opening_hours": "Mo-Fr 09:00-17:30; Sa 09:00-18:00; Su 11:00-17:00", "image": "https://www.riverisland.com/Assets/RiverIsland/Core/images/logo.png", "brand": "RIVER ISLAND", "brand:wikidata": "Q2670328", "nsi_id": "riverisland-a754e7"}, "geometry": {"type": "Point", "coordinates": [-2.88751, 53.191337]}},
{"type": "Feature", "id": "TILC_zTXmEkjpQsWtas_B3YGcyY=", "properties": {"ref": "https://www.riverisland.com/how-can-we-help/find-a-store/chester-broughton-park", "@spider": "riverisland_gb", "shop": "clothes", "addr:street_address": "Unit 14b", "addr:city": "Flintshire", "addr:state": "North West", "addr:postcode": "CH4 0DP", "addr:country": "GB", "name": "River Island CHESTER BROUGHTON PARK", "phone": "+44 (0)344 826 9757", "website": "http://www.riverisland.com/how-can-we-help/find-a-store/chester-broughton-park", "opening_hours": "Mo-Fr 09:00-20:00; Sa 09:00-19:00; Su 11:00-17:00", "image": "https://www.riverisland.com/Assets/RiverIsland/Core/images/logo.png", "brand": "RIVER ISLAND", "brand:wikidata": "Q2670328", "nsi_id": "riverisland-a754e7"}, "geometry": {"type": "Point", "coordinates": [-2.972642, 53.169003]}},
{"type": "Feature", "id": "w2wLEpRFOudrg4M2fcMSgVae72A=", "properties": {"ref": "https://www.riverisland.com/how-can-we-help/find-a-store/cheshunt", "@spider": "riverisland_gb", "shop": "clothes", "addr:street_address": "Unit 1b Brookfield Retail Park", "addr:city": "Hertfordshire", "addr:state": "East", "addr:postcode": "EN8 0QL", "addr:country": "GB", "name": "River Island CHESHUNT", "phone": "+44 (0)344 826 9756", "website": "http://www.riverisland.com/how-can-we-help/find-a-store/cheshunt", "opening_hours": "Mo-Fr 09:30-20:00; Sa 09:00-19:00; Su 10:30-16:30", "image": "https://www.riverisland.com/Assets/RiverIsland/Core/images/logo.png", "brand": "RIVER ISLAND", "brand:wikidata": "Q2670328", "nsi_id": "riverisland-a754e7"}, "geometry": {"type": "Point", "coordinates": [-0.0376, 51.716708]}},
{"type": "Feature", "id": "tsKFDBvRm25N3pYzC4iY5ag4dIA=", "properties": {"ref": "https://www.riverisland.com/how-can-we-help/find-a-store/cheshire-coliseum", "@spider": "riverisland_gb", "shop": "clothes", "addr:street_address": "Unit 8", "addr:city": "Cheshire", "addr:postcode": "CH65 9HD", "addr:country": "GB", "name": "River Island CHESHIRE COLISEUM", "phone": "+44 (0)344 334 0539", "website": "http://www.riverisland.com/how-can-we-help/find-a-store/cheshire-coliseum", "opening_hours": "Mo-Fr 09:00-20:00; Sa 09:00-19:00; Su 11:00-17:00", "image": "https://www.riverisland.com/Assets/RiverIsland/Core/images/logo.png", "brand": "RIVER ISLAND", "brand:wikidata": "Q2670328", "nsi_id": "riverisland-a754e7"}, "geometry": {"type": "Point", "coordinates": [-2.884391, 53.264074]}},
{"type": "Feature", "id": "CIxtdQNncIeJIAz4GopoZwAv90M=", "properties": {"ref": "https://www.riverisland.com/how-can-we-help/find-a-store/cheltenham", "@spider": "riverisland_gb", "shop": "clothes", "addr:street_address": "Unit Msu1", "addr:city": "Gloucestershire", "addr:state": "South West", "addr:postcode": "GL50 1JZ", "addr:country": "GB", "name": "River Island CHELTENHAM", "phone": "+44 (0)344 826 9755", "website": "http://www.riverisland.com/how-can-we-help/find-a-store/cheltenham", "opening_hours": "Mo-Fr 09:00-17:30; Sa 09:00-18:00; Su 10:30-16:30", "image": "https://www.riverisland.com/Assets/RiverIsland/Core/images/logo.png", "brand": "RIVER ISLAND", "brand:wikidata": "Q2670328", "nsi_id": "riverisland-a754e7"}, "geometry": {"type": "Point", "coordinates": [-2.074894, 51.899347]}},
{"type": "Feature", "id": "CMEJdrReJBggG2hr8sd-8Ei7ZHI=", "properties": {"ref": "https://www.riverisland.com/how-can-we-help/find-a-store/chelmsford", "@spider": "riverisland_gb", "shop": "clothes", "addr:street_address": "Unit 8", "addr:city": "Essex", "addr:state": "East", "addr:postcode": "CM1 1XG", "addr:country": "GB", "name": "River Island CHELMSFORD", "phone": "+44 (0)344 826 9754", "website": "http://www.riverisland.com/how-can-we-help/find-a-store/chelmsford", "opening_hours": "Mo-Sa 09:00-18:00; Su 10:30-16:30", "image": "https://www.riverisland.com/Assets/RiverIsland/Core/images/logo.png", "brand": "RIVER ISLAND", "brand:wikidata": "Q2670328", "nsi_id": "riverisland-a754e7"}, "geometry": {"type": "Point", "coordinates": [0.472111, 51.733358]}},
{"type": "Feature", "id": "5Xl2pedNmPZQq-OMqo0LT6gT-Og=", "properties": {"ref": "https://www.riverisland.com/how-can-we-help/find-a-store/carlow", "@spider": "riverisland_gb", "shop": "clothes", "addr:street_address": "Unit 4a", "addr:city": "Carlow", "addr:postcode": "R93 A9C8", "addr:country": "IE", "name": "River Island CARLOW", "phone": "+353 (0)599 187 989", "website": "http://www.riverisland.com/how-can-we-help/find-a-store/carlow", "opening_hours": "Mo-We 09:30-18:00; Th-Fr 09:30-21:00; Sa 09:00-18:00; Su 12:00-18:00", "image": "https://www.riverisland.com/Assets/RiverIsland/Core/images/logo.png", "brand": "RIVER ISLAND", "brand:wikidata": "Q2670328", "nsi_id": "riverisland-a754e7"}, "geometry": {"type": "Point", "coordinates": [-6.926917, 52.834642]}},
{"type": "Feature", "id": "COJtXomVUNtIcFFSjURDgZ3d0VY=", "properties": {"ref": "https://www.riverisland.com/how-can-we-help/find-a-store/carlisle", "@spider": "riverisland_gb", "shop": "clothes", "addr:street_address": "Unit 51b Scotch Street", "addr:city": "Cumbria", "addr:state": "North West", "addr:postcode": "CA3 8NT", "addr:country": "GB", "name": "River Island CARLISLE", "phone": "+44 (0)344 826 9753", "website": "http://www.riverisland.com/how-can-we-help/find-a-store/carlisle", "opening_hours": "Mo-Sa 09:00-17:30; Su 11:00-16:00", "image": "https://www.riverisland.com/Assets/RiverIsland/Core/images/logo.png", "brand": "RIVER ISLAND", "brand:wikidata": "Q2670328", "nsi_id": "riverisland-a754e7"}, "geometry": {"type": "Point", "coordinates": [-2.934572, 54.893169]}},
{"type": "Feature", "id": "yxQGfsyoA3_o6jAnlYP_13aFcuc=", "properties": {"ref": "https://www.riverisland.com/how-can-we-help/find-a-store/cardiff-st-davids", "@spider": "riverisland_gb", "shop": "clothes", "addr:street_address": "75-77 St Davids Centre", "addr:city": "Glamorgan", "addr:state": "Wales", "addr:postcode": "CF10 2EL", "addr:country": "GB", "name": "River Island CARDIFF ST DAVIDS", "phone": "+44 (0)344 334 0530", "website": "http://www.riverisland.com/how-can-we-help/find-a-store/cardiff-st-davids", "opening_hours": "Mo-Fr 09:30-20:00; Sa 09:30-19:00; Su 11:00-17:00", "image": "https://www.riverisland.com/Assets/RiverIsland/Core/images/logo.png", "brand": "RIVER ISLAND", "brand:wikidata": "Q2670328", "nsi_id": "riverisland-a754e7"}, "geometry": {"type": "Point", "coordinates": [-3.174577, 51.479204]}},
{"type": "Feature", "id": "4bBlwEZ4RMSC0eJOJPlXNrPM5Rc=", "properties": {"ref": "https://www.riverisland.com/how-can-we-help/find-a-store/canterbury", "@spider": "riverisland_gb", "shop": "clothes", "addr:street_address": "Unit Su25", "addr:city": "Kent", "addr:state": "South East", "addr:postcode": "CT1 2TD", "addr:country": "GB", "name": "River Island CANTERBURY", "phone": "+44 (0)344 826 9752", "website": "http://www.riverisland.com/how-can-we-help/find-a-store/canterbury", "opening_hours": "Mo-We 09:00-17:30; Th-Sa 09:00-18:00; Su 11:00-17:00", "image": "https://www.riverisland.com/Assets/RiverIsland/Core/images/logo.png", "brand": "RIVER ISLAND", "brand:wikidata": "Q2670328", "nsi_id": "riverisland-a754e7"}, "geometry": {"type": "Point", "coordinates": [1.08105, 51.277642]}},
{"type": "Feature", "id": "AM6erFYYFvlUeItjn8byeNBdocw=", "properties": {"ref": "https://www.riverisland.com/how-can-we-help/find-a-store/cambridge-grafton", "@spider": "riverisland_gb", "shop": "clothes", "addr:street_address": "Unit 56", "addr:city": "Cambridgeshire", "addr:state": "East", "addr:postcode": "CB1 1PS", "addr:country": "GB", "name": "River Island CAMBRIDGE GRAFTON", "phone": "+44 (0)344 334 0529", "website": "http://www.riverisland.com/how-can-we-help/find-a-store/cambridge-grafton", "opening_hours": "Mo-Sa 09:00-18:00; Su 11:00-17:00", "image": "https://www.riverisland.com/Assets/RiverIsland/Core/images/logo.png", "brand": "RIVER ISLAND", "brand:wikidata": "Q2670328", "nsi_id": "riverisland-a754e7"}, "geometry": {"type": "Point", "coordinates": [0.133275, 52.206972]}},
{"type": "Feature", "id": "Tg_K1RlyMgkEE-YkPnAN7gVaDww=", "properties": {"ref": "https://www.riverisland.com/how-can-we-help/find-a-store/camberley", "@spider": "riverisland_gb", "shop": "clothes", "addr:street_address": "1-3 Cambridge Walk", "addr:city": "Surrey", "addr:state": "South East", "addr:postcode": "GU15 3SW", "addr:country": "GB", "name": "River Island CAMBERLEY", "phone": "+44 (0)344 826 9750", "website": "http://www.riverisland.com/how-can-we-help/find-a-store/camberley", "opening_hours": "Mo-Fr 09:00-17:30; Sa 09:00-18:00; Su 10:30-16:30", "image": "https://www.riverisland.com/Assets/RiverIsland/Core/images/logo.png", "brand": "RIVER ISLAND", "brand:wikidata": "Q2670328", "nsi_id": "riverisland-a754e7"}, "geometry": {"type": "Point", "coordinates": [-0.746411, 51.337569]}},
{"type": "Feature", "id": "bHHYtDZ4R9r96sJq-SKt2-kPK7E=", "properties": {"ref": "https://www.riverisland.com/how-can-we-help/find-a-store/bury-st-edmunds", "@spider": "riverisland_gb", "shop": "clothes", "addr:street_address": "Unit 8 Cattlemarket", "addr:city": "Suffolk", "addr:state": "East", "addr:postcode": "IP33 3EA", "addr:country": "GB", "name": "River Island BURY ST EDMUNDS", "phone": "+44 (0)344 847 2624", "website": "http://www.riverisland.com/how-can-we-help/find-a-store/bury-st-edmunds", "opening_hours": "Mo-Fr 09:00-17:30; Sa 09:00-18:00; Su 10:30-16:30", "image": "https://www.riverisland.com/Assets/RiverIsland/Core/images/logo.png", "brand": "RIVER ISLAND", "brand:wikidata": "Q2670328", "nsi_id": "riverisland-a754e7"}, "geometry": {"type": "Point", "coordinates": [0.709225, 52.245833]}},
{"type": "Feature", "id": "C1wbxhy0jdLGaYe_Qe7ddVeixWg=", "properties": {"ref": "https://www.riverisland.com/how-can-we-help/find-a-store/bury", "@spider": "riverisland_gb", "shop": "clothes", "addr:street_address": "Unit E02 The Rock", "addr:city": "Lancashire", "addr:state": "North West", "addr:postcode": "BL9 0JL", "addr:country": "GB", "name": "River Island BURY", "phone": "+44 (0)344 826 9749", "website": "http://www.riverisland.com/how-can-we-help/find-a-store/bury", "opening_hours": "Mo-We 09:00-18:00; Th 09:00-19:00; Fr-Sa 09:00-18:00; Su 11:00-17:00", "image": "https://www.riverisland.com/Assets/RiverIsland/Core/images/logo.png", "brand": "RIVER ISLAND", "brand:wikidata": "Q2670328", "nsi_id": "riverisland-a754e7"}, "geometry": {"type": "Point", "coordinates": [-2.295153, 53.593878]}},
{"type": "Feature", "id": "5L-6RBl58TUAEj5oOcjQ5urQvGg=", "properties": {"ref": "https://www.riverisland.com/how-can-we-help/find-a-store/burton-on-trent", "@spider": "riverisland_gb", "shop": "clothes", "addr:street_address": "9-11 Swan Walk", "addr:city": "Staffordshire", "addr:state": "West Midlands", "addr:postcode": "DE14 1DD", "addr:country": "GB", "name": "River Island BURTON ON TRENT", "phone": "+44 (0)344 826 9748", "website": "http://www.riverisland.com/how-can-we-help/find-a-store/burton-on-trent", "opening_hours": "Mo-Sa 09:00-17:30; Su 10:00-16:00", "image": "https://www.riverisland.com/Assets/RiverIsland/Core/images/logo.png", "brand": "RIVER ISLAND", "brand:wikidata": "Q2670328", "nsi_id": "riverisland-a754e7"}, "geometry": {"type": "Point", "coordinates": [-1.631767, 52.802256]}},
{"type": "Feature", "id": "auSmi5cWVfh_p4nL0R53NOQzt9w=", "properties": {"ref": "https://www.riverisland.com/how-can-we-help/find-a-store/burnley", "@spider": "riverisland_gb", "shop": "clothes", "addr:street_address": "17 Market Square", "addr:city": "Lancashire", "addr:state": "North West", "addr:postcode": "BB11 1AX", "addr:country": "GB", "name": "River Island BURNLEY", "phone": "+44 (0)344 826 9747", "website": "http://www.riverisland.com/how-can-we-help/find-a-store/burnley", "opening_hours": "Mo-Fr 09:00-17:30; Sa 09:00-18:00; Su 10:30-16:30", "image": "https://www.riverisland.com/Assets/RiverIsland/Core/images/logo.png", "brand": "RIVER ISLAND", "brand:wikidata": "Q2670328", "nsi_id": "riverisland-a754e7"}, "geometry": {"type": "Point", "coordinates": [-2.242708, 53.790258]}},
{"type": "Feature", "id": "jnkigjO_bQAWCDlftV1RGCqE3gw=", "properties": {"ref": "https://www.riverisland.com/how-can-we-help/find-a-store/birmingham-fort", "@spider": "riverisland_gb", "shop": "clothes", "addr:street_address": "Unit 13 Fort Retail Park", "addr:city": "Erdington", "addr:state": "West Midlands", "addr:postcode": "B24 9FP", "addr:country": "GB", "name": "River Island BIRMINGHAM FORT", "phone": "+44 (0)344 826 9738", "website": "http://www.riverisland.com/how-can-we-help/find-a-store/birmingham-fort", "opening_hours": "Mo-We 09:30-20:00; Th 09:30-21:00; Fr 09:30-20:00; Sa 09:00-19:00; Su 11:00-17:00", "image": "https://www.riverisland.com/Assets/RiverIsland/Core/images/logo.png", "brand": "RIVER ISLAND", "brand:wikidata": "Q2670328", "nsi_id": "riverisland-a754e7"}, "geometry": {"type": "Point", "coordinates": [-1.823706, 52.508686]}},
{"type": "Feature", "id": "WvPlzmY9gRav35ArXnl4go7HpHc=", "properties": {"ref": "https://www.riverisland.com/how-can-we-help/find-a-store/birmingham-bullring", "@spider": "riverisland_gb", "shop": "clothes", "addr:street_address": "Unit Msu9", "addr:city": "Birmingham", "addr:state": "West Midlands", "addr:postcode": "B5 4BG", "addr:country": "GB", "name": "River Island BIRMINGHAM BULLRING", "phone": "+44 (0)344 395 1001", "website": "http://www.riverisland.com/how-can-we-help/find-a-store/birmingham-bullring", "opening_hours": "Mo-Fr 10:00-20:00; Sa 09:00-20:00; Su 11:00-17:00", "image": "https://www.riverisland.com/Assets/RiverIsland/Core/images/logo.png", "brand": "RIVER ISLAND", "brand:wikidata": "Q2670328", "nsi_id": "riverisland-a754e7"}, "geometry": {"type": "Point", "coordinates": [-1.894817, 52.477328]}},
{"type": "Feature", "id": "K2yXxJP7ysdw-EVU3m-un0OSCtk=", "properties": {"ref": "https://www.riverisland.com/how-can-we-help/find-a-store/birkenhead", "@spider": "riverisland_gb", "shop": "clothes", "addr:street_address": "3 The Pyramids", "addr:city": "Merseyside", "addr:state": "North West", "addr:postcode": "CH41 2ZL", "addr:country": "GB", "name": "River Island BIRKENHEAD", "phone": "+44 (0)344 826 9737", "website": "http://www.riverisland.com/how-can-we-help/find-a-store/birkenhead", "opening_hours": "Mo-Sa 09:00-17:30; Su 10:30-16:30", "image": "https://www.riverisland.com/Assets/RiverIsland/Core/images/logo.png", "brand": "RIVER ISLAND", "brand:wikidata": "Q2670328", "nsi_id": "riverisland-a754e7"}, "geometry": {"type": "Point", "coordinates": [-3.026317, 53.389228]}},
{"type": "Feature", "id": "7_fU09VTQQbA183UJe5cIocCucg=", "properties": {"ref": "https://www.riverisland.com/how-can-we-help/find-a-store/biggleswade", "@spider": "riverisland_gb", "shop": "clothes", "addr:street_address": "A1 Retail Park", "addr:city": "Bedfordshire", "addr:postcode": "SG18 8PS", "addr:country": "GB", "name": "River Island BIGGLESWADE", "phone": "+44 (0)344 334 0542", "website": "http://www.riverisland.com/how-can-we-help/find-a-store/biggleswade", "opening_hours": "Mo-Th 09:00-19:00; Fr 09:00-20:00; Sa 09:00-19:00; Su 10:30-16:30", "image": "https://www.riverisland.com/Assets/RiverIsland/Core/images/logo.png", "brand": "RIVER ISLAND", "brand:wikidata": "Q2670328", "nsi_id": "riverisland-a754e7"}, "geometry": {"type": "Point", "coordinates": [-0.245162, 52.074426]}},
{"type": "Feature", "id": "Mqpx5IYfd8SKqdVMvmVEHsc9dWI=", "properties": {"ref": "https://www.riverisland.com/how-can-we-help/find-a-store/bexleyheath", "@spider": "riverisland_gb", "shop": "clothes", "addr:street_address": "Unit F42", "addr:city": "Kent", "addr:state": "South East", "addr:postcode": "DA6 7JN", "addr:country": "GB", "name": "River Island BEXLEYHEATH", "phone": "+44 (0)344 826 9736", "website": "http://www.riverisland.com/how-can-we-help/find-a-store/bexleyheath", "opening_hours": "Mo-We 09:00-17:30; Th 09:00-18:00; Fr 09:00-17:30; Sa 09:00-18:00; Su 10:00-16:00", "image": "https://www.riverisland.com/Assets/RiverIsland/Core/images/logo.png", "brand": "RIVER ISLAND", "brand:wikidata": "Q2670328", "nsi_id": "riverisland-a754e7"}, "geometry": {"type": "Point", "coordinates": [0.1461, 51.455808]}},
{"type": "Feature", "id": "mg6Ckc-Va4Xa6GiyTxxcXHuoRlk=", "properties": {"ref": "https://www.riverisland.com/how-can-we-help/find-a-store/belfast-victoria-square", "@spider": "riverisland_gb", "shop": "clothes", "addr:street_address": "Unit G19", "addr:city": "Belfast", "addr:state": "Northern Ireland", "addr:postcode": "BT1 4QG", "addr:country": "GB", "name": "River Island BELFAST VICTORIA SQUARE", "phone": "+44 (0)344 847 2606", "website": "http://www.riverisland.com/how-can-we-help/find-a-store/belfast-victoria-square", "opening_hours": "Mo-We 09:30-18:00; Th-Fr 09:30-21:00; Sa 09:00-18:00; Su 13:00-18:00", "image": "https://www.riverisland.com/Assets/RiverIsland/Core/images/logo.png", "brand": "RIVER ISLAND", "brand:wikidata": "Q2670328", "nsi_id": "riverisland-a754e7"}, "geometry": {"type": "Point", "coordinates": [-5.925592, 54.59985]}},
{"type": "Feature", "id": "7M_Pl3nr02sQOJDANvmfWUIFPa0=", "properties": {"ref": "https://www.riverisland.com/how-can-we-help/find-a-store/belfast-donegall-place", "@spider": "riverisland_gb", "shop": "clothes", "addr:street_address": "36-38 Donegall Place", "addr:city": "Belfast", "addr:state": "Northern Ireland", "addr:postcode": "BT1 5BB", "addr:country": "GB", "name": "River Island BELFAST DONEGALL PLACE", "phone": "+44 (0)344 826 9734", "website": "http://www.riverisland.com/how-can-we-help/find-a-store/belfast-donegall-place", "opening_hours": "Mo-We 09:30-17:30; Th 09:30-21:00; Fr 09:30-17:30; Sa 09:00-18:00; Su 13:00-18:00", "image": "https://www.riverisland.com/Assets/RiverIsland/Core/images/logo.png", "brand": "RIVER ISLAND", "brand:wikidata": "Q2670328", "nsi_id": "riverisland-a754e7"}, "geometry": {"type": "Point", "coordinates": [-5.930225, 54.598125]}},
{"type": "Feature", "id": "miL-GGzU-HN5CETOXhNZavDO4wY=", "properties": {"ref": "https://www.riverisland.com/how-can-we-help/find-a-store/belfast-boucher", "@spider": "riverisland_gb", "shop": "clothes", "addr:street_address": "Unit 1 Boucher Retail Park", "addr:city": "Belfast", "addr:state": "Northern Ireland", "addr:postcode": "BT12 6HU", "addr:country": "GB", "name": "River Island BELFAST BOUCHER", "phone": "+44 (0)344 826 9732", "website": "http://www.riverisland.com/how-can-we-help/find-a-store/belfast-boucher", "opening_hours": "Mo-We 09:00-18:00; Th-Fr 09:00-20:00; Sa 09:00-18:00; Su 13:00-18:00", "image": "https://www.riverisland.com/Assets/RiverIsland/Core/images/logo.png", "brand": "RIVER ISLAND", "brand:wikidata": "Q2670328", "nsi_id": "riverisland-a754e7"}, "geometry": {"type": "Point", "coordinates": [-5.967372, 54.5801]}},
{"type": "Feature", "id": "CDP-xAl7BMQBfuT76rLA4CPu4PM=", "properties": {"ref": "https://www.riverisland.com/how-can-we-help/find-a-store/beckton", "@spider": "riverisland_gb", "shop": "clothes", "addr:street_address": "Unit 11 Gallions Reach Park", "addr:city": "London", "addr:state": "London", "addr:postcode": "E6 7ER", "addr:country": "GB", "name": "River Island BECKTON", "phone": "+44 (0)344 826 9730", "website": "http://www.riverisland.com/how-can-we-help/find-a-store/beckton", "opening_hours": "Mo-Sa 10:00-19:00; Su 10:30-17:00", "image": "https://www.riverisland.com/Assets/RiverIsland/Core/images/logo.png", "brand": "RIVER ISLAND", "brand:wikidata": "Q2670328", "nsi_id": "riverisland-a754e7"}, "geometry": {"type": "Point", "coordinates": [0.080597, 51.516953]}},
{"type": "Feature", "id": "zMTZ-H7ZG7AQ7rO-9tHHoqu_JZk=", "properties": {"ref": "https://www.riverisland.com/how-can-we-help/find-a-store/bath", "@spider": "riverisland_gb", "shop": "clothes", "addr:street_address": "Unit Su14", "addr:city": "Avon", "addr:state": "South West", "addr:postcode": "BA1 1AP", "addr:country": "GB", "name": "River Island BATH", "phone": "+44 (0)344 826 9729", "website": "http://www.riverisland.com/how-can-we-help/find-a-store/bath", "opening_hours": "Mo-Sa 09:00-18:00; Su 11:00-17:00", "image": "https://www.riverisland.com/Assets/RiverIsland/Core/images/logo.png", "brand": "RIVER ISLAND", "brand:wikidata": "Q2670328", "nsi_id": "riverisland-a754e7"}, "geometry": {"type": "Point", "coordinates": [-2.359994, 51.380086]}},
{"type": "Feature", "id": "n4-vGSCn3TO5cTFq9LV2meFxWGY=", "properties": {"ref": "https://www.riverisland.com/how-can-we-help/find-a-store/basingstoke-festival-place", "@spider": "riverisland_gb", "shop": "clothes", "addr:street_address": "Unit 2-3 Festival Place", "addr:city": "Hampshire", "addr:state": "South East", "addr:postcode": "RG21 7BA", "addr:country": "GB", "name": "River Island BASINGSTOKE FESTIVAL PLACE", "phone": "+44 (0)344 826 9728", "website": "http://www.riverisland.com/how-can-we-help/find-a-store/basingstoke-festival-place", "opening_hours": "Mo-Fr 09:30-19:00; Sa 09:00-19:00; Su 11:00-17:00", "image": "https://www.riverisland.com/Assets/RiverIsland/Core/images/logo.png", "brand": "RIVER ISLAND", "brand:wikidata": "Q2670328", "nsi_id": "riverisland-a754e7"}, "geometry": {"type": "Point", "coordinates": [-1.086225, 51.265858]}},
{"type": "Feature", "id": "wACdqXBy_Q6h1hdllmw4BvB_Tb8=", "properties": {"ref": "https://www.riverisland.com/how-can-we-help/find-a-store/basildon-mayflower", "@spider": "riverisland_gb", "shop": "clothes", "addr:street_address": "Unit 2c", "addr:city": "Essex", "addr:postcode": "SS14 3HZ", "addr:country": "GB", "name": "River Island BASILDON MAYFLOWER", "phone": "+44 (0)330 311 7834", "website": "http://www.riverisland.com/how-can-we-help/find-a-store/basildon-mayflower", "opening_hours": "Mo-Fr 09:00-20:00; Sa 09:00-19:00; Su 10:00-16:00", "image": "https://www.riverisland.com/Assets/RiverIsland/Core/images/logo.png", "brand": "RIVER ISLAND", "brand:wikidata": "Q2670328", "nsi_id": "riverisland-a754e7"}, "geometry": {"type": "Point", "coordinates": [0.476871, 51.590597]}},
{"type": "Feature", "id": "fUK6kRykQRmLsAixoqltzeuRhEk=", "properties": {"ref": "https://www.riverisland.com/how-can-we-help/find-a-store/basildon", "@spider": "riverisland_gb", "shop": "clothes", "addr:street_address": "54 Eastgate International", "addr:city": "Essex", "addr:state": "East", "addr:postcode": "SS14 1EX", "addr:country": "GB", "name": "River Island BASILDON", "phone": "+44 (0)344 826 9727", "website": "http://www.riverisland.com/how-can-we-help/find-a-store/basildon", "opening_hours": "Mo-Fr 09:00-17:30; Sa 09:00-18:00; Su 10:00-16:00", "image": "https://www.riverisland.com/Assets/RiverIsland/Core/images/logo.png", "brand": "RIVER ISLAND", "brand:wikidata": "Q2670328", "nsi_id": "riverisland-a754e7"}, "geometry": {"type": "Point", "coordinates": [0.463528, 51.569478]}},
{"type": "Feature", "id": "fRYolLXUJNcC5hUt6JJDoVW__zs=", "properties": {"ref": "https://www.riverisland.com/how-can-we-help/find-a-store/barnstaple", "@spider": "riverisland_gb", "shop": "clothes", "addr:street_address": "Unit 7 &amp;amp; 8", "addr:city": "North Devon", "addr:state": "South West", "addr:postcode": "EX31 1UQ", "addr:country": "GB", "name": "River Island BARNSTAPLE", "phone": "+44 (0)344 847 2633", "website": "http://www.riverisland.com/how-can-we-help/find-a-store/barnstaple", "opening_hours": "Mo-Sa 09:00-17:30; Su 10:30-16:30", "image": "https://www.riverisland.com/Assets/RiverIsland/Core/images/logo.png", "brand": "RIVER ISLAND", "brand:wikidata": "Q2670328", "nsi_id": "riverisland-a754e7"}, "geometry": {"type": "Point", "coordinates": [-4.0597, 51.082043]}},
{"type": "Feature", "id": "APx1ZfvcU_pLiEvq_2TLfBZS0hI=", "properties": {"ref": "https://www.riverisland.com/how-can-we-help/find-a-store/barnsley-glassworks", "@spider": "riverisland_gb", "shop": "clothes", "addr:street_address": "Units Su7-Su10", "addr:city": "Barnsley", "addr:postcode": "S70 1GW", "addr:country": "GB", "name": "River Island BARNSLEY GLASSWORKS", "phone": "+44 (0)333 222 5882", "website": "http://www.riverisland.com/how-can-we-help/find-a-store/barnsley-glassworks", "opening_hours": "Mo-Sa 09:00-17:30; Su 10:00-16:00", "image": "https://www.riverisland.com/Assets/RiverIsland/Core/images/logo.png", "brand": "RIVER ISLAND", "brand:wikidata": "Q2670328", "nsi_id": "riverisland-a754e7"}, "geometry": {"type": "Point", "coordinates": [-1.4786, 53.55219]}},
{"type": "Feature", "id": "p-5n4335TqFbrVQFdSSHF03oE00=", "properties": {"ref": "https://www.riverisland.com/how-can-we-help/find-a-store/barnsley-cortonwood", "@spider": "riverisland_gb", "shop": "clothes", "addr:street_address": "Unit 6 Cortonwood Shopping Park", "addr:city": "Yorkshire", "addr:postcode": "S73 0FA", "addr:country": "GB", "name": "River Island BARNSLEY CORTONWOOD", "phone": "+44 (0)330 311 7806", "website": "http://www.riverisland.com/how-can-we-help/find-a-store/barnsley-cortonwood", "opening_hours": "Mo-Fr 10:00-18:00; Sa 09:00-18:00; Su 10:00-16:00", "image": "https://www.riverisland.com/Assets/RiverIsland/Core/images/logo.png", "brand": "RIVER ISLAND", "brand:wikidata": "Q2670328", "nsi_id": "riverisland-a754e7"}, "geometry": {"type": "Point", "coordinates": [-1.387372, 53.506341]}},
{"type": "Feature", "id": "loRiufhatLvPVgY2vbqIZECIp14=", "properties": {"ref": "https://www.riverisland.com/how-can-we-help/find-a-store/bangor-menai-centre", "@spider": "riverisland_gb", "shop": "clothes", "addr:street_address": "Unit 7-7a", "addr:city": "Gwynedd", "addr:state": "Wales", "addr:postcode": "LL57 2UP", "addr:country": "GB", "name": "River Island BANGOR MENAI CENTRE", "phone": "+44 (0)344 847 2610", "website": "http://www.riverisland.com/how-can-we-help/find-a-store/bangor-menai-centre", "opening_hours": "Mo-Sa 09:00-17:30; Su 11:00-17:00", "image": "https://www.riverisland.com/Assets/RiverIsland/Core/images/logo.png", "brand": "RIVER ISLAND", "brand:wikidata": "Q2670328", "nsi_id": "riverisland-a754e7"}, "geometry": {"type": "Point", "coordinates": [-4.132856, 53.224919]}},
{"type": "Feature", "id": "oaM44aHMAy32slY-efmxvGzoMOo=", "properties": {"ref": "https://www.riverisland.com/how-can-we-help/find-a-store/bangor-bloomfield", "@spider": "riverisland_gb", "shop": "clothes", "addr:street_address": "Unit 44 Bloomfield Centre", "addr:city": "County Down", "addr:state": "Northern Ireland", "addr:postcode": "BT19 7HB", "addr:country": "GB", "name": "River Island BANGOR BLOOMFIELD", "phone": "+44 (0)344 847 2629", "website": "http://www.riverisland.com/how-can-we-help/find-a-store/bangor-bloomfield", "opening_hours": "Mo-We 09:30-18:00; Th-Fr 09:30-21:00; Sa 09:00-18:00; Su 13:00-18:00", "image": "https://www.riverisland.com/Assets/RiverIsland/Core/images/logo.png", "brand": "RIVER ISLAND", "brand:wikidata": "Q2670328", "nsi_id": "riverisland-a754e7"}, "geometry": {"type": "Point", "coordinates": [-5.656192, 54.647326]}},
{"type": "Feature", "id": "uzORFuc6sI3t33AoXYNPVu-eexY=", "properties": {"ref": "https://www.riverisland.com/how-can-we-help/find-a-store/banbury-gateway", "@spider": "riverisland_gb", "shop": "clothes", "addr:street_address": "Unit 10", "addr:city": "Oxfordshire", "addr:postcode": "OX16 3ER", "addr:country": "GB", "name": "River Island BANBURY GATEWAY", "phone": "+44 (0)344 334 0540", "website": "http://www.riverisland.com/how-can-we-help/find-a-store/banbury-gateway", "opening_hours": "Mo-Sa 09:00-18:00; Su 11:00-17:00", "image": "https://www.riverisland.com/Assets/RiverIsland/Core/images/logo.png", "brand": "RIVER ISLAND", "brand:wikidata": "Q2670328", "nsi_id": "riverisland-a754e7"}, "geometry": {"type": "Point", "coordinates": [-1.319796, 52.075991]}},
{"type": "Feature", "id": "mnpHuWD2LWIOHeAxnNvdiU-fQFo=", "properties": {"ref": "https://www.riverisland.com/how-can-we-help/find-a-store/ballymena-fairhill-centre", "@spider": "riverisland_gb", "shop": "clothes", "addr:street_address": "Unit 37 Fairhill Centre", "addr:city": "County Antrim", "addr:state": "Northern Ireland", "addr:postcode": "BT43 6UF", "addr:country": "GB", "name": "River Island BALLYMENA FAIRHILL CENTRE", "phone": "+44 (0)344 826 9723", "website": "http://www.riverisland.com/how-can-we-help/find-a-store/ballymena-fairhill-centre", "opening_hours": "Mo-We 09:30-17:30; Th 09:30-20:00; Fr 09:30-21:00; Sa 09:00-18:00; Su 13:00-18:00", "image": "https://www.riverisland.com/Assets/RiverIsland/Core/images/logo.png", "brand": "RIVER ISLAND", "brand:wikidata": "Q2670328", "nsi_id": "riverisland-a754e7"}, "geometry": {"type": "Point", "coordinates": [-6.274856, 54.868886]}},
{"type": "Feature", "id": "IYsM3HkM4481nlujqNkVtTasc5E=", "properties": {"ref": "https://www.riverisland.com/how-can-we-help/find-a-store/ayr-skye-square", "@spider": "riverisland_gb", "shop": "clothes", "addr:street_address": "Unit 3 Skye Square", "addr:city": "Ayrshire", "addr:state": "Scotland", "addr:postcode": "KA7 1TN", "addr:country": "GB", "name": "River Island AYR SKYE SQUARE", "phone": "+44 (0)344 847 2552", "website": "http://www.riverisland.com/how-can-we-help/find-a-store/ayr-skye-square", "opening_hours": "Mo-Fr 09:00-17:30; Sa 09:30-17:30; Su 11:00-17:00", "image": "https://www.riverisland.com/Assets/RiverIsland/Core/images/logo.png", "brand": "RIVER ISLAND", "brand:wikidata": "Q2670328", "nsi_id": "riverisland-a754e7"}, "geometry": {"type": "Point", "coordinates": [-4.626789, 55.459589]}},
{"type": "Feature", "id": "OBRvIR6p5W6EXbIYwT5MkACDkng=", "properties": {"ref": "https://www.riverisland.com/how-can-we-help/find-a-store/aylesbury", "@spider": "riverisland_gb", "shop": "clothes", "addr:street_address": "Unit 21", "addr:city": "Buckinghamshire", "addr:state": "South East", "addr:postcode": "HP20 2QF", "addr:country": "GB", "name": "River Island AYLESBURY", "phone": "+44 (0)344 826 9720", "website": "http://www.riverisland.com/how-can-we-help/find-a-store/aylesbury", "opening_hours": "Mo-Fr 09:00-17:30; Sa 09:00-18:00; Su 10:30-16:30", "image": "https://www.riverisland.com/Assets/RiverIsland/Core/images/logo.png", "brand": "RIVER ISLAND", "brand:wikidata": "Q2670328", "nsi_id": "riverisland-a754e7"}, "geometry": {"type": "Point", "coordinates": [-0.811567, 51.816728]}},
{"type": "Feature", "id": "G5pD-syE3Ktd0dEMgj-qnH7Efn8=", "properties": {"ref": "https://www.riverisland.com/how-can-we-help/find-a-store/athlone", "@spider": "riverisland_gb", "shop": "clothes", "addr:street_address": "Units 25-26", "addr:city": "County West Meath", "addr:postcode": "N37 FN24", "addr:country": "IE", "name": "River Island ATHLONE", "phone": "+353 (0)906 403 990", "website": "http://www.riverisland.com/how-can-we-help/find-a-store/athlone", "opening_hours": "Mo-We 09:00-18:00; Th-Fr 09:00-20:00; Sa 09:00-18:00; Su 12:00-18:00", "image": "https://www.riverisland.com/Assets/RiverIsland/Core/images/logo.png", "brand": "RIVER ISLAND", "brand:wikidata": "Q2670328", "nsi_id": "riverisland-a754e7"}, "geometry": {"type": "Point", "coordinates": [-7.944975, 53.424564]}},
{"type": "Feature", "id": "gLv3cvWazew6RqqYoCKrTE9LJ54=", "properties": {"ref": "https://www.riverisland.com/how-can-we-help/find-a-store/arklow", "@spider": "riverisland_gb", "shop": "clothes", "addr:street_address": "Unit 17-18", "addr:city": "County Wicklow", "addr:postcode": "Y14 PR64", "addr:country": "IE", "name": "River Island ARKLOW", "phone": "+353 (0)402 45988", "website": "http://www.riverisland.com/how-can-we-help/find-a-store/arklow", "opening_hours": "Mo-We 09:30-18:00; Th-Fr 09:30-20:00; Sa 09:00-18:00; Su 12:00-18:00", "image": "https://www.riverisland.com/Assets/RiverIsland/Core/images/logo.png", "brand": "RIVER ISLAND", "brand:wikidata": "Q2670328", "nsi_id": "riverisland-a754e7"}, "geometry": {"type": "Point", "coordinates": [-6.158556, 52.800372]}},
{"type": "Feature", "id": "jjMA7Wi2us69zjEK8QxOOhh0-ZQ=", "properties": {"ref": "https://www.riverisland.com/how-can-we-help/find-a-store/altrincham", "@spider": "riverisland_gb", "shop": "clothes", "addr:street_address": "Unit Su204-304", "addr:city": "Cheshire", "addr:state": "North West", "addr:postcode": "WA14 1RH", "addr:country": "GB", "name": "River Island ALTRINCHAM", "phone": "+44 (0)344 826 9719", "website": "http://www.riverisland.com/how-can-we-help/find-a-store/altrincham", "opening_hours": "Mo-Sa 09:00-17:30; Su 10:30-16:30", "image": "https://www.riverisland.com/Assets/RiverIsland/Core/images/logo.png", "brand": "RIVER ISLAND", "brand:wikidata": "Q2670328", "nsi_id": "riverisland-a754e7"}, "geometry": {"type": "Point", "coordinates": [-2.349397, 53.387661]}},
{"type": "Feature", "id": "bfYkwnm7p_eUxABZ8dANk9IgNak=", "properties": {"ref": "https://www.riverisland.com/how-can-we-help/find-a-store/aberdeen-union-sq", "@spider": "riverisland_gb", "shop": "clothes", "addr:street_address": "15 Union Square", "addr:city": "Aberdeenshire", "addr:state": "Scotland", "addr:postcode": "AB11 5RG", "addr:country": "GB", "name": "River Island ABERDEEN UNION SQ", "phone": "+44 (0)344 334 0531", "website": "http://www.riverisland.com/how-can-we-help/find-a-store/aberdeen-union-sq", "opening_hours": "Mo-Fr 09:00-20:00; Sa 09:00-19:00; Su 11:00-18:00", "image": "https://www.riverisland.com/Assets/RiverIsland/Core/images/logo.png", "brand": "RIVER ISLAND", "brand:wikidata": "Q2670328", "nsi_id": "riverisland-a754e7"}, "geometry": {"type": "Point", "coordinates": [-2.0969, 57.14356]}}]}