{"type":"FeatureCollection","features":[{"type": "Feature", "id": "T1d6oEeGmb1WmVbTErGc1WC5uqg=", "properties": {"ref": "https://rockbottom.com/locations/milwaukee", "@spider": "rock_bottom", "addr:street_address": "740 N Plankinton Ave", "addr:city": "Milwaukee", "addr:state": "WI", "addr:postcode": "23233", "addr:country": "US", "name": "Milwaukee", "phone": "(414) 276-3030", "website": "https://rockbottom.com/locations/milwaukee", "opening_hours": "Mo-Th 11:00-11:00; Fr-Sa 11:00-24:00; Su 11:00-10:00", "image": "https://rockbottom.com/locations/images/rock-bottom/location-page_hero.jpg", "brand": "Rock Bottom", "brand:wikidata": "Q73504866"}, "geometry": {"type": "Point", "coordinates": [-87.911265, 43.039796]}},
{"type": "Feature", "id": "SuAj_w3ZKQgAY632-c77SRBs214=", "properties": {"ref": "https://rockbottom.com/locations/short-pump", "@spider": "rock_bottom", "addr:street_address": "11800 W Broad St 2098", "addr:city": "Richmond", "addr:state": "VA", "addr:postcode": "32114", "addr:country": "US", "name": "Short Pump", "phone": "(804) 729-3970", "website": "https://rockbottom.com/locations/short-pump", "opening_hours": "Mo 11:00-10:00; Tu-Fr 11:00-11:00; Sa 11:00-24:00; Su 11:00-10:00", "image": "https://rockbottom.com/locations/images/rock-bottom/location-page_hero.jpg", "brand": "Rock Bottom", "brand:wikidata": "Q73504866"}, "geometry": {"type": "Point", "coordinates": [-77.619825, 37.65738]}},
{"type": "Feature", "id": "W86urJ9mJgN6dGgmtW1tIoXuwsc=", "properties": {"ref": "https://rockbottom.com/locations/pittsburgh", "@spider": "rock_bottom", "addr:street_address": "171 E Bridge St", "addr:city": "Homestead", "addr:state": "PA", "addr:postcode": "60440", "addr:country": "US", "name": "Pittsburgh", "phone": "(412) 685-6010", "website": "https://rockbottom.com/locations/pittsburgh", "opening_hours": "Mo-Su 11:00-11:00", "image": "https://rockbottom.com/locations/images/rock-bottom/location-page_hero.jpg", "brand": "Rock Bottom", "brand:wikidata": "Q73504866"}, "geometry": {"type": "Point", "coordinates": [-79.915805, 40.410217]}},
{"type": "Feature", "id": "dX9TXgaqr9zz-bDTuYCPT0FFKTM=", "properties": {"ref": "https://rockbottom.com/locations/boston", "@spider": "rock_bottom", "addr:street_address": "115 Stuart St", "addr:city": "Boston", "addr:state": "MA", "addr:postcode": "95008", "addr:country": "US", "name": "Boston", "phone": "(617) 742-2739", "website": "https://rockbottom.com/locations/boston", "opening_hours": "Mo-We 11:00-24:00; Th-Sa 11:00-02:00; Su 11:00-24:00", "image": "https://rockbottom.com/locations/images/rock-bottom/location-page_hero.jpg", "brand": "Rock Bottom", "brand:wikidata": "Q73504866"}, "geometry": {"type": "Point", "coordinates": [-71.065332, 42.351331]}},
{"type": "Feature", "id": "tfO-I53to30KYIWY2HqTFq6utaA=", "properties": {"ref": "https://rockbottom.com/locations/bethesda", "@spider": "rock_bottom", "addr:street_address": "7900 Norfolk Ave", "addr:city": "Bethesda", "addr:state": "MD", "addr:postcode": "53203", "addr:country": "US", "name": "Bethesda", "phone": "(240) 465-0777", "website": "https://rockbottom.com/locations/bethesda", "opening_hours": "Mo-Th 11:00-11:00; Fr-Sa 11:00-01:00; Su 11:00-11:00", "image": "https://rockbottom.com/locations/images/rock-bottom/location-page_hero.jpg", "brand": "Rock Bottom", "brand:wikidata": "Q73504866"}, "geometry": {"type": "Point", "coordinates": [-77.097714, 38.988918]}},
{"type": "Feature", "id": "M7IKWqxMPjfk8t6rgKLZ90wIv2g=", "properties": {"ref": "https://rockbottom.com/locations/yorktown", "@spider": "rock_bottom", "addr:street_address": "94 Yorktown Ctr", "addr:city": "Lombard", "addr:state": "IL", "addr:postcode": "60555", "addr:country": "US", "name": "Yorktown", "phone": "(630) 424-1550", "website": "https://rockbottom.com/locations/yorktown", "opening_hours": "Mo-Th 11:00-11:00; Fr-Sa 11:00-24:00; Su 11:00-10:00", "image": "https://rockbottom.com/locations/images/rock-bottom/location-page_hero.jpg", "brand": "Rock Bottom", "brand:wikidata": "Q73504866"}, "geometry": {"type": "Point", "coordinates": [-88.010177, 41.838312]}},
{"type": "Feature", "id": "KLKqZ6s1oi5llneF6m19rbjdUNs=", "properties": {"ref": "https://rockbottom.com/locations/warrenville", "@spider": "rock_bottom", "addr:street_address": "28256 Diehl Rd", "addr:city": "Warrenville", "addr:state": "IL", "addr:postcode": "80265", "addr:country": "US", "name": "Warrenville", "phone": "(331) 888-9199", "website": "https://rockbottom.com/locations/warrenville", "opening_hours": "Mo-Th 11:00-11:00; Fr-Sa 11:00-24:00; Su 11:00-10:00", "image": "https://rockbottom.com/locations/images/rock-bottom/location-page_hero.jpg", "brand": "Rock Bottom", "brand:wikidata": "Q73504866"}, "geometry": {"type": "Point", "coordinates": [-88.172101, 41.803094]}},
{"type": "Feature", "id": "cJNM5Oro83f0Co3F6OfhXbpap2s=", "properties": {"ref": "https://rockbottom.com/locations/orland-park", "@spider": "rock_bottom", "addr:street_address": "16156 S La Grange Rd", "addr:city": "Orland Park", "addr:state": "IL", "addr:postcode": "60148", "addr:country": "US", "name": "Orland Park", "phone": "(708) 635-0030", "website": "https://rockbottom.com/locations/orland-park", "opening_hours": "Mo-Th 11:00-11:00; Fr-Sa 11:00-24:00; Su 11:00-10:00", "image": "https://rockbottom.com/locations/images/rock-bottom/location-page_hero.jpg", "brand": "Rock Bottom", "brand:wikidata": "Q73504866"}, "geometry": {"type": "Point", "coordinates": [-87.853556, 41.597335]}},
{"type": "Feature", "id": "MySa1o28ZE_cNVGsftIUaq8F1xY=", "properties": {"ref": "https://rockbottom.com/locations/chicago", "@spider": "rock_bottom", "addr:street_address": "1 W Grand Ave", "addr:city": "Chicago", "addr:state": "IL", "addr:postcode": "60467", "addr:country": "US", "name": "Chicago", "phone": "(312) 755-9339", "website": "https://rockbottom.com/locations/chicago", "opening_hours": "Mo-Th 11:00-11:00; Fr-Sa 11:00-24:00; Su 11:00-10:00", "image": "https://rockbottom.com/locations/images/rock-bottom/location-page_hero.jpg", "brand": "Rock Bottom", "brand:wikidata": "Q73504866"}, "geometry": {"type": "Point", "coordinates": [-87.627089, 41.891371]}},
{"type": "Feature", "id": "dpdOzsO56RcsoqLFqXPyBKUm-YY=", "properties": {"ref": "https://rockbottom.com/locations/daytona-beach", "@spider": "rock_bottom", "addr:street_address": "1864 Victory Circle Bldg K", "addr:city": "Daytona Beach", "addr:state": "FL", "addr:postcode": "80538", "addr:country": "US", "name": "Daytona Beach", "phone": "(386) 516-8322", "website": "https://rockbottom.com/locations/daytona-beach", "opening_hours": "Mo-Th 11:00-11:00; Fr-Sa 11:00-24:00; Su 11:00-10:00", "image": "https://rockbottom.com/locations/images/rock-bottom/location-page_hero.jpg", "brand": "Rock Bottom", "brand:wikidata": "Q73504866"}, "geometry": {"type": "Point", "coordinates": [-81.073842, 29.198408]}},
{"type": "Feature", "id": "zyWtDHrn54ylJ11VHAmeklDecOs=", "properties": {"ref": "https://rockbottom.com/locations/south-denver", "@spider": "rock_bottom", "addr:street_address": "9627 E County Line Rd", "addr:city": "Centennial", "addr:state": "CO", "addr:postcode": "80112", "addr:country": "US", "name": "South Denver", "phone": "(303) 792-9090", "website": "https://rockbottom.com/locations/south-denver", "opening_hours": "Mo-Fr 11:00-10:00; Sa 11:00-11:00; Su 11:00-10:00", "image": "https://rockbottom.com/locations/images/rock-bottom/location-page_hero.jpg", "brand": "Rock Bottom", "brand:wikidata": "Q73504866"}, "geometry": {"type": "Point", "coordinates": [-104.873966, 39.567766]}},
{"type": "Feature", "id": "LOuqUyUBhqZ2Dl9vZoH-EL7seXw=", "properties": {"ref": "https://rockbottom.com/locations/highlands-ranch", "@spider": "rock_bottom", "addr:street_address": "1505 Park Central Drive", "addr:city": "Highlands Ranch", "addr:state": "CO", "addr:postcode": "80126", "addr:country": "US", "name": "Highlands Ranch", "phone": "(720) 799-8110", "website": "https://rockbottom.com/locations/highlands-ranch", "opening_hours": "Mo-Fr 11:00-10:00; Sa 11:00-11:00; Su 11:00-10:00", "image": "https://rockbottom.com/locations/images/rock-bottom/location-page_hero.jpg", "brand": "Rock Bottom", "brand:wikidata": "Q73504866"}, "geometry": {"type": "Point", "coordinates": [-105.007575, 39.555149]}},
{"type": "Feature", "id": "exUYdAp4V4B3TLH6w7SjEPCjXbU=", "properties": {"ref": "https://rockbottom.com/locations/denver", "@spider": "rock_bottom", "addr:street_address": "1001 16th St A100", "addr:city": "Denver", "addr:state": "CO", "addr:postcode": "80265", "addr:country": "US", "name": "Denver", "phone": "(720) 452-9640", "website": "https://rockbottom.com/locations/denver", "opening_hours": "Mo-Tu 11:00-11:00; We-Th 11:00-24:00; Fr-Sa 11:00-01:00; Su 11:00-10:00", "image": "https://rockbottom.com/locations/images/rock-bottom/location-page_hero.jpg", "brand": "Rock Bottom", "brand:wikidata": "Q73504866"}, "geometry": {"type": "Point", "coordinates": [-104.994952, 39.747793]}},
{"type": "Feature", "id": "ETKAiItbQimgq1t4Gjq1phYBD1A=", "properties": {"ref": "https://rockbottom.com/locations/colorado-springs", "@spider": "rock_bottom", "addr:street_address": "3316 Cinema Pt", "addr:city": "Colorado Springs", "addr:state": "CO", "addr:postcode": "80922", "addr:country": "US", "name": "Colorado Springs", "phone": "(719) 550-3586", "website": "https://rockbottom.com/locations/colorado-springs", "opening_hours": "Mo-Fr 11:00-10:00; Sa 11:00-11:00; Su 11:00-10:00", "image": "https://rockbottom.com/locations/custom/88621.jpg", "brand": "Rock Bottom", "brand:wikidata": "Q73504866"}, "geometry": {"type": "Point", "coordinates": [-104.718159, 38.881191]}},
{"type": "Feature", "id": "9N8oh3aP1qmwAHhZzj6xsc_PW1s=", "properties": {"ref": "https://rockbottom.com/locations/centerra", "@spider": "rock_bottom", "addr:street_address": "6025 Sky Pond Dr", "addr:city": "Loveland", "addr:state": "CO", "addr:postcode": "80112", "addr:country": "US", "name": "Centerra", "phone": "(970) 685-7655", "website": "https://rockbottom.com/locations/centerra", "opening_hours": "Mo-Fr 11:00-10:00; Sa 11:00-11:00; Su 11:00-10:00", "image": "https://rockbottom.com/locations/images/rock-bottom/location-page_hero.jpg", "brand": "Rock Bottom", "brand:wikidata": "Q73504866"}, "geometry": {"type": "Point", "coordinates": [-104.987924, 40.41049]}},
{"type": "Feature", "id": "Mr933708PiF7KgGW_WG_akxvmLg=", "properties": {"ref": "https://rockbottom.com/locations/san-jose", "@spider": "rock_bottom", "addr:street_address": "1875 S Bascom Ave 700", "addr:city": "Campbell", "addr:state": "CA", "addr:postcode": "15120", "addr:country": "US", "name": "San Jose", "phone": "(408) 377-0707", "website": "https://rockbottom.com/locations/san-jose", "opening_hours": "Mo-Th 11:00-10:00; Fr-Sa 11:00-24:00; Su 11:00-10:00", "image": "https://rockbottom.com/locations/images/rock-bottom/location-page_hero.jpg", "brand": "Rock Bottom", "brand:wikidata": "Q73504866"}, "geometry": {"type": "Point", "coordinates": [-121.934237, 37.288955]}}]}