{"type":"FeatureCollection","features":[{"type": "Feature", "id": "dbzO25_UA-Wjiyr7aC5-Rq_0D3A=", "properties": {"ref": "rona-deslongchamps-riviere-rouge-01326", "@spider": "rona", "shop": "doityourself", "addr:full": "400, rue L'Annonciation sud", "addr:city": "Rivi\u00e8re-Rouge,", "addr:state": "QC,", "addr:postcode": "J0T 1T0", "addr:country": "CA", "website": "https://www.rona.ca/en/store/quebec/riviere-rouge/rona-deslongchamps-riviere-rouge-01326", "brand": "RONA", "brand:wikidata": "Q3415283", "nsi_id": "rona-fd1fd9"}, "geometry": {"type": "Point", "coordinates": [-74.86687, 46.40634]}},
{"type": "Feature", "id": "DdJr80_hqX5NDw674TtYmcEzU5s=", "properties": {"ref": "rona-quincaillerie-jean-hebert-inc-montreal-01296", "@spider": "rona", "shop": "doityourself", "addr:full": "1115, Mont-Royal Est", "addr:city": "Montr\u00e9al,", "addr:state": "QC,", "addr:postcode": "H2J 1X9", "addr:country": "CA", "website": "https://www.rona.ca/en/store/quebec/montreal/rona-quincaillerie-jean-hebert-inc-montreal-01296", "brand": "RONA", "brand:wikidata": "Q3415283", "nsi_id": "rona-fd1fd9"}, "geometry": {"type": "Point", "coordinates": [-73.5792, 45.52825]}},
{"type": "Feature", "id": "t7iF-vdkJHQT1JqhVXIuXWboYgE=", "properties": {"ref": "marchand-proprietaire-arthur-rivest-inc-01270", "@spider": "rona", "shop": "doityourself", "addr:full": "1405 Route 125", "addr:city": "Sainte-Julienne,", "addr:state": "QC,", "addr:postcode": "J0K 2T0", "addr:country": "CA", "website": "https://www.rona.ca/en/store/quebec/sainte-julienne/marchand-proprietaire-arthur-rivest-inc-01270", "brand": "RONA", "brand:wikidata": "Q3415283", "nsi_id": "rona-fd1fd9"}, "geometry": {"type": "Point", "coordinates": [-73.70816, 45.96284]}},
{"type": "Feature", "id": "WWBWbo7q0vcGEx_foJ3xSXsxSQM=", "properties": {"ref": "rona-alert-bay-01215", "@spider": "rona", "shop": "doityourself", "addr:full": "99, Fir street", "addr:city": "Alert Bay,", "addr:state": "BC,", "addr:postcode": "V0N 1A0", "addr:country": "CA", "website": "https://www.rona.ca/en/store/british-columbia/alert-bay/rona-alert-bay-01215", "brand": "RONA", "brand:wikidata": "Q3415283", "nsi_id": "rona-fd1fd9"}, "geometry": {"type": "Point", "coordinates": [-126.92758, 50.58201]}},
{"type": "Feature", "id": "2055eaxedIm_4pvd9TsKFOSh7-8=", "properties": {"ref": "rona-port-mcneill-01195", "@spider": "rona", "shop": "doityourself", "addr:full": "1664 Campbell Way", "addr:city": "Port McNeill,", "addr:state": "BC,", "addr:postcode": "V0N 2R0", "addr:country": "CA", "website": "https://www.rona.ca/en/store/british-columbia/port-mcneill/rona-port-mcneill-01195", "brand": "RONA", "brand:wikidata": "Q3415283", "nsi_id": "rona-fd1fd9"}, "geometry": {"type": "Point", "coordinates": [-127.08514, 50.59064]}},
{"type": "Feature", "id": "TV-km4DkWYGJvHg8hjFuM2GM8uM=", "properties": {"ref": "rona-villeray-montreal-01166", "@spider": "rona", "shop": "doityourself", "addr:full": "7701, rue Saint-Denis", "addr:city": "Montr\u00e9al,", "addr:state": "QC,", "addr:postcode": "H2R 2E9", "addr:country": "CA", "website": "https://www.rona.ca/en/store/quebec/montreal/rona-villeray-montreal-01166", "brand": "RONA", "brand:wikidata": "Q3415283", "nsi_id": "rona-fd1fd9"}, "geometry": {"type": "Point", "coordinates": [-73.62287, 45.54126]}},
{"type": "Feature", "id": "nJK6zvNNCBfFl9ndNUnqNbmJy7M=", "properties": {"ref": "dutton-rona-01165", "@spider": "rona", "shop": "doityourself", "addr:full": "277 Currie Road", "addr:city": "Dutton,", "addr:state": "ON,", "addr:postcode": "N0L 1J0", "addr:country": "CA", "website": "https://www.rona.ca/en/store/ontario/dutton/dutton-rona-01165", "brand": "RONA", "brand:wikidata": "Q3415283", "nsi_id": "rona-fd1fd9"}, "geometry": {"type": "Point", "coordinates": [-81.51001, 42.66914]}},
{"type": "Feature", "id": "hEjouqEEE9O0owLTJbZqtp0d3cs=", "properties": {"ref": "springfield-rona-01155", "@spider": "rona", "shop": "doityourself", "addr:full": "51276 Ron McNeil Line", "addr:city": "Springfield,", "addr:state": "ON,", "addr:postcode": "N0L 2J0", "addr:country": "CA", "website": "https://www.rona.ca/en/store/ontario/springfield/springfield-rona-01155", "brand": "RONA", "brand:wikidata": "Q3415283", "nsi_id": "rona-fd1fd9"}, "geometry": {"type": "Point", "coordinates": [-80.93457, 42.83024]}},
{"type": "Feature", "id": "VXSYgjEErCwtRUvY_-jQFLNE0Jw=", "properties": {"ref": "rodney-rona-01145", "@spider": "rona", "shop": "doityourself", "addr:full": "22349 Hoskins Line", "addr:city": "Rodney,", "addr:state": "ON,", "addr:postcode": "N0L 2C0", "addr:country": "CA", "website": "https://www.rona.ca/en/store/ontario/rodney/rodney-rona-01145", "brand": "RONA", "brand:wikidata": "Q3415283", "nsi_id": "rona-fd1fd9"}, "geometry": {"type": "Point", "coordinates": [-81.70525, 42.57897]}},
{"type": "Feature", "id": "-HBQYd1hI35vT9m8W1Oj1HBqfwc=", "properties": {"ref": "rona-major-major-inc-montreal-01008", "@spider": "rona", "shop": "doityourself", "addr:full": "1540, Sauve Est", "addr:city": "Montr\u00e9al,", "addr:state": "QC,", "addr:postcode": "H2C 2A7", "addr:country": "CA", "website": "https://www.rona.ca/en/store/quebec/montreal/rona-major-major-inc-montreal-01008", "brand": "RONA", "brand:wikidata": "Q3415283", "nsi_id": "rona-fd1fd9"}, "geometry": {"type": "Point", "coordinates": [-73.65003, 45.56123]}},
{"type": "Feature", "id": "9feW7aYypr3mNNOHQ0ohVCJ2ld8=", "properties": {"ref": "rona-bois-turcotte-ltee-amos-00924", "@spider": "rona", "shop": "doityourself", "addr:full": "21 , rue Principale Sud", "addr:city": "Amos,", "addr:state": "QC,", "addr:postcode": "J9T 2J4", "addr:country": "CA", "website": "https://www.rona.ca/en/store/quebec/amos/rona-bois-turcotte-ltee-amos-00924", "brand": "RONA", "brand:wikidata": "Q3415283", "nsi_id": "rona-fd1fd9"}, "geometry": {"type": "Point", "coordinates": [-78.11565, 48.57165]}},
{"type": "Feature", "id": "ME1BcBIFWMOfqTrTQV8PUcv-Fdc=", "properties": {"ref": "rona-chibougamau-00904", "@spider": "rona", "shop": "doityourself", "addr:full": "935, 3e Rue", "addr:city": "Chibougamau,", "addr:state": "QC,", "addr:postcode": "G8P 1R4", "addr:country": "CA", "website": "https://www.rona.ca/en/store/quebec/chibougamau/rona-chibougamau-00904", "brand": "RONA", "brand:wikidata": "Q3415283", "nsi_id": "rona-fd1fd9"}, "geometry": {"type": "Point", "coordinates": [-74.38631, 49.90952]}},
{"type": "Feature", "id": "QfjUcr0w3uo4VxP0hkyx7-h-Rrs=", "properties": {"ref": "rona-bois-turcotte-ltee-malartic-00810", "@spider": "rona", "shop": "doityourself", "addr:full": "820, rue Royale", "addr:city": "Malartic,", "addr:state": "QC,", "addr:postcode": "J0Y 1Z0", "addr:country": "CA", "website": "https://www.rona.ca/en/store/quebec/malartic/rona-bois-turcotte-ltee-malartic-00810", "brand": "RONA", "brand:wikidata": "Q3415283", "nsi_id": "rona-fd1fd9"}, "geometry": {"type": "Point", "coordinates": [-78.12505, 48.13548]}},
{"type": "Feature", "id": "29zJuOJvVxC6-C7hXLDIK3sEhxw=", "properties": {"ref": "rona-quincaillerie-c-belanger-ltee-montreal-00781", "@spider": "rona", "shop": "doityourself", "addr:full": "2918, rue Masson", "addr:city": "Montr\u00e9al,", "addr:state": "QC,", "addr:postcode": "H1Y 1X3", "addr:country": "CA", "website": "https://www.rona.ca/en/store/quebec/montreal/rona-quincaillerie-c-belanger-ltee-montreal-00781", "brand": "RONA", "brand:wikidata": "Q3415283", "nsi_id": "rona-fd1fd9"}, "geometry": {"type": "Point", "coordinates": [-73.57458, 45.54827]}},
{"type": "Feature", "id": "DlwSPAoHWLtM2e-mQVzYgHLoLBc=", "properties": {"ref": "rona-dryden-00630", "@spider": "rona", "shop": "doityourself", "addr:full": "329 Government street", "addr:city": "Dryden,", "addr:state": "ON,", "addr:postcode": "P8N 2P4", "addr:country": "CA", "website": "https://www.rona.ca/en/store/ontario/dryden/rona-dryden-00630", "brand": "RONA", "brand:wikidata": "Q3415283", "nsi_id": "rona-fd1fd9"}, "geometry": {"type": "Point", "coordinates": [-92.83762, 49.78737]}},
{"type": "Feature", "id": "TNV_VTlt0N1lNkoJ92qAyUtrg1c=", "properties": {"ref": "rona-teulon-00625", "@spider": "rona", "shop": "doityourself", "addr:full": "28 Provincial Trunk Hwy 7 S.", "addr:city": "Teulon,", "addr:state": "MB,", "addr:postcode": "R0C 3B0", "addr:country": "CA", "website": "https://www.rona.ca/en/store/manitoba/teulon/rona-teulon-00625", "brand": "RONA", "brand:wikidata": "Q3415283", "nsi_id": "rona-fd1fd9"}, "geometry": {"type": "Point", "coordinates": [-97.25388, 50.38782]}},
{"type": "Feature", "id": "kz9eOulZTfvfEmrwELdM7Ws94D4=", "properties": {"ref": "rona-calgary-west-66550", "@spider": "rona", "shop": "doityourself", "addr:full": "# 300 Stewart Green SW", "addr:city": "Calgary,", "addr:state": "AB,", "addr:postcode": "T3H 3C8", "addr:country": "CA", "website": "https://www.rona.ca/en/store/alberta/calgary/rona-calgary-west-66550", "brand": "RONA", "brand:wikidata": "Q3415283", "nsi_id": "rona-fd1fd9"}, "geometry": {"type": "Point", "coordinates": [-114.16906, 51.01405]}},
{"type": "Feature", "id": "0_Qyuk9_FKbWAnCAplJHrHx4DNE=", "properties": {"ref": "rona-leduc-66470", "@spider": "rona", "shop": "doityourself", "addr:full": "5202 Discovery Way", "addr:city": "Leduc,", "addr:state": "AB,", "addr:postcode": "T9E 0B2", "addr:country": "CA", "website": "https://www.rona.ca/en/store/alberta/leduc/rona-leduc-66470", "brand": "RONA", "brand:wikidata": "Q3415283", "nsi_id": "rona-fd1fd9"}, "geometry": {"type": "Point", "coordinates": [-113.57138, 53.26713]}},
{"type": "Feature", "id": "1kpRNV4j_srMHm4hPN8BIRMq_IA=", "properties": {"ref": "rona-spruce-grove-66460", "@spider": "rona", "shop": "doityourself", "addr:full": "175 Highway 16A", "addr:city": "Spruce Grove,", "addr:state": "AB,", "addr:postcode": "T7X 4P9", "addr:country": "CA", "website": "https://www.rona.ca/en/store/alberta/spruce-grove/rona-spruce-grove-66460", "brand": "RONA", "brand:wikidata": "Q3415283", "nsi_id": "rona-fd1fd9"}, "geometry": {"type": "Point", "coordinates": [-113.91981, 53.54053]}},
{"type": "Feature", "id": "3nqgwwvhBono5rGXCYUQX-yTqP4=", "properties": {"ref": "rona-sherwood-park-wye-road-66390", "@spider": "rona", "shop": "doityourself", "addr:full": "301, Wye Road, suite 81", "addr:city": "Sherwood Park,", "addr:state": "AB,", "addr:postcode": "T8B 0A4", "addr:country": "CA", "website": "https://www.rona.ca/en/store/alberta/sherwood-park/rona-sherwood-park-wye-road-66390", "brand": "RONA", "brand:wikidata": "Q3415283", "nsi_id": "rona-fd1fd9"}, "geometry": {"type": "Point", "coordinates": [-113.27088, 53.5122]}},
{"type": "Feature", "id": "yhRPAkpOIwzqKbn7Hky48A-kbEs=", "properties": {"ref": "rona-strathmore-66320", "@spider": "rona", "shop": "doityourself", "addr:full": "300 Ranch Market", "addr:city": "Strathmore,", "addr:state": "AB,", "addr:postcode": "T1P 0A8", "addr:country": "CA", "website": "https://www.rona.ca/en/store/alberta/strathmore/rona-strathmore-66320", "brand": "RONA", "brand:wikidata": "Q3415283", "nsi_id": "rona-fd1fd9"}, "geometry": {"type": "Point", "coordinates": [-113.38721, 51.03959]}},
{"type": "Feature", "id": "8j4kfXfR-fPuoFIyTPc5oIbXcio=", "properties": {"ref": "rona-red-deer-north-66220", "@spider": "rona", "shop": "doityourself", "addr:full": "7730 Gaetz Avenue North", "addr:city": "Red Deer,", "addr:state": "AB,", "addr:postcode": "T4P 2A5", "addr:country": "CA", "website": "https://www.rona.ca/en/store/alberta/red-deer/rona-red-deer-north-66220", "brand": "RONA", "brand:wikidata": "Q3415283", "nsi_id": "rona-fd1fd9"}, "geometry": {"type": "Point", "coordinates": [-113.81525, 52.30805]}},
{"type": "Feature", "id": "oH4ADygRXPaX55yZlWt66QEvruA=", "properties": {"ref": "rona-medicine-hat-66210", "@spider": "rona", "shop": "doityourself", "addr:full": "1330 TransCanada Way S.E.", "addr:city": "Medicine Hat,", "addr:state": "AB,", "addr:postcode": "T1B 3Z9", "addr:country": "CA", "website": "https://www.rona.ca/en/store/alberta/medicine-hat/rona-medicine-hat-66210", "brand": "RONA", "brand:wikidata": "Q3415283", "nsi_id": "rona-fd1fd9"}, "geometry": {"type": "Point", "coordinates": [-110.66028, 50.00596]}},
{"type": "Feature", "id": "EgagpZuXu8AVsGpPRNo5Nh1avcQ=", "properties": {"ref": "rona-lloydminster-66200", "@spider": "rona", "shop": "doityourself", "addr:full": "PO Box 10723", "addr:city": "Lloydminster,", "addr:state": "AB,", "addr:postcode": "T9V 3B1", "addr:country": "CA", "website": "https://www.rona.ca/en/store/alberta/lloydminster/rona-lloydminster-66200", "brand": "RONA", "brand:wikidata": "Q3415283", "nsi_id": "rona-fd1fd9"}, "geometry": {"type": "Point", "coordinates": [-110.02775, 53.27835]}},
{"type": "Feature", "id": "VQhLX7FoxmHn2J6Z5dy03-Lvawg=", "properties": {"ref": "rona-lethbridge-66190", "@spider": "rona", "shop": "doityourself", "addr:full": "2260-32nd Street South", "addr:city": "Lethbridge,", "addr:state": "AB,", "addr:postcode": "T1K 7T9", "addr:country": "CA", "website": "https://www.rona.ca/en/store/alberta/lethbridge/rona-lethbridge-66190", "brand": "RONA", "brand:wikidata": "Q3415283", "nsi_id": "rona-fd1fd9"}, "geometry": {"type": "Point", "coordinates": [-112.79637, 49.67182]}},
{"type": "Feature", "id": "qnrFv2ruXDuVE65XNKgQdiiM4YY=", "properties": {"ref": "rona-grande-prairie-66180", "@spider": "rona", "shop": "doityourself", "addr:full": "10950-102Ave Gateway PowerCt", "addr:city": "Grande Prairie,", "addr:state": "AB,", "addr:postcode": "T8V 2X3", "addr:country": "CA", "website": "https://www.rona.ca/en/store/alberta/grande-prairie/rona-grande-prairie-66180", "brand": "RONA", "brand:wikidata": "Q3415283", "nsi_id": "rona-fd1fd9"}, "geometry": {"type": "Point", "coordinates": [-118.8019, 55.17911]}},
{"type": "Feature", "id": "TMzjisYL_XhebObpY6aUPJB_95I=", "properties": {"ref": "rona-edmonton-southside-66160", "@spider": "rona", "shop": "doityourself", "addr:full": "9115-51st Avenue", "addr:city": "Edmonton,", "addr:state": "AB,", "addr:postcode": "T6E 6J3", "addr:country": "CA", "website": "https://www.rona.ca/en/store/alberta/edmonton/rona-edmonton-southside-66160", "brand": "RONA", "brand:wikidata": "Q3415283", "nsi_id": "rona-fd1fd9"}, "geometry": {"type": "Point", "coordinates": [-113.46879, 53.48744]}},
{"type": "Feature", "id": "mj76h9OjbbX4AjIBC7fSHyRHvhE=", "properties": {"ref": "rona-camrose-66150", "@spider": "rona", "shop": "doityourself", "addr:full": "7300-48th Avenue", "addr:city": "Camrose,", "addr:state": "AB,", "addr:postcode": "T4V 4W2", "addr:country": "CA", "website": "https://www.rona.ca/en/store/alberta/camrose/rona-camrose-66150", "brand": "RONA", "brand:wikidata": "Q3415283", "nsi_id": "rona-fd1fd9"}, "geometry": {"type": "Point", "coordinates": [-112.86269, 53.01842]}},
{"type": "Feature", "id": "qjPF1OFmUAKwFHFNQf_SRMNMNVk=", "properties": {"ref": "rona-calgary-edmonton-trail-66140", "@spider": "rona", "shop": "doityourself", "addr:full": "4215 Edmonton Trail N.E.", "addr:city": "Calgary,", "addr:state": "AB,", "addr:postcode": "T2E 3V6", "addr:country": "CA", "website": "https://www.rona.ca/en/store/alberta/calgary/rona-calgary-edmonton-trail-66140", "brand": "RONA", "brand:wikidata": "Q3415283", "nsi_id": "rona-fd1fd9"}, "geometry": {"type": "Point", "coordinates": [-114.05257, 51.09042]}},
{"type": "Feature", "id": "XTZnYrw3xfrRy073tqBbRhTk3K0=", "properties": {"ref": "rona-calgary-bowness-66120", "@spider": "rona", "shop": "doityourself", "addr:full": "6912 29th Avenue N.W.", "addr:city": "Calgary,", "addr:state": "AB,", "addr:postcode": "T3B 0J4", "addr:country": "CA", "website": "https://www.rona.ca/en/store/alberta/calgary/rona-calgary-bowness-66120", "brand": "RONA", "brand:wikidata": "Q3415283", "nsi_id": "rona-fd1fd9"}, "geometry": {"type": "Point", "coordinates": [-114.1852, 51.08035]}},
{"type": "Feature", "id": "JBnC3Gl7IZ2sK3f4xLzLBSLhMA8=", "properties": {"ref": "rona-calgary-forest-lawn-66110", "@spider": "rona", "shop": "doityourself", "addr:full": "1832 52nd Street SE", "addr:city": "Calgary,", "addr:state": "AB,", "addr:postcode": "T2B 1N1", "addr:country": "CA", "website": "https://www.rona.ca/en/store/alberta/calgary/rona-calgary-forest-lawn-66110", "brand": "RONA", "brand:wikidata": "Q3415283", "nsi_id": "rona-fd1fd9"}, "geometry": {"type": "Point", "coordinates": [-113.95839, 51.03502]}},
{"type": "Feature", "id": "FInsIpeVS3XBqnj5t9yq4fJbpK4=", "properties": {"ref": "home-garden-rona-winnipeg-central-64890", "@spider": "rona", "shop": "doityourself", "addr:full": "1333 Sargent Ave", "addr:city": "Winnipeg,", "addr:state": "MB,", "addr:postcode": "R3E 3P8", "addr:country": "CA", "website": "https://www.rona.ca/en/store/manitoba/winnipeg/home-garden-rona-winnipeg-central-64890", "brand": "RONA", "brand:wikidata": "Q3415283", "nsi_id": "rona-fd1fd9"}, "geometry": {"type": "Point", "coordinates": [-97.19682, 49.89889]}},
{"type": "Feature", "id": "Q4NSzeEuITyCHKtvVoXZeb7AxRI=", "properties": {"ref": "home-garden-rona-winnipeg-south-64870", "@spider": "rona", "shop": "doityourself", "addr:full": "1636 Kenaston Blvd", "addr:city": "Winnipeg,", "addr:state": "MB,", "addr:postcode": "R3P 2M6", "addr:country": "CA", "website": "https://www.rona.ca/en/store/manitoba/winnipeg/home-garden-rona-winnipeg-south-64870", "brand": "RONA", "brand:wikidata": "Q3415283", "nsi_id": "rona-fd1fd9"}, "geometry": {"type": "Point", "coordinates": [-97.20471, 49.82326]}},
{"type": "Feature", "id": "NzTzjBRPD3PUM6T80ROfTtNhhJI=", "properties": {"ref": "rona-winkler-64670", "@spider": "rona", "shop": "doityourself", "addr:full": "295 Cargill Road", "addr:city": "Winkler,", "addr:state": "MB,", "addr:postcode": "R6W 0K4", "addr:country": "CA", "website": "https://www.rona.ca/en/store/manitoba/winkler/rona-winkler-64670", "brand": "RONA", "brand:wikidata": "Q3415283", "nsi_id": "rona-fd1fd9"}, "geometry": {"type": "Point", "coordinates": [-97.9296, 49.18571]}},
{"type": "Feature", "id": "7Tf8dfNz5oUiKqFp5pAkceKRWyA=", "properties": {"ref": "home-garden-rona-regina-63840", "@spider": "rona", "shop": "doityourself", "addr:full": "3710 Quance Street East", "addr:city": "Regina,", "addr:state": "SK,", "addr:postcode": "S4V 3A4", "addr:country": "CA", "website": "https://www.rona.ca/en/store/saskatchewan/regina/home-garden-rona-regina-63840", "brand": "RONA", "brand:wikidata": "Q3415283", "nsi_id": "rona-fd1fd9"}, "geometry": {"type": "Point", "coordinates": [-104.52899, 50.44448]}},
{"type": "Feature", "id": "FzNBeyiRzTL9X2bgTourrCZEaUs=", "properties": {"ref": "rona-moose-jaw-63670", "@spider": "rona", "shop": "doityourself", "addr:full": "769 Thatcher drive east", "addr:city": "Moose Jaw,", "addr:state": "SK,", "addr:postcode": "S6J 1L8", "addr:country": "CA", "website": "https://www.rona.ca/en/store/saskatchewan/moose-jaw/rona-moose-jaw-63670", "brand": "RONA", "brand:wikidata": "Q3415283", "nsi_id": "rona-fd1fd9"}, "geometry": {"type": "Point", "coordinates": [-105.51791, 50.41139]}},
{"type": "Feature", "id": "bvbNG002GmAxXHSa8whODEpARso=", "properties": {"ref": "home-garden-rona-saskatoon-63650", "@spider": "rona", "shop": "doityourself", "addr:full": "1722 Preston Avenue N.", "addr:city": "Saskatoon,", "addr:state": "SK,", "addr:postcode": "S7N 4Y1", "addr:country": "CA", "website": "https://www.rona.ca/en/store/saskatchewan/saskatoon/home-garden-rona-saskatoon-63650", "brand": "RONA", "brand:wikidata": "Q3415283", "nsi_id": "rona-fd1fd9"}, "geometry": {"type": "Point", "coordinates": [-106.61679, 52.15037]}},
{"type": "Feature", "id": "kDzp-OojDYnmsfiOtbKzwwkB9MM=", "properties": {"ref": "rona-prince-albert-63600", "@spider": "rona", "shop": "doityourself", "addr:full": "800 15th Street East", "addr:city": "Prince Albert,", "addr:state": "SK,", "addr:postcode": "S6V 8E3", "addr:country": "CA", "website": "https://www.rona.ca/en/store/saskatchewan/prince-albert/rona-prince-albert-63600", "brand": "RONA", "brand:wikidata": "Q3415283", "nsi_id": "rona-fd1fd9"}, "geometry": {"type": "Point", "coordinates": [-105.72624, 53.19999]}},
{"type": "Feature", "id": "LDBwbmkzuCad94oVD4OhBZ-MmDM=", "properties": {"ref": "home-garden-rona-calgary-sunridge-62860", "@spider": "rona", "shop": "doityourself", "addr:full": "2665 32nd Street N.E", "addr:city": "Calgary,", "addr:state": "AB,", "addr:postcode": "T1Y 6Z7", "addr:country": "CA", "website": "https://www.rona.ca/en/store/alberta/calgary/home-garden-rona-calgary-sunridge-62860", "brand": "RONA", "brand:wikidata": "Q3415283", "nsi_id": "rona-fd1fd9"}, "geometry": {"type": "Point", "coordinates": [-113.99011, 51.0774]}},
{"type": "Feature", "id": "ZCer-3epHlOrehIWENHrsNqSb9E=", "properties": {"ref": "rona-fort-mcmurray-62450", "@spider": "rona", "shop": "doityourself", "addr:full": "8408 Manning Ave", "addr:city": "Fort McMurray,", "addr:state": "AB,", "addr:postcode": "T9H 5G2", "addr:country": "CA", "website": "https://www.rona.ca/en/store/alberta/fort-mcmurray/rona-fort-mcmurray-62450", "brand": "RONA", "brand:wikidata": "Q3415283", "nsi_id": "rona-fd1fd9"}, "geometry": {"type": "Point", "coordinates": [-111.35412, 56.71857]}},
{"type": "Feature", "id": "KE-li9e0I1UNxU2mR0cIh8b3FcM=", "properties": {"ref": "rona-edmonton-stony-plain-rd-62380", "@spider": "rona", "shop": "doityourself", "addr:full": "18445 Stony Plain Rd", "addr:city": "Edmonton,", "addr:state": "AB,", "addr:postcode": "T5S 2X6", "addr:country": "CA", "website": "https://www.rona.ca/en/store/alberta/edmonton/rona-edmonton-stony-plain-rd-62380", "brand": "RONA", "brand:wikidata": "Q3415283", "nsi_id": "rona-fd1fd9"}, "geometry": {"type": "Point", "coordinates": [-113.64176, 53.54141]}},
{"type": "Feature", "id": "p2HNC2cwp0onWuwFq-FKxu9zA-g=", "properties": {"ref": "rona-golden-61830", "@spider": "rona", "shop": "doityourself", "addr:full": "912 15th street south", "addr:city": "Golden,", "addr:state": "BC,", "addr:postcode": "V0A 1H0", "addr:country": "CA", "website": "https://www.rona.ca/en/store/british-columbia/golden/rona-golden-61830", "brand": "RONA", "brand:wikidata": "Q3415283", "nsi_id": "rona-fd1fd9"}, "geometry": {"type": "Point", "coordinates": [-116.96428, 51.29029]}},
{"type": "Feature", "id": "46NP92RTDoT1t5TO5CFYy3YpyIk=", "properties": {"ref": "rona-langley-bypass-61810", "@spider": "rona", "shop": "doityourself", "addr:full": "20350 Langley Bypass", "addr:city": "Langley,", "addr:state": "BC,", "addr:postcode": "V3A 5E7", "addr:country": "CA", "website": "https://www.rona.ca/en/store/british-columbia/langley/rona-langley-bypass-61810", "brand": "RONA", "brand:wikidata": "Q3415283", "nsi_id": "rona-fd1fd9"}, "geometry": {"type": "Point", "coordinates": [-122.6616, 49.1121]}},
{"type": "Feature", "id": "NAdxck09l6Co4Y4-2NKsMVrCIxU=", "properties": {"ref": "rona-north-vancouver-park-tilford-61740", "@spider": "rona", "shop": "doityourself", "addr:full": "1160 East 3rd", "addr:city": "North Vancouver,", "addr:state": "BC,", "addr:postcode": "V7J 1B8", "addr:country": "CA", "website": "https://www.rona.ca/en/store/british-columbia/north-vancouver/rona-north-vancouver-park-tilford-61740", "brand": "RONA", "brand:wikidata": "Q3415283", "nsi_id": "rona-fd1fd9"}, "geometry": {"type": "Point", "coordinates": [-123.04494, 49.30866]}},
{"type": "Feature", "id": "An3duPuiPj1sPH-AVnU60tzq9M8=", "properties": {"ref": "rona-surrey-fleetwood-61720", "@spider": "rona", "shop": "doityourself", "addr:full": "16659 Fraser Highway", "addr:city": "Surrey,", "addr:state": "BC,", "addr:postcode": "V4N 0E7", "addr:country": "CA", "website": "https://www.rona.ca/en/store/british-columbia/surrey/rona-surrey-fleetwood-61720", "brand": "RONA", "brand:wikidata": "Q3415283", "nsi_id": "rona-fd1fd9"}, "geometry": {"type": "Point", "coordinates": [-122.76086, 49.15185]}},
{"type": "Feature", "id": "8NEep2wP7rTqG-eO4jVuyKt2cXI=", "properties": {"ref": "home-garden-rona-kelowna-61700", "@spider": "rona", "shop": "doityourself", "addr:full": "1711 Springfield Rd", "addr:city": "Kelowna,", "addr:state": "BC,", "addr:postcode": "V1Y 5V5", "addr:country": "CA", "website": "https://www.rona.ca/en/store/british-columbia/kelowna/home-garden-rona-kelowna-61700", "brand": "RONA", "brand:wikidata": "Q3415283", "nsi_id": "rona-fd1fd9"}, "geometry": {"type": "Point", "coordinates": [-119.4603, 49.8763]}},
{"type": "Feature", "id": "HJzDkijn-KQWQLR2fcybKltiTqM=", "properties": {"ref": "rona-penticton-61490", "@spider": "rona", "shop": "doityourself", "addr:full": "348 Duncan avenue west", "addr:city": "Penticton,", "addr:state": "BC,", "addr:postcode": "V2A 7N1", "addr:country": "CA", "website": "https://www.rona.ca/en/store/british-columbia/penticton/rona-penticton-61490", "brand": "RONA", "brand:wikidata": "Q3415283", "nsi_id": "rona-fd1fd9"}, "geometry": {"type": "Point", "coordinates": [-119.59888, 49.48435]}},
{"type": "Feature", "id": "6xY_VZuinWCKoWTWM_nHUUOY1Hg=", "properties": {"ref": "rona-whistler-61460", "@spider": "rona", "shop": "doityourself", "addr:full": "1350 , Alpha Lake Road", "addr:city": "Whistler,", "addr:state": "BC,", "addr:postcode": "V8E 0H9", "addr:country": "CA", "website": "https://www.rona.ca/en/store/british-columbia/whistler/rona-whistler-61460", "brand": "RONA", "brand:wikidata": "Q3415283", "nsi_id": "rona-fd1fd9"}, "geometry": {"type": "Point", "coordinates": [-123.03265, 50.08998]}},
{"type": "Feature", "id": "GU88-M44mIkSf_KOkMV9aCyzxEo=", "properties": {"ref": "rona-squamish-61450", "@spider": "rona", "shop": "doityourself", "addr:full": "39009 Discovery Way", "addr:city": "Squamish,", "addr:state": "BC,", "addr:postcode": "V8B 0E6", "addr:country": "CA", "website": "https://www.rona.ca/en/store/british-columbia/squamish/rona-squamish-61450", "brand": "RONA", "brand:wikidata": "Q3415283", "nsi_id": "rona-fd1fd9"}, "geometry": {"type": "Point", "coordinates": [-123.1512, 49.71918]}},
{"type": "Feature", "id": "-tbcYwTXv71mfHtVFQhqDoVUvPI=", "properties": {"ref": "rona-chilliwack-61390", "@spider": "rona", "shop": "doityourself", "addr:full": "45656 Yale Road West", "addr:city": "Chilliwack,", "addr:state": "BC,", "addr:postcode": "V2P 2N3", "addr:country": "CA", "website": "https://www.rona.ca/en/store/british-columbia/chilliwack/rona-chilliwack-61390", "brand": "RONA", "brand:wikidata": "Q3415283", "nsi_id": "rona-fd1fd9"}, "geometry": {"type": "Point", "coordinates": [-121.95979, 49.15597]}},
{"type": "Feature", "id": "wkIVUJkS5clHy1eEQr7Gy8UM-FQ=", "properties": {"ref": "rona-williams-lake-61340", "@spider": "rona", "shop": "doityourself", "addr:full": "298 Proctor St", "addr:city": "Williams Lake,", "addr:state": "BC,", "addr:postcode": "V2G 1S1", "addr:country": "CA", "website": "https://www.rona.ca/en/store/british-columbia/williams-lake/rona-williams-lake-61340", "brand": "RONA", "brand:wikidata": "Q3415283", "nsi_id": "rona-fd1fd9"}, "geometry": {"type": "Point", "coordinates": [-122.14342, 52.132]}},
{"type": "Feature", "id": "CiB6icIeX_CtgbK1kJv2VDwyDf0=", "properties": {"ref": "rona-quesnel-61320", "@spider": "rona", "shop": "doityourself", "addr:full": "450 Johnston Ave", "addr:city": "Quesnel,", "addr:state": "BC,", "addr:postcode": "V2J 3M5", "addr:country": "CA", "website": "https://www.rona.ca/en/store/british-columbia/quesnel/rona-quesnel-61320", "brand": "RONA", "brand:wikidata": "Q3415283", "nsi_id": "rona-fd1fd9"}, "geometry": {"type": "Point", "coordinates": [-122.49187, 52.96999]}},
{"type": "Feature", "id": "8zR--qmAazQJs0NY93kLHl3R0XE=", "properties": {"ref": "rona-kamloops-61310", "@spider": "rona", "shop": "doityourself", "addr:full": "416 Mt. Paul Way", "addr:city": "Kamloops,", "addr:state": "BC,", "addr:postcode": "V2H 1A8", "addr:country": "CA", "website": "https://www.rona.ca/en/store/british-columbia/kamloops/rona-kamloops-61310", "brand": "RONA", "brand:wikidata": "Q3415283", "nsi_id": "rona-fd1fd9"}, "geometry": {"type": "Point", "coordinates": [-120.32304, 50.68629]}},
{"type": "Feature", "id": "1bqmyOKytclZum1K5_sqvKbiU_Y=", "properties": {"ref": "rona-vernon-61300", "@spider": "rona", "shop": "doityourself", "addr:full": "2201 -58th Ave", "addr:city": "Vernon,", "addr:state": "BC,", "addr:postcode": "V1T 9T5", "addr:country": "CA", "website": "https://www.rona.ca/en/store/british-columbia/vernon/rona-vernon-61300", "brand": "RONA", "brand:wikidata": "Q3415283", "nsi_id": "rona-fd1fd9"}, "geometry": {"type": "Point", "coordinates": [-119.25914, 50.28961]}},
{"type": "Feature", "id": "08gKQbEZb_mWY20xGrULnHGeJ8U=", "properties": {"ref": "rona-coquitlam-austin-61290", "@spider": "rona", "shop": "doityourself", "addr:full": "425 Lebleu", "addr:city": "Coquitlam,", "addr:state": "BC,", "addr:postcode": "V3K 6X4", "addr:country": "CA", "website": "https://www.rona.ca/en/store/british-columbia/coquitlam/rona-coquitlam-austin-61290", "brand": "RONA", "brand:wikidata": "Q3415283", "nsi_id": "rona-fd1fd9"}, "geometry": {"type": "Point", "coordinates": [-122.86717, 49.24807]}},
{"type": "Feature", "id": "AxCZoffBqSD674hoHGa34dmb5GE=", "properties": {"ref": "rona-burnaby-61270", "@spider": "rona", "shop": "doityourself", "addr:full": "7260 Edmonds Street", "addr:city": "Burnaby,", "addr:state": "BC,", "addr:postcode": "V3N 1A6", "addr:country": "CA", "website": "https://www.rona.ca/en/store/british-columbia/burnaby/rona-burnaby-61270", "brand": "RONA", "brand:wikidata": "Q3415283", "nsi_id": "rona-fd1fd9"}, "geometry": {"type": "Point", "coordinates": [-122.95229, 49.21754]}},
{"type": "Feature", "id": "HRkWUovaOnLZKeDl9kjvHBHsJPM=", "properties": {"ref": "rona-coquitlam-61260", "@spider": "rona", "shop": "doityourself", "addr:full": "2798 Barnet Highway", "addr:city": "Coquitlam,", "addr:state": "BC,", "addr:postcode": "V3B 1B9", "addr:country": "CA", "website": "https://www.rona.ca/en/store/british-columbia/coquitlam/rona-coquitlam-61260", "brand": "RONA", "brand:wikidata": "Q3415283", "nsi_id": "rona-fd1fd9"}, "geometry": {"type": "Point", "coordinates": [-122.80276, 49.27679]}},
{"type": "Feature", "id": "Org3Do7g2KRYvaieN-c1vZMRDCE=", "properties": {"ref": "rona-surrey-south-surrey-61240", "@spider": "rona", "shop": "doityourself", "addr:full": "3165 King George boulevard", "addr:city": "Surrey,", "addr:state": "BC,", "addr:postcode": "V4P 1B8", "addr:country": "CA", "website": "https://www.rona.ca/en/store/british-columbia/surrey/rona-surrey-south-surrey-61240", "brand": "RONA", "brand:wikidata": "Q3415283", "nsi_id": "rona-fd1fd9"}, "geometry": {"type": "Point", "coordinates": [-122.81124, 49.05901]}},
{"type": "Feature", "id": "t5oU-q1LEcxpwIGgY1mU3W1N_vs=", "properties": {"ref": "rona-abbotsford-61220", "@spider": "rona", "shop": "doityourself", "addr:full": "32073 South Fraser Way", "addr:city": "Abbotsford,", "addr:state": "BC,", "addr:postcode": "V2T 1W3", "addr:country": "CA", "website": "https://www.rona.ca/en/store/british-columbia/abbotsford/rona-abbotsford-61220", "brand": "RONA", "brand:wikidata": "Q3415283", "nsi_id": "rona-fd1fd9"}, "geometry": {"type": "Point", "coordinates": [-122.335, 49.05122]}},
{"type": "Feature", "id": "UFCukUzce88nmkfwzpTbB9OBzp0=", "properties": {"ref": "rona-maple-ridge-61190", "@spider": "rona", "shop": "doityourself", "addr:full": "21213 Lougheed Highway", "addr:city": "Maple Ridge,", "addr:state": "BC,", "addr:postcode": "V2X 2R4", "addr:country": "CA", "website": "https://www.rona.ca/en/store/british-columbia/maple-ridge/rona-maple-ridge-61190", "brand": "RONA", "brand:wikidata": "Q3415283", "nsi_id": "rona-fd1fd9"}, "geometry": {"type": "Point", "coordinates": [-122.63345, 49.21758]}},
{"type": "Feature", "id": "K_vXHc6QK9IlU9iMuBW3zsUX13Y=", "properties": {"ref": "rona-cobble-hill-61040", "@spider": "rona", "shop": "doityourself", "addr:full": "3730 Trans Canada", "addr:city": "Cobble Hill,", "addr:state": "BC,", "addr:postcode": "V0R 1L0", "addr:country": "CA", "website": "https://www.rona.ca/en/store/british-columbia/cobble-hill/rona-cobble-hill-61040", "brand": "RONA", "brand:wikidata": "Q3415283", "nsi_id": "rona-fd1fd9"}, "geometry": {"type": "Point", "coordinates": [-123.59233, 48.6958]}},
{"type": "Feature", "id": "uK3LsbUFPq8FykcekcBC906dYPw=", "properties": {"ref": "rona-nanaimo-61030", "@spider": "rona", "shop": "doityourself", "addr:full": "1250 Island Hwy South", "addr:city": "Nanaimo,", "addr:state": "BC,", "addr:postcode": "V9R 6R5", "addr:country": "CA", "website": "https://www.rona.ca/en/store/british-columbia/nanaimo/rona-nanaimo-61030", "brand": "RONA", "brand:wikidata": "Q3415283", "nsi_id": "rona-fd1fd9"}, "geometry": {"type": "Point", "coordinates": [-123.92067, 49.13148]}},
{"type": "Feature", "id": "zBu3BzeyekfkOnFhoIqbSjkXqwQ=", "properties": {"ref": "home-garden-rona-nepean-55550", "@spider": "rona", "shop": "doityourself", "addr:full": "585 West Hunt Club rd", "addr:city": "Nepean,", "addr:state": "ON,", "addr:postcode": "K2G 5X6", "addr:country": "CA", "website": "https://www.rona.ca/en/store/ontario/nepean/home-garden-rona-nepean-55550", "brand": "RONA", "brand:wikidata": "Q3415283", "nsi_id": "rona-fd1fd9"}, "geometry": {"type": "Point", "coordinates": [-75.73024, 45.33445]}},
{"type": "Feature", "id": "BREzZptXvzzEYBLi0_3FK92RmU8=", "properties": {"ref": "rona-oakville-windsor-drive-55460", "@spider": "rona", "shop": "doityourself", "addr:full": "2311 Royal Windsor Drive", "addr:city": "Oakville,", "addr:state": "ON,", "addr:postcode": "L6J 7X7", "addr:country": "CA", "website": "https://www.rona.ca/en/store/ontario/oakville/rona-oakville-windsor-drive-55460", "brand": "RONA", "brand:wikidata": "Q3415283", "nsi_id": "rona-fd1fd9"}, "geometry": {"type": "Point", "coordinates": [-79.6526, 43.49127]}},
{"type": "Feature", "id": "guPFwFQapryw49nTZSZuD0Kkrtg=", "properties": {"ref": "rona-islington-55410", "@spider": "rona", "shop": "doityourself", "addr:full": "994 Islington Avenue", "addr:city": "Etobicoke,", "addr:state": "ON,", "addr:postcode": "M8Z 4P8", "addr:country": "CA", "website": "https://www.rona.ca/en/store/ontario/etobicoke/rona-islington-55410", "brand": "RONA", "brand:wikidata": "Q3415283", "nsi_id": "rona-fd1fd9"}, "geometry": {"type": "Point", "coordinates": [-79.51818, 43.63023]}},
{"type": "Feature", "id": "kqSkIDY01EEq4qXTHIutOzU2kTk=", "properties": {"ref": "home-garden-rona-scarborough-midland-55340", "@spider": "rona", "shop": "doityourself", "addr:full": "3750 Midland", "addr:city": "Scarborough,", "addr:state": "ON,", "addr:postcode": "M1V 4V3", "addr:country": "CA", "website": "https://www.rona.ca/en/store/ontario/scarborough/home-garden-rona-scarborough-midland-55340", "brand": "RONA", "brand:wikidata": "Q3415283", "nsi_id": "rona-fd1fd9"}, "geometry": {"type": "Point", "coordinates": [-79.29477, 43.81696]}},
{"type": "Feature", "id": "mtSWdNfNlLUTDkmTX6ywtQm770s=", "properties": {"ref": "home-garden-rona-waterdown-55330", "@spider": "rona", "shop": "doityourself", "addr:full": "52 Dundas Street East", "addr:city": "Dundas,", "addr:state": "ON,", "addr:postcode": "L9H 0C2", "addr:country": "CA", "website": "https://www.rona.ca/en/store/ontario/dundas/home-garden-rona-waterdown-55330", "brand": "RONA", "brand:wikidata": "Q3415283", "nsi_id": "rona-fd1fd9"}, "geometry": {"type": "Point", "coordinates": [-79.91285, 43.31383]}},
{"type": "Feature", "id": "POfrwFybWwYzG9Ek8xmzWEVZOLA=", "properties": {"ref": "home-garden-kingston-55300", "@spider": "rona", "shop": "doityourself", "addr:full": "2342 Princess street", "addr:city": "Kingston,", "addr:state": "ON,", "addr:postcode": "K7M 3G4", "addr:country": "CA", "website": "https://www.rona.ca/en/store/ontario/kingston/home-garden-kingston-55300", "brand": "RONA", "brand:wikidata": "Q3415283", "nsi_id": "rona-fd1fd9"}, "geometry": {"type": "Point", "coordinates": [-76.55102, 44.25911]}},
{"type": "Feature", "id": "Ax4_ProQ2uTQUtr9ILmb0SvxgYA=", "properties": {"ref": "home-garden-rona-london-55270", "@spider": "rona", "shop": "doityourself", "addr:full": "820 Blythwood Road", "addr:city": "London,", "addr:state": "ON,", "addr:postcode": "N6H 5T8", "addr:country": "CA", "website": "https://www.rona.ca/en/store/ontario/london/home-garden-rona-london-55270", "brand": "RONA", "brand:wikidata": "Q3415283", "nsi_id": "rona-fd1fd9"}, "geometry": {"type": "Point", "coordinates": [-81.29876, 42.99066]}},
{"type": "Feature", "id": "DtvcQedVOjEQUgGpDuvNL-ZebuU=", "properties": {"ref": "rona-georgetown-55250", "@spider": "rona", "shop": "doityourself", "addr:full": "348 Guelph street", "addr:city": "Georgetown,", "addr:state": "ON,", "addr:postcode": "L7G 4B5", "addr:country": "CA", "website": "https://www.rona.ca/en/store/ontario/georgetown/rona-georgetown-55250", "brand": "RONA", "brand:wikidata": "Q3415283", "nsi_id": "rona-fd1fd9"}, "geometry": {"type": "Point", "coordinates": [-79.88276, 43.64865]}},
{"type": "Feature", "id": "NYhRVxNjGzxkINJOF7-LE1AzwlY=", "properties": {"ref": "home-garden-rona-brampton-55230", "@spider": "rona", "shop": "doityourself", "addr:full": "50 Gillingham Drive", "addr:city": "Brampton,", "addr:state": "ON,", "addr:postcode": "L6X 4X7", "addr:country": "CA", "website": "https://www.rona.ca/en/store/ontario/brampton/home-garden-rona-brampton-55230", "brand": "RONA", "brand:wikidata": "Q3415283", "nsi_id": "rona-fd1fd9"}, "geometry": {"type": "Point", "coordinates": [-79.78735, 43.7032]}},
{"type": "Feature", "id": "EaVKnpVxGjsteTBvgPWFRaggtTY=", "properties": {"ref": "home-garden-rona-barrie-55200", "@spider": "rona", "shop": "doityourself", "addr:full": "61 Mapleview Drive East", "addr:city": "Barrie,", "addr:state": "ON,", "addr:postcode": "L4N 9H5", "addr:country": "CA", "website": "https://www.rona.ca/en/store/ontario/barrie/home-garden-rona-barrie-55200", "brand": "RONA", "brand:wikidata": "Q3415283", "nsi_id": "rona-fd1fd9"}, "geometry": {"type": "Point", "coordinates": [-79.67963, 44.33495]}},
{"type": "Feature", "id": "Bd23v0IpUIIkgUEwXAdUg5qCDE4=", "properties": {"ref": "home-garden-rona-scarborough-golden-mile-55140", "@spider": "rona", "shop": "doityourself", "addr:full": "768 Warden Avenue", "addr:city": "Scarborough,", "addr:state": "ON,", "addr:postcode": "M1L 2G9", "addr:country": "CA", "website": "https://www.rona.ca/en/store/ontario/scarborough/home-garden-rona-scarborough-golden-mile-55140", "brand": "RONA", "brand:wikidata": "Q3415283", "nsi_id": "rona-fd1fd9"}, "geometry": {"type": "Point", "coordinates": [-79.28599, 43.72278]}},
{"type": "Feature", "id": "VqicV1JSSr3Tj6OkN9Od9HJHL4M=", "properties": {"ref": "home-garden-rona-toronto-stockyards-55130", "@spider": "rona", "shop": "doityourself", "addr:full": "110 West Toronto Street", "addr:city": "Toronto,", "addr:state": "ON,", "addr:postcode": "M6N 5B7", "addr:country": "CA", "website": "https://www.rona.ca/en/store/ontario/toronto/home-garden-rona-toronto-stockyards-55130", "brand": "RONA", "brand:wikidata": "Q3415283", "nsi_id": "rona-fd1fd9"}, "geometry": {"type": "Point", "coordinates": [-79.47003, 43.66904]}},
{"type": "Feature", "id": "IkZqXYgxriUO4-tDpGL7qFvqsDs=", "properties": {"ref": "rona-mississauga-erin-mills-55120", "@spider": "rona", "shop": "doityourself", "addr:full": "2933-A Eglinton Avenue West", "addr:city": "Mississauga,", "addr:state": "ON,", "addr:postcode": "L5M 6J3", "addr:country": "CA", "website": "https://www.rona.ca/en/store/ontario/mississauga/rona-mississauga-erin-mills-55120", "brand": "RONA", "brand:wikidata": "Q3415283", "nsi_id": "rona-fd1fd9"}, "geometry": {"type": "Point", "coordinates": [-79.71789, 43.55119]}},
{"type": "Feature", "id": "YzrwGBUu8Sn56jfhC0K5ApNkx5k=", "properties": {"ref": "rona-etobicoke-martin-grove-55090", "@spider": "rona", "shop": "doityourself", "addr:full": "1170 Martin Grove Road", "addr:city": "Etobicoke,", "addr:state": "ON,", "addr:postcode": "M9W 4X1", "addr:country": "CA", "website": "https://www.rona.ca/en/store/ontario/etobicoke/rona-etobicoke-martin-grove-55090", "brand": "RONA", "brand:wikidata": "Q3415283", "nsi_id": "rona-fd1fd9"}, "geometry": {"type": "Point", "coordinates": [-79.57696, 43.70238]}},
{"type": "Feature", "id": "-MR_qhUiUqDNOvzsueiQfsm5fFE=", "properties": {"ref": "rona-burlington-55080", "@spider": "rona", "shop": "doityourself", "addr:full": "1830 Ironstone Drive", "addr:city": "Burlington,", "addr:state": "ON,", "addr:postcode": "L7L 5V3", "addr:country": "CA", "website": "https://www.rona.ca/en/store/ontario/burlington/rona-burlington-55080", "brand": "RONA", "brand:wikidata": "Q3415283", "nsi_id": "rona-fd1fd9"}, "geometry": {"type": "Point", "coordinates": [-79.79096, 43.39059]}},
{"type": "Feature", "id": "q63V0EYAUBNvUZiR-H_ITN0fsLI=", "properties": {"ref": "rona-oakville-speers-road-55070", "@spider": "rona", "shop": "doityourself", "addr:full": "399 Speers Road", "addr:city": "Oakville,", "addr:state": "ON,", "addr:postcode": "L6K 3T2", "addr:country": "CA", "website": "https://www.rona.ca/en/store/ontario/oakville/rona-oakville-speers-road-55070", "brand": "RONA", "brand:wikidata": "Q3415283", "nsi_id": "rona-fd1fd9"}, "geometry": {"type": "Point", "coordinates": [-79.6951, 43.43951]}},
{"type": "Feature", "id": "bM-WnTv3byuW42JplIVfC2s-BHU=", "properties": {"ref": "rona-markham-55050", "@spider": "rona", "shop": "doityourself", "addr:full": "8651 McCowan road", "addr:city": "Unionville,", "addr:state": "ON,", "addr:postcode": "L3P 4H1", "addr:country": "CA", "website": "https://www.rona.ca/en/store/ontario/unionville/rona-markham-55050", "brand": "RONA", "brand:wikidata": "Q3415283", "nsi_id": "rona-fd1fd9"}, "geometry": {"type": "Point", "coordinates": [-79.28492, 43.87171]}},
{"type": "Feature", "id": "9X63h9ZWB4yw4wYyJcx-e0u4XOE=", "properties": {"ref": "rona-north-york-sheppard-55030", "@spider": "rona", "shop": "doityourself", "addr:full": "258 Sheppard Ave. East", "addr:city": "North York,", "addr:state": "ON,", "addr:postcode": "M2N 3B1", "addr:country": "CA", "website": "https://www.rona.ca/en/store/ontario/north-york/rona-north-york-sheppard-55030", "brand": "RONA", "brand:wikidata": "Q3415283", "nsi_id": "rona-fd1fd9"}, "geometry": {"type": "Point", "coordinates": [-79.39929, 43.7644]}},
{"type": "Feature", "id": "0QEWCcREb2e4mrYJ59Npnnr1mvU=", "properties": {"ref": "rona-mississauga-dundas-55010", "@spider": "rona", "shop": "doityourself", "addr:full": "650 Dundas street East", "addr:city": "Mississauga,", "addr:state": "ON,", "addr:postcode": "L5A 3Y6", "addr:country": "CA", "website": "https://www.rona.ca/en/store/ontario/mississauga/rona-mississauga-dundas-55010", "brand": "RONA", "brand:wikidata": "Q3415283", "nsi_id": "rona-fd1fd9"}, "geometry": {"type": "Point", "coordinates": [-79.60017, 43.59365]}},
{"type": "Feature", "id": "mf8wHsf87Mt9ayOo-X9lDKtkfxU=", "properties": {"ref": "rona-carignan-ch-chambly-44550", "@spider": "rona", "shop": "doityourself", "addr:full": "1458, Chemin Chambly", "addr:city": "Carignan,", "addr:state": "QC,", "addr:postcode": "J3L 0J4", "addr:country": "CA", "website": "https://www.rona.ca/en/store/quebec/carignan/rona-carignan-ch-chambly-44550", "brand": "RONA", "brand:wikidata": "Q3415283", "nsi_id": "rona-fd1fd9"}, "geometry": {"type": "Point", "coordinates": [-73.34472, 45.46679]}},
{"type": "Feature", "id": "NklqIEjb5_-VGbC7XVAjddBSRn8=", "properties": {"ref": "rona-chateauguay-principale-44280", "@spider": "rona", "shop": "doityourself", "addr:full": "99, rue Principale", "addr:city": "Ch\u00e2teauguay,", "addr:state": "QC,", "addr:postcode": "J6K 1G2", "addr:country": "CA", "website": "https://www.rona.ca/en/store/quebec/chateauguay/rona-chateauguay-principale-44280", "brand": "RONA", "brand:wikidata": "Q3415283", "nsi_id": "rona-fd1fd9"}, "geometry": {"type": "Point", "coordinates": [-73.75471, 45.35768]}},
{"type": "Feature", "id": "7vkD2UCbgbl1IuXte7CUadxwgIQ=", "properties": {"ref": "rona-vaudreuil-44150", "@spider": "rona", "shop": "doityourself", "addr:full": "3061, rue du Plateau", "addr:city": "Vaudreuil-Dorion,", "addr:state": "QC,", "addr:postcode": "J7V 8P2", "addr:country": "CA", "website": "https://www.rona.ca/en/store/quebec/vaudreuil-dorion/rona-vaudreuil-44150", "brand": "RONA", "brand:wikidata": "Q3415283", "nsi_id": "rona-fd1fd9"}, "geometry": {"type": "Point", "coordinates": [-74.07777, 45.38827]}},
{"type": "Feature", "id": "nJ2SzGlzX64d1T5QQy1ktoAxWc4=", "properties": {"ref": "rona-saint-constant-44050", "@spider": "rona", "shop": "doityourself", "addr:full": "254, mont\u00e9e St-R\u00e9gis", "addr:city": "Saint-Constant,", "addr:state": "QC,", "addr:postcode": "J5A 2E7", "addr:country": "CA", "website": "https://www.rona.ca/en/store/quebec/saint-constant/rona-saint-constant-44050", "brand": "RONA", "brand:wikidata": "Q3415283", "nsi_id": "rona-fd1fd9"}, "geometry": {"type": "Point", "coordinates": [-73.59106, 45.37124]}},
{"type": "Feature", "id": "yrBGgjr4-Gggpxj5euX-JUEhHUE=", "properties": {"ref": "rona-pont-viau-44020", "@spider": "rona", "shop": "doityourself", "addr:full": "164, boul. des Laurentides", "addr:city": "Laval,", "addr:state": "QC,", "addr:postcode": "H7G 4P6", "addr:country": "CA", "website": "https://www.rona.ca/en/store/quebec/laval/rona-pont-viau-44020", "brand": "RONA", "brand:wikidata": "Q3415283", "nsi_id": "rona-fd1fd9"}, "geometry": {"type": "Point", "coordinates": [-73.68725, 45.56424]}},
{"type": "Feature", "id": "vO0tZ-xl8N4C5Dpg0yijIOuSSos=", "properties": {"ref": "rona-blainville-43390", "@spider": "rona", "shop": "doityourself", "addr:full": "1425, boul. Mich\u00e8le-Bohec", "addr:city": "Blainville,", "addr:state": "QC,", "addr:postcode": "J7C 0M4", "addr:country": "CA", "website": "https://www.rona.ca/en/store/quebec/blainville/rona-blainville-43390", "brand": "RONA", "brand:wikidata": "Q3415283", "nsi_id": "rona-fd1fd9"}, "geometry": {"type": "Point", "coordinates": [-73.91197, 45.68052]}},
{"type": "Feature", "id": "j8c7kB1ybiB0LIuzXMbG9rYVwig=", "properties": {"ref": "rona-sainte-therese-43380", "@spider": "rona", "shop": "doityourself", "addr:full": "227, bd Ren\u00e9-A.-Robert", "addr:city": "Sainte-Th\u00e9r\u00e8se,", "addr:state": "QC,", "addr:postcode": "J7E 4L1", "addr:country": "CA", "website": "https://www.rona.ca/en/store/quebec/sainte-therese/rona-sainte-therese-43380", "brand": "RONA", "brand:wikidata": "Q3415283", "nsi_id": "rona-fd1fd9"}, "geometry": {"type": "Point", "coordinates": [-73.81755, 45.64267]}},
{"type": "Feature", "id": "XONt-TtNj4OumLx5L-MdBDEE0wk=", "properties": {"ref": "rona-boucherville-43370", "@spider": "rona", "shop": "doityourself", "addr:full": "280, Fort St-Louis", "addr:city": "Boucherville,", "addr:state": "QC,", "addr:postcode": "J4B 1S1", "addr:country": "CA", "website": "https://www.rona.ca/en/store/quebec/boucherville/rona-boucherville-43370", "brand": "RONA", "brand:wikidata": "Q3415283", "nsi_id": "rona-fd1fd9"}, "geometry": {"type": "Point", "coordinates": [-73.45457, 45.59656]}},
{"type": "Feature", "id": "ux4xxIUlI59WZkgzbZrV7KK8cpc=", "properties": {"ref": "rona-boucherville-43360", "@spider": "rona", "shop": "doityourself", "addr:full": "585, rue de Touraine", "addr:city": "Boucherville,", "addr:state": "QC,", "addr:postcode": "J4B 5E4", "addr:country": "CA", "website": "https://www.rona.ca/en/store/quebec/boucherville/rona-boucherville-43360", "brand": "RONA", "brand:wikidata": "Q3415283", "nsi_id": "rona-fd1fd9"}, "geometry": {"type": "Point", "coordinates": [-73.40762, 45.57566]}},
{"type": "Feature", "id": "PZEDc6v4f62O5bTpB8-J6mhcBfc=", "properties": {"ref": "rona-rouyn-noranda-43340", "@spider": "rona", "shop": "doityourself", "addr:full": "271, avenue Senator", "addr:city": "Rouyn-Noranda,", "addr:state": "QC,", "addr:postcode": "J9X 7E7", "addr:country": "CA", "website": "https://www.rona.ca/en/store/quebec/rouyn-noranda/rona-rouyn-noranda-43340", "brand": "RONA", "brand:wikidata": "Q3415283", "nsi_id": "rona-fd1fd9"}, "geometry": {"type": "Point", "coordinates": [-79.03795, 48.24128]}},
{"type": "Feature", "id": "1b0ofUoH8N8JgKSNjWF7jVS4z1c=", "properties": {"ref": "rona-thetford-mines-43320", "@spider": "rona", "shop": "doityourself", "addr:full": "805, boulevard Frontenac Est", "addr:city": "Thetford Mines,", "addr:state": "QC,", "addr:postcode": "G6G 6L5", "addr:country": "CA", "website": "https://www.rona.ca/en/store/quebec/thetford-mines/rona-thetford-mines-43320", "brand": "RONA", "brand:wikidata": "Q3415283", "nsi_id": "rona-fd1fd9"}, "geometry": {"type": "Point", "coordinates": [-71.30214, 46.11101]}},
{"type": "Feature", "id": "uoN26dFLBmdcMI1KoIl8FP5ABQA=", "properties": {"ref": "rona-saint-georges-43310", "@spider": "rona", "shop": "doityourself", "addr:full": "777, 150e rue", "addr:city": "Saint-Georges,", "addr:state": "QC,", "addr:postcode": "G5Y 0J1", "addr:country": "CA", "website": "https://www.rona.ca/en/store/quebec/saint-georges/rona-saint-georges-43310", "brand": "RONA", "brand:wikidata": "Q3415283", "nsi_id": "rona-fd1fd9"}, "geometry": {"type": "Point", "coordinates": [-70.65462, 46.11011]}},
{"type": "Feature", "id": "-xfPTUXU76hlT6e4ituWYOYXo_c=", "properties": {"ref": "rona-ste-marie-43300", "@spider": "rona", "shop": "doityourself", "addr:full": "1276, boulevard Vachon Nord", "addr:city": "Sainte-Marie,", "addr:state": "QC,", "addr:postcode": "G6E 1N2", "addr:country": "CA", "website": "https://www.rona.ca/en/store/quebec/sainte-marie/rona-ste-marie-43300", "brand": "RONA", "brand:wikidata": "Q3415283", "nsi_id": "rona-fd1fd9"}, "geometry": {"type": "Point", "coordinates": [-71.03288, 46.45209]}},
{"type": "Feature", "id": "8sV84YNbxusilWgn1hy0KL4XFUQ=", "properties": {"ref": "rona-bois-de-construction-sept-iles-cartier-43280", "@spider": "rona", "shop": "doityourself", "addr:full": "164, Napoleon", "addr:city": "Sept-Iles,", "addr:state": "QC,", "addr:postcode": "G4R 3M3", "addr:country": "CA", "website": "https://www.rona.ca/en/store/quebec/sept-iles/rona-bois-de-construction-sept-iles-cartier-43280", "brand": "RONA", "brand:wikidata": "Q3415283", "nsi_id": "rona-fd1fd9"}, "geometry": {"type": "Point", "coordinates": [-66.3688, 50.21285]}},
{"type": "Feature", "id": "GCFIrQKy6WDwJ5yjVSVG0UJykXE=", "properties": {"ref": "rona-edmundston-43230", "@spider": "rona", "shop": "doityourself", "addr:full": "595, Carrier", "addr:city": "Edmundston,", "addr:state": "NB,", "addr:postcode": "E3V 4H4", "addr:country": "CA", "website": "https://www.rona.ca/en/store/new-brunswick/edmundston/rona-edmundston-43230", "brand": "RONA", "brand:wikidata": "Q3415283", "nsi_id": "rona-fd1fd9"}, "geometry": {"type": "Point", "coordinates": [-68.34101, 47.39385]}},
{"type": "Feature", "id": "L1IHuyYHFWdWSGOi2ieMxMO80kY=", "properties": {"ref": "rona-bois-de-construction-sept-iles-cartier-43220", "@spider": "rona", "shop": "doityourself", "addr:full": "160, Portage des Mousses", "addr:city": "Port-Cartier,", "addr:state": "QC,", "addr:postcode": "G5B 1E3", "addr:country": "CA", "website": "https://www.rona.ca/en/store/quebec/port-cartier/rona-bois-de-construction-sept-iles-cartier-43220", "brand": "RONA", "brand:wikidata": "Q3415283", "nsi_id": "rona-fd1fd9"}, "geometry": {"type": "Point", "coordinates": [-66.83254, 50.03415]}},
{"type": "Feature", "id": "uPhYdcVuh1wJFURshZw9bizo1WI=", "properties": {"ref": "rona-quebec-43210", "@spider": "rona", "shop": "doityourself", "addr:full": "9635 , Boul. L'Ormi\u00e8re", "addr:city": "Qu\u00e9bec,", "addr:state": "QC,", "addr:postcode": "G2B 3K7", "addr:country": "CA", "website": "https://www.rona.ca/en/store/quebec/quebec/rona-quebec-43210", "brand": "RONA", "brand:wikidata": "Q3415283", "nsi_id": "rona-fd1fd9"}, "geometry": {"type": "Point", "coordinates": [-71.35837, 46.83692]}},
{"type": "Feature", "id": "39R-v3yKJOBpPz137UmDH8L-dA4=", "properties": {"ref": "rona-montreal-reno-dg-43200", "@spider": "rona", "shop": "doityourself", "addr:full": "5890, St-Jacques Ouest", "addr:city": "Montr\u00e9al,", "addr:state": "QC,", "addr:postcode": "H4A 2E9", "addr:country": "CA", "website": "https://www.rona.ca/en/store/quebec/montreal/rona-montreal-reno-dg-43200", "brand": "RONA", "brand:wikidata": "Q3415283", "nsi_id": "rona-fd1fd9"}, "geometry": {"type": "Point", "coordinates": [-73.6116, 45.46562]}},
{"type": "Feature", "id": "ulVOrPA3BQiV7HiL3q84ArWyPe0=", "properties": {"ref": "rona-gatineau-bsrb-43190", "@spider": "rona", "shop": "doityourself", "addr:full": "1011, chemin de Masson", "addr:city": "Gatineau,", "addr:state": "QC,", "addr:postcode": "J8M 1R4", "addr:country": "CA", "website": "https://www.rona.ca/en/store/quebec/gatineau/rona-gatineau-bsrb-43190", "brand": "RONA", "brand:wikidata": "Q3415283", "nsi_id": "rona-fd1fd9"}, "geometry": {"type": "Point", "coordinates": [-75.42024, 45.55757]}},
{"type": "Feature", "id": "W_a2lrNVL8uDUvfpCUmmostENNQ=", "properties": {"ref": "rona-shawinigan-43160", "@spider": "rona", "shop": "doityourself", "addr:full": "1650, rue Trudel", "addr:city": "Shawinigan,", "addr:state": "QC,", "addr:postcode": "G9N 0A2", "addr:country": "CA", "website": "https://www.rona.ca/en/store/quebec/shawinigan/rona-shawinigan-43160", "brand": "RONA", "brand:wikidata": "Q3415283", "nsi_id": "rona-fd1fd9"}, "geometry": {"type": "Point", "coordinates": [-72.74882, 46.55808]}},
{"type": "Feature", "id": "O4uoY_oP-Uv_wvQXYE2MQ0v0yw8=", "properties": {"ref": "rona-grand-mere-43140", "@spider": "rona", "shop": "doityourself", "addr:full": "891, 7e Avenue", "addr:city": "Shawinigan,", "addr:state": "QC,", "addr:postcode": "G9T 2B9", "addr:country": "CA", "website": "https://www.rona.ca/en/store/quebec/shawinigan/rona-grand-mere-43140", "brand": "RONA", "brand:wikidata": "Q3415283", "nsi_id": "rona-fd1fd9"}, "geometry": {"type": "Point", "coordinates": [-72.69665, 46.61268]}},
{"type": "Feature", "id": "1KJRQCnCuUMa0KLZpRF-m2gRjRs=", "properties": {"ref": "rona-knowlton-43120", "@spider": "rona", "shop": "doityourself", "addr:full": "601, Knowlton", "addr:city": "Knowlton,", "addr:state": "QC,", "addr:postcode": "J0E 1V0", "addr:country": "CA", "website": "https://www.rona.ca/en/store/quebec/knowlton/rona-knowlton-43120", "brand": "RONA", "brand:wikidata": "Q3415283", "nsi_id": "rona-fd1fd9"}, "geometry": {"type": "Point", "coordinates": [-72.54129, 45.21132]}},
{"type": "Feature", "id": "Cj3hxx4mqQtt3jadgT9KOVwIdHw=", "properties": {"ref": "rona-farnham-43110", "@spider": "rona", "shop": "doityourself", "addr:full": "700, Principale Ouest", "addr:city": "Farnham,", "addr:state": "QC,", "addr:postcode": "J2N 1K9", "addr:country": "CA", "website": "https://www.rona.ca/en/store/quebec/farnham/rona-farnham-43110", "brand": "RONA", "brand:wikidata": "Q3415283", "nsi_id": "rona-fd1fd9"}, "geometry": {"type": "Point", "coordinates": [-72.99239, 45.28681]}},
{"type": "Feature", "id": "FoMm9g1ASK4HKwQpfM7oDzmRPPo=", "properties": {"ref": "rona-cowansville-43100", "@spider": "rona", "shop": "doityourself", "addr:full": "570, Jean-Jacques Bertrand", "addr:city": "Cowansville,", "addr:state": "QC,", "addr:postcode": "J2K 5C4", "addr:country": "CA", "website": "https://www.rona.ca/en/store/quebec/cowansville/rona-cowansville-43100", "brand": "RONA", "brand:wikidata": "Q3415283", "nsi_id": "rona-fd1fd9"}, "geometry": {"type": "Point", "coordinates": [-72.76069, 45.19742]}},
{"type": "Feature", "id": "o4WTDKsqCLblH1ks6kz-8GqXNMA=", "properties": {"ref": "rona-bromont-43090", "@spider": "rona", "shop": "doityourself", "addr:full": "25, rue John - Savage", "addr:city": "Bromont,", "addr:state": "QC,", "addr:postcode": "J2L 0A5", "addr:country": "CA", "website": "https://www.rona.ca/en/store/quebec/bromont/rona-bromont-43090", "brand": "RONA", "brand:wikidata": "Q3415283", "nsi_id": "rona-fd1fd9"}, "geometry": {"type": "Point", "coordinates": [-72.65002, 45.31763]}},
{"type": "Feature", "id": "oD2JLhrwroGyq6ls172daXWGTqA=", "properties": {"ref": "rona-tracy-43050", "@spider": "rona", "shop": "doityourself", "addr:full": "2425, boul. St-Louis", "addr:city": "Sorel-Tracy,", "addr:state": "QC,", "addr:postcode": "J3R 4S6", "addr:country": "CA", "website": "https://www.rona.ca/en/store/quebec/sorel-tracy/rona-tracy-43050", "brand": "RONA", "brand:wikidata": "Q3415283", "nsi_id": "rona-fd1fd9"}, "geometry": {"type": "Point", "coordinates": [-73.14584, 46.02957]}},
{"type": "Feature", "id": "iPRLKRTLurEcpKLNG2iKgrXWG7Y=", "properties": {"ref": "rona-sainte-julie-43030", "@spider": "rona", "shop": "doityourself", "addr:full": "1185, rue Principale", "addr:city": "Sainte-Julie,", "addr:state": "QC,", "addr:postcode": "J3E 0C3", "addr:country": "CA", "website": "https://www.rona.ca/en/store/quebec/sainte-julie/rona-sainte-julie-43030", "brand": "RONA", "brand:wikidata": "Q3415283", "nsi_id": "rona-fd1fd9"}, "geometry": {"type": "Point", "coordinates": [-73.32215, 45.60362]}},
{"type": "Feature", "id": "xZA-DFud_7ey8KBRb_rPNYzk6y0=", "properties": {"ref": "rona-longueuil-jacques-cartier-43020", "@spider": "rona", "shop": "doityourself", "addr:full": "1305, Jacques-Cartier O", "addr:city": "Longueuil,", "addr:state": "QC,", "addr:postcode": "J4K 0A6", "addr:country": "CA", "website": "https://www.rona.ca/en/store/quebec/longueuil/rona-longueuil-jacques-cartier-43020", "brand": "RONA", "brand:wikidata": "Q3415283", "nsi_id": "rona-fd1fd9"}, "geometry": {"type": "Point", "coordinates": [-73.47648, 45.50714]}},
{"type": "Feature", "id": "7wNHQGrL1KQ7OgVHVGhmiQKvCdo=", "properties": {"ref": "rona-contrecoeur-43010", "@spider": "rona", "shop": "doityourself", "addr:full": "4885, boul. des Ormes", "addr:city": "Contrecoeur,", "addr:state": "QC,", "addr:postcode": "J0L 1C0", "addr:country": "CA", "website": "https://www.rona.ca/en/store/quebec/contrecoeur/rona-contrecoeur-43010", "brand": "RONA", "brand:wikidata": "Q3415283", "nsi_id": "rona-fd1fd9"}, "geometry": {"type": "Point", "coordinates": [-73.23072, 45.85202]}},
{"type": "Feature", "id": "5mUj0k3ThDc5phuC21Jat3dgKUU=", "properties": {"ref": "rona-repentigny-42480", "@spider": "rona", "shop": "doityourself", "addr:full": "118, boul. Industriel", "addr:city": "Repentigny,", "addr:state": "QC,", "addr:postcode": "J6A 4X7", "addr:country": "CA", "website": "https://www.rona.ca/en/store/quebec/repentigny/rona-repentigny-42480", "brand": "RONA", "brand:wikidata": "Q3415283", "nsi_id": "rona-fd1fd9"}, "geometry": {"type": "Point", "coordinates": [-73.44731, 45.75485]}},
{"type": "Feature", "id": "_5vbYNIHgh8EojO5ZiFIzNOKztQ=", "properties": {"ref": "rona-longueuil-roland-therrien-42420", "@spider": "rona", "shop": "doityourself", "addr:full": "2301, Roland Therrien", "addr:city": "Longueuil,", "addr:state": "QC,", "addr:postcode": "J4N 1C5", "addr:country": "CA", "website": "https://www.rona.ca/en/store/quebec/longueuil/rona-longueuil-roland-therrien-42420", "brand": "RONA", "brand:wikidata": "Q3415283", "nsi_id": "rona-fd1fd9"}, "geometry": {"type": "Point", "coordinates": [-73.46646, 45.5369]}},
{"type": "Feature", "id": "exIRrwF-5A8GYPDDG8Ub30yHalw=", "properties": {"ref": "rona-levis-42390", "@spider": "rona", "shop": "doityourself", "addr:full": "1415, Metivier", "addr:city": "L\u00e9vis,", "addr:state": "QC,", "addr:postcode": "G6V 9M6", "addr:country": "CA", "website": "https://www.rona.ca/en/store/quebec/levis/rona-levis-42390", "brand": "RONA", "brand:wikidata": "Q3415283", "nsi_id": "rona-fd1fd9"}, "geometry": {"type": "Point", "coordinates": [-71.16853, 46.79305]}},
{"type": "Feature", "id": "LxLNVhw19g0-lHcMHQ2qvgEAfto=", "properties": {"ref": "rona-alma-42360", "@spider": "rona", "shop": "doityourself", "addr:full": "105, Route du Lac Est", "addr:city": "Alma,", "addr:state": "QC,", "addr:postcode": "G8C 1N8", "addr:country": "CA", "website": "https://www.rona.ca/en/store/quebec/alma/rona-alma-42360", "brand": "RONA", "brand:wikidata": "Q3415283", "nsi_id": "rona-fd1fd9"}, "geometry": {"type": "Point", "coordinates": [-71.65017, 48.52162]}},
{"type": "Feature", "id": "pJJt13vukHKV5XWlkksO-KK91Es=", "properties": {"ref": "rona-chateauguay-42310", "@spider": "rona", "shop": "doityourself", "addr:full": "41, boul. St-Jean-Baptiste", "addr:city": "Ch\u00e2teauguay,", "addr:state": "QC,", "addr:postcode": "J6J 3H5", "addr:country": "CA", "website": "https://www.rona.ca/en/store/quebec/chateauguay/rona-chateauguay-42310", "brand": "RONA", "brand:wikidata": "Q3415283", "nsi_id": "rona-fd1fd9"}, "geometry": {"type": "Point", "coordinates": [-73.71277, 45.36588]}},
{"type": "Feature", "id": "qV5-U75X4pQ0axxFHpOnF9eO-xY=", "properties": {"ref": "rona-rimouski-41680", "@spider": "rona", "shop": "doityourself", "addr:full": "385 boul. Arthur-Buies est", "addr:city": "Rimouski,", "addr:state": "QC,", "addr:postcode": "G5M 0B2", "addr:country": "CA", "website": "https://www.rona.ca/en/store/quebec/rimouski/rona-rimouski-41680", "brand": "RONA", "brand:wikidata": "Q3415283", "nsi_id": "rona-fd1fd9"}, "geometry": {"type": "Point", "coordinates": [-68.49555, 48.45283]}},
{"type": "Feature", "id": "ehwTgcBO7xB8Fr9XgVabkYFObME=", "properties": {"ref": "rona-beloeil-41520", "@spider": "rona", "shop": "doityourself", "addr:full": "500, Serge Pepin", "addr:city": "Beloeil,", "addr:state": "QC,", "addr:postcode": "J3G 0C3", "addr:country": "CA", "website": "https://www.rona.ca/en/store/quebec/beloeil/rona-beloeil-41520", "brand": "RONA", "brand:wikidata": "Q3415283", "nsi_id": "rona-fd1fd9"}, "geometry": {"type": "Point", "coordinates": [-73.2052, 45.5932]}},
{"type": "Feature", "id": "hSzSkZfK0AvQv1rQiu40r4p0_Q0=", "properties": {"ref": "lentrepot-rona-brossard-dix-30-41460", "@spider": "rona", "shop": "doityourself", "addr:full": "9800, boul. Leduc", "addr:city": "Brossard,", "addr:state": "QC,", "addr:postcode": "J4Y 0B4", "addr:country": "CA", "website": "https://www.rona.ca/en/store/quebec/brossard/lentrepot-rona-brossard-dix-30-41460", "brand": "RONA", "brand:wikidata": "Q3415283", "nsi_id": "rona-fd1fd9"}, "geometry": {"type": "Point", "coordinates": [-73.43993, 45.43781]}},
{"type": "Feature", "id": "WRDiq0dMxUwCOf9sHJ7HonaKsfM=", "properties": {"ref": "rona-pierrefonds-41450", "@spider": "rona", "shop": "doityourself", "addr:full": "3933, boul. St-Charles", "addr:city": "Pierrefonds,", "addr:state": "QC,", "addr:postcode": "H9H 3C7", "addr:country": "CA", "website": "https://www.rona.ca/en/store/quebec/pierrefonds/rona-pierrefonds-41450", "brand": "RONA", "brand:wikidata": "Q3415283", "nsi_id": "rona-fd1fd9"}, "geometry": {"type": "Point", "coordinates": [-73.8666, 45.46254]}},
{"type": "Feature", "id": "A-w0c5xmVyb-KNaftQlQLXEdd9o=", "properties": {"ref": "lentrepot-rona-saint-hyacinthe-41400", "@spider": "rona", "shop": "doityourself", "addr:full": "555, Daniel-Johnson Est", "addr:city": "Saint-Hyacinthe,", "addr:state": "QC,", "addr:postcode": "J2S 7V6", "addr:country": "CA", "website": "https://www.rona.ca/en/store/quebec/saint-hyacinthe/lentrepot-rona-saint-hyacinthe-41400", "brand": "RONA", "brand:wikidata": "Q3415283", "nsi_id": "rona-fd1fd9"}, "geometry": {"type": "Point", "coordinates": [-72.96261, 45.64399]}},
{"type": "Feature", "id": "ns70CWa7uDGREWrAfjd6Ir749UA=", "properties": {"ref": "lentrepot-rona-granby-41380", "@spider": "rona", "shop": "doityourself", "addr:full": "200, St-Jude Nord", "addr:city": "Granby,", "addr:state": "QC,", "addr:postcode": "J2J 2R8", "addr:country": "CA", "website": "https://www.rona.ca/en/store/quebec/granby/lentrepot-rona-granby-41380", "brand": "RONA", "brand:wikidata": "Q3415283", "nsi_id": "rona-fd1fd9"}, "geometry": {"type": "Point", "coordinates": [-72.74804, 45.41995]}},
{"type": "Feature", "id": "NZ1Jg_oM4B654FCb3WrtqxPVF4c=", "properties": {"ref": "lentrepot-rona-saint-jean-sur-richelieu-41350", "@spider": "rona", "shop": "doityourself", "addr:full": "170, rue Moreau", "addr:city": "Saint-Jean-sur-Richelieu,", "addr:state": "QC,", "addr:postcode": "J2W 2M4", "addr:country": "CA", "website": "https://www.rona.ca/en/store/quebec/saint-jean-sur-richelieu/lentrepot-rona-saint-jean-sur-richelieu-41350", "brand": "RONA", "brand:wikidata": "Q3415283", "nsi_id": "rona-fd1fd9"}, "geometry": {"type": "Point", "coordinates": [-73.28941, 45.33862]}},
{"type": "Feature", "id": "rs8My8uAmRv7c8ri7bXofPifGqo=", "properties": {"ref": "lentrepot-rona-saint-eustache-41340", "@spider": "rona", "shop": "doityourself", "addr:full": "440, rue Dubois", "addr:city": "Saint-Eustache,", "addr:state": "QC,", "addr:postcode": "J7P 4W9", "addr:country": "CA", "website": "https://www.rona.ca/en/store/quebec/saint-eustache/lentrepot-rona-saint-eustache-41340", "brand": "RONA", "brand:wikidata": "Q3415283", "nsi_id": "rona-fd1fd9"}, "geometry": {"type": "Point", "coordinates": [-73.89027, 45.57695]}},
{"type": "Feature", "id": "F2Vg9mUgW6G8uQBfYL6PSidI9c8=", "properties": {"ref": "lentrepot-rona-joliette-41330", "@spider": "rona", "shop": "doityourself", "addr:full": "2000, boul. Firestone Est", "addr:city": "Notre-Dame-des-Prairies,", "addr:state": "QC,", "addr:postcode": "J6E 8Z6", "addr:country": "CA", "website": "https://www.rona.ca/en/store/quebec/notre-dame-des-prairies/lentrepot-rona-joliette-41330", "brand": "RONA", "brand:wikidata": "Q3415283", "nsi_id": "rona-fd1fd9"}, "geometry": {"type": "Point", "coordinates": [-73.41371, 46.04147]}},
{"type": "Feature", "id": "1jYwXTWKc9Ibw3OnhOcub509nWw=", "properties": {"ref": "rona-saint-jerome-41320", "@spider": "rona", "shop": "doityourself", "addr:full": "1025,Jean-Baptiste Rolland O", "addr:city": "Saint-J\u00e9r\u00f4me,", "addr:state": "QC,", "addr:postcode": "J7Y 4Y7", "addr:country": "CA", "website": "https://www.rona.ca/en/store/quebec/saint-jerome/rona-saint-jerome-41320", "brand": "RONA", "brand:wikidata": "Q3415283", "nsi_id": "rona-fd1fd9"}, "geometry": {"type": "Point", "coordinates": [-74.01886, 45.76698]}},
{"type": "Feature", "id": "Lk6NAlg_R-pCUXG1xoQE_ty1ows=", "properties": {"ref": "rona-gatineau-aylmer-41190", "@spider": "rona", "shop": "doityourself", "addr:full": "435, chemin McConnell", "addr:city": "Gatineau,", "addr:state": "QC,", "addr:postcode": "J9J 3M3", "addr:country": "CA", "website": "https://www.rona.ca/en/store/quebec/gatineau/rona-gatineau-aylmer-41190", "brand": "RONA", "brand:wikidata": "Q3415283", "nsi_id": "rona-fd1fd9"}, "geometry": {"type": "Point", "coordinates": [-75.8166, 45.41212]}},
{"type": "Feature", "id": "SQ8zIhv0fViCG344m0dmzMH_fOw=", "properties": {"ref": "lentrepot-rona-gatineau-le-plateau-41180", "@spider": "rona", "shop": "doityourself", "addr:full": "165, boulevard du Plateau", "addr:city": "Gatineau,", "addr:state": "QC,", "addr:postcode": "J9A 3G1", "addr:country": "CA", "website": "https://www.rona.ca/en/store/quebec/gatineau/lentrepot-rona-gatineau-le-plateau-41180", "brand": "RONA", "brand:wikidata": "Q3415283", "nsi_id": "rona-fd1fd9"}, "geometry": {"type": "Point", "coordinates": [-75.77796, 45.43474]}},
{"type": "Feature", "id": "6pPz6pt1-EjbCUiOdZMGoZ95RU8=", "properties": {"ref": "lentrepot-rona-anjou-41110", "@spider": "rona", "shop": "doityourself", "addr:full": "7273, boul. Galeries d'Anjou", "addr:city": "Anjou,", "addr:state": "QC,", "addr:postcode": "H1M 2W2", "addr:country": "CA", "website": "https://www.rona.ca/en/store/quebec/anjou/lentrepot-rona-anjou-41110", "brand": "RONA", "brand:wikidata": "Q3415283", "nsi_id": "rona-fd1fd9"}, "geometry": {"type": "Point", "coordinates": [-73.55917, 45.59601]}},
{"type": "Feature", "id": "u5uKpE_dO7tCPB997V3leKoIoGk=", "properties": {"ref": "lentrepot-rona-mascouche-41090", "@spider": "rona", "shop": "doityourself", "addr:full": "175, mont\u00e9e Masson", "addr:city": "Mascouche,", "addr:state": "QC,", "addr:postcode": "J7K 3B4", "addr:country": "CA", "website": "https://www.rona.ca/en/store/quebec/mascouche/lentrepot-rona-mascouche-41090", "brand": "RONA", "brand:wikidata": "Q3415283", "nsi_id": "rona-fd1fd9"}, "geometry": {"type": "Point", "coordinates": [-73.61799, 45.72453]}},
{"type": "Feature", "id": "AMSpI7XW57yhMkvzXjePgijuQKo=", "properties": {"ref": "lentrepot-rona-gatineau-41070", "@spider": "rona", "shop": "doityourself", "addr:full": "777, boul. de la Cite", "addr:city": "Gatineau,", "addr:state": "QC,", "addr:postcode": "J8T 8J9", "addr:country": "CA", "website": "https://www.rona.ca/en/store/quebec/gatineau/lentrepot-rona-gatineau-41070", "brand": "RONA", "brand:wikidata": "Q3415283", "nsi_id": "rona-fd1fd9"}, "geometry": {"type": "Point", "coordinates": [-75.68318, 45.49138]}},
{"type": "Feature", "id": "4hp8S5R9HfPGz13iP2GkjWmwd6U=", "properties": {"ref": "lentrepot-rona-chicoutimi-41060", "@spider": "rona", "shop": "doityourself", "addr:full": "465, du Royaume Ouest", "addr:city": "Chicoutimi,", "addr:state": "QC,", "addr:postcode": "G7H 5B1", "addr:country": "CA", "website": "https://www.rona.ca/en/store/quebec/chicoutimi/lentrepot-rona-chicoutimi-41060", "brand": "RONA", "brand:wikidata": "Q3415283", "nsi_id": "rona-fd1fd9"}, "geometry": {"type": "Point", "coordinates": [-71.0874, 48.3832]}},
{"type": "Feature", "id": "roZ4WZnozHlNr-u_GSb1bSjhExE=", "properties": {"ref": "lentrepot-rona-trois-rivieres-41050", "@spider": "rona", "shop": "doityourself", "addr:full": "4025 boul. des R\u00e9collets", "addr:city": "Trois-Rivi\u00e8res,", "addr:state": "QC,", "addr:postcode": "G9A 6M1", "addr:country": "CA", "website": "https://www.rona.ca/en/store/quebec/trois-rivieres/lentrepot-rona-trois-rivieres-41050", "brand": "RONA", "brand:wikidata": "Q3415283", "nsi_id": "rona-fd1fd9"}, "geometry": {"type": "Point", "coordinates": [-72.5644, 46.32797]}},
{"type": "Feature", "id": "-kwwEi_cPUvOE2vf8GRZ70hRsGQ=", "properties": {"ref": "lentrepot-rona-saint-bruno-de-montarville-41040", "@spider": "rona", "shop": "doityourself", "addr:full": "1221, boul. des Promenades", "addr:city": "Saint-Bruno,", "addr:state": "QC,", "addr:postcode": "J3V 6H1", "addr:country": "CA", "website": "https://www.rona.ca/en/store/quebec/saint-bruno/lentrepot-rona-saint-bruno-de-montarville-41040", "brand": "RONA", "brand:wikidata": "Q3415283", "nsi_id": "rona-fd1fd9"}, "geometry": {"type": "Point", "coordinates": [-73.37833, 45.50152]}},
{"type": "Feature", "id": "7wSRI4sJ9StZQPmeRwO34imhZr4=", "properties": {"ref": "lentrepot-rona-quebec-41030", "@spider": "rona", "shop": "doityourself", "addr:full": "1500, Bouvier", "addr:city": "Qu\u00e9bec,", "addr:state": "QC,", "addr:postcode": "G2K 1N8", "addr:country": "CA", "website": "https://www.rona.ca/en/store/quebec/quebec/lentrepot-rona-quebec-41030", "brand": "RONA", "brand:wikidata": "Q3415283", "nsi_id": "rona-fd1fd9"}, "geometry": {"type": "Point", "coordinates": [-71.29273, 46.82776]}},
{"type": "Feature", "id": "Kl1v2HB3C7I9hx9OYcOOFIDFZAA=", "properties": {"ref": "lentrepot-rona-saint-laurent-41020", "@spider": "rona", "shop": "doityourself", "addr:full": "3600, Cote Vertu", "addr:city": "Saint-Laurent,", "addr:state": "QC,", "addr:postcode": "H4R 1P8", "addr:country": "CA", "website": "https://www.rona.ca/en/store/quebec/saint-laurent/lentrepot-rona-saint-laurent-41020", "brand": "RONA", "brand:wikidata": "Q3415283", "nsi_id": "rona-fd1fd9"}, "geometry": {"type": "Point", "coordinates": [-73.70547, 45.49248]}},
{"type": "Feature", "id": "UXzsVlYinjQhjnv-KfprFKhl4wk=", "properties": {"ref": "lentrepot-rona-laval-41010", "@spider": "rona", "shop": "doityourself", "addr:full": "3065, boul. le Carrefour", "addr:city": "Laval,", "addr:state": "QC,", "addr:postcode": "H7T 1C7", "addr:country": "CA", "website": "https://www.rona.ca/en/store/quebec/laval/lentrepot-rona-laval-41010", "brand": "RONA", "brand:wikidata": "Q3415283", "nsi_id": "rona-fd1fd9"}, "geometry": {"type": "Point", "coordinates": [-73.75493, 45.57039]}},
{"type": "Feature", "id": "rku16K6uCCeVb97gTboPuv3xA44=", "properties": {"ref": "rona-schomberg-33880", "@spider": "rona", "shop": "doityourself", "addr:full": "190 Main Street", "addr:city": "Schomberg,", "addr:state": "ON,", "addr:postcode": "L0G 1T0", "addr:country": "CA", "website": "https://www.rona.ca/en/store/ontario/schomberg/rona-schomberg-33880", "brand": "RONA", "brand:wikidata": "Q3415283", "nsi_id": "rona-fd1fd9"}, "geometry": {"type": "Point", "coordinates": [-79.68307, 44.00157]}},
{"type": "Feature", "id": "FOLc6y4RT9Shw2oix1yzaWfXrRo=", "properties": {"ref": "rona-belleville-33850", "@spider": "rona", "shop": "doityourself", "addr:full": "260 Bell Boulevard", "addr:city": "Belleville,", "addr:state": "ON,", "addr:postcode": "K8P 5H6", "addr:country": "CA", "website": "https://www.rona.ca/en/store/ontario/belleville/rona-belleville-33850", "brand": "RONA", "brand:wikidata": "Q3415283", "nsi_id": "rona-fd1fd9"}, "geometry": {"type": "Point", "coordinates": [-77.41074, 44.18553]}},
{"type": "Feature", "id": "rmP60AgyuAwCMJRUW-gqPtctUGU=", "properties": {"ref": "rona-grimsby-33780", "@spider": "rona", "shop": "doityourself", "addr:full": "359 South Service Road", "addr:city": "Grimsby,", "addr:state": "ON,", "addr:postcode": "L3M 4E8", "addr:country": "CA", "website": "https://www.rona.ca/en/store/ontario/grimsby/rona-grimsby-33780", "brand": "RONA", "brand:wikidata": "Q3415283", "nsi_id": "rona-fd1fd9"}, "geometry": {"type": "Point", "coordinates": [-79.59298, 43.20391]}},
{"type": "Feature", "id": "v3P67dfXTEG5MD0hNIZaTADJ0pE=", "properties": {"ref": "rona-st-catharines-33740", "@spider": "rona", "shop": "doityourself", "addr:full": "250 Dunkirk Road", "addr:city": "St Catharines,", "addr:state": "ON,", "addr:postcode": "L2P 0C5", "addr:country": "CA", "website": "https://www.rona.ca/en/store/ontario/st-catharines/rona-st-catharines-33740", "brand": "RONA", "brand:wikidata": "Q3415283", "nsi_id": "rona-fd1fd9"}, "geometry": {"type": "Point", "coordinates": [-79.20269, 43.16553]}},
{"type": "Feature", "id": "UBo3Y3bv_zE_9N6mxZZlSuAyoxc=", "properties": {"ref": "welland-rona-33730", "@spider": "rona", "shop": "doityourself", "addr:full": "165 Primeway Drive", "addr:city": "Welland,", "addr:state": "ON,", "addr:postcode": "L3B 0A1", "addr:country": "CA", "website": "https://www.rona.ca/en/store/ontario/welland/welland-rona-33730", "brand": "RONA", "brand:wikidata": "Q3415283", "nsi_id": "rona-fd1fd9"}, "geometry": {"type": "Point", "coordinates": [-79.22833, 43.01423]}},
{"type": "Feature", "id": "JH-yZpk6DM2oyzxgeqaGdDrk99c=", "properties": {"ref": "rona-carleton-place-33690", "@spider": "rona", "shop": "doityourself", "addr:full": "535 McNeely Avenue", "addr:city": "Carleton Place,", "addr:state": "ON,", "addr:postcode": "K7C 0A8", "addr:country": "CA", "website": "https://www.rona.ca/en/store/ontario/carleton-place/rona-carleton-place-33690", "brand": "RONA", "brand:wikidata": "Q3415283", "nsi_id": "rona-fd1fd9"}, "geometry": {"type": "Point", "coordinates": [-76.11722, 45.13299]}},
{"type": "Feature", "id": "F3RSnq4Jc11s0mbm0jxC56otFxA=", "properties": {"ref": "rona-wallaceburg-33610", "@spider": "rona", "shop": "doityourself", "addr:full": "860 Murray Street", "addr:city": "Wallaceburg,", "addr:state": "ON,", "addr:postcode": "N8A 1W4", "addr:country": "CA", "website": "https://www.rona.ca/en/store/ontario/wallaceburg/rona-wallaceburg-33610", "brand": "RONA", "brand:wikidata": "Q3415283", "nsi_id": "rona-fd1fd9"}, "geometry": {"type": "Point", "coordinates": [-82.38171, 42.5759]}},
{"type": "Feature", "id": "257Ba8nWmXVQmkHj39RvWY0C1Ks=", "properties": {"ref": "rona-chatham-33570", "@spider": "rona", "shop": "doityourself", "addr:full": "65 Colborne Street", "addr:city": "Chatham,", "addr:state": "ON,", "addr:postcode": "N7M 3L7", "addr:country": "CA", "website": "https://www.rona.ca/en/store/ontario/chatham/rona-chatham-33570", "brand": "RONA", "brand:wikidata": "Q3415283", "nsi_id": "rona-fd1fd9"}, "geometry": {"type": "Point", "coordinates": [-82.17902, 42.40692]}},
{"type": "Feature", "id": "87B-MGw_7Icw1Efmoi6OyKmBSOo=", "properties": {"ref": "rona-hamilton-parkdale-33560", "@spider": "rona", "shop": "doityourself", "addr:full": "633 Parkdale ave North", "addr:city": "Hamilton,", "addr:state": "ON,", "addr:postcode": "L8H 5Z1", "addr:country": "CA", "website": "https://www.rona.ca/en/store/ontario/hamilton/rona-hamilton-parkdale-33560", "brand": "RONA", "brand:wikidata": "Q3415283", "nsi_id": "rona-fd1fd9"}, "geometry": {"type": "Point", "coordinates": [-79.78561, 43.25324]}},
{"type": "Feature", "id": "h4W1mAJcQcDjn4EAG-ghAiUVi74=", "properties": {"ref": "rona-smiths-falls-33520", "@spider": "rona", "shop": "doityourself", "addr:full": "136 Highway 15", "addr:city": "Smiths Falls,", "addr:state": "ON,", "addr:postcode": "K7A 5B8", "addr:country": "CA", "website": "https://www.rona.ca/en/store/ontario/smiths-falls/rona-smiths-falls-33520", "brand": "RONA", "brand:wikidata": "Q3415283", "nsi_id": "rona-fd1fd9"}, "geometry": {"type": "Point", "coordinates": [-76.03257, 44.89034]}},
{"type": "Feature", "id": "4tHVxONJpRGVaB9dx3QwZcVUcfA=", "properties": {"ref": "rona-st-thomas-33430", "@spider": "rona", "shop": "doityourself", "addr:full": "101 Edward Street", "addr:city": "St Thomas,", "addr:state": "ON,", "addr:postcode": "N5P 1Y8", "addr:country": "CA", "website": "https://www.rona.ca/en/store/ontario/st-thomas/rona-st-thomas-33430", "brand": "RONA", "brand:wikidata": "Q3415283", "nsi_id": "rona-fd1fd9"}, "geometry": {"type": "Point", "coordinates": [-81.17731, 42.78584]}},
{"type": "Feature", "id": "pjc6S-Sa_ktg30Dt_mq-JlJsgk0=", "properties": {"ref": "rona-simcoe-33420", "@spider": "rona", "shop": "doityourself", "addr:full": "10 Davis Street East", "addr:city": "Simcoe,", "addr:state": "ON,", "addr:postcode": "N3Y 4N5", "addr:country": "CA", "website": "https://www.rona.ca/en/store/ontario/simcoe/rona-simcoe-33420", "brand": "RONA", "brand:wikidata": "Q3415283", "nsi_id": "rona-fd1fd9"}, "geometry": {"type": "Point", "coordinates": [-80.30776, 42.85234]}},
{"type": "Feature", "id": "mjp9uBxXYBFiMQbJIObHgQc4CMw=", "properties": {"ref": "rona-campbellford-33320", "@spider": "rona", "shop": "doityourself", "addr:full": "509 Grand Road", "addr:city": "Campbellford,", "addr:state": "ON,", "addr:postcode": "K0L 1L0", "addr:country": "CA", "website": "https://www.rona.ca/en/store/ontario/campbellford/rona-campbellford-33320", "brand": "RONA", "brand:wikidata": "Q3415283", "nsi_id": "rona-fd1fd9"}, "geometry": {"type": "Point", "coordinates": [-77.80783, 44.29059]}},
{"type": "Feature", "id": "C1Z10gV-Rm7OoIwtaMOfBCsQpKY=", "properties": {"ref": "rona-midland-33290", "@spider": "rona", "shop": "doityourself", "addr:full": "9320 Hwy 93", "addr:city": "Midland,", "addr:state": "ON,", "addr:postcode": "L4R 4P4", "addr:country": "CA", "website": "https://www.rona.ca/en/store/ontario/midland/rona-midland-33290", "brand": "RONA", "brand:wikidata": "Q3415283", "nsi_id": "rona-fd1fd9"}, "geometry": {"type": "Point", "coordinates": [-79.91414, 44.73995]}},
{"type": "Feature", "id": "Tz3_8FIcM7sU1anWVffErY2tK5U=", "properties": {"ref": "rona-new-liskeard-33270", "@spider": "rona", "shop": "doityourself", "addr:full": "245 Whitewood Avenue", "addr:city": "New Liskeard,", "addr:state": "ON,", "addr:postcode": "P0J 1P0", "addr:country": "CA", "website": "https://www.rona.ca/en/store/ontario/new-liskeard/rona-new-liskeard-33270", "brand": "RONA", "brand:wikidata": "Q3415283", "nsi_id": "rona-fd1fd9"}, "geometry": {"type": "Point", "coordinates": [-79.6817, 47.50877]}},
{"type": "Feature", "id": "fw0I7hAMZZT5VxURyjXfA--8f2I=", "properties": {"ref": "rona-trenton-33240", "@spider": "rona", "shop": "doityourself", "addr:full": "234 Glen Miller Road North", "addr:city": "Trenton,", "addr:state": "ON,", "addr:postcode": "K8V 5W6", "addr:country": "CA", "website": "https://www.rona.ca/en/store/ontario/trenton/rona-trenton-33240", "brand": "RONA", "brand:wikidata": "Q3415283", "nsi_id": "rona-fd1fd9"}, "geometry": {"type": "Point", "coordinates": [-77.58446, 44.13645]}},
{"type": "Feature", "id": "k_lIWuCgZbJWXEn4bcdcrtSiRFQ=", "properties": {"ref": "rona-uxbridge-33220", "@spider": "rona", "shop": "doityourself", "addr:full": "8 Welwood Drive", "addr:city": "Uxbridge,", "addr:state": "ON,", "addr:postcode": "L9P 1Z7", "addr:country": "CA", "website": "https://www.rona.ca/en/store/ontario/uxbridge/rona-uxbridge-33220", "brand": "RONA", "brand:wikidata": "Q3415283", "nsi_id": "rona-fd1fd9"}, "geometry": {"type": "Point", "coordinates": [-79.13167, 44.08868]}},
{"type": "Feature", "id": "sfgnjQbMk3DUfGE2x9CYuPXlUTk=", "properties": {"ref": "rona-lindsay-33180", "@spider": "rona", "shop": "doityourself", "addr:full": "36 Harvest street", "addr:city": "Lindsay,", "addr:state": "ON,", "addr:postcode": "K9V 4R2", "addr:country": "CA", "website": "https://www.rona.ca/en/store/ontario/lindsay/rona-lindsay-33180", "brand": "RONA", "brand:wikidata": "Q3415283", "nsi_id": "rona-fd1fd9"}, "geometry": {"type": "Point", "coordinates": [-78.76929, 44.34745]}},
{"type": "Feature", "id": "panp1xVgmEbZ9VuT9n8ACJL_BiU=", "properties": {"ref": "rona-leamington-33150", "@spider": "rona", "shop": "doityourself", "addr:full": "274 Talbot St. West", "addr:city": "Leamington,", "addr:state": "ON,", "addr:postcode": "N8H 4H3", "addr:country": "CA", "website": "https://www.rona.ca/en/store/ontario/leamington/rona-leamington-33150", "brand": "RONA", "brand:wikidata": "Q3415283", "nsi_id": "rona-fd1fd9"}, "geometry": {"type": "Point", "coordinates": [-82.62352, 42.04614]}},
{"type": "Feature", "id": "VeDx_L8SOCnFC1gAAy4iPLqfaYQ=", "properties": {"ref": "rona-val-caron-33080", "@spider": "rona", "shop": "doityourself", "addr:full": "2957 Poole Court", "addr:city": "Val Caron,", "addr:state": "ON,", "addr:postcode": "P3N 1B2", "addr:country": "CA", "website": "https://www.rona.ca/en/store/ontario/val-caron/rona-val-caron-33080", "brand": "RONA", "brand:wikidata": "Q3415283", "nsi_id": "rona-fd1fd9"}, "geometry": {"type": "Point", "coordinates": [-81.03192, 46.6091]}},
{"type": "Feature", "id": "6bggD000w65Fq4VMIbDsLJiK9wM=", "properties": {"ref": "rona-hamilton-rymal-road-33040", "@spider": "rona", "shop": "doityourself", "addr:full": "1245 Rymal Road East", "addr:city": "Hamilton,", "addr:state": "ON,", "addr:postcode": "L8W 3N1", "addr:country": "CA", "website": "https://www.rona.ca/en/store/ontario/hamilton/rona-hamilton-rymal-road-33040", "brand": "RONA", "brand:wikidata": "Q3415283", "nsi_id": "rona-fd1fd9"}, "geometry": {"type": "Point", "coordinates": [-79.83811, 43.1894]}},
{"type": "Feature", "id": "OGGjnut_SAhijqzhT50XvstApV8=", "properties": {"ref": "rona-halifax-21060", "@spider": "rona", "shop": "doityourself", "addr:full": "6055 Almon St.", "addr:city": "Halifax,", "addr:state": "NS,", "addr:postcode": "B3K 1T9", "addr:country": "CA", "website": "https://www.rona.ca/en/store/nova-scotia/halifax/rona-halifax-21060", "brand": "RONA", "brand:wikidata": "Q3415283", "nsi_id": "rona-fd1fd9"}, "geometry": {"type": "Point", "coordinates": [-63.60247, 44.65678]}},
{"type": "Feature", "id": "y10mR6eOzFD2Ps1qGsQVUBJzaNY=", "properties": {"ref": "rona-elmsdale-21050", "@spider": "rona", "shop": "doityourself", "addr:full": "84 Mason Lane", "addr:city": "Elmsdale,", "addr:state": "NS,", "addr:postcode": "B2S 3J3", "addr:country": "CA", "website": "https://www.rona.ca/en/store/nova-scotia/elmsdale/rona-elmsdale-21050", "brand": "RONA", "brand:wikidata": "Q3415283", "nsi_id": "rona-fd1fd9"}, "geometry": {"type": "Point", "coordinates": [-63.5043, 44.97927]}},
{"type": "Feature", "id": "xWH2hNXavrh3eHtnb4diWmGvags=", "properties": {"ref": "rona-tantallon-21040", "@spider": "rona", "shop": "doityourself", "addr:full": "3680 Hammonds Plains Road", "addr:city": "Upper Tantallon,", "addr:state": "NS,", "addr:postcode": "B3Z 1H3", "addr:country": "CA", "website": "https://www.rona.ca/en/store/nova-scotia/upper-tantallon/rona-tantallon-21040", "brand": "RONA", "brand:wikidata": "Q3415283", "nsi_id": "rona-fd1fd9"}, "geometry": {"type": "Point", "coordinates": [-63.86159, 44.70389]}},
{"type": "Feature", "id": "g_luBSJsgMWs7a2i4MZZhbTfHAM=", "properties": {"ref": "rona-thomas-caya-inc-bon-conseil-17053", "@spider": "rona", "shop": "doityourself", "addr:full": "2844, route 122", "addr:city": "Bon-Conseil,", "addr:state": "QC,", "addr:postcode": "J0C 1A0", "addr:country": "CA", "website": "https://www.rona.ca/en/store/quebec/bon-conseil/rona-thomas-caya-inc-bon-conseil-17053", "brand": "RONA", "brand:wikidata": "Q3415283", "nsi_id": "rona-fd1fd9"}, "geometry": {"type": "Point", "coordinates": [-72.33294, 46.0063]}},
{"type": "Feature", "id": "UUIYdJpQlHu3krE_XaBa6AY9Y8k=", "properties": {"ref": "rona-dufour-laurian-sacre-coeur-saguenay-16397", "@spider": "rona", "shop": "doityourself", "addr:full": "172, Principale Nord", "addr:city": "Sacre-Coeur-Saguenay,", "addr:state": "QC,", "addr:postcode": "G0T 1Y0", "addr:country": "CA", "website": "https://www.rona.ca/en/store/quebec/sacre-coeur-saguenay/rona-dufour-laurian-sacre-coeur-saguenay-16397", "brand": "RONA", "brand:wikidata": "Q3415283", "nsi_id": "rona-fd1fd9"}, "geometry": {"type": "Point", "coordinates": [-69.80591, 48.23963]}},
{"type": "Feature", "id": "AZZV_qNc-2sQ6fas8cioQgX18xM=", "properties": {"ref": "rona-forget-mont-tremblant-16332", "@spider": "rona", "shop": "doityourself", "addr:full": "302, rue de Ste-Jovite", "addr:city": "Mont-Tremblant,", "addr:state": "QC,", "addr:postcode": "J8E 1A1", "addr:country": "CA", "website": "https://www.rona.ca/en/store/quebec/mont-tremblant/rona-forget-mont-tremblant-16332", "brand": "RONA", "brand:wikidata": "Q3415283", "nsi_id": "rona-fd1fd9"}, "geometry": {"type": "Point", "coordinates": [-74.56678, 46.11877]}},
{"type": "Feature", "id": "on-EtqSfORt1Ho0Zfpwd5FBilrY=", "properties": {"ref": "rona-marche-bouvette-inc-saint-cyrille-de-wendover-13466", "@spider": "rona", "shop": "doityourself", "addr:full": "4240, Principale", "addr:city": "Saint-Cyrille-de-Wendover,", "addr:state": "QC,", "addr:postcode": "J1Z 1E2", "addr:country": "CA", "website": "https://www.rona.ca/en/store/quebec/saint-cyrille-de-wendover/rona-marche-bouvette-inc-saint-cyrille-de-wendover-13466", "brand": "RONA", "brand:wikidata": "Q3415283", "nsi_id": "rona-fd1fd9"}, "geometry": {"type": "Point", "coordinates": [-72.42473, 45.93256]}},
{"type": "Feature", "id": "kw7VQPJQCtOLhl_fUQWbaEeqcSk=", "properties": {"ref": "rona-algoma-builders-supply-elliot-lake-13177", "@spider": "rona", "shop": "doityourself", "addr:full": "125 Hwy 108 North", "addr:city": "Elliot Lake,", "addr:state": "ON,", "addr:postcode": "P5A 2S9", "addr:country": "CA", "website": "https://www.rona.ca/en/store/ontario/elliot-lake/rona-algoma-builders-supply-elliot-lake-13177", "brand": "RONA", "brand:wikidata": "Q3415283", "nsi_id": "rona-fd1fd9"}, "geometry": {"type": "Point", "coordinates": [-82.66718, 46.40053]}},
{"type": "Feature", "id": "s0KHoE_XKVUN8a8xuJYC9ZAG528=", "properties": {"ref": "rona-normandin-12988", "@spider": "rona", "shop": "doityourself", "addr:full": "994, av. du Rocher", "addr:city": "Normandin,", "addr:state": "QC,", "addr:postcode": "G8M 3W8", "addr:country": "CA", "website": "https://www.rona.ca/en/store/quebec/normandin/rona-normandin-12988", "brand": "RONA", "brand:wikidata": "Q3415283", "nsi_id": "rona-fd1fd9"}, "geometry": {"type": "Point", "coordinates": [-72.53219, 48.83624]}},
{"type": "Feature", "id": "8zv4BhaL6Fk5dB1YSHHzjyV538M=", "properties": {"ref": "rona-moffatt-powell-atwood-12960", "@spider": "rona", "shop": "doityourself", "addr:full": "235 Main Street", "addr:city": "Atwood,", "addr:state": "ON,", "addr:postcode": "N0G 1B0", "addr:country": "CA", "website": "https://www.rona.ca/en/store/ontario/atwood/rona-moffatt-powell-atwood-12960", "brand": "RONA", "brand:wikidata": "Q3415283", "nsi_id": "rona-fd1fd9"}, "geometry": {"type": "Point", "coordinates": [-81.02196, 43.66594]}},
{"type": "Feature", "id": "rSWW8Dy3qeOiOQGv9Pr1K77JKgY=", "properties": {"ref": "rona-moffatt-powell-seaforth-12950", "@spider": "rona", "shop": "doityourself", "addr:full": "198 Main Street", "addr:city": "Seaforth,", "addr:state": "ON,", "addr:postcode": "N0K 1W0", "addr:country": "CA", "website": "https://www.rona.ca/en/store/ontario/seaforth/rona-moffatt-powell-seaforth-12950", "brand": "RONA", "brand:wikidata": "Q3415283", "nsi_id": "rona-fd1fd9"}, "geometry": {"type": "Point", "coordinates": [-81.39798, 43.54704]}},
{"type": "Feature", "id": "Qxu7ng96mSJ6jyCRN5sLqOfPRXs=", "properties": {"ref": "rona-moffatt-powell-zurich-12940", "@spider": "rona", "shop": "doityourself", "addr:full": "HWY 84", "addr:city": "Zurich,", "addr:state": "ON,", "addr:postcode": "N0M 2T0", "addr:country": "CA", "website": "https://www.rona.ca/en/store/ontario/zurich/rona-moffatt-powell-zurich-12940", "brand": "RONA", "brand:wikidata": "Q3415283", "nsi_id": "rona-fd1fd9"}, "geometry": {"type": "Point", "coordinates": [-81.61509, 43.4232]}},
{"type": "Feature", "id": "ZIR6pN5SjwaXD52nZ_ZLZmowKbg=", "properties": {"ref": "rona-moffatt-powell-exeter-12910", "@spider": "rona", "shop": "doityourself", "addr:full": "265 Main Street North", "addr:city": "Exeter,", "addr:state": "ON,", "addr:postcode": "N0M 1S3", "addr:country": "CA", "website": "https://www.rona.ca/en/store/ontario/exeter/rona-moffatt-powell-exeter-12910", "brand": "RONA", "brand:wikidata": "Q3415283", "nsi_id": "rona-fd1fd9"}, "geometry": {"type": "Point", "coordinates": [-81.48562, 43.36399]}},
{"type": "Feature", "id": "X1Yw5_Pwpgm8Cg7NdGHm_VOAH8I=", "properties": {"ref": "rona-davies-hardware-grand-bend-12880", "@spider": "rona", "shop": "doityourself", "addr:full": "57, Ontario street", "addr:city": "Grand Bend,", "addr:state": "ON,", "addr:postcode": "N0M 1T0", "addr:country": "CA", "website": "https://www.rona.ca/en/store/ontario/grand-bend/rona-davies-hardware-grand-bend-12880", "brand": "RONA", "brand:wikidata": "Q3415283", "nsi_id": "rona-fd1fd9"}, "geometry": {"type": "Point", "coordinates": [-81.75959, 43.30888]}},
{"type": "Feature", "id": "u9Dq8Y9twDP5aguqlXjLUKRaQgI=", "properties": {"ref": "rona-quincaillerie-r-cube-inc-wakefield-12871", "@spider": "rona", "shop": "doityourself", "addr:full": "924, chemin Riverside", "addr:city": "Wakefield,", "addr:state": "QC,", "addr:postcode": "J0X 3G0", "addr:country": "CA", "website": "https://www.rona.ca/en/store/quebec/wakefield/rona-quincaillerie-r-cube-inc-wakefield-12871", "brand": "RONA", "brand:wikidata": "Q3415283", "nsi_id": "rona-fd1fd9"}, "geometry": {"type": "Point", "coordinates": [-75.92554, 45.64883]}},
{"type": "Feature", "id": "_jy8JRSpIwPWNAW7kcM5NMhwJVY=", "properties": {"ref": "rona-moffatt-powell-tillsonburg-12870", "@spider": "rona", "shop": "doityourself", "addr:full": "268 Tillson Avenue", "addr:city": "Tillsonburg,", "addr:state": "ON,", "addr:postcode": "N4G 3B5", "addr:country": "CA", "website": "https://www.rona.ca/en/store/ontario/tillsonburg/rona-moffatt-powell-tillsonburg-12870", "brand": "RONA", "brand:wikidata": "Q3415283", "nsi_id": "rona-fd1fd9"}, "geometry": {"type": "Point", "coordinates": [-80.72541, 42.87527]}},
{"type": "Feature", "id": "hDZy4-Pw86f51O6n3bJ4DAp0c08=", "properties": {"ref": "rona-moffatt-powell-mitchell-12830", "@spider": "rona", "shop": "doityourself", "addr:full": "5835, Line 34", "addr:city": "Mitchell,", "addr:state": "ON,", "addr:postcode": "N0K 1N0", "addr:country": "CA", "website": "https://www.rona.ca/en/store/ontario/mitchell/rona-moffatt-powell-mitchell-12830", "brand": "RONA", "brand:wikidata": "Q3415283", "nsi_id": "rona-fd1fd9"}, "geometry": {"type": "Point", "coordinates": [-81.18074, 43.45951]}},
{"type": "Feature", "id": "Y-ZCuf7QjCEFNRI0cZGFa99CQpQ=", "properties": {"ref": "rona-moffatt-powell-london-12820", "@spider": "rona", "shop": "doityourself", "addr:full": "1282, Hyde Park Road", "addr:city": "London,", "addr:state": "ON,", "addr:postcode": "N6H 5K5", "addr:country": "CA", "website": "https://www.rona.ca/en/store/ontario/london/rona-moffatt-powell-london-12820", "brand": "RONA", "brand:wikidata": "Q3415283", "nsi_id": "rona-fd1fd9"}, "geometry": {"type": "Point", "coordinates": [-81.32891, 42.99092]}},
{"type": "Feature", "id": "D38-8BVA1wyhiE0rEQV6H_I4A08=", "properties": {"ref": "rona-la-pocatiere-12454", "@spider": "rona", "shop": "doityourself", "addr:full": "1011 1\u00e8re rue Poir\u00e9", "addr:city": "La Pocati\u00e8re,", "addr:state": "QC,", "addr:postcode": "G0R 1Z0", "addr:country": "CA", "website": "https://www.rona.ca/en/store/quebec/la-pocatiere/rona-la-pocatiere-12454", "brand": "RONA", "brand:wikidata": "Q3415283", "nsi_id": "rona-fd1fd9"}, "geometry": {"type": "Point", "coordinates": [-70.03708, 47.36285]}},
{"type": "Feature", "id": "2ihMjAB5GAxyOPBjtXyhQn2qN1c=", "properties": {"ref": "rona-riviere-du-loup-12453", "@spider": "rona", "shop": "doityourself", "addr:full": "30, Du Carrefour", "addr:city": "Rivi\u00e8re-Du-Loup,", "addr:state": "QC,", "addr:postcode": "G5R 6B6", "addr:country": "CA", "website": "https://www.rona.ca/en/store/quebec/riviere-du-loup/rona-riviere-du-loup-12453", "brand": "RONA", "brand:wikidata": "Q3415283", "nsi_id": "rona-fd1fd9"}, "geometry": {"type": "Point", "coordinates": [-69.50481, 47.8213]}},
{"type": "Feature", "id": "12i3AihqL2JAEiXLfThSjJeyENY=", "properties": {"ref": "rona-cranbrook-building-centre-ltd-cranbrook-12110", "@spider": "rona", "shop": "doityourself", "addr:full": "1500 , Theatre ROAD", "addr:city": "Cranbrook,", "addr:state": "BC,", "addr:postcode": "V1C 7G1", "addr:country": "CA", "website": "https://www.rona.ca/en/store/british-columbia/cranbrook/rona-cranbrook-building-centre-ltd-cranbrook-12110", "brand": "RONA", "brand:wikidata": "Q3415283", "nsi_id": "rona-fd1fd9"}, "geometry": {"type": "Point", "coordinates": [-115.75476, 49.52799]}},
{"type": "Feature", "id": "E-nggnb7U2cnOS88NZiHn8jIUys=", "properties": {"ref": "rona-quincaillerie-lascension-11443", "@spider": "rona", "shop": "doityourself", "addr:full": "1050, 1e Rue", "addr:city": "L'Ascension-de-Notre-Seigneur,", "addr:state": "QC,", "addr:postcode": "G0W 1Y0", "addr:country": "CA", "website": "https://www.rona.ca/en/store/quebec/lascension-de-notre-seigneur/rona-quincaillerie-lascension-11443", "brand": "RONA", "brand:wikidata": "Q3415283", "nsi_id": "rona-fd1fd9"}, "geometry": {"type": "Point", "coordinates": [-71.66721, 48.701]}},
{"type": "Feature", "id": "ppUPcpwl0-kswJGKEAzfRE-q4sk=", "properties": {"ref": "rona-quincaillerie-de-lacolle-inc-11050", "@spider": "rona", "shop": "doityourself", "addr:full": "66, de l'\u00c9glise Nord", "addr:city": "Lacolle,", "addr:state": "QC,", "addr:postcode": "J0J 1J0", "addr:country": "CA", "website": "https://www.rona.ca/en/store/quebec/lacolle/rona-quincaillerie-de-lacolle-inc-11050", "brand": "RONA", "brand:wikidata": "Q3415283", "nsi_id": "rona-fd1fd9"}, "geometry": {"type": "Point", "coordinates": [-73.37305, 45.08639]}},
{"type": "Feature", "id": "V0Vq9fuem7ck6WzIuhNaqOZU_84=", "properties": {"ref": "rona-chelsea-10999", "@spider": "rona", "shop": "doityourself", "addr:full": "528 route 105", "addr:city": "Chelsea,", "addr:state": "QC,", "addr:postcode": "J9B 1L2", "addr:country": "CA", "website": "https://www.rona.ca/en/store/quebec/chelsea/rona-chelsea-10999", "brand": "RONA", "brand:wikidata": "Q3415283", "nsi_id": "rona-fd1fd9"}, "geometry": {"type": "Point", "coordinates": [-75.79433, 45.51356]}},
{"type": "Feature", "id": "J5mpuT6ULyWVL6tsTdHZ88ydjWA=", "properties": {"ref": "rona-quincaillerie-des-boulevards-gatineau-10888", "@spider": "rona", "shop": "doityourself", "addr:full": "878, boulevard Maloney Est", "addr:city": "Gatineau,", "addr:state": "QC,", "addr:postcode": "J8P 1H1", "addr:country": "CA", "website": "https://www.rona.ca/en/store/quebec/gatineau/rona-quincaillerie-des-boulevards-gatineau-10888", "brand": "RONA", "brand:wikidata": "Q3415283", "nsi_id": "rona-fd1fd9"}, "geometry": {"type": "Point", "coordinates": [-75.60346, 45.48655]}},
{"type": "Feature", "id": "ZiPr6aIc9kXvzRTHdlK5aMa5Oxk=", "properties": {"ref": "rona-centre-de-renovation-senneterre-10555", "@spider": "rona", "shop": "doityourself", "addr:full": "140, 3i\u00e8me rue ouest", "addr:city": "Senneterre,", "addr:state": "QC,", "addr:postcode": "J0Y 2M0", "addr:country": "CA", "website": "https://www.rona.ca/en/store/quebec/senneterre/rona-centre-de-renovation-senneterre-10555", "brand": "RONA", "brand:wikidata": "Q3415283", "nsi_id": "rona-fd1fd9"}, "geometry": {"type": "Point", "coordinates": [-77.24212, 48.39]}},
{"type": "Feature", "id": "Zljy6_5CI3fDne8mvQCWtVd-fPk=", "properties": {"ref": "quincaillerie-cremazie-10385", "@spider": "rona", "shop": "doityourself", "addr:full": "168, Cremazie Ouest", "addr:city": "Qu\u00e9bec,", "addr:state": "QC,", "addr:postcode": "G1R 1X7", "addr:country": "CA", "website": "https://www.rona.ca/en/store/quebec/quebec/quincaillerie-cremazie-10385", "brand": "RONA", "brand:wikidata": "Q3415283", "nsi_id": "rona-fd1fd9"}, "geometry": {"type": "Point", "coordinates": [-71.23092, 46.80427]}},
{"type": "Feature", "id": "QlI8ZG8q_wg3M_UVaqvNmRtpbEo=", "properties": {"ref": "rona-gestion-berlaber-inc-la-malbaie-10203", "@spider": "rona", "shop": "doityourself", "addr:full": "2375, boul. de Comporte", "addr:city": "La Malbaie,", "addr:state": "QC,", "addr:postcode": "G5A 3C6", "addr:country": "CA", "website": "https://www.rona.ca/en/store/quebec/la-malbaie/rona-gestion-berlaber-inc-la-malbaie-10203", "brand": "RONA", "brand:wikidata": "Q3415283", "nsi_id": "rona-fd1fd9"}, "geometry": {"type": "Point", "coordinates": [-70.19969, 47.68207]}},
{"type": "Feature", "id": "KSHkhtEJf03ClhhqKmN-5pkPYzM=", "properties": {"ref": "rona-la-ronge-10120", "@spider": "rona", "shop": "doityourself", "addr:full": "312, La Ronge Ave.", "addr:city": "La Ronge,", "addr:state": "SK,", "addr:postcode": "S0J 1L0", "addr:country": "CA", "website": "https://www.rona.ca/en/store/saskatchewan/la-ronge/rona-la-ronge-10120", "brand": "RONA", "brand:wikidata": "Q3415283", "nsi_id": "rona-fd1fd9"}, "geometry": {"type": "Point", "coordinates": [-105.28781, 55.11274]}},
{"type": "Feature", "id": "1qIhBclSuqoAYeg8-IeE8MFohT0=", "properties": {"ref": "rona-quincaillerie-hemmingford-inc-10035", "@spider": "rona", "shop": "doityourself", "addr:full": "271 A Route 219", "addr:city": "Hemmingford,", "addr:state": "QC,", "addr:postcode": "J0L 1H0", "addr:country": "CA", "website": "https://www.rona.ca/en/store/quebec/hemmingford/rona-quincaillerie-hemmingford-inc-10035", "brand": "RONA", "brand:wikidata": "Q3415283", "nsi_id": "rona-fd1fd9"}, "geometry": {"type": "Point", "coordinates": [-73.60263, 45.03185]}},
{"type": "Feature", "id": "6HOjds6tEgk_pV0Tv9VezZrPaLI=", "properties": {"ref": "bfd-building-centre-inc-kitchener-09670", "@spider": "rona", "shop": "doityourself", "addr:full": "5 Forwell Rd", "addr:city": "Kitchener,", "addr:state": "ON,", "addr:postcode": "N2B 1W3", "addr:country": "CA", "website": "https://www.rona.ca/en/store/ontario/kitchener/bfd-building-centre-inc-kitchener-09670", "brand": "RONA", "brand:wikidata": "Q3415283", "nsi_id": "rona-fd1fd9"}, "geometry": {"type": "Point", "coordinates": [-80.43681, 43.47287]}},
{"type": "Feature", "id": "Z-y9A9w3KkfVuFz8v3J1gyYgd4o=", "properties": {"ref": "rona-coast-builders-madeira-park-09551", "@spider": "rona", "shop": "doityourself", "addr:full": "12390 Sunshine Coast Highway", "addr:city": "Madeira Park,", "addr:state": "BC,", "addr:postcode": "V0N 2H0", "addr:country": "CA", "website": "https://www.rona.ca/en/store/british-columbia/madeira-park/rona-coast-builders-madeira-park-09551", "brand": "RONA", "brand:wikidata": "Q3415283", "nsi_id": "rona-fd1fd9"}, "geometry": {"type": "Point", "coordinates": [-124.02124, 49.60793]}},
{"type": "Feature", "id": "YyUOxIoMOctGoxhKlJnngglo_U4=", "properties": {"ref": "rona-north-star-building-supplies-invermere-08999", "@spider": "rona", "shop": "doityourself", "addr:full": "410 , Borden street", "addr:city": "Invermere,", "addr:state": "BC,", "addr:postcode": "V0A 1K0", "addr:country": "CA", "website": "https://www.rona.ca/en/store/british-columbia/invermere/rona-north-star-building-supplies-invermere-08999", "brand": "RONA", "brand:wikidata": "Q3415283", "nsi_id": "rona-fd1fd9"}, "geometry": {"type": "Point", "coordinates": [-116.02837, 50.51797]}},
{"type": "Feature", "id": "RwcTF79hyIMkIiEKQyzjs81T7bs=", "properties": {"ref": "rona-stephens-home-centre-sydney-08989", "@spider": "rona", "shop": "doityourself", "addr:full": "199 , Townsend street", "addr:city": "Sydney,", "addr:state": "NS,", "addr:postcode": "B1P 5E4", "addr:country": "CA", "website": "https://www.rona.ca/en/store/nova-scotia/sydney/rona-stephens-home-centre-sydney-08989", "brand": "RONA", "brand:wikidata": "Q3415283", "nsi_id": "rona-fd1fd9"}, "geometry": {"type": "Point", "coordinates": [-60.1895, 46.13561]}},
{"type": "Feature", "id": "Au-at7qksSe1Ox6ZCCJgm9FEbqQ=", "properties": {"ref": "rona-north-bay-lakeview-08963", "@spider": "rona", "shop": "doityourself", "addr:full": "11 Memorial Drive", "addr:city": "North Bay,", "addr:state": "ON,", "addr:postcode": "P1B 4G6", "addr:country": "CA", "website": "https://www.rona.ca/en/store/ontario/north-bay/rona-north-bay-lakeview-08963", "brand": "RONA", "brand:wikidata": "Q3415283", "nsi_id": "rona-fd1fd9"}, "geometry": {"type": "Point", "coordinates": [-79.47053, 46.3158]}},
{"type": "Feature", "id": "rC3Frn5WQZDsEBGdvlna3JkJqKU=", "properties": {"ref": "rona-don-ray-lumber-sydney-mines-08949", "@spider": "rona", "shop": "doityourself", "addr:full": "1100 , Main street", "addr:city": "Sydney Mines,", "addr:state": "NS,", "addr:postcode": "B1V 2M6", "addr:country": "CA", "website": "https://www.rona.ca/en/store/nova-scotia/sydney-mines/rona-don-ray-lumber-sydney-mines-08949", "brand": "RONA", "brand:wikidata": "Q3415283", "nsi_id": "rona-fd1fd9"}, "geometry": {"type": "Point", "coordinates": [-60.24815, 46.24186]}},
{"type": "Feature", "id": "F9_6_8mTmkQ3-HT97k0d-3y5fXs=", "properties": {"ref": "rona-lakeview-builders-supplies-north-bay-08885", "@spider": "rona", "shop": "doityourself", "addr:full": "523 McGaughey Avenue", "addr:city": "North Bay,", "addr:state": "ON,", "addr:postcode": "P1B 8H2", "addr:country": "CA", "website": "https://www.rona.ca/en/store/ontario/north-bay/rona-lakeview-builders-supplies-north-bay-08885", "brand": "RONA", "brand:wikidata": "Q3415283", "nsi_id": "rona-fd1fd9"}, "geometry": {"type": "Point", "coordinates": [-79.44345, 46.31106]}},
{"type": "Feature", "id": "ZuwCtAMtOtylIzI1VXfDWcjyYQM=", "properties": {"ref": "rona-tsawwassen-commons-08880", "@spider": "rona", "shop": "doityourself", "addr:full": "#100 - 4949 Canoe Pass Way", "addr:city": "Tsawwassen,", "addr:state": "BC,", "addr:postcode": "V4M 0B2", "addr:country": "CA", "website": "https://www.rona.ca/en/store/british-columbia/tsawwassen/rona-tsawwassen-commons-08880", "brand": "RONA", "brand:wikidata": "Q3415283", "nsi_id": "rona-fd1fd9"}, "geometry": {"type": "Point", "coordinates": [-123.08942, 49.04258]}},
{"type": "Feature", "id": "Cr4oG0Ywk0HhwJf7DWnMw6R1X8s=", "properties": {"ref": "rona-hodgins-lumber-lucknow-08830", "@spider": "rona", "shop": "doityourself", "addr:full": "782, Havelock", "addr:city": "Lucknow,", "addr:state": "ON,", "addr:postcode": "N0G 2H0", "addr:country": "CA", "website": "https://www.rona.ca/en/store/ontario/lucknow/rona-hodgins-lumber-lucknow-08830", "brand": "RONA", "brand:wikidata": "Q3415283", "nsi_id": "rona-fd1fd9"}, "geometry": {"type": "Point", "coordinates": [-81.50744, 43.96691]}},
{"type": "Feature", "id": "W7LnZTRuF6fls0AxpJ1DkK9_eqg=", "properties": {"ref": "materiaux-godin-et-fils-namur-08825", "@spider": "rona", "shop": "doityourself", "addr:full": "1129 Route 315", "addr:city": "Namur,", "addr:state": "QC,", "addr:postcode": "J0V 1N0", "addr:country": "CA", "website": "https://www.rona.ca/en/store/quebec/namur/materiaux-godin-et-fils-namur-08825", "brand": "RONA", "brand:wikidata": "Q3415283", "nsi_id": "rona-fd1fd9"}, "geometry": {"type": "Point", "coordinates": [-74.92568, 45.89676]}},
{"type": "Feature", "id": "PtCfDihA9tbcSEg4W0vZKJycZYs=", "properties": {"ref": "rona-valley-enterprises-ltd-rosenort-08824", "@spider": "rona", "shop": "doityourself", "addr:full": "highway 205", "addr:city": "Rosenort,", "addr:state": "MB,", "addr:postcode": "R0G 1W0", "addr:country": "CA", "website": "https://www.rona.ca/en/store/manitoba/rosenort/rona-valley-enterprises-ltd-rosenort-08824", "brand": "RONA", "brand:wikidata": "Q3415283", "nsi_id": "rona-fd1fd9"}, "geometry": {"type": "Point", "coordinates": [-97.43689, 49.45875]}},
{"type": "Feature", "id": "oQm6p7K9gHLV9z459mxhfXJHGBo=", "properties": {"ref": "materiaux-godin-et-fils-lachute-08815", "@spider": "rona", "shop": "doityourself", "addr:full": "295 rue St-Jean", "addr:city": "Lachute,", "addr:state": "QC,", "addr:postcode": "J8H 3R8", "addr:country": "CA", "website": "https://www.rona.ca/en/store/quebec/lachute/materiaux-godin-et-fils-lachute-08815", "brand": "RONA", "brand:wikidata": "Q3415283", "nsi_id": "rona-fd1fd9"}, "geometry": {"type": "Point", "coordinates": [-74.36412, 45.65432]}},
{"type": "Feature", "id": "DHXuyho_d1ZDpGZ_mFf65vngd0E=", "properties": {"ref": "materiaux-godin-et-fils-grenville-08805", "@spider": "rona", "shop": "doityourself", "addr:full": "27 rue Maple", "addr:city": "Grenville,", "addr:state": "QC,", "addr:postcode": "J0V 1J0", "addr:country": "CA", "website": "https://www.rona.ca/en/store/quebec/grenville/materiaux-godin-et-fils-grenville-08805", "brand": "RONA", "brand:wikidata": "Q3415283", "nsi_id": "rona-fd1fd9"}, "geometry": {"type": "Point", "coordinates": [-74.59339, 45.62291]}},
{"type": "Feature", "id": "JwEtsCTbNfTXKs3fdC-zuWNEtB4=", "properties": {"ref": "rona-materiaux-magog-orford-magog-08779", "@spider": "rona", "shop": "doityourself", "addr:full": "205, rue Centre", "addr:city": "Magog,", "addr:state": "QC,", "addr:postcode": "J1X 5B6", "addr:country": "CA", "website": "https://www.rona.ca/en/store/quebec/magog/rona-materiaux-magog-orford-magog-08779", "brand": "RONA", "brand:wikidata": "Q3415283", "nsi_id": "rona-fd1fd9"}, "geometry": {"type": "Point", "coordinates": [-72.12651, 45.27641]}},
{"type": "Feature", "id": "DkBzOQj_bYIbu9RHBghox47VJlY=", "properties": {"ref": "groupe-materiaux-godin-lorignal-08760", "@spider": "rona", "shop": "doityourself", "addr:full": "1587 County Road 4", "addr:city": "L'Orignal,", "addr:state": "ON,", "addr:postcode": "K0B 1K0", "addr:country": "CA", "website": "https://www.rona.ca/en/store/ontario/lorignal/groupe-materiaux-godin-lorignal-08760", "brand": "RONA", "brand:wikidata": "Q3415283", "nsi_id": "rona-fd1fd9"}, "geometry": {"type": "Point", "coordinates": [-74.63454, 45.61893]}},
{"type": "Feature", "id": "3m7icdwen0L9ZTkGMYGQ_9Km4iI=", "properties": {"ref": "rona-port-hope-building-supplies-08669", "@spider": "rona", "shop": "doityourself", "addr:full": "205 , Peter street", "addr:city": "Port Hope,", "addr:state": "ON,", "addr:postcode": "L1A 3Z3", "addr:country": "CA", "website": "https://www.rona.ca/en/store/ontario/port-hope/rona-port-hope-building-supplies-08669", "brand": "RONA", "brand:wikidata": "Q3415283", "nsi_id": "rona-fd1fd9"}, "geometry": {"type": "Point", "coordinates": [-78.27267, 43.95319]}},
{"type": "Feature", "id": "NdrhhXcm_l_ldPrOJdn8SCXAr3Y=", "properties": {"ref": "rona-pinecrest-lumber-ltd-nipawin-08622", "@spider": "rona", "shop": "doityourself", "addr:full": "104 , Timber Drive", "addr:city": "Nipawin,", "addr:state": "SK,", "addr:postcode": "S0E 1E0", "addr:country": "CA", "website": "https://www.rona.ca/en/store/saskatchewan/nipawin/rona-pinecrest-lumber-ltd-nipawin-08622", "brand": "RONA", "brand:wikidata": "Q3415283", "nsi_id": "rona-fd1fd9"}, "geometry": {"type": "Point", "coordinates": [-104.01363, 53.3678]}},
{"type": "Feature", "id": "85UiGbBeDCYACeOmjSKsxQM5CH4=", "properties": {"ref": "rona-terrace-builders-centre-08580", "@spider": "rona", "shop": "doityourself", "addr:full": "3207 Munroe Street", "addr:city": "Terrace,", "addr:state": "BC,", "addr:postcode": "V8G 3B3", "addr:country": "CA", "website": "https://www.rona.ca/en/store/british-columbia/terrace/rona-terrace-builders-centre-08580", "brand": "RONA", "brand:wikidata": "Q3415283", "nsi_id": "rona-fd1fd9"}, "geometry": {"type": "Point", "coordinates": [-128.60528, 54.51736]}},
{"type": "Feature", "id": "if_fFb1iqWL4WgeKFTRI0iahZgk=", "properties": {"ref": "fvbs-abbotsford-08570", "@spider": "rona", "shop": "doityourself", "addr:full": "28728 Fraser Highway", "addr:city": "Abbotsford,", "addr:state": "BC,", "addr:postcode": "V4X 1K8", "addr:country": "CA", "website": "https://www.rona.ca/en/store/british-columbia/abbotsford/fvbs-abbotsford-08570", "brand": "RONA", "brand:wikidata": "Q3415283", "nsi_id": "rona-fd1fd9"}, "geometry": {"type": "Point", "coordinates": [-122.43103, 49.05603]}},
{"type": "Feature", "id": "a5JdeEV5NuRale_CvH1N4_x_vmA=", "properties": {"ref": "rona-cobourg-building-supplies-08569", "@spider": "rona", "shop": "doityourself", "addr:full": "1125 Division Street", "addr:city": "Cobourg,", "addr:state": "ON,", "addr:postcode": "K9A 4L1", "addr:country": "CA", "website": "https://www.rona.ca/en/store/ontario/cobourg/rona-cobourg-building-supplies-08569", "brand": "RONA", "brand:wikidata": "Q3415283", "nsi_id": "rona-fd1fd9"}, "geometry": {"type": "Point", "coordinates": [-78.17573, 43.98185]}},
{"type": "Feature", "id": "lPkYPtxuVwF5YoNRAI_1BhbbDf4=", "properties": {"ref": "maglio-building-centre-trail-08560", "@spider": "rona", "shop": "doityourself", "addr:full": "8274 Waneta Hwy 22A", "addr:city": "Trail,", "addr:state": "BC,", "addr:postcode": "V1R 4W4", "addr:country": "CA", "website": "https://www.rona.ca/en/store/british-columbia/trail/maglio-building-centre-trail-08560", "brand": "RONA", "brand:wikidata": "Q3415283", "nsi_id": "rona-fd1fd9"}, "geometry": {"type": "Point", "coordinates": [-117.62748, 49.0873]}},
{"type": "Feature", "id": "-7yDmBpXLNhJhNEa6_0RoaKmBaY=", "properties": {"ref": "maglio-building-centre-nelson-08550", "@spider": "rona", "shop": "doityourself", "addr:full": "29 Government Road", "addr:city": "Nelson,", "addr:state": "BC,", "addr:postcode": "V1L 4L9", "addr:country": "CA", "website": "https://www.rona.ca/en/store/british-columbia/nelson/maglio-building-centre-nelson-08550", "brand": "RONA", "brand:wikidata": "Q3415283", "nsi_id": "rona-fd1fd9"}, "geometry": {"type": "Point", "coordinates": [-117.3018, 49.48837]}},
{"type": "Feature", "id": "MjKQs8MHx_dggKLcbZRs5uN-6SM=", "properties": {"ref": "fvbs-hope-08530", "@spider": "rona", "shop": "doityourself", "addr:full": "451 Corbett Street", "addr:city": "Hope,", "addr:state": "BC,", "addr:postcode": "V0X 1L4", "addr:country": "CA", "website": "https://www.rona.ca/en/store/british-columbia/hope/fvbs-hope-08530", "brand": "RONA", "brand:wikidata": "Q3415283", "nsi_id": "rona-fd1fd9"}, "geometry": {"type": "Point", "coordinates": [-121.43474, 49.37631]}},
{"type": "Feature", "id": "7q7hll1iy7F0MESnMGgsO-Umtxs=", "properties": {"ref": "rona-fraser-valley-mission-08470", "@spider": "rona", "shop": "doityourself", "addr:full": "7072 Wren street", "addr:city": "Mission,", "addr:state": "BC,", "addr:postcode": "V2V 2V9", "addr:country": "CA", "website": "https://www.rona.ca/en/store/british-columbia/mission/rona-fraser-valley-mission-08470", "brand": "RONA", "brand:wikidata": "Q3415283", "nsi_id": "rona-fd1fd9"}, "geometry": {"type": "Point", "coordinates": [-122.3382, 49.13062]}},
{"type": "Feature", "id": "6gZYzWAhpRbIVd2fW6p7UHkTa1s=", "properties": {"ref": "rona-materiaux-prevost-cookshire-08464", "@spider": "rona", "shop": "doityourself", "addr:full": "840 rue Craig Nord", "addr:city": "Cookshire,", "addr:state": "QC,", "addr:postcode": "J0B 1M0", "addr:country": "CA", "website": "https://www.rona.ca/en/store/quebec/cookshire/rona-materiaux-prevost-cookshire-08464", "brand": "RONA", "brand:wikidata": "Q3415283", "nsi_id": "rona-fd1fd9"}, "geometry": {"type": "Point", "coordinates": [-71.63118, 45.41963]}},
{"type": "Feature", "id": "Ab7AbJnz-hM-DcoviI1EKzaXDLc=", "properties": {"ref": "rona-fort-st-john-08444", "@spider": "rona", "shop": "doityourself", "addr:full": "11611, Alaska Hwy", "addr:city": "Fort St. John,", "addr:state": "BC,", "addr:postcode": "V1J 4M7", "addr:country": "CA", "website": "https://www.rona.ca/en/store/british-columbia/fort-st-john/rona-fort-st-john-08444", "brand": "RONA", "brand:wikidata": "Q3415283", "nsi_id": "rona-fd1fd9"}, "geometry": {"type": "Point", "coordinates": [-120.84652, 56.2363]}},
{"type": "Feature", "id": "jYphHFPbIftS6YS_G0vztJ93wAw=", "properties": {"ref": "rona-outaouais-papineauville-08336", "@spider": "rona", "shop": "doityourself", "addr:full": "2761 Qc-148", "addr:city": "Papineauville,", "addr:state": "QC,", "addr:postcode": "J0V 1R0", "addr:country": "CA", "website": "https://www.rona.ca/en/store/quebec/papineauville/rona-outaouais-papineauville-08336", "brand": "RONA", "brand:wikidata": "Q3415283", "nsi_id": "rona-fd1fd9"}, "geometry": {"type": "Point", "coordinates": [-75.05536, 45.61582]}},
{"type": "Feature", "id": "tauRlYDO011MW-4M0UPoh7IYfNs=", "properties": {"ref": "rona-outaouais-buckingham-08335", "@spider": "rona", "shop": "doityourself", "addr:full": "700 rue Dollard", "addr:city": "Gatineau,", "addr:state": "QC,", "addr:postcode": "J8L 3H3", "addr:country": "CA", "website": "https://www.rona.ca/en/store/quebec/gatineau/rona-outaouais-buckingham-08335", "brand": "RONA", "brand:wikidata": "Q3415283", "nsi_id": "rona-fd1fd9"}, "geometry": {"type": "Point", "coordinates": [-75.40851, 45.57976]}},
{"type": "Feature", "id": "iY0UGU5luBmwvqcHtq0Gb-iUu4E=", "properties": {"ref": "rona-outaouais-val-des-monts-08333", "@spider": "rona", "shop": "doityourself", "addr:full": "1839 Route du Carrefour", "addr:city": "Val-des-Monts,", "addr:state": "QC,", "addr:postcode": "J8N 7M6", "addr:country": "CA", "website": "https://www.rona.ca/en/store/quebec/val-des-monts/rona-outaouais-val-des-monts-08333", "brand": "RONA", "brand:wikidata": "Q3415283", "nsi_id": "rona-fd1fd9"}, "geometry": {"type": "Point", "coordinates": [-75.61692, 45.59608]}},
{"type": "Feature", "id": "PqStZDZxSdcE_WNH_moObRsXE6Y=", "properties": {"ref": "rona-hodgins-lumber-wingham-08320", "@spider": "rona", "shop": "doityourself", "addr:full": "11 B Line Road", "addr:city": "Wingham,", "addr:state": "ON,", "addr:postcode": "N0G 2W0", "addr:country": "CA", "website": "https://www.rona.ca/en/store/ontario/wingham/rona-hodgins-lumber-wingham-08320", "brand": "RONA", "brand:wikidata": "Q3415283", "nsi_id": "rona-fd1fd9"}, "geometry": {"type": "Point", "coordinates": [-81.30406, 43.89684]}},
{"type": "Feature", "id": "RL50lrEsvipHP3uaAgUabzW8650=", "properties": {"ref": "rona-tims-and-cohome-centre-little-current-08315", "@spider": "rona", "shop": "doityourself", "addr:full": "9130 Highway 6", "addr:city": "Little Current,", "addr:state": "ON,", "addr:postcode": "P0P 1K0", "addr:country": "CA", "website": "https://www.rona.ca/en/store/ontario/little-current/rona-tims-and-cohome-centre-little-current-08315", "brand": "RONA", "brand:wikidata": "Q3415283", "nsi_id": "rona-fd1fd9"}, "geometry": {"type": "Point", "coordinates": [-81.91965, 45.96822]}},
{"type": "Feature", "id": "d_3Sxo_PtK0CU1otnP9THGXo2Ac=", "properties": {"ref": "rona-elora-building-supplies-08290", "@spider": "rona", "shop": "doityourself", "addr:full": "306 Wellington Rd 18", "addr:city": "Elora,", "addr:state": "ON,", "addr:postcode": "N0B 1S0", "addr:country": "CA", "website": "https://www.rona.ca/en/store/ontario/elora/rona-elora-building-supplies-08290", "brand": "RONA", "brand:wikidata": "Q3415283", "nsi_id": "rona-fd1fd9"}, "geometry": {"type": "Point", "coordinates": [-80.41667, 43.69094]}},
{"type": "Feature", "id": "26T7tSKuGCrydFa8TfcLUQgOLFw=", "properties": {"ref": "rona-wfilsinger-son-guelph-08281", "@spider": "rona", "shop": "doityourself", "addr:full": "55 , Dawson Road", "addr:city": "Guelph,", "addr:state": "ON,", "addr:postcode": "N1H 1B1", "addr:country": "CA", "website": "https://www.rona.ca/en/store/ontario/guelph/rona-wfilsinger-son-guelph-08281", "brand": "RONA", "brand:wikidata": "Q3415283", "nsi_id": "rona-fd1fd9"}, "geometry": {"type": "Point", "coordinates": [-80.2753, 43.54701]}},
{"type": "Feature", "id": "RMNn-pCYhu-SMbjBDou5A3d5EMM=", "properties": {"ref": "rona-petawawa-08280", "@spider": "rona", "shop": "doityourself", "addr:full": "3025 Petawawa boulevard", "addr:city": "Petawawa,", "addr:state": "ON,", "addr:postcode": "K8H 1X9", "addr:country": "CA", "website": "https://www.rona.ca/en/store/ontario/petawawa/rona-petawawa-08280", "brand": "RONA", "brand:wikidata": "Q3415283", "nsi_id": "rona-fd1fd9"}, "geometry": {"type": "Point", "coordinates": [-77.26053, 45.88859]}},
{"type": "Feature", "id": "DZC47sGPGtP9HtLLmVchFKRov60=", "properties": {"ref": "rona-family-first-hardware-08175", "@spider": "rona", "shop": "doityourself", "addr:full": "775, Veteran's Memorial Dr.", "addr:city": "Arichat,", "addr:state": "NS,", "addr:postcode": "B0E 1A0", "addr:country": "CA", "website": "https://www.rona.ca/en/store/nova-scotia/arichat/rona-family-first-hardware-08175", "brand": "RONA", "brand:wikidata": "Q3415283", "nsi_id": "rona-fd1fd9"}, "geometry": {"type": "Point", "coordinates": [-60.98825, 45.51202]}},
{"type": "Feature", "id": "xbNjroP_tS4ozfyqlEKacWXrf-c=", "properties": {"ref": "rona-north-vancouver-08140", "@spider": "rona", "shop": "doityourself", "addr:full": "915, West First Street", "addr:city": "North Vancouver,", "addr:state": "BC,", "addr:postcode": "V7P 1A4", "addr:country": "CA", "website": "https://www.rona.ca/en/store/british-columbia/north-vancouver/rona-north-vancouver-08140", "brand": "RONA", "brand:wikidata": "Q3415283", "nsi_id": "rona-fd1fd9"}, "geometry": {"type": "Point", "coordinates": [-123.09848, 49.31834]}},
{"type": "Feature", "id": "5xNHxcLNA6YRwH7sh97hKmwHWc4=", "properties": {"ref": "rona-rollins-building-supplies-stirling-08133", "@spider": "rona", "shop": "doityourself", "addr:full": "436 Front Street West", "addr:city": "Stirling,", "addr:state": "ON,", "addr:postcode": "K0K 3E0", "addr:country": "CA", "website": "https://www.rona.ca/en/store/ontario/stirling/rona-rollins-building-supplies-stirling-08133", "brand": "RONA", "brand:wikidata": "Q3415283", "nsi_id": "rona-fd1fd9"}, "geometry": {"type": "Point", "coordinates": [-77.56498, 44.292]}},
{"type": "Feature", "id": "h9n26KaTpCRntitk1oaFjrYblso=", "properties": {"ref": "rona-cold-lake-08122", "@spider": "rona", "shop": "doityourself", "addr:full": "3401, 50 Street", "addr:city": "Cold Lake,", "addr:state": "AB,", "addr:postcode": "T9M 1K6", "addr:country": "CA", "website": "https://www.rona.ca/en/store/alberta/cold-lake/rona-cold-lake-08122", "brand": "RONA", "brand:wikidata": "Q3415283", "nsi_id": "rona-fd1fd9"}, "geometry": {"type": "Point", "coordinates": [-110.20397, 54.3996]}},
{"type": "Feature", "id": "7DAdmtpueRsLljV2Wnakw2eQsMM=", "properties": {"ref": "rona-richmond-08040", "@spider": "rona", "shop": "doityourself", "addr:full": "7111 Elmbridge Way", "addr:city": "Richmond,", "addr:state": "BC,", "addr:postcode": "V6X 3J7", "addr:country": "CA", "website": "https://www.rona.ca/en/store/british-columbia/richmond/rona-richmond-08040", "brand": "RONA", "brand:wikidata": "Q3415283", "nsi_id": "rona-fd1fd9"}, "geometry": {"type": "Point", "coordinates": [-123.14489, 49.17275]}},
{"type": "Feature", "id": "6yckKiy9Z7_Kut2LaZ5uQxh01Bw=", "properties": {"ref": "rona-les-materiaux-laverdure-inc-maricourt-08035", "@spider": "rona", "shop": "doityourself", "addr:full": "629, route 222", "addr:city": "Maricourt,", "addr:state": "QC,", "addr:postcode": "J0E 2L2", "addr:country": "CA", "website": "https://www.rona.ca/en/store/quebec/maricourt/rona-les-materiaux-laverdure-inc-maricourt-08035", "brand": "RONA", "brand:wikidata": "Q3415283", "nsi_id": "rona-fd1fd9"}, "geometry": {"type": "Point", "coordinates": [-72.31853, 45.54543]}},
{"type": "Feature", "id": "G1mXZVTsPRbljfHujqwdi-6PsMU=", "properties": {"ref": "rona-tinsco-rawdon-07995", "@spider": "rona", "shop": "doityourself", "addr:full": "3757 chemin Saint-Alphonse", "addr:city": "Rawdon,", "addr:state": "QC,", "addr:postcode": "J0K 1S0", "addr:country": "CA", "website": "https://www.rona.ca/en/store/quebec/rawdon/rona-tinsco-rawdon-07995", "brand": "RONA", "brand:wikidata": "Q3415283", "nsi_id": "rona-fd1fd9"}, "geometry": {"type": "Point", "coordinates": [-73.69648, 46.05354]}},
{"type": "Feature", "id": "iYFoCCQkqJo4vX40cMtCNL1Ab9Y=", "properties": {"ref": "rona-quincaillerie-corriveau-inc-quebec-07895", "@spider": "rona", "shop": "doityourself", "addr:full": "1744, chemin Saint-Louis", "addr:city": "Qu\u00e9bec,", "addr:state": "QC,", "addr:postcode": "G1S 1H5", "addr:country": "CA", "website": "https://www.rona.ca/en/store/quebec/quebec/rona-quincaillerie-corriveau-inc-quebec-07895", "brand": "RONA", "brand:wikidata": "Q3415283", "nsi_id": "rona-fd1fd9"}, "geometry": {"type": "Point", "coordinates": [-71.24693, 46.78184]}},
{"type": "Feature", "id": "bZ608H6F4MNzriJBrMpuK5xbKz8=", "properties": {"ref": "rona-bois-des-filion-07869", "@spider": "rona", "shop": "doityourself", "addr:full": "382 boul. F.Adolphe-Chapleau", "addr:city": "Bois-des-Filion,", "addr:state": "QC,", "addr:postcode": "J6Z 1H3", "addr:country": "CA", "website": "https://www.rona.ca/en/store/quebec/bois-des-filion/rona-bois-des-filion-07869", "brand": "RONA", "brand:wikidata": "Q3415283", "nsi_id": "rona-fd1fd9"}, "geometry": {"type": "Point", "coordinates": [-73.75521, 45.66951]}},
{"type": "Feature", "id": "Iy_Md4Ne4CF0VS7uhNNMrHO_86k=", "properties": {"ref": "rona-quincaillerie-piette-saint-gabriel-de-brandon-07807", "@spider": "rona", "shop": "doityourself", "addr:full": "78, rue St-Gabriel", "addr:city": "Saint-Gabriel-de-Brandon,", "addr:state": "QC,", "addr:postcode": "J0K 2N0", "addr:country": "CA", "website": "https://www.rona.ca/en/store/quebec/saint-gabriel-de-brandon/rona-quincaillerie-piette-saint-gabriel-de-brandon-07807", "brand": "RONA", "brand:wikidata": "Q3415283", "nsi_id": "rona-fd1fd9"}, "geometry": {"type": "Point", "coordinates": [-73.38286, 46.29207]}},
{"type": "Feature", "id": "uSeKzoLLYxMzOjA2hxXz6fb51jI=", "properties": {"ref": "rona-quincaillerie-larocque-salaberry-de-valleyfield-07751", "@spider": "rona", "shop": "doityourself", "addr:full": "420, Chemin Larocque", "addr:city": "Salaberry-de-Valleyfield,", "addr:state": "QC,", "addr:postcode": "J6T 4C5", "addr:country": "CA", "website": "https://www.rona.ca/en/store/quebec/salaberry-de-valleyfield/rona-quincaillerie-larocque-salaberry-de-valleyfield-07751", "brand": "RONA", "brand:wikidata": "Q3415283", "nsi_id": "rona-fd1fd9"}, "geometry": {"type": "Point", "coordinates": [-74.12585, 45.24129]}},
{"type": "Feature", "id": "zNkKDRJiPW9mxcaCqZwMJfKE3zA=", "properties": {"ref": "rona-deslongchamps-mont-laurier-07671", "@spider": "rona", "shop": "doityourself", "addr:full": "1351 , boul. Albiny Paquette", "addr:city": "Mont-Laurier,", "addr:state": "QC,", "addr:postcode": "J9L 1M8", "addr:country": "CA", "website": "https://www.rona.ca/en/store/quebec/mont-laurier/rona-deslongchamps-mont-laurier-07671", "brand": "RONA", "brand:wikidata": "Q3415283", "nsi_id": "rona-fd1fd9"}, "geometry": {"type": "Point", "coordinates": [-75.47157, 46.55263]}},
{"type": "Feature", "id": "ZvIDoJGY69n3Uw8uVNsK0fKK0KQ=", "properties": {"ref": "rona-vimont-laval-07611", "@spider": "rona", "shop": "doityourself", "addr:full": "1889, boul. des Laurentides", "addr:city": "Laval,", "addr:state": "QC,", "addr:postcode": "H7M 2P8", "addr:country": "CA", "website": "https://www.rona.ca/en/store/quebec/laval/rona-vimont-laval-07611", "brand": "RONA", "brand:wikidata": "Q3415283", "nsi_id": "rona-fd1fd9"}, "geometry": {"type": "Point", "coordinates": [-73.72781, 45.60275]}},
{"type": "Feature", "id": "Y34siWnVb7nle-s1rCYuxWNxoeY=", "properties": {"ref": "rona-c-caron-matagami-07549", "@spider": "rona", "shop": "doityourself", "addr:full": "9, Nottaway", "addr:city": "Matagami,", "addr:state": "QC,", "addr:postcode": "J0Y 2A0", "addr:country": "CA", "website": "https://www.rona.ca/en/store/quebec/matagami/rona-c-caron-matagami-07549", "brand": "RONA", "brand:wikidata": "Q3415283", "nsi_id": "rona-fd1fd9"}, "geometry": {"type": "Point", "coordinates": [-77.63113, 49.76777]}},
{"type": "Feature", "id": "BqMgYMvowidevRQuG5ekijB7EHA=", "properties": {"ref": "rona-quincaillerie-du-plateau-07430", "@spider": "rona", "shop": "doityourself", "addr:full": "1473, Laurier Est", "addr:city": "Montr\u00e9al,", "addr:state": "QC,", "addr:postcode": "H2J 1H8", "addr:country": "CA", "website": "https://www.rona.ca/en/store/quebec/montreal/rona-quincaillerie-du-plateau-07430", "brand": "RONA", "brand:wikidata": "Q3415283", "nsi_id": "rona-fd1fd9"}, "geometry": {"type": "Point", "coordinates": [-73.58473, 45.53238]}},
{"type": "Feature", "id": "gkHSSeUZHaqha9n7GEsSwwA1wNY=", "properties": {"ref": "rona-roberval-07370", "@spider": "rona", "shop": "doityourself", "addr:full": "255, boul. Marcotte", "addr:city": "Roberval,", "addr:state": "QC,", "addr:postcode": "G8H 1Z3", "addr:country": "CA", "website": "https://www.rona.ca/en/store/quebec/roberval/rona-roberval-07370", "brand": "RONA", "brand:wikidata": "Q3415283", "nsi_id": "rona-fd1fd9"}, "geometry": {"type": "Point", "coordinates": [-72.22243, 48.50064]}},
{"type": "Feature", "id": "b0x229On5aadd_Sy-M3-dziu5WM=", "properties": {"ref": "rona-bois-ideal-inc-montreal-07271", "@spider": "rona", "shop": "doityourself", "addr:full": "4100 Boul.St-Laurent", "addr:city": "Montr\u00e9al,", "addr:state": "QC,", "addr:postcode": "H2W 1Y8", "addr:country": "CA", "website": "https://www.rona.ca/en/store/quebec/montreal/rona-bois-ideal-inc-montreal-07271", "brand": "RONA", "brand:wikidata": "Q3415283", "nsi_id": "rona-fd1fd9"}, "geometry": {"type": "Point", "coordinates": [-73.58071, 45.51742]}},
{"type": "Feature", "id": "YhiaQn34h0aE8JQwNKQFX_rdx1Q=", "properties": {"ref": "rona-interlakes-building-supplies-ltd-lone-butte-07240", "@spider": "rona", "shop": "doityourself", "addr:full": "7251 Levick Rd", "addr:city": "Lone Butte,", "addr:state": "BC,", "addr:postcode": "V0K 1X1", "addr:country": "CA", "website": "https://www.rona.ca/en/store/british-columbia/lone-butte/rona-interlakes-building-supplies-ltd-lone-butte-07240", "brand": "RONA", "brand:wikidata": "Q3415283", "nsi_id": "rona-fd1fd9"}, "geometry": {"type": "Point", "coordinates": [-121.19496, 51.55459]}},
{"type": "Feature", "id": "IZCe5F-ddPEiJXkgS-Kw6Yamj7w=", "properties": {"ref": "rona-rs-damour-fils-inc-ormstown-07100", "@spider": "rona", "shop": "doityourself", "addr:full": "30, Church", "addr:city": "Ormstown,", "addr:state": "QC,", "addr:postcode": "J0S 1K0", "addr:country": "CA", "website": "https://www.rona.ca/en/store/quebec/ormstown/rona-rs-damour-fils-inc-ormstown-07100", "brand": "RONA", "brand:wikidata": "Q3415283", "nsi_id": "rona-fd1fd9"}, "geometry": {"type": "Point", "coordinates": [-73.99622, 45.12899]}},
{"type": "Feature", "id": "0QZIt4Vwv_DN6VvCt285CqajAGU=", "properties": {"ref": "rona-centre-de-renovation-barraute-07020", "@spider": "rona", "shop": "doityourself", "addr:full": "623, 1e Rue", "addr:city": "Barraute,", "addr:state": "QC,", "addr:postcode": "J0Y 1A0", "addr:country": "CA", "website": "https://www.rona.ca/en/store/quebec/barraute/rona-centre-de-renovation-barraute-07020", "brand": "RONA", "brand:wikidata": "Q3415283", "nsi_id": "rona-fd1fd9"}, "geometry": {"type": "Point", "coordinates": [-77.63701, 48.44022]}},
{"type": "Feature", "id": "2wv9u-qw1xgSxMQf77F5W7m3J6g=", "properties": {"ref": "rona-maurice-goupil-inc-chandler-06970", "@spider": "rona", "shop": "doityourself", "addr:full": "379, route 132", "addr:city": "Chandler,", "addr:state": "QC,", "addr:postcode": "G0C 1K0", "addr:country": "CA", "website": "https://www.rona.ca/en/store/quebec/chandler/rona-maurice-goupil-inc-chandler-06970", "brand": "RONA", "brand:wikidata": "Q3415283", "nsi_id": "rona-fd1fd9"}, "geometry": {"type": "Point", "coordinates": [-64.71115, 48.341]}},
{"type": "Feature", "id": "2wSHw2r7-6EmlKMDGPV5wU55mXw=", "properties": {"ref": "rona-la-coop-agricole-dembrun-ltd-06944", "@spider": "rona", "shop": "doityourself", "addr:full": "755, rue Notre-Dame, CP 189", "addr:city": "Embrun,", "addr:state": "ON,", "addr:postcode": "K0A 1W0", "addr:country": "CA", "website": "https://www.rona.ca/en/store/ontario/embrun/rona-la-coop-agricole-dembrun-ltd-06944", "brand": "RONA", "brand:wikidata": "Q3415283", "nsi_id": "rona-fd1fd9"}, "geometry": {"type": "Point", "coordinates": [-75.30298, 45.26953]}},
{"type": "Feature", "id": "TQDm5fLW51gKXKBv6QkBr8o2Sao=", "properties": {"ref": "rona-m-sullivan-son-limited-arnprior-06917", "@spider": "rona", "shop": "doityourself", "addr:full": "236 Madawaska Blvd", "addr:city": "Arnprior,", "addr:state": "ON,", "addr:postcode": "K7S 0A3", "addr:country": "CA", "website": "https://www.rona.ca/en/store/ontario/arnprior/rona-m-sullivan-son-limited-arnprior-06917", "brand": "RONA", "brand:wikidata": "Q3415283", "nsi_id": "rona-fd1fd9"}, "geometry": {"type": "Point", "coordinates": [-76.34108, 45.43192]}},
{"type": "Feature", "id": "pt2Oo5rVbwLcC90fCkbuc4RMYQY=", "properties": {"ref": "rona-ducharme-frere-saint-cesaire-06775", "@spider": "rona", "shop": "doityourself", "addr:full": "1221, Vimy", "addr:city": "Saint-Cesaire,", "addr:state": "QC,", "addr:postcode": "J0L 1T0", "addr:country": "CA", "website": "https://www.rona.ca/en/store/quebec/saint-cesaire/rona-ducharme-frere-saint-cesaire-06775", "brand": "RONA", "brand:wikidata": "Q3415283", "nsi_id": "rona-fd1fd9"}, "geometry": {"type": "Point", "coordinates": [-73.00861, 45.41148]}},
{"type": "Feature", "id": "opN53lli_be2t7Ivy54qd-TFaBo=", "properties": {"ref": "rona-dolbeau-mistassini-06766", "@spider": "rona", "shop": "doityourself", "addr:full": "727 , boul.V\u00e9zina", "addr:city": "Dolbeau-Mistassini,", "addr:state": "QC,", "addr:postcode": "G8L 6H6", "addr:country": "CA", "website": "https://www.rona.ca/en/store/quebec/dolbeau-mistassini/rona-dolbeau-mistassini-06766", "brand": "RONA", "brand:wikidata": "Q3415283", "nsi_id": "rona-fd1fd9"}, "geometry": {"type": "Point", "coordinates": [-72.2312, 48.86746]}},
{"type": "Feature", "id": "r43IzX-6cETYZo4v9I14z5lqKJY=", "properties": {"ref": "rona-cals-hardware-ltd-elk-point-06733", "@spider": "rona", "shop": "doityourself", "addr:full": "4819 , 50th. Street", "addr:city": "ELK POINT,", "addr:state": "AB,", "addr:postcode": "T0A 1A0", "addr:country": "CA", "website": "https://www.rona.ca/en/store/alberta/elk-point/rona-cals-hardware-ltd-elk-point-06733", "brand": "RONA", "brand:wikidata": "Q3415283", "nsi_id": "rona-fd1fd9"}, "geometry": {"type": "Point", "coordinates": [-110.89962, 53.89539]}},
{"type": "Feature", "id": "x7x9TS5om_7mpIp-Ll6W-nKPl_E=", "properties": {"ref": "rona-j-st-cyr-freres-ltee-notre-dame-du-mont-carmel-06711", "@spider": "rona", "shop": "doityourself", "addr:full": "3340, route 157", "addr:city": "Notre-Dame-du-Mont-Carmel,", "addr:state": "QC,", "addr:postcode": "G0X 3J0", "addr:country": "CA", "website": "https://www.rona.ca/en/store/quebec/notre-dame-du-mont-carmel/rona-j-st-cyr-freres-ltee-notre-dame-du-mont-carmel-06711", "brand": "RONA", "brand:wikidata": "Q3415283", "nsi_id": "rona-fd1fd9"}, "geometry": {"type": "Point", "coordinates": [-72.66269, 46.47279]}},
{"type": "Feature", "id": "NW1r5e2H_3EPpl1Bs09zy7r37uA=", "properties": {"ref": "rona-macklin-06680", "@spider": "rona", "shop": "doityourself", "addr:full": "4801, 57th avenue", "addr:city": "Macklin,", "addr:state": "SK,", "addr:postcode": "S0L 2C0", "addr:country": "CA", "website": "https://www.rona.ca/en/store/saskatchewan/macklin/rona-macklin-06680", "brand": "RONA", "brand:wikidata": "Q3415283", "nsi_id": "rona-fd1fd9"}, "geometry": {"type": "Point", "coordinates": [-109.93533, 52.33321]}},
{"type": "Feature", "id": "X8SsDalu_P3Zsu8GBaOOdfNQNF8=", "properties": {"ref": "rona-joel-builders-supplies-ltd-wahnapitae-06507", "@spider": "rona", "shop": "doityourself", "addr:full": "257 , Hill street", "addr:city": "Wahnapitae,", "addr:state": "ON,", "addr:postcode": "P0M 3C0", "addr:country": "CA", "website": "https://www.rona.ca/en/store/ontario/wahnapitae/rona-joel-builders-supplies-ltd-wahnapitae-06507", "brand": "RONA", "brand:wikidata": "Q3415283", "nsi_id": "rona-fd1fd9"}, "geometry": {"type": "Point", "coordinates": [-80.78558, 46.48284]}},
{"type": "Feature", "id": "OJkQIfIL-0ifX3X_Tiz-aJ4oZw4=", "properties": {"ref": "rona-materiaux-marieville-06470", "@spider": "rona", "shop": "doityourself", "addr:full": "655, Ste-Marie", "addr:city": "Marieville,", "addr:state": "QC,", "addr:postcode": "J3M 1J4", "addr:country": "CA", "website": "https://www.rona.ca/en/store/quebec/marieville/rona-materiaux-marieville-06470", "brand": "RONA", "brand:wikidata": "Q3415283", "nsi_id": "rona-fd1fd9"}, "geometry": {"type": "Point", "coordinates": [-73.1612, 45.43161]}},
{"type": "Feature", "id": "FjXY_42wSoVoesA3ZODvmQCo1CA=", "properties": {"ref": "rona-des-ormeaux-montreal-06465", "@spider": "rona", "shop": "doityourself", "addr:full": "2885 Des Ormeaux", "addr:city": "Montr\u00e9al,", "addr:state": "QC,", "addr:postcode": "H1L 4X9", "addr:country": "CA", "website": "https://www.rona.ca/en/store/quebec/montreal/rona-des-ormeaux-montreal-06465", "brand": "RONA", "brand:wikidata": "Q3415283", "nsi_id": "rona-fd1fd9"}, "geometry": {"type": "Point", "coordinates": [-73.52452, 45.60326]}},
{"type": "Feature", "id": "a73wgiA8m59YZPFW-A64Ld9dtVM=", "properties": {"ref": "centre-de-renovation-oka-06460", "@spider": "rona", "shop": "doityourself", "addr:full": "265 rue Saint-Michel", "addr:city": "Oka,", "addr:state": "QC,", "addr:postcode": "J0N 1E0", "addr:country": "CA", "website": "https://www.rona.ca/en/store/quebec/oka/centre-de-renovation-oka-06460", "brand": "RONA", "brand:wikidata": "Q3415283", "nsi_id": "rona-fd1fd9"}, "geometry": {"type": "Point", "coordinates": [-74.09685, 45.46226]}},
{"type": "Feature", "id": "Woib_u6bdXEdUyrnHFJhZuM72_Q=", "properties": {"ref": "rona-h-dagenais-et-fils-sainte-anne-des-lacs-06450", "@spider": "rona", "shop": "doityourself", "addr:full": "645 ch.de Ste-Anne-des-Lacs", "addr:city": "Sainte-Anne-des-Lacs,", "addr:state": "QC,", "addr:postcode": "J0R 1B0", "addr:country": "CA", "website": "https://www.rona.ca/en/store/quebec/sainte-anne-des-lacs/rona-h-dagenais-et-fils-sainte-anne-des-lacs-06450", "brand": "RONA", "brand:wikidata": "Q3415283", "nsi_id": "rona-fd1fd9"}, "geometry": {"type": "Point", "coordinates": [-74.12191, 45.86669]}},
{"type": "Feature", "id": "czZJPpkCLsj1rVzJASFgcMN21YU=", "properties": {"ref": "roch-gauthier-fils-les-cedres-06363", "@spider": "rona", "shop": "doityourself", "addr:full": "1655, Cite des Jeunes", "addr:city": "Les Cedres,", "addr:state": "QC,", "addr:postcode": "J7T 1K9", "addr:country": "CA", "website": "https://www.rona.ca/en/store/quebec/les-cedres/roch-gauthier-fils-les-cedres-06363", "brand": "RONA", "brand:wikidata": "Q3415283", "nsi_id": "rona-fd1fd9"}, "geometry": {"type": "Point", "coordinates": [-74.15001, 45.37704]}},
{"type": "Feature", "id": "ucXPQR0IXms8NyLkEoIcOcgqh4k=", "properties": {"ref": "rona-roch-gauthier-fils-saint-polycarpe-06354", "@spider": "rona", "shop": "doityourself", "addr:full": "68, Ste-Catherine", "addr:city": "Saint-Polycarpe,", "addr:state": "QC,", "addr:postcode": "J0P 1X0", "addr:country": "CA", "website": "https://www.rona.ca/en/store/quebec/saint-polycarpe/rona-roch-gauthier-fils-saint-polycarpe-06354", "brand": "RONA", "brand:wikidata": "Q3415283", "nsi_id": "rona-fd1fd9"}, "geometry": {"type": "Point", "coordinates": [-74.30873, 45.29977]}},
{"type": "Feature", "id": "IDCRDHgVyiCGUY24u4lUK1tqbwM=", "properties": {"ref": "rona-lac-du-bonnet-06208", "@spider": "rona", "shop": "doityourself", "addr:full": "92, 2nd street", "addr:city": "Lac du Bonnet,", "addr:state": "MB,", "addr:postcode": "R0E 1A0", "addr:country": "CA", "website": "https://www.rona.ca/en/store/manitoba/lac-du-bonnet/rona-lac-du-bonnet-06208", "brand": "RONA", "brand:wikidata": "Q3415283", "nsi_id": "rona-fd1fd9"}, "geometry": {"type": "Point", "coordinates": [-96.06099, 50.25706]}},
{"type": "Feature", "id": "vY9wDtvP6pxZa2ZBfwFj5fl8jIU=", "properties": {"ref": "rona-weyburn-06075", "@spider": "rona", "shop": "doityourself", "addr:full": "300 Railway avenue", "addr:city": "Weyburn,", "addr:state": "SK,", "addr:postcode": "S4H 0A5", "addr:country": "CA", "website": "https://www.rona.ca/en/store/saskatchewan/weyburn/rona-weyburn-06075", "brand": "RONA", "brand:wikidata": "Q3415283", "nsi_id": "rona-fd1fd9"}, "geometry": {"type": "Point", "coordinates": [-103.85544, 49.65987]}},
{"type": "Feature", "id": "S4E--S9igV5NrffetYB7FyBBSbA=", "properties": {"ref": "rona-coast-builders-sechelt-05818", "@spider": "rona", "shop": "doityourself", "addr:full": "5644 Wharf Avenue", "addr:city": "Sechelt,", "addr:state": "BC,", "addr:postcode": "V0N 3A0", "addr:country": "CA", "website": "https://www.rona.ca/en/store/british-columbia/sechelt/rona-coast-builders-sechelt-05818", "brand": "RONA", "brand:wikidata": "Q3415283", "nsi_id": "rona-fd1fd9"}, "geometry": {"type": "Point", "coordinates": [-123.75485, 49.47728]}},
{"type": "Feature", "id": "wWu0Lt0_Zsna80deVaPwaG5Fc64=", "properties": {"ref": "rona-materiaux-armand-dumaresq-05600", "@spider": "rona", "shop": "doityourself", "addr:full": "56 rue du Banc", "addr:city": "Gasp\u00e9,", "addr:state": "QC,", "addr:postcode": "G4X 5E2", "addr:country": "CA", "website": "https://www.rona.ca/en/store/quebec/gaspe/rona-materiaux-armand-dumaresq-05600", "brand": "RONA", "brand:wikidata": "Q3415283", "nsi_id": "rona-fd1fd9"}, "geometry": {"type": "Point", "coordinates": [-64.39077, 48.99387]}},
{"type": "Feature", "id": "1SxM0VDUULk_lkZoZ3SexrwNqck=", "properties": {"ref": "rona-le-quincaillier-fermont-05380", "@spider": "rona", "shop": "doityourself", "addr:full": "299 le Carrefour", "addr:city": "Fermont,", "addr:state": "QC,", "addr:postcode": "G0G 1J0", "addr:country": "CA", "website": "https://www.rona.ca/en/store/quebec/fermont/rona-le-quincaillier-fermont-05380", "brand": "RONA", "brand:wikidata": "Q3415283", "nsi_id": "rona-fd1fd9"}, "geometry": {"type": "Point", "coordinates": [-67.08904, 52.79965]}},
{"type": "Feature", "id": "vGdR5kCJVQUtZtSSHznCc97n1dg=", "properties": {"ref": "rona-jos-proulx-inc-lislet-05240", "@spider": "rona", "shop": "doityourself", "addr:full": "58, 5e Rue", "addr:city": "L'Islet,", "addr:state": "QC,", "addr:postcode": "G0R 2C0", "addr:country": "CA", "website": "https://www.rona.ca/en/store/quebec/lislet/rona-jos-proulx-inc-lislet-05240", "brand": "RONA", "brand:wikidata": "Q3415283", "nsi_id": "rona-fd1fd9"}, "geometry": {"type": "Point", "coordinates": [-70.35541, 47.10588]}},
{"type": "Feature", "id": "zzd1vl6Dx5UcavojMaopg8jr34Y=", "properties": {"ref": "rona-centre-de-renovation-terrebonne-inc-05210", "@spider": "rona", "shop": "doityourself", "addr:full": "1505 Chemin Gascon", "addr:city": "Terrebonne,", "addr:state": "QC,", "addr:postcode": "J6X 2Z6", "addr:country": "CA", "website": "https://www.rona.ca/en/store/quebec/terrebonne/rona-centre-de-renovation-terrebonne-inc-05210", "brand": "RONA", "brand:wikidata": "Q3415283", "nsi_id": "rona-fd1fd9"}, "geometry": {"type": "Point", "coordinates": [-73.65208, 45.7132]}},
{"type": "Feature", "id": "cP5bqNvb0VsvBvjzWWoBL1YlUoQ=", "properties": {"ref": "rona-quincaillerie-de-la-promenade-verdun-05203", "@spider": "rona", "shop": "doityourself", "addr:full": "4050, Wellington", "addr:city": "Verdun,", "addr:state": "QC,", "addr:postcode": "H4G 1V3", "addr:country": "CA", "website": "https://www.rona.ca/en/store/quebec/verdun/rona-quincaillerie-de-la-promenade-verdun-05203", "brand": "RONA", "brand:wikidata": "Q3415283", "nsi_id": "rona-fd1fd9"}, "geometry": {"type": "Point", "coordinates": [-73.56692, 45.4634]}},
{"type": "Feature", "id": "xceKzGILsuO9Wsx3-yeQEp8A2do=", "properties": {"ref": "rona-quincaillerie-andre-laberge-inc-huntingdon-05179", "@spider": "rona", "shop": "doityourself", "addr:full": "162, rue Chateauguay", "addr:city": "Huntingdon,", "addr:state": "QC,", "addr:postcode": "J0S 1H0", "addr:country": "CA", "website": "https://www.rona.ca/en/store/quebec/huntingdon/rona-quincaillerie-andre-laberge-inc-huntingdon-05179", "brand": "RONA", "brand:wikidata": "Q3415283", "nsi_id": "rona-fd1fd9"}, "geometry": {"type": "Point", "coordinates": [-74.17513, 45.08425]}},
{"type": "Feature", "id": "uyHF6cy6d9vEmymu375Oqx_0YjA=", "properties": {"ref": "rona-bernard-breton-inc-saint-narcisse-de-beaurivage-05099", "@spider": "rona", "shop": "doityourself", "addr:full": "415, rue Principale", "addr:city": "Saint-Narcisse-de-Beaurivage,", "addr:state": "QC,", "addr:postcode": "G0S 1W0", "addr:country": "CA", "website": "https://www.rona.ca/en/store/quebec/saint-narcisse-de-beaurivage/rona-bernard-breton-inc-saint-narcisse-de-beaurivage-05099", "brand": "RONA", "brand:wikidata": "Q3415283", "nsi_id": "rona-fd1fd9"}, "geometry": {"type": "Point", "coordinates": [-71.23368, 46.48352]}},
{"type": "Feature", "id": "YK76hmI-vfTOaks7OesucRpY9jQ=", "properties": {"ref": "southampton-rona-04935", "@spider": "rona", "shop": "doityourself", "addr:full": "135 Albert Street, HWY 21", "addr:city": "Southampton,", "addr:state": "ON,", "addr:postcode": "N0H 2L0", "addr:country": "CA", "website": "https://www.rona.ca/en/store/ontario/southampton/southampton-rona-04935", "brand": "RONA", "brand:wikidata": "Q3415283", "nsi_id": "rona-fd1fd9"}, "geometry": {"type": "Point", "coordinates": [-81.37717, 44.49181]}},
{"type": "Feature", "id": "OPcdBKsZbHbUzDHYMhMV2aXkYrE=", "properties": {"ref": "bracebridge-rona-04930", "@spider": "rona", "shop": "doityourself", "addr:full": "10 Entrance Drive", "addr:city": "Bracebridge,", "addr:state": "ON,", "addr:postcode": "P1L 1T9", "addr:country": "CA", "website": "https://www.rona.ca/en/store/ontario/bracebridge/bracebridge-rona-04930", "brand": "RONA", "brand:wikidata": "Q3415283", "nsi_id": "rona-fd1fd9"}, "geometry": {"type": "Point", "coordinates": [-79.30783, 45.04065]}},
{"type": "Feature", "id": "R6KNd1Aixu6kdysLl1G115vVXOk=", "properties": {"ref": "bradford-rona-04925", "@spider": "rona", "shop": "doityourself", "addr:full": "90 Dissette Street", "addr:city": "Bradford,", "addr:state": "ON,", "addr:postcode": "L3Z 2A7", "addr:country": "CA", "website": "https://www.rona.ca/en/store/ontario/bradford/bradford-rona-04925", "brand": "RONA", "brand:wikidata": "Q3415283", "nsi_id": "rona-fd1fd9"}, "geometry": {"type": "Point", "coordinates": [-79.55844, 44.11802]}},
{"type": "Feature", "id": "orcTK9yWskvehQEWLXtWns0qWpI=", "properties": {"ref": "rona-quincaillerie-metro-laval-04921", "@spider": "rona", "shop": "doityourself", "addr:full": "600 montee du Moulin", "addr:city": "Laval,", "addr:state": "QC,", "addr:postcode": "H7A 1Z6", "addr:country": "CA", "website": "https://www.rona.ca/en/store/quebec/laval/rona-quincaillerie-metro-laval-04921", "brand": "RONA", "brand:wikidata": "Q3415283", "nsi_id": "rona-fd1fd9"}, "geometry": {"type": "Point", "coordinates": [-73.58211, 45.67617]}},
{"type": "Feature", "id": "3yZxS4VW8wIDTtbQYyzcxGNDgEw=", "properties": {"ref": "miller-lake-rona-04920", "@spider": "rona", "shop": "doityourself", "addr:full": "4707 ON-6", "addr:city": "Miller Lake,", "addr:state": "ON,", "addr:postcode": "N0H 1Z0", "addr:country": "CA", "website": "https://www.rona.ca/en/store/ontario/miller-lake/miller-lake-rona-04920", "brand": "RONA", "brand:wikidata": "Q3415283", "nsi_id": "rona-fd1fd9"}, "geometry": {"type": "Point", "coordinates": [-81.43431, 45.08902]}},
{"type": "Feature", "id": "ft-JGbvPd9Vw_Tu1LLmwq1u4urE=", "properties": {"ref": "welland-rona-building-centre-04915", "@spider": "rona", "shop": "doityourself", "addr:full": "920 Niagara Street", "addr:city": "Welland,", "addr:state": "ON,", "addr:postcode": "L3C 1M3", "addr:country": "CA", "website": "https://www.rona.ca/en/store/ontario/welland/welland-rona-building-centre-04915", "brand": "RONA", "brand:wikidata": "Q3415283", "nsi_id": "rona-fd1fd9"}, "geometry": {"type": "Point", "coordinates": [-79.2493, 43.02124]}},
{"type": "Feature", "id": "X0slSgNnjMn6-ROTjrQZDT3SMrk=", "properties": {"ref": "fort-erie-rona-04910", "@spider": "rona", "shop": "doityourself", "addr:full": "584 Garrison Road", "addr:city": "Fort Erie,", "addr:state": "ON,", "addr:postcode": "L2A 1N4", "addr:country": "CA", "website": "https://www.rona.ca/en/store/ontario/fort-erie/fort-erie-rona-04910", "brand": "RONA", "brand:wikidata": "Q3415283", "nsi_id": "rona-fd1fd9"}, "geometry": {"type": "Point", "coordinates": [-78.93709, 42.90616]}},
{"type": "Feature", "id": "24PXBrsmT8OrptOCi5skLJEoRq8=", "properties": {"ref": "murrays-rona-goderich-04880", "@spider": "rona", "shop": "doityourself", "addr:full": "121 Huckins Street", "addr:city": "Goderich,", "addr:state": "ON,", "addr:postcode": "N7A 3X8", "addr:country": "CA", "website": "https://www.rona.ca/en/store/ontario/goderich/murrays-rona-goderich-04880", "brand": "RONA", "brand:wikidata": "Q3415283", "nsi_id": "rona-fd1fd9"}, "geometry": {"type": "Point", "coordinates": [-81.70514, 43.72714]}},
{"type": "Feature", "id": "dN38ZDM_OWDnZ9qhVoOG70UNqYM=", "properties": {"ref": "kincardine-rona-04850", "@spider": "rona", "shop": "doityourself", "addr:full": "1768 Highway 21 North", "addr:city": "Kincardine,", "addr:state": "ON,", "addr:postcode": "N2Z 2Y6", "addr:country": "CA", "website": "https://www.rona.ca/en/store/ontario/kincardine/kincardine-rona-04850", "brand": "RONA", "brand:wikidata": "Q3415283", "nsi_id": "rona-fd1fd9"}, "geometry": {"type": "Point", "coordinates": [-81.60954, 44.18071]}},
{"type": "Feature", "id": "BOJoPUfydvNoMgvLka8L3o1KPzI=", "properties": {"ref": "rona-quincaillerie-delorimier-inc-montreal-04761", "@spider": "rona", "shop": "doityourself", "addr:full": "2140, Mont-Royal Est", "addr:city": "Montr\u00e9al,", "addr:state": "QC,", "addr:postcode": "H2H 1J8", "addr:country": "CA", "website": "https://www.rona.ca/en/store/quebec/montreal/rona-quincaillerie-delorimier-inc-montreal-04761", "brand": "RONA", "brand:wikidata": "Q3415283", "nsi_id": "rona-fd1fd9"}, "geometry": {"type": "Point", "coordinates": [-73.57199, 45.53568]}},
{"type": "Feature", "id": "1jBwdehDlbm-e5lE-9zAuk4h_3o=", "properties": {"ref": "rona-materiaux-dubreuil-lebel-sur-quevillon-04733", "@spider": "rona", "shop": "doityourself", "addr:full": "49, Place Qu\u00e9villon", "addr:city": "Lebel-sur-Quevillon,", "addr:state": "QC,", "addr:postcode": "J0Y 1X0", "addr:country": "CA", "website": "https://www.rona.ca/en/store/quebec/lebel-sur-quevillon/rona-materiaux-dubreuil-lebel-sur-quevillon-04733", "brand": "RONA", "brand:wikidata": "Q3415283", "nsi_id": "rona-fd1fd9"}, "geometry": {"type": "Point", "coordinates": [-76.97921, 49.05303]}},
{"type": "Feature", "id": "BIccYHAlPiqLi2VIHyD-2iTSQ2w=", "properties": {"ref": "rona-j-anctil-inc-saint-denis-de-brompton-04627", "@spider": "rona", "shop": "doityourself", "addr:full": "3110, route 222", "addr:city": "Saint-Denis-de-Brompton,", "addr:state": "QC,", "addr:postcode": "J0B 2P0", "addr:country": "CA", "website": "https://www.rona.ca/en/store/quebec/saint-denis-de-brompton/rona-j-anctil-inc-saint-denis-de-brompton-04627", "brand": "RONA", "brand:wikidata": "Q3415283", "nsi_id": "rona-fd1fd9"}, "geometry": {"type": "Point", "coordinates": [-72.01287, 45.44826]}},
{"type": "Feature", "id": "PWm55TDpu_6lYG_E5h1YyCdM0hw=", "properties": {"ref": "rona-fitzs-enterprises-limited-wabush-04505", "@spider": "rona", "shop": "doityourself", "addr:full": "6 First Street", "addr:city": "Wabush,", "addr:state": "Newfoundland and Labrador,", "addr:postcode": "A0R 1B0", "addr:country": "CA", "website": "https://www.rona.ca/en/store/newfoundland-and-labrador/wabush/rona-fitzs-enterprises-limited-wabush-04505", "brand": "RONA", "brand:wikidata": "Q3415283", "nsi_id": "rona-fd1fd9"}, "geometry": {"type": "Point", "coordinates": [-66.87872, 52.92867]}},
{"type": "Feature", "id": "HWIJA5WkpFarPc84Jk4NNiotJFg=", "properties": {"ref": "goodsoil-lumber-04470", "@spider": "rona", "shop": "doityourself", "addr:full": "211 Main Street North", "addr:city": "Goodsoil,", "addr:state": "SK,", "addr:postcode": "S0M 1A0", "addr:country": "CA", "website": "https://www.rona.ca/en/store/saskatchewan/goodsoil/goodsoil-lumber-04470", "brand": "RONA", "brand:wikidata": "Q3415283", "nsi_id": "rona-fd1fd9"}, "geometry": {"type": "Point", "coordinates": [-109.22785, 54.39941]}},
{"type": "Feature", "id": "bQ-wxPyvBC7p9Ym8pAQNoipP-X4=", "properties": {"ref": "rona-tyee-building-supplies-l-p-prince-rupert-04390", "@spider": "rona", "shop": "doityourself", "addr:full": "405 East 3rd. Avenue", "addr:city": "Prince Rupert,", "addr:state": "BC,", "addr:postcode": "V8J 1K7", "addr:country": "CA", "website": "https://www.rona.ca/en/store/british-columbia/prince-rupert/rona-tyee-building-supplies-l-p-prince-rupert-04390", "brand": "RONA", "brand:wikidata": "Q3415283", "nsi_id": "rona-fd1fd9"}, "geometry": {"type": "Point", "coordinates": [-130.31686, 54.31759]}},
{"type": "Feature", "id": "PFU7XHnjtH3X_XIkmslG3lt11q4=", "properties": {"ref": "vermilion-rona-04359", "@spider": "rona", "shop": "doityourself", "addr:full": "4710 Railway Avenue", "addr:city": "Vermilion,", "addr:state": "AB,", "addr:postcode": "T9X 1L7", "addr:country": "CA", "website": "https://www.rona.ca/en/store/alberta/vermilion/vermilion-rona-04359", "brand": "RONA", "brand:wikidata": "Q3415283", "nsi_id": "rona-fd1fd9"}, "geometry": {"type": "Point", "coordinates": [-110.84501, 53.35152]}},
{"type": "Feature", "id": "7-MQAnoQVwxWgHky6rB8Qg58-6o=", "properties": {"ref": "rona-roland-tremblay-fils-inc-baie-comeau-04261", "@spider": "rona", "shop": "doityourself", "addr:full": "740, boul. Lafleche", "addr:city": "Baie-Comeau,", "addr:state": "QC,", "addr:postcode": "G5C 2X7", "addr:country": "CA", "website": "https://www.rona.ca/en/store/quebec/baie-comeau/rona-roland-tremblay-fils-inc-baie-comeau-04261", "brand": "RONA", "brand:wikidata": "Q3415283", "nsi_id": "rona-fd1fd9"}, "geometry": {"type": "Point", "coordinates": [-68.25927, 49.19833]}},
{"type": "Feature", "id": "wljkqs7E-eiRfT3QESq81C_0b_0=", "properties": {"ref": "rona-quincaillerie-charleroi-montreal-nord-04181", "@spider": "rona", "shop": "doityourself", "addr:full": "4690, Charleroi", "addr:city": "Montr\u00e9al-Nord,", "addr:state": "QC,", "addr:postcode": "H1H 1T9", "addr:country": "CA", "website": "https://www.rona.ca/en/store/quebec/montreal-nord/rona-quincaillerie-charleroi-montreal-nord-04181", "brand": "RONA", "brand:wikidata": "Q3415283", "nsi_id": "rona-fd1fd9"}, "geometry": {"type": "Point", "coordinates": [-73.63245, 45.59614]}},
{"type": "Feature", "id": "fJi45fk4Jnoi-9zH8O8mv9nWTeY=", "properties": {"ref": "rona-quincaillerie-gregoire-fils-inc-matane-04171", "@spider": "rona", "shop": "doityourself", "addr:full": "130, boul. Dion", "addr:city": "Matane,", "addr:state": "QC,", "addr:postcode": "G4W 3L7", "addr:country": "CA", "website": "https://www.rona.ca/en/store/quebec/matane/rona-quincaillerie-gregoire-fils-inc-matane-04171", "brand": "RONA", "brand:wikidata": "Q3415283", "nsi_id": "rona-fd1fd9"}, "geometry": {"type": "Point", "coordinates": [-67.54915, 48.84896]}},
{"type": "Feature", "id": "DRqx6TeavNU2xuJ2ZzCidSxpr9M=", "properties": {"ref": "rona-quincaillerie-guy-racine-laval-04117", "@spider": "rona", "shop": "doityourself", "addr:full": "335, boul. Chomedey", "addr:city": "Laval,", "addr:state": "QC,", "addr:postcode": "H7V 3S7", "addr:country": "CA", "website": "https://www.rona.ca/en/store/quebec/laval/rona-quincaillerie-guy-racine-laval-04117", "brand": "RONA", "brand:wikidata": "Q3415283", "nsi_id": "rona-fd1fd9"}, "geometry": {"type": "Point", "coordinates": [-73.73292, 45.53841]}},
{"type": "Feature", "id": "piDQjZmTZuTwdJC-UUPaDQ98gvw=", "properties": {"ref": "quincaillerie-poulin-lussier-et-filles-03765", "@spider": "rona", "shop": "doityourself", "addr:full": "153-A rue Principale", "addr:city": "Frampton,", "addr:state": "QC,", "addr:postcode": "G0R 1M0", "addr:country": "CA", "website": "https://www.rona.ca/en/store/quebec/frampton/quincaillerie-poulin-lussier-et-filles-03765", "brand": "RONA", "brand:wikidata": "Q3415283", "nsi_id": "rona-fd1fd9"}, "geometry": {"type": "Point", "coordinates": [-70.79667, 46.45033]}},
{"type": "Feature", "id": "p8USVHAnKqERQtPWGGDLeFc51uE=", "properties": {"ref": "quincaillerie-poulin-lussier-et-filles-03760", "@spider": "rona", "shop": "doityourself", "addr:full": "376, Langevin", "addr:city": "Saint-Odilon,", "addr:state": "QC,", "addr:postcode": "G0S 3A0", "addr:country": "CA", "website": "https://www.rona.ca/en/store/quebec/saint-odilon/quincaillerie-poulin-lussier-et-filles-03760", "brand": "RONA", "brand:wikidata": "Q3415283", "nsi_id": "rona-fd1fd9"}, "geometry": {"type": "Point", "coordinates": [-70.67507, 46.35727]}},
{"type": "Feature", "id": "8d2PstGmXACPoE0wobtWocwUQIU=", "properties": {"ref": "rona-eudore-a-melanson-et-fils-ltee-cocagne-03595", "@spider": "rona", "shop": "doityourself", "addr:full": "4713, route 134", "addr:city": "Cocagne,", "addr:state": "NB,", "addr:postcode": "E4R 2Y1", "addr:country": "CA", "website": "https://www.rona.ca/en/store/new-brunswick/cocagne/rona-eudore-a-melanson-et-fils-ltee-cocagne-03595", "brand": "RONA", "brand:wikidata": "Q3415283", "nsi_id": "rona-fd1fd9"}, "geometry": {"type": "Point", "coordinates": [-64.62006, 46.34079]}},
{"type": "Feature", "id": "21bVHap3xlnj8MIAvJFA0oa9H-k=", "properties": {"ref": "rona-quincaillerie-berger-inc-la-prairie-03540", "@spider": "rona", "shop": "doityourself", "addr:full": "1155, boul. Taschereau", "addr:city": "La Prairie,", "addr:state": "QC,", "addr:postcode": "J5R 1W9", "addr:country": "CA", "website": "https://www.rona.ca/en/store/quebec/la-prairie/rona-quincaillerie-berger-inc-la-prairie-03540", "brand": "RONA", "brand:wikidata": "Q3415283", "nsi_id": "rona-fd1fd9"}, "geometry": {"type": "Point", "coordinates": [-73.49853, 45.40419]}},
{"type": "Feature", "id": "AK7CWbrrQOuKzjySSmY_DUguF40=", "properties": {"ref": "rona-quincaillerie-benoit-inc-laval-03425", "@spider": "rona", "shop": "doityourself", "addr:full": "3425, boul. de la Concorde", "addr:city": "Laval,", "addr:state": "QC,", "addr:postcode": "H7E 2C3", "addr:country": "CA", "website": "https://www.rona.ca/en/store/quebec/laval/rona-quincaillerie-benoit-inc-laval-03425", "brand": "RONA", "brand:wikidata": "Q3415283", "nsi_id": "rona-fd1fd9"}, "geometry": {"type": "Point", "coordinates": [-73.66403, 45.59399]}},
{"type": "Feature", "id": "lYUOA7ZpDFpo_VviE1Yz4H6K26I=", "properties": {"ref": "rona-pincourt-03414", "@spider": "rona", "shop": "doityourself", "addr:full": "1200 boulevard du Traversier", "addr:city": "Pincourt,", "addr:state": "QC,", "addr:postcode": "J7W 0K8", "addr:country": "CA", "website": "https://www.rona.ca/en/store/quebec/pincourt/rona-pincourt-03414", "brand": "RONA", "brand:wikidata": "Q3415283", "nsi_id": "rona-fd1fd9"}, "geometry": {"type": "Point", "coordinates": [-73.98251, 45.38633]}},
{"type": "Feature", "id": "VVmVnuOWo86Ni6HC2vzQr5sq9ig=", "properties": {"ref": "rona-gerald-cabinet-glass-shop-kapuskasing-03272", "@spider": "rona", "shop": "doityourself", "addr:full": "18, Brunelle Sud", "addr:city": "Kapuskasing,", "addr:state": "ON,", "addr:postcode": "P5N 2T2", "addr:country": "CA", "website": "https://www.rona.ca/en/store/ontario/kapuskasing/rona-gerald-cabinet-glass-shop-kapuskasing-03272", "brand": "RONA", "brand:wikidata": "Q3415283", "nsi_id": "rona-fd1fd9"}, "geometry": {"type": "Point", "coordinates": [-82.40333, 49.40775]}},
{"type": "Feature", "id": "EAqDmmJSnMMQ12CL7f5QdL6GVm4=", "properties": {"ref": "rona-quincaillerie-turbo-inc-cap-aux-meules-03021", "@spider": "rona", "shop": "doityourself", "addr:full": "405,Chemin Principale", "addr:city": "Cap-aux-Meules,", "addr:state": "QC,", "addr:postcode": "G4T 1E3", "addr:country": "CA", "website": "https://www.rona.ca/en/store/quebec/cap-aux-meules/rona-quincaillerie-turbo-inc-cap-aux-meules-03021", "brand": "RONA", "brand:wikidata": "Q3415283", "nsi_id": "rona-fd1fd9"}, "geometry": {"type": "Point", "coordinates": [-61.86822, 47.37662]}},
{"type": "Feature", "id": "9IaziSXESxP8NwWozcb4uPF9OSE=", "properties": {"ref": "rona-salmon-arm-02930", "@spider": "rona", "shop": "doityourself", "addr:full": "2430 10th ave SW", "addr:city": "Salmon Arm,", "addr:state": "BC,", "addr:postcode": "V1E 1T4", "addr:country": "CA", "website": "https://www.rona.ca/en/store/british-columbia/salmon-arm/rona-salmon-arm-02930", "brand": "RONA", "brand:wikidata": "Q3415283", "nsi_id": "rona-fd1fd9"}, "geometry": {"type": "Point", "coordinates": [-119.31568, 50.69184]}},
{"type": "Feature", "id": "mx65fnitA92IZZuOAIOmfE1uKH0=", "properties": {"ref": "rona-quincaillerie-notre-dame-st-henri-montreal-02909", "@spider": "rona", "shop": "doityourself", "addr:full": "2371, Notre-Dame Ouest", "addr:city": "Montr\u00e9al,", "addr:state": "QC,", "addr:postcode": "H3J 1N3", "addr:country": "CA", "website": "https://www.rona.ca/en/store/quebec/montreal/rona-quincaillerie-notre-dame-st-henri-montreal-02909", "brand": "RONA", "brand:wikidata": "Q3415283", "nsi_id": "rona-fd1fd9"}, "geometry": {"type": "Point", "coordinates": [-73.57411, 45.48382]}},
{"type": "Feature", "id": "I6zyK7u45yS4QDigpFtRb5ZhGVk=", "properties": {"ref": "quincaillerie-j-mrioux-02900", "@spider": "rona", "shop": "doityourself", "addr:full": "29, 2i\u00e8me avenue", "addr:city": "Forestville,", "addr:state": "QC,", "addr:postcode": "G0T 1E0", "addr:country": "CA", "website": "https://www.rona.ca/en/store/quebec/forestville/quincaillerie-j-mrioux-02900", "brand": "RONA", "brand:wikidata": "Q3415283", "nsi_id": "rona-fd1fd9"}, "geometry": {"type": "Point", "coordinates": [-69.08322, 48.73885]}},
{"type": "Feature", "id": "8AQGiz56j_ylq-PO0kPRVtRGkCw=", "properties": {"ref": "rona-quincaillerie-maisonneuve-montreal-02892", "@spider": "rona", "shop": "doityourself", "addr:full": "4690, Ste-Catherine Est", "addr:city": "Montr\u00e9al,", "addr:state": "QC,", "addr:postcode": "H1V 1Y9", "addr:country": "CA", "website": "https://www.rona.ca/en/store/quebec/montreal/rona-quincaillerie-maisonneuve-montreal-02892", "brand": "RONA", "brand:wikidata": "Q3415283", "nsi_id": "rona-fd1fd9"}, "geometry": {"type": "Point", "coordinates": [-73.53169, 45.55445]}},
{"type": "Feature", "id": "4fDDRizB-WCU8pPQBN0wUVhfzsA=", "properties": {"ref": "quincaillerie-moussette-02885", "@spider": "rona", "shop": "doityourself", "addr:full": "1561 rue Ontario est", "addr:city": "Montr\u00e9al,", "addr:state": "QC,", "addr:postcode": "H2L 1S6", "addr:country": "CA", "website": "https://www.rona.ca/en/store/quebec/montreal/quincaillerie-moussette-02885", "brand": "RONA", "brand:wikidata": "Q3415283", "nsi_id": "rona-fd1fd9"}, "geometry": {"type": "Point", "coordinates": [-73.56045, 45.52461]}},
{"type": "Feature", "id": "mSeIxC1T1CLcJB6gLrrPyUWNEhI=", "properties": {"ref": "rona-verona-hardware-limited-02851", "@spider": "rona", "shop": "doityourself", "addr:full": "6723 Main Street", "addr:city": "Verona,", "addr:state": "ON,", "addr:postcode": "K0H 2W0", "addr:country": "CA", "website": "https://www.rona.ca/en/store/ontario/verona/rona-verona-hardware-limited-02851", "brand": "RONA", "brand:wikidata": "Q3415283", "nsi_id": "rona-fd1fd9"}, "geometry": {"type": "Point", "coordinates": [-76.69372, 44.48183]}},
{"type": "Feature", "id": "PIqPVT0i-ccBvkGaEucl_j8amJw=", "properties": {"ref": "rona-powell-river-02791", "@spider": "rona", "shop": "doityourself", "addr:full": "4750, Joyce Ave.", "addr:city": "Powell River,", "addr:state": "BC,", "addr:postcode": "V8A 3B6", "addr:country": "CA", "website": "https://www.rona.ca/en/store/british-columbia/powell-river/rona-powell-river-02791", "brand": "RONA", "brand:wikidata": "Q3415283", "nsi_id": "rona-fd1fd9"}, "geometry": {"type": "Point", "coordinates": [-124.5204, 49.84453]}},
{"type": "Feature", "id": "gHd0T4vAhTahlTcjLfJ2fkzlSBk=", "properties": {"ref": "rona-ducharme-frere-saint-pie-02742", "@spider": "rona", "shop": "doityourself", "addr:full": "53 , rue Ste-C\u00e9cile", "addr:city": "Saint-Pie,", "addr:state": "QC,", "addr:postcode": "J0H 1W0", "addr:country": "CA", "website": "https://www.rona.ca/en/store/quebec/saint-pie/rona-ducharme-frere-saint-pie-02742", "brand": "RONA", "brand:wikidata": "Q3415283", "nsi_id": "rona-fd1fd9"}, "geometry": {"type": "Point", "coordinates": [-72.90598, 45.50378]}},
{"type": "Feature", "id": "t0Uy0GB7zSvW7E4i1DFWQPs4NHw=", "properties": {"ref": "quincaillerie-sc-roy-02710", "@spider": "rona", "shop": "doityourself", "addr:full": "36, route 271 Nord", "addr:city": "Saint-Ephrem-de-Beauce,", "addr:state": "QC,", "addr:postcode": "G0M 1R0", "addr:country": "CA", "website": "https://www.rona.ca/en/store/quebec/saint-ephrem-de-beauce/quincaillerie-sc-roy-02710", "brand": "RONA", "brand:wikidata": "Q3415283", "nsi_id": "rona-fd1fd9"}, "geometry": {"type": "Point", "coordinates": [-70.97942, 46.04641]}},
{"type": "Feature", "id": "I3bLLOhumAvjO9osvqEKjhQbd3M=", "properties": {"ref": "rona-pincher-creek-02695", "@spider": "rona", "shop": "doityourself", "addr:full": "871, Elk avenue", "addr:city": "Pincher Creek,", "addr:state": "AB,", "addr:postcode": "T0K 1W0", "addr:country": "CA", "website": "https://www.rona.ca/en/store/alberta/pincher-creek/rona-pincher-creek-02695", "brand": "RONA", "brand:wikidata": "Q3415283", "nsi_id": "rona-fd1fd9"}, "geometry": {"type": "Point", "coordinates": [-113.93399, 49.48207]}},
{"type": "Feature", "id": "lDCl1wKTTzNN9K_ENNe-iDfT-vU=", "properties": {"ref": "la-crete-rona-building-centre-02585", "@spider": "rona", "shop": "doityourself", "addr:full": "10511 95 Street", "addr:city": "La Crete,", "addr:state": "AB,", "addr:postcode": "T0H 2H0", "addr:country": "CA", "website": "https://www.rona.ca/en/store/alberta/la-crete/la-crete-rona-building-centre-02585", "brand": "RONA", "brand:wikidata": "Q3415283", "nsi_id": "rona-fd1fd9"}, "geometry": {"type": "Point", "coordinates": [-116.3865, 58.18194]}},
{"type": "Feature", "id": "UhZKP1Dlb8ocar4u0bM2Qy1pK-o=", "properties": {"ref": "rona-rosaire-mathieu-inc-wickham-02570", "@spider": "rona", "shop": "doityourself", "addr:full": "859, rue Principale", "addr:city": "Wickham,", "addr:state": "QC,", "addr:postcode": "J0C 1S0", "addr:country": "CA", "website": "https://www.rona.ca/en/store/quebec/wickham/rona-rosaire-mathieu-inc-wickham-02570", "brand": "RONA", "brand:wikidata": "Q3415283", "nsi_id": "rona-fd1fd9"}, "geometry": {"type": "Point", "coordinates": [-72.49923, 45.75972]}},
{"type": "Feature", "id": "dh2G6S50XxDIGkcKPbUBwmfq-V8=", "properties": {"ref": "rona-humboldt-lumber-mart-ltd-02527", "@spider": "rona", "shop": "doityourself", "addr:full": "Highway 20 , South", "addr:city": "Humboldt,", "addr:state": "SK,", "addr:postcode": "S0K 2A0", "addr:country": "CA", "website": "https://www.rona.ca/en/store/saskatchewan/humboldt/rona-humboldt-lumber-mart-ltd-02527", "brand": "RONA", "brand:wikidata": "Q3415283", "nsi_id": "rona-fd1fd9"}, "geometry": {"type": "Point", "coordinates": [-105.12329, 52.18907]}},
{"type": "Feature", "id": "c-NLDEyNhV3btpk5tsZ31e6DKOE=", "properties": {"ref": "rona-jlalonde-fils-rockland-02444", "@spider": "rona", "shop": "doityourself", "addr:full": "3015 Richelieu", "addr:city": "Rockland,", "addr:state": "ON,", "addr:postcode": "K4K 0B5", "addr:country": "CA", "website": "https://www.rona.ca/en/store/ontario/rockland/rona-jlalonde-fils-rockland-02444", "brand": "RONA", "brand:wikidata": "Q3415283", "nsi_id": "rona-fd1fd9"}, "geometry": {"type": "Point", "coordinates": [-75.30841, 45.53264]}},
{"type": "Feature", "id": "dmabfuVtRbI0Gft3y5WjrvcuYDk=", "properties": {"ref": "rona-de-la-haute-matawinie-saint-zenon-02360", "@spider": "rona", "shop": "doityourself", "addr:full": "5820, chemin Brassard", "addr:city": "Saint-Z\u00e9non,", "addr:state": "QC,", "addr:postcode": "J0K 3N0", "addr:country": "CA", "website": "https://www.rona.ca/en/store/quebec/saint-zenon/rona-de-la-haute-matawinie-saint-zenon-02360", "brand": "RONA", "brand:wikidata": "Q3415283", "nsi_id": "rona-fd1fd9"}, "geometry": {"type": "Point", "coordinates": [-73.8089, 46.55556]}},
{"type": "Feature", "id": "DW1pMr_EcfqKgL4QzyuywhSWAZM=", "properties": {"ref": "rona-coast-builders-gibsons-02237", "@spider": "rona", "shop": "doityourself", "addr:full": "632 Shaw Road", "addr:city": "Gibsons,", "addr:state": "BC,", "addr:postcode": "V0N 1V8", "addr:country": "CA", "website": "https://www.rona.ca/en/store/british-columbia/gibsons/rona-coast-builders-gibsons-02237", "brand": "RONA", "brand:wikidata": "Q3415283", "nsi_id": "rona-fd1fd9"}, "geometry": {"type": "Point", "coordinates": [-123.51814, 49.40631]}},
{"type": "Feature", "id": "IkSZZLapqDVjkwTbNRogNHB2LOI=", "properties": {"ref": "rona-j-g-supply-brandon-02235", "@spider": "rona", "shop": "doityourself", "addr:full": "2404,Park Avenue", "addr:city": "Brandon,", "addr:state": "MB,", "addr:postcode": "R7B 0S3", "addr:country": "CA", "website": "https://www.rona.ca/en/store/manitoba/brandon/rona-j-g-supply-brandon-02235", "brand": "RONA", "brand:wikidata": "Q3415283", "nsi_id": "rona-fd1fd9"}, "geometry": {"type": "Point", "coordinates": [-99.97067, 49.8357]}},
{"type": "Feature", "id": "K-ZmX3OkMFk74JnwPjuJvyOd0xk=", "properties": {"ref": "rona-jlalonde-fils-hammond-02228", "@spider": "rona", "shop": "doityourself", "addr:full": "903, Lacroix Road", "addr:city": "Hammond,", "addr:state": "ON,", "addr:postcode": "K0A 2A0", "addr:country": "CA", "website": "https://www.rona.ca/en/store/ontario/hammond/rona-jlalonde-fils-hammond-02228", "brand": "RONA", "brand:wikidata": "Q3415283", "nsi_id": "rona-fd1fd9"}, "geometry": {"type": "Point", "coordinates": [-75.24081, 45.44192]}},
{"type": "Feature", "id": "MemgrZXIock5b0suX5EYgRMqs80=", "properties": {"ref": "derrible-spm-02201", "@spider": "rona", "shop": "doityourself", "addr:full": "2, rue Boursaint", "addr:city": "Saint-Pierre et Miquelon,", "addr:postcode": "97500", "addr:country": "CA", "website": "https://www.rona.ca/en/store/derrible-spm-02201", "brand": "RONA", "brand:wikidata": "Q3415283", "nsi_id": "rona-fd1fd9"}, "geometry": {"type": "Point", "coordinates": [-56.17724, 46.78074]}},
{"type": "Feature", "id": "fmNKimFUjjihyp0mRsy2eGG6Jco=", "properties": {"ref": "rona-parry-sound-02179", "@spider": "rona", "shop": "doityourself", "addr:full": "115 , BOWES Street", "addr:city": "PARRY SOUND,", "addr:state": "ON,", "addr:postcode": "P2A 2L8", "addr:country": "CA", "website": "https://www.rona.ca/en/store/ontario/parry-sound/rona-parry-sound-02179", "brand": "RONA", "brand:wikidata": "Q3415283", "nsi_id": "rona-fd1fd9"}, "geometry": {"type": "Point", "coordinates": [-80.01002, 45.34257]}},
{"type": "Feature", "id": "29ttwYmrQHhK7x0QFRbw_T71OBg=", "properties": {"ref": "rona-the-hardware-store-inc-newcastle-02131", "@spider": "rona", "shop": "doityourself", "addr:full": "275 Toronto Street", "addr:city": "Newcastle,", "addr:state": "ON,", "addr:postcode": "L1B 1C2", "addr:country": "CA", "website": "https://www.rona.ca/en/store/ontario/newcastle/rona-the-hardware-store-inc-newcastle-02131", "brand": "RONA", "brand:wikidata": "Q3415283", "nsi_id": "rona-fd1fd9"}, "geometry": {"type": "Point", "coordinates": [-78.59125, 43.90751]}},
{"type": "Feature", "id": "1r2RqG52dADQQuW5zvTzlY5B-OY=", "properties": {"ref": "rona-quincaillerie-a-pouliot-saint-remi-02092", "@spider": "rona", "shop": "doityourself", "addr:full": "44, rue St-Andr\u00e9", "addr:city": "Saint-R\u00e9mi,", "addr:state": "QC,", "addr:postcode": "J0L 2L0", "addr:country": "CA", "website": "https://www.rona.ca/en/store/quebec/saint-remi/rona-quincaillerie-a-pouliot-saint-remi-02092", "brand": "RONA", "brand:wikidata": "Q3415283", "nsi_id": "rona-fd1fd9"}, "geometry": {"type": "Point", "coordinates": [-73.618, 45.25849]}},
{"type": "Feature", "id": "2hDhMf1LM6YEfqUZPyZdgrI66TQ=", "properties": {"ref": "rona-quincaillerie-a-pouliot-sainte-martine-02091", "@spider": "rona", "shop": "doityourself", "addr:full": "680, boul. St-Jean-Baptiste", "addr:city": "Sainte-Martine,", "addr:state": "QC,", "addr:postcode": "J0S 1V0", "addr:country": "CA", "website": "https://www.rona.ca/en/store/quebec/sainte-martine/rona-quincaillerie-a-pouliot-sainte-martine-02091", "brand": "RONA", "brand:wikidata": "Q3415283", "nsi_id": "rona-fd1fd9"}, "geometry": {"type": "Point", "coordinates": [-73.78298, 45.26622]}},
{"type": "Feature", "id": "wuRYdqA3FqQ_IfsyJ01SupXK9Ak=", "properties": {"ref": "rona-quincaillerie-a-pouliot-beauharnois-02090", "@spider": "rona", "shop": "doityourself", "addr:full": "209 chemin St-Louis", "addr:city": "Beauharnois,", "addr:state": "QC,", "addr:postcode": "J6N 2H8", "addr:country": "CA", "website": "https://www.rona.ca/en/store/quebec/beauharnois/rona-quincaillerie-a-pouliot-beauharnois-02090", "brand": "RONA", "brand:wikidata": "Q3415283", "nsi_id": "rona-fd1fd9"}, "geometry": {"type": "Point", "coordinates": [-73.87869, 45.31057]}},
{"type": "Feature", "id": "c28qiWbfRN14Jd9yLjHlDuVJhAo=", "properties": {"ref": "rona-giroux-giroux-mansonville-02032", "@spider": "rona", "shop": "doityourself", "addr:full": "300 rue Principale", "addr:city": "Mansonville,", "addr:state": "QC,", "addr:postcode": "J0E 1X0", "addr:country": "CA", "website": "https://www.rona.ca/en/store/quebec/mansonville/rona-giroux-giroux-mansonville-02032", "brand": "RONA", "brand:wikidata": "Q3415283", "nsi_id": "rona-fd1fd9"}, "geometry": {"type": "Point", "coordinates": [-72.39239, 45.05086]}},
{"type": "Feature", "id": "5ooP5sgnAIb1NT7-B0QVHKqZnyo=", "properties": {"ref": "rona-delmars-hardware-ltd-melita-02027", "@spider": "rona", "shop": "doityourself", "addr:full": "122 Ash Street", "addr:city": "Melita,", "addr:state": "MB,", "addr:postcode": "R0M 1L0", "addr:country": "CA", "website": "https://www.rona.ca/en/store/manitoba/melita/rona-delmars-hardware-ltd-melita-02027", "brand": "RONA", "brand:wikidata": "Q3415283", "nsi_id": "rona-fd1fd9"}, "geometry": {"type": "Point", "coordinates": [-100.98995, 49.2705]}},
{"type": "Feature", "id": "y_gCpBA1i2zOtmeUqmG8MTxnGG0=", "properties": {"ref": "debden-hardware-centre-ltd-02015", "@spider": "rona", "shop": "doityourself", "addr:full": "201 Main Street", "addr:city": "Debden,", "addr:state": "SK,", "addr:postcode": "S0J 0S0", "addr:country": "CA", "website": "https://www.rona.ca/en/store/saskatchewan/debden/debden-hardware-centre-ltd-02015", "brand": "RONA", "brand:wikidata": "Q3415283", "nsi_id": "rona-fd1fd9"}, "geometry": {"type": "Point", "coordinates": [-106.88433, 53.52499]}},
{"type": "Feature", "id": "SMEEDNfLc6XzB4HIM6DKlYrAsbs=", "properties": {"ref": "rona-de-la-haute-matawinie-saint-michel-des-saints-01930", "@spider": "rona", "shop": "doityourself", "addr:full": "630, Brassard", "addr:city": "Saint-Michel-des-Saints,", "addr:state": "QC,", "addr:postcode": "J0K 3B0", "addr:country": "CA", "website": "https://www.rona.ca/en/store/quebec/saint-michel-des-saints/rona-de-la-haute-matawinie-saint-michel-des-saints-01930", "brand": "RONA", "brand:wikidata": "Q3415283", "nsi_id": "rona-fd1fd9"}, "geometry": {"type": "Point", "coordinates": [-73.91662, 46.67951]}},
{"type": "Feature", "id": "GiKDdyuh4e_eGauFd8TbOamDfQY=", "properties": {"ref": "rona-prince-george-01890", "@spider": "rona", "shop": "doityourself", "addr:full": "4150, Cowart road", "addr:city": "Prince George,", "addr:state": "BC,", "addr:postcode": "V2N 6H9", "addr:country": "CA", "website": "https://www.rona.ca/en/store/british-columbia/prince-george/rona-prince-george-01890", "brand": "RONA", "brand:wikidata": "Q3415283", "nsi_id": "rona-fd1fd9"}, "geometry": {"type": "Point", "coordinates": [-122.76944, 53.87917]}},
{"type": "Feature", "id": "f2fRAJpIH0_EjGoQWpKgqZjUaIg=", "properties": {"ref": "rona-ferronnerie-st-janvier-inc-mirabel-01877", "@spider": "rona", "shop": "doityourself", "addr:full": "13817, Cure Labelle", "addr:city": "Mirabel,", "addr:state": "QC,", "addr:postcode": "J7J 1K9", "addr:country": "CA", "website": "https://www.rona.ca/en/store/quebec/mirabel/rona-ferronnerie-st-janvier-inc-mirabel-01877", "brand": "RONA", "brand:wikidata": "Q3415283", "nsi_id": "rona-fd1fd9"}, "geometry": {"type": "Point", "coordinates": [-73.92861, 45.70504]}},
{"type": "Feature", "id": "1eWYI2ZwVej2jF4wk1EOyBoHXXk=", "properties": {"ref": "rona-centre-de-renovation-real-riopel-inc-entrelacs-01868", "@spider": "rona", "shop": "doityourself", "addr:full": "2650, boul. Entrelacs", "addr:city": "Entrelacs,", "addr:state": "QC,", "addr:postcode": "J0T 2E0", "addr:country": "CA", "website": "https://www.rona.ca/en/store/quebec/entrelacs/rona-centre-de-renovation-real-riopel-inc-entrelacs-01868", "brand": "RONA", "brand:wikidata": "Q3415283", "nsi_id": "rona-fd1fd9"}, "geometry": {"type": "Point", "coordinates": [-74.00122, 46.11369]}},
{"type": "Feature", "id": "73TSldX3cBLOj0YN6dp07SHrqQ4=", "properties": {"ref": "rona-sauves-home-centre-ltd-belle-river-01850", "@spider": "rona", "shop": "doityourself", "addr:full": "581 , Railway Street", "addr:city": "Belle River,", "addr:state": "ON,", "addr:postcode": "N0R 1A0", "addr:country": "CA", "website": "https://www.rona.ca/en/store/ontario/belle-river/rona-sauves-home-centre-ltd-belle-river-01850", "brand": "RONA", "brand:wikidata": "Q3415283", "nsi_id": "rona-fd1fd9"}, "geometry": {"type": "Point", "coordinates": [-82.70967, 42.29545]}},
{"type": "Feature", "id": "mEX3R5Q0aRslO_kpNNh3Xu6S070=", "properties": {"ref": "rona-centre-du-bricoleur-lachine-lachine-01849", "@spider": "rona", "shop": "doityourself", "addr:full": "650, Notre Dame", "addr:city": "Lachine,", "addr:state": "QC,", "addr:postcode": "H8S 2B3", "addr:country": "CA", "website": "https://www.rona.ca/en/store/quebec/lachine/rona-centre-du-bricoleur-lachine-lachine-01849", "brand": "RONA", "brand:wikidata": "Q3415283", "nsi_id": "rona-fd1fd9"}, "geometry": {"type": "Point", "coordinates": [-73.6699, 45.43507]}},
{"type": "Feature", "id": "qaa-hB6ApfB0Zm9rpouvPiY_LlU=", "properties": {"ref": "rona-ferlac-inc-saint-felicien-01812", "@spider": "rona", "shop": "doityourself", "addr:full": "1039, Carillon", "addr:city": "Saint-Felicien,", "addr:state": "QC,", "addr:postcode": "G8K 2A2", "addr:country": "CA", "website": "https://www.rona.ca/en/store/quebec/saint-felicien/rona-ferlac-inc-saint-felicien-01812", "brand": "RONA", "brand:wikidata": "Q3415283", "nsi_id": "rona-fd1fd9"}, "geometry": {"type": "Point", "coordinates": [-72.44793, 48.64785]}},
{"type": "Feature", "id": "L_luCWuUDZI0nRDsD4xxCNpxLy0=", "properties": {"ref": "rona-quincaillerie-seguin-legault-inc-montreal-01803", "@spider": "rona", "shop": "doityourself", "addr:full": "759, Rachel Est", "addr:city": "Montr\u00e9al,", "addr:state": "QC,", "addr:postcode": "H2J 2H4", "addr:country": "CA", "website": "https://www.rona.ca/en/store/quebec/montreal/rona-quincaillerie-seguin-legault-inc-montreal-01803", "brand": "RONA", "brand:wikidata": "Q3415283", "nsi_id": "rona-fd1fd9"}, "geometry": {"type": "Point", "coordinates": [-73.57701, 45.52338]}},
{"type": "Feature", "id": "8w2XIYH-F-WZDQrW_hsOzLc_FKc=", "properties": {"ref": "rona-h-dagenais-fils-inc-saint-sauveur-01760", "@spider": "rona", "shop": "doityourself", "addr:full": "304, Principale", "addr:city": "Saint-Sauveur,", "addr:state": "QC,", "addr:postcode": "J0R 1R0", "addr:country": "CA", "website": "https://www.rona.ca/en/store/quebec/saint-sauveur/rona-h-dagenais-fils-inc-saint-sauveur-01760", "brand": "RONA", "brand:wikidata": "Q3415283", "nsi_id": "rona-fd1fd9"}, "geometry": {"type": "Point", "coordinates": [-74.1595, 45.89265]}},
{"type": "Feature", "id": "GwS1biPqsL4gc86aJ0_3XYPRGns=", "properties": {"ref": "rona-quincaillerie-beaubien-montreal-01705", "@spider": "rona", "shop": "doityourself", "addr:full": "3194, Beaubien Est", "addr:city": "Montr\u00e9al,", "addr:state": "QC,", "addr:postcode": "H1Y 1H4", "addr:country": "CA", "website": "https://www.rona.ca/en/store/quebec/montreal/rona-quincaillerie-beaubien-montreal-01705", "brand": "RONA", "brand:wikidata": "Q3415283", "nsi_id": "rona-fd1fd9"}, "geometry": {"type": "Point", "coordinates": [-73.58696, 45.55398]}},
{"type": "Feature", "id": "oHqTg4GzVO5r2VTg3hx_NCk49SA=", "properties": {"ref": "rona-bancroft-01641", "@spider": "rona", "shop": "doityourself", "addr:full": "27928 , Highway 62 South", "addr:city": "Bancroft,", "addr:state": "ON,", "addr:postcode": "K0L 1C0", "addr:country": "CA", "website": "https://www.rona.ca/en/store/ontario/bancroft/rona-bancroft-01641", "brand": "RONA", "brand:wikidata": "Q3415283", "nsi_id": "rona-fd1fd9"}, "geometry": {"type": "Point", "coordinates": [-77.83424, 45.04545]}},
{"type": "Feature", "id": "ugZqfmiKzsM4rTF5isj3gHFGrvs=", "properties": {"ref": "rona-la-broquerie-lumber-la-broquerie-01629", "@spider": "rona", "shop": "doityourself", "addr:full": "23 Lumber avenue", "addr:city": "La Broquerie,", "addr:state": "MB,", "addr:postcode": "R0A 0W3", "addr:country": "CA", "website": "https://www.rona.ca/en/store/manitoba/la-broquerie/rona-la-broquerie-lumber-la-broquerie-01629", "brand": "RONA", "brand:wikidata": "Q3415283", "nsi_id": "rona-fd1fd9"}, "geometry": {"type": "Point", "coordinates": [-96.51139, 49.51991]}},
{"type": "Feature", "id": "FwWI4nthdRnRz4In-BhrEs4u6co=", "properties": {"ref": "store-mag-01608", "@spider": "rona", "shop": "doityourself", "addr:full": "176 route 132 est", "addr:city": "New Richmond,", "addr:state": "QC,", "addr:postcode": "G0C 2B0", "addr:country": "CA", "website": "https://www.rona.ca/en/store/quebec/new-richmond/store-mag-01608", "brand": "RONA", "brand:wikidata": "Q3415283", "nsi_id": "rona-fd1fd9"}, "geometry": {"type": "Point", "coordinates": [-65.83324, 48.16435]}},
{"type": "Feature", "id": "Ye0dFTzRWg4PsA4SKnP4VJsSk6A=", "properties": {"ref": "centre-de-renovation-stanstead-01555", "@spider": "rona", "shop": "doityourself", "addr:full": "8, rue Principale", "addr:city": "Stanstead,", "addr:state": "QC,", "addr:postcode": "J0B 1E0", "addr:country": "CA", "website": "https://www.rona.ca/en/store/quebec/stanstead/centre-de-renovation-stanstead-01555", "brand": "RONA", "brand:wikidata": "Q3415283", "nsi_id": "rona-fd1fd9"}, "geometry": {"type": "Point", "coordinates": [-72.14235, 45.00645]}},
{"type": "Feature", "id": "bjH-xFNQZzIVUbp81GFpKmr-fJ0=", "properties": {"ref": "rona-quincaillerie-des-rivieres-waterville-01551", "@spider": "rona", "shop": "doityourself", "addr:full": "51, Compton est", "addr:city": "Waterville,", "addr:state": "QC,", "addr:postcode": "J0B 3H0", "addr:country": "CA", "website": "https://www.rona.ca/en/store/quebec/waterville/rona-quincaillerie-des-rivieres-waterville-01551", "brand": "RONA", "brand:wikidata": "Q3415283", "nsi_id": "rona-fd1fd9"}, "geometry": {"type": "Point", "coordinates": [-71.89011, 45.27718]}},
{"type": "Feature", "id": "RYtXXa6so6PLSDeos8lN5jL6adI=", "properties": {"ref": "rona-quincaillerie-st-sacrement-inc-quebec-01498", "@spider": "rona", "shop": "doityourself", "addr:full": "785, Marguerite Bourgeois", "addr:city": "Qu\u00e9bec,", "addr:state": "QC,", "addr:postcode": "G1S 3W2", "addr:country": "CA", "website": "https://www.rona.ca/en/store/quebec/quebec/rona-quincaillerie-st-sacrement-inc-quebec-01498", "brand": "RONA", "brand:wikidata": "Q3415283", "nsi_id": "rona-fd1fd9"}, "geometry": {"type": "Point", "coordinates": [-71.25587, 46.79433]}},
{"type": "Feature", "id": "z6X4mvwxzt9XE7_pkR57RN6K9zg=", "properties": {"ref": "rona-deslongchamps-maniwaki-01470", "@spider": "rona", "shop": "doityourself", "addr:full": "79 Kichi Mikan", "addr:city": "Maniwaki,", "addr:state": "QC,", "addr:postcode": "J9E 3C3", "addr:country": "CA", "website": "https://www.rona.ca/en/store/quebec/maniwaki/rona-deslongchamps-maniwaki-01470", "brand": "RONA", "brand:wikidata": "Q3415283", "nsi_id": "rona-fd1fd9"}, "geometry": {"type": "Point", "coordinates": [-75.98349, 46.358]}},
{"type": "Feature", "id": "muQbudXodPtpjUhKoqL4O-1K320=", "properties": {"ref": "rona-ferronnerie-a-leduc-inc-longueuil-01429", "@spider": "rona", "shop": "doityourself", "addr:full": "1917, Ste-Helene", "addr:city": "Longueuil,", "addr:state": "QC,", "addr:postcode": "J4K 3T4", "addr:country": "CA", "website": "https://www.rona.ca/en/store/quebec/longueuil/rona-ferronnerie-a-leduc-inc-longueuil-01429", "brand": "RONA", "brand:wikidata": "Q3415283", "nsi_id": "rona-fd1fd9"}, "geometry": {"type": "Point", "coordinates": [-73.49012, 45.51521]}},
{"type": "Feature", "id": "l7WuIv76qVwbd2TdNiP1WFxfqyY=", "properties": {"ref": "rona-portage-la-prairie-01375", "@spider": "rona", "shop": "doityourself", "addr:full": "2450, Saskatchewan Ave.West", "addr:city": "Portage La Prairie,", "addr:state": "MB,", "addr:postcode": "R1N 3N8", "addr:country": "CA", "website": "https://www.rona.ca/en/store/manitoba/portage-la-prairie/rona-portage-la-prairie-01375", "brand": "RONA", "brand:wikidata": "Q3415283", "nsi_id": "rona-fd1fd9"}, "geometry": {"type": "Point", "coordinates": [-98.32962, 49.9756]}},
{"type": "Feature", "id": "Ca4_CyvVUOW-otxvjjNYZd24uX0=", "properties": {"ref": "rona-bois-turcotte-ltee-val-dor-01338", "@spider": "rona", "shop": "doityourself", "addr:full": "1338, 3i\u00e8me avenue", "addr:city": "Val-d'Or,", "addr:state": "QC,", "addr:postcode": "J9P 1V5", "addr:country": "CA", "website": "https://www.rona.ca/en/store/quebec/val-dor/rona-bois-turcotte-ltee-val-dor-01338", "brand": "RONA", "brand:wikidata": "Q3415283", "nsi_id": "rona-fd1fd9"}, "geometry": {"type": "Point", "coordinates": [-77.80216, 48.1045]}},
{"type": "Feature", "id": "5CEnJFEOI0EmodZnQXM-YlKyZ0g=", "properties": {"ref": "rona-gimli-00620", "@spider": "rona", "shop": "doityourself", "addr:full": "100 - 7th Avenue", "addr:city": "Gimli,", "addr:state": "MB,", "addr:postcode": "R0C 1B0", "addr:country": "CA", "website": "https://www.rona.ca/en/store/manitoba/gimli/rona-gimli-00620", "brand": "RONA", "brand:wikidata": "Q3415283", "nsi_id": "rona-fd1fd9"}, "geometry": {"type": "Point", "coordinates": [-96.99495, 50.6254]}},
{"type": "Feature", "id": "x4ZaJ9QSYmuayR-tJgNefl_Nkpk=", "properties": {"ref": "rona-iberville-00397", "@spider": "rona", "shop": "doityourself", "addr:full": "85, ave Conrad-Gosselin", "addr:city": "Saint-Jean-sur-Richelieu,", "addr:state": "QC,", "addr:postcode": "J2X 0A1", "addr:country": "CA", "website": "https://www.rona.ca/en/store/quebec/saint-jean-sur-richelieu/rona-iberville-00397", "brand": "RONA", "brand:wikidata": "Q3415283", "nsi_id": "rona-fd1fd9"}, "geometry": {"type": "Point", "coordinates": [-73.24092, 45.32368]}},
{"type": "Feature", "id": "uX0QlRTjXCtnUg-M23TgcSq0tww=", "properties": {"ref": "rona-laurent-roy-gaspe-ltee-gaspe-00243", "@spider": "rona", "shop": "doityourself", "addr:full": "25, boul. Gasp\u00e9", "addr:city": "Gasp\u00e9,", "addr:state": "QC,", "addr:postcode": "G4X 2R7", "addr:country": "CA", "website": "https://www.rona.ca/en/store/quebec/gaspe/rona-laurent-roy-gaspe-ltee-gaspe-00243", "brand": "RONA", "brand:wikidata": "Q3415283", "nsi_id": "rona-fd1fd9"}, "geometry": {"type": "Point", "coordinates": [-64.48056, 48.83193]}},
{"type": "Feature", "id": "u7Fj39Gy0hBcdkH1c8En82dRd_E=", "properties": {"ref": "rona-black-diamond-00214", "@spider": "rona", "shop": "doityourself", "addr:full": "601 - 1 Avenue N.E.", "addr:city": "Black Diamond,", "addr:state": "AB,", "addr:postcode": "T0L 0H0", "addr:country": "CA", "website": "https://www.rona.ca/en/store/alberta/black-diamond/rona-black-diamond-00214", "brand": "RONA", "brand:wikidata": "Q3415283", "nsi_id": "rona-fd1fd9"}, "geometry": {"type": "Point", "coordinates": [-114.22268, 50.68876]}},
{"type": "Feature", "id": "rsRXnFUQ0TDne4HheI0FnIeL-jg=", "properties": {"ref": "rona-quincaillerie-saint-camille-de-lellis-00137", "@spider": "rona", "shop": "doityourself", "addr:full": "643, rue Principale", "addr:city": "Saint-Camille-de-Lellis,", "addr:state": "QC,", "addr:postcode": "G0R 2S0", "addr:country": "CA", "website": "https://www.rona.ca/en/store/quebec/saint-camille-de-lellis/rona-quincaillerie-saint-camille-de-lellis-00137", "brand": "RONA", "brand:wikidata": "Q3415283", "nsi_id": "rona-fd1fd9"}, "geometry": {"type": "Point", "coordinates": [-70.21171, 46.49536]}},
{"type": "Feature", "id": "eY9B4bS4NrcIQls2XuXG319N7qQ=", "properties": {"ref": "placide-martineau-inc-centre-village-00124", "@spider": "rona", "shop": "doityourself", "addr:full": "399, route 273", "addr:city": "Saint-Apollinaire,", "addr:state": "QC,", "addr:postcode": "G0S 2E0", "addr:country": "CA", "website": "https://www.rona.ca/en/store/quebec/saint-apollinaire/placide-martineau-inc-centre-village-00124", "brand": "RONA", "brand:wikidata": "Q3415283", "nsi_id": "rona-fd1fd9"}, "geometry": {"type": "Point", "coordinates": [-71.50926, 46.61223]}},
{"type": "Feature", "id": "XGkTJFKTZQdWi0_ggRX9cgxAun4=", "properties": {"ref": "placide-martineau-inc-villeroy-00122", "@spider": "rona", "shop": "doityourself", "addr:full": "307 rue Principale", "addr:city": "Villeroy,", "addr:state": "QC,", "addr:postcode": "G0S 3K0", "addr:country": "CA", "website": "https://www.rona.ca/en/store/quebec/villeroy/placide-martineau-inc-villeroy-00122", "brand": "RONA", "brand:wikidata": "Q3415283", "nsi_id": "rona-fd1fd9"}, "geometry": {"type": "Point", "coordinates": [-71.86597, 46.37897]}},
{"type": "Feature", "id": "Birnf4pEwB9tHyTlWet0ca-0LM4=", "properties": {"ref": "placide-martineau-inc-saint-flavien-00121", "@spider": "rona", "shop": "doityourself", "addr:full": "111 rue Principale", "addr:city": "Saint-Flavien,", "addr:state": "QC,", "addr:postcode": "G0S 2M0", "addr:country": "CA", "website": "https://www.rona.ca/en/store/quebec/saint-flavien/placide-martineau-inc-saint-flavien-00121", "brand": "RONA", "brand:wikidata": "Q3415283", "nsi_id": "rona-fd1fd9"}, "geometry": {"type": "Point", "coordinates": [-71.59862, 46.51479]}},
{"type": "Feature", "id": "ch5bWi-k-91x3Td02twe-gSVI-M=", "properties": {"ref": "placide-martineau-inc-saint-apollinaire-00120", "@spider": "rona", "shop": "doityourself", "addr:full": "120 des Moulanges", "addr:city": "Saint-Apollinaire,", "addr:state": "QC,", "addr:postcode": "G0S 2E0", "addr:country": "CA", "website": "https://www.rona.ca/en/store/quebec/saint-apollinaire/placide-martineau-inc-saint-apollinaire-00120", "brand": "RONA", "brand:wikidata": "Q3415283", "nsi_id": "rona-fd1fd9"}, "geometry": {"type": "Point", "coordinates": [-71.46838, 46.63911]}},
{"type": "Feature", "id": "x8B-_H4jthCAGT5K1hHDqvmAM8c=", "properties": {"ref": "rona-sonnenburg-hardware-ltd-massey-00117", "@spider": "rona", "shop": "doityourself", "addr:full": "155 Sauble Street", "addr:city": "Massey,", "addr:state": "ON,", "addr:postcode": "P0P 1P0", "addr:country": "CA", "website": "https://www.rona.ca/en/store/ontario/massey/rona-sonnenburg-hardware-ltd-massey-00117", "brand": "RONA", "brand:wikidata": "Q3415283", "nsi_id": "rona-fd1fd9"}, "geometry": {"type": "Point", "coordinates": [-82.07212, 46.21235]}}]}