{"type":"FeatureCollection","features":[{"type": "Feature", "id": "cFiZoAqILyM_99lelwjyrEu_7XY=", "properties": {"ref": "412", "amenity:chargingstation": false, "amenity:fuel": true, "fuel:diesel": true, "fuel:e15": null, "fuel:e85": null, "@spider": "royal_farms", "addr:full": "29 Grapevine Road", "addr:city": "Martinsburg", "addr:state": "WV", "addr:postcode": "25405", "addr:country": "US", "phone": "304-362-4713", "opening_hours": "24/7", "brand": "Royal Farms", "brand:wikidata": "Q7374169"}},
{"type": "Feature", "id": "M_BmvkMV9aJe7ulkXa2nYhSw_Zk=", "properties": {"ref": "249", "amenity:chargingstation": false, "amenity:fuel": true, "fuel:diesel": null, "fuel:e15": null, "fuel:e85": null, "@spider": "royal_farms", "addr:full": "43101 Van Metre Drive", "addr:city": "Ashburn", "addr:state": "VA", "addr:postcode": "20148", "addr:country": "US", "phone": "(703) 729-5447", "opening_hours": "24/7", "brand": "Royal Farms", "brand:wikidata": "Q7374169"}},
{"type": "Feature", "id": "-CwGaOL2W5wFGCVb6OlG3shjw6w=", "properties": {"ref": "377", "amenity:chargingstation": false, "amenity:fuel": true, "fuel:diesel": true, "fuel:e15": null, "fuel:e85": null, "@spider": "royal_farms", "addr:full": "10088 James Madison Highway", "addr:city": "Bealeton", "addr:state": "VA", "addr:postcode": "22712", "addr:country": "US", "phone": "540-402-1005", "opening_hours": "24/7", "brand": "Royal Farms", "brand:wikidata": "Q7374169"}},
{"type": "Feature", "id": "b9TZ2jxsacN2KsFOnETx8Q_5lsc=", "properties": {"ref": "108", "amenity:chargingstation": false, "amenity:fuel": true, "fuel:diesel": true, "fuel:e15": null, "fuel:e85": null, "@spider": "royal_farms", "addr:full": "29214 Lankford Highway", "addr:city": "Cape Charles", "addr:state": "VA", "addr:postcode": "23310", "addr:country": "US", "phone": "(757) 331-6210", "opening_hours": "24/7", "brand": "Royal Farms", "brand:wikidata": "Q7374169"}},
{"type": "Feature", "id": "R7UyDtxQDwkEOCBNddZb8hJFXOg=", "properties": {"ref": "152", "amenity:chargingstation": false, "amenity:fuel": true, "fuel:diesel": null, "fuel:e15": null, "fuel:e85": null, "@spider": "royal_farms", "addr:full": "25451 Lizzio Center Drive", "addr:city": "Chantilly", "addr:state": "VA", "addr:postcode": "20152", "addr:country": "US", "phone": "(703) 260-1989", "opening_hours": "24/7", "brand": "Royal Farms", "brand:wikidata": "Q7374169"}},
{"type": "Feature", "id": "iFfwwGS1O26pzPAlhtI3sC8irFQ=", "properties": {"ref": "157", "amenity:chargingstation": false, "amenity:fuel": true, "fuel:diesel": null, "fuel:e15": null, "fuel:e85": null, "@spider": "royal_farms", "addr:full": "3026 Churchland Blvd", "addr:city": "Chesapeake", "addr:state": "VA", "addr:postcode": "23321", "addr:country": "US", "phone": "(757) 998-8399", "opening_hours": "24/7", "brand": "Royal Farms", "brand:wikidata": "Q7374169"}},
{"type": "Feature", "id": "lhs-MLNM3y7PUsUSnmlt2e6BtF4=", "properties": {"ref": "446", "amenity:chargingstation": false, "amenity:fuel": true, "fuel:diesel": null, "fuel:e15": null, "fuel:e85": null, "@spider": "royal_farms", "addr:full": "401 Temple Avenue", "addr:city": "Colonial Heights", "addr:state": "VA", "addr:postcode": "23434", "addr:country": "US", "phone": "804-479-8920", "opening_hours": "24/7", "brand": "Royal Farms", "brand:wikidata": "Q7374169"}},
{"type": "Feature", "id": "bHCui7Tbnufw_Ilj6g4A2qPQ_mk=", "properties": {"ref": "115", "amenity:chargingstation": false, "amenity:fuel": true, "fuel:diesel": null, "fuel:e15": null, "fuel:e85": null, "@spider": "royal_farms", "addr:full": "4317 Lankford Hwy", "addr:city": "Exmore", "addr:state": "VA", "addr:postcode": "23350", "addr:country": "US", "phone": "(757) 414-9216", "opening_hours": "24/7", "brand": "Royal Farms", "brand:wikidata": "Q7374169"}},
{"type": "Feature", "id": "XiCTu4oxrYNau3k8OzQ1QGeZB6Q=", "properties": {"ref": "237", "amenity:chargingstation": false, "amenity:fuel": true, "fuel:diesel": null, "fuel:e15": null, "fuel:e85": null, "@spider": "royal_farms", "addr:full": "1221 Warrenton Road", "addr:city": "Fredericksburg", "addr:state": "VA", "addr:postcode": "22406", "addr:country": "US", "phone": "(540) 907-4527", "brand": "Royal Farms", "brand:wikidata": "Q7374169"}},
{"type": "Feature", "id": "Q0-ntO9-lwb017TW0rlYSAQHNuk=", "properties": {"ref": "359", "amenity:chargingstation": false, "amenity:fuel": true, "fuel:diesel": null, "fuel:e15": null, "fuel:e85": null, "@spider": "royal_farms", "addr:full": "10520 Patriot Hwy", "addr:city": "Fredericksburg", "addr:state": "VA", "addr:postcode": "22408", "addr:country": "US", "phone": "540-684-3358", "opening_hours": "24/7", "brand": "Royal Farms", "brand:wikidata": "Q7374169"}},
{"type": "Feature", "id": "up8ldOvKAVkmTEI0mKWuCn_jpk0=", "properties": {"ref": "335", "amenity:chargingstation": false, "amenity:fuel": true, "fuel:diesel": null, "fuel:e15": null, "fuel:e85": null, "@spider": "royal_farms", "addr:full": "2216 Plank Road", "addr:city": "Fredericksburg", "addr:state": "VA", "addr:postcode": "22401", "addr:country": "US", "phone": "540-322-2196", "opening_hours": "24/7", "brand": "Royal Farms", "brand:wikidata": "Q7374169"}},
{"type": "Feature", "id": "ICSIwtJdMvfQrtc5TGGuszHGrVY=", "properties": {"ref": "297", "amenity:chargingstation": false, "amenity:fuel": true, "fuel:diesel": null, "fuel:e15": null, "fuel:e85": null, "@spider": "royal_farms", "addr:full": "5000 Plank Road", "addr:city": "Fredericksburg", "addr:state": "VA", "addr:postcode": "22407", "addr:country": "US", "phone": "(540) 368-6099", "opening_hours": "24/7", "brand": "Royal Farms", "brand:wikidata": "Q7374169"}},
{"type": "Feature", "id": "lybFHBqhW_llra8kY6e3JXz0TuA=", "properties": {"ref": "430", "amenity:chargingstation": false, "amenity:fuel": true, "fuel:diesel": null, "fuel:e15": null, "fuel:e85": null, "@spider": "royal_farms", "addr:full": "4 Commerce Parkway", "addr:city": "Fredericksburg", "addr:state": "VA", "addr:postcode": "22406", "addr:country": "US", "phone": "540-368-6018", "opening_hours": "24/7", "brand": "Royal Farms", "brand:wikidata": "Q7374169"}},
{"type": "Feature", "id": "ylVeFEZAywMRtUjRuWtUhDN5vOc=", "properties": {"ref": "270", "amenity:chargingstation": false, "amenity:fuel": true, "fuel:diesel": null, "fuel:e15": null, "fuel:e85": null, "@spider": "royal_farms", "addr:full": "260 Crooked Run Plaza", "addr:city": "Front Royal", "addr:state": "VA", "addr:postcode": "22630", "addr:country": "US", "phone": "(540) 551-1818", "opening_hours": "24/7", "brand": "Royal Farms", "brand:wikidata": "Q7374169"}},
{"type": "Feature", "id": "03XY-mSjlNuuC0wWaDch89ouOjs=", "properties": {"ref": "105", "amenity:chargingstation": false, "amenity:fuel": true, "fuel:diesel": null, "fuel:e15": null, "fuel:e85": null, "@spider": "royal_farms", "addr:full": "16135 Lankford Hwy", "addr:city": "Nelsonia", "addr:state": "VA", "addr:postcode": "23414", "addr:country": "US", "phone": "(757) 665-8200", "opening_hours": "24/7", "brand": "Royal Farms", "brand:wikidata": "Q7374169"}},
{"type": "Feature", "id": "QEdBRSNEJ1_PiN98ooamQCG6drQ=", "properties": {"ref": "79", "amenity:chargingstation": false, "amenity:fuel": true, "fuel:diesel": true, "fuel:e15": null, "fuel:e85": null, "@spider": "royal_farms", "addr:full": "2497 Lankford Hwy", "addr:city": "New Church", "addr:state": "VA", "addr:postcode": "23415", "addr:country": "US", "phone": "(757) 824-8053", "opening_hours": "24/7", "brand": "Royal Farms", "brand:wikidata": "Q7374169"}},
{"type": "Feature", "id": "xsm1GyEDOP7ik2aOv2WBdQaxYN4=", "properties": {"ref": "317", "amenity:chargingstation": false, "amenity:fuel": true, "fuel:diesel": null, "fuel:e15": null, "fuel:e85": null, "@spider": "royal_farms", "addr:full": "5350 E. Virginia Beach Blvd.", "addr:city": "Norfolk", "addr:state": "VA", "addr:postcode": "23502", "addr:country": "US", "phone": "(757) 364-0032", "opening_hours": "24/7", "brand": "Royal Farms", "brand:wikidata": "Q7374169"}},
{"type": "Feature", "id": "fBJCezEiDaZl7sa9Hcrv1TvaazA=", "properties": {"ref": "134", "amenity:chargingstation": false, "amenity:fuel": true, "fuel:diesel": null, "fuel:e15": null, "fuel:e85": null, "@spider": "royal_farms", "addr:full": "25220 Lankford Highway", "addr:city": "Onley", "addr:state": "VA", "addr:postcode": "23418", "addr:country": "US", "phone": "(757) 302-6134", "opening_hours": "24/7", "brand": "Royal Farms", "brand:wikidata": "Q7374169"}},
{"type": "Feature", "id": "qIIDJnDPMpSdPnLkTDZpT5kmQfA=", "properties": {"ref": "103", "amenity:chargingstation": false, "amenity:fuel": true, "fuel:diesel": null, "fuel:e15": null, "fuel:e85": null, "@spider": "royal_farms", "addr:full": "20474 Lankford Highway", "addr:city": "Parksley", "addr:state": "VA", "addr:postcode": "23421", "addr:country": "US", "phone": "(757) 665-8031", "opening_hours": "24/7", "brand": "Royal Farms", "brand:wikidata": "Q7374169"}},
{"type": "Feature", "id": "VxBarJPcirRjn-7NKXu_edT1p2Q=", "properties": {"ref": "205", "amenity:chargingstation": false, "amenity:fuel": true, "fuel:diesel": null, "fuel:e15": null, "fuel:e85": null, "@spider": "royal_farms", "addr:full": "3601 Victory Blvd", "addr:city": "Portsmouth", "addr:state": "VA", "addr:postcode": "23701", "addr:country": "US", "phone": "(757) 998-8015", "opening_hours": "24/7", "brand": "Royal Farms", "brand:wikidata": "Q7374169"}},
{"type": "Feature", "id": "BrWOjciiakI0pTVZpro5BdStqcQ=", "properties": {"ref": "130", "amenity:chargingstation": false, "amenity:fuel": true, "fuel:diesel": null, "fuel:e15": null, "fuel:e85": null, "@spider": "royal_farms", "addr:full": "1201 South Church St.", "addr:city": "Smithfield", "addr:state": "VA", "addr:postcode": "23430", "addr:country": "US", "phone": "(757) 824-8055", "opening_hours": "24/7", "brand": "Royal Farms", "brand:wikidata": "Q7374169"}},
{"type": "Feature", "id": "S85ljE3px_orMjYywfvqrgkaoEs=", "properties": {"ref": "429", "amenity:chargingstation": false, "amenity:fuel": true, "fuel:diesel": true, "fuel:e15": null, "fuel:e85": null, "@spider": "royal_farms", "addr:full": "1929 Holland Road", "addr:city": "Suffolk", "addr:state": "VA", "addr:postcode": "23434", "addr:country": "US", "phone": "1-757-255-8914", "opening_hours": "24/7", "brand": "Royal Farms", "brand:wikidata": "Q7374169"}},
{"type": "Feature", "id": "YmPVCaJl5_G2N6zA3q3NERS7xj0=", "properties": {"ref": "175", "amenity:chargingstation": false, "amenity:fuel": true, "fuel:diesel": null, "fuel:e15": null, "fuel:e85": null, "@spider": "royal_farms", "addr:full": "2150 Centerville Turnpike", "addr:city": "Virginia Beach", "addr:state": "VA", "addr:postcode": "23464", "addr:country": "US", "phone": "(757) 524-3609", "opening_hours": "24/7", "brand": "Royal Farms", "brand:wikidata": "Q7374169"}},
{"type": "Feature", "id": "x4rvXOZt0_AqeeWfODJ88GugUPM=", "properties": {"ref": "30", "amenity:chargingstation": false, "amenity:fuel": true, "fuel:diesel": null, "fuel:e15": null, "fuel:e85": null, "@spider": "royal_farms", "addr:full": "33620 Chincoteague Road", "addr:city": "Wallops Island", "addr:state": "VA", "addr:postcode": "23337", "addr:country": "US", "phone": "(757) 800-6440", "opening_hours": "24/7", "brand": "Royal Farms", "brand:wikidata": "Q7374169"}},
{"type": "Feature", "id": "VuBtI-okpF4k9EdiJCuDJltHZds=", "properties": {"ref": "413", "amenity:chargingstation": false, "amenity:fuel": true, "fuel:diesel": null, "fuel:e15": null, "fuel:e85": null, "@spider": "royal_farms", "addr:full": "920 Berryville Avenue", "addr:city": "Winchester", "addr:state": "VA", "addr:postcode": "22601", "addr:country": "US", "phone": "540-546-2378", "opening_hours": "24/7", "brand": "Royal Farms", "brand:wikidata": "Q7374169"}},
{"type": "Feature", "id": "cW_5MbZCJK_gzj1jGXuOBjz8Myg=", "properties": {"ref": "124", "amenity:chargingstation": false, "amenity:fuel": true, "fuel:diesel": null, "fuel:e15": null, "fuel:e85": null, "@spider": "royal_farms", "addr:full": "1500 George Wash Mem. Hwy.", "addr:city": "Yorktown", "addr:state": "VA", "addr:postcode": "23693", "addr:country": "US", "phone": "(757) 873-4408", "opening_hours": "24/7", "brand": "Royal Farms", "brand:wikidata": "Q7374169"}},
{"type": "Feature", "id": "i70DJIqH1IHMIjjg5bSLKn38Jsw=", "properties": {"ref": "192", "amenity:chargingstation": false, "amenity:fuel": true, "fuel:diesel": null, "fuel:e15": null, "fuel:e85": null, "@spider": "royal_farms", "addr:full": "3314 Market Street", "addr:city": "Aston", "addr:state": "PA", "addr:postcode": "19014", "addr:country": "US", "phone": "(610) 200-3554", "opening_hours": "24/7", "brand": "Royal Farms", "brand:wikidata": "Q7374169"}},
{"type": "Feature", "id": "OldUuBw6xwOMH7XnLgb2ImvAa6k=", "properties": {"ref": "195", "amenity:chargingstation": false, "amenity:fuel": true, "fuel:diesel": null, "fuel:e15": null, "fuel:e85": null, "@spider": "royal_farms", "addr:full": "2130 West Chester Pike", "addr:city": "Broomall", "addr:state": "PA", "addr:postcode": "19008", "addr:country": "US", "phone": "484-427-2295", "opening_hours": "24/7", "brand": "Royal Farms", "brand:wikidata": "Q7374169"}},
{"type": "Feature", "id": "uuwQECCjeQtTbhmgYj41U8mUIIc=", "properties": {"ref": "234", "amenity:chargingstation": false, "amenity:fuel": true, "fuel:diesel": null, "fuel:e15": null, "fuel:e85": null, "@spider": "royal_farms", "addr:full": "207 E. Main Street", "addr:city": "Collegeville", "addr:state": "PA", "addr:postcode": "19426", "addr:country": "US", "phone": "1-484-854-0294", "brand": "Royal Farms", "brand:wikidata": "Q7374169"}},
{"type": "Feature", "id": "HI82GPzw8ZGPZDL-nWgI6EL-S4w=", "properties": {"ref": "240", "amenity:chargingstation": false, "amenity:fuel": true, "fuel:diesel": null, "fuel:e15": null, "fuel:e85": null, "@spider": "royal_farms", "addr:full": "935 Bethlehem Pike", "addr:city": "Colmar", "addr:state": "PA", "addr:postcode": "18915", "addr:country": "US", "phone": "(215) 716-2142", "brand": "Royal Farms", "brand:wikidata": "Q7374169"}},
{"type": "Feature", "id": "siBqdLAGfPNgU8sQ-Ve-FxLuIsI=", "properties": {"ref": "147", "amenity:chargingstation": false, "amenity:fuel": true, "fuel:diesel": null, "fuel:e15": null, "fuel:e85": null, "@spider": "royal_farms", "addr:full": "933 Broad Street", "addr:city": "Delta", "addr:state": "PA", "addr:postcode": "17314", "addr:country": "US", "phone": "(717) 455-7160", "brand": "Royal Farms", "brand:wikidata": "Q7374169"}},
{"type": "Feature", "id": "aA7PAcfaECkgFETnqYBP2b-I-xY=", "properties": {"ref": "89", "amenity:chargingstation": false, "amenity:fuel": true, "fuel:diesel": null, "fuel:e15": null, "fuel:e85": null, "@spider": "royal_farms", "addr:full": "1021  Middleton Road", "addr:city": "Aberdeen", "addr:state": "MD", "addr:postcode": "21001", "addr:country": "US", "phone": "(410) 306-9272", "opening_hours": "24/7", "brand": "Royal Farms", "brand:wikidata": "Q7374169"}},
{"type": "Feature", "id": "cMpZN8TnjKZYSnMRhdAYR6Gs4LQ=", "properties": {"ref": "188", "amenity:chargingstation": false, "amenity:fuel": true, "fuel:diesel": null, "fuel:e15": null, "fuel:e85": null, "@spider": "royal_farms", "addr:full": "742 S. Philadelphia Road", "addr:city": "Aberdeen", "addr:state": "MD", "addr:postcode": "21001", "addr:country": "US", "phone": "(410) 306-9273", "opening_hours": "24/7", "brand": "Royal Farms", "brand:wikidata": "Q7374169"}},
{"type": "Feature", "id": "2RQbaiBOeU_I2mJ2fCj-n4e1Gm8=", "properties": {"ref": "271", "amenity:chargingstation": false, "amenity:fuel": true, "fuel:diesel": null, "fuel:e15": null, "fuel:e85": null, "@spider": "royal_farms", "addr:full": "3710 Churchville Road", "addr:city": "Aberdeen", "addr:state": "MD", "addr:postcode": "21001", "addr:country": "US", "phone": "1-443-788-4771", "opening_hours": "24/7", "brand": "Royal Farms", "brand:wikidata": "Q7374169"}},
{"type": "Feature", "id": "RquWUS0G-7Gz1dak6mnq1YoZhOA=", "properties": {"ref": "187", "amenity:chargingstation": false, "amenity:fuel": true, "fuel:diesel": null, "fuel:e15": null, "fuel:e85": null, "@spider": "royal_farms", "addr:full": "10 Box Hill South Parkway", "addr:city": "Abingdon", "addr:state": "MD", "addr:postcode": "21009", "addr:country": "US", "phone": "(410) 670-5041", "opening_hours": "24/7", "brand": "Royal Farms", "brand:wikidata": "Q7374169"}},
{"type": "Feature", "id": "jYl1vbiCcvYgT5VI7h9CthkxPg4=", "properties": {"ref": "28", "amenity:chargingstation": false, "amenity:fuel": false, "fuel:diesel": null, "fuel:e15": null, "fuel:e85": null, "@spider": "royal_farms", "addr:full": "424 Sixth Street", "addr:city": "Annapolis", "addr:state": "MD", "addr:postcode": "21403", "addr:country": "US", "phone": "(410) 793-8043", "opening_hours": "24/7", "brand": "Royal Farms", "brand:wikidata": "Q7374169"}},
{"type": "Feature", "id": "5kjv_3_Mf-bZf40fr-Iwn-UlM6o=", "properties": {"ref": "48", "amenity:chargingstation": false, "amenity:fuel": false, "fuel:diesel": null, "fuel:e15": null, "fuel:e85": null, "@spider": "royal_farms", "addr:full": "4045 Wilkins Avenue", "addr:city": "Arbutus", "addr:state": "MD", "addr:postcode": "21229", "addr:country": "US", "phone": "(410) 501-1063", "brand": "Royal Farms", "brand:wikidata": "Q7374169"}},
{"type": "Feature", "id": "uVKlIMC9_2oLa3Jtf9U2278EesI=", "properties": {"ref": "14", "amenity:chargingstation": false, "amenity:fuel": false, "fuel:diesel": null, "fuel:e15": null, "fuel:e85": null, "@spider": "royal_farms", "addr:full": "4384 Hollins Ferry Road", "addr:city": "Baltimore", "addr:state": "MD", "addr:postcode": "21227", "addr:country": "US", "phone": "(410) 501-1061", "opening_hours": "24/7", "brand": "Royal Farms", "brand:wikidata": "Q7374169"}},
{"type": "Feature", "id": "ffU4huqMu5h3tXRVCSYdWSmmaFk=", "properties": {"ref": "111", "amenity:chargingstation": false, "amenity:fuel": true, "fuel:diesel": true, "fuel:e15": null, "fuel:e85": null, "@spider": "royal_farms", "addr:full": "1200 S. Ponca Street", "addr:city": "Baltimore", "addr:state": "MD", "addr:postcode": "21224", "addr:country": "US", "phone": "(410) 387-4343", "opening_hours": "24/7", "brand": "Royal Farms", "brand:wikidata": "Q7374169"}},
{"type": "Feature", "id": "M4UynTx_aEBerFWqoJduoueW7Kc=", "properties": {"ref": "9", "amenity:chargingstation": false, "amenity:fuel": true, "fuel:diesel": null, "fuel:e15": null, "fuel:e85": null, "@spider": "royal_farms", "addr:full": "6416 Windsor Mill Road", "addr:city": "Baltimore", "addr:state": "MD", "addr:postcode": "21207", "addr:country": "US", "phone": "(410) 862-9142", "opening_hours": "24/7", "brand": "Royal Farms", "brand:wikidata": "Q7374169"}},
{"type": "Feature", "id": "GrQn3AR8_NUy_Rj-y_8nan7ynTw=", "properties": {"ref": "64", "amenity:chargingstation": false, "amenity:fuel": true, "fuel:diesel": null, "fuel:e15": null, "fuel:e85": null, "@spider": "royal_farms", "addr:full": "7950 Pulaski Highway", "addr:city": "Baltimore", "addr:state": "MD", "addr:postcode": "21237", "addr:country": "US", "phone": "(410) 505-9102", "brand": "Royal Farms", "brand:wikidata": "Q7374169"}},
{"type": "Feature", "id": "kwrL7EH0pGUtmEe--x8by9hY-0E=", "properties": {"ref": "24", "amenity:chargingstation": false, "amenity:fuel": false, "fuel:diesel": null, "fuel:e15": null, "fuel:e85": null, "@spider": "royal_farms", "addr:full": "406 Bowleys Quarter Rd", "addr:city": "Baltimore", "addr:state": "MD", "addr:postcode": "21220", "addr:country": "US", "phone": "(410) 344-8055", "brand": "Royal Farms", "brand:wikidata": "Q7374169"}},
{"type": "Feature", "id": "GUSW2w5HAEpxUvFdlXaaef9mXvA=", "properties": {"ref": "33", "amenity:chargingstation": false, "amenity:fuel": false, "fuel:diesel": null, "fuel:e15": null, "fuel:e85": null, "@spider": "royal_farms", "addr:full": "2050 Fleet Street", "addr:city": "Baltimore", "addr:state": "MD", "addr:postcode": "21231", "addr:country": "US", "phone": "(410) 387-4330", "opening_hours": "24/7", "brand": "Royal Farms", "brand:wikidata": "Q7374169"}},
{"type": "Feature", "id": "rR1vD4ayhtBT80bNoQS4YWoKBP4=", "properties": {"ref": "50", "amenity:chargingstation": false, "amenity:fuel": true, "fuel:diesel": null, "fuel:e15": null, "fuel:e85": null, "@spider": "royal_farms", "addr:full": "2704 Washington Blvd", "addr:city": "Baltimore", "addr:state": "MD", "addr:postcode": "21230", "addr:country": "US", "phone": "(410) 387-4333", "opening_hours": "24/7", "brand": "Royal Farms", "brand:wikidata": "Q7374169"}},
{"type": "Feature", "id": "XaZXidXcF6J6zUw_OwliYb_l4dM=", "properties": {"ref": "3", "amenity:chargingstation": false, "amenity:fuel": false, "fuel:diesel": null, "fuel:e15": null, "fuel:e85": null, "@spider": "royal_farms", "addr:full": "7204 York Road", "addr:city": "Baltimore", "addr:state": "MD", "addr:postcode": "21212", "addr:country": "US", "phone": "(443) 761-6494", "opening_hours": "24/7", "brand": "Royal Farms", "brand:wikidata": "Q7374169"}},
{"type": "Feature", "id": "u0zXJlCwNhx6hNwSoeEdRWScZn8=", "properties": {"ref": "49", "amenity:chargingstation": false, "amenity:fuel": false, "fuel:diesel": null, "fuel:e15": null, "fuel:e85": null, "@spider": "royal_farms", "addr:full": "6067 Falls Road", "addr:city": "Baltimore", "addr:state": "MD", "addr:postcode": "21209", "addr:country": "US", "phone": "(410) 387-4332", "brand": "Royal Farms", "brand:wikidata": "Q7374169"}},
{"type": "Feature", "id": "1XqXUe-gbaYWZKUAEy1rMqjd4V4=", "properties": {"ref": "35", "amenity:chargingstation": false, "amenity:fuel": true, "fuel:diesel": null, "fuel:e15": null, "fuel:e85": null, "@spider": "royal_farms", "addr:full": "8803 Philadelphia Road", "addr:city": "Baltimore", "addr:state": "MD", "addr:postcode": "21237", "addr:country": "US", "phone": "(443) 922-2132", "opening_hours": "24/7", "brand": "Royal Farms", "brand:wikidata": "Q7374169"}},
{"type": "Feature", "id": "WD5h8pHdS14twywT3bw1J-jGKyw=", "properties": {"ref": "29", "amenity:chargingstation": false, "amenity:fuel": false, "fuel:diesel": null, "fuel:e15": null, "fuel:e85": null, "@spider": "royal_farms", "addr:full": "627 Mace Avenue", "addr:city": "Baltimore", "addr:state": "MD", "addr:postcode": "21221", "addr:country": "US", "phone": "(443) 922-2131", "brand": "Royal Farms", "brand:wikidata": "Q7374169"}},
{"type": "Feature", "id": "EDbwt5e4vkBhVl7TqIxxWC5BzeU=", "properties": {"ref": "60", "amenity:chargingstation": false, "amenity:fuel": true, "fuel:diesel": true, "fuel:e15": null, "fuel:e85": null, "@spider": "royal_farms", "addr:full": "6100 Holabird Avenue", "addr:city": "Baltimore", "addr:state": "MD", "addr:postcode": "21224", "addr:country": "US", "phone": "(410) 387-4335", "opening_hours": "24/7", "brand": "Royal Farms", "brand:wikidata": "Q7374169"}},
{"type": "Feature", "id": "tmIGOWY9tIUd4MU4ToKcKRedEis=", "properties": {"ref": "52", "amenity:chargingstation": false, "amenity:fuel": false, "fuel:diesel": null, "fuel:e15": null, "fuel:e85": null, "@spider": "royal_farms", "addr:full": "2410 East Joppa Road", "addr:city": "Baltimore", "addr:state": "MD", "addr:postcode": "21234", "addr:country": "US", "phone": "(410) 874-2054", "opening_hours": "24/7", "brand": "Royal Farms", "brand:wikidata": "Q7374169"}},
{"type": "Feature", "id": "yKM0D66Oln1EDpl3lYMWYMfK_Co=", "properties": {"ref": "17", "amenity:chargingstation": false, "amenity:fuel": false, "fuel:diesel": null, "fuel:e15": null, "fuel:e85": null, "@spider": "royal_farms", "addr:full": "8207 Harford Road", "addr:city": "Baltimore", "addr:state": "MD", "addr:postcode": "21234", "addr:country": "US", "phone": "(410) 513-8545", "opening_hours": "24/7", "brand": "Royal Farms", "brand:wikidata": "Q7374169"}},
{"type": "Feature", "id": "XzfzLpufuNuufRGiAmu0j2kgXww=", "properties": {"ref": "41", "amenity:chargingstation": false, "amenity:fuel": false, "fuel:diesel": null, "fuel:e15": null, "fuel:e85": null, "@spider": "royal_farms", "addr:full": "206 West Cold Spring Lane", "addr:city": "Baltimore", "addr:state": "MD", "addr:postcode": "21210", "addr:country": "US", "phone": "(410) 387-4331", "opening_hours": "24/7", "brand": "Royal Farms", "brand:wikidata": "Q7374169"}},
{"type": "Feature", "id": "UYzWif5Q3rKaonFvp67j_7KCLIo=", "properties": {"ref": "55", "amenity:chargingstation": false, "amenity:fuel": false, "fuel:diesel": null, "fuel:e15": null, "fuel:e85": null, "@spider": "royal_farms", "addr:full": "3701 Fleet Street", "addr:city": "Baltimore", "addr:state": "MD", "addr:postcode": "21224", "addr:country": "US", "phone": "(410) 387-4334", "opening_hours": "24/7", "brand": "Royal Farms", "brand:wikidata": "Q7374169"}},
{"type": "Feature", "id": "lZcsHh0bPzuD_n3W73Ocqr8W8LY=", "properties": {"ref": "92", "amenity:chargingstation": false, "amenity:fuel": true, "fuel:diesel": null, "fuel:e15": null, "fuel:e85": null, "@spider": "royal_farms", "addr:full": "1440 Key Hwy", "addr:city": "Baltimore", "addr:state": "MD", "addr:postcode": "21230", "addr:country": "US", "phone": "(410) 387-4340", "opening_hours": "24/7", "brand": "Royal Farms", "brand:wikidata": "Q7374169"}},
{"type": "Feature", "id": "CJtLGNTW75Xq5tGXVh-O8m5xiVs=", "properties": {"ref": "61", "amenity:chargingstation": false, "amenity:fuel": true, "fuel:diesel": null, "fuel:e15": null, "fuel:e85": null, "@spider": "royal_farms", "addr:full": "3333 Fayette Street", "addr:city": "Baltimore", "addr:state": "MD", "addr:postcode": "21224", "addr:country": "US", "phone": "(410) 387-4336", "opening_hours": "24/7", "brand": "Royal Farms", "brand:wikidata": "Q7374169"}},
{"type": "Feature", "id": "-aNO4lG-TwRy0TT81WQjJQmPlHM=", "properties": {"ref": "91", "amenity:chargingstation": false, "amenity:fuel": false, "fuel:diesel": null, "fuel:e15": null, "fuel:e85": null, "@spider": "royal_farms", "addr:full": "920 W. 36th Street", "addr:city": "Baltimore", "addr:state": "MD", "addr:postcode": "21211", "addr:country": "US", "phone": "(410) 387-4325", "opening_hours": "24/7", "brand": "Royal Farms", "brand:wikidata": "Q7374169"}},
{"type": "Feature", "id": "q8dzjePrmCeBpNJ6rVTtYVnhpZI=", "properties": {"ref": "2", "amenity:chargingstation": false, "amenity:fuel": true, "fuel:diesel": null, "fuel:e15": null, "fuel:e85": null, "@spider": "royal_farms", "addr:full": "898 S. Marlyn Ave", "addr:city": "Baltimore", "addr:state": "MD", "addr:postcode": "21221", "addr:country": "US", "phone": "(410) 406-8492", "opening_hours": "24/7", "brand": "Royal Farms", "brand:wikidata": "Q7374169"}},
{"type": "Feature", "id": "fRiuksv4D3n0UNhzCm5pABB2O3U=", "properties": {"ref": "63", "amenity:chargingstation": false, "amenity:fuel": true, "fuel:diesel": null, "fuel:e15": null, "fuel:e85": null, "@spider": "royal_farms", "addr:full": "4820 O'Donnell Street", "addr:city": "Baltimore", "addr:state": "MD", "addr:postcode": "21224", "addr:country": "US", "phone": "(410) 387-4337", "opening_hours": "24/7", "brand": "Royal Farms", "brand:wikidata": "Q7374169"}},
{"type": "Feature", "id": "VIUVVSaNb3uY3tZFqHQ3A85f1sA=", "properties": {"ref": "42", "amenity:chargingstation": false, "amenity:fuel": true, "fuel:diesel": null, "fuel:e15": null, "fuel:e85": null, "@spider": "royal_farms", "addr:full": "1302 Windlass Drive", "addr:city": "Baltimore", "addr:state": "MD", "addr:postcode": "21220", "addr:country": "US", "phone": "(410) 406-8495", "opening_hours": "24/7", "brand": "Royal Farms", "brand:wikidata": "Q7374169"}},
{"type": "Feature", "id": "1Xj9fZhoaUCPBZa95-5nbBsNzjI=", "properties": {"ref": "31", "amenity:chargingstation": false, "amenity:fuel": false, "fuel:diesel": null, "fuel:e15": null, "fuel:e85": null, "@spider": "royal_farms", "addr:full": "2700 Taylor Avenue", "addr:city": "Baltimore", "addr:state": "MD", "addr:postcode": "21234", "addr:country": "US", "phone": "(410) 513-8546", "opening_hours": "24/7", "brand": "Royal Farms", "brand:wikidata": "Q7374169"}},
{"type": "Feature", "id": "rGczthSrImOgpA8GkVNaY3yw25c=", "properties": {"ref": "11", "amenity:chargingstation": false, "amenity:fuel": false, "fuel:diesel": null, "fuel:e15": null, "fuel:e85": null, "@spider": "royal_farms", "addr:full": "5232 Harford Road", "addr:city": "Baltimore", "addr:state": "MD", "addr:postcode": "21214", "addr:country": "US", "phone": "(410) 387-4327", "brand": "Royal Farms", "brand:wikidata": "Q7374169"}},
{"type": "Feature", "id": "3-PkulJxwaYOVTKtQbetbAWyVZs=", "properties": {"ref": "86", "amenity:chargingstation": false, "amenity:fuel": true, "fuel:diesel": null, "fuel:e15": null, "fuel:e85": null, "@spider": "royal_farms", "addr:full": "3601 Potee Street", "addr:city": "Baltimore", "addr:state": "MD", "addr:postcode": "21225", "addr:country": "US", "phone": "(410) 387-4338", "opening_hours": "24/7", "brand": "Royal Farms", "brand:wikidata": "Q7374169"}},
{"type": "Feature", "id": "XaQ4MWIBhm4LzT6gONwBKZ0LonA=", "properties": {"ref": "20", "amenity:chargingstation": false, "amenity:fuel": true, "fuel:diesel": null, "fuel:e15": null, "fuel:e85": null, "@spider": "royal_farms", "addr:full": "1119 West 41st Street", "addr:city": "Baltimore", "addr:state": "MD", "addr:postcode": "21211", "addr:country": "US", "phone": "(410) 387-4328", "opening_hours": "24/7", "brand": "Royal Farms", "brand:wikidata": "Q7374169"}},
{"type": "Feature", "id": "TT85fNyGt7V5Ixk3kVB4f61vQmQ=", "properties": {"ref": "6", "amenity:chargingstation": false, "amenity:fuel": false, "fuel:diesel": null, "fuel:e15": null, "fuel:e85": null, "@spider": "royal_farms", "addr:full": "3635 Keswick Road", "addr:city": "Baltimore", "addr:state": "MD", "addr:postcode": "21211", "addr:country": "US", "phone": "(410) 387-4326", "opening_hours": "24/7", "brand": "Royal Farms", "brand:wikidata": "Q7374169"}},
{"type": "Feature", "id": "fRYBHulEP1ZzBGNMep-NEqYWiO4=", "properties": {"ref": "106", "amenity:chargingstation": false, "amenity:fuel": true, "fuel:diesel": null, "fuel:e15": null, "fuel:e85": null, "@spider": "royal_farms", "addr:full": "3360 Annapolis Rd", "addr:city": "Baltimore", "addr:state": "MD", "addr:postcode": "21230", "addr:country": "US", "phone": "(410) 387-4342", "brand": "Royal Farms", "brand:wikidata": "Q7374169"}},
{"type": "Feature", "id": "i9lNFAt6nNE01arKGS3ZbOT7rBY=", "properties": {"ref": "346", "amenity:chargingstation": false, "amenity:fuel": true, "fuel:diesel": null, "fuel:e15": null, "fuel:e85": null, "@spider": "royal_farms", "addr:full": "1202 South Caton Ave", "addr:city": "Baltimore", "addr:state": "MD", "addr:postcode": "21227", "addr:country": "US", "phone": "443-297-7112", "opening_hours": "24/7", "brand": "Royal Farms", "brand:wikidata": "Q7374169"}},
{"type": "Feature", "id": "sWrUnHSN3oQ_OXo8aDxq4Hpb-Zs=", "properties": {"ref": "340", "amenity:chargingstation": false, "amenity:fuel": true, "fuel:diesel": null, "fuel:e15": null, "fuel:e85": null, "@spider": "royal_farms", "addr:full": "2000 Forest Park Avenue", "addr:city": "Baltimore", "addr:state": "MD", "addr:postcode": "21207", "addr:country": "US", "phone": "410-450-4317", "opening_hours": "24/7", "brand": "Royal Farms", "brand:wikidata": "Q7374169"}},
{"type": "Feature", "id": "kUeTw5yJZjsfD24OGTq8oY3L4pQ=", "properties": {"ref": "169", "amenity:chargingstation": true, "amenity:fuel": true, "fuel:diesel": true, "fuel:e15": null, "fuel:e85": null, "@spider": "royal_farms", "addr:full": "6201 Pulaski Highway", "addr:city": "Baltimore", "addr:state": "MD", "addr:postcode": "21205", "addr:country": "US", "phone": "(410) 387-4347", "brand": "Royal Farms", "brand:wikidata": "Q7374169"}},
{"type": "Feature", "id": "xOmdfneeSGTe___1DglTbS1gokA=", "properties": {"ref": "247", "amenity:chargingstation": false, "amenity:fuel": true, "fuel:diesel": null, "fuel:e15": null, "fuel:e85": null, "@spider": "royal_farms", "addr:full": "2215 W Patapsco Ave", "addr:city": "Baltimore", "addr:state": "MD", "addr:postcode": "21230", "addr:country": "US", "phone": "(410) 387-2767", "opening_hours": "24/7", "brand": "Royal Farms", "brand:wikidata": "Q7374169"}},
{"type": "Feature", "id": "ZpvU5rhz99g_kubMVXnynctPkcY=", "properties": {"ref": "153", "amenity:chargingstation": false, "amenity:fuel": true, "fuel:diesel": null, "fuel:e15": null, "fuel:e85": null, "@spider": "royal_farms", "addr:full": "1501 62ND Street", "addr:city": "Baltimore", "addr:state": "MD", "addr:postcode": "21237", "addr:country": "US", "phone": "(410) 387-4345", "opening_hours": "24/7", "brand": "Royal Farms", "brand:wikidata": "Q7374169"}},
{"type": "Feature", "id": "rQirJe5WQIrZQUPLpLUMoe1lXEQ=", "properties": {"ref": "138", "amenity:chargingstation": false, "amenity:fuel": true, "fuel:diesel": null, "fuel:e15": null, "fuel:e85": null, "@spider": "royal_farms", "addr:full": "1530 Russell Street", "addr:city": "Baltimore", "addr:state": "MD", "addr:postcode": "21230", "addr:country": "US", "phone": "(410) 387-4344", "opening_hours": "24/7", "brand": "Royal Farms", "brand:wikidata": "Q7374169"}},
{"type": "Feature", "id": "Vq3wxEi_ZAn75T-JmeZf2tsLEsE=", "properties": {"ref": "159", "amenity:chargingstation": false, "amenity:fuel": true, "fuel:diesel": null, "fuel:e15": null, "fuel:e85": null, "@spider": "royal_farms", "addr:full": "1801 Washington Blvd", "addr:city": "Baltimore", "addr:state": "MD", "addr:postcode": "21230", "addr:country": "US", "phone": "(410) 387-4346", "opening_hours": "24/7", "brand": "Royal Farms", "brand:wikidata": "Q7374169"}},
{"type": "Feature", "id": "QjgOI31ibdSo84pqS1acBV8IbN0=", "properties": {"ref": "100", "amenity:chargingstation": false, "amenity:fuel": false, "fuel:diesel": null, "fuel:e15": null, "fuel:e85": null, "@spider": "royal_farms", "addr:full": "36 Light Street (Light at Lombard)", "addr:city": "Baltimore", "addr:state": "MD", "addr:postcode": "21202", "addr:country": "US", "phone": "(410) 387-4341", "opening_hours": "24/7", "brand": "Royal Farms", "brand:wikidata": "Q7374169"}},
{"type": "Feature", "id": "-msOnGUS2J0lBl1Zp15R9QWXGC0=", "properties": {"ref": "23", "amenity:chargingstation": false, "amenity:fuel": true, "fuel:diesel": true, "fuel:e15": null, "fuel:e85": null, "@spider": "royal_farms", "addr:full": "6411 Fort Smallwood Road", "addr:city": "Baltimore", "addr:state": "MD", "addr:postcode": "21226", "addr:country": "US", "phone": "(410) 387-4329", "opening_hours": "24/7", "brand": "Royal Farms", "brand:wikidata": "Q7374169"}},
{"type": "Feature", "id": "pqV6iGLMIoNCov5YT6P8DwTEPaE=", "properties": {"ref": "229", "amenity:chargingstation": false, "amenity:fuel": true, "fuel:diesel": null, "fuel:e15": null, "fuel:e85": null, "@spider": "royal_farms", "addr:full": "5801 Eastern Avenue", "addr:city": "Baltimore", "addr:state": "MD", "addr:postcode": "21224", "addr:country": "US", "phone": "443-884-2216", "opening_hours": "24/7", "brand": "Royal Farms", "brand:wikidata": "Q7374169"}},
{"type": "Feature", "id": "sSm4OGwMSPcmJBNAhfrY-CBXLV0=", "properties": {"ref": "74", "amenity:chargingstation": false, "amenity:fuel": true, "fuel:diesel": null, "fuel:e15": null, "fuel:e85": null, "@spider": "royal_farms", "addr:full": "1525 East Joppa Road", "addr:city": "Baynesville", "addr:state": "MD", "addr:postcode": "21286", "addr:country": "US", "phone": "(443) 761-6495", "opening_hours": "24/7", "brand": "Royal Farms", "brand:wikidata": "Q7374169"}},
{"type": "Feature", "id": "GDjzvt55jetkcGK5cJMye8oW8Xg=", "properties": {"ref": "170", "amenity:chargingstation": false, "amenity:fuel": true, "fuel:diesel": null, "fuel:e15": null, "fuel:e85": null, "@spider": "royal_farms", "addr:full": "2201 Jack Lane", "addr:city": "Bel Air", "addr:state": "MD", "addr:postcode": "21015", "addr:country": "US", "phone": "(410) 399-3092", "opening_hours": "24/7", "brand": "Royal Farms", "brand:wikidata": "Q7374169"}},
{"type": "Feature", "id": "w6tAk7Ed_69a6kYRcq_TAVC1GSs=", "properties": {"ref": "25", "amenity:chargingstation": false, "amenity:fuel": true, "fuel:diesel": null, "fuel:e15": null, "fuel:e85": null, "@spider": "royal_farms", "addr:full": "1601 E. Churchville Road", "addr:city": "Bel Air", "addr:state": "MD", "addr:postcode": "21015", "addr:country": "US", "phone": "(410) 399-3091", "brand": "Royal Farms", "brand:wikidata": "Q7374169"}},
{"type": "Feature", "id": "rXJXcsCLZGz9cS_wzrvAMr7w-q8=", "properties": {"ref": "161", "amenity:chargingstation": false, "amenity:fuel": true, "fuel:diesel": null, "fuel:e15": null, "fuel:e85": null, "@spider": "royal_farms", "addr:full": "1551 Pulaski Highway and Wellington", "addr:city": "Bear", "addr:state": "DE", "addr:postcode": "19702", "addr:country": "US", "phone": "(302) 918-6341", "opening_hours": "24/7", "brand": "Royal Farms", "brand:wikidata": "Q7374169"}},
{"type": "Feature", "id": "lrnc5k0Pfj4hd7wo0CjJarFFMsQ=", "properties": {"ref": "109", "amenity:chargingstation": true, "amenity:fuel": true, "fuel:diesel": true, "fuel:e15": null, "fuel:e85": null, "@spider": "royal_farms", "addr:full": "18657 Sussex Hwy", "addr:city": "Bridgeville", "addr:state": "DE", "addr:postcode": "19933", "addr:country": "US", "phone": "(302) 956-8600", "opening_hours": "24/7", "brand": "Royal Farms", "brand:wikidata": "Q7374169"}},
{"type": "Feature", "id": "prarBtNH86PnNudDhwykyifOKO4=", "properties": {"ref": "316", "amenity:chargingstation": false, "amenity:fuel": true, "fuel:diesel": true, "fuel:e15": null, "fuel:e85": null, "@spider": "royal_farms", "addr:full": "32335 Dupont Blvd.", "addr:city": "Dagsboro", "addr:state": "DE", "addr:postcode": "19939", "addr:country": "US", "phone": "302-364-5408", "opening_hours": "24/7", "brand": "Royal Farms", "brand:wikidata": "Q7374169"}},
{"type": "Feature", "id": "345osB8R8wiRZJohuZx-qu9wkzU=", "properties": {"ref": "151", "amenity:chargingstation": false, "amenity:fuel": true, "fuel:diesel": null, "fuel:e15": null, "fuel:e85": null, "@spider": "royal_farms", "addr:full": "293 South Salisbury Blvd", "addr:city": "Dover", "addr:state": "DE", "addr:postcode": "19904", "addr:country": "US", "phone": "(302) 883-6263", "opening_hours": "24/7", "brand": "Royal Farms", "brand:wikidata": "Q7374169"}},
{"type": "Feature", "id": "YMaFPPZXlUHmKggwObSnyAeRrIQ=", "properties": {"ref": "119", "amenity:chargingstation": false, "amenity:fuel": true, "fuel:diesel": null, "fuel:e15": null, "fuel:e85": null, "@spider": "royal_farms", "addr:full": "5456 N. Dupont Hwy", "addr:city": "Dover", "addr:state": "DE", "addr:postcode": "19901", "addr:country": "US", "phone": "(302) 883-6262", "opening_hours": "24/7", "brand": "Royal Farms", "brand:wikidata": "Q7374169"}},
{"type": "Feature", "id": "Cye66wvp3bcIg_KQl6FbA3bizrM=", "properties": {"ref": "110", "amenity:chargingstation": false, "amenity:fuel": true, "fuel:diesel": null, "fuel:e15": null, "fuel:e85": null, "@spider": "royal_farms", "addr:full": "295 S. Dupont Hwy", "addr:city": "Dover", "addr:state": "DE", "addr:postcode": "19901", "addr:country": "US", "phone": "(302) 883-6261", "opening_hours": "24/7", "brand": "Royal Farms", "brand:wikidata": "Q7374169"}},
{"type": "Feature", "id": "XwCjDLvzhR-fjv_aSWj1Xmpb-SE=", "properties": {"ref": "139", "amenity:chargingstation": false, "amenity:fuel": true, "fuel:diesel": null, "fuel:e15": null, "fuel:e85": null, "@spider": "royal_farms", "addr:full": "6 West Lebanon Road", "addr:city": "Dover", "addr:state": "DE", "addr:postcode": "19901", "addr:country": "US", "phone": "(302) 943-6661", "opening_hours": "24/7", "brand": "Royal Farms", "brand:wikidata": "Q7374169"}},
{"type": "Feature", "id": "dLjUTjnygy_Y6VNWCgcTzLvTKE4=", "properties": {"ref": "141", "amenity:chargingstation": false, "amenity:fuel": true, "fuel:diesel": null, "fuel:e15": null, "fuel:e85": null, "@spider": "royal_farms", "addr:full": "16979 Beach Highway", "addr:city": "Ellendale", "addr:state": "DE", "addr:postcode": "19941", "addr:country": "US", "phone": "(302) 682-6021", "opening_hours": "24/7", "brand": "Royal Farms", "brand:wikidata": "Q7374169"}},
{"type": "Feature", "id": "z5eHwMoimNIdC8Eoh3NFrMbXdLQ=", "properties": {"ref": "13", "amenity:chargingstation": false, "amenity:fuel": true, "fuel:diesel": null, "fuel:e15": null, "fuel:e85": null, "@spider": "royal_farms", "addr:full": "11460 S. Dupont Hwy", "addr:city": "Felton", "addr:state": "DE", "addr:postcode": "19943", "addr:country": "US", "phone": "(302) 284-6014", "opening_hours": "24/7", "brand": "Royal Farms", "brand:wikidata": "Q7374169"}},
{"type": "Feature", "id": "pwQ6zVQqOl2qmFItMILYUAVVkBY=", "properties": {"ref": "44", "amenity:chargingstation": false, "amenity:fuel": true, "fuel:diesel": null, "fuel:e15": null, "fuel:e85": null, "@spider": "royal_farms", "addr:full": "701 Coastal Hwy", "addr:city": "Fenwick", "addr:state": "DE", "addr:postcode": "19944", "addr:country": "US", "phone": "(302) 581-6020", "brand": "Royal Farms", "brand:wikidata": "Q7374169"}},
{"type": "Feature", "id": "w6v-6MYyo3woNvr2lp6MGDIBf8c=", "properties": {"ref": "158", "amenity:chargingstation": false, "amenity:fuel": true, "fuel:diesel": null, "fuel:e15": null, "fuel:e85": null, "@spider": "royal_farms", "addr:full": "20579 Dupont Blvd", "addr:city": "Georgetown", "addr:state": "DE", "addr:postcode": "19947", "addr:country": "US", "phone": "(302) 841-6361", "opening_hours": "24/7", "brand": "Royal Farms", "brand:wikidata": "Q7374169"}},
{"type": "Feature", "id": "hR0cmT90a2svxFrFlXxFRMZIh2M=", "properties": {"ref": "120", "amenity:chargingstation": false, "amenity:fuel": true, "fuel:diesel": true, "fuel:e15": null, "fuel:e85": null, "@spider": "royal_farms", "addr:full": "2 Schultz Rd.", "addr:city": "Greenwood", "addr:state": "DE", "addr:postcode": "19950", "addr:country": "US", "phone": "(302) 815-6300", "opening_hours": "24/7", "brand": "Royal Farms", "brand:wikidata": "Q7374169"}},
{"type": "Feature", "id": "5cLi66PXrTIo6GUw7I6xzhxwCvM=", "properties": {"ref": "296", "amenity:chargingstation": false, "amenity:fuel": true, "fuel:diesel": null, "fuel:e15": null, "fuel:e85": null, "@spider": "royal_farms", "addr:full": "26454 Lewes Georgetown Highway", "addr:city": "Harbeson", "addr:state": "DE", "addr:postcode": "19951", "addr:country": "US", "phone": "302-643-9997", "opening_hours": "24/7", "brand": "Royal Farms", "brand:wikidata": "Q7374169"}},
{"type": "Feature", "id": "oXT2o5DtKb9iQk4XJfr_-x4kGus=", "properties": {"ref": "121", "amenity:chargingstation": false, "amenity:fuel": true, "fuel:diesel": null, "fuel:e15": null, "fuel:e85": null, "@spider": "royal_farms", "addr:full": "7250 Milford Harrington Highway", "addr:city": "Harrington", "addr:state": "DE", "addr:postcode": "19952", "addr:country": "US", "phone": "(302) 786-6272", "opening_hours": "24/7", "brand": "Royal Farms", "brand:wikidata": "Q7374169"}},
{"type": "Feature", "id": "9H2O956UBeSTqfoL_5H_JlpHedA=", "properties": {"ref": "117", "amenity:chargingstation": false, "amenity:fuel": true, "fuel:diesel": null, "fuel:e15": null, "fuel:e85": null, "@spider": "royal_farms", "addr:full": "6358 Halltown Road", "addr:city": "Hartly", "addr:state": "DE", "addr:postcode": "19953", "addr:country": "US", "phone": "(302) 786-6271", "opening_hours": "24/7", "brand": "Royal Farms", "brand:wikidata": "Q7374169"}},
{"type": "Feature", "id": "lqI6DLmxGWr7onxI6fbzM2j0SzE=", "properties": {"ref": "114", "amenity:chargingstation": false, "amenity:fuel": true, "fuel:diesel": null, "fuel:e15": null, "fuel:e85": null, "@spider": "royal_farms", "addr:full": "10722 Georgetown Road", "addr:city": "Laurel", "addr:state": "DE", "addr:postcode": "19956", "addr:country": "US", "phone": "(302) 715-7016", "opening_hours": "24/7", "brand": "Royal Farms", "brand:wikidata": "Q7374169"}},
{"type": "Feature", "id": "-_LOhv2wP2HnTWYL_VMp6sZkJGA=", "properties": {"ref": "171", "amenity:chargingstation": false, "amenity:fuel": true, "fuel:diesel": true, "fuel:e15": null, "fuel:e85": null, "@spider": "royal_farms", "addr:full": "30983 Sussex Highway", "addr:city": "Laurel", "addr:state": "DE", "addr:postcode": "19956", "addr:country": "US", "phone": "(302) 715-7017", "opening_hours": "24/7", "brand": "Royal Farms", "brand:wikidata": "Q7374169"}},
{"type": "Feature", "id": "MNgq37gKTmQ8Cp17nQYASIqknGc=", "properties": {"ref": "236", "amenity:chargingstation": false, "amenity:fuel": true, "fuel:diesel": true, "fuel:e15": null, "fuel:e85": null, "@spider": "royal_farms", "addr:full": "840 Middletown Warwick Road", "addr:city": "Middletown", "addr:state": "DE", "addr:postcode": "19709", "addr:country": "US", "phone": "(302) 696-4088", "opening_hours": "24/7", "brand": "Royal Farms", "brand:wikidata": "Q7374169"}},
{"type": "Feature", "id": "6XeQOgwa04uLl8aGY_Rib4NrBO4=", "properties": {"ref": "142", "amenity:chargingstation": false, "amenity:fuel": true, "fuel:diesel": null, "fuel:e15": null, "fuel:e85": null, "@spider": "royal_farms", "addr:full": "108 Silicato Parkway", "addr:city": "Milford", "addr:state": "DE", "addr:postcode": "19963", "addr:country": "US", "phone": "(302) 643-6006", "opening_hours": "24/7", "brand": "Royal Farms", "brand:wikidata": "Q7374169"}},
{"type": "Feature", "id": "9zQMOkBQTDDLMtHfp3KQ2j0a4L0=", "properties": {"ref": "51", "amenity:chargingstation": false, "amenity:fuel": true, "fuel:diesel": null, "fuel:e15": null, "fuel:e85": null, "@spider": "royal_farms", "addr:full": "566 South Dupont Blvd.", "addr:city": "Milford", "addr:state": "DE", "addr:postcode": "19963", "addr:country": "US", "phone": "(302) 696-4086", "opening_hours": "24/7", "brand": "Royal Farms", "brand:wikidata": "Q7374169"}},
{"type": "Feature", "id": "xa3AZeliCz8wRPynyi0-fKhmllU=", "properties": {"ref": "123", "amenity:chargingstation": false, "amenity:fuel": true, "fuel:diesel": null, "fuel:e15": null, "fuel:e85": null, "@spider": "royal_farms", "addr:full": "26672 John J Williams Hwy.", "addr:city": "Millsboro", "addr:state": "DE", "addr:postcode": "19966", "addr:country": "US", "phone": "(302) 927-2947", "opening_hours": "24/7", "brand": "Royal Farms", "brand:wikidata": "Q7374169"}},
{"type": "Feature", "id": "oAsIFyG2XzUnGtg2LAWkI-qV0Os=", "properties": {"ref": "295", "amenity:chargingstation": false, "amenity:fuel": true, "fuel:diesel": null, "fuel:e15": null, "fuel:e85": null, "@spider": "royal_farms", "addr:full": "30217 Commerce Drive", "addr:city": "Millsboro", "addr:state": "DE", "addr:postcode": "19966", "addr:country": "US", "phone": "(302) 316-3050", "opening_hours": "24/7", "brand": "Royal Farms", "brand:wikidata": "Q7374169"}},
{"type": "Feature", "id": "IASzLbvuejQn8q9FarLuADTTfi0=", "properties": {"ref": "349", "amenity:chargingstation": false, "amenity:fuel": true, "fuel:diesel": null, "fuel:e15": null, "fuel:e85": null, "@spider": "royal_farms", "addr:full": "2154 New Castle Avenue", "addr:city": "New Castle", "addr:state": "DE", "addr:postcode": "19720", "addr:country": "US", "phone": "(302) 561-9348", "opening_hours": "24/7", "brand": "Royal Farms", "brand:wikidata": "Q7374169"}},
{"type": "Feature", "id": "zEv0XQ-YnAL3beVtL9n-nWLAe4g=", "properties": {"ref": "197", "amenity:chargingstation": false, "amenity:fuel": true, "fuel:diesel": null, "fuel:e15": null, "fuel:e85": null, "@spider": "royal_farms", "addr:full": "457 Stanton Christiana Rd", "addr:city": "Newark", "addr:state": "DE", "addr:postcode": "19713", "addr:country": "US", "phone": "(302) 409-3992", "opening_hours": "24/7", "brand": "Royal Farms", "brand:wikidata": "Q7374169"}},
{"type": "Feature", "id": "Sfs6F8z6qWaBji0WJip7yJFyMVM=", "properties": {"ref": "99", "amenity:chargingstation": false, "amenity:fuel": true, "fuel:diesel": null, "fuel:e15": null, "fuel:e85": null, "@spider": "royal_farms", "addr:full": "865 Old Baltimore Pike", "addr:city": "Newark", "addr:state": "DE", "addr:postcode": "19702", "addr:country": "US", "phone": "(302) 607-7369", "opening_hours": "24/7", "brand": "Royal Farms", "brand:wikidata": "Q7374169"}},
{"type": "Feature", "id": "8q1na11xaxJWrrsdb3l89No-Xpc=", "properties": {"ref": "160", "amenity:chargingstation": false, "amenity:fuel": true, "fuel:diesel": null, "fuel:e15": null, "fuel:e85": null, "@spider": "royal_farms", "addr:full": "2808 Pulaski Highway", "addr:city": "Newark", "addr:state": "DE", "addr:postcode": "19702", "addr:country": "US", "phone": "(302) 918-6340", "opening_hours": "24/7", "brand": "Royal Farms", "brand:wikidata": "Q7374169"}},
{"type": "Feature", "id": "m3qaH4Bc3Jd3UrOlFC3J1zAGdi0=", "properties": {"ref": "176", "amenity:chargingstation": false, "amenity:fuel": true, "fuel:diesel": null, "fuel:e15": null, "fuel:e85": null, "@spider": "royal_farms", "addr:full": "58 Atlantic Avenue", "addr:city": "Ocean View", "addr:state": "DE", "addr:postcode": "19970", "addr:country": "US", "phone": "(302) 581-6023", "opening_hours": "24/7", "brand": "Royal Farms", "brand:wikidata": "Q7374169"}},
{"type": "Feature", "id": "9hpUpqfrTHxD_jU4GyjYRj3f03M=", "properties": {"ref": "212", "amenity:chargingstation": false, "amenity:fuel": true, "fuel:diesel": null, "fuel:e15": null, "fuel:e85": null, "@spider": "royal_farms", "addr:full": "19791 Coastal Highway", "addr:city": "Rehoboth", "addr:state": "DE", "addr:postcode": "19971", "addr:country": "US", "phone": "(302) 569-6015", "brand": "Royal Farms", "brand:wikidata": "Q7374169"}},
{"type": "Feature", "id": "yyUWpesMyFO2-zac7jCweVQgQ5Q=", "properties": {"ref": "226", "amenity:chargingstation": false, "amenity:fuel": true, "fuel:diesel": null, "fuel:e15": null, "fuel:e85": null, "@spider": "royal_farms", "addr:full": "18904 Coastal Highway", "addr:city": "Rehoboth", "addr:state": "DE", "addr:postcode": "19971", "addr:country": "US", "phone": "(302) 703-4024", "opening_hours": "24/7", "brand": "Royal Farms", "brand:wikidata": "Q7374169"}},
{"type": "Feature", "id": "kA9mdS5pnZCkCzCrDgFCeWbg1G4=", "properties": {"ref": "37", "amenity:chargingstation": false, "amenity:fuel": true, "fuel:diesel": null, "fuel:e15": null, "fuel:e85": null, "@spider": "royal_farms", "addr:full": "427 Rehoboth Avenue", "addr:city": "Rehoboth", "addr:state": "DE", "addr:postcode": "19971", "addr:country": "US", "phone": "(302) 569-6014", "brand": "Royal Farms", "brand:wikidata": "Q7374169"}},
{"type": "Feature", "id": "it5Q7DkLSeq8YvwEHbhKjk4di9g=", "properties": {"ref": "38", "amenity:chargingstation": false, "amenity:fuel": true, "fuel:diesel": null, "fuel:e15": null, "fuel:e85": null, "@spider": "royal_farms", "addr:full": "500 High Street", "addr:city": "Seaford", "addr:state": "DE", "addr:postcode": "19973", "addr:country": "US", "phone": "(302) 536-6098", "opening_hours": "24/7", "brand": "Royal Farms", "brand:wikidata": "Q7374169"}},
{"type": "Feature", "id": "SZfxhbDDQ11UTd9bt3l141VMnt4=", "properties": {"ref": "125", "amenity:chargingstation": false, "amenity:fuel": true, "fuel:diesel": null, "fuel:e15": null, "fuel:e85": null, "@spider": "royal_farms", "addr:full": "8800 Concord Road", "addr:city": "Seaford", "addr:state": "DE", "addr:postcode": "19973", "addr:country": "US", "phone": "(302) 536-6100", "opening_hours": "24/7", "brand": "Royal Farms", "brand:wikidata": "Q7374169"}},
{"type": "Feature", "id": "b-LuHKsfesLkHptu0IFLGpwARKk=", "properties": {"ref": "263", "amenity:chargingstation": false, "amenity:fuel": true, "fuel:diesel": null, "fuel:e15": null, "fuel:e85": null, "@spider": "royal_farms", "addr:full": "36347 Lighthouse Road", "addr:city": "Selbyville", "addr:state": "DE", "addr:postcode": "19975", "addr:country": "US", "phone": "(302) 581-6022", "opening_hours": "24/7", "brand": "Royal Farms", "brand:wikidata": "Q7374169"}},
{"type": "Feature", "id": "MH3bZ8zYJgZulh57cgwAPnJd8Nk=", "properties": {"ref": "337", "amenity:chargingstation": false, "amenity:fuel": true, "fuel:diesel": true, "fuel:e15": null, "fuel:e85": null, "@spider": "royal_farms", "addr:full": "38166 Dupont Blvd.", "addr:city": "Selbyville", "addr:state": "DE", "addr:postcode": "19975", "addr:country": "US", "phone": "302-402-3009", "opening_hours": "24/7", "brand": "Royal Farms", "brand:wikidata": "Q7374169"}},
{"type": "Feature", "id": "crBDPvWLqrbk4w4Gp3tRIR2rPSk=", "properties": {"ref": "146", "amenity:chargingstation": false, "amenity:fuel": true, "fuel:diesel": null, "fuel:e15": null, "fuel:e85": null, "@spider": "royal_farms", "addr:full": "304 N. Dupont Blvd", "addr:city": "Smyrna", "addr:state": "DE", "addr:postcode": "19977", "addr:country": "US", "phone": "(302) 514-6130", "opening_hours": "24/7", "brand": "Royal Farms", "brand:wikidata": "Q7374169"}},
{"type": "Feature", "id": "YrqKC7GM8M3IeMqglGaGBhXNXbk=", "properties": {"ref": "464", "amenity:chargingstation": false, "amenity:fuel": true, "fuel:diesel": null, "fuel:e15": null, "fuel:e85": null, "@spider": "royal_farms", "addr:full": "1031 South Market Street", "addr:city": "Wilmington", "addr:state": "DE", "addr:postcode": "19801", "addr:country": "US", "phone": "302-261-9919", "opening_hours": "24/7", "brand": "Royal Farms", "brand:wikidata": "Q7374169"}},
{"type": "Feature", "id": "iQHx5LQ09oN7q04jqmmXnajuxV8=", "properties": {"ref": "196", "amenity:chargingstation": false, "amenity:fuel": true, "fuel:diesel": null, "fuel:e15": null, "fuel:e85": null, "@spider": "royal_farms", "addr:full": "3701 Kirkwood Highway", "addr:city": "Wilmington", "addr:state": "DE", "addr:postcode": "19808", "addr:country": "US", "phone": "(302) 409-3991", "opening_hours": "24/7", "brand": "Royal Farms", "brand:wikidata": "Q7374169"}}]}