{"type":"FeatureCollection","features":[{"type": "Feature", "id": "9FZcvnE2HHjdVIDLmYwTZkFFooU=", "properties": {"ref": "https://www.sullivanssteakhouse.com/wilmington/", "@spider": "saullivans_steakhouse", "addr:full": "5525 Concord Pike, Wilmington, DE 19803, United States", "addr:street_address": "5525 Concord Pike", "addr:city": "Wilmington", "addr:state": "DE", "addr:postcode": "19803", "addr:country": "US", "name": "Wilmington, DE", "phone": "(302) 479-7970", "website": "https://www.sullivanssteakhouse.com/wilmington/", "brand": "Sullivan's Steakhouse"}, "geometry": {"type": "Point", "coordinates": [-75.54263609999998, 39.8331421]}},
{"type": "Feature", "id": "VCZa90b1I7I5XSPHuiZ98G6fDh0=", "properties": {"ref": "https://www.sullivanssteakhouse.com/tucson/", "@spider": "saullivans_steakhouse", "addr:full": "1785 E River Road, Tucson, AZ 85718, United States", "addr:street_address": "1785 E River Road", "addr:city": "Tucson", "addr:state": "AZ", "addr:postcode": "85718", "addr:country": "US", "name": "Tucson, AZ", "phone": "(520) 299-4275", "website": "https://www.sullivanssteakhouse.com/tucson/", "brand": "Sullivan's Steakhouse"}, "geometry": {"type": "Point", "coordinates": [-110.9457142, 32.2884634]}},
{"type": "Feature", "id": "hvKOtBRoAhVc0HquEPI7KLvQeMU=", "properties": {"ref": "https://www.sullivanssteakhouse.com/raleigh/", "@spider": "saullivans_steakhouse", "addr:full": "410 Glenwood Avenue, Suite 100 Raleigh, NC 27603, United States", "addr:street_address": "410 Glenwood Avenue, Suite 100", "addr:city": "Raleigh", "addr:state": "NC", "addr:postcode": "27603", "addr:country": "US", "name": "Raleigh, NC", "phone": "(919) 833-2888", "website": "https://www.sullivanssteakhouse.com/raleigh/", "brand": "Sullivan's Steakhouse"}, "geometry": {"type": "Point", "coordinates": [-78.64687730000003, 35.785756]}},
{"type": "Feature", "id": "VjRHOxDyC-EXih8DItT4-AcaCZM=", "properties": {"ref": "https://www.sullivanssteakhouse.com/pittsburgh/", "@spider": "saullivans_steakhouse", "addr:full": "600 Grant Street, Lower Lobby, Pittsburgh, PA 15219, United States", "addr:street_address": "600 Grant Street, Lower Lobby", "addr:city": "Pittsburgh", "addr:state": "PA", "addr:postcode": "15219", "addr:country": "US", "name": "Pittsburgh, PA", "phone": "412-775-4000 ", "website": "https://www.sullivanssteakhouse.com/pittsburgh/", "brand": "Sullivan's Steakhouse"}, "geometry": {"type": "Point", "coordinates": [-79.9949158, 40.4410742]}},
{"type": "Feature", "id": "8VT4lyP6VIwJz18X-J_N4dzzjoc=", "properties": {"ref": "https://www.sullivanssteakhouse.com/palm-desert/", "@spider": "saullivans_steakhouse", "addr:full": "73505 El Paseo, Suite 2600 Palm Desert, CA 92260, United States", "addr:street_address": "73505 El Paseo, Suite 2600", "addr:city": "Palm Desert", "addr:state": "CA", "addr:postcode": "92260", "addr:country": "US", "name": "Palm Desert, CA", "phone": "(760) 341-3560", "website": "https://www.sullivanssteakhouse.com/palm-desert/", "brand": "Sullivan's Steakhouse"}, "geometry": {"type": "Point", "coordinates": [-116.38046859999997, 33.7196382]}},
{"type": "Feature", "id": "QepH9r0Gyxdb6sgV-fSmXyK1n_w=", "properties": {"ref": "https://www.sullivanssteakhouse.com/omaha/", "@spider": "saullivans_steakhouse", "addr:full": "222 S 15th Street, Suite 152 S., Omaha, NE 68102, United States", "addr:street_address": "222 S 15th Street, Suite 152 S.", "addr:city": "Omaha", "addr:state": "NE", "addr:postcode": "68102", "addr:country": "US", "name": "Omaha, NE", "phone": "(402) 342-0077", "website": "https://www.sullivanssteakhouse.com/omaha/", "brand": "Sullivan's Steakhouse"}, "geometry": {"type": "Point", "coordinates": [-95.9362616, 41.2583767]}},
{"type": "Feature", "id": "BcGW8avPDCO_e1RBtF-cfCO8e7I=", "properties": {"ref": "https://www.sullivanssteakhouse.com/naperville/", "@spider": "saullivans_steakhouse", "addr:full": "244 S Main Street, Naperville, IL 60540, United States", "addr:street_address": "244 S Main Street", "addr:city": "Naperville", "addr:state": "IL", "addr:postcode": "60540", "addr:country": "US", "name": "Naperville, IL", "phone": "(630) 305-0230", "website": "https://www.sullivanssteakhouse.com/naperville/", "brand": "Sullivan's Steakhouse"}, "geometry": {"type": "Point", "coordinates": [-88.1491906, 41.7716772]}},
{"type": "Feature", "id": "ty62_wLkS7kVRXkAHl9-RBxKYs8=", "properties": {"ref": "https://www.sullivanssteakhouse.com/little-rock/", "@spider": "saullivans_steakhouse", "addr:full": "17707 Chenal Parkway, Little Rock, AR 72223, United States", "addr:street_address": "17707 Chenal Parkway", "addr:city": "Little Rock", "addr:state": "AR", "addr:postcode": "72223", "addr:country": "US", "name": "Little Rock, AR", "phone": "(501) 817-3971", "website": "https://www.sullivanssteakhouse.com/little-rock/", "brand": "Sullivan's Steakhouse"}, "geometry": {"type": "Point", "coordinates": [-92.4573626, 34.7672038]}},
{"type": "Feature", "id": "-qcyAeLhJg4Idt3QBoPpprZHfaA=", "properties": {"ref": "https://www.sullivanssteakhouse.com/leawood/", "@spider": "saullivans_steakhouse", "addr:full": "4501 West 119th St, Leawood, KS 66209, United States", "addr:street_address": "4501 West 119th St", "addr:city": "Leawood", "addr:state": "KS", "addr:postcode": "66209", "addr:country": "US", "name": "Leawood, KS", "phone": "(913) 345-0800", "website": "https://www.sullivanssteakhouse.com/leawood/", "brand": "Sullivan's Steakhouse"}, "geometry": {"type": "Point", "coordinates": [-94.63740769999998, 38.91240020000001]}},
{"type": "Feature", "id": "V3kyk0SM8a1MB3JGsGR89PvZsCo=", "properties": {"ref": "https://www.sullivanssteakhouse.com/king-of-prussia/", "@spider": "saullivans_steakhouse", "addr:full": "700 W Dekalb Pike, King of Prussia, PA 19406, United States", "addr:street_address": "700 W Dekalb Pike", "addr:city": "King of Prussia", "addr:state": "PA", "addr:postcode": "19406", "addr:country": "US", "name": "King of Prussia, PA", "phone": "(610) 878-9025", "website": "https://www.sullivanssteakhouse.com/king-of-prussia/", "brand": "Sullivan's Steakhouse"}, "geometry": {"type": "Point", "coordinates": [-75.38680520000003, 40.0867096]}},
{"type": "Feature", "id": "tE9n1K1J1MMcUYJjDtFUEN4xC7k=", "properties": {"ref": "https://www.sullivanssteakhouse.com/indianapolis/", "@spider": "saullivans_steakhouse", "addr:full": "3316 E 86th Indianapolis, IN 46240, United States", "addr:street_address": "3316 E 86th", "addr:city": "Indianapolis", "addr:state": "IN", "addr:postcode": "46240", "addr:country": "US", "name": "Indianapolis, IN", "phone": "(317) 580-1280", "website": "https://www.sullivanssteakhouse.com/indianapolis/", "brand": "Sullivan's Steakhouse"}, "geometry": {"type": "Point", "coordinates": [-86.11048549999998, 39.9129555]}},
{"type": "Feature", "id": "mSUsjSCMNtvr5-lEw7kGRTxwhuE=", "properties": {"ref": "https://www.sullivanssteakhouse.com/charlotte/", "@spider": "saullivans_steakhouse", "addr:full": "1928 South Boulevard, Suite 200, Charlotte, NC 28203, USA, United States", "addr:street_address": "1928 South Boulevard, Suite 200, ,28203", "addr:city": "Charlotte", "addr:state": "NC", "addr:postcode": "USA", "addr:country": "US", "name": "Charlotte, NC", "phone": "(704) 335-8228", "website": "https://www.sullivanssteakhouse.com/charlotte/", "brand": "Sullivan's Steakhouse"}, "geometry": {"type": "Point", "coordinates": [-80.86004, 35.21028]}},
{"type": "Feature", "id": "JyUvywk9D3qHIavMctZyfw0Gje8=", "properties": {"ref": "https://www.sullivanssteakhouse.com/baton-rouge/", "@spider": "saullivans_steakhouse", "addr:full": "5252 Corporate Blvd Baton Rouge, LA 70808, United States", "addr:street_address": "5252 Corporate Blvd", "addr:city": "Baton Rouge", "addr:state": "LA", "addr:postcode": "70808", "addr:country": "US", "name": "Baton Rouge, LA", "phone": "(225) 925-1161", "website": "https://www.sullivanssteakhouse.com/baton-rouge/", "brand": "Sullivan's Steakhouse"}, "geometry": {"type": "Point", "coordinates": [-91.13608199999999, 30.4239577]}},
{"type": "Feature", "id": "NOY2-r1x1KwRnXOFhC-Qtjw0UiM=", "properties": {"ref": "https://www.sullivanssteakhouse.com/anchorage/", "@spider": "saullivans_steakhouse", "addr:full": "320 W 5th Ave, Anchorage, AK 99501, United States", "addr:street_address": "320 W 5th Ave", "addr:city": "Anchorage", "addr:state": "AK", "addr:postcode": "99501", "addr:country": "US", "name": "Anchorage, AK", "phone": "(907) 258-2882", "website": "https://www.sullivanssteakhouse.com/anchorage/", "brand": "Sullivan's Steakhouse"}, "geometry": {"type": "Point", "coordinates": [-149.88979080000001, 61.21708869999999]}}]}