{"type":"FeatureCollection","features":[{"type": "Feature", "id": "Y4tSVtpIakDC9kW65q-rpxvbNEs=", "properties": {"ref": "https://locations.schlotzskys.com/#3192203263386056315", "@spider": "schlotzskys", "amenity": "fast_food", "cuisine": "sandwich", "takeaway": "yes", "addr:state": "IL", "addr:postcode": "60564", "name": "Schlotzsky's", "phone": "(630) 536-8189", "website": "https://locations.schlotzskys.com/il/naperville/3056-anna-marie-lane", "opening_hours": "Mo-Fr 06:30-21:00; Sa 07:00-21:00; Su 07:00-19:30", "brand": "Schlotzsky's", "brand:wikidata": "Q2244796", "nsi_id": "schlotzskys-4d2ff4"}, "geometry": {"type": "Point", "coordinates": [-88.2078600961708, 41.710219565245815]}},
{"type": "Feature", "id": "QXn6to3Xv1TdNnTZ9dGfz5lxwT4=", "properties": {"ref": "https://locations.schlotzskys.com/#81483", "@spider": "schlotzskys", "amenity": "fast_food", "cuisine": "sandwich", "takeaway": "yes", "addr:state": "AK", "addr:postcode": "99801", "name": "Schlotzsky's", "phone": "(888) 555-1234", "website": "https://locations.schlotzskys.com/ak/juneau/8505-old-dairy-road", "opening_hours": "24/7", "brand": "Schlotzsky's", "brand:wikidata": "Q2244796", "nsi_id": "schlotzskys-4d2ff4"}, "geometry": {"type": "Point", "coordinates": [-134.57287280465667, 58.36206672120954]}},
{"type": "Feature", "id": "xOtKaRG5z7aZtt_GuQjyfxFBfwA=", "properties": {"ref": "https://locations.schlotzskys.com/#2433", "@spider": "schlotzskys", "amenity": "fast_food", "cuisine": "sandwich", "takeaway": "yes", "addr:state": "OR", "addr:postcode": "97701", "name": "Schlotzsky's", "phone": "(541) 317-5980", "website": "https://locations.schlotzskys.com/or/bend/62080-ne-27th-street", "opening_hours": "Mo-Su 09:00-21:00", "brand": "Schlotzsky's", "brand:wikidata": "Q2244796", "nsi_id": "schlotzskys-4d2ff4"}, "geometry": {"type": "Point", "coordinates": [-121.26313444601536, 44.05431755306179]}},
{"type": "Feature", "id": "vzty-U05_e6DU_H9Jfmc1wVOlgs=", "properties": {"ref": "https://locations.schlotzskys.com/#2397", "@spider": "schlotzskys", "amenity": "fast_food", "cuisine": "sandwich", "takeaway": "yes", "addr:state": "OH", "addr:postcode": "43537", "name": "Schlotzsky's", "phone": "(419) 893-9266", "website": "https://locations.schlotzskys.com/oh/maumee/1419-reynolds-road", "opening_hours": "Mo-Su 11:00-22:00", "brand": "Schlotzsky's", "brand:wikidata": "Q2244796", "nsi_id": "schlotzskys-4d2ff4"}, "geometry": {"type": "Point", "coordinates": [-83.66559314293777, 41.582891311814855]}},
{"type": "Feature", "id": "SasppCC1LvDZtImvWv-5m07nV10=", "properties": {"ref": "https://locations.schlotzskys.com/#2891", "@spider": "schlotzskys", "amenity": "fast_food", "cuisine": "sandwich", "takeaway": "yes", "addr:state": "WY", "addr:postcode": "82636", "name": "Schlotzsky's", "phone": "(307) 473-8589", "website": "https://locations.schlotzskys.com/wy/evansville/6985-nugget", "opening_hours": "Mo-Su 07:00-21:00", "brand": "Schlotzsky's", "brand:wikidata": "Q2244796", "nsi_id": "schlotzskys-4d2ff4"}, "geometry": {"type": "Point", "coordinates": [-106.2152778, 42.8469444]}},
{"type": "Feature", "id": "ZmBRy63ii4F_2aGsR6Brb1J15fc=", "properties": {"ref": "https://locations.schlotzskys.com/#2165", "@spider": "schlotzskys", "amenity": "fast_food", "cuisine": "sandwich", "takeaway": "yes", "addr:state": "AL", "addr:postcode": "36106", "name": "Schlotzsky's", "phone": "(334) 409-9993", "website": "https://locations.schlotzskys.com/al/montgomery/5055-carmichael-rd", "opening_hours": "Mo-Su 10:00-20:00", "brand": "Schlotzsky's", "brand:wikidata": "Q2244796", "nsi_id": "schlotzskys-4d2ff4"}, "geometry": {"type": "Point", "coordinates": [-86.21925067546448, 32.36015287586416]}},
{"type": "Feature", "id": "o7VxJ_ZyB3uQTdwM9cVyX7gPg68=", "properties": {"ref": "https://locations.schlotzskys.com/#2161", "@spider": "schlotzskys", "amenity": "fast_food", "cuisine": "sandwich", "takeaway": "yes", "addr:state": "AL", "addr:postcode": "35758", "name": "Schlotzsky's", "phone": "(256) 464-5300", "website": "https://locations.schlotzskys.com/al/madison/8969-highway-20", "opening_hours": "Mo-Su 10:30-21:00", "brand": "Schlotzsky's", "brand:wikidata": "Q2244796", "nsi_id": "schlotzskys-4d2ff4"}, "geometry": {"type": "Point", "coordinates": [-86.7532359246638, 34.67542938472526]}},
{"type": "Feature", "id": "6clafpZ3Y5SYM6g2bj_t_DAn-ZM=", "properties": {"ref": "https://locations.schlotzskys.com/#2309", "@spider": "schlotzskys", "amenity": "fast_food", "cuisine": "sandwich", "takeaway": "yes", "addr:state": "KY", "addr:postcode": "42171", "name": "Schlotzsky's", "phone": "(270) 563-5250", "website": "https://locations.schlotzskys.com/ky/smiths-grove/619-s-main-street", "opening_hours": "Mo-Su 06:00-21:00", "brand": "Schlotzsky's", "brand:wikidata": "Q2244796", "nsi_id": "schlotzskys-4d2ff4"}, "geometry": {"type": "Point", "coordinates": [-86.21005745014031, 37.043928454952415]}},
{"type": "Feature", "id": "2FCUrY2b3JUFJ4JAmspTwxTMURg=", "properties": {"ref": "https://locations.schlotzskys.com/#2261", "@spider": "schlotzskys", "amenity": "fast_food", "cuisine": "sandwich", "takeaway": "yes", "addr:state": "GA", "addr:postcode": "30188", "name": "Schlotzsky's", "phone": "(770) 591-5875", "website": "https://locations.schlotzskys.com/ga/woodstock/9040-hwy-92", "opening_hours": "Mo-Sa 11:00-21:00; Su 11:00-20:00", "brand": "Schlotzsky's", "brand:wikidata": "Q2244796", "nsi_id": "schlotzskys-4d2ff4"}, "geometry": {"type": "Point", "coordinates": [-84.53865550502042, 34.08476163590192]}},
{"type": "Feature", "id": "0X48_ZpZUvw41WJEYmkA-olPaZg=", "properties": {"ref": "https://locations.schlotzskys.com/#2241", "@spider": "schlotzskys", "amenity": "fast_food", "cuisine": "sandwich", "takeaway": "yes", "addr:state": "CO", "addr:postcode": "80112", "name": "Schlotzsky's", "phone": "(720) 266-5200", "website": "https://locations.schlotzskys.com/co/greenwood-village/9624-east-arapahoe-road", "opening_hours": "Mo-Sa 10:00-20:00; Su 10:00-16:00", "brand": "Schlotzsky's", "brand:wikidata": "Q2244796", "nsi_id": "schlotzskys-4d2ff4"}, "geometry": {"type": "Point", "coordinates": [-104.87781543078067, 39.59466439087386]}},
{"type": "Feature", "id": "3MQJUoBwERjks7bNYIdmj8V02Eg=", "properties": {"ref": "https://locations.schlotzskys.com/#2177", "@spider": "schlotzskys", "amenity": "fast_food", "cuisine": "sandwich", "takeaway": "yes", "addr:state": "AR", "addr:postcode": "71854", "name": "Schlotzsky's", "phone": "(870) 772-0277", "website": "https://locations.schlotzskys.com/ar/texarkana/129-arkansas-blvd", "opening_hours": "Mo-Su 10:00-20:00", "brand": "Schlotzsky's", "brand:wikidata": "Q2244796", "nsi_id": "schlotzskys-4d2ff4"}, "geometry": {"type": "Point", "coordinates": [-94.04091199325546, 33.46054972830602]}},
{"type": "Feature", "id": "7cLUWbxZhSJhvDoC1UhyDkyYWYw=", "properties": {"ref": "https://locations.schlotzskys.com/#2195", "@spider": "schlotzskys", "amenity": "fast_food", "cuisine": "sandwich", "takeaway": "yes", "addr:state": "AZ", "addr:postcode": "85706", "name": "Schlotzsky's", "phone": "(520) 741-2333", "website": "https://locations.schlotzskys.com/az/tucson/3270-e-valencia", "opening_hours": "Mo-Su 09:00-21:00", "brand": "Schlotzsky's", "brand:wikidata": "Q2244796", "nsi_id": "schlotzskys-4d2ff4"}, "geometry": {"type": "Point", "coordinates": [-110.9223922199966, 32.13363079024867]}},
{"type": "Feature", "id": "NN_WuSDOYbJw-uhZwULXrxERTv4=", "properties": {"ref": "https://locations.schlotzskys.com/#2207", "@spider": "schlotzskys", "amenity": "fast_food", "cuisine": "sandwich", "takeaway": "yes", "addr:state": "AZ", "addr:postcode": "85282", "name": "Schlotzsky's", "phone": "(480) 966-7672", "website": "https://locations.schlotzskys.com/az/tempe/1401-west-southern-ave", "opening_hours": "Mo-Fr 07:00-21:00; Sa-Su 09:00-21:00", "brand": "Schlotzsky's", "brand:wikidata": "Q2244796", "nsi_id": "schlotzskys-4d2ff4"}, "geometry": {"type": "Point", "coordinates": [-111.96115888495588, 33.39237096965939]}},
{"type": "Feature", "id": "UKp86n7wwq87OKI5x-1fqmQ0Ekc=", "properties": {"ref": "https://locations.schlotzskys.com/#8635", "@spider": "schlotzskys", "amenity": "fast_food", "cuisine": "sandwich", "takeaway": "yes", "addr:state": "TN", "addr:postcode": "37122", "name": "Schlotzsky's", "phone": "(615) 553-2494", "website": "https://locations.schlotzskys.com/tn/mt.-juliet/30-old-pleasant-grove-rd", "opening_hours": "We-Su 11:00-16:00", "brand": "Schlotzsky's", "brand:wikidata": "Q2244796", "nsi_id": "schlotzskys-4d2ff4"}, "geometry": {"type": "Point", "coordinates": [-86.51425615070903, 36.174896778023815]}},
{"type": "Feature", "id": "grrKK0Ru_G5ebV7oq1wO3-d34N4=", "properties": {"ref": "https://locations.schlotzskys.com/#2441", "@spider": "schlotzskys", "amenity": "fast_food", "cuisine": "sandwich", "takeaway": "yes", "addr:state": "SC", "addr:postcode": "29678", "name": "Schlotzsky's", "phone": "(864) 885-9800", "website": "https://locations.schlotzskys.com/sc/seneca/1598-sandifer-blvd", "opening_hours": "Mo-Sa 10:30-21:00; Su 11:00-21:00", "brand": "Schlotzsky's", "brand:wikidata": "Q2244796", "nsi_id": "schlotzskys-4d2ff4"}, "geometry": {"type": "Point", "coordinates": [-82.99229515205988, 34.691110069729454]}},
{"type": "Feature", "id": "lnzPIFpG5UTRkyin0oCYizLlbLA=", "properties": {"ref": "https://locations.schlotzskys.com/#2445", "@spider": "schlotzskys", "amenity": "fast_food", "cuisine": "sandwich", "takeaway": "yes", "addr:state": "SC", "addr:postcode": "29650", "name": "Schlotzsky's", "phone": "(864) 234-1449", "website": "https://locations.schlotzskys.com/sc/greer/103-old-boiling-springs-road", "opening_hours": "Mo-Fr 08:30-21:00; Sa-Su 09:00-21:00", "brand": "Schlotzsky's", "brand:wikidata": "Q2244796", "nsi_id": "schlotzskys-4d2ff4"}, "geometry": {"type": "Point", "coordinates": [-82.26628732217942, 34.86068554231984]}},
{"type": "Feature", "id": "a3X7swR1HHyxfpER5VZyE-4RX_E=", "properties": {"ref": "https://locations.schlotzskys.com/#8343", "@spider": "schlotzskys", "amenity": "fast_food", "cuisine": "sandwich", "takeaway": "yes", "addr:state": "OK", "addr:postcode": "73099", "name": "Schlotzsky's", "phone": "(405) 467-4793", "website": "https://locations.schlotzskys.com/ok/yukon/12860-nw-10th-st", "opening_hours": "Mo-Su 10:30-21:00", "brand": "Schlotzsky's", "brand:wikidata": "Q2244796", "nsi_id": "schlotzskys-4d2ff4"}, "geometry": {"type": "Point", "coordinates": [-97.75852237760088, 35.478513128502584]}},
{"type": "Feature", "id": "IkqQhYrtyoz8Ftkv9x-4bfusJkE=", "properties": {"ref": "https://locations.schlotzskys.com/#3579993105913983023", "@spider": "schlotzskys", "amenity": "fast_food", "cuisine": "sandwich", "takeaway": "yes", "addr:state": "OK", "addr:postcode": "74464", "name": "Schlotzsky's", "phone": "(918) 414-5170", "website": "https://locations.schlotzskys.com/ok/tahlequah/3430-s-muskogee-ave", "opening_hours": "Mo-Su 10:00-21:00", "brand": "Schlotzsky's", "brand:wikidata": "Q2244796", "nsi_id": "schlotzskys-4d2ff4"}, "geometry": {"type": "Point", "coordinates": [-94.977237, 35.875906]}},
{"type": "Feature", "id": "d8O3yngc2tOf6hP7ID3BeGKToGU=", "properties": {"ref": "https://locations.schlotzskys.com/#2419", "@spider": "schlotzskys", "amenity": "fast_food", "cuisine": "sandwich", "takeaway": "yes", "addr:state": "OK", "addr:postcode": "74075", "name": "Schlotzsky's", "phone": "(405) 624-0807", "website": "https://locations.schlotzskys.com/ok/stillwater/310-north-perkins-road", "opening_hours": "Mo-Th 10:30-21:00; Fr-Sa 10:30-22:00; Su 10:30-21:00", "brand": "Schlotzsky's", "brand:wikidata": "Q2244796", "nsi_id": "schlotzskys-4d2ff4"}, "geometry": {"type": "Point", "coordinates": [-97.05202974656065, 36.12591856758755]}},
{"type": "Feature", "id": "PjnTE1GDMmtWzIDRpB4O1A0peb0=", "properties": {"ref": "https://locations.schlotzskys.com/#8027", "@spider": "schlotzskys", "amenity": "fast_food", "cuisine": "sandwich", "takeaway": "yes", "addr:state": "OK", "addr:postcode": "74804", "name": "Schlotzsky's", "phone": "(405) 788-4837", "website": "https://locations.schlotzskys.com/ok/shawnee/4020-n-kickapoo-st", "opening_hours": "Mo-Su 10:30-20:30", "brand": "Schlotzsky's", "brand:wikidata": "Q2244796", "nsi_id": "schlotzskys-4d2ff4"}, "geometry": {"type": "Point", "coordinates": [-96.93020832745586, 35.37431827090745]}},
{"type": "Feature", "id": "4H14WCIn3PndpsgcU17-RQmyEgU=", "properties": {"ref": "https://locations.schlotzskys.com/#6231228411847281328", "@spider": "schlotzskys", "amenity": "fast_food", "cuisine": "sandwich", "takeaway": "yes", "addr:state": "OK", "addr:postcode": "74063", "name": "Schlotzsky's", "phone": "(918) 246-7255", "website": "https://locations.schlotzskys.com/ok/sand-springs/141-w-alexander-blvd", "opening_hours": "Mo-Su 10:00-21:00", "brand": "Schlotzsky's", "brand:wikidata": "Q2244796", "nsi_id": "schlotzskys-4d2ff4"}, "geometry": {"type": "Point", "coordinates": [-96.1139671, 36.1349623]}},
{"type": "Feature", "id": "g8dxwTZGOs9QdlXpHApUloe_hG4=", "properties": {"ref": "https://locations.schlotzskys.com/#2423", "@spider": "schlotzskys", "amenity": "fast_food", "cuisine": "sandwich", "takeaway": "yes", "addr:state": "OK", "addr:postcode": "74601", "name": "Schlotzsky's", "phone": "(580) 749-5246", "website": "https://locations.schlotzskys.com/ok/ponca-city/813-e-prospect-ave", "opening_hours": "Mo-Th 10:30-21:00; Fr-Sa 10:30-22:00; Su 10:30-21:00", "brand": "Schlotzsky's", "brand:wikidata": "Q2244796", "nsi_id": "schlotzskys-4d2ff4"}, "geometry": {"type": "Point", "coordinates": [-97.07342215636343, 36.73896933452832]}},
{"type": "Feature", "id": "QyUFGpee3RHnMEwVDtuSASoHKns=", "properties": {"ref": "https://locations.schlotzskys.com/#8401", "@spider": "schlotzskys", "amenity": "fast_food", "cuisine": "sandwich", "takeaway": "yes", "addr:state": "OK", "addr:postcode": "74055", "name": "Schlotzsky's", "phone": "(918) 928-4577", "website": "https://locations.schlotzskys.com/ok/owasso/9495-n-owasso-expressway", "opening_hours": "Mo-Su 10:00-21:00", "brand": "Schlotzsky's", "brand:wikidata": "Q2244796", "nsi_id": "schlotzskys-4d2ff4"}, "geometry": {"type": "Point", "coordinates": [-95.83423007792658, 36.29127488309188]}},
{"type": "Feature", "id": "zM2JrFTYLSRirjVURGey3ohc-Es=", "properties": {"ref": "https://locations.schlotzskys.com/#7663", "@spider": "schlotzskys", "amenity": "fast_food", "cuisine": "sandwich", "takeaway": "yes", "addr:state": "OK", "addr:postcode": "73071", "name": "Schlotzsky's", "phone": "(405) 310-2061", "website": "https://locations.schlotzskys.com/ok/norman/1000-alameda-st", "opening_hours": "Mo-Th 10:00-21:00; Fr-Sa 10:00-22:00; Su 10:00-21:00", "brand": "Schlotzsky's", "brand:wikidata": "Q2244796", "nsi_id": "schlotzskys-4d2ff4"}, "geometry": {"type": "Point", "coordinates": [-97.42585146549047, 35.21794110099093]}},
{"type": "Feature", "id": "N7lTqNcdszz18IJr3st4DBXTUn4=", "properties": {"ref": "https://locations.schlotzskys.com/#7649623038257164089", "@spider": "schlotzskys", "amenity": "fast_food", "cuisine": "sandwich", "takeaway": "yes", "addr:state": "OK", "addr:postcode": "73064", "name": "Schlotzsky's", "phone": "(405) 256-6083", "website": "https://locations.schlotzskys.com/ok/mustang/737-east-state-highway-152", "opening_hours": "Mo-Su 10:00-21:00", "brand": "Schlotzsky's", "brand:wikidata": "Q2244796", "nsi_id": "schlotzskys-4d2ff4"}, "geometry": {"type": "Point", "coordinates": [-97.70950367375065, 35.39205615777113]}},
{"type": "Feature", "id": "hfcVDUEHdbGxDssXWpfXkw4arAg=", "properties": {"ref": "https://locations.schlotzskys.com/#2407", "@spider": "schlotzskys", "amenity": "fast_food", "cuisine": "sandwich", "takeaway": "yes", "addr:state": "OK", "addr:postcode": "73160", "name": "Schlotzsky's", "phone": "(405) 703-8400", "website": "https://locations.schlotzskys.com/ok/moore/631-sw-19th-street", "opening_hours": "Mo-Th 10:00-21:00; Fr-Sa 10:00-22:00; Su 10:00-21:00", "brand": "Schlotzsky's", "brand:wikidata": "Q2244796", "nsi_id": "schlotzskys-4d2ff4"}, "geometry": {"type": "Point", "coordinates": [-97.49766124725608, 35.320232116748635]}},
{"type": "Feature", "id": "Ca5Ro3bsLISARS5VYbPGqzfV0mI=", "properties": {"ref": "https://locations.schlotzskys.com/#2413", "@spider": "schlotzskys", "amenity": "fast_food", "cuisine": "sandwich", "takeaway": "yes", "addr:state": "OK", "addr:postcode": "73110", "name": "Schlotzsky's", "phone": "(405) 455-5989", "website": "https://locations.schlotzskys.com/ok/midwest-city/2400-s-air-depot", "opening_hours": "Mo-Th 10:00-21:00; Fr-Sa 10:00-22:00; Su 10:00-21:00", "brand": "Schlotzsky's", "brand:wikidata": "Q2244796", "nsi_id": "schlotzskys-4d2ff4"}, "geometry": {"type": "Point", "coordinates": [-97.40570398834323, 35.439898324932756]}},
{"type": "Feature", "id": "0Ag1ipP0olH4A0GB0grtWbzsr-o=", "properties": {"ref": "https://locations.schlotzskys.com/#2403", "@spider": "schlotzskys", "amenity": "fast_food", "cuisine": "sandwich", "takeaway": "yes", "addr:state": "OK", "addr:postcode": "73703", "name": "Schlotzsky's", "phone": "(580) 234-5059", "website": "https://locations.schlotzskys.com/ok/enid/5229-w-owen-k-garriott-rd", "opening_hours": "Mo-Fr 10:30-21:00; Sa-Su 10:30-22:00", "brand": "Schlotzsky's", "brand:wikidata": "Q2244796", "nsi_id": "schlotzskys-4d2ff4"}, "geometry": {"type": "Point", "coordinates": [-97.94325066765825, 36.3902969119077]}},
{"type": "Feature", "id": "qEikoSnq6-Dbs7D75Y4EanSjK3o=", "properties": {"ref": "https://locations.schlotzskys.com/#2409", "@spider": "schlotzskys", "amenity": "fast_food", "cuisine": "sandwich", "takeaway": "yes", "addr:state": "OK", "addr:postcode": "74012", "name": "Schlotzsky's", "phone": "(918) 258-7878", "website": "https://locations.schlotzskys.com/ok/broken-arrow/1250-e-kenosha", "opening_hours": "Mo-Su 10:00-22:00", "brand": "Schlotzsky's", "brand:wikidata": "Q2244796", "nsi_id": "schlotzskys-4d2ff4"}, "geometry": {"type": "Point", "coordinates": [-95.77586923420175, 36.061444629938656]}},
{"type": "Feature", "id": "edCIY4Oq5JfqkrsZq3DmJKuc4uo=", "properties": {"ref": "https://locations.schlotzskys.com/#5292714140434660286", "@spider": "schlotzskys", "amenity": "fast_food", "cuisine": "sandwich", "takeaway": "yes", "addr:state": "OK", "addr:postcode": "74006", "name": "Schlotzsky's", "phone": "(539) 529-8009", "website": "https://locations.schlotzskys.com/ok/bartlesville/3813-e-frank-phillips-blvd", "opening_hours": "Mo-Su 10:00-22:00", "brand": "Schlotzsky's", "brand:wikidata": "Q2244796", "nsi_id": "schlotzskys-4d2ff4"}, "geometry": {"type": "Point", "coordinates": [-95.934331, 36.750125]}},
{"type": "Feature", "id": "mofvMUBBMls8PlkLzzGH6rN4EAk=", "properties": {"ref": "https://locations.schlotzskys.com/#2435", "@spider": "schlotzskys", "amenity": "fast_food", "cuisine": "sandwich", "takeaway": "yes", "addr:state": "SC", "addr:postcode": "29501", "name": "Schlotzsky's", "phone": "(843) 673-0777", "website": "https://locations.schlotzskys.com/sc/florence/1935-west-palmetto-street", "opening_hours": "Mo-Su 10:30-21:00", "brand": "Schlotzsky's", "brand:wikidata": "Q2244796", "nsi_id": "schlotzskys-4d2ff4"}, "geometry": {"type": "Point", "coordinates": [-79.80769078529318, 34.18857179063713]}},
{"type": "Feature", "id": "TFetd-kxvoqEKguGC13voqVIIbU=", "properties": {"ref": "https://locations.schlotzskys.com/#2439", "@spider": "schlotzskys", "amenity": "fast_food", "cuisine": "sandwich", "takeaway": "yes", "addr:state": "SC", "addr:postcode": "29210", "name": "Schlotzsky's", "phone": "(803) 798-1775", "website": "https://locations.schlotzskys.com/sc/columbia/529-bush-river-road", "opening_hours": "Mo-Su 10:30-21:00", "brand": "Schlotzsky's", "brand:wikidata": "Q2244796", "nsi_id": "schlotzskys-4d2ff4"}, "geometry": {"type": "Point", "coordinates": [-81.09635333383616, 34.030960992549566]}},
{"type": "Feature", "id": "_wOfQPCtUM5I5mW0xRsaBt5s1hI=", "properties": {"ref": "https://locations.schlotzskys.com/#2443", "@spider": "schlotzskys", "amenity": "fast_food", "cuisine": "sandwich", "takeaway": "yes", "addr:state": "SC", "addr:postcode": "29406", "name": "Schlotzsky's", "phone": "(843) 554-7600", "website": "https://locations.schlotzskys.com/sc/charleston/6116-rivers-avenue", "opening_hours": "Mo-Fr 10:00-20:30; Sa 10:30-20:00", "brand": "Schlotzsky's", "brand:wikidata": "Q2244796", "nsi_id": "schlotzskys-4d2ff4"}, "geometry": {"type": "Point", "coordinates": [-80.02123551228516, 32.90689259290902]}},
{"type": "Feature", "id": "ttpNEpVCN8N3_RnfsOZYUDe--iM=", "properties": {"ref": "https://locations.schlotzskys.com/#2447", "@spider": "schlotzskys", "amenity": "fast_food", "cuisine": "sandwich", "takeaway": "yes", "addr:state": "SC", "addr:postcode": "29033", "name": "Schlotzsky's", "phone": "(803) 828-4520", "website": "https://locations.schlotzskys.com/sc/cayce/1305-knox-abbott-dr", "opening_hours": "Mo-Su 10:30-21:00", "brand": "Schlotzsky's", "brand:wikidata": "Q2244796", "nsi_id": "schlotzskys-4d2ff4"}, "geometry": {"type": "Point", "coordinates": [-81.07313537607477, 33.97759095162826]}},
{"type": "Feature", "id": "xWCzuZCji10MBuJxyd9TrinUnpM=", "properties": {"ref": "https://locations.schlotzskys.com/#2437", "@spider": "schlotzskys", "amenity": "fast_food", "cuisine": "sandwich", "takeaway": "yes", "addr:state": "SC", "addr:postcode": "29621", "name": "Schlotzsky's", "phone": "(864) 328-9851", "website": "https://locations.schlotzskys.com/sc/anderson/603-east-greenville-st", "opening_hours": "Mo-Fr 09:00-21:00; Sa-Su 11:00-21:00", "brand": "Schlotzsky's", "brand:wikidata": "Q2244796", "nsi_id": "schlotzskys-4d2ff4"}, "geometry": {"type": "Point", "coordinates": [-82.64790607288771, 34.51366158265931]}},
{"type": "Feature", "id": "_8_rnJ3dD4zATx9tYUwOPbIscaw=", "properties": {"ref": "https://locations.schlotzskys.com/#2451", "@spider": "schlotzskys", "amenity": "fast_food", "cuisine": "sandwich", "takeaway": "yes", "addr:state": "TN", "addr:postcode": "38117", "name": "Schlotzsky's", "phone": "(901) 763-0741", "website": "https://locations.schlotzskys.com/tn/memphis/4758-poplar-avenue", "opening_hours": "Mo-Sa 10:30-20:00; Su 10:30-16:00", "brand": "Schlotzsky's", "brand:wikidata": "Q2244796", "nsi_id": "schlotzskys-4d2ff4"}, "geometry": {"type": "Point", "coordinates": [-89.90357094241715, 35.11552166350096]}},
{"type": "Feature", "id": "dX7Xo-d7ZkmThn4pyALe6oq-HeQ=", "properties": {"ref": "https://locations.schlotzskys.com/#2449", "@spider": "schlotzskys", "amenity": "fast_food", "cuisine": "sandwich", "takeaway": "yes", "addr:state": "TN", "addr:postcode": "37067", "name": "Schlotzsky's", "phone": "(615) 778-0100", "website": "https://locations.schlotzskys.com/tn/franklin/1708-galleria-blvd", "opening_hours": "Mo-Fr 10:30-20:00; Sa-Su 11:00-21:00", "brand": "Schlotzsky's", "brand:wikidata": "Q2244796", "nsi_id": "schlotzskys-4d2ff4"}, "geometry": {"type": "Point", "coordinates": [-86.81052719447884, 35.96605115905415]}},
{"type": "Feature", "id": "qQA02YdPjVAniGke66QtN-5cAYg=", "properties": {"ref": "https://locations.schlotzskys.com/#2197", "@spider": "schlotzskys", "amenity": "fast_food", "cuisine": "sandwich", "takeaway": "yes", "addr:state": "AZ", "addr:postcode": "85635", "name": "Schlotzsky's", "phone": "(520) 458-4022", "website": "https://locations.schlotzskys.com/az/sierra-vista/3900-e-fry-blvd", "opening_hours": "Mo-Su 07:00-21:00", "brand": "Schlotzsky's", "brand:wikidata": "Q2244796", "nsi_id": "schlotzskys-4d2ff4"}, "geometry": {"type": "Point", "coordinates": [-110.2586235426182, 31.554111614940062]}},
{"type": "Feature", "id": "dBWjySUbk0h8d_TIn8d6Iv4CpBY=", "properties": {"ref": "https://locations.schlotzskys.com/#2203", "@spider": "schlotzskys", "amenity": "fast_food", "cuisine": "sandwich", "takeaway": "yes", "addr:state": "AZ", "addr:postcode": "85258", "name": "Schlotzsky's", "phone": "(480) 657-9449", "website": "https://locations.schlotzskys.com/az/scottsdale/10070-n-90th-st", "opening_hours": "Mo-Fr 07:00-21:00; Sa-Su 09:00-21:00", "brand": "Schlotzsky's", "brand:wikidata": "Q2244796", "nsi_id": "schlotzskys-4d2ff4"}, "geometry": {"type": "Point", "coordinates": [-111.88657760943487, 33.57781528466057]}},
{"type": "Feature", "id": "37m-AHZzhytc-YZ7WOQ4M-mxo8Q=", "properties": {"ref": "https://locations.schlotzskys.com/#2191", "@spider": "schlotzskys", "amenity": "fast_food", "cuisine": "sandwich", "takeaway": "yes", "addr:state": "AZ", "addr:postcode": "85210", "name": "Schlotzsky's", "phone": "(480) 833-6540", "website": "https://locations.schlotzskys.com/az/mesa/408-w-juanita-ave", "opening_hours": "Mo-Su 09:00-20:00", "brand": "Schlotzsky's", "brand:wikidata": "Q2244796", "nsi_id": "schlotzskys-4d2ff4"}, "geometry": {"type": "Point", "coordinates": [-111.84063376871858, 33.382746262062064]}},
{"type": "Feature", "id": "sPLqSnROovovOAsZm8EtAoMUPkc=", "properties": {"ref": "https://locations.schlotzskys.com/#2201", "@spider": "schlotzskys", "amenity": "fast_food", "cuisine": "sandwich", "takeaway": "yes", "addr:state": "AZ", "addr:postcode": "85338", "name": "Schlotzsky's", "phone": "(623) 925-2009", "website": "https://locations.schlotzskys.com/az/goodyear/395-n-litchfield-rd", "opening_hours": "Mo-Su 09:00-21:00", "brand": "Schlotzsky's", "brand:wikidata": "Q2244796", "nsi_id": "schlotzskys-4d2ff4"}, "geometry": {"type": "Point", "coordinates": [-112.35756300294715, 33.451486194891956]}},
{"type": "Feature", "id": "be3FyqQku-xIFhJGYsILI0cYDAo=", "properties": {"ref": "https://locations.schlotzskys.com/#2183", "@spider": "schlotzskys", "amenity": "fast_food", "cuisine": "sandwich", "takeaway": "yes", "addr:state": "AR", "addr:postcode": "72764", "name": "Schlotzsky's", "phone": "(479) 751-9800", "website": "https://locations.schlotzskys.com/ar/springdale/1919-west-sunset-ave", "opening_hours": "Mo-Su 10:00-21:00", "brand": "Schlotzsky's", "brand:wikidata": "Q2244796", "nsi_id": "schlotzskys-4d2ff4"}, "geometry": {"type": "Point", "coordinates": [-94.15146338773155, 36.17441726229243]}},
{"type": "Feature", "id": "96bJ46Dpeej2ydXIE5NabQqOba0=", "properties": {"ref": "https://locations.schlotzskys.com/#2181", "@spider": "schlotzskys", "amenity": "fast_food", "cuisine": "sandwich", "takeaway": "yes", "addr:state": "AR", "addr:postcode": "72756", "name": "Schlotzsky's", "phone": "(479) 636-9900", "website": "https://locations.schlotzskys.com/ar/rogers/2709-west-walnut", "opening_hours": "Mo-Su 10:00-21:00", "brand": "Schlotzsky's", "brand:wikidata": "Q2244796", "nsi_id": "schlotzskys-4d2ff4"}, "geometry": {"type": "Point", "coordinates": [-94.15445974049283, 36.33470007153204]}},
{"type": "Feature", "id": "dnTStS5BJEaa7v1DltXu7eWujmA=", "properties": {"ref": "https://locations.schlotzskys.com/#2189", "@spider": "schlotzskys", "amenity": "fast_food", "cuisine": "sandwich", "takeaway": "yes", "addr:state": "AR", "addr:postcode": "72116", "name": "Schlotzsky's", "phone": "(501) 758-2720", "website": "https://locations.schlotzskys.com/ar/north-little-rock/3421-john-f-kennedy-blvd", "opening_hours": "Mo-Su 10:00-21:00", "brand": "Schlotzsky's", "brand:wikidata": "Q2244796", "nsi_id": "schlotzskys-4d2ff4"}, "geometry": {"type": "Point", "coordinates": [-92.2608241165676, 34.786812174290844]}},
{"type": "Feature", "id": "qyjd5-4g0IoWR5GhdTnphnYmNOE=", "properties": {"ref": "https://locations.schlotzskys.com/#2494002294318908776", "@spider": "schlotzskys", "amenity": "fast_food", "cuisine": "sandwich", "takeaway": "yes", "addr:state": "AR", "addr:postcode": "72653", "name": "Schlotzsky's", "phone": "(870) 679-2040", "website": "https://locations.schlotzskys.com/ar/mountain-home/1012-highway-62-east", "opening_hours": "Mo-Su 10:00-21:00", "brand": "Schlotzsky's", "brand:wikidata": "Q2244796", "nsi_id": "schlotzskys-4d2ff4"}, "geometry": {"type": "Point", "coordinates": [-92.36992889999999, 36.3494515]}},
{"type": "Feature", "id": "H9dszgspKuP2xlwOeeeRiF6ODuE=", "properties": {"ref": "https://locations.schlotzskys.com/#2175", "@spider": "schlotzskys", "amenity": "fast_food", "cuisine": "sandwich", "takeaway": "yes", "addr:state": "AR", "addr:postcode": "72211", "name": "Schlotzsky's", "phone": "(501) 224-4119", "website": "https://locations.schlotzskys.com/ar/little-rock/11815-maralynn-dr", "opening_hours": "Mo-Su 10:00-20:30", "brand": "Schlotzsky's", "brand:wikidata": "Q2244796", "nsi_id": "schlotzskys-4d2ff4"}, "geometry": {"type": "Point", "coordinates": [-92.40453301719666, 34.75739006951116]}},
{"type": "Feature", "id": "MFVaam7Fsrh6yi86C0_Ban9FqDs=", "properties": {"ref": "https://locations.schlotzskys.com/#2185", "@spider": "schlotzskys", "amenity": "fast_food", "cuisine": "sandwich", "takeaway": "yes", "addr:state": "AR", "addr:postcode": "72401", "name": "Schlotzsky's", "phone": "(870) 336-0660", "website": "https://locations.schlotzskys.com/ar/jonesboro/1605-red-wolf-blvd", "opening_hours": "Mo-Su 11:00-20:00", "brand": "Schlotzsky's", "brand:wikidata": "Q2244796", "nsi_id": "schlotzskys-4d2ff4"}, "geometry": {"type": "Point", "coordinates": [-90.66966430613422, 35.82504246618627]}},
{"type": "Feature", "id": "vLZWSyrkR0ZhGIh9r2bpq13SQ2k=", "properties": {"ref": "https://locations.schlotzskys.com/#7847", "@spider": "schlotzskys", "amenity": "fast_food", "cuisine": "sandwich", "takeaway": "yes", "addr:state": "AR", "addr:postcode": "71913", "name": "Schlotzsky's", "phone": "(501) 701-4533", "website": "https://locations.schlotzskys.com/ar/hot-springs/3521-central-ave", "opening_hours": "Mo-Su 10:00-21:00", "brand": "Schlotzsky's", "brand:wikidata": "Q2244796", "nsi_id": "schlotzskys-4d2ff4"}, "geometry": {"type": "Point", "coordinates": [-93.05899278174161, 34.47051201193067]}},
{"type": "Feature", "id": "7dOZgHH43E5SUtRHYHTIMb_ZyIY=", "properties": {"ref": "https://locations.schlotzskys.com/#2187", "@spider": "schlotzskys", "amenity": "fast_food", "cuisine": "sandwich", "takeaway": "yes", "addr:state": "AR", "addr:postcode": "72903", "name": "Schlotzsky's", "phone": "(479) 484-7311", "website": "https://locations.schlotzskys.com/ar/fort-smith/7010-rogers-ave", "opening_hours": "Mo-Su 10:00-22:00", "brand": "Schlotzsky's", "brand:wikidata": "Q2244796", "nsi_id": "schlotzskys-4d2ff4"}, "geometry": {"type": "Point", "coordinates": [-94.35438241211162, 35.35384700739821]}},
{"type": "Feature", "id": "x-2RpzPFNXNKoGE9F5IDyyJh4HI=", "properties": {"ref": "https://locations.schlotzskys.com/#2179", "@spider": "schlotzskys", "amenity": "fast_food", "cuisine": "sandwich", "takeaway": "yes", "addr:state": "AR", "addr:postcode": "72703", "name": "Schlotzsky's", "phone": "(479) 443-5000", "website": "https://locations.schlotzskys.com/ar/fayetteville/2548-n-college-ave", "opening_hours": "Mo-Su 10:00-21:00", "brand": "Schlotzsky's", "brand:wikidata": "Q2244796", "nsi_id": "schlotzskys-4d2ff4"}, "geometry": {"type": "Point", "coordinates": [-94.15084689275196, 36.0978425209793]}},
{"type": "Feature", "id": "Gm9S7kYbDal22Mtay8e8zWYhREU=", "properties": {"ref": "https://locations.schlotzskys.com/#2233", "@spider": "schlotzskys", "amenity": "fast_food", "cuisine": "sandwich", "takeaway": "yes", "addr:state": "CO", "addr:postcode": "80525", "name": "Schlotzsky's", "phone": "(970) 226-1711", "website": "https://locations.schlotzskys.com/co/fort-collins/4212-s-college-ave", "opening_hours": "Mo-Sa 10:30-20:00; Su 11:00-19:00", "brand": "Schlotzsky's", "brand:wikidata": "Q2244796", "nsi_id": "schlotzskys-4d2ff4"}, "geometry": {"type": "Point", "coordinates": [-105.07579159958951, 40.52898892262786]}},
{"type": "Feature", "id": "kg1y-PlIEe5WmSHfUjAzDznCvtQ=", "properties": {"ref": "https://locations.schlotzskys.com/#7705", "@spider": "schlotzskys", "amenity": "fast_food", "cuisine": "sandwich", "takeaway": "yes", "addr:state": "CO", "addr:postcode": "80249", "name": "Schlotzsky's", "phone": "(303) 363-4830", "website": "https://locations.schlotzskys.com/co/denver/76804-n-wenatchee-st", "opening_hours": "Mo-Su 10:00-18:00", "brand": "Schlotzsky's", "brand:wikidata": "Q2244796", "nsi_id": "schlotzskys-4d2ff4"}, "geometry": {"type": "Point", "coordinates": [-104.7205979638945, 39.836198998430916]}},
{"type": "Feature", "id": "2bb49RarZu2qXdTwlJ0pRRSU0d8=", "properties": {"ref": "https://locations.schlotzskys.com/#2271", "@spider": "schlotzskys", "amenity": "fast_food", "cuisine": "sandwich", "takeaway": "yes", "addr:state": "GA", "addr:postcode": "30024", "name": "Schlotzsky's", "phone": "(678) 765-6336", "website": "https://locations.schlotzskys.com/ga/suwanee/2941-lawrenceville-suwanee-road", "opening_hours": "Mo 10:00-20:00; Tu-Sa 11:00-20:00; Su 11:00-17:00", "brand": "Schlotzsky's", "brand:wikidata": "Q2244796", "nsi_id": "schlotzskys-4d2ff4"}, "geometry": {"type": "Point", "coordinates": [-84.04592394171621, 34.02843021982398]}},
{"type": "Feature", "id": "wWvDVOAgmyM_eSb8aIq4lHJ51fU=", "properties": {"ref": "https://locations.schlotzskys.com/#2259", "@spider": "schlotzskys", "amenity": "fast_food", "cuisine": "sandwich", "takeaway": "yes", "addr:state": "GA", "addr:postcode": "30269", "name": "Schlotzsky's", "phone": "(770) 742-0566", "website": "https://locations.schlotzskys.com/ga/peachtree-city/2771-w-highway-54", "opening_hours": "Mo-Sa 10:00-21:00; Su 10:30-21:00", "brand": "Schlotzsky's", "brand:wikidata": "Q2244796", "nsi_id": "schlotzskys-4d2ff4"}, "geometry": {"type": "Point", "coordinates": [-84.60235611593994, 33.39751860717276]}},
{"type": "Feature", "id": "xPQ5qt65b_3QOxS3PBX3hLYIlWw=", "properties": {"ref": "https://locations.schlotzskys.com/#2265", "@spider": "schlotzskys", "amenity": "fast_food", "cuisine": "sandwich", "takeaway": "yes", "addr:state": "GA", "addr:postcode": "30067", "name": "Schlotzsky's", "phone": "(770) 953-8400", "website": "https://locations.schlotzskys.com/ga/marietta/3000-windy-hill-rd", "opening_hours": "Mo-Sa 10:00-19:00; Su 10:00-18:00", "brand": "Schlotzsky's", "brand:wikidata": "Q2244796", "nsi_id": "schlotzskys-4d2ff4"}, "geometry": {"type": "Point", "coordinates": [-84.4665944090425, 33.904416999014195]}},
{"type": "Feature", "id": "iLazFnMXGzLOFIkYroH6zkXIgCA=", "properties": {"ref": "https://locations.schlotzskys.com/#3548179367387405960", "@spider": "schlotzskys", "amenity": "fast_food", "cuisine": "sandwich", "takeaway": "yes", "addr:state": "GA", "addr:postcode": "30233", "name": "Schlotzsky's", "phone": "(678) 750-0481", "website": "https://locations.schlotzskys.com/ga/jackson/2679-hwy-16-w", "opening_hours": "Mo-Su 10:00-22:00", "brand": "Schlotzsky's", "brand:wikidata": "Q2244796", "nsi_id": "schlotzskys-4d2ff4"}, "geometry": {"type": "Point", "coordinates": [-84.08917760457973, 33.26196961350121]}},
{"type": "Feature", "id": "bQtkDrpNMpLRMk_JYSX2cKq1wkw=", "properties": {"ref": "https://locations.schlotzskys.com/#2269", "@spider": "schlotzskys", "amenity": "fast_food", "cuisine": "sandwich", "takeaway": "yes", "addr:state": "GA", "addr:postcode": "30354", "name": "Schlotzsky's", "phone": "(404) 767-0012", "website": "https://locations.schlotzskys.com/ga/hapeville/861-virginia-ave", "opening_hours": "Mo-Fr 10:30-21:00; Sa 11:00-19:00; Su 11:00-18:00", "brand": "Schlotzsky's", "brand:wikidata": "Q2244796", "nsi_id": "schlotzskys-4d2ff4"}, "geometry": {"type": "Point", "coordinates": [-84.41758706271473, 33.65921460139222]}},
{"type": "Feature", "id": "vzPf5oa5JoFYCAbnRcHxlft9VLk=", "properties": {"ref": "https://locations.schlotzskys.com/#2263", "@spider": "schlotzskys", "amenity": "fast_food", "cuisine": "sandwich", "takeaway": "yes", "addr:state": "GA", "addr:postcode": "30501", "name": "Schlotzsky's", "phone": "(770) 534-6400", "website": "https://locations.schlotzskys.com/ga/gainesville/302-se-broad-street", "opening_hours": "Mo-Fr 10:00-19:00; Sa-Su 11:00-19:00", "brand": "Schlotzsky's", "brand:wikidata": "Q2244796", "nsi_id": "schlotzskys-4d2ff4"}, "geometry": {"type": "Point", "coordinates": [-83.82336977396942, 34.29930173555941]}},
{"type": "Feature", "id": "f3SMIaBmVzK8DG-2rt3sXBzXFF8=", "properties": {"ref": "https://locations.schlotzskys.com/#2273", "@spider": "schlotzskys", "amenity": "fast_food", "cuisine": "sandwich", "takeaway": "yes", "addr:state": "GA", "addr:postcode": "30096", "name": "Schlotzsky's", "phone": "(770) 717-0503", "website": "https://locations.schlotzskys.com/ga/duluth/1625-pleasant-hill-rd", "opening_hours": "Mo-Sa 11:00-20:00; Su 11:00-14:00", "brand": "Schlotzsky's", "brand:wikidata": "Q2244796", "nsi_id": "schlotzskys-4d2ff4"}, "geometry": {"type": "Point", "coordinates": [-84.1290607770472, 33.942772922230425]}},
{"type": "Feature", "id": "N04_KBVip7HaMI4ohIY1X0nXsQs=", "properties": {"ref": "https://locations.schlotzskys.com/#2255", "@spider": "schlotzskys", "amenity": "fast_food", "cuisine": "sandwich", "takeaway": "yes", "addr:state": "GA", "addr:postcode": "30720", "name": "Schlotzsky's", "phone": "(706) 217-2867", "website": "https://locations.schlotzskys.com/ga/dalton/1325-w-walnut-ave", "opening_hours": "Mo-Su 10:30-21:00", "brand": "Schlotzsky's", "brand:wikidata": "Q2244796", "nsi_id": "schlotzskys-4d2ff4"}, "geometry": {"type": "Point", "coordinates": [-84.9922725467163, 34.75875857711585]}},
{"type": "Feature", "id": "KMk1twwcuWgstYn5bKBfu4Mhstc=", "properties": {"ref": "https://locations.schlotzskys.com/#2275", "@spider": "schlotzskys", "amenity": "fast_food", "cuisine": "sandwich", "takeaway": "yes", "addr:state": "GA", "addr:postcode": "30606", "name": "Schlotzsky's", "phone": "(706) 543-2518", "website": "https://locations.schlotzskys.com/ga/athens/1490-baxter-st", "opening_hours": "Mo-Su 10:00-20:00", "brand": "Schlotzsky's", "brand:wikidata": "Q2244796", "nsi_id": "schlotzskys-4d2ff4"}, "geometry": {"type": "Point", "coordinates": [-83.40815035767349, 33.94584552272916]}},
{"type": "Feature", "id": "NBmSj3rXx6z_ShK2BxQYvz6CPSk=", "properties": {"ref": "https://locations.schlotzskys.com/#2253", "@spider": "schlotzskys", "amenity": "fast_food", "cuisine": "sandwich", "takeaway": "yes", "addr:state": "GA", "addr:postcode": "30005", "name": "Schlotzsky's", "phone": "(770) 753-4833", "website": "https://locations.schlotzskys.com/ga/alpharetta/3345-old-milton-parkway", "opening_hours": "Mo-Sa 10:00-21:00; Su 10:00-16:00", "brand": "Schlotzsky's", "brand:wikidata": "Q2244796", "nsi_id": "schlotzskys-4d2ff4"}, "geometry": {"type": "Point", "coordinates": [-84.26273102637195, 34.067534591283724]}},
{"type": "Feature", "id": "NCXb1C8V09GvVYnJaYjCjZ9zdAg=", "properties": {"ref": "https://locations.schlotzskys.com/#2295", "@spider": "schlotzskys", "amenity": "fast_food", "cuisine": "sandwich", "takeaway": "yes", "addr:state": "KS", "addr:postcode": "67401", "name": "Schlotzsky's", "phone": "(785) 823-6526", "website": "https://locations.schlotzskys.com/ks/salina/2480-s-9th-st", "opening_hours": "Mo-Su 10:00-21:00", "brand": "Schlotzsky's", "brand:wikidata": "Q2244796", "nsi_id": "schlotzskys-4d2ff4"}, "geometry": {"type": "Point", "coordinates": [-97.61372478344911, 38.7960398454976]}},
{"type": "Feature", "id": "vTh8EPgT8QbgmLak_ZzgBfPINVk=", "properties": {"ref": "https://locations.schlotzskys.com/#2289", "@spider": "schlotzskys", "amenity": "fast_food", "cuisine": "sandwich", "takeaway": "yes", "addr:state": "KS", "addr:postcode": "66213", "name": "Schlotzsky's", "phone": "(913) 498-2867", "website": "https://locations.schlotzskys.com/ks/overland-park/12071-metcalf-ave", "opening_hours": "Mo-Su 07:00-21:00", "brand": "Schlotzsky's", "brand:wikidata": "Q2244796", "nsi_id": "schlotzskys-4d2ff4"}, "geometry": {"type": "Point", "coordinates": [-94.6671004040393, 38.90971902668379]}},
{"type": "Feature", "id": "gLmC1MyLBaN9Z9IDgxFWDscsyKg=", "properties": {"ref": "https://locations.schlotzskys.com/#2303", "@spider": "schlotzskys", "amenity": "fast_food", "cuisine": "sandwich", "takeaway": "yes", "addr:state": "KS", "addr:postcode": "66062", "name": "Schlotzsky's", "phone": "(913) 782-2867", "website": "https://locations.schlotzskys.com/ks/olathe/12221-s-strangline-rd", "opening_hours": "Mo-Su 07:00-21:00", "brand": "Schlotzsky's", "brand:wikidata": "Q2244796", "nsi_id": "schlotzskys-4d2ff4"}, "geometry": {"type": "Point", "coordinates": [-94.77579924177651, 38.90762250893715]}},
{"type": "Feature", "id": "5IBXyfJcedseXCkq-xFJCkxHf_U=", "properties": {"ref": "https://locations.schlotzskys.com/#5731840909707901223", "@spider": "schlotzskys", "amenity": "fast_food", "cuisine": "sandwich", "takeaway": "yes", "addr:state": "KS", "addr:postcode": "67037", "name": "Schlotzsky's", "phone": "(316) 243-9123", "website": "https://locations.schlotzskys.com/ks/derby/2550-n-rock-rd", "opening_hours": "Mo-Su 10:00-21:00", "brand": "Schlotzsky's", "brand:wikidata": "Q2244796", "nsi_id": "schlotzskys-4d2ff4"}, "geometry": {"type": "Point", "coordinates": [-97.24366857936367, 37.57469442941042]}},
{"type": "Feature", "id": "yEz04_po4XBA7-uONhTwU4sqvI0=", "properties": {"ref": "https://locations.schlotzskys.com/#2305", "@spider": "schlotzskys", "amenity": "fast_food", "cuisine": "sandwich", "takeaway": "yes", "addr:state": "KY", "addr:postcode": "40241", "name": "Schlotzsky's", "phone": "(502) 425-8447", "website": "https://locations.schlotzskys.com/ky/louisville/10531-fischer-park-dr", "opening_hours": "Mo-Su 10:00-20:00", "brand": "Schlotzsky's", "brand:wikidata": "Q2244796", "nsi_id": "schlotzskys-4d2ff4"}, "geometry": {"type": "Point", "coordinates": [-85.55776545014034, 38.295905001390615]}},
{"type": "Feature", "id": "xJ9BDyao5bGdl38DICNoTRvs8YQ=", "properties": {"ref": "https://locations.schlotzskys.com/#2307", "@spider": "schlotzskys", "amenity": "fast_food", "cuisine": "sandwich", "takeaway": "yes", "addr:state": "KY", "addr:postcode": "40503", "name": "Schlotzsky's", "phone": "(859) 245-1624", "website": "https://locations.schlotzskys.com/ky/lexington/117-west-tiverton-way", "opening_hours": "Mo-Th 10:30-21:00; Fr-Sa 10:30-21:30; Su 10:30-21:00", "brand": "Schlotzsky's", "brand:wikidata": "Q2244796", "nsi_id": "schlotzskys-4d2ff4"}, "geometry": {"type": "Point", "coordinates": [-84.53005707791121, 37.98102952517462]}},
{"type": "Feature", "id": "wo0a53PUvrkKyTqDj-H3ODY_31U=", "properties": {"ref": "https://locations.schlotzskys.com/#2311", "@spider": "schlotzskys", "amenity": "fast_food", "cuisine": "sandwich", "takeaway": "yes", "addr:state": "LA", "addr:postcode": "71303", "name": "Schlotzsky's", "phone": "(318) 445-3354", "website": "https://locations.schlotzskys.com/la/alexandria/959-macarthur-dr", "opening_hours": "Mo-Su 10:30-21:00", "brand": "Schlotzsky's", "brand:wikidata": "Q2244796", "nsi_id": "schlotzskys-4d2ff4"}, "geometry": {"type": "Point", "coordinates": [-92.47662611951475, 31.29259199123193]}},
{"type": "Feature", "id": "Za7lvdKN8Qb7fhhkCTeO4aZvo1M=", "properties": {"ref": "https://locations.schlotzskys.com/#2169", "@spider": "schlotzskys", "amenity": "fast_food", "cuisine": "sandwich", "takeaway": "yes", "addr:state": "AL", "addr:postcode": "35242", "name": "Schlotzsky's", "phone": "(205) 991-0035", "website": "https://locations.schlotzskys.com/al/hoover/103-inverness-corners", "opening_hours": "Mo-Su 10:00-22:00", "brand": "Schlotzsky's", "brand:wikidata": "Q2244796", "nsi_id": "schlotzskys-4d2ff4"}, "geometry": {"type": "Point", "coordinates": [-86.69386775276126, 33.4190011287746]}},
{"type": "Feature", "id": "rBX8qUCYRzP7zFKZg3EYiMugoqI=", "properties": {"ref": "https://locations.schlotzskys.com/#7714464841782962302", "@spider": "schlotzskys", "amenity": "fast_food", "cuisine": "sandwich", "takeaway": "yes", "addr:state": "AL", "addr:postcode": "36303", "name": "Schlotzsky's", "phone": "(334) 446-5246", "website": "https://locations.schlotzskys.com/al/dothan/3456-ross-clark-circle", "opening_hours": "Mo-Su 10:00-20:00", "brand": "Schlotzsky's", "brand:wikidata": "Q2244796", "nsi_id": "schlotzskys-4d2ff4"}, "geometry": {"type": "Point", "coordinates": [-85.4276634, 31.2452983]}},
{"type": "Feature", "id": "z7ahJ0Izbza4R4D68fZZ9edXQJ4=", "properties": {"ref": "https://locations.schlotzskys.com/#100011", "@spider": "schlotzskys", "amenity": "fast_food", "cuisine": "sandwich", "takeaway": "yes", "addr:state": "NY", "addr:postcode": "10004", "name": "Schlotzsky's", "website": "https://locations.schlotzskys.com/ny/new-york/26-broadway", "opening_hours": "24/7", "brand": "Schlotzsky's", "brand:wikidata": "Q2244796", "nsi_id": "schlotzskys-4d2ff4"}, "geometry": {"type": "Point", "coordinates": [-74.0129616108285, 40.7053921086802]}},
{"type": "Feature", "id": "sikUbtwAD8uuvauJHWCTWspBMxg=", "properties": {"ref": "https://locations.schlotzskys.com/#2883", "@spider": "schlotzskys", "amenity": "fast_food", "cuisine": "sandwich", "takeaway": "yes", "addr:state": "WI", "addr:postcode": "54303", "name": "Schlotzsky's", "phone": "(920) 497-1313", "website": "https://locations.schlotzskys.com/wi/green-bay/2420-west-mason-street", "opening_hours": "Mo-Tu 10:00-20:00; We 10:00-19:45; Th-Su 10:00-20:00", "brand": "Schlotzsky's", "brand:wikidata": "Q2244796", "nsi_id": "schlotzskys-4d2ff4"}, "geometry": {"type": "Point", "coordinates": [-88.08991269152858, 44.524378519429966]}},
{"type": "Feature", "id": "z6Y1-TQ_Rfu-lC4XgaZPLu4xBKk=", "properties": {"ref": "https://locations.schlotzskys.com/#2881", "@spider": "schlotzskys", "amenity": "fast_food", "cuisine": "sandwich", "takeaway": "yes", "addr:state": "WI", "addr:postcode": "54913", "name": "Schlotzsky's", "phone": "(920) 731-7272", "website": "https://locations.schlotzskys.com/wi/appleton/881-north-casaloma-drive", "opening_hours": "Mo-Su 10:30-19:00", "brand": "Schlotzsky's", "brand:wikidata": "Q2244796", "nsi_id": "schlotzskys-4d2ff4"}, "geometry": {"type": "Point", "coordinates": [-88.47706038035659, 44.26887955744171]}},
{"type": "Feature", "id": "4ihU3HBmjCHQWMHhaMeNxMgOzN0=", "properties": {"ref": "https://locations.schlotzskys.com/#2837", "@spider": "schlotzskys", "amenity": "fast_food", "cuisine": "sandwich", "takeaway": "yes", "addr:state": "TX", "addr:postcode": "75013", "name": "Schlotzsky's", "phone": "(972) 396-7278", "website": "https://locations.schlotzskys.com/tx/allen/502-west-mcdermott-drive", "opening_hours": "Mo-Su 10:00-21:00", "brand": "Schlotzsky's", "brand:wikidata": "Q2244796", "nsi_id": "schlotzskys-4d2ff4"}, "geometry": {"type": "Point", "coordinates": [-96.6749877666503, 33.10230181899786]}},
{"type": "Feature", "id": "O1dY44L4OIZoqm_-zl_keaGmRVY=", "properties": {"ref": "https://locations.schlotzskys.com/#2705", "@spider": "schlotzskys", "amenity": "fast_food", "cuisine": "sandwich", "takeaway": "yes", "addr:state": "TX", "addr:postcode": "75001", "name": "Schlotzsky's", "phone": "(972) 807-6793", "website": "https://locations.schlotzskys.com/tx/addison/3740-beltline-road", "opening_hours": "Mo-Sa 10:30-21:00; Su 10:30-17:45", "brand": "Schlotzsky's", "brand:wikidata": "Q2244796", "nsi_id": "schlotzskys-4d2ff4"}, "geometry": {"type": "Point", "coordinates": [-96.85353612576164, 32.95261532806909]}},
{"type": "Feature", "id": "_QFQvSnr44X4B9LVNLYErllyfF8=", "properties": {"ref": "https://locations.schlotzskys.com/#2575", "@spider": "schlotzskys", "amenity": "fast_food", "cuisine": "sandwich", "takeaway": "yes", "addr:state": "TX", "addr:postcode": "75104", "name": "Schlotzsky's", "phone": "(972) 293-1500", "website": "https://locations.schlotzskys.com/tx/cedar-hill/207-east-fm-road-1382", "opening_hours": "Mo-Su 10:00-22:00", "brand": "Schlotzsky's", "brand:wikidata": "Q2244796", "nsi_id": "schlotzskys-4d2ff4"}, "geometry": {"type": "Point", "coordinates": [-96.94075083313523, 32.597510462736494]}},
{"type": "Feature", "id": "Ee-w32qTW4MOZwulrxXBbVfnRyc=", "properties": {"ref": "https://locations.schlotzskys.com/#8359", "@spider": "schlotzskys", "amenity": "fast_food", "cuisine": "sandwich", "takeaway": "yes", "addr:state": "TX", "addr:postcode": "75098", "name": "Schlotzsky's", "phone": "(214) 501-2866", "website": "https://locations.schlotzskys.com/tx/wylie/330-s-state-hwy-78", "opening_hours": "Mo-We 10:00-21:00; Th 09:00-21:00; Fr-Su 10:00-21:00", "brand": "Schlotzsky's", "brand:wikidata": "Q2244796", "nsi_id": "schlotzskys-4d2ff4"}, "geometry": {"type": "Point", "coordinates": [-96.5429151169357, 33.01065669668481]}},
{"type": "Feature", "id": "UlxkDk2lE2xN5xvulfkfGuytHtg=", "properties": {"ref": "https://locations.schlotzskys.com/#6520773527747602532", "@spider": "schlotzskys", "amenity": "fast_food", "cuisine": "sandwich", "takeaway": "yes", "addr:state": "ND", "addr:postcode": "58103", "name": "Schlotzsky's", "phone": "(701) 540-4305", "website": "https://locations.schlotzskys.com/nd/fargo/1310-25th-st-s", "opening_hours": "Mo-Su 10:30-20:00", "brand": "Schlotzsky's", "brand:wikidata": "Q2244796", "nsi_id": "schlotzskys-4d2ff4"}, "geometry": {"type": "Point", "coordinates": [-96.819211, 46.861208]}},
{"type": "Feature", "id": "WANRNT5xrpwXrusHLhwcfNVTx7s=", "properties": {"ref": "https://locations.schlotzskys.com/#2353", "@spider": "schlotzskys", "amenity": "fast_food", "cuisine": "sandwich", "takeaway": "yes", "addr:state": "NC", "addr:postcode": "28562", "name": "Schlotzsky's", "phone": "(252) 638-2508", "website": "https://locations.schlotzskys.com/nc/new-bern/3335-dr-m-l-king-jr-blvd", "opening_hours": "Mo-Fr 10:30-20:00; Sa-Su 10:30-19:00", "brand": "Schlotzsky's", "brand:wikidata": "Q2244796", "nsi_id": "schlotzskys-4d2ff4"}, "geometry": {"type": "Point", "coordinates": [-77.0945269417162, 35.09955144431694]}},
{"type": "Feature", "id": "i4IAtpS2HxqffbcqY4uigdZdWTA=", "properties": {"ref": "https://locations.schlotzskys.com/#2349", "@spider": "schlotzskys", "amenity": "fast_food", "cuisine": "sandwich", "takeaway": "yes", "addr:state": "NC", "addr:postcode": "28056", "name": "Schlotzsky's", "phone": "(704) 824-3611", "website": "https://locations.schlotzskys.com/nc/gastonia/3735-east-franklin-blvd", "opening_hours": "Mo-Th 10:30-21:00; Fr-Sa 10:30-21:30; Su 10:30-21:00", "brand": "Schlotzsky's", "brand:wikidata": "Q2244796", "nsi_id": "schlotzskys-4d2ff4"}, "geometry": {"type": "Point", "coordinates": [-81.11276272209153, 35.25683873952355]}},
{"type": "Feature", "id": "h8mxgK6CA7CjIKveVDjsu4T3plw=", "properties": {"ref": "https://locations.schlotzskys.com/#2377", "@spider": "schlotzskys", "amenity": "fast_food", "cuisine": "sandwich", "takeaway": "yes", "addr:state": "NM", "addr:postcode": "87501", "name": "Schlotzsky's", "phone": "(505) 474-3711", "website": "https://locations.schlotzskys.com/nm/santa-fe/3401-cerrillos-road", "opening_hours": "Mo-Su 10:00-22:00", "brand": "Schlotzsky's", "brand:wikidata": "Q2244796", "nsi_id": "schlotzskys-4d2ff4"}, "geometry": {"type": "Point", "coordinates": [-106.00438235276128, 35.64812380817358]}},
{"type": "Feature", "id": "G3Cwyn0cYniYJlmaJlryFEPUGDo=", "properties": {"ref": "https://locations.schlotzskys.com/#2371", "@spider": "schlotzskys", "amenity": "fast_food", "cuisine": "sandwich", "takeaway": "yes", "addr:state": "NM", "addr:postcode": "88345", "name": "Schlotzsky's", "phone": "(575) 257-7811", "website": "https://locations.schlotzskys.com/nm/ruidoso/2812-sudderth-drive", "opening_hours": "Mo 10:30-20:00; We-Su 10:30-20:00", "brand": "Schlotzsky's", "brand:wikidata": "Q2244796", "nsi_id": "schlotzskys-4d2ff4"}, "geometry": {"type": "Point", "coordinates": [-105.68007735517328, 33.334068397134224]}},
{"type": "Feature", "id": "QIq_l8x03smi4-ZmAqWghpJ5KnA=", "properties": {"ref": "https://locations.schlotzskys.com/#2383", "@spider": "schlotzskys", "amenity": "fast_food", "cuisine": "sandwich", "takeaway": "yes", "addr:state": "NM", "addr:postcode": "87124", "name": "Schlotzsky's", "phone": "(505) 891-3131", "website": "https://locations.schlotzskys.com/nm/rio-rancho/1701-rio-rancho-dr", "opening_hours": "Mo-Su 10:00-22:00", "brand": "Schlotzsky's", "brand:wikidata": "Q2244796", "nsi_id": "schlotzskys-4d2ff4"}, "geometry": {"type": "Point", "coordinates": [-106.65992729634661, 35.22956635891049]}},
{"type": "Feature", "id": "OVB3TQk9KnccnuIHbNcOvlTy3UI=", "properties": {"ref": "https://locations.schlotzskys.com/#2341", "@spider": "schlotzskys", "amenity": "fast_food", "cuisine": "sandwich", "takeaway": "yes", "addr:state": "MS", "addr:postcode": "39110", "name": "Schlotzsky's", "phone": "(601) 707-5169", "website": "https://locations.schlotzskys.com/ms/madison/205-colony-way", "opening_hours": "Mo-Su 10:00-20:00", "brand": "Schlotzsky's", "brand:wikidata": "Q2244796", "nsi_id": "schlotzskys-4d2ff4"}, "geometry": {"type": "Point", "coordinates": [-90.14406423619367, 32.47392956931494]}},
{"type": "Feature", "id": "a_ibbeyWWhAwaMgRcS_X3j4hjEQ=", "properties": {"ref": "https://locations.schlotzskys.com/#2343", "@spider": "schlotzskys", "amenity": "fast_food", "cuisine": "sandwich", "takeaway": "yes", "addr:state": "MS", "addr:postcode": "39232", "name": "Schlotzsky's", "phone": "(601) 939-1449", "website": "https://locations.schlotzskys.com/ms/jackson/2451-lakeland-drive", "opening_hours": "Mo-Su 10:00-20:00", "brand": "Schlotzsky's", "brand:wikidata": "Q2244796", "nsi_id": "schlotzskys-4d2ff4"}, "geometry": {"type": "Point", "coordinates": [-90.11809281962604, 32.32821323809025]}},
{"type": "Feature", "id": "ze4ZsdslK2oUswT_5s7fFIo1-oU=", "properties": {"ref": "https://locations.schlotzskys.com/#8589", "@spider": "schlotzskys", "amenity": "fast_food", "cuisine": "sandwich", "takeaway": "yes", "addr:state": "MO", "addr:postcode": "64083", "name": "Schlotzsky's", "phone": "(816) 245-7355", "website": "https://locations.schlotzskys.com/mo/raymore/2023-foxwood-dr", "opening_hours": "Mo-Sa 07:00-22:00; Su 08:00-21:00", "brand": "Schlotzsky's", "brand:wikidata": "Q2244796", "nsi_id": "schlotzskys-4d2ff4"}, "geometry": {"type": "Point", "coordinates": [-94.49683757368425, 38.81251407457034]}},
{"type": "Feature", "id": "3nV9FhLqdenchZAw8b4EEDsYLro=", "properties": {"ref": "https://locations.schlotzskys.com/#4807", "@spider": "schlotzskys", "amenity": "fast_food", "cuisine": "sandwich", "takeaway": "yes", "addr:state": "MO", "addr:postcode": "64086", "name": "Schlotzsky's", "phone": "(816) 554-4574", "website": "https://locations.schlotzskys.com/mo/lees-summit/190-ne-tudor-rd", "opening_hours": "Mo-Sa 07:00-22:00; Su 08:00-21:00", "brand": "Schlotzsky's", "brand:wikidata": "Q2244796", "nsi_id": "schlotzskys-4d2ff4"}, "geometry": {"type": "Point", "coordinates": [-94.37769414110451, 38.93102462493383]}},
{"type": "Feature", "id": "TnB7rMDX2O5D_26BwL06k1GxhLI=", "properties": {"ref": "https://locations.schlotzskys.com/#8207", "@spider": "schlotzskys", "amenity": "fast_food", "cuisine": "sandwich", "takeaway": "yes", "addr:state": "MO", "addr:postcode": "63005", "name": "Schlotzsky's", "phone": "(636) 778-9675", "website": "https://locations.schlotzskys.com/mo/chesterfield/158-long-road", "opening_hours": "Mo-Su 10:00-19:00", "brand": "Schlotzsky's", "brand:wikidata": "Q2244796", "nsi_id": "schlotzskys-4d2ff4"}, "geometry": {"type": "Point", "coordinates": [-90.6173447, 38.6645088]}},
{"type": "Feature", "id": "hCTZ9q3a_Xz-FxT9T6Pd9GKIaU4=", "properties": {"ref": "https://locations.schlotzskys.com/#7963", "@spider": "schlotzskys", "amenity": "fast_food", "cuisine": "sandwich", "takeaway": "yes", "addr:state": "MO", "addr:postcode": "65616", "name": "Schlotzsky's", "phone": "(417) 320-5096", "website": "https://locations.schlotzskys.com/mo/branson/3724-w-76-country-blvd", "opening_hours": "Mo-Sa 10:00-21:00; Su 10:00-16:00", "brand": "Schlotzsky's", "brand:wikidata": "Q2244796", "nsi_id": "schlotzskys-4d2ff4"}, "geometry": {"type": "Point", "coordinates": [-93.28977617107, 36.649569109274836]}},
{"type": "Feature", "id": "9s4DcSo0X5BIIy_XoXy7YVkc4n4=", "properties": {"ref": "https://locations.schlotzskys.com/#8331", "@spider": "schlotzskys", "amenity": "fast_food", "cuisine": "sandwich", "takeaway": "yes", "addr:state": "MO", "addr:postcode": "64015", "name": "Schlotzsky's", "phone": "(816) 295-6852", "website": "https://locations.schlotzskys.com/mo/blue-springs/800-sw-us-40-hwy", "opening_hours": "Mo-Sa 07:00-22:00; Su 08:00-21:00", "brand": "Schlotzsky's", "brand:wikidata": "Q2244796", "nsi_id": "schlotzskys-4d2ff4"}, "geometry": {"type": "Point", "coordinates": [-94.27389671318907, 39.00884045695282]}},
{"type": "Feature", "id": "GOxOK0Ldj78uwISTKg6_vxcZNAk=", "properties": {"ref": "https://locations.schlotzskys.com/#2373", "@spider": "schlotzskys", "amenity": "fast_food", "cuisine": "sandwich", "takeaway": "yes", "addr:state": "NM", "addr:postcode": "88240", "name": "Schlotzsky's", "phone": "(575) 492-9852", "website": "https://locations.schlotzskys.com/nm/hobbs/1710-w-joe-harvey-blvd", "opening_hours": "Mo-Su 10:00-20:00", "brand": "Schlotzsky's", "brand:wikidata": "Q2244796", "nsi_id": "schlotzskys-4d2ff4"}, "geometry": {"type": "Point", "coordinates": [-103.15685656184263, 32.7423649284697]}},
{"type": "Feature", "id": "5pAZO9FvpxSHDqCU_4FGShjO4d4=", "properties": {"ref": "https://locations.schlotzskys.com/#2381", "@spider": "schlotzskys", "amenity": "fast_food", "cuisine": "sandwich", "takeaway": "yes", "addr:state": "NM", "addr:postcode": "87401", "name": "Schlotzsky's", "phone": "(505) 327-2722", "website": "https://locations.schlotzskys.com/nm/farmington/484-east-20th-st", "opening_hours": "Mo-Su 09:00-21:00", "brand": "Schlotzsky's", "brand:wikidata": "Q2244796", "nsi_id": "schlotzskys-4d2ff4"}, "geometry": {"type": "Point", "coordinates": [-108.20051860213661, 36.748982510680726]}},
{"type": "Feature", "id": "gT-lV4lUZKCjuV_qX63uNGXEKP0=", "properties": {"ref": "https://locations.schlotzskys.com/#2351", "@spider": "schlotzskys", "amenity": "fast_food", "cuisine": "sandwich", "takeaway": "yes", "addr:state": "NC", "addr:postcode": "28303", "name": "Schlotzsky's", "phone": "(910) 867-6519", "website": "https://locations.schlotzskys.com/nc/fayetteville/131-n-mcpherson-church-rd", "opening_hours": "Mo-Su 10:30-20:00", "brand": "Schlotzsky's", "brand:wikidata": "Q2244796", "nsi_id": "schlotzskys-4d2ff4"}, "geometry": {"type": "Point", "coordinates": [-78.95131316380632, 35.068263683559074]}},
{"type": "Feature", "id": "L3tYC0Os0ZEZszWI18ZtGvCbxkA=", "properties": {"ref": "https://locations.schlotzskys.com/#2347", "@spider": "schlotzskys", "amenity": "fast_food", "cuisine": "sandwich", "takeaway": "yes", "addr:state": "NC", "addr:postcode": "28704", "name": "Schlotzsky's", "phone": "(828) 676-3608", "website": "https://locations.schlotzskys.com/nc/arden/377-long-shoal-road", "opening_hours": "Mo-Su 10:30-22:00", "brand": "Schlotzsky's", "brand:wikidata": "Q2244796", "nsi_id": "schlotzskys-4d2ff4"}, "geometry": {"type": "Point", "coordinates": [-82.55279083787187, 35.48141948370094]}},
{"type": "Feature", "id": "mAHKWH5pnb6GteRVRvKsBBnPnDc=", "properties": {"ref": "https://locations.schlotzskys.com/#2345", "@spider": "schlotzskys", "amenity": "fast_food", "cuisine": "sandwich", "takeaway": "yes", "addr:state": "NC", "addr:postcode": "27523", "name": "Schlotzsky's", "phone": "(919) 462-9481", "website": "https://locations.schlotzskys.com/nc/apex/906-us-highway-64-west", "opening_hours": "Mo-Su 11:00-20:00", "brand": "Schlotzsky's", "brand:wikidata": "Q2244796", "nsi_id": "schlotzskys-4d2ff4"}, "geometry": {"type": "Point", "coordinates": [-78.82278164348824, 35.74472407066871]}},
{"type": "Feature", "id": "lUXB2upwOf5H2bKEbJ1PL7VILzI=", "properties": {"ref": "https://locations.schlotzskys.com/#2359", "@spider": "schlotzskys", "amenity": "fast_food", "cuisine": "sandwich", "takeaway": "yes", "addr:state": "ND", "addr:postcode": "58501", "name": "Schlotzsky's", "phone": "(701) 221-2446", "website": "https://locations.schlotzskys.com/nd/bismarck/2000-north-12th-street", "opening_hours": "Mo-Su 10:30-19:30", "brand": "Schlotzsky's", "brand:wikidata": "Q2244796", "nsi_id": "schlotzskys-4d2ff4"}, "geometry": {"type": "Point", "coordinates": [-100.77397930730262, 46.827315278985566]}},
{"type": "Feature", "id": "f-EvvUbWE6ldI84hDN2-O2mMTlU=", "properties": {"ref": "https://locations.schlotzskys.com/#2803", "@spider": "schlotzskys", "amenity": "fast_food", "cuisine": "sandwich", "takeaway": "yes", "addr:state": "TX", "addr:postcode": "77318", "name": "Schlotzsky's", "phone": "(936) 666-5537", "website": "https://locations.schlotzskys.com/tx/willis/12709-i45-south", "opening_hours": "Mo-Sa 10:00-20:30; Su 11:00-19:00", "brand": "Schlotzsky's", "brand:wikidata": "Q2244796", "nsi_id": "schlotzskys-4d2ff4"}, "geometry": {"type": "Point", "coordinates": [-95.49433561289749, 30.423567101604956]}},
{"type": "Feature", "id": "o8ZKG8WiAJCvC2BXG_hsFEvLPFM=", "properties": {"ref": "https://locations.schlotzskys.com/#2649", "@spider": "schlotzskys", "amenity": "fast_food", "cuisine": "sandwich", "takeaway": "yes", "addr:state": "TX", "addr:postcode": "76308", "name": "Schlotzsky's", "phone": "(940) 691-4415", "website": "https://locations.schlotzskys.com/tx/wichita-falls/3916-kemp", "opening_hours": "Mo-Sa 10:30-21:00; Su 11:00-19:00", "brand": "Schlotzsky's", "brand:wikidata": "Q2244796", "nsi_id": "schlotzskys-4d2ff4"}, "geometry": {"type": "Point", "coordinates": [-98.5360906334638, 33.87240275529457]}},
{"type": "Feature", "id": "lg1fdGJRW_vUukTFymqh_mrhkBo=", "properties": {"ref": "https://locations.schlotzskys.com/#5463045519016628779", "@spider": "schlotzskys", "amenity": "fast_food", "cuisine": "sandwich", "takeaway": "yes", "addr:state": "TX", "addr:postcode": "78599", "name": "Schlotzsky's", "phone": "(956) 614-0995", "website": "https://locations.schlotzskys.com/tx/weslaco/1402-n-westgate-dr", "opening_hours": "Mo-Su 10:00-22:00", "brand": "Schlotzsky's", "brand:wikidata": "Q2244796", "nsi_id": "schlotzskys-4d2ff4"}, "geometry": {"type": "Point", "coordinates": [-98.0066389, 26.173674]}},
{"type": "Feature", "id": "UqkV2dhjnXFbY3gne5VX-csx23I=", "properties": {"ref": "https://locations.schlotzskys.com/#2475", "@spider": "schlotzskys", "amenity": "fast_food", "cuisine": "sandwich", "takeaway": "yes", "addr:state": "TX", "addr:postcode": "76086", "name": "Schlotzsky's", "phone": "(817) 599-3900", "website": "https://locations.schlotzskys.com/tx/weatherford/1831-south-main-street", "opening_hours": "Mo-Su 10:00-21:00", "brand": "Schlotzsky's", "brand:wikidata": "Q2244796", "nsi_id": "schlotzskys-4d2ff4"}, "geometry": {"type": "Point", "coordinates": [-97.79315702933584, 32.73425559451748]}},
{"type": "Feature", "id": "rz33Ywzk5l41dqnTAneQENsGWu0=", "properties": {"ref": "https://locations.schlotzskys.com/#2843", "@spider": "schlotzskys", "amenity": "fast_food", "cuisine": "sandwich", "takeaway": "yes", "addr:state": "TX", "addr:postcode": "75165", "name": "Schlotzsky's", "phone": "(972) 923-1818", "website": "https://locations.schlotzskys.com/tx/waxahachie/507-highway-77-n", "opening_hours": "Mo-Fr 10:00-21:00; Sa 10:00-22:00; Su 10:00-21:00", "brand": "Schlotzsky's", "brand:wikidata": "Q2244796", "nsi_id": "schlotzskys-4d2ff4"}, "geometry": {"type": "Point", "coordinates": [-96.8426153063154, 32.40989005673251]}},
{"type": "Feature", "id": "oPv5uIWGYyFvZe15H_lJv5lsQ6U=", "properties": {"ref": "https://locations.schlotzskys.com/#2691", "@spider": "schlotzskys", "amenity": "fast_food", "cuisine": "sandwich", "takeaway": "yes", "addr:state": "TX", "addr:postcode": "76148", "name": "Schlotzsky's", "phone": "(817) 581-6007", "website": "https://locations.schlotzskys.com/tx/watauga/6237-rufe-snow", "opening_hours": "Mo-Sa 10:30-20:30; Su 11:00-19:00", "brand": "Schlotzsky's", "brand:wikidata": "Q2244796", "nsi_id": "schlotzskys-4d2ff4"}, "geometry": {"type": "Point", "coordinates": [-97.23880180413902, 32.857478637658076]}},
{"type": "Feature", "id": "U161BZC0dmq5UXlo8DXWDaiIqOc=", "properties": {"ref": "https://locations.schlotzskys.com/#2585", "@spider": "schlotzskys", "amenity": "fast_food", "cuisine": "sandwich", "takeaway": "yes", "addr:state": "TX", "addr:postcode": "77901", "name": "Schlotzsky's", "phone": "(361) 576-3201", "website": "https://locations.schlotzskys.com/tx/victoria/4601-north-navarro", "opening_hours": "Mo-Su 10:00-22:00", "brand": "Schlotzsky's", "brand:wikidata": "Q2244796", "nsi_id": "schlotzskys-4d2ff4"}, "geometry": {"type": "Point", "coordinates": [-97.00221444072262, 28.83727496764779]}},
{"type": "Feature", "id": "9sgP9HwbMclbHRxobVELAlEbKto=", "properties": {"ref": "https://locations.schlotzskys.com/#2725", "@spider": "schlotzskys", "amenity": "fast_food", "cuisine": "sandwich", "takeaway": "yes", "addr:state": "TX", "addr:postcode": "77375", "name": "Schlotzsky's", "phone": "(281) 357-5464", "website": "https://locations.schlotzskys.com/tx/tomball/28431-tomball-parkway", "opening_hours": "Mo-Sa 10:30-21:00; Su 11:00-20:00", "brand": "Schlotzsky's", "brand:wikidata": "Q2244796", "nsi_id": "schlotzskys-4d2ff4"}, "geometry": {"type": "Point", "coordinates": [-95.63251781104509, 30.08740070810921]}},
{"type": "Feature", "id": "I2NAFB3nw-bC-IqDMIt3_NGoAVU=", "properties": {"ref": "https://locations.schlotzskys.com/#2823", "@spider": "schlotzskys", "amenity": "fast_food", "cuisine": "sandwich", "takeaway": "yes", "addr:state": "TX", "addr:postcode": "75056", "name": "Schlotzsky's", "phone": "(214) 469-1034", "website": "https://locations.schlotzskys.com/tx/the-colony/6360-north-josey-lane", "opening_hours": "Mo-Su 10:00-21:00", "brand": "Schlotzsky's", "brand:wikidata": "Q2244796", "nsi_id": "schlotzskys-4d2ff4"}, "geometry": {"type": "Point", "coordinates": [-96.88704362392521, 33.06389874488481]}},
{"type": "Feature", "id": "xEOoeMNOBXXyA0-BRH8kEkoUBnE=", "properties": {"ref": "https://locations.schlotzskys.com/#2591", "@spider": "schlotzskys", "amenity": "fast_food", "cuisine": "sandwich", "takeaway": "yes", "addr:state": "TX", "addr:postcode": "77590", "name": "Schlotzsky's", "phone": "(409) 995-0374", "website": "https://locations.schlotzskys.com/tx/texas-city/3325-palmer-highway", "opening_hours": "Mo-Sa 10:00-21:00; Su 10:00-20:30", "brand": "Schlotzsky's", "brand:wikidata": "Q2244796", "nsi_id": "schlotzskys-4d2ff4"}, "geometry": {"type": "Point", "coordinates": [-94.94656203630026, 29.39480342919325]}},
{"type": "Feature", "id": "EuQpM0qe73H9EC2INZOCU5csND0=", "properties": {"ref": "https://locations.schlotzskys.com/#2521", "@spider": "schlotzskys", "amenity": "fast_food", "cuisine": "sandwich", "takeaway": "yes", "addr:state": "TX", "addr:postcode": "75503", "name": "Schlotzsky's", "phone": "(903) 831-0036", "website": "https://locations.schlotzskys.com/tx/texarkana/3652-richmond-rd", "opening_hours": "Mo-Su 07:00-21:00", "brand": "Schlotzsky's", "brand:wikidata": "Q2244796", "nsi_id": "schlotzskys-4d2ff4"}, "geometry": {"type": "Point", "coordinates": [-94.09483298343376, 33.47099230138632]}},
{"type": "Feature", "id": "nA9bc88kG-HramLNmCU5vergw0w=", "properties": {"ref": "https://locations.schlotzskys.com/#2825", "@spider": "schlotzskys", "amenity": "fast_food", "cuisine": "sandwich", "takeaway": "yes", "addr:state": "TX", "addr:postcode": "75160", "name": "Schlotzsky's", "phone": "(469) 474-7316", "website": "https://locations.schlotzskys.com/tx/terrell/1610-state-highway-34-south", "opening_hours": "Mo-Su 10:00-21:00", "brand": "Schlotzsky's", "brand:wikidata": "Q2244796", "nsi_id": "schlotzskys-4d2ff4"}, "geometry": {"type": "Point", "coordinates": [-96.27726708904255, 32.704631172329954]}},
{"type": "Feature", "id": "wonLIvuQlLPAw8_dRhDhO6uL0aE=", "properties": {"ref": "https://locations.schlotzskys.com/#2671", "@spider": "schlotzskys", "amenity": "fast_food", "cuisine": "sandwich", "takeaway": "yes", "addr:state": "TX", "addr:postcode": "76504", "name": "Schlotzsky's", "phone": "(254) 314-2584", "website": "https://locations.schlotzskys.com/tx/temple/2668-s-31st-street", "opening_hours": "Mo-Su 10:00-20:00", "brand": "Schlotzsky's", "brand:wikidata": "Q2244796", "nsi_id": "schlotzskys-4d2ff4"}, "geometry": {"type": "Point", "coordinates": [-97.36806723131751, 31.075474646483]}},
{"type": "Feature", "id": "efCXCfY4HtrOJNCJxS26zi6Hl8o=", "properties": {"ref": "https://locations.schlotzskys.com/#2665", "@spider": "schlotzskys", "amenity": "fast_food", "cuisine": "sandwich", "takeaway": "yes", "addr:state": "TX", "addr:postcode": "79556", "name": "Schlotzsky's", "phone": "(325) 235-5000", "website": "https://locations.schlotzskys.com/tx/sweetwater/204-south-east-georgia-street", "opening_hours": "Mo-Su 10:30-21:00", "brand": "Schlotzsky's", "brand:wikidata": "Q2244796", "nsi_id": "schlotzskys-4d2ff4"}, "geometry": {"type": "Point", "coordinates": [-100.397379, 32.44953688766588]}},
{"type": "Feature", "id": "cLW5U8QgM2CIR-t3vN1iaH6cVRQ=", "properties": {"ref": "https://locations.schlotzskys.com/#2611", "@spider": "schlotzskys", "amenity": "fast_food", "cuisine": "sandwich", "takeaway": "yes", "addr:state": "TX", "addr:postcode": "78745", "name": "Schlotzsky's", "phone": "(512) 892-3119", "website": "https://locations.schlotzskys.com/tx/sunset-valley/5601-brodie-ln", "opening_hours": "Mo-Fr 07:00-22:00; Sa-Su 08:00-22:00", "brand": "Schlotzsky's", "brand:wikidata": "Q2244796", "nsi_id": "schlotzskys-4d2ff4"}, "geometry": {"type": "Point", "coordinates": [-97.81961403157152, 30.228489191753283]}},
{"type": "Feature", "id": "mlorKWcnClk62WQdb931XnLULT8=", "properties": {"ref": "https://locations.schlotzskys.com/#2699", "@spider": "schlotzskys", "amenity": "fast_food", "cuisine": "sandwich", "takeaway": "yes", "addr:state": "TX", "addr:postcode": "75482", "name": "Schlotzsky's", "phone": "(903) 919-5060", "website": "https://locations.schlotzskys.com/tx/sulphur-springs/1050-gilmer-st", "opening_hours": "Mo-Su 10:00-21:00", "brand": "Schlotzsky's", "brand:wikidata": "Q2244796", "nsi_id": "schlotzskys-4d2ff4"}, "geometry": {"type": "Point", "coordinates": [-95.59653049497783, 33.123058503777884]}},
{"type": "Feature", "id": "REgSrQcQJtgBTx5IjpMsFSeBcCg=", "properties": {"ref": "https://locations.schlotzskys.com/#2765", "@spider": "schlotzskys", "amenity": "fast_food", "cuisine": "sandwich", "takeaway": "yes", "addr:state": "TX", "addr:postcode": "76401", "name": "Schlotzsky's", "phone": "(254) 434-5180", "website": "https://locations.schlotzskys.com/tx/stephenville/2012-west-washington-street", "opening_hours": "Mo-Su 10:00-19:00", "brand": "Schlotzsky's", "brand:wikidata": "Q2244796", "nsi_id": "schlotzskys-4d2ff4"}, "geometry": {"type": "Point", "coordinates": [-98.22314965996203, 32.210585442639605]}},
{"type": "Feature", "id": "K5tzmYy6xUhdRe8SznXj8-BNxzg=", "properties": {"ref": "https://locations.schlotzskys.com/#3673", "@spider": "schlotzskys", "amenity": "fast_food", "cuisine": "sandwich", "takeaway": "yes", "addr:state": "TX", "addr:postcode": "78070", "name": "Schlotzsky's", "phone": "(830) 980-6602", "website": "https://locations.schlotzskys.com/tx/spring-branch/20248-state-highway-46-west-170", "opening_hours": "Mo-Su 09:00-21:30", "brand": "Schlotzsky's", "brand:wikidata": "Q2244796", "nsi_id": "schlotzskys-4d2ff4"}, "geometry": {"type": "Point", "coordinates": [-98.42112149206541, 29.798280272431732]}},
{"type": "Feature", "id": "ZfTsUElWsAz1BrBrBrz9qtbDk2w=", "properties": {"ref": "https://locations.schlotzskys.com/#2781", "@spider": "schlotzskys", "amenity": "fast_food", "cuisine": "sandwich", "takeaway": "yes", "addr:state": "TX", "addr:postcode": "76092", "name": "Schlotzsky's", "phone": "(817) 442-9666", "website": "https://locations.schlotzskys.com/tx/southlake/2000-w-southlake-blvd", "opening_hours": "Mo-Su 10:00-20:00", "brand": "Schlotzsky's", "brand:wikidata": "Q2244796", "nsi_id": "schlotzskys-4d2ff4"}, "geometry": {"type": "Point", "coordinates": [-97.18342232944775, 32.9397536234464]}},
{"type": "Feature", "id": "EuVQhpQCzkCZlAavGT9Ib06nMHQ=", "properties": {"ref": "https://locations.schlotzskys.com/#2663", "@spider": "schlotzskys", "amenity": "fast_food", "cuisine": "sandwich", "takeaway": "yes", "addr:state": "TX", "addr:postcode": "78155", "name": "Schlotzsky's", "phone": "(830) 379-1202", "website": "https://locations.schlotzskys.com/tx/seguin/330-north-123-bypass", "opening_hours": "Mo-Su 09:00-21:00", "brand": "Schlotzsky's", "brand:wikidata": "Q2244796", "nsi_id": "schlotzskys-4d2ff4"}, "geometry": {"type": "Point", "coordinates": [-97.94154441608767, 29.571383961117178]}},
{"type": "Feature", "id": "g1wjXTgHlAhaUB1EeVqkm5U6TI8=", "properties": {"ref": "https://locations.schlotzskys.com/#2529", "@spider": "schlotzskys", "amenity": "fast_food", "cuisine": "sandwich", "takeaway": "yes", "addr:state": "TX", "addr:postcode": "78154", "name": "Schlotzsky's", "phone": "(210) 658-8224", "website": "https://locations.schlotzskys.com/tx/schertz/17604-north-ih-35", "opening_hours": "Mo-Su 11:00-20:00", "brand": "Schlotzsky's", "brand:wikidata": "Q2244796", "nsi_id": "schlotzskys-4d2ff4"}, "geometry": {"type": "Point", "coordinates": [-98.27523718416951, 29.600049274969415]}},
{"type": "Feature", "id": "RG-rxZKrTLwaFSgK5DvqoZCSzzQ=", "properties": {"ref": "https://locations.schlotzskys.com/#3701", "@spider": "schlotzskys", "amenity": "fast_food", "cuisine": "sandwich", "takeaway": "yes", "addr:state": "TX", "addr:postcode": "78666", "name": "Schlotzsky's", "phone": "(512) 392-5230", "website": "https://locations.schlotzskys.com/tx/san-marcos/1020-centerpoint-rd", "opening_hours": "Mo-Su 10:00-20:00", "brand": "Schlotzsky's", "brand:wikidata": "Q2244796", "nsi_id": "schlotzskys-4d2ff4"}, "geometry": {"type": "Point", "coordinates": [-97.98507911714458, 29.826806675335718]}},
{"type": "Feature", "id": "ue9LoYzfDAaLyscFQjasvivCyDE=", "properties": {"ref": "https://locations.schlotzskys.com/#2695", "@spider": "schlotzskys", "amenity": "fast_food", "cuisine": "sandwich", "takeaway": "yes", "addr:state": "TX", "addr:postcode": "76903", "name": "Schlotzsky's", "phone": "(325) 658-3354", "website": "https://locations.schlotzskys.com/tx/san-angelo/302-west-harris", "opening_hours": "Mo-Su 08:00-21:00", "brand": "Schlotzsky's", "brand:wikidata": "Q2244796", "nsi_id": "schlotzskys-4d2ff4"}, "geometry": {"type": "Point", "coordinates": [-100.44331377271443, 31.462405809661846]}},
{"type": "Feature", "id": "yq1_G-Xe7pLQJXoJb-74H_cD-a0=", "properties": {"ref": "https://locations.schlotzskys.com/#2799", "@spider": "schlotzskys", "amenity": "fast_food", "cuisine": "sandwich", "takeaway": "yes", "addr:state": "TX", "addr:postcode": "75087", "name": "Schlotzsky's", "phone": "(972) 722-7900", "website": "https://locations.schlotzskys.com/tx/rockwall/706-east-interstate-30", "opening_hours": "Mo-Su 10:00-21:00", "brand": "Schlotzsky's", "brand:wikidata": "Q2244796", "nsi_id": "schlotzskys-4d2ff4"}, "geometry": {"type": "Point", "coordinates": [-96.466168635582, 32.89893273968518]}},
{"type": "Feature", "id": "HzccJyGH9w-M4dNYMQ4_2uSyQ4o=", "properties": {"ref": "https://locations.schlotzskys.com/#2651", "@spider": "schlotzskys", "amenity": "fast_food", "cuisine": "sandwich", "takeaway": "yes", "addr:state": "TX", "addr:postcode": "76262", "name": "Schlotzsky's", "phone": "(682) 237-7474", "website": "https://locations.schlotzskys.com/tx/roanoke/1320-north-highway-377", "opening_hours": "Mo-Th 10:00-21:00; Fr-Sa 10:00-22:00; Su 10:00-21:00", "brand": "Schlotzsky's", "brand:wikidata": "Q2244796", "nsi_id": "schlotzskys-4d2ff4"}, "geometry": {"type": "Point", "coordinates": [-97.21759939078997, 33.01642509854355]}},
{"type": "Feature", "id": "flxQfSe6SXiWydsu4Hr3IGy8iSk=", "properties": {"ref": "https://locations.schlotzskys.com/#2615", "@spider": "schlotzskys", "amenity": "fast_food", "cuisine": "sandwich", "takeaway": "yes", "addr:state": "TX", "addr:postcode": "77640", "name": "Schlotzsky's", "phone": "(409) 721-9997", "website": "https://locations.schlotzskys.com/tx/port-arthur/8745-memorial-blvd", "opening_hours": "Mo-Su 10:00-21:00", "brand": "Schlotzsky's", "brand:wikidata": "Q2244796", "nsi_id": "schlotzskys-4d2ff4"}, "geometry": {"type": "Point", "coordinates": [-93.99589495268927, 29.945986948523593]}},
{"type": "Feature", "id": "5kPPGPLDeoTgCTpnX2z-z18OsJY=", "properties": {"ref": "https://locations.schlotzskys.com/#2507", "@spider": "schlotzskys", "amenity": "fast_food", "cuisine": "sandwich", "takeaway": "yes", "addr:state": "TX", "addr:postcode": "77584", "name": "Schlotzsky's", "phone": "(281) 997-6464", "website": "https://locations.schlotzskys.com/tx/pearland/9121-broadway", "opening_hours": "Mo-Su 10:30-21:00", "brand": "Schlotzsky's", "brand:wikidata": "Q2244796", "nsi_id": "schlotzskys-4d2ff4"}, "geometry": {"type": "Point", "coordinates": [-95.36199864540504, 29.559807586320286]}},
{"type": "Feature", "id": "xz7TOerL46-N0Pj5rZI26MQkI_w=", "properties": {"ref": "https://locations.schlotzskys.com/#2603", "@spider": "schlotzskys", "amenity": "fast_food", "cuisine": "sandwich", "takeaway": "yes", "addr:state": "TX", "addr:postcode": "77504", "name": "Schlotzsky's", "phone": "(713) 946-2034", "website": "https://locations.schlotzskys.com/tx/pasadena/3834-spencer-hwy", "opening_hours": "Mo-Sa 10:00-20:00; Su 11:00-14:00", "brand": "Schlotzsky's", "brand:wikidata": "Q2244796", "nsi_id": "schlotzskys-4d2ff4"}, "geometry": {"type": "Point", "coordinates": [-95.18580529762829, 29.66473301684946]}},
{"type": "Feature", "id": "rVR6Ej8WFxQAYZ7AuDtXig7WB5Q=", "properties": {"ref": "https://locations.schlotzskys.com/#2605", "@spider": "schlotzskys", "amenity": "fast_food", "cuisine": "sandwich", "takeaway": "yes", "addr:state": "TX", "addr:postcode": "75460", "name": "Schlotzsky's", "phone": "(903) 905-4916", "website": "https://locations.schlotzskys.com/tx/paris/3598-lamar-avenue", "opening_hours": "Mo-Su 10:00-20:00", "brand": "Schlotzsky's", "brand:wikidata": "Q2244796", "nsi_id": "schlotzskys-4d2ff4"}, "geometry": {"type": "Point", "coordinates": [-95.51011462851696, 33.6596935863322]}},
{"type": "Feature", "id": "uYqkcdetrCC9FWIsJ42ybwv7LN0=", "properties": {"ref": "https://locations.schlotzskys.com/#2739", "@spider": "schlotzskys", "amenity": "fast_food", "cuisine": "sandwich", "takeaway": "yes", "addr:state": "TX", "addr:postcode": "76013", "name": "Schlotzsky's", "phone": "(817) 274-6601", "website": "https://locations.schlotzskys.com/tx/pantego/2504-west-park-row", "opening_hours": "Mo-Sa 10:00-20:00; Su 11:00-19:00", "brand": "Schlotzsky's", "brand:wikidata": "Q2244796", "nsi_id": "schlotzskys-4d2ff4"}, "geometry": {"type": "Point", "coordinates": [-97.15037794056472, 32.72077801941359]}},
{"type": "Feature", "id": "4xTueXQAvVR4nuvfaHR16fX1o-c=", "properties": {"ref": "https://locations.schlotzskys.com/#2789", "@spider": "schlotzskys", "amenity": "fast_food", "cuisine": "sandwich", "takeaway": "yes", "addr:state": "TX", "addr:postcode": "79762", "name": "Schlotzsky's", "phone": "(432) 552-0110", "website": "https://locations.schlotzskys.com/tx/odessa/5003-john-ben-sheppard-parkway", "opening_hours": "Mo-Su 08:00-21:30", "brand": "Schlotzsky's", "brand:wikidata": "Q2244796", "nsi_id": "schlotzskys-4d2ff4"}, "geometry": {"type": "Point", "coordinates": [-102.33660406688213, 31.899962597091005]}},
{"type": "Feature", "id": "yGCZipA3O3_-GddMgxNK-fm7PCE=", "properties": {"ref": "https://locations.schlotzskys.com/#7683", "@spider": "schlotzskys", "amenity": "fast_food", "cuisine": "sandwich", "takeaway": "yes", "addr:state": "TX", "addr:postcode": "77357", "name": "Schlotzsky's", "phone": "(281) 354-3712", "website": "https://locations.schlotzskys.com/tx/new-caney/12073-n-grand-pkwy-e", "opening_hours": "Mo-Fr 10:00-20:00; Sa-Su 10:00-16:00", "brand": "Schlotzsky's", "brand:wikidata": "Q2244796", "nsi_id": "schlotzskys-4d2ff4"}, "geometry": {"type": "Point", "coordinates": [-95.23296483815562, 30.130825840445024]}},
{"type": "Feature", "id": "1jiApr21M1oN51O5xw6V1ZG8NpU=", "properties": {"ref": "https://locations.schlotzskys.com/#2623", "@spider": "schlotzskys", "amenity": "fast_food", "cuisine": "sandwich", "takeaway": "yes", "addr:state": "TX", "addr:postcode": "75965", "name": "Schlotzsky's", "phone": "(936) 564-2867", "website": "https://locations.schlotzskys.com/tx/nacogdoches/2608-north-street", "opening_hours": "Mo-Sa 10:30-21:00; Su 11:00-20:00", "brand": "Schlotzsky's", "brand:wikidata": "Q2244796", "nsi_id": "schlotzskys-4d2ff4"}, "geometry": {"type": "Point", "coordinates": [-94.6519694723873, 31.626912561171768]}},
{"type": "Feature", "id": "o5MX5354enZ0_BCFB7zYFnPiYMA=", "properties": {"ref": "https://locations.schlotzskys.com/#2779", "@spider": "schlotzskys", "amenity": "fast_food", "cuisine": "sandwich", "takeaway": "yes", "addr:state": "TX", "addr:postcode": "75094", "name": "Schlotzsky's", "phone": "(469) 814-0390", "website": "https://locations.schlotzskys.com/tx/murphy/350-w-fm-544", "opening_hours": "Mo-Su 10:00-21:00", "brand": "Schlotzsky's", "brand:wikidata": "Q2244796", "nsi_id": "schlotzskys-4d2ff4"}, "geometry": {"type": "Point", "coordinates": [-96.62043986918286, 33.01097331397618]}},
{"type": "Feature", "id": "nLnHBlgZARJdMnwEgWWbUbVi-5c=", "properties": {"ref": "https://locations.schlotzskys.com/#7619", "@spider": "schlotzskys", "amenity": "fast_food", "cuisine": "sandwich", "takeaway": "yes", "addr:state": "TX", "addr:postcode": "75455", "name": "Schlotzsky's", "phone": "(903) 717-8207", "website": "https://locations.schlotzskys.com/tx/mount-pleasant/1000-s-jefferson-ave", "opening_hours": "Mo-Su 10:00-21:00", "brand": "Schlotzsky's", "brand:wikidata": "Q2244796", "nsi_id": "schlotzskys-4d2ff4"}, "geometry": {"type": "Point", "coordinates": [-94.96913795891285, 33.14748564853009]}},
{"type": "Feature", "id": "tCgheUtjA48rvydiZqnTCgvBEJw=", "properties": {"ref": "https://locations.schlotzskys.com/#3715", "@spider": "schlotzskys", "amenity": "fast_food", "cuisine": "sandwich", "takeaway": "yes", "addr:state": "TX", "addr:postcode": "76065", "name": "Schlotzsky's", "phone": "(214) 817-8165", "website": "https://locations.schlotzskys.com/tx/midlothian/1141-george-hopper-road", "opening_hours": "Mo-Su 10:00-21:00", "brand": "Schlotzsky's", "brand:wikidata": "Q2244796", "nsi_id": "schlotzskys-4d2ff4"}, "geometry": {"type": "Point", "coordinates": [-96.98003941104507, 32.47479767900718]}},
{"type": "Feature", "id": "y7uuO-wwPPMQe6o7d_fwkKUZgSE=", "properties": {"ref": "https://locations.schlotzskys.com/#2693", "@spider": "schlotzskys", "amenity": "fast_food", "cuisine": "sandwich", "takeaway": "yes", "addr:state": "TX", "addr:postcode": "75150", "name": "Schlotzsky's", "phone": "(972) 270-6382", "website": "https://locations.schlotzskys.com/tx/mesquite/1515-town-east-blvd", "opening_hours": "Mo-Su 10:30-21:00", "brand": "Schlotzsky's", "brand:wikidata": "Q2244796", "nsi_id": "schlotzskys-4d2ff4"}, "geometry": {"type": "Point", "coordinates": [-96.62143030691924, 32.811327680961035]}},
{"type": "Feature", "id": "5cytE_TOV5xM6FwiXEJY7vvaJ3Y=", "properties": {"ref": "https://locations.schlotzskys.com/#2657", "@spider": "schlotzskys", "amenity": "fast_food", "cuisine": "sandwich", "takeaway": "yes", "addr:state": "TX", "addr:postcode": "75069", "name": "Schlotzsky's", "phone": "(469) 952-5806", "website": "https://locations.schlotzskys.com/tx/mckinney/1521-west-university-drive", "opening_hours": "Mo-Su 10:00-21:00", "brand": "Schlotzsky's", "brand:wikidata": "Q2244796", "nsi_id": "schlotzskys-4d2ff4"}, "geometry": {"type": "Point", "coordinates": [-96.62825288456858, 33.21574417933487]}},
{"type": "Feature", "id": "TdJSNp8x53C8fZ10k-u9NWb6imU=", "properties": {"ref": "https://locations.schlotzskys.com/#2613", "@spider": "schlotzskys", "amenity": "fast_food", "cuisine": "sandwich", "takeaway": "yes", "addr:state": "TX", "addr:postcode": "78501", "name": "Schlotzsky's", "phone": "(956) 687-6566", "website": "https://locations.schlotzskys.com/tx/mcallen/2616-n-10th-street", "opening_hours": "Mo-Th 10:30-21:00; Fr-Sa 10:30-22:00; Su 11:00-21:00", "brand": "Schlotzsky's", "brand:wikidata": "Q2244796", "nsi_id": "schlotzskys-4d2ff4"}, "geometry": {"type": "Point", "coordinates": [-98.22505628799311, 26.227365985964862]}},
{"type": "Feature", "id": "Y-hKBQ5UBgziZ-pYRcCTei0USAA=", "properties": {"ref": "https://locations.schlotzskys.com/#7639", "@spider": "schlotzskys", "amenity": "fast_food", "cuisine": "sandwich", "takeaway": "yes", "addr:state": "TX", "addr:postcode": "75672", "name": "Schlotzsky's", "phone": "(903) 702-7997", "website": "https://locations.schlotzskys.com/tx/marshall/1600-east-end-blvd-n", "opening_hours": "Mo-Su 10:00-21:00", "brand": "Schlotzsky's", "brand:wikidata": "Q2244796", "nsi_id": "schlotzskys-4d2ff4"}, "geometry": {"type": "Point", "coordinates": [-94.34933599581524, 32.55739171434227]}},
{"type": "Feature", "id": "lXcQZY8tjwcxn7dUxPxsogTgD_0=", "properties": {"ref": "https://locations.schlotzskys.com/#2523", "@spider": "schlotzskys", "amenity": "fast_food", "cuisine": "sandwich", "takeaway": "yes", "addr:state": "TX", "addr:postcode": "78654", "name": "Schlotzsky's", "phone": "(830) 798-9333", "website": "https://locations.schlotzskys.com/tx/marble-falls/2410-highway-281", "opening_hours": "Mo-Su 11:00-21:00", "brand": "Schlotzsky's", "brand:wikidata": "Q2244796", "nsi_id": "schlotzskys-4d2ff4"}, "geometry": {"type": "Point", "coordinates": [-98.2717102828207, 30.59585046318345]}},
{"type": "Feature", "id": "7Fskrc7zhBI-4YSiGNr17hoxnSE=", "properties": {"ref": "https://locations.schlotzskys.com/#2457", "@spider": "schlotzskys", "amenity": "fast_food", "cuisine": "sandwich", "takeaway": "yes", "addr:state": "TX", "addr:postcode": "76063", "name": "Schlotzsky's", "phone": "(817) 453-3809", "website": "https://locations.schlotzskys.com/tx/mansfield/2002-us-hwy-287-north", "opening_hours": "Mo-Su 10:00-22:00", "brand": "Schlotzsky's", "brand:wikidata": "Q2244796", "nsi_id": "schlotzskys-4d2ff4"}, "geometry": {"type": "Point", "coordinates": [-97.14705641399222, 32.59960972835189]}},
{"type": "Feature", "id": "x3QACvW-yFsNFUDoWLf2a51y3c4=", "properties": {"ref": "https://locations.schlotzskys.com/#2805", "@spider": "schlotzskys", "amenity": "fast_food", "cuisine": "sandwich", "takeaway": "yes", "addr:state": "TX", "addr:postcode": "77354", "name": "Schlotzsky's", "phone": "(281) 259-7444", "website": "https://locations.schlotzskys.com/tx/magnolia/6209-fm-1488", "opening_hours": "Mo-Sa 10:00-20:30; Su 11:00-19:00", "brand": "Schlotzsky's", "brand:wikidata": "Q2244796", "nsi_id": "schlotzskys-4d2ff4"}, "geometry": {"type": "Point", "coordinates": [-95.56193989875928, 30.22267905541049]}},
{"type": "Feature", "id": "InNjAunt3uwfHlBLZ3AxQsZDwu0=", "properties": {"ref": "https://locations.schlotzskys.com/#2697", "@spider": "schlotzskys", "amenity": "fast_food", "cuisine": "sandwich", "takeaway": "yes", "addr:state": "TX", "addr:postcode": "77657", "name": "Schlotzsky's", "phone": "(409) 751-2131", "website": "https://locations.schlotzskys.com/tx/lumberton/295-country-lane", "opening_hours": "Mo-Su 10:30-21:00", "brand": "Schlotzsky's", "brand:wikidata": "Q2244796", "nsi_id": "schlotzskys-4d2ff4"}, "geometry": {"type": "Point", "coordinates": [-94.2074262915508, 30.242198475757053]}},
{"type": "Feature", "id": "HfWxUm3h6w-x_17HTF4xVGDDMH8=", "properties": {"ref": "https://locations.schlotzskys.com/#2795", "@spider": "schlotzskys", "amenity": "fast_food", "cuisine": "sandwich", "takeaway": "yes", "addr:state": "TX", "addr:postcode": "75901", "name": "Schlotzsky's", "phone": "(936) 639-4900", "website": "https://locations.schlotzskys.com/tx/lufkin/4601-south-medford", "opening_hours": "Mo-Su 10:00-21:00", "brand": "Schlotzsky's", "brand:wikidata": "Q2244796", "nsi_id": "schlotzskys-4d2ff4"}, "geometry": {"type": "Point", "coordinates": [-94.72388153781425, 31.310629944332998]}},
{"type": "Feature", "id": "gyCnBtPecik4QxIhTRrqR004PLs=", "properties": {"ref": "https://locations.schlotzskys.com/#2581", "@spider": "schlotzskys", "amenity": "fast_food", "cuisine": "sandwich", "takeaway": "yes", "addr:state": "TX", "addr:postcode": "75604", "name": "Schlotzsky's", "phone": "(903) 297-8030", "website": "https://locations.schlotzskys.com/tx/longview/1429-w-loop-281", "opening_hours": "Mo-Su 10:00-22:00", "brand": "Schlotzsky's", "brand:wikidata": "Q2244796", "nsi_id": "schlotzskys-4d2ff4"}, "geometry": {"type": "Point", "coordinates": [-94.77706537116529, 32.52933380128889]}},
{"type": "Feature", "id": "YIbHotoLYtXDeYFIlGYP_mx8iN0=", "properties": {"ref": "https://locations.schlotzskys.com/#7681", "@spider": "schlotzskys", "amenity": "fast_food", "cuisine": "sandwich", "takeaway": "yes", "addr:state": "TX", "addr:postcode": "78644", "name": "Schlotzsky's", "phone": "(512) 668-5298", "website": "https://locations.schlotzskys.com/tx/lockhart/111-north-colorado-street", "opening_hours": "Mo-Su 10:00-22:00", "brand": "Schlotzsky's", "brand:wikidata": "Q2244796", "nsi_id": "schlotzskys-4d2ff4"}, "geometry": {"type": "Point", "coordinates": [-97.67080889497784, 29.885447375579396]}},
{"type": "Feature", "id": "wPBe-aPltTIX9oVOtKFE3HeilAg=", "properties": {"ref": "https://locations.schlotzskys.com/#2819", "@spider": "schlotzskys", "amenity": "fast_food", "cuisine": "sandwich", "takeaway": "yes", "addr:state": "TX", "addr:postcode": "75068", "name": "Schlotzsky's", "phone": "(214) 430-5070", "website": "https://locations.schlotzskys.com/tx/little-elm/2691-little-elm-parkway", "opening_hours": "Mo-Su 10:00-21:00", "brand": "Schlotzsky's", "brand:wikidata": "Q2244796", "nsi_id": "schlotzskys-4d2ff4"}, "geometry": {"type": "Point", "coordinates": [-96.88994049409183, 33.1698627986607]}},
{"type": "Feature", "id": "XCdIHQhISrc-mNnU4qhYLEK-F1Q=", "properties": {"ref": "https://locations.schlotzskys.com/#7627", "@spider": "schlotzskys", "amenity": "fast_food", "cuisine": "sandwich", "takeaway": "yes", "addr:state": "TX", "addr:postcode": "75771", "name": "Schlotzsky's", "phone": "(903) 882-5689", "website": "https://locations.schlotzskys.com/tx/lindale/2805-s-main-street", "opening_hours": "Mo-Su 09:00-20:00", "brand": "Schlotzsky's", "brand:wikidata": "Q2244796", "nsi_id": "schlotzskys-4d2ff4"}, "geometry": {"type": "Point", "coordinates": [-95.3940036658926, 32.478716153918086]}},
{"type": "Feature", "id": "zkV1PetwJgwgMribdtcW9_GEhCM=", "properties": {"ref": "https://locations.schlotzskys.com/#4809", "@spider": "schlotzskys", "amenity": "fast_food", "cuisine": "sandwich", "takeaway": "yes", "addr:state": "TX", "addr:postcode": "78642", "name": "Schlotzsky's", "phone": "(512) 778-4208", "website": "https://locations.schlotzskys.com/tx/liberty-hill/13613-w-sh-29", "opening_hours": "Mo-Su 10:00-21:00", "brand": "Schlotzsky's", "brand:wikidata": "Q2244796", "nsi_id": "schlotzskys-4d2ff4"}, "geometry": {"type": "Point", "coordinates": [-97.90936632944775, 30.666440385789702]}},
{"type": "Feature", "id": "CZNxwbAnN1exmm9ebCSUDb2MPjg=", "properties": {"ref": "https://locations.schlotzskys.com/#2735", "@spider": "schlotzskys", "amenity": "fast_food", "cuisine": "sandwich", "takeaway": "yes", "addr:state": "TX", "addr:postcode": "75067", "name": "Schlotzsky's", "phone": "(972) 459-9000", "website": "https://locations.schlotzskys.com/tx/lewisville/450-e-round-grove-road", "opening_hours": "Mo-Su 10:00-21:00", "brand": "Schlotzsky's", "brand:wikidata": "Q2244796", "nsi_id": "schlotzskys-4d2ff4"}, "geometry": {"type": "Point", "coordinates": [-96.97946427517454, 33.00414024054659]}},
{"type": "Feature", "id": "26nx9mT920xy3dIp9knQiRoFbIc=", "properties": {"ref": "https://locations.schlotzskys.com/#2849", "@spider": "schlotzskys", "amenity": "fast_food", "cuisine": "sandwich", "takeaway": "yes", "addr:state": "TX", "addr:postcode": "76550", "name": "Schlotzsky's", "phone": "(512) 556-5000", "website": "https://locations.schlotzskys.com/tx/lampasas/102-riverview-drive", "opening_hours": "Mo-Su 10:00-21:00", "brand": "Schlotzsky's", "brand:wikidata": "Q2244796", "nsi_id": "schlotzskys-4d2ff4"}, "geometry": {"type": "Point", "coordinates": [-98.17889589067867, 31.05737755114136]}},
{"type": "Feature", "id": "3ioqMYL8N1_VW1cZUZwW-yO8PQ8=", "properties": {"ref": "https://locations.schlotzskys.com/#2659", "@spider": "schlotzskys", "amenity": "fast_food", "cuisine": "sandwich", "takeaway": "yes", "addr:state": "TX", "addr:postcode": "77571", "name": "Schlotzsky's", "phone": "(281) 479-2000", "website": "https://locations.schlotzskys.com/tx/la-porte/8920-spencer-hwy", "opening_hours": "Mo-Su 10:00-21:00", "brand": "Schlotzsky's", "brand:wikidata": "Q2244796", "nsi_id": "schlotzskys-4d2ff4"}, "geometry": {"type": "Point", "coordinates": [-95.09903369748724, 29.663642450523625]}},
{"type": "Feature", "id": "FTWjVfsKJzHbFXZd6Si-WdvJztg=", "properties": {"ref": "https://locations.schlotzskys.com/#2487", "@spider": "schlotzskys", "amenity": "fast_food", "cuisine": "sandwich", "takeaway": "yes", "addr:state": "TX", "addr:postcode": "78640", "name": "Schlotzsky's", "phone": "(512) 262-7267", "website": "https://locations.schlotzskys.com/tx/kyle/19350-ih-35-south", "opening_hours": "Mo-Su 10:00-19:00", "brand": "Schlotzsky's", "brand:wikidata": "Q2244796", "nsi_id": "schlotzskys-4d2ff4"}, "geometry": {"type": "Point", "coordinates": [-97.85178637718688, 30.028038563416704]}},
{"type": "Feature", "id": "Xguc6HKRVrdwYk8txJDq8tPXngs=", "properties": {"ref": "https://locations.schlotzskys.com/#2513", "@spider": "schlotzskys", "amenity": "fast_food", "cuisine": "sandwich", "takeaway": "yes", "addr:state": "TX", "addr:postcode": "77339", "name": "Schlotzsky's", "phone": "(281) 358-2867", "website": "https://locations.schlotzskys.com/tx/kingwood/1263-kingwood-drive", "opening_hours": "Mo-Sa 10:30-20:30; Su 10:30-17:00", "brand": "Schlotzsky's", "brand:wikidata": "Q2244796", "nsi_id": "schlotzskys-4d2ff4"}, "geometry": {"type": "Point", "coordinates": [-95.2377957375497, 30.05067743536765]}},
{"type": "Feature", "id": "2hHVTPZk4NaNiv_7REg34E2JwsY=", "properties": {"ref": "https://locations.schlotzskys.com/#2757", "@spider": "schlotzskys", "amenity": "fast_food", "cuisine": "sandwich", "takeaway": "yes", "addr:state": "TX", "addr:postcode": "76541", "name": "Schlotzsky's", "phone": "(254) 554-5550", "website": "https://locations.schlotzskys.com/tx/killeen/902-west-central-texas-expressway", "opening_hours": "Mo-Fr 10:00-20:00; Sa-Su 10:00-18:00", "brand": "Schlotzsky's", "brand:wikidata": "Q2244796", "nsi_id": "schlotzskys-4d2ff4"}, "geometry": {"type": "Point", "coordinates": [-97.74834351068179, 31.10611040958767]}},
{"type": "Feature", "id": "hADNPhCOk9eAwM2reDxSezwU2aE=", "properties": {"ref": "https://locations.schlotzskys.com/#4837", "@spider": "schlotzskys", "amenity": "fast_food", "cuisine": "sandwich", "takeaway": "yes", "addr:state": "TX", "addr:postcode": "75662", "name": "Schlotzsky's", "phone": "(903) 218-0768", "website": "https://locations.schlotzskys.com/tx/kilgore/1211-north-kilgore-st", "opening_hours": "Mo-Su 10:00-21:00", "brand": "Schlotzsky's", "brand:wikidata": "Q2244796", "nsi_id": "schlotzskys-4d2ff4"}, "geometry": {"type": "Point", "coordinates": [-94.86547946733698, 32.39145381843714]}},
{"type": "Feature", "id": "GIb6MhHNSuc-bGosO38pePTT2kE=", "properties": {"ref": "https://locations.schlotzskys.com/#2707", "@spider": "schlotzskys", "amenity": "fast_food", "cuisine": "sandwich", "takeaway": "yes", "addr:state": "TX", "addr:postcode": "78028", "name": "Schlotzsky's", "phone": "(830) 895-3354", "website": "https://locations.schlotzskys.com/tx/kerrville/1423-sidney-baker", "opening_hours": "Mo-Su 10:00-21:00", "brand": "Schlotzsky's", "brand:wikidata": "Q2244796", "nsi_id": "schlotzskys-4d2ff4"}, "geometry": {"type": "Point", "coordinates": [-99.12730759631252, 30.058268725236577]}},
{"type": "Feature", "id": "hm2SWLwMugRY37-4P5Tr3zmXGqw=", "properties": {"ref": "https://locations.schlotzskys.com/#2729", "@spider": "schlotzskys", "amenity": "fast_food", "cuisine": "sandwich", "takeaway": "yes", "addr:state": "TX", "addr:postcode": "76248", "name": "Schlotzsky's", "phone": "(817) 562-8825", "website": "https://locations.schlotzskys.com/tx/keller/1085-s-main-st", "opening_hours": "Mo-Su 10:00-22:00", "brand": "Schlotzsky's", "brand:wikidata": "Q2244796", "nsi_id": "schlotzskys-4d2ff4"}, "geometry": {"type": "Point", "coordinates": [-97.25463002674269, 32.91710782323574]}},
{"type": "Feature", "id": "23NDIQMvanRl2IS-QMm39zP4DGY=", "properties": {"ref": "https://locations.schlotzskys.com/#8645", "@spider": "schlotzskys", "amenity": "fast_food", "cuisine": "sandwich", "takeaway": "yes", "addr:state": "TX", "addr:postcode": "75142", "name": "Schlotzsky's", "phone": "(972) 962-1378", "website": "https://locations.schlotzskys.com/tx/kaufman/380-east-us-175-frontage-rd", "opening_hours": "Mo-Su 10:00-21:00", "brand": "Schlotzsky's", "brand:wikidata": "Q2244796", "nsi_id": "schlotzskys-4d2ff4"}, "geometry": {"type": "Point", "coordinates": [-96.30809545461369, 32.57312723837976]}},
{"type": "Feature", "id": "llcbxS0VUfxjhibjzuhshLvdCWY=", "properties": {"ref": "https://locations.schlotzskys.com/#2647", "@spider": "schlotzskys", "amenity": "fast_food", "cuisine": "sandwich", "takeaway": "yes", "addr:state": "TX", "addr:postcode": "75766", "name": "Schlotzsky's", "phone": "(903) 339-3090", "website": "https://locations.schlotzskys.com/tx/jacksonville/1664-jackson-street", "opening_hours": "Mo-Su 09:00-20:00", "brand": "Schlotzsky's", "brand:wikidata": "Q2244796", "nsi_id": "schlotzskys-4d2ff4"}, "geometry": {"type": "Point", "coordinates": [-95.25931169786739, 31.946405531792923]}},
{"type": "Feature", "id": "d_jvmn20vIhIxrhkVkFZAFXXRQU=", "properties": {"ref": "https://locations.schlotzskys.com/#2579", "@spider": "schlotzskys", "amenity": "fast_food", "cuisine": "sandwich", "takeaway": "yes", "addr:state": "TX", "addr:postcode": "76054", "name": "Schlotzsky's", "phone": "(817) 893-5554", "website": "https://locations.schlotzskys.com/tx/hurst/320-grapevine-highway", "opening_hours": "Mo-Su 10:00-21:00", "brand": "Schlotzsky's", "brand:wikidata": "Q2244796", "nsi_id": "schlotzskys-4d2ff4"}, "geometry": {"type": "Point", "coordinates": [-97.17157888026266, 32.86849810621951]}},
{"type": "Feature", "id": "G6GyiHs13kyb5u-45UE_2-bHZc8=", "properties": {"ref": "https://locations.schlotzskys.com/#2827", "@spider": "schlotzskys", "amenity": "fast_food", "cuisine": "sandwich", "takeaway": "yes", "addr:state": "TX", "addr:postcode": "77340", "name": "Schlotzsky's", "phone": "(936) 293-1900", "website": "https://locations.schlotzskys.com/tx/huntsville/118-ih45-south", "opening_hours": "Mo-Su 10:00-21:00", "brand": "Schlotzsky's", "brand:wikidata": "Q2244796", "nsi_id": "schlotzskys-4d2ff4"}, "geometry": {"type": "Point", "coordinates": [-95.56774765213224, 30.717275005822565]}},
{"type": "Feature", "id": "LhI0vDm7t9tENs5GqM_ZsPdVvpE=", "properties": {"ref": "https://locations.schlotzskys.com/#7685", "@spider": "schlotzskys", "amenity": "fast_food", "cuisine": "sandwich", "takeaway": "yes", "addr:state": "TX", "addr:postcode": "76087", "name": "Schlotzsky's", "phone": "(682) 350-9799", "website": "https://locations.schlotzskys.com/tx/hudson-oaks/2860-fort-worth-highway", "opening_hours": "Mo-Su 10:00-21:00", "brand": "Schlotzsky's", "brand:wikidata": "Q2244796", "nsi_id": "schlotzskys-4d2ff4"}, "geometry": {"type": "Point", "coordinates": [-97.71562060500011, 32.75641085116536]}},
{"type": "Feature", "id": "kuTLbTSdJ_S6k8aFkzmly5oCO8M=", "properties": {"ref": "https://locations.schlotzskys.com/#2537", "@spider": "schlotzskys", "amenity": "fast_food", "cuisine": "sandwich", "takeaway": "yes", "addr:state": "TX", "addr:postcode": "76645", "name": "Schlotzsky's", "phone": "(254) 582-5155", "website": "https://locations.schlotzskys.com/tx/hillsboro/200-ih-35-nw", "opening_hours": "Mo-Fr 10:00-21:00; Sa 09:00-21:00; Su 10:00-21:00", "brand": "Schlotzsky's", "brand:wikidata": "Q2244796", "nsi_id": "schlotzskys-4d2ff4"}, "geometry": {"type": "Point", "coordinates": [-97.09738680982308, 32.00921760428397]}},
{"type": "Feature", "id": "qiIdwGCM-sjovDJmqMhAGX7A4GQ=", "properties": {"ref": "https://locations.schlotzskys.com/#7849", "@spider": "schlotzskys", "amenity": "fast_food", "cuisine": "sandwich", "takeaway": "yes", "addr:state": "TX", "addr:postcode": "75654", "name": "Schlotzsky's", "phone": "(903) 722-2053", "website": "https://locations.schlotzskys.com/tx/henderson/419-s-us-hwy-79", "opening_hours": "Mo-Su 10:00-21:00", "brand": "Schlotzsky's", "brand:wikidata": "Q2244796", "nsi_id": "schlotzskys-4d2ff4"}, "geometry": {"type": "Point", "coordinates": [-94.78794123426465, 32.1477915274709]}},
{"type": "Feature", "id": "pB9Y42iIMwXw2s6Clwom1VNVrpA=", "properties": {"ref": "https://locations.schlotzskys.com/#2851", "@spider": "schlotzskys", "amenity": "fast_food", "cuisine": "sandwich", "takeaway": "yes", "addr:state": "TX", "addr:postcode": "76548", "name": "Schlotzsky's", "phone": "(254) 680-2869", "website": "https://locations.schlotzskys.com/tx/harker-heights/103-west-central-texas-expressway", "opening_hours": "Mo-Fr 10:00-20:00; Sa-Su 10:00-18:00", "brand": "Schlotzsky's", "brand:wikidata": "Q2244796", "nsi_id": "schlotzskys-4d2ff4"}, "geometry": {"type": "Point", "coordinates": [-97.6754172681055, 31.073037018628227]}},
{"type": "Feature", "id": "9SZkTT_B7Gb_GnGeXYGW5u9IKXQ=", "properties": {"ref": "https://locations.schlotzskys.com/#2609", "@spider": "schlotzskys", "amenity": "fast_food", "cuisine": "sandwich", "takeaway": "yes", "addr:state": "TX", "addr:postcode": "76137", "name": "Schlotzsky's", "phone": "(817) 428-6448", "website": "https://locations.schlotzskys.com/tx/haltom-city/6360-north-beach", "opening_hours": "Mo-Sa 10:30-20:30; Su 11:00-19:00", "brand": "Schlotzsky's", "brand:wikidata": "Q2244796", "nsi_id": "schlotzskys-4d2ff4"}, "geometry": {"type": "Point", "coordinates": [-97.28947436990723, 32.85950782424851]}},
{"type": "Feature", "id": "WZ-80ItrdNJ2HI9SNutwNKNKD-E=", "properties": {"ref": "https://locations.schlotzskys.com/#2559", "@spider": "schlotzskys", "amenity": "fast_food", "cuisine": "sandwich", "takeaway": "yes", "addr:state": "TX", "addr:postcode": "75402", "name": "Schlotzsky's", "phone": "(903) 454-6164", "website": "https://locations.schlotzskys.com/tx/greenville/6834-south-wesley", "opening_hours": "Mo-Su 10:30-21:00", "brand": "Schlotzsky's", "brand:wikidata": "Q2244796", "nsi_id": "schlotzskys-4d2ff4"}, "geometry": {"type": "Point", "coordinates": [-96.11151578645377, 33.10098793334368]}},
{"type": "Feature", "id": "gypiCQTBDO0UWvRbSFhlaUVWXbs=", "properties": {"ref": "https://locations.schlotzskys.com/#2667", "@spider": "schlotzskys", "amenity": "fast_food", "cuisine": "sandwich", "takeaway": "yes", "addr:state": "TX", "addr:postcode": "76051", "name": "Schlotzsky's", "phone": "(817) 424-5201", "website": "https://locations.schlotzskys.com/tx/grapevine/1801-s-main-street", "opening_hours": "Mo-Su 10:00-21:00", "brand": "Schlotzsky's", "brand:wikidata": "Q2244796", "nsi_id": "schlotzskys-4d2ff4"}, "geometry": {"type": "Point", "coordinates": [-97.07777976992321, 32.92049913787598]}},
{"type": "Feature", "id": "n-IVAyDVf4IPUnbG7W2AHrDlB7M=", "properties": {"ref": "https://locations.schlotzskys.com/#2857", "@spider": "schlotzskys", "amenity": "fast_food", "cuisine": "sandwich", "takeaway": "yes", "addr:state": "TX", "addr:postcode": "76048", "name": "Schlotzsky's", "phone": "(817) 573-9909", "website": "https://locations.schlotzskys.com/tx/granbury/1100-waters-edge-drive", "opening_hours": "Mo-Su 10:00-21:00", "brand": "Schlotzsky's", "brand:wikidata": "Q2244796", "nsi_id": "schlotzskys-4d2ff4"}, "geometry": {"type": "Point", "coordinates": [-97.7782626238139, 32.43294192343084]}},
{"type": "Feature", "id": "eGVEtXP4YdaxaB18jp36dTjVpus=", "properties": {"ref": "https://locations.schlotzskys.com/#2753", "@spider": "schlotzskys", "amenity": "fast_food", "cuisine": "sandwich", "takeaway": "yes", "addr:state": "TX", "addr:postcode": "75644", "name": "Schlotzsky's", "phone": "(903) 680-3354", "website": "https://locations.schlotzskys.com/tx/gilmer/720-us-hwy-271-n", "opening_hours": "Mo-Su 10:00-21:00", "brand": "Schlotzsky's", "brand:wikidata": "Q2244796", "nsi_id": "schlotzskys-4d2ff4"}, "geometry": {"type": "Point", "coordinates": [-94.94193581655027, 32.73779210465554]}},
{"type": "Feature", "id": "KIVFfED4Ii2fIMF6YVej4qIWkVA=", "properties": {"ref": "https://locations.schlotzskys.com/#2551", "@spider": "schlotzskys", "amenity": "fast_food", "cuisine": "sandwich", "takeaway": "yes", "addr:state": "TX", "addr:postcode": "78626", "name": "Schlotzsky's", "phone": "(512) 868-1244", "website": "https://locations.schlotzskys.com/tx/georgetown/601-s-ih-35", "opening_hours": "Mo-Su 10:30-20:00", "brand": "Schlotzsky's", "brand:wikidata": "Q2244796", "nsi_id": "schlotzskys-4d2ff4"}, "geometry": {"type": "Point", "coordinates": [-97.68769348393278, 30.639643729278202]}},
{"type": "Feature", "id": "GGyjPMLLmHbCC_WgKoldCX1Hjq4=", "properties": {"ref": "https://locations.schlotzskys.com/#7609", "@spider": "schlotzskys", "amenity": "fast_food", "cuisine": "sandwich", "takeaway": "yes", "addr:state": "TX", "addr:postcode": "76240", "name": "Schlotzsky's", "phone": "(940) 668-0997", "website": "https://locations.schlotzskys.com/tx/gainesville/201-n-interstate-35", "opening_hours": "Mo-Su 10:00-20:00", "brand": "Schlotzsky's", "brand:wikidata": "Q2244796", "nsi_id": "schlotzskys-4d2ff4"}, "geometry": {"type": "Point", "coordinates": [-97.15353415765476, 33.62517625818415]}},
{"type": "Feature", "id": "XtyLjjqYJj1Ht9tzXTf2OmTM3uU=", "properties": {"ref": "https://locations.schlotzskys.com/#2783", "@spider": "schlotzskys", "amenity": "fast_food", "cuisine": "sandwich", "takeaway": "yes", "addr:state": "TX", "addr:postcode": "75034", "name": "Schlotzsky's", "phone": "(972) 731-8780", "website": "https://locations.schlotzskys.com/tx/frisco/3887-preston-road", "opening_hours": "Mo-Su 10:00-21:00", "brand": "Schlotzsky's", "brand:wikidata": "Q2244796", "nsi_id": "schlotzskys-4d2ff4"}, "geometry": {"type": "Point", "coordinates": [-96.80628814282825, 33.1115010962712]}},
{"type": "Feature", "id": "sAa6yXkMh2ARA0gCjTGWBKjnzQw=", "properties": {"ref": "https://locations.schlotzskys.com/#2501", "@spider": "schlotzskys", "amenity": "fast_food", "cuisine": "sandwich", "takeaway": "yes", "addr:state": "TX", "addr:postcode": "77546", "name": "Schlotzsky's", "phone": "(281) 996-5483", "website": "https://locations.schlotzskys.com/tx/friendswood/109-east-parkwood", "opening_hours": "Mo-Su 10:00-21:30", "brand": "Schlotzsky's", "brand:wikidata": "Q2244796", "nsi_id": "schlotzskys-4d2ff4"}, "geometry": {"type": "Point", "coordinates": [-95.18720495398463, 29.509749038382015]}},
{"type": "Feature", "id": "6pCeTwJyLVk40LKC6jAynbuIbd4=", "properties": {"ref": "https://locations.schlotzskys.com/#2497", "@spider": "schlotzskys", "amenity": "fast_food", "cuisine": "sandwich", "takeaway": "yes", "addr:state": "TX", "addr:postcode": "75126", "name": "Schlotzsky's", "phone": "(972) 552-9474", "website": "https://locations.schlotzskys.com/tx/forney/750-e-highway-80", "opening_hours": "Mo-Su 10:00-21:00", "brand": "Schlotzsky's", "brand:wikidata": "Q2244796", "nsi_id": "schlotzskys-4d2ff4"}, "geometry": {"type": "Point", "coordinates": [-96.44940170446813, 32.743963341537324]}},
{"type": "Feature", "id": "G1O4-G7K1CyYjE318xHEOeMwItc=", "properties": {"ref": "https://locations.schlotzskys.com/#2587", "@spider": "schlotzskys", "amenity": "fast_food", "cuisine": "sandwich", "takeaway": "yes", "addr:state": "TX", "addr:postcode": "75028", "name": "Schlotzsky's", "phone": "(972) 899-8130", "website": "https://locations.schlotzskys.com/tx/flower-mound/3851-long-prairie-road", "opening_hours": "Mo-Su 08:00-21:00", "brand": "Schlotzsky's", "brand:wikidata": "Q2244796", "nsi_id": "schlotzskys-4d2ff4"}, "geometry": {"type": "Point", "coordinates": [-97.0702491894553, 33.03770187415054]}},
{"type": "Feature", "id": "4T6mcQMz_qWJ5gqLCeo8ti6vYX8=", "properties": {"ref": "https://locations.schlotzskys.com/#2797", "@spider": "schlotzskys", "amenity": "fast_food", "cuisine": "sandwich", "takeaway": "yes", "addr:state": "TX", "addr:postcode": "75244", "name": "Schlotzsky's", "phone": "(972) 239-8002", "website": "https://locations.schlotzskys.com/tx/farmers-branch/13881-midway-road", "opening_hours": "Mo-Su 10:00-20:00", "brand": "Schlotzsky's", "brand:wikidata": "Q2244796", "nsi_id": "schlotzskys-4d2ff4"}, "geometry": {"type": "Point", "coordinates": [-96.83963311656761, 32.937737419775885]}},
{"type": "Feature", "id": "WVTDbEAuFPl5I-5owaqvybZAeVg=", "properties": {"ref": "https://locations.schlotzskys.com/#8449", "@spider": "schlotzskys", "amenity": "fast_food", "cuisine": "sandwich", "takeaway": "yes", "addr:state": "TX", "addr:postcode": "75119", "name": "Schlotzsky's", "phone": "(469) 881-1011", "website": "https://locations.schlotzskys.com/tx/ennis/400-n-i-45", "opening_hours": "Mo-Su 10:00-21:00", "brand": "Schlotzsky's", "brand:wikidata": "Q2244796", "nsi_id": "schlotzskys-4d2ff4"}, "geometry": {"type": "Point", "coordinates": [-96.61659895254954, 32.33695620219318]}},
{"type": "Feature", "id": "M-iBNvYp1T--Kl9h-ohCjnswSyk=", "properties": {"ref": "https://locations.schlotzskys.com/#2679", "@spider": "schlotzskys", "amenity": "fast_food", "cuisine": "sandwich", "takeaway": "yes", "addr:state": "TX", "addr:postcode": "78621", "name": "Schlotzsky's", "phone": "(512) 285-2867", "website": "https://locations.schlotzskys.com/tx/elgin/1131-highway-290-east", "opening_hours": "Mo-Su 10:00-21:00", "brand": "Schlotzsky's", "brand:wikidata": "Q2244796", "nsi_id": "schlotzskys-4d2ff4"}, "geometry": {"type": "Point", "coordinates": [-97.38431147622718, 30.349479509360407]}},
{"type": "Feature", "id": "RQ-z_KTbeQlW6ibTUlw_wS_dUlU=", "properties": {"ref": "https://locations.schlotzskys.com/#8499", "@spider": "schlotzskys", "amenity": "fast_food", "cuisine": "sandwich", "takeaway": "yes", "addr:state": "TX", "addr:postcode": "78539", "name": "Schlotzsky's", "phone": "(956) 994-9966", "website": "https://locations.schlotzskys.com/tx/edinburg/1704-w-university-dr", "opening_hours": "Mo-Su 10:00-22:00", "brand": "Schlotzsky's", "brand:wikidata": "Q2244796", "nsi_id": "schlotzskys-4d2ff4"}, "geometry": {"type": "Point", "coordinates": [-98.18013522161024, 26.303496011228834]}},
{"type": "Feature", "id": "7YBk3cdaSOYiqDaZ2ZusLRCR2Z0=", "properties": {"ref": "https://locations.schlotzskys.com/#2633", "@spider": "schlotzskys", "amenity": "fast_food", "cuisine": "sandwich", "takeaway": "yes", "addr:state": "TX", "addr:postcode": "78620", "name": "Schlotzsky's", "phone": "(512) 894-2043", "website": "https://locations.schlotzskys.com/tx/dripping-springs/1025-cannon-dr", "opening_hours": "Mo-Su 10:00-21:00", "brand": "Schlotzsky's", "brand:wikidata": "Q2244796", "nsi_id": "schlotzskys-4d2ff4"}, "geometry": {"type": "Point", "coordinates": [-98.08214711151729, 30.192201237715732]}},
{"type": "Feature", "id": "PWLOqB_J8BeZ8LSXcLmrVO3OpKc=", "properties": {"ref": "https://locations.schlotzskys.com/#2531", "@spider": "schlotzskys", "amenity": "fast_food", "cuisine": "sandwich", "takeaway": "yes", "addr:state": "TX", "addr:postcode": "76201", "name": "Schlotzsky's", "phone": "(940) 565-1900", "website": "https://locations.schlotzskys.com/tx/denton/416-west-university-drive", "opening_hours": "Mo-Su 10:00-21:00", "brand": "Schlotzsky's", "brand:wikidata": "Q2244796", "nsi_id": "schlotzskys-4d2ff4"}, "geometry": {"type": "Point", "coordinates": [-97.1366275072463, 33.231310825383645]}},
{"type": "Feature", "id": "UbnmTh3VdMnZQAzw-2a9H0RJxrg=", "properties": {"ref": "https://locations.schlotzskys.com/#2491", "@spider": "schlotzskys", "amenity": "fast_food", "cuisine": "sandwich", "takeaway": "yes", "addr:state": "TX", "addr:postcode": "75020", "name": "Schlotzsky's", "phone": "(903) 462-4592", "website": "https://locations.schlotzskys.com/tx/denison/3124-regency-ln", "opening_hours": "Mo-Su 10:00-21:00", "brand": "Schlotzsky's", "brand:wikidata": "Q2244796", "nsi_id": "schlotzskys-4d2ff4"}, "geometry": {"type": "Point", "coordinates": [-96.58357479456672, 33.76072233846355]}},
{"type": "Feature", "id": "oMLjXkUxlGxAqhPhzCLI6Wg8zAw=", "properties": {"ref": "https://locations.schlotzskys.com/#2479", "@spider": "schlotzskys", "amenity": "fast_food", "cuisine": "sandwich", "takeaway": "yes", "addr:state": "TX", "addr:postcode": "75109", "name": "Schlotzsky's", "phone": "(903) 641-2867", "website": "https://locations.schlotzskys.com/tx/corsicana/3101-mountain-drive", "opening_hours": "Mo-Su 10:00-21:00", "brand": "Schlotzsky's", "brand:wikidata": "Q2244796", "nsi_id": "schlotzskys-4d2ff4"}, "geometry": {"type": "Point", "coordinates": [-96.44685451873555, 32.070378621632194]}},
{"type": "Feature", "id": "_VIYccPO_lzuOfrsHISfiXOL-Kw=", "properties": {"ref": "https://locations.schlotzskys.com/#2747", "@spider": "schlotzskys", "amenity": "fast_food", "cuisine": "sandwich", "takeaway": "yes", "addr:state": "TX", "addr:postcode": "76522", "name": "Schlotzsky's", "phone": "(254) 542-1107", "website": "https://locations.schlotzskys.com/tx/copperas-cove/80-cove-terrace", "opening_hours": "Mo-Sa 10:00-20:00; Su 11:00-20:00", "brand": "Schlotzsky's", "brand:wikidata": "Q2244796", "nsi_id": "schlotzskys-4d2ff4"}, "geometry": {"type": "Point", "coordinates": [-97.89643392626066, 31.11991340358235]}},
{"type": "Feature", "id": "f8WalX-NcBu4GOzB0C3JeNUSp4E=", "properties": {"ref": "https://locations.schlotzskys.com/#2751", "@spider": "schlotzskys", "amenity": "fast_food", "cuisine": "sandwich", "takeaway": "yes", "addr:state": "TX", "addr:postcode": "75019", "name": "Schlotzsky's", "phone": "(972) 393-3233", "website": "https://locations.schlotzskys.com/tx/coppell/135-s-denton-tap-road", "opening_hours": "Mo-Su 10:00-21:00", "brand": "Schlotzsky's", "brand:wikidata": "Q2244796", "nsi_id": "schlotzskys-4d2ff4"}, "geometry": {"type": "Point", "coordinates": [-96.99411426441942, 32.96760046539676]}},
{"type": "Feature", "id": "lzaBPMBXaE7bCqba8zVp-L3pTZA=", "properties": {"ref": "https://locations.schlotzskys.com/#2545", "@spider": "schlotzskys", "amenity": "fast_food", "cuisine": "sandwich", "takeaway": "yes", "addr:state": "TX", "addr:postcode": "77304", "name": "Schlotzsky's", "phone": "(936) 441-2867", "website": "https://locations.schlotzskys.com/tx/conroe/507-i-45-north", "opening_hours": "Mo-Sa 10:30-20:00; Su 11:00-16:00", "brand": "Schlotzsky's", "brand:wikidata": "Q2244796", "nsi_id": "schlotzskys-4d2ff4"}, "geometry": {"type": "Point", "coordinates": [-95.4724418417349, 30.312873647634298]}},
{"type": "Feature", "id": "1ad0dbaJGjNePKSBoTR4l4vDDDU=", "properties": {"ref": "https://locations.schlotzskys.com/#2527", "@spider": "schlotzskys", "amenity": "fast_food", "cuisine": "sandwich", "takeaway": "yes", "addr:state": "TX", "addr:postcode": "76033", "name": "Schlotzsky's", "phone": "(817) 645-6677", "website": "https://locations.schlotzskys.com/tx/cleburne/1216-w-henderson", "opening_hours": "Mo-Su 10:00-21:00", "brand": "Schlotzsky's", "brand:wikidata": "Q2244796", "nsi_id": "schlotzskys-4d2ff4"}, "geometry": {"type": "Point", "coordinates": [-97.40394346206052, 32.342098940274404]}},
{"type": "Feature", "id": "W74ZS88A-VzjS7KFrLecp5LN0X4=", "properties": {"ref": "https://locations.schlotzskys.com/#2769", "@spider": "schlotzskys", "amenity": "fast_food", "cuisine": "sandwich", "takeaway": "yes", "addr:state": "TX", "addr:postcode": "77058", "name": "Schlotzsky's", "phone": "(281) 204-9244", "website": "https://locations.schlotzskys.com/tx/clear-lake/1521-bay-area-blvd", "opening_hours": "Mo-Su 10:00-21:30", "brand": "Schlotzsky's", "brand:wikidata": "Q2244796", "nsi_id": "schlotzskys-4d2ff4"}, "geometry": {"type": "Point", "coordinates": [-95.11490810276419, 29.56319496778689]}},
{"type": "Feature", "id": "vPD2P11HszaTWBFCYw58VgvVGhA=", "properties": {"ref": "https://locations.schlotzskys.com/#7673", "@spider": "schlotzskys", "amenity": "fast_food", "cuisine": "sandwich", "takeaway": "yes", "addr:state": "TX", "addr:postcode": "77530", "name": "Schlotzsky's", "phone": "(281) 864-5259", "website": "https://locations.schlotzskys.com/tx/channelview/17141-i-10", "opening_hours": "Mo-Su 06:00-21:00", "brand": "Schlotzsky's", "brand:wikidata": "Q2244796", "nsi_id": "schlotzskys-4d2ff4"}, "geometry": {"type": "Point", "coordinates": [-95.09025054814883, 29.791267511368616]}},
{"type": "Feature", "id": "_D-n1mk0mbrTpPtFQLHFJyIbN2w=", "properties": {"ref": "https://locations.schlotzskys.com/#2719", "@spider": "schlotzskys", "amenity": "fast_food", "cuisine": "sandwich", "takeaway": "yes", "addr:state": "TX", "addr:postcode": "79015", "name": "Schlotzsky's", "phone": "(806) 655-2867", "website": "https://locations.schlotzskys.com/tx/canyon/901-s-23rd", "opening_hours": "Mo-Su 10:00-20:00", "brand": "Schlotzsky's", "brand:wikidata": "Q2244796", "nsi_id": "schlotzskys-4d2ff4"}, "geometry": {"type": "Point", "coordinates": [-101.91858471206982, 34.97443563615505]}},
{"type": "Feature", "id": "sVsMcwbEzWyB8bneHk8eehMVSWw=", "properties": {"ref": "https://locations.schlotzskys.com/#2661", "@spider": "schlotzskys", "amenity": "fast_food", "cuisine": "sandwich", "takeaway": "yes", "addr:state": "TX", "addr:postcode": "75103", "name": "Schlotzsky's", "phone": "(903) 567-5000", "website": "https://locations.schlotzskys.com/tx/canton/17279-interstate-20-service-road", "opening_hours": "Mo-Su 10:00-20:00", "brand": "Schlotzsky's", "brand:wikidata": "Q2244796", "nsi_id": "schlotzskys-4d2ff4"}, "geometry": {"type": "Point", "coordinates": [-95.85689362883744, 32.577980606634256]}},
{"type": "Feature", "id": "ui17ak36jYe1Q24XpLBQdpeMZaQ=", "properties": {"ref": "https://locations.schlotzskys.com/#2741", "@spider": "schlotzskys", "amenity": "fast_food", "cuisine": "sandwich", "takeaway": "yes", "addr:state": "TX", "addr:postcode": "76028", "name": "Schlotzsky's", "phone": "(817) 295-5606", "website": "https://locations.schlotzskys.com/tx/burleson/705-se-wilshire-blvd", "opening_hours": "Mo-Su 10:00-20:00", "brand": "Schlotzsky's", "brand:wikidata": "Q2244796", "nsi_id": "schlotzskys-4d2ff4"}, "geometry": {"type": "Point", "coordinates": [-97.3355088005004, 32.53356087235258]}},
{"type": "Feature", "id": "S3raSXV5wicfmZPgaFJZEbgRTg0=", "properties": {"ref": "https://locations.schlotzskys.com/#2713", "@spider": "schlotzskys", "amenity": "fast_food", "cuisine": "sandwich", "takeaway": "yes", "addr:state": "TX", "addr:postcode": "78610", "name": "Schlotzsky's", "phone": "(512) 295-0247", "website": "https://locations.schlotzskys.com/tx/buda/125-north-fm-1626", "opening_hours": "Mo-Su 11:00-19:00", "brand": "Schlotzsky's", "brand:wikidata": "Q2244796", "nsi_id": "schlotzskys-4d2ff4"}, "geometry": {"type": "Point", "coordinates": [-97.87585379359008, 30.098249932335897]}},
{"type": "Feature", "id": "Fm0u8UlNskoHW6u-s8ESfIO8-Ww=", "properties": {"ref": "https://locations.schlotzskys.com/#2861", "@spider": "schlotzskys", "amenity": "fast_food", "cuisine": "sandwich", "takeaway": "yes", "addr:state": "TX", "addr:postcode": "76801", "name": "Schlotzsky's", "phone": "(325) 643-6661", "website": "https://locations.schlotzskys.com/tx/brownwood/919-north-fisk", "opening_hours": "Mo-Th 10:30-20:00; Fr-Sa 10:30-21:00; Su 10:30-20:00", "brand": "Schlotzsky's", "brand:wikidata": "Q2244796", "nsi_id": "schlotzskys-4d2ff4"}, "geometry": {"type": "Point", "coordinates": [-98.97960373680671, 31.72686112666052]}},
{"type": "Feature", "id": "s7BvcKXWjAwHC9z_2QAKtDCEhtg=", "properties": {"ref": "https://locations.schlotzskys.com/#2733", "@spider": "schlotzskys", "amenity": "fast_food", "cuisine": "sandwich", "takeaway": "yes", "addr:state": "TX", "addr:postcode": "77833", "name": "Schlotzsky's", "phone": "(979) 421-6340", "website": "https://locations.schlotzskys.com/tx/brenham/2606-highway-36-south", "opening_hours": "Mo-Sa 09:00-21:00; Su 10:00-20:00", "brand": "Schlotzsky's", "brand:wikidata": "Q2244796", "nsi_id": "schlotzskys-4d2ff4"}, "geometry": {"type": "Point", "coordinates": [-96.39640926073055, 30.141542694266946]}},
{"type": "Feature", "id": "-EjjpNZ-WPMkUgLowfR0N8Lem1o=", "properties": {"ref": "https://locations.schlotzskys.com/#8277", "@spider": "schlotzskys", "amenity": "fast_food", "cuisine": "sandwich", "takeaway": "yes", "addr:state": "TX", "addr:postcode": "78006", "name": "Schlotzsky's", "phone": "(830) 331-7424", "website": "https://locations.schlotzskys.com/tx/boerne/1445-s-main-st", "opening_hours": "Mo-Su 10:00-21:00", "brand": "Schlotzsky's", "brand:wikidata": "Q2244796", "nsi_id": "schlotzskys-4d2ff4"}, "geometry": {"type": "Point", "coordinates": [-98.72369858931137, 29.775984162335106]}},
{"type": "Feature", "id": "O6zWwaQqOLYYYc0OlZHkau2wCjo=", "properties": {"ref": "https://locations.schlotzskys.com/#2489", "@spider": "schlotzskys", "amenity": "fast_food", "cuisine": "sandwich", "takeaway": "yes", "addr:state": "TX", "addr:postcode": "76513", "name": "Schlotzsky's", "phone": "(254) 939-8300", "website": "https://locations.schlotzskys.com/tx/belton/1012-east-2nd-ave", "opening_hours": "Mo-Su 10:00-20:00", "brand": "Schlotzsky's", "brand:wikidata": "Q2244796", "nsi_id": "schlotzskys-4d2ff4"}, "geometry": {"type": "Point", "coordinates": [-97.45130129557438, 31.055860508753632]}},
{"type": "Feature", "id": "1W-JRMtQqP7r5tZhEnpCGObKiy8=", "properties": {"ref": "https://locations.schlotzskys.com/#4949", "@spider": "schlotzskys", "amenity": "fast_food", "cuisine": "sandwich", "takeaway": "yes", "addr:state": "TX", "addr:postcode": "78738", "name": "Schlotzsky's", "phone": "(737) 209-0123", "website": "https://locations.schlotzskys.com/tx/bee-cave/3944-ranch-rd-620-s", "opening_hours": "Mo-Su 10:00-21:00", "brand": "Schlotzsky's", "brand:wikidata": "Q2244796", "nsi_id": "schlotzskys-4d2ff4"}, "geometry": {"type": "Point", "coordinates": [-97.94746551274065, 30.308973347638297]}},
{"type": "Feature", "id": "kqGR0r6NH4fbgE4QH5aquNNJwzI=", "properties": {"ref": "https://locations.schlotzskys.com/#2815", "@spider": "schlotzskys", "amenity": "fast_food", "cuisine": "sandwich", "takeaway": "yes", "addr:state": "TX", "addr:postcode": "77706", "name": "Schlotzsky's", "phone": "(409) 924-9991", "website": "https://locations.schlotzskys.com/tx/beaumont/4080-n-dowlen-rd", "opening_hours": "Mo-Su 10:30-21:00", "brand": "Schlotzsky's", "brand:wikidata": "Q2244796", "nsi_id": "schlotzskys-4d2ff4"}, "geometry": {"type": "Point", "coordinates": [-94.16650031779099, 30.11968379878354]}},
{"type": "Feature", "id": "Y6oopt-l3usF9wakCm6lArORer8=", "properties": {"ref": "https://locations.schlotzskys.com/#2731", "@spider": "schlotzskys", "amenity": "fast_food", "cuisine": "sandwich", "takeaway": "yes", "addr:state": "TX", "addr:postcode": "78602", "name": "Schlotzsky's", "phone": "(512) 332-2867", "website": "https://locations.schlotzskys.com/tx/bastrop/492-state-highway-71-west", "opening_hours": "Mo-Su 08:00-22:00", "brand": "Schlotzsky's", "brand:wikidata": "Q2244796", "nsi_id": "schlotzskys-4d2ff4"}, "geometry": {"type": "Point", "coordinates": [-97.33286852867923, 30.105629545557697]}},
{"type": "Feature", "id": "taJukKWkSP2ANu1TAay4vONgMEY=", "properties": {"ref": "https://locations.schlotzskys.com/#2547", "@spider": "schlotzskys", "amenity": "fast_food", "cuisine": "sandwich", "takeaway": "yes", "addr:state": "TX", "addr:postcode": "75751", "name": "Schlotzsky's", "phone": "(903) 677-0202", "website": "https://locations.schlotzskys.com/tx/athens/215-s-palestine", "opening_hours": "Mo-Su 07:00-20:00", "brand": "Schlotzsky's", "brand:wikidata": "Q2244796", "nsi_id": "schlotzskys-4d2ff4"}, "geometry": {"type": "Point", "coordinates": [-95.85326567972754, 32.202301815472694]}}]}