{"type":"FeatureCollection","features":[{"type": "Feature", "id": "0oZ7OPOCwz_uPqOsYkc6OmBh5ZU=", "properties": {"ref": "https://locations.schnucks.com/il-bloomington-706", "@spider": "schnucks", "shop": "supermarket", "addr:street_address": "1701 East Empire St", "addr:city": "Bloomington", "addr:state": "IL", "addr:postcode": "61701", "name": "Schnucks Bloomington", "phone": "309-662-9300", "website": "https://locations.schnucks.com/il-bloomington-706", "image": "https://s3.amazonaws.com/media.locally.net/logo-270x270/schnucks-1_2021-02-25-08-33-27.jpg", "brand": "Schnuck's", "brand:wikidata": "Q7431920", "nsi_id": "schnucks-dde59d"}, "geometry": {"type": "Point", "coordinates": [-88.9513, 40.4854]}},
{"type": "Feature", "id": "xkGH6lDm4ger2SWfPkcGkS_GLEQ=", "properties": {"ref": "https://locations.schnucks.com/illinois-mahomet-709", "@spider": "schnucks", "shop": "supermarket", "addr:street_address": "202 Eastwood Dr", "addr:city": "Mahomet", "addr:state": "IL", "addr:postcode": "61853", "name": "Schnucks Mahomet", "phone": "217-586-1108", "website": "https://locations.schnucks.com/illinois-mahomet-709", "image": "https://s3.amazonaws.com/media.locally.net/logo-270x270/schnucks-1_2021-02-25-08-33-27.jpg", "brand": "Schnuck's", "brand:wikidata": "Q7431920", "nsi_id": "schnucks-dde59d"}, "geometry": {"type": "Point", "coordinates": [-88.3973, 40.19614]}},
{"type": "Feature", "id": "GB9tlXi38d7qnG7NU6sF6s9ibhs=", "properties": {"ref": "https://locations.schnucks.com/il-champaign-707", "@spider": "schnucks", "shop": "supermarket", "addr:street_address": "109 N. Mattis Rd", "addr:city": "Champaign", "addr:state": "IL", "addr:postcode": "61821", "name": "Schnucks Champaign", "phone": "217-351-2600", "website": "https://locations.schnucks.com/il-champaign-707", "image": "https://s3.amazonaws.com/media.locally.net/logo-270x270/schnucks-1_2021-02-25-08-33-27.jpg", "brand": "Schnuck's", "brand:wikidata": "Q7431920", "nsi_id": "schnucks-dde59d"}, "geometry": {"type": "Point", "coordinates": [-88.2787, 40.11718]}},
{"type": "Feature", "id": "2vlGzr9HtPFuBYBxeW7mnyfLrN8=", "properties": {"ref": "https://locations.schnucks.com/il-savoy-730", "@spider": "schnucks", "shop": "supermarket", "addr:street_address": "1301 Savoy Plaza Center", "addr:city": "Savoy", "addr:state": "IL", "addr:postcode": "61874", "name": "Schnucks Savoy", "phone": "217-373-0700", "website": "https://locations.schnucks.com/il-savoy-730", "image": "https://s3.amazonaws.com/media.locally.net/logo-270x270/schnucks-1_2021-02-25-08-33-27.jpg", "brand": "Schnuck's", "brand:wikidata": "Q7431920", "nsi_id": "schnucks-dde59d"}, "geometry": {"type": "Point", "coordinates": [-88.2516, 40.07044]}},
{"type": "Feature", "id": "oXYkZhabQQM0tZWx81RjC1ZKznA=", "properties": {"ref": "https://locations.schnucks.com/il-urbana-720", "@spider": "schnucks", "shop": "supermarket", "addr:street_address": "200 N Vine St", "addr:city": "Urbana", "addr:state": "IL", "addr:postcode": "61801", "name": "Schnucks Urbana", "phone": "217-337-6016", "website": "https://locations.schnucks.com/il-urbana-720", "image": "https://s3.amazonaws.com/media.locally.net/logo-270x270/schnucks-1_2021-02-25-08-33-27.jpg", "brand": "Schnuck's", "brand:wikidata": "Q7431920", "nsi_id": "schnucks-dde59d"}, "geometry": {"type": "Point", "coordinates": [-88.2032, 40.11415]}},
{"type": "Feature", "id": "DqyN1ygH9j8yaMbuQ6COAKBltPw=", "properties": {"ref": "https://locations.schnucks.com/in-evansville-705", "@spider": "schnucks", "shop": "supermarket", "addr:street_address": "4500 West Lloyd Expwy", "addr:city": "Evansville", "addr:state": "IN", "addr:postcode": "47712", "name": "Schnucks Evansville West", "phone": "812-422-6325", "website": "https://locations.schnucks.com/in-evansville-705", "image": "https://s3.amazonaws.com/media.locally.net/logo-270x270/schnucks-1_2021-02-25-08-33-27.jpg", "brand": "Schnuck's", "brand:wikidata": "Q7431920", "nsi_id": "schnucks-dde59d"}, "geometry": {"type": "Point", "coordinates": [-87.6299, 37.97625]}},
{"type": "Feature", "id": "vFZS0XMjb6ZIqXNqWUfBKiBsTKM=", "properties": {"ref": "https://locations.schnucks.com/in-evansville-704", "@spider": "schnucks", "shop": "supermarket", "addr:street_address": "3700 First Ave", "addr:city": "Evansville", "addr:state": "IN", "addr:postcode": "47710", "name": "Schnucks Evansville North", "phone": "812-464-3920", "website": "https://locations.schnucks.com/in-evansville-704", "image": "https://s3.amazonaws.com/media.locally.net/logo-270x270/schnucks-1_2021-02-25-08-33-27.jpg", "brand": "Schnuck's", "brand:wikidata": "Q7431920", "nsi_id": "schnucks-dde59d"}, "geometry": {"type": "Point", "coordinates": [-87.576, 38.01201]}},
{"type": "Feature", "id": "ONkzi5Y3zPvVYqgZ_99BVv8g5qg=", "properties": {"ref": "https://locations.schnucks.com/in-evansville-742", "@spider": "schnucks", "shop": "supermarket", "addr:street_address": "600 E. Boonville New Harmony Rd.", "addr:city": "Evansville", "addr:state": "IN", "addr:postcode": "47725", "name": "Schnucks Darmstadt", "phone": "812-464-3500", "website": "https://locations.schnucks.com/in-evansville-742", "image": "https://s3.amazonaws.com/media.locally.net/logo-270x270/schnucks-1_2021-02-25-08-33-27.jpg", "brand": "Schnuck's", "brand:wikidata": "Q7431920", "nsi_id": "schnucks-dde59d"}, "geometry": {"type": "Point", "coordinates": [-87.553, 38.09577]}},
{"type": "Feature", "id": "oF-CkLr5fUAZlyozOsukqL4B54w=", "properties": {"ref": "https://locations.schnucks.com/in-evansville-708", "@spider": "schnucks", "shop": "supermarket", "addr:street_address": "5000 Washington Ave", "addr:city": "Evansville", "addr:state": "IN", "addr:postcode": "47715", "name": "Schnucks Lawndale", "phone": "812-473-0151", "website": "https://locations.schnucks.com/in-evansville-708", "image": "https://s3.amazonaws.com/media.locally.net/logo-270x270/schnucks-1_2021-02-25-08-33-27.jpg", "brand": "Schnuck's", "brand:wikidata": "Q7431920", "nsi_id": "schnucks-dde59d"}, "geometry": {"type": "Point", "coordinates": [-87.4909, 37.96299]}},
{"type": "Feature", "id": "ticxv0Y9W7zT7qCDhmg90vL3y8I=", "properties": {"ref": "https://locations.schnucks.com/in-evansville-728", "@spider": "schnucks", "shop": "supermarket", "addr:street_address": "3501 North Green River Road", "addr:city": "Evansville", "addr:state": "IN", "addr:postcode": "47715", "name": "Schnucks Green River", "phone": "812-473-4510", "website": "https://locations.schnucks.com/in-evansville-728", "image": "https://s3.amazonaws.com/media.locally.net/logo-270x270/schnucks-1_2021-02-25-08-33-27.jpg", "brand": "Schnuck's", "brand:wikidata": "Q7431920", "nsi_id": "schnucks-dde59d"}, "geometry": {"type": "Point", "coordinates": [-87.4901, 38.00966]}},
{"type": "Feature", "id": "OJBVQUDxaWNudQAAzKk1DUI0QV0=", "properties": {"ref": "https://locations.schnucks.com/in-newburgh-744", "@spider": "schnucks", "shop": "supermarket", "addr:street_address": "8301 Bell Oaks Drive", "addr:city": "Newburgh", "addr:state": "IN", "addr:postcode": "47630", "name": "Schnucks Newburgh", "phone": "812-853-9505", "website": "https://locations.schnucks.com/in-newburgh-744", "image": "https://s3.amazonaws.com/media.locally.net/logo-270x270/schnucks-1_2021-02-25-08-33-27.jpg", "brand": "Schnuck's", "brand:wikidata": "Q7431920", "nsi_id": "schnucks-dde59d"}, "geometry": {"type": "Point", "coordinates": [-87.4018, 37.97494]}},
{"type": "Feature", "id": "4JZlTTGI3yIlH5sZ02cGPDh1r1M=", "properties": {"ref": "https://locations.schnucks.com/indiana-jasper-331", "@spider": "schnucks", "shop": "supermarket", "addr:street_address": "3605 N. NEWTON ST.", "addr:city": "Jasper", "addr:state": "IN", "addr:postcode": "47546", "name": "Schnucks Fresh Jasper", "phone": "812-817-5320", "website": "https://locations.schnucks.com/indiana-jasper-331", "image": "https://s3.amazonaws.com/media.locally.net/logo-270x270/schnucks-1_2021-02-25-08-33-27.jpg", "brand": "Schnuck's", "brand:wikidata": "Q7431920", "nsi_id": "schnucks-dde59d"}, "geometry": {"type": "Point", "coordinates": [-86.9399, 38.42427]}},
{"type": "Feature", "id": "7On786mSOWR8_GYzxUiIT0sw75k=", "properties": {"ref": "https://locations.schnucks.com/il-columbia-244", "@spider": "schnucks", "shop": "supermarket", "addr:street_address": "1000 Columbia Centre Dr", "addr:city": "Columbia", "addr:state": "IL", "addr:postcode": "62236", "name": "Schnucks Market Place", "phone": "618-281-6300", "website": "https://locations.schnucks.com/il-columbia-244", "image": "https://s3.amazonaws.com/media.locally.net/logo-270x270/schnucks-1_2021-02-25-08-33-27.jpg", "brand": "Schnuck's", "brand:wikidata": "Q7431920", "nsi_id": "schnucks-dde59d"}, "geometry": {"type": "Point", "coordinates": [-90.2205, 38.44453]}},
{"type": "Feature", "id": "VfCWmysUY6e5QLav8O0NWwxtVaY=", "properties": {"ref": "https://locations.schnucks.com/mo-st-louis-143", "@spider": "schnucks", "shop": "supermarket", "addr:street_address": "3430 S. Grand", "addr:city": "St. Louis", "addr:state": "MO", "addr:postcode": "63118", "name": "Schnucks South City", "phone": "314-772-5500", "website": "https://locations.schnucks.com/mo-st-louis-143", "image": "https://s3.amazonaws.com/media.locally.net/logo-270x270/schnucks-1_2021-02-25-08-33-27.jpg", "brand": "Schnuck's", "brand:wikidata": "Q7431920", "nsi_id": "schnucks-dde59d"}, "geometry": {"type": "Point", "coordinates": [-90.2424, 38.595]}},
{"type": "Feature", "id": "eHLpvSAiqkPEPnRdY6FRxjAalRM=", "properties": {"ref": "https://locations.schnucks.com/mo-st-louis-227", "@spider": "schnucks", "shop": "supermarket", "addr:street_address": "4171 Lindell Blvd", "addr:city": "St. Louis", "addr:state": "MO", "addr:postcode": "63108", "name": "Schnucks Lindell", "phone": "314-533-8027", "website": "https://locations.schnucks.com/mo-st-louis-227", "image": "https://s3.amazonaws.com/media.locally.net/logo-270x270/schnucks-1_2021-02-25-08-33-27.jpg", "brand": "Schnuck's", "brand:wikidata": "Q7431920", "nsi_id": "schnucks-dde59d"}, "geometry": {"type": "Point", "coordinates": [-90.2474, 38.64158]}},
{"type": "Feature", "id": "7Gh3_ggA01BBDbvYkNsnZgVbsto=", "properties": {"ref": "https://locations.schnucks.com/mo-st-louis-216", "@spider": "schnucks", "shop": "supermarket", "addr:street_address": "1589 Sierra Vista Plaza", "addr:city": "St. Louis", "addr:state": "MO", "addr:postcode": "63138", "name": "Schnucks Sierra Vista", "phone": "314-741-0282", "website": "https://locations.schnucks.com/mo-st-louis-216", "image": "https://s3.amazonaws.com/media.locally.net/logo-270x270/schnucks-1_2021-02-25-08-33-27.jpg", "brand": "Schnuck's", "brand:wikidata": "Q7431920", "nsi_id": "schnucks-dde59d"}, "geometry": {"type": "Point", "coordinates": [-90.2204, 38.77172]}},
{"type": "Feature", "id": "ChRCqC04bgbP7VJMSL5B17WGTmc=", "properties": {"ref": "https://locations.schnucks.com/mo-columbia-714", "@spider": "schnucks", "shop": "supermarket", "addr:street_address": "1400 Forum Blvd", "addr:city": "Columbia", "addr:state": "MO", "addr:postcode": "65205", "name": "Schnucks Columbia", "phone": "573-446-2800", "website": "https://locations.schnucks.com/mo-columbia-714", "image": "https://s3.amazonaws.com/media.locally.net/logo-270x270/schnucks-1_2021-02-25-08-33-27.jpg", "brand": "Schnuck's", "brand:wikidata": "Q7431920", "nsi_id": "schnucks-dde59d"}, "geometry": {"type": "Point", "coordinates": [-92.3585, 38.93701]}},
{"type": "Feature", "id": "_vSnXC9cdBJjIuhLWl9YGUCizTU=", "properties": {"ref": "https://locations.schnucks.com/mo-columbia-307", "@spider": "schnucks", "shop": "supermarket", "addr:street_address": "111 S. PROVIDENCE RD", "addr:city": "Columbia", "addr:state": "MO", "addr:postcode": "65203", "name": "EatWell Providence", "phone": "573-442-2128", "website": "https://locations.schnucks.com/mo-columbia-307", "image": "https://s3.amazonaws.com/media.locally.net/logo-270x270/schnucks-1_2021-02-25-08-33-27.jpg", "brand": "Schnuck's", "brand:wikidata": "Q7431920", "nsi_id": "schnucks-dde59d"}, "geometry": {"type": "Point", "coordinates": [-92.3353, 38.95007]}},
{"type": "Feature", "id": "HKO_8EBSW_Pz8NXldlEdhxJdB0c=", "properties": {"ref": "https://locations.schnucks.com/mo-columbia-715", "@spider": "schnucks", "shop": "supermarket", "addr:street_address": "5410 Clark Lane", "addr:city": "Columbia", "addr:state": "MO", "addr:postcode": "65202", "name": "Schnucks Battle Crossing", "phone": "573-514-6988", "website": "https://locations.schnucks.com/mo-columbia-715", "image": "https://s3.amazonaws.com/media.locally.net/logo-270x270/schnucks-1_2021-02-25-08-33-27.jpg", "brand": "Schnuck's", "brand:wikidata": "Q7431920", "nsi_id": "schnucks-dde59d"}, "geometry": {"type": "Point", "coordinates": [-92.2548, 38.96318]}},
{"type": "Feature", "id": "Oz2CSs8ObkqZk9HnOSERGKkUr58=", "properties": {"ref": "https://locations.schnucks.com/mo-jefferson-city-726", "@spider": "schnucks", "shop": "supermarket", "addr:street_address": "1801 Missouri Blvd", "addr:city": "Jefferson City", "addr:state": "MO", "addr:postcode": "65109", "name": "Schnucks Jefferson City", "phone": "573-635-4666", "website": "https://locations.schnucks.com/mo-jefferson-city-726", "image": "https://s3.amazonaws.com/media.locally.net/logo-270x270/schnucks-1_2021-02-25-08-33-27.jpg", "brand": "Schnuck's", "brand:wikidata": "Q7431920", "nsi_id": "schnucks-dde59d"}, "geometry": {"type": "Point", "coordinates": [-92.1995, 38.57943]}},
{"type": "Feature", "id": "aHsw8Dbs3RBgZxFkXh6VcHRHbBY=", "properties": {"ref": "https://locations.schnucks.com/mo-warrenton-710", "@spider": "schnucks", "shop": "supermarket", "addr:street_address": "499 East Veterans Memorial Pkwy", "addr:city": "Warrenton", "addr:state": "MO", "addr:postcode": "63383", "name": "Schnucks Warrenton", "phone": "636-456-1036", "website": "https://locations.schnucks.com/mo-warrenton-710", "image": "https://s3.amazonaws.com/media.locally.net/logo-270x270/schnucks-1_2021-02-25-08-33-27.jpg", "brand": "Schnuck's", "brand:wikidata": "Q7431920", "nsi_id": "schnucks-dde59d"}, "geometry": {"type": "Point", "coordinates": [-91.1444, 38.82017]}},
{"type": "Feature", "id": "qHLrYzuIM16oibcNFNxuFcuckbM=", "properties": {"ref": "https://locations.schnucks.com/mo-union-371", "@spider": "schnucks", "shop": "supermarket", "addr:street_address": "401 Central Avenue", "addr:city": "Union", "addr:state": "MO", "addr:postcode": "63084", "name": "Schnucks UNION", "phone": "636-503-2102", "website": "https://locations.schnucks.com/mo-union-371", "image": "https://s3.amazonaws.com/media.locally.net/logo-270x270/schnucks-1_2021-02-25-08-33-27.jpg", "brand": "Schnuck's", "brand:wikidata": "Q7431920", "nsi_id": "schnucks-dde59d"}, "geometry": {"type": "Point", "coordinates": [-91.0046, 38.45557]}},
{"type": "Feature", "id": "J9mYt6RBzEQIxzb1AL0trvYXgtI=", "properties": {"ref": "https://locations.schnucks.com/mo-washington-719", "@spider": "schnucks", "shop": "supermarket", "addr:street_address": "2073 Washington Crossing", "addr:city": "Washington", "addr:state": "MO", "addr:postcode": "63090", "name": "Schnucks Washington", "phone": "636-239-3577", "website": "https://locations.schnucks.com/mo-washington-719", "image": "https://s3.amazonaws.com/media.locally.net/logo-270x270/schnucks-1_2021-02-25-08-33-27.jpg", "brand": "Schnuck's", "brand:wikidata": "Q7431920", "nsi_id": "schnucks-dde59d"}, "geometry": {"type": "Point", "coordinates": [-91.0082, 38.53573]}},
{"type": "Feature", "id": "E3CRVqn0E5yT9JcjPnXxlTzBHvY=", "properties": {"ref": "https://locations.schnucks.com/mo-wentzville-725", "@spider": "schnucks", "shop": "supermarket", "addr:street_address": "1960 Wentzville Parkway", "addr:city": "Wentzville", "addr:state": "MO", "addr:postcode": "63385", "name": "Schnucks Wentzville Crossing", "phone": "636-332-8468", "website": "https://locations.schnucks.com/mo-wentzville-725", "image": "https://s3.amazonaws.com/media.locally.net/logo-270x270/schnucks-1_2021-02-25-08-33-27.jpg", "brand": "Schnuck's", "brand:wikidata": "Q7431920", "nsi_id": "schnucks-dde59d"}, "geometry": {"type": "Point", "coordinates": [-90.8736, 38.81467]}},
{"type": "Feature", "id": "r0dquw-Zt7_9nZah7EQ9RkVYwXA=", "properties": {"ref": "https://locations.schnucks.com/mo-lake-st-louis-135", "@spider": "schnucks", "shop": "supermarket", "addr:street_address": "101 Civic Center Drive", "addr:city": "Lake St. Louis", "addr:state": "MO", "addr:postcode": "63367", "name": "Schnucks Lake St. Louis", "phone": "636-561-1922", "website": "https://locations.schnucks.com/mo-lake-st-louis-135", "image": "https://s3.amazonaws.com/media.locally.net/logo-270x270/schnucks-1_2021-02-25-08-33-27.jpg", "brand": "Schnuck's", "brand:wikidata": "Q7431920", "nsi_id": "schnucks-dde59d"}, "geometry": {"type": "Point", "coordinates": [-90.7968, 38.78448]}},
{"type": "Feature", "id": "hnIKwCTuYzldJh_LlHqo3Y8R-SM=", "properties": {"ref": "https://locations.schnucks.com/mo-dardenne-prairie-213", "@spider": "schnucks", "shop": "supermarket", "addr:street_address": "7909 Highway N", "addr:city": "Dardenne Prairie", "addr:state": "MO", "addr:postcode": "63368", "name": "Schnucks Town Square", "phone": "636-561-4650", "website": "https://locations.schnucks.com/mo-dardenne-prairie-213", "image": "https://s3.amazonaws.com/media.locally.net/logo-270x270/schnucks-1_2021-02-25-08-33-27.jpg", "brand": "Schnuck's", "brand:wikidata": "Q7431920", "nsi_id": "schnucks-dde59d"}, "geometry": {"type": "Point", "coordinates": [-90.766, 38.76874]}},
{"type": "Feature", "id": "G2V6NtMjtZl8E9Itv2og9ER7GxY=", "properties": {"ref": "https://locations.schnucks.com/mo-ofallon-123", "@spider": "schnucks", "shop": "supermarket", "addr:street_address": "3029 Highway K", "addr:city": "O'Fallon", "addr:state": "MO", "addr:postcode": "63368", "name": "Schnucks Dardenne Crossing", "phone": "636-240-6868", "website": "https://locations.schnucks.com/mo-ofallon-123", "image": "https://s3.amazonaws.com/media.locally.net/logo-270x270/schnucks-1_2021-02-25-08-33-27.jpg", "brand": "Schnuck's", "brand:wikidata": "Q7431920", "nsi_id": "schnucks-dde59d"}, "geometry": {"type": "Point", "coordinates": [-90.7036, 38.75614]}},
{"type": "Feature", "id": "w3PU3_knBr0cLdT2lv-eUvecu6w=", "properties": {"ref": "https://locations.schnucks.com/mo-ofallon-129", "@spider": "schnucks", "shop": "supermarket", "addr:street_address": "8660 Veterans Memorial Parkway", "addr:city": "O'Fallon", "addr:state": "MO", "addr:postcode": "63366", "name": "Schnucks O'Fallon", "phone": "636-978-3566", "website": "https://locations.schnucks.com/mo-ofallon-129", "image": "https://s3.amazonaws.com/media.locally.net/store-350x350/129_2021-03-29-08-52-55.jpg", "brand": "Schnuck's", "brand:wikidata": "Q7431920", "nsi_id": "schnucks-dde59d"}, "geometry": {"type": "Point", "coordinates": [-90.6988, 38.79924]}},
{"type": "Feature", "id": "G-iuWgqGiJbBVSDPFXmH6tLclvA=", "properties": {"ref": "https://locations.schnucks.com/mo-o-fallon-219", "@spider": "schnucks", "shop": "supermarket", "addr:street_address": "3740 Monticello Plaza Drive", "addr:city": "O'Fallon", "addr:state": "MO", "addr:postcode": "63368", "name": "Schnucks Monticello", "phone": "636-300-0630", "website": "https://locations.schnucks.com/mo-o-fallon-219", "image": "https://s3.amazonaws.com/media.locally.net/logo-270x270/schnucks-1_2021-02-25-08-33-27.jpg", "brand": "Schnuck's", "brand:wikidata": "Q7431920", "nsi_id": "schnucks-dde59d"}, "geometry": {"type": "Point", "coordinates": [-90.6894, 38.73282]}},
{"type": "Feature", "id": "7AnmbJrsbgYaseGgQznwwk_uOak=", "properties": {"ref": "https://locations.schnucks.com/mo-eureka-196", "@spider": "schnucks", "shop": "supermarket", "addr:street_address": "245 East 5th St.", "addr:city": "Eureka", "addr:state": "MO", "addr:postcode": "63025", "name": "Schnucks Eureka Pointe", "phone": "636-938-4102", "website": "https://locations.schnucks.com/mo-eureka-196", "image": "https://s3.amazonaws.com/media.locally.net/logo-270x270/schnucks-1_2021-02-25-08-33-27.jpg", "brand": "Schnuck's", "brand:wikidata": "Q7431920", "nsi_id": "schnucks-dde59d"}, "geometry": {"type": "Point", "coordinates": [-90.6196, 38.50715]}},
{"type": "Feature", "id": "Fili8XnkwmVzmYwoGJpb26V6E8I=", "properties": {"ref": "https://locations.schnucks.com/mo-wildwood-121", "@spider": "schnucks", "shop": "supermarket", "addr:street_address": "16580 Manchester", "addr:city": "Wildwood", "addr:state": "MO", "addr:postcode": "63040", "name": "Schnucks Wildwood", "phone": "636-458-5544", "website": "https://locations.schnucks.com/mo-wildwood-121", "image": "https://s3.amazonaws.com/media.locally.net/logo-270x270/schnucks-1_2021-02-25-08-33-27.jpg", "brand": "Schnuck's", "brand:wikidata": "Q7431920", "nsi_id": "schnucks-dde59d"}, "geometry": {"type": "Point", "coordinates": [-90.6179, 38.58017]}},
{"type": "Feature", "id": "PwS5cTbDPhvR_sO8X9kCYeE7Ow8=", "properties": {"ref": "https://locations.schnucks.com/mo-cottleville-124", "@spider": "schnucks", "shop": "supermarket", "addr:street_address": "6083 Mid Rivers Mall Dr.", "addr:city": "St. Charles", "addr:state": "MO", "addr:postcode": "63304", "name": "Schnucks Cottleville", "phone": "636-498-0108", "website": "https://locations.schnucks.com/mo-cottleville-124", "image": "https://s3.amazonaws.com/media.locally.net/logo-270x270/schnucks-1_2021-02-25-08-33-27.jpg", "brand": "Schnuck's", "brand:wikidata": "Q7431920", "nsi_id": "schnucks-dde59d"}, "geometry": {"type": "Point", "coordinates": [-90.6371, 38.74509]}},
{"type": "Feature", "id": "FZVCV0is0Lv4B_hRYpap4zKIAh4=", "properties": {"ref": "https://locations.schnucks.com/mo-st-peters-110", "@spider": "schnucks", "shop": "supermarket", "addr:street_address": "577 Mid Rivers Mall Drive", "addr:city": "St. Peters", "addr:state": "MO", "addr:postcode": "63376", "name": "Schnucks Mid Rivers", "phone": "636-970-2570", "website": "https://locations.schnucks.com/mo-st-peters-110", "image": "https://s3.amazonaws.com/media.locally.net/logo-270x270/schnucks-1_2021-02-25-08-33-27.jpg", "brand": "Schnuck's", "brand:wikidata": "Q7431920", "nsi_id": "schnucks-dde59d"}, "geometry": {"type": "Point", "coordinates": [-90.6282, 38.7873]}},
{"type": "Feature", "id": "qpVey5ekTipRzaPSa9r8hMsq2VA=", "properties": {"ref": "https://locations.schnucks.com/mo-farmington-743", "@spider": "schnucks", "shop": "supermarket", "addr:street_address": "942 Valley Creek Drive", "addr:city": "Farmington", "addr:state": "MO", "addr:postcode": "63640", "name": "Schnucks Farmington", "phone": "573-664-5200", "website": "https://locations.schnucks.com/mo-farmington-743", "image": "https://s3.amazonaws.com/media.locally.net/logo-270x270/schnucks-1_2021-02-25-08-33-27.jpg", "brand": "Schnuck's", "brand:wikidata": "Q7431920", "nsi_id": "schnucks-dde59d"}, "geometry": {"type": "Point", "coordinates": [-90.4417, 37.79393]}},
{"type": "Feature", "id": "-fUdR8K9GMwWLUK6Zu9IF7altp4=", "properties": {"ref": "https://locations.schnucks.com/mo-chesterfield-174", "@spider": "schnucks", "shop": "supermarket", "addr:street_address": "2511 Kehrs Mill Road", "addr:city": "Ballwin", "addr:state": "MO", "addr:postcode": "63017", "name": "Schnucks Kehrs Mill", "phone": "636-207-3401", "website": "https://locations.schnucks.com/mo-chesterfield-174", "image": "https://s3.amazonaws.com/media.locally.net/logo-270x270/schnucks-1_2021-02-25-08-33-27.jpg", "brand": "Schnuck's", "brand:wikidata": "Q7431920", "nsi_id": "schnucks-dde59d"}, "geometry": {"type": "Point", "coordinates": [-90.5816, 38.62065]}},
{"type": "Feature", "id": "yPxu_UwUQ8WT7P_U6gI-bZptR10=", "properties": {"ref": "https://locations.schnucks.com/mo-st-peters-138", "@spider": "schnucks", "shop": "supermarket", "addr:street_address": "Plaza Ninety-Four Dr", "addr:city": "St. Peters", "addr:state": "MO", "addr:postcode": "63376", "name": "Schnucks Harvester", "phone": "636-928-1623", "website": "https://locations.schnucks.com/mo-st-peters-138", "image": "https://s3.amazonaws.com/media.locally.net/logo-270x270/schnucks-1_2021-02-25-08-33-27.jpg", "brand": "Schnuck's", "brand:wikidata": "Q7431920", "nsi_id": "schnucks-dde59d"}, "geometry": {"type": "Point", "coordinates": [-90.5919, 38.74931]}},
{"type": "Feature", "id": "LzHIzrKuJ6ywy2I6jTUwu_c9Y0k=", "properties": {"ref": "https://locations.schnucks.com/mo-ballwin-106", "@spider": "schnucks", "shop": "supermarket", "addr:street_address": "15425 Manchester", "addr:city": "Ballwin", "addr:state": "MO", "addr:postcode": "63011", "name": "Schnucks Ballwin", "phone": "636-256-0644", "website": "https://locations.schnucks.com/mo-ballwin-106", "image": "https://s3.amazonaws.com/media.locally.net/logo-270x270/schnucks-1_2021-02-25-08-33-27.jpg", "brand": "Schnuck's", "brand:wikidata": "Q7431920", "nsi_id": "schnucks-dde59d"}, "geometry": {"type": "Point", "coordinates": [-90.5628, 38.59337]}},
{"type": "Feature", "id": "nzqkBcYjwQbQTjOETWN2RLjLbWs=", "properties": {"ref": "https://locations.schnucks.com/mo-st-charles-228", "@spider": "schnucks", "shop": "supermarket", "addr:street_address": "60 Harvester Square", "addr:city": "St. Charles", "addr:state": "MO", "addr:postcode": "63303", "name": "Schnucks Harvester Square", "phone": "636-441-5900", "website": "https://locations.schnucks.com/mo-st-charles-228", "image": "https://s3.amazonaws.com/media.locally.net/logo-270x270/schnucks-1_2021-02-25-08-33-27.jpg", "brand": "Schnuck's", "brand:wikidata": "Q7431920", "nsi_id": "schnucks-dde59d"}, "geometry": {"type": "Point", "coordinates": [-90.5765, 38.7466]}},
{"type": "Feature", "id": "mdPY1W7Hs8AznBtAiqMU-_yVXO4=", "properties": {"ref": "https://locations.schnucks.com/mo-chesterfield-133", "@spider": "schnucks", "shop": "supermarket", "addr:street_address": "141 Hilltown Village", "addr:city": "Chesterfield", "addr:state": "MO", "addr:postcode": "63017", "name": "Schnucks Chesterfield", "phone": "636-532-2505", "website": "https://locations.schnucks.com/mo-chesterfield-133", "image": "https://s3.amazonaws.com/media.locally.net/logo-270x270/schnucks-1_2021-02-25-08-33-27.jpg", "brand": "Schnuck's", "brand:wikidata": "Q7431920", "nsi_id": "schnucks-dde59d"}, "geometry": {"type": "Point", "coordinates": [-90.5531, 38.65887]}},
{"type": "Feature", "id": "iD4bmbbm3alTZtDIwYuftO2Oq6I=", "properties": {"ref": "https://locations.schnucks.com/mo-high-ridge-122", "@spider": "schnucks", "shop": "supermarket", "addr:street_address": "#20 Gravois Dillon Plaza", "addr:city": "High Ridge", "addr:state": "MO", "addr:postcode": "63049", "name": "Schnucks Dillon", "phone": "636-677-0061", "website": "https://locations.schnucks.com/mo-high-ridge-122", "image": "https://s3.amazonaws.com/media.locally.net/logo-270x270/schnucks-1_2021-02-25-08-33-27.jpg", "brand": "Schnuck's", "brand:wikidata": "Q7431920", "nsi_id": "schnucks-dde59d"}, "geometry": {"type": "Point", "coordinates": [-90.5215, 38.47798]}},
{"type": "Feature", "id": "BlQykyMN8v96FzNAW-hB5MeCXvw=", "properties": {"ref": "https://locations.schnucks.com/mo-chesterfield-142", "@spider": "schnucks", "shop": "supermarket", "addr:street_address": "1060 Woods Mill Rd", "addr:city": "Ballwin", "addr:state": "MO", "addr:postcode": "63017", "name": "Schnucks Woods Mill", "phone": "636-227-2278", "website": "https://locations.schnucks.com/mo-chesterfield-142", "image": "https://s3.amazonaws.com/media.locally.net/logo-270x270/schnucks-1_2021-02-25-08-33-27.jpg", "brand": "Schnuck's", "brand:wikidata": "Q7431920", "nsi_id": "schnucks-dde59d"}, "geometry": {"type": "Point", "coordinates": [-90.5139, 38.62295]}},
{"type": "Feature", "id": "FT6RQ_nNZO84_e__eqCg_olUouw=", "properties": {"ref": "https://locations.schnucks.com/mo-st-charles-111", "@spider": "schnucks", "shop": "supermarket", "addr:street_address": "1950 Zumbehl Road", "addr:city": "St. Charles", "addr:state": "MO", "addr:postcode": "63303", "name": "Schnucks Zumbehl", "phone": "636-947-8422", "website": "https://locations.schnucks.com/mo-st-charles-111", "image": "https://s3.amazonaws.com/media.locally.net/logo-270x270/schnucks-1_2021-02-25-08-33-27.jpg", "brand": "Schnuck's", "brand:wikidata": "Q7431920", "nsi_id": "schnucks-dde59d"}, "geometry": {"type": "Point", "coordinates": [-90.5301, 38.78066]}},
{"type": "Feature", "id": "IAF7FkAiTLEFdlASDSZNUbtAXsU=", "properties": {"ref": "https://locations.schnucks.com/mo-ballwin-173", "@spider": "schnucks", "shop": "supermarket", "addr:street_address": "1393 Big Bend, Suite 1", "addr:city": "Ballwin", "addr:state": "MO", "addr:postcode": "63021", "name": "Schnucks Twin Oaks", "phone": "636-225-3777", "website": "https://locations.schnucks.com/mo-ballwin-173", "image": "https://s3.amazonaws.com/media.locally.net/logo-270x270/schnucks-1_2021-02-25-08-33-27.jpg", "brand": "Schnuck's", "brand:wikidata": "Q7431920", "nsi_id": "schnucks-dde59d"}, "geometry": {"type": "Point", "coordinates": [-90.4985, 38.56951]}},
{"type": "Feature", "id": "xEkv8SXdDh6MjoRUR2NLd46qs7A=", "properties": {"ref": "https://locations.schnucks.com/mo-st-charles-176", "@spider": "schnucks", "shop": "supermarket", "addr:street_address": "1900 First Capitol Dr", "addr:city": "St. Charles", "addr:state": "MO", "addr:postcode": "63301", "name": "Schnucks Lindenwood", "phone": "636-946-0123", "website": "https://locations.schnucks.com/mo-st-charles-176", "image": "https://s3.amazonaws.com/media.locally.net/logo-270x270/schnucks-1_2021-02-25-08-33-27.jpg", "brand": "Schnuck's", "brand:wikidata": "Q7431920", "nsi_id": "schnucks-dde59d"}, "geometry": {"type": "Point", "coordinates": [-90.501, 38.78247]}},
{"type": "Feature", "id": "QyGTU5OUx1HvBydOjOGGZlLVh2w=", "properties": {"ref": "https://locations.schnucks.com/mo-festus-731", "@spider": "schnucks", "shop": "supermarket", "addr:street_address": "1181 Gannon Plaza", "addr:city": "Festus", "addr:state": "MO", "addr:postcode": "63028", "name": "Schnucks Festus", "phone": "636-937-3339", "website": "https://locations.schnucks.com/mo-festus-731", "image": "https://s3.amazonaws.com/media.locally.net/logo-270x270/schnucks-1_2021-02-25-08-33-27.jpg", "brand": "Schnuck's", "brand:wikidata": "Q7431920", "nsi_id": "schnucks-dde59d"}, "geometry": {"type": "Point", "coordinates": [-90.4022, 38.21028]}},
{"type": "Feature", "id": "RtdSWzI36Ydr4BvHag0Wy4E3raE=", "properties": {"ref": "https://locations.schnucks.com/mo-fenton-212", "@spider": "schnucks", "shop": "supermarket", "addr:street_address": "45 Gravois Bluffs Plaza Drive", "addr:city": "Fenton", "addr:state": "MO", "addr:postcode": "63026", "name": "Schnucks Fenton", "phone": "636-343-1216", "website": "https://locations.schnucks.com/mo-fenton-212", "image": "https://s3.amazonaws.com/media.locally.net/logo-270x270/schnucks-1_2021-02-25-08-33-27.jpg", "brand": "Schnuck's", "brand:wikidata": "Q7431920", "nsi_id": "schnucks-dde59d"}, "geometry": {"type": "Point", "coordinates": [-90.4475, 38.5076]}},
{"type": "Feature", "id": "263O2VEurBi6XpYOBpGxFjDZODI=", "properties": {"ref": "https://locations.schnucks.com/mo-st-louis-116", "@spider": "schnucks", "shop": "supermarket", "addr:street_address": "12756 Olive Blvd", "addr:city": "St. Louis", "addr:state": "MO", "addr:postcode": "63141", "name": "Schnucks Mason", "phone": "314-434-7323", "website": "https://locations.schnucks.com/mo-st-louis-116", "image": "https://s3.amazonaws.com/media.locally.net/logo-270x270/schnucks-1_2021-02-25-08-33-27.jpg", "brand": "Schnuck's", "brand:wikidata": "Q7431920", "nsi_id": "schnucks-dde59d"}, "geometry": {"type": "Point", "coordinates": [-90.4728, 38.67815]}},
{"type": "Feature", "id": "LFN3LWYf5pNNG5sQZEw7pVpLOgw=", "properties": {"ref": "https://locations.schnucks.com/mo-st-louis-209", "@spider": "schnucks", "shop": "supermarket", "addr:street_address": "12332 Manchester Road", "addr:city": "St. Louis", "addr:state": "MO", "addr:postcode": "63131", "name": "Schnucks Des Peres", "phone": "314-965-3094", "website": "https://locations.schnucks.com/mo-st-louis-209", "image": "https://s3.amazonaws.com/media.locally.net/logo-270x270/schnucks-1_2021-02-25-08-33-27.jpg", "brand": "Schnuck's", "brand:wikidata": "Q7431920", "nsi_id": "schnucks-dde59d"}, "geometry": {"type": "Point", "coordinates": [-90.4421, 38.60155]}},
{"type": "Feature", "id": "DX23hOFLVspwOSqAI3bD9Vrgu8k=", "properties": {"ref": "https://locations.schnucks.com/mo-maryland-heights-117", "@spider": "schnucks", "shop": "supermarket", "addr:street_address": "2030 Dorsett Rd", "addr:city": "St. Louis", "addr:state": "MO", "addr:postcode": "63043", "name": "Schnucks Dorsett", "phone": "314-434-3147", "website": "https://locations.schnucks.com/mo-maryland-heights-117", "image": "https://s3.amazonaws.com/media.locally.net/logo-270x270/schnucks-1_2021-02-25-08-33-27.jpg", "brand": "Schnuck's", "brand:wikidata": "Q7431920", "nsi_id": "schnucks-dde59d"}, "geometry": {"type": "Point", "coordinates": [-90.4563, 38.71598]}},
{"type": "Feature", "id": "c6e8jPbPRMS8vi7xrvnf6IYjOH4=", "properties": {"ref": "https://locations.schnucks.com/mo-arnold-127", "@spider": "schnucks", "shop": "supermarket", "addr:street_address": "3900 Vogel Rd", "addr:city": "Arnold", "addr:state": "MO", "addr:postcode": "63010", "name": "Schnucks Richardson Road", "phone": "636-282-3377", "website": "https://locations.schnucks.com/mo-arnold-127", "image": "https://s3.amazonaws.com/media.locally.net/logo-270x270/schnucks-1_2021-02-25-08-33-27.jpg", "brand": "Schnuck's", "brand:wikidata": "Q7431920", "nsi_id": "schnucks-dde59d"}, "geometry": {"type": "Point", "coordinates": [-90.3946, 38.41601]}},
{"type": "Feature", "id": "GTC6Y3_a3iCLAA4YbVnvC0CUBeY=", "properties": {"ref": "https://locations.schnucks.com/mo-st-louis-102", "@spider": "schnucks", "shop": "supermarket", "addr:street_address": "10650 Olive Blvd", "addr:city": "Creve Coeur", "addr:state": "MO", "addr:postcode": "63141", "name": "Schnucks Creve Coeur", "phone": "314-567-3838", "website": "https://locations.schnucks.com/mo-st-louis-102", "image": "https://s3.amazonaws.com/media.locally.net/logo-270x270/schnucks-1_2021-02-25-08-33-27.jpg", "brand": "Schnuck's", "brand:wikidata": "Q7431920", "nsi_id": "schnucks-dde59d"}, "geometry": {"type": "Point", "coordinates": [-90.4141, 38.6725]}},
{"type": "Feature", "id": "H_tuwKI-J9DjnviAN_XdQhrkvTo=", "properties": {"ref": "https://locations.schnucks.com/mo-arnold-237", "@spider": "schnucks", "shop": "supermarket", "addr:street_address": "1253 Water Tower Road", "addr:city": "Arnold", "addr:state": "MO", "addr:postcode": "63010", "name": "Schnucks Water Tower", "phone": "636-296-7050", "website": "https://locations.schnucks.com/mo-arnold-237", "image": "https://s3.amazonaws.com/media.locally.net/logo-270x270/schnucks-1_2021-02-25-08-33-27.jpg", "brand": "Schnuck's", "brand:wikidata": "Q7431920", "nsi_id": "schnucks-dde59d"}, "geometry": {"type": "Point", "coordinates": [-90.3755, 38.4396]}},
{"type": "Feature", "id": "ecMDntCC-eyXJvVqqSAtJZU49sg=", "properties": {"ref": "https://locations.schnucks.com/mo-st-louis-180", "@spider": "schnucks", "shop": "supermarket", "addr:street_address": "10275 Clayton Rd", "addr:city": "Ladue", "addr:state": "MO", "addr:postcode": "63124", "name": "Schnucks Lindbergh", "phone": "314-991-0510", "website": "https://locations.schnucks.com/mo-st-louis-180", "image": "https://s3.amazonaws.com/media.locally.net/logo-270x270/schnucks-1_2021-02-25-08-33-27.jpg", "brand": "Schnuck's", "brand:wikidata": "Q7431920", "nsi_id": "schnucks-dde59d"}, "geometry": {"type": "Point", "coordinates": [-90.4047, 38.63436]}},
{"type": "Feature", "id": "uDEIAtleq5ETzEhUWpcNl29M5R4=", "properties": {"ref": "https://locations.schnucks.com/mo-st-louis-139", "@spider": "schnucks", "shop": "supermarket", "addr:street_address": "10233 Manchester", "addr:city": "St. Louis", "addr:state": "MO", "addr:postcode": "63122", "name": "Schnucks Kirkwood", "phone": "314-965-7310", "website": "https://locations.schnucks.com/mo-st-louis-139", "image": "https://s3.amazonaws.com/media.locally.net/logo-270x270/schnucks-1_2021-02-25-08-33-27.jpg", "brand": "Schnuck's", "brand:wikidata": "Q7431920", "nsi_id": "schnucks-dde59d"}, "geometry": {"type": "Point", "coordinates": [-90.396, 38.60227]}},
{"type": "Feature", "id": "LhiHPgMieJNwQr_oZRT_UMl-YXY=", "properties": {"ref": "https://locations.schnucks.com/mo-st-louis-266", "@spider": "schnucks", "shop": "supermarket", "addr:street_address": "9540 Watson Rd", "addr:city": "Crestwood", "addr:state": "MO", "addr:postcode": "63126", "name": "Schnucks Crestwood", "phone": "314-849-0341", "website": "https://locations.schnucks.com/mo-st-louis-266", "image": "https://s3.amazonaws.com/media.locally.net/logo-270x270/schnucks-1_2021-02-25-08-33-27.jpg", "brand": "Schnuck's", "brand:wikidata": "Q7431920", "nsi_id": "schnucks-dde59d"}, "geometry": {"type": "Point", "coordinates": [-90.3785, 38.5573]}},
{"type": "Feature", "id": "Cizlg5AfBlLyoiBXv_I3_y-iqow=", "properties": {"ref": "https://locations.schnucks.com/mo-bridgeton-191", "@spider": "schnucks", "shop": "supermarket", "addr:street_address": "11253 St. Charles Rock Road", "addr:city": "Bridgeton", "addr:state": "MO", "addr:postcode": "63044", "name": "Schnucks Bridgeton", "phone": "314-738-0677", "website": "https://locations.schnucks.com/mo-bridgeton-191", "image": "https://s3.amazonaws.com/media.locally.net/logo-270x270/schnucks-1_2021-02-25-08-33-27.jpg", "brand": "Schnuck's", "brand:wikidata": "Q7431920", "nsi_id": "schnucks-dde59d"}, "geometry": {"type": "Point", "coordinates": [-90.4003, 38.74083]}},
{"type": "Feature", "id": "MPbcz_k1iBLWy-4zLUQ9blatCfA=", "properties": {"ref": "https://locations.schnucks.com/mo-st-louis-105", "@spider": "schnucks", "shop": "supermarket", "addr:street_address": "4333 Butler Hill", "addr:city": "St. Louis", "addr:state": "MO", "addr:postcode": "63128", "name": "Schnucks Butler Hill", "phone": "314-894-1227", "website": "https://locations.schnucks.com/mo-st-louis-105", "image": "https://s3.amazonaws.com/media.locally.net/logo-270x270/schnucks-1_2021-02-25-08-33-27.jpg", "brand": "Schnuck's", "brand:wikidata": "Q7431920", "nsi_id": "schnucks-dde59d"}, "geometry": {"type": "Point", "coordinates": [-90.358, 38.4874]}},
{"type": "Feature", "id": "Z81tg3Xvxa9KIeqOZ1oToH-Uegs=", "properties": {"ref": "https://locations.schnucks.com/mo-st-louis-193", "@spider": "schnucks", "shop": "supermarket", "addr:street_address": "5434 Southfield Center", "addr:city": "St. Louis", "addr:state": "MO", "addr:postcode": "63123", "name": "Schnucks Concord Village", "phone": "314-849-1815", "website": "https://locations.schnucks.com/mo-st-louis-193", "image": "https://s3.amazonaws.com/media.locally.net/logo-270x270/schnucks-1_2021-02-25-08-33-27.jpg", "brand": "Schnuck's", "brand:wikidata": "Q7431920", "nsi_id": "schnucks-dde59d"}, "geometry": {"type": "Point", "coordinates": [-90.3591, 38.52613]}},
{"type": "Feature", "id": "Oew6NQtML7ubqlu4fAhKvr5t5XQ=", "properties": {"ref": "https://locations.schnucks.com/mo-st-louis-136", "@spider": "schnucks", "shop": "supermarket", "addr:street_address": "8650 Big Bend", "addr:city": "St. Louis", "addr:state": "MO", "addr:postcode": "63119", "name": "Schnucks Webster Groves", "phone": "314-961-0555", "website": "https://locations.schnucks.com/mo-st-louis-136", "image": "https://s3.amazonaws.com/media.locally.net/logo-270x270/schnucks-1_2021-02-25-08-33-27.jpg", "brand": "Schnuck's", "brand:wikidata": "Q7431920", "nsi_id": "schnucks-dde59d"}, "geometry": {"type": "Point", "coordinates": [-90.3566, 38.58285]}},
{"type": "Feature", "id": "v9Z_FP_orlsg3zsQs4D8xAsOcnE=", "properties": {"ref": "https://locations.schnucks.com/mo-st-louis-104", "@spider": "schnucks", "shop": "supermarket", "addr:street_address": "8800 Manchester", "addr:city": "Brentwood", "addr:state": "MO", "addr:postcode": "63144", "name": "Schnucks Brentwood", "phone": "314-961-5454", "website": "https://locations.schnucks.com/mo-st-louis-104", "image": "https://s3.amazonaws.com/media.locally.net/logo-270x270/schnucks-1_2021-02-25-08-33-27.jpg", "brand": "Schnuck's", "brand:wikidata": "Q7431920", "nsi_id": "schnucks-dde59d"}, "geometry": {"type": "Point", "coordinates": [-90.3502, 38.61152]}},
{"type": "Feature", "id": "Hgu_EkNypzn2DLNV6OAVWichP6U=", "properties": {"ref": "https://locations.schnucks.com/mo-st-louis-141", "@spider": "schnucks", "shop": "supermarket", "addr:street_address": "9074 Overland Plaza", "addr:city": "Overland", "addr:state": "MO", "addr:postcode": "63114", "name": "Schnucks Overland", "phone": "314-426-3800", "website": "https://locations.schnucks.com/mo-st-louis-141", "image": "https://s3.amazonaws.com/media.locally.net/logo-270x270/schnucks-1_2021-02-25-08-33-27.jpg", "brand": "Schnuck's", "brand:wikidata": "Q7431920", "nsi_id": "schnucks-dde59d"}, "geometry": {"type": "Point", "coordinates": [-90.3591, 38.68558]}},
{"type": "Feature", "id": "GD3y11UBelXND3lr2r8TYirVf5s=", "properties": {"ref": "https://locations.schnucks.com/mo-st-louis-188", "@spider": "schnucks", "shop": "supermarket", "addr:street_address": "8867 Ladue", "addr:city": "St. Louis", "addr:state": "MO", "addr:postcode": "63124", "name": "Schnucks Ladue", "phone": "314-725-7574", "website": "https://locations.schnucks.com/mo-st-louis-188", "image": "https://s3.amazonaws.com/media.locally.net/logo-270x270/schnucks-1_2021-02-25-08-33-27.jpg", "brand": "Schnuck's", "brand:wikidata": "Q7431920", "nsi_id": "schnucks-dde59d"}, "geometry": {"type": "Point", "coordinates": [-90.3539, 38.65603]}},
{"type": "Feature", "id": "ItKDNLVEYLxec2gpxRtDQAJTdEY=", "properties": {"ref": "https://locations.schnucks.com/mo-st-louis-137", "@spider": "schnucks", "shop": "supermarket", "addr:street_address": "10070 Gravois", "addr:city": "St. Louis", "addr:state": "MO", "addr:postcode": "63123", "name": "Schnucks Affton", "phone": "314-631-8220", "website": "https://locations.schnucks.com/mo-st-louis-137", "image": "https://s3.amazonaws.com/media.locally.net/logo-270x270/schnucks-1_2021-02-25-08-33-27.jpg", "brand": "Schnuck's", "brand:wikidata": "Q7431920", "nsi_id": "schnucks-dde59d"}, "geometry": {"type": "Point", "coordinates": [-90.3361, 38.5495]}},
{"type": "Feature", "id": "w43oP1E4Lstt3QjcfIv_89KB-GQ=", "properties": {"ref": "https://locations.schnucks.com/mo-saint-louis-231", "@spider": "schnucks", "shop": "supermarket", "addr:street_address": "9070 St. Charles Rock Road", "addr:city": "St. John", "addr:state": "MO", "addr:postcode": "63114", "name": "Schnucks St John", "phone": "314-427-7066", "website": "https://locations.schnucks.com/mo-saint-louis-231", "image": "https://s3.amazonaws.com/media.locally.net/logo-270x270/schnucks-1_2021-02-25-08-33-27.jpg", "brand": "Schnuck's", "brand:wikidata": "Q7431920", "nsi_id": "schnucks-dde59d"}, "geometry": {"type": "Point", "coordinates": [-90.3544, 38.71161]}},
{"type": "Feature", "id": "4TrHhKvhg9sTPz-xzLSk6rgoC4c=", "properties": {"ref": "https://locations.schnucks.com/mo-florissant-206", "@spider": "schnucks", "shop": "supermarket", "addr:street_address": "2183 Charbonier Road", "addr:city": "Florissant", "addr:state": "MO", "addr:postcode": "63031", "name": "Schnucks Charbonier", "phone": "314-831-0469", "website": "https://locations.schnucks.com/mo-florissant-206", "image": "https://s3.amazonaws.com/media.locally.net/logo-270x270/schnucks-1_2021-02-25-08-33-27.jpg", "brand": "Schnuck's", "brand:wikidata": "Q7431920", "nsi_id": "schnucks-dde59d"}, "geometry": {"type": "Point", "coordinates": [-90.359, 38.8104]}},
{"type": "Feature", "id": "BpMkboo4CQnwHAQ7lekSyUeVWCo=", "properties": {"ref": "https://locations.schnucks.com/mo-st-louis-118", "@spider": "schnucks", "shop": "supermarket", "addr:street_address": "5519 Oakville Shopping Ctr", "addr:city": "St. Louis", "addr:state": "MO", "addr:postcode": "63129", "name": "Schnucks Telegraph", "phone": "314-892-6401", "website": "https://locations.schnucks.com/mo-st-louis-118", "image": "https://s3.amazonaws.com/media.locally.net/logo-270x270/schnucks-1_2021-02-25-08-33-27.jpg", "brand": "Schnuck's", "brand:wikidata": "Q7431920", "nsi_id": "schnucks-dde59d"}, "geometry": {"type": "Point", "coordinates": [-90.3068, 38.47262]}},
{"type": "Feature", "id": "0c-07_eNITzdO5QSdUyYFqQgvbU=", "properties": {"ref": "https://locations.schnucks.com/mo-florissant-101", "@spider": "schnucks", "shop": "supermarket", "addr:street_address": "8200 N Lindbergh", "addr:city": "Florissant", "addr:state": "MO", "addr:postcode": "63031", "name": "Schnucks Florissant", "phone": "314-921-7060", "website": "https://locations.schnucks.com/mo-florissant-101", "image": "https://s3.amazonaws.com/media.locally.net/logo-270x270/schnucks-1_2021-02-25-08-33-27.jpg", "brand": "Schnuck's", "brand:wikidata": "Q7431920", "nsi_id": "schnucks-dde59d"}, "geometry": {"type": "Point", "coordinates": [-90.3436, 38.7892]}},
{"type": "Feature", "id": "_FFxkt5AlNEx3dN8j_dwRXG1qEs=", "properties": {"ref": "https://locations.schnucks.com/mo-florissant-276", "@spider": "schnucks", "shop": "supermarket", "addr:street_address": "1160 Shackelford", "addr:city": "Florissant", "addr:state": "MO", "addr:postcode": "63031", "name": "Schnucks Shackelford", "phone": "314-838-4685", "website": "https://locations.schnucks.com/mo-florissant-276", "image": "https://s3.amazonaws.com/media.locally.net/logo-270x270/schnucks-1_2021-02-25-08-33-27.jpg", "brand": "Schnuck's", "brand:wikidata": "Q7431920", "nsi_id": "schnucks-dde59d"}, "geometry": {"type": "Point", "coordinates": [-90.346, 38.81301]}},
{"type": "Feature", "id": "RmIDatExmQ9HyPQH_4f5_Lox8sU=", "properties": {"ref": "https://locations.schnucks.com/mo-maplewood-225", "@spider": "schnucks", "shop": "supermarket", "addr:street_address": "7355 Manchester", "addr:city": "Maplewood", "addr:state": "MO", "addr:postcode": "63143", "name": "Schnucks Maplewood", "phone": "314-644-7825", "website": "https://locations.schnucks.com/mo-maplewood-225", "image": "https://s3.amazonaws.com/media.locally.net/logo-270x270/schnucks-1_2021-02-25-08-33-27.jpg", "brand": "Schnuck's", "brand:wikidata": "Q7431920", "nsi_id": "schnucks-dde59d"}, "geometry": {"type": "Point", "coordinates": [-90.319, 38.61411]}},
{"type": "Feature", "id": "yWwvrrkLW1Qqh5WvJgxyhmXHNaY=", "properties": {"ref": "https://locations.schnucks.com/mo-st-louis-272", "@spider": "schnucks", "shop": "supermarket", "addr:street_address": "6600 Clayton Rd", "addr:city": "Clayton", "addr:state": "MO", "addr:postcode": "63117", "name": "Schnucks Richmond Center", "phone": "314-644-0510", "website": "https://locations.schnucks.com/mo-st-louis-272", "image": "https://s3.amazonaws.com/media.locally.net/logo-270x270/schnucks-1_2021-02-25-08-33-27.jpg", "brand": "Schnuck's", "brand:wikidata": "Q7431920", "nsi_id": "schnucks-dde59d"}, "geometry": {"type": "Point", "coordinates": [-90.3148, 38.63335]}},
{"type": "Feature", "id": "on78Uq1bxSNKC2v4-10rbxgDnP0=", "properties": {"ref": "https://locations.schnucks.com/mo-st-louis-125", "@spider": "schnucks", "shop": "supermarket", "addr:street_address": "6920 Olive Blvd", "addr:city": "St. Louis", "addr:state": "MO", "addr:postcode": "63130", "name": "Schnucks University City", "phone": "314-726-2373", "website": "https://locations.schnucks.com/mo-st-louis-125", "image": "https://s3.amazonaws.com/media.locally.net/logo-270x270/schnucks-1_2021-02-25-08-33-27.jpg", "brand": "Schnuck's", "brand:wikidata": "Q7431920", "nsi_id": "schnucks-dde59d"}, "geometry": {"type": "Point", "coordinates": [-90.3144, 38.66353]}},
{"type": "Feature", "id": "q-rVwn5CR0Ag2VS4-MXzEG5ww30=", "properties": {"ref": "https://locations.schnucks.com/mo-st-louis-107", "@spider": "schnucks", "shop": "supermarket", "addr:street_address": "7450 Hampton Ave", "addr:city": "St. Louis", "addr:state": "MO", "addr:postcode": "63109", "name": "Schnucks Gravois", "phone": "314-832-3440", "website": "https://locations.schnucks.com/mo-st-louis-107", "image": "https://s3.amazonaws.com/media.locally.net/logo-270x270/schnucks-1_2021-02-25-08-33-27.jpg", "brand": "Schnuck's", "brand:wikidata": "Q7431920", "nsi_id": "schnucks-dde59d"}, "geometry": {"type": "Point", "coordinates": [-90.2933, 38.56603]}},
{"type": "Feature", "id": "gYj4zv6bQfBgmVIjAWDT4PeBI_Y=", "properties": {"ref": "https://locations.schnucks.com/mo-st-louis-258", "@spider": "schnucks", "shop": "supermarket", "addr:street_address": "60 Hampton Village Plaza", "addr:city": "St. Louis", "addr:state": "MO", "addr:postcode": "63109", "name": "Schnucks Hampton Village", "phone": "314-353-5060", "website": "https://locations.schnucks.com/mo-st-louis-258", "image": "https://s3.amazonaws.com/media.locally.net/logo-270x270/schnucks-1_2021-02-25-08-33-27.jpg", "brand": "Schnuck's", "brand:wikidata": "Q7431920", "nsi_id": "schnucks-dde59d"}, "geometry": {"type": "Point", "coordinates": [-90.2929, 38.59175]}},
{"type": "Feature", "id": "aRjNKetTiy5d8tDC2mH6GoolB0E=", "properties": {"ref": "https://locations.schnucks.com/mo-saint-louis-218", "@spider": "schnucks", "shop": "supermarket", "addr:street_address": "1032 Lemay Ferry Road", "addr:city": "Lemay", "addr:state": "MO", "addr:postcode": "63125", "name": "Schnucks Lemay", "phone": "314-544-2505", "website": "https://locations.schnucks.com/mo-saint-louis-218", "image": "https://s3.amazonaws.com/media.locally.net/logo-270x270/schnucks-1_2021-02-25-08-33-27.jpg", "brand": "Schnuck's", "brand:wikidata": "Q7431920", "nsi_id": "schnucks-dde59d"}, "geometry": {"type": "Point", "coordinates": [-90.284, 38.53431]}},
{"type": "Feature", "id": "4Ls3ZY-0TF8XfxTakN3FQjBde8s=", "properties": {"ref": "https://locations.schnucks.com/mo-ferguson-233", "@spider": "schnucks", "shop": "supermarket", "addr:street_address": "49 Florissant Road", "addr:city": "St. Louis", "addr:state": "MO", "addr:postcode": "63135", "name": "Schnucks Ferguson", "phone": "314-524-8633", "website": "https://locations.schnucks.com/mo-ferguson-233", "image": "https://s3.amazonaws.com/media.locally.net/logo-270x270/schnucks-1_2021-02-25-08-33-27.jpg", "brand": "Schnuck's", "brand:wikidata": "Q7431920", "nsi_id": "schnucks-dde59d"}, "geometry": {"type": "Point", "coordinates": [-90.3064, 38.74657]}},
{"type": "Feature", "id": "S5z4UjxIf0522r5AmVDMDySDquI=", "properties": {"ref": "https://locations.schnucks.com/mo-florissant-184", "@spider": "schnucks", "shop": "supermarket", "addr:street_address": "74 Grandview Plaza", "addr:city": "Florissant", "addr:state": "MO", "addr:postcode": "63033", "name": "Schnucks Grandview", "phone": "314-838-4540", "website": "https://locations.schnucks.com/mo-florissant-184", "image": "https://s3.amazonaws.com/media.locally.net/logo-270x270/schnucks-1_2021-02-25-08-33-27.jpg", "brand": "Schnuck's", "brand:wikidata": "Q7431920", "nsi_id": "schnucks-dde59d"}, "geometry": {"type": "Point", "coordinates": [-90.3033, 38.774]}},
{"type": "Feature", "id": "2G42MAMHvlPzOJCulb-nGUK2hHI=", "properties": {"ref": "https://locations.schnucks.com/mo-florissant-198", "@spider": "schnucks", "shop": "supermarket", "addr:street_address": "13987 New Halls Ferry Rd", "addr:city": "Florissant", "addr:state": "MO", "addr:postcode": "63033", "name": "Schnucks Cross Keys", "phone": "314-831-0011", "website": "https://locations.schnucks.com/mo-florissant-198", "image": "https://s3.amazonaws.com/media.locally.net/logo-270x270/schnucks-1_2021-02-25-08-33-27.jpg", "brand": "Schnuck's", "brand:wikidata": "Q7431920", "nsi_id": "schnucks-dde59d"}, "geometry": {"type": "Point", "coordinates": [-90.3011, 38.80694]}},
{"type": "Feature", "id": "T8n4eIf-3L9o9k54DolE_0qUxPE=", "properties": {"ref": "https://locations.schnucks.com/mo-st-louis-149", "@spider": "schnucks", "shop": "supermarket", "addr:street_address": "5055 Arsenal", "addr:city": "St. Louis", "addr:state": "MO", "addr:postcode": "63139", "name": "Schnucks Arsenal", "phone": "314-771-5008", "website": "https://locations.schnucks.com/mo-st-louis-149", "image": "https://s3.amazonaws.com/media.locally.net/logo-270x270/schnucks-1_2021-02-25-08-33-27.jpg", "brand": "Schnuck's", "brand:wikidata": "Q7431920", "nsi_id": "schnucks-dde59d"}, "geometry": {"type": "Point", "coordinates": [-90.2742, 38.60697]}},
{"type": "Feature", "id": "tW00JeMily_0jFPtya1lLrzcDxk=", "properties": {"ref": "https://locations.schnucks.com/mo-st-louis-192", "@spider": "schnucks", "shop": "supermarket", "addr:street_address": "1020 Loughborough", "addr:city": "St. Louis", "addr:state": "MO", "addr:postcode": "63111", "name": "Schnucks Loughborough", "phone": "314-752-5333", "website": "https://locations.schnucks.com/mo-st-louis-192", "image": "https://s3.amazonaws.com/media.locally.net/logo-270x270/schnucks-1_2021-02-25-08-33-27.jpg", "brand": "Schnuck's", "brand:wikidata": "Q7431920", "nsi_id": "schnucks-dde59d"}, "geometry": {"type": "Point", "coordinates": [-90.2626, 38.55638]}},
{"type": "Feature", "id": "IPHrG-Er3vFQ7QdAL6lHq-Hczoo=", "properties": {"ref": "https://locations.schnucks.com/mo-st-louis-145", "@spider": "schnucks", "shop": "supermarket", "addr:street_address": "8037 West Florissant Avenue", "addr:city": "St. Louis", "addr:state": "MO", "addr:postcode": "63136", "name": "Schnucks Westfall Plaza", "phone": "314-679-2400", "website": "https://locations.schnucks.com/mo-st-louis-145", "image": "https://s3.amazonaws.com/media.locally.net/logo-270x270/schnucks-1_2021-02-25-08-33-27.jpg", "brand": "Schnuck's", "brand:wikidata": "Q7431920", "nsi_id": "schnucks-dde59d"}, "geometry": {"type": "Point", "coordinates": [-90.2765, 38.73056]}},
{"type": "Feature", "id": "7Yc-E7CoY5DQ9AExK_2jzbym8To=", "properties": {"ref": "https://locations.schnucks.com/mo-st-louis-113", "@spider": "schnucks", "shop": "supermarket", "addr:street_address": "3431 Union", "addr:city": "St. Louis", "addr:state": "MO", "addr:postcode": "63115", "name": "Schnucks City Plaza", "phone": "314-381-8789", "website": "https://locations.schnucks.com/mo-st-louis-113", "image": "https://s3.amazonaws.com/media.locally.net/logo-270x270/schnucks-1_2021-02-25-08-33-27.jpg", "brand": "Schnuck's", "brand:wikidata": "Q7431920", "nsi_id": "schnucks-dde59d"}, "geometry": {"type": "Point", "coordinates": [-90.2609, 38.67929]}},
{"type": "Feature", "id": "k2aJvUfM_v3WLVOggZhH6H0vzrQ=", "properties": {"ref": "https://locations.schnucks.com/il-waterloo-243", "@spider": "schnucks", "shop": "supermarket", "addr:street_address": "150 Waterloo Commons Drive", "addr:city": "Waterloo", "addr:state": "IL", "addr:postcode": "62298", "name": "Schnucks Waterloo", "phone": "618-939-6155", "website": "https://locations.schnucks.com/il-waterloo-243", "image": "https://s3.amazonaws.com/media.locally.net/logo-270x270/schnucks-1_2021-02-25-08-33-27.jpg", "brand": "Schnuck's", "brand:wikidata": "Q7431920", "nsi_id": "schnucks-dde59d"}, "geometry": {"type": "Point", "coordinates": [-90.1527, 38.35283]}},
{"type": "Feature", "id": "VRhU9j_9k4DV8nkeaZGj5V8FarE=", "properties": {"ref": "https://locations.schnucks.com/mo-st-louis-301", "@spider": "schnucks", "shop": "supermarket", "addr:street_address": "315 North 9th Street", "addr:city": "St. Louis", "addr:state": "MO", "addr:postcode": "63101", "name": "Schnucks Downtown", "phone": "314-436-7694", "website": "https://locations.schnucks.com/mo-st-louis-301", "image": "https://s3.amazonaws.com/media.locally.net/logo-270x270/schnucks-1_2021-02-25-08-33-27.jpg", "brand": "Schnuck's", "brand:wikidata": "Q7431920", "nsi_id": "schnucks-dde59d"}, "geometry": {"type": "Point", "coordinates": [-90.1934, 38.6292]}},
{"type": "Feature", "id": "O3-9AfVILTBm7j7K1dLUya2W7JI=", "properties": {"ref": "https://locations.schnucks.com/il-cahokia-148", "@spider": "schnucks", "shop": "supermarket", "addr:street_address": "1615 Camp Jackson", "addr:city": "Cahokia", "addr:state": "IL", "addr:postcode": "62206", "name": "Schnucks Cahokia", "phone": "618-332-0060", "website": "https://locations.schnucks.com/il-cahokia-148", "image": "https://s3.amazonaws.com/media.locally.net/logo-270x270/schnucks-1_2021-02-25-08-33-27.jpg", "brand": "Schnuck's", "brand:wikidata": "Q7431920", "nsi_id": "schnucks-dde59d"}, "geometry": {"type": "Point", "coordinates": [-90.1648, 38.55491]}},
{"type": "Feature", "id": "BEBQJ4OfwfUn2eJEhdz8XD48dkc=", "properties": {"ref": "https://locations.schnucks.com/il-godfrey-269", "@spider": "schnucks", "shop": "supermarket", "addr:street_address": "2712 Godfrey", "addr:city": "Godfrey", "addr:state": "IL", "addr:postcode": "62035", "name": "Schnucks Godfrey", "phone": "618-466-7060", "website": "https://locations.schnucks.com/il-godfrey-269", "image": "https://s3.amazonaws.com/media.locally.net/logo-270x270/schnucks-1_2021-02-25-08-33-27.jpg", "brand": "Schnuck's", "brand:wikidata": "Q7431920", "nsi_id": "schnucks-dde59d"}, "geometry": {"type": "Point", "coordinates": [-90.1937, 38.9234]}},
{"type": "Feature", "id": "XBOkBSxK_BjRW3844oUtuueyoG4=", "properties": {"ref": "https://locations.schnucks.com/il-granite-city-288", "@spider": "schnucks", "shop": "supermarket", "addr:street_address": "3100 Madison Ave", "addr:city": "Granite City", "addr:state": "IL", "addr:postcode": "62040", "name": "Schnucks Granite City", "phone": "618-451-0517", "website": "https://locations.schnucks.com/il-granite-city-288", "image": "https://s3.amazonaws.com/media.locally.net/logo-270x270/schnucks-1_2021-02-25-08-33-27.jpg", "brand": "Schnuck's", "brand:wikidata": "Q7431920", "nsi_id": "schnucks-dde59d"}, "geometry": {"type": "Point", "coordinates": [-90.1238, 38.71717]}},
{"type": "Feature", "id": "5E5LfUe1Bi1zelgk-Yf9WxniJM4=", "properties": {"ref": "https://locations.schnucks.com/il-alton-146", "@spider": "schnucks", "shop": "supermarket", "addr:street_address": "2811 Homer Adams Pkwy", "addr:city": "Alton", "addr:state": "IL", "addr:postcode": "62002", "name": "Schnucks Alton", "phone": "618-465-6673", "website": "https://locations.schnucks.com/il-alton-146", "image": "https://s3.amazonaws.com/media.locally.net/logo-270x270/schnucks-1_2021-02-25-08-33-27.jpg", "brand": "Schnuck's", "brand:wikidata": "Q7431920", "nsi_id": "schnucks-dde59d"}, "geometry": {"type": "Point", "coordinates": [-90.1435, 38.91398]}},
{"type": "Feature", "id": "-k8ZnuAaMevsQfab_L52-UXaSE4=", "properties": {"ref": "https://locations.schnucks.com/il-belleville-115", "@spider": "schnucks", "shop": "supermarket", "addr:street_address": "5720 North Belt West", "addr:city": "Belleville", "addr:state": "IL", "addr:postcode": "62223", "name": "Schnucks Belleville West", "phone": "618-235-6819", "website": "https://locations.schnucks.com/il-belleville-115", "image": "https://s3.amazonaws.com/media.locally.net/logo-270x270/schnucks-1_2021-02-25-08-33-27.jpg", "brand": "Schnuck's", "brand:wikidata": "Q7431920", "nsi_id": "schnucks-dde59d"}, "geometry": {"type": "Point", "coordinates": [-90.0341, 38.54065]}},
{"type": "Feature", "id": "GbvVm8AyvSn-YhtOEnZ55t0a560=", "properties": {"ref": "https://locations.schnucks.com/il-wood-river-224", "@spider": "schnucks", "shop": "supermarket", "addr:street_address": "1900 East Edwardsville Road", "addr:city": "Wood River", "addr:state": "IL", "addr:postcode": "62095", "name": "Schnucks Wood River", "phone": "618-251-5660", "website": "https://locations.schnucks.com/il-wood-river-224", "image": "https://s3.amazonaws.com/media.locally.net/logo-270x270/schnucks-1_2021-02-25-08-33-27.jpg", "brand": "Schnuck's", "brand:wikidata": "Q7431920", "nsi_id": "schnucks-dde59d"}, "geometry": {"type": "Point", "coordinates": [-90.0666, 38.85639]}},
{"type": "Feature", "id": "4GKKokUy5gTHyY03LPFvNs6AXa4=", "properties": {"ref": "https://locations.schnucks.com/il-bethalto-178", "@spider": "schnucks", "shop": "supermarket", "addr:street_address": "72 Airport Plz", "addr:city": "Bethalto", "addr:state": "IL", "addr:postcode": "62010", "name": "Schnucks Bethalto", "phone": "618-377-0235", "website": "https://locations.schnucks.com/il-bethalto-178", "image": "https://s3.amazonaws.com/media.locally.net/logo-270x270/schnucks-1_2021-02-25-08-33-27.jpg", "brand": "Schnuck's", "brand:wikidata": "Q7431920", "nsi_id": "schnucks-dde59d"}, "geometry": {"type": "Point", "coordinates": [-90.05861, 38.90319]}},
{"type": "Feature", "id": "93PIaaO-hM5Lb1jjlUC7rH31C5w=", "properties": {"ref": "https://locations.schnucks.com/il-swansea-120", "@spider": "schnucks", "shop": "supermarket", "addr:street_address": "2665 North Illinois St", "addr:city": "Swansea", "addr:state": "IL", "addr:postcode": "62221", "name": "Schnucks Swansea", "phone": "618-236-1414", "website": "https://locations.schnucks.com/il-swansea-120", "image": "https://s3.amazonaws.com/media.locally.net/logo-270x270/schnucks-1_2021-02-25-08-33-27.jpg", "brand": "Schnuck's", "brand:wikidata": "Q7431920", "nsi_id": "schnucks-dde59d"}, "geometry": {"type": "Point", "coordinates": [-89.985, 38.54309]}},
{"type": "Feature", "id": "Jzr_mPkPTswAfRjiPmtxV9jjho0=", "properties": {"ref": "https://locations.schnucks.com/il-fairview-heights-144", "@spider": "schnucks", "shop": "supermarket", "addr:street_address": "625 Lincoln Hwy", "addr:city": "Fairview Heights", "addr:state": "IL", "addr:postcode": "62208", "name": "Schnucks Fairview Heights", "phone": "618-624-4310", "website": "https://locations.schnucks.com/il-fairview-heights-144", "image": "https://s3.amazonaws.com/media.locally.net/logo-270x270/schnucks-1_2021-02-25-08-33-27.jpg", "brand": "Schnuck's", "brand:wikidata": "Q7431920", "nsi_id": "schnucks-dde59d"}, "geometry": {"type": "Point", "coordinates": [-89.9761, 38.59391]}},
{"type": "Feature", "id": "5fboPC0nUdF76owTegZ_8XlEsqY=", "properties": {"ref": "https://locations.schnucks.com/il-collinsville-119", "@spider": "schnucks", "shop": "supermarket", "addr:street_address": "501 Beltline Rd", "addr:city": "Collinsville", "addr:state": "IL", "addr:postcode": "62234", "name": "Schnucks Collinsville", "phone": "618-345-7661", "website": "https://locations.schnucks.com/il-collinsville-119", "image": "https://s3.amazonaws.com/media.locally.net/logo-270x270/schnucks-1_2021-02-25-08-33-27.jpg", "brand": "Schnuck's", "brand:wikidata": "Q7431920", "nsi_id": "schnucks-dde59d"}, "geometry": {"type": "Point", "coordinates": [-89.9784, 38.69238]}},
{"type": "Feature", "id": "rYa5DJQ6ocfCNBg90XaBCuVCo4M=", "properties": {"ref": "https://locations.schnucks.com/il-belleville-205", "@spider": "schnucks", "shop": "supermarket", "addr:street_address": "800 Carlyle Avenue", "addr:city": "Belleville", "addr:state": "IL", "addr:postcode": "62221", "name": "Schnucks Carlyle Ave", "phone": "618-257-9130", "website": "https://locations.schnucks.com/il-belleville-205", "image": "https://s3.amazonaws.com/media.locally.net/logo-270x270/schnucks-1_2021-02-25-08-33-27.jpg", "brand": "Schnuck's", "brand:wikidata": "Q7431920", "nsi_id": "schnucks-dde59d"}, "geometry": {"type": "Point", "coordinates": [-89.9502, 38.51614]}},
{"type": "Feature", "id": "v7w5cz3BECDr9oManmoIbRdCtNI=", "properties": {"ref": "https://locations.schnucks.com/il-edwardsville-229", "@spider": "schnucks", "shop": "supermarket", "addr:street_address": "2222 Troy Rd", "addr:city": "Edwardsville", "addr:state": "IL", "addr:postcode": "62025", "name": "Schnucks Edwardsville", "phone": "618-659-0010", "website": "https://locations.schnucks.com/il-edwardsville-229", "image": "https://s3.amazonaws.com/media.locally.net/logo-270x270/schnucks-1_2021-02-25-08-33-27.jpg", "brand": "Schnuck's", "brand:wikidata": "Q7431920", "nsi_id": "schnucks-dde59d"}, "geometry": {"type": "Point", "coordinates": [-89.9485, 38.78595]}},
{"type": "Feature", "id": "usVgd1ByQ6ymI7b0bA-wccbl6QQ=", "properties": {"ref": "https://locations.schnucks.com/il-ofallon-177", "@spider": "schnucks", "shop": "supermarket", "addr:street_address": "907 East Hwy 50", "addr:city": "O'Fallon", "addr:state": "IL", "addr:postcode": "62269", "name": "Schnucks Seven Hills", "phone": "618-632-5525", "website": "https://locations.schnucks.com/il-ofallon-177", "image": "https://s3.amazonaws.com/media.locally.net/logo-270x270/schnucks-1_2021-02-25-08-33-27.jpg", "brand": "Schnuck's", "brand:wikidata": "Q7431920", "nsi_id": "schnucks-dde59d"}, "geometry": {"type": "Point", "coordinates": [-89.8965, 38.58365]}},
{"type": "Feature", "id": "vPi16lORcPfVHf0Cu_u3Dv-SDBc=", "properties": {"ref": "https://locations.schnucks.com/mo-cape-girardeau-702", "@spider": "schnucks", "shop": "supermarket", "addr:street_address": "19 S. Kingshighway", "addr:city": "Cape Girardeau", "addr:state": "MO", "addr:postcode": "63701", "name": "Schnucks Cape Girardeau", "phone": "573-334-9191", "website": "https://locations.schnucks.com/mo-cape-girardeau-702", "image": "https://s3.amazonaws.com/media.locally.net/logo-270x270/schnucks-1_2021-02-25-08-33-27.jpg", "brand": "Schnuck's", "brand:wikidata": "Q7431920", "nsi_id": "schnucks-dde59d"}, "geometry": {"type": "Point", "coordinates": [-89.554, 37.30525]}},
{"type": "Feature", "id": "dJSFnarLAqr5yqJNNX_RR3mocxI=", "properties": {"ref": "https://locations.schnucks.com/il-peoria-741", "@spider": "schnucks", "shop": "supermarket", "addr:street_address": "10405 N Centerway Dr.", "addr:city": "Peoria", "addr:state": "IL", "addr:postcode": "61615", "name": "Schnucks Knoxville Crossing", "phone": "309-621-7340", "website": "https://locations.schnucks.com/il-peoria-741", "image": "https://s3.amazonaws.com/media.locally.net/logo-270x270/schnucks-1_2021-02-25-08-33-27.jpg", "brand": "Schnuck's", "brand:wikidata": "Q7431920", "nsi_id": "schnucks-dde59d"}, "geometry": {"type": "Point", "coordinates": [-89.6155, 40.81518]}},
{"type": "Feature", "id": "6I4-DlOIO0cwRjZQC0FpifdtHjA=", "properties": {"ref": "https://locations.schnucks.com/il-pekin-724", "@spider": "schnucks", "shop": "supermarket", "addr:street_address": "1001 Court St", "addr:city": "Pekin", "addr:state": "IL", "addr:postcode": "61554", "name": "Schnucks Pekin", "phone": "309-347-6757", "website": "https://locations.schnucks.com/il-pekin-724", "image": "https://s3.amazonaws.com/media.locally.net/logo-270x270/schnucks-1_2021-02-25-08-33-27.jpg", "brand": "Schnuck's", "brand:wikidata": "Q7431920", "nsi_id": "schnucks-dde59d"}, "geometry": {"type": "Point", "coordinates": [-89.6369, 40.56721]}},
{"type": "Feature", "id": "_rvTs0FtpPYs7RPVUoMYlVZzY1k=", "properties": {"ref": "https://locations.schnucks.com/il-springfield-717", "@spider": "schnucks", "shop": "supermarket", "addr:street_address": "2801 Chatham Rd", "addr:city": "Springfield", "addr:state": "IL", "addr:postcode": "62704", "name": "Schnucks Montvale", "phone": "217-698-2980", "website": "https://locations.schnucks.com/il-springfield-717", "image": "https://s3.amazonaws.com/media.locally.net/logo-270x270/schnucks-1_2021-02-25-08-33-27.jpg", "brand": "Schnuck's", "brand:wikidata": "Q7431920", "nsi_id": "schnucks-dde59d"}, "geometry": {"type": "Point", "coordinates": [-89.6886, 39.76826]}},
{"type": "Feature", "id": "i6CkvbXmmdO4PuByEzOCx-XFYls=", "properties": {"ref": "https://locations.schnucks.com/il-peoria-721", "@spider": "schnucks", "shop": "supermarket", "addr:street_address": "4800 N University", "addr:city": "Peoria", "addr:state": "IL", "addr:postcode": "61614", "name": "Schnucks Peoria", "phone": "309-690-3242", "website": "https://locations.schnucks.com/il-peoria-721", "image": "https://s3.amazonaws.com/media.locally.net/logo-270x270/schnucks-1_2021-02-25-08-33-27.jpg", "brand": "Schnuck's", "brand:wikidata": "Q7431920", "nsi_id": "schnucks-dde59d"}, "geometry": {"type": "Point", "coordinates": [-89.6099, 40.74544]}},
{"type": "Feature", "id": "e6IQ_OX3ytLPCV4tav198u5YvJU=", "properties": {"ref": "https://locations.schnucks.com/wi-janesville-758", "@spider": "schnucks", "shop": "supermarket", "addr:street_address": "1501 Creston Park Dr", "addr:city": "Janesville", "addr:state": "WI", "addr:postcode": "53545", "name": "Schnucks Janesville", "phone": "608-755-5805", "website": "https://locations.schnucks.com/wi-janesville-758", "image": "https://s3.amazonaws.com/media.locally.net/logo-270x270/schnucks-1_2021-02-25-08-33-27.jpg", "brand": "Schnuck's", "brand:wikidata": "Q7431920", "nsi_id": "schnucks-dde59d"}, "geometry": {"type": "Point", "coordinates": [-89.0039, 42.70245]}},
{"type": "Feature", "id": "ZM2qkoLNGw6joCKCXJZTdNTxd80=", "properties": {"ref": "https://locations.schnucks.com/il-e-springfield-718", "@spider": "schnucks", "shop": "supermarket", "addr:street_address": "1911 Sangamon Ave, E", "addr:city": "Springfield", "addr:state": "IL", "addr:postcode": "62702", "name": "Schnucks Sangamon", "phone": "217-744-2012", "website": "https://locations.schnucks.com/il-e-springfield-718", "image": "https://s3.amazonaws.com/media.locally.net/logo-270x270/schnucks-1_2021-02-25-08-33-27.jpg", "brand": "Schnuck's", "brand:wikidata": "Q7431920", "nsi_id": "schnucks-dde59d"}, "geometry": {"type": "Point", "coordinates": [-89.6299, 39.83312]}},
{"type": "Feature", "id": "HFcOX-PyZ7uMZCs-dOX9moVOq48=", "properties": {"ref": "https://locations.schnucks.com/il-roscoe-756", "@spider": "schnucks", "shop": "supermarket", "addr:street_address": "4860 Hononegah Road", "addr:city": "Roscoe", "addr:state": "IL", "addr:postcode": "61073", "name": "Schnucks Roscoe", "phone": "815-623-7799", "website": "https://locations.schnucks.com/il-roscoe-756", "image": "https://s3.amazonaws.com/media.locally.net/logo-270x270/schnucks-1_2021-02-25-08-33-27.jpg", "brand": "Schnuck's", "brand:wikidata": "Q7431920", "nsi_id": "schnucks-dde59d"}, "geometry": {"type": "Point", "coordinates": [-89.0201, 42.43263]}},
{"type": "Feature", "id": "YxHRWKgdce-xQi4lAFWcJUqOV5Q=", "properties": {"ref": "https://locations.schnucks.com/il-loves-park-753", "@spider": "schnucks", "shop": "supermarket", "addr:street_address": "1810 Harlem", "addr:city": "Loves Park", "addr:state": "IL", "addr:postcode": "61111", "name": "Schnucks Loves Park", "phone": "815-633-1481", "website": "https://locations.schnucks.com/il-loves-park-753", "image": "https://s3.amazonaws.com/media.locally.net/logo-270x270/schnucks-1_2021-02-25-08-33-27.jpg", "brand": "Schnuck's", "brand:wikidata": "Q7431920", "nsi_id": "schnucks-dde59d"}, "geometry": {"type": "Point", "coordinates": [-89.0309, 42.34156]}},
{"type": "Feature", "id": "P400qDPdfnO-y4x3J8DzaM8YGII=", "properties": {"ref": "https://locations.schnucks.com/il-rockford-748", "@spider": "schnucks", "shop": "supermarket", "addr:street_address": "3134 11th Street", "addr:city": "Rockford", "addr:state": "IL", "addr:postcode": "61109", "name": "Schnucks 11th Street", "phone": "815-398-0440", "website": "https://locations.schnucks.com/il-rockford-748", "image": "https://s3.amazonaws.com/media.locally.net/logo-270x270/schnucks-1_2021-02-25-08-33-27.jpg", "brand": "Schnuck's", "brand:wikidata": "Q7431920", "nsi_id": "schnucks-dde59d"}, "geometry": {"type": "Point", "coordinates": [-89.0685, 42.228]}},
{"type": "Feature", "id": "dlGopIr2sCkFeTQAaOOhtoBMGF0=", "properties": {"ref": "https://locations.schnucks.com/il-rockford-754", "@spider": "schnucks", "shop": "supermarket", "addr:street_address": "2642 Charles St", "addr:city": "Rockford", "addr:state": "IL", "addr:postcode": "61104", "name": "Schnucks Rockford Plaza", "phone": "815-484-2453", "website": "https://locations.schnucks.com/il-rockford-754", "image": "https://s3.amazonaws.com/media.locally.net/logo-270x270/schnucks-1_2021-02-25-08-33-27.jpg", "brand": "Schnuck's", "brand:wikidata": "Q7431920", "nsi_id": "schnucks-dde59d"}, "geometry": {"type": "Point", "coordinates": [-89.0536, 42.2614]}},
{"type": "Feature", "id": "sWa5wlUSKoVnSwZYJ2IwoVFbsYY=", "properties": {"ref": "https://locations.schnucks.com/il-rockford-750", "@spider": "schnucks", "shop": "supermarket", "addr:street_address": "6410 E. State St.", "addr:city": "Rockford", "addr:state": "IL", "addr:postcode": "61108", "name": "Schnucks East State", "phone": "815-397-6080", "website": "https://locations.schnucks.com/il-rockford-750", "image": "https://s3.amazonaws.com/media.locally.net/logo-270x270/schnucks-1_2021-02-25-08-33-27.jpg", "brand": "Schnuck's", "brand:wikidata": "Q7431920", "nsi_id": "schnucks-dde59d"}, "geometry": {"type": "Point", "coordinates": [-88.9913, 42.27003]}},
{"type": "Feature", "id": "8a9IWCq-8kHIAo4peIZ-KrmgTQ4=", "properties": {"ref": "https://locations.schnucks.com/il-carbondale-722", "@spider": "schnucks", "shop": "supermarket", "addr:street_address": "915 W Main", "addr:city": "Carbondale", "addr:state": "IL", "addr:postcode": "62901", "name": "Schnucks Carbondale", "phone": "618-351-0463", "website": "https://locations.schnucks.com/il-carbondale-722", "image": "https://s3.amazonaws.com/media.locally.net/logo-270x270/schnucks-1_2021-02-25-08-33-27.jpg", "brand": "Schnuck's", "brand:wikidata": "Q7431920", "nsi_id": "schnucks-dde59d"}, "geometry": {"type": "Point", "coordinates": [-89.2288, 37.72524]}},
{"type": "Feature", "id": "-Wbj6NccAERkjrBoaeynBON697Q=", "properties": {"ref": "https://locations.schnucks.com/il-rockford-747", "@spider": "schnucks", "shop": "supermarket", "addr:street_address": "2206 Barnes Blvd", "addr:city": "Cherry Valley", "addr:state": "IL", "addr:postcode": "61012", "name": "Schnucks Cherry Valley", "phone": "815-332-7267", "website": "https://locations.schnucks.com/il-rockford-747", "image": "https://s3.amazonaws.com/media.locally.net/logo-270x270/schnucks-1_2021-02-25-08-33-27.jpg", "brand": "Schnuck's", "brand:wikidata": "Q7431920", "nsi_id": "schnucks-dde59d"}, "geometry": {"type": "Point", "coordinates": [-88.9771, 42.24315]}},
{"type": "Feature", "id": "ymS1d_I1Al2GOG11P3LOofL6Efk=", "properties": {"ref": "https://locations.schnucks.com/il-centralia-733", "@spider": "schnucks", "shop": "supermarket", "addr:street_address": "1129 W. Broadway", "addr:city": "Centralia", "addr:state": "IL", "addr:postcode": "62801", "name": "Schnucks Centralia", "phone": "618-532-4449", "website": "https://locations.schnucks.com/il-centralia-733", "image": "https://s3.amazonaws.com/media.locally.net/logo-270x270/schnucks-1_2021-02-25-08-33-27.jpg", "brand": "Schnuck's", "brand:wikidata": "Q7431920", "nsi_id": "schnucks-dde59d"}, "geometry": {"type": "Point", "coordinates": [-89.1534, 38.52811]}},
{"type": "Feature", "id": "LSDfVgvPtXzzYtV8U6i_pmSX6eI=", "properties": {"ref": "https://locations.schnucks.com/il-dekalb-749", "@spider": "schnucks", "shop": "supermarket", "addr:street_address": "975 South Annie Glidden Rd.", "addr:city": "Dekalb", "addr:state": "IL", "addr:postcode": "60115", "name": "Schnucks Dekalb", "phone": "815-748-6200", "website": "https://locations.schnucks.com/il-dekalb-749", "image": "https://s3.amazonaws.com/media.locally.net/logo-270x270/schnucks-1_2021-02-25-08-33-27.jpg", "brand": "Schnuck's", "brand:wikidata": "Q7431920", "nsi_id": "schnucks-dde59d"}, "geometry": {"type": "Point", "coordinates": [-88.7753, 41.91987]}},
{"type": "Feature", "id": "TeAGtYGWvVNQGprD9P698-VRp2o=", "properties": {"ref": "https://locations.schnucks.com/il-normal-729", "@spider": "schnucks", "shop": "supermarket", "addr:street_address": "1750 Bradford Lane", "addr:city": "Normal", "addr:state": "IL", "addr:postcode": "61761", "name": "Schnucks Normal", "phone": "309-451-7100", "website": "https://locations.schnucks.com/il-normal-729", "image": "https://s3.amazonaws.com/media.locally.net/logo-270x270/schnucks-1_2021-02-25-08-33-27.jpg", "brand": "Schnuck's", "brand:wikidata": "Q7431920", "nsi_id": "schnucks-dde59d"}, "geometry": {"type": "Point", "coordinates": [-88.991, 40.53402]}}]}