{"type":"FeatureCollection","features":[{"type": "Feature", "id": "qErVElu0Igmdt1xhO-8-A_HElUU=", "properties": {"ref": "perth", "type": "scotmid", "@spider": "scotmid", "addr:street_address": "12 West Mains Avenue", "addr:city": "Perth", "addr:postcode": "PH1 1QZ ", "addr:country": "GB", "name": "Perth", "phone": "01738627178", "opening_hours": "Mo-Fr 06:00-22:00; Su 06:00-22:00", "brand": "Scotmid", "brand:wikidata": "Q7435719"}, "geometry": {"type": "Point", "coordinates": [-3.4826, 56.3994]}},
{"type": "Feature", "id": "WJ8Y8UX8N2AZ6ZuE5x2oWZLkWhY=", "properties": {"ref": "coatbridge-2-3", "type": "scotmid", "@spider": "scotmid", "addr:street_address": "88 Woodside Street", "addr:city": "Coatbridge", "addr:postcode": "ML5 5NR", "addr:country": "GB", "name": "Coatbridge 2", "phone": "01236421627", "opening_hours": "Mo-Sa 07:00-22:00; Su 08:00-22:00", "brand": "Scotmid", "brand:wikidata": "Q7435719"}, "geometry": {"type": "Point", "coordinates": [-4.04772, 55.85119]}},
{"type": "Feature", "id": "_TRFWldxZoJvMPsvYs-ljMunX04=", "properties": {"ref": "carluke-2", "type": "semichem", "@spider": "scotmid", "shop": "chemist", "addr:street_address": "42 High Street", "addr:state": "Carluke ", "addr:postcode": "ML8 4AJ", "addr:country": "GB", "name": "Carluke", "phone": "01555 772 632", "opening_hours": "Mo-Sa 09:00-17:30", "brand": "Semichem", "brand:wikidata": "Q17032096", "nsi_id": "semichem-b82430"}, "geometry": {"type": "Point", "coordinates": [-3.83891, 55.7343]}},
{"type": "Feature", "id": "ggmmywhbB66lrRrJJ3-ovOxryI8=", "properties": {"ref": "cowdenbeath", "type": "semichem", "@spider": "scotmid", "shop": "chemist", "addr:street_address": "337 High Street", "addr:state": "Cowdenbeath ", "addr:postcode": "KA4 9QJ", "addr:country": "GB", "name": "Cowdenbeath", "phone": "01383 510138", "opening_hours": "Mo-Sa 09:00-17:30; Su 12:00-16:00", "brand": "Semichem", "brand:wikidata": "Q17032096", "nsi_id": "semichem-b82430"}, "geometry": {"type": "Point", "coordinates": [-3.34264, 56.10988]}},
{"type": "Feature", "id": "E1yl4SzNcR4Q5M5hUXsaxzEOlbE=", "properties": {"ref": "greenock", "type": "semichem", "@spider": "scotmid", "shop": "chemist", "addr:street_address": "27 West Stewart Street", "addr:city": "Greenock", "addr:state": "Renfrewshire", "addr:postcode": "PA15 1SN", "addr:country": "GB", "name": "Greenock", "phone": "01475 892 800", "opening_hours": "Mo-Sa 09:00-17:30; Su 12:00-16:00", "brand": "Semichem", "brand:wikidata": "Q17032096", "nsi_id": "semichem-b82430"}, "geometry": {"type": "Point", "coordinates": [-4.76242, 55.94936]}},
{"type": "Feature", "id": "bPNYYfaGJPzsbO41EHNmoBUbaGk=", "properties": {"ref": "scotmid-co-operative-funeral-directors-clermiston", "type": "funeral-branches", "@spider": "scotmid", "addr:street_address": "1 Rannoch Terrace", "addr:city": "Edinburgh", "addr:postcode": "EH4 7ER", "addr:country": "GB", "name": "Scotmid Co-operative Funeral Directors Clermiston", "phone": "0131 339 5021", "opening_hours": "Mo-Fr 09:00-17:00", "brand": "Scotmid", "brand:wikidata": "Q7435719"}, "geometry": {"type": "Point", "coordinates": [-3.28598, 55.95479]}},
{"type": "Feature", "id": "FapZdl3_3Jx9sY8Xg4os5rJSZmc=", "properties": {"ref": "scotmid-co-operative-funeral-directors-dunfermline", "type": "funeral-branches", "@spider": "scotmid", "addr:street_address": "2-4 Bridge Street", "addr:city": "Dunfermline", "addr:postcode": "KY12 8DA", "addr:country": "GB", "name": "Scotmid Co-operative Funeral Directors Dunfermline", "phone": "01383 669866", "opening_hours": "Mo-Fr 09:00-17:00", "brand": "Scotmid", "brand:wikidata": "Q7435719"}, "geometry": {"type": "Point", "coordinates": [-3.46483, 56.07126]}},
{"type": "Feature", "id": "LQ4TEftJ39RTsjyZR8Pqx775zzA=", "properties": {"ref": "scotmid-co-operative-funeral-directors-prestonpans", "type": "funeral-branches", "@spider": "scotmid", "addr:street_address": "180-184 High Street", "addr:city": "Prestonpans", "addr:postcode": "EH32 9AZ", "addr:country": "GB", "name": "Scotmid Co-operative Funeral Directors Prestonpans", "phone": "01875 813309", "opening_hours": "Mo-Fr 09:00-17:00", "brand": "Scotmid", "brand:wikidata": "Q7435719"}, "geometry": {"type": "Point", "coordinates": [-2.98791, 55.95856]}},
{"type": "Feature", "id": "hvrPSYA9B9ld08HRBY5uPLNq6iU=", "properties": {"ref": "scotmid-co-operative-funeral-directors-sighthill", "type": "funeral-branches", "@spider": "scotmid", "addr:street_address": "283-289 Calder Road", "addr:city": "Edinburgh", "addr:postcode": "EH11 4RH", "addr:country": "GB", "name": "Scotmid Co-operative Funeral Directors Sighthill", "phone": "0131 202 6882", "opening_hours": "Mo-Fr 09:00-17:00", "brand": "Scotmid", "brand:wikidata": "Q7435719"}, "geometry": {"type": "Point", "coordinates": [-3.27556, 55.92479]}},
{"type": "Feature", "id": "UouLkKIrqLt-eg0dV174z6smDLU=", "properties": {"ref": "scotmid-co-operative-funeral-directors-4", "type": "funeral-branches", "@spider": "scotmid", "addr:street_address": "2-4 Bridge Street", "addr:city": "Dunfermline", "addr:state": "Fife", "addr:postcode": "KY12 8DA", "addr:country": "GB", "name": "Scotmid Co-operative Funeral Directors", "phone": "01383 669 866", "opening_hours": "Mo-Sa 09:00-17:00", "brand": "Scotmid", "brand:wikidata": "Q7435719"}, "geometry": {"type": "Point", "coordinates": [-3.464827, 56.071422]}},
{"type": "Feature", "id": "2zDPVqX4eCGXDCQjsHDyXE3X-qs=", "properties": {"ref": "scotmid-co-operative-funeral-directors-3", "type": "funeral-branches", "@spider": "scotmid", "addr:street_address": "16 John Street", "addr:city": "Penicuik", "addr:state": "Midlothian", "addr:postcode": "EH26 8AB", "addr:country": "GB", "name": "Scotmid Co-operative Funeral Directors", "phone": "01968 679 474", "opening_hours": "Mo-Sa 09:00-17:00", "brand": "Scotmid", "brand:wikidata": "Q7435719"}, "geometry": {"type": "Point", "coordinates": [-3.22241, 55.827508]}},
{"type": "Feature", "id": "wrGTlIc1qCp9E54EGF1_J_JYALE=", "properties": {"ref": "scotmid-co-operative-funeral-directors-2", "type": "funeral-branches", "@spider": "scotmid", "addr:street_address": "Main Street", "addr:city": "Uddingston", "addr:postcode": "G71 7EN", "addr:country": "GB", "name": "Scotmid Co-operative Funeral Directors", "phone": "01698 535 111", "opening_hours": "Mo-Sa 09:00-17:00", "brand": "Scotmid", "brand:wikidata": "Q7435719"}, "geometry": {"type": "Point", "coordinates": [-4.08398, 55.821676]}},
{"type": "Feature", "id": "nQYwwhl1f_nkUZ5IxYcat0WEpjI=", "properties": {"ref": "scotmid-co-operative-funeral-directors", "type": "funeral-branches", "@spider": "scotmid", "addr:street_address": "16A Main Street", "addr:city": "Deans", "addr:state": "Livingston", "addr:postcode": "EH54 8DF", "addr:country": "GB", "name": "Scotmid Co-operative Funeral Directors", "phone": "01506 533 566", "opening_hours": "Mo-Sa 09:00-17:00", "brand": "Scotmid", "brand:wikidata": "Q7435719"}, "geometry": {"type": "Point", "coordinates": [-3.566443, 55.900276]}},
{"type": "Feature", "id": "A0Q8LTKtpCEme-QD8tPYFWDNXG4=", "properties": {"ref": "wheatridge-pfs", "type": "lakes-and-dales", "@spider": "scotmid", "addr:street_address": "Avenue Road", "addr:city": "Seaton Delaval", "addr:state": "Whitley Bay ", "addr:postcode": "NE25 0DS", "addr:country": "GB", "name": "Wheatridge PFS", "phone": "0191 298 0406", "opening_hours": "Mo-Su 07:00-21:00", "brand": "Lakes & Dales Co-operative", "brand:wikidata": "Q110620660"}, "geometry": {"type": "Point", "coordinates": [-1.525253, 55.072397]}},
{"type": "Feature", "id": "R_QRQTizD-a6dg2K1piCyEgV_kc=", "properties": {"ref": "seaton-valley", "type": "lakes-and-dales", "@spider": "scotmid", "addr:street_address": "1-15 Avenue Road", "addr:city": "Seaton Delaval", "addr:state": "Whitley Bay ", "addr:postcode": "NE25 0DS", "addr:country": "GB", "name": "Seaton Valley", "phone": "0191 237 1010", "opening_hours": "Mo-Su 07:00-21:00", "brand": "Lakes & Dales Co-operative", "brand:wikidata": "Q110620660"}, "geometry": {"type": "Point", "coordinates": [-1.52499, 55.0726]}},
{"type": "Feature", "id": "Lxm7Ufv2A49w4Suf4_8gKmQHyBs=", "properties": {"ref": "wheatridge", "type": "lakes-and-dales", "@spider": "scotmid", "addr:street_address": "Wheatridge House", "addr:city": "Blackhaugh Drive", "addr:state": "Seaton Delaval ", "addr:postcode": "NE25 0FF", "addr:country": "GB", "name": "Wheatridge", "phone": "0191 237 3588", "opening_hours": "Mo-Sa 07:00-21:00; Su 10:00-16:00", "brand": "Lakes & Dales Co-operative", "brand:wikidata": "Q110620660"}, "geometry": {"type": "Point", "coordinates": [-1.531643, 55.076394]}},
{"type": "Feature", "id": "-I6zrhG7zGIXQmF4K95apidOlao=", "properties": {"ref": "elizabethdrive", "type": "scotmid", "@spider": "scotmid", "addr:street_address": "31 Elizabeth Drive", "addr:city": "Bathgate", "addr:postcode": "EH48 1SJ", "addr:country": "GB", "name": "Elizabeth Drive", "phone": "01506 654 443", "opening_hours": "Mo-Su 07:00-22:00", "brand": "Scotmid", "brand:wikidata": "Q7435719"}, "geometry": {"type": "Point", "coordinates": [-3.609008, 55.899584]}},
{"type": "Feature", "id": "sNj1Z1JHQRRRuFlI_F3HpLv3Qjk=", "properties": {"ref": "st-johns-chapel", "type": "lakes-and-dales", "@spider": "scotmid", "addr:street_address": "3 Market Place, St Johns Chapel", "addr:city": " Bishop Auckland", "addr:state": "Co Durham", "addr:postcode": "DL13 1QF", "addr:country": "GB", "name": "St Johns Chapel", "phone": "01388 537210", "opening_hours": "Mo-Sa 08:00-20:00; Su 09:00-17:00", "brand": "Lakes & Dales Co-operative", "brand:wikidata": "Q110620660"}, "geometry": {"type": "Point", "coordinates": [-2.18006, 54.73612]}},
{"type": "Feature", "id": "15zmBQJ-wilGfjs_zhC7ZiZbkJI=", "properties": {"ref": "stanhope", "type": "lakes-and-dales", "@spider": "scotmid", "addr:street_address": "Belle View House 33/35 Front Street Stanhope", "addr:city": "Bishop Auckland", "addr:state": "Co Durham", "addr:postcode": "DL13 2TS", "addr:country": "GB", "name": "Stanhope", "phone": "01388 528219", "opening_hours": "Mo-Su 07:00-21:00", "brand": "Lakes & Dales Co-operative", "brand:wikidata": "Q110620660"}, "geometry": {"type": "Point", "coordinates": [-2.005421, 54.74702]}},
{"type": "Feature", "id": "9Q_xfhvA7tquKNo6GI5yQE6-W8A=", "properties": {"ref": "frosterley", "type": "lakes-and-dales", "@spider": "scotmid", "addr:street_address": "21 Front Street", "addr:city": "Frosterley Bishop Auckland", "addr:state": "Co Durham", "addr:postcode": "DL13 2QW", "addr:country": "GB", "name": "Frosterley", "phone": "01388 527321", "opening_hours": "Mo-Sa 08:00-20:00; Su 09:00-17:00", "brand": "Lakes & Dales Co-operative", "brand:wikidata": "Q110620660"}, "geometry": {"type": "Point", "coordinates": [-1.962128, 54.727487]}},
{"type": "Feature", "id": "bbxkygkzsgErXFmuabMU9p9JDEU=", "properties": {"ref": "shap", "type": "lakes-and-dales", "@spider": "scotmid", "addr:street_address": "Main Street, Shap", "addr:city": "Penrith ", "addr:state": "Cumbria", "addr:postcode": "CA10 3NG", "addr:country": "GB", "name": "Shap", "phone": "01931 716202", "opening_hours": "Mo-Su 07:00-21:00", "brand": "Lakes & Dales Co-operative", "brand:wikidata": "Q110620660"}, "geometry": {"type": "Point", "coordinates": [-2.677746, 54.531713]}},
{"type": "Feature", "id": "ZB8SirX-MjlGMBL3mDD1GxRsePk=", "properties": {"ref": "keswick", "type": "lakes-and-dales", "@spider": "scotmid", "addr:street_address": "St James Court", "addr:city": "Keswick", "addr:state": "Cumbria", "addr:postcode": "CA12 5EF", "addr:country": "GB", "name": "Keswick", "phone": "017687 72688", "opening_hours": "Mo-Sa 07:00-21:00; Su 10:00-16:00", "brand": "Lakes & Dales Co-operative", "brand:wikidata": "Q110620660"}, "geometry": {"type": "Point", "coordinates": [-3.140111, 54.602599]}},
{"type": "Feature", "id": "L3DkIlnJ11HkqF6k-gB5zdiGxA0=", "properties": {"ref": "lazonby", "type": "lakes-and-dales", "@spider": "scotmid", "addr:street_address": "Henderson Buildings, Lazonby", "addr:city": "Penrith", "addr:state": "Cumbria", "addr:postcode": "CA10 1BG", "addr:country": "GB", "name": "Lazonby", "phone": "01768 898210", "opening_hours": "Mo-Sa 08:00-20:00; Su 10:00-16:00", "brand": "Lakes & Dales Co-operative", "brand:wikidata": "Q110620660"}, "geometry": {"type": "Point", "coordinates": [-2.704255, 54.749854]}},
{"type": "Feature", "id": "-ZXr6Bfi_3MNPnsPZvlBaE6SJTQ=", "properties": {"ref": "tower-centre", "type": "semichem", "@spider": "scotmid", "shop": "chemist", "addr:street_address": "Unit 43", "addr:city": "  Tower Centre", "addr:state": "  Wellington Street  ", "addr:postcode": "BT43 6AH", "addr:country": "GB", "name": "Tower Centre", "phone": "02825 652 631", "opening_hours": "Mo-We 09:00-17:30; Th-Fr 09:00-21:00; Sa 09:00-18:00; Su 13:00-18:00", "brand": "Semichem", "brand:wikidata": "Q17032096", "nsi_id": "semichem-b82430"}, "geometry": {"type": "Point", "coordinates": [-6.27843, 54.865257]}},
{"type": "Feature", "id": "HVUBFpmajJTZ0y_OHu9buLetcuA=", "properties": {"ref": "the-quays", "type": "semichem", "@spider": "scotmid", "shop": "chemist", "addr:street_address": "Unit 2", "addr:city": "  The Quays Shopping Centre", "addr:state": "  Newry  ", "addr:postcode": "BT35 8QS", "addr:country": "GB", "name": "The Quays", "phone": "02830 252 644", "opening_hours": "Mo-We 09:00-18:00; Th-Fr 09:00-20:00; Sa 09:00-18:00; Su 13:00-18:00", "brand": "Semichem", "brand:wikidata": "Q17032096", "nsi_id": "semichem-b82430"}, "geometry": {"type": "Point", "coordinates": [-6.339896, 54.167458]}},
{"type": "Feature", "id": "zHWptAoqrjeUUE5O56ycMtg41Tk=", "properties": {"ref": "richmond-centre", "type": "semichem", "@spider": "scotmid", "shop": "chemist", "addr:street_address": "Units 35 & 36", "addr:city": "  Third Floor Level", "addr:state": "  Richmond Shopping Centre  ", "addr:postcode": "BT48 6PE", "addr:country": "GB", "name": "Richmond Centre", "phone": "02871 360 478", "opening_hours": "Mo-Fr 09:00-21:00; Sa 09:00-18:00; Su 13:00-18:00", "brand": "Semichem", "brand:wikidata": "Q17032096", "nsi_id": "semichem-b82430"}, "geometry": {"type": "Point", "coordinates": [-7.320574, 54.995067]}},
{"type": "Feature", "id": "AzRjjWmW_tducKl4twGM2iuND6Y=", "properties": {"ref": "magherafelt", "type": "semichem", "@spider": "scotmid", "shop": "chemist", "addr:street_address": "Unit 6 Meadow Lane Shopping Centre", "addr:city": " Moneymore Road", "addr:state": " Magherafelt  ", "addr:postcode": "BT45 0EA", "addr:country": "GB", "name": "Magherafelt", "phone": "02879 634 363", "opening_hours": "Mo-Fr 09:00-21:00; Sa 09:00-18:00; Su 13:00-17:00", "brand": "Semichem", "brand:wikidata": "Q17032096", "nsi_id": "semichem-b82430"}, "geometry": {"type": "Point", "coordinates": [-6.657084, 54.734625]}},
{"type": "Feature", "id": "VG3-evG4oQL_T_IayoJvDdzqOWY=", "properties": {"ref": "larne", "type": "semichem", "@spider": "scotmid", "shop": "chemist", "addr:street_address": "49a Main Street", "addr:city": "  Larne", "addr:postcode": "BT40 1SP", "addr:country": "GB", "name": "Larne", "phone": "02828 279 250", "opening_hours": "Mo-Sa 09:00-17:30; Su 13:00-17:00", "brand": "Semichem", "brand:wikidata": "Q17032096", "nsi_id": "semichem-b82430"}, "geometry": {"type": "Point", "coordinates": [-5.818253, 54.85196]}},
{"type": "Feature", "id": "Lbn-DGl5KUjIgMf-FETaI64c35w=", "properties": {"ref": "kennedy-centre", "type": "semichem", "@spider": "scotmid", "shop": "chemist", "addr:street_address": "Unit 52", "addr:city": "  Kennedy Centre", "addr:state": "  Falls Road  ", "addr:postcode": "BT11 9AE", "addr:country": "GB", "name": "Kennedy Centre", "phone": "02890 603100", "opening_hours": "Mo-Fr 09:00-21:00; Sa 09:00-18:00; Su 13:00-18:00", "brand": "Semichem", "brand:wikidata": "Q17032096", "nsi_id": "semichem-b82430"}, "geometry": {"type": "Point", "coordinates": [-5.977915, 54.580537]}},
{"type": "Feature", "id": "FgiZTmC167YEpiWKWAvKkwu2Swc=", "properties": {"ref": "foyleside", "type": "semichem", "@spider": "scotmid", "shop": "chemist", "addr:street_address": "Unit L12 Foyleside Shopping Centre", "addr:city": "  Orchard Street ", "addr:state": "  Londonderry ", "addr:postcode": "BT48 6XY", "addr:country": "GB", "name": "Foyleside", "phone": "02871 363083", "opening_hours": "Mo-Fr 09:00-21:00; Sa 09:00-19:00; Su 13:00-18:00", "brand": "Semichem", "brand:wikidata": "Q17032096", "nsi_id": "semichem-b82430"}, "geometry": {"type": "Point", "coordinates": [-7.319485, 54.994171]}},
{"type": "Feature", "id": "qVoiGvoAgPlv6qa6AtY0rwdcC68=", "properties": {"ref": "fairhill", "type": "semichem", "@spider": "scotmid", "shop": "chemist", "addr:street_address": "Unit 31 Fairhill Shopping Centre", "addr:city": "  Ballymena", "addr:state": "  Ballymena  ", "addr:postcode": "BT43 6UF", "addr:country": "GB", "name": "Fairhill", "phone": "02825 632 074", "opening_hours": "Mo-Fr 09:00-21:00; Sa 09:00-18:00; Su 13:00-18:00", "brand": "Semichem", "brand:wikidata": "Q17032096", "nsi_id": "semichem-b82430"}, "geometry": {"type": "Point", "coordinates": [-6.276425, 54.86939]}},
{"type": "Feature", "id": "JswIOYGRg2s6a1423UQWgc9VcJU=", "properties": {"ref": "dungannon", "type": "semichem", "@spider": "scotmid", "shop": "chemist", "addr:street_address": "Unit 5 Oaks Shopping Centre", "addr:city": " Oaks Road", "addr:state": " Dungannon ", "addr:postcode": "BT71 4NA", "addr:country": "GB", "name": "Dungannon", "phone": "02887 722 158", "opening_hours": "Mo-Fr 09:00-21:00; Sa 09:00-17:30; Su 13:00-18:00", "brand": "Semichem", "brand:wikidata": "Q17032096", "nsi_id": "semichem-b82430"}, "geometry": {"type": "Point", "coordinates": [-6.764625, 54.511101]}},
{"type": "Feature", "id": "K7dPRb_A-Ots-WIgZLbALQ-YIlk=", "properties": {"ref": "connswater-shopping-centre", "type": "semichem", "@spider": "scotmid", "shop": "chemist", "addr:street_address": "Unit C ", "addr:city": "  Connswater Shopping Centre", "addr:state": "  Bloomfield Avenue,  Belfast ", "addr:postcode": "BT5 5LP", "addr:country": "GB", "name": "Connswater Shopping Centre", "phone": "02890 738730", "opening_hours": "Mo-Fr 09:00-21:00; Sa 09:00-18:00; Su 13:00-17:00", "brand": "Semichem", "brand:wikidata": "Q17032096", "nsi_id": "semichem-b82430"}, "geometry": {"type": "Point", "coordinates": [-5.890248, 54.595553]}},
{"type": "Feature", "id": "Nb8MeFPLAAmyTmdML68_cSn8knE=", "properties": {"ref": "castle-court", "type": "semichem", "@spider": "scotmid", "shop": "chemist", "addr:street_address": "Unit 15", "addr:city": "  Castle Court", "addr:state": "  Belfast  ", "addr:postcode": "BT1 1DD", "addr:country": "GB", "name": "Castle Court", "phone": "02890 236 177", "opening_hours": "Mo-Fr 09:00-21:00; Sa 09:00-18:00; Su 13:00-18:00", "brand": "Semichem", "brand:wikidata": "Q17032096", "nsi_id": "semichem-b82430"}, "geometry": {"type": "Point", "coordinates": [-5.933806, 54.60061]}},
{"type": "Feature", "id": "-udJe7deR9ztafd12g5XfaiFqj0=", "properties": {"ref": "buttercrane-centre", "type": "semichem", "@spider": "scotmid", "shop": "chemist", "addr:street_address": "Unit 7", "addr:city": "  Buttercrane Shopping Centre", "addr:state": "  Buttercrane Quay  ", "addr:postcode": "BT35 8HJ", "addr:country": "GB", "name": "Buttercrane Centre", "phone": "02830 264 759", "opening_hours": "Mo-Fr 09:00-21:00; Sa 09:00-18:00; Su 13:00-18:00", "brand": "Semichem", "brand:wikidata": "Q17032096", "nsi_id": "semichem-b82430"}, "geometry": {"type": "Point", "coordinates": [-6.34173, 54.171845]}},
{"type": "Feature", "id": "em1LKmyaJZHIsMiZ0cCmiknL-tM=", "properties": {"ref": "armagh", "type": "semichem", "@spider": "scotmid", "shop": "chemist", "addr:street_address": "Unit 2", "addr:city": "  The Mall Shopping Centre", "addr:state": "  Mall West  ", "addr:postcode": "BT61 9AJ", "addr:country": "GB", "name": "Armagh", "phone": "02837 518 000", "opening_hours": "Mo-Fr 09:00-21:00; Sa 09:00-18:00; Su 13:00-18:00", "brand": "Semichem", "brand:wikidata": "Q17032096", "nsi_id": "semichem-b82430"}, "geometry": {"type": "Point", "coordinates": [-6.651855, 54.347885]}},
{"type": "Feature", "id": "656QiRBUYobY7VgeyWgh-72OYgc=", "properties": {"ref": "thurso", "type": "semichem", "@spider": "scotmid", "shop": "chemist", "addr:street_address": "3A Rotterdam Street", "addr:city": "  Thurso", "addr:state": "  Caithness  ", "addr:postcode": "KW14 8AA", "addr:country": "GB", "name": "Thurso", "phone": "01847 891 701", "opening_hours": "Mo-Sa 09:00-17:30; Su 12:00-16:00", "brand": "Semichem", "brand:wikidata": "Q17032096", "nsi_id": "semichem-b82430"}, "geometry": {"type": "Point", "coordinates": [-3.519832, 58.595135]}},
{"type": "Feature", "id": "FPG_PMQqBoaYVc0ACAYzYbwzjZg=", "properties": {"ref": "stonehaven", "type": "semichem", "@spider": "scotmid", "shop": "chemist", "addr:street_address": "47 Allardice Street", "addr:city": "  Stonehaven", "addr:state": "  Kincardinshire  ", "addr:postcode": "AB39 2AB", "addr:country": "GB", "name": "Stonehaven", "phone": "01569 766 231", "opening_hours": "Mo-Sa 09:00-17:30; Su 12:00-16:00", "brand": "Semichem", "brand:wikidata": "Q17032096", "nsi_id": "semichem-b82430"}, "geometry": {"type": "Point", "coordinates": [-2.208543, 56.964704]}},
{"type": "Feature", "id": "UGyH_YceG0j9E7vln-HYBuJJkJo=", "properties": {"ref": "peterhead", "type": "semichem", "@spider": "scotmid", "shop": "chemist", "addr:street_address": "Unit 1", "addr:city": "  Drummers Corner", "addr:state": "  Peterhead  ", "addr:postcode": "AB42 1ZP", "addr:country": "GB", "name": "Peterhead", "phone": "01779 480 953", "opening_hours": "Mo-Sa 09:00-17:30; Su 12:00-16:00", "brand": "Semichem", "brand:wikidata": "Q17032096", "nsi_id": "semichem-b82430"}, "geometry": {"type": "Point", "coordinates": [-1.780956, 57.505449]}},
{"type": "Feature", "id": "TrsVbLErM51DVebHYwTOiRbCRv8=", "properties": {"ref": "nairn-2", "type": "semichem", "@spider": "scotmid", "shop": "chemist", "addr:street_address": "25 High Street", "addr:city": "  Nairn", "addr:state": "  Invernesshire  ", "addr:postcode": "IV12 4AG", "addr:country": "GB", "name": "Nairn", "phone": "01667 454 525", "opening_hours": "Mo-Sa 09:00-17:30; Su 12:00-16:00", "brand": "Semichem", "brand:wikidata": "Q17032096", "nsi_id": "semichem-b82430"}, "geometry": {"type": "Point", "coordinates": [-3.869629, 57.583918]}},
{"type": "Feature", "id": "LePn8jRZb8xPCo_eLuwebto3PcU=", "properties": {"ref": "mastrick-shopping-centre", "type": "semichem", "@spider": "scotmid", "shop": "chemist", "addr:street_address": "17-18 Greenfern Place", "addr:city": "  Mastrick Shopping Centre", "addr:state": "  Aberdeen  ", "addr:postcode": "AB16 6JR", "addr:country": "GB", "name": "Mastrick Shopping Centre", "phone": "01224 686 233", "opening_hours": "Mo-Sa 09:00-17:30; Su 12:00-16:00", "brand": "Semichem", "brand:wikidata": "Q17032096", "nsi_id": "semichem-b82430"}, "geometry": {"type": "Point", "coordinates": [-2.161547, 57.155549]}},
{"type": "Feature", "id": "GhCGIXxYr-UHLpzTynv6t8-94lE=", "properties": {"ref": "leven", "type": "semichem", "@spider": "scotmid", "shop": "chemist", "addr:street_address": "50 High Street", "addr:city": "  Leven", "addr:state": "  Fife  ", "addr:postcode": "KY8 4NA", "addr:country": "GB", "name": "Leven", "phone": "01333 429 207", "opening_hours": "Mo-Sa 09:00-17:30; Su 12:00-16:00", "brand": "Semichem", "brand:wikidata": "Q17032096", "nsi_id": "semichem-b82430"}, "geometry": {"type": "Point", "coordinates": [-2.997316, 56.194993]}},
{"type": "Feature", "id": "8YbexNFlceGLXcNv98DSQ9lnaSg=", "properties": {"ref": "inverness", "type": "semichem", "@spider": "scotmid", "shop": "chemist", "addr:street_address": "Unit 3", "addr:city": "  23-31 Queensgate", "addr:state": "  Inverness  ", "addr:postcode": "IV1 1DG", "addr:country": "GB", "name": "Inverness", "phone": "01463 239 608", "opening_hours": "Mo-Sa 09:00-17:30; Su 12:00-16:00", "brand": "Semichem", "brand:wikidata": "Q17032096", "nsi_id": "semichem-b82430"}, "geometry": {"type": "Point", "coordinates": [-4.226414, 57.47906]}},
{"type": "Feature", "id": "nUY7ftN3L_dXMwj7WeTuS0v3puU=", "properties": {"ref": "fraserburgh", "type": "semichem", "@spider": "scotmid", "shop": "chemist", "addr:street_address": "23-27 Broad Street", "addr:city": "  Fraserburgh", "addr:state": "  Aberdeenshire  ", "addr:postcode": "AB43 9AE", "addr:country": "GB", "name": "Fraserburgh", "phone": "01346 519 304", "opening_hours": "Mo-Sa 09:00-17:30; Su 12:00-16:00", "brand": "Semichem", "brand:wikidata": "Q17032096", "nsi_id": "semichem-b82430"}, "geometry": {"type": "Point", "coordinates": [-2.00475, 57.692652]}},
{"type": "Feature", "id": "oB6C61UKJkZX2N3XuNcGhrgmbvo=", "properties": {"ref": "cupar", "type": "semichem", "@spider": "scotmid", "shop": "chemist", "addr:street_address": "9-13 Crossgate", "addr:city": "  Cupar", "addr:state": "  Fife  ", "addr:postcode": "KY15 5HA", "addr:country": "GB", "name": "Cupar", "phone": "01334 656 340", "opening_hours": "Mo-Sa 09:00-17:30; Su 12:00-16:00", "brand": "Semichem", "brand:wikidata": "Q17032096", "nsi_id": "semichem-b82430"}, "geometry": {"type": "Point", "coordinates": [-3.011997, 56.319098]}},
{"type": "Feature", "id": "rGROwnYFWdlLq7l_eKtU10S7uxM=", "properties": {"ref": "broughty-ferry", "type": "semichem", "@spider": "scotmid", "shop": "chemist", "addr:street_address": "248 Brook Street", "addr:city": "  Broughty Ferry", "addr:state": "  Dundee  ", "addr:postcode": "DD5 2AH", "addr:country": "GB", "name": "Broughty Ferry", "phone": "01382 770 459", "opening_hours": "Mo-Sa 09:00-17:30; Su 12:00-16:00", "brand": "Semichem", "brand:wikidata": "Q17032096", "nsi_id": "semichem-b82430"}, "geometry": {"type": "Point", "coordinates": [-2.874381, 56.46697]}},
{"type": "Feature", "id": "P9svByW9VP7hsfO6TTV_cvT9o-E=", "properties": {"ref": "brechin-2", "type": "semichem", "@spider": "scotmid", "shop": "chemist", "addr:street_address": "23 St. David Street", "addr:city": "  Brechin", "addr:state": "  Angus  ", "addr:postcode": "DD9 6EG", "addr:country": "GB", "name": "Brechin", "phone": "01356 624 439", "opening_hours": "Mo-Sa 09:00-17:30; Su 12:00-16:00", "brand": "Semichem", "brand:wikidata": "Q17032096", "nsi_id": "semichem-b82430"}, "geometry": {"type": "Point", "coordinates": [-2.661545, 56.731951]}},
{"type": "Feature", "id": "JYDREzmoMRT4_6Ol--V08qm_snc=", "properties": {"ref": "arbroath", "type": "semichem", "@spider": "scotmid", "shop": "chemist", "addr:street_address": "178 High Street", "addr:city": " Arbroath", "addr:postcode": "DD11 1HW", "addr:country": "GB", "name": "Arbroath", "phone": "01241 431 456", "opening_hours": "Mo-Sa 09:00-17:30; Su 11:00-16:00", "brand": "Semichem", "brand:wikidata": "Q17032096", "nsi_id": "semichem-b82430"}, "geometry": {"type": "Point", "coordinates": [-2.582157, 56.560242]}},
{"type": "Feature", "id": "4qB4TdGRH3qtp531O8BuEkYMIbE=", "properties": {"ref": "wishaw", "type": "semichem", "@spider": "scotmid", "shop": "chemist", "addr:street_address": "75-77 Main Street", "addr:city": "  Wishaw", "addr:state": "  Lanarkshire  ", "addr:postcode": "ML2 7AB", "addr:country": "GB", "name": "Wishaw", "phone": "01698 361 894", "opening_hours": "Mo-Sa 09:00-17:30", "brand": "Semichem", "brand:wikidata": "Q17032096", "nsi_id": "semichem-b82430"}, "geometry": {"type": "Point", "coordinates": [-3.920674, 55.774405]}},
{"type": "Feature", "id": "XKiWuuSTITQ37WU2rmEzhU4l1Tg=", "properties": {"ref": "whitburn", "type": "semichem", "@spider": "scotmid", "shop": "chemist", "addr:street_address": "34 Main Street", "addr:city": "  Whitburn", "addr:state": "  West Lothian  ", "addr:postcode": "EH47 0QX", "addr:country": "GB", "name": "Whitburn", "phone": "01501 745 561", "opening_hours": "Mo-Sa 09:00-17:30", "brand": "Semichem", "brand:wikidata": "Q17032096", "nsi_id": "semichem-b82430"}, "geometry": {"type": "Point", "coordinates": [-3.68727, 55.866446]}},
{"type": "Feature", "id": "-R23XGw4f-rRVOpP79fUOBK4bh8=", "properties": {"ref": "springburn", "type": "semichem", "@spider": "scotmid", "shop": "chemist", "addr:street_address": "Unit 8", "addr:city": "  Springburn Shopping Centre", "addr:state": "  230 Springburn Way  ", "addr:postcode": "G21 1TS", "addr:country": "GB", "name": "Springburn", "phone": "0141 558 9922", "opening_hours": "Mo-Sa 09:00-17:30; Su 12:00-16:00", "brand": "Semichem", "brand:wikidata": "Q17032096", "nsi_id": "semichem-b82430"}, "geometry": {"type": "Point", "coordinates": [-4.228042, 55.883374]}},
{"type": "Feature", "id": "V6BhPLLwmJK9jfukiCX9TCaJffA=", "properties": {"ref": "oban", "type": "semichem", "@spider": "scotmid", "shop": "chemist", "addr:street_address": "Unit 2, Kilmartin Court", "addr:city": "  Shore Street", "addr:state": " Oban  ", "addr:postcode": "PA34 4NT", "addr:country": "GB", "name": "Oban", "phone": "01631 570 872", "opening_hours": "Mo-Sa 09:00-17:30; Su 12:00-16:00", "brand": "Semichem", "brand:wikidata": "Q17032096", "nsi_id": "semichem-b82430"}, "geometry": {"type": "Point", "coordinates": [-5.474439, 56.411653]}},
{"type": "Feature", "id": "-WxLPH3xDiIQP8YdQkJVPe_oy2s=", "properties": {"ref": "motherwell", "type": "semichem", "@spider": "scotmid", "shop": "chemist", "addr:street_address": "43 Brandon Parade South", "addr:city": "  Motherwell", "addr:state": "  Lanarkshire  ", "addr:postcode": "ML1 1RB", "addr:country": "GB", "name": "Motherwell", "phone": "01698 267 823", "opening_hours": "Mo-Sa 09:00-17:30; Su 12:00-16:00", "brand": "Semichem", "brand:wikidata": "Q17032096", "nsi_id": "semichem-b82430"}, "geometry": {"type": "Point", "coordinates": [-3.991203, 55.789872]}},
{"type": "Feature", "id": "h6ThQqqdx3yqMcCFH1funnApcAE=", "properties": {"ref": "larkhall-2", "type": "semichem", "@spider": "scotmid", "shop": "chemist", "addr:street_address": "132 Union Street", "addr:city": "  Larkhall", "addr:state": "  Lanarkshire  ", "addr:postcode": "ML9 1EF", "addr:country": "GB", "name": "Larkhall", "phone": "01698 884 296", "opening_hours": "Mo-Sa 09:00-17:30; Su 12:00-16:00", "brand": "Semichem", "brand:wikidata": "Q17032096", "nsi_id": "semichem-b82430"}, "geometry": {"type": "Point", "coordinates": [-3.973103, 55.737905]}},
{"type": "Feature", "id": "0Qw4rc9ek5tExAb8p9-0T7mUOe0=", "properties": {"ref": "kirkintilloch-2", "type": "semichem", "@spider": "scotmid", "shop": "chemist", "addr:street_address": "67 Cowgate", "addr:city": "  Kirkintilloch", "addr:state": "  Glasgow  ", "addr:postcode": "G66 1HW", "addr:country": "GB", "name": "Kirkintilloch", "phone": "0141 776 4578", "opening_hours": "Mo-Sa 09:00-17:30; Su 12:00-16:00", "brand": "Semichem", "brand:wikidata": "Q17032096", "nsi_id": "semichem-b82430"}, "geometry": {"type": "Point", "coordinates": [-4.157876, 55.940614]}},
{"type": "Feature", "id": "5CT4CyzxPRwOG27pwUB8sbtYngo=", "properties": {"ref": "helensburgh", "type": "semichem", "@spider": "scotmid", "shop": "chemist", "addr:street_address": "16/18 Sinclair Street", "addr:city": "  Helensburgh", "addr:state": "  Argyll & Bute  ", "addr:postcode": "G84 8SU", "addr:country": "GB", "name": "Helensburgh", "phone": "01436 671 487", "opening_hours": "Mo-Sa 09:00-17:30; Su 11:00-16:00", "brand": "Semichem", "brand:wikidata": "Q17032096", "nsi_id": "semichem-b82430"}, "geometry": {"type": "Point", "coordinates": [-4.733368, 56.003312]}},
{"type": "Feature", "id": "ht1C7DNn_Bijx00GydT3MsddC5U=", "properties": {"ref": "hamilton-2", "type": "semichem", "@spider": "scotmid", "shop": "chemist", "addr:street_address": "1-5 Quarry Street", "addr:city": "  Hamilton", "addr:state": "  Lanarkshire  ", "addr:postcode": "ML3 7AW", "addr:country": "GB", "name": "Hamilton", "phone": "01698 425 514", "opening_hours": "Mo-Sa 09:00-17:30; Su 12:00-16:00", "brand": "Semichem", "brand:wikidata": "Q17032096", "nsi_id": "semichem-b82430"}, "geometry": {"type": "Point", "coordinates": [-4.033604, 55.775571]}},
{"type": "Feature", "id": "4ie5uj7dfXJs0BvsS2GQKXjqaXA=", "properties": {"ref": "fort-william", "type": "semichem", "@spider": "scotmid", "shop": "chemist", "addr:street_address": "Unit 1, Airds Crossing", "addr:city": "  High Street ", "addr:state": " Fort William  ", "addr:postcode": "PH33 6EU", "addr:country": "GB", "name": "Fort William", "phone": "01397 705 935", "opening_hours": "Mo-Sa 09:00-17:30; Su 12:00-16:00", "brand": "Semichem", "brand:wikidata": "Q17032096", "nsi_id": "semichem-b82430"}, "geometry": {"type": "Point", "coordinates": [-5.109132, 56.819326]}},
{"type": "Feature", "id": "mgqjMTZQhQSqP6auhmT2s9TKdhY=", "properties": {"ref": "dumbarton", "type": "semichem", "@spider": "scotmid", "shop": "chemist", "addr:street_address": "57 High Street", "addr:city": "  Dumbarton", "addr:state": "  Dunbartonshire  ", "addr:postcode": "G82 1LS", "addr:country": "GB", "name": "Dumbarton", "phone": "01389 733 765", "opening_hours": "Mo-Sa 09:00-17:30", "brand": "Semichem", "brand:wikidata": "Q17032096", "nsi_id": "semichem-b82430"}, "geometry": {"type": "Point", "coordinates": [-4.570105, 55.942983]}},
{"type": "Feature", "id": "oSy6LTwwErFKpJ-bqLzCS5oab-w=", "properties": {"ref": "coatbridge-2", "type": "semichem", "@spider": "scotmid", "shop": "chemist", "addr:street_address": "15 Main Street", "addr:city": "  Coatbridge", "addr:state": "  Lanarkshire  ", "addr:postcode": "ML5 3AQ", "addr:country": "GB", "name": "Coatbridge", "phone": "01236 436 676", "opening_hours": "Mo-Sa 09:00-17:30; Su 12:00-16:00", "brand": "Semichem", "brand:wikidata": "Q17032096", "nsi_id": "semichem-b82430"}, "geometry": {"type": "Point", "coordinates": [-4.017587, 55.8599]}},
{"type": "Feature", "id": "qwdGFqIoS0TB0ZLl60huuNU6Tw4=", "properties": {"ref": "clydebank-2", "type": "semichem", "@spider": "scotmid", "shop": "chemist", "addr:street_address": "76-78 Sylvania Way", "addr:city": " Clydebank Shopping", "addr:state": " Clydebank ", "addr:postcode": "G81 2TL", "addr:country": "GB", "name": "Clydebank", "phone": "0141 941 1102", "opening_hours": "Mo-Sa 09:00-17:30; Su 11:00-17:00", "brand": "Semichem", "brand:wikidata": "Q17032096", "nsi_id": "semichem-b82430"}, "geometry": {"type": "Point", "coordinates": [-4.403666, 55.904641]}},
{"type": "Feature", "id": "kWewcvAQrG4ASVsb3VQS4MutOFo=", "properties": {"ref": "bellshill", "type": "semichem", "@spider": "scotmid", "shop": "chemist", "addr:street_address": "236 Main Street", "addr:city": "  Bellshill", "addr:state": "  Lanarkshire  ", "addr:postcode": "ML4 1AB", "addr:country": "GB", "name": "Bellshill", "phone": "01698 845 375", "opening_hours": "Mo-Sa 09:00-17:30", "brand": "Semichem", "brand:wikidata": "Q17032096", "nsi_id": "semichem-b82430"}, "geometry": {"type": "Point", "coordinates": [-4.022141, 55.818692]}},
{"type": "Feature", "id": "Lo0GC4a95RkuZFf4lDtr-HN-Dvo=", "properties": {"ref": "bathgate-2", "type": "semichem", "@spider": "scotmid", "shop": "chemist", "addr:street_address": "2-4 George Place", "addr:city": "  Bathgate", "addr:state": "  West Lothian  ", "addr:postcode": "EH48 1NP", "addr:country": "GB", "name": "Bathgate", "phone": "01506 656 964", "opening_hours": "Mo-Sa 09:00-17:30", "brand": "Semichem", "brand:wikidata": "Q17032096", "nsi_id": "semichem-b82430"}, "geometry": {"type": "Point", "coordinates": [-3.641029, 55.900724]}},
{"type": "Feature", "id": "emmOYVngGiWMbDSdLVQTGu-TC9I=", "properties": {"ref": "armadale-2", "type": "semichem", "@spider": "scotmid", "shop": "chemist", "addr:street_address": "9 West Main Street", "addr:city": "  Armadale", "addr:state": "  West Lothian  ", "addr:postcode": "EH48 3PZ", "addr:country": "GB", "name": "Armadale", "phone": "01501 734 529", "opening_hours": "Mo-Sa 09:00-17:30", "brand": "Semichem", "brand:wikidata": "Q17032096", "nsi_id": "semichem-b82430"}, "geometry": {"type": "Point", "coordinates": [-3.702136, 55.898313]}},
{"type": "Feature", "id": "sNbTF3lb2WkYi5NmLviSu8PWip4=", "properties": {"ref": "airdrie-2", "type": "semichem", "@spider": "scotmid", "shop": "chemist", "addr:street_address": "1B Bank Street", "addr:city": "  Airdrie", "addr:state": "  Lanarkshire  ", "addr:postcode": "ML6 6AF", "addr:country": "GB", "name": "Airdrie", "phone": "01236 748 259", "opening_hours": "Mo-Sa 09:00-17:30", "brand": "Semichem", "brand:wikidata": "Q17032096", "nsi_id": "semichem-b82430"}, "geometry": {"type": "Point", "coordinates": [-3.98074, 55.86652]}},
{"type": "Feature", "id": "gyuCHbkSVQorDV1-zN1DebE9vkg=", "properties": {"ref": "portobello-2", "type": "semichem", "@spider": "scotmid", "shop": "chemist", "addr:street_address": "136-138 Portobello High Street", "addr:city": "  Portobello", "addr:state": "  Edinburgh  ", "addr:postcode": "EH15 1AH", "addr:country": "GB", "name": "Portobello", "phone": "0131 657 1517", "opening_hours": "Mo-Sa 09:00-17:30; Su 12:00-17:00", "brand": "Semichem", "brand:wikidata": "Q17032096", "nsi_id": "semichem-b82430"}, "geometry": {"type": "Point", "coordinates": [-3.114716, 55.953411]}},
{"type": "Feature", "id": "VTQO-ukya0zmravI4yZo8LGxaiw=", "properties": {"ref": "haddington", "type": "semichem", "@spider": "scotmid", "shop": "chemist", "addr:street_address": "39 High Street", "addr:city": "  Haddington", "addr:state": "  East Lothian  ", "addr:postcode": "EH41 3EE", "addr:country": "GB", "name": "Haddington", "phone": "01620 823 150", "opening_hours": "Mo-Sa 09:00-17:30; Su 11:00-15:00", "brand": "Semichem", "brand:wikidata": "Q17032096", "nsi_id": "semichem-b82430"}, "geometry": {"type": "Point", "coordinates": [-2.77762, 55.955191]}},
{"type": "Feature", "id": "8tSyaLGK5kbIf4zHD5C9dhohirA=", "properties": {"ref": "crieff", "type": "semichem", "@spider": "scotmid", "shop": "chemist", "addr:street_address": "17 High Street", "addr:city": "  Crieff", "addr:state": "  Perthshire  ", "addr:postcode": "PH7 3HU", "addr:country": "GB", "name": "Crieff", "phone": "01764 655 090", "opening_hours": "Mo-Sa 09:00-17:30; Su 12:00-16:00", "brand": "Semichem", "brand:wikidata": "Q17032096", "nsi_id": "semichem-b82430"}, "geometry": {"type": "Point", "coordinates": [-3.840111, 56.372697]}},
{"type": "Feature", "id": "Qy3g3WQmwJKkv4-VgBAQdXiSMDY=", "properties": {"ref": "cameron-toll", "type": "semichem", "@spider": "scotmid", "shop": "chemist", "addr:street_address": "Unit 34a", "addr:city": "  6 Lady Road", "addr:state": "  Edinburgh  ", "addr:postcode": "EH16 5PB", "addr:country": "GB", "name": "Cameron Toll", "phone": "0131 672 1025", "opening_hours": "Mo-We 09:00-18:00; Th-Fr 09:00-19:00; Sa 09:00-18:00; Su 11:00-17:00", "brand": "Semichem", "brand:wikidata": "Q17032096", "nsi_id": "semichem-b82430"}, "geometry": {"type": "Point", "coordinates": [-3.163784, 55.92716]}},
{"type": "Feature", "id": "TtsKHnX7pwnTyCo8Z0rBdpS0XDI=", "properties": {"ref": "broxburn-2", "type": "semichem", "@spider": "scotmid", "shop": "chemist", "addr:street_address": "47-53 East Main Street", "addr:city": "  Broxburn", "addr:state": "  West Lothian  ", "addr:postcode": "EH52 5EE", "addr:country": "GB", "name": "Broxburn", "phone": "01506 853 034", "opening_hours": "Mo-Sa 09:00-17:30; Su 12:00-16:00", "brand": "Semichem", "brand:wikidata": "Q17032096", "nsi_id": "semichem-b82430"}, "geometry": {"type": "Point", "coordinates": [-3.468379, 55.934472]}},
{"type": "Feature", "id": "ktE_V6GoyBQXQMWepjIvokqq4EI=", "properties": {"ref": "blairgowrie", "type": "semichem", "@spider": "scotmid", "shop": "chemist", "addr:street_address": "21 High Street", "addr:city": " Blairgowrie", "addr:state": " Perthshire ", "addr:postcode": "PH10 6ET ", "addr:country": "GB", "name": "Blairgowrie", "phone": "01250 870 017", "opening_hours": "Mo-Sa 09:00-17:30; Su 11:00-15:00", "brand": "Semichem", "brand:wikidata": "Q17032096", "nsi_id": "semichem-b82430"}, "geometry": {"type": "Point", "coordinates": [-3.339606, 56.592653]}},
{"type": "Feature", "id": "1V7s8V0veXNa6KNOhl3jIe4FISg=", "properties": {"ref": "dunoon", "type": "semichem", "@spider": "scotmid", "shop": "chemist", "addr:street_address": "102 Argyll St", "addr:city": "  Dunoon", "addr:postcode": "PA23 7NE", "addr:country": "GB", "name": "Dunoon", "phone": "01369 707 045", "opening_hours": "Su 11:00-17:00", "brand": "Semichem", "brand:wikidata": "Q17032096", "nsi_id": "semichem-b82430"}, "geometry": {"type": "Point", "coordinates": [-4.925325, 55.948934]}},
{"type": "Feature", "id": "UnqEvHqcBXBeFd740LRVFYoSgyU=", "properties": {"ref": "renfrew", "type": "semichem", "@spider": "scotmid", "shop": "chemist", "addr:street_address": "37 Hairst Street", "addr:city": "  Renfrew", "addr:postcode": " PA4 8QU", "addr:country": "GB", "name": "Renfrew", "phone": "0141 886 1458", "opening_hours": "Su 12:00-16:00", "brand": "Semichem", "brand:wikidata": "Q17032096", "nsi_id": "semichem-b82430"}, "geometry": {"type": "Point", "coordinates": [-4.387489, 55.878316]}},
{"type": "Feature", "id": "ESx08aWQFdyKNQFixAce6QafXYg=", "properties": {"ref": "irvine", "type": "semichem", "@spider": "scotmid", "shop": "chemist", "addr:street_address": "120-122 High Street", "addr:city": "  Irvine", "addr:postcode": "KA12 8AH", "addr:country": "GB", "name": "Irvine", "phone": "01294 271 448", "opening_hours": "Su 12:00-16:00", "brand": "Semichem", "brand:wikidata": "Q17032096", "nsi_id": "semichem-b82430"}, "geometry": {"type": "Point", "coordinates": [-4.667327, 55.615474]}},
{"type": "Feature", "id": "4hTSBS3mVM-bL0zeLSdzDmctylI=", "properties": {"ref": "paisley", "type": "semichem", "@spider": "scotmid", "shop": "chemist", "addr:street_address": "44-46 Central Way Piazza", "addr:city": "  Paisley", "addr:postcode": "PA1 1EN", "addr:country": "GB", "name": "Paisley", "phone": "0141 889 4620", "opening_hours": "Su 11:00-17:00", "brand": "Semichem", "brand:wikidata": "Q17032096", "nsi_id": "semichem-b82430"}, "geometry": {"type": "Point", "coordinates": [-4.42261, 55.846909]}},
{"type": "Feature", "id": "dBxm-AOQ3Rlwasmma-se4dKI0y0=", "properties": {"ref": "port-glasgow", "type": "semichem", "@spider": "scotmid", "shop": "chemist", "addr:street_address": "44 Princess Street", "addr:city": "  Port Glasgow", "addr:state": "  Renfrewshire  ", "addr:postcode": "PA14 5JQ", "addr:country": "GB", "name": "Port Glasgow", "phone": "01475 744 708", "brand": "Semichem", "brand:wikidata": "Q17032096", "nsi_id": "semichem-b82430"}, "geometry": {"type": "Point", "coordinates": [-4.68975, 55.93427]}},
{"type": "Feature", "id": "CpnCQwZ-5o0KLIb3t2pR4IQ7L-s=", "properties": {"ref": "newton-stewart", "type": "semichem", "@spider": "scotmid", "shop": "chemist", "addr:street_address": "72 Victoria Street", "addr:city": "  Newton Stewart", "addr:state": "  Dumfries And Galloway  ", "addr:postcode": "DG8 6DB", "addr:country": "GB", "name": "Newton Stewart", "phone": "01671 402 949", "opening_hours": "Su 12:00-16:00", "brand": "Semichem", "brand:wikidata": "Q17032096", "nsi_id": "semichem-b82430"}, "geometry": {"type": "Point", "coordinates": [-4.483714, 54.959571]}},
{"type": "Feature", "id": "FxFoVTm10MwkEHb_1WTBe1gPxGw=", "properties": {"ref": "largs", "type": "semichem", "@spider": "scotmid", "shop": "chemist", "addr:street_address": "53 Main Street", "addr:city": "  Largs", "addr:state": "  Ayrshire  ", "addr:postcode": "KA30 8AQ", "addr:country": "GB", "name": "Largs", "phone": "01475 686168", "opening_hours": "Su 11:00-17:00", "brand": "Semichem", "brand:wikidata": "Q17032096", "nsi_id": "semichem-b82430"}, "geometry": {"type": "Point", "coordinates": [-4.867902, 55.794074]}},
{"type": "Feature", "id": "LARplzDaStdh6eMsZFvgS7g7Lv8=", "properties": {"ref": "kilmarnock-2", "type": "semichem", "@spider": "scotmid", "shop": "chemist", "addr:street_address": "1-3 Cheapside Street", "addr:city": "  Kilmarnock", "addr:state": "  Ayrshire  ", "addr:postcode": "KA1 1HX", "addr:country": "GB", "name": "Kilmarnock", "phone": "01563 536 911", "opening_hours": "Su 12:00-16:00", "brand": "Semichem", "brand:wikidata": "Q17032096", "nsi_id": "semichem-b82430"}, "geometry": {"type": "Point", "coordinates": [-4.496852, 55.609772]}},
{"type": "Feature", "id": "qIJm0S6dQL1AN1Dbz-F4gE0zqus=", "properties": {"ref": "rothesay", "type": "semichem", "@spider": "scotmid", "shop": "chemist", "addr:street_address": "102-104 Montague Street", "addr:city": "  Rothesay", "addr:state": "  Isle Of Bute  ", "addr:postcode": "PA20 0HW", "addr:country": "GB", "name": "Rothesay", "phone": "01700 503 027", "opening_hours": "Su 11:00-16:00", "brand": "Semichem", "brand:wikidata": "Q17032096", "nsi_id": "semichem-b82430"}, "geometry": {"type": "Point", "coordinates": [-5.056871, 55.83736]}},
{"type": "Feature", "id": "H9X9Thm9Td8MRo53Heg8XnZyjUY=", "properties": {"ref": "castlemilk", "type": "semichem", "@spider": "scotmid", "shop": "chemist", "addr:street_address": "31 Castlemilk Arcade", "addr:city": "  The Braes Shopping Centre", "addr:state": "  Castlemilk  ", "addr:postcode": "G45 9AA", "addr:country": "GB", "name": "Castlemilk", "phone": "0141 631 4001", "opening_hours": "Su 12:00-16:00", "brand": "Semichem", "brand:wikidata": "Q17032096", "nsi_id": "semichem-b82430"}, "geometry": {"type": "Point", "coordinates": [-4.2351, 55.806682]}},
{"type": "Feature", "id": "NRkWDwtuwBk69dRFqXj1tql79S0=", "properties": {"ref": "johnstone", "type": "semichem", "@spider": "scotmid", "shop": "chemist", "addr:street_address": "Unit 1", "addr:city": "  9 William Street", "addr:state": "  Johnstone  ", "addr:postcode": "PA5 8DP", "addr:country": "GB", "name": "Johnstone", "phone": "01505 323 405", "opening_hours": "Su 12:00-16:00", "brand": "Semichem", "brand:wikidata": "Q17032096", "nsi_id": "semichem-b82430"}, "geometry": {"type": "Point", "coordinates": [-4.511424, 55.835339]}},
{"type": "Feature", "id": "isfRiBkbEUzEeMWumJ_sFwyn_OE=", "properties": {"ref": "saltcoats", "type": "semichem", "@spider": "scotmid", "shop": "chemist", "addr:street_address": "26 Countess Street", "addr:city": "  Saltcoats", "addr:state": "  Ayrshire  ", "addr:postcode": "KA21 5HW", "addr:country": "GB", "name": "Saltcoats", "phone": "01294 467 351", "opening_hours": "Su 12:00-16:00", "brand": "Semichem", "brand:wikidata": "Q17032096", "nsi_id": "semichem-b82430"}, "geometry": {"type": "Point", "coordinates": [-4.785179, 55.633195]}},
{"type": "Feature", "id": "MjOWPFFdlwwLud56SkmCElSbYew=", "properties": {"ref": "stranraer", "type": "semichem", "@spider": "scotmid", "shop": "chemist", "addr:street_address": "3 Charlotte Street", "addr:city": "  Stranraer", "addr:state": "  Dumfries And Galloway  ", "addr:postcode": "DG9 7EJ", "addr:country": "GB", "name": "Stranraer", "phone": "01776 702 943", "opening_hours": "Su 12:00-16:00", "brand": "Semichem", "brand:wikidata": "Q17032096", "nsi_id": "semichem-b82430"}, "geometry": {"type": "Point", "coordinates": [-5.02456, 54.904741]}},
{"type": "Feature", "id": "GJZl5Q_bYEckC-PfNNGonNg81_A=", "properties": {"ref": "fulwell", "type": "semichem", "@spider": "scotmid", "shop": "chemist", "addr:street_address": "21-23 Sea Road", "addr:city": " Fulwell", "addr:state": " Sunderland ", "addr:postcode": "SR6 9BS", "addr:country": "GB", "name": "Fulwell", "phone": "0191 548 0452", "opening_hours": "Mo-Sa 09:00-17:30; Su 10:00-14:00", "brand": "Semichem", "brand:wikidata": "Q17032096", "nsi_id": "semichem-b82430"}, "geometry": {"type": "Point", "coordinates": [-1.379856, 54.929652]}},
{"type": "Feature", "id": "VlMPjPS_gMElYck-U6WPqjJ8ntQ=", "properties": {"ref": "peebles", "type": "semichem", "@spider": "scotmid", "shop": "chemist", "addr:street_address": "60 High Street", "addr:city": "  Peebles", "addr:postcode": "EH45 8SW", "addr:country": "GB", "name": "Peebles", "phone": "01721 724 813", "opening_hours": "Mo-Sa 09:00-17:30; Su 12:00-16:00", "brand": "Semichem", "brand:wikidata": "Q17032096", "nsi_id": "semichem-b82430"}, "geometry": {"type": "Point", "coordinates": [-3.191685, 55.65158]}},
{"type": "Feature", "id": "ICJ6TG0BtLk_zZKLyrF4PcMf3zA=", "properties": {"ref": "kelso", "type": "semichem", "@spider": "scotmid", "shop": "chemist", "addr:street_address": "Unit 4 Roxburgh Court", "addr:city": "  4 Roxburgh Street", "addr:state": "  Kelso  ", "addr:postcode": "TD5 7DN", "addr:country": "GB", "name": "Kelso", "phone": "01573 228 048", "opening_hours": "Mo-Sa 09:00-17:30; Su 11:00-15:00", "brand": "Semichem", "brand:wikidata": "Q17032096", "nsi_id": "semichem-b82430"}, "geometry": {"type": "Point", "coordinates": [-2.435181, 55.59909]}},
{"type": "Feature", "id": "8r92-dtEh9-fiG5r-CnovtnG744=", "properties": {"ref": "barrhead", "type": "scotmid", "@spider": "scotmid", "addr:street_address": "60 Aurs Drive", "addr:city": " Barrhead", "addr:postcode": " G78 2LW", "addr:country": "GB", "name": "Barrhead", "phone": "0141 881 4403", "opening_hours": "Mo-Su 07:00-22:00", "brand": "Scotmid", "brand:wikidata": "Q7435719"}, "geometry": {"type": "Point", "coordinates": [-4.382718, 55.796764]}},
{"type": "Feature", "id": "K3IzjUi0xjudQfmlWgHul43QmX0=", "properties": {"ref": "clarkston", "type": "scotmid", "@spider": "scotmid", "addr:street_address": "36 Mearns Road", "addr:city": " Clarkston", "addr:state": " Glasgow", "addr:postcode": " G76 7EU", "addr:country": "GB", "name": "Clarkston", "phone": "0141 638 9129", "opening_hours": "Mo-Su 06:00-23:00", "brand": "Scotmid", "brand:wikidata": "Q7435719"}, "geometry": {"type": "Point", "coordinates": [-4.278973, 55.789267]}},
{"type": "Feature", "id": "J5PqfAAEpOwxXV37_q873OljwfA=", "properties": {"ref": "muirend", "type": "scotmid", "@spider": "scotmid", "addr:street_address": "245-265 Clarkston Road", "addr:city": " Muirend", "addr:state": " Glasgow", "addr:postcode": " G44 3DT", "addr:country": "GB", "name": "Muirend", "phone": "0141 637 3333", "opening_hours": "Mo-Su 07:00-22:00", "brand": "Scotmid", "brand:wikidata": "Q7435719"}, "geometry": {"type": "Point", "coordinates": [-4.26778, 55.812941]}},
{"type": "Feature", "id": "VQUW6oKADQsVJxM2bCvCuR8Iz_s=", "properties": {"ref": "springboig", "type": "scotmid", "@spider": "scotmid", "addr:street_address": "1 Budhill Avenue", "addr:city": " Springboig", "addr:state": " Glasgow", "addr:postcode": " G32 0PQ", "addr:country": "GB", "name": "Springboig", "phone": "0141 774 2925", "opening_hours": "Mo-Su 07:00-22:00", "brand": "Scotmid", "brand:wikidata": "Q7435719"}, "geometry": {"type": "Point", "coordinates": [-4.16829, 55.848686]}},
{"type": "Feature", "id": "VPlCtUiUb7OC02G1dL4d2B1mVTE=", "properties": {"ref": "moodiesburn", "type": "scotmid", "@spider": "scotmid", "addr:street_address": "57 Glenmanor Avenue", "addr:city": " Moodiesburn", "addr:state": " North Lanarkshire", "addr:postcode": " G69 0LB", "addr:country": "GB", "name": "Moodiesburn", "phone": "01236 872535", "opening_hours": "Mo-Fr 06:00-22:00; Sa-Su 07:00-22:00", "brand": "Scotmid", "brand:wikidata": "Q7435719"}, "geometry": {"type": "Point", "coordinates": [-4.088593, 55.911262]}},
{"type": "Feature", "id": "vkSEcu4T9HjrsiP3XYvQpG0mQMg=", "properties": {"ref": "coatbridge", "type": "scotmid", "@spider": "scotmid", "addr:street_address": "142 Bank Street", "addr:city": " Coatbridge", "addr:state": " North Lanarkshire", "addr:postcode": " ML5 1ET", "addr:country": "GB", "name": "Coatbridge", "phone": "01236 420962", "opening_hours": "Mo-Su 07:00-22:00", "brand": "Scotmid", "brand:wikidata": "Q7435719"}, "geometry": {"type": "Point", "coordinates": [-4.038066, 55.859769]}},
{"type": "Feature", "id": "1kOlgF7jzekPlbyYdwivWp0ZOWU=", "properties": {"ref": "kingspark", "type": "scotmid", "@spider": "scotmid", "addr:street_address": "1125-1133 Aitkenhead Road", "addr:city": " Kingspark", "addr:state": " Glasgow", "addr:postcode": " G44 5SL", "addr:country": "GB", "name": "Kingspark", "phone": "0141 637 3476", "opening_hours": "Mo-Sa 06:00-22:00; Su 07:00-22:00", "brand": "Scotmid", "brand:wikidata": "Q7435719"}, "geometry": {"type": "Point", "coordinates": [-4.249134, 55.817876]}},
{"type": "Feature", "id": "_koMtYNjtkRjzmzOPcvfhtXSH5M=", "properties": {"ref": "greenock-2", "type": "scotmid", "@spider": "scotmid", "addr:street_address": "38-42 Murdiestone Street", "addr:city": " Greenock", "addr:postcode": " PA15 4SJ", "addr:country": "GB", "name": "Greenock", "phone": "01475 725382", "opening_hours": "Mo-Su 07:00-22:00", "brand": "Scotmid", "brand:wikidata": "Q7435719"}, "geometry": {"type": "Point", "coordinates": [-4.77284, 55.942755]}},
{"type": "Feature", "id": "Q8V3zDc38hRMy7btJwmhcVdcJMM=", "properties": {"ref": "crookston", "type": "scotmid", "@spider": "scotmid", "addr:street_address": "7-9 Crookston Road", "addr:city": " Glasgow", "addr:postcode": " G52 3QE", "addr:country": "GB", "name": "Crookston", "phone": "0141 882 2164", "opening_hours": "Mo-Sa 06:00-22:00; Su 07:00-22:00", "brand": "Scotmid", "brand:wikidata": "Q7435719"}, "geometry": {"type": "Point", "coordinates": [-4.364047, 55.845128]}},
{"type": "Feature", "id": "EVKMsl9qL2gy59waml-n5JUr5K4=", "properties": {"ref": "cranhill", "type": "scotmid", "@spider": "scotmid", "addr:street_address": "1111 Edinburgh Road", "addr:city": " Cranhill", "addr:state": " Glasgow", "addr:postcode": " G33 3QE", "addr:country": "GB", "name": "Cranhill", "phone": "0141 774 4698", "opening_hours": "Mo-Su 07:00-22:00", "brand": "Scotmid", "brand:wikidata": "Q7435719"}, "geometry": {"type": "Point", "coordinates": [-4.158806, 55.882451]}},
{"type": "Feature", "id": "KgWkj3okKZcQP-WuwwzLuCMc6y4=", "properties": {"ref": "barlanark", "type": "scotmid", "@spider": "scotmid", "addr:street_address": "Unit 5-6 323 Hallhill Road", "addr:city": " Barlanark", "addr:state": " Glasgow", "addr:postcode": " G33 4RJ", "addr:country": "GB", "name": "Barlanark", "phone": "0141 771 4464", "opening_hours": "Mo-Su 07:00-22:00", "brand": "Scotmid", "brand:wikidata": "Q7435719"}, "geometry": {"type": "Point", "coordinates": [-4.135397, 55.858019]}},
{"type": "Feature", "id": "j7uiqOOV5hDLdiemJU-jwsN0rdk=", "properties": {"ref": "law", "type": "scotmid", "@spider": "scotmid", "addr:street_address": "53/55 Station Road,  Law", "addr:city": " Carluke", "addr:state": " South Lanarkshire", "addr:postcode": " ML8 5LN", "addr:country": "GB", "name": "Law", "phone": "01698 374829", "opening_hours": "Mo-Su 07:00-22:00", "brand": "Scotmid", "brand:wikidata": "Q7435719"}, "geometry": {"type": "Point", "coordinates": [-3.881647, 55.751319]}},
{"type": "Feature", "id": "X_KP9IlRgSGneENo2sQt7EisEI4=", "properties": {"ref": "drumgelloch", "type": "scotmid", "@spider": "scotmid", "addr:street_address": "48 Forrest Street", "addr:city": " Airdrie", "addr:postcode": " ML6 7AG", "addr:country": "GB", "name": "Drumgelloch", "phone": "01236 779752", "opening_hours": "Mo-Sa 06:00-22:00; Su 07:00-22:00", "brand": "Scotmid", "brand:wikidata": "Q7435719"}, "geometry": {"type": "Point", "coordinates": [-3.953428, 55.867496]}},
{"type": "Feature", "id": "ANzoMHNVVB7ged0v1HxBZnw0Ly0=", "properties": {"ref": "blackburn", "type": "scotmid", "@spider": "scotmid", "addr:street_address": "2A Sycamore Walk", "addr:city": " Blackburn", "addr:state": " West Lothian", "addr:postcode": " EH47 7LH", "addr:country": "GB", "name": "Blackburn", "phone": "01506 653748", "opening_hours": "Mo-Sa 07:00-20:00; Su 08:00-18:00", "brand": "Scotmid", "brand:wikidata": "Q7435719"}, "geometry": {"type": "Point", "coordinates": [-3.623264, 55.874424]}},
{"type": "Feature", "id": "WSci58oWBIf4rQxsr8jdlcghEhE=", "properties": {"ref": "bathgate", "type": "scotmid", "@spider": "scotmid", "addr:street_address": "28 Glasgow Road", "addr:city": " Bathgate", "addr:postcode": " EH48 2AG", "addr:country": "GB", "name": "Bathgate", "phone": "01506 631632", "opening_hours": "Mo-Su 06:30-22:00", "brand": "Scotmid", "brand:wikidata": "Q7435719"}, "geometry": {"type": "Point", "coordinates": [-3.651462, 55.901591]}},
{"type": "Feature", "id": "0GW8DPAnDgh5vc42NX4e-4Bzd_0=", "properties": {"ref": "armadale", "type": "scotmid", "@spider": "scotmid", "addr:street_address": "22-32 West Main Street", "addr:city": " Armadale", "addr:postcode": " EH48 3QA", "addr:country": "GB", "name": "Armadale", "phone": "01501 732099", "opening_hours": "Mo-Su 06:00-22:00", "brand": "Scotmid", "brand:wikidata": "Q7435719"}, "geometry": {"type": "Point", "coordinates": [-3.701976, 55.898684]}},
{"type": "Feature", "id": "5twiLiXxi-FXyA9DgOzyImPEGRg=", "properties": {"ref": "harthill", "type": "scotmid", "@spider": "scotmid", "addr:street_address": "59-61 West Main Street", "addr:city": " Harthill", "addr:state": " Shotts", "addr:postcode": " ML7 5NL", "addr:country": "GB", "name": "Harthill", "phone": "01501 751207", "opening_hours": "Mo-Sa 06:00-22:00; Su 07:00-22:00", "brand": "Scotmid", "brand:wikidata": "Q7435719"}, "geometry": {"type": "Point", "coordinates": [-3.754648, 55.85977]}},
{"type": "Feature", "id": "uPCFYtzaigNUrkcJezb1Zk7XNz8=", "properties": {"ref": "newmains", "type": "scotmid", "@spider": "scotmid", "addr:street_address": "136G Manse Road", "addr:city": " Newmains", "addr:state": "Wishaw", "addr:postcode": " ML2 9BD.", "addr:country": "GB", "name": "Newmains", "phone": "01698 381972", "opening_hours": "Mo-Su 07:00-22:00", "brand": "Scotmid", "brand:wikidata": "Q7435719"}, "geometry": {"type": "Point", "coordinates": [-3.881585, 55.78245]}},
{"type": "Feature", "id": "ODGfTirjK2iU8w0j_OX-jd1d6tU=", "properties": {"ref": "carluke", "type": "scotmid", "@spider": "scotmid", "addr:street_address": "30-36 High Street", "addr:city": " Carluke", "addr:state": " Lanarkshire", "addr:postcode": " ML8 4AJ", "addr:country": "GB", "name": "Carluke", "phone": "01555 772425", "opening_hours": "Mo-Fr 07:00-22:00; Sa-Su 08:00-22:00", "brand": "Scotmid", "brand:wikidata": "Q7435719"}, "geometry": {"type": "Point", "coordinates": [-3.838585, 55.734232]}},
{"type": "Feature", "id": "1sdo_a5gdkFBr0zs-JdiAy5H7QI=", "properties": {"ref": "fauldhouse", "type": "scotmid", "@spider": "scotmid", "addr:street_address": "2 Main Street", "addr:city": " Fauldhouse", "addr:state": " Bathgate", "addr:postcode": " EH47 9JA", "addr:country": "GB", "name": "Fauldhouse", "phone": "01501 770819", "opening_hours": "Mo-Su 07:00-22:00", "brand": "Scotmid", "brand:wikidata": "Q7435719"}, "geometry": {"type": "Point", "coordinates": [-3.706402, 55.82825]}},
{"type": "Feature", "id": "z6Ag9xUUKUSpPsgVVWdh6SCBe64=", "properties": {"ref": "holytown", "type": "scotmid", "@spider": "scotmid", "addr:street_address": "44 Main Street Holytown", "addr:city": " Lanarkshire", "addr:postcode": " ML1 4TH", "addr:country": "GB", "name": "Holytown", "phone": "01698 732911", "opening_hours": "Mo-Su 07:00-22:00", "brand": "Scotmid", "brand:wikidata": "Q7435719"}, "geometry": {"type": "Point", "coordinates": [-3.974845, 55.821851]}},
{"type": "Feature", "id": "5LiXE8oxhk_Ik36sdiO3xlXED7Y=", "properties": {"ref": "new-stevenston", "type": "scotmid", "@spider": "scotmid", "addr:street_address": "2 Carfin Street", "addr:city": " New Stevenston", "addr:state": " Motherwell", "addr:postcode": " ML1 4JL", "addr:country": "GB", "name": "New Stevenston", "phone": "01698 733641", "opening_hours": "Mo-Su 06:00-22:00", "brand": "Scotmid", "brand:wikidata": "Q7435719"}, "geometry": {"type": "Point", "coordinates": [-3.976518, 55.812028]}},
{"type": "Feature", "id": "ZwkRKSl4c1EvNDjKXr8w8FHezVA=", "properties": {"ref": "cleland", "type": "scotmid", "@spider": "scotmid", "addr:street_address": "29a Main Street", "addr:city": " Cleland", "addr:postcode": " ML1 5QW", "addr:country": "GB", "name": "Cleland", "phone": "01698 861716", "opening_hours": "Mo-Su 07:00-22:00", "brand": "Scotmid", "brand:wikidata": "Q7435719"}, "geometry": {"type": "Point", "coordinates": [-3.914049, 55.802187]}},
{"type": "Feature", "id": "iPwLEQ6pNhrdY4L2DBgvEtP3SgM=", "properties": {"ref": "menstrie", "type": "scotmid", "@spider": "scotmid", "addr:street_address": "25 Main Street East", "addr:city": " Menstrie", "addr:state": " Clackmannanshire", "addr:postcode": " FK11 7BL", "addr:country": "GB", "name": "Menstrie", "phone": "01259 761322", "opening_hours": "Mo-Su 07:00-22:00", "brand": "Scotmid", "brand:wikidata": "Q7435719"}, "geometry": {"type": "Point", "coordinates": [-3.85314, 56.151185]}},
{"type": "Feature", "id": "Z8EGgOQRo-GYv0kevgBpVliGAxU=", "properties": {"ref": "bannockburn", "type": "scotmid", "@spider": "scotmid", "addr:street_address": "4-6 Main Street", "addr:city": " Bannockburn", "addr:state": " Stirling", "addr:postcode": " FK7 8LY", "addr:country": "GB", "name": "Bannockburn", "phone": "01786 812618", "opening_hours": "Mo-Fr 07:00-22:00; Sa-Su 08:00-22:00", "brand": "Scotmid", "brand:wikidata": "Q7435719"}, "geometry": {"type": "Point", "coordinates": [-3.91505, 56.09111]}},
{"type": "Feature", "id": "CWIKdwRq7trLECQuWSWfbhudRTY=", "properties": {"ref": "inverkeithing", "type": "scotmid", "@spider": "scotmid", "addr:street_address": "45 High Street", "addr:city": " Inverkeithing", "addr:state": " Fife", "addr:postcode": " KY11 1NL", "addr:country": "GB", "name": "Inverkeithing", "phone": "01383 419579", "opening_hours": "Mo-Su 07:00-22:00", "brand": "Scotmid", "brand:wikidata": "Q7435719"}, "geometry": {"type": "Point", "coordinates": [-3.398029, 56.031025]}},
{"type": "Feature", "id": "ZS4z37GGNPaWfQBktyYAeitGsJU=", "properties": {"ref": "stenhousemuir", "type": "scotmid", "@spider": "scotmid", "addr:street_address": "24 Johnston Avenue", "addr:city": " Stenhousemuir", "addr:state": " Larbert", "addr:postcode": " FK5 4JZ", "addr:country": "GB", "name": "Stenhousemuir", "phone": "01324 555953", "opening_hours": "Mo-Su 07:00-22:00", "brand": "Scotmid", "brand:wikidata": "Q7435719"}, "geometry": {"type": "Point", "coordinates": [-3.807144, 56.028674]}},
{"type": "Feature", "id": "byBEVS1slzcresxjK_r5bWkGAYY=", "properties": {"ref": "boness-1", "type": "scotmid", "@spider": "scotmid", "addr:street_address": "66 Linlithgow Road", "addr:city": " Bo'ness", "addr:state": " West Lothian", "addr:postcode": " EH51 0HX", "addr:country": "GB", "name": "Bo&#8217;ness", "phone": "01506 827886", "opening_hours": "Mo-Su 06:00-22:00", "brand": "Scotmid", "brand:wikidata": "Q7435719"}, "geometry": {"type": "Point", "coordinates": [-3.610752, 56.00796]}},
{"type": "Feature", "id": "TPZHqdDLMSWjVazQbFjYOGVjrSc=", "properties": {"ref": "tullibody", "type": "scotmid", "@spider": "scotmid", "addr:street_address": "55 Alloa Road", "addr:city": " Tullibody", "addr:state": " Clackmannanshire", "addr:postcode": " FK10 2TR", "addr:country": "GB", "name": "Tullibody", "phone": "01259 213470", "opening_hours": "Mo-Su 06:30-22:00", "brand": "Scotmid", "brand:wikidata": "Q7435719"}, "geometry": {"type": "Point", "coordinates": [-3.825663, 56.134313]}},
{"type": "Feature", "id": "XkYownVnMWYvPAfW-Hi1_ri7wBQ=", "properties": {"ref": "tayport", "type": "scotmid", "@spider": "scotmid", "addr:street_address": "12 Castle Street", "addr:city": " Tayport", "addr:state": " Fife", "addr:postcode": " DD6 9AF", "addr:country": "GB", "name": "Tayport", "phone": "01382 552502", "opening_hours": "Mo-Su 07:00-22:00", "brand": "Scotmid", "brand:wikidata": "Q7435719"}, "geometry": {"type": "Point", "coordinates": [-2.88102, 56.449467]}},
{"type": "Feature", "id": "NTliYOUbMpZTNpolRJant8pSuqU=", "properties": {"ref": "carronshore", "type": "scotmid", "@spider": "scotmid", "addr:street_address": "Unit 3/4 Ladysgate Court", "addr:city": " Carronshore", "addr:state": " Falkirk", "addr:postcode": " FK2 8HE", "addr:country": "GB", "name": "Carronshore", "phone": "01324 553503", "opening_hours": "Mo-Sa 06:00-22:00; Su 07:00-22:00", "brand": "Scotmid", "brand:wikidata": "Q7435719"}, "geometry": {"type": "Point", "coordinates": [-3.783679, 56.02862]}},
{"type": "Feature", "id": "rLLf6jFkL_FTNWdbjUXLHGKVX4I=", "properties": {"ref": "rimbleton", "type": "scotmid", "@spider": "scotmid", "addr:street_address": "2 Laxford Road", "addr:city": " Rimbleton", "addr:state": " Glenrothes", "addr:postcode": " KY6 2EB", "addr:country": "GB", "name": "Rimbleton", "phone": "01592 769 048", "opening_hours": "Mo-Sa 06:00-22:00; Su 07:00-22:00", "brand": "Scotmid", "brand:wikidata": "Q7435719"}, "geometry": {"type": "Point", "coordinates": [-3.185541, 56.191606]}},
{"type": "Feature", "id": "J3wVDB3RaO_z8x9yKTskDpoA0sg=", "properties": {"ref": "cairneyhill", "type": "scotmid", "@spider": "scotmid", "addr:street_address": "94 Main Street,  Cairneyhill", "addr:city": " Dunfermline", "addr:state": " Fife", "addr:postcode": " KY12 8QU", "addr:country": "GB", "name": "Cairneyhill", "phone": "01383 881 363", "opening_hours": "Mo-Sa 06:00-22:00; Su 07:00-22:00", "brand": "Scotmid", "brand:wikidata": "Q7435719"}, "geometry": {"type": "Point", "coordinates": [-3.535064, 56.0601]}},
{"type": "Feature", "id": "_PloeLXihjsvljkuExwNU08A97A=", "properties": {"ref": "dunfermline", "type": "scotmid", "@spider": "scotmid", "addr:street_address": "2-4 East Baldridge Drive", "addr:city": " Dunfermline", "addr:state": " Fife", "addr:postcode": " KY12 9ET", "addr:country": "GB", "name": "Dunfermline", "phone": "01383 721 528", "opening_hours": "Mo-Su 06:00-22:00", "brand": "Scotmid", "brand:wikidata": "Q7435719"}, "geometry": {"type": "Point", "coordinates": [-3.477716, 56.078672]}},
{"type": "Feature", "id": "AeKKzZEcJkIE2CQ6oqDKxwu6ldI=", "properties": {"ref": "dumfries", "type": "scotmid", "@spider": "scotmid", "addr:street_address": "202/204 Lochside Road", "addr:city": " Dumfries", "addr:state": " Dumfriesshire", "addr:postcode": " DG2 0EB", "addr:country": "GB", "name": "Dumfries", "phone": "01387 721 627", "opening_hours": "Mo-Su 07:00-22:00", "brand": "Scotmid", "brand:wikidata": "Q7435719"}, "geometry": {"type": "Point", "coordinates": [-3.638775, 55.085163]}},
{"type": "Feature", "id": "MQ8Wmw1pzb801ioYcN7mEOYPd8Y=", "properties": {"ref": "castle-douglas", "type": "scotmid", "@spider": "scotmid", "addr:street_address": "129 King Street", "addr:city": " Castle Douglas", "addr:postcode": " DG7 1LZ", "addr:country": "GB", "name": "Castle Douglas", "phone": "01556 502569", "opening_hours": "Mo-Su 07:00-22:00", "brand": "Scotmid", "brand:wikidata": "Q7435719"}, "geometry": {"type": "Point", "coordinates": [-3.92932, 54.940506]}},
{"type": "Feature", "id": "j2ylrYiZG7EpVo4EG1s_vRrVr8s=", "properties": {"ref": "ballantrae", "type": "scotmid", "@spider": "scotmid", "addr:street_address": "38 Main Street", "addr:city": " Ballantrae", "addr:state": " Girvan", "addr:postcode": " KA26 0NB", "addr:country": "GB", "name": "Ballantrae", "phone": "01465 831121", "opening_hours": "Mo-Su 06:00-22:00", "brand": "Scotmid", "brand:wikidata": "Q7435719"}, "geometry": {"type": "Point", "coordinates": [-5.004837, 55.101446]}},
{"type": "Feature", "id": "aXG2GtVCYm4NZlxLejhM8K4x-XU=", "properties": {"ref": "new-cumnock", "type": "scotmid", "@spider": "scotmid", "addr:street_address": "57 Afton Bridgend", "addr:city": " New Cumnock", "addr:state": " Ayrshire", "addr:postcode": " KA18 4BA", "addr:country": "GB", "name": "New Cumnock", "phone": "01290 338 224", "opening_hours": "Mo-Fr 06:00-22:00; Sa-Su 07:00-22:00", "brand": "Scotmid", "brand:wikidata": "Q7435719"}, "geometry": {"type": "Point", "coordinates": [-4.179958, 55.393703]}},
{"type": "Feature", "id": "g55viuMi6aa7J4tyv7I8etm1178=", "properties": {"ref": "cumnock", "type": "scotmid", "@spider": "scotmid", "addr:street_address": "69 Glaisnock Street", "addr:city": " Cumnock", "addr:state": " Ayrshire", "addr:postcode": " KA18 1BX", "addr:country": "GB", "name": "Cumnock", "phone": "01290 424725", "opening_hours": "Mo-Su 07:00-22:00", "brand": "Scotmid", "brand:wikidata": "Q7435719"}, "geometry": {"type": "Point", "coordinates": [-4.263473, 55.45298]}},
{"type": "Feature", "id": "iuiS39K4Z6zezcq40yd0mlT7xUk=", "properties": {"ref": "macphail-drive", "type": "scotmid", "@spider": "scotmid", "addr:street_address": "55 Macphail Drive", "addr:city": " Kilmarnock", "addr:state": " East Ayrshire", "addr:postcode": " KA3 7ET", "addr:country": "GB", "name": "Macphail Drive", "phone": "01563 574502", "opening_hours": "Mo-Fr 06:00-22:00; Sa-Su 07:00-22:00", "brand": "Scotmid", "brand:wikidata": "Q7435719"}, "geometry": {"type": "Point", "coordinates": [-4.475426, 55.610943]}},
{"type": "Feature", "id": "uvhf4z2CwXKw-n1NalR90gnGVyA=", "properties": {"ref": "dean-street", "type": "scotmid", "@spider": "scotmid", "addr:street_address": "26 Dean Street", "addr:city": " Kilmarnock", "addr:state": " Ayrshire", "addr:postcode": " KA5 1EA", "addr:country": "GB", "name": "Dean Street", "phone": "01563 544671", "opening_hours": "Mo-Su 08:00-22:00", "brand": "Scotmid", "brand:wikidata": "Q7435719"}, "geometry": {"type": "Point", "coordinates": [-4.373696, 55.524432]}},
{"type": "Feature", "id": "ClzNqimtDyOMm81wJdRnj8LBhjM=", "properties": {"ref": "eaglesham", "type": "scotmid", "@spider": "scotmid", "addr:street_address": "3 Cheapside Street", "addr:city": " Eaglesham", "addr:state": " South Lanarkshire", "addr:postcode": " G76 0JZ", "addr:country": "GB", "name": "Eaglesham", "phone": "01355 303500", "opening_hours": "Mo-Fr 07:00-22:00; Sa-Su 08:00-22:00", "brand": "Scotmid", "brand:wikidata": "Q7435719"}, "geometry": {"type": "Point", "coordinates": [-4.270994, 55.740424]}},
{"type": "Feature", "id": "_aYX-t2_81On5j0_U27rSkEbUHE=", "properties": {"ref": "gardenhall", "type": "scotmid", "@spider": "scotmid", "addr:street_address": "3 Severen Road", "addr:city": " Gardenhall", "addr:state": " East Kilbride", "addr:postcode": " G75 8QZ", "addr:country": "GB", "name": "Gardenhall", "phone": "01355 263159", "opening_hours": "Mo-Su 07:00-22:00", "brand": "Scotmid", "brand:wikidata": "Q7435719"}, "geometry": {"type": "Point", "coordinates": [-4.222009, 55.751988]}},
{"type": "Feature", "id": "cvD57tGmc1cO5ikptigvKQ9I33A=", "properties": {"ref": "whitehill", "type": "scotmid", "@spider": "scotmid", "addr:street_address": "10 Hawkwood", "addr:city": " East Kilbride", "addr:state": " South Lanarkshire", "addr:postcode": " G75 0DU", "addr:country": "GB", "name": "Whitehill", "phone": "01355 242083", "opening_hours": "Mo-Su 07:00-22:00", "brand": "Scotmid", "brand:wikidata": "Q7435719"}, "geometry": {"type": "Point", "coordinates": [-4.184796, 55.743093]}},
{"type": "Feature", "id": "cSE-xdRql9WPDDjmdK6jV71OfkA=", "properties": {"ref": "strathaven-square", "type": "scotmid", "@spider": "scotmid", "addr:street_address": "15 Common Green", "addr:city": " Strathaven", "addr:state": " South Lanarkshire ", "addr:postcode": "ML10 6AQ", "addr:country": "GB", "name": "Strathaven Square", "phone": "01357 520389", "opening_hours": "Mo-Su 07:00-22:00", "brand": "Scotmid", "brand:wikidata": "Q7435719"}, "geometry": {"type": "Point", "coordinates": [-4.06636, 55.676507]}},
{"type": "Feature", "id": "cAS7csJt7kdVfoDK7jmxInfa5aA=", "properties": {"ref": "kilmarnock", "type": "scotmid", "@spider": "scotmid", "addr:street_address": "73 Whatriggs Road,  Belfield", "addr:city": " Kilmarnock", "addr:state": " Strathclyde", "addr:postcode": " KA1 3RB", "addr:country": "GB", "name": "Kilmarnock", "phone": "01563 521526", "opening_hours": "Mo-Sa 06:00-22:00; Su 07:00-22:00", "brand": "Scotmid", "brand:wikidata": "Q7435719"}, "geometry": {"type": "Point", "coordinates": [-4.488054, 55.592208]}},
{"type": "Feature", "id": "3DApNNofBFwu7dG_sXhdtqePUX0=", "properties": {"ref": "renton", "type": "scotmid", "@spider": "scotmid", "addr:street_address": "165A Main Street", "addr:city": " Renton", "addr:state": " West Dumbartonshire", "addr:postcode": " G82 4NL", "addr:country": "GB", "name": "Renton", "phone": "01389 711122", "opening_hours": "Mo-Su 07:00-22:00", "brand": "Scotmid", "brand:wikidata": "Q7435719"}, "geometry": {"type": "Point", "coordinates": [-4.584326, 55.97133]}},
{"type": "Feature", "id": "dhv8Y9_QWnICVROjb54irsHdO1I=", "properties": {"ref": "clydebank", "type": "scotmid", "@spider": "scotmid", "addr:street_address": "127-129 Riddell Street,  Drumry", "addr:city": " Clydebank", "addr:state": " West Dumbartonshire", "addr:postcode": " G81 2DH", "addr:country": "GB", "name": "Clydebank", "phone": "0141 952 9959", "opening_hours": "Mo-Su 07:00-22:00", "brand": "Scotmid", "brand:wikidata": "Q7435719"}, "geometry": {"type": "Point", "coordinates": [-4.395359, 55.911328]}},
{"type": "Feature", "id": "Sj8pbiVxh-CAml0iRG5XEX84nzg=", "properties": {"ref": "spey-road", "type": "scotmid", "@spider": "scotmid", "addr:street_address": "151/153 Spey Road", "addr:city": " Bearsden", "addr:state": " Glasgow", "addr:postcode": " G61 1LF", "addr:country": "GB", "name": "Spey Road", "phone": "0141 942 9635", "opening_hours": "Mo-Su 07:00-22:00", "brand": "Scotmid", "brand:wikidata": "Q7435719"}, "geometry": {"type": "Point", "coordinates": [-4.348478, 55.908223]}},
{"type": "Feature", "id": "_jtgeTp3Kdfpz48wmZmcIy3RT00=", "properties": {"ref": "bishopbriggs", "type": "scotmid", "@spider": "scotmid", "addr:street_address": "120 Auchinairn Road", "addr:city": " Bishopbriggs", "addr:state": " Glasgow", "addr:postcode": " G64 1NQ", "addr:country": "GB", "name": "Bishopbriggs", "phone": "0141 762 2906 ", "opening_hours": "Mo-Su 07:00-22:00", "brand": "Scotmid", "brand:wikidata": "Q7435719"}, "geometry": {"type": "Point", "coordinates": [-4.213104, 55.897637]}},
{"type": "Feature", "id": "WBqV5nL_eBNf3qifBRUTI8TSsKE=", "properties": {"ref": "torrance", "type": "scotmid", "@spider": "scotmid", "addr:street_address": "27 Main Street", "addr:city": " Torrance", "addr:state": " East Dumbartonshire", "addr:postcode": " G64 4EX", "addr:country": "GB", "name": "Torrance", "phone": "01360 620244", "opening_hours": "Mo-Su 07:00-22:00", "brand": "Scotmid", "brand:wikidata": "Q7435719"}, "geometry": {"type": "Point", "coordinates": [-4.211591, 55.93905]}},
{"type": "Feature", "id": "5aQAzCUhyqJqWisMpP0rw9IRgS0=", "properties": {"ref": "milton-of-campsie", "type": "scotmid", "@spider": "scotmid", "addr:street_address": "4 Antermony Road", "addr:city": " Milton of Campsie", "addr:state": " East Dumbartonshire", "addr:postcode": " G66 8DB", "addr:country": "GB", "name": "Milton of Campsie", "phone": "01360 312961", "opening_hours": "Mo-Su 07:00-22:00", "brand": "Scotmid", "brand:wikidata": "Q7435719"}, "geometry": {"type": "Point", "coordinates": [-4.160327, 55.964486]}},
{"type": "Feature", "id": "BfD0Cdcdu1MwCM3o2QrMorHWg88=", "properties": {"ref": "merkland", "type": "scotmid", "@spider": "scotmid", "addr:street_address": "81 Merkland Drive", "addr:city": " Kirkintilloch", "addr:state": " East Dumbartonshire", "addr:postcode": " G66 3SJ", "addr:country": "GB", "name": "Merkland", "phone": "0141 776 6070", "opening_hours": "Mo-Su 07:00-22:00", "brand": "Scotmid", "brand:wikidata": "Q7435719"}, "geometry": {"type": "Point", "coordinates": [-4.130779, 55.942317]}},
{"type": "Feature", "id": "eQj31bITpKw1bGFjbNzNV0TLvjQ=", "properties": {"ref": "hillhead", "type": "scotmid", "@spider": "scotmid", "addr:street_address": "77 Hillhead Road", "addr:city": "Kirkintilloch", "addr:postcode": " G66 2HY", "addr:country": "GB", "name": "Hillhead", "phone": "0141 776 2241", "opening_hours": "Mo-Su 07:00-22:00", "brand": "Scotmid", "brand:wikidata": "Q7435719"}, "geometry": {"type": "Point", "coordinates": [-4.145688, 55.942598]}},
{"type": "Feature", "id": "I0b5K2sMuk8d0Sxp-WfG_OLw8q4=", "properties": {"ref": "bearsden", "type": "scotmid", "@spider": "scotmid", "addr:street_address": "2-6 Ledi Drive,  Bearsden", "addr:city": " Glasgow", "addr:state": " West Dunbartonshire", "addr:postcode": " G61 4JJ", "addr:country": "GB", "name": "Bearsden", "phone": "0141 943 1102", "opening_hours": "Mo-Su 07:00-22:00", "brand": "Scotmid", "brand:wikidata": "Q7435719"}, "geometry": {"type": "Point", "coordinates": [-4.351515, 55.926401]}},
{"type": "Feature", "id": "AwN-fAdRhk1qzdrNoAp8O5GRGHs=", "properties": {"ref": "old-kilpatrick", "type": "scotmid", "@spider": "scotmid", "addr:street_address": "2 Freelands Place", "addr:city": " Old Kilpatrick", "addr:postcode": " G60 5ED", "addr:country": "GB", "name": "Old Kilpatrick", "phone": "01389 891200", "opening_hours": "Mo-Su 07:00-22:00", "brand": "Scotmid", "brand:wikidata": "Q7435719"}, "geometry": {"type": "Point", "coordinates": [-4.443828, 55.91664]}},
{"type": "Feature", "id": "IeHMfYFqW_v1QqNAMTvMUmBcsjA=", "properties": {"ref": "denny-road", "type": "scotmid", "@spider": "scotmid", "addr:street_address": "Head O'Muir", "addr:city": " Denny Road ", "addr:state": " Denny", "addr:postcode": " FK6 5LJ", "addr:country": "GB", "name": "Denny Road", "phone": "01324 812318", "opening_hours": "Mo-Sa 07:00-20:00; Su 08:00-20:00", "brand": "Scotmid", "brand:wikidata": "Q7435719"}, "geometry": {"type": "Point", "coordinates": [-3.906579, 56.007487]}},
{"type": "Feature", "id": "61w19fUf-L0ULRMr0rDwN0skB9Q=", "properties": {"ref": "wheatlands", "type": "scotmid", "@spider": "scotmid", "addr:street_address": "1 Wheatlands Avenue", "addr:city": " Bonnybridge", "addr:postcode": " FK4 1PN", "addr:country": "GB", "name": "Wheatlands", "phone": "01324 812356", "opening_hours": "Mo-Th 07:00-20:00; Fr-Sa 07:00-22:00; Su 07:00-20:00", "brand": "Scotmid", "brand:wikidata": "Q7435719"}, "geometry": {"type": "Point", "coordinates": [-3.889866, 56.005543]}},
{"type": "Feature", "id": "3f3JuW8F93e6iqdaN2DWayKFaSU=", "properties": {"ref": "bonnybridge", "type": "scotmid", "@spider": "scotmid", "addr:street_address": "25-27 High Street ", "addr:city": "Bonnybridge ", "addr:postcode": "FK4 1BZ", "addr:country": "GB", "name": "Bonnybridge", "phone": "01324 814097", "opening_hours": "Mo-Sa 06:00-22:00; Su 07:00-22:00", "brand": "Scotmid", "brand:wikidata": "Q7435719"}, "geometry": {"type": "Point", "coordinates": [-3.887454, 56.001122]}},
{"type": "Feature", "id": "-xb6Lz0T5kqIKaK3W26vlBsn38w=", "properties": {"ref": "haggs", "type": "scotmid", "@spider": "scotmid", "addr:street_address": "120 Kilsyth Road", "addr:city": " Haggs", "addr:state": " Bonnybridge", "addr:postcode": " FK4 1HN", "addr:country": "GB", "name": "Haggs", "phone": "01324 840234", "opening_hours": "Mo-Fr 06:00-22:00; Sa-Su 07:00-22:00", "brand": "Scotmid", "brand:wikidata": "Q7435719"}, "geometry": {"type": "Point", "coordinates": [-3.942167, 55.991421]}},
{"type": "Feature", "id": "uhGCs_w6mTmUSsCvjdFfBVZoVk4=", "properties": {"ref": "jamestown", "type": "scotmid", "@spider": "scotmid", "addr:street_address": "172 Main Street,  Jamestown", "addr:city": " Alexandria", "addr:state": " Dunbartonshire", "addr:postcode": " G83 8PN", "addr:country": "GB", "name": "Jamestown", "phone": "01389 752121", "opening_hours": "Mo-Su 06:00-22:00", "brand": "Scotmid", "brand:wikidata": "Q7435719"}, "geometry": {"type": "Point", "coordinates": [-4.571, 55.998987]}},
{"type": "Feature", "id": "lvg0dkwvtpRMxI4gZeGo8y8ObrI=", "properties": {"ref": "alexandria", "type": "scotmid", "@spider": "scotmid", "addr:street_address": "1a/1b Tullichewan Drive", "addr:city": " Alexandria", "addr:state": " Dunbartonshire", "addr:postcode": " G83 0JN", "addr:country": "GB", "name": "Alexandria", "phone": "01389 759112", "opening_hours": "Mo-Su 07:00-22:00", "brand": "Scotmid", "brand:wikidata": "Q7435719"}, "geometry": {"type": "Point", "coordinates": [-4.589891, 55.997027]}},
{"type": "Feature", "id": "VlC9CLw7OlEFPhHnzEb2dB0H2GI=", "properties": {"ref": "milngavie", "type": "scotmid", "@spider": "scotmid", "addr:street_address": "1 South Mains Road", "addr:city": " Milngavie", "addr:state": " Glasgow", "addr:postcode": " G62 6DB", "addr:country": "GB", "name": "Milngavie", "phone": "0141 956 7990", "opening_hours": "Mo-Fr 06:30-22:00; Sa-Su 07:00-22:00", "brand": "Scotmid", "brand:wikidata": "Q7435719"}, "geometry": {"type": "Point", "coordinates": [-4.318137, 55.937109]}},
{"type": "Feature", "id": "zOzm4HlrubRDx1SuKUZzsTXXhc4=", "properties": {"ref": "prestonpans", "type": "scotmid", "@spider": "scotmid", "addr:street_address": "180-184 High Street", "addr:city": " Prestonpans", "addr:postcode": " EH32 9AZ", "addr:country": "GB", "name": "Prestonpans", "phone": "01875 815622", "opening_hours": "Mo-Su 07:00-22:00", "brand": "Scotmid", "brand:wikidata": "Q7435719"}, "geometry": {"type": "Point", "coordinates": [-2.987911, 55.958563]}},
{"type": "Feature", "id": "D2u3ydSzEbnlVzkxGkvC1lspulU=", "properties": {"ref": "redburn", "type": "scotmid", "@spider": "scotmid", "addr:street_address": "40A Redburn Road", "addr:city": " Prestonpans", "addr:state": " East Lothian ", "addr:postcode": "EH32 9NG", "addr:country": "GB", "name": "Redburn", "phone": "01875 815284", "opening_hours": "Mo-Su 07:00-22:00", "brand": "Scotmid", "brand:wikidata": "Q7435719"}, "geometry": {"type": "Point", "coordinates": [-2.987261, 55.955037]}},
{"type": "Feature", "id": "RSjc8skfkbko2rt0cpSWA5Ki8xc=", "properties": {"ref": "bankton", "type": "scotmid", "@spider": "scotmid", "addr:street_address": "Hawthorn Road,  Bankton", "addr:city": " Prestonpans", "addr:state": " East Lothian", "addr:postcode": " EH32 9QW", "addr:country": "GB", "name": "Bankton", "phone": "01875 815278", "opening_hours": "Mo-Su 07:00-22:00", "brand": "Scotmid", "brand:wikidata": "Q7435719"}, "geometry": {"type": "Point", "coordinates": [-2.96956, 55.957451]}},
{"type": "Feature", "id": "KBEU_TPOPl7ErCNlOESB0B8UlFQ=", "properties": {"ref": "portobello", "type": "scotmid", "@spider": "scotmid", "addr:street_address": "6 Bath Street", "addr:city": " Portobello", "addr:state": " Edinburgh", "addr:postcode": " EH15 1EY", "addr:country": "GB", "name": "Portobello", "phone": "0131 657 1952", "opening_hours": "Mo-Su 07:00-22:00", "brand": "Scotmid", "brand:wikidata": "Q7435719"}, "geometry": {"type": "Point", "coordinates": [-3.113785, 55.953347]}},
{"type": "Feature", "id": "m875-a7ztizlUe-gSOanExx8G1k=", "properties": {"ref": "granton-road", "type": "scotmid", "@spider": "scotmid", "addr:street_address": "137 Granton Road", "addr:city": " Edinburgh", "addr:postcode": " EH5 3NJ", "addr:country": "GB", "name": "Granton Road", "phone": "0131 551 3129", "opening_hours": "Mo-Fr 07:00-22:00; Sa-Su 08:00-22:00", "brand": "Scotmid", "brand:wikidata": "Q7435719"}, "geometry": {"type": "Point", "coordinates": [-3.215398, 55.976172]}},
{"type": "Feature", "id": "Vt5dAZxhyWo_ltRrxDMU4L7yv2I=", "properties": {"ref": "crewe-road", "type": "scotmid", "@spider": "scotmid", "addr:street_address": "236-240 Crewe Road North", "addr:city": " Edinburgh", "addr:postcode": " EH5 1LW", "addr:country": "GB", "name": "Crewe Road", "phone": "0131 552 4251", "opening_hours": "Mo-Su 07:00-22:00", "brand": "Scotmid", "brand:wikidata": "Q7435719"}, "geometry": {"type": "Point", "coordinates": [-3.238586, 55.975689]}},
{"type": "Feature", "id": "qJBGrglQbzy2e8yAKhzyV6zZTp8=", "properties": {"ref": "boswall", "type": "scotmid", "@spider": "scotmid", "addr:street_address": "37-41 Boswall Parkway", "addr:city": " Edinburgh", "addr:postcode": " EH5 2BR", "addr:country": "GB", "name": "Boswall", "phone": "0131 552 2132", "opening_hours": "Mo-Su 07:00-22:00", "brand": "Scotmid", "brand:wikidata": "Q7435719"}, "geometry": {"type": "Point", "coordinates": [-3.222834, 55.976188]}},
{"type": "Feature", "id": "oeaLi0OQvXHNCnIcl1uLxN0K8Ds=", "properties": {"ref": "currie", "type": "scotmid", "@spider": "scotmid", "addr:street_address": "7 Pentland View Court", "addr:city": " Currie", "addr:state": " Midlothian ", "addr:postcode": "EH14 5NP", "addr:country": "GB", "name": "Currie", "phone": "0131 449 2854", "opening_hours": "Mo-Su 07:00-22:00", "brand": "Scotmid", "brand:wikidata": "Q7435719"}, "geometry": {"type": "Point", "coordinates": [-3.312632, 55.895561]}},
{"type": "Feature", "id": "nxNYbyAF04G7mYSNC2HZnhnaRPI=", "properties": {"ref": "balerno-1", "type": "scotmid", "@spider": "scotmid", "addr:street_address": "6 Main Street", "addr:city": " Balerno", "addr:state": " Midlothian", "addr:postcode": " EH14 7EH", "addr:country": "GB", "name": "Balerno 1", "phone": "0131 449 4237", "opening_hours": "Mo-Su 07:00-22:00", "brand": "Scotmid", "brand:wikidata": "Q7435719"}, "geometry": {"type": "Point", "coordinates": [-3.338802, 55.883688]}},
{"type": "Feature", "id": "YwgvxguvXi8QTEmjEOfuEG5tmy0=", "properties": {"ref": "balerno-2", "type": "scotmid", "@spider": "scotmid", "addr:street_address": "49-53 Bavelaw Road", "addr:city": " Balerno", "addr:state": " Edinburgh", "addr:postcode": " EH14 7AA", "addr:country": "GB", "name": "Balerno 2", "phone": "0131 449 3646", "opening_hours": "Mo-Su 07:00-22:00", "brand": "Scotmid", "brand:wikidata": "Q7435719"}, "geometry": {"type": "Point", "coordinates": [-3.338734, 55.882628]}},
{"type": "Feature", "id": "pPSaoUgEaVQody1x7Sjem5uZaxg=", "properties": {"ref": "moredun", "type": "scotmid", "@spider": "scotmid", "addr:street_address": "80-88 Moredun Park Road", "addr:city": " Edinburgh", "addr:postcode": " EH17 7HG", "addr:country": "GB", "name": "Moredun", "phone": "0131 672 1504", "opening_hours": "Mo-Su 07:00-22:00", "brand": "Scotmid", "brand:wikidata": "Q7435719"}, "geometry": {"type": "Point", "coordinates": [-3.135667, 55.913576]}},
{"type": "Feature", "id": "0l7iXTNJZRUCxNqjUz8keLmjAQo=", "properties": {"ref": "the-inch", "type": "scotmid", "@spider": "scotmid", "addr:street_address": "94-98 Walter Scott Avenue", "addr:city": " The Inch", "addr:state": " Edinburgh", "addr:postcode": " EH16 5RL", "addr:country": "GB", "name": "The Inch", "phone": "0131 664 3092", "opening_hours": "Mo-Su 07:00-22:00", "brand": "Scotmid", "brand:wikidata": "Q7435719"}, "geometry": {"type": "Point", "coordinates": [-3.154045, 55.922031]}},
{"type": "Feature", "id": "Wqv9wsOaGpk9FnNzpVzTrNqdHI0=", "properties": {"ref": "gracemount", "type": "scotmid", "@spider": "scotmid", "addr:street_address": "21 Gracemount Drive", "addr:city": " Edinburgh", "addr:postcode": " EH16 6RP", "addr:country": "GB", "name": "Gracemount", "phone": "0131 664 1663", "opening_hours": "Mo-Su 07:00-22:00", "brand": "Scotmid", "brand:wikidata": "Q7435719"}, "geometry": {"type": "Point", "coordinates": [-3.156179, 55.902863]}},
{"type": "Feature", "id": "JF1wwjRBFXWFiGUf65-BFioC9EM=", "properties": {"ref": "colinton", "type": "scotmid", "@spider": "scotmid", "addr:street_address": "230 Oxgangs Road North", "addr:city": " Colinton Mains", "addr:state": " Edinburgh", "addr:postcode": " EH13 9BQ", "addr:country": "GB", "name": "Colinton", "phone": "0131 441 2915", "opening_hours": "Mo-Su 07:00-22:00", "brand": "Scotmid", "brand:wikidata": "Q7435719"}, "geometry": {"type": "Point", "coordinates": [-3.228561, 55.908623]}},
{"type": "Feature", "id": "KYqxdgQqD6SHKyg2CdWk92lK5j4=", "properties": {"ref": "duddingston", "type": "scotmid", "@spider": "scotmid", "addr:street_address": "191/193 Duddingston Park South", "addr:city": " Edinburgh", "addr:postcode": " EH15 3EJ", "addr:country": "GB", "name": "Duddingston", "phone": "0131 669 0520", "opening_hours": "Mo-Su 07:00-22:00", "brand": "Scotmid", "brand:wikidata": "Q7435719"}, "geometry": {"type": "Point", "coordinates": [-3.114073, 55.934368]}},
{"type": "Feature", "id": "y_Qal720gtEAAMp-ES1lQGZr_To=", "properties": {"ref": "kingsknowe", "type": "scotmid", "@spider": "scotmid", "addr:street_address": "7 Kingsknowe Road North", "addr:city": " Edinburgh", "addr:postcode": " EH14 2BN", "addr:country": "GB", "name": "Kingsknowe", "phone": "0131 455 7133", "opening_hours": "Mo-Su 06:30-22:00", "brand": "Scotmid", "brand:wikidata": "Q7435719"}, "geometry": {"type": "Point", "coordinates": [-3.259156, 55.924191]}},
{"type": "Feature", "id": "2NblFLEbSqWJrj6OR6mmruUGeaY=", "properties": {"ref": "westburn", "type": "scotmid", "@spider": "scotmid", "addr:street_address": "25 Morvenside Close,  Westburn", "addr:city": " Wester Hailes", "addr:state": " Edinburgh", "addr:postcode": " EH14 2SH", "addr:country": "GB", "name": "Westburn", "phone": "0131 453 5917", "opening_hours": "Mo-Sa 06:30-22:00; Su 07:00-22:00", "brand": "Scotmid", "brand:wikidata": "Q7435719"}, "geometry": {"type": "Point", "coordinates": [-3.291042, 55.914767]}},
{"type": "Feature", "id": "wxMLUelTZRgjPI-bgjg7FnQFZFE=", "properties": {"ref": "sighthill", "type": "scotmid", "@spider": "scotmid", "addr:street_address": "283-289 Calder Road", "addr:city": " Sighthill", "addr:state": " Edinburgh", "addr:postcode": " EH11 4RH", "addr:country": "GB", "name": "Sighthill", "phone": "0131 443 6139", "opening_hours": "Mo-Su 07:00-22:00", "brand": "Scotmid", "brand:wikidata": "Q7435719"}, "geometry": {"type": "Point", "coordinates": [-3.275563, 55.924786]}},
{"type": "Feature", "id": "1h9m4qTj1Z3BdJqc7KiLFqzqOx8=", "properties": {"ref": "st-margarets", "type": "scotmid", "@spider": "scotmid", "addr:street_address": "160-162 Restalrig Road South", "addr:city": " St Margarets", "addr:state": " Edinburgh ", "addr:postcode": "EH7 6EH", "addr:country": "GB", "name": "St. Margarets", "phone": "0131 661 5974", "opening_hours": "Mo-Su 07:00-22:00", "brand": "Scotmid", "brand:wikidata": "Q7435719"}, "geometry": {"type": "Point", "coordinates": [-3.151955, 55.961614]}},
{"type": "Feature", "id": "x3wV6cJH3YWVp8abu_CKdDooMhQ=", "properties": {"ref": "deans", "type": "scotmid", "@spider": "scotmid", "addr:street_address": "16 Main Street", "addr:city": " Deans", "addr:state": " Livingston", "addr:postcode": " EH54 8DF", "addr:country": "GB", "name": "Deans", "phone": "01506 410241", "opening_hours": "Mo-Fr 06:00-22:00; Sa-Su 07:00-22:00", "brand": "Scotmid", "brand:wikidata": "Q7435719"}, "geometry": {"type": "Point", "coordinates": [-3.566443, 55.900276]}},
{"type": "Feature", "id": "nFZIsbsOZrPPBf8LlFa2BMC5o2c=", "properties": {"ref": "uphall-station", "type": "scotmid", "@spider": "scotmid", "addr:street_address": "26A Pumpherston Road", "addr:city": " Uphall Station", "addr:state": " Livingston", "addr:postcode": " EH54 5PT", "addr:country": "GB", "name": "Uphall Station", "phone": "01506 440 605", "opening_hours": "Mo-Fr 06:00-22:00; Sa-Su 07:00-22:00", "brand": "Scotmid", "brand:wikidata": "Q7435719"}, "geometry": {"type": "Point", "coordinates": [-3.504738, 55.917652]}},
{"type": "Feature", "id": "h7WgAASPCEZ6g1SKnpViNAyuDlY=", "properties": {"ref": "polbeth", "type": "scotmid", "@spider": "scotmid", "addr:street_address": "2a Polbeth Road", "addr:city": " Polbeth", "addr:state": " West Lothian", "addr:postcode": " EH55 8SR", "addr:country": "GB", "name": "Polbeth", "phone": "01506 873 293", "opening_hours": "Mo-Su 06:00-22:00", "brand": "Scotmid", "brand:wikidata": "Q7435719"}, "geometry": {"type": "Point", "coordinates": [-3.554624, 55.860294]}},
{"type": "Feature", "id": "U4UpILS6CoU0VxwHMN14ex4TIeM=", "properties": {"ref": "newtongrange", "type": "scotmid", "@spider": "scotmid", "addr:street_address": "70 Main Street", "addr:city": " Newtongrange", "addr:state": " Midlothian", "addr:postcode": " EH22 4NE", "addr:country": "GB", "name": "Newtongrange", "phone": "0131 663 9199", "opening_hours": "Mo-Sa 06:00-22:00; Su 07:00-22:00", "brand": "Scotmid", "brand:wikidata": "Q7435719"}, "geometry": {"type": "Point", "coordinates": [-3.068873, 55.869408]}},
{"type": "Feature", "id": "JkZhjoby8jD-9GlhpgUHLik4B1Q=", "properties": {"ref": "loanhead", "type": "scotmid", "@spider": "scotmid", "addr:street_address": "79-83 Clerk Street", "addr:city": " Loanhead", "addr:postcode": " EH20 9RE", "addr:country": "GB", "name": "Loanhead", "phone": "0131 440 0853", "opening_hours": "Mo-Sa 06:00-22:00; Su 06:30-22:00", "brand": "Scotmid", "brand:wikidata": "Q7435719"}, "geometry": {"type": "Point", "coordinates": [-3.149362, 55.878405]}},
{"type": "Feature", "id": "HOpEOrkgUDIy_Ip2oGJwS7SIp2A=", "properties": {"ref": "roslin", "type": "scotmid", "@spider": "scotmid", "addr:street_address": "18 Station Road", "addr:city": " Roslin", "addr:state": " Midlothian", "addr:postcode": " EH25 9LR", "addr:country": "GB", "name": "Roslin", "phone": "0131 440 3972", "opening_hours": "Mo-Fr 07:00-22:00; Sa-Su 08:00-22:00", "brand": "Scotmid", "brand:wikidata": "Q7435719"}, "geometry": {"type": "Point", "coordinates": [-3.164679, 55.858808]}},
{"type": "Feature", "id": "gs8sgJ8e-MF03A5NFfnpG_XcyRY=", "properties": {"ref": "east-calder-2", "type": "scotmid", "@spider": "scotmid", "addr:street_address": "Unit 3,  Redcraig Road", "addr:city": " East Calder", "addr:state": " West Lothian", "addr:postcode": " EH53 0QJ", "addr:country": "GB", "name": "East Calder 2", "phone": "01506 883 053", "opening_hours": "Mo-Sa 06:30-22:00; Su 07:00-22:00", "brand": "Scotmid", "brand:wikidata": "Q7435719"}, "geometry": {"type": "Point", "coordinates": [-3.4599, 55.888242]}},
{"type": "Feature", "id": "zQcBBgNDhl5bMfZ2c-gS5mFrc18=", "properties": {"ref": "uphall-2", "type": "scotmid", "@spider": "scotmid", "addr:street_address": "63 East Main Street", "addr:city": " Uphall", "addr:state": " West Lothian", "addr:postcode": " EH52 5HZ", "addr:country": "GB", "name": "Uphall 2", "phone": "01506 852 508", "opening_hours": "Mo-Sa 06:30-22:00; Su 07:00-22:00", "brand": "Scotmid", "brand:wikidata": "Q7435719"}, "geometry": {"type": "Point", "coordinates": [-3.503854, 55.930764]}},
{"type": "Feature", "id": "8sJgB2SM5g9nPvuelj2b2ayAlCo=", "properties": {"ref": "livingston-2", "type": "scotmid", "@spider": "scotmid", "addr:street_address": "9/11 Main Street", "addr:city": " Deans", "addr:state": " Livingston", "addr:postcode": " EH54 8BE", "addr:country": "GB", "name": "Livingston", "phone": "01506 414359", "opening_hours": "Mo-Su 07:00-22:00", "brand": "Scotmid", "brand:wikidata": "Q7435719"}, "geometry": {"type": "Point", "coordinates": [-3.567199, 55.901174]}},
{"type": "Feature", "id": "dbDKyNCsldhr_LKxvFCA2_Xe7MY=", "properties": {"ref": "east-calder-1", "type": "scotmid", "@spider": "scotmid", "addr:street_address": "171-176 Main Street", "addr:city": " East Calder", "addr:state": " West Lothian", "addr:postcode": " EH53 OEW", "addr:country": "GB", "name": "East Calder 1", "phone": "01506 881776", "opening_hours": "Mo-Su 07:00-22:00", "brand": "Scotmid", "brand:wikidata": "Q7435719"}, "geometry": {"type": "Point", "coordinates": [-3.462497, 55.895633]}},
{"type": "Feature", "id": "RGijr8xO2FxwEABJUXTB38PFMQQ=", "properties": {"ref": "uphall-1", "type": "scotmid", "@spider": "scotmid", "addr:street_address": "9 East Main Street", "addr:city": " Uphall", "addr:state": " West Lothian", "addr:postcode": " EH52 5DZ", "addr:country": "GB", "name": "Uphall 1", "phone": "01506 852109", "opening_hours": "Mo-Su 07:00-22:00", "brand": "Scotmid", "brand:wikidata": "Q7435719"}, "geometry": {"type": "Point", "coordinates": [-3.506208, 55.929972]}},
{"type": "Feature", "id": "zxnbj2wh-r8nqc-1gsNFiT2dDvk=", "properties": {"ref": "west-calder", "type": "scotmid", "@spider": "scotmid", "addr:street_address": "22 Main Street", "addr:city": " West Calder", "addr:state": " West Lothian", "addr:postcode": " EH55 8DR", "addr:country": "GB", "name": "West Calder", "phone": "01506 871444", "opening_hours": "Mo-Fr 06:30-22:00; Sa-Su 07:00-22:00", "brand": "Scotmid", "brand:wikidata": "Q7435719"}, "geometry": {"type": "Point", "coordinates": [-3.572946, 55.850689]}},
{"type": "Feature", "id": "GuBea9CZ9qpE74Dv_gBDbMNSsHc=", "properties": {"ref": "winchburgh", "type": "scotmid", "@spider": "scotmid", "addr:street_address": "34-36 Main Street", "addr:city": " Winchburgh", "addr:state": " West Lothian", "addr:postcode": " EH52 6RT", "addr:country": "GB", "name": "Winchburgh", "phone": "01506 890237", "opening_hours": "Mo-Su 07:00-22:00", "brand": "Scotmid", "brand:wikidata": "Q7435719"}, "geometry": {"type": "Point", "coordinates": [-3.459846, 55.959581]}},
{"type": "Feature", "id": "FYiBaX0ayXYVVaQyONQsd8kscAw=", "properties": {"ref": "broxburn", "type": "scotmid", "@spider": "scotmid", "addr:street_address": "91-95 East Main Street", "addr:city": " Broxburn", "addr:state": " West Lothian", "addr:postcode": " EH52 5EE", "addr:country": "GB", "name": "Broxburn", "phone": "01506 855436", "opening_hours": "Mo-Su 06:00-22:00", "brand": "Scotmid", "brand:wikidata": "Q7435719"}, "geometry": {"type": "Point", "coordinates": [-3.468379, 55.934472]}},
{"type": "Feature", "id": "m-omwSuVSJzHmYvJjtowg1DZDB0=", "properties": {"ref": "pumpherston", "type": "scotmid", "@spider": "scotmid", "addr:street_address": "3 Drumshoreland Road", "addr:city": " Pumpherston", "addr:state": " Livingston", "addr:postcode": " EH53 0LF", "addr:country": "GB", "name": "Pumpherston", "phone": "01506 442480", "opening_hours": "Mo-Su 06:00-22:00", "brand": "Scotmid", "brand:wikidata": "Q7435719"}, "geometry": {"type": "Point", "coordinates": [-3.492112, 55.908874]}},
{"type": "Feature", "id": "yfrmdefmpqS9MNkJUx-xkEUCN18=", "properties": {"ref": "nigel-rise", "type": "scotmid", "@spider": "scotmid", "addr:street_address": "162 Nigel Rise", "addr:city": " Dedridge", "addr:state": " Livingston", "addr:postcode": " EH54 6LX", "addr:country": "GB", "name": "Nigel Rise", "phone": "01506 420200", "opening_hours": "Mo-Fr 06:00-22:00; Sa-Su 07:00-22:00", "brand": "Scotmid", "brand:wikidata": "Q7435719"}, "geometry": {"type": "Point", "coordinates": [-3.508454, 55.87903]}},
{"type": "Feature", "id": "ZEa8OjHd8H79Bul0SSI5S9t7hR4=", "properties": {"ref": "mayfield", "type": "scotmid", "@spider": "scotmid", "addr:street_address": "6 Mayfield Place", "addr:city": " Mayfield", "addr:state": " Midlothian", "addr:postcode": " EH22 5JG", "addr:country": "GB", "name": "Mayfield", "phone": "0131 663 3510", "opening_hours": "Mo-Su 07:00-22:00", "brand": "Scotmid", "brand:wikidata": "Q7435719"}, "geometry": {"type": "Point", "coordinates": [-3.041413, 55.872807]}},
{"type": "Feature", "id": "ZR9VEaMvjfCkuAwWl_rzlYtDqQI=", "properties": {"ref": "hunterfield", "type": "scotmid", "@spider": "scotmid", "addr:street_address": "114-116 Hunterfield Road", "addr:city": " Gorebridge", "addr:state": " Midlothian", "addr:postcode": " EH23 4TX", "addr:country": "GB", "name": "Hunterfield", "phone": "01875 820461", "opening_hours": "Mo-Su 07:00-22:00", "brand": "Scotmid", "brand:wikidata": "Q7435719"}, "geometry": {"type": "Point", "coordinates": [-3.053332, 55.847878]}},
{"type": "Feature", "id": "Ys6fk898egcc1aEE87FsH5g-9uo=", "properties": {"ref": "south-queensferry", "type": "scotmid", "@spider": "scotmid", "addr:street_address": "55 The Loan South Queensferry", "addr:city": " West Lothian", "addr:postcode": " EH30 9SD", "addr:country": "GB", "name": "South Queensferry", "phone": "0131 319 1900", "opening_hours": "Mo-Su 07:00-22:00", "brand": "Scotmid", "brand:wikidata": "Q7435719"}, "geometry": {"type": "Point", "coordinates": [-3.398471, 55.99]}},
{"type": "Feature", "id": "SWQjF9tez-6omw1AHbD6e7_4mXo=", "properties": {"ref": "kirkliston", "type": "scotmid", "@spider": "scotmid", "addr:street_address": "1-7 Station Road", "addr:city": " Kirkliston", "addr:state": " West Lothian", "addr:postcode": " EH29 9BE", "addr:country": "GB", "name": "Kirkliston", "phone": "0131 333 3208", "opening_hours": "Mo-Su 07:00-22:00", "brand": "Scotmid", "brand:wikidata": "Q7435719"}, "geometry": {"type": "Point", "coordinates": [-3.401527, 55.955262]}},
{"type": "Feature", "id": "cZHHEklXnt0L4nC-O48NKuM4NzM=", "properties": {"ref": "ratho", "type": "scotmid", "@spider": "scotmid", "addr:street_address": "1A Hillwood Road", "addr:city": " Rathio Station,  Newbridge", "addr:state": " Midlothian", "addr:postcode": " EH28 8PU", "addr:country": "GB", "name": "Ratho", "phone": "0131 333 1216", "opening_hours": "Mo-Sa 06:00-22:00; Su 07:00-22:00", "brand": "Scotmid", "brand:wikidata": "Q7435719"}, "geometry": {"type": "Point", "coordinates": [-3.390479, 55.937506]}},
{"type": "Feature", "id": "ybfBS0UUJMbljhv8PgbUZSq7yy8=", "properties": {"ref": "scotstoun", "type": "scotmid", "@spider": "scotmid", "addr:street_address": "9 Scotstoun Grove", "addr:city": " South Queensferry", "addr:state": " West Lothian", "addr:postcode": " EH30 9PH", "addr:country": "GB", "name": "Scotstoun", "phone": "0131 331 1142", "opening_hours": "Mo-Su 06:00-22:00", "brand": "Scotmid", "brand:wikidata": "Q7435719"}, "geometry": {"type": "Point", "coordinates": [-3.391944, 55.983694]}},
{"type": "Feature", "id": "4eTsf7qQSOHZ5yo3lL462IeGZa4=", "properties": {"ref": "carrick-knowe", "type": "scotmid", "@spider": "scotmid", "addr:street_address": "87 Saughton Road North", "addr:city": " Edinburgh", "addr:postcode": " EH12 7JB", "addr:country": "GB", "name": "Carrick Knowe", "phone": "0131 316 4795", "opening_hours": "Mo-Su 06:00-22:00", "brand": "Scotmid", "brand:wikidata": "Q7435719"}, "geometry": {"type": "Point", "coordinates": [-3.278738, 55.936614]}},
{"type": "Feature", "id": "ZthHXiLXO2j6sFBQV5pE-mbGumg=", "properties": {"ref": "newhaven", "type": "scotmid", "@spider": "scotmid", "addr:street_address": "3A Lindsay Road", "addr:city": " Leith", "addr:state": " Edinburgh", "addr:postcode": " EH6 4DT", "addr:country": "GB", "name": "Newhaven", "phone": "0131 561 1375", "opening_hours": "Mo-Su 06:00-22:00", "brand": "Scotmid", "brand:wikidata": "Q7435719"}, "geometry": {"type": "Point", "coordinates": [-3.184634, 55.978906]}},
{"type": "Feature", "id": "5lqlunx7cQk-MZPMxmGqVo8i7_o=", "properties": {"ref": "gorgie", "type": "scotmid", "@spider": "scotmid", "addr:street_address": "236 Gorgie Road", "addr:city": " Edinburgh", "addr:postcode": " EH11 2PL", "addr:country": "GB", "name": "Gorgie", "phone": "0131 346 7859", "opening_hours": "Mo-Su 07:00-22:00", "brand": "Scotmid", "brand:wikidata": "Q7435719"}, "geometry": {"type": "Point", "coordinates": [-3.234946, 55.937393]}},
{"type": "Feature", "id": "KXthBlIqBllhujCOiF9liIajE24=", "properties": {"ref": "ferry-road", "type": "scotmid", "@spider": "scotmid", "addr:street_address": "113 Ferry Road", "addr:city": " Edinburgh", "addr:postcode": " EH6 4ET", "addr:country": "GB", "name": "Ferry Road", "phone": "0131 555 1946", "opening_hours": "Mo-Su 07:00-22:00", "brand": "Scotmid", "brand:wikidata": "Q7435719"}, "geometry": {"type": "Point", "coordinates": [-3.184704, 55.974395]}},
{"type": "Feature", "id": "UW-tUG6NWX0up2bo0Swn-SIGxiM=", "properties": {"ref": "barnton", "type": "scotmid", "@spider": "scotmid", "addr:street_address": "187 Whitehouse Road", "addr:city": " Barnton", "addr:postcode": " EH4 6BU", "addr:country": "GB", "name": "Barnton", "phone": "0131 339 3446", "opening_hours": "Mo-Su 06:00-22:00", "brand": "Scotmid", "brand:wikidata": "Q7435719"}, "geometry": {"type": "Point", "coordinates": [-3.305888, 55.961812]}},
{"type": "Feature", "id": "Fm_IgxH5H_dPzBRfquslV4A6oyI=", "properties": {"ref": "rannoch", "type": "scotmid", "@spider": "scotmid", "addr:street_address": "1 Rannoch Terrace", "addr:city": " Edinburgh", "addr:postcode": " EH4 7ER", "addr:country": "GB", "name": "Rannoch", "phone": "0131 339 6493", "opening_hours": "Mo-Su 07:00-22:00", "brand": "Scotmid", "brand:wikidata": "Q7435719"}, "geometry": {"type": "Point", "coordinates": [-3.285984, 55.954788]}},
{"type": "Feature", "id": "zLo1qxGHrWs1oYQ-f34n6FeoKyQ=", "properties": {"ref": "roseburn", "type": "scotmid", "@spider": "scotmid", "addr:street_address": "47 Roseburn Terrace", "addr:city": " Edinburgh", "addr:postcode": " EH12 5NQ", "addr:country": "GB", "name": "Roseburn", "phone": "0131 337 0857", "opening_hours": "Mo-Su 07:00-22:00", "brand": "Scotmid", "brand:wikidata": "Q7435719"}, "geometry": {"type": "Point", "coordinates": [-3.235094, 55.945542]}},
{"type": "Feature", "id": "eUHFJgOKYr2tKn83pM8AZSVaGAM=", "properties": {"ref": "drumbrae", "type": "scotmid", "@spider": "scotmid", "addr:street_address": "1 Drumbrae Avenue", "addr:city": " Edinburgh ", "addr:postcode": "EH12 8TE", "addr:country": "GB", "name": "Drumbrae", "phone": "0131 317 7152", "opening_hours": "Mo-Su 07:00-22:00", "brand": "Scotmid", "brand:wikidata": "Q7435719"}, "geometry": {"type": "Point", "coordinates": [-3.29441, 55.951474]}},
{"type": "Feature", "id": "aBV94YShtOU58_DunXm37K3iesw=", "properties": {"ref": "saughtonhall", "type": "scotmid", "@spider": "scotmid", "addr:street_address": "140-144 Saughtonhall Drive", "addr:city": " Edinburgh", "addr:postcode": " EH12 5TT", "addr:country": "GB", "name": "Saughtonhall", "phone": "0131 346 7971", "opening_hours": "Mo-Su 07:00-22:00", "brand": "Scotmid", "brand:wikidata": "Q7435719"}, "geometry": {"type": "Point", "coordinates": [-3.251764, 55.940126]}},
{"type": "Feature", "id": "JZCK81_YJk_rWnwyjS9QX6Cty2M=", "properties": {"ref": "easter-road", "type": "scotmid", "@spider": "scotmid", "addr:street_address": "112-120 Easter Road", "addr:city": " Edinburgh", "addr:postcode": " EH7 5RH", "addr:country": "GB", "name": "Easter Road", "phone": "0131 661 5742", "opening_hours": "Mo-Su 07:00-22:00", "brand": "Scotmid", "brand:wikidata": "Q7435719"}, "geometry": {"type": "Point", "coordinates": [-3.171456, 55.959165]}},
{"type": "Feature", "id": "w0ly8i4hvxk_8YbMmklDQxaEUDA=", "properties": {"ref": "leith-walk", "type": "scotmid", "@spider": "scotmid", "addr:street_address": "207 Leith Walk", "addr:city": " Edinburgh", "addr:postcode": " EH6 8NX", "addr:country": "GB", "name": "Leith Walk", "phone": "0131 555 3902", "opening_hours": "Mo-Su 07:00-24:00", "brand": "Scotmid", "brand:wikidata": "Q7435719"}, "geometry": {"type": "Point", "coordinates": [-3.174318, 55.966928]}},
{"type": "Feature", "id": "hrNcVZ75rPViZx7nWStBw44ki9g=", "properties": {"ref": "pilrig", "type": "scotmid", "@spider": "scotmid", "addr:street_address": "370 Leith Walk", "addr:city": " Pilrig", "addr:state": " Edinburgh ", "addr:postcode": "EH7 4PE", "addr:country": "GB", "name": "Pilrig", "phone": "0131 553 2201", "opening_hours": "Mo-Su 06:00-23:00", "brand": "Scotmid", "brand:wikidata": "Q7435719"}, "geometry": {"type": "Point", "coordinates": [-3.178762, 55.963445]}},
{"type": "Feature", "id": "QY8zDchGRcXQ5qDDwnSj3Qiu9Lk=", "properties": {"ref": "hamilton-place", "type": "scotmid", "@spider": "scotmid", "addr:street_address": "56-60 Hamilton Place", "addr:city": " Edinburgh", "addr:postcode": " EH3 5AZ", "addr:country": "GB", "name": "Hamilton Place", "phone": "0131 220 3657", "opening_hours": "Mo-Su 07:00-22:00", "brand": "Scotmid", "brand:wikidata": "Q7435719"}, "geometry": {"type": "Point", "coordinates": [-3.207031, 55.959127]}},
{"type": "Feature", "id": "5MUhOpwMGv7st7ibCK9sKczq6tk=", "properties": {"ref": "stockbridge", "type": "scotmid", "@spider": "scotmid", "addr:street_address": "36-38 Raeburn Place", "addr:city": " Stockbridge", "addr:state": " Edinburgh", "addr:postcode": " EH4 1HN", "addr:country": "GB", "name": "Stockbridge", "phone": "0131 3324242", "brand": "Scotmid", "brand:wikidata": "Q7435719"}, "geometry": {"type": "Point", "coordinates": [-3.21073, 55.9591]}},
{"type": "Feature", "id": "BHpSZlkphyuxPcmSr8ZrNZ2l9NQ=", "properties": {"ref": "polwarth", "type": "scotmid", "@spider": "scotmid", "addr:street_address": "116 Polwarth Gardens", "addr:city": " Edinburgh", "addr:postcode": " EH11 1LH", "addr:country": "GB", "name": "Polwarth", "phone": "0131 228 7540", "opening_hours": "Mo-Su 07:00-22:00", "brand": "Scotmid", "brand:wikidata": "Q7435719"}, "geometry": {"type": "Point", "coordinates": [-3.220905, 55.935826]}},
{"type": "Feature", "id": "QJgHRQIwXyX1Bi4GAmf9kZ5xut0=", "properties": {"ref": "marchmont", "type": "scotmid", "@spider": "scotmid", "addr:street_address": "126 Marchmont Road", "addr:city": " Edinburgh", "addr:postcode": " EH9 1AQ", "addr:country": "GB", "name": "Marchmont", "phone": "0131 447 0353", "opening_hours": "Mo-Su 07:00-23:00", "brand": "Scotmid", "brand:wikidata": "Q7435719"}, "geometry": {"type": "Point", "coordinates": [-3.194534, 55.935105]}},
{"type": "Feature", "id": "RZ3fOseo1-h7uPNOijZvNm_V6rA=", "properties": {"ref": "warrender", "type": "scotmid", "@spider": "scotmid", "addr:street_address": "34 Warrender Park", "addr:city": " Edinburgh", "addr:postcode": " EH9 1HH", "addr:country": "GB", "name": "Warrender", "phone": "0131 229 8195", "opening_hours": "Mo-Su 07:00-23:00", "brand": "Scotmid", "brand:wikidata": "Q7435719"}, "geometry": {"type": "Point", "coordinates": [-3.194095, 55.93803]}},
{"type": "Feature", "id": "wjIOPhvbxTutlX2mjAPZ7IRo7HY=", "properties": {"ref": "leven-street", "type": "scotmid", "@spider": "scotmid", "addr:street_address": "5-19 Leven Street", "addr:city": " Edinburgh", "addr:postcode": " EH3 9LH", "addr:country": "GB", "name": "Leven Street", "phone": "0131 2297656", "opening_hours": "Mo-Su 07:00-22:00", "brand": "Scotmid", "brand:wikidata": "Q7435719"}, "geometry": {"type": "Point", "coordinates": [-3.203709, 55.941396]}},
{"type": "Feature", "id": "fMSl8xQuBE8EUlPmb1SqqWLw098=", "properties": {"ref": "calderwood", "type": "scotmid", "@spider": "scotmid", "addr:street_address": "86 Calderwood Square,  East Kilbride", "addr:city": " Glasgow", "addr:state": " South Lanarkshire", "addr:postcode": " G74 3BQ", "addr:country": "GB", "name": "Calderwood", "phone": "01355 236 791", "opening_hours": "Mo-Su 07:00-22:00", "brand": "Scotmid", "brand:wikidata": "Q7435719"}, "geometry": {"type": "Point", "coordinates": [-4.157102, 55.772468]}},
{"type": "Feature", "id": "clh6qoUl1H0DVS9A7-J3WDCc3Cw=", "properties": {"ref": "landmark", "type": "scotmid", "@spider": "scotmid", "addr:street_address": "169 Stonefield Road,  Blantyre", "addr:city": " Glasgow", "addr:state": " South Lanarkshire", "addr:postcode": " G72 9SD", "addr:country": "GB", "name": "Landmark", "phone": "01698 827507", "opening_hours": "Mo-Su 07:00-22:00", "brand": "Scotmid", "brand:wikidata": "Q7435719"}, "geometry": {"type": "Point", "coordinates": [-4.103856, 55.789748]}},
{"type": "Feature", "id": "6Hcf8969Jme129PI7AMwYf6BUW4=", "properties": {"ref": "stonefield-road", "type": "scotmid", "@spider": "scotmid", "addr:street_address": "10 Stonefield Road,  Blantyre", "addr:city": " Glasgow", "addr:state": " South Lanarkshire", "addr:postcode": " G72 9PQ", "addr:country": "GB", "name": "Stonefield Road", "phone": "01698 823 135", "opening_hours": "Mo-Fr 06:00-22:00; Sa-Su 07:00-22:00", "brand": "Scotmid", "brand:wikidata": "Q7435719"}, "geometry": {"type": "Point", "coordinates": [-4.095797, 55.794424]}},
{"type": "Feature", "id": "kBnekguM2yHfwgdR2-kJFHfEyC8=", "properties": {"ref": "coatshill", "type": "scotmid", "@spider": "scotmid", "addr:street_address": "56 Coatshill Avenue,  Blantyre", "addr:city": " Glasgow", "addr:state": " South Lanarkshire", "addr:postcode": " G72 9LE", "addr:country": "GB", "name": "Coatshill", "phone": "01698 820 878", "opening_hours": "Mo-Su 07:00-22:00", "brand": "Scotmid", "brand:wikidata": "Q7435719"}, "geometry": {"type": "Point", "coordinates": [-4.099895, 55.799432]}},
{"type": "Feature", "id": "y_NyFjpbMhCkWBDPqq_yVRHghKc=", "properties": {"ref": "west-craigs", "type": "scotmid", "@spider": "scotmid", "addr:street_address": "3 Dunnet Court", "addr:city": " Westcraigs", "addr:state": " Hamilton", "addr:postcode": " G72 0DE", "addr:country": "GB", "name": "West Craigs", "phone": "01698 829958", "opening_hours": "Mo-Su 07:00-22:00", "brand": "Scotmid", "brand:wikidata": "Q7435719"}, "geometry": {"type": "Point", "coordinates": [-4.096983, 55.777607]}},
{"type": "Feature", "id": "SIilf0xPnMmXjQhc-FKkfLfqR5U=", "properties": {"ref": "larkhall", "type": "scotmid", "@spider": "scotmid", "addr:street_address": "29 Drygate Street", "addr:city": " Larkhall", "addr:state": " South Lanarkshire", "addr:postcode": " ML9 2DA", "addr:country": "GB", "name": "Larkhall", "phone": "01698 881449", "opening_hours": "Mo-Su 06:00-22:00", "brand": "Scotmid", "brand:wikidata": "Q7435719"}, "geometry": {"type": "Point", "coordinates": [-3.969037, 55.742877]}},
{"type": "Feature", "id": "n28WX7QY9StQqBcV71aOhWfDeEQ=", "properties": {"ref": "hamilton", "type": "scotmid", "@spider": "scotmid", "addr:street_address": "45 Neilsland Road", "addr:city": " Hamilton", "addr:state": " South Lanarkshire", "addr:postcode": " ML3 8NA", "addr:country": "GB", "name": "Hamilton", "phone": "01698 457 275", "opening_hours": "Mo-Su 07:00-22:00", "brand": "Scotmid", "brand:wikidata": "Q7435719"}, "geometry": {"type": "Point", "coordinates": [-4.060289, 55.76578]}},
{"type": "Feature", "id": "j_CjwQNTrciHwXJJEuu7yvJQmgs=", "properties": {"ref": "birkhill", "type": "scotmid", "@spider": "scotmid", "addr:street_address": "1 Birkhill Road", "addr:city": " Hamilton", "addr:state": " South Lanarkshire", "addr:postcode": " ML3  8BG", "addr:country": "GB", "name": "Birkhill", "phone": "01698 420 523", "opening_hours": "Mo-Su 07:00-22:00", "brand": "Scotmid", "brand:wikidata": "Q7435719"}, "geometry": {"type": "Point", "coordinates": [-4.048816, 55.755844]}},
{"type": "Feature", "id": "7be0w-EZDJZiEsDhTn9HXN03jf8=", "properties": {"ref": "lesmahagow", "type": "scotmid", "@spider": "scotmid", "addr:street_address": "55 Balgray Road", "addr:city": " Lesmahagow", "addr:postcode": " ML11 0AF", "addr:country": "GB", "name": "Lesmahagow", "phone": "01555 890 360", "opening_hours": "Mo-Su 07:00-22:00", "brand": "Scotmid", "brand:wikidata": "Q7435719"}, "geometry": {"type": "Point", "coordinates": [-3.879478, 55.628618]}},
{"type": "Feature", "id": "RL7y0z6RduQtnMHgkDEhY0olcMI=", "properties": {"ref": "viewpark-2", "type": "scotmid", "@spider": "scotmid", "addr:street_address": "Units 5. Old Edinburgh Road,  Viewpark", "addr:city": " Uddingston", "addr:state": " North Lanarkshire", "addr:postcode": " G71 6LA", "addr:country": "GB", "name": "Viewpark 2", "phone": "01698 841878", "opening_hours": "Mo-Su 07:00-22:00", "brand": "Scotmid", "brand:wikidata": "Q7435719"}, "geometry": {"type": "Point", "coordinates": [-4.050124, 55.823252]}},
{"type": "Feature", "id": "sUOxFUPENbL4JhVkt0FJCIYAEws=", "properties": {"ref": "burnhead", "type": "scotmid", "@spider": "scotmid", "addr:street_address": "3 Market Place,  Viewpark", "addr:city": " Burnhead", "addr:state": " Uddingston", "addr:postcode": " G71 5AL", "addr:country": "GB", "name": "Burnhead", "phone": "01698 813674", "opening_hours": "Mo-Su 06:00-22:00", "brand": "Scotmid", "brand:wikidata": "Q7435719"}, "geometry": {"type": "Point", "coordinates": [-4.054883, 55.82843]}},
{"type": "Feature", "id": "lGOnkT_yYf_8tL8nJilC7MYaTrw=", "properties": {"ref": "old-mill-road", "type": "scotmid", "@spider": "scotmid", "addr:street_address": "81 Old Mill Road", "addr:city": " Uddingston", "addr:postcode": " G71 7PE", "addr:country": "GB", "name": "Old Mill Road", "phone": "01698 810853", "opening_hours": "Mo-Su 07:00-22:00", "brand": "Scotmid", "brand:wikidata": "Q7435719"}, "geometry": {"type": "Point", "coordinates": [-4.081472, 55.820434]}},
{"type": "Feature", "id": "J2UG61UEiUWkIO9x7B9bGVySWFU=", "properties": {"ref": "uddingston", "type": "scotmid", "@spider": "scotmid", "addr:street_address": "317-319 Old Edinburgh Road", "addr:city": " Uddingston", "addr:state": " GLASGOW", "addr:postcode": " G71 6BP", "addr:country": "GB", "name": "Uddingston", "phone": "01698 816121", "opening_hours": "Mo-Su 07:00-22:00", "brand": "Scotmid", "brand:wikidata": "Q7435719"}, "geometry": {"type": "Point", "coordinates": [-4.075307, 55.830882]}},
{"type": "Feature", "id": "ZnJfTksZ6DVdRUtNxgFWebTgwlg=", "properties": {"ref": "coupar-angus-2", "type": "scotmid", "@spider": "scotmid", "addr:street_address": "The Cross,  1/3 Commercial Street", "addr:city": " Coupar Angus", "addr:state": " Tayside", "addr:postcode": " PH13 9AD", "addr:country": "GB", "name": "Coupar Angus 1", "phone": "01828 627385", "opening_hours": "Mo-Sa 06:00-22:00; Su 07:00-22:00", "brand": "Scotmid", "brand:wikidata": "Q7435719"}, "geometry": {"type": "Point", "coordinates": [-3.267784, 56.545841]}},
{"type": "Feature", "id": "Gr1W2EXxN0SNU-QwZ7TUS5iLNFE=", "properties": {"ref": "laurencekirk", "type": "scotmid", "@spider": "scotmid", "addr:street_address": "106A High Street", "addr:city": " Laurencekirk", "addr:state": " Aberdeenshire", "addr:postcode": " AB30 1BJ", "addr:country": "GB", "name": "Laurencekirk", "phone": "01561 377330", "opening_hours": "Mo-Fr 06:00-22:00; Sa-Su 07:00-22:00", "brand": "Scotmid", "brand:wikidata": "Q7435719"}, "geometry": {"type": "Point", "coordinates": [-2.467235, 56.832271]}},
{"type": "Feature", "id": "7_lCnzDAYnoJWj6uTAZtB28zmCA=", "properties": {"ref": "coupar-angus-1", "type": "scotmid", "@spider": "scotmid", "addr:street_address": "55-63 George Street", "addr:city": " Coupar Angus", "addr:state": " Perthshire", "addr:postcode": " PH13 9DJ", "addr:country": "GB", "name": "Coupar Angus 2", "phone": "01828 628844", "opening_hours": "Mo-Sa 05:30-22:00; Su 07:00-22:00", "brand": "Scotmid", "brand:wikidata": "Q7435719"}, "geometry": {"type": "Point", "coordinates": [-3.270166, 56.544118]}},
{"type": "Feature", "id": "moSMOds-IQg7B17AiWmhqRSggx0=", "properties": {"ref": "alyth", "type": "scotmid", "@spider": "scotmid", "addr:street_address": "53 Airlie Street", "addr:city": " Alyth", "addr:state": " Perthshire", "addr:postcode": " PH11 8AJ", "addr:country": "GB", "name": "Alyth", "phone": "01828 632327", "opening_hours": "Mo-Sa 06:00-22:00; Su 07:00-22:00", "brand": "Scotmid", "brand:wikidata": "Q7435719"}, "geometry": {"type": "Point", "coordinates": [-3.22872, 56.621237]}},
{"type": "Feature", "id": "M7_ltuqkQ6H25WscZo-__Jt_HzM=", "properties": {"ref": "montrose", "type": "scotmid", "@spider": "scotmid", "addr:street_address": "69-75 High Street", "addr:city": " Montrose", "addr:state": " Angus", "addr:postcode": " DD10 8QZ", "addr:country": "GB", "name": "Montrose", "phone": "01674 673764", "opening_hours": "Mo-Su 07:00-22:00", "brand": "Scotmid", "brand:wikidata": "Q7435719"}, "geometry": {"type": "Point", "coordinates": [-2.467505, 56.711862]}},
{"type": "Feature", "id": "UH9vZ7PmWaARjJR_2pKRwQ9eJIw=", "properties": {"ref": "inverbervie", "type": "scotmid", "@spider": "scotmid", "addr:street_address": "62 King Street", "addr:city": " Inverbervie", "addr:state": " Aberdeenshire", "addr:postcode": " DD10 0RA", "addr:country": "GB", "name": "Inverbervie", "phone": "01561 361218", "opening_hours": "Mo-Su 07:00-22:00", "brand": "Scotmid", "brand:wikidata": "Q7435719"}, "geometry": {"type": "Point", "coordinates": [-2.280767, 56.843907]}},
{"type": "Feature", "id": "j8TpsdEnWIn1HIkNFSrMqkG7Shk=", "properties": {"ref": "brechin", "type": "scotmid", "@spider": "scotmid", "addr:street_address": "175 Montrose Street", "addr:city": " Brechin", "addr:state": " Angus", "addr:postcode": " DD9 7DY", "addr:country": "GB", "name": "Brechin", "phone": "01356 623789", "opening_hours": "Mo-Sa 06:00-22:00; Su 07:00-22:00", "brand": "Scotmid", "brand:wikidata": "Q7435719"}, "geometry": {"type": "Point", "coordinates": [-2.645062, 56.727644]}},
{"type": "Feature", "id": "a01c7CyFW7lSdvXQ-ALReSp1UtY=", "properties": {"ref": "borrowfield", "type": "scotmid", "@spider": "scotmid", "addr:street_address": "62 Newmanwalls Avenue", "addr:city": " Montrose", "addr:state": " Angus", "addr:postcode": " DD10 9DD", "addr:country": "GB", "name": "Borrowfield", "phone": "01674 673127", "opening_hours": "Mo-Su 06:30-22:00", "brand": "Scotmid", "brand:wikidata": "Q7435719"}, "geometry": {"type": "Point", "coordinates": [-2.468719, 56.726752]}},
{"type": "Feature", "id": "VX0B0HQbyMf3NXENrjzMczyDnu0=", "properties": {"ref": "fintry", "type": "scotmid", "@spider": "scotmid", "addr:street_address": "81 Fintry Road", "addr:city": " Dundee", "addr:postcode": " DD4 9JB", "addr:country": "GB", "name": "Fintry", "phone": "01382 503 836", "opening_hours": "Mo-Sa 06:00-22:00; Su 07:00-22:00", "brand": "Scotmid", "brand:wikidata": "Q7435719"}, "geometry": {"type": "Point", "coordinates": [-2.938267, 56.490106]}},
{"type": "Feature", "id": "JxBz9dTjtrg3SILX4i23-EF8eNs=", "properties": {"ref": "rattray", "type": "scotmid", "@spider": "scotmid", "addr:street_address": "Hatton Road", "addr:city": " Blairgowrie", "addr:state": " Perthshire", "addr:postcode": " PH10 7AW", "addr:country": "GB", "name": "Rattray", "phone": "01250 870937", "opening_hours": "Mo-Sa 06:00-22:00; Su 07:00-22:00", "brand": "Scotmid", "brand:wikidata": "Q7435719"}, "geometry": {"type": "Point", "coordinates": [-3.33261, 56.597023]}},
{"type": "Feature", "id": "7zddqtcYmAAQffzfpeD47mQN84M=", "properties": {"ref": "clepington-road", "type": "scotmid", "@spider": "scotmid", "addr:street_address": "204-208 Clepington Road", "addr:city": " Dundee", "addr:postcode": " DD3 8BG", "addr:country": "GB", "name": "Clepington Road", "phone": "01382 811703", "opening_hours": "Mo-Sa 06:00-22:00; Su 07:00-22:00", "brand": "Scotmid", "brand:wikidata": "Q7435719"}, "geometry": {"type": "Point", "coordinates": [-2.978755, 56.477512]}},
{"type": "Feature", "id": "dvdlj9XU7rvy5SkWurWZLSSVFTc=", "properties": {"ref": "invergowrie", "type": "scotmid", "@spider": "scotmid", "addr:street_address": "53 Main Street", "addr:city": " Invergowrie", "addr:state": " Dundee", "addr:postcode": " DD2 5AB", "addr:country": "GB", "name": "Invergowrie", "phone": "01382 562744", "opening_hours": "Mo-Sa 06:00-22:00; Su 07:00-22:00", "brand": "Scotmid", "brand:wikidata": "Q7435719"}, "geometry": {"type": "Point", "coordinates": [-3.059069, 56.460564]}},
{"type": "Feature", "id": "a5lR-TCh1Yeud2nOiNft-T4VHQA=", "properties": {"ref": "newport", "type": "scotmid", "@spider": "scotmid", "addr:street_address": "48 High Street", "addr:city": " Newport-on-Tay", "addr:state": " Fife", "addr:postcode": " DD6 8AD", "addr:country": "GB", "name": "Newport", "phone": "01382 543172", "opening_hours": "Mo-Sa 06:00-22:00; Su 07:00-22:00", "brand": "Scotmid", "brand:wikidata": "Q7435719"}, "geometry": {"type": "Point", "coordinates": [-2.941452, 56.43967]}},
{"type": "Feature", "id": "MfkAvPSqEpf7qqKleqvMWHld68w=", "properties": {"ref": "tillybrake-road", "type": "scotmid", "@spider": "scotmid", "addr:street_address": "Tillybrake Road", "addr:city": " Banchory", "addr:postcode": " AB31 5UN", "addr:country": "GB", "name": "Tillybrake Road", "phone": "01330 822 467", "opening_hours": "Mo-Fr 05:30-22:00; Sa 06:00-22:00; Su 07:00-22:00", "brand": "Scotmid", "brand:wikidata": "Q7435719"}, "geometry": {"type": "Point", "coordinates": [-2.485947, 57.056875]}},
{"type": "Feature", "id": "pRJSDLgo3wmRsbsqhxFq-F68YLk=", "properties": {"ref": "torphins", "type": "scotmid", "@spider": "scotmid", "addr:street_address": "3 Craigour Road", "addr:city": " Torphins", "addr:state": " Aberdeenshire", "addr:postcode": " AB31 4HE", "addr:country": "GB", "name": "Torphins", "phone": "01339 882717", "opening_hours": "Mo-Sa 06:00-22:00; Su 07:00-22:00", "brand": "Scotmid", "brand:wikidata": "Q7435719"}, "geometry": {"type": "Point", "coordinates": [-2.620805, 57.104205]}},
{"type": "Feature", "id": "oDHZSjkoiDVUI1ANF5r73_n6Zng=", "properties": {"ref": "college-bounds", "type": "scotmid", "@spider": "scotmid", "addr:street_address": "78 College Bounds", "addr:city": " Fraserburgh", "addr:state": " Grampian ", "addr:postcode": "AB43 9QS", "addr:country": "GB", "name": "College Bounds", "phone": "01346 510457", "opening_hours": "Mo-Su 07:00-22:00", "brand": "Scotmid", "brand:wikidata": "Q7435719"}, "geometry": {"type": "Point", "coordinates": [-2.015772, 57.694555]}},
{"type": "Feature", "id": "qLafc0JjtxuUSlL8vkLBrei9kEc=", "properties": {"ref": "jesmond", "type": "scotmid", "@spider": "scotmid", "addr:street_address": "Unit 1a,  Jesmond Drive", "addr:city": " Bridge of Don", "addr:state": " Aberdeen", "addr:postcode": " AB22 8UR", "addr:country": "GB", "name": "Jesmond", "phone": "01224 827 112", "opening_hours": "Mo-Sa 06:00-22:00; Su 07:00-22:00", "brand": "Scotmid", "brand:wikidata": "Q7435719"}, "geometry": {"type": "Point", "coordinates": [-2.121282, 57.191526]}},
{"type": "Feature", "id": "4wNkm4A5OUGTPokFuouJvaxNGH8=", "properties": {"ref": "banff", "type": "scotmid", "@spider": "scotmid", "addr:street_address": "4 Lusylaw Road", "addr:city": " Banff", "addr:state": " Grampian", "addr:postcode": " AB45 1EW", "addr:country": "GB", "name": "Banff", "phone": "01261 818264", "opening_hours": "Mo-Sa 07:00-22:00; Su 08:00-22:00", "brand": "Scotmid", "brand:wikidata": "Q7435719"}, "geometry": {"type": "Point", "coordinates": [-2.537336, 57.664015]}},
{"type": "Feature", "id": "pRGF9a__6aVXauyOzbfM_J9DIxw=", "properties": {"ref": "macduff", "type": "scotmid", "@spider": "scotmid", "addr:street_address": "153 Duff Street", "addr:city": " Macduff", "addr:state": " Grampian", "addr:postcode": " AB44 1PS", "addr:country": "GB", "name": "Macduff", "phone": "01261 832533", "opening_hours": "Mo-Su 07:00-22:00", "brand": "Scotmid", "brand:wikidata": "Q7435719"}, "geometry": {"type": "Point", "coordinates": [-2.488358, 57.666342]}},
{"type": "Feature", "id": "VSrGboFhprRS0qKEZFLeFq5iIec=", "properties": {"ref": "bucksburn", "type": "scotmid", "@spider": "scotmid", "addr:street_address": "8-10 Sclattie Park", "addr:city": " Bucksburn", "addr:state": " Aberdeen", "addr:postcode": " AB21 9QR", "addr:country": "GB", "name": "Bucksburn", "phone": "01224 712667", "opening_hours": "Mo-Su 07:00-22:00", "brand": "Scotmid", "brand:wikidata": "Q7435719"}, "geometry": {"type": "Point", "coordinates": [-2.187356, 57.179408]}},
{"type": "Feature", "id": "1McztKYmz2VySgWr9cV-e4-PgFU=", "properties": {"ref": "crown-street", "type": "scotmid", "@spider": "scotmid", "addr:street_address": "131-133 Crown Street", "addr:city": " Aberdeen", "addr:postcode": " AB11 6HP", "addr:country": "GB", "name": "Crown Street", "phone": "01224 211572", "opening_hours": "Mo-Su 07:00-22:00", "brand": "Scotmid", "brand:wikidata": "Q7435719"}, "geometry": {"type": "Point", "coordinates": [-2.101026, 57.141769]}},
{"type": "Feature", "id": "GkjXKccHIMz7HqiRtNqJuExOyTQ=", "properties": {"ref": "bieldside", "type": "scotmid", "@spider": "scotmid", "addr:street_address": "49 North Deeside Road", "addr:city": " Bieldside", "addr:state": " Aberdeen", "addr:postcode": " AB15 9DB", "addr:country": "GB", "name": "Bieldside", "phone": "01224 861735", "opening_hours": "Mo-Sa 06:00-22:00; Su 07:00-22:00", "brand": "Scotmid", "brand:wikidata": "Q7435719"}, "geometry": {"type": "Point", "coordinates": [-2.197782, 57.112396]}},
{"type": "Feature", "id": "bDujOW1mwCNJ7OxLcL2xCLhi5vg=", "properties": {"ref": "munlochy", "type": "scotmid", "@spider": "scotmid", "addr:street_address": "27 Millbank Road", "addr:city": " Munlochy", "addr:state": " Ross-shire", "addr:postcode": " IV8 8NL", "addr:country": "GB", "name": "Munlochy", "phone": "01463 811 886", "opening_hours": "Mo-Su 07:00-22:00", "brand": "Scotmid", "brand:wikidata": "Q7435719"}, "geometry": {"type": "Point", "coordinates": [-4.262991, 57.548504]}},
{"type": "Feature", "id": "Sf7Qxh0h6obVZ9KVjr2PJZA7ds0=", "properties": {"ref": "balloch", "type": "scotmid", "@spider": "scotmid", "addr:street_address": "Culloden Road", "addr:city": " Balloch", "addr:state": " Inverness", "addr:postcode": " IV2 7HQ", "addr:country": "GB", "name": "Balloch", "phone": "01463 795817", "opening_hours": "Mo-Sa 06:00-22:00; Su 07:00-22:00", "brand": "Scotmid", "brand:wikidata": "Q7435719"}, "geometry": {"type": "Point", "coordinates": [-4.118326, 57.495829]}},
{"type": "Feature", "id": "CwW86Y-qJrftbUaRJwPu8HJeJPw=", "properties": {"ref": "culloden", "type": "scotmid", "@spider": "scotmid", "addr:street_address": "Unit 1,  Woodside Village", "addr:city": " Westhill", "addr:state": " Inverness ", "addr:postcode": "IV2 5FT", "addr:country": "GB", "name": "Culloden", "phone": "01463 794876", "opening_hours": "Mo-Su 06:00-22:00", "brand": "Scotmid", "brand:wikidata": "Q7435719"}, "geometry": {"type": "Point", "coordinates": [-4.140277, 57.476832]}},
{"type": "Feature", "id": "Ixz8tZueYjSizUND65gz2StXQYc=", "properties": {"ref": "culduthal", "type": "scotmid", "@spider": "scotmid", "addr:street_address": "1 Green Drive", "addr:city": " Inverness", "addr:postcode": " IV2 4EX", "addr:country": "GB", "name": "Culduthel", "phone": "01463 232215", "opening_hours": "Mo-Sa 06:00-22:00; Su 07:00-22:00", "brand": "Scotmid", "brand:wikidata": "Q7435719"}, "geometry": {"type": "Point", "coordinates": [-4.222116, 57.456636]}},
{"type": "Feature", "id": "pG6URVdEF1umeyY7NesurBROOSY=", "properties": {"ref": "nairn", "type": "scotmid", "@spider": "scotmid", "addr:street_address": "Unit 1,  Bridgemill", "addr:city": " Forres Road", "addr:state": " Nairn", "addr:postcode": " IV12 5AA", "addr:country": "GB", "name": "Nairn", "phone": "01667 459998", "opening_hours": "Mo-Su 07:00-22:00", "brand": "Scotmid", "brand:wikidata": "Q7435719"}, "geometry": {"type": "Point", "coordinates": [-3.862848, 57.58542]}},
{"type": "Feature", "id": "2rXVMQv3cfyXqrsxsn84NIF_L3A=", "properties": {"ref": "avoch", "type": "scotmid", "@spider": "scotmid", "addr:street_address": "37 High Street", "addr:city": " Avoch", "addr:state": " Inverness-shire", "addr:postcode": " IV9 8PT", "addr:country": "GB", "name": "Avoch", "phone": "01381 620278", "opening_hours": "Mo-Su 07:00-22:00", "brand": "Scotmid", "brand:wikidata": "Q7435719"}, "geometry": {"type": "Point", "coordinates": [-4.169094, 57.567278]}},
{"type": "Feature", "id": "XX1RtrBYeJadfRwTIc1bxvlbbYA=", "properties": {"ref": "glenurquhart", "type": "scotmid", "@spider": "scotmid", "addr:street_address": "Unit 1", "addr:city": " Glenurquhart Road", "addr:state": " Inverness", "addr:postcode": " IV3 5NZ", "addr:country": "GB", "name": "Glenurquhart", "phone": "01463 715883", "opening_hours": "Mo-Sa 06:00-22:00; Su 07:00-22:00", "brand": "Scotmid", "brand:wikidata": "Q7435719"}, "geometry": {"type": "Point", "coordinates": [-4.236286, 57.470807]}},
{"type": "Feature", "id": "EDBPjOru10y2MZux5QyrFFm3egk=", "properties": {"ref": "drumnadrochit", "type": "scotmid", "@spider": "scotmid", "addr:street_address": "1 Carriers Croft", "addr:city": "Lewiston", "addr:state": "Drumnadrochit", "addr:postcode": "IV63 6AG", "addr:country": "GB", "name": "Drumnadrochit", "phone": "01456 459057", "opening_hours": "Mo-Sa 06:00-22:00; Su 07:00-22:00", "brand": "Scotmid", "brand:wikidata": "Q7435719"}, "geometry": {"type": "Point", "coordinates": [-4.47412, 57.32708]}},
{"type": "Feature", "id": "CFGvch-fUqsx3I4-WGE-vBEpUjk=", "properties": {"ref": "balloan", "type": "scotmid", "@spider": "scotmid", "addr:street_address": "Balloan Shopping Centre", "addr:city": " Balloan Road", "addr:state": " Inverness", "addr:postcode": " IV2 4PW", "addr:country": "GB", "name": "Balloan", "phone": "01463 712552", "opening_hours": "Mo-Su 06:00-22:00", "brand": "Scotmid", "brand:wikidata": "Q7435719"}, "geometry": {"type": "Point", "coordinates": [-4.207706, 57.459289]}},
{"type": "Feature", "id": "GJUKXLwIhQDEMbIJOM__NR4NArY=", "properties": {"ref": "bishopmills", "type": "scotmid", "@spider": "scotmid", "addr:street_address": "22 North Street", "addr:city": " Bishopmills", "addr:state": " ELGIN", "addr:postcode": " IV30 4EF", "addr:country": "GB", "name": "Bishopmills", "phone": "01343 542412", "opening_hours": "Mo-Sa 06:00-22:00; Su 07:00-22:00", "brand": "Scotmid", "brand:wikidata": "Q7435719"}, "geometry": {"type": "Point", "coordinates": [-3.317941, 57.656143]}},
{"type": "Feature", "id": "1gUpWsDHImqip9fmqMMQAylzIuw=", "properties": {"ref": "thornhill", "type": "scotmid", "@spider": "scotmid", "addr:street_address": "1 Southfield Drive", "addr:city": " Elgin", "addr:state": " Moray", "addr:postcode": " IV30 6GR", "addr:country": "GB", "name": "Thornhill", "phone": "01343 549946", "opening_hours": "Mo-Sa 06:00-22:00; Su 07:00-22:00", "brand": "Scotmid", "brand:wikidata": "Q7435719"}, "geometry": {"type": "Point", "coordinates": [-3.294437, 57.637098]}},
{"type": "Feature", "id": "7_eonL18t8i-FtfEm2HvLvh2jp4=", "properties": {"ref": "hilton", "type": "scotmid", "@spider": "scotmid", "addr:street_address": "6 Hilton Village", "addr:city": " Hilton", "addr:state": " Inverness", "addr:postcode": " IV2 4HT", "addr:country": "GB", "name": "Hilton", "phone": "01463 236270", "opening_hours": "Mo-Sa 06:30-22:00; Su 07:00-22:00", "brand": "Scotmid", "brand:wikidata": "Q7435719"}, "geometry": {"type": "Point", "coordinates": [-4.213482, 57.459682]}},
{"type": "Feature", "id": "SykffOYiPkal89jB9PV8BqYrT2s=", "properties": {"ref": "smithton", "type": "scotmid", "@spider": "scotmid", "addr:street_address": "16a/18b Smithton Park", "addr:city": "Smithton", "addr:state": " Inverness", "addr:postcode": " IV2 7PB", "addr:country": "GB", "name": "Smithton", "phone": "01463 791795", "opening_hours": "Mo-Sa 06:00-22:00; Su 07:00-22:00", "brand": "Scotmid", "brand:wikidata": "Q7435719"}, "geometry": {"type": "Point", "coordinates": [-4.150326, 57.480372]}},
{"type": "Feature", "id": "To5DZTg08FQ1DcPVk6GV1tIMuRk=", "properties": {"ref": "raigmore", "type": "scotmid", "@spider": "scotmid", "addr:street_address": "2-4 Mackintosh Road", "addr:city": "Raigmore", "addr:state": " Inverness", "addr:postcode": " IV2 3TT", "addr:country": "GB", "name": "Raigmore", "phone": "01463 242188", "opening_hours": "Mo-Su 07:00-22:00", "brand": "Scotmid", "brand:wikidata": "Q7435719"}, "geometry": {"type": "Point", "coordinates": [-4.19819, 57.479897]}},
{"type": "Feature", "id": "EYiFzSMWNCQox8sbwqP7_cpXTsY=", "properties": {"ref": "fochabers", "type": "scotmid", "@spider": "scotmid", "addr:street_address": "73 High Street", "addr:city": "Fochabers", "addr:state": " Highland", "addr:postcode": " IV32 7DH", "addr:country": "GB", "name": "Fochabers", "phone": "01343 820204", "opening_hours": "Mo-Su 07:00-22:00", "brand": "Scotmid", "brand:wikidata": "Q7435719"}, "geometry": {"type": "Point", "coordinates": [-3.099014, 57.61482]}},
{"type": "Feature", "id": "oYq4S6UBWCiabo-gft4d6JLEsd0=", "properties": {"ref": "beauly", "type": "scotmid", "@spider": "scotmid", "addr:street_address": "The Square", "addr:city": "Beauly", "addr:state": " Highland", "addr:postcode": " IV4 7BX", "addr:country": "GB", "name": "Beauly", "phone": "01463 782210", "opening_hours": "Mo-Sa 06:00-22:00; Su 07:00-22:00", "brand": "Scotmid", "brand:wikidata": "Q7435719"}, "geometry": {"type": "Point", "coordinates": [-4.458909, 57.483788]}},
{"type": "Feature", "id": "-eseV-cXhi2OhKaMST2cC1puCQ8=", "properties": {"ref": "buckie", "type": "scotmid", "@spider": "scotmid", "addr:street_address": "103 Milton Drive", "addr:city": "Buckie", "addr:postcode": " AB56 1NZ", "addr:country": "GB", "name": "Buckie", "phone": "01542 833404", "opening_hours": "Mo-Su 07:00-22:00", "brand": "Scotmid", "brand:wikidata": "Q7435719"}, "geometry": {"type": "Point", "coordinates": [-2.95405, 57.673442]}},
{"type": "Feature", "id": "NkTwza5bsn8o4aWoWf0ef0TP9js=", "properties": {"ref": "burghead", "type": "scotmid", "@spider": "scotmid", "addr:street_address": "9-11 Brander Street,  Burghead", "addr:city": "ELGIN", "addr:postcode": " IV30 5XD", "addr:country": "GB", "name": "Burghead", "phone": "01343 835 373", "opening_hours": "Mo-Su 07:00-22:00", "brand": "Scotmid", "brand:wikidata": "Q7435719"}, "geometry": {"type": "Point", "coordinates": [-3.491197, 57.702271]}},
{"type": "Feature", "id": "mRAJ9ww23-TSKc20X-5dEtm_DLM=", "properties": {"ref": "dundas-fyfe-motherwell", "type": "funeral-branches", "@spider": "scotmid", "addr:street_address": "31 Melville Drive", "addr:city": " Motherwell", "addr:postcode": "ML1 1RW", "addr:country": "GB", "name": "Dundas Fyfe Motherwell", "phone": "01698 263 115", "opening_hours": "Mo-Fr 09:00-17:00", "brand": "Scotmid", "brand:wikidata": "Q7435719"}, "geometry": {"type": "Point", "coordinates": [-3.987257, 55.788498]}},
{"type": "Feature", "id": "mJjBVRMMsGUBijWx5WX4EnNCJBs=", "properties": {"ref": "thomas-brown-funeral-directors-broxburn", "type": "funeral-branches", "@spider": "scotmid", "addr:street_address": "18a West Main Street", "addr:city": " Broxburn", "addr:postcode": " EH52 5RH", "addr:country": "GB", "name": "Thomas Brown Funeral Directors Broxburn", "phone": "01506 852 655", "opening_hours": "Mo-Fr 09:00-17:00", "brand": "Scotmid", "brand:wikidata": "Q7435719"}, "geometry": {"type": "Point", "coordinates": [-3.472851, 55.934635]}},
{"type": "Feature", "id": "9bOUxO2mKGZDBHfKW6vJdVm4ITs=", "properties": {"ref": "scotmid-co-operative-funeral-directors-penicuik", "type": "funeral-branches", "@spider": "scotmid", "addr:street_address": "16 John Street", "addr:city": " Penicuik", "addr:postcode": " EH26 8AB", "addr:country": "GB", "name": "Scotmid Co-operative Funeral Directors Penicuik", "phone": "01968 679 474", "opening_hours": "Mo-Fr 09:00-17:00", "brand": "Scotmid", "brand:wikidata": "Q7435719"}, "geometry": {"type": "Point", "coordinates": [-3.22241, 55.827508]}},
{"type": "Feature", "id": "VaCTTfwZXob3CJwQ95nchnTLUUc=", "properties": {"ref": "scotmid-co-operative-funeral-directors-liberton-brae", "type": "funeral-branches", "@spider": "scotmid", "addr:street_address": "143 Liberton Brae", "addr:city": " Edinburgh", "addr:postcode": " EH16 6LD", "addr:country": "GB", "name": "Scotmid Co-operative Funeral Directors Liberton Brae", "phone": "0131 664 3855", "opening_hours": "Mo-Fr 09:00-17:00", "brand": "Scotmid", "brand:wikidata": "Q7435719"}, "geometry": {"type": "Point", "coordinates": [-3.165194, 55.914917]}},
{"type": "Feature", "id": "1nxhJKzhi-Y3Zs2DkQHnZXPkRIw=", "properties": {"ref": "scotmid-co-operative-funeral-directors-leith", "type": "funeral-branches", "@spider": "scotmid", "addr:street_address": "152 Duke Street", "addr:city": " Edinburgh", "addr:postcode": " EH6 8HR", "addr:country": "GB", "name": "Scotmid Co-operative Funeral Directors Leith", "phone": "0131 555 5550", "opening_hours": "Mo-Fr 09:00-17:00", "brand": "Scotmid", "brand:wikidata": "Q7435719"}, "geometry": {"type": "Point", "coordinates": [-3.168377, 55.969141]}},
{"type": "Feature", "id": "HMD9_AilRR3-BsAnokS_U9Ddyvg=", "properties": {"ref": "scotmid-co-operative-funeral-directors-boswall-parkway", "type": "funeral-branches", "@spider": "scotmid", "addr:street_address": "143 Boswall Parkway", "addr:city": " Edinburgh", "addr:postcode": " EH5 2LY", "addr:country": "GB", "name": "Scotmid Co-operative Funeral Directors Boswall Parkway", "phone": "0131 551 5111", "opening_hours": "Mo-Fr 09:00-17:00", "brand": "Scotmid", "brand:wikidata": "Q7435719"}, "geometry": {"type": "Point", "coordinates": [-3.237755, 55.975248]}},
{"type": "Feature", "id": "nL9qG9hIa2H_Ei-x49eDlwM4YRY=", "properties": {"ref": "scotmid-co-operative-funeral-directors-portobello", "type": "funeral-branches", "@spider": "scotmid", "addr:street_address": "60 Portobello High Street", "addr:city": " Edinburgh", "addr:postcode": " EH15 1DA.", "addr:country": "GB", "name": "Scotmid Co-operative Funeral Directors Portobello", "phone": "0131 669 7401", "opening_hours": "Mo-Fr 09:00-17:00", "brand": "Scotmid", "brand:wikidata": "Q7435719"}, "geometry": {"type": "Point", "coordinates": [-3.117488, 55.955111]}},
{"type": "Feature", "id": "WlwVdVbt38k_4oqM51AD7LP2jek=", "properties": {"ref": "scotmid-co-operative-funeral-directors-forrester-park", "type": "funeral-branches", "@spider": "scotmid", "addr:street_address": "1 Forrester Park Drive", "addr:city": " Edinburgh", "addr:postcode": " EH12 9AY", "addr:country": "GB", "name": "Scotmid Co-operative Funeral Directors Forrester Park", "phone": "0131 334 7308", "opening_hours": "Mo-Fr 09:00-17:00", "brand": "Scotmid", "brand:wikidata": "Q7435719"}, "geometry": {"type": "Point", "coordinates": [-3.285354, 55.931459]}},
{"type": "Feature", "id": "rID5QuD8pb5M4805HZhmD4NCD-Y=", "properties": {"ref": "scotmid-co-operative-funeral-directors-angle-park", "type": "funeral-branches", "@spider": "scotmid", "addr:street_address": "78/79 Angle Park Terrace", "addr:city": " Edinburgh", "addr:postcode": " EH11 2JP", "addr:country": "GB", "name": "Scotmid Co-operative Funeral Directors Angle Park", "phone": "0131 346 3140", "opening_hours": "Mo-Fr 09:00-17:00", "brand": "Scotmid", "brand:wikidata": "Q7435719"}, "geometry": {"type": "Point", "coordinates": [-3.225837, 55.937386]}},
{"type": "Feature", "id": "PduVFS43bc8HezxV5SoXIE5jSqk=", "properties": {"ref": "scotmid-co-operative-funeral-directors-fountainbridge", "type": "funeral-branches", "@spider": "scotmid", "addr:street_address": "88 Fountainbridge", "addr:city": " Edinburgh", "addr:postcode": " EH3 9QA", "addr:country": "GB", "name": "Scotmid Co-operative Funeral Directors Fountainbridge", "phone": "0131 229 7789", "opening_hours": "Mo-Fr 09:00-17:00", "brand": "Scotmid", "brand:wikidata": "Q7435719"}, "geometry": {"type": "Point", "coordinates": [-3.20806, 55.943842]}}]}