{"type":"FeatureCollection","features":[{"type": "Feature", "id": "npP3R9AfgoOKm3j0v8Av__ipuuM=", "properties": {"ref": "https://locations.scrubsandbeyond.com/nv/lasvegas/scrubs-las-vegas-nv-250.html", "@spider": "scrubs_and_beyond", "addr:street_address": "3067 N. Rainbow Blvd", "addr:city": "Las Vegas", "addr:state": "NV", "addr:postcode": "89108", "name": "Nursing Uniforms & Medical Scrubs at 3067 N. Rainbow Blvd | Scrubs & Beyond Near Me", "phone": "(702) 870-0531", "website": "https://locations.scrubsandbeyond.com/nv/lasvegas/scrubs-las-vegas-nv-250.html", "opening_hours": "Mo-Sa 10:00-21:00; Su 10:00-17:00", "image": "https://s7d2.scene7.com/is/image/scrubsandbeyond/sb-tri-logo-large", "brand": "Scrubs and Beyond"}, "geometry": {"type": "Point", "coordinates": [-115.2446081, 36.2156562]}},
{"type": "Feature", "id": "Bv_Ij8K_ckejXbK0DSLcigIdlII=", "properties": {"ref": "https://locations.scrubsandbeyond.com/mn/rochester/scrubs-rochester-mn-14.html", "@spider": "scrubs_and_beyond", "addr:street_address": "2870 41st St NW", "addr:city": "Rochester", "addr:state": "MN", "addr:postcode": "55901", "name": "Nursing Uniforms & Medical Scrubs at 2870 41st St NW | Scrubs & Beyond Near Me", "phone": "(507) 282-8366", "website": "https://locations.scrubsandbeyond.com/mn/rochester/scrubs-rochester-mn-14.html", "opening_hours": "Mo-Fr 10:00-20:00; Sa 10:00-18:00; Su 11:00-17:00", "image": "https://s7d2.scene7.com/is/image/scrubsandbeyond/sb-tri-logo-large", "brand": "Scrubs and Beyond"}, "geometry": {"type": "Point", "coordinates": [-92.5046405, 44.0649714]}},
{"type": "Feature", "id": "OUYrB7kJNPPAwm33zm6qK2MfwAo=", "properties": {"ref": "https://locations.scrubsandbeyond.com/wa/lynnwood/scrubs-lynnwood-wa-165.html", "@spider": "scrubs_and_beyond", "addr:street_address": "3105 Alderwood Mall Boulevard Ste G Ste G", "addr:city": "Lynnwood", "addr:state": "WA", "addr:postcode": "98036", "name": "Nursing Uniforms & Medical Scrubs at 3105 Alderwood Mall Boulevard Ste G | Scrubs & Beyond Near Me", "phone": "(425) 771-4412", "website": "https://locations.scrubsandbeyond.com/wa/lynnwood/scrubs-lynnwood-wa-165.html", "opening_hours": "Mo-Fr 10:00-20:00; Sa 10:00-19:00; Su 11:00-18:00", "image": "https://s7d2.scene7.com/is/image/scrubsandbeyond/sb-tri-logo-large", "brand": "Scrubs and Beyond"}, "geometry": {"type": "Point", "coordinates": [-122.2748251, 47.8247456]}},
{"type": "Feature", "id": "wyRNnYIlCx99gD60RUNOuyPmGnI=", "properties": {"ref": "https://locations.scrubsandbeyond.com/md/hanover/scrubs-hanover-md-1.html", "@spider": "scrubs_and_beyond", "addr:street_address": "7645 Arundel Mills Blvd. Ste 30A Ste 30A", "addr:city": "Hanover", "addr:state": "MD", "addr:postcode": "21076", "name": "Nursing Uniforms & Medical Scrubs at 7645 Arundel Mills Blvd. Ste 30A | Scrubs & Beyond Near Me", "phone": "(443) 755-0525", "website": "https://locations.scrubsandbeyond.com/md/hanover/scrubs-hanover-md-1.html", "opening_hours": "Mo-Sa 10:00-19:00; Su 12:00-18:00", "image": "https://s7d2.scene7.com/is/image/scrubsandbeyond/sb-tri-logo-large", "brand": "Scrubs and Beyond"}, "geometry": {"type": "Point", "coordinates": [-76.7229199, 39.1518643]}},
{"type": "Feature", "id": "ULNqHHD6FoQ2tFVd2No_tQmdow4=", "properties": {"ref": "https://locations.scrubsandbeyond.com/wa/tacoma/scrubs-tacoma-wa-161.html", "@spider": "scrubs_and_beyond", "addr:street_address": "Michael's Plaza 2941-D South 38th Street", "addr:city": "Tacoma", "addr:state": "WA", "addr:postcode": "98409", "name": "Nursing Uniforms & Medical Scrubs at Michael's Plaza 2941-D South 38th Street | Scrubs & Beyond Near Me", "phone": "(253) 474-4412", "website": "https://locations.scrubsandbeyond.com/wa/tacoma/scrubs-tacoma-wa-161.html", "opening_hours": "Mo-Fr 09:00-20:00; Sa 09:00-19:00; Su 10:00-19:00", "image": "https://s7d2.scene7.com/is/image/scrubsandbeyond/sb-tri-logo-large", "brand": "Scrubs and Beyond"}, "geometry": {"type": "Point", "coordinates": [-122.476078, 47.223616]}},
{"type": "Feature", "id": "OKrNXAXhXBX2LgW06PFZxedKvCQ=", "properties": {"ref": "https://locations.scrubsandbeyond.com/co/aurora/scrubs-aurora-co-35.html", "@spider": "scrubs_and_beyond", "addr:street_address": "1113 South Abilene St Suite 107 Suite 107", "addr:city": "Aurora", "addr:state": "CO", "addr:postcode": "80012", "name": "Nursing Uniforms & Medical Scrubs at 1113 South Abilene St Suite 107 | Scrubs & Beyond Near Me", "phone": "(720) 748-7783", "website": "https://locations.scrubsandbeyond.com/co/aurora/scrubs-aurora-co-35.html", "opening_hours": "Mo-Fr 09:30-19:30; Sa 10:00-18:00; Su 11:00-17:00", "image": "https://s7d2.scene7.com/is/image/scrubsandbeyond/sb-tri-logo-large", "brand": "Scrubs and Beyond"}, "geometry": {"type": "Point", "coordinates": [-104.8268112, 39.6963173]}},
{"type": "Feature", "id": "SsySgg5mMY96Sd_Oag9RKD1_JKk=", "properties": {"ref": "https://locations.scrubsandbeyond.com/nj/paramus/scrubs-paramus-nj-181.html", "@spider": "scrubs_and_beyond", "addr:street_address": "West 158 Route 4 East", "addr:city": "Paramus", "addr:state": "NJ", "addr:postcode": "07652", "name": "Nursing Uniforms & Medical Scrubs at West 158 Route 4 East | Scrubs & Beyond Near Me", "phone": "(201) 843-2288", "website": "https://locations.scrubsandbeyond.com/nj/paramus/scrubs-paramus-nj-181.html", "opening_hours": "Mo-Fr 10:00-21:00; Sa 10:00-20:00", "image": "https://s7d2.scene7.com/is/image/scrubsandbeyond/sb-tri-logo-large", "brand": "Scrubs and Beyond"}, "geometry": {"type": "Point", "coordinates": [-74.085757, 40.924108]}},
{"type": "Feature", "id": "nzBFGZpGtrbXdqgyvidgdvwl3gE=", "properties": {"ref": "https://locations.scrubsandbeyond.com/fl/pensacola/scrubs-pensacola-fl-248.html", "@spider": "scrubs_and_beyond", "addr:street_address": "Cordova Mall Space M-1215 5100 N 9th Avenue Space M-1215", "addr:city": "Pensacola", "addr:state": "FL", "addr:postcode": "32504", "name": "Nursing Uniforms & Medical Scrubs at Cordova Mall Space M-1215 5100 N 9th Avenue | Scrubs & Beyond Near Me", "phone": "(850) 476-3228", "website": "https://locations.scrubsandbeyond.com/fl/pensacola/scrubs-pensacola-fl-248.html", "opening_hours": "Mo-Sa 10:00-21:00; Su 12:00-18:00", "image": "https://s7d2.scene7.com/is/image/scrubsandbeyond/sb-tri-logo-large", "brand": "Scrubs and Beyond"}, "geometry": {"type": "Point", "coordinates": [-87.2074809, 30.4753166]}},
{"type": "Feature", "id": "cwjqDsyXeGZF7wtKNian3SUp2b0=", "properties": {"ref": "https://locations.scrubsandbeyond.com/tx/temple/scrubs-temple-tx-515.html", "@spider": "scrubs_and_beyond", "addr:street_address": "3032 South 31st Street", "addr:city": "Temple", "addr:state": "TX", "addr:postcode": "76502", "name": "Nursing Uniforms & Medical Scrubs at 3032 South 31st Street | Scrubs & Beyond Near Me", "phone": "(254) 773-0545", "website": "https://locations.scrubsandbeyond.com/tx/temple/scrubs-temple-tx-515.html", "opening_hours": "Mo-Sa 09:00-19:00; Su 11:00-17:00", "image": "https://s7d2.scene7.com/is/image/scrubsandbeyond/sb-tri-logo-large", "brand": "Scrubs and Beyond"}, "geometry": {"type": "Point", "coordinates": [-97.3702049, 31.0707696]}},
{"type": "Feature", "id": "vhlRboQqUNLkcJVTN3mk8ie-tWE=", "properties": {"ref": "https://locations.scrubsandbeyond.com/mo/columbia/scrubs-columbia-mo-241.html", "@spider": "scrubs_and_beyond", "addr:street_address": "2609 E Broadway, Ste 105", "addr:city": "Columbia", "addr:state": "MO", "addr:postcode": "65201", "name": "Nursing Uniforms & Medical Scrubs at 2609 E Broadway, Ste 105 | Scrubs & Beyond Near Me", "phone": "(573) 445-9172", "website": "https://locations.scrubsandbeyond.com/mo/columbia/scrubs-columbia-mo-241.html", "opening_hours": "Mo-Fr 09:00-19:00; Sa 10:00-18:00; Su 12:00-18:00", "image": "https://s7d2.scene7.com/is/image/scrubsandbeyond/sb-tri-logo-large", "brand": "Scrubs and Beyond"}, "geometry": {"type": "Point", "coordinates": [-92.2979033, 38.9476137]}},
{"type": "Feature", "id": "UdVPNIrnGEPBTcVlkXlMUaODydw=", "properties": {"ref": "https://locations.scrubsandbeyond.com/ks/wichita/scrubs-wichita-ks-92.html", "@spider": "scrubs_and_beyond", "addr:street_address": "6600 W Kellogg Ave, Suite 108 Suite 108", "addr:city": "Wichita", "addr:state": "KS", "addr:postcode": "67209", "name": "Nursing Uniforms & Medical Scrubs at 6600 W Kellogg Ave, Suite 108 | Scrubs & Beyond Near Me", "phone": "(316) 945-5929", "website": "https://locations.scrubsandbeyond.com/ks/wichita/scrubs-wichita-ks-92.html", "opening_hours": "Mo-Sa 10:00-20:00; Su 12:00-18:00", "image": "https://s7d2.scene7.com/is/image/scrubsandbeyond/sb-tri-logo-large", "brand": "Scrubs and Beyond"}, "geometry": {"type": "Point", "coordinates": [-97.4192919, 37.6732784]}},
{"type": "Feature", "id": "8SoNMyQx-T7qXNQHw2yTNv2gfh8=", "properties": {"ref": "https://locations.scrubsandbeyond.com/oh/cincinnati/scrubs-cincinnati-oh-151.html", "@spider": "scrubs_and_beyond", "addr:street_address": "Eastgate Square 4394 Eastgate Square Drive", "addr:city": "Cincinnati", "addr:state": "OH", "addr:postcode": "45245", "name": "Nursing Uniforms & Medical Scrubs at Eastgate Square 4394 Eastgate Square Drive | Scrubs & Beyond Near Me", "phone": "(513) 752-7464", "website": "https://locations.scrubsandbeyond.com/oh/cincinnati/scrubs-cincinnati-oh-151.html", "opening_hours": "Mo-Fr 10:00-20:00; Sa 10:00-18:00; Su 12:00-18:00", "image": "https://s7d2.scene7.com/is/image/scrubsandbeyond/sb-tri-logo-large", "brand": "Scrubs and Beyond"}, "geometry": {"type": "Point", "coordinates": [-84.268793, 39.0930098]}},
{"type": "Feature", "id": "SeZvM_VKV4XpDBSLWCvQ-cT37AE=", "properties": {"ref": "https://locations.scrubsandbeyond.com/oh/cincinnati/scrubs-cincinnati-oh-138.html", "@spider": "scrubs_and_beyond", "addr:street_address": "Northgate Mall 9457 Colerain Ave.", "addr:city": "Cincinnati", "addr:state": "OH", "addr:postcode": "45251", "name": "Nursing Uniforms & Medical Scrubs at Northgate Mall 9457 Colerain Ave. | Scrubs & Beyond Near Me", "phone": "(513) 385-5911", "website": "https://locations.scrubsandbeyond.com/oh/cincinnati/scrubs-cincinnati-oh-138.html", "opening_hours": "Mo-Fr 10:00-20:00; Sa 10:00-19:00; Su 12:00-18:00", "image": "https://s7d2.scene7.com/is/image/scrubsandbeyond/sb-tri-logo-large", "brand": "Scrubs and Beyond"}, "geometry": {"type": "Point", "coordinates": [-84.596416, 39.242817]}},
{"type": "Feature", "id": "BKKIn5Cp9D0k8myk77-KSIh-Z9A=", "properties": {"ref": "https://locations.scrubsandbeyond.com/ky/florence/scrubs-florence-ky-230.html", "@spider": "scrubs_and_beyond", "addr:street_address": "7713 Mall Road", "addr:city": "Florence", "addr:state": "KY", "addr:postcode": "41042", "name": "Nursing Uniforms & Medical Scrubs at 7713 Mall Road | Scrubs & Beyond Near Me", "phone": "(859) 371-1881", "website": "https://locations.scrubsandbeyond.com/ky/florence/scrubs-florence-ky-230.html", "opening_hours": "Mo-Fr 10:00-20:00; Sa 10:00-18:00; Su 12:00-18:00", "image": "https://s7d2.scene7.com/is/image/scrubsandbeyond/sb-tri-logo-large", "brand": "Scrubs and Beyond"}, "geometry": {"type": "Point", "coordinates": [-84.655947, 38.995826]}},
{"type": "Feature", "id": "LnAaB7_AG0TVLqi_Xt6EkTRUmqQ=", "properties": {"ref": "https://locations.scrubsandbeyond.com/ne/omaha/scrubs-omaha-ne-175.html", "@spider": "scrubs_and_beyond", "addr:street_address": "7832 West Dodge St", "addr:city": "Omaha", "addr:state": "NE", "addr:postcode": "68114", "name": "Nursing Uniforms & Medical Scrubs at 7832 West Dodge St | Scrubs & Beyond Near Me", "phone": "(402) 391-3305", "website": "https://locations.scrubsandbeyond.com/ne/omaha/scrubs-omaha-ne-175.html", "opening_hours": "Mo-Fr 10:00-19:00; Sa 10:00-18:00; Su 12:00-17:00", "image": "https://s7d2.scene7.com/is/image/scrubsandbeyond/sb-tri-logo-large", "brand": "Scrubs and Beyond"}, "geometry": {"type": "Point", "coordinates": [-96.037393, 41.260449]}},
{"type": "Feature", "id": "aD-SRvuZuuekZ3PEgaK3qUVKeuA=", "properties": {"ref": "https://locations.scrubsandbeyond.com/in/plainfield/scrubs-plainfield-in-540.html", "@spider": "scrubs_and_beyond", "addr:street_address": "2683 E. Main St, Ste. 101", "addr:city": "Plainfield", "addr:state": "IN", "addr:postcode": "46168", "name": "Nursing Uniforms & Medical Scrubs at 2683 E. Main St, Ste. 101 | Scrubs & Beyond Near Me", "website": "https://locations.scrubsandbeyond.com/in/plainfield/scrubs-plainfield-in-540.html", "opening_hours": "Mo-Fr 10:00-21:00; Sa 10:00-20:00; Su 11:00-18:00", "image": "https://s7d2.scene7.com/is/image/scrubsandbeyond/sb-tri-logo-large", "brand": "Scrubs and Beyond"}, "geometry": {"type": "Point", "coordinates": [-86.3537459, 39.716305]}},
{"type": "Feature", "id": "63RTGJurjB1b8xmE53_bS9uZVkE=", "properties": {"ref": "https://locations.scrubsandbeyond.com/nj/eatontown/scrubs-eatontown-nj-341.html", "@spider": "scrubs_and_beyond", "addr:street_address": "315 Route 35", "addr:city": "Eatontown", "addr:state": "NJ", "addr:postcode": "07724", "name": "Nursing Uniforms & Medical Scrubs at 315 Route 35 | Scrubs & Beyond Near Me", "phone": "(732) 542-5252", "website": "https://locations.scrubsandbeyond.com/nj/eatontown/scrubs-eatontown-nj-341.html", "opening_hours": "Mo-Fr 09:00-18:00; Sa 10:00-18:00; Su 12:00-17:00", "image": "https://s7d2.scene7.com/is/image/scrubsandbeyond/sb-tri-logo-large", "brand": "Scrubs and Beyond"}, "geometry": {"type": "Point", "coordinates": [-74.0471788, 40.2809182]}},
{"type": "Feature", "id": "Ai30l-h4i3zHK88OF1Odl7jrPp0=", "properties": {"ref": "https://locations.scrubsandbeyond.com/fl/altamontesprings/scrubs-altamonte-springs-fl-539.html", "@spider": "scrubs_and_beyond", "addr:street_address": "303 E. Altamonte Dr. Ste. 1140", "addr:city": "Altamonte Springs", "addr:state": "FL", "addr:postcode": "32701", "name": "Nursing Uniforms & Medical Scrubs at 303 E. Altamonte Dr. | Scrubs & Beyond Near Me", "website": "https://locations.scrubsandbeyond.com/fl/altamontesprings/scrubs-altamonte-springs-fl-539.html", "opening_hours": "Mo-Sa 10:00-20:00; Su 12:00-18:00", "image": "https://s7d2.scene7.com/is/image/scrubsandbeyond/sb-tri-logo-large", "brand": "Scrubs and Beyond"}, "geometry": {"type": "Point", "coordinates": [-81.3817852, 28.663546]}},
{"type": "Feature", "id": "XYshBr-ppmPMN5qMVL5cPJptrpI=", "properties": {"ref": "https://locations.scrubsandbeyond.com/tx/lewisville/scrubs-lewisville-tx-537.html", "@spider": "scrubs_and_beyond", "addr:street_address": "2325 S Stemmons Frwy Suite 304", "addr:city": "Lewisville", "addr:state": "TX", "name": "Nursing Uniforms & Medical Scrubs at 2325 S Stemmons Frwy | Scrubs & Beyond Near Me", "phone": "(972) 351-8889", "website": "https://locations.scrubsandbeyond.com/tx/lewisville/scrubs-lewisville-tx-537.html", "opening_hours": "Mo-Sa 10:00-20:00; Su 12:00-18:00", "image": "https://s7d2.scene7.com/is/image/scrubsandbeyond/sb-tri-logo-large", "brand": "Scrubs and Beyond"}, "geometry": {"type": "Point", "coordinates": [-96.9766182, 33.0070984]}},
{"type": "Feature", "id": "h9Rlx7i9ostN_9RuhnkTKpkcIQ8=", "properties": {"ref": "https://locations.scrubsandbeyond.com/az/mesa/scrubs-mesa-az-535.html", "@spider": "scrubs_and_beyond", "addr:street_address": "833 N Dobson Rd", "addr:city": "Mesa", "addr:state": "AZ", "addr:postcode": "85201", "name": "Nursing Uniforms & Medical Scrubs at 833 N Dobson Rd | Scrubs & Beyond Near Me", "phone": "(480) 448-9950", "website": "https://locations.scrubsandbeyond.com/az/mesa/scrubs-mesa-az-535.html", "opening_hours": "Mo-Sa 10:00-20:00; Su 11:00-18:00", "image": "https://s7d2.scene7.com/is/image/scrubsandbeyond/sb-tri-logo-large", "brand": "Scrubs and Beyond"}, "geometry": {"type": "Point", "coordinates": [-111.870036, 33.4320641]}},
{"type": "Feature", "id": "e1ccjhz-CU2VALFKLaKme9l_-BI=", "properties": {"ref": "https://locations.scrubsandbeyond.com/tx/hurst/scrubs-hurst-tx-536.html", "@spider": "scrubs_and_beyond", "addr:street_address": "841 NE Mall Blvd.", "addr:city": "Hurst", "addr:state": "TX", "addr:postcode": "76053", "name": "Nursing Uniforms & Medical Scrubs at 841 NE Mall Blvd. | Scrubs & Beyond Near Me", "phone": "(817) 756-6005", "website": "https://locations.scrubsandbeyond.com/tx/hurst/scrubs-hurst-tx-536.html", "opening_hours": "Mo-Sa 10:00-20:00; Su 12:00-18:00", "image": "https://s7d2.scene7.com/is/image/scrubsandbeyond/sb-tri-logo-large", "brand": "Scrubs and Beyond"}, "geometry": {"type": "Point", "coordinates": [-97.2027886, 32.8254044]}},
{"type": "Feature", "id": "pjn0UjcgKzC-WtfD547rdagFy90=", "properties": {"ref": "https://locations.scrubsandbeyond.com/fl/pembrokepines/scrubs-pembroke-pines-fl-534.html", "@spider": "scrubs_and_beyond", "addr:street_address": "11010 Pines Blvd.", "addr:city": "Pembroke Pines", "addr:state": "FL", "addr:postcode": "33026", "name": "Nursing Uniforms & Medical Scrubs at 11010 Pines Blvd. | Scrubs & Beyond Near Me", "phone": "(954) 302-3900", "website": "https://locations.scrubsandbeyond.com/fl/pembrokepines/scrubs-pembroke-pines-fl-534.html", "opening_hours": "Mo-Sa 10:00-20:00; Su 12:00-18:00", "image": "https://s7d2.scene7.com/is/image/scrubsandbeyond/sb-tri-logo-large", "brand": "Scrubs and Beyond"}, "geometry": {"type": "Point", "coordinates": [-80.2933716, 26.0060627]}},
{"type": "Feature", "id": "95KVrjsO1I6i9PwmYpa6YPYAn9o=", "properties": {"ref": "https://locations.scrubsandbeyond.com/tx/ft-worth/scrubs-ft.-worth-tx-533.html", "@spider": "scrubs_and_beyond", "addr:street_address": "4614 SW Loop 820", "addr:city": "Ft. Worth", "addr:state": "TX", "addr:postcode": "76109", "name": "Nursing Uniforms & Medical Scrubs at 4614 SW Loop 820 | Scrubs & Beyond Near Me", "phone": "(817) 420-9245", "website": "https://locations.scrubsandbeyond.com/tx/ft-worth/scrubs-ft.-worth-tx-533.html", "opening_hours": "Mo-Sa 10:00-20:00; Su 12:00-18:00", "image": "https://s7d2.scene7.com/is/image/scrubsandbeyond/sb-tri-logo-large", "brand": "Scrubs and Beyond"}, "geometry": {"type": "Point", "coordinates": [-97.3930346, 32.6836584]}},
{"type": "Feature", "id": "HCiY5gXEcC6KkJ1cZSWUtdRzvvs=", "properties": {"ref": "https://locations.scrubsandbeyond.com/ga/augusta/scrubs-augusta-ga-532.html", "@spider": "scrubs_and_beyond", "addr:street_address": "1481 Laney Walker Blvd., Ste. 1700 Augusta University", "addr:city": "Augusta", "addr:state": "GA", "addr:postcode": "30912", "name": "Nursing Uniforms & Medical Scrubs at 1481 Laney Walker Blvd., Ste. 1700 | Scrubs & Beyond Near Me", "phone": "(706) 524-7225", "website": "https://locations.scrubsandbeyond.com/ga/augusta/scrubs-augusta-ga-532.html", "opening_hours": "Mo-Fr 07:00-17:00", "image": "https://s7d2.scene7.com/is/image/scrubsandbeyond/sb-tri-logo-large", "brand": "Scrubs and Beyond"}, "geometry": {"type": "Point", "coordinates": [-81.9899367, 33.4712295]}},
{"type": "Feature", "id": "avX2tgfMS70TQvikHG0WakZHC5s=", "properties": {"ref": "https://locations.scrubsandbeyond.com/fl/orlando/scrubs-orlando-fl-704.html", "@spider": "scrubs_and_beyond", "addr:street_address": "2001 E. Colonial Drive", "addr:city": "Orlando", "addr:state": "FL", "addr:postcode": "32803", "name": "Nursing Uniforms & Medical Scrubs at 2001 E. Colonial Drive | Scrubs & Beyond Near Me", "phone": "(407) 898-9333", "website": "https://locations.scrubsandbeyond.com/fl/orlando/scrubs-orlando-fl-704.html", "opening_hours": "Mo-Fr 09:00-20:00; Sa 09:00-19:00; Su 12:00-17:00", "image": "https://s7d2.scene7.com/is/image/scrubsandbeyond/sb-tri-logo-large", "brand": "Scrubs and Beyond"}, "geometry": {"type": "Point", "coordinates": [-81.3558826, 28.5534794]}},
{"type": "Feature", "id": "2PmdswlTvk-a3TOpEZ72CfWkAtA=", "properties": {"ref": "https://locations.scrubsandbeyond.com/fl/tampa/scrubs-tampa-fl-702.html", "@spider": "scrubs_and_beyond", "addr:street_address": "4045 W. Kennedy Blvd.", "addr:city": "Tampa", "addr:state": "FL", "addr:postcode": "33609", "name": "Nursing Uniforms & Medical Scrubs at 4045 W. Kennedy Blvd. | Scrubs & Beyond Near Me", "phone": "(813) 286-7880", "website": "https://locations.scrubsandbeyond.com/fl/tampa/scrubs-tampa-fl-702.html", "opening_hours": "Mo-Fr 09:00-20:00; Sa 09:00-19:00; Su 12:00-17:00", "image": "https://s7d2.scene7.com/is/image/scrubsandbeyond/sb-tri-logo-large", "brand": "Scrubs and Beyond"}, "geometry": {"type": "Point", "coordinates": [-82.5116595, 27.9451682]}},
{"type": "Feature", "id": "Qy507LqnD0HwSv-4X7H9CnaPKGs=", "properties": {"ref": "https://locations.scrubsandbeyond.com/fl/clearwater/scrubs-clearwater-fl-700.html", "@spider": "scrubs_and_beyond", "addr:street_address": "2472 Gulf to Bay Blvd. (RTE 60)", "addr:city": "Clearwater", "addr:state": "FL", "addr:postcode": "33765", "name": "Nursing Uniforms & Medical Scrubs at 2472 Gulf to Bay Blvd. (RTE 60) | Scrubs & Beyond Near Me", "phone": "(727) 791-7100", "website": "https://locations.scrubsandbeyond.com/fl/clearwater/scrubs-clearwater-fl-700.html", "opening_hours": "Mo-Fr 09:00-20:00; Sa 09:00-19:00; Su 12:00-17:00", "image": "https://s7d2.scene7.com/is/image/scrubsandbeyond/sb-tri-logo-large", "brand": "Scrubs and Beyond"}, "geometry": {"type": "Point", "coordinates": [-82.734734, 27.960943]}},
{"type": "Feature", "id": "8A4ZGqkhmD25s92BFOJX79VflF4=", "properties": {"ref": "https://locations.scrubsandbeyond.com/md/rockville/scrubs-rockville-md-707.html", "@spider": "scrubs_and_beyond", "addr:street_address": "2003 Veirs Mill Road", "addr:city": "Rockville", "addr:state": "MD", "addr:postcode": "20851", "name": "Nursing Uniforms & Medical Scrubs at 2003 Veirs Mill Road | Scrubs & Beyond Near Me", "phone": "(301) 340-6373", "website": "https://locations.scrubsandbeyond.com/md/rockville/scrubs-rockville-md-707.html", "opening_hours": "Mo-Sa 10:00-19:00; Su 12:00-17:00", "image": "https://s7d2.scene7.com/is/image/scrubsandbeyond/sb-tri-logo-large", "brand": "Scrubs and Beyond"}, "geometry": {"type": "Point", "coordinates": [-77.1166955, 39.0747878]}},
{"type": "Feature", "id": "Z9kE8gsxfqP7oVP4Uiw9hZZrjCI=", "properties": {"ref": "https://locations.scrubsandbeyond.com/md/landoverhills/scrubs-landover-hills-md-703.html", "@spider": "scrubs_and_beyond", "addr:street_address": "7423 Annapolis Rd", "addr:city": "Landover Hills", "addr:state": "MD", "addr:postcode": "20784", "name": "Nursing Uniforms & Medical Scrubs at 7423 Annapolis Rd | Scrubs & Beyond Near Me", "phone": "(301) 731-5400", "website": "https://locations.scrubsandbeyond.com/md/landoverhills/scrubs-landover-hills-md-703.html", "opening_hours": "Mo-Sa 10:00-19:00; Su 12:00-17:00", "image": "https://s7d2.scene7.com/is/image/scrubsandbeyond/sb-tri-logo-large", "brand": "Scrubs and Beyond"}, "geometry": {"type": "Point", "coordinates": [-76.88717, 38.948201]}},
{"type": "Feature", "id": "GwB6AlHcnRO_3K0-_2cNCip0INI=", "properties": {"ref": "https://locations.scrubsandbeyond.com/fl/n-miamibeach/scrubs-n.-miami-beach-fl-701.html", "@spider": "scrubs_and_beyond", "addr:street_address": "1705 NE 163rd Street", "addr:city": "N. Miami Beach", "addr:state": "FL", "addr:postcode": "33162", "name": "Nursing Uniforms & Medical Scrubs at 1705 NE 163rd Street | Scrubs & Beyond Near Me", "phone": "(305) 944-0008", "website": "https://locations.scrubsandbeyond.com/fl/n-miamibeach/scrubs-n.-miami-beach-fl-701.html", "opening_hours": "Mo-Sa 09:00-19:00; Su 12:00-17:00", "image": "https://s7d2.scene7.com/is/image/scrubsandbeyond/sb-tri-logo-large", "brand": "Scrubs and Beyond"}, "geometry": {"type": "Point", "coordinates": [-80.165836088912, 25.9263033472974]}},
{"type": "Feature", "id": "hMUMi30FAgAT_KzBXY-_G2ELEFc=", "properties": {"ref": "https://locations.scrubsandbeyond.com/fl/tamarac/scrubs-tamarac-fl-711.html", "@spider": "scrubs_and_beyond", "addr:street_address": "7110 N. University Dr.", "addr:city": "Tamarac", "addr:state": "FL", "addr:postcode": "33321", "name": "Nursing Uniforms & Medical Scrubs at 7110 N. University Dr. | Scrubs & Beyond Near Me", "phone": "(954) 718-7818", "website": "https://locations.scrubsandbeyond.com/fl/tamarac/scrubs-tamarac-fl-711.html", "opening_hours": "Mo-Sa 10:00-19:00; Su 12:00-17:00", "image": "https://s7d2.scene7.com/is/image/scrubsandbeyond/sb-tri-logo-large", "brand": "Scrubs and Beyond"}, "geometry": {"type": "Point", "coordinates": [-80.2511246, 26.2095622]}},
{"type": "Feature", "id": "iu3tE1dwKcmVRTUkCxkRO2KLHLs=", "properties": {"ref": "https://locations.scrubsandbeyond.com/ga/tucker/scrubs-tucker-ga-709.html", "@spider": "scrubs_and_beyond", "addr:street_address": "4320 La Vista Rd., Suite B101 Suite B101", "addr:city": "Tucker", "addr:state": "GA", "addr:postcode": "30084", "name": "Nursing Uniforms & Medical Scrubs at 4320 La Vista Rd., Suite B101 | Scrubs & Beyond Near Me", "phone": "(678) 937-0811", "website": "https://locations.scrubsandbeyond.com/ga/tucker/scrubs-tucker-ga-709.html", "opening_hours": "Mo-Sa 10:00-20:00; Su 12:00-18:00", "image": "https://s7d2.scene7.com/is/image/scrubsandbeyond/sb-tri-logo-large", "brand": "Scrubs and Beyond"}, "geometry": {"type": "Point", "coordinates": [-84.2422445, 33.8480901]}},
{"type": "Feature", "id": "bWQCC7RK7Oh0bTyIehB7r8sPtAI=", "properties": {"ref": "https://locations.scrubsandbeyond.com/va/richmond/scrubs-richmond-va-708.html", "@spider": "scrubs_and_beyond", "addr:street_address": "7518 W. Broad St.", "addr:city": "Richmond", "addr:state": "VA", "addr:postcode": "23294", "name": "Nursing Uniforms & Medical Scrubs at 7518 W. Broad St. | Scrubs & Beyond Near Me", "phone": "(804) 643-0291", "website": "https://locations.scrubsandbeyond.com/va/richmond/scrubs-richmond-va-708.html", "opening_hours": "Mo-Fr 10:00-19:00; Sa 10:00-18:00; Su 12:00-17:00", "image": "https://s7d2.scene7.com/is/image/scrubsandbeyond/sb-tri-logo-large", "brand": "Scrubs and Beyond"}, "geometry": {"type": "Point", "coordinates": [-77.520726, 37.619598]}},
{"type": "Feature", "id": "xV7VACStNX0Ke14We4REiWb7k48=", "properties": {"ref": "https://locations.scrubsandbeyond.com/va/woodbridge/scrubs-woodbridge-va-710.html", "@spider": "scrubs_and_beyond", "addr:street_address": "14069 Shoppers Best Way", "addr:city": "Woodbridge", "addr:state": "VA", "addr:postcode": "22192", "name": "Nursing Uniforms & Medical Scrubs at 14069 Shoppers Best Way | Scrubs & Beyond Near Me", "phone": "(703) 499-8560", "website": "https://locations.scrubsandbeyond.com/va/woodbridge/scrubs-woodbridge-va-710.html", "opening_hours": "Mo-Sa 10:00-20:00; Su 11:00-18:00", "image": "https://s7d2.scene7.com/is/image/scrubsandbeyond/sb-tri-logo-large", "brand": "Scrubs and Beyond"}, "geometry": {"type": "Point", "coordinates": [-77.298383343498, 38.6510779253108]}},
{"type": "Feature", "id": "bTADccRvRQIiXqYGp3mvsK6GfkE=", "properties": {"ref": "https://locations.scrubsandbeyond.com/nc/charlotte/scrubs-charlotte-nc-3.html", "@spider": "scrubs_and_beyond", "addr:street_address": "9821 Northlake Center Parkway, Ste. F Ste. F", "addr:city": "Charlotte", "addr:state": "NC", "addr:postcode": "28216", "name": "Nursing Uniforms & Medical Scrubs at 9821 Northlake Center Parkway, Ste. F | Scrubs & Beyond Near Me", "phone": "(704) 979-0121", "website": "https://locations.scrubsandbeyond.com/nc/charlotte/scrubs-charlotte-nc-3.html", "opening_hours": "Mo-Sa 10:00-19:00; Su 12:00-18:00", "image": "https://s7d2.scene7.com/is/image/scrubsandbeyond/sb-tri-logo-large", "brand": "Scrubs and Beyond"}, "geometry": {"type": "Point", "coordinates": [-80.8576277, 35.3490261]}},
{"type": "Feature", "id": "xLfL3-dR4uCveOpDDE0KzWfdgVw=", "properties": {"ref": "https://locations.scrubsandbeyond.com/mo/kirkwood/scrubs-kirkwood-mo-10.html", "@spider": "scrubs_and_beyond", "addr:street_address": "1050 S Kirkwood Road", "addr:city": "Kirkwood", "addr:state": "MO", "addr:postcode": "63122", "name": "Nursing Uniforms & Medical Scrubs at 1050 S Kirkwood Road | Scrubs & Beyond Near Me", "phone": "(314) 984-0991", "website": "https://locations.scrubsandbeyond.com/mo/kirkwood/scrubs-kirkwood-mo-10.html", "opening_hours": "Mo-Fr 09:30-19:30; Sa 09:30-18:00; Su 12:00-18:00", "image": "https://s7d2.scene7.com/is/image/scrubsandbeyond/sb-tri-logo-large", "brand": "Scrubs and Beyond"}, "geometry": {"type": "Point", "coordinates": [-90.4062965, 38.5647714]}},
{"type": "Feature", "id": "7G29txcAnNKkOUCJ5aPil3ER_IU=", "properties": {"ref": "https://locations.scrubsandbeyond.com/oh/dayton/scrubs-dayton-oh-109.html", "@spider": "scrubs_and_beyond", "addr:street_address": "2138 Miamisburg Centerville Rd. Ste. 23 Ste. 23", "addr:city": "Dayton", "addr:state": "OH", "addr:postcode": "45459", "name": "Nursing Uniforms & Medical Scrubs at 2138 Miamisburg Centerville Rd. Ste. 23 | Scrubs & Beyond Near Me", "phone": "(937) 433-5541", "website": "https://locations.scrubsandbeyond.com/oh/dayton/scrubs-dayton-oh-109.html", "opening_hours": "Mo-Sa 10:00-20:00; Su 12:00-18:00", "image": "https://s7d2.scene7.com/is/image/scrubsandbeyond/sb-tri-logo-large", "brand": "Scrubs and Beyond"}, "geometry": {"type": "Point", "coordinates": [-84.2102021, 39.6327094]}},
{"type": "Feature", "id": "rYchq5kw8eSlp-136xJ5pmtFSns=", "properties": {"ref": "https://locations.scrubsandbeyond.com/al/tuscaloosa/scrubs-tuscaloosa-al-79.html", "@spider": "scrubs_and_beyond", "addr:street_address": "1800 McFarland Blvd., E. Sp 208 E. Sp 208", "addr:city": "Tuscaloosa", "addr:state": "AL", "addr:postcode": "35404", "name": "Nursing Uniforms & Medical Scrubs at 1800 McFarland Blvd., E. Sp 208 | Scrubs & Beyond Near Me", "phone": "(205) 553-5827", "website": "https://locations.scrubsandbeyond.com/al/tuscaloosa/scrubs-tuscaloosa-al-79.html", "opening_hours": "Mo-Sa 10:00-20:00; Su 12:00-18:00", "image": "https://s7d2.scene7.com/is/image/scrubsandbeyond/sb-tri-logo-large", "brand": "Scrubs and Beyond"}, "geometry": {"type": "Point", "coordinates": [-87.527779, 33.192863]}},
{"type": "Feature", "id": "Y6UCVakQfgTqfAsMezD3IoiODPg=", "properties": {"ref": "https://locations.scrubsandbeyond.com/az/gilbert/scrubs-gilbert-az-28.html", "@spider": "scrubs_and_beyond", "addr:street_address": "3755 S Gilbert Road Suite 101", "addr:city": "Gilbert", "addr:state": "AZ", "addr:postcode": "85297", "name": "Nursing Uniforms & Medical Scrubs at 3755 S Gilbert Road | Scrubs & Beyond Near Me", "phone": "(480) 855-3065", "website": "https://locations.scrubsandbeyond.com/az/gilbert/scrubs-gilbert-az-28.html", "opening_hours": "Mo-Fr 10:00-21:00; Sa 10:00-20:00; Su 12:00-18:00", "image": "https://s7d2.scene7.com/is/image/scrubsandbeyond/sb-tri-logo-large", "brand": "Scrubs and Beyond"}, "geometry": {"type": "Point", "coordinates": [-111.787406, 33.281865]}},
{"type": "Feature", "id": "1S6HYCEGkmgAOaJyTlWdqs7owyI=", "properties": {"ref": "https://locations.scrubsandbeyond.com/ga/lawrenceville/scrubs-lawrenceville-ga-9.html", "@spider": "scrubs_and_beyond", "addr:street_address": "875 Lawrenceville Suwanee Rd., Space 540 Space 540", "addr:city": "Lawrenceville", "addr:state": "GA", "addr:postcode": "30043", "name": "Nursing Uniforms & Medical Scrubs at 875 Lawrenceville Suwanee Rd., Space 540 | Scrubs & Beyond Near Me", "phone": "(678) 847-5106", "website": "https://locations.scrubsandbeyond.com/ga/lawrenceville/scrubs-lawrenceville-ga-9.html", "opening_hours": "Mo-Sa 10:00-20:00; Su 12:00-18:00", "image": "https://s7d2.scene7.com/is/image/scrubsandbeyond/sb-tri-logo-large", "brand": "Scrubs and Beyond"}, "geometry": {"type": "Point", "coordinates": [-84.0145942, 33.9701766]}},
{"type": "Feature", "id": "E97_M-GFnPcbOSLWeHgtY16bDz8=", "properties": {"ref": "https://locations.scrubsandbeyond.com/tx/frisco/scrubs-frisco-tx-4.html", "@spider": "scrubs_and_beyond", "addr:street_address": "3211 Preston Road Suite 9", "addr:city": "Frisco", "addr:state": "TX", "addr:postcode": "75034", "name": "Nursing Uniforms & Medical Scrubs at 3211 Preston Road | Scrubs & Beyond Near Me", "phone": "(972) 377-4475", "website": "https://locations.scrubsandbeyond.com/tx/frisco/scrubs-frisco-tx-4.html", "opening_hours": "Mo-Sa 10:00-20:00; Su 12:00-18:00", "image": "https://s7d2.scene7.com/is/image/scrubsandbeyond/sb-tri-logo-large", "brand": "Scrubs and Beyond"}, "geometry": {"type": "Point", "coordinates": [-96.8085575, 33.1053864]}},
{"type": "Feature", "id": "GwjxC5ifDG7_9evoY8Eij3pRZsQ=", "properties": {"ref": "https://locations.scrubsandbeyond.com/mo/crevecoeur/scrubs-creve-coeur-mo-7.html", "@spider": "scrubs_and_beyond", "addr:street_address": "12551 Olive Blvd Ste D100 Ste D100", "addr:city": "Creve Coeur", "addr:state": "MO", "addr:postcode": "63141", "name": "Nursing Uniforms & Medical Scrubs at 12551 Olive Blvd Ste D100 | Scrubs & Beyond Near Me", "phone": "(314) 542-2226", "website": "https://locations.scrubsandbeyond.com/mo/crevecoeur/scrubs-creve-coeur-mo-7.html", "opening_hours": "Mo-Fr 09:00-20:00; Sa 10:00-20:00; Su 12:00-18:00", "image": "https://s7d2.scene7.com/is/image/scrubsandbeyond/sb-tri-logo-large", "brand": "Scrubs and Beyond"}, "geometry": {"type": "Point", "coordinates": [-90.463355, 38.6758764]}},
{"type": "Feature", "id": "gEzxO37KXvUz6ycQ6O8lUZ-UBG0=", "properties": {"ref": "https://locations.scrubsandbeyond.com/sc/myrtlebeach/scrubs-myrtle-beach-sc-442.html", "@spider": "scrubs_and_beyond", "addr:street_address": "1138 Seaboard Street", "addr:city": "Myrtle Beach", "addr:state": "SC", "addr:postcode": "29577", "name": "Nursing Uniforms & Medical Scrubs at 1138 Seaboard Street | Scrubs & Beyond Near Me", "phone": "(843) 448-7343", "website": "https://locations.scrubsandbeyond.com/sc/myrtlebeach/scrubs-myrtle-beach-sc-442.html", "opening_hours": "Mo-Sa 10:00-20:00; Su 12:00-18:00", "image": "https://s7d2.scene7.com/is/image/scrubsandbeyond/sb-tri-logo-large", "brand": "Scrubs and Beyond"}, "geometry": {"type": "Point", "coordinates": [-78.8941004, 33.7120925]}},
{"type": "Feature", "id": "WFBFJmeqJ6WtILE1Wir8Sf13sao=", "properties": {"ref": "https://locations.scrubsandbeyond.com/oh/columbus/scrubs-columbus-oh-346.html", "@spider": "scrubs_and_beyond", "addr:street_address": "1311 Polaris Parkway", "addr:city": "Columbus", "addr:state": "OH", "addr:postcode": "43240", "name": "Nursing Uniforms & Medical Scrubs at 1311 Polaris Parkway | Scrubs & Beyond Near Me", "phone": "(614) 846-8142", "website": "https://locations.scrubsandbeyond.com/oh/columbus/scrubs-columbus-oh-346.html", "opening_hours": "Mo-Sa 10:00-18:00; Su 12:00-17:00", "image": "https://s7d2.scene7.com/is/image/scrubsandbeyond/sb-tri-logo-large", "brand": "Scrubs and Beyond"}, "geometry": {"type": "Point", "coordinates": [-82.9847306, 40.1397783]}},
{"type": "Feature", "id": "qOpwUfm0ElkCrM21LIzij5Ev-k4=", "properties": {"ref": "https://locations.scrubsandbeyond.com/tx/sugarland/scrubs-sugar-land-tx-32.html", "@spider": "scrubs_and_beyond", "addr:street_address": "2573 Town Center Blvd N", "addr:city": "Sugar Land", "addr:state": "TX", "addr:postcode": "77479", "name": "Nursing Uniforms & Medical Scrubs at 2573 Town Center Blvd N | Scrubs & Beyond Near Me", "phone": "(281) 242-2490", "website": "https://locations.scrubsandbeyond.com/tx/sugarland/scrubs-sugar-land-tx-32.html", "opening_hours": "Mo-Sa 10:00-20:00; Su 12:00-18:00", "image": "https://s7d2.scene7.com/is/image/scrubsandbeyond/sb-tri-logo-large", "brand": "Scrubs and Beyond"}, "geometry": {"type": "Point", "coordinates": [-95.619677, 29.595207]}},
{"type": "Feature", "id": "qrmjbiYgzg4N39pgzNnxMeROW1s=", "properties": {"ref": "https://locations.scrubsandbeyond.com/tx/dallas/scrubs-dallas-tx-2.html", "@spider": "scrubs_and_beyond", "addr:street_address": "6464 East Northwest Highway 150 Medallion Center", "addr:city": "Dallas", "addr:state": "TX", "addr:postcode": "75214", "name": "Nursing Uniforms & Medical Scrubs at 6464 East Northwest Highway 150 Medallion Center | Scrubs & Beyond Near Me", "phone": "(469) 232-9993", "website": "https://locations.scrubsandbeyond.com/tx/dallas/scrubs-dallas-tx-2.html", "opening_hours": "Mo-Sa 10:00-20:00; Su 12:00-18:00", "image": "https://s7d2.scene7.com/is/image/scrubsandbeyond/sb-tri-logo-large", "brand": "Scrubs and Beyond"}, "geometry": {"type": "Point", "coordinates": [-96.7522564, 32.8580663]}},
{"type": "Feature", "id": "mNGssEgGDyeaLidh7NsOcLjmgfc=", "properties": {"ref": "https://locations.scrubsandbeyond.com/mo/st-peters/scrubs-st.-peters-mo-100.html", "@spider": "scrubs_and_beyond", "addr:street_address": "4083 Veterans Memorial Parkway", "addr:city": "St. Peters", "addr:state": "MO", "addr:postcode": "63376", "name": "Nursing Uniforms & Medical Scrubs at 4083 Veterans Memorial Parkway | Scrubs & Beyond Near Me", "phone": "(636) 685-0263", "website": "https://locations.scrubsandbeyond.com/mo/st-peters/scrubs-st.-peters-mo-100.html", "opening_hours": "Mo-Sa 10:00-18:00; Su 11:00-18:00", "image": "https://s7d2.scene7.com/is/image/scrubsandbeyond/sb-tri-logo-large", "brand": "Scrubs and Beyond"}, "geometry": {"type": "Point", "coordinates": [-90.5706834, 38.7947411]}},
{"type": "Feature", "id": "CNspkPRQ6khPoEw55ojxrGJQYQs=", "properties": {"ref": "https://locations.scrubsandbeyond.com/tx/mesquite/scrubs-mesquite-tx-22.html", "@spider": "scrubs_and_beyond", "addr:street_address": "1515 Town East Boulevard Suite 136 Suite 136", "addr:city": "Mesquite", "addr:state": "TX", "addr:postcode": "75150", "name": "Nursing Uniforms & Medical Scrubs at 1515 Town East Boulevard Suite 136 | Scrubs & Beyond Near Me", "phone": "(972) 279-3366", "website": "https://locations.scrubsandbeyond.com/tx/mesquite/scrubs-mesquite-tx-22.html", "opening_hours": "Mo-Fr 10:00-20:00; Sa 10:00-19:00; Su 12:00-18:00", "image": "https://s7d2.scene7.com/is/image/scrubsandbeyond/sb-tri-logo-large", "brand": "Scrubs and Beyond"}, "geometry": {"type": "Point", "coordinates": [-96.6214864, 32.8117738]}},
{"type": "Feature", "id": "r03d38pPF8okbUFuXa8f6j-BmWk=", "properties": {"ref": "https://locations.scrubsandbeyond.com/tx/sanantonio/scrubs-san-antonio-tx-525.html", "@spider": "scrubs_and_beyond", "addr:street_address": "7220 Louis Pasteur, Ste. 146 Ste. 146", "addr:city": "San Antonio", "addr:state": "TX", "addr:postcode": "78229", "name": "Nursing Uniforms & Medical Scrubs at 7220 Louis Pasteur, Ste. 146 | Scrubs & Beyond Near Me", "phone": "(210) 614-8888", "website": "https://locations.scrubsandbeyond.com/tx/sanantonio/scrubs-san-antonio-tx-525.html", "opening_hours": "Mo-Fr 09:00-19:00; Sa 09:00-17:00; Su 12:00-17:00", "image": "https://s7d2.scene7.com/is/image/scrubsandbeyond/sb-tri-logo-large", "brand": "Scrubs and Beyond"}, "geometry": {"type": "Point", "coordinates": [-98.5765063, 29.5008511]}},
{"type": "Feature", "id": "abus7h0GJu40gnb8o8VJ0ulx3QA=", "properties": {"ref": "https://locations.scrubsandbeyond.com/mi/flint/scrubs-flint-mi-153.html", "@spider": "scrubs_and_beyond", "addr:street_address": "Oak Brook Square 3192 Linden Road", "addr:city": "Flint", "addr:state": "MI", "addr:postcode": "48507", "name": "Nursing Uniforms & Medical Scrubs at Oak Brook Square 3192 Linden Road | Scrubs & Beyond Near Me", "phone": "(810) 733-5710", "website": "https://locations.scrubsandbeyond.com/mi/flint/scrubs-flint-mi-153.html", "opening_hours": "Mo-Fr 10:00-20:00; Sa 10:00-18:00; Su 12:00-17:00", "image": "https://s7d2.scene7.com/is/image/scrubsandbeyond/sb-tri-logo-large", "brand": "Scrubs and Beyond"}, "geometry": {"type": "Point", "coordinates": [-83.7741833, 42.9828292]}},
{"type": "Feature", "id": "cCm1zXh385t6mk8hyUmMLLM74Ws=", "properties": {"ref": "https://locations.scrubsandbeyond.com/mi/westland/scrubs-westland-mi-24.html", "@spider": "scrubs_and_beyond", "addr:street_address": "35695 Warren Rd", "addr:city": "Westland", "addr:state": "MI", "addr:postcode": "48185", "name": "Nursing Uniforms & Medical Scrubs at 35695 Warren Rd | Scrubs & Beyond Near Me", "phone": "(734) 326-5333", "website": "https://locations.scrubsandbeyond.com/mi/westland/scrubs-westland-mi-24.html", "opening_hours": "Mo-Fr 10:00-20:00; Sa 10:00-18:00; Su 12:00-17:00", "image": "https://s7d2.scene7.com/is/image/scrubsandbeyond/sb-tri-logo-large", "brand": "Scrubs and Beyond"}, "geometry": {"type": "Point", "coordinates": [-83.3954838, 42.3371588]}},
{"type": "Feature", "id": "D76_0wZIyM0JAQqD4ihjjuy7K4g=", "properties": {"ref": "https://locations.scrubsandbeyond.com/ar/littlerock/scrubs-little-rock-ar-105.html", "@spider": "scrubs_and_beyond", "addr:street_address": "12310 Chenal Parkway, Suite 101 Suite 101", "addr:city": "Little Rock", "addr:state": "AR", "addr:postcode": "72211", "name": "Nursing Uniforms & Medical Scrubs at 12310 Chenal Parkway, Suite 101 | Scrubs & Beyond Near Me", "phone": "(501) 664-1394", "website": "https://locations.scrubsandbeyond.com/ar/littlerock/scrubs-little-rock-ar-105.html", "opening_hours": "Mo-Sa 10:00-20:00; Su 12:00-17:00", "image": "https://s7d2.scene7.com/is/image/scrubsandbeyond/sb-tri-logo-large", "brand": "Scrubs and Beyond"}, "geometry": {"type": "Point", "coordinates": [-92.4118097, 34.7519034]}},
{"type": "Feature", "id": "Pnx6WV3U8DtvUuwHUpiS9e7gwno=", "properties": {"ref": "https://locations.scrubsandbeyond.com/in/indianapolis/scrubs-indianapolis-in-12.html", "@spider": "scrubs_and_beyond", "addr:street_address": "4205 East 82nd Street Suite 200 Suite 200", "addr:city": "Indianapolis", "addr:state": "IN", "addr:postcode": "46250", "name": "Nursing Uniforms & Medical Scrubs at 4205 East 82nd Street Suite 200 | Scrubs & Beyond Near Me", "phone": "(317) 570-1228", "website": "https://locations.scrubsandbeyond.com/in/indianapolis/scrubs-indianapolis-in-12.html", "opening_hours": "Mo-Sa 10:00-20:00; Su 12:00-17:00", "image": "https://s7d2.scene7.com/is/image/scrubsandbeyond/sb-tri-logo-large", "brand": "Scrubs and Beyond"}, "geometry": {"type": "Point", "coordinates": [-86.0958371, 39.9067162]}},
{"type": "Feature", "id": "vOdRyVuInFdNgd9HaY72GYnQTBE=", "properties": {"ref": "https://locations.scrubsandbeyond.com/oh/columbus/scrubs-columbus-oh-361.html", "@spider": "scrubs_and_beyond", "addr:street_address": "3864 Morse Road", "addr:city": "Columbus", "addr:state": "OH", "addr:postcode": "43219", "name": "Nursing Uniforms & Medical Scrubs at 3864 Morse Road | Scrubs & Beyond Near Me", "phone": "(614) 473-3333", "website": "https://locations.scrubsandbeyond.com/oh/columbus/scrubs-columbus-oh-361.html", "opening_hours": "Mo-Sa 10:00-18:00; Su 12:00-17:00", "image": "https://s7d2.scene7.com/is/image/scrubsandbeyond/sb-tri-logo-large", "brand": "Scrubs and Beyond"}, "geometry": {"type": "Point", "coordinates": [-82.9159503, 40.0601352]}},
{"type": "Feature", "id": "PmvE4Tya3rq29Fmv7vjdCkJFUVs=", "properties": {"ref": "https://locations.scrubsandbeyond.com/ny/henrietta/scrubs-henrietta-ny-511.html", "@spider": "scrubs_and_beyond", "addr:street_address": "100 Marketplace Drive Suite 330 Suite 330", "addr:city": "Henrietta", "addr:state": "NY", "addr:postcode": "14623", "name": "Nursing Uniforms & Medical Scrubs at 100 Marketplace Drive Suite 330 | Scrubs & Beyond Near Me", "phone": "(585) 424-1020", "website": "https://locations.scrubsandbeyond.com/ny/henrietta/scrubs-henrietta-ny-511.html", "opening_hours": "Mo-Fr 11:00-19:00; Sa 10:00-18:00; Su 12:00-17:00", "image": "https://s7d2.scene7.com/is/image/scrubsandbeyond/sb-tri-logo-large", "brand": "Scrubs and Beyond"}, "geometry": {"type": "Point", "coordinates": [-77.623174, 43.085719]}},
{"type": "Feature", "id": "N2JgaVozstf3LXGwaIUacuhE0as=", "properties": {"ref": "https://locations.scrubsandbeyond.com/sc/florence/scrubs-florence-sc-263.html", "@spider": "scrubs_and_beyond", "addr:street_address": "2861 David Mcleod Boulevard Sp 28", "addr:city": "Florence", "addr:state": "SC", "addr:postcode": "29501", "name": "Nursing Uniforms & Medical Scrubs at 2861 David Mcleod Boulevard Sp 28 | Scrubs & Beyond Near Me", "phone": "(843) 662-3868", "website": "https://locations.scrubsandbeyond.com/sc/florence/scrubs-florence-sc-263.html", "opening_hours": "Mo-Sa 10:00-20:00; Su 12:00-17:00", "image": "https://s7d2.scene7.com/is/image/scrubsandbeyond/sb-tri-logo-large", "brand": "Scrubs and Beyond"}, "geometry": {"type": "Point", "coordinates": [-79.840214, 34.193746]}},
{"type": "Feature", "id": "bsmLQg3lheRUARgV8qsg0GB-yDo=", "properties": {"ref": "https://locations.scrubsandbeyond.com/nj/totowa/scrubs-totowa-nj-406.html", "@spider": "scrubs_and_beyond", "addr:street_address": "195 Route 46 West", "addr:city": "Totowa", "addr:state": "NJ", "addr:postcode": "07512", "name": "Nursing Uniforms & Medical Scrubs at 195 Route 46 West | Scrubs & Beyond Near Me", "phone": "(973) 785-3084", "website": "https://locations.scrubsandbeyond.com/nj/totowa/scrubs-totowa-nj-406.html", "opening_hours": "Mo-Fr 10:00-20:00; Sa 10:00-19:00; Su 12:00-17:00", "image": "https://s7d2.scene7.com/is/image/scrubsandbeyond/sb-tri-logo-large", "brand": "Scrubs and Beyond"}, "geometry": {"type": "Point", "coordinates": [-74.22599, 40.894404]}},
{"type": "Feature", "id": "QfjkZrImaZ_TdnS84BEDXdoPLGE=", "properties": {"ref": "https://locations.scrubsandbeyond.com/ca/chico/scrubs-chico-ca-387.html", "@spider": "scrubs_and_beyond", "addr:street_address": "Fifth and Mangrove Avenue 1600 Mangrove Avenue, Suite 105 Suite 105", "addr:city": "Chico", "addr:state": "CA", "addr:postcode": "95926", "name": "Nursing Uniforms & Medical Scrubs at Fifth and Mangrove Avenue 1600 Mangrove Avenue, Suite 105 | Scrubs & Beyond Near Me", "phone": "(530) 894-4000", "website": "https://locations.scrubsandbeyond.com/ca/chico/scrubs-chico-ca-387.html", "opening_hours": "Mo-Sa 10:00-19:00; Su 12:00-17:00", "image": "https://s7d2.scene7.com/is/image/scrubsandbeyond/sb-tri-logo-large", "brand": "Scrubs and Beyond"}, "geometry": {"type": "Point", "coordinates": [-121.8410761, 39.7463671]}},
{"type": "Feature", "id": "MoIbimGWhk4jiK-6JcrlJSXDfEo=", "properties": {"ref": "https://locations.scrubsandbeyond.com/az/peoria/scrubs-peoria-az-33.html", "@spider": "scrubs_and_beyond", "addr:street_address": "9494 W Northern Ave Suite 112 Suite 112", "addr:city": "Peoria", "addr:state": "AZ", "addr:postcode": "85305", "name": "Nursing Uniforms & Medical Scrubs at 9494 W Northern Ave Suite 112 | Scrubs & Beyond Near Me", "phone": "(623) 872-2989", "website": "https://locations.scrubsandbeyond.com/az/peoria/scrubs-peoria-az-33.html", "opening_hours": "Mo-Fr 10:00-20:00; Sa 10:00-18:00; Su 11:00-17:00", "image": "https://s7d2.scene7.com/is/image/scrubsandbeyond/sb-tri-logo-large", "brand": "Scrubs and Beyond"}, "geometry": {"type": "Point", "coordinates": [-112.2631972, 33.5522328]}},
{"type": "Feature", "id": "VSVeOY_AXPhS9fCtpYuGES3sn5c=", "properties": {"ref": "https://locations.scrubsandbeyond.com/mi/utica/scrubs-utica-mi-344.html", "@spider": "scrubs_and_beyond", "addr:street_address": "8873 Hall Road", "addr:city": "Utica", "addr:state": "MI", "addr:postcode": "48317", "name": "Nursing Uniforms & Medical Scrubs at 8873 Hall Road | Scrubs & Beyond Near Me", "phone": "(586) 323-3364", "website": "https://locations.scrubsandbeyond.com/mi/utica/scrubs-utica-mi-344.html", "opening_hours": "Mo-Fr 10:00-20:00; Sa 10:00-18:00; Su 12:00-17:00", "image": "https://s7d2.scene7.com/is/image/scrubsandbeyond/sb-tri-logo-large", "brand": "Scrubs and Beyond"}, "geometry": {"type": "Point", "coordinates": [-83.023096, 42.626625]}},
{"type": "Feature", "id": "ZwIFoUBakWf6GLXf802lCT6Yvo8=", "properties": {"ref": "https://locations.scrubsandbeyond.com/ca/modesto/scrubs-modesto-ca-312.html", "@spider": "scrubs_and_beyond", "addr:street_address": "Central Valley Plaza Space 2225 Plaza Parkway, Ste C-15/16 Ste C-15/16", "addr:city": "Modesto", "addr:state": "CA", "addr:postcode": "95350", "name": "Nursing Uniforms & Medical Scrubs at Central Valley Plaza Space 2225 Plaza Parkway, Ste C-15/16 | Scrubs & Beyond Near Me", "phone": "(209) 527-6028", "website": "https://locations.scrubsandbeyond.com/ca/modesto/scrubs-modesto-ca-312.html", "opening_hours": "Mo-Fr 10:00-20:00; Sa 10:00-18:00; Su 12:00-17:00", "image": "https://s7d2.scene7.com/is/image/scrubsandbeyond/sb-tri-logo-large", "brand": "Scrubs and Beyond"}, "geometry": {"type": "Point", "coordinates": [-121.0368151, 37.6726571]}},
{"type": "Feature", "id": "yxiGF4JVgy7nUHz_O5ht2LVz6p0=", "properties": {"ref": "https://locations.scrubsandbeyond.com/mi/portage/scrubs-portage-mi-186.html", "@spider": "scrubs_and_beyond", "addr:street_address": "6749 South Westnedge Ave. Suite H Suite H", "addr:city": "Portage", "addr:state": "MI", "addr:postcode": "49002", "name": "Nursing Uniforms & Medical Scrubs at 6749 South Westnedge Ave. Suite H | Scrubs & Beyond Near Me", "phone": "(269) 323-0301", "website": "https://locations.scrubsandbeyond.com/mi/portage/scrubs-portage-mi-186.html", "opening_hours": "Mo-Fr 10:00-20:00; Sa 10:00-18:00; Su 12:00-17:00", "image": "https://s7d2.scene7.com/is/image/scrubsandbeyond/sb-tri-logo-large", "brand": "Scrubs and Beyond"}, "geometry": {"type": "Point", "coordinates": [-85.5876824, 42.2183255]}},
{"type": "Feature", "id": "s5CuX3-TWBI37XLUIaGATsw-RBY=", "properties": {"ref": "https://locations.scrubsandbeyond.com/mi/southgate/scrubs-southgate-mi-152.html", "@spider": "scrubs_and_beyond", "addr:street_address": "16134 Eureka Road", "addr:city": "Southgate", "addr:state": "MI", "addr:postcode": "48195", "name": "Nursing Uniforms & Medical Scrubs at 16134 Eureka Road | Scrubs & Beyond Near Me", "phone": "(734) 282-0505", "website": "https://locations.scrubsandbeyond.com/mi/southgate/scrubs-southgate-mi-152.html", "opening_hours": "Mo-Fr 10:00-20:00; Sa 10:00-18:00; Su 12:00-17:00", "image": "https://s7d2.scene7.com/is/image/scrubsandbeyond/sb-tri-logo-large", "brand": "Scrubs and Beyond"}, "geometry": {"type": "Point", "coordinates": [-83.2193758, 42.1992383]}},
{"type": "Feature", "id": "KrOwFdqPlHvMkbbwcg91nUz83C8=", "properties": {"ref": "https://locations.scrubsandbeyond.com/nc/durham/scrubs-durham-nc-31.html", "@spider": "scrubs_and_beyond", "addr:street_address": "7001 Fayetteville Rd Suite 108 Suite 108", "addr:city": "Durham", "addr:state": "NC", "addr:postcode": "27713", "name": "Nursing Uniforms & Medical Scrubs at 7001 Fayetteville Rd Suite 108 | Scrubs & Beyond Near Me", "phone": "(919) 484-0000", "website": "https://locations.scrubsandbeyond.com/nc/durham/scrubs-durham-nc-31.html", "opening_hours": "Mo-Fr 10:00-20:00; Sa 10:00-18:00; Su 12:00-17:00", "image": "https://s7d2.scene7.com/is/image/scrubsandbeyond/sb-tri-logo-large", "brand": "Scrubs and Beyond"}, "geometry": {"type": "Point", "coordinates": [-78.9365469, 35.9024949]}},
{"type": "Feature", "id": "i67PYr6MRJJuUjwaSyopC7ubk_k=", "properties": {"ref": "https://locations.scrubsandbeyond.com/oh/westchester/scrubs-west-chester-oh-27.html", "@spider": "scrubs_and_beyond", "addr:street_address": "7612 Voice of America Center Space 12 Space 12", "addr:city": "West Chester", "addr:state": "OH", "addr:postcode": "45069", "name": "Nursing Uniforms & Medical Scrubs at 7612 Voice of America Center Space 12 | Scrubs & Beyond Near Me", "phone": "(513) 755-6101", "website": "https://locations.scrubsandbeyond.com/oh/westchester/scrubs-west-chester-oh-27.html", "opening_hours": "Mo-Fr 10:00-20:00; Sa 10:00-18:00; Su 12:00-17:00", "image": "https://s7d2.scene7.com/is/image/scrubsandbeyond/sb-tri-logo-large", "brand": "Scrubs and Beyond"}, "geometry": {"type": "Point", "coordinates": [-84.361035, 39.35753]}},
{"type": "Feature", "id": "dM6Zn2K7QlwUFoPJfidhtlLWmaA=", "properties": {"ref": "https://locations.scrubsandbeyond.com/mi/troy/scrubs-troy-mi-25.html", "@spider": "scrubs_and_beyond", "addr:street_address": "1973 West Maple Rd", "addr:city": "Troy", "addr:state": "MI", "addr:postcode": "48084", "name": "Nursing Uniforms & Medical Scrubs at 1973 West Maple Rd | Scrubs & Beyond Near Me", "phone": "(248) 288-7514", "website": "https://locations.scrubsandbeyond.com/mi/troy/scrubs-troy-mi-25.html", "opening_hours": "Mo-Fr 10:00-20:00; Sa 10:00-18:00; Su 12:00-17:00", "image": "https://s7d2.scene7.com/is/image/scrubsandbeyond/sb-tri-logo-large", "brand": "Scrubs and Beyond"}, "geometry": {"type": "Point", "coordinates": [-83.1719562, 42.5459685]}},
{"type": "Feature", "id": "n73aYVqXw8qtoitYhqBLwDVli18=", "properties": {"ref": "https://locations.scrubsandbeyond.com/in/indianapolis/scrubs-indianapolis-in-20.html", "@spider": "scrubs_and_beyond", "addr:street_address": "6810 South Emerson Drive Suite D Suite D", "addr:city": "Indianapolis", "addr:state": "IN", "addr:postcode": "46237", "name": "Nursing Uniforms & Medical Scrubs at 6810 South Emerson Drive Suite D | Scrubs & Beyond Near Me", "phone": "(317) 784-8664", "website": "https://locations.scrubsandbeyond.com/in/indianapolis/scrubs-indianapolis-in-20.html", "opening_hours": "Mo-Fr 10:00-20:00; Sa 10:00-18:00; Su 12:00-17:00", "image": "https://s7d2.scene7.com/is/image/scrubsandbeyond/sb-tri-logo-large", "brand": "Scrubs and Beyond"}, "geometry": {"type": "Point", "coordinates": [-86.083248, 39.668443]}},
{"type": "Feature", "id": "75NDHoIQ542JCSEfi9zNVfNvSfs=", "properties": {"ref": "https://locations.scrubsandbeyond.com/pa/westreading/scrubs-west-reading-pa-420.html", "@spider": "scrubs_and_beyond", "addr:street_address": "535 Penn Avenue", "addr:city": "West Reading", "addr:state": "PA", "addr:postcode": "19611", "name": "Nursing Uniforms & Medical Scrubs at 535 Penn Avenue | Scrubs & Beyond Near Me", "phone": "(610) 374-4528", "website": "https://locations.scrubsandbeyond.com/pa/westreading/scrubs-west-reading-pa-420.html", "opening_hours": "Mo-Fr 10:00-19:00; Sa 10:00-18:00; Su 12:00-17:00", "image": "https://s7d2.scene7.com/is/image/scrubsandbeyond/sb-tri-logo-large", "brand": "Scrubs and Beyond"}, "geometry": {"type": "Point", "coordinates": [-75.948768, 40.3357249]}},
{"type": "Feature", "id": "ReTDJ3haZj4Cygp0H1RJ_wqeEN4=", "properties": {"ref": "https://locations.scrubsandbeyond.com/ca/citrusheights/scrubs-citrus-heights-ca-395.html", "@spider": "scrubs_and_beyond", "addr:street_address": "7877 Greenback Lane", "addr:city": "Citrus Heights", "addr:state": "CA", "addr:postcode": "95610", "name": "Nursing Uniforms & Medical Scrubs at 7877 Greenback Lane | Scrubs & Beyond Near Me", "phone": "(916) 969-2448", "website": "https://locations.scrubsandbeyond.com/ca/citrusheights/scrubs-citrus-heights-ca-395.html", "opening_hours": "Mo-Fr 10:00-19:00; Sa 10:00-18:00; Su 12:00-17:00", "image": "https://s7d2.scene7.com/is/image/scrubsandbeyond/sb-tri-logo-large", "brand": "Scrubs and Beyond"}, "geometry": {"type": "Point", "coordinates": [-121.2731559, 38.6790205]}},
{"type": "Feature", "id": "UVKBeISe2SoeeweS7siKfQS3MbQ=", "properties": {"ref": "https://locations.scrubsandbeyond.com/ca/fresno/scrubs-fresno-ca-393.html", "@spider": "scrubs_and_beyond", "addr:street_address": "343 East Shaw Avenue", "addr:city": "Fresno", "addr:state": "CA", "addr:postcode": "93710", "name": "Nursing Uniforms & Medical Scrubs at 343 East Shaw Avenue | Scrubs & Beyond Near Me", "phone": "(559) 222-5454", "website": "https://locations.scrubsandbeyond.com/ca/fresno/scrubs-fresno-ca-393.html", "opening_hours": "Mo-Fr 10:00-19:00; Sa 10:00-18:00; Su 12:00-17:00", "image": "https://s7d2.scene7.com/is/image/scrubsandbeyond/sb-tri-logo-large", "brand": "Scrubs and Beyond"}, "geometry": {"type": "Point", "coordinates": [-119.7826305, 36.808013]}},
{"type": "Feature", "id": "YyNo1yKPJNYBfancBr5n6tcKzj4=", "properties": {"ref": "https://locations.scrubsandbeyond.com/il/niles/scrubs-niles-il-333.html", "@spider": "scrubs_and_beyond", "addr:street_address": "8808 W Dempster Street", "addr:city": "Niles", "addr:state": "IL", "addr:postcode": "60714", "name": "Nursing Uniforms & Medical Scrubs at 8808 W Dempster Street | Scrubs & Beyond Near Me", "phone": "(847) 297-6252", "website": "https://locations.scrubsandbeyond.com/il/niles/scrubs-niles-il-333.html", "opening_hours": "Mo-Fr 10:00-19:00; Sa 10:00-18:00; Su 12:00-17:00", "image": "https://s7d2.scene7.com/is/image/scrubsandbeyond/sb-tri-logo-large", "brand": "Scrubs and Beyond"}, "geometry": {"type": "Point", "coordinates": [-87.8453776, 42.040481]}},
{"type": "Feature", "id": "PvHs9CcPyNshQHvXuOuhsPLAUyQ=", "properties": {"ref": "https://locations.scrubsandbeyond.com/mi/annarbor/scrubs-ann-arbor-mi-144.html", "@spider": "scrubs_and_beyond", "addr:street_address": "3500 Washtenaw       Suite H Suite H", "addr:city": "Ann Arbor", "addr:state": "MI", "addr:postcode": "48104", "name": "Nursing Uniforms & Medical Scrubs at 3500 Washtenaw       Suite H | Scrubs & Beyond Near Me", "phone": "(734) 973-1820", "website": "https://locations.scrubsandbeyond.com/mi/annarbor/scrubs-ann-arbor-mi-144.html", "opening_hours": "Mo-Sa 10:00-20:00; Su 12:00-18:00", "image": "https://s7d2.scene7.com/is/image/scrubsandbeyond/sb-tri-logo-large", "brand": "Scrubs and Beyond"}, "geometry": {"type": "Point", "coordinates": [-83.689459, 42.254774]}},
{"type": "Feature", "id": "YGqOj650bxp70xBBq-QZUJPtqUU=", "properties": {"ref": "https://locations.scrubsandbeyond.com/ok/oklahomacity/scrubs-oklahoma-city-ok-531.html", "@spider": "scrubs_and_beyond", "addr:street_address": "Quailbrook Plaza, 4401 West Memorial Road, Suite 109 Suite 109", "addr:city": "Oklahoma City", "addr:state": "OK", "addr:postcode": "73134", "name": "Nursing Uniforms & Medical Scrubs at Quailbrook Plaza, 4401 West Memorial Road, Suite 109 | Scrubs & Beyond Near Me", "phone": "(405) 302-5196", "website": "https://locations.scrubsandbeyond.com/ok/oklahomacity/scrubs-oklahoma-city-ok-531.html", "opening_hours": "Mo-Fr 09:00-19:00; Sa 10:00-18:00; Su 11:00-17:00", "image": "https://s7d2.scene7.com/is/image/scrubsandbeyond/sb-tri-logo-large", "brand": "Scrubs and Beyond"}, "geometry": {"type": "Point", "coordinates": [-97.6025269, 35.611953]}},
{"type": "Feature", "id": "BnW8xnNvVRHbpv_CW48HV9HRuMw=", "properties": {"ref": "https://locations.scrubsandbeyond.com/ny/centralvalley/scrubs-central-valley-ny-18.html", "@spider": "scrubs_and_beyond", "addr:street_address": "11 Centre Drive", "addr:city": "Central Valley", "addr:state": "NY", "addr:postcode": "10917", "name": "Nursing Uniforms & Medical Scrubs at 11 Centre Drive | Scrubs & Beyond Near Me", "phone": "(845) 782-2104", "website": "https://locations.scrubsandbeyond.com/ny/centralvalley/scrubs-central-valley-ny-18.html", "opening_hours": "Mo-Fr 10:00-19:00; Sa 10:00-18:00; Su 12:00-17:00", "image": "https://s7d2.scene7.com/is/image/scrubsandbeyond/sb-tri-logo-large", "brand": "Scrubs and Beyond"}, "geometry": {"type": "Point", "coordinates": [-74.1329567, 41.3144698]}},
{"type": "Feature", "id": "XYJ2DGnmFka3_Lj6VcFODoU5ZaE=", "properties": {"ref": "https://locations.scrubsandbeyond.com/mo/saintlouis/scrubs-saint-louis-mo-509.html", "@spider": "scrubs_and_beyond", "addr:street_address": "Kennerly Plaza 9954 Kennerly Road", "addr:city": "Saint Louis", "addr:state": "MO", "addr:postcode": "63128", "name": "Nursing Uniforms & Medical Scrubs at Kennerly Plaza 9954 Kennerly Road | Scrubs & Beyond Near Me", "phone": "(314) 843-2588", "website": "https://locations.scrubsandbeyond.com/mo/saintlouis/scrubs-saint-louis-mo-509.html", "opening_hours": "Mo-Fr 07:30-18:30; Sa 10:00-17:00; Su 12:00-17:00", "image": "https://s7d2.scene7.com/is/image/scrubsandbeyond/sb-tri-logo-large", "brand": "Scrubs and Beyond"}, "geometry": {"type": "Point", "coordinates": [-90.3771573, 38.5065124]}},
{"type": "Feature", "id": "ercQXNl4420iU0caKYXLtk4i3UM=", "properties": {"ref": "https://locations.scrubsandbeyond.com/nj/elizabeth/scrubs-elizabeth-nj-11.html", "@spider": "scrubs_and_beyond", "addr:street_address": "651 Kapkowski Road Space 2260 Space 2260", "addr:city": "Elizabeth", "addr:state": "NJ", "addr:postcode": "07201", "name": "Nursing Uniforms & Medical Scrubs at 651 Kapkowski Road Space 2260 | Scrubs & Beyond Near Me", "phone": "(908) 558-1661", "website": "https://locations.scrubsandbeyond.com/nj/elizabeth/scrubs-elizabeth-nj-11.html", "opening_hours": "Mo-Sa 10:00-21:00; Su 11:00-19:00", "image": "https://s7d2.scene7.com/is/image/scrubsandbeyond/sb-tri-logo-large", "brand": "Scrubs and Beyond"}, "geometry": {"type": "Point", "coordinates": [-74.1729506, 40.660622]}},
{"type": "Feature", "id": "Sulbk4skZPVHtzxeAD7x-U_R6V4=", "properties": {"ref": "https://locations.scrubsandbeyond.com/tx/sanantonio/scrubs-san-antonio-tx-432.html", "@spider": "scrubs_and_beyond", "addr:street_address": "5511 W. Loop 1604 N. #107 #107", "addr:city": "San Antonio", "addr:state": "TX", "addr:postcode": "78253", "name": "Nursing Uniforms & Medical Scrubs at 5511 W. Loop 1604 N. #107 | Scrubs & Beyond Near Me", "phone": "(210) 231-0557", "website": "https://locations.scrubsandbeyond.com/tx/sanantonio/scrubs-san-antonio-tx-432.html", "opening_hours": "Mo-Sa 10:00-21:00; Su 11:00-18:00", "image": "https://s7d2.scene7.com/is/image/scrubsandbeyond/sb-tri-logo-large", "brand": "Scrubs and Beyond"}, "geometry": {"type": "Point", "coordinates": [-98.7091489, 29.4904157]}},
{"type": "Feature", "id": "or1l_Ncc7RcMHAW3Zl8XXNFrjIw=", "properties": {"ref": "https://locations.scrubsandbeyond.com/pa/lancaster/scrubs-lancaster-pa-413.html", "@spider": "scrubs_and_beyond", "addr:street_address": "850 Plaza Blvd.", "addr:city": "Lancaster", "addr:state": "PA", "addr:postcode": "17601", "name": "Nursing Uniforms & Medical Scrubs at 850 Plaza Blvd. | Scrubs & Beyond Near Me", "phone": "(717) 394-7333", "website": "https://locations.scrubsandbeyond.com/pa/lancaster/scrubs-lancaster-pa-413.html", "opening_hours": "Mo-Sa 10:00-20:00; Su 12:00-17:00", "image": "https://s7d2.scene7.com/is/image/scrubsandbeyond/sb-tri-logo-large", "brand": "Scrubs and Beyond"}, "geometry": {"type": "Point", "coordinates": [-76.3433502, 40.0703797]}},
{"type": "Feature", "id": "WbDc_3zpOdC0MaQcesmcHEwKmGk=", "properties": {"ref": "https://locations.scrubsandbeyond.com/pa/erie/scrubs-erie-pa-265.html", "@spider": "scrubs_and_beyond", "addr:street_address": "625 Millcreek Mall", "addr:city": "Erie", "addr:state": "PA", "addr:postcode": "16565", "name": "Nursing Uniforms & Medical Scrubs at 625 Millcreek Mall | Scrubs & Beyond Near Me", "phone": "(814) 864-0314", "website": "https://locations.scrubsandbeyond.com/pa/erie/scrubs-erie-pa-265.html", "opening_hours": "Mo-Sa 10:00-20:00; Su 11:00-18:00", "image": "https://s7d2.scene7.com/is/image/scrubsandbeyond/sb-tri-logo-large", "brand": "Scrubs and Beyond"}, "geometry": {"type": "Point", "coordinates": [-80.098861, 42.069925]}},
{"type": "Feature", "id": "eF0ECPMqC828aXj7fHR8iVyVaGU=", "properties": {"ref": "https://locations.scrubsandbeyond.com/il/shiloh/scrubs-shiloh-il-182.html", "@spider": "scrubs_and_beyond", "addr:street_address": "3640 Green Mount Crossing Drive", "addr:city": "Shiloh", "addr:state": "IL", "addr:postcode": "62269", "name": "Nursing Uniforms & Medical Scrubs at 3640 Green Mount Crossing Drive | Scrubs & Beyond Near Me", "phone": "(618) 624-3523", "website": "https://locations.scrubsandbeyond.com/il/shiloh/scrubs-shiloh-il-182.html", "opening_hours": "Mo-Sa 10:00-18:00; Su 10:00-17:00", "image": "https://s7d2.scene7.com/is/image/scrubsandbeyond/sb-tri-logo-large", "brand": "Scrubs and Beyond"}, "geometry": {"type": "Point", "coordinates": [-89.9237538, 38.571847]}},
{"type": "Feature", "id": "HhNUzJqqMRoJvqMUNFlAxOozwrI=", "properties": {"ref": "https://locations.scrubsandbeyond.com/co/lakewood/scrubs-lakewood-co-16.html", "@spider": "scrubs_and_beyond", "addr:street_address": "14500 West  Colfax Ave Space 538 Space 538", "addr:city": "Lakewood", "addr:state": "CO", "addr:postcode": "80401", "name": "Nursing Uniforms & Medical Scrubs at 14500 West  Colfax Ave Space 538 | Scrubs & Beyond Near Me", "phone": "(303) 590-1666", "website": "https://locations.scrubsandbeyond.com/co/lakewood/scrubs-lakewood-co-16.html", "opening_hours": "Mo-Sa 10:00-19:00; Su 11:00-18:00", "image": "https://s7d2.scene7.com/is/image/scrubsandbeyond/sb-tri-logo-large", "brand": "Scrubs and Beyond"}, "geometry": {"type": "Point", "coordinates": [-105.1585621, 39.7315952]}},
{"type": "Feature", "id": "IhTypRRVMZ6w1ZHPQRBC28X-U84=", "properties": {"ref": "https://locations.scrubsandbeyond.com/mn/burnsville/scrubs-burnsville-mn-348.html", "@spider": "scrubs_and_beyond", "addr:street_address": "13947 Aldrich Ave South Ste A Suite A", "addr:city": "Burnsville", "addr:state": "MN", "addr:postcode": "55337", "name": "Nursing Uniforms & Medical Scrubs at 13947 Aldrich Ave South Ste A | Scrubs & Beyond Near Me", "phone": "(952) 435-7776", "website": "https://locations.scrubsandbeyond.com/mn/burnsville/scrubs-burnsville-mn-348.html", "opening_hours": "Mo-Fr 10:00-20:00; Sa 10:00-19:00; Su 11:00-18:00", "image": "https://s7d2.scene7.com/is/image/scrubsandbeyond/sb-tri-logo-large", "brand": "Scrubs and Beyond"}, "geometry": {"type": "Point", "coordinates": [-93.2860419, 44.7499512]}},
{"type": "Feature", "id": "w3gG8io4COutucy7RFGTCgBdcCo=", "properties": {"ref": "https://locations.scrubsandbeyond.com/il/rockford/scrubs-rockford-il-336.html", "@spider": "scrubs_and_beyond", "addr:street_address": "6610 E. State Street", "addr:city": "Rockford", "addr:state": "IL", "addr:postcode": "61108", "name": "Nursing Uniforms & Medical Scrubs at 6610 E. State Street | Scrubs & Beyond Near Me", "phone": "(779) 423-2551", "website": "https://locations.scrubsandbeyond.com/il/rockford/scrubs-rockford-il-336.html", "opening_hours": "Mo-Sa 10:00-20:00; Su 11:00-18:00", "image": "https://s7d2.scene7.com/is/image/scrubsandbeyond/sb-tri-logo-large", "brand": "Scrubs and Beyond"}, "geometry": {"type": "Point", "coordinates": [-88.9877127, 42.2685781]}},
{"type": "Feature", "id": "bSH3kvzi8htseNhylEt936EcL84=", "properties": {"ref": "https://locations.scrubsandbeyond.com/wi/brookfield/scrubs-brookfield-wi-231.html", "@spider": "scrubs_and_beyond", "addr:street_address": "17395A West Bluemound Rd.", "addr:city": "Brookfield", "addr:state": "WI", "addr:postcode": "53045", "name": "Nursing Uniforms & Medical Scrubs at 17395A West Bluemound Rd. | Scrubs & Beyond Near Me", "phone": "(262) 641-8164", "website": "https://locations.scrubsandbeyond.com/wi/brookfield/scrubs-brookfield-wi-231.html", "opening_hours": "Mo 10:00-18:00; Tu-Th 10:00-14:30; Fr-Su 10:00-18:00", "image": "https://s7d2.scene7.com/is/image/scrubsandbeyond/sb-tri-logo-large", "brand": "Scrubs and Beyond"}, "geometry": {"type": "Point", "coordinates": [-88.128874, 43.035756]}},
{"type": "Feature", "id": "7G-O0IfRB5hKlo1TLRyNbzjxpWo=", "properties": {"ref": "https://locations.scrubsandbeyond.com/ca/upland/scrubs-upland-ca-306.html", "@spider": "scrubs_and_beyond", "addr:street_address": "1271 East 19th Street", "addr:city": "Upland", "addr:state": "CA", "addr:postcode": "91784", "name": "Nursing Uniforms & Medical Scrubs at 1271 East 19th Street | Scrubs & Beyond Near Me", "phone": "(909) 920-0556", "website": "https://locations.scrubsandbeyond.com/ca/upland/scrubs-upland-ca-306.html", "opening_hours": "Mo-Sa 10:00-20:00; Su 11:00-18:00", "image": "https://s7d2.scene7.com/is/image/scrubsandbeyond/sb-tri-logo-large", "brand": "Scrubs and Beyond"}, "geometry": {"type": "Point", "coordinates": [-117.6335249, 34.132482]}},
{"type": "Feature", "id": "PaO1GzE129sS2FlBE4s1EsL_nu4=", "properties": {"ref": "https://locations.scrubsandbeyond.com/nv/lasvegas/scrubs-las-vegas-nv-34.html", "@spider": "scrubs_and_beyond", "addr:street_address": "9771 S. Eastern Ave. Ste 105", "addr:city": "Las Vegas", "addr:state": "NV", "addr:postcode": "89183", "name": "Nursing Uniforms & Medical Scrubs at 9771 S. Eastern Ave. Ste 105 | Scrubs & Beyond Near Me", "phone": "(702) 361-3905", "website": "https://locations.scrubsandbeyond.com/nv/lasvegas/scrubs-las-vegas-nv-34.html", "opening_hours": "Mo-Sa 10:00-20:00; Su 11:00-18:00", "image": "https://s7d2.scene7.com/is/image/scrubsandbeyond/sb-tri-logo-large", "brand": "Scrubs and Beyond"}, "geometry": {"type": "Point", "coordinates": [-115.1199427, 36.0115367]}},
{"type": "Feature", "id": "h05SxXYf6PBuWC4T3zvHcPs0dgo=", "properties": {"ref": "https://locations.scrubsandbeyond.com/mn/roseville/scrubs-roseville-mn-350.html", "@spider": "scrubs_and_beyond", "addr:street_address": "2480 Fairview Ave. N, Ste 150 Ste 150", "addr:city": "Roseville", "addr:state": "MN", "addr:postcode": "55113", "name": "Nursing Uniforms & Medical Scrubs at 2480 Fairview Ave. N, Ste 150 | Scrubs & Beyond Near Me", "phone": "(651) 636-1388", "website": "https://locations.scrubsandbeyond.com/mn/roseville/scrubs-roseville-mn-350.html", "opening_hours": "Mo-Sa 10:00-17:30; Su 11:00-17:00", "image": "https://s7d2.scene7.com/is/image/scrubsandbeyond/sb-tri-logo-large", "brand": "Scrubs and Beyond"}, "geometry": {"type": "Point", "coordinates": [-93.1760251, 45.0164739]}},
{"type": "Feature", "id": "pCloTTzRzyld1hUgHLnwIJ_DMR0=", "properties": {"ref": "https://locations.scrubsandbeyond.com/wa/tukwila/scrubs-tukwila-wa-164.html", "@spider": "scrubs_and_beyond", "addr:street_address": "17340 Southcenter Parkway", "addr:city": "Tukwila", "addr:state": "WA", "addr:postcode": "98188", "name": "Nursing Uniforms & Medical Scrubs at 17340 Southcenter Parkway | Scrubs & Beyond Near Me", "phone": "(206) 246-4412", "website": "https://locations.scrubsandbeyond.com/wa/tukwila/scrubs-tukwila-wa-164.html", "opening_hours": "Mo-Fr 10:00-19:00; Sa 10:00-18:00; Su 11:00-18:00", "image": "https://s7d2.scene7.com/is/image/scrubsandbeyond/sb-tri-logo-large", "brand": "Scrubs and Beyond"}, "geometry": {"type": "Point", "coordinates": [-122.2602786, 47.448348]}},
{"type": "Feature", "id": "t6s0OLOvRdUiJQaNQR3FNumJkgU=", "properties": {"ref": "https://locations.scrubsandbeyond.com/wi/madison/scrubs-madison-wi-371.html", "@spider": "scrubs_and_beyond", "addr:street_address": "4640 E Washington Ave", "addr:city": "Madison", "addr:state": "WI", "addr:postcode": "53704", "name": "Nursing Uniforms & Medical Scrubs at 4640 E Washington Ave | Scrubs & Beyond Near Me", "phone": "(608) 244-8365", "website": "https://locations.scrubsandbeyond.com/wi/madison/scrubs-madison-wi-371.html", "opening_hours": "Mo-Fr 10:00-20:00; Sa 10:00-18:00; Su 11:00-18:00", "image": "https://s7d2.scene7.com/is/image/scrubsandbeyond/sb-tri-logo-large", "brand": "Scrubs and Beyond"}, "geometry": {"type": "Point", "coordinates": [-89.3053089, 43.1313646]}},
{"type": "Feature", "id": "Z1rwcoCmzddFPI96DpLWG3rhU9Y=", "properties": {"ref": "https://locations.scrubsandbeyond.com/mo/independence/scrubs-independence-mo-352.html", "@spider": "scrubs_and_beyond", "addr:street_address": "19010B East 39th Street", "addr:city": "Independence", "addr:state": "MO", "addr:postcode": "64057", "name": "Nursing Uniforms & Medical Scrubs at 19010B East 39th Street | Scrubs & Beyond Near Me", "phone": "(816) 795-0888", "website": "https://locations.scrubsandbeyond.com/mo/independence/scrubs-independence-mo-352.html", "opening_hours": "Mo-Fr 10:00-20:00; Sa 10:00-18:00; Su 11:00-18:00", "image": "https://s7d2.scene7.com/is/image/scrubsandbeyond/sb-tri-logo-large", "brand": "Scrubs and Beyond"}, "geometry": {"type": "Point", "coordinates": [-94.355823, 39.050003]}},
{"type": "Feature", "id": "J6QzBkWB1uDjbw5pxGsl2d9JOqs=", "properties": {"ref": "https://locations.scrubsandbeyond.com/ks/overlandpark/scrubs-overland-park-ks-483.html", "@spider": "scrubs_and_beyond", "addr:street_address": "6951 W. 119th Street Suite B Suite B", "addr:city": "Overland Park", "addr:state": "KS", "addr:postcode": "66209", "name": "Nursing Uniforms & Medical Scrubs at 6951 W. 119th Street Suite B | Scrubs & Beyond Near Me", "phone": "(913) 901-9242", "website": "https://locations.scrubsandbeyond.com/ks/overlandpark/scrubs-overland-park-ks-483.html", "opening_hours": "Mo-Fr 10:00-17:00; Sa 10:00-18:00; Su 12:00-16:00", "image": "https://s7d2.scene7.com/is/image/scrubsandbeyond/sb-tri-logo-large", "brand": "Scrubs and Beyond"}, "geometry": {"type": "Point", "coordinates": [-94.665622, 38.9125402]}},
{"type": "Feature", "id": "H2T64uqaRxRzK3mM91VAjWqY1Qo=", "properties": {"ref": "https://locations.scrubsandbeyond.com/or/salem/scrubs-salem-or-374.html", "@spider": "scrubs_and_beyond", "addr:street_address": "1112 Lancaster Drive NE", "addr:city": "Salem", "addr:state": "OR", "addr:postcode": "97301", "name": "Nursing Uniforms & Medical Scrubs at 1112 Lancaster Drive NE | Scrubs & Beyond Near Me", "phone": "(503) 364-9923", "website": "https://locations.scrubsandbeyond.com/or/salem/scrubs-salem-or-374.html", "opening_hours": "Mo-Fr 10:00-19:00; Sa 10:00-18:00; Su 11:00-18:00", "image": "https://s7d2.scene7.com/is/image/scrubsandbeyond/sb-tri-logo-large", "brand": "Scrubs and Beyond"}, "geometry": {"type": "Point", "coordinates": [-122.9825106, 44.9436582]}},
{"type": "Feature", "id": "PfQYLI1laScWRB7J_C-pqhMsZaE=", "properties": {"ref": "https://locations.scrubsandbeyond.com/nm/albuquerque/scrubs-albuquerque-nm-162.html", "@spider": "scrubs_and_beyond", "addr:street_address": "Montgomery Plaza 5001 Montgomery Blvd. NE, Suite A-21-C Suite A-21-C", "addr:city": "Albuquerque", "addr:state": "NM", "addr:postcode": "87109", "name": "Nursing Uniforms & Medical Scrubs at Montgomery Plaza 5001 Montgomery Blvd. NE, Suite A-21-C | Scrubs & Beyond Near Me", "phone": "(505) 881-7877", "website": "https://locations.scrubsandbeyond.com/nm/albuquerque/scrubs-albuquerque-nm-162.html", "opening_hours": "Mo-Sa 09:00-19:00; Su 11:00-17:00", "image": "https://s7d2.scene7.com/is/image/scrubsandbeyond/sb-tri-logo-large", "brand": "Scrubs and Beyond"}, "geometry": {"type": "Point", "coordinates": [-106.587975, 35.1327927]}},
{"type": "Feature", "id": "39mrJPI-LEp6InINWdX4SLqOw48=", "properties": {"ref": "https://locations.scrubsandbeyond.com/tx/houston/scrubs-houston-tx-36.html", "@spider": "scrubs_and_beyond", "addr:street_address": "7205 Fannin Street", "addr:city": "Houston", "addr:state": "TX", "addr:postcode": "77030", "name": "Nursing Uniforms & Medical Scrubs at 7205 Fannin Street | Scrubs & Beyond Near Me", "phone": "(713) 791-9434", "website": "https://locations.scrubsandbeyond.com/tx/houston/scrubs-houston-tx-36.html", "opening_hours": "Mo-Fr 08:00-20:00; Sa 09:00-18:00; Su 11:00-17:00", "image": "https://s7d2.scene7.com/is/image/scrubsandbeyond/sb-tri-logo-large", "brand": "Scrubs and Beyond"}, "geometry": {"type": "Point", "coordinates": [-95.4010315, 29.6986654]}},
{"type": "Feature", "id": "zYZnOOcwPmV9AjQMXOf6mmTJpDg=", "properties": {"ref": "https://locations.scrubsandbeyond.com/pa/monroeville/scrubs-monroeville-pa-415.html", "@spider": "scrubs_and_beyond", "addr:street_address": "Miracle Mile Shopping Center 4060 William Penn Highway, #54 #54", "addr:city": "Monroeville", "addr:state": "PA", "addr:postcode": "15146", "name": "Nursing Uniforms & Medical Scrubs at Miracle Mile Shopping Center 4060 William Penn Highway, #54 | Scrubs & Beyond Near Me", "phone": "(412) 856-8222", "website": "https://locations.scrubsandbeyond.com/pa/monroeville/scrubs-monroeville-pa-415.html", "opening_hours": "Mo-Fr 10:00-19:00; Sa 10:00-18:00; Su 12:00-17:00", "image": "https://s7d2.scene7.com/is/image/scrubsandbeyond/sb-tri-logo-large", "brand": "Scrubs and Beyond"}, "geometry": {"type": "Point", "coordinates": [-79.7683266, 40.4371539]}},
{"type": "Feature", "id": "uXeMmRFsKVNymKQwtaqRn4t_dCA=", "properties": {"ref": "https://locations.scrubsandbeyond.com/ny/selden/scrubs-selden-ny-195.html", "@spider": "scrubs_and_beyond", "addr:street_address": "15-109 Middle Country Road 87 College Plaza", "addr:city": "Selden", "addr:state": "NY", "addr:postcode": "11784", "name": "Nursing Uniforms & Medical Scrubs at 15-109 Middle Country Road | Scrubs & Beyond Near Me", "phone": "(631) 732-3650", "website": "https://locations.scrubsandbeyond.com/ny/selden/scrubs-selden-ny-195.html", "opening_hours": "Mo-Sa 09:00-20:30; Su 10:00-17:00", "image": "https://s7d2.scene7.com/is/image/scrubsandbeyond/sb-tri-logo-large", "brand": "Scrubs and Beyond"}, "geometry": {"type": "Point", "coordinates": [-73.0478912, 40.8651709]}},
{"type": "Feature", "id": "LC3VqeCQWkOsuMeJI7HzFaOBWvs=", "properties": {"ref": "https://locations.scrubsandbeyond.com/az/phoenix/scrubs-phoenix-az-21.html", "@spider": "scrubs_and_beyond", "addr:street_address": "21001 North Tatum Blvd Suite 18-1080", "addr:city": "Phoenix", "addr:state": "AZ", "addr:postcode": "85050", "name": "Nursing Uniforms & Medical Scrubs at 21001 North Tatum Blvd | Scrubs & Beyond Near Me", "phone": "(480) 538-2113", "website": "https://locations.scrubsandbeyond.com/az/phoenix/scrubs-phoenix-az-21.html", "opening_hours": "Mo-Sa 10:00-20:00; Su 11:00-17:00", "image": "https://s7d2.scene7.com/is/image/scrubsandbeyond/sb-tri-logo-large", "brand": "Scrubs and Beyond"}, "geometry": {"type": "Point", "coordinates": [-111.9768882, 33.6779217]}},
{"type": "Feature", "id": "PxuphhmmIaV6Lmx8Pjijke8xCPs=", "properties": {"ref": "https://locations.scrubsandbeyond.com/ny/tonawanda/scrubs-tonawanda-ny-97.html", "@spider": "scrubs_and_beyond", "addr:street_address": "1604 Niagara Falls Blvd.", "addr:city": "Tonawanda", "addr:state": "NY", "addr:postcode": "14150", "name": "Nursing Uniforms & Medical Scrubs at 1604 Niagara Falls Blvd. | Scrubs & Beyond Near Me", "phone": "(716) 833-2909", "website": "https://locations.scrubsandbeyond.com/ny/tonawanda/scrubs-tonawanda-ny-97.html", "opening_hours": "Mo-Sa 10:00-19:00; Su 11:00-17:00", "image": "https://s7d2.scene7.com/is/image/scrubsandbeyond/sb-tri-logo-large", "brand": "Scrubs and Beyond"}, "geometry": {"type": "Point", "coordinates": [-78.8229654, 42.9981678]}},
{"type": "Feature", "id": "Tno9TSPmgjnp95qG6UQJ5B1jGeg=", "properties": {"ref": "https://locations.scrubsandbeyond.com/mn/coonrapids/scrubs-coon-rapids-mn-15.html", "@spider": "scrubs_and_beyond", "addr:street_address": "12770 Riverdale Blvd", "addr:city": "Coon Rapids", "addr:state": "MN", "addr:postcode": "55448", "name": "Nursing Uniforms & Medical Scrubs at 12770 Riverdale Blvd | Scrubs & Beyond Near Me", "phone": "(763) 433-8366", "website": "https://locations.scrubsandbeyond.com/mn/coonrapids/scrubs-coon-rapids-mn-15.html", "opening_hours": "Mo-Fr 10:00-20:00; Sa 10:00-18:00; Su 11:00-17:00", "image": "https://s7d2.scene7.com/is/image/scrubsandbeyond/sb-tri-logo-large", "brand": "Scrubs and Beyond"}, "geometry": {"type": "Point", "coordinates": [-93.3542623, 45.1998706]}},
{"type": "Feature", "id": "Rg_pZCDHWF6zFNrrcq8Fw9YLlQo=", "properties": {"ref": "https://locations.scrubsandbeyond.com/mn/waitepark/scrubs-waite-park-mn-349.html", "@spider": "scrubs_and_beyond", "addr:street_address": "107 Second Street South", "addr:city": "Waite Park", "addr:state": "MN", "addr:postcode": "56387", "name": "Nursing Uniforms & Medical Scrubs at 107 Second Street South | Scrubs & Beyond Near Me", "phone": "(320) 253-4414", "website": "https://locations.scrubsandbeyond.com/mn/waitepark/scrubs-waite-park-mn-349.html", "opening_hours": "Mo-Fr 10:00-20:00; Sa 10:00-18:00; Su 11:00-17:00", "image": "https://s7d2.scene7.com/is/image/scrubsandbeyond/sb-tri-logo-large", "brand": "Scrubs and Beyond"}, "geometry": {"type": "Point", "coordinates": [-94.2152619, 45.5497994]}},
{"type": "Feature", "id": "1Cn6TtLD_Z-5dsyRuex5K4w1qq4=", "properties": {"ref": "https://locations.scrubsandbeyond.com/or/beaverton/scrubs-beaverton-or-375.html", "@spider": "scrubs_and_beyond", "addr:street_address": "8585 SW Cascade Ave. Suite 131 Suite 131", "addr:city": "Beaverton", "addr:state": "OR", "addr:postcode": "97008", "name": "Nursing Uniforms & Medical Scrubs at 8585 SW Cascade Ave. Suite 131 | Scrubs & Beyond Near Me", "phone": "(503) 605-1384", "website": "https://locations.scrubsandbeyond.com/or/beaverton/scrubs-beaverton-or-375.html", "opening_hours": "Mo-Fr 10:00-20:00; Sa 10:00-18:00; Su 11:00-17:00", "image": "https://s7d2.scene7.com/is/image/scrubsandbeyond/sb-tri-logo-large", "brand": "Scrubs and Beyond"}, "geometry": {"type": "Point", "coordinates": [-122.7866019, 45.4575889]}},
{"type": "Feature", "id": "g_K7t2HvK6uvBwL6mJ3mSoO6TuM=", "properties": {"ref": "https://locations.scrubsandbeyond.com/oh/reynoldsburg/scrubs-reynoldsburg-oh-345.html", "@spider": "scrubs_and_beyond", "addr:street_address": "2841 Taylor Square Dr", "addr:city": "Reynoldsburg", "addr:state": "OH", "addr:postcode": "43068", "name": "Nursing Uniforms & Medical Scrubs at 2841 Taylor Square Dr | Scrubs & Beyond Near Me", "phone": "(614) 864-5151", "website": "https://locations.scrubsandbeyond.com/oh/reynoldsburg/scrubs-reynoldsburg-oh-345.html", "opening_hours": "Mo-Sa 10:00-18:00; Su 12:00-17:00", "image": "https://s7d2.scene7.com/is/image/scrubsandbeyond/sb-tri-logo-large", "brand": "Scrubs and Beyond"}, "geometry": {"type": "Point", "coordinates": [-82.7865, 39.938919]}},
{"type": "Feature", "id": "BnCvPku_LTswtSaTfxmayK2n2i4=", "properties": {"ref": "https://locations.scrubsandbeyond.com/mi/warren/scrubs-warren-mi-155.html", "@spider": "scrubs_and_beyond", "addr:street_address": "8379 Twelve Mile Rd.", "addr:city": "Warren", "addr:state": "MI", "addr:postcode": "48093", "name": "Nursing Uniforms & Medical Scrubs at 8379 Twelve Mile Rd. | Scrubs & Beyond Near Me", "phone": "(586) 757-6540", "website": "https://locations.scrubsandbeyond.com/mi/warren/scrubs-warren-mi-155.html", "opening_hours": "Mo-Fr 10:00-20:00; Sa 10:00-18:00; Su 12:00-17:00", "image": "https://s7d2.scene7.com/is/image/scrubsandbeyond/sb-tri-logo-large", "brand": "Scrubs and Beyond"}, "geometry": {"type": "Point", "coordinates": [-83.0235272, 42.5066903]}},
{"type": "Feature", "id": "9WMpQEkZhk61eTKWLNO6eyrhofs=", "properties": {"ref": "https://locations.scrubsandbeyond.com/tx/webster/scrubs-webster-tx-434.html", "@spider": "scrubs_and_beyond", "addr:street_address": "1023 W Bay Area Blvd Baybrook Gateway", "addr:city": "Webster", "addr:state": "TX", "addr:postcode": "77598", "name": "Nursing Uniforms & Medical Scrubs at 1023 W Bay Area Blvd | Scrubs & Beyond Near Me", "phone": "(281) 338-1550", "website": "https://locations.scrubsandbeyond.com/tx/webster/scrubs-webster-tx-434.html", "opening_hours": "Mo-Fr 10:00-20:00; Sa 10:00-18:00; Su 12:00-17:00", "image": "https://s7d2.scene7.com/is/image/scrubsandbeyond/sb-tri-logo-large", "brand": "Scrubs and Beyond"}, "geometry": {"type": "Point", "coordinates": [-95.1401435, 29.537654]}},
{"type": "Feature", "id": "CZdms76fgjcI3CNuRxGLg1tKoyQ=", "properties": {"ref": "https://locations.scrubsandbeyond.com/tx/austin/scrubs-austin-tx-517.html", "@spider": "scrubs_and_beyond", "addr:street_address": "10515 N. Mopac Expy, Ste. A-160 Ste. A-160", "addr:city": "Austin", "addr:state": "TX", "addr:postcode": "78759", "name": "Nursing Uniforms & Medical Scrubs at 10515 N. Mopac Expy, Ste. A-160 | Scrubs & Beyond Near Me", "phone": "(512) 218-1561", "website": "https://locations.scrubsandbeyond.com/tx/austin/scrubs-austin-tx-517.html", "opening_hours": "Mo-Sa 10:00-20:00; Su 12:00-18:00", "image": "https://s7d2.scene7.com/is/image/scrubsandbeyond/sb-tri-logo-large", "brand": "Scrubs and Beyond"}, "geometry": {"type": "Point", "coordinates": [-97.7330983, 30.3877438]}},
{"type": "Feature", "id": "SRBwmTjTUqtChRAFcOk89s8PsBQ=", "properties": {"ref": "https://locations.scrubsandbeyond.com/mi/novi/scrubs-novi-mi-147.html", "@spider": "scrubs_and_beyond", "addr:street_address": "43530 W. Oaks Drive", "addr:city": "Novi", "addr:state": "MI", "addr:postcode": "48377", "name": "Nursing Uniforms & Medical Scrubs at 43530 W. Oaks Drive | Scrubs & Beyond Near Me", "phone": "(248) 477-1320", "website": "https://locations.scrubsandbeyond.com/mi/novi/scrubs-novi-mi-147.html", "opening_hours": "Mo-Fr 10:00-20:00; Sa 10:00-18:00; Su 12:00-17:00", "image": "https://s7d2.scene7.com/is/image/scrubsandbeyond/sb-tri-logo-large", "brand": "Scrubs and Beyond"}, "geometry": {"type": "Point", "coordinates": [-83.4762505, 42.4911497]}},
{"type": "Feature", "id": "iFLEQRCR0ET9AbkGsRFw_hGEs1k=", "properties": {"ref": "https://locations.scrubsandbeyond.com/ar/fortsmith/scrubs-fort-smith-ar-445.html", "@spider": "scrubs_and_beyond", "addr:street_address": "5111 Rogers Ave #60 #60", "addr:city": "Fort Smith", "addr:state": "AR", "addr:postcode": "72903", "name": "Nursing Uniforms & Medical Scrubs at 5111 Rogers Ave #60 | Scrubs & Beyond Near Me", "phone": "(479) 484-0808", "website": "https://locations.scrubsandbeyond.com/ar/fortsmith/scrubs-fort-smith-ar-445.html", "opening_hours": "Mo-Sa 11:00-19:00; Su 12:00-18:00", "image": "https://s7d2.scene7.com/is/image/scrubsandbeyond/sb-tri-logo-large", "brand": "Scrubs and Beyond"}, "geometry": {"type": "Point", "coordinates": [-94.375116, 35.366924]}},
{"type": "Feature", "id": "VNUsC6BEtQbm3WEb-7wjl_B0uEY=", "properties": {"ref": "https://locations.scrubsandbeyond.com/nj/woodbridge/scrubs-woodbridge-nj-280.html", "@spider": "scrubs_and_beyond", "addr:street_address": "774 Route One North", "addr:city": "Woodbridge", "addr:state": "NJ", "addr:postcode": "08830", "name": "Nursing Uniforms & Medical Scrubs at 774 Route One North | Scrubs & Beyond Near Me", "phone": "(732) 636-1666", "website": "https://locations.scrubsandbeyond.com/nj/woodbridge/scrubs-woodbridge-nj-280.html", "opening_hours": "Mo-Sa 10:00-20:00; Su 12:00-17:00", "image": "https://s7d2.scene7.com/is/image/scrubsandbeyond/sb-tri-logo-large", "brand": "Scrubs and Beyond"}, "geometry": {"type": "Point", "coordinates": [-74.2983919, 40.5634204]}},
{"type": "Feature", "id": "ygPrFV9I0-LS752_UnC4PRgG7vo=", "properties": {"ref": "https://locations.scrubsandbeyond.com/ca/concord/scrubs-concord-ca-313.html", "@spider": "scrubs_and_beyond", "addr:street_address": "114A Sun Valley Mall", "addr:city": "Concord", "addr:state": "CA", "addr:postcode": "94520", "name": "Nursing Uniforms & Medical Scrubs at 114A Sun Valley Mall | Scrubs & Beyond Near Me", "phone": "(925) 689-2570", "website": "https://locations.scrubsandbeyond.com/ca/concord/scrubs-concord-ca-313.html", "opening_hours": "Mo-Sa 10:00-20:00; Su 11:00-19:00", "image": "https://s7d2.scene7.com/is/image/scrubsandbeyond/sb-tri-logo-large", "brand": "Scrubs and Beyond"}, "geometry": {"type": "Point", "coordinates": [-122.060187, 37.966895]}},
{"type": "Feature", "id": "0nEBTrHE1_sXdLlAADbzJqRmzTI=", "properties": {"ref": "https://locations.scrubsandbeyond.com/ca/rialto/scrubs-rialto-ca-111.html", "@spider": "scrubs_and_beyond", "addr:street_address": "1175 W. Renaissance Pkwy, Ste. 670 Ste. 670", "addr:city": "Rialto", "addr:state": "CA", "addr:postcode": "92376", "name": "Nursing Uniforms & Medical Scrubs at 1175 W. Renaissance Pkwy, Ste. 670 | Scrubs & Beyond Near Me", "phone": "(909) 889-4716", "website": "https://locations.scrubsandbeyond.com/ca/rialto/scrubs-rialto-ca-111.html", "opening_hours": "Mo-Sa 10:00-20:00; Su 11:00-18:00", "image": "https://s7d2.scene7.com/is/image/scrubsandbeyond/sb-tri-logo-large", "brand": "Scrubs and Beyond"}, "geometry": {"type": "Point", "coordinates": [-117.3950041, 34.133993]}},
{"type": "Feature", "id": "ucL3DYrh6oIDkfTnDVMQixLwTvc=", "properties": {"ref": "https://locations.scrubsandbeyond.com/ca/riverside/scrubs-riverside-ca-266.html", "@spider": "scrubs_and_beyond", "addr:street_address": "1289 Tyler St", "addr:city": "Riverside", "addr:state": "CA", "addr:postcode": "92503", "name": "Nursing Uniforms & Medical Scrubs at 1289 Tyler St | Scrubs & Beyond Near Me", "phone": "(951) 353-1085", "website": "https://locations.scrubsandbeyond.com/ca/riverside/scrubs-riverside-ca-266.html", "opening_hours": "Mo-Sa 11:00-20:00; Su 11:00-18:00", "image": "https://s7d2.scene7.com/is/image/scrubsandbeyond/sb-tri-logo-large", "brand": "Scrubs and Beyond"}, "geometry": {"type": "Point", "coordinates": [-117.456559, 33.909435]}},
{"type": "Feature", "id": "I0m2p7Xbw06xZL6o-I3rQ9fSBdY=", "properties": {"ref": "https://locations.scrubsandbeyond.com/pa/pittsburgh/scrubs-pittsburgh-pa-417.html", "@spider": "scrubs_and_beyond", "addr:street_address": "3260 McIntyre Square Dr. Unit 60 Unit 60", "addr:city": "Pittsburgh", "addr:state": "PA", "addr:postcode": "15237", "name": "Nursing Uniforms & Medical Scrubs at 3260 McIntyre Square Dr. Unit 60 | Scrubs & Beyond Near Me", "phone": "(412) 367-1344", "website": "https://locations.scrubsandbeyond.com/pa/pittsburgh/scrubs-pittsburgh-pa-417.html", "opening_hours": "Mo-Fr 10:00-19:00; Sa 10:00-18:00; Su 12:00-17:00", "image": "https://s7d2.scene7.com/is/image/scrubsandbeyond/sb-tri-logo-large", "brand": "Scrubs and Beyond"}, "geometry": {"type": "Point", "coordinates": [-80.015767, 40.553706]}},
{"type": "Feature", "id": "OzHOYza2dUr6liM4KQP3PupXGeg=", "properties": {"ref": "https://locations.scrubsandbeyond.com/ny/statenisland/scrubs-staten-island-ny-295.html", "@spider": "scrubs_and_beyond", "addr:street_address": "2301 Richmond Avenue", "addr:city": "Staten Island", "addr:state": "NY", "addr:postcode": "10314", "name": "Nursing Uniforms & Medical Scrubs at 2301 Richmond Avenue | Scrubs & Beyond Near Me", "phone": "(718) 698-1421", "website": "https://locations.scrubsandbeyond.com/ny/statenisland/scrubs-staten-island-ny-295.html", "opening_hours": "Mo-Sa 10:00-20:00; Su 11:00-18:00", "image": "https://s7d2.scene7.com/is/image/scrubsandbeyond/sb-tri-logo-large", "brand": "Scrubs and Beyond"}, "geometry": {"type": "Point", "coordinates": [-74.1639013, 40.5913837]}},
{"type": "Feature", "id": "JByVZBt1oJR14KsDjw_hAJvzKz0=", "properties": {"ref": "https://locations.scrubsandbeyond.com/pa/homestead/scrubs-homestead-pa-365.html", "@spider": "scrubs_and_beyond", "addr:street_address": "576 E. Waterfront Drive", "addr:city": "Homestead", "addr:state": "PA", "addr:postcode": "15120", "name": "Nursing Uniforms & Medical Scrubs at 576 E. Waterfront Drive | Scrubs & Beyond Near Me", "phone": "(412) 461-1535", "website": "https://locations.scrubsandbeyond.com/pa/homestead/scrubs-homestead-pa-365.html", "opening_hours": "Mo-Sa 10:00-19:00; Su 12:00-17:00", "image": "https://s7d2.scene7.com/is/image/scrubsandbeyond/sb-tri-logo-large", "brand": "Scrubs and Beyond"}, "geometry": {"type": "Point", "coordinates": [-79.9054955, 40.4118141]}},
{"type": "Feature", "id": "gq6qvIqbbFg88Z85Un6YYVNwSJc=", "properties": {"ref": "https://locations.scrubsandbeyond.com/or/happyvalley/scrubs-happy-valley-or-376.html", "@spider": "scrubs_and_beyond", "addr:street_address": "11322 SE 82nd Avenue", "addr:city": "Happy Valley", "addr:state": "OR", "addr:postcode": "97086", "name": "Nursing Uniforms & Medical Scrubs at 11322 SE 82nd Avenue | Scrubs & Beyond Near Me", "phone": "(503) 654-7228", "website": "https://locations.scrubsandbeyond.com/or/happyvalley/scrubs-happy-valley-or-376.html", "opening_hours": "Mo-Fr 10:00-19:00; Sa 10:00-18:00; Su 11:00-17:00", "image": "https://s7d2.scene7.com/is/image/scrubsandbeyond/sb-tri-logo-large", "brand": "Scrubs and Beyond"}, "geometry": {"type": "Point", "coordinates": [-122.5769285, 45.4426214]}},
{"type": "Feature", "id": "XnTrkIHQFA9lD6KWe0QW7fmsFIw=", "properties": {"ref": "https://locations.scrubsandbeyond.com/ca/bakersfield/scrubs-bakersfield-ca-123.html", "@spider": "scrubs_and_beyond", "addr:street_address": "2726 Ming Avenue", "addr:city": "Bakersfield", "addr:state": "CA", "addr:postcode": "93304", "name": "Nursing Uniforms & Medical Scrubs at 2726 Ming Avenue | Scrubs & Beyond Near Me", "phone": "(661) 831-0231", "website": "https://locations.scrubsandbeyond.com/ca/bakersfield/scrubs-bakersfield-ca-123.html", "opening_hours": "Mo-Sa 10:00-21:00; Su 11:00-18:00", "image": "https://s7d2.scene7.com/is/image/scrubsandbeyond/sb-tri-logo-large", "brand": "Scrubs and Beyond"}, "geometry": {"type": "Point", "coordinates": [-119.0337638, 35.3401863]}},
{"type": "Feature", "id": "K5MGLc6FoNo5W31KBJt_FEkwKB4=", "properties": {"ref": "https://locations.scrubsandbeyond.com/ny/carleplace/scrubs-carle-place-ny-439.html", "@spider": "scrubs_and_beyond", "addr:street_address": "216 Glen Cove Rd Suite C", "addr:city": "Carle Place", "addr:state": "NY", "addr:postcode": "11514", "name": "Nursing Uniforms & Medical Scrubs at 216 Glen Cove Rd | Scrubs & Beyond Near Me", "phone": "(516) 747-6090", "website": "https://locations.scrubsandbeyond.com/ny/carleplace/scrubs-carle-place-ny-439.html", "opening_hours": "Mo-Fr 09:00-19:00; Sa 10:00-18:00; Su 11:00-17:00", "image": "https://s7d2.scene7.com/is/image/scrubsandbeyond/sb-tri-logo-large", "brand": "Scrubs and Beyond"}, "geometry": {"type": "Point", "coordinates": [-73.6183899, 40.7487721]}}]}