{"type":"FeatureCollection","features":[{"type": "Feature", "id": "NZ3ONi5e5vmP5XUxgyhZlf03k18=", "properties": {"ref": "0003014", "@spider": "sears_hometown", "shop": "department_store", "addr:street_address": "817 WEST LOOP", "addr:city": "EL CAMPO", "addr:state": "TX", "addr:postcode": "77437", "name": "EL CAMPO-AUTH HOMETOWN STOR", "phone": "9793206715", "opening_hours": "Mo-Sa 09:00-18:00; Su 00:00-24:00", "brand": "Sears Hometown", "brand:wikidata": "Q69926963", "nsi_id": "searshometown-592fe0"}, "geometry": {"type": "Point", "coordinates": [-96.290718, 29.190945]}},
{"type": "Feature", "id": "Cm0KqSryLjHBL8fhsUPlsSuJxYU=", "properties": {"ref": "0003468", "@spider": "sears_hometown", "shop": "department_store", "addr:street_address": "3120 AVENUE F", "addr:city": "BAY CITY", "addr:state": "TX", "addr:postcode": "77414", "name": "BAY CITY - AUTH HOMETOWN", "phone": "9792453226", "opening_hours": "Mo-Sa 09:00-18:00; Su 11:00-16:00", "brand": "Sears Hometown", "brand:wikidata": "Q69926963", "nsi_id": "searshometown-592fe0"}, "geometry": {"type": "Point", "coordinates": [-95.969543, 28.971649]}},
{"type": "Feature", "id": "05ltF4k_nsM70FVf77mB3m746HU=", "properties": {"ref": "0003176", "@spider": "sears_hometown", "shop": "department_store", "addr:street_address": "1860 N MAIN ST", "addr:city": "CROSSVILLE", "addr:state": "TN", "addr:postcode": "38555", "name": "CUMBERLAND SQ", "phone": "9314567678", "opening_hours": "Mo-Sa 09:00-18:00; Su 11:00-16:00", "brand": "Sears Hometown", "brand:wikidata": "Q69926963", "nsi_id": "searshometown-592fe0"}, "geometry": {"type": "Point", "coordinates": [-85.03805414, 35.97308792]}},
{"type": "Feature", "id": "-M0ck6P-y9lLb8clBb8v6hMy9uE=", "properties": {"ref": "0003416", "@spider": "sears_hometown", "shop": "department_store", "addr:street_address": "1262 ANDREWS RD", "addr:city": "MURPHY", "addr:state": "NC", "addr:postcode": "28906", "name": "VALLEY VLG S/C", "phone": "8288372161", "opening_hours": "Mo-Sa 09:00-18:00; Su 09:00-14:00", "brand": "Sears Hometown", "brand:wikidata": "Q69926963", "nsi_id": "searshometown-592fe0"}, "geometry": {"type": "Point", "coordinates": [-84.011024, 35.107746]}},
{"type": "Feature", "id": "eVRcTS6qOnbJLXy9B0Ekl1Qpq_A=", "properties": {"ref": "0004139", "@spider": "sears_hometown", "shop": "department_store", "addr:street_address": "2801 US HIGHWAY 25E STE 400", "addr:city": "MIDDLESBORO", "addr:state": "KY", "addr:postcode": "40965", "name": "MIDDLESBORO - AUTH HOMETOWN", "phone": "6062483399", "opening_hours": "Mo-Sa 09:00-18:00; Su 13:00-18:00", "brand": "Sears Hometown", "brand:wikidata": "Q69926963", "nsi_id": "searshometown-592fe0"}, "geometry": {"type": "Point", "coordinates": [-83.700455, 36.605605]}},
{"type": "Feature", "id": "aLMoZQoVS0nK4QgwZx7VwFF8j58=", "properties": {"ref": "0003136", "@spider": "sears_hometown", "shop": "department_store", "addr:street_address": "370 S HIGHWAY 27 STE 9", "addr:city": "SOMERSET", "addr:state": "KY", "addr:postcode": "42501", "name": "SOMERSET - AUTH HOMETOWN", "phone": "6066790505", "opening_hours": "Mo-Fr 09:00-18:00; Sa 09:00-19:00; Su 12:00-17:00", "brand": "Sears Hometown", "brand:wikidata": "Q69926963", "nsi_id": "searshometown-592fe0"}, "geometry": {"type": "Point", "coordinates": [-84.616741, 37.089286]}},
{"type": "Feature", "id": "y1GF3gQE425SLrSmHGkofXWwcJU=", "properties": {"ref": "0003896", "@spider": "sears_hometown", "shop": "department_store", "addr:street_address": "45 HOMETOWN WAY SUITE A", "addr:city": "BLAIRSVILLE", "addr:state": "GA", "addr:postcode": "30512", "name": "BLAIRSVILLE - AUTH HOMETOWN", "phone": "7067456600", "opening_hours": "Mo-Sa 09:00-18:00; Su 12:00-17:00", "brand": "Sears Hometown", "brand:wikidata": "Q69926963", "nsi_id": "searshometown-592fe0"}, "geometry": {"type": "Point", "coordinates": [-83.947326, 34.881395]}},
{"type": "Feature", "id": "9aOiYV0KoskV7vLmV01T36OsVKM=", "properties": {"ref": "0003786", "@spider": "sears_hometown", "shop": "department_store", "addr:street_address": "KM 125.1 INT RD #459", "addr:city": "AGUADILLA", "addr:state": "PR", "addr:postcode": "00603", "name": "FERRAM PLZ RD #2", "phone": "7878827290", "opening_hours": "Mo-Sa 09:00-18:00; Su 11:00-17:00", "brand": "Sears Hometown", "brand:wikidata": "Q69926963", "nsi_id": "searshometown-592fe0"}, "geometry": {"type": "Point", "coordinates": [-67.1328, 18.4571]}},
{"type": "Feature", "id": "xJ9KdMpjP8OA6hITz2hpuz0PfJs=", "properties": {"ref": "0004692", "@spider": "sears_hometown", "shop": "department_store", "addr:street_address": "123 EAST STATE ST", "addr:city": "PLEASANTVILLE", "addr:state": "PA", "addr:postcode": "16341", "name": "CITY -AUTH HOMETOWN STORE", "phone": "8145897631", "opening_hours": "Mo-Fr 08:00-19:00; Sa 08:00-16:00; Su 00:00-24:00", "brand": "Sears Hometown", "brand:wikidata": "Q69926963", "nsi_id": "searshometown-592fe0"}, "geometry": {"type": "Point", "coordinates": [-79.580076, 41.591636]}},
{"type": "Feature", "id": "MaMLMyvUVngO91RdssDhYM3pmA4=", "properties": {"ref": "0003974", "@spider": "sears_hometown", "shop": "department_store", "addr:street_address": "1385 BUCKTAIL RD", "addr:city": "SAINT MARYS", "addr:state": "PA", "addr:postcode": "15857", "name": "ST MARYS - AUTH HOMETOWN", "phone": "8147811882", "opening_hours": "Mo-Fr 09:00-19:00; Sa 09:00-18:00; Su 11:00-16:00", "brand": "Sears Hometown", "brand:wikidata": "Q69926963", "nsi_id": "searshometown-592fe0"}, "geometry": {"type": "Point", "coordinates": [-78.513405, 41.431381]}},
{"type": "Feature", "id": "5_JbpG78Fd0wCu_LWi_DZ_04kfA=", "properties": {"ref": "0003345", "@spider": "sears_hometown", "shop": "department_store", "addr:street_address": "FRANKLIN VILLAGE MALL 19A", "addr:city": "KITTANNING", "addr:state": "PA", "addr:postcode": "16201", "name": "KITTANNING - AUTH HOMETOWN", "phone": "7245432555", "opening_hours": "Mo-Sa 09:00-19:00; Su 11:00-16:00", "brand": "Sears Hometown", "brand:wikidata": "Q69926963", "nsi_id": "searshometown-592fe0"}, "geometry": {"type": "Point", "coordinates": [-79.548608, 40.812198]}},
{"type": "Feature", "id": "hGtI-mEGjdgJXgFYwHy3pI9fglU=", "properties": {"ref": "0003876", "@spider": "sears_hometown", "shop": "department_store", "addr:street_address": "685A HIGHWAY 101", "addr:city": "FLORENCE", "addr:state": "OR", "addr:postcode": "97439", "name": "FLORENCE - AUTH HOMETOWN", "phone": "5419973273", "opening_hours": "Mo-Sa 09:00-18:00; Su 10:00-15:00", "brand": "Sears Hometown", "brand:wikidata": "Q69926963", "nsi_id": "searshometown-592fe0"}, "geometry": {"type": "Point", "coordinates": [-124.10332, 43.972496]}},
{"type": "Feature", "id": "bL-oDQ510SIaG0aL-EW3FSXkiOA=", "properties": {"ref": "0003369", "@spider": "sears_hometown", "shop": "department_store", "addr:street_address": "1611 VIRGINIA AVE # 514", "addr:city": "NORTH BEND", "addr:state": "OR", "addr:postcode": "97459", "name": "NORTH BEND -  AUTH HOMETOWN", "phone": "5417567323", "opening_hours": "Mo-Fr 09:00-19:00; Sa 09:00-18:00; Su 11:00-16:00", "brand": "Sears Hometown", "brand:wikidata": "Q69926963", "nsi_id": "searshometown-592fe0"}, "geometry": {"type": "Point", "coordinates": [-124.23315, 43.406818]}},
{"type": "Feature", "id": "Mhji36IzEX7BSP5lAxxoG948ofg=", "properties": {"ref": "0003469", "@spider": "sears_hometown", "shop": "department_store", "addr:street_address": "1621 NE BAKER STREET", "addr:city": "MC MINNVILLE", "addr:state": "OR", "addr:postcode": "97128", "name": "MC MINNVILLE -AUTH HOMETOWN", "phone": "5034722101", "opening_hours": "Mo-Sa 09:00-18:00; Su 11:00-16:00", "brand": "Sears Hometown", "brand:wikidata": "Q69926963", "nsi_id": "searshometown-592fe0"}, "geometry": {"type": "Point", "coordinates": [-123.19545, 45.22255]}},
{"type": "Feature", "id": "vnXd3dG7DPCRAqV9Zf-T6I3yDMc=", "properties": {"ref": "0004949", "@spider": "sears_hometown", "shop": "department_store", "addr:street_address": "2234 E SHAWNEE BYPASS", "addr:city": "MUSKOGEE", "addr:state": "OK", "addr:postcode": "74403", "name": "MUSKOGEE - AUTH HOMETOWN", "phone": "9186849089", "opening_hours": "Mo-Sa 09:00-18:00; Su 12:00-17:00", "brand": "Sears Hometown", "brand:wikidata": "Q69926963", "nsi_id": "searshometown-592fe0"}, "geometry": {"type": "Point", "coordinates": [-95.342253, 35.771326]}},
{"type": "Feature", "id": "I4ss36N2R9kuDNwgrFefmn36MAU=", "properties": {"ref": "0007482", "@spider": "sears_hometown", "shop": "department_store", "addr:street_address": "60 E MAIN STREET", "addr:city": "NORWALK", "addr:state": "OH", "addr:postcode": "44857", "name": "NORWALK - AUTH HOMETOWN", "phone": "4196680262", "opening_hours": "Mo-Sa 09:00-18:00; Su 11:00-16:00", "brand": "Sears Hometown", "brand:wikidata": "Q69926963", "nsi_id": "searshometown-592fe0"}, "geometry": {"type": "Point", "coordinates": [-82.612253, 41.243739]}},
{"type": "Feature", "id": "347c8uJN9fbSzXRRYKtesIq6yto=", "properties": {"ref": "0003386", "@spider": "sears_hometown", "shop": "department_store", "addr:street_address": "2821 W 3RD ST", "addr:city": "ELK CITY", "addr:state": "OK", "addr:postcode": "73644", "name": "ELK CITY - AUTH HOMETOWN", "phone": "5802252131", "opening_hours": "Mo-Sa 09:00-18:00; Su 11:00-16:00", "brand": "Sears Hometown", "brand:wikidata": "Q69926963", "nsi_id": "searshometown-592fe0"}, "geometry": {"type": "Point", "coordinates": [-99.439539, 35.4117]}},
{"type": "Feature", "id": "ElbqzLC9vsGF8HChvuRdVjGt27Q=", "properties": {"ref": "0003958", "@spider": "sears_hometown", "shop": "department_store", "addr:street_address": "11947 S HWY 226", "addr:city": "SPRUCE PINE", "addr:state": "NC", "addr:postcode": "28777", "name": "SPRUCE PINE - AUTH HOMETOWN", "phone": "8287655700", "opening_hours": "Mo-Sa 09:00-18:00; Su 11:00-16:00", "brand": "Sears Hometown", "brand:wikidata": "Q69926963", "nsi_id": "searshometown-592fe0"}, "geometry": {"type": "Point", "coordinates": [-82.067421, 35.892267]}},
{"type": "Feature", "id": "vDzHq59cVfn4oq_YN3pWEyzuTY8=", "properties": {"ref": "0003663", "@spider": "sears_hometown", "shop": "department_store", "addr:street_address": "40518 WEST MORGAN AVE", "addr:city": "PENNINGTN GAP", "addr:state": "VA", "addr:postcode": "24277", "name": "PENNINGTON GAP-AUTH HOMETWN", "phone": "2765466551", "opening_hours": "Mo-Fr 08:30-18:00; Sa 09:00-18:00; Su 11:00-16:00", "brand": "Sears Hometown", "brand:wikidata": "Q69926963", "nsi_id": "searshometown-592fe0"}, "geometry": {"type": "Point", "coordinates": [-83.044441, 36.750706]}},
{"type": "Feature", "id": "NktVwdgDuUWMp6XtwOOLmQKKw_M=", "properties": {"ref": "0003694", "@spider": "sears_hometown", "shop": "department_store", "addr:street_address": "2395 STATE RD 7", "addr:city": "COBLESKILL", "addr:state": "NY", "addr:postcode": "12043", "name": "COBLESKILL - AUTH HOMETOWN", "phone": "5182342669", "opening_hours": "Mo-Fr 09:30-19:00; Sa 09:00-18:00; Su 12:00-17:00", "brand": "Sears Hometown", "brand:wikidata": "Q69926963", "nsi_id": "searshometown-592fe0"}, "geometry": {"type": "Point", "coordinates": [-74.444231, 42.681865]}},
{"type": "Feature", "id": "H3GbPdMF0AmvR432z56ZZTR2Cf0=", "properties": {"ref": "0003203", "@spider": "sears_hometown", "shop": "department_store", "addr:street_address": "207 RIVER STREET", "addr:city": "ONEONTA", "addr:state": "NY", "addr:postcode": "13820", "name": "ONEONTA - AUTH HOMETOWN", "phone": "6074323100", "opening_hours": "Mo-Sa 09:00-18:00; Su 11:00-16:00", "brand": "Sears Hometown", "brand:wikidata": "Q69926963", "nsi_id": "searshometown-592fe0"}, "geometry": {"type": "Point", "coordinates": [-75.084766, 42.444175]}},
{"type": "Feature", "id": "tFIgYQPyAthQtnuuPBn0UkIrx44=", "properties": {"ref": "0003966", "@spider": "sears_hometown", "shop": "department_store", "addr:street_address": "26142 US HIGHWAY 70", "addr:city": "RUIDOSO DOWNS", "addr:state": "NM", "addr:postcode": "88346", "name": "RUIDOSO DOWNS-AUTH HOMETOWN", "phone": "5753784700", "opening_hours": "Mo-Sa 09:00-18:00; Su 11:00-16:00", "brand": "Sears Hometown", "brand:wikidata": "Q69926963", "nsi_id": "searshometown-592fe0"}, "geometry": {"type": "Point", "coordinates": [-105.57072, 33.346684]}},
{"type": "Feature", "id": "DfMmkcey-kS67y3CJAoXshSkmMQ=", "properties": {"ref": "0003309", "@spider": "sears_hometown", "shop": "department_store", "addr:street_address": "609 S CANYON SUITE A", "addr:city": "CARLSBAD", "addr:state": "NM", "addr:postcode": "88220", "name": "CARLSBAD - AUTH HOMETOWN", "phone": "5758853111", "opening_hours": "Mo-Fr 10:00-19:00; Sa 09:00-18:00; Su 11:00-16:00", "brand": "Sears Hometown", "brand:wikidata": "Q69926963", "nsi_id": "searshometown-592fe0"}, "geometry": {"type": "Point", "coordinates": [-104.25384, 32.440574]}},
{"type": "Feature", "id": "c2PCg3lsd3upgh-dGGcTMGUMFNM=", "properties": {"ref": "0003329", "@spider": "sears_hometown", "shop": "department_store", "addr:street_address": "1310 SILVER HEIGHTS BLVD", "addr:city": "SILVER CITY", "addr:state": "NM", "addr:postcode": "88061", "name": "SILVER CITY - AUTH HOMETOWN", "phone": "5755385328", "opening_hours": "Mo-Sa 09:00-18:00; Su 11:00-16:00", "brand": "Sears Hometown", "brand:wikidata": "Q69926963", "nsi_id": "searshometown-592fe0"}, "geometry": {"type": "Point", "coordinates": [-108.262486, 32.784605]}},
{"type": "Feature", "id": "mnsWaMmtDAbDcq4zh0IfbyRq4fg=", "properties": {"ref": "0003410", "@spider": "sears_hometown", "shop": "department_store", "addr:street_address": "1467 COFFEEN AVE", "addr:city": "SHERIDAN", "addr:state": "WY", "addr:postcode": "82801", "name": "SHERIDAN - AUTH HOMETOWN", "phone": "3076740660", "opening_hours": "Mo-Sa 09:00-18:00; Su 11:00-16:00", "brand": "Sears Hometown", "brand:wikidata": "Q69926963", "nsi_id": "searshometown-592fe0"}, "geometry": {"type": "Point", "coordinates": [-106.94191, 44.782085]}},
{"type": "Feature", "id": "BFI-iMT9-2xN0v6dN8R_BLytNPw=", "properties": {"ref": "0009490", "@spider": "sears_hometown", "shop": "department_store", "addr:street_address": "69 N 28TH STREET STE 400", "addr:city": "SUPERIOR", "addr:state": "WI", "addr:postcode": "54880", "name": "MARINER MALL", "phone": "7153924400", "opening_hours": "Mo-Sa 09:00-18:00; Su 00:00-24:00", "brand": "Sears Hometown", "brand:wikidata": "Q69926963", "nsi_id": "searshometown-592fe0"}, "geometry": {"type": "Point", "coordinates": [-92.073962, 46.706337]}},
{"type": "Feature", "id": "UgzQxygGerczalfm8HJRRVfmAsY=", "properties": {"ref": "0003891", "@spider": "sears_hometown", "shop": "department_store", "addr:street_address": "811 3RD STREET WEST", "addr:city": "ASHLAND", "addr:state": "WI", "addr:postcode": "54806", "name": "ASHLAND - AUTH HOMETOWN", "phone": "7156852736", "opening_hours": "Mo-Sa 09:00-18:00; Su 11:00-16:00", "brand": "Sears Hometown", "brand:wikidata": "Q69926963", "nsi_id": "searshometown-592fe0"}, "geometry": {"type": "Point", "coordinates": [-90.862167, 46.602272]}},
{"type": "Feature", "id": "t5PPVzWevI0sjvbVTdkV7aQ99_g=", "properties": {"ref": "0003731", "@spider": "sears_hometown", "shop": "department_store", "addr:street_address": "2800 COLLEGE DR", "addr:city": "RICE LAKE", "addr:state": "WI", "addr:postcode": "54868", "name": "RICE LAKE - AUTH HOMETOWN", "phone": "7152342113", "opening_hours": "Mo-Sa 09:00-18:00; Su 11:00-16:00", "brand": "Sears Hometown", "brand:wikidata": "Q69926963", "nsi_id": "searshometown-592fe0"}, "geometry": {"type": "Point", "coordinates": [-91.743553, 45.481274]}},
{"type": "Feature", "id": "8CIz3JJZmI3lpjlq8RQ-yiHk2YQ=", "properties": {"ref": "0007074", "@spider": "sears_hometown", "shop": "department_store", "addr:street_address": "301 W PRAIRIE VIEW RD", "addr:city": "CHIPPEWA FALL", "addr:state": "WI", "addr:postcode": "54729", "name": "CHIPPEWA FALLS - AUTH HOMET", "phone": "7158617671", "opening_hours": "Mo-Sa 09:00-18:00; Su 11:00-16:00", "brand": "Sears Hometown", "brand:wikidata": "Q69926963", "nsi_id": "searshometown-592fe0"}, "geometry": {"type": "Point", "coordinates": [-91.391875, 44.713632]}},
{"type": "Feature", "id": "rBnj27LT4h-8OtkbOUJh3x_BAy8=", "properties": {"ref": "0003562", "@spider": "sears_hometown", "shop": "department_store", "addr:street_address": "520 S BLACK RIVER ST", "addr:city": "SPARTA", "addr:state": "WI", "addr:postcode": "54656", "name": "SPARTA - AUTH HOMETOWN", "phone": "6082690433", "opening_hours": "Mo-Sa 09:00-18:00; Su 11:00-16:00", "brand": "Sears Hometown", "brand:wikidata": "Q69926963", "nsi_id": "searshometown-592fe0"}, "geometry": {"type": "Point", "coordinates": [-90.820755, 43.940086]}},
{"type": "Feature", "id": "_QMJACZlhGYvBlImNLi3-PboFHM=", "properties": {"ref": "0001467", "@spider": "sears_hometown", "shop": "department_store", "addr:street_address": "3400 S COLLEGE AVENUE", "addr:city": "FT COLLINS", "addr:state": "CO", "addr:postcode": "80525", "name": "SEARS APPLIANCE & MATTRESS", "phone": "9702972770", "opening_hours": "Mo-Su 10:00-18:00", "brand": "Sears Hometown", "brand:wikidata": "Q69926963", "nsi_id": "searshometown-592fe0"}, "geometry": {"type": "Point", "coordinates": [-105.07649, 40.54099]}},
{"type": "Feature", "id": "RagX8neZZFaN0vd8de85kHFS2A8=", "properties": {"ref": "0003198", "@spider": "sears_hometown", "shop": "department_store", "addr:street_address": "416 S. 3RD STREET", "addr:city": "LARAMIE", "addr:state": "WY", "addr:postcode": "82070", "name": "LARAMIE - AUTH 03198", "phone": "3073433450", "opening_hours": "Mo-Sa 09:00-18:00; Su 11:00-16:00", "brand": "Sears Hometown", "brand:wikidata": "Q69926963", "nsi_id": "searshometown-592fe0"}, "geometry": {"type": "Point", "coordinates": [-106.822083, 40.460712]}},
{"type": "Feature", "id": "Ujm3bVQqkgyT__pbNQr-tJm_V14=", "properties": {"ref": "0003148", "@spider": "sears_hometown", "shop": "department_store", "addr:street_address": "424 N. MAIN ST", "addr:city": "WARSAW", "addr:state": "NY", "addr:postcode": "14569", "name": "WARSAW - AUTH HOMETOWN", "phone": "5857863180", "opening_hours": "Mo-Th 08:30-18:00; Fr 08:30-19:00; Sa 09:00-18:00; Su 11:00-16:00", "brand": "Sears Hometown", "brand:wikidata": "Q69926963", "nsi_id": "searshometown-592fe0"}, "geometry": {"type": "Point", "coordinates": [-78.132507, 42.754578]}},
{"type": "Feature", "id": "kVkoTHeMTyftwKQTcnztLyNJwkk=", "properties": {"ref": "0003226", "@spider": "sears_hometown", "shop": "department_store", "addr:street_address": "1002 W. CUMBERLAND STREET", "addr:city": "DUNN", "addr:state": "NC", "addr:postcode": "28334", "name": "DUNN - AUTH HOMETOWN", "phone": "9108927101", "opening_hours": "Mo-Sa 09:00-18:00; Su 13:00-18:00", "brand": "Sears Hometown", "brand:wikidata": "Q69926963", "nsi_id": "searshometown-592fe0"}, "geometry": {"type": "Point", "coordinates": [-78.620224, 35.312401]}},
{"type": "Feature", "id": "HLG1qarx9Tq3hOnxTy4C5S2Q-6k=", "properties": {"ref": "0003166", "@spider": "sears_hometown", "shop": "department_store", "addr:street_address": "1377 N SANDHILLS BLVD", "addr:city": "ABERDEEN", "addr:state": "NC", "addr:postcode": "28315", "name": "TOWN & COUNTRY S/C", "phone": "9109442313", "opening_hours": "Mo-Sa 09:00-18:00; Su 11:00-16:00", "brand": "Sears Hometown", "brand:wikidata": "Q69926963", "nsi_id": "searshometown-592fe0"}, "geometry": {"type": "Point", "coordinates": [-79.41851, 35.149776]}},
{"type": "Feature", "id": "f20pDOiyeywM2IUQ4zPC1Rj9PpA=", "properties": {"ref": "0003489", "@spider": "sears_hometown", "shop": "department_store", "addr:street_address": "642 RAILROAD STREET", "addr:city": "BROOKINGS", "addr:state": "OR", "addr:postcode": "97415", "name": "HARBOR SHOPPING CENTER", "phone": "5414692116", "opening_hours": "Mo-Sa 09:00-18:00; Su 11:00-16:00", "brand": "Sears Hometown", "brand:wikidata": "Q69926963", "nsi_id": "searshometown-592fe0"}, "geometry": {"type": "Point", "coordinates": [-124.2638, 42.05405]}},
{"type": "Feature", "id": "qeMpdPVfTnMjOODBF8dNDm_B7BM=", "properties": {"ref": "0003379", "@spider": "sears_hometown", "shop": "department_store", "addr:street_address": "2057 SW 4TH AV", "addr:city": "ONTARIO", "addr:state": "OR", "addr:postcode": "97914", "name": "ONTARIO - AUTH HOMETOWN", "phone": "5418894525", "opening_hours": "Mo-Sa 09:00-18:00; Su 11:00-18:00", "brand": "Sears Hometown", "brand:wikidata": "Q69926963", "nsi_id": "searshometown-592fe0"}, "geometry": {"type": "Point", "coordinates": [-116.994132, 44.025383]}},
{"type": "Feature", "id": "Kd-U9earlf2xSutc0Sxu4O5XBdY=", "properties": {"ref": "0003640", "@spider": "sears_hometown", "shop": "department_store", "addr:street_address": "1535 AMERICAN LEGION BLVD", "addr:city": "MOUNTAIN HOME", "addr:state": "ID", "addr:postcode": "83647", "name": "MTN HOME - AUTH HOMETOWN", "phone": "2085879300", "opening_hours": "Mo-Sa 09:00-18:00; Su 11:00-16:00", "brand": "Sears Hometown", "brand:wikidata": "Q69926963", "nsi_id": "searshometown-592fe0"}, "geometry": {"type": "Point", "coordinates": [-115.67912, 43.133865]}},
{"type": "Feature", "id": "e_UrWSVxJPM2w3Nro5PVTI9FVGs=", "properties": {"ref": "0001711", "@spider": "sears_hometown", "shop": "department_store", "addr:street_address": "3740 CAPITAL CITY MALL DRIVE", "addr:city": "CAMP HILL", "addr:state": "PA", "addr:postcode": "17011", "name": "SEARS APPLIANCE & MATTRESS", "phone": "7174133051", "opening_hours": "Mo-Fr 10:00-19:00; Sa 09:00-18:00; Su 10:00-18:00", "brand": "Sears Hometown", "brand:wikidata": "Q69926963", "nsi_id": "searshometown-592fe0"}, "geometry": {"type": "Point", "coordinates": [-76.934606, 40.235233]}},
{"type": "Feature", "id": "J0t7PjztS1F_DFHyc9O3EJNsXAM=", "properties": {"ref": "0003123", "@spider": "sears_hometown", "shop": "department_store", "addr:street_address": "19 WASHINGTON SQ", "addr:city": "CHESTERTOWN", "addr:state": "MD", "addr:postcode": "21620", "name": "CHESTERTOWN - AUTH HOMETOWN", "phone": "4107782335", "opening_hours": "Mo-Fr 09:00-19:00; Sa 08:30-18:00; Su 10:00-17:00", "brand": "Sears Hometown", "brand:wikidata": "Q69926963", "nsi_id": "searshometown-592fe0"}, "geometry": {"type": "Point", "coordinates": [-76.066238, 39.211292]}},
{"type": "Feature", "id": "VsCcr1evNXaQpqgfWpvxys6hMFM=", "properties": {"ref": "0003756", "@spider": "sears_hometown", "shop": "department_store", "addr:street_address": "118 S MAIN ST", "addr:city": "PLEASANTON", "addr:state": "TX", "addr:postcode": "78064", "name": "PLEASANTON - AUTH HOMETOWN", "phone": "8305692143", "opening_hours": "Mo-Sa 09:00-18:00; Su 12:00-17:00", "brand": "Sears Hometown", "brand:wikidata": "Q69926963", "nsi_id": "searshometown-592fe0"}, "geometry": {"type": "Point", "coordinates": [-98.484089, 28.958928]}},
{"type": "Feature", "id": "lJShkqGKAyEIOvBO_pQAXpx3heU=", "properties": {"ref": "0003536", "@spider": "sears_hometown", "shop": "department_store", "addr:street_address": "2344 E MAIN ST", "addr:city": "UVALDE", "addr:state": "TX", "addr:postcode": "78801", "name": "UVALDE - AUTH HOMETOWN", "phone": "8302789555", "opening_hours": "Mo-Fr 09:30-19:00; Sa 09:00-18:00; Su 13:00-18:00", "brand": "Sears Hometown", "brand:wikidata": "Q69926963", "nsi_id": "searshometown-592fe0"}, "geometry": {"type": "Point", "coordinates": [-99.764641, 29.220247]}},
{"type": "Feature", "id": "LE_SmO0UYBKhLV03ToebxG4Ygpc=", "properties": {"ref": "0003639", "@spider": "sears_hometown", "shop": "department_store", "addr:street_address": "1190 S TRADE DAYS BLVD", "addr:city": "CANTON", "addr:state": "TX", "addr:postcode": "75103", "name": "CANTON - AUTH HOMETOWN", "phone": "9032180101", "opening_hours": "Mo-Sa 09:00-18:00; Su 11:00-16:00", "brand": "Sears Hometown", "brand:wikidata": "Q69926963", "nsi_id": "searshometown-592fe0"}, "geometry": {"type": "Point", "coordinates": [-95.845621, 32.545574]}},
{"type": "Feature", "id": "tCAN7bt1SjtmEJX9zx6rhKx7he4=", "properties": {"ref": "0003378", "@spider": "sears_hometown", "shop": "department_store", "addr:street_address": "836 W 7TH AVE", "addr:city": "CORSICANA", "addr:state": "TX", "addr:postcode": "75110", "name": "CORSICANA - AUTH HOMETOWN", "phone": "9038720887", "opening_hours": "Mo-Sa 09:00-18:00; Su 11:00-16:00", "brand": "Sears Hometown", "brand:wikidata": "Q69926963", "nsi_id": "searshometown-592fe0"}, "geometry": {"type": "Point", "coordinates": [-96.471001, 32.087532]}},
{"type": "Feature", "id": "YeOSWi3wichaT0PeayhKcM_wOaQ=", "properties": {"ref": "0003418", "@spider": "sears_hometown", "shop": "department_store", "addr:street_address": "3801 NORTH ST", "addr:city": "NACOGDOCHES", "addr:state": "TX", "addr:postcode": "75965", "name": "NACOGDOCHES - AUTH HOMETOWN", "phone": "9365698262", "opening_hours": "Mo-Sa 09:00-18:00; Su 12:00-17:00", "brand": "Sears Hometown", "brand:wikidata": "Q69926963", "nsi_id": "searshometown-592fe0"}, "geometry": {"type": "Point", "coordinates": [-94.653412, 31.639338]}},
{"type": "Feature", "id": "z1boh9G28Eju4tvSQ3SzVDH8V_U=", "properties": {"ref": "0003538", "@spider": "sears_hometown", "shop": "department_store", "addr:street_address": "1507 W 5TH ST", "addr:city": "PLAINVIEW", "addr:state": "TX", "addr:postcode": "79072", "name": "PLAINVIEW - AUTH HOMETOWN", "phone": "8062932244", "opening_hours": "Mo-Sa 09:00-18:00; Su 11:00-16:00", "brand": "Sears Hometown", "brand:wikidata": "Q69926963", "nsi_id": "searshometown-592fe0"}, "geometry": {"type": "Point", "coordinates": [-101.72021, 34.184086]}},
{"type": "Feature", "id": "RAMBiUt6yfqV814c3s5vYgTGcLM=", "properties": {"ref": "0003577", "@spider": "sears_hometown", "shop": "department_store", "addr:street_address": "1339 N PINE", "addr:city": "DE RIDDER", "addr:state": "LA", "addr:postcode": "70634", "name": "DE RIDDER - AUTH HOMETOWN", "phone": "3374633257", "opening_hours": "Mo-Sa 09:00-18:00; Su 12:00-17:00", "brand": "Sears Hometown", "brand:wikidata": "Q69926963", "nsi_id": "searshometown-592fe0"}, "geometry": {"type": "Point", "coordinates": [-93.284805, 30.871233]}},
{"type": "Feature", "id": "1XaGN3IkbRBKDMsucU3tyGcol08=", "properties": {"ref": "0001629", "@spider": "sears_hometown", "shop": "department_store", "addr:street_address": "500 N JACKSON RD B-1", "addr:city": "PHARR", "addr:state": "TX", "addr:postcode": "78577", "name": "PHARR, TX", "phone": "9564023106", "opening_hours": "Mo-Sa 10:00-19:00; Su 12:00-18:00", "brand": "Sears Hometown", "brand:wikidata": "Q69926963", "nsi_id": "searshometown-592fe0"}, "geometry": {"type": "Point", "coordinates": [-98.20165000000003, 26.2025783]}},
{"type": "Feature", "id": "HYFJTYoeJKacEP9FXh6lM-4uEHc=", "properties": {"ref": "0003019", "@spider": "sears_hometown", "shop": "department_store", "addr:street_address": "702 N HWY", "addr:city": "COLVILLE", "addr:state": "WA", "addr:postcode": "99114", "name": "COLVILLE - AUTH HOMETOWN", "phone": "5096851880", "opening_hours": "Mo-Sa 09:00-18:00; Su 11:00-16:00", "brand": "Sears Hometown", "brand:wikidata": "Q69926963", "nsi_id": "searshometown-592fe0"}, "geometry": {"type": "Point", "coordinates": [-117.90495, 48.538029]}},
{"type": "Feature", "id": "BC-avIz-O64UNzTUG9y31_kFjVQ=", "properties": {"ref": "0003533", "@spider": "sears_hometown", "shop": "department_store", "addr:street_address": "65 NORTHGATE PLAZA", "addr:city": "MORRISVILLE", "addr:state": "VT", "addr:postcode": "05661", "name": "NORTHGATE PLZ", "phone": "8028884333", "opening_hours": "Mo-Sa 09:00-18:00; Su 11:00-16:00", "brand": "Sears Hometown", "brand:wikidata": "Q69926963", "nsi_id": "searshometown-592fe0"}, "geometry": {"type": "Point", "coordinates": [-72.59251, 44.57571]}},
{"type": "Feature", "id": "L-ZdfyyiEk_WhlMJvBPPP7i7p1g=", "properties": {"ref": "0003503", "@spider": "sears_hometown", "shop": "department_store", "addr:street_address": "1598 US ROUTE 302 BERLIN", "addr:city": "BARRE", "addr:state": "VT", "addr:postcode": "05641", "name": "BARRE - AUTH HOMETOWN", "phone": "8024792541", "opening_hours": "Mo 09:00-18:00; Tu 09:00-20:30; We-Fr 09:00-18:00; Sa 09:00-17:00; Su 11:00-16:00", "brand": "Sears Hometown", "brand:wikidata": "Q69926963", "nsi_id": "searshometown-592fe0"}, "geometry": {"type": "Point", "coordinates": [-72.553856, 44.230953]}},
{"type": "Feature", "id": "9B4HhRd-V7fGlwx2xL1UlO8ryr0=", "properties": {"ref": "0003920", "@spider": "sears_hometown", "shop": "department_store", "addr:street_address": "1690 E 23RD ST", "addr:city": "FREMONT", "addr:state": "NE", "addr:postcode": "68025", "name": "FREMONT - AUTH HOMETOWN", "phone": "4027275225", "opening_hours": "Mo-Fr 09:30-19:00; Sa 09:00-18:00; Su 12:00-17:00", "brand": "Sears Hometown", "brand:wikidata": "Q69926963", "nsi_id": "searshometown-592fe0"}, "geometry": {"type": "Point", "coordinates": [-96.476334, 41.451321]}},
{"type": "Feature", "id": "4TivVDjzS-E31z8TADxWcgPX0CE=", "properties": {"ref": "0003011", "@spider": "sears_hometown", "shop": "department_store", "addr:street_address": "4300 23RD ST", "addr:city": "COLUMBUS", "addr:state": "NE", "addr:postcode": "68601", "name": "COLUMBUS - AUTH HOMETOWN", "phone": "4025627068", "opening_hours": "Mo-Sa 09:00-18:00; Su 12:00-17:00", "brand": "Sears Hometown", "brand:wikidata": "Q69926963", "nsi_id": "searshometown-592fe0"}, "geometry": {"type": "Point", "coordinates": [-97.380829, 41.438702]}},
{"type": "Feature", "id": "eOuHd1wiTf2xFk0IymoNx3cAjzU=", "properties": {"ref": "0003734", "@spider": "sears_hometown", "shop": "department_store", "addr:street_address": "2110 MARKET LN", "addr:city": "NORFOLK", "addr:state": "NE", "addr:postcode": "68701", "name": "NORFOLK - AUTH HOMETOWN", "phone": "4023713505", "opening_hours": "Mo 09:00-19:00; Tu-We 09:00-18:00; Th 09:00-19:00; Fr-Sa 09:00-18:00; Su 12:00-17:00", "brand": "Sears Hometown", "brand:wikidata": "Q69926963", "nsi_id": "searshometown-592fe0"}, "geometry": {"type": "Point", "coordinates": [-97.437035, 42.022167]}},
{"type": "Feature", "id": "6v0XE-8MraWS09WB0iwmYwRe97E=", "properties": {"ref": "0003248", "@spider": "sears_hometown", "shop": "department_store", "addr:street_address": "1105 US HIGHWAY 2 W", "addr:city": "KALISPELL", "addr:state": "MT", "addr:postcode": "59901", "name": "KALISPELL - AUTH HOMETOWN", "phone": "4067555678", "opening_hours": "Mo-Sa 09:00-18:00; Su 11:00-16:00", "brand": "Sears Hometown", "brand:wikidata": "Q69926963", "nsi_id": "searshometown-592fe0"}, "geometry": {"type": "Point", "coordinates": [-114.33037, 48.200577]}},
{"type": "Feature", "id": "UUtHqi14fChSMousPGD-GH442A4=", "properties": {"ref": "0007782", "@spider": "sears_hometown", "shop": "department_store", "addr:street_address": "1315 SOUTH MAIN ST STE A", "addr:city": "MARYVILLE", "addr:state": "MO", "addr:postcode": "64468", "name": "MARYVILLE - AUTH HOMETOWN", "phone": "6605822932", "opening_hours": "Mo-Sa 09:00-18:00; Su 12:00-17:00", "brand": "Sears Hometown", "brand:wikidata": "Q69926963", "nsi_id": "searshometown-592fe0"}, "geometry": {"type": "Point", "coordinates": [-94.873719, 40.329587]}},
{"type": "Feature", "id": "VkYY4XzO4hHiSW3HR6EoXbvmUQQ=", "properties": {"ref": "0003592", "@spider": "sears_hometown", "shop": "department_store", "addr:street_address": "101 N 4TH ST", "addr:city": "ATCHISON", "addr:state": "KS", "addr:postcode": "66002", "name": "ATCHISON - AUTH HOMETOWN", "phone": "9133673745", "opening_hours": "Mo-Fr 09:00-18:00; Sa 09:00-17:00; Su 11:00-16:00", "brand": "Sears Hometown", "brand:wikidata": "Q69926963", "nsi_id": "searshometown-592fe0"}, "geometry": {"type": "Point", "coordinates": [-95.117493, 39.562057]}},
{"type": "Feature", "id": "tz12OeI_xHHu6XhD-tDIlTpWGF0=", "properties": {"ref": "0001797", "@spider": "sears_hometown", "shop": "department_store", "addr:street_address": "6327 W119TH STREET", "addr:city": "OVERLAND PARK", "addr:state": "KS", "addr:postcode": "66209", "name": "SEARS HOME & LIFE OVERLAND", "phone": "9132748014", "opening_hours": "Mo-Sa 10:00-18:00; Su 11:00-18:00", "brand": "Sears Hometown", "brand:wikidata": "Q69926963", "nsi_id": "searshometown-592fe0"}, "geometry": {"type": "Point", "coordinates": [-94.65901, 38.9121]}},
{"type": "Feature", "id": "8z1ZKKNdXDsifNhJ53x31NR6NBY=", "properties": {"ref": "0007614", "@spider": "sears_hometown", "shop": "department_store", "addr:street_address": "7501 GOODMAN RD SUITE E", "addr:city": "OLIVE BRANCH", "addr:state": "MS", "addr:postcode": "38654", "name": "VILLAGE SHOPS AT CRUMPLER PLC", "phone": "6628909334", "opening_hours": "Mo-Sa 09:30-18:30; Su 12:00-17:00", "brand": "Sears Hometown", "brand:wikidata": "Q69926963", "nsi_id": "searshometown-592fe0"}, "geometry": {"type": "Point", "coordinates": [-89.856727, 34.962181]}},
{"type": "Feature", "id": "YBnYk8NX8aamvy_PRvZzvGl-rwI=", "properties": {"ref": "0003327", "@spider": "sears_hometown", "shop": "department_store", "addr:street_address": "707 N LAMAR BLVD", "addr:city": "OXFORD", "addr:state": "MS", "addr:postcode": "38655", "name": "OXFORD - AUTH HOMETOWN", "phone": "6622344541", "opening_hours": "Mo-Sa 09:00-18:00; Su 12:00-17:00", "brand": "Sears Hometown", "brand:wikidata": "Q69926963", "nsi_id": "searshometown-592fe0"}, "geometry": {"type": "Point", "coordinates": [-89.517029, 34.373108]}},
{"type": "Feature", "id": "lifyMvtTNFE9djjezWR0uR7zUM8=", "properties": {"ref": "0003926", "@spider": "sears_hometown", "shop": "department_store", "addr:street_address": "1005 HIGHWAY #49 WEST", "addr:city": "WEST HELENA", "addr:state": "AR", "addr:postcode": "72390", "name": "WEST HELENA - AUTH HOMETOWN", "phone": "8705720001", "opening_hours": "Mo-Sa 08:30-18:00; Su 11:00-16:00", "brand": "Sears Hometown", "brand:wikidata": "Q69926963", "nsi_id": "searshometown-592fe0"}, "geometry": {"type": "Point", "coordinates": [-90.662823, 34.55418]}},
{"type": "Feature", "id": "JSaZyx1U1IXAvZzOaQc_cUCQmnE=", "properties": {"ref": "0003880", "@spider": "sears_hometown", "shop": "department_store", "addr:street_address": "702 HWY 64 E", "addr:city": "WYNNE", "addr:state": "AR", "addr:postcode": "72396", "name": "WYNNE - AUTH HOMETOWN", "phone": "8702385900", "opening_hours": "Mo-Sa 08:30-18:00; Su 12:00-17:00", "brand": "Sears Hometown", "brand:wikidata": "Q69926963", "nsi_id": "searshometown-592fe0"}, "geometry": {"type": "Point", "coordinates": [-90.784348, 35.235371]}},
{"type": "Feature", "id": "B_xPmHiMji99naJNZB69Unp0Qfc=", "properties": {"ref": "0003707", "@spider": "sears_hometown", "shop": "department_store", "addr:street_address": "717 W PARK AVE", "addr:city": "GREENWOOD", "addr:state": "MS", "addr:postcode": "38930", "name": "GREENWOOD - AUTH HOMETOWN", "phone": "6624532131", "opening_hours": "Mo-Sa 09:00-18:00; Su 12:00-17:00", "brand": "Sears Hometown", "brand:wikidata": "Q69926963", "nsi_id": "searshometown-592fe0"}, "geometry": {"type": "Point", "coordinates": [-90.195633, 33.530018]}},
{"type": "Feature", "id": "6sdgq2OwlPHl8XWz6Qs9mY-hltY=", "properties": {"ref": "0003631", "@spider": "sears_hometown", "shop": "department_store", "addr:street_address": "210 1ST STREET SOUTH EAST", "addr:city": "LITTLE FALLS", "addr:state": "MN", "addr:postcode": "56345", "name": "LITTLE FALLS-AUTH HOMETOWN", "phone": "3206162892", "opening_hours": "Mo-Sa 09:00-18:00; Su 11:00-16:00", "brand": "Sears Hometown", "brand:wikidata": "Q69926963", "nsi_id": "searshometown-592fe0"}, "geometry": {"type": "Point", "coordinates": [-94.36316, 45.975221]}},
{"type": "Feature", "id": "qbck57doqQOoZIbkfNbITct3gqE=", "properties": {"ref": "0007671", "@spider": "sears_hometown", "shop": "department_store", "addr:street_address": "14283 FENTON RD", "addr:city": "FENTON", "addr:state": "MI", "addr:postcode": "48430", "name": "FENTON -AUTH HOMETOWN STORE", "phone": "8106291900", "opening_hours": "Mo-Sa 09:00-18:00; Su 11:00-16:00", "brand": "Sears Hometown", "brand:wikidata": "Q69926963", "nsi_id": "searshometown-592fe0"}, "geometry": {"type": "Point", "coordinates": [-83.706062, 42.805265]}},
{"type": "Feature", "id": "ojCiPneoM0IrrGNKk1WbZEfx9Yw=", "properties": {"ref": "0004787", "@spider": "sears_hometown", "shop": "department_store", "addr:street_address": "5547 I-55 SOUTH", "addr:city": "BYRAM", "addr:state": "MS", "addr:postcode": "39272", "name": "BYRAM - AUTH HOMETOWN", "phone": "7692515033", "opening_hours": "Mo-Sa 09:00-18:00; Su 13:00-18:00", "brand": "Sears Hometown", "brand:wikidata": "Q69926963", "nsi_id": "searshometown-592fe0"}, "geometry": {"type": "Point", "coordinates": [-90.24486, 32.179621]}},
{"type": "Feature", "id": "TqZ01ED951e99zsiLg0_N-n5ZBo=", "properties": {"ref": "0003377", "@spider": "sears_hometown", "shop": "department_store", "addr:street_address": "2480 I 20 FRONTAGE RD", "addr:city": "VICKSBURG", "addr:state": "MS", "addr:postcode": "39180", "name": "VICKSBURG - AUTH HOMETOWN", "phone": "6016309002", "opening_hours": "Mo-Fr 09:30-19:00; Sa 09:00-18:00; Su 11:30-16:30", "brand": "Sears Hometown", "brand:wikidata": "Q69926963", "nsi_id": "searshometown-592fe0"}, "geometry": {"type": "Point", "coordinates": [-90.861565, 32.327011]}},
{"type": "Feature", "id": "7rQR9lJJMZq5P2RWKXZIbojHNXo=", "properties": {"ref": "0003706", "@spider": "sears_hometown", "shop": "department_store", "addr:street_address": "410 PINOLA DR SE", "addr:city": "MAGEE", "addr:state": "MS", "addr:postcode": "39111", "name": "MAGEE - AUTH HOMETOWN", "phone": "6018499188", "opening_hours": "Mo-Sa 09:00-18:00; Su 11:00-16:00", "brand": "Sears Hometown", "brand:wikidata": "Q69926963", "nsi_id": "searshometown-592fe0"}, "geometry": {"type": "Point", "coordinates": [-89.731369, 31.864927]}},
{"type": "Feature", "id": "eIcaOFFDfmoD4Jabj61BulKhhQs=", "properties": {"ref": "0003397", "@spider": "sears_hometown", "shop": "department_store", "addr:street_address": "222 HIGHWAY 51 NORTH", "addr:city": "BROOKHAVEN", "addr:state": "MS", "addr:postcode": "39601", "name": "BROOKHAVEN - AUTH HOMETOWN", "phone": "6018335811", "opening_hours": "Mo-Sa 09:00-18:00; Su 13:00-18:00", "brand": "Sears Hometown", "brand:wikidata": "Q69926963", "nsi_id": "searshometown-592fe0"}, "geometry": {"type": "Point", "coordinates": [-90.456322, 31.583252]}},
{"type": "Feature", "id": "1Nti9Kq_laNJ3V7aAC7ZbpWX0vM=", "properties": {"ref": "0003565", "@spider": "sears_hometown", "shop": "department_store", "addr:street_address": "31 S SERGEANT PRENTISS DR  3", "addr:city": "NATCHEZ", "addr:state": "MS", "addr:postcode": "39120", "name": "SOUTHGATE S/C", "phone": "6014468070", "opening_hours": "Mo-Sa 09:00-18:00; Su 11:00-16:00", "brand": "Sears Hometown", "brand:wikidata": "Q69926963", "nsi_id": "searshometown-592fe0"}, "geometry": {"type": "Point", "coordinates": [-91.385727, 31.530476]}},
{"type": "Feature", "id": "770ADXmzxWtS8oYcKhfDUCpSIuc=", "properties": {"ref": "0003297", "@spider": "sears_hometown", "shop": "department_store", "addr:street_address": "412 AVENUE B", "addr:city": "BOGALUSA", "addr:state": "LA", "addr:postcode": "70427", "name": "BOGALUSA - AUTH HOMETOWN", "phone": "9857323641", "opening_hours": "Mo-Sa 09:00-18:00; Su 11:00-16:00", "brand": "Sears Hometown", "brand:wikidata": "Q69926963", "nsi_id": "searshometown-592fe0"}, "geometry": {"type": "Point", "coordinates": [-89.866226, 30.778578]}},
{"type": "Feature", "id": "ELIV6O7hVKeGbK6zSYpZ-qzIpvE=", "properties": {"ref": "0002157", "@spider": "sears_hometown", "shop": "department_store", "addr:street_address": "23392 SUSSEX HIGHWAY", "addr:city": "SEAFORD", "addr:state": "DE", "addr:postcode": "19973", "name": "SEAFORD - AUTH HOMETOWN", "phone": "3026286966", "opening_hours": "Mo-Fr 09:00-19:00; Sa 09:00-18:00; Su 11:00-16:00", "brand": "Sears Hometown", "brand:wikidata": "Q69926963", "nsi_id": "searshometown-592fe0"}, "geometry": {"type": "Point", "coordinates": [-75.59512, 38.657209]}},
{"type": "Feature", "id": "b42gmt7NrApvp6WclhSpOMDUpv8=", "properties": {"ref": "0003427", "@spider": "sears_hometown", "shop": "department_store", "addr:street_address": "57 SWEDEN ST", "addr:city": "CARIBOU", "addr:state": "ME", "addr:postcode": "04736", "name": "CARIBOU-HTS INSIDE", "phone": "2074968691", "opening_hours": "Mo-Sa 09:00-19:00; Su 09:00-17:00", "brand": "Sears Hometown", "brand:wikidata": "Q69926963", "nsi_id": "searshometown-592fe0"}, "geometry": {"type": "Point", "coordinates": [-68.014765, 46.860559]}},
{"type": "Feature", "id": "OYx_0KQwR2hjcqiCWtJIMGFdHp4=", "properties": {"ref": "0001706", "@spider": "sears_hometown", "shop": "department_store", "addr:street_address": "4405 AMBASSADOR CAFFERY", "addr:city": "LAFAYETTE", "addr:state": "LA", "addr:postcode": "70508", "name": "SEARS HOME & LIFE LAFAYETTE", "phone": "3372541364", "opening_hours": "Mo-Fr 10:00-19:00; Sa 09:00-18:00; Su 10:00-18:00", "brand": "Sears Hometown", "brand:wikidata": "Q69926963", "nsi_id": "searshometown-592fe0"}, "geometry": {"type": "Point", "coordinates": [-92.04777, 30.15927]}},
{"type": "Feature", "id": "nLoRHVtxtncD4CDMg5Yx2PWs6qg=", "properties": {"ref": "0003146", "@spider": "sears_hometown", "shop": "department_store", "addr:street_address": "170 TOWN MOUNTAIN RD STE 1", "addr:city": "PIKEVILLE", "addr:state": "KY", "addr:postcode": "41501", "name": "PIKEVILLE - AUTH HOMETOWN", "phone": "6064322571", "opening_hours": "Mo-Sa 09:00-18:00; Su 13:00-18:00", "brand": "Sears Hometown", "brand:wikidata": "Q69926963", "nsi_id": "searshometown-592fe0"}, "geometry": {"type": "Point", "coordinates": [-82.511822, 37.484338]}},
{"type": "Feature", "id": "zRNioxP_1JLpr4NQgTZs7qSf7A0=", "properties": {"ref": "0003126", "@spider": "sears_hometown", "shop": "department_store", "addr:street_address": "804 S 4TH ST", "addr:city": "DANVILLE", "addr:state": "KY", "addr:postcode": "40422", "name": "DANVILLE - AUTH HOMETOWN", "phone": "8592363011", "opening_hours": "Mo-Sa 09:00-18:00; Su 11:00-16:00", "brand": "Sears Hometown", "brand:wikidata": "Q69926963", "nsi_id": "searshometown-592fe0"}, "geometry": {"type": "Point", "coordinates": [-84.774984, 37.632424]}},
{"type": "Feature", "id": "-hHV5ZHRhunCxeHAnCyl3-rAoco=", "properties": {"ref": "0003086", "@spider": "sears_hometown", "shop": "department_store", "addr:street_address": "275 SOUTHSIDE MALL RD STE 10B", "addr:city": "S WILLIAMSON", "addr:state": "KY", "addr:postcode": "41503", "name": "S WILLIAMSON -AUTH HOMETOWN", "phone": "6062371022", "opening_hours": "Mo-Sa 10:00-19:00; Su 13:00-18:00", "brand": "Sears Hometown", "brand:wikidata": "Q69926963", "nsi_id": "searshometown-592fe0"}, "geometry": {"type": "Point", "coordinates": [-82.273544, 37.653179]}},
{"type": "Feature", "id": "YTMLhuPIpbNQ8Ghj7FRlZ0AyDRE=", "properties": {"ref": "0003218", "@spider": "sears_hometown", "shop": "department_store", "addr:street_address": "220 S MAIN", "addr:city": "OTTAWA", "addr:state": "KS", "addr:postcode": "66067", "name": "OTTAWA - AUTH HOMETOWN", "phone": "7852422820", "opening_hours": "Mo-Fr 09:00-18:30; Sa 09:00-18:00; Su 12:00-17:00", "brand": "Sears Hometown", "brand:wikidata": "Q69926963", "nsi_id": "searshometown-592fe0"}, "geometry": {"type": "Point", "coordinates": [-95.26828, 38.615376]}},
{"type": "Feature", "id": "QkNXc9eAY4PExWg2peDfDGlPt7w=", "properties": {"ref": "0003326", "@spider": "sears_hometown", "shop": "department_store", "addr:street_address": "445 N. MARSHALL", "addr:city": "CHAPMAN", "addr:state": "KS", "addr:postcode": "67431", "name": "JUNCTION CITY-AUTH HOMETOWN", "phone": "7852387327", "opening_hours": "Mo-Fr 09:00-17:30; Sa 09:00-16:00; Su 00:00-24:00", "brand": "Sears Hometown", "brand:wikidata": "Q69926963", "nsi_id": "searshometown-592fe0"}, "geometry": {"type": "Point", "coordinates": [-96.823784, 39.021381]}},
{"type": "Feature", "id": "yDGoKkjGeATianAgQx9vJwTah6g=", "properties": {"ref": "0004899", "@spider": "sears_hometown", "shop": "department_store", "addr:street_address": "1301 WEST BURLINGTON AVE", "addr:city": "FAIRFIELD", "addr:state": "IA", "addr:postcode": "52556", "name": "FAIRFIELD - AUTH HOMETOWN", "phone": "6414720034", "opening_hours": "Mo-Sa 09:00-18:00; Su 11:00-16:00", "brand": "Sears Hometown", "brand:wikidata": "Q69926963", "nsi_id": "searshometown-592fe0"}, "geometry": {"type": "Point", "coordinates": [-91.978387, 41.006566]}},
{"type": "Feature", "id": "rHN08r40ssZNy-E5RnHP2kcBfdc=", "properties": {"ref": "0003284", "@spider": "sears_hometown", "shop": "department_store", "addr:street_address": "507 4TH ST SW", "addr:city": "MASON CITY", "addr:state": "IA", "addr:postcode": "50401", "name": "MASON CITY - AUTH HTS", "phone": "6415120809", "opening_hours": "Mo-Sa 09:00-18:00; Su 11:00-16:00", "brand": "Sears Hometown", "brand:wikidata": "Q69926963", "nsi_id": "searshometown-592fe0"}, "geometry": {"type": "Point", "coordinates": [-93.209529, 43.147954]}},
{"type": "Feature", "id": "oR5rcidikgPtuw8XOgMHaKKgGos=", "properties": {"ref": "0001871", "@spider": "sears_hometown", "shop": "department_store", "addr:street_address": "1828 1ST AVE SOUTH", "addr:city": "FORT DODGE", "addr:state": "IA", "addr:postcode": "50501", "name": "FORT DODGE AUTH HMTWN STORE", "phone": "5155748000", "opening_hours": "Mo-Fr 09:00-19:00; Sa 09:00-18:00; Su 12:00-17:00", "brand": "Sears Hometown", "brand:wikidata": "Q69926963", "nsi_id": "searshometown-592fe0"}, "geometry": {"type": "Point", "coordinates": [-94.163, 42.504]}},
{"type": "Feature", "id": "VmkrMTfhT8C7Smo6D3ClECaaBrQ=", "properties": {"ref": "0003267", "@spider": "sears_hometown", "shop": "department_store", "addr:street_address": "2706 VINE ST", "addr:city": "HAYS", "addr:state": "KS", "addr:postcode": "67601", "name": "HAYS - AUTH HOMETOWN", "phone": "7856255641", "opening_hours": "Mo-Sa 09:00-19:00; Su 11:00-17:00", "brand": "Sears Hometown", "brand:wikidata": "Q69926963", "nsi_id": "searshometown-592fe0"}, "geometry": {"type": "Point", "coordinates": [-99.317696, 38.885689]}},
{"type": "Feature", "id": "UPm2G-PzNV0I7bUQNJrlf3CCKOo=", "properties": {"ref": "0003257", "@spider": "sears_hometown", "shop": "department_store", "addr:street_address": "2601 CENTRAL AVE", "addr:city": "DODGE CITY", "addr:state": "KS", "addr:postcode": "67801", "name": "DODGE CITY - AUTH HOMETOWN", "phone": "6202272141", "opening_hours": "Mo-Sa 10:00-21:00; Su 12:00-18:00", "brand": "Sears Hometown", "brand:wikidata": "Q69926963", "nsi_id": "searshometown-592fe0"}, "geometry": {"type": "Point", "coordinates": [-100.0158, 37.778915]}},
{"type": "Feature", "id": "rHxRbG-6vd6zJJ4qaj7-qOMAkpU=", "properties": {"ref": "0003001", "@spider": "sears_hometown", "shop": "department_store", "addr:street_address": "1909 E AUSTIN BLVD", "addr:city": "NEVADA", "addr:state": "MO", "addr:postcode": "64772", "name": "NEVADA - AUTH HOMETOWN", "phone": "4176674499", "opening_hours": "Mo-Fr 09:00-18:30; Sa 09:00-18:00; Su 11:00-16:00", "brand": "Sears Hometown", "brand:wikidata": "Q69926963", "nsi_id": "searshometown-592fe0"}, "geometry": {"type": "Point", "coordinates": [-94.33686, 37.836609]}},
{"type": "Feature", "id": "ffubTw7gNcib7cg9-c7LttHZXg8=", "properties": {"ref": "0003082", "@spider": "sears_hometown", "shop": "department_store", "addr:street_address": "300 PENN ST", "addr:city": "INDEPENDENCE", "addr:state": "KS", "addr:postcode": "67301", "name": "INDEPENDENCE-AUTH HOMETOWN", "phone": "6203311818", "opening_hours": "Mo-Fr 09:00-18:00; Sa 08:00-17:00; Su 11:00-16:00", "brand": "Sears Hometown", "brand:wikidata": "Q69926963", "nsi_id": "searshometown-592fe0"}, "geometry": {"type": "Point", "coordinates": [-95.706452, 37.257476]}},
{"type": "Feature", "id": "A7cmy0wzm2e1iBy0iS7rxS8dFQg=", "properties": {"ref": "0003364", "@spider": "sears_hometown", "shop": "department_store", "addr:street_address": "632 WILTON RD", "addr:city": "FARMINGTON", "addr:state": "ME", "addr:postcode": "04938", "name": "MT BLUE S/C", "phone": "2077785758", "opening_hours": "Mo-Sa 09:00-18:00; Su 11:00-16:00", "brand": "Sears Hometown", "brand:wikidata": "Q69926963", "nsi_id": "searshometown-592fe0"}, "geometry": {"type": "Point", "coordinates": [-70.157421, 44.627525]}},
{"type": "Feature", "id": "ybevqUS3NR8s3Vscw5pl7ctnU3w=", "properties": {"ref": "0003007", "@spider": "sears_hometown", "shop": "department_store", "addr:street_address": "123 CARLA LANE", "addr:city": "MONTICELLO", "addr:state": "AR", "addr:postcode": "71655", "name": "MONTICELLO - AUTH 3007", "phone": "8703676222", "opening_hours": "Mo-Sa 09:00-18:00; Su 11:00-16:00", "brand": "Sears Hometown", "brand:wikidata": "Q69926963", "nsi_id": "searshometown-592fe0"}, "geometry": {"type": "Point", "coordinates": [-91.803352, 33.634235]}},
{"type": "Feature", "id": "iStQB6KjBgDAJFkFS5NT8zXCVPo=", "properties": {"ref": "0003799", "@spider": "sears_hometown", "shop": "department_store", "addr:street_address": "1101 NW 12TH AVE", "addr:city": "AVA", "addr:state": "MO", "addr:postcode": "65608", "name": "AVA  AUTH HOMETOWN STORE", "phone": "4176830190", "opening_hours": "Mo-Fr 07:30-17:30; Sa 08:00-14:00; Su 00:00-24:00", "brand": "Sears Hometown", "brand:wikidata": "Q69926963", "nsi_id": "searshometown-592fe0"}, "geometry": {"type": "Point", "coordinates": [-92.671163, 36.961214]}},
{"type": "Feature", "id": "7ZoRVSxiMlQIcys5Q0XBE1O-Ugs=", "properties": {"ref": "0003127", "@spider": "sears_hometown", "shop": "department_store", "addr:street_address": "1320 N MAIN ST", "addr:city": "HARRISON", "addr:state": "AR", "addr:postcode": "72601", "name": "HARRISON - AUTH HOMETOWN", "phone": "8707415466", "opening_hours": "Mo-Fr 08:30-18:00; Sa 09:00-18:00; Su 11:00-16:00", "brand": "Sears Hometown", "brand:wikidata": "Q69926963", "nsi_id": "searshometown-592fe0"}, "geometry": {"type": "Point", "coordinates": [-93.114388, 36.243557]}},
{"type": "Feature", "id": "g4IfDGCDiCT11l-X61jOvAvOAL8=", "properties": {"ref": "0001934", "@spider": "sears_hometown", "shop": "department_store", "addr:street_address": "322 EUREKA STREET", "addr:city": "BERRYVILLE", "addr:state": "AR", "addr:postcode": "72616", "name": "BERRYVILLE - AUTH HOMETOWN", "phone": "8704232122", "opening_hours": "Mo-Sa 09:00-18:00; Su 11:00-16:00", "brand": "Sears Hometown", "brand:wikidata": "Q69926963", "nsi_id": "searshometown-592fe0"}, "geometry": {"type": "Point", "coordinates": [-93.571313, 36.367945]}},
{"type": "Feature", "id": "WS98Sss_dtnl_N4913e9lIKJlUU=", "properties": {"ref": "0003794", "@spider": "sears_hometown", "shop": "department_store", "addr:street_address": "475 HWY 62/412", "addr:city": "ASH FLAT", "addr:state": "AR", "addr:postcode": "72513", "name": "ASH FLAT - AUTH HOMETOWN", "phone": "8709943117", "opening_hours": "Mo-Fr 08:30-18:00; Sa 09:00-18:00; Su 12:00-17:00", "brand": "Sears Hometown", "brand:wikidata": "Q69926963", "nsi_id": "searshometown-592fe0"}, "geometry": {"type": "Point", "coordinates": [-91.597572, 36.237385]}},
{"type": "Feature", "id": "jKI0iaR5sEnD52sp1n1lKmsGMkU=", "properties": {"ref": "0003324", "@spider": "sears_hometown", "shop": "department_store", "addr:street_address": "302 E 2ND STREET", "addr:city": "CHADRON", "addr:state": "NE", "addr:postcode": "69337", "name": "CHADRON - AUTH HOMETOWN", "phone": "3084328902", "opening_hours": "Mo-Sa 09:00-18:00; Su 11:00-16:00", "brand": "Sears Hometown", "brand:wikidata": "Q69926963", "nsi_id": "searshometown-592fe0"}, "geometry": {"type": "Point", "coordinates": [-102.997784, 42.830776]}},
{"type": "Feature", "id": "IIw7y7NFQLKLPJuZpmUU5MSIicE=", "properties": {"ref": "0003760", "@spider": "sears_hometown", "shop": "department_store", "addr:street_address": "1221 N WAYNE ST", "addr:city": "ANGOLA", "addr:state": "IN", "addr:postcode": "46703", "name": "ANGOLA -AUTH HOMETOWN", "phone": "2606658554", "opening_hours": "Mo-Th 09:00-18:00; Fr 09:00-19:00; Sa 09:00-18:00; Su 11:00-16:00", "brand": "Sears Hometown", "brand:wikidata": "Q69926963", "nsi_id": "searshometown-592fe0"}, "geometry": {"type": "Point", "coordinates": [-84.999573, 41.648701]}},
{"type": "Feature", "id": "GSQkGFNQiI_qLyyf4qqQoI_dwIE=", "properties": {"ref": "0003112", "@spider": "sears_hometown", "shop": "department_store", "addr:street_address": "105 W 24TH ST", "addr:city": "CONNERSVILLE", "addr:state": "IN", "addr:postcode": "47331", "name": "CONNERSVILLE -AUTH HOMETOWN", "phone": "7658274500", "opening_hours": "Mo-Sa 09:00-18:00; Su 11:00-16:00", "brand": "Sears Hometown", "brand:wikidata": "Q69926963", "nsi_id": "searshometown-592fe0"}, "geometry": {"type": "Point", "coordinates": [-85.12941, 39.664165]}},
{"type": "Feature", "id": "T_19AWIj74oswJ_oonTdVUMZto8=", "properties": {"ref": "0003881", "@spider": "sears_hometown", "shop": "department_store", "addr:street_address": "712 S. WEST ST", "addr:city": "OLNEY", "addr:state": "IL", "addr:postcode": "62450", "name": "OLNEY - AUTH HOMETOWN", "phone": "6183923434", "opening_hours": "Mo-Sa 09:00-18:00; Su 12:00-17:00", "brand": "Sears Hometown", "brand:wikidata": "Q69926963", "nsi_id": "searshometown-592fe0"}, "geometry": {"type": "Point", "coordinates": [-88.093273, 38.723772]}},
{"type": "Feature", "id": "-f-aN8s6ZrZbktNSbNt0a3mcJ0Y=", "properties": {"ref": "0003022", "@spider": "sears_hometown", "shop": "department_store", "addr:street_address": "1306 THELMA KELLER AVE", "addr:city": "EFFINGHAM", "addr:state": "IL", "addr:postcode": "62401", "name": "EFFINGHAM - AUTH HOMETOWN", "phone": "2173422658", "opening_hours": "Mo-Sa 09:00-18:00; Su 11:00-16:00", "brand": "Sears Hometown", "brand:wikidata": "Q69926963", "nsi_id": "searshometown-592fe0"}, "geometry": {"type": "Point", "coordinates": [-88.563286, 39.139263]}},
{"type": "Feature", "id": "XjJDeUKGnTqPVXKb3Wa-vqI77A0=", "properties": {"ref": "0003681", "@spider": "sears_hometown", "shop": "department_store", "addr:street_address": "601 N COMMERCIAL ST STE 10", "addr:city": "HARRISBURG", "addr:state": "IL", "addr:postcode": "62946", "name": "HARRISBURG - AUTH HOMETOWN", "phone": "6182534007", "opening_hours": "Mo-Sa 09:00-19:00; Su 09:00-16:00", "brand": "Sears Hometown", "brand:wikidata": "Q69926963", "nsi_id": "searshometown-592fe0"}, "geometry": {"type": "Point", "coordinates": [-88.526398, 37.743473]}},
{"type": "Feature", "id": "1s_LJLSjEFj9ucMLNVKnN4NK2ec=", "properties": {"ref": "0003151", "@spider": "sears_hometown", "shop": "department_store", "addr:street_address": "2338 OVERLAND AVE", "addr:city": "BURLEY", "addr:state": "ID", "addr:postcode": "83318", "name": "BURLEY - AUTH HOMETOWN", "phone": "2088788004", "opening_hours": "Mo-Sa 09:00-18:00; Su 12:00-17:00", "brand": "Sears Hometown", "brand:wikidata": "Q69926963", "nsi_id": "searshometown-592fe0"}, "geometry": {"type": "Point", "coordinates": [-113.79256, 42.524944]}},
{"type": "Feature", "id": "FDIdQUtf82k8Xx_uiacBTo1ECpw=", "properties": {"ref": "0003925", "@spider": "sears_hometown", "shop": "department_store", "addr:street_address": "2417 S MAIN ST", "addr:city": "MOULTRIE", "addr:state": "GA", "addr:postcode": "31768", "name": "SUNSET PLZ MALL", "phone": "2299854440", "opening_hours": "Mo-Sa 09:00-18:00; Su 13:00-18:00", "brand": "Sears Hometown", "brand:wikidata": "Q69926963", "nsi_id": "searshometown-592fe0"}, "geometry": {"type": "Point", "coordinates": [-83.954086, 31.060567]}},
{"type": "Feature", "id": "vP_D7nL9bB-zQtLjgyIcAz-3xTI=", "properties": {"ref": "0004242", "@spider": "sears_hometown", "shop": "department_store", "addr:street_address": "621 BOLL WEEVIL CIR. SUITE 27", "addr:city": "ENTERPRISE", "addr:state": "AL", "addr:postcode": "36330", "name": "ENTERPRISE-AUTH HOMETOWN ST", "phone": "3344754008", "opening_hours": "Mo-Sa 09:00-18:00; Su 11:00-16:00", "brand": "Sears Hometown", "brand:wikidata": "Q69926963", "nsi_id": "searshometown-592fe0"}, "geometry": {"type": "Point", "coordinates": [-85.429375, 31.227741]}},
{"type": "Feature", "id": "YmFp7a3Y1QhoBHeVUtOpFzlMn_M=", "properties": {"ref": "0007720", "@spider": "sears_hometown", "shop": "department_store", "addr:street_address": "411 W MADISON STREET", "addr:city": "STARKE", "addr:state": "FL", "addr:postcode": "32091", "name": "STARKE - AUTH HOMETOWN", "phone": "9043689966", "opening_hours": "Mo-Sa 09:00-18:00; Su 12:30-17:30", "brand": "Sears Hometown", "brand:wikidata": "Q69926963", "nsi_id": "searshometown-592fe0"}, "geometry": {"type": "Point", "coordinates": [-82.112975, 29.944301]}},
{"type": "Feature", "id": "OyB9f7JCBZRUvqgoSvZQIi9TemI=", "properties": {"ref": "0007378", "@spider": "sears_hometown", "shop": "department_store", "addr:street_address": "11223 NORTH WILLIAMS ST STE M", "addr:city": "DUNNELLON", "addr:state": "FL", "addr:postcode": "34432", "name": "DUNNELLON - AUTH HOMETOWN", "phone": "3525220861", "opening_hours": "Mo-Sa 09:00-18:00; Su 11:00-16:00", "brand": "Sears Hometown", "brand:wikidata": "Q69926963", "nsi_id": "searshometown-592fe0"}, "geometry": {"type": "Point", "coordinates": [-82.45326, 29.060157]}},
{"type": "Feature", "id": "YTwQmABwBwxwes7OtDma9hWefr8=", "properties": {"ref": "0003150", "@spider": "sears_hometown", "shop": "department_store", "addr:street_address": "16750 SOUTH HWY 441", "addr:city": "SUMMERFIELD", "addr:state": "FL", "addr:postcode": "34491", "name": "SUMMERFIELD - AUTH HOMETOWN", "phone": "3522456250", "opening_hours": "Mo-Sa 09:00-18:00; Su 12:00-17:00", "brand": "Sears Hometown", "brand:wikidata": "Q69926963", "nsi_id": "searshometown-592fe0"}, "geometry": {"type": "Point", "coordinates": [-81.98143, 28.975534]}},
{"type": "Feature", "id": "0uO0ZVdKqhgIPJcFaO88ZOBJJYU=", "properties": {"ref": "0003848", "@spider": "sears_hometown", "shop": "department_store", "addr:street_address": "239 WALKER RD", "addr:city": "ALAMOSA", "addr:state": "CO", "addr:postcode": "81101", "name": "ALAMOSA - AUTH HOMETOWN", "phone": "7195873882", "opening_hours": "Mo-Sa 09:00-18:00; Su 11:00-16:00", "brand": "Sears Hometown", "brand:wikidata": "Q69926963", "nsi_id": "searshometown-592fe0"}, "geometry": {"type": "Point", "coordinates": [-105.89537, 37.479809]}},
{"type": "Feature", "id": "1xEgfi9crjji8L4DH4GTaQcYoQc=", "properties": {"ref": "0003208", "@spider": "sears_hometown", "shop": "department_store", "addr:street_address": "800 S CAMINO DEL RIO", "addr:city": "DURANGO", "addr:state": "CO", "addr:postcode": "81301", "name": "DURANGO - AUTH HOMETOWN", "phone": "9702472423", "opening_hours": "Mo-Fr 10:00-20:00; Sa 10:00-19:00; Su 11:00-18:00", "brand": "Sears Hometown", "brand:wikidata": "Q69926963", "nsi_id": "searshometown-592fe0"}, "geometry": {"type": "Point", "coordinates": [-107.87115, 37.242664]}},
{"type": "Feature", "id": "DXp-2f05vmGJtdbgnejaSSF1mZo=", "properties": {"ref": "0003168", "@spider": "sears_hometown", "shop": "department_store", "addr:street_address": "1445 HAWK PKWY", "addr:city": "MONTROSE", "addr:state": "CO", "addr:postcode": "81401", "name": "MONTROSE - AUTH HOMETOWN", "phone": "9702494596", "opening_hours": "Mo-Fr 09:00-18:00; Sa 09:00-17:00; Su 11:00-16:00", "brand": "Sears Hometown", "brand:wikidata": "Q69926963", "nsi_id": "searshometown-592fe0"}, "geometry": {"type": "Point", "coordinates": [-107.867252, 38.448881]}},
{"type": "Feature", "id": "WLpaa-uDOhz2cyP2lU90p7blIgY=", "properties": {"ref": "0009219", "@spider": "sears_hometown", "shop": "department_store", "addr:street_address": "49693 HARRISON STREET", "addr:city": "COACHELLA", "addr:state": "CA", "addr:postcode": "92236", "name": "COACHELLA - AUTH HOMETOWN", "phone": "7603983034", "opening_hours": "Mo-Su 10:00-19:30", "brand": "Sears Hometown", "brand:wikidata": "Q69926963", "nsi_id": "searshometown-592fe0"}, "geometry": {"type": "Point", "coordinates": [-116.181727, 33.686973]}},
{"type": "Feature", "id": "XJWc5rrL2iH2GZG6zTqP-D7Dv7U=", "properties": {"ref": "0004142", "@spider": "sears_hometown", "shop": "department_store", "addr:street_address": "905 WEST MAIN STREET", "addr:city": "CABOT", "addr:state": "AR", "addr:postcode": "72023", "name": "CABOT - AUTH HOMETOWN", "phone": "5016055900", "opening_hours": "Mo-Fr 09:30-19:00; Sa 09:00-18:00; Su 12:00-17:00", "brand": "Sears Hometown", "brand:wikidata": "Q69926963", "nsi_id": "searshometown-592fe0"}, "geometry": {"type": "Point", "coordinates": [-92.024334, 34.975998]}},
{"type": "Feature", "id": "kFHryrETRtRXAwXhc8D3nWSGzzQ=", "properties": {"ref": "0003906", "@spider": "sears_hometown", "shop": "department_store", "addr:street_address": "1339 HWY 270 WEST", "addr:city": "MALVERN", "addr:state": "AR", "addr:postcode": "72104", "name": "MALVERN - AUTH HOMETOWN", "phone": "5013324200", "opening_hours": "Mo-Sa 09:00-18:00; Su 12:00-17:00", "brand": "Sears Hometown", "brand:wikidata": "Q69926963", "nsi_id": "searshometown-592fe0"}, "geometry": {"type": "Point", "coordinates": [-92.825554, 34.375385]}},
{"type": "Feature", "id": "t8zI3M-iQrpt94EQ4SLG_t9hyAw=", "properties": {"ref": "0003167", "@spider": "sears_hometown", "shop": "department_store", "addr:street_address": "920 S ARKANSAS AVE", "addr:city": "RUSSELLVILLE", "addr:state": "AR", "addr:postcode": "72801", "name": "RUSSELLVILLE -AUTH HOMETOWN", "phone": "4799685101", "opening_hours": "Mo-Sa 09:00-18:00; Su 11:00-16:00", "brand": "Sears Hometown", "brand:wikidata": "Q69926963", "nsi_id": "searshometown-592fe0"}, "geometry": {"type": "Point", "coordinates": [-93.133652, 35.270222]}},
{"type": "Feature", "id": "nVGyzwa4GEzBKeZTKCIUnjkaJcs=", "properties": {"ref": "0003796", "@spider": "sears_hometown", "shop": "department_store", "addr:street_address": "2919 W PINE", "addr:city": "ARKADELPHIA", "addr:state": "AR", "addr:postcode": "71923", "name": "ARKADELPHIA - AUTH HOMETOWN", "phone": "8702453900", "opening_hours": "Mo-Sa 09:00-18:00; Su 11:00-16:00", "brand": "Sears Hometown", "brand:wikidata": "Q69926963", "nsi_id": "searshometown-592fe0"}, "geometry": {"type": "Point", "coordinates": [-93.085712, 34.119867]}},
{"type": "Feature", "id": "1_HLrOKJkp562UM7WalU9N-jueg=", "properties": {"ref": "0003097", "@spider": "sears_hometown", "shop": "department_store", "addr:street_address": "605 WEST MAIN STREET", "addr:city": "CLARKSVILLE", "addr:state": "AR", "addr:postcode": "72830", "name": "CLARKSVILLE - AUTH HOMETOWN", "phone": "4797543953", "opening_hours": "Mo-Fr 08:30-18:00; Sa 09:00-18:00; Su 12:00-17:00", "brand": "Sears Hometown", "brand:wikidata": "Q69926963", "nsi_id": "searshometown-592fe0"}, "geometry": {"type": "Point", "coordinates": [-93.461, 35.44895]}},
{"type": "Feature", "id": "SoIErsKllze1dwvOZ7odZrbVI1c=", "properties": {"ref": "0003256", "@spider": "sears_hometown", "shop": "department_store", "addr:street_address": "2580 HIGHWAY 95 SUITE 114", "addr:city": "BULLHEAD CITY", "addr:state": "AZ", "addr:postcode": "86442", "name": "BULLHEAD CITY-AUTH HOMETOWN", "phone": "9287041201", "opening_hours": "Mo-Sa 09:00-18:00; Su 11:00-16:00", "brand": "Sears Hometown", "brand:wikidata": "Q69926963", "nsi_id": "searshometown-592fe0"}, "geometry": {"type": "Point", "coordinates": [-114.59737, 35.09305]}},
{"type": "Feature", "id": "2KYNqCEpzSyiFv_8MF0t3NH_0SY=", "properties": {"ref": "0005770", "@spider": "sears_hometown", "shop": "department_store", "addr:street_address": "3798 S MCKENZIE ST", "addr:city": "FOLEY", "addr:state": "AL", "addr:postcode": "36535", "name": "FOLEY - AUTH HOMETOWN", "phone": "2519702122", "opening_hours": "Mo-Sa 09:00-18:00; Su 12:00-17:00", "brand": "Sears Hometown", "brand:wikidata": "Q69926963", "nsi_id": "searshometown-592fe0"}, "geometry": {"type": "Point", "coordinates": [-87.683458, 30.356571]}},
{"type": "Feature", "id": "UGKJy1ValaD0xotNJrmzaEIxA_M=", "properties": {"ref": "0003852", "@spider": "sears_hometown", "shop": "department_store", "addr:street_address": "4435 N COLLEGE AVE", "addr:city": "JACKSON", "addr:state": "AL", "addr:postcode": "36545", "name": "JACKSON - AUTH HOMETOWN", "phone": "2512464844", "opening_hours": "Mo-Sa 09:00-18:00; Su 12:00-17:00", "brand": "Sears Hometown", "brand:wikidata": "Q69926963", "nsi_id": "searshometown-592fe0"}, "geometry": {"type": "Point", "coordinates": [-87.879082, 31.548143]}},
{"type": "Feature", "id": "fnZqOfEUUCuDxv__LygY1nxdiBU=", "properties": {"ref": "0003105", "@spider": "sears_hometown", "shop": "department_store", "addr:street_address": "204 WEST BYPASS", "addr:city": "ANDALUSIA", "addr:state": "AL", "addr:postcode": "36420", "name": "ANDALUSIA - AUTH HOMETOWN", "phone": "3342088886", "opening_hours": "Mo-Sa 09:00-18:00; Su 12:00-17:00", "brand": "Sears Hometown", "brand:wikidata": "Q69926963", "nsi_id": "searshometown-592fe0"}, "geometry": {"type": "Point", "coordinates": [-86.456466, 31.31866]}},
{"type": "Feature", "id": "As3JwimKvEvfGLnbosk-ee8D2HY=", "properties": {"ref": "0003115", "@spider": "sears_hometown", "shop": "department_store", "addr:street_address": "2908 CITIZENS PKWY", "addr:city": "SELMA", "addr:state": "AL", "addr:postcode": "36701", "name": "SELMA - AUTH HOMETOWN", "phone": "3348747300", "opening_hours": "Mo-Sa 09:00-18:00; Su 11:00-16:00", "brand": "Sears Hometown", "brand:wikidata": "Q69926963", "nsi_id": "searshometown-592fe0"}, "geometry": {"type": "Point", "coordinates": [-87.019684, 32.441181]}},
{"type": "Feature", "id": "zFicGmJTqbGEEg26ibqnyeizoa8=", "properties": {"ref": "0003646", "@spider": "sears_hometown", "shop": "department_store", "addr:street_address": "1908 2ND AVE E", "addr:city": "ONEONTA", "addr:state": "AL", "addr:postcode": "35121", "name": "ONEONTA - AUTH HOMETOWN", "phone": "2052742309", "opening_hours": "Mo-Sa 09:00-18:00; Su 12:00-17:00", "brand": "Sears Hometown", "brand:wikidata": "Q69926963", "nsi_id": "searshometown-592fe0"}, "geometry": {"type": "Point", "coordinates": [-86.456779, 33.966576]}},
{"type": "Feature", "id": "iy84PvwUz6EmiJdI3jCi7O6c7tM=", "properties": {"ref": "0001841", "@spider": "sears_hometown", "shop": "department_store", "addr:street_address": "13212 N SAGUARO BLVD", "addr:city": "FOUNTAIN HLS", "addr:state": "AZ", "addr:postcode": "85268", "name": "FOUNTAIN HILLS-AUTH HOMETWN", "phone": "4808169775", "opening_hours": "Mo-Sa 09:00-18:00; Su 11:00-16:00", "brand": "Sears Hometown", "brand:wikidata": "Q69926963", "nsi_id": "searshometown-592fe0"}, "geometry": {"type": "Point", "coordinates": [-111.7142, 33.607613]}},
{"type": "Feature", "id": "ptkpiv8Hu5CqCZOrLSqt_JX-IGc=", "properties": {"ref": "0003087", "@spider": "sears_hometown", "shop": "department_store", "addr:street_address": "150 GARDEN OAKS DR SW", "addr:city": "CAMDEN", "addr:state": "AR", "addr:postcode": "71701", "name": "CAMDEN - AUTH HOMETOWN", "phone": "8708368151", "opening_hours": "Mo-Sa 09:00-18:00; Su 12:00-17:00", "brand": "Sears Hometown", "brand:wikidata": "Q69926963", "nsi_id": "searshometown-592fe0"}, "geometry": {"type": "Point", "coordinates": [-92.849312, 33.584637]}},
{"type": "Feature", "id": "lKfecd48EfEyoje7yOIMpTKne8Q=", "properties": {"ref": "0003597", "@spider": "sears_hometown", "shop": "department_store", "addr:street_address": "301 FAIRVIEW RD", "addr:city": "CROSSETT", "addr:state": "AR", "addr:postcode": "71635", "name": "CROSSETT - AUTH HOMETOWN", "phone": "8703642131", "opening_hours": "Mo-Sa 09:00-18:00; Su 11:00-16:00", "brand": "Sears Hometown", "brand:wikidata": "Q69926963", "nsi_id": "searshometown-592fe0"}, "geometry": {"type": "Point", "coordinates": [-91.95359, 33.139538]}},
{"type": "Feature", "id": "SV49b8xhbT3n7xJc7MQDy4dbm_k=", "properties": {"ref": "0003999", "@spider": "sears_hometown", "shop": "department_store", "addr:street_address": "220 CENTER ST", "addr:city": "TAFT", "addr:state": "CA", "addr:postcode": "93268", "name": "TAFT - AUTH HOMETOWN", "phone": "6617635122", "opening_hours": "Mo-Sa 09:00-18:00; Su 11:00-16:00", "brand": "Sears Hometown", "brand:wikidata": "Q69926963", "nsi_id": "searshometown-592fe0"}, "geometry": {"type": "Point", "coordinates": [-119.45415, 35.139801]}},
{"type": "Feature", "id": "_e1PBqf5DaEdg31ICdqvtfSYo7Q=", "properties": {"ref": "0003219", "@spider": "sears_hometown", "shop": "department_store", "addr:street_address": "835 TUCKER RD # A AND B", "addr:city": "TEHACHAPI", "addr:state": "CA", "addr:postcode": "93561", "name": "TEHACHAPI - AUTH HOMETOWN", "phone": "6618224914", "opening_hours": "Mo-Sa 09:00-18:00; Su 09:00-14:00", "brand": "Sears Hometown", "brand:wikidata": "Q69926963", "nsi_id": "searshometown-592fe0"}, "geometry": {"type": "Point", "coordinates": [-118.468822, 35.122749]}},
{"type": "Feature", "id": "7YVrJwcc0keEWy3efsUUF6D5-JI=", "properties": {"ref": "0003269", "@spider": "sears_hometown", "shop": "department_store", "addr:street_address": "1701 SOSCOL AVE", "addr:city": "NAPA", "addr:state": "CA", "addr:postcode": "94559", "name": "NAPA - AUTH HOMETOWN", "phone": "7072528980", "opening_hours": "Mo-Sa 09:00-18:00; Su 11:00-16:00", "brand": "Sears Hometown", "brand:wikidata": "Q69926963", "nsi_id": "searshometown-592fe0"}, "geometry": {"type": "Point", "coordinates": [-122.28509, 38.281494]}},
{"type": "Feature", "id": "VPHDq2YNL87tVekVf-1sh8UQeXE=", "properties": {"ref": "0003049", "@spider": "sears_hometown", "shop": "department_store", "addr:street_address": "15875 DAM ROAD EXT", "addr:city": "CLEARLAKE", "addr:state": "CA", "addr:postcode": "95422", "name": "CLEARLAKE - AUTH HOMETOWN", "phone": "7079956000", "opening_hours": "Mo-Sa 09:00-18:00; Su 11:00-16:00", "brand": "Sears Hometown", "brand:wikidata": "Q69926963", "nsi_id": "searshometown-592fe0"}, "geometry": {"type": "Point", "coordinates": [-122.63253, 38.961941]}},
{"type": "Feature", "id": "zx5Kj3JgbbYb_TGwBYMQvQq23kM=", "properties": {"ref": "0003199", "@spider": "sears_hometown", "shop": "department_store", "addr:street_address": "1230 AIRPORT PARK BLVD SUITE B", "addr:city": "UKIAH", "addr:state": "CA", "addr:postcode": "95482", "name": "UKIAH - AUTH HOMETOWN", "phone": "7074626581", "opening_hours": "Mo-Sa 09:00-18:00; Su 11:00-16:00", "brand": "Sears Hometown", "brand:wikidata": "Q69926963", "nsi_id": "searshometown-592fe0"}, "geometry": {"type": "Point", "coordinates": [-123.19788, 39.151066]}},
{"type": "Feature", "id": "PI4BaIYZXAKlGDp1pEWYyP3TBfU=", "properties": {"ref": "0003149", "@spider": "sears_hometown", "shop": "department_store", "addr:street_address": "415 GRASS VALLEY HWY", "addr:city": "AUBURN", "addr:state": "CA", "addr:postcode": "95603", "name": "AUBURN - AUTH HOMETOWN", "phone": "5308857531", "opening_hours": "Mo-Fr 09:00-19:00; Sa 09:00-18:00; Su 11:00-16:00", "brand": "Sears Hometown", "brand:wikidata": "Q69926963", "nsi_id": "searshometown-592fe0"}, "geometry": {"type": "Point", "coordinates": [-121.07469, 38.902157]}},
{"type": "Feature", "id": "RdJwHWjpe879ZY_HEKeNxYwtkc8=", "properties": {"ref": "0003188", "@spider": "sears_hometown", "shop": "department_store", "addr:street_address": "100 BROADWAY ST. SUITE 5", "addr:city": "STERLING", "addr:state": "CO", "addr:postcode": "80751", "name": "STERLING - AUTH HOMETOWN", "phone": "9705220541", "opening_hours": "Mo-Sa 09:00-18:00; Su 11:00-16:00", "brand": "Sears Hometown", "brand:wikidata": "Q69926963", "nsi_id": "searshometown-592fe0"}, "geometry": {"type": "Point", "coordinates": [-103.199809, 40.634917]}},
{"type": "Feature", "id": "KpWW6mSvHxa0vxEYY9ikW0G2pBE=", "properties": {"ref": "0001845", "@spider": "sears_hometown", "shop": "department_store", "addr:street_address": "3207 S US HWY 1", "addr:city": "FORT PIERCE", "addr:state": "FL", "addr:postcode": "34982", "name": "FORT PIERCE - AUTH HOMETOWN", "phone": "7724898055", "opening_hours": "Mo-Sa 09:00-18:00; Su 11:00-16:00", "brand": "Sears Hometown", "brand:wikidata": "Q69926963", "nsi_id": "searshometown-592fe0"}, "geometry": {"type": "Point", "coordinates": [-80.326054, 27.406715]}},
{"type": "Feature", "id": "CHNSPGnabCTNfI6BCYp7TK7bX5Q=", "properties": {"ref": "0003798", "@spider": "sears_hometown", "shop": "department_store", "addr:street_address": "306 RIDDLEVILLE RD", "addr:city": "SANDERSVILLE", "addr:state": "GA", "addr:postcode": "31082", "name": "SANDERSVILLE-AUTH HOMETOWN", "phone": "4785521800", "opening_hours": "Mo-Sa 09:00-18:00; Su 12:00-17:00", "brand": "Sears Hometown", "brand:wikidata": "Q69926963", "nsi_id": "searshometown-592fe0"}, "geometry": {"type": "Point", "coordinates": [-82.806847, 32.971401]}},
{"type": "Feature", "id": "X4CGFdWiMheu9eAitc1TS23-xes=", "properties": {"ref": "0003395", "@spider": "sears_hometown", "shop": "department_store", "addr:street_address": "104 HILLCREST PKWY", "addr:city": "DUBLIN", "addr:state": "GA", "addr:postcode": "31021", "name": "DUBLIN - AUTH HOMETOWN", "phone": "4782723600", "opening_hours": "Mo-Sa 09:00-18:00; Su 12:00-17:00", "brand": "Sears Hometown", "brand:wikidata": "Q69926963", "nsi_id": "searshometown-592fe0"}, "geometry": {"type": "Point", "coordinates": [-82.913525, 32.551128]}},
{"type": "Feature", "id": "9hiUPSzvJmYXP_oWutNchhASRYU=", "properties": {"ref": "0003385", "@spider": "sears_hometown", "shop": "department_store", "addr:street_address": "SUITE 36", "addr:city": "STATESBORO", "addr:state": "GA", "addr:postcode": "30458", "name": "325 NORTHSIDE DRIVE EAST", "phone": "9127646791", "opening_hours": "Mo-Sa 09:00-18:00; Su 11:00-16:00", "brand": "Sears Hometown", "brand:wikidata": "Q69926963", "nsi_id": "searshometown-592fe0"}, "geometry": {"type": "Point", "coordinates": [-81.760166, 32.436844]}},
{"type": "Feature", "id": "6NynULoe2R1iMkFtZocPURTvkbk=", "properties": {"ref": "0003591", "@spider": "sears_hometown", "shop": "department_store", "addr:street_address": "901 W MORTON AVE STE 18C", "addr:city": "JACKSONVILLE", "addr:state": "IL", "addr:postcode": "62650", "name": "LINCOLN SQ S/C", "phone": "2172438181", "opening_hours": "Mo-Sa 09:00-18:00; Su 12:00-17:00", "brand": "Sears Hometown", "brand:wikidata": "Q69926963", "nsi_id": "searshometown-592fe0"}, "geometry": {"type": "Point", "coordinates": [-90.240952, 39.723286]}}]}