{"type":"FeatureCollection","features":[{"type": "Feature", "id": "_2aMd76o7htwVihk6azSTasBUM8=", "properties": {"ref": "404", "@spider": "sendiks", "addr:street_address": "N112W15800 Mequon Road", "addr:city": "Germantown", "addr:state": "WI", "addr:postcode": "53022", "name": "Germantown", "phone": "(262) 250-9525", "website": "https://www.sendiks.com/stores/germantown", "brand": "Sendik's Food Market", "brand:wikidata": "Q23461945"}, "geometry": {"type": "Point", "coordinates": [-88.106071, 43.2221698]}},
{"type": "Feature", "id": "5EWrxMm_F2UIGS86k7v6SGtup6I=", "properties": {"ref": "412", "@spider": "sendiks", "addr:street_address": "500 East Silver Spring Drive", "addr:city": "Whitefish Bay", "addr:state": "WI", "addr:postcode": "53217", "name": "Whitefish Bay", "phone": "(414) 962-9525 ", "website": "https://www.sendiks.com/stores/whitefish-bay", "brand": "Sendik's Food Market", "brand:wikidata": "Q23461945"}, "geometry": {"type": "Point", "coordinates": [-87.9036739, 43.1188607]}},
{"type": "Feature", "id": "2N2zzp8ljDeWRWEfgKYxhpB_iFc=", "properties": {"ref": "411", "@spider": "sendiks", "addr:street_address": "280 North 18th Avenue", "addr:city": "West Bend", "addr:state": "WI", "addr:postcode": "53095", "name": "West Bend", "phone": "(262) 335-9525", "website": "https://www.sendiks.com/stores/west-bend", "brand": "Sendik's Food Market", "brand:wikidata": "Q23461945"}, "geometry": {"type": "Point", "coordinates": [-88.2011544, 43.425645]}},
{"type": "Feature", "id": "JnMwcwMu-H2fbrIdlIvanNqJrlI=", "properties": {"ref": "410", "@spider": "sendiks", "addr:street_address": "8616 West North Avenue", "addr:city": "Wauwatosa", "addr:state": "WI", "addr:postcode": "53226", "name": "Wauwatosa", "phone": "(414) 456-9525", "website": "https://www.sendiks.com/stores/wauwatosa", "brand": "Sendik's Food Market", "brand:wikidata": "Q23461945"}, "geometry": {"type": "Point", "coordinates": [-88.0200362, 43.0607614]}},
{"type": "Feature", "id": "bQSbyaNEPY2vL-wPDWIki1iRO0w=", "properties": {"ref": "402", "@spider": "sendiks", "addr:street_address": "13425 Watertown Plank Road", "addr:city": "Elm Grove", "addr:state": "WI", "addr:postcode": "53122", "name": "Elm Grove", "phone": "(262) 784-9525", "website": "https://www.sendiks.com/stores/elm-grove", "brand": "Sendik's Food Market", "brand:wikidata": "Q23461945"}, "geometry": {"type": "Point", "coordinates": [-88.0792744, 43.0422402]}},
{"type": "Feature", "id": "g8tgtYqC51cElHpjqqjb7VHxPsE=", "properties": {"ref": "409", "@spider": "sendiks", "addr:street_address": "3600 South Moorland Road", "addr:city": "New Berlin", "addr:state": "WI", "addr:postcode": "53151", "name": "New Berlin", "phone": "(262) 439-9269", "website": "https://www.sendiks.com/stores/new-berlin", "brand": "Sendik's Food Market", "brand:wikidata": "Q23461945"}, "geometry": {"type": "Point", "coordinates": [-88.1066128, 42.9792684]}},
{"type": "Feature", "id": "BK_ALKK5GXOPD2nQf_yXYgbYTFs=", "properties": {"ref": "403", "@spider": "sendiks", "addr:street_address": "5200 West Rawson Avenue", "addr:city": "Franklin", "addr:state": "WI", "addr:postcode": "53132", "name": "Franklin", "phone": "(414) 817-9525", "website": "https://www.sendiks.com/stores/franklin", "brand": "Sendik's Food Market", "brand:wikidata": "Q23461945"}, "geometry": {"type": "Point", "coordinates": [-87.9817107, 42.9174282]}},
{"type": "Feature", "id": "7DFpLD8tybuM7HoDnuIegTVxSgY=", "properties": {"ref": "408", "@spider": "sendiks", "addr:street_address": "10930 North Port Washington Road", "addr:city": "Mequon", "addr:state": "WI", "addr:postcode": "53092", "name": "Mequon", "phone": "(262) 241-9525", "website": "https://www.sendiks.com/stores/mequon", "brand": "Sendik's Food Market", "brand:wikidata": "Q23461945"}, "geometry": {"type": "Point", "coordinates": [-87.924001, 43.2166365]}},
{"type": "Feature", "id": "qb8iDq8x5PjIPX0RyfKET83_IKI=", "properties": {"ref": "407", "@spider": "sendiks", "addr:street_address": "600 Hartbrook Drive", "addr:city": "Hartland", "addr:state": "WI", "addr:postcode": "53029", "name": "Hartland", "phone": "(262) 369-0900", "website": "https://www.sendiks.com/stores/hartland", "brand": "Sendik's Food Market", "brand:wikidata": "Q23461945"}, "geometry": {"type": "Point", "coordinates": [-88.3360006, 43.1109445]}},
{"type": "Feature", "id": "fwkq7lOz28rH6BO2uJ7xQAGBcBw=", "properties": {"ref": "401", "@spider": "sendiks", "addr:street_address": "340 West Brown Deer Road", "addr:city": "Bayside", "addr:state": "WI", "addr:postcode": "53217", "name": "Bayside Fresh2GO", "phone": "(414) 352-9525", "website": "https://www.sendiks.com/stores/fresh2go-bayside", "brand": "Sendik's Food Market", "brand:wikidata": "Q23461945"}, "geometry": {"type": "Point", "coordinates": [-87.9121427, 43.1771798]}},
{"type": "Feature", "id": "pF9i5VbnhITqYU3IV40aum67URA=", "properties": {"ref": "406", "@spider": "sendiks", "addr:street_address": "7901 West Layton Avenue", "addr:city": "Greenfield", "addr:state": "WI", "addr:postcode": "53220", "name": "Greenfield", "phone": "(414) 329-9525", "website": "https://www.sendiks.com/stores/greenfield", "brand": "Sendik's Food Market", "brand:wikidata": "Q23461945"}, "geometry": {"type": "Point", "coordinates": [-88.0120465, 42.9581079]}},
{"type": "Feature", "id": "GPIJLFCSRxZsOBO3Df-9vtg_8M0=", "properties": {"ref": "1504", "@spider": "sendiks", "addr:street_address": "6200 West Loomis Road", "addr:city": "Greendale", "addr:state": "WI", "addr:postcode": "53129", "name": "Greendale Fresh2GO", "phone": "(414) 235-3550", "website": "https://www.sendiks.com/stores/sendiks-fresh2go-greendale", "brand": "Sendik's Food Market", "brand:wikidata": "Q23461945"}, "geometry": {"type": "Point", "coordinates": [-87.9920581, 42.9357972]}},
{"type": "Feature", "id": "rqwNHOfBPMqmZ6-yyfASfOLzGYA=", "properties": {"ref": "1822", "@spider": "sendiks", "addr:street_address": "701 Meadowbrook Road", "addr:city": "Waukesha", "addr:state": "WI", "addr:postcode": "53188", "name": "Waukesha - Meadowbrook", "phone": "(262) 875-4707", "website": "https://www.sendiks.com/stores/sendiks-meadowbrook", "brand": "Sendik's Food Market", "brand:wikidata": "Q23461945"}, "geometry": {"type": "Point", "coordinates": [-88.283911, 43.0220091]}},
{"type": "Feature", "id": "LOs5WikKlAUbz-tREoHL07-WHCE=", "properties": {"ref": "1505", "@spider": "sendiks", "addr:street_address": "5101 South 108th Street", "addr:city": "Hales Corners", "addr:state": "WI", "addr:postcode": "53130", "name": "Hales Corners Fresh2GO", "phone": "(414) 235-4305", "website": "https://www.sendiks.com/stores/sendiks-fresh2go-hales-corners", "brand": "Sendik's Food Market", "brand:wikidata": "Q23461945"}, "geometry": {"type": "Point", "coordinates": [-88.0486671, 42.9514603]}},
{"type": "Feature", "id": "KAtENx3NaSd5xopdsOzt0DSEBlE=", "properties": {"ref": "1880", "@spider": "sendiks", "addr:street_address": "824 North 16th Street", "addr:city": "Milwaukee", "addr:state": "WI", "addr:postcode": "53233", "name": "Marquette Fresh2GO", "phone": "(414) 797-4950", "website": "https://www.sendiks.com/stores/sendiks-fresh2go-marquette", "brand": "Sendik's Food Market", "brand:wikidata": "Q23461945"}, "geometry": {"type": "Point", "coordinates": [-87.9326999, 43.0407622]}},
{"type": "Feature", "id": "2C-CMSLERdVYAxob4wYsOwvhfcQ=", "properties": {"ref": "1821", "@spider": "sendiks", "addr:street_address": "20222 Lower Union St", "addr:city": "Brookfield", "addr:state": "WI", "addr:postcode": "53045", "name": "Brookfield - The Corners", "phone": "(262) 439-8930", "website": "https://www.sendiks.com/stores/sendiks-brookfield-the-corners", "brand": "Sendik's Food Market", "brand:wikidata": "Q23461945"}, "geometry": {"type": "Point", "coordinates": [-88.164113, 43.035638]}},
{"type": "Feature", "id": "DFPBk_yun_6rAOgISP-t-LDPMQU=", "properties": {"ref": "405", "@spider": "sendiks", "addr:street_address": "2195 1st Avenue", "addr:city": "Grafton", "addr:state": "WI", "addr:postcode": "53024", "name": "Grafton", "phone": "(262) 376-9525", "website": "https://www.sendiks.com/stores/grafton", "brand": "Sendik's Food Market", "brand:wikidata": "Q23461945"}, "geometry": {"type": "Point", "coordinates": [-87.9664051, 43.3025457]}}]}