{"type":"FeatureCollection","features":[{"type": "Feature", "id": "zxayEy1fXDBuNmMrI_8cFP2OgWg=", "properties": {"ref": "powell-river", "@spider": "seriouscoffee", "addr:full": "Pacific Point Market7013 Thunder Bay St.", "addr:city": "Powell River", "addr:state": "BC", "addr:postcode": "V8A 1E3", "phone": "604 489-9111", "website": "https://www.seriouscoffee.com/powell-river/", "opening_hours": "Mo-Su 06:00-22:00", "brand": "Serious Coffee"}, "geometry": {"type": "Point", "coordinates": [-124.5189845, 49.8054476]}},
{"type": "Feature", "id": "-4bYO3lGmHBSct6xNGVTadr5B8I=", "properties": {"ref": "view-royal", "@spider": "seriouscoffee", "addr:full": "1703 Old Island Highway", "addr:city": "Victoria", "addr:state": "BC", "addr:postcode": "V9B 1J1", "phone": "778 430-5282", "website": "https://www.seriouscoffee.com/view-royal/", "opening_hours": "Mo-Fr 05:30-16:00; Sa 07:00-16:00; Su 07:00-16:00", "brand": "Serious Coffee"}, "geometry": {"type": "Point", "coordinates": [-123.4629911, 48.4512072]}},
{"type": "Feature", "id": "3AXEFxUsMjMM-VevFWSsA1v7n-c=", "properties": {"ref": "sooke", "@spider": "seriouscoffee", "addr:full": "Sooke Centre Mall104 - 6661 Sooke Rd.", "addr:city": "Sooke", "addr:state": "BC", "addr:postcode": "V9Z 0A1", "phone": "250 642-3264", "website": "https://www.seriouscoffee.com/sooke/", "opening_hours": "Mo-Fr 07:30-16:00; Sa 07:30-17:30; Su 07:30-17:30", "brand": "Serious Coffee"}, "geometry": {"type": "Point", "coordinates": [-123.7216296, 48.3777946]}},
{"type": "Feature", "id": "n6LuUsxG3urWLAEfGXCrHHhOFME=", "properties": {"ref": "sidney", "@spider": "seriouscoffee", "addr:full": "Unit 102 - 2417 Beacon Ave.", "addr:city": "Sidney", "addr:state": "BC", "addr:postcode": "V8L 1X5", "phone": "250 655-7255", "website": "https://www.seriouscoffee.com/sidney/", "opening_hours": "Mo-Tu 07:30-17:00; We 07:30-20:00; Th 07:30-17:00; Fr 07:30-17:00; Sa 07:30-17:00; Su 07:30-17:00", "brand": "Serious Coffee"}, "geometry": {"type": "Point", "coordinates": [-123.399646, 48.6487852]}},
{"type": "Feature", "id": "pm6er3IRM7NyD3xc0pePp8fGycY=", "properties": {"ref": "millstream", "@spider": "seriouscoffee", "addr:full": "Millstream Shopping Centre101 - 2401G Millstream Rd.", "addr:city": "Victoria", "addr:state": "BC", "addr:postcode": "V9B 3R5", "phone": "250 478-8877", "website": "https://www.seriouscoffee.com/millstream/", "opening_hours": "Mo-Sa 07:00-17:00; Su 08:00-17:00", "brand": "Serious Coffee"}, "geometry": {"type": "Point", "coordinates": [-123.403609, 48.427381]}},
{"type": "Feature", "id": "Dgzgp0t2xdKXnApwUt4Vr17QzhQ=", "properties": {"ref": "esquimalt", "@spider": "seriouscoffee", "addr:full": "Esquimalt Plaza27 - 1153 Esquimalt Road", "addr:city": "Victoria", "addr:state": "BC", "addr:postcode": "V9A 3N7", "phone": "250 590-0910", "website": "https://www.seriouscoffee.com/esquimalt/", "opening_hours": "Mo-Tu 06:00-17:00; We-Fr 06:00-19:00; Sa 07:00-19:00; Su 07:00-17:00", "brand": "Serious Coffee"}, "geometry": {"type": "Point", "coordinates": [-123.4107586, 48.4292987]}},
{"type": "Feature", "id": "HkPlTMkyIBgexMW2spVZicUF6iQ=", "properties": {"ref": "cfb-esquimalt-nelles-block", "@spider": "seriouscoffee", "addr:full": "CFB Esquimalt - Nelles Block", "addr:city": "Victoria", "addr:state": "BC", "addr:postcode": "V9A 7N2", "phone": "250 590-1433", "website": "https://www.seriouscoffee.com/cfb-esquimalt-nelles-block/", "opening_hours": "Mo-Fr 07:00-13:00; Sa Closed; Su Closed", "brand": "Serious Coffee"}},
{"type": "Feature", "id": "ZFhNhulMXBCbb6y3pPvk8fJ47D4=", "properties": {"ref": "blanshard", "@spider": "seriouscoffee", "addr:full": "100 - 1609 Blanshard St.", "addr:city": "Victoria", "addr:state": "BC", "addr:postcode": "V8W 2J5", "phone": "250 385-1100", "website": "https://www.seriouscoffee.com/blanshard/", "opening_hours": "Mo-Fr 06:00-16:00; Sa 08:00-15:00; Su 08:00-15:00", "brand": "Serious Coffee"}, "geometry": {"type": "Point", "coordinates": [-123.3614562, 48.4290364]}},
{"type": "Feature", "id": "DpZ78sS-cyTAljnoXwf0LU8uiyE=", "properties": {"ref": "vancouver-island-conference-centre", "@spider": "seriouscoffee", "addr:full": "Vancouver Island Conference Centre300 \u2013 60 Commercial St.", "addr:city": "Nanaimo", "addr:state": "BC", "addr:postcode": "V9R 5G4", "phone": "250 591-1065", "website": "https://www.seriouscoffee.com/vancouver-island-conference-centre/", "opening_hours": "Mo-Sa 08:00-17:00; Su 08:30-17:00", "brand": "Serious Coffee"}, "geometry": {"type": "Point", "coordinates": [-123.936396, 49.165378]}},
{"type": "Feature", "id": "ndp6j_xrcj1K68mOmAOzEySrPUo=", "properties": {"ref": "mill-bay", "@spider": "seriouscoffee", "addr:full": "Frayne Centre2490 Trans-Canada Hwy.", "addr:city": "Mill Bay", "addr:state": "BC", "addr:postcode": "V0R 2P0", "phone": "250 743-3371", "website": "https://www.seriouscoffee.com/mill-bay/", "opening_hours": "Mo-Fr 06:00-17:00; Sa 06:30-17:00; Su 06:30-17:00", "brand": "Serious Coffee"}, "geometry": {"type": "Point", "coordinates": [-123.5408023, 48.607163]}},
{"type": "Feature", "id": "NlgnL3IZ2UnbD-JA5OHh0eHgcXI=", "properties": {"ref": "island-hwy-hammond-bay", "@spider": "seriouscoffee", "addr:full": "Hammond Bay CentreUnit B - 6357 Hammond Bay Rd.", "addr:city": "Nanaimo", "addr:state": "BC", "addr:postcode": "V9T 5Y1", "phone": "250 390-0868", "website": "https://www.seriouscoffee.com/island-hwy-hammond-bay/", "opening_hours": "Mo-Sa 07:00-16:00; Su 08:00-15:00", "brand": "Serious Coffee"}, "geometry": {"type": "Point", "coordinates": [-124.0419175, 49.2334449]}},
{"type": "Feature", "id": "kamML8AjoQvYFdo4GXg-AN5HSpI=", "properties": {"ref": "parksville", "@spider": "seriouscoffee", "addr:full": "Heritage Centre Mall#9 \u2013 1209 East Island Hwy.", "addr:city": "Parksville", "addr:state": "BC", "addr:postcode": "V9P 1R5", "phone": "250 586-0188", "website": "https://www.seriouscoffee.com/parksville/", "opening_hours": "Mo-Fr 06:30-16:00; Sa 07:00-16:00; Su 07:00-16:00", "brand": "Serious Coffee"}, "geometry": {"type": "Point", "coordinates": [-124.2629037, 49.3072595]}},
{"type": "Feature", "id": "_BYm22J6ZWZzy86tjIwvoGfdJiU=", "properties": {"ref": "campbell-river", "@spider": "seriouscoffee", "addr:full": "The Village - Willow Point1 \u2013 2253 South Island Hwy.", "addr:city": "Campbell River", "addr:state": "BC", "addr:postcode": "V9W 1C4", "phone": "250 923-1312", "website": "https://www.seriouscoffee.com/campbell-river/", "opening_hours": "Mo-Fr 06:30-18:00; Sa 08:00-18:00; Su 08:00-18:00", "brand": "Serious Coffee"}, "geometry": {"type": "Point", "coordinates": [-125.2133759, 49.970226]}}]}