{"type":"FeatureCollection","features":[{"type": "Feature", "id": "oWOWEy80u8XSGIUf5YxSaEZ0pus=", "properties": {"ref": "14812", "@spider": "seven_eleven_ca", "addr:full": "1339 Northmount Dr NW", "addr:city": "Calgary", "addr:state": "AB", "addr:postcode": "T2L0C9", "addr:country": "CA", "name": "7-Eleven", "phone": "4032823315", "website": "http://7eleven.ca/store-locator/14812", "opening_hours": "24/7", "brand": "7-Eleven", "brand:wikidata": "Q259340"}, "geometry": {"type": "Point", "coordinates": [-114.12880092859268, 51.092666842144936]}},
{"type": "Feature", "id": "MHON_x-84Inff5dXGnIqErUPhO0=", "properties": {"ref": "14815", "@spider": "seven_eleven_ca", "addr:full": "4615 Valiant Dr NW", "addr:city": "Calgary", "addr:state": "AB", "addr:postcode": "T3A0Y2", "addr:country": "CA", "name": "7-Eleven", "phone": "4032884315", "website": "http://7eleven.ca/store-locator/14815", "opening_hours": "Mo-Su 05:00-00:00", "brand": "7-Eleven", "brand:wikidata": "Q259340"}, "geometry": {"type": "Point", "coordinates": [-114.1537638455793, 51.090419705845136]}},
{"type": "Feature", "id": "56YLFT8936NleNtoXCjJLPWHJaM=", "properties": {"ref": "14816", "@spider": "seven_eleven_ca", "addr:full": "1907 8 Ave NE", "addr:city": "Calgary", "addr:state": "AB", "addr:postcode": "T2E0T2", "addr:country": "CA", "name": "7-Eleven", "phone": "4032763838", "website": "http://7eleven.ca/store-locator/14816", "opening_hours": "24/7", "brand": "7-Eleven", "brand:wikidata": "Q259340"}, "geometry": {"type": "Point", "coordinates": [-114.01453211903572, 51.05927285156621]}},
{"type": "Feature", "id": "GC63OxnhNsZ1fHkJJr2PW76G4nM=", "properties": {"ref": "14817", "@spider": "seven_eleven_ca", "addr:full": "2903 Centre St NW", "addr:city": "Calgary", "addr:state": "AB", "addr:postcode": "T2E2V9", "addr:country": "CA", "name": "7-Eleven", "phone": "4032764310", "website": "http://7eleven.ca/store-locator/14817", "opening_hours": "24/7", "brand": "7-Eleven", "brand:wikidata": "Q259340"}, "geometry": {"type": "Point", "coordinates": [-114.0630723070251, 51.07810724471196]}},
{"type": "Feature", "id": "vSawMh6uqF_iGfOndMXt4CLpG-4=", "properties": {"ref": "14818", "@spider": "seven_eleven_ca", "addr:full": "2901 17 Ave SW", "addr:city": "Calgary", "addr:state": "AB", "addr:postcode": "T3E0B1", "addr:country": "CA", "name": "7-Eleven", "phone": "4032463534", "website": "http://7eleven.ca/store-locator/14818", "opening_hours": "24/7", "brand": "7-Eleven", "brand:wikidata": "Q259340"}, "geometry": {"type": "Point", "coordinates": [-114.12857562303543, 51.03751993194149]}},
{"type": "Feature", "id": "kTzpIfVbLZt0gCVkXUwgCke2XKY=", "properties": {"ref": "14819", "@spider": "seven_eleven_ca", "addr:full": "2923 26 Ave SW", "addr:city": "Calgary", "addr:state": "AB", "addr:postcode": "T3E0M6", "addr:country": "CA", "name": "7-Eleven", "phone": "4032463575", "website": "http://7eleven.ca/store-locator/14819", "opening_hours": "24/7", "brand": "7-Eleven", "brand:wikidata": "Q259340"}, "geometry": {"type": "Point", "coordinates": [-114.1291455924511, 51.0297684974742]}},
{"type": "Feature", "id": "hLCadk0j1FjLtUFbI0OMuwHrZHo=", "properties": {"ref": "14821", "@spider": "seven_eleven_ca", "addr:full": "802 1st Ave NE", "addr:city": "Calgary", "addr:state": "AB", "addr:postcode": "T2E0C1", "addr:country": "CA", "name": "7-Eleven", "phone": "4032693648", "website": "http://7eleven.ca/store-locator/14821", "opening_hours": "Mo-Su 05:00-00:00", "brand": "7-Eleven", "brand:wikidata": "Q259340"}, "geometry": {"type": "Point", "coordinates": [-114.04524676501751, 51.05355001068554]}},
{"type": "Feature", "id": "EYRsE9VNkX-sNJVcV5-0g4bxsT0=", "properties": {"ref": "14824", "@spider": "seven_eleven_ca", "addr:full": "4939 118th Ave", "addr:city": "Edmonton", "addr:state": "AB", "addr:postcode": "T5W1B5", "addr:country": "CA", "name": "7-Eleven", "phone": "7804740702", "website": "http://7eleven.ca/store-locator/14824", "opening_hours": "Mo-Su 05:00-00:00", "brand": "7-Eleven", "brand:wikidata": "Q259340"}, "geometry": {"type": "Point", "coordinates": [-113.41799370487024, 53.57000822229009]}},
{"type": "Feature", "id": "HXanbFye1vQRqhBk8KubBL6B1cw=", "properties": {"ref": "14826", "@spider": "seven_eleven_ca", "addr:full": "12203 97th Street", "addr:city": "Edmonton", "addr:state": "AB", "addr:postcode": "T5G1Z2", "addr:country": "CA", "name": "7-Eleven", "phone": "7804791542", "website": "http://7eleven.ca/store-locator/14826", "opening_hours": "24/7", "brand": "7-Eleven", "brand:wikidata": "Q259340"}, "geometry": {"type": "Point", "coordinates": [-113.4913864, 53.5768323]}},
{"type": "Feature", "id": "vPAQkRSyrLIQIcPz0TTU7xAS9FU=", "properties": {"ref": "14827", "@spider": "seven_eleven_ca", "addr:full": "9448 149th St", "addr:city": "Edmonton", "addr:state": "AB", "addr:postcode": "T5R1C6", "addr:country": "CA", "name": "7-Eleven", "phone": "7804840146", "website": "http://7eleven.ca/store-locator/14827", "opening_hours": "24/7", "brand": "7-Eleven", "brand:wikidata": "Q259340"}, "geometry": {"type": "Point", "coordinates": [-113.5786577, 53.5313747]}},
{"type": "Feature", "id": "mr4Jo6hChnxFva3fw0hJmciwv3c=", "properties": {"ref": "14831", "@spider": "seven_eleven_ca", "addr:full": "530 Dale Blvd", "addr:city": "Winnipeg", "addr:state": "MB", "addr:postcode": "R3R1P7", "addr:country": "CA", "name": "7-Eleven", "phone": "2049850128", "website": "http://7eleven.ca/store-locator/14831", "opening_hours": "24/7", "brand": "7-Eleven", "brand:wikidata": "Q259340"}, "geometry": {"type": "Point", "coordinates": [-97.31480471324176, 49.86198090600675]}},
{"type": "Feature", "id": "iwIqhY8VBupRbHQrXy7p39iLDEk=", "properties": {"ref": "14832", "@spider": "seven_eleven_ca", "addr:full": "772 Mountain Ave", "addr:city": "Winnipeg", "addr:state": "MB", "addr:postcode": "R2X1C1", "addr:country": "CA", "name": "7-Eleven", "phone": "2049850158", "website": "http://7eleven.ca/store-locator/14832", "opening_hours": "Mo-Su 05:00-00:00", "brand": "7-Eleven", "brand:wikidata": "Q259340"}, "geometry": {"type": "Point", "coordinates": [-97.1515425, 49.9262579]}},
{"type": "Feature", "id": "XTRTKstvhGRJbPd2bUEt3aBECN4=", "properties": {"ref": "14833", "@spider": "seven_eleven_ca", "addr:full": "1393 Henderson Hwy", "addr:city": "Winnipeg", "addr:state": "MB", "addr:postcode": "R2G1N1", "addr:country": "CA", "name": "7-Eleven", "phone": "2049850146", "website": "http://7eleven.ca/store-locator/14833", "opening_hours": "24/7", "brand": "7-Eleven", "brand:wikidata": "Q259340"}, "geometry": {"type": "Point", "coordinates": [-97.0866417, 49.9441801]}},
{"type": "Feature", "id": "05Mr7QWHUbtSbwailnhN7OOw0-c=", "properties": {"ref": "14834", "@spider": "seven_eleven_ca", "addr:full": "438 St Anne's Rd", "addr:city": "Winnipeg", "addr:state": "MB", "addr:postcode": "R2M3B4", "addr:country": "CA", "name": "7-Eleven", "phone": "2049850178", "website": "http://7eleven.ca/store-locator/14834", "opening_hours": "24/7", "brand": "7-Eleven", "brand:wikidata": "Q259340"}, "geometry": {"type": "Point", "coordinates": [-97.09766618907452, 49.84560895399729]}},
{"type": "Feature", "id": "W7quOm-k2UaI3WVYJFcx6aAqkms=", "properties": {"ref": "14836", "@spider": "seven_eleven_ca", "addr:full": "1124 St Mary's Rd", "addr:city": "Winnipeg", "addr:state": "MB", "addr:postcode": "R2M3T4", "addr:country": "CA", "name": "7-Eleven", "phone": "2049850184", "website": "http://7eleven.ca/store-locator/14836", "opening_hours": "24/7", "brand": "7-Eleven", "brand:wikidata": "Q259340"}, "geometry": {"type": "Point", "coordinates": [-97.11474515497684, 49.83337725610228]}},
{"type": "Feature", "id": "nh-bCai7eWM0JffEZ93Ot7WA8js=", "properties": {"ref": "14837", "@spider": "seven_eleven_ca", "addr:full": "815 Ellice Ave", "addr:city": "Winnipeg", "addr:state": "MB", "addr:postcode": "R3G0C3", "addr:country": "CA", "name": "7-Eleven", "phone": "2049850110", "website": "http://7eleven.ca/store-locator/14837", "opening_hours": "Mo-Su 05:00-00:00", "brand": "7-Eleven", "brand:wikidata": "Q259340"}, "geometry": {"type": "Point", "coordinates": [-97.16915979981428, 49.89357779390418]}},
{"type": "Feature", "id": "rr4nkUovg1pD4P-zC1hTzrkdLGA=", "properties": {"ref": "14841", "@spider": "seven_eleven_ca", "addr:full": "3380 Portage Ave", "addr:city": "Winnipeg", "addr:state": "MB", "addr:postcode": "R3K0Z1", "addr:country": "CA", "name": "7-Eleven", "phone": "2049850215", "website": "http://7eleven.ca/store-locator/14841", "opening_hours": "Mo-Su 05:00-00:00", "brand": "7-Eleven", "brand:wikidata": "Q259340"}, "geometry": {"type": "Point", "coordinates": [-97.2987284, 49.8818913]}},
{"type": "Feature", "id": "kiPhuqav-9HIWDpj7MOuQogOioY=", "properties": {"ref": "14843", "@spider": "seven_eleven_ca", "addr:full": "8000 #3 Road", "addr:city": "Richmond", "addr:state": "BC", "addr:postcode": "V6Y2E3", "addr:country": "CA", "name": "7-Eleven", "phone": "6042782641", "website": "http://7eleven.ca/store-locator/14843", "opening_hours": "24/7", "brand": "7-Eleven", "brand:wikidata": "Q259340"}, "geometry": {"type": "Point", "coordinates": [-123.1361658, 49.1552255]}},
{"type": "Feature", "id": "ekKVYkjqAcx1RAKFtgbmZ8iFGbs=", "properties": {"ref": "14844", "@spider": "seven_eleven_ca", "addr:full": "1565 56th St", "addr:city": "Tsawwassen", "addr:state": "BC", "addr:postcode": "V4L2A9", "addr:country": "CA", "name": "7-Eleven", "phone": "6049434881", "website": "http://7eleven.ca/store-locator/14844", "opening_hours": "24/7", "brand": "7-Eleven", "brand:wikidata": "Q259340"}, "geometry": {"type": "Point", "coordinates": [-123.06922718882561, 49.0312684231539]}},
{"type": "Feature", "id": "L3bPntcBu5iFInf0w_gZLXhfIn4=", "properties": {"ref": "14846", "@spider": "seven_eleven_ca", "addr:full": "11199 84th Ave", "addr:city": "North Delta", "addr:state": "BC", "addr:postcode": "V4C2K4", "addr:country": "CA", "name": "7-Eleven", "phone": "6045957018", "website": "http://7eleven.ca/store-locator/14846", "opening_hours": "24/7", "brand": "7-Eleven", "brand:wikidata": "Q259340"}, "geometry": {"type": "Point", "coordinates": [-122.9127777, 49.1565798]}},
{"type": "Feature", "id": "lasv4Zo_FaboNXrTbiR4BHTLYis=", "properties": {"ref": "15049", "@spider": "seven_eleven_ca", "addr:full": "402 20 Ave NE", "addr:city": "Calgary", "addr:state": "AB", "addr:postcode": "T2E1R2", "addr:country": "CA", "name": "7-Eleven", "phone": "4032764226", "website": "http://7eleven.ca/store-locator/15049", "opening_hours": "24/7", "brand": "7-Eleven", "brand:wikidata": "Q259340"}, "geometry": {"type": "Point", "coordinates": [-114.0558609366417, 51.07098186041489]}},
{"type": "Feature", "id": "Pq_gI4sgO5d55n17vVhF5bAQGCs=", "properties": {"ref": "15052", "@spider": "seven_eleven_ca", "addr:full": "568 Osborne St", "addr:city": "Winnipeg", "addr:state": "MB", "addr:postcode": "R3L2B4", "addr:country": "CA", "name": "7-Eleven", "phone": "2049850122", "website": "http://7eleven.ca/store-locator/15052", "opening_hours": "24/7", "brand": "7-Eleven", "brand:wikidata": "Q259340"}, "geometry": {"type": "Point", "coordinates": [-97.13346994947642, 49.86475765678007]}},
{"type": "Feature", "id": "3o0oX-B8Cv1aMi9eAucpkadNpQc=", "properties": {"ref": "15053", "@spider": "seven_eleven_ca", "addr:full": "1370 Main St", "addr:city": "Winnipeg", "addr:state": "MB", "addr:postcode": "R2W3T8", "addr:country": "CA", "name": "7-Eleven", "phone": "2049850156", "website": "http://7eleven.ca/store-locator/15053", "opening_hours": "Mo-Su 05:00-00:00", "brand": "7-Eleven", "brand:wikidata": "Q259340"}, "geometry": {"type": "Point", "coordinates": [-97.12627798318863, 49.92482977477875]}},
{"type": "Feature", "id": "hJSQ1R7W-V8jlgfIEVR4L8fYOXA=", "properties": {"ref": "15054", "@spider": "seven_eleven_ca", "addr:full": "234 St Mary's Rd", "addr:city": "Winnipeg", "addr:state": "MB", "addr:postcode": "R2H1J6", "addr:country": "CA", "name": "7-Eleven", "phone": "2049850116", "website": "http://7eleven.ca/store-locator/15054", "opening_hours": "24/7", "brand": "7-Eleven", "brand:wikidata": "Q259340"}, "geometry": {"type": "Point", "coordinates": [-97.11817599375536, 49.87481555834824]}},
{"type": "Feature", "id": "iMdpSa585SUR198qqXYIVxRPqoY=", "properties": {"ref": "15138", "@spider": "seven_eleven_ca", "addr:full": "630 Watt St", "addr:city": "Winnipeg", "addr:state": "MB", "addr:postcode": "R2K2R7", "addr:country": "CA", "name": "7-Eleven", "phone": "2049850144", "website": "http://7eleven.ca/store-locator/15138", "opening_hours": "Mo-Su 05:00-00:00", "brand": "7-Eleven", "brand:wikidata": "Q259340"}, "geometry": {"type": "Point", "coordinates": [-97.09618896245956, 49.91998158231977]}},
{"type": "Feature", "id": "g2HZKKNhqx9YiF1T2FaZj_bDIRw=", "properties": {"ref": "15176", "@spider": "seven_eleven_ca", "addr:full": "3312 Coast Meridian Rd", "addr:city": "Port Coquitlam", "addr:state": "BC", "addr:postcode": "V3B3N6", "addr:country": "CA", "name": "7-Eleven", "phone": "6049425733", "website": "http://7eleven.ca/store-locator/15176", "opening_hours": "24/7", "brand": "7-Eleven", "brand:wikidata": "Q259340"}, "geometry": {"type": "Point", "coordinates": [-122.75555491447449, 49.272991890233016]}},
{"type": "Feature", "id": "-UT5svk6e1UFjhi0tXguna3NA80=", "properties": {"ref": "15184", "@spider": "seven_eleven_ca", "addr:full": "1880 Ness Ave", "addr:city": "Winnipeg", "addr:state": "MB", "addr:postcode": "R3J3M3", "addr:country": "CA", "name": "7-Eleven", "phone": "2049850160", "website": "http://7eleven.ca/store-locator/15184", "opening_hours": "Mo-Su 05:00-00:00", "brand": "7-Eleven", "brand:wikidata": "Q259340"}, "geometry": {"type": "Point", "coordinates": [-97.21885539133842, 49.883858620376444]}},
{"type": "Feature", "id": "xYm9jNAzTvQoRUgC6mNk2ws6xuA=", "properties": {"ref": "15198", "@spider": "seven_eleven_ca", "addr:full": "781 Corydon Ave", "addr:city": "Winnipeg", "addr:state": "MB", "addr:postcode": "R3M0W5", "addr:country": "CA", "name": "7-Eleven", "phone": "2049850117", "website": "http://7eleven.ca/store-locator/15198", "opening_hours": "24/7", "brand": "7-Eleven", "brand:wikidata": "Q259340"}, "geometry": {"type": "Point", "coordinates": [-97.15495980810374, 49.87068408532841]}},
{"type": "Feature", "id": "EUkwIbo0pRHN-MPuXdDKAVSDpgI=", "properties": {"ref": "15396", "@spider": "seven_eleven_ca", "addr:full": "1795 Portage Ave", "addr:city": "Winnipeg", "addr:state": "MB", "addr:postcode": "R3J0E8", "addr:country": "CA", "name": "7-Eleven", "phone": "2049850164", "website": "http://7eleven.ca/store-locator/15396", "opening_hours": "Mo-Su 05:00-00:00", "brand": "7-Eleven", "brand:wikidata": "Q259340"}, "geometry": {"type": "Point", "coordinates": [-97.21253380179405, 49.87918911934798]}},
{"type": "Feature", "id": "ZnTq2JwbJOUN-Wd4e3oRgfsgwf4=", "properties": {"ref": "15459", "@spider": "seven_eleven_ca", "addr:full": "1871 Main St", "addr:city": "Winnipeg", "addr:state": "MB", "addr:postcode": "R2V2A5", "addr:country": "CA", "name": "7-Eleven", "phone": "2049850149", "website": "http://7eleven.ca/store-locator/15459", "opening_hours": "24/7", "brand": "7-Eleven", "brand:wikidata": "Q259340"}, "geometry": {"type": "Point", "coordinates": [-97.11481958627701, 49.939448245572414]}},
{"type": "Feature", "id": "FHR-vexWswyqE2N7YQ1_JkTmCYU=", "properties": {"ref": "15482", "@spider": "seven_eleven_ca", "addr:full": "5003 Centre St NW", "addr:city": "Calgary", "addr:state": "AB", "addr:postcode": "T2K0S9", "addr:country": "CA", "name": "7-Eleven", "phone": "4032751394", "website": "http://7eleven.ca/store-locator/15482", "opening_hours": "24/7", "brand": "7-Eleven", "brand:wikidata": "Q259340"}, "geometry": {"type": "Point", "coordinates": [-114.06286686658859, 51.096473028629674]}},
{"type": "Feature", "id": "_684yMwQnvnO1EkQj4kxdkKRiEE=", "properties": {"ref": "15510", "@spider": "seven_eleven_ca", "addr:full": "1490 Pembina Hwy", "addr:city": "Winnipeg", "addr:state": "MB", "addr:postcode": "R3T2E3", "addr:country": "CA", "name": "7-Eleven", "phone": "2049850127", "website": "http://7eleven.ca/store-locator/15510", "opening_hours": "24/7", "brand": "7-Eleven", "brand:wikidata": "Q259340"}, "geometry": {"type": "Point", "coordinates": [-97.1498941630125, 49.8354134923257]}},
{"type": "Feature", "id": "I0fd6u9233xg5srNJzc2S6PK4qQ=", "properties": {"ref": "15516", "@spider": "seven_eleven_ca", "addr:full": "909 Lorette Ave", "addr:city": "Winnipeg", "addr:state": "MB", "addr:postcode": "R3M1V2", "addr:country": "CA", "name": "7-Eleven", "phone": "2049850120", "website": "http://7eleven.ca/store-locator/15516", "opening_hours": "24/7", "brand": "7-Eleven", "brand:wikidata": "Q259340"}, "geometry": {"type": "Point", "coordinates": [-97.15738892555237, 49.86346831566771]}},
{"type": "Feature", "id": "nhD0Jj6aqhf0YAZyhrEJ9YyVr7s=", "properties": {"ref": "15519", "@spider": "seven_eleven_ca", "addr:full": "734 St Mary's Rd", "addr:city": "Winnipeg", "addr:state": "MB", "addr:postcode": "R2M3N4", "addr:country": "CA", "name": "7-Eleven", "phone": "2049850194", "website": "http://7eleven.ca/store-locator/15519", "opening_hours": "24/7", "brand": "7-Eleven", "brand:wikidata": "Q259340"}, "geometry": {"type": "Point", "coordinates": [-97.1125926822424, 49.85487796944892]}},
{"type": "Feature", "id": "slD2MkZ46ITA8a-7mX0UWjA4l0c=", "properties": {"ref": "15520", "@spider": "seven_eleven_ca", "addr:full": "52 Brentwood Blvd", "addr:city": "Sherwood Park", "addr:state": "AB", "addr:postcode": "T8A2H6", "addr:country": "CA", "name": "7-Eleven", "phone": "7804672055", "website": "http://7eleven.ca/store-locator/15520", "opening_hours": "24/7", "brand": "7-Eleven", "brand:wikidata": "Q259340"}, "geometry": {"type": "Point", "coordinates": [-113.295058, 53.5148022]}},
{"type": "Feature", "id": "kM-QvwYBOCnzKiCR1Zf_N7LK5a0=", "properties": {"ref": "15526", "@spider": "seven_eleven_ca", "addr:full": "1619 37 St SW", "addr:city": "Calgary", "addr:state": "AB", "addr:postcode": "T3C1S7", "addr:country": "CA", "name": "7-Eleven", "phone": "4032463712", "website": "http://7eleven.ca/store-locator/15526", "opening_hours": "24/7", "brand": "7-Eleven", "brand:wikidata": "Q259340"}, "geometry": {"type": "Point", "coordinates": [-114.1417254041778, 51.038763066573516]}},
{"type": "Feature", "id": "rXNoOsClFfgnOgnM0AR3xH5HkJA=", "properties": {"ref": "15536", "@spider": "seven_eleven_ca", "addr:full": "491 Mayor Magrath Dr S", "addr:city": "Lethbridge", "addr:state": "AB", "addr:postcode": "T1J4C6", "addr:country": "CA", "name": "7-Eleven", "phone": "4033274504", "website": "http://7eleven.ca/store-locator/15536", "opening_hours": "24/7", "brand": "7-Eleven", "brand:wikidata": "Q259340"}, "geometry": {"type": "Point", "coordinates": [-112.80928418040276, 49.693688327698844]}},
{"type": "Feature", "id": "M_jHPuettw7rzbp4zwGOUSmni4I=", "properties": {"ref": "15547", "@spider": "seven_eleven_ca", "addr:full": "3725 30 Ave SE", "addr:city": "Calgary", "addr:state": "AB", "addr:postcode": "T2B2C7", "addr:country": "CA", "name": "7-Eleven", "phone": "4032729694", "website": "http://7eleven.ca/store-locator/15547", "opening_hours": "24/7", "brand": "7-Eleven", "brand:wikidata": "Q259340"}, "geometry": {"type": "Point", "coordinates": [-113.9804140180513, 51.02655756821083]}},
{"type": "Feature", "id": "hjAO9X_51V3YXj_VwjGjUcqbyts=", "properties": {"ref": "15638", "@spider": "seven_eleven_ca", "addr:full": "2004 Mayor Magrath Dr S", "addr:city": "Lethbridge", "addr:state": "AB", "addr:postcode": "T1K2R9", "addr:country": "CA", "name": "7-Eleven", "phone": "4033274070", "website": "http://7eleven.ca/store-locator/15638", "opening_hours": "24/7", "brand": "7-Eleven", "brand:wikidata": "Q259340"}, "geometry": {"type": "Point", "coordinates": [-112.8010836, 49.6732623]}},
{"type": "Feature", "id": "tEVmSve-3c6-yRzX8YgRrbx22XM=", "properties": {"ref": "15901", "@spider": "seven_eleven_ca", "addr:full": "4604 37 St SW", "addr:city": "Calgary", "addr:state": "AB", "addr:postcode": "T3E3C9", "addr:country": "CA", "name": "7-Eleven", "phone": "4032463676", "website": "http://7eleven.ca/store-locator/15901", "opening_hours": "24/7", "brand": "7-Eleven", "brand:wikidata": "Q259340"}, "geometry": {"type": "Point", "coordinates": [-114.14047309759553, 51.01302262762587]}},
{"type": "Feature", "id": "cjlpfTz54T6tYzTLF2zLTj7rnG0=", "properties": {"ref": "16477", "@spider": "seven_eleven_ca", "addr:full": "1200 Jefferson Ave", "addr:city": "Winnipeg", "addr:state": "MB", "addr:postcode": "R2P0N1", "addr:country": "CA", "name": "7-Eleven", "phone": "2049850151", "website": "http://7eleven.ca/store-locator/16477", "opening_hours": "Mo-Su 05:00-00:00", "brand": "7-Eleven", "brand:wikidata": "Q259340"}, "geometry": {"type": "Point", "coordinates": [-97.1695555, 49.9501153]}},
{"type": "Feature", "id": "E18AzZzs35LZKX4S-K4L7IYY3Ms=", "properties": {"ref": "16478", "@spider": "seven_eleven_ca", "addr:full": "427 Acadamy Rd", "addr:city": "Winnipeg", "addr:state": "MB", "addr:postcode": "R3N0C2", "addr:country": "CA", "name": "7-Eleven", "phone": "2049850100", "website": "http://7eleven.ca/store-locator/16478", "opening_hours": "24/7", "brand": "7-Eleven", "brand:wikidata": "Q259340"}, "geometry": {"type": "Point", "coordinates": [-97.18536109870439, 49.87421143038333]}},
{"type": "Feature", "id": "T9SUq5KELNT1z8nEccgkek8uIck=", "properties": {"ref": "16963", "@spider": "seven_eleven_ca", "addr:full": "4701 1st St W", "addr:city": "Claresholm", "addr:state": "AB", "addr:postcode": "T0L0T0", "addr:country": "CA", "name": "7-Eleven", "phone": "4036254221", "website": "http://7eleven.ca/store-locator/16963", "opening_hours": "24/7", "brand": "7-Eleven", "brand:wikidata": "Q259340"}, "geometry": {"type": "Point", "coordinates": [-113.58132228260729, 50.023409368753164]}},
{"type": "Feature", "id": "GLqkehvZB5DSGUb043Azwgz00HA=", "properties": {"ref": "17003", "@spider": "seven_eleven_ca", "addr:full": "3803 40th Ave", "addr:city": "Red Deer", "addr:state": "AB", "addr:postcode": "T4N2W4", "addr:country": "CA", "name": "7-Eleven", "phone": "4033463688", "website": "http://7eleven.ca/store-locator/17003", "opening_hours": "24/7", "brand": "7-Eleven", "brand:wikidata": "Q259340"}, "geometry": {"type": "Point", "coordinates": [-113.78967314958572, 52.25788703468481]}},
{"type": "Feature", "id": "byZE-i6iBINDLP_-M7G4jThZ0aU=", "properties": {"ref": "17019", "@spider": "seven_eleven_ca", "addr:full": "4952 52nd St", "addr:city": "Innisfail", "addr:state": "AB", "addr:postcode": "T4G1S7", "addr:country": "CA", "name": "7-Eleven", "phone": "4032274850", "website": "http://7eleven.ca/store-locator/17019", "opening_hours": "24/7", "brand": "7-Eleven", "brand:wikidata": "Q259340"}, "geometry": {"type": "Point", "coordinates": [-113.9499431848526, 52.0280810017809]}},
{"type": "Feature", "id": "M3RuEoYVf6TYYngyMpkwbNhwI78=", "properties": {"ref": "17024", "@spider": "seven_eleven_ca", "addr:full": "10303 99th Ave", "addr:city": "Ft. Saskatchewan", "addr:state": "AB", "addr:postcode": "T8L2X8", "addr:country": "CA", "name": "7-Eleven", "phone": "7809981002", "website": "http://7eleven.ca/store-locator/17024", "opening_hours": "24/7", "brand": "7-Eleven", "brand:wikidata": "Q259340"}, "geometry": {"type": "Point", "coordinates": [-113.21021407842636, 53.71078753989496]}},
{"type": "Feature", "id": "UMzJuvQXz8VpVt_zW0JOjeS21FA=", "properties": {"ref": "17029", "@spider": "seven_eleven_ca", "addr:full": "3510 Roblin Blvd", "addr:city": "Winnipeg", "addr:state": "MB", "addr:postcode": "R3R0C9", "addr:country": "CA", "name": "7-Eleven", "phone": "2049850166", "website": "http://7eleven.ca/store-locator/17029", "opening_hours": "24/7", "brand": "7-Eleven", "brand:wikidata": "Q259340"}, "geometry": {"type": "Point", "coordinates": [-97.25940224204345, 49.86802727870566]}},
{"type": "Feature", "id": "9_SPvqTdqaTvo1u_AciUlsPhkeg=", "properties": {"ref": "17036", "@spider": "seven_eleven_ca", "addr:full": "1221 Saskatchewan Ave W", "addr:city": "Portage La Prairie", "addr:state": "MB", "addr:postcode": "R1N3H5", "addr:country": "CA", "name": "7-Eleven", "phone": "2048562001", "website": "http://7eleven.ca/store-locator/17036", "opening_hours": "24/7", "brand": "7-Eleven", "brand:wikidata": "Q259340"}, "geometry": {"type": "Point", "coordinates": [-98.30680400133133, 49.97250515798125]}},
{"type": "Feature", "id": "bKWQvp0BmwASapXCCL6ZUePkMLk=", "properties": {"ref": "17060", "@spider": "seven_eleven_ca", "addr:full": "7 Killarney Ave", "addr:city": "Winnipeg", "addr:state": "MB", "addr:postcode": "R3T3B1", "addr:country": "CA", "name": "7-Eleven", "phone": "2049850152", "website": "http://7eleven.ca/store-locator/17060", "opening_hours": "24/7", "brand": "7-Eleven", "brand:wikidata": "Q259340"}, "geometry": {"type": "Point", "coordinates": [-97.15654908465575, 49.79003624252739]}},
{"type": "Feature", "id": "PZKMjMmSixFU61bXUeYdFuXdROY=", "properties": {"ref": "17083", "@spider": "seven_eleven_ca", "addr:full": "5 Willowdale Crescent", "addr:city": "Brandon", "addr:state": "MB", "addr:postcode": "R7B2X3", "addr:country": "CA", "name": "7-Eleven", "phone": "2047290220", "website": "http://7eleven.ca/store-locator/17083", "opening_hours": "24/7", "brand": "7-Eleven", "brand:wikidata": "Q259340"}, "geometry": {"type": "Point", "coordinates": [-99.97425475719865, 49.833299749405036]}},
{"type": "Feature", "id": "Zu0iDRlTnoz6ddCug1udslNrUkI=", "properties": {"ref": "17110", "@spider": "seven_eleven_ca", "addr:full": "55 Main Street", "addr:city": "Selkirk", "addr:state": "MB", "addr:postcode": "R1A1P9", "addr:country": "CA", "name": "7-Eleven", "phone": "2047854845", "website": "http://7eleven.ca/store-locator/17110", "opening_hours": "24/7", "brand": "7-Eleven", "brand:wikidata": "Q259340"}, "geometry": {"type": "Point", "coordinates": [-96.89077357761562, 50.1310383992769]}},
{"type": "Feature", "id": "9DAc6ebT46-Jgb6hfnyD0eTvrzk=", "properties": {"ref": "17364", "@spider": "seven_eleven_ca", "addr:full": "208 Railway Ave E", "addr:city": "Drumheller", "addr:state": "AB", "addr:postcode": "T0J0Y4", "addr:country": "CA", "name": "7-Eleven", "phone": "4038235258", "website": "http://7eleven.ca/store-locator/17364", "opening_hours": "24/7", "brand": "7-Eleven", "brand:wikidata": "Q259340"}, "geometry": {"type": "Point", "coordinates": [-112.704476, 51.461356]}},
{"type": "Feature", "id": "QtVjkw_F-DOVyKlbrZi1-p12ug8=", "properties": {"ref": "17365", "@spider": "seven_eleven_ca", "addr:full": "5023 50th Ave", "addr:city": "Taber", "addr:state": "AB", "addr:postcode": "T1G1N3", "addr:country": "CA", "name": "7-Eleven", "phone": "4032238767", "website": "http://7eleven.ca/store-locator/17365", "opening_hours": "24/7", "brand": "7-Eleven", "brand:wikidata": "Q259340"}, "geometry": {"type": "Point", "coordinates": [-112.1485179662705, 49.78632273897867]}},
{"type": "Feature", "id": "i5hpWTRVY7CYbKruk6dNHsl8Jmk=", "properties": {"ref": "17618", "@spider": "seven_eleven_ca", "addr:full": "718 Saskatchewan Ave", "addr:city": "Portage La Prairie", "addr:state": "MB", "addr:postcode": "R1N0K4", "addr:country": "CA", "name": "7-Eleven", "phone": "2048562010", "website": "http://7eleven.ca/store-locator/17618", "opening_hours": "24/7", "brand": "7-Eleven", "brand:wikidata": "Q259340"}, "geometry": {"type": "Point", "coordinates": [-98.27926576137543, 49.972870872813616]}},
{"type": "Feature", "id": "QVlbtZRkscfCusWZ4S7DAR_3NV4=", "properties": {"ref": "17649", "@spider": "seven_eleven_ca", "addr:full": "537 4th Street", "addr:city": "Estevan", "addr:state": "SK", "addr:postcode": "S4A0V2", "addr:country": "CA", "name": "7-Eleven", "phone": "3066346100", "website": "http://7eleven.ca/store-locator/17649", "opening_hours": "24/7", "brand": "7-Eleven", "brand:wikidata": "Q259340"}, "geometry": {"type": "Point", "coordinates": [-102.98204342834077, 49.136003025646744]}},
{"type": "Feature", "id": "_Lgodi34rjRhaFEZQ13mGPSnCPQ=", "properties": {"ref": "17759", "@spider": "seven_eleven_ca", "addr:full": "1031 Brunette Ave", "addr:city": "Coquitlam", "addr:state": "BC", "addr:postcode": "V3K1E7", "addr:country": "CA", "name": "7-Eleven", "phone": "6045212940", "website": "http://7eleven.ca/store-locator/17759", "opening_hours": "24/7", "brand": "7-Eleven", "brand:wikidata": "Q259340"}, "geometry": {"type": "Point", "coordinates": [-122.86463364958763, 49.23854292520488]}},
{"type": "Feature", "id": "hojOOydyjYfRfCpRellFGRp1ceQ=", "properties": {"ref": "17917", "@spider": "seven_eleven_ca", "addr:full": "554 Keenlyside St", "addr:city": "Winnipeg", "addr:state": "MB", "addr:postcode": "R2K3H2", "addr:country": "CA", "name": "7-Eleven", "phone": "2049850135", "website": "http://7eleven.ca/store-locator/17917", "opening_hours": "24/7", "brand": "7-Eleven", "brand:wikidata": "Q259340"}, "geometry": {"type": "Point", "coordinates": [-97.06878845395295, 49.90547035653214]}},
{"type": "Feature", "id": "FYAFcoCwjLKtSmpb7il9Ps2lFHk=", "properties": {"ref": "18476", "@spider": "seven_eleven_ca", "addr:full": "701 10th Street", "addr:city": "Brandon", "addr:state": "MB", "addr:postcode": "R7A4G7", "addr:country": "CA", "name": "7-Eleven", "phone": "2047290221", "website": "http://7eleven.ca/store-locator/18476", "opening_hours": "24/7", "brand": "7-Eleven", "brand:wikidata": "Q259340"}, "geometry": {"type": "Point", "coordinates": [-99.9508747458458, 49.83888371943466]}},
{"type": "Feature", "id": "dlzP0A3Dm4Lb4LVlh-ElfpKeJ4c=", "properties": {"ref": "19294", "@spider": "seven_eleven_ca", "addr:full": "7233 Ogden Rd SE", "addr:city": "Calgary", "addr:state": "AB", "addr:postcode": "T2C1B7", "addr:country": "CA", "name": "7-Eleven", "phone": "4032795797", "website": "http://7eleven.ca/store-locator/19294", "opening_hours": "24/7", "brand": "7-Eleven", "brand:wikidata": "Q259340"}, "geometry": {"type": "Point", "coordinates": [-113.99937495589256, 50.98730364432268]}},
{"type": "Feature", "id": "97rls2tS4GuJgMuFOsXAz3qVvJg=", "properties": {"ref": "19296", "@spider": "seven_eleven_ca", "addr:full": "9701 90th Street", "addr:city": "Ft. Saskatchewan", "addr:state": "AB", "addr:postcode": "T8L1K5", "addr:country": "CA", "name": "7-Eleven", "phone": "7809987099", "website": "http://7eleven.ca/store-locator/19296", "opening_hours": "24/7", "brand": "7-Eleven", "brand:wikidata": "Q259340"}, "geometry": {"type": "Point", "coordinates": [-113.22945892810822, 53.69820554641921]}},
{"type": "Feature", "id": "ba3AO7bwx6o5eR2uzo6NfdxpsrU=", "properties": {"ref": "20214", "@spider": "seven_eleven_ca", "addr:full": "1824 9th Avenue North", "addr:city": "Regina", "addr:state": "SK", "addr:postcode": "S4R7T4", "addr:country": "CA", "name": "7-Eleven", "phone": "3067916911", "website": "http://7eleven.ca/store-locator/20214", "opening_hours": "24/7", "brand": "7-Eleven", "brand:wikidata": "Q259340"}, "geometry": {"type": "Point", "coordinates": [-104.60773944854736, 50.484760173486485]}},
{"type": "Feature", "id": "i499wZrgTpkd-z8LGQloXcp-MRg=", "properties": {"ref": "20242", "@spider": "seven_eleven_ca", "addr:full": "891 Arlington St", "addr:city": "Winnipeg", "addr:state": "MB", "addr:postcode": "R3E3L4", "addr:country": "CA", "name": "7-Eleven", "phone": "2049850104", "website": "http://7eleven.ca/store-locator/20242", "opening_hours": "Mo-Su 05:00-00:00", "brand": "7-Eleven", "brand:wikidata": "Q259340"}, "geometry": {"type": "Point", "coordinates": [-97.16739155352116, 49.90432934361208]}},
{"type": "Feature", "id": "pIanSpI2VQfQYlf5lmX0927BmuE=", "properties": {"ref": "20385", "@spider": "seven_eleven_ca", "addr:full": "8 Assiniboine Drive", "addr:city": "Saskatoon", "addr:state": "SK", "addr:postcode": "S7K1H2", "addr:country": "CA", "name": "7-Eleven", "phone": "3069756643", "website": "http://7eleven.ca/store-locator/20385", "opening_hours": "24/7", "brand": "7-Eleven", "brand:wikidata": "Q259340"}, "geometry": {"type": "Point", "coordinates": [-106.6450787, 52.1615035]}},
{"type": "Feature", "id": "yjs76JJPV3rELQN8lKAWf9Fh1ns=", "properties": {"ref": "20557", "@spider": "seven_eleven_ca", "addr:full": "1100 Central Avenue", "addr:city": "Saskatoon", "addr:state": "SK", "addr:postcode": "S7N2H1", "addr:country": "CA", "name": "7-Eleven", "phone": "3069756642", "website": "http://7eleven.ca/store-locator/20557", "opening_hours": "24/7", "brand": "7-Eleven", "brand:wikidata": "Q259340"}, "geometry": {"type": "Point", "coordinates": [-106.59943708780702, 52.1398660824561]}},
{"type": "Feature", "id": "pVhPNaUsc2GOS7C0-bi1Z03CDOg=", "properties": {"ref": "20594", "@spider": "seven_eleven_ca", "addr:full": "456 Talbot Ave", "addr:city": "Winnipeg", "addr:state": "MB", "addr:postcode": "R2L0R6", "addr:country": "CA", "name": "7-Eleven", "phone": "2049850142", "website": "http://7eleven.ca/store-locator/20594", "opening_hours": "Mo-Su 05:00-00:00", "brand": "7-Eleven", "brand:wikidata": "Q259340"}, "geometry": {"type": "Point", "coordinates": [-97.10420385024918, 49.90610088199551]}},
{"type": "Feature", "id": "pGIgCwaUssUT-UHGRjyaZ94HR7Y=", "properties": {"ref": "20875", "@spider": "seven_eleven_ca", "addr:full": "3304 Kingsway", "addr:city": "Vancouver", "addr:state": "BC", "addr:postcode": "V5R5K7", "addr:country": "CA", "name": "7-Eleven", "phone": "6044340817", "website": "http://7eleven.ca/store-locator/20875", "opening_hours": "24/7", "brand": "7-Eleven", "brand:wikidata": "Q259340"}, "geometry": {"type": "Point", "coordinates": [-123.03573792334134, 49.23362349944888]}},
{"type": "Feature", "id": "djB4CO7gIsnxgGFwmzgckVkcOzg=", "properties": {"ref": "20916", "@spider": "seven_eleven_ca", "addr:full": "2604 Kensington Rd NW", "addr:city": "Calgary", "addr:state": "AB", "addr:postcode": "T2N3S5", "addr:country": "CA", "name": "7-Eleven", "phone": "4032835200", "website": "http://7eleven.ca/store-locator/20916", "opening_hours": "Mo-Su 05:00-00:00", "brand": "7-Eleven", "brand:wikidata": "Q259340"}, "geometry": {"type": "Point", "coordinates": [-114.1205815505134, 51.05275601302489]}},
{"type": "Feature", "id": "xZlKGSzYOxKwLXXgY3n0jGnynQc=", "properties": {"ref": "20926", "@spider": "seven_eleven_ca", "addr:full": "1602 Bowen Road", "addr:city": "Nanaimo", "addr:state": "BC", "addr:postcode": "V9S1G3", "addr:country": "CA", "name": "7-Eleven", "phone": "2507534233", "website": "http://7eleven.ca/store-locator/20926", "opening_hours": "Mo-Su 06:00-00:00", "brand": "7-Eleven", "brand:wikidata": "Q259340"}, "geometry": {"type": "Point", "coordinates": [-123.9729382, 49.1782045]}},
{"type": "Feature", "id": "1SMG3PHSEXX6htB3TxIObK3tFQ8=", "properties": {"ref": "20985", "@spider": "seven_eleven_ca", "addr:full": "1608 Canyon Street", "addr:city": "Creston", "addr:state": "BC", "addr:postcode": "V0B1G5", "addr:country": "CA", "name": "7-Eleven", "phone": "2504284464", "website": "http://7eleven.ca/store-locator/20985", "opening_hours": "24/7", "brand": "7-Eleven", "brand:wikidata": "Q259340"}, "geometry": {"type": "Point", "coordinates": [-116.5064089000225, 49.09587367577598]}},
{"type": "Feature", "id": "S6dPgMIXjRCDXbwZmxBOINsMHzg=", "properties": {"ref": "21125", "@spider": "seven_eleven_ca", "addr:full": "1210 13th Ave North", "addr:city": "Moose Jaw", "addr:state": "SK", "addr:postcode": "S6H7N4", "addr:country": "CA", "name": "7-Eleven", "phone": "3066921779", "website": "http://7eleven.ca/store-locator/21125", "opening_hours": "24/7", "brand": "7-Eleven", "brand:wikidata": "Q259340"}, "geometry": {"type": "Point", "coordinates": [-105.57536020880434, 50.40231714171529]}},
{"type": "Feature", "id": "IRoNVrDS98WJTS_dAaGwXyQQTkE=", "properties": {"ref": "21133", "@spider": "seven_eleven_ca", "addr:full": "2101 Pasqua Street", "addr:city": "Regina", "addr:state": "SK", "addr:postcode": "S4T4M3", "addr:country": "CA", "name": "7-Eleven", "phone": "3067916919", "website": "http://7eleven.ca/store-locator/21133", "opening_hours": "24/7", "brand": "7-Eleven", "brand:wikidata": "Q259340"}, "geometry": {"type": "Point", "coordinates": [-104.64060187339783, 50.44527410620499]}},
{"type": "Feature", "id": "-VY_3pJjyDd8aiAc-_xZBdRJoro=", "properties": {"ref": "21418", "@spider": "seven_eleven_ca", "addr:full": "477 Terminal Ave", "addr:city": "Nanaimo", "addr:state": "BC", "addr:postcode": "V9S4J8", "addr:country": "CA", "name": "7-Eleven", "phone": "2507531721", "website": "http://7eleven.ca/store-locator/21418", "opening_hours": "Mo-Su 06:00-00:00", "brand": "7-Eleven", "brand:wikidata": "Q259340"}, "geometry": {"type": "Point", "coordinates": [-123.94766901435105, 49.1767871808189]}},
{"type": "Feature", "id": "up6XRjvPOJc7uDhsZmX6z6deQz8=", "properties": {"ref": "21894", "@spider": "seven_eleven_ca", "addr:full": "4894 Knight St", "addr:city": "Vancouver", "addr:state": "BC", "addr:postcode": "V5N3N4", "addr:country": "CA", "name": "7-Eleven", "phone": "6048730516", "website": "http://7eleven.ca/store-locator/21894", "opening_hours": "24/7", "brand": "7-Eleven", "brand:wikidata": "Q259340"}, "geometry": {"type": "Point", "coordinates": [-123.07603999972343, 49.2404972752569]}},
{"type": "Feature", "id": "QZSHvsTCzJe4l9o0fNQHHgE_5Ks=", "properties": {"ref": "21914", "@spider": "seven_eleven_ca", "addr:full": "2012 Spiller Rd SE", "addr:city": "Calgary", "addr:state": "AB", "addr:postcode": "T2G4G6", "addr:country": "CA", "name": "7-Eleven", "phone": "4032655554", "website": "http://7eleven.ca/store-locator/21914", "opening_hours": "24/7", "brand": "7-Eleven", "brand:wikidata": "Q259340"}, "geometry": {"type": "Point", "coordinates": [-114.04200355521311, 51.03474719745926]}},
{"type": "Feature", "id": "KVGy-6bHQMMJoXLRAm4etlNPISE=", "properties": {"ref": "21975", "@spider": "seven_eleven_ca", "addr:full": "234 Pendygrasse Road", "addr:city": "Saskatoon", "addr:state": "SK", "addr:postcode": "S7M5A4", "addr:country": "CA", "name": "7-Eleven", "phone": "3069750092", "website": "http://7eleven.ca/store-locator/21975", "opening_hours": "24/7", "brand": "7-Eleven", "brand:wikidata": "Q259340"}, "geometry": {"type": "Point", "coordinates": [-106.725184, 52.1211647]}},
{"type": "Feature", "id": "AQfNwNGqpvALAypyWrzzAsfMhQA=", "properties": {"ref": "22116", "@spider": "seven_eleven_ca", "addr:full": "3587 Bathurst St", "addr:city": "Toronto", "addr:state": "ON", "addr:postcode": "M6A2E2", "addr:country": "CA", "name": "7-Eleven", "phone": "4167818530", "website": "http://7eleven.ca/store-locator/22116", "opening_hours": "24/7", "brand": "7-Eleven", "brand:wikidata": "Q259340"}, "geometry": {"type": "Point", "coordinates": [-79.4324944, 43.7326108]}},
{"type": "Feature", "id": "zg7wzCxFYavc0dWf4My0XcQETT4=", "properties": {"ref": "22124", "@spider": "seven_eleven_ca", "addr:full": "20 Caribou St West", "addr:city": "Moose Jaw", "addr:state": "SK", "addr:postcode": "S6H2J6", "addr:country": "CA", "name": "7-Eleven", "phone": "3066926694", "website": "http://7eleven.ca/store-locator/22124", "opening_hours": "24/7", "brand": "7-Eleven", "brand:wikidata": "Q259340"}, "geometry": {"type": "Point", "coordinates": [-105.53531974554062, 50.397184582221044]}},
{"type": "Feature", "id": "l-15saht98i5EABDQcyvTKymp9g=", "properties": {"ref": "22134", "@spider": "seven_eleven_ca", "addr:full": "4233 Redford St", "addr:city": "Port Alberni", "addr:state": "BC", "addr:postcode": "V9Y3R4", "addr:country": "CA", "name": "7-Eleven", "phone": "2507237741", "website": "http://7eleven.ca/store-locator/22134", "opening_hours": "24/7", "brand": "7-Eleven", "brand:wikidata": "Q259340"}, "geometry": {"type": "Point", "coordinates": [-124.79731678962708, 49.24555090793022]}},
{"type": "Feature", "id": "RvpBfECa8g2g8eH7ZGvzufQUCWw=", "properties": {"ref": "22470", "@spider": "seven_eleven_ca", "addr:full": "1919 Southland Dr SW", "addr:city": "Calgary", "addr:state": "AB", "addr:postcode": "T2W0K1", "addr:country": "CA", "name": "7-Eleven", "phone": "4032522720", "website": "http://7eleven.ca/store-locator/22470", "opening_hours": "24/7", "brand": "7-Eleven", "brand:wikidata": "Q259340"}, "geometry": {"type": "Point", "coordinates": [-114.10581787582487, 50.960816494967716]}},
{"type": "Feature", "id": "swQYtTqENySp_-B1dR2TNfYidAE=", "properties": {"ref": "22651", "@spider": "seven_eleven_ca", "addr:full": "2092 E Hastings St", "addr:city": "Vancouver", "addr:state": "BC", "addr:postcode": "V5L1T9", "addr:country": "CA", "name": "7-Eleven", "phone": "6042537818", "website": "http://7eleven.ca/store-locator/22651", "opening_hours": "Mo-Su 05:00-00:00", "brand": "7-Eleven", "brand:wikidata": "Q259340"}, "geometry": {"type": "Point", "coordinates": [-123.0619664490223, 49.28085586470973]}},
{"type": "Feature", "id": "QIDoqM1AxY_ZHplZFrSnhisjw4Q=", "properties": {"ref": "22824", "@spider": "seven_eleven_ca", "addr:full": "7196 Temple Dr NE", "addr:city": "Calgary", "addr:state": "AB", "addr:postcode": "T1Y4E8", "addr:country": "CA", "name": "7-Eleven", "phone": "4032804333", "website": "http://7eleven.ca/store-locator/22824", "opening_hours": "Mo-Su 05:00-00:00", "brand": "7-Eleven", "brand:wikidata": "Q259340"}, "geometry": {"type": "Point", "coordinates": [-113.95734339952469, 51.09103780977516]}},
{"type": "Feature", "id": "CojcaUUJ-yUxPPkG6Zn87qHaTXk=", "properties": {"ref": "22831", "@spider": "seven_eleven_ca", "addr:full": "3304 64th St NE", "addr:city": "Calgary", "addr:state": "AB", "addr:postcode": "T1Y5R4", "addr:country": "CA", "name": "7-Eleven", "phone": "4032804343", "website": "http://7eleven.ca/store-locator/22831", "opening_hours": "Mo-Su 05:00-00:00", "brand": "7-Eleven", "brand:wikidata": "Q259340"}, "geometry": {"type": "Point", "coordinates": [-113.9404075, 51.0818376]}},
{"type": "Feature", "id": "Ulss88cEY3QRrGz3RNNbQux941s=", "properties": {"ref": "22898", "@spider": "seven_eleven_ca", "addr:full": "183 Marion St", "addr:city": "Winnipeg", "addr:state": "MB", "addr:postcode": "R2H0T2", "addr:country": "CA", "name": "7-Eleven", "phone": "2049850115", "website": "http://7eleven.ca/store-locator/22898", "opening_hours": "Mo-Su 05:00-00:00", "brand": "7-Eleven", "brand:wikidata": "Q259340"}, "geometry": {"type": "Point", "coordinates": [-97.12006866931915, 49.881835256782466]}},
{"type": "Feature", "id": "m9aX7fqzysm4msscBWpy3mljwsU=", "properties": {"ref": "22912", "@spider": "seven_eleven_ca", "addr:full": "16220 Stony Plain Rd", "addr:city": "Edmonton", "addr:state": "AB", "addr:postcode": "T5P4A4", "addr:country": "CA", "name": "7-Eleven", "phone": "7804844909", "website": "http://7eleven.ca/store-locator/22912", "opening_hours": "24/7", "brand": "7-Eleven", "brand:wikidata": "Q259340"}, "geometry": {"type": "Point", "coordinates": [-113.60224117990072, 53.5416630591661]}},
{"type": "Feature", "id": "SQtuOhWxNia3ovW3Nujrabm24l0=", "properties": {"ref": "22966", "@spider": "seven_eleven_ca", "addr:full": "6904 Victoria Dr", "addr:city": "Vancouver", "addr:state": "BC", "addr:postcode": "V5P3Y8", "addr:country": "CA", "name": "7-Eleven", "phone": "6047139601", "website": "http://7eleven.ca/store-locator/22966", "opening_hours": "24/7", "brand": "7-Eleven", "brand:wikidata": "Q259340"}, "geometry": {"type": "Point", "coordinates": [-123.06535005569458, 49.221114969780864]}},
{"type": "Feature", "id": "TrO0Ae5xpCs7WuTz6VdLVLjJG2s=", "properties": {"ref": "23059", "@spider": "seven_eleven_ca", "addr:full": "245 Wentworth St W", "addr:city": "Oshawa", "addr:state": "ON", "addr:postcode": "L1J1M9", "addr:country": "CA", "name": "7-Eleven", "phone": "9055713263", "website": "http://7eleven.ca/store-locator/23059", "opening_hours": "24/7", "brand": "7-Eleven", "brand:wikidata": "Q259340"}, "geometry": {"type": "Point", "coordinates": [-78.8515832, 43.8696176]}},
{"type": "Feature", "id": "SyVJi_dExed1t1PtCDwtqewiYTo=", "properties": {"ref": "23091", "@spider": "seven_eleven_ca", "addr:full": "2540 Mary Hill Rd", "addr:city": "Port Coquitlam", "addr:state": "BC", "addr:postcode": "V3C3B2", "addr:country": "CA", "name": "7-Eleven", "phone": "6049414453", "website": "http://7eleven.ca/store-locator/23091", "opening_hours": "24/7", "brand": "7-Eleven", "brand:wikidata": "Q259340"}, "geometry": {"type": "Point", "coordinates": [-122.77797013521194, 49.26107979870856]}},
{"type": "Feature", "id": "9zGi_RHBswhK4-kTA6xrlOPNFeY=", "properties": {"ref": "23119", "@spider": "seven_eleven_ca", "addr:full": "904 Yates St", "addr:city": "Victoria", "addr:state": "BC", "addr:postcode": "V8V3M2", "addr:country": "CA", "name": "7-Eleven", "phone": "2509532160", "website": "http://7eleven.ca/store-locator/23119", "opening_hours": "24/7", "brand": "7-Eleven", "brand:wikidata": "Q259340"}, "geometry": {"type": "Point", "coordinates": [-123.35889528504481, 48.42587241482809]}},
{"type": "Feature", "id": "P2TD95QuaK0ovFWaJmQLHzzlKPk=", "properties": {"ref": "23132", "@spider": "seven_eleven_ca", "addr:full": "622 Upper Wellington St", "addr:city": "Hamilton", "addr:state": "ON", "addr:postcode": "L9A3R1", "addr:country": "CA", "name": "7-Eleven", "phone": "9053899670", "website": "http://7eleven.ca/store-locator/23132", "opening_hours": "24/7", "brand": "7-Eleven", "brand:wikidata": "Q259340"}, "geometry": {"type": "Point", "coordinates": [-79.86787189544884, 43.23698469276783]}},
{"type": "Feature", "id": "cQIAkUYvC-EbaBx9y7_alrq9Anw=", "properties": {"ref": "23249", "@spider": "seven_eleven_ca", "addr:full": "1260 Dundas St W", "addr:city": "Toronto", "addr:state": "ON", "addr:postcode": "M6J1X6", "addr:country": "CA", "name": "7-Eleven", "phone": "4165370443", "website": "http://7eleven.ca/store-locator/23249", "opening_hours": "24/7", "brand": "7-Eleven", "brand:wikidata": "Q259340"}, "geometry": {"type": "Point", "coordinates": [-79.42456752061844, 43.64975722447563]}},
{"type": "Feature", "id": "-p_ubCnlOYEtZpZKrDUgo5lv2G0=", "properties": {"ref": "23278", "@spider": "seven_eleven_ca", "addr:full": "1007 Mcphillips St", "addr:city": "Winnipeg", "addr:state": "MB", "addr:postcode": "R2X2K3", "addr:country": "CA", "name": "7-Eleven", "phone": "2049850195", "website": "http://7eleven.ca/store-locator/23278", "opening_hours": "24/7", "brand": "7-Eleven", "brand:wikidata": "Q259340"}, "geometry": {"type": "Point", "coordinates": [-97.16657817363739, 49.93108033092119]}},
{"type": "Feature", "id": "jEGHdYOcs7zkMvNazW5A6_gkYps=", "properties": {"ref": "23279", "@spider": "seven_eleven_ca", "addr:full": "920 Archibald St", "addr:city": "Winnipeg", "addr:state": "MB", "addr:postcode": "R2J0Z1", "addr:country": "CA", "name": "7-Eleven", "phone": "2049850113", "website": "http://7eleven.ca/store-locator/23279", "opening_hours": "24/7", "brand": "7-Eleven", "brand:wikidata": "Q259340"}, "geometry": {"type": "Point", "coordinates": [-97.09249019622803, 49.87066985336069]}},
{"type": "Feature", "id": "n_jE3vz2m5p1PM_t2c7L_J9244s=", "properties": {"ref": "23463", "@spider": "seven_eleven_ca", "addr:full": "4702 50 St", "addr:city": "Red Deer", "addr:state": "AB", "addr:postcode": "T4N1X2", "addr:country": "CA", "name": "7-Eleven", "phone": "4033464406", "website": "http://7eleven.ca/store-locator/23463", "opening_hours": "24/7", "brand": "7-Eleven", "brand:wikidata": "Q259340"}, "geometry": {"type": "Point", "coordinates": [-113.805446, 52.2692332]}},
{"type": "Feature", "id": "kkJifmrn3VmLx2gF8IMtToJAJIg=", "properties": {"ref": "23516", "@spider": "seven_eleven_ca", "addr:full": "1445 Corydon Ave", "addr:city": "Winnipeg", "addr:state": "MB", "addr:postcode": "R3N0J2", "addr:country": "CA", "name": "7-Eleven", "phone": "2049850101", "website": "http://7eleven.ca/store-locator/23516", "opening_hours": "24/7", "brand": "7-Eleven", "brand:wikidata": "Q259340"}, "geometry": {"type": "Point", "coordinates": [-97.18557760119438, 49.863699134213576]}},
{"type": "Feature", "id": "0LrsySBWmvd-7aPdHs7HyPFl4S8=", "properties": {"ref": "23517", "@spider": "seven_eleven_ca", "addr:full": "5175 Kingsway", "addr:city": "Burnaby", "addr:state": "BC", "addr:postcode": "V5H2E6", "addr:country": "CA", "name": "7-Eleven", "phone": "6044382096", "website": "http://7eleven.ca/store-locator/23517", "opening_hours": "24/7", "brand": "7-Eleven", "brand:wikidata": "Q259340"}, "geometry": {"type": "Point", "coordinates": [-122.989185, 49.2253414]}},
{"type": "Feature", "id": "MxqJ2KHShKX6w_Li9p_Nyw0bNgA=", "properties": {"ref": "23601", "@spider": "seven_eleven_ca", "addr:full": "304 Chesterfield Ave", "addr:city": "North Vancouver", "addr:state": "BC", "addr:postcode": "V7M3J2", "addr:country": "CA", "name": "7-Eleven", "phone": "6049846452", "website": "http://7eleven.ca/store-locator/23601", "opening_hours": "Mo-Su 06:00-00:00", "brand": "7-Eleven", "brand:wikidata": "Q259340"}, "geometry": {"type": "Point", "coordinates": [-123.07975351810455, 49.31486701783373]}},
{"type": "Feature", "id": "q5utZvPh-COU0FGsXIzhI-Z-NCw=", "properties": {"ref": "23622", "@spider": "seven_eleven_ca", "addr:full": "150 Main St N", "addr:city": "Brampton", "addr:state": "ON", "addr:postcode": "L6V1N9", "addr:country": "CA", "name": "7-Eleven", "phone": "9054531282", "website": "http://7eleven.ca/store-locator/23622", "opening_hours": "24/7", "brand": "7-Eleven", "brand:wikidata": "Q259340"}, "geometry": {"type": "Point", "coordinates": [-79.7629476, 43.6885466]}},
{"type": "Feature", "id": "xtlZJifu4eLjitPndJBYFa3LZCU=", "properties": {"ref": "23797", "@spider": "seven_eleven_ca", "addr:full": "923 12th St", "addr:city": "New Westminster", "addr:state": "BC", "addr:postcode": "V3M4K7", "addr:country": "CA", "name": "7-Eleven", "phone": "6045210827", "website": "http://7eleven.ca/store-locator/23797", "opening_hours": "24/7", "brand": "7-Eleven", "brand:wikidata": "Q259340"}, "geometry": {"type": "Point", "coordinates": [-122.93705999851227, 49.21307326784765]}},
{"type": "Feature", "id": "4jKVD1fl44BKk4DOfRo1Eww5Z0k=", "properties": {"ref": "23840", "@spider": "seven_eleven_ca", "addr:full": "460 Woodbine Blvd SW", "addr:city": "Calgary", "addr:state": "AB", "addr:postcode": "T2W5H7", "addr:country": "CA", "name": "7-Eleven", "phone": "4032512066", "website": "http://7eleven.ca/store-locator/23840", "opening_hours": "24/7", "brand": "7-Eleven", "brand:wikidata": "Q259340"}, "geometry": {"type": "Point", "coordinates": [-114.1329632, 50.9465797]}},
{"type": "Feature", "id": "V27EdmAlsO6yhZLdZyWeSjVRJEQ=", "properties": {"ref": "23877", "@spider": "seven_eleven_ca", "addr:full": "104 Lake St", "addr:city": "St. Catharines", "addr:state": "ON", "addr:postcode": "L2R5X8", "addr:country": "CA", "name": "7-Eleven", "phone": "9056843255", "website": "http://7eleven.ca/store-locator/23877", "opening_hours": "24/7", "brand": "7-Eleven", "brand:wikidata": "Q259340"}, "geometry": {"type": "Point", "coordinates": [-79.2503723, 43.1646899]}},
{"type": "Feature", "id": "0SvR-sJCG_JA16R2Uk5ZRN1AKMM=", "properties": {"ref": "24009", "@spider": "seven_eleven_ca", "addr:full": "450 Ryan Road", "addr:city": "Courtenay", "addr:state": "BC", "addr:postcode": "V9N7R6", "addr:country": "CA", "name": "7-Eleven", "phone": "2503343351", "website": "http://7eleven.ca/store-locator/24009", "opening_hours": "24/7", "brand": "7-Eleven", "brand:wikidata": "Q259340"}, "geometry": {"type": "Point", "coordinates": [-124.9913102388382, 49.69737690553309]}},
{"type": "Feature", "id": "H8e4or4QrqpzDzmTvQdcRRCvC68=", "properties": {"ref": "24012", "@spider": "seven_eleven_ca", "addr:full": "106 Hartzell Rd", "addr:city": "St. Catharines", "addr:state": "ON", "addr:postcode": "L2P1N4", "addr:country": "CA", "name": "7-Eleven", "phone": "9056824994", "website": "http://7eleven.ca/store-locator/24012", "opening_hours": "24/7", "brand": "7-Eleven", "brand:wikidata": "Q259340"}, "geometry": {"type": "Point", "coordinates": [-79.2140913, 43.151575]}},
{"type": "Feature", "id": "qxu4Ag2kIGRZMD7nBaNqrQppJTg=", "properties": {"ref": "24055", "@spider": "seven_eleven_ca", "addr:full": "7270 Drummond Rd", "addr:city": "Niagara Falls", "addr:state": "ON", "addr:postcode": "L2G7B5", "addr:country": "CA", "name": "7-Eleven", "phone": "9053564417", "website": "http://7eleven.ca/store-locator/24055", "opening_hours": "24/7", "brand": "7-Eleven", "brand:wikidata": "Q259340"}, "geometry": {"type": "Point", "coordinates": [-79.0964945, 43.070557]}},
{"type": "Feature", "id": "-CxpDnBSoH8XXEBvPjI-rLPyqeI=", "properties": {"ref": "24061", "@spider": "seven_eleven_ca", "addr:full": "314-316 Lake St", "addr:city": "St. Catharines", "addr:state": "ON", "addr:postcode": "L2N4H4", "addr:country": "CA", "name": "7-Eleven", "phone": "9059345885", "website": "http://7eleven.ca/store-locator/24061", "opening_hours": "24/7", "brand": "7-Eleven", "brand:wikidata": "Q259340"}, "geometry": {"type": "Point", "coordinates": [-79.2512653, 43.1862115]}},
{"type": "Feature", "id": "wdkLcFA4IKqs9pwiavzagZTLDJE=", "properties": {"ref": "24138", "@spider": "seven_eleven_ca", "addr:full": "1730 Bloor St W", "addr:city": "Toronto", "addr:state": "ON", "addr:postcode": "M6P1B3", "addr:country": "CA", "name": "7-Eleven", "phone": "4167625058", "website": "http://7eleven.ca/store-locator/24138", "opening_hours": "24/7", "brand": "7-Eleven", "brand:wikidata": "Q259340"}, "geometry": {"type": "Point", "coordinates": [-79.4590961, 43.6552012]}},
{"type": "Feature", "id": "mbw2GiAa9y9SRHBjgWJX5GYT-C0=", "properties": {"ref": "24201", "@spider": "seven_eleven_ca", "addr:full": "971 Wyandotte St E", "addr:city": "Windsor", "addr:state": "ON", "addr:postcode": "N9A3K1", "addr:country": "CA", "name": "7-Eleven", "phone": "5192525114", "website": "http://7eleven.ca/store-locator/24201", "opening_hours": "24/7", "brand": "7-Eleven", "brand:wikidata": "Q259340"}, "geometry": {"type": "Point", "coordinates": [-83.022799, 42.3188904]}},
{"type": "Feature", "id": "wc3qxp97O2ifcLHvLb1u8YDlM4g=", "properties": {"ref": "24202", "@spider": "seven_eleven_ca", "addr:full": "278 Tecumseh Rd E", "addr:city": "Windsor", "addr:state": "ON", "addr:postcode": "N8X2R3", "addr:country": "CA", "name": "7-Eleven", "phone": "5192568989", "website": "http://7eleven.ca/store-locator/24202", "opening_hours": "24/7", "brand": "7-Eleven", "brand:wikidata": "Q259340"}, "geometry": {"type": "Point", "coordinates": [-83.02141343058793, 42.29752541771405]}},
{"type": "Feature", "id": "SdQjsBl-NUeqGnOT3ZlGFD2qZXw=", "properties": {"ref": "24216", "@spider": "seven_eleven_ca", "addr:full": "615 Shawcliffe Gate SW", "addr:city": "Calgary", "addr:state": "AB", "addr:postcode": "T2Y1W1", "addr:country": "CA", "name": "7-Eleven", "phone": "4032542995", "website": "http://7eleven.ca/store-locator/24216", "opening_hours": "24/7", "brand": "7-Eleven", "brand:wikidata": "Q259340"}, "geometry": {"type": "Point", "coordinates": [-114.07425284385675, 50.91124769336996]}},
{"type": "Feature", "id": "5aD6Mpdz_1jWy-AF5mErmttNueU=", "properties": {"ref": "24263", "@spider": "seven_eleven_ca", "addr:full": "3210 Montague Street", "addr:city": "Regina", "addr:state": "SK", "addr:postcode": "S4S1Z9", "addr:country": "CA", "name": "7-Eleven", "phone": "3067916920", "website": "http://7eleven.ca/store-locator/24263", "opening_hours": "24/7", "brand": "7-Eleven", "brand:wikidata": "Q259340"}, "geometry": {"type": "Point", "coordinates": [-104.6301618, 50.4279485]}},
{"type": "Feature", "id": "O9oX-bu0hvN8J2OyneVXXjXNcXY=", "properties": {"ref": "24290", "@spider": "seven_eleven_ca", "addr:full": "2415 East 1st Avenue", "addr:city": "Vancouver", "addr:state": "BC", "addr:postcode": "V5M1A2", "addr:country": "CA", "name": "7-Eleven", "phone": "6042513667", "website": "http://7eleven.ca/store-locator/24290", "opening_hours": "24/7", "brand": "7-Eleven", "brand:wikidata": "Q259340"}, "geometry": {"type": "Point", "coordinates": [-123.05624554865062, 49.26989963271873]}},
{"type": "Feature", "id": "62TZSBP64mk_wOiOSEKbo1tMHqs=", "properties": {"ref": "24309", "@spider": "seven_eleven_ca", "addr:full": "11868 145th Ave", "addr:city": "Edmonton", "addr:state": "AB", "addr:postcode": "T5X2E3", "addr:country": "CA", "name": "7-Eleven", "phone": "7804572590", "website": "http://7eleven.ca/store-locator/24309", "opening_hours": "24/7", "brand": "7-Eleven", "brand:wikidata": "Q259340"}, "geometry": {"type": "Point", "coordinates": [-113.52740406990051, 53.607632049151604]}},
{"type": "Feature", "id": "pVuwSzYT7khtgZuVVdesXBVSLKg=", "properties": {"ref": "24310", "@spider": "seven_eleven_ca", "addr:full": "7612 104th Street", "addr:city": "Edmonton", "addr:state": "AB", "addr:postcode": "T6E6B8", "addr:country": "CA", "name": "7-Eleven", "phone": "7804339831", "website": "http://7eleven.ca/store-locator/24310", "opening_hours": "24/7", "brand": "7-Eleven", "brand:wikidata": "Q259340"}, "geometry": {"type": "Point", "coordinates": [-113.49825563282593, 53.51272882578116]}},
{"type": "Feature", "id": "mHtjH1UVpgT-8eA0Nm-coyRfM08=", "properties": {"ref": "24322", "@spider": "seven_eleven_ca", "addr:full": "4210 Albert Street", "addr:city": "Regina", "addr:state": "SK", "addr:postcode": "S4S3R9", "addr:country": "CA", "name": "7-Eleven", "phone": "3067916913", "website": "http://7eleven.ca/store-locator/24322", "opening_hours": "24/7", "brand": "7-Eleven", "brand:wikidata": "Q259340"}, "geometry": {"type": "Point", "coordinates": [-104.6189015, 50.4119151]}},
{"type": "Feature", "id": "kcEfJ6GsYwYNrgZ7MeyEPKUBgMU=", "properties": {"ref": "24357", "@spider": "seven_eleven_ca", "addr:full": "23B Akins Drive", "addr:city": "St Albert", "addr:state": "AB", "addr:postcode": "T8N3B3", "addr:country": "CA", "name": "7-Eleven", "phone": "7804590533", "website": "http://7eleven.ca/store-locator/24357", "opening_hours": "24/7", "brand": "7-Eleven", "brand:wikidata": "Q259340"}, "geometry": {"type": "Point", "coordinates": [-113.5928859576343, 53.630843411673666]}},
{"type": "Feature", "id": "l5b-FPY3bm6_vwpeZ1vrseSgQ_k=", "properties": {"ref": "24368", "@spider": "seven_eleven_ca", "addr:full": "355 Henderson Hwy", "addr:city": "Winnipeg", "addr:state": "MB", "addr:postcode": "R2L1M9", "addr:country": "CA", "name": "7-Eleven", "phone": "2049850131", "website": "http://7eleven.ca/store-locator/24368", "opening_hours": "24/7", "brand": "7-Eleven", "brand:wikidata": "Q259340"}, "geometry": {"type": "Point", "coordinates": [-97.1128454804421, 49.917233049384365]}},
{"type": "Feature", "id": "-321nWW5uRlZmnxBnEU7ldbNP9w=", "properties": {"ref": "24414", "@spider": "seven_eleven_ca", "addr:full": "1390 Weston Rd", "addr:city": "Toronto", "addr:state": "ON", "addr:postcode": "M6M4S2", "addr:country": "CA", "name": "7-Eleven", "phone": "4162486743", "website": "http://7eleven.ca/store-locator/24414", "opening_hours": "24/7", "brand": "7-Eleven", "brand:wikidata": "Q259340"}, "geometry": {"type": "Point", "coordinates": [-79.50128325823243, 43.69105470381019]}},
{"type": "Feature", "id": "hceLOFhLe5bu6mLxgX1nzgDlvAc=", "properties": {"ref": "24470", "@spider": "seven_eleven_ca", "addr:full": "20296 - 56th Ave", "addr:city": "Langley", "addr:state": "BC", "addr:postcode": "V3A3Y7", "addr:country": "CA", "name": "7-Eleven", "phone": "6045307550", "website": "http://7eleven.ca/store-locator/24470", "opening_hours": "24/7", "brand": "7-Eleven", "brand:wikidata": "Q259340"}, "geometry": {"type": "Point", "coordinates": [-122.65994314851014, 49.10416025040081]}},
{"type": "Feature", "id": "RIoyS7g2O04pEmHTKp5uTlerqKE=", "properties": {"ref": "24508", "@spider": "seven_eleven_ca", "addr:full": "2480 Lakeshore Blvd W", "addr:city": "Etobicoke", "addr:state": "ON", "addr:postcode": "M8V1C9", "addr:country": "CA", "name": "7-Eleven", "phone": "4162599452", "website": "http://7eleven.ca/store-locator/24508", "opening_hours": "24/7", "brand": "7-Eleven", "brand:wikidata": "Q259340"}, "geometry": {"type": "Point", "coordinates": [-79.49004654587952, 43.61307628496873]}},
{"type": "Feature", "id": "kIztYSqDnorKxSWlEIxny4EJpe4=", "properties": {"ref": "24616", "@spider": "seven_eleven_ca", "addr:full": "1622 St Mary's Rd", "addr:city": "Winnipeg", "addr:state": "MB", "addr:postcode": "R2M3W7", "addr:country": "CA", "name": "7-Eleven", "phone": "2049850179", "website": "http://7eleven.ca/store-locator/24616", "opening_hours": "24/7", "brand": "7-Eleven", "brand:wikidata": "Q259340"}, "geometry": {"type": "Point", "coordinates": [-97.11401022970676, 49.82046756547549]}},
{"type": "Feature", "id": "ve_GIUd8Sx6Ohb-FCpqdobIxOc8=", "properties": {"ref": "24814", "@spider": "seven_eleven_ca", "addr:full": "6 Crowland Ave", "addr:city": "Welland", "addr:state": "ON", "addr:postcode": "L3B1W9", "addr:country": "CA", "name": "7-Eleven", "phone": "9057357806", "website": "http://7eleven.ca/store-locator/24814", "opening_hours": "24/7", "brand": "7-Eleven", "brand:wikidata": "Q259340"}, "geometry": {"type": "Point", "coordinates": [-79.2361108, 42.9931427]}},
{"type": "Feature", "id": "hxl29dlk6fzL_vSECsdsjccSiFM=", "properties": {"ref": "24857", "@spider": "seven_eleven_ca", "addr:full": "223 Dogwood St", "addr:city": "Campbell River", "addr:state": "BC", "addr:postcode": "V9W2Y1", "addr:country": "CA", "name": "7-Eleven", "phone": "2502879716", "website": "http://7eleven.ca/store-locator/24857", "opening_hours": "24/7", "brand": "7-Eleven", "brand:wikidata": "Q259340"}, "geometry": {"type": "Point", "coordinates": [-125.24685, 50.0113497]}},
{"type": "Feature", "id": "td-wyDpMd8oGnQdqcA9LvXdD-C4=", "properties": {"ref": "24860", "@spider": "seven_eleven_ca", "addr:full": "2177 Broad St", "addr:city": "Regina", "addr:state": "SK", "addr:postcode": "S4P1Y6", "addr:country": "CA", "name": "7-Eleven", "phone": "3067916921", "website": "http://7eleven.ca/store-locator/24860", "opening_hours": "24/7", "brand": "7-Eleven", "brand:wikidata": "Q259340"}, "geometry": {"type": "Point", "coordinates": [-104.60580959916115, 50.44425693912048]}},
{"type": "Feature", "id": "oewKdQ2oH9NVqhmpoP_tst27SVg=", "properties": {"ref": "25067", "@spider": "seven_eleven_ca", "addr:full": "256 King St N", "addr:city": "Waterloo", "addr:state": "ON", "addr:postcode": "N2J2Y9", "addr:country": "CA", "name": "7-Eleven", "phone": "5198866138", "website": "http://7eleven.ca/store-locator/25067", "opening_hours": "24/7", "brand": "7-Eleven", "brand:wikidata": "Q259340"}, "geometry": {"type": "Point", "coordinates": [-80.52477478981024, 43.47667982354061]}},
{"type": "Feature", "id": "QFfS9tDZtAVlB-F7GjEEKl5nnZU=", "properties": {"ref": "25119", "@spider": "seven_eleven_ca", "addr:full": "11528 107th Ave", "addr:city": "Edmonton", "addr:state": "AB", "addr:postcode": "T5H0Y7", "addr:country": "CA", "name": "7-Eleven", "phone": "7804250280", "website": "http://7eleven.ca/store-locator/25119", "opening_hours": "Mo-Su 07:00-00:00", "brand": "7-Eleven", "brand:wikidata": "Q259340"}, "geometry": {"type": "Point", "coordinates": [-113.5207878, 53.5516111]}},
{"type": "Feature", "id": "6HueQ3J3iAhA4zsbpMlFIfl0IyY=", "properties": {"ref": "25120", "@spider": "seven_eleven_ca", "addr:full": "12707 127th Street", "addr:city": "Edmonton", "addr:state": "AB", "addr:postcode": "T5L1A6", "addr:country": "CA", "name": "7-Eleven", "phone": "7804532611", "website": "http://7eleven.ca/store-locator/25120", "opening_hours": "24/7", "brand": "7-Eleven", "brand:wikidata": "Q259340"}, "geometry": {"type": "Point", "coordinates": [-113.54064258188828, 53.58543919772389]}},
{"type": "Feature", "id": "t5yvf3iY73iI8Px9m3pQ1RBIx14=", "properties": {"ref": "25164", "@spider": "seven_eleven_ca", "addr:full": "7282 Knight St", "addr:city": "Vancouver", "addr:state": "BC", "addr:postcode": "V5P2W8", "addr:country": "CA", "name": "7-Eleven", "phone": "6047139600", "website": "http://7eleven.ca/store-locator/25164", "opening_hours": "24/7", "brand": "7-Eleven", "brand:wikidata": "Q259340"}, "geometry": {"type": "Point", "coordinates": [-123.07652036658396, 49.2184714683209]}},
{"type": "Feature", "id": "C4e6xhKhXj1Pu_AwwGPy7AJyHdg=", "properties": {"ref": "25292", "@spider": "seven_eleven_ca", "addr:full": "7600 Royal Oak Ave", "addr:city": "Burnaby", "addr:state": "BC", "addr:postcode": "V5J4K3", "addr:country": "CA", "name": "7-Eleven", "phone": "6044357152", "website": "http://7eleven.ca/store-locator/25292", "opening_hours": "24/7", "brand": "7-Eleven", "brand:wikidata": "Q259340"}, "geometry": {"type": "Point", "coordinates": [-122.98803806304932, 49.21464842317876]}},
{"type": "Feature", "id": "DbGE2opd3qOnznB90-kr8i5o4H0=", "properties": {"ref": "25318", "@spider": "seven_eleven_ca", "addr:full": "4010 200th St", "addr:city": "Langley", "addr:state": "BC", "addr:postcode": "V3A1K7", "addr:country": "CA", "name": "7-Eleven", "phone": "6045345596", "website": "http://7eleven.ca/store-locator/25318", "opening_hours": "24/7", "brand": "7-Eleven", "brand:wikidata": "Q259340"}, "geometry": {"type": "Point", "coordinates": [-122.66919545363635, 49.075008917611335]}},
{"type": "Feature", "id": "PxncRIGSox8Iafn6RUKhr11j-F4=", "properties": {"ref": "25320", "@spider": "seven_eleven_ca", "addr:full": "1752 100th Street", "addr:city": "North Battleford", "addr:state": "SK", "addr:postcode": "S9A0W8", "addr:country": "CA", "name": "7-Eleven", "phone": "3064454664", "website": "http://7eleven.ca/store-locator/25320", "opening_hours": "24/7", "brand": "7-Eleven", "brand:wikidata": "Q259340"}, "geometry": {"type": "Point", "coordinates": [-108.29841077327728, 52.78354819379098]}},
{"type": "Feature", "id": "MKl1dnEwQXDkpO-dylbA5p5F9Rc=", "properties": {"ref": "25339", "@spider": "seven_eleven_ca", "addr:full": "883 Dundas St W", "addr:city": "Toronto", "addr:state": "ON", "addr:postcode": "M6J1V8", "addr:country": "CA", "name": "7-Eleven", "phone": "4163620450", "website": "http://7eleven.ca/store-locator/25339", "opening_hours": "24/7", "brand": "7-Eleven", "brand:wikidata": "Q259340"}, "geometry": {"type": "Point", "coordinates": [-79.41112374420698, 43.65103916317828]}},
{"type": "Feature", "id": "vorDDOYWwiY-ARHvdKMtcjnFTu4=", "properties": {"ref": "25349", "@spider": "seven_eleven_ca", "addr:full": "311 16th Ave NE", "addr:city": "Calgary", "addr:state": "AB", "addr:postcode": "T2E1K1", "addr:country": "CA", "name": "7-Eleven", "phone": "4032771041", "website": "http://7eleven.ca/store-locator/25349", "opening_hours": "24/7", "brand": "7-Eleven", "brand:wikidata": "Q259340"}, "geometry": {"type": "Point", "coordinates": [-114.05688688158989, 51.066529701401635]}},
{"type": "Feature", "id": "PoCe8vMlDJXtz8XrRCm1qnvg-2M=", "properties": {"ref": "25368", "@spider": "seven_eleven_ca", "addr:full": "710 W 6th Ave", "addr:city": "Vancouver", "addr:state": "BC", "addr:postcode": "V5Z1A5", "addr:country": "CA", "name": "7-Eleven", "phone": "6048724835", "website": "http://7eleven.ca/store-locator/25368", "opening_hours": "24/7", "brand": "7-Eleven", "brand:wikidata": "Q259340"}, "geometry": {"type": "Point", "coordinates": [-123.1202274, 49.2657444]}},
{"type": "Feature", "id": "N8jN171YFnVp2ok5IvlSxqelLDs=", "properties": {"ref": "25397", "@spider": "seven_eleven_ca", "addr:full": "104 Regent Ave", "addr:city": "Winnipeg", "addr:state": "MB", "addr:postcode": "R2C0C1", "addr:country": "CA", "name": "7-Eleven", "phone": "2049850188", "website": "http://7eleven.ca/store-locator/25397", "opening_hours": "24/7", "brand": "7-Eleven", "brand:wikidata": "Q259340"}, "geometry": {"type": "Point", "coordinates": [-97.0019867, 49.8947751]}},
{"type": "Feature", "id": "O2faAkdq5f2w2xhXcukRV-ZdBUI=", "properties": {"ref": "25400", "@spider": "seven_eleven_ca", "addr:full": "12137 Harris Rd", "addr:city": "Pitt Meadows", "addr:state": "BC", "addr:postcode": "V3Y2E9", "addr:country": "CA", "name": "7-Eleven", "phone": "6044656522", "website": "http://7eleven.ca/store-locator/25400", "opening_hours": "24/7", "brand": "7-Eleven", "brand:wikidata": "Q259340"}, "geometry": {"type": "Point", "coordinates": [-122.6900071, 49.2231484]}},
{"type": "Feature", "id": "S16IXtZmvuAKi1DqALfsKFXKi8k=", "properties": {"ref": "25406", "@spider": "seven_eleven_ca", "addr:full": "1198 Lansdowne St", "addr:city": "Coquitlam", "addr:state": "BC", "addr:postcode": "V3E1J7", "addr:country": "CA", "name": "7-Eleven", "phone": "6044641615", "website": "http://7eleven.ca/store-locator/25406", "opening_hours": "24/7", "brand": "7-Eleven", "brand:wikidata": "Q259340"}, "geometry": {"type": "Point", "coordinates": [-122.8098741, 49.2839579]}},
{"type": "Feature", "id": "MxuI3neeZTAmcZ8g8sfLdKJB9uk=", "properties": {"ref": "25429", "@spider": "seven_eleven_ca", "addr:full": "1505 Gordon Dr", "addr:city": "Kelowna", "addr:state": "BC", "addr:postcode": "V1Y3G6", "addr:country": "CA", "name": "7-Eleven", "phone": "2508601741", "website": "http://7eleven.ca/store-locator/25429", "opening_hours": "24/7", "brand": "7-Eleven", "brand:wikidata": "Q259340"}, "geometry": {"type": "Point", "coordinates": [-119.4766902, 49.8859854]}},
{"type": "Feature", "id": "ukSzpB8lMnZ1xJ0Hkcwj7jVKAjQ=", "properties": {"ref": "25440", "@spider": "seven_eleven_ca", "addr:full": "2929 St Johns St", "addr:city": "Port Moody", "addr:state": "BC", "addr:postcode": "V3H2C2", "addr:country": "CA", "name": "7-Eleven", "phone": "6044615414", "website": "http://7eleven.ca/store-locator/25440", "opening_hours": "24/7", "brand": "7-Eleven", "brand:wikidata": "Q259340"}, "geometry": {"type": "Point", "coordinates": [-122.8459572, 49.276304]}},
{"type": "Feature", "id": "unduFaGyOyJ5M4HmOHiW3NT1Vos=", "properties": {"ref": "25519", "@spider": "seven_eleven_ca", "addr:full": "1718 Wilson Ave", "addr:city": "Toronto", "addr:state": "ON", "addr:postcode": "M3L1A6", "addr:country": "CA", "name": "7-Eleven", "phone": "4162441928", "website": "http://7eleven.ca/store-locator/25519", "opening_hours": "Mo-Su 05:00-00:00", "brand": "7-Eleven", "brand:wikidata": "Q259340"}, "geometry": {"type": "Point", "coordinates": [-79.5137364696609, 43.72042005938399]}},
{"type": "Feature", "id": "0_SvXNg8EGmWLfWZij7XzrhLgjY=", "properties": {"ref": "25630", "@spider": "seven_eleven_ca", "addr:full": "6820 4 St NW", "addr:city": "Calgary", "addr:state": "AB", "addr:postcode": "T2K1C2", "addr:country": "CA", "name": "7-Eleven", "phone": "4032753532", "website": "http://7eleven.ca/store-locator/25630", "opening_hours": "24/7", "brand": "7-Eleven", "brand:wikidata": "Q259340"}, "geometry": {"type": "Point", "coordinates": [-114.07076060771942, 51.11392239049671]}},
{"type": "Feature", "id": "A70iB-fxjRVEO_GgrwETNi8qEUk=", "properties": {"ref": "25659", "@spider": "seven_eleven_ca", "addr:full": "2585 Wyandotte St W", "addr:city": "Windsor", "addr:state": "ON", "addr:postcode": "N9B1K6", "addr:country": "CA", "name": "7-Eleven", "phone": "5192560331", "website": "http://7eleven.ca/store-locator/25659", "opening_hours": "24/7", "brand": "7-Eleven", "brand:wikidata": "Q259340"}, "geometry": {"type": "Point", "coordinates": [-83.06511317844922, 42.304027265026875]}},
{"type": "Feature", "id": "TaOcA8-dO-fU2CeEEL9hIfBLUlw=", "properties": {"ref": "25662", "@spider": "seven_eleven_ca", "addr:full": "123 Anderson St", "addr:city": "Nelson", "addr:state": "BC", "addr:postcode": "V1L3X6", "addr:country": "CA", "name": "7-Eleven", "phone": "2503522348", "website": "http://7eleven.ca/store-locator/25662", "opening_hours": "24/7", "brand": "7-Eleven", "brand:wikidata": "Q259340"}, "geometry": {"type": "Point", "coordinates": [-117.28367577306926, 49.50024055126471]}},
{"type": "Feature", "id": "5nX_Npr8HNZmAnY3CmL8rVwvcc4=", "properties": {"ref": "25672", "@spider": "seven_eleven_ca", "addr:full": "2387 McCallum Rd", "addr:city": "Abbotsford", "addr:state": "BC", "addr:postcode": "V2S3N7", "addr:country": "CA", "name": "7-Eleven", "phone": "6048526489", "website": "http://7eleven.ca/store-locator/25672", "opening_hours": "24/7", "brand": "7-Eleven", "brand:wikidata": "Q259340"}, "geometry": {"type": "Point", "coordinates": [-122.29400400819031, 49.04532647903038]}},
{"type": "Feature", "id": "DAkSH7-koXFheuOxfEtONnyPgTo=", "properties": {"ref": "25679", "@spider": "seven_eleven_ca", "addr:full": "615 Seymour Str", "addr:city": "Kamloops", "addr:state": "BC", "addr:postcode": "V2C2H2", "addr:country": "CA", "name": "7-Eleven", "phone": "2503728837", "website": "http://7eleven.ca/store-locator/25679", "opening_hours": "24/7", "brand": "7-Eleven", "brand:wikidata": "Q259340"}, "geometry": {"type": "Point", "coordinates": [-120.32656520605087, 50.67460015708894]}},
{"type": "Feature", "id": "LIUizj1AlpLziQsEXw201vqQCLU=", "properties": {"ref": "25748", "@spider": "seven_eleven_ca", "addr:full": "1590 Summit Drive", "addr:city": "Kamloops", "addr:state": "BC", "addr:postcode": "V2E1E9", "addr:country": "CA", "name": "7-Eleven", "phone": "2503725752", "website": "http://7eleven.ca/store-locator/25748", "opening_hours": "Mo-Su 05:00-00:00", "brand": "7-Eleven", "brand:wikidata": "Q259340"}, "geometry": {"type": "Point", "coordinates": [-120.34089893102646, 50.656550125006156]}},
{"type": "Feature", "id": "_0FvfDvFTNiqF5rKUxSOszF-PaE=", "properties": {"ref": "25750", "@spider": "seven_eleven_ca", "addr:full": "950 Queensland Dr SE", "addr:city": "Calgary", "addr:state": "AB", "addr:postcode": "T2J6E7", "addr:country": "CA", "name": "7-Eleven", "phone": "4032716227", "website": "http://7eleven.ca/store-locator/25750", "opening_hours": "Mo-Su 05:00-00:00", "brand": "7-Eleven", "brand:wikidata": "Q259340"}, "geometry": {"type": "Point", "coordinates": [-114.0169045329094, 50.932519763310225]}},
{"type": "Feature", "id": "muk9lq4mM47pbIgKxHk19o7dvoo=", "properties": {"ref": "25837", "@spider": "seven_eleven_ca", "addr:full": "1761 Dewdney Avenue E", "addr:city": "Regina", "addr:state": "SK", "addr:postcode": "S4N4N6", "addr:country": "CA", "name": "7-Eleven", "phone": "3067916914", "website": "http://7eleven.ca/store-locator/25837", "opening_hours": "24/7", "brand": "7-Eleven", "brand:wikidata": "Q259340"}, "geometry": {"type": "Point", "coordinates": [-104.55818215015825, 50.454406620946976]}},
{"type": "Feature", "id": "YTcLA9K-yndnO2k2gz-4mTOboYk=", "properties": {"ref": "25875", "@spider": "seven_eleven_ca", "addr:full": "585 Eramosa Rd", "addr:city": "Guelph", "addr:state": "ON", "addr:postcode": "N1E2N4", "addr:country": "CA", "name": "7-Eleven", "phone": "5198214431", "website": "http://7eleven.ca/store-locator/25875", "opening_hours": "24/7", "brand": "7-Eleven", "brand:wikidata": "Q259340"}, "geometry": {"type": "Point", "coordinates": [-80.24735525250435, 43.56808060855792]}},
{"type": "Feature", "id": "eO4FMNoyt68M5D_sX2pX1kEVFUs=", "properties": {"ref": "25876", "@spider": "seven_eleven_ca", "addr:full": "7275 Canada Way", "addr:city": "Burnaby", "addr:state": "BC", "addr:postcode": "V5E3R7", "addr:country": "CA", "name": "7-Eleven", "phone": "6045258050", "website": "http://7eleven.ca/store-locator/25876", "opening_hours": "24/7", "brand": "7-Eleven", "brand:wikidata": "Q259340"}, "geometry": {"type": "Point", "coordinates": [-122.94176915291246, 49.224047850528045]}},
{"type": "Feature", "id": "ji5Uc9yayKTF2Tgk0cPshhsqZHw=", "properties": {"ref": "25878", "@spider": "seven_eleven_ca", "addr:full": "925 Ottawa St", "addr:city": "Windsor", "addr:state": "ON", "addr:postcode": "N8X2E2", "addr:country": "CA", "name": "7-Eleven", "phone": "5192528874", "website": "http://7eleven.ca/store-locator/25878", "opening_hours": "24/7", "brand": "7-Eleven", "brand:wikidata": "Q259340"}, "geometry": {"type": "Point", "coordinates": [-83.0166555, 42.3080108]}},
{"type": "Feature", "id": "GxLpPxjeZRzSNYLig05eFKId3UA=", "properties": {"ref": "25920", "@spider": "seven_eleven_ca", "addr:full": "434 Esplanade Ave", "addr:city": "Ladysmith", "addr:state": "BC", "addr:postcode": "V9G1A6", "addr:country": "CA", "name": "7-Eleven", "phone": "2502458833", "website": "http://7eleven.ca/store-locator/25920", "opening_hours": "24/7", "brand": "7-Eleven", "brand:wikidata": "Q259340"}, "geometry": {"type": "Point", "coordinates": [-123.81600111722946, 48.99365748234136]}},
{"type": "Feature", "id": "ZCJGOAkmcg7CRNhaSDp1AxTmPjQ=", "properties": {"ref": "25931", "@spider": "seven_eleven_ca", "addr:full": "1395 Marine Drive", "addr:city": "West Vancouver", "addr:state": "BC", "addr:postcode": "V7T1B6", "addr:country": "CA", "name": "7-Eleven", "phone": "6049224611", "website": "http://7eleven.ca/store-locator/25931", "opening_hours": "Mo-Su 06:00-00:00", "brand": "7-Eleven", "brand:wikidata": "Q259340"}, "geometry": {"type": "Point", "coordinates": [-123.154136, 49.3280968]}},
{"type": "Feature", "id": "0PMd2WkDrKuYU2_uemqBSSe9tew=", "properties": {"ref": "26077", "@spider": "seven_eleven_ca", "addr:full": "3260 Lakeshore Blvd W", "addr:city": "Etobicoke", "addr:state": "ON", "addr:postcode": "M8V1M4", "addr:country": "CA", "name": "7-Eleven", "phone": "4162529275", "website": "http://7eleven.ca/store-locator/26077", "opening_hours": "24/7", "brand": "7-Eleven", "brand:wikidata": "Q259340"}, "geometry": {"type": "Point", "coordinates": [-79.52285706996918, 43.59734708671594]}},
{"type": "Feature", "id": "QG-WB0IFHuD99mC5T-WpdBJdP44=", "properties": {"ref": "26093", "@spider": "seven_eleven_ca", "addr:full": "5320 8th Ave SE", "addr:city": "Calgary", "addr:state": "AB", "addr:postcode": "T2A4L7", "addr:country": "CA", "name": "7-Eleven", "phone": "4032726225", "website": "http://7eleven.ca/store-locator/26093", "opening_hours": "24/7", "brand": "7-Eleven", "brand:wikidata": "Q259340"}, "geometry": {"type": "Point", "coordinates": [-113.95734071731567, 51.04551880161211]}},
{"type": "Feature", "id": "ImS4BoIGHrvXngE6sajjq2x7gr0=", "properties": {"ref": "26141", "@spider": "seven_eleven_ca", "addr:full": "12621 118th Avenue", "addr:city": "Edmonton", "addr:state": "AB", "addr:postcode": "T5L2K7", "addr:country": "CA", "name": "7-Eleven", "phone": "7804541757", "website": "http://7eleven.ca/store-locator/26141", "opening_hours": "24/7", "brand": "7-Eleven", "brand:wikidata": "Q259340"}, "geometry": {"type": "Point", "coordinates": [-113.54062280055581, 53.56990990142695]}},
{"type": "Feature", "id": "nMcMmqm4yUSxDHFwAoaFf7kbILA=", "properties": {"ref": "26144", "@spider": "seven_eleven_ca", "addr:full": "506 5th St", "addr:city": "Nanaimo", "addr:state": "BC", "addr:postcode": "V9R1P1", "addr:country": "CA", "name": "7-Eleven", "phone": "2507545631", "website": "http://7eleven.ca/store-locator/26144", "opening_hours": "Mo-Su 06:00-23:00", "brand": "7-Eleven", "brand:wikidata": "Q259340"}, "geometry": {"type": "Point", "coordinates": [-123.9499363, 49.1553135]}},
{"type": "Feature", "id": "maDRXdJTPKYqNKsGQy3jg6feCTE=", "properties": {"ref": "26171", "@spider": "seven_eleven_ca", "addr:full": "2267 Lakeshore Rd W", "addr:city": "Oakville", "addr:state": "ON", "addr:postcode": "L6L1H1", "addr:country": "CA", "name": "7-Eleven", "phone": "9058253229", "website": "http://7eleven.ca/store-locator/26171", "opening_hours": "24/7", "brand": "7-Eleven", "brand:wikidata": "Q259340"}, "geometry": {"type": "Point", "coordinates": [-79.7068831, 43.3994119]}},
{"type": "Feature", "id": "d7UnSYxTYKBTar42OU4UsEhrBFM=", "properties": {"ref": "26202", "@spider": "seven_eleven_ca", "addr:full": "10719 156th Street", "addr:city": "Edmonton", "addr:state": "AB", "addr:postcode": "T5P2S3", "addr:country": "CA", "name": "7-Eleven", "phone": "7804898700", "website": "http://7eleven.ca/store-locator/26202", "opening_hours": "24/7", "brand": "7-Eleven", "brand:wikidata": "Q259340"}, "geometry": {"type": "Point", "coordinates": [-113.5898732, 53.5515195]}},
{"type": "Feature", "id": "1z67sZGMUyVMKOJ_PKJY7vhxv1M=", "properties": {"ref": "26206", "@spider": "seven_eleven_ca", "addr:full": "704 Kingston Rd", "addr:city": "Pickering", "addr:state": "ON", "addr:postcode": "L1V1A8", "addr:country": "CA", "name": "7-Eleven", "phone": "9054209369", "website": "http://7eleven.ca/store-locator/26206", "opening_hours": "24/7", "brand": "7-Eleven", "brand:wikidata": "Q259340"}, "geometry": {"type": "Point", "coordinates": [-79.1152104, 43.8197307]}},
{"type": "Feature", "id": "7O4GjfcpbtH0HZIgbG0mODDAmbE=", "properties": {"ref": "26241", "@spider": "seven_eleven_ca", "addr:full": "3790 Canada Way", "addr:city": "Burnaby", "addr:state": "BC", "addr:postcode": "V5G1G5", "addr:country": "CA", "name": "7-Eleven", "phone": "6044381711", "website": "http://7eleven.ca/store-locator/26241", "opening_hours": "24/7", "brand": "7-Eleven", "brand:wikidata": "Q259340"}, "geometry": {"type": "Point", "coordinates": [-123.020129, 49.2545311]}},
{"type": "Feature", "id": "Hz1RLd2wIfMO4DaVVqeB0decedk=", "properties": {"ref": "26285", "@spider": "seven_eleven_ca", "addr:full": "6389 120th Street", "addr:city": "North Delta", "addr:state": "BC", "addr:postcode": "V4E2A6", "addr:country": "CA", "name": "7-Eleven", "phone": "6045917744", "website": "http://7eleven.ca/store-locator/26285", "opening_hours": "Mo-Su 05:00-00:00", "brand": "7-Eleven", "brand:wikidata": "Q259340"}, "geometry": {"type": "Point", "coordinates": [-122.89070338010788, 49.11886618886685]}},
{"type": "Feature", "id": "In3TjsOloPTmJ-_0KNXo12_E5eM=", "properties": {"ref": "26286", "@spider": "seven_eleven_ca", "addr:full": "10 Burnside Road W", "addr:city": "Saanich", "addr:state": "BC", "addr:postcode": "V9A1B3", "addr:country": "CA", "name": "7-Eleven", "phone": "2509532156", "website": "http://7eleven.ca/store-locator/26286", "opening_hours": "24/7", "brand": "7-Eleven", "brand:wikidata": "Q259340"}, "geometry": {"type": "Point", "coordinates": [-123.38473342735597, 48.449898950725824]}},
{"type": "Feature", "id": "G6ka17kWaJRzFNViBhtFdDSrLmE=", "properties": {"ref": "26293", "@spider": "seven_eleven_ca", "addr:full": "525 Cranbrook St", "addr:city": "Cranbrook", "addr:state": "BC", "addr:postcode": "V1C2R5", "addr:country": "CA", "name": "7-Eleven", "phone": "2504894488", "website": "http://7eleven.ca/store-locator/26293", "opening_hours": "24/7", "brand": "7-Eleven", "brand:wikidata": "Q259340"}, "geometry": {"type": "Point", "coordinates": [-115.7623727023929, 49.518068090430084]}},
{"type": "Feature", "id": "_sXC55RLWRCUObLxWK17IEiIk0w=", "properties": {"ref": "26323", "@spider": "seven_eleven_ca", "addr:full": "2295 Cliffe Ave", "addr:city": "Courtenay", "addr:state": "BC", "addr:postcode": "V9N2L2", "addr:country": "CA", "name": "7-Eleven", "phone": "2503344171", "website": "http://7eleven.ca/store-locator/26323", "opening_hours": "24/7", "brand": "7-Eleven", "brand:wikidata": "Q259340"}, "geometry": {"type": "Point", "coordinates": [-124.98465836048126, 49.6784070694279]}},
{"type": "Feature", "id": "2UHaf0tMe0OcPv5a0hZJU4zAOJA=", "properties": {"ref": "26341", "@spider": "seven_eleven_ca", "addr:full": "4702 44th Street", "addr:city": "Lloydminster", "addr:state": "SK", "addr:postcode": "S9V0G6", "addr:country": "CA", "name": "7-Eleven", "phone": "3068255480", "website": "http://7eleven.ca/store-locator/26341", "opening_hours": "24/7", "brand": "7-Eleven", "brand:wikidata": "Q259340"}, "geometry": {"type": "Point", "coordinates": [-109.9977418, 53.278224]}},
{"type": "Feature", "id": "2z4ysIOUNOT3iZgSWoZAtwkYWsQ=", "properties": {"ref": "26408", "@spider": "seven_eleven_ca", "addr:full": "4071 Shelbourne St", "addr:city": "Saanich", "addr:state": "BC", "addr:postcode": "V8N5Y1", "addr:country": "CA", "name": "7-Eleven", "phone": "2503563149", "website": "http://7eleven.ca/store-locator/26408", "opening_hours": "24/7", "brand": "7-Eleven", "brand:wikidata": "Q259340"}, "geometry": {"type": "Point", "coordinates": [-123.33273947238922, 48.47652384804567]}},
{"type": "Feature", "id": "5-XwvvSiEtx1D-u6_gZlTCJjNZ8=", "properties": {"ref": "26509", "@spider": "seven_eleven_ca", "addr:full": "4444 16 Ave NW", "addr:city": "Calgary", "addr:state": "AB", "addr:postcode": "T3B0M4", "addr:country": "CA", "name": "7-Eleven", "phone": "4032882164", "website": "http://7eleven.ca/store-locator/26509", "opening_hours": "24/7", "brand": "7-Eleven", "brand:wikidata": "Q259340"}, "geometry": {"type": "Point", "coordinates": [-114.1587948, 51.0690555]}},
{"type": "Feature", "id": "FCPfkyVb52Fzv75dKj3Hwr9tIAE=", "properties": {"ref": "26517", "@spider": "seven_eleven_ca", "addr:full": "17638 60th Avenue", "addr:city": "Cloverdale", "addr:state": "BC", "addr:postcode": "V3S1V2", "addr:country": "CA", "name": "7-Eleven", "phone": "6045748295", "website": "http://7eleven.ca/store-locator/26517", "opening_hours": "24/7", "brand": "7-Eleven", "brand:wikidata": "Q259340"}, "geometry": {"type": "Point", "coordinates": [-122.7341240644455, 49.110972026675775]}},
{"type": "Feature", "id": "MvREFXSm2yRAMgfDUgctshbHx30=", "properties": {"ref": "26518", "@spider": "seven_eleven_ca", "addr:full": "3896 Carey Road", "addr:city": "Victoria", "addr:state": "BC", "addr:postcode": "V8Z 4C9", "addr:country": "CA", "name": "7-Eleven", "phone": "2504793711", "website": "http://7eleven.ca/store-locator/26518", "opening_hours": "24/7", "brand": "7-Eleven", "brand:wikidata": "Q259340"}, "geometry": {"type": "Point", "coordinates": [-123.3858703790923, 48.462878372474165]}},
{"type": "Feature", "id": "6jpju03-_BJd9eog8jPjg978iDQ=", "properties": {"ref": "26626", "@spider": "seven_eleven_ca", "addr:full": "3021 Ness Ave", "addr:city": "Winnipeg", "addr:state": "MB", "addr:postcode": "R2Y2J1", "addr:country": "CA", "name": "7-Eleven", "phone": "2049850162", "website": "http://7eleven.ca/store-locator/26626", "opening_hours": "24/7", "brand": "7-Eleven", "brand:wikidata": "Q259340"}, "geometry": {"type": "Point", "coordinates": [-97.279802262783, 49.88837738614348]}},
{"type": "Feature", "id": "DXRSEq5-7oCUWFOJxYxYLe-q0YI=", "properties": {"ref": "26633", "@spider": "seven_eleven_ca", "addr:full": "3201 39th Ave", "addr:city": "Vernon", "addr:state": "BC", "addr:postcode": "V1T5P1", "addr:country": "CA", "name": "7-Eleven", "phone": "2505420785", "website": "http://7eleven.ca/store-locator/26633", "opening_hours": "24/7", "brand": "7-Eleven", "brand:wikidata": "Q259340"}, "geometry": {"type": "Point", "coordinates": [-119.27445530891418, 50.2704180386185]}},
{"type": "Feature", "id": "5vw7AdCnQ3wvJ3a459ZnU3IPFfg=", "properties": {"ref": "26675", "@spider": "seven_eleven_ca", "addr:full": "2002 Nicola Ave", "addr:city": "Merritt", "addr:state": "BC", "addr:postcode": "V1K1B8", "addr:country": "CA", "name": "7-Eleven", "phone": "2503785111", "website": "http://7eleven.ca/store-locator/26675", "opening_hours": "24/7", "brand": "7-Eleven", "brand:wikidata": "Q259340"}, "geometry": {"type": "Point", "coordinates": [-120.7881411910057, 50.11131971946456]}},
{"type": "Feature", "id": "wrgyBGA4MvP9zPqtXRvCkBp7T0I=", "properties": {"ref": "26694", "@spider": "seven_eleven_ca", "addr:full": "779 Sutherland Dr E", "addr:city": "Brooks", "addr:state": "AB", "addr:postcode": "T1R1C5", "addr:country": "CA", "name": "7-Eleven", "phone": "4033628146", "website": "http://7eleven.ca/store-locator/26694", "opening_hours": "24/7", "brand": "7-Eleven", "brand:wikidata": "Q259340"}, "geometry": {"type": "Point", "coordinates": [-111.88379466533667, 50.56615667270027]}},
{"type": "Feature", "id": "WKe5dSIgxD3bXi2dLxRs9LCpKw4=", "properties": {"ref": "26695", "@spider": "seven_eleven_ca", "addr:full": "203 2nd St W", "addr:city": "Brooks", "addr:state": "AB", "addr:postcode": "T1R0E8", "addr:country": "CA", "name": "7-Eleven", "phone": "4033626311", "website": "http://7eleven.ca/store-locator/26695", "opening_hours": "24/7", "brand": "7-Eleven", "brand:wikidata": "Q259340"}, "geometry": {"type": "Point", "coordinates": [-111.89946413040167, 50.566371338898314]}},
{"type": "Feature", "id": "4L5UuoaAaJQPhsaYP8ohgrCJ6ws=", "properties": {"ref": "26696", "@spider": "seven_eleven_ca", "addr:full": "3360 Victoria Avenue W", "addr:city": "Brandon", "addr:state": "MB", "addr:postcode": "R7B2R5", "addr:country": "CA", "name": "7-Eleven", "phone": "2047290223", "website": "http://7eleven.ca/store-locator/26696", "opening_hours": "24/7", "brand": "7-Eleven", "brand:wikidata": "Q259340"}, "geometry": {"type": "Point", "coordinates": [-99.9842023, 49.8418934]}},
{"type": "Feature", "id": "R49ZS_sjo8g6REX49z5HcxCXag4=", "properties": {"ref": "26713", "@spider": "seven_eleven_ca", "addr:full": "5 1st Avenue NW", "addr:city": "Weyburn", "addr:state": "SK", "addr:postcode": "S4H1N6", "addr:country": "CA", "name": "7-Eleven", "phone": "3068427887", "website": "http://7eleven.ca/store-locator/26713", "opening_hours": "24/7", "brand": "7-Eleven", "brand:wikidata": "Q259340"}, "geometry": {"type": "Point", "coordinates": [-103.85880768299103, 49.668672871890344]}},
{"type": "Feature", "id": "dOaVm7y1EoXgVFOoXXD7FJN6Kjc=", "properties": {"ref": "26717", "@spider": "seven_eleven_ca", "addr:full": "3355 Dundas St W", "addr:city": "Toronto", "addr:state": "ON", "addr:postcode": "M6S2R8", "addr:country": "CA", "name": "7-Eleven", "phone": "4167633891", "website": "http://7eleven.ca/store-locator/26717", "opening_hours": "24/7", "brand": "7-Eleven", "brand:wikidata": "Q259340"}, "geometry": {"type": "Point", "coordinates": [-79.48235248680646, 43.665251400943625]}},
{"type": "Feature", "id": "P61o2y5HKhLP1wzkb4Erkou5buM=", "properties": {"ref": "26756", "@spider": "seven_eleven_ca", "addr:full": "1863 Henderson Hwy", "addr:city": "Winnipeg", "addr:state": "MB", "addr:postcode": "R3J2G7", "addr:country": "CA", "name": "7-Eleven", "phone": "2049850147", "website": "http://7eleven.ca/store-locator/26756", "opening_hours": "24/7", "brand": "7-Eleven", "brand:wikidata": "Q259340"}, "geometry": {"type": "Point", "coordinates": [-97.0751892, 49.9541674]}},
{"type": "Feature", "id": "6XauSABgjqIe4V7FXp66gvcloZQ=", "properties": {"ref": "26758", "@spider": "seven_eleven_ca", "addr:full": "1291 Hwy 3", "addr:city": "Fernie", "addr:state": "BC", "addr:postcode": "V0B1M0", "addr:country": "CA", "name": "7-Eleven", "phone": "2504237662", "website": "http://7eleven.ca/store-locator/26758", "opening_hours": "24/7", "brand": "7-Eleven", "brand:wikidata": "Q259340"}, "geometry": {"type": "Point", "coordinates": [-115.06031602621078, 49.511452049838674]}},
{"type": "Feature", "id": "dmiyZG_JGnunMdSRKR7jq7gQzOs=", "properties": {"ref": "26773", "@spider": "seven_eleven_ca", "addr:full": "801 Regent Ave", "addr:city": "Winnipeg", "addr:state": "MB", "addr:postcode": "R2C3A7", "addr:country": "CA", "name": "7-Eleven", "phone": "2049850130", "website": "http://7eleven.ca/store-locator/26773", "opening_hours": "24/7", "brand": "7-Eleven", "brand:wikidata": "Q259340"}, "geometry": {"type": "Point", "coordinates": [-97.02669024467474, 49.89563654780149]}},
{"type": "Feature", "id": "UmEe63jeYXi65M641dDUSrPzeBk=", "properties": {"ref": "26792", "@spider": "seven_eleven_ca", "addr:full": "7385 Veddar Rd", "addr:city": "Sardis", "addr:state": "BC", "addr:postcode": "V2R4E6", "addr:country": "CA", "name": "7-Eleven", "phone": "6048587711", "website": "http://7eleven.ca/store-locator/26792", "opening_hours": "24/7", "brand": "7-Eleven", "brand:wikidata": "Q259340"}, "geometry": {"type": "Point", "coordinates": [-121.9595153, 49.1362226]}},
{"type": "Feature", "id": "wdcdEUwSm2o-Mlidg69EnF_4-Rg=", "properties": {"ref": "26892", "@spider": "seven_eleven_ca", "addr:full": "215 15th Street West", "addr:city": "Prince Albert", "addr:state": "SK", "addr:postcode": "S6V3P9", "addr:country": "CA", "name": "7-Eleven", "phone": "3067642101", "website": "http://7eleven.ca/store-locator/26892", "opening_hours": "24/7", "brand": "7-Eleven", "brand:wikidata": "Q259340"}, "geometry": {"type": "Point", "coordinates": [-105.76057325116778, 53.19911942770545]}},
{"type": "Feature", "id": "G3gaYhKYULrQqBYulFhzsSGhj38=", "properties": {"ref": "26940", "@spider": "seven_eleven_ca", "addr:full": "5925 54th Ave", "addr:city": "Red Deer", "addr:state": "AB", "addr:postcode": "T4N4M7", "addr:country": "CA", "name": "7-Eleven", "phone": "4033437111", "website": "http://7eleven.ca/store-locator/26940", "opening_hours": "24/7", "brand": "7-Eleven", "brand:wikidata": "Q259340"}, "geometry": {"type": "Point", "coordinates": [-113.81923109292984, 52.27934061611526]}},
{"type": "Feature", "id": "7AvpacH4LrVVJAhWjy4xtszuJAI=", "properties": {"ref": "26942", "@spider": "seven_eleven_ca", "addr:full": "3 Huron St", "addr:city": "Woodstock", "addr:state": "ON", "addr:postcode": "N4S6Y9", "addr:country": "CA", "name": "7-Eleven", "phone": "5195377977", "website": "http://7eleven.ca/store-locator/26942", "opening_hours": "24/7", "brand": "7-Eleven", "brand:wikidata": "Q259340"}, "geometry": {"type": "Point", "coordinates": [-80.7475946, 43.1317536]}},
{"type": "Feature", "id": "yHBaV0ZeX4ZToGHfsHNsX8uLy2Y=", "properties": {"ref": "27000", "@spider": "seven_eleven_ca", "addr:full": "5001 52nd St", "addr:city": "St. Paul", "addr:state": "AB", "addr:postcode": "T0A3A0", "addr:country": "CA", "name": "7-Eleven", "phone": "7806455139", "website": "http://7eleven.ca/store-locator/27000", "opening_hours": "24/7", "brand": "7-Eleven", "brand:wikidata": "Q259340"}, "geometry": {"type": "Point", "coordinates": [-111.30180895328527, 53.9916940231102]}},
{"type": "Feature", "id": "2foNb9QoK_2250KS0nLdrI0co18=", "properties": {"ref": "27001", "@spider": "seven_eleven_ca", "addr:full": "4819 50th Avenue", "addr:city": "Bonnyville", "addr:state": "AB", "addr:postcode": "T9N1A6", "addr:country": "CA", "name": "7-Eleven", "phone": "7808267814", "website": "http://7eleven.ca/store-locator/27001", "opening_hours": "24/7", "brand": "7-Eleven", "brand:wikidata": "Q259340"}, "geometry": {"type": "Point", "coordinates": [-110.7365724, 54.2682789]}},
{"type": "Feature", "id": "5CqFdu8op2GFy1ZdTaJg-6h1m7E=", "properties": {"ref": "27020", "@spider": "seven_eleven_ca", "addr:full": "913 13th Avenue", "addr:city": "Estevan", "addr:state": "SK", "addr:postcode": "S4A2L9", "addr:country": "CA", "name": "7-Eleven", "phone": "3066347111", "website": "http://7eleven.ca/store-locator/27020", "opening_hours": "24/7", "brand": "7-Eleven", "brand:wikidata": "Q259340"}, "geometry": {"type": "Point", "coordinates": [-102.99187481403351, 49.14615908599197]}},
{"type": "Feature", "id": "AMDfK4JSd1fbJAs5LVMLDkazU4o=", "properties": {"ref": "27024", "@spider": "seven_eleven_ca", "addr:full": "964 8th Street", "addr:city": "Kamloops", "addr:state": "BC", "addr:postcode": "V2B2X8", "addr:country": "CA", "name": "7-Eleven", "phone": "2503760711", "website": "http://7eleven.ca/store-locator/27024", "opening_hours": "24/7", "brand": "7-Eleven", "brand:wikidata": "Q259340"}, "geometry": {"type": "Point", "coordinates": [-120.3631773591041, 50.70359114332114]}},
{"type": "Feature", "id": "7XmSVdD1imwguc4cB6sGZScUKm8=", "properties": {"ref": "27029", "@spider": "seven_eleven_ca", "addr:full": "112 Broadway Street W.", "addr:city": "Yorkton", "addr:state": "SK", "addr:postcode": "S3N0M2", "addr:country": "CA", "name": "7-Eleven", "phone": "3067823050", "website": "http://7eleven.ca/store-locator/27029", "opening_hours": "24/7", "brand": "7-Eleven", "brand:wikidata": "Q259340"}, "geometry": {"type": "Point", "coordinates": [-102.46994563940461, 51.20972189185149]}},
{"type": "Feature", "id": "xsIROp9PYOMDHo6URkgjXzvPl5E=", "properties": {"ref": "27051", "@spider": "seven_eleven_ca", "addr:full": "3695 W 10th Ave", "addr:city": "Vancouver", "addr:state": "BC", "addr:postcode": "V6R2G2", "addr:country": "CA", "name": "7-Eleven", "phone": "6047314181", "website": "http://7eleven.ca/store-locator/27051", "opening_hours": "24/7", "brand": "7-Eleven", "brand:wikidata": "Q259340"}, "geometry": {"type": "Point", "coordinates": [-123.1856434, 49.2638498]}},
{"type": "Feature", "id": "FYacz_KrzGstHFXCBL1Jonwz70E=", "properties": {"ref": "27052", "@spider": "seven_eleven_ca", "addr:full": "8360 Granville Ave", "addr:city": "Richmond", "addr:state": "BC", "addr:postcode": "V6Y1P3", "addr:country": "CA", "name": "7-Eleven", "phone": "6042700808", "website": "http://7eleven.ca/store-locator/27052", "opening_hours": "24/7", "brand": "7-Eleven", "brand:wikidata": "Q259340"}, "geometry": {"type": "Point", "coordinates": [-123.1317613, 49.1624204]}},
{"type": "Feature", "id": "3K5wncHE2JR5Bxv9fC_e-dfimys=", "properties": {"ref": "27086", "@spider": "seven_eleven_ca", "addr:full": "4934 Johnston Rd", "addr:city": "Port Alberni", "addr:state": "BC", "addr:postcode": "V9Y5L9", "addr:country": "CA", "name": "7-Eleven", "phone": "2507244457", "website": "http://7eleven.ca/store-locator/27086", "opening_hours": "24/7", "brand": "7-Eleven", "brand:wikidata": "Q259340"}, "geometry": {"type": "Point", "coordinates": [-124.81117711240586, 49.257961132983716]}},
{"type": "Feature", "id": "6nH0rdZQFZlsB7M_3FDxaUnZ0iA=", "properties": {"ref": "27128", "@spider": "seven_eleven_ca", "addr:full": "9471 #2 Road", "addr:city": "Richmond", "addr:state": "BC", "addr:postcode": "V7E2E2", "addr:country": "CA", "name": "7-Eleven", "phone": "6042714460", "website": "http://7eleven.ca/store-locator/27128", "opening_hours": "24/7", "brand": "7-Eleven", "brand:wikidata": "Q259340"}, "geometry": {"type": "Point", "coordinates": [-123.15941110253334, 49.14434224945344]}},
{"type": "Feature", "id": "er8QvOeXT4bvGp4_4O3vG99QOec=", "properties": {"ref": "27203", "@spider": "seven_eleven_ca", "addr:full": "772 Main St", "addr:city": "Pincher Creek", "addr:state": "AB", "addr:postcode": "T0K1W0", "addr:country": "CA", "name": "7-Eleven", "phone": "4036272445", "website": "http://7eleven.ca/store-locator/27203", "opening_hours": "24/7", "brand": "7-Eleven", "brand:wikidata": "Q259340"}, "geometry": {"type": "Point", "coordinates": [-113.94653597477372, 49.485273417335506]}},
{"type": "Feature", "id": "fN7M-Tfy6FoZRwPOb81SJi9drHc=", "properties": {"ref": "27214", "@spider": "seven_eleven_ca", "addr:full": "9032 50th Street", "addr:city": "Edmonton", "addr:state": "AB", "addr:postcode": "T6B2Z5", "addr:country": "CA", "name": "7-Eleven", "phone": "7804655321", "website": "http://7eleven.ca/store-locator/27214", "opening_hours": "24/7", "brand": "7-Eleven", "brand:wikidata": "Q259340"}, "geometry": {"type": "Point", "coordinates": [-113.41924600303173, 53.52248917574114]}},
{"type": "Feature", "id": "2L-7yBkxzBEbinvvbcplSWm93fM=", "properties": {"ref": "27270", "@spider": "seven_eleven_ca", "addr:full": "2016 South Island Hwy", "addr:city": "Campbell River", "addr:state": "BC", "addr:postcode": "V9W1C1", "addr:country": "CA", "name": "7-Eleven", "phone": "2509232515", "website": "http://7eleven.ca/store-locator/27270", "opening_hours": "24/7", "brand": "7-Eleven", "brand:wikidata": "Q259340"}, "geometry": {"type": "Point", "coordinates": [-125.2197669, 49.9727436]}},
{"type": "Feature", "id": "KFpnbJcuPWpxacKAb5HjEAXqFbw=", "properties": {"ref": "27345", "@spider": "seven_eleven_ca", "addr:full": "720 South Service Rd E", "addr:city": "Swift Current", "addr:state": "SK", "addr:postcode": "S9H3X6", "addr:country": "CA", "name": "7-Eleven", "phone": "3067733711", "website": "http://7eleven.ca/store-locator/27345", "opening_hours": "24/7", "brand": "7-Eleven", "brand:wikidata": "Q259340"}, "geometry": {"type": "Point", "coordinates": [-107.790244, 50.299462]}},
{"type": "Feature", "id": "Q4MCfSZabIUx60_dhm_9T8gJFyg=", "properties": {"ref": "27349", "@spider": "seven_eleven_ca", "addr:full": "8317 20 Avenue", "addr:city": "Coleman", "addr:state": "AB", "addr:postcode": "T0K0M0", "addr:country": "CA", "name": "7-Eleven", "phone": "4035635233", "website": "http://7eleven.ca/store-locator/27349", "opening_hours": "24/7", "brand": "7-Eleven", "brand:wikidata": "Q259340"}, "geometry": {"type": "Point", "coordinates": [-114.49455499649048, 49.636731444780104]}},
{"type": "Feature", "id": "aHE54luRffoAZyrG8nM7IYnWO74=", "properties": {"ref": "27517", "@spider": "seven_eleven_ca", "addr:full": "212 Government St", "addr:city": "Dryden", "addr:state": "ON", "addr:postcode": "P8N2R1", "addr:country": "CA", "name": "7-Eleven", "phone": "8072236048", "website": "http://7eleven.ca/store-locator/27517", "opening_hours": "24/7", "brand": "7-Eleven", "brand:wikidata": "Q259340"}, "geometry": {"type": "Point", "coordinates": [-92.8436232637614, 49.78641638084487]}},
{"type": "Feature", "id": "qYQmjSOsTZnYY95HjCA_Twsayng=", "properties": {"ref": "27594", "@spider": "seven_eleven_ca", "addr:full": "9724 Hwy 97 N", "addr:city": "Winfield", "addr:state": "BC", "addr:postcode": "V4V1T6", "addr:country": "CA", "name": "7-Eleven", "phone": "2507662777", "website": "http://7eleven.ca/store-locator/27594", "opening_hours": "24/7", "brand": "7-Eleven", "brand:wikidata": "Q259340"}, "geometry": {"type": "Point", "coordinates": [-119.40659701824183, 50.02318017581134]}},
{"type": "Feature", "id": "obVcfx6VO2BQG1JLqDvgTLkEkgs=", "properties": {"ref": "27608", "@spider": "seven_eleven_ca", "addr:full": "366 Christina St N", "addr:city": "Sarnia", "addr:state": "ON", "addr:postcode": "N7T5V7", "addr:country": "CA", "name": "7-Eleven", "phone": "5193378988", "website": "http://7eleven.ca/store-locator/27608", "opening_hours": "24/7", "brand": "7-Eleven", "brand:wikidata": "Q259340"}, "geometry": {"type": "Point", "coordinates": [-82.40359246730804, 42.978437926121316]}},
{"type": "Feature", "id": "gNikM25pi6cmfZNPPRpADg93t4E=", "properties": {"ref": "27619", "@spider": "seven_eleven_ca", "addr:full": "5206 4th Ave", "addr:city": "Edson", "addr:state": "AB", "addr:postcode": "T7E1L4", "addr:country": "CA", "name": "7-Eleven", "phone": "7807237511", "website": "http://7eleven.ca/store-locator/27619", "opening_hours": "24/7", "brand": "7-Eleven", "brand:wikidata": "Q259340"}, "geometry": {"type": "Point", "coordinates": [-116.43752122297883, 53.58204555856056]}},
{"type": "Feature", "id": "vjtrb7I7mdsTCbm4s6-k4U2RRVw=", "properties": {"ref": "27637", "@spider": "seven_eleven_ca", "addr:full": "3627 50th Ave", "addr:city": "Lloydminster", "addr:state": "SK", "addr:postcode": "S9V0N9", "addr:country": "CA", "name": "7-Eleven", "phone": "3068257711", "website": "http://7eleven.ca/store-locator/27637", "opening_hours": "24/7", "brand": "7-Eleven", "brand:wikidata": "Q259340"}, "geometry": {"type": "Point", "coordinates": [-110.00463098287577, 53.270304552347625]}},
{"type": "Feature", "id": "xXQH1QGga9vUixlzMfuqdBcFJWs=", "properties": {"ref": "27677", "@spider": "seven_eleven_ca", "addr:full": "109 Main St S", "addr:city": "Dauphin", "addr:state": "MB", "addr:postcode": "R7N1K4", "addr:country": "CA", "name": "7-Eleven", "phone": "2046223770", "website": "http://7eleven.ca/store-locator/27677", "opening_hours": "24/7", "brand": "7-Eleven", "brand:wikidata": "Q259340"}, "geometry": {"type": "Point", "coordinates": [-100.05154341459274, 51.14873910054252]}},
{"type": "Feature", "id": "OJD7XiFsqqxptH36y1Dv21chFGU=", "properties": {"ref": "27684", "@spider": "seven_eleven_ca", "addr:full": "341 Kirkness Road", "addr:city": "Edmonton", "addr:state": "AB", "addr:postcode": "T5Y2J3", "addr:country": "CA", "name": "7-Eleven", "phone": "7804785197", "website": "http://7eleven.ca/store-locator/27684", "opening_hours": "24/7", "brand": "7-Eleven", "brand:wikidata": "Q259340"}, "geometry": {"type": "Point", "coordinates": [-113.39517812243571, 53.607267737737175]}},
{"type": "Feature", "id": "Av2fpeek8TNJhz0AvRDqIltqIQM=", "properties": {"ref": "27737", "@spider": "seven_eleven_ca", "addr:full": "1076 Commissioners Rd E", "addr:city": "London", "addr:state": "ON", "addr:postcode": "N5Z4T4", "addr:country": "CA", "name": "7-Eleven", "phone": "5196861210", "website": "http://7eleven.ca/store-locator/27737", "opening_hours": "24/7", "brand": "7-Eleven", "brand:wikidata": "Q259340"}, "geometry": {"type": "Point", "coordinates": [-81.2012480199337, 42.96191189136778]}},
{"type": "Feature", "id": "1QX5JKlaKYLMf-hWDZhMstkubYU=", "properties": {"ref": "27861", "@spider": "seven_eleven_ca", "addr:full": "327 Erie St", "addr:city": "Stratford", "addr:state": "ON", "addr:postcode": "N5A2N1", "addr:country": "CA", "name": "7-Eleven", "phone": "5192710862", "website": "http://7eleven.ca/store-locator/27861", "opening_hours": "24/7", "brand": "7-Eleven", "brand:wikidata": "Q259340"}, "geometry": {"type": "Point", "coordinates": [-80.98856250755489, 43.363985143342845]}},
{"type": "Feature", "id": "GwKRT5lf8JQ_xYhk1iWwf7zQxwQ=", "properties": {"ref": "27862", "@spider": "seven_eleven_ca", "addr:full": "10 Grand Ave W", "addr:city": "Chatham", "addr:state": "ON", "addr:postcode": "N7L1B5", "addr:country": "CA", "name": "7-Eleven", "phone": "5193549050", "website": "http://7eleven.ca/store-locator/27862", "opening_hours": "24/7", "brand": "7-Eleven", "brand:wikidata": "Q259340"}, "geometry": {"type": "Point", "coordinates": [-82.1911737, 42.4074579]}},
{"type": "Feature", "id": "g7stsJi5B-rVHJf0s6Z-662o7iI=", "properties": {"ref": "27874", "@spider": "seven_eleven_ca", "addr:full": "1588 20th Ave", "addr:city": "Prince George", "addr:state": "BC", "addr:postcode": "V2L4B5", "addr:country": "CA", "name": "7-Eleven", "phone": "2505647119", "website": "http://7eleven.ca/store-locator/27874", "opening_hours": "Mo-Su 05:00-00:00", "brand": "7-Eleven", "brand:wikidata": "Q259340"}, "geometry": {"type": "Point", "coordinates": [-122.75720179080963, 53.90573501529909]}},
{"type": "Feature", "id": "RJZkWN2lX43dDHUmeOcA_s3zN14=", "properties": {"ref": "27908", "@spider": "seven_eleven_ca", "addr:full": "6408 Old Banff Coach Rd SW", "addr:city": "Calgary", "addr:state": "AB", "addr:postcode": "T3H2H3", "addr:country": "CA", "name": "7-Eleven", "phone": "4032492526", "website": "http://7eleven.ca/store-locator/27908", "opening_hours": "24/7", "brand": "7-Eleven", "brand:wikidata": "Q259340"}, "geometry": {"type": "Point", "coordinates": [-114.1794363, 51.0608923]}},
{"type": "Feature", "id": "MongItcp0f1qMDVb_C_wcYlQ3hU=", "properties": {"ref": "27983", "@spider": "seven_eleven_ca", "addr:full": "340 6th St", "addr:city": "New Westminster", "addr:state": "BC", "addr:postcode": "V3L3A8", "addr:country": "CA", "name": "7-Eleven", "phone": "6045255567", "website": "http://7eleven.ca/store-locator/27983", "opening_hours": "24/7", "brand": "7-Eleven", "brand:wikidata": "Q259340"}, "geometry": {"type": "Point", "coordinates": [-122.9168789, 49.2098967]}},
{"type": "Feature", "id": "0QOJE8tjGKfCWjV0q4JgCZ97dDI=", "properties": {"ref": "27985", "@spider": "seven_eleven_ca", "addr:full": "110 Swanson Drive", "addr:city": "Hinton", "addr:state": "AB", "addr:postcode": "T7V1H1", "addr:country": "CA", "name": "7-Eleven", "phone": "7808657116", "website": "http://7eleven.ca/store-locator/27985", "opening_hours": "24/7", "brand": "7-Eleven", "brand:wikidata": "Q259340"}, "geometry": {"type": "Point", "coordinates": [-117.5606928, 53.4161995]}},
{"type": "Feature", "id": "LZI2JPgK6IKxzvtzQRfAUnKGltU=", "properties": {"ref": "29079", "@spider": "seven_eleven_ca", "addr:full": "1704 Mill Woods Rd NW", "addr:city": "Edmonton", "addr:state": "AB", "addr:postcode": "T6K4E5", "addr:country": "CA", "name": "7-Eleven", "phone": "7804508075", "website": "http://7eleven.ca/store-locator/29079", "opening_hours": "24/7", "brand": "7-Eleven", "brand:wikidata": "Q259340"}, "geometry": {"type": "Point", "coordinates": [-113.45220565795898, 53.44653691930231]}},
{"type": "Feature", "id": "m0uhKD45WnyqXuRKNr3CsXH-C8E=", "properties": {"ref": "29092", "@spider": "seven_eleven_ca", "addr:full": "328 Speedvale Ave E", "addr:city": "Guelph", "addr:state": "ON", "addr:postcode": "N1E1N5", "addr:country": "CA", "name": "7-Eleven", "phone": "5198363746", "website": "http://7eleven.ca/store-locator/29092", "opening_hours": "24/7", "brand": "7-Eleven", "brand:wikidata": "Q259340"}, "geometry": {"type": "Point", "coordinates": [-80.2581014, 43.5667033]}},
{"type": "Feature", "id": "1WuaPASdivM70ejEcqv6yl4tsdc=", "properties": {"ref": "29114", "@spider": "seven_eleven_ca", "addr:full": "17 Claremont St", "addr:city": "Thorold", "addr:state": "ON", "addr:postcode": "L2V1R2", "addr:country": "CA", "name": "7-Eleven", "phone": "9052278311", "website": "http://7eleven.ca/store-locator/29114", "opening_hours": "24/7", "brand": "7-Eleven", "brand:wikidata": "Q259340"}, "geometry": {"type": "Point", "coordinates": [-79.1994658112526, 43.12331258331648]}},
{"type": "Feature", "id": "lOe-KhzdvVYzmBEXGVSv290i06A=", "properties": {"ref": "29130", "@spider": "seven_eleven_ca", "addr:full": "415 Melvin Ave", "addr:city": "Hamilton", "addr:state": "ON", "addr:postcode": "L8H2L4", "addr:country": "CA", "name": "7-Eleven", "phone": "9055472422", "website": "http://7eleven.ca/store-locator/29130", "opening_hours": "24/7", "brand": "7-Eleven", "brand:wikidata": "Q259340"}, "geometry": {"type": "Point", "coordinates": [-79.7790023, 43.2414843]}},
{"type": "Feature", "id": "Pn9gFv68h5lVLhbHkc4_LwWg3yA=", "properties": {"ref": "29146", "@spider": "seven_eleven_ca", "addr:full": "111 Clarence St W", "addr:city": "Port Colborne", "addr:state": "ON", "addr:postcode": "L3K3G2", "addr:country": "CA", "name": "7-Eleven", "phone": "9058355156", "website": "http://7eleven.ca/store-locator/29146", "opening_hours": "24/7", "brand": "7-Eleven", "brand:wikidata": "Q259340"}, "geometry": {"type": "Point", "coordinates": [-79.25439746693883, 42.886496513052435]}},
{"type": "Feature", "id": "CcNQkOeYZHuqOGqy47HeXt74J2g=", "properties": {"ref": "29208", "@spider": "seven_eleven_ca", "addr:full": "38471 Cleveland Ave", "addr:city": "Squamish", "addr:state": "BC", "addr:postcode": "V8B0E4", "addr:country": "CA", "name": "7-Eleven", "phone": "6048929286", "website": "http://7eleven.ca/store-locator/29208", "opening_hours": "24/7", "brand": "7-Eleven", "brand:wikidata": "Q259340"}, "geometry": {"type": "Point", "coordinates": [-123.14634631387378, 49.70508466754071]}},
{"type": "Feature", "id": "WUsTNxo13gMfmwJGBikvwxZYYy0=", "properties": {"ref": "29242", "@spider": "seven_eleven_ca", "addr:full": "301 11th Ave East", "addr:city": "Kindersley", "addr:state": "SK", "addr:postcode": "S0L1S0", "addr:country": "CA", "name": "7-Eleven", "phone": "3064636480", "website": "http://7eleven.ca/store-locator/29242", "opening_hours": "24/7", "brand": "7-Eleven", "brand:wikidata": "Q259340"}, "geometry": {"type": "Point", "coordinates": [-109.15571342255134, 51.47429330638974]}},
{"type": "Feature", "id": "zRsX3lRDH-_7qb-q464kqRaX3IE=", "properties": {"ref": "29274", "@spider": "seven_eleven_ca", "addr:full": "72 Wharncliffe Rd N", "addr:city": "London", "addr:state": "ON", "addr:postcode": "N6H2A3", "addr:country": "CA", "name": "7-Eleven", "phone": "5194333025", "website": "http://7eleven.ca/store-locator/29274", "opening_hours": "24/7", "brand": "7-Eleven", "brand:wikidata": "Q259340"}, "geometry": {"type": "Point", "coordinates": [-81.26327624078328, 42.984233472274425]}},
{"type": "Feature", "id": "1KJZ13H0Kt100O-4YHXRGTIdBds=", "properties": {"ref": "29322", "@spider": "seven_eleven_ca", "addr:full": "14634 50th Street", "addr:city": "Edmonton", "addr:state": "AB", "addr:postcode": "T5A4W9", "addr:country": "CA", "name": "7-Eleven", "phone": "7804756076", "website": "http://7eleven.ca/store-locator/29322", "opening_hours": "24/7", "brand": "7-Eleven", "brand:wikidata": "Q259340"}, "geometry": {"type": "Point", "coordinates": [-113.41790248455254, 53.60930631306348]}},
{"type": "Feature", "id": "fy4vckyQxnPAC4qbCL67J4wl12M=", "properties": {"ref": "29359", "@spider": "seven_eleven_ca", "addr:full": "5124 Tecumseh Rd E", "addr:city": "Windsor", "addr:state": "ON", "addr:postcode": "N8T1C1", "addr:country": "CA", "name": "7-Eleven", "phone": "5199453085", "website": "http://7eleven.ca/store-locator/29359", "opening_hours": "24/7", "brand": "7-Eleven", "brand:wikidata": "Q259340"}, "geometry": {"type": "Point", "coordinates": [-82.96383887529373, 42.30854593989868]}},
{"type": "Feature", "id": "49WlDz4q8syUuJC9wFY890WmugE=", "properties": {"ref": "29401", "@spider": "seven_eleven_ca", "addr:full": "21243 Lougheed Hwy", "addr:city": "Maple Ridge", "addr:state": "BC", "addr:postcode": "V2X2R4", "addr:country": "CA", "name": "7-Eleven", "phone": "6044679992", "website": "http://7eleven.ca/store-locator/29401", "opening_hours": "24/7", "brand": "7-Eleven", "brand:wikidata": "Q259340"}, "geometry": {"type": "Point", "coordinates": [-122.63243292922994, 49.21751657839144]}},
{"type": "Feature", "id": "jDA1490hcv08cwKxfH51miaq170=", "properties": {"ref": "29413", "@spider": "seven_eleven_ca", "addr:full": "197 Carry Dr SE", "addr:city": "Medicine Hat", "addr:state": "AB", "addr:postcode": "T1B3T2", "addr:country": "CA", "name": "7-Eleven", "phone": "4035273500", "website": "http://7eleven.ca/store-locator/29413", "opening_hours": "24/7", "brand": "7-Eleven", "brand:wikidata": "Q259340"}, "geometry": {"type": "Point", "coordinates": [-110.63723425380886, 50.01031444985172]}},
{"type": "Feature", "id": "xFMuGvnb4AyW7UiT4wusIVb1BP0=", "properties": {"ref": "29433", "@spider": "seven_eleven_ca", "addr:full": "2417 4 St NW", "addr:city": "Calgary", "addr:state": "AB", "addr:postcode": "T2M2Z8", "addr:country": "CA", "name": "7-Eleven", "phone": "4032899845", "website": "http://7eleven.ca/store-locator/29433", "opening_hours": "24/7", "brand": "7-Eleven", "brand:wikidata": "Q259340"}, "geometry": {"type": "Point", "coordinates": [-114.0720589, 51.0739332]}},
{"type": "Feature", "id": "PopAcRwE6AWI62TKyMFB9YBrRhc=", "properties": {"ref": "29435", "@spider": "seven_eleven_ca", "addr:full": "410 9th Ave N", "addr:city": "Golden", "addr:state": "BC", "addr:postcode": "V0A1H0", "addr:country": "CA", "name": "7-Eleven", "phone": "2503447242", "website": "http://7eleven.ca/store-locator/29435", "opening_hours": "24/7", "brand": "7-Eleven", "brand:wikidata": "Q259340"}, "geometry": {"type": "Point", "coordinates": [-116.9653308391571, 51.29987683242476]}},
{"type": "Feature", "id": "cvfUumtS7N0VoM_iZmC5jKgY4Uk=", "properties": {"ref": "29516", "@spider": "seven_eleven_ca", "addr:full": "2370 Burrard Ave", "addr:city": "Vanderhoof", "addr:state": "BC", "addr:postcode": "V0J3A0", "addr:country": "CA", "name": "7-Eleven", "phone": "2505679339", "website": "http://7eleven.ca/store-locator/29516", "opening_hours": "24/7", "brand": "7-Eleven", "brand:wikidata": "Q259340"}, "geometry": {"type": "Point", "coordinates": [-124.0084899, 54.0155438]}},
{"type": "Feature", "id": "6S-D3haDEXsyJY0KyfJbpIfLJoI=", "properties": {"ref": "29547", "@spider": "seven_eleven_ca", "addr:full": "618 10th Street", "addr:city": "Wainwright", "addr:state": "AB", "addr:postcode": "T9W1E2", "addr:country": "CA", "name": "7-Eleven", "phone": "7808422551", "website": "http://7eleven.ca/store-locator/29547", "opening_hours": "24/7", "brand": "7-Eleven", "brand:wikidata": "Q259340"}, "geometry": {"type": "Point", "coordinates": [-110.85727572441101, 52.837575297662106]}},
{"type": "Feature", "id": "u2NF7O54wEb1eto1jgUYvel1iZg=", "properties": {"ref": "29589", "@spider": "seven_eleven_ca", "addr:full": "5723 48th Ave", "addr:city": "Ladner", "addr:state": "BC", "addr:postcode": "V4K1X5", "addr:country": "CA", "name": "7-Eleven", "phone": "6049465634", "website": "http://7eleven.ca/store-locator/29589", "opening_hours": "24/7", "brand": "7-Eleven", "brand:wikidata": "Q259340"}, "geometry": {"type": "Point", "coordinates": [-123.06452661752695, 49.09062733728384]}},
{"type": "Feature", "id": "MTA-GGaTnQcJEgz2HSwcZhIzB9E=", "properties": {"ref": "29591", "@spider": "seven_eleven_ca", "addr:full": "105 Cariboo Hwy 97 South", "addr:city": "100 Mile House", "addr:state": "BC", "addr:postcode": "V0K2E0", "addr:country": "CA", "name": "7-Eleven", "phone": "2503955171", "website": "http://7eleven.ca/store-locator/29591", "opening_hours": "24/7", "brand": "7-Eleven", "brand:wikidata": "Q259340"}, "geometry": {"type": "Point", "coordinates": [-121.29568103693214, 51.646162960325825]}},
{"type": "Feature", "id": "-r_5hlXBBDO7Z_jDefn9iiUXWZQ=", "properties": {"ref": "29593", "@spider": "seven_eleven_ca", "addr:full": "502 St. Albert Road", "addr:city": "St Albert", "addr:state": "AB", "addr:postcode": "T8N5Z1", "addr:country": "CA", "name": "7-Eleven", "phone": "7804602208", "website": "http://7eleven.ca/store-locator/29593", "opening_hours": "24/7", "brand": "7-Eleven", "brand:wikidata": "Q259340"}, "geometry": {"type": "Point", "coordinates": [-113.6285267062886, 53.64838241729609]}},
{"type": "Feature", "id": "AbDMKIAxyXJ-5jBksBnEhkFr75s=", "properties": {"ref": "29595", "@spider": "seven_eleven_ca", "addr:full": "5302 Highway 2A", "addr:city": "Ponoka", "addr:state": "AB", "addr:postcode": "T4J1L9", "addr:country": "CA", "name": "7-Eleven", "phone": "4037832770", "website": "http://7eleven.ca/store-locator/29595", "opening_hours": "24/7", "brand": "7-Eleven", "brand:wikidata": "Q259340"}, "geometry": {"type": "Point", "coordinates": [-113.5830957, 52.6813496]}},
{"type": "Feature", "id": "dYC132A-q_qcQMwC0DhcsTgoLy4=", "properties": {"ref": "29596", "@spider": "seven_eleven_ca", "addr:full": "4913 50th Ave", "addr:city": "Drayton Valley", "addr:state": "AB", "addr:postcode": "T7A1J5", "addr:country": "CA", "name": "7-Eleven", "phone": "7805427774", "website": "http://7eleven.ca/store-locator/29596", "opening_hours": "24/7", "brand": "7-Eleven", "brand:wikidata": "Q259340"}, "geometry": {"type": "Point", "coordinates": [-114.976183, 53.2211634]}},
{"type": "Feature", "id": "sKdWS_cqw1MtfoJjWy3BRkodPNs=", "properties": {"ref": "29607", "@spider": "seven_eleven_ca", "addr:full": "6082 Main St", "addr:city": "Oliver", "addr:state": "BC", "addr:postcode": "V0H1T0", "addr:country": "CA", "name": "7-Eleven", "phone": "2504983838", "website": "http://7eleven.ca/store-locator/29607", "opening_hours": "24/7", "brand": "7-Eleven", "brand:wikidata": "Q259340"}, "geometry": {"type": "Point", "coordinates": [-119.55096155405045, 49.181748972417864]}},
{"type": "Feature", "id": "lFFEnjuDlE_wNqBHNG3rfDxiBJ4=", "properties": {"ref": "29608", "@spider": "seven_eleven_ca", "addr:full": "320 Proctor Street", "addr:city": "Williams Lake", "addr:state": "BC", "addr:postcode": "V2G4P6", "addr:country": "CA", "name": "7-Eleven", "phone": "2503922711", "website": "http://7eleven.ca/store-locator/29608", "opening_hours": "24/7", "brand": "7-Eleven", "brand:wikidata": "Q259340"}, "geometry": {"type": "Point", "coordinates": [-122.14265406131744, 52.132220291667565]}},
{"type": "Feature", "id": "O1-XQwvs4pJvLi07ynWhq9r8iGU=", "properties": {"ref": "29617", "@spider": "seven_eleven_ca", "addr:full": "3027 Immel St.", "addr:city": "Abbotsford", "addr:state": "BC", "addr:postcode": "V2S4L3", "addr:country": "CA", "name": "7-Eleven", "phone": "6048500977", "website": "http://7eleven.ca/store-locator/29617", "opening_hours": "24/7", "brand": "7-Eleven", "brand:wikidata": "Q259340"}, "geometry": {"type": "Point", "coordinates": [-122.2722055, 49.05671]}},
{"type": "Feature", "id": "jR8gWT32U_RORP0ZHtijXZuTMMY=", "properties": {"ref": "29740", "@spider": "seven_eleven_ca", "addr:full": "1702 23 St N", "addr:city": "Lethbridge", "addr:state": "AB", "addr:postcode": "T1H5B3", "addr:country": "CA", "name": "7-Eleven", "phone": "4033286177", "website": "http://7eleven.ca/store-locator/29740", "opening_hours": "24/7", "brand": "7-Eleven", "brand:wikidata": "Q259340"}, "geometry": {"type": "Point", "coordinates": [-112.81099836342037, 49.719920544960516]}},
{"type": "Feature", "id": "_BBuKP-Mhgxc5r-tYsNJU4m1Jqw=", "properties": {"ref": "29761", "@spider": "seven_eleven_ca", "addr:full": "4001 Macleod Trail SW", "addr:city": "Calgary", "addr:state": "AB", "addr:postcode": "T2G2R6", "addr:country": "CA", "name": "7-Eleven", "phone": "4032430228", "website": "http://7eleven.ca/store-locator/29761", "opening_hours": "24/7", "brand": "7-Eleven", "brand:wikidata": "Q259340"}, "geometry": {"type": "Point", "coordinates": [-114.0632308, 51.0185197]}},
{"type": "Feature", "id": "hLMrWhaHIneZ3yz9VflFvmdv5_Y=", "properties": {"ref": "29781", "@spider": "seven_eleven_ca", "addr:full": "5103 50th Ave", "addr:city": "Whitecourt", "addr:state": "AB", "addr:postcode": "T7S1S8", "addr:country": "CA", "name": "7-Eleven", "phone": "7807784691", "website": "http://7eleven.ca/store-locator/29781", "opening_hours": "24/7", "brand": "7-Eleven", "brand:wikidata": "Q259340"}, "geometry": {"type": "Point", "coordinates": [-115.6881872, 54.140191]}},
{"type": "Feature", "id": "szvGQRYsPIpg3UMNIiEZht28Fxo=", "properties": {"ref": "29783", "@spider": "seven_eleven_ca", "addr:full": "125 Hwy 33 East", "addr:city": "Kelowna", "addr:state": "BC", "addr:postcode": "V1X2A1", "addr:country": "CA", "name": "7-Eleven", "phone": "2507652477", "website": "http://7eleven.ca/store-locator/29783", "opening_hours": "24/7", "brand": "7-Eleven", "brand:wikidata": "Q259340"}, "geometry": {"type": "Point", "coordinates": [-119.38599388115108, 49.888602165017126]}},
{"type": "Feature", "id": "Loz7cnUuaBG7fLZOLvTRQ3Hs3fg=", "properties": {"ref": "29797", "@spider": "seven_eleven_ca", "addr:full": "100 6th Ave SW", "addr:city": "Slave Lake", "addr:state": "AB", "addr:postcode": "T0G2A4", "addr:country": "CA", "name": "7-Eleven", "phone": "7808492811", "website": "http://7eleven.ca/store-locator/29797", "opening_hours": "24/7", "brand": "7-Eleven", "brand:wikidata": "Q259340"}, "geometry": {"type": "Point", "coordinates": [-114.7730165719986, 55.27933528457874]}},
{"type": "Feature", "id": "-zcUAW_DEOxMz6bXi8-TwERVBB8=", "properties": {"ref": "29901", "@spider": "seven_eleven_ca", "addr:full": "740 Main Street", "addr:city": "Humboldt", "addr:state": "SK", "addr:postcode": "S0K2A0", "addr:country": "CA", "name": "7-Eleven", "phone": "3066825711", "website": "http://7eleven.ca/store-locator/29901", "opening_hours": "24/7", "brand": "7-Eleven", "brand:wikidata": "Q259340"}, "geometry": {"type": "Point", "coordinates": [-105.12230515480042, 52.201601964605445]}},
{"type": "Feature", "id": "7N8cxMt-9xq4TtiUPjQ92HAgTg4=", "properties": {"ref": "29903", "@spider": "seven_eleven_ca", "addr:full": "3968 Lakeshore Rd", "addr:city": "Kelowna", "addr:state": "BC", "addr:postcode": "V1W1V5", "addr:country": "CA", "name": "7-Eleven", "phone": "2507647588", "website": "http://7eleven.ca/store-locator/29903", "opening_hours": "24/7", "brand": "7-Eleven", "brand:wikidata": "Q259340"}, "geometry": {"type": "Point", "coordinates": [-119.48905428405595, 49.840715672159476]}},
{"type": "Feature", "id": "TtUIluQpYwNiw-XFn6dzX_E1lbY=", "properties": {"ref": "29904", "@spider": "seven_eleven_ca", "addr:full": "14404 Rosedale Ave", "addr:city": "Summerland", "addr:state": "BC", "addr:postcode": "V0H1Z0", "addr:country": "CA", "name": "7-Eleven", "phone": "2504947117", "website": "http://7eleven.ca/store-locator/29904", "opening_hours": "24/7", "brand": "7-Eleven", "brand:wikidata": "Q259340"}, "geometry": {"type": "Point", "coordinates": [-119.67824389691884, 49.60707742351593]}},
{"type": "Feature", "id": "EcBCab219qyBLS9rQTR0ZnNa0_s=", "properties": {"ref": "29907", "@spider": "seven_eleven_ca", "addr:full": "32081 Lougheed Hwy", "addr:city": "Mission", "addr:state": "BC", "addr:postcode": "V2V1A3", "addr:country": "CA", "name": "7-Eleven", "phone": "6048266705", "website": "http://7eleven.ca/store-locator/29907", "opening_hours": "24/7", "brand": "7-Eleven", "brand:wikidata": "Q259340"}, "geometry": {"type": "Point", "coordinates": [-122.3368794723873, 49.133418341207594]}},
{"type": "Feature", "id": "PPvxHvo5XEbSTm6zK7c01BfSZg8=", "properties": {"ref": "29916", "@spider": "seven_eleven_ca", "addr:full": "2903 Skaha Lake Road", "addr:city": "Penticton", "addr:state": "BC", "addr:postcode": "V2A6G3", "addr:country": "CA", "name": "7-Eleven", "phone": "2504922502", "website": "http://7eleven.ca/store-locator/29916", "opening_hours": "24/7", "brand": "7-Eleven", "brand:wikidata": "Q259340"}, "geometry": {"type": "Point", "coordinates": [-119.5886493, 49.4629852]}},
{"type": "Feature", "id": "tnAr7EgKsXBXwSWGrK9fg_A-v0Q=", "properties": {"ref": "29917", "@spider": "seven_eleven_ca", "addr:full": "40 Brandt Street", "addr:city": "Steinbach", "addr:state": "MB", "addr:postcode": "R5G0T3", "addr:country": "CA", "name": "7-Eleven", "phone": "2043261329", "website": "http://7eleven.ca/store-locator/29917", "opening_hours": "24/7", "brand": "7-Eleven", "brand:wikidata": "Q259340"}, "geometry": {"type": "Point", "coordinates": [-96.6920521, 49.5288964]}},
{"type": "Feature", "id": "RefBzOiKqN_pN5UUNHqO5MTdSJE=", "properties": {"ref": "29919", "@spider": "seven_eleven_ca", "addr:full": "1435 Idylwyld Dr N", "addr:city": "Saskatoon", "addr:state": "SK", "addr:postcode": "S7L1A7", "addr:country": "CA", "name": "7-Eleven", "phone": "3069756648", "website": "http://7eleven.ca/store-locator/29919", "opening_hours": "24/7", "brand": "7-Eleven", "brand:wikidata": "Q259340"}, "geometry": {"type": "Point", "coordinates": [-106.670792, 52.1481339]}},
{"type": "Feature", "id": "0sQCoKgquTnow_DVehmkpSASuFo=", "properties": {"ref": "29924", "@spider": "seven_eleven_ca", "addr:full": "1001 8th Street East", "addr:city": "Saskatoon", "addr:state": "SK", "addr:postcode": "S7H0S2", "addr:country": "CA", "name": "7-Eleven", "phone": "3069756649", "website": "http://7eleven.ca/store-locator/29924", "opening_hours": "24/7", "brand": "7-Eleven", "brand:wikidata": "Q259340"}, "geometry": {"type": "Point", "coordinates": [-106.645932, 52.1150482]}},
{"type": "Feature", "id": "DJpTjchQ6Kw_mU7spm--iFHtt5E=", "properties": {"ref": "29927", "@spider": "seven_eleven_ca", "addr:full": "401 Victoria Ave", "addr:city": "Revelstoke", "addr:state": "BC", "addr:postcode": "V0E2S0", "addr:country": "CA", "name": "7-Eleven", "phone": "2508373611", "website": "http://7eleven.ca/store-locator/29927", "opening_hours": "24/7", "brand": "7-Eleven", "brand:wikidata": "Q259340"}, "geometry": {"type": "Point", "coordinates": [-118.19769322872162, 51.00108678980038]}},
{"type": "Feature", "id": "8rnoLrGFfH7ft3C-tiAjE9dCElc=", "properties": {"ref": "29930", "@spider": "seven_eleven_ca", "addr:full": "1015 McKercher Drive", "addr:city": "Saskatoon", "addr:state": "SK", "addr:postcode": "S7H5P7", "addr:country": "CA", "name": "7-Eleven", "phone": "3069756650", "website": "http://7eleven.ca/store-locator/29930", "opening_hours": "24/7", "brand": "7-Eleven", "brand:wikidata": "Q259340"}, "geometry": {"type": "Point", "coordinates": [-106.5862925, 52.1153099]}},
{"type": "Feature", "id": "wsmxchEq2t-3BSzFXUD6OzxFmow=", "properties": {"ref": "29936", "@spider": "seven_eleven_ca", "addr:full": "75 Centennial Ave", "addr:city": "Mackenzie", "addr:state": "BC", "addr:postcode": "V0J2C0", "addr:country": "CA", "name": "7-Eleven", "phone": "2509974141", "website": "http://7eleven.ca/store-locator/29936", "opening_hours": "24/7", "brand": "7-Eleven", "brand:wikidata": "Q259340"}, "geometry": {"type": "Point", "coordinates": [-123.09234836700853, 55.33771728321722]}},
{"type": "Feature", "id": "zpY50zdjQVzJT-0fRvmDDpwt220=", "properties": {"ref": "29964", "@spider": "seven_eleven_ca", "addr:full": "3407 43 Avenue", "addr:city": "Edmonton", "addr:state": "AB", "addr:postcode": "T6L6G6", "addr:country": "CA", "name": "7-Eleven", "phone": "7804402710", "website": "http://7eleven.ca/store-locator/29964", "opening_hours": "24/7", "brand": "7-Eleven", "brand:wikidata": "Q259340"}, "geometry": {"type": "Point", "coordinates": [-113.3943772315979, 53.4801467466879]}},
{"type": "Feature", "id": "zJ1Z2pq3iwrHcJEcs142d-ISnj0=", "properties": {"ref": "29991", "@spider": "seven_eleven_ca", "addr:full": "1790 Tranquille Rd", "addr:city": "Kamloops", "addr:state": "BC", "addr:postcode": "V2B3L6", "addr:country": "CA", "name": "7-Eleven", "phone": "2503765704", "website": "http://7eleven.ca/store-locator/29991", "opening_hours": "24/7", "brand": "7-Eleven", "brand:wikidata": "Q259340"}, "geometry": {"type": "Point", "coordinates": [-120.39280235767359, 50.70064885101732]}},
{"type": "Feature", "id": "rqAefcLienddjzlY2ZE9P2OKZMk=", "properties": {"ref": "32102", "@spider": "seven_eleven_ca", "addr:full": "3160 Smith Drive", "addr:city": "Armstrong", "addr:state": "BC", "addr:postcode": "V0E1B0", "addr:country": "CA", "name": "7-Eleven", "phone": "2505462188", "website": "http://7eleven.ca/store-locator/32102", "opening_hours": "24/7", "brand": "7-Eleven", "brand:wikidata": "Q259340"}, "geometry": {"type": "Point", "coordinates": [-119.18359816074371, 50.4455764337684]}},
{"type": "Feature", "id": "-nPPRFboMMrQBVnoPm-avQujsOQ=", "properties": {"ref": "32104", "@spider": "seven_eleven_ca", "addr:full": "5001 South Access Rd", "addr:city": "Chetwynd", "addr:state": "BC", "addr:postcode": "V0C1J0", "addr:country": "CA", "name": "7-Eleven", "phone": "2507883710", "website": "http://7eleven.ca/store-locator/32104", "opening_hours": "24/7", "brand": "7-Eleven", "brand:wikidata": "Q259340"}, "geometry": {"type": "Point", "coordinates": [-121.630281, 55.6971545]}},
{"type": "Feature", "id": "uTGKFTLNXtjIRNM2pBwXm6kOQ3c=", "properties": {"ref": "32105", "@spider": "seven_eleven_ca", "addr:full": "4011 Yellowhead Hwy #16", "addr:city": "Smithers", "addr:state": "BC", "addr:postcode": "V0J2N0", "addr:country": "CA", "name": "7-Eleven", "phone": "2508478086", "website": "http://7eleven.ca/store-locator/32105", "opening_hours": "24/7", "brand": "7-Eleven", "brand:wikidata": "Q259340"}, "geometry": {"type": "Point", "coordinates": [-127.1718805, 54.7850615]}},
{"type": "Feature", "id": "fPoVGlQmut0OmM6nzKJM5EAFlC0=", "properties": {"ref": "32107", "@spider": "seven_eleven_ca", "addr:full": "1250 Middleton Way", "addr:city": "Vernon", "addr:state": "BC", "addr:postcode": "V1B2V9", "addr:country": "CA", "name": "7-Eleven", "phone": "2505458601", "website": "http://7eleven.ca/store-locator/32107", "opening_hours": "24/7", "brand": "7-Eleven", "brand:wikidata": "Q259340"}, "geometry": {"type": "Point", "coordinates": [-119.2520159482956, 50.249837675486866]}},
{"type": "Feature", "id": "nRD1Z281z4vtQ8FiNyVPs9uoSSg=", "properties": {"ref": "32108", "@spider": "seven_eleven_ca", "addr:full": "665 Baseline Road", "addr:city": "Sherwood Park", "addr:state": "AB", "addr:postcode": "T8A5V9", "addr:country": "CA", "name": "7-Eleven", "phone": "7804671781", "website": "http://7eleven.ca/store-locator/32108", "opening_hours": "24/7", "brand": "7-Eleven", "brand:wikidata": "Q259340"}, "geometry": {"type": "Point", "coordinates": [-113.26134502887726, 53.540638925942346]}},
{"type": "Feature", "id": "Xurf4zyMFAkKMOAyo3DfYF_Hka4=", "properties": {"ref": "32129", "@spider": "seven_eleven_ca", "addr:full": "801 105th Ave", "addr:city": "Dawson Creek", "addr:state": "BC", "addr:postcode": "V1G2N3", "addr:country": "CA", "name": "7-Eleven", "phone": "2507827155", "website": "http://7eleven.ca/store-locator/32129", "opening_hours": "24/7", "brand": "7-Eleven", "brand:wikidata": "Q259340"}, "geometry": {"type": "Point", "coordinates": [-120.2253246, 55.7539879]}},
{"type": "Feature", "id": "qus_CKH7Fax_GDxlRV5WZ2ZRHNo=", "properties": {"ref": "32134", "@spider": "seven_eleven_ca", "addr:full": "9131 Main Street", "addr:city": "Osoyoos", "addr:state": "BC", "addr:postcode": "V0H1V2", "addr:country": "CA", "name": "7-Eleven", "phone": "2504954228", "website": "http://7eleven.ca/store-locator/32134", "opening_hours": "24/7", "brand": "7-Eleven", "brand:wikidata": "Q259340"}, "geometry": {"type": "Point", "coordinates": [-119.4743359, 49.0345165]}},
{"type": "Feature", "id": "jbx1aNHR5LTQ7xLlmPJ6NHDlrD0=", "properties": {"ref": "32137", "@spider": "seven_eleven_ca", "addr:full": "27211 Fraser Hwy", "addr:city": "Aldergrove", "addr:state": "BC", "addr:postcode": "V4W3P9", "addr:country": "CA", "name": "7-Eleven", "phone": "6048571224", "website": "http://7eleven.ca/store-locator/32137", "opening_hours": "24/7", "brand": "7-Eleven", "brand:wikidata": "Q259340"}, "geometry": {"type": "Point", "coordinates": [-122.4702953, 49.0581918]}},
{"type": "Feature", "id": "ecjW3CWZIY9CQQD3sN-p8H1uu9k=", "properties": {"ref": "32141", "@spider": "seven_eleven_ca", "addr:full": "3066 Yellowhead Hwy", "addr:city": "Houston", "addr:state": "BC", "addr:postcode": "V0J1Z0", "addr:country": "CA", "name": "7-Eleven", "phone": "2508457177", "website": "http://7eleven.ca/store-locator/32141", "opening_hours": "24/7", "brand": "7-Eleven", "brand:wikidata": "Q259340"}, "geometry": {"type": "Point", "coordinates": [-126.65743947029114, 54.3969812879939]}},
{"type": "Feature", "id": "6vZwrC1eBOdxs-pF59gXWztRrqo=", "properties": {"ref": "32150", "@spider": "seven_eleven_ca", "addr:full": "1999 Columbia Ave", "addr:city": "Castlegar", "addr:state": "BC", "addr:postcode": "V1N2W8", "addr:country": "CA", "name": "7-Eleven", "phone": "2503652712", "website": "http://7eleven.ca/store-locator/32150", "opening_hours": "24/7", "brand": "7-Eleven", "brand:wikidata": "Q259340"}, "geometry": {"type": "Point", "coordinates": [-117.65290090444978, 49.29551688581022]}},
{"type": "Feature", "id": "78syCQGX_BJ1ZXC2s6rB-_GRq8I=", "properties": {"ref": "32167", "@spider": "seven_eleven_ca", "addr:full": "250 2nd Ave West", "addr:city": "Prince Rupert", "addr:state": "BC", "addr:postcode": "V8J1G5", "addr:country": "CA", "name": "7-Eleven", "phone": "2506278348", "website": "http://7eleven.ca/store-locator/32167", "opening_hours": "24/7", "brand": "7-Eleven", "brand:wikidata": "Q259340"}, "geometry": {"type": "Point", "coordinates": [-130.3246368, 54.3146192]}},
{"type": "Feature", "id": "0tx4ZtXTfvhfmNeHEbIjtr66bjA=", "properties": {"ref": "32168", "@spider": "seven_eleven_ca", "addr:full": "16311 6 Street SW", "addr:city": "Calgary", "addr:state": "AB", "addr:postcode": "T2Y1Y6", "addr:country": "CA", "name": "7-Eleven", "phone": "4032014657", "website": "http://7eleven.ca/store-locator/32168", "opening_hours": "24/7", "brand": "7-Eleven", "brand:wikidata": "Q259340"}, "geometry": {"type": "Point", "coordinates": [-114.07698547001417, 50.90205858274791]}},
{"type": "Feature", "id": "tt7K2FbJVqSPVdIrvhdOQvqg1rw=", "properties": {"ref": "32169", "@spider": "seven_eleven_ca", "addr:full": "7102 Elbow Dr SW", "addr:city": "Calgary", "addr:state": "AB", "addr:postcode": "T2V1K1", "addr:country": "CA", "name": "7-Eleven", "phone": "4032520389", "website": "http://7eleven.ca/store-locator/32169", "opening_hours": "24/7", "brand": "7-Eleven", "brand:wikidata": "Q259340"}, "geometry": {"type": "Point", "coordinates": [-114.0827289, 50.9912108]}},
{"type": "Feature", "id": "2BvYdY4eF5maxE6tPDPx-b7N-08=", "properties": {"ref": "32172", "@spider": "seven_eleven_ca", "addr:full": "1106 Devonshire Drive", "addr:city": "Regina", "addr:state": "SK", "addr:postcode": "S4X3P2", "addr:country": "CA", "name": "7-Eleven", "phone": "3067916930", "website": "http://7eleven.ca/store-locator/32172", "opening_hours": "24/7", "brand": "7-Eleven", "brand:wikidata": "Q259340"}, "geometry": {"type": "Point", "coordinates": [-104.6731258835735, 50.49517307369374]}},
{"type": "Feature", "id": "fTWU-W2zncoMfRAU7FUq77M_5fU=", "properties": {"ref": "32182", "@spider": "seven_eleven_ca", "addr:full": "4441 Joyce Avenue", "addr:city": "Powell River", "addr:state": "BC", "addr:postcode": "V8A3A7", "addr:country": "CA", "name": "7-Eleven", "phone": "6044857718", "website": "http://7eleven.ca/store-locator/32182", "opening_hours": "24/7", "brand": "7-Eleven", "brand:wikidata": "Q259340"}, "geometry": {"type": "Point", "coordinates": [-124.52140425147263, 49.83626394589237]}},
{"type": "Feature", "id": "J-IjIWJWJcyQl0qNYWPzqHOI20g=", "properties": {"ref": "32186", "@spider": "seven_eleven_ca", "addr:full": "6688 Martindale Gate NE", "addr:city": "Calgary", "addr:state": "AB", "addr:postcode": "T3J4P9", "addr:country": "CA", "name": "7-Eleven", "phone": "4032936516", "website": "http://7eleven.ca/store-locator/32186", "opening_hours": "24/7", "brand": "7-Eleven", "brand:wikidata": "Q259340"}, "geometry": {"type": "Point", "coordinates": [-113.96439492702484, 51.11201626592385]}},
{"type": "Feature", "id": "CQWsZHazQjaEa9Tg1fGJUvo_fT0=", "properties": {"ref": "32192", "@spider": "seven_eleven_ca", "addr:full": "10099 Hidden Valley Dr NW", "addr:city": "Calgary", "addr:state": "AB", "addr:postcode": "T3A5C9", "addr:country": "CA", "name": "7-Eleven", "phone": "4032745670", "website": "http://7eleven.ca/store-locator/32192", "opening_hours": "24/7", "brand": "7-Eleven", "brand:wikidata": "Q259340"}, "geometry": {"type": "Point", "coordinates": [-114.10578221082687, 51.146788981699366]}},
{"type": "Feature", "id": "2SfriuAOCPXt7ki04qJ-X6cwf7k=", "properties": {"ref": "32230", "@spider": "seven_eleven_ca", "addr:full": "380 2nd Avenue N", "addr:city": "Saskatoon", "addr:state": "SK", "addr:postcode": "S7K2B9", "addr:country": "CA", "name": "7-Eleven", "phone": "3069750921", "website": "http://7eleven.ca/store-locator/32230", "opening_hours": "24/7", "brand": "7-Eleven", "brand:wikidata": "Q259340"}, "geometry": {"type": "Point", "coordinates": [-106.6612799, 52.1330536]}},
{"type": "Feature", "id": "03BpFdfXVK2ROLbb_2A-V_N2PGI=", "properties": {"ref": "32233", "@spider": "seven_eleven_ca", "addr:full": "213 93rd Ave", "addr:city": "Tisdale", "addr:state": "SK", "addr:postcode": "S0E1T0", "addr:country": "CA", "name": "7-Eleven", "phone": "3068734349", "website": "http://7eleven.ca/store-locator/32233", "opening_hours": "24/7", "brand": "7-Eleven", "brand:wikidata": "Q259340"}, "geometry": {"type": "Point", "coordinates": [-104.04875151289752, 52.84140593848648]}},
{"type": "Feature", "id": "lfnpabpKDuCgr4UxDjO11PNVbKY=", "properties": {"ref": "32234", "@spider": "seven_eleven_ca", "addr:full": "219 Railway Avenue W", "addr:city": "Rosetown", "addr:state": "SK", "addr:postcode": "S0L2V0", "addr:country": "CA", "name": "7-Eleven", "phone": "3068824535", "website": "http://7eleven.ca/store-locator/32234", "opening_hours": "24/7", "brand": "7-Eleven", "brand:wikidata": "Q259340"}, "geometry": {"type": "Point", "coordinates": [-107.9952936, 51.5482643]}},
{"type": "Feature", "id": "apOOrT2eyOQu2odEf3vMvgAB77o=", "properties": {"ref": "32239", "@spider": "seven_eleven_ca", "addr:full": "5202 55th Street", "addr:city": "Cold Lake", "addr:state": "AB", "addr:postcode": "T9M1R3", "addr:country": "CA", "name": "7-Eleven", "phone": "7805947220", "website": "http://7eleven.ca/store-locator/32239", "opening_hours": "24/7", "brand": "7-Eleven", "brand:wikidata": "Q259340"}, "geometry": {"type": "Point", "coordinates": [-110.2162549, 54.416386]}},
{"type": "Feature", "id": "KUuQ8t45qBSLRl1X2Ep2EPbWK68=", "properties": {"ref": "32250", "@spider": "seven_eleven_ca", "addr:full": "606 Branion Drive", "addr:city": "Prince Albert", "addr:state": "SK", "addr:postcode": "S6V2S1", "addr:country": "CA", "name": "7-Eleven", "phone": "3067648355", "website": "http://7eleven.ca/store-locator/32250", "opening_hours": "24/7", "brand": "7-Eleven", "brand:wikidata": "Q259340"}, "geometry": {"type": "Point", "coordinates": [-105.7370513677597, 53.19161999983252]}},
{"type": "Feature", "id": "V5JbEOO4ffp2JngivT7tf8s6QG8=", "properties": {"ref": "32252", "@spider": "seven_eleven_ca", "addr:full": "10002 Franklin Avenue", "addr:city": "Ft. McMurray", "addr:state": "AB", "addr:postcode": "T9H2K6", "addr:country": "CA", "name": "7-Eleven", "phone": "7807150781", "website": "http://7eleven.ca/store-locator/32252", "opening_hours": "24/7", "brand": "7-Eleven", "brand:wikidata": "Q259340"}, "geometry": {"type": "Point", "coordinates": [-111.38169050216675, 56.728354163941226]}},
{"type": "Feature", "id": "3qdvF4QOT2ilkiqh56nqblzgL-o=", "properties": {"ref": "32278", "@spider": "seven_eleven_ca", "addr:full": "4602 50th Avenue", "addr:city": "Rocky Mountain House", "addr:state": "AB", "addr:postcode": "T4T1B9", "addr:country": "CA", "name": "7-Eleven", "phone": "4038454664", "website": "http://7eleven.ca/store-locator/32278", "opening_hours": "24/7", "brand": "7-Eleven", "brand:wikidata": "Q259340"}, "geometry": {"type": "Point", "coordinates": [-114.9130218, 52.3748823]}},
{"type": "Feature", "id": "rXxYYKjoX7s7igs40aVwbcxw3YQ=", "properties": {"ref": "32279", "@spider": "seven_eleven_ca", "addr:full": "166 Crowfoot Way NW", "addr:city": "Calgary", "addr:state": "AB", "addr:postcode": "T3G4M4", "addr:country": "CA", "name": "7-Eleven", "phone": "4032394993", "website": "http://7eleven.ca/store-locator/32279", "opening_hours": "24/7", "brand": "7-Eleven", "brand:wikidata": "Q259340"}, "geometry": {"type": "Point", "coordinates": [-114.20835793018341, 51.12674964113142]}},
{"type": "Feature", "id": "ZdVv5Eoh4LqDsq4OA-BGE6neaso=", "properties": {"ref": "32315", "@spider": "seven_eleven_ca", "addr:full": "618 1st Ave W", "addr:city": "Meadow Lake", "addr:state": "SK", "addr:postcode": "S9X1G1", "addr:country": "CA", "name": "7-Eleven", "phone": "3062363564", "website": "http://7eleven.ca/store-locator/32315", "opening_hours": "24/7", "brand": "7-Eleven", "brand:wikidata": "Q259340"}, "geometry": {"type": "Point", "coordinates": [-108.44510162249207, 54.132819284805564]}},
{"type": "Feature", "id": "kKIHr0kXb1i99GrwVGblj-fQ25Y=", "properties": {"ref": "32317", "@spider": "seven_eleven_ca", "addr:full": "404 Edison Ave", "addr:city": "Winnipeg", "addr:state": "MB", "addr:postcode": "R2G0M1", "addr:country": "CA", "name": "7-Eleven", "phone": "2049850150", "website": "http://7eleven.ca/store-locator/32317", "opening_hours": "24/7", "brand": "7-Eleven", "brand:wikidata": "Q259340"}, "geometry": {"type": "Point", "coordinates": [-97.07932591438293, 49.93769605858164]}},
{"type": "Feature", "id": "i1etiJeHo976aYU_bXaZ7KWbe2o=", "properties": {"ref": "32322", "@spider": "seven_eleven_ca", "addr:full": "5008 46th Ave", "addr:city": "Taber", "addr:state": "AB", "addr:postcode": "T1G2A6", "addr:country": "CA", "name": "7-Eleven", "phone": "4032230115", "website": "http://7eleven.ca/store-locator/32322", "opening_hours": "24/7", "brand": "7-Eleven", "brand:wikidata": "Q259340"}, "geometry": {"type": "Point", "coordinates": [-112.1489631, 49.7814981]}},
{"type": "Feature", "id": "HCeF58PogpvEDfLu4zr07_3HYu0=", "properties": {"ref": "32342", "@spider": "seven_eleven_ca", "addr:full": "8210 160th Avenue", "addr:city": "Edmonton", "addr:state": "AB", "addr:postcode": "T5Z3H8", "addr:country": "CA", "name": "7-Eleven", "phone": "7804751268", "website": "http://7eleven.ca/store-locator/32342", "opening_hours": "24/7", "brand": "7-Eleven", "brand:wikidata": "Q259340"}, "geometry": {"type": "Point", "coordinates": [-113.4684256, 53.6212889]}},
{"type": "Feature", "id": "nTFXeQOuE6RR9nWOLoqoIQIEf90=", "properties": {"ref": "32344", "@spider": "seven_eleven_ca", "addr:full": "3455 Douglasdale Blvd SE", "addr:city": "Calgary", "addr:state": "AB", "addr:postcode": "T2Z2H8", "addr:country": "CA", "name": "7-Eleven", "phone": "4032362084", "website": "http://7eleven.ca/store-locator/32344", "opening_hours": "24/7", "brand": "7-Eleven", "brand:wikidata": "Q259340"}, "geometry": {"type": "Point", "coordinates": [-113.98273587226868, 50.93255357175079]}},
{"type": "Feature", "id": "Iic_DVC2eHZ0yYFd2uvPK2kLdAU=", "properties": {"ref": "32368", "@spider": "seven_eleven_ca", "addr:full": "1930 2nd St N", "addr:city": "Cranbrook", "addr:state": "BC", "addr:postcode": "V1C5A2", "addr:country": "CA", "name": "7-Eleven", "phone": "2504892116", "website": "http://7eleven.ca/store-locator/32368", "opening_hours": "24/7", "brand": "7-Eleven", "brand:wikidata": "Q259340"}, "geometry": {"type": "Point", "coordinates": [-115.7539871, 49.51427]}},
{"type": "Feature", "id": "TjpgwDvkYDSSoEcKRq_6QI7jC8I=", "properties": {"ref": "32369", "@spider": "seven_eleven_ca", "addr:full": "4903 48th St", "addr:city": "Stony Plain", "addr:state": "AB", "addr:postcode": "T7Z1L8", "addr:country": "CA", "name": "7-Eleven", "phone": "7809632143", "website": "http://7eleven.ca/store-locator/32369", "opening_hours": "24/7", "brand": "7-Eleven", "brand:wikidata": "Q259340"}, "geometry": {"type": "Point", "coordinates": [-114.00102853775024, 53.53073959170373]}},
{"type": "Feature", "id": "fxudR820Dla95JMoMg_Kl14J_G8=", "properties": {"ref": "32370", "@spider": "seven_eleven_ca", "addr:full": "2803 Mill Woods Road NW", "addr:city": "Edmonton", "addr:state": "AB", "addr:postcode": "T6K4A9", "addr:country": "CA", "name": "7-Eleven", "phone": "7804681845", "website": "http://7eleven.ca/store-locator/32370", "opening_hours": "24/7", "brand": "7-Eleven", "brand:wikidata": "Q259340"}, "geometry": {"type": "Point", "coordinates": [-113.4476624, 53.459043]}},
{"type": "Feature", "id": "DtHcaFoyNsyS2RLjPe82qE3PekU=", "properties": {"ref": "32381", "@spider": "seven_eleven_ca", "addr:full": "120 Keewatin St", "addr:city": "Winnipeg", "addr:state": "MB", "addr:postcode": "R3E3C8", "addr:country": "CA", "name": "7-Eleven", "phone": "2049850207", "website": "http://7eleven.ca/store-locator/32381", "opening_hours": "Mo-Su 05:00-00:00", "brand": "7-Eleven", "brand:wikidata": "Q259340"}, "geometry": {"type": "Point", "coordinates": [-97.19559967517853, 49.92223089341197]}},
{"type": "Feature", "id": "F0oCh78lEQrj_Qkc1G_d_aE7smM=", "properties": {"ref": "32403", "@spider": "seven_eleven_ca", "addr:full": "2323 East Quance St", "addr:city": "Regina", "addr:state": "SK", "addr:postcode": "S4V2Z3", "addr:country": "CA", "name": "7-Eleven", "phone": "3067916934", "website": "http://7eleven.ca/store-locator/32403", "opening_hours": "24/7", "brand": "7-Eleven", "brand:wikidata": "Q259340"}, "geometry": {"type": "Point", "coordinates": [-104.5501309633255, 50.44322779316212]}},
{"type": "Feature", "id": "Nb1JN5kZUOAziyzN1g88sqP2BbA=", "properties": {"ref": "32405", "@spider": "seven_eleven_ca", "addr:full": "2320 Maple Drive", "addr:city": "Quesnel", "addr:state": "BC", "addr:postcode": "V2J6R7", "addr:country": "CA", "name": "7-Eleven", "phone": "2507472837", "website": "http://7eleven.ca/store-locator/32405", "opening_hours": "24/7", "brand": "7-Eleven", "brand:wikidata": "Q259340"}, "geometry": {"type": "Point", "coordinates": [-122.44200090877712, 52.965166068422796]}},
{"type": "Feature", "id": "7u8ifdn2PT2nC83oAQrDkoBsLyA=", "properties": {"ref": "32601", "@spider": "seven_eleven_ca", "addr:full": "1049 Clover Bar Road", "addr:city": "Sherwood Park", "addr:state": "AB", "addr:postcode": "T8A6B7", "addr:country": "CA", "name": "7-Eleven", "phone": "7804677818", "website": "http://7eleven.ca/store-locator/32601", "opening_hours": "24/7", "brand": "7-Eleven", "brand:wikidata": "Q259340"}, "geometry": {"type": "Point", "coordinates": [-113.26628877782923, 53.519360414127554]}},
{"type": "Feature", "id": "9va_AfeRPUw7QONOcOErfW0k6OA=", "properties": {"ref": "32656", "@spider": "seven_eleven_ca", "addr:full": "14110 127th Street", "addr:city": "Edmonton", "addr:state": "AB", "addr:postcode": "T6V1L7", "addr:country": "CA", "name": "7-Eleven", "phone": "7804569038", "website": "http://7eleven.ca/store-locator/32656", "opening_hours": "24/7", "brand": "7-Eleven", "brand:wikidata": "Q259340"}, "geometry": {"type": "Point", "coordinates": [-113.5425863, 53.6037344]}},
{"type": "Feature", "id": "TcJPHSBwmkertg6Km0-Sspjot9E=", "properties": {"ref": "32664", "@spider": "seven_eleven_ca", "addr:full": "138 Erie St S", "addr:city": "Leamington", "addr:state": "ON", "addr:postcode": "N8H3B7", "addr:country": "CA", "name": "7-Eleven", "phone": "5193221892", "website": "http://7eleven.ca/store-locator/32664", "opening_hours": "24/7", "brand": "7-Eleven", "brand:wikidata": "Q259340"}, "geometry": {"type": "Point", "coordinates": [-82.5995972, 42.0471801]}},
{"type": "Feature", "id": "ddLt5dvas199fz64uWlUme22rs8=", "properties": {"ref": "32682", "@spider": "seven_eleven_ca", "addr:full": "268 Broadway", "addr:city": "Orangeville", "addr:state": "ON", "addr:postcode": "L9W1K8", "addr:country": "CA", "name": "7-Eleven", "phone": "5199388687", "website": "http://7eleven.ca/store-locator/32682", "opening_hours": "24/7", "brand": "7-Eleven", "brand:wikidata": "Q259340"}, "geometry": {"type": "Point", "coordinates": [-80.1034395843908, 43.91741196144439]}},
{"type": "Feature", "id": "uqcq9B0sJGqTh3pKiQq9SAp95Y0=", "properties": {"ref": "32741", "@spider": "seven_eleven_ca", "addr:full": "150 96 Ave NE", "addr:city": "Calgary", "addr:state": "AB", "addr:postcode": "T3K5J9", "addr:country": "CA", "name": "7-Eleven", "phone": "4032266400", "website": "http://7eleven.ca/store-locator/32741", "opening_hours": "24/7", "brand": "7-Eleven", "brand:wikidata": "Q259340"}, "geometry": {"type": "Point", "coordinates": [-114.0675384, 51.1423078]}},
{"type": "Feature", "id": "pMgED-F0f_SgarBqXQJ4jpSBM_A=", "properties": {"ref": "32839", "@spider": "seven_eleven_ca", "addr:full": "2 Aspenglen Drive", "addr:city": "Spruce Grove", "addr:state": "AB", "addr:postcode": "T7X4B3", "addr:country": "CA", "name": "7-Eleven", "phone": "7809602080", "website": "http://7eleven.ca/store-locator/32839", "opening_hours": "24/7", "brand": "7-Eleven", "brand:wikidata": "Q259340"}, "geometry": {"type": "Point", "coordinates": [-113.91576111316681, 53.559116270928726]}},
{"type": "Feature", "id": "1gJX8rl7AWzyfIm7SEB0n7VAwlM=", "properties": {"ref": "32843", "@spider": "seven_eleven_ca", "addr:full": "6651 118th Ave", "addr:city": "Edmonton", "addr:state": "AB", "addr:postcode": "T5B0P1", "addr:country": "CA", "name": "7-Eleven", "phone": "7804718052", "website": "http://7eleven.ca/store-locator/32843", "opening_hours": "Mo-Su 05:00-00:00", "brand": "7-Eleven", "brand:wikidata": "Q259340"}, "geometry": {"type": "Point", "coordinates": [-113.44432083888933, 53.569983667191686]}},
{"type": "Feature", "id": "ZqxNsvSVTIlt9ebV-D9G0ZPzIXw=", "properties": {"ref": "32844", "@spider": "seven_eleven_ca", "addr:full": "17604 97th Street", "addr:city": "Edmonton", "addr:state": "AB", "addr:postcode": "T5X6B5", "addr:country": "CA", "name": "7-Eleven", "phone": "7804568254", "website": "http://7eleven.ca/store-locator/32844", "opening_hours": "24/7", "brand": "7-Eleven", "brand:wikidata": "Q259340"}, "geometry": {"type": "Point", "coordinates": [-113.49317103624344, 53.63895481394703]}},
{"type": "Feature", "id": "McWwXh85hjDZ43RNzRwmaZO4Q7Q=", "properties": {"ref": "32845", "@spider": "seven_eleven_ca", "addr:full": "1901 Garibaldi Highlands", "addr:city": "Squamish", "addr:state": "BC", "addr:postcode": "V0N1T0", "addr:country": "CA", "name": "7-Eleven", "phone": "6048984442", "website": "http://7eleven.ca/store-locator/32845", "opening_hours": "24/7", "brand": "7-Eleven", "brand:wikidata": "Q259340"}, "geometry": {"type": "Point", "coordinates": [-123.1336163, 49.741025]}},
{"type": "Feature", "id": "cZscMYILTLvKEy5bk7O8TEqtBQk=", "properties": {"ref": "32846", "@spider": "seven_eleven_ca", "addr:full": "3963 52nd St SE", "addr:city": "Calgary", "addr:state": "AB", "addr:postcode": "T2B3R3", "addr:country": "CA", "name": "7-Eleven", "phone": "4032042933", "website": "http://7eleven.ca/store-locator/32846", "opening_hours": "24/7", "brand": "7-Eleven", "brand:wikidata": "Q259340"}, "geometry": {"type": "Point", "coordinates": [-113.95930409431458, 51.01955918508021]}},
{"type": "Feature", "id": "e7yIXfwWWsNIN4UT6w5RhJrWNPo=", "properties": {"ref": "32847", "@spider": "seven_eleven_ca", "addr:full": "3510 39th Ave", "addr:city": "Calgary", "addr:state": "AB", "addr:postcode": "T1Y6L1", "addr:country": "CA", "name": "7-Eleven", "phone": "4037351190", "website": "http://7eleven.ca/store-locator/32847", "opening_hours": "24/7", "brand": "7-Eleven", "brand:wikidata": "Q259340"}, "geometry": {"type": "Point", "coordinates": [-113.98280158638948, 51.088727248183694]}},
{"type": "Feature", "id": "5IDZ-hcY1u0MQaEyCgmTAPBebuY=", "properties": {"ref": "32848", "@spider": "seven_eleven_ca", "addr:full": "2875 Departure Bay Road", "addr:city": "Nanaimo", "addr:state": "BC", "addr:postcode": "V9S3X1", "addr:country": "CA", "name": "7-Eleven", "phone": "2507580940", "website": "http://7eleven.ca/store-locator/32848", "opening_hours": "Mo-Su 06:00-23:00", "brand": "7-Eleven", "brand:wikidata": "Q259340"}, "geometry": {"type": "Point", "coordinates": [-123.9705178141594, 49.20582410299277]}},
{"type": "Feature", "id": "xzaSXC5tbAhbIuhho-ZglbJ4MKg=", "properties": {"ref": "32849", "@spider": "seven_eleven_ca", "addr:full": "6201 Blueback Road", "addr:city": "Nanaimo", "addr:state": "BC", "addr:postcode": "V9V1A8", "addr:country": "CA", "name": "7-Eleven", "phone": "2507518973", "website": "http://7eleven.ca/store-locator/32849", "opening_hours": "Mo-Su 06:00-23:00", "brand": "7-Eleven", "brand:wikidata": "Q259340"}, "geometry": {"type": "Point", "coordinates": [-124.0403685, 49.2417915]}},
{"type": "Feature", "id": "G5gpXVZoRutwdbyvwNYXEeYwJs0=", "properties": {"ref": "32890", "@spider": "seven_eleven_ca", "addr:full": "3049 Clover Bar Road", "addr:city": "Sherwood Park", "addr:state": "AB", "addr:postcode": "T8H1N8", "addr:country": "CA", "name": "7-Eleven", "phone": "7804491406", "website": "http://7eleven.ca/store-locator/32890", "opening_hours": "24/7", "brand": "7-Eleven", "brand:wikidata": "Q259340"}, "geometry": {"type": "Point", "coordinates": [-113.2680143, 53.5512703]}},
{"type": "Feature", "id": "PKqp44T9XEIz5MPI19rE8C2U1AQ=", "properties": {"ref": "32891", "@spider": "seven_eleven_ca", "addr:full": "150 Citadel Way NW", "addr:city": "Calgary", "addr:state": "AB", "addr:postcode": "T3G5C1", "addr:country": "CA", "name": "7-Eleven", "phone": "4032399196", "website": "http://7eleven.ca/store-locator/32891", "opening_hours": "24/7", "brand": "7-Eleven", "brand:wikidata": "Q259340"}, "geometry": {"type": "Point", "coordinates": [-114.19491415377195, 51.14342115105784]}},
{"type": "Feature", "id": "K9BUrLPK82rDaWIrFpaeA44j7jQ=", "properties": {"ref": "32893", "@spider": "seven_eleven_ca", "addr:full": "1294 Granville Street", "addr:city": "Vancouver", "addr:state": "BC", "addr:postcode": "V6Z1M4", "addr:country": "CA", "name": "7-Eleven", "phone": "6046012489", "website": "http://7eleven.ca/store-locator/32893", "opening_hours": "Mo-Su 05:00-00:00", "brand": "7-Eleven", "brand:wikidata": "Q259340"}, "geometry": {"type": "Point", "coordinates": [-123.12742173671722, 49.27607708352783]}},
{"type": "Feature", "id": "78UmS6FtR35JfxiIkbJRTOnTRjY=", "properties": {"ref": "32980", "@spider": "seven_eleven_ca", "addr:full": "3711 Rutherford Rd", "addr:city": "Woodbridge", "addr:state": "ON", "addr:postcode": "L4L1A6", "addr:country": "CA", "name": "7-Eleven", "phone": "9052641224", "website": "http://7eleven.ca/store-locator/32980", "opening_hours": "24/7", "brand": "7-Eleven", "brand:wikidata": "Q259340"}, "geometry": {"type": "Point", "coordinates": [-79.5544772, 43.8259076]}},
{"type": "Feature", "id": "26VVMZgTBKoEIflqWrvlSkbM9nQ=", "properties": {"ref": "32999", "@spider": "seven_eleven_ca", "addr:full": "596 Seymour Street", "addr:city": "Vancouver", "addr:state": "BC", "addr:postcode": "V6B3J5", "addr:country": "CA", "name": "7-Eleven", "phone": "6046680531", "website": "http://7eleven.ca/store-locator/32999", "opening_hours": "Mo-Su 05:00-00:00", "brand": "7-Eleven", "brand:wikidata": "Q259340"}, "geometry": {"type": "Point", "coordinates": [-123.11509966850281, 49.28296950963447]}},
{"type": "Feature", "id": "VbKUR_A0yA1ZY5rj3W4OVOAvdBU=", "properties": {"ref": "33000", "@spider": "seven_eleven_ca", "addr:full": "6980 Lisgar Dr", "addr:city": "Mississauga", "addr:state": "ON", "addr:postcode": "L5N8C8", "addr:country": "CA", "name": "7-Eleven", "phone": "9058249494", "website": "http://7eleven.ca/store-locator/33000", "opening_hours": "24/7", "brand": "7-Eleven", "brand:wikidata": "Q259340"}, "geometry": {"type": "Point", "coordinates": [-79.78369921445852, 43.57620545964172]}},
{"type": "Feature", "id": "T1XQiLMjSe0dAEsOB4azlzTcEfM=", "properties": {"ref": "33001", "@spider": "seven_eleven_ca", "addr:full": "425 University Ave E", "addr:city": "Waterloo", "addr:state": "ON", "addr:postcode": "N2K4C9", "addr:country": "CA", "name": "7-Eleven", "phone": "5197458549", "website": "http://7eleven.ca/store-locator/33001", "opening_hours": "24/7", "brand": "7-Eleven", "brand:wikidata": "Q259340"}, "geometry": {"type": "Point", "coordinates": [-80.4929296, 43.4890888]}},
{"type": "Feature", "id": "eRK1TvfAj6y31AyC3vx1K6rha6U=", "properties": {"ref": "33008", "@spider": "seven_eleven_ca", "addr:full": "1006 Government St", "addr:city": "Duncan", "addr:state": "BC", "addr:postcode": "V9L1C3", "addr:country": "CA", "name": "7-Eleven", "phone": "2507484196", "website": "http://7eleven.ca/store-locator/33008", "opening_hours": "24/7", "brand": "7-Eleven", "brand:wikidata": "Q259340"}, "geometry": {"type": "Point", "coordinates": [-123.71843133868424, 48.78600310600406]}},
{"type": "Feature", "id": "IBgD84Nx_hVUbnCbA9h3Zefn1FU=", "properties": {"ref": "33010", "@spider": "seven_eleven_ca", "addr:full": "7712 Ranchview Dr NW", "addr:city": "Calgary", "addr:state": "AB", "addr:postcode": "T3G1Y9", "addr:country": "CA", "name": "7-Eleven", "phone": "4032088032", "website": "http://7eleven.ca/store-locator/33010", "opening_hours": "24/7", "brand": "7-Eleven", "brand:wikidata": "Q259340"}, "geometry": {"type": "Point", "coordinates": [-114.1789431, 51.1205453]}},
{"type": "Feature", "id": "xbMiuuEzpbmBP2VH8NYjJl5gfac=", "properties": {"ref": "33012", "@spider": "seven_eleven_ca", "addr:full": "1327 Douglas St", "addr:city": "Victoria", "addr:state": "BC", "addr:postcode": "V8W2E9", "addr:country": "CA", "name": "7-Eleven", "phone": "2503563180", "website": "http://7eleven.ca/store-locator/33012", "opening_hours": "24/7", "brand": "7-Eleven", "brand:wikidata": "Q259340"}, "geometry": {"type": "Point", "coordinates": [-123.36440563201904, 48.42699537713118]}},
{"type": "Feature", "id": "8nevuEWu2wOqv5yhWNjDhY1HQKU=", "properties": {"ref": "33013", "@spider": "seven_eleven_ca", "addr:full": "23180 Lougheed Hwy", "addr:city": "Maple Ridge", "addr:state": "BC", "addr:postcode": "V2X2W3", "addr:country": "CA", "name": "7-Eleven", "phone": "6044639721", "website": "http://7eleven.ca/store-locator/33013", "opening_hours": "24/7", "brand": "7-Eleven", "brand:wikidata": "Q259340"}, "geometry": {"type": "Point", "coordinates": [-122.58118450641632, 49.20391920289903]}},
{"type": "Feature", "id": "vngM7HBntFivQFpxY8Ao8bkdpIw=", "properties": {"ref": "33020", "@spider": "seven_eleven_ca", "addr:full": "6211 188th St NE", "addr:city": "Edmonton", "addr:state": "AB", "addr:postcode": "T5T5T4", "addr:country": "CA", "name": "7-Eleven", "phone": "7804447595", "website": "http://7eleven.ca/store-locator/33020", "opening_hours": "24/7", "brand": "7-Eleven", "brand:wikidata": "Q259340"}, "geometry": {"type": "Point", "coordinates": [-113.64787548780441, 53.49624282492201]}},
{"type": "Feature", "id": "-w8asyg_APbmJ6vfcHvexouu_To=", "properties": {"ref": "33036", "@spider": "seven_eleven_ca", "addr:full": "1055 Denman Street", "addr:city": "Vancouver", "addr:state": "BC", "addr:postcode": "V6G2M4", "addr:country": "CA", "name": "7-Eleven", "phone": "6046878656", "website": "http://7eleven.ca/store-locator/33036", "opening_hours": "24/7", "brand": "7-Eleven", "brand:wikidata": "Q259340"}, "geometry": {"type": "Point", "coordinates": [-123.13972368836403, 49.28888303477143]}},
{"type": "Feature", "id": "_EL8swn_1iObAr6NE9-uWTqYOEQ=", "properties": {"ref": "33047", "@spider": "seven_eleven_ca", "addr:full": "1017 Potter Greens Drive NW", "addr:city": "Edmonton", "addr:state": "AB", "addr:postcode": "T5T5Y4", "addr:country": "CA", "name": "7-Eleven", "phone": "7804442402", "website": "http://7eleven.ca/store-locator/33047", "opening_hours": "24/7", "brand": "7-Eleven", "brand:wikidata": "Q259340"}, "geometry": {"type": "Point", "coordinates": [-113.6769518, 53.514309]}},
{"type": "Feature", "id": "ja9PEEjRd2ixQ5Ea1M0Ezv0Po4k=", "properties": {"ref": "33054", "@spider": "seven_eleven_ca", "addr:full": "400 Lakes Rd", "addr:city": "Duncan", "addr:state": "BC", "addr:postcode": "V9L5G6", "addr:country": "CA", "name": "7-Eleven", "phone": "2507486924", "website": "http://7eleven.ca/store-locator/33054", "opening_hours": "24/7", "brand": "7-Eleven", "brand:wikidata": "Q259340"}, "geometry": {"type": "Point", "coordinates": [-123.68423491716379, 48.78042433952115]}},
{"type": "Feature", "id": "N6Ufb5_jqyWCoRGw4sA6NAAZMjc=", "properties": {"ref": "33083", "@spider": "seven_eleven_ca", "addr:full": "2067 Rutherford Rd", "addr:city": "Concord", "addr:state": "ON", "addr:postcode": "L4K5T6", "addr:country": "CA", "name": "7-Eleven", "phone": "9058790711", "website": "http://7eleven.ca/store-locator/33083", "opening_hours": "24/7", "brand": "7-Eleven", "brand:wikidata": "Q259340"}, "geometry": {"type": "Point", "coordinates": [-79.5026322, 43.8377551]}},
{"type": "Feature", "id": "m5H2DjkLh8j25mlt16yHzXEvRmI=", "properties": {"ref": "33169", "@spider": "seven_eleven_ca", "addr:full": "1704 61st St SE", "addr:city": "Calgary", "addr:state": "AB", "addr:postcode": "T2A4V5", "addr:country": "CA", "name": "7-Eleven", "phone": "4032737367", "website": "http://7eleven.ca/store-locator/33169", "opening_hours": "24/7", "brand": "7-Eleven", "brand:wikidata": "Q259340"}, "geometry": {"type": "Point", "coordinates": [-113.9421164989472, 51.038469479958685]}},
{"type": "Feature", "id": "s62rAunYHgre9fFOcFdbrz3EMNo=", "properties": {"ref": "33182", "@spider": "seven_eleven_ca", "addr:full": "14125 118th Ave", "addr:city": "Edmonton", "addr:state": "AB", "addr:postcode": "T5L2M3", "addr:country": "CA", "name": "7-Eleven", "phone": "7804091235", "website": "http://7eleven.ca/store-locator/33182", "opening_hours": "24/7", "brand": "7-Eleven", "brand:wikidata": "Q259340"}, "geometry": {"type": "Point", "coordinates": [-113.565378, 53.5699215]}},
{"type": "Feature", "id": "XXeDgl_2oIYWXsQ5zANgBNt21zw=", "properties": {"ref": "33183", "@spider": "seven_eleven_ca", "addr:full": "333 Mountainview Rd S", "addr:city": "Georgetown", "addr:state": "ON", "addr:postcode": "L7G6E8", "addr:country": "CA", "name": "7-Eleven", "phone": "9058779008", "website": "http://7eleven.ca/store-locator/33183", "opening_hours": "24/7", "brand": "7-Eleven", "brand:wikidata": "Q259340"}, "geometry": {"type": "Point", "coordinates": [-79.87934838049114, 43.6333342408454]}},
{"type": "Feature", "id": "VbuNfFw4k70v93rsVGf1OurgXT0=", "properties": {"ref": "33188", "@spider": "seven_eleven_ca", "addr:full": "6 Prairie Dr", "addr:city": "Sherwood Park", "addr:state": "AB", "addr:postcode": "T8H0A3", "addr:country": "CA", "name": "7-Eleven", "phone": "7804495076", "website": "http://7eleven.ca/store-locator/33188", "opening_hours": "24/7", "brand": "7-Eleven", "brand:wikidata": "Q259340"}, "geometry": {"type": "Point", "coordinates": [-113.31844845417436, 53.56019667445473]}},
{"type": "Feature", "id": "7yymy9X2nPWSeolzlMp8zUhBCp0=", "properties": {"ref": "33196", "@spider": "seven_eleven_ca", "addr:full": "7802 95a Ave", "addr:city": "Ft. Saskatchewan", "addr:state": "AB", "addr:postcode": "T8L4M3", "addr:country": "CA", "name": "7-Eleven", "phone": "7809989701", "website": "http://7eleven.ca/store-locator/33196", "opening_hours": "24/7", "brand": "7-Eleven", "brand:wikidata": "Q259340"}, "geometry": {"type": "Point", "coordinates": [-113.25015912764286, 53.68804777710893]}},
{"type": "Feature", "id": "9oBGSNVXXyvWFchvy_87ZtItv5Y=", "properties": {"ref": "33197", "@spider": "seven_eleven_ca", "addr:full": "13 3880 Grant McConachie Way", "addr:city": "Richmond", "addr:state": "BC", "addr:postcode": "V7B0A5", "addr:country": "CA", "name": "7-Eleven", "phone": "6042079795", "website": "http://7eleven.ca/store-locator/33197", "opening_hours": "24/7", "brand": "7-Eleven", "brand:wikidata": "Q259340"}, "geometry": {"type": "Point", "coordinates": [-123.1806773, 49.1936795]}},
{"type": "Feature", "id": "vX6wxxK7FgZUf9YQajqwNT3ROQ0=", "properties": {"ref": "33231", "@spider": "seven_eleven_ca", "addr:full": "15715 66th St NW", "addr:city": "Edmonton", "addr:state": "AB", "addr:postcode": "T5Y3A5", "addr:country": "CA", "name": "7-Eleven", "phone": "7804757781", "website": "http://7eleven.ca/store-locator/33231", "opening_hours": "24/7", "brand": "7-Eleven", "brand:wikidata": "Q259340"}, "geometry": {"type": "Point", "coordinates": [-113.44177454710007, 53.61923165892349]}},
{"type": "Feature", "id": "TDZ72iOqx8BuWD5wxcbCCYIGfM4=", "properties": {"ref": "33259", "@spider": "seven_eleven_ca", "addr:full": "260 College St", "addr:city": "Toronto", "addr:state": "ON", "addr:postcode": "M5T1R7", "addr:country": "CA", "name": "7-Eleven", "phone": "4165916371", "website": "http://7eleven.ca/store-locator/33259", "opening_hours": "24/7", "brand": "7-Eleven", "brand:wikidata": "Q259340"}, "geometry": {"type": "Point", "coordinates": [-79.3998009, 43.658184]}},
{"type": "Feature", "id": "1iTsFDdNPOORs8UjuMwBdw9TbGo=", "properties": {"ref": "33281", "@spider": "seven_eleven_ca", "addr:full": "904 Davie St", "addr:city": "Vancouver", "addr:state": "BC", "addr:postcode": "V6Z1B8", "addr:country": "CA", "name": "7-Eleven", "phone": "6046810106", "website": "http://7eleven.ca/store-locator/33281", "opening_hours": "24/7", "brand": "7-Eleven", "brand:wikidata": "Q259340"}, "geometry": {"type": "Point", "coordinates": [-123.12857936136811, 49.278388793805355]}},
{"type": "Feature", "id": "wQMmVghcHLo4QOo5W8TgciwQCGA=", "properties": {"ref": "33296", "@spider": "seven_eleven_ca", "addr:full": "11488 24 St SE", "addr:city": "Calgary", "addr:state": "AB", "addr:postcode": "T2Z4C9", "addr:country": "CA", "name": "7-Eleven", "phone": "4037240945", "website": "http://7eleven.ca/store-locator/33296", "opening_hours": "24/7", "brand": "7-Eleven", "brand:wikidata": "Q259340"}, "geometry": {"type": "Point", "coordinates": [-113.99989287368697, 50.95388192240853]}},
{"type": "Feature", "id": "3Qj5HHM8lo4p6g1y0svnmOUdVvw=", "properties": {"ref": "33304", "@spider": "seven_eleven_ca", "addr:full": "16703 100th Street", "addr:city": "Edmonton", "addr:state": "AB", "addr:postcode": "T5X3Z9", "addr:country": "CA", "name": "7-Eleven", "phone": "7804732694", "website": "http://7eleven.ca/store-locator/33304", "opening_hours": "24/7", "brand": "7-Eleven", "brand:wikidata": "Q259340"}, "geometry": {"type": "Point", "coordinates": [-113.49740275743898, 53.629400096560666]}},
{"type": "Feature", "id": "KM0LdwMgtsBLtc906005-YOfB_w=", "properties": {"ref": "33342", "@spider": "seven_eleven_ca", "addr:full": "13203 82nd St NW", "addr:city": "Edmonton", "addr:state": "AB", "addr:postcode": "T5E2T6", "addr:country": "CA", "name": "7-Eleven", "phone": "7804736240", "website": "http://7eleven.ca/store-locator/33342", "opening_hours": "24/7", "brand": "7-Eleven", "brand:wikidata": "Q259340"}, "geometry": {"type": "Point", "coordinates": [-113.46650049090385, 53.59263853312262]}},
{"type": "Feature", "id": "C8Icq26SWErYvjPNkEJVF78b2f0=", "properties": {"ref": "33343", "@spider": "seven_eleven_ca", "addr:full": "307 Airport Rd", "addr:city": "Edmonton International Airport", "addr:state": "AB", "addr:postcode": "T9E0V5", "addr:country": "CA", "name": "7-Eleven", "phone": "7808903209", "website": "http://7eleven.ca/store-locator/33343", "opening_hours": "24/7", "brand": "7-Eleven", "brand:wikidata": "Q259340"}, "geometry": {"type": "Point", "coordinates": [-113.56997390249884, 53.308189427714865]}},
{"type": "Feature", "id": "BGd1H0baCuYS3NM9gLpnXoKCKNs=", "properties": {"ref": "33370", "@spider": "seven_eleven_ca", "addr:full": "2 Rossland Rd W", "addr:city": "Ajax", "addr:state": "ON", "addr:postcode": "L1S4S7", "addr:country": "CA", "name": "7-Eleven", "phone": "9054288099", "website": "http://7eleven.ca/store-locator/33370", "opening_hours": "24/7", "brand": "7-Eleven", "brand:wikidata": "Q259340"}, "geometry": {"type": "Point", "coordinates": [-79.0279255528003, 43.880461142149514]}},
{"type": "Feature", "id": "fH1fWbWcqtCAcCOBB3ZZTJiQtts=", "properties": {"ref": "33372", "@spider": "seven_eleven_ca", "addr:full": "2 Sioux Road", "addr:city": "Sherwood Park", "addr:state": "AB", "addr:postcode": "T8A4X1", "addr:country": "CA", "name": "7-Eleven", "phone": "7804494197", "website": "http://7eleven.ca/store-locator/33372", "opening_hours": "24/7", "brand": "7-Eleven", "brand:wikidata": "Q259340"}, "geometry": {"type": "Point", "coordinates": [-113.32102954387659, 53.53503596385156]}},
{"type": "Feature", "id": "y_4n3zkabnYG5ZLCRtkHmZxMmJA=", "properties": {"ref": "33377", "@spider": "seven_eleven_ca", "addr:full": "3965 Thomas Street", "addr:city": "Mississauga", "addr:state": "ON", "addr:postcode": "L5M7B8", "addr:country": "CA", "name": "7-Eleven", "phone": "9058170160", "website": "http://7eleven.ca/store-locator/33377", "opening_hours": "24/7", "brand": "7-Eleven", "brand:wikidata": "Q259340"}, "geometry": {"type": "Point", "coordinates": [-79.7516154, 43.5490347]}},
{"type": "Feature", "id": "sVOUEdJLv6bKDOCeO2g38iXzqS4=", "properties": {"ref": "33411", "@spider": "seven_eleven_ca", "addr:full": "334 Bloor Street W", "addr:city": "Toronto", "addr:state": "ON", "addr:postcode": "M5S1W9", "addr:country": "CA", "name": "7-Eleven", "phone": "4169449490", "website": "http://7eleven.ca/store-locator/33411", "opening_hours": "24/7", "brand": "7-Eleven", "brand:wikidata": "Q259340"}, "geometry": {"type": "Point", "coordinates": [-79.4040508, 43.6667449]}},
{"type": "Feature", "id": "ZiqXL-CfEFmgIkvewIGnlrhilZI=", "properties": {"ref": "33414", "@spider": "seven_eleven_ca", "addr:full": "980 Islington Ave", "addr:city": "Toronto", "addr:state": "ON", "addr:postcode": "M8Z4P8", "addr:country": "CA", "name": "7-Eleven", "phone": "4162016872", "website": "http://7eleven.ca/store-locator/33414", "opening_hours": "24/7", "brand": "7-Eleven", "brand:wikidata": "Q259340"}, "geometry": {"type": "Point", "coordinates": [-79.5174309, 43.6291072]}},
{"type": "Feature", "id": "_C771eqwdgpBKhLWYjUFiaM77HU=", "properties": {"ref": "33417", "@spider": "seven_eleven_ca", "addr:full": "1093 Homer Street", "addr:city": "Vancouver", "addr:state": "BC", "addr:postcode": "V6B2X5", "addr:country": "CA", "name": "7-Eleven", "phone": "6046816366", "website": "http://7eleven.ca/store-locator/33417", "opening_hours": "Mo-Su 05:00-00:00", "brand": "7-Eleven", "brand:wikidata": "Q259340"}, "geometry": {"type": "Point", "coordinates": [-123.1216724216938, 49.27663005297058]}},
{"type": "Feature", "id": "SX2QKC1MgkNqETYWF5medeuyc5c=", "properties": {"ref": "33419", "@spider": "seven_eleven_ca", "addr:full": "873 Queen Street W", "addr:city": "Toronto", "addr:state": "ON", "addr:postcode": "M6J1G4", "addr:country": "CA", "name": "7-Eleven", "phone": "4167032510", "website": "http://7eleven.ca/store-locator/33419", "opening_hours": "24/7", "brand": "7-Eleven", "brand:wikidata": "Q259340"}, "geometry": {"type": "Point", "coordinates": [-79.4108863, 43.6455317]}},
{"type": "Feature", "id": "3_2u8GiXW6alUXUUoShTgOlWiVg=", "properties": {"ref": "33420", "@spider": "seven_eleven_ca", "addr:full": "407 Hawkwood Blvd NW", "addr:city": "Calgary", "addr:state": "AB", "addr:postcode": "T3G3K2", "addr:country": "CA", "name": "7-Eleven", "phone": "4032396791", "website": "http://7eleven.ca/store-locator/33420", "opening_hours": "24/7", "brand": "7-Eleven", "brand:wikidata": "Q259340"}, "geometry": {"type": "Point", "coordinates": [-114.17655001579078, 51.129952087199676]}},
{"type": "Feature", "id": "2n6KQu4PgaZjDeDtpYuY8EkcgQ8=", "properties": {"ref": "33424", "@spider": "seven_eleven_ca", "addr:full": "99 Smithe Street", "addr:city": "Vancouver", "addr:state": "BC", "addr:postcode": "V6B1C3", "addr:country": "CA", "name": "7-Eleven", "phone": "6046697394", "website": "http://7eleven.ca/store-locator/33424", "opening_hours": "24/7", "brand": "7-Eleven", "brand:wikidata": "Q259340"}, "geometry": {"type": "Point", "coordinates": [-123.11516498030869, 49.27654535805025]}},
{"type": "Feature", "id": "0pYMkNu10fviP3zLvJT6176LF9s=", "properties": {"ref": "33435", "@spider": "seven_eleven_ca", "addr:full": "1169 St Clair Ave W", "addr:city": "Toronto", "addr:state": "ON", "addr:postcode": "M6E1B2", "addr:country": "CA", "name": "7-Eleven", "phone": "4166565572", "website": "http://7eleven.ca/store-locator/33435", "opening_hours": "24/7", "brand": "7-Eleven", "brand:wikidata": "Q259340"}, "geometry": {"type": "Point", "coordinates": [-79.44284677505493, 43.67777351179759]}},
{"type": "Feature", "id": "GTql84D5l_SiED9uV_MPzvFj4_A=", "properties": {"ref": "33455", "@spider": "seven_eleven_ca", "addr:full": "2335 162 Ave SW", "addr:city": "Calgary", "addr:state": "AB", "addr:postcode": "T2Y4S6", "addr:country": "CA", "name": "7-Eleven", "phone": "4032010268", "website": "http://7eleven.ca/store-locator/33455", "opening_hours": "24/7", "brand": "7-Eleven", "brand:wikidata": "Q259340"}, "geometry": {"type": "Point", "coordinates": [-114.113275, 50.9061986]}},
{"type": "Feature", "id": "FL1PLQx9ClelJEAWQjHSeYZ6mDE=", "properties": {"ref": "33462", "@spider": "seven_eleven_ca", "addr:full": "310 Robson St", "addr:city": "Vancouver", "addr:state": "BC", "addr:postcode": "V6B2B2", "addr:country": "CA", "name": "7-Eleven", "phone": "6046788305", "website": "http://7eleven.ca/store-locator/33462", "opening_hours": "24/7", "brand": "7-Eleven", "brand:wikidata": "Q259340"}, "geometry": {"type": "Point", "coordinates": [-123.11629325151443, 49.278838369117594]}},
{"type": "Feature", "id": "AvtBfRqCn_Gw5xlEY35MEeT5JeY=", "properties": {"ref": "33469", "@spider": "seven_eleven_ca", "addr:full": "1 Eglinton Ave E", "addr:city": "Toronto", "addr:state": "ON", "addr:postcode": "M4P3A1", "addr:country": "CA", "name": "7-Eleven", "phone": "4164809645", "website": "http://7eleven.ca/store-locator/33469", "opening_hours": "24/7", "brand": "7-Eleven", "brand:wikidata": "Q259340"}, "geometry": {"type": "Point", "coordinates": [-79.3975352, 43.7067622]}},
{"type": "Feature", "id": "g0icK1p-MEpyKOfs1zfF_JcSssw=", "properties": {"ref": "33470", "@spider": "seven_eleven_ca", "addr:full": "280 Saddleback Road", "addr:city": "Edmonton", "addr:state": "AB", "addr:postcode": "T6J4R7", "addr:country": "CA", "name": "7-Eleven", "phone": "7804386417", "website": "http://7eleven.ca/store-locator/33470", "opening_hours": "24/7", "brand": "7-Eleven", "brand:wikidata": "Q259340"}, "geometry": {"type": "Point", "coordinates": [-113.529292, 53.4610403]}},
{"type": "Feature", "id": "LJlWGpHbByicuaLi4ztLW2aa3D4=", "properties": {"ref": "33491", "@spider": "seven_eleven_ca", "addr:full": "372 Bay Street", "addr:city": "Toronto", "addr:state": "ON", "addr:postcode": "M5H2W9", "addr:country": "CA", "name": "7-Eleven", "phone": "4162038350", "website": "http://7eleven.ca/store-locator/33491", "opening_hours": "Mo-Su 07:00-00:00", "brand": "7-Eleven", "brand:wikidata": "Q259340"}, "geometry": {"type": "Point", "coordinates": [-79.38142070173399, 43.65100745757159]}},
{"type": "Feature", "id": "6Qg7r0yN2uPYv-OVuKhPjfwlYNw=", "properties": {"ref": "33502", "@spider": "seven_eleven_ca", "addr:full": "12659 153th Avenue", "addr:city": "Edmonton", "addr:state": "AB", "addr:postcode": "T5X5X8", "addr:country": "CA", "name": "7-Eleven", "phone": "7804573576", "website": "http://7eleven.ca/store-locator/33502", "opening_hours": "24/7", "brand": "7-Eleven", "brand:wikidata": "Q259340"}, "geometry": {"type": "Point", "coordinates": [-113.5404291, 53.6164616]}},
{"type": "Feature", "id": "NruEONFc1zNyHIzlfSGwCNY-f48=", "properties": {"ref": "33534", "@spider": "seven_eleven_ca", "addr:full": "11220 171st Ave NW", "addr:city": "Edmonton", "addr:state": "AB", "addr:postcode": "T5X0A9", "addr:country": "CA", "name": "7-Eleven", "phone": "7804067521", "website": "http://7eleven.ca/store-locator/33534", "opening_hours": "24/7", "brand": "7-Eleven", "brand:wikidata": "Q259340"}, "geometry": {"type": "Point", "coordinates": [-113.51742893457413, 53.63405192606876]}},
{"type": "Feature", "id": "ATfl3yBEnj6RhfKWtFRuBOSRxF8=", "properties": {"ref": "33535", "@spider": "seven_eleven_ca", "addr:full": "5004 162 Avenue", "addr:city": "Edmonton", "addr:state": "AB", "addr:postcode": "T5Y0E7", "addr:country": "CA", "name": "7-Eleven", "phone": "7804668314", "website": "http://7eleven.ca/store-locator/33535", "opening_hours": "24/7", "brand": "7-Eleven", "brand:wikidata": "Q259340"}, "geometry": {"type": "Point", "coordinates": [-113.4144843, 53.6225291]}},
{"type": "Feature", "id": "BrTgl27VLEWNZqUwKVVHWkv2cJc=", "properties": {"ref": "33536", "@spider": "seven_eleven_ca", "addr:full": "16720 76th St", "addr:city": "Edmonton", "addr:state": "AB", "addr:postcode": "T5Z3Y7", "addr:country": "CA", "name": "7-Eleven", "phone": "7804747092", "website": "http://7eleven.ca/store-locator/33536", "opening_hours": "24/7", "brand": "7-Eleven", "brand:wikidata": "Q259340"}, "geometry": {"type": "Point", "coordinates": [-113.46038504505941, 53.629336895853854]}},
{"type": "Feature", "id": "3o6VxJHyJ2GjAeIm6G1xHsEVPXQ=", "properties": {"ref": "33561", "@spider": "seven_eleven_ca", "addr:full": "2 Spruce Ridge Drive", "addr:city": "Spruce Grove", "addr:state": "AB", "addr:postcode": "T7X4S3", "addr:country": "CA", "name": "7-Eleven", "phone": "7809600756", "website": "http://7eleven.ca/store-locator/33561", "opening_hours": "24/7", "brand": "7-Eleven", "brand:wikidata": "Q259340"}, "geometry": {"type": "Point", "coordinates": [-113.9354125689664, 53.554344444848034]}},
{"type": "Feature", "id": "nasTexxtX-Mp5dpZw_d8OFG-L_k=", "properties": {"ref": "33627", "@spider": "seven_eleven_ca", "addr:full": "101 West Haven Blvd", "addr:city": "Leduc", "addr:state": "AB", "addr:postcode": "T9E0J2", "addr:country": "CA", "name": "7-Eleven", "phone": "7809802986", "website": "http://7eleven.ca/store-locator/33627", "opening_hours": "24/7", "brand": "7-Eleven", "brand:wikidata": "Q259340"}, "geometry": {"type": "Point", "coordinates": [-113.5913023352623, 53.264507050601125]}},
{"type": "Feature", "id": "GEzudt8W0BtjhdifbVE8LV20vLw=", "properties": {"ref": "33628", "@spider": "seven_eleven_ca", "addr:full": "2002 Luxstone Blvd", "addr:city": "Airdrie", "addr:state": "AB", "addr:postcode": "T4B3K8", "addr:country": "CA", "name": "7-Eleven", "phone": "4039453164", "website": "http://7eleven.ca/store-locator/33628", "opening_hours": "24/7", "brand": "7-Eleven", "brand:wikidata": "Q259340"}, "geometry": {"type": "Point", "coordinates": [-114.0179994, 51.2713204]}}]}