{"type":"FeatureCollection","features":[{"type": "Feature", "id": "R_l1qc0rCqcog9rEdcpP8jFcjk0=", "properties": {"ref": "3115", "@spider": "shoneys", "amenity": "restaurant", "cuisine": "american", "addr:full": "285 McClellandtown Rd, Uniontown, PA 15401", "name": "Shoney\u2019s Uniontown", "phone": "878-206-7581", "website": "https://www.shoneys.com/locations/shoneys-uniontown/", "opening_hours": "Mo-Th 08:00-16:00; Fr-Su 08:00-20:00", "brand": "Shoney's", "brand:wikidata": "Q7500392", "nsi_id": "shoneys-96af40"}, "geometry": {"type": "Point", "coordinates": [-79.7503709, 39.90190219999999]}},
{"type": "Feature", "id": "ylZzplw6okuEDl2zcJLxz8WPbGs=", "properties": {"ref": "3056", "@spider": "shoneys", "amenity": "restaurant", "cuisine": "american", "addr:full": "5764 W Irlo Bronson Memorial Hwy, Kissimmee, FL 34746", "name": "Shoney&#8217;s of Old Town", "phone": "407-507-5481", "website": "https://www.shoneys.com/locations/shoneys-of-old-town/", "opening_hours": "Mo-Su 09:00-23:00", "brand": "Shoney's", "brand:wikidata": "Q7500392", "nsi_id": "shoneys-96af40"}, "geometry": {"type": "Point", "coordinates": [-81.5159251, 28.3323556]}},
{"type": "Feature", "id": "-jdqNKZdymaunxX_j59Qar9F95c=", "properties": {"ref": "3055", "@spider": "shoneys", "amenity": "restaurant", "cuisine": "american", "addr:full": "870 S Jefferson Ave, Cookeville, TN 38501", "name": "Shoney&#8217;s Cookeville", "phone": "(931) 526-1022", "website": "https://www.shoneys.com/locations/shoneys-cookeville/", "opening_hours": "Mo-Su 06:00-21:00", "brand": "Shoney's", "brand:wikidata": "Q7500392", "nsi_id": "shoneys-96af40"}, "geometry": {"type": "Point", "coordinates": [-85.5007676, 36.1409117]}},
{"type": "Feature", "id": "Ia3KcdOjAa7pDIBMNjSv3CcW_Hg=", "properties": {"ref": "3052", "@spider": "shoneys", "amenity": "restaurant", "cuisine": "american", "addr:full": "680 Larson St, Jackson, MS 39202", "name": "Shoney&#8217;s Jackson", "phone": "(601) 353-6505", "website": "https://www.shoneys.com/locations/shoneys-jackson/", "brand": "Shoney's", "brand:wikidata": "Q7500392", "nsi_id": "shoneys-96af40"}, "geometry": {"type": "Point", "coordinates": [-90.1676783, 32.303687]}},
{"type": "Feature", "id": "Q_06E2zJ8jbPXOCUDCOxx9R73xQ=", "properties": {"ref": "3051", "@spider": "shoneys", "amenity": "restaurant", "cuisine": "american", "addr:full": "2 Crossroads Mall, Mt Hope, WV 25880, USA", "name": "Shoney&#8217;s Mt Hope", "phone": "681-422-3189", "website": "https://www.shoneys.com/locations/shoneys-mt-hope/", "opening_hours": "Mo-Su 10:00-19:00", "brand": "Shoney's", "brand:wikidata": "Q7500392", "nsi_id": "shoneys-96af40"}, "geometry": {"type": "Point", "coordinates": [-81.198067, 37.847362]}},
{"type": "Feature", "id": "gHhcGRpXJ4iWRPUx4PL-2t9ki5c=", "properties": {"ref": "3050", "@spider": "shoneys", "amenity": "restaurant", "cuisine": "american", "addr:full": "3334 Asheville Road, Waynesville, NC, USA", "name": "Shoney&#8217;s Waynesville", "phone": "828-246-0335", "website": "https://www.shoneys.com/locations/2171/", "opening_hours": "Mo-Th 08:00-16:00; Fr-Sa 08:00-20:00; Su 08:00-16:00", "brand": "Shoney's", "brand:wikidata": "Q7500392", "nsi_id": "shoneys-96af40"}, "geometry": {"type": "Point", "coordinates": [-82.96151880000002, 35.5195076]}},
{"type": "Feature", "id": "IJbUKGEAqn422QdNEMEnSe34QFA=", "properties": {"ref": "3048", "@spider": "shoneys", "amenity": "restaurant", "cuisine": "american", "addr:full": "942 Parkway Gatlinburg, TN 37738", "name": "Shoney&#8217;s Gatlinburg", "phone": "865-325-8502", "website": "https://www.shoneys.com/locations/shoneys-gatlinburg/", "opening_hours": "Mo-Th 08:00-17:00; Fr-Sa 08:00-20:00; Su 08:00-17:00", "brand": "Shoney's", "brand:wikidata": "Q7500392", "nsi_id": "shoneys-96af40"}, "geometry": {"type": "Point", "coordinates": [-83.5198891, 35.7096125]}},
{"type": "Feature", "id": "JiVQ8KJxFzHjCm7NRXQZ8rVNt0Y=", "properties": {"ref": "3047", "@spider": "shoneys", "amenity": "restaurant", "cuisine": "american", "addr:full": "2405 North Charles G Seivers Boulevard, Clinton, TN 37716", "name": "Shoney&#8217;s Clinton", "phone": "(865) 494-7295", "website": "https://www.shoneys.com/locations/shoneys-clinton-3/", "opening_hours": "Mo-Th 07:00-21:00; Fr-Sa 07:00-22:00; Su 07:00-21:00", "brand": "Shoney's", "brand:wikidata": "Q7500392", "nsi_id": "shoneys-96af40"}, "geometry": {"type": "Point", "coordinates": [-84.07978989999998, 36.1692101]}},
{"type": "Feature", "id": "uNBkHvLktSSS4PPUezri3VYgFbs=", "properties": {"ref": "3046", "@spider": "shoneys", "amenity": "restaurant", "cuisine": "american", "addr:full": "1805 North Kings Hwy, Myrtle Beach, SC 29577", "name": "Shoney&#8217;s Myrtle Beach", "phone": "8434482315", "website": "https://www.shoneys.com/locations/shoneys-myrtle-beach-north/", "opening_hours": "Mo-Su 07:00-16:00", "brand": "Shoney's", "brand:wikidata": "Q7500392", "nsi_id": "shoneys-96af40"}, "geometry": {"type": "Point", "coordinates": [-78.8765013, 33.7009967]}},
{"type": "Feature", "id": "AuKGzgsmc9Rb7LOv44vJCcwCYuQ=", "properties": {"ref": "3044", "@spider": "shoneys", "amenity": "restaurant", "cuisine": "american", "addr:full": "840 Shoney's Drive, Ashburn, GA 31714", "name": "Shoney&#8217;s Ashburn", "phone": "229-567-3530", "website": "https://www.shoneys.com/locations/shoneys-ashburn/", "opening_hours": "Mo-Tu 08:00-18:00; We 08:00-14:30; Th 08:00-18:00; Fr-Sa 07:00-19:30; Su 08:00-19:00", "brand": "Shoney's", "brand:wikidata": "Q7500392", "nsi_id": "shoneys-96af40"}, "geometry": {"type": "Point", "coordinates": [-83.63762400000002, 31.710465]}},
{"type": "Feature", "id": "Aub6DQIOYzcdsuxsJdmBuioKjhw=", "properties": {"ref": "3043", "@spider": "shoneys", "amenity": "restaurant", "cuisine": "american", "addr:full": "1234 Boots Blvd, Fultondale, AL 35065", "name": "Shoney\u2019s Fultondale", "phone": "(205) 536-7700", "website": "https://www.shoneys.com/locations/shoneys-fultondale/", "opening_hours": "Mo-Su 07:00-19:00", "brand": "Shoney's", "brand:wikidata": "Q7500392", "nsi_id": "shoneys-96af40"}, "geometry": {"type": "Point", "coordinates": [-86.8008094, 33.610678]}},
{"type": "Feature", "id": "pvb60nlRIty31vFwhOtsvpnMe_U=", "properties": {"ref": "3041", "@spider": "shoneys", "amenity": "restaurant", "cuisine": "american", "addr:full": "610 East Main, Henryetta, OK 74437", "name": "Shoney&#8217;s Henryetta", "phone": "918-650-9611", "website": "https://www.shoneys.com/locations/shoneys-henryetta/", "opening_hours": "Mo-Th 06:30-21:00; Fr-Sa 06:30-22:00; Su 06:30-21:00", "brand": "Shoney's", "brand:wikidata": "Q7500392", "nsi_id": "shoneys-96af40"}, "geometry": {"type": "Point", "coordinates": [-95.9767897, 35.440153]}},
{"type": "Feature", "id": "PEkaUykdohjnOu4yb_KDnq9FAoM=", "properties": {"ref": "3040", "@spider": "shoneys", "amenity": "restaurant", "cuisine": "american", "addr:full": "4000 Ft Campbell Blvd, Hopkinsville, KY 42240", "name": "Shoney&#8217;s Hopkinsville", "phone": "270-885-4150", "website": "https://www.shoneys.com/locations/shoneys-hopkinsville/", "opening_hours": "Mo-Th 06:00-15:00; Fr-Sa 06:00-21:00; Su 06:00-17:00", "brand": "Shoney's", "brand:wikidata": "Q7500392", "nsi_id": "shoneys-96af40"}, "geometry": {"type": "Point", "coordinates": [-87.4758679, 36.8359023]}},
{"type": "Feature", "id": "UDQyLt5szDU-uiA3nNdt44VNEWU=", "properties": {"ref": "3037", "@spider": "shoneys", "amenity": "restaurant", "cuisine": "american", "addr:full": "101 Mathis Dr, Dickson, TN 37055", "name": "Shoney&#8217;s Dickson", "phone": "615-441-1178", "website": "https://www.shoneys.com/locations/shoneys-dickson/", "opening_hours": "Mo-Fr 07:00-21:00; Sa-Su 06:00-21:00", "brand": "Shoney's", "brand:wikidata": "Q7500392", "nsi_id": "shoneys-96af40"}, "geometry": {"type": "Point", "coordinates": [-87.3798031, 36.0742672]}},
{"type": "Feature", "id": "zDtTMoCnhgENRIL4R9Zk3mwVtDI=", "properties": {"ref": "3036", "@spider": "shoneys", "amenity": "restaurant", "cuisine": "american", "addr:full": "1000 Georgia Rd, Franklin, NC 28734", "name": "Shoney&#8217;s Franklin", "phone": "828-349-0290", "website": "https://www.shoneys.com/locations/shoneys-franklin-2/", "opening_hours": "Mo-Th 08:00-16:00; Fr-Su 08:00-20:00", "brand": "Shoney's", "brand:wikidata": "Q7500392", "nsi_id": "shoneys-96af40"}, "geometry": {"type": "Point", "coordinates": [-83.3931925, 35.1614569]}},
{"type": "Feature", "id": "naiD20RezsjMtFnotCIJIwfp9zA=", "properties": {"ref": "3035", "@spider": "shoneys", "amenity": "restaurant", "cuisine": "american", "addr:full": "1809 S Roane St, Harriman, TN 37748", "name": "Shoney&#8217;s Harriman", "phone": "865-882-9888", "website": "https://www.shoneys.com/locations/shoneys-harriman/", "opening_hours": "Mo-Th 07:00-21:00; Fr-Sa 07:00-22:00; Su 07:00-21:00", "brand": "Shoney's", "brand:wikidata": "Q7500392", "nsi_id": "shoneys-96af40"}, "geometry": {"type": "Point", "coordinates": [-84.5921415, 35.9075242]}},
{"type": "Feature", "id": "Tz_HokmxLnXsMeAl8sMrLBlXvbY=", "properties": {"ref": "3034", "@spider": "shoneys", "amenity": "restaurant", "cuisine": "american", "addr:full": "4416 Cleburne Blvd, Dublin, VA 24084", "name": "Shoney&#8217;s Dublin", "phone": "540-674-8060", "website": "https://www.shoneys.com/locations/shoneys-dublin/", "opening_hours": "Mo-Su 07:00-21:00", "brand": "Shoney's", "brand:wikidata": "Q7500392", "nsi_id": "shoneys-96af40"}, "geometry": {"type": "Point", "coordinates": [-80.6942891, 37.0759091]}},
{"type": "Feature", "id": "X2fof8rAdomAX1VdC2nOlchjrwI=", "properties": {"ref": "3033", "@spider": "shoneys", "amenity": "restaurant", "cuisine": "american", "addr:full": "2208 B Airport Blvd West, Columbia, SC 29170", "name": "Shoney&#8217;s West Columbia", "phone": "803-936-1118", "website": "https://www.shoneys.com/locations/shoneys-columbia-3/", "opening_hours": "Mo-Su 08:00-20:00", "brand": "Shoney's", "brand:wikidata": "Q7500392", "nsi_id": "shoneys-96af40"}, "geometry": {"type": "Point", "coordinates": [-81.0987938, 33.9537896]}},
{"type": "Feature", "id": "JbRXBF-lWhFxaTKMQ2HPUZhIyYg=", "properties": {"ref": "3032", "@spider": "shoneys", "amenity": "restaurant", "cuisine": "american", "addr:full": "226 South Pike West, Sumter, SC 29150", "name": "Shoney&#8217;s Sumter", "phone": "803-773-3321", "website": "https://www.shoneys.com/locations/shoneys-sumter/", "opening_hours": "Mo-Su 07:00-20:00", "brand": "Shoney's", "brand:wikidata": "Q7500392", "nsi_id": "shoneys-96af40"}, "geometry": {"type": "Point", "coordinates": [-80.3524076, 33.9459546]}},
{"type": "Feature", "id": "s09S7tgWN7P7l75-JxznoZwsUjs=", "properties": {"ref": "3031", "@spider": "shoneys", "amenity": "restaurant", "cuisine": "american", "addr:full": "1011 Greenwood St, Morgan City, LA 70380", "name": "Shoney&#8217;s Morgan City", "phone": "985-384-5767", "website": "https://www.shoneys.com/locations/shoneys-morgan-city/", "opening_hours": "Mo-Th 07:00-23:00; Fr-Sa 07:00-03:00; Su 07:00-23:00", "brand": "Shoney's", "brand:wikidata": "Q7500392", "nsi_id": "shoneys-96af40"}, "geometry": {"type": "Point", "coordinates": [-91.2021784, 29.7016175]}},
{"type": "Feature", "id": "PM5hAYglgwzYLSFGyOCDa-PTaPQ=", "properties": {"ref": "3030", "@spider": "shoneys", "amenity": "restaurant", "cuisine": "american", "addr:full": "1120 Garfield Ave, Parkersburg, WV 26101", "name": "Shoney&#8217;s Parkersburg", "phone": "304-428-7835", "website": "https://www.shoneys.com/locations/shoneys-parkersburg/", "opening_hours": "Mo-Su 08:00-16:00", "brand": "Shoney's", "brand:wikidata": "Q7500392", "nsi_id": "shoneys-96af40"}, "geometry": {"type": "Point", "coordinates": [-81.5603573, 39.2723594]}},
{"type": "Feature", "id": "P5ZCtpR0JGIEMly-LPl2VvqaD3o=", "properties": {"ref": "3029", "@spider": "shoneys", "amenity": "restaurant", "cuisine": "american", "addr:full": "546 Donelson Pike, Nashville, TN 37214", "name": "Shoney&#8217;s Nashville", "phone": "615-883-8110", "website": "https://www.shoneys.com/locations/shoneys-nashville-5/", "opening_hours": "Mo-Su 07:00-21:00", "brand": "Shoney's", "brand:wikidata": "Q7500392", "nsi_id": "shoneys-96af40"}, "geometry": {"type": "Point", "coordinates": [-86.6696189, 36.1456468]}},
{"type": "Feature", "id": "BzcRH0J6Y3O11EYFwds00TTd2oA=", "properties": {"ref": "3028", "@spider": "shoneys", "amenity": "restaurant", "cuisine": "american", "addr:full": "116 Kanawha Blvd East, Charleston, WV 25301", "name": "Shoney&#8217;s Charleston", "phone": "304-346-9437", "website": "https://www.shoneys.com/locations/shoneys-charleston/", "opening_hours": "Mo 07:00-20:00; We-Th 07:00-20:00; Fr-Sa 07:00-21:00; Su 07:00-20:00", "brand": "Shoney's", "brand:wikidata": "Q7500392", "nsi_id": "shoneys-96af40"}, "geometry": {"type": "Point", "coordinates": [-81.6448292, 38.3538673]}},
{"type": "Feature", "id": "riSEdYWP2DCJoN-jO9ossEcIkrE=", "properties": {"ref": "3027", "@spider": "shoneys", "amenity": "restaurant", "cuisine": "american", "addr:full": "2810 Alcoa Highway, Alcoa, TN 37701", "name": "Shoney&#8217;s Alcoa", "phone": "865-970-2709", "website": "https://www.shoneys.com/locations/shoneys-alcoa/", "opening_hours": "Mo-Th 07:00-21:00; Fr-Sa 07:00-22:00; Su 07:00-21:00", "brand": "Shoney's", "brand:wikidata": "Q7500392", "nsi_id": "shoneys-96af40"}, "geometry": {"type": "Point", "coordinates": [-83.9802602, 35.8208694]}},
{"type": "Feature", "id": "tGnrLO5bDwOwwSY5OR9XJX9Ht5Q=", "properties": {"ref": "3026", "@spider": "shoneys", "amenity": "restaurant", "cuisine": "american", "addr:full": "5829 Summer Ave, Memphis, TN 38134", "name": "Shoney&#8217;s Memphis", "phone": "901-386-6570", "website": "https://www.shoneys.com/locations/shoneys-memphis-2/", "opening_hours": "Mo-Th 06:00-22:00; Fr-Sa 06:00-23:00; Su 06:00-22:00", "brand": "Shoney's", "brand:wikidata": "Q7500392", "nsi_id": "shoneys-96af40"}, "geometry": {"type": "Point", "coordinates": [-89.8705505, 35.1712197]}},
{"type": "Feature", "id": "iuqqprnoaX5dY85fmak08ANykzk=", "properties": {"ref": "3024", "@spider": "shoneys", "amenity": "restaurant", "cuisine": "american", "addr:full": "1950 W 76 Country Blvd, Branson, MO 65616", "name": "Shoney&#8217;s Branson", "phone": "417-335-6855", "website": "https://www.shoneys.com/locations/shoneys-branson/", "opening_hours": "Mo-Th 07:00-16:00; Fr-Sa 07:00-19:00; Su 07:00-16:00", "brand": "Shoney's", "brand:wikidata": "Q7500392", "nsi_id": "shoneys-96af40"}, "geometry": {"type": "Point", "coordinates": [-93.2594787, 36.6404935]}},
{"type": "Feature", "id": "KJ7ee2K76Xkqa2FeNz9RGjuPc1Q=", "properties": {"ref": "3023", "@spider": "shoneys", "amenity": "restaurant", "cuisine": "american", "addr:full": "6121 U.S. 49, Hattiesburg, MS 39401", "name": "Shoney&#8217;s Hattiesburg", "phone": "601-264-8438", "website": "https://www.shoneys.com/locations/shoneys-hattiesburg/", "opening_hours": "Mo-Th 06:00-23:00; Fr-Sa 06:00-00:00; Su 06:00-23:00", "brand": "Shoney's", "brand:wikidata": "Q7500392", "nsi_id": "shoneys-96af40"}, "geometry": {"type": "Point", "coordinates": [-89.3319113, 31.323423]}},
{"type": "Feature", "id": "4tLAiz7M5-LovTuCAloP8XgIxms=", "properties": {"ref": "3022", "@spider": "shoneys", "amenity": "restaurant", "cuisine": "american", "addr:full": "420 W Bank Expy, Gretna, LA 70053", "name": "Shoney&#8217;s Gretna", "phone": "504-362-3312", "website": "https://www.shoneys.com/locations/shoneys-gretna/", "opening_hours": "Mo-Su 06:00-14:00", "brand": "Shoney's", "brand:wikidata": "Q7500392", "nsi_id": "shoneys-96af40"}, "geometry": {"type": "Point", "coordinates": [-90.0573195, 29.9093773]}},
{"type": "Feature", "id": "UDn9TbBCA5rZHgnx2aJwWbCBtmU=", "properties": {"ref": "3021", "@spider": "shoneys", "amenity": "restaurant", "cuisine": "american", "addr:full": "312 S 16th Ave, Laurel, MS 39440", "name": "Shoney&#8217;s Laurel", "phone": "601-426-6596", "website": "https://www.shoneys.com/locations/shoneys-laurel/", "opening_hours": "Mo-Th 06:00-22:00; Fr-Sa 06:00-10:00; Su 06:00-22:00", "brand": "Shoney's", "brand:wikidata": "Q7500392", "nsi_id": "shoneys-96af40"}, "geometry": {"type": "Point", "coordinates": [-89.1495571, 31.6867821]}},
{"type": "Feature", "id": "VKA3ubaYIQ9LAb_nUNpyatCU3es=", "properties": {"ref": "3018", "@spider": "shoneys", "amenity": "restaurant", "cuisine": "american", "addr:full": "3081 Covington Pike, Memphis, TN 38128", "name": "Shoney&#8217;s Memphis", "phone": "901-382-2220", "website": "https://www.shoneys.com/locations/shoneys-memphis/", "opening_hours": "Mo-Su 07:00-16:00", "brand": "Shoney's", "brand:wikidata": "Q7500392", "nsi_id": "shoneys-96af40"}, "geometry": {"type": "Point", "coordinates": [-89.89734, 35.2096491]}},
{"type": "Feature", "id": "RNGjlspfN3-89O71iWjg-GRscBo=", "properties": {"ref": "3017", "@spider": "shoneys", "amenity": "restaurant", "cuisine": "american", "addr:full": "3885 Parkway, Pigeon Forge, TN 37863", "name": "Shoney&#8217;s Pigeon Forge", "phone": "865-428-3440", "website": "https://www.shoneys.com/locations/shoneys-pigeon-forge-2/", "opening_hours": "Mo-Th 07:00-21:00; Fr-Sa 07:00-22:00; Su 07:00-21:00", "brand": "Shoney's", "brand:wikidata": "Q7500392", "nsi_id": "shoneys-96af40"}, "geometry": {"type": "Point", "coordinates": [-83.5487219, 35.7792819]}},
{"type": "Feature", "id": "eIuFgeJkGKm5V2KlR_3m5kZ0Sv8=", "properties": {"ref": "3014", "@spider": "shoneys", "amenity": "restaurant", "cuisine": "american", "addr:full": "2645 McGavock Pike, Nashville, TN 37214", "name": "Shoney&#8217;s Nashville", "phone": "615-885-0568", "website": "https://www.shoneys.com/locations/shoneys-nashville-4/", "opening_hours": "Mo-Th 06:00-21:00; Fr-Sa 06:00-22:00; Su 06:00-21:00", "brand": "Shoney's", "brand:wikidata": "Q7500392", "nsi_id": "shoneys-96af40"}, "geometry": {"type": "Point", "coordinates": [-86.6962318, 36.2178694]}},
{"type": "Feature", "id": "YrhjVMC-fWGsOQAPUw6H3pe4Bxc=", "properties": {"ref": "3013", "@spider": "shoneys", "amenity": "restaurant", "cuisine": "american", "addr:full": "3083 Wilma Rudolph Blvd, Clarksville, TN 37040", "name": "Shoney&#8217;s Clarksville", "phone": "931-553-0830", "website": "https://www.shoneys.com/locations/shoneys-clarksville-2/", "opening_hours": "Mo-Th 06:00-21:00; Fr-Sa 06:00-22:00; Su 06:00-21:00", "brand": "Shoney's", "brand:wikidata": "Q7500392", "nsi_id": "shoneys-96af40"}, "geometry": {"type": "Point", "coordinates": [-87.2877237, 36.5961233]}},
{"type": "Feature", "id": "tbzzGo0Kbf3MKBORXZvVGHkaAEM=", "properties": {"ref": "3012", "@spider": "shoneys", "amenity": "restaurant", "cuisine": "american", "addr:full": "791 North Second Street, Clarksville, TN 37040", "name": "Shoney&#8217;s Clarksville", "phone": "931-647-6684", "website": "https://www.shoneys.com/locations/shoneys-clarksville/", "opening_hours": "Mo-Su 08:00-18:00", "brand": "Shoney's", "brand:wikidata": "Q7500392", "nsi_id": "shoneys-96af40"}, "geometry": {"type": "Point", "coordinates": [-87.3666144, 36.5404361]}},
{"type": "Feature", "id": "epV2070Ob5tl8CqCdM08RCJv-pk=", "properties": {"ref": "3011", "@spider": "shoneys", "amenity": "restaurant", "cuisine": "american", "addr:full": "4710 Frederica St, Owensboro, KY 42301", "name": "Shoney&#8217;s Owensboro", "phone": "270-686-7217", "website": "https://www.shoneys.com/locations/shoneys-owensboro/", "opening_hours": "Mo-Th 06:00-21:00; Fr-Sa 06:00-22:00; Su 06:00-21:00", "brand": "Shoney's", "brand:wikidata": "Q7500392", "nsi_id": "shoneys-96af40"}, "geometry": {"type": "Point", "coordinates": [-87.1265729, 37.7244859]}},
{"type": "Feature", "id": "gN5uqK5ZO2lAwRJXi0EHvejflzo=", "properties": {"ref": "3010", "@spider": "shoneys", "amenity": "restaurant", "cuisine": "american", "addr:full": "460 Oakvale Rd, Princeton, WV 24740", "name": "Shoney&#8217;s Princeton", "phone": "(304)-425-1890", "website": "https://www.shoneys.com/locations/shoneys-princeton/", "opening_hours": "Mo 07:00-21:00; We-Su 07:00-21:00", "brand": "Shoney's", "brand:wikidata": "Q7500392", "nsi_id": "shoneys-96af40"}, "geometry": {"type": "Point", "coordinates": [-81.0574855, 37.3636012]}},
{"type": "Feature", "id": "X9ORlwQQ1_FCr0RGNjarDTtiMDU=", "properties": {"ref": "3009", "@spider": "shoneys", "amenity": "restaurant", "cuisine": "american", "addr:full": "3054 Ross Clark Circle SW, Dothan, AL 36301", "name": "Shoney&#8217;s Dothan", "phone": "334-792-4415", "website": "https://www.shoneys.com/locations/shoneys-dothan/", "opening_hours": "Mo-Th 08:00-14:00; Fr-Sa 07:00-14:00; Su 08:00-14:00", "brand": "Shoney's", "brand:wikidata": "Q7500392", "nsi_id": "shoneys-96af40"}, "geometry": {"type": "Point", "coordinates": [-85.4336607, 31.2247757]}},
{"type": "Feature", "id": "oS8i_M6j8aQXvmOxFiY3dnuZd28=", "properties": {"ref": "3008", "@spider": "shoneys", "amenity": "restaurant", "cuisine": "american", "addr:full": "905 South 5th St, Hartsville, SC 29550", "name": "Shoney&#8217;s Hartsville", "phone": "843-332-5315", "website": "https://www.shoneys.com/locations/shoneys-hartsville/", "opening_hours": "Mo-We 07:00-15:00; Th-Su 07:00-19:00", "brand": "Shoney's", "brand:wikidata": "Q7500392", "nsi_id": "shoneys-96af40"}, "geometry": {"type": "Point", "coordinates": [-80.069174, 34.3615821]}},
{"type": "Feature", "id": "E7rbTG-vRbVF1qA8iHlfIWBQ_Gk=", "properties": {"ref": "3007", "@spider": "shoneys", "amenity": "restaurant", "cuisine": "american", "addr:full": "2452 U.S. 41, Henderson, KY 42420", "name": "Shoney&#8217;s Henderson", "phone": "270-830-6555", "website": "https://www.shoneys.com/locations/shoneys-henderson/", "opening_hours": "Mo-Su 06:00-21:00", "brand": "Shoney's", "brand:wikidata": "Q7500392", "nsi_id": "shoneys-96af40"}, "geometry": {"type": "Point", "coordinates": [-87.5718565, 37.8705002]}},
{"type": "Feature", "id": "PMXP6TCaiAYWQ0cBNuCYz00EdCI=", "properties": {"ref": "3006", "@spider": "shoneys", "amenity": "restaurant", "cuisine": "american", "addr:full": "112 Interstate Blvd Greenville, AL 36037", "name": "Shoney&#8217;s Greenville", "phone": "334-382-6565", "website": "https://www.shoneys.com/locations/shoneys-greenville/", "opening_hours": "Mo-Th 08:00-16:00; Fr-Su 07:00-19:00", "brand": "Shoney's", "brand:wikidata": "Q7500392", "nsi_id": "shoneys-96af40"}, "geometry": {"type": "Point", "coordinates": [-86.63997119999999, 31.8524768]}},
{"type": "Feature", "id": "9fbFyiDcbvjn2CQDC76Bzil_WYk=", "properties": {"ref": "3005", "@spider": "shoneys", "amenity": "restaurant", "cuisine": "american", "addr:full": "26 Sergeant Prentiss Dr, Natchez, MS 39120", "name": "Shoney&#8217;s Natchez", "phone": "601-442-3761", "website": "https://www.shoneys.com/locations/shoneys-natchez/", "opening_hours": "Mo-Th 06:00-21:00; Fr-Sa 06:00-22:00; Su 06:00-21:00", "brand": "Shoney's", "brand:wikidata": "Q7500392", "nsi_id": "shoneys-96af40"}, "geometry": {"type": "Point", "coordinates": [-91.393582, 31.5244637]}},
{"type": "Feature", "id": "fC4v6TpFR1yE_AvpVzZji9J4Gas=", "properties": {"ref": "3004", "@spider": "shoneys", "amenity": "restaurant", "cuisine": "american", "addr:full": "1526 Sunset Dr, Grenada, MS 38901", "name": "Shoney&#8217;s Grenada", "phone": "662-226-5360", "website": "https://www.shoneys.com/locations/shoneys-grenada/", "opening_hours": "Mo-Th 06:00-22:00; Fr-Sa 06:00-23:00; Su 06:00-22:00", "brand": "Shoney's", "brand:wikidata": "Q7500392", "nsi_id": "shoneys-96af40"}, "geometry": {"type": "Point", "coordinates": [-89.833377, 33.7836966]}},
{"type": "Feature", "id": "t7lcwycGyB4wn8H8syhr1TB7Ra8=", "properties": {"ref": "3002", "@spider": "shoneys", "amenity": "restaurant", "cuisine": "american", "addr:full": "814 South Cumberland St, Lebanon, TN 37087", "name": "Shoney&#8217;s Lebanon", "phone": "(615)-444-2447", "website": "https://www.shoneys.com/locations/shoneys-lebanon/", "opening_hours": "Mo-Su 06:00-21:00", "brand": "Shoney's", "brand:wikidata": "Q7500392", "nsi_id": "shoneys-96af40"}, "geometry": {"type": "Point", "coordinates": [-86.3006046, 36.1851128]}},
{"type": "Feature", "id": "AVQsLIUZh08bBAZMRssb9UJjleM=", "properties": {"ref": "3001", "@spider": "shoneys", "amenity": "restaurant", "cuisine": "american", "addr:full": "1017 Hwy 21 South, Oxford, AL 36203", "name": "Shoney&#8217;s Oxford", "phone": "256-831-7580", "website": "https://www.shoneys.com/locations/shoneys-oxford/", "opening_hours": "Mo-Th 06:00-21:00; Fr-Sa 06:00-23:00; Su 06:00-21:00", "brand": "Shoney's", "brand:wikidata": "Q7500392", "nsi_id": "shoneys-96af40"}, "geometry": {"type": "Point", "coordinates": [-85.8307275, 33.6064757]}},
{"type": "Feature", "id": "YxP5WsTvL7iPgl9Sg-qDmK1KdPs=", "properties": {"ref": "3000", "@spider": "shoneys", "amenity": "restaurant", "cuisine": "american", "addr:full": "950 Lake Mitchell Rd, Clanton, AL 35045, USA", "name": "Shoney&#8217;s Clanton", "phone": "205-755-8630", "website": "https://www.shoneys.com/locations/shoneys-clanton/", "opening_hours": "Mo-Th 06:00-21:00; Fr-Sa 05:00-22:00; Su 06:00-21:00", "brand": "Shoney's", "brand:wikidata": "Q7500392", "nsi_id": "shoneys-96af40"}, "geometry": {"type": "Point", "coordinates": [-86.5964092, 32.8441023]}},
{"type": "Feature", "id": "EZiCy_N5VefOb0ejpJRGPk4xXxo=", "properties": {"ref": "2999", "@spider": "shoneys", "amenity": "restaurant", "cuisine": "american", "addr:full": "202 East Meighan Blvd, Gadsden, AL 35903", "name": "Shoney&#8217;s Gadsden", "phone": "256-543-7098", "website": "https://www.shoneys.com/locations/shoneys-gadsden/", "opening_hours": "Mo 07:00-15:00; Tu-Th 07:00-20:00; Fr-Sa 07:00-21:00; Su 07:00-18:00", "brand": "Shoney's", "brand:wikidata": "Q7500392", "nsi_id": "shoneys-96af40"}, "geometry": {"type": "Point", "coordinates": [-85.9921026, 34.0109181]}},
{"type": "Feature", "id": "StnRL9mCSxQfxGTDdjrFTvox9bU=", "properties": {"ref": "2998", "@spider": "shoneys", "amenity": "restaurant", "cuisine": "american", "addr:full": "2615 Florence Blvd, Florence, AL 35630", "name": "Shoney&#8217;s Florence", "phone": "256-764-8898", "website": "https://www.shoneys.com/locations/shoneys-florence-2/", "opening_hours": "Mo-Th 06:00-22:00; Fr-Sa 06:00-23:00; Su 06:00-22:00", "brand": "Shoney's", "brand:wikidata": "Q7500392", "nsi_id": "shoneys-96af40"}, "geometry": {"type": "Point", "coordinates": [-87.6343227, 34.8298152]}},
{"type": "Feature", "id": "QFuCRnZnzFUdxYJYXqnfb2DpH5Y=", "properties": {"ref": "2997", "@spider": "shoneys", "amenity": "restaurant", "cuisine": "american", "addr:full": "431 N Ellington Pkwy, Lewisburg, TN 37091", "name": "Shoney&#8217;s Lewisburg", "phone": "931-359-4858", "website": "https://www.shoneys.com/locations/shoneys-lewisburg-2/", "opening_hours": "Tu-Th 07:00-21:00; Fr 07:00-22:00; Sa-Su 07:00-16:00", "brand": "Shoney's", "brand:wikidata": "Q7500392", "nsi_id": "shoneys-96af40"}, "geometry": {"type": "Point", "coordinates": [-86.7791874, 35.4495613]}},
{"type": "Feature", "id": "wEPSa4VjR7b_gSZlmhkLnoW6iHg=", "properties": {"ref": "2996", "@spider": "shoneys", "amenity": "restaurant", "cuisine": "american", "addr:full": "100 Calvary Dr, Glasgow, KY 42141", "name": "Shoney&#8217;s Glasgow", "phone": "270-651-8932", "website": "https://www.shoneys.com/locations/shoneys-glasgow/", "opening_hours": "Mo-Su 06:00-21:00", "brand": "Shoney's", "brand:wikidata": "Q7500392", "nsi_id": "shoneys-96af40"}, "geometry": {"type": "Point", "coordinates": [-85.9345428, 36.9853747]}},
{"type": "Feature", "id": "640XafIqhjHwc1zvJAnhbKJ4trA=", "properties": {"ref": "2995", "@spider": "shoneys", "amenity": "restaurant", "cuisine": "american", "addr:full": "120 Malin Dr, Wytheville, VA 24382", "name": "Shoney&#8217;s Wytheville", "phone": "276-228-5667", "website": "https://www.shoneys.com/locations/shoneys-wytheville/", "opening_hours": "Mo-Su 07:00-21:00", "brand": "Shoney's", "brand:wikidata": "Q7500392", "nsi_id": "shoneys-96af40"}, "geometry": {"type": "Point", "coordinates": [-81.0573559, 36.9473174]}},
{"type": "Feature", "id": "CSgfctYrmv6bHhLAmQdg9Z8r94U=", "properties": {"ref": "2994", "@spider": "shoneys", "amenity": "restaurant", "cuisine": "american", "addr:full": "5616 Canton Hwy, Cartersville, GA 30121, USA", "name": "Shoney&#8217;s Cartersville", "phone": "770-382-7911", "website": "https://www.shoneys.com/locations/shoneys-cartersville/", "opening_hours": "Mo-Th 07:00-20:00; Fr-Sa 07:00-21:00; Su 07:00-20:00", "brand": "Shoney's", "brand:wikidata": "Q7500392", "nsi_id": "shoneys-96af40"}, "geometry": {"type": "Point", "coordinates": [-84.76668459999999, 34.2041077]}},
{"type": "Feature", "id": "H_dowStPypMaxnFpPuvuvaLefD0=", "properties": {"ref": "2993", "@spider": "shoneys", "amenity": "restaurant", "cuisine": "american", "addr:full": "120 Sharon Dr, Dandridge, TN 37725", "name": "Shoney&#8217;s Dandridge", "phone": "865-397-6444", "website": "https://www.shoneys.com/locations/shoneys-dandridge/", "opening_hours": "Mo-Th 07:00-21:00; Fr-Sa 07:00-22:00; Su 07:00-21:00", "brand": "Shoney's", "brand:wikidata": "Q7500392", "nsi_id": "shoneys-96af40"}, "geometry": {"type": "Point", "coordinates": [-83.4414713, 36.0368081]}},
{"type": "Feature", "id": "sQYVhWVLLcTzUslyUNl-oFu7_mQ=", "properties": {"ref": "2992", "@spider": "shoneys", "amenity": "restaurant", "cuisine": "american", "addr:full": "2120 N Roan St, Johnson City, TN 37601", "name": "Shoney&#8217;s Johnson City", "phone": "423-282-2371", "website": "https://www.shoneys.com/locations/shoneys-johnson-city/", "opening_hours": "Mo-Su 06:00-21:00", "brand": "Shoney's", "brand:wikidata": "Q7500392", "nsi_id": "shoneys-96af40"}, "geometry": {"type": "Point", "coordinates": [-82.3774329, 36.3437813]}},
{"type": "Feature", "id": "jirzbutBYm72_VgrSoaUPcE-_yE=", "properties": {"ref": "2991", "@spider": "shoneys", "amenity": "restaurant", "cuisine": "american", "addr:full": "2101 W Lucas St, Florence, SC 29501", "name": "Shoney&#8217;s Florence", "phone": "843-679-5935", "website": "https://www.shoneys.com/locations/shoneys-florence/", "opening_hours": "Mo-We 07:00-15:00; Th 07:00-20:00; Fr 07:00-15:00; Sa-Su 07:00-16:00", "brand": "Shoney's", "brand:wikidata": "Q7500392", "nsi_id": "shoneys-96af40"}, "geometry": {"type": "Point", "coordinates": [-79.8061025, 34.2339828]}},
{"type": "Feature", "id": "Sn6UtOsF05O8YLA5cPYMdeHRpWc=", "properties": {"ref": "2990", "@spider": "shoneys", "amenity": "restaurant", "cuisine": "american", "addr:full": "1490 Chestnut St, Orangeburg, SC 29115", "name": "Shoney&#8217;s Orangeburg", "phone": "803-533-1737", "website": "https://www.shoneys.com/locations/shoneys-orangeburg/", "opening_hours": "Mo-Su 07:00-20:00", "brand": "Shoney's", "brand:wikidata": "Q7500392", "nsi_id": "shoneys-96af40"}, "geometry": {"type": "Point", "coordinates": [-80.8660966, 33.5153995]}},
{"type": "Feature", "id": "R7ZqaU74u9NUjhem4dG1CnwqyXU=", "properties": {"ref": "2989", "@spider": "shoneys", "amenity": "restaurant", "cuisine": "american", "addr:full": "5310 Oaklawn Blvd, Hopewell, VA 23860", "name": "Shoney&#8217;s Hopewell", "phone": "804-458-1237", "website": "https://www.shoneys.com/locations/shoneys-hopewell/", "opening_hours": "Mo-Th 07:00-20:00; Fr-Sa 07:00-21:00; Su 07:00-20:00", "brand": "Shoney's", "brand:wikidata": "Q7500392", "nsi_id": "shoneys-96af40"}, "geometry": {"type": "Point", "coordinates": [-77.3288937, 37.2593214]}},
{"type": "Feature", "id": "yuRbBTBp9-K8nV8ZCp50CXxbz5Y=", "properties": {"ref": "2987", "@spider": "shoneys", "amenity": "restaurant", "cuisine": "american", "addr:full": "323 Harold G Clarke Pkwy, Forsyth, GA 31029", "name": "Shoney&#8217;s Forsyth", "phone": "478-994-1314", "website": "https://www.shoneys.com/locations/shoneys-forsyth/", "opening_hours": "Mo-Su 07:00-20:00", "brand": "Shoney's", "brand:wikidata": "Q7500392", "nsi_id": "shoneys-96af40"}, "geometry": {"type": "Point", "coordinates": [-83.9138342, 33.0272228]}},
{"type": "Feature", "id": "C1OJaLQaH9kLTSuxc0NbcTWyM3g=", "properties": {"ref": "2986", "@spider": "shoneys", "amenity": "restaurant", "cuisine": "american", "addr:full": "2124 North Locust, Lawrenceburg, TN 38464", "name": "Shoney&#8217;s Lawrenceburg", "phone": "931-762-8837", "website": "https://www.shoneys.com/locations/shoneys-lawrenceburg/", "opening_hours": "Mo-Su 06:00-21:00", "brand": "Shoney's", "brand:wikidata": "Q7500392", "nsi_id": "shoneys-96af40"}, "geometry": {"type": "Point", "coordinates": [-87.3210034, 35.2720565]}},
{"type": "Feature", "id": "GEm662zz6AYDamUX-Y42zP90exo=", "properties": {"ref": "2985", "@spider": "shoneys", "amenity": "restaurant", "cuisine": "american", "addr:full": "1177 Sniders Highway, Walterboro, SC 29488", "name": "Shoney&#8217;s Walterboro", "phone": "843-538-2040", "website": "https://www.shoneys.com/locations/shoneys-walterboro/", "opening_hours": "Mo-Su 07:00-21:00", "brand": "Shoney's", "brand:wikidata": "Q7500392", "nsi_id": "shoneys-96af40"}, "geometry": {"type": "Point", "coordinates": [-80.7115019, 32.8798511]}},
{"type": "Feature", "id": "i0z7YSRmkV0rU2_Nxrae5oDgNQY=", "properties": {"ref": "2984", "@spider": "shoneys", "amenity": "restaurant", "cuisine": "american", "addr:full": "7335 Garners Ferry Rd, Columbia, SC 29209", "name": "Shoney&#8217;s Columbia", "phone": "803-776-3700", "website": "https://www.shoneys.com/locations/shoneys-columbia/", "opening_hours": "Mo-Su 07:00-20:00", "brand": "Shoney's", "brand:wikidata": "Q7500392", "nsi_id": "shoneys-96af40"}, "geometry": {"type": "Point", "coordinates": [-80.9520124, 33.9703658]}},
{"type": "Feature", "id": "gQR7q1tgkZOlhGPfH-ANxgs3P50=", "properties": {"ref": "2983", "@spider": "shoneys", "amenity": "restaurant", "cuisine": "american", "addr:full": "4032 North Broadway, Knoxville, TN 37917", "name": "Shoney&#8217;s Knoxville", "phone": "865-687-5432", "website": "https://www.shoneys.com/locations/shoneys-knoxville-4/", "opening_hours": "Mo-Th 07:00-21:00; Fr-Sa 07:00-22:00; Su 07:00-21:00", "brand": "Shoney's", "brand:wikidata": "Q7500392", "nsi_id": "shoneys-96af40"}, "geometry": {"type": "Point", "coordinates": [-83.9275883, 36.0082684]}},
{"type": "Feature", "id": "S0NGQEFO9NOImFY3FWyPBKvfVBU=", "properties": {"ref": "2982", "@spider": "shoneys", "amenity": "restaurant", "cuisine": "american", "addr:full": "2042 Carrolton Pike, Hillsville, VA 24343", "name": "Shoney&#8217;s Hillsville", "phone": "276-728-4977", "website": "https://www.shoneys.com/locations/shoneys-hillsville/", "opening_hours": "Mo-Su 07:00-21:00", "brand": "Shoney's", "brand:wikidata": "Q7500392", "nsi_id": "shoneys-96af40"}, "geometry": {"type": "Point", "coordinates": [-80.7813048, 36.7442118]}},
{"type": "Feature", "id": "AeAuTMFawblSBDFIrwa0eSZh5qo=", "properties": {"ref": "2981", "@spider": "shoneys", "amenity": "restaurant", "cuisine": "american", "addr:full": "2673 Lee Highway, Troutville, VA 24175", "name": "Shoney&#8217;s Troutville", "phone": "540-992-6400", "website": "https://www.shoneys.com/locations/shoneys-troutville/", "opening_hours": "Mo-Th 07:00-21:00; Fr-Sa 07:00-22:00; Su 07:00-21:00", "brand": "Shoney's", "brand:wikidata": "Q7500392", "nsi_id": "shoneys-96af40"}, "geometry": {"type": "Point", "coordinates": [-79.9056909, 37.3853689]}},
{"type": "Feature", "id": "II004jzuAKfTguoiCCqXXr49ivI=", "properties": {"ref": "2980", "@spider": "shoneys", "amenity": "restaurant", "cuisine": "american", "addr:full": "4020 Rutledge Pike, Knoxville, TN 37914", "name": "Shoney&#8217;s Knoxville", "phone": "865-525-5381", "website": "https://www.shoneys.com/locations/shoneys-knoxville-3/", "opening_hours": "Mo-Th 07:00-21:00; Fr-Sa 07:00-22:00; Su 07:00-21:00", "brand": "Shoney's", "brand:wikidata": "Q7500392", "nsi_id": "shoneys-96af40"}, "geometry": {"type": "Point", "coordinates": [-83.8763439, 36.0036908]}},
{"type": "Feature", "id": "cFJU7tBsOVxZ98kEN583OCDfz24=", "properties": {"ref": "2979", "@spider": "shoneys", "amenity": "restaurant", "cuisine": "american", "addr:full": "2742 Paxville Highway, Manning, SC 29102", "name": "Shoney&#8217;s Manning", "phone": "803-696-4481", "website": "https://www.shoneys.com/locations/shoneys-manning/", "opening_hours": "Mo-Th 06:00-21:00; Fr-Sa 06:00-22:00; Su 06:00-21:00", "brand": "Shoney's", "brand:wikidata": "Q7500392", "nsi_id": "shoneys-96af40"}, "geometry": {"type": "Point", "coordinates": [-80.2403151, 33.7014174]}},
{"type": "Feature", "id": "-150UHmuPHUG3oZWA-Y1BOJiU1w=", "properties": {"ref": "2978", "@spider": "shoneys", "amenity": "restaurant", "cuisine": "american", "addr:full": "480 Cummings St, Abingdon, VA 24210", "name": "Shoney&#8217;s Abingdon", "phone": "276-628-2555", "website": "https://www.shoneys.com/locations/shoneys-abingdon/", "opening_hours": "Mo-Su 07:00-21:00", "brand": "Shoney's", "brand:wikidata": "Q7500392", "nsi_id": "shoneys-96af40"}, "geometry": {"type": "Point", "coordinates": [-81.9762381, 36.7047153]}},
{"type": "Feature", "id": "ZGhcF-RMN6TNfEICy9VPSiee3h8=", "properties": {"ref": "2977", "@spider": "shoneys", "amenity": "restaurant", "cuisine": "american", "addr:full": "2066 Lee Highway, Bristol, VA 24201", "name": "Shoney&#8217;s Bristol", "phone": "276-466-3360", "website": "https://www.shoneys.com/locations/shoneys-bristol/", "opening_hours": "Mo-Su 07:00-21:00", "brand": "Shoney's", "brand:wikidata": "Q7500392", "nsi_id": "shoneys-96af40"}, "geometry": {"type": "Point", "coordinates": [-82.1624657, 36.6254153]}},
{"type": "Feature", "id": "uzo_qkUKuZtg-Wsvv1qb5VZBMUU=", "properties": {"ref": "2976", "@spider": "shoneys", "amenity": "restaurant", "cuisine": "american", "addr:full": "10093 Brook Rd, Glen Allen, VA 23060", "name": "Shoney&#8217;s Glen Allen", "phone": "804-261-9307", "website": "https://www.shoneys.com/locations/shoneys-glen-allen/", "opening_hours": "Mo-Th 07:00-20:00; Fr-Sa 07:00-21:00; Su 07:00-20:00", "brand": "Shoney's", "brand:wikidata": "Q7500392", "nsi_id": "shoneys-96af40"}, "geometry": {"type": "Point", "coordinates": [-77.4622866, 37.673251]}},
{"type": "Feature", "id": "R-lEiGqRuOAkScavj3DQvBQ0dPw=", "properties": {"ref": "2975", "@spider": "shoneys", "amenity": "restaurant", "cuisine": "american", "addr:full": "2227 Woodward Ave, Muscle Shoals, AL 35661", "name": "Shoney&#8217;s Muscle Shoals", "phone": "256-381-6022", "website": "https://www.shoneys.com/locations/shoneys-muscle-shoals/", "opening_hours": "Mo-Su 07:00-21:00", "brand": "Shoney's", "brand:wikidata": "Q7500392", "nsi_id": "shoneys-96af40"}, "geometry": {"type": "Point", "coordinates": [-87.6694699, 34.7404589]}},
{"type": "Feature", "id": "a1cms49BHRACWFMxD3J6FVkSlKY=", "properties": {"ref": "2974", "@spider": "shoneys", "amenity": "restaurant", "cuisine": "american", "addr:full": "1607 Tappahannock Blvd, Tappahannock, VA 25560", "name": "Shoney&#8217;s Tappahannock", "phone": "804-443-5306", "website": "https://www.shoneys.com/locations/shoneys-tappahannock/", "opening_hours": "Mo-Th 07:00-20:00; Fr-Sa 07:00-21:00; Su 07:00-20:00", "brand": "Shoney's", "brand:wikidata": "Q7500392", "nsi_id": "shoneys-96af40"}, "geometry": {"type": "Point", "coordinates": [-76.8672766, 37.9037682]}},
{"type": "Feature", "id": "9KgPTsdp6wbJGOK4JYzNqgueiho=", "properties": {"ref": "2973", "@spider": "shoneys", "amenity": "restaurant", "cuisine": "american", "addr:full": "8415 Broad St West, Richmond, VA 23229", "name": "Shoney&#8217;s Richmond", "phone": "804-747-1655", "website": "https://www.shoneys.com/locations/shoneys-richmond-2/", "opening_hours": "Mo-Th 07:00-20:00; Fr-Sa 07:00-21:00; Su 07:00-20:00", "brand": "Shoney's", "brand:wikidata": "Q7500392", "nsi_id": "shoneys-96af40"}, "geometry": {"type": "Point", "coordinates": [-77.5414972, 37.6318938]}},
{"type": "Feature", "id": "FMfJtt2HqRI3_8XOlOix8-7BRYk=", "properties": {"ref": "2972", "@spider": "shoneys", "amenity": "restaurant", "cuisine": "american", "addr:full": "2505 Lyons Center Rd, Vidalia, GA 30474", "name": "Shoney&#8217;s Vidalia", "phone": "912-537-0922", "website": "https://www.shoneys.com/locations/shoneys-vidalia/", "opening_hours": "Mo-Su 06:00-22:00", "brand": "Shoney's", "brand:wikidata": "Q7500392", "nsi_id": "shoneys-96af40"}, "geometry": {"type": "Point", "coordinates": [-82.3790427, 32.20651]}},
{"type": "Feature", "id": "lh0BQWiC34kWCxfgT1tSXR8oyfw=", "properties": {"ref": "2971", "@spider": "shoneys", "amenity": "restaurant", "cuisine": "american", "addr:full": "307 Long Hollow Pike, Goodlettsville, TN 37072", "name": "Shoney&#8217;s Goodlettsville", "phone": "615-851-6929", "website": "https://www.shoneys.com/locations/shoneys-goodlettsville/", "opening_hours": "Mo-Su 06:00-21:00", "brand": "Shoney's", "brand:wikidata": "Q7500392", "nsi_id": "shoneys-96af40"}, "geometry": {"type": "Point", "coordinates": [-86.7025709, 36.3256057]}},
{"type": "Feature", "id": "6IcQaSWKvpufkXx8oB2jaWPA-UI=", "properties": {"ref": "2970", "@spider": "shoneys", "amenity": "restaurant", "cuisine": "american", "addr:full": "1402 U.S. 72 E, Athens, AL 35611", "name": "Shoney&#8217;s Athens", "phone": "256-233-2330", "website": "https://www.shoneys.com/locations/shoneys-athens/", "opening_hours": "Mo-Th 06:00-22:00; Fr-Sa 06:00-23:00; Su 06:00-22:00", "brand": "Shoney's", "brand:wikidata": "Q7500392", "nsi_id": "shoneys-96af40"}, "geometry": {"type": "Point", "coordinates": [-86.9435942, 34.7833543]}},
{"type": "Feature", "id": "p8XTiLJr2mwozKPktrUZK_-RFWA=", "properties": {"ref": "2969", "@spider": "shoneys", "amenity": "restaurant", "cuisine": "american", "addr:full": "131 Woodward Dr., Sutton, WV 26601", "name": "Shoney&#8217;s Flatwoods", "phone": "304-765-5357", "website": "https://www.shoneys.com/locations/shoneys-flatwoods/", "opening_hours": "Mo 08:00-20:00; We 08:00-20:00; Th 07:00-20:00; Fr-Sa 07:00-21:00; Su 07:00-20:00", "brand": "Shoney's", "brand:wikidata": "Q7500392", "nsi_id": "shoneys-96af40"}, "geometry": {"type": "Point", "coordinates": [-80.66741, 38.7039859]}},
{"type": "Feature", "id": "o4vLifMk6lzzbwF7vQR0VFPP9nw=", "properties": {"ref": "2966", "@spider": "shoneys", "amenity": "restaurant", "cuisine": "american", "addr:full": "881 Commercial Pkwy, Dover, OH 44622", "name": "Shoney&#8217;s Dover", "phone": "330-343-6043", "website": "https://www.shoneys.com/locations/shoneys-dover/", "opening_hours": "Mo-Su 06:00-16:00", "brand": "Shoney's", "brand:wikidata": "Q7500392", "nsi_id": "shoneys-96af40"}, "geometry": {"type": "Point", "coordinates": [-81.4921201, 40.5234729]}},
{"type": "Feature", "id": "knRpYaVzKaYNKpLpFAOm7YEuJoI=", "properties": {"ref": "2965", "@spider": "shoneys", "amenity": "restaurant", "cuisine": "american", "addr:full": "4148 US 127, Crossville, TN 38571", "name": "Shoney&#8217;s Crossville", "phone": "931-456-8345", "website": "https://www.shoneys.com/locations/shoneys-crossville/", "opening_hours": "Mo-Th 07:00-20:00; Fr-Sa 07:00-21:00; Su 07:00-20:00", "brand": "Shoney's", "brand:wikidata": "Q7500392", "nsi_id": "shoneys-96af40"}, "geometry": {"type": "Point", "coordinates": [-85.0465673, 36.0042691]}},
{"type": "Feature", "id": "SZ3cVIMwZmCBu6CG741jvlt7ZVo=", "properties": {"ref": "2964", "@spider": "shoneys", "amenity": "restaurant", "cuisine": "american", "addr:full": "2700 East Dupont Ave, Belle, WV 25015", "name": "Shoney&#8217;s Belle", "phone": "304-949-4475", "website": "https://www.shoneys.com/locations/shoneys-belle/", "opening_hours": "Mo 08:00-21:00; We-Su 08:00-21:00", "brand": "Shoney's", "brand:wikidata": "Q7500392", "nsi_id": "shoneys-96af40"}, "geometry": {"type": "Point", "coordinates": [-81.5052287, 38.2038232]}},
{"type": "Feature", "id": "QChwfs5QvSXYZdV6rADm_17eTnk=", "properties": {"ref": "2963", "@spider": "shoneys", "amenity": "restaurant", "cuisine": "american", "addr:full": "25 Indiana St, Jasper, IN 47546", "name": "Shoney&#8217;s Jasper", "phone": "812-481-1466", "website": "https://www.shoneys.com/locations/shoneys-jasper/", "opening_hours": "We-Fr 08:00-15:00; Sa-Su 08:00-16:00", "brand": "Shoney's", "brand:wikidata": "Q7500392", "nsi_id": "shoneys-96af40"}, "geometry": {"type": "Point", "coordinates": [-86.9435545, 38.3866592]}},
{"type": "Feature", "id": "ZunGmAkvSzRTMlAD6jySTF62XzQ=", "properties": {"ref": "2962", "@spider": "shoneys", "amenity": "restaurant", "cuisine": "american", "addr:full": "3313 Pemberton Square Blvd, Vicksburg, MS 39180", "name": "Shoney&#8217;s Vicksburg", "phone": "601-638-1211", "website": "https://www.shoneys.com/locations/shoneys-vicksburg/", "opening_hours": "Mo-Th 06:00-22:00; Fr-Sa 06:00-23:00; Su 06:00-22:00", "brand": "Shoney's", "brand:wikidata": "Q7500392", "nsi_id": "shoneys-96af40"}, "geometry": {"type": "Point", "coordinates": [-90.8811787, 32.3148776]}},
{"type": "Feature", "id": "gSKnmHhC3IF05-D-CbgNmZKgIqc=", "properties": {"ref": "2961", "@spider": "shoneys", "amenity": "restaurant", "cuisine": "american", "addr:full": "901 N. Industrial Dr, Summersville, WV 26651", "name": "Shoney&#8217;s  Summersville", "phone": "304-872-6785", "website": "https://www.shoneys.com/locations/shoneys-summersville/", "opening_hours": "Mo 08:00-20:00; We 08:00-20:00; Th 07:00-20:00; Fr-Sa 07:00-21:00; Su 07:00-20:00", "brand": "Shoney's", "brand:wikidata": "Q7500392", "nsi_id": "shoneys-96af40"}, "geometry": {"type": "Point", "coordinates": [-80.8347942, 38.3066609]}},
{"type": "Feature", "id": "9XdxlBR1oil9vUcxHf7ymkEUga8=", "properties": {"ref": "2960", "@spider": "shoneys", "amenity": "restaurant", "cuisine": "american", "addr:full": "Hwy 219 N & Coleman Dr, Lewisburg, WV 24901", "name": "Shoney&#8217;s Lewisburg", "phone": "304-645-7792", "website": "https://www.shoneys.com/locations/shoneys-lewisburg/", "opening_hours": "Mo 07:00-20:00; We-Th 07:00-20:00; Fr 07:00-21:00; Sa-Su 07:00-20:00", "brand": "Shoney's", "brand:wikidata": "Q7500392", "nsi_id": "shoneys-96af40"}, "geometry": {"type": "Point", "coordinates": [-80.4316627, 37.8152321]}},
{"type": "Feature", "id": "a6_aLUbIntVAv5YJCq5Yzv7svfQ=", "properties": {"ref": "2958", "@spider": "shoneys", "amenity": "restaurant", "cuisine": "american", "addr:full": "5900 Sugarloaf Parkway, Lawrenceville, GA 30043", "name": "Shoney&#8217;s Lawrenceville", "phone": "678-847-6175", "website": "https://www.shoneys.com/locations/shoneys-lawrenceville/", "opening_hours": "Tu-Th 11:00-20:00; Fr-Sa 10:00-21:00; Su 12:00-18:00", "brand": "Shoney's", "brand:wikidata": "Q7500392", "nsi_id": "shoneys-96af40"}, "geometry": {"type": "Point", "coordinates": [-84.0830598, 33.9807877]}},
{"type": "Feature", "id": "OMEKXD2FvTNhi8k4v0mdG1rnHeM=", "properties": {"ref": "2956", "@spider": "shoneys", "amenity": "restaurant", "cuisine": "american", "addr:full": "415 West Interstate Dr, Jennings, LA 70546", "name": "Shoney&#8217;s Jennings", "phone": "337-824-6159", "website": "https://www.shoneys.com/locations/shoneys-jennings/", "opening_hours": "Mo-Su 06:00-15:00", "brand": "Shoney's", "brand:wikidata": "Q7500392", "nsi_id": "shoneys-96af40"}, "geometry": {"type": "Point", "coordinates": [-92.664645, 30.243538]}},
{"type": "Feature", "id": "nV9qgmkhphUH6v29wlJ_zxKxlpk=", "properties": {"ref": "2955", "@spider": "shoneys", "amenity": "restaurant", "cuisine": "american", "addr:full": "1046 Executive Dr, Elizabethtown, KY 42701", "name": "Shoney&#8217;s Elizabethtown", "phone": "270-765-7077", "website": "https://www.shoneys.com/locations/shoneys-elizabethtown/", "opening_hours": "Mo-Su 06:00-22:00", "brand": "Shoney's", "brand:wikidata": "Q7500392", "nsi_id": "shoneys-96af40"}, "geometry": {"type": "Point", "coordinates": [-85.83409, 37.7116542]}},
{"type": "Feature", "id": "KzOb1F0fVRbP2S_-rJyyKZpjETA=", "properties": {"ref": "2954", "@spider": "shoneys", "amenity": "restaurant", "cuisine": "american", "addr:full": "6511 Signature Dr, Louisville, KY 40213", "name": "Shoney&#8217;s Louisville", "phone": "502-969-8904", "website": "https://www.shoneys.com/locations/shoneys-louisville/", "opening_hours": "Mo-Su 07:00-15:00", "brand": "Shoney's", "brand:wikidata": "Q7500392", "nsi_id": "shoneys-96af40"}, "geometry": {"type": "Point", "coordinates": [-85.7165437, 38.1561738]}},
{"type": "Feature", "id": "AXYV3TYF8fbjjqh1ferlczs2fVc=", "properties": {"ref": "2953", "@spider": "shoneys", "amenity": "restaurant", "cuisine": "american", "addr:full": "2612 Chapman Highway, Knoxville, TN 37920", "name": "Shoney&#8217;s Knoxville", "phone": "865-573-4514", "website": "https://www.shoneys.com/locations/shoneys-knoxville/", "opening_hours": "Mo-Su 07:00-21:00", "brand": "Shoney's", "brand:wikidata": "Q7500392", "nsi_id": "shoneys-96af40"}, "geometry": {"type": "Point", "coordinates": [-83.9154839, 35.9496192]}},
{"type": "Feature", "id": "BPVvQnq24owJLOQRArzC-qreyww=", "properties": {"ref": "2952", "@spider": "shoneys", "amenity": "restaurant", "cuisine": "american", "addr:full": "3164 Parkway, Pigeon Forge, TN 37863", "name": "Shoney&#8217;s Pigeon Forge", "phone": "865-453-1806", "website": "https://www.shoneys.com/locations/shoneys-pigeon-forge/", "opening_hours": "Mo-Th 07:00-21:00; Fr-Sa 07:00-22:00; Su 07:00-21:00", "brand": "Shoney's", "brand:wikidata": "Q7500392", "nsi_id": "shoneys-96af40"}, "geometry": {"type": "Point", "coordinates": [-83.5634105, 35.7927782]}},
{"type": "Feature", "id": "U_uC9Y40jmd7wCIqr8Vdx33AYUc=", "properties": {"ref": "2951", "@spider": "shoneys", "amenity": "restaurant", "cuisine": "american", "addr:full": "339 Forks of the River Pkwy, Sevierville, TN 37862", "name": "Shoney&#8217;s Sevierville", "phone": "865-453-7106", "website": "https://www.shoneys.com/locations/shoneys-sevierville/", "opening_hours": "Mo-Th 07:00-21:00; Fr-Sa 07:00-22:00; Su 07:00-21:00", "brand": "Shoney's", "brand:wikidata": "Q7500392", "nsi_id": "shoneys-96af40"}, "geometry": {"type": "Point", "coordinates": [-83.5700506, 35.8642598]}},
{"type": "Feature", "id": "IfvofTGDx5O3bFY2Sgs2GZgS8R8=", "properties": {"ref": "2950", "@spider": "shoneys", "amenity": "restaurant", "cuisine": "american", "addr:full": "343 E Emory Rd, Powell, TN 37849", "name": "Shoney&#8217;s Powell", "phone": "865-947-5315", "website": "https://www.shoneys.com/locations/shoneys-powell/", "opening_hours": "Mo-Th 07:00-21:00; Fr-Sa 07:00-22:00; Su 07:00-21:00", "brand": "Shoney's", "brand:wikidata": "Q7500392", "nsi_id": "shoneys-96af40"}, "geometry": {"type": "Point", "coordinates": [-84.0037415, 36.0482811]}},
{"type": "Feature", "id": "c3ZH5e56wq-wD4ZzHfb1FALCWb0=", "properties": {"ref": "2949", "@spider": "shoneys", "amenity": "restaurant", "cuisine": "american", "addr:full": "204 South Illinois Ave, Oak Ridge, TN 37830", "name": "Shoney&#8217;s Oak Ridge", "phone": "865-483-1324", "website": "https://www.shoneys.com/locations/shoneys-oak-ridge/", "opening_hours": "Mo-Th 07:00-21:00; Fr-Sa 07:00-22:00; Su 07:00-21:00", "brand": "Shoney's", "brand:wikidata": "Q7500392", "nsi_id": "shoneys-96af40"}, "geometry": {"type": "Point", "coordinates": [-84.2643169, 36.0071611]}},
{"type": "Feature", "id": "YNgGZWlrA3pJp4tq95xbns_C64c=", "properties": {"ref": "2948", "@spider": "shoneys", "amenity": "restaurant", "cuisine": "american", "addr:full": "1933 W Andrew Johnson Hwy, Morristown, TN 37814", "name": "Shoney&#8217;s Morristown", "phone": "423-581-0800", "website": "https://www.shoneys.com/locations/shoneys-morristown/", "opening_hours": "Mo-Th 07:00-20:00; Fr-Sa 07:00-21:00; Su 07:00-20:00", "brand": "Shoney's", "brand:wikidata": "Q7500392", "nsi_id": "shoneys-96af40"}, "geometry": {"type": "Point", "coordinates": [-83.3207464, 36.2063407]}},
{"type": "Feature", "id": "GGsZKWjS2JDY9Zir-t-94dryRpU=", "properties": {"ref": "2947", "@spider": "shoneys", "amenity": "restaurant", "cuisine": "american", "addr:full": "1021 West Lamar Alexander, Maryville, TN 37801", "name": "Shoney&#8217;s Maryville", "phone": "865-977-4412", "website": "https://www.shoneys.com/locations/shoneys-maryville/", "opening_hours": "Mo-Th 07:00-21:00; Fr-Sa 07:00-22:00; Su 07:00-21:00", "brand": "Shoney's", "brand:wikidata": "Q7500392", "nsi_id": "shoneys-96af40"}, "geometry": {"type": "Point", "coordinates": [-83.9954283, 35.7500519]}},
{"type": "Feature", "id": "y_HDWFZ0oXpohgZ_lU-fmz_bLbE=", "properties": {"ref": "2946", "@spider": "shoneys", "amenity": "restaurant", "cuisine": "american", "addr:full": "1100 US 321, Lenoir City, TN 37771", "name": "Shoney&#8217;s Lenoir City", "phone": "865-986-5550", "website": "https://www.shoneys.com/locations/shoneys-lenoir-city/", "opening_hours": "Mo-Th 07:00-21:00; Fr-Sa 07:00-22:00; Su 07:00-21:00", "brand": "Shoney's", "brand:wikidata": "Q7500392", "nsi_id": "shoneys-96af40"}, "geometry": {"type": "Point", "coordinates": [-84.2794701, 35.8262132]}},
{"type": "Feature", "id": "wRuH-KJxnTg2ANqpQnb9H_EA_xA=", "properties": {"ref": "2945", "@spider": "shoneys", "amenity": "restaurant", "cuisine": "american", "addr:full": "116 Main St, Caryville, TN 37714", "name": "Shoney&#8217;s Caryville", "phone": "423-562-7839", "website": "https://www.shoneys.com/locations/shoneys-caryville/", "opening_hours": "Mo-Th 07:00-21:00; Fr-Sa 07:00-22:00; Su 07:00-21:00", "brand": "Shoney's", "brand:wikidata": "Q7500392", "nsi_id": "shoneys-96af40"}, "geometry": {"type": "Point", "coordinates": [-84.2227274, 36.2999806]}},
{"type": "Feature", "id": "evHv-qcJMfTvIhPNFIQuzShQQho=", "properties": {"ref": "2944", "@spider": "shoneys", "amenity": "restaurant", "cuisine": "american", "addr:full": "1235 Huntsville Hwy, Fayetteville, TN 37334", "name": "Shoney&#8217;s Fayetteville", "phone": "931-433-9222", "website": "https://www.shoneys.com/locations/shoneys-fayetteville/", "opening_hours": "Mo-Th 07:00-21:00; Fr-Sa 07:00-22:00; Su 07:00-21:00", "brand": "Shoney's", "brand:wikidata": "Q7500392", "nsi_id": "shoneys-96af40"}, "geometry": {"type": "Point", "coordinates": [-86.5695461, 35.1329762]}},
{"type": "Feature", "id": "A3QkyRz07PWkmPxheYpCRjl1VRE=", "properties": {"ref": "2941", "@spider": "shoneys", "amenity": "restaurant", "cuisine": "american", "addr:full": "12531 Jefferson Davis Hwy, Chester, VA 23831", "name": "Shoney&#8217;s Chester", "phone": "804-748-9087", "website": "https://www.shoneys.com/locations/shoneys-chester/", "opening_hours": "Mo-Su 08:00-20:00", "brand": "Shoney's", "brand:wikidata": "Q7500392", "nsi_id": "shoneys-96af40"}, "geometry": {"type": "Point", "coordinates": [-77.4143754, 37.3538797]}},
{"type": "Feature", "id": "MEHr0fFJrAyIFpHmh962QtQ6_NA=", "properties": {"ref": "2940", "@spider": "shoneys", "amenity": "restaurant", "cuisine": "american", "addr:full": "9963 Hull Street Rd, Richmond, VA 23236", "name": "Shoney&#8217;s Richmond", "phone": "804-745-4950", "website": "https://www.shoneys.com/locations/shoneys-richmond/", "opening_hours": "Mo-Th 07:00-20:00; Fr-Sa 07:00-21:00; Su 07:00-20:00", "brand": "Shoney's", "brand:wikidata": "Q7500392", "nsi_id": "shoneys-96af40"}, "geometry": {"type": "Point", "coordinates": [-77.5824384, 37.4438167]}},
{"type": "Feature", "id": "BXyUe25AYXlet3XyaGxSNt_N6kI=", "properties": {"ref": "2939", "@spider": "shoneys", "amenity": "restaurant", "cuisine": "american", "addr:full": "920 U.S. 1, Lugoff, SC 29078", "name": "Shoney&#8217;s Lugoff", "phone": "803-438-6883", "website": "https://www.shoneys.com/locations/shoneys-lugoff/", "opening_hours": "Mo-Su 08:00-19:00", "brand": "Shoney's", "brand:wikidata": "Q7500392", "nsi_id": "shoneys-96af40"}, "geometry": {"type": "Point", "coordinates": [-80.6819987, 34.2260284]}},
{"type": "Feature", "id": "18mETjeorJsni3388MT2NFl_ysU=", "properties": {"ref": "2938", "@spider": "shoneys", "amenity": "restaurant", "cuisine": "american", "addr:full": "9 Sterling Drive, Morgantown, WV 26505", "name": "Shoney&#8217;s Morgantown", "phone": "304-381-4794", "website": "https://www.shoneys.com/locations/shoneys-morgantown/", "opening_hours": "We-Su 08:00-16:00", "brand": "Shoney's", "brand:wikidata": "Q7500392", "nsi_id": "shoneys-96af40"}, "geometry": {"type": "Point", "coordinates": [-79.9305797, 39.6276321]}}]}