{"type":"FeatureCollection","features":[{"type": "Feature", "id": "g1dSLxT-mXySij1Km0y1JGY3bXY=", "properties": {"ref": "002", "@spider": "shopko", "addr:street_address": "2621 S Oneida St", "addr:city": "Green Bay", "addr:state": "WI", "addr:postcode": "54304", "addr:country": "US", "name": "Shopko Optical Ashwaubenon", "phone": "920-499-3511", "website": "https://www.shopko.com/eye-care/wi/green-bay/store-002/", "opening_hours": "Mo-Fr 09:00-19:00; Sa 09:00-15:00", "image": "https://www.shopko.com/wp-content/uploads/2020/01/002.jpg", "brand": "Shopko Optical", "brand:wikidata": "Q109228833"}, "geometry": {"type": "Point", "coordinates": [-88.0710664, 44.4785304]}},
{"type": "Feature", "id": "ljiSJ5hxG_3a3omSb3InPgXoxXc=", "properties": {"ref": "088", "@spider": "shopko", "addr:street_address": "2035 N Harris Blvd", "addr:city": "Layton", "addr:state": "UT", "addr:postcode": "84041", "addr:country": "US", "name": "Shopko Optical Layton", "phone": "801-547-9100", "website": "https://www.shopko.com/eye-care/ut/layton/store-088/", "opening_hours": "Mo-Fr 09:00-19:00; Sa 09:00-15:00", "image": "https://www.shopko.com/wp-content/uploads/2020/01/088.jpg", "brand": "Shopko Optical", "brand:wikidata": "Q109228833"}, "geometry": {"type": "Point", "coordinates": [-111.9819291, 41.0895667]}},
{"type": "Feature", "id": "pXxwUAJXIGNMg8csDFiyZj9i2mY=", "properties": {"ref": "079", "@spider": "shopko", "addr:street_address": "352 S 18th Ave", "addr:city": "Wausau", "addr:state": "WI", "addr:postcode": "54401", "addr:country": "US", "name": "Shopko Optical Wausau", "phone": "715-842-8040", "website": "https://www.shopko.com/eye-care/wi/wausau/store-079/", "opening_hours": "Mo-Fr 09:00-19:00; Sa 09:00-15:00", "image": "https://www.shopko.com/wp-content/uploads/2020/01/079.jpg", "brand": "Shopko Optical", "brand:wikidata": "Q109228833"}, "geometry": {"type": "Point", "coordinates": [-89.659867, 44.961491]}},
{"type": "Feature", "id": "g_Cl00uXfUuV_iONaKgTLZn3fVg=", "properties": {"ref": "075", "@spider": "shopko", "addr:street_address": "3075 N Reserve St", "addr:city": "Missoula", "addr:state": "MT", "addr:postcode": "59808", "addr:country": "US", "name": "Shopko Optical Missoula", "phone": "406-721-4646", "website": "https://www.shopko.com/eye-care/mt/missoula/store-075/", "opening_hours": "Mo-Fr 09:00-19:00; Sa 09:00-15:00", "image": "https://www.shopko.com/wp-content/uploads/2019/10/075.jpg", "brand": "Shopko Optical", "brand:wikidata": "Q109228833"}, "geometry": {"type": "Point", "coordinates": [-114.04083363571245, 46.892885596053915]}},
{"type": "Feature", "id": "cHyUu3kdvVkcUk3ZvHpKjuGRjzo=", "properties": {"ref": "073", "@spider": "shopko", "addr:street_address": "2505 Main St", "addr:city": "Union Gap", "addr:state": "WA", "addr:postcode": "98903", "addr:country": "US", "name": "Shopko Optical Union Gap", "phone": "509-248-9833", "website": "https://www.shopko.com/eye-care/wa/union-gap/store-073/", "opening_hours": "Mo-Fr 09:00-19:00; Sa 09:00-15:00", "image": "https://www.shopko.com/wp-content/uploads/2019/10/073.jpg", "brand": "Shopko Optical", "brand:wikidata": "Q109228833"}, "geometry": {"type": "Point", "coordinates": [-120.481262, 46.567805]}},
{"type": "Feature", "id": "BY8s1MKxFbUpjU1SWQwJXNNrzP4=", "properties": {"ref": "072", "@spider": "shopko", "addr:street_address": "2331 Thain Grade", "addr:city": "Lewiston", "addr:state": "ID", "addr:postcode": "83501", "addr:country": "US", "name": "Shopko Optical Lewiston", "phone": "208-746-1050", "website": "https://www.shopko.com/eye-care/id/lewiston/store-072/", "opening_hours": "Mo-Fr 09:00-19:00; Sa 09:00-15:00", "image": "https://www.shopko.com/wp-content/uploads/2020/01/072.jpg", "brand": "Shopko Optical", "brand:wikidata": "Q109228833"}, "geometry": {"type": "Point", "coordinates": [-116.9975837, 46.3972242]}},
{"type": "Feature", "id": "7Nx4gAIWDuB9nbLCFlwbvuDnDhQ=", "properties": {"ref": "069", "@spider": "shopko", "addr:street_address": "212 W Ironwood Dr", "addr:city": "Coeur d'Alene", "addr:state": "ID", "addr:postcode": "83814", "addr:country": "US", "name": "Shopko Optical Coeur d'Alene", "phone": "208-765-8078", "website": "https://www.shopko.com/eye-care/id/coeur-dalene/store-069/", "opening_hours": "Mo-Fr 09:00-19:00; Sa 09:00-15:00", "image": "https://www.shopko.com/wp-content/uploads/2020/01/069.jpg", "brand": "Shopko Optical", "brand:wikidata": "Q109228833"}, "geometry": {"type": "Point", "coordinates": [-116.788985, 47.693772]}},
{"type": "Feature", "id": "pBegjE8E5MyA1t8aX-RAtlaBVF4=", "properties": {"ref": "059", "@spider": "shopko", "addr:street_address": "1023 E Blue Earth Ave", "addr:city": "Fairmont", "addr:state": "MN", "addr:postcode": "56031", "addr:country": "US", "name": "Shopko Optical Fairmont", "phone": "507-238-9490", "website": "https://www.shopko.com/eye-care/mn/fairmont/store-059/", "opening_hours": "Mo-Fr 09:00-19:00; Sa 09:00-15:00", "image": "https://www.shopko.com/wp-content/uploads/2020/01/059.jpg", "brand": "Shopko Optical", "brand:wikidata": "Q109228833"}, "geometry": {"type": "Point", "coordinates": [-94.4478973, 43.65242]}},
{"type": "Feature", "id": "SubhbX2iljUv2IMm__DVsql8DjA=", "properties": {"ref": "056", "@spider": "shopko", "addr:street_address": "2802 S 143rd Plaza", "addr:city": "Omaha", "addr:state": "NE", "addr:postcode": "68144", "addr:country": "US", "name": "Shopko Optical Omaha West", "phone": "402-333-7462", "website": "https://www.shopko.com/eye-care/ne/omaha/store-056/", "opening_hours": "Mo-Fr 09:00-19:00; Sa 09:00-15:00", "image": "https://www.shopko.com/wp-content/uploads/2019/10/056.jpg", "brand": "Shopko Optical", "brand:wikidata": "Q109228833"}, "geometry": {"type": "Point", "coordinates": [-96.1344083, 41.232786]}},
{"type": "Feature", "id": "OfPGYGkwNE48wgN4Q1jAw8O851s=", "properties": {"ref": "055", "@spider": "shopko", "addr:street_address": "308 Division St", "addr:city": "Stevens Point", "addr:state": "WI", "addr:postcode": "54481", "addr:country": "US", "name": "Shopko Optical Stevens Point", "phone": "715-344-5355", "website": "https://www.shopko.com/eye-care/wi/stevens-point/store-055/", "opening_hours": "Mo-Fr 09:00-19:00; Sa 09:00-15:00", "image": "https://www.shopko.com/wp-content/uploads/2020/01/055.jpg", "brand": "Shopko Optical", "brand:wikidata": "Q109228833"}, "geometry": {"type": "Point", "coordinates": [-89.5757723, 44.5318228]}},
{"type": "Feature", "id": "blqB6N-vsPJvufDixXMQJxRnc8U=", "properties": {"ref": "052", "@spider": "shopko", "addr:street_address": "3570 4th St SW", "addr:city": "Mason City", "addr:state": "IA", "addr:postcode": "50401", "addr:country": "US", "name": "Shopko Optical Mason City", "phone": "641-424-8271", "website": "https://www.shopko.com/eye-care/ia/mason-city/store-052/", "opening_hours": "Mo-Fr 09:00-19:00; Sa 09:00-15:00", "image": "https://www.shopko.com/wp-content/uploads/2019/10/Store-052-Mason-City-IA-1-e1632934304531.jpg", "brand": "Shopko Optical", "brand:wikidata": "Q109228833"}, "geometry": {"type": "Point", "coordinates": [-93.2554553, 43.1491988]}},
{"type": "Feature", "id": "4G6-KRpdaavSyTFkvUSLzG7woRY=", "properties": {"ref": "051", "@spider": "shopko", "addr:street_address": "1640 Madison Ave", "addr:city": "Fort Atkinson", "addr:state": "WI", "addr:postcode": "53538", "addr:country": "US", "name": "Shopko Optical Fort Atkinson", "phone": "920-563-2171", "website": "https://www.shopko.com/eye-care/wi/fort-atkinson/store-051/", "opening_hours": "Mo-Fr 09:00-19:00; Sa 09:00-15:00", "image": "https://www.shopko.com/wp-content/uploads/2019/10/051.jpg", "brand": "Shopko Optical", "brand:wikidata": "Q109228833"}, "geometry": {"type": "Point", "coordinates": [-88.863398, 42.943083]}},
{"type": "Feature", "id": "rXBL8fAU398Z6_qFOoodhXh6Ya8=", "properties": {"ref": "050", "@spider": "shopko", "addr:street_address": "N6663 Rolling Meadows Dr", "addr:city": "Fond du Lac", "addr:state": "WI", "addr:postcode": "54937", "addr:country": "US", "name": "Shopko Optical Fond du Lac", "phone": "920-921-8290", "website": "https://www.shopko.com/eye-care/wi/fond-du-lac/store-050/", "opening_hours": "Mo-Fr 09:00-19:00; Sa 09:00-15:00", "image": "https://www.shopko.com/wp-content/uploads/2019/10/050-1.jpg", "brand": "Shopko Optical", "brand:wikidata": "Q109228833"}, "geometry": {"type": "Point", "coordinates": [-88.484816, 43.783389]}},
{"type": "Feature", "id": "MvX4YSV7Udk7Y087L5jgCAlFwRs=", "properties": {"ref": "047", "@spider": "shopko", "addr:street_address": "5100 N 27th St", "addr:city": "Lincoln", "addr:state": "NE", "addr:postcode": "68521", "addr:country": "US", "name": "Shopko Optical Lincoln North", "phone": "402-489-8897", "website": "https://www.shopko.com/eye-care/ne/lincoln/store-047/", "opening_hours": "Mo-Fr 09:00-19:00; Sa 09:00-15:00", "image": "https://www.shopko.com/wp-content/uploads/2020/01/047.jpg", "brand": "Shopko Optical", "brand:wikidata": "Q109228833"}, "geometry": {"type": "Point", "coordinates": [-96.678013, 40.8625355]}},
{"type": "Feature", "id": "4v-C5ZbXmz32alOPXzQvfIoMtbs=", "properties": {"ref": "040", "@spider": "shopko", "addr:street_address": "2927 Hamilton Blvd", "addr:city": "Sioux City", "addr:state": "IA", "addr:postcode": "51104", "addr:country": "US", "name": "Shopko Optical Sioux City", "phone": "712-255-5869", "website": "https://www.shopko.com/eye-care/ia/sioux-city/store-040/", "opening_hours": "Mo-Fr 09:00-19:00; Sa 09:00-15:00", "image": "https://www.shopko.com/wp-content/uploads/2020/01/040.jpg", "brand": "Shopko Optical", "brand:wikidata": "Q109228833"}, "geometry": {"type": "Point", "coordinates": [-96.419737, 42.5210644]}},
{"type": "Feature", "id": "rdRyFo0wKqawzXQX0ZIi33LG16E=", "properties": {"ref": "037", "@spider": "shopko", "addr:street_address": "3022 Commercial Blvd", "addr:city": "Chippewa Falls", "addr:state": "WI", "addr:postcode": "54729", "addr:country": "US", "name": "Shopko Optical Chippewa Falls", "phone": "715-726-1671", "website": "https://www.shopko.com/eye-care/wi/chippewa-falls/store-037/", "opening_hours": "Mo-Fr 09:00-19:00; Sa 09:00-15:00", "image": "https://www.shopko.com/wp-content/uploads/2019/10/037.jpg", "brand": "Shopko Optical", "brand:wikidata": "Q109228833"}, "geometry": {"type": "Point", "coordinates": [-91.4191237, 44.8867277]}},
{"type": "Feature", "id": "HdALrnkSrid5tzUgeJxxk1lKVyo=", "properties": {"ref": "281", "@spider": "shopko", "addr:street_address": "318 S Jefferson Street", "addr:city": "Wadena", "addr:state": "MN", "addr:postcode": "56482", "addr:country": "US", "name": "Shopko Optical Wadena", "phone": "218-631-3300", "website": "https://www.shopko.com/eye-care/mn/wadena/store-281/", "opening_hours": "Mo-Fr 09:00-19:00; Sa 09:00-15:00", "image": "https://www.shopko.com/wp-content/uploads/2019/12/shopko-optical-logo.png", "brand": "Shopko Optical", "brand:wikidata": "Q109228833"}, "geometry": {"type": "Point", "coordinates": [-95.13858147, 46.43878651]}},
{"type": "Feature", "id": "ZceVBKlQUB6b8w3vBXs7iuW80S4=", "properties": {"ref": "274", "@spider": "shopko", "addr:street_address": "1605 S 1st St", "addr:city": "Willmar", "addr:state": "MN", "addr:postcode": "56201", "addr:country": "US", "name": "Shopko Optical Willmar", "phone": "320-235-5853", "website": "https://www.shopko.com/eye-care/mn/willmar/store-274/", "opening_hours": "Mo-Fr 09:00-19:00; Sa 09:00-15:00", "image": "https://www.shopko.com/wp-content/uploads/2019/12/shopko-optical-logo.png", "brand": "Shopko Optical", "brand:wikidata": "Q109228833"}, "geometry": {"type": "Point", "coordinates": [-95.04018866, 45.10619319]}},
{"type": "Feature", "id": "U2je_8nsLgUbny72Ej0Qgad7KPg=", "properties": {"ref": "279", "@spider": "shopko", "addr:street_address": "3306 State Hwy 210 W", "addr:city": "Fergus Falls", "addr:state": "MN", "addr:postcode": "56537", "addr:country": "US", "name": "Shopko Optical Fergus Falls", "phone": "218-739-2236", "website": "https://www.shopko.com/eye-care/mn/fergus-falls/store-279/", "opening_hours": "Mo-Fr 09:00-19:00; Sa 09:00-15:00", "image": "https://www.shopko.com/wp-content/uploads/2019/12/shopko-optical-logo.png", "brand": "Shopko Optical", "brand:wikidata": "Q109228833"}, "geometry": {"type": "Point", "coordinates": [-96.12313, 46.28965]}},
{"type": "Feature", "id": "ZlC4yyPP9k1Lk6o8rBCmyAMenIQ=", "properties": {"ref": "271", "@spider": "shopko", "addr:street_address": "211 N Labree Ave", "addr:city": "Thief River Falls", "addr:state": "MN", "addr:postcode": "56701", "addr:country": "US", "name": "Shopko Optical Thief River Falls", "phone": "218-681-5606", "website": "https://www.shopko.com/eye-care/mn/thief-river-falls/store-271/", "opening_hours": "Mo-Fr 09:00-19:00; Sa 09:00-15:00", "image": "https://www.shopko.com/wp-content/uploads/2019/12/shopko-optical-logo.png", "brand": "Shopko Optical", "brand:wikidata": "Q109228833"}, "geometry": {"type": "Point", "coordinates": [-96.18043, 48.11855]}},
{"type": "Feature", "id": "RsTpYtndyNytGOIMqfF27c1TrD0=", "properties": {"ref": "283", "@spider": "shopko", "addr:street_address": "517 Dakota Ave", "addr:city": "Wahpeton", "addr:state": "ND", "addr:postcode": "58075", "addr:country": "US", "name": "Shopko Optical Wahpeton", "phone": "701-642-9302", "website": "https://www.shopko.com/eye-care/nd/wahpeton/store-283/", "opening_hours": "Mo-Fr 09:00-19:00; Sa 09:00-15:00", "image": "https://www.shopko.com/wp-content/uploads/2019/12/shopko-optical-logo.png", "brand": "Shopko Optical", "brand:wikidata": "Q109228833"}, "geometry": {"type": "Point", "coordinates": [-96.607934, 46.263665]}},
{"type": "Feature", "id": "hd6GJRbMiTLv81OkF31TuY0jDhI=", "properties": {"ref": "277", "@spider": "shopko", "addr:street_address": "3051 25th St S", "addr:city": "Fargo", "addr:state": "ND", "addr:postcode": "58103", "addr:country": "US", "name": "Shopko Optical Fargo", "phone": "701-234-0766", "website": "https://www.shopko.com/eye-care/nd/fargo/store-277/", "opening_hours": "Mo-Fr 09:00-19:00; Sa 09:00-15:00", "image": "https://www.shopko.com/wp-content/uploads/2019/12/shopko-optical-logo.png", "brand": "Shopko Optical", "brand:wikidata": "Q109228833"}, "geometry": {"type": "Point", "coordinates": [-96.82214, 46.83446]}},
{"type": "Feature", "id": "nGorqoY-jN69-8ltEPdAWah1VHU=", "properties": {"ref": "280", "@spider": "shopko", "addr:street_address": "2400 10th St SW #340", "addr:city": "Minot", "addr:state": "ND", "addr:postcode": "58701", "addr:country": "US", "name": "Shopko Optical Minot", "phone": "701-852-6836", "website": "https://www.shopko.com/eye-care/nd/minot/store-280/", "opening_hours": "Mo-Fr 09:00-19:00; Sa 09:00-15:00", "image": "https://www.shopko.com/wp-content/uploads/2019/12/shopko-optical-logo.png", "brand": "Shopko Optical", "brand:wikidata": "Q109228833"}, "geometry": {"type": "Point", "coordinates": [-101.311253, 48.206612]}},
{"type": "Feature", "id": "5EVly4ePc4lb-FMxgL0Tn1trObc=", "properties": {"ref": "272", "@spider": "shopko", "addr:street_address": "738 Kirkwood Mall", "addr:city": "Bismarck", "addr:state": "ND", "addr:postcode": "58504", "addr:country": "US", "name": "Shopko Optical Bismarck", "phone": "701-258-8810", "website": "https://www.shopko.com/eye-care/nd/bismarck/store-272/", "opening_hours": "Mo-Fr 09:00-19:00; Sa 09:00-15:00", "image": "https://www.shopko.com/wp-content/uploads/2019/12/shopko-optical-logo.png", "brand": "Shopko Optical", "brand:wikidata": "Q109228833"}, "geometry": {"type": "Point", "coordinates": [-100.784591, 46.797573]}},
{"type": "Feature", "id": "VXb4foUDY_zj6zMShHA2EAqrCjw=", "properties": {"ref": "284", "@spider": "shopko", "addr:street_address": "830 Washington Ave", "addr:city": "Detroit Lakes", "addr:state": "MN", "addr:postcode": "56501", "addr:country": "US", "name": "Shopko Optical Detroit Lakes", "phone": "218-847-2127", "website": "https://www.shopko.com/eye-care/mn/detroit-lakes/store-284/", "opening_hours": "Mo-Fr 09:00-19:00; Sa 09:00-15:00", "image": "https://www.shopko.com/wp-content/uploads/2019/12/shopko-optical-logo.png", "brand": "Shopko Optical", "brand:wikidata": "Q109228833"}, "geometry": {"type": "Point", "coordinates": [-95.845527, 46.818139]}},
{"type": "Feature", "id": "I2B9ZpO8oCSns9DZOgftApMyVaA=", "properties": {"ref": "285", "@spider": "shopko", "addr:street_address": "512 Atlantic Ave", "addr:city": "Morris", "addr:state": "MN", "addr:postcode": "56267", "addr:country": "US", "name": "Shopko Optical Morris", "phone": "320-589-1300", "website": "https://www.shopko.com/eye-care/mn/morris/store-285/", "opening_hours": "Mo-Fr 09:00-19:00; Sa 09:00-15:00", "image": "https://www.shopko.com/wp-content/uploads/2019/12/shopko-optical-logo.png", "brand": "Shopko Optical", "brand:wikidata": "Q109228833"}, "geometry": {"type": "Point", "coordinates": [-95.914222, 45.586509]}},
{"type": "Feature", "id": "BVgxzXAHkR1X3tPnIDazYxuxdCQ=", "properties": {"ref": "276", "@spider": "shopko", "addr:street_address": "1060 MN-15", "addr:city": "Hutchinson", "addr:state": "MN", "addr:postcode": "55350", "addr:country": "US", "name": "Shopko Optical Hutchinson", "phone": "320-587-2370", "website": "https://www.shopko.com/eye-care/mn/hutchinson/store-276/", "opening_hours": "Mo-Fr 09:00-19:00; Sa 09:00-15:00", "image": "https://www.shopko.com/wp-content/uploads/2019/12/shopko-optical-logo.png", "brand": "Shopko Optical", "brand:wikidata": "Q109228833"}, "geometry": {"type": "Point", "coordinates": [-94.37899, 44.87622]}},
{"type": "Feature", "id": "rJawY1ZjqOGYJ0gaLLKVcupN7nU=", "properties": {"ref": "275", "@spider": "shopko", "addr:street_address": "205 16th St NE", "addr:city": "Little Falls", "addr:state": "MN", "addr:postcode": "56345", "addr:country": "US", "name": "Shopko Optical Little Falls", "phone": "320-632-9201", "website": "https://www.shopko.com/eye-care/mn/little-falls/store-275/", "opening_hours": "Mo-Fr 09:00-19:00; Sa 09:00-15:00", "image": "https://www.shopko.com/wp-content/uploads/2019/12/shopko-optical-logo.png", "brand": "Shopko Optical", "brand:wikidata": "Q109228833"}, "geometry": {"type": "Point", "coordinates": [-94.33804, 45.97684]}},
{"type": "Feature", "id": "7peWv-GdGs6e3dL5vHEmfm0oaR0=", "properties": {"ref": "273", "@spider": "shopko", "addr:street_address": "3015 MN-29", "addr:city": "Alexandria", "addr:state": "MN", "addr:postcode": "56308", "addr:country": "US", "name": "Shopko Optical Alexandria", "phone": "320-762-8104", "website": "https://www.shopko.com/eye-care/mn/alexandria/store-273/", "opening_hours": "Mo-Fr 09:00-19:00; Sa 09:00-15:00", "image": "https://www.shopko.com/wp-content/uploads/2019/12/shopko-optical-logo.png", "brand": "Shopko Optical", "brand:wikidata": "Q109228833"}, "geometry": {"type": "Point", "coordinates": [-95.3901, 45.85222]}},
{"type": "Feature", "id": "_E7yjjlTsFvzCjd1D52cn03qvjw=", "properties": {"ref": "282", "@spider": "shopko", "addr:street_address": "1416 South 12th Ave", "addr:city": "Virginia", "addr:state": "MN", "addr:postcode": "55792", "addr:country": "US", "name": "Shopko Optical Virginia", "phone": "218-749-1200", "website": "https://www.shopko.com/eye-care/mn/virginia/store-282/", "opening_hours": "Mo-Fr 09:00-19:00; Sa 09:00-15:00", "image": "https://www.shopko.com/wp-content/uploads/2019/12/shopko-optical-logo.png", "brand": "Shopko Optical", "brand:wikidata": "Q109228833"}, "geometry": {"type": "Point", "coordinates": [-92.55187, 47.51172]}},
{"type": "Feature", "id": "bLniG1YJqUPS4qiM0W9eRb0liS4=", "properties": {"ref": "289", "@spider": "shopko", "addr:street_address": "6935 75th St.", "addr:city": "Pleasant Prairie", "addr:state": "WI", "addr:postcode": "53142", "addr:country": "US", "name": "Shopko Optical Pleasant Prairie", "phone": "262-445-4899", "website": "https://www.shopko.com/eye-care/wi/pleasant-prairie/store-289/", "opening_hours": "Mo-Fr 09:00-19:00; Sa 09:00-15:00", "image": "https://www.shopko.com/wp-content/uploads/2022/10/Store-289-Kenosha-WI-scaled.jpg", "brand": "Shopko Optical", "brand:wikidata": "Q109228833"}, "geometry": {"type": "Point", "coordinates": [-87.89044, 42.56619]}},
{"type": "Feature", "id": "0fqzc7Jgj1ZNdqJwF7fXX4H1bAg=", "properties": {"ref": "270", "@spider": "shopko", "addr:street_address": "2824 W Division St", "addr:city": "St. Cloud", "addr:state": "MN", "addr:postcode": "56301", "addr:country": "US", "name": "Shopko Optical St. Cloud - at Division Place (formerly Midwest Vision)", "phone": "320-253-2020", "website": "https://www.shopko.com/eye-care/mn/st-cloud/store-270/", "opening_hours": "Mo-Fr 09:00-19:00; Sa 09:00-15:00", "image": "https://www.shopko.com/wp-content/uploads/2019/12/shopko-optical-logo.png", "brand": "Shopko Optical", "brand:wikidata": "Q109228833"}, "geometry": {"type": "Point", "coordinates": [-94.19202, 45.551775]}},
{"type": "Feature", "id": "5EOCOTJ-KRfycuMb_NX0ahpCbdQ=", "properties": {"ref": "268", "@spider": "shopko", "addr:street_address": "117 N. 1st St #5", "addr:city": "Montevideo", "addr:state": "MN", "addr:postcode": "56265", "addr:country": "US", "name": "Shopko Optical Montevideo", "phone": "320-269-2214", "website": "https://www.shopko.com/eye-care/mn/montevideo/store-268/", "opening_hours": "Mo-Fr 09:00-19:00; Sa 09:00-15:00", "image": "https://www.shopko.com/wp-content/uploads/2019/12/shopko-optical-logo.png", "brand": "Shopko Optical", "brand:wikidata": "Q109228833"}, "geometry": {"type": "Point", "coordinates": [-95.724878, 44.946036]}},
{"type": "Feature", "id": "jSv4YtB2QJWh7pIRWFgVnVxZDpg=", "properties": {"ref": "257", "@spider": "shopko", "addr:street_address": "2806 Woodman Drive", "addr:city": "Altoona", "addr:state": "WI", "addr:postcode": "54720", "addr:country": "US", "name": "Shopko Optical Altoona", "phone": "534-444-2968", "website": "https://www.shopko.com/eye-care/wi/altoona/store-257/", "opening_hours": "Mo-Fr 09:00-19:00; Sa 09:00-15:00", "image": "https://www.shopko.com/wp-content/uploads/2022/06/Store-257-Altoona-scaled.jpg", "brand": "Shopko Optical", "brand:wikidata": "Q109228833"}, "geometry": {"type": "Point", "coordinates": [-91.457923, 44.817089]}},
{"type": "Feature", "id": "oKWEmdUlVKRVOZmbfi1mDALJvHk=", "properties": {"ref": "287", "@spider": "shopko", "addr:street_address": "1139 W Main Street", "addr:city": "Whitewater", "addr:state": "WI", "addr:postcode": "53190", "addr:country": "US", "name": "Shopko Optical Whitewater", "phone": "262-731-6328", "website": "https://www.shopko.com/eye-care/wi/whitewater/store-287/", "opening_hours": "Mo-Fr 09:00-19:00; Sa 09:00-15:00", "image": "https://www.shopko.com/wp-content/uploads/2022/06/287-scaled.jpg", "brand": "Shopko Optical", "brand:wikidata": "Q109228833"}, "geometry": {"type": "Point", "coordinates": [-88.750868, 42.834381]}},
{"type": "Feature", "id": "yzpyZEZrwFupjNWdkvkQ6sxX1II=", "properties": {"ref": "264", "@spider": "shopko", "addr:street_address": "212 3rd St NW", "addr:city": "Bemidji", "addr:state": "MN", "addr:postcode": "56001", "addr:country": "US", "name": "Shopko Optical Bemidji", "phone": "218-751-8313", "website": "https://www.shopko.com/eye-care/mn/bemidji/store-264/", "opening_hours": "Mo-Fr 09:00-19:00; Sa 09:00-15:00", "image": "https://www.shopko.com/wp-content/uploads/2019/12/shopko-optical-logo.png", "brand": "Shopko Optical", "brand:wikidata": "Q109228833"}, "geometry": {"type": "Point", "coordinates": [-94.881995, 47.470229]}},
{"type": "Feature", "id": "F1INxqvh3S0glYQt6HKegpnmGWU=", "properties": {"ref": "263", "@spider": "shopko", "addr:street_address": "1629 Blake Ave", "addr:city": "Albert Lea", "addr:state": "MN", "addr:postcode": "56007", "addr:country": "US", "name": "Shopko Optical Albert Lea", "phone": "507-318-4200", "website": "https://www.shopko.com/eye-care/mn/albert-lea/store-263/", "opening_hours": "Mo-Fr 09:00-19:00; Sa 09:00-15:00", "image": "https://www.shopko.com/wp-content/uploads/2022/03/Store-263-Albert-Lea-MN-scaled-e1649253454534.jpg", "brand": "Shopko Optical", "brand:wikidata": "Q109228833"}, "geometry": {"type": "Point", "coordinates": [-93.32868, 43.664263]}},
{"type": "Feature", "id": "YN5Q5UYpoU3p5rZP-bQ-PHOgBY0=", "properties": {"ref": "261", "@spider": "shopko", "addr:street_address": "1528 W Springfield Rd", "addr:city": "Taylorville", "addr:state": "IL", "addr:postcode": "62568", "addr:country": "US", "name": "Shopko Optical Taylorville", "phone": "217-606-7855", "website": "https://www.shopko.com/eye-care/il/taylorville/store-261/", "opening_hours": "Mo-Fr 09:00-19:00; Sa 09:00-15:00", "image": "https://www.shopko.com/wp-content/uploads/2022/02/Store-261-Taylorville-IL-scaled-e1647358688734.jpg", "brand": "Shopko Optical", "brand:wikidata": "Q109228833"}, "geometry": {"type": "Point", "coordinates": [-89.31035, 39.56707]}},
{"type": "Feature", "id": "DKs15KYmp4EhSzj4DsF4Kgahb-Y=", "properties": {"ref": "262", "@spider": "shopko", "addr:street_address": "980 Milwaukee Ave", "addr:city": "Burlington", "addr:state": "WI", "addr:postcode": "53105", "addr:country": "US", "name": "Shopko Optical Burlington", "phone": "262-698-4163", "website": "https://www.shopko.com/eye-care/wi/burlington/store-262/", "opening_hours": "Mo-Fr 09:00-19:00; Sa 09:00-15:00", "image": "https://www.shopko.com/wp-content/uploads/2019/12/shopko-optical-logo.png", "brand": "Shopko Optical", "brand:wikidata": "Q109228833"}, "geometry": {"type": "Point", "coordinates": [-88.266655, 42.688898]}},
{"type": "Feature", "id": "Hn_dYWnIoQYyRjM5aOglrGZVns0=", "properties": {"ref": "259", "@spider": "shopko", "addr:street_address": "760 S. Sawburg Ave.", "addr:city": "Alliance", "addr:state": "OH", "addr:postcode": "44601", "addr:country": "US", "name": "Warner Eye Care & Optical", "phone": "330-821-4362", "website": "https://www.shopko.com/eye-care/oh/alliance/store-259/", "opening_hours": "Mo-Fr 09:00-19:00; Sa 09:00-15:00", "image": "https://www.shopko.com/wp-content/uploads/2019/12/shopko-optical-logo.png", "brand": "Shopko Optical", "brand:wikidata": "Q109228833"}, "geometry": {"type": "Point", "coordinates": [-81.1342, 40.91455]}},
{"type": "Feature", "id": "9ZLCyO9BmRvdqGeEFMG0GhtS0J8=", "properties": {"ref": "260", "@spider": "shopko", "addr:street_address": "3351 E 24th St.", "addr:city": "Fremont", "addr:state": "NE", "addr:postcode": "68025", "addr:country": "US", "name": "Shopko Optical Fremont", "phone": "402-704-6964", "website": "https://www.shopko.com/eye-care/ne/fremont/store-260/", "opening_hours": "Mo-Fr 09:00-19:00; Sa 09:00-15:00", "image": "https://www.shopko.com/wp-content/uploads/2019/12/shopko-optical-logo.png", "brand": "Shopko Optical", "brand:wikidata": "Q109228833"}, "geometry": {"type": "Point", "coordinates": [-96.45432, 41.452026]}},
{"type": "Feature", "id": "DtSCqxvFX36CAwZ_2qrn6_Yk3oA=", "properties": {"ref": "255", "@spider": "shopko", "addr:street_address": "2800 Sarah Lane", "addr:city": "Waunakee", "addr:state": "WI", "addr:postcode": "53597", "addr:country": "US", "name": "Shopko Optical Waunakee", "phone": "608-602-5251", "website": "https://www.shopko.com/eye-care/wi/waunakee/store-255/", "opening_hours": "Mo-Fr 09:00-19:00; Sa 09:00-15:00", "image": "https://www.shopko.com/wp-content/uploads/2022/01/255-scaled-e1643130970229.jpg", "brand": "Shopko Optical", "brand:wikidata": "Q109228833"}, "geometry": {"type": "Point", "coordinates": [-89.470152, 43.111504]}},
{"type": "Feature", "id": "IUae5xEOa8gXP57wvoJmzv5XJf0=", "properties": {"ref": "231", "@spider": "shopko", "addr:street_address": "1550 W. Lane Rd.", "addr:city": "Machesney Park", "addr:state": "IL", "addr:postcode": "61115", "addr:country": "US", "name": "Shopko Optical Machesney Park", "phone": "815-668-0533", "website": "https://www.shopko.com/eye-care/il/machesney-park/store-231/", "opening_hours": "Mo-Fr 09:00-19:00; Sa 09:00-15:00", "image": "https://www.shopko.com/wp-content/uploads/2020/10/Store-231-Machesney-Park-IL.jpg", "brand": "Shopko Optical", "brand:wikidata": "Q109228833"}, "geometry": {"type": "Point", "coordinates": [-89.025413, 42.366028]}},
{"type": "Feature", "id": "UcgMj_9q6uZaOA7icVyRUkaq4us=", "properties": {"ref": "230", "@spider": "shopko", "addr:street_address": "9940 N IL Rt 47", "addr:city": "Huntley", "addr:state": "IL", "addr:postcode": "60142", "addr:country": "US", "name": "Shopko Optical Huntley", "phone": "847-802-8788", "website": "https://www.shopko.com/eye-care/il/huntley/store-230/", "opening_hours": "Mo-Fr 09:00-19:00; Sa 09:00-15:00", "image": "https://www.shopko.com/wp-content/uploads/2020/08/Store-230-Huntley-IL.jpg", "brand": "Shopko Optical", "brand:wikidata": "Q109228833"}, "geometry": {"type": "Point", "coordinates": [-88.421232, 42.184164]}},
{"type": "Feature", "id": "vPxSpLKOa78XEjA1-5LHGCxx_es=", "properties": {"ref": "243", "@spider": "shopko", "addr:street_address": "2101 Sycamore Rd", "addr:city": "DeKalb", "addr:state": "IL", "addr:postcode": "60115", "addr:country": "US", "name": "Shopko Optical DeKalb", "phone": "815-981-8291", "website": "https://www.shopko.com/eye-care/il/dekalb/store-243/", "opening_hours": "Mo-Fr 09:00-19:00; Sa 09:00-15:00", "image": "https://www.shopko.com/wp-content/uploads/2021/06/Store-243-DeKalb-IL--scaled.jpg", "brand": "Shopko Optical", "brand:wikidata": "Q109228833"}, "geometry": {"type": "Point", "coordinates": [-88.728025, 41.950724]}},
{"type": "Feature", "id": "rsos2kL5tCsWKKdVZ1munxoDqx8=", "properties": {"ref": "223", "@spider": "shopko", "addr:street_address": "1190 S Randall Rd, Suite 104", "addr:city": "South Elgin", "addr:state": "IL", "addr:postcode": "60123", "addr:country": "US", "name": "Shopko Optical South Elgin", "phone": "847-957-9047", "website": "https://www.shopko.com/eye-care/il/elgin/store-223/", "opening_hours": "Mo-Fr 09:00-19:00; Sa 09:00-15:00", "image": "https://www.shopko.com/wp-content/uploads/2020/10/Store-223-Elgin-IL-resized.jpg", "brand": "Shopko Optical", "brand:wikidata": "Q109228833"}, "geometry": {"type": "Point", "coordinates": [-88.336791, 42.002381]}},
{"type": "Feature", "id": "z5Qe8FirqjIh-f8PM5DAC6LYkEE=", "properties": {"ref": "235", "@spider": "shopko", "addr:street_address": "1167 N Eola Road", "addr:city": "Aurora", "addr:state": "IL", "addr:postcode": "60502", "addr:country": "US", "name": "Shopko Optical Aurora", "phone": "630-506-6868", "website": "https://www.shopko.com/eye-care/il/aurora/store-235/", "opening_hours": "Mo-Fr 09:00-19:00; Sa 09:00-15:00", "image": "https://www.shopko.com/wp-content/uploads/2021/03/Store-235-Aurora-IL.jpg", "brand": "Shopko Optical", "brand:wikidata": "Q109228833"}, "geometry": {"type": "Point", "coordinates": [-88.240092, 41.780402]}},
{"type": "Feature", "id": "8pNIi_MXKBLQEEz4kb5POecoEDE=", "properties": {"ref": "254", "@spider": "shopko", "addr:street_address": "16720 Harrison St.", "addr:city": "Omaha", "addr:state": "NE", "addr:postcode": "68136", "addr:country": "US", "name": "Shopko Optical Omaha Southwest", "phone": "531-541-6449", "website": "https://www.shopko.com/eye-care/ne/omaha/store-254/", "opening_hours": "Mo-Fr 09:00-19:00; Sa 09:00-15:00", "image": "https://www.shopko.com/wp-content/uploads/2021/12/Omaha-e1642081059610.jpg", "brand": "Shopko Optical", "brand:wikidata": "Q109228833"}, "geometry": {"type": "Point", "coordinates": [-96.1344083, 41.232786]}},
{"type": "Feature", "id": "1WKihNQEWbrZvaaPrx42NDX-Kc0=", "properties": {"ref": "256", "@spider": "shopko", "addr:street_address": "110 N Ankeny Blvd", "addr:city": "Ankeny", "addr:state": "IA", "addr:postcode": "50023", "addr:country": "US", "name": "Shopko Optical Ankeny", "phone": "515-877-3111", "website": "https://www.shopko.com/eye-care/ia/ankeny/store-256/", "opening_hours": "Mo-Fr 09:00-19:00; Sa 09:00-15:00", "image": "https://www.shopko.com/wp-content/uploads/2021/11/256-scaled.jpg", "brand": "Shopko Optical", "brand:wikidata": "Q109228833"}, "geometry": {"type": "Point", "coordinates": [-93.60108, 41.73232]}},
{"type": "Feature", "id": "XQ42lHr-ppNzjciQUbNmowOzqIU=", "properties": {"ref": "246", "@spider": "shopko", "addr:street_address": "28952 W Route 120", "addr:city": "Lakemoor", "addr:state": "IL", "addr:postcode": "60051", "addr:country": "US", "name": "Shopko Optical Lakemoor", "phone": "815-900-5803", "website": "https://www.shopko.com/eye-care/il/lakemoor/store-246-2/", "opening_hours": "Mo-Fr 09:00-19:00; Sa 09:00-15:00", "image": "https://www.shopko.com/wp-content/uploads/2019/12/shopko-optical-logo.png", "brand": "Shopko Optical", "brand:wikidata": "Q109228833"}, "geometry": {"type": "Point", "coordinates": [-88.19797, 42.328914]}},
{"type": "Feature", "id": "7CAiUPgb9FFmc2Z5Z0n7E46cYIM=", "properties": {"ref": "258", "@spider": "shopko", "addr:street_address": "2 W Grand Ave Ste 107", "addr:city": "Fox Lake", "addr:state": "IL", "addr:postcode": "60020", "addr:country": "US", "name": "Shopko Optical Fox Lake", "phone": "847-587-0901", "website": "https://www.shopko.com/eye-care/il/fox-lake/store-258/", "opening_hours": "Mo-Fr 09:00-19:00; Sa 09:00-15:00", "image": "https://www.shopko.com/wp-content/uploads/2019/12/shopko-optical-logo.png", "brand": "Shopko Optical", "brand:wikidata": "Q109228833"}, "geometry": {"type": "Point", "coordinates": [-88.1847733367365, 42.39724027]}},
{"type": "Feature", "id": "HyeHB874icxIh-qRKYu3_5qUutc=", "properties": {"ref": "245", "@spider": "shopko", "addr:street_address": "1811 N. 84th St.", "addr:city": "Lincoln", "addr:state": "NE", "addr:postcode": "68505", "addr:country": "US", "name": "Shopko Optical Lincoln East", "phone": "531-530-0905", "website": "https://www.shopko.com/eye-care/ne/lincoln/store-245/", "opening_hours": "Mo-Fr 09:00-19:00; Sa 09:00-15:00", "image": "https://www.shopko.com/wp-content/uploads/2019/12/shopko-optical-logo.png", "brand": "Shopko Optical", "brand:wikidata": "Q109228833"}, "geometry": {"type": "Point", "coordinates": [-96.60645, 40.83104]}},
{"type": "Feature", "id": "MpUTlZ4XBB4d_jkwH7wbhfq1g8I=", "properties": {"ref": "252", "@spider": "shopko", "addr:street_address": "3016 Osborne Dr E", "addr:city": "Hastings", "addr:state": "NE", "addr:postcode": "68901", "addr:country": "US", "name": "Shopko Optical Hastings", "phone": "402-831-3182", "website": "https://www.shopko.com/eye-care/ne/hastings/store-252/", "opening_hours": "Mo-Fr 09:00-19:00; Sa 09:00-15:00", "image": "https://www.shopko.com/wp-content/uploads/2019/12/shopko-optical-logo.png", "brand": "Shopko Optical", "brand:wikidata": "Q109228833"}, "geometry": {"type": "Point", "coordinates": [-98.38247, 40.61644]}},
{"type": "Feature", "id": "uBjL8LK_JVvaaMPWJnZ0J3GMaSk=", "properties": {"ref": "229", "@spider": "shopko", "addr:street_address": "11995 Business Park Blvd", "addr:city": "Champlin", "addr:state": "MN", "addr:postcode": "55316", "addr:country": "US", "name": "Shopko Optical Champlin", "phone": "763-343-5937", "website": "https://www.shopko.com/eye-care/mn/champlin/store-229/", "opening_hours": "Mo-Fr 09:00-19:00; Sa 09:00-15:00", "image": "https://www.shopko.com/wp-content/uploads/2020/10/Store-229-Champlin-MN.jpg", "brand": "Shopko Optical", "brand:wikidata": "Q109228833"}, "geometry": {"type": "Point", "coordinates": [-93.390383, 45.17317]}},
{"type": "Feature", "id": "BpJK_EumGuf_97ONrdemugPBB3s=", "properties": {"ref": "236", "@spider": "shopko", "addr:street_address": "2220 Badger Drive", "addr:city": "Hudson", "addr:state": "WI", "addr:postcode": "54016", "addr:country": "US", "name": "Shopko Optical Hudson", "phone": "715-954-6063", "website": "https://www.shopko.com/eye-care/wi/hudson/store-236/", "opening_hours": "Mo-Fr 09:00-19:00; Sa 09:00-15:00", "image": "https://www.shopko.com/wp-content/uploads/2021/03/Store-236-Hudson-WI.jpg", "brand": "Shopko Optical", "brand:wikidata": "Q109228833"}, "geometry": {"type": "Point", "coordinates": [-92.72573, 44.96148]}},
{"type": "Feature", "id": "0brnwpP7FjREeWeefBx62DRmyGY=", "properties": {"ref": "242", "@spider": "shopko", "addr:street_address": "971 County Road E East", "addr:city": "Vadnais Heights", "addr:state": "MN", "addr:postcode": "55127", "addr:country": "US", "name": "Shopko Optical Vadnais Heights", "phone": "651-877-1009", "website": "https://www.shopko.com/eye-care/mn/vadnais-heights/store-242/", "opening_hours": "Mo-Fr 09:00-19:00; Sa 09:00-15:00", "image": "https://www.shopko.com/wp-content/uploads/2021/04/Store-242-Vadnais-Heights-MN-.jpg", "brand": "Shopko Optical", "brand:wikidata": "Q109228833"}, "geometry": {"type": "Point", "coordinates": [-93.06096, 45.05066]}},
{"type": "Feature", "id": "pRGDn_5ORY-8RQbV1mDaO5WXpSo=", "properties": {"ref": "253", "@spider": "shopko", "addr:street_address": "300 Western Ave", "addr:city": "Faribault", "addr:state": "MN", "addr:postcode": "55021", "addr:country": "US", "name": "Shopko Optical Faribault", "phone": "507-330-8169", "website": "https://www.shopko.com/eye-care/mn/faribault/store-253/", "opening_hours": "Mo-Fr 09:00-19:00; Sa 09:00-15:00", "image": "https://www.shopko.com/wp-content/uploads/2019/12/shopko-optical-logo.png", "brand": "Shopko Optical", "brand:wikidata": "Q109228833"}, "geometry": {"type": "Point", "coordinates": [-93.303803, 44.293214]}},
{"type": "Feature", "id": "QtB5oZLZpgIynuXmAPS8zd32PzU=", "properties": {"ref": "247", "@spider": "shopko", "addr:street_address": "2480 State Rd 138", "addr:city": "Stoughton", "addr:state": "WI", "addr:postcode": "53589", "addr:country": "US", "name": "Shopko Optical Stoughton", "phone": "608-889-1048", "website": "https://www.shopko.com/eye-care/wi/stoughton/store-247/", "opening_hours": "Mo-Fr 09:00-19:00; Sa 09:00-15:00", "image": "https://www.shopko.com/wp-content/uploads/2021/07/Store-247-Stoughton-WI.jpg", "brand": "Shopko Optical", "brand:wikidata": "Q109228833"}, "geometry": {"type": "Point", "coordinates": [-89.25154, 42.91863]}},
{"type": "Feature", "id": "0SmgHg5T9UKElm_uswYD5Yy6LJw=", "properties": {"ref": "250", "@spider": "shopko", "addr:street_address": "101 N Western Ave", "addr:city": "Waupaca", "addr:state": "WI", "addr:postcode": "54981", "addr:country": "US", "name": "Shopko Optical Waupaca", "phone": "534-400-2069", "website": "https://www.shopko.com/eye-care/wi/waupaca/store-250/", "opening_hours": "Mo-Fr 09:00-19:00; Sa 09:00-15:00", "image": "https://www.shopko.com/wp-content/uploads/2021/07/Store-250-Waupaca-WI.jpg", "brand": "Shopko Optical", "brand:wikidata": "Q109228833"}, "geometry": {"type": "Point", "coordinates": [-89.10374, 44.35751]}},
{"type": "Feature", "id": "5qIx0R95F_RR-qgd7pXAPSHFYkA=", "properties": {"ref": "251", "@spider": "shopko", "addr:street_address": "1267 W Broadway Ave", "addr:city": "Forest Lake", "addr:state": "MN", "addr:postcode": "55025", "addr:country": "US", "name": "Shopko Optical Forest Lake", "phone": "651-899-1790", "website": "https://www.shopko.com/eye-care/mn/forest-lake/store-251/", "opening_hours": "Mo-Fr 09:00-19:00; Sa 09:00-15:00", "image": "https://www.shopko.com/wp-content/uploads/2021/07/Store-251-Forest-Lake-MN.jpg", "brand": "Shopko Optical", "brand:wikidata": "Q109228833"}, "geometry": {"type": "Point", "coordinates": [-92.99957761, 45.27990688]}},
{"type": "Feature", "id": "Fogbfra7iRjs7RFNG5Nuo_aUyIo=", "properties": {"ref": "249", "@spider": "shopko", "addr:street_address": "2936 Showplace Dr", "addr:city": "Naperville", "addr:state": "IL", "addr:postcode": "60564", "addr:country": "US", "name": "Shopko Optical Naperville", "phone": "331-529-5068", "website": "https://www.shopko.com/eye-care/il/naperville/store-249/", "opening_hours": "Mo-Fr 09:00-19:00; Sa 09:00-15:00", "image": "https://www.shopko.com/wp-content/uploads/2021/07/Store-249-Naperville.jpg", "brand": "Shopko Optical", "brand:wikidata": "Q109228833"}, "geometry": {"type": "Point", "coordinates": [-88.2067359, 41.71122144]}},
{"type": "Feature", "id": "8X1HJIe7bJ5zHlmrInnUduXMgwg=", "properties": {"ref": "248", "@spider": "shopko", "addr:street_address": "3835 W Old Shakopee Rd", "addr:city": "Bloomington", "addr:state": "MN", "addr:postcode": "55431", "addr:country": "US", "name": "Shopko Optical Bloomington", "phone": "651-461-0151", "website": "https://www.shopko.com/eye-care/mn/bloomington/store-248/", "opening_hours": "Mo-Fr 09:00-19:00; Sa 09:00-15:00", "image": "https://www.shopko.com/wp-content/uploads/2019/12/shopko-optical-logo.png", "brand": "Shopko Optical", "brand:wikidata": "Q109228833"}, "geometry": {"type": "Point", "coordinates": [-93.3289422216187, 44.8103596251702]}},
{"type": "Feature", "id": "DQTUvBkXBAkyITD0SrwcsRNYSDA=", "properties": {"ref": "244", "@spider": "shopko", "addr:street_address": "5722 S 108th Street", "addr:city": "Hales Corners", "addr:state": "WI", "addr:postcode": "53130", "addr:country": "US", "name": "Shopko Optical Hales Corners", "phone": "414-786-2942", "website": "https://www.shopko.com/eye-care/wi/hales-corners/store-244/", "opening_hours": "Mo-Fr 09:00-19:00; Sa 09:00-15:00", "image": "https://www.shopko.com/wp-content/uploads/2021/06/Store-244-Hales-Corners-WI-2-scaled.jpg", "brand": "Shopko Optical", "brand:wikidata": "Q109228833"}, "geometry": {"type": "Point", "coordinates": [-88.04782528, 42.94025423]}},
{"type": "Feature", "id": "35rnjF6ha7Krjx2crzHQ4QZs_1o=", "properties": {"ref": "225", "@spider": "shopko", "addr:street_address": "101 Oak Ave", "addr:city": "Menomonie", "addr:state": "WI", "addr:postcode": "54751", "addr:country": "US", "name": "Shopko Optical Menomonie", "phone": "715-953-3849", "website": "https://www.shopko.com/eye-care/wi/menomonie/store-225/", "opening_hours": "Mo-Fr 09:00-19:00; Sa 09:00-15:00", "image": "https://www.shopko.com/wp-content/uploads/2021/04/Store-225-Menomonie-WI-resized.jpg", "brand": "Shopko Optical", "brand:wikidata": "Q109228833"}, "geometry": {"type": "Point", "coordinates": [-91.9314, 44.90332]}},
{"type": "Feature", "id": "YcA_l69g0HVr9L9WO0Rk7UPhywc=", "properties": {"ref": "238", "@spider": "shopko", "addr:street_address": "1595 E Sumner St.", "addr:city": "Hartford", "addr:state": "WI", "addr:postcode": "53027", "addr:country": "US", "name": "Shopko Optical Hartford", "phone": "262-709-2763", "website": "https://www.shopko.com/eye-care/wi/hartford/store-238/", "opening_hours": "Mo-Fr 09:00-19:00; Sa 09:00-15:00", "image": "https://www.shopko.com/wp-content/uploads/2021/04/238.jpg", "brand": "Shopko Optical", "brand:wikidata": "Q109228833"}, "geometry": {"type": "Point", "coordinates": [-88.3501, 43.316713]}},
{"type": "Feature", "id": "3o3ItvWUj7F44ZVR3yLTkewh6Kk=", "properties": {"ref": "241", "@spider": "shopko", "addr:street_address": "554 E IL Route 173", "addr:city": "Antioch", "addr:state": "IL", "addr:postcode": "60002", "addr:country": "US", "name": "Shopko Optical Antioch", "phone": "224-603-7150", "website": "https://www.shopko.com/eye-care/il/antioch/store-241/", "opening_hours": "Mo-Fr 09:00-19:00; Sa 09:00-15:00", "image": "https://www.shopko.com/wp-content/uploads/2021/04/Store-241-Antioch-IL-1.jpg", "brand": "Shopko Optical", "brand:wikidata": "Q109228833"}, "geometry": {"type": "Point", "coordinates": [-88.06157, 42.46608]}},
{"type": "Feature", "id": "R1yPSk26kJZnhpkbcfW4w8Nyzjc=", "properties": {"ref": "237", "@spider": "shopko", "addr:street_address": "14150 Highway 13 S", "addr:city": "Savage", "addr:state": "MN", "addr:postcode": "55378", "addr:country": "US", "name": "Shopko Optical Savage", "phone": "612-895-1758", "website": "https://www.shopko.com/eye-care/mn/savage/store-237/", "opening_hours": "Mo-Fr 09:00-19:00; Sa 09:00-15:00", "image": "https://www.shopko.com/wp-content/uploads/2021/03/Store-237-Savage-MN-scaled-e1626716056580.jpeg", "brand": "Shopko Optical", "brand:wikidata": "Q109228833"}, "geometry": {"type": "Point", "coordinates": [-93.37989, 44.74716]}},
{"type": "Feature", "id": "Vct-L5X8VBkt_Ur00vGtHKiJueA=", "properties": {"ref": "239", "@spider": "shopko", "addr:street_address": "13189 60th St N", "addr:city": "Oak Park Heights", "addr:state": "MN", "addr:postcode": "55082", "addr:country": "US", "name": "Shopko Optical Oak Park Heights", "phone": "651-390-6090", "website": "https://www.shopko.com/eye-care/mn/oak-park-heights/store-239/", "opening_hours": "Mo-Fr 09:00-19:00; Sa 09:00-15:00", "image": "https://www.shopko.com/wp-content/uploads/2021/03/Store-239-Oak-Park-Heights-MN.jpg", "brand": "Shopko Optical", "brand:wikidata": "Q109228833"}, "geometry": {"type": "Point", "coordinates": [-92.83951, 45.03591]}},
{"type": "Feature", "id": "WKAajoGh4-TbDQqpfNcjMYppi9g=", "properties": {"ref": "240", "@spider": "shopko", "addr:street_address": "331 W Parrish Lane", "addr:city": "Centerville", "addr:state": "UT", "addr:postcode": "84014", "addr:country": "US", "name": "Shopko Optical Centerville", "phone": "801-683-1053", "website": "https://www.shopko.com/eye-care/ut/centerville/store-240/", "opening_hours": "Mo-Fr 09:00-19:00; Sa 09:00-15:00", "image": "https://www.shopko.com/wp-content/uploads/2021/03/Store-240-Centerville-UT.jpg", "brand": "Shopko Optical", "brand:wikidata": "Q109228833"}, "geometry": {"type": "Point", "coordinates": [-111.88414, 40.92117]}},
{"type": "Feature", "id": "FsX1cq6V78H_fngDoNvev1JpsL4=", "properties": {"ref": "234", "@spider": "shopko", "addr:street_address": "8920 S. 71st Plz", "addr:city": "Papillion", "addr:state": "NE", "addr:postcode": "68133", "addr:country": "US", "name": "Shopko Optical Papillion", "phone": "402-979-8533", "website": "https://www.shopko.com/eye-care/ne/papillion/store-234/", "opening_hours": "Mo-Fr 09:00-19:00; Sa 09:00-15:00", "image": "https://www.shopko.com/wp-content/uploads/2021/03/Store-234-Papillion-NE-e1626379152801.jpg", "brand": "Shopko Optical", "brand:wikidata": "Q109228833"}, "geometry": {"type": "Point", "coordinates": [-96.02293, 41.16992]}},
{"type": "Feature", "id": "334ACBze4cbm8PQ-hpF9SW0L2d4=", "properties": {"ref": "232", "@spider": "shopko", "addr:street_address": "1073 E Johnson Street", "addr:city": "Fond du Lac", "addr:state": "WI", "addr:postcode": "54935", "addr:country": "US", "name": "Shopko Optical Fond du Lac East", "phone": "920-375-5483", "website": "https://www.shopko.com/eye-care/wi/fond-du-lac/store-232/", "opening_hours": "Mo-Fr 09:00-19:00; Sa 09:00-15:00", "image": "https://www.shopko.com/wp-content/uploads/2021/01/Store-232-Fond-Du-Lac-WI-1.jpg", "brand": "Shopko Optical", "brand:wikidata": "Q109228833"}, "geometry": {"type": "Point", "coordinates": [-88.406113, 43.783691]}},
{"type": "Feature", "id": "gNyY9uqQJpxpk6HUzFUJa15NxtA=", "properties": {"ref": "226", "@spider": "shopko", "addr:street_address": "120 N. Grand Ave", "addr:city": "Sun Prairie", "addr:state": "WI", "addr:postcode": "53590", "addr:country": "US", "name": "Shopko Optical Sun Prairie", "phone": "608-839-7008", "website": "https://www.shopko.com/eye-care/wi/sun-prairie/store-226/", "opening_hours": "Mo-Fr 09:00-19:00; Sa 09:00-15:00", "image": "https://www.shopko.com/wp-content/uploads/2020/10/Store-226-Sun-Prairie-WI-scaled.jpg", "brand": "Shopko Optical", "brand:wikidata": "Q109228833"}, "geometry": {"type": "Point", "coordinates": [-89.265113, 43.178595]}},
{"type": "Feature", "id": "sQUqqDHF9HZqfxukhp5Iw2KUCVU=", "properties": {"ref": "224", "@spider": "shopko", "addr:street_address": "2268 W. Mason St.", "addr:city": "Green Bay", "addr:state": "WI", "addr:postcode": "54303", "addr:country": "US", "name": "Shopko Optical Green Bay West", "phone": "920-259-7068", "website": "https://www.shopko.com/eye-care/wi/green-bay/store-224/", "opening_hours": "Mo-Fr 09:00-19:00; Sa 09:00-15:00", "image": "https://www.shopko.com/wp-content/uploads/2020/10/Store-224-Green-Bay-West-WI-1-scaled-e1627490873691.jpg", "brand": "Shopko Optical", "brand:wikidata": "Q109228833"}, "geometry": {"type": "Point", "coordinates": [-88.087622, 44.525178]}},
{"type": "Feature", "id": "DG-54sxS3d_LG2wVkT2gT0ZQB4w=", "properties": {"ref": "228", "@spider": "shopko", "addr:street_address": "1607 Losey Blvd S", "addr:city": "La Crosse", "addr:state": "WI", "addr:postcode": "54601", "addr:country": "US", "name": "Shopko Optical La Crosse", "phone": "608-459-1920", "website": "https://www.shopko.com/eye-care/wi/la-crosse/store-228/", "opening_hours": "Mo-Fr 09:00-19:00; Sa 09:00-15:00", "image": "https://www.shopko.com/wp-content/uploads/2020/09/Store-228-La-Crosse-WI.jpeg", "brand": "Shopko Optical", "brand:wikidata": "Q109228833"}, "geometry": {"type": "Point", "coordinates": [-91.2192, 43.79507]}},
{"type": "Feature", "id": "1yLB4Cj6zyshzfwUy_SliUNZ37c=", "properties": {"ref": "227", "@spider": "shopko", "addr:street_address": "631 Hometown Cir", "addr:city": "Verona", "addr:state": "WI", "addr:postcode": "53593", "addr:country": "US", "name": "Shopko Optical Verona", "phone": "608-653-6218", "website": "https://www.shopko.com/eye-care/wi/verona/store-227/", "opening_hours": "Mo-Fr 09:00-19:00; Sa 09:00-15:00", "image": "https://www.shopko.com/wp-content/uploads/2020/09/Store-227-Verona-WI-1.jpg", "brand": "Shopko Optical", "brand:wikidata": "Q109228833"}, "geometry": {"type": "Point", "coordinates": [-89.521, 42.99402]}},
{"type": "Feature", "id": "_SggVZNvvYZYJMKJ1NrmK_TNByc=", "properties": {"ref": "233", "@spider": "shopko", "addr:street_address": "1205 N Main St", "addr:city": "Logan", "addr:state": "UT", "addr:postcode": "84341", "addr:country": "US", "name": "Shopko Optical Logan", "phone": "435-554-1660", "website": "https://www.shopko.com/eye-care/ut/logan/store-233/", "opening_hours": "Mo-Fr 09:00-19:00; Sa 09:00-15:00", "image": "https://www.shopko.com/wp-content/uploads/2020/08/Shopko_LoganUT_09092020_51.jpg", "brand": "Shopko Optical", "brand:wikidata": "Q109228833"}, "geometry": {"type": "Point", "coordinates": [-111.835287, 41.754612]}},
{"type": "Feature", "id": "jTZ-A7TnJlSS1H5xjTk6ZsASjKI=", "properties": {"ref": "222", "@spider": "shopko", "addr:street_address": "3330 E 10th St", "addr:city": "Sioux Falls", "addr:state": "SD", "addr:postcode": "57103", "addr:country": "US", "name": "Shopko Optical Sioux Falls East", "phone": "605-705-6351", "website": "https://www.shopko.com/eye-care/sd/sioux-falls/store-222/", "opening_hours": "Mo-Fr 09:00-19:00; Sa 09:00-15:00", "image": "https://www.shopko.com/wp-content/uploads/2020/05/Store-222-Sioux-Falls-East.jpg", "brand": "Shopko Optical", "brand:wikidata": "Q109228833"}, "geometry": {"type": "Point", "coordinates": [-96.684127, 43.547039]}},
{"type": "Feature", "id": "JO4T_b7qUuU73jfRssVyMVZG_5k=", "properties": {"ref": "221", "@spider": "shopko", "addr:street_address": "5006 Northwest Hwy", "addr:city": "Crystal Lake", "addr:state": "IL", "addr:postcode": "60014", "addr:country": "US", "name": "Shopko Optical Crystal Lake", "phone": "779-205-0315", "website": "https://www.shopko.com/eye-care/il/crystal-lake/store-221/", "opening_hours": "Mo-Fr 09:00-19:00; Sa 09:00-15:00", "image": "https://www.shopko.com/wp-content/uploads/2020/02/Store-221-Crystal-Lake-IL-resized-this-one--e1626195630852.jpg", "brand": "Shopko Optical", "brand:wikidata": "Q109228833"}, "geometry": {"type": "Point", "coordinates": [-88.294794, 42.226639]}},
{"type": "Feature", "id": "Rz9IL1W8LdrCzWi3ROAM-p8f63Q=", "properties": {"ref": "177", "@spider": "shopko", "addr:street_address": "2314 Lineville Rd", "addr:city": "Suamico", "addr:state": "WI", "addr:postcode": "54313", "addr:country": "US", "name": "Shopko Optical Suamico", "phone": "920-434-5845", "website": "https://www.shopko.com/eye-care/wi/suamico/store-177/", "opening_hours": "Mo-Fr 09:00-19:00; Sa 09:00-15:00", "image": "https://www.shopko.com/wp-content/uploads/2021/05/177-new.jpg", "brand": "Shopko Optical", "brand:wikidata": "Q109228833"}, "geometry": {"type": "Point", "coordinates": [-88.07236, 44.59177]}},
{"type": "Feature", "id": "IHqGuF2oHl9B0lgCb0WeMqjQiVo=", "properties": {"ref": "029", "@spider": "shopko", "addr:street_address": "422 Gammon Place", "addr:city": "Madison", "addr:state": "WI", "addr:postcode": "53719", "addr:country": "US", "name": "Shopko Optical Madison West", "phone": "608-833-5700", "website": "https://www.shopko.com/eye-care/wi/madison/store-029/", "opening_hours": "Mo-Fr 09:00-19:00; Sa 09:00-15:00", "image": "https://www.shopko.com/wp-content/uploads/2020/01/029.jpg", "brand": "Shopko Optical", "brand:wikidata": "Q109228833"}, "geometry": {"type": "Point", "coordinates": [-89.502257, 43.059579]}},
{"type": "Feature", "id": "s7RQHqp2Ppiz0n3yI43JN4pzKgQ=", "properties": {"ref": "005", "@spider": "shopko", "addr:street_address": "723 Main Ave", "addr:city": "De Pere", "addr:state": "WI", "addr:postcode": "54115", "addr:country": "US", "name": "Shopko Optical De Pere", "phone": "920-336-3390", "website": "https://www.shopko.com/eye-care/wi/de-pere/store-005/", "opening_hours": "Mo-Fr 09:00-19:00; Sa 09:00-15:00", "image": "https://www.shopko.com/wp-content/uploads/2019/10/005.jpg", "brand": "Shopko Optical", "brand:wikidata": "Q109228833"}, "geometry": {"type": "Point", "coordinates": [-88.080299, 44.448876]}},
{"type": "Feature", "id": "ThQRnqhui0peRU-jb_54Dt6-Ybo=", "properties": {"ref": "220", "@spider": "shopko", "addr:street_address": "123 N Mall Dr", "addr:city": "Grand Chute", "addr:state": "WI", "addr:postcode": "54913", "addr:country": "US", "name": "Shopko Optical Grand Chute", "phone": "920-939-8211", "website": "https://www.shopko.com/eye-care/wi/grand-chute/store-220/", "opening_hours": "Mo-Fr 09:00-19:00; Sa 09:00-15:00", "image": "https://www.shopko.com/wp-content/uploads/2019/10/220-2.jpg", "brand": "Shopko Optical", "brand:wikidata": "Q109228833"}, "geometry": {"type": "Point", "coordinates": [-88.470027, 44.2627447]}},
{"type": "Feature", "id": "4v2QqOtNG71KlvzgSXxeV6VS650=", "properties": {"ref": "219", "@spider": "shopko", "addr:street_address": "1440 Capitol Dr", "addr:city": "Pewaukee", "addr:state": "WI", "addr:postcode": "53072", "addr:country": "US", "name": "Shopko Optical Pewaukee", "phone": "262-820-2656", "website": "https://www.shopko.com/eye-care/wi/pewaukee/store-219/", "opening_hours": "Mo-Fr 09:00-19:00; Sa 09:00-15:00", "image": "https://www.shopko.com/wp-content/uploads/2020/01/219.jpg", "brand": "Shopko Optical", "brand:wikidata": "Q109228833"}, "geometry": {"type": "Point", "coordinates": [-88.2286286, 43.082846]}},
{"type": "Feature", "id": "sew5rwgK7zht7rw5GgLGumFfbuY=", "properties": {"ref": "218", "@spider": "shopko", "addr:street_address": "1810 Jackson St", "addr:city": "Oshkosh", "addr:state": "WI", "addr:postcode": "54901", "addr:country": "US", "name": "Shopko Optical Oshkosh North", "phone": "920-385-1363", "website": "https://www.shopko.com/eye-care/wi/oshkosh/store-218/", "opening_hours": "Mo-Fr 09:00-19:00; Sa 09:00-15:00", "image": "https://www.shopko.com/wp-content/uploads/2020/01/218.jpg", "brand": "Shopko Optical", "brand:wikidata": "Q109228833"}, "geometry": {"type": "Point", "coordinates": [-88.5422644, 44.0401445]}},
{"type": "Feature", "id": "MH3TM7WzU2Mh_m1NNwMaxWGtH6M=", "properties": {"ref": "217", "@spider": "shopko", "addr:street_address": "1166 W Sunset Dr", "addr:city": "Waukesha", "addr:state": "WI", "addr:postcode": "53189", "addr:country": "US", "name": "Shopko Optical Waukesha", "phone": "262-574-9410", "website": "https://www.shopko.com/eye-care/wi/waukesha/store-217/", "opening_hours": "Mo-Fr 09:00-19:00; Sa 09:00-15:00", "image": "https://www.shopko.com/wp-content/uploads/2019/10/217.jpg", "brand": "Shopko Optical", "brand:wikidata": "Q109228833"}, "geometry": {"type": "Point", "coordinates": [-88.2566509, 42.9900493]}},
{"type": "Feature", "id": "g7qGupOir1f91Z7MIucVVf50xY8=", "properties": {"ref": "216", "@spider": "shopko", "addr:street_address": "10996 N Port Washington Rd", "addr:city": "Mequon", "addr:state": "WI", "addr:postcode": "53092", "addr:country": "US", "name": "Shopko Optical Mequon", "phone": "262-240-9870", "website": "https://www.shopko.com/eye-care/wi/mequon/store-216/", "opening_hours": "Mo-Fr 09:00-19:00; Sa 09:00-15:00", "image": "https://www.shopko.com/wp-content/uploads/2019/10/Store-216-Mequon-WI-1-scaled.jpg", "brand": "Shopko Optical", "brand:wikidata": "Q109228833"}, "geometry": {"type": "Point", "coordinates": [-87.9234065, 43.2188192]}},
{"type": "Feature", "id": "DeEXSgqhNyKX8y7doxX_ksV6jx0=", "properties": {"ref": "175", "@spider": "shopko", "addr:street_address": "2801 Pine Lake Rd", "addr:city": "Lincoln", "addr:state": "NE", "addr:postcode": "68516", "addr:country": "US", "name": "Shopko Optical Lincoln Southeast", "phone": "402-420-6644", "website": "https://www.shopko.com/eye-care/ne/lincoln/store-175/", "opening_hours": "Mo-Fr 09:00-19:00; Sa 09:00-15:00", "image": "https://www.shopko.com/wp-content/uploads/2020/01/175.jpg", "brand": "Shopko Optical", "brand:wikidata": "Q109228833"}, "geometry": {"type": "Point", "coordinates": [-96.680748, 40.7386144]}},
{"type": "Feature", "id": "jD5LApiwq42Xz52dac_XizW-O_k=", "properties": {"ref": "171", "@spider": "shopko", "addr:street_address": "174 Crossroads Dr", "addr:city": "Plover", "addr:state": "WI", "addr:postcode": "54467", "addr:country": "US", "name": "Shopko Optical Plover", "phone": "715-342-9634", "website": "https://www.shopko.com/eye-care/wi/plover/store-171/", "opening_hours": "Mo-Fr 09:00-19:00; Sa 09:00-15:00", "image": "https://www.shopko.com/wp-content/uploads/2020/01/171.jpg", "brand": "Shopko Optical", "brand:wikidata": "Q109228833"}, "geometry": {"type": "Point", "coordinates": [-89.512314, 44.495998]}},
{"type": "Feature", "id": "BC830dhiS7EGV0IuSySj8KVO58c=", "properties": {"ref": "170", "@spider": "shopko", "addr:street_address": "2185 Lincoln St", "addr:city": "Rhinelander", "addr:state": "WI", "addr:postcode": "54501", "addr:country": "US", "name": "Shopko Optical Rhinelander", "phone": "715-362-4800", "website": "https://www.shopko.com/eye-care/wi/rhinelander/store-170/", "opening_hours": "Mo-Fr 09:00-19:00; Sa 09:00-15:00", "image": "https://www.shopko.com/wp-content/uploads/2020/01/170.jpg", "brand": "Shopko Optical", "brand:wikidata": "Q109228833"}, "geometry": {"type": "Point", "coordinates": [-89.380535, 45.63502]}},
{"type": "Feature", "id": "mPDVNnDOn5Q6suxzCfOZeHutKyg=", "properties": {"ref": "164", "@spider": "shopko", "addr:street_address": "3500 Dodge St", "addr:city": "Dubuque", "addr:state": "IA", "addr:postcode": "52003", "addr:country": "US", "name": "Shopko Optical Dubuque", "phone": "563-583-5895", "website": "https://www.shopko.com/eye-care/ia/dubuque/store-164/", "opening_hours": "Mo-Fr 09:00-19:00; Sa 09:00-15:00", "image": "https://www.shopko.com/wp-content/uploads/2020/01/164.jpg", "brand": "Shopko Optical", "brand:wikidata": "Q109228833"}, "geometry": {"type": "Point", "coordinates": [-90.7221322, 42.4907476]}},
{"type": "Feature", "id": "PumsNP2eTfXWLIZEUxXDJvsvNrs=", "properties": {"ref": "132", "@spider": "shopko", "addr:street_address": "2304 S Main St", "addr:city": "Rice Lake", "addr:state": "WI", "addr:postcode": "54868", "addr:country": "US", "name": "Shopko Optical Rice Lake", "phone": "715-236-7906", "website": "https://www.shopko.com/eye-care/wi/rice-lake/store-132/", "opening_hours": "Mo-Fr 09:00-19:00; Sa 09:00-15:00", "image": "https://www.shopko.com/wp-content/uploads/2020/01/132.jpg", "brand": "Shopko Optical", "brand:wikidata": "Q109228833"}, "geometry": {"type": "Point", "coordinates": [-91.7362248, 45.4763219]}},
{"type": "Feature", "id": "12y3vsJs5s7i2_6Ga3xTGRou8DU=", "properties": {"ref": "127", "@spider": "shopko", "addr:street_address": "1741 E Geneva St", "addr:city": "Delavan", "addr:state": "WI", "addr:postcode": "53115", "addr:country": "US", "name": "Shopko Optical Delavan", "phone": "262-728-0068", "website": "https://www.shopko.com/eye-care/wi/delavan/store-127/", "opening_hours": "Mo-Fr 09:00-19:00; Sa 09:00-15:00", "image": "https://www.shopko.com/wp-content/uploads/2020/01/127.jpg", "brand": "Shopko Optical", "brand:wikidata": "Q109228833"}, "geometry": {"type": "Point", "coordinates": [-88.6143708, 42.6284521]}},
{"type": "Feature", "id": "R614axBbVe8j8D9d8DvcNdxb_lM=", "properties": {"ref": "120", "@spider": "shopko", "addr:street_address": "110 8th St", "addr:city": "Monroe", "addr:state": "WI", "addr:postcode": "53566", "addr:country": "US", "name": "Shopko Optical Monroe", "phone": "608-328-3333", "website": "https://www.shopko.com/eye-care/wi/monroe/store-120/", "opening_hours": "Mo-Fr 09:00-19:00; Sa 09:00-15:00", "image": "https://www.shopko.com/wp-content/uploads/2020/01/120.jpg", "brand": "Shopko Optical", "brand:wikidata": "Q109228833"}, "geometry": {"type": "Point", "coordinates": [-89.657409, 42.6020178]}},
{"type": "Feature", "id": "Dqx54E4ASWLParCKlIF0_-Xp-Ek=", "properties": {"ref": "116", "@spider": "shopko", "addr:street_address": "4097 Highway 28", "addr:city": "Sheboygan Falls", "addr:state": "WI", "addr:postcode": "53085", "addr:country": "US", "name": "Shopko Optical Sheboygan Falls", "phone": "920-458-5757", "website": "https://www.shopko.com/eye-care/wi/sheboygan-falls/store-116/", "opening_hours": "Mo-Fr 09:00-19:00; Sa 09:00-15:00", "image": "https://www.shopko.com/wp-content/uploads/2020/01/116.jpg", "brand": "Shopko Optical", "brand:wikidata": "Q109228833"}, "geometry": {"type": "Point", "coordinates": [-87.766679, 43.716728]}},
{"type": "Feature", "id": "logiqxvDIfrMFUbsWljvsTCi6C0=", "properties": {"ref": "102", "@spider": "shopko", "addr:street_address": "2910 Roosevelt Rd", "addr:city": "Marinette", "addr:state": "WI", "addr:postcode": "54143", "addr:country": "US", "name": "Shopko Optical Marinette", "phone": "715-735-0260", "website": "https://www.shopko.com/eye-care/wi/marinette/store-102/", "opening_hours": "Mo-Fr 09:00-19:00; Sa 09:00-15:00", "image": "https://www.shopko.com/wp-content/uploads/2020/01/102.jpg", "brand": "Shopko Optical", "brand:wikidata": "Q109228833"}, "geometry": {"type": "Point", "coordinates": [-87.6588863, 45.073444]}},
{"type": "Feature", "id": "HctyJZ5P6rRgoUOfGl46Ztu_jCs=", "properties": {"ref": "100", "@spider": "shopko", "addr:street_address": "1154 Westowne Dr", "addr:city": "Neenah", "addr:state": "WI", "addr:postcode": "54956", "addr:country": "US", "name": "Shopko Optical Neenah", "phone": "920-751-0275", "website": "https://www.shopko.com/eye-care/wi/neenah/store-100/", "opening_hours": "Mo-Fr 09:00-19:00; Sa 09:00-15:00", "image": "https://www.shopko.com/wp-content/uploads/2019/10/100.jpg", "brand": "Shopko Optical", "brand:wikidata": "Q109228833"}, "geometry": {"type": "Point", "coordinates": [-88.4934095, 44.1732207]}},
{"type": "Feature", "id": "nhgdKEXLKEVlfIKWU17mpNOTywQ=", "properties": {"ref": "097", "@spider": "shopko", "addr:street_address": "2843 S 5600 W", "addr:city": "West Valley City", "addr:state": "UT", "addr:postcode": "84120", "addr:country": "US", "name": "Shopko Optical West Valley City", "phone": "801-967-6300", "website": "https://www.shopko.com/eye-care/ut/west-valley-city/store-097/", "opening_hours": "Mo-Fr 09:00-19:00; Sa 09:00-15:00", "image": "https://www.shopko.com/wp-content/uploads/2020/01/097.jpg", "brand": "Shopko Optical", "brand:wikidata": "Q109228833"}, "geometry": {"type": "Point", "coordinates": [-112.0242397, 40.7084315]}},
{"type": "Feature", "id": "shSmua5St-3CIx87QIrvT-F721Y=", "properties": {"ref": "084", "@spider": "shopko", "addr:street_address": "1520 W 9000 S", "addr:city": "West Jordan", "addr:state": "UT", "addr:postcode": "84088", "addr:country": "US", "name": "Shopko Optical West Jordan", "phone": "801-561-7300", "website": "https://www.shopko.com/eye-care/ut/west-jordan/store-084/", "opening_hours": "Mo-Fr 09:00-19:00; Sa 09:00-15:00", "image": "https://www.shopko.com/wp-content/uploads/2020/01/084.jpg", "brand": "Shopko Optical", "brand:wikidata": "Q109228833"}, "geometry": {"type": "Point", "coordinates": [-111.9344473, 40.5879381]}},
{"type": "Feature", "id": "TSftXOLXHdwVAWYHDqOWIT2h38I=", "properties": {"ref": "080", "@spider": "shopko", "addr:street_address": "3868 E Washington Ave", "addr:city": "Madison", "addr:state": "WI", "addr:postcode": "53704", "addr:country": "US", "name": "Shopko Optical Madison East", "phone": "608-246-2161", "website": "https://www.shopko.com/eye-care/wi/madison/store-080/", "opening_hours": "Mo-Fr 09:00-19:00; Sa 09:00-15:00", "image": "https://www.shopko.com/wp-content/uploads/2020/01/080.jpg", "brand": "Shopko Optical", "brand:wikidata": "Q109228833"}, "geometry": {"type": "Point", "coordinates": [-89.3196134, 43.1207893]}},
{"type": "Feature", "id": "lVb4iMVT7k-okbRAAhi4AXNDqHI=", "properties": {"ref": "076", "@spider": "shopko", "addr:street_address": "2812 W 41st St", "addr:city": "Sioux Falls", "addr:state": "SD", "addr:postcode": "57105", "addr:country": "US", "name": "Shopko Optical Sioux Falls West", "phone": "605-338-3225", "website": "https://www.shopko.com/eye-care/sd/sioux-falls/store-076/", "opening_hours": "Mo-Fr 09:00-19:00; Sa 09:00-15:00", "image": "https://www.shopko.com/wp-content/uploads/2020/01/076.jpg", "brand": "Shopko Optical", "brand:wikidata": "Q109228833"}, "geometry": {"type": "Point", "coordinates": [-96.7607295, 43.5151134]}},
{"type": "Feature", "id": "l74ZsrRozG13jzAHh0skYWJnUbA=", "properties": {"ref": "066", "@spider": "shopko", "addr:street_address": "9326 N Division St", "addr:city": "Spokane", "addr:state": "WA", "addr:postcode": "99218", "addr:country": "US", "name": "Shopko Optical Spokane", "phone": "509-466-7136", "website": "https://www.shopko.com/eye-care/wa/spokane/store-066/", "opening_hours": "Mo-Fr 09:00-19:00; Sa 09:00-15:00", "image": "https://www.shopko.com/wp-content/uploads/2019/10/066.jpg", "brand": "Shopko Optical", "brand:wikidata": "Q109228833"}, "geometry": {"type": "Point", "coordinates": [-117.4097483, 47.7423295]}},
{"type": "Feature", "id": "kqIu7bZsq-5AR0e4WT3t8DjqpY0=", "properties": {"ref": "057", "@spider": "shopko", "addr:street_address": "1459 W Service Dr", "addr:city": "Winona", "addr:state": "MN", "addr:postcode": "55987", "addr:country": "US", "name": "Shopko Optical Winona", "phone": "507-452-6175", "website": "https://www.shopko.com/eye-care/mn/winona/store-057/", "opening_hours": "Mo-Fr 09:00-19:00; Sa 09:00-15:00", "image": "https://www.shopko.com/wp-content/uploads/2020/01/057.jpg", "brand": "Shopko Optical", "brand:wikidata": "Q109228833"}, "geometry": {"type": "Point", "coordinates": [-91.6778722, 44.0468428]}},
{"type": "Feature", "id": "NYHxxnsGXAOlK1mzKxxtIlmdeGw=", "properties": {"ref": "054", "@spider": "shopko", "addr:street_address": "1519 9th Ave SE", "addr:city": "Watertown", "addr:state": "SD", "addr:postcode": "57201", "addr:country": "US", "name": "Shopko Optical Watertown, SD", "phone": "605-882-2021", "website": "https://www.shopko.com/eye-care/sd/watertown/store-054/", "opening_hours": "Mo-Fr 09:00-19:00; Sa 09:00-15:00", "image": "https://www.shopko.com/wp-content/uploads/2020/01/054.jpg", "brand": "Shopko Optical", "brand:wikidata": "Q109228833"}, "geometry": {"type": "Point", "coordinates": [-97.0906032, 44.8906189]}},
{"type": "Feature", "id": "rxRHnvDZlQcHiY6FFtcRrFYI1TI=", "properties": {"ref": "049", "@spider": "shopko", "addr:street_address": "3307 7th Ave SE", "addr:city": "Aberdeen", "addr:state": "SD", "addr:postcode": "57401", "addr:country": "US", "name": "Shopko Optical Aberdeen", "phone": "605-225-7677", "website": "https://www.shopko.com/eye-care/sd/aberdeen/store-049/", "opening_hours": "Mo-Fr 09:00-19:00; Sa 09:00-15:00", "image": "https://www.shopko.com/wp-content/uploads/2020/01/049.jpg", "brand": "Shopko Optical", "brand:wikidata": "Q109228833"}, "geometry": {"type": "Point", "coordinates": [-98.443036, 45.458873]}},
{"type": "Feature", "id": "KkYVskmsYsLldB7Hcp3tTNSlXrg=", "properties": {"ref": "048", "@spider": "shopko", "addr:street_address": "1130 S 13th St", "addr:city": "Norfolk", "addr:state": "NE", "addr:postcode": "68701", "addr:country": "US", "name": "Shopko Optical Norfolk", "phone": "402-379-1434", "website": "https://www.shopko.com/eye-care/ne/norfolk/store-048/", "opening_hours": "Mo-Fr 09:00-19:00; Sa 09:00-15:00", "image": "https://www.shopko.com/wp-content/uploads/2020/01/048.jpg", "brand": "Shopko Optical", "brand:wikidata": "Q109228833"}, "geometry": {"type": "Point", "coordinates": [-97.4269895, 42.0192798]}},
{"type": "Feature", "id": "snrkG-1VVO5CXBVP_ASfwL1nMoY=", "properties": {"ref": "045", "@spider": "shopko", "addr:street_address": "848 Cornhusker Rd", "addr:city": "Bellevue", "addr:state": "NE", "addr:postcode": "68123", "addr:country": "US", "name": "Shopko Optical Bellevue", "phone": "402-293-1840", "website": "https://www.shopko.com/eye-care/ne/bellevue/store-045/", "opening_hours": "Mo-Fr 09:00-19:00; Sa 09:00-15:00", "image": "https://www.shopko.com/wp-content/uploads/2019/10/Store-45-Bellevue-NE.jpg", "brand": "Shopko Optical", "brand:wikidata": "Q109228833"}, "geometry": {"type": "Point", "coordinates": [-95.92924, 41.1581597]}},
{"type": "Feature", "id": "WUKqfFkpfpHOkmLRvPKHZHT7e4o=", "properties": {"ref": "044", "@spider": "shopko", "addr:street_address": "3044 S 84th St", "addr:city": "Omaha", "addr:state": "NE", "addr:postcode": "68124", "addr:country": "US", "name": "Shopko Optical Omaha South", "phone": "402-391-1143", "website": "https://www.shopko.com/eye-care/ne/omaha/store-044/", "opening_hours": "Mo-Fr 09:00-19:00; Sa 09:00-15:00", "image": "https://www.shopko.com/wp-content/uploads/2020/01/044.jpg", "brand": "Shopko Optical", "brand:wikidata": "Q109228833"}, "geometry": {"type": "Point", "coordinates": [-96.043755, 41.230919]}},
{"type": "Feature", "id": "kav3KbBUyLMgXc-YHahq9sikfHY=", "properties": {"ref": "042", "@spider": "shopko", "addr:street_address": "1212 S Koeller St", "addr:city": "Oshkosh", "addr:state": "WI", "addr:postcode": "54902", "addr:country": "US", "name": "Shopko Optical Oshkosh South", "phone": "920-426-5730", "website": "https://www.shopko.com/eye-care/wi/oshkosh/store-042/", "opening_hours": "Mo-Fr 09:00-19:00; Sa 09:00-15:00", "image": "https://www.shopko.com/wp-content/uploads/2020/01/042.jpg", "brand": "Shopko Optical", "brand:wikidata": "Q109228833"}, "geometry": {"type": "Point", "coordinates": [-88.580046, 44.00786]}},
{"type": "Feature", "id": "imr582-9UfCXiBr1ayjYskFC0KY=", "properties": {"ref": "041", "@spider": "shopko", "addr:street_address": "1004 18th Ave NW", "addr:city": "Austin", "addr:state": "MN", "addr:postcode": "55912", "addr:country": "US", "name": "Shopko Optical Austin", "phone": "507-437-8228", "website": "https://www.shopko.com/eye-care/mn/austin/store-041/", "opening_hours": "Mo-Fr 09:00-19:00; Sa 09:00-15:00", "image": "https://www.shopko.com/wp-content/uploads/2020/01/041.jpg", "brand": "Shopko Optical", "brand:wikidata": "Q109228833"}, "geometry": {"type": "Point", "coordinates": [-92.9863662, 43.6855596]}},
{"type": "Feature", "id": "lG7XuxGhfkStebY9X6NzbCGSUgo=", "properties": {"ref": "038", "@spider": "shopko", "addr:street_address": "1919 N Diers Ave", "addr:city": "Grand Island", "addr:state": "NE", "addr:postcode": "68803", "addr:country": "US", "name": "Shopko Optical Grand Island", "phone": "308-382-7661", "website": "https://www.shopko.com/eye-care/ne/grand-island/store-038/", "opening_hours": "Mo-Fr 09:00-19:00; Sa 09:00-15:00", "image": "https://www.shopko.com/wp-content/uploads/2020/01/038.jpg", "brand": "Shopko Optical", "brand:wikidata": "Q109228833"}, "geometry": {"type": "Point", "coordinates": [-98.384119, 40.9395408]}},
{"type": "Feature", "id": "-4jqYNfeLIQRgBwFKAqwNwMtz38=", "properties": {"ref": "033", "@spider": "shopko", "addr:street_address": "1490 Oneida St", "addr:city": "Menasha", "addr:state": "WI", "addr:postcode": "54915", "addr:country": "US", "name": "Shopko Optical Menasha", "phone": "920-725-3752", "website": "https://www.shopko.com/eye-care/wi/appleton/store-033/", "opening_hours": "Mo-Fr 09:00-19:00; Sa 09:00-15:00", "image": "https://www.shopko.com/wp-content/uploads/2019/10/033.jpg", "brand": "Shopko Optical", "brand:wikidata": "Q109228833"}, "geometry": {"type": "Point", "coordinates": [-88.4045649, 44.2292355]}},
{"type": "Feature", "id": "AHjqfTIafrJ7QfTCou8y-iTsznU=", "properties": {"ref": "032", "@spider": "shopko", "addr:street_address": "6000 Monona Dr", "addr:city": "Monona", "addr:state": "WI", "addr:postcode": "53716", "addr:country": "US", "name": "Shopko Optical Monona", "phone": "608-222-9420", "website": "https://www.shopko.com/eye-care/wi/monona/store-032/", "opening_hours": "Mo-Fr 09:00-19:00; Sa 09:00-15:00", "image": "https://www.shopko.com/wp-content/uploads/2019/10/032.jpg", "brand": "Shopko Optical", "brand:wikidata": "Q109228833"}, "geometry": {"type": "Point", "coordinates": [-89.3246951, 43.0536758]}},
{"type": "Feature", "id": "SpF45KSeR8jlwM8Nb7uCol8Kobo=", "properties": {"ref": "026", "@spider": "shopko", "addr:street_address": "2787 Milwaukee Rd", "addr:city": "Beloit", "addr:state": "WI", "addr:postcode": "53511", "addr:country": "US", "name": "Shopko Optical Beloit", "phone": "608-365-2512", "website": "https://www.shopko.com/eye-care/wi/beloit/store-026/", "opening_hours": "Mo-Fr 09:00-19:00; Sa 09:00-15:00", "image": "https://www.shopko.com/wp-content/uploads/2020/01/026.jpg", "brand": "Shopko Optical", "brand:wikidata": "Q109228833"}, "geometry": {"type": "Point", "coordinates": [-88.9848987, 42.5246169]}},
{"type": "Feature", "id": "r0P8P9qLVOEoVWbIFTn6q3UfsBM=", "properties": {"ref": "024", "@spider": "shopko", "addr:street_address": "943 W Clairemont Ave", "addr:city": "Eau Claire", "addr:state": "WI", "addr:postcode": "54701", "addr:country": "US", "name": "Shopko Optical Eau Claire", "phone": "715-832-7723", "website": "https://www.shopko.com/eye-care/wi/eau-claire/store-024/", "opening_hours": "Mo-Fr 09:00-19:00; Sa 09:00-15:00", "image": "https://www.shopko.com/wp-content/uploads/2019/10/1632271840245-1.jpg", "brand": "Shopko Optical", "brand:wikidata": "Q109228833"}, "geometry": {"type": "Point", "coordinates": [-91.51273844877144, 44.79245264155592]}},
{"type": "Feature", "id": "KYt4kSP21MBIa_trDYoZw1UoVnU=", "properties": {"ref": "019", "@spider": "shopko", "addr:street_address": "1500 S Church St", "addr:city": "Watertown", "addr:state": "WI", "addr:postcode": "53094", "addr:country": "US", "name": "Shopko Optical Watertown, WI", "phone": "920-261-9225", "website": "https://www.shopko.com/eye-care/wi/watertown/store-019/", "opening_hours": "Mo-Fr 09:00-19:00; Sa 09:00-15:00", "image": "https://www.shopko.com/wp-content/uploads/2020/01/019.jpg", "brand": "Shopko Optical", "brand:wikidata": "Q109228833"}, "geometry": {"type": "Point", "coordinates": [-88.7317898, 43.1790257]}},
{"type": "Feature", "id": "Ys_g2Cx6iRSRnXCJM17XEtdohV4=", "properties": {"ref": "018", "@spider": "shopko", "addr:street_address": "1745 S Main St", "addr:city": "West Bend", "addr:state": "WI", "addr:postcode": "53095", "addr:country": "US", "name": "Shopko Optical West Bend", "phone": "262-334-7077", "website": "https://www.shopko.com/eye-care/wi/west-bend/store-018/", "opening_hours": "Mo-Fr 09:00-19:00; Sa 09:00-15:00", "image": "https://www.shopko.com/wp-content/uploads/2020/01/018.jpg", "brand": "Shopko Optical", "brand:wikidata": "Q109228833"}, "geometry": {"type": "Point", "coordinates": [-88.180002, 43.398602]}},
{"type": "Feature", "id": "wHWoL0EBmmy52mpSQog93sGsQfU=", "properties": {"ref": "010", "@spider": "shopko", "addr:street_address": "3107 US Hwy 41 West", "addr:city": "Marquette", "addr:state": "MI", "addr:postcode": "49855", "addr:country": "US", "name": "Shopko Optical Marquette", "phone": "906-228-4120", "website": "https://www.shopko.com/eye-care/mi/marquette/store-010/", "opening_hours": "Mo-Fr 09:00-19:00; Sa 09:00-15:00", "image": "https://www.shopko.com/wp-content/uploads/2020/01/010.jpg", "brand": "Shopko Optical", "brand:wikidata": "Q109228833"}, "geometry": {"type": "Point", "coordinates": [-87.4561684, 46.5488014]}},
{"type": "Feature", "id": "npS6xPU_prKIkrGMyZUTv77Ki8Q=", "properties": {"ref": "008", "@spider": "shopko", "addr:street_address": "1045 E Grand Ave", "addr:city": "Rothschild", "addr:state": "WI", "addr:postcode": "54474", "addr:country": "US", "name": "Shopko Optical Rothschild", "phone": "715-359-0649", "website": "https://www.shopko.com/eye-care/wi/rothschild/store-008/", "opening_hours": "Mo-Fr 09:00-19:00; Sa 09:00-15:00", "image": "https://www.shopko.com/wp-content/uploads/2020/01/008.jpg", "brand": "Shopko Optical", "brand:wikidata": "Q109228833"}, "geometry": {"type": "Point", "coordinates": [-89.609672, 44.898251]}},
{"type": "Feature", "id": "taYeU9eA4XrcrgybVFi_ZLJHAnk=", "properties": {"ref": "003", "@spider": "shopko", "addr:street_address": "4550 Calumet Ave", "addr:city": "Manitowoc", "addr:state": "WI", "addr:postcode": "54220", "addr:country": "US", "name": "Shopko Optical Manitowoc", "phone": "920-683-2244", "website": "https://www.shopko.com/eye-care/wi/manitowoc/store-003/", "opening_hours": "Mo-Fr 09:00-19:00; Sa 09:00-15:00", "image": "https://www.shopko.com/wp-content/uploads/2019/10/003.jpg", "brand": "Shopko Optical", "brand:wikidata": "Q109228833"}, "geometry": {"type": "Point", "coordinates": [-87.7063696, 44.0740108]}},
{"type": "Feature", "id": "GWoMoK2M1iyYDsgN5ArYt1BcJ0M=", "properties": {"ref": "140", "@spider": "shopko", "addr:street_address": "1705 W Morton Ave", "addr:city": "Jacksonville", "addr:state": "IL", "addr:postcode": "62650", "addr:country": "US", "name": "Shopko Optical Jacksonville", "phone": "217-245-6070", "website": "https://www.shopko.com/eye-care/il/jacksonville/store-140/", "opening_hours": "Mo-Fr 09:00-19:00; Sa 09:00-15:00", "image": "https://www.shopko.com/wp-content/uploads/2019/10/140-2.jpg", "brand": "Shopko Optical", "brand:wikidata": "Q109228833"}, "geometry": {"type": "Point", "coordinates": [-90.2583735, 39.7227357]}},
{"type": "Feature", "id": "7zYatLiXcfhEYCkPh03LiwfQ7Og=", "properties": {"ref": "133", "@spider": "shopko", "addr:street_address": "1918 Gateway Center Dr", "addr:city": "Belvidere", "addr:state": "IL", "addr:postcode": "61008", "addr:country": "US", "name": "Shopko Optical Belvidere", "phone": "815-547-3456", "website": "https://www.shopko.com/eye-care/il/belvidere/store-133/", "opening_hours": "Mo-Fr 09:00-19:00; Sa 09:00-15:00", "image": "https://www.shopko.com/wp-content/uploads/2020/01/133.jpg", "brand": "Shopko Optical", "brand:wikidata": "Q109228833"}, "geometry": {"type": "Point", "coordinates": [-88.8198797, 42.2381691]}},
{"type": "Feature", "id": "rljU0-h0IzPeodbeY1D-Sckytsw=", "properties": {"ref": "130", "@spider": "shopko", "addr:street_address": "1674 Commerce Ct", "addr:city": "River Falls", "addr:state": "WI", "addr:postcode": "54022", "addr:country": "US", "name": "Shopko Optical River Falls", "phone": "715-425-6144", "website": "https://www.shopko.com/eye-care/wi/river-falls/store-130/", "opening_hours": "Mo-Fr 09:00-19:00; Sa 09:00-15:00", "image": "https://www.shopko.com/wp-content/uploads/2021/09/130.jpg", "brand": "Shopko Optical", "brand:wikidata": "Q109228833"}, "geometry": {"type": "Point", "coordinates": [-92.6257148, 44.8780471]}},
{"type": "Feature", "id": "l46SVkhZjMrxvuogWeQJb7972sI=", "properties": {"ref": "128", "@spider": "shopko", "addr:street_address": "155 Hutton Ranch Rd", "addr:city": "Kalispell", "addr:state": "MT", "addr:postcode": "59901", "addr:country": "US", "name": "Shopko Optical Kalispell", "phone": "406-257-1278", "website": "https://www.shopko.com/eye-care/mt/kalispell/store-128/", "opening_hours": "Mo-Fr 09:00-19:00; Sa 09:00-15:00", "image": "https://www.shopko.com/wp-content/uploads/2020/01/128.jpg", "brand": "Shopko Optical", "brand:wikidata": "Q109228833"}, "geometry": {"type": "Point", "coordinates": [-114.3280604, 48.2333832]}},
{"type": "Feature", "id": "msrfJo2nzzgCZpSEAdNXWksn1lk=", "properties": {"ref": "125", "@spider": "shopko", "addr:street_address": "1524 S West Ave", "addr:city": "Freeport", "addr:state": "IL", "addr:postcode": "61032", "addr:country": "US", "name": "Shopko Optical Freeport", "phone": "815-232-3057", "website": "https://www.shopko.com/eye-care/il/freeport/store-125/", "opening_hours": "Mo-Fr 09:00-19:00; Sa 09:00-15:00", "image": "https://www.shopko.com/wp-content/uploads/2020/01/125.jpg", "brand": "Shopko Optical", "brand:wikidata": "Q109228833"}, "geometry": {"type": "Point", "coordinates": [-89.6329983, 42.2826088]}},
{"type": "Feature", "id": "el6VqbrZ6jiJqeMbL-Q43chvk7M=", "properties": {"ref": "122", "@spider": "shopko", "addr:street_address": "1052 Springwater Ave", "addr:city": "Wenatchee", "addr:state": "WA", "addr:postcode": "98801", "addr:country": "US", "name": "Shopko Optical Wenatchee", "phone": "509-663-8868", "website": "https://www.shopko.com/eye-care/wa/wenatchee/store-122/", "opening_hours": "Mo-Fr 09:00-19:00; Sa 09:00-15:00", "image": "https://www.shopko.com/wp-content/uploads/2020/01/122.jpg", "brand": "Shopko Optical", "brand:wikidata": "Q109228833"}, "geometry": {"type": "Point", "coordinates": [-120.3268834, 47.4372668]}},
{"type": "Feature", "id": "6NV7zl72aqLC2p7ICp7K03ylKuY=", "properties": {"ref": "119", "@spider": "shopko", "addr:street_address": "1600 S Galena Ave", "addr:city": "Dixon", "addr:state": "IL", "addr:postcode": "61021", "addr:country": "US", "name": "Shopko Optical Dixon", "phone": "815-284-3935", "website": "https://www.shopko.com/eye-care/il/dixon/store-119/", "opening_hours": "Mo-Fr 09:00-19:00; Sa 09:00-15:00", "image": "https://www.shopko.com/wp-content/uploads/2020/01/119.jpg", "brand": "Shopko Optical", "brand:wikidata": "Q109228833"}, "geometry": {"type": "Point", "coordinates": [-89.4759259, 41.82843]}},
{"type": "Feature", "id": "VC0CL7rmF9MOwhSNYdnYiGSIvOk=", "properties": {"ref": "099", "@spider": "shopko", "addr:street_address": "9417 State Road 16", "addr:city": "Onalaska", "addr:state": "WI", "addr:postcode": "54650", "addr:country": "US", "name": "Shopko Optical Onalaska", "phone": "608-781-2010", "website": "https://www.shopko.com/eye-care/wi/onalaska/store-099/", "opening_hours": "Mo-Fr 09:00-19:00; Sa 09:00-15:00", "image": "https://www.shopko.com/wp-content/uploads/2019/10/Store-099-Onalaska-1-e1634565175493.jpg", "brand": "Shopko Optical", "brand:wikidata": "Q109228833"}, "geometry": {"type": "Point", "coordinates": [-91.1903218, 43.8725233]}},
{"type": "Feature", "id": "mId0b2hlSj59C63971k3EkOabqc=", "properties": {"ref": "106", "@spider": "shopko", "addr:street_address": "316 S 24th St W", "addr:city": "Billings", "addr:state": "MT", "addr:postcode": "59102", "addr:country": "US", "name": "Shopko Optical Billings", "phone": "406-652-7297", "website": "https://www.shopko.com/eye-care/mt/billings/store-106/", "opening_hours": "Mo-Fr 09:00-19:00; Sa 09:00-15:00", "image": "https://www.shopko.com/wp-content/uploads/2020/01/106.jpg", "brand": "Shopko Optical", "brand:wikidata": "Q109228833"}, "geometry": {"type": "Point", "coordinates": [-108.5768913, 45.7639232]}},
{"type": "Feature", "id": "G8tKM-EgBgQIA8i8C-iQ5sPPPK0=", "properties": {"ref": "036", "@spider": "shopko", "addr:street_address": "1620 S Broadway Ave", "addr:city": "Rochester", "addr:state": "MN", "addr:postcode": "55904", "addr:country": "US", "name": "Shopko Optical Rochester", "phone": "507-281-0657", "website": "https://www.shopko.com/eye-care/mn/rochester/store-036/", "opening_hours": "Mo-Fr 09:00-19:00; Sa 09:00-15:00", "image": "https://www.shopko.com/wp-content/uploads/2020/01/036.jpg", "brand": "Shopko Optical", "brand:wikidata": "Q109228833"}, "geometry": {"type": "Point", "coordinates": [-92.462978, 43.998749]}},
{"type": "Feature", "id": "pKDXhD47PZUi5bBbgmwAZbmGGJU=", "properties": {"ref": "031", "@spider": "shopko", "addr:street_address": "3621 Market Ln", "addr:city": "Kenosha", "addr:state": "WI", "addr:postcode": "53144", "addr:country": "US", "name": "Shopko Optical Kenosha", "phone": "262-658-8119", "website": "https://www.shopko.com/eye-care/wi/kenosha/store-031/", "opening_hours": "Mo-Fr 09:00-19:00; Sa 09:00-15:00", "image": "https://www.shopko.com/wp-content/uploads/2020/01/031.jpg", "brand": "Shopko Optical", "brand:wikidata": "Q109228833"}, "geometry": {"type": "Point", "coordinates": [-87.878924, 42.605118]}},
{"type": "Feature", "id": "SrCghj5zk3IrAh56dCI46K02vlU=", "properties": {"ref": "030", "@spider": "shopko", "addr:street_address": "2029 Humes Rd", "addr:city": "Janesville", "addr:state": "WI", "addr:postcode": "53545", "addr:country": "US", "name": "Shopko Optical Janesville", "phone": "608-754-7411", "website": "https://www.shopko.com/eye-care/wi/janesville/store-030/", "opening_hours": "Mo-Fr 09:00-19:00; Sa 09:00-15:00", "image": "https://www.shopko.com/wp-content/uploads/2019/10/030.jpg", "brand": "Shopko Optical", "brand:wikidata": "Q109228833"}, "geometry": {"type": "Point", "coordinates": [-88.997393, 42.722067]}},
{"type": "Feature", "id": "t3elfg5m51u2X-41l1k2MpVrUNE=", "properties": {"ref": "028", "@spider": "shopko", "addr:street_address": "3525 E Calumet St", "addr:city": "Appleton", "addr:state": "WI", "addr:postcode": "54915", "addr:country": "US", "name": "Shopko Optical Appleton East", "phone": "920-788-4114", "website": "https://www.shopko.com/eye-care/wi/appleton/store-028/", "opening_hours": "Mo-Fr 09:00-19:00; Sa 09:00-15:00", "image": "https://www.shopko.com/wp-content/uploads/2020/01/028.jpg", "brand": "Shopko Optical", "brand:wikidata": "Q109228833"}, "geometry": {"type": "Point", "coordinates": [-88.3534541, 44.2420711]}},
{"type": "Feature", "id": "Qn4TkB00LhSfZWg_5tVmxuM6maY=", "properties": {"ref": "027", "@spider": "shopko", "addr:street_address": "2860 S Green Bay Rd", "addr:city": "Mount Pleasant", "addr:state": "WI", "addr:postcode": "53406", "addr:country": "US", "name": "Shopko Optical Racine", "phone": "262-637-3733", "website": "https://www.shopko.com/eye-care/wi/mount-pleasant/store-027/", "opening_hours": "Mo-Fr 09:00-19:00; Sa 09:00-15:00", "image": "https://www.shopko.com/wp-content/uploads/2019/10/027.jpg", "brand": "Shopko Optical", "brand:wikidata": "Q109228833"}, "geometry": {"type": "Point", "coordinates": [-87.8548679, 42.6980463]}},
{"type": "Feature", "id": "SzDBM9-DkrHkwrkoz5lxmbFKqzM=", "properties": {"ref": "025", "@spider": "shopko", "addr:street_address": "1101 E College Dr", "addr:city": "Marshall", "addr:state": "MN", "addr:postcode": "56258", "addr:country": "US", "name": "Shopko Optical Marshall", "phone": "507-537-9652", "website": "https://www.shopko.com/eye-care/mn/marshall/store-025/", "opening_hours": "Mo-Fr 09:00-19:00; Sa 09:00-15:00", "image": "https://www.shopko.com/wp-content/uploads/2019/10/Store-025-Marshall-MN-e1634736162565.jpg", "brand": "Shopko Optical", "brand:wikidata": "Q109228833"}, "geometry": {"type": "Point", "coordinates": [-95.7756623, 44.4509575]}},
{"type": "Feature", "id": "nt6dVScz70sC9cjcSRp2hthG110=", "properties": {"ref": "021", "@spider": "shopko", "addr:street_address": "1701 Madison Ave", "addr:city": "Mankato", "addr:state": "MN", "addr:postcode": "56001", "addr:country": "US", "name": "Shopko Optical Mankato", "phone": "507-387-6517", "website": "https://www.shopko.com/eye-care/mn/mankato/store-021/", "opening_hours": "Mo-Fr 09:00-19:00; Sa 09:00-15:00", "image": "https://www.shopko.com/wp-content/uploads/2019/10/021.jpg", "brand": "Shopko Optical", "brand:wikidata": "Q109228833"}, "geometry": {"type": "Point", "coordinates": [-93.9601855, 44.1664849]}},
{"type": "Feature", "id": "iwGtusy4Gn2m82BiUajbOkpUf5A=", "properties": {"ref": "017", "@spider": "shopko", "addr:street_address": "4051 W Division St", "addr:city": "St. Cloud", "addr:state": "MN", "addr:postcode": "56301", "addr:country": "US", "name": "Shopko Optical St. Cloud - <br> in front of Crossroads Mall", "phone": "320-253-5994", "website": "https://www.shopko.com/eye-care/mn/st-cloud/store-017/", "opening_hours": "Mo-Fr 09:00-19:00; Sa 09:00-15:00", "image": "https://www.shopko.com/wp-content/uploads/2019/10/Store-017-St.-Cloud-MN-2-scaled-e1634565099287.jpg", "brand": "Shopko Optical", "brand:wikidata": "Q109228833"}, "geometry": {"type": "Point", "coordinates": [-94.2085244, 45.5539029]}},
{"type": "Feature", "id": "A4uDwSbhIKbmBeEQvIdX2Z9fOAs=", "properties": {"ref": "016", "@spider": "shopko", "addr:street_address": "2502 3rd Ave N", "addr:city": "Escanaba", "addr:state": "MI", "addr:postcode": "49829", "addr:country": "US", "name": "Shopko Optical Escanaba", "phone": "906-786-2295", "website": "https://www.shopko.com/eye-care/mi/escanaba/store-016/", "opening_hours": "Mo-Fr 09:00-19:00; Sa 09:00-15:00", "image": "https://www.shopko.com/wp-content/uploads/2019/10/016.jpg", "brand": "Shopko Optical", "brand:wikidata": "Q109228833"}, "geometry": {"type": "Point", "coordinates": [-87.0820878, 45.749908]}},
{"type": "Feature", "id": "pw-CBnuvS6BpU-OuUqDrKU1yAnQ=", "properties": {"ref": "015", "@spider": "shopko", "addr:street_address": "1033 W Northland Ave", "addr:city": "Appleton", "addr:state": "WI", "addr:postcode": "54914", "addr:country": "US", "name": "Shopko Optical Appleton North", "phone": "920-731-4511", "website": "https://www.shopko.com/eye-care/wi/appleton/store-015/", "opening_hours": "Mo-Fr 09:00-19:00; Sa 09:00-15:00", "image": "https://www.shopko.com/wp-content/uploads/2020/01/015.jpg", "brand": "Shopko Optical", "brand:wikidata": "Q109228833"}, "geometry": {"type": "Point", "coordinates": [-88.4221368, 44.2868415]}},
{"type": "Feature", "id": "bqxUpxlro7jiZ6CL8dQnuTQkc88=", "properties": {"ref": "014", "@spider": "shopko", "addr:street_address": "820 Park Ave", "addr:city": "Beaver Dam", "addr:state": "WI", "addr:postcode": "53916", "addr:country": "US", "name": "Shopko Optical Beaver Dam", "phone": "920-887-3791", "website": "https://www.shopko.com/eye-care/wi/beaver-dam/store-014/", "opening_hours": "Mo-Fr 09:00-19:00; Sa 09:00-15:00", "image": "https://www.shopko.com/wp-content/uploads/2020/01/014.jpg", "brand": "Shopko Optical", "brand:wikidata": "Q109228833"}, "geometry": {"type": "Point", "coordinates": [-88.8185718, 43.4581726]}},
{"type": "Feature", "id": "qecZcEatOUDknCAdkjUswKCb-eY=", "properties": {"ref": "012", "@spider": "shopko", "addr:street_address": "4551 8th St S", "addr:city": "Wisconsin Rapids", "addr:state": "WI", "addr:postcode": "54494", "addr:country": "US", "name": "Shopko Optical Wisconsin Rapids", "phone": "715-423-1340", "website": "https://www.shopko.com/eye-care/wi/wisconsin-rapids/store-012/", "opening_hours": "Mo-Fr 09:00-19:00; Sa 09:00-15:00", "image": "https://www.shopko.com/wp-content/uploads/2020/01/012.jpg", "brand": "Shopko Optical", "brand:wikidata": "Q109228833"}, "geometry": {"type": "Point", "coordinates": [-89.8164777, 44.3535116]}},
{"type": "Feature", "id": "c3uN810Uwko31GkO_vLA-lfIBj4=", "properties": {"ref": "011", "@spider": "shopko", "addr:street_address": "W8159 US Hwy 2/141", "addr:city": "Iron Mountain", "addr:state": "MI", "addr:postcode": "49801", "addr:country": "US", "name": "Shopko Optical Iron Mountain", "phone": "906-779-9164", "website": "https://www.shopko.com/eye-care/mi/iron-mountain/store-011/", "opening_hours": "Mo-Fr 09:00-19:00; Sa 09:00-15:00", "image": "https://www.shopko.com/wp-content/uploads/2020/01/011.jpg", "brand": "Shopko Optical", "brand:wikidata": "Q109228833"}, "geometry": {"type": "Point", "coordinates": [-88.0354217, 45.8091343]}},
{"type": "Feature", "id": "ihtb5a495NUrNQkdAO2bUdqJNoI=", "properties": {"ref": "009", "@spider": "shopko", "addr:street_address": "717 S Central Ave", "addr:city": "Marshfield", "addr:state": "WI", "addr:postcode": "54449", "addr:country": "US", "name": "Shopko Optical Marshfield", "phone": "715-387-8608", "website": "https://www.shopko.com/eye-care/wi/marshfield/store-009/", "opening_hours": "Mo-Fr 09:00-19:00; Sa 09:00-15:00", "image": "https://www.shopko.com/wp-content/uploads/2020/01/009.jpg", "brand": "Shopko Optical", "brand:wikidata": "Q109228833"}, "geometry": {"type": "Point", "coordinates": [-90.1763868, 44.660839]}},
{"type": "Feature", "id": "BFfTw68le290IufXN0VJXRZthG8=", "properties": {"ref": "004", "@spider": "shopko", "addr:street_address": "2360 Costco Way", "addr:city": "Green Bay", "addr:state": "WI", "addr:postcode": "54311", "addr:country": "US", "name": "Shopko Optical Green Bay East", "phone": "920-468-4642", "website": "https://www.shopko.com/eye-care/wi/green-bay/store-004/", "opening_hours": "Mo-Fr 09:00-19:00; Sa 09:00-15:00", "image": "https://www.shopko.com/wp-content/uploads/2019/10/004.jpg", "brand": "Shopko Optical", "brand:wikidata": "Q109228833"}, "geometry": {"type": "Point", "coordinates": [-87.9883669, 44.4585443]}}]}